<?xml version="1.0" encoding="UTF-8"?>
<osm generator="osmapis" version="0.6">
	<node id="-589819" lat="62.7819027773" lon="7.1004833263">
		<tag k="fixme" v="consider natural=peak for the most distinct mountains in the district" />
		<tag k="name" v="Sporsnakken" />
		<tag k="natural" v="hill" />
		<tag k="place" v="locality" />
		<tag k="ssr:stedsnr" v="11861" />
	</node>
	<node id="-589813" lat="62.8876666644" lon="7.29644999163">
		<tag k="name" v="Kvitåtindan" />
		<tag k="natural" v="hill" />
		<tag k="place" v="locality" />
		<tag k="ssr:stedsnr" v="11614" />
	</node>
	<node id="-589812" lat="62.9030138924" lon="7.27298333103">
		<tag k="name" v="Stordalen" />
		<tag k="natural" v="valley" />
		<tag k="place" v="locality" />
		<tag k="ssr:stedsnr" v="11589" />
	</node>
	<node id="-589808" lat="62.8806333339" lon="7.08873332472">
		<tag k="fixme" v="consider natural=peak for the most distinct mountains in the district" />
		<tag k="name" v="Høglia" />
		<tag k="natural" v="hill" />
		<tag k="place" v="locality" />
		<tag k="ssr:stedsnr" v="11129" />
	</node>
	<node id="-589786" lat="62.876172977" lon="6.97981467211">
		<tag k="name" v="Høghaugen" />
		<tag k="natural" v="hill" />
		<tag k="place" v="locality" />
		<tag k="ssr:stedsnr" v="987930" />
	</node>
	<node id="-589785" lat="62.7568388914" lon="7.0889888868">
		<tag k="name" v="Hestehjellskaret" />
		<tag k="natural" v="valley" />
		<tag k="place" v="locality" />
		<tag k="ssr:stedsnr" v="398708" />
	</node>
	<node id="-589742" lat="62.9617916666" lon="7.19826666807">
		<tag k="name" v="Hella" />
		<tag k="place" v="locality" />
		<tag k="ssr:stedsnr" v="884984" />
	</node>
	<node id="-589741" lat="62.9634166712" lon="7.19399167188">
		<tag k="name" v="Tinden" />
		<tag k="natural" v="hill" />
		<tag k="place" v="locality" />
		<tag k="ssr:stedsnr" v="884985" />
	</node>
	<node id="-589740" lat="62.9561583373" lon="7.20133054942">
		<tag k="name" v="Kråa" />
		<tag k="natural" v="valley" />
		<tag k="place" v="locality" />
		<tag k="ssr:stedsnr" v="884983" />
	</node>
	<node id="-589739" lat="62.9039861097" lon="7.09922221974">
		<tag k="name" v="Lægdin" />
		<tag k="natural" v="slope" />
		<tag k="place" v="locality" />
		<tag k="ssr:stedsnr" v="884981" />
	</node>
	<node id="-589738" lat="62.9502944447" lon="7.07749445045">
		<tag k="name" v="Revremma" />
		<tag k="natural" v="ridge" />
		<tag k="place" v="locality" />
		<tag k="ssr:stedsnr" v="884972" />
	</node>
	<node id="-589736" lat="62.9281555528" lon="7.11163054592">
		<tag k="name" v="Nakken" />
		<tag k="natural" v="ridge" />
		<tag k="place" v="locality" />
		<tag k="ssr:stedsnr" v="884966" />
	</node>
	<node id="-589735" lat="62.9524666688" lon="7.10559999648">
		<tag k="name" v="Sletta" />
		<tag k="place" v="locality" />
		<tag k="ssr:stedsnr" v="884957" />
	</node>
	<node id="-589733" lat="62.8009944426" lon="7.27621945289">
		<tag k="name" v="Fagerlia" />
		<tag k="natural" v="slope" />
		<tag k="place" v="locality" />
		<tag k="ssr:stedsnr" v="884952" />
	</node>
	<node id="-589728" lat="62.8823749974" lon="7.11603333842">
		<tag k="name" v="Nakken" />
		<tag k="natural" v="slope" />
		<tag k="place" v="locality" />
		<tag k="ssr:stedsnr" v="884879" />
	</node>
	<node id="-589726" lat="62.7842166701" lon="7.12758611901">
		<tag k="name" v="Husdalen" />
		<tag k="natural" v="valley" />
		<tag k="place" v="locality" />
		<tag k="ssr:stedsnr" v="884868" />
	</node>
	<node id="-589723" lat="62.8805222197" lon="7.28528333481">
		<tag k="name" v="Kvitådalen" />
		<tag k="natural" v="valley" />
		<tag k="place" v="locality" />
		<tag k="ssr:stedsnr" v="884837" />
	</node>
	<node id="-589722" lat="62.8373138857" lon="7.28615000483">
		<tag k="name" v="Kjerringkleiva" />
		<tag k="natural" v="ridge" />
		<tag k="place" v="locality" />
		<tag k="ssr:stedsnr" v="884819" />
	</node>
	<node id="-589721" lat="62.8279444405" lon="7.30789723117">
		<tag k="name" v="Kleivhammaren" />
		<tag k="natural" v="cliff" />
		<tag k="ssr:stedsnr" v="884817" />
	</node>
	<node id="-589719" lat="62.7948972215" lon="7.04134166053">
		<tag k="name" v="Dyrlia" />
		<tag k="natural" v="slope" />
		<tag k="place" v="locality" />
		<tag k="ssr:stedsnr" v="884809" />
	</node>
	<node id="-589718" lat="62.766897224" lon="7.04080554733">
		<tag k="name" v="Dyrdalen" />
		<tag k="natural" v="valley" />
		<tag k="place" v="locality" />
		<tag k="ssr:stedsnr" v="884807" />
	</node>
	<node id="-589717" lat="62.8582027735" lon="7.0428138955">
		<tag k="name" v="Kjelen" />
		<tag k="natural" v="valley" />
		<tag k="place" v="locality" />
		<tag k="ssr:stedsnr" v="884808" />
	</node>
	<node id="-589716" lat="62.804980552" lon="7.38903610998">
		<tag k="name" v="Hyttedalen" />
		<tag k="natural" v="valley" />
		<tag k="place" v="locality" />
		<tag k="ssr:stedsnr" v="884802" />
	</node>
	<node id="-589715" lat="62.8359055513" lon="7.39630556368">
		<tag k="name" v="Bjørndalsrøra" />
		<tag k="natural" v="ridge" />
		<tag k="place" v="locality" />
		<tag k="ssr:stedsnr" v="884795" />
	</node>
	<node id="-589707" lat="62.8385305587" lon="7.2601166707">
		<tag k="name" v="Småhaugane" />
		<tag k="natural" v="hill" />
		<tag k="place" v="locality" />
		<tag k="ssr:stedsnr" v="884733" />
	</node>
	<node id="-589704" lat="62.9595861149" lon="7.22476389074">
		<tag k="name" v="Skavassrørene" />
		<tag k="natural" v="ridge" />
		<tag k="place" v="locality" />
		<tag k="ssr:stedsnr" v="884716" />
	</node>
	<node id="-589702" lat="62.9441277785" lon="7.1193388976">
		<tag k="name" v="Slettvollhaugan" />
		<tag k="natural" v="hill" />
		<tag k="place" v="locality" />
		<tag k="ssr:stedsnr" v="884699" />
	</node>
	<node id="-589701" lat="62.9597888861" lon="7.0920305635">
		<tag k="name" v="Bytberget" />
		<tag k="natural" v="hill" />
		<tag k="place" v="locality" />
		<tag k="ssr:stedsnr" v="884685" />
	</node>
	<node id="-589700" lat="62.9923444438" lon="7.17128054966">
		<tag k="name" v="Topphaugen" />
		<tag k="natural" v="hill" />
		<tag k="place" v="locality" />
		<tag k="ssr:stedsnr" v="884681" />
	</node>
	<node id="-589699" lat="62.9914055529" lon="7.17350555806">
		<tag k="name" v="Storhaugen" />
		<tag k="natural" v="hill" />
		<tag k="place" v="locality" />
		<tag k="ssr:stedsnr" v="884679" />
	</node>
	<node id="-589695" lat="62.8814555518" lon="7.1686277816">
		<tag k="name" v="Talstadlia" />
		<tag k="natural" v="slope" />
		<tag k="place" v="locality" />
		<tag k="ssr:stedsnr" v="884638" />
	</node>
	<node id="-589691" lat="62.8803444423" lon="7.10119721334">
		<tag k="name" v="Omselibakkan" />
		<tag k="natural" v="slope" />
		<tag k="place" v="locality" />
		<tag k="ssr:stedsnr" v="884611" />
	</node>
	<node id="-589690" lat="62.9144944405" lon="7.07331111802">
		<tag k="alt_name" v="Rambjørghaugen" />
		<tag k="name" v="Rambjørhaugen" />
		<tag k="natural" v="hill" />
		<tag k="place" v="locality" />
		<tag k="ssr:stedsnr" v="884571" />
	</node>
	<node id="-589685" lat="62.8094916698" lon="7.11388611547">
		<tag k="name" v="Hjellbakkhaugen" />
		<tag k="natural" v="hill" />
		<tag k="place" v="locality" />
		<tag k="ssr:stedsnr" v="884530" />
	</node>
	<node id="-589682" lat="62.845552774" lon="7.09586944165">
		<tag k="name" v="Skinnbrokholet" />
		<tag k="natural" v="hill" />
		<tag k="place" v="locality" />
		<tag k="ssr:stedsnr" v="884500" />
	</node>
	<node id="-589681" lat="62.9287555587" lon="7.03251666322">
		<tag k="name" v="Sundsæterliberga" />
		<tag k="natural" v="hill" />
		<tag k="place" v="locality" />
		<tag k="ssr:stedsnr" v="884466" />
	</node>
	<node id="-589679" lat="62.8793194408" lon="7.0523750026">
		<tag k="name" v="Nyseterholen" />
		<tag k="natural" v="hill" />
		<tag k="place" v="locality" />
		<tag k="ssr:stedsnr" v="884456" />
	</node>
	<node id="-589674" lat="62.8252583333" lon="7.01655277488">
		<tag k="name" v="Tobakkshammaren" />
		<tag k="natural" v="cliff" />
		<tag k="ssr:stedsnr" v="884426" />
	</node>
	<node id="-589672" lat="62.8457888847" lon="7.0366861126">
		<tag k="name" v="Susannaholå" />
		<tag k="place" v="locality" />
		<tag k="ssr:stedsnr" v="884404" />
	</node>
	<node id="-589670" lat="62.865519447" lon="7.01502221267">
		<tag k="name" v="Småhaugan" />
		<tag k="natural" v="hill" />
		<tag k="place" v="locality" />
		<tag k="ssr:stedsnr" v="884398" />
	</node>
	<node id="-589661" lat="62.8893111083" lon="6.94786944101">
		<tag k="name" v="Hakhaugen" />
		<tag k="natural" v="hill" />
		<tag k="place" v="locality" />
		<tag k="ssr:stedsnr" v="884349" />
	</node>
	<node id="-591696" lat="62.8003361117" lon="7.19581666761">
		<tag k="name" v="Malmelia" />
		<tag k="natural" v="slope" />
		<tag k="place" v="locality" />
		<tag k="ssr:stedsnr" v="945997" />
	</node>
	<node id="-591695" lat="62.9830138932" lon="7.19761388057">
		<tag k="name" v="Røra" />
		<tag k="natural" v="ridge" />
		<tag k="place" v="locality" />
		<tag k="ssr:stedsnr" v="945991" />
	</node>
	<node id="-591693" lat="62.8021777783" lon="7.27181389616">
		<tag k="name" v="Klempane" />
		<tag k="natural" v="hill" />
		<tag k="place" v="locality" />
		<tag k="ssr:stedsnr" v="945976" />
	</node>
	<node id="-589409" lat="62.8738388897" lon="6.97418055586">
		<tag k="name" v="Tjeldnesberga" />
		<tag k="natural" v="hill" />
		<tag k="place" v="locality" />
		<tag k="ssr:stedsnr" v="338468" />
	</node>
	<node id="-591688" lat="62.9621416672" lon="7.0578333342">
		<tag k="name" v="Remman" />
		<tag k="natural" v="ridge" />
		<tag k="place" v="locality" />
		<tag k="ssr:stedsnr" v="945943" />
	</node>
	<node id="-591681" lat="62.8581027755" lon="7.08834721872">
		<tag k="name" v="Remman" />
		<tag k="natural" v="ridge" />
		<tag k="place" v="locality" />
		<tag k="ssr:stedsnr" v="945911" />
	</node>
	<node id="-591680" lat="62.7840333301" lon="7.13783054706">
		<tag k="name" v="Haukelia" />
		<tag k="natural" v="slope" />
		<tag k="place" v="locality" />
		<tag k="ssr:stedsnr" v="945892" />
	</node>
	<node id="-591679" lat="62.8648638907" lon="7.08707499086">
		<tag k="name" v="Åslia" />
		<tag k="natural" v="slope" />
		<tag k="place" v="locality" />
		<tag k="ssr:stedsnr" v="945883" />
	</node>
	<node id="-589629" lat="62.9401777812" lon="7.10503888676">
		<tag k="name" v="Urnøsa" />
		<tag k="natural" v="ridge" />
		<tag k="place" v="locality" />
		<tag k="ssr:stedsnr" v="399981" />
	</node>
	<node id="-591676" lat="62.9763694417" lon="7.25965555699">
		<tag k="name" v="Fellegrava" />
		<tag k="place" v="locality" />
		<tag k="ssr:stedsnr" v="945869" />
	</node>
	<node id="-591675" lat="62.9828027774" lon="7.25278056022">
		<tag k="name" v="Hjellhågen" />
		<tag k="natural" v="hill" />
		<tag k="place" v="locality" />
		<tag k="ssr:stedsnr" v="945866" />
	</node>
	<node id="-591673" lat="62.8499583341" lon="7.36594443657">
		<tag k="name" v="Trollvasskaret" />
		<tag k="natural" v="valley" />
		<tag k="place" v="locality" />
		<tag k="ssr:stedsnr" v="945846" />
	</node>
	<node id="-591672" lat="62.8253722183" lon="7.30614165774">
		<tag k="name" v="Lindsethola" />
		<tag k="natural" v="valley" />
		<tag k="place" v="locality" />
		<tag k="ssr:stedsnr" v="945835" />
	</node>
	<node id="-591671" lat="62.8346416699" lon="7.33205833291">
		<tag k="name" v="Fosshaugen" />
		<tag k="natural" v="hill" />
		<tag k="place" v="locality" />
		<tag k="ssr:stedsnr" v="945830" />
	</node>
	<node id="-589621" lat="62.8124999984" lon="7.13796666302">
		<tag k="fixme" v="consider natural=peak for the most distinct mountains in the district" />
		<tag k="name" v="Storåsen" />
		<tag k="natural" v="hill" />
		<tag k="place" v="locality" />
		<tag k="ssr:stedsnr" v="399881" />
	</node>
	<node id="-589620" lat="62.9053222191" lon="7.1341055463">
		<tag k="name" v="Skaret" />
		<tag k="natural" v="valley" />
		<tag k="place" v="locality" />
		<tag k="ssr:stedsnr" v="399882" />
	</node>
	<node id="-589619" lat="62.800672219" lon="7.10617221484">
		<tag k="name" v="Varden" />
		<tag k="natural" v="hill" />
		<tag k="place" v="locality" />
		<tag k="ssr:stedsnr" v="399876" />
	</node>
	<node id="-589618" lat="62.7864805596" lon="7.12663610646">
		<tag k="name" v="Brattlia" />
		<tag k="natural" v="slope" />
		<tag k="place" v="locality" />
		<tag k="ssr:stedsnr" v="399874" />
	</node>
	<node id="-591664" lat="62.8117583304" lon="7.34269444112">
		<tag k="name" v="Nordre Melseternakken" />
		<tag k="natural" v="ridge" />
		<tag k="place" v="locality" />
		<tag k="ssr:stedsnr" v="945741" />
	</node>
	<node id="-589615" lat="62.9632111074" lon="7.25623888963">
		<tag k="name" v="Øver Slopphågen" />
		<tag k="natural" v="hill" />
		<tag k="place" v="locality" />
		<tag k="ssr:stedsnr" v="399858" />
	</node>
	<node id="-591662" lat="62.8015138865" lon="7.28350554717">
		<tag k="name" v="Nakkegropa" />
		<tag k="natural" v="valley" />
		<tag k="place" v="locality" />
		<tag k="ssr:stedsnr" v="945730" />
	</node>
	<node id="-591660" lat="62.9218916694" lon="7.22143333912">
		<tag k="name" v="Langhaugen" />
		<tag k="natural" v="hill" />
		<tag k="place" v="locality" />
		<tag k="ssr:stedsnr" v="945711" />
	</node>
	<node id="-589611" lat="62.8535638926" lon="7.31228055034">
		<tag k="name" v="Kvannfjellbotnen" />
		<tag k="natural" v="valley" />
		<tag k="place" v="locality" />
		<tag k="ssr:stedsnr" v="399840" />
	</node>
	<node id="-589610" lat="62.8564388889" lon="7.01914443968">
		<tag k="name" v="Strupen" />
		<tag k="natural" v="valley" />
		<tag k="place" v="locality" />
		<tag k="ssr:stedsnr" v="399819" />
	</node>
	<node id="-591656" lat="62.9481416709" lon="7.20848333127">
		<tag k="name" v="Forkammen" />
		<tag k="natural" v="ridge" />
		<tag k="place" v="locality" />
		<tag k="ssr:stedsnr" v="945657" />
	</node>
	<node id="-591655" lat="62.9422249974" lon="7.21710000837">
		<tag k="name" v="Hostaddalen" />
		<tag k="natural" v="valley" />
		<tag k="place" v="locality" />
		<tag k="ssr:stedsnr" v="945655" />
	</node>
	<node id="-591654" lat="62.9925722209" lon="7.19093888978">
		<tag k="name" v="Otterliene" />
		<tag k="natural" v="slope" />
		<tag k="place" v="locality" />
		<tag k="ssr:stedsnr" v="945650" />
	</node>
	<node id="-589605" lat="62.9624444432" lon="7.204947221">
		<tag k="name" v="Trondsletta" />
		<tag k="natural" v="slope" />
		<tag k="place" v="locality" />
		<tag k="ssr:stedsnr" v="399778" />
	</node>
	<node id="-589604" lat="62.9852583346" lon="7.21110277963">
		<tag k="name" v="Svenhaugen" />
		<tag k="natural" v="hill" />
		<tag k="place" v="locality" />
		<tag k="ssr:stedsnr" v="399774" />
	</node>
	<node id="-591650" lat="62.9135500032" lon="7.18008889224">
		<tag k="name" v="Bjørnedalen" />
		<tag k="natural" v="valley" />
		<tag k="place" v="locality" />
		<tag k="ssr:stedsnr" v="945587" />
	</node>
	<node id="-589601" lat="62.9906055576" lon="7.2398361139">
		<tag k="name" v="Dyrhaugen" />
		<tag k="natural" v="hill" />
		<tag k="place" v="locality" />
		<tag k="ssr:stedsnr" v="399752" />
	</node>
	<node id="-589600" lat="62.8987138865" lon="7.22960834006">
		<tag k="name" v="Tverrfjellheia" />
		<tag k="natural" v="slope" />
		<tag k="place" v="locality" />
		<tag k="ssr:stedsnr" v="399744" />
	</node>
	<node id="-589599" lat="62.9687083361" lon="7.18267776904">
		<tag k="name" v="Jurtippen" />
		<tag k="natural" v="hill" />
		<tag k="place" v="locality" />
		<tag k="ssr:stedsnr" v="399734" />
	</node>
	<node id="-589598" lat="62.9605722206" lon="7.06365277252">
		<tag k="name" v="Nausthaugen" />
		<tag k="natural" v="hill" />
		<tag k="place" v="locality" />
		<tag k="ssr:stedsnr" v="399719" />
	</node>
	<node id="-589596" lat="62.9789694431" lon="7.14255555375">
		<tag k="name" v="Dalabakken" />
		<tag k="natural" v="slope" />
		<tag k="place" v="locality" />
		<tag k="ssr:stedsnr" v="399691" />
	</node>
	<node id="-591642" lat="62.8656944422" lon="7.04727222357">
		<tag k="name" v="Kvithammaren" />
		<tag k="natural" v="cliff" />
		<tag k="ssr:stedsnr" v="945457" />
	</node>
	<node id="-589593" lat="62.9060305537" lon="7.1979777769">
		<tag k="name" v="Aurehaugen" />
		<tag k="natural" v="hill" />
		<tag k="place" v="locality" />
		<tag k="ssr:stedsnr" v="399677" />
	</node>
	<node id="-589592" lat="62.8701027802" lon="7.07556110315">
		<tag k="name" v="Storhaugen" />
		<tag k="natural" v="hill" />
		<tag k="place" v="locality" />
		<tag k="ssr:stedsnr" v="399657" />
	</node>
	<node id="-589590" lat="62.9257111078" lon="7.07335278225">
		<tag k="name" v="Stølhaugen" />
		<tag k="natural" v="hill" />
		<tag k="place" v="locality" />
		<tag k="ssr:stedsnr" v="399634" />
	</node>
	<node id="-589588" lat="62.9248638932" lon="7.14238611917">
		<tag k="name" v="Skredløkhamrane" />
		<tag k="place" v="locality" />
		<tag k="ssr:stedsnr" v="399630" />
	</node>
	<node id="-591635" lat="62.7875638858" lon="7.04903056049">
		<tag k="name" v="Helsetlia" />
		<tag k="natural" v="slope" />
		<tag k="place" v="locality" />
		<tag k="ssr:stedsnr" v="945388" />
	</node>
	<node id="-589586" lat="62.8743694451" lon="7.02530833898">
		<tag k="name" v="Gråsteinskaret" />
		<tag k="natural" v="valley" />
		<tag k="place" v="locality" />
		<tag k="ssr:stedsnr" v="399546" />
	</node>
	<node id="-591633" lat="62.8056666712" lon="7.02692500452">
		<tag k="name" v="Søre Aksla" />
		<tag k="natural" v="ridge" />
		<tag k="place" v="locality" />
		<tag k="ssr:stedsnr" v="945371" />
	</node>
	<node id="-591631" lat="62.8813444414" lon="6.97665277093">
		<tag k="name" v="Fjøshaugen" />
		<tag k="natural" v="hill" />
		<tag k="place" v="locality" />
		<tag k="ssr:stedsnr" v="945364" />
	</node>
	<node id="-591630" lat="62.9007194436" lon="7.04428612067">
		<tag k="name" v="Hallingsholen" />
		<tag k="natural" v="hill" />
		<tag k="place" v="locality" />
		<tag k="ssr:stedsnr" v="945360" />
	</node>
	<node id="-589581" lat="62.8364638892" lon="7.0480222204">
		<tag k="name" v="Hygothammaren" />
		<tag k="natural" v="cliff" />
		<tag k="ssr:stedsnr" v="399501" />
	</node>
	<node id="-589580" lat="62.8616361121" lon="7.04543056014">
		<tag k="name" v="Holtskaret" />
		<tag k="natural" v="valley" />
		<tag k="place" v="locality" />
		<tag k="ssr:stedsnr" v="399493" />
	</node>
	<node id="-589579" lat="62.851836107" lon="7.01248611369">
		<tag k="name" v="Øygardshaugan" />
		<tag k="natural" v="hill" />
		<tag k="place" v="locality" />
		<tag k="ssr:stedsnr" v="399487" />
	</node>
	<node id="-589578" lat="62.7625833331" lon="7.04444443777">
		<tag k="name" v="Neverdalen" />
		<tag k="natural" v="valley" />
		<tag k="place" v="locality" />
		<tag k="ssr:stedsnr" v="399480" />
	</node>
	<node id="-589576" lat="62.7932694424" lon="7.02370832919">
		<tag k="name" v="Hagnakken" />
		<tag k="natural" v="ridge" />
		<tag k="place" v="locality" />
		<tag k="ssr:stedsnr" v="399459" />
	</node>
	<node id="-589573" lat="62.873738891" lon="7.21605554843">
		<tag k="fixme" v="consider natural=peak for the most distinct mountains in the district" />
		<tag k="name" v="Høgheitinden" />
		<tag k="natural" v="hill" />
		<tag k="place" v="locality" />
		<tag k="ssr:stedsnr" v="399097" />
	</node>
	<node id="-591617" lat="62.8380611092" lon="7.27021944106">
		<tag k="name" v="Åsholane" />
		<tag k="natural" v="slope" />
		<tag k="place" v="locality" />
		<tag k="ssr:stedsnr" v="944959" />
	</node>
	<node id="-591616" lat="62.8378416684" lon="7.37066389586">
		<tag k="fixme" v="consider natural=peak for the most distinct mountains in the district" />
		<tag k="name" v="Bjønnen" />
		<tag k="natural" v="hill" />
		<tag k="place" v="locality" />
		<tag k="ssr:stedsnr" v="944956" />
	</node>
	<node id="-591615" lat="62.8826000014" lon="7.09853333947">
		<tag k="name" v="Tjønnrørin" />
		<tag k="natural" v="ridge" />
		<tag k="place" v="locality" />
		<tag k="ssr:stedsnr" v="944690" />
	</node>
	<node id="-591614" lat="62.8839777801" lon="7.08546388909">
		<tag k="name" v="Hytthammaren" />
		<tag k="natural" v="cliff" />
		<tag k="ssr:stedsnr" v="944689" />
	</node>
	<node id="-589565" lat="62.9834250021" lon="7.20377776987">
		<tag k="name" v="Djuphola" />
		<tag k="natural" v="gorge" />
		<tag k="ssr:stedsnr" v="398982" />
	</node>
	<node id="-591612" lat="62.8459472259" lon="7.09503055761">
		<tag k="name" v="Håsethammaren" />
		<tag k="natural" v="hill" />
		<tag k="place" v="locality" />
		<tag k="ssr:stedsnr" v="944592" />
	</node>
	<node id="-589562" lat="62.8450027808" lon="7.26083332787">
		<tag k="name" v="Holane" />
		<tag k="natural" v="slope" />
		<tag k="place" v="locality" />
		<tag k="ssr:stedsnr" v="398948" />
	</node>
	<node id="-591609" lat="62.7620305547" lon="7.08447499852">
		<tag k="name" v="Langvasslia" />
		<tag k="natural" v="slope" />
		<tag k="place" v="locality" />
		<tag k="ssr:stedsnr" v="942893" />
	</node>
	<node id="-589560" lat="62.7934388891" lon="7.05695834236">
		<tag k="name" v="Helsetlia" />
		<tag k="natural" v="slope" />
		<tag k="place" v="locality" />
		<tag k="ssr:stedsnr" v="398575" />
	</node>
	<node id="-589559" lat="62.7795722182" lon="7.06228888093">
		<tag k="name" v="Åndhaugen" />
		<tag k="natural" v="hill" />
		<tag k="place" v="locality" />
		<tag k="ssr:stedsnr" v="398573" />
	</node>
	<node id="-589558" lat="62.7885805581" lon="7.07655555877">
		<tag k="name" v="Kvennhusbakken" />
		<tag k="natural" v="slope" />
		<tag k="place" v="locality" />
		<tag k="ssr:stedsnr" v="398574" />
	</node>
	<node id="-589557" lat="62.8142444476" lon="7.08780833052">
		<tag k="name" v="Aurehammaren" />
		<tag k="natural" v="cliff" />
		<tag k="ssr:stedsnr" v="398550" />
	</node>
	<node id="-589556" lat="62.8111444439" lon="7.0803361068">
		<tag k="name" v="Kjerkeskaret" />
		<tag k="natural" v="valley" />
		<tag k="place" v="locality" />
		<tag k="ssr:stedsnr" v="398551" />
	</node>
	<node id="-591602" lat="62.7638888923" lon="7.07960555576">
		<tag k="fixme" v="consider natural=peak for the most distinct mountains in the district" />
		<tag k="name" v="Heian" />
		<tag k="natural" v="hill" />
		<tag k="place" v="locality" />
		<tag k="ssr:stedsnr" v="923866" />
	</node>
	<node id="-591600" lat="62.821002778" lon="7.3841944382">
		<tag k="fixme" v="consider natural=peak for the most distinct mountains in the district" />
		<tag k="name" v="Tverrfjellet" />
		<tag k="natural" v="hill" />
		<tag k="place" v="locality" />
		<tag k="ssr:stedsnr" v="923721" />
	</node>
	<node id="-589550" lat="62.8524305599" lon="7.1006194474">
		<tag k="name" v="Steingotå" />
		<tag k="natural" v="slope" />
		<tag k="place" v="locality" />
		<tag k="ssr:stedsnr" v="398518" />
	</node>
	<node id="-591597" lat="62.925144442" lon="7.05051389617">
		<tag k="name" v="Barbroholen" />
		<tag k="natural" v="valley" />
		<tag k="place" v="locality" />
		<tag k="ssr:stedsnr" v="923117" />
	</node>
	<node id="-589548" lat="62.8743388869" lon="6.99172500665">
		<tag k="name" v="Basthaugen" />
		<tag k="natural" v="hill" />
		<tag k="place" v="locality" />
		<tag k="ssr:stedsnr" v="398496" />
	</node>
	<node id="-589546" lat="62.9189833345" lon="6.96625277408">
		<tag k="name" v="Unnsteinlia" />
		<tag k="natural" v="slope" />
		<tag k="place" v="locality" />
		<tag k="ssr:stedsnr" v="398490" />
	</node>
	<node id="-589544" lat="62.877508329" lon="7.03460556477">
		<tag k="name" v="Himmelholen" />
		<tag k="natural" v="hill" />
		<tag k="place" v="locality" />
		<tag k="ssr:stedsnr" v="398471" />
	</node>
	<node id="-591589" lat="62.84665278" lon="7.3875388871">
		<tag k="alt_name" v="Bjørndalsskaret" />
		<tag k="name" v="Bjørndalsskardet" />
		<tag k="natural" v="valley" />
		<tag k="place" v="locality" />
		<tag k="ssr:stedsnr" v="922646" />
	</node>
	<node id="-591588" lat="62.8809083309" lon="7.2546361017">
		<tag k="name" v="Nørdrelia" />
		<tag k="natural" v="slope" />
		<tag k="place" v="locality" />
		<tag k="ssr:stedsnr" v="922616" />
	</node>
	<node id="-591587" lat="62.8809722215" lon="7.24456111044">
		<tag k="name" v="Børresdalen" />
		<tag k="natural" v="valley" />
		<tag k="place" v="locality" />
		<tag k="ssr:stedsnr" v="922614" />
	</node>
	<node id="-589538" lat="62.9029166624" lon="7.02671110893">
		<tag k="name" v="Søre Okshaugen" />
		<tag k="natural" v="hill" />
		<tag k="place" v="locality" />
		<tag k="ssr:stedsnr" v="398358" />
	</node>
	<node id="-589537" lat="62.903388893" lon="6.9996500049">
		<tag k="fixme" v="consider natural=peak for the most distinct mountains in the district" />
		<tag k="name" v="Øyaremman" />
		<tag k="natural" v="hill" />
		<tag k="place" v="locality" />
		<tag k="ssr:stedsnr" v="398353" />
	</node>
	<node id="-589536" lat="62.9021444423" lon="7.00235832976">
		<tag k="name" v="Nørdre Tipphaugen" />
		<tag k="natural" v="hill" />
		<tag k="place" v="locality" />
		<tag k="ssr:stedsnr" v="398354" />
	</node>
	<node id="-589535" lat="62.9029333353" lon="6.96893888668">
		<tag k="name" v="Brueskarhaugen" />
		<tag k="natural" v="hill" />
		<tag k="place" v="locality" />
		<tag k="ssr:stedsnr" v="398347" />
	</node>
	<node id="-589532" lat="62.7993138909" lon="7.28582500446">
		<tag k="name" v="Nakken" />
		<tag k="natural" v="ridge" />
		<tag k="place" v="locality" />
		<tag k="ssr:stedsnr" v="398020" />
	</node>
	<node id="-591578" lat="62.939861109" lon="7.21916110289">
		<tag k="name" v="Hostaddalen" />
		<tag k="natural" v="valley" />
		<tag k="place" v="locality" />
		<tag k="ssr:stedsnr" v="921999" />
	</node>
	<node id="-591576" lat="62.783908332" lon="7.01872499569">
		<tag k="name" v="Karlia" />
		<tag k="natural" v="slope" />
		<tag k="place" v="locality" />
		<tag k="ssr:stedsnr" v="921842" />
	</node>
	<node id="-591575" lat="62.7862388926" lon="7.17294166323">
		<tag k="fixme" v="consider natural=peak for the most distinct mountains in the district" />
		<tag k="name" v="Sollia" />
		<tag k="natural" v="hill" />
		<tag k="place" v="locality" />
		<tag k="ssr:stedsnr" v="921836" />
	</node>
	<node id="-589525" lat="62.8008805551" lon="7.28322777834">
		<tag k="name" v="Malmedalen" />
		<tag k="natural" v="valley" />
		<tag k="place" v="locality" />
		<tag k="ssr:stedsnr" v="376804" />
	</node>
	<node id="-589524" lat="62.8297944431" lon="7.34966945027">
		<tag k="name" v="Gjengkleiva" />
		<tag k="natural" v="valley" />
		<tag k="place" v="locality" />
		<tag k="ssr:stedsnr" v="376731" />
	</node>
	<node id="-591571" lat="62.8949166709" lon="7.2819027773">
		<tag k="fixme" v="consider natural=peak for the most distinct mountains in the district" />
		<tag k="name" v="Stordalstinden" />
		<tag k="natural" v="hill" />
		<tag k="place" v="locality" />
		<tag k="ssr:stedsnr" v="921599" />
	</node>
	<node id="-591569" lat="62.8782638883" lon="7.10289166252">
		<tag k="name" v="Brithaugen" />
		<tag k="natural" v="hill" />
		<tag k="place" v="locality" />
		<tag k="ssr:stedsnr" v="921150" />
	</node>
	<node id="-591566" lat="62.8681611156" lon="7.2097055634">
		<tag k="fixme" v="consider natural=peak for the most distinct mountains in the district" />
		<tag k="name" v="Heian" />
		<tag k="natural" v="hill" />
		<tag k="place" v="locality" />
		<tag k="ssr:stedsnr" v="921136" />
	</node>
	<node id="-589508" lat="62.9603527756" lon="7.20458333322">
		<tag k="name" v="Rødalsdalen" />
		<tag k="natural" v="valley" />
		<tag k="place" v="locality" />
		<tag k="ssr:stedsnr" v="376001" />
	</node>
	<node id="-589506" lat="62.7801944419" lon="7.12829166294">
		<tag k="fixme" v="consider natural=peak for the most distinct mountains in the district" />
		<tag k="name" v="Storfjellet" />
		<tag k="natural" v="hill" />
		<tag k="place" v="locality" />
		<tag k="ssr:stedsnr" v="375836" />
	</node>
	<node id="-589505" lat="62.7805472204" lon="7.07789166284">
		<tag k="alt_name" v="Middagshaugen" />
		<tag k="fixme" v="consider natural=peak for the most distinct mountains in the district" />
		<tag k="name" v="Fossnakken" />
		<tag k="natural" v="hill" />
		<tag k="place" v="locality" />
		<tag k="ssr:stedsnr" v="375835" />
	</node>
	<node id="-589504" lat="62.7896722246" lon="7.09598332645">
		<tag k="name" v="Hestadnakken" />
		<tag k="natural" v="hill" />
		<tag k="place" v="locality" />
		<tag k="ssr:stedsnr" v="375811" />
	</node>
	<node id="-591550" lat="62.7932055516" lon="7.225786108">
		<tag k="name" v="Fosshaugen" />
		<tag k="natural" v="hill" />
		<tag k="place" v="locality" />
		<tag k="ssr:stedsnr" v="881825" />
	</node>
	<node id="-589500" lat="62.8512277746" lon="7.33320000673">
		<tag k="fixme" v="consider natural=peak for the most distinct mountains in the district" />
		<tag k="name" v="Kvannfjellet" />
		<tag k="natural" v="hill" />
		<tag k="place" v="locality" />
		<tag k="ssr:stedsnr" v="375660" />
	</node>
	<node id="-591544" lat="62.7725861154" lon="7.0782361048">
		<tag k="fixme" v="consider natural=peak for the most distinct mountains in the district" />
		<tag k="name" v="Krossgardsnakken" />
		<tag k="natural" v="hill" />
		<tag k="place" v="locality" />
		<tag k="ssr:stedsnr" v="862876" />
	</node>
	<node id="-591543" lat="62.844705555" lon="7.27996388242">
		<tag k="name" v="Låglia" />
		<tag k="natural" v="slope" />
		<tag k="place" v="locality" />
		<tag k="ssr:stedsnr" v="862655" />
	</node>
	<node id="-589490" lat="62.8896222222" lon="7.09479722959">
		<tag k="fixme" v="consider natural=peak for the most distinct mountains in the district" />
		<tag k="name" v="Skalten" />
		<tag k="natural" v="hill" />
		<tag k="place" v="locality" />
		<tag k="ssr:stedsnr" v="375114" />
	</node>
	<node id="-591533" lat="62.9152305563" lon="6.94290278659">
		<tag k="name" v="Randmoaksla" />
		<tag k="natural" v="hill" />
		<tag k="place" v="locality" />
		<tag k="ssr:stedsnr" v="862096" />
	</node>
	<node id="-591532" lat="62.9132138897" lon="7.01712222697">
		<tag k="name" v="Seljehaugen" />
		<tag k="natural" v="hill" />
		<tag k="place" v="locality" />
		<tag k="ssr:stedsnr" v="862090" />
	</node>
	<node id="-591529" lat="62.9666138908" lon="7.20695833136">
		<tag k="fixme" v="consider natural=peak for the most distinct mountains in the district" />
		<tag k="name" v="Skottenvarden" />
		<tag k="natural" v="hill" />
		<tag k="place" v="locality" />
		<tag k="ssr:stedsnr" v="862028" />
	</node>
	<node id="-591523" lat="62.9390138857" lon="7.22731110499">
		<tag k="name" v="Knoken" />
		<tag k="natural" v="hill" />
		<tag k="place" v="locality" />
		<tag k="ssr:stedsnr" v="862000" />
	</node>
	<node id="-589424" lat="62.9017499985" lon="7.13850277983">
		<tag k="name" v="Botnaryggen" />
		<tag k="natural" v="ridge" />
		<tag k="place" v="locality" />
		<tag k="ssr:stedsnr" v="338615" />
	</node>
	<node id="-591514" lat="62.8954527806" lon="7.24959999157">
		<tag k="fixme" v="consider natural=peak for the most distinct mountains in the district" />
		<tag k="name" v="Trolltindan" />
		<tag k="natural" v="hill" />
		<tag k="place" v="locality" />
		<tag k="ssr:stedsnr" v="861539" />
	</node>
	<node id="-591513" lat="62.9238805571" lon="7.25507223147">
		<tag k="fixme" v="consider natural=peak for the most distinct mountains in the district" />
		<tag k="name" v="Litlbollen" />
		<tag k="natural" v="hill" />
		<tag k="place" v="locality" />
		<tag k="ssr:stedsnr" v="861529" />
	</node>
	<node id="-591510" lat="62.8553444476" lon="7.1109333372">
		<tag k="fixme" v="consider natural=peak for the most distinct mountains in the district" />
		<tag k="name" v="Klempertåsen" />
		<tag k="natural" v="hill" />
		<tag k="place" v="locality" />
		<tag k="ssr:stedsnr" v="861186" />
	</node>
	<node id="-589460" lat="62.804644446" lon="7.28551945274">
		<tag k="name" v="Legdene" />
		<tag k="natural" v="slope" />
		<tag k="place" v="locality" />
		<tag k="ssr:stedsnr" v="338966" />
	</node>
	<node id="-589459" lat="62.9103861084" lon="6.90036388861">
		<tag k="name" v="Salen" />
		<tag k="natural" v="hill" />
		<tag k="place" v="locality" />
		<tag k="ssr:stedsnr" v="338943" />
	</node>
	<node id="-589458" lat="62.9405166677" lon="7.22386944547">
		<tag k="name" v="Knoklia" />
		<tag k="natural" v="slope" />
		<tag k="place" v="locality" />
		<tag k="ssr:stedsnr" v="338934" />
	</node>
	<node id="-589457" lat="62.99690833" lon="7.23983334023">
		<tag k="name" v="Kålhytta" />
		<tag k="natural" v="hill" />
		<tag k="place" v="locality" />
		<tag k="ssr:stedsnr" v="338931" />
	</node>
	<node id="-589455" lat="62.8946222187" lon="6.96753889392">
		<tag k="name" v="Klubben" />
		<tag k="natural" v="hill" />
		<tag k="place" v="locality" />
		<tag k="ssr:stedsnr" v="338896" />
	</node>
	<node id="-591502" lat="62.8853194455" lon="7.00130277112">
		<tag k="name" v="Rishaugan" />
		<tag k="natural" v="hill" />
		<tag k="place" v="locality" />
		<tag k="ssr:stedsnr" v="861132" />
	</node>
	<node id="-589453" lat="62.8982444428" lon="7.14786111702">
		<tag k="name" v="Tverlia" />
		<tag k="natural" v="slope" />
		<tag k="place" v="locality" />
		<tag k="ssr:stedsnr" v="338883" />
	</node>
	<node id="-589452" lat="62.8834444463" lon="7.11086667343">
		<tag k="name" v="Heian" />
		<tag k="natural" v="slope" />
		<tag k="place" v="locality" />
		<tag k="ssr:stedsnr" v="338881" />
	</node>
	<node id="-589451" lat="62.8780888885" lon="7.10839165823">
		<tag k="name" v="Britlia" />
		<tag k="natural" v="slope" />
		<tag k="place" v="locality" />
		<tag k="ssr:stedsnr" v="338880" />
	</node>
	<node id="-589450" lat="62.8428916636" lon="7.16928055587">
		<tag k="name" v="Ørnetuva" />
		<tag k="natural" v="hill" />
		<tag k="place" v="locality" />
		<tag k="ssr:stedsnr" v="338858" />
	</node>
	<node id="-589449" lat="62.8676083375" lon="7.31241667081">
		<tag k="name" v="Bjørndalsrøra" />
		<tag k="natural" v="ridge" />
		<tag k="place" v="locality" />
		<tag k="ssr:stedsnr" v="338848" />
	</node>
	<node id="-589448" lat="62.8345416651" lon="7.29817221802">
		<tag k="name" v="Malislættet" />
		<tag k="natural" v="slope" />
		<tag k="place" v="locality" />
		<tag k="ssr:stedsnr" v="338834" />
	</node>
	<node id="-589420" lat="62.8940027812" lon="7.14720832476">
		<tag k="name" v="Hatlekråa" />
		<tag k="natural" v="valley" />
		<tag k="place" v="locality" />
		<tag k="ssr:stedsnr" v="338597" />
	</node>
	<node id="-589445" lat="62.7859388922" lon="7.25858888078">
		<tag k="name" v="Tusshamran" />
		<tag k="natural" v="cliff" />
		<tag k="ssr:stedsnr" v="338807" />
	</node>
	<node id="-589444" lat="62.8729500036" lon="7.22260832918">
		<tag k="fixme" v="consider natural=peak for the most distinct mountains in the district" />
		<tag k="name" v="Allitindane" />
		<tag k="natural" v="hill" />
		<tag k="place" v="locality" />
		<tag k="ssr:stedsnr" v="338795" />
	</node>
	<node id="-589443" lat="62.8386694444" lon="7.23962500608">
		<tag k="name" v="Haugbokkhaugen" />
		<tag k="natural" v="hill" />
		<tag k="place" v="locality" />
		<tag k="ssr:stedsnr" v="338783" />
	</node>
	<node id="-589441" lat="62.9642277758" lon="7.19594443534">
		<tag k="name" v="Gaupedalen" />
		<tag k="natural" v="valley" />
		<tag k="place" v="locality" />
		<tag k="ssr:stedsnr" v="338766" />
	</node>
	<node id="-589440" lat="62.8310388876" lon="7.27508888584">
		<tag k="name" v="Berghaugane" />
		<tag k="natural" v="hill" />
		<tag k="place" v="locality" />
		<tag k="ssr:stedsnr" v="338753" />
	</node>
	<node id="-589436" lat="62.9149805529" lon="7.22579166056">
		<tag k="name" v="Haubokkhaugen" />
		<tag k="natural" v="hill" />
		<tag k="place" v="locality" />
		<tag k="ssr:stedsnr" v="338719" />
	</node>
	<node id="-589418" lat="62.9136555583" lon="7.17732221228">
		<tag k="name" v="Steinsdalen" />
		<tag k="natural" v="valley" />
		<tag k="place" v="locality" />
		<tag k="ssr:stedsnr" v="338567" />
	</node>
	<node id="-589433" lat="62.9652138907" lon="7.12133055417">
		<tag k="name" v="Nordremma" />
		<tag k="natural" v="ridge" />
		<tag k="place" v="locality" />
		<tag k="ssr:stedsnr" v="338698" />
	</node>
	<node id="-591480" lat="62.8723611083" lon="7.24165556231">
		<tag k="name" v="Nøsa" />
		<tag k="natural" v="hill" />
		<tag k="place" v="locality" />
		<tag k="ssr:stedsnr" v="824950" />
	</node>
	<node id="-591479" lat="62.9314222257" lon="7.23756111332">
		<tag k="name" v="Ådalen" />
		<tag k="natural" v="valley" />
		<tag k="place" v="locality" />
		<tag k="ssr:stedsnr" v="824948" />
	</node>
	<node id="-589430" lat="62.9734416644" lon="7.13102500122">
		<tag k="name" v="Storhaugen" />
		<tag k="natural" v="hill" />
		<tag k="place" v="locality" />
		<tag k="ssr:stedsnr" v="338684" />
	</node>
	<node id="-591477" lat="62.9082666706" lon="6.90653610839">
		<tag k="name" v="Ergan" />
		<tag k="natural" v="hill" />
		<tag k="place" v="locality" />
		<tag k="ssr:stedsnr" v="824918" />
	</node>
	<node id="-591474" lat="62.8481861152" lon="7.35166111657">
		<tag k="name" v="Bjerkalia" />
		<tag k="natural" v="slope" />
		<tag k="place" v="locality" />
		<tag k="ssr:stedsnr" v="824854" />
	</node>
	<node id="-589425" lat="62.9086249984" lon="7.18847500478">
		<tag k="name" v="Bestefarsdalen" />
		<tag k="natural" v="valley" />
		<tag k="place" v="locality" />
		<tag k="ssr:stedsnr" v="338645" />
	</node>
	<node id="-591472" lat="62.7873111104" lon="7.03145555681">
		<tag k="name" v="Åsmulen" />
		<tag k="natural" v="ridge" />
		<tag k="place" v="locality" />
		<tag k="ssr:stedsnr" v="824847" />
	</node>
	<node id="-589423" lat="62.8953555538" lon="7.13508055329">
		<tag k="name" v="Svarteflekken" />
		<tag k="place" v="locality" />
		<tag k="ssr:stedsnr" v="338613" />
	</node>
	<node id="-589422" lat="62.9049527818" lon="7.16946389806">
		<tag k="name" v="Heilirøslia" />
		<tag k="natural" v="slope" />
		<tag k="place" v="locality" />
		<tag k="ssr:stedsnr" v="338605" />
	</node>
	<node id="-589421" lat="62.9071749977" lon="7.17505276908">
		<tag k="name" v="Storhaugen" />
		<tag k="natural" v="hill" />
		<tag k="place" v="locality" />
		<tag k="ssr:stedsnr" v="338599" />
	</node>
	<node id="-591468" lat="62.809158332" lon="7.359183335">
		<tag k="name" v="Lillebakklia" />
		<tag k="natural" v="slope" />
		<tag k="place" v="locality" />
		<tag k="ssr:stedsnr" v="824790" />
	</node>
	<node id="-589419" lat="62.9285249988" lon="7.13576388034">
		<tag k="name" v="Frimannsaksla" />
		<tag k="natural" v="ridge" />
		<tag k="place" v="locality" />
		<tag k="ssr:stedsnr" v="338573" />
	</node>
	<node id="-591466" lat="62.9221444431" lon="7.22445278364">
		<tag k="name" v="Kvernhushaugen" />
		<tag k="natural" v="hill" />
		<tag k="place" v="locality" />
		<tag k="ssr:stedsnr" v="824762" />
	</node>
	<node id="-591465" lat="62.9363805596" lon="7.07485833729">
		<tag k="name" v="Kjerkehaugen" />
		<tag k="natural" v="hill" />
		<tag k="place" v="locality" />
		<tag k="ssr:stedsnr" v="824756" />
	</node>
	<node id="-591464" lat="62.9704750032" lon="7.18121944597">
		<tag k="name" v="Storglenna" />
		<tag k="natural" v="valley" />
		<tag k="place" v="locality" />
		<tag k="ssr:stedsnr" v="824748" />
	</node>
	<node id="-589413" lat="62.8102194444" lon="7.07217776866">
		<tag k="name" v="Valleskaret" />
		<tag k="natural" v="valley" />
		<tag k="place" v="locality" />
		<tag k="ssr:stedsnr" v="338527" />
	</node>
	<node id="-591460" lat="62.964516666" lon="7.08369167129">
		<tag k="name" v="Fetaberget" />
		<tag k="natural" v="hill" />
		<tag k="place" v="locality" />
		<tag k="ssr:stedsnr" v="824733" />
	</node>
	<node id="-591459" lat="62.9577833358" lon="7.07083888194">
		<tag k="name" v="Tipphaugen" />
		<tag k="natural" v="hill" />
		<tag k="place" v="locality" />
		<tag k="ssr:stedsnr" v="824729" />
	</node>
	<node id="-589410" lat="62.8742333333" lon="6.99968332943">
		<tag k="name" v="Kvennhushaugen" />
		<tag k="natural" v="hill" />
		<tag k="place" v="locality" />
		<tag k="ssr:stedsnr" v="338475" />
	</node>
	<node id="-591457" lat="62.9524388846" lon="7.09880555286">
		<tag k="name" v="Bjørnehaugen" />
		<tag k="natural" v="hill" />
		<tag k="place" v="locality" />
		<tag k="ssr:stedsnr" v="824725" />
	</node>
	<node id="-589408" lat="62.9146222214" lon="6.9588638964">
		<tag k="name" v="Breidalen" />
		<tag k="natural" v="valley" />
		<tag k="place" v="locality" />
		<tag k="ssr:stedsnr" v="338460" />
	</node>
	<node id="-591455" lat="62.9886250021" lon="7.18401389264">
		<tag k="name" v="Vetaberga" />
		<tag k="natural" v="hill" />
		<tag k="place" v="locality" />
		<tag k="ssr:stedsnr" v="824714" />
	</node>
	<node id="-589405" lat="62.8656583342" lon="7.03008611643">
		<tag k="name" v="Søre Breiskarholen" />
		<tag k="natural" v="hill" />
		<tag k="place" v="locality" />
		<tag k="ssr:stedsnr" v="338443" />
	</node>
	<node id="-591450" lat="62.8888416669" lon="7.07766388467">
		<tag k="name" v="Svartgjølhamran" />
		<tag k="place" v="locality" />
		<tag k="ssr:stedsnr" v="824638" />
	</node>
	<node id="-591449" lat="62.8880749957" lon="7.09855832766">
		<tag k="name" v="Herdalslia" />
		<tag k="natural" v="slope" />
		<tag k="place" v="locality" />
		<tag k="ssr:stedsnr" v="824637" />
	</node>
	<node id="-591448" lat="62.9258888891" lon="7.08933333849">
		<tag k="name" v="Olalunden" />
		<tag k="natural" v="hill" />
		<tag k="place" v="locality" />
		<tag k="ssr:stedsnr" v="824634" />
	</node>
	<node id="-591447" lat="62.9170472225" lon="7.16314166527">
		<tag k="name" v="Stornevlihola" />
		<tag k="natural" v="valley" />
		<tag k="place" v="locality" />
		<tag k="ssr:stedsnr" v="824631" />
	</node>
	<node id="-591446" lat="62.9209583322" lon="7.07061111645">
		<tag k="name" v="Storholen" />
		<tag k="natural" v="hill" />
		<tag k="place" v="locality" />
		<tag k="ssr:stedsnr" v="824621" />
	</node>
	<node id="-591445" lat="62.948911114" lon="7.18456666544">
		<tag k="name" v="Andehaugen" />
		<tag k="natural" v="hill" />
		<tag k="place" v="locality" />
		<tag k="ssr:stedsnr" v="824619" />
	</node>
	<node id="-591444" lat="62.8156416692" lon="7.1440166726">
		<tag k="fixme" v="consider natural=peak for the most distinct mountains in the district" />
		<tag k="name" v="Litleåsen" />
		<tag k="natural" v="hill" />
		<tag k="place" v="locality" />
		<tag k="ssr:stedsnr" v="824608" />
	</node>
	<node id="-589395" lat="62.795977782" lon="7.03178334126">
		<tag k="name" v="Øverskara" />
		<tag k="natural" v="valley" />
		<tag k="place" v="locality" />
		<tag k="ssr:stedsnr" v="338356" />
	</node>
	<node id="-591441" lat="62.8082583324" lon="7.06013610479">
		<tag k="name" v="Seterhaugane" />
		<tag k="natural" v="hill" />
		<tag k="place" v="locality" />
		<tag k="ssr:stedsnr" v="824589" />
	</node>
	<node id="-589392" lat="62.906372226" lon="6.97810832772">
		<tag k="name" v="Kisthaugen" />
		<tag k="natural" v="hill" />
		<tag k="place" v="locality" />
		<tag k="ssr:stedsnr" v="338331" />
	</node>
	<node id="-591439" lat="62.8782351705" lon="6.9875777231">
		<tag k="name" v="Varghaugen" />
		<tag k="natural" v="hill" />
		<tag k="place" v="locality" />
		<tag k="ssr:stedsnr" v="824547" />
	</node>
	<node id="-589389" lat="62.8931111143" lon="6.83091389138">
		<tag k="name" v="Tomashaugen" />
		<tag k="natural" v="hill" />
		<tag k="place" v="locality" />
		<tag k="ssr:stedsnr" v="338293" />
	</node>
	<node id="-591458" lat="62.951908337" lon="7.08826388517">
		<tag k="name" v="Hauberget" />
		<tag k="natural" v="hill" />
		<tag k="place" v="locality" />
		<tag k="ssr:stedsnr" v="824727" />
	</node>
	<node id="-591433" lat="62.8491527761" lon="7.00681111755">
		<tag k="name" v="Svartberget" />
		<tag k="natural" v="hill" />
		<tag k="place" v="locality" />
		<tag k="ssr:stedsnr" v="824452" />
	</node>
	<node id="-591432" lat="62.7975888908" lon="7.02008333892">
		<tag k="name" v="Skjerpeskaret" />
		<tag k="natural" v="valley" />
		<tag k="place" v="locality" />
		<tag k="ssr:stedsnr" v="824440" />
	</node>
	<node id="-589383" lat="62.8320500037" lon="7.26768610279">
		<tag k="name" v="Høglia" />
		<tag k="natural" v="slope" />
		<tag k="place" v="locality" />
		<tag k="ssr:stedsnr" v="337955" />
	</node>
	<node id="-591429" lat="62.8968416624" lon="6.99270833391">
		<tag k="fixme" v="consider natural=peak for the most distinct mountains in the district" />
		<tag k="name" v="Vågaremma" />
		<tag k="natural" v="hill" />
		<tag k="place" v="locality" />
		<tag k="ssr:stedsnr" v="824422" />
	</node>
	<node id="-589380" lat="62.8043666684" lon="7.26417776952">
		<tag k="fixme" v="consider natural=peak for the most distinct mountains in the district" />
		<tag k="name" v="Øygardsfjellet" />
		<tag k="natural" v="hill" />
		<tag k="place" v="locality" />
		<tag k="ssr:stedsnr" v="324788" />
	</node>
	<node id="-591427" lat="62.9024583301" lon="6.99019722124">
		<tag k="name" v="Kyrkjeberget" />
		<tag k="natural" v="hill" />
		<tag k="place" v="locality" />
		<tag k="ssr:stedsnr" v="824419" />
	</node>
	<node id="-591425" lat="62.90471111" lon="6.92016110186">
		<tag k="name" v="Jekthaugen" />
		<tag k="natural" v="hill" />
		<tag k="place" v="locality" />
		<tag k="ssr:stedsnr" v="824394" />
	</node>
	<node id="-589376" lat="62.8101111087" lon="7.30266111794">
		<tag k="name" v="Seterlia" />
		<tag k="natural" v="slope" />
		<tag k="place" v="locality" />
		<tag k="ssr:stedsnr" v="316763" />
	</node>
	<node id="-589369" lat="62.9325666685" lon="7.23369166684">
		<tag k="fixme" v="consider natural=peak for the most distinct mountains in the district" />
		<tag k="name" v="Furrabben" />
		<tag k="natural" v="hill" />
		<tag k="place" v="locality" />
		<tag k="ssr:stedsnr" v="315491" />
	</node>
	<node id="-591415" lat="62.8349777741" lon="7.31440556517">
		<tag k="name" v="Rørene" />
		<tag k="natural" v="ridge" />
		<tag k="place" v="locality" />
		<tag k="ssr:stedsnr" v="823939" />
	</node>
	<node id="-591414" lat="62.8773805533" lon="7.12699723074">
		<tag k="name" v="Svarthaugen" />
		<tag k="natural" v="hill" />
		<tag k="place" v="locality" />
		<tag k="ssr:stedsnr" v="823642" />
	</node>
	<node id="-589365" lat="62.8946805598" lon="6.99157222006">
		<tag k="alt_name" v="Kvennhushaugen" />
		<tag k="name" v="Kvernhushaugen" />
		<tag k="natural" v="hill" />
		<tag k="place" v="locality" />
		<tag k="ssr:stedsnr" v="315154" />
	</node>
	<node id="-591412" lat="62.8550333295" lon="7.10535000755">
		<tag k="name" v="Slettåsen" />
		<tag k="natural" v="ridge" />
		<tag k="place" v="locality" />
		<tag k="ssr:stedsnr" v="823533" />
	</node>
	<node id="-589363" lat="62.8650833344" lon="7.19568055491">
		<tag k="alt_name" v="Dalelia" />
		<tag k="name" v="Dallia" />
		<tag k="natural" v="slope" />
		<tag k="place" v="locality" />
		<tag k="ssr:stedsnr" v="315132" />
	</node>
	<node id="-591410" lat="62.8648333336" lon="7.07879445159">
		<tag k="name" v="Storbakken" />
		<tag k="natural" v="slope" />
		<tag k="place" v="locality" />
		<tag k="ssr:stedsnr" v="823515" />
	</node>
	<node id="-591408" lat="62.7668305565" lon="7.09553055012">
		<tag k="name" v="Seterskaret" />
		<tag k="natural" v="valley" />
		<tag k="place" v="locality" />
		<tag k="ssr:stedsnr" v="821884" />
	</node>
	<node id="-591407" lat="62.793263888" lon="7.22186389104">
		<tag k="name" v="Korga" />
		<tag k="place" v="locality" />
		<tag k="ssr:stedsnr" v="821833" />
	</node>
	<node id="-591453" lat="62.8760694405" lon="7.19775834175">
		<tag k="name" v="Haukåsdalen" />
		<tag k="natural" v="valley" />
		<tag k="place" v="locality" />
		<tag k="ssr:stedsnr" v="824691" />
	</node>
	<node id="-591402" lat="62.7681500042" lon="7.11796389296">
		<tag k="fixme" v="consider natural=peak for the most distinct mountains in the district" />
		<tag k="name" v="Arsdalsheia" />
		<tag k="natural" v="hill" />
		<tag k="place" v="locality" />
		<tag k="ssr:stedsnr" v="801847" />
	</node>
	<node id="-589351" lat="62.8653305526" lon="7.31655556264">
		<tag k="name" v="Bjørndalen" />
		<tag k="natural" v="valley" />
		<tag k="place" v="locality" />
		<tag k="ssr:stedsnr" v="315617" />
	</node>
	<node id="-591397" lat="62.8262861133" lon="7.33851944323">
		<tag k="fixme" v="consider natural=peak for the most distinct mountains in the district" />
		<tag k="name" v="Seterfjellet" />
		<tag k="natural" v="hill" />
		<tag k="place" v="locality" />
		<tag k="ssr:stedsnr" v="801674" />
	</node>
	<node id="-591387" lat="62.9302083324" lon="7.01177776941">
		<tag k="alt_name" v="Kvennagrovhaugen" />
		<tag k="name" v="Kvernagrovhaugen" />
		<tag k="natural" v="hill" />
		<tag k="place" v="locality" />
		<tag k="ssr:stedsnr" v="801099" />
	</node>
	<node id="-589334" lat="62.767816668" lon="7.13366944732">
		<tag k="name" v="Audunsheia" />
		<tag k="natural" v="hill" />
		<tag k="place" v="locality" />
		<tag k="ssr:stedsnr" v="32009" />
	</node>
	<node id="-589323" lat="62.7990611152" lon="7.28116389024">
		<tag k="name" v="Fonnin" />
		<tag k="natural" v="slope" />
		<tag k="place" v="locality" />
		<tag k="ssr:stedsnr" v="277955" />
	</node>
	<node id="-589321" lat="62.9108388852" lon="7.24513888587">
		<tag k="name" v="Kjølen" />
		<tag k="natural" v="ridge" />
		<tag k="place" v="locality" />
		<tag k="ssr:stedsnr" v="277949" />
	</node>
	<node id="-589319" lat="62.8850861108" lon="7.05778054978">
		<tag k="name" v="Ulhaugen" />
		<tag k="natural" v="hill" />
		<tag k="place" v="locality" />
		<tag k="ssr:stedsnr" v="277937" />
	</node>
	<node id="-589317" lat="62.8399222262" lon="7.04458610923">
		<tag k="name" v="Kleiva" />
		<tag k="natural" v="slope" />
		<tag k="place" v="locality" />
		<tag k="ssr:stedsnr" v="277929" />
	</node>
	<node id="-589316" lat="62.8665444431" lon="7.07910832478">
		<tag k="name" v="Lemmen" />
		<tag k="place" v="locality" />
		<tag k="ssr:stedsnr" v="277918" />
	</node>
	<node id="-589315" lat="62.8724944429" lon="7.09551389194">
		<tag k="name" v="Heia" />
		<tag k="natural" v="ridge" />
		<tag k="place" v="locality" />
		<tag k="ssr:stedsnr" v="277914" />
	</node>
	<node id="-589314" lat="62.884355557" lon="7.06024721848">
		<tag k="name" v="Ulhaugen" />
		<tag k="natural" v="hill" />
		<tag k="place" v="locality" />
		<tag k="ssr:stedsnr" v="277909" />
	</node>
	<node id="-589313" lat="62.7946527757" lon="7.17421944944">
		<tag k="name" v="Holslia" />
		<tag k="natural" v="slope" />
		<tag k="place" v="locality" />
		<tag k="ssr:stedsnr" v="277899" />
	</node>
	<node id="-590080" lat="62.9551694448" lon="7.20998888137">
		<tag k="name" v="Forrabben" />
		<tag k="natural" v="slope" />
		<tag k="place" v="locality" />
		<tag k="ssr:stedsnr" v="95754" />
	</node>
	<node id="-589308" lat="62.7872527749" lon="7.26726111527">
		<tag k="name" v="Langeberget" />
		<tag k="natural" v="ridge" />
		<tag k="place" v="locality" />
		<tag k="ssr:stedsnr" v="277829" />
	</node>
	<node id="-589307" lat="62.7859388922" lon="7.25858888078">
		<tag k="name" v="Tusshamran" />
		<tag k="natural" v="cliff" />
		<tag k="ssr:stedsnr" v="277825" />
	</node>
	<node id="-589306" lat="62.7877499966" lon="7.26361945246">
		<tag k="name" v="Sparbosletta" />
		<tag k="place" v="locality" />
		<tag k="ssr:stedsnr" v="277827" />
	</node>
	<node id="-589302" lat="62.8021555522" lon="7.30753611087">
		<tag k="name" v="Seterskarhaugen" />
		<tag k="natural" v="hill" />
		<tag k="place" v="locality" />
		<tag k="ssr:stedsnr" v="277770" />
	</node>
	<node id="-589301" lat="62.9944194423" lon="7.22170000957">
		<tag k="name" v="Valheimhaugen" />
		<tag k="natural" v="hill" />
		<tag k="place" v="locality" />
		<tag k="ssr:stedsnr" v="277769" />
	</node>
	<node id="-589299" lat="62.9708222217" lon="7.24088888199">
		<tag k="name" v="Langhaugane" />
		<tag k="natural" v="hill" />
		<tag k="place" v="locality" />
		<tag k="ssr:stedsnr" v="277755" />
	</node>
	<node id="-589298" lat="62.967677777" lon="7.14577777124">
		<tag k="name" v="Leitesbakken" />
		<tag k="natural" v="slope" />
		<tag k="place" v="locality" />
		<tag k="ssr:stedsnr" v="277736" />
	</node>
	<node id="-589297" lat="62.9557249965" lon="7.17535277014">
		<tag k="name" v="Brandshaugen" />
		<tag k="natural" v="hill" />
		<tag k="place" v="locality" />
		<tag k="ssr:stedsnr" v="277730" />
	</node>
	<node id="-589296" lat="62.96890833" lon="7.09181389273">
		<tag k="name" v="Nerlandsberget" />
		<tag k="natural" v="hill" />
		<tag k="place" v="locality" />
		<tag k="ssr:stedsnr" v="277727" />
	</node>
	<node id="-589293" lat="62.9800222181" lon="7.1380972153">
		<tag k="name" v="Bruhaugen" />
		<tag k="natural" v="hill" />
		<tag k="place" v="locality" />
		<tag k="ssr:stedsnr" v="277705" />
	</node>
	<node id="-591340" lat="62.9057194423" lon="7.01748055367">
		<tag k="name" v="Hattan" />
		<tag k="natural" v="hill" />
		<tag k="place" v="locality" />
		<tag k="ssr:stedsnr" v="763912" />
	</node>
	<node id="-589291" lat="62.8674388847" lon="7.18520833362">
		<tag k="name" v="Myrbærhaugen" />
		<tag k="natural" v="hill" />
		<tag k="place" v="locality" />
		<tag k="ssr:stedsnr" v="277682" />
	</node>
	<node id="-589289" lat="62.8714611086" lon="7.15574999055">
		<tag k="name" v="Talstadskaret" />
		<tag k="natural" v="valley" />
		<tag k="place" v="locality" />
		<tag k="ssr:stedsnr" v="277674" />
	</node>
	<node id="-589288" lat="62.9011444478" lon="7.15799165669">
		<tag k="name" v="Skarhaugen" />
		<tag k="natural" v="hill" />
		<tag k="place" v="locality" />
		<tag k="ssr:stedsnr" v="277651" />
	</node>
	<node id="-589287" lat="62.8960944443" lon="7.16938889667">
		<tag k="name" v="Hjellberget" />
		<tag k="natural" v="hill" />
		<tag k="place" v="locality" />
		<tag k="ssr:stedsnr" v="277643" />
	</node>
	<node id="-589285" lat="62.9290027785" lon="7.08267222037">
		<tag k="name" v="Kirkeremma" />
		<tag k="natural" v="ridge" />
		<tag k="place" v="locality" />
		<tag k="ssr:stedsnr" v="277633" />
	</node>
	<node id="-589284" lat="62.9081972216" lon="7.16199166265">
		<tag k="name" v="Heilihaugen" />
		<tag k="natural" v="hill" />
		<tag k="place" v="locality" />
		<tag k="ssr:stedsnr" v="277622" />
	</node>
	<node id="-589283" lat="62.9456166641" lon="7.12507777286">
		<tag k="name" v="Slettvollhaugane" />
		<tag k="natural" v="hill" />
		<tag k="place" v="locality" />
		<tag k="ssr:stedsnr" v="277619" />
	</node>
	<node id="-589282" lat="62.9423944452" lon="7.08050833906">
		<tag k="name" v="Sagberget" />
		<tag k="natural" v="hill" />
		<tag k="place" v="locality" />
		<tag k="ssr:stedsnr" v="277609" />
	</node>
	<node id="-589281" lat="62.802402776" lon="7.13449443745">
		<tag k="fixme" v="consider natural=peak for the most distinct mountains in the district" />
		<tag k="name" v="Tverrbuskåsen" />
		<tag k="natural" v="hill" />
		<tag k="place" v="locality" />
		<tag k="ssr:stedsnr" v="277596" />
	</node>
	<node id="-589280" lat="62.8203888923" lon="7.06127223056">
		<tag k="name" v="Brauthaugane" />
		<tag k="natural" v="hill" />
		<tag k="place" v="locality" />
		<tag k="ssr:stedsnr" v="277591" />
	</node>
	<node id="-591327" lat="62.8110500011" lon="7.25088888598">
		<tag k="name" v="Julsetlia" />
		<tag k="natural" v="slope" />
		<tag k="place" v="locality" />
		<tag k="ssr:stedsnr" v="763785" />
	</node>
	<node id="-589278" lat="62.7840638859" lon="7.15636666825">
		<tag k="name" v="Storskaret" />
		<tag k="natural" v="valley" />
		<tag k="place" v="locality" />
		<tag k="ssr:stedsnr" v="277586" />
	</node>
	<node id="-589277" lat="62.8148916655" lon="7.12534444169">
		<tag k="name" v="Seterhaugane" />
		<tag k="natural" v="hill" />
		<tag k="place" v="locality" />
		<tag k="ssr:stedsnr" v="277582" />
	</node>
	<node id="-589276" lat="62.8570138905" lon="7.12882222274">
		<tag k="name" v="Eidemskaret" />
		<tag k="natural" v="valley" />
		<tag k="place" v="locality" />
		<tag k="ssr:stedsnr" v="277553" />
	</node>
	<node id="-591323" lat="62.9689000016" lon="7.07215833574">
		<tag k="name" v="Malehammaren" />
		<tag k="natural" v="hill" />
		<tag k="place" v="locality" />
		<tag k="ssr:stedsnr" v="763736" />
	</node>
	<node id="-591320" lat="62.9923333337" lon="7.18505277673">
		<tag k="name" v="Kleivaberga" />
		<tag k="natural" v="hill" />
		<tag k="place" v="locality" />
		<tag k="ssr:stedsnr" v="763709" />
	</node>
	<node id="-589271" lat="62.8549499995" lon="7.09565000443">
		<tag k="name" v="Forhaugenden" />
		<tag k="natural" v="hill" />
		<tag k="place" v="locality" />
		<tag k="ssr:stedsnr" v="277531" />
	</node>
	<node id="-589270" lat="62.8727388861" lon="7.01968889219">
		<tag k="name" v="Osphaugen" />
		<tag k="natural" v="hill" />
		<tag k="place" v="locality" />
		<tag k="ssr:stedsnr" v="277510" />
	</node>
	<node id="-589269" lat="62.8812805537" lon="7.04328332499">
		<tag k="name" v="Gammelseterhaugen" />
		<tag k="natural" v="hill" />
		<tag k="place" v="locality" />
		<tag k="ssr:stedsnr" v="277482" />
	</node>
	<node id="-589268" lat="62.9334888891" lon="7.03835833718">
		<tag k="name" v="Marithaugen" />
		<tag k="natural" v="hill" />
		<tag k="place" v="locality" />
		<tag k="ssr:stedsnr" v="277465" />
	</node>
	<node id="-591315" lat="62.879069446" lon="7.09121666352">
		<tag k="name" v="Grønlibakken" />
		<tag k="natural" v="slope" />
		<tag k="place" v="locality" />
		<tag k="ssr:stedsnr" v="763666" />
	</node>
	<node id="-589265" lat="62.8241638869" lon="7.01315278506">
		<tag k="name" v="Kalvehammaren" />
		<tag k="natural" v="cliff" />
		<tag k="ssr:stedsnr" v="277443" />
	</node>
	<node id="-589263" lat="62.82321111" lon="7.0309055606">
		<tag k="name" v="Tiendbuberget" />
		<tag k="natural" v="hill" />
		<tag k="place" v="locality" />
		<tag k="ssr:stedsnr" v="277435" />
	</node>
	<node id="-589262" lat="62.839663892" lon="7.04525000857">
		<tag k="name" v="Brenslehaugen" />
		<tag k="natural" v="hill" />
		<tag k="place" v="locality" />
		<tag k="ssr:stedsnr" v="277432" />
	</node>
	<node id="-591309" lat="62.9305861145" lon="7.1785805582">
		<tag k="name" v="Bjønnholen" />
		<tag k="natural" v="hill" />
		<tag k="place" v="locality" />
		<tag k="ssr:stedsnr" v="763624" />
	</node>
	<node id="-591308" lat="62.8020583362" lon="7.14690833644">
		<tag k="name" v="Storhaugen" />
		<tag k="natural" v="hill" />
		<tag k="place" v="locality" />
		<tag k="ssr:stedsnr" v="763622" />
	</node>
	<node id="-589259" lat="62.8606500027" lon="6.99542500105">
		<tag k="name" v="Oterhaugen" />
		<tag k="natural" v="hill" />
		<tag k="place" v="locality" />
		<tag k="ssr:stedsnr" v="277416" />
	</node>
	<node id="-589258" lat="62.7889972223" lon="7.03755278682">
		<tag k="name" v="Beinhaugen" />
		<tag k="natural" v="hill" />
		<tag k="place" v="locality" />
		<tag k="ssr:stedsnr" v="277415" />
	</node>
	<node id="-589256" lat="62.7965388872" lon="7.0143166629">
		<tag k="name" v="Gjerdhaugen" />
		<tag k="natural" v="hill" />
		<tag k="place" v="locality" />
		<tag k="ssr:stedsnr" v="277392" />
	</node>
	<node id="-591302" lat="62.8857444437" lon="7.02798610741">
		<tag k="name" v="Brentholhaugen" />
		<tag k="natural" v="hill" />
		<tag k="place" v="locality" />
		<tag k="ssr:stedsnr" v="763568" />
	</node>
	<node id="-589253" lat="62.9017638859" lon="7.04410834097">
		<tag k="name" v="Ospaholen" />
		<tag k="natural" v="hill" />
		<tag k="place" v="locality" />
		<tag k="ssr:stedsnr" v="277368" />
	</node>
	<node id="-589252" lat="62.8973249973" lon="6.99232778453">
		<tag k="fixme" v="consider natural=peak for the most distinct mountains in the district" />
		<tag k="name" v="Vargremma" />
		<tag k="natural" v="hill" />
		<tag k="place" v="locality" />
		<tag k="ssr:stedsnr" v="277366" />
	</node>
	<node id="-589251" lat="62.9043305533" lon="6.99288056425">
		<tag k="name" v="Knaberthaugen" />
		<tag k="natural" v="hill" />
		<tag k="place" v="locality" />
		<tag k="ssr:stedsnr" v="277356" />
	</node>
	<node id="-591297" lat="62.9561333325" lon="7.05336110722">
		<tag k="name" v="Heilhaugan" />
		<tag k="natural" v="hill" />
		<tag k="place" v="locality" />
		<tag k="ssr:stedsnr" v="763520" />
	</node>
	<node id="-589248" lat="62.9041472257" lon="6.95796389252">
		<tag k="name" v="Kongshaugen" />
		<tag k="natural" v="hill" />
		<tag k="place" v="locality" />
		<tag k="ssr:stedsnr" v="277348" />
	</node>
	<node id="-591291" lat="62.8589583357" lon="7.03958056338">
		<tag k="name" v="Sæmundbrensla" />
		<tag k="natural" v="slope" />
		<tag k="place" v="locality" />
		<tag k="ssr:stedsnr" v="763485" />
	</node>
	<node id="-589242" lat="62.9180194487" lon="6.95436665967">
		<tag k="name" v="Båsan" />
		<tag k="natural" v="hill" />
		<tag k="place" v="locality" />
		<tag k="ssr:stedsnr" v="13107" />
	</node>
	<node id="-591289" lat="62.8408305551" lon="6.99242222296">
		<tag k="name" v="Korsberget" />
		<tag k="natural" v="hill" />
		<tag k="place" v="locality" />
		<tag k="ssr:stedsnr" v="763480" />
	</node>
	<node id="-591288" lat="62.8651833337" lon="7.04870277262">
		<tag k="name" v="Litle Breiskaret" />
		<tag k="natural" v="valley" />
		<tag k="place" v="locality" />
		<tag k="ssr:stedsnr" v="763478" />
	</node>
	<node id="-591287" lat="62.8431777791" lon="7.00236388524">
		<tag k="name" v="Brenthaugen" />
		<tag k="natural" v="hill" />
		<tag k="place" v="locality" />
		<tag k="ssr:stedsnr" v="763476" />
	</node>
	<node id="-591286" lat="62.8406194476" lon="6.99786666497">
		<tag k="name" v="Ørnehaugen" />
		<tag k="natural" v="hill" />
		<tag k="place" v="locality" />
		<tag k="ssr:stedsnr" v="763477" />
	</node>
	<node id="-591285" lat="62.8474444451" lon="7.03382221442">
		<tag k="name" v="Hjellhaugen" />
		<tag k="natural" v="hill" />
		<tag k="place" v="locality" />
		<tag k="ssr:stedsnr" v="763470" />
	</node>
	<node id="-591283" lat="62.784913889" lon="7.00343888467">
		<tag k="name" v="Trondshaugen" />
		<tag k="natural" v="hill" />
		<tag k="place" v="locality" />
		<tag k="ssr:stedsnr" v="763451" />
	</node>
	<node id="-591280" lat="62.9053555583" lon="6.97134721639">
		<tag k="name" v="Brenthaugen" />
		<tag k="natural" v="hill" />
		<tag k="place" v="locality" />
		<tag k="ssr:stedsnr" v="763414" />
	</node>
	<node id="-589384" lat="62.8325305598" lon="7.31010833438">
		<tag k="name" v="Foraksla" />
		<tag k="natural" v="ridge" />
		<tag k="place" v="locality" />
		<tag k="ssr:stedsnr" v="337958" />
	</node>
	<node id="-591276" lat="62.8904111073" lon="6.83193887979">
		<tag k="name" v="Vardhaugen" />
		<tag k="natural" v="hill" />
		<tag k="place" v="locality" />
		<tag k="ssr:stedsnr" v="763384" />
	</node>
	<node id="-591267" lat="62.8212694462" lon="7.35010833494">
		<tag k="name" v="Dyrdalen" />
		<tag k="natural" v="valley" />
		<tag k="place" v="locality" />
		<tag k="ssr:stedsnr" v="762956" />
	</node>
	<node id="-591265" lat="62.8305388874" lon="7.39026945022">
		<tag k="name" v="Kvitålia" />
		<tag k="natural" v="slope" />
		<tag k="place" v="locality" />
		<tag k="ssr:stedsnr" v="762947" />
	</node>
	<node id="-591263" lat="62.8270972225" lon="7.41941666495">
		<tag k="name" v="Heiane" />
		<tag k="natural" v="slope" />
		<tag k="place" v="locality" />
		<tag k="ssr:stedsnr" v="762946" />
	</node>
	<node id="-589381" lat="62.8784416701" lon="7.07789443617">
		<tag k="name" v="Heggerusthaugen" />
		<tag k="natural" v="hill" />
		<tag k="place" v="locality" />
		<tag k="ssr:stedsnr" v="337651" />
	</node>
	<node id="-591260" lat="62.7667305557" lon="7.08348611414">
		<tag k="name" v="Høglia" />
		<tag k="natural" v="slope" />
		<tag k="place" v="locality" />
		<tag k="ssr:stedsnr" v="760876" />
	</node>
	<node id="-591259" lat="62.7929194458" lon="7.19431388805">
		<tag k="name" v="Holshaugen" />
		<tag k="natural" v="hill" />
		<tag k="place" v="locality" />
		<tag k="ssr:stedsnr" v="760032" />
	</node>
	<node id="-591255" lat="62.9140249958" lon="6.9279833299">
		<tag k="name" v="Juldagskua" />
		<tag k="natural" v="hill" />
		<tag k="place" v="locality" />
		<tag k="ssr:stedsnr" v="741115" />
	</node>
	<node id="-591254" lat="62.9184499999" lon="7.14810833496">
		<tag k="fixme" v="consider natural=peak for the most distinct mountains in the district" />
		<tag k="name" v="Raudtua" />
		<tag k="natural" v="hill" />
		<tag k="place" v="locality" />
		<tag k="ssr:stedsnr" v="741101" />
	</node>
	<node id="-591251" lat="62.9129166663" lon="6.99475555853">
		<tag k="name" v="Vannløkshaugen" />
		<tag k="natural" v="hill" />
		<tag k="place" v="locality" />
		<tag k="ssr:stedsnr" v="741090" />
	</node>
	<node id="-591249" lat="62.9651194488" lon="7.25312777287">
		<tag k="name" v="Gålia" />
		<tag k="natural" v="slope" />
		<tag k="place" v="locality" />
		<tag k="ssr:stedsnr" v="740928" />
	</node>
	<node id="-591246" lat="62.7574166669" lon="7.05178055589">
		<tag k="name" v="Grytrørin" />
		<tag k="natural" v="slope" />
		<tag k="place" v="locality" />
		<tag k="ssr:stedsnr" v="740859" />
	</node>
	<node id="-591243" lat="62.8110666679" lon="7.28367222757">
		<tag k="fixme" v="consider natural=peak for the most distinct mountains in the district" />
		<tag k="name" v="Julskartinden" />
		<tag k="natural" v="hill" />
		<tag k="place" v="locality" />
		<tag k="ssr:stedsnr" v="740735" />
	</node>
	<node id="-591242" lat="62.8150222232" lon="7.41022777255">
		<tag k="name" v="Langdalsreset" />
		<tag k="natural" v="slope" />
		<tag k="place" v="locality" />
		<tag k="ssr:stedsnr" v="740733" />
	</node>
	<node id="-591222" lat="62.9804886265" lon="7.20165691242">
		<tag k="fixme" v="consider natural=peak for the most distinct mountains in the district" />
		<tag k="name" v="Stemshesten" />
		<tag k="natural" v="hill" />
		<tag k="place" v="locality" />
		<tag k="ssr:stedsnr" v="740025" />
	</node>
	<node id="-591220" lat="62.7850916625" lon="7.19385000303">
		<tag k="fixme" v="consider natural=peak for the most distinct mountains in the district" />
		<tag k="name" v="Såta" />
		<tag k="natural" v="hill" />
		<tag k="place" v="locality" />
		<tag k="ssr:stedsnr" v="739839" />
	</node>
	<node id="-591214" lat="62.8614388881" lon="7.04043055739">
		<tag k="fixme" v="consider natural=peak for the most distinct mountains in the district" />
		<tag k="name" v="Åsmulen" />
		<tag k="natural" v="hill" />
		<tag k="place" v="locality" />
		<tag k="ssr:stedsnr" v="739235" />
	</node>
	<node id="-591213" lat="62.9028027813" lon="6.99893055045">
		<tag k="alt_name" v="Tipphaugen" />
		<tag k="name" v="Tepphaugen" />
		<tag k="natural" v="hill" />
		<tag k="place" v="locality" />
		<tag k="ssr:stedsnr" v="739178" />
	</node>
	<node id="-589393" lat="62.8989555562" lon="6.99386110386">
		<tag k="fixme" v="consider natural=peak for the most distinct mountains in the district" />
		<tag k="name" v="Bergremma" />
		<tag k="natural" v="hill" />
		<tag k="place" v="locality" />
		<tag k="ssr:stedsnr" v="338335" />
	</node>
	<node id="-591190" lat="62.9589138867" lon="7.08903889161">
		<tag k="name" v="Hammaren" />
		<tag k="natural" v="hill" />
		<tag k="place" v="locality" />
		<tag k="ssr:stedsnr" v="702977" />
	</node>
	<node id="-591189" lat="62.9325722258" lon="7.23040000352">
		<tag k="name" v="Steinan" />
		<tag k="natural" v="slope" />
		<tag k="place" v="locality" />
		<tag k="ssr:stedsnr" v="702947" />
	</node>
	<node id="-591185" lat="62.8400083362" lon="7.00552222393">
		<tag k="name" v="Skaret" />
		<tag k="natural" v="valley" />
		<tag k="place" v="locality" />
		<tag k="ssr:stedsnr" v="702921" />
	</node>
	<node id="-591184" lat="62.8949472185" lon="6.95774167541">
		<tag k="name" v="Løberget" />
		<tag k="natural" v="hill" />
		<tag k="place" v="locality" />
		<tag k="ssr:stedsnr" v="702914" />
	</node>
	<node id="-591182" lat="62.8959777822" lon="7.07723334237">
		<tag k="name" v="Hola" />
		<tag k="natural" v="hill" />
		<tag k="place" v="locality" />
		<tag k="ssr:stedsnr" v="702900" />
	</node>
	<node id="-591181" lat="62.9038444476" lon="7.27852499689">
		<tag k="name" v="Stordalsbotnen" />
		<tag k="natural" v="valley" />
		<tag k="place" v="locality" />
		<tag k="ssr:stedsnr" v="702876" />
	</node>
	<node id="-591180" lat="62.8970194475" lon="7.26591943701">
		<tag k="fixme" v="consider natural=peak for the most distinct mountains in the district" />
		<tag k="name" v="Bryntinden" />
		<tag k="natural" v="hill" />
		<tag k="place" v="locality" />
		<tag k="ssr:stedsnr" v="702875" />
	</node>
	<node id="-591179" lat="62.9763194485" lon="7.25851389451">
		<tag k="name" v="Litlsandhågen" />
		<tag k="natural" v="hill" />
		<tag k="place" v="locality" />
		<tag k="ssr:stedsnr" v="702874" />
	</node>
	<node id="-591175" lat="62.8642611098" lon="7.31329722049">
		<tag k="name" v="Bjørndalsrøra" />
		<tag k="natural" v="ridge" />
		<tag k="place" v="locality" />
		<tag k="ssr:stedsnr" v="702858" />
	</node>
	<node id="-591174" lat="62.793858335" lon="7.03408332836">
		<tag k="name" v="Nakken" />
		<tag k="natural" v="ridge" />
		<tag k="place" v="locality" />
		<tag k="ssr:stedsnr" v="702822" />
	</node>
	<node id="-591173" lat="62.7970527793" lon="7.30620277427">
		<tag k="name" v="Onnhammaren" />
		<tag k="natural" v="cliff" />
		<tag k="ssr:stedsnr" v="702817" />
	</node>
	<node id="-591171" lat="62.8359055513" lon="7.39630556368">
		<tag k="name" v="Bjørndalsrøra" />
		<tag k="natural" v="ridge" />
		<tag k="place" v="locality" />
		<tag k="ssr:stedsnr" v="702793" />
	</node>
	<node id="-591169" lat="62.9028222207" lon="7.23429999778">
		<tag k="name" v="Støldalen" />
		<tag k="natural" v="valley" />
		<tag k="place" v="locality" />
		<tag k="ssr:stedsnr" v="702787" />
	</node>
	<node id="-591168" lat="62.9022000009" lon="7.24274165943">
		<tag k="name" v="Tverrfjellia" />
		<tag k="natural" v="slope" />
		<tag k="place" v="locality" />
		<tag k="ssr:stedsnr" v="702788" />
	</node>
	<node id="-591167" lat="62.9403305601" lon="7.11390834077">
		<tag k="name" v="Lyngstadfjellet" />
		<tag k="natural" v="hill" />
		<tag k="place" v="locality" />
		<tag k="ssr:stedsnr" v="702702" />
	</node>
	<node id="-591166" lat="62.9320583299" lon="7.07455000891">
		<tag k="name" v="Venåsnabben" />
		<tag k="natural" v="hill" />
		<tag k="place" v="locality" />
		<tag k="ssr:stedsnr" v="702700" />
	</node>
	<node id="-591165" lat="62.9675749967" lon="7.14269999901">
		<tag k="name" v="Fulkammen" />
		<tag k="natural" v="ridge" />
		<tag k="place" v="locality" />
		<tag k="ssr:stedsnr" v="702697" />
	</node>
	<node id="-591163" lat="62.9841305517" lon="7.14458889561">
		<tag k="name" v="Laksberga" />
		<tag k="natural" v="hill" />
		<tag k="place" v="locality" />
		<tag k="ssr:stedsnr" v="702671" />
	</node>
	<node id="-591161" lat="62.8191944488" lon="7.19001944368">
		<tag k="name" v="Storhammaren" />
		<tag k="place" v="locality" />
		<tag k="ssr:stedsnr" v="702664" />
	</node>
	<node id="-591160" lat="62.9865583317" lon="7.19126387916">
		<tag k="name" v="Svarthammaren" />
		<tag k="place" v="locality" />
		<tag k="ssr:stedsnr" v="702654" />
	</node>
	<node id="-591158" lat="62.8989500044" lon="7.14663055697">
		<tag k="name" v="Tverlirøra" />
		<tag k="natural" v="ridge" />
		<tag k="place" v="locality" />
		<tag k="ssr:stedsnr" v="702632" />
	</node>
	<node id="-591157" lat="62.892947226" lon="7.14180832913">
		<tag k="name" v="Bottålhaugen" />
		<tag k="natural" v="hill" />
		<tag k="place" v="locality" />
		<tag k="ssr:stedsnr" v="702627" />
	</node>
	<node id="-591156" lat="62.8981999971" lon="7.08805554959">
		<tag k="name" v="Eldhushamran" />
		<tag k="place" v="locality" />
		<tag k="ssr:stedsnr" v="702620" />
	</node>
	<node id="-591155" lat="62.8975333296" lon="7.08623332607">
		<tag k="name" v="Tindpleta" />
		<tag k="place" v="locality" />
		<tag k="ssr:stedsnr" v="702618" />
	</node>
	<node id="-591154" lat="62.9122083353" lon="7.17170833725">
		<tag k="name" v="Nørslætta" />
		<tag k="place" v="locality" />
		<tag k="ssr:stedsnr" v="702609" />
	</node>
	<node id="-591153" lat="62.9486722181" lon="7.16421665963">
		<tag k="name" v="Kjerkeremma" />
		<tag k="natural" v="ridge" />
		<tag k="place" v="locality" />
		<tag k="ssr:stedsnr" v="702602" />
	</node>
	<node id="-591146" lat="62.8117638932" lon="7.08207499977">
		<tag k="name" v="Myrahaugen" />
		<tag k="natural" v="hill" />
		<tag k="place" v="locality" />
		<tag k="ssr:stedsnr" v="702554" />
	</node>
	<node id="-591145" lat="62.8268833329" lon="7.08698334119">
		<tag k="name" v="Forhaugen" />
		<tag k="natural" v="hill" />
		<tag k="place" v="locality" />
		<tag k="ssr:stedsnr" v="702541" />
	</node>
	<node id="-591142" lat="62.8873083364" lon="6.99136943517">
		<tag k="name" v="Rishaugan" />
		<tag k="natural" v="hill" />
		<tag k="place" v="locality" />
		<tag k="ssr:stedsnr" v="702513" />
	</node>
	<node id="-591141" lat="62.8767611152" lon="6.9740694381">
		<tag k="name" v="Trøhaugrørin" />
		<tag k="natural" v="ridge" />
		<tag k="place" v="locality" />
		<tag k="ssr:stedsnr" v="702507" />
	</node>
	<node id="-591140" lat="62.9137222243" lon="6.94074166428">
		<tag k="name" v="Rambuomnen" />
		<tag k="natural" v="gorge" />
		<tag k="ssr:stedsnr" v="702495" />
	</node>
	<node id="-591137" lat="62.9230083361" lon="7.0376694494">
		<tag k="name" v="Høghaugen" />
		<tag k="natural" v="hill" />
		<tag k="place" v="locality" />
		<tag k="ssr:stedsnr" v="702489" />
	</node>
	<node id="-591136" lat="62.8657361126" lon="7.03706667405">
		<tag k="name" v="Nørde Breiskarholen" />
		<tag k="natural" v="hill" />
		<tag k="place" v="locality" />
		<tag k="ssr:stedsnr" v="702488" />
	</node>
	<node id="-591135" lat="62.869288888" lon="7.04135834221">
		<tag k="name" v="Britholen" />
		<tag k="natural" v="hill" />
		<tag k="place" v="locality" />
		<tag k="ssr:stedsnr" v="702487" />
	</node>
	<node id="-591134" lat="62.9361861116" lon="7.05501944922">
		<tag k="name" v="Skjøljarhaugen" />
		<tag k="natural" v="hill" />
		<tag k="place" v="locality" />
		<tag k="ssr:stedsnr" v="702475" />
	</node>
	<node id="-591133" lat="62.940863886" lon="7.05077778238">
		<tag k="name" v="Svartholen" />
		<tag k="natural" v="hill" />
		<tag k="place" v="locality" />
		<tag k="ssr:stedsnr" v="702472" />
	</node>
	<node id="-591132" lat="62.9230361118" lon="6.98796944761">
		<tag k="name" v="Trollhaugen" />
		<tag k="natural" v="hill" />
		<tag k="place" v="locality" />
		<tag k="ssr:stedsnr" v="702469" />
	</node>
	<node id="-591130" lat="62.778627775" lon="7.16577221615">
		<tag k="name" v="Skjenhammaren" />
		<tag k="natural" v="cliff" />
		<tag k="ssr:stedsnr" v="702466" />
	</node>
	<node id="-591124" lat="62.7965166656" lon="7.00672222834">
		<tag k="name" v="Løvenskaret" />
		<tag k="natural" v="valley" />
		<tag k="place" v="locality" />
		<tag k="ssr:stedsnr" v="702374" />
	</node>
	<node id="-591122" lat="62.9059361141" lon="7.04704999208">
		<tag k="name" v="Seterhaugen" />
		<tag k="natural" v="hill" />
		<tag k="place" v="locality" />
		<tag k="ssr:stedsnr" v="702361" />
	</node>
	<node id="-591119" lat="62.9056922085" lon="6.91627653125">
		<tag k="name" v="Torhaugen" />
		<tag k="natural" v="hill" />
		<tag k="place" v="locality" />
		<tag k="ssr:stedsnr" v="702333" />
	</node>
	<node id="-591113" lat="62.8128055512" lon="7.35558611032">
		<tag k="name" v="Seterlia" />
		<tag k="natural" v="slope" />
		<tag k="place" v="locality" />
		<tag k="ssr:stedsnr" v="701963" />
	</node>
	<node id="-591112" lat="62.8326277744" lon="7.25922777453">
		<tag k="name" v="Rørene" />
		<tag k="natural" v="ridge" />
		<tag k="place" v="locality" />
		<tag k="ssr:stedsnr" v="701961" />
	</node>
	<node id="-591107" lat="62.7969916644" lon="7.23104722663">
		<tag k="name" v="Auspasletta" />
		<tag k="place" v="locality" />
		<tag k="ssr:stedsnr" v="699824" />
	</node>
	<node id="-591106" lat="62.7951972257" lon="7.23335277979">
		<tag k="name" v="Vargskaret" />
		<tag k="natural" v="valley" />
		<tag k="place" v="locality" />
		<tag k="ssr:stedsnr" v="699822" />
	</node>
	<node id="-591105" lat="62.9713444489" lon="7.18715000422">
		<tag k="name" v="Jurtippen" />
		<tag k="natural" v="hill" />
		<tag k="place" v="locality" />
		<tag k="ssr:stedsnr" v="702758" />
	</node>
	<node id="-591104" lat="62.9866333369" lon="7.2166472245">
		<tag k="name" v="Fjøshaugen" />
		<tag k="natural" v="hill" />
		<tag k="place" v="locality" />
		<tag k="ssr:stedsnr" v="702752" />
	</node>
	<node id="-591103" lat="62.8089888874" lon="7.33100000378">
		<tag k="name" v="Melseterlia" />
		<tag k="natural" v="slope" />
		<tag k="place" v="locality" />
		<tag k="ssr:stedsnr" v="702740" />
	</node>
	<node id="-591100" lat="62.9659499973" lon="7.22968333291">
		<tag k="name" v="Kyrhaugen" />
		<tag k="natural" v="hill" />
		<tag k="place" v="locality" />
		<tag k="ssr:stedsnr" v="702713" />
	</node>
	<node id="-591097" lat="62.8195527751" lon="7.31136110553">
		<tag k="fixme" v="consider natural=peak for the most distinct mountains in the district" />
		<tag k="name" v="Kaldbaken" />
		<tag k="natural" v="hill" />
		<tag k="old_name" v="Urdfjellet" />
		<tag k="place" v="locality" />
		<tag k="ssr:stedsnr" v="680785" />
	</node>
	<node id="-591094" lat="62.9198500043" lon="7.01596388565">
		<tag k="name" v="Trollhaugen" />
		<tag k="natural" v="hill" />
		<tag k="place" v="locality" />
		<tag k="ssr:stedsnr" v="680110" />
	</node>
	<node id="-591086" lat="62.7934972184" lon="7.10403333378">
		<tag k="name" v="Valltua" />
		<tag k="natural" v="hill" />
		<tag k="place" v="locality" />
		<tag k="ssr:stedsnr" v="679793" />
	</node>
	<node id="-591076" lat="62.8943222248" lon="7.11800832672">
		<tag k="alt_name" v="Nørdre Varden" />
		<tag k="fixme" v="consider natural=peak for the most distinct mountains in the district" />
		<tag k="name" v="Lauvhornet" />
		<tag k="natural" v="hill" />
		<tag k="place" v="locality" />
		<tag k="ssr:stedsnr" v="679161" />
	</node>
	<node id="-591064" lat="62.851483335" lon="7.40033889436">
		<tag k="fixme" v="consider natural=peak for the most distinct mountains in the district" />
		<tag k="name" v="Luten" />
		<tag k="natural" v="hill" />
		<tag k="place" v="locality" />
		<tag k="ssr:stedsnr" v="678683" />
	</node>
	<node id="-591062" lat="62.8993305585" lon="7.25535000478">
		<tag k="name" v="Seterdalen" />
		<tag k="natural" v="valley" />
		<tag k="place" v="locality" />
		<tag k="ssr:stedsnr" v="678562" />
	</node>
	<node id="-591039" lat="62.9001916683" lon="7.09799444644">
		<tag k="name" v="Kolmilin" />
		<tag k="place" v="locality" />
		<tag k="ssr:stedsnr" v="641978" />
	</node>
	<node id="-591038" lat="62.8881249974" lon="7.082147231">
		<tag k="name" v="Halsan" />
		<tag k="natural" v="slope" />
		<tag k="place" v="locality" />
		<tag k="ssr:stedsnr" v="641974" />
	</node>
	<node id="-591037" lat="62.9375527793" lon="7.10746388524">
		<tag k="name" v="Kammen" />
		<tag k="natural" v="ridge" />
		<tag k="place" v="locality" />
		<tag k="ssr:stedsnr" v="641968" />
	</node>
	<node id="-591034" lat="62.9509972184" lon="7.2041249986">
		<tag k="name" v="Skredan" />
		<tag k="natural" v="slope" />
		<tag k="place" v="locality" />
		<tag k="ssr:stedsnr" v="641941" />
	</node>
	<node id="-591032" lat="62.9030361096" lon="7.22633610827">
		<tag k="name" v="Nakken" />
		<tag k="natural" v="ridge" />
		<tag k="place" v="locality" />
		<tag k="ssr:stedsnr" v="641935" />
	</node>
	<node id="-591030" lat="62.7954694481" lon="7.13634722907">
		<tag k="name" v="Kol-lia" />
		<tag k="natural" v="slope" />
		<tag k="place" v="locality" />
		<tag k="ssr:stedsnr" v="641915" />
	</node>
	<node id="-591028" lat="62.8910792083" lon="6.8344573333">
		<tag k="name" v="Hella" />
		<tag k="natural" v="hill" />
		<tag k="place" v="locality" />
		<tag k="ssr:stedsnr" v="641906" />
	</node>
	<node id="-591023" lat="62.8730333367" lon="7.06988332869">
		<tag k="name" v="Veten" />
		<tag k="natural" v="hill" />
		<tag k="place" v="locality" />
		<tag k="ssr:stedsnr" v="641885" />
	</node>
	<node id="-591022" lat="62.9041416686" lon="7.15972499636">
		<tag k="name" v="Grønlia" />
		<tag k="natural" v="slope" />
		<tag k="place" v="locality" />
		<tag k="ssr:stedsnr" v="641879" />
	</node>
	<node id="-591021" lat="62.8905499992" lon="7.14206945013">
		<tag k="name" v="Lykkja" />
		<tag k="natural" v="slope" />
		<tag k="place" v="locality" />
		<tag k="ssr:stedsnr" v="641874" />
	</node>
	<node id="-591020" lat="62.8150305589" lon="7.07251944149">
		<tag k="name" v="Vearøra" />
		<tag k="natural" v="ridge" />
		<tag k="place" v="locality" />
		<tag k="ssr:stedsnr" v="641869" />
	</node>
	<node id="-591019" lat="62.8275361096" lon="7.07805278738">
		<tag k="name" v="Joberget" />
		<tag k="natural" v="hill" />
		<tag k="place" v="locality" />
		<tag k="ssr:stedsnr" v="641856" />
	</node>
	<node id="-591018" lat="62.980638892" lon="7.25431111958">
		<tag k="name" v="Sjølgjetlhågen" />
		<tag k="natural" v="hill" />
		<tag k="place" v="locality" />
		<tag k="ssr:stedsnr" v="641847" />
	</node>
	<node id="-591017" lat="62.8387083316" lon="7.30046388206">
		<tag k="name" v="Malislætthammaren" />
		<tag k="natural" v="cliff" />
		<tag k="ssr:stedsnr" v="641825" />
	</node>
	<node id="-591016" lat="62.8305333338" lon="7.34063610285">
		<tag k="name" v="Nordre grova" />
		<tag k="natural" v="valley" />
		<tag k="place" v="locality" />
		<tag k="ssr:stedsnr" v="641816" />
	</node>
	<node id="-591015" lat="62.8264138856" lon="7.32714444456">
		<tag k="name" v="Søre grova" />
		<tag k="natural" v="valley" />
		<tag k="place" v="locality" />
		<tag k="ssr:stedsnr" v="641813" />
	</node>
	<node id="-591014" lat="62.792838885" lon="7.28693611592">
		<tag k="fixme" v="consider natural=peak for the most distinct mountains in the district" />
		<tag k="name" v="Brekkenakken" />
		<tag k="natural" v="hill" />
		<tag k="place" v="locality" />
		<tag k="ssr:stedsnr" v="641792" />
	</node>
	<node id="-591013" lat="62.7877499966" lon="7.26361945246">
		<tag k="name" v="Sparbosletta" />
		<tag k="place" v="locality" />
		<tag k="ssr:stedsnr" v="641790" />
	</node>
	<node id="-591011" lat="62.8807750009" lon="7.22805555891">
		<tag k="name" v="Hommeldalen" />
		<tag k="natural" v="valley" />
		<tag k="place" v="locality" />
		<tag k="ssr:stedsnr" v="641781" />
	</node>
	<node id="-591008" lat="62.9127027764" lon="6.91754166689">
		<tag k="name" v="Høghaugen" />
		<tag k="natural" v="hill" />
		<tag k="place" v="locality" />
		<tag k="ssr:stedsnr" v="641770" />
	</node>
	<node id="-591007" lat="62.9098166692" lon="6.91019999921">
		<tag k="name" v="Hesthaugen" />
		<tag k="natural" v="hill" />
		<tag k="place" v="locality" />
		<tag k="ssr:stedsnr" v="641769" />
	</node>
	<node id="-591006" lat="62.9105166639" lon="6.90656666686">
		<tag k="name" v="Ørnhaugen" />
		<tag k="natural" v="hill" />
		<tag k="place" v="locality" />
		<tag k="ssr:stedsnr" v="641767" />
	</node>
	<node id="-591005" lat="62.97738889" lon="7.21340555666">
		<tag k="name" v="Kvernhusaksla" />
		<tag k="natural" v="ridge" />
		<tag k="place" v="locality" />
		<tag k="ssr:stedsnr" v="641754" />
	</node>
	<node id="-591004" lat="62.8035444453" lon="7.35206110144">
		<tag k="name" v="Tareslettlia" />
		<tag k="natural" v="slope" />
		<tag k="place" v="locality" />
		<tag k="ssr:stedsnr" v="641748" />
	</node>
	<node id="-591001" lat="62.9891861121" lon="7.24118610232">
		<tag k="name" v="Sandblåstremman" />
		<tag k="natural" v="ridge" />
		<tag k="place" v="locality" />
		<tag k="ssr:stedsnr" v="641734" />
	</node>
	<node id="-591000" lat="62.9421138869" lon="7.22956667083">
		<tag k="name" v="Meldalane" />
		<tag k="natural" v="valley" />
		<tag k="place" v="locality" />
		<tag k="ssr:stedsnr" v="641725" />
	</node>
	<node id="-590999" lat="62.9132444407" lon="7.24572222858">
		<tag k="name" v="Pikhaugen" />
		<tag k="natural" v="hill" />
		<tag k="place" v="locality" />
		<tag k="ssr:stedsnr" v="641722" />
	</node>
	<node id="-590998" lat="62.917672221" lon="7.21873611583">
		<tag k="name" v="Melkeberget" />
		<tag k="natural" v="hill" />
		<tag k="place" v="locality" />
		<tag k="ssr:stedsnr" v="641712" />
	</node>
	<node id="-590997" lat="62.9441666639" lon="7.11422777439">
		<tag k="name" v="Aslaksteinen" />
		<tag k="natural" v="hill" />
		<tag k="place" v="locality" />
		<tag k="ssr:stedsnr" v="641708" />
	</node>
	<node id="-590996" lat="62.8504888909" lon="7.18495555782">
		<tag k="name" v="Tollhaugen" />
		<tag k="natural" v="hill" />
		<tag k="place" v="locality" />
		<tag k="ssr:stedsnr" v="641666" />
	</node>
	<node id="-590993" lat="62.872183336" lon="7.07951945267">
		<tag k="name" v="Nonshaugan" />
		<tag k="natural" v="hill" />
		<tag k="place" v="locality" />
		<tag k="ssr:stedsnr" v="641635" />
	</node>
	<node id="-590991" lat="62.8651916689" lon="7.10281666062">
		<tag k="name" v="Seterholen" />
		<tag k="natural" v="hill" />
		<tag k="place" v="locality" />
		<tag k="ssr:stedsnr" v="641623" />
	</node>
	<node id="-590990" lat="62.8982694446" lon="7.15394722238">
		<tag k="name" v="Hatlehaugen" />
		<tag k="natural" v="hill" />
		<tag k="place" v="locality" />
		<tag k="ssr:stedsnr" v="641605" />
	</node>
	<node id="-590989" lat="62.8962805548" lon="7.09130000153">
		<tag k="name" v="Botnatindkløvet" />
		<tag k="natural" v="valley" />
		<tag k="place" v="locality" />
		<tag k="ssr:stedsnr" v="641602" />
	</node>
	<node id="-590988" lat="62.8911166662" lon="7.10649167006">
		<tag k="name" v="Skalthammaren" />
		<tag k="place" v="locality" />
		<tag k="ssr:stedsnr" v="641596" />
	</node>
	<node id="-590987" lat="62.930741664" lon="7.14056944733">
		<tag k="name" v="Stormreset" />
		<tag k="natural" v="ridge" />
		<tag k="place" v="locality" />
		<tag k="ssr:stedsnr" v="641564" />
	</node>
	<node id="-590985" lat="62.7970083324" lon="7.09671110151">
		<tag k="name" v="Skreddalen" />
		<tag k="natural" v="valley" />
		<tag k="place" v="locality" />
		<tag k="ssr:stedsnr" v="641550" />
	</node>
	<node id="-590982" lat="62.8826388888" lon="6.9918750013">
		<tag k="name" v="Stavlunden" />
		<tag k="place" v="locality" />
		<tag k="ssr:stedsnr" v="641490" />
	</node>
	<node id="-590981" lat="62.8739138876" lon="6.99086110308">
		<tag k="name" v="Vedaberget" />
		<tag k="natural" v="hill" />
		<tag k="place" v="locality" />
		<tag k="ssr:stedsnr" v="641487" />
	</node>
	<node id="-590977" lat="62.9391749964" lon="7.02123334156">
		<tag k="name" v="Sundedalen" />
		<tag k="natural" v="valley" />
		<tag k="place" v="locality" />
		<tag k="ssr:stedsnr" v="641450" />
	</node>
	<node id="-590974" lat="62.9336527795" lon="6.98185556293">
		<tag k="name" v="Sandhaugen" />
		<tag k="natural" v="hill" />
		<tag k="place" v="locality" />
		<tag k="ssr:stedsnr" v="641425" />
	</node>
	<node id="-590973" lat="62.9334138893" lon="6.98831666852">
		<tag k="name" v="Høghaugan" />
		<tag k="natural" v="hill" />
		<tag k="place" v="locality" />
		<tag k="ssr:stedsnr" v="641423" />
	</node>
	<node id="-590971" lat="62.8371750008" lon="7.03917499328">
		<tag k="name" v="Nothaugen" />
		<tag k="natural" v="hill" />
		<tag k="place" v="locality" />
		<tag k="ssr:stedsnr" v="641409" />
	</node>
	<node id="-590970" lat="62.839441665" lon="7.05190277879">
		<tag k="name" v="Stabburshaugen" />
		<tag k="natural" v="hill" />
		<tag k="place" v="locality" />
		<tag k="ssr:stedsnr" v="641407" />
	</node>
	<node id="-590966" lat="62.8459972261" lon="7.00335556367">
		<tag k="name" v="Brenthaugen" />
		<tag k="natural" v="hill" />
		<tag k="place" v="locality" />
		<tag k="ssr:stedsnr" v="641393" />
	</node>
	<node id="-590964" lat="62.8598888912" lon="6.99492222544">
		<tag k="name" v="Skrånesberga" />
		<tag k="natural" v="hill" />
		<tag k="place" v="locality" />
		<tag k="ssr:stedsnr" v="641382" />
	</node>
	<node id="-590963" lat="62.8568611079" lon="7.02218888847">
		<tag k="name" v="Litlevarden" />
		<tag k="natural" v="hill" />
		<tag k="place" v="locality" />
		<tag k="ssr:stedsnr" v="641379" />
	</node>
	<node id="-590962" lat="62.7834583296" lon="7.01532500535">
		<tag k="name" v="Grøndalen" />
		<tag k="natural" v="valley" />
		<tag k="place" v="locality" />
		<tag k="ssr:stedsnr" v="641370" />
	</node>
	<node id="-590961" lat="62.7921555562" lon="6.98278610326">
		<tag k="name" v="Hytthaugen" />
		<tag k="natural" v="hill" />
		<tag k="place" v="locality" />
		<tag k="ssr:stedsnr" v="641355" />
	</node>
	<node id="-590957" lat="62.895091671" lon="7.00536388569">
		<tag k="fixme" v="consider natural=peak for the most distinct mountains in the district" />
		<tag k="name" v="Steinburemma" />
		<tag k="natural" v="hill" />
		<tag k="place" v="locality" />
		<tag k="ssr:stedsnr" v="641346" />
	</node>
	<node id="-590955" lat="62.9079194443" lon="6.94716389236">
		<tag k="name" v="Gussperhaugan" />
		<tag k="natural" v="hill" />
		<tag k="place" v="locality" />
		<tag k="ssr:stedsnr" v="641326" />
	</node>
	<node id="-590946" lat="62.7877583328" lon="6.98762221431">
		<tag k="name" v="Sjøhaugen" />
		<tag k="natural" v="hill" />
		<tag k="place" v="locality" />
		<tag k="ssr:stedsnr" v="641023" />
	</node>
	<node id="-590940" lat="62.8511805531" lon="7.06085554871">
		<tag k="name" v="Grisholen" />
		<tag k="natural" v="hill" />
		<tag k="place" v="locality" />
		<tag k="ssr:stedsnr" v="640691" />
	</node>
	<node id="-590934" lat="62.7647916662" lon="7.06501388624">
		<tag k="name" v="Jevassdalen" />
		<tag k="natural" v="valley" />
		<tag k="place" v="locality" />
		<tag k="ssr:stedsnr" v="638881" />
	</node>
	<node id="-590932" lat="62.7760194421" lon="7.09542223198">
		<tag k="name" v="Rølia" />
		<tag k="natural" v="slope" />
		<tag k="place" v="locality" />
		<tag k="ssr:stedsnr" v="638876" />
	</node>
	<node id="-590931" lat="62.7779055599" lon="7.07670555435">
		<tag k="name" v="Renselnakken" />
		<tag k="natural" v="ridge" />
		<tag k="place" v="locality" />
		<tag k="ssr:stedsnr" v="638875" />
	</node>
	<node id="-590930" lat="62.7713249966" lon="7.09089166456">
		<tag k="name" v="Trohaugen" />
		<tag k="natural" v="hill" />
		<tag k="place" v="locality" />
		<tag k="ssr:stedsnr" v="638872" />
	</node>
	<node id="-590927" lat="62.7951305563" lon="7.23643889688">
		<tag k="fixme" v="consider natural=peak for the most distinct mountains in the district" />
		<tag k="name" v="Aksla" />
		<tag k="natural" v="hill" />
		<tag k="place" v="locality" />
		<tag k="ssr:stedsnr" v="619762" />
	</node>
	<node id="-590914" lat="62.761338885" lon="7.06139445129">
		<tag k="name" v="Langdalen" />
		<tag k="natural" v="valley" />
		<tag k="place" v="locality" />
		<tag k="ssr:stedsnr" v="618858" />
	</node>
	<node id="-590912" lat="62.7760361072" lon="7.12490833713">
		<tag k="name" v="Løvenskaret" />
		<tag k="natural" v="valley" />
		<tag k="place" v="locality" />
		<tag k="ssr:stedsnr" v="618821" />
	</node>
	<node id="-590905" lat="62.8635305576" lon="7.30048334087">
		<tag k="fixme" v="multiple name tags, choose one and add the other to alt_name" />
		<tag k="name" v="Kvannfjellskogen;Nerlia" />
		<tag k="natural" v="slope" />
		<tag k="place" v="locality" />
		<tag k="ssr:stedsnr" v="618619" />
	</node>
	<node id="-590902" lat="62.9268083344" lon="7.26096665716">
		<tag k="fixme" v="consider natural=peak for the most distinct mountains in the district" />
		<tag k="name" v="Bollen" />
		<tag k="natural" v="hill" />
		<tag k="place" v="locality" />
		<tag k="ssr:stedsnr" v="618499" />
	</node>
	<node id="-590890" lat="62.9054277801" lon="7.03808333256">
		<tag k="name" v="Marilihaugan" />
		<tag k="natural" v="hill" />
		<tag k="place" v="locality" />
		<tag k="ssr:stedsnr" v="618152" />
	</node>
	<node id="-590889" lat="62.9005555541" lon="7.01463333164">
		<tag k="name" v="Hundehaugan" />
		<tag k="natural" v="hill" />
		<tag k="place" v="locality" />
		<tag k="ssr:stedsnr" v="618153" />
	</node>
	<node id="-590853" lat="62.8746333315" lon="7.1011972194">
		<tag k="name" v="Britskaret" />
		<tag k="natural" v="valley" />
		<tag k="place" v="locality" />
		<tag k="ssr:stedsnr" v="581666" />
	</node>
	<node id="-590852" lat="62.8939916642" lon="7.16676666204">
		<tag k="name" v="Tollhaugen" />
		<tag k="natural" v="hill" />
		<tag k="place" v="locality" />
		<tag k="ssr:stedsnr" v="581664" />
	</node>
	<node id="-590844" lat="62.9188583369" lon="7.11966945221">
		<tag k="name" v="Hjertet" />
		<tag k="natural" v="slope" />
		<tag k="place" v="locality" />
		<tag k="ssr:stedsnr" v="580965" />
	</node>
	<node id="-590840" lat="62.8817694439" lon="7.25814444548">
		<tag k="name" v="Nakken" />
		<tag k="natural" v="ridge" />
		<tag k="place" v="locality" />
		<tag k="ssr:stedsnr" v="580943" />
	</node>
	<node id="-590839" lat="62.8460583317" lon="7.28846943808">
		<tag k="name" v="Låglitua" />
		<tag k="natural" v="hill" />
		<tag k="place" v="locality" />
		<tag k="ssr:stedsnr" v="580944" />
	</node>
	<node id="-590837" lat="62.9254888888" lon="7.24713888151">
		<tag k="name" v="Kakken" />
		<tag k="natural" v="slope" />
		<tag k="place" v="locality" />
		<tag k="ssr:stedsnr" v="580933" />
	</node>
	<node id="-590836" lat="62.9293305551" lon="7.23910556027">
		<tag k="name" v="Fårbuska" />
		<tag k="natural" v="slope" />
		<tag k="place" v="locality" />
		<tag k="ssr:stedsnr" v="580930" />
	</node>
	<node id="-590835" lat="62.8670805531" lon="7.05163055472">
		<tag k="name" v="Brauta" />
		<tag k="natural" v="slope" />
		<tag k="place" v="locality" />
		<tag k="ssr:stedsnr" v="580928" />
	</node>
	<node id="-590830" lat="62.8757444421" lon="7.07190833544">
		<tag k="name" v="Botnen" />
		<tag k="natural" v="valley" />
		<tag k="place" v="locality" />
		<tag k="ssr:stedsnr" v="580905" />
	</node>
	<node id="-590829" lat="62.8483472231" lon="7.10779721869">
		<tag k="name" v="Håberga" />
		<tag k="natural" v="hill" />
		<tag k="place" v="locality" />
		<tag k="ssr:stedsnr" v="580900" />
	</node>
	<node id="-590827" lat="62.8031166674" lon="7.10036945374">
		<tag k="name" v="Vollalia" />
		<tag k="natural" v="slope" />
		<tag k="place" v="locality" />
		<tag k="ssr:stedsnr" v="580886" />
	</node>
	<node id="-590826" lat="62.8455083295" lon="7.09416666391">
		<tag k="name" v="Tronhola" />
		<tag k="natural" v="hill" />
		<tag k="place" v="locality" />
		<tag k="ssr:stedsnr" v="580878" />
	</node>
	<node id="-590825" lat="62.9153138925" lon="7.25554443584">
		<tag k="name" v="Nonshaugen" />
		<tag k="natural" v="hill" />
		<tag k="place" v="locality" />
		<tag k="ssr:stedsnr" v="580866" />
	</node>
	<node id="-590824" lat="62.8387638923" lon="7.29836110817">
		<tag k="name" v="Ramsedalen" />
		<tag k="natural" v="valley" />
		<tag k="place" v="locality" />
		<tag k="ssr:stedsnr" v="580850" />
	</node>
	<node id="-590822" lat="62.8081472225" lon="7.3913750027">
		<tag k="name" v="Skorpelia" />
		<tag k="natural" v="slope" />
		<tag k="place" v="locality" />
		<tag k="ssr:stedsnr" v="580807" />
	</node>
	<node id="-590818" lat="62.9725916695" lon="7.21159167102">
		<tag k="name" v="Sjuvassdompin" />
		<tag k="natural" v="slope" />
		<tag k="place" v="locality" />
		<tag k="ssr:stedsnr" v="580768" />
	</node>
	<node id="-590817" lat="62.8193250045" lon="7.29310278437">
		<tag k="name" v="Kaldbakhola" />
		<tag k="natural" v="valley" />
		<tag k="place" v="locality" />
		<tag k="ssr:stedsnr" v="580758" />
	</node>
	<node id="-590816" lat="62.9622972259" lon="7.24688610605">
		<tag k="name" v="Slopphaugen" />
		<tag k="natural" v="hill" />
		<tag k="place" v="locality" />
		<tag k="ssr:stedsnr" v="580748" />
	</node>
	<node id="-590814" lat="62.9537500041" lon="7.1099527711">
		<tag k="name" v="Saghaugane" />
		<tag k="natural" v="hill" />
		<tag k="place" v="locality" />
		<tag k="ssr:stedsnr" v="580707" />
	</node>
	<node id="-590812" lat="62.984600001" lon="7.1666361094">
		<tag k="name" v="Brandshaugen" />
		<tag k="natural" v="hill" />
		<tag k="place" v="locality" />
		<tag k="ssr:stedsnr" v="580700" />
	</node>
	<node id="-590809" lat="62.8222861151" lon="7.19741110612">
		<tag k="name" v="Ramnskarholet" />
		<tag k="natural" v="valley" />
		<tag k="place" v="locality" />
		<tag k="ssr:stedsnr" v="580663" />
	</node>
	<node id="-590808" lat="62.878255557" lon="7.21127777584">
		<tag k="name" v="Hommeldalseidet" />
		<tag k="natural" v="valley" />
		<tag k="place" v="locality" />
		<tag k="ssr:stedsnr" v="580657" />
	</node>
	<node id="-590807" lat="62.8799500018" lon="7.08601112026">
		<tag k="name" v="Bjørkarustin" />
		<tag k="natural" v="hill" />
		<tag k="place" v="locality" />
		<tag k="ssr:stedsnr" v="580636" />
	</node>
	<node id="-590805" lat="62.7849666641" lon="7.16993332638">
		<tag k="fixme" v="consider natural=peak for the most distinct mountains in the district" />
		<tag k="name" v="Sollirørene" />
		<tag k="natural" v="hill" />
		<tag k="place" v="locality" />
		<tag k="ssr:stedsnr" v="580553" />
	</node>
	<node id="-590804" lat="62.8061055582" lon="7.06282221653">
		<tag k="name" v="Fjellaksla" />
		<tag k="natural" v="ridge" />
		<tag k="place" v="locality" />
		<tag k="ssr:stedsnr" v="580530" />
	</node>
	<node id="-590802" lat="62.8622944447" lon="7.05933612014">
		<tag k="name" v="Slutåslia" />
		<tag k="natural" v="slope" />
		<tag k="place" v="locality" />
		<tag k="ssr:stedsnr" v="580499" />
	</node>
	<node id="-590801" lat="62.8779638887" lon="6.99120834139">
		<tag k="name" v="Ulverumpa" />
		<tag k="natural" v="ridge" />
		<tag k="place" v="locality" />
		<tag k="ssr:stedsnr" v="580496" />
	</node>
	<node id="-590800" lat="62.8734055559" lon="6.99406667459">
		<tag k="name" v="Kvennaberget" />
		<tag k="natural" v="hill" />
		<tag k="place" v="locality" />
		<tag k="ssr:stedsnr" v="580489" />
	</node>
	<node id="-590799" lat="62.8775027761" lon="6.99031111421">
		<tag k="name" v="Storhaugen" />
		<tag k="natural" v="hill" />
		<tag k="place" v="locality" />
		<tag k="ssr:stedsnr" v="580481" />
	</node>
	<node id="-590798" lat="62.9119222202" lon="6.95951944285">
		<tag k="name" v="Brattlitua" />
		<tag k="natural" v="hill" />
		<tag k="place" v="locality" />
		<tag k="ssr:stedsnr" v="580473" />
	</node>
	<node id="-590797" lat="62.8843972249" lon="7.04932499716">
		<tag k="name" v="Tjukkholen" />
		<tag k="natural" v="hill" />
		<tag k="place" v="locality" />
		<tag k="ssr:stedsnr" v="580463" />
	</node>
	<node id="-590796" lat="62.7956861126" lon="7.12624999702">
		<tag k="name" v="Kol-linakken" />
		<tag k="natural" v="hill" />
		<tag k="place" v="locality" />
		<tag k="ssr:stedsnr" v="580439" />
	</node>
	<node id="-590789" lat="62.8558138909" lon="7.00714445192">
		<tag k="name" v="Strandhaugen" />
		<tag k="natural" v="hill" />
		<tag k="place" v="locality" />
		<tag k="ssr:stedsnr" v="580392" />
	</node>
	<node id="-589407" lat="62.916436108" lon="6.9549722135">
		<tag k="name" v="Djupdalen" />
		<tag k="natural" v="valley" />
		<tag k="place" v="locality" />
		<tag k="ssr:stedsnr" v="338458" />
	</node>
	<node id="-590786" lat="62.8535777805" lon="7.02033334205">
		<tag k="name" v="Tronhaugen" />
		<tag k="natural" v="hill" />
		<tag k="place" v="locality" />
		<tag k="ssr:stedsnr" v="580383" />
	</node>
	<node id="-590785" lat="62.7753277772" lon="7.04530000311">
		<tag k="name" v="Smiledhaugen" />
		<tag k="natural" v="hill" />
		<tag k="place" v="locality" />
		<tag k="ssr:stedsnr" v="580374" />
	</node>
	<node id="-590784" lat="62.7983305532" lon="6.99820833002">
		<tag k="name" v="Pehjellen" />
		<tag k="natural" v="hill" />
		<tag k="place" v="locality" />
		<tag k="ssr:stedsnr" v="580358" />
	</node>
	<node id="-590783" lat="62.7980999959" lon="6.99248611528">
		<tag k="name" v="Kleivarøra" />
		<tag k="natural" v="ridge" />
		<tag k="place" v="locality" />
		<tag k="ssr:stedsnr" v="580357" />
	</node>
	<node id="-590779" lat="62.9055166661" lon="6.97526665752">
		<tag k="name" v="Kisthaugskaret" />
		<tag k="natural" v="valley" />
		<tag k="place" v="locality" />
		<tag k="ssr:stedsnr" v="580334" />
	</node>
	<node id="-590778" lat="62.9090388848" lon="6.95814721981">
		<tag k="name" v="Gulhaugen" />
		<tag k="natural" v="hill" />
		<tag k="place" v="locality" />
		<tag k="ssr:stedsnr" v="580320" />
	</node>
	<node id="-590775" lat="62.9061638876" lon="6.91229999628">
		<tag k="name" v="Skrivarhaugen" />
		<tag k="natural" v="hill" />
		<tag k="place" v="locality" />
		<tag k="ssr:stedsnr" v="580299" />
	</node>
	<node id="-590774" lat="62.9053804045" lon="6.91021227659">
		<tag k="name" v="Torhaugberga" />
		<tag k="natural" v="hill" />
		<tag k="place" v="locality" />
		<tag k="ssr:stedsnr" v="580297" />
	</node>
	<node id="-590770" lat="62.8174416629" lon="7.02309999846">
		<tag k="name" v="Reithaugane" />
		<tag k="natural" v="hill" />
		<tag k="place" v="locality" />
		<tag k="ssr:stedsnr" v="580240" />
	</node>
	<node id="-590769" lat="62.7724666703" lon="7.08298055272">
		<tag k="name" v="Jelsetlirørene" />
		<tag k="natural" v="ridge" />
		<tag k="place" v="locality" />
		<tag k="ssr:stedsnr" v="578869" />
	</node>
	<node id="-590768" lat="62.8971527765" lon="7.24318611899">
		<tag k="fixme" v="consider natural=peak for the most distinct mountains in the district" />
		<tag k="name" v="Tverrfjella" />
		<tag k="natural" v="hill" />
		<tag k="place" v="locality" />
		<tag k="ssr:stedsnr" v="566884" />
	</node>
	<node id="-590766" lat="62.794133332" lon="7.31976388869">
		<tag k="name" v="Skaret" />
		<tag k="natural" v="valley" />
		<tag k="place" v="locality" />
		<tag k="ssr:stedsnr" v="566654" />
	</node>
	<node id="-591346" lat="62.9355527798" lon="7.2122388967">
		<tag k="name" v="Ekkerlia" />
		<tag k="natural" v="slope" />
		<tag k="place" v="locality" />
		<tag k="ssr:stedsnr" v="763988" />
	</node>
	<node id="-590762" lat="62.8117694442" lon="7.27217499705">
		<tag k="fixme" v="consider natural=peak for the most distinct mountains in the district" />
		<tag k="name" v="Galten" />
		<tag k="natural" v="hill" />
		<tag k="place" v="locality" />
		<tag k="ssr:stedsnr" v="558776" />
	</node>
	<node id="-590758" lat="62.8269416665" lon="7.29354443747">
		<tag k="name" v="Rødalen" />
		<tag k="natural" v="valley" />
		<tag k="place" v="locality" />
		<tag k="ssr:stedsnr" v="558732" />
	</node>
	<node id="-591344" lat="62.9011527778" lon="7.08757500118">
		<tag k="name" v="Ørnetuva" />
		<tag k="natural" v="hill" />
		<tag k="place" v="locality" />
		<tag k="ssr:stedsnr" v="763979" />
	</node>
	<node id="-590741" lat="62.8889527757" lon="7.26710278653">
		<tag k="name" v="Trollkyrkja" />
		<tag k="natural" v="hill" />
		<tag k="place" v="locality" />
		<tag k="ssr:stedsnr" v="557573" />
	</node>
	<node id="-590738" lat="62.8706249987" lon="7.08501945108">
		<tag k="name" v="Åsdalen" />
		<tag k="natural" v="valley" />
		<tag k="place" v="locality" />
		<tag k="ssr:stedsnr" v="557141" />
	</node>
	<node id="-590735" lat="62.9050083297" lon="6.96722221433">
		<tag k="name" v="Grunnhaugen" />
		<tag k="natural" v="hill" />
		<tag k="place" v="locality" />
		<tag k="ssr:stedsnr" v="557071" />
	</node>
	<node id="-591341" lat="62.920258332" lon="7.02518888646">
		<tag k="name" v="Langlia" />
		<tag k="natural" v="slope" />
		<tag k="place" v="locality" />
		<tag k="ssr:stedsnr" v="763928" />
	</node>
	<node id="-590715" lat="62.8689277789" lon="7.20299445238">
		<tag k="name" v="Lågheia" />
		<tag k="natural" v="ridge" />
		<tag k="place" v="locality" />
		<tag k="ssr:stedsnr" v="520998" />
	</node>
	<node id="-590712" lat="62.9293750001" lon="6.94924722399">
		<tag k="name" v="Gildra" />
		<tag k="natural" v="hill" />
		<tag k="place" v="locality" />
		<tag k="ssr:stedsnr" v="520954" />
	</node>
	<node id="-590709" lat="62.8980694434" lon="7.1516916694">
		<tag k="name" v="Strupen" />
		<tag k="natural" v="valley" />
		<tag k="place" v="locality" />
		<tag k="ssr:stedsnr" v="520922" />
	</node>
	<node id="-590706" lat="62.892702776" lon="7.15673889769">
		<tag k="name" v="Hjellen" />
		<tag k="place" v="locality" />
		<tag k="ssr:stedsnr" v="520919" />
	</node>
	<node id="-590705" lat="62.8589472188" lon="7.14751945211">
		<tag k="name" v="Måna" />
		<tag k="natural" v="hill" />
		<tag k="place" v="locality" />
		<tag k="ssr:stedsnr" v="520907" />
	</node>
	<node id="-590704" lat="62.8461722203" lon="7.06292499972">
		<tag k="name" v="Århaugen" />
		<tag k="natural" v="hill" />
		<tag k="place" v="locality" />
		<tag k="ssr:stedsnr" v="520905" />
	</node>
	<node id="-590701" lat="62.8520777733" lon="7.25514999241">
		<tag k="name" v="Kråkhaugen" />
		<tag k="natural" v="hill" />
		<tag k="place" v="locality" />
		<tag k="ssr:stedsnr" v="520880" />
	</node>
	<node id="-590700" lat="62.8081472225" lon="7.3913750027">
		<tag k="name" v="Skorpelia" />
		<tag k="natural" v="slope" />
		<tag k="place" v="locality" />
		<tag k="ssr:stedsnr" v="520856" />
	</node>
	<node id="-590698" lat="62.8783944468" lon="7.23018333144">
		<tag k="name" v="Ørnehammaren" />
		<tag k="natural" v="cliff" />
		<tag k="ssr:stedsnr" v="520823" />
	</node>
	<node id="-590697" lat="62.8437805517" lon="7.24554445041">
		<tag k="name" v="Skitnedalsbakken" />
		<tag k="natural" v="slope" />
		<tag k="place" v="locality" />
		<tag k="ssr:stedsnr" v="520816" />
	</node>
	<node id="-590696" lat="62.9515555559" lon="7.20680278491">
		<tag k="name" v="Hansskredhammaren" />
		<tag k="natural" v="cliff" />
		<tag k="ssr:stedsnr" v="520797" />
	</node>
	<node id="-590695" lat="62.9679916687" lon="7.18835554674">
		<tag k="name" v="Storkløvet" />
		<tag k="natural" v="ridge" />
		<tag k="place" v="locality" />
		<tag k="ssr:stedsnr" v="520792" />
	</node>
	<node id="-590694" lat="62.9635555522" lon="7.19302499368">
		<tag k="name" v="Litlekløvet" />
		<tag k="natural" v="valley" />
		<tag k="place" v="locality" />
		<tag k="ssr:stedsnr" v="520791" />
	</node>
	<node id="-590693" lat="62.8077500037" lon="7.3676972308">
		<tag k="name" v="Berrmyrhaugane" />
		<tag k="natural" v="hill" />
		<tag k="place" v="locality" />
		<tag k="ssr:stedsnr" v="520788" />
	</node>
	<node id="-590692" lat="62.9215333376" lon="7.2415833275">
		<tag k="name" v="Johannesgjerdet" />
		<tag k="natural" v="valley" />
		<tag k="place" v="locality" />
		<tag k="ssr:stedsnr" v="520759" />
	</node>
	<node id="-590691" lat="62.9229055529" lon="7.22633611316">
		<tag k="name" v="Vinterhaugen" />
		<tag k="natural" v="hill" />
		<tag k="place" v="locality" />
		<tag k="ssr:stedsnr" v="520755" />
	</node>
	<node id="-589627" lat="62.915208337" lon="6.92984167568">
		<tag k="name" v="Kjekså" />
		<tag k="natural" v="hill" />
		<tag k="place" v="locality" />
		<tag k="ssr:stedsnr" v="399946" />
	</node>
	<node id="-590688" lat="62.9920111098" lon="7.17897500465">
		<tag k="alt_name" v="Kleivan" />
		<tag k="name" v="Kleivhaugen" />
		<tag k="natural" v="hill" />
		<tag k="place" v="locality" />
		<tag k="ssr:stedsnr" v="520724" />
	</node>
	<node id="-590685" lat="62.8673333372" lon="7.06028611522">
		<tag k="name" v="Slutåshaugan" />
		<tag k="natural" v="hill" />
		<tag k="place" v="locality" />
		<tag k="ssr:stedsnr" v="520676" />
	</node>
	<node id="-590684" lat="62.8796861132" lon="7.06583332472">
		<tag k="name" v="Fjellkråa" />
		<tag k="natural" v="valley" />
		<tag k="place" v="locality" />
		<tag k="ssr:stedsnr" v="520666" />
	</node>
	<node id="-590683" lat="62.9032027799" lon="7.12669721466">
		<tag k="name" v="Trollvassbotnen" />
		<tag k="natural" v="valley" />
		<tag k="place" v="locality" />
		<tag k="ssr:stedsnr" v="520662" />
	</node>
	<node id="-590682" lat="62.899250003" lon="7.13240278563">
		<tag k="name" v="Trollvassrørene" />
		<tag k="natural" v="ridge" />
		<tag k="place" v="locality" />
		<tag k="ssr:stedsnr" v="520661" />
	</node>
	<node id="-590680" lat="62.8966222221" lon="7.08739722314">
		<tag k="name" v="Geitaslågå" />
		<tag k="place" v="locality" />
		<tag k="ssr:stedsnr" v="520645" />
	</node>
	<node id="-590678" lat="62.9148916643" lon="7.11597222006">
		<tag k="name" v="Brenslehaugen" />
		<tag k="natural" v="hill" />
		<tag k="place" v="locality" />
		<tag k="ssr:stedsnr" v="520623" />
	</node>
	<node id="-590676" lat="62.8172249998" lon="7.06280000177">
		<tag k="fixme" v="consider natural=peak for the most distinct mountains in the district" />
		<tag k="name" v="Kjefonnhaugen" />
		<tag k="natural" v="hill" />
		<tag k="place" v="locality" />
		<tag k="ssr:stedsnr" v="520600" />
	</node>
	<node id="-590675" lat="62.7951666623" lon="7.07466944229">
		<tag k="name" v="Slehaugane" />
		<tag k="natural" v="hill" />
		<tag k="place" v="locality" />
		<tag k="ssr:stedsnr" v="520595" />
	</node>
	<node id="-591331" lat="62.8518611138" lon="7.38641667029">
		<tag k="name" v="Trondalen" />
		<tag k="natural" v="valley" />
		<tag k="place" v="locality" />
		<tag k="ssr:stedsnr" v="763830" />
	</node>
	<node id="-590669" lat="62.835516669" lon="6.99814444669">
		<tag k="name" v="Hamnneshaugan" />
		<tag k="natural" v="hill" />
		<tag k="place" v="locality" />
		<tag k="ssr:stedsnr" v="520451" />
	</node>
	<node id="-590668" lat="62.7981694485" lon="7.04571111642">
		<tag k="name" v="Hesthaugrøra" />
		<tag k="natural" v="ridge" />
		<tag k="place" v="locality" />
		<tag k="ssr:stedsnr" v="520431" />
	</node>
	<node id="-591330" lat="62.792838885" lon="7.28693611592">
		<tag k="fixme" v="consider natural=peak for the most distinct mountains in the district" />
		<tag k="name" v="Brekkenakken" />
		<tag k="natural" v="hill" />
		<tag k="place" v="locality" />
		<tag k="ssr:stedsnr" v="763807" />
	</node>
	<node id="-590666" lat="62.8999750041" lon="6.99333888856">
		<tag k="name" v="Tipphaugen" />
		<tag k="natural" v="hill" />
		<tag k="place" v="locality" />
		<tag k="ssr:stedsnr" v="520393" />
	</node>
	<node id="-590665" lat="62.8972333318" lon="6.97357777764">
		<tag k="name" v="Rygghaugen" />
		<tag k="natural" v="hill" />
		<tag k="place" v="locality" />
		<tag k="ssr:stedsnr" v="520387" />
	</node>
	<node id="-590664" lat="62.8992972206" lon="6.95695833506">
		<tag k="name" v="Gulnausthaugen" />
		<tag k="natural" v="hill" />
		<tag k="place" v="locality" />
		<tag k="ssr:stedsnr" v="520378" />
	</node>
	<node id="-590662" lat="62.904613887" lon="6.94123333687">
		<tag k="name" v="Kledehaugen" />
		<tag k="natural" v="hill" />
		<tag k="place" v="locality" />
		<tag k="ssr:stedsnr" v="520363" />
	</node>
	<node id="-591329" lat="62.804980552" lon="7.38903610998">
		<tag k="name" v="Hyttedalen" />
		<tag k="natural" v="valley" />
		<tag k="place" v="locality" />
		<tag k="ssr:stedsnr" v="763803" />
	</node>
	<node id="-590076" lat="62.8040222267" lon="7.31721667058">
		<tag k="name" v="Skitnedalen" />
		<tag k="natural" v="valley" />
		<tag k="place" v="locality" />
		<tag k="ssr:stedsnr" v="95740" />
	</node>
	<node id="-590651" lat="62.8817138878" lon="7.08195554736">
		<tag k="name" v="Kuhammarskaret" />
		<tag k="natural" v="valley" />
		<tag k="place" v="locality" />
		<tag k="ssr:stedsnr" v="519690" />
	</node>
	<node id="-590650" lat="62.8644499956" lon="7.06926665846">
		<tag k="name" v="Flathaugen" />
		<tag k="natural" v="hill" />
		<tag k="place" v="locality" />
		<tag k="ssr:stedsnr" v="519578" />
	</node>
	<node id="-590647" lat="62.7604416694" lon="7.0633361139">
		<tag k="name" v="Langdalen" />
		<tag k="natural" v="valley" />
		<tag k="place" v="locality" />
		<tag k="ssr:stedsnr" v="517906" />
	</node>
	<node id="-590645" lat="62.7722166634" lon="7.10263333143">
		<tag k="name" v="Seterlia" />
		<tag k="natural" v="slope" />
		<tag k="place" v="locality" />
		<tag k="ssr:stedsnr" v="517897" />
	</node>
	<node id="-590644" lat="62.7967750035" lon="7.18290554991">
		<tag k="name" v="Alteret" />
		<tag k="place" v="locality" />
		<tag k="ssr:stedsnr" v="517034" />
	</node>
	<node id="-590643" lat="62.7973944487" lon="7.21460555654">
		<tag k="name" v="Jomfruhammarane" />
		<tag k="natural" v="cliff" />
		<tag k="ssr:stedsnr" v="517033" />
	</node>
	<node id="-590641" lat="62.7817666709" lon="7.21122777684">
		<tag k="name" v="Gangskaret" />
		<tag k="natural" v="valley" />
		<tag k="place" v="locality" />
		<tag k="ssr:stedsnr" v="517024" />
	</node>
	<node id="-590640" lat="62.9721916684" lon="7.23626944171">
		<tag k="fixme" v="consider natural=peak for the most distinct mountains in the district" />
		<tag k="name" v="Skottenstupet" />
		<tag k="natural" v="hill" />
		<tag k="place" v="locality" />
		<tag k="ssr:stedsnr" v="498932" />
	</node>
	<node id="-591325" lat="62.9894833375" lon="7.21964999188">
		<tag k="name" v="Rishaugane" />
		<tag k="natural" v="hill" />
		<tag k="place" v="locality" />
		<tag k="ssr:stedsnr" v="763755" />
	</node>
	<node id="-590636" lat="62.7553361092" lon="7.05068332985">
		<tag k="name" v="Storskarhaugen" />
		<tag k="natural" v="hill" />
		<tag k="place" v="locality" />
		<tag k="ssr:stedsnr" v="497870" />
	</node>
	<node id="-591324" lat="62.9144750039" lon="7.2399999908">
		<tag k="name" v="Heiloberga" />
		<tag k="natural" v="hill" />
		<tag k="place" v="locality" />
		<tag k="ssr:stedsnr" v="763754" />
	</node>
	<node id="-590628" lat="62.841702779" lon="7.29724722708">
		<tag k="alt_name" v="Låglitua" />
		<tag k="fixme" v="consider natural=peak for the most distinct mountains in the district" />
		<tag k="name" v="Måna" />
		<tag k="natural" v="hill" />
		<tag k="place" v="locality" />
		<tag k="ssr:stedsnr" v="497644" />
	</node>
	<node id="-590613" lat="62.9490555594" lon="7.23924167473">
		<tag k="fixme" v="consider natural=peak for the most distinct mountains in the district" />
		<tag k="name" v="Melen" />
		<tag k="natural" v="hill" />
		<tag k="place" v="locality" />
		<tag k="ssr:stedsnr" v="496970" />
	</node>
	<node id="-591659" lat="62.9701055601" lon="7.1605638939">
		<tag k="name" v="Risbakkane" />
		<tag k="natural" v="hill" />
		<tag k="place" v="locality" />
		<tag k="ssr:stedsnr" v="945704" />
	</node>
	<node id="-591317" lat="62.9757777769" lon="7.17825834209">
		<tag k="name" v="Hyskjelet" />
		<tag k="natural" v="valley" />
		<tag k="place" v="locality" />
		<tag k="ssr:stedsnr" v="763696" />
	</node>
	<node id="-590584" lat="62.9645277734" lon="7.24298334123">
		<tag k="name" v="Bjørndalen" />
		<tag k="natural" v="valley" />
		<tag k="place" v="locality" />
		<tag k="ssr:stedsnr" v="460793" />
	</node>
	<node id="-590583" lat="62.9137250016" lon="7.24171666535">
		<tag k="name" v="Pikelihaugen" />
		<tag k="natural" v="hill" />
		<tag k="place" v="locality" />
		<tag k="ssr:stedsnr" v="460781" />
	</node>
	<node id="-590582" lat="62.9186805553" lon="7.24691388375">
		<tag k="name" v="Erik-Kålhamrane" />
		<tag k="natural" v="cliff" />
		<tag k="ssr:stedsnr" v="460779" />
	</node>
	<node id="-590581" lat="62.9319722262" lon="7.06284167328">
		<tag k="name" v="Kråkhaugen" />
		<tag k="natural" v="hill" />
		<tag k="place" v="locality" />
		<tag k="ssr:stedsnr" v="460770" />
	</node>
	<node id="-590579" lat="62.9617277768" lon="7.09034167377">
		<tag k="name" v="Laksehammaren" />
		<tag k="natural" v="hill" />
		<tag k="place" v="locality" />
		<tag k="ssr:stedsnr" v="460752" />
	</node>
	<node id="-590578" lat="62.9590305576" lon="7.06434445143">
		<tag k="name" v="Maleremma" />
		<tag k="natural" v="ridge" />
		<tag k="place" v="locality" />
		<tag k="ssr:stedsnr" v="460748" />
	</node>
	<node id="-590577" lat="62.9767638888" lon="7.17311110927">
		<tag k="name" v="Svarthammaren" />
		<tag k="place" v="locality" />
		<tag k="ssr:stedsnr" v="460734" />
	</node>
	<node id="-590576" lat="62.9053999962" lon="7.1929194405">
		<tag k="name" v="Bergehaugen" />
		<tag k="natural" v="hill" />
		<tag k="place" v="locality" />
		<tag k="ssr:stedsnr" v="460727" />
	</node>
	<node id="-590575" lat="62.8731500039" lon="7.19912221849">
		<tag k="name" v="Jamnhaugane" />
		<tag k="natural" v="ridge" />
		<tag k="place" v="locality" />
		<tag k="ssr:stedsnr" v="460725" />
	</node>
	<node id="-590574" lat="62.9495833345" lon="7.20878889593">
		<tag k="name" v="Auspakløvet" />
		<tag k="natural" v="valley" />
		<tag k="place" v="locality" />
		<tag k="ssr:stedsnr" v="460717" />
	</node>
	<node id="-590573" lat="62.8729361066" lon="7.10783054707">
		<tag k="name" v="Gjerdhaugen" />
		<tag k="natural" v="hill" />
		<tag k="place" v="locality" />
		<tag k="ssr:stedsnr" v="460687" />
	</node>
	<node id="-590571" lat="62.9145777758" lon="7.14391945231">
		<tag k="name" v="Raudtulia" />
		<tag k="natural" v="slope" />
		<tag k="place" v="locality" />
		<tag k="ssr:stedsnr" v="460666" />
	</node>
	<node id="-590569" lat="62.9495111116" lon="7.09377778468">
		<tag k="name" v="Helhaugen" />
		<tag k="natural" v="hill" />
		<tag k="place" v="locality" />
		<tag k="ssr:stedsnr" v="460647" />
	</node>
	<node id="-590567" lat="62.7896916687" lon="7.04758334285">
		<tag k="name" v="Sjølskothaugen" />
		<tag k="natural" v="hill" />
		<tag k="place" v="locality" />
		<tag k="ssr:stedsnr" v="460495" />
	</node>
	<node id="-591313" lat="62.9065583366" lon="7.18151110446">
		<tag k="name" v="Skjennesbakken" />
		<tag k="natural" v="slope" />
		<tag k="place" v="locality" />
		<tag k="ssr:stedsnr" v="763660" />
	</node>
	<node id="-590667" lat="62.7718527795" lon="7.03403889082">
		<tag k="name" v="Brenthaugan" />
		<tag k="natural" v="hill" />
		<tag k="place" v="locality" />
		<tag k="ssr:stedsnr" v="520426" />
	</node>
	<node id="-591311" lat="62.8893888923" lon="7.07614999719">
		<tag k="name" v="Svartgjølet" />
		<tag k="natural" v="valley" />
		<tag k="place" v="locality" />
		<tag k="ssr:stedsnr" v="763646" />
	</node>
	<node id="-590550" lat="62.8032361082" lon="7.26229721733">
		<tag k="name" v="Aksla" />
		<tag k="natural" v="ridge" />
		<tag k="place" v="locality" />
		<tag k="ssr:stedsnr" v="459940" />
	</node>
	<node id="-590548" lat="62.8830333295" lon="7.13060555228">
		<tag k="name" v="Storlia" />
		<tag k="natural" v="slope" />
		<tag k="place" v="locality" />
		<tag k="ssr:stedsnr" v="459907" />
	</node>
	<node id="-590547" lat="62.8704166645" lon="7.15272777884">
		<tag k="name" v="Pehaugen" />
		<tag k="natural" v="hill" />
		<tag k="place" v="locality" />
		<tag k="ssr:stedsnr" v="459905" />
	</node>
	<node id="-590546" lat="62.8853361145" lon="7.0783833316">
		<tag k="name" v="Herdalen" />
		<tag k="natural" v="valley" />
		<tag k="place" v="locality" />
		<tag k="ssr:stedsnr" v="459903" />
	</node>
	<node id="-590544" lat="62.8342749998" lon="7.3840027862">
		<tag k="name" v="Kvitådalen" />
		<tag k="natural" v="valley" />
		<tag k="place" v="locality" />
		<tag k="ssr:stedsnr" v="459820" />
	</node>
	<node id="-590543" lat="62.7554305569" lon="7.05069444837">
		<tag k="name" v="Rundhaugen" />
		<tag k="natural" v="hill" />
		<tag k="place" v="locality" />
		<tag k="ssr:stedsnr" v="459816" />
	</node>
	<node id="-590542" lat="62.7970527793" lon="7.30620277427">
		<tag k="name" v="Onnhammaren" />
		<tag k="natural" v="cliff" />
		<tag k="ssr:stedsnr" v="459802" />
	</node>
	<node id="-590537" lat="62.8141332476" lon="7.08086406174">
		<tag k="name" v="Einhaugen" />
		<tag k="natural" v="hill" />
		<tag k="place" v="locality" />
		<tag k="ssr:stedsnr" v="459547" />
	</node>
	<node id="-591649" lat="62.9062416684" lon="7.11748056155">
		<tag k="name" v="Tilhaldshammaren" />
		<tag k="natural" v="cliff" />
		<tag k="ssr:stedsnr" v="945585" />
	</node>
	<node id="-590526" lat="62.784088886" lon="7.04523610536">
		<tag k="name" v="Saghaugen" />
		<tag k="natural" v="hill" />
		<tag k="place" v="locality" />
		<tag k="ssr:stedsnr" v="459385" />
	</node>
	<node id="-590525" lat="62.8954722213" lon="7.04859444268">
		<tag k="name" v="Prestseterholan" />
		<tag k="natural" v="hill" />
		<tag k="place" v="locality" />
		<tag k="ssr:stedsnr" v="459370" />
	</node>
	<node id="-590523" lat="62.8940472232" lon="6.97682500002">
		<tag k="name" v="Sjåberget" />
		<tag k="natural" v="hill" />
		<tag k="place" v="locality" />
		<tag k="ssr:stedsnr" v="459359" />
	</node>
	<node id="-590522" lat="62.9062166694" lon="6.98328056273">
		<tag k="fixme" v="consider natural=peak for the most distinct mountains in the district" />
		<tag k="name" v="Svarthammaren" />
		<tag k="natural" v="hill" />
		<tag k="place" v="locality" />
		<tag k="ssr:stedsnr" v="459357" />
	</node>
	<node id="-590521" lat="62.8989499987" lon="6.95317222714">
		<tag k="name" v="Buahaugen" />
		<tag k="natural" v="hill" />
		<tag k="place" v="locality" />
		<tag k="ssr:stedsnr" v="459352" />
	</node>
	<node id="-590520" lat="62.9036388924" lon="6.95606389466">
		<tag k="name" v="Barhaugen" />
		<tag k="natural" v="hill" />
		<tag k="place" v="locality" />
		<tag k="ssr:stedsnr" v="459349" />
	</node>
	<node id="-590519" lat="62.9018444448" lon="6.94806944732">
		<tag k="fixme" v="consider natural=peak for the most distinct mountains in the district" />
		<tag k="name" v="Langhaugen" />
		<tag k="natural" v="hill" />
		<tag k="place" v="locality" />
		<tag k="ssr:stedsnr" v="459347" />
	</node>
	<node id="-590517" lat="62.7623499973" lon="7.0982499963">
		<tag k="name" v="Svarttjønnhola" />
		<tag k="natural" v="valley" />
		<tag k="place" v="locality" />
		<tag k="ssr:stedsnr" v="457968" />
	</node>
	<node id="-590516" lat="62.7584888908" lon="7.07783332428">
		<tag k="name" v="Mørkelia" />
		<tag k="natural" v="slope" />
		<tag k="place" v="locality" />
		<tag k="ssr:stedsnr" v="457893" />
	</node>
	<node id="-591646" lat="62.8136055564" lon="7.06691944541">
		<tag k="name" v="Mosehaugane" />
		<tag k="natural" v="hill" />
		<tag k="place" v="locality" />
		<tag k="ssr:stedsnr" v="945528" />
	</node>
	<node id="-590514" lat="62.7734972238" lon="7.06478056234">
		<tag k="name" v="Jellhaugen" />
		<tag k="natural" v="hill" />
		<tag k="place" v="locality" />
		<tag k="ssr:stedsnr" v="457880" />
	</node>
	<node id="-590513" lat="62.7970444433" lon="7.19289166161">
		<tag k="name" v="Alterhammaren" />
		<tag k="natural" v="cliff" />
		<tag k="ssr:stedsnr" v="457019" />
	</node>
	<node id="-591304" lat="62.8290111084" lon="7.08347778478">
		<tag k="alt_name" v="Fiskeberget" />
		<tag k="name" v="Fiskeberga" />
		<tag k="natural" v="hill" />
		<tag k="place" v="locality" />
		<tag k="ssr:stedsnr" v="763583" />
	</node>
	<node id="-590504" lat="62.8059083366" lon="7.35777222616">
		<tag k="name" v="Toreslætthaugan" />
		<tag k="natural" v="hill" />
		<tag k="place" v="locality" />
		<tag k="ssr:stedsnr" v="437724" />
	</node>
	<node id="-591644" lat="62.8832277782" lon="6.98222222108">
		<tag k="name" v="Brenthaugen" />
		<tag k="natural" v="hill" />
		<tag k="place" v="locality" />
		<tag k="ssr:stedsnr" v="945485" />
	</node>
	<node id="-591347" lat="62.9905749959" lon="7.19097499748">
		<tag k="name" v="Høgberga" />
		<tag k="natural" v="hill" />
		<tag k="place" v="locality" />
		<tag k="ssr:stedsnr" v="763989" />
	</node>
	<node id="-590493" lat="62.9159388864" lon="6.96648610606">
		<tag k="name" v="Saupskaret" />
		<tag k="natural" v="valley" />
		<tag k="place" v="locality" />
		<tag k="ssr:stedsnr" v="437124" />
	</node>
	<node id="-590491" lat="62.9102916625" lon="6.93118054901">
		<tag k="name" v="Mardalen" />
		<tag k="natural" v="valley" />
		<tag k="place" v="locality" />
		<tag k="ssr:stedsnr" v="437110" />
	</node>
	<node id="-591299" lat="62.8762500043" lon="6.96838888924">
		<tag k="name" v="Nesahaugen" />
		<tag k="natural" v="hill" />
		<tag k="place" v="locality" />
		<tag k="ssr:stedsnr" v="763560" />
	</node>
	<node id="-590480" lat="62.8008694408" lon="7.043672213">
		<tag k="fixme" v="consider natural=peak for the most distinct mountains in the district" />
		<tag k="name" v="Jendemsfjellet" />
		<tag k="natural" v="hill" />
		<tag k="place" v="locality" />
		<tag k="ssr:stedsnr" v="436791" />
	</node>
	<node id="-590474" lat="62.8892416667" lon="7.22175832695">
		<tag k="name" v="Sleppskaret" />
		<tag k="natural" v="valley" />
		<tag k="place" v="locality" />
		<tag k="ssr:stedsnr" v="436595" />
	</node>
	<node id="-590472" lat="62.9246222263" lon="7.23606111095">
		<tag k="name" v="Seterlia" />
		<tag k="natural" v="slope" />
		<tag k="place" v="locality" />
		<tag k="ssr:stedsnr" v="436530" />
	</node>
	<node id="-590471" lat="62.8609833322" lon="7.1585666735">
		<tag k="fixme" v="consider natural=peak for the most distinct mountains in the district" />
		<tag k="name" v="Haukåsen" />
		<tag k="natural" v="hill" />
		<tag k="place" v="locality" />
		<tag k="ssr:stedsnr" v="436227" />
	</node>
	<node id="-590458" lat="62.8691694461" lon="7.09742221552">
		<tag k="name" v="Åslia" />
		<tag k="natural" v="slope" />
		<tag k="place" v="locality" />
		<tag k="ssr:stedsnr" v="436121" />
	</node>
	<node id="-591636" lat="62.8409333328" lon="7.04974166703">
		<tag k="fixme" v="consider natural=peak for the most distinct mountains in the district" />
		<tag k="name" v="Torneskleiva" />
		<tag k="natural" v="hill" />
		<tag k="place" v="locality" />
		<tag k="ssr:stedsnr" v="945404" />
	</node>
	<node id="-589587" lat="62.9473833352" lon="7.11119722494">
		<tag k="name" v="Litle Horberget" />
		<tag k="natural" v="hill" />
		<tag k="place" v="locality" />
		<tag k="ssr:stedsnr" v="399619" />
	</node>
	<node id="-590446" lat="62.8067388907" lon="7.05817778605">
		<tag k="name" v="Blåhammaren" />
		<tag k="place" v="locality" />
		<tag k="ssr:stedsnr" v="263494" />
	</node>
	<node id="-591634" lat="62.7831500034" lon="7.04351110851">
		<tag k="name" v="Tjønnskaret" />
		<tag k="natural" v="valley" />
		<tag k="place" v="locality" />
		<tag k="ssr:stedsnr" v="945378" />
	</node>
	<node id="-590442" lat="62.7833777798" lon="7.17997778343">
		<tag k="name" v="Ådalen" />
		<tag k="natural" v="valley" />
		<tag k="place" v="locality" />
		<tag k="ssr:stedsnr" v="255862" />
	</node>
	<node id="-590428" lat="62.912697222" lon="6.9176416593">
		<tag k="name" v="Laugarhaugen" />
		<tag k="natural" v="hill" />
		<tag k="place" v="locality" />
		<tag k="ssr:stedsnr" v="255099" />
	</node>
	<node id="-591290" lat="62.8498888858" lon="7.04537222186">
		<tag k="name" v="Skjenstøin" />
		<tag k="place" v="locality" />
		<tag k="ssr:stedsnr" v="763484" />
	</node>
	<node id="-590409" lat="62.882002776" lon="7.29127222318">
		<tag k="name" v="Kvitålia" />
		<tag k="natural" v="slope" />
		<tag k="place" v="locality" />
		<tag k="ssr:stedsnr" v="254618" />
	</node>
	<node id="-590406" lat="62.892705559" lon="7.299502769">
		<tag k="fixme" v="consider natural=peak for the most distinct mountains in the district" />
		<tag k="name" v="Blåfjellet" />
		<tag k="natural" v="hill" />
		<tag k="place" v="locality" />
		<tag k="ssr:stedsnr" v="254543" />
	</node>
	<node id="-590405" lat="62.9001750042" lon="7.29293056352">
		<tag k="fixme" v="consider natural=peak for the most distinct mountains in the district" />
		<tag k="name" v="Gongrøra" />
		<tag k="natural" v="hill" />
		<tag k="place" v="locality" />
		<tag k="ssr:stedsnr" v="254541" />
	</node>
	<node id="-590402" lat="62.8590138873" lon="7.02559443594">
		<tag k="alt_name" v="Storvarden" />
		<tag k="name" v="Varden" />
		<tag k="natural" v="hill" />
		<tag k="place" v="locality" />
		<tag k="ssr:stedsnr" v="254211" />
	</node>
	<node id="-590391" lat="62.9049861154" lon="7.04456945135">
		<tag k="name" v="Myrsteinen" />
		<tag k="natural" v="hill" />
		<tag k="place" v="locality" />
		<tag k="ssr:stedsnr" v="254149" />
	</node>
	<node id="-590370" lat="62.8909722211" lon="7.108213897">
		<tag k="name" v="Salen" />
		<tag k="natural" v="ridge" />
		<tag k="place" v="locality" />
		<tag k="ssr:stedsnr" v="217981" />
	</node>
	<node id="-590365" lat="62.9359888931" lon="7.22506943728">
		<tag k="name" v="Knoklia" />
		<tag k="natural" v="slope" />
		<tag k="place" v="locality" />
		<tag k="ssr:stedsnr" v="217943" />
	</node>
	<node id="-590364" lat="62.8752166684" lon="6.99324167034">
		<tag k="name" v="Flatmo" />
		<tag k="place" v="locality" />
		<tag k="ssr:stedsnr" v="217933" />
	</node>
	<node id="-591279" lat="62.8915888891" lon="6.94949721847">
		<tag k="name" v="Storhaugen" />
		<tag k="natural" v="hill" />
		<tag k="place" v="locality" />
		<tag k="ssr:stedsnr" v="763405" />
	</node>
	<node id="-590360" lat="62.8930500036" lon="7.01743055578">
		<tag k="fixme" v="consider natural=peak for the most distinct mountains in the district" />
		<tag k="name" v="Småholan" />
		<tag k="natural" v="hill" />
		<tag k="place" v="locality" />
		<tag k="ssr:stedsnr" v="217911" />
	</node>
	<node id="-590357" lat="62.9667166691" lon="7.26526111941">
		<tag k="name" v="Ner Slopphågen" />
		<tag k="natural" v="hill" />
		<tag k="place" v="locality" />
		<tag k="ssr:stedsnr" v="217851" />
	</node>
	<node id="-590356" lat="62.9814666637" lon="7.26243056251">
		<tag k="name" v="Brenthågen" />
		<tag k="natural" v="hill" />
		<tag k="place" v="locality" />
		<tag k="ssr:stedsnr" v="217846" />
	</node>
	<node id="-590355" lat="62.9050722181" lon="7.25489167625">
		<tag k="name" v="Seterdalsryggen" />
		<tag k="natural" v="ridge" />
		<tag k="place" v="locality" />
		<tag k="ssr:stedsnr" v="217838" />
	</node>
	<node id="-590353" lat="62.8243000003" lon="7.28871388365">
		<tag k="name" v="Blomrøsthammaren" />
		<tag k="natural" v="cliff" />
		<tag k="ssr:stedsnr" v="217827" />
	</node>
	<node id="-590352" lat="62.8388666689" lon="7.31062776917">
		<tag k="name" v="Kvannfjellrøra" />
		<tag k="natural" v="ridge" />
		<tag k="place" v="locality" />
		<tag k="ssr:stedsnr" v="217818" />
	</node>
	<node id="-590348" lat="62.7926472201" lon="7.27425554816">
		<tag k="name" v="Brekkelia" />
		<tag k="natural" v="slope" />
		<tag k="place" v="locality" />
		<tag k="ssr:stedsnr" v="217799" />
	</node>
	<node id="-590347" lat="62.7980055583" lon="7.30122499312">
		<tag k="name" v="Ruskefonna" />
		<tag k="natural" v="slope" />
		<tag k="place" v="locality" />
		<tag k="ssr:stedsnr" v="217790" />
	</node>
	<node id="-590346" lat="62.881775003" lon="7.2449083304">
		<tag k="name" v="Nordre lia" />
		<tag k="natural" v="slope" />
		<tag k="place" v="locality" />
		<tag k="ssr:stedsnr" v="217785" />
	</node>
	<node id="-590344" lat="62.9729833367" lon="7.21980832625">
		<tag k="name" v="Skottenkleiva" />
		<tag k="natural" v="slope" />
		<tag k="place" v="locality" />
		<tag k="ssr:stedsnr" v="217752" />
	</node>
	<node id="-590343" lat="62.9640027812" lon="7.15503611429">
		<tag k="name" v="Revehaugane" />
		<tag k="natural" v="hill" />
		<tag k="place" v="locality" />
		<tag k="ssr:stedsnr" v="217722" />
	</node>
	<node id="-590341" lat="62.8236999989" lon="7.21729721689">
		<tag k="name" v="Rothaugen" />
		<tag k="natural" v="hill" />
		<tag k="place" v="locality" />
		<tag k="ssr:stedsnr" v="217669" />
	</node>
	<node id="-590340" lat="62.8754027735" lon="7.09166667036">
		<tag k="name" v="Krokhaugen" />
		<tag k="natural" v="hill" />
		<tag k="place" v="locality" />
		<tag k="ssr:stedsnr" v="217642" />
	</node>
	<node id="-590339" lat="62.9449194468" lon="7.17826388786">
		<tag k="name" v="Storhaugen" />
		<tag k="natural" v="hill" />
		<tag k="place" v="locality" />
		<tag k="ssr:stedsnr" v="217613" />
	</node>
	<node id="-590338" lat="62.9495944424" lon="7.08895278711">
		<tag k="name" v="Tepphaugen" />
		<tag k="natural" v="hill" />
		<tag k="place" v="locality" />
		<tag k="ssr:stedsnr" v="217608" />
	</node>
	<node id="-590337" lat="62.8053666624" lon="7.13645276899">
		<tag k="fixme" v="consider natural=peak for the most distinct mountains in the district" />
		<tag k="name" v="Skarsbøåsen" />
		<tag k="natural" v="hill" />
		<tag k="place" v="locality" />
		<tag k="ssr:stedsnr" v="217605" />
	</node>
	<node id="-590335" lat="62.7812638878" lon="7.092336114">
		<tag k="name" v="Sporslirøra" />
		<tag k="natural" v="ridge" />
		<tag k="place" v="locality" />
		<tag k="ssr:stedsnr" v="217593" />
	</node>
	<node id="-590333" lat="62.7902305592" lon="7.08417222369">
		<tag k="name" v="Hestadlia" />
		<tag k="natural" v="slope" />
		<tag k="place" v="locality" />
		<tag k="ssr:stedsnr" v="217592" />
	</node>
	<node id="-590330" lat="62.8031499966" lon="7.10906666576">
		<tag k="name" v="Middagshaugen" />
		<tag k="natural" v="hill" />
		<tag k="place" v="locality" />
		<tag k="ssr:stedsnr" v="217571" />
	</node>
	<node id="-590329" lat="62.8081555599" lon="7.11758888456">
		<tag k="name" v="Strandsbotnen" />
		<tag k="natural" v="valley" />
		<tag k="place" v="locality" />
		<tag k="ssr:stedsnr" v="217572" />
	</node>
	<node id="-590326" lat="62.8727361135" lon="7.02652778386">
		<tag k="name" v="Bollholen" />
		<tag k="natural" v="hill" />
		<tag k="place" v="locality" />
		<tag k="ssr:stedsnr" v="217540" />
	</node>
	<node id="-590325" lat="62.9209277736" lon="6.96034166779">
		<tag k="name" v="Langhaugen" />
		<tag k="natural" v="hill" />
		<tag k="place" v="locality" />
		<tag k="ssr:stedsnr" v="217520" />
	</node>
	<node id="-590323" lat="62.9098416634" lon="7.0106722256">
		<tag k="name" v="Vasshaugen" />
		<tag k="natural" v="hill" />
		<tag k="place" v="locality" />
		<tag k="ssr:stedsnr" v="217513" />
	</node>
	<node id="-590321" lat="62.938616664" lon="6.99932778381">
		<tag k="name" v="Haugbokkhaugen" />
		<tag k="natural" v="hill" />
		<tag k="place" v="locality" />
		<tag k="ssr:stedsnr" v="217495" />
	</node>
	<node id="-590318" lat="62.8225944478" lon="7.02864167078">
		<tag k="name" v="Kyrkjehaugen" />
		<tag k="natural" v="hill" />
		<tag k="place" v="locality" />
		<tag k="ssr:stedsnr" v="217468" />
	</node>
	<node id="-590316" lat="62.8626749993" lon="7.04490000318">
		<tag k="name" v="Holtskarhammaren" />
		<tag k="natural" v="cliff" />
		<tag k="ssr:stedsnr" v="217455" />
	</node>
	<node id="-590315" lat="62.8388194445" lon="7.00146110211">
		<tag k="name" v="Rakhaugen" />
		<tag k="natural" v="hill" />
		<tag k="place" v="locality" />
		<tag k="ssr:stedsnr" v="217446" />
	</node>
	<node id="-590314" lat="62.8467305597" lon="7.01255278644">
		<tag k="name" v="Sandvikhaugen" />
		<tag k="natural" v="hill" />
		<tag k="place" v="locality" />
		<tag k="ssr:stedsnr" v="217445" />
	</node>
	<node id="-590313" lat="62.8446999967" lon="7.01966665714">
		<tag k="name" v="Pikhaugen" />
		<tag k="natural" v="hill" />
		<tag k="place" v="locality" />
		<tag k="ssr:stedsnr" v="217439" />
	</node>
	<node id="-590312" lat="62.8442305535" lon="7.03877500714">
		<tag k="name" v="Hardpallholen" />
		<tag k="place" v="locality" />
		<tag k="ssr:stedsnr" v="217433" />
	</node>
	<node id="-590311" lat="62.7694333328" lon="7.03488612066">
		<tag k="name" v="Skoppedalen" />
		<tag k="natural" v="valley" />
		<tag k="place" v="locality" />
		<tag k="ssr:stedsnr" v="217424" />
	</node>
	<node id="-590309" lat="62.7978416632" lon="7.03086389661">
		<tag k="name" v="Peslættet" />
		<tag k="natural" v="slope" />
		<tag k="place" v="locality" />
		<tag k="ssr:stedsnr" v="217415" />
	</node>
	<node id="-590307" lat="62.9004611138" lon="7.00389722415">
		<tag k="fixme" v="consider natural=peak for the most distinct mountains in the district" />
		<tag k="name" v="Søre Rødvikremma" />
		<tag k="natural" v="hill" />
		<tag k="place" v="locality" />
		<tag k="ssr:stedsnr" v="217400" />
	</node>
	<node id="-590306" lat="62.9012694485" lon="6.95879443639">
		<tag k="name" v="Bjønnhaugan" />
		<tag k="natural" v="hill" />
		<tag k="place" v="locality" />
		<tag k="ssr:stedsnr" v="217386" />
	</node>
	<node id="-590305" lat="62.9041944464" lon="6.92697221325">
		<tag k="name" v="Fleskvikshaugen" />
		<tag k="natural" v="hill" />
		<tag k="place" v="locality" />
		<tag k="ssr:stedsnr" v="217367" />
	</node>
	<node id="-590304" lat="62.9079916651" lon="6.9311499949">
		<tag k="name" v="Hulderhaugen" />
		<tag k="natural" v="hill" />
		<tag k="place" v="locality" />
		<tag k="ssr:stedsnr" v="217368" />
	</node>
	<node id="-590300" lat="62.8229833348" lon="7.33403332794">
		<tag k="name" v="Dyrdalen" />
		<tag k="natural" v="valley" />
		<tag k="place" v="locality" />
		<tag k="ssr:stedsnr" v="216949" />
	</node>
	<node id="-590299" lat="62.8537944436" lon="7.09293055102">
		<tag k="name" v="Lauvhaugen" />
		<tag k="natural" v="hill" />
		<tag k="place" v="locality" />
		<tag k="ssr:stedsnr" v="216535" />
	</node>
	<node id="-590297" lat="62.8447277739" lon="7.06173611245">
		<tag k="name" v="Høghaugen" />
		<tag k="natural" v="hill" />
		<tag k="place" v="locality" />
		<tag k="ssr:stedsnr" v="216524" />
	</node>
	<node id="-590295" lat="62.8668083357" lon="7.15987777895">
		<tag k="name" v="Haukåsdalen" />
		<tag k="natural" v="valley" />
		<tag k="place" v="locality" />
		<tag k="ssr:stedsnr" v="216650" />
	</node>
	<node id="-590294" lat="62.8627944461" lon="7.09797777924">
		<tag k="name" v="Langremma" />
		<tag k="natural" v="ridge" />
		<tag k="place" v="locality" />
		<tag k="ssr:stedsnr" v="216639" />
	</node>
	<node id="-590292" lat="62.7894777735" lon="7.20751388579">
		<tag k="name" v="Røsholbotten" />
		<tag k="natural" v="valley" />
		<tag k="place" v="locality" />
		<tag k="ssr:stedsnr" v="214023" />
	</node>
	<node id="-590291" lat="62.7773583375" lon="7.16908055254">
		<tag k="name" v="Gangskaret" />
		<tag k="natural" v="valley" />
		<tag k="place" v="locality" />
		<tag k="ssr:stedsnr" v="214018" />
	</node>
	<node id="-590290" lat="62.8195795811" lon="7.3115675291">
		<tag k="fixme" v="consider natural=peak for the most distinct mountains in the district" />
		<tag k="name" v="Urfjellet" />
		<tag k="natural" v="hill" />
		<tag k="place" v="locality" />
		<tag k="ssr:stedsnr" v="203854" />
	</node>
	<node id="-590289" lat="62.7974555554" lon="7.31329444446">
		<tag k="name" v="Bruaskaret" />
		<tag k="natural" v="valley" />
		<tag k="place" v="locality" />
		<tag k="ssr:stedsnr" v="195788" />
	</node>
	<node id="-590286" lat="62.7929388869" lon="7.19466388024">
		<tag k="name" v="Røssholfjellet" />
		<tag k="natural" v="hill" />
		<tag k="place" v="locality" />
		<tag k="ssr:stedsnr" v="194802" />
	</node>
	<node id="-590282" lat="62.8348972192" lon="7.28092778224">
		<tag k="name" v="Rødalsskaret" />
		<tag k="natural" v="valley" />
		<tag k="place" v="locality" />
		<tag k="ssr:stedsnr" v="194684" />
	</node>
	<node id="-591310" lat="62.9054555557" lon="7.06482222227">
		<tag k="name" v="Svartholen" />
		<tag k="natural" v="hill" />
		<tag k="place" v="locality" />
		<tag k="ssr:stedsnr" v="763644" />
	</node>
	<node id="-591605" lat="62.7876138892" lon="7.19272500239">
		<tag k="name" v="Såtskaret" />
		<tag k="natural" v="valley" />
		<tag k="place" v="locality" />
		<tag k="ssr:stedsnr" v="942019" />
	</node>
	<node id="-590267" lat="62.9732070753" lon="7.1899720661">
		<tag k="fixme" v="consider natural=peak for the most distinct mountains in the district" />
		<tag k="name" v="Sjurvarden" />
		<tag k="natural" v="hill" />
		<tag k="old_name" v="Sjurvaren" />
		<tag k="place" v="locality" />
		<tag k="ssr:stedsnr" v="194027" />
	</node>
	<node id="-590263" lat="62.775552776" lon="7.10224445404">
		<tag k="fixme" v="consider natural=peak for the most distinct mountains in the district" />
		<tag k="name" v="Rølinakken" />
		<tag k="natural" v="hill" />
		<tag k="place" v="locality" />
		<tag k="ssr:stedsnr" v="193855" />
	</node>
	<node id="-590261" lat="62.7858805547" lon="7.11581389359">
		<tag k="alt_name" v="Storfjellet" />
		<tag k="fixme" v="consider natural=peak for the most distinct mountains in the district" />
		<tag k="name" v="Nonsfjellet" />
		<tag k="natural" v="hill" />
		<tag k="place" v="locality" />
		<tag k="ssr:stedsnr" v="193837" />
	</node>
	<node id="-590260" lat="62.8245666702" lon="7.20436666078">
		<tag k="fixme" v="consider natural=peak for the most distinct mountains in the district" />
		<tag k="name" v="Skoften" />
		<tag k="natural" v="hill" />
		<tag k="place" v="locality" />
		<tag k="ssr:stedsnr" v="193775" />
	</node>
	<node id="-590257" lat="62.8502944403" lon="7.35240832776">
		<tag k="fixme" v="multiple name tags, choose one and add the other to alt_name; consider natural=peak for the most distinct mountains in the district" />
		<tag k="name" v="Nonsfjellet;Høgnebba" />
		<tag k="natural" v="hill" />
		<tag k="place" v="locality" />
		<tag k="ssr:stedsnr" v="193665" />
	</node>
	<node id="-590246" lat="62.8968972261" lon="7.0890527816">
		<tag k="fixme" v="consider natural=peak for the most distinct mountains in the district" />
		<tag k="name" v="Skardsettinden" />
		<tag k="natural" v="hill" />
		<tag k="place" v="locality" />
		<tag k="ssr:stedsnr" v="193148" />
	</node>
	<node id="-590225" lat="62.9380361134" lon="7.21742221501">
		<tag k="name" v="Knoken" />
		<tag k="natural" v="ridge" />
		<tag k="place" v="locality" />
		<tag k="ssr:stedsnr" v="156982" />
	</node>
	<node id="-590224" lat="62.9546138857" lon="7.20447221596">
		<tag k="name" v="Kysdalen" />
		<tag k="natural" v="valley" />
		<tag k="place" v="locality" />
		<tag k="ssr:stedsnr" v="156980" />
	</node>
	<node id="-590223" lat="62.9816111101" lon="7.20908888979">
		<tag k="name" v="Rapå" />
		<tag k="natural" v="slope" />
		<tag k="place" v="locality" />
		<tag k="ssr:stedsnr" v="156977" />
	</node>
	<node id="-589549" lat="62.8719083331" lon="7.00117500848">
		<tag k="name" v="Fugleberget" />
		<tag k="natural" v="hill" />
		<tag k="place" v="locality" />
		<tag k="ssr:stedsnr" v="398498" />
	</node>
	<node id="-590220" lat="62.8366277753" lon="7.00369722449">
		<tag k="name" v="Håberget" />
		<tag k="natural" v="hill" />
		<tag k="place" v="locality" />
		<tag k="ssr:stedsnr" v="156912" />
	</node>
	<node id="-590218" lat="62.8705638856" lon="7.0925472203">
		<tag k="name" v="Klempen" />
		<tag k="natural" v="ridge" />
		<tag k="place" v="locality" />
		<tag k="ssr:stedsnr" v="156905" />
	</node>
	<node id="-590217" lat="62.8706000005" lon="7.09753056191">
		<tag k="name" v="Brattlia" />
		<tag k="natural" v="slope" />
		<tag k="place" v="locality" />
		<tag k="ssr:stedsnr" v="156903" />
	</node>
	<node id="-590215" lat="62.79958056" lon="7.14586666606">
		<tag k="name" v="Langlia" />
		<tag k="natural" v="slope" />
		<tag k="place" v="locality" />
		<tag k="ssr:stedsnr" v="156884" />
	</node>
	<node id="-590214" lat="62.848219447" lon="7.36521665715">
		<tag k="name" v="Kvannfjellbotnen" />
		<tag k="natural" v="valley" />
		<tag k="place" v="locality" />
		<tag k="ssr:stedsnr" v="156854" />
	</node>
	<node id="-590213" lat="62.8465305593" lon="7.30519722329">
		<tag k="name" v="Julgrøinn" />
		<tag k="natural" v="slope" />
		<tag k="place" v="locality" />
		<tag k="ssr:stedsnr" v="156850" />
	</node>
	<node id="-590208" lat="62.8089694413" lon="7.32415278629">
		<tag k="name" v="Søre Melseternakken" />
		<tag k="natural" v="ridge" />
		<tag k="place" v="locality" />
		<tag k="ssr:stedsnr" v="156766" />
	</node>
	<node id="-590205" lat="62.9200999977" lon="7.24178889359">
		<tag k="name" v="Bøhamrane" />
		<tag k="natural" v="cliff" />
		<tag k="ssr:stedsnr" v="156743" />
	</node>
	<node id="-590204" lat="62.920830555" lon="7.2463916643">
		<tag k="name" v="Johannesgjerhaugen" />
		<tag k="natural" v="hill" />
		<tag k="place" v="locality" />
		<tag k="ssr:stedsnr" v="156741" />
	</node>
	<node id="-590202" lat="62.9268000011" lon="7.23266111251">
		<tag k="name" v="Svarthammaren" />
		<tag k="natural" v="cliff" />
		<tag k="ssr:stedsnr" v="156731" />
	</node>
	<node id="-590200" lat="62.9673472201" lon="7.16048054966">
		<tag k="name" v="Ingebilshaugen" />
		<tag k="natural" v="hill" />
		<tag k="place" v="locality" />
		<tag k="ssr:stedsnr" v="156719" />
	</node>
	<node id="-590199" lat="62.9714611144" lon="7.09889444754">
		<tag k="name" v="Holmelihaugen" />
		<tag k="natural" v="hill" />
		<tag k="place" v="locality" />
		<tag k="ssr:stedsnr" v="156712" />
	</node>
	<node id="-590196" lat="62.9806444447" lon="7.10500832772">
		<tag k="name" v="Røysberga" />
		<tag k="natural" v="hill" />
		<tag k="place" v="locality" />
		<tag k="ssr:stedsnr" v="156685" />
	</node>
	<node id="-590194" lat="62.993152775" lon="7.20384444459">
		<tag k="name" v="Sjøhaugane" />
		<tag k="natural" v="hill" />
		<tag k="place" v="locality" />
		<tag k="ssr:stedsnr" v="156660" />
	</node>
	<node id="-590193" lat="62.8870666627" lon="7.13332222975">
		<tag k="name" v="Stordalen" />
		<tag k="natural" v="valley" />
		<tag k="place" v="locality" />
		<tag k="ssr:stedsnr" v="156646" />
	</node>
	<node id="-590191" lat="62.8967694449" lon="7.09723055899">
		<tag k="name" v="Skardsetbotnen" />
		<tag k="natural" v="valley" />
		<tag k="place" v="locality" />
		<tag k="ssr:stedsnr" v="156634" />
	</node>
	<node id="-590190" lat="62.9207666692" lon="7.15019722058">
		<tag k="name" v="Svarthamrane" />
		<tag k="place" v="locality" />
		<tag k="ssr:stedsnr" v="156622" />
	</node>
	<node id="-590187" lat="62.8100436833" lon="7.06872986518">
		<tag k="name" v="Store Rambjøra" />
		<tag k="natural" v="hill" />
		<tag k="place" v="locality" />
		<tag k="ssr:stedsnr" v="156569" />
	</node>
	<node id="-590183" lat="62.8729833313" lon="7.05325555002">
		<tag k="name" v="Svarthammaren" />
		<tag k="natural" v="cliff" />
		<tag k="ssr:stedsnr" v="156491" />
	</node>
	<node id="-590181" lat="62.7853805517" lon="7.13616110529">
		<tag k="name" v="Haukelihaugen" />
		<tag k="natural" v="hill" />
		<tag k="place" v="locality" />
		<tag k="ssr:stedsnr" v="156478" />
	</node>
	<node id="-590180" lat="62.852286109" lon="7.03964721806">
		<tag k="fixme" v="consider natural=peak for the most distinct mountains in the district" />
		<tag k="name" v="Langhaugan" />
		<tag k="natural" v="hill" />
		<tag k="place" v="locality" />
		<tag k="ssr:stedsnr" v="156452" />
	</node>
	<node id="-590179" lat="62.8485583305" lon="7.04751944364">
		<tag k="name" v="Henrikhaugen" />
		<tag k="natural" v="hill" />
		<tag k="place" v="locality" />
		<tag k="ssr:stedsnr" v="156435" />
	</node>
	<node id="-590177" lat="62.894127775" lon="6.98339166139">
		<tag k="fixme" v="consider natural=peak for the most distinct mountains in the district" />
		<tag k="name" v="Råkhaugen" />
		<tag k="natural" v="hill" />
		<tag k="place" v="locality" />
		<tag k="ssr:stedsnr" v="156385" />
	</node>
	<node id="-590175" lat="62.9007277792" lon="6.93756388816">
		<tag k="name" v="Vorpehaugen" />
		<tag k="natural" v="hill" />
		<tag k="place" v="locality" />
		<tag k="ssr:stedsnr" v="156357" />
	</node>
	<node id="-590565" lat="62.8035638901" lon="7.05024444213">
		<tag k="name" v="Blåhammaren" />
		<tag k="place" v="locality" />
		<tag k="ssr:stedsnr" v="460469" />
	</node>
	<node id="-590172" lat="62.9063444415" lon="6.92807778384">
		<tag k="name" v="Korshaugen" />
		<tag k="natural" v="hill" />
		<tag k="place" v="locality" />
		<tag k="ssr:stedsnr" v="156346" />
	</node>
	<node id="-590168" lat="62.849530556" lon="7.31194167029">
		<tag k="name" v="Urhaugen" />
		<tag k="natural" v="hill" />
		<tag k="place" v="locality" />
		<tag k="ssr:stedsnr" v="155961" />
	</node>
	<node id="-589540" lat="62.9582027759" lon="7.03775832361">
		<tag k="name" v="Mjelkeneshaugan" />
		<tag k="natural" v="hill" />
		<tag k="place" v="locality" />
		<tag k="ssr:stedsnr" v="398433" />
	</node>
	<node id="-590166" lat="62.7955555601" lon="7.29411389538">
		<tag k="name" v="Baksida" />
		<tag k="natural" v="slope" />
		<tag k="place" v="locality" />
		<tag k="ssr:stedsnr" v="155950" />
	</node>
	<node id="-590158" lat="62.8479722238" lon="7.10642221322">
		<tag k="name" v="Håbergkloven" />
		<tag k="natural" v="valley" />
		<tag k="place" v="locality" />
		<tag k="ssr:stedsnr" v="155528" />
	</node>
	<node id="-590157" lat="62.8549999985" lon="7.11167499272">
		<tag k="name" v="Flathjellen" />
		<tag k="place" v="locality" />
		<tag k="ssr:stedsnr" v="155525" />
	</node>
	<node id="-590156" lat="62.8473361102" lon="7.17714999339">
		<tag k="name" v="Reitholen" />
		<tag k="natural" v="hill" />
		<tag k="place" v="locality" />
		<tag k="ssr:stedsnr" v="155523" />
	</node>
	<node id="-590155" lat="62.8493055567" lon="7.07373610968">
		<tag k="name" v="Sørenhjellen" />
		<tag k="place" v="locality" />
		<tag k="ssr:stedsnr" v="155518" />
	</node>
	<node id="-590154" lat="62.7833222242" lon="7.22296388881">
		<tag k="name" v="Middagsskaret" />
		<tag k="natural" v="valley" />
		<tag k="place" v="locality" />
		<tag k="ssr:stedsnr" v="153862" />
	</node>
	<node id="-590153" lat="62.7954777764" lon="7.22932221847">
		<tag k="name" v="Malmekleiva" />
		<tag k="natural" v="valley" />
		<tag k="place" v="locality" />
		<tag k="ssr:stedsnr" v="153858" />
	</node>
	<node id="-590152" lat="62.785066671" lon="7.24432777082">
		<tag k="name" v="Tusslia" />
		<tag k="natural" v="slope" />
		<tag k="place" v="locality" />
		<tag k="ssr:stedsnr" v="153854" />
	</node>
	<node id="-590143" lat="62.7964611106" lon="7.00277777392">
		<tag k="alt_name" v="Nøsa" />
		<tag k="fixme" v="consider natural=peak for the most distinct mountains in the district" />
		<tag k="name" v="Nosa" />
		<tag k="natural" v="hill" />
		<tag k="place" v="locality" />
		<tag k="ssr:stedsnr" v="133806" />
	</node>
	<node id="-590140" lat="62.8351861094" lon="7.2642000041">
		<tag k="fixme" v="multiple name tags, choose one and add the other to alt_name; consider natural=peak for the most distinct mountains in the district" />
		<tag k="name" v="Røsetåsen;Høglia" />
		<tag k="natural" v="hill" />
		<tag k="place" v="locality" />
		<tag k="ssr:stedsnr" v="133702" />
	</node>
	<node id="-591471" lat="62.8792861092" lon="7.23748610552">
		<tag k="name" v="Skabakken" />
		<tag k="natural" v="slope" />
		<tag k="place" v="locality" />
		<tag k="ssr:stedsnr" v="824823" />
	</node>
	<node id="-590121" lat="62.8832111149" lon="7.27466111873">
		<tag k="name" v="Trolldalen" />
		<tag k="natural" v="valley" />
		<tag k="place" v="locality" />
		<tag k="ssr:stedsnr" v="132624" />
	</node>
	<node id="-590111" lat="62.886408334" lon="7.21358888179">
		<tag k="fixme" v="consider natural=peak for the most distinct mountains in the district" />
		<tag k="name" v="Talstadhesten" />
		<tag k="natural" v="hill" />
		<tag k="place" v="locality" />
		<tag k="ssr:stedsnr" v="132129" />
	</node>
	<node id="-589530" lat="62.783538885" lon="7.22749999099">
		<tag k="name" v="Middskarhaugen" />
		<tag k="natural" v="hill" />
		<tag k="place" v="locality" />
		<tag k="ssr:stedsnr" v="396814" />
	</node>
	<node id="-590553" lat="62.9913305521" lon="7.19654444208">
		<tag k="name" v="Tipptua" />
		<tag k="natural" v="hill" />
		<tag k="place" v="locality" />
		<tag k="ssr:stedsnr" v="459988" />
	</node>
	<node id="-590093" lat="62.9114638927" lon="6.903008341">
		<tag k="name" v="Kvalen" />
		<tag k="natural" v="hill" />
		<tag k="place" v="locality" />
		<tag k="ssr:stedsnr" v="95951" />
	</node>
	<node id="-590092" lat="62.9459749973" lon="7.22970832601">
		<tag k="name" v="Ryggen" />
		<tag k="natural" v="slope" />
		<tag k="place" v="locality" />
		<tag k="ssr:stedsnr" v="95942" />
	</node>
	<node id="-590091" lat="62.9165166703" lon="6.93535833013">
		<tag k="name" v="Kjekså" />
		<tag k="natural" v="hill" />
		<tag k="place" v="locality" />
		<tag k="ssr:stedsnr" v="95934" />
	</node>
	<node id="-590087" lat="62.7798555536" lon="7.08553055156">
		<tag k="name" v="Sporslia" />
		<tag k="natural" v="slope" />
		<tag k="place" v="locality" />
		<tag k="ssr:stedsnr" v="95886" />
	</node>
	<node id="-590084" lat="62.8497444411" lon="7.28947222993">
		<tag k="name" v="Måtbakken" />
		<tag k="natural" v="slope" />
		<tag k="place" v="locality" />
		<tag k="ssr:stedsnr" v="95852" />
	</node>
	<node id="-590082" lat="62.7945416662" lon="7.31141110169">
		<tag k="name" v="Nøtskaret" />
		<tag k="natural" v="valley" />
		<tag k="place" v="locality" />
		<tag k="ssr:stedsnr" v="95779" />
	</node>
	<node id="-589567" lat="62.9404972179" lon="7.2167666645">
		<tag k="name" v="Knoken" />
		<tag k="natural" v="ridge" />
		<tag k="place" v="locality" />
		<tag k="ssr:stedsnr" v="398989" />
	</node>
	<node id="-590079" lat="62.9752027786" lon="7.19912778075">
		<tag k="name" v="Salbakken" />
		<tag k="natural" v="slope" />
		<tag k="place" v="locality" />
		<tag k="ssr:stedsnr" v="95752" />
	</node>
	<node id="-590077" lat="62.8063249989" lon="7.35253333673">
		<tag k="name" v="Taresletthaugane" />
		<tag k="natural" v="hill" />
		<tag k="place" v="locality" />
		<tag k="ssr:stedsnr" v="95742" />
	</node>
	<node id="-589628" lat="62.9623972258" lon="7.1177944349">
		<tag k="name" v="Kvilaren" />
		<tag k="natural" v="hill" />
		<tag k="place" v="locality" />
		<tag k="ssr:stedsnr" v="399977" />
	</node>
	<node id="-590075" lat="62.9165000028" lon="7.24897500911">
		<tag k="name" v="Blåhamrane" />
		<tag k="natural" v="ridge" />
		<tag k="place" v="locality" />
		<tag k="ssr:stedsnr" v="95718" />
	</node>
	<node id="-590074" lat="62.9219666625" lon="7.2388611038">
		<tag k="name" v="Velterhaugane" />
		<tag k="natural" v="hill" />
		<tag k="place" v="locality" />
		<tag k="ssr:stedsnr" v="95716" />
	</node>
	<node id="-590073" lat="62.8745527755" lon="7.18875277657">
		<tag k="name" v="Dalgapet" />
		<tag k="natural" v="valley" />
		<tag k="place" v="locality" />
		<tag k="ssr:stedsnr" v="95992" />
	</node>
	<node id="-590072" lat="62.8998305546" lon="7.11128889808">
		<tag k="name" v="Kuhola" />
		<tag k="natural" v="slope" />
		<tag k="place" v="locality" />
		<tag k="ssr:stedsnr" v="95980" />
	</node>
	<node id="-590070" lat="62.9656416701" lon="7.15276112016">
		<tag k="name" v="Mjølkehaugen" />
		<tag k="natural" v="hill" />
		<tag k="place" v="locality" />
		<tag k="ssr:stedsnr" v="95699" />
	</node>
	<node id="-590069" lat="62.9666000009" lon="7.12947499547">
		<tag k="name" v="Midtfarleite" />
		<tag k="natural" v="ridge" />
		<tag k="place" v="locality" />
		<tag k="ssr:stedsnr" v="95697" />
	</node>
	<node id="-590066" lat="62.9833138921" lon="7.17744167049">
		<tag k="name" v="Sandvikaksla" />
		<tag k="natural" v="ridge" />
		<tag k="place" v="locality" />
		<tag k="ssr:stedsnr" v="95674" />
	</node>
	<node id="-589523" lat="62.8266666693" lon="7.30999165734">
		<tag k="fixme" v="consider natural=peak for the most distinct mountains in the district" />
		<tag k="name" v="Kleiva" />
		<tag k="natural" v="hill" />
		<tag k="place" v="locality" />
		<tag k="ssr:stedsnr" v="376725" />
	</node>
	<node id="-590064" lat="62.8681555524" lon="7.1923666717">
		<tag k="name" v="Nakkerompa" />
		<tag k="natural" v="hill" />
		<tag k="place" v="locality" />
		<tag k="ssr:stedsnr" v="95651" />
	</node>
	<node id="-590062" lat="62.9659805576" lon="7.16040554882">
		<tag k="name" v="Isakhaugen" />
		<tag k="natural" v="hill" />
		<tag k="place" v="locality" />
		<tag k="ssr:stedsnr" v="95703" />
	</node>
	<node id="-590060" lat="62.8958805575" lon="7.08786667042">
		<tag k="name" v="Stortindkløvet" />
		<tag k="natural" v="valley" />
		<tag k="place" v="locality" />
		<tag k="ssr:stedsnr" v="95594" />
	</node>
	<node id="-590059" lat="62.9484750028" lon="7.11436388387">
		<tag k="name" v="Sveinhaugen" />
		<tag k="natural" v="hill" />
		<tag k="place" v="locality" />
		<tag k="ssr:stedsnr" v="95569" />
	</node>
	<node id="-590057" lat="62.8293611147" lon="7.10184166483">
		<tag k="name" v="Jekteberget" />
		<tag k="natural" v="hill" />
		<tag k="place" v="locality" />
		<tag k="ssr:stedsnr" v="95501" />
	</node>
	<node id="-590056" lat="62.8567861104" lon="7.08123333619">
		<tag k="name" v="Grasholen" />
		<tag k="natural" v="hill" />
		<tag k="place" v="locality" />
		<tag k="ssr:stedsnr" v="95492" />
	</node>
	<node id="-590055" lat="62.8649388848" lon="7.10258334025">
		<tag k="name" v="Storholen" />
		<tag k="natural" v="hill" />
		<tag k="place" v="locality" />
		<tag k="ssr:stedsnr" v="95491" />
	</node>
	<node id="-590053" lat="62.8471527777" lon="7.06727777479">
		<tag k="name" v="Storholen" />
		<tag k="natural" v="hill" />
		<tag k="place" v="locality" />
		<tag k="ssr:stedsnr" v="95483" />
	</node>
	<node id="-590052" lat="62.8711333302" lon="7.00755278747">
		<tag k="name" v="Merrahaugen" />
		<tag k="natural" v="hill" />
		<tag k="place" v="locality" />
		<tag k="ssr:stedsnr" v="95470" />
	</node>
	<node id="-590051" lat="62.8767289098" lon="6.98286510584">
		<tag k="name" v="Torvehaugen" />
		<tag k="natural" v="hill" />
		<tag k="place" v="locality" />
		<tag k="ssr:stedsnr" v="95468" />
	</node>
	<node id="-590050" lat="62.8773099123" lon="6.98485494448">
		<tag k="name" v="Hjellhaugen" />
		<tag k="natural" v="hill" />
		<tag k="place" v="locality" />
		<tag k="ssr:stedsnr" v="95467" />
	</node>
	<node id="-590047" lat="62.9473916675" lon="7.21105000178">
		<tag k="name" v="Kaljekløvet" />
		<tag k="natural" v="valley" />
		<tag k="place" v="locality" />
		<tag k="ssr:stedsnr" v="95646" />
	</node>
	<node id="-590045" lat="62.8819027793" lon="7.07679722332">
		<tag k="name" v="Kuhammaren" />
		<tag k="natural" v="hill" />
		<tag k="place" v="locality" />
		<tag k="ssr:stedsnr" v="95620" />
	</node>
	<node id="-590044" lat="62.906505553" lon="7.1277361156">
		<tag k="name" v="Skarhaugen" />
		<tag k="natural" v="hill" />
		<tag k="place" v="locality" />
		<tag k="ssr:stedsnr" v="95615" />
	</node>
	<node id="-590042" lat="62.9073750024" lon="7.15243611986">
		<tag k="name" v="Torslihammaren" />
		<tag k="natural" v="ridge" />
		<tag k="place" v="locality" />
		<tag k="ssr:stedsnr" v="95604" />
	</node>
	<node id="-590040" lat="62.8177500028" lon="7.09991944998">
		<tag k="name" v="Aurekleiva" />
		<tag k="natural" v="slope" />
		<tag k="place" v="locality" />
		<tag k="ssr:stedsnr" v="95541" />
	</node>
	<node id="-590039" lat="62.8279861127" lon="7.07238055463">
		<tag k="name" v="Notberget" />
		<tag k="natural" v="hill" />
		<tag k="place" v="locality" />
		<tag k="ssr:stedsnr" v="95533" />
	</node>
	<node id="-590038" lat="62.8142222254" lon="7.05708611128">
		<tag k="alt_name" v="Litlebjøra" />
		<tag k="name" v="Litle Rambjøra" />
		<tag k="natural" v="hill" />
		<tag k="place" v="locality" />
		<tag k="ssr:stedsnr" v="95528" />
	</node>
	<node id="-590037" lat="62.8087361094" lon="7.12245833725">
		<tag k="name" v="Gauphaugane" />
		<tag k="natural" v="hill" />
		<tag k="place" v="locality" />
		<tag k="ssr:stedsnr" v="95521" />
	</node>
	<node id="-590035" lat="62.8386499996" lon="6.99366666762">
		<tag k="name" v="Litlekorsberget" />
		<tag k="natural" v="hill" />
		<tag k="place" v="locality" />
		<tag k="ssr:stedsnr" v="95398" />
	</node>
	<node id="-590033" lat="62.844200002" lon="7.01956111178">
		<tag k="name" v="Våthaugen" />
		<tag k="natural" v="hill" />
		<tag k="place" v="locality" />
		<tag k="ssr:stedsnr" v="95395" />
	</node>
	<node id="-590032" lat="62.8534472184" lon="7.03062221893">
		<tag k="name" v="Sandvikdalen" />
		<tag k="natural" v="valley" />
		<tag k="place" v="locality" />
		<tag k="ssr:stedsnr" v="95392" />
	</node>
	<node id="-590029" lat="62.784486113" lon="7.03512499746">
		<tag k="name" v="Hagåsneset" />
		<tag k="natural" v="ridge" />
		<tag k="place" v="locality" />
		<tag k="ssr:stedsnr" v="95363" />
	</node>
	<node id="-590028" lat="62.9085944478" lon="6.96925834284">
		<tag k="name" v="Unnsteinhaugan" />
		<tag k="natural" v="hill" />
		<tag k="place" v="locality" />
		<tag k="ssr:stedsnr" v="95334" />
	</node>
	<node id="-590025" lat="62.9047305541" lon="6.91400000124">
		<tag k="name" v="Gjølshaugen" />
		<tag k="natural" v="hill" />
		<tag k="place" v="locality" />
		<tag k="ssr:stedsnr" v="95312" />
	</node>
	<node id="-590023" lat="62.9340148074" lon="6.95515490291">
		<tag k="name" v="Drågavarden" />
		<tag k="natural" v="hill" />
		<tag k="place" v="locality" />
		<tag k="ssr:stedsnr" v="95442" />
	</node>
	<node id="-590022" lat="62.9347249982" lon="7.00596667081">
		<tag k="name" v="Svarte og kvite haugan" />
		<tag k="natural" v="hill" />
		<tag k="place" v="locality" />
		<tag k="ssr:stedsnr" v="95438" />
	</node>
	<node id="-590013" lat="62.7983166653" lon="7.27282222734">
		<tag k="name" v="Lia" />
		<tag k="natural" v="slope" />
		<tag k="place" v="locality" />
		<tag k="ssr:stedsnr" v="95015" />
	</node>
	<node id="-590012" lat="62.8305388874" lon="7.39026945022">
		<tag k="name" v="Kvitålia" />
		<tag k="natural" v="slope" />
		<tag k="place" v="locality" />
		<tag k="ssr:stedsnr" v="95013" />
	</node>
	<node id="-590011" lat="62.7679999983" lon="7.08918888165">
		<tag k="name" v="Vargenakken" />
		<tag k="natural" v="ridge" />
		<tag k="place" v="locality" />
		<tag k="ssr:stedsnr" v="92862" />
	</node>
	<node id="-590010" lat="62.7900527806" lon="7.219013881">
		<tag k="name" v="Røsholmarka" />
		<tag k="natural" v="slope" />
		<tag k="place" v="locality" />
		<tag k="ssr:stedsnr" v="92818" />
	</node>
	<node id="-590009" lat="62.7832361123" lon="7.23989443687">
		<tag k="name" v="Spikjebogskaret" />
		<tag k="natural" v="valley" />
		<tag k="place" v="locality" />
		<tag k="ssr:stedsnr" v="92813" />
	</node>
	<node id="-590008" lat="62.7709694441" lon="7.12508888426">
		<tag k="fixme" v="consider natural=peak for the most distinct mountains in the district" />
		<tag k="name" v="Seterfjellet" />
		<tag k="natural" v="hill" />
		<tag k="place" v="locality" />
		<tag k="ssr:stedsnr" v="92018" />
	</node>
	<node id="-590006" lat="62.7581416637" lon="7.09351389058">
		<tag k="fixme" v="consider natural=peak for the most distinct mountains in the district" />
		<tag k="name" v="Ørnehammaren" />
		<tag k="natural" v="hill" />
		<tag k="place" v="locality" />
		<tag k="ssr:stedsnr" v="73869" />
	</node>
	<node id="-590003" lat="62.8148638893" lon="7.29171389068">
		<tag k="name" v="Julskaret" />
		<tag k="natural" v="valley" />
		<tag k="place" v="locality" />
		<tag k="ssr:stedsnr" v="73743" />
	</node>
	<node id="-589999" lat="62.837691668" lon="7.37039443933">
		<tag k="fixme" v="consider natural=peak for the most distinct mountains in the district" />
		<tag k="name" v="Butippen" />
		<tag k="natural" v="hill" />
		<tag k="place" v="locality" />
		<tag k="ssr:stedsnr" v="73719" />
	</node>
	<node id="-589997" lat="62.8423444445" lon="7.33515556234">
		<tag k="name" v="Trondalen" />
		<tag k="natural" v="valley" />
		<tag k="place" v="locality" />
		<tag k="ssr:stedsnr" v="73670" />
	</node>
	<node id="-589991" lat="62.9335111075" lon="7.03860555792">
		<tag k="name" v="Sandstølen" />
		<tag k="natural" v="hill" />
		<tag k="place" v="locality" />
		<tag k="ssr:stedsnr" v="73109" />
	</node>
	<node id="-589989" lat="62.9084000033" lon="6.94737778498">
		<tag k="name" v="Gulberget" />
		<tag k="natural" v="hill" />
		<tag k="place" v="locality" />
		<tag k="ssr:stedsnr" v="73090" />
	</node>
	<node id="-590533" lat="62.8556166688" lon="7.1180527761">
		<tag k="name" v="Ruskhaugen" />
		<tag k="natural" v="hill" />
		<tag k="place" v="locality" />
		<tag k="ssr:stedsnr" v="459506" />
	</node>
	<node id="-589849" lat="62.7710861087" lon="7.11220833422">
		<tag k="name" v="Urlia" />
		<tag k="natural" v="slope" />
		<tag k="place" v="locality" />
		<tag k="ssr:stedsnr" v="32874" />
	</node>
	<node id="-589971" lat="62.8726583291" lon="7.22093334207">
		<tag k="name" v="Allia" />
		<tag k="natural" v="slope" />
		<tag k="place" v="locality" />
		<tag k="ssr:stedsnr" v="72632" />
	</node>
	<node id="-589968" lat="62.9140833345" lon="7.23974444478">
		<tag k="fixme" v="consider natural=peak for the most distinct mountains in the district" />
		<tag k="name" v="Halsan" />
		<tag k="natural" v="hill" />
		<tag k="place" v="locality" />
		<tag k="ssr:stedsnr" v="72525" />
	</node>
	<node id="-589952" lat="62.8699722266" lon="7.06545834205">
		<tag k="name" v="Breiskaret" />
		<tag k="natural" v="valley" />
		<tag k="place" v="locality" />
		<tag k="ssr:stedsnr" v="72131" />
	</node>
	<node id="-591335" lat="62.7883916679" lon="7.17563332495">
		<tag k="name" v="Hågjelet" />
		<tag k="natural" v="gorge" />
		<tag k="ssr:stedsnr" v="763878" />
	</node>
	<node id="-589929" lat="62.90544722" lon="7.15036944543">
		<tag k="name" v="Torslia" />
		<tag k="natural" v="slope" />
		<tag k="place" v="locality" />
		<tag k="ssr:stedsnr" v="35903" />
	</node>
	<node id="-589928" lat="62.9018416636" lon="7.17055833007">
		<tag k="name" v="Nøsalia" />
		<tag k="natural" v="slope" />
		<tag k="place" v="locality" />
		<tag k="ssr:stedsnr" v="35902" />
	</node>
	<node id="-589926" lat="62.7813694419" lon="7.15182222325">
		<tag k="name" v="Kleiva" />
		<tag k="natural" v="slope" />
		<tag k="place" v="locality" />
		<tag k="ssr:stedsnr" v="35892" />
	</node>
	<node id="-589925" lat="62.8644638853" lon="7.0750527821">
		<tag k="name" v="Åsdalen" />
		<tag k="natural" v="valley" />
		<tag k="place" v="locality" />
		<tag k="ssr:stedsnr" v="35891" />
	</node>
	<node id="-589923" lat="62.8991555576" lon="7.25355277328">
		<tag k="fixme" v="consider natural=peak for the most distinct mountains in the district" />
		<tag k="name" v="Stortinden" />
		<tag k="natural" v="hill" />
		<tag k="place" v="locality" />
		<tag k="ssr:stedsnr" v="35879" />
	</node>
	<node id="-589918" lat="62.824750003" lon="7.35515278354">
		<tag k="name" v="Dyrdalsrøra" />
		<tag k="natural" v="ridge" />
		<tag k="place" v="locality" />
		<tag k="ssr:stedsnr" v="35858" />
	</node>
	<node id="-589917" lat="62.7807861092" lon="7.04921943684">
		<tag k="name" v="Liaåsen" />
		<tag k="natural" v="hill" />
		<tag k="place" v="locality" />
		<tag k="ssr:stedsnr" v="35854" />
	</node>
	<node id="-589916" lat="62.7843388845" lon="7.02498055851">
		<tag k="name" v="Åsan" />
		<tag k="natural" v="hill" />
		<tag k="place" v="locality" />
		<tag k="ssr:stedsnr" v="35852" />
	</node>
	<node id="-589914" lat="62.7980727672" lon="7.26155237075">
		<tag k="name" v="Tverrelvdalen" />
		<tag k="natural" v="valley" />
		<tag k="place" v="locality" />
		<tag k="ssr:stedsnr" v="35838" />
	</node>
	<node id="-589910" lat="62.924638893" lon="7.23586388612">
		<tag k="name" v="Grønnhammaren" />
		<tag k="natural" v="hill" />
		<tag k="place" v="locality" />
		<tag k="ssr:stedsnr" v="35772" />
	</node>
	<node id="-589909" lat="62.9423333368" lon="7.10600555609">
		<tag k="name" v="Kalvjølet" />
		<tag k="natural" v="valley" />
		<tag k="place" v="locality" />
		<tag k="ssr:stedsnr" v="35763" />
	</node>
	<node id="-589908" lat="62.9337055589" lon="7.07365832898">
		<tag k="name" v="Mallunden" />
		<tag k="natural" v="ridge" />
		<tag k="place" v="locality" />
		<tag k="ssr:stedsnr" v="35758" />
	</node>
	<node id="-589905" lat="62.8401944454" lon="7.20090833699">
		<tag k="name" v="Gjerdehaugen" />
		<tag k="natural" v="hill" />
		<tag k="place" v="locality" />
		<tag k="ssr:stedsnr" v="35721" />
	</node>
	<node id="-589903" lat="62.8774944452" lon="7.07995277177">
		<tag k="name" v="Heggerustskaret" />
		<tag k="natural" v="valley" />
		<tag k="place" v="locality" />
		<tag k="ssr:stedsnr" v="35697" />
	</node>
	<node id="-589899" lat="62.9210222179" lon="7.06035555538">
		<tag k="name" v="Rundholen" />
		<tag k="natural" v="hill" />
		<tag k="place" v="locality" />
		<tag k="ssr:stedsnr" v="35662" />
	</node>
	<node id="-589898" lat="62.9094083305" lon="7.10707223038">
		<tag k="name" v="Tilholdskråa" />
		<tag k="natural" v="valley" />
		<tag k="place" v="locality" />
		<tag k="ssr:stedsnr" v="35659" />
	</node>
	<node id="-589897" lat="62.9452694447" lon="7.09328887906">
		<tag k="name" v="Rishaugen" />
		<tag k="natural" v="hill" />
		<tag k="place" v="locality" />
		<tag k="ssr:stedsnr" v="35656" />
	</node>
	<node id="-589896" lat="62.9497666642" lon="7.1078305631">
		<tag k="alt_name" v="Hårberget" />
		<tag k="name" v="Horberget" />
		<tag k="natural" v="hill" />
		<tag k="place" v="locality" />
		<tag k="ssr:stedsnr" v="35655" />
	</node>
	<node id="-589895" lat="62.9491805543" lon="7.08265278705">
		<tag k="name" v="Lyngremma" />
		<tag k="natural" v="ridge" />
		<tag k="place" v="locality" />
		<tag k="ssr:stedsnr" v="35654" />
	</node>
	<node id="-589893" lat="62.8264694466" lon="7.0278277708">
		<tag k="name" v="Storhaugen" />
		<tag k="natural" v="hill" />
		<tag k="place" v="locality" />
		<tag k="ssr:stedsnr" v="35552" />
	</node>
	<node id="-589892" lat="62.7940861129" lon="7.03439999947">
		<tag k="name" v="Heimdalen" />
		<tag k="natural" v="valley" />
		<tag k="place" v="locality" />
		<tag k="ssr:stedsnr" v="35514" />
	</node>
	<node id="-589889" lat="62.9016083314" lon="7.01123887919">
		<tag k="fixme" v="consider natural=peak for the most distinct mountains in the district" />
		<tag k="name" v="Rødvikremma" />
		<tag k="natural" v="hill" />
		<tag k="place" v="locality" />
		<tag k="ssr:stedsnr" v="35491" />
	</node>
	<node id="-589888" lat="62.9045166628" lon="7.03247500862">
		<tag k="name" v="Nørdre Okshaugen" />
		<tag k="natural" v="hill" />
		<tag k="place" v="locality" />
		<tag k="ssr:stedsnr" v="35488" />
	</node>
	<node id="-589887" lat="62.9002555556" lon="6.98382500691">
		<tag k="name" v="Bytingshaugen" />
		<tag k="natural" v="hill" />
		<tag k="place" v="locality" />
		<tag k="ssr:stedsnr" v="35484" />
	</node>
	<node id="-589417" lat="62.9410611127" lon="7.1396000015">
		<tag k="name" v="Olahaugen" />
		<tag k="natural" v="hill" />
		<tag k="place" v="locality" />
		<tag k="ssr:stedsnr" v="338566" />
	</node>
	<node id="-589883" lat="62.9064055583" lon="6.94336945272">
		<tag k="name" v="Prestrenna" />
		<tag k="natural" v="valley" />
		<tag k="place" v="locality" />
		<tag k="ssr:stedsnr" v="35468" />
	</node>
	<node id="-589833" lat="62.9152138845" lon="7.26053054896">
		<tag k="name" v="Sjurlia" />
		<tag k="natural" v="slope" />
		<tag k="place" v="locality" />
		<tag k="ssr:stedsnr" v="12545" />
	</node>
	<node id="-590515" lat="62.7710027787" lon="7.06467778631">
		<tag k="name" v="Geitahaugen" />
		<tag k="natural" v="hill" />
		<tag k="place" v="locality" />
		<tag k="ssr:stedsnr" v="457885" />
	</node>
	<node id="-589871" lat="62.9846805527" lon="7.25878610979">
		<tag k="name" v="Ershågen" />
		<tag k="natural" v="hill" />
		<tag k="place" v="locality" />
		<tag k="ssr:stedsnr" v="34954" />
	</node>
	<node id="-589870" lat="62.8110916683" lon="7.13059167172">
		<tag k="name" v="Ljøsdalen" />
		<tag k="natural" v="valley" />
		<tag k="place" v="locality" />
		<tag k="ssr:stedsnr" v="34573" />
	</node>
	<node id="-589869" lat="62.8189361127" lon="7.06796666638">
		<tag k="fixme" v="consider natural=peak for the most distinct mountains in the district" />
		<tag k="name" v="Rødhaugen" />
		<tag k="natural" v="hill" />
		<tag k="place" v="locality" />
		<tag k="ssr:stedsnr" v="34568" />
	</node>
	<node id="-589868" lat="62.7834972259" lon="7.08028889723">
		<tag k="name" v="Legdahaugen" />
		<tag k="natural" v="hill" />
		<tag k="place" v="locality" />
		<tag k="ssr:stedsnr" v="34561" />
	</node>
	<node id="-589865" lat="62.826208332" lon="7.0756388868">
		<tag k="name" v="Nausthaugen" />
		<tag k="natural" v="hill" />
		<tag k="place" v="locality" />
		<tag k="ssr:stedsnr" v="34519" />
	</node>
	<node id="-589864" lat="62.823158331" lon="7.07732222842">
		<tag k="name" v="Mjøkhaugen" />
		<tag k="natural" v="hill" />
		<tag k="place" v="locality" />
		<tag k="ssr:stedsnr" v="34517" />
	</node>
	<node id="-589863" lat="62.8396583289" lon="7.13072499685">
		<tag k="alt_name" v="Digerhalsen" />
		<tag k="name" v="Degerhalsen" />
		<tag k="natural" v="ridge" />
		<tag k="place" v="locality" />
		<tag k="ssr:stedsnr" v="34512" />
	</node>
	<node id="-589860" lat="62.9342638878" lon="6.97941389342">
		<tag k="name" v="Aslakhammaren" />
		<tag k="natural" v="cliff" />
		<tag k="ssr:stedsnr" v="34454" />
	</node>
	<node id="-589854" lat="62.8995305528" lon="6.97310000386">
		<tag k="name" v="Moshaugen" />
		<tag k="natural" v="hill" />
		<tag k="place" v="locality" />
		<tag k="ssr:stedsnr" v="34353" />
	</node>
	<node id="-589852" lat="62.8909916652" lon="6.95350000251">
		<tag k="name" v="Sjåhaugen" />
		<tag k="natural" v="hill" />
		<tag k="place" v="locality" />
		<tag k="ssr:stedsnr" v="34345" />
	</node>
	<node id="-589851" lat="62.773463888" lon="7.0720277799">
		<tag k="name" v="Dølmeskarhammaren" />
		<tag k="natural" v="cliff" />
		<tag k="ssr:stedsnr" v="32890" />
	</node>
	<node id="-590511" lat="62.841663889" lon="7.38198333975">
		<tag k="fixme" v="consider natural=peak for the most distinct mountains in the district" />
		<tag k="name" v="Bjørnen" />
		<tag k="natural" v="hill" />
		<tag k="place" v="locality" />
		<tag k="ssr:stedsnr" v="445809" />
	</node>
	<node id="-589848" lat="62.7826999994" lon="7.2184027851">
		<tag k="fixme" v="consider natural=peak for the most distinct mountains in the district" />
		<tag k="name" v="Hellefjellet" />
		<tag k="natural" v="hill" />
		<tag k="place" v="locality" />
		<tag k="ssr:stedsnr" v="32828" />
	</node>
	<node id="-590167" lat="62.8670138873" lon="7.29741389157">
		<tag k="name" v="Eialia" />
		<tag k="natural" v="slope" />
		<tag k="place" v="locality" />
		<tag k="ssr:stedsnr" v="155958" />
	</node>
	<node id="-589826" lat="62.9812805561" lon="7.13840833313">
		<tag k="name" v="Farstadberget" />
		<tag k="natural" v="hill" />
		<tag k="place" v="locality" />
		<tag k="ssr:stedsnr" v="12043" />
	</node>
</osm>
