<?xml version="1.0" encoding="UTF-8"?>
<osm generator="osmapis" version="0.6">
	<node id="-591868" lat="62.8210111103" lon="7.17729722978">
		<tag k="name" v="Skofthella" />
		<tag k="place" v="locality" />
		<tag k="ssr:stedsnr" v="641561" />
	</node>
	<node id="-591866" lat="62.8429194406" lon="7.14042500221">
		<tag k="alt_name" v="Tenneset" />
		<tag k="name" v="Teinneset" />
		<tag k="natural" v="cape" />
		<tag k="ssr:stedsnr" v="641518" />
	</node>
	<node id="-591862" lat="62.9329944438" lon="6.97793056323">
		<tag k="fixme" v="consider seamark:type=rock or natural=shoal" />
		<tag k="name" v="Steinskjæret" />
		<tag k="place" v="islet" />
		<tag k="ssr:stedsnr" v="641466" />
	</node>
	<node id="-591861" lat="62.9504805565" lon="7.00486111435">
		<tag k="name" v="Midtholmen" />
		<tag k="place" v="islet" />
		<tag k="ssr:stedsnr" v="641461" />
	</node>
	<node id="-591860" lat="62.9489111153" lon="7.00413610128">
		<tag k="fixme" v="consider seamark:type=rock or natural=shoal" />
		<tag k="name" v="Nerhaughøna" />
		<tag k="place" v="islet" />
		<tag k="ssr:stedsnr" v="641449" />
	</node>
	<node id="-591857" lat="62.9537333359" lon="7.01551110787">
		<tag k="name" v="Sjåholmen" />
		<tag k="place" v="islet" />
		<tag k="ssr:stedsnr" v="641432" />
	</node>
	<node id="-590504" lat="62.9214444414" lon="6.93835555064">
		<tag k="name" v="Buholmen" />
		<tag k="place" v="islet" />
		<tag k="ssr:stedsnr" v="399929" />
	</node>
	<node id="-591854" lat="62.8373027768" lon="7.03027500877">
		<tag k="name" v="Litleholmen" />
		<tag k="place" v="islet" />
		<tag k="ssr:stedsnr" v="641412" />
	</node>
	<node id="-591851" lat="62.8320722233" lon="7.01042221401">
		<tag k="bay" v="fjord" />
		<tag k="name" v="Landbradden" />
		<tag k="natural" v="bay" />
		<tag k="ssr:stedsnr" v="641405" />
	</node>
	<node id="-591850" lat="62.8401555517" lon="6.98882223142">
		<tag k="name" v="Hæringsundet" />
		<tag k="natural" v="strait" />
		<tag k="ssr:stedsnr" v="641400" />
	</node>
	<node id="-590503" lat="62.8781722187" lon="6.9648916758">
		<tag k="fixme" v="consider seamark:type=rock or natural=shoal" />
		<tag k="name" v="Langfleå" />
		<tag k="place" v="islet" />
		<tag k="ssr:stedsnr" v="399921" />
	</node>
	<node id="-591847" lat="62.8587361085" lon="7.0002000001">
		<tag k="name" v="Naustneset" />
		<tag k="natural" v="cape" />
		<tag k="ssr:stedsnr" v="641387" />
	</node>
	<node id="-591842" lat="62.8854472214" lon="6.94411111156">
		<tag k="name" v="Flatholmen" />
		<tag k="place" v="islet" />
		<tag k="ssr:stedsnr" v="641350" />
	</node>
	<node id="-591841" lat="62.8826527739" lon="6.94288334049">
		<tag k="name" v="Ospholmsundet" />
		<tag k="natural" v="strait" />
		<tag k="ssr:stedsnr" v="641351" />
	</node>
	<node id="-591840" lat="62.8818027755" lon="6.94647221342">
		<tag k="name" v="Elgenstøa" />
		<tag k="natural" v="bay" />
		<tag k="ssr:stedsnr" v="641348" />
	</node>
	<node id="-590160" lat="62.8209638846" lon="7.08423333013">
		<tag k="name" v="Svansholmsundet" />
		<tag k="natural" v="strait" />
		<tag k="ssr:stedsnr" v="277588" />
	</node>
	<node id="-591838" lat="62.8886805548" lon="6.94149721458">
		<tag k="name" v="Trollarneset" />
		<tag k="natural" v="cape" />
		<tag k="ssr:stedsnr" v="641331" />
	</node>
	<node id="-591836" lat="62.9066027757" lon="6.89653611455">
		<tag k="name" v="Fanteleia" />
		<tag k="natural" v="strait" />
		<tag k="ssr:stedsnr" v="641315" />
	</node>
	<node id="-591835" lat="62.9049777785" lon="6.88858611318">
		<tag k="fixme" v="consider seamark:type=rock or natural=shoal" />
		<tag k="name" v="Håskjæret" />
		<tag k="place" v="islet" />
		<tag k="ssr:stedsnr" v="641316" />
	</node>
	<node id="-591834" lat="62.8915583368" lon="6.84440555604">
		<tag k="name" v="Nordre Bjørnøybarane" />
		<tag k="place" v="islet" />
		<tag k="ssr:stedsnr" v="641311" />
	</node>
	<node id="-591833" lat="62.8907722257" lon="6.84271388801">
		<tag k="name" v="Midtre Bjørnøybarane" />
		<tag k="place" v="islet" />
		<tag k="ssr:stedsnr" v="641310" />
	</node>
	<node id="-591832" lat="62.8046888895" lon="6.99410276963">
		<tag k="name" v="Storvikneset" />
		<tag k="natural" v="cape" />
		<tag k="ssr:stedsnr" v="641243" />
	</node>
	<node id="-591819" lat="62.8448194422" lon="7.09094721601">
		<tag k="name" v="Grovabukta" />
		<tag k="natural" v="bay" />
		<tag k="ssr:stedsnr" v="640578" />
	</node>
	<node id="-591805" lat="63.0091583296" lon="7.22809444335">
		<tag k="name" v="Eaholmen" />
		<tag k="place" v="islet" />
		<tag k="ssr:stedsnr" v="619642" />
	</node>
	<node id="-591788" lat="63.0451555568" lon="6.98802222138">
		<tag k="name" v="Kroppen" />
		<tag k="natural" v="shoal" />
		<tag k="place" v="locality" />
		<tag k="ssr:stedsnr" v="618621" />
	</node>
	<node id="-591786" lat="63.1132333369" lon="6.86294443567">
		<tag k="name" v="Bruna" />
		<tag k="natural" v="shoal" />
		<tag k="place" v="locality" />
		<tag k="ssr:stedsnr" v="618617" />
	</node>
	<node id="-591783" lat="63.0018611138" lon="7.22047778112">
		<tag k="name" v="Kråkholmen" />
		<tag k="place" v="islet" />
		<tag k="ssr:stedsnr" v="618398" />
	</node>
	<node id="-591780" lat="62.8374583375" lon="7.1215472219">
		<tag k="name" v="Langøya" />
		<tag k="place" v="islet" />
		<tag k="ssr:stedsnr" v="618171" />
	</node>
	<node id="-591774" lat="62.8396638904" lon="6.98572499226">
		<tag k="fixme" v="consider seamark:type=rock or natural=shoal" />
		<tag k="name" v="Hæringen" />
		<tag k="place" v="islet" />
		<tag k="ssr:stedsnr" v="618158" />
	</node>
	<node id="-591773" lat="62.8897527766" lon="6.86630000966">
		<tag k="name" v="Skjerlingen" />
		<tag k="place" v="islet" />
		<tag k="ssr:stedsnr" v="618156" />
	</node>
	<node id="-590148" lat="62.9694999993" lon="7.00322778361">
		<tag k="alt_name" v="Vest Stoplan" />
		<tag k="name" v="Sørstoplen" />
		<tag k="place" v="islet" />
		<tag k="ssr:stedsnr" v="277447" />
	</node>
	<node id="-591763" lat="62.9928222196" lon="7.14300277542">
		<tag k="name" v="Nordneset" />
		<tag k="natural" v="cape" />
		<tag k="ssr:stedsnr" v="618040" />
	</node>
	<node id="-591761" lat="62.9642444423" lon="7.0355222229">
		<tag k="name" v="Haugneset" />
		<tag k="natural" v="cape" />
		<tag k="ssr:stedsnr" v="618022" />
	</node>
	<node id="-591760" lat="62.9670777802" lon="7.02229166042">
		<tag k="fixme" v="consider seamark:type=rock or natural=shoal" />
		<tag k="name" v="Dragan" />
		<tag k="place" v="islet" />
		<tag k="ssr:stedsnr" v="618023" />
	</node>
	<node id="-591759" lat="62.9565388863" lon="6.90243333835">
		<tag k="fixme" v="consider seamark:type=rock or natural=shoal" />
		<tag k="name" v="Lyroddan" />
		<tag k="place" v="islet" />
		<tag k="ssr:stedsnr" v="618016" />
	</node>
	<node id="-591757" lat="62.8950111074" lon="6.86497499527">
		<tag k="name" v="Skjærlingeflua" />
		<tag k="natural" v="shoal" />
		<tag k="place" v="locality" />
		<tag k="ssr:stedsnr" v="596826" />
	</node>
	<node id="-591756" lat="62.9578583303" lon="6.94744444718">
		<tag k="fixme" v="consider seamark:type=rock or natural=shoal" />
		<tag k="name" v="Tvillingan" />
		<tag k="place" v="islet" />
		<tag k="ssr:stedsnr" v="596709" />
	</node>
	<node id="-591755" lat="62.9765666663" lon="7.02790833104">
		<tag k="name" v="Slantran" />
		<tag k="natural" v="shoal" />
		<tag k="place" v="locality" />
		<tag k="ssr:stedsnr" v="596669" />
	</node>
	<node id="-591753" lat="63.0111250035" lon="7.22295833558">
		<tag k="name" v="Kariflua" />
		<tag k="place" v="locality" />
		<tag k="seamark:type" v="rock" />
		<tag k="ssr:stedsnr" v="595870" />
	</node>
	<node id="-591752" lat="63.0913972242" lon="7.08009999672">
		<tag k="name" v="Spunset" />
		<tag k="natural" v="shoal" />
		<tag k="place" v="locality" />
		<tag k="ssr:stedsnr" v="595753" />
	</node>
	<node id="-591751" lat="62.9779888878" lon="6.95978610146">
		<tag k="name" v="Bogaflua" />
		<tag k="natural" v="shoal" />
		<tag k="place" v="locality" />
		<tag k="ssr:stedsnr" v="595727" />
	</node>
	<node id="-591750" lat="63.0057916707" lon="7.12843332749">
		<tag k="bay" v="fjord" />
		<tag k="name" v="Svartoksleia" />
		<tag k="natural" v="bay" />
		<tag k="ssr:stedsnr" v="595584" />
	</node>
	<node id="-591749" lat="62.964291671" lon="6.97198610124">
		<tag k="name" v="Håflæet" />
		<tag k="place" v="locality" />
		<tag k="ssr:stedsnr" v="595562" />
	</node>
	<node id="-591748" lat="62.9573805554" lon="7.00754722629">
		<tag k="name" v="Langflua" />
		<tag k="natural" v="shoal" />
		<tag k="place" v="locality" />
		<tag k="ssr:stedsnr" v="595560" />
	</node>
	<node id="-591747" lat="62.9604333371" lon="7.00248610272">
		<tag k="name" v="Midtfjordskjærtaren" />
		<tag k="natural" v="shoal" />
		<tag k="place" v="locality" />
		<tag k="ssr:stedsnr" v="595556" />
	</node>
	<node id="-591746" lat="62.9882611154" lon="7.03671388321">
		<tag k="name" v="Klasflua" />
		<tag k="natural" v="shoal" />
		<tag k="place" v="locality" />
		<tag k="ssr:stedsnr" v="595108" />
	</node>
	<node id="-591745" lat="62.8853305553" lon="6.79198055138">
		<tag k="fixme" v="consider seamark:type=rock or natural=shoal" />
		<tag k="name" v="Pisseholmskjæret" />
		<tag k="place" v="islet" />
		<tag k="ssr:stedsnr" v="593569" />
	</node>
	<node id="-591743" lat="62.8228388885" lon="7.00768611259">
		<tag k="fixme" v="consider seamark:type=rock or natural=shoal" />
		<tag k="name" v="Vågøyskjæret" />
		<tag k="place" v="islet" />
		<tag k="ssr:stedsnr" v="592883" />
	</node>
	<node id="-591742" lat="62.9537694465" lon="6.98202221634">
		<tag k="fixme" v="consider seamark:type=rock or natural=shoal" />
		<tag k="name" v="Svartskjæret" />
		<tag k="place" v="islet" />
		<tag k="ssr:stedsnr" v="592874" />
	</node>
	<node id="-590485" lat="62.9951833369" lon="7.19608889441">
		<tag k="alt_name" v="Skitungskjæret" />
		<tag k="fixme" v="consider seamark:type=rock or natural=shoal" />
		<tag k="name" v="Skjettongskjæret" />
		<tag k="place" v="islet" />
		<tag k="ssr:stedsnr" v="399785" />
	</node>
	<node id="-591738" lat="62.9818888859" lon="7.09242221563">
		<tag k="fixme" v="consider seamark:type=rock or natural=shoal" />
		<tag k="name" v="Kobbetønna" />
		<tag k="place" v="islet" />
		<tag k="ssr:stedsnr" v="581719" />
	</node>
	<node id="-591725" lat="62.9696833375" lon="7.08621389271">
		<tag k="fixme" v="consider seamark:type=rock or natural=shoal" />
		<tag k="name" v="Troa" />
		<tag k="place" v="islet" />
		<tag k="ssr:stedsnr" v="580958" />
	</node>
	<node id="-591716" lat="62.8672749956" lon="6.99238333368">
		<tag k="name" v="Storvika" />
		<tag k="natural" v="bay" />
		<tag k="ssr:stedsnr" v="580924" />
	</node>
	<node id="-591715" lat="62.8954527798" lon="6.83304444338">
		<tag k="loc_name" v="Skåkja" />
		<tag k="name" v="Skåken" />
		<tag k="place" v="islet" />
		<tag k="ssr:stedsnr" v="580914" />
	</node>
	<node id="-591714" lat="62.9064138893" lon="6.91154443609">
		<tag k="name" v="Vågen" />
		<tag k="natural" v="bay" />
		<tag k="ssr:stedsnr" v="580908" />
	</node>
	<node id="-591705" lat="62.9096527762" lon="6.89634445329">
		<tag k="fixme" v="consider seamark:type=rock or natural=shoal" />
		<tag k="name" v="Kokkeskjæret" />
		<tag k="place" v="islet" />
		<tag k="ssr:stedsnr" v="580779" />
	</node>
	<node id="-591704" lat="62.9267416655" lon="6.93121389702">
		<tag k="fixme" v="consider seamark:type=rock or natural=shoal" />
		<tag k="name" v="Nørde Dragan" />
		<tag k="place" v="islet" />
		<tag k="ssr:stedsnr" v="580775" />
	</node>
	<node id="-591703" lat="62.925358332" lon="6.92639723174">
		<tag k="fixme" v="consider seamark:type=rock or natural=shoal" />
		<tag k="name" v="Søre Dragan" />
		<tag k="place" v="islet" />
		<tag k="ssr:stedsnr" v="580776" />
	</node>
	<node id="-590135" lat="62.7935305542" lon="6.97881110939">
		<tag k="name" v="Hyttebukta" />
		<tag k="natural" v="bay" />
		<tag k="ssr:stedsnr" v="277388" />
	</node>
	<node id="-591687" lat="62.8497333321" lon="7.16443333834">
		<tag k="name" v="Tømmerneset" />
		<tag k="natural" v="cape" />
		<tag k="ssr:stedsnr" v="580501" />
	</node>
	<node id="-591679" lat="62.9655055561" lon="7.02602221624">
		<tag k="fixme" v="consider seamark:type=rock or natural=shoal" />
		<tag k="name" v="Skomakaren" />
		<tag k="place" v="islet" />
		<tag k="ssr:stedsnr" v="580434" />
	</node>
	<node id="-591678" lat="62.958227779" lon="7.02288333672">
		<tag k="name" v="Nørde Hanholmen" />
		<tag k="place" v="islet" />
		<tag k="ssr:stedsnr" v="580428" />
	</node>
	<node id="-591677" lat="62.9555083305" lon="7.01879166574">
		<tag k="name" v="Haugbokkholet" />
		<tag k="natural" v="bay" />
		<tag k="ssr:stedsnr" v="580427" />
	</node>
	<node id="-591676" lat="62.9585611105" lon="7.01714444591">
		<tag k="name" v="Søre Hanholmen" />
		<tag k="place" v="islet" />
		<tag k="ssr:stedsnr" v="580424" />
	</node>
	<node id="-591675" lat="62.8394111148" lon="7.03182222999">
		<tag k="name" v="Tornesbukta" />
		<tag k="natural" v="bay" />
		<tag k="ssr:stedsnr" v="580408" />
	</node>
	<node id="-591674" lat="62.8478583353" lon="7.00332222502">
		<tag k="fixme" v="consider seamark:type=rock or natural=shoal" />
		<tag k="name" v="Stabbeskjeret" />
		<tag k="place" v="islet" />
		<tag k="ssr:stedsnr" v="580398" />
	</node>
	<node id="-591671" lat="62.851122226" lon="6.99744999942">
		<tag k="name" v="Leverfallet" />
		<tag k="place" v="locality" />
		<tag k="ssr:stedsnr" v="580389" />
	</node>
	<node id="-591666" lat="62.8832391142" lon="6.9645253579">
		<tag k="name" v="Jensholmen" />
		<tag k="place" v="islet" />
		<tag k="ssr:stedsnr" v="580354" />
	</node>
	<node id="-591665" lat="62.887697224" lon="6.94530000559">
		<tag k="name" v="Rangsundet" />
		<tag k="natural" v="strait" />
		<tag k="ssr:stedsnr" v="580351" />
	</node>
	<node id="-591664" lat="62.8791555516" lon="6.95246944998">
		<tag k="name" v="Vorpeneset" />
		<tag k="natural" v="cape" />
		<tag k="ssr:stedsnr" v="580349" />
	</node>
	<node id="-591661" lat="62.8979638933" lon="6.94411944329">
		<tag k="name" v="Geitholmen" />
		<tag k="place" v="islet" />
		<tag k="ssr:stedsnr" v="580311" />
	</node>
	<node id="-590130" lat="62.888905556" lon="6.97099444433">
		<tag k="name" v="Kjerringholmen" />
		<tag k="place" v="islet" />
		<tag k="ssr:stedsnr" v="277350" />
	</node>
	<node id="-591657" lat="62.9038555551" lon="6.88150833246">
		<tag k="fixme" v="consider seamark:type=rock or natural=shoal" />
		<tag k="name" v="Frettaskjæret" />
		<tag k="place" v="islet" />
		<tag k="ssr:stedsnr" v="580293" />
	</node>
	<node id="-591656" lat="62.907069446" lon="6.88099443527">
		<tag k="name" v="Midtodden" />
		<tag k="place" v="islet" />
		<tag k="ssr:stedsnr" v="580290" />
	</node>
	<node id="-591655" lat="62.8903138878" lon="6.84130555647">
		<tag k="name" v="Søre Bjørnøybarane" />
		<tag k="place" v="islet" />
		<tag k="ssr:stedsnr" v="580286" />
	</node>
	<node id="-591641" lat="63.0048249983" lon="7.00146666282">
		<tag k="name" v="Breigrunntaren" />
		<tag k="natural" v="shoal" />
		<tag k="place" v="locality" />
		<tag k="ssr:stedsnr" v="558712" />
	</node>
	<node id="-591640" lat="63.0450333323" lon="7.14051110478">
		<tag k="fixme" v="consider seamark:type=rock or natural=shoal" />
		<tag k="name" v="Fuglen" />
		<tag k="place" v="islet" />
		<tag k="ssr:stedsnr" v="558654" />
	</node>
	<node id="-591639" lat="62.947116667" lon="6.99795278641">
		<tag k="name" v="Litlesoløya" />
		<tag k="place" v="islet" />
		<tag k="ssr:stedsnr" v="558138" />
	</node>
	<node id="-591636" lat="62.9699499971" lon="7.05457221648">
		<tag k="alt_name" v="Maletangen" />
		<tag k="name" v="Tangen" />
		<tag k="natural" v="cape" />
		<tag k="ssr:stedsnr" v="558032" />
	</node>
	<node id="-591635" lat="62.9686416681" lon="6.9755083303">
		<tag k="fixme" v="consider seamark:type=rock or natural=shoal" />
		<tag k="name" v="Rundklubbskjæret" />
		<tag k="place" v="islet" />
		<tag k="ssr:stedsnr" v="558024" />
	</node>
	<node id="-591634" lat="62.9632277817" lon="6.89396666998">
		<tag k="alt_name" v="Småflua" />
		<tag k="name" v="Småfluan" />
		<tag k="natural" v="shoal" />
		<tag k="place" v="locality" />
		<tag k="ssr:stedsnr" v="558022" />
	</node>
	<node id="-590125" lat="62.8079083302" lon="7.00314444432">
		<tag k="name" v="Hestholmleira" />
		<tag k="natural" v="strait" />
		<tag k="ssr:stedsnr" v="277258" />
	</node>
	<node id="-591628" lat="62.8248988531" lon="7.13139852349">
		<tag k="name" v="Bøyna" />
		<tag k="place" v="island" />
		<tag k="ssr:stedsnr" v="557749" />
	</node>
	<node id="-591627" lat="62.822066665" lon="7.0443250093">
		<tag k="name" v="Ytre Hoemsvågen" />
		<tag k="natural" v="bay" />
		<tag k="ssr:stedsnr" v="557744" />
	</node>
	<node id="-591616" lat="62.8315472197" lon="7.04662222329">
		<tag k="name" v="Håskjærfluin" />
		<tag k="natural" v="shoal" />
		<tag k="place" v="locality" />
		<tag k="ssr:stedsnr" v="536100" />
	</node>
	<node id="-591615" lat="62.8404516508" lon="7.15382420412">
		<tag k="name" v="Nordre Straumen" />
		<tag k="natural" v="strait" />
		<tag k="ssr:stedsnr" v="536047" />
	</node>
	<node id="-591614" lat="62.8108194414" lon="7.171261105">
		<tag k="name" v="Holsdjupet" />
		<tag k="place" v="locality" />
		<tag k="ssr:stedsnr" v="536026" />
	</node>
	<node id="-591613" lat="62.8848361075" lon="6.84289444491">
		<tag k="name" v="Trollholmflua" />
		<tag k="natural" v="shoal" />
		<tag k="place" v="locality" />
		<tag k="ssr:stedsnr" v="535822" />
	</node>
	<node id="-591610" lat="62.962930554" lon="6.98787777274">
		<tag k="fixme" v="consider seamark:type=rock or natural=shoal" />
		<tag k="name" v="Kobbeflæan" />
		<tag k="place" v="islet" />
		<tag k="ssr:stedsnr" v="535579" />
	</node>
	<node id="-591608" lat="63.0004027823" lon="7.17411945314">
		<tag k="name" v="Indre Langtaren" />
		<tag k="natural" v="shoal" />
		<tag k="place" v="locality" />
		<tag k="ssr:stedsnr" v="534884" />
	</node>
	<node id="-591607" lat="62.9507138922" lon="6.85156944875">
		<tag k="name" v="Søreggskallen" />
		<tag k="natural" v="shoal" />
		<tag k="place" v="locality" />
		<tag k="ssr:stedsnr" v="534543" />
	</node>
	<node id="-591606" lat="62.9870083355" lon="6.98971667056">
		<tag k="name" v="Moholmklakken" />
		<tag k="natural" v="shoal" />
		<tag k="place" v="locality" />
		<tag k="ssr:stedsnr" v="534135" />
	</node>
	<node id="-591605" lat="62.9978055561" lon="7.04973610759">
		<tag k="name" v="Finnen" />
		<tag k="natural" v="shoal" />
		<tag k="place" v="locality" />
		<tag k="ssr:stedsnr" v="534132" />
	</node>
	<node id="-591601" lat="62.8854166706" lon="6.87651110811">
		<tag k="fixme" v="consider seamark:type=rock or natural=shoal" />
		<tag k="name" v="Ternskjærtaren" />
		<tag k="place" v="islet" />
		<tag k="ssr:stedsnr" v="531841" />
	</node>
	<node id="-591595" lat="62.9366666678" lon="6.96673333916">
		<tag k="name" v="Vølan" />
		<tag k="natural" v="strait" />
		<tag k="ssr:stedsnr" v="520947" />
	</node>
	<node id="-591594" lat="62.8256805539" lon="7.01767778614">
		<tag k="name" v="Øyastøin" />
		<tag k="natural" v="bay" />
		<tag k="ssr:stedsnr" v="520937" />
	</node>
	<node id="-591573" lat="62.9912472216" lon="7.15214999443">
		<tag k="name" v="Breivikbukta" />
		<tag k="natural" v="bay" />
		<tag k="ssr:stedsnr" v="520727" />
	</node>
	<node id="-590456" lat="62.8484388918" lon="7.00643610806">
		<tag k="fixme" v="consider seamark:type=rock or natural=shoal" />
		<tag k="name" v="Kuskjeret" />
		<tag k="place" v="islet" />
		<tag k="ssr:stedsnr" v="399477" />
	</node>
	<node id="-591558" lat="62.8429472266" lon="7.15635000746">
		<tag k="name" v="Saltskjærbukta" />
		<tag k="natural" v="bay" />
		<tag k="ssr:stedsnr" v="520566" />
	</node>
	<node id="-591556" lat="62.9655861149" lon="7.03233333681">
		<tag k="name" v="Trongkeilå" />
		<tag k="natural" v="bay" />
		<tag k="ssr:stedsnr" v="520475" />
	</node>
	<node id="-591555" lat="62.948711112" lon="6.98832222272">
		<tag k="name" v="Lyngholmen" />
		<tag k="place" v="islet" />
		<tag k="ssr:stedsnr" v="520465" />
	</node>
	<node id="-591554" lat="62.8377500018" lon="7.03163055432">
		<tag k="alt_name" v="Tornesholmen" />
		<tag k="name" v="Storholmen" />
		<tag k="place" v="islet" />
		<tag k="ssr:stedsnr" v="520458" />
	</node>
	<node id="-591547" lat="62.8896694455" lon="6.93889443631">
		<tag k="name" v="Bekkerholmen" />
		<tag k="place" v="islet" />
		<tag k="ssr:stedsnr" v="520375" />
	</node>
	<node id="-591545" lat="62.8860499992" lon="6.84837222712">
		<tag k="fixme" v="consider seamark:type=rock or natural=shoal" />
		<tag k="name" v="Klakkskjæret" />
		<tag k="place" v="islet" />
		<tag k="ssr:stedsnr" v="520360" />
	</node>
	<node id="-591544" lat="62.8885555548" lon="6.81439166818">
		<tag k="name" v="Hessholmen" />
		<tag k="place" v="islet" />
		<tag k="ssr:stedsnr" v="520342" />
	</node>
	<node id="-591523" lat="62.9401277808" lon="6.89694722332">
		<tag k="name" v="Klaveleia" />
		<tag k="natural" v="strait" />
		<tag k="ssr:stedsnr" v="498126" />
	</node>
	<node id="-591521" lat="62.9080027753" lon="6.8196305608">
		<tag k="bay" v="fjord" />
		<tag k="name" v="Budadjupet" />
		<tag k="natural" v="bay" />
		<tag k="ssr:stedsnr" v="498091" />
	</node>
	<node id="-591518" lat="62.8070916628" lon="7.16423332514">
		<tag k="name" v="Sandsbukta" />
		<tag k="natural" v="bay" />
		<tag k="ssr:stedsnr" v="497792" />
	</node>
	<node id="-591515" lat="63.0086166676" lon="7.19460277134">
		<tag k="fixme" v="consider seamark:type=rock or natural=shoal" />
		<tag k="name" v="Kråka" />
		<tag k="place" v="islet" />
		<tag k="ssr:stedsnr" v="497663" />
	</node>
	<node id="-591514" lat="63.0140222261" lon="7.07998888217">
		<tag k="name" v="Hallvardsklakken" />
		<tag k="natural" v="shoal" />
		<tag k="place" v="locality" />
		<tag k="ssr:stedsnr" v="497661" />
	</node>
	<node id="-591513" lat="63.0117472211" lon="6.94187777025">
		<tag k="name" v="Seiklakkskallan" />
		<tag k="natural" v="shoal" />
		<tag k="place" v="locality" />
		<tag k="ssr:stedsnr" v="497657" />
	</node>
	<node id="-591511" lat="63.0330388894" lon="7.16814166066">
		<tag k="name" v="Midtflua" />
		<tag k="natural" v="shoal" />
		<tag k="place" v="locality" />
		<tag k="ssr:stedsnr" v="497611" />
	</node>
	<node id="-591510" lat="63.0230694475" lon="6.96619999103">
		<tag k="name" v="Midtklakkan" />
		<tag k="natural" v="shoal" />
		<tag k="place" v="locality" />
		<tag k="ssr:stedsnr" v="497608" />
	</node>
	<node id="-591509" lat="63.0217916656" lon="6.9048638941">
		<tag k="name" v="Kristiklakken" />
		<tag k="natural" v="shoal" />
		<tag k="place" v="locality" />
		<tag k="ssr:stedsnr" v="497601" />
	</node>
	<node id="-591504" lat="62.9470916629" lon="7.00560556464">
		<tag k="name" v="Soløya" />
		<tag k="natural" v="cape" />
		<tag k="ssr:stedsnr" v="497119" />
	</node>
	<node id="-591503" lat="62.9778611068" lon="6.97110278469">
		<tag k="fixme" v="consider seamark:type=rock or natural=shoal" />
		<tag k="name" v="Ertneskjæret" />
		<tag k="place" v="islet" />
		<tag k="ssr:stedsnr" v="497043" />
	</node>
	<node id="-591502" lat="62.9720499965" lon="6.90876111168">
		<tag k="name" v="Skorflua" />
		<tag k="natural" v="shoal" />
		<tag k="place" v="locality" />
		<tag k="ssr:stedsnr" v="497034" />
	</node>
	<node id="-591500" lat="62.9685638847" lon="6.98013055947">
		<tag k="fixme" v="consider seamark:type=rock or natural=shoal" />
		<tag k="name" v="Langkobbskjæret" />
		<tag k="place" v="islet" />
		<tag k="ssr:stedsnr" v="497028" />
	</node>
	<node id="-591499" lat="62.9694833348" lon="7.04420555149">
		<tag k="name" v="Malbukta" />
		<tag k="natural" v="bay" />
		<tag k="ssr:stedsnr" v="497027" />
	</node>
	<node id="-591490" lat="62.8923833308" lon="6.78367777175">
		<tag k="fixme" v="consider seamark:type=rock or natural=shoal" />
		<tag k="name" v="Bollen" />
		<tag k="place" v="islet" />
		<tag k="ssr:stedsnr" v="496196" />
	</node>
	<node id="-591489" lat="62.8901514857" lon="6.82210332756">
		<tag k="name" v="Hammerøya" />
		<tag k="place" v="islet" />
		<tag k="ssr:stedsnr" v="496193" />
	</node>
	<node id="-591481" lat="62.9728749993" lon="6.95586111876">
		<tag k="name" v="Ertneskjærfalla" />
		<tag k="place" v="locality" />
		<tag k="ssr:stedsnr" v="471700" />
	</node>
	<node id="-591480" lat="63.0069527772" lon="6.70615833224">
		<tag k="name" v="Grunnstøin" />
		<tag k="natural" v="shoal" />
		<tag k="place" v="locality" />
		<tag k="ssr:stedsnr" v="471696" />
	</node>
	<node id="-591471" lat="63.0095722205" lon="7.20191666747">
		<tag k="fixme" v="consider seamark:type=rock or natural=shoal" />
		<tag k="name" v="Breisundskjæra" />
		<tag k="place" v="islet" />
		<tag k="ssr:stedsnr" v="460822" />
	</node>
	<node id="-591470" lat="63.0053972254" lon="7.21001665972">
		<tag k="name" v="Storholmen" />
		<tag k="place" v="islet" />
		<tag k="ssr:stedsnr" v="460823" />
	</node>
	<node id="-591448" lat="62.8836388852" lon="6.79891388206">
		<tag k="fixme" v="consider seamark:type=rock or natural=shoal" />
		<tag k="name" v="Grønskjeret" />
		<tag k="place" v="islet" />
		<tag k="ssr:stedsnr" v="460110" />
	</node>
	<node id="-591447" lat="62.8847499996" lon="6.79424167008">
		<tag k="name" v="Pessholmen" />
		<tag k="place" v="islet" />
		<tag k="ssr:stedsnr" v="460099" />
	</node>
	<node id="-591438" lat="62.9901250016" lon="7.12111665951">
		<tag k="name" v="Kråka" />
		<tag k="place" v="islet" />
		<tag k="ssr:stedsnr" v="459999" />
	</node>
	<node id="-591433" lat="62.9337527777" lon="6.95442778304">
		<tag k="name" v="Vardvika" />
		<tag k="natural" v="bay" />
		<tag k="ssr:stedsnr" v="459924" />
	</node>
	<node id="-591429" lat="62.8228416664" lon="7.10088611789">
		<tag k="name" v="Hestvika" />
		<tag k="natural" v="bay" />
		<tag k="ssr:stedsnr" v="459876" />
	</node>
	<node id="-591425" lat="62.8216063815" lon="7.08117685731">
		<tag k="name" v="Kråkneset" />
		<tag k="natural" v="cape" />
		<tag k="ssr:stedsnr" v="459581" />
	</node>
	<node id="-591424" lat="62.8316305593" lon="7.09153055704">
		<tag k="name" v="Ålvorsundet" />
		<tag k="natural" v="strait" />
		<tag k="ssr:stedsnr" v="459557" />
	</node>
	<node id="-591423" lat="62.836944445" lon="7.09508334053">
		<tag k="name" v="Ålvorsnagen" />
		<tag k="natural" v="cape" />
		<tag k="ssr:stedsnr" v="459554" />
	</node>
	<node id="-591422" lat="62.828258333" lon="7.07175000546">
		<tag k="name" v="Mortnesbukta" />
		<tag k="natural" v="bay" />
		<tag k="ssr:stedsnr" v="459550" />
	</node>
	<node id="-591420" lat="62.8405816518" lon="7.15358630369">
		<tag k="name" v="Straumane" />
		<tag k="natural" v="strait" />
		<tag k="ssr:stedsnr" v="459529" />
	</node>
	<node id="-591418" lat="62.8225666639" lon="7.07988055551">
		<tag k="name" v="Mjølkhaugleira" />
		<tag k="natural" v="bay" />
		<tag k="ssr:stedsnr" v="459520" />
	</node>
	<node id="-591415" lat="62.9300111096" lon="6.96136110355">
		<tag k="name" v="Vardholmen" />
		<tag k="place" v="islet" />
		<tag k="ssr:stedsnr" v="459475" />
	</node>
	<node id="-591414" lat="62.9290472209" lon="6.95066389201">
		<tag k="fixme" v="consider seamark:type=rock or natural=shoal" />
		<tag k="name" v="Gildreskjæra" />
		<tag k="place" v="islet" />
		<tag k="ssr:stedsnr" v="459470" />
	</node>
	<node id="-591413" lat="62.9434416666" lon="6.98352778254">
		<tag k="fixme" v="consider seamark:type=rock or natural=shoal" />
		<tag k="name" v="Vidfarholmskjæra" />
		<tag k="place" v="islet" />
		<tag k="ssr:stedsnr" v="459459" />
	</node>
	<node id="-591412" lat="62.9688472242" lon="7.01333612039">
		<tag k="alt_name" v="Aust Stoplan" />
		<tag k="name" v="Nørdstoplen" />
		<tag k="place" v="islet" />
		<tag k="ssr:stedsnr" v="459431" />
	</node>
	<node id="-591408" lat="62.8800805546" lon="6.9647916587">
		<tag k="name" v="Knutholmsfleå" />
		<tag k="place" v="islet" />
		<tag k="ssr:stedsnr" v="459371" />
	</node>
	<node id="-590426" lat="62.8737222193" lon="6.97096111647">
		<tag k="name" v="Tjeldnesodden" />
		<tag k="natural" v="cape" />
		<tag k="ssr:stedsnr" v="398492" />
	</node>
	<node id="-591386" lat="63.0135388886" lon="7.05200555635">
		<tag k="name" v="Farstadfluin" />
		<tag k="natural" v="shoal" />
		<tag k="place" v="locality" />
		<tag k="ssr:stedsnr" v="437680" />
	</node>
	<node id="-591385" lat="63.0068138925" lon="7.16048333201">
		<tag k="name" v="Langtaren" />
		<tag k="natural" v="shoal" />
		<tag k="place" v="locality" />
		<tag k="ssr:stedsnr" v="437675" />
	</node>
	<node id="-591382" lat="62.945044449" lon="6.9810027861">
		<tag k="fixme" v="consider seamark:type=rock or natural=shoal" />
		<tag k="name" v="Krøtterøya" />
		<tag k="place" v="islet" />
		<tag k="ssr:stedsnr" v="437146" />
	</node>
	<node id="-591376" lat="62.9234138887" lon="6.9363999972">
		<tag k="name" v="Ersholmen" />
		<tag k="place" v="islet" />
		<tag k="ssr:stedsnr" v="437121" />
	</node>
	<node id="-591373" lat="62.9833566747" lon="7.12153772002">
		<tag k="name" v="Storholmen" />
		<tag k="place" v="islet" />
		<tag k="ssr:stedsnr" v="437061" />
	</node>
	<node id="-591371" lat="62.9721444403" lon="7.03808888213">
		<tag k="name" v="Korsholman" />
		<tag k="place" v="islet" />
		<tag k="ssr:stedsnr" v="437054" />
	</node>
	<node id="-591363" lat="62.812438887" lon="6.99992777544">
		<tag k="name" v="Langøya" />
		<tag k="place" v="islet" />
		<tag k="ssr:stedsnr" v="436773" />
	</node>
	<node id="-591362" lat="62.809252778" lon="7.00332500544">
		<tag k="name" v="Hestholmen" />
		<tag k="place" v="islet" />
		<tag k="ssr:stedsnr" v="436772" />
	</node>
	<node id="-591360" lat="62.8191668631" lon="7.08576394779">
		<tag k="name" v="Svansholmen" />
		<tag k="place" v="islet" />
		<tag k="ssr:stedsnr" v="436755" />
	</node>
	<node id="-591359" lat="62.8214841456" lon="7.01274905896">
		<tag k="name" v="Vågøya" />
		<tag k="place" v="island" />
		<tag k="ssr:stedsnr" v="436753" />
	</node>
	<node id="-591349" lat="62.8922260229" lon="6.94878170489">
		<tag k="name" v="Ytre Harøya" />
		<tag k="place" v="island" />
		<tag k="ssr:stedsnr" v="436167" />
	</node>
	<node id="-591348" lat="62.8887527742" lon="6.92992500201">
		<tag k="fixme" v="consider seamark:type=rock or natural=shoal" />
		<tag k="name" v="Bolungskjæra" />
		<tag k="place" v="islet" />
		<tag k="ssr:stedsnr" v="436163" />
	</node>
	<node id="-591347" lat="62.8830861076" lon="6.87567500905">
		<tag k="fixme" v="consider seamark:type=rock or natural=shoal" />
		<tag k="name" v="Ternskjæret" />
		<tag k="place" v="islet" />
		<tag k="ssr:stedsnr" v="436155" />
	</node>
	<node id="-591346" lat="62.8802333366" lon="6.85143333798">
		<tag k="name" v="Trollholman" />
		<tag k="place" v="islet" />
		<tag k="ssr:stedsnr" v="436153" />
	</node>
	<node id="-591343" lat="62.8768055523" lon="6.88014165876">
		<tag k="fixme" v="consider seamark:type=rock or natural=shoal" />
		<tag k="name" v="Kleppen" />
		<tag k="place" v="islet" />
		<tag k="ssr:stedsnr" v="436132" />
	</node>
	<node id="-591337" lat="62.8282638929" lon="7.14863889028">
		<tag k="name" v="Kobbeflua" />
		<tag k="natural" v="shoal" />
		<tag k="place" v="locality" />
		<tag k="ssr:stedsnr" v="415013" />
	</node>
	<node id="-591336" lat="62.8202222256" lon="7.10237223044">
		<tag k="name" v="Aureosen" />
		<tag k="natural" v="bay" />
		<tag k="ssr:stedsnr" v="415011" />
	</node>
	<node id="-591335" lat="62.9759583309" lon="7.07428054668">
		<tag k="name" v="Ambjørn" />
		<tag k="natural" v="shoal" />
		<tag k="place" v="locality" />
		<tag k="ssr:stedsnr" v="414679" />
	</node>
	<node id="-591334" lat="62.9759333296" lon="7.01918888693">
		<tag k="name" v="Sjøskorpa" />
		<tag k="natural" v="shoal" />
		<tag k="place" v="locality" />
		<tag k="ssr:stedsnr" v="414598" />
	</node>
	<node id="-591333" lat="62.9554555585" lon="6.98884721458">
		<tag k="name" v="Svartskjærbåen" />
		<tag k="natural" v="shoal" />
		<tag k="place" v="locality" />
		<tag k="ssr:stedsnr" v="414584" />
	</node>
	<node id="-591332" lat="62.9673694429" lon="6.99260277069">
		<tag k="fixme" v="consider seamark:type=rock or natural=shoal" />
		<tag k="name" v="Senholmbjørnen" />
		<tag k="place" v="islet" />
		<tag k="ssr:stedsnr" v="414585" />
	</node>
	<node id="-590147" lat="62.8265638891" lon="7.01857500055">
		<tag k="name" v="Grisberget" />
		<tag k="natural" v="cape" />
		<tag k="ssr:stedsnr" v="277442" />
	</node>
	<node id="-591322" lat="63.0071250003" lon="7.08622499628">
		<tag k="name" v="Kvitingen" />
		<tag k="natural" v="shoal" />
		<tag k="place" v="locality" />
		<tag k="ssr:stedsnr" v="255705" />
	</node>
	<node id="-591321" lat="63.1115694413" lon="6.82632778564">
		<tag k="name" v="Ytste Brunarøra" />
		<tag k="natural" v="shoal" />
		<tag k="place" v="locality" />
		<tag k="ssr:stedsnr" v="255644" />
	</node>
	<node id="-591320" lat="63.1036166652" lon="7.02520555578">
		<tag k="alt_name" v="Brunarøra, inste" />
		<tag k="name" v="Inste Brunarøra" />
		<tag k="natural" v="shoal" />
		<tag k="place" v="locality" />
		<tag k="ssr:stedsnr" v="255638" />
	</node>
	<node id="-591319" lat="63.0205166637" lon="6.97308610808">
		<tag k="name" v="Austklakken" />
		<tag k="natural" v="shoal" />
		<tag k="place" v="locality" />
		<tag k="ssr:stedsnr" v="255635" />
	</node>
	<node id="-591317" lat="62.9425888851" lon="6.98016667515">
		<tag k="name" v="Vidfarholmen" />
		<tag k="place" v="islet" />
		<tag k="ssr:stedsnr" v="255132" />
	</node>
	<node id="-591316" lat="62.9447777735" lon="6.895825007">
		<tag k="fixme" v="consider seamark:type=rock or natural=shoal" />
		<tag k="name" v="Hegerskjæra" />
		<tag k="place" v="islet" />
		<tag k="ssr:stedsnr" v="255129" />
	</node>
	<node id="-591315" lat="62.9400722196" lon="6.9861944382">
		<tag k="name" v="Geitneset" />
		<tag k="natural" v="cape" />
		<tag k="ssr:stedsnr" v="255127" />
	</node>
	<node id="-591311" lat="62.9067777823" lon="6.88073333972">
		<tag k="name" v="Oddan" />
		<tag k="place" v="islet" />
		<tag k="ssr:stedsnr" v="255097" />
	</node>
	<node id="-591309" lat="62.965863891" lon="6.9992944416">
		<tag k="fixme" v="consider seamark:type=rock or natural=shoal" />
		<tag k="name" v="Ormtunga" />
		<tag k="place" v="islet" />
		<tag k="ssr:stedsnr" v="255036" />
	</node>
	<node id="-591308" lat="62.9612666665" lon="7.00175832912">
		<tag k="fixme" v="consider seamark:type=rock or natural=shoal" />
		<tag k="name" v="Midtfjordsskjæret" />
		<tag k="place" v="islet" />
		<tag k="ssr:stedsnr" v="255035" />
	</node>
	<node id="-591306" lat="62.9512333304" lon="6.99074999071">
		<tag k="name" v="Bekkerholmen" />
		<tag k="place" v="islet" />
		<tag k="ssr:stedsnr" v="255019" />
	</node>
	<node id="-591297" lat="62.8163694421" lon="7.08289722312">
		<tag k="name" v="Indre Hoemsvågen" />
		<tag k="natural" v="bay" />
		<tag k="ssr:stedsnr" v="254741" />
	</node>
	<node id="-591296" lat="62.8309555531" lon="7.04169165778">
		<tag k="fixme" v="consider seamark:type=rock or natural=shoal" />
		<tag k="name" v="Håskjæra" />
		<tag k="place" v="islet" />
		<tag k="ssr:stedsnr" v="254731" />
	</node>
	<node id="-591294" lat="62.834786114" lon="7.12937500245">
		<tag k="name" v="Lamholmen" />
		<tag k="place" v="islet" />
		<tag k="ssr:stedsnr" v="254723" />
	</node>
	<node id="-591281" lat="62.840327782" lon="7.11590277052">
		<tag k="name" v="Nordøya" />
		<tag k="place" v="islet" />
		<tag k="ssr:stedsnr" v="254180" />
	</node>
	<node id="-591278" lat="62.8915111111" lon="6.93443332742">
		<tag k="name" v="Ektholmen" />
		<tag k="place" v="islet" />
		<tag k="ssr:stedsnr" v="254161" />
	</node>
	<node id="-591271" lat="62.9921305528" lon="7.10123055086">
		<tag k="name" v="Litlflesa" />
		<tag k="place" v="islet" />
		<tag k="ssr:stedsnr" v="254046" />
	</node>
	<node id="-591270" lat="62.9865583375" lon="7.14458611096">
		<tag k="name" v="Breivika" />
		<tag k="natural" v="bay" />
		<tag k="ssr:stedsnr" v="254039" />
	</node>
	<node id="-591267" lat="62.9799555559" lon="7.04757222441">
		<tag k="fixme" v="consider seamark:type=rock or natural=shoal" />
		<tag k="name" v="Sandsen" />
		<tag k="place" v="islet" />
		<tag k="ssr:stedsnr" v="232652" />
	</node>
	<node id="-591265" lat="63.0303583365" lon="7.21107221883">
		<tag k="name" v="Eggfluan" />
		<tag k="natural" v="shoal" />
		<tag k="place" v="locality" />
		<tag k="ssr:stedsnr" v="231920" />
	</node>
	<node id="-591264" lat="63.0058638876" lon="7.17085555934">
		<tag k="name" v="Ytre Langtaren" />
		<tag k="natural" v="shoal" />
		<tag k="place" v="locality" />
		<tag k="ssr:stedsnr" v="231892" />
	</node>
	<node id="-591263" lat="62.9532916709" lon="7.01371945157">
		<tag k="name" v="Strandflua" />
		<tag k="natural" v="shoal" />
		<tag k="place" v="locality" />
		<tag k="ssr:stedsnr" v="231643" />
	</node>
	<node id="-591261" lat="62.9478611108" lon="6.93355554899">
		<tag k="name" v="Midtfjordsbåen" />
		<tag k="natural" v="shoal" />
		<tag k="place" v="locality" />
		<tag k="ssr:stedsnr" v="231628" />
	</node>
	<node id="-591260" lat="62.9812000025" lon="7.01127222136">
		<tag k="name" v="Kråksundet" />
		<tag k="natural" v="strait" />
		<tag k="ssr:stedsnr" v="231148" />
	</node>
	<node id="-591259" lat="62.8723083316" lon="6.98345000269">
		<tag k="name" v="Stavikflua" />
		<tag k="natural" v="shoal" />
		<tag k="place" v="locality" />
		<tag k="ssr:stedsnr" v="231136" />
	</node>
	<node id="-591257" lat="62.8187444438" lon="7.00005278466">
		<tag k="fixme" v="consider seamark:type=rock or natural=shoal" />
		<tag k="name" v="Notskjæret" />
		<tag k="place" v="islet" />
		<tag k="ssr:stedsnr" v="229771" />
	</node>
	<node id="-591256" lat="62.9562999993" lon="6.69119721606">
		<tag k="name" v="Landmeden" />
		<tag k="place" v="locality" />
		<tag k="ssr:stedsnr" v="229742" />
	</node>
	<node id="-591253" lat="62.9657388879" lon="7.0822638842">
		<tag k="fixme" v="consider seamark:type=rock or natural=shoal" />
		<tag k="name" v="Dyna" />
		<tag k="place" v="islet" />
		<tag k="ssr:stedsnr" v="217974" />
	</node>
	<node id="-591251" lat="62.9841111117" lon="7.1403777862">
		<tag k="name" v="Kanvika" />
		<tag k="natural" v="bay" />
		<tag k="ssr:stedsnr" v="217969" />
	</node>
	<node id="-591247" lat="62.8963944407" lon="6.82811667147">
		<tag k="name" v="Knubben" />
		<tag k="place" v="islet" />
		<tag k="ssr:stedsnr" v="217923" />
	</node>
	<node id="-591246" lat="62.8350249974" lon="7.0421083312">
		<tag k="fixme" v="consider seamark:type=rock or natural=shoal" />
		<tag k="name" v="Nesaflua" />
		<tag k="place" v="islet" />
		<tag k="ssr:stedsnr" v="217921" />
	</node>
	<node id="-591245" lat="62.839077781" lon="7.02306388002">
		<tag k="name" v="Kjelen" />
		<tag k="natural" v="bay" />
		<tag k="ssr:stedsnr" v="217919" />
	</node>
	<node id="-591243" lat="62.8905138866" lon="6.9744583339">
		<tag k="name" v="Bramstøa" />
		<tag k="natural" v="bay" />
		<tag k="ssr:stedsnr" v="217909" />
	</node>
	<node id="-591235" lat="62.8031083316" lon="6.99405277998">
		<tag k="name" v="Storvika" />
		<tag k="natural" v="bay" />
		<tag k="ssr:stedsnr" v="217814" />
	</node>
	<node id="-591220" lat="62.8191361115" lon="7.13729722322">
		<tag k="name" v="Einessundet" />
		<tag k="natural" v="strait" />
		<tag k="ssr:stedsnr" v="217601" />
	</node>
	<node id="-591218" lat="62.8165111131" lon="7.1216805577">
		<tag k="name" v="Segelneset" />
		<tag k="natural" v="cape" />
		<tag k="ssr:stedsnr" v="217591" />
	</node>
	<node id="-591215" lat="62.8393861077" lon="7.08597223066">
		<tag k="fixme" v="consider seamark:type=rock or natural=shoal" />
		<tag k="name" v="Løsetflua" />
		<tag k="place" v="islet" />
		<tag k="ssr:stedsnr" v="217585" />
	</node>
	<node id="-591212" lat="62.8401611082" lon="7.14695832959">
		<tag k="name" v="Straumane" />
		<tag k="natural" v="strait" />
		<tag k="ssr:stedsnr" v="217568" />
	</node>
	<node id="-591211" lat="62.8363138931" lon="7.15054444388">
		<tag k="fixme" v="consider seamark:type=rock or natural=shoal" />
		<tag k="name" v="Kongsholmen" />
		<tag k="place" v="islet" />
		<tag k="ssr:stedsnr" v="217563" />
	</node>
	<node id="-591206" lat="62.9389472248" lon="6.97160278513">
		<tag k="name" v="Nørde Purkøya" />
		<tag k="place" v="islet" />
		<tag k="ssr:stedsnr" v="217500" />
	</node>
	<node id="-591204" lat="62.9494388888" lon="7.01628611915">
		<tag k="name" v="Brennholmen" />
		<tag k="place" v="islet" />
		<tag k="ssr:stedsnr" v="217492" />
	</node>
	<node id="-591203" lat="62.9680277757" lon="7.00636665856">
		<tag k="alt_name" v="Stoplefluene" />
		<tag k="fixme" v="consider seamark:type=rock or natural=shoal" />
		<tag k="name" v="Stoplefluin" />
		<tag k="place" v="islet" />
		<tag k="ssr:stedsnr" v="217475" />
	</node>
	<node id="-591201" lat="62.8254333327" lon="7.05268333615">
		<tag k="name" v="Katthammaren" />
		<tag k="natural" v="cape" />
		<tag k="ssr:stedsnr" v="217461" />
	</node>
	<node id="-591192" lat="62.796716667" lon="6.98144444671">
		<tag k="name" v="Jendemsvorpa" />
		<tag k="place" v="locality" />
		<tag k="ssr:stedsnr" v="217411" />
	</node>
	<node id="-591187" lat="62.9083111132" lon="6.89302777108">
		<tag k="name" v="Storsundet" />
		<tag k="natural" v="strait" />
		<tag k="ssr:stedsnr" v="217363" />
	</node>
	<node id="-591165" lat="63.0040611084" lon="6.86676666268">
		<tag k="name" v="Drågaklakken" />
		<tag k="natural" v="shoal" />
		<tag k="place" v="locality" />
		<tag k="ssr:stedsnr" v="194658" />
	</node>
	<node id="-591164" lat="63.0152361109" lon="7.18502778556">
		<tag k="fixme" v="consider seamark:type=rock or natural=shoal" />
		<tag k="name" v="Ekneskjæret" />
		<tag k="place" v="islet" />
		<tag k="ssr:stedsnr" v="194657" />
	</node>
	<node id="-591163" lat="63.0185611108" lon="6.91983610212">
		<tag k="name" v="Gotråshammaren" />
		<tag k="natural" v="shoal" />
		<tag k="place" v="locality" />
		<tag k="ssr:stedsnr" v="194581" />
	</node>
	<node id="-591162" lat="63.0371166698" lon="6.9972777705">
		<tag k="name" v="Tynna" />
		<tag k="natural" v="shoal" />
		<tag k="place" v="locality" />
		<tag k="ssr:stedsnr" v="194579" />
	</node>
	<node id="-591154" lat="62.9233055556" lon="6.91670832428">
		<tag k="name" v="Kroksholmen" />
		<tag k="place" v="islet" />
		<tag k="ssr:stedsnr" v="194092" />
	</node>
	<node id="-591153" lat="62.9859166669" lon="7.08714444375">
		<tag k="name" v="Storflesa" />
		<tag k="place" v="islet" />
		<tag k="ssr:stedsnr" v="194044" />
	</node>
	<node id="-591152" lat="62.9776999976" lon="6.98307222756">
		<tag k="fixme" v="consider seamark:type=rock or natural=shoal" />
		<tag k="name" v="Storeålvora" />
		<tag k="place" v="islet" />
		<tag k="ssr:stedsnr" v="194042" />
	</node>
	<node id="-591143" lat="62.81688333" lon="7.01269721361">
		<tag k="name" v="Langøyvågen" />
		<tag k="natural" v="bay" />
		<tag k="ssr:stedsnr" v="193748" />
	</node>
	<node id="-591142" lat="62.8334821026" lon="7.04740661361">
		<tag k="bay" v="fjord" />
		<tag k="name" v="Frænfjorden" />
		<tag k="natural" v="bay" />
		<tag k="ssr:stedsnr" v="193740" />
	</node>
	<node id="-591137" lat="62.8409083334" lon="7.13533055295">
		<tag k="name" v="Forøya" />
		<tag k="place" v="island" />
		<tag k="ssr:stedsnr" v="193199" />
	</node>
	<node id="-591136" lat="62.8896572526" lon="6.8372250156">
		<tag k="name" v="Bjørnøya" />
		<tag k="place" v="islet" />
		<tag k="ssr:stedsnr" v="193182" />
	</node>
	<node id="-591127" lat="62.8737916687" lon="6.82313334285">
		<tag k="bay" v="fjord" />
		<tag k="name" v="Indreleia" />
		<tag k="natural" v="bay" />
		<tag k="ssr:stedsnr" v="171837" />
	</node>
	<node id="-591126" lat="62.8827444469" lon="6.81320556284">
		<tag k="name" v="Skolten" />
		<tag k="natural" v="shoal" />
		<tag k="place" v="locality" />
		<tag k="ssr:stedsnr" v="171836" />
	</node>
	<node id="-591125" lat="62.9736305576" lon="6.92080278158">
		<tag k="name" v="Skortaren" />
		<tag k="natural" v="shoal" />
		<tag k="place" v="locality" />
		<tag k="ssr:stedsnr" v="171762" />
	</node>
	<node id="-591124" lat="62.9618222204" lon="6.98016388663">
		<tag k="name" v="Langtaren" />
		<tag k="natural" v="shoal" />
		<tag k="place" v="locality" />
		<tag k="ssr:stedsnr" v="171605" />
	</node>
	<node id="-591123" lat="63.0807166651" lon="6.75535278438">
		<tag k="name" v="Ruren" />
		<tag k="natural" v="shoal" />
		<tag k="place" v="locality" />
		<tag k="ssr:stedsnr" v="171351" />
	</node>
	<node id="-591122" lat="62.8814805514" lon="6.79951111779">
		<tag k="name" v="Korsasundet" />
		<tag k="natural" v="strait" />
		<tag k="ssr:stedsnr" v="171031" />
	</node>
	<node id="-591120" lat="63.014350002" lon="7.27831944499">
		<tag k="name" v="Fletten" />
		<tag k="natural" v="shoal" />
		<tag k="place" v="locality" />
		<tag k="ssr:stedsnr" v="170927" />
	</node>
	<node id="-591119" lat="62.9484583319" lon="6.88668887976">
		<tag k="name" v="Langbaken" />
		<tag k="natural" v="shoal" />
		<tag k="place" v="locality" />
		<tag k="ssr:stedsnr" v="170538" />
	</node>
	<node id="-591118" lat="63.0158388915" lon="6.92937778653">
		<tag k="name" v="Monkroshammaren" />
		<tag k="natural" v="shoal" />
		<tag k="place" v="locality" />
		<tag k="ssr:stedsnr" v="170156" />
	</node>
	<node id="-591117" lat="63.0136888874" lon="6.93644721427">
		<tag k="name" v="Ytre Seiklakkskallan" />
		<tag k="natural" v="shoal" />
		<tag k="place" v="locality" />
		<tag k="ssr:stedsnr" v="170143" />
	</node>
	<node id="-591116" lat="62.9859694487" lon="7.06375276959">
		<tag k="name" v="Ufstaren" />
		<tag k="natural" v="shoal" />
		<tag k="place" v="locality" />
		<tag k="ssr:stedsnr" v="170137" />
	</node>
	<node id="-591115" lat="62.8785472208" lon="6.94004444771">
		<tag k="name" v="Harøyodden" />
		<tag k="natural" v="cape" />
		<tag k="ssr:stedsnr" v="170130" />
	</node>
	<node id="-591112" lat="62.9854500034" lon="7.10270277638">
		<tag k="name" v="Rotvika" />
		<tag k="natural" v="bay" />
		<tag k="ssr:stedsnr" v="156999" />
	</node>
	<node id="-591110" lat="62.9740500015" lon="7.07712778603">
		<tag k="fixme" v="consider seamark:type=rock or natural=shoal" />
		<tag k="name" v="Gylta" />
		<tag k="place" v="islet" />
		<tag k="ssr:stedsnr" v="156993" />
	</node>
	<node id="-591106" lat="62.9716638931" lon="7.04402222768">
		<tag k="name" v="Hattan" />
		<tag k="place" v="islet" />
		<tag k="ssr:stedsnr" v="156925" />
	</node>
	<node id="-591105" lat="62.9663944457" lon="7.03381666868">
		<tag k="name" v="Valen" />
		<tag k="natural" v="bay" />
		<tag k="ssr:stedsnr" v="156923" />
	</node>
	<node id="-591103" lat="62.9069166641" lon="6.89888333065">
		<tag k="name" v="Tjønnøya" />
		<tag k="place" v="islet" />
		<tag k="ssr:stedsnr" v="156910" />
	</node>
	<node id="-591093" lat="63.0002138919" lon="7.20142499194">
		<tag k="name" v="Hestholmen" />
		<tag k="place" v="islet" />
		<tag k="ssr:stedsnr" v="156789" />
	</node>
	<node id="-591091" lat="63.0021472235" lon="7.23080556498">
		<tag k="name" v="Småholmane" />
		<tag k="place" v="islet" />
		<tag k="ssr:stedsnr" v="156749" />
	</node>
	<node id="-591081" lat="62.9762027779" lon="7.09596943875">
		<tag k="name" v="Hummarvågen" />
		<tag k="natural" v="bay" />
		<tag k="ssr:stedsnr" v="156691" />
	</node>
	<node id="-591069" lat="62.8382361133" lon="7.14972778677">
		<tag k="fixme" v="consider seamark:type=rock or natural=shoal" />
		<tag k="name" v="Skarveskjæret" />
		<tag k="place" v="islet" />
		<tag k="ssr:stedsnr" v="156558" />
	</node>
	<node id="-591068" lat="62.8701666653" lon="6.99225277304">
		<tag k="name" v="Litlevikneset" />
		<tag k="natural" v="cape" />
		<tag k="ssr:stedsnr" v="156508" />
	</node>
	<node id="-591062" lat="62.8864527763" lon="6.95608889185">
		<tag k="name" v="Gulljorda" />
		<tag k="place" v="islet" />
		<tag k="ssr:stedsnr" v="156389" />
	</node>
	<node id="-591058" lat="62.8992972201" lon="6.94366389612">
		<tag k="name" v="Borstuholmen" />
		<tag k="place" v="islet" />
		<tag k="ssr:stedsnr" v="156355" />
	</node>
	<node id="-591057" lat="62.8882403973" lon="6.80913005033">
		<tag k="name" v="Marfloneset" />
		<tag k="natural" v="cape" />
		<tag k="ssr:stedsnr" v="156349" />
	</node>
	<node id="-591055" lat="62.906772223" lon="6.9103722243">
		<tag k="name" v="Brenslevågen" />
		<tag k="natural" v="bay" />
		<tag k="ssr:stedsnr" v="156342" />
	</node>
	<node id="-591034" lat="62.8615972225" lon="6.98921388862">
		<tag k="name" v="Digerhalsen" />
		<tag k="natural" v="cape" />
		<tag k="ssr:stedsnr" v="140110" />
	</node>
	<node id="-591023" lat="63.0072444418" lon="7.10806943749">
		<tag k="name" v="Stabben" />
		<tag k="natural" v="shoal" />
		<tag k="place" v="locality" />
		<tag k="ssr:stedsnr" v="133655" />
	</node>
	<node id="-591022" lat="63.0067305562" lon="7.21137222603">
		<tag k="name" v="Teistklubben" />
		<tag k="place" v="islet" />
		<tag k="ssr:stedsnr" v="133641" />
	</node>
	<node id="-591020" lat="62.9487222208" lon="6.96779722147">
		<tag k="fixme" v="consider seamark:type=rock or natural=shoal" />
		<tag k="name" v="Hommeløya" />
		<tag k="place" v="islet" />
		<tag k="ssr:stedsnr" v="133115" />
	</node>
	<node id="-591019" lat="62.9339011173" lon="6.9607900944">
		<tag k="name" v="Dråga" />
		<tag k="old_name" v="Drågen" />
		<tag k="place" v="island" />
		<tag k="ssr:stedsnr" v="133111" />
	</node>
	<node id="-591016" lat="62.9969999974" lon="7.13173888846">
		<tag k="name" v="Skaken" />
		<tag k="natural" v="shoal" />
		<tag k="place" v="locality" />
		<tag k="ssr:stedsnr" v="133048" />
	</node>
	<node id="-591015" lat="62.9778277785" lon="7.00907222015">
		<tag k="name" v="Moholman" />
		<tag k="place" v="islet" />
		<tag k="ssr:stedsnr" v="133035" />
	</node>
	<node id="-591010" lat="62.8251333351" lon="7.10978889187">
		<tag k="name" v="Korsholmen" />
		<tag k="natural" v="cape" />
		<tag k="ssr:stedsnr" v="132762" />
	</node>
	<node id="-591009" lat="62.8308694474" lon="7.10621945039">
		<tag k="name" v="Kjerringholmen" />
		<tag k="place" v="islet" />
		<tag k="ssr:stedsnr" v="132746" />
	</node>
	<node id="-591008" lat="62.8357722183" lon="7.09565555493">
		<tag k="name" v="Ålvoren" />
		<tag k="place" v="islet" />
		<tag k="ssr:stedsnr" v="132744" />
	</node>
	<node id="-591000" lat="62.8831944486" lon="6.93666666126">
		<tag k="name" v="Ospholmen" />
		<tag k="place" v="islet" />
		<tag k="ssr:stedsnr" v="132157" />
	</node>
	<node id="-590993" lat="62.8400583323" lon="7.14778055051">
		<tag k="name" v="Søre Straumen" />
		<tag k="natural" v="strait" />
		<tag k="ssr:stedsnr" v="111032" />
	</node>
	<node id="-590992" lat="62.8230916686" lon="7.15819166197">
		<tag k="name" v="Ospholmflua" />
		<tag k="natural" v="shoal" />
		<tag k="place" v="locality" />
		<tag k="ssr:stedsnr" v="111007" />
	</node>
	<node id="-590991" lat="62.9136666642" lon="6.9036499926">
		<tag k="name" v="Ergebogen" />
		<tag k="natural" v="shoal" />
		<tag k="place" v="locality" />
		<tag k="ssr:stedsnr" v="110861" />
	</node>
	<node id="-590990" lat="62.9633055516" lon="6.98475556334">
		<tag k="name" v="Sunnmørstaren" />
		<tag k="natural" v="shoal" />
		<tag k="place" v="locality" />
		<tag k="ssr:stedsnr" v="110606" />
	</node>
	<node id="-590989" lat="62.9589194402" lon="6.97862778477">
		<tag k="name" v="Skipsflua" />
		<tag k="natural" v="shoal" />
		<tag k="place" v="locality" />
		<tag k="ssr:stedsnr" v="110592" />
	</node>
	<node id="-590988" lat="62.8855848145" lon="6.8019625499">
		<tag k="fixme" v="consider seamark:type=rock or natural=shoal" />
		<tag k="name" v="Løyeskjæret" />
		<tag k="place" v="islet" />
		<tag k="ssr:stedsnr" v="107757" />
	</node>
	<node id="-590985" lat="62.8855361119" lon="6.79809443887">
		<tag k="fixme" v="consider seamark:type=rock or natural=shoal" />
		<tag k="name" v="Gryta" />
		<tag k="place" v="islet" />
		<tag k="ssr:stedsnr" v="96105" />
	</node>
	<node id="-590974" lat="62.9673444418" lon="7.05428610737">
		<tag k="name" v="Alteret" />
		<tag k="natural" v="cape" />
		<tag k="ssr:stedsnr" v="95925" />
	</node>
	<node id="-590973" lat="62.9489833361" lon="7.01188611101">
		<tag k="name" v="Neset" />
		<tag k="natural" v="cape" />
		<tag k="ssr:stedsnr" v="95921" />
	</node>
	<node id="-590972" lat="62.9500138869" lon="7.00247499767">
		<tag k="name" v="Strupen" />
		<tag k="natural" v="strait" />
		<tag k="ssr:stedsnr" v="95919" />
	</node>
	<node id="-590356" lat="62.9695555518" lon="7.02544167195">
		<tag k="name" v="Dragskjærtaren" />
		<tag k="natural" v="shoal" />
		<tag k="place" v="locality" />
		<tag k="ssr:stedsnr" v="353609" />
	</node>
	<node id="-590965" lat="62.9232138875" lon="6.92679166321">
		<tag k="fixme" v="consider seamark:type=rock or natural=shoal" />
		<tag k="name" v="Pengskjæra" />
		<tag k="place" v="islet" />
		<tag k="ssr:stedsnr" v="95762" />
	</node>
	<node id="-590355" lat="62.9626694459" lon="6.99420834045">
		<tag k="name" v="Nordfalltaren" />
		<tag k="natural" v="shoal" />
		<tag k="place" v="locality" />
		<tag k="ssr:stedsnr" v="353593" />
	</node>
	<node id="-590952" lat="62.9709611094" lon="7.06452499585">
		<tag k="fixme" v="consider seamark:type=rock or natural=shoal" />
		<tag k="name" v="Markaskjæret" />
		<tag k="place" v="islet" />
		<tag k="ssr:stedsnr" v="95693" />
	</node>
	<node id="-590938" lat="62.8463777742" lon="7.17361944305">
		<tag k="name" v="Elnesleira" />
		<tag k="natural" v="shoal" />
		<tag k="place" v="locality" />
		<tag k="ssr:stedsnr" v="95488" />
	</node>
	<node id="-590933" lat="62.8697916658" lon="6.99218055582">
		<tag k="name" v="Litlevika" />
		<tag k="natural" v="bay" />
		<tag k="ssr:stedsnr" v="95459" />
	</node>
	<node id="-590932" lat="62.9284944459" lon="6.9571500068">
		<tag k="name" v="Naustholmen" />
		<tag k="place" v="islet" />
		<tag k="ssr:stedsnr" v="95453" />
	</node>
	<node id="-590920" lat="62.8281361136" lon="7.13337500915">
		<tag k="name" v="Beøysundet" />
		<tag k="natural" v="strait" />
		<tag k="ssr:stedsnr" v="95517" />
	</node>
	<node id="-590911" lat="62.8979527792" lon="6.91539445005">
		<tag k="name" v="Kalsnesholman" />
		<tag k="place" v="islet" />
		<tag k="ssr:stedsnr" v="95316" />
	</node>
	<node id="-590910" lat="62.9024722239" lon="6.91259722678">
		<tag k="name" v="Lemholmen" />
		<tag k="place" v="islet" />
		<tag k="ssr:stedsnr" v="95314" />
	</node>
	<node id="-590908" lat="62.8168777775" lon="7.01150000326">
		<tag k="fixme" v="consider seamark:type=rock or natural=shoal" />
		<tag k="name" v="Valskjeret" />
		<tag k="place" v="islet" />
		<tag k="ssr:stedsnr" v="95248" />
	</node>
	<node id="-590905" lat="62.9499805595" lon="7.01152500558">
		<tag k="name" v="Nesahotten" />
		<tag k="place" v="islet" />
		<tag k="ssr:stedsnr" v="95432" />
	</node>
	<node id="-590902" lat="62.965036113" lon="7.03107221289">
		<tag k="name" v="Haugneset" />
		<tag k="natural" v="cape" />
		<tag k="ssr:stedsnr" v="95426" />
	</node>
	<node id="-590901" lat="62.8243611094" lon="7.00901389424">
		<tag k="fixme" v="consider seamark:type=rock or natural=shoal" />
		<tag k="name" v="Svartskjæret" />
		<tag k="place" v="islet" />
		<tag k="ssr:stedsnr" v="95406" />
	</node>
	<node id="-590883" lat="63.0127111084" lon="6.95870555869">
		<tag k="name" v="Godtaren" />
		<tag k="natural" v="shoal" />
		<tag k="place" v="locality" />
		<tag k="ssr:stedsnr" v="73682" />
	</node>
	<node id="-590881" lat="63.0276111073" lon="6.98790554612">
		<tag k="name" v="Grunnklakken" />
		<tag k="natural" v="shoal" />
		<tag k="place" v="locality" />
		<tag k="ssr:stedsnr" v="73644" />
	</node>
	<node id="-590880" lat="63.0225111151" lon="6.95169444586">
		<tag k="name" v="Litleklakken" />
		<tag k="natural" v="shoal" />
		<tag k="place" v="locality" />
		<tag k="ssr:stedsnr" v="73641" />
	</node>
	<node id="-590878" lat="62.9336416644" lon="6.89861389183">
		<tag k="fixme" v="consider seamark:type=rock or natural=shoal" />
		<tag k="name" v="Bruskjæra" />
		<tag k="place" v="islet" />
		<tag k="ssr:stedsnr" v="73126" />
	</node>
	<node id="-590868" lat="62.9645999972" lon="6.88057221421">
		<tag k="name" v="Kolbeinflua" />
		<tag k="natural" v="shoal" />
		<tag k="place" v="locality" />
		<tag k="ssr:stedsnr" v="73039" />
	</node>
	<node id="-590862" lat="62.9441833331" lon="6.88719444237">
		<tag k="fixme" v="consider seamark:type=rock or natural=shoal" />
		<tag k="name" v="Bardan" />
		<tag k="place" v="islet" />
		<tag k="ssr:stedsnr" v="73001" />
	</node>
	<node id="-590852" lat="62.857319448" lon="7.00234167279">
		<tag k="name" v="Kjørsvika" />
		<tag k="natural" v="bay" />
		<tag k="ssr:stedsnr" v="72239" />
	</node>
	<node id="-590845" lat="62.8869249988" lon="6.80681389158">
		<tag k="loc_name" v="Ytstekuholmen" />
		<tag k="name" v="Sørøya" />
		<tag k="place" v="islet" />
		<tag k="ssr:stedsnr" v="72185" />
	</node>
	<node id="-590842" lat="62.8805944665" lon="6.88840980681">
		<tag k="fixme" v="consider seamark:type=rock or natural=shoal" />
		<tag k="name" v="Svansholmen" />
		<tag k="place" v="islet" />
		<tag k="ssr:stedsnr" v="72164" />
	</node>
	<node id="-590335" lat="62.896874998" lon="6.809430564">
		<tag k="name" v="Kråkå" />
		<tag k="place" v="islet" />
		<tag k="ssr:stedsnr" v="338909" />
	</node>
	<node id="-590834" lat="62.8438128587" lon="6.99609831327">
		<tag k="name" v="Levra" />
		<tag k="natural" v="cape" />
		<tag k="ssr:stedsnr" v="80129" />
	</node>
	<node id="-590832" lat="62.8496138898" lon="7.14446666118">
		<tag k="name" v="Hatleflua" />
		<tag k="natural" v="shoal" />
		<tag k="place" v="locality" />
		<tag k="ssr:stedsnr" v="51084" />
	</node>
	<node id="-590831" lat="62.8794388896" lon="6.90117777053">
		<tag k="name" v="Vikaskallen" />
		<tag k="natural" v="shoal" />
		<tag k="place" v="locality" />
		<tag k="ssr:stedsnr" v="50791" />
	</node>
	<node id="-590830" lat="63.0459000016" lon="7.13272222244">
		<tag k="name" v="Fuglvengan" />
		<tag k="natural" v="shoal" />
		<tag k="place" v="locality" />
		<tag k="ssr:stedsnr" v="49916" />
	</node>
	<node id="-590829" lat="63.0199361074" lon="7.23621388093">
		<tag k="name" v="Søre Kvitholmgrunnen" />
		<tag k="natural" v="shoal" />
		<tag k="place" v="locality" />
		<tag k="ssr:stedsnr" v="49905" />
	</node>
	<node id="-590827" lat="62.9964055534" lon="7.18246666461">
		<tag k="fixme" v="consider seamark:type=rock or natural=shoal" />
		<tag k="name" v="Gullskjæret" />
		<tag k="place" v="islet" />
		<tag k="ssr:stedsnr" v="49645" />
	</node>
	<node id="-590826" lat="62.9583972219" lon="6.89315000672">
		<tag k="name" v="Skallen" />
		<tag k="natural" v="shoal" />
		<tag k="place" v="locality" />
		<tag k="ssr:stedsnr" v="49577" />
	</node>
	<node id="-590825" lat="62.9866749979" lon="7.00225555988">
		<tag k="name" v="Kråkfallet" />
		<tag k="place" v="locality" />
		<tag k="ssr:stedsnr" v="47735" />
	</node>
	<node id="-590822" lat="62.9794750013" lon="7.09877778271">
		<tag k="name" v="Breivika" />
		<tag k="natural" v="bay" />
		<tag k="ssr:stedsnr" v="36000" />
	</node>
	<node id="-590818" lat="62.8766027736" lon="6.9604972217">
		<tag k="name" v="Kråka" />
		<tag k="place" v="islet" />
		<tag k="ssr:stedsnr" v="35942" />
	</node>
	<node id="-590817" lat="62.8854722227" lon="6.96755832359">
		<tag k="fixme" v="consider seamark:type=rock or natural=shoal" />
		<tag k="name" v="Skjæret" />
		<tag k="place" v="islet" />
		<tag k="ssr:stedsnr" v="35939" />
	</node>
	<node id="-590816" lat="62.9719638886" lon="7.03421665917">
		<tag k="fixme" v="consider seamark:type=rock or natural=shoal" />
		<tag k="name" v="Kurven" />
		<tag k="place" v="islet" />
		<tag k="ssr:stedsnr" v="35938" />
	</node>
	<node id="-590815" lat="62.8951456412" lon="6.82689977691">
		<tag k="name" v="Barane" />
		<tag k="place" v="islet" />
		<tag k="ssr:stedsnr" v="35931" />
	</node>
	<node id="-590812" lat="62.820908329" lon="7.13617500411">
		<tag k="name" v="Eineset" />
		<tag k="natural" v="cape" />
		<tag k="ssr:stedsnr" v="35897" />
	</node>
	<node id="-590792" lat="62.9852055594" lon="7.08854445097">
		<tag k="name" v="Flesasundet" />
		<tag k="natural" v="strait" />
		<tag k="ssr:stedsnr" v="35726" />
	</node>
	<node id="-590791" lat="62.8041472214" lon="7.19418332443">
		<tag k="alt_name" v="Børkjeneset" />
		<tag k="name" v="Byrkjeneset" />
		<tag k="natural" v="cape" />
		<tag k="ssr:stedsnr" v="35723" />
	</node>
	<node id="-590771" lat="62.8972194457" lon="6.95599722991">
		<tag k="name" v="Seterneset" />
		<tag k="natural" v="cape" />
		<tag k="ssr:stedsnr" v="35476" />
	</node>
	<node id="-590770" lat="62.8979861137" lon="6.9473638937">
		<tag k="name" v="Flatholmen" />
		<tag k="place" v="islet" />
		<tag k="ssr:stedsnr" v="35473" />
	</node>
	<node id="-590769" lat="62.8981944481" lon="6.94609167214">
		<tag k="name" v="Lyngholmen" />
		<tag k="place" v="islet" />
		<tag k="ssr:stedsnr" v="35470" />
	</node>
	<node id="-590767" lat="62.8840333294" lon="6.86775834141">
		<tag k="fixme" v="consider seamark:type=rock or natural=shoal" />
		<tag k="name" v="Litle Tennskjæret" />
		<tag k="place" v="islet" />
		<tag k="ssr:stedsnr" v="35465" />
	</node>
	<node id="-590766" lat="62.9034500006" lon="6.90888056478">
		<tag k="name" v="Kippersundet" />
		<tag k="natural" v="strait" />
		<tag k="ssr:stedsnr" v="35454" />
	</node>
	<node id="-590765" lat="62.9072888867" lon="6.88761111332">
		<tag k="name" v="Nørdre Odden" />
		<tag k="place" v="islet" />
		<tag k="ssr:stedsnr" v="35448" />
	</node>
	<node id="-590764" lat="62.8939888856" lon="6.81683054883">
		<tag k="name" v="Flatholmen" />
		<tag k="place" v="islet" />
		<tag k="ssr:stedsnr" v="35443" />
	</node>
	<node id="-590752" lat="62.845869447" lon="7.16673333015">
		<tag k="name" v="Vorpeneset" />
		<tag k="natural" v="cape" />
		<tag k="ssr:stedsnr" v="34529" />
	</node>
	<node id="-590751" lat="62.8305805583" lon="7.14729721245">
		<tag k="alt_name" v="Ospholmen" />
		<tag k="name" v="Auspholmen" />
		<tag k="place" v="islet" />
		<tag k="ssr:stedsnr" v="34528" />
	</node>
	<node id="-590747" lat="62.9290416666" lon="6.96130555022">
		<tag k="name" v="Veståvindsholmen" />
		<tag k="place" v="islet" />
		<tag k="ssr:stedsnr" v="34473" />
	</node>
	<node id="-590746" lat="62.9198083318" lon="6.93573611308">
		<tag k="name" v="Litlbuholmen" />
		<tag k="place" v="islet" />
		<tag k="ssr:stedsnr" v="34463" />
	</node>
	<node id="-590743" lat="62.9725861131" lon="7.05204166212">
		<tag k="fixme" v="consider seamark:type=rock or natural=shoal" />
		<tag k="name" v="Siriskjæret" />
		<tag k="place" v="islet" />
		<tag k="ssr:stedsnr" v="34433" />
	</node>
	<node id="-590742" lat="62.9688527735" lon="7.02966943926">
		<tag k="name" v="Haugsundet" />
		<tag k="natural" v="strait" />
		<tag k="ssr:stedsnr" v="34434" />
	</node>
	<node id="-590741" lat="62.9329611109" lon="6.97439166951">
		<tag k="name" v="Hestholmen" />
		<tag k="place" v="islet" />
		<tag k="ssr:stedsnr" v="34427" />
	</node>
	<node id="-590738" lat="62.8910944424" lon="6.93870000987">
		<tag k="fixme" v="consider seamark:type=rock or natural=shoal" />
		<tag k="name" v="Fårlegskjæret" />
		<tag k="place" v="islet" />
		<tag k="ssr:stedsnr" v="34350" />
	</node>
	<node id="-590316" lat="62.9695000032" lon="7.06895000188">
		<tag k="name" v="Fjørbakken" />
		<tag k="natural" v="beach" />
		<tag k="place" v="locality" />
		<tag k="ssr:stedsnr" v="338706" />
	</node>
	<node id="-590315" lat="62.9719944463" lon="7.08336943512">
		<tag k="name" v="Flønestangen" />
		<tag k="natural" v="cape" />
		<tag k="ssr:stedsnr" v="338704" />
	</node>
	<node id="-590720" lat="63.0358305554" lon="7.18281667629">
		<tag k="name" v="Stubbflua" />
		<tag k="natural" v="shoal" />
		<tag k="place" v="locality" />
		<tag k="ssr:stedsnr" v="12623" />
	</node>
	<node id="-590712" lat="62.9730972235" lon="7.03249999442">
		<tag k="fixme" v="consider seamark:type=rock or natural=shoal" />
		<tag k="name" v="Svartskjæret" />
		<tag k="place" v="islet" />
		<tag k="ssr:stedsnr" v="12044" />
	</node>
	<node id="-590709" lat="62.9679777745" lon="7.04189999308">
		<tag k="name" v="Lamholmen" />
		<tag k="place" v="islet" />
		<tag k="ssr:stedsnr" v="12029" />
	</node>
	<node id="-590708" lat="62.9576722199" lon="6.96453334133">
		<tag k="name" v="Rota" />
		<tag k="place" v="islet" />
		<tag k="ssr:stedsnr" v="12019" />
	</node>
	<node id="-590702" lat="62.7710083369" lon="6.96088611252">
		<tag k="bay" v="fjord" />
		<tag k="name" v="Julsundet" />
		<tag k="natural" v="bay" />
		<tag k="ssr:stedsnr" v="11779" />
	</node>
	<node id="-590692" lat="62.8956472242" lon="6.81043332597">
		<tag k="alt_name" v="Måøya" />
		<tag k="name" v="Moøya" />
		<tag k="place" v="islet" />
		<tag k="ssr:stedsnr" v="11058" />
	</node>
	<node id="-590689" lat="63.0379249986" lon="7.16054165746">
		<tag k="name" v="Gjælna" />
		<tag k="natural" v="shoal" />
		<tag k="place" v="locality" />
		<tag k="ssr:stedsnr" v="413928" />
	</node>
	<node id="-590309" lat="62.9777472213" lon="7.08467499229">
		<tag k="fixme" v="consider seamark:type=rock or natural=shoal" />
		<tag k="name" v="Kålbentet" />
		<tag k="place" v="islet" />
		<tag k="ssr:stedsnr" v="338671" />
	</node>
	<node id="-590626" lat="62.8742166671" lon="6.86383055985">
		<tag k="name" v="Kleppskjærtaren" />
		<tag k="natural" v="shoal" />
		<tag k="place" v="locality" />
		<tag k="ssr:stedsnr" v="896775" />
	</node>
	<node id="-590622" lat="62.9741805551" lon="7.08450556338">
		<tag k="name" v="Fløneset" />
		<tag k="natural" v="cape" />
		<tag k="ssr:stedsnr" v="884996" />
	</node>
	<node id="-590611" lat="62.9209194478" lon="6.89777778274">
		<tag k="fixme" v="consider seamark:type=rock or natural=shoal" />
		<tag k="name" v="Sveinan" />
		<tag k="place" v="islet" />
		<tag k="ssr:stedsnr" v="884939" />
	</node>
	<node id="-590609" lat="62.8744250015" lon="6.96943610284">
		<tag k="name" v="Vika" />
		<tag k="natural" v="bay" />
		<tag k="ssr:stedsnr" v="884920" />
	</node>
	<node id="-590608" lat="62.8943666681" lon="6.8342361022">
		<tag k="name" v="Kjelen" />
		<tag k="natural" v="bay" />
		<tag k="ssr:stedsnr" v="884906" />
	</node>
	<node id="-590606" lat="62.8042638894" lon="7.17302222391">
		<tag k="name" v="Øyran" />
		<tag k="natural" v="cape" />
		<tag k="ssr:stedsnr" v="884874" />
	</node>
	<node id="-590604" lat="62.8263527766" lon="7.10136110858">
		<tag k="name" v="Nesbukta" />
		<tag k="natural" v="bay" />
		<tag k="ssr:stedsnr" v="884856" />
	</node>
	<node id="-590603" lat="62.8322638877" lon="7.12256944601">
		<tag k="name" v="Kroken" />
		<tag k="natural" v="bay" />
		<tag k="ssr:stedsnr" v="884851" />
	</node>
	<node id="-590590" lat="62.9991583342" lon="7.21428055271">
		<tag k="name" v="Greteholmen" />
		<tag k="place" v="islet" />
		<tag k="ssr:stedsnr" v="884748" />
	</node>
	<node id="-590589" lat="63.0005611097" lon="7.20963333878">
		<tag k="name" v="Hannaholmen" />
		<tag k="place" v="islet" />
		<tag k="ssr:stedsnr" v="884747" />
	</node>
	<node id="-590577" lat="62.9833638857" lon="7.08313611288">
		<tag k="name" v="Flesadjupet" />
		<tag k="place" v="locality" />
		<tag k="ssr:stedsnr" v="884669" />
	</node>
	<node id="-590575" lat="62.986166665" lon="7.12101111982">
		<tag k="name" v="Langholmen" />
		<tag k="place" v="islet" />
		<tag k="ssr:stedsnr" v="884659" />
	</node>
	<node id="-590567" lat="62.8198583374" lon="7.07801666746">
		<tag k="name" v="Hoemsvågen" />
		<tag k="natural" v="bay" />
		<tag k="ssr:stedsnr" v="884551" />
	</node>
	<node id="-590566" lat="62.8410416694" lon="7.07915555597">
		<tag k="name" v="Løsetneset" />
		<tag k="natural" v="cape" />
		<tag k="ssr:stedsnr" v="884543" />
	</node>
	<node id="-590565" lat="62.8258527755" lon="7.05635277491">
		<tag k="name" v="Gjengstøa" />
		<tag k="natural" v="bay" />
		<tag k="ssr:stedsnr" v="884537" />
	</node>
	<node id="-590562" lat="62.8276750015" lon="7.10306389831">
		<tag k="name" v="Grønneset" />
		<tag k="natural" v="cape" />
		<tag k="ssr:stedsnr" v="884504" />
	</node>
	<node id="-590556" lat="62.9496916705" lon="7.01933333398">
		<tag k="name" v="Sjåholmen" />
		<tag k="place" v="islet" />
		<tag k="ssr:stedsnr" v="884449" />
	</node>
	<node id="-590555" lat="62.9512194444" lon="7.01374722965">
		<tag k="alt_name" v="Strandflæa" />
		<tag k="name" v="Straumfleen" />
		<tag k="place" v="islet" />
		<tag k="ssr:stedsnr" v="884440" />
	</node>
	<node id="-590554" lat="62.964850001" lon="7.04382777215">
		<tag k="name" v="Askevågen" />
		<tag k="natural" v="bay" />
		<tag k="ssr:stedsnr" v="884433" />
	</node>
	<node id="-590552" lat="62.8369666709" lon="7.04303056156">
		<tag k="name" v="Nesabukta" />
		<tag k="natural" v="bay" />
		<tag k="ssr:stedsnr" v="884413" />
	</node>
	<node id="-592596" lat="62.9360414357" lon="6.96775948723">
		<tag k="name" v="Vågan" />
		<tag k="natural" v="bay" />
		<tag k="ssr:stedsnr" v="980254" />
	</node>
	<node id="-592595" lat="62.9322788236" lon="6.94380090031">
		<tag k="name" v="Måsholmen" />
		<tag k="place" v="islet" />
		<tag k="ssr:stedsnr" v="980253" />
	</node>
	<node id="-590544" lat="62.885619445" lon="6.95565833883">
		<tag k="name" v="Naustneset" />
		<tag k="natural" v="cape" />
		<tag k="ssr:stedsnr" v="884377" />
	</node>
	<node id="-590543" lat="62.8815166656" lon="6.96625832895">
		<tag k="name" v="Trondsholmen" />
		<tag k="place" v="islet" />
		<tag k="ssr:stedsnr" v="884373" />
	</node>
	<node id="-590542" lat="62.8799472259" lon="6.95417778569">
		<tag k="name" v="Vorpenesbukta" />
		<tag k="natural" v="bay" />
		<tag k="ssr:stedsnr" v="884369" />
	</node>
	<node id="-592589" lat="62.8202833335" lon="7.12700277402">
		<tag k="name" v="Singneflua" />
		<tag k="natural" v="shoal" />
		<tag k="place" v="locality" />
		<tag k="ssr:stedsnr" v="961011" />
	</node>
	<node id="-592588" lat="62.9720888852" lon="6.93085833911">
		<tag k="name" v="Stolen" />
		<tag k="natural" v="shoal" />
		<tag k="place" v="locality" />
		<tag k="ssr:stedsnr" v="960722" />
	</node>
	<node id="-590539" lat="62.8859777809" lon="6.81515555937">
		<tag k="fixme" v="consider seamark:type=rock or natural=shoal" />
		<tag k="name" v="Beielskjæret" />
		<tag k="place" v="islet" />
		<tag k="ssr:stedsnr" v="884333" />
	</node>
	<node id="-592586" lat="62.9585833303" lon="6.98344444557">
		<tag k="name" v="Skipsflutaren" />
		<tag k="natural" v="shoal" />
		<tag k="place" v="locality" />
		<tag k="ssr:stedsnr" v="960583" />
	</node>
	<node id="-592585" lat="62.994488888" lon="6.78612777771">
		<tag k="name" v="Turiskallen" />
		<tag k="natural" v="shoal" />
		<tag k="place" v="locality" />
		<tag k="ssr:stedsnr" v="960356" />
	</node>
	<node id="-592583" lat="62.8099305561" lon="7.2004722244">
		<tag k="name" v="Kolbergfluin" />
		<tag k="natural" v="shoal" />
		<tag k="place" v="locality" />
		<tag k="ssr:stedsnr" v="960014" />
	</node>
	<node id="-592582" lat="63.0119361121" lon="7.13331388781">
		<tag k="name" v="Hoggegrunnen" />
		<tag k="natural" v="shoal" />
		<tag k="place" v="locality" />
		<tag k="ssr:stedsnr" v="959580" />
	</node>
	<node id="-592579" lat="62.8826583363" lon="6.94426111108">
		<tag k="name" v="Harøysundet" />
		<tag k="natural" v="strait" />
		<tag k="ssr:stedsnr" v="959120" />
	</node>
	<node id="-592578" lat="62.934124996" lon="6.88831388591">
		<tag k="name" v="Ålmannstaran" />
		<tag k="natural" v="shoal" />
		<tag k="place" v="locality" />
		<tag k="ssr:stedsnr" v="957839" />
	</node>
	<node id="-592576" lat="62.9478222219" lon="6.95197222627">
		<tag k="name" v="Hommeløytaran" />
		<tag k="natural" v="shoal" />
		<tag k="place" v="locality" />
		<tag k="ssr:stedsnr" v="957755" />
	</node>
	<node id="-592575" lat="62.8082972216" lon="6.99095000446">
		<tag k="fixme" v="consider seamark:type=rock or natural=shoal" />
		<tag k="name" v="Langøyskjæra" />
		<tag k="place" v="islet" />
		<tag k="ssr:stedsnr" v="957738" />
	</node>
	<node id="-592574" lat="62.8055111098" lon="6.98388056063">
		<tag k="name" v="Skjærsnaget" />
		<tag k="place" v="locality" />
		<tag k="ssr:stedsnr" v="956821" />
	</node>
	<node id="-592573" lat="62.9030055536" lon="6.87756111131">
		<tag k="name" v="Fretta" />
		<tag k="natural" v="shoal" />
		<tag k="place" v="locality" />
		<tag k="ssr:stedsnr" v="957689" />
	</node>
	<node id="-590524" lat="62.9976111095" lon="7.11199444972">
		<tag k="name" v="Sjursflua" />
		<tag k="natural" v="shoal" />
		<tag k="place" v="locality" />
		<tag k="ssr:stedsnr" v="474642" />
	</node>
	<node id="-592571" lat="62.8184166705" lon="7.18241667154">
		<tag k="name" v="Reitvika" />
		<tag k="natural" v="bay" />
		<tag k="ssr:stedsnr" v="945999" />
	</node>
	<node id="-590522" lat="62.9966444426" lon="7.16207222229">
		<tag k="fixme" v="consider seamark:type=rock or natural=shoal" />
		<tag k="name" v="Langskjæret" />
		<tag k="place" v="islet" />
		<tag k="ssr:stedsnr" v="413618" />
	</node>
	<node id="-590521" lat="63.0006833356" lon="7.09951110637">
		<tag k="name" v="Kvitingfluin" />
		<tag k="natural" v="shoal" />
		<tag k="place" v="locality" />
		<tag k="ssr:stedsnr" v="413143" />
	</node>
	<node id="-590520" lat="63.0097944418" lon="6.95073055578">
		<tag k="name" v="Indre Seiklakkskallan" />
		<tag k="natural" v="shoal" />
		<tag k="place" v="locality" />
		<tag k="ssr:stedsnr" v="413141" />
	</node>
	<node id="-590519" lat="62.8973111075" lon="6.89125832508">
		<tag k="name" v="Midtfjordsskallen" />
		<tag k="place" v="locality" />
		<tag k="ssr:stedsnr" v="411718" />
	</node>
	<node id="-592566" lat="62.9287000042" lon="6.9297583361">
		<tag k="fixme" v="consider seamark:type=rock or natural=shoal" />
		<tag k="name" v="Dragfleå" />
		<tag k="place" v="islet" />
		<tag k="ssr:stedsnr" v="945961" />
	</node>
	<node id="-592565" lat="62.9205972235" lon="6.9166138922">
		<tag k="fixme" v="consider seamark:type=rock or natural=shoal" />
		<tag k="name" v="Grytfleå" />
		<tag k="place" v="islet" />
		<tag k="ssr:stedsnr" v="945958" />
	</node>
	<node id="-592563" lat="62.9272527761" lon="6.95444721521">
		<tag k="name" v="Hatten" />
		<tag k="place" v="islet" />
		<tag k="ssr:stedsnr" v="945947" />
	</node>
	<node id="-592561" lat="62.954627781" lon="7.0137277815">
		<tag k="name" v="Sjåneset" />
		<tag k="natural" v="cape" />
		<tag k="ssr:stedsnr" v="945939" />
	</node>
	<node id="-592557" lat="62.9017611121" lon="6.92558334277">
		<tag k="name" v="Kalsvika" />
		<tag k="natural" v="bay" />
		<tag k="ssr:stedsnr" v="945922" />
	</node>
	<node id="-590505" lat="62.91065278" lon="6.90194722776">
		<tag k="name" v="Fruvågen" />
		<tag k="natural" v="bay" />
		<tag k="ssr:stedsnr" v="399944" />
	</node>
	<node id="-592552" lat="62.8303194417" lon="7.09823055008">
		<tag k="name" v="Storvika" />
		<tag k="place" v="islet" />
		<tag k="ssr:stedsnr" v="945882" />
	</node>
	<node id="-592551" lat="62.827475001" lon="7.07929999946">
		<tag k="name" v="Følvika" />
		<tag k="natural" v="bay" />
		<tag k="ssr:stedsnr" v="945880" />
	</node>
	<node id="-590502" lat="62.885922226" lon="6.80848055725">
		<tag k="name" v="Kuholmen" />
		<tag k="place" v="islet" />
		<tag k="ssr:stedsnr" v="399900" />
	</node>
	<node id="-590486" lat="62.9123222218" lon="6.91122222732">
		<tag k="name" v="Laugartjønna" />
		<tag k="place" v="islet" />
		<tag k="ssr:stedsnr" v="399787" />
	</node>
	<node id="-592533" lat="62.993402781" lon="7.18530277215">
		<tag k="fixme" v="consider seamark:type=rock or natural=shoal" />
		<tag k="name" v="Gulskjæra" />
		<tag k="place" v="islet" />
		<tag k="ssr:stedsnr" v="945684" />
	</node>
	<node id="-592532" lat="62.8298000014" lon="7.19364167131">
		<tag k="alt_name" v="Rødsetneset" />
		<tag k="name" v="Røsetneset" />
		<tag k="natural" v="cape" />
		<tag k="ssr:stedsnr" v="945670" />
	</node>
	<node id="-590474" lat="62.8032694416" lon="7.19777499571">
		<tag k="name" v="Malmestranda" />
		<tag k="natural" v="beach" />
		<tag k="place" v="locality" />
		<tag k="ssr:stedsnr" v="399683" />
	</node>
	<node id="-592520" lat="62.8270305539" lon="7.07234723031">
		<tag k="name" v="Hoemsvågen (Kvalsnesvågen)" />
		<tag k="natural" v="bay" />
		<tag k="ssr:stedsnr" v="945510" />
	</node>
	<node id="-592518" lat="62.924244444" lon="6.94633054969">
		<tag k="name" v="Skipsneset" />
		<tag k="natural" v="cape" />
		<tag k="ssr:stedsnr" v="945469" />
	</node>
	<node id="-592516" lat="62.9384027791" lon="6.96760833867">
		<tag k="alt_name" v="Midti - Purkøya" />
		<tag k="name" v="Midti-Purkøya" />
		<tag k="place" v="islet" />
		<tag k="ssr:stedsnr" v="945447" />
	</node>
	<node id="-592515" lat="62.9512111078" lon="7.00280278531">
		<tag k="name" v="Langholmen" />
		<tag k="place" v="islet" />
		<tag k="ssr:stedsnr" v="945444" />
	</node>
	<node id="-592514" lat="62.9490249957" lon="7.00024444392">
		<tag k="name" v="Storholmhotten" />
		<tag k="place" v="islet" />
		<tag k="ssr:stedsnr" v="945436" />
	</node>
	<node id="-592513" lat="62.9607758582" lon="7.04136480297">
		<tag k="name" v="Litle Gjengstøa" />
		<tag k="natural" v="bay" />
		<tag k="ssr:stedsnr" v="945423" />
	</node>
	<node id="-592512" lat="62.9543305551" lon="7.01185555905">
		<tag k="name" v="Kyrkjehotten" />
		<tag k="place" v="islet" />
		<tag k="ssr:stedsnr" v="945417" />
	</node>
	<node id="-590463" lat="62.8275250022" lon="7.02093055394">
		<tag k="name" v="Kyrkjesteinen" />
		<tag k="natural" v="cape" />
		<tag k="ssr:stedsnr" v="399512" />
	</node>
	<node id="-590462" lat="62.8240583362" lon="7.02989722853">
		<tag k="name" v="Vågøybukta" />
		<tag k="natural" v="bay" />
		<tag k="ssr:stedsnr" v="399509" />
	</node>
	<node id="-590461" lat="62.8956333362" lon="6.80758056284">
		<tag k="fixme" v="consider seamark:type=rock or natural=shoal" />
		<tag k="name" v="Blind-Eriksflua" />
		<tag k="place" v="islet" />
		<tag k="ssr:stedsnr" v="399507" />
	</node>
	<node id="-592507" lat="62.7910250029" lon="6.98032500537">
		<tag k="name" v="Fagervika" />
		<tag k="natural" v="bay" />
		<tag k="ssr:stedsnr" v="945368" />
	</node>
	<node id="-592504" lat="62.8963583293" lon="6.94935832715">
		<tag k="name" v="Larsholman" />
		<tag k="place" v="islet" />
		<tag k="ssr:stedsnr" v="945346" />
	</node>
	<node id="-592502" lat="62.8981777759" lon="6.92343888438">
		<tag k="name" v="Kalsneset" />
		<tag k="natural" v="cape" />
		<tag k="ssr:stedsnr" v="945334" />
	</node>
	<node id="-592501" lat="62.892836112" lon="6.84791110635">
		<tag k="fixme" v="consider seamark:type=rock or natural=shoal" />
		<tag k="name" v="Digerfallet" />
		<tag k="place" v="islet" />
		<tag k="ssr:stedsnr" v="945330" />
	</node>
	<node id="-592500" lat="62.8884777758" lon="6.81896389353">
		<tag k="alt_name" v="Hessholmskjeret" />
		<tag k="loc_name" v="Hamraskjæret" />
		<tag k="name" v="Hessholmskjæret" />
		<tag k="place" v="islet" />
		<tag k="ssr:stedsnr" v="945328" />
	</node>
	<node id="-592499" lat="62.8905888847" lon="6.81770833076">
		<tag k="loc_name" v="Storskjæret" />
		<tag k="name" v="Hammerøyskjæret" />
		<tag k="place" v="islet" />
		<tag k="ssr:stedsnr" v="945326" />
	</node>
	<node id="-592498" lat="62.8143555539" lon="6.99957778299">
		<tag k="name" v="Litle Kjeholmen" />
		<tag k="place" v="islet" />
		<tag k="ssr:stedsnr" v="945277" />
	</node>
	<node id="-590434" lat="62.8248305524" lon="7.1204722201">
		<tag k="name" v="Korsholsundet" />
		<tag k="natural" v="strait" />
		<tag k="ssr:stedsnr" v="398545" />
	</node>
	<node id="-590433" lat="62.8304833324" lon="7.17776666346">
		<tag k="name" v="Sylteosen" />
		<tag k="natural" v="bay" />
		<tag k="ssr:stedsnr" v="398537" />
	</node>
	<node id="-590431" lat="62.8493166695" lon="7.11668054936">
		<tag k="name" v="Rønningbukta" />
		<tag k="natural" v="bay" />
		<tag k="ssr:stedsnr" v="398528" />
	</node>
	<node id="-592478" lat="62.8484527749" lon="7.00803610671">
		<tag k="name" v="Sandvika" />
		<tag k="natural" v="bay" />
		<tag k="ssr:stedsnr" v="931486" />
	</node>
	<node id="-590266" lat="62.9075146961" lon="6.90125590438">
		<tag k="name" v="Frisneset" />
		<tag k="natural" v="cape" />
		<tag k="ssr:stedsnr" v="338029" />
	</node>
	<node id="-592474" lat="62.9297777786" lon="6.91366944239">
		<tag k="fixme" v="consider seamark:type=rock or natural=shoal" />
		<tag k="name" v="Stoppelskjæra" />
		<tag k="place" v="islet" />
		<tag k="ssr:stedsnr" v="923134" />
	</node>
	<node id="-590424" lat="62.924811107" lon="6.93701111392">
		<tag k="fixme" v="consider seamark:type=rock or natural=shoal" />
		<tag k="name" v="Ersholmskjæret" />
		<tag k="place" v="islet" />
		<tag k="ssr:stedsnr" v="398481" />
	</node>
	<node id="-592471" lat="62.9258305525" lon="6.94803055796">
		<tag k="name" v="Langøya" />
		<tag k="place" v="islet" />
		<tag k="ssr:stedsnr" v="923118" />
	</node>
	<node id="-590422" lat="62.9323555534" lon="6.97644723092">
		<tag k="name" v="Naustholmen" />
		<tag k="place" v="islet" />
		<tag k="ssr:stedsnr" v="398465" />
	</node>
	<node id="-590421" lat="62.93415556" lon="6.95423055648">
		<tag k="name" v="Vardneset" />
		<tag k="natural" v="cape" />
		<tag k="ssr:stedsnr" v="398461" />
	</node>
	<node id="-590420" lat="62.9377249973" lon="6.96220555035">
		<tag k="name" v="Søre Purkøya" />
		<tag k="place" v="islet" />
		<tag k="ssr:stedsnr" v="398462" />
	</node>
	<node id="-592467" lat="63.0185972214" lon="7.19924444486">
		<tag k="name" v="Breisundskjæret" />
		<tag k="natural" v="shoal" />
		<tag k="place" v="locality" />
		<tag k="ssr:stedsnr" v="922665" />
	</node>
	<node id="-590418" lat="62.9313916652" lon="6.97208610395">
		<tag k="name" v="Kongsholmen" />
		<tag k="place" v="islet" />
		<tag k="ssr:stedsnr" v="398418" />
	</node>
	<node id="-592465" lat="63.004061115" lon="7.19134999615">
		<tag k="alt_name" v="Moldvarden, l" />
		<tag k="name" v="Litle Moldvarden" />
		<tag k="place" v="islet" />
		<tag k="ssr:stedsnr" v="922655" />
	</node>
	<node id="-590413" lat="62.9022361069" lon="6.90448332932">
		<tag k="name" v="Søre Kipperholmen" />
		<tag k="place" v="islet" />
		<tag k="ssr:stedsnr" v="398331" />
	</node>
	<node id="-592456" lat="62.9585611126" lon="7.01815277737">
		<tag k="name" v="Hanholman" />
		<tag k="place" v="islet" />
		<tag k="ssr:stedsnr" v="922018" />
	</node>
	<node id="-590401" lat="63.01421111" lon="7.18408334181">
		<tag k="fixme" v="consider seamark:type=rock or natural=shoal" />
		<tag k="name" v="Leiskjæret" />
		<tag k="place" v="islet" />
		<tag k="ssr:stedsnr" v="376704" />
	</node>
	<node id="-590400" lat="63.0257666677" lon="6.95389722128">
		<tag k="name" v="Vestklakken" />
		<tag k="natural" v="shoal" />
		<tag k="place" v="locality" />
		<tag k="ssr:stedsnr" v="376632" />
	</node>
	<node id="-590398" lat="62.9306499993" lon="6.93561388345">
		<tag k="name" v="Grønholman" />
		<tag k="place" v="islet" />
		<tag k="ssr:stedsnr" v="376101" />
	</node>
	<node id="-590392" lat="62.9752916662" lon="7.0762388892">
		<tag k="name" v="Hustadbukta" />
		<tag k="natural" v="bay" />
		<tag k="ssr:stedsnr" v="376044" />
	</node>
	<node id="-590391" lat="62.9659499975" lon="6.95821667314">
		<tag k="fixme" v="consider seamark:type=rock or natural=shoal" />
		<tag k="name" v="Hysskjæret" />
		<tag k="place" v="islet" />
		<tag k="ssr:stedsnr" v="376039" />
	</node>
	<node id="-592436" lat="62.8768138877" lon="6.89257222829">
		<tag k="name" v="Skolten" />
		<tag k="natural" v="shoal" />
		<tag k="place" v="locality" />
		<tag k="ssr:stedsnr" v="900832" />
	</node>
	<node id="-592435" lat="62.968197222" lon="6.92493889193">
		<tag k="bay" v="fjord" />
		<tag k="name" v="Breidsundleia" />
		<tag k="natural" v="bay" />
		<tag k="ssr:stedsnr" v="900737" />
	</node>
	<node id="-592434" lat="62.970550004" lon="7.08266666479">
		<tag k="name" v="Brygga" />
		<tag k="natural" v="shoal" />
		<tag k="place" v="locality" />
		<tag k="ssr:stedsnr" v="900703" />
	</node>
	<node id="-592433" lat="62.8385444452" lon="7.1705999992">
		<tag k="name" v="Kjøvhaugbukta" />
		<tag k="natural" v="bay" />
		<tag k="ssr:stedsnr" v="900046" />
	</node>
	<node id="-592432" lat="63.0098305595" lon="7.2122305614">
		<tag k="fixme" v="consider seamark:type=rock or natural=shoal" />
		<tag k="name" v="Svartskjæret" />
		<tag k="place" v="islet" />
		<tag k="ssr:stedsnr" v="899908" />
	</node>
	<node id="-592431" lat="62.8901166647" lon="6.91635000886">
		<tag k="name" v="Gulskallen" />
		<tag k="natural" v="shoal" />
		<tag k="place" v="locality" />
		<tag k="ssr:stedsnr" v="899883" />
	</node>
	<node id="-590382" lat="62.8168333302" lon="7.15402777066">
		<tag k="alt_name" v="Sommarneset;Sommarnestangen" />
		<tag k="name" v="Sommarnes" />
		<tag k="natural" v="cape" />
		<tag k="ssr:stedsnr" v="375761" />
	</node>
	<node id="-592429" lat="62.9792555572" lon="6.98630278648">
		<tag k="fixme" v="consider seamark:type=rock or natural=shoal" />
		<tag k="name" v="Kobberauskjæra" />
		<tag k="place" v="islet" />
		<tag k="ssr:stedsnr" v="899609" />
	</node>
	<node id="-592428" lat="62.9780555552" lon="7.05046111207">
		<tag k="fixme" v="consider seamark:type=rock or natural=shoal" />
		<tag k="name" v="Landego" />
		<tag k="place" v="islet" />
		<tag k="ssr:stedsnr" v="899604" />
	</node>
	<node id="-592427" lat="62.9500222217" lon="6.96556110809">
		<tag k="name" v="Hommeløybåen" />
		<tag k="natural" v="shoal" />
		<tag k="place" v="locality" />
		<tag k="ssr:stedsnr" v="899586" />
	</node>
	<node id="-592426" lat="62.9759555583" lon="6.88689443793">
		<tag k="name" v="Flurøra" />
		<tag k="place" v="locality" />
		<tag k="ssr:stedsnr" v="899554" />
	</node>
	<node id="-590374" lat="62.8374666679" lon="7.03858888728">
		<tag k="name" v="Tornesneset" />
		<tag k="natural" v="cape" />
		<tag k="ssr:stedsnr" v="375161" />
	</node>
	<node id="-592418" lat="63.051377779" lon="6.97603887974">
		<tag k="name" v="Utgrunnen" />
		<tag k="natural" v="shoal" />
		<tag k="place" v="locality" />
		<tag k="ssr:stedsnr" v="862620" />
	</node>
	<node id="-592417" lat="63.0360916676" lon="7.0150249929">
		<tag k="name" v="Skrevelsklakken" />
		<tag k="natural" v="shoal" />
		<tag k="place" v="locality" />
		<tag k="ssr:stedsnr" v="862612" />
	</node>
	<node id="-590367" lat="62.9009250016" lon="6.90918610768">
		<tag k="name" v="Rundholmen" />
		<tag k="place" v="islet" />
		<tag k="ssr:stedsnr" v="375062" />
	</node>
	<node id="-590365" lat="62.8180194408" lon="7.16567222127">
		<tag k="name" v="Sommarnesgrunna" />
		<tag k="natural" v="shoal" />
		<tag k="place" v="locality" />
		<tag k="ssr:stedsnr" v="354019" />
	</node>
	<node id="-590364" lat="62.9798388913" lon="6.74375555334">
		<tag k="name" v="Eisteinen" />
		<tag k="natural" v="shoal" />
		<tag k="place" v="locality" />
		<tag k="ssr:stedsnr" v="353879" />
	</node>
	<node id="-590363" lat="62.8964111097" lon="6.8423388889">
		<tag k="name" v="Staflua" />
		<tag k="natural" v="shoal" />
		<tag k="place" v="locality" />
		<tag k="ssr:stedsnr" v="353818" />
	</node>
	<node id="-590362" lat="62.9812527812" lon="6.99159167492">
		<tag k="name" v="Kobberaua" />
		<tag k="natural" v="shoal" />
		<tag k="place" v="locality" />
		<tag k="ssr:stedsnr" v="353738" />
	</node>
	<node id="-590360" lat="62.972572226" lon="7.07292500883">
		<tag k="name" v="Hakketaren" />
		<tag k="natural" v="shoal" />
		<tag k="place" v="locality" />
		<tag k="ssr:stedsnr" v="353692" />
	</node>
	<node id="-590359" lat="62.9197083309" lon="6.86469444775">
		<tag k="name" v="Simonflua" />
		<tag k="natural" v="shoal" />
		<tag k="place" v="locality" />
		<tag k="ssr:stedsnr" v="353671" />
	</node>
	<node id="-590358" lat="62.9368027762" lon="6.91975277141">
		<tag k="name" v="Ryssen" />
		<tag k="natural" v="shoal" />
		<tag k="place" v="locality" />
		<tag k="ssr:stedsnr" v="353669" />
	</node>
	<node id="-590357" lat="62.9742944467" lon="6.99532499584">
		<tag k="name" v="Moholmbukta" />
		<tag k="natural" v="bay" />
		<tag k="ssr:stedsnr" v="353611" />
	</node>
	<node id="-592404" lat="62.9524805512" lon="6.89635555787">
		<tag k="name" v="Kringsleia" />
		<tag k="natural" v="strait" />
		<tag k="ssr:stedsnr" v="862026" />
	</node>
	<node id="-592403" lat="62.9528666649" lon="6.94069443673">
		<tag k="bay" v="fjord" />
		<tag k="name" v="Midtfjorden" />
		<tag k="natural" v="bay" />
		<tag k="ssr:stedsnr" v="862025" />
	</node>
	<node id="-590354" lat="63.0404027745" lon="6.77253610302">
		<tag k="name" v="Myre" />
		<tag k="natural" v="shoal" />
		<tag k="place" v="locality" />
		<tag k="ssr:stedsnr" v="353380" />
	</node>
	<node id="-592401" lat="62.9526388918" lon="7.00309722874">
		<tag k="name" v="Skutholmen" />
		<tag k="place" v="islet" />
		<tag k="ssr:stedsnr" v="862021" />
	</node>
	<node id="-590352" lat="63.0260833293" lon="7.18360276876">
		<tag k="name" v="Ekneskjærfluan" />
		<tag k="natural" v="shoal" />
		<tag k="place" v="locality" />
		<tag k="ssr:stedsnr" v="352911" />
	</node>
	<node id="-590351" lat="63.0257694472" lon="7.25414444667">
		<tag k="name" v="Langbaken" />
		<tag k="natural" v="shoal" />
		<tag k="place" v="locality" />
		<tag k="ssr:stedsnr" v="352886" />
	</node>
	<node id="-590350" lat="63.0116000007" lon="6.94333333883">
		<tag k="name" v="Midtre Seiklakkskallan" />
		<tag k="natural" v="shoal" />
		<tag k="place" v="locality" />
		<tag k="ssr:stedsnr" v="352131" />
	</node>
	<node id="-590347" lat="62.9895722212" lon="7.00709166535">
		<tag k="name" v="Kråkflua" />
		<tag k="natural" v="shoal" />
		<tag k="place" v="locality" />
		<tag k="ssr:stedsnr" v="350719" />
	</node>
	<node id="-592394" lat="62.811508336" lon="7.17751666021">
		<tag k="bay" v="fjord" />
		<tag k="name" v="Malmefjorden" />
		<tag k="natural" v="bay" />
		<tag k="ssr:stedsnr" v="861776" />
	</node>
	<node id="-592383" lat="62.8361694429" lon="6.99745276887">
		<tag k="name" v="Hamnneset" />
		<tag k="natural" v="cape" />
		<tag k="ssr:stedsnr" v="861169" />
	</node>
	<node id="-592382" lat="62.8925621197" lon="6.82892113251">
		<tag k="name" v="Nordøya" />
		<tag k="place" v="islet" />
		<tag k="ssr:stedsnr" v="861167" />
	</node>
	<node id="-592375" lat="62.8730555542" lon="6.98138888675">
		<tag k="name" v="Stavika" />
		<tag k="natural" v="bay" />
		<tag k="ssr:stedsnr" v="861120" />
	</node>
	<node id="-592373" lat="62.9783222214" lon="6.97945832997">
		<tag k="fixme" v="consider seamark:type=rock or natural=shoal" />
		<tag k="name" v="Litlålvora" />
		<tag k="place" v="islet" />
		<tag k="ssr:stedsnr" v="861040" />
	</node>
	<node id="-592372" lat="62.987638893" lon="7.1056861133">
		<tag k="name" v="Taksneset" />
		<tag k="natural" v="cape" />
		<tag k="ssr:stedsnr" v="861041" />
	</node>
	<node id="-592371" lat="62.9726805555" lon="6.94504165703">
		<tag k="name" v="Svorva" />
		<tag k="natural" v="shoal" />
		<tag k="place" v="locality" />
		<tag k="ssr:stedsnr" v="861032" />
	</node>
	<node id="-592368" lat="62.938952775" lon="6.94470833638">
		<tag k="name" v="Stabbefluan" />
		<tag k="natural" v="shoal" />
		<tag k="place" v="locality" />
		<tag k="ssr:stedsnr" v="839702" />
	</node>
	<node id="-592367" lat="62.9497944449" lon="6.95849721933">
		<tag k="name" v="Hommeløytaren" />
		<tag k="natural" v="shoal" />
		<tag k="place" v="locality" />
		<tag k="ssr:stedsnr" v="839607" />
	</node>
	<node id="-592365" lat="62.837291665" lon="7.1143916663">
		<tag k="name" v="Nordøysundet" />
		<tag k="natural" v="strait" />
		<tag k="ssr:stedsnr" v="839031" />
	</node>
	<node id="-592364" lat="62.8835444486" lon="6.7988833266">
		<tag k="fixme" v="consider seamark:type=rock or natural=shoal" />
		<tag k="name" v="Beielen" />
		<tag k="place" v="islet" />
		<tag k="ssr:stedsnr" v="839025" />
	</node>
	<node id="-592363" lat="62.9469694409" lon="6.87114444249">
		<tag k="name" v="Terningen" />
		<tag k="natural" v="shoal" />
		<tag k="place" v="locality" />
		<tag k="ssr:stedsnr" v="838588" />
	</node>
	<node id="-592361" lat="62.9819083317" lon="6.98844721391">
		<tag k="name" v="Moholmfluin" />
		<tag k="natural" v="shoal" />
		<tag k="place" v="locality" />
		<tag k="ssr:stedsnr" v="836768" />
	</node>
	<node id="-592360" lat="63.1023416693" lon="6.42033610842">
		<tag k="name" v="Budagrunnen" />
		<tag k="natural" v="shoal" />
		<tag k="place" v="locality" />
		<tag k="ssr:stedsnr" v="835187" />
	</node>
	<node id="-592359" lat="62.8077583295" lon="7.21776666655">
		<tag k="name" v="Øyrneset" />
		<tag k="natural" v="cape" />
		<tag k="ssr:stedsnr" v="824994" />
	</node>
	<node id="-590310" lat="62.9740444404" lon="7.09038889241">
		<tag k="name" v="Oksebåsen" />
		<tag k="natural" v="bay" />
		<tag k="ssr:stedsnr" v="338673" />
	</node>
	<node id="-592357" lat="63.0068833371" lon="7.20192221824">
		<tag k="name" v="Draget" />
		<tag k="place" v="island" />
		<tag k="ssr:stedsnr" v="824954" />
	</node>
	<node id="-590308" lat="62.9841611101" lon="7.08864722258">
		<tag k="name" v="Hoksneset" />
		<tag k="natural" v="cape" />
		<tag k="ssr:stedsnr" v="338664" />
	</node>
	<node id="-592354" lat="62.9326835003" lon="6.96945890811">
		<tag k="name" v="Buvika" />
		<tag k="natural" v="bay" />
		<tag k="ssr:stedsnr" v="824934" />
	</node>
	<node id="-592352" lat="62.8503277745" lon="7.15408611753">
		<tag k="name" v="Storvika" />
		<tag k="natural" v="bay" />
		<tag k="ssr:stedsnr" v="824889" />
	</node>
	<node id="-590296" lat="62.8342583339" lon="7.09523055946">
		<tag k="name" v="Ålvorbukta" />
		<tag k="natural" v="bay" />
		<tag k="ssr:stedsnr" v="338535" />
	</node>
	<node id="-590293" lat="62.8402749968" lon="7.15060277541">
		<tag k="alt_name" v="Garkloppa" />
		<tag k="name" v="Gårkloppa" />
		<tag k="place" v="islet" />
		<tag k="ssr:stedsnr" v="338521" />
	</node>
	<node id="-590292" lat="62.839586109" lon="7.14510832592">
		<tag k="name" v="Grisneset" />
		<tag k="natural" v="cape" />
		<tag k="ssr:stedsnr" v="338519" />
	</node>
	<node id="-592337" lat="62.967994445" lon="7.08107222533">
		<tag k="name" v="Nerlandsbukta" />
		<tag k="natural" v="bay" />
		<tag k="ssr:stedsnr" v="824734" />
	</node>
	<node id="-590287" lat="62.92286667" lon="6.94241110265">
		<tag k="name" v="Hundsholet" />
		<tag k="natural" v="bay" />
		<tag k="ssr:stedsnr" v="338457" />
	</node>
	<node id="-590285" lat="62.9618166648" lon="7.04174443735">
		<tag k="name" v="Store Gjengstøa" />
		<tag k="natural" v="bay" />
		<tag k="ssr:stedsnr" v="338414" />
	</node>
	<node id="-592332" lat="62.992858334" lon="7.17875555541">
		<tag k="name" v="Sandvikbukta" />
		<tag k="natural" v="bay" />
		<tag k="ssr:stedsnr" v="824722" />
	</node>
	<node id="-590283" lat="62.8293777787" lon="7.02846945089">
		<tag k="name" v="Vågøyneset" />
		<tag k="natural" v="cape" />
		<tag k="ssr:stedsnr" v="338405" />
	</node>
	<node id="-590282" lat="62.8347499986" lon="6.99639166338">
		<tag k="name" v="Rotvikbukta" />
		<tag k="natural" v="bay" />
		<tag k="ssr:stedsnr" v="338399" />
	</node>
	<node id="-590281" lat="62.8436472266" lon="6.99378055437">
		<tag k="fixme" v="consider seamark:type=rock or natural=shoal" />
		<tag k="name" v="Leverskjæret" />
		<tag k="place" v="islet" />
		<tag k="ssr:stedsnr" v="338387" />
	</node>
	<node id="-590280" lat="62.8508222249" lon="7.00498610943">
		<tag k="name" v="Langneset" />
		<tag k="natural" v="cape" />
		<tag k="ssr:stedsnr" v="338375" />
	</node>
	<node id="-590275" lat="62.8791305557" lon="6.96269445169">
		<tag k="name" v="Knutholmen" />
		<tag k="place" v="islet" />
		<tag k="ssr:stedsnr" v="338346" />
	</node>
	<node id="-590272" lat="62.8755555532" lon="6.87385000758">
		<tag k="fixme" v="consider seamark:type=rock or natural=shoal" />
		<tag k="name" v="Kleppskjæret" />
		<tag k="place" v="islet" />
		<tag k="ssr:stedsnr" v="338310" />
	</node>
	<node id="-590271" lat="62.9056916666" lon="6.87748332848">
		<tag k="name" v="Søre Odden" />
		<tag k="place" v="islet" />
		<tag k="ssr:stedsnr" v="338296" />
	</node>
	<node id="-592318" lat="62.8180527768" lon="7.11756666552">
		<tag k="name" v="Litleholmen" />
		<tag k="place" v="islet" />
		<tag k="ssr:stedsnr" v="824595" />
	</node>
	<node id="-592314" lat="62.8682916673" lon="6.99143055807">
		<tag k="name" v="Storvikneset" />
		<tag k="natural" v="cape" />
		<tag k="ssr:stedsnr" v="824545" />
	</node>
	<node id="-592313" lat="62.9595138886" lon="7.02864443543">
		<tag k="fixme" v="consider seamark:type=rock or natural=shoal" />
		<tag k="name" v="Ruggeskjæret" />
		<tag k="place" v="islet" />
		<tag k="ssr:stedsnr" v="824492" />
	</node>
	<node id="-592312" lat="62.8356833364" lon="7.00066110829">
		<tag k="name" v="Hamnnesbukta" />
		<tag k="natural" v="bay" />
		<tag k="ssr:stedsnr" v="824483" />
	</node>
	<node id="-592311" lat="62.834233337" lon="6.99657777408">
		<tag k="name" v="Hamnnesodden" />
		<tag k="natural" v="cape" />
		<tag k="ssr:stedsnr" v="824481" />
	</node>
	<node id="-592307" lat="62.7978944458" lon="6.9822138869">
		<tag k="name" v="Vorpeberget" />
		<tag k="natural" v="cape" />
		<tag k="ssr:stedsnr" v="824430" />
	</node>
	<node id="-592306" lat="62.8781055593" lon="6.95888887947">
		<tag k="fixme" v="consider seamark:type=rock or natural=shoal" />
		<tag k="name" v="Kråkungen" />
		<tag k="place" v="islet" />
		<tag k="ssr:stedsnr" v="824426" />
	</node>
	<node id="-592430" lat="63.0117833329" lon="7.14845554615">
		<tag k="name" v="Øksningan" />
		<tag k="natural" v="shoal" />
		<tag k="place" v="locality" />
		<tag k="ssr:stedsnr" v="899614" />
	</node>
	<node id="-592302" lat="62.8871277737" lon="6.84244722614">
		<tag k="name" v="Vagrasholman" />
		<tag k="place" v="islet" />
		<tag k="ssr:stedsnr" v="824399" />
	</node>
	<node id="-592300" lat="62.8193388896" lon="7.00156111736">
		<tag k="fixme" v="consider seamark:type=rock or natural=shoal" />
		<tag k="name" v="Steinskjæra" />
		<tag k="place" v="islet" />
		<tag k="ssr:stedsnr" v="824329" />
	</node>
	<node id="-592299" lat="62.8121916656" lon="7.01739444808">
		<tag k="name" v="Klauvfeta" />
		<tag k="natural" v="beach" />
		<tag k="place" v="locality" />
		<tag k="ssr:stedsnr" v="824325" />
	</node>
	<node id="-592298" lat="62.8853083358" lon="6.79233054619">
		<tag k="fixme" v="consider seamark:type=rock or natural=shoal" />
		<tag k="name" v="Pessholmskjeret" />
		<tag k="place" v="islet" />
		<tag k="ssr:stedsnr" v="824099" />
	</node>
	<node id="-590240" lat="62.9693111072" lon="6.9973999943">
		<tag k="name" v="Senholmen" />
		<tag k="place" v="islet" />
		<tag k="ssr:stedsnr" v="315032" />
	</node>
	<node id="-590235" lat="62.8323009216" lon="7.13793825626">
		<tag k="alt_name" v="Svinøya" />
		<tag k="name" v="Svenøya" />
		<tag k="place" v="island" />
		<tag k="ssr:stedsnr" v="314744" />
	</node>
	<node id="-590233" lat="63.0723333337" lon="6.8059138863">
		<tag k="name" v="Brusteinen" />
		<tag k="natural" v="shoal" />
		<tag k="place" v="locality" />
		<tag k="ssr:stedsnr" v="315624" />
	</node>
	<node id="-590231" lat="62.886766669" lon="6.94469999285">
		<tag k="name" v="Teistholmen" />
		<tag k="place" v="islet" />
		<tag k="ssr:stedsnr" v="314187" />
	</node>
	<node id="-592277" lat="62.7919722186" lon="6.97392222106">
		<tag k="name" v="Lauvholmen" />
		<tag k="place" v="islet" />
		<tag k="ssr:stedsnr" v="801789" />
	</node>
	<node id="-590228" lat="62.9373166637" lon="6.90061943487">
		<tag k="name" v="Kverna" />
		<tag k="natural" v="shoal" />
		<tag k="place" v="locality" />
		<tag k="ssr:stedsnr" v="293684" />
	</node>
	<node id="-590226" lat="62.9786666631" lon="7.02206389191">
		<tag k="name" v="Myrbøtaren" />
		<tag k="natural" v="shoal" />
		<tag k="place" v="locality" />
		<tag k="ssr:stedsnr" v="292588" />
	</node>
	<node id="-590225" lat="62.9617138851" lon="6.96561666332">
		<tag k="fixme" v="consider seamark:type=rock or natural=shoal" />
		<tag k="name" v="Såpskjæret" />
		<tag k="place" v="islet" />
		<tag k="ssr:stedsnr" v="292562" />
	</node>
	<node id="-592272" lat="63.0153527757" lon="7.19758611452">
		<tag k="fixme" v="consider seamark:type=rock or natural=shoal" />
		<tag k="name" v="Gylta" />
		<tag k="place" v="islet" />
		<tag k="ssr:stedsnr" v="801659" />
	</node>
	<node id="-592271" lat="63.0028138897" lon="7.19294721521">
		<tag k="alt_name" v="Moldvarden, store;Moldvarden" />
		<tag k="name" v="Store Moldvarden" />
		<tag k="place" v="islet" />
		<tag k="ssr:stedsnr" v="801645" />
	</node>
	<node id="-590222" lat="62.9944861123" lon="7.02075554726">
		<tag k="name" v="Langflua" />
		<tag k="natural" v="shoal" />
		<tag k="place" v="locality" />
		<tag k="ssr:stedsnr" v="292113" />
	</node>
	<node id="-592269" lat="63.0047249976" lon="7.24043055288">
		<tag k="name" v="Marholmen" />
		<tag k="place" v="islet" />
		<tag k="ssr:stedsnr" v="801403" />
	</node>
	<node id="-592266" lat="62.9499583367" lon="6.99836945341">
		<tag k="name" v="Storholmen" />
		<tag k="place" v="islet" />
		<tag k="ssr:stedsnr" v="801121" />
	</node>
	<node id="-590464" lat="62.9490777734" lon="7.01911944491">
		<tag k="name" v="Sjåholmvågen" />
		<tag k="natural" v="bay" />
		<tag k="ssr:stedsnr" v="399542" />
	</node>
	<node id="-590213" lat="62.8860527772" lon="6.80429999095">
		<tag k="fixme" v="consider seamark:type=rock or natural=shoal" />
		<tag k="name" v="Kjelen" />
		<tag k="place" v="islet" />
		<tag k="ssr:stedsnr" v="278096" />
	</node>
	<node id="-590212" lat="62.884000002" lon="6.79677776833">
		<tag k="fixme" v="consider seamark:type=rock or natural=shoal" />
		<tag k="name" v="Litle Grønskjeret" />
		<tag k="place" v="islet" />
		<tag k="ssr:stedsnr" v="278091" />
	</node>
	<node id="-592259" lat="62.8141166665" lon="6.99486943959">
		<tag k="name" v="Kjeholmen" />
		<tag k="place" v="islet" />
		<tag k="ssr:stedsnr" v="800755" />
	</node>
	<node id="-592258" lat="62.8178224586" lon="7.1118568261">
		<tag k="name" v="Aureholmen" />
		<tag k="place" v="islet" />
		<tag k="ssr:stedsnr" v="800741" />
	</node>
	<node id="-590229" lat="62.9808444459" lon="7.01860000006">
		<tag k="name" v="Seibogen" />
		<tag k="natural" v="shoal" />
		<tag k="place" v="locality" />
		<tag k="ssr:stedsnr" v="293692" />
	</node>
	<node id="-590203" lat="62.919161113" lon="6.92053333285">
		<tag k="fixme" v="consider seamark:type=rock or natural=shoal" />
		<tag k="name" v="Dubla" />
		<tag k="place" v="islet" />
		<tag k="ssr:stedsnr" v="277952" />
	</node>
	<node id="-592250" lat="62.8421694478" lon="7.16023610506">
		<tag k="name" v="Elnestangen" />
		<tag k="natural" v="cape" />
		<tag k="ssr:stedsnr" v="800211" />
	</node>
	<node id="-592246" lat="62.8945166643" lon="6.97367778271">
		<tag k="name" v="Vestadvågen" />
		<tag k="natural" v="bay" />
		<tag k="ssr:stedsnr" v="800182" />
	</node>
	<node id="-592242" lat="62.836738887" lon="7.03651666073">
		<tag k="name" v="Nesodden" />
		<tag k="natural" v="cape" />
		<tag k="ssr:stedsnr" v="787835" />
	</node>
	<node id="-592241" lat="62.9576000009" lon="6.92853055834">
		<tag k="name" v="Sveet" />
		<tag k="natural" v="shoal" />
		<tag k="place" v="locality" />
		<tag k="ssr:stedsnr" v="778723" />
	</node>
	<node id="-592240" lat="62.9435583358" lon="6.98512777266">
		<tag k="fixme" v="consider seamark:type=rock or natural=shoal" />
		<tag k="name" v="Vidfarskjæret" />
		<tag k="place" v="islet" />
		<tag k="ssr:stedsnr" v="778573" />
	</node>
	<node id="-592239" lat="62.9887499989" lon="6.75866666819">
		<tag k="name" v="Karl med hammaren" />
		<tag k="natural" v="shoal" />
		<tag k="place" v="locality" />
		<tag k="ssr:stedsnr" v="778356" />
	</node>
	<node id="-590190" lat="62.8183388846" lon="7.00698610882">
		<tag k="name" v="Kuholmen" />
		<tag k="place" v="islet" />
		<tag k="ssr:stedsnr" v="277843" />
	</node>
	<node id="-592237" lat="62.872577782" lon="6.99286944338">
		<tag k="name" v="Stavikbukta" />
		<tag k="natural" v="bay" />
		<tag k="ssr:stedsnr" v="778195" />
	</node>
	<node id="-592236" lat="62.8353944461" lon="7.1714611179">
		<tag k="name" v="Elnesflua" />
		<tag k="natural" v="shoal" />
		<tag k="place" v="locality" />
		<tag k="ssr:stedsnr" v="778041" />
	</node>
	<node id="-592235" lat="63.0420444407" lon="7.15832221767">
		<tag k="name" v="Dotten" />
		<tag k="natural" v="shoal" />
		<tag k="place" v="locality" />
		<tag k="ssr:stedsnr" v="777901" />
	</node>
	<node id="-592234" lat="63.0180555553" lon="7.2833972146">
		<tag k="name" v="Holmeskallen" />
		<tag k="natural" v="shoal" />
		<tag k="place" v="locality" />
		<tag k="ssr:stedsnr" v="777898" />
	</node>
	<node id="-590185" lat="62.8114472234" lon="7.2395444485">
		<tag k="name" v="Hanøygardsvorpa" />
		<tag k="place" v="locality" />
		<tag k="ssr:stedsnr" v="277803" />
	</node>
	<node id="-592232" lat="62.9543249997" lon="6.89537778752">
		<tag k="name" v="Kringsflua" />
		<tag k="natural" v="shoal" />
		<tag k="place" v="locality" />
		<tag k="ssr:stedsnr" v="777553" />
	</node>
	<node id="-590224" lat="62.9562611082" lon="7.00263333718">
		<tag k="name" v="Skutholmtaren" />
		<tag k="natural" v="shoal" />
		<tag k="place" v="locality" />
		<tag k="ssr:stedsnr" v="292554" />
	</node>
	<node id="-590173" lat="62.9878111137" lon="7.11268055674">
		<tag k="name" v="Andersvika" />
		<tag k="natural" v="bay" />
		<tag k="ssr:stedsnr" v="277697" />
	</node>
	<node id="-592215" lat="62.8939888887" lon="6.95531667167">
		<tag k="name" v="Håsundet" />
		<tag k="natural" v="strait" />
		<tag k="ssr:stedsnr" v="763906" />
	</node>
	<node id="-592213" lat="62.8170027757" lon="7.08065833736">
		<tag k="name" v="Rotneset" />
		<tag k="natural" v="cape" />
		<tag k="ssr:stedsnr" v="763884" />
	</node>
	<node id="-592208" lat="62.820861114" lon="7.02278888">
		<tag k="name" v="Valen" />
		<tag k="natural" v="bay" />
		<tag k="ssr:stedsnr" v="763831" />
	</node>
	<node id="-590221" lat="62.8961833354" lon="6.937075006">
		<tag k="fixme" v="consider seamark:type=rock or natural=shoal" />
		<tag k="name" v="Gulskjæret" />
		<tag k="place" v="islet" />
		<tag k="ssr:stedsnr" v="290632" />
	</node>
	<node id="-590156" lat="62.8482138915" lon="7.15073611106">
		<tag k="name" v="Elnesvågen" />
		<tag k="natural" v="bay" />
		<tag k="ssr:stedsnr" v="277551" />
	</node>
	<node id="-590155" lat="62.8343027814" lon="7.1600249988">
		<tag k="name" v="Svenøytangen" />
		<tag k="natural" v="cape" />
		<tag k="ssr:stedsnr" v="277547" />
	</node>
	<node id="-590154" lat="62.8385388931" lon="7.14049722488">
		<tag k="name" v="Grisvågen" />
		<tag k="natural" v="bay" />
		<tag k="ssr:stedsnr" v="277540" />
	</node>
	<node id="-590153" lat="62.834905553" lon="7.13578334235">
		<tag k="name" v="Svenøysundet" />
		<tag k="natural" v="strait" />
		<tag k="ssr:stedsnr" v="277538" />
	</node>
	<node id="-592199" lat="62.9704361073" lon="7.06557499708">
		<tag k="fixme" v="consider seamark:type=rock or natural=shoal" />
		<tag k="name" v="Råkaskjæret" />
		<tag k="place" v="islet" />
		<tag k="ssr:stedsnr" v="763732" />
	</node>
	<node id="-592196" lat="62.9840861116" lon="7.14916666854">
		<tag k="name" v="Farstadbukta" />
		<tag k="natural" v="bay" />
		<tag k="ssr:stedsnr" v="763705" />
	</node>
	<node id="-592195" lat="62.9822472247" lon="7.15159445016">
		<tag k="name" v="Farstadsanden" />
		<tag k="natural" v="beach" />
		<tag k="place" v="locality" />
		<tag k="ssr:stedsnr" v="763704" />
	</node>
	<node id="-590145" lat="62.8257277813" lon="7.03108056179">
		<tag k="name" v="Vorpneset" />
		<tag k="natural" v="cape" />
		<tag k="ssr:stedsnr" v="277439" />
	</node>
	<node id="-590142" lat="62.8375194426" lon="7.03520832675">
		<tag k="name" v="Nilsneset" />
		<tag k="natural" v="cape" />
		<tag k="ssr:stedsnr" v="277429" />
	</node>
	<node id="-590218" lat="62.9677722196" lon="6.95440278628">
		<tag k="name" v="Hysskjærfalla" />
		<tag k="place" v="locality" />
		<tag k="ssr:stedsnr" v="289807" />
	</node>
	<node id="-590136" lat="62.7987750004" lon="6.9879166625">
		<tag k="name" v="Simogarden" />
		<tag k="natural" v="beach" />
		<tag k="place" v="locality" />
		<tag k="ssr:stedsnr" v="277387" />
	</node>
	<node id="-592183" lat="62.8420833298" lon="7.08179444519">
		<tag k="name" v="Løsetbukta" />
		<tag k="natural" v="bay" />
		<tag k="ssr:stedsnr" v="763608" />
	</node>
	<node id="-592180" lat="62.8485861093" lon="7.17048056099">
		<tag k="name" v="Knorrholmen" />
		<tag k="natural" v="cape" />
		<tag k="ssr:stedsnr" v="763574" />
	</node>
	<node id="-592178" lat="62.8734444462" lon="6.99089444203">
		<tag k="fixme" v="consider seamark:type=rock or natural=shoal" />
		<tag k="name" v="Vedabergblua" />
		<tag k="place" v="islet" />
		<tag k="ssr:stedsnr" v="763563" />
	</node>
	<node id="-592177" lat="62.8764666666" lon="6.96503889225">
		<tag k="name" v="Nesaholmen" />
		<tag k="place" v="islet" />
		<tag k="ssr:stedsnr" v="763561" />
	</node>
	<node id="-590128" lat="62.8984250036" lon="6.92259722648">
		<tag k="name" v="Kunteitelsundet" />
		<tag k="natural" v="strait" />
		<tag k="ssr:stedsnr" v="277342" />
	</node>
	<node id="-592175" lat="62.934680555" lon="6.93942777402">
		<tag k="name" v="Romsdalsholmen" />
		<tag k="place" v="islet" />
		<tag k="ssr:stedsnr" v="763541" />
	</node>
	<node id="-590126" lat="62.8900555575" lon="6.83451943829">
		<tag k="name" v="Bjørnøysundet" />
		<tag k="natural" v="strait" />
		<tag k="ssr:stedsnr" v="277320" />
	</node>
	<node id="-592173" lat="62.9521249966" lon="7.02785556336">
		<tag k="name" v="Skutsanden" />
		<tag k="natural" v="bay" />
		<tag k="ssr:stedsnr" v="763517" />
	</node>
	<node id="-592172" lat="62.9604611152" lon="7.02608055708">
		<tag k="alt_name" v="Hotten" />
		<tag k="name" v="Tobakkshotten" />
		<tag k="place" v="islet" />
		<tag k="ssr:stedsnr" v="763516" />
	</node>
	<node id="-592171" lat="62.822833334" lon="7.03737221245">
		<tag k="fixme" v="consider seamark:type=rock or natural=shoal" />
		<tag k="name" v="Hjellskjæret" />
		<tag k="place" v="islet" />
		<tag k="ssr:stedsnr" v="763501" />
	</node>
	<node id="-592170" lat="62.8230833379" lon="7.04290277846">
		<tag k="name" v="Naustholmen" />
		<tag k="place" v="islet" />
		<tag k="ssr:stedsnr" v="763499" />
	</node>
	<node id="-592169" lat="62.8227027816" lon="7.00783334225">
		<tag k="fixme" v="consider seamark:type=rock or natural=shoal" />
		<tag k="name" v="Notaskjæret" />
		<tag k="place" v="islet" />
		<tag k="ssr:stedsnr" v="763489" />
	</node>
	<node id="-592161" lat="62.8536611122" lon="7.00768611143">
		<tag k="fixme" v="consider seamark:type=rock or natural=shoal" />
		<tag k="name" v="Leverskjeret" />
		<tag k="place" v="islet" />
		<tag k="ssr:stedsnr" v="763457" />
	</node>
	<node id="-592158" lat="62.8818416632" lon="6.96783056281">
		<tag k="name" v="Vestadvikan" />
		<tag k="natural" v="strait" />
		<tag k="ssr:stedsnr" v="763431" />
	</node>
	<node id="-592155" lat="62.8833305571" lon="6.85723888257">
		<tag k="fixme" v="consider seamark:type=rock or natural=shoal" />
		<tag k="name" v="Skarveskjæret" />
		<tag k="place" v="islet" />
		<tag k="ssr:stedsnr" v="763395" />
	</node>
	<node id="-592152" lat="62.8967250033" lon="6.82143054786">
		<tag k="name" v="Måøybarane" />
		<tag k="place" v="islet" />
		<tag k="ssr:stedsnr" v="763378" />
	</node>
	<node id="-592151" lat="62.8836222215" lon="6.79710277373">
		<tag k="name" v="Grønskjerhamna" />
		<tag k="natural" v="bay" />
		<tag k="ssr:stedsnr" v="763094" />
	</node>
	<node id="-592150" lat="62.8856972194" lon="6.80330833314">
		<tag k="name" v="Løyeskjærsundet" />
		<tag k="natural" v="strait" />
		<tag k="ssr:stedsnr" v="763089" />
	</node>
	<node id="-590548" lat="62.8544722182" lon="7.00886110948">
		<tag k="name" v="Strandhaugbukta" />
		<tag k="natural" v="bay" />
		<tag k="ssr:stedsnr" v="884394" />
	</node>
	<node id="-592118" lat="62.9933444444" lon="6.92911667083">
		<tag k="bay" v="fjord" />
		<tag k="name" v="Klakkedjupet" />
		<tag k="natural" v="bay" />
		<tag k="ssr:stedsnr" v="740685" />
	</node>
	<node id="-592116" lat="63.0492694412" lon="7.14318888016">
		<tag k="name" v="Fuglkrakken" />
		<tag k="natural" v="shoal" />
		<tag k="place" v="locality" />
		<tag k="ssr:stedsnr" v="740610" />
	</node>
	<node id="-592115" lat="63.0374861075" lon="7.14587500654">
		<tag k="name" v="Langflua" />
		<tag k="natural" v="shoal" />
		<tag k="place" v="locality" />
		<tag k="ssr:stedsnr" v="740608" />
	</node>
	<node id="-592114" lat="63.0430194476" lon="7.17287499892">
		<tag k="fixme" v="consider seamark:type=rock or natural=shoal" />
		<tag k="name" v="Helbogan" />
		<tag k="place" v="islet" />
		<tag k="ssr:stedsnr" v="740607" />
	</node>
	<node id="-590205" lat="62.9630472266" lon="7.09403889783">
		<tag k="name" v="Auså" />
		<tag k="natural" v="bay" />
		<tag k="ssr:stedsnr" v="277981" />
	</node>
	<node id="-592105" lat="62.9190805559" lon="6.93662500801">
		<tag k="name" v="Fagervika" />
		<tag k="natural" v="bay" />
		<tag k="ssr:stedsnr" v="740084" />
	</node>
	<node id="-592103" lat="62.9830611119" lon="7.11918889836">
		<tag k="name" v="Storholmvågen" />
		<tag k="natural" v="bay" />
		<tag k="ssr:stedsnr" v="740037" />
	</node>
	<node id="-592102" lat="62.9832361122" lon="7.01320555554">
		<tag k="fixme" v="consider seamark:type=rock or natural=shoal" />
		<tag k="name" v="Kråka" />
		<tag k="place" v="islet" />
		<tag k="ssr:stedsnr" v="740038" />
	</node>
	<node id="-592101" lat="62.984163887" lon="7.1332111156">
		<tag k="name" v="Hostadneset" />
		<tag k="natural" v="cape" />
		<tag k="ssr:stedsnr" v="740034" />
	</node>
	<node id="-592089" lat="62.8820328183" lon="6.95026109446">
		<tag k="name" v="Indre Harøya" />
		<tag k="place" v="island" />
		<tag k="ssr:stedsnr" v="739158" />
	</node>
	<node id="-592086" lat="62.8996166675" lon="6.9638166669">
		<tag k="name" v="Gulvågen" />
		<tag k="natural" v="bay" />
		<tag k="ssr:stedsnr" v="739067" />
	</node>
	<node id="-592085" lat="62.9690888872" lon="6.98666388474">
		<tag k="fixme" v="consider seamark:type=rock or natural=shoal" />
		<tag k="name" v="Hundesteinen" />
		<tag k="place" v="islet" />
		<tag k="ssr:stedsnr" v="739037" />
	</node>
	<node id="-592084" lat="62.8220111127" lon="7.13470277509">
		<tag k="name" v="Bitsteinneset" />
		<tag k="natural" v="shoal" />
		<tag k="place" v="locality" />
		<tag k="ssr:stedsnr" v="718012" />
	</node>
	<node id="-592083" lat="62.9790722234" lon="7.03302778404">
		<tag k="name" v="Ænesfallet" />
		<tag k="natural" v="shoal" />
		<tag k="place" v="locality" />
		<tag k="ssr:stedsnr" v="717699" />
	</node>
	<node id="-592081" lat="63.0026972199" lon="7.16271944052">
		<tag k="name" v="Stålflua" />
		<tag k="natural" v="shoal" />
		<tag k="place" v="locality" />
		<tag k="ssr:stedsnr" v="716623" />
	</node>
	<node id="-592080" lat="62.989388885" lon="7.14002500891">
		<tag k="name" v="Breivikfluan" />
		<tag k="natural" v="shoal" />
		<tag k="place" v="locality" />
		<tag k="ssr:stedsnr" v="716619" />
	</node>
	<node id="-592079" lat="63.0492277818" lon="6.99201667538">
		<tag k="name" v="Farstadmidtklakken" />
		<tag k="natural" v="shoal" />
		<tag k="place" v="locality" />
		<tag k="ssr:stedsnr" v="716183" />
	</node>
	<node id="-592078" lat="63.0003972186" lon="7.08495555197">
		<tag k="name" v="Olpersataren" />
		<tag k="natural" v="shoal" />
		<tag k="place" v="locality" />
		<tag k="ssr:stedsnr" v="716161" />
	</node>
	<node id="-592077" lat="62.9945444488" lon="7.09615833838">
		<tag k="name" v="Pertaren" />
		<tag k="natural" v="shoal" />
		<tag k="place" v="locality" />
		<tag k="ssr:stedsnr" v="716158" />
	</node>
	<node id="-592076" lat="62.9870999981" lon="7.02352499784">
		<tag k="name" v="Bakskjorta" />
		<tag k="natural" v="shoal" />
		<tag k="place" v="locality" />
		<tag k="ssr:stedsnr" v="716149" />
	</node>
	<node id="-592075" lat="62.8665944482" lon="6.98889444252">
		<tag k="name" v="Storviktaren" />
		<tag k="natural" v="shoal" />
		<tag k="place" v="locality" />
		<tag k="ssr:stedsnr" v="716133" />
	</node>
	<node id="-592069" lat="62.825891663" lon="7.18413610794">
		<tag k="alt_name" v="Storevika" />
		<tag k="name" v="Storvika" />
		<tag k="natural" v="bay" />
		<tag k="ssr:stedsnr" v="702996" />
	</node>
	<node id="-592066" lat="62.8855444479" lon="6.950688898">
		<tag k="name" v="Kuneset" />
		<tag k="natural" v="cape" />
		<tag k="ssr:stedsnr" v="702935" />
	</node>
	<node id="-592065" lat="62.8849527815" lon="6.94295554548">
		<tag k="name" v="Hotten" />
		<tag k="place" v="islet" />
		<tag k="ssr:stedsnr" v="702936" />
	</node>
	<node id="-592064" lat="62.9669583338" lon="7.04282221754">
		<tag k="name" v="Omholmen" />
		<tag k="place" v="islet" />
		<tag k="ssr:stedsnr" v="702933" />
	</node>
	<node id="-590538" lat="62.8842638917" lon="6.8250944358">
		<tag k="fixme" v="consider seamark:type=rock or natural=shoal" />
		<tag k="name" v="Svartskjæret" />
		<tag k="place" v="islet" />
		<tag k="ssr:stedsnr" v="884334" />
	</node>
	<node id="-592412" lat="62.925772222" lon="6.92892500298">
		<tag k="fixme" v="consider seamark:type=rock or natural=shoal" />
		<tag k="name" v="Dragan" />
		<tag k="place" v="islet" />
		<tag k="ssr:stedsnr" v="862111" />
	</node>
	<node id="-590537" lat="62.8890555512" lon="6.81601666552">
		<tag k="name" v="Hessholmsundet" />
		<tag k="natural" v="strait" />
		<tag k="ssr:stedsnr" v="884312" />
	</node>
	<node id="-592045" lat="62.9666416677" lon="7.0868194401">
		<tag k="fixme" v="consider seamark:type=rock or natural=shoal" />
		<tag k="name" v="Kornskjæret" />
		<tag k="place" v="islet" />
		<tag k="ssr:stedsnr" v="702687" />
	</node>
	<node id="-592043" lat="62.9814555537" lon="7.12231944298">
		<tag k="name" v="Ropaneset" />
		<tag k="natural" v="cape" />
		<tag k="ssr:stedsnr" v="702665" />
	</node>
	<node id="-592030" lat="62.8196944423" lon="7.11721111365">
		<tag k="name" v="Notholmen" />
		<tag k="place" v="islet" />
		<tag k="ssr:stedsnr" v="702568" />
	</node>
	<node id="-592029" lat="62.8149111106" lon="7.11054444148">
		<tag k="name" v="Strandssundet" />
		<tag k="natural" v="strait" />
		<tag k="ssr:stedsnr" v="702566" />
	</node>
	<node id="-592028" lat="62.8302583323" lon="7.06906944336">
		<tag k="name" v="Tangholmen" />
		<tag k="place" v="islet" />
		<tag k="ssr:stedsnr" v="702564" />
	</node>
	<node id="-592025" lat="62.8379861124" lon="7.13058611066">
		<tag k="name" v="Kolbeinsundet" />
		<tag k="natural" v="strait" />
		<tag k="ssr:stedsnr" v="702538" />
	</node>
	<node id="-590531" lat="62.9629888888" lon="7.03032222074">
		<tag k="name" v="Ruggabogen" />
		<tag k="natural" v="shoal" />
		<tag k="place" v="locality" />
		<tag k="ssr:stedsnr" v="475729" />
	</node>
	<node id="-592012" lat="62.9441611153" lon="6.99934721229">
		<tag k="name" v="Soløyvågen" />
		<tag k="natural" v="bay" />
		<tag k="ssr:stedsnr" v="702470" />
	</node>
	<node id="-592590" lat="62.8461972196" lon="7.10706111551">
		<tag k="name" v="Håsetflua" />
		<tag k="natural" v="shoal" />
		<tag k="place" v="locality" />
		<tag k="ssr:stedsnr" v="961083" />
	</node>
	<node id="-592006" lat="62.7920916647" lon="6.97578055003">
		<tag k="name" v="Langneset" />
		<tag k="natural" v="cape" />
		<tag k="ssr:stedsnr" v="702381" />
	</node>
	<node id="-592004" lat="62.7899722237" lon="6.98216111353">
		<tag k="name" v="Fagervikneset" />
		<tag k="natural" v="cape" />
		<tag k="ssr:stedsnr" v="702372" />
	</node>
	<node id="-592002" lat="62.8795305537" lon="6.82737221566">
		<tag k="bay" v="fjord" />
		<tag k="name" v="Bjørnsundfjorden" />
		<tag k="natural" v="bay" />
		<tag k="ssr:stedsnr" v="702346" />
	</node>
	<node id="-592001" lat="62.8913222245" lon="6.93182778007">
		<tag k="fixme" v="consider seamark:type=rock or natural=shoal" />
		<tag k="name" v="Gulskjæret" />
		<tag k="place" v="islet" />
		<tag k="ssr:stedsnr" v="702337" />
	</node>
	<node id="-590528" lat="62.8188722266" lon="7.01674721301">
		<tag k="name" v="Valleira" />
		<tag k="natural" v="shoal" />
		<tag k="place" v="locality" />
		<tag k="ssr:stedsnr" v="475253" />
	</node>
	<node id="-591998" lat="62.9026833364" lon="6.90668889679">
		<tag k="name" v="Nørdre Kipperholmen" />
		<tag k="place" v="islet" />
		<tag k="ssr:stedsnr" v="702327" />
	</node>
	<node id="-590526" lat="62.8052249993" lon="7.2337555524">
		<tag k="name" v="Malmeleira" />
		<tag k="natural" v="shoal" />
		<tag k="place" v="locality" />
		<tag k="ssr:stedsnr" v="475040" />
	</node>
	<node id="-590184" lat="62.9995194462" lon="7.19183056383">
		<tag k="name" v="Mortholman" />
		<tag k="old_name" v="Mortholmane" />
		<tag k="place" v="island" />
		<tag k="ssr:stedsnr" v="277794" />
	</node>
	<node id="-590525" lat="63.0143027802" lon="7.29750555334">
		<tag k="fixme" v="consider seamark:type=rock or natural=shoal" />
		<tag k="name" v="Kråka" />
		<tag k="place" v="islet" />
		<tag k="ssr:stedsnr" v="474935" />
	</node>
	<node id="-591976" lat="62.9507611067" lon="7.00805555565">
		<tag k="name" v="Notholmen" />
		<tag k="place" v="islet" />
		<tag k="ssr:stedsnr" v="680138" />
	</node>
	<node id="-590523" lat="62.9434972227" lon="6.87202778418">
		<tag k="name" v="Gardsbonden" />
		<tag k="natural" v="shoal" />
		<tag k="place" v="locality" />
		<tag k="ssr:stedsnr" v="473537" />
	</node>
	<node id="-591968" lat="62.7952472253" lon="6.97765834177">
		<tag k="name" v="Geitholmen" />
		<tag k="place" v="islet" />
		<tag k="ssr:stedsnr" v="679802" />
	</node>
	<node id="-591966" lat="63.0112527749" lon="7.14906111351">
		<tag k="fixme" v="consider seamark:type=rock or natural=shoal" />
		<tag k="name" v="Svartoksen" />
		<tag k="place" v="islet" />
		<tag k="ssr:stedsnr" v="679665" />
	</node>
	<node id="-591965" lat="63.0168888867" lon="7.15508610946">
		<tag k="name" v="Leifallet" />
		<tag k="natural" v="shoal" />
		<tag k="place" v="locality" />
		<tag k="ssr:stedsnr" v="679663" />
	</node>
	<node id="-591964" lat="62.8759972246" lon="7.28747221746">
		<tag k="name" v="Fræneidet" />
		<tag k="old_name" v="Frænaeidet" />
		<tag k="place" v="locality" />
		<tag k="ssr:stedsnr" v="679617" />
	</node>
	<node id="-591963" lat="63.0519694425" lon="7.18250277314">
		<tag k="bay" v="fjord" />
		<tag k="name" v="Fuglleia" />
		<tag k="natural" v="bay" />
		<tag k="ssr:stedsnr" v="679604" />
	</node>
	<node id="-591962" lat="63.0714611066" lon="6.92691110277">
		<tag k="alt_name" v="Maledjupet" />
		<tag k="bay" v="fjord" />
		<tag k="name" v="Maljedjupet" />
		<tag k="natural" v="bay" />
		<tag k="ssr:stedsnr" v="679602" />
	</node>
	<node id="-591961" lat="63.0207500039" lon="6.87495554917">
		<tag k="name" v="Godklakken" />
		<tag k="natural" v="shoal" />
		<tag k="place" v="locality" />
		<tag k="ssr:stedsnr" v="679585" />
	</node>
	<node id="-591958" lat="62.8893611095" lon="6.962561109">
		<tag k="name" v="Lamholmen" />
		<tag k="place" v="islet" />
		<tag k="ssr:stedsnr" v="679167" />
	</node>
	<node id="-591953" lat="63.0469361104" lon="6.90392778067">
		<tag k="bay" v="fjord" />
		<tag k="name" v="Hustadvika" />
		<tag k="natural" v="bay" />
		<tag k="ssr:stedsnr" v="679056" />
	</node>
	<node id="-591952" lat="62.9839416693" lon="7.01986944185">
		<tag k="fixme" v="consider seamark:type=rock or natural=shoal" />
		<tag k="name" v="Kråkungan" />
		<tag k="place" v="islet" />
		<tag k="ssr:stedsnr" v="679053" />
	</node>
	<node id="-591951" lat="62.9703861146" lon="7.00853611056">
		<tag k="name" v="Stoplan" />
		<tag k="place" v="islet" />
		<tag k="ssr:stedsnr" v="679048" />
	</node>
	<node id="-591950" lat="62.9646638858" lon="6.94621667033">
		<tag k="fixme" v="consider seamark:type=rock or natural=shoal" />
		<tag k="name" v="Håskjæret" />
		<tag k="place" v="islet" />
		<tag k="ssr:stedsnr" v="679038" />
	</node>
	<node id="-590530" lat="62.9771249991" lon="7.05776665987">
		<tag k="name" v="Ryta" />
		<tag k="natural" v="shoal" />
		<tag k="place" v="locality" />
		<tag k="ssr:stedsnr" v="475689" />
	</node>
	<node id="-591936" lat="62.9692833338" lon="6.73553333775">
		<tag k="name" v="Djupstøa" />
		<tag k="natural" v="shoal" />
		<tag k="place" v="locality" />
		<tag k="ssr:stedsnr" v="657848" />
	</node>
	<node id="-591935" lat="62.9686444442" lon="7.08452777154">
		<tag k="name" v="Troa" />
		<tag k="natural" v="shoal" />
		<tag k="place" v="locality" />
		<tag k="ssr:stedsnr" v="657668" />
	</node>
	<node id="-591934" lat="62.8490416671" lon="7.00034999231">
		<tag k="name" v="Fallet" />
		<tag k="natural" v="shoal" />
		<tag k="place" v="locality" />
		<tag k="ssr:stedsnr" v="657517" />
	</node>
	<node id="-591933" lat="62.8392055565" lon="7.07003611828">
		<tag k="name" v="Oterberget" />
		<tag k="natural" v="cape" />
		<tag k="ssr:stedsnr" v="657093" />
	</node>
	<node id="-591932" lat="62.8216250011" lon="7.16888333316">
		<tag k="name" v="Villikflua" />
		<tag k="natural" v="shoal" />
		<tag k="place" v="locality" />
		<tag k="ssr:stedsnr" v="657039" />
	</node>
	<node id="-591931" lat="62.8295944451" lon="7.17898889252">
		<tag k="name" v="Storknutflua" />
		<tag k="natural" v="shoal" />
		<tag k="place" v="locality" />
		<tag k="ssr:stedsnr" v="657033" />
	</node>
	<node id="-591930" lat="62.9534750033" lon="6.98671389223">
		<tag k="name" v="Bekkerholmtaren" />
		<tag k="natural" v="shoal" />
		<tag k="place" v="locality" />
		<tag k="ssr:stedsnr" v="656598" />
	</node>
	<node id="-591929" lat="62.8183555541" lon="7.07532778165">
		<tag k="name" v="Svansholmvågen" />
		<tag k="natural" v="bay" />
		<tag k="ssr:stedsnr" v="656217" />
	</node>
	<node id="-591928" lat="63.0129888918" lon="7.16023333107">
		<tag k="fixme" v="consider seamark:type=rock or natural=shoal" />
		<tag k="name" v="Svartoksskjæret" />
		<tag k="place" v="islet" />
		<tag k="ssr:stedsnr" v="655601" />
	</node>
	<node id="-591927" lat="62.994336113" lon="7.17986945087">
		<tag k="name" v="Kobbeflua" />
		<tag k="natural" v="shoal" />
		<tag k="place" v="locality" />
		<tag k="ssr:stedsnr" v="655600" />
	</node>
	<node id="-591926" lat="62.9245777738" lon="6.86721388408">
		<tag k="name" v="Fonnin" />
		<tag k="natural" v="shoal" />
		<tag k="place" v="locality" />
		<tag k="ssr:stedsnr" v="653713" />
	</node>
	<node id="-591925" lat="62.8121944411" lon="6.97475000125">
		<tag k="name" v="Nerbøskallen" />
		<tag k="natural" v="shoal" />
		<tag k="ssr:stedsnr" v="653638" />
	</node>
	<node id="-591914" lat="62.9216749975" lon="6.9070722223">
		<tag k="name" v="Kråka" />
		<tag k="place" v="islet" />
		<tag k="ssr:stedsnr" v="641939" />
	</node>
	<node id="-591910" lat="62.9585111134" lon="7.03566943953">
		<tag k="name" v="Ruggosen" />
		<tag k="natural" v="bay" />
		<tag k="ssr:stedsnr" v="641913" />
	</node>
	<node id="-590513" lat="62.9246583351" lon="6.79766944776">
		<tag k="name" v="Ersgrunnet" />
		<tag k="natural" v="shoal" />
		<tag k="place" v="locality" />
		<tag k="ssr:stedsnr" v="410145" />
	</node>
	<node id="-591908" lat="62.835669443" lon="6.99500834022">
		<tag k="name" v="Kjesjuka" />
		<tag k="natural" v="bay" />
		<tag k="ssr:stedsnr" v="641897" />
	</node>
	<node id="-591906" lat="62.898441669" lon="6.95121111953">
		<tag k="fixme" v="consider seamark:type=rock or natural=shoal" />
		<tag k="name" v="Purkfleå" />
		<tag k="place" v="islet" />
		<tag k="ssr:stedsnr" v="641893" />
	</node>
	<node id="-591905" lat="62.8999027766" lon="6.93874165936">
		<tag k="name" v="Vorpa" />
		<tag k="place" v="locality" />
		<tag k="ssr:stedsnr" v="641892" />
	</node>
	<node id="-591891" lat="62.9144805534" lon="6.91728054884">
		<tag k="fixme" v="consider seamark:type=rock or natural=shoal" />
		<tag k="name" v="Høgskjæret" />
		<tag k="place" v="islet" />
		<tag k="ssr:stedsnr" v="641772" />
	</node>
</osm>
