<?xml version="1.0" encoding="UTF-8"?>
<osm generator="osmapis" version="0.6">
	<node id="-589312" lat="62.8764944468" lon="7.30571111899">
		<tag k="name" v="Bendikhølen" />
		<tag k="place" v="locality" />
		<tag k="ssr:stedsnr" v="277870" />
	</node>
	<node id="-589311" lat="62.8475277789" lon="7.2552999921">
		<tag k="name" v="Heimste grova" />
		<tag k="ssr:stedsnr" v="277865" />
		<tag k="waterway" v="stream" />
	</node>
	<node id="-589310" lat="62.8362777816" lon="7.29987778003">
		<tag k="name" v="Kaligrova" />
		<tag k="ssr:stedsnr" v="277847" />
		<tag k="waterway" v="stream" />
	</node>
	<node id="-590532" lat="62.8790749978" lon="6.99061111511">
		<tag k="name" v="Stortjønna" />
		<tag k="natural" v="water" />
		<tag k="ssr:stedsnr" v="459493" />
	</node>
	<node id="-590842" lat="62.8060166687" lon="7.34242777316">
		<tag k="name" v="Isakøya" />
		<tag k="natural" v="cape" />
		<tag k="ssr:stedsnr" v="580952" />
	</node>
	<node id="-590841" lat="62.8250333359" lon="7.37184166681">
		<tag k="name" v="Kvitåa" />
		<tag k="ssr:stedsnr" v="580947" />
		<tag k="waterway" v="river" />
	</node>
	<node id="-590838" lat="62.8465250012" lon="7.22677778509">
		<tag k="name" v="Smiløken" />
		<tag k="ssr:stedsnr" v="580935" />
		<tag k="waterway" v="stream" />
	</node>
	<node id="-589300" lat="62.9312833298" lon="7.23445833743">
		<tag k="name" v="Vassengelva" />
		<tag k="ssr:stedsnr" v="277758" />
		<tag k="waterway" v="stream" />
	</node>
	<node id="-589566" lat="62.912044448" lon="7.18849722428">
		<tag k="name" v="Holgrova" />
		<tag k="ssr:stedsnr" v="398988" />
		<tag k="waterway" v="stream" />
	</node>
	<node id="-591345" lat="62.9116083326" lon="7.17886943537">
		<tag k="name" v="Holgrova" />
		<tag k="ssr:stedsnr" v="763982" />
		<tag k="waterway" v="stream" />
	</node>
	<node id="-589295" lat="62.9637944471" lon="7.07657500751">
		<tag k="name" v="Trolltjønna" />
		<tag k="natural" v="water" />
		<tag k="ssr:stedsnr" v="277725" />
	</node>
	<node id="-589294" lat="62.9550583366" lon="7.11459444524">
		<tag k="name" v="Petterremsfalla" />
		<tag k="ssr:stedsnr" v="277720" />
		<tag k="waterway" v="rapids" />
	</node>
	<node id="-590828" lat="62.9040499995" lon="7.13356667291">
		<tag k="name" v="Gåtjønna" />
		<tag k="natural" v="water" />
		<tag k="ssr:stedsnr" v="580892" />
	</node>
	<node id="-591334" lat="62.9032055552" lon="7.25706944164">
		<tag k="name" v="Røsliløken" />
		<tag k="ssr:stedsnr" v="763851" />
		<tag k="waterway" v="stream" />
	</node>
	<node id="-591333" lat="62.8750583317" lon="7.29077222053">
		<tag k="name" v="Sylt-Ola-Hølen" />
		<tag k="place" v="locality" />
		<tag k="ssr:stedsnr" v="763847" />
	</node>
	<node id="-591328" lat="62.8546583305" lon="7.25108611261">
		<tag k="name" v="Anderselva" />
		<tag k="ssr:stedsnr" v="763791" />
		<tag k="waterway" v="stream" />
	</node>
	<node id="-590416" lat="62.7902527819" lon="7.13602499347">
		<tag k="alt_name" v="Seterelva" />
		<tag k="name" v="Damgrova" />
		<tag k="ssr:stedsnr" v="254797" />
		<tag k="waterway" v="stream" />
	</node>
	<node id="-591326" lat="62.803694443" lon="7.33575278761">
		<tag k="name" v="Skargrova" />
		<tag k="ssr:stedsnr" v="763765" />
		<tag k="waterway" v="stream" />
	</node>
	<node id="-590811" lat="62.8553722232" lon="7.20127221727">
		<tag k="name" v="Skogagrova" />
		<tag k="ssr:stedsnr" v="580671" />
		<tag k="waterway" v="stream" />
	</node>
	<node id="-589784" lat="62.965075001" lon="7.26565834296">
		<tag k="name" v="Sloppelva" />
		<tag k="ssr:stedsnr" v="217273" />
		<tag k="waterway" v="stream" />
	</node>
	<node id="-590590" lat="62.8556305521" lon="7.27374443887">
		<tag k="name" v="Anderselva" />
		<tag k="ssr:stedsnr" v="460886" />
		<tag k="waterway" v="stream" />
	</node>
	<node id="-590585" lat="62.975508336" lon="7.22215834176">
		<tag k="name" v="Skottenelva" />
		<tag k="ssr:stedsnr" v="460800" />
		<tag k="waterway" v="stream" />
	</node>
	<node id="-591314" lat="62.8866888888" lon="7.1302083388">
		<tag k="name" v="Stordalselva" />
		<tag k="ssr:stedsnr" v="763662" />
		<tag k="waterway" v="stream" />
	</node>
	<node id="-591096" lat="62.7964500007" lon="7.22576944673">
		<tag k="name" v="Malmeelva" />
		<tag k="ssr:stedsnr" v="680775" />
		<tag k="waterway" v="river" />
	</node>
	<node id="-591307" lat="62.8137638892" lon="7.12734999456">
		<tag k="name" v="Igletjønna" />
		<tag k="natural" v="water" />
		<tag k="ssr:stedsnr" v="763611" />
	</node>
	<node id="-589257" lat="62.8001222219" lon="7.02231944935">
		<tag k="name" v="Bytingsgrova" />
		<tag k="ssr:stedsnr" v="277400" />
		<tag k="waterway" v="stream" />
	</node>
	<node id="-589250" lat="62.9082972246" lon="6.96578610932">
		<tag k="name" v="Fjøstjønna" />
		<tag k="natural" v="water" />
		<tag k="ssr:stedsnr" v="277352" />
	</node>
	<node id="-589243" lat="62.7665111071" lon="7.1048583413">
		<tag k="name" v="Grøvern" />
		<tag k="ssr:stedsnr" v="274972" />
		<tag k="waterway" v="stream" />
	</node>
	<node id="-589240" lat="62.7698527805" lon="7.08341666092">
		<tag k="name" v="Åndalselva" />
		<tag k="ssr:stedsnr" v="274851" />
		<tag k="waterway" v="river" />
	</node>
	<node id="-590324" lat="62.9118388893" lon="6.98780276831">
		<tag k="name" v="Vannløken" />
		<tag k="ssr:stedsnr" v="217517" />
		<tag k="waterway" v="stream" />
	</node>
	<node id="-590256" lat="62.8542277803" lon="7.2469444446">
		<tag k="name" v="Moaelva" />
		<tag k="ssr:stedsnr" v="193661" />
		<tag k="waterway" v="stream" />
	</node>
	<node id="-590761" lat="62.8209361093" lon="7.34773055162">
		<tag k="name" v="Dyrdalsvatnet" />
		<tag k="natural" v="water" />
		<tag k="ssr:stedsnr" v="558771" />
	</node>
	<node id="-590759" lat="62.8254916627" lon="7.2578833365">
		<tag k="name" v="Rødalselva" />
		<tag k="ssr:stedsnr" v="558733" />
		<tag k="waterway" v="river" />
	</node>
	<node id="-589734" lat="62.9897055562" lon="7.1695361102">
		<tag k="name" v="Teppinga" />
		<tag k="natural" v="water" />
		<tag k="ssr:stedsnr" v="884956" />
	</node>
	<node id="-590065" lat="62.8339555562" lon="7.19890556156">
		<tag k="name" v="Sylteosen" />
		<tag k="natural" v="bay" />
		<tag k="ssr:stedsnr" v="95658" />
	</node>
	<node id="-589731" lat="62.979249997" lon="7.23716666402">
		<tag k="name" v="Løkane" />
		<tag k="ssr:stedsnr" v="884923" />
		<tag k="waterway" v="stream" />
	</node>
	<node id="-590149" lat="62.9165166696" lon="6.99098332744">
		<tag k="name" v="Dyrskarløken" />
		<tag k="ssr:stedsnr" v="134115" />
		<tag k="waterway" v="stream" />
	</node>
	<node id="-590748" lat="62.9680361097" lon="7.22200278466">
		<tag k="name" v="Skottenvatnet" />
		<tag k="natural" v="water" />
		<tag k="ssr:stedsnr" v="557915" />
	</node>
	<node id="-590746" lat="62.791955552" lon="7.07906944663">
		<tag k="alt_name" v="Vasselva;Aureelva" />
		<tag k="name" v="Hestadelva" />
		<tag k="ssr:stedsnr" v="557808" />
		<tag k="waterway" v="stream" />
	</node>
	<node id="-591258" lat="62.7709416627" lon="7.13249167466">
		<tag k="name" v="Løvenskarvatnet" />
		<tag k="natural" v="water" />
		<tag k="ssr:stedsnr" v="760017" />
		<tag k="water" v="lake" />
	</node>
	<node id="-591257" lat="62.912322219" lon="7.27718610522">
		<tag k="name" v="Tretteidet" />
		<tag k="natural" v="strait" />
		<tag k="ssr:stedsnr" v="748873" />
	</node>
	<node id="-589720" lat="62.8269666635" lon="7.36203888099">
		<tag k="name" v="Litle Gjengkleivvatnet" />
		<tag k="natural" v="water" />
		<tag k="ssr:stedsnr" v="884816" />
	</node>
	<node id="-591253" lat="62.9101138901" lon="7.01691944172">
		<tag k="name" v="Gulvatnet" />
		<tag k="natural" v="water" />
		<tag k="ssr:stedsnr" v="741094" />
	</node>
	<node id="-589616" lat="62.8509166622" lon="7.17734166636">
		<tag k="alt_name" v="Myrbostadelva" />
		<tag k="name" v="Daleelva" />
		<tag k="ssr:stedsnr" v="399868" />
		<tag k="waterway" v="river" />
	</node>
	<node id="-590739" lat="62.8958222225" lon="7.00753333409">
		<tag k="name" v="Vestadelva" />
		<tag k="ssr:stedsnr" v="557154" />
		<tag k="waterway" v="stream" />
	</node>
	<node id="-589714" lat="62.8049250031" lon="7.39093610148">
		<tag k="name" v="Hyttegrova" />
		<tag k="ssr:stedsnr" v="884780" />
		<tag k="waterway" v="stream" />
	</node>
	<node id="-589712" lat="62.8812777785" lon="7.23455278706">
		<tag k="name" v="Hommeldalselva" />
		<tag k="ssr:stedsnr" v="884763" />
		<tag k="waterway" v="stream" />
	</node>
	<node id="-591247" lat="62.7610944407" lon="7.09085277268">
		<tag k="name" v="Svarttjørna" />
		<tag k="natural" v="water" />
		<tag k="ssr:stedsnr" v="740858" />
	</node>
	<node id="-589708" lat="62.9814249955" lon="7.19158054993">
		<tag k="name" v="Sandvikgrova" />
		<tag k="ssr:stedsnr" v="884736" />
		<tag k="waterway" v="river" />
	</node>
	<node id="-589706" lat="62.8029611141" lon="7.27127777638">
		<tag k="name" v="Nedre Klompvatnet" />
		<tag k="natural" v="water" />
		<tag k="ssr:stedsnr" v="884726" />
	</node>
	<node id="-589705" lat="62.800375003" lon="7.26468333802">
		<tag k="name" v="Tverrelva" />
		<tag k="ssr:stedsnr" v="884723" />
		<tag k="waterway" v="stream" />
	</node>
	<node id="-590212" lat="62.8381888846" lon="7.33975277743">
		<tag k="name" v="Gjengkleivgrova" />
		<tag k="ssr:stedsnr" v="156845" />
		<tag k="waterway" v="stream" />
	</node>
	<node id="-590210" lat="62.975425002" lon="7.26156665881">
		<tag k="name" v="Bjønndalselva" />
		<tag k="ssr:stedsnr" v="156819" />
		<tag k="waterway" v="stream" />
	</node>
	<node id="-589694" lat="62.8801416703" lon="7.1307527754">
		<tag k="name" v="Svarthauggrova" />
		<tag k="ssr:stedsnr" v="884630" />
		<tag k="waterway" v="stream" />
	</node>
	<node id="-590203" lat="62.9220861134" lon="7.23542499064">
		<tag k="name" v="Skogaelva" />
		<tag k="ssr:stedsnr" v="156734" />
		<tag k="waterway" v="stream" />
	</node>
	<node id="-590713" lat="62.9069305524" lon="7.24118056385">
		<tag k="name" v="Løken" />
		<tag k="ssr:stedsnr" v="520965" />
		<tag k="waterway" v="stream" />
	</node>
	<node id="-590708" lat="62.8817083326" lon="7.14246944467">
		<tag k="name" v="Hanselva" />
		<tag k="ssr:stedsnr" v="520923" />
		<tag k="waterway" v="stream" />
	</node>
	<node id="-590707" lat="62.9015416664" lon="7.17737777351">
		<tag k="name" v="Haugelva" />
		<tag k="ssr:stedsnr" v="520921" />
		<tag k="waterway" v="stream" />
	</node>
	<node id="-589680" lat="62.9100305555" lon="7.05615000043">
		<tag k="alt_name" v="Rambjørgtjønna" />
		<tag k="name" v="Rambjørtjønna" />
		<tag k="natural" v="water" />
		<tag k="ssr:stedsnr" v="884464" />
	</node>
	<node id="-590703" lat="62.9011944469" lon="7.27758055158">
		<tag k="name" v="Stordalselva" />
		<tag k="ssr:stedsnr" v="520895" />
		<tag k="waterway" v="stream" />
	</node>
	<node id="-590702" lat="62.987325002" lon="7.25829444044">
		<tag k="name" v="Sør Morøya" />
		<tag k="place" v="island" />
		<tag k="ssr:stedsnr" v="520891" />
	</node>
	<node id="-590189" lat="62.9087333377" lon="7.17818610238">
		<tag k="name" v="Kvernhusgrova" />
		<tag k="ssr:stedsnr" v="156619" />
		<tag k="waterway" v="stream" />
	</node>
	<node id="-590188" lat="62.7934861145" lon="7.09149443467">
		<tag k="name" v="Skiftingsgrova" />
		<tag k="ssr:stedsnr" v="156591" />
		<tag k="waterway" v="stream" />
	</node>
	<node id="-591250" lat="62.9065555597" lon="6.99884999609">
		<tag k="name" v="Gulelva" />
		<tag k="ssr:stedsnr" v="741087" />
		<tag k="waterway" v="stream" />
	</node>
	<node id="-590182" lat="62.9328444484" lon="7.00351111838">
		<tag k="name" v="Kvennagrova" />
		<tag k="ssr:stedsnr" v="156483" />
		<tag k="waterway" v="stream" />
	</node>
	<node id="-589668" lat="62.7875305582" lon="7.03789723109">
		<tag k="name" v="Hjelltjønna" />
		<tag k="natural" v="water" />
		<tag k="ssr:stedsnr" v="884391" />
	</node>
	<node id="-589667" lat="62.7705083376" lon="7.04684722635">
		<tag k="name" v="Tverrlielva" />
		<tag k="ssr:stedsnr" v="884389" />
		<tag k="waterway" v="stream" />
	</node>
	<node id="-590690" lat="62.9583361132" lon="7.15096389786">
		<tag k="name" v="Lomtjønna" />
		<tag k="natural" v="water" />
		<tag k="ssr:stedsnr" v="520747" />
	</node>
	<node id="-591248" lat="62.9883555538" lon="7.26571389194">
		<tag k="name" v="Sandblåstvågen" />
		<tag k="natural" v="water" />
		<tag k="ssr:stedsnr" v="740901" />
	</node>
	<node id="-589904" lat="62.9414138906" lon="7.20907499786">
		<tag k="name" v="Hostadelva" />
		<tag k="ssr:stedsnr" v="35711" />
		<tag k="waterway" v="stream" />
	</node>
	<node id="-590681" lat="62.8913972236" lon="7.15105554964">
		<tag k="name" v="Hatleelva" />
		<tag k="ssr:stedsnr" v="520647" />
		<tag k="waterway" v="stream" />
	</node>
	<node id="-589655" lat="62.7751583293" lon="7.11337222099">
		<tag k="name" v="Grønegrova" />
		<tag k="ssr:stedsnr" v="881876" />
		<tag k="waterway" v="stream" />
	</node>
	<node id="-589654" lat="62.7762194447" lon="7.09135556015">
		<tag k="name" v="Fosselva" />
		<tag k="ssr:stedsnr" v="881873" />
		<tag k="waterway" v="stream" />
	</node>
	<node id="-590673" lat="62.8852027757" lon="7.02850277088">
		<tag k="name" v="Brentholvatnet" />
		<tag k="natural" v="water" />
		<tag k="ssr:stedsnr" v="520525" />
		<tag k="water" v="lake" />
	</node>
	<node id="-591694" lat="62.9726916693" lon="7.15873332729">
		<tag k="name" v="Vomma" />
		<tag k="natural" v="cape" />
		<tag k="ssr:stedsnr" v="945982" />
	</node>
	<node id="-591178" lat="62.985988888" lon="7.26952778334">
		<tag k="alt_name" v="Nordre Morøy" />
		<tag k="name" v="Nørd Morøya" />
		<tag k="place" v="islet" />
		<tag k="ssr:stedsnr" v="702871" />
	</node>
	<node id="-591177" lat="62.8693194469" lon="7.26196945071">
		<tag k="name" v="Skarløken" />
		<tag k="ssr:stedsnr" v="702868" />
		<tag k="waterway" v="stream" />
	</node>
	<node id="-591176" lat="62.870130552" lon="7.31701111621">
		<tag k="name" v="Bjønndalsgrova" />
		<tag k="ssr:stedsnr" v="702863" />
		<tag k="waterway" v="stream" />
	</node>
	<node id="-590151" lat="62.7895055553" lon="7.20294999653">
		<tag k="name" v="Botnagrova" />
		<tag k="ssr:stedsnr" v="153017" />
		<tag k="waterway" v="stream" />
	</node>
	<node id="-591686" lat="62.9313586139" lon="6.98656750873">
		<tag k="name" v="Løken" />
		<tag k="ssr:stedsnr" v="945938" />
		<tag k="waterway" v="stream" />
	</node>
	<node id="-591685" lat="62.8422416645" lon="7.03744444178">
		<tag k="name" v="Løken" />
		<tag k="ssr:stedsnr" v="945930" />
		<tag k="waterway" v="stream" />
	</node>
	<node id="-591172" lat="62.8049250031" lon="7.39093610148">
		<tag k="name" v="Hyttegrova" />
		<tag k="ssr:stedsnr" v="702814" />
		<tag k="waterway" v="stream" />
	</node>
	<node id="-590659" lat="62.9828944453" lon="7.23777777816">
		<tag k="alt_name" v="Sandblostelva" />
		<tag k="name" v="Sandblåstelva" />
		<tag k="ssr:stedsnr" v="520119" />
		<tag k="waterway" v="stream" />
	</node>
	<node id="-590144" lat="62.7707527794" lon="7.13265278294">
		<tag k="name" v="Løvenskartjørna" />
		<tag k="natural" v="water" />
		<tag k="ssr:stedsnr" v="133854" />
	</node>
	<node id="-590389" lat="62.8951527806" lon="7.10154444469">
		<tag k="name" v="Botnavatnet" />
		<tag k="natural" v="water" />
		<tag k="ssr:stedsnr" v="254138" />
	</node>
	<node id="-591674" lat="62.8463749989" lon="7.36818610924">
		<tag k="name" v="Trondalsvatnet" />
		<tag k="natural" v="water" />
		<tag k="ssr:stedsnr" v="945848" />
		<tag k="water" v="lake" />
	</node>
	<node id="-590137" lat="62.8517777797" lon="7.05286389849">
		<tag k="alt_name" v="Åselva" />
		<tag k="name" v="Torneselva" />
		<tag k="ssr:stedsnr" v="133209" />
		<tag k="waterway" v="stream" />
	</node>
	<node id="-590648" lat="62.7599249991" lon="7.08534166011">
		<tag k="name" v="Langvatnet" />
		<tag k="natural" v="water" />
		<tag k="ssr:stedsnr" v="517908" />
		<tag k="water" v="lake" />
	</node>
	<node id="-591159" lat="62.8665861099" lon="7.06941943948">
		<tag k="name" v="Litleelva" />
		<tag k="ssr:stedsnr" v="702638" />
		<tag k="waterway" v="stream" />
	</node>
	<node id="-591668" lat="62.8209777739" lon="7.39061666045">
		<tag k="name" v="Tverrfjelltjønna" />
		<tag k="natural" v="water" />
		<tag k="ssr:stedsnr" v="945799" />
	</node>
	<node id="-591667" lat="62.8529833345" lon="7.24780556226">
		<tag k="name" v="Kalvøyhølen" />
		<tag k="place" v="locality" />
		<tag k="ssr:stedsnr" v="945774" />
	</node>
	<node id="-590642" lat="62.7847638916" lon="7.18452499939">
		<tag k="name" v="Seterelva" />
		<tag k="ssr:stedsnr" v="517031" />
		<tag k="waterway" v="stream" />
	</node>
	<node id="-591665" lat="62.9612527754" lon="7.20692499439">
		<tag k="name" v="Rødalselva" />
		<tag k="ssr:stedsnr" v="945753" />
		<tag k="waterway" v="stream" />
	</node>
	<node id="-591152" lat="62.9497583292" lon="7.06334444114">
		<tag k="name" v="Malkvernhusfalla" />
		<tag k="ssr:stedsnr" v="702594" />
		<tag k="waterway" v="rapids" />
	</node>
	<node id="-591663" lat="62.8043249974" lon="7.35435277266">
		<tag k="name" v="Tareslettgrova" />
		<tag k="ssr:stedsnr" v="945732" />
		<tag k="waterway" v="stream" />
	</node>
	<node id="-589614" lat="62.9092194429" lon="7.26226388883">
		<tag k="name" v="Seterdalselva" />
		<tag k="ssr:stedsnr" v="399854" />
		<tag k="waterway" v="stream" />
	</node>
	<node id="-589613" lat="62.8729944428" lon="7.26438888555">
		<tag k="name" v="Nergardsgrova" />
		<tag k="ssr:stedsnr" v="399846" />
		<tag k="waterway" v="stream" />
	</node>
	<node id="-589612" lat="62.8732194411" lon="7.27111944257">
		<tag k="name" v="Trollelvholmen" />
		<tag k="natural" v="cape" />
		<tag k="ssr:stedsnr" v="399847" />
	</node>
	<node id="-589609" lat="62.8475194429" lon="7.24166666846">
		<tag k="name" v="Heimste grova" />
		<tag k="ssr:stedsnr" v="399799" />
		<tag k="waterway" v="stream" />
	</node>
	<node id="-589608" lat="62.8559138933" lon="7.22434444317">
		<tag k="name" v="Myrbostadgrova" />
		<tag k="ssr:stedsnr" v="399798" />
		<tag k="waterway" v="stream" />
	</node>
	<node id="-591143" lat="62.8640027813" lon="7.14776667479">
		<tag k="name" v="Haukåselva" />
		<tag k="ssr:stedsnr" v="702524" />
		<tag k="waterway" v="river" />
	</node>
	<node id="-590117" lat="62.9048222213" lon="7.0697361096">
		<tag k="name" v="Harrivatnet" />
		<tag k="natural" v="water" />
		<tag k="ssr:stedsnr" v="132163" />
	</node>
	<node id="-589603" lat="62.8172333377" lon="7.27399167235">
		<tag k="alt_name" v="Julskargrova" />
		<tag k="name" v="Julskarbekken" />
		<tag k="ssr:stedsnr" v="399757" />
		<tag k="waterway" v="stream" />
	</node>
	<node id="-589602" lat="62.9588722256" lon="7.24600555193">
		<tag k="name" v="Sloppelva" />
		<tag k="ssr:stedsnr" v="399754" />
		<tag k="waterway" v="stream" />
	</node>
	<node id="-590112" lat="62.880997225" lon="7.15096110641">
		<tag k="name" v="Langvatnet" />
		<tag k="natural" v="water" />
		<tag k="ssr:stedsnr" v="132132" />
		<tag k="water" v="lake" />
	</node>
	<node id="-590128" lat="62.791861113" lon="7.09780277071">
		<tag k="name" v="Ole-Ivertjørna" />
		<tag k="natural" v="water" />
		<tag k="ssr:stedsnr" v="132831" />
	</node>
	<node id="-589594" lat="62.9066277772" lon="7.20536666639">
		<tag k="name" v="Støttelva" />
		<tag k="ssr:stedsnr" v="399681" />
		<tag k="waterway" v="river" />
	</node>
	<node id="-590345" lat="62.9863472206" lon="7.24461389597">
		<tag k="name" v="Røstløken" />
		<tag k="ssr:stedsnr" v="217753" />
		<tag k="waterway" v="stream" />
	</node>
	<node id="-589591" lat="62.8674944459" lon="7.07923333799">
		<tag k="name" v="Svarthølen" />
		<tag k="place" v="locality" />
		<tag k="ssr:stedsnr" v="399656" />
	</node>
	<node id="-591577" lat="62.7810611118" lon="7.05525832851">
		<tag k="name" v="Øykjesåsvatnet" />
		<tag k="natural" v="water" />
		<tag k="ssr:stedsnr" v="921850" />
	</node>
	<node id="-590612" lat="62.7898222265" lon="7.06497499854">
		<tag k="name" v="Hestadvatnet" />
		<tag k="natural" v="water" />
		<tag k="ssr:stedsnr" v="496830" />
	</node>
	<node id="-591150" lat="62.7843333366" lon="7.08724999037">
		<tag k="name" v="Seterelva" />
		<tag k="ssr:stedsnr" v="702573" />
		<tag k="waterway" v="stream" />
	</node>
	<node id="-589373" lat="62.9561972228" lon="7.11231667242">
		<tag k="name" v="Nørdre Hustadelva" />
		<tag k="ssr:stedsnr" v="316103" />
		<tag k="waterway" v="river" />
	</node>
	<node id="-591661" lat="62.9757194477" lon="7.21906944376">
		<tag k="name" v="Solbakkelva" />
		<tag k="ssr:stedsnr" v="945723" />
		<tag k="waterway" v="stream" />
	</node>
	<node id="-590602" lat="62.8956444422" lon="7.05585832541">
		<tag k="name" v="Prestseterelva" />
		<tag k="ssr:stedsnr" v="496157" />
		<tag k="waterway" v="stream" />
	</node>
	<node id="-590551" lat="62.9238805528" lon="7.22533055473">
		<tag k="name" v="Burenna" />
		<tag k="ssr:stedsnr" v="459945" />
		<tag k="waterway" v="stream" />
	</node>
	<node id="-591111" lat="62.8648194438" lon="7.07263334313">
		<tag k="name" v="Litleelva" />
		<tag k="ssr:stedsnr" v="701593" />
		<tag k="waterway" v="stream" />
	</node>
	<node id="-590086" lat="62.9099916679" lon="7.25631389558">
		<tag k="name" v="Kvennelva" />
		<tag k="ssr:stedsnr" v="95871" />
		<tag k="waterway" v="stream" />
	</node>
	<node id="-590591" lat="62.8719277736" lon="7.27839167352">
		<tag k="name" v="Langehølen" />
		<tag k="place" v="locality" />
		<tag k="ssr:stedsnr" v="460897" />
	</node>
	<node id="-590078" lat="62.9761888849" lon="7.20828332763">
		<tag k="name" v="Salbakkelva" />
		<tag k="ssr:stedsnr" v="95751" />
		<tag k="waterway" v="stream" />
	</node>
	<node id="-590588" lat="62.8078138888" lon="7.24256665879">
		<tag k="name" v="Fossgrova" />
		<tag k="ssr:stedsnr" v="460834" />
		<tag k="waterway" v="stream" />
	</node>
	<node id="-591611" lat="62.8457833306" lon="7.17769166646">
		<tag k="name" v="Keilagrova" />
		<tag k="ssr:stedsnr" v="944585" />
		<tag k="waterway" v="stream" />
	</node>
	<node id="-589561" lat="62.8515333326" lon="7.26993611173">
		<tag k="name" v="Moagrova" />
		<tag k="ssr:stedsnr" v="398949" />
		<tag k="waterway" v="stream" />
	</node>
	<node id="-591608" lat="62.7938444431" lon="7.22703611962">
		<tag k="name" v="Storfossen" />
		<tag k="natural" v="waterfall" />
		<tag k="ssr:stedsnr" v="942822" />
	</node>
	<node id="-591607" lat="62.7965555588" lon="7.22618332947">
		<tag k="name" v="Litlefossen" />
		<tag k="natural" v="waterfall" />
		<tag k="ssr:stedsnr" v="942821" />
	</node>
	<node id="-590071" lat="62.9584333308" lon="7.15645554648">
		<tag k="name" v="Stjerntjønna" />
		<tag k="natural" v="water" />
		<tag k="ssr:stedsnr" v="95700" />
	</node>
	<node id="-590206" lat="62.9577222216" lon="7.2422694358">
		<tag k="name" v="Litlmælvatnet" />
		<tag k="natural" v="water" />
		<tag k="ssr:stedsnr" v="156747" />
	</node>
	<node id="-591601" lat="62.801141664" lon="7.33716944276">
		<tag k="name" v="Skarvatnet" />
		<tag k="natural" v="water" />
		<tag k="ssr:stedsnr" v="923800" />
	</node>
	<node id="-591088" lat="62.7668638916" lon="7.05313611717">
		<tag k="name" v="Tverrlivatnet" />
		<tag k="natural" v="water" />
		<tag k="ssr:stedsnr" v="679854" />
	</node>
	<node id="-589551" lat="62.8538638915" lon="7.07974167102">
		<tag k="name" v="Borgarløken" />
		<tag k="ssr:stedsnr" v="398522" />
		<tag k="waterway" v="stream" />
	</node>
	<node id="-590572" lat="62.8964861137" lon="7.17756944852">
		<tag k="name" v="Hatleholmen" />
		<tag k="place" v="islet" />
		<tag k="ssr:stedsnr" v="460678" />
	</node>
	<node id="-590570" lat="62.9467083322" lon="7.07925833154">
		<tag k="name" v="Lomtjønnin" />
		<tag k="natural" v="water" />
		<tag k="ssr:stedsnr" v="460649" />
	</node>
	<node id="-590566" lat="62.7737027804" lon="7.05052777341">
		<tag k="name" v="Liavatnet" />
		<tag k="natural" v="water" />
		<tag k="ssr:stedsnr" v="460486" />
		<tag k="water" v="lake" />
	</node>
	<node id="-591583" lat="62.9692444462" lon="7.1664166575">
		<tag k="name" v="Farstadelva" />
		<tag k="ssr:stedsnr" v="922023" />
		<tag k="waterway" v="stream" />
	</node>
	<node id="-590046" lat="62.9259277773" lon="7.21435278545">
		<tag k="name" v="Vassengelva" />
		<tag k="ssr:stedsnr" v="95641" />
		<tag k="waterway" v="stream" />
	</node>
	<node id="-589531" lat="62.8516388919" lon="7.3876861089">
		<tag k="name" v="Gryta" />
		<tag k="natural" v="water" />
		<tag k="ssr:stedsnr" v="398018" />
	</node>
	<node id="-589529" lat="62.7885500004" lon="7.19007777149">
		<tag k="name" v="Lomtjønna" />
		<tag k="natural" v="water" />
		<tag k="ssr:stedsnr" v="396023" />
	</node>
	<node id="-589527" lat="62.9719222199" lon="7.26978610214">
		<tag k="fixme" v="multiple name tags, choose one and add the other to alt_name" />
		<tag k="name" v="Gaustadelva;Sandblåstelva" />
		<tag k="ssr:stedsnr" v="376931" />
		<tag k="waterway" v="stream" />
	</node>
	<node id="-590201" lat="62.9189499974" lon="7.22108055212">
		<tag k="name" v="Svartløken" />
		<tag k="ssr:stedsnr" v="156727" />
		<tag k="waterway" v="stream" />
	</node>
	<node id="-590115" lat="62.89220833" lon="7.03536388831">
		<tag k="name" v="Langvatnet" />
		<tag k="natural" v="water" />
		<tag k="ssr:stedsnr" v="132148" />
	</node>
	<node id="-589520" lat="62.952263892" lon="7.09204721664">
		<tag k="alt_name" v="Søre Hustadelva" />
		<tag k="name" v="Sagelva" />
		<tag k="ssr:stedsnr" v="376109" />
		<tag k="waterway" v="river" />
	</node>
	<node id="-589518" lat="62.9183750035" lon="7.04793055567">
		<tag k="name" v="Merratjørna" />
		<tag k="natural" v="water" />
		<tag k="ssr:stedsnr" v="376095" />
	</node>
	<node id="-591564" lat="62.7812611121" lon="7.02011666905">
		<tag k="alt_name" v="Hundetjønna" />
		<tag k="name" v="Hundediket" />
		<tag k="natural" v="water" />
		<tag k="ssr:stedsnr" v="921857" />
	</node>
	<node id="-591138" lat="62.9139888863" lon="7.02285278525">
		<tag k="name" v="Kråktjønna" />
		<tag k="natural" v="water" />
		<tag k="ssr:stedsnr" v="702491" />
	</node>
	<node id="-590535" lat="62.8304166671" lon="7.08773889591">
		<tag k="name" v="Sælebotssikla" />
		<tag k="ssr:stedsnr" v="459526" />
		<tag k="waterway" v="stream" />
	</node>
	<node id="-590020" lat="62.9273111102" lon="6.97269722185">
		<tag k="name" v="Kvennagrova" />
		<tag k="ssr:stedsnr" v="95433" />
		<tag k="waterway" v="stream" />
	</node>
	<node id="-589507" lat="62.9532222243" lon="7.24575277961">
		<tag k="name" v="Melvatnet" />
		<tag k="natural" v="water" />
		<tag k="ssr:stedsnr" v="375961" />
	</node>
	<node id="-590283" lat="62.8220249958" lon="7.41414721734">
		<tag k="name" v="Langdalsvatnet" />
		<tag k="natural" v="water" />
		<tag k="ssr:stedsnr" v="194710" />
	</node>
	<node id="-591040" lat="62.8557861093" lon="7.19855832904">
		<tag k="name" v="Glåmå" />
		<tag k="ssr:stedsnr" v="641990" />
		<tag k="waterway" v="stream" />
	</node>
	<node id="-591648" lat="62.917627779" lon="7.10892500268">
		<tag k="name" v="Hjerteløken" />
		<tag k="ssr:stedsnr" v="945576" />
		<tag k="waterway" v="stream" />
	</node>
	<node id="-591031" lat="62.9212166709" lon="7.22352222783">
		<tag k="name" v="Bruløken" />
		<tag k="ssr:stedsnr" v="641934" />
		<tag k="waterway" v="stream" />
	</node>
	<node id="-591305" lat="62.8226583294" lon="7.0671638898">
		<tag k="name" v="Gjertrudtjønna" />
		<tag k="natural" v="water" />
		<tag k="ssr:stedsnr" v="763586" />
	</node>
	<node id="-590004" lat="62.7907277802" lon="7.24828888808">
		<tag k="alt_name" v="Malmeelva" />
		<tag k="name" v="Malmedalselva" />
		<tag k="ssr:stedsnr" v="73776" />
		<tag k="waterway" v="river" />
	</node>
	<node id="-591026" lat="62.9027444462" lon="6.97978888687">
		<tag k="name" v="Kroken" />
		<tag k="ssr:stedsnr" v="641895" />
		<tag k="waterway" v="stream" />
	</node>
	<node id="-590001" lat="62.8097749956" lon="7.38700555773">
		<tag k="name" v="Gunnilla" />
		<tag k="natural" v="water" />
		<tag k="ssr:stedsnr" v="73729" />
		<tag k="water" v="lake" />
	</node>
	<node id="-590512" lat="62.8459916689" lon="7.29236666943">
		<tag k="name" v="Lågliaura" />
		<tag k="natural" v="water" />
		<tag k="ssr:stedsnr" v="445808" />
		<tag k="water" v="pond" />
	</node>
	<node id="-590510" lat="62.9649055561" lon="7.24530832512">
		<tag k="alt_name" v="Bjønndalselva" />
		<tag k="name" v="Bjørndalselva" />
		<tag k="ssr:stedsnr" v="437908" />
		<tag k="waterway" v="stream" />
	</node>
	<node id="-590508" lat="62.7654666701" lon="7.08271388966">
		<tag k="name" v="Lomtjørna" />
		<tag k="natural" v="water" />
		<tag k="ssr:stedsnr" v="437844" />
	</node>
	<node id="-590580" lat="62.9593277781" lon="7.12775833589">
		<tag k="name" v="Løkhaugkanalen" />
		<tag k="ssr:stedsnr" v="460760" />
		<tag k="waterway" v="drain" />
	</node>
	<node id="-590499" lat="62.9504833321" lon="7.05196110692">
		<tag k="name" v="Rugga" />
		<tag k="ssr:stedsnr" v="437148" />
		<tag k="waterway" v="river" />
	</node>
	<node id="-591010" lat="62.8509944402" lon="7.24305277764">
		<tag k="name" v="Husmannshølen" />
		<tag k="place" v="locality" />
		<tag k="ssr:stedsnr" v="641779" />
	</node>
	<node id="-591521" lat="62.7861722185" lon="7.05670555807">
		<tag k="name" v="Sagelva" />
		<tag k="ssr:stedsnr" v="861843" />
		<tag k="waterway" v="stream" />
	</node>
	<node id="-591003" lat="62.8097500006" lon="7.32473610631">
		<tag k="name" v="Melsetergrova" />
		<tag k="ssr:stedsnr" v="641745" />
		<tag k="waterway" v="stream" />
	</node>
	<node id="-591002" lat="62.806769447" lon="7.30004999857">
		<tag k="name" v="Julskargrova" />
		<tag k="ssr:stedsnr" v="641738" />
		<tag k="waterway" v="stream" />
	</node>
	<node id="-589464" lat="62.8498027739" lon="7.19845833339">
		<tag k="name" v="Løken" />
		<tag k="ssr:stedsnr" v="338993" />
		<tag k="waterway" v="stream" />
	</node>
	<node id="-589463" lat="62.8782638868" lon="7.19357500101">
		<tag k="name" v="Nyfonna" />
		<tag k="ssr:stedsnr" v="338985" />
		<tag k="waterway" v="stream" />
	</node>
	<node id="-589974" lat="62.7921583323" lon="7.16349443509">
		<tag k="alt_name" v="Gjerdgrova" />
		<tag k="name" v="Litleelva" />
		<tag k="ssr:stedsnr" v="72791" />
		<tag k="waterway" v="stream" />
	</node>
	<node id="-589973" lat="62.7984888901" lon="7.16082499395">
		<tag k="alt_name" v="Holselva" />
		<tag k="name" v="Storelva" />
		<tag k="ssr:stedsnr" v="72787" />
		<tag k="waterway" v="stream" />
	</node>
	<node id="-590995" lat="62.9012611092" lon="7.20929722204">
		<tag k="name" v="Rørslibekken" />
		<tag k="ssr:stedsnr" v="641663" />
		<tag k="waterway" v="stream" />
	</node>
	<node id="-590473" lat="62.9057388888" lon="7.25731387963">
		<tag k="name" v="Seterdalsvatnet" />
		<tag k="natural" v="water" />
		<tag k="ssr:stedsnr" v="436570" />
	</node>
	<node id="-590983" lat="62.8853777809" lon="7.02188888666">
		<tag k="name" v="Kringletevatnet" />
		<tag k="natural" v="water" />
		<tag k="ssr:stedsnr" v="641492" />
		<tag k="water" v="lake" />
	</node>
	<node id="-589958" lat="62.9016888903" lon="7.12692499102">
		<tag k="name" v="Trollvatnet" />
		<tag k="natural" v="water" />
		<tag k="ssr:stedsnr" v="72171" />
	</node>
	<node id="-589954" lat="62.8852833329" lon="7.01788889167">
		<tag k="name" v="Stavikelva" />
		<tag k="ssr:stedsnr" v="72141" />
		<tag k="waterway" v="river" />
	</node>
	<node id="-590699" lat="62.8138000029" lon="7.38233333301">
		<tag k="loc_name" v="Gunnillseterelva" />
		<tag k="name" v="Gunnhildseterelva" />
		<tag k="ssr:stedsnr" v="520833" />
		<tag k="waterway" v="river" />
	</node>
	<node id="-589439" lat="62.8212583297" lon="7.32700555943">
		<tag k="alt_name" v="Dyrdalsgrova" />
		<tag k="name" v="Dyrdalselva" />
		<tag k="ssr:stedsnr" v="338750" />
		<tag k="waterway" v="stream" />
	</node>
	<node id="-589438" lat="62.8221750017" lon="7.37298055971">
		<tag k="name" v="Gjengkleivelva" />
		<tag k="ssr:stedsnr" v="338751" />
		<tag k="waterway" v="river" />
	</node>
	<node id="-589437" lat="62.8062722253" lon="7.26816110382">
		<tag k="name" v="Øvre Klompvatnet" />
		<tag k="natural" v="water" />
		<tag k="ssr:stedsnr" v="338746" />
	</node>
	<node id="-590527" lat="62.7886027774" lon="7.00288333892">
		<tag k="name" v="Gjerdegrova" />
		<tag k="ssr:stedsnr" v="459386" />
		<tag k="waterway" v="stream" />
	</node>
	<node id="-589432" lat="62.9882277821" lon="7.17531943468">
		<tag k="name" v="Sandvikgrova" />
		<tag k="ssr:stedsnr" v="338690" />
		<tag k="waterway" v="stream" />
	</node>
	<node id="-591451" lat="62.89888056" lon="7.09419444341">
		<tag k="name" v="Botnaelva" />
		<tag k="ssr:stedsnr" v="824639" />
		<tag k="waterway" v="stream" />
	</node>
	<node id="-589426" lat="62.8776888859" lon="7.18896665723">
		<tag k="name" v="Nonastølbekken" />
		<tag k="ssr:stedsnr" v="338650" />
		<tag k="waterway" v="stream" />
	</node>
	<node id="-591473" lat="62.8283333359" lon="7.3165333427">
		<tag k="name" v="Kleivgrova" />
		<tag k="ssr:stedsnr" v="824853" />
		<tag k="waterway" v="stream" />
	</node>
	<node id="-589935" lat="62.8019249959" lon="7.31390277879">
		<tag k="name" v="Sagelva" />
		<tag k="ssr:stedsnr" v="35970" />
		<tag k="waterway" v="river" />
	</node>
	<node id="-591470" lat="62.9732999993" lon="7.21198055982">
		<tag k="name" v="Sjurvasselva" />
		<tag k="ssr:stedsnr" v="824795" />
		<tag k="waterway" v="stream" />
	</node>
	<node id="-591469" lat="62.9814249977" lon="7.19163334246">
		<tag k="name" v="Sandvikelva" />
		<tag k="ssr:stedsnr" v="824793" />
		<tag k="waterway" v="river" />
	</node>
	<node id="-591127" lat="62.8501777761" lon="7.01611667607">
		<tag k="name" v="Sandvikløken" />
		<tag k="ssr:stedsnr" v="702415" />
		<tag k="waterway" v="stream" />
	</node>
	<node id="-589416" lat="62.8141194449" lon="7.11295556316">
		<tag k="name" v="Strandsgrova" />
		<tag k="ssr:stedsnr" v="338538" />
		<tag k="waterway" v="stream" />
	</node>
	<node id="-590439" lat="62.8331472262" lon="7.34620000328">
		<tag k="name" v="Gjengkleivvatnet" />
		<tag k="natural" v="water" />
		<tag k="ssr:stedsnr" v="255726" />
	</node>
	<node id="-589922" lat="62.8544638848" lon="7.30126388731">
		<tag k="name" v="Botnagrova" />
		<tag k="ssr:stedsnr" v="35873" />
		<tag k="waterway" v="stream" />
	</node>
	<node id="-589921" lat="62.8441805591" lon="7.3708611068">
		<tag k="name" v="Bolkevatna" />
		<tag k="natural" v="water" />
		<tag k="ssr:stedsnr" v="35869" />
	</node>
	<node id="-589920" lat="62.8513527767" lon="7.29050000934">
		<tag k="name" v="Måtbakkgrova" />
		<tag k="ssr:stedsnr" v="35868" />
		<tag k="waterway" v="stream" />
	</node>
	<node id="-589919" lat="62.8476222235" lon="7.34878610728">
		<tag k="name" v="Nyfonngrova" />
		<tag k="ssr:stedsnr" v="35865" />
		<tag k="waterway" v="stream" />
	</node>
	<node id="-589915" lat="62.8279083355" lon="7.42918610427">
		<tag k="name" v="Langvassosen" />
		<tag k="natural" v="bay" />
		<tag k="ssr:stedsnr" v="35842" />
	</node>
	<node id="-590938" lat="62.8619083292" lon="7.10098056537">
		<tag k="name" v="Lomtjørnin" />
		<tag k="natural" v="water" />
		<tag k="ssr:stedsnr" v="640689" />
	</node>
	<node id="-590679" lat="62.8911499963" lon="7.06143334322">
		<tag k="name" v="Ulhaugløken" />
		<tag k="ssr:stedsnr" v="520640" />
		<tag k="waterway" v="stream" />
	</node>
	<node id="-590935" lat="62.7743555579" lon="7.05623332618">
		<tag k="name" v="Åndalsvatnet" />
		<tag k="natural" v="water" />
		<tag k="ssr:stedsnr" v="638885" />
		<tag k="water" v="lake" />
	</node>
	<node id="-589398" lat="62.7700527746" lon="7.03623056512">
		<tag k="name" v="Skoppedalstjønna" />
		<tag k="natural" v="water" />
		<tag k="ssr:stedsnr" v="338367" />
	</node>
	<node id="-589397" lat="62.7880111087" lon="7.00883889619">
		<tag k="name" v="Svenskeløken" />
		<tag k="ssr:stedsnr" v="338361" />
		<tag k="waterway" v="stream" />
	</node>
	<node id="-589396" lat="62.7902388882" lon="7.03152778655">
		<tag k="name" v="Svenskeløken" />
		<tag k="ssr:stedsnr" v="338359" />
		<tag k="waterway" v="stream" />
	</node>
	<node id="-590417" lat="62.7850166691" lon="7.04211666796">
		<tag k="name" v="Hagåstjørna" />
		<tag k="natural" v="water" />
		<tag k="ssr:stedsnr" v="254819" />
	</node>
	<node id="-591440" lat="62.8870138856" lon="7.02068333023">
		<tag k="name" v="Tverrelva" />
		<tag k="ssr:stedsnr" v="824553" />
		<tag k="waterway" v="river" />
	</node>
	<node id="-589902" lat="62.9075277758" lon="7.06081945258">
		<tag k="name" v="Myrsteintjønnin" />
		<tag k="natural" v="water" />
		<tag k="ssr:stedsnr" v="35682" />
	</node>
	<node id="-590287" lat="62.7939416678" lon="7.06925277826">
		<tag k="name" v="Vasselva" />
		<tag k="ssr:stedsnr" v="194807" />
		<tag k="waterway" v="river" />
	</node>
	<node id="-590407" lat="62.8890527784" lon="7.26204166883">
		<tag k="name" v="Trolldalsvatna" />
		<tag k="natural" v="water" />
		<tag k="ssr:stedsnr" v="254591" />
	</node>
	<node id="-589894" lat="62.8812416702" lon="7.02001110541">
		<tag k="name" v="Vardhaugløken" />
		<tag k="ssr:stedsnr" v="35609" />
		<tag k="waterway" v="stream" />
	</node>
	<node id="-590917" lat="62.9338361127" lon="7.20270000793">
		<tag k="name" v="Hostadvatnet" />
		<tag k="natural" v="water" />
		<tag k="ssr:stedsnr" v="619095" />
		<tag k="water" v="lake" />
	</node>
	<node id="-590916" lat="62.9136777752" lon="7.20314722512">
		<tag k="name" v="Frelsvatnet" />
		<tag k="natural" v="water" />
		<tag k="ssr:stedsnr" v="619065" />
		<tag k="water" v="lake" />
	</node>
	<node id="-590915" lat="62.9609777785" lon="7.23266666957">
		<tag k="name" v="Skavatnet" />
		<tag k="natural" v="water" />
		<tag k="ssr:stedsnr" v="618937" />
	</node>
	<node id="-589890" lat="62.8004361078" lon="6.99768888999">
		<tag k="name" v="Simodalsgrova" />
		<tag k="ssr:stedsnr" v="35501" />
		<tag k="waterway" v="stream" />
	</node>
	<node id="-590913" lat="62.7745305525" lon="7.05300277484">
		<tag k="name" v="Åndalsvatnet" />
		<tag k="natural" v="water" />
		<tag k="ssr:stedsnr" v="618825" />
	</node>
	<node id="-590910" lat="62.800049996" lon="7.12542222316">
		<tag k="name" v="Fjellsetervatnet" />
		<tag k="natural" v="water" />
		<tag k="ssr:stedsnr" v="618788" />
	</node>
	<node id="-590005" lat="62.8049888933" lon="7.37820556221">
		<tag k="name" v="Kringla" />
		<tag k="natural" v="water" />
		<tag k="ssr:stedsnr" v="73784" />
	</node>
	<node id="-591512" lat="62.8614638873" lon="7.12083888427">
		<tag k="name" v="Litlevatnet" />
		<tag k="natural" v="water" />
		<tag k="ssr:stedsnr" v="861220" />
	</node>
	<node id="-590907" lat="62.8816777752" lon="7.2850750004">
		<tag k="name" v="Kvitåa" />
		<tag k="ssr:stedsnr" v="618627" />
		<tag k="waterway" v="stream" />
	</node>
	<node id="-589370" lat="62.8883972262" lon="7.30262500332">
		<tag k="name" v="Kvitåvatna" />
		<tag k="natural" v="water" />
		<tag k="ssr:stedsnr" v="315583" />
	</node>
	<node id="-590393" lat="62.8985388907" lon="7.02456944921">
		<tag k="name" v="Vestadvatnet" />
		<tag k="natural" v="water" />
		<tag k="ssr:stedsnr" v="254158" />
	</node>
	<node id="-590392" lat="62.9028333351" lon="7.14846389649">
		<tag k="name" v="Herskarvatnet" />
		<tag k="natural" v="water" />
		<tag k="ssr:stedsnr" v="254152" />
	</node>
	<node id="-591413" lat="62.8776444405" lon="7.14461943935">
		<tag k="name" v="Prestelva" />
		<tag k="ssr:stedsnr" v="823631" />
		<tag k="waterway" v="river" />
	</node>
	<node id="-591411" lat="62.8603361091" lon="7.11411389272">
		<tag k="name" v="Litlevassløken" />
		<tag k="ssr:stedsnr" v="823525" />
		<tag k="waterway" v="stream" />
	</node>
	<node id="-589362" lat="62.8707222257" lon="7.13043056368">
		<tag k="name" v="Skjellbreia" />
		<tag k="natural" v="water" />
		<tag k="ssr:stedsnr" v="315130" />
		<tag k="water" v="lake" />
	</node>
	<node id="-591409" lat="62.7661638901" lon="7.05618889593">
		<tag k="name" v="Tverrlivatnet" />
		<tag k="natural" v="water" />
		<tag k="ssr:stedsnr" v="821896" />
		<tag k="water" v="lake" />
	</node>
	<node id="-591406" lat="62.7879194462" lon="7.21478055086">
		<tag k="name" v="Gangskargrova" />
		<tag k="ssr:stedsnr" v="821022" />
		<tag k="waterway" v="stream" />
	</node>
	<node id="-590599" lat="62.88499167" lon="7.02770278461">
		<tag k="name" v="Stavikvatna" />
		<tag k="natural" v="water" />
		<tag k="ssr:stedsnr" v="496137" />
	</node>
	<node id="-589859" lat="62.9347888932" lon="7.04089167191">
		<tag k="name" v="Marittjønna" />
		<tag k="natural" v="water" />
		<tag k="ssr:stedsnr" v="34442" />
	</node>
	<node id="-589382" lat="62.884552779" lon="7.07375832635">
		<tag k="name" v="Herdalselva" />
		<tag k="ssr:stedsnr" v="337664" />
		<tag k="waterway" v="stream" />
	</node>
	<node id="-590366" lat="62.8509999958" lon="7.24774721753">
		<tag k="name" v="Moagrova" />
		<tag k="ssr:stedsnr" v="217949" />
		<tag k="waterway" v="stream" />
	</node>
	<node id="-591522" lat="62.7760583349" lon="7.03641944167">
		<tag k="name" v="Liatjørna" />
		<tag k="natural" v="water" />
		<tag k="ssr:stedsnr" v="861860" />
	</node>
	<node id="-591388" lat="62.9420750034" lon="7.13543056176">
		<tag k="name" v="Skjentjørna" />
		<tag k="natural" v="water" />
		<tag k="ssr:stedsnr" v="801104" />
	</node>
	<node id="-589335" lat="62.7826666679" lon="7.21308611897">
		<tag k="name" v="Gangskartjønna" />
		<tag k="natural" v="water" />
		<tag k="ssr:stedsnr" v="32015" />
	</node>
	<node id="-591381" lat="62.8352333354" lon="7.21502778017">
		<tag k="alt_name" v="Rødalselva" />
		<tag k="name" v="Sylteelva" />
		<tag k="ssr:stedsnr" v="800726" />
		<tag k="waterway" v="river" />
	</node>
	<node id="-591379" lat="62.8810944485" lon="7.27134167617">
		<tag k="name" v="Trolldalselva" />
		<tag k="ssr:stedsnr" v="800644" />
		<tag k="waterway" v="stream" />
	</node>
	<node id="-591378" lat="62.8779444457" lon="7.24234444085">
		<tag k="name" v="Seterelva" />
		<tag k="ssr:stedsnr" v="800643" />
		<tag k="waterway" v="stream" />
	</node>
	<node id="-589841" lat="62.7538138896" lon="7.0561916677">
		<tag k="name" v="Trolltjørna" />
		<tag k="natural" v="water" />
		<tag k="ssr:stedsnr" v="12886" />
	</node>
	<node id="-589840" lat="62.7568472209" lon="7.08221665834">
		<tag k="name" v="Langvatnet" />
		<tag k="natural" v="water" />
		<tag k="ssr:stedsnr" v="12873" />
	</node>
	<node id="-589326" lat="62.9162083341" lon="7.19600555063">
		<tag k="name" v="Demmå" />
		<tag k="ssr:stedsnr" v="277994" />
		<tag k="waterway" v="dam" />
	</node>
	<node id="-590349" lat="62.7985944448" lon="7.2619916635">
		<tag k="name" v="Tverrelva" />
		<tag k="ssr:stedsnr" v="217803" />
		<tag k="waterway" v="stream" />
	</node>
	<node id="-589403" lat="62.9350611105" lon="6.9876833402">
		<tag k="name" v="Sundeelva" />
		<tag k="ssr:stedsnr" v="338411" />
		<tag k="waterway" v="river" />
	</node>
	<node id="-591369" lat="62.8947555526" lon="7.0325388897">
		<tag k="name" v="Rottjørna" />
		<tag k="natural" v="water" />
		<tag k="ssr:stedsnr" v="800162" />
	</node>
	<node id="-590854" lat="62.9250638849" lon="7.21499722985">
		<tag k="name" v="Svartløken" />
		<tag k="ssr:stedsnr" v="581682" />
		<tag k="waterway" v="stream" />
	</node>
	<node id="-590745" lat="62.7983472179" lon="7.14528054803">
		<tag k="name" v="Tverrelva" />
		<tag k="ssr:stedsnr" v="557805" />
		<tag k="waterway" v="stream" />
	</node>
	<node id="-590063" lat="62.9109833368" lon="7.19236110759">
		<tag k="name" v="Kvennhauggrova" />
		<tag k="ssr:stedsnr" v="95649" />
		<tag k="waterway" v="stream" />
	</node>
</osm>
