<?xml version="1.0" encoding="UTF-8"?>
<osm version="0.6" generator="osmapis">
	<node lat="59.31327777446227" lon="10.891974998789482" id="-26855">
		<tag k="fixme" v="consider boundary=protected_area and relevant protect_class if not nature reserve" />
		<tag k="leisure" v="nature_reserve" />
		<tag k="name" v="Skinnerflo naturreservat" />
		<tag k="ssr:stedsnr" v="541906" />
	</node>
	<node lat="59.29565832895216" lon="10.664044442428004" id="-27019">
		<tag k="fixme" v="consider boundary=protected_area and relevant protect_class if not nature reserve" />
		<tag k="leisure" v="nature_reserve" />
		<tag k="name" v="Vesle Sletter naturreservat" />
		<tag k="ssr:stedsnr" v="299557" />
	</node>
	<node lat="59.37904166315536" lon="10.837861109605802" id="-27033">
		<tag k="fixme" v="consider boundary=protected_area and relevant protect_class if not nature reserve" />
		<tag k="leisure" v="nature_reserve" />
		<tag k="name" v="Moskjæra naturreservat" />
		<tag k="ssr:stedsnr" v="361287" />
	</node>
	<node lat="59.2790361100729" lon="10.676466674842105" id="-27144">
		<tag k="fixme" v="consider boundary=protected_area and relevant protect_class if not nature reserve" />
		<tag k="leisure" v="nature_reserve" />
		<tag k="name" v="Søndre Sletter naturreservat" />
		<tag k="ssr:stedsnr" v="966581" />
	</node>
	<node lat="59.327133334667415" lon="10.738227771077517" id="-27145">
		<tag k="fixme" v="consider boundary=protected_area and relevant protect_class if not nature reserve" />
		<tag k="leisure" v="nature_reserve" />
		<tag k="name" v="Kurefjorden naturreservat" />
		<tag k="ssr:stedsnr" v="966962" />
	</node>
</osm>
