<?xml version="1.0" encoding="UTF-8"?>
<osm version="0.6" generator="osmapis">
	<node lat="59.360463891874815" lon="10.926994445774511" id="-27561">
		<tag k="name" v="Kleven" />
		<tag k="place" v="locality" />
		<tag k="ssr:stedsnr" v="240276" />
	</node>
	<node lat="59.31630277470862" lon="10.918027772269896" id="-27563">
		<tag k="name" v="Mørhuset" />
		<tag k="place" v="locality" />
		<tag k="ssr:stedsnr" v="240772" />
	</node>
	<node lat="59.337602780503765" lon="10.960019449480667" id="-27623">
		<tag k="name" v="Galgehytta" />
		<tag k="place" v="locality" />
		<tag k="ssr:stedsnr" v="482912" />
	</node>
	<node lat="59.34557499671517" lon="10.779424991209135" id="-27686">
		<tag k="name" v="Heiasvingen" />
		<tag k="place" v="locality" />
		<tag k="ssr:stedsnr" v="906889" />
	</node>
	<node lat="59.38797777935791" lon="10.816616661886632" id="-27694">
		<tag k="name" v="Grimsrød" />
		<tag k="place" v="locality" />
		<tag k="ssr:stedsnr" v="845905" />
	</node>
	<node lat="59.34485555570161" lon="10.926708338504872" id="-27713">
		<tag k="name" v="Sandbakken" />
		<tag k="place" v="locality" />
		<tag k="ssr:stedsnr" v="937408" />
	</node>
	<node lat="59.389394447791254" lon="10.816269447103082" id="-27790">
		<tag k="name" v="Brandenborg" />
		<tag k="place" v="locality" />
		<tag k="ssr:stedsnr" v="359886" />
	</node>
	<node lat="59.324516668556825" lon="10.812963891563308" id="-27791">
		<tag k="name" v="Verkens lund" />
		<tag k="place" v="locality" />
		<tag k="ssr:stedsnr" v="359536" />
	</node>
	<node lat="59.32203427113897" lon="10.809789368095029" id="-27800">
		<tag k="amenity" v="place_of_worship" />
		<tag k="denomination" v="lutheran" />
		<tag k="name" v="Tomb kirke" />
		<tag k="religion" v="christian" />
		<tag k="ssr:stedsnr" v="366462" />
	</node>
	<node lat="59.34624722008826" lon="10.893580548947531" id="-27802">
		<tag k="amenity" v="place_of_worship" />
		<tag k="denomination" v="lutheran" />
		<tag k="name" v="Råde kirke" />
		<tag k="religion" v="christian" />
		<tag k="ssr:stedsnr" v="366514" />
	</node>
	<node lat="59.348708334076576" lon="10.890483339616608" id="-27820">
		<tag k="name" v="Roe" />
		<tag k="place" v="locality" />
		<tag k="ssr:stedsnr" v="482381" />
	</node>
	<node lat="59.31273055227753" lon="10.883266668746726" id="-27904">
		<tag k="name" v="Hissingby" />
		<tag k="place" v="locality" />
		<tag k="ssr:stedsnr" v="847874" />
	</node>
</osm>
