<?xml version="1.0" encoding="UTF-8"?>
<osm generator="osmapis" version="0.6">
	<node id="-22959" lat="59.3515912669" lon="10.8487037247">
		<tag k="fixme" v="consider place=hamlet" />
		<tag k="name" v="Stensrød" />
		<tag k="place" v="farm" />
		<tag k="ssr:stedsnr" v="1077898" />
	</node>
	<node id="-22958" lat="59.3671561829" lon="10.8572484839">
		<tag k="fixme" v="consider place=hamlet" />
		<tag k="name" v="Langøya" />
		<tag k="place" v="farm" />
		<tag k="ssr:stedsnr" v="1077881" />
	</node>
	<node id="-22950" lat="59.3193694489" lon="10.9035972175">
		<tag k="alt_name" v="Tofteberg vestre" />
		<tag k="name" v="Vestre Tofteberg" />
		<tag k="place" v="farm" />
		<tag k="ssr:stedsnr" v="968785" />
	</node>
	<node id="-22938" lat="59.2900821061" lon="10.7542468299">
		<tag k="fixme" v="consider place=suburb, village or hamlet" />
		<tag k="name" v="Saltnes" />
		<tag k="place" v="quarter" />
		<tag k="ssr:stedsnr" v="853401" />
	</node>
	<node id="-22937" lat="59.4112194424" lon="10.7634138915">
		<tag k="name" v="Nygård" />
		<tag k="place" v="farm" />
		<tag k="ssr:stedsnr" v="852284" />
	</node>
	<node id="-22936" lat="59.3612892364" lon="10.7947665916">
		<tag k="fixme" v="consider place=hamlet" />
		<tag k="name" v="Sogn" />
		<tag k="place" v="farm" />
		<tag k="ssr:stedsnr" v="852264" />
	</node>
	<node id="-22934" lat="59.3258527808" lon="10.8944499925">
		<tag k="name" v="Granly" />
		<tag k="place" v="farm" />
		<tag k="ssr:stedsnr" v="847787" />
	</node>
	<node id="-22933" lat="59.3370916653" lon="10.9575833375">
		<tag k="name" v="Grepet" />
		<tag k="place" v="isolated_dwelling" />
		<tag k="ssr:stedsnr" v="847581" />
	</node>
	<node id="-22932" lat="59.3636083345" lon="10.9528277835">
		<tag k="name" v="Slangsvoll" />
		<tag k="place" v="farm" />
		<tag k="ssr:stedsnr" v="847571" />
	</node>
	<node id="-22931" lat="59.3513805536" lon="10.8355583381">
		<tag k="alt_name" v="Elvestad søndre" />
		<tag k="name" v="Søndre Elvestad" />
		<tag k="place" v="farm" />
		<tag k="ssr:stedsnr" v="847397" />
	</node>
	<node id="-22929" lat="59.3390833314" lon="10.9222138959">
		<tag k="name" v="Dalen" />
		<tag k="place" v="farm" />
		<tag k="ssr:stedsnr" v="847230" />
	</node>
	<node id="-22928" lat="59.3236083317" lon="10.7625111128">
		<tag k="alt_name" v="Fuglevik nordre" />
		<tag k="name" v="Nordre Fuglevik" />
		<tag k="place" v="farm" />
		<tag k="ssr:stedsnr" v="845975" />
	</node>
	<node id="-22927" lat="59.3575638901" lon="10.8057888974">
		<tag k="alt_name" v="Løken nordre" />
		<tag k="name" v="Nordre Løken" />
		<tag k="place" v="farm" />
		<tag k="ssr:stedsnr" v="845938" />
	</node>
	<node id="-22923" lat="59.3353249996" lon="10.8011111055">
		<tag k="alt_name" v="Aker mellem" />
		<tag k="name" v="Mellom-Aker" />
		<tag k="place" v="isolated_dwelling" />
		<tag k="ssr:stedsnr" v="845562" />
	</node>
	<node id="-22922" lat="59.3047013983" lon="10.8616767268">
		<tag k="name" v="Kil" />
		<tag k="place" v="hamlet" />
		<tag k="ssr:stedsnr" v="844286" />
	</node>
	<node id="-22919" lat="59.3018194413" lon="10.7743277764">
		<tag k="fixme" v="multiple name tags, choose one and add the other to alt_name" />
		<tag k="name" v="Kløfta;Tangen" />
		<tag k="place" v="farm" />
		<tag k="ssr:stedsnr" v="817827" />
	</node>
	<node id="-22913" lat="59.3600194402" lon="10.8535111106">
		<tag k="name" v="Burumbråten" />
		<tag k="place" v="farm" />
		<tag k="ssr:stedsnr" v="791260" />
	</node>
	<node id="-22912" lat="59.3566955683" lon="10.8338964012">
		<tag k="alt_name" v="Jonstein" />
		<tag k="fixme" v="consider place=hamlet" />
		<tag k="name" v="Jonsten" />
		<tag k="place" v="farm" />
		<tag k="ssr:stedsnr" v="791259" />
	</node>
	<node id="-22911" lat="59.3433277599" lon="10.9164448478">
		<tag k="name" v="Borge" />
		<tag k="place" v="hamlet" />
		<tag k="ssr:stedsnr" v="791486" />
	</node>
	<node id="-22910" lat="59.3486194679" lon="10.8286340356">
		<tag k="name" v="Burum" />
		<tag k="place" v="hamlet" />
		<tag k="ssr:stedsnr" v="791466" />
	</node>
	<node id="-22909" lat="59.339653938" lon="10.8061251773">
		<tag k="alt_name" v="Åker" />
		<tag k="fixme" v="consider place=hamlet" />
		<tag k="name" v="Aker" />
		<tag k="place" v="farm" />
		<tag k="ssr:stedsnr" v="791462" />
	</node>
	<node id="-22908" lat="59.3083833335" lon="10.8723750023">
		<tag k="alt_name" v="Kil østre" />
		<tag k="name" v="Østre Kil" />
		<tag k="place" v="farm" />
		<tag k="ssr:stedsnr" v="791392" />
	</node>
	<node id="-22907" lat="59.3531239786" lon="10.8358580865">
		<tag k="fixme" v="consider place=hamlet" />
		<tag k="name" v="Elvestad" />
		<tag k="place" v="farm" />
		<tag k="ssr:stedsnr" v="786382" />
	</node>
	<node id="-22906" lat="59.3479500002" lon="10.8444111198">
		<tag k="name" v="Kjellerød" />
		<tag k="place" v="farm" />
		<tag k="ssr:stedsnr" v="786380" />
	</node>
	<node id="-22904" lat="59.3407750018" lon="10.9231361155">
		<tag k="name" v="Borgedalen" />
		<tag k="place" v="farm" />
		<tag k="ssr:stedsnr" v="786199" />
	</node>
	<node id="-22902" lat="59.3014111133" lon="10.7832833353">
		<tag k="name" v="Andersrød" />
		<tag k="place" v="farm" />
		<tag k="ssr:stedsnr" v="784558" />
	</node>
	<node id="-22901" lat="59.3367527754" lon="10.8017666713">
		<tag k="alt_name" v="Aker vestre" />
		<tag k="name" v="Vestre Aker" />
		<tag k="place" v="farm" />
		<tag k="ssr:stedsnr" v="784543" />
	</node>
	<node id="-22900" lat="59.3306842694" lon="10.9530619204">
		<tag k="alt_name" v="Jørsø store" />
		<tag k="fixme" v="consider place=hamlet" />
		<tag k="name" v="Store Jørsø" />
		<tag k="place" v="farm" />
		<tag k="ssr:stedsnr" v="780312" />
	</node>
	<node id="-22898" lat="59.3138138916" lon="10.8798472153">
		<tag k="name" v="Holtet" />
		<tag k="place" v="farm" />
		<tag k="ssr:stedsnr" v="752769" />
	</node>
	<node id="-22892" lat="59.2985527753" lon="10.7669222191">
		<tag k="name" v="Spetalen" />
		<tag k="place" v="village" />
		<tag k="ssr:stedsnr" v="631201" />
	</node>
	<node id="-22890" lat="59.3323021685" lon="10.8248644245">
		<tag k="fixme" v="consider place=hamlet" />
		<tag k="name" v="Kolbjørnrød" />
		<tag k="place" v="farm" />
		<tag k="ssr:stedsnr" v="609440" />
	</node>
	<node id="-22888" lat="59.3473496963" lon="10.7874164669">
		<tag k="name" v="Heia" />
		<tag k="place" v="farm" />
		<tag k="ssr:stedsnr" v="608512" />
	</node>
	<node id="-22887" lat="59.3376666702" lon="10.9499250028">
		<tag k="name" v="Sulerød" />
		<tag k="place" v="farm" />
		<tag k="ssr:stedsnr" v="608508" />
	</node>
	<node id="-22886" lat="59.340255554" lon="10.7841222152">
		<tag k="alt_name" v="Brånan" />
		<tag k="name" v="Brånen" />
		<tag k="place" v="farm" />
		<tag k="ssr:stedsnr" v="608501" />
	</node>
	<node id="-22885" lat="59.3405397935" lon="10.7739671857">
		<tag k="name" v="Gammelsrød" />
		<tag k="place" v="hamlet" />
		<tag k="ssr:stedsnr" v="608496" />
	</node>
	<node id="-22884" lat="59.2996074183" lon="10.7745453475">
		<tag k="fixme" v="consider place=hamlet" />
		<tag k="name" v="Spetalen" />
		<tag k="place" v="farm" />
		<tag k="ssr:stedsnr" v="608400" />
	</node>
	<node id="-22883" lat="59.3603083306" lon="10.7903638849">
		<tag k="name" v="Stomner" />
		<tag k="place" v="farm" />
		<tag k="ssr:stedsnr" v="602932" />
	</node>
	<node id="-22882" lat="59.3130111071" lon="10.907263889">
		<tag k="alt_name" v="Reklingsholm vestre" />
		<tag k="name" v="Vestre Reklingsholm" />
		<tag k="place" v="farm" />
		<tag k="ssr:stedsnr" v="602890" />
	</node>
	<node id="-22879" lat="59.3697694475" lon="10.789508336">
		<tag k="name" v="Stomnerhuset" />
		<tag k="place" v="farm" />
		<tag k="ssr:stedsnr" v="602871" />
	</node>
	<node id="-22875" lat="59.3376266376" lon="10.9269260801">
		<tag k="fixme" v="consider place=hamlet" />
		<tag k="name" v="Missingen" />
		<tag k="place" v="farm" />
		<tag k="ssr:stedsnr" v="548487" />
	</node>
	<node id="-22874" lat="59.3311472229" lon="10.8855500039">
		<tag k="name" v="Haugen" />
		<tag k="place" v="farm" />
		<tag k="ssr:stedsnr" v="548468" />
	</node>
	<node id="-22873" lat="59.3174638898" lon="10.8560250014">
		<tag k="name" v="Vårli" />
		<tag k="place" v="isolated_dwelling" />
		<tag k="ssr:stedsnr" v="548457" />
	</node>
	<node id="-22872" lat="59.3119250007" lon="10.7349388957">
		<tag k="name" v="Åven" />
		<tag k="place" v="farm" />
		<tag k="ssr:stedsnr" v="548443" />
	</node>
	<node id="-22871" lat="59.3236499971" lon="10.8982083378">
		<tag k="name" v="Solvang" />
		<tag k="place" v="farm" />
		<tag k="ssr:stedsnr" v="548438" />
	</node>
	<node id="-22870" lat="59.3826250035" lon="10.9712472155">
		<tag k="alt_name" v="Slangsvold" />
		<tag k="name" v="Slangsvoll" />
		<tag k="place" v="farm" />
		<tag k="ssr:stedsnr" v="548314" />
	</node>
	<node id="-22866" lat="59.3598094086" lon="10.7754940524">
		<tag k="fixme" v="consider place=hamlet" />
		<tag k="name" v="Solberg" />
		<tag k="place" v="farm" />
		<tag k="ssr:stedsnr" v="548263" />
	</node>
	<node id="-22865" lat="59.361632347" lon="10.8933415361">
		<tag k="name" v="Bekken" />
		<tag k="place" v="farm" />
		<tag k="ssr:stedsnr" v="548255" />
	</node>
	<node id="-22863" lat="59.354883336" lon="10.9434249919">
		<tag k="alt_name" v="Slangsvoll søndre" />
		<tag k="name" v="Søndre Slangsvoll" />
		<tag k="place" v="farm" />
		<tag k="ssr:stedsnr" v="543588" />
	</node>
	<node id="-22862" lat="59.347488888" lon="10.8934583404">
		<tag k="name" v="Klokkergården" />
		<tag k="place" v="farm" />
		<tag k="ssr:stedsnr" v="543398" />
	</node>
	<node id="-22861" lat="59.3574583361" lon="10.8567861065">
		<tag k="name" v="Burummyra" />
		<tag k="place" v="farm" />
		<tag k="ssr:stedsnr" v="543276" />
	</node>
	<node id="-22859" lat="59.3617747808" lon="10.8239150038">
		<tag k="alt_name" v="Haugesten" />
		<tag k="fixme" v="consider place=hamlet" />
		<tag k="name" v="Øvre Haugsten" />
		<tag k="place" v="farm" />
		<tag k="ssr:stedsnr" v="542944" />
	</node>
	<node id="-22858" lat="59.3428666692" lon="10.8012805587">
		<tag k="alt_name" v="Norum søndre" />
		<tag k="name" v="Søndre Norum" />
		<tag k="place" v="farm" />
		<tag k="ssr:stedsnr" v="542922" />
	</node>
	<node id="-22856" lat="59.3339777763" lon="10.799211105">
		<tag k="alt_name" v="Aker søndre" />
		<tag k="name" v="Søndre Aker" />
		<tag k="place" v="farm" />
		<tag k="ssr:stedsnr" v="541544" />
	</node>
	<node id="-22854" lat="59.3394562914" lon="10.8633221032">
		<tag k="fixme" v="consider place=hamlet" />
		<tag k="name" v="Strømnes" />
		<tag k="place" v="farm" />
		<tag k="ssr:stedsnr" v="427492" />
	</node>
	<node id="-22853" lat="59.3376227666" lon="10.7616697596">
		<tag k="name" v="Tasken" />
		<tag k="place" v="hamlet" />
		<tag k="ssr:stedsnr" v="427478" />
	</node>
	<node id="-22852" lat="59.3305906459" lon="10.9210925884">
		<tag k="fixme" v="consider place=hamlet" />
		<tag k="name" v="Sørby" />
		<tag k="place" v="farm" />
		<tag k="ssr:stedsnr" v="427462" />
	</node>
	<node id="-22851" lat="59.3279531472" lon="10.922923764">
		<tag k="fixme" v="consider place=hamlet" />
		<tag k="name" v="Hovland" />
		<tag k="place" v="farm" />
		<tag k="ssr:stedsnr" v="427460" />
	</node>
	<node id="-22850" lat="59.3289722222" lon="10.9317666653">
		<tag k="name" v="Ileby" />
		<tag k="place" v="farm" />
		<tag k="ssr:stedsnr" v="422778" />
	</node>
	<node id="-22848" lat="59.360869445" lon="10.9473916706">
		<tag k="name" v="Slangsvoll" />
		<tag k="place" v="farm" />
		<tag k="ssr:stedsnr" v="422583" />
	</node>
	<node id="-22847" lat="59.3239722256" lon="10.7944111174">
		<tag k="name" v="Fjell" />
		<tag k="place" v="farm" />
		<tag k="ssr:stedsnr" v="422196" />
	</node>
	<node id="-22846" lat="59.3699194403" lon="10.7850277837">
		<tag k="name" v="Eggeroa" />
		<tag k="place" v="farm" />
		<tag k="ssr:stedsnr" v="420939" />
	</node>
	<node id="-22845" lat="59.3662111088" lon="10.8220861173">
		<tag k="name" v="Vollebekk" />
		<tag k="place" v="farm" />
		<tag k="ssr:stedsnr" v="420888" />
	</node>
	<node id="-22841" lat="59.3517389335" lon="10.8723419075">
		<tag k="name" v="Karlshus" />
		<tag k="old_name" v="Råde" />
		<tag k="place" v="village" />
		<tag k="ssr:stedsnr" v="391341" />
	</node>
	<node id="-22839" lat="59.3314005499" lon="10.8421011812">
		<tag k="fixme" v="consider place=hamlet" />
		<tag k="name" v="Myre" />
		<tag k="place" v="farm" />
		<tag k="ssr:stedsnr" v="366477" />
	</node>
	<node id="-22837" lat="59.3233331976" lon="10.8319193532">
		<tag k="fixme" v="consider place=hamlet" />
		<tag k="name" v="Rød" />
		<tag k="place" v="farm" />
		<tag k="ssr:stedsnr" v="366455" />
	</node>
	<node id="-22836" lat="59.3265240134" lon="10.9377226894">
		<tag k="name" v="Jørsø" />
		<tag k="place" v="hamlet" />
		<tag k="ssr:stedsnr" v="366452" />
	</node>
	<node id="-22835" lat="59.3105177477" lon="10.7857547813">
		<tag k="fixme" v="consider place=hamlet" />
		<tag k="name" v="Holme" />
		<tag k="place" v="farm" />
		<tag k="ssr:stedsnr" v="366442" />
	</node>
	<node id="-22834" lat="59.3031527786" lon="10.8619194433">
		<tag k="alt_name" v="Kil vestre" />
		<tag k="name" v="Vestre Kil" />
		<tag k="place" v="farm" />
		<tag k="ssr:stedsnr" v="366425" />
	</node>
	<node id="-22833" lat="59.3046305552" lon="10.8200027702">
		<tag k="alt_name" v="Jerndalen" />
		<tag k="name" v="Jerndal" />
		<tag k="place" v="isolated_dwelling" />
		<tag k="ssr:stedsnr" v="366423" />
	</node>
	<node id="-22832" lat="59.3573305545" lon="10.8807388808">
		<tag k="building" v="industrial" />
		<tag k="industrial" v="factory" />
		<tag k="name" v="Karlshus bruk" />
		<tag k="ssr:stedsnr" v="366251" />
	</node>
	<node id="-22831" lat="59.351699997" lon="10.9276527783">
		<tag k="alt_name" v="Skaugen" />
		<tag k="name" v="Skogen" />
		<tag k="place" v="farm" />
		<tag k="ssr:stedsnr" v="366245" />
	</node>
	<node id="-22829" lat="59.3334944469" lon="10.9307944526">
		<tag k="alt_name" v="Åkeberg østre" />
		<tag k="name" v="Østre Åkeberg" />
		<tag k="place" v="farm" />
		<tag k="ssr:stedsnr" v="361788" />
	</node>
	<node id="-22823" lat="59.3215111138" lon="10.800716659">
		<tag k="name" v="Bua" />
		<tag k="place" v="farm" />
		<tag k="ssr:stedsnr" v="331815" />
	</node>
	<node id="-22822" lat="59.3050888915" lon="10.7234361039">
		<tag k="name" v="Åventangen" />
		<tag k="place" v="isolated_dwelling" />
		<tag k="ssr:stedsnr" v="306400" />
	</node>
	<node id="-22821" lat="59.3632861071" lon="10.8719722177">
		<tag k="alt_name" v="Starengen" />
		<tag k="name" v="Starenga" />
		<tag k="place" v="farm" />
		<tag k="ssr:stedsnr" v="306245" />
	</node>
	<node id="-22819" lat="59.3499194456" lon="10.9347861195">
		<tag k="name" v="Lund" />
		<tag k="place" v="farm" />
		<tag k="ssr:stedsnr" v="305527" />
	</node>
	<node id="-22818" lat="59.3462702326" lon="10.787044521">
		<tag k="fixme" v="consider place=hamlet" />
		<tag k="name" v="Myra" />
		<tag k="place" v="farm" />
		<tag k="ssr:stedsnr" v="305519" />
	</node>
	<node id="-22817" lat="59.3410333328" lon="10.9559444418">
		<tag k="name" v="Åkebergbråten" />
		<tag k="place" v="farm" />
		<tag k="ssr:stedsnr" v="305511" />
	</node>
	<node id="-22816" lat="59.3349599641" lon="10.9326536114">
		<tag k="name" v="Åkeberg" />
		<tag k="place" v="hamlet" />
		<tag k="ssr:stedsnr" v="305509" />
	</node>
	<node id="-22814" lat="59.3661833375" lon="10.9667194525">
		<tag k="alt_name" v="Fensbekk" />
		<tag k="name" v="Finnsbekk" />
		<tag k="place" v="farm" />
		<tag k="ssr:stedsnr" v="185259" />
	</node>
	<node id="-22813" lat="59.3621759326" lon="10.8116658673">
		<tag k="name" v="Grimstad" />
		<tag k="place" v="hamlet" />
		<tag k="ssr:stedsnr" v="185249" />
	</node>
	<node id="-22810" lat="59.3511372981" lon="10.9161925621">
		<tag k="fixme" v="consider place=hamlet" />
		<tag k="name" v="Borge" />
		<tag k="place" v="farm" />
		<tag k="ssr:stedsnr" v="184505" />
	</node>
	<node id="-22809" lat="59.3257898901" lon="10.8743377995">
		<tag k="name" v="Musangen" />
		<tag k="place" v="hamlet" />
		<tag k="ssr:stedsnr" v="184479" />
	</node>
	<node id="-22808" lat="59.3279674503" lon="10.9117724387">
		<tag k="name" v="Revhaug" />
		<tag k="place" v="hamlet" />
		<tag k="ssr:stedsnr" v="184459" />
	</node>
	<node id="-22806" lat="59.3680555525" lon="10.8046555623">
		<tag k="name" v="Ramyr" />
		<tag k="place" v="farm" />
		<tag k="ssr:stedsnr" v="184261" />
	</node>
	<node id="-22802" lat="59.3602372952" lon="10.7813120444">
		<tag k="fixme" v="consider place=hamlet" />
		<tag k="name" v="Sandaker" />
		<tag k="place" v="farm" />
		<tag k="ssr:stedsnr" v="178924" />
	</node>
	<node id="-22800" lat="59.3412666669" lon="10.7757888938">
		<tag k="alt_name" v="Gammelsrød nordre" />
		<tag k="name" v="Nordre Gammelsrød" />
		<tag k="place" v="farm" />
		<tag k="ssr:stedsnr" v="178919" />
	</node>
	<node id="-22799" lat="59.3403694429" lon="10.7804722184">
		<tag k="name" v="Gammelsrød" />
		<tag k="place" v="farm" />
		<tag k="ssr:stedsnr" v="178917" />
	</node>
	<node id="-22798" lat="59.3669805531" lon="10.8041083393">
		<tag k="name" v="Nygård" />
		<tag k="place" v="farm" />
		<tag k="ssr:stedsnr" v="177888" />
	</node>
	<node id="-22794" lat="59.3207666705" lon="10.9320749975">
		<tag k="alt_name" v="Sølvland" />
		<tag k="name" v="Søland" />
		<tag k="place" v="farm" />
		<tag k="ssr:stedsnr" v="124364" />
	</node>
	<node id="-22793" lat="59.3751194467" lon="10.9645444358">
		<tag k="name" v="Gullhaug" />
		<tag k="place" v="farm" />
		<tag k="ssr:stedsnr" v="124227" />
	</node>
	<node id="-22792" lat="59.362187702" lon="10.9002857169">
		<tag k="name" v="Bjørnebekk" />
		<tag k="place" v="farm" />
		<tag k="ssr:stedsnr" v="124217" />
	</node>
	<node id="-22791" lat="59.3605118524" lon="10.9495618439">
		<tag k="fixme" v="consider place=hamlet" />
		<tag k="name" v="Slangsvoll" />
		<tag k="place" v="farm" />
		<tag k="ssr:stedsnr" v="124214" />
	</node>
	<node id="-22790" lat="59.3580519159" lon="10.8021642326">
		<tag k="fixme" v="consider place=hamlet" />
		<tag k="name" v="Løken" />
		<tag k="place" v="farm" />
		<tag k="ssr:stedsnr" v="124212" />
	</node>
	<node id="-22789" lat="59.3468197748" lon="10.8910317511">
		<tag k="fixme" v="consider place=hamlet" />
		<tag k="name" v="Kåpegot" />
		<tag k="place" v="farm" />
		<tag k="ssr:stedsnr" v="123547" />
	</node>
	<node id="-22788" lat="59.3417664659" lon="10.8893808761">
		<tag k="fixme" v="consider place=hamlet" />
		<tag k="name" v="Prestegården" />
		<tag k="place" v="farm" />
		<tag k="ssr:stedsnr" v="123534" />
	</node>
	<node id="-22787" lat="59.3368082793" lon="10.8445084804">
		<tag k="fixme" v="consider place=hamlet" />
		<tag k="name" v="Husbakke" />
		<tag k="place" v="farm" />
		<tag k="ssr:stedsnr" v="123530" />
	</node>
	<node id="-22786" lat="59.3291805527" lon="10.8407194369">
		<tag k="name" v="Myre" />
		<tag k="place" v="farm" />
		<tag k="ssr:stedsnr" v="123520" />
	</node>
	<node id="-22785" lat="59.3261750003" lon="10.8889111091">
		<tag k="name" v="Tverrbekk" />
		<tag k="place" v="farm" />
		<tag k="ssr:stedsnr" v="123516" />
	</node>
	<node id="-22784" lat="59.3300888905" lon="10.8857861181">
		<tag k="name" v="Bekkhus" />
		<tag k="place" v="farm" />
		<tag k="ssr:stedsnr" v="123515" />
	</node>
	<node id="-22782" lat="59.3178931556" lon="10.7384383373">
		<tag k="fixme" v="consider place=hamlet" />
		<tag k="name" v="Åven" />
		<tag k="place" v="farm" />
		<tag k="ssr:stedsnr" v="123498" />
	</node>
	<node id="-22780" lat="59.3118777775" lon="10.836027785">
		<tag k="name" v="Løkka" />
		<tag k="place" v="farm" />
		<tag k="ssr:stedsnr" v="118822" />
	</node>
	<node id="-22779" lat="59.3517017261" lon="10.8711051345">
		<tag k="amenity" v="townhall" />
		<tag k="name" v="Råde rådhus" />
		<tag k="ssr:stedsnr" v="118933" />
	</node>
	<node id="-22778" lat="59.3174611108" lon="10.9179166594">
		<tag k="name" v="Elverhøy" />
		<tag k="place" v="farm" />
		<tag k="ssr:stedsnr" v="118750" />
	</node>
	<node id="-22777" lat="59.3497583306" lon="10.8638222169">
		<tag k="name" v="Skråtorp" />
		<tag k="place" v="farm" />
		<tag k="ssr:stedsnr" v="118364" />
	</node>
	<node id="-22776" lat="59.348191671" lon="10.8952361055">
		<tag k="name" v="Kirkebø" />
		<tag k="place" v="farm" />
		<tag k="ssr:stedsnr" v="118363" />
	</node>
	<node id="-22774" lat="59.3133499975" lon="10.911166658">
		<tag k="alt_name" v="Reklingsholm østre" />
		<tag k="name" v="Østre Reklingsholm" />
		<tag k="place" v="farm" />
		<tag k="ssr:stedsnr" v="117888" />
	</node>
	<node id="-22770" lat="59.3337583366" lon="10.8116638935">
		<tag k="alt_name" v="Hauga" />
		<tag k="name" v="Haga" />
		<tag k="place" v="farm" />
		<tag k="ssr:stedsnr" v="63494" />
	</node>
	<node id="-22769" lat="59.3341194467" lon="10.8891388924">
		<tag k="alt_name" v="Salby" />
		<tag k="name" v="Salbu" />
		<tag k="place" v="farm" />
		<tag k="ssr:stedsnr" v="63490" />
	</node>
	<node id="-22768" lat="59.3221750009" lon="10.792647219">
		<tag k="alt_name" v="Torkelstad" />
		<tag k="name" v="Torkilstad" />
		<tag k="place" v="farm" />
		<tag k="ssr:stedsnr" v="63469" />
	</node>
	<node id="-22767" lat="59.3101499971" lon="10.8809805628">
		<tag k="name" v="Kongsveien" />
		<tag k="place" v="farm" />
		<tag k="ssr:stedsnr" v="63455" />
	</node>
	<node id="-22765" lat="59.3763611125" lon="10.967888896">
		<tag k="name" v="Slangsvoll" />
		<tag k="place" v="farm" />
		<tag k="ssr:stedsnr" v="63301" />
	</node>
	<node id="-22764" lat="59.3627750026" lon="10.956152775">
		<tag k="name" v="Kleiva" />
		<tag k="place" v="farm" />
		<tag k="ssr:stedsnr" v="63296" />
	</node>
	<node id="-22763" lat="59.331858333" lon="10.8837083304">
		<tag k="name" v="Haugan" />
		<tag k="place" v="farm" />
		<tag k="ssr:stedsnr" v="58823" />
	</node>
	<node id="-22762" lat="59.3753972246" lon="10.949633335">
		<tag k="alt_name" v="Leiedalen nordre" />
		<tag k="name" v="Nordre Leiedalen" />
		<tag k="place" v="farm" />
		<tag k="ssr:stedsnr" v="58600" />
	</node>
	<node id="-22761" lat="59.3559805535" lon="10.8771111135">
		<tag k="name" v="Halvorsrød" />
		<tag k="place" v="farm" />
		<tag k="ssr:stedsnr" v="58300" />
	</node>
	<node id="-22760" lat="59.3222819336" lon="10.7586980231">
		<tag k="alt_name" v="Fuglevik søndre" />
		<tag k="name" v="Søndre Fuglevik" />
		<tag k="place" v="farm" />
		<tag k="ssr:stedsnr" v="56978" />
	</node>
	<node id="-22759" lat="59.3374496273" lon="10.7579061535">
		<tag k="alt_name" v="Tasken søndre" />
		<tag k="fixme" v="consider place=hamlet" />
		<tag k="name" v="Søndre Tasken" />
		<tag k="place" v="farm" />
		<tag k="ssr:stedsnr" v="56922" />
	</node>
	<node id="-22758" lat="59.3108611098" lon="10.8809138851">
		<tag k="name" v="Kongsrød" />
		<tag k="place" v="farm" />
		<tag k="ssr:stedsnr" v="56895" />
	</node>
	<node id="-22754" lat="59.2953480075" lon="10.7743428735">
		<tag k="fixme" v="consider place=hamlet" />
		<tag k="name" v="Andersrød" />
		<tag k="place" v="farm" />
		<tag k="ssr:stedsnr" v="56546" />
	</node>
	<node id="-22751" lat="59.3122579692" lon="10.7916302763">
		<tag k="name" v="Sandvegen" />
		<tag k="place" v="farm" />
		<tag k="ssr:stedsnr" v="28840" />
	</node>
	<node id="-22745" lat="59.3445209085" lon="10.87216841">
		<tag k="fixme" v="consider place=hamlet" />
		<tag k="name" v="Strømshaug" />
		<tag k="place" v="farm" />
		<tag k="ssr:stedsnr" v="2511" />
	</node>
	<node id="-22744" lat="59.3433095526" lon="10.8002146982">
		<tag k="fixme" v="consider place=hamlet" />
		<tag k="name" v="Norum" />
		<tag k="place" v="farm" />
		<tag k="ssr:stedsnr" v="2497" />
	</node>
	<node id="-22743" lat="59.3352187615" lon="10.8300264245">
		<tag k="fixme" v="consider place=hamlet" />
		<tag k="name" v="Ringsrød" />
		<tag k="place" v="farm" />
		<tag k="ssr:stedsnr" v="2489" />
	</node>
	<node id="-22742" lat="59.3285320263" lon="10.9307643085">
		<tag k="fixme" v="consider place=hamlet" />
		<tag k="name" v="Ileby" />
		<tag k="place" v="farm" />
		<tag k="ssr:stedsnr" v="2473" />
	</node>
	<node id="-22741" lat="59.3230530244" lon="10.9365476154">
		<tag k="fixme" v="consider place=hamlet" />
		<tag k="name" v="Finstad" />
		<tag k="place" v="farm" />
		<tag k="ssr:stedsnr" v="2452" />
	</node>
	<node id="-22740" lat="59.375413915" lon="10.9226217466">
		<tag k="fixme" v="consider place=hamlet" />
		<tag k="name" v="Gillingsrød" />
		<tag k="place" v="farm" />
		<tag k="ssr:stedsnr" v="2309" />
	</node>
	<node id="-22739" lat="59.3607215548" lon="10.8218591283">
		<tag k="name" v="Haugsten" />
		<tag k="place" v="hamlet" />
		<tag k="ssr:stedsnr" v="2272" />
	</node>
	<node id="-22738" lat="59.3577751104" lon="10.7890341663">
		<tag k="fixme" v="consider place=hamlet" />
		<tag k="name" v="Stomner" />
		<tag k="place" v="farm" />
		<tag k="ssr:stedsnr" v="2269" />
	</node>
	<node id="-22737" lat="59.3411835267" lon="10.8478640714">
		<tag k="fixme" v="consider place=hamlet" />
		<tag k="name" v="Stranden" />
		<tag k="place" v="farm" />
		<tag k="ssr:stedsnr" v="968362" />
	</node>
	<node id="-22734" lat="59.3259638855" lon="10.9303833367">
		<tag k="name" v="Ileby" />
		<tag k="place" v="farm" />
		<tag k="ssr:stedsnr" v="907736" />
	</node>
	<node id="-22733" lat="59.3382647653" lon="10.7638757942">
		<tag k="alt_name" v="Tasken nordre" />
		<tag k="fixme" v="consider place=hamlet" />
		<tag k="name" v="Nordre Tasken" />
		<tag k="place" v="farm" />
		<tag k="ssr:stedsnr" v="906917" />
	</node>
	<node id="-22731" lat="59.3391805595" lon="10.8257166706">
		<tag k="name" v="Løkka" />
		<tag k="place" v="farm" />
		<tag k="ssr:stedsnr" v="852472" />
	</node>
	<node id="-22730" lat="59.3038027818" lon="10.7964194434">
		<tag k="name" v="Holmebråten" />
		<tag k="place" v="farm" />
		<tag k="ssr:stedsnr" v="852408" />
	</node>
	<node id="-22729" lat="59.3210583303" lon="10.8783305498">
		<tag k="name" v="Haugen" />
		<tag k="place" v="farm" />
		<tag k="ssr:stedsnr" v="847827" />
	</node>
	<node id="-22727" lat="59.3452833377" lon="10.9366333414">
		<tag k="name" v="Missingmyr" />
		<tag k="place" v="quarter" />
		<tag k="ssr:stedsnr" v="935075" />
	</node>
	<node id="-22726" lat="59.3473055597" lon="10.9292555641">
		<tag k="name" v="Løkka" />
		<tag k="place" v="farm" />
		<tag k="ssr:stedsnr" v="815373" />
	</node>
	<node id="-22725" lat="59.3327861119" lon="10.8853611125">
		<tag k="name" v="Stene" />
		<tag k="place" v="farm" />
		<tag k="ssr:stedsnr" v="791439" />
	</node>
	<node id="-22724" lat="59.3214298609" lon="10.7608250244">
		<tag k="name" v="Fuglevik" />
		<tag k="place" v="hamlet" />
		<tag k="ssr:stedsnr" v="791426" />
	</node>
	<node id="-22723" lat="59.3173972228" lon="10.9216749976">
		<tag k="name" v="Hovland" />
		<tag k="place" v="farm" />
		<tag k="ssr:stedsnr" v="786773" />
	</node>
	<node id="-22721" lat="59.3265403006" lon="10.80636852">
		<tag k="alt_name" v="Hauga;Krokstad" />
		<tag k="fixme" v="consider place=hamlet" />
		<tag k="name" v="Haga" />
		<tag k="place" v="farm" />
		<tag k="ssr:stedsnr" v="913441" />
	</node>
	<node id="-22720" lat="59.334313887" lon="10.800827781">
		<tag k="alt_name" v="Åker" />
		<tag k="name" v="Aker" />
		<tag k="place" v="hamlet" />
		<tag k="ssr:stedsnr" v="913434" />
	</node>
	<node id="-22719" lat="59.3194305529" lon="10.8052444435">
		<tag k="alt_name" v="Tom" />
		<tag k="fixme" v="consider place=suburb, village or hamlet" />
		<tag k="name" v="Tomb" />
		<tag k="place" v="quarter" />
		<tag k="ssr:stedsnr" v="913431" />
	</node>
	<node id="-22718" lat="59.317230559" lon="10.7713472253">
		<tag k="name" v="Solsletta" />
		<tag k="place" v="isolated_dwelling" />
		<tag k="ssr:stedsnr" v="913417" />
	</node>
	<node id="-22717" lat="59.3467246513" lon="10.764491764">
		<tag k="alt_name" v="Viersholm" />
		<tag k="fixme" v="consider place=hamlet" />
		<tag k="name" v="Viersholmen" />
		<tag k="place" v="farm" />
		<tag k="ssr:stedsnr" v="912517" />
	</node>
	<node id="-22716" lat="59.3521596555" lon="10.832937651">
		<tag k="name" v="Elvestad" />
		<tag k="place" v="hamlet" />
		<tag k="ssr:stedsnr" v="912514" />
	</node>
	<node id="-22715" lat="59.3431444429" lon="10.8524305496">
		<tag k="alt_name" v="Hafeld" />
		<tag k="name" v="Hafell" />
		<tag k="place" v="farm" />
		<tag k="ssr:stedsnr" v="912507" />
	</node>
	<node id="-22714" lat="59.3404666627" lon="10.8821277722">
		<tag k="name" v="Lunder" />
		<tag k="place" v="farm" />
		<tag k="ssr:stedsnr" v="912505" />
	</node>
	<node id="-22710" lat="59.321869443" lon="10.7833861152">
		<tag k="name" v="Lårbu" />
		<tag k="place" v="farm" />
		<tag k="ssr:stedsnr" v="906531" />
	</node>
	<node id="-22707" lat="59.3038749986" lon="10.7724166583">
		<tag k="name" v="Agnes" />
		<tag k="place" v="farm" />
		<tag k="ssr:stedsnr" v="725191" />
	</node>
	<node id="-22701" lat="59.3054666675" lon="10.8105249976">
		<tag k="name" v="Solbakken" />
		<tag k="place" v="farm" />
		<tag k="ssr:stedsnr" v="669428" />
	</node>
	<node id="-22700" lat="59.30762778" lon="10.8667666691">
		<tag k="alt_name" v="Kil midtre;Kil mellem" />
		<tag k="name" v="Midtre Kil" />
		<tag k="place" v="farm" />
		<tag k="ssr:stedsnr" v="669425" />
	</node>
	<node id="-22697" lat="59.3521825005" lon="10.7962819397">
		<tag k="name" v="Røstad" />
		<tag k="place" v="hamlet" />
		<tag k="ssr:stedsnr" v="663929" />
	</node>
	<node id="-22696" lat="59.3435416637" lon="10.799980561">
		<tag k="alt_name" v="Norum nordre" />
		<tag k="name" v="Nordre Norum" />
		<tag k="place" v="farm" />
		<tag k="ssr:stedsnr" v="663916" />
	</node>
	<node id="-22694" lat="59.3726805581" lon="10.8282250058">
		<tag k="name" v="Engene" />
		<tag k="place" v="farm" />
		<tag k="ssr:stedsnr" v="731234" />
	</node>
	<node id="-22693" lat="59.3687134006" lon="10.9233869645">
		<tag k="alt_name" v="Knappervika" />
		<tag k="fixme" v="consider place=hamlet" />
		<tag k="name" v="Knapperviken" />
		<tag k="place" v="farm" />
		<tag k="ssr:stedsnr" v="731215" />
	</node>
	<node id="-22692" lat="59.3250302373" lon="10.8712650121">
		<tag k="alt_name" v="Berg østre" />
		<tag k="fixme" v="consider place=hamlet" />
		<tag k="name" v="Østre Berg" />
		<tag k="place" v="farm" />
		<tag k="ssr:stedsnr" v="731396" />
	</node>
	<node id="-22691" lat="59.3489333307" lon="10.9273416657">
		<tag k="alt_name" v="Branndalen" />
		<tag k="name" v="Branddalen" />
		<tag k="place" v="farm" />
		<tag k="ssr:stedsnr" v="730527" />
	</node>
	<node id="-22689" lat="59.3405805534" lon="10.9399000012">
		<tag k="name" v="Åkebergrød" />
		<tag k="place" v="farm" />
		<tag k="ssr:stedsnr" v="730506" />
	</node>
	<node id="-22688" lat="59.3389523754" lon="10.9108631985">
		<tag k="fixme" v="consider place=hamlet" />
		<tag k="name" v="Hauger" />
		<tag k="place" v="farm" />
		<tag k="ssr:stedsnr" v="730503" />
	</node>
	<node id="-22687" lat="59.3366206194" lon="10.7902504444">
		<tag k="fixme" v="consider place=hamlet" />
		<tag k="name" v="Meum" />
		<tag k="place" v="farm" />
		<tag k="ssr:stedsnr" v="730498" />
	</node>
	<node id="-22686" lat="59.3322102247" lon="10.8724507179">
		<tag k="name" v="Augeberg" />
		<tag k="place" v="hamlet" />
		<tag k="ssr:stedsnr" v="730486" />
	</node>
	<node id="-22681" lat="59.3353472251" lon="10.9390388933">
		<tag k="name" v="Gyllerås" />
		<tag k="place" v="isolated_dwelling" />
		<tag k="ssr:stedsnr" v="725747" />
	</node>
	<node id="-22680" lat="59.3361138871" lon="10.9359166602">
		<tag k="name" v="Åkeberg" />
		<tag k="place" v="farm" />
		<tag k="ssr:stedsnr" v="725740" />
	</node>
	<node id="-22679" lat="59.3204333339" lon="10.9131111165">
		<tag k="alt_name" v="Tofteberg østre" />
		<tag k="name" v="Østre Tofteberg" />
		<tag k="place" v="farm" />
		<tag k="ssr:stedsnr" v="725739" />
	</node>
	<node id="-22678" lat="59.3508833352" lon="10.9003305572">
		<tag k="name" v="Nordby" />
		<tag k="place" v="isolated_dwelling" />
		<tag k="ssr:stedsnr" v="725346" />
	</node>
	<node id="-22673" lat="59.3621444425" lon="10.7856055597">
		<tag k="name" v="Sandakerhuset" />
		<tag k="place" v="farm" />
		<tag k="ssr:stedsnr" v="724896" />
	</node>
	<node id="-22672" lat="59.2922305536" lon="10.9191472149">
		<tag k="alt_name" v="Kjelshus" />
		<tag k="name" v="Kjelshuset" />
		<tag k="place" v="isolated_dwelling" />
		<tag k="ssr:stedsnr" v="609386" />
	</node>
	<node id="-22671" lat="59.3169207969" lon="10.7655482209">
		<tag k="fixme" v="consider place=hamlet" />
		<tag k="name" v="Røstad" />
		<tag k="place" v="farm" />
		<tag k="ssr:stedsnr" v="609419" />
	</node>
	<node id="-22669" lat="59.3533638901" lon="10.9201833392">
		<tag k="name" v="Hukeberg" />
		<tag k="place" v="farm" />
		<tag k="ssr:stedsnr" v="608236" />
	</node>
	<node id="-22668" lat="59.3157472228" lon="10.8564777772">
		<tag k="name" v="Hissingbydalen" />
		<tag k="place" v="locality" />
		<tag k="ssr:stedsnr" v="603815" />
	</node>
	<node id="-22665" lat="59.3051722243" lon="10.7853944402">
		<tag k="name" v="Andersrød" />
		<tag k="place" v="farm" />
		<tag k="ssr:stedsnr" v="299545" />
	</node>
	<node id="-22664" lat="59.3141277753" lon="10.7976694397">
		<tag k="name" v="Hestevoll" />
		<tag k="place" v="farm" />
		<tag k="ssr:stedsnr" v="299535" />
	</node>
	<node id="-22662" lat="59.3161138857" lon="10.7661638849">
		<tag k="alt_name" v="Røstad store" />
		<tag k="name" v="Store Røstad" />
		<tag k="place" v="farm" />
		<tag k="ssr:stedsnr" v="541568" />
	</node>
	<node id="-22661" lat="59.3404680516" lon="10.8936530825">
		<tag k="fixme" v="consider place=hamlet" />
		<tag k="name" v="Rød" />
		<tag k="place" v="farm" />
		<tag k="ssr:stedsnr" v="487518" />
	</node>
	<node id="-22659" lat="59.3459459244" lon="10.8420775142">
		<tag k="fixme" v="consider place=hamlet" />
		<tag k="name" v="Kjellerød" />
		<tag k="place" v="farm" />
		<tag k="ssr:stedsnr" v="482363" />
	</node>
	<node id="-22658" lat="59.327297222" lon="10.8388277742">
		<tag k="name" v="Nøysom" />
		<tag k="place" v="farm" />
		<tag k="ssr:stedsnr" v="670444" />
	</node>
	<node id="-22657" lat="59.3132245698" lon="10.9095044333">
		<tag k="fixme" v="consider place=hamlet" />
		<tag k="name" v="Reklingsholm" />
		<tag k="place" v="farm" />
		<tag k="ssr:stedsnr" v="670425" />
	</node>
	<node id="-22656" lat="59.315562467" lon="10.7960550118">
		<tag k="fixme" v="consider place=hamlet" />
		<tag k="name" v="Hestevoll" />
		<tag k="place" v="farm" />
		<tag k="ssr:stedsnr" v="670424" />
	</node>
	<node id="-22654" lat="59.3496611091" lon="10.8876249951">
		<tag k="name" v="Raet" />
		<tag k="place" v="farm" />
		<tag k="ssr:stedsnr" v="669514" />
	</node>
	<node id="-22653" lat="59.3397655618" lon="10.8389515056">
		<tag k="alt_name" v="Årneberg" />
		<tag k="fixme" v="consider place=hamlet" />
		<tag k="name" v="Arneberg" />
		<tag k="place" v="farm" />
		<tag k="ssr:stedsnr" v="669497" />
	</node>
	<node id="-22652" lat="59.2945348533" lon="10.7919078283">
		<tag k="fixme" v="consider place=hamlet" />
		<tag k="name" v="Røtne" />
		<tag k="place" v="farm" />
		<tag k="ssr:stedsnr" v="669389" />
	</node>
	<node id="-22651" lat="59.3592027748" lon="10.8521472213">
		<tag k="name" v="Ringstad" />
		<tag k="place" v="farm" />
		<tag k="ssr:stedsnr" v="669240" />
	</node>
	<node id="-22650" lat="59.375969448" lon="10.9018027865">
		<tag k="name" v="Kilen" />
		<tag k="place" v="farm" />
		<tag k="ssr:stedsnr" v="670280" />
	</node>
	<node id="-22649" lat="59.3650805595" lon="10.9552527773">
		<tag k="alt_name" v="Harehaugen" />
		<tag k="name" v="Harahaugen" />
		<tag k="place" v="farm" />
		<tag k="ssr:stedsnr" v="670257" />
	</node>
	<node id="-22648" lat="59.3203999963" lon="10.8150083261">
		<tag k="fixme" v="consider place=hamlet" />
		<tag k="name" v="Tom" />
		<tag k="place" v="farm" />
		<tag k="ssr:stedsnr" v="665296" />
	</node>
	<node id="-22645" lat="59.370072224" lon="10.9560861062">
		<tag k="name" v="Slangsvoll" />
		<tag k="place" v="farm" />
		<tag k="ssr:stedsnr" v="664542" />
	</node>
	<node id="-22642" lat="59.3684249962" lon="10.799663893">
		<tag k="name" v="Løkenbråten" />
		<tag k="place" v="farm" />
		<tag k="ssr:stedsnr" v="663890" />
	</node>
	<node id="-22641" lat="59.3079584498" lon="10.7799864104">
		<tag k="fixme" v="consider place=hamlet" />
		<tag k="name" v="Makrellrød" />
		<tag k="place" v="farm" />
		<tag k="ssr:stedsnr" v="663496" />
	</node>
	<node id="-22640" lat="59.3349277816" lon="10.8063638936">
		<tag k="name" v="Haga" />
		<tag k="place" v="isolated_dwelling" />
		<tag k="ssr:stedsnr" v="663493" />
	</node>
	<node id="-22639" lat="59.3122777736" lon="10.7971611104">
		<tag k="name" v="Skogly" />
		<tag k="place" v="farm" />
		<tag k="ssr:stedsnr" v="453815" />
	</node>
	<node id="-22638" lat="59.3474916704" lon="10.9209638872">
		<tag k="alt_name" v="Bråten" />
		<tag k="name" v="Borgebråten" />
		<tag k="old_name" v="Braaten" />
		<tag k="place" v="farm" />
		<tag k="ssr:stedsnr" v="660082" />
	</node>
	<node id="-22637" lat="59.3825947871" lon="10.9058794772">
		<tag k="fixme" v="consider place=hamlet" />
		<tag k="name" v="Henes" />
		<tag k="place" v="farm" />
		<tag k="ssr:stedsnr" v="427322" />
	</node>
	<node id="-22633" lat="59.3867465214" lon="10.9152724515">
		<tag k="fixme" v="consider place=hamlet" />
		<tag k="name" v="Bjørkå" />
		<tag k="place" v="farm" />
		<tag k="ssr:stedsnr" v="366295" />
	</node>
	<node id="-22632" lat="59.369124534" lon="10.8302135816">
		<tag k="name" v="Haugstenstøa" />
		<tag k="place" v="farm" />
		<tag k="ssr:stedsnr" v="366267" />
	</node>
	<node id="-22630" lat="59.355000882" lon="10.8151936304">
		<tag k="fixme" v="consider place=hamlet" />
		<tag k="name" v="Haug" />
		<tag k="place" v="farm" />
		<tag k="ssr:stedsnr" v="366261" />
	</node>
	<node id="-22629" lat="59.3311805575" lon="10.8714555473">
		<tag k="alt_name" v="Auberg søndre;Augeberg søndre" />
		<tag k="name" v="Søndre Augeberg" />
		<tag k="place" v="farm" />
		<tag k="ssr:stedsnr" v="361864" />
	</node>
	<node id="-22628" lat="59.3603459364" lon="10.819519768">
		<tag k="alt_name" v="Haugesten nedre;Nedre Haugesten" />
		<tag k="fixme" v="consider place=hamlet" />
		<tag k="name" v="Nedre Haugsten" />
		<tag k="place" v="farm" />
		<tag k="ssr:stedsnr" v="359926" />
	</node>
	<node id="-22627" lat="59.3594027811" lon="10.8266138878">
		<tag k="alt_name" v="Haug øvre" />
		<tag k="name" v="Øvre Haug" />
		<tag k="place" v="farm" />
		<tag k="ssr:stedsnr" v="359923" />
	</node>
	<node id="-22626" lat="59.324866665" lon="10.8857472246">
		<tag k="name" v="Enebekk" />
		<tag k="place" v="farm" />
		<tag k="ssr:stedsnr" v="488399" />
	</node>
	<node id="-22625" lat="59.3709861074" lon="10.9355583378">
		<tag k="name" v="Bjørndalen" />
		<tag k="place" v="locality" />
		<tag k="ssr:stedsnr" v="488254" />
	</node>
	<node id="-22624" lat="59.3721833335" lon="10.951808341">
		<tag k="name" v="Leiedalen" />
		<tag k="place" v="farm" />
		<tag k="ssr:stedsnr" v="488243" />
	</node>
	<node id="-22623" lat="59.3586449084" lon="10.8748158577">
		<tag k="fixme" v="consider place=hamlet" />
		<tag k="name" v="Halvorsrød" />
		<tag k="place" v="farm" />
		<tag k="ssr:stedsnr" v="487251" />
	</node>
	<node id="-22621" lat="59.3252777723" lon="10.926810658">
		<tag k="fixme" v="consider place=hamlet" />
		<tag k="name" v="Frakkestad" />
		<tag k="place" v="farm" />
		<tag k="ssr:stedsnr" v="487473" />
	</node>
	<node id="-22615" lat="59.3569500031" lon="10.8033305509">
		<tag k="alt_name" v="Løken søndre" />
		<tag k="name" v="Søndre Løken" />
		<tag k="place" v="farm" />
		<tag k="ssr:stedsnr" v="481924" />
	</node>
	<node id="-22610" lat="59.3301429936" lon="10.8222481156">
		<tag k="fixme" v="consider place=hamlet" />
		<tag k="name" v="Sønsterød" />
		<tag k="place" v="farm" />
		<tag k="ssr:stedsnr" v="306440" />
	</node>
	<node id="-22609" lat="59.333367248" lon="10.7755668302">
		<tag k="fixme" v="consider place=hamlet" />
		<tag k="name" v="Holer" />
		<tag k="place" v="farm" />
		<tag k="ssr:stedsnr" v="306434" />
	</node>
	<node id="-22608" lat="59.3282693813" lon="10.7569354906">
		<tag k="fixme" v="consider place=hamlet" />
		<tag k="name" v="Helgerød" />
		<tag k="place" v="farm" />
		<tag k="ssr:stedsnr" v="306433" />
	</node>
	<node id="-22607" lat="59.3202897117" lon="10.9080531775">
		<tag k="name" v="Tofteberg" />
		<tag k="place" v="hamlet" />
		<tag k="ssr:stedsnr" v="306411" />
	</node>
	<node id="-22606" lat="59.3622499998" lon="10.9518166729">
		<tag k="name" v="Engen" />
		<tag k="place" v="farm" />
		<tag k="ssr:stedsnr" v="300574" />
	</node>
	<node id="-22604" lat="59.348730553" lon="10.7600666637">
		<tag k="name" v="Tyggelite" />
		<tag k="place" v="farm" />
		<tag k="ssr:stedsnr" v="300214" />
	</node>
	<node id="-22603" lat="59.3494833297" lon="10.7759694482">
		<tag k="name" v="Heia" />
		<tag k="place" v="locality" />
		<tag k="ssr:stedsnr" v="299924" />
	</node>
	<node id="-22602" lat="59.339747224" lon="10.770786113">
		<tag k="alt_name" v="Gammelsrød søndre" />
		<tag k="name" v="Søndre Gammelsrød" />
		<tag k="place" v="farm" />
		<tag k="ssr:stedsnr" v="299922" />
	</node>
	<node id="-22599" lat="59.3251972239" lon="10.8745888918">
		<tag k="alt_name" v="Musangen østre" />
		<tag k="name" v="Østre Musangen" />
		<tag k="place" v="farm" />
		<tag k="ssr:stedsnr" v="543797" />
	</node>
	<node id="-22594" lat="59.3484666759" lon="10.884678775">
		<tag k="name" v="Roe" />
		<tag k="place" v="hamlet" />
		<tag k="ssr:stedsnr" v="289401" />
	</node>
	<node id="-22593" lat="59.3145694438" lon="10.87154167">
		<tag k="alt_name" v="Hissingby mellem" />
		<tag k="name" v="Mellom-Hissingby" />
		<tag k="place" v="farm" />
		<tag k="ssr:stedsnr" v="179874" />
	</node>
	<node id="-22592" lat="59.3536944421" lon="10.8817888857">
		<tag k="name" v="Karlshusbunn" />
		<tag k="place" v="farm" />
		<tag k="ssr:stedsnr" v="179272" />
	</node>
	<node id="-22591" lat="59.3688232264" lon="10.7930950475">
		<tag k="fixme" v="consider place=hamlet" />
		<tag k="name" v="Askerød" />
		<tag k="place" v="farm" />
		<tag k="ssr:stedsnr" v="178865" />
	</node>
	<node id="-22590" lat="59.3683583353" lon="10.796069452">
		<tag k="name" v="Granum" />
		<tag k="place" v="farm" />
		<tag k="ssr:stedsnr" v="178864" />
	</node>
	<node id="-22586" lat="59.3069611149" lon="10.7296749944">
		<tag k="name" v="Storesand" />
		<tag k="place" v="isolated_dwelling" />
		<tag k="ssr:stedsnr" v="124357" />
	</node>
	<node id="-22585" lat="59.3142916703" lon="10.8665722227">
		<tag k="name" v="Hissingby" />
		<tag k="place" v="farm" />
		<tag k="ssr:stedsnr" v="118859" />
	</node>
	<node id="-22583" lat="59.3437749996" lon="10.7776777858">
		<tag k="name" v="Heia" />
		<tag k="place" v="farm" />
		<tag k="ssr:stedsnr" v="117924" />
	</node>
	<node id="-22582" lat="59.3405899693" lon="10.7945119686">
		<tag k="alt_name" v="Berg vestre" />
		<tag k="fixme" v="consider place=hamlet" />
		<tag k="name" v="Vestre Berg" />
		<tag k="place" v="farm" />
		<tag k="ssr:stedsnr" v="117909" />
	</node>
	<node id="-22581" lat="59.2979944489" lon="10.7848249947">
		<tag k="name" v="Andersrød" />
		<tag k="place" v="farm" />
		<tag k="ssr:stedsnr" v="117546" />
	</node>
	<node id="-22579" lat="59.3412611093" lon="10.8019499947">
		<tag k="name" v="Sørgård" />
		<tag k="place" v="farm" />
		<tag k="ssr:stedsnr" v="245449" />
	</node>
	<node id="-22577" lat="59.3240111865" lon="10.9105990363">
		<tag k="alt_name" v="Søgård" />
		<tag k="fixme" v="consider place=hamlet" />
		<tag k="name" v="Sørgård" />
		<tag k="place" v="farm" />
		<tag k="ssr:stedsnr" v="245410" />
	</node>
	<node id="-22576" lat="59.3175281549" lon="10.8713652483">
		<tag k="alt_name" v="Hisingby" />
		<tag k="name" v="Hissingby" />
		<tag k="place" v="hamlet" />
		<tag k="ssr:stedsnr" v="245408" />
	</node>
	<node id="-22575" lat="59.3222194999" lon="10.8615275575">
		<tag k="alt_name" v="Brekke" />
		<tag k="fixme" v="consider place=hamlet" />
		<tag k="name" v="Brekka" />
		<tag k="place" v="farm" />
		<tag k="ssr:stedsnr" v="245406" />
	</node>
	<node id="-22574" lat="59.3575498479" lon="10.8129591238">
		<tag k="alt_name" v="Vold" />
		<tag k="fixme" v="consider place=hamlet" />
		<tag k="name" v="Voll" />
		<tag k="place" v="farm" />
		<tag k="ssr:stedsnr" v="245249" />
	</node>
	<node id="-22573" lat="59.3544205315" lon="10.7730197323">
		<tag k="fixme" v="consider place=hamlet" />
		<tag k="name" v="Sarpebakken" />
		<tag k="place" v="farm" />
		<tag k="ssr:stedsnr" v="245238" />
	</node>
	<node id="-22572" lat="59.3534277789" lon="10.9258027693">
		<tag k="alt_name" v="Borgebotn" />
		<tag k="name" v="Borgebunn" />
		<tag k="place" v="farm" />
		<tag k="ssr:stedsnr" v="245233" />
	</node>
	<node id="-22571" lat="59.3476038405" lon="10.9052837396">
		<tag k="name" v="Lundeby" />
		<tag k="place" v="hamlet" />
		<tag k="ssr:stedsnr" v="63526" />
	</node>
	<node id="-22570" lat="59.3486083367" lon="10.8950944391">
		<tag k="name" v="Kirkebø" />
		<tag k="place" v="farm" />
		<tag k="ssr:stedsnr" v="63525" />
	</node>
	<node id="-22569" lat="59.3488814166" lon="10.8637319703">
		<tag k="fixme" v="consider place=hamlet" />
		<tag k="name" v="Skråtorp" />
		<tag k="place" v="farm" />
		<tag k="ssr:stedsnr" v="63509" />
	</node>
	<node id="-22568" lat="59.3465578955" lon="10.8098114997">
		<tag k="name" v="Huseby" />
		<tag k="place" v="hamlet" />
		<tag k="ssr:stedsnr" v="63508" />
	</node>
	<node id="-22566" lat="59.3263083324" lon="10.8754222267">
		<tag k="alt_name" v="Musangen nordre" />
		<tag k="name" v="Nordre Musangen" />
		<tag k="place" v="farm" />
		<tag k="ssr:stedsnr" v="240822" />
	</node>
	<node id="-22564" lat="59.3419622784" lon="10.9153958342">
		<tag k="fixme" v="consider place=hamlet" />
		<tag k="name" v="Borge" />
		<tag k="place" v="farm" />
		<tag k="ssr:stedsnr" v="240383" />
	</node>
	<node id="-22563" lat="59.3603194463" lon="10.8507138832">
		<tag k="name" v="Elvestadstøa" />
		<tag k="place" v="isolated_dwelling" />
		<tag k="ssr:stedsnr" v="240282" />
	</node>
	<node id="-22561" lat="59.3325473277" lon="10.8733495541">
		<tag k="alt_name" v="Auberg" />
		<tag k="name" v="Augeberg" />
		<tag k="place" v="farm" />
		<tag k="ssr:stedsnr" v="58856" />
	</node>
	<node id="-22558" lat="59.3173305561" lon="10.7914083352">
		<tag k="name" v="Hestevoll" />
		<tag k="place" v="farm" />
		<tag k="ssr:stedsnr" v="238554" />
	</node>
</osm>
