<?xml version="1.0" encoding="UTF-8"?>
<<<<<<< HEAD
<osm version="0.6" generator="osmapis">
	<node lat="59.37866667010918" lon="10.804200000868866" id="-12768">
		<tag k="name" v="Vitteberget" />
		<tag k="natural" v="hill" />
		<tag k="place" v="locality" />
		<tag k="ssr:stedsnr" v="238877" />
	</node>
	<node lat="59.29835555642338" lon="10.859744451428185" id="-12786">
		<tag k="name" v="Bjørndalen" />
		<tag k="natural" v="valley" />
		<tag k="place" v="locality" />
		<tag k="ssr:stedsnr" v="118824" />
	</node>
	<node lat="59.34561388714793" lon="10.827191670624973" id="-12798">
		<tag k="fixme" v="consider natural=peak for the most distinct mountains in the district" />
		<tag k="name" v="Varden" />
		<tag k="natural" v="hill" />
		<tag k="place" v="locality" />
		<tag k="ssr:stedsnr" v="178921" />
	</node>
	<node lat="59.33705555986699" lon="10.881463889069062" id="-12808">
		<tag k="name" v="Lunderberget" />
		<tag k="natural" v="hill" />
		<tag k="place" v="locality" />
		<tag k="ssr:stedsnr" v="240385" />
	</node>
	<node lat="59.360083337330096" lon="10.9088333327751" id="-12820">
		<tag k="fixme" v="consider natural=peak for the most distinct mountains in the district" />
		<tag k="name" v="Fugleleiken" />
		<tag k="natural" v="hill" />
		<tag k="place" v="locality" />
		<tag k="ssr:stedsnr" v="300274" />
	</node>
	<node lat="59.36733611219193" lon="10.945669447720562" id="-12822">
		<tag k="fixme" v="consider natural=peak for the most distinct mountains in the district" />
		<tag k="name" v="Langklo" />
		<tag k="natural" v="hill" />
		<tag k="place" v="locality" />
		<tag k="ssr:stedsnr" v="300581" />
	</node>
	<node lat="59.35903888979299" lon="10.932525007194606" id="-12842">
		<tag k="fixme" v="consider natural=peak for the most distinct mountains in the district" />
		<tag k="name" v="Vetaåsen" />
		<tag k="natural" v="hill" />
		<tag k="place" v="locality" />
		<tag k="ssr:stedsnr" v="487249" />
	</node>
	<node lat="59.32803055847126" lon="10.764305547597678" id="-12857">
=======
<osm generator="osmapis" version="0.6">
	<node id="-242880" lat="59.3853583327" lon="10.8099972275">
>>>>>>> e1d4bc35ff8a6074a6f2e91616a996b547c36f15
		<tag k="fixme" v="consider natural=peak for the most distinct mountains in the district" />
		<tag k="name" v="Fugleleiken" />
		<tag k="natural" v="hill" />
		<tag k="place" v="locality" />
		<tag k="ssr:stedsnr" v="724902" />
	</node>
<<<<<<< HEAD
	<node lat="59.297791668651136" lon="10.83233611245161" id="-12877">
=======
	<node id="-242811" lat="59.325369445" lon="10.7566444424">
>>>>>>> e1d4bc35ff8a6074a6f2e91616a996b547c36f15
		<tag k="fixme" v="consider natural=peak for the most distinct mountains in the district" />
		<tag k="name" v="Rørfjell" />
		<tag k="natural" v="hill" />
		<tag k="place" v="locality" />
		<tag k="ssr:stedsnr" v="608406" />
	</node>
	<node lat="59.3900722262075" lon="10.950336115300576" id="-12883">
		<tag k="name" v="Danserfjella" />
		<tag k="natural" v="mountain_range" />
		<tag k="ssr:stedsnr" v="609292" />
	</node>
<<<<<<< HEAD
	<node lat="59.38535833268201" lon="10.809997227548182" id="-12905">
		<tag k="fixme" v="consider natural=peak for the most distinct mountains in the district" />
		<tag k="name" v="Fugleleiken" />
		<tag k="natural" v="hill" />
		<tag k="place" v="locality" />
		<tag k="ssr:stedsnr" v="724902" />
	</node>
	<node lat="59.29944166667519" lon="10.820427773189046" id="-12937">
		<tag k="name" v="Jerndalsfjellet" />
		<tag k="natural" v="ridge" />
=======
	<node id="-243155" lat="59.3559722217" lon="10.9274611044">
		<tag k="fixme" v="consider natural=peak for the most distinct mountains in the district" />
		<tag k="name" v="Bunnåsen" />
		<tag k="natural" v="hill" />
		<tag k="place" v="locality" />
		<tag k="ssr:stedsnr" v="968283" />
	</node>
	<node id="-243051" lat="59.332011111" lon="10.791336113">
		<tag k="fixme" v="consider natural=peak for the most distinct mountains in the district" />
		<tag k="name" v="Vardås" />
		<tag k="natural" v="hill" />
>>>>>>> e1d4bc35ff8a6074a6f2e91616a996b547c36f15
		<tag k="place" v="locality" />
		<tag k="ssr:stedsnr" v="845574" />
	</node>
<<<<<<< HEAD
	<node lat="59.30718888588225" lon="10.812288891862869" id="-12974">
		<tag k="name" v="Jerndalen" />
		<tag k="natural" v="valley" />
=======
	<node id="-242790" lat="59.3174638895" lon="10.8807861097">
		<tag k="name" v="Revjehaugen" />
		<tag k="natural" v="hill" />
>>>>>>> e1d4bc35ff8a6074a6f2e91616a996b547c36f15
		<tag k="place" v="locality" />
		<tag k="ssr:stedsnr" v="56550" />
	</node>
<<<<<<< HEAD
	<node lat="59.30653055722574" lon="10.826113884811358" id="-12975">
		<tag k="name" v="Tombdalen" />
		<tag k="natural" v="valley" />
		<tag k="place" v="locality" />
		<tag k="ssr:stedsnr" v="56552" />
	</node>
	<node lat="59.340630555281145" lon="10.96355277404996" id="-12990">
=======
	<node id="-243034" lat="59.3062361113" lon="10.8994555564">
>>>>>>> e1d4bc35ff8a6074a6f2e91616a996b547c36f15
		<tag k="fixme" v="consider natural=peak for the most distinct mountains in the district" />
		<tag k="name" v="Gullikås" />
		<tag k="natural" v="hill" />
		<tag k="place" v="locality" />
		<tag k="ssr:stedsnr" v="113361" />
	</node>
<<<<<<< HEAD
	<node lat="59.33915833257617" lon="10.853711103955357" id="-12994">
=======
	<node id="-242905" lat="59.3550491544" lon="10.9356279974">
>>>>>>> e1d4bc35ff8a6074a6f2e91616a996b547c36f15
		<tag k="fixme" v="consider natural=peak for the most distinct mountains in the district" />
		<tag k="name" v="Strømnesfjellet" />
		<tag k="natural" v="hill" />
		<tag k="place" v="locality" />
		<tag k="ssr:stedsnr" v="118353" />
	</node>
<<<<<<< HEAD
	<node lat="59.31746388953901" lon="10.880786109736336" id="-12997">
		<tag k="name" v="Revjehaugen" />
=======
	<node id="-243160" lat="59.3026845165" lon="10.6702101167">
		<tag k="name" v="Tuva" />
>>>>>>> e1d4bc35ff8a6074a6f2e91616a996b547c36f15
		<tag k="natural" v="hill" />
		<tag k="place" v="locality" />
		<tag k="ssr:stedsnr" v="118817" />
	</node>
<<<<<<< HEAD
	<node lat="59.305002778421645" lon="10.835605555992899" id="-13013">
		<tag k="name" v="Hasledalen" />
		<tag k="natural" v="valley" />
		<tag k="place" v="locality" />
		<tag k="ssr:stedsnr" v="179828" />
	</node>
	<node lat="59.32536944499466" lon="10.756644442352249" id="-13027">
		<tag k="fixme" v="consider natural=peak for the most distinct mountains in the district" />
		<tag k="name" v="Vestre Åsen" />
=======
	<node id="-242771" lat="59.3370555599" lon="10.8814638891">
		<tag k="name" v="Lunderberget" />
>>>>>>> e1d4bc35ff8a6074a6f2e91616a996b547c36f15
		<tag k="natural" v="hill" />
		<tag k="place" v="locality" />
		<tag k="ssr:stedsnr" v="299955" />
	</node>
<<<<<<< HEAD
	<node lat="59.306236111335004" lon="10.899455556372178" id="-13036">
=======
	<node id="-243153" lat="59.2909333303" lon="10.8332499947">
>>>>>>> e1d4bc35ff8a6074a6f2e91616a996b547c36f15
		<tag k="fixme" v="consider natural=peak for the most distinct mountains in the district" />
		<tag k="name" v="Ravneberget" />
		<tag k="natural" v="hill" />
		<tag k="place" v="locality" />
		<tag k="ssr:stedsnr" v="359885" />
	</node>
<<<<<<< HEAD
	<node lat="59.33201111100577" lon="10.79133611301394" id="-13057">
		<tag k="fixme" v="consider natural=peak for the most distinct mountains in the district" />
		<tag k="name" v="Vardås" />
=======
	<node id="-242765" lat="59.3786666701" lon="10.8042000009">
		<tag k="name" v="Vitteberget" />
>>>>>>> e1d4bc35ff8a6074a6f2e91616a996b547c36f15
		<tag k="natural" v="hill" />
		<tag k="place" v="locality" />
		<tag k="ssr:stedsnr" v="420567" />
	</node>
<<<<<<< HEAD
	<node lat="59.30293611298122" lon="10.912513894353715" id="-13059">
=======
	<node id="-243011" lat="59.3673361122" lon="10.9456694477">
>>>>>>> e1d4bc35ff8a6074a6f2e91616a996b547c36f15
		<tag k="fixme" v="consider natural=peak for the most distinct mountains in the district" />
		<tag k="name" v="Ælinåsen" />
		<tag k="natural" v="hill" />
		<tag k="place" v="locality" />
<<<<<<< HEAD
		<tag k="ssr:stedsnr" v="420933" />
	</node>
	<node lat="59.33285833308199" lon="10.940424996162362" id="-13061">
		<tag k="fixme" v="consider natural=peak for the most distinct mountains in the district" />
		<tag k="name" v="Høyås" />
		<tag k="natural" v="hill" />
		<tag k="place" v="locality" />
		<tag k="ssr:stedsnr" v="422777" />
	</node>
	<node lat="59.29126944093118" lon="10.843925006417098" id="-13065">
		<tag k="name" v="Bjørndalen" />
		<tag k="natural" v="valley" />
=======
		<tag k="ssr:stedsnr" v="300581" />
	</node>
	<node id="-243010" lat="59.3050027784" lon="10.835605556">
		<tag k="name" v="Hasledalen" />
		<tag k="natural" v="valley" />
		<tag k="place" v="locality" />
		<tag k="ssr:stedsnr" v="179828" />
	</node>
	<node id="-242881" lat="59.2999694419" lon="10.9157555545">
		<tag k="name" v="Bjørndalen" />
		<tag k="natural" v="valley" />
		<tag k="place" v="locality" />
		<tag k="ssr:stedsnr" v="724943" />
	</node>
	<node id="-243008" lat="59.3456138871" lon="10.8271916706">
		<tag k="fixme" v="consider natural=peak for the most distinct mountains in the district" />
		<tag k="name" v="Varden" />
		<tag k="natural" v="hill" />
		<tag k="place" v="locality" />
		<tag k="ssr:stedsnr" v="178921" />
	</node>
	<node id="-243133" lat="59.2994416667" lon="10.8204277732">
		<tag k="name" v="Jerndalsfjellet" />
		<tag k="natural" v="ridge" />
>>>>>>> e1d4bc35ff8a6074a6f2e91616a996b547c36f15
		<tag k="place" v="locality" />
		<tag k="ssr:stedsnr" v="495843" />
	</node>
<<<<<<< HEAD
	<node lat="59.31252499959603" lon="10.875188891893126" id="-13079">
		<tag k="name" v="Revehaugen" />
=======
	<node id="-242876" lat="59.2977916687" lon="10.8323361125">
		<tag k="fixme" v="consider natural=peak for the most distinct mountains in the district" />
		<tag k="name" v="Rørfjell" />
>>>>>>> e1d4bc35ff8a6074a6f2e91616a996b547c36f15
		<tag k="natural" v="hill" />
		<tag k="place" v="locality" />
		<tag k="ssr:stedsnr" v="602886" />
	</node>
<<<<<<< HEAD
	<node lat="59.35504915438001" lon="10.93562799738114" id="-13097">
=======
	<node id="-243003" lat="59.3600833373" lon="10.9088333328">
>>>>>>> e1d4bc35ff8a6074a6f2e91616a996b547c36f15
		<tag k="fixme" v="consider natural=peak for the most distinct mountains in the district" />
		<tag k="name" v="Ridefjell" />
		<tag k="natural" v="hill" />
		<tag k="place" v="locality" />
		<tag k="ssr:stedsnr" v="664227" />
	</node>
<<<<<<< HEAD
	<node lat="59.2999694418777" lon="10.915755554512039" id="-13107">
=======
	<node id="-242988" lat="59.2983555564" lon="10.8597444514">
>>>>>>> e1d4bc35ff8a6074a6f2e91616a996b547c36f15
		<tag k="name" v="Bjørndalen" />
		<tag k="natural" v="valley" />
		<tag k="place" v="locality" />
		<tag k="ssr:stedsnr" v="724943" />
	</node>
<<<<<<< HEAD
	<node lat="59.29093333026365" lon="10.833249994697997" id="-13153">
=======
	<node id="-242982" lat="59.3391583326" lon="10.853711104">
>>>>>>> e1d4bc35ff8a6074a6f2e91616a996b547c36f15
		<tag k="fixme" v="consider natural=peak for the most distinct mountains in the district" />
		<tag k="name" v="Ravneberg" />
		<tag k="natural" v="hill" />
		<tag k="place" v="locality" />
		<tag k="ssr:stedsnr" v="967789" />
	</node>
<<<<<<< HEAD
	<node lat="59.35597222172238" lon="10.927461104384099" id="-13155">
=======
	<node id="-243057" lat="59.3328583331" lon="10.9404249962">
		<tag k="fixme" v="consider natural=peak for the most distinct mountains in the district" />
		<tag k="name" v="Høyås" />
		<tag k="natural" v="hill" />
		<tag k="place" v="locality" />
		<tag k="ssr:stedsnr" v="422777" />
	</node>
	<node id="-242980" lat="59.3406305553" lon="10.963552774">
>>>>>>> e1d4bc35ff8a6074a6f2e91616a996b547c36f15
		<tag k="fixme" v="consider natural=peak for the most distinct mountains in the district" />
		<tag k="name" v="Bunnåsen" />
		<tag k="natural" v="hill" />
		<tag k="place" v="locality" />
		<tag k="ssr:stedsnr" v="968283" />
	</node>
	<node lat="59.30268451654243" lon="10.670210116732301" id="-13158">
		<tag k="name" v="Tuva" />
		<tag k="natural" v="hill" />
		<tag k="place" v="locality" />
		<tag k="ssr:stedsnr" v="987082" />
	</node>
	<node id="-243099" lat="59.3900722262" lon="10.9503361153">
		<tag k="name" v="Danserfjella" />
		<tag k="natural" v="mountain_range" />
		<tag k="ssr:stedsnr" v="609292" />
	</node>
	<node id="-242842" lat="59.302936113" lon="10.9125138944">
		<tag k="fixme" v="consider natural=peak for the most distinct mountains in the district" />
		<tag k="name" v="Ælinåsen" />
		<tag k="natural" v="hill" />
		<tag k="place" v="locality" />
		<tag k="ssr:stedsnr" v="420933" />
	</node>
	<node id="-242840" lat="59.2912694409" lon="10.8439250064">
		<tag k="name" v="Bjørndalen" />
		<tag k="natural" v="valley" />
		<tag k="place" v="locality" />
		<tag k="ssr:stedsnr" v="495843" />
	</node>
	<node id="-242963" lat="59.3065305572" lon="10.8261138848">
		<tag k="name" v="Tombdalen" />
		<tag k="natural" v="valley" />
		<tag k="place" v="locality" />
		<tag k="ssr:stedsnr" v="56552" />
	</node>
	<node id="-242962" lat="59.3071888859" lon="10.8122888919">
		<tag k="name" v="Jerndalen" />
		<tag k="natural" v="valley" />
		<tag k="place" v="locality" />
		<tag k="ssr:stedsnr" v="56550" />
	</node>
	<node id="-243088" lat="59.3125249996" lon="10.8751888919">
		<tag k="name" v="Revehaugen" />
		<tag k="natural" v="hill" />
		<tag k="place" v="locality" />
		<tag k="ssr:stedsnr" v="602886" />
	</node>
	<node id="-242828" lat="59.3590388898" lon="10.9325250072">
		<tag k="fixme" v="consider natural=peak for the most distinct mountains in the district" />
		<tag k="name" v="Vetaåsen" />
		<tag k="natural" v="hill" />
		<tag k="place" v="locality" />
		<tag k="ssr:stedsnr" v="487249" />
	</node>
	<node id="-242819" lat="59.3280305585" lon="10.7643055476">
		<tag k="fixme" v="consider natural=peak for the most distinct mountains in the district" />
		<tag k="name" v="Østre Åsen" />
		<tag k="natural" v="hill" />
		<tag k="place" v="locality" />
		<tag k="ssr:stedsnr" v="481904" />
	</node>
</osm>
