<?xml version="1.0" encoding="UTF-8"?>
<<<<<<< HEAD
<osm version="0.6" generator="osmapis">
	<node lat="59.28870833202469" lon="10.690613891180101" id="-12765">
		<tag k="alt_name" v="Posgrunnen" />
		<tag k="name" v="Påsgrunnen" />
		<tag k="natural" v="shoal" />
		<tag k="place" v="locality" />
		<tag k="ssr:stedsnr" v="3601" />
	</node>
	<node lat="59.2945416629156" lon="10.726397220973954" id="-12776">
		<tag k="name" v="Jammerlappen" />
		<tag k="natural" v="shoal" />
		<tag k="place" v="locality" />
		<tag k="ssr:stedsnr" v="240875" />
	</node>
	<node lat="59.2896444477137" lon="10.677727775637752" id="-12782">
		<tag k="name" v="Mellom-Sletter" />
		<tag k="place" v="islet" />
		<tag k="ssr:stedsnr" v="246607" />
	</node>
	<node lat="59.29924722197638" lon="10.741491660377108" id="-12794">
		<tag k="fixme" v="consider seamark:type=rock or natural=shoal" />
		<tag k="name" v="Vrangbeinskjæret" />
		<tag k="place" v="islet" />
		<tag k="ssr:stedsnr" v="145824" />
	</node>
	<node lat="59.29245833675093" lon="10.75056667363919" id="-12795">
		<tag k="name" v="Rubingen" />
		<tag k="natural" v="bay" />
		<tag k="ssr:stedsnr" v="149809" />
	</node>
	<node lat="59.329691664273426" lon="10.73835832879616" id="-12802">
		<tag k="name" v="Kurefjorden" />
		<tag k="natural" v="bay" />
		<tag k="ssr:stedsnr" v="184616" />
	</node>
	<node lat="59.32855000221848" lon="10.747808332363608" id="-12805">
		<tag k="name" v="Labu" />
		<tag k="place" v="islet" />
		<tag k="ssr:stedsnr" v="449754" />
	</node>
	<node lat="59.30938611497092" lon="10.716461102606656" id="-12814">
		<tag k="fixme" v="consider seamark:type=rock or natural=shoal" />
		<tag k="name" v="Kameratskjær" />
		<tag k="place" v="islet" />
		<tag k="ssr:stedsnr" v="271895" />
	</node>
	<node lat="59.297863893269316" lon="10.663461107041652" id="-12815">
		<tag k="name" v="Haukebukta" />
		<tag k="natural" v="bay" />
		<tag k="ssr:stedsnr" v="271913" />
	</node>
	<node lat="59.311630558450744" lon="10.668863889437919" id="-12830">
		<tag k="name" v="Sletterhakan" />
		<tag k="natural" v="shoal" />
		<tag k="place" v="locality" />
		<tag k="ssr:stedsnr" v="331903" />
	</node>
	<node lat="59.30737500315276" lon="10.75274722805078" id="-12844">
		<tag k="alt_name" v="Vrangbein" />
		<tag k="name" v="Vrangben" />
		<tag k="place" v="islet" />
		<tag k="ssr:stedsnr" v="487442" />
	</node>
	<node lat="59.30392777689537" lon="10.711591670005301" id="-12856">
=======
<osm generator="osmapis" version="0.6">
	<node id="-242943" lat="59.3105916668" lon="10.744638895">
		<tag k="name" v="Svarteskjærtangen" />
		<tag k="natural" v="cape" />
		<tag k="ssr:stedsnr" v="966564" />
	</node>
	<node id="-242773" lat="59.2945416629" lon="10.726397221">
		<tag k="name" v="Jammerlappen" />
		<tag k="natural" v="shoal" />
		<tag k="place" v="locality" />
		<tag k="ssr:stedsnr" v="240875" />
	</node>
	<node id="-242939" lat="59.2959861068" lon="10.738050002">
		<tag k="name" v="Svenskehausen" />
		<tag k="natural" v="shoal" />
		<tag k="place" v="locality" />
		<tag k="ssr:stedsnr" v="874820" />
	</node>
	<node id="-242807" lat="59.2978638933" lon="10.663461107">
		<tag k="name" v="Haukebukta" />
		<tag k="natural" v="bay" />
		<tag k="ssr:stedsnr" v="271913" />
	</node>
	<node id="-242806" lat="59.3039277769" lon="10.71159167">
>>>>>>> e1d4bc35ff8a6074a6f2e91616a996b547c36f15
		<tag k="name" v="Perbåen" />
		<tag k="place" v="locality" />
		<tag k="seamark:type" v="rock" />
		<tag k="ssr:stedsnr" v="453877" />
	</node>
<<<<<<< HEAD
	<node lat="59.28493333643997" lon="10.71801110586506" id="-12860">
		<tag k="name" v="Rødskjærhausen" />
		<tag k="natural" v="shoal" />
		<tag k="place" v="locality" />
		<tag k="ssr:stedsnr" v="513784" />
	</node>
	<node lat="59.30619722623084" lon="10.728077769837034" id="-12862">
		<tag k="name" v="Storesand" />
		<tag k="natural" v="beach" />
		<tag k="ssr:stedsnr" v="541569" />
	</node>
	<node lat="59.26559999913176" lon="10.626097218238737" id="-12874">
		<tag k="name" v="Bjørnen" />
		<tag k="natural" v="shoal" />
		<tag k="place" v="locality" />
		<tag k="ssr:stedsnr" v="549642" />
	</node>
	<node lat="59.33619722566456" lon="10.746286104858466" id="-12875">
		<tag k="name" v="Badehuset" />
		<tag k="natural" v="cape" />
		<tag k="ssr:stedsnr" v="570758" />
	</node>
	<node lat="59.27696388728951" lon="10.675313896485834" id="-12887">
		<tag k="name" v="Slettertangen" />
		<tag k="natural" v="cape" />
		<tag k="ssr:stedsnr" v="631880" />
	</node>
	<node lat="59.313347219046406" lon="10.729769444587903" id="-12888">
		<tag k="alt_name" v="Kokholmsundet" />
		<tag k="name" v="Kokholmsund" />
=======
	<node id="-242804" lat="59.3285500022" lon="10.7478083324">
		<tag k="name" v="Labu" />
		<tag k="place" v="islet" />
		<tag k="ssr:stedsnr" v="449754" />
	</node>
	<node id="-243052" lat="59.3118250005" lon="10.7209138853">
		<tag k="name" v="Kokholmen" />
		<tag k="place" v="islet" />
		<tag k="ssr:stedsnr" v="420583" />
	</node>
	<node id="-242795" lat="59.2924583368" lon="10.7505666736">
		<tag k="name" v="Rubingen" />
		<tag k="natural" v="bay" />
		<tag k="ssr:stedsnr" v="149809" />
	</node>
	<node id="-243050" lat="59.3043611099" lon="10.6784416616">
		<tag k="name" v="Nesblinda" />
>>>>>>> e1d4bc35ff8a6074a6f2e91616a996b547c36f15
		<tag k="natural" v="strait" />
		<tag k="ssr:stedsnr" v="634892" />
	</node>
	<node lat="59.31443610749477" lon="10.751158326240278" id="-12901">
		<tag k="alt_name" v="Åvensund" />
		<tag k="name" v="Åvensundet" />
		<tag k="natural" v="bay" />
		<tag k="ssr:stedsnr" v="670400" />
	</node>
<<<<<<< HEAD
	<node lat="59.306347226380964" lon="10.737841674216481" id="-12903">
=======
	<node id="-242793" lat="59.309386115" lon="10.7164611026">
>>>>>>> e1d4bc35ff8a6074a6f2e91616a996b547c36f15
		<tag k="fixme" v="consider seamark:type=rock or natural=shoal" />
		<tag k="name" v="Raskjæret" />
		<tag k="place" v="islet" />
		<tag k="ssr:stedsnr" v="695768" />
	</node>
<<<<<<< HEAD
	<node lat="59.29656388535746" lon="10.665369440115931" id="-12913">
		<tag k="name" v="Vesle Sletter" />
		<tag k="natural" v="cape" />
		<tag k="ssr:stedsnr" v="754250" />
	</node>
	<node lat="59.30589722358725" lon="10.754391671680454" id="-12917">
=======
	<node id="-242918" lat="59.3058972236" lon="10.7543916717">
>>>>>>> e1d4bc35ff8a6074a6f2e91616a996b547c36f15
		<tag k="fixme" v="consider seamark:type=rock or natural=shoal" />
		<tag k="name" v="Guleskjær" />
		<tag k="place" v="islet" />
		<tag k="ssr:stedsnr" v="907185" />
	</node>
<<<<<<< HEAD
	<node lat="59.28805833653049" lon="10.742830559124236" id="-12930">
		<tag k="alt_name" v="Saltnesholmen" />
		<tag k="name" v="Saltholmen" />
=======
	<node id="-242786" lat="59.2896444477" lon="10.6777277756">
		<tag k="name" v="Mellom-Sletter" />
>>>>>>> e1d4bc35ff8a6074a6f2e91616a996b547c36f15
		<tag k="place" v="islet" />
		<tag k="ssr:stedsnr" v="792386" />
	</node>
<<<<<<< HEAD
	<node lat="59.30172500186597" lon="10.667327781566163" id="-12966">
		<tag k="name" v="Store Sletter" />
		<tag k="place" v="island" />
		<tag k="ssr:stedsnr" v="2665" />
	</node>
	<node lat="59.29017222153215" lon="10.733486105211819" id="-12967">
		<tag k="name" v="Saltholmhausen" />
		<tag k="natural" v="shoal" />
		<tag k="place" v="locality" />
		<tag k="ssr:stedsnr" v="24788" />
	</node>
	<node lat="59.308591663991436" lon="10.775194446724479" id="-12969">
		<tag k="alt_name" v="Makrelskjæret" />
=======
	<node id="-243038" lat="59.2149722232" lon="10.6363416708">
		<tag k="bay" v="fjord" />
		<tag k="name" v="Oslofjorden" />
		<tag k="natural" v="bay" />
		<tag k="ssr:stedsnr" v="365030" />
	</node>
	<node id="-242908" lat="59.3063472264" lon="10.7378416742">
>>>>>>> e1d4bc35ff8a6074a6f2e91616a996b547c36f15
		<tag k="fixme" v="consider seamark:type=rock or natural=shoal" />
		<tag k="name" v="Makrellskjær" />
		<tag k="place" v="islet" />
<<<<<<< HEAD
		<tag k="ssr:stedsnr" v="28844" />
	</node>
	<node lat="59.28028610838099" lon="10.677038884981194" id="-12988">
		<tag k="name" v="Søndre Sletter" />
		<tag k="place" v="islet" />
		<tag k="ssr:stedsnr" v="64638" />
	</node>
	<node lat="59.32635833271713" lon="10.732949995146" id="-13001">
		<tag k="name" v="Knappholmene" />
		<tag k="place" v="islet" />
		<tag k="ssr:stedsnr" v="123501" />
	</node>
	<node lat="59.30740555950311" lon="10.76724167547583" id="-13015">
		<tag k="name" v="Krokstadfjorden" />
		<tag k="natural" v="bay" />
		<tag k="ssr:stedsnr" v="184424" />
	</node>
	<node lat="59.29172777534461" lon="10.69462500105556" id="-13017">
=======
		<tag k="ssr:stedsnr" v="695768" />
	</node>
	<node id="-243032" lat="59.2912111127" lon="10.714213882">
		<tag k="bay" v="fjord" />
		<tag k="name" v="Krokstadleira" />
		<tag k="natural" v="bay" />
		<tag k="ssr:stedsnr" v="331883" />
	</node>
	<node id="-242901" lat="59.3171333368" lon="10.729241674">
		<tag k="name" v="Husholmen" />
		<tag k="place" v="islet" />
		<tag k="ssr:stedsnr" v="877879" />
	</node>
	<node id="-243022" lat="59.3184972252" lon="10.7414194402">
		<tag k="name" v="Grindholmen" />
		<tag k="place" v="island" />
		<tag k="ssr:stedsnr" v="210791" />
	</node>
	<node id="-243149" lat="59.3096555589" lon="10.7620472298">
		<tag k="name" v="Båsane" />
		<tag k="natural" v="cape" />
		<tag k="ssr:stedsnr" v="874778" />
	</node>
	<node id="-243148" lat="59.2927833314" lon="10.6534583377">
		<tag k="name" v="Bråttene" />
		<tag k="natural" v="shoal" />
		<tag k="place" v="locality" />
		<tag k="ssr:stedsnr" v="853629" />
	</node>
	<node id="-243019" lat="59.2917277753" lon="10.6946250011">
>>>>>>> e1d4bc35ff8a6074a6f2e91616a996b547c36f15
		<tag k="name" v="Åletitten" />
		<tag k="natural" v="shoal" />
		<tag k="place" v="locality" />
		<tag k="ssr:stedsnr" v="184658" />
	</node>
<<<<<<< HEAD
	<node lat="59.31441439183827" lon="10.740004001851304" id="-13020">
		<tag k="name" v="Grindholmen" />
		<tag k="place" v="island" />
		<tag k="ssr:stedsnr" v="210791" />
	</node>
	<node lat="59.29121111274525" lon="10.71421388199044" id="-13034">
		<tag k="bay" v="fjord" />
		<tag k="name" v="Krokstadleira" />
=======
	<node id="-243018" lat="59.3296916643" lon="10.7383583288">
		<tag k="name" v="Kurefjorden" />
>>>>>>> e1d4bc35ff8a6074a6f2e91616a996b547c36f15
		<tag k="natural" v="bay" />
		<tag k="ssr:stedsnr" v="331883" />
	</node>
<<<<<<< HEAD
	<node lat="59.214972223183594" lon="10.636341670814504" id="-13043">
		<tag k="bay" v="fjord" />
		<tag k="name" v="Oslofjorden" />
=======
	<node id="-243014" lat="59.3074055595" lon="10.7672416755">
		<tag k="name" v="Krokstadfjorden" />
>>>>>>> e1d4bc35ff8a6074a6f2e91616a996b547c36f15
		<tag k="natural" v="bay" />
		<tag k="ssr:stedsnr" v="365030" />
	</node>
<<<<<<< HEAD
	<node lat="59.30436110985566" lon="10.678441661616514" id="-13056">
		<tag k="name" v="Nesblinda" />
		<tag k="natural" v="strait" />
		<tag k="ssr:stedsnr" v="392892" />
	</node>
	<node lat="59.31182500049692" lon="10.720913885304682" id="-13058">
		<tag k="name" v="Kokholmen" />
=======
	<node id="-243139" lat="59.3000805581" lon="10.6609416637">
		<tag k="name" v="Seiltangen" />
		<tag k="natural" v="cape" />
		<tag k="ssr:stedsnr" v="847237" />
	</node>
	<node id="-242891" lat="59.313347219" lon="10.7297694446">
		<tag k="alt_name" v="Kokholmsundet" />
		<tag k="name" v="Kokholmsund" />
		<tag k="natural" v="strait" />
		<tag k="ssr:stedsnr" v="634892" />
	</node>
	<node id="-242869" lat="59.3061972262" lon="10.7280777698">
		<tag k="name" v="Storesand" />
		<tag k="natural" v="beach" />
		<tag k="place" v="locality" />
		<tag k="ssr:stedsnr" v="541569" />
	</node>
	<node id="-242890" lat="59.3045388856" lon="10.7320527794">
		<tag k="fixme" v="consider seamark:type=rock or natural=shoal" />
		<tag k="name" v="Stongeskjær" />
		<tag k="place" v="islet" />
		<tag k="ssr:stedsnr" v="634818" />
	</node>
	<node id="-243129" lat="59.2947611128" lon="10.6621361028">
		<tag k="name" v="Brotta" />
>>>>>>> e1d4bc35ff8a6074a6f2e91616a996b547c36f15
		<tag k="place" v="islet" />
		<tag k="ssr:stedsnr" v="420583" />
	</node>
<<<<<<< HEAD
	<node lat="59.30679444536585" lon="10.75784999261106" id="-13087">
		<tag k="name" v="Pampus" />
=======
	<node id="-243127" lat="59.2967611152" lon="10.6471305487">
		<tag k="name" v="Hauken" />
>>>>>>> e1d4bc35ff8a6074a6f2e91616a996b547c36f15
		<tag k="natural" v="shoal" />
		<tag k="place" v="locality" />
		<tag k="ssr:stedsnr" v="631776" />
	</node>
<<<<<<< HEAD
	<node lat="59.33974999638048" lon="10.74706389678334" id="-13088">
		<tag k="name" v="Grågåstangen" />
		<tag k="natural" v="cape" />
		<tag k="ssr:stedsnr" v="631777" />
	</node>
	<node lat="59.30068055687123" lon="10.715658341564247" id="-13089">
		<tag k="fixme" v="consider seamark:type=rock or natural=shoal" />
		<tag k="name" v="Åvenskjær" />
=======
	<node id="-243126" lat="59.2880583365" lon="10.7428305591">
		<tag k="alt_name" v="Saltnesholmen" />
		<tag k="name" v="Saltholmen" />
>>>>>>> e1d4bc35ff8a6074a6f2e91616a996b547c36f15
		<tag k="place" v="islet" />
		<tag k="ssr:stedsnr" v="631783" />
	</node>
<<<<<<< HEAD
	<node lat="59.30453888556499" lon="10.732052779365755" id="-13090">
		<tag k="fixme" v="consider seamark:type=rock or natural=shoal" />
		<tag k="name" v="Stongeskjær" />
		<tag k="place" v="islet" />
		<tag k="ssr:stedsnr" v="634818" />
	</node>
	<node lat="59.31432500195979" lon="10.720619437382622" id="-13129">
		<tag k="name" v="Hestholmen" />
		<tag k="place" v="islet" />
		<tag k="ssr:stedsnr" v="791626" />
	</node>
	<node lat="59.29676111521477" lon="10.647130548655172" id="-13131">
		<tag k="name" v="Hauken" />
		<tag k="natural" v="shoal" />
		<tag k="place" v="locality" />
		<tag k="ssr:stedsnr" v="817794" />
	</node>
	<node lat="59.294761112790304" lon="10.662136102837234" id="-13132">
		<tag k="name" v="Brotta" />
		<tag k="place" v="islet" />
		<tag k="ssr:stedsnr" v="817909" />
	</node>
	<node lat="59.300080558107695" lon="10.660941663665369" id="-13139">
		<tag k="name" v="Seiltangen" />
		<tag k="natural" v="cape" />
		<tag k="ssr:stedsnr" v="847237" />
	</node>
	<node lat="59.29278333138545" lon="10.653458337654698" id="-13144">
		<tag k="name" v="Bråttene" />
		<tag k="natural" v="shoal" />
		<tag k="place" v="locality" />
		<tag k="ssr:stedsnr" v="853629" />
	</node>
	<node lat="59.30965555892495" lon="10.762047229774998" id="-13145">
		<tag k="name" v="Båsane" />
=======
	<node id="-243125" lat="59.314325002" lon="10.7206194374">
		<tag k="name" v="Hestholmen" />
		<tag k="place" v="islet" />
		<tag k="ssr:stedsnr" v="791626" />
	</node>
	<node id="-242866" lat="59.3073750032" lon="10.7527472281">
		<tag k="alt_name" v="Vrangbein" />
		<tag k="name" v="Vrangben" />
		<tag k="place" v="islet" />
		<tag k="ssr:stedsnr" v="487442" />
	</node>
	<node id="-242990" lat="59.3263583327" lon="10.7329499951">
		<tag k="name" v="Knappholmene" />
		<tag k="place" v="islet" />
		<tag k="ssr:stedsnr" v="123501" />
	</node>
	<node id="-242861" lat="59.3144361075" lon="10.7511583262">
		<tag k="alt_name" v="Åvensund" />
		<tag k="name" v="Åvensundet" />
		<tag k="natural" v="bay" />
		<tag k="ssr:stedsnr" v="670400" />
	</node>
	<node id="-242957" lat="59.2901722215" lon="10.7334861052">
		<tag k="name" v="Saltholmhausen" />
		<tag k="natural" v="shoal" />
		<tag k="place" v="locality" />
		<tag k="ssr:stedsnr" v="24788" />
	</node>
	<node id="-243107" lat="59.2965638854" lon="10.6653694401">
		<tag k="name" v="Vesle Sletter" />
>>>>>>> e1d4bc35ff8a6074a6f2e91616a996b547c36f15
		<tag k="natural" v="cape" />
		<tag k="ssr:stedsnr" v="874778" />
	</node>
<<<<<<< HEAD
	<node lat="59.29598610684705" lon="10.738050001977925" id="-13146">
		<tag k="name" v="Svenskehausen" />
		<tag k="natural" v="shoal" />
		<tag k="place" v="locality" />
		<tag k="ssr:stedsnr" v="874820" />
	</node>
	<node lat="59.3171333368069" lon="10.729241673963264" id="-13147">
		<tag k="name" v="Husholmen" />
=======
	<node id="-242978" lat="59.2802861084" lon="10.677038885">
		<tag k="name" v="Søndre Sletter" />
>>>>>>> e1d4bc35ff8a6074a6f2e91616a996b547c36f15
		<tag k="place" v="islet" />
		<tag k="ssr:stedsnr" v="877879" />
	</node>
<<<<<<< HEAD
	<node lat="59.31059166684954" lon="10.744638894970526" id="-13150">
		<tag k="name" v="Svarteskjærtangen" />
=======
	<node id="-243104" lat="59.2769638873" lon="10.6753138965">
		<tag k="name" v="Slettertangen" />
>>>>>>> e1d4bc35ff8a6074a6f2e91616a996b547c36f15
		<tag k="natural" v="cape" />
		<tag k="ssr:stedsnr" v="966564" />
	</node>
	<node id="-243103" lat="59.3006805569" lon="10.7156583416">
		<tag k="fixme" v="consider seamark:type=rock or natural=shoal" />
		<tag k="name" v="Åvenskjær" />
		<tag k="place" v="islet" />
		<tag k="ssr:stedsnr" v="631783" />
	</node>
	<node id="-243102" lat="59.3397499964" lon="10.7470638968">
		<tag k="name" v="Grågåstangen" />
		<tag k="natural" v="cape" />
		<tag k="ssr:stedsnr" v="631777" />
	</node>
	<node id="-243101" lat="59.3067944454" lon="10.7578499926">
		<tag k="name" v="Pampus" />
		<tag k="natural" v="shoal" />
		<tag k="place" v="locality" />
		<tag k="ssr:stedsnr" v="631776" />
	</node>
	<node id="-242841" lat="59.2849333364" lon="10.7180111059">
		<tag k="name" v="Rødskjærhausen" />
		<tag k="natural" v="shoal" />
		<tag k="place" v="locality" />
		<tag k="ssr:stedsnr" v="513784" />
	</node>
	<node id="-242959" lat="59.308591664" lon="10.7751944467">
		<tag k="alt_name" v="Makrelskjæret" />
		<tag k="fixme" v="consider seamark:type=rock or natural=shoal" />
		<tag k="name" v="Makrellskjær" />
		<tag k="place" v="islet" />
		<tag k="ssr:stedsnr" v="28844" />
	</node>
	<node id="-243086" lat="59.3361972257" lon="10.7462861049">
		<tag k="name" v="Badehuset" />
		<tag k="natural" v="cape" />
		<tag k="ssr:stedsnr" v="570758" />
	</node>
	<node id="-243085" lat="59.2655999991" lon="10.6260972182">
		<tag k="name" v="Bjørnen" />
		<tag k="natural" v="shoal" />
		<tag k="place" v="locality" />
		<tag k="ssr:stedsnr" v="549642" />
	</node>
	<node id="-242956" lat="59.288708332" lon="10.6906138912">
		<tag k="alt_name" v="Posgrunnen" />
		<tag k="name" v="Påsgrunnen" />
		<tag k="natural" v="shoal" />
		<tag k="place" v="locality" />
		<tag k="ssr:stedsnr" v="3601" />
	</node>
	<node id="-242955" lat="59.3017250019" lon="10.6673277816">
		<tag k="name" v="Store Sletter" />
		<tag k="place" v="island" />
		<tag k="ssr:stedsnr" v="2665" />
	</node>
	<node id="-242794" lat="59.299247222" lon="10.7414916604">
		<tag k="fixme" v="consider seamark:type=rock or natural=shoal" />
		<tag k="name" v="Vrangbeinskjæret" />
		<tag k="place" v="islet" />
		<tag k="ssr:stedsnr" v="145824" />
	</node>
	<node id="-242817" lat="59.3116305585" lon="10.6688638894">
		<tag k="name" v="Sletterhakan" />
		<tag k="natural" v="shoal" />
		<tag k="place" v="locality" />
		<tag k="ssr:stedsnr" v="331903" />
	</node>
</osm>
