<?xml version="1.0" encoding="UTF-8"?>
<<<<<<< HEAD
<osm version="0.6" generator="osmapis">
	<node lat="59.375413914957534" lon="10.9226217466127" id="-12762">
		<tag k="fixme" v="consider place=hamlet" />
		<tag k="name" v="Gillingsrød" />
		<tag k="place" v="farm" />
		<tag k="ssr:stedsnr" v="2309" />
	</node>
	<node lat="59.335218761485635" lon="10.830026424493948" id="-12763">
		<tag k="fixme" v="consider place=hamlet" />
		<tag k="name" v="Ringsrød" />
=======
<osm generator="osmapis" version="0.6">
	<node id="-243160" lat="59.3026845165" lon="10.6702101167">
		<tag k="name" v="Tuva" />
		<tag k="natural" v="hill" />
		<tag k="place" v="locality" />
		<tag k="ssr:stedsnr" v="987082" />
	</node>
	<node id="-243159" lat="59.3193694489" lon="10.9035972175">
		<tag k="alt_name" v="Tofteberg vestre" />
		<tag k="name" v="Vestre Tofteberg" />
		<tag k="place" v="farm" />
		<tag k="ssr:stedsnr" v="968785" />
	</node>
	<node id="-243158" lat="59.381877781" lon="10.9690722204">
		<tag k="name" v="Bruane" />
		<tag k="place" v="locality" />
		<tag k="ssr:stedsnr" v="968600" />
	</node>
	<node id="-243157" lat="59.3891250018" lon="10.9457888818">
		<tag k="name" v="Høymyr" />
		<tag k="natural" v="wetland" />
		<tag k="ssr:stedsnr" v="968599" />
	</node>
	<node id="-243156" lat="59.371111107" lon="10.882383332">
		<tag k="name" v="Gåsholmen" />
		<tag k="place" v="islet" />
		<tag k="ssr:stedsnr" v="968308" />
	</node>
	<node id="-243155" lat="59.3559722217" lon="10.9274611044">
		<tag k="fixme" v="consider natural=peak for the most distinct mountains in the district" />
		<tag k="name" v="Bunnåsen" />
		<tag k="natural" v="hill" />
		<tag k="place" v="locality" />
		<tag k="ssr:stedsnr" v="968283" />
	</node>
	<node id="-243154" lat="59.3752138933" lon="10.8613111047">
		<tag k="name" v="Klokkerne" />
		<tag k="place" v="islet" />
		<tag k="ssr:stedsnr" v="968281" />
	</node>
	<node id="-243153" lat="59.2909333303" lon="10.8332499947">
		<tag k="fixme" v="consider natural=peak for the most distinct mountains in the district" />
		<tag k="name" v="Ravneberg" />
		<tag k="natural" v="hill" />
		<tag k="place" v="locality" />
		<tag k="ssr:stedsnr" v="967789" />
	</node>
	<node id="-243152" lat="59.3271333347" lon="10.7382277711">
		<tag k="fixme" v="consider boundary=protected_area and relevant protect_class if not nature reserve" />
		<tag k="leisure" v="nature_reserve" />
		<tag k="name" v="Kurefjorden naturreservat" />
		<tag k="ssr:stedsnr" v="966962" />
	</node>
	<node id="-243151" lat="59.2790361101" lon="10.6764666748">
		<tag k="fixme" v="consider boundary=protected_area and relevant protect_class if not nature reserve" />
		<tag k="leisure" v="nature_reserve" />
		<tag k="name" v="Søndre Sletter naturreservat" />
		<tag k="ssr:stedsnr" v="966581" />
	</node>
	<node id="-243150" lat="59.3536388911" lon="10.9694416677">
		<tag k="name" v="Sagabekken" />
		<tag k="ssr:stedsnr" v="962364" />
		<tag k="waterway" v="stream" />
	</node>
	<node id="-243149" lat="59.3096555589" lon="10.7620472298">
		<tag k="name" v="Båsane" />
		<tag k="natural" v="cape" />
		<tag k="ssr:stedsnr" v="874778" />
	</node>
	<node id="-243148" lat="59.2927833314" lon="10.6534583377">
		<tag k="name" v="Bråttene" />
		<tag k="natural" v="shoal" />
		<tag k="place" v="locality" />
		<tag k="ssr:stedsnr" v="853629" />
	</node>
	<node id="-243147" lat="59.2897777784" lon="10.7562500031">
		<tag k="fixme" v="consider place=suburb, village or hamlet" />
		<tag k="name" v="Saltnes" />
		<tag k="place" v="quarter" />
		<tag k="ssr:stedsnr" v="853401" />
	</node>
	<node id="-243146" lat="59.4112194424" lon="10.7634138915">
		<tag k="name" v="Nygård" />
>>>>>>> e1d4bc35ff8a6074a6f2e91616a996b547c36f15
		<tag k="place" v="farm" />
		<tag k="ssr:stedsnr" v="2489" />
	</node>
<<<<<<< HEAD
	<node lat="59.343309552605795" lon="10.80021469818252" id="-12764">
		<tag k="fixme" v="consider place=hamlet" />
		<tag k="name" v="Norum" />
=======
	<node id="-243145" lat="59.3606972216" lon="10.7941500038">
		<tag k="name" v="Sogn" />
>>>>>>> e1d4bc35ff8a6074a6f2e91616a996b547c36f15
		<tag k="place" v="farm" />
		<tag k="ssr:stedsnr" v="2497" />
	</node>
<<<<<<< HEAD
	<node lat="59.28870833202469" lon="10.690613891180101" id="-12765">
		<tag k="alt_name" v="Posgrunnen" />
		<tag k="name" v="Påsgrunnen" />
		<tag k="natural" v="shoal" />
		<tag k="place" v="locality" />
		<tag k="ssr:stedsnr" v="3601" />
	</node>
	<node lat="59.326580555913495" lon="10.781225002680626" id="-12766">
		<tag k="name" v="Akersbekken" />
		<tag k="ssr:stedsnr" v="238549" />
		<tag k="waterway" v="stream" />
	</node>
	<node lat="59.31733055608232" lon="10.791408335247594" id="-12767">
		<tag k="name" v="Hestevoll" />
=======
	<node id="-243144" lat="59.3127305523" lon="10.8832666687">
		<tag k="name" v="Hissingby" />
		<tag k="place" v="locality" />
		<tag k="ssr:stedsnr" v="847874" />
	</node>
	<node id="-243143" lat="59.3258527808" lon="10.8944499925">
		<tag k="name" v="Granly" />
		<tag k="place" v="farm" />
		<tag k="ssr:stedsnr" v="847787" />
	</node>
	<node id="-243142" lat="59.3370916653" lon="10.9575833375">
		<tag k="name" v="Grepet" />
		<tag k="place" v="isolated_dwelling" />
		<tag k="ssr:stedsnr" v="847581" />
	</node>
	<node id="-243141" lat="59.3636083345" lon="10.9528277835">
		<tag k="name" v="Slangsvoll" />
		<tag k="place" v="farm" />
		<tag k="ssr:stedsnr" v="847571" />
	</node>
	<node id="-243140" lat="59.3513805536" lon="10.8355583381">
		<tag k="alt_name" v="Elvestad søndre" />
		<tag k="name" v="Søndre Elvestad" />
		<tag k="place" v="farm" />
		<tag k="ssr:stedsnr" v="847397" />
	</node>
	<node id="-243139" lat="59.3000805581" lon="10.6609416637">
		<tag k="name" v="Seiltangen" />
		<tag k="natural" v="cape" />
		<tag k="ssr:stedsnr" v="847237" />
	</node>
	<node id="-243138" lat="59.3390833314" lon="10.9222138959">
		<tag k="name" v="Dalen" />
		<tag k="place" v="farm" />
		<tag k="ssr:stedsnr" v="847230" />
	</node>
	<node id="-243137" lat="59.3236083317" lon="10.7625111128">
		<tag k="alt_name" v="Fuglevik nordre" />
		<tag k="name" v="Nordre Fuglevik" />
		<tag k="place" v="locality" />
		<tag k="ssr:stedsnr" v="845975" />
	</node>
	<node id="-243136" lat="59.3575638901" lon="10.8057888974">
		<tag k="alt_name" v="Løken nordre" />
		<tag k="name" v="Nordre Løken" />
>>>>>>> e1d4bc35ff8a6074a6f2e91616a996b547c36f15
		<tag k="place" v="farm" />
		<tag k="ssr:stedsnr" v="238554" />
	</node>
<<<<<<< HEAD
	<node lat="59.37866667010918" lon="10.804200000868866" id="-12768">
		<tag k="name" v="Vitteberget" />
		<tag k="natural" v="hill" />
		<tag k="place" v="locality" />
		<tag k="ssr:stedsnr" v="238877" />
	</node>
	<node lat="59.38691111460482" lon="10.810836109976632" id="-12769">
		<tag k="name" v="Sogn skog" />
		<tag k="place" v="locality" />
		<tag k="ssr:stedsnr" v="238887" />
	</node>
	<node lat="59.337449627314015" lon="10.757906153495675" id="-12770">
		<tag k="alt_name" v="Tasken søndre" />
=======
	<node id="-243135" lat="59.3879777794" lon="10.8166166619">
		<tag k="name" v="Grimsrød" />
		<tag k="place" v="locality" />
		<tag k="ssr:stedsnr" v="845905" />
	</node>
	<node id="-243134" lat="59.3831555572" lon="10.8134361147">
		<tag k="name" v="Sagmyra" />
		<tag k="natural" v="wetland" />
		<tag k="ssr:stedsnr" v="845902" />
	</node>
	<node id="-243133" lat="59.2994416667" lon="10.8204277732">
		<tag k="name" v="Jerndalsfjellet" />
		<tag k="natural" v="ridge" />
		<tag k="place" v="locality" />
		<tag k="ssr:stedsnr" v="845574" />
	</node>
	<node id="-243132" lat="59.3353249996" lon="10.8011111055">
		<tag k="alt_name" v="Aker mellem" />
		<tag k="name" v="Mellom-Aker" />
		<tag k="place" v="isolated_dwelling" />
		<tag k="ssr:stedsnr" v="845562" />
	</node>
	<node id="-243131" lat="59.308266664" lon="10.8726027799">
>>>>>>> e1d4bc35ff8a6074a6f2e91616a996b547c36f15
		<tag k="fixme" v="consider place=hamlet" />
		<tag k="name" v="Søndre Tasken" />
		<tag k="place" v="farm" />
<<<<<<< HEAD
		<tag k="ssr:stedsnr" v="56922" />
	</node>
	<node lat="59.32228193355225" lon="10.758698023102781" id="-12771">
		<tag k="alt_name" v="Fuglevik søndre" />
		<tag k="name" v="Søndre Fuglevik" />
		<tag k="place" v="farm" />
		<tag k="ssr:stedsnr" v="56978" />
	</node>
	<node lat="59.360463891874815" lon="10.926994445774511" id="-12772">
		<tag k="name" v="Kleven" />
		<tag k="place" v="locality" />
		<tag k="ssr:stedsnr" v="240276" />
	</node>
	<node lat="59.331858332983906" lon="10.883708330389185" id="-12773">
		<tag k="name" v="Haugan" />
=======
		<tag k="ssr:stedsnr" v="844286" />
	</node>
	<node id="-243130" lat="59.3090583371" lon="10.8842916745">
		<tag k="bridge" v="yes" />
		<tag k="layer" v="1" />
		<tag k="loc_name" v="Kil" />
		<tag k="name" v="Kihl" />
		<tag k="ssr:stedsnr" v="835545" />
	</node>
	<node id="-243129" lat="59.2947611128" lon="10.6621361028">
		<tag k="name" v="Brotta" />
		<tag k="place" v="islet" />
		<tag k="ssr:stedsnr" v="817909" />
	</node>
	<node id="-243128" lat="59.3018194413" lon="10.7743277764">
		<tag k="fixme" v="multiple name tags, choose one and add the other to alt_name" />
		<tag k="name" v="Kløfta;Tangen" />
		<tag k="place" v="farm" />
		<tag k="ssr:stedsnr" v="817827" />
	</node>
	<node id="-243127" lat="59.2967611152" lon="10.6471305487">
		<tag k="name" v="Hauken" />
		<tag k="natural" v="shoal" />
		<tag k="place" v="locality" />
		<tag k="ssr:stedsnr" v="817794" />
	</node>
	<node id="-243126" lat="59.2880583365" lon="10.7428305591">
		<tag k="alt_name" v="Saltnesholmen" />
		<tag k="name" v="Saltholmen" />
		<tag k="place" v="islet" />
		<tag k="ssr:stedsnr" v="792386" />
	</node>
	<node id="-243125" lat="59.314325002" lon="10.7206194374">
		<tag k="name" v="Hestholmen" />
		<tag k="place" v="islet" />
		<tag k="ssr:stedsnr" v="791626" />
	</node>
	<node id="-243124" lat="59.4021083378" lon="10.8861638811">
		<tag k="name" v="Burumøya" />
		<tag k="place" v="island" />
		<tag k="ssr:stedsnr" v="791298" />
	</node>
	<node id="-243123" lat="59.3637888934" lon="10.777527771">
		<tag k="name" v="Solberghøgda" />
		<tag k="place" v="locality" />
		<tag k="ssr:stedsnr" v="791271" />
	</node>
	<node id="-243122" lat="59.3600194402" lon="10.8535111106">
		<tag k="name" v="Burumbråten" />
		<tag k="place" v="farm" />
		<tag k="ssr:stedsnr" v="791260" />
	</node>
	<node id="-243121" lat="59.3565500041" lon="10.8338277841">
		<tag k="alt_name" v="Jonstein" />
		<tag k="name" v="Jonsten" />
		<tag k="place" v="farm" />
		<tag k="ssr:stedsnr" v="791259" />
	</node>
	<node id="-243120" lat="59.3422750007" lon="10.9140222251">
		<tag k="fixme" v="consider place=hamlet" />
		<tag k="name" v="Borge" />
		<tag k="place" v="farm" />
		<tag k="ssr:stedsnr" v="791486" />
	</node>
	<node id="-243119" lat="59.3480638911" lon="10.8279916611">
		<tag k="name" v="Burum" />
		<tag k="place" v="farm" />
		<tag k="ssr:stedsnr" v="791466" />
	</node>
	<node id="-243118" lat="59.3393555532" lon="10.8057388905">
		<tag k="alt_name" v="Åker" />
		<tag k="name" v="Aker" />
		<tag k="place" v="farm" />
		<tag k="ssr:stedsnr" v="791462" />
	</node>
	<node id="-243117" lat="59.3083833335" lon="10.8723750023">
		<tag k="alt_name" v="Kil østre" />
		<tag k="name" v="Østre Kil" />
		<tag k="place" v="farm" />
		<tag k="ssr:stedsnr" v="791392" />
	</node>
	<node id="-243116" lat="59.3518055559" lon="10.8359333265">
		<tag k="name" v="Elvestad" />
		<tag k="place" v="farm" />
		<tag k="ssr:stedsnr" v="786382" />
	</node>
	<node id="-243115" lat="59.3479500002" lon="10.8444111198">
		<tag k="name" v="Kjellerød" />
		<tag k="place" v="farm" />
		<tag k="ssr:stedsnr" v="786380" />
	</node>
	<node id="-243114" lat="59.3389500028" lon="10.8438194483">
		<tag k="name" v="Årneberghølen" />
		<tag k="ssr:stedsnr" v="786352" />
		<tag k="waterway" v="stream" />
	</node>
	<node id="-243113" lat="59.3407750018" lon="10.9231361155">
		<tag k="name" v="Borgedalen" />
		<tag k="place" v="farm" />
		<tag k="ssr:stedsnr" v="786199" />
	</node>
	<node id="-243112" lat="59.3802777767" lon="10.8225777852">
		<tag k="name" v="Storedøvik" />
		<tag k="natural" v="bay" />
		<tag k="ssr:stedsnr" v="784893" />
	</node>
	<node id="-243111" lat="59.3161138857" lon="10.7661638849">
		<tag k="name" v="Store Røstad" />
		<tag k="place" v="farm" />
		<tag k="ssr:stedsnr" v="784570" />
	</node>
	<node id="-243110" lat="59.3014111133" lon="10.7832833353">
		<tag k="name" v="Andersrød" />
		<tag k="place" v="farm" />
		<tag k="ssr:stedsnr" v="784558" />
	</node>
	<node id="-243109" lat="59.3367527754" lon="10.8017666713">
		<tag k="alt_name" v="Aker vestre" />
		<tag k="name" v="Vestre Aker" />
		<tag k="place" v="farm" />
		<tag k="ssr:stedsnr" v="784543" />
	</node>
	<node id="-243108" lat="59.3303194461" lon="10.9533777802">
		<tag k="alt_name" v="Jørsø store" />
		<tag k="name" v="Store Jørsø" />
>>>>>>> e1d4bc35ff8a6074a6f2e91616a996b547c36f15
		<tag k="place" v="farm" />
		<tag k="ssr:stedsnr" v="58823" />
	</node>
<<<<<<< HEAD
	<node lat="59.31630277470862" lon="10.918027772269896" id="-12774">
		<tag k="name" v="Mørhuset" />
		<tag k="place" v="locality" />
		<tag k="ssr:stedsnr" v="240772" />
	</node>
	<node lat="59.32630833242572" lon="10.875422226679094" id="-12775">
		<tag k="alt_name" v="Musangen nordre" />
		<tag k="name" v="Nordre Musangen" />
		<tag k="place" v="farm" />
		<tag k="ssr:stedsnr" v="240822" />
	</node>
	<node lat="59.2945416629156" lon="10.726397220973954" id="-12776">
		<tag k="name" v="Jammerlappen" />
		<tag k="natural" v="shoal" />
		<tag k="place" v="locality" />
		<tag k="ssr:stedsnr" v="240875" />
	</node>
	<node lat="59.37636111249199" lon="10.96788889602308" id="-12777">
		<tag k="name" v="Slangsvoll" />
=======
	<node id="-243107" lat="59.2965638854" lon="10.6653694401">
		<tag k="name" v="Vesle Sletter" />
		<tag k="natural" v="cape" />
		<tag k="ssr:stedsnr" v="754250" />
	</node>
	<node id="-243106" lat="59.3138138916" lon="10.8798472153">
		<tag k="name" v="Holtet" />
		<tag k="place" v="farm" />
		<tag k="ssr:stedsnr" v="752769" />
	</node>
	<node id="-243105" lat="59.3451027762" lon="10.9247777775">
		<tag k="bridge" v="yes" />
		<tag k="layer" v="1" />
		<tag k="name" v="Åsgårdkrysset" />
		<tag k="ssr:stedsnr" v="652412" />
	</node>
	<node id="-243104" lat="59.2769638873" lon="10.6753138965">
		<tag k="name" v="Slettertangen" />
		<tag k="natural" v="cape" />
		<tag k="ssr:stedsnr" v="631880" />
	</node>
	<node id="-243103" lat="59.3006805569" lon="10.7156583416">
		<tag k="fixme" v="consider seamark:type=rock or natural=shoal" />
		<tag k="name" v="Åvenskjær" />
		<tag k="place" v="islet" />
		<tag k="ssr:stedsnr" v="631783" />
	</node>
	<node id="-243102" lat="59.3397499964" lon="10.7470638968">
		<tag k="name" v="Grågåstangen" />
		<tag k="natural" v="cape" />
		<tag k="ssr:stedsnr" v="631777" />
	</node>
	<node id="-243101" lat="59.3067944454" lon="10.7578499926">
		<tag k="name" v="Pampus" />
		<tag k="natural" v="shoal" />
		<tag k="place" v="locality" />
		<tag k="ssr:stedsnr" v="631776" />
	</node>
	<node id="-243100" lat="59.2985527753" lon="10.7669222191">
		<tag k="name" v="Spetalen" />
		<tag k="place" v="village" />
		<tag k="ssr:stedsnr" v="631201" />
	</node>
	<node id="-243099" lat="59.3900722262" lon="10.9503361153">
		<tag k="name" v="Danserfjella" />
		<tag k="natural" v="mountain_range" />
		<tag k="ssr:stedsnr" v="609292" />
	</node>
	<node id="-243098" lat="59.3316916657" lon="10.826299996">
		<tag k="name" v="Kolbjørnrød" />
>>>>>>> e1d4bc35ff8a6074a6f2e91616a996b547c36f15
		<tag k="place" v="farm" />
		<tag k="ssr:stedsnr" v="63301" />
	</node>
<<<<<<< HEAD
	<node lat="59.38721666771556" lon="10.855947216039265" id="-12778">
		<tag k="alt_name" v="Vannsjø" />
		<tag k="name" v="Vansjø" />
		<tag k="natural" v="water" />
		<tag k="ssr:stedsnr" v="63316" />
		<tag k="water" v="lake" />
	</node>
	<node lat="59.35342777889283" lon="10.925802769316592" id="-12779">
		<tag k="alt_name" v="Borgebotn" />
		<tag k="name" v="Borgebunn" />
=======
	<node id="-243097" lat="59.3458749958" lon="10.9528944468">
		<tag k="name" v="Mosatjernet" />
		<tag k="natural" v="water" />
		<tag k="ssr:stedsnr" v="608531" />
	</node>
	<node id="-243096" lat="59.3473527805" lon="10.7873972303">
		<tag k="name" v="Heia" />
		<tag k="place" v="farm" />
		<tag k="ssr:stedsnr" v="608512" />
	</node>
	<node id="-243095" lat="59.3376666702" lon="10.9499250028">
		<tag k="name" v="Sulerød" />
>>>>>>> e1d4bc35ff8a6074a6f2e91616a996b547c36f15
		<tag k="place" v="farm" />
		<tag k="ssr:stedsnr" v="245233" />
	</node>
<<<<<<< HEAD
	<node lat="59.35442053148483" lon="10.773019732320686" id="-12780">
		<tag k="fixme" v="consider place=hamlet" />
		<tag k="name" v="Sarpebakken" />
=======
	<node id="-243094" lat="59.340255554" lon="10.7841222152">
		<tag k="alt_name" v="Brånan" />
		<tag k="name" v="Brånen" />
>>>>>>> e1d4bc35ff8a6074a6f2e91616a996b547c36f15
		<tag k="place" v="farm" />
		<tag k="ssr:stedsnr" v="245238" />
	</node>
<<<<<<< HEAD
	<node lat="59.357549847916324" lon="10.81295912378057" id="-12781">
		<tag k="alt_name" v="Vold" />
=======
	<node id="-243093" lat="59.3401319225" lon="10.7804533498">
>>>>>>> e1d4bc35ff8a6074a6f2e91616a996b547c36f15
		<tag k="fixme" v="consider place=hamlet" />
		<tag k="name" v="Voll" />
		<tag k="place" v="farm" />
		<tag k="ssr:stedsnr" v="245249" />
	</node>
<<<<<<< HEAD
	<node lat="59.2896444477137" lon="10.677727775637752" id="-12782">
		<tag k="name" v="Mellom-Sletter" />
		<tag k="place" v="islet" />
		<tag k="ssr:stedsnr" v="246607" />
	</node>
	<node lat="59.340589969312944" lon="10.794511968595655" id="-12783">
		<tag k="alt_name" v="Berg vestre" />
		<tag k="fixme" v="consider place=hamlet" />
		<tag k="name" v="Vestre Berg" />
=======
	<node id="-243092" lat="59.2991833327" lon="10.7746472136">
		<tag k="name" v="Spetalen" />
		<tag k="place" v="farm" />
		<tag k="ssr:stedsnr" v="608400" />
	</node>
	<node id="-243091" lat="59.3603083306" lon="10.7903638849">
		<tag k="name" v="Stomner" />
>>>>>>> e1d4bc35ff8a6074a6f2e91616a996b547c36f15
		<tag k="place" v="farm" />
		<tag k="ssr:stedsnr" v="117909" />
	</node>
<<<<<<< HEAD
	<node lat="59.34377499962704" lon="10.777677785795092" id="-12784">
		<tag k="name" v="Heia" />
=======
	<node id="-243090" lat="59.3130111071" lon="10.907263889">
		<tag k="alt_name" v="Reklingsholm vestre" />
		<tag k="name" v="Vestre Reklingsholm" />
>>>>>>> e1d4bc35ff8a6074a6f2e91616a996b547c36f15
		<tag k="place" v="farm" />
		<tag k="ssr:stedsnr" v="117924" />
	</node>
<<<<<<< HEAD
	<node lat="59.31187777746819" lon="10.836027785031705" id="-12785">
		<tag k="name" v="Løkka" />
		<tag k="place" v="farm" />
		<tag k="ssr:stedsnr" v="118822" />
	</node>
	<node lat="59.29835555642338" lon="10.859744451428185" id="-12786">
		<tag k="name" v="Bjørndalen" />
		<tag k="natural" v="valley" />
=======
	<node id="-243089" lat="59.2986055589" lon="10.8383499997">
		<tag k="name" v="Rørfjellmyr" />
		<tag k="natural" v="wetland" />
		<tag k="ssr:stedsnr" v="602887" />
	</node>
	<node id="-243088" lat="59.3125249996" lon="10.8751888919">
		<tag k="name" v="Revehaugen" />
		<tag k="natural" v="hill" />
>>>>>>> e1d4bc35ff8a6074a6f2e91616a996b547c36f15
		<tag k="place" v="locality" />
		<tag k="ssr:stedsnr" v="118824" />
	</node>
<<<<<<< HEAD
	<node lat="59.330088890527335" lon="10.885786118098906" id="-12787">
		<tag k="name" v="Bekkhus" />
		<tag k="place" v="farm" />
		<tag k="ssr:stedsnr" v="123515" />
	</node>
	<node lat="59.3261750002748" lon="10.888911109097807" id="-12788">
		<tag k="name" v="Tverrbekk" />
=======
	<node id="-243087" lat="59.3697694475" lon="10.789508336">
		<tag k="name" v="Stomnerhuset" />
		<tag k="place" v="farm" />
		<tag k="ssr:stedsnr" v="602871" />
	</node>
	<node id="-243086" lat="59.3361972257" lon="10.7462861049">
		<tag k="name" v="Badehuset" />
		<tag k="natural" v="cape" />
		<tag k="ssr:stedsnr" v="570758" />
	</node>
	<node id="-243085" lat="59.2655999991" lon="10.6260972182">
		<tag k="name" v="Bjørnen" />
		<tag k="natural" v="shoal" />
		<tag k="place" v="locality" />
		<tag k="ssr:stedsnr" v="549642" />
	</node>
	<node id="-243083" lat="59.3365083353" lon="10.9280638867">
		<tag k="name" v="Missingen" />
>>>>>>> e1d4bc35ff8a6074a6f2e91616a996b547c36f15
		<tag k="place" v="farm" />
		<tag k="ssr:stedsnr" v="123516" />
	</node>
<<<<<<< HEAD
	<node lat="59.329180552710355" lon="10.840719436860944" id="-12789">
		<tag k="name" v="Myre" />
=======
	<node id="-243082" lat="59.3311472229" lon="10.8855500039">
		<tag k="name" v="Haugen" />
>>>>>>> e1d4bc35ff8a6074a6f2e91616a996b547c36f15
		<tag k="place" v="farm" />
		<tag k="ssr:stedsnr" v="123520" />
	</node>
<<<<<<< HEAD
	<node lat="59.336808279305444" lon="10.844508480448026" id="-12790">
		<tag k="fixme" v="consider place=hamlet" />
		<tag k="name" v="Husbakke" />
		<tag k="place" v="farm" />
		<tag k="ssr:stedsnr" v="123530" />
	</node>
	<node lat="59.341766465906844" lon="10.889380876066438" id="-12791">
		<tag k="fixme" v="consider place=hamlet" />
		<tag k="name" v="Prestegården" />
=======
	<node id="-243081" lat="59.3174638898" lon="10.8560250014">
		<tag k="name" v="Vårli" />
		<tag k="place" v="isolated_dwelling" />
		<tag k="ssr:stedsnr" v="548457" />
	</node>
	<node id="-243080" lat="59.3119250007" lon="10.7349388957">
		<tag k="name" v="Åven" />
>>>>>>> e1d4bc35ff8a6074a6f2e91616a996b547c36f15
		<tag k="place" v="farm" />
		<tag k="ssr:stedsnr" v="123534" />
	</node>
<<<<<<< HEAD
	<node lat="59.35805191589324" lon="10.802164232569982" id="-12792">
		<tag k="fixme" v="consider place=hamlet" />
		<tag k="name" v="Løken" />
=======
	<node id="-243079" lat="59.3236499971" lon="10.8982083378">
		<tag k="name" v="Solvang" />
>>>>>>> e1d4bc35ff8a6074a6f2e91616a996b547c36f15
		<tag k="place" v="farm" />
		<tag k="ssr:stedsnr" v="124212" />
	</node>
<<<<<<< HEAD
	<node lat="59.36051185241959" lon="10.949561843879799" id="-12793">
		<tag k="fixme" v="consider place=hamlet" />
		<tag k="name" v="Slangsvoll" />
		<tag k="place" v="farm" />
		<tag k="ssr:stedsnr" v="124214" />
	</node>
	<node lat="59.29924722197638" lon="10.741491660377108" id="-12794">
		<tag k="fixme" v="consider seamark:type=rock or natural=shoal" />
		<tag k="name" v="Vrangbeinskjæret" />
		<tag k="place" v="islet" />
		<tag k="ssr:stedsnr" v="145824" />
	</node>
	<node lat="59.29245833675093" lon="10.75056667363919" id="-12795">
		<tag k="name" v="Rubingen" />
		<tag k="natural" v="bay" />
		<tag k="ssr:stedsnr" v="149809" />
	</node>
	<node lat="59.34036944292281" lon="10.780472218400508" id="-12796">
		<tag k="name" v="Gammelsrød" />
=======
	<node id="-243078" lat="59.3826250035" lon="10.9712472155">
		<tag k="alt_name" v="Slangsvold" />
		<tag k="name" v="Slangsvoll" />
		<tag k="place" v="farm" />
		<tag k="ssr:stedsnr" v="548314" />
	</node>
	<node id="-243077" lat="59.3771916681" lon="10.8780722252">
		<tag k="alt_name" v="Øksenøya" />
		<tag k="name" v="Oksenøya" />
		<tag k="place" v="island" />
		<tag k="ssr:stedsnr" v="548307" />
	</node>
	<node id="-243076" lat="59.3786138856" lon="10.8582555496">
		<tag k="name" v="Brattholmen" />
		<tag k="place" v="islet" />
		<tag k="ssr:stedsnr" v="548305" />
	</node>
	<node id="-243075" lat="59.3739277819" lon="10.8038083254">
		<tag k="aeroway" v="aerodrome" />
		<tag k="alt_name" v="Rygge" />
		<tag k="name" v="Moss lufthavn, Rygge" />
		<tag k="ssr:stedsnr" v="548301" />
	</node>
	<node id="-243074" lat="59.3581638859" lon="10.7763361162">
		<tag k="name" v="Solberg" />
		<tag k="place" v="farm" />
		<tag k="ssr:stedsnr" v="548263" />
	</node>
	<node id="-243073" lat="59.361632347" lon="10.8933415361">
		<tag k="name" v="Bekken" />
		<tag k="place" v="farm" />
		<tag k="ssr:stedsnr" v="548255" />
	</node>
	<node id="-243072" lat="59.3212138889" lon="10.9418194512">
		<tag k="name" v="Finstadbukta" />
		<tag k="natural" v="bay" />
		<tag k="ssr:stedsnr" v="543755" />
	</node>
	<node id="-243071" lat="59.354883336" lon="10.9434249919">
		<tag k="alt_name" v="Slangsvoll søndre" />
		<tag k="name" v="Søndre Slangsvoll" />
		<tag k="place" v="farm" />
		<tag k="ssr:stedsnr" v="543588" />
	</node>
	<node id="-243070" lat="59.347488888" lon="10.8934583404">
		<tag k="name" v="Klokkergården" />
>>>>>>> e1d4bc35ff8a6074a6f2e91616a996b547c36f15
		<tag k="place" v="farm" />
		<tag k="ssr:stedsnr" v="178917" />
	</node>
<<<<<<< HEAD
	<node lat="59.34126666693607" lon="10.775788893831246" id="-12797">
		<tag k="alt_name" v="Gammelsrød nordre" />
		<tag k="name" v="Nordre Gammelsrød" />
=======
	<node id="-243069" lat="59.3574583361" lon="10.8567861065">
		<tag k="name" v="Burummyra" />
>>>>>>> e1d4bc35ff8a6074a6f2e91616a996b547c36f15
		<tag k="place" v="farm" />
		<tag k="ssr:stedsnr" v="178919" />
	</node>
<<<<<<< HEAD
	<node lat="59.34561388714793" lon="10.827191670624973" id="-12798">
		<tag k="fixme" v="consider natural=peak for the most distinct mountains in the district" />
		<tag k="name" v="Varden" />
		<tag k="natural" v="hill" />
		<tag k="place" v="locality" />
		<tag k="ssr:stedsnr" v="178921" />
	</node>
	<node lat="59.359750641103496" lon="10.783204458102746" id="-12799">
		<tag k="alt_name" v="Sandaker" />
=======
	<node id="-243068" lat="59.3768361091" lon="10.8318277802">
		<tag k="name" v="Haugstentangen" />
		<tag k="natural" v="cape" />
		<tag k="ssr:stedsnr" v="543275" />
	</node>
	<node id="-243067" lat="59.3611961997" lon="10.8242484243">
		<tag k="alt_name" v="Haugesten" />
>>>>>>> e1d4bc35ff8a6074a6f2e91616a996b547c36f15
		<tag k="fixme" v="consider place=hamlet" />
		<tag k="name" v="Sandåker" />
		<tag k="place" v="farm" />
		<tag k="ssr:stedsnr" v="178924" />
	</node>
<<<<<<< HEAD
	<node lat="59.31456944383027" lon="10.87154167003589" id="-12800">
		<tag k="alt_name" v="Hissingby mellem" />
		<tag k="name" v="Mellom-Hissingby" />
=======
	<node id="-243066" lat="59.3428666692" lon="10.8012805587">
		<tag k="alt_name" v="Norum søndre" />
		<tag k="name" v="Søndre Norum" />
>>>>>>> e1d4bc35ff8a6074a6f2e91616a996b547c36f15
		<tag k="place" v="farm" />
		<tag k="ssr:stedsnr" v="179874" />
	</node>
<<<<<<< HEAD
	<node lat="59.32796745031976" lon="10.911772438710193" id="-12801">
		<tag k="name" v="Revhaug" />
		<tag k="place" v="hamlet" />
		<tag k="ssr:stedsnr" v="184459" />
	</node>
	<node lat="59.329691664273426" lon="10.73835832879616" id="-12802">
		<tag k="name" v="Kurefjorden" />
		<tag k="natural" v="bay" />
		<tag k="ssr:stedsnr" v="184616" />
	</node>
	<node lat="59.35113729810823" lon="10.916192562069234" id="-12803">
		<tag k="fixme" v="consider place=hamlet" />
		<tag k="name" v="Borge" />
=======
	<node id="-243065" lat="59.3132777745" lon="10.8919749988">
		<tag k="fixme" v="consider boundary=protected_area and relevant protect_class if not nature reserve" />
		<tag k="leisure" v="nature_reserve" />
		<tag k="name" v="Skinnerflo naturreservat" />
		<tag k="ssr:stedsnr" v="541906" />
	</node>
	<node id="-243064" lat="59.3339777763" lon="10.799211105">
		<tag k="alt_name" v="Aker søndre" />
		<tag k="name" v="Søndre Aker" />
>>>>>>> e1d4bc35ff8a6074a6f2e91616a996b547c36f15
		<tag k="place" v="farm" />
		<tag k="ssr:stedsnr" v="184505" />
	</node>
<<<<<<< HEAD
	<node lat="59.350686114620956" lon="10.894158332788813" id="-12804">
=======
	<node id="-243063" lat="59.3251333347" lon="10.8235999958">
>>>>>>> e1d4bc35ff8a6074a6f2e91616a996b547c36f15
		<tag k="bridge" v="yes" />
		<tag k="layer" v="1" />
		<tag k="name" v="Skovly" />
		<tag k="ssr:stedsnr" v="228484" />
	</node>
<<<<<<< HEAD
	<node lat="59.32855000221848" lon="10.747808332363608" id="-12805">
		<tag k="name" v="Labu" />
		<tag k="place" v="islet" />
		<tag k="ssr:stedsnr" v="449754" />
	</node>
	<node lat="59.36031944627772" lon="10.85071388318286" id="-12806">
		<tag k="name" v="Elvestadstøa" />
		<tag k="place" v="isolated_dwelling" />
		<tag k="ssr:stedsnr" v="240282" />
	</node>
	<node lat="59.34196227840554" lon="10.915395834178868" id="-12807">
=======
	<node id="-243062" lat="59.3386083299" lon="10.8626666616">
		<tag k="name" v="Strømnes" />
		<tag k="place" v="farm" />
		<tag k="ssr:stedsnr" v="427492" />
	</node>
	<node id="-243061" lat="59.33728056" lon="10.7593277768">
>>>>>>> e1d4bc35ff8a6074a6f2e91616a996b547c36f15
		<tag k="fixme" v="consider place=hamlet" />
		<tag k="name" v="Borge" />
		<tag k="place" v="farm" />
		<tag k="ssr:stedsnr" v="240383" />
	</node>
<<<<<<< HEAD
	<node lat="59.33705555986699" lon="10.881463889069062" id="-12808">
		<tag k="name" v="Lunderberget" />
		<tag k="natural" v="hill" />
		<tag k="place" v="locality" />
		<tag k="ssr:stedsnr" v="240385" />
	</node>
	<node lat="59.322219499911384" lon="10.861527557497512" id="-12809">
		<tag k="alt_name" v="Brekke" />
		<tag k="fixme" v="consider place=hamlet" />
		<tag k="name" v="Brekka" />
=======
	<node id="-243060" lat="59.3298388903" lon="10.9220027777">
		<tag k="name" v="Sørby" />
		<tag k="place" v="farm" />
		<tag k="ssr:stedsnr" v="427462" />
	</node>
	<node id="-243059" lat="59.3270805575" lon="10.923575005">
		<tag k="name" v="Hovland" />
>>>>>>> e1d4bc35ff8a6074a6f2e91616a996b547c36f15
		<tag k="place" v="farm" />
		<tag k="ssr:stedsnr" v="245406" />
	</node>
<<<<<<< HEAD
	<node lat="59.317528154934855" lon="10.871365248268871" id="-12810">
		<tag k="alt_name" v="Hisingby" />
		<tag k="name" v="Hissingby" />
		<tag k="place" v="hamlet" />
		<tag k="ssr:stedsnr" v="245408" />
	</node>
	<node lat="59.32401118647596" lon="10.910599036319036" id="-12811">
		<tag k="alt_name" v="Søgård" />
		<tag k="fixme" v="consider place=hamlet" />
		<tag k="name" v="Sørgård" />
=======
	<node id="-243058" lat="59.3289722222" lon="10.9317666653">
		<tag k="name" v="Ileby" />
>>>>>>> e1d4bc35ff8a6074a6f2e91616a996b547c36f15
		<tag k="place" v="farm" />
		<tag k="ssr:stedsnr" v="245410" />
	</node>
<<<<<<< HEAD
	<node lat="59.317933335121744" lon="10.93465555620652" id="-12812">
		<tag k="name" v="Skinnerflo" />
		<tag k="natural" v="water" />
		<tag k="ssr:stedsnr" v="245418" />
		<tag k="water" v="lake" />
	</node>
	<node lat="59.34126110933196" lon="10.801949994725986" id="-12813">
		<tag k="name" v="Sørgård" />
=======
	<node id="-243057" lat="59.3328583331" lon="10.9404249962">
		<tag k="fixme" v="consider natural=peak for the most distinct mountains in the district" />
		<tag k="name" v="Høyås" />
		<tag k="natural" v="hill" />
		<tag k="place" v="locality" />
		<tag k="ssr:stedsnr" v="422777" />
	</node>
	<node id="-243056" lat="59.360869445" lon="10.9473916706">
		<tag k="name" v="Slangsvoll" />
>>>>>>> e1d4bc35ff8a6074a6f2e91616a996b547c36f15
		<tag k="place" v="farm" />
		<tag k="ssr:stedsnr" v="245449" />
	</node>
<<<<<<< HEAD
	<node lat="59.30938611497092" lon="10.716461102606656" id="-12814">
		<tag k="fixme" v="consider seamark:type=rock or natural=shoal" />
		<tag k="name" v="Kameratskjær" />
		<tag k="place" v="islet" />
		<tag k="ssr:stedsnr" v="271895" />
	</node>
	<node lat="59.297863893269316" lon="10.663461107041652" id="-12815">
		<tag k="name" v="Haukebukta" />
		<tag k="natural" v="bay" />
		<tag k="ssr:stedsnr" v="271913" />
	</node>
	<node lat="59.32355277886308" lon="10.884841668503952" id="-12816">
		<tag k="bridge" v="yes" />
		<tag k="layer" v="1" />
		<tag k="name" v="Enebekk" />
		<tag k="ssr:stedsnr" v="289535" />
	</node>
	<node lat="59.339747224036735" lon="10.770786112959794" id="-12817">
		<tag k="alt_name" v="Gammelsrød søndre" />
		<tag k="name" v="Søndre Gammelsrød" />
=======
	<node id="-243055" lat="59.3239722256" lon="10.7944111174">
		<tag k="name" v="Fjell" />
		<tag k="place" v="farm" />
		<tag k="ssr:stedsnr" v="422196" />
	</node>
	<node id="-243054" lat="59.3699194403" lon="10.7850277837">
		<tag k="name" v="Eggeroa" />
		<tag k="place" v="farm" />
		<tag k="ssr:stedsnr" v="420939" />
	</node>
	<node id="-243053" lat="59.3662111088" lon="10.8220861173">
		<tag k="name" v="Vollebekk" />
>>>>>>> e1d4bc35ff8a6074a6f2e91616a996b547c36f15
		<tag k="place" v="farm" />
		<tag k="ssr:stedsnr" v="299922" />
	</node>
<<<<<<< HEAD
	<node lat="59.34948332967383" lon="10.775969448229578" id="-12818">
		<tag k="name" v="Heia" />
		<tag k="place" v="locality" />
		<tag k="ssr:stedsnr" v="299924" />
	</node>
	<node lat="59.348730553035814" lon="10.76006666365344" id="-12819">
		<tag k="name" v="Tyggelite" />
		<tag k="place" v="farm" />
		<tag k="ssr:stedsnr" v="300214" />
	</node>
	<node lat="59.360083337330096" lon="10.9088333327751" id="-12820">
=======
	<node id="-243052" lat="59.3118250005" lon="10.7209138853">
		<tag k="name" v="Kokholmen" />
		<tag k="place" v="islet" />
		<tag k="ssr:stedsnr" v="420583" />
	</node>
	<node id="-243051" lat="59.332011111" lon="10.791336113">
>>>>>>> e1d4bc35ff8a6074a6f2e91616a996b547c36f15
		<tag k="fixme" v="consider natural=peak for the most distinct mountains in the district" />
		<tag k="name" v="Fugleleiken" />
		<tag k="natural" v="hill" />
		<tag k="place" v="locality" />
		<tag k="ssr:stedsnr" v="300274" />
	</node>
<<<<<<< HEAD
	<node lat="59.36224999980702" lon="10.95181667291102" id="-12821">
		<tag k="name" v="Engen" />
		<tag k="place" v="farm" />
		<tag k="ssr:stedsnr" v="300574" />
	</node>
	<node lat="59.36733611219193" lon="10.945669447720562" id="-12822">
		<tag k="fixme" v="consider natural=peak for the most distinct mountains in the district" />
		<tag k="name" v="Langklo" />
		<tag k="natural" v="hill" />
		<tag k="place" v="locality" />
		<tag k="ssr:stedsnr" v="300581" />
	</node>
	<node lat="59.34689166524108" lon="10.965358324661691" id="-12823">
		<tag k="name" v="Staringa" />
		<tag k="place" v="islet" />
		<tag k="ssr:stedsnr" v="300584" />
	</node>
	<node lat="59.3349599640942" lon="10.932653611408282" id="-12824">
		<tag k="name" v="Åkeberg" />
		<tag k="place" v="hamlet" />
		<tag k="ssr:stedsnr" v="305509" />
	</node>
	<node lat="59.341033332800045" lon="10.955944441756392" id="-12825">
		<tag k="name" v="Åkebergbråten" />
=======
	<node id="-243050" lat="59.3043611099" lon="10.6784416616">
		<tag k="name" v="Nesblinda" />
		<tag k="natural" v="strait" />
		<tag k="ssr:stedsnr" v="392892" />
	</node>
	<node id="-243049" lat="59.3517389335" lon="10.8723419075">
		<tag k="name" v="Karlshus" />
		<tag k="old_name" v="Råde" />
		<tag k="place" v="village" />
		<tag k="ssr:stedsnr" v="391341" />
	</node>
	<node id="-243048" lat="59.3462472201" lon="10.8935805489">
		<tag k="amenity" v="place_of_worship" />
		<tag k="denomination" v="lutheran" />
		<tag k="name" v="Råde kirke" />
		<tag k="religion" v="christian" />
		<tag k="ssr:stedsnr" v="366514" />
	</node>
	<node id="-243047" lat="59.3339361097" lon="10.8400138911">
		<tag k="name" v="Myre" />
>>>>>>> e1d4bc35ff8a6074a6f2e91616a996b547c36f15
		<tag k="place" v="farm" />
		<tag k="ssr:stedsnr" v="305511" />
	</node>
<<<<<<< HEAD
	<node lat="59.34627023256028" lon="10.787044520970248" id="-12826">
		<tag k="fixme" v="consider place=hamlet" />
		<tag k="name" v="Myra" />
		<tag k="place" v="farm" />
		<tag k="ssr:stedsnr" v="305519" />
	</node>
	<node lat="59.349919445565426" lon="10.934786119542055" id="-12827">
		<tag k="name" v="Lund" />
=======
	<node id="-243046" lat="59.3219527781" lon="10.8099611115">
		<tag k="amenity" v="place_of_worship" />
		<tag k="denomination" v="lutheran" />
		<tag k="name" v="Tomb kirke" />
		<tag k="religion" v="christian" />
		<tag k="ssr:stedsnr" v="366462" />
	</node>
	<node id="-243045" lat="59.3228916667" lon="10.8318555537">
		<tag k="name" v="Rød" />
>>>>>>> e1d4bc35ff8a6074a6f2e91616a996b547c36f15
		<tag k="place" v="farm" />
		<tag k="ssr:stedsnr" v="305527" />
	</node>
	<node lat="59.344649997403856" lon="10.949202776091312" id="-12828">
		<tag k="alt_name" v="Åkebergmosan" />
		<tag k="name" v="Åkebergmosen" />
		<tag k="natural" v="wetland" />
		<tag k="ssr:stedsnr" v="305532" />
	</node>
	<node lat="59.32028971172297" lon="10.908053177543518" id="-12829">
		<tag k="name" v="Tofteberg" />
		<tag k="place" v="hamlet" />
		<tag k="ssr:stedsnr" v="306411" />
	</node>
	<node lat="59.311630558450744" lon="10.668863889437919" id="-12830">
		<tag k="name" v="Sletterhakan" />
		<tag k="natural" v="shoal" />
		<tag k="place" v="locality" />
		<tag k="ssr:stedsnr" v="331903" />
	</node>
<<<<<<< HEAD
	<node lat="59.38674652139037" lon="10.915272451533017" id="-12831">
=======
	<node id="-243044" lat="59.3268388892" lon="10.9357749938">
>>>>>>> e1d4bc35ff8a6074a6f2e91616a996b547c36f15
		<tag k="fixme" v="consider place=hamlet" />
		<tag k="name" v="Bjørkå" />
		<tag k="place" v="farm" />
		<tag k="ssr:stedsnr" v="366295" />
	</node>
<<<<<<< HEAD
	<node lat="59.310517747665834" lon="10.78575478130664" id="-12832">
		<tag k="fixme" v="consider place=hamlet" />
=======
	<node id="-243043" lat="59.3102611096" lon="10.7858638963">
>>>>>>> e1d4bc35ff8a6074a6f2e91616a996b547c36f15
		<tag k="name" v="Holme" />
		<tag k="place" v="farm" />
		<tag k="ssr:stedsnr" v="366442" />
	</node>
<<<<<<< HEAD
	<node lat="59.390963887611086" lon="10.818344443694025" id="-12833">
		<tag k="name" v="Sandbukt" />
		<tag k="natural" v="bay" />
		<tag k="ssr:stedsnr" v="481890" />
	</node>
	<node lat="59.34267500316785" lon="10.762866671355459" id="-12834">
		<tag k="name" v="Heiabekken" />
		<tag k="ssr:stedsnr" v="481922" />
		<tag k="waterway" v="stream" />
	</node>
	<node lat="59.3569500030602" lon="10.803330550850447" id="-12835">
		<tag k="alt_name" v="Løken søndre" />
		<tag k="name" v="Søndre Løken" />
=======
	<node id="-243042" lat="59.3031527786" lon="10.8619194433">
		<tag k="alt_name" v="Kil vestre" />
		<tag k="name" v="Vestre Kil" />
		<tag k="place" v="farm" />
		<tag k="ssr:stedsnr" v="366425" />
	</node>
	<node id="-243041" lat="59.3046305552" lon="10.8200027702">
		<tag k="alt_name" v="Jerndalen" />
		<tag k="name" v="Jerndal" />
		<tag k="place" v="isolated_dwelling" />
		<tag k="ssr:stedsnr" v="366423" />
	</node>
	<node id="-243040" lat="59.3573305545" lon="10.8807388808">
		<tag k="building" v="industrial" />
		<tag k="industrial" v="factory" />
		<tag k="name" v="Karlshus bruk" />
		<tag k="ssr:stedsnr" v="366251" />
	</node>
	<node id="-243039" lat="59.351699997" lon="10.9276527783">
		<tag k="alt_name" v="Skaugen" />
		<tag k="name" v="Skogen" />
>>>>>>> e1d4bc35ff8a6074a6f2e91616a996b547c36f15
		<tag k="place" v="farm" />
		<tag k="ssr:stedsnr" v="481924" />
	</node>
<<<<<<< HEAD
	<node lat="59.37453888766317" lon="10.836666666791254" id="-12836">
		<tag k="name" v="Hareholmen" />
		<tag k="place" v="islet" />
		<tag k="ssr:stedsnr" v="482237" />
	</node>
	<node lat="59.348708334076576" lon="10.890483339616608" id="-12837">
		<tag k="name" v="Roe" />
		<tag k="place" v="locality" />
		<tag k="ssr:stedsnr" v="482381" />
	</node>
	<node lat="59.38177221893725" lon="10.94683054936803" id="-12838">
		<tag k="name" v="Leiedalsmyra" />
		<tag k="natural" v="wetland" />
		<tag k="ssr:stedsnr" v="482579" />
	</node>
	<node lat="59.39576111550943" lon="10.892186103204425" id="-12839">
		<tag k="name" v="Lefseholmene" />
		<tag k="place" v="islet" />
		<tag k="ssr:stedsnr" v="482590" />
	</node>
	<node lat="59.337602780503765" lon="10.960019449480667" id="-12840">
		<tag k="name" v="Galgehytta" />
=======
	<node id="-243038" lat="59.2149722232" lon="10.6363416708">
		<tag k="bay" v="fjord" />
		<tag k="name" v="Oslofjorden" />
		<tag k="natural" v="bay" />
		<tag k="ssr:stedsnr" v="365030" />
	</node>
	<node id="-243037" lat="59.3334944469" lon="10.9307944526">
		<tag k="alt_name" v="Åkeberg østre" />
		<tag k="name" v="Østre Åkeberg" />
		<tag k="place" v="farm" />
		<tag k="ssr:stedsnr" v="361788" />
	</node>
	<node id="-243036" lat="59.3790416632" lon="10.8378611096">
		<tag k="fixme" v="consider boundary=protected_area and relevant protect_class if not nature reserve" />
		<tag k="leisure" v="nature_reserve" />
		<tag k="name" v="Moskjæra naturreservat" />
		<tag k="ssr:stedsnr" v="361287" />
	</node>
	<node id="-243035" lat="59.3893944478" lon="10.8162694471">
		<tag k="name" v="Brandenborg" />
>>>>>>> e1d4bc35ff8a6074a6f2e91616a996b547c36f15
		<tag k="place" v="locality" />
		<tag k="ssr:stedsnr" v="482912" />
	</node>
	<node lat="59.35173893345058" lon="10.872341907527874" id="-12841">
		<tag k="name" v="Karlshus" />
		<tag k="old_name" v="Råde" />
		<tag k="place" v="village" />
		<tag k="ssr:stedsnr" v="391341" />
	</node>
<<<<<<< HEAD
	<node lat="59.35903888979299" lon="10.932525007194606" id="-12842">
=======
	<node id="-243034" lat="59.3062361113" lon="10.8994555564">
>>>>>>> e1d4bc35ff8a6074a6f2e91616a996b547c36f15
		<tag k="fixme" v="consider natural=peak for the most distinct mountains in the district" />
		<tag k="name" v="Vetaåsen" />
		<tag k="natural" v="hill" />
		<tag k="place" v="locality" />
		<tag k="ssr:stedsnr" v="487249" />
	</node>
<<<<<<< HEAD
	<node lat="59.358644908429845" lon="10.874815857717875" id="-12843">
		<tag k="fixme" v="consider place=hamlet" />
		<tag k="name" v="Halvorsrød" />
		<tag k="place" v="farm" />
		<tag k="ssr:stedsnr" v="487251" />
	</node>
	<node lat="59.30737500315276" lon="10.75274722805078" id="-12844">
		<tag k="alt_name" v="Vrangbein" />
		<tag k="name" v="Vrangben" />
		<tag k="place" v="islet" />
		<tag k="ssr:stedsnr" v="487442" />
	</node>
	<node lat="59.34046805164351" lon="10.893653082460295" id="-12845">
		<tag k="fixme" v="consider place=hamlet" />
		<tag k="name" v="Rød" />
		<tag k="place" v="farm" />
		<tag k="ssr:stedsnr" v="487518" />
	</node>
	<node lat="59.32527777230075" lon="10.92681065795862" id="-12846">
		<tag k="fixme" v="consider place=hamlet" />
		<tag k="name" v="Frakkestad" />
=======
	<node id="-243033" lat="59.3245166686" lon="10.8129638916">
		<tag k="name" v="Verkens lund" />
		<tag k="place" v="locality" />
		<tag k="ssr:stedsnr" v="359536" />
	</node>
	<node id="-243032" lat="59.2912111127" lon="10.714213882">
		<tag k="bay" v="fjord" />
		<tag k="name" v="Krokstadleira" />
		<tag k="natural" v="bay" />
		<tag k="ssr:stedsnr" v="331883" />
	</node>
	<node id="-243031" lat="59.3215111138" lon="10.800716659">
		<tag k="name" v="Bua" />
		<tag k="place" v="farm" />
		<tag k="ssr:stedsnr" v="331815" />
	</node>
	<node id="-243030" lat="59.3050888915" lon="10.7234361039">
		<tag k="name" v="Åventangen" />
		<tag k="place" v="isolated_dwelling" />
		<tag k="ssr:stedsnr" v="306400" />
	</node>
	<node id="-243029" lat="59.3632861071" lon="10.8719722177">
		<tag k="alt_name" v="Starengen" />
		<tag k="name" v="Starenga" />
>>>>>>> e1d4bc35ff8a6074a6f2e91616a996b547c36f15
		<tag k="place" v="farm" />
		<tag k="ssr:stedsnr" v="487473" />
	</node>
<<<<<<< HEAD
	<node lat="59.37098610739385" lon="10.935558337829617" id="-12847">
		<tag k="name" v="Bjørndalen" />
		<tag k="place" v="locality" />
		<tag k="ssr:stedsnr" v="488254" />
	</node>
	<node lat="59.372183333536995" lon="10.951808340993685" id="-12848">
		<tag k="name" v="Leiedalen" />
=======
	<node id="-243028" lat="59.3446499974" lon="10.9492027761">
		<tag k="alt_name" v="Åkebergmosan" />
		<tag k="name" v="Åkebergmosen" />
		<tag k="natural" v="wetland" />
		<tag k="ssr:stedsnr" v="305532" />
	</node>
	<node id="-243027" lat="59.3499194456" lon="10.9347861195">
		<tag k="name" v="Lund" />
>>>>>>> e1d4bc35ff8a6074a6f2e91616a996b547c36f15
		<tag k="place" v="farm" />
		<tag k="ssr:stedsnr" v="488243" />
	</node>
<<<<<<< HEAD
	<node lat="59.366211108830086" lon="10.822086117263694" id="-12849">
		<tag k="name" v="Vollebekk" />
=======
	<node id="-243026" lat="59.3457888878" lon="10.7861527767">
		<tag k="name" v="Myra" />
>>>>>>> e1d4bc35ff8a6074a6f2e91616a996b547c36f15
		<tag k="place" v="farm" />
		<tag k="ssr:stedsnr" v="420888" />
	</node>
<<<<<<< HEAD
	<node lat="59.36991944032356" lon="10.785027783650355" id="-12850">
		<tag k="name" v="Eggeroa" />
=======
	<node id="-243025" lat="59.3410333328" lon="10.9559444418">
		<tag k="name" v="Åkebergbråten" />
>>>>>>> e1d4bc35ff8a6074a6f2e91616a996b547c36f15
		<tag k="place" v="farm" />
		<tag k="ssr:stedsnr" v="420939" />
	</node>
<<<<<<< HEAD
	<node lat="59.32397222564686" lon="10.794411117408055" id="-12851">
		<tag k="name" v="Fjell" />
=======
	<node id="-243024" lat="59.3339055526" lon="10.9310916612">
		<tag k="fixme" v="consider place=hamlet" />
		<tag k="name" v="Åkeberg" />
>>>>>>> e1d4bc35ff8a6074a6f2e91616a996b547c36f15
		<tag k="place" v="farm" />
		<tag k="ssr:stedsnr" v="422196" />
	</node>
<<<<<<< HEAD
	<node lat="59.38259478706625" lon="10.905879477247133" id="-12852">
=======
	<node id="-243023" lat="59.304969733" lon="10.7854962446">
>>>>>>> e1d4bc35ff8a6074a6f2e91616a996b547c36f15
		<tag k="fixme" v="consider place=hamlet" />
		<tag k="name" v="Henes" />
		<tag k="place" v="farm" />
		<tag k="ssr:stedsnr" v="427322" />
	</node>
<<<<<<< HEAD
	<node lat="59.33762276655646" lon="10.761669759601068" id="-12853">
		<tag k="name" v="Tasken" />
		<tag k="place" v="hamlet" />
		<tag k="ssr:stedsnr" v="427478" />
	</node>
	<node lat="59.33945629142439" lon="10.86332210316773" id="-12854">
		<tag k="fixme" v="consider place=hamlet" />
		<tag k="name" v="Strømnes" />
=======
	<node id="-243022" lat="59.3184972252" lon="10.7414194402">
		<tag k="name" v="Grindholmen" />
		<tag k="place" v="island" />
		<tag k="ssr:stedsnr" v="210791" />
	</node>
	<node id="-243021" lat="59.3661833375" lon="10.9667194525">
		<tag k="alt_name" v="Fensbekk" />
		<tag k="name" v="Finnsbekk" />
>>>>>>> e1d4bc35ff8a6074a6f2e91616a996b547c36f15
		<tag k="place" v="farm" />
		<tag k="ssr:stedsnr" v="427492" />
	</node>
	<node lat="59.31227777356218" lon="10.797161110431322" id="-12855">
		<tag k="name" v="Skogly" />
		<tag k="place" v="farm" />
		<tag k="ssr:stedsnr" v="453815" />
	</node>
<<<<<<< HEAD
	<node lat="59.30392777689537" lon="10.711591670005301" id="-12856">
		<tag k="name" v="Perbåen" />
		<tag k="place" v="locality" />
		<tag k="seamark:type" v="rock" />
		<tag k="ssr:stedsnr" v="453877" />
	</node>
	<node lat="59.32803055847126" lon="10.764305547597678" id="-12857">
		<tag k="fixme" v="consider natural=peak for the most distinct mountains in the district" />
		<tag k="name" v="Østre Åsen" />
		<tag k="natural" v="hill" />
		<tag k="place" v="locality" />
		<tag k="ssr:stedsnr" v="481904" />
	</node>
	<node lat="59.3459459244218" lon="10.842077514195053" id="-12858">
=======
	<node id="-243020" lat="59.3610750042" lon="10.8096000017">
>>>>>>> e1d4bc35ff8a6074a6f2e91616a996b547c36f15
		<tag k="fixme" v="consider place=hamlet" />
		<tag k="name" v="Kjellerød" />
		<tag k="place" v="farm" />
		<tag k="ssr:stedsnr" v="482363" />
	</node>
<<<<<<< HEAD
	<node lat="59.32486666496298" lon="10.885747224635049" id="-12859">
		<tag k="name" v="Enebekk" />
		<tag k="place" v="farm" />
		<tag k="ssr:stedsnr" v="488399" />
	</node>
	<node lat="59.28493333643997" lon="10.71801110586506" id="-12860">
		<tag k="name" v="Rødskjærhausen" />
=======
	<node id="-243019" lat="59.2917277753" lon="10.6946250011">
		<tag k="name" v="Åletitten" />
>>>>>>> e1d4bc35ff8a6074a6f2e91616a996b547c36f15
		<tag k="natural" v="shoal" />
		<tag k="place" v="locality" />
		<tag k="ssr:stedsnr" v="513784" />
	</node>
<<<<<<< HEAD
	<node lat="59.31611388574378" lon="10.766163884870732" id="-12861">
		<tag k="alt_name" v="Røstad store" />
		<tag k="name" v="Store Røstad" />
		<tag k="place" v="farm" />
		<tag k="ssr:stedsnr" v="541568" />
	</node>
	<node lat="59.30619722623084" lon="10.728077769837034" id="-12862">
		<tag k="name" v="Storesand" />
		<tag k="natural" v="beach" />
		<tag k="ssr:stedsnr" v="541569" />
	</node>
	<node lat="59.31327777446227" lon="10.891974998789482" id="-12863">
		<tag k="fixme" v="consider boundary=protected_area and relevant protect_class if not nature reserve" />
		<tag k="leisure" v="nature_reserve" />
		<tag k="name" v="Skinnerflo naturreservat" />
		<tag k="ssr:stedsnr" v="541906" />
	</node>
	<node lat="59.34286666922192" lon="10.801280558697684" id="-12864">
		<tag k="alt_name" v="Norum søndre" />
		<tag k="name" v="Søndre Norum" />
=======
	<node id="-243018" lat="59.3296916643" lon="10.7383583288">
		<tag k="name" v="Kurefjorden" />
		<tag k="natural" v="bay" />
		<tag k="ssr:stedsnr" v="184616" />
	</node>
	<node id="-243017" lat="59.3505361082" lon="10.9167916722">
		<tag k="name" v="Borge" />
>>>>>>> e1d4bc35ff8a6074a6f2e91616a996b547c36f15
		<tag k="place" v="farm" />
		<tag k="ssr:stedsnr" v="542922" />
	</node>
<<<<<<< HEAD
	<node lat="59.37683610909365" lon="10.831827780184705" id="-12865">
		<tag k="name" v="Haugstentangen" />
		<tag k="natural" v="cape" />
		<tag k="ssr:stedsnr" v="543275" />
	</node>
	<node lat="59.35745833607725" lon="10.85678610651842" id="-12866">
		<tag k="name" v="Burummyra" />
=======
	<node id="-243016" lat="59.326558336" lon="10.8751305522">
		<tag k="fixme" v="consider place=hamlet" />
		<tag k="name" v="Musangen" />
>>>>>>> e1d4bc35ff8a6074a6f2e91616a996b547c36f15
		<tag k="place" v="farm" />
		<tag k="ssr:stedsnr" v="543276" />
	</node>
<<<<<<< HEAD
	<node lat="59.354883336047656" lon="10.943424991891803" id="-12867">
		<tag k="alt_name" v="Slangsvoll søndre" />
		<tag k="name" v="Søndre Slangsvoll" />
=======
	<node id="-243015" lat="59.3269555534" lon="10.9131611146">
		<tag k="name" v="Revhaug" />
>>>>>>> e1d4bc35ff8a6074a6f2e91616a996b547c36f15
		<tag k="place" v="farm" />
		<tag k="ssr:stedsnr" v="543588" />
	</node>
<<<<<<< HEAD
	<node lat="59.35884144330217" lon="10.776571367619907" id="-12868">
		<tag k="fixme" v="consider place=hamlet" />
		<tag k="name" v="Solberg" />
		<tag k="place" v="farm" />
		<tag k="ssr:stedsnr" v="548263" />
	</node>
	<node lat="59.316824455311085" lon="10.855441672228153" id="-12869">
		<tag k="name" v="Vårli" />
=======
	<node id="-243014" lat="59.3074055595" lon="10.7672416755">
		<tag k="name" v="Krokstadfjorden" />
		<tag k="natural" v="bay" />
		<tag k="ssr:stedsnr" v="184424" />
	</node>
	<node id="-243013" lat="59.3680555525" lon="10.8046555623">
		<tag k="name" v="Ramyr" />
>>>>>>> e1d4bc35ff8a6074a6f2e91616a996b547c36f15
		<tag k="place" v="farm" />
		<tag k="ssr:stedsnr" v="548457" />
	</node>
<<<<<<< HEAD
	<node lat="59.37861388562344" lon="10.858255549573547" id="-12870">
		<tag k="name" v="Brattholmen" />
=======
	<node id="-243012" lat="59.3468916652" lon="10.9653583247">
		<tag k="name" v="Staringa" />
>>>>>>> e1d4bc35ff8a6074a6f2e91616a996b547c36f15
		<tag k="place" v="islet" />
		<tag k="ssr:stedsnr" v="548305" />
	</node>
<<<<<<< HEAD
	<node lat="59.37719166809958" lon="10.878072225222393" id="-12871">
		<tag k="alt_name" v="Øksenøya" />
		<tag k="name" v="Oksenøya" />
		<tag k="place" v="island" />
		<tag k="ssr:stedsnr" v="548307" />
	</node>
	<node lat="59.38262500347372" lon="10.971247215530491" id="-12872">
		<tag k="alt_name" v="Slangsvold" />
		<tag k="name" v="Slangsvoll" />
		<tag k="place" v="farm" />
		<tag k="ssr:stedsnr" v="548314" />
	</node>
	<node lat="59.26559999913176" lon="10.626097218238737" id="-12874">
		<tag k="name" v="Bjørnen" />
		<tag k="natural" v="shoal" />
=======
	<node id="-243011" lat="59.3673361122" lon="10.9456694477">
		<tag k="fixme" v="consider natural=peak for the most distinct mountains in the district" />
		<tag k="name" v="Langklo" />
		<tag k="natural" v="hill" />
		<tag k="place" v="locality" />
		<tag k="ssr:stedsnr" v="300581" />
	</node>
	<node id="-243010" lat="59.3050027784" lon="10.835605556">
		<tag k="name" v="Hasledalen" />
		<tag k="natural" v="valley" />
>>>>>>> e1d4bc35ff8a6074a6f2e91616a996b547c36f15
		<tag k="place" v="locality" />
		<tag k="ssr:stedsnr" v="549642" />
	</node>
<<<<<<< HEAD
	<node lat="59.33619722566456" lon="10.746286104858466" id="-12875">
		<tag k="name" v="Badehuset" />
		<tag k="natural" v="cape" />
		<tag k="ssr:stedsnr" v="570758" />
	</node>
	<node lat="59.37286666422594" lon="10.939788892573606" id="-12876">
		<tag k="name" v="Kloppermyra" />
		<tag k="natural" v="wetland" />
		<tag k="ssr:stedsnr" v="603569" />
	</node>
	<node lat="59.297791668651136" lon="10.83233611245161" id="-12877">
=======
	<node id="-243009" lat="59.3590250006" lon="10.7818694455">
		<tag k="name" v="Sandaker" />
		<tag k="place" v="farm" />
		<tag k="ssr:stedsnr" v="178924" />
	</node>
	<node id="-243008" lat="59.3456138871" lon="10.8271916706">
>>>>>>> e1d4bc35ff8a6074a6f2e91616a996b547c36f15
		<tag k="fixme" v="consider natural=peak for the most distinct mountains in the district" />
		<tag k="name" v="Rørfjell" />
		<tag k="natural" v="hill" />
		<tag k="place" v="locality" />
		<tag k="ssr:stedsnr" v="608406" />
	</node>
<<<<<<< HEAD
	<node lat="59.29960741826094" lon="10.774545347540164" id="-12878">
		<tag k="fixme" v="consider place=hamlet" />
		<tag k="name" v="Spetalen" />
=======
	<node id="-243007" lat="59.3412666669" lon="10.7757888938">
		<tag k="alt_name" v="Gammelsrød nordre" />
		<tag k="name" v="Nordre Gammelsrød" />
>>>>>>> e1d4bc35ff8a6074a6f2e91616a996b547c36f15
		<tag k="place" v="farm" />
		<tag k="ssr:stedsnr" v="608400" />
	</node>
<<<<<<< HEAD
	<node lat="59.33766667015247" lon="10.949925002829769" id="-12879">
		<tag k="name" v="Sulerød" />
=======
	<node id="-243006" lat="59.3403694429" lon="10.7804722184">
		<tag k="name" v="Gammelsrød" />
>>>>>>> e1d4bc35ff8a6074a6f2e91616a996b547c36f15
		<tag k="place" v="farm" />
		<tag k="ssr:stedsnr" v="608508" />
	</node>
<<<<<<< HEAD
	<node lat="59.34734969627076" lon="10.78741646694824" id="-12880">
		<tag k="name" v="Heia" />
=======
	<node id="-243005" lat="59.3669805531" lon="10.8041083393">
		<tag k="name" v="Nygård" />
>>>>>>> e1d4bc35ff8a6074a6f2e91616a996b547c36f15
		<tag k="place" v="farm" />
		<tag k="ssr:stedsnr" v="608512" />
	</node>
<<<<<<< HEAD
	<node lat="59.34053979345281" lon="10.773967185683347" id="-12881">
		<tag k="name" v="Gammelsrød" />
		<tag k="place" v="hamlet" />
		<tag k="ssr:stedsnr" v="608496" />
	</node>
	<node lat="59.34025555397568" lon="10.784122215228006" id="-12882">
		<tag k="alt_name" v="Brånan" />
		<tag k="name" v="Brånen" />
		<tag k="place" v="farm" />
		<tag k="ssr:stedsnr" v="608501" />
	</node>
	<node lat="59.3900722262075" lon="10.950336115300576" id="-12883">
		<tag k="name" v="Danserfjella" />
		<tag k="natural" v="mountain_range" />
		<tag k="ssr:stedsnr" v="609292" />
	</node>
	<node lat="59.33230216849348" lon="10.824864424499633" id="-12884">
		<tag k="fixme" v="consider place=hamlet" />
		<tag k="name" v="Kolbjørnrød" />
=======
	<node id="-243004" lat="59.370716664" lon="10.8165027688">
		<tag k="fixme" v="verify maritime location" />
		<tag k="mooring" v="yes" />
		<tag k="name" v="Grimstadstøa" />
		<tag k="place" v="locality" />
		<tag k="ssr:stedsnr" v="177886" />
	</node>
	<node id="-243003" lat="59.3600833373" lon="10.9088333328">
		<tag k="fixme" v="consider natural=peak for the most distinct mountains in the district" />
		<tag k="name" v="Fugleleiken" />
		<tag k="natural" v="hill" />
		<tag k="place" v="locality" />
		<tag k="ssr:stedsnr" v="300274" />
	</node>
	<node id="-243001" lat="59.3207666705" lon="10.9320749975">
		<tag k="alt_name" v="Sølvland" />
		<tag k="name" v="Søland" />
>>>>>>> e1d4bc35ff8a6074a6f2e91616a996b547c36f15
		<tag k="place" v="farm" />
		<tag k="ssr:stedsnr" v="609440" />
	</node>
<<<<<<< HEAD
	<node lat="59.292230553575656" lon="10.919147214859054" id="-12885">
		<tag k="alt_name" v="Kjelshus" />
		<tag k="name" v="Kjelshuset" />
		<tag k="place" v="isolated_dwelling" />
		<tag k="ssr:stedsnr" v="609386" />
	</node>
	<node lat="59.29855277534229" lon="10.766922219135926" id="-12886">
		<tag k="name" v="Spetalen" />
		<tag k="place" v="village" />
		<tag k="ssr:stedsnr" v="631201" />
	</node>
	<node lat="59.27696388728951" lon="10.675313896485834" id="-12887">
		<tag k="name" v="Slettertangen" />
		<tag k="natural" v="cape" />
		<tag k="ssr:stedsnr" v="631880" />
	</node>
	<node lat="59.313347219046406" lon="10.729769444587903" id="-12888">
		<tag k="alt_name" v="Kokholmsundet" />
		<tag k="name" v="Kokholmsund" />
		<tag k="natural" v="strait" />
		<tag k="ssr:stedsnr" v="634892" />
	</node>
	<node lat="59.3451027762076" lon="10.924777777510231" id="-12889">
		<tag k="bridge" v="yes" />
		<tag k="layer" v="1" />
		<tag k="name" v="Åsgårdkrysset" />
		<tag k="ssr:stedsnr" v="652412" />
	</node>
	<node lat="59.3474916704022" lon="10.92096388715476" id="-12890">
		<tag k="alt_name" v="Bråten" />
		<tag k="name" v="Borgebråten" />
		<tag k="old_name" v="Braaten" />
=======
	<node id="-243000" lat="59.3751194467" lon="10.9645444358">
		<tag k="name" v="Gullhaug" />
>>>>>>> e1d4bc35ff8a6074a6f2e91616a996b547c36f15
		<tag k="place" v="farm" />
		<tag k="ssr:stedsnr" v="660082" />
	</node>
<<<<<<< HEAD
	<node lat="59.368424996208375" lon="10.79966389303358" id="-12891">
		<tag k="name" v="Løkenbråten" />
=======
	<node id="-242999" lat="59.362187702" lon="10.9002857169">
		<tag k="name" v="Bjørnebekk" />
>>>>>>> e1d4bc35ff8a6074a6f2e91616a996b547c36f15
		<tag k="place" v="farm" />
		<tag k="ssr:stedsnr" v="663890" />
	</node>
<<<<<<< HEAD
	<node lat="59.37818055346688" lon="10.821761117726227" id="-12892">
		<tag k="name" v="Lilledøvik" />
		<tag k="natural" v="bay" />
		<tag k="ssr:stedsnr" v="663892" />
	</node>
	<node lat="59.37007222403578" lon="10.956086106187556" id="-12893">
=======
	<node id="-242998" lat="59.3595249962" lon="10.9502805632">
		<tag k="fixme" v="consider place=hamlet" />
>>>>>>> e1d4bc35ff8a6074a6f2e91616a996b547c36f15
		<tag k="name" v="Slangsvoll" />
		<tag k="place" v="farm" />
		<tag k="ssr:stedsnr" v="664542" />
	</node>
	<node lat="59.40120555368535" lon="10.8784861117882" id="-12894">
		<tag k="name" v="Slottsholmen" />
		<tag k="place" v="islet" />
		<tag k="ssr:stedsnr" v="664551" />
	</node>
<<<<<<< HEAD
	<node lat="59.32039999633799" lon="10.815008326081662" id="-12895">
=======
	<node id="-242997" lat="59.3574538501" lon="10.8045735618">
>>>>>>> e1d4bc35ff8a6074a6f2e91616a996b547c36f15
		<tag k="fixme" v="consider place=hamlet" />
		<tag k="name" v="Tom" />
		<tag k="place" v="farm" />
		<tag k="ssr:stedsnr" v="665296" />
	</node>
<<<<<<< HEAD
	<node lat="59.30762777998258" lon="10.866766669112874" id="-12896">
		<tag k="alt_name" v="Kil midtre;Kil mellem" />
		<tag k="name" v="Midtre Kil" />
=======
	<node id="-242996" lat="59.347288885" lon="10.8918638854">
		<tag k="name" v="Kåpegot" />
>>>>>>> e1d4bc35ff8a6074a6f2e91616a996b547c36f15
		<tag k="place" v="farm" />
		<tag k="ssr:stedsnr" v="669425" />
	</node>
<<<<<<< HEAD
	<node lat="59.30546666754653" lon="10.810524997586441" id="-12897">
		<tag k="name" v="Solbakken" />
		<tag k="place" v="farm" />
		<tag k="ssr:stedsnr" v="669428" />
	</node>
	<node lat="59.3397655618345" lon="10.838951505574565" id="-12898">
		<tag k="alt_name" v="Årneberg" />
		<tag k="fixme" v="consider place=hamlet" />
		<tag k="name" v="Arneberg" />
=======
	<node id="-242995" lat="59.3411444474" lon="10.8900083269">
		<tag k="name" v="Prestegården" />
		<tag k="place" v="isolated_dwelling" />
		<tag k="ssr:stedsnr" v="123534" />
	</node>
	<node id="-242994" lat="59.3363944411" lon="10.8453861101">
		<tag k="name" v="Husbakke" />
>>>>>>> e1d4bc35ff8a6074a6f2e91616a996b547c36f15
		<tag k="place" v="farm" />
		<tag k="ssr:stedsnr" v="669497" />
	</node>
<<<<<<< HEAD
	<node lat="59.34966110914029" lon="10.88762499512022" id="-12899">
		<tag k="name" v="Raet" />
=======
	<node id="-242993" lat="59.3291805527" lon="10.8407194369">
		<tag k="name" v="Myre" />
>>>>>>> e1d4bc35ff8a6074a6f2e91616a996b547c36f15
		<tag k="place" v="farm" />
		<tag k="ssr:stedsnr" v="669514" />
	</node>
<<<<<<< HEAD
	<node lat="59.375969447987956" lon="10.901802786485291" id="-12900">
		<tag k="name" v="Kilen" />
=======
	<node id="-242992" lat="59.3261750003" lon="10.8889111091">
		<tag k="name" v="Tverrbekk" />
>>>>>>> e1d4bc35ff8a6074a6f2e91616a996b547c36f15
		<tag k="place" v="farm" />
		<tag k="ssr:stedsnr" v="670280" />
	</node>
<<<<<<< HEAD
	<node lat="59.31443610749477" lon="10.751158326240278" id="-12901">
		<tag k="alt_name" v="Åvensund" />
		<tag k="name" v="Åvensundet" />
		<tag k="natural" v="bay" />
		<tag k="ssr:stedsnr" v="670400" />
	</node>
	<node lat="59.31556246696403" lon="10.796055011766311" id="-12902">
		<tag k="fixme" v="consider place=hamlet" />
		<tag k="name" v="Hestevoll" />
=======
	<node id="-242991" lat="59.3300888905" lon="10.8857861181">
		<tag k="name" v="Bekkhus" />
>>>>>>> e1d4bc35ff8a6074a6f2e91616a996b547c36f15
		<tag k="place" v="farm" />
		<tag k="ssr:stedsnr" v="670424" />
	</node>
<<<<<<< HEAD
	<node lat="59.306347226380964" lon="10.737841674216481" id="-12903">
		<tag k="fixme" v="consider seamark:type=rock or natural=shoal" />
		<tag k="name" v="Raskjæret" />
=======
	<node id="-242990" lat="59.3263583327" lon="10.7329499951">
		<tag k="name" v="Knappholmene" />
>>>>>>> e1d4bc35ff8a6074a6f2e91616a996b547c36f15
		<tag k="place" v="islet" />
		<tag k="ssr:stedsnr" v="695768" />
	</node>
<<<<<<< HEAD
	<node lat="59.3621589669484" lon="10.784997362775043" id="-12904">
		<tag k="loc_name" v="Huset" />
		<tag k="name" v="Sandakerhuset" />
		<tag k="place" v="locality" />
		<tag k="ssr:stedsnr" v="724896" />
	</node>
	<node lat="59.38535833268201" lon="10.809997227548182" id="-12905">
		<tag k="fixme" v="consider natural=peak for the most distinct mountains in the district" />
		<tag k="name" v="Fugleleiken" />
		<tag k="natural" v="hill" />
=======
	<node id="-242989" lat="59.317902776" lon="10.7393361163">
		<tag k="name" v="Åven" />
		<tag k="place" v="farm" />
		<tag k="ssr:stedsnr" v="123498" />
	</node>
	<node id="-242988" lat="59.2983555564" lon="10.8597444514">
		<tag k="name" v="Bjørndalen" />
		<tag k="natural" v="valley" />
>>>>>>> e1d4bc35ff8a6074a6f2e91616a996b547c36f15
		<tag k="place" v="locality" />
		<tag k="ssr:stedsnr" v="724902" />
	</node>
<<<<<<< HEAD
	<node lat="59.33895237540369" lon="10.910863198542446" id="-12906">
		<tag k="fixme" v="consider place=hamlet" />
		<tag k="name" v="Hauger" />
=======
	<node id="-242987" lat="59.3118777775" lon="10.836027785">
		<tag k="name" v="Løkka" />
>>>>>>> e1d4bc35ff8a6074a6f2e91616a996b547c36f15
		<tag k="place" v="farm" />
		<tag k="ssr:stedsnr" v="730503" />
	</node>
<<<<<<< HEAD
	<node lat="59.34058055337414" lon="10.939900001225434" id="-12907">
		<tag k="name" v="Åkebergrød" />
		<tag k="place" v="farm" />
		<tag k="ssr:stedsnr" v="730506" />
	</node>
	<node lat="59.3489333306904" lon="10.927341665651708" id="-12908">
		<tag k="alt_name" v="Branndalen" />
		<tag k="name" v="Branddalen" />
=======
	<node id="-242986" lat="59.3517017261" lon="10.8711051345">
		<tag k="amenity" v="townhall" />
		<tag k="name" v="Råde rådhus" />
		<tag k="ssr:stedsnr" v="118933" />
	</node>
	<node id="-242985" lat="59.3174611108" lon="10.9179166594">
		<tag k="name" v="Elverhøy" />
>>>>>>> e1d4bc35ff8a6074a6f2e91616a996b547c36f15
		<tag k="place" v="farm" />
		<tag k="ssr:stedsnr" v="730527" />
	</node>
<<<<<<< HEAD
	<node lat="59.36871340055514" lon="10.92338696445583" id="-12909">
		<tag k="alt_name" v="Knappervika" />
		<tag k="fixme" v="consider place=hamlet" />
		<tag k="name" v="Knapperviken" />
=======
	<node id="-242984" lat="59.3497583306" lon="10.8638222169">
		<tag k="name" v="Skråtorp" />
>>>>>>> e1d4bc35ff8a6074a6f2e91616a996b547c36f15
		<tag k="place" v="farm" />
		<tag k="ssr:stedsnr" v="731215" />
	</node>
<<<<<<< HEAD
	<node lat="59.372680558097194" lon="10.82822500580229" id="-12910">
		<tag k="name" v="Engene" />
=======
	<node id="-242983" lat="59.348191671" lon="10.8952361055">
		<tag k="name" v="Kirkebø" />
>>>>>>> e1d4bc35ff8a6074a6f2e91616a996b547c36f15
		<tag k="place" v="farm" />
		<tag k="ssr:stedsnr" v="731234" />
	</node>
<<<<<<< HEAD
	<node lat="59.32503023729302" lon="10.871265012126464" id="-12911">
		<tag k="alt_name" v="Berg østre" />
		<tag k="fixme" v="consider place=hamlet" />
		<tag k="name" v="Østre Berg" />
		<tag k="place" v="farm" />
		<tag k="ssr:stedsnr" v="731396" />
	</node>
	<node lat="59.3138138915855" lon="10.879847215276506" id="-12912">
		<tag k="name" v="Holtet" />
=======
	<node id="-242982" lat="59.3391583326" lon="10.853711104">
		<tag k="fixme" v="consider natural=peak for the most distinct mountains in the district" />
		<tag k="name" v="Strømnesfjellet" />
		<tag k="natural" v="hill" />
		<tag k="place" v="locality" />
		<tag k="ssr:stedsnr" v="118353" />
	</node>
	<node id="-242981" lat="59.3133499975" lon="10.911166658">
		<tag k="alt_name" v="Reklingsholm østre" />
		<tag k="name" v="Østre Reklingsholm" />
>>>>>>> e1d4bc35ff8a6074a6f2e91616a996b547c36f15
		<tag k="place" v="farm" />
		<tag k="ssr:stedsnr" v="752769" />
	</node>
<<<<<<< HEAD
	<node lat="59.29656388535746" lon="10.665369440115931" id="-12913">
		<tag k="name" v="Vesle Sletter" />
		<tag k="natural" v="cape" />
		<tag k="ssr:stedsnr" v="754250" />
	</node>
	<node lat="59.321869442979754" lon="10.783386115243777" id="-12914">
		<tag k="name" v="Lårbu" />
		<tag k="place" v="farm" />
		<tag k="ssr:stedsnr" v="906531" />
	</node>
	<node lat="59.38326110984556" lon="10.823900002801825" id="-12915">
		<tag k="name" v="Sponbukt" />
		<tag k="natural" v="bay" />
		<tag k="ssr:stedsnr" v="906886" />
	</node>
	<node lat="59.34557499671517" lon="10.779424991209135" id="-12916">
		<tag k="name" v="Heiasvingen" />
		<tag k="place" v="locality" />
		<tag k="ssr:stedsnr" v="906889" />
	</node>
	<node lat="59.30589722358725" lon="10.754391671680454" id="-12917">
		<tag k="fixme" v="consider seamark:type=rock or natural=shoal" />
		<tag k="name" v="Guleskjær" />
=======
	<node id="-242980" lat="59.3406305553" lon="10.963552774">
		<tag k="fixme" v="consider natural=peak for the most distinct mountains in the district" />
		<tag k="name" v="Gullikås" />
		<tag k="natural" v="hill" />
		<tag k="place" v="locality" />
		<tag k="ssr:stedsnr" v="113361" />
	</node>
	<node id="-242979" lat="59.3537666683" lon="10.8798750048">
		<tag k="bridge" v="yes" />
		<tag k="layer" v="1" />
		<tag k="name" v="Karlshusbunn" />
		<tag k="ssr:stedsnr" v="107523" />
	</node>
	<node id="-242978" lat="59.2802861084" lon="10.677038885">
		<tag k="name" v="Søndre Sletter" />
>>>>>>> e1d4bc35ff8a6074a6f2e91616a996b547c36f15
		<tag k="place" v="islet" />
		<tag k="ssr:stedsnr" v="907185" />
	</node>
<<<<<<< HEAD
	<node lat="59.372358334140365" lon="10.915927774018488" id="-12918">
		<tag k="name" v="Borgebunn" />
		<tag k="natural" v="bay" />
		<tag k="ssr:stedsnr" v="907228" />
	</node>
	<node lat="59.372783337375935" lon="10.967577784525695" id="-12919">
		<tag k="name" v="Bjørnemyr" />
		<tag k="natural" v="wetland" />
		<tag k="ssr:stedsnr" v="907531" />
	</node>
	<node lat="59.325963885495256" lon="10.930383336706416" id="-12920">
		<tag k="name" v="Ileby" />
=======
	<node id="-242977" lat="59.3337583366" lon="10.8116638935">
		<tag k="alt_name" v="Hauga" />
		<tag k="name" v="Haga" />
		<tag k="place" v="farm" />
		<tag k="ssr:stedsnr" v="63494" />
	</node>
	<node id="-242976" lat="59.3341194467" lon="10.8891388924">
		<tag k="alt_name" v="Salby" />
		<tag k="name" v="Salbu" />
		<tag k="place" v="farm" />
		<tag k="ssr:stedsnr" v="63490" />
	</node>
	<node id="-242975" lat="59.3221750009" lon="10.792647219">
		<tag k="alt_name" v="Torkelstad" />
		<tag k="name" v="Torkilstad" />
>>>>>>> e1d4bc35ff8a6074a6f2e91616a996b547c36f15
		<tag k="place" v="farm" />
		<tag k="ssr:stedsnr" v="907736" />
	</node>
<<<<<<< HEAD
	<node lat="59.30141111331689" lon="10.783283335337565" id="-12921">
		<tag k="name" v="Andersrød" />
		<tag k="place" v="farm" />
		<tag k="ssr:stedsnr" v="784558" />
	</node>
	<node lat="59.34077500184702" lon="10.923136115492866" id="-12922">
		<tag k="name" v="Borgedalen" />
=======
	<node id="-242974" lat="59.3101499971" lon="10.8809805628">
		<tag k="name" v="Kongsveien" />
		<tag k="place" v="farm" />
		<tag k="ssr:stedsnr" v="63455" />
	</node>
	<node id="-242973" lat="59.3872166677" lon="10.855947216">
		<tag k="alt_name" v="Vannsjø" />
		<tag k="name" v="Vansjø" />
		<tag k="natural" v="water" />
		<tag k="ssr:stedsnr" v="63316" />
		<tag k="water" v="lake" />
	</node>
	<node id="-242972" lat="59.3763611125" lon="10.967888896">
		<tag k="name" v="Slangsvoll" />
>>>>>>> e1d4bc35ff8a6074a6f2e91616a996b547c36f15
		<tag k="place" v="farm" />
		<tag k="ssr:stedsnr" v="786199" />
	</node>
<<<<<<< HEAD
	<node lat="59.33895000279217" lon="10.843819448300334" id="-12923">
		<tag k="name" v="Årneberghølen" />
		<tag k="ssr:stedsnr" v="786352" />
		<tag k="waterway" v="stream" />
	</node>
	<node lat="59.3566955682603" lon="10.833896401219132" id="-12924">
		<tag k="alt_name" v="Jonstein" />
		<tag k="fixme" v="consider place=hamlet" />
		<tag k="name" v="Jonsten" />
=======
	<node id="-242971" lat="59.3627750026" lon="10.956152775">
		<tag k="name" v="Kleiva" />
		<tag k="place" v="farm" />
		<tag k="ssr:stedsnr" v="63296" />
	</node>
	<node id="-242970" lat="59.331858333" lon="10.8837083304">
		<tag k="name" v="Haugan" />
>>>>>>> e1d4bc35ff8a6074a6f2e91616a996b547c36f15
		<tag k="place" v="farm" />
		<tag k="ssr:stedsnr" v="791259" />
	</node>
<<<<<<< HEAD
	<node lat="59.36001944023874" lon="10.85351111056719" id="-12925">
		<tag k="name" v="Burumbråten" />
=======
	<node id="-242969" lat="59.3753972246" lon="10.949633335">
		<tag k="alt_name" v="Leiedalen nordre" />
		<tag k="name" v="Nordre Leiedalen" />
>>>>>>> e1d4bc35ff8a6074a6f2e91616a996b547c36f15
		<tag k="place" v="farm" />
		<tag k="ssr:stedsnr" v="791260" />
	</node>
<<<<<<< HEAD
	<node lat="59.40210833778688" lon="10.886163881085585" id="-12926">
		<tag k="name" v="Burumøya" />
		<tag k="place" v="island" />
		<tag k="ssr:stedsnr" v="791298" />
	</node>
	<node lat="59.332786111928236" lon="10.885361112528889" id="-12927">
		<tag k="name" v="Stene" />
=======
	<node id="-242968" lat="59.3559805535" lon="10.8771111135">
		<tag k="name" v="Halvorsrød" />
		<tag k="place" v="farm" />
		<tag k="ssr:stedsnr" v="58300" />
	</node>
	<node id="-242967" lat="59.3222819336" lon="10.7586980231">
		<tag k="alt_name" v="Fuglevik søndre" />
		<tag k="name" v="Søndre Fuglevik" />
>>>>>>> e1d4bc35ff8a6074a6f2e91616a996b547c36f15
		<tag k="place" v="farm" />
		<tag k="ssr:stedsnr" v="791439" />
	</node>
<<<<<<< HEAD
	<node lat="59.34332775994554" lon="10.916444847778083" id="-12928">
		<tag k="name" v="Borge" />
		<tag k="place" v="hamlet" />
		<tag k="ssr:stedsnr" v="791486" />
	</node>
	<node lat="59.3083833335056" lon="10.87237500231226" id="-12929">
		<tag k="alt_name" v="Kil østre" />
		<tag k="name" v="Østre Kil" />
		<tag k="place" v="farm" />
		<tag k="ssr:stedsnr" v="791392" />
	</node>
	<node lat="59.28805833653049" lon="10.742830559124236" id="-12930">
		<tag k="alt_name" v="Saltnesholmen" />
		<tag k="name" v="Saltholmen" />
		<tag k="place" v="islet" />
		<tag k="ssr:stedsnr" v="792386" />
	</node>
	<node lat="59.33431388696878" lon="10.800827781016041" id="-12931">
		<tag k="alt_name" v="Åker" />
		<tag k="name" v="Aker" />
		<tag k="place" v="hamlet" />
		<tag k="ssr:stedsnr" v="913434" />
	</node>
	<node lat="59.3265403006483" lon="10.806368519968336" id="-12932">
		<tag k="alt_name" v="Hauga;Krokstad" />
		<tag k="fixme" v="consider place=hamlet" />
		<tag k="name" v="Haga" />
=======
	<node id="-242966" lat="59.3369249974" lon="10.7596333319">
		<tag k="alt_name" v="Tasken søndre" />
		<tag k="name" v="Søndre Tasken" />
		<tag k="place" v="farm" />
		<tag k="ssr:stedsnr" v="56922" />
	</node>
	<node id="-242965" lat="59.3108611098" lon="10.8809138851">
		<tag k="name" v="Kongsrød" />
		<tag k="place" v="farm" />
		<tag k="ssr:stedsnr" v="56895" />
	</node>
	<node id="-242964" lat="59.3936000033" lon="10.8173750069">
		<tag k="name" v="Skogstangen" />
		<tag k="natural" v="cape" />
		<tag k="ssr:stedsnr" v="56890" />
	</node>
	<node id="-242963" lat="59.3065305572" lon="10.8261138848">
		<tag k="name" v="Tombdalen" />
		<tag k="natural" v="valley" />
		<tag k="place" v="locality" />
		<tag k="ssr:stedsnr" v="56552" />
	</node>
	<node id="-242962" lat="59.3071888859" lon="10.8122888919">
		<tag k="name" v="Jerndalen" />
		<tag k="natural" v="valley" />
		<tag k="place" v="locality" />
		<tag k="ssr:stedsnr" v="56550" />
	</node>
	<node id="-242961" lat="59.2951388882" lon="10.7735055643">
		<tag k="name" v="Andersrød" />
>>>>>>> e1d4bc35ff8a6074a6f2e91616a996b547c36f15
		<tag k="place" v="farm" />
		<tag k="ssr:stedsnr" v="913441" />
	</node>
<<<<<<< HEAD
	<node lat="59.31723055901484" lon="10.771347225271295" id="-12933">
		<tag k="name" v="Solsletta" />
		<tag k="place" v="isolated_dwelling" />
		<tag k="ssr:stedsnr" v="913417" />
	</node>
	<node lat="59.31943055285254" lon="10.80524444348652" id="-12934">
		<tag k="alt_name" v="Tom" />
		<tag k="fixme" v="consider place=suburb, village or hamlet" />
		<tag k="name" v="Tomb" />
		<tag k="place" v="quarter" />
		<tag k="ssr:stedsnr" v="913431" />
	</node>
	<node lat="59.30181944131886" lon="10.774327776384855" id="-12935">
		<tag k="fixme" v="multiple name tags, choose one and add the other to alt_name" />
		<tag k="name" v="Kløfta;Tangen" />
=======
	<node id="-242960" lat="59.3238583321" lon="10.8033333361">
		<tag k="man_made" v="quay" />
		<tag k="name" v="Tomb brygge" />
		<tag k="place" v="locality" />
		<tag k="ssr:stedsnr" v="56545" />
	</node>
	<node id="-242959" lat="59.308591664" lon="10.7751944467">
		<tag k="alt_name" v="Makrelskjæret" />
		<tag k="fixme" v="consider seamark:type=rock or natural=shoal" />
		<tag k="name" v="Makrellskjær" />
		<tag k="place" v="islet" />
		<tag k="ssr:stedsnr" v="28844" />
	</node>
	<node id="-242958" lat="59.3122579692" lon="10.7916302763">
		<tag k="name" v="Sandvegen" />
>>>>>>> e1d4bc35ff8a6074a6f2e91616a996b547c36f15
		<tag k="place" v="farm" />
		<tag k="ssr:stedsnr" v="817827" />
	</node>
<<<<<<< HEAD
	<node lat="59.304701398257734" lon="10.861676726767804" id="-12936">
		<tag k="name" v="Kil" />
		<tag k="place" v="hamlet" />
		<tag k="ssr:stedsnr" v="844286" />
	</node>
	<node lat="59.29944166667519" lon="10.820427773189046" id="-12937">
		<tag k="name" v="Jerndalsfjellet" />
		<tag k="natural" v="ridge" />
=======
	<node id="-242957" lat="59.2901722215" lon="10.7334861052">
		<tag k="name" v="Saltholmhausen" />
		<tag k="natural" v="shoal" />
>>>>>>> e1d4bc35ff8a6074a6f2e91616a996b547c36f15
		<tag k="place" v="locality" />
		<tag k="ssr:stedsnr" v="845574" />
	</node>
<<<<<<< HEAD
	<node lat="59.38797777935791" lon="10.816616661886632" id="-12938">
		<tag k="name" v="Grimsrød" />
=======
	<node id="-242956" lat="59.288708332" lon="10.6906138912">
		<tag k="alt_name" v="Posgrunnen" />
		<tag k="name" v="Påsgrunnen" />
		<tag k="natural" v="shoal" />
>>>>>>> e1d4bc35ff8a6074a6f2e91616a996b547c36f15
		<tag k="place" v="locality" />
		<tag k="ssr:stedsnr" v="845905" />
	</node>
<<<<<<< HEAD
	<node lat="59.32360833165679" lon="10.762511112837807" id="-12939">
		<tag k="alt_name" v="Fuglevik nordre" />
		<tag k="name" v="Nordre Fuglevik" />
		<tag k="place" v="farm" />
		<tag k="ssr:stedsnr" v="845975" />
	</node>
	<node lat="59.321058330324504" lon="10.878330549787318" id="-12940">
		<tag k="name" v="Haugen" />
		<tag k="place" v="farm" />
		<tag k="ssr:stedsnr" v="847827" />
	</node>
	<node lat="59.31273055227753" lon="10.883266668746726" id="-12941">
		<tag k="name" v="Hissingby" />
		<tag k="place" v="locality" />
		<tag k="ssr:stedsnr" v="847874" />
	</node>
	<node lat="59.32585278084412" lon="10.894449992516295" id="-12942">
		<tag k="name" v="Granly" />
=======
	<node id="-242955" lat="59.3017250019" lon="10.6673277816">
		<tag k="name" v="Store Sletter" />
		<tag k="place" v="island" />
		<tag k="ssr:stedsnr" v="2665" />
	</node>
	<node id="-242954" lat="59.3471194452" lon="10.9667027795">
		<tag k="alt_name" v="Isebakktjernet" />
		<tag k="name" v="Isebakktjern" />
		<tag k="natural" v="water" />
		<tag k="ssr:stedsnr" v="2518" />
	</node>
	<node id="-242953" lat="59.3474568247" lon="10.8651333976">
		<tag k="alt_name" v="Råde" />
		<tag k="name" v="Råde stasjon" />
		<tag k="railway" v="station" />
		<tag k="ssr:stedsnr" v="2512" />
		<tag k="train" v="yes" />
	</node>
	<node id="-242952" lat="59.3447361152" lon="10.8705249995">
		<tag k="name" v="Strømshaug" />
>>>>>>> e1d4bc35ff8a6074a6f2e91616a996b547c36f15
		<tag k="place" v="farm" />
		<tag k="ssr:stedsnr" v="847787" />
	</node>
<<<<<<< HEAD
	<node lat="59.361289236386426" lon="10.794766591578098" id="-12943">
=======
	<node id="-242951" lat="59.3434101294" lon="10.801039725">
>>>>>>> e1d4bc35ff8a6074a6f2e91616a996b547c36f15
		<tag k="fixme" v="consider place=hamlet" />
		<tag k="name" v="Sogn" />
		<tag k="place" v="farm" />
		<tag k="ssr:stedsnr" v="852264" />
	</node>
<<<<<<< HEAD
	<node lat="59.41121944236029" lon="10.763413891467753" id="-12944">
		<tag k="name" v="Nygård" />
=======
	<node id="-242950" lat="59.3347583361" lon="10.8314944386">
		<tag k="name" v="Ringsrød" />
>>>>>>> e1d4bc35ff8a6074a6f2e91616a996b547c36f15
		<tag k="place" v="farm" />
		<tag k="ssr:stedsnr" v="852284" />
	</node>
	<node lat="59.33918055950663" lon="10.825716670600697" id="-12945">
		<tag k="name" v="Løkka" />
		<tag k="place" v="farm" />
		<tag k="ssr:stedsnr" v="852472" />
	</node>
	<node lat="59.35873889042625" lon="10.839963895928953" id="-12947">
		<tag k="bridge" v="yes" />
		<tag k="layer" v="1" />
		<tag k="name" v="Jonsten" />
		<tag k="ssr:stedsnr" v="896540" />
	</node>
<<<<<<< HEAD
	<node lat="59.35961667123283" lon="10.840736107611301" id="-12948">
		<tag k="bridge" v="yes" />
		<tag k="layer" v="1" />
		<tag k="name" v="Jonsten rampe" />
		<tag k="ssr:stedsnr" v="896543" />
	</node>
	<node lat="59.338264765254095" lon="10.763875794175474" id="-12949">
		<tag k="alt_name" v="Tasken nordre" />
=======
	<node id="-242949" lat="59.3290027751" lon="10.9309888828">
>>>>>>> e1d4bc35ff8a6074a6f2e91616a996b547c36f15
		<tag k="fixme" v="consider place=hamlet" />
		<tag k="name" v="Nordre Tasken" />
		<tag k="place" v="farm" />
		<tag k="ssr:stedsnr" v="906917" />
	</node>
<<<<<<< HEAD
	<node lat="59.340466662718114" lon="10.882127772206792" id="-12950">
		<tag k="name" v="Lunder" />
=======
	<node id="-242948" lat="59.3218666701" lon="10.9383222201">
		<tag k="name" v="Finstad" />
>>>>>>> e1d4bc35ff8a6074a6f2e91616a996b547c36f15
		<tag k="place" v="farm" />
		<tag k="ssr:stedsnr" v="912505" />
	</node>
<<<<<<< HEAD
	<node lat="59.34314444290037" lon="10.852430549562454" id="-12951">
		<tag k="alt_name" v="Hafeld" />
		<tag k="name" v="Hafell" />
=======
	<node id="-242947" lat="59.3750694422" lon="10.9226833409">
		<tag k="fixme" v="consider place=hamlet" />
		<tag k="name" v="Gillingsrød" />
>>>>>>> e1d4bc35ff8a6074a6f2e91616a996b547c36f15
		<tag k="place" v="farm" />
		<tag k="ssr:stedsnr" v="912507" />
	</node>
<<<<<<< HEAD
	<node lat="59.352159655541364" lon="10.832937650953397" id="-12952">
		<tag k="name" v="Elvestad" />
=======
	<node id="-242946" lat="59.3607098284" lon="10.8226982247">
		<tag k="name" v="Haugsten" />
>>>>>>> e1d4bc35ff8a6074a6f2e91616a996b547c36f15
		<tag k="place" v="hamlet" />
		<tag k="ssr:stedsnr" v="912514" />
	</node>
<<<<<<< HEAD
	<node lat="59.34672465125962" lon="10.764491763952595" id="-12953">
		<tag k="alt_name" v="Viersholm" />
		<tag k="fixme" v="consider place=hamlet" />
		<tag k="name" v="Viersholmen" />
=======
	<node id="-242945" lat="59.3570833334" lon="10.7897194454">
		<tag k="name" v="Stomner" />
>>>>>>> e1d4bc35ff8a6074a6f2e91616a996b547c36f15
		<tag k="place" v="farm" />
		<tag k="ssr:stedsnr" v="912517" />
	</node>
<<<<<<< HEAD
	<node lat="59.34528333765836" lon="10.936633341373104" id="-12954">
		<tag k="name" v="Missingmyr" />
		<tag k="place" v="quarter" />
		<tag k="ssr:stedsnr" v="935075" />
	</node>
	<node lat="59.37111110701177" lon="10.882383332027029" id="-12955">
		<tag k="name" v="Gåsholmen" />
		<tag k="place" v="islet" />
		<tag k="ssr:stedsnr" v="968308" />
	</node>
	<node lat="59.3891250017777" lon="10.945788881776025" id="-12956">
		<tag k="name" v="Høymyr" />
		<tag k="natural" v="wetland" />
		<tag k="ssr:stedsnr" v="968599" />
	</node>
	<node lat="59.38187778103594" lon="10.969072220415448" id="-12957">
		<tag k="name" v="Bruane" />
=======
	<node id="-242944" lat="59.3400944464" lon="10.8479083316">
		<tag k="name" v="Stranden" />
		<tag k="place" v="farm" />
		<tag k="ssr:stedsnr" v="968362" />
	</node>
	<node id="-242943" lat="59.3105916668" lon="10.744638895">
		<tag k="name" v="Svarteskjærtangen" />
		<tag k="natural" v="cape" />
		<tag k="ssr:stedsnr" v="966564" />
	</node>
	<node id="-242942" lat="59.3448555557" lon="10.9267083385">
		<tag k="name" v="Sandbakken" />
>>>>>>> e1d4bc35ff8a6074a6f2e91616a996b547c36f15
		<tag k="place" v="locality" />
		<tag k="ssr:stedsnr" v="968600" />
	</node>
<<<<<<< HEAD
	<node lat="59.31936944887296" lon="10.903597217458278" id="-12958">
		<tag k="alt_name" v="Tofteberg vestre" />
		<tag k="name" v="Vestre Tofteberg" />
=======
	<node id="-242941" lat="59.3259638855" lon="10.9303833367">
		<tag k="name" v="Ileby" />
>>>>>>> e1d4bc35ff8a6074a6f2e91616a996b547c36f15
		<tag k="place" v="farm" />
		<tag k="ssr:stedsnr" v="968785" />
	</node>
<<<<<<< HEAD
	<node lat="59.35777511038777" lon="10.789034166271119" id="-12959">
		<tag k="fixme" v="consider place=hamlet" />
		<tag k="name" v="Stomner" />
=======
	<node id="-242940" lat="59.3380000032" lon="10.7643305641">
		<tag k="alt_name" v="Tasken nordre" />
		<tag k="name" v="Nordre Tasken" />
>>>>>>> e1d4bc35ff8a6074a6f2e91616a996b547c36f15
		<tag k="place" v="farm" />
		<tag k="ssr:stedsnr" v="2269" />
	</node>
<<<<<<< HEAD
	<node lat="59.360721554765604" lon="10.821859128250411" id="-12960">
		<tag k="name" v="Haugsten" />
		<tag k="place" v="hamlet" />
		<tag k="ssr:stedsnr" v="2272" />
	</node>
	<node lat="59.323053024405716" lon="10.936547615350607" id="-12961">
		<tag k="fixme" v="consider place=hamlet" />
		<tag k="name" v="Finstad" />
=======
	<node id="-242939" lat="59.2959861068" lon="10.738050002">
		<tag k="name" v="Svenskehausen" />
		<tag k="natural" v="shoal" />
		<tag k="place" v="locality" />
		<tag k="ssr:stedsnr" v="874820" />
	</node>
	<node id="-242938" lat="59.3391805595" lon="10.8257166706">
		<tag k="name" v="Løkka" />
>>>>>>> e1d4bc35ff8a6074a6f2e91616a996b547c36f15
		<tag k="place" v="farm" />
		<tag k="ssr:stedsnr" v="2452" />
	</node>
<<<<<<< HEAD
	<node lat="59.328532026341804" lon="10.930764308540681" id="-12962">
		<tag k="fixme" v="consider place=hamlet" />
		<tag k="name" v="Ileby" />
=======
	<node id="-242937" lat="59.3038027818" lon="10.7964194434">
		<tag k="name" v="Holmebråten" />
>>>>>>> e1d4bc35ff8a6074a6f2e91616a996b547c36f15
		<tag k="place" v="farm" />
		<tag k="ssr:stedsnr" v="2473" />
	</node>
<<<<<<< HEAD
	<node lat="59.34452090850426" lon="10.872168410012545" id="-12963">
		<tag k="fixme" v="consider place=hamlet" />
		<tag k="name" v="Strømshaug" />
=======
	<node id="-242936" lat="59.3210583303" lon="10.8783305498">
		<tag k="name" v="Haugen" />
>>>>>>> e1d4bc35ff8a6074a6f2e91616a996b547c36f15
		<tag k="place" v="farm" />
		<tag k="ssr:stedsnr" v="2511" />
	</node>
<<<<<<< HEAD
	<node lat="59.34745682470415" lon="10.865133397602836" id="-12964">
		<tag k="alt_name" v="Råde" />
		<tag k="name" v="Råde stasjon" />
		<tag k="railway" v="station" />
		<tag k="ssr:stedsnr" v="2512" />
		<tag k="train" v="yes" />
	</node>
	<node lat="59.34711944515223" lon="10.96670277951327" id="-12965">
		<tag k="alt_name" v="Isebakktjernet" />
		<tag k="name" v="Isebakktjern" />
		<tag k="natural" v="water" />
		<tag k="ssr:stedsnr" v="2518" />
	</node>
	<node lat="59.30172500186597" lon="10.667327781566163" id="-12966">
		<tag k="name" v="Store Sletter" />
		<tag k="place" v="island" />
		<tag k="ssr:stedsnr" v="2665" />
	</node>
	<node lat="59.29017222153215" lon="10.733486105211819" id="-12967">
		<tag k="name" v="Saltholmhausen" />
		<tag k="natural" v="shoal" />
		<tag k="place" v="locality" />
		<tag k="ssr:stedsnr" v="24788" />
	</node>
	<node lat="59.312257969159546" lon="10.79163027625803" id="-12968">
		<tag k="name" v="Sandvegen" />
=======
	<node id="-242934" lat="59.3452833377" lon="10.9366333414">
		<tag k="name" v="Missingmyr" />
		<tag k="place" v="quarter" />
		<tag k="ssr:stedsnr" v="935075" />
	</node>
	<node id="-242933" lat="59.3473055597" lon="10.9292555641">
		<tag k="name" v="Løkka" />
		<tag k="place" v="farm" />
		<tag k="ssr:stedsnr" v="815373" />
	</node>
	<node id="-242932" lat="59.3327861119" lon="10.8853611125">
		<tag k="name" v="Stene" />
		<tag k="place" v="farm" />
		<tag k="ssr:stedsnr" v="791439" />
	</node>
	<node id="-242931" lat="59.3231583345" lon="10.7627472305">
		<tag k="name" v="Fuglevik" />
		<tag k="place" v="hamlet" />
		<tag k="ssr:stedsnr" v="791426" />
	</node>
	<node id="-242930" lat="59.3173972228" lon="10.9216749976">
		<tag k="name" v="Hovland" />
>>>>>>> e1d4bc35ff8a6074a6f2e91616a996b547c36f15
		<tag k="place" v="farm" />
		<tag k="ssr:stedsnr" v="28840" />
	</node>
<<<<<<< HEAD
	<node lat="59.308591663991436" lon="10.775194446724479" id="-12969">
		<tag k="alt_name" v="Makrelskjæret" />
		<tag k="fixme" v="consider seamark:type=rock or natural=shoal" />
		<tag k="name" v="Makrellskjær" />
=======
	<node id="-242929" lat="59.3833861091" lon="10.8398916624">
		<tag k="name" v="Moskjærene" />
>>>>>>> e1d4bc35ff8a6074a6f2e91616a996b547c36f15
		<tag k="place" v="islet" />
		<tag k="ssr:stedsnr" v="28844" />
	</node>
<<<<<<< HEAD
	<node lat="59.39360000331488" lon="10.81737500692674" id="-12970">
		<tag k="name" v="Skogstangen" />
		<tag k="natural" v="cape" />
		<tag k="ssr:stedsnr" v="56890" />
	</node>
	<node lat="59.31086110980064" lon="10.880913885122403" id="-12971">
		<tag k="name" v="Kongsrød" />
=======
	<node id="-242928" lat="59.3255555544" lon="10.8064472301">
		<tag k="alt_name" v="Hauga;Krokstad" />
		<tag k="name" v="Haga" />
>>>>>>> e1d4bc35ff8a6074a6f2e91616a996b547c36f15
		<tag k="place" v="farm" />
		<tag k="ssr:stedsnr" v="56895" />
	</node>
<<<<<<< HEAD
	<node lat="59.323858332126825" lon="10.803333336057282" id="-12972">
		<tag k="man_made" v="quay" />
		<tag k="name" v="Tomb brygge" />
		<tag k="place" v="locality" />
		<tag k="ssr:stedsnr" v="56545" />
	</node>
	<node lat="59.29534800745136" lon="10.774342873479851" id="-12973">
=======
	<node id="-242927" lat="59.334313887" lon="10.800827781">
		<tag k="alt_name" v="Åker" />
>>>>>>> e1d4bc35ff8a6074a6f2e91616a996b547c36f15
		<tag k="fixme" v="consider place=hamlet" />
		<tag k="name" v="Andersrød" />
		<tag k="place" v="farm" />
		<tag k="ssr:stedsnr" v="56546" />
	</node>
<<<<<<< HEAD
	<node lat="59.30718888588225" lon="10.812288891862869" id="-12974">
		<tag k="name" v="Jerndalen" />
		<tag k="natural" v="valley" />
		<tag k="place" v="locality" />
		<tag k="ssr:stedsnr" v="56550" />
	</node>
	<node lat="59.30653055722574" lon="10.826113884811358" id="-12975">
		<tag k="name" v="Tombdalen" />
		<tag k="natural" v="valley" />
		<tag k="place" v="locality" />
		<tag k="ssr:stedsnr" v="56552" />
	</node>
	<node lat="59.3559805535163" lon="10.877111113505057" id="-12976">
		<tag k="name" v="Halvorsrød" />
=======
	<node id="-242926" lat="59.3194305529" lon="10.8052444435">
		<tag k="alt_name" v="Tom" />
		<tag k="fixme" v="consider place=suburb, village or hamlet" />
		<tag k="name" v="Tomb" />
		<tag k="place" v="quarter" />
		<tag k="ssr:stedsnr" v="913431" />
	</node>
	<node id="-242925" lat="59.317230559" lon="10.7713472253">
		<tag k="name" v="Solsletta" />
		<tag k="place" v="isolated_dwelling" />
		<tag k="ssr:stedsnr" v="913417" />
	</node>
	<node id="-242924" lat="59.3458000001" lon="10.7655555609">
		<tag k="alt_name" v="Viersholm" />
		<tag k="name" v="Viersholmen" />
>>>>>>> e1d4bc35ff8a6074a6f2e91616a996b547c36f15
		<tag k="place" v="farm" />
		<tag k="ssr:stedsnr" v="58300" />
	</node>
<<<<<<< HEAD
	<node lat="59.375397224560814" lon="10.949633335013035" id="-12977">
		<tag k="alt_name" v="Leiedalen nordre" />
		<tag k="name" v="Nordre Leiedalen" />
=======
	<node id="-242923" lat="59.3517053666" lon="10.8354816644">
		<tag k="fixme" v="consider place=hamlet" />
		<tag k="name" v="Elvestad" />
>>>>>>> e1d4bc35ff8a6074a6f2e91616a996b547c36f15
		<tag k="place" v="farm" />
		<tag k="ssr:stedsnr" v="58600" />
	</node>
<<<<<<< HEAD
	<node lat="59.33254732768496" lon="10.873349554090634" id="-12978">
		<tag k="alt_name" v="Auberg" />
		<tag k="name" v="Augeberg" />
=======
	<node id="-242922" lat="59.3431444429" lon="10.8524305496">
		<tag k="alt_name" v="Hafeld" />
		<tag k="name" v="Hafell" />
>>>>>>> e1d4bc35ff8a6074a6f2e91616a996b547c36f15
		<tag k="place" v="farm" />
		<tag k="ssr:stedsnr" v="58856" />
	</node>
<<<<<<< HEAD
	<node lat="59.32217500092219" lon="10.792647218997256" id="-12979">
		<tag k="alt_name" v="Torkelstad" />
		<tag k="name" v="Torkilstad" />
		<tag k="place" v="farm" />
		<tag k="ssr:stedsnr" v="63469" />
	</node>
	<node lat="59.334119446749504" lon="10.889138892381899" id="-12980">
		<tag k="alt_name" v="Salby" />
		<tag k="name" v="Salbu" />
=======
	<node id="-242921" lat="59.3404666627" lon="10.8821277722">
		<tag k="name" v="Lunder" />
		<tag k="place" v="farm" />
		<tag k="ssr:stedsnr" v="912505" />
	</node>
	<node id="-242920" lat="59.3727833374" lon="10.9675777845">
		<tag k="name" v="Bjørnemyr" />
		<tag k="natural" v="wetland" />
		<tag k="ssr:stedsnr" v="907531" />
	</node>
	<node id="-242919" lat="59.3723583341" lon="10.915927774">
		<tag k="name" v="Borgebunn" />
		<tag k="natural" v="bay" />
		<tag k="ssr:stedsnr" v="907228" />
	</node>
	<node id="-242918" lat="59.3058972236" lon="10.7543916717">
		<tag k="fixme" v="consider seamark:type=rock or natural=shoal" />
		<tag k="name" v="Guleskjær" />
		<tag k="place" v="islet" />
		<tag k="ssr:stedsnr" v="907185" />
	</node>
	<node id="-242917" lat="59.321869443" lon="10.7833861152">
		<tag k="name" v="Lårbu" />
>>>>>>> e1d4bc35ff8a6074a6f2e91616a996b547c36f15
		<tag k="place" v="farm" />
		<tag k="ssr:stedsnr" v="63490" />
	</node>
<<<<<<< HEAD
	<node lat="59.33375833661577" lon="10.811663893512963" id="-12981">
		<tag k="alt_name" v="Hauga" />
		<tag k="name" v="Haga" />
		<tag k="place" v="farm" />
		<tag k="ssr:stedsnr" v="63494" />
	</node>
	<node lat="59.34655789545245" lon="10.809811499675765" id="-12982">
		<tag k="name" v="Huseby" />
		<tag k="place" v="hamlet" />
		<tag k="ssr:stedsnr" v="63508" />
	</node>
	<node lat="59.34888141658268" lon="10.863731970271978" id="-12983">
		<tag k="fixme" v="consider place=hamlet" />
		<tag k="name" v="Skråtorp" />
		<tag k="place" v="farm" />
		<tag k="ssr:stedsnr" v="63509" />
	</node>
	<node lat="59.31014999713079" lon="10.88098056280454" id="-12984">
		<tag k="name" v="Kongsveien" />
		<tag k="place" v="farm" />
		<tag k="ssr:stedsnr" v="63455" />
	</node>
	<node lat="59.362775002616544" lon="10.956152775021364" id="-12985">
		<tag k="name" v="Kleiva" />
=======
	<node id="-242916" lat="59.3455749967" lon="10.7794249912">
		<tag k="name" v="Heiasvingen" />
		<tag k="place" v="locality" />
		<tag k="ssr:stedsnr" v="906889" />
	</node>
	<node id="-242915" lat="59.3832611098" lon="10.8239000028">
		<tag k="name" v="Sponbukt" />
		<tag k="natural" v="bay" />
		<tag k="ssr:stedsnr" v="906886" />
	</node>
	<node id="-242914" lat="59.3038749986" lon="10.7724166583">
		<tag k="name" v="Agnes" />
		<tag k="place" v="farm" />
		<tag k="ssr:stedsnr" v="725191" />
	</node>
	<node id="-242913" lat="59.3596166712" lon="10.8407361076">
		<tag k="bridge" v="yes" />
		<tag k="layer" v="1" />
		<tag k="name" v="Jonsten rampe" />
		<tag k="ssr:stedsnr" v="896543" />
	</node>
	<node id="-242912" lat="59.3587388904" lon="10.8399638959">
		<tag k="bridge" v="yes" />
		<tag k="layer" v="1" />
		<tag k="name" v="Jonsten" />
		<tag k="ssr:stedsnr" v="896540" />
	</node>
	<node id="-242911" lat="59.3483416667" lon="10.8835333419">
		<tag k="name" v="Roe" />
>>>>>>> e1d4bc35ff8a6074a6f2e91616a996b547c36f15
		<tag k="place" v="farm" />
		<tag k="ssr:stedsnr" v="63296" />
	</node>
<<<<<<< HEAD
	<node lat="59.34860833665989" lon="10.89509443911296" id="-12986">
		<tag k="name" v="Kirkebø" />
		<tag k="place" v="farm" />
		<tag k="ssr:stedsnr" v="63525" />
	</node>
	<node lat="59.347603840515845" lon="10.90528373957965" id="-12987">
		<tag k="name" v="Lundeby" />
		<tag k="place" v="hamlet" />
		<tag k="ssr:stedsnr" v="63526" />
	</node>
	<node lat="59.28028610838099" lon="10.677038884981194" id="-12988">
		<tag k="name" v="Søndre Sletter" />
		<tag k="place" v="islet" />
		<tag k="ssr:stedsnr" v="64638" />
	</node>
	<node lat="59.353766668254124" lon="10.879875004820049" id="-12989">
		<tag k="bridge" v="yes" />
		<tag k="layer" v="1" />
		<tag k="name" v="Karlshusbunn" />
		<tag k="ssr:stedsnr" v="107523" />
	</node>
	<node lat="59.340630555281145" lon="10.96355277404996" id="-12990">
=======
	<node id="-242910" lat="59.346461112" lon="10.8703055521">
		<tag k="bridge" v="yes" />
		<tag k="layer" v="1" />
		<tag k="name" v="Strømshaug" />
		<tag k="ssr:stedsnr" v="713443" />
	</node>
	<node id="-242909" lat="59.3397916675" lon="10.9320500031">
		<tag k="bridge" v="yes" />
		<tag k="layer" v="1" />
		<tag k="name" v="Åkeberg" />
		<tag k="ssr:stedsnr" v="713441" />
	</node>
	<node id="-242908" lat="59.3063472264" lon="10.7378416742">
		<tag k="fixme" v="consider seamark:type=rock or natural=shoal" />
		<tag k="name" v="Raskjæret" />
		<tag k="place" v="islet" />
		<tag k="ssr:stedsnr" v="695768" />
	</node>
	<node id="-242907" lat="59.3054666675" lon="10.8105249976">
		<tag k="name" v="Solbakken" />
		<tag k="place" v="farm" />
		<tag k="ssr:stedsnr" v="669428" />
	</node>
	<node id="-242906" lat="59.30762778" lon="10.8667666691">
		<tag k="alt_name" v="Kil midtre;Kil mellem" />
		<tag k="name" v="Midtre Kil" />
		<tag k="place" v="farm" />
		<tag k="ssr:stedsnr" v="669425" />
	</node>
	<node id="-242905" lat="59.3550491544" lon="10.9356279974">
>>>>>>> e1d4bc35ff8a6074a6f2e91616a996b547c36f15
		<tag k="fixme" v="consider natural=peak for the most distinct mountains in the district" />
		<tag k="name" v="Gullikås" />
		<tag k="natural" v="hill" />
		<tag k="place" v="locality" />
<<<<<<< HEAD
		<tag k="ssr:stedsnr" v="113361" />
	</node>
	<node lat="59.29799444885356" lon="10.784824994708947" id="-12991">
		<tag k="name" v="Andersrød" />
=======
		<tag k="ssr:stedsnr" v="664227" />
	</node>
	<node id="-242904" lat="59.3660472232" lon="10.8515527861">
		<tag k="name" v="Lundsholmen" />
		<tag k="place" v="islet" />
		<tag k="ssr:stedsnr" v="664224" />
	</node>
	<node id="-242903" lat="59.3504694439" lon="10.7932944529">
		<tag k="name" v="Røstad" />
>>>>>>> e1d4bc35ff8a6074a6f2e91616a996b547c36f15
		<tag k="place" v="farm" />
		<tag k="ssr:stedsnr" v="117546" />
	</node>
<<<<<<< HEAD
	<node lat="59.31334999752868" lon="10.911166657991066" id="-12992">
		<tag k="alt_name" v="Reklingsholm østre" />
		<tag k="name" v="Østre Reklingsholm" />
		<tag k="place" v="farm" />
		<tag k="ssr:stedsnr" v="117888" />
	</node>
	<node lat="59.31746111081925" lon="10.917916659406476" id="-12993">
		<tag k="name" v="Elverhøy" />
=======
	<node id="-242902" lat="59.3435416637" lon="10.799980561">
		<tag k="alt_name" v="Norum nordre" />
		<tag k="name" v="Nordre Norum" />
		<tag k="place" v="farm" />
		<tag k="ssr:stedsnr" v="663916" />
	</node>
	<node id="-242901" lat="59.3171333368" lon="10.729241674">
		<tag k="name" v="Husholmen" />
		<tag k="place" v="islet" />
		<tag k="ssr:stedsnr" v="877879" />
	</node>
	<node id="-242900" lat="59.3726805581" lon="10.8282250058">
		<tag k="name" v="Engene" />
>>>>>>> e1d4bc35ff8a6074a6f2e91616a996b547c36f15
		<tag k="place" v="farm" />
		<tag k="ssr:stedsnr" v="118750" />
	</node>
<<<<<<< HEAD
	<node lat="59.33915833257617" lon="10.853711103955357" id="-12994">
		<tag k="fixme" v="consider natural=peak for the most distinct mountains in the district" />
		<tag k="name" v="Strømnesfjellet" />
		<tag k="natural" v="hill" />
		<tag k="place" v="locality" />
		<tag k="ssr:stedsnr" v="118353" />
	</node>
	<node lat="59.34819167100981" lon="10.895236105509982" id="-12995">
		<tag k="name" v="Kirkebø" />
=======
	<node id="-242899" lat="59.3680194459" lon="10.9238666607">
		<tag k="alt_name" v="Knappervika" />
		<tag k="name" v="Knapperviken" />
		<tag k="place" v="farm" />
		<tag k="ssr:stedsnr" v="731215" />
	</node>
	<node id="-242898" lat="59.3242111132" lon="10.8726694433">
		<tag k="alt_name" v="Berg;Berg østre" />
		<tag k="name" v="Østre Berg" />
>>>>>>> e1d4bc35ff8a6074a6f2e91616a996b547c36f15
		<tag k="place" v="farm" />
		<tag k="ssr:stedsnr" v="118363" />
	</node>
<<<<<<< HEAD
	<node lat="59.34975833058139" lon="10.86382221685664" id="-12996">
		<tag k="name" v="Skråtorp" />
		<tag k="place" v="farm" />
		<tag k="ssr:stedsnr" v="118364" />
	</node>
	<node lat="59.31746388953901" lon="10.880786109736336" id="-12997">
		<tag k="name" v="Revjehaugen" />
		<tag k="natural" v="hill" />
		<tag k="place" v="locality" />
		<tag k="ssr:stedsnr" v="118817" />
	</node>
	<node lat="59.31429167028531" lon="10.866572222675359" id="-12998">
		<tag k="name" v="Hissingby" />
=======
	<node id="-242897" lat="59.3489333307" lon="10.9273416657">
		<tag k="alt_name" v="Branndalen" />
		<tag k="name" v="Branddalen" />
		<tag k="place" v="farm" />
		<tag k="ssr:stedsnr" v="730527" />
	</node>
	<node id="-242896" lat="59.3880083331" lon="10.9000083323">
		<tag k="name" v="Henestangen" />
		<tag k="natural" v="cape" />
		<tag k="ssr:stedsnr" v="730301" />
	</node>
	<node id="-242895" lat="59.3405805534" lon="10.9399000012">
		<tag k="name" v="Åkebergrød" />
		<tag k="place" v="farm" />
		<tag k="ssr:stedsnr" v="730506" />
	</node>
	<node id="-242894" lat="59.3386416662" lon="10.9119027841">
		<tag k="name" v="Hauger" />
>>>>>>> e1d4bc35ff8a6074a6f2e91616a996b547c36f15
		<tag k="place" v="farm" />
		<tag k="ssr:stedsnr" v="118859" />
	</node>
<<<<<<< HEAD
	<node lat="59.35170172605348" lon="10.871105134541354" id="-12999">
		<tag k="amenity" v="townhall" />
		<tag k="name" v="Råde rådhus" />
		<tag k="ssr:stedsnr" v="118933" />
	</node>
	<node lat="59.317893155633335" lon="10.738438337323222" id="-13000">
=======
	<node id="-242893" lat="59.3357722207" lon="10.7913777848">
		<tag k="name" v="Meum" />
		<tag k="place" v="farm" />
		<tag k="ssr:stedsnr" v="730498" />
	</node>
	<node id="-242892" lat="59.3320374338" lon="10.8738196191">
>>>>>>> e1d4bc35ff8a6074a6f2e91616a996b547c36f15
		<tag k="fixme" v="consider place=hamlet" />
		<tag k="name" v="Åven" />
		<tag k="place" v="farm" />
<<<<<<< HEAD
		<tag k="ssr:stedsnr" v="123498" />
	</node>
	<node lat="59.32635833271713" lon="10.732949995146" id="-13001">
		<tag k="name" v="Knappholmene" />
=======
		<tag k="ssr:stedsnr" v="730486" />
	</node>
	<node id="-242891" lat="59.313347219" lon="10.7297694446">
		<tag k="alt_name" v="Kokholmsundet" />
		<tag k="name" v="Kokholmsund" />
		<tag k="natural" v="strait" />
		<tag k="ssr:stedsnr" v="634892" />
	</node>
	<node id="-242890" lat="59.3045388856" lon="10.7320527794">
		<tag k="fixme" v="consider seamark:type=rock or natural=shoal" />
		<tag k="name" v="Stongeskjær" />
>>>>>>> e1d4bc35ff8a6074a6f2e91616a996b547c36f15
		<tag k="place" v="islet" />
		<tag k="ssr:stedsnr" v="123501" />
	</node>
<<<<<<< HEAD
	<node lat="59.3468197748315" lon="10.891031751057335" id="-13002">
		<tag k="fixme" v="consider place=hamlet" />
		<tag k="name" v="Kåpegot" />
		<tag k="place" v="farm" />
		<tag k="ssr:stedsnr" v="123547" />
	</node>
	<node lat="59.362187702007624" lon="10.900285716932489" id="-13003">
		<tag k="name" v="Bjørnebekk" />
		<tag k="place" v="farm" />
		<tag k="ssr:stedsnr" v="124217" />
	</node>
	<node lat="59.37511944666422" lon="10.964544435829772" id="-13004">
		<tag k="name" v="Gullhaug" />
		<tag k="place" v="farm" />
		<tag k="ssr:stedsnr" v="124227" />
	</node>
	<node lat="59.30696111492439" lon="10.729674994413498" id="-13005">
		<tag k="name" v="Storesand" />
=======
	<node id="-242889" lat="59.3160055581" lon="10.7839055474">
		<tag k="fixme" v="consider boundary=protected_area and relevant protect_class if not nature reserve" />
		<tag k="leisure" v="nature_reserve" />
		<tag k="name" v="Kråkstadfjorden naturreservat" />
		<tag k="ssr:stedsnr" v="299558" />
	</node>
	<node id="-242888" lat="59.295658329" lon="10.6640444424">
		<tag k="fixme" v="consider boundary=protected_area and relevant protect_class if not nature reserve" />
		<tag k="leisure" v="nature_reserve" />
		<tag k="name" v="Vesle Sletter naturreservat" />
		<tag k="ssr:stedsnr" v="299557" />
	</node>
	<node id="-242887" lat="59.3353472251" lon="10.9390388933">
		<tag k="name" v="Gyllerås" />
>>>>>>> e1d4bc35ff8a6074a6f2e91616a996b547c36f15
		<tag k="place" v="isolated_dwelling" />
		<tag k="ssr:stedsnr" v="124357" />
	</node>
<<<<<<< HEAD
	<node lat="59.32076667051544" lon="10.9320749975092" id="-13006">
		<tag k="alt_name" v="Sølvland" />
		<tag k="name" v="Søland" />
=======
	<node id="-242886" lat="59.3361138871" lon="10.9359166602">
		<tag k="name" v="Åkeberg" />
>>>>>>> e1d4bc35ff8a6074a6f2e91616a996b547c36f15
		<tag k="place" v="farm" />
		<tag k="ssr:stedsnr" v="124364" />
	</node>
<<<<<<< HEAD
	<node lat="59.37071666403597" lon="10.816502768846883" id="-13008">
		<tag k="fixme" v="verify maritime location" />
		<tag k="mooring" v="yes" />
		<tag k="name" v="Grimstadstøa" />
		<tag k="place" v="locality" />
		<tag k="ssr:stedsnr" v="177886" />
	</node>
	<node lat="59.36698055313356" lon="10.804108339339777" id="-13009">
		<tag k="name" v="Nygård" />
=======
	<node id="-242885" lat="59.3204333339" lon="10.9131111165">
		<tag k="alt_name" v="Tofteberg østre" />
		<tag k="name" v="Østre Tofteberg" />
>>>>>>> e1d4bc35ff8a6074a6f2e91616a996b547c36f15
		<tag k="place" v="farm" />
		<tag k="ssr:stedsnr" v="177888" />
	</node>
<<<<<<< HEAD
	<node lat="59.36835833532011" lon="10.796069451985947" id="-13010">
		<tag k="name" v="Granum" />
		<tag k="place" v="farm" />
		<tag k="ssr:stedsnr" v="178864" />
	</node>
	<node lat="59.36882322638649" lon="10.79309504747658" id="-13011">
		<tag k="fixme" v="consider place=hamlet" />
		<tag k="name" v="Askerød" />
		<tag k="place" v="farm" />
		<tag k="ssr:stedsnr" v="178865" />
	</node>
	<node lat="59.353694442103716" lon="10.881788885683381" id="-13012">
=======
	<node id="-242884" lat="59.3508833352" lon="10.9003305572">
		<tag k="name" v="Nordby" />
		<tag k="place" v="isolated_dwelling" />
		<tag k="ssr:stedsnr" v="725346" />
	</node>
	<node id="-242883" lat="59.3359416666" lon="10.8783277707">
		<tag k="alt_name" v="Auberghølen" />
		<tag k="name" v="Augeberghølen" />
		<tag k="natural" v="water" />
		<tag k="ssr:stedsnr" v="725343" />
	</node>
	<node id="-242882" lat="59.363172223" lon="10.8854611071">
>>>>>>> e1d4bc35ff8a6074a6f2e91616a996b547c36f15
		<tag k="name" v="Karlshusbunn" />
		<tag k="place" v="farm" />
		<tag k="ssr:stedsnr" v="179272" />
	</node>
<<<<<<< HEAD
	<node lat="59.305002778421645" lon="10.835605555992899" id="-13013">
		<tag k="name" v="Hasledalen" />
		<tag k="natural" v="valley" />
		<tag k="place" v="locality" />
		<tag k="ssr:stedsnr" v="179828" />
	</node>
	<node lat="59.368055552515145" lon="10.804655562333084" id="-13014">
		<tag k="name" v="Ramyr" />
=======
	<node id="-242881" lat="59.2999694419" lon="10.9157555545">
		<tag k="name" v="Bjørndalen" />
		<tag k="natural" v="valley" />
		<tag k="place" v="locality" />
		<tag k="ssr:stedsnr" v="724943" />
	</node>
	<node id="-242880" lat="59.3853583327" lon="10.8099972275">
		<tag k="fixme" v="consider natural=peak for the most distinct mountains in the district" />
		<tag k="name" v="Fugleleiken" />
		<tag k="natural" v="hill" />
		<tag k="place" v="locality" />
		<tag k="ssr:stedsnr" v="724902" />
	</node>
	<node id="-242879" lat="59.3621444425" lon="10.7856055597">
		<tag k="name" v="Sandakerhuset" />
>>>>>>> e1d4bc35ff8a6074a6f2e91616a996b547c36f15
		<tag k="place" v="farm" />
		<tag k="ssr:stedsnr" v="184261" />
	</node>
<<<<<<< HEAD
	<node lat="59.30740555950311" lon="10.76724167547583" id="-13015">
		<tag k="name" v="Krokstadfjorden" />
		<tag k="natural" v="bay" />
		<tag k="ssr:stedsnr" v="184424" />
	</node>
	<node lat="59.325789890077" lon="10.874337799459003" id="-13016">
		<tag k="name" v="Musangen" />
		<tag k="place" v="hamlet" />
		<tag k="ssr:stedsnr" v="184479" />
	</node>
	<node lat="59.29172777534461" lon="10.69462500105556" id="-13017">
		<tag k="name" v="Åletitten" />
		<tag k="natural" v="shoal" />
=======
	<node id="-242878" lat="59.2922305536" lon="10.9191472149">
		<tag k="alt_name" v="Kjelshus" />
		<tag k="name" v="Kjelshuset" />
		<tag k="place" v="isolated_dwelling" />
		<tag k="ssr:stedsnr" v="609386" />
	</node>
	<node id="-242877" lat="59.3167742584" lon="10.7663025337">
		<tag k="fixme" v="consider place=hamlet" />
		<tag k="name" v="Røstad" />
		<tag k="place" v="farm" />
		<tag k="ssr:stedsnr" v="609419" />
	</node>
	<node id="-242876" lat="59.2977916687" lon="10.8323361125">
		<tag k="fixme" v="consider natural=peak for the most distinct mountains in the district" />
		<tag k="name" v="Rørfjell" />
		<tag k="natural" v="hill" />
>>>>>>> e1d4bc35ff8a6074a6f2e91616a996b547c36f15
		<tag k="place" v="locality" />
		<tag k="ssr:stedsnr" v="184658" />
	</node>
<<<<<<< HEAD
	<node lat="59.362175932568526" lon="10.811665867285392" id="-13018">
		<tag k="name" v="Grimstad" />
		<tag k="place" v="hamlet" />
		<tag k="ssr:stedsnr" v="185249" />
	</node>
	<node lat="59.36618333746443" lon="10.966719452486094" id="-13019">
		<tag k="alt_name" v="Fensbekk" />
		<tag k="name" v="Finnsbekk" />
		<tag k="place" v="farm" />
		<tag k="ssr:stedsnr" v="185259" />
	</node>
	<node lat="59.31441439183827" lon="10.740004001851304" id="-13020">
		<tag k="name" v="Grindholmen" />
		<tag k="place" v="island" />
		<tag k="ssr:stedsnr" v="210791" />
	</node>
	<node lat="59.355186108592044" lon="10.870422215141565" id="-13021">
=======
	<node id="-242875" lat="59.3533638901" lon="10.9201833392">
		<tag k="name" v="Hukeberg" />
		<tag k="place" v="farm" />
		<tag k="ssr:stedsnr" v="608236" />
	</node>
	<node id="-242874" lat="59.3157472228" lon="10.8564777772">
		<tag k="name" v="Hissingbydalen" />
		<tag k="place" v="locality" />
		<tag k="ssr:stedsnr" v="603815" />
	</node>
	<node id="-242873" lat="59.3728666642" lon="10.9397888926">
		<tag k="name" v="Kloppermyra" />
		<tag k="natural" v="wetland" />
		<tag k="ssr:stedsnr" v="603569" />
	</node>
	<node id="-242872" lat="59.3660999994" lon="10.9661861127">
>>>>>>> e1d4bc35ff8a6074a6f2e91616a996b547c36f15
		<tag k="bridge" v="yes" />
		<tag k="layer" v="1" />
		<tag k="name" v="Karlshus" />
		<tag k="ssr:stedsnr" v="228566" />
	</node>
<<<<<<< HEAD
	<node lat="59.34846667592737" lon="10.884678774954043" id="-13022">
		<tag k="name" v="Roe" />
		<tag k="place" v="hamlet" />
		<tag k="ssr:stedsnr" v="289401" />
	</node>
	<node lat="59.316005558068994" lon="10.78390554736627" id="-13023">
		<tag k="fixme" v="consider boundary=protected_area and relevant protect_class if not nature reserve" />
		<tag k="leisure" v="nature_reserve" />
		<tag k="name" v="Kråkstadfjorden naturreservat" />
		<tag k="ssr:stedsnr" v="299558" />
	</node>
	<node lat="59.31412777532628" lon="10.797669439708612" id="-13024">
=======
	<node id="-242871" lat="59.3051722243" lon="10.7853944402">
		<tag k="name" v="Andersrød" />
		<tag k="place" v="farm" />
		<tag k="ssr:stedsnr" v="299545" />
	</node>
	<node id="-242870" lat="59.3141277753" lon="10.7976694397">
>>>>>>> e1d4bc35ff8a6074a6f2e91616a996b547c36f15
		<tag k="name" v="Hestevoll" />
		<tag k="place" v="farm" />
		<tag k="ssr:stedsnr" v="299535" />
	</node>
<<<<<<< HEAD
	<node lat="59.305172224317886" lon="10.785394440208021" id="-13025">
		<tag k="name" v="Andersrød" />
=======
	<node id="-242869" lat="59.3061972262" lon="10.7280777698">
		<tag k="name" v="Storesand" />
		<tag k="natural" v="beach" />
		<tag k="place" v="locality" />
		<tag k="ssr:stedsnr" v="541569" />
	</node>
	<node id="-242868" lat="59.3161138857" lon="10.7661638849">
		<tag k="alt_name" v="Røstad store" />
		<tag k="name" v="Store Røstad" />
>>>>>>> e1d4bc35ff8a6074a6f2e91616a996b547c36f15
		<tag k="place" v="farm" />
		<tag k="ssr:stedsnr" v="299545" />
	</node>
<<<<<<< HEAD
	<node lat="59.29565832895216" lon="10.664044442428004" id="-13026">
		<tag k="fixme" v="consider boundary=protected_area and relevant protect_class if not nature reserve" />
		<tag k="leisure" v="nature_reserve" />
		<tag k="name" v="Vesle Sletter naturreservat" />
		<tag k="ssr:stedsnr" v="299557" />
	</node>
	<node lat="59.32536944499466" lon="10.756644442352249" id="-13027">
		<tag k="fixme" v="consider natural=peak for the most distinct mountains in the district" />
		<tag k="name" v="Vestre Åsen" />
		<tag k="natural" v="hill" />
		<tag k="place" v="locality" />
		<tag k="ssr:stedsnr" v="299955" />
	</node>
	<node lat="59.36328610714978" lon="10.871972217738422" id="-13028">
		<tag k="alt_name" v="Starengen" />
		<tag k="name" v="Starenga" />
=======
	<node id="-242867" lat="59.3404779352" lon="10.8949409379">
		<tag k="name" v="Rød" />
>>>>>>> e1d4bc35ff8a6074a6f2e91616a996b547c36f15
		<tag k="place" v="farm" />
		<tag k="ssr:stedsnr" v="306245" />
	</node>
<<<<<<< HEAD
	<node lat="59.30508889154204" lon="10.723436103876463" id="-13029">
		<tag k="name" v="Åventangen" />
		<tag k="place" v="isolated_dwelling" />
		<tag k="ssr:stedsnr" v="306400" />
	</node>
	<node lat="59.328269381345095" lon="10.756935490559561" id="-13030">
=======
	<node id="-242866" lat="59.3073750032" lon="10.7527472281">
		<tag k="alt_name" v="Vrangbein" />
		<tag k="name" v="Vrangben" />
		<tag k="place" v="islet" />
		<tag k="ssr:stedsnr" v="487442" />
	</node>
	<node id="-242865" lat="59.3461527781" lon="10.8426083421">
>>>>>>> e1d4bc35ff8a6074a6f2e91616a996b547c36f15
		<tag k="fixme" v="consider place=hamlet" />
		<tag k="name" v="Helgerød" />
		<tag k="place" v="farm" />
		<tag k="ssr:stedsnr" v="306433" />
	</node>
<<<<<<< HEAD
	<node lat="59.33336724797734" lon="10.7755668301959" id="-13031">
		<tag k="fixme" v="consider place=hamlet" />
		<tag k="name" v="Holer" />
		<tag k="place" v="farm" />
		<tag k="ssr:stedsnr" v="306434" />
	</node>
	<node lat="59.330142993583614" lon="10.82224811564503" id="-13032">
=======
	<node id="-242864" lat="59.327297222" lon="10.8388277742">
		<tag k="name" v="Nøysom" />
		<tag k="place" v="farm" />
		<tag k="ssr:stedsnr" v="670444" />
	</node>
	<node id="-242863" lat="59.3131773188" lon="10.909406553">
		<tag k="name" v="Reklingsholm" />
		<tag k="place" v="hamlet" />
		<tag k="ssr:stedsnr" v="670425" />
	</node>
	<node id="-242862" lat="59.3159333367" lon="10.7952111163">
>>>>>>> e1d4bc35ff8a6074a6f2e91616a996b547c36f15
		<tag k="fixme" v="consider place=hamlet" />
		<tag k="name" v="Sønsterød" />
		<tag k="place" v="farm" />
		<tag k="ssr:stedsnr" v="306440" />
	</node>
<<<<<<< HEAD
	<node lat="59.321511113813294" lon="10.800716659028073" id="-13033">
		<tag k="name" v="Bua" />
		<tag k="place" v="farm" />
		<tag k="ssr:stedsnr" v="331815" />
	</node>
	<node lat="59.29121111274525" lon="10.71421388199044" id="-13034">
		<tag k="bay" v="fjord" />
		<tag k="name" v="Krokstadleira" />
=======
	<node id="-242861" lat="59.3144361075" lon="10.7511583262">
		<tag k="alt_name" v="Åvensund" />
		<tag k="name" v="Åvensundet" />
>>>>>>> e1d4bc35ff8a6074a6f2e91616a996b547c36f15
		<tag k="natural" v="bay" />
		<tag k="ssr:stedsnr" v="331883" />
	</node>
<<<<<<< HEAD
	<node lat="59.324516668556825" lon="10.812963891563308" id="-13035">
		<tag k="name" v="Verkens lund" />
		<tag k="place" v="locality" />
		<tag k="ssr:stedsnr" v="359536" />
	</node>
	<node lat="59.306236111335004" lon="10.899455556372178" id="-13036">
		<tag k="fixme" v="consider natural=peak for the most distinct mountains in the district" />
		<tag k="name" v="Ravneberget" />
		<tag k="natural" v="hill" />
		<tag k="place" v="locality" />
		<tag k="ssr:stedsnr" v="359885" />
	</node>
	<node lat="59.389394447791254" lon="10.816269447103082" id="-13037">
		<tag k="name" v="Brandenborg" />
		<tag k="place" v="locality" />
		<tag k="ssr:stedsnr" v="359886" />
	</node>
	<node lat="59.35940278105867" lon="10.82661388778632" id="-13038">
		<tag k="alt_name" v="Haug øvre" />
		<tag k="name" v="Øvre Haug" />
=======
	<node id="-242860" lat="59.3496611091" lon="10.8876249951">
		<tag k="name" v="Raet" />
		<tag k="place" v="farm" />
		<tag k="ssr:stedsnr" v="669514" />
	</node>
	<node id="-242859" lat="59.3383555556" lon="10.8406222222">
		<tag k="alt_name" v="Årneberg" />
		<tag k="name" v="Arneberg" />
		<tag k="place" v="farm" />
		<tag k="ssr:stedsnr" v="669497" />
	</node>
	<node id="-242858" lat="59.2940499961" lon="10.7925833353">
		<tag k="name" v="Røtne" />
		<tag k="place" v="farm" />
		<tag k="ssr:stedsnr" v="669389" />
	</node>
	<node id="-242857" lat="59.3592027748" lon="10.8521472213">
		<tag k="name" v="Ringstad" />
>>>>>>> e1d4bc35ff8a6074a6f2e91616a996b547c36f15
		<tag k="place" v="farm" />
		<tag k="ssr:stedsnr" v="359923" />
	</node>
<<<<<<< HEAD
	<node lat="59.36034593640546" lon="10.819519767998523" id="-13039">
		<tag k="alt_name" v="Haugesten nedre;Nedre Haugesten" />
		<tag k="fixme" v="consider place=hamlet" />
		<tag k="name" v="Nedre Haugsten" />
=======
	<node id="-242856" lat="59.375969448" lon="10.9018027865">
		<tag k="name" v="Kilen" />
>>>>>>> e1d4bc35ff8a6074a6f2e91616a996b547c36f15
		<tag k="place" v="farm" />
		<tag k="ssr:stedsnr" v="359926" />
	</node>
<<<<<<< HEAD
	<node lat="59.37904166315536" lon="10.837861109605802" id="-13040">
		<tag k="fixme" v="consider boundary=protected_area and relevant protect_class if not nature reserve" />
		<tag k="leisure" v="nature_reserve" />
		<tag k="name" v="Moskjæra naturreservat" />
		<tag k="ssr:stedsnr" v="361287" />
	</node>
	<node lat="59.33349444689146" lon="10.930794452631867" id="-13041">
		<tag k="alt_name" v="Åkeberg østre" />
		<tag k="name" v="Østre Åkeberg" />
=======
	<node id="-242855" lat="59.3650805595" lon="10.9552527773">
		<tag k="alt_name" v="Harehaugen" />
		<tag k="name" v="Harahaugen" />
>>>>>>> e1d4bc35ff8a6074a6f2e91616a996b547c36f15
		<tag k="place" v="farm" />
		<tag k="ssr:stedsnr" v="361788" />
	</node>
<<<<<<< HEAD
	<node lat="59.331180557450104" lon="10.8714555472586" id="-13042">
		<tag k="alt_name" v="Auberg søndre;Augeberg søndre" />
		<tag k="name" v="Søndre Augeberg" />
=======
	<node id="-242854" lat="59.3203999963" lon="10.8150083261">
		<tag k="fixme" v="consider place=hamlet" />
		<tag k="name" v="Tom" />
>>>>>>> e1d4bc35ff8a6074a6f2e91616a996b547c36f15
		<tag k="place" v="farm" />
		<tag k="ssr:stedsnr" v="361864" />
	</node>
<<<<<<< HEAD
	<node lat="59.214972223183594" lon="10.636341670814504" id="-13043">
		<tag k="bay" v="fjord" />
		<tag k="name" v="Oslofjorden" />
		<tag k="natural" v="bay" />
		<tag k="ssr:stedsnr" v="365030" />
	</node>
	<node lat="59.35169999695583" lon="10.927652778275354" id="-13044">
		<tag k="alt_name" v="Skaugen" />
		<tag k="name" v="Skogen" />
=======
	<node id="-242853" lat="59.3714195561" lon="10.8954222883">
		<tag k="name" v="Heneskilen" />
		<tag k="natural" v="bay" />
		<tag k="ssr:stedsnr" v="664561" />
	</node>
	<node id="-242852" lat="59.4012055537" lon="10.8784861118">
		<tag k="name" v="Slottsholmen" />
		<tag k="place" v="islet" />
		<tag k="ssr:stedsnr" v="664551" />
	</node>
	<node id="-242851" lat="59.370072224" lon="10.9560861062">
		<tag k="name" v="Slangsvoll" />
>>>>>>> e1d4bc35ff8a6074a6f2e91616a996b547c36f15
		<tag k="place" v="farm" />
		<tag k="ssr:stedsnr" v="366245" />
	</node>
<<<<<<< HEAD
	<node lat="59.35733055447486" lon="10.88073888078505" id="-13045">
		<tag k="building" v="industrial" />
		<tag k="industrial" v="factory" />
		<tag k="name" v="Karlshus bruk" />
		<tag k="ssr:stedsnr" v="366251" />
	</node>
	<node lat="59.3550008820375" lon="10.815193630428238" id="-13046">
		<tag k="fixme" v="consider place=hamlet" />
		<tag k="name" v="Haug" />
		<tag k="place" v="farm" />
		<tag k="ssr:stedsnr" v="366261" />
	</node>
	<node lat="59.36896730606999" lon="10.857677855688985" id="-13047">
		<tag k="name" v="Langøya" />
		<tag k="place" v="island" />
		<tag k="ssr:stedsnr" v="366266" />
	</node>
	<node lat="59.36912453399907" lon="10.8302135815721" id="-13048">
		<tag k="name" v="Haugstenstøa" />
=======
	<node id="-242850" lat="59.3015944435" lon="10.8428861031">
		<tag k="name" v="Dammyr" />
		<tag k="natural" v="wetland" />
		<tag k="ssr:stedsnr" v="663902" />
	</node>
	<node id="-242849" lat="59.3781805535" lon="10.8217611177">
		<tag k="name" v="Lilledøvik" />
		<tag k="natural" v="bay" />
		<tag k="ssr:stedsnr" v="663892" />
	</node>
	<node id="-242848" lat="59.3684249962" lon="10.799663893">
		<tag k="name" v="Løkenbråten" />
>>>>>>> e1d4bc35ff8a6074a6f2e91616a996b547c36f15
		<tag k="place" v="farm" />
		<tag k="ssr:stedsnr" v="366267" />
	</node>
	<node lat="59.32652401344127" lon="10.937722689419841" id="-13049">
		<tag k="name" v="Jørsø" />
		<tag k="place" v="hamlet" />
		<tag k="ssr:stedsnr" v="366452" />
	</node>
<<<<<<< HEAD
	<node lat="59.32333319761434" lon="10.831919353209413" id="-13050">
=======
	<node id="-242847" lat="59.3079444476" lon="10.7790749945">
>>>>>>> e1d4bc35ff8a6074a6f2e91616a996b547c36f15
		<tag k="fixme" v="consider place=hamlet" />
		<tag k="name" v="Rød" />
		<tag k="place" v="farm" />
		<tag k="ssr:stedsnr" v="366455" />
	</node>
<<<<<<< HEAD
	<node lat="59.321952778094264" lon="10.80996111149243" id="-13051">
		<tag k="amenity" v="place_of_worship" />
		<tag k="denomination" v="lutheran" />
		<tag k="name" v="Tomb kirke" />
		<tag k="religion" v="christian" />
		<tag k="ssr:stedsnr" v="366462" />
	</node>
	<node lat="59.331400549903464" lon="10.842101181221553" id="-13052">
		<tag k="fixme" v="consider place=hamlet" />
		<tag k="name" v="Myre" />
=======
	<node id="-242846" lat="59.3349277816" lon="10.8063638936">
		<tag k="name" v="Haga" />
		<tag k="place" v="isolated_dwelling" />
		<tag k="ssr:stedsnr" v="663493" />
	</node>
	<node id="-242845" lat="59.3122777736" lon="10.7971611104">
		<tag k="name" v="Skogly" />
>>>>>>> e1d4bc35ff8a6074a6f2e91616a996b547c36f15
		<tag k="place" v="farm" />
		<tag k="ssr:stedsnr" v="366477" />
	</node>
<<<<<<< HEAD
	<node lat="59.304630555183046" lon="10.820002770193183" id="-13053">
		<tag k="alt_name" v="Jerndalen" />
		<tag k="name" v="Jerndal" />
=======
	<node id="-242844" lat="59.3474916704" lon="10.9209638872">
		<tag k="alt_name" v="Bråten" />
		<tag k="name" v="Borgebråten" />
		<tag k="old_name" v="Braaten" />
>>>>>>> e1d4bc35ff8a6074a6f2e91616a996b547c36f15
		<tag k="place" v="farm" />
		<tag k="ssr:stedsnr" v="366423" />
	</node>
<<<<<<< HEAD
	<node lat="59.30315277860102" lon="10.86191944331349" id="-13054">
		<tag k="alt_name" v="Kil vestre" />
		<tag k="name" v="Vestre Kil" />
=======
	<node id="-242843" lat="59.3821611153" lon="10.906725006">
		<tag k="name" v="Henes" />
>>>>>>> e1d4bc35ff8a6074a6f2e91616a996b547c36f15
		<tag k="place" v="farm" />
		<tag k="ssr:stedsnr" v="366425" />
	</node>
	<node lat="59.34624722008826" lon="10.893580548947531" id="-13055">
		<tag k="amenity" v="place_of_worship" />
		<tag k="denomination" v="lutheran" />
		<tag k="name" v="Råde kirke" />
		<tag k="religion" v="christian" />
		<tag k="ssr:stedsnr" v="366514" />
	</node>
	<node lat="59.30436110985566" lon="10.678441661616514" id="-13056">
		<tag k="name" v="Nesblinda" />
		<tag k="natural" v="strait" />
		<tag k="ssr:stedsnr" v="392892" />
	</node>
	<node lat="59.33201111100577" lon="10.79133611301394" id="-13057">
		<tag k="fixme" v="consider natural=peak for the most distinct mountains in the district" />
		<tag k="name" v="Vardås" />
		<tag k="natural" v="hill" />
		<tag k="place" v="locality" />
		<tag k="ssr:stedsnr" v="420567" />
	</node>
	<node lat="59.31182500049692" lon="10.720913885304682" id="-13058">
		<tag k="name" v="Kokholmen" />
		<tag k="place" v="islet" />
		<tag k="ssr:stedsnr" v="420583" />
	</node>
<<<<<<< HEAD
	<node lat="59.30293611298122" lon="10.912513894353715" id="-13059">
=======
	<node id="-242842" lat="59.302936113" lon="10.9125138944">
>>>>>>> e1d4bc35ff8a6074a6f2e91616a996b547c36f15
		<tag k="fixme" v="consider natural=peak for the most distinct mountains in the district" />
		<tag k="name" v="Ælinåsen" />
		<tag k="natural" v="hill" />
		<tag k="place" v="locality" />
		<tag k="ssr:stedsnr" v="420933" />
	</node>
<<<<<<< HEAD
	<node lat="59.36086944499288" lon="10.947391670583798" id="-13060">
		<tag k="name" v="Slangsvoll" />
		<tag k="place" v="farm" />
		<tag k="ssr:stedsnr" v="422583" />
	</node>
	<node lat="59.33285833308199" lon="10.940424996162362" id="-13061">
		<tag k="fixme" v="consider natural=peak for the most distinct mountains in the district" />
		<tag k="name" v="Høyås" />
		<tag k="natural" v="hill" />
=======
	<node id="-242841" lat="59.2849333364" lon="10.7180111059">
		<tag k="name" v="Rødskjærhausen" />
		<tag k="natural" v="shoal" />
>>>>>>> e1d4bc35ff8a6074a6f2e91616a996b547c36f15
		<tag k="place" v="locality" />
		<tag k="ssr:stedsnr" v="422777" />
	</node>
	<node lat="59.32897222215988" lon="10.93176666530261" id="-13062">
		<tag k="name" v="Ileby" />
		<tag k="place" v="farm" />
		<tag k="ssr:stedsnr" v="422778" />
	</node>
	<node lat="59.32795314722037" lon="10.922923763969855" id="-13063">
		<tag k="fixme" v="consider place=hamlet" />
		<tag k="name" v="Hovland" />
		<tag k="place" v="farm" />
		<tag k="ssr:stedsnr" v="427460" />
	</node>
	<node lat="59.33059064591571" lon="10.921092588409294" id="-13064">
		<tag k="fixme" v="consider place=hamlet" />
		<tag k="name" v="Sørby" />
		<tag k="place" v="farm" />
		<tag k="ssr:stedsnr" v="427462" />
	</node>
<<<<<<< HEAD
	<node lat="59.29126944093118" lon="10.843925006417098" id="-13065">
=======
	<node id="-242840" lat="59.2912694409" lon="10.8439250064">
>>>>>>> e1d4bc35ff8a6074a6f2e91616a996b547c36f15
		<tag k="name" v="Bjørndalen" />
		<tag k="natural" v="valley" />
		<tag k="place" v="locality" />
		<tag k="ssr:stedsnr" v="495843" />
	</node>
<<<<<<< HEAD
	<node lat="59.32513333470767" lon="10.823599995816524" id="-13066">
		<tag k="bridge" v="yes" />
		<tag k="layer" v="1" />
		<tag k="name" v="Møllebekken" />
		<tag k="ssr:stedsnr" v="531549" />
	</node>
	<node lat="59.333977776309496" lon="10.799211105031103" id="-13067">
		<tag k="alt_name" v="Aker søndre" />
		<tag k="name" v="Søndre Aker" />
		<tag k="place" v="farm" />
		<tag k="ssr:stedsnr" v="541544" />
	</node>
	<node lat="59.34748888797517" lon="10.893458340373181" id="-13068">
		<tag k="name" v="Klokkergården" />
		<tag k="place" v="farm" />
		<tag k="ssr:stedsnr" v="543398" />
	</node>
	<node lat="59.361774780766446" lon="10.823915003753703" id="-13069">
		<tag k="alt_name" v="Haugesten" />
		<tag k="fixme" v="consider place=hamlet" />
		<tag k="name" v="Øvre Haugsten" />
=======
	<node id="-242839" lat="59.3864583311" lon="10.9148749947">
		<tag k="name" v="Bjørkå" />
>>>>>>> e1d4bc35ff8a6074a6f2e91616a996b547c36f15
		<tag k="place" v="farm" />
		<tag k="ssr:stedsnr" v="542944" />
	</node>
<<<<<<< HEAD
	<node lat="59.3251972239263" lon="10.874588891846114" id="-13070">
		<tag k="alt_name" v="Musangen østre" />
		<tag k="name" v="Østre Musangen" />
=======
	<node id="-242838" lat="59.369124534" lon="10.8302135816">
		<tag k="name" v="Haugstenstøa" />
>>>>>>> e1d4bc35ff8a6074a6f2e91616a996b547c36f15
		<tag k="place" v="farm" />
		<tag k="ssr:stedsnr" v="543797" />
	</node>
<<<<<<< HEAD
	<node lat="59.32121388888534" lon="10.941819451221187" id="-13071">
		<tag k="name" v="Finstadbukta" />
		<tag k="natural" v="bay" />
		<tag k="ssr:stedsnr" v="543755" />
	</node>
	<node lat="59.36163234697905" lon="10.89334153607516" id="-13072">
		<tag k="name" v="Bekken" />
=======
	<node id="-242837" lat="59.3681749991" lon="10.8565750064">
		<tag k="name" v="Langøya" />
		<tag k="place" v="islet" />
		<tag k="ssr:stedsnr" v="366266" />
	</node>
	<node id="-242836" lat="59.3541533874" lon="10.8159479719">
		<tag k="fixme" v="consider place=hamlet" />
		<tag k="name" v="Haug" />
>>>>>>> e1d4bc35ff8a6074a6f2e91616a996b547c36f15
		<tag k="place" v="farm" />
		<tag k="ssr:stedsnr" v="548255" />
	</node>
<<<<<<< HEAD
	<node lat="59.32364999710014" lon="10.898208337756655" id="-13073">
		<tag k="name" v="Solvang" />
=======
	<node id="-242835" lat="59.3311805575" lon="10.8714555473">
		<tag k="alt_name" v="Auberg søndre;Augeberg søndre" />
		<tag k="name" v="Søndre Augeberg" />
>>>>>>> e1d4bc35ff8a6074a6f2e91616a996b547c36f15
		<tag k="place" v="farm" />
		<tag k="ssr:stedsnr" v="548438" />
	</node>
<<<<<<< HEAD
	<node lat="59.31192500065279" lon="10.734938895714793" id="-13074">
		<tag k="name" v="Åven" />
=======
	<node id="-242834" lat="59.3598377118" lon="10.8204191587">
		<tag k="alt_name" v="Haugesten nedre;Nedre Haugesten" />
		<tag k="fixme" v="consider place=hamlet" />
		<tag k="name" v="Nedre Haugsten" />
>>>>>>> e1d4bc35ff8a6074a6f2e91616a996b547c36f15
		<tag k="place" v="farm" />
		<tag k="ssr:stedsnr" v="548443" />
	</node>
<<<<<<< HEAD
	<node lat="59.37566317638778" lon="10.782196014365264" id="-13075">
		<tag k="aeroway" v="aerodrome" />
		<tag k="alt_name" v="Rygge" />
		<tag k="name" v="Moss lufthavn, Rygge" />
		<tag k="ssr:stedsnr" v="548301" />
	</node>
	<node lat="59.33114722289787" lon="10.885550003941" id="-13076">
		<tag k="name" v="Haugen" />
=======
	<node id="-242833" lat="59.3594027811" lon="10.8266138878">
		<tag k="alt_name" v="Haug øvre" />
		<tag k="name" v="Øvre Haug" />
>>>>>>> e1d4bc35ff8a6074a6f2e91616a996b547c36f15
		<tag k="place" v="farm" />
		<tag k="ssr:stedsnr" v="548468" />
	</node>
<<<<<<< HEAD
	<node lat="59.33762663764514" lon="10.926926080130938" id="-13077">
		<tag k="fixme" v="consider place=hamlet" />
		<tag k="name" v="Missingen" />
=======
	<node id="-242832" lat="59.324866665" lon="10.8857472246">
		<tag k="name" v="Enebekk" />
>>>>>>> e1d4bc35ff8a6074a6f2e91616a996b547c36f15
		<tag k="place" v="farm" />
		<tag k="ssr:stedsnr" v="548487" />
	</node>
<<<<<<< HEAD
	<node lat="59.369769447505" lon="10.789508335993629" id="-13078">
		<tag k="name" v="Stomnerhuset" />
		<tag k="place" v="farm" />
		<tag k="ssr:stedsnr" v="602871" />
	</node>
	<node lat="59.31252499959603" lon="10.875188891893126" id="-13079">
		<tag k="name" v="Revehaugen" />
		<tag k="natural" v="hill" />
=======
	<node id="-242831" lat="59.3709861074" lon="10.9355583378">
		<tag k="name" v="Bjørndalen" />
>>>>>>> e1d4bc35ff8a6074a6f2e91616a996b547c36f15
		<tag k="place" v="locality" />
		<tag k="ssr:stedsnr" v="602886" />
	</node>
<<<<<<< HEAD
	<node lat="59.2986055588873" lon="10.838349999729212" id="-13080">
		<tag k="name" v="Rørfjellmyr" />
		<tag k="natural" v="wetland" />
		<tag k="ssr:stedsnr" v="602887" />
	</node>
	<node lat="59.31301110709523" lon="10.907263889020662" id="-13081">
		<tag k="alt_name" v="Reklingsholm vestre" />
		<tag k="name" v="Vestre Reklingsholm" />
=======
	<node id="-242830" lat="59.3721833335" lon="10.951808341">
		<tag k="name" v="Leiedalen" />
>>>>>>> e1d4bc35ff8a6074a6f2e91616a996b547c36f15
		<tag k="place" v="farm" />
		<tag k="ssr:stedsnr" v="602890" />
	</node>
<<<<<<< HEAD
	<node lat="59.360308330553906" lon="10.790363884883151" id="-13082">
		<tag k="name" v="Stomner" />
=======
	<node id="-242829" lat="59.3581305526" lon="10.8737999939">
		<tag k="name" v="Halvorsrød" />
>>>>>>> e1d4bc35ff8a6074a6f2e91616a996b547c36f15
		<tag k="place" v="farm" />
		<tag k="ssr:stedsnr" v="602932" />
	</node>
<<<<<<< HEAD
	<node lat="59.31574722276777" lon="10.856477777183654" id="-13083">
		<tag k="name" v="Hissingbydalen" />
=======
	<node id="-242828" lat="59.3590388898" lon="10.9325250072">
		<tag k="fixme" v="consider natural=peak for the most distinct mountains in the district" />
		<tag k="name" v="Vetaåsen" />
		<tag k="natural" v="hill" />
>>>>>>> e1d4bc35ff8a6074a6f2e91616a996b547c36f15
		<tag k="place" v="locality" />
		<tag k="ssr:stedsnr" v="603815" />
	</node>
<<<<<<< HEAD
	<node lat="59.35336389009184" lon="10.920183339229297" id="-13084">
		<tag k="name" v="Hukeberg" />
=======
	<node id="-242827" lat="59.3253194449" lon="10.9260583335">
		<tag k="name" v="Frakkestad" />
>>>>>>> e1d4bc35ff8a6074a6f2e91616a996b547c36f15
		<tag k="place" v="farm" />
		<tag k="ssr:stedsnr" v="608236" />
	</node>
<<<<<<< HEAD
	<node lat="59.345874995794055" lon="10.95289444683274" id="-13085">
		<tag k="name" v="Mosatjernet" />
		<tag k="natural" v="water" />
		<tag k="ssr:stedsnr" v="608531" />
	</node>
	<node lat="59.31692079691261" lon="10.76554822090826" id="-13086">
		<tag k="fixme" v="consider place=hamlet" />
		<tag k="name" v="Røstad" />
		<tag k="place" v="farm" />
		<tag k="ssr:stedsnr" v="609419" />
	</node>
	<node lat="59.30679444536585" lon="10.75784999261106" id="-13087">
		<tag k="name" v="Pampus" />
		<tag k="natural" v="shoal" />
=======
	<node id="-242826" lat="59.3376027805" lon="10.9600194495">
		<tag k="name" v="Galgehytta" />
>>>>>>> e1d4bc35ff8a6074a6f2e91616a996b547c36f15
		<tag k="place" v="locality" />
		<tag k="ssr:stedsnr" v="631776" />
	</node>
<<<<<<< HEAD
	<node lat="59.33974999638048" lon="10.74706389678334" id="-13088">
		<tag k="name" v="Grågåstangen" />
		<tag k="natural" v="cape" />
		<tag k="ssr:stedsnr" v="631777" />
	</node>
	<node lat="59.30068055687123" lon="10.715658341564247" id="-13089">
		<tag k="fixme" v="consider seamark:type=rock or natural=shoal" />
		<tag k="name" v="Åvenskjær" />
=======
	<node id="-242825" lat="59.3957611155" lon="10.8921861032">
		<tag k="name" v="Lefseholmene" />
>>>>>>> e1d4bc35ff8a6074a6f2e91616a996b547c36f15
		<tag k="place" v="islet" />
		<tag k="ssr:stedsnr" v="631783" />
	</node>
<<<<<<< HEAD
	<node lat="59.30453888556499" lon="10.732052779365755" id="-13090">
		<tag k="fixme" v="consider seamark:type=rock or natural=shoal" />
		<tag k="name" v="Stongeskjær" />
		<tag k="place" v="islet" />
		<tag k="ssr:stedsnr" v="634818" />
	</node>
	<node lat="59.33492778160293" lon="10.80636389362694" id="-13091">
		<tag k="name" v="Haga" />
		<tag k="place" v="isolated_dwelling" />
		<tag k="ssr:stedsnr" v="663493" />
	</node>
	<node lat="59.30795844976084" lon="10.77998641038448" id="-13092">
		<tag k="fixme" v="consider place=hamlet" />
		<tag k="name" v="Makrellrød" />
		<tag k="place" v="farm" />
		<tag k="ssr:stedsnr" v="663496" />
	</node>
	<node lat="59.30159444346555" lon="10.842886103112306" id="-13093">
		<tag k="name" v="Dammyr" />
		<tag k="natural" v="wetland" />
		<tag k="ssr:stedsnr" v="663902" />
	</node>
	<node lat="59.343541663734584" lon="10.799980561019257" id="-13094">
		<tag k="alt_name" v="Norum nordre" />
		<tag k="name" v="Nordre Norum" />
=======
	<node id="-242824" lat="59.3817722189" lon="10.9468305494">
		<tag k="name" v="Leiedalsmyra" />
		<tag k="natural" v="wetland" />
		<tag k="ssr:stedsnr" v="482579" />
	</node>
	<node id="-242823" lat="59.3487083341" lon="10.8904833396">
		<tag k="name" v="Roe" />
		<tag k="place" v="locality" />
		<tag k="ssr:stedsnr" v="482381" />
	</node>
	<node id="-242822" lat="59.3745388877" lon="10.8366666668">
		<tag k="name" v="Hareholmen" />
		<tag k="place" v="islet" />
		<tag k="ssr:stedsnr" v="482237" />
	</node>
	<node id="-242821" lat="59.3569500031" lon="10.8033305509">
		<tag k="alt_name" v="Løken søndre" />
		<tag k="name" v="Søndre Løken" />
>>>>>>> e1d4bc35ff8a6074a6f2e91616a996b547c36f15
		<tag k="place" v="farm" />
		<tag k="ssr:stedsnr" v="663916" />
	</node>
<<<<<<< HEAD
	<node lat="59.352182500465126" lon="10.796281939659695" id="-13095">
		<tag k="name" v="Røstad" />
		<tag k="place" v="hamlet" />
		<tag k="ssr:stedsnr" v="663929" />
	</node>
	<node lat="59.366047223228975" lon="10.851552786125806" id="-13096">
		<tag k="name" v="Lundsholmen" />
		<tag k="place" v="islet" />
		<tag k="ssr:stedsnr" v="664224" />
	</node>
	<node lat="59.35504915438001" lon="10.93562799738114" id="-13097">
=======
	<node id="-242820" lat="59.3426750032" lon="10.7628666714">
		<tag k="name" v="Heiabekken" />
		<tag k="ssr:stedsnr" v="481922" />
		<tag k="waterway" v="stream" />
	</node>
	<node id="-242819" lat="59.3280305585" lon="10.7643055476">
>>>>>>> e1d4bc35ff8a6074a6f2e91616a996b547c36f15
		<tag k="fixme" v="consider natural=peak for the most distinct mountains in the district" />
		<tag k="name" v="Ridefjell" />
		<tag k="natural" v="hill" />
		<tag k="place" v="locality" />
		<tag k="ssr:stedsnr" v="664227" />
	</node>
<<<<<<< HEAD
	<node lat="59.37141955605262" lon="10.895422288287994" id="-13098">
		<tag k="name" v="Heneskilen" />
		<tag k="natural" v="bay" />
		<tag k="ssr:stedsnr" v="664561" />
	</node>
	<node lat="59.35920277480606" lon="10.852147221301646" id="-13099">
		<tag k="name" v="Ringstad" />
=======
	<node id="-242818" lat="59.3909638876" lon="10.8183444437">
		<tag k="name" v="Sandbukt" />
		<tag k="natural" v="bay" />
		<tag k="ssr:stedsnr" v="481890" />
	</node>
	<node id="-242817" lat="59.3116305585" lon="10.6688638894">
		<tag k="name" v="Sletterhakan" />
		<tag k="natural" v="shoal" />
		<tag k="place" v="locality" />
		<tag k="ssr:stedsnr" v="331903" />
	</node>
	<node id="-242816" lat="59.3302444451" lon="10.8234999933">
		<tag k="name" v="Sønsterød" />
		<tag k="place" v="farm" />
		<tag k="ssr:stedsnr" v="306440" />
	</node>
	<node id="-242815" lat="59.3333083324" lon="10.7758833415">
		<tag k="name" v="Holer" />
>>>>>>> e1d4bc35ff8a6074a6f2e91616a996b547c36f15
		<tag k="place" v="farm" />
		<tag k="ssr:stedsnr" v="669240" />
	</node>
<<<<<<< HEAD
	<node lat="59.29453485333769" lon="10.791907828255031" id="-13100">
		<tag k="fixme" v="consider place=hamlet" />
		<tag k="name" v="Røtne" />
=======
	<node id="-242814" lat="59.3277166625" lon="10.7577333367">
		<tag k="name" v="Helgerød" />
>>>>>>> e1d4bc35ff8a6074a6f2e91616a996b547c36f15
		<tag k="place" v="farm" />
		<tag k="ssr:stedsnr" v="669389" />
	</node>
<<<<<<< HEAD
	<node lat="59.31322456976836" lon="10.909504433314327" id="-13101">
=======
	<node id="-242813" lat="59.3200991072" lon="10.9051087853">
>>>>>>> e1d4bc35ff8a6074a6f2e91616a996b547c36f15
		<tag k="fixme" v="consider place=hamlet" />
		<tag k="name" v="Reklingsholm" />
		<tag k="place" v="farm" />
		<tag k="ssr:stedsnr" v="670425" />
	</node>
<<<<<<< HEAD
	<node lat="59.36508055954181" lon="10.95525277728381" id="-13102">
		<tag k="alt_name" v="Harehaugen" />
		<tag k="name" v="Harahaugen" />
		<tag k="place" v="farm" />
		<tag k="ssr:stedsnr" v="670257" />
	</node>
	<node lat="59.32729722203572" lon="10.83882777424483" id="-13103">
		<tag k="name" v="Nøysom" />
=======
	<node id="-242812" lat="59.3622499998" lon="10.9518166729">
		<tag k="name" v="Engen" />
		<tag k="place" v="farm" />
		<tag k="ssr:stedsnr" v="300574" />
	</node>
	<node id="-242811" lat="59.325369445" lon="10.7566444424">
		<tag k="fixme" v="consider natural=peak for the most distinct mountains in the district" />
		<tag k="name" v="Vestre Åsen" />
		<tag k="natural" v="hill" />
		<tag k="place" v="locality" />
		<tag k="ssr:stedsnr" v="299955" />
	</node>
	<node id="-242810" lat="59.348730553" lon="10.7600666637">
		<tag k="name" v="Tyggelite" />
>>>>>>> e1d4bc35ff8a6074a6f2e91616a996b547c36f15
		<tag k="place" v="farm" />
		<tag k="ssr:stedsnr" v="670444" />
	</node>
<<<<<<< HEAD
	<node lat="59.339791667473115" lon="10.932050003086195" id="-13104">
		<tag k="bridge" v="yes" />
		<tag k="layer" v="1" />
		<tag k="name" v="Åkeberg" />
		<tag k="ssr:stedsnr" v="713441" />
	</node>
	<node lat="59.34646111199319" lon="10.870305552109697" id="-13105">
		<tag k="bridge" v="yes" />
		<tag k="layer" v="1" />
		<tag k="name" v="Strømshaug" />
		<tag k="ssr:stedsnr" v="713443" />
	</node>
	<node lat="59.36609999939724" lon="10.96618611269274" id="-13106">
		<tag k="bridge" v="yes" />
		<tag k="layer" v="1" />
		<tag k="name" v="Fennsbekk" />
		<tag k="ssr:stedsnr" v="713521" />
	</node>
	<node lat="59.2999694418777" lon="10.915755554512039" id="-13107">
		<tag k="name" v="Bjørndalen" />
		<tag k="natural" v="valley" />
=======
	<node id="-242809" lat="59.3494833297" lon="10.7759694482">
		<tag k="name" v="Heia" />
		<tag k="place" v="locality" />
		<tag k="ssr:stedsnr" v="299924" />
	</node>
	<node id="-242808" lat="59.339747224" lon="10.770786113">
		<tag k="alt_name" v="Gammelsrød søndre" />
		<tag k="name" v="Søndre Gammelsrød" />
		<tag k="place" v="farm" />
		<tag k="ssr:stedsnr" v="299922" />
	</node>
	<node id="-242807" lat="59.2978638933" lon="10.663461107">
		<tag k="name" v="Haukebukta" />
		<tag k="natural" v="bay" />
		<tag k="ssr:stedsnr" v="271913" />
	</node>
	<node id="-242806" lat="59.3039277769" lon="10.71159167">
		<tag k="name" v="Perbåen" />
>>>>>>> e1d4bc35ff8a6074a6f2e91616a996b547c36f15
		<tag k="place" v="locality" />
		<tag k="ssr:stedsnr" v="724943" />
	</node>
<<<<<<< HEAD
	<node lat="59.36317222300707" lon="10.885461107142186" id="-13108">
		<tag k="name" v="Karlshusbunn" />
		<tag k="natural" v="bay" />
		<tag k="ssr:stedsnr" v="725249" />
	</node>
	<node lat="59.33594166660625" lon="10.8783277707286" id="-13109">
		<tag k="alt_name" v="Auberghølen" />
		<tag k="name" v="Augeberghølen" />
		<tag k="natural" v="water" />
		<tag k="ssr:stedsnr" v="725343" />
	</node>
	<node lat="59.303874998586835" lon="10.772416658310215" id="-13110">
		<tag k="name" v="Agnes" />
		<tag k="place" v="farm" />
		<tag k="ssr:stedsnr" v="725191" />
	</node>
	<node lat="59.35088333516323" lon="10.900330557189221" id="-13111">
		<tag k="name" v="Nordby" />
		<tag k="place" v="isolated_dwelling" />
		<tag k="ssr:stedsnr" v="725346" />
	</node>
	<node lat="59.32043333389193" lon="10.913111116458456" id="-13112">
		<tag k="alt_name" v="Tofteberg østre" />
		<tag k="name" v="Østre Tofteberg" />
		<tag k="place" v="farm" />
		<tag k="ssr:stedsnr" v="725739" />
	</node>
	<node lat="59.33611388709748" lon="10.935916660155304" id="-13113">
		<tag k="name" v="Åkeberg" />
=======
	<node id="-242805" lat="59.3251972239" lon="10.8745888918">
		<tag k="alt_name" v="Musangen østre" />
		<tag k="name" v="Østre Musangen" />
		<tag k="place" v="farm" />
		<tag k="ssr:stedsnr" v="543797" />
	</node>
	<node id="-242804" lat="59.3285500022" lon="10.7478083324">
		<tag k="name" v="Labu" />
		<tag k="place" v="islet" />
		<tag k="ssr:stedsnr" v="449754" />
	</node>
	<node id="-242803" lat="59.3163027747" lon="10.9180277723">
		<tag k="name" v="Mørhuset" />
		<tag k="place" v="locality" />
		<tag k="ssr:stedsnr" v="240772" />
	</node>
	<node id="-242802" lat="59.3551861086" lon="10.8704222151">
		<tag k="bridge" v="yes" />
		<tag k="layer" v="1" />
		<tag k="name" v="Karlshus" />
		<tag k="ssr:stedsnr" v="228566" />
	</node>
	<node id="-242801" lat="59.3235527789" lon="10.8848416685">
		<tag k="bridge" v="yes" />
		<tag k="layer" v="1" />
		<tag k="name" v="Enebekk" />
		<tag k="ssr:stedsnr" v="289535" />
	</node>
	<node id="-242800" lat="59.3481472203" lon="10.8859472181">
		<tag k="name" v="Roe" />
>>>>>>> e1d4bc35ff8a6074a6f2e91616a996b547c36f15
		<tag k="place" v="farm" />
		<tag k="ssr:stedsnr" v="725740" />
	</node>
	<node lat="59.33534722511685" lon="10.939038893294345" id="-13114">
		<tag k="name" v="Gyllerås" />
		<tag k="place" v="isolated_dwelling" />
		<tag k="ssr:stedsnr" v="725747" />
	</node>
<<<<<<< HEAD
	<node lat="59.38800833310325" lon="10.900008332312316" id="-13115">
		<tag k="name" v="Henestangen" />
		<tag k="natural" v="cape" />
		<tag k="ssr:stedsnr" v="730301" />
	</node>
	<node lat="59.332210224675535" lon="10.872450717884467" id="-13116">
		<tag k="name" v="Augeberg" />
		<tag k="place" v="hamlet" />
		<tag k="ssr:stedsnr" v="730486" />
	</node>
	<node lat="59.33662061939648" lon="10.790250444359069" id="-13117">
		<tag k="fixme" v="consider place=hamlet" />
		<tag k="name" v="Meum" />
=======
	<node id="-242799" lat="59.3145694438" lon="10.87154167">
		<tag k="alt_name" v="Hissingby mellem" />
		<tag k="name" v="Mellom-Hissingby" />
		<tag k="place" v="farm" />
		<tag k="ssr:stedsnr" v="179874" />
	</node>
	<node id="-242798" lat="59.3536944421" lon="10.8817888857">
		<tag k="name" v="Karlshusbunn" />
>>>>>>> e1d4bc35ff8a6074a6f2e91616a996b547c36f15
		<tag k="place" v="farm" />
		<tag k="ssr:stedsnr" v="730498" />
	</node>
<<<<<<< HEAD
	<node lat="59.330684269389195" lon="10.953061920381588" id="-13118">
		<tag k="alt_name" v="Jørsø store" />
		<tag k="fixme" v="consider place=hamlet" />
		<tag k="name" v="Store Jørsø" />
=======
	<node id="-242797" lat="59.3692833299" lon="10.7942166591">
		<tag k="name" v="Askerød" />
>>>>>>> e1d4bc35ff8a6074a6f2e91616a996b547c36f15
		<tag k="place" v="farm" />
		<tag k="ssr:stedsnr" v="780312" />
	</node>
<<<<<<< HEAD
	<node lat="59.336752775355386" lon="10.801766671312736" id="-13119">
		<tag k="alt_name" v="Aker vestre" />
		<tag k="name" v="Vestre Aker" />
=======
	<node id="-242796" lat="59.3683583353" lon="10.796069452">
		<tag k="name" v="Granum" />
>>>>>>> e1d4bc35ff8a6074a6f2e91616a996b547c36f15
		<tag k="place" v="farm" />
		<tag k="ssr:stedsnr" v="784543" />
	</node>
<<<<<<< HEAD
	<node lat="59.38027777669779" lon="10.822577785181037" id="-13120">
		<tag k="name" v="Storedøvik" />
=======
	<node id="-242795" lat="59.2924583368" lon="10.7505666736">
		<tag k="name" v="Rubingen" />
>>>>>>> e1d4bc35ff8a6074a6f2e91616a996b547c36f15
		<tag k="natural" v="bay" />
		<tag k="ssr:stedsnr" v="784893" />
	</node>
<<<<<<< HEAD
	<node lat="59.347950000198296" lon="10.84441111981212" id="-13121">
		<tag k="name" v="Kjellerød" />
		<tag k="place" v="farm" />
		<tag k="ssr:stedsnr" v="786380" />
	</node>
	<node lat="59.353123978571254" lon="10.835858086479005" id="-13122">
		<tag k="fixme" v="consider place=hamlet" />
		<tag k="name" v="Elvestad" />
		<tag k="place" v="farm" />
		<tag k="ssr:stedsnr" v="786382" />
	</node>
	<node lat="59.383386109110624" lon="10.839891662445996" id="-13123">
		<tag k="name" v="Moskjærene" />
		<tag k="place" v="islet" />
		<tag k="ssr:stedsnr" v="786600" />
	</node>
	<node lat="59.317397222810186" lon="10.92167499764573" id="-13124">
		<tag k="name" v="Hovland" />
=======
	<node id="-242794" lat="59.299247222" lon="10.7414916604">
		<tag k="fixme" v="consider seamark:type=rock or natural=shoal" />
		<tag k="name" v="Vrangbeinskjæret" />
		<tag k="place" v="islet" />
		<tag k="ssr:stedsnr" v="145824" />
	</node>
	<node id="-242793" lat="59.309386115" lon="10.7164611026">
		<tag k="fixme" v="consider seamark:type=rock or natural=shoal" />
		<tag k="name" v="Kameratskjær" />
		<tag k="place" v="islet" />
		<tag k="ssr:stedsnr" v="271895" />
	</node>
	<node id="-242792" lat="59.3069611149" lon="10.7296749944">
		<tag k="name" v="Storesand" />
		<tag k="place" v="isolated_dwelling" />
		<tag k="ssr:stedsnr" v="124357" />
	</node>
	<node id="-242791" lat="59.3142916703" lon="10.8665722227">
		<tag k="name" v="Hissingby" />
>>>>>>> e1d4bc35ff8a6074a6f2e91616a996b547c36f15
		<tag k="place" v="farm" />
		<tag k="ssr:stedsnr" v="786773" />
	</node>
<<<<<<< HEAD
	<node lat="59.32142986085868" lon="10.760825024400443" id="-13125">
		<tag k="name" v="Fuglevik" />
		<tag k="place" v="hamlet" />
		<tag k="ssr:stedsnr" v="791426" />
	</node>
	<node lat="59.364085826194845" lon="10.776598474800952" id="-13126">
		<tag k="loc_name" v="Solberghøyda" />
		<tag k="name" v="Solberghøgda" />
		<tag k="place" v="locality" />
		<tag k="ssr:stedsnr" v="791271" />
	</node>
	<node lat="59.33965393801111" lon="10.806125177346743" id="-13127">
		<tag k="alt_name" v="Åker" />
		<tag k="fixme" v="consider place=hamlet" />
		<tag k="name" v="Aker" />
=======
	<node id="-242790" lat="59.3174638895" lon="10.8807861097">
		<tag k="name" v="Revjehaugen" />
		<tag k="natural" v="hill" />
		<tag k="place" v="locality" />
		<tag k="ssr:stedsnr" v="118817" />
	</node>
	<node id="-242789" lat="59.3437749996" lon="10.7776777858">
		<tag k="name" v="Heia" />
		<tag k="place" v="farm" />
		<tag k="ssr:stedsnr" v="117924" />
	</node>
	<node id="-242788" lat="59.3397999964" lon="10.7951583295">
		<tag k="alt_name" v="Berg vestre" />
		<tag k="name" v="Vestre Berg" />
>>>>>>> e1d4bc35ff8a6074a6f2e91616a996b547c36f15
		<tag k="place" v="farm" />
		<tag k="ssr:stedsnr" v="791462" />
	</node>
<<<<<<< HEAD
	<node lat="59.34861946794868" lon="10.8286340355595" id="-13128">
		<tag k="name" v="Burum" />
		<tag k="place" v="hamlet" />
		<tag k="ssr:stedsnr" v="791466" />
	</node>
	<node lat="59.31432500195979" lon="10.720619437382622" id="-13129">
		<tag k="name" v="Hestholmen" />
=======
	<node id="-242787" lat="59.2979944489" lon="10.7848249947">
		<tag k="name" v="Andersrød" />
		<tag k="place" v="farm" />
		<tag k="ssr:stedsnr" v="117546" />
	</node>
	<node id="-242786" lat="59.2896444477" lon="10.6777277756">
		<tag k="name" v="Mellom-Sletter" />
>>>>>>> e1d4bc35ff8a6074a6f2e91616a996b547c36f15
		<tag k="place" v="islet" />
		<tag k="ssr:stedsnr" v="791626" />
	</node>
<<<<<<< HEAD
	<node lat="59.34730555967019" lon="10.929255564116733" id="-13130">
		<tag k="name" v="Løkka" />
=======
	<node id="-242785" lat="59.3412611093" lon="10.8019499947">
		<tag k="name" v="Sørgård" />
>>>>>>> e1d4bc35ff8a6074a6f2e91616a996b547c36f15
		<tag k="place" v="farm" />
		<tag k="ssr:stedsnr" v="815373" />
	</node>
<<<<<<< HEAD
	<node lat="59.29676111521477" lon="10.647130548655172" id="-13131">
		<tag k="name" v="Hauken" />
		<tag k="natural" v="shoal" />
		<tag k="place" v="locality" />
		<tag k="ssr:stedsnr" v="817794" />
	</node>
	<node lat="59.294761112790304" lon="10.662136102837234" id="-13132">
		<tag k="name" v="Brotta" />
		<tag k="place" v="islet" />
		<tag k="ssr:stedsnr" v="817909" />
	</node>
	<node lat="59.3090583371259" lon="10.884291674545926" id="-13133">
		<tag k="bridge" v="yes" />
		<tag k="layer" v="1" />
		<tag k="loc_name" v="Kil" />
		<tag k="name" v="Kihl" />
		<tag k="ssr:stedsnr" v="835545" />
	</node>
	<node lat="59.327515631200676" lon="10.790142245783281" id="-13134">
		<tag k="alt_name" v="Aker mellem" />
		<tag k="name" v="Mellom-Aker" />
=======
	<node id="-242784" lat="59.3179333351" lon="10.9346555562">
		<tag k="name" v="Skinnerflo" />
		<tag k="natural" v="water" />
		<tag k="ssr:stedsnr" v="245418" />
		<tag k="water" v="lake" />
	</node>
	<node id="-242783" lat="59.3245888932" lon="10.91050833">
		<tag k="alt_name" v="Søgård" />
		<tag k="name" v="Sørgård" />
		<tag k="place" v="farm" />
		<tag k="ssr:stedsnr" v="245410" />
	</node>
	<node id="-242782" lat="59.3189972266" lon="10.8728416727">
		<tag k="alt_name" v="Hisingby" />
		<tag k="fixme" v="consider place=hamlet" />
		<tag k="name" v="Hissingby" />
		<tag k="place" v="farm" />
		<tag k="ssr:stedsnr" v="245408" />
	</node>
	<node id="-242781" lat="59.3216249967" lon="10.8625444419">
		<tag k="alt_name" v="Brekke" />
		<tag k="name" v="Brekka" />
>>>>>>> e1d4bc35ff8a6074a6f2e91616a996b547c36f15
		<tag k="place" v="farm" />
		<tag k="ssr:stedsnr" v="845562" />
	</node>
<<<<<<< HEAD
	<node lat="59.35756389009827" lon="10.80578889736251" id="-13135">
		<tag k="alt_name" v="Løken nordre" />
		<tag k="name" v="Nordre Løken" />
=======
	<node id="-242780" lat="59.3555055561" lon="10.8126444473">
		<tag k="alt_name" v="Vold" />
		<tag k="name" v="Voll" />
>>>>>>> e1d4bc35ff8a6074a6f2e91616a996b547c36f15
		<tag k="place" v="farm" />
		<tag k="ssr:stedsnr" v="845938" />
	</node>
<<<<<<< HEAD
	<node lat="59.38315555718457" lon="10.813436114722892" id="-13136">
		<tag k="name" v="Sagmyra" />
		<tag k="natural" v="wetland" />
		<tag k="ssr:stedsnr" v="845902" />
	</node>
	<node lat="59.35138055357911" lon="10.835558338137593" id="-13137">
		<tag k="alt_name" v="Elvestad søndre" />
		<tag k="name" v="Søndre Elvestad" />
=======
	<node id="-242779" lat="59.3545749971" lon="10.773405554">
		<tag k="name" v="Sarpebakken" />
		<tag k="place" v="farm" />
		<tag k="ssr:stedsnr" v="245238" />
	</node>
	<node id="-242778" lat="59.3534277789" lon="10.9258027693">
		<tag k="alt_name" v="Borgebotn" />
		<tag k="name" v="Borgebunn" />
>>>>>>> e1d4bc35ff8a6074a6f2e91616a996b547c36f15
		<tag k="place" v="farm" />
		<tag k="ssr:stedsnr" v="847397" />
	</node>
<<<<<<< HEAD
	<node lat="59.33908333137976" lon="10.922213895938844" id="-13138">
		<tag k="name" v="Dalen" />
=======
	<node id="-242777" lat="59.3460027749" lon="10.9049277791">
		<tag k="fixme" v="consider place=hamlet" />
		<tag k="name" v="Lundeby" />
>>>>>>> e1d4bc35ff8a6074a6f2e91616a996b547c36f15
		<tag k="place" v="farm" />
		<tag k="ssr:stedsnr" v="847230" />
	</node>
<<<<<<< HEAD
	<node lat="59.300080558107695" lon="10.660941663665369" id="-13139">
		<tag k="name" v="Seiltangen" />
		<tag k="natural" v="cape" />
		<tag k="ssr:stedsnr" v="847237" />
	</node>
	<node lat="59.33709166532942" lon="10.957583337477258" id="-13140">
		<tag k="name" v="Grepet" />
=======
	<node id="-242776" lat="59.3486083367" lon="10.8950944391">
		<tag k="name" v="Kirkebø" />
>>>>>>> e1d4bc35ff8a6074a6f2e91616a996b547c36f15
		<tag k="place" v="farm" />
		<tag k="ssr:stedsnr" v="847581" />
	</node>
<<<<<<< HEAD
	<node lat="59.36360833454592" lon="10.952827783534113" id="-13141">
		<tag k="name" v="Slangsvoll" />
=======
	<node id="-242775" lat="59.3516666682" lon="10.8535777707">
		<tag k="name" v="Skråtorp" />
>>>>>>> e1d4bc35ff8a6074a6f2e91616a996b547c36f15
		<tag k="place" v="farm" />
		<tag k="ssr:stedsnr" v="847571" />
	</node>
<<<<<<< HEAD
	<node lat="59.30380278175706" lon="10.796419443446977" id="-13142">
		<tag k="name" v="Holmebråten" />
=======
	<node id="-242774" lat="59.3470666656" lon="10.8061999948">
		<tag k="fixme" v="consider place=hamlet" />
		<tag k="name" v="Huseby" />
>>>>>>> e1d4bc35ff8a6074a6f2e91616a996b547c36f15
		<tag k="place" v="farm" />
		<tag k="ssr:stedsnr" v="852408" />
	</node>
<<<<<<< HEAD
	<node lat="59.290082106104485" lon="10.754246829928205" id="-13143">
		<tag k="fixme" v="consider place=suburb, village or hamlet" />
		<tag k="name" v="Saltnes" />
		<tag k="place" v="quarter" />
		<tag k="ssr:stedsnr" v="853401" />
	</node>
	<node lat="59.29278333138545" lon="10.653458337654698" id="-13144">
		<tag k="name" v="Bråttene" />
=======
	<node id="-242773" lat="59.2945416629" lon="10.726397221">
		<tag k="name" v="Jammerlappen" />
>>>>>>> e1d4bc35ff8a6074a6f2e91616a996b547c36f15
		<tag k="natural" v="shoal" />
		<tag k="place" v="locality" />
		<tag k="ssr:stedsnr" v="853629" />
	</node>
<<<<<<< HEAD
	<node lat="59.30965555892495" lon="10.762047229774998" id="-13145">
		<tag k="name" v="Båsane" />
		<tag k="natural" v="cape" />
		<tag k="ssr:stedsnr" v="874778" />
	</node>
	<node lat="59.29598610684705" lon="10.738050001977925" id="-13146">
		<tag k="name" v="Svenskehausen" />
		<tag k="natural" v="shoal" />
=======
	<node id="-242772" lat="59.3263083324" lon="10.8754222267">
		<tag k="alt_name" v="Musangen nordre" />
		<tag k="name" v="Nordre Musangen" />
		<tag k="place" v="farm" />
		<tag k="ssr:stedsnr" v="240822" />
	</node>
	<node id="-242771" lat="59.3370555599" lon="10.8814638891">
		<tag k="name" v="Lunderberget" />
		<tag k="natural" v="hill" />
>>>>>>> e1d4bc35ff8a6074a6f2e91616a996b547c36f15
		<tag k="place" v="locality" />
		<tag k="ssr:stedsnr" v="874820" />
	</node>
<<<<<<< HEAD
	<node lat="59.3171333368069" lon="10.729241673963264" id="-13147">
		<tag k="name" v="Husholmen" />
		<tag k="place" v="islet" />
		<tag k="ssr:stedsnr" v="877879" />
	</node>
	<node lat="59.34485555570161" lon="10.926708338504872" id="-13148">
		<tag k="name" v="Sandbakken" />
		<tag k="place" v="locality" />
		<tag k="ssr:stedsnr" v="937408" />
	</node>
	<node lat="59.3536388910771" lon="10.969441667698147" id="-13149">
		<tag k="name" v="Sagabekken" />
		<tag k="ssr:stedsnr" v="962364" />
		<tag k="waterway" v="stream" />
	</node>
	<node lat="59.31059166684954" lon="10.744638894970526" id="-13150">
		<tag k="name" v="Svarteskjærtangen" />
		<tag k="natural" v="cape" />
		<tag k="ssr:stedsnr" v="966564" />
	</node>
	<node lat="59.2790361100729" lon="10.676466674842105" id="-13151">
		<tag k="fixme" v="consider boundary=protected_area and relevant protect_class if not nature reserve" />
		<tag k="leisure" v="nature_reserve" />
		<tag k="name" v="Søndre Sletter naturreservat" />
		<tag k="ssr:stedsnr" v="966581" />
	</node>
	<node lat="59.327133334667415" lon="10.738227771077517" id="-13152">
		<tag k="fixme" v="consider boundary=protected_area and relevant protect_class if not nature reserve" />
		<tag k="leisure" v="nature_reserve" />
		<tag k="name" v="Kurefjorden naturreservat" />
		<tag k="ssr:stedsnr" v="966962" />
	</node>
	<node lat="59.29093333026365" lon="10.833249994697997" id="-13153">
		<tag k="fixme" v="consider natural=peak for the most distinct mountains in the district" />
		<tag k="name" v="Ravneberg" />
		<tag k="natural" v="hill" />
=======
	<node id="-242770" lat="59.3378805589" lon="10.9080611029">
		<tag k="name" v="Borge" />
		<tag k="place" v="farm" />
		<tag k="ssr:stedsnr" v="240383" />
	</node>
	<node id="-242769" lat="59.3603194463" lon="10.8507138832">
		<tag k="name" v="Elvestadstøa" />
		<tag k="place" v="isolated_dwelling" />
		<tag k="ssr:stedsnr" v="240282" />
	</node>
	<node id="-242768" lat="59.3604638919" lon="10.9269944458">
		<tag k="name" v="Kleven" />
>>>>>>> e1d4bc35ff8a6074a6f2e91616a996b547c36f15
		<tag k="place" v="locality" />
		<tag k="ssr:stedsnr" v="967789" />
	</node>
<<<<<<< HEAD
	<node lat="59.375213893308946" lon="10.86131110473426" id="-13154">
		<tag k="name" v="Klokkerne" />
		<tag k="place" v="islet" />
		<tag k="ssr:stedsnr" v="968281" />
	</node>
	<node lat="59.35597222172238" lon="10.927461104384099" id="-13155">
		<tag k="fixme" v="consider natural=peak for the most distinct mountains in the district" />
		<tag k="name" v="Bunnåsen" />
		<tag k="natural" v="hill" />
=======
	<node id="-242767" lat="59.3325473277" lon="10.8733495541">
		<tag k="alt_name" v="Auberg" />
		<tag k="name" v="Augeberg" />
		<tag k="place" v="farm" />
		<tag k="ssr:stedsnr" v="58856" />
	</node>
	<node id="-242766" lat="59.3869111146" lon="10.81083611">
		<tag k="name" v="Sogn skog" />
>>>>>>> e1d4bc35ff8a6074a6f2e91616a996b547c36f15
		<tag k="place" v="locality" />
		<tag k="ssr:stedsnr" v="968283" />
	</node>
<<<<<<< HEAD
	<node lat="59.34118352667193" lon="10.847864071350418" id="-13156">
		<tag k="fixme" v="consider place=hamlet" />
		<tag k="name" v="Stranden" />
		<tag k="place" v="farm" />
		<tag k="ssr:stedsnr" v="968362" />
	</node>
	<node lat="59.30268451654243" lon="10.670210116732301" id="-13158">
		<tag k="name" v="Tuva" />
=======
	<node id="-242765" lat="59.3786666701" lon="10.8042000009">
		<tag k="name" v="Vitteberget" />
>>>>>>> e1d4bc35ff8a6074a6f2e91616a996b547c36f15
		<tag k="natural" v="hill" />
		<tag k="place" v="locality" />
		<tag k="ssr:stedsnr" v="987082" />
	</node>
<<<<<<< HEAD
	<node lat="59.36715618293975" lon="10.857248483928714" id="-13164">
		<tag k="fixme" v="consider place=hamlet" />
		<tag k="name" v="Langøya" />
=======
	<node id="-242764" lat="59.3173305561" lon="10.7914083352">
		<tag k="name" v="Hestevoll" />
>>>>>>> e1d4bc35ff8a6074a6f2e91616a996b547c36f15
		<tag k="place" v="farm" />
		<tag k="ssr:stedsnr" v="1077881" />
	</node>
<<<<<<< HEAD
	<node lat="59.351591266851315" lon="10.8487037247238" id="-13165">
		<tag k="fixme" v="consider place=hamlet" />
		<tag k="name" v="Stensrød" />
		<tag k="place" v="farm" />
		<tag k="ssr:stedsnr" v="1077898" />
	</node>
	<node lat="59.35902484288732" lon="10.78374213677101" id="-13166">
		<tag k="loc_name" v="Østgarden" />
		<tag k="name" v="Sandaakerhuset" />
		<tag k="place" v="farm" />
		<tag k="ssr:stedsnr" v="1082087" />
=======
	<node id="-242763" lat="59.3265805559" lon="10.7812250027">
		<tag k="name" v="Akersbekken" />
		<tag k="ssr:stedsnr" v="238549" />
		<tag k="waterway" v="stream" />
	</node>
	<node id="-242762" lat="59.3506861146" lon="10.8941583328">
		<tag k="bridge" v="yes" />
		<tag k="layer" v="1" />
		<tag k="name" v="Skovly" />
		<tag k="ssr:stedsnr" v="228484" />
>>>>>>> e1d4bc35ff8a6074a6f2e91616a996b547c36f15
	</node>
</osm>
