<?xml version="1.0" encoding="UTF-8"?>
<osm version="0.6" generator="osmapis">
	<node lat="59.350686114620956" lon="10.894158332788813" id="-26887">
		<tag k="bridge" v="yes" />
		<tag k="layer" v="1" />
		<tag k="name" v="Skovly" />
		<tag k="ssr:stedsnr" v="228484" />
	</node>
	<node lat="59.32355277886308" lon="10.884841668503952" id="-26899">
		<tag k="bridge" v="yes" />
		<tag k="layer" v="1" />
		<tag k="name" v="Enebekk" />
		<tag k="ssr:stedsnr" v="289535" />
	</node>
	<node lat="59.3451027762076" lon="10.924777777510231" id="-26972">
		<tag k="bridge" v="yes" />
		<tag k="layer" v="1" />
		<tag k="name" v="Åsgårdkrysset" />
		<tag k="ssr:stedsnr" v="652412" />
	</node>
	<node lat="59.35873889042625" lon="10.839963895928953" id="-27030">
		<tag k="bridge" v="yes" />
		<tag k="layer" v="1" />
		<tag k="name" v="Jonsten" />
		<tag k="ssr:stedsnr" v="896540" />
	</node>
	<node lat="59.35961667123283" lon="10.840736107611301" id="-27031">
		<tag k="bridge" v="yes" />
		<tag k="layer" v="1" />
		<tag k="name" v="Jonsten rampe" />
		<tag k="ssr:stedsnr" v="896543" />
	</node>
	<node lat="59.32514278410888" lon="10.80724504236735" id="-27032">
		<tag k="alt_name" v="Krokstad" />
		<tag k="bridge" v="yes" />
		<tag k="layer" v="1" />
		<tag k="name" v="Krokstad bru" />
		<tag k="ssr:stedsnr" v="896548" />
	</node>
	<node lat="59.34745682470415" lon="10.865133397602836" id="-27048">
		<tag k="alt_name" v="Råde" />
		<tag k="name" v="Råde stasjon" />
		<tag k="railway" v="station" />
		<tag k="ssr:stedsnr" v="2512" />
		<tag k="train" v="yes" />
	</node>
	<node lat="59.323858332126825" lon="10.803333336057282" id="-27056">
		<tag k="man_made" v="quay" />
		<tag k="name" v="Tomb brygge" />
		<tag k="place" v="locality" />
		<tag k="ssr:stedsnr" v="56545" />
	</node>
	<node lat="59.353766668254124" lon="10.879875004820049" id="-27073">
		<tag k="bridge" v="yes" />
		<tag k="layer" v="1" />
		<tag k="name" v="Karlshusbunn" />
		<tag k="ssr:stedsnr" v="107523" />
	</node>
	<node lat="59.37071666403597" lon="10.816502768846883" id="-27092">
		<tag k="fixme" v="verify maritime location" />
		<tag k="mooring" v="yes" />
		<tag k="name" v="Grimstadstøa" />
		<tag k="place" v="locality" />
		<tag k="ssr:stedsnr" v="177886" />
	</node>
	<node lat="59.355186108592044" lon="10.870422215141565" id="-27105">
		<tag k="bridge" v="yes" />
		<tag k="layer" v="1" />
		<tag k="name" v="Karlshus" />
		<tag k="ssr:stedsnr" v="228566" />
	</node>
	<node lat="59.32513333470767" lon="10.823599995816524" id="-27150">
		<tag k="bridge" v="yes" />
		<tag k="layer" v="1" />
		<tag k="name" v="Møllebekken" />
		<tag k="ssr:stedsnr" v="531549" />
	</node>
	<node lat="59.37566317638778" lon="10.782196014365264" id="-27159">
		<tag k="aeroway" v="aerodrome" />
		<tag k="alt_name" v="Rygge" />
		<tag k="name" v="Moss lufthavn, Rygge" />
		<tag k="ssr:stedsnr" v="548301" />
	</node>
	<node lat="59.339791667473115" lon="10.932050003086195" id="-27188">
		<tag k="bridge" v="yes" />
		<tag k="layer" v="1" />
		<tag k="name" v="Åkeberg" />
		<tag k="ssr:stedsnr" v="713441" />
	</node>
	<node lat="59.34646111199319" lon="10.870305552109697" id="-27189">
		<tag k="bridge" v="yes" />
		<tag k="layer" v="1" />
		<tag k="name" v="Strømshaug" />
		<tag k="ssr:stedsnr" v="713443" />
	</node>
	<node lat="59.36609999939724" lon="10.96618611269274" id="-27190">
		<tag k="bridge" v="yes" />
		<tag k="layer" v="1" />
		<tag k="name" v="Fennsbekk" />
		<tag k="ssr:stedsnr" v="713521" />
	</node>
	<node lat="59.3090583371259" lon="10.884291674545926" id="-27217">
		<tag k="bridge" v="yes" />
		<tag k="layer" v="1" />
		<tag k="loc_name" v="Kil" />
		<tag k="name" v="Kihl" />
		<tag k="ssr:stedsnr" v="835545" />
	</node>
</osm>
