<?xml version="1.0" encoding="UTF-8"?>
<osm generator="osmapis" version="0.6">
	<node changeset="66108879" id="6190817285" lat="59.4357028" lon="10.3148972" timestamp="2019-01-07T20:37:37Z" uid="3497659" user="NKA" version="1">
		<tag k="name" v="Rostad søndre" />
		<tag k="place" v="farm" />
		<tag k="ssr:stedsnr" v="270866" />
		<tag k="ssr:type" v="bruk" />
	</node>
	<node changeset="66108879" id="6190817286" lat="59.3540444" lon="10.2398278" timestamp="2019-01-07T20:37:37Z" uid="3497659" user="NKA" version="1">
		<tag k="alt_name" v="Berg vestre" />
		<tag k="name" v="Berg" />
		<tag k="place" v="farm" />
		<tag k="ssr:stedsnr" v="245745" />
		<tag k="ssr:type" v="bruk" />
	</node>
	<node changeset="66108879" id="6190817287" lat="59.3843694" lon="10.1748417" timestamp="2019-01-07T20:37:37Z" uid="3497659" user="NKA" version="1">
		<tag k="name" v="Bråten" />
		<tag k="place" v="farm" />
		<tag k="ssr:stedsnr" v="816311" />
		<tag k="ssr:type" v="bruk" />
	</node>
	<node changeset="66108879" id="6190817288" lat="59.3185583" lon="10.2947333" timestamp="2019-01-07T20:37:37Z" uid="3497659" user="NKA" version="1">
		<tag k="name" v="Himbergåsen" />
		<tag k="place" v="farm" />
		<tag k="ssr:stedsnr" v="270892" />
		<tag k="ssr:type" v="bruk" />
	</node>
	<node changeset="66108879" id="6190817289" lat="59.3262389" lon="10.2898694" timestamp="2019-01-07T20:37:37Z" uid="3497659" user="NKA" version="1">
		<tag k="name" v="Oserød" />
		<tag k="place" v="farm" />
		<tag k="ssr:stedsnr" v="245794" />
		<tag k="ssr:type" v="bruk" />
	</node>
	<node changeset="66108879" id="6190817290" lat="59.3501222" lon="10.1985472" timestamp="2019-01-07T20:37:37Z" uid="3497659" user="NKA" version="1">
		<tag k="name" v="Fredli" />
		<tag k="place" v="isolated_dwelling" />
		<tag k="ssr:stedsnr" v="816358" />
		<tag k="ssr:type" v="fritidsbolig" />
	</node>
	<node changeset="66108879" id="6190817291" lat="59.4748972" lon="10.3466639" timestamp="2019-01-07T20:37:37Z" uid="3497659" user="NKA" version="1">
		<tag k="name" v="Gamle-Verven" />
		<tag k="place" v="locality" />
		<tag k="ssr:stedsnr" v="270915" />
		<tag k="ssr:type" v="byggForJordbrukFiskeOgFangst" />
	</node>
	<node changeset="66108879" id="6190817292" lat="59.4517667" lon="10.3451111" timestamp="2019-01-07T20:37:37Z" uid="3497659" user="NKA" version="1">
		<tag k="name" v="Grette" />
		<tag k="place" v="farm" />
		<tag k="ssr:stedsnr" v="245956" />
		<tag k="ssr:type" v="bruk" />
	</node>
	<node changeset="66108879" id="6190817293" lat="59.4332861" lon="10.1334083" timestamp="2019-01-07T20:37:37Z" uid="3497659" user="NKA" version="1">
		<tag k="name" v="Øvre Vivestad" />
		<tag k="place" v="farm" />
		<tag k="ssr:stedsnr" v="424034" />
		<tag k="ssr:type" v="gard" />
	</node>
	<node changeset="66108879" id="6190817294" lat="59.3876892" lon="10.2545055" timestamp="2019-01-07T20:37:37Z" uid="3497659" user="NKA" version="1">
		<tag k="name" v="Nordre Fossan mølle" />
		<tag k="place" v="locality" />
		<tag k="ssr:stedsnr" v="816622" />
		<tag k="ssr:type" v="hotell" />
	</node>
	<node changeset="66108879" id="6190817295" lat="59.453975" lon="10.1460917" timestamp="2019-01-07T20:37:37Z" uid="3497659" user="NKA" version="1">
		<tag k="alt_name" v="Langeli S" />
		<tag k="name" v="Langeli" />
		<tag k="place" v="farm" />
		<tag k="ssr:stedsnr" v="427068" />
		<tag k="ssr:type" v="bruk" />
	</node>
	<node changeset="66108879" id="6190817296" lat="59.4416833" lon="10.2375222" timestamp="2019-01-07T20:37:37Z" uid="3497659" user="NKA" version="1">
		<tag k="name" v="Rygg vestre" />
		<tag k="place" v="farm" />
		<tag k="ssr:stedsnr" v="816685" />
		<tag k="ssr:type" v="bruk" />
	</node>
	<node changeset="66108879" id="6190817297" lat="59.450375" lon="10.3406167" timestamp="2019-01-07T20:37:38Z" uid="3497659" user="NKA" version="1">
		<tag k="name" v="Grettebygd" />
		<tag k="place" v="hamlet" />
		<tag k="ssr:stedsnr" v="427075" />
		<tag k="ssr:type" v="bygdelagBygd" />
	</node>
	<node changeset="66108879" id="3119953938" lat="59.4540456" lon="10.2645763" timestamp="2019-01-07T20:37:57Z" uid="3497659" user="NKA" version="4">
		<tag k="alt_name" v="Badski" />
		<tag k="name" v="Baski" />
		<tag k="place" v="farm" />
		<tag k="ssr:stedsnr" v="2066" />
		<tag k="ssr:type" v="bruk" />
	</node>
	<node changeset="66108879" id="6190817299" lat="59.4694361" lon="10.1954194" timestamp="2019-01-07T20:37:38Z" uid="3497659" user="NKA" version="1">
		<tag k="name" v="Ruteig" />
		<tag k="place" v="farm" />
		<tag k="ssr:stedsnr" v="816732" />
		<tag k="ssr:type" v="bruk" />
	</node>
	<node changeset="66108879" id="6190817300" lat="59.4418" lon="10.1780028" timestamp="2019-01-07T20:37:38Z" uid="3497659" user="NKA" version="1">
		<tag k="alt_name" v="Skotvedt nordre" />
		<tag k="name" v="Skotvet" />
		<tag k="place" v="farm" />
		<tag k="ssr:stedsnr" v="305065" />
		<tag k="ssr:type" v="bruk" />
	</node>
	<node changeset="66108879" id="6190817301" lat="59.445175" lon="10.25175" timestamp="2019-01-07T20:37:38Z" uid="3497659" user="NKA" version="1">
		<tag k="alt_name" v="Lærum mellom" />
		<tag k="name" v="Lærum" />
		<tag k="place" v="farm" />
		<tag k="ssr:stedsnr" v="427088" />
		<tag k="ssr:type" v="bruk" />
	</node>
	<node changeset="66108879" id="6190817302" lat="59.4410861" lon="10.3182917" timestamp="2019-01-07T20:37:38Z" uid="3497659" user="NKA" version="1">
		<tag k="name" v="Nordby" />
		<tag k="place" v="farm" />
		<tag k="ssr:stedsnr" v="305079" />
		<tag k="ssr:type" v="bruk" />
	</node>
	<node changeset="66108879" id="6190817303" lat="59.4488889" lon="10.2658389" timestamp="2019-01-07T20:37:38Z" uid="3497659" user="NKA" version="1">
		<tag k="alt_name" v="Kornto østre" />
		<tag k="name" v="Kornto" />
		<tag k="place" v="farm" />
		<tag k="ssr:stedsnr" v="427089" />
		<tag k="ssr:type" v="bruk" />
	</node>
	<node changeset="66108879" id="6190817304" lat="59.4391" lon="10.1279583" timestamp="2019-01-07T20:37:38Z" uid="3497659" user="NKA" version="1">
		<tag k="name" v="Krøkli" />
		<tag k="place" v="farm" />
		<tag k="ssr:stedsnr" v="305090" />
		<tag k="ssr:type" v="bruk" />
	</node>
	<node changeset="66108879" id="6190817305" lat="59.447575" lon="10.3164278" timestamp="2019-01-07T20:37:38Z" uid="3497659" user="NKA" version="1">
		<tag k="name" v="Smørdal" />
		<tag k="place" v="farm" />
		<tag k="ssr:stedsnr" v="427091" />
		<tag k="ssr:type" v="bruk" />
	</node>
	<node changeset="66108879" id="6190817306" lat="59.3583778" lon="10.2804611" timestamp="2019-01-07T20:37:38Z" uid="3497659" user="NKA" version="1">
		<tag k="name" v="Bø n." />
		<tag k="place" v="farm" />
		<tag k="ssr:stedsnr" v="816757" />
		<tag k="ssr:type" v="bruk" />
	</node>
	<node changeset="66108879" id="6190817307" lat="59.3990718" lon="10.3250866" timestamp="2019-01-07T20:37:38Z" uid="3497659" user="NKA" version="1">
		<tag k="name" v="Grytnes" />
		<tag k="place" v="farm" />
		<tag k="ssr:stedsnr" v="816796" />
		<tag k="ssr:type" v="bruk" />
	</node>
	<node changeset="66108879" id="6190817308" lat="59.4343" lon="10.2023361" timestamp="2019-01-07T20:37:38Z" uid="3497659" user="NKA" version="1">
		<tag k="alt_name" v="Kranstad øvre" />
		<tag k="name" v="Kranstad" />
		<tag k="place" v="farm" />
		<tag k="ssr:stedsnr" v="305164" />
		<tag k="ssr:type" v="bruk" />
	</node>
	<node changeset="66108879" id="6190817309" lat="59.374525" lon="10.2394861" timestamp="2019-01-07T20:37:38Z" uid="3497659" user="NKA" version="1">
		<tag k="name" v="Lunnteigen" />
		<tag k="place" v="farm" />
		<tag k="ssr:stedsnr" v="305186" />
		<tag k="ssr:type" v="bruk" />
	</node>
	<node changeset="66108879" id="6190817310" lat="59.4167083" lon="10.2225945" timestamp="2019-01-07T20:37:38Z" uid="3497659" user="NKA" version="1">
		<tag k="alt_name" v="Hvidsten" />
		<tag k="name" v="Hvitstein" />
		<tag k="place" v="farm" />
		<tag k="ssr:stedsnr" v="427142" />
		<tag k="ssr:type" v="bruk" />
	</node>
	<node changeset="66108879" id="6190817311" lat="59.3769833" lon="10.2556972" timestamp="2019-01-07T20:37:39Z" uid="3497659" user="NKA" version="1">
		<tag k="name" v="Rustan" />
		<tag k="place" v="farm" />
		<tag k="ssr:stedsnr" v="305190" />
		<tag k="ssr:type" v="bruk" />
	</node>
	<node changeset="66108879" id="6190817312" lat="59.4015167" lon="10.1158222" timestamp="2019-01-07T20:37:39Z" uid="3497659" user="NKA" version="1">
		<tag k="name" v="Bakerød" />
		<tag k="place" v="farm" />
		<tag k="ssr:stedsnr" v="427147" />
		<tag k="ssr:type" v="bruk" />
	</node>
	<node changeset="66108879" id="6190817313" lat="59.3783028" lon="10.2697028" timestamp="2019-01-07T20:37:39Z" uid="3497659" user="NKA" version="1">
		<tag k="name" v="Sunneklepp" />
		<tag k="place" v="farm" />
		<tag k="ssr:stedsnr" v="305192" />
		<tag k="ssr:type" v="bruk" />
	</node>
	<node changeset="66108879" id="6190817314" lat="59.4113972" lon="10.2187528" timestamp="2019-01-07T20:37:39Z" uid="3497659" user="NKA" version="1">
		<tag k="alt_name" v="Myre, s;Myre søndre" />
		<tag k="name" v="Søndre Myre" />
		<tag k="place" v="farm" />
		<tag k="ssr:stedsnr" v="427158" />
		<tag k="ssr:type" v="bruk" />
	</node>
	<node changeset="66108879" id="6190817315" lat="59.4327139" lon="10.1044028" timestamp="2019-01-07T20:37:39Z" uid="3497659" user="NKA" version="1">
		<tag k="name" v="Stokkenga" />
		<tag k="place" v="farm" />
		<tag k="ssr:stedsnr" v="427167" />
		<tag k="ssr:type" v="bruk" />
	</node>
	<node changeset="66108879" id="6190817316" lat="59.4080389" lon="10.3073472" timestamp="2019-01-07T20:37:39Z" uid="3497659" user="NKA" version="1">
		<tag k="name" v="Hals n." />
		<tag k="place" v="farm" />
		<tag k="ssr:stedsnr" v="816848" />
		<tag k="ssr:type" v="bruk" />
	</node>
	<node changeset="66108879" id="6190817317" lat="59.4149917" lon="10.1455167" timestamp="2019-01-07T20:37:39Z" uid="3497659" user="NKA" version="1">
		<tag k="name" v="Gjøtterød" />
		<tag k="place" v="farm" />
		<tag k="ssr:stedsnr" v="427188" />
		<tag k="ssr:type" v="bruk" />
	</node>
	<node changeset="66108879" id="6190817318" lat="59.4311833" lon="10.302625" timestamp="2019-01-07T20:37:39Z" uid="3497659" user="NKA" version="1">
		<tag k="name" v="Kurstad" />
		<tag k="place" v="farm" />
		<tag k="ssr:stedsnr" v="427200" />
		<tag k="ssr:type" v="bruk" />
	</node>
	<node changeset="66108879" id="6190817319" lat="59.4413694" lon="10.2876778" timestamp="2019-01-07T20:37:39Z" uid="3497659" user="NKA" version="1">
		<tag k="name" v="Holm søndre" />
		<tag k="place" v="farm" />
		<tag k="ssr:stedsnr" v="816890" />
		<tag k="ssr:type" v="bruk" />
	</node>
	<node changeset="66108879" id="6190817320" lat="59.4264417" lon="10.2927639" timestamp="2019-01-07T20:37:39Z" uid="3497659" user="NKA" version="1">
		<tag k="alt_name" v="Søby søndre" />
		<tag k="name" v="Søby" />
		<tag k="place" v="isolated_dwelling" />
		<tag k="ssr:stedsnr" v="427201" />
		<tag k="ssr:type" v="eneboligMindreBoligbygg" />
	</node>
	<node changeset="66108879" id="6190817321" lat="59.4296028" lon="10.3210778" timestamp="2019-01-07T20:37:39Z" uid="3497659" user="NKA" version="1">
		<tag k="name" v="Torp søndre" />
		<tag k="place" v="farm" />
		<tag k="ssr:stedsnr" v="816894" />
		<tag k="ssr:type" v="bruk" />
	</node>
	<node changeset="66108879" id="6190817322" lat="59.3941167" lon="10.2056861" timestamp="2019-01-07T20:37:39Z" uid="3497659" user="NKA" version="1">
		<tag k="name" v="Fostre" />
		<tag k="place" v="farm" />
		<tag k="ssr:stedsnr" v="305249" />
		<tag k="ssr:type" v="bruk" />
	</node>
	<node changeset="66108879" id="6190817323" lat="59.3773583" lon="10.2829028" timestamp="2019-01-07T20:37:39Z" uid="3497659" user="NKA" version="1">
		<tag k="name" v="Kjølsrud" />
		<tag k="place" v="farm" />
		<tag k="ssr:stedsnr" v="427214" />
		<tag k="ssr:type" v="bruk" />
	</node>
	<node changeset="66108879" id="6190817324" lat="59.3665214" lon="10.1772343" timestamp="2019-01-07T20:37:39Z" uid="3497659" user="NKA" version="1">
		<tag k="name" v="Skjeggerød" />
		<tag k="place" v="farm" />
		<tag k="ssr:stedsnr" v="427221" />
		<tag k="ssr:type" v="bruk" />
	</node>
	<node changeset="66108879" id="6190817325" lat="59.4083278" lon="10.329475" timestamp="2019-01-07T20:37:39Z" uid="3497659" user="NKA" version="1">
		<tag k="name" v="Sando" />
		<tag k="place" v="farm" />
		<tag k="ssr:stedsnr" v="306139" />
		<tag k="ssr:type" v="bruk" />
	</node>
	<node changeset="66108879" id="6190817326" lat="59.3691167" lon="10.1677944" timestamp="2019-01-07T20:37:40Z" uid="3497659" user="NKA" version="1">
		<tag k="name" v="Svinsholt" />
		<tag k="place" v="farm" />
		<tag k="ssr:stedsnr" v="427222" />
		<tag k="ssr:type" v="bruk" />
	</node>
	<node changeset="66108879" id="6190817327" lat="59.3649028" lon="10.2284361" timestamp="2019-01-07T20:37:40Z" uid="3497659" user="NKA" version="1">
		<tag k="name" v="Lyngås" />
		<tag k="place" v="farm" />
		<tag k="ssr:stedsnr" v="427224" />
		<tag k="ssr:type" v="bruk" />
	</node>
	<node changeset="66108879" id="6190817328" lat="59.4195667" lon="10.1106889" timestamp="2019-01-07T20:37:40Z" uid="3497659" user="NKA" version="1">
		<tag k="name" v="Bjørndalen" />
		<tag k="place" v="farm" />
		<tag k="ssr:stedsnr" v="306165" />
		<tag k="ssr:type" v="bruk" />
	</node>
	<node changeset="66108879" id="6190817329" lat="59.4307326" lon="10.2896146" timestamp="2019-01-07T20:37:40Z" uid="3497659" user="NKA" version="1">
		<tag k="name" v="Rånarud" />
		<tag k="place" v="farm" />
		<tag k="ssr:stedsnr" v="306177" />
		<tag k="ssr:type" v="bruk" />
	</node>
	<node changeset="66108879" id="6190817330" lat="59.3606667" lon="10.2638556" timestamp="2019-01-07T20:37:40Z" uid="3497659" user="NKA" version="1">
		<tag k="alt_name" v="Valle nordre" />
		<tag k="name" v="Valle" />
		<tag k="place" v="farm" />
		<tag k="ssr:stedsnr" v="427225" />
		<tag k="ssr:type" v="bruk" />
	</node>
	<node changeset="66108879" id="6190817331" lat="59.3874361" lon="10.1966445" timestamp="2019-01-07T20:37:40Z" uid="3497659" user="NKA" version="1">
		<tag k="name" v="Sukke" />
		<tag k="place" v="farm" />
		<tag k="ssr:stedsnr" v="427236" />
		<tag k="ssr:type" v="bruk" />
	</node>
	<node changeset="66108879" id="6190817332" lat="59.3855556" lon="10.3478389" timestamp="2019-01-07T20:37:40Z" uid="3497659" user="NKA" version="1">
		<tag k="name" v="Østli" />
		<tag k="place" v="farm" />
		<tag k="ssr:stedsnr" v="427550" />
		<tag k="ssr:type" v="bruk" />
	</node>
	<node changeset="66108879" id="6190817333" lat="59.4380444" lon="10.0878139" timestamp="2019-01-07T20:37:40Z" uid="3497659" user="NKA" version="1">
		<tag k="name" v="Skåtan" />
		<tag k="place" v="locality" />
		<tag k="ssr:stedsnr" v="330021" />
		<tag k="ssr:type" v="eiendom" />
	</node>
	<node changeset="66108879" id="6190817334" lat="59.343975" lon="10.2601055" timestamp="2019-01-07T20:37:40Z" uid="3497659" user="NKA" version="1">
		<tag k="alt_name" v="Kirkevold" />
		<tag k="name" v="Kirkevoll" />
		<tag k="place" v="farm" />
		<tag k="ssr:stedsnr" v="427720" />
		<tag k="ssr:type" v="bruk" />
	</node>
	<node changeset="66108879" id="6190817335" lat="59.4415" lon="10.2430278" timestamp="2019-01-07T20:37:40Z" uid="3497659" user="NKA" version="1">
		<tag k="alt_name" v="Rygg søndre" />
		<tag k="name" v="Ryk" />
		<tag k="place" v="farm" />
		<tag k="ssr:stedsnr" v="852080" />
		<tag k="ssr:type" v="bruk" />
	</node>
	<node changeset="66108879" id="6190817336" lat="59.4477667" lon="10.3678639" timestamp="2019-01-07T20:37:40Z" uid="3497659" user="NKA" version="1">
		<tag k="name" v="Helland" />
		<tag k="place" v="farm" />
		<tag k="ssr:stedsnr" v="434648" />
		<tag k="ssr:type" v="bruk" />
	</node>
	<node changeset="66108879" id="6190817337" lat="59.4489139" lon="10.1666111" timestamp="2019-01-07T20:37:40Z" uid="3497659" user="NKA" version="1">
		<tag k="name" v="Sameieplassen" />
		<tag k="place" v="isolated_dwelling" />
		<tag k="ssr:stedsnr" v="852079" />
		<tag k="ssr:type" v="fritidsbolig" />
	</node>
	<node changeset="66108879" id="6190817338" lat="59.4345472" lon="10.1167528" timestamp="2019-01-07T20:37:40Z" uid="3497659" user="NKA" version="1">
		<tag k="alt_name" v="Løn øvre;Østre Løn;Løn, østre" />
		<tag k="name" v="Øvre Løn" />
		<tag k="place" v="farm" />
		<tag k="ssr:stedsnr" v="852090" />
		<tag k="ssr:type" v="gard" />
	</node>
	<node changeset="66108879" id="6190817339" lat="59.4389444" lon="10.08015" timestamp="2019-01-07T20:37:40Z" uid="3497659" user="NKA" version="1">
		<tag k="name" v="Engeroa" />
		<tag k="place" v="farm" />
		<tag k="ssr:stedsnr" v="852089" />
		<tag k="ssr:type" v="bruk" />
	</node>
	<node changeset="66108879" id="6190817340" lat="59.3968" lon="10.0753639" timestamp="2019-01-07T20:37:40Z" uid="3497659" user="NKA" version="1">
		<tag k="historic" v="shieling" />
		<tag k="name" v="Søndre Tuftenseter" />
		<tag k="place" v="locality" />
		<tag k="ssr:stedsnr" v="452065" />
		<tag k="ssr:type" v="seterStøl" />
	</node>
	<node changeset="66108879" id="6190817341" lat="59.4627944" lon="10.1900806" timestamp="2019-01-07T20:37:41Z" uid="3497659" user="NKA" version="1">
		<tag k="alt_name" v="Sjuve" />
		<tag k="name" v="Sjue" />
		<tag k="place" v="farm" />
		<tag k="ssr:stedsnr" v="852113" />
		<tag k="ssr:type" v="bruk" />
	</node>
	<node changeset="66108879" id="6190817342" lat="59.4618833" lon="10.1854778" timestamp="2019-01-07T20:37:41Z" uid="3497659" user="NKA" version="1">
		<tag k="name" v="Haga" />
		<tag k="place" v="farm" />
		<tag k="ssr:stedsnr" v="852112" />
		<tag k="ssr:type" v="bruk" />
	</node>
	<node changeset="66108879" id="6190817343" lat="59.4520444" lon="10.083725" timestamp="2019-01-07T20:37:41Z" uid="3497659" user="NKA" version="1">
		<tag k="name" v="Bergan" />
		<tag k="place" v="farm" />
		<tag k="ssr:stedsnr" v="852122" />
		<tag k="ssr:type" v="bruk" />
	</node>
	<node changeset="66108948" id="6190817344" lat="59.4151889" lon="10.068525" timestamp="2019-01-07T20:40:05Z" uid="3497659" user="NKA" version="2">
		<tag k="alt_name" v="Låneseter" />
		<tag k="historic" v="shieling" />
		<tag k="name" v="Lånesetra" />
		<tag k="place" v="isolated_dwelling" />
		<tag k="ssr:stedsnr" v="852130" />
		<tag k="ssr:type" v="fritidsbolig" />
	</node>
	<node changeset="66108879" id="6190817345" lat="59.3384944" lon="10.2522694" timestamp="2019-01-07T20:37:41Z" uid="3497659" user="NKA" version="1">
		<tag k="name" v="Re" />
		<tag k="place" v="farm" />
		<tag k="ssr:stedsnr" v="452251" />
		<tag k="ssr:type" v="bruk" />
	</node>
	<node changeset="66108879" id="6190817346" lat="59.4193056" lon="10.306875" timestamp="2019-01-07T20:37:41Z" uid="3497659" user="NKA" version="1">
		<tag k="alt_name" v="Sørby mellom" />
		<tag k="name" v="Sørby" />
		<tag k="place" v="isolated_dwelling" />
		<tag k="ssr:stedsnr" v="852135" />
		<tag k="ssr:type" v="eneboligMindreBoligbygg" />
	</node>
	<node changeset="66108879" id="6190817347" lat="59.4196319" lon="10.2537946" timestamp="2019-01-07T20:37:41Z" uid="3497659" user="NKA" version="1">
		<tag k="name" v="Svinevoll" />
		<tag k="place" v="farm" />
		<tag k="ssr:stedsnr" v="852142" />
		<tag k="ssr:type" v="bruk" />
	</node>
	<node changeset="66108879" id="6190817348" lat="59.3736139" lon="10.1695833" timestamp="2019-01-07T20:37:41Z" uid="3497659" user="NKA" version="1">
		<tag k="name" v="Plassen" />
		<tag k="place" v="farm" />
		<tag k="ssr:stedsnr" v="330341" />
		<tag k="ssr:type" v="bruk" />
	</node>
	<node changeset="66108879" id="6190817349" lat="59.3429889" lon="10.2321333" timestamp="2019-01-07T20:37:41Z" uid="3497659" user="NKA" version="1">
		<tag k="name" v="Lerstang" />
		<tag k="place" v="locality" />
		<tag k="ssr:stedsnr" v="452272" />
		<tag k="ssr:type" v="eiendom" />
	</node>
	<node changeset="66108879" id="6190817350" lat="59.41595" lon="10.2591639" timestamp="2019-01-07T20:37:41Z" uid="3497659" user="NKA" version="1">
		<tag k="alt_name" v="Hotvedt" />
		<tag k="name" v="Hotvet" />
		<tag k="place" v="farm" />
		<tag k="ssr:stedsnr" v="852144" />
		<tag k="ssr:type" v="bruk" />
	</node>
	<node changeset="66108879" id="6190817351" lat="59.3892389" lon="10.2021028" timestamp="2019-01-07T20:37:41Z" uid="3497659" user="NKA" version="1">
		<tag k="name" v="Guldaker" />
		<tag k="place" v="farm" />
		<tag k="ssr:stedsnr" v="452286" />
		<tag k="ssr:type" v="bruk" />
	</node>
	<node changeset="66108879" id="6190817352" lat="59.43415" lon="10.1866417" timestamp="2019-01-07T20:37:41Z" uid="3497659" user="NKA" version="1">
		<tag k="alt_name" v="Hvam søndre" />
		<tag k="name" v="Hvam" />
		<tag k="place" v="farm" />
		<tag k="ssr:stedsnr" v="852171" />
		<tag k="ssr:type" v="bruk" />
	</node>
	<node changeset="66108879" id="6190817353" lat="59.4174139" lon="10.1082583" timestamp="2019-01-07T20:37:41Z" uid="3497659" user="NKA" version="1">
		<tag k="name" v="Låne" />
		<tag k="place" v="farm" />
		<tag k="ssr:stedsnr" v="852176" />
		<tag k="ssr:type" v="bruk" />
	</node>
	<node changeset="66108879" id="6190817354" lat="59.3250897" lon="10.2659198" timestamp="2019-01-07T20:37:41Z" uid="3497659" user="NKA" version="1">
		<tag k="name" v="Bjørgum" />
		<tag k="place" v="farm" />
		<tag k="ssr:stedsnr" v="330459" />
		<tag k="ssr:type" v="bruk" />
	</node>
	<node changeset="66108879" id="6190817355" lat="59.324175" lon="10.2360472" timestamp="2019-01-07T20:37:42Z" uid="3497659" user="NKA" version="1">
		<tag k="name" v="Rolighet søndre" />
		<tag k="place" v="farm" />
		<tag k="ssr:stedsnr" v="330462" />
		<tag k="ssr:type" v="bruk" />
	</node>
	<node changeset="66108879" id="6190817356" lat="59.4324766" lon="10.2176137" timestamp="2019-01-07T20:37:42Z" uid="3497659" user="NKA" version="1">
		<tag k="alt_name" v="Bakstevold mellom" />
		<tag k="name" v="Bakstvål" />
		<tag k="place" v="farm" />
		<tag k="ssr:stedsnr" v="852193" />
		<tag k="ssr:type" v="bruk" />
	</node>
	<node changeset="66108879" id="6190817357" lat="59.3697917" lon="10.2482" timestamp="2019-01-07T20:37:42Z" uid="3497659" user="NKA" version="1">
		<tag k="name" v="Gullbrår" />
		<tag k="place" v="farm" />
		<tag k="ssr:stedsnr" v="852200" />
		<tag k="ssr:type" v="bruk" />
	</node>
	<node changeset="66108879" id="6190817358" lat="59.3400056" lon="10.3117833" timestamp="2019-01-07T20:37:42Z" uid="3497659" user="NKA" version="1">
		<tag k="name" v="Skovly" />
		<tag k="place" v="farm" />
		<tag k="ssr:stedsnr" v="330739" />
		<tag k="ssr:type" v="bruk" />
	</node>
	<node changeset="66108879" id="6190817359" lat="59.3957833" lon="10.3095583" timestamp="2019-01-07T20:37:42Z" uid="3497659" user="NKA" version="1">
		<tag k="name" v="Verp" />
		<tag k="place" v="farm" />
		<tag k="ssr:stedsnr" v="852244" />
		<tag k="ssr:type" v="bruk" />
	</node>
	<node changeset="66108879" id="6190817360" lat="59.3939" lon="10.2786695" timestamp="2019-01-07T20:37:42Z" uid="3497659" user="NKA" version="1">
		<tag k="name" v="Tangen" />
		<tag k="place" v="farm" />
		<tag k="ssr:stedsnr" v="852255" />
		<tag k="ssr:type" v="bruk" />
	</node>
	<node changeset="66108879" id="6190817361" lat="59.3708167" lon="10.3697083" timestamp="2019-01-07T20:37:42Z" uid="3497659" user="NKA" version="1">
		<tag k="name" v="Solerød nordre" />
		<tag k="place" v="farm" />
		<tag k="ssr:stedsnr" v="330764" />
		<tag k="ssr:type" v="bruk" />
	</node>
	<node changeset="66108879" id="6190817362" lat="59.3737889" lon="10.3642861" timestamp="2019-01-07T20:37:42Z" uid="3497659" user="NKA" version="1">
		<tag k="name" v="Nordby" />
		<tag k="place" v="farm" />
		<tag k="ssr:stedsnr" v="852546" />
		<tag k="ssr:type" v="bruk" />
	</node>
	<node changeset="66108879" id="6190817363" lat="59.3698361" lon="10.3700222" timestamp="2019-01-07T20:37:42Z" uid="3497659" user="NKA" version="1">
		<tag k="name" v="Solerød" />
		<tag k="place" v="farm" />
		<tag k="ssr:stedsnr" v="330766" />
		<tag k="ssr:type" v="bruk" />
	</node>
	<node changeset="66108879" id="6190817364" lat="59.3468917" lon="10.2204167" timestamp="2019-01-07T20:37:42Z" uid="3497659" user="NKA" version="1">
		<tag k="name" v="Skytøya" />
		<tag k="place" v="farm" />
		<tag k="ssr:stedsnr" v="852716" />
		<tag k="ssr:type" v="bruk" />
	</node>
	<node changeset="66108879" id="6190817365" lat="59.3422444" lon="10.2824417" timestamp="2019-01-07T20:37:42Z" uid="3497659" user="NKA" version="1">
		<tag k="alt_name" v="Heian s" />
		<tag k="name" v="Heian" />
		<tag k="place" v="farm" />
		<tag k="ssr:stedsnr" v="852722" />
		<tag k="ssr:type" v="bruk" />
	</node>
	<node changeset="66108879" id="6190817366" lat="59.3477861" lon="10.3252556" timestamp="2019-01-07T20:37:42Z" uid="3497659" user="NKA" version="1">
		<tag k="alt_name" v="Dal, østre;Dal ø.;Dal ø" />
		<tag k="name" v="Østre Dal" />
		<tag k="place" v="farm" />
		<tag k="ssr:stedsnr" v="852723" />
		<tag k="ssr:type" v="bruk" />
	</node>
	<node changeset="66108879" id="6190817367" lat="59.3771722" lon="10.2925611" timestamp="2019-01-07T20:37:42Z" uid="3497659" user="NKA" version="1">
		<tag k="name" v="Berg søndre" />
		<tag k="place" v="farm" />
		<tag k="ssr:stedsnr" v="330786" />
		<tag k="ssr:type" v="bruk" />
	</node>
	<node changeset="66108879" id="6190817368" lat="59.3650361" lon="10.2673639" timestamp="2019-01-07T20:37:42Z" uid="3497659" user="NKA" version="1">
		<tag k="name" v="Tykkemark" />
		<tag k="place" v="locality" />
		<tag k="ssr:stedsnr" v="452386" />
		<tag k="ssr:type" v="eiendom" />
	</node>
	<node changeset="66108879" id="6190817369" lat="59.3526333" lon="10.2484139" timestamp="2019-01-07T20:37:42Z" uid="3497659" user="NKA" version="1">
		<tag k="name" v="Tufte" />
		<tag k="place" v="farm" />
		<tag k="ssr:stedsnr" v="852744" />
		<tag k="ssr:type" v="bruk" />
	</node>
	<node changeset="66108879" id="6190817370" lat="59.4713361" lon="10.3452167" timestamp="2019-01-07T20:37:43Z" uid="3497659" user="NKA" version="1">
		<tag k="name" v="Verven" />
		<tag k="place" v="farm" />
		<tag k="ssr:stedsnr" v="852899" />
		<tag k="ssr:type" v="bruk" />
	</node>
	<node changeset="66108879" id="6190817371" lat="59.3306056" lon="10.28285" timestamp="2019-01-07T20:37:43Z" uid="3497659" user="NKA" version="1">
		<tag k="name" v="Skalberg" />
		<tag k="place" v="farm" />
		<tag k="ssr:stedsnr" v="330792" />
		<tag k="ssr:type" v="bruk" />
	</node>
	<node changeset="66108879" id="6190817372" lat="59.4573889" lon="10.2116333" timestamp="2019-01-07T20:37:43Z" uid="3497659" user="NKA" version="1">
		<tag k="name" v="Grytemark" />
		<tag k="place" v="farm" />
		<tag k="ssr:stedsnr" v="452541" />
		<tag k="ssr:type" v="bruk" />
	</node>
	<node changeset="66108879" id="6190817373" lat="59.3126639" lon="10.2765833" timestamp="2019-01-07T20:37:43Z" uid="3497659" user="NKA" version="1">
		<tag k="alt_name" v="Aslaksrød" />
		<tag k="name" v="Aslakrød" />
		<tag k="place" v="isolated_dwelling" />
		<tag k="ssr:stedsnr" v="853844" />
		<tag k="ssr:type" v="fritidsbolig" />
	</node>
	<node changeset="66108879" id="6190817374" lat="59.4482528" lon="10.2116278" timestamp="2019-01-07T20:37:43Z" uid="3497659" user="NKA" version="1">
		<tag k="name" v="Kleven" />
		<tag k="place" v="isolated_dwelling" />
		<tag k="ssr:stedsnr" v="452543" />
		<tag k="ssr:type" v="fritidsbolig" />
	</node>
	<node changeset="66108879" id="6190817375" lat="59.4456611" lon="10.3037694" timestamp="2019-01-07T20:37:43Z" uid="3497659" user="NKA" version="1">
		<tag k="name" v="Vissestad" />
		<tag k="place" v="farm" />
		<tag k="ssr:stedsnr" v="330839" />
		<tag k="ssr:type" v="bruk" />
	</node>
	<node changeset="66108879" id="6190817376" lat="59.462175" lon="10.2021889" timestamp="2019-01-07T20:37:43Z" uid="3497659" user="NKA" version="1">
		<tag k="name" v="Tørklep nedre" />
		<tag k="place" v="farm" />
		<tag k="ssr:stedsnr" v="452549" />
		<tag k="ssr:type" v="bruk" />
	</node>
	<node changeset="66108879" id="6190817377" lat="59.3532833" lon="10.3751555" timestamp="2019-01-07T20:37:43Z" uid="3497659" user="NKA" version="1">
		<tag k="name" v="Hem mellom" />
		<tag k="place" v="farm" />
		<tag k="ssr:stedsnr" v="330842" />
		<tag k="ssr:type" v="bruk" />
	</node>
	<node changeset="66108879" id="6190817378" lat="59.4467556" lon="10.2098" timestamp="2019-01-07T20:37:43Z" uid="3497659" user="NKA" version="1">
		<tag k="name" v="Kleven nordre" />
		<tag k="place" v="farm" />
		<tag k="ssr:stedsnr" v="452553" />
		<tag k="ssr:type" v="bruk" />
	</node>
	<node changeset="66108879" id="6190817379" lat="59.4230722" lon="10.0743" timestamp="2019-01-07T20:37:43Z" uid="3497659" user="NKA" version="1">
		<tag k="historic" v="shieling" />
		<tag k="name" v="Bjørndalsseter" />
		<tag k="place" v="locality" />
		<tag k="ssr:stedsnr" v="877009" />
		<tag k="ssr:type" v="seterStøl" />
	</node>
	<node changeset="66108879" id="6190817380" lat="59.4213639" lon="10.3060417" timestamp="2019-01-07T20:37:43Z" uid="3497659" user="NKA" version="1">
		<tag k="name" v="Østeng" />
		<tag k="place" v="farm" />
		<tag k="ssr:stedsnr" v="330849" />
		<tag k="ssr:type" v="bruk" />
	</node>
	<node changeset="66108879" id="6190817381" lat="59.4602083" lon="10.1891889" timestamp="2019-01-07T20:37:43Z" uid="3497659" user="NKA" version="1">
		<tag k="name" v="Sjuve" />
		<tag k="place" v="farm" />
		<tag k="ssr:stedsnr" v="452576" />
		<tag k="ssr:type" v="bruk" />
	</node>
	<node changeset="66108879" id="6190817382" lat="59.4404389" lon="10.0964444" timestamp="2019-01-07T20:37:43Z" uid="3497659" user="NKA" version="1">
		<tag k="name" v="Øvre O" />
		<tag k="place" v="farm" />
		<tag k="ssr:stedsnr" v="877012" />
		<tag k="ssr:type" v="bruk" />
	</node>
	<node changeset="66108879" id="6190817383" lat="59.4543306" lon="10.3562556" timestamp="2019-01-07T20:37:43Z" uid="3497659" user="NKA" version="1">
		<tag k="name" v="Snekkestad nedre" />
		<tag k="place" v="farm" />
		<tag k="ssr:stedsnr" v="330892" />
		<tag k="ssr:type" v="bruk" />
	</node>
	<node changeset="66108879" id="6190817384" lat="59.4222222" lon="10.1155667" timestamp="2019-01-07T20:37:43Z" uid="3497659" user="NKA" version="1">
		<tag k="name" v="Nordre Teien" />
		<tag k="place" v="locality" />
		<tag k="ssr:stedsnr" v="877024" />
		<tag k="ssr:type" v="eiendom" />
	</node>
	<node changeset="66108879" id="6190817298" lat="59.4348056" lon="10.2450833" timestamp="2019-01-07T20:37:38Z" uid="3497659" user="NKA" version="1">
		<tag k="name" v="Hjelmtvedt" />
		<tag k="place" v="farm" />
		<tag k="ssr:stedsnr" v="816690" />
		<tag k="ssr:type" v="bruk" />
	</node>
	<node changeset="66108879" id="5777492374" lat="59.3262938" lon="10.28036" timestamp="2019-01-07T20:37:58Z" uid="3497659" user="NKA" version="2">
		<tag k="name" v="Jarberg" />
		<tag k="place" v="hamlet" />
		<tag k="ssr:stedsnr" v="572387" />
		<tag k="ssr:type" v="boligfelt" />
	</node>
	<node changeset="66108879" id="618512887" lat="59.3475453" lon="10.251679" timestamp="2019-01-07T20:37:57Z" uid="3497659" user="NKA" version="2">
		<tag k="name" v="Ramnes" />
		<tag k="place" v="village" />
		<tag k="ssr:stedsnr" v="573273" />
		<tag k="ssr:type" v="bruk" />
	</node>
	<node changeset="66108879" id="6190817885" lat="59.3998833" lon="10.2309278" timestamp="2019-01-07T20:37:44Z" uid="3497659" user="NKA" version="1">
		<tag k="name" v="Skrikestad ø." />
		<tag k="place" v="farm" />
		<tag k="ssr:stedsnr" v="452588" />
		<tag k="ssr:type" v="bruk" />
	</node>
	<node changeset="66108879" id="6190817886" lat="59.4361452" lon="10.2699537" timestamp="2019-01-07T20:37:44Z" uid="3497659" user="NKA" version="1">
		<tag k="name" v="Gjelstad" />
		<tag k="place" v="farm" />
		<tag k="ssr:stedsnr" v="330896" />
		<tag k="ssr:type" v="bruk" />
	</node>
	<node changeset="66108879" id="6190817887" lat="59.3893472" lon="10.2523306" timestamp="2019-01-07T20:37:44Z" uid="3497659" user="NKA" version="1">
		<tag k="name" v="Fossan n." />
		<tag k="place" v="farm" />
		<tag k="ssr:stedsnr" v="452597" />
		<tag k="ssr:type" v="bruk" />
	</node>
	<node changeset="66108879" id="6190817888" lat="59.3823139" lon="10.1792778" timestamp="2019-01-07T20:37:44Z" uid="3497659" user="NKA" version="1">
		<tag k="name" v="Kalshus" />
		<tag k="place" v="farm" />
		<tag k="ssr:stedsnr" v="331307" />
		<tag k="ssr:type" v="bruk" />
	</node>
	<node changeset="66108879" id="6190817889" lat="59.3865351" lon="10.1994251" timestamp="2019-01-07T20:37:44Z" uid="3497659" user="NKA" version="1">
		<tag k="name" v="Gruva" />
		<tag k="place" v="locality" />
		<tag k="ssr:stedsnr" v="331316" />
		<tag k="ssr:type" v="industriområde" />
	</node>
	<node changeset="66108879" id="6190817890" lat="59.3412556" lon="10.2880944" timestamp="2019-01-07T20:37:44Z" uid="3497659" user="NKA" version="1">
		<tag k="name" v="Klopp m" />
		<tag k="place" v="farm" />
		<tag k="ssr:stedsnr" v="452716" />
		<tag k="ssr:type" v="bruk" />
	</node>
	<node changeset="66108879" id="6190817891" lat="59.4167167" lon="10.1370417" timestamp="2019-01-07T20:37:44Z" uid="3497659" user="NKA" version="1">
		<tag k="name" v="Lusserin" />
		<tag k="place" v="locality" />
		<tag k="ssr:stedsnr" v="877190" />
		<tag k="ssr:type" v="eiendom" />
	</node>
	<node changeset="66108879" id="6190817892" lat="59.3755936" lon="10.2692757" timestamp="2019-01-07T20:37:44Z" uid="3497659" user="NKA" version="1">
		<tag k="name" v="Revetal nordre" />
		<tag k="place" v="farm" />
		<tag k="ssr:stedsnr" v="452734" />
		<tag k="ssr:type" v="bruk" />
	</node>
	<node changeset="66108879" id="6190817893" lat="59.4446472" lon="10.2091778" timestamp="2019-01-07T20:37:44Z" uid="3497659" user="NKA" version="1">
		<tag k="name" v="Kleven søndre" />
		<tag k="place" v="farm" />
		<tag k="ssr:stedsnr" v="331535" />
		<tag k="ssr:type" v="bruk" />
	</node>
	<node changeset="66108879" id="6190817894" lat="59.33705" lon="10.2623083" timestamp="2019-01-07T20:37:44Z" uid="3497659" user="NKA" version="1">
		<tag k="name" v="Jare nordre" />
		<tag k="place" v="farm" />
		<tag k="ssr:stedsnr" v="877301" />
		<tag k="ssr:type" v="bruk" />
	</node>
	<node changeset="66108879" id="6190817895" lat="59.3298972" lon="10.3325917" timestamp="2019-01-07T20:37:44Z" uid="3497659" user="NKA" version="1">
		<tag k="name" v="Bjune østre" />
		<tag k="place" v="farm" />
		<tag k="ssr:stedsnr" v="452762" />
		<tag k="ssr:type" v="bruk" />
	</node>
	<node changeset="66108879" id="6190817896" lat="59.4473639" lon="10.247575" timestamp="2019-01-07T20:37:44Z" uid="3497659" user="NKA" version="1">
		<tag k="name" v="Lærum nordre" />
		<tag k="place" v="farm" />
		<tag k="ssr:stedsnr" v="331546" />
		<tag k="ssr:type" v="bruk" />
	</node>
	<node changeset="66108879" id="6190817897" lat="59.3800722" lon="10.3013083" timestamp="2019-01-07T20:37:44Z" uid="3497659" user="NKA" version="1">
		<tag k="name" v="Slette-Berg" />
		<tag k="place" v="farm" />
		<tag k="ssr:stedsnr" v="452772" />
		<tag k="ssr:type" v="bruk" />
	</node>
	<node changeset="66108879" id="6190817898" lat="59.3818389" lon="10.2343639" timestamp="2019-01-07T20:37:44Z" uid="3497659" user="NKA" version="1">
		<tag k="alt_name" v="Kile v." />
		<tag k="name" v="Kile" />
		<tag k="place" v="farm" />
		<tag k="ssr:stedsnr" v="427261" />
		<tag k="ssr:type" v="bruk" />
	</node>
	<node changeset="66108879" id="6190817899" lat="59.3870848" lon="10.2910597" timestamp="2019-01-07T20:37:44Z" uid="3497659" user="NKA" version="1">
		<tag k="name" v="Berg mellom" />
		<tag k="place" v="farm" />
		<tag k="ssr:stedsnr" v="452780" />
		<tag k="ssr:type" v="bruk" />
	</node>
	<node changeset="66108879" id="6190817900" lat="59.3992333" lon="10.2578194" timestamp="2019-01-07T20:37:45Z" uid="3497659" user="NKA" version="1">
		<tag k="name" v="Bakke søndre" />
		<tag k="place" v="farm" />
		<tag k="ssr:stedsnr" v="331576" />
		<tag k="ssr:type" v="bruk" />
	</node>
	<node changeset="66108879" id="6190817901" lat="59.4133667" lon="10.2383722" timestamp="2019-01-07T20:37:45Z" uid="3497659" user="NKA" version="1">
		<tag k="name" v="Hegg bruk" />
		<tag k="place" v="farm" />
		<tag k="ssr:stedsnr" v="877345" />
		<tag k="ssr:type" v="bruk" />
	</node>
	<node changeset="66108879" id="6190817902" lat="59.3555278" lon="10.3743639" timestamp="2019-01-07T20:37:45Z" uid="3497659" user="NKA" version="1">
		<tag k="name" v="Hem nordre" />
		<tag k="place" v="farm" />
		<tag k="ssr:stedsnr" v="452816" />
		<tag k="ssr:type" v="bruk" />
	</node>
	<node changeset="66108879" id="6190817903" lat="59.4181611" lon="10.3158444" timestamp="2019-01-07T20:37:45Z" uid="3497659" user="NKA" version="1">
		<tag k="name" v="Opsahl nordre" />
		<tag k="place" v="farm" />
		<tag k="ssr:stedsnr" v="452829" />
		<tag k="ssr:type" v="bruk" />
	</node>
	<node changeset="66108879" id="6190817904" lat="59.419349" lon="10.3226558" timestamp="2019-01-07T20:37:45Z" uid="3497659" user="NKA" version="1">
		<tag k="name" v="Malmø nedre" />
		<tag k="place" v="farm" />
		<tag k="ssr:stedsnr" v="452832" />
		<tag k="ssr:type" v="bruk" />
	</node>
	<node changeset="66108879" id="6190817905" lat="59.3812218" lon="10.2805554" timestamp="2019-01-07T20:37:45Z" uid="3497659" user="NKA" version="1">
		<tag k="name" v="Ormestad" />
		<tag k="place" v="farm" />
		<tag k="ssr:stedsnr" v="452834" />
		<tag k="ssr:type" v="bruk" />
	</node>
	<node changeset="66108879" id="6190817906" lat="59.3661889" lon="10.2466833" timestamp="2019-01-07T20:37:45Z" uid="3497659" user="NKA" version="1">
		<tag k="name" v="Bergan" />
		<tag k="place" v="isolated_dwelling" />
		<tag k="ssr:stedsnr" v="877387" />
		<tag k="ssr:type" v="fritidsbolig" />
	</node>
	<node changeset="66108879" id="6190817907" lat="59.4312944" lon="10.2733806" timestamp="2019-01-07T20:37:45Z" uid="3497659" user="NKA" version="1">
		<tag k="name" v="Hornet" />
		<tag k="place" v="farm" />
		<tag k="ssr:stedsnr" v="452885" />
		<tag k="ssr:type" v="bruk" />
	</node>
	<node changeset="66108879" id="6190817908" lat="59.4398306" lon="10.2982222" timestamp="2019-01-07T20:37:45Z" uid="3497659" user="NKA" version="1">
		<tag k="name" v="Haslestad søndre" />
		<tag k="place" v="farm" />
		<tag k="ssr:stedsnr" v="331901" />
		<tag k="ssr:type" v="bruk" />
	</node>
	<node changeset="66108879" id="6190817909" lat="59.4310556" lon="10.271025" timestamp="2019-01-07T20:37:45Z" uid="3497659" user="NKA" version="1">
		<tag k="name" v="Veierud" />
		<tag k="place" v="farm" />
		<tag k="ssr:stedsnr" v="452887" />
		<tag k="ssr:type" v="bruk" />
	</node>
	<node changeset="66108879" id="6190817910" lat="59.4326111" lon="10.2025972" timestamp="2019-01-07T20:37:45Z" uid="3497659" user="NKA" version="1">
		<tag k="name" v="Kranstad nedre" />
		<tag k="place" v="farm" />
		<tag k="ssr:stedsnr" v="877545" />
		<tag k="ssr:type" v="bruk" />
	</node>
	<node changeset="66108879" id="6190817911" lat="59.4296556" lon="10.1832833" timestamp="2019-01-07T20:37:45Z" uid="3497659" user="NKA" version="1">
		<tag k="name" v="Ødefjell søndre" />
		<tag k="place" v="farm" />
		<tag k="ssr:stedsnr" v="877548" />
		<tag k="ssr:type" v="bruk" />
	</node>
	<node changeset="66108879" id="6190817912" lat="59.4393056" lon="10.0947306" timestamp="2019-01-07T20:37:45Z" uid="3497659" user="NKA" version="1">
		<tag k="name" v="Nedre O" />
		<tag k="place" v="farm" />
		<tag k="ssr:stedsnr" v="148015" />
		<tag k="ssr:type" v="bruk" />
	</node>
	<node changeset="66108879" id="6190817913" lat="59.4444417" lon="10.1247139" timestamp="2019-01-07T20:37:45Z" uid="3497659" user="NKA" version="1">
		<tag k="name" v="Lie" />
		<tag k="place" v="farm" />
		<tag k="ssr:stedsnr" v="487061" />
		<tag k="ssr:type" v="bruk" />
	</node>
	<node changeset="66108879" id="6190817914" lat="59.4457119" lon="10.2779053" timestamp="2019-01-07T20:37:45Z" uid="3497659" user="NKA" version="1">
		<tag k="alt_name" v="Holm vestre" />
		<tag k="name" v="Holm" />
		<tag k="place" v="farm" />
		<tag k="ssr:stedsnr" v="366073" />
		<tag k="ssr:type" v="bruk" />
	</node>
	<node changeset="66108879" id="6190817915" lat="59.4377528" lon="10.1121361" timestamp="2019-01-07T20:37:46Z" uid="3497659" user="NKA" version="1">
		<tag k="alt_name" v="Løn, nordre;Løn nedre;Nordre Løn" />
		<tag k="name" v="Nedre Løn" />
		<tag k="place" v="farm" />
		<tag k="ssr:stedsnr" v="366082" />
		<tag k="ssr:type" v="gard" />
	</node>
	<node changeset="66108948" id="6190817916" lat="59.4265556" lon="10.170375" timestamp="2019-01-07T20:40:05Z" uid="3497659" user="NKA" version="2">
		<tag k="historic" v="shieling" />
		<tag k="name" v="Myresetra" />
		<tag k="place" v="isolated_dwelling" />
		<tag k="ssr:stedsnr" v="487159" />
		<tag k="ssr:type" v="fritidsbolig" />
	</node>
	<node changeset="66108879" id="6190817917" lat="59.3842139" lon="10.2269333" timestamp="2019-01-07T20:37:46Z" uid="3497659" user="NKA" version="1">
		<tag k="name" v="Svingen" />
		<tag k="place" v="isolated_dwelling" />
		<tag k="ssr:stedsnr" v="877602" />
		<tag k="ssr:type" v="fritidsbolig" />
	</node>
	<node changeset="66108879" id="6190817918" lat="59.4323917" lon="10.1429833" timestamp="2019-01-07T20:37:46Z" uid="3497659" user="NKA" version="1">
		<tag k="name" v="Dalen" />
		<tag k="place" v="isolated_dwelling" />
		<tag k="ssr:stedsnr" v="366151" />
		<tag k="ssr:type" v="eneboligMindreBoligbygg" />
	</node>
	<node changeset="66108879" id="6190817919" lat="59.4385944" lon="10.3060806" timestamp="2019-01-07T20:37:46Z" uid="3497659" user="NKA" version="1">
		<tag k="alt_name" v="Haraldstad nordre" />
		<tag k="name" v="Haraldstad" />
		<tag k="place" v="farm" />
		<tag k="ssr:stedsnr" v="487162" />
		<tag k="ssr:type" v="bruk" />
	</node>
	<node changeset="66108879" id="6190817920" lat="59.4372278" lon="10.3153194" timestamp="2019-01-07T20:37:46Z" uid="3497659" user="NKA" version="1">
		<tag k="alt_name" v="Rostad nordre" />
		<tag k="name" v="Rostad" />
		<tag k="place" v="farm" />
		<tag k="ssr:stedsnr" v="366162" />
		<tag k="ssr:type" v="bruk" />
	</node>
	<node changeset="66108879" id="6190817921" lat="59.4386778" lon="10.2386389" timestamp="2019-01-07T20:37:46Z" uid="3497659" user="NKA" version="1">
		<tag k="alt_name" v="Hjelmtvedt" />
		<tag k="name" v="Hjelmtvet" />
		<tag k="place" v="farm" />
		<tag k="ssr:stedsnr" v="487166" />
		<tag k="ssr:type" v="bruk" />
	</node>
	<node changeset="66108879" id="6190817922" lat="59.3275694" lon="10.2978111" timestamp="2019-01-07T20:37:46Z" uid="3497659" user="NKA" version="1">
		<tag k="name" v="Klopp" />
		<tag k="place" v="farm" />
		<tag k="ssr:stedsnr" v="877675" />
		<tag k="ssr:type" v="bruk" />
	</node>
	<node changeset="66108879" id="6190817923" lat="59.4265417" lon="10.2611861" timestamp="2019-01-07T20:37:46Z" uid="3497659" user="NKA" version="1">
		<tag k="alt_name" v="Siltvedt" />
		<tag k="name" v="Siltvet" />
		<tag k="place" v="farm" />
		<tag k="ssr:stedsnr" v="366182" />
		<tag k="ssr:type" v="bruk" />
	</node>
	<node changeset="66108879" id="6190817924" lat="59.3739969" lon="10.2921336" timestamp="2019-01-07T20:37:46Z" uid="3497659" user="NKA" version="1">
		<tag k="name" v="Lefsrød" />
		<tag k="place" v="farm" />
		<tag k="ssr:stedsnr" v="487189" />
		<tag k="ssr:type" v="bruk" />
	</node>
	<node changeset="66108879" id="6190817925" lat="59.3750806" lon="10.1994306" timestamp="2019-01-07T20:37:46Z" uid="3497659" user="NKA" version="1">
		<tag k="name" v="Bakke" />
		<tag k="place" v="farm" />
		<tag k="ssr:stedsnr" v="366188" />
		<tag k="ssr:type" v="bruk" />
	</node>
	<node changeset="66108879" id="6190817926" lat="59.3824306" lon="10.2714278" timestamp="2019-01-07T20:37:46Z" uid="3497659" user="NKA" version="1">
		<tag k="name" v="Bjerke" />
		<tag k="place" v="farm" />
		<tag k="ssr:stedsnr" v="487195" />
		<tag k="ssr:type" v="bruk" />
	</node>
	<node changeset="66108879" id="6190817927" lat="59.3708056" lon="10.2168944" timestamp="2019-01-07T20:37:46Z" uid="3497659" user="NKA" version="1">
		<tag k="alt_name" v="Dal v" />
		<tag k="name" v="Dal" />
		<tag k="place" v="farm" />
		<tag k="ssr:stedsnr" v="366191" />
		<tag k="ssr:type" v="bruk" />
	</node>
	<node changeset="66108879" id="6190817928" lat="59.3916833" lon="10.132475" timestamp="2019-01-07T20:37:46Z" uid="3497659" user="NKA" version="1">
		<tag k="alt_name" v="Ektvedt s." />
		<tag k="name" v="Ektvet" />
		<tag k="place" v="farm" />
		<tag k="ssr:stedsnr" v="487225" />
		<tag k="ssr:type" v="bruk" />
	</node>
	<node changeset="66108879" id="6190817929" lat="59.3485056" lon="10.2790167" timestamp="2019-01-07T20:37:47Z" uid="3497659" user="NKA" version="1">
		<tag k="name" v="Heian n" />
		<tag k="place" v="farm" />
		<tag k="ssr:stedsnr" v="877736" />
		<tag k="ssr:type" v="bruk" />
	</node>
	<node changeset="66108879" id="6190817930" lat="59.3915583" lon="10.300925" timestamp="2019-01-07T20:37:47Z" uid="3497659" user="NKA" version="1">
		<tag k="alt_name" v="Ulsrud" />
		<tag k="name" v="Ulfsrud" />
		<tag k="place" v="farm" />
		<tag k="ssr:stedsnr" v="487243" />
		<tag k="ssr:type" v="bruk" />
	</node>
	<node changeset="66108879" id="6190817931" lat="59.3385389" lon="10.2870695" timestamp="2019-01-07T20:37:47Z" uid="3497659" user="NKA" version="1">
		<tag k="name" v="Klopp v" />
		<tag k="place" v="farm" />
		<tag k="ssr:stedsnr" v="877737" />
		<tag k="ssr:type" v="bruk" />
	</node>
	<node changeset="66108879" id="6190817932" lat="59.3759083" lon="10.3048306" timestamp="2019-01-07T20:37:47Z" uid="3497659" user="NKA" version="1">
		<tag k="name" v="Gorte" />
		<tag k="place" v="farm" />
		<tag k="ssr:stedsnr" v="366196" />
		<tag k="ssr:type" v="bruk" />
	</node>
	<node changeset="66108879" id="6190817933" lat="59.3791611" lon="10.1911083" timestamp="2019-01-07T20:37:47Z" uid="3497659" user="NKA" version="1">
		<tag k="alt_name" v="Horntvedt" />
		<tag k="name" v="Horntvet" />
		<tag k="place" v="farm" />
		<tag k="ssr:stedsnr" v="366232" />
		<tag k="ssr:type" v="bruk" />
	</node>
	<node changeset="66108879" id="6190817934" lat="59.3902583" lon="10.2903278" timestamp="2019-01-07T20:37:47Z" uid="3497659" user="NKA" version="1">
		<tag k="alt_name" v="Berg, nordre" />
		<tag k="name" v="Nordre Berg" />
		<tag k="place" v="farm" />
		<tag k="ssr:stedsnr" v="487246" />
		<tag k="ssr:type" v="bruk" />
	</node>
	<node changeset="66108879" id="6190817935" lat="59.3633583" lon="10.3386445" timestamp="2019-01-07T20:37:47Z" uid="3497659" user="NKA" version="1">
		<tag k="name" v="Heum søndre" />
		<tag k="place" v="farm" />
		<tag k="ssr:stedsnr" v="877742" />
		<tag k="ssr:type" v="bruk" />
	</node>
	<node changeset="66108879" id="6190817936" lat="59.4099111" lon="10.1357944" timestamp="2019-01-07T20:37:47Z" uid="3497659" user="NKA" version="1">
		<tag k="alt_name" v="Langved m." />
		<tag k="name" v="Langved" />
		<tag k="place" v="farm" />
		<tag k="ssr:stedsnr" v="488116" />
		<tag k="ssr:type" v="bruk" />
	</node>
	<node changeset="66108879" id="6190817937" lat="59.3957972" lon="10.2384695" timestamp="2019-01-07T20:37:47Z" uid="3497659" user="NKA" version="1">
		<tag k="alt_name" v="Ås n." />
		<tag k="name" v="Ås" />
		<tag k="place" v="farm" />
		<tag k="ssr:stedsnr" v="366239" />
		<tag k="ssr:type" v="bruk" />
	</node>
	<node changeset="66108879" id="6190817938" lat="59.39675" lon="10.3638528" timestamp="2019-01-07T20:37:47Z" uid="3497659" user="NKA" version="1">
		<tag k="name" v="Flår" />
		<tag k="place" v="farm" />
		<tag k="ssr:stedsnr" v="366537" />
		<tag k="ssr:type" v="bruk" />
	</node>
	<node changeset="66108879" id="6190817939" lat="59.3648" lon="10.3112028" timestamp="2019-01-07T20:37:47Z" uid="3497659" user="NKA" version="1">
		<tag k="name" v="Venås s." />
		<tag k="place" v="farm" />
		<tag k="ssr:stedsnr" v="877756" />
		<tag k="ssr:type" v="bruk" />
	</node>
	<node changeset="66108879" id="6190817940" lat="59.3872543" lon="10.3644285" timestamp="2019-01-07T20:37:47Z" uid="3497659" user="NKA" version="1">
		<tag k="name" v="Døvik" />
		<tag k="place" v="hamlet" />
		<tag k="ssr:stedsnr" v="366544" />
		<tag k="ssr:type" v="bruk" />
	</node>
	<node changeset="66108879" id="6190817941" lat="59.3803278" lon="10.3624889" timestamp="2019-01-07T20:37:47Z" uid="3497659" user="NKA" version="1">
		<tag k="name" v="Knutstad" />
		<tag k="place" v="farm" />
		<tag k="ssr:stedsnr" v="366560" />
		<tag k="ssr:type" v="bruk" />
	</node>
	<node changeset="66108879" id="6190817942" lat="59.4124056" lon="10.3247528" timestamp="2019-01-07T20:37:47Z" uid="3497659" user="NKA" version="1">
		<tag k="name" v="Sande" />
		<tag k="place" v="farm" />
		<tag k="ssr:stedsnr" v="488139" />
		<tag k="ssr:type" v="bruk" />
	</node>
	<node changeset="66108879" id="6190817943" lat="59.3879083" lon="10.3544056" timestamp="2019-01-07T20:37:47Z" uid="3497659" user="NKA" version="1">
		<tag k="name" v="Nyerrød-Bergan" />
		<tag k="place" v="farm" />
		<tag k="ssr:stedsnr" v="877799" />
		<tag k="ssr:type" v="bruk" />
	</node>
	<node changeset="66108879" id="6190817944" lat="59.3476" lon="10.3776889" timestamp="2019-01-07T20:37:48Z" uid="3497659" user="NKA" version="1">
		<tag k="alt_name" v="Hem søndre" />
		<tag k="name" v="Hem" />
		<tag k="place" v="farm" />
		<tag k="ssr:stedsnr" v="366590" />
		<tag k="ssr:type" v="bruk" />
	</node>
	<node changeset="66108879" id="6190817945" lat="59.4075361" lon="10.2579194" timestamp="2019-01-07T20:37:48Z" uid="3497659" user="NKA" version="1">
		<tag k="alt_name" v="Frellumstad nedre" />
		<tag k="name" v="Frellumstad" />
		<tag k="place" v="farm" />
		<tag k="ssr:stedsnr" v="488142" />
		<tag k="ssr:type" v="bruk" />
	</node>
	<node changeset="66108879" id="6190817946" lat="59.3585639" lon="10.1787083" timestamp="2019-01-07T20:37:48Z" uid="3497659" user="NKA" version="1">
		<tag k="name" v="Mørken" />
		<tag k="place" v="farm" />
		<tag k="ssr:stedsnr" v="366761" />
		<tag k="ssr:type" v="bruk" />
	</node>
	<node changeset="66108879" id="6190817947" lat="59.401975" lon="10.2401528" timestamp="2019-01-07T20:37:48Z" uid="3497659" user="NKA" version="1">
		<tag k="name" v="Holmane" />
		<tag k="place" v="farm" />
		<tag k="ssr:stedsnr" v="488191" />
		<tag k="ssr:type" v="bruk" />
	</node>
	<node changeset="66108879" id="6190817948" lat="59.3988583" lon="10.27935" timestamp="2019-01-07T20:37:48Z" uid="3497659" user="NKA" version="1">
		<tag k="name" v="Haugtuft" />
		<tag k="place" v="farm" />
		<tag k="ssr:stedsnr" v="488197" />
		<tag k="ssr:type" v="bruk" />
	</node>
	<node changeset="66108879" id="6190817949" lat="59.4171333" lon="10.334075" timestamp="2019-01-07T20:37:48Z" uid="3497659" user="NKA" version="1">
		<tag k="name" v="Haugan nordre" />
		<tag k="place" v="farm" />
		<tag k="ssr:stedsnr" v="877842" />
		<tag k="ssr:type" v="bruk" />
	</node>
	<node changeset="66108879" id="6190817950" lat="59.3256333" lon="10.2939417" timestamp="2019-01-07T20:37:48Z" uid="3497659" user="NKA" version="1">
		<tag k="name" v="Himberg" />
		<tag k="place" v="farm" />
		<tag k="ssr:stedsnr" v="366795" />
		<tag k="ssr:type" v="bruk" />
	</node>
	<node changeset="66108879" id="6190817951" lat="59.3496083" lon="10.2322639" timestamp="2019-01-07T20:37:48Z" uid="3497659" user="NKA" version="1">
		<tag k="alt_name" v="Svinnigen" />
		<tag k="name" v="Svinningen" />
		<tag k="place" v="farm" />
		<tag k="ssr:stedsnr" v="488749" />
		<tag k="ssr:type" v="bruk" />
	</node>
	<node changeset="66108879" id="6190817952" lat="59.4137417" lon="10.3353556" timestamp="2019-01-07T20:37:48Z" uid="3497659" user="NKA" version="1">
		<tag k="name" v="Bakke" />
		<tag k="place" v="farm" />
		<tag k="ssr:stedsnr" v="877845" />
		<tag k="ssr:type" v="bruk" />
	</node>
	<node changeset="66108879" id="6190817953" lat="59.3236446" lon="10.2677746" timestamp="2019-01-07T20:37:48Z" uid="3497659" user="NKA" version="1">
		<tag k="name" v="Ås" />
		<tag k="place" v="farm" />
		<tag k="ssr:stedsnr" v="366796" />
		<tag k="ssr:type" v="bruk" />
	</node>
	<node changeset="66108879" id="6190817954" lat="59.3464278" lon="10.2323778" timestamp="2019-01-07T20:37:48Z" uid="3497659" user="NKA" version="1">
		<tag k="name" v="Jonstang" />
		<tag k="place" v="farm" />
		<tag k="ssr:stedsnr" v="488750" />
		<tag k="ssr:type" v="bruk" />
	</node>
	<node changeset="66108879" id="6190817955" lat="59.454875" lon="10.3447056" timestamp="2019-01-07T20:37:48Z" uid="3497659" user="NKA" version="1">
		<tag k="name" v="Valtersborg" />
		<tag k="place" v="farm" />
		<tag k="ssr:stedsnr" v="366949" />
		<tag k="ssr:type" v="bruk" />
	</node>
	<node changeset="66108879" id="6190817956" lat="59.3194111" lon="10.3027361" timestamp="2019-01-07T20:37:48Z" uid="3497659" user="NKA" version="1">
		<tag k="name" v="Himberg" />
		<tag k="place" v="farm" />
		<tag k="ssr:stedsnr" v="367767" />
		<tag k="ssr:type" v="bruk" />
	</node>
	<node changeset="66108879" id="6190817957" lat="59.3399094" lon="10.3232106" timestamp="2019-01-07T20:37:48Z" uid="3497659" user="NKA" version="1">
		<tag k="name" v="Bjune" />
		<tag k="place" v="farm" />
		<tag k="ssr:stedsnr" v="488794" />
		<tag k="ssr:type" v="bruk" />
	</node>
	<node changeset="66108879" id="6190817958" lat="59.3636194" lon="10.2497694" timestamp="2019-01-07T20:37:49Z" uid="3497659" user="NKA" version="1">
		<tag k="name" v="Bergsåsen" />
		<tag k="place" v="quarter" />
		<tag k="ssr:stedsnr" v="390348" />
		<tag k="ssr:type" v="boligfelt" />
	</node>
	<node changeset="66108879" id="6190817959" lat="59.3728384" lon="10.2989462" timestamp="2019-01-07T20:37:49Z" uid="3497659" user="NKA" version="1">
		<tag k="name" v="Hette" />
		<tag k="place" v="farm" />
		<tag k="ssr:stedsnr" v="511335" />
		<tag k="ssr:type" v="bruk" />
	</node>
	<node changeset="66108879" id="6190817960" lat="59.4267694" lon="10.3174778" timestamp="2019-01-07T20:37:49Z" uid="3497659" user="NKA" version="1">
		<tag k="name" v="Haugestad søndre" />
		<tag k="place" v="farm" />
		<tag k="ssr:stedsnr" v="877900" />
		<tag k="ssr:type" v="bruk" />
	</node>
	<node changeset="66108879" id="6190817961" lat="59.428025" lon="10.3149444" timestamp="2019-01-07T20:37:49Z" uid="3497659" user="NKA" version="1">
		<tag k="name" v="Haugestad nordre" />
		<tag k="place" v="farm" />
		<tag k="ssr:stedsnr" v="877902" />
		<tag k="ssr:type" v="bruk" />
	</node>
	<node changeset="66108879" id="6190817962" lat="59.3268333" lon="10.2717194" timestamp="2019-01-07T20:37:49Z" uid="3497659" user="NKA" version="1">
		<tag k="name" v="Haug" />
		<tag k="place" v="farm" />
		<tag k="ssr:stedsnr" v="390729" />
		<tag k="ssr:type" v="bruk" />
	</node>
	<node changeset="66108879" id="6190817963" lat="59.431525" lon="10.0754111" timestamp="2019-01-07T20:37:49Z" uid="3497659" user="NKA" version="1">
		<tag k="historic" v="shieling" />
		<tag k="name" v="Ouffsetra" />
		<tag k="place" v="locality" />
		<tag k="ssr:stedsnr" v="512003" />
		<tag k="ssr:type" v="seterStøl" />
	</node>
	<node changeset="66108879" id="6190817964" lat="59.427975" lon="10.1272278" timestamp="2019-01-07T20:37:49Z" uid="3497659" user="NKA" version="1">
		<tag k="name" v="Sagatun" />
		<tag k="place" v="farm" />
		<tag k="ssr:stedsnr" v="512019" />
		<tag k="ssr:type" v="bruk" />
	</node>
	<node changeset="66108879" id="6190817965" lat="59.4406333" lon="10.0874167" timestamp="2019-01-07T20:37:49Z" uid="3497659" user="NKA" version="1">
		<tag k="name" v="Øvre Orrevål" />
		<tag k="place" v="farm" />
		<tag k="ssr:stedsnr" v="391013" />
		<tag k="ssr:type" v="bruk" />
	</node>
	<node changeset="66108879" id="6190817966" lat="59.4275917" lon="10.1230111" timestamp="2019-01-07T20:37:49Z" uid="3497659" user="NKA" version="1">
		<tag k="name" v="Bårnes" />
		<tag k="place" v="farm" />
		<tag k="ssr:stedsnr" v="512021" />
		<tag k="ssr:type" v="bruk" />
	</node>
	<node changeset="66108879" id="6190817967" lat="59.4287917" lon="10.1381583" timestamp="2019-01-07T20:37:49Z" uid="3497659" user="NKA" version="1">
		<tag k="name" v="Nedre Vivestad" />
		<tag k="place" v="farm" />
		<tag k="ssr:stedsnr" v="909029" />
		<tag k="ssr:type" v="gard" />
	</node>
	<node changeset="66108879" id="6190817968" lat="59.39325" lon="10.1408972" timestamp="2019-01-07T20:37:49Z" uid="3497659" user="NKA" version="1">
		<tag k="name" v="Hauen" />
		<tag k="place" v="farm" />
		<tag k="ssr:stedsnr" v="391091" />
		<tag k="ssr:type" v="bruk" />
	</node>
	<node changeset="66108879" id="6190817969" lat="59.3922222" lon="10.1090083" timestamp="2019-01-07T20:37:49Z" uid="3497659" user="NKA" version="1">
		<tag k="name" v="Kleikås" />
		<tag k="place" v="farm" />
		<tag k="ssr:stedsnr" v="512083" />
		<tag k="ssr:type" v="bruk" />
	</node>
	<node changeset="66108879" id="6190817970" lat="59.4672667" lon="10.34525" timestamp="2019-01-07T20:37:49Z" uid="3497659" user="NKA" version="1">
		<tag k="name" v="Almedalen" />
		<tag k="place" v="hamlet" />
		<tag k="ssr:stedsnr" v="913908" />
		<tag k="ssr:type" v="bruk" />
	</node>
	<node changeset="66108879" id="6190817971" lat="59.3813361" lon="10.1540556" timestamp="2019-01-07T20:37:49Z" uid="3497659" user="NKA" version="1">
		<tag k="name" v="Tronka" />
		<tag k="place" v="farm" />
		<tag k="ssr:stedsnr" v="512090" />
		<tag k="ssr:type" v="bruk" />
	</node>
	<node changeset="66108879" id="6190817972" lat="59.4525417" lon="10.2853611" timestamp="2019-01-07T20:37:50Z" uid="3497659" user="NKA" version="1">
		<tag k="name" v="Olumstad" />
		<tag k="place" v="farm" />
		<tag k="ssr:stedsnr" v="912069" />
		<tag k="ssr:type" v="bruk" />
	</node>
	<node changeset="66108879" id="6190817973" lat="59.4470583" lon="10.0925555" timestamp="2019-01-07T20:37:50Z" uid="3497659" user="NKA" version="1">
		<tag k="name" v="Kvotoa" />
		<tag k="place" v="locality" />
		<tag k="ssr:stedsnr" v="391102" />
		<tag k="ssr:type" v="eiendom" />
	</node>
	<node changeset="66108879" id="6190817974" lat="59.4322528" lon="10.1955306" timestamp="2019-01-07T20:37:50Z" uid="3497659" user="NKA" version="1">
		<tag k="alt_name" v="Holtung nordre" />
		<tag k="name" v="Holtung" />
		<tag k="place" v="farm" />
		<tag k="ssr:stedsnr" v="912182" />
		<tag k="ssr:type" v="bruk" />
	</node>
	<node changeset="66108879" id="6190817975" lat="59.3758028" lon="10.2048083" timestamp="2019-01-07T20:37:50Z" uid="3497659" user="NKA" version="1">
		<tag k="name" v="Holt" />
		<tag k="place" v="farm" />
		<tag k="ssr:stedsnr" v="912184" />
		<tag k="ssr:type" v="bruk" />
	</node>
	<node changeset="66108879" id="6190817976" lat="59.4185833" lon="10.1082806" timestamp="2019-01-07T20:37:50Z" uid="3497659" user="NKA" version="1">
		<tag k="name" v="Låne n." />
		<tag k="place" v="farm" />
		<tag k="ssr:stedsnr" v="391186" />
		<tag k="ssr:type" v="bruk" />
	</node>
	<node changeset="66108879" id="6190817977" lat="59.37215" lon="10.2734333" timestamp="2019-01-07T20:37:50Z" uid="3497659" user="NKA" version="1">
		<tag k="name" v="Rørås" />
		<tag k="place" v="farm" />
		<tag k="ssr:stedsnr" v="912189" />
		<tag k="ssr:type" v="bruk" />
	</node>
	<node changeset="66108879" id="6190817978" lat="59.3839444" lon="10.2490889" timestamp="2019-01-07T20:37:50Z" uid="3497659" user="NKA" version="1">
		<tag k="alt_name" v="Firing s." />
		<tag k="name" v="Firing" />
		<tag k="place" v="farm" />
		<tag k="ssr:stedsnr" v="912190" />
		<tag k="ssr:type" v="bruk" />
	</node>
	<node changeset="66108879" id="6190817979" lat="59.3788417" lon="10.2914445" timestamp="2019-01-07T20:37:50Z" uid="3497659" user="NKA" version="1">
		<tag k="alt_name" v="Berg, s;Berg søndre" />
		<tag k="name" v="Søndre Berg" />
		<tag k="place" v="farm" />
		<tag k="ssr:stedsnr" v="912195" />
		<tag k="ssr:type" v="bruk" />
	</node>
	<node changeset="66108879" id="6190817980" lat="59.3434972" lon="10.26555" timestamp="2019-01-07T20:37:50Z" uid="3497659" user="NKA" version="1">
		<tag k="name" v="Kirkevold" />
		<tag k="place" v="farm" />
		<tag k="ssr:stedsnr" v="391304" />
		<tag k="ssr:type" v="bruk" />
	</node>
	<node changeset="66108879" id="6190817981" lat="59.3505389" lon="10.2648833" timestamp="2019-01-07T20:37:50Z" uid="3497659" user="NKA" version="1">
		<tag k="alt_name" v="Ramnes" />
		<tag k="name" v="Ramnes nordre" />
		<tag k="place" v="farm" />
		<tag k="ssr:stedsnr" v="512258" />
		<tag k="ssr:type" v="bruk" />
	</node>
	<node changeset="66108879" id="6190817982" lat="59.3833083" lon="10.2098778" timestamp="2019-01-07T20:37:50Z" uid="3497659" user="NKA" version="1">
		<tag k="name" v="Holt" />
		<tag k="place" v="farm" />
		<tag k="ssr:stedsnr" v="912248" />
		<tag k="ssr:type" v="bruk" />
	</node>
	<node changeset="66108879" id="6190817983" lat="59.3641255" lon="10.3690251" timestamp="2019-01-07T20:37:50Z" uid="3497659" user="NKA" version="1">
		<tag k="alt_name" v="Rød nedre" />
		<tag k="name" v="Rød" />
		<tag k="place" v="hamlet" />
		<tag k="ssr:stedsnr" v="912597" />
		<tag k="ssr:type" v="bruk" />
	</node>
	<node changeset="66108879" id="6190817984" lat="59.4578806" lon="10.354" timestamp="2019-01-07T20:37:50Z" uid="3497659" user="NKA" version="1">
		<tag k="alt_name" v="Snekkestad øvre" />
		<tag k="name" v="Snekkestad" />
		<tag k="place" v="farm" />
		<tag k="ssr:stedsnr" v="912962" />
		<tag k="ssr:type" v="bruk" />
	</node>
	<node changeset="52946683" id="5168446151" lat="59.3602335" lon="10.2511779" timestamp="2017-10-15T06:25:36Z" uid="5317542" user="Gresskarpai" version="1" />
	<node changeset="52946683" id="5168446152" lat="59.3598287" lon="10.2510538" timestamp="2017-10-15T06:25:36Z" uid="5317542" user="Gresskarpai" version="1" />
	<node changeset="52946683" id="5168446153" lat="59.3599213" lon="10.2498903" timestamp="2017-10-15T06:25:36Z" uid="5317542" user="Gresskarpai" version="1" />
	<node changeset="52946683" id="5168446154" lat="59.3603261" lon="10.2500143" timestamp="2017-10-15T06:25:36Z" uid="5317542" user="Gresskarpai" version="1" />
	<node changeset="66108879" id="6190818085" lat="59.3770556" lon="10.18" timestamp="2019-01-07T20:37:50Z" uid="3497659" user="NKA" version="1">
		<tag k="name" v="Jerpetjønn" />
		<tag k="place" v="farm" />
		<tag k="ssr:stedsnr" v="391348" />
		<tag k="ssr:type" v="bruk" />
	</node>
	<node changeset="66108879" id="6190818086" lat="59.3621944" lon="10.1923222" timestamp="2019-01-07T20:37:51Z" uid="3497659" user="NKA" version="1">
		<tag k="name" v="Indlagen" />
		<tag k="place" v="isolated_dwelling" />
		<tag k="ssr:stedsnr" v="391357" />
		<tag k="ssr:type" v="eneboligMindreBoligbygg" />
	</node>
	<node changeset="66108879" id="6190818087" lat="59.3523722" lon="10.2383583" timestamp="2019-01-07T20:37:51Z" uid="3497659" user="NKA" version="1">
		<tag k="name" v="Bakken" />
		<tag k="place" v="farm" />
		<tag k="ssr:stedsnr" v="391393" />
		<tag k="ssr:type" v="bruk" />
	</node>
	<node changeset="66108879" id="6190818088" lat="59.3570278" lon="10.24295" timestamp="2019-01-07T20:37:51Z" uid="3497659" user="NKA" version="1">
		<tag k="name" v="Tuftekroken" />
		<tag k="place" v="neighbourhood" />
		<tag k="ssr:stedsnr" v="391397" />
		<tag k="ssr:type" v="boligfelt" />
	</node>
	<node changeset="66108879" id="6190818089" lat="59.4436889" lon="10.1757611" timestamp="2019-01-07T20:37:51Z" uid="3497659" user="NKA" version="1">
		<tag k="name" v="Skotvedt nordre" />
		<tag k="place" v="farm" />
		<tag k="ssr:stedsnr" v="391575" />
		<tag k="ssr:type" v="bruk" />
	</node>
	<node changeset="66108879" id="6190818090" lat="59.4354778" lon="10.2013444" timestamp="2019-01-07T20:37:51Z" uid="3497659" user="NKA" version="1">
		<tag k="name" v="Haugenstua" />
		<tag k="place" v="isolated_dwelling" />
		<tag k="ssr:stedsnr" v="512535" />
		<tag k="ssr:type" v="eneboligMindreBoligbygg" />
	</node>
	<node changeset="66108879" id="6190818091" lat="59.393375" lon="10.2384806" timestamp="2019-01-07T20:37:51Z" uid="3497659" user="NKA" version="1">
		<tag k="name" v="Åsknatten" />
		<tag k="place" v="isolated_dwelling" />
		<tag k="ssr:stedsnr" v="391579" />
		<tag k="ssr:type" v="fritidsbolig" />
	</node>
	<node changeset="66108879" id="6190818092" lat="59.4353694" lon="10.1868389" timestamp="2019-01-07T20:37:51Z" uid="3497659" user="NKA" version="1">
		<tag k="name" v="Hvam nordre" />
		<tag k="place" v="farm" />
		<tag k="ssr:stedsnr" v="512540" />
		<tag k="ssr:type" v="bruk" />
	</node>
	<node changeset="66108879" id="6190818093" lat="59.4532833" lon="10.1895917" timestamp="2019-01-07T20:37:51Z" uid="3497659" user="NKA" version="1">
		<tag k="name" v="Revå" />
		<tag k="place" v="farm" />
		<tag k="ssr:stedsnr" v="391588" />
		<tag k="ssr:type" v="bruk" />
	</node>
	<node changeset="66108879" id="6190818094" lat="59.3875306" lon="10.2555111" timestamp="2019-01-07T20:37:51Z" uid="3497659" user="NKA" version="1">
		<tag k="name" v="Åmot" />
		<tag k="place" v="farm" />
		<tag k="ssr:stedsnr" v="391597" />
		<tag k="ssr:type" v="bruk" />
	</node>
	<node changeset="66108879" id="6190818095" lat="59.4629278" lon="10.1841444" timestamp="2019-01-07T20:37:51Z" uid="3497659" user="NKA" version="1">
		<tag k="name" v="Sjuve" />
		<tag k="place" v="farm" />
		<tag k="ssr:stedsnr" v="512573" />
		<tag k="ssr:type" v="bruk" />
	</node>
	<node changeset="66108879" id="6190818096" lat="59.4667444" lon="10.1966361" timestamp="2019-01-07T20:37:51Z" uid="3497659" user="NKA" version="1">
		<tag k="name" v="Sag" />
		<tag k="place" v="farm" />
		<tag k="ssr:stedsnr" v="391719" />
		<tag k="ssr:type" v="bruk" />
	</node>
	<node changeset="66108879" id="6190818097" lat="59.3977611" lon="10.2531056" timestamp="2019-01-07T20:37:51Z" uid="3497659" user="NKA" version="1">
		<tag k="name" v="Bakke mølle" />
		<tag k="place" v="locality" />
		<tag k="ssr:stedsnr" v="512586" />
		<tag k="ssr:type" v="byggForJordbrukFiskeOgFangst" />
	</node>
	<node changeset="66108879" id="6190818098" lat="59.4294722" lon="10.2194722" timestamp="2019-01-07T20:37:51Z" uid="3497659" user="NKA" version="1">
		<tag k="name" v="Bakstevold nedre" />
		<tag k="place" v="farm" />
		<tag k="ssr:stedsnr" v="512658" />
		<tag k="ssr:type" v="bruk" />
	</node>
	<node changeset="66108879" id="6190818099" lat="59.3629417" lon="10.3429611" timestamp="2019-01-07T20:37:51Z" uid="3497659" user="NKA" version="1">
		<tag k="name" v="Heum" />
		<tag k="place" v="farm" />
		<tag k="ssr:stedsnr" v="391745" />
		<tag k="ssr:type" v="bruk" />
	</node>
	<node changeset="66108879" id="6190818100" lat="59.3762722" lon="10.3674083" timestamp="2019-01-07T20:37:51Z" uid="3497659" user="NKA" version="1">
		<tag k="name" v="Bakskjul øvre" />
		<tag k="place" v="farm" />
		<tag k="ssr:stedsnr" v="512750" />
		<tag k="ssr:type" v="bruk" />
	</node>
	<node changeset="66108879" id="6190818101" lat="59.3758722" lon="10.2984194" timestamp="2019-01-07T20:37:52Z" uid="3497659" user="NKA" version="1">
		<tag k="name" v="Kongslund" />
		<tag k="place" v="farm" />
		<tag k="ssr:stedsnr" v="512753" />
		<tag k="ssr:type" v="bruk" />
	</node>
	<node changeset="66108879" id="6190818102" lat="59.3727111" lon="10.2849667" timestamp="2019-01-07T20:37:52Z" uid="3497659" user="NKA" version="1">
		<tag k="name" v="Bergstangen" />
		<tag k="place" v="farm" />
		<tag k="ssr:stedsnr" v="391765" />
		<tag k="ssr:type" v="bruk" />
	</node>
	<node changeset="66108879" id="6190818103" lat="59.3946944" lon="10.3094806" timestamp="2019-01-07T20:37:52Z" uid="3497659" user="NKA" version="1">
		<tag k="name" v="Ekeberg" />
		<tag k="place" v="farm" />
		<tag k="ssr:stedsnr" v="512792" />
		<tag k="ssr:type" v="bruk" />
	</node>
	<node changeset="66108879" id="6190818104" lat="59.3890917" lon="10.3251917" timestamp="2019-01-07T20:37:52Z" uid="3497659" user="NKA" version="1">
		<tag k="name" v="Grøstad" />
		<tag k="place" v="farm" />
		<tag k="ssr:stedsnr" v="512799" />
		<tag k="ssr:type" v="bruk" />
	</node>
	<node changeset="66108879" id="6190818105" lat="59.3289532" lon="10.3256894" timestamp="2019-01-07T20:37:52Z" uid="3497659" user="NKA" version="1">
		<tag k="name" v="Forum" />
		<tag k="place" v="farm" />
		<tag k="ssr:stedsnr" v="391787" />
		<tag k="ssr:type" v="bruk" />
	</node>
	<node changeset="66108879" id="6190818106" lat="59.3973325" lon="10.3268735" timestamp="2019-01-07T20:37:52Z" uid="3497659" user="NKA" version="1">
		<tag k="name" v="Grytnes østre" />
		<tag k="place" v="farm" />
		<tag k="ssr:stedsnr" v="391790" />
		<tag k="ssr:type" v="bruk" />
	</node>
	<node changeset="66108879" id="6190818107" lat="59.3913111" lon="10.3331667" timestamp="2019-01-07T20:37:52Z" uid="3497659" user="NKA" version="1">
		<tag k="name" v="Knapstad nordre" />
		<tag k="place" v="farm" />
		<tag k="ssr:stedsnr" v="512800" />
		<tag k="ssr:type" v="bruk" />
	</node>
	<node changeset="66108879" id="6190818108" lat="59.3511722" lon="10.373675" timestamp="2019-01-07T20:37:52Z" uid="3497659" user="NKA" version="1">
		<tag k="name" v="Hem søndre" />
		<tag k="place" v="farm" />
		<tag k="ssr:stedsnr" v="512826" />
		<tag k="ssr:type" v="bruk" />
	</node>
	<node changeset="66108879" id="6190818109" lat="59.4179222" lon="10.282325" timestamp="2019-01-07T20:37:52Z" uid="3497659" user="NKA" version="1">
		<tag k="name" v="Lien" />
		<tag k="place" v="farm" />
		<tag k="ssr:stedsnr" v="391840" />
		<tag k="ssr:type" v="bruk" />
	</node>
	<node changeset="66108879" id="6190818110" lat="59.4493585" lon="10.3246529" timestamp="2019-01-07T20:37:52Z" uid="3497659" user="NKA" version="1">
		<tag k="name" v="Åsenden" />
		<tag k="place" v="farm" />
		<tag k="ssr:stedsnr" v="391880" />
		<tag k="ssr:type" v="bruk" />
	</node>
	<node changeset="66108879" id="6190818111" lat="59.4161389" lon="10.3062667" timestamp="2019-01-07T20:37:52Z" uid="3497659" user="NKA" version="1">
		<tag k="name" v="Sørby østre" />
		<tag k="place" v="farm" />
		<tag k="ssr:stedsnr" v="512840" />
		<tag k="ssr:type" v="bruk" />
	</node>
	<node changeset="66108879" id="6190818112" lat="59.4632861" lon="10.3530639" timestamp="2019-01-07T20:37:52Z" uid="3497659" user="NKA" version="1">
		<tag k="name" v="Snekkestad nordre" />
		<tag k="place" v="farm" />
		<tag k="ssr:stedsnr" v="512872" />
		<tag k="ssr:type" v="bruk" />
	</node>
	<node changeset="66108879" id="6190818113" lat="59.4489583" lon="10.3384833" timestamp="2019-01-07T20:37:52Z" uid="3497659" user="NKA" version="1">
		<tag k="name" v="Hagalund" />
		<tag k="place" v="farm" />
		<tag k="ssr:stedsnr" v="391887" />
		<tag k="ssr:type" v="bruk" />
	</node>
	<node changeset="66108879" id="6190818114" lat="59.4477556" lon="10.3426" timestamp="2019-01-07T20:37:52Z" uid="3497659" user="NKA" version="1">
		<tag k="name" v="Grette" />
		<tag k="place" v="farm" />
		<tag k="ssr:stedsnr" v="512876" />
		<tag k="ssr:type" v="bruk" />
	</node>
	<node changeset="66108879" id="6190818115" lat="59.4485556" lon="10.3719917" timestamp="2019-01-07T20:37:52Z" uid="3497659" user="NKA" version="1">
		<tag k="name" v="Valstad" />
		<tag k="place" v="farm" />
		<tag k="ssr:stedsnr" v="391895" />
		<tag k="ssr:type" v="bruk" />
	</node>
	<node changeset="66108879" id="6190818116" lat="59.4337722" lon="10.2685083" timestamp="2019-01-07T20:37:52Z" uid="3497659" user="NKA" version="1">
		<tag k="name" v="Gjelstad søndre" />
		<tag k="place" v="farm" />
		<tag k="ssr:stedsnr" v="512886" />
		<tag k="ssr:type" v="bruk" />
	</node>
	<node changeset="66108879" id="6190818117" lat="59.3847167" lon="10.2645528" timestamp="2019-01-07T20:37:53Z" uid="3497659" user="NKA" version="1">
		<tag k="name" v="Bjerkely" />
		<tag k="place" v="farm" />
		<tag k="ssr:stedsnr" v="513593" />
		<tag k="ssr:type" v="bruk" />
	</node>
	<node changeset="66108879" id="6190818118" lat="59.33325" lon="10.2913167" timestamp="2019-01-07T20:37:53Z" uid="3497659" user="NKA" version="1">
		<tag k="name" v="Hole østre" />
		<tag k="place" v="farm" />
		<tag k="ssr:stedsnr" v="513673" />
		<tag k="ssr:type" v="bruk" />
	</node>
	<node changeset="66108879" id="6190818119" lat="59.4727056" lon="10.1910417" timestamp="2019-01-07T20:37:53Z" uid="3497659" user="NKA" version="1">
		<tag k="name" v="Barkost" />
		<tag k="place" v="farm" />
		<tag k="ssr:stedsnr" v="513717" />
		<tag k="ssr:type" v="bruk" />
	</node>
	<node changeset="66108879" id="6190818120" lat="59.4482889" lon="10.2710028" timestamp="2019-01-07T20:37:53Z" uid="3497659" user="NKA" version="1">
		<tag k="name" v="Strange" />
		<tag k="place" v="farm" />
		<tag k="ssr:stedsnr" v="2076" />
		<tag k="ssr:type" v="bruk" />
	</node>
	<node changeset="66108879" id="6190818121" lat="59.444325" lon="10.3397556" timestamp="2019-01-07T20:37:53Z" uid="3497659" user="NKA" version="1">
		<tag k="alt_name" v="Fegstad" />
		<tag k="name" v="Ofegstad" />
		<tag k="place" v="farm" />
		<tag k="ssr:stedsnr" v="2081" />
		<tag k="ssr:type" v="bruk" />
	</node>
	<node changeset="66108879" id="6190818122" lat="59.4339722" lon="10.3399" timestamp="2019-01-07T20:37:53Z" uid="3497659" user="NKA" version="1">
		<tag k="name" v="Klavenes" />
		<tag k="place" v="farm" />
		<tag k="ssr:stedsnr" v="513914" />
		<tag k="ssr:type" v="bruk" />
	</node>
	<node changeset="66108879" id="6190818123" lat="59.4635306" lon="10.2045583" timestamp="2019-01-07T20:37:53Z" uid="3497659" user="NKA" version="1">
		<tag k="alt_name" v="Tørklep øvre" />
		<tag k="name" v="Tørklepp" />
		<tag k="place" v="farm" />
		<tag k="ssr:stedsnr" v="2115" />
		<tag k="ssr:type" v="bruk" />
	</node>
	<node changeset="66108879" id="6190818124" lat="59.4589389" lon="10.2097917" timestamp="2019-01-07T20:37:53Z" uid="3497659" user="NKA" version="1">
		<tag k="name" v="Grytemørk" />
		<tag k="place" v="farm" />
		<tag k="ssr:stedsnr" v="2116" />
		<tag k="ssr:type" v="bruk" />
	</node>
	<node changeset="66108879" id="6190818125" lat="59.4591611" lon="10.1473611" timestamp="2019-01-07T20:37:53Z" uid="3497659" user="NKA" version="1">
		<tag k="name" v="Langeli M." />
		<tag k="place" v="farm" />
		<tag k="ssr:stedsnr" v="548063" />
		<tag k="ssr:type" v="bruk" />
	</node>
	<node changeset="66108879" id="6190818126" lat="59.4600889" lon="10.3386" timestamp="2019-01-07T20:37:53Z" uid="3497659" user="NKA" version="1">
		<tag k="name" v="Granheim" />
		<tag k="place" v="isolated_dwelling" />
		<tag k="ssr:stedsnr" v="2122" />
		<tag k="ssr:type" v="eneboligMindreBoligbygg" />
	</node>
	<node changeset="66108879" id="6190818127" lat="59.4543694" lon="10.1721083" timestamp="2019-01-07T20:37:53Z" uid="3497659" user="NKA" version="1">
		<tag k="name" v="Ørvika" />
		<tag k="place" v="farm" />
		<tag k="ssr:stedsnr" v="548066" />
		<tag k="ssr:type" v="bruk" />
	</node>
	<node changeset="66108879" id="6190818128" lat="59.42915" lon="10.129675" timestamp="2019-01-07T20:37:53Z" uid="3497659" user="NKA" version="1">
		<tag k="name" v="Kjær" />
		<tag k="place" v="farm" />
		<tag k="ssr:stedsnr" v="2156" />
		<tag k="ssr:type" v="bruk" />
	</node>
	<node changeset="66108879" id="6190818129" lat="59.4689278" lon="10.2191694" timestamp="2019-01-07T20:37:53Z" uid="3497659" user="NKA" version="1">
		<tag k="name" v="Borgeteigen" />
		<tag k="place" v="isolated_dwelling" />
		<tag k="ssr:stedsnr" v="548082" />
		<tag k="ssr:type" v="fritidsbolig" />
	</node>
	<node changeset="66108879" id="6190818130" lat="59.4148056" lon="10.118925" timestamp="2019-01-07T20:37:53Z" uid="3497659" user="NKA" version="1">
		<tag k="alt_name" v="Teigen, s;Teien s." />
		<tag k="name" v="Søndre Teigen" />
		<tag k="place" v="farm" />
		<tag k="ssr:stedsnr" v="548126" />
		<tag k="ssr:type" v="bruk" />
	</node>
	<node changeset="66108879" id="6190818131" lat="59.43515" lon="10.2320389" timestamp="2019-01-07T20:37:54Z" uid="3497659" user="NKA" version="1">
		<tag k="alt_name" v="Kringlås" />
		<tag k="name" v="Kringelås" />
		<tag k="place" v="farm" />
		<tag k="ssr:stedsnr" v="2171" />
		<tag k="ssr:type" v="bruk" />
	</node>
	<node changeset="66108879" id="6190818132" lat="59.422225" lon="10.0713167" timestamp="2019-01-07T20:37:54Z" uid="3497659" user="NKA" version="1">
		<tag k="name" v="Bjørndalshytta" />
		<tag k="place" v="isolated_dwelling" />
		<tag k="ssr:stedsnr" v="2179" />
		<tag k="ssr:type" v="fritidsbolig" />
	</node>
	<node changeset="66108879" id="6190818133" lat="59.4167556" lon="10.3166055" timestamp="2019-01-07T20:37:54Z" uid="3497659" user="NKA" version="1">
		<tag k="alt_name" v="Oppsahl mellom" />
		<tag k="name" v="Oppsal" />
		<tag k="place" v="farm" />
		<tag k="ssr:stedsnr" v="548131" />
		<tag k="ssr:type" v="bruk" />
	</node>
	<node changeset="66108879" id="6190818134" lat="59.4150472" lon="10.2032917" timestamp="2019-01-07T20:37:54Z" uid="3497659" user="NKA" version="1">
		<tag k="alt_name" v="Fon, store" />
		<tag k="name" v="Store Fon" />
		<tag k="place" v="farm" />
		<tag k="ssr:stedsnr" v="548134" />
		<tag k="ssr:type" v="bruk" />
	</node>
	<node changeset="66108879" id="6190818135" lat="59.365125" lon="10.3364389" timestamp="2019-01-07T20:37:54Z" uid="3497659" user="NKA" version="1">
		<tag k="alt_name" v="Heum" />
		<tag k="name" v="Hem" />
		<tag k="place" v="farm" />
		<tag k="ssr:stedsnr" v="2201" />
		<tag k="ssr:type" v="bruk" />
	</node>
	<node changeset="66108879" id="6190818136" lat="59.371875" lon="10.3037833" timestamp="2019-01-07T20:37:54Z" uid="3497659" user="NKA" version="1">
		<tag k="name" v="Kåpe" />
		<tag k="place" v="farm" />
		<tag k="ssr:stedsnr" v="2203" />
		<tag k="ssr:type" v="bruk" />
	</node>
	<node changeset="66108948" id="6190818137" lat="59.4010556" lon="10.0857278" timestamp="2019-01-07T20:40:05Z" uid="3497659" user="NKA" version="2">
		<tag k="alt_name" v="Tuftenseter" />
		<tag k="historic" v="shieling" />
		<tag k="name" v="Tuftensetra" />
		<tag k="place" v="isolated_dwelling" />
		<tag k="ssr:stedsnr" v="548136" />
		<tag k="ssr:type" v="fritidsbolig" />
	</node>
	<node changeset="66108879" id="6190818138" lat="59.3756694" lon="10.3126028" timestamp="2019-01-07T20:37:54Z" uid="3497659" user="NKA" version="1">
		<tag k="alt_name" v="Dal vestre" />
		<tag k="name" v="Dal" />
		<tag k="place" v="farm" />
		<tag k="ssr:stedsnr" v="2205" />
		<tag k="ssr:type" v="bruk" />
	</node>
	<node changeset="66108879" id="6190818139" lat="59.4070833" lon="10.3075444" timestamp="2019-01-07T20:37:54Z" uid="3497659" user="NKA" version="1">
		<tag k="alt_name" v="Hals s." />
		<tag k="name" v="Hals" />
		<tag k="place" v="farm" />
		<tag k="ssr:stedsnr" v="548149" />
		<tag k="ssr:type" v="bruk" />
	</node>
	<node changeset="66108879" id="6190818140" lat="59.3947167" lon="10.2010056" timestamp="2019-01-07T20:37:54Z" uid="3497659" user="NKA" version="1">
		<tag k="name" v="Rove" />
		<tag k="place" v="farm" />
		<tag k="ssr:stedsnr" v="2226" />
		<tag k="ssr:type" v="bruk" />
	</node>
	<node changeset="66108879" id="6190818141" lat="59.3758816" lon="10.1631311" timestamp="2019-01-07T20:37:54Z" uid="3497659" user="NKA" version="1">
		<tag k="name" v="Gunnerød" />
		<tag k="place" v="farm" />
		<tag k="ssr:stedsnr" v="548193" />
		<tag k="ssr:type" v="bruk" />
	</node>
	<node changeset="66108879" id="6190818142" lat="59.3696167" lon="10.3321111" timestamp="2019-01-07T20:37:54Z" uid="3497659" user="NKA" version="1">
		<tag k="alt_name" v="Bjerkesti" />
		<tag k="name" v="Bjørkesti" />
		<tag k="place" v="farm" />
		<tag k="ssr:stedsnr" v="548220" />
		<tag k="ssr:type" v="bruk" />
	</node>
	<node changeset="66108879" id="6190818143" lat="59.3942694" lon="10.2666222" timestamp="2019-01-07T20:37:54Z" uid="3497659" user="NKA" version="1">
		<tag k="name" v="Bjerkeskau" />
		<tag k="place" v="farm" />
		<tag k="ssr:stedsnr" v="2247" />
		<tag k="ssr:type" v="bruk" />
	</node>
	<node changeset="66108879" id="6190818144" lat="59.3708711" lon="10.3522654" timestamp="2019-01-07T20:37:55Z" uid="3497659" user="NKA" version="1">
		<tag k="name" v="Grette" />
		<tag k="place" v="hamlet" />
		<tag k="ssr:stedsnr" v="2572" />
		<tag k="ssr:type" v="bruk" />
	</node>
	<node changeset="66108879" id="6190818145" lat="59.4020639" lon="10.2597056" timestamp="2019-01-07T20:37:55Z" uid="3497659" user="NKA" version="1">
		<tag k="alt_name" v="Bakke, vestre" />
		<tag k="name" v="Vestre Bakke" />
		<tag k="place" v="farm" />
		<tag k="ssr:stedsnr" v="548234" />
		<tag k="ssr:type" v="bruk" />
	</node>
	<node changeset="66108879" id="6190818146" lat="59.4025556" lon="10.2073083" timestamp="2019-01-07T20:37:55Z" uid="3497659" user="NKA" version="1">
		<tag k="name" v="Heierstad" />
		<tag k="place" v="farm" />
		<tag k="ssr:stedsnr" v="548238" />
		<tag k="ssr:type" v="bruk" />
	</node>
	<node changeset="66108879" id="6190818147" lat="59.3385776" lon="10.349118" timestamp="2019-01-07T20:37:55Z" uid="3497659" user="NKA" version="1">
		<tag k="alt_name" v="Hundstuen" />
		<tag k="name" v="Hundstua" />
		<tag k="place" v="farm" />
		<tag k="ssr:stedsnr" v="2602" />
		<tag k="ssr:type" v="bruk" />
	</node>
	<node changeset="66108879" id="6190818148" lat="59.3862778" lon="10.1070306" timestamp="2019-01-07T20:37:55Z" uid="3497659" user="NKA" version="1">
		<tag k="name" v="Eikeberg" />
		<tag k="place" v="farm" />
		<tag k="ssr:stedsnr" v="548240" />
		<tag k="ssr:type" v="bruk" />
	</node>
	<node changeset="66108879" id="6190818149" lat="59.349075" lon="10.2440611" timestamp="2019-01-07T20:37:55Z" uid="3497659" user="NKA" version="1">
		<tag k="name" v="Stange" />
		<tag k="place" v="farm" />
		<tag k="ssr:stedsnr" v="2744" />
		<tag k="ssr:type" v="bruk" />
	</node>
	<node changeset="66108879" id="6190818150" lat="59.382625" lon="10.3559472" timestamp="2019-01-07T20:37:55Z" uid="3497659" user="NKA" version="1">
		<tag k="alt_name" v="Langklep søndre" />
		<tag k="name" v="Langklepp" />
		<tag k="place" v="farm" />
		<tag k="ssr:stedsnr" v="548553" />
		<tag k="ssr:type" v="bruk" />
	</node>
	<node changeset="66108879" id="6190818151" lat="59.3441611" lon="10.2318556" timestamp="2019-01-07T20:37:55Z" uid="3497659" user="NKA" version="1">
		<tag k="name" v="Lerstang" />
		<tag k="place" v="farm" />
		<tag k="ssr:stedsnr" v="2747" />
		<tag k="ssr:type" v="bruk" />
	</node>
	<node changeset="66108879" id="6190818152" lat="59.3602444" lon="10.2186805" timestamp="2019-01-07T20:37:55Z" uid="3497659" user="NKA" version="1">
		<tag k="alt_name" v="Grøtterød" />
		<tag k="name" v="Grøterud" />
		<tag k="place" v="farm" />
		<tag k="ssr:stedsnr" v="548760" />
		<tag k="ssr:type" v="bruk" />
	</node>
	<node changeset="66108879" id="6190818153" lat="59.3372389" lon="10.2909889" timestamp="2019-01-07T20:37:55Z" uid="3497659" user="NKA" version="1">
		<tag k="name" v="Klopp" />
		<tag k="place" v="farm" />
		<tag k="ssr:stedsnr" v="2779" />
		<tag k="ssr:type" v="bruk" />
	</node>
	<node changeset="66108879" id="6190818154" lat="59.3568917" lon="10.2113306" timestamp="2019-01-07T20:37:55Z" uid="3497659" user="NKA" version="1">
		<tag k="alt_name" v="Fjelebua" />
		<tag k="name" v="Fjælebua" />
		<tag k="place" v="farm" />
		<tag k="ssr:stedsnr" v="548762" />
		<tag k="ssr:type" v="bruk" />
	</node>
	<node changeset="66108879" id="6190818155" lat="59.3590556" lon="10.3009306" timestamp="2019-01-07T20:37:55Z" uid="3497659" user="NKA" version="1">
		<tag k="name" v="Langemyr" />
		<tag k="place" v="farm" />
		<tag k="ssr:stedsnr" v="548769" />
		<tag k="ssr:type" v="bruk" />
	</node>
	<node changeset="66108879" id="6190818156" lat="59.3314028" lon="10.3079944" timestamp="2019-01-07T20:37:55Z" uid="3497659" user="NKA" version="1">
		<tag k="name" v="Reine" />
		<tag k="place" v="farm" />
		<tag k="ssr:stedsnr" v="548802" />
		<tag k="ssr:type" v="bruk" />
	</node>
	<node changeset="66108879" id="6190818157" lat="59.3202333" lon="10.2709861" timestamp="2019-01-07T20:37:55Z" uid="3497659" user="NKA" version="1">
		<tag k="name" v="Kamfjord" />
		<tag k="place" v="farm" />
		<tag k="ssr:stedsnr" v="549773" />
		<tag k="ssr:type" v="bruk" />
	</node>
	<node changeset="66108879" id="6190818158" lat="59.3481861" lon="10.2264472" timestamp="2019-01-07T20:37:56Z" uid="3497659" user="NKA" version="1">
		<tag k="name" v="Tinghaug" />
		<tag k="place" v="farm" />
		<tag k="ssr:stedsnr" v="26359" />
		<tag k="ssr:type" v="bruk" />
	</node>
	<node changeset="66108879" id="6190818159" lat="59.3881561" lon="10.2561702" timestamp="2019-01-07T20:37:56Z" uid="3497659" user="NKA" version="1">
		<tag k="name" v="Fossan" />
		<tag k="place" v="hamlet" />
		<tag k="ssr:stedsnr" v="26708" />
		<tag k="ssr:type" v="bruk" />
	</node>
	<node changeset="66108879" id="6190818160" lat="59.3913111" lon="10.1169861" timestamp="2019-01-07T20:37:56Z" uid="3497659" user="NKA" version="1">
		<tag k="name" v="Kjonevollen" />
		<tag k="place" v="farm" />
		<tag k="ssr:stedsnr" v="573058" />
		<tag k="ssr:type" v="bruk" />
	</node>
	<node changeset="66108879" id="6190818161" lat="59.4376861" lon="10.1009694" timestamp="2019-01-07T20:37:56Z" uid="3497659" user="NKA" version="1">
		<tag k="name" v="O søndre" />
		<tag k="place" v="farm" />
		<tag k="ssr:stedsnr" v="27009" />
		<tag k="ssr:type" v="bruk" />
	</node>
	<node changeset="66108879" id="6190818162" lat="59.39625" lon="10.1249695" timestamp="2019-01-07T20:37:56Z" uid="3497659" user="NKA" version="1">
		<tag k="name" v="Lunderønningen" />
		<tag k="place" v="farm" />
		<tag k="ssr:stedsnr" v="573068" />
		<tag k="ssr:type" v="bruk" />
	</node>
	<node changeset="66108879" id="6190818163" lat="59.410425" lon="10.1139889" timestamp="2019-01-07T20:37:56Z" uid="3497659" user="NKA" version="1">
		<tag k="name" v="Låne s." />
		<tag k="place" v="farm" />
		<tag k="ssr:stedsnr" v="573183" />
		<tag k="ssr:type" v="bruk" />
	</node>
	<node changeset="66108879" id="6190818164" lat="59.3996806" lon="10.1267055" timestamp="2019-01-07T20:37:56Z" uid="3497659" user="NKA" version="1">
		<tag k="name" v="Russland" />
		<tag k="place" v="locality" />
		<tag k="ssr:stedsnr" v="27069" />
		<tag k="ssr:type" v="eiendom" />
	</node>
	<node changeset="66108879" id="6190818165" lat="59.41305" lon="10.1360167" timestamp="2019-01-07T20:37:56Z" uid="3497659" user="NKA" version="1">
		<tag k="name" v="Langved n." />
		<tag k="place" v="farm" />
		<tag k="ssr:stedsnr" v="27157" />
		<tag k="ssr:type" v="bruk" />
	</node>
	<node changeset="66108879" id="6190818166" lat="59.419" lon="10.1432306" timestamp="2019-01-07T20:37:56Z" uid="3497659" user="NKA" version="1">
		<tag k="name" v="Teie" />
		<tag k="place" v="locality" />
		<tag k="ssr:stedsnr" v="27161" />
		<tag k="ssr:type" v="eiendom" />
	</node>
	<node changeset="66108879" id="6190818167" lat="59.3902611" lon="10.2013278" timestamp="2019-01-07T20:37:56Z" uid="3497659" user="NKA" version="1">
		<tag k="name" v="Tomta" />
		<tag k="place" v="locality" />
		<tag k="ssr:stedsnr" v="573286" />
		<tag k="ssr:type" v="eiendom" />
	</node>
	<node changeset="66108879" id="6190818168" lat="59.4128167" lon="10.2477694" timestamp="2019-01-07T20:37:56Z" uid="3497659" user="NKA" version="1">
		<tag k="name" v="Hotvedt" />
		<tag k="place" v="farm" />
		<tag k="ssr:stedsnr" v="27329" />
		<tag k="ssr:type" v="bruk" />
	</node>
	<node changeset="66108879" id="6190818169" lat="59.4204558" lon="10.2509396" timestamp="2019-01-07T20:37:56Z" uid="3497659" user="NKA" version="1">
		<tag k="name" v="Bettum" />
		<tag k="place" v="farm" />
		<tag k="ssr:stedsnr" v="27332" />
		<tag k="ssr:type" v="bruk" />
	</node>
	<node changeset="66108879" id="6190818170" lat="59.4158333" lon="10.2330222" timestamp="2019-01-07T20:37:56Z" uid="3497659" user="NKA" version="1">
		<tag k="name" v="Vika" />
		<tag k="place" v="farm" />
		<tag k="ssr:stedsnr" v="27336" />
		<tag k="ssr:type" v="bruk" />
	</node>
	<node changeset="66108879" id="6190818171" lat="59.4385056" lon="10.2039306" timestamp="2019-01-07T20:37:56Z" uid="3497659" user="NKA" version="1">
		<tag k="name" v="Herkjeft nedre" />
		<tag k="place" v="farm" />
		<tag k="ssr:stedsnr" v="27537" />
		<tag k="ssr:type" v="bruk" />
	</node>
	<node changeset="66108879" id="6190818172" lat="59.3889778" lon="10.2456694" timestamp="2019-01-07T20:37:56Z" uid="3497659" user="NKA" version="1">
		<tag k="name" v="Skogly" />
		<tag k="place" v="farm" />
		<tag k="ssr:stedsnr" v="573549" />
		<tag k="ssr:type" v="bruk" />
	</node>
	<node changeset="66108879" id="611701793" lat="59.4233534" lon="10.1310426" timestamp="2019-01-07T20:37:57Z" uid="3497659" user="NKA" version="3">
		<tag k="name" v="Vivestad" />
		<tag k="place" v="village" />
		<tag k="ssr:stedsnr" v="2096" />
		<tag k="ssr:type" v="navnegard" />
	</node>
	<node changeset="66108879" id="6190817141" lat="59.3827" lon="10.1988917" timestamp="2019-01-07T20:37:34Z" uid="3497659" user="NKA" version="1">
		<tag k="name" v="Askjer" />
		<tag k="place" v="farm" />
		<tag k="ssr:stedsnr" v="791237" />
		<tag k="ssr:type" v="bruk" />
	</node>
	<node changeset="66108879" id="6190816480" lat="59.4260091" lon="10.2508941" timestamp="2019-01-07T20:37:16Z" uid="3497659" user="NKA" version="1">
		<tag k="name" v="Bettum" />
		<tag k="place" v="farm" />
		<tag k="ssr:stedsnr" v="573617" />
		<tag k="ssr:type" v="bruk" />
	</node>
	<node changeset="66108879" id="6190816481" lat="59.3541194" lon="10.2911972" timestamp="2019-01-07T20:37:16Z" uid="3497659" user="NKA" version="1">
		<tag k="name" v="Bø s" />
		<tag k="place" v="farm" />
		<tag k="ssr:stedsnr" v="27735" />
		<tag k="ssr:type" v="bruk" />
	</node>
	<node changeset="66108879" id="6190816482" lat="59.37225" lon="10.3146861" timestamp="2019-01-07T20:37:16Z" uid="3497659" user="NKA" version="1">
		<tag k="name" v="Lefsrødødegården" />
		<tag k="place" v="locality" />
		<tag k="ssr:stedsnr" v="27752" />
		<tag k="ssr:type" v="eiendom" />
	</node>
	<node changeset="66108879" id="6190816483" lat="59.3449194" lon="10.2792528" timestamp="2019-01-07T20:37:17Z" uid="3497659" user="NKA" version="1">
		<tag k="name" v="Heian m" />
		<tag k="place" v="farm" />
		<tag k="ssr:stedsnr" v="573699" />
		<tag k="ssr:type" v="bruk" />
	</node>
	<node changeset="66108879" id="6190816484" lat="59.3567333" lon="10.2975972" timestamp="2019-01-07T20:37:17Z" uid="3497659" user="NKA" version="1">
		<tag k="name" v="Sand" />
		<tag k="place" v="farm" />
		<tag k="ssr:stedsnr" v="573705" />
		<tag k="ssr:type" v="bruk" />
	</node>
	<node changeset="66108879" id="6190816485" lat="59.3283083" lon="10.3391667" timestamp="2019-01-07T20:37:17Z" uid="3497659" user="NKA" version="1">
		<tag k="name" v="Traet" />
		<tag k="place" v="locality" />
		<tag k="ssr:stedsnr" v="27772" />
		<tag k="ssr:type" v="byggForJordbrukFiskeOgFangst" />
	</node>
	<node changeset="66108879" id="6190816486" lat="59.3752583" lon="10.3168195" timestamp="2019-01-07T20:37:17Z" uid="3497659" user="NKA" version="1">
		<tag k="name" v="Dal søndre" />
		<tag k="place" v="farm" />
		<tag k="ssr:stedsnr" v="573729" />
		<tag k="ssr:type" v="bruk" />
	</node>
	<node changeset="66108879" id="6190816487" lat="59.3261972" lon="10.3438444" timestamp="2019-01-07T20:37:17Z" uid="3497659" user="NKA" version="1">
		<tag k="name" v="Smaleng" />
		<tag k="place" v="farm" />
		<tag k="ssr:stedsnr" v="573756" />
		<tag k="ssr:type" v="bruk" />
	</node>
	<node changeset="66108879" id="6190816488" lat="59.3983278" lon="10.235125" timestamp="2019-01-07T20:37:17Z" uid="3497659" user="NKA" version="1">
		<tag k="name" v="Ås n." />
		<tag k="place" v="farm" />
		<tag k="ssr:stedsnr" v="27588" />
		<tag k="ssr:type" v="bruk" />
	</node>
	<node changeset="66108879" id="6190816489" lat="59.3842389" lon="10.286" timestamp="2019-01-07T20:37:17Z" uid="3497659" user="NKA" version="1">
		<tag k="name" v="Solvang" />
		<tag k="place" v="farm" />
		<tag k="ssr:stedsnr" v="573759" />
		<tag k="ssr:type" v="bruk" />
	</node>
	<node changeset="66108879" id="6190816490" lat="59.3296556" lon="10.2766194" timestamp="2019-01-07T20:37:17Z" uid="3497659" user="NKA" version="1">
		<tag k="name" v="Jare søndre" />
		<tag k="place" v="farm" />
		<tag k="ssr:stedsnr" v="27667" />
		<tag k="ssr:type" v="bruk" />
	</node>
	<node changeset="66108879" id="6190816491" lat="59.348725" lon="10.3660917" timestamp="2019-01-07T20:37:17Z" uid="3497659" user="NKA" version="1">
		<tag k="name" v="Vold" />
		<tag k="place" v="farm" />
		<tag k="ssr:stedsnr" v="573786" />
		<tag k="ssr:type" v="bruk" />
	</node>
	<node changeset="66108879" id="6190816492" lat="59.4168806" lon="10.2811417" timestamp="2019-01-07T20:37:17Z" uid="3497659" user="NKA" version="1">
		<tag k="name" v="Fjellborg" />
		<tag k="place" v="farm" />
		<tag k="ssr:stedsnr" v="573788" />
		<tag k="ssr:type" v="bruk" />
	</node>
	<node changeset="66108879" id="6190816493" lat="59.4307954" lon="10.2872366" timestamp="2019-01-07T20:37:17Z" uid="3497659" user="NKA" version="1">
		<tag k="name" v="Rånerud vestre" />
		<tag k="place" v="farm" />
		<tag k="ssr:stedsnr" v="27878" />
		<tag k="ssr:type" v="bruk" />
	</node>
	<node changeset="66108879" id="6190816494" lat="59.4465389" lon="10.2988111" timestamp="2019-01-07T20:37:17Z" uid="3497659" user="NKA" version="1">
		<tag k="name" v="Bakke" />
		<tag k="place" v="farm" />
		<tag k="ssr:stedsnr" v="27812" />
		<tag k="ssr:type" v="bruk" />
	</node>
	<node changeset="66108879" id="6190816495" lat="59.4526" lon="10.3501667" timestamp="2019-01-07T20:37:17Z" uid="3497659" user="NKA" version="1">
		<tag k="name" v="Snekkestad vestre" />
		<tag k="place" v="farm" />
		<tag k="ssr:stedsnr" v="573855" />
		<tag k="ssr:type" v="bruk" />
	</node>
	<node changeset="66108879" id="6190816496" lat="59.4078306" lon="10.2787944" timestamp="2019-01-07T20:37:17Z" uid="3497659" user="NKA" version="1">
		<tag k="name" v="Kjær (Luke)" />
		<tag k="place" v="farm" />
		<tag k="ssr:stedsnr" v="27832" />
		<tag k="ssr:type" v="bruk" />
	</node>
	<node changeset="66108879" id="6190816497" lat="59.4153694" lon="10.3223694" timestamp="2019-01-07T20:37:17Z" uid="3497659" user="NKA" version="1">
		<tag k="name" v="Opsahl" />
		<tag k="place" v="farm" />
		<tag k="ssr:stedsnr" v="27837" />
		<tag k="ssr:type" v="bruk" />
	</node>
	<node changeset="66108879" id="6190816498" lat="59.4409417" lon="10.2790056" timestamp="2019-01-07T20:37:18Z" uid="3497659" user="NKA" version="1">
		<tag k="name" v="Sørum nordre" />
		<tag k="place" v="farm" />
		<tag k="ssr:stedsnr" v="573862" />
		<tag k="ssr:type" v="bruk" />
	</node>
	<node changeset="66108879" id="6190816499" lat="59.4357167" lon="10.3024444" timestamp="2019-01-07T20:37:18Z" uid="3497659" user="NKA" version="1">
		<tag k="name" v="Haraldstad søndre" />
		<tag k="place" v="farm" />
		<tag k="ssr:stedsnr" v="573869" />
		<tag k="ssr:type" v="bruk" />
	</node>
	<node changeset="66108879" id="6190816500" lat="59.3758218" lon="10.388339" timestamp="2019-01-07T20:37:18Z" uid="3497659" user="NKA" version="1">
		<tag k="name" v="Råen" />
		<tag k="place" v="farm" />
		<tag k="ssr:stedsnr" v="28409" />
		<tag k="ssr:type" v="bruk" />
	</node>
	<node changeset="66108879" id="6190816501" lat="59.4423023" lon="10.2637695" timestamp="2019-01-07T20:37:18Z" uid="3497659" user="NKA" version="1">
		<tag k="name" v="Jonsrud" />
		<tag k="place" v="farm" />
		<tag k="ssr:stedsnr" v="63091" />
		<tag k="ssr:type" v="bruk" />
	</node>
	<node changeset="66108879" id="6190816502" lat="59.442075" lon="10.2951056" timestamp="2019-01-07T20:37:18Z" uid="3497659" user="NKA" version="1">
		<tag k="alt_name" v="Haslestad nordre" />
		<tag k="name" v="Haslestad" />
		<tag k="place" v="farm" />
		<tag k="ssr:stedsnr" v="63096" />
		<tag k="ssr:type" v="bruk" />
	</node>
	<node changeset="66108879" id="6190816503" lat="59.456325" lon="10.26245" timestamp="2019-01-07T20:37:18Z" uid="3497659" user="NKA" version="1">
		<tag k="name" v="Solheim" />
		<tag k="place" v="farm" />
		<tag k="ssr:stedsnr" v="608056" />
		<tag k="ssr:type" v="bruk" />
	</node>
	<node changeset="66108879" id="6190816504" lat="59.4329278" lon="10.1595917" timestamp="2019-01-07T20:37:18Z" uid="3497659" user="NKA" version="1">
		<tag k="name" v="Sameia" />
		<tag k="place" v="isolated_dwelling" />
		<tag k="ssr:stedsnr" v="63103" />
		<tag k="ssr:type" v="eneboligMindreBoligbygg" />
	</node>
	<node changeset="66108879" id="6190816505" lat="59.454" lon="10.331125" timestamp="2019-01-07T20:37:18Z" uid="3497659" user="NKA" version="1">
		<tag k="name" v="Gunnestad" />
		<tag k="place" v="farm" />
		<tag k="ssr:stedsnr" v="608058" />
		<tag k="ssr:type" v="bruk" />
	</node>
	<node changeset="66108879" id="6190816506" lat="59.4144043" lon="10.2675844" timestamp="2019-01-07T20:37:18Z" uid="3497659" user="NKA" version="1">
		<tag k="name" v="Nåla" />
		<tag k="place" v="farm" />
		<tag k="ssr:stedsnr" v="63140" />
		<tag k="ssr:type" v="bruk" />
	</node>
	<node changeset="66108879" id="6190816507" lat="59.443125" lon="10.1662694" timestamp="2019-01-07T20:37:18Z" uid="3497659" user="NKA" version="1">
		<tag k="alt_name" v="Lian nordre" />
		<tag k="name" v="Lian" />
		<tag k="place" v="locality" />
		<tag k="ssr:stedsnr" v="608070" />
		<tag k="ssr:type" v="eiendom" />
	</node>
	<node changeset="66108879" id="6190816508" lat="59.44695" lon="10.3032278" timestamp="2019-01-07T20:37:18Z" uid="3497659" user="NKA" version="1">
		<tag k="alt_name" v="Håkestad søndre" />
		<tag k="name" v="Håkastad" />
		<tag k="place" v="farm" />
		<tag k="ssr:stedsnr" v="608080" />
		<tag k="ssr:type" v="bruk" />
	</node>
	<node changeset="66108948" id="6190816509" lat="59.4008111" lon="10.0696055" timestamp="2019-01-07T20:40:05Z" uid="3497659" user="NKA" version="2">
		<tag k="historic" v="shieling" />
		<tag k="name" v="Elgseter" />
		<tag k="place" v="isolated_dwelling" />
		<tag k="ssr:stedsnr" v="63148" />
		<tag k="ssr:type" v="fritidsbolig" />
	</node>
	<node changeset="66108879" id="6190816510" lat="59.405325" lon="10.1202278" timestamp="2019-01-07T20:37:18Z" uid="3497659" user="NKA" version="1">
		<tag k="alt_name" v="Bygland" />
		<tag k="name" v="Byggland" />
		<tag k="place" v="farm" />
		<tag k="ssr:stedsnr" v="63151" />
		<tag k="ssr:type" v="bruk" />
	</node>
	<node changeset="66108879" id="6190816511" lat="59.40775" lon="10.3359" timestamp="2019-01-07T20:37:18Z" uid="3497659" user="NKA" version="1">
		<tag k="name" v="Grøterud" />
		<tag k="place" v="farm" />
		<tag k="ssr:stedsnr" v="63156" />
		<tag k="ssr:type" v="bruk" />
	</node>
	<node changeset="66108879" id="6190816512" lat="59.3719639" lon="10.3462611" timestamp="2019-01-07T20:37:18Z" uid="3497659" user="NKA" version="1">
		<tag k="name" v="Liverød" />
		<tag k="place" v="farm" />
		<tag k="ssr:stedsnr" v="608595" />
		<tag k="ssr:type" v="bruk" />
	</node>
	<node changeset="66108879" id="6190816513" lat="59.4314917" lon="10.3220611" timestamp="2019-01-07T20:37:19Z" uid="3497659" user="NKA" version="1">
		<tag k="alt_name" v="Torp nordre" />
		<tag k="name" v="Torp" />
		<tag k="place" v="farm" />
		<tag k="ssr:stedsnr" v="63169" />
		<tag k="ssr:type" v="bruk" />
	</node>
	<node changeset="66108879" id="6190816514" lat="59.4347056" lon="10.2879111" timestamp="2019-01-07T20:37:19Z" uid="3497659" user="NKA" version="1">
		<tag k="alt_name" v="Lur øvre" />
		<tag k="name" v="Lur" />
		<tag k="place" v="farm" />
		<tag k="ssr:stedsnr" v="63170" />
		<tag k="ssr:type" v="bruk" />
	</node>
	<node changeset="66108879" id="6190816515" lat="59.4197167" lon="10.2194444" timestamp="2019-01-07T20:37:19Z" uid="3497659" user="NKA" version="1">
		<tag k="alt_name" v="Myre, nordre" />
		<tag k="name" v="Nordre Myre" />
		<tag k="place" v="farm" />
		<tag k="ssr:stedsnr" v="609136" />
		<tag k="ssr:type" v="bruk" />
	</node>
	<node changeset="66108879" id="6190816516" lat="59.4379" lon="10.3358167" timestamp="2019-01-07T20:37:19Z" uid="3497659" user="NKA" version="1">
		<tag k="name" v="Klavenes" />
		<tag k="place" v="farm" />
		<tag k="ssr:stedsnr" v="63172" />
		<tag k="ssr:type" v="bruk" />
	</node>
	<node changeset="66108879" id="6190816517" lat="59.3708889" lon="10.233775" timestamp="2019-01-07T20:37:19Z" uid="3497659" user="NKA" version="1">
		<tag k="name" v="Opprann" />
		<tag k="place" v="farm" />
		<tag k="ssr:stedsnr" v="63195" />
		<tag k="ssr:type" v="bruk" />
	</node>
	<node changeset="66108879" id="6190816518" lat="59.4114583" lon="10.2885444" timestamp="2019-01-07T20:37:19Z" uid="3497659" user="NKA" version="1">
		<tag k="name" v="Brekke" />
		<tag k="place" v="farm" />
		<tag k="ssr:stedsnr" v="609158" />
		<tag k="ssr:type" v="bruk" />
	</node>
	<node changeset="66108879" id="6190816519" lat="59.3786583" lon="10.2392833" timestamp="2019-01-07T20:37:19Z" uid="3497659" user="NKA" version="1">
		<tag k="name" v="Flåteteigen" />
		<tag k="place" v="farm" />
		<tag k="ssr:stedsnr" v="63201" />
		<tag k="ssr:type" v="bruk" />
	</node>
	<node changeset="66108879" id="6190816520" lat="59.4204083" lon="10.1411167" timestamp="2019-01-07T20:37:19Z" uid="3497659" user="NKA" version="1">
		<tag k="alt_name" v="Vallemrød" />
		<tag k="name" v="Vallumrød" />
		<tag k="place" v="farm" />
		<tag k="ssr:stedsnr" v="609168" />
		<tag k="ssr:type" v="bruk" />
	</node>
	<node changeset="66108879" id="6190816521" lat="59.4248167" lon="10.2352417" timestamp="2019-01-07T20:37:19Z" uid="3497659" user="NKA" version="1">
		<tag k="name" v="Borge søndre" />
		<tag k="place" v="farm" />
		<tag k="ssr:stedsnr" v="609182" />
		<tag k="ssr:type" v="bruk" />
	</node>
	<node changeset="66108879" id="6190816522" lat="59.3975583" lon="10.2033944" timestamp="2019-01-07T20:37:19Z" uid="3497659" user="NKA" version="1">
		<tag k="name" v="Rønningen" />
		<tag k="place" v="farm" />
		<tag k="ssr:stedsnr" v="63237" />
		<tag k="ssr:type" v="bruk" />
	</node>
	<node changeset="66108879" id="6190816523" lat="59.4066278" lon="10.2255611" timestamp="2019-01-07T20:37:19Z" uid="3497659" user="NKA" version="1">
		<tag k="alt_name" v="Skrikestad, østre;Skrikestad nedre" />
		<tag k="name" v="Østre Skrikestad" />
		<tag k="place" v="farm" />
		<tag k="ssr:stedsnr" v="609211" />
		<tag k="ssr:type" v="bruk" />
	</node>
	<node changeset="66108879" id="6190816524" lat="59.3197194" lon="10.3239028" timestamp="2019-01-07T20:37:19Z" uid="3497659" user="NKA" version="1">
		<tag k="name" v="Toen" />
		<tag k="place" v="farm" />
		<tag k="ssr:stedsnr" v="609764" />
		<tag k="ssr:type" v="bruk" />
	</node>
	<node changeset="66108948" id="6190816525" lat="59.3878583" lon="10.0653778" timestamp="2019-01-07T20:40:05Z" uid="3497659" user="NKA" version="2">
		<tag k="alt_name" v="Valmestadseter" />
		<tag k="historic" v="shieling" />
		<tag k="name" v="Valmestadsetra" />
		<tag k="place" v="isolated_dwelling" />
		<tag k="ssr:stedsnr" v="63252" />
		<tag k="ssr:type" v="fritidsbolig" />
	</node>
	<node changeset="66108879" id="6190816526" lat="59.3516583" lon="10.2969528" timestamp="2019-01-07T20:37:19Z" uid="3497659" user="NKA" version="1">
		<tag k="name" v="Skjeggestad" />
		<tag k="place" v="farm" />
		<tag k="ssr:stedsnr" v="63772" />
		<tag k="ssr:type" v="bruk" />
	</node>
	<node changeset="66108879" id="6190816527" lat="59.4393028" lon="10.1232583" timestamp="2019-01-07T20:37:19Z" uid="3497659" user="NKA" version="1">
		<tag k="name" v="Stubben" />
		<tag k="place" v="farm" />
		<tag k="ssr:stedsnr" v="633022" />
		<tag k="ssr:type" v="bruk" />
	</node>
	<node changeset="66108879" id="6190816528" lat="59.4251889" lon="10.0777333" timestamp="2019-01-07T20:37:20Z" uid="3497659" user="NKA" version="1">
		<tag k="historic" v="shieling" />
		<tag k="name" v="Stokkeseter" />
		<tag k="place" v="locality" />
		<tag k="ssr:stedsnr" v="88007" />
		<tag k="ssr:type" v="seterStøl" />
	</node>
	<node changeset="66108879" id="6190816529" lat="59.4326806" lon="10.1350972" timestamp="2019-01-07T20:37:20Z" uid="3497659" user="NKA" version="1">
		<tag k="name" v="Engen" />
		<tag k="place" v="farm" />
		<tag k="ssr:stedsnr" v="633033" />
		<tag k="ssr:type" v="bruk" />
	</node>
	<node changeset="66108879" id="6190816530" lat="59.3913361" lon="10.1127195" timestamp="2019-01-07T20:37:20Z" uid="3497659" user="NKA" version="1">
		<tag k="name" v="Valmestad" />
		<tag k="place" v="locality" />
		<tag k="ssr:stedsnr" v="88056" />
		<tag k="ssr:type" v="eiendom" />
	</node>
	<node changeset="66108879" id="6190816531" lat="59.3933194" lon="10.0573889" timestamp="2019-01-07T20:37:20Z" uid="3497659" user="NKA" version="1">
		<tag k="name" v="Rundby" />
		<tag k="place" v="locality" />
		<tag k="ssr:stedsnr" v="633083" />
		<tag k="ssr:type" v="eiendom" />
	</node>
	<node changeset="66108879" id="6190816532" lat="59.3832556" lon="10.1528278" timestamp="2019-01-07T20:37:20Z" uid="3497659" user="NKA" version="1">
		<tag k="name" v="Kjønnerød" />
		<tag k="place" v="locality" />
		<tag k="ssr:stedsnr" v="88060" />
		<tag k="ssr:type" v="eiendom" />
	</node>
	<node changeset="66108879" id="6190816533" lat="59.3839472" lon="10.1332083" timestamp="2019-01-07T20:37:20Z" uid="3497659" user="NKA" version="1">
		<tag k="name" v="Eikenes" />
		<tag k="place" v="farm" />
		<tag k="ssr:stedsnr" v="633097" />
		<tag k="ssr:type" v="bruk" />
	</node>
	<node changeset="66108879" id="6190816534" lat="59.4010139" lon="10.1350306" timestamp="2019-01-07T20:37:20Z" uid="3497659" user="NKA" version="1">
		<tag k="name" v="Lundberg" />
		<tag k="place" v="farm" />
		<tag k="ssr:stedsnr" v="88146" />
		<tag k="ssr:type" v="bruk" />
	</node>
	<node changeset="66108879" id="6190816535" lat="59.3509556" lon="10.2394556" timestamp="2019-01-07T20:37:20Z" uid="3497659" user="NKA" version="1">
		<tag k="name" v="Berg vestre" />
		<tag k="place" v="farm" />
		<tag k="ssr:stedsnr" v="88232" />
		<tag k="ssr:type" v="bruk" />
	</node>
	<node changeset="66108879" id="6190816536" lat="59.3497167" lon="10.2487389" timestamp="2019-01-07T20:37:20Z" uid="3497659" user="NKA" version="1">
		<tag k="name" v="Ramnes nordre" />
		<tag k="place" v="farm" />
		<tag k="ssr:stedsnr" v="88236" />
		<tag k="ssr:type" v="bruk" />
	</node>
	<node changeset="66108879" id="6190816537" lat="59.3416806" lon="10.2314444" timestamp="2019-01-07T20:37:20Z" uid="3497659" user="NKA" version="1">
		<tag k="name" v="Sagfossen" />
		<tag k="place" v="isolated_dwelling" />
		<tag k="ssr:stedsnr" v="88240" />
		<tag k="ssr:type" v="fritidsbolig" />
	</node>
	<node changeset="66108879" id="6190816538" lat="59.4001889" lon="10.1997694" timestamp="2019-01-07T20:37:20Z" uid="3497659" user="NKA" version="1">
		<tag k="name" v="Øvre Rønningen" />
		<tag k="place" v="farm" />
		<tag k="ssr:stedsnr" v="88247" />
		<tag k="ssr:type" v="bruk" />
	</node>
	<node changeset="66108879" id="6190816539" lat="59.3950361" lon="10.1781194" timestamp="2019-01-07T20:37:20Z" uid="3497659" user="NKA" version="1">
		<tag k="historic" v="shieling" />
		<tag k="name" v="Bjørnseter" />
		<tag k="place" v="locality" />
		<tag k="ssr:stedsnr" v="633313" />
		<tag k="ssr:type" v="seterStøl" />
	</node>
	<node changeset="66108879" id="6190816540" lat="59.379" lon="10.1870139" timestamp="2019-01-07T20:37:20Z" uid="3497659" user="NKA" version="1">
		<tag k="name" v="Jerpetjønn" />
		<tag k="place" v="farm" />
		<tag k="ssr:stedsnr" v="88252" />
		<tag k="ssr:type" v="bruk" />
	</node>
	<node changeset="66108879" id="6190816541" lat="59.3846056" lon="10.162325" timestamp="2019-01-07T20:37:20Z" uid="3497659" user="NKA" version="1">
		<tag k="name" v="Kjønnerød" />
		<tag k="place" v="farm" />
		<tag k="ssr:stedsnr" v="633322" />
		<tag k="ssr:type" v="bruk" />
	</node>
	<node changeset="66108879" id="6190816542" lat="59.4143694" lon="10.2205472" timestamp="2019-01-07T20:37:20Z" uid="3497659" user="NKA" version="1">
		<tag k="name" v="Hvidsten" />
		<tag k="place" v="farm" />
		<tag k="ssr:stedsnr" v="88261" />
		<tag k="ssr:type" v="bruk" />
	</node>
	<node changeset="66108879" id="6190816543" lat="59.4019768" lon="10.2225078" timestamp="2019-01-07T20:37:21Z" uid="3497659" user="NKA" version="1">
		<tag k="name" v="Skrikestad" />
		<tag k="place" v="farm" />
		<tag k="ssr:stedsnr" v="88262" />
		<tag k="ssr:type" v="bruk" />
	</node>
	<node changeset="66108879" id="6190816544" lat="59.4199417" lon="10.240975" timestamp="2019-01-07T20:37:21Z" uid="3497659" user="NKA" version="1">
		<tag k="name" v="Borge øvre" />
		<tag k="place" v="farm" />
		<tag k="ssr:stedsnr" v="633341" />
		<tag k="ssr:type" v="bruk" />
	</node>
	<node changeset="66108879" id="6190816545" lat="59.3662083" lon="10.2127806" timestamp="2019-01-07T20:37:21Z" uid="3497659" user="NKA" version="1">
		<tag k="name" v="Bleika" />
		<tag k="place" v="locality" />
		<tag k="ssr:stedsnr" v="88281" />
		<tag k="ssr:type" v="eiendom" />
	</node>
	<node changeset="66108879" id="6190816546" lat="59.3141278" lon="10.2495528" timestamp="2019-01-07T20:37:21Z" uid="3497659" user="NKA" version="1">
		<tag k="name" v="Rånerød" />
		<tag k="place" v="locality" />
		<tag k="ssr:stedsnr" v="633345" />
		<tag k="ssr:type" v="eiendom" />
	</node>
	<node changeset="66108879" id="6190816547" lat="59.356575" lon="10.2476278" timestamp="2019-01-07T20:37:21Z" uid="3497659" user="NKA" version="1">
		<tag k="name" v="Berg mellom" />
		<tag k="place" v="farm" />
		<tag k="ssr:stedsnr" v="633401" />
		<tag k="ssr:type" v="bruk" />
	</node>
	<node changeset="66108879" id="6190816548" lat="59.3603222" lon="10.2540472" timestamp="2019-01-07T20:37:21Z" uid="3497659" user="NKA" version="1">
		<tag k="name" v="Berg østre" />
		<tag k="place" v="farm" />
		<tag k="ssr:stedsnr" v="633408" />
		<tag k="ssr:type" v="bruk" />
	</node>
	<node changeset="66108879" id="6190816549" lat="59.4432556" lon="10.1656833" timestamp="2019-01-07T20:37:21Z" uid="3497659" user="NKA" version="1">
		<tag k="name" v="Fjellstua" />
		<tag k="place" v="isolated_dwelling" />
		<tag k="ssr:stedsnr" v="633533" />
		<tag k="ssr:type" v="fritidsbolig" />
	</node>
	<node changeset="66108879" id="6190816550" lat="59.4271444" lon="10.2357945" timestamp="2019-01-07T20:37:21Z" uid="3497659" user="NKA" version="1">
		<tag k="name" v="Borge nordre" />
		<tag k="place" v="farm" />
		<tag k="ssr:stedsnr" v="633647" />
		<tag k="ssr:type" v="bruk" />
	</node>
	<node changeset="66108879" id="6190816551" lat="59.4241333" lon="10.2276917" timestamp="2019-01-07T20:37:21Z" uid="3497659" user="NKA" version="1">
		<tag k="name" v="Borge" />
		<tag k="place" v="farm" />
		<tag k="ssr:stedsnr" v="633653" />
		<tag k="ssr:type" v="bruk" />
	</node>
	<node changeset="66108879" id="6190816552" lat="59.3902778" lon="10.2442833" timestamp="2019-01-07T20:37:21Z" uid="3497659" user="NKA" version="1">
		<tag k="name" v="Firing m." />
		<tag k="place" v="farm" />
		<tag k="ssr:stedsnr" v="88493" />
		<tag k="ssr:type" v="bruk" />
	</node>
	<node changeset="66108879" id="6190816553" lat="59.3706456" lon="10.3356019" timestamp="2019-01-07T20:37:21Z" uid="3497659" user="NKA" version="1">
		<tag k="name" v="Grøum" />
		<tag k="place" v="farm" />
		<tag k="ssr:stedsnr" v="633743" />
		<tag k="ssr:type" v="bruk" />
	</node>
	<node changeset="66108879" id="6190816554" lat="59.386675" lon="10.21415" timestamp="2019-01-07T20:37:21Z" uid="3497659" user="NKA" version="1">
		<tag k="name" v="Holt n." />
		<tag k="place" v="farm" />
		<tag k="ssr:stedsnr" v="88503" />
		<tag k="ssr:type" v="bruk" />
	</node>
	<node changeset="66108879" id="6190816555" lat="59.3404143" lon="10.3348047" timestamp="2019-01-07T20:37:21Z" uid="3497659" user="NKA" version="1">
		<tag k="name" v="Horn" />
		<tag k="place" v="farm" />
		<tag k="ssr:stedsnr" v="633825" />
		<tag k="ssr:type" v="bruk" />
	</node>
	<node changeset="66108879" id="6190816556" lat="59.3909583" lon="10.2779278" timestamp="2019-01-07T20:37:21Z" uid="3497659" user="NKA" version="1">
		<tag k="name" v="Rønningen" />
		<tag k="place" v="isolated_dwelling" />
		<tag k="ssr:stedsnr" v="633849" />
		<tag k="ssr:type" v="fritidsbolig" />
	</node>
	<node changeset="66108879" id="6190816557" lat="59.3869472" lon="10.280925" timestamp="2019-01-07T20:37:21Z" uid="3497659" user="NKA" version="1">
		<tag k="name" v="Ormestad" />
		<tag k="place" v="farm" />
		<tag k="ssr:stedsnr" v="633850" />
		<tag k="ssr:type" v="bruk" />
	</node>
	<node changeset="66108879" id="6190816558" lat="59.3560639" lon="10.2634611" timestamp="2019-01-07T20:37:22Z" uid="3497659" user="NKA" version="1">
		<tag k="name" v="Valle søndre" />
		<tag k="place" v="farm" />
		<tag k="ssr:stedsnr" v="88668" />
		<tag k="ssr:type" v="bruk" />
	</node>
	<node changeset="66108879" id="6190816559" lat="59.4257944" lon="10.2706361" timestamp="2019-01-07T20:37:22Z" uid="3497659" user="NKA" version="1">
		<tag k="name" v="Våle prestegård" />
		<tag k="place" v="farm" />
		<tag k="ssr:stedsnr" v="633894" />
		<tag k="ssr:type" v="bruk" />
	</node>
	<node changeset="66108879" id="6190816560" lat="59.3644611" lon="10.3379972" timestamp="2019-01-07T20:37:22Z" uid="3497659" user="NKA" version="1">
		<tag k="name" v="Heum nordre" />
		<tag k="place" v="farm" />
		<tag k="ssr:stedsnr" v="88689" />
		<tag k="ssr:type" v="bruk" />
	</node>
	<node changeset="66108879" id="6190816561" lat="59.3786356" lon="10.3284753" timestamp="2019-01-07T20:37:22Z" uid="3497659" user="NKA" version="1">
		<tag k="name" v="Lofstad" />
		<tag k="place" v="farm" />
		<tag k="ssr:stedsnr" v="88705" />
		<tag k="ssr:type" v="bruk" />
	</node>
	<node changeset="66108879" id="6190816562" lat="59.4010667" lon="10.3100444" timestamp="2019-01-07T20:37:22Z" uid="3497659" user="NKA" version="1">
		<tag k="name" v="Klevjer" />
		<tag k="place" v="farm" />
		<tag k="ssr:stedsnr" v="669218" />
		<tag k="ssr:type" v="bruk" />
	</node>
	<node changeset="66108879" id="6190816563" lat="59.3941444" lon="10.3063417" timestamp="2019-01-07T20:37:22Z" uid="3497659" user="NKA" version="1">
		<tag k="name" v="Tufte" />
		<tag k="place" v="farm" />
		<tag k="ssr:stedsnr" v="669226" />
		<tag k="ssr:type" v="bruk" />
	</node>
	<node changeset="66108879" id="6190816564" lat="59.3829167" lon="10.3549333" timestamp="2019-01-07T20:37:22Z" uid="3497659" user="NKA" version="1">
		<tag k="name" v="Langklep nordre" />
		<tag k="place" v="farm" />
		<tag k="ssr:stedsnr" v="88747" />
		<tag k="ssr:type" v="bruk" />
	</node>
	<node changeset="66108879" id="6190816565" lat="59.3799444" lon="10.3435056" timestamp="2019-01-07T20:37:22Z" uid="3497659" user="NKA" version="1">
		<tag k="name" v="Gjerpen" />
		<tag k="place" v="farm" />
		<tag k="ssr:stedsnr" v="88750" />
		<tag k="ssr:type" v="bruk" />
	</node>
	<node changeset="66108879" id="6190816566" lat="59.4501639" lon="10.2105528" timestamp="2019-01-07T20:37:22Z" uid="3497659" user="NKA" version="1">
		<tag k="name" v="Kalsrud" />
		<tag k="place" v="farm" />
		<tag k="ssr:stedsnr" v="669048" />
		<tag k="ssr:type" v="gard" />
	</node>
	<node changeset="66108879" id="6190816567" lat="59.4429361" lon="10.2193611" timestamp="2019-01-07T20:37:22Z" uid="3497659" user="NKA" version="1">
		<tag k="name" v="Kongsteigen" />
		<tag k="place" v="farm" />
		<tag k="ssr:stedsnr" v="669059" />
		<tag k="ssr:type" v="bruk" />
	</node>
	<node changeset="66108879" id="6190816568" lat="59.4496528" lon="10.3049028" timestamp="2019-01-07T20:37:22Z" uid="3497659" user="NKA" version="1">
		<tag k="name" v="Håkestad nordre" />
		<tag k="place" v="farm" />
		<tag k="ssr:stedsnr" v="88767" />
		<tag k="ssr:type" v="bruk" />
	</node>
	<node changeset="66108879" id="6190816569" lat="59.4626472" lon="10.3373639" timestamp="2019-01-07T20:37:22Z" uid="3497659" user="NKA" version="1">
		<tag k="name" v="Reggestad søndre" />
		<tag k="place" v="farm" />
		<tag k="ssr:stedsnr" v="88773" />
		<tag k="ssr:type" v="bruk" />
	</node>
	<node changeset="66108879" id="6190816570" lat="59.4362333" lon="10.1706528" timestamp="2019-01-07T20:37:22Z" uid="3497659" user="NKA" version="1">
		<tag k="alt_name" v="Skotvedt vestre" />
		<tag k="name" v="Skotvet" />
		<tag k="place" v="farm" />
		<tag k="ssr:stedsnr" v="669148" />
		<tag k="ssr:type" v="bruk" />
	</node>
	<node changeset="66108879" id="6190816571" lat="59.4234056" lon="10.1995194" timestamp="2019-01-07T20:37:22Z" uid="3497659" user="NKA" version="1">
		<tag k="alt_name" v="Sulutvedt vestre" />
		<tag k="name" v="Sulutvet" />
		<tag k="place" v="farm" />
		<tag k="ssr:stedsnr" v="669159" />
		<tag k="ssr:type" v="bruk" />
	</node>
	<node changeset="66108879" id="6190816572" lat="59.4005061" lon="10.3427686" timestamp="2019-01-07T20:37:22Z" uid="3497659" user="NKA" version="1">
		<tag k="name" v="Linneflåtten" />
		<tag k="place" v="farm" />
		<tag k="ssr:stedsnr" v="88811" />
		<tag k="ssr:type" v="bruk" />
	</node>
	<node changeset="66108879" id="6190816573" lat="59.3696944" lon="10.3914472" timestamp="2019-01-07T20:37:23Z" uid="3497659" user="NKA" version="1">
		<tag k="name" v="Råen" />
		<tag k="place" v="farm" />
		<tag k="ssr:stedsnr" v="89427" />
		<tag k="ssr:type" v="bruk" />
	</node>
	<node changeset="66108879" id="6190816574" lat="59.4101917" lon="10.142925" timestamp="2019-01-07T20:37:23Z" uid="3497659" user="NKA" version="1">
		<tag k="name" v="Orerød" />
		<tag k="place" v="farm" />
		<tag k="ssr:stedsnr" v="670127" />
		<tag k="ssr:type" v="bruk" />
	</node>
	<node changeset="66108879" id="6190816575" lat="59.410325" lon="10.2348556" timestamp="2019-01-07T20:37:23Z" uid="3497659" user="NKA" version="1">
		<tag k="name" v="Vika" />
		<tag k="place" v="farm" />
		<tag k="ssr:stedsnr" v="670153" />
		<tag k="ssr:type" v="bruk" />
	</node>
	<node changeset="66108879" id="6190816576" lat="59.4068778" lon="10.208925" timestamp="2019-01-07T20:37:23Z" uid="3497659" user="NKA" version="1">
		<tag k="name" v="Lislebø" />
		<tag k="place" v="farm" />
		<tag k="ssr:stedsnr" v="670155" />
		<tag k="ssr:type" v="bruk" />
	</node>
	<node changeset="66108879" id="6190816577" lat="59.3627583" lon="10.1963583" timestamp="2019-01-07T20:37:23Z" uid="3497659" user="NKA" version="1">
		<tag k="name" v="Gislerød" />
		<tag k="place" v="farm" />
		<tag k="ssr:stedsnr" v="670209" />
		<tag k="ssr:type" v="bruk" />
	</node>
	<node changeset="66108879" id="6190816578" lat="59.4677262" lon="10.3399832" timestamp="2019-01-07T20:37:23Z" uid="3497659" user="NKA" version="1">
		<tag k="name" v="Mulvika" />
		<tag k="place" v="farm" />
		<tag k="ssr:stedsnr" v="123029" />
		<tag k="ssr:type" v="bruk" />
	</node>
	<node changeset="66108879" id="6190816579" lat="59.3669556" lon="10.2629083" timestamp="2019-01-07T20:37:23Z" uid="3497659" user="NKA" version="1">
		<tag k="alt_name" v="Teien" />
		<tag k="name" v="Teigen" />
		<tag k="place" v="farm" />
		<tag k="ssr:stedsnr" v="670210" />
		<tag k="ssr:type" v="bruk" />
	</node>
	<node changeset="66108879" id="6190816580" lat="59.4449667" lon="10.1908472" timestamp="2019-01-07T20:37:23Z" uid="3497659" user="NKA" version="1">
		<tag k="name" v="Rød" />
		<tag k="place" v="farm" />
		<tag k="ssr:stedsnr" v="123086" />
		<tag k="ssr:type" v="bruk" />
	</node>
	<node changeset="66108879" id="6190816581" lat="59.4483972" lon="10.2892972" timestamp="2019-01-07T20:37:23Z" uid="3497659" user="NKA" version="1">
		<tag k="alt_name" v="Bakke, østre;Bakke østre" />
		<tag k="name" v="Østre Bakke" />
		<tag k="place" v="farm" />
		<tag k="ssr:stedsnr" v="123095" />
		<tag k="ssr:type" v="bruk" />
	</node>
	<node changeset="66108879" id="6190816582" lat="59.3301843" lon="10.3225355" timestamp="2019-01-07T20:37:23Z" uid="3497659" user="NKA" version="1">
		<tag k="name" v="Førum" />
		<tag k="place" v="farm" />
		<tag k="ssr:stedsnr" v="670766" />
		<tag k="ssr:type" v="bruk" />
	</node>
	<node changeset="66108879" id="6190816583" lat="59.443325" lon="10.3067555" timestamp="2019-01-07T20:37:23Z" uid="3497659" user="NKA" version="1">
		<tag k="alt_name" v="Vissestad" />
		<tag k="name" v="Visestad" />
		<tag k="place" v="farm" />
		<tag k="ssr:stedsnr" v="123097" />
		<tag k="ssr:type" v="bruk" />
	</node>
	<node changeset="66108879" id="6190816584" lat="59.3163306" lon="10.3064139" timestamp="2019-01-07T20:37:23Z" uid="3497659" user="NKA" version="1">
		<tag k="name" v="Klepperås" />
		<tag k="place" v="farm" />
		<tag k="ssr:stedsnr" v="670777" />
		<tag k="ssr:type" v="bruk" />
	</node>
	<node changeset="42512724" id="4423320987" lat="59.3602244" lon="10.2471507" timestamp="2016-09-29T08:28:01Z" uid="1741239" user="freewaretips" version="1" />
	<node changeset="42512724" id="4423320988" lat="59.3602517" lon="10.2483898" timestamp="2016-09-29T08:28:01Z" uid="1741239" user="freewaretips" version="1" />
	<node changeset="42512724" id="4423320989" lat="59.3592757" lon="10.2484918" timestamp="2016-09-29T08:28:01Z" uid="1741239" user="freewaretips" version="1" />
	<node changeset="42512724" id="4423320990" lat="59.3592429" lon="10.247215" timestamp="2016-09-29T08:28:01Z" uid="1741239" user="freewaretips" version="1" />
	<node changeset="66108879" id="5421094467" lat="59.3400749" lon="10.3092275" timestamp="2019-01-07T20:37:57Z" uid="3497659" user="NKA" version="2">
		<tag k="alt_name" v="Linnestad m" />
		<tag k="name" v="Linnestad" />
		<tag k="place" v="hamlet" />
		<tag k="population" v="323" />
		<tag k="population:date" v="2017-01-01" />
		<tag k="ssr:stedsnr" v="488756" />
		<tag k="ssr:type" v="bruk" />
	</node>
	<node changeset="66108879" id="5421094469" lat="59.4152978" lon="10.2381898" timestamp="2019-01-07T20:37:57Z" uid="3497659" user="NKA" version="2">
		<tag k="name" v="Svinevoll" />
		<tag k="place" v="hamlet" />
		<tag k="ssr:stedsnr" v="148343" />
		<tag k="ssr:type" v="bruk" />
	</node>
	<node changeset="66108879" id="5421094470" lat="59.4130333" lon="10.2803111" timestamp="2019-01-07T20:37:57Z" uid="3497659" user="NKA" version="3">
		<tag k="name" v="Brekkeåsen" />
		<tag k="place" v="quarter" />
		<tag k="population" v="930" />
		<tag k="population:date" v="2017-01-01" />
		<tag k="ssr:stedsnr" v="936344" />
		<tag k="ssr:type" v="boligfelt" />
	</node>
	<node changeset="66108879" id="5421094471" lat="59.4285799" lon="10.2884943" timestamp="2019-01-07T20:37:57Z" uid="3497659" user="NKA" version="2">
		<tag k="name" v="Rånerudåsen" />
		<tag k="place" v="hamlet" />
		<tag k="ssr:stedsnr" v="146081" />
		<tag k="ssr:type" v="tettbebyggelse" />
	</node>
	<node changeset="66108879" id="5421094472" lat="59.4252856" lon="10.3018446" timestamp="2019-01-07T20:37:57Z" uid="3497659" user="NKA" version="2">
		<tag k="name" v="Sørby" />
		<tag k="place" v="hamlet" />
		<tag k="ssr:stedsnr" v="877895" />
		<tag k="ssr:type" v="bruk" />
	</node>
	<node changeset="66108879" id="5421094473" lat="59.4203497" lon="10.3329538" timestamp="2019-01-07T20:37:58Z" uid="3497659" user="NKA" version="2">
		<tag k="alt_name" v="Haugan nordre" />
		<tag k="name" v="Haugan" />
		<tag k="place" v="hamlet" />
		<tag k="ssr:stedsnr" v="488119" />
		<tag k="ssr:type" v="bruk" />
	</node>
	<node changeset="66108879" id="5421094474" lat="59.4124765" lon="10.2080226" timestamp="2019-01-07T20:37:58Z" uid="3497659" user="NKA" version="2">
		<tag k="name" v="Fon" />
		<tag k="place" v="village" />
		<tag k="ssr:stedsnr" v="877341" />
		<tag k="ssr:type" v="bruk" />
	</node>
	<node changeset="66108879" id="6190816885" lat="59.4062139" lon="10.2383694" timestamp="2019-01-07T20:37:23Z" uid="3497659" user="NKA" version="1">
		<tag k="name" v="Tangen" />
		<tag k="place" v="farm" />
		<tag k="ssr:stedsnr" v="123162" />
		<tag k="ssr:type" v="bruk" />
	</node>
	<node changeset="66108879" id="6190816886" lat="59.3339194" lon="10.3343" timestamp="2019-01-07T20:37:23Z" uid="3497659" user="NKA" version="1">
		<tag k="alt_name" v="Bjune søndre" />
		<tag k="name" v="Bjune" />
		<tag k="place" v="farm" />
		<tag k="ssr:stedsnr" v="670787" />
		<tag k="ssr:type" v="bruk" />
	</node>
	<node changeset="66108879" id="6190816887" lat="59.4262861" lon="10.1148055" timestamp="2019-01-07T20:37:23Z" uid="3497659" user="NKA" version="1">
		<tag k="alt_name" v="Håvet" />
		<tag k="name" v="Hovet" />
		<tag k="place" v="farm" />
		<tag k="ssr:stedsnr" v="123169" />
		<tag k="ssr:type" v="bruk" />
	</node>
	<node changeset="66108879" id="6190816888" lat="59.4400278" lon="10.2783444" timestamp="2019-01-07T20:37:24Z" uid="3497659" user="NKA" version="1">
		<tag k="alt_name" v="Sørum mellom" />
		<tag k="name" v="Sørum" />
		<tag k="place" v="farm" />
		<tag k="ssr:stedsnr" v="123182" />
		<tag k="ssr:type" v="bruk" />
	</node>
	<node changeset="66108879" id="6190816889" lat="59.4208528" lon="10.1174806" timestamp="2019-01-07T20:37:24Z" uid="3497659" user="NKA" version="1">
		<tag k="alt_name" v="Teigen, nordre;Teien n." />
		<tag k="name" v="Nordre Teigen" />
		<tag k="place" v="farm" />
		<tag k="ssr:stedsnr" v="123189" />
		<tag k="ssr:type" v="bruk" />
	</node>
	<node changeset="66108879" id="6190816890" lat="59.3700643" lon="10.2928843" timestamp="2019-01-07T20:37:24Z" uid="3497659" user="NKA" version="1">
		<tag k="name" v="Gunhildstad" />
		<tag k="place" v="farm" />
		<tag k="ssr:stedsnr" v="123214" />
		<tag k="ssr:type" v="bruk" />
	</node>
	<node changeset="66108879" id="6190816891" lat="59.366225" lon="10.2114528" timestamp="2019-01-07T20:37:24Z" uid="3497659" user="NKA" version="1">
		<tag k="name" v="Bleika" />
		<tag k="place" v="farm" />
		<tag k="ssr:stedsnr" v="123234" />
		<tag k="ssr:type" v="bruk" />
	</node>
	<node changeset="66108879" id="6190816892" lat="59.390356" lon="10.2047236" timestamp="2019-01-07T20:37:24Z" uid="3497659" user="NKA" version="1">
		<tag k="name" v="Solberg" />
		<tag k="place" v="hamlet" />
		<tag k="ssr:stedsnr" v="123248" />
		<tag k="ssr:type" v="bruk" />
	</node>
	<node changeset="66108879" id="6190816893" lat="59.402075" lon="10.3179194" timestamp="2019-01-07T20:37:24Z" uid="3497659" user="NKA" version="1">
		<tag k="alt_name" v="Grytnes vestre" />
		<tag k="name" v="Grytnes" />
		<tag k="place" v="farm" />
		<tag k="ssr:stedsnr" v="123256" />
		<tag k="ssr:type" v="bruk" />
	</node>
	<node changeset="66108879" id="6190816894" lat="59.402" lon="10.335025" timestamp="2019-01-07T20:37:24Z" uid="3497659" user="NKA" version="1">
		<tag k="alt_name" v="Krokeberg" />
		<tag k="name" v="Krokeborg" />
		<tag k="place" v="farm" />
		<tag k="ssr:stedsnr" v="123257" />
		<tag k="ssr:type" v="bruk" />
	</node>
	<node changeset="66108879" id="6190816895" lat="59.4041944" lon="10.3028" timestamp="2019-01-07T20:37:24Z" uid="3497659" user="NKA" version="1">
		<tag k="alt_name" v="Serkeland nedre" />
		<tag k="name" v="Serkland" />
		<tag k="place" v="farm" />
		<tag k="ssr:stedsnr" v="123260" />
		<tag k="ssr:type" v="bruk" />
	</node>
	<node changeset="66108879" id="6190816896" lat="59.3795778" lon="10.1701639" timestamp="2019-01-07T20:37:24Z" uid="3497659" user="NKA" version="1">
		<tag k="name" v="Jerpetjønn" />
		<tag k="place" v="farm" />
		<tag k="ssr:stedsnr" v="123270" />
		<tag k="ssr:type" v="bruk" />
	</node>
	<node changeset="66108879" id="6190816897" lat="59.3773972" lon="10.3682" timestamp="2019-01-07T20:37:24Z" uid="3497659" user="NKA" version="1">
		<tag k="alt_name" v="Bakskjul nedre" />
		<tag k="name" v="Bakskjul" />
		<tag k="place" v="farm" />
		<tag k="ssr:stedsnr" v="123587" />
		<tag k="ssr:type" v="bruk" />
	</node>
	<node changeset="66108879" id="6190816898" lat="59.3529917" lon="10.3503111" timestamp="2019-01-07T20:37:24Z" uid="3497659" user="NKA" version="1">
		<tag k="name" v="Holt" />
		<tag k="place" v="farm" />
		<tag k="ssr:stedsnr" v="123622" />
		<tag k="ssr:type" v="bruk" />
	</node>
	<node changeset="66108879" id="6190816899" lat="59.463725" lon="10.3426417" timestamp="2019-01-07T20:37:24Z" uid="3497659" user="NKA" version="1">
		<tag k="alt_name" v="Reggestad nordre" />
		<tag k="name" v="Reggestad" />
		<tag k="place" v="farm" />
		<tag k="ssr:stedsnr" v="124107" />
		<tag k="ssr:type" v="bruk" />
	</node>
	<node changeset="66108879" id="6190816900" lat="59.4074639" lon="10.1357444" timestamp="2019-01-07T20:37:24Z" uid="3497659" user="NKA" version="1">
		<tag k="name" v="Langved s." />
		<tag k="place" v="farm" />
		<tag k="ssr:stedsnr" v="695189" />
		<tag k="ssr:type" v="bruk" />
	</node>
	<node changeset="66108879" id="6190816901" lat="59.4189944" lon="10.174425" timestamp="2019-01-07T20:37:24Z" uid="3497659" user="NKA" version="1">
		<tag k="historic" v="shieling" />
		<tag k="name" v="Myrseter" />
		<tag k="place" v="locality" />
		<tag k="ssr:stedsnr" v="695284" />
		<tag k="ssr:type" v="seterStøl" />
	</node>
	<node changeset="66108879" id="6190816902" lat="59.458975" lon="10.2725694" timestamp="2019-01-07T20:37:25Z" uid="3497659" user="NKA" version="1">
		<tag k="name" v="Torgerud" />
		<tag k="place" v="farm" />
		<tag k="ssr:stedsnr" v="913115" />
		<tag k="ssr:type" v="bruk" />
	</node>
	<node changeset="66108879" id="6190816903" lat="59.3327028" lon="10.28115" timestamp="2019-01-07T20:37:25Z" uid="3497659" user="NKA" version="1">
		<tag k="name" v="Hole" />
		<tag k="place" v="farm" />
		<tag k="ssr:stedsnr" v="124765" />
		<tag k="ssr:type" v="bruk" />
	</node>
	<node changeset="66108879" id="6190816904" lat="59.4606389" lon="10.3314389" timestamp="2019-01-07T20:37:25Z" uid="3497659" user="NKA" version="1">
		<tag k="name" v="Syrstad" />
		<tag k="place" v="farm" />
		<tag k="ssr:stedsnr" v="913117" />
		<tag k="ssr:type" v="bruk" />
	</node>
	<node changeset="66108879" id="6190816905" lat="59.3463639" lon="10.2488694" timestamp="2019-01-07T20:37:25Z" uid="3497659" user="NKA" version="1">
		<tag k="name" v="Stange" />
		<tag k="place" v="farm" />
		<tag k="ssr:stedsnr" v="695305" />
		<tag k="ssr:type" v="bruk" />
	</node>
	<node changeset="66108948" id="6190816906" lat="59.4063917" lon="10.1824833" timestamp="2019-01-07T20:40:05Z" uid="3497659" user="NKA" version="2">
		<tag k="alt_name" v="Røssdalsetra" />
		<tag k="historic" v="shieling" />
		<tag k="name" v="Setra" />
		<tag k="place" v="isolated_dwelling" />
		<tag k="ssr:stedsnr" v="913128" />
		<tag k="ssr:type" v="fritidsbolig" />
	</node>
	<node changeset="66108879" id="6190816907" lat="59.3463944" lon="10.2578611" timestamp="2019-01-07T20:37:25Z" uid="3497659" user="NKA" version="1">
		<tag k="name" v="Ramnes søndre" />
		<tag k="place" v="farm" />
		<tag k="ssr:stedsnr" v="695308" />
		<tag k="ssr:type" v="bruk" />
	</node>
	<node changeset="66108879" id="6190816908" lat="59.4198056" lon="10.2861667" timestamp="2019-01-07T20:37:25Z" uid="3497659" user="NKA" version="1">
		<tag k="name" v="Bakken" />
		<tag k="place" v="farm" />
		<tag k="ssr:stedsnr" v="913133" />
		<tag k="ssr:type" v="bruk" />
	</node>
	<node changeset="66108879" id="6190816909" lat="59.4112111" lon="10.2641861" timestamp="2019-01-07T20:37:25Z" uid="3497659" user="NKA" version="1">
		<tag k="alt_name" v="Skinnene" />
		<tag k="name" v="Skinnane" />
		<tag k="place" v="farm" />
		<tag k="ssr:stedsnr" v="913155" />
		<tag k="ssr:type" v="bruk" />
	</node>
	<node changeset="66108879" id="6190816910" lat="59.3613389" lon="10.3198333" timestamp="2019-01-07T20:37:25Z" uid="3497659" user="NKA" version="1">
		<tag k="name" v="Ødegården" />
		<tag k="place" v="locality" />
		<tag k="ssr:stedsnr" v="913194" />
		<tag k="ssr:type" v="gammelBosettingsplass" />
	</node>
	<node changeset="66108879" id="6190816911" lat="59.4023889" lon="10.1867806" timestamp="2019-01-07T20:37:25Z" uid="3497659" user="NKA" version="1">
		<tag k="alt_name" v="Røssedal" />
		<tag k="name" v="Røssdalen" />
		<tag k="place" v="isolated_dwelling" />
		<tag k="ssr:stedsnr" v="913211" />
		<tag k="ssr:type" v="fritidsbolig" />
	</node>
	<node changeset="66108879" id="6190816912" lat="59.3562806" lon="10.2844306" timestamp="2019-01-07T20:37:25Z" uid="3497659" user="NKA" version="1">
		<tag k="alt_name" v="Bø n" />
		<tag k="name" v="Bø" />
		<tag k="place" v="farm" />
		<tag k="ssr:stedsnr" v="913756" />
		<tag k="ssr:type" v="bruk" />
	</node>
	<node changeset="66108879" id="6190816913" lat="59.4520028" lon="10.1518444" timestamp="2019-01-07T20:37:25Z" uid="3497659" user="NKA" version="1">
		<tag k="name" v="Langeli S." />
		<tag k="place" v="farm" />
		<tag k="ssr:stedsnr" v="148115" />
		<tag k="ssr:type" v="bruk" />
	</node>
	<node changeset="66108879" id="6190816914" lat="59.3172833" lon="10.2325" timestamp="2019-01-07T20:37:25Z" uid="3497659" user="NKA" version="1">
		<tag k="alt_name" v="Grorud" />
		<tag k="name" v="Grorød" />
		<tag k="place" v="farm" />
		<tag k="ssr:stedsnr" v="913774" />
		<tag k="ssr:type" v="bruk" />
	</node>
	<node changeset="66108879" id="6190816915" lat="59.4387358" lon="10.0987074" timestamp="2019-01-07T20:37:25Z" uid="3497659" user="NKA" version="1">
		<tag k="name" v="O" />
		<tag k="place" v="farm" />
		<tag k="ssr:stedsnr" v="936339" />
		<tag k="ssr:type" v="bruk" />
	</node>
	<node changeset="66108879" id="6190816916" lat="59.4043712" lon="10.1325849" timestamp="2019-01-07T20:37:25Z" uid="3497659" user="NKA" version="1">
		<tag k="name" v="Lunde" />
		<tag k="place" v="farm" />
		<tag k="ssr:stedsnr" v="148181" />
		<tag k="ssr:type" v="bruk" />
	</node>
	<node changeset="66108879" id="6190816917" lat="59.3398611" lon="10.2335056" timestamp="2019-01-07T20:37:25Z" uid="3497659" user="NKA" version="1">
		<tag k="name" v="Nabben" />
		<tag k="place" v="isolated_dwelling" />
		<tag k="ssr:stedsnr" v="148279" />
		<tag k="ssr:type" v="fritidsbolig" />
	</node>
	<node changeset="66108879" id="6190816918" lat="59.4360833" lon="10.1776528" timestamp="2019-01-07T20:37:26Z" uid="3497659" user="NKA" version="1">
		<tag k="name" v="Skotvedt østre" />
		<tag k="place" v="farm" />
		<tag k="ssr:stedsnr" v="695528" />
		<tag k="ssr:type" v="bruk" />
	</node>
	<node changeset="66108879" id="6190816919" lat="59.4418917" lon="10.1005444" timestamp="2019-01-07T20:37:26Z" uid="3497659" user="NKA" version="1">
		<tag k="name" v="Østli" />
		<tag k="place" v="farm" />
		<tag k="ssr:stedsnr" v="937020" />
		<tag k="ssr:type" v="bruk" />
	</node>
	<node changeset="66108879" id="6190816920" lat="59.4378472" lon="10.1995278" timestamp="2019-01-07T20:37:26Z" uid="3497659" user="NKA" version="1">
		<tag k="name" v="Herkjeft øvre" />
		<tag k="place" v="farm" />
		<tag k="ssr:stedsnr" v="695536" />
		<tag k="ssr:type" v="bruk" />
	</node>
	<node changeset="66108879" id="6190816921" lat="59.3866667" lon="10.1259917" timestamp="2019-01-07T20:37:26Z" uid="3497659" user="NKA" version="1">
		<tag k="name" v="Holmene" />
		<tag k="place" v="locality" />
		<tag k="ssr:stedsnr" v="937099" />
		<tag k="ssr:type" v="eiendom" />
	</node>
	<node changeset="66108879" id="6190816922" lat="59.3455194" lon="10.2310806" timestamp="2019-01-07T20:37:26Z" uid="3497659" user="NKA" version="1">
		<tag k="name" v="Vesle Jonstang" />
		<tag k="place" v="locality" />
		<tag k="ssr:stedsnr" v="148300" />
		<tag k="ssr:type" v="eiendom" />
	</node>
	<node changeset="66108879" id="6190816923" lat="59.4005028" lon="10.1288333" timestamp="2019-01-07T20:37:26Z" uid="3497659" user="NKA" version="1">
		<tag k="name" v="Bjerkelund" />
		<tag k="place" v="farm" />
		<tag k="ssr:stedsnr" v="937214" />
		<tag k="ssr:type" v="bruk" />
	</node>
	<node changeset="66108879" id="6190816924" lat="59.4301306" lon="10.2225833" timestamp="2019-01-07T20:37:26Z" uid="3497659" user="NKA" version="1">
		<tag k="name" v="Bakstevold lille" />
		<tag k="place" v="farm" />
		<tag k="ssr:stedsnr" v="695642" />
		<tag k="ssr:type" v="bruk" />
	</node>
	<node changeset="66108879" id="6190816925" lat="59.4373028" lon="10.2184972" timestamp="2019-01-07T20:37:26Z" uid="3497659" user="NKA" version="1">
		<tag k="name" v="Bakstevold nordre" />
		<tag k="place" v="farm" />
		<tag k="ssr:stedsnr" v="695644" />
		<tag k="ssr:type" v="bruk" />
	</node>
	<node changeset="66108879" id="6190816926" lat="59.3835361" lon="10.1951917" timestamp="2019-01-07T20:37:26Z" uid="3497659" user="NKA" version="1">
		<tag k="name" v="Østre Jerpetjønn" />
		<tag k="place" v="farm" />
		<tag k="ssr:stedsnr" v="148324" />
		<tag k="ssr:type" v="bruk" />
	</node>
	<node changeset="66108879" id="6190816927" lat="59.4122472" lon="10.2153167" timestamp="2019-01-07T20:37:26Z" uid="3497659" user="NKA" version="1">
		<tag k="name" v="Myre" />
		<tag k="place" v="locality" />
		<tag k="ssr:stedsnr" v="148331" />
		<tag k="ssr:type" v="eiendom" />
	</node>
	<node changeset="66108879" id="6190816928" lat="59.4340694" lon="10.2215056" timestamp="2019-01-07T20:37:26Z" uid="3497659" user="NKA" version="1">
		<tag k="name" v="Bakstevold mellom" />
		<tag k="place" v="farm" />
		<tag k="ssr:stedsnr" v="695643" />
		<tag k="ssr:type" v="bruk" />
	</node>
	<node changeset="66108879" id="6190816929" lat="59.4138973" lon="10.2108883" timestamp="2019-01-07T20:37:26Z" uid="3497659" user="NKA" version="1">
		<tag k="name" v="Krakken" />
		<tag k="place" v="farm" />
		<tag k="ssr:stedsnr" v="148333" />
		<tag k="ssr:type" v="bruk" />
	</node>
	<node changeset="66108879" id="6190816930" lat="59.3475083" lon="10.2381861" timestamp="2019-01-07T20:37:26Z" uid="3497659" user="NKA" version="1">
		<tag k="name" v="Lerstang" />
		<tag k="place" v="farm" />
		<tag k="ssr:stedsnr" v="937309" />
		<tag k="ssr:type" v="bruk" />
	</node>
	<node changeset="66108879" id="6190816931" lat="59.3424806" lon="10.2592917" timestamp="2019-01-07T20:37:26Z" uid="3497659" user="NKA" version="1">
		<tag k="name" v="Hagen" />
		<tag k="place" v="farm" />
		<tag k="ssr:stedsnr" v="937322" />
		<tag k="ssr:type" v="bruk" />
	</node>
	<node changeset="66108879" id="6190816932" lat="59.3771444" lon="10.2415639" timestamp="2019-01-07T20:37:26Z" uid="3497659" user="NKA" version="1">
		<tag k="name" v="Lundteigen" />
		<tag k="place" v="farm" />
		<tag k="ssr:stedsnr" v="148382" />
		<tag k="ssr:type" v="bruk" />
	</node>
	<node changeset="66108879" id="6190816933" lat="59.4460833" lon="10.2833333" timestamp="2019-01-07T20:37:26Z" uid="3497659" user="NKA" version="1">
		<tag k="name" v="Holm østre" />
		<tag k="place" v="farm" />
		<tag k="ssr:stedsnr" v="695775" />
		<tag k="ssr:type" v="bruk" />
	</node>
	<node changeset="66108879" id="6190816934" lat="59.3797278" lon="10.1850583" timestamp="2019-01-07T20:37:27Z" uid="3497659" user="NKA" version="1">
		<tag k="name" v="Solheim" />
		<tag k="place" v="farm" />
		<tag k="ssr:stedsnr" v="937336" />
		<tag k="ssr:type" v="bruk" />
	</node>
	<node changeset="66108879" id="6190816935" lat="59.4265667" lon="10.16945" timestamp="2019-01-07T20:37:27Z" uid="3497659" user="NKA" version="1">
		<tag k="name" v="Hytta" />
		<tag k="place" v="isolated_dwelling" />
		<tag k="ssr:stedsnr" v="148544" />
		<tag k="ssr:type" v="fritidsbolig" />
	</node>
	<node changeset="66108879" id="6190816936" lat="59.427675" lon="10.1978356" timestamp="2019-01-07T20:37:27Z" uid="3497659" user="NKA" version="1">
		<tag k="name" v="Holtung søndre" />
		<tag k="place" v="farm" />
		<tag k="ssr:stedsnr" v="148559" />
		<tag k="ssr:type" v="bruk" />
	</node>
	<node changeset="66108879" id="6190816937" lat="59.4547778" lon="10.3611555" timestamp="2019-01-07T20:37:27Z" uid="3497659" user="NKA" version="1">
		<tag k="name" v="Sand" />
		<tag k="place" v="isolated_dwelling" />
		<tag k="ssr:stedsnr" v="695873" />
		<tag k="ssr:type" v="fritidsbolig" />
	</node>
	<node changeset="66108879" id="6190816938" lat="59.3844861" lon="10.2556639" timestamp="2019-01-07T20:37:27Z" uid="3497659" user="NKA" version="1">
		<tag k="name" v="Fossan søndre" />
		<tag k="place" v="farm" />
		<tag k="ssr:stedsnr" v="148576" />
		<tag k="ssr:type" v="bruk" />
	</node>
	<node changeset="66108879" id="6190816939" lat="59.4433467" lon="10.1926321" timestamp="2019-01-07T20:37:27Z" uid="3497659" user="NKA" version="1">
		<tag k="name" v="Hestehagen" />
		<tag k="place" v="farm" />
		<tag k="ssr:stedsnr" v="937555" />
		<tag k="ssr:type" v="bruk" />
	</node>
	<node changeset="66108879" id="6190816940" lat="59.4261833" lon="10.2055694" timestamp="2019-01-07T20:37:27Z" uid="3497659" user="NKA" version="1">
		<tag k="name" v="Sulutvedt nedre" />
		<tag k="place" v="farm" />
		<tag k="ssr:stedsnr" v="148658" />
		<tag k="ssr:type" v="bruk" />
	</node>
	<node changeset="66108879" id="6190816941" lat="59.4352278" lon="10.3229639" timestamp="2019-01-07T20:37:27Z" uid="3497659" user="NKA" version="1">
		<tag k="alt_name" v="Kaldager" />
		<tag k="name" v="Kaldåker" />
		<tag k="place" v="farm" />
		<tag k="ssr:stedsnr" v="730167" />
		<tag k="ssr:type" v="bruk" />
	</node>
	<node changeset="66108879" id="6190816942" lat="59.3562497" lon="10.361186" timestamp="2019-01-07T20:37:27Z" uid="3497659" user="NKA" version="1">
		<tag k="name" v="Lefsaker" />
		<tag k="place" v="farm" />
		<tag k="ssr:stedsnr" v="148725" />
		<tag k="ssr:type" v="bruk" />
	</node>
	<node changeset="66108879" id="6190816943" lat="59.44625" lon="10.2078417" timestamp="2019-01-07T20:37:27Z" uid="3497659" user="NKA" version="1">
		<tag k="alt_name" v="Kleven søndre" />
		<tag k="name" v="Kleiva" />
		<tag k="place" v="farm" />
		<tag k="ssr:stedsnr" v="730065" />
		<tag k="ssr:type" v="bruk" />
	</node>
	<node changeset="66108879" id="6190816944" lat="59.3894333" lon="10.2322833" timestamp="2019-01-07T20:37:27Z" uid="3497659" user="NKA" version="1">
		<tag k="name" v="Gjevlingen" />
		<tag k="place" v="farm" />
		<tag k="ssr:stedsnr" v="937589" />
		<tag k="ssr:type" v="bruk" />
	</node>
	<node changeset="66108879" id="6190816945" lat="59.4486306" lon="10.3287806" timestamp="2019-01-07T20:37:27Z" uid="3497659" user="NKA" version="1">
		<tag k="alt_name" v="Åsenden" />
		<tag k="name" v="Åsen" />
		<tag k="place" v="farm" />
		<tag k="ssr:stedsnr" v="730076" />
		<tag k="ssr:type" v="bruk" />
	</node>
	<node changeset="66108879" id="6190816946" lat="59.3595972" lon="10.270625" timestamp="2019-01-07T20:37:27Z" uid="3497659" user="NKA" version="1">
		<tag k="name" v="Solheim" />
		<tag k="place" v="farm" />
		<tag k="ssr:stedsnr" v="148755" />
		<tag k="ssr:type" v="bruk" />
	</node>
	<node changeset="66108879" id="6190816947" lat="59.388575" lon="10.3037583" timestamp="2019-01-07T20:37:27Z" uid="3497659" user="NKA" version="1">
		<tag k="name" v="Rønningen" />
		<tag k="place" v="farm" />
		<tag k="ssr:stedsnr" v="148786" />
		<tag k="ssr:type" v="bruk" />
	</node>
	<node changeset="66108879" id="6190816948" lat="59.4207167" lon="10.2619333" timestamp="2019-01-07T20:37:27Z" uid="3497659" user="NKA" version="1">
		<tag k="alt_name" v="Siltvedt" />
		<tag k="name" v="Siltvet" />
		<tag k="place" v="farm" />
		<tag k="ssr:stedsnr" v="730136" />
		<tag k="ssr:type" v="bruk" />
	</node>
	<node changeset="66108879" id="6190816949" lat="59.3399285" lon="10.3218075" timestamp="2019-01-07T20:37:28Z" uid="3497659" user="NKA" version="1">
		<tag k="name" v="Solli" />
		<tag k="place" v="farm" />
		<tag k="ssr:stedsnr" v="937737" />
		<tag k="ssr:type" v="bruk" />
	</node>
	<node changeset="66108879" id="6190816950" lat="59.3979056" lon="10.2783361" timestamp="2019-01-07T20:37:28Z" uid="3497659" user="NKA" version="1">
		<tag k="name" v="Haug" />
		<tag k="place" v="farm" />
		<tag k="ssr:stedsnr" v="148831" />
		<tag k="ssr:type" v="bruk" />
	</node>
	<node changeset="66108879" id="6190816951" lat="59.3377444" lon="10.2980083" timestamp="2019-01-07T20:37:28Z" uid="3497659" user="NKA" version="1">
		<tag k="name" v="Klopp ø" />
		<tag k="place" v="farm" />
		<tag k="ssr:stedsnr" v="937742" />
		<tag k="ssr:type" v="bruk" />
	</node>
	<node changeset="66108879" id="6190816952" lat="59.4184861" lon="10.3338361" timestamp="2019-01-07T20:37:28Z" uid="3497659" user="NKA" version="1">
		<tag k="name" v="Haugan søndre" />
		<tag k="place" v="farm" />
		<tag k="ssr:stedsnr" v="148838" />
		<tag k="ssr:type" v="bruk" />
	</node>
	<node changeset="66108879" id="6190816953" lat="59.360625" lon="10.2756583" timestamp="2019-01-07T20:37:28Z" uid="3497659" user="NKA" version="1">
		<tag k="name" v="Hegna" />
		<tag k="place" v="farm" />
		<tag k="ssr:stedsnr" v="730209" />
		<tag k="ssr:type" v="bruk" />
	</node>
	<node changeset="66108879" id="6190816954" lat="59.4217166" lon="10.3311377" timestamp="2019-01-07T20:37:28Z" uid="3497659" user="NKA" version="1">
		<tag k="name" v="Haugan nordre" />
		<tag k="place" v="farm" />
		<tag k="ssr:stedsnr" v="148841" />
		<tag k="ssr:type" v="bruk" />
	</node>
	<node changeset="66108879" id="6190816955" lat="59.375963" lon="10.3384928" timestamp="2019-01-07T20:37:28Z" uid="3497659" user="NKA" version="1">
		<tag k="name" v="Ollerød" />
		<tag k="place" v="farm" />
		<tag k="ssr:stedsnr" v="730211" />
		<tag k="ssr:type" v="bruk" />
	</node>
	<node changeset="66108879" id="6190816956" lat="59.3916417" lon="10.3059806" timestamp="2019-01-07T20:37:28Z" uid="3497659" user="NKA" version="1">
		<tag k="name" v="Hengsrud" />
		<tag k="place" v="farm" />
		<tag k="ssr:stedsnr" v="730244" />
		<tag k="ssr:type" v="bruk" />
	</node>
	<node changeset="66108879" id="6190816957" lat="59.367625" lon="10.3104528" timestamp="2019-01-07T20:37:28Z" uid="3497659" user="NKA" version="1">
		<tag k="name" v="Venås n." />
		<tag k="place" v="farm" />
		<tag k="ssr:stedsnr" v="937764" />
		<tag k="ssr:type" v="bruk" />
	</node>
	<node changeset="66108879" id="6190816958" lat="59.383025" lon="10.3665389" timestamp="2019-01-07T20:37:28Z" uid="3497659" user="NKA" version="1">
		<tag k="name" v="Krokeborg" />
		<tag k="place" v="farm" />
		<tag k="ssr:stedsnr" v="730586" />
		<tag k="ssr:type" v="bruk" />
	</node>
	<node changeset="66108879" id="6190816959" lat="59.3546753" lon="10.3735284" timestamp="2019-01-07T20:37:28Z" uid="3497659" user="NKA" version="1">
		<tag k="alt_name" v="Hem nordre" />
		<tag k="name" v="Hem" />
		<tag k="place" v="farm" />
		<tag k="ssr:stedsnr" v="730621" />
		<tag k="ssr:type" v="bruk" />
	</node>
	<node changeset="66108879" id="6190816960" lat="59.4714278" lon="10.1974083" timestamp="2019-01-07T20:37:28Z" uid="3497659" user="NKA" version="1">
		<tag k="alt_name" v="Ruteig nedre" />
		<tag k="name" v="Ruteig" />
		<tag k="place" v="farm" />
		<tag k="ssr:stedsnr" v="184073" />
		<tag k="ssr:type" v="bruk" />
	</node>
	<node changeset="66108879" id="6190816961" lat="59.3386878" lon="10.3450325" timestamp="2019-01-07T20:37:28Z" uid="3497659" user="NKA" version="1">
		<tag k="name" v="Holt" />
		<tag k="place" v="farm" />
		<tag k="ssr:stedsnr" v="730642" />
		<tag k="ssr:type" v="bruk" />
	</node>
	<node changeset="66108879" id="6190816962" lat="59.3867694" lon="10.3427917" timestamp="2019-01-07T20:37:28Z" uid="3497659" user="NKA" version="1">
		<tag k="name" v="Fossås nordre" />
		<tag k="place" v="farm" />
		<tag k="ssr:stedsnr" v="937802" />
		<tag k="ssr:type" v="bruk" />
	</node>
	<node changeset="66108879" id="6190816963" lat="59.4631944" lon="10.34505" timestamp="2019-01-07T20:37:28Z" uid="3497659" user="NKA" version="1">
		<tag k="name" v="Bakkeland" />
		<tag k="place" v="farm" />
		<tag k="ssr:stedsnr" v="937822" />
		<tag k="ssr:type" v="bruk" />
	</node>
	<node changeset="66108879" id="6190816964" lat="59.3591056" lon="10.2263833" timestamp="2019-01-07T20:37:29Z" uid="3497659" user="NKA" version="1">
		<tag k="alt_name" v="Stusrød n" />
		<tag k="name" v="Stusrød" />
		<tag k="place" v="farm" />
		<tag k="ssr:stedsnr" v="730803" />
		<tag k="ssr:type" v="bruk" />
	</node>
	<node changeset="66108879" id="6190816965" lat="59.4162917" lon="10.2873528" timestamp="2019-01-07T20:37:29Z" uid="3497659" user="NKA" version="1">
		<tag k="name" v="Lefsaker" />
		<tag k="place" v="farm" />
		<tag k="ssr:stedsnr" v="184129" />
		<tag k="ssr:type" v="bruk" />
	</node>
	<node changeset="66108879" id="6190816966" lat="59.4050028" lon="10.2881417" timestamp="2019-01-07T20:37:29Z" uid="3497659" user="NKA" version="1">
		<tag k="alt_name" v="Skaug" />
		<tag k="name" v="Skog" />
		<tag k="place" v="farm" />
		<tag k="ssr:stedsnr" v="731123" />
		<tag k="ssr:type" v="bruk" />
	</node>
	<node changeset="66108879" id="6190816967" lat="59.4528421" lon="10.3004952" timestamp="2019-01-07T20:37:29Z" uid="3497659" user="NKA" version="1">
		<tag k="name" v="Åsen" />
		<tag k="place" v="farm" />
		<tag k="ssr:stedsnr" v="937825" />
		<tag k="ssr:type" v="bruk" />
	</node>
	<node changeset="66108879" id="6190816968" lat="59.4454389" lon="10.3069361" timestamp="2019-01-07T20:37:29Z" uid="3497659" user="NKA" version="1">
		<tag k="name" v="Håkestad" />
		<tag k="place" v="farm" />
		<tag k="ssr:stedsnr" v="937826" />
		<tag k="ssr:type" v="bruk" />
	</node>
	<node changeset="66108879" id="6190816969" lat="59.4201611" lon="10.3235056" timestamp="2019-01-07T20:37:29Z" uid="3497659" user="NKA" version="1">
		<tag k="alt_name" v="Malmø øvre" />
		<tag k="name" v="Malme" />
		<tag k="place" v="farm" />
		<tag k="ssr:stedsnr" v="184130" />
		<tag k="ssr:type" v="bruk" />
	</node>
	<node changeset="66108879" id="6190816970" lat="59.410063" lon="10.2706699" timestamp="2019-01-07T20:37:29Z" uid="3497659" user="NKA" version="1">
		<tag k="alt_name" v="Kjær søndre" />
		<tag k="name" v="Kjær" />
		<tag k="place" v="farm" />
		<tag k="ssr:stedsnr" v="731127" />
		<tag k="ssr:type" v="bruk" />
	</node>
	<node changeset="66108879" id="6190816971" lat="59.4350422" lon="10.2552244" timestamp="2019-01-07T20:37:29Z" uid="3497659" user="NKA" version="1">
		<tag k="alt_name" v="Robak" />
		<tag k="name" v="Robakk" />
		<tag k="place" v="farm" />
		<tag k="ssr:stedsnr" v="184170" />
		<tag k="ssr:type" v="bruk" />
	</node>
	<node changeset="66108879" id="6190816972" lat="59.3942611" lon="10.3562861" timestamp="2019-01-07T20:37:29Z" uid="3497659" user="NKA" version="1">
		<tag k="name" v="Hasle" />
		<tag k="place" v="farm" />
		<tag k="ssr:stedsnr" v="731487" />
		<tag k="ssr:type" v="bruk" />
	</node>
	<node changeset="66108879" id="6190816973" lat="59.4139917" lon="10.3073389" timestamp="2019-01-07T20:37:29Z" uid="3497659" user="NKA" version="1">
		<tag k="name" v="Fjell" />
		<tag k="place" v="farm" />
		<tag k="ssr:stedsnr" v="937844" />
		<tag k="ssr:type" v="bruk" />
	</node>
	<node changeset="66108879" id="6190816974" lat="59.3149917" lon="10.2515833" timestamp="2019-01-07T20:37:29Z" uid="3497659" user="NKA" version="1">
		<tag k="name" v="Rånerød" />
		<tag k="place" v="farm" />
		<tag k="ssr:stedsnr" v="731778" />
		<tag k="ssr:type" v="bruk" />
	</node>
	<node changeset="66108879" id="6190816975" lat="59.4273694" lon="10.3059472" timestamp="2019-01-07T20:37:29Z" uid="3497659" user="NKA" version="1">
		<tag k="name" v="Haga" />
		<tag k="place" v="farm" />
		<tag k="ssr:stedsnr" v="184183" />
		<tag k="ssr:type" v="bruk" />
	</node>
	<node changeset="66108879" id="6190816976" lat="59.4281222" lon="10.300625" timestamp="2019-01-07T20:37:29Z" uid="3497659" user="NKA" version="1">
		<tag k="name" v="Sørby nordre" />
		<tag k="place" v="farm" />
		<tag k="ssr:stedsnr" v="937894" />
		<tag k="ssr:type" v="bruk" />
	</node>
	<node changeset="66108879" id="6190816977" lat="59.4316528" lon="10.1806667" timestamp="2019-01-07T20:37:29Z" uid="3497659" user="NKA" version="1">
		<tag k="alt_name" v="Ødefjell nordre" />
		<tag k="name" v="Ødefjell" />
		<tag k="place" v="farm" />
		<tag k="ssr:stedsnr" v="184193" />
		<tag k="ssr:type" v="bruk" />
	</node>
	<node changeset="66108879" id="6190816978" lat="59.363775" lon="10.1855556" timestamp="2019-01-07T20:37:29Z" uid="3497659" user="NKA" version="1">
		<tag k="name" v="Nyhus" />
		<tag k="place" v="farm" />
		<tag k="ssr:stedsnr" v="184205" />
		<tag k="ssr:type" v="bruk" />
	</node>
	<node changeset="66108879" id="6190816979" lat="59.3945667" lon="10.1157889" timestamp="2019-01-07T20:37:30Z" uid="3497659" user="NKA" version="1">
		<tag k="name" v="Tuften" />
		<tag k="place" v="farm" />
		<tag k="ssr:stedsnr" v="184215" />
		<tag k="ssr:type" v="bruk" />
	</node>
	<node changeset="66108879" id="6190816980" lat="59.3855333" lon="10.1307" timestamp="2019-01-07T20:37:30Z" uid="3497659" user="NKA" version="1">
		<tag k="name" v="Smidtsrød" />
		<tag k="place" v="farm" />
		<tag k="ssr:stedsnr" v="755090" />
		<tag k="ssr:type" v="bruk" />
	</node>
	<node changeset="66108879" id="6190816981" lat="59.3905333" lon="10.117875" timestamp="2019-01-07T20:37:30Z" uid="3497659" user="NKA" version="1">
		<tag k="name" v="Valmestad" />
		<tag k="place" v="farm" />
		<tag k="ssr:stedsnr" v="184220" />
		<tag k="ssr:type" v="bruk" />
	</node>
	<node changeset="66108879" id="6190816982" lat="59.3856361" lon="10.2252083" timestamp="2019-01-07T20:37:30Z" uid="3497659" user="NKA" version="1">
		<tag k="name" v="Hasle" />
		<tag k="place" v="farm" />
		<tag k="ssr:stedsnr" v="184231" />
		<tag k="ssr:type" v="bruk" />
	</node>
	<node changeset="66108879" id="6190816983" lat="59.3927444" lon="10.2652778" timestamp="2019-01-07T20:37:30Z" uid="3497659" user="NKA" version="1">
		<tag k="name" v="Bjerkeskaug søndre" />
		<tag k="place" v="farm" />
		<tag k="ssr:stedsnr" v="938574" />
		<tag k="ssr:type" v="bruk" />
	</node>
	<node changeset="66108879" id="6190816984" lat="59.3937333" lon="10.3221389" timestamp="2019-01-07T20:37:30Z" uid="3497659" user="NKA" version="1">
		<tag k="name" v="Grøstad" />
		<tag k="place" v="farm" />
		<tag k="ssr:stedsnr" v="184240" />
		<tag k="ssr:type" v="bruk" />
	</node>
	<node changeset="66108879" id="6190817085" lat="59.4474528" lon="10.1500111" timestamp="2019-01-07T20:37:30Z" uid="3497659" user="NKA" version="1">
		<tag k="name" v="Kjellegrind" />
		<tag k="place" v="locality" />
		<tag k="ssr:stedsnr" v="755120" />
		<tag k="ssr:type" v="eiendom" />
	</node>
	<node changeset="66108879" id="6190817086" lat="59.3544667" lon="10.329375" timestamp="2019-01-07T20:37:30Z" uid="3497659" user="NKA" version="1">
		<tag k="name" v="Sperre" />
		<tag k="place" v="farm" />
		<tag k="ssr:stedsnr" v="184760" />
		<tag k="ssr:type" v="bruk" />
	</node>
	<node changeset="66108879" id="6190817087" lat="59.3288389" lon="10.2251139" timestamp="2019-01-07T20:37:30Z" uid="3497659" user="NKA" version="1">
		<tag k="name" v="Gordal" />
		<tag k="place" v="isolated_dwelling" />
		<tag k="ssr:stedsnr" v="184793" />
		<tag k="ssr:type" v="fritidsbolig" />
	</node>
	<node changeset="66108879" id="6190817088" lat="59.4234944" lon="10.2033945" timestamp="2019-01-07T20:37:30Z" uid="3497659" user="NKA" version="1">
		<tag k="name" v="Sulutvedt øvre" />
		<tag k="place" v="farm" />
		<tag k="ssr:stedsnr" v="938623" />
		<tag k="ssr:type" v="bruk" />
	</node>
	<node changeset="66108879" id="6190817089" lat="59.4005211" lon="10.2227422" timestamp="2019-01-07T20:37:30Z" uid="3497659" user="NKA" version="1">
		<tag k="alt_name" v="Skrikestad, vestre;Skrikestad v." />
		<tag k="name" v="Vestre Skrikestad" />
		<tag k="place" v="farm" />
		<tag k="ssr:stedsnr" v="185209" />
		<tag k="ssr:type" v="bruk" />
	</node>
	<node changeset="66108879" id="6190817090" lat="59.3963351" lon="10.2901778" timestamp="2019-01-07T20:37:30Z" uid="3497659" user="NKA" version="1">
		<tag k="name" v="Langås" />
		<tag k="place" v="farm" />
		<tag k="ssr:stedsnr" v="185218" />
		<tag k="ssr:type" v="bruk" />
	</node>
	<node changeset="66108879" id="6190817091" lat="59.4421344" lon="10.3406178" timestamp="2019-01-07T20:37:30Z" uid="3497659" user="NKA" version="1">
		<tag k="name" v="Fegstad" />
		<tag k="place" v="farm" />
		<tag k="ssr:stedsnr" v="938897" />
		<tag k="ssr:type" v="bruk" />
	</node>
	<node changeset="66108879" id="6190817092" lat="59.3438806" lon="10.2427528" timestamp="2019-01-07T20:37:30Z" uid="3497659" user="NKA" version="1">
		<tag k="name" v="Krekan" />
		<tag k="place" v="farm" />
		<tag k="ssr:stedsnr" v="755294" />
		<tag k="ssr:type" v="bruk" />
	</node>
	<node changeset="66108879" id="6190817093" lat="59.4389222" lon="10.1108583" timestamp="2019-01-07T20:37:31Z" uid="3497659" user="NKA" version="1">
		<tag k="name" v="Løn" />
		<tag k="place" v="farm" />
		<tag k="ssr:stedsnr" v="269372" />
		<tag k="ssr:type" v="bruk" />
	</node>
	<node changeset="66108879" id="6190817094" lat="59.4157972" lon="10.1480722" timestamp="2019-01-07T20:37:31Z" uid="3497659" user="NKA" version="1">
		<tag k="name" v="Enga" />
		<tag k="place" v="locality" />
		<tag k="ssr:stedsnr" v="209187" />
		<tag k="ssr:type" v="eiendom" />
	</node>
	<node changeset="66108879" id="6190817095" lat="59.4265417" lon="10.1284083" timestamp="2019-01-07T20:37:31Z" uid="3497659" user="NKA" version="1">
		<tag k="name" v="Skau" />
		<tag k="place" v="farm" />
		<tag k="ssr:stedsnr" v="270013" />
		<tag k="ssr:type" v="bruk" />
	</node>
	<node changeset="66108879" id="6190817096" lat="59.4324778" lon="10.1257417" timestamp="2019-01-07T20:37:31Z" uid="3497659" user="NKA" version="1">
		<tag k="name" v="Kjær" />
		<tag k="place" v="isolated_dwelling" />
		<tag k="ssr:stedsnr" v="270016" />
		<tag k="ssr:type" v="eneboligMindreBoligbygg" />
	</node>
	<node changeset="66108879" id="6190817097" lat="59.4494389" lon="10.2645167" timestamp="2019-01-07T20:37:31Z" uid="3497659" user="NKA" version="1">
		<tag k="name" v="Kornto vestre" />
		<tag k="place" v="farm" />
		<tag k="ssr:stedsnr" v="755553" />
		<tag k="ssr:type" v="bruk" />
	</node>
	<node changeset="66108879" id="6190817098" lat="59.3958528" lon="10.1343694" timestamp="2019-01-07T20:37:31Z" uid="3497659" user="NKA" version="1">
		<tag k="name" v="Ektvedt n." />
		<tag k="place" v="farm" />
		<tag k="ssr:stedsnr" v="270078" />
		<tag k="ssr:type" v="bruk" />
	</node>
	<node changeset="66108879" id="6190817099" lat="59.4498528" lon="10.18765" timestamp="2019-01-07T20:37:31Z" uid="3497659" user="NKA" version="1">
		<tag k="name" v="Revå" />
		<tag k="place" v="farm" />
		<tag k="ssr:stedsnr" v="755567" />
		<tag k="ssr:type" v="bruk" />
	</node>
	<node changeset="66108879" id="6190817100" lat="59.4102389" lon="10.2581361" timestamp="2019-01-07T20:37:31Z" uid="3497659" user="NKA" version="1">
		<tag k="name" v="Frellumstad øvre" />
		<tag k="place" v="farm" />
		<tag k="ssr:stedsnr" v="209330" />
		<tag k="ssr:type" v="bruk" />
	</node>
	<node changeset="66108879" id="6190817101" lat="59.3788944" lon="10.1801111" timestamp="2019-01-07T20:37:31Z" uid="3497659" user="NKA" version="1">
		<tag k="name" v="Solbakken" />
		<tag k="place" v="farm" />
		<tag k="ssr:stedsnr" v="755578" />
		<tag k="ssr:type" v="bruk" />
	</node>
	<node changeset="66108879" id="6190817102" lat="59.3844194" lon="10.1324167" timestamp="2019-01-07T20:37:31Z" uid="3497659" user="NKA" version="1">
		<tag k="name" v="Elverheim" />
		<tag k="place" v="farm" />
		<tag k="ssr:stedsnr" v="270082" />
		<tag k="ssr:type" v="bruk" />
	</node>
	<node changeset="66108879" id="6190817103" lat="59.3901028" lon="10.2495694" timestamp="2019-01-07T20:37:31Z" uid="3497659" user="NKA" version="1">
		<tag k="name" v="Fjeld" />
		<tag k="place" v="farm" />
		<tag k="ssr:stedsnr" v="755585" />
		<tag k="ssr:type" v="bruk" />
	</node>
	<node changeset="66108879" id="6190817104" lat="59.4220528" lon="10.2031611" timestamp="2019-01-07T20:37:31Z" uid="3497659" user="NKA" version="1">
		<tag k="name" v="Fonstraene" />
		<tag k="place" v="locality" />
		<tag k="ssr:stedsnr" v="755627" />
		<tag k="ssr:type" v="eiendom" />
	</node>
	<node changeset="66108879" id="6190817105" lat="59.3556" lon="10.2505639" timestamp="2019-01-07T20:37:31Z" uid="3497659" user="NKA" version="1">
		<tag k="name" v="Berg østre" />
		<tag k="place" v="farm" />
		<tag k="ssr:stedsnr" v="209379" />
		<tag k="ssr:type" v="bruk" />
	</node>
	<node changeset="66108879" id="6190817106" lat="59.3260389" lon="10.2774694" timestamp="2019-01-07T20:37:31Z" uid="3497659" user="NKA" version="1">
		<tag k="name" v="Gulsrød" />
		<tag k="place" v="farm" />
		<tag k="ssr:stedsnr" v="755639" />
		<tag k="ssr:type" v="bruk" />
	</node>
	<node changeset="66108879" id="6190817107" lat="59.3337694" lon="10.2691861" timestamp="2019-01-07T20:37:31Z" uid="3497659" user="NKA" version="1">
		<tag k="alt_name" v="Jare n" />
		<tag k="name" v="Jare" />
		<tag k="place" v="farm" />
		<tag k="ssr:stedsnr" v="755648" />
		<tag k="ssr:type" v="bruk" />
	</node>
	<node changeset="66108879" id="6190817108" lat="59.3755833" lon="10.2527139" timestamp="2019-01-07T20:37:31Z" uid="3497659" user="NKA" version="1">
		<tag k="name" v="Ramski" />
		<tag k="place" v="farm" />
		<tag k="ssr:stedsnr" v="209389" />
		<tag k="ssr:type" v="bruk" />
	</node>
	<node changeset="66108879" id="6190817109" lat="59.3733" lon="10.2952472" timestamp="2019-01-07T20:37:32Z" uid="3497659" user="NKA" version="1">
		<tag k="name" v="Solhaug" />
		<tag k="place" v="farm" />
		<tag k="ssr:stedsnr" v="270724" />
		<tag k="ssr:type" v="bruk" />
	</node>
	<node changeset="66108879" id="6190817110" lat="59.3429667" lon="10.3014361" timestamp="2019-01-07T20:37:32Z" uid="3497659" user="NKA" version="1">
		<tag k="name" v="Linnestad n" />
		<tag k="place" v="farm" />
		<tag k="ssr:stedsnr" v="755699" />
		<tag k="ssr:type" v="bruk" />
	</node>
	<node changeset="66108879" id="6190817111" lat="59.4416194" lon="10.1661833" timestamp="2019-01-07T20:37:32Z" uid="3497659" user="NKA" version="1">
		<tag k="name" v="Lian søndre" />
		<tag k="place" v="farm" />
		<tag k="ssr:stedsnr" v="209532" />
		<tag k="ssr:type" v="bruk" />
	</node>
	<node changeset="66108879" id="6190817112" lat="59.3500611" lon="10.2725472" timestamp="2019-01-07T20:37:32Z" uid="3497659" user="NKA" version="1">
		<tag k="name" v="Solheim" />
		<tag k="place" v="farm" />
		<tag k="ssr:stedsnr" v="755712" />
		<tag k="ssr:type" v="bruk" />
	</node>
	<node changeset="66108879" id="6190817113" lat="59.4265083" lon="10.1997417" timestamp="2019-01-07T20:37:32Z" uid="3497659" user="NKA" version="1">
		<tag k="name" v="Holm" />
		<tag k="place" v="isolated_dwelling" />
		<tag k="ssr:stedsnr" v="209537" />
		<tag k="ssr:type" v="eneboligMindreBoligbygg" />
	</node>
	<node changeset="66108879" id="6190817114" lat="59.4191417" lon="10.1044806" timestamp="2019-01-07T20:37:32Z" uid="3497659" user="NKA" version="1">
		<tag k="name" v="Synnøvetomta" />
		<tag k="place" v="locality" />
		<tag k="ssr:stedsnr" v="270203" />
		<tag k="ssr:type" v="eiendom" />
	</node>
	<node changeset="66108879" id="6190817115" lat="59.4502167" lon="10.1668333" timestamp="2019-01-07T20:37:32Z" uid="3497659" user="NKA" version="1">
		<tag k="name" v="Plassen" />
		<tag k="place" v="isolated_dwelling" />
		<tag k="ssr:stedsnr" v="209553" />
		<tag k="ssr:type" v="fritidsbolig" />
	</node>
	<node changeset="66108879" id="6190817116" lat="59.3395376" lon="10.2393579" timestamp="2019-01-07T20:37:32Z" uid="3497659" user="NKA" version="1">
		<tag k="name" v="Ramnes prestegård" />
		<tag k="place" v="isolated_dwelling" />
		<tag k="ssr:stedsnr" v="270269" />
		<tag k="ssr:type" v="eneboligMindreBoligbygg" />
	</node>
	<node changeset="66108879" id="6190817117" lat="59.4609592" lon="10.1846461" timestamp="2019-01-07T20:37:32Z" uid="3497659" user="NKA" version="1">
		<tag k="name" v="Store Sjuve" />
		<tag k="place" v="farm" />
		<tag k="ssr:stedsnr" v="209563" />
		<tag k="ssr:type" v="bruk" />
	</node>
	<node changeset="66108879" id="6190817118" lat="59.3820306" lon="10.3014528" timestamp="2019-01-07T20:37:32Z" uid="3497659" user="NKA" version="1">
		<tag k="name" v="Tei-Berg" />
		<tag k="place" v="farm" />
		<tag k="ssr:stedsnr" v="755779" />
		<tag k="ssr:type" v="bruk" />
	</node>
	<node changeset="66108879" id="6190817119" lat="59.3864361" lon="10.2301" timestamp="2019-01-07T20:37:32Z" uid="3497659" user="NKA" version="1">
		<tag k="name" v="Bjerkevold" />
		<tag k="place" v="farm" />
		<tag k="ssr:stedsnr" v="209569" />
		<tag k="ssr:type" v="bruk" />
	</node>
	<node changeset="66108879" id="6190817120" lat="59.4314111" lon="10.2624833" timestamp="2019-01-07T20:37:32Z" uid="3497659" user="NKA" version="1">
		<tag k="name" v="Rønningen" />
		<tag k="place" v="farm" />
		<tag k="ssr:stedsnr" v="209615" />
		<tag k="ssr:type" v="bruk" />
	</node>
	<node changeset="66108879" id="6190817121" lat="59.3905139" lon="10.1981944" timestamp="2019-01-07T20:37:32Z" uid="3497659" user="NKA" version="1">
		<tag k="name" v="Solbergstua" />
		<tag k="place" v="isolated_dwelling" />
		<tag k="ssr:stedsnr" v="270298" />
		<tag k="ssr:type" v="fritidsbolig" />
	</node>
	<node changeset="66108879" id="6190817122" lat="59.4251556" lon="10.2463417" timestamp="2019-01-07T20:37:32Z" uid="3497659" user="NKA" version="1">
		<tag k="name" v="Bettum vestre" />
		<tag k="place" v="farm" />
		<tag k="ssr:stedsnr" v="209649" />
		<tag k="ssr:type" v="bruk" />
	</node>
	<node changeset="66108879" id="6190817123" lat="59.41085" lon="10.3205556" timestamp="2019-01-07T20:37:32Z" uid="3497659" user="NKA" version="1">
		<tag k="name" v="Sanderud" />
		<tag k="place" v="farm" />
		<tag k="ssr:stedsnr" v="755830" />
		<tag k="ssr:type" v="bruk" />
	</node>
	<node changeset="66108879" id="6190817124" lat="59.404975" lon="10.261825" timestamp="2019-01-07T20:37:33Z" uid="3497659" user="NKA" version="1">
		<tag k="name" v="Bakke" />
		<tag k="place" v="farm" />
		<tag k="ssr:stedsnr" v="270310" />
		<tag k="ssr:type" v="bruk" />
	</node>
	<node changeset="66108879" id="6190817125" lat="59.4302583" lon="10.243875" timestamp="2019-01-07T20:37:33Z" uid="3497659" user="NKA" version="1">
		<tag k="name" v="Huseby" />
		<tag k="place" v="farm" />
		<tag k="ssr:stedsnr" v="209652" />
		<tag k="ssr:type" v="bruk" />
	</node>
	<node changeset="66108879" id="6190817126" lat="59.3228967" lon="10.3365491" timestamp="2019-01-07T20:37:33Z" uid="3497659" user="NKA" version="1">
		<tag k="name" v="Freste" />
		<tag k="place" v="farm" />
		<tag k="ssr:stedsnr" v="755900" />
		<tag k="ssr:type" v="bruk" />
	</node>
	<node changeset="66108879" id="6190817127" lat="59.3617278" lon="10.1887556" timestamp="2019-01-07T20:37:33Z" uid="3497659" user="NKA" version="1">
		<tag k="name" v="Nyhus" />
		<tag k="place" v="farm" />
		<tag k="ssr:stedsnr" v="270345" />
		<tag k="ssr:type" v="bruk" />
	</node>
	<node changeset="66108879" id="6190817128" lat="59.3570861" lon="10.2284722" timestamp="2019-01-07T20:37:33Z" uid="3497659" user="NKA" version="1">
		<tag k="name" v="Studsrud søndre" />
		<tag k="place" v="farm" />
		<tag k="ssr:stedsnr" v="270377" />
		<tag k="ssr:type" v="bruk" />
	</node>
	<node changeset="66108879" id="6190817129" lat="59.4665028" lon="10.1989305" timestamp="2019-01-07T20:37:33Z" uid="3497659" user="NKA" version="1">
		<tag k="name" v="Ruteig søndre" />
		<tag k="place" v="farm" />
		<tag k="ssr:stedsnr" v="209704" />
		<tag k="ssr:type" v="bruk" />
	</node>
	<node changeset="66108879" id="6190817130" lat="59.4418111" lon="10.3230278" timestamp="2019-01-07T20:37:33Z" uid="3497659" user="NKA" version="1">
		<tag k="alt_name" v="Hunsal" />
		<tag k="name" v="Hundsal" />
		<tag k="place" v="farm" />
		<tag k="ssr:stedsnr" v="791088" />
		<tag k="ssr:type" v="bruk" />
	</node>
	<node changeset="66108879" id="6190817131" lat="59.4718028" lon="10.1860083" timestamp="2019-01-07T20:37:33Z" uid="3497659" user="NKA" version="1">
		<tag k="name" v="Mo" />
		<tag k="place" v="farm" />
		<tag k="ssr:stedsnr" v="209707" />
		<tag k="ssr:type" v="bruk" />
	</node>
	<node changeset="66108879" id="6190817132" lat="59.4087472" lon="10.2056389" timestamp="2019-01-07T20:37:33Z" uid="3497659" user="NKA" version="1">
		<tag k="alt_name" v="Fon lille;Fon, l" />
		<tag k="name" v="Lille Fon" />
		<tag k="place" v="farm" />
		<tag k="ssr:stedsnr" v="791129" />
		<tag k="ssr:type" v="bruk" />
	</node>
	<node changeset="66108879" id="6190817133" lat="59.3701083" lon="10.2633056" timestamp="2019-01-07T20:37:33Z" uid="3497659" user="NKA" version="1">
		<tag k="name" v="Revetal s" />
		<tag k="place" v="farm" />
		<tag k="ssr:stedsnr" v="270392" />
		<tag k="ssr:type" v="bruk" />
	</node>
	<node changeset="66108879" id="6190817134" lat="59.3738" lon="10.2125139" timestamp="2019-01-07T20:37:33Z" uid="3497659" user="NKA" version="1">
		<tag k="alt_name" v="Skar" />
		<tag k="name" v="Skår" />
		<tag k="place" v="farm" />
		<tag k="ssr:stedsnr" v="791190" />
		<tag k="ssr:type" v="bruk" />
	</node>
	<node changeset="66108879" id="6190817135" lat="59.3762833" lon="10.3148861" timestamp="2019-01-07T20:37:33Z" uid="3497659" user="NKA" version="1">
		<tag k="name" v="Dal nordre" />
		<tag k="place" v="farm" />
		<tag k="ssr:stedsnr" v="209746" />
		<tag k="ssr:type" v="bruk" />
	</node>
	<node changeset="66108879" id="6190817136" lat="59.3657778" lon="10.2583444" timestamp="2019-01-07T20:37:33Z" uid="3497659" user="NKA" version="1">
		<tag k="name" v="Brår" />
		<tag k="place" v="farm" />
		<tag k="ssr:stedsnr" v="791203" />
		<tag k="ssr:type" v="bruk" />
	</node>
	<node changeset="66108879" id="6190817137" lat="59.3986332" lon="10.3750475" timestamp="2019-01-07T20:37:33Z" uid="3497659" user="NKA" version="1">
		<tag k="name" v="Brekke øvre" />
		<tag k="place" v="farm" />
		<tag k="ssr:stedsnr" v="209784" />
		<tag k="ssr:type" v="bruk" />
	</node>
	<node changeset="66108879" id="6190817138" lat="59.3888917" lon="10.1649361" timestamp="2019-01-07T20:37:33Z" uid="3497659" user="NKA" version="1">
		<tag k="name" v="Botn" />
		<tag k="place" v="isolated_dwelling" />
		<tag k="ssr:stedsnr" v="791221" />
		<tag k="ssr:type" v="fritidsbolig" />
	</node>
	<node changeset="66108879" id="6190817139" lat="59.4438083" lon="10.2530111" timestamp="2019-01-07T20:37:34Z" uid="3497659" user="NKA" version="1">
		<tag k="name" v="Lærum søndre" />
		<tag k="place" v="farm" />
		<tag k="ssr:stedsnr" v="270546" />
		<tag k="ssr:type" v="bruk" />
	</node>
	<node changeset="66108879" id="6190817140" lat="59.4552472" lon="10.3016805" timestamp="2019-01-07T20:37:34Z" uid="3497659" user="NKA" version="1">
		<tag k="name" v="Lunde" />
		<tag k="place" v="farm" />
		<tag k="ssr:stedsnr" v="209787" />
		<tag k="ssr:type" v="bruk" />
	</node>
	<node changeset="66108879" id="618514293" lat="59.3723954" lon="10.2631011" timestamp="2019-01-07T20:37:57Z" uid="3497659" user="NKA" version="6">
		<tag k="alt_name" v="Revatal" />
		<tag k="name" v="Revetal" />
		<tag k="place" v="village" />
		<tag k="population" v="2403" />
		<tag k="population:date" v="2017-01-01" />
		<tag k="ssr:stedsnr" v="24263" />
		<tag k="ssr:type" v="tettbebyggelse" />
	</node>
	<node changeset="66108879" id="6190817142" lat="59.3904528" lon="10.2230389" timestamp="2019-01-07T20:37:34Z" uid="3497659" user="NKA" version="1">
		<tag k="name" v="Horn" />
		<tag k="place" v="farm" />
		<tag k="ssr:stedsnr" v="791246" />
		<tag k="ssr:type" v="bruk" />
	</node>
	<node changeset="66108879" id="6190817143" lat="59.443825" lon="10.2402639" timestamp="2019-01-07T20:37:34Z" uid="3497659" user="NKA" version="1">
		<tag k="name" v="Rygg nordre" />
		<tag k="place" v="farm" />
		<tag k="ssr:stedsnr" v="270548" />
		<tag k="ssr:type" v="bruk" />
	</node>
	<node changeset="66108879" id="6190817144" lat="59.4172639" lon="10.3065361" timestamp="2019-01-07T20:37:34Z" uid="3497659" user="NKA" version="1">
		<tag k="name" v="Sørby mellom" />
		<tag k="place" v="farm" />
		<tag k="ssr:stedsnr" v="209817" />
		<tag k="ssr:type" v="bruk" />
	</node>
	<node changeset="66108879" id="6190817145" lat="59.3989972" lon="10.37235" timestamp="2019-01-07T20:37:34Z" uid="3497659" user="NKA" version="1">
		<tag k="alt_name" v="Brekke nedre" />
		<tag k="name" v="Brekke" />
		<tag k="place" v="farm" />
		<tag k="ssr:stedsnr" v="791502" />
		<tag k="ssr:type" v="bruk" />
	</node>
	<node changeset="66108879" id="6190817146" lat="59.38805" lon="10.3497167" timestamp="2019-01-07T20:37:34Z" uid="3497659" user="NKA" version="1">
		<tag k="name" v="Nyerrød" />
		<tag k="place" v="farm" />
		<tag k="ssr:stedsnr" v="791512" />
		<tag k="ssr:type" v="bruk" />
	</node>
	<node changeset="66108879" id="6190817147" lat="59.3849361" lon="10.2346556" timestamp="2019-01-07T20:37:34Z" uid="3497659" user="NKA" version="1">
		<tag k="name" v="Kile ø." />
		<tag k="place" v="farm" />
		<tag k="ssr:stedsnr" v="270576" />
		<tag k="ssr:type" v="bruk" />
	</node>
	<node changeset="66108879" id="6190817148" lat="59.393525" lon="10.2371778" timestamp="2019-01-07T20:37:34Z" uid="3497659" user="NKA" version="1">
		<tag k="name" v="Tollistua" />
		<tag k="place" v="farm" />
		<tag k="ssr:stedsnr" v="270578" />
		<tag k="ssr:type" v="bruk" />
	</node>
	<node changeset="66108879" id="6190817149" lat="59.4423472" lon="10.2695389" timestamp="2019-01-07T20:37:34Z" uid="3497659" user="NKA" version="1">
		<tag k="name" v="Sørum sag" />
		<tag k="place" v="farm" />
		<tag k="ssr:stedsnr" v="209866" />
		<tag k="ssr:type" v="bruk" />
	</node>
	<node changeset="66108879" id="6190817150" lat="59.3832333" lon="10.3447361" timestamp="2019-01-07T20:37:34Z" uid="3497659" user="NKA" version="1">
		<tag k="alt_name" v="Fossås søndre" />
		<tag k="name" v="Fossås" />
		<tag k="place" v="farm" />
		<tag k="ssr:stedsnr" v="791523" />
		<tag k="ssr:type" v="bruk" />
	</node>
	<node changeset="66108879" id="6190817151" lat="59.4395389" lon="10.279275" timestamp="2019-01-07T20:37:34Z" uid="3497659" user="NKA" version="1">
		<tag k="name" v="Sørum søndre" />
		<tag k="place" v="farm" />
		<tag k="ssr:stedsnr" v="209871" />
		<tag k="ssr:type" v="bruk" />
	</node>
	<node changeset="66108879" id="6190817152" lat="59.3417667" lon="10.2390306" timestamp="2019-01-07T20:37:34Z" uid="3497659" user="NKA" version="1">
		<tag k="name" v="Solberg" />
		<tag k="place" v="farm" />
		<tag k="ssr:stedsnr" v="791749" />
		<tag k="ssr:type" v="bruk" />
	</node>
	<node changeset="66108879" id="6190817153" lat="59.3808583" lon="10.2095778" timestamp="2019-01-07T20:37:34Z" uid="3497659" user="NKA" version="1">
		<tag k="name" v="Holt nedre" />
		<tag k="place" v="farm" />
		<tag k="ssr:stedsnr" v="270586" />
		<tag k="ssr:type" v="bruk" />
	</node>
	<node changeset="66108879" id="6190817154" lat="59.4239139" lon="10.2759694" timestamp="2019-01-07T20:37:35Z" uid="3497659" user="NKA" version="1">
		<tag k="name" v="Østerud" />
		<tag k="place" v="farm" />
		<tag k="ssr:stedsnr" v="209870" />
		<tag k="ssr:type" v="bruk" />
	</node>
	<node changeset="66108879" id="6190817155" lat="59.3408139" lon="10.3178667" timestamp="2019-01-07T20:37:35Z" uid="3497659" user="NKA" version="1">
		<tag k="name" v="Kløv" />
		<tag k="place" v="farm" />
		<tag k="ssr:stedsnr" v="791753" />
		<tag k="ssr:type" v="bruk" />
	</node>
	<node changeset="66108879" id="6190817156" lat="59.3555306" lon="10.3245944" timestamp="2019-01-07T20:37:35Z" uid="3497659" user="NKA" version="1">
		<tag k="alt_name" v="Bøteigen" />
		<tag k="name" v="Teigen" />
		<tag k="place" v="isolated_dwelling" />
		<tag k="ssr:stedsnr" v="791774" />
		<tag k="ssr:type" v="eneboligMindreBoligbygg" />
	</node>
	<node changeset="66108879" id="6190817157" lat="59.3573917" lon="10.342225" timestamp="2019-01-07T20:37:35Z" uid="3497659" user="NKA" version="1">
		<tag k="name" v="Amundrød" />
		<tag k="place" v="isolated_dwelling" />
		<tag k="ssr:stedsnr" v="791775" />
		<tag k="ssr:type" v="eneboligMindreBoligbygg" />
	</node>
	<node changeset="66108879" id="6190817158" lat="59.3225" lon="10.3269639" timestamp="2019-01-07T20:37:35Z" uid="3497659" user="NKA" version="1">
		<tag k="name" v="Innlaget" />
		<tag k="place" v="farm" />
		<tag k="ssr:stedsnr" v="791798" />
		<tag k="ssr:type" v="bruk" />
	</node>
	<node changeset="66108879" id="6190817159" lat="59.3269306" lon="10.2332333" timestamp="2019-01-07T20:37:35Z" uid="3497659" user="NKA" version="1">
		<tag k="alt_name" v="Rolighet nedre" />
		<tag k="name" v="Rolighet" />
		<tag k="place" v="farm" />
		<tag k="ssr:stedsnr" v="791817" />
		<tag k="ssr:type" v="bruk" />
	</node>
	<node changeset="66108879" id="6190817160" lat="59.449225" lon="10.360425" timestamp="2019-01-07T20:37:35Z" uid="3497659" user="NKA" version="1">
		<tag k="name" v="Helland" />
		<tag k="place" v="farm" />
		<tag k="ssr:stedsnr" v="791957" />
		<tag k="ssr:type" v="bruk" />
	</node>
	<node changeset="66108879" id="6190817161" lat="59.3648028" lon="10.2702417" timestamp="2019-01-07T20:37:35Z" uid="3497659" user="NKA" version="1">
		<tag k="name" v="Valleåsen" />
		<tag k="place" v="quarter" />
		<tag k="ssr:stedsnr" v="815359" />
		<tag k="ssr:type" v="boligfelt" />
	</node>
	<node changeset="66108879" id="6190817162" lat="59.3914778" lon="10.2897583" timestamp="2019-01-07T20:37:35Z" uid="3497659" user="NKA" version="1">
		<tag k="name" v="Berg" />
		<tag k="place" v="farm" />
		<tag k="ssr:stedsnr" v="270760" />
		<tag k="ssr:type" v="bruk" />
	</node>
	<node changeset="66108879" id="6190817163" lat="59.3891806" lon="10.3495833" timestamp="2019-01-07T20:37:35Z" uid="3497659" user="NKA" version="1">
		<tag k="name" v="Nyerrød nordre" />
		<tag k="place" v="farm" />
		<tag k="ssr:stedsnr" v="270764" />
		<tag k="ssr:type" v="bruk" />
	</node>
	<node changeset="66108879" id="6190817164" lat="59.45185" lon="10.1850556" timestamp="2019-01-07T20:37:35Z" uid="3497659" user="NKA" version="1">
		<tag k="alt_name" v="Revå" />
		<tag k="name" v="Revo" />
		<tag k="place" v="farm" />
		<tag k="ssr:stedsnr" v="245064" />
		<tag k="ssr:type" v="bruk" />
	</node>
	<node changeset="66108879" id="6190817165" lat="59.3871778" lon="10.3511306" timestamp="2019-01-07T20:37:35Z" uid="3497659" user="NKA" version="1">
		<tag k="name" v="Nyerrød søndre" />
		<tag k="place" v="farm" />
		<tag k="ssr:stedsnr" v="270765" />
		<tag k="ssr:type" v="bruk" />
	</node>
	<node changeset="66108879" id="6190817166" lat="59.4442306" lon="10.0986195" timestamp="2019-01-07T20:37:35Z" uid="3497659" user="NKA" version="1">
		<tag k="name" v="Orrevål" />
		<tag k="place" v="farm" />
		<tag k="ssr:stedsnr" v="245067" />
		<tag k="ssr:type" v="bruk" />
	</node>
	<node changeset="66108879" id="6190817167" lat="59.4208222" lon="10.1333639" timestamp="2019-01-07T20:37:36Z" uid="3497659" user="NKA" version="1">
		<tag k="name" v="Vivestad mellom" />
		<tag k="place" v="farm" />
		<tag k="ssr:stedsnr" v="816022" />
		<tag k="ssr:type" v="gard" />
	</node>
	<node changeset="66108879" id="6190817168" lat="59.3891556" lon="10.3324611" timestamp="2019-01-07T20:37:36Z" uid="3497659" user="NKA" version="1">
		<tag k="name" v="Knapstad søndre" />
		<tag k="place" v="farm" />
		<tag k="ssr:stedsnr" v="270767" />
		<tag k="ssr:type" v="bruk" />
	</node>
	<node changeset="66108879" id="6190817169" lat="59.4340389" lon="10.1017139" timestamp="2019-01-07T20:37:36Z" uid="3497659" user="NKA" version="1">
		<tag k="name" v="Stokke" />
		<tag k="place" v="farm" />
		<tag k="ssr:stedsnr" v="245078" />
		<tag k="ssr:type" v="bruk" />
	</node>
	<node changeset="66108879" id="6190817170" lat="59.4323861" lon="10.1320667" timestamp="2019-01-07T20:37:36Z" uid="3497659" user="NKA" version="1">
		<tag k="name" v="Haldorstuen" />
		<tag k="place" v="farm" />
		<tag k="ssr:stedsnr" v="816038" />
		<tag k="ssr:type" v="bruk" />
	</node>
	<node changeset="66108879" id="6190817171" lat="59.4696185" lon="10.1773961" timestamp="2019-01-07T20:37:36Z" uid="3497659" user="NKA" version="1">
		<tag k="name" v="Ende" />
		<tag k="place" v="farm" />
		<tag k="ssr:stedsnr" v="245085" />
		<tag k="ssr:type" v="bruk" />
	</node>
	<node changeset="66108879" id="6190817172" lat="59.3982019" lon="10.3353614" timestamp="2019-01-07T20:37:36Z" uid="3497659" user="NKA" version="1">
		<tag k="name" v="Grøtås" />
		<tag k="place" v="farm" />
		<tag k="ssr:stedsnr" v="270769" />
		<tag k="ssr:type" v="bruk" />
	</node>
	<node changeset="66108879" id="6190817173" lat="59.4181278" lon="10.2703306" timestamp="2019-01-07T20:37:36Z" uid="3497659" user="NKA" version="1">
		<tag k="name" v="Bibo" />
		<tag k="place" v="farm" />
		<tag k="ssr:stedsnr" v="245124" />
		<tag k="ssr:type" v="bruk" />
	</node>
	<node changeset="66108879" id="6190817174" lat="59.3912361" lon="10.1085833" timestamp="2019-01-07T20:37:36Z" uid="3497659" user="NKA" version="1">
		<tag k="name" v="Dulpen" />
		<tag k="place" v="locality" />
		<tag k="ssr:stedsnr" v="816092" />
		<tag k="ssr:type" v="eiendom" />
	</node>
	<node changeset="66108879" id="6190817175" lat="59.4491056" lon="10.0892583" timestamp="2019-01-07T20:37:36Z" uid="3497659" user="NKA" version="1">
		<tag k="name" v="Orrevål" />
		<tag k="place" v="farm" />
		<tag k="ssr:stedsnr" v="816114" />
		<tag k="ssr:type" v="bruk" />
	</node>
	<node changeset="66108879" id="6190817176" lat="59.4504806" lon="10.3177" timestamp="2019-01-07T20:37:36Z" uid="3497659" user="NKA" version="1">
		<tag k="name" v="Rostadteigen" />
		<tag k="place" v="farm" />
		<tag k="ssr:stedsnr" v="270783" />
		<tag k="ssr:type" v="bruk" />
	</node>
	<node changeset="66108879" id="6190817177" lat="59.4389694" lon="10.2689778" timestamp="2019-01-07T20:37:36Z" uid="3497659" user="NKA" version="1">
		<tag k="name" v="Jonstang" />
		<tag k="place" v="farm" />
		<tag k="ssr:stedsnr" v="245157" />
		<tag k="ssr:type" v="bruk" />
	</node>
	<node changeset="66108879" id="6190817178" lat="59.3708528" lon="10.2034389" timestamp="2019-01-07T20:37:36Z" uid="3497659" user="NKA" version="1">
		<tag k="name" v="Fjærklepp" />
		<tag k="place" v="farm" />
		<tag k="ssr:stedsnr" v="245177" />
		<tag k="ssr:type" v="bruk" />
	</node>
	<node changeset="66108879" id="6190817179" lat="59.3800806" lon="10.30165" timestamp="2019-01-07T20:37:36Z" uid="3497659" user="NKA" version="1">
		<tag k="alt_name" v="Rustan østre" />
		<tag k="name" v="Rustan" />
		<tag k="place" v="farm" />
		<tag k="ssr:stedsnr" v="245188" />
		<tag k="ssr:type" v="bruk" />
	</node>
	<node changeset="66108879" id="6190817180" lat="59.3643083" lon="10.3100695" timestamp="2019-01-07T20:37:36Z" uid="3497659" user="NKA" version="1">
		<tag k="name" v="Venås" />
		<tag k="place" v="farm" />
		<tag k="ssr:stedsnr" v="245198" />
		<tag k="ssr:type" v="bruk" />
	</node>
	<node changeset="66108879" id="6190817181" lat="59.4201083" lon="10.1354556" timestamp="2019-01-07T20:37:36Z" uid="3497659" user="NKA" version="1">
		<tag k="name" v="Kirkevivestad" />
		<tag k="place" v="farm" />
		<tag k="ssr:stedsnr" v="816197" />
		<tag k="ssr:type" v="bruk" />
	</node>
	<node changeset="66108879" id="6190817182" lat="59.4267694" lon="10.2894083" timestamp="2019-01-07T20:37:37Z" uid="3497659" user="NKA" version="1">
		<tag k="name" v="Søby nordre" />
		<tag k="place" v="farm" />
		<tag k="ssr:stedsnr" v="270863" />
		<tag k="ssr:type" v="bruk" />
	</node>
	<node changeset="66108879" id="6190817183" lat="59.3750639" lon="10.3679083" timestamp="2019-01-07T20:37:37Z" uid="3497659" user="NKA" version="1">
		<tag k="name" v="Kleppan" />
		<tag k="place" v="farm" />
		<tag k="ssr:stedsnr" v="245530" />
		<tag k="ssr:type" v="bruk" />
	</node>
	<node changeset="66108879" id="6190817184" lat="59.3616278" lon="10.3905972" timestamp="2019-01-07T20:37:37Z" uid="3497659" user="NKA" version="1">
		<tag k="name" v="Lillerød" />
		<tag k="place" v="farm" />
		<tag k="ssr:stedsnr" v="245547" />
		<tag k="ssr:type" v="bruk" />
	</node>
	<node changeset="65792934" id="6164383717" lat="59.4171243" lon="10.2738533" timestamp="2018-12-26T18:56:21Z" uid="5317542" user="Gresskarpai" version="1" />
	<node changeset="65792934" id="6164383718" lat="59.4173061" lon="10.2749752" timestamp="2018-12-26T18:56:21Z" uid="5317542" user="Gresskarpai" version="1" />
	<node changeset="65792934" id="6164383719" lat="59.4164532" lon="10.2755092" timestamp="2018-12-26T18:56:21Z" uid="5317542" user="Gresskarpai" version="1" />
	<node changeset="65792934" id="6164383720" lat="59.4162714" lon="10.2743874" timestamp="2018-12-26T18:56:21Z" uid="5317542" user="Gresskarpai" version="1" />
	<way changeset="66108879" id="444868497" timestamp="2019-01-07T20:37:58Z" uid="3497659" user="NKA" version="2">
		<tag k="leisure" v="pitch" />
		<tag k="name" v="Bergan" />
		<tag k="sport" v="soccer" />
		<tag k="ssr:stedsnr" v="270387" />
		<tag k="ssr:type" v="idrettsanlegg" />
		<nd ref="4423320987" />
		<nd ref="4423320988" />
		<nd ref="4423320989" />
		<nd ref="4423320990" />
		<nd ref="4423320987" />
	</way>
	<way changeset="66108879" id="532657393" timestamp="2019-01-07T20:37:58Z" uid="3497659" user="NKA" version="2">
		<tag k="amenity" v="sports_centre" />
		<tag k="building" v="yes" />
		<tag k="name" v="Ramneshallen" />
		<tag k="ssr:stedsnr" v="695398" />
		<tag k="ssr:type" v="idrettshall" />
		<nd ref="5168446151" />
		<nd ref="5168446152" />
		<nd ref="5168446153" />
		<nd ref="5168446154" />
		<nd ref="5168446151" />
	</way>
	<way changeset="66108879" id="658256409" timestamp="2019-01-07T20:37:58Z" uid="3497659" user="NKA" version="2">
		<tag k="leisure" v="pitch" />
		<tag k="name" v="Bibomyra idrettsplass" />
		<tag k="sport" v="soccer" />
		<tag k="ssr:stedsnr" v="512831" />
		<tag k="ssr:type" v="idrettsanlegg" />
		<nd ref="6164383720" />
		<nd ref="6164383717" />
		<nd ref="6164383718" />
		<nd ref="6164383719" />
		<nd ref="6164383720" />
	</way>
</osm>
