<?xml version="1.0" encoding="UTF-8"?>
<osm generator="osmapis" version="0.6">
	<node id="-183794" lat="60.0462035422" lon="9.92433882738">
		<tag k="name" v="Søndre Langsjø" />
		<tag k="ssr:date" v="2019-05-30" />
		<tag k="ssr:gruppe" v="veg" />
		<tag k="ssr:hovedgruppe" v="infrastruktur" />
		<tag k="ssr:stedsnr" v="1035301" />
		<tag k="ssr:type" v="adressenavn" />
	</node>
	<node id="-183793" lat="59.9443804715" lon="9.85646174313">
		<tag k="name" v="Stormyr" />
		<tag k="ssr:date" v="2019-05-30" />
		<tag k="ssr:gruppe" v="veg" />
		<tag k="ssr:hovedgruppe" v="infrastruktur" />
		<tag k="ssr:stedsnr" v="1035299" />
		<tag k="ssr:type" v="adressenavn" />
	</node>
	<node id="-183792" lat="59.9249617991" lon="9.96384644114">
		<tag k="name" v="Skredsvikberga" />
		<tag k="ssr:date" v="2019-05-30" />
		<tag k="ssr:gruppe" v="veg" />
		<tag k="ssr:hovedgruppe" v="infrastruktur" />
		<tag k="ssr:stedsnr" v="1035298" />
		<tag k="ssr:type" v="adressenavn" />
	</node>
	<node id="-185768" lat="59.9670277806" lon="9.87365555357">
		<tag k="name" v="Malmveien" />
		<tag k="ssr:date" v="2016-05-11" />
		<tag k="ssr:gruppe" v="veg" />
		<tag k="ssr:hovedgruppe" v="infrastruktur" />
		<tag k="ssr:stedsnr" v="968152" />
		<tag k="ssr:type" v="vegstrekning" />
	</node>
	<node id="-185322" lat="60.0347166698" lon="9.99422499336">
		<tag k="name" v="Øderud" />
		<tag k="ssr:date" v="2016-05-11" />
		<tag k="ssr:gruppe" v="veg" />
		<tag k="ssr:hovedgruppe" v="infrastruktur" />
		<tag k="ssr:stedsnr" v="728196" />
		<tag k="ssr:type" v="adressetilleggsnavn" />
	</node>
	<node id="-185321" lat="59.9306388868" lon="9.81770000445">
		<tag k="name" v="Nordre Gunnerud" />
		<tag k="ssr:date" v="2016-05-11" />
		<tag k="ssr:gruppe" v="veg" />
		<tag k="ssr:hovedgruppe" v="infrastruktur" />
		<tag k="ssr:stedsnr" v="727232" />
		<tag k="ssr:type" v="adressetilleggsnavn" />
	</node>
	<node id="-185320" lat="59.8725166697" lon="9.87839165836">
		<tag k="name" v="Refsal" />
		<tag k="ssr:date" v="2016-05-11" />
		<tag k="ssr:gruppe" v="veg" />
		<tag k="ssr:hovedgruppe" v="infrastruktur" />
		<tag k="ssr:stedsnr" v="727226" />
		<tag k="ssr:type" v="adressetilleggsnavn" />
	</node>
	<node id="-185319" lat="59.9840888853" lon="9.98474721409">
		<tag k="name" v="Kongsrud" />
		<tag k="ssr:date" v="2016-05-11" />
		<tag k="ssr:gruppe" v="veg" />
		<tag k="ssr:hovedgruppe" v="infrastruktur" />
		<tag k="ssr:stedsnr" v="727220" />
		<tag k="ssr:type" v="adressetilleggsnavn" />
	</node>
	<node id="-185318" lat="59.9687527796" lon="9.9526944434">
		<tag k="name" v="Kaggestadmoen" />
		<tag k="ssr:date" v="2016-05-11" />
		<tag k="ssr:gruppe" v="veg" />
		<tag k="ssr:hovedgruppe" v="infrastruktur" />
		<tag k="ssr:stedsnr" v="727217" />
		<tag k="ssr:type" v="adressetilleggsnavn" />
	</node>
	<node id="-184805" lat="59.9238472222" lon="9.83695832486">
		<tag k="name" v="Sterkabyveien" />
		<tag k="ssr:date" v="2019-05-30" />
		<tag k="ssr:gruppe" v="veg" />
		<tag k="ssr:hovedgruppe" v="infrastruktur" />
		<tag k="ssr:stedsnr" v="466553" />
		<tag k="ssr:type" v="adressenavn" />
	</node>
	<node id="-184275" lat="59.914905553" lon="9.94161945249">
		<tag k="name" v="Linnerud" />
		<tag k="ssr:date" v="2016-05-10" />
		<tag k="ssr:gruppe" v="veg" />
		<tag k="ssr:hovedgruppe" v="infrastruktur" />
		<tag k="ssr:stedsnr" v="60212" />
		<tag k="ssr:type" v="adressetilleggsnavn" />
	</node>
	<node id="-184272" lat="59.9845388893" lon="9.88024443912">
		<tag k="name" v="Skuterud" />
		<tag k="ssr:date" v="2016-05-10" />
		<tag k="ssr:gruppe" v="veg" />
		<tag k="ssr:hovedgruppe" v="infrastruktur" />
		<tag k="ssr:stedsnr" v="59214" />
		<tag k="ssr:type" v="adressetilleggsnavn" />
	</node>
	<node id="-185803" lat="59.9251542184" lon="9.96257194331">
		<tag k="name" v="Skredsvik allé" />
		<tag k="ssr:date" v="2019-05-30" />
		<tag k="ssr:gruppe" v="veg" />
		<tag k="ssr:hovedgruppe" v="infrastruktur" />
		<tag k="ssr:stedsnr" v="980431" />
		<tag k="ssr:type" v="adressenavn" />
	</node>
	<node id="-185802" lat="59.9238740224" lon="9.96079968077">
		<tag k="name" v="Skredsvikkroken" />
		<tag k="ssr:date" v="2019-05-30" />
		<tag k="ssr:gruppe" v="veg" />
		<tag k="ssr:hovedgruppe" v="infrastruktur" />
		<tag k="ssr:stedsnr" v="980430" />
		<tag k="ssr:type" v="adressenavn" />
	</node>
	<node id="-185801" lat="59.9394405591" lon="9.97733926329">
		<tag k="name" v="Skinnerudstubben" />
		<tag k="ssr:date" v="2019-05-30" />
		<tag k="ssr:gruppe" v="veg" />
		<tag k="ssr:hovedgruppe" v="infrastruktur" />
		<tag k="ssr:stedsnr" v="980429" />
		<tag k="ssr:type" v="adressenavn" />
	</node>
	<node id="-185800" lat="59.9741710587" lon="9.99946717657">
		<tag k="name" v="Sørhellinga" />
		<tag k="ssr:date" v="2019-05-30" />
		<tag k="ssr:gruppe" v="veg" />
		<tag k="ssr:hovedgruppe" v="infrastruktur" />
		<tag k="ssr:stedsnr" v="980428" />
		<tag k="ssr:type" v="adressenavn" />
	</node>
	<node id="-185799" lat="59.9732606439" lon="10.0011058584">
		<tag k="name" v="Gartneriveien" />
		<tag k="ssr:date" v="2019-05-30" />
		<tag k="ssr:gruppe" v="veg" />
		<tag k="ssr:hovedgruppe" v="infrastruktur" />
		<tag k="ssr:stedsnr" v="980427" />
		<tag k="ssr:type" v="adressenavn" />
	</node>
	<node id="-185797" lat="59.9655344809" lon="9.94429193929">
		<tag k="name" v="St. Olavsallé" />
		<tag k="ssr:date" v="2019-05-30" />
		<tag k="ssr:gruppe" v="veg" />
		<tag k="ssr:hovedgruppe" v="infrastruktur" />
		<tag k="ssr:stedsnr" v="978133" />
		<tag k="ssr:type" v="adressenavn" />
	</node>
	<node id="-185796" lat="59.8710252207" lon="9.83162972214">
		<tag k="name" v="Steinsrudlia" />
		<tag k="ssr:date" v="2019-05-30" />
		<tag k="ssr:gruppe" v="veg" />
		<tag k="ssr:hovedgruppe" v="infrastruktur" />
		<tag k="ssr:stedsnr" v="978132" />
		<tag k="ssr:type" v="adressenavn" />
	</node>
	<node id="-185795" lat="59.9830570414" lon="10.2364696722">
		<tag k="name" v="Pilterudåsen" />
		<tag k="ssr:date" v="2019-05-30" />
		<tag k="ssr:gruppe" v="veg" />
		<tag k="ssr:hovedgruppe" v="infrastruktur" />
		<tag k="ssr:stedsnr" v="978131" />
		<tag k="ssr:type" v="adressenavn" />
	</node>
	<node id="-185794" lat="59.9835877809" lon="10.2354141755">
		<tag k="name" v="Pilterudlia" />
		<tag k="ssr:date" v="2019-05-30" />
		<tag k="ssr:gruppe" v="veg" />
		<tag k="ssr:hovedgruppe" v="infrastruktur" />
		<tag k="ssr:stedsnr" v="978130" />
		<tag k="ssr:type" v="adressenavn" />
	</node>
	<node id="-185793" lat="59.9660585197" lon="9.9425873803">
		<tag k="name" v="Kildestubben" />
		<tag k="ssr:date" v="2019-05-30" />
		<tag k="ssr:gruppe" v="veg" />
		<tag k="ssr:hovedgruppe" v="infrastruktur" />
		<tag k="ssr:stedsnr" v="978129" />
		<tag k="ssr:type" v="adressenavn" />
	</node>
	<node id="-185792" lat="59.9668633502" lon="9.94305803671">
		<tag k="name" v="Kildebakken" />
		<tag k="ssr:date" v="2019-05-30" />
		<tag k="ssr:gruppe" v="veg" />
		<tag k="ssr:hovedgruppe" v="infrastruktur" />
		<tag k="ssr:stedsnr" v="978128" />
		<tag k="ssr:type" v="adressenavn" />
	</node>
	<node id="-185791" lat="60.0023321694" lon="10.0264062237">
		<tag k="name" v="Jarentangen" />
		<tag k="ssr:date" v="2019-05-30" />
		<tag k="ssr:gruppe" v="veg" />
		<tag k="ssr:hovedgruppe" v="infrastruktur" />
		<tag k="ssr:stedsnr" v="978127" />
		<tag k="ssr:type" v="adressenavn" />
	</node>
	<node id="-185790" lat="60.0072776267" lon="10.0255731189">
		<tag k="name" v="Jarenhaugen" />
		<tag k="ssr:date" v="2019-05-30" />
		<tag k="ssr:gruppe" v="veg" />
		<tag k="ssr:hovedgruppe" v="infrastruktur" />
		<tag k="ssr:stedsnr" v="978126" />
		<tag k="ssr:type" v="adressenavn" />
	</node>
	<node id="-185787" lat="60.5908609473" lon="9.63819281559">
		<tag k="fixme" v="multiple name tags, choose one and add the other to alt_name" />
		<tag k="name" v="Austlandet;Østlandet" />
		<tag k="ssr:date" v="2018-01-09" />
		<tag k="ssr:gruppe" v="administrativeIndelinger" />
		<tag k="ssr:hovedgruppe" v="offentligAdministrasjon" />
		<tag k="ssr:stedsnr" v="974775" />
		<tag k="ssr:type" v="annenAdministrativInndeling" />
	</node>
	<node id="-185785" lat="60.0078694422" lon="10.0743194396">
		<tag k="name" v="Sør-Tangerud" />
		<tag k="ssr:date" v="2016-05-11" />
		<tag k="ssr:gruppe" v="veg" />
		<tag k="ssr:hovedgruppe" v="infrastruktur" />
		<tag k="ssr:stedsnr" v="970336" />
		<tag k="ssr:type" v="adressetilleggsnavn" />
	</node>
	<node id="-185784" lat="59.8899083305" lon="9.783675007">
		<tag k="name" v="Solheim" />
		<tag k="ssr:date" v="2016-05-11" />
		<tag k="ssr:gruppe" v="veg" />
		<tag k="ssr:hovedgruppe" v="infrastruktur" />
		<tag k="ssr:stedsnr" v="970323" />
		<tag k="ssr:type" v="adressetilleggsnavn" />
	</node>
	<node id="-185783" lat="59.9271583357" lon="9.99016388229">
		<tag k="name" v="Søndre Øren" />
		<tag k="ssr:date" v="2016-05-11" />
		<tag k="ssr:gruppe" v="veg" />
		<tag k="ssr:hovedgruppe" v="infrastruktur" />
		<tag k="ssr:stedsnr" v="970316" />
		<tag k="ssr:type" v="adressetilleggsnavn" />
	</node>
	<node id="-185779" lat="60.0076611073" lon="9.86102500637">
		<tag k="name" v="Hovde" />
		<tag k="ssr:date" v="2016-05-11" />
		<tag k="ssr:gruppe" v="veg" />
		<tag k="ssr:hovedgruppe" v="infrastruktur" />
		<tag k="ssr:stedsnr" v="969222" />
		<tag k="ssr:type" v="adressetilleggsnavn" />
	</node>
	<node id="-185778" lat="59.9828305569" lon="9.99797222391">
		<tag k="name" v="Børgen" />
		<tag k="ssr:date" v="2016-05-11" />
		<tag k="ssr:gruppe" v="veg" />
		<tag k="ssr:hovedgruppe" v="infrastruktur" />
		<tag k="ssr:stedsnr" v="969212" />
		<tag k="ssr:type" v="adressetilleggsnavn" />
	</node>
	<node id="-185777" lat="59.9864888845" lon="10.0335333257">
		<tag k="name" v="Brekke" />
		<tag k="ssr:date" v="2016-05-11" />
		<tag k="ssr:gruppe" v="veg" />
		<tag k="ssr:hovedgruppe" v="infrastruktur" />
		<tag k="ssr:stedsnr" v="969210" />
		<tag k="ssr:type" v="adressetilleggsnavn" />
	</node>
	<node id="-184745" lat="59.9641583302" lon="10.0007777852">
		<tag k="name" v="Strandgården Brygge" />
		<tag k="ssr:date" v="2016-05-10" />
		<tag k="ssr:gruppe" v="veg" />
		<tag k="ssr:hovedgruppe" v="infrastruktur" />
		<tag k="ssr:stedsnr" v="424224" />
		<tag k="ssr:type" v="adressetilleggsnavn" />
	</node>
	<node id="-184744" lat="59.9828305569" lon="9.99797222391">
		<tag k="name" v="Disen" />
		<tag k="ssr:date" v="2016-05-10" />
		<tag k="ssr:gruppe" v="veg" />
		<tag k="ssr:hovedgruppe" v="infrastruktur" />
		<tag k="ssr:stedsnr" v="424207" />
		<tag k="ssr:type" v="adressetilleggsnavn" />
	</node>
	<node id="-184743" lat="60.033183331" lon="10.0247777704">
		<tag k="name" v="Gunnestad" />
		<tag k="ssr:date" v="2016-05-10" />
		<tag k="ssr:gruppe" v="veg" />
		<tag k="ssr:hovedgruppe" v="infrastruktur" />
		<tag k="ssr:stedsnr" v="424202" />
		<tag k="ssr:type" v="adressetilleggsnavn" />
	</node>
	<node id="-184742" lat="59.9336527755" lon="9.96947499718">
		<tag k="name" v="Internatveien" />
		<tag k="ssr:date" v="2019-05-30" />
		<tag k="ssr:gruppe" v="veg" />
		<tag k="ssr:hovedgruppe" v="infrastruktur" />
		<tag k="ssr:stedsnr" v="423985" />
		<tag k="ssr:type" v="adressenavn" />
	</node>
	<node id="-183791" lat="60.0408012043" lon="10.0185452883">
		<tag k="name" v="Solumveien" />
		<tag k="ssr:date" v="2019-05-30" />
		<tag k="ssr:gruppe" v="veg" />
		<tag k="ssr:hovedgruppe" v="infrastruktur" />
		<tag k="ssr:stedsnr" v="1035269" />
		<tag k="ssr:type" v="adressenavn" />
	</node>
	<node id="-185206" lat="59.906688887" lon="9.86983610376">
		<tag k="name" v="Sør-Øgarden" />
		<tag k="ssr:date" v="2016-05-10" />
		<tag k="ssr:gruppe" v="veg" />
		<tag k="ssr:hovedgruppe" v="infrastruktur" />
		<tag k="ssr:stedsnr" v="667230" />
		<tag k="ssr:type" v="adressetilleggsnavn" />
	</node>
	<node id="-185205" lat="59.8673166706" lon="9.83307222609">
		<tag k="name" v="Steinsrud" />
		<tag k="ssr:date" v="2016-05-10" />
		<tag k="ssr:gruppe" v="veg" />
		<tag k="ssr:hovedgruppe" v="infrastruktur" />
		<tag k="ssr:stedsnr" v="667218" />
		<tag k="ssr:type" v="adressetilleggsnavn" />
	</node>
	<node id="-185204" lat="60.0780361153" lon="9.85712777621">
		<tag k="name" v="Lien" />
		<tag k="ssr:date" v="2016-05-10" />
		<tag k="ssr:gruppe" v="veg" />
		<tag k="ssr:hovedgruppe" v="infrastruktur" />
		<tag k="ssr:stedsnr" v="666235" />
		<tag k="ssr:type" v="adressetilleggsnavn" />
	</node>
	<node id="-185203" lat="59.9380083307" lon="9.90351111505">
		<tag k="name" v="Nordvestre Jar" />
		<tag k="ssr:date" v="2016-05-10" />
		<tag k="ssr:gruppe" v="veg" />
		<tag k="ssr:hovedgruppe" v="infrastruktur" />
		<tag k="ssr:stedsnr" v="666229" />
		<tag k="ssr:type" v="adressetilleggsnavn" />
	</node>
	<node id="-185202" lat="59.9821277813" lon="10.0253333345">
		<tag k="name" v="Engelstad" />
		<tag k="ssr:date" v="2016-05-10" />
		<tag k="ssr:gruppe" v="veg" />
		<tag k="ssr:hovedgruppe" v="infrastruktur" />
		<tag k="ssr:stedsnr" v="666210" />
		<tag k="ssr:type" v="adressetilleggsnavn" />
	</node>
	<node id="-184669" lat="59.9264666661" lon="9.83885000006">
		<tag k="name" v="Tangen" />
		<tag k="ssr:date" v="2016-05-10" />
		<tag k="ssr:gruppe" v="veg" />
		<tag k="ssr:hovedgruppe" v="infrastruktur" />
		<tag k="ssr:stedsnr" v="242212" />
		<tag k="ssr:type" v="adressetilleggsnavn" />
	</node>
	<node id="-184668" lat="59.9381333337" lon="9.80972222892">
		<tag k="name" v="Vestre Lobben" />
		<tag k="ssr:date" v="2016-05-10" />
		<tag k="ssr:gruppe" v="veg" />
		<tag k="ssr:hovedgruppe" v="infrastruktur" />
		<tag k="ssr:stedsnr" v="242209" />
		<tag k="ssr:type" v="adressetilleggsnavn" />
	</node>
	<node id="-184667" lat="59.8681138899" lon="9.83778889683">
		<tag k="name" v="Steinsrud" />
		<tag k="ssr:date" v="2016-05-10" />
		<tag k="ssr:gruppe" v="veg" />
		<tag k="ssr:hovedgruppe" v="infrastruktur" />
		<tag k="ssr:stedsnr" v="242203" />
		<tag k="ssr:type" v="adressetilleggsnavn" />
	</node>
	<node id="-184666" lat="59.9820166678" lon="9.8879555603">
		<tag k="name" v="Aslaksby" />
		<tag k="ssr:date" v="2016-05-10" />
		<tag k="ssr:gruppe" v="veg" />
		<tag k="ssr:hovedgruppe" v="infrastruktur" />
		<tag k="ssr:stedsnr" v="241966" />
		<tag k="ssr:type" v="adressetilleggsnavn" />
	</node>
	<node id="-184663" lat="59.9901194487" lon="9.99697223082">
		<tag k="name" v="Skåka" />
		<tag k="ssr:date" v="2016-05-10" />
		<tag k="ssr:gruppe" v="veg" />
		<tag k="ssr:hovedgruppe" v="infrastruktur" />
		<tag k="ssr:stedsnr" v="241204" />
		<tag k="ssr:type" v="adressetilleggsnavn" />
	</node>
	<node id="-185685" lat="59.9441249985" lon="9.88857777268">
		<tag k="name" v="Hellevegen" />
		<tag k="ssr:date" v="2017-06-21" />
		<tag k="ssr:gruppe" v="veg" />
		<tag k="ssr:hovedgruppe" v="infrastruktur" />
		<tag k="ssr:stedsnr" v="914867" />
		<tag k="ssr:type" v="vegstrekning" />
	</node>
	<node id="-184143" lat="59.9487073794" lon="9.85132455182">
		<tag k="name" v="Krabbetjern" />
		<tag k="ssr:date" v="2019-05-30" />
		<tag k="ssr:gruppe" v="veg" />
		<tag k="ssr:hovedgruppe" v="infrastruktur" />
		<tag k="ssr:stedsnr" v="1034934" />
		<tag k="ssr:type" v="adressenavn" />
	</node>
	<node id="-184142" lat="60.0440674371" lon="9.93117225436">
		<tag k="name" v="Arnestjern" />
		<tag k="ssr:date" v="2019-05-30" />
		<tag k="ssr:gruppe" v="veg" />
		<tag k="ssr:hovedgruppe" v="infrastruktur" />
		<tag k="ssr:stedsnr" v="1034621" />
		<tag k="ssr:type" v="adressenavn" />
	</node>
	<node id="-184141" lat="59.8704731797" lon="9.99400253688">
		<tag k="name" v="Grytmyrveien" />
		<tag k="ssr:date" v="2019-05-30" />
		<tag k="ssr:gruppe" v="veg" />
		<tag k="ssr:hovedgruppe" v="infrastruktur" />
		<tag k="ssr:stedsnr" v="1034820" />
		<tag k="ssr:type" v="adressenavn" />
	</node>
	<node id="-184140" lat="60.1177591932" lon="9.89831873127">
		<tag k="name" v="Bråtavollen" />
		<tag k="ssr:date" v="2019-05-30" />
		<tag k="ssr:gruppe" v="veg" />
		<tag k="ssr:hovedgruppe" v="infrastruktur" />
		<tag k="ssr:stedsnr" v="1033892" />
		<tag k="ssr:type" v="adressenavn" />
	</node>
	<node id="-184139" lat="59.9647842647" lon="9.99841316995">
		<tag k="name" v="Fiskestuholmen" />
		<tag k="ssr:date" v="2019-05-30" />
		<tag k="ssr:gruppe" v="veg" />
		<tag k="ssr:hovedgruppe" v="infrastruktur" />
		<tag k="ssr:stedsnr" v="1034143" />
		<tag k="ssr:type" v="adressenavn" />
	</node>
	<node id="-184138" lat="59.8973196559" lon="9.92955725808">
		<tag k="name" v="Modumheimen" />
		<tag k="ssr:date" v="2019-05-30" />
		<tag k="ssr:gruppe" v="veg" />
		<tag k="ssr:hovedgruppe" v="infrastruktur" />
		<tag k="ssr:stedsnr" v="991048" />
		<tag k="ssr:type" v="adressenavn" />
	</node>
	<node id="-184137" lat="59.9334579909" lon="9.96907531215">
		<tag k="name" v="Thorolf Eriksens vei" />
		<tag k="ssr:date" v="2019-05-30" />
		<tag k="ssr:gruppe" v="veg" />
		<tag k="ssr:hovedgruppe" v="infrastruktur" />
		<tag k="ssr:stedsnr" v="991047" />
		<tag k="ssr:type" v="adressenavn" />
	</node>
	<node id="-184136" lat="59.9251910965" lon="9.96489860836">
		<tag k="name" v="Christian Skredsvigs vei" />
		<tag k="ssr:date" v="2019-05-30" />
		<tag k="ssr:gruppe" v="veg" />
		<tag k="ssr:hovedgruppe" v="infrastruktur" />
		<tag k="ssr:stedsnr" v="991046" />
		<tag k="ssr:type" v="adressenavn" />
	</node>
	<node id="-184135" lat="59.8963864987" lon="9.89968228894">
		<tag k="name" v="Hauglandveien" />
		<tag k="ssr:date" v="2019-05-30" />
		<tag k="ssr:gruppe" v="veg" />
		<tag k="ssr:hovedgruppe" v="infrastruktur" />
		<tag k="ssr:stedsnr" v="991045" />
		<tag k="ssr:type" v="adressenavn" />
	</node>
	<node id="-184134" lat="59.9480918243" lon="9.81846853212">
		<tag k="name" v="Hulbakåsen" />
		<tag k="ssr:date" v="2019-05-30" />
		<tag k="ssr:gruppe" v="veg" />
		<tag k="ssr:hovedgruppe" v="infrastruktur" />
		<tag k="ssr:stedsnr" v="991044" />
		<tag k="ssr:type" v="adressenavn" />
	</node>
	<node id="-185154" lat="59.9068250024" lon="9.91206945046">
		<tag k="name" v="Åslyveien" />
		<tag k="ssr:date" v="2019-05-30" />
		<tag k="ssr:gruppe" v="veg" />
		<tag k="ssr:hovedgruppe" v="infrastruktur" />
		<tag k="ssr:stedsnr" v="648337" />
		<tag k="ssr:type" v="adressenavn" />
	</node>
	<node id="-185658" lat="59.9888916638" lon="9.97137778284">
		<tag k="name" v="Åsmundrud" />
		<tag k="ssr:date" v="2016-05-11" />
		<tag k="ssr:gruppe" v="veg" />
		<tag k="ssr:hovedgruppe" v="infrastruktur" />
		<tag k="ssr:stedsnr" v="910238" />
		<tag k="ssr:type" v="adressetilleggsnavn" />
	</node>
	<node id="-185657" lat="59.8864749963" lon="9.87789999646">
		<tag k="name" v="Vestre Nyhus" />
		<tag k="ssr:date" v="2016-05-11" />
		<tag k="ssr:gruppe" v="veg" />
		<tag k="ssr:hovedgruppe" v="infrastruktur" />
		<tag k="ssr:stedsnr" v="910234" />
		<tag k="ssr:type" v="adressetilleggsnavn" />
	</node>
	<node id="-185655" lat="60.0495888857" lon="9.84011944977">
		<tag k="name" v="Nedre Korsbøen" />
		<tag k="ssr:date" v="2016-05-11" />
		<tag k="ssr:gruppe" v="veg" />
		<tag k="ssr:hovedgruppe" v="infrastruktur" />
		<tag k="ssr:stedsnr" v="909248" />
		<tag k="ssr:type" v="adressetilleggsnavn" />
	</node>
	<node id="-185654" lat="59.9412145367" lon="10.000331856">
		<tag k="name" v="Heggen prestegård" />
		<tag k="ssr:date" v="2018-04-03" />
		<tag k="ssr:gruppe" v="veg" />
		<tag k="ssr:hovedgruppe" v="infrastruktur" />
		<tag k="ssr:stedsnr" v="909233" />
		<tag k="ssr:type" v="adressetilleggsnavn" />
	</node>
	<node id="-185653" lat="59.9408805566" lon="10.0008805643">
		<tag k="name" v="Heggen kirke" />
		<tag k="ssr:date" v="2016-05-11" />
		<tag k="ssr:gruppe" v="veg" />
		<tag k="ssr:hovedgruppe" v="infrastruktur" />
		<tag k="ssr:stedsnr" v="909230" />
		<tag k="ssr:type" v="adressetilleggsnavn" />
	</node>
	<node id="-185652" lat="60.0722638924" lon="9.84707500633">
		<tag k="name" v="Kvernrud" />
		<tag k="ssr:date" v="2016-05-11" />
		<tag k="ssr:gruppe" v="veg" />
		<tag k="ssr:hovedgruppe" v="infrastruktur" />
		<tag k="ssr:stedsnr" v="909229" />
		<tag k="ssr:type" v="adressetilleggsnavn" />
	</node>
	<node id="-185639" lat="60.0183916671" lon="9.8762111146">
		<tag k="name" v="Hilsenveien" />
		<tag k="ssr:date" v="2019-05-30" />
		<tag k="ssr:gruppe" v="veg" />
		<tag k="ssr:hovedgruppe" v="infrastruktur" />
		<tag k="ssr:stedsnr" v="908008" />
		<tag k="ssr:type" v="adressenavn" />
	</node>
	<node id="-185635" lat="59.9629694456" lon="9.8975472263">
		<tag k="name" v="Sandakermyrveien" />
		<tag k="ssr:date" v="2019-05-30" />
		<tag k="ssr:gruppe" v="veg" />
		<tag k="ssr:hovedgruppe" v="infrastruktur" />
		<tag k="ssr:stedsnr" v="907811" />
		<tag k="ssr:type" v="adressenavn" />
	</node>
	<node id="-185095" lat="59.9549305575" lon="9.90708888159">
		<tag k="name" v="Amundrud" />
		<tag k="ssr:date" v="2016-05-10" />
		<tag k="ssr:gruppe" v="veg" />
		<tag k="ssr:hovedgruppe" v="infrastruktur" />
		<tag k="ssr:stedsnr" v="605961" />
		<tag k="ssr:type" v="adressetilleggsnavn" />
	</node>
	<node id="-185093" lat="59.9350555589" lon="9.81650000862">
		<tag k="name" v="Lobben" />
		<tag k="ssr:date" v="2016-05-10" />
		<tag k="ssr:gruppe" v="veg" />
		<tag k="ssr:hovedgruppe" v="infrastruktur" />
		<tag k="ssr:stedsnr" v="605249" />
		<tag k="ssr:type" v="adressetilleggsnavn" />
	</node>
	<node id="-184051" lat="59.9735249972" lon="9.90071666175">
		<tag k="name" v="Sponeveien" />
		<tag k="ssr:date" v="2016-05-10" />
		<tag k="ssr:gruppe" v="veg" />
		<tag k="ssr:hovedgruppe" v="infrastruktur" />
		<tag k="ssr:stedsnr" v="404870" />
		<tag k="ssr:type" v="vegstrekning" />
	</node>
	<node id="-185560" lat="59.9876444403" lon="9.9465694362">
		<tag k="name" v="Hære" />
		<tag k="ssr:date" v="2016-05-11" />
		<tag k="ssr:gruppe" v="veg" />
		<tag k="ssr:hovedgruppe" v="infrastruktur" />
		<tag k="ssr:stedsnr" v="849230" />
		<tag k="ssr:type" v="adressetilleggsnavn" />
	</node>
	<node id="-185559" lat="59.9880361154" lon="9.96307222922">
		<tag k="name" v="Haugerud" />
		<tag k="ssr:date" v="2016-05-11" />
		<tag k="ssr:gruppe" v="veg" />
		<tag k="ssr:hovedgruppe" v="infrastruktur" />
		<tag k="ssr:stedsnr" v="849221" />
		<tag k="ssr:type" v="adressetilleggsnavn" />
	</node>
	<node id="-184532" lat="60.0499277789" lon="9.83759722113">
		<tag k="name" v="Øvre Korsbøen" />
		<tag k="ssr:date" v="2016-05-10" />
		<tag k="ssr:gruppe" v="veg" />
		<tag k="ssr:hovedgruppe" v="infrastruktur" />
		<tag k="ssr:stedsnr" v="181255" />
		<tag k="ssr:type" v="adressetilleggsnavn" />
	</node>
	<node id="-184531" lat="59.9979861117" lon="10.025213892">
		<tag k="name" v="Tveiten" />
		<tag k="ssr:date" v="2016-05-10" />
		<tag k="ssr:gruppe" v="veg" />
		<tag k="ssr:hovedgruppe" v="infrastruktur" />
		<tag k="ssr:stedsnr" v="181239" />
		<tag k="ssr:type" v="adressetilleggsnavn" />
	</node>
	<node id="-184530" lat="59.886563892" lon="9.88610555947">
		<tag k="name" v="Solli" />
		<tag k="ssr:date" v="2016-05-10" />
		<tag k="ssr:gruppe" v="veg" />
		<tag k="ssr:hovedgruppe" v="infrastruktur" />
		<tag k="ssr:stedsnr" v="181235" />
		<tag k="ssr:type" v="adressetilleggsnavn" />
	</node>
	<node id="-184529" lat="59.9712611129" lon="9.90473889331">
		<tag k="name" v="Jarmoen" />
		<tag k="ssr:date" v="2016-05-10" />
		<tag k="ssr:gruppe" v="veg" />
		<tag k="ssr:hovedgruppe" v="infrastruktur" />
		<tag k="ssr:stedsnr" v="181211" />
		<tag k="ssr:type" v="adressetilleggsnavn" />
	</node>
	<node id="-184528" lat="59.9892722184" lon="9.89992500836">
		<tag k="name" v="Bjørnetangen" />
		<tag k="ssr:date" v="2016-05-10" />
		<tag k="ssr:gruppe" v="veg" />
		<tag k="ssr:hovedgruppe" v="infrastruktur" />
		<tag k="ssr:stedsnr" v="181207" />
		<tag k="ssr:type" v="adressetilleggsnavn" />
	</node>
	<node id="-185014" lat="59.8869861148" lon="9.95220833134">
		<tag k="name" v="Dalavegen" />
		<tag k="ssr:date" v="2017-06-21" />
		<tag k="ssr:gruppe" v="veg" />
		<tag k="ssr:hovedgruppe" v="infrastruktur" />
		<tag k="ssr:stedsnr" v="550657" />
		<tag k="ssr:type" v="vegstrekning" />
	</node>
	<node id="-185510" lat="59.9657111154" lon="9.99606111837">
		<tag k="name" v="Strandveien" />
		<tag k="ssr:date" v="2019-05-30" />
		<tag k="ssr:gruppe" v="veg" />
		<tag k="ssr:hovedgruppe" v="infrastruktur" />
		<tag k="ssr:stedsnr" v="829884" />
		<tag k="ssr:type" v="adressenavn" />
	</node>
	<node id="-183973" lat="59.9790750034" lon="9.8890055568">
		<tag k="name" v="Bergan" />
		<tag k="ssr:date" v="2016-05-10" />
		<tag k="ssr:gruppe" v="veg" />
		<tag k="ssr:hovedgruppe" v="infrastruktur" />
		<tag k="ssr:stedsnr" v="363959" />
		<tag k="ssr:type" v="adressetilleggsnavn" />
	</node>
	<node id="-183972" lat="59.9835527745" lon="10.0335305567">
		<tag k="name" v="Brekkeplassen" />
		<tag k="ssr:date" v="2019-05-30" />
		<tag k="ssr:gruppe" v="veg" />
		<tag k="ssr:hovedgruppe" v="infrastruktur" />
		<tag k="ssr:stedsnr" v="362940" />
		<tag k="ssr:type" v="adressenavn" />
	</node>
	<node id="-184993" lat="59.9862972199" lon="10.0118777815">
		<tag k="name" v="Hervik" />
		<tag k="ssr:date" v="2016-05-10" />
		<tag k="ssr:gruppe" v="veg" />
		<tag k="ssr:hovedgruppe" v="infrastruktur" />
		<tag k="ssr:stedsnr" v="545200" />
		<tag k="ssr:type" v="adressetilleggsnavn" />
	</node>
	<node id="-184992" lat="59.9406666693" lon="9.82240277712">
		<tag k="name" v="Hauge" />
		<tag k="ssr:date" v="2016-05-10" />
		<tag k="ssr:gruppe" v="veg" />
		<tag k="ssr:hovedgruppe" v="infrastruktur" />
		<tag k="ssr:stedsnr" v="545191" />
		<tag k="ssr:type" v="adressetilleggsnavn" />
	</node>
	<node id="-184991" lat="59.9297694413" lon="9.96513889298">
		<tag k="name" v="Geithus næringspark" />
		<tag k="ssr:date" v="2016-05-10" />
		<tag k="ssr:gruppe" v="veg" />
		<tag k="ssr:hovedgruppe" v="infrastruktur" />
		<tag k="ssr:stedsnr" v="545189" />
		<tag k="ssr:type" v="adressetilleggsnavn" />
	</node>
	<node id="-185500" lat="59.9748277761" lon="10.1338777738">
		<tag k="name" v="Breilistanga" />
		<tag k="ssr:date" v="2016-05-11" />
		<tag k="ssr:gruppe" v="navigasjon" />
		<tag k="ssr:hovedgruppe" v="infrastruktur" />
		<tag k="ssr:stedsnr" v="829081" />
		<tag k="ssr:type" v="jernstang" />
	</node>
	<node id="-185492" lat="59.9734555562" lon="10.0046777716">
		<tag k="name" v="Modum kommune" />
		<tag k="ssr:date" v="2016-05-11" />
		<tag k="ssr:gruppe" v="administrativeIndelinger" />
		<tag k="ssr:hovedgruppe" v="offentligAdministrasjon" />
		<tag k="ssr:stedsnr" v="813417" />
		<tag k="ssr:type" v="kommune" />
	</node>
	<node id="-185446" lat="60.0683472192" lon="9.764511115">
		<tag k="name" v="Håvardsrudveien" />
		<tag k="ssr:date" v="2019-05-30" />
		<tag k="ssr:gruppe" v="veg" />
		<tag k="ssr:hovedgruppe" v="infrastruktur" />
		<tag k="ssr:stedsnr" v="787973" />
		<tag k="ssr:type" v="adressenavn" />
	</node>
	<node id="-185443" lat="59.9789500029" lon="9.99340277636">
		<tag k="name" v="Bottegarden" />
		<tag k="ssr:date" v="2016-05-11" />
		<tag k="ssr:gruppe" v="veg" />
		<tag k="ssr:hovedgruppe" v="infrastruktur" />
		<tag k="ssr:stedsnr" v="787198" />
		<tag k="ssr:type" v="adressetilleggsnavn" />
	</node>
	<node id="-185435" lat="59.9006444449" lon="9.88469167435">
		<tag k="name" v="Setersbergveien" />
		<tag k="ssr:date" v="2019-05-30" />
		<tag k="ssr:gruppe" v="veg" />
		<tag k="ssr:hovedgruppe" v="infrastruktur" />
		<tag k="ssr:stedsnr" v="786842" />
		<tag k="ssr:type" v="adressenavn" />
	</node>
	<node id="-184388" lat="59.8783583319" lon="9.8177722172">
		<tag k="name" v="Øvre Hovenga" />
		<tag k="ssr:date" v="2016-05-10" />
		<tag k="ssr:gruppe" v="veg" />
		<tag k="ssr:hovedgruppe" v="infrastruktur" />
		<tag k="ssr:stedsnr" v="121247" />
		<tag k="ssr:type" v="adressetilleggsnavn" />
	</node>
	<node id="-184387" lat="59.9896972206" lon="9.97073610411">
		<tag k="name" v="Åsmundrud" />
		<tag k="ssr:date" v="2016-05-10" />
		<tag k="ssr:gruppe" v="veg" />
		<tag k="ssr:hovedgruppe" v="infrastruktur" />
		<tag k="ssr:stedsnr" v="121238" />
		<tag k="ssr:type" v="adressetilleggsnavn" />
	</node>
	<node id="-184386" lat="60.0326472245" lon="9.99362221879">
		<tag k="name" v="Øderud" />
		<tag k="ssr:date" v="2016-05-10" />
		<tag k="ssr:gruppe" v="veg" />
		<tag k="ssr:hovedgruppe" v="infrastruktur" />
		<tag k="ssr:stedsnr" v="121225" />
		<tag k="ssr:type" v="adressetilleggsnavn" />
	</node>
	<node id="-184384" lat="59.8830000023" lon="9.80648610585">
		<tag k="name" v="Hovengplassen" />
		<tag k="ssr:date" v="2016-05-10" />
		<tag k="ssr:gruppe" v="veg" />
		<tag k="ssr:hovedgruppe" v="infrastruktur" />
		<tag k="ssr:stedsnr" v="120210" />
		<tag k="ssr:type" v="adressetilleggsnavn" />
	</node>
	<node id="-184383" lat="59.9687527796" lon="9.9526944434">
		<tag k="name" v="Kongsrud" />
		<tag k="ssr:date" v="2016-05-10" />
		<tag k="ssr:gruppe" v="veg" />
		<tag k="ssr:hovedgruppe" v="infrastruktur" />
		<tag k="ssr:stedsnr" v="120204" />
		<tag k="ssr:type" v="adressetilleggsnavn" />
	</node>
	<node id="-184382" lat="59.9352944446" lon="9.90383055039">
		<tag k="name" v="Jar" />
		<tag k="ssr:date" v="2016-05-10" />
		<tag k="ssr:gruppe" v="veg" />
		<tag k="ssr:hovedgruppe" v="infrastruktur" />
		<tag k="ssr:stedsnr" v="120203" />
		<tag k="ssr:type" v="adressetilleggsnavn" />
	</node>
	<node id="-184381" lat="59.9846194414" lon="10.0268972289">
		<tag k="name" v="Engelstad" />
		<tag k="ssr:date" v="2016-05-10" />
		<tag k="ssr:gruppe" v="veg" />
		<tag k="ssr:hovedgruppe" v="infrastruktur" />
		<tag k="ssr:stedsnr" v="120196" />
		<tag k="ssr:type" v="adressetilleggsnavn" />
	</node>
	<node id="-183862" lat="59.9308277763" lon="9.99429721881">
		<tag k="name" v="Øren" />
		<tag k="ssr:date" v="2016-05-10" />
		<tag k="ssr:gruppe" v="veg" />
		<tag k="ssr:hovedgruppe" v="infrastruktur" />
		<tag k="ssr:stedsnr" v="303230" />
		<tag k="ssr:type" v="adressetilleggsnavn" />
	</node>
	<node id="-183861" lat="59.9648777764" lon="9.93943611277">
		<tag k="name" v="Bjølgerudmyra" />
		<tag k="ssr:date" v="2019-05-30" />
		<tag k="ssr:gruppe" v="veg" />
		<tag k="ssr:hovedgruppe" v="infrastruktur" />
		<tag k="ssr:stedsnr" v="303000" />
		<tag k="ssr:type" v="adressenavn" />
	</node>
	<node id="-183859" lat="59.9348555514" lon="9.99717499232">
		<tag k="name" v="Nordre Hovland" />
		<tag k="ssr:date" v="2016-05-10" />
		<tag k="ssr:gruppe" v="veg" />
		<tag k="ssr:hovedgruppe" v="infrastruktur" />
		<tag k="ssr:stedsnr" v="302240" />
		<tag k="ssr:type" v="adressetilleggsnavn" />
	</node>
	<node id="-183858" lat="59.8626500039" lon="9.88377221568">
		<tag k="name" v="Oksrud" />
		<tag k="ssr:date" v="2016-05-10" />
		<tag k="ssr:gruppe" v="veg" />
		<tag k="ssr:hovedgruppe" v="infrastruktur" />
		<tag k="ssr:stedsnr" v="302239" />
		<tag k="ssr:type" v="adressetilleggsnavn" />
	</node>
	<node id="-183857" lat="59.987683333" lon="10.0349333333">
		<tag k="name" v="Brekke" />
		<tag k="ssr:date" v="2016-05-10" />
		<tag k="ssr:gruppe" v="veg" />
		<tag k="ssr:hovedgruppe" v="infrastruktur" />
		<tag k="ssr:stedsnr" v="302232" />
		<tag k="ssr:type" v="adressetilleggsnavn" />
	</node>
	<node id="-183856" lat="60.0059583323" lon="9.88766389524">
		<tag k="name" v="Gunnhus" />
		<tag k="ssr:date" v="2016-05-10" />
		<tag k="ssr:gruppe" v="veg" />
		<tag k="ssr:hovedgruppe" v="infrastruktur" />
		<tag k="ssr:stedsnr" v="302227" />
		<tag k="ssr:type" v="adressetilleggsnavn" />
	</node>
	<node id="-183855" lat="59.9975833369" lon="9.96779444566">
		<tag k="name" v="Flannumshaugen" />
		<tag k="ssr:date" v="2016-05-10" />
		<tag k="ssr:gruppe" v="veg" />
		<tag k="ssr:hovedgruppe" v="infrastruktur" />
		<tag k="ssr:stedsnr" v="302225" />
		<tag k="ssr:type" v="adressetilleggsnavn" />
	</node>
	<node id="-184867" lat="59.863991667" lon="9.8736666725">
		<tag k="name" v="Kvisle" />
		<tag k="ssr:date" v="2016-05-10" />
		<tag k="ssr:gruppe" v="veg" />
		<tag k="ssr:hovedgruppe" v="infrastruktur" />
		<tag k="ssr:stedsnr" v="484194" />
		<tag k="ssr:type" v="adressetilleggsnavn" />
	</node>
	<node id="-184866" lat="60.0050472191" lon="9.9749694417">
		<tag k="name" v="Skredderud" />
		<tag k="ssr:date" v="2016-05-10" />
		<tag k="ssr:gruppe" v="veg" />
		<tag k="ssr:hovedgruppe" v="infrastruktur" />
		<tag k="ssr:stedsnr" v="484209" />
		<tag k="ssr:type" v="adressetilleggsnavn" />
	</node>
	<node id="-183814" lat="60.0022166639" lon="10.1514555621">
		<tag k="name" v="Vindfallåsveien" />
		<tag k="ssr:date" v="2019-05-30" />
		<tag k="ssr:gruppe" v="veg" />
		<tag k="ssr:hovedgruppe" v="infrastruktur" />
		<tag k="ssr:stedsnr" v="283763" />
		<tag k="ssr:type" v="adressenavn" />
	</node>
	<node id="-184322" lat="60.0247972212" lon="9.8282583372">
		<tag k="name" v="Øgardslia" />
		<tag k="ssr:date" v="2019-05-30" />
		<tag k="ssr:gruppe" v="veg" />
		<tag k="ssr:hovedgruppe" v="infrastruktur" />
		<tag k="ssr:stedsnr" v="100724" />
		<tag k="ssr:type" v="adressenavn" />
	</node>
</osm>
