<?xml version="1.0" encoding="UTF-8"?>
<osm generator="osmapis" version="0.6">
	<node changeset="4475853" id="702445592" lat="58.2397977" lon="6.6493884" timestamp="2010-04-20T10:20:28Z" uid="53194" user="Andy S" version="1" />
	<node changeset="58839628" id="808378396" lat="58.2658919" lon="6.7296745" timestamp="2018-05-10T06:46:15Z" uid="3842253" user="NKA_import" version="2">
		<tag k="name" v="Netland" />
		<tag k="place" v="farm" />
		<tag k="ssr:stedsnr" v="789300" />
		<tag k="ssr:type" v="gard" />
	</node>
	<node changeset="4475853" id="702445597" lat="58.2395355" lon="6.6484467" timestamp="2010-04-20T10:20:28Z" uid="53194" user="Andy S" version="1" />
	<node changeset="4475853" id="702445601" lat="58.2390929" lon="6.6495678" timestamp="2010-04-20T10:20:29Z" uid="53194" user="Andy S" version="1" />
	<node changeset="4475853" id="702445603" lat="58.2386714" lon="6.6496799" timestamp="2010-04-20T10:20:29Z" uid="53194" user="Andy S" version="1" />
	<node changeset="4475853" id="702445605" lat="58.2386259" lon="6.6518276" timestamp="2010-04-20T10:20:29Z" uid="53194" user="Andy S" version="1" />
	<node changeset="4475853" id="702445606" lat="58.2396257" lon="6.652079" timestamp="2010-04-20T10:20:29Z" uid="53194" user="Andy S" version="1" />
	<node changeset="4475853" id="702445608" lat="58.2393121" lon="6.6514896" timestamp="2010-04-20T10:20:29Z" uid="53194" user="Andy S" version="1" />
	<node changeset="4475853" id="702445610" lat="58.240091" lon="6.650817" timestamp="2010-04-20T10:20:29Z" uid="53194" user="Andy S" version="1" />
	<node changeset="4475853" id="702445612" lat="58.2399292" lon="6.6515729" timestamp="2010-04-20T10:20:29Z" uid="53194" user="Andy S" version="1" />
	<node changeset="4475853" id="702445613" lat="58.2398988" lon="6.6508618" timestamp="2010-04-20T10:20:29Z" uid="53194" user="Andy S" version="1" />
	<node changeset="4475853" id="702445615" lat="58.240172" lon="6.6497439" timestamp="2010-04-20T10:20:29Z" uid="53194" user="Andy S" version="1" />
	<node changeset="4475853" id="702445623" lat="58.2387726" lon="6.6524106" timestamp="2010-04-20T10:20:29Z" uid="53194" user="Andy S" version="1" />
	<node changeset="4475853" id="702445632" lat="58.2397528" lon="6.6536675" timestamp="2010-04-20T10:20:30Z" uid="53194" user="Andy S" version="1" />
	<node changeset="4475853" id="702445633" lat="58.2403301" lon="6.6541851" timestamp="2010-04-20T10:20:30Z" uid="53194" user="Andy S" version="1" />
	<node changeset="4475853" id="702445634" lat="58.2401116" lon="6.6544516" timestamp="2010-04-20T10:20:30Z" uid="53194" user="Andy S" version="1" />
	<node changeset="58839628" id="5608599621" lat="58.4105861" lon="6.6233139" timestamp="2018-05-10T06:45:57Z" uid="3842253" user="NKA_import" version="1">
		<tag k="name" v="Stuen" />
		<tag k="place" v="locality" />
		<tag k="ssr:stedsnr" v="99925" />
		<tag k="ssr:type" v="gammelBosettingsplass" />
	</node>
	<node changeset="58839628" id="527900742" lat="58.2780794" lon="6.3920402" timestamp="2018-05-10T06:46:10Z" uid="3842253" user="NKA_import" version="3">
		<tag k="alt_name" v="Roligheta" />
		<tag k="name" v="Roligheden" />
		<tag k="place" v="neighbourhood" />
		<tag k="ssr:stedsnr" v="667007" />
		<tag k="ssr:type" v="grend" />
	</node>
	<node changeset="58839628" id="5608599623" lat="58.2104333" lon="6.5802444" timestamp="2018-05-10T06:45:57Z" uid="3842253" user="NKA_import" version="1">
		<tag k="name" v="Eikenes" />
		<tag k="place" v="isolated_dwelling" />
		<tag k="ssr:stedsnr" v="101670" />
		<tag k="ssr:type" v="eneboligMindreBoligbygg" />
	</node>
	<node changeset="58839628" id="5608599624" lat="58.3082694" lon="6.6741944" timestamp="2018-05-10T06:45:57Z" uid="3842253" user="NKA_import" version="1">
		<tag k="name" v="Øvreeid" />
		<tag k="place" v="neighbourhood" />
		<tag k="ssr:stedsnr" v="645214" />
		<tag k="ssr:type" v="grend" />
	</node>
	<node changeset="58839628" id="5608599625" lat="58.3652639" lon="6.7154056" timestamp="2018-05-10T06:45:57Z" uid="3842253" user="NKA_import" version="1">
		<tag k="name" v="Jordet" />
		<tag k="place" v="farm" />
		<tag k="ssr:stedsnr" v="220621" />
		<tag k="ssr:type" v="bruk" />
	</node>
	<node changeset="58839628" id="5608599626" lat="58.2252294" lon="6.5462571" timestamp="2018-05-10T06:45:57Z" uid="3842253" user="NKA_import" version="1">
		<tag k="name" v="Ytre Ulland" />
		<tag k="place" v="farm" />
		<tag k="ssr:stedsnr" v="978224" />
		<tag k="ssr:type" v="gard" />
	</node>
	<node changeset="58839628" id="5608599627" lat="58.2272242" lon="6.5489806" timestamp="2018-05-10T06:45:58Z" uid="3842253" user="NKA_import" version="1">
		<tag k="name" v="Øvre Ulland" />
		<tag k="place" v="farm" />
		<tag k="ssr:stedsnr" v="978225" />
		<tag k="ssr:type" v="gard" />
	</node>
	<node changeset="58839628" id="5608599628" lat="58.2968975" lon="6.6445929" timestamp="2018-05-10T06:45:58Z" uid="3842253" user="NKA_import" version="1">
		<tag k="amenity" v="nursing_home" />
		<tag k="name" v="Tjørsvågheimen" />
		<tag k="ssr:stedsnr" v="832095" />
		<tag k="ssr:type" v="helseinstitusjon" />
	</node>
	<node changeset="58839628" id="5608599629" lat="58.2315116" lon="6.5355026" timestamp="2018-05-10T06:45:58Z" uid="3842253" user="NKA_import" version="1">
		<tag k="name" v="Vestre Fidje" />
		<tag k="place" v="farm" />
		<tag k="ssr:stedsnr" v="978231" />
		<tag k="ssr:type" v="gard" />
	</node>
	<node changeset="58839628" id="5608599630" lat="58.3342194" lon="6.8168555" timestamp="2018-05-10T06:45:58Z" uid="3842253" user="NKA_import" version="1">
		<tag k="name" v="Skarvollen" />
		<tag k="place" v="farm" />
		<tag k="ssr:stedsnr" v="467674" />
		<tag k="ssr:type" v="bruk" />
	</node>
	<node changeset="58839628" id="5608599631" lat="58.2291274" lon="6.5712243" timestamp="2018-05-10T06:45:58Z" uid="3842253" user="NKA_import" version="1">
		<tag k="name" v="Øvre Urstad" />
		<tag k="place" v="farm" />
		<tag k="ssr:stedsnr" v="978235" />
		<tag k="ssr:type" v="gard" />
	</node>
	<node changeset="58839628" id="5608599632" lat="58.2263167" lon="6.5514861" timestamp="2018-05-10T06:45:58Z" uid="3842253" user="NKA_import" version="1">
		<tag k="name" v="Myran" />
		<tag k="place" v="farm" />
		<tag k="ssr:stedsnr" v="892371" />
		<tag k="ssr:type" v="bruk" />
	</node>
	<node changeset="58839628" id="5608599633" lat="58.2192442" lon="6.6345929" timestamp="2018-05-10T06:45:58Z" uid="3842253" user="NKA_import" version="1">
		<tag k="name" v="Langelandsstranden" />
		<tag k="place" v="farm" />
		<tag k="ssr:stedsnr" v="978243" />
		<tag k="ssr:type" v="gard" />
	</node>
	<node changeset="58839628" id="5608599634" lat="58.2295001" lon="6.6241768" timestamp="2018-05-10T06:45:58Z" uid="3842253" user="NKA_import" version="1">
		<tag k="name" v="Støitland" />
		<tag k="place" v="farm" />
		<tag k="ssr:stedsnr" v="978244" />
		<tag k="ssr:type" v="gard" />
	</node>
	<node changeset="58839628" id="5608599635" lat="58.4091083" lon="6.8216889" timestamp="2018-05-10T06:45:58Z" uid="3842253" user="NKA_import" version="1">
		<tag k="name" v="Bjørkevollen" />
		<tag k="place" v="farm" />
		<tag k="ssr:stedsnr" v="832133" />
		<tag k="ssr:type" v="bruk" />
	</node>
	<node changeset="58839628" id="5608599636" lat="58.2410917" lon="6.6647805" timestamp="2018-05-10T06:45:58Z" uid="3842253" user="NKA_import" version="1">
		<tag k="name" v="Stampen" />
		<tag k="place" v="neighbourhood" />
		<tag k="ssr:stedsnr" v="646628" />
		<tag k="ssr:type" v="hyttefelt" />
	</node>
	<node changeset="58839628" id="5608599637" lat="58.245863" lon="6.5742263" timestamp="2018-05-10T06:45:58Z" uid="3842253" user="NKA_import" version="1">
		<tag k="name" v="Bekkedal" />
		<tag k="place" v="farm" />
		<tag k="ssr:stedsnr" v="978246" />
		<tag k="ssr:type" v="gard" />
	</node>
	<node changeset="58839628" id="5608599638" lat="58.2573898" lon="6.5582609" timestamp="2018-05-10T06:45:59Z" uid="3842253" user="NKA_import" version="1">
		<tag k="name" v="Indre Kleppe" />
		<tag k="place" v="farm" />
		<tag k="ssr:stedsnr" v="978255" />
		<tag k="ssr:type" v="gard" />
	</node>
	<node changeset="69640907" id="5608599639" lat="58.2748037" lon="6.5629346" timestamp="2019-04-27T14:24:15Z" uid="164049" user="kche" version="2">
		<tag k="name" v="Mønstermyr" />
		<tag k="place" v="farm" />
		<tag k="ssr:stedsnr" v="978256" />
		<tag k="ssr:type" v="gard" />
	</node>
	<node changeset="58839628" id="5608599640" lat="58.3083132" lon="6.5456813" timestamp="2018-05-10T06:45:59Z" uid="3842253" user="NKA_import" version="1">
		<tag k="name" v="Stemmen" />
		<tag k="place" v="farm" />
		<tag k="ssr:stedsnr" v="978259" />
		<tag k="ssr:type" v="gard" />
	</node>
	<node changeset="58839628" id="5608599641" lat="58.2615323" lon="6.5189308" timestamp="2018-05-10T06:45:59Z" uid="3842253" user="NKA_import" version="1">
		<tag k="name" v="Stø" />
		<tag k="place" v="isolated_dwelling" />
		<tag k="ssr:stedsnr" v="978262" />
		<tag k="ssr:type" v="gard" />
	</node>
	<node changeset="58839628" id="5608599642" lat="58.2837802" lon="6.4730691" timestamp="2018-05-10T06:45:59Z" uid="3842253" user="NKA_import" version="1">
		<tag k="name" v="Hommen" />
		<tag k="place" v="farm" />
		<tag k="ssr:stedsnr" v="978263" />
		<tag k="ssr:type" v="gard" />
	</node>
	<node changeset="58839628" id="5608599643" lat="58.2700602" lon="6.6414935" timestamp="2018-05-10T06:45:59Z" uid="3842253" user="NKA_import" version="1">
		<tag k="name" v="Nedre Fjeldså" />
		<tag k="place" v="farm" />
		<tag k="ssr:stedsnr" v="978264" />
		<tag k="ssr:type" v="gard" />
	</node>
	<node changeset="58839628" id="5608599644" lat="58.4493278" lon="6.8043667" timestamp="2018-05-10T06:45:59Z" uid="3842253" user="NKA_import" version="1">
		<tag k="name" v="Nesheim" />
		<tag k="place" v="farm" />
		<tag k="ssr:stedsnr" v="892441" />
		<tag k="ssr:type" v="bruk" />
	</node>
	<node changeset="58839628" id="5608599645" lat="58.3022093" lon="6.6582424" timestamp="2018-05-10T06:45:59Z" uid="3842253" user="NKA_import" version="1">
		<tag k="name" v="Nes" />
		<tag k="place" v="farm" />
		<tag k="ssr:stedsnr" v="978271" />
		<tag k="ssr:type" v="gard" />
	</node>
	<node changeset="58839628" id="5608599646" lat="58.4796889" lon="6.7125139" timestamp="2018-05-10T06:45:59Z" uid="3842253" user="NKA_import" version="1">
		<tag k="historic" v="shieling" />
		<tag k="name" v="Kleppestøl" />
		<tag k="place" v="farm" />
		<tag k="ssr:stedsnr" v="648014" />
		<tag k="ssr:type" v="bruk" />
	</node>
	<node changeset="58839628" id="5608599647" lat="58.2927942" lon="6.7452633" timestamp="2018-05-10T06:45:59Z" uid="3842253" user="NKA_import" version="1">
		<tag k="name" v="Rødlandslåtten" />
		<tag k="place" v="farm" />
		<tag k="ssr:stedsnr" v="978285" />
		<tag k="ssr:type" v="gard" />
	</node>
	<node changeset="58839628" id="5608599648" lat="58.460825" lon="6.6317361" timestamp="2018-05-10T06:45:59Z" uid="3842253" user="NKA_import" version="1">
		<tag k="historic" v="shieling" />
		<tag k="name" v="Sandsmarkstølen" />
		<tag k="place" v="locality" />
		<tag k="ssr:stedsnr" v="346769" />
		<tag k="ssr:type" v="seterStøl" />
	</node>
	<node changeset="58839628" id="5608599649" lat="58.310275" lon="6.6706995" timestamp="2018-05-10T06:46:00Z" uid="3842253" user="NKA_import" version="1">
		<tag k="name" v="Sunde" />
		<tag k="place" v="farm" />
		<tag k="ssr:stedsnr" v="978310" />
		<tag k="ssr:type" v="gard" />
	</node>
	<node changeset="58839628" id="5608599650" lat="58.5013264" lon="6.6633284" timestamp="2018-05-10T06:46:00Z" uid="3842253" user="NKA_import" version="1">
		<tag k="name" v="Nygård" />
		<tag k="place" v="farm" />
		<tag k="ssr:stedsnr" v="978316" />
		<tag k="ssr:type" v="gard" />
	</node>
	<node changeset="58839628" id="5608599651" lat="58.4111911" lon="6.6249841" timestamp="2018-05-10T06:46:00Z" uid="3842253" user="NKA_import" version="1">
		<tag k="name" v="Sirnes" />
		<tag k="place" v="farm" />
		<tag k="ssr:stedsnr" v="978408" />
		<tag k="ssr:type" v="gard" />
	</node>
	<node changeset="58839628" id="564631652" lat="58.2861058" lon="6.6491885" timestamp="2018-05-10T06:46:11Z" uid="3842253" user="NKA_import" version="4">
		<tag k="name" v="Sveiga" />
		<tag k="place" v="suburb" />
		<tag k="ssr:stedsnr" v="271" />
		<tag k="ssr:type" v="bygdelagBygd" />
	</node>
	<node changeset="58839628" id="5608599653" lat="58.4074032" lon="6.632374" timestamp="2018-05-10T06:46:00Z" uid="3842253" user="NKA_import" version="1">
		<tag k="name" v="Sirnes" />
		<tag k="place" v="farm" />
		<tag k="ssr:stedsnr" v="978410" />
		<tag k="ssr:type" v="gard" />
	</node>
	<node changeset="58839628" id="5608599654" lat="58.4260395" lon="6.6657777" timestamp="2018-05-10T06:46:00Z" uid="3842253" user="NKA_import" version="1">
		<tag k="name" v="Ågård" />
		<tag k="place" v="farm" />
		<tag k="ssr:stedsnr" v="978411" />
		<tag k="ssr:type" v="gard" />
	</node>
	<node changeset="58839628" id="5608599655" lat="58.415979" lon="6.6666659" timestamp="2018-05-10T06:46:00Z" uid="3842253" user="NKA_import" version="1">
		<tag k="name" v="Birkeland" />
		<tag k="place" v="farm" />
		<tag k="ssr:stedsnr" v="978412" />
		<tag k="ssr:type" v="gard" />
	</node>
	<node changeset="58839628" id="5608599656" lat="58.4355605" lon="6.7004139" timestamp="2018-05-10T06:46:00Z" uid="3842253" user="NKA_import" version="1">
		<tag k="name" v="Østre Ersdal" />
		<tag k="place" v="farm" />
		<tag k="ssr:stedsnr" v="978413" />
		<tag k="ssr:type" v="gard" />
	</node>
	<node changeset="58839628" id="5608599657" lat="58.4323893" lon="6.7377712" timestamp="2018-05-10T06:46:00Z" uid="3842253" user="NKA_import" version="1">
		<tag k="name" v="Vestre Fossdal" />
		<tag k="place" v="farm" />
		<tag k="ssr:stedsnr" v="978417" />
		<tag k="ssr:type" v="gard" />
	</node>
	<node changeset="58839628" id="585347178" lat="58.308607" lon="6.6439705" timestamp="2018-05-10T06:46:13Z" uid="3842253" user="NKA_import" version="2">
		<tag k="name" v="Helle" />
		<tag k="place" v="hamlet" />
		<tag k="ssr:stedsnr" v="243482" />
		<tag k="ssr:type" v="gard" />
	</node>
	<node changeset="58839628" id="5608599659" lat="58.4360639" lon="6.8147167" timestamp="2018-05-10T06:46:00Z" uid="3842253" user="NKA_import" version="1">
		<tag k="name" v="Krogan" />
		<tag k="place" v="farm" />
		<tag k="ssr:stedsnr" v="224426" />
		<tag k="ssr:type" v="bruk" />
	</node>
	<node changeset="58839628" id="5608599660" lat="58.3379122" lon="6.8206617" timestamp="2018-05-10T06:46:00Z" uid="3842253" user="NKA_import" version="1">
		<tag k="name" v="Seland" />
		<tag k="place" v="hamlet" />
		<tag k="ssr:stedsnr" v="978423" />
		<tag k="ssr:type" v="gard" />
	</node>
	<node changeset="58839628" id="5608599661" lat="58.3997579" lon="6.8820594" timestamp="2018-05-10T06:46:01Z" uid="3842253" user="NKA_import" version="1">
		<tag k="name" v="Ronås" />
		<tag k="place" v="farm" />
		<tag k="ssr:stedsnr" v="978425" />
		<tag k="ssr:type" v="gard" />
	</node>
	<node changeset="58839628" id="5608599662" lat="58.218009" lon="6.538807" timestamp="2018-05-10T06:46:01Z" uid="3842253" user="NKA_import" version="1">
		<tag k="name" v="Kjellingsnes" />
		<tag k="place" v="farm" />
		<tag k="ssr:stedsnr" v="978222" />
		<tag k="ssr:type" v="gard" />
	</node>
	<node changeset="58839628" id="5608599663" lat="58.3941131" lon="6.7624884" timestamp="2018-05-10T06:46:01Z" uid="3842253" user="NKA_import" version="1">
		<tag k="name" v="Nordre Hammer" />
		<tag k="place" v="farm" />
		<tag k="ssr:stedsnr" v="978416" />
		<tag k="ssr:type" v="gard" />
	</node>
	<node changeset="58839628" id="5608599664" lat="58.4458333" lon="6.6584028" timestamp="2018-05-10T06:46:01Z" uid="3842253" user="NKA_import" version="1">
		<tag k="name" v="Øigarden" />
		<tag k="place" v="locality" />
		<tag k="ssr:stedsnr" v="224981" />
		<tag k="ssr:type" v="gammelBosettingsplass" />
	</node>
	<node changeset="58839628" id="5608599665" lat="58.4888111" lon="6.6901333" timestamp="2018-05-10T06:46:01Z" uid="3842253" user="NKA_import" version="1">
		<tag k="name" v="Stangborli" />
		<tag k="place" v="farm" />
		<tag k="ssr:stedsnr" v="728032" />
		<tag k="ssr:type" v="gard" />
	</node>
	<node changeset="69428679" id="5608599666" lat="58.2722733" lon="6.5101285" timestamp="2019-04-21T16:22:57Z" uid="164049" user="kche" version="2">
		<tag k="name" v="Polland" />
		<tag k="place" v="farm" />
		<tag k="ssr:stedsnr" v="648548" />
		<tag k="ssr:type" v="gard" />
	</node>
	<node changeset="58839628" id="5608599667" lat="58.428925" lon="6.662575" timestamp="2018-05-10T06:46:01Z" uid="3842253" user="NKA_import" version="1">
		<tag k="name" v="Osen" />
		<tag k="place" v="farm" />
		<tag k="ssr:stedsnr" v="728076" />
		<tag k="ssr:type" v="bruk" />
	</node>
	<node changeset="58839628" id="5608599668" lat="58.2322037" lon="6.6720809" timestamp="2018-05-10T06:46:01Z" uid="3842253" user="NKA_import" version="1">
		<tag k="name" v="Andabeløy" />
		<tag k="place" v="village" />
		<tag k="ssr:stedsnr" v="728121" />
		<tag k="ssr:type" v="tettbebyggelse" />
	</node>
	<node changeset="58839628" id="5608599669" lat="58.2564444" lon="6.5845639" timestamp="2018-05-10T06:46:01Z" uid="3842253" user="NKA_import" version="1">
		<tag k="name" v="Stykket" />
		<tag k="place" v="locality" />
		<tag k="ssr:stedsnr" v="832420" />
		<tag k="ssr:type" v="gammelBosettingsplass" />
	</node>
	<node changeset="58839628" id="5608599670" lat="58.4218861" lon="6.6608528" timestamp="2018-05-10T06:46:01Z" uid="3842253" user="NKA_import" version="1">
		<tag k="name" v="Prestmoen" />
		<tag k="place" v="neighbourhood" />
		<tag k="ssr:stedsnr" v="281935" />
		<tag k="ssr:type" v="tettbebyggelse" />
	</node>
	<node changeset="58839628" id="495515767" lat="58.3604581" lon="6.6345078" timestamp="2018-05-10T06:46:10Z" uid="3842253" user="NKA_import" version="3">
		<tag k="name" v="Eie" />
		<tag k="place" v="hamlet" />
		<tag k="ssr:stedsnr" v="910426" />
		<tag k="ssr:type" v="gard" />
	</node>
	<node changeset="58839628" id="5608599672" lat="58.5108861" lon="6.6796667" timestamp="2018-05-10T06:46:02Z" uid="3842253" user="NKA_import" version="1">
		<tag k="name" v="Espelund" />
		<tag k="place" v="farm" />
		<tag k="ssr:stedsnr" v="728309" />
		<tag k="ssr:type" v="gard" />
	</node>
	<node changeset="58839628" id="5608599673" lat="58.4367806" lon="6.8672889" timestamp="2018-05-10T06:46:02Z" uid="3842253" user="NKA_import" version="1">
		<tag k="historic" v="shieling" />
		<tag k="name" v="Klaustølen" />
		<tag k="place" v="locality" />
		<tag k="ssr:stedsnr" v="224624" />
		<tag k="ssr:type" v="seterStøl" />
	</node>
	<node changeset="58839628" id="5608599674" lat="58.3003583" lon="6.6487417" timestamp="2018-05-10T06:46:02Z" uid="3842253" user="NKA_import" version="1">
		<tag k="name" v="Nesmarka" />
		<tag k="place" v="neighbourhood" />
		<tag k="ssr:stedsnr" v="283610" />
		<tag k="ssr:type" v="boligfelt" />
	</node>
	<node changeset="58839628" id="5608599675" lat="58.4174731" lon="6.8373772" timestamp="2018-05-10T06:46:02Z" uid="3842253" user="NKA_import" version="1">
		<tag k="name" v="Lilunden" />
		<tag k="place" v="locality" />
		<tag k="ssr:stedsnr" v="104145" />
		<tag k="ssr:type" v="skole" />
	</node>
	<node changeset="58839628" id="5608599676" lat="58.3805083" lon="6.8476944" timestamp="2018-05-10T06:46:02Z" uid="3842253" user="NKA_import" version="1">
		<tag k="alt_name" v="Fedjestad;Fidjesdal" />
		<tag k="name" v="Fedjesdal" />
		<tag k="place" v="farm" />
		<tag k="ssr:stedsnr" v="728389" />
		<tag k="ssr:type" v="gard" />
	</node>
	<node changeset="58839628" id="5608599677" lat="58.4649028" lon="6.7249139" timestamp="2018-05-10T06:46:02Z" uid="3842253" user="NKA_import" version="1">
		<tag k="alt_name" v="Østre Eitlandskleiv" />
		<tag k="name" v="Kleiva" />
		<tag k="place" v="farm" />
		<tag k="ssr:stedsnr" v="364075" />
		<tag k="ssr:type" v="gard" />
	</node>
	<node changeset="58839628" id="5608599678" lat="58.3715417" lon="6.6282167" timestamp="2018-05-10T06:46:02Z" uid="3842253" user="NKA_import" version="1">
		<tag k="alt_name" v="Regevik" />
		<tag k="name" v="Rekevik" />
		<tag k="place" v="farm" />
		<tag k="ssr:stedsnr" v="728391" />
		<tag k="ssr:type" v="gard" />
	</node>
	<node changeset="58839628" id="5608599679" lat="58.2222583" lon="6.5441944" timestamp="2018-05-10T06:46:02Z" uid="3842253" user="NKA_import" version="1">
		<tag k="name" v="Råga" />
		<tag k="place" v="farm" />
		<tag k="ssr:stedsnr" v="364088" />
		<tag k="ssr:type" v="bruk" />
	</node>
	<node changeset="58839628" id="5608599680" lat="58.2263028" lon="6.5730445" timestamp="2018-05-10T06:46:02Z" uid="3842253" user="NKA_import" version="1">
		<tag k="alt_name" v="Nedre Urstad" />
		<tag k="name" v="Urstad" />
		<tag k="place" v="farm" />
		<tag k="ssr:stedsnr" v="364090" />
		<tag k="ssr:type" v="gard" />
	</node>
	<node changeset="58839628" id="5608599681" lat="58.3279278" lon="6.7018528" timestamp="2018-05-10T06:46:02Z" uid="3842253" user="NKA_import" version="1">
		<tag k="alt_name" v="Stordrange" />
		<tag k="loc_name" v="Drange" />
		<tag k="name" v="Storedranga" />
		<tag k="place" v="hamlet" />
		<tag k="ssr:stedsnr" v="728455" />
		<tag k="ssr:type" v="gard" />
	</node>
	<node changeset="58839628" id="5608599682" lat="58.21665" lon="6.5854917" timestamp="2018-05-10T06:46:03Z" uid="3842253" user="NKA_import" version="1">
		<tag k="name" v="Slådel" />
		<tag k="place" v="isolated_dwelling" />
		<tag k="ssr:stedsnr" v="482660" />
		<tag k="ssr:type" v="eneboligMindreBoligbygg" />
	</node>
	<node changeset="58839628" id="5608599683" lat="58.21765" lon="6.5876" timestamp="2018-05-10T06:46:03Z" uid="3842253" user="NKA_import" version="1">
		<tag k="alt_name" v="Veisdal, ytre;Ytre Veisdal" />
		<tag k="name" v="Nedre Veisdal" />
		<tag k="place" v="farm" />
		<tag k="ssr:stedsnr" v="364100" />
		<tag k="ssr:type" v="gard" />
	</node>
	<node changeset="58839628" id="5608599684" lat="58.2358712" lon="6.5940851" timestamp="2018-05-10T06:46:03Z" uid="3842253" user="NKA_import" version="1">
		<tag k="alt_name" v="Bukstad" />
		<tag k="name" v="Bukkstad" />
		<tag k="place" v="farm" />
		<tag k="ssr:stedsnr" v="728694" />
		<tag k="ssr:type" v="gard" />
	</node>
	<node changeset="58839628" id="5608599685" lat="58.4268556" lon="6.804" timestamp="2018-05-10T06:46:03Z" uid="3842253" user="NKA_import" version="1">
		<tag k="name" v="Åtland" />
		<tag k="place" v="farm" />
		<tag k="ssr:stedsnr" v="364107" />
		<tag k="ssr:type" v="gard" />
	</node>
	<node changeset="58839628" id="5608599686" lat="58.2921472" lon="6.74675" timestamp="2018-05-10T06:46:03Z" uid="3842253" user="NKA_import" version="1">
		<tag k="name" v="Slåta" />
		<tag k="place" v="farm" />
		<tag k="ssr:stedsnr" v="832629" />
		<tag k="ssr:type" v="bruk" />
	</node>
	<node changeset="58839628" id="5608599687" lat="58.4386346" lon="6.6889521" timestamp="2018-05-10T06:46:03Z" uid="3842253" user="NKA_import" version="1">
		<tag k="alt_name" v="Vestre Ersdal" />
		<tag k="name" v="Ersdal" />
		<tag k="place" v="hamlet" />
		<tag k="ssr:stedsnr" v="364121" />
		<tag k="ssr:type" v="gard" />
	</node>
	<node changeset="58839628" id="5608599688" lat="58.2678738" lon="6.4338658" timestamp="2018-05-10T06:46:03Z" uid="3842253" user="NKA_import" version="1">
		<tag k="building" v="cabin" />
		<tag k="name" v="Tele" />
		<tag k="place" v="isolated_dwelling" />
		<tag k="ssr:stedsnr" v="485047" />
		<tag k="ssr:type" v="fritidsbolig" />
	</node>
	<node changeset="58839628" id="5608599689" lat="58.4411556" lon="6.8089667" timestamp="2018-05-10T06:46:03Z" uid="3842253" user="NKA_import" version="1">
		<tag k="name" v="Solheim" />
		<tag k="place" v="farm" />
		<tag k="ssr:stedsnr" v="364127" />
		<tag k="ssr:type" v="bruk" />
	</node>
	<node changeset="58839628" id="5608599690" lat="58.2447361" lon="6.6947722" timestamp="2018-05-10T06:46:03Z" uid="3842253" user="NKA_import" version="1">
		<tag k="name" v="Litle Helle" />
		<tag k="place" v="farm" />
		<tag k="ssr:stedsnr" v="285061" />
		<tag k="ssr:type" v="bruk" />
	</node>
	<node changeset="58839628" id="5608599691" lat="58.2322167" lon="6.543475" timestamp="2018-05-10T06:46:03Z" uid="3842253" user="NKA_import" version="1">
		<tag k="alt_name" v="Kråkedal" />
		<tag k="name" v="Krågedal" />
		<tag k="place" v="farm" />
		<tag k="ssr:stedsnr" v="485071" />
		<tag k="ssr:type" v="gard" />
	</node>
	<node changeset="58839628" id="5608599692" lat="58.4664711" lon="6.6655489" timestamp="2018-05-10T06:46:04Z" uid="3842253" user="NKA_import" version="1">
		<tag k="alt_name" v="Sandsmork, in;Indre Sandsmork" />
		<tag k="name" v="Indre Sandsmark" />
		<tag k="place" v="farm" />
		<tag k="ssr:stedsnr" v="485072" />
		<tag k="ssr:type" v="gard" />
	</node>
	<node changeset="58839628" id="5608599693" lat="58.3260516" lon="6.5726602" timestamp="2018-05-10T06:46:04Z" uid="3842253" user="NKA_import" version="1">
		<tag k="alt_name" v="Østre Fjeldså" />
		<tag k="name" v="Øvstefjellså" />
		<tag k="place" v="hamlet" />
		<tag k="ssr:stedsnr" v="485184" />
		<tag k="ssr:type" v="gard" />
	</node>
	<node changeset="58839628" id="5608599694" lat="58.420558" lon="6.8573208" timestamp="2018-05-10T06:46:04Z" uid="3842253" user="NKA_import" version="1">
		<tag k="building" v="cabin" />
		<tag k="historic" v="shieling" />
		<tag k="name" v="Ytre Stølan" />
		<tag k="place" v="isolated_dwelling" />
		<tag k="ssr:stedsnr" v="364391" />
		<tag k="ssr:type" v="fritidsbolig" />
	</node>
	<node changeset="58839628" id="5608599695" lat="58.37565" lon="6.6408889" timestamp="2018-05-10T06:46:04Z" uid="3842253" user="NKA_import" version="1">
		<tag k="historic" v="shieling" />
		<tag k="name" v="Fodnestøl" />
		<tag k="place" v="farm" />
		<tag k="ssr:stedsnr" v="364420" />
		<tag k="ssr:type" v="gard" />
	</node>
	<node changeset="58839628" id="5608599696" lat="58.3623611" lon="6.6536417" timestamp="2018-05-10T06:46:04Z" uid="3842253" user="NKA_import" version="1">
		<tag k="alt_name" v="Lauås" />
		<tag k="name" v="Lauvås" />
		<tag k="place" v="farm" />
		<tag k="ssr:stedsnr" v="364432" />
		<tag k="ssr:type" v="gard" />
	</node>
	<node changeset="58839628" id="5608599697" lat="58.3898167" lon="6.6833889" timestamp="2018-05-10T06:46:04Z" uid="3842253" user="NKA_import" version="1">
		<tag k="alt_name" v="Hamre" />
		<tag k="name" v="Hamar" />
		<tag k="place" v="farm" />
		<tag k="ssr:stedsnr" v="103757" />
		<tag k="ssr:type" v="gard" />
	</node>
	<node changeset="58839628" id="5608599698" lat="58.3488694" lon="6.8137194" timestamp="2018-05-10T06:46:04Z" uid="3842253" user="NKA_import" version="1">
		<tag k="alt_name" v="Lauvland" />
		<tag k="name" v="Løvland" />
		<tag k="place" v="farm" />
		<tag k="ssr:stedsnr" v="485382" />
		<tag k="ssr:type" v="gard" />
	</node>
	<node changeset="58839628" id="5608599699" lat="58.4032402" lon="6.6249506" timestamp="2018-05-10T06:46:04Z" uid="3842253" user="NKA_import" version="1">
		<tag k="name" v="Skjeggestad" />
		<tag k="place" v="hamlet" />
		<tag k="ssr:stedsnr" v="892858" />
		<tag k="ssr:type" v="grend" />
	</node>
	<node changeset="58839628" id="5608599700" lat="58.5159472" lon="6.6347028" timestamp="2018-05-10T06:46:04Z" uid="3842253" user="NKA_import" version="1">
		<tag k="historic" v="shieling" />
		<tag k="name" v="Lindelistølen" />
		<tag k="place" v="locality" />
		<tag k="ssr:stedsnr" v="103769" />
		<tag k="ssr:type" v="seterStøl" />
	</node>
	<node changeset="58839628" id="5608599701" lat="58.5457667" lon="6.6523833" timestamp="2018-05-10T06:46:05Z" uid="3842253" user="NKA_import" version="1">
		<tag k="alt_name" v="Indre Jendal" />
		<tag k="name" v="Jendal" />
		<tag k="place" v="farm" />
		<tag k="ssr:stedsnr" v="364760" />
		<tag k="ssr:type" v="gard" />
	</node>
	<node changeset="58839628" id="5608599702" lat="58.3215247" lon="6.6896983" timestamp="2018-05-10T06:46:05Z" uid="3842253" user="NKA_import" version="1">
		<tag k="alt_name" v="Glendrange" />
		<tag k="name" v="Glendranga" />
		<tag k="place" v="hamlet" />
		<tag k="ssr:stedsnr" v="485411" />
		<tag k="ssr:type" v="gard" />
	</node>
	<node changeset="58839628" id="5608599703" lat="58.4856222" lon="6.6350111" timestamp="2018-05-10T06:46:05Z" uid="3842253" user="NKA_import" version="1">
		<tag k="historic" v="shieling" />
		<tag k="name" v="Briklandstølen" />
		<tag k="place" v="locality" />
		<tag k="ssr:stedsnr" v="832894" />
		<tag k="ssr:type" v="seterStøl" />
	</node>
	<node changeset="58839628" id="5608599704" lat="58.4750194" lon="6.6705556" timestamp="2018-05-10T06:46:05Z" uid="3842253" user="NKA_import" version="1">
		<tag k="name" v="Blåsenborg" />
		<tag k="place" v="farm" />
		<tag k="ssr:stedsnr" v="103898" />
		<tag k="ssr:type" v="bruk" />
	</node>
	<node changeset="58839628" id="5608599705" lat="58.4206793" lon="6.8163641" timestamp="2018-05-10T06:46:05Z" uid="3842253" user="NKA_import" version="1">
		<tag k="building" v="cabin" />
		<tag k="name" v="Geitebu" />
		<tag k="place" v="isolated_dwelling" />
		<tag k="ssr:stedsnr" v="225298" />
		<tag k="ssr:type" v="fritidsbolig" />
	</node>
	<node changeset="58839628" id="5608599706" lat="58.5023806" lon="6.8000833" timestamp="2018-05-10T06:46:05Z" uid="3842253" user="NKA_import" version="1">
		<tag k="historic" v="shieling" />
		<tag k="name" v="Seljordstølen" />
		<tag k="place" v="locality" />
		<tag k="ssr:stedsnr" v="402590" />
		<tag k="ssr:type" v="seterStøl" />
	</node>
	<node changeset="58839628" id="5608599707" lat="58.2823833" lon="6.673475" timestamp="2018-05-10T06:46:05Z" uid="3842253" user="NKA_import" version="1">
		<tag k="name" v="Fjellstua" />
		<tag k="place" v="isolated_dwelling" />
		<tag k="ssr:stedsnr" v="846142" />
		<tag k="ssr:type" v="eneboligMindreBoligbygg" />
	</node>
	<node changeset="58839628" id="5608599708" lat="58.2312083" lon="6.5635611" timestamp="2018-05-10T06:46:05Z" uid="3842253" user="NKA_import" version="1">
		<tag k="name" v="Marstad" />
		<tag k="place" v="hamlet" />
		<tag k="ssr:stedsnr" v="82" />
		<tag k="ssr:type" v="gard" />
	</node>
	<node changeset="58839628" id="5608599709" lat="58.2340365" lon="6.5351665" timestamp="2018-05-10T06:46:05Z" uid="3842253" user="NKA_import" version="1">
		<tag k="name" v="Festevoll" />
		<tag k="place" v="neighbourhood" />
		<tag k="ssr:stedsnr" v="87" />
		<tag k="ssr:type" v="boligfelt" />
	</node>
	<node changeset="58839628" id="5608599710" lat="58.30615" lon="6.5337917" timestamp="2018-05-10T06:46:05Z" uid="3842253" user="NKA_import" version="1">
		<tag k="name" v="Allestad" />
		<tag k="place" v="farm" />
		<tag k="ssr:stedsnr" v="849029" />
		<tag k="ssr:type" v="gard" />
	</node>
	<node changeset="58839628" id="5608599711" lat="58.4568472" lon="6.7830361" timestamp="2018-05-10T06:46:06Z" uid="3842253" user="NKA_import" version="1">
		<tag k="name" v="Vestheim" />
		<tag k="place" v="farm" />
		<tag k="ssr:stedsnr" v="129" />
		<tag k="ssr:type" v="bruk" />
	</node>
	<node changeset="88496014" id="5608599712" lat="58.2955874" lon="6.7740699" timestamp="2020-07-25T13:39:12Z" uid="164049" user="kche" version="2">
		<tag k="name" v="Lian" />
		<tag k="place" v="farm" />
		<tag k="ssr:stedsnr" v="274" />
		<tag k="ssr:type" v="gard" />
	</node>
	<node changeset="58839628" id="5608599713" lat="58.2392694" lon="6.5610722" timestamp="2018-05-10T06:46:06Z" uid="3842253" user="NKA_import" version="1">
		<tag k="name" v="Hidrasund" />
		<tag k="place" v="hamlet" />
		<tag k="ssr:stedsnr" v="850072" />
		<tag k="ssr:type" v="grend" />
	</node>
	<node changeset="58839628" id="5608599714" lat="58.471775" lon="6.8485" timestamp="2018-05-10T06:46:06Z" uid="3842253" user="NKA_import" version="1">
		<tag k="alt_name" v="Urdal" />
		<tag k="name" v="Urddal" />
		<tag k="place" v="farm" />
		<tag k="ssr:stedsnr" v="850074" />
		<tag k="ssr:type" v="gard" />
	</node>
	<node changeset="58839628" id="5608599715" lat="58.3790139" lon="6.7542917" timestamp="2018-05-10T06:46:06Z" uid="3842253" user="NKA_import" version="1">
		<tag k="historic" v="shieling" />
		<tag k="name" v="Hellestøl" />
		<tag k="place" v="farm" />
		<tag k="ssr:stedsnr" v="422" />
		<tag k="ssr:type" v="gard" />
	</node>
	<node changeset="58839628" id="5608599716" lat="58.2394655" lon="6.5562346" timestamp="2018-05-10T06:46:06Z" uid="3842253" user="NKA_import" version="1">
		<tag k="alt_name" v="Vimmervåg" />
		<tag k="name" v="Vimrevåg" />
		<tag k="place" v="hamlet" />
		<tag k="ssr:stedsnr" v="850080" />
		<tag k="ssr:type" v="gard" />
	</node>
	<node changeset="58839628" id="5608599717" lat="58.3161167" lon="6.7730167" timestamp="2018-05-10T06:46:06Z" uid="3842253" user="NKA_import" version="1">
		<tag k="name" v="Osen" />
		<tag k="place" v="farm" />
		<tag k="ssr:stedsnr" v="482" />
		<tag k="ssr:type" v="gard" />
	</node>
	<node changeset="58839628" id="5608599718" lat="58.2297611" lon="6.54325" timestamp="2018-05-10T06:46:06Z" uid="3842253" user="NKA_import" version="1">
		<tag k="name" v="Auland" />
		<tag k="place" v="farm" />
		<tag k="ssr:stedsnr" v="850079" />
		<tag k="ssr:type" v="gard" />
	</node>
	<node changeset="58839628" id="5608599719" lat="58.4783583" lon="6.8567583" timestamp="2018-05-10T06:46:06Z" uid="3842253" user="NKA_import" version="1">
		<tag k="alt_name" v="Østre Hamar" />
		<tag k="name" v="Hamar" />
		<tag k="place" v="farm" />
		<tag k="ssr:stedsnr" v="850082" />
		<tag k="ssr:type" v="gard" />
	</node>
	<node changeset="58839628" id="5608599720" lat="58.5602278" lon="6.693" timestamp="2018-05-10T06:46:06Z" uid="3842253" user="NKA_import" version="1">
		<tag k="name" v="Hommannsdal" />
		<tag k="place" v="farm" />
		<tag k="ssr:stedsnr" v="745" />
		<tag k="ssr:type" v="gard" />
	</node>
	<node changeset="58839628" id="583358670" lat="58.2724971" lon="6.6779284" timestamp="2018-05-10T06:46:12Z" uid="3842253" user="NKA_import" version="3">
		<tag k="name" v="Djupvik" />
		<tag k="place" v="hamlet" />
		<tag k="ssr:stedsnr" v="710168" />
		<tag k="ssr:type" v="bygdelagBygd" />
	</node>
	<node changeset="58839628" id="524589288" lat="58.3549466" lon="6.7863535" timestamp="2018-05-10T06:46:10Z" uid="3842253" user="NKA_import" version="2">
		<tag k="alt_name" v="Øysæd" />
		<tag k="name" v="Øysæ" />
		<tag k="place" v="hamlet" />
		<tag k="ssr:stedsnr" v="728412" />
		<tag k="ssr:type" v="gard" />
	</node>
	<node changeset="58839628" id="5608599821" lat="58.3679694" lon="6.6854083" timestamp="2018-05-10T06:46:06Z" uid="3842253" user="NKA_import" version="1">
		<tag k="name" v="Lyngnes" />
		<tag k="place" v="farm" />
		<tag k="ssr:stedsnr" v="524881" />
		<tag k="ssr:type" v="bruk" />
	</node>
	<node changeset="58839628" id="5608599822" lat="58.5375278" lon="6.6542139" timestamp="2018-05-10T06:46:07Z" uid="3842253" user="NKA_import" version="1">
		<tag k="historic" v="shieling" />
		<tag k="name" v="Ramslistølen" />
		<tag k="place" v="locality" />
		<tag k="ssr:stedsnr" v="403230" />
		<tag k="ssr:type" v="seterStøl" />
	</node>
	<node changeset="58839628" id="5608599823" lat="58.2794502" lon="6.3953506" timestamp="2018-05-10T06:46:07Z" uid="3842253" user="NKA_import" version="1">
		<tag k="name" v="Stornes" />
		<tag k="place" v="neighbourhood" />
		<tag k="ssr:stedsnr" v="403288" />
		<tag k="ssr:type" v="tettbebyggelse" />
	</node>
	<node changeset="58839628" id="5608599824" lat="58.4532306" lon="6.8001972" timestamp="2018-05-10T06:46:07Z" uid="3842253" user="NKA_import" version="1">
		<tag k="name" v="Solbakken" />
		<tag k="place" v="farm" />
		<tag k="ssr:stedsnr" v="770375" />
		<tag k="ssr:type" v="bruk" />
	</node>
	<node changeset="58839628" id="5608599825" lat="58.3779111" lon="6.7802472" timestamp="2018-05-10T06:46:07Z" uid="3842253" user="NKA_import" version="1">
		<tag k="name" v="Eikås" />
		<tag k="place" v="hamlet" />
		<tag k="ssr:stedsnr" v="241143" />
		<tag k="ssr:type" v="navnegard" />
	</node>
	<node changeset="58839628" id="5608599826" lat="58.5056806" lon="6.6718944" timestamp="2018-05-10T06:46:07Z" uid="3842253" user="NKA_import" version="1">
		<tag k="name" v="Lindeli" />
		<tag k="place" v="farm" />
		<tag k="ssr:stedsnr" v="850387" />
		<tag k="ssr:type" v="gard" />
	</node>
	<node changeset="58839628" id="5608599827" lat="58.2920889" lon="6.5165028" timestamp="2018-05-10T06:46:07Z" uid="3842253" user="NKA_import" version="1">
		<tag k="alt_name" v="Botne på heien" />
		<tag k="name" v="Botna" />
		<tag k="place" v="isolated_dwelling" />
		<tag k="ssr:stedsnr" v="770517" />
		<tag k="ssr:type" v="gard" />
	</node>
	<node changeset="58839628" id="5608599828" lat="58.2503972" lon="6.6601278" timestamp="2018-05-10T06:46:07Z" uid="3842253" user="NKA_import" version="1">
		<tag k="name" v="Bolshus" />
		<tag k="place" v="farm" />
		<tag k="ssr:stedsnr" v="104745" />
		<tag k="ssr:type" v="bruk" />
	</node>
	<node changeset="58839628" id="5608599829" lat="58.441325" lon="6.8584556" timestamp="2018-05-10T06:46:07Z" uid="3842253" user="NKA_import" version="1">
		<tag k="historic" v="shieling" />
		<tag k="name" v="Hommestølen" />
		<tag k="place" v="locality" />
		<tag k="ssr:stedsnr" v="285650" />
		<tag k="ssr:type" v="seterStøl" />
	</node>
	<node changeset="58839628" id="5608599830" lat="58.3004556" lon="6.6439583" timestamp="2018-05-10T06:46:07Z" uid="3842253" user="NKA_import" version="1">
		<tag k="name" v="Søyland" />
		<tag k="place" v="farm" />
		<tag k="ssr:stedsnr" v="649747" />
		<tag k="ssr:type" v="gard" />
	</node>
	<node changeset="58839628" id="5608599831" lat="58.3588778" lon="6.6321833" timestamp="2018-05-10T06:46:07Z" uid="3842253" user="NKA_import" version="1">
		<tag k="name" v="Nedre Eie" />
		<tag k="place" v="farm" />
		<tag k="ssr:stedsnr" v="104835" />
		<tag k="ssr:type" v="grend" />
	</node>
	<node changeset="58839628" id="5608599832" lat="58.4992333" lon="6.8612389" timestamp="2018-05-10T06:46:07Z" uid="3842253" user="NKA_import" version="1">
		<tag k="historic" v="shieling" />
		<tag k="name" v="Stølen" />
		<tag k="place" v="farm" />
		<tag k="ssr:stedsnr" v="770656" />
		<tag k="ssr:type" v="bruk" />
	</node>
	<node changeset="58839628" id="5608599833" lat="58.2746889" lon="6.5253861" timestamp="2018-05-10T06:46:08Z" uid="3842253" user="NKA_import" version="1">
		<tag k="historic" v="shieling" />
		<tag k="name" v="Dåstøl" />
		<tag k="place" v="farm" />
		<tag k="ssr:stedsnr" v="910073" />
		<tag k="ssr:type" v="gard" />
	</node>
	<node changeset="58839628" id="5608599834" lat="58.4599833" lon="6.784675" timestamp="2018-05-10T06:46:08Z" uid="3842253" user="NKA_import" version="1">
		<tag k="name" v="Nordheim" />
		<tag k="place" v="farm" />
		<tag k="ssr:stedsnr" v="910081" />
		<tag k="ssr:type" v="bruk" />
	</node>
	<node changeset="58839628" id="5608599835" lat="58.2386444" lon="6.561875" timestamp="2018-05-10T06:46:08Z" uid="3842253" user="NKA_import" version="1">
		<tag k="alt_name" v="Eide" />
		<tag k="name" v="Eie" />
		<tag k="place" v="isolated_dwelling" />
		<tag k="ssr:stedsnr" v="910085" />
		<tag k="ssr:type" v="eneboligMindreBoligbygg" />
	</node>
	<node changeset="58839628" id="5608599836" lat="58.4733167" lon="6.7277" timestamp="2018-05-10T06:46:08Z" uid="3842253" user="NKA_import" version="1">
		<tag k="name" v="Eitland" />
		<tag k="place" v="farm" />
		<tag k="ssr:stedsnr" v="910094" />
		<tag k="ssr:type" v="gard" />
	</node>
	<node changeset="58839628" id="5608599837" lat="58.2818417" lon="6.7163556" timestamp="2018-05-10T06:46:08Z" uid="3842253" user="NKA_import" version="1">
		<tag k="name" v="Nuland" />
		<tag k="place" v="hamlet" />
		<tag k="ssr:stedsnr" v="121282" />
		<tag k="ssr:type" v="gard" />
	</node>
	<node changeset="58839628" id="5608599838" lat="58.3073056" lon="6.6701861" timestamp="2018-05-10T06:46:08Z" uid="3842253" user="NKA_import" version="1">
		<tag k="name" v="Nedreeid" />
		<tag k="place" v="neighbourhood" />
		<tag k="ssr:stedsnr" v="39188" />
		<tag k="ssr:type" v="grend" />
	</node>
	<node changeset="58839628" id="5608599839" lat="58.2454444" lon="6.6365333" timestamp="2018-05-10T06:46:08Z" uid="3842253" user="NKA_import" version="1">
		<tag k="alt_name" v="Snørebrot" />
		<tag k="name" v="Snørebråt" />
		<tag k="place" v="farm" />
		<tag k="ssr:stedsnr" v="910117" />
		<tag k="ssr:type" v="bruk" />
	</node>
	<node changeset="58839628" id="909367584" lat="58.3795385" lon="6.8959546" timestamp="2018-05-10T06:46:15Z" uid="3842253" user="NKA_import" version="2">
		<tag k="alt_name" v="Homme" />
		<tag k="name" v="Homma" />
		<tag k="place" v="farm" />
		<tag k="ssr:stedsnr" v="606396" />
		<tag k="ssr:type" v="gard" />
	</node>
	<node changeset="58839628" id="5608599841" lat="58.4499278" lon="6.6603444" timestamp="2018-05-10T06:46:08Z" uid="3842253" user="NKA_import" version="1">
		<tag k="alt_name" v="Sandsmork, yt;Ytre Sandsmork" />
		<tag k="name" v="Ytre Sandsmark" />
		<tag k="place" v="farm" />
		<tag k="ssr:stedsnr" v="910128" />
		<tag k="ssr:type" v="gard" />
	</node>
	<node changeset="58839628" id="5608599842" lat="58.50035" lon="6.7747611" timestamp="2018-05-10T06:46:09Z" uid="3842253" user="NKA_import" version="1">
		<tag k="name" v="Seljord" />
		<tag k="place" v="farm" />
		<tag k="ssr:stedsnr" v="121359" />
		<tag k="ssr:type" v="gard" />
	</node>
	<node changeset="58839628" id="5608599843" lat="58.41235" lon="6.7349" timestamp="2018-05-10T06:46:09Z" uid="3842253" user="NKA_import" version="1">
		<tag k="alt_name" v="Nordre Klungland" />
		<tag k="name" v="Klungland" />
		<tag k="place" v="farm" />
		<tag k="ssr:stedsnr" v="121378" />
		<tag k="ssr:type" v="gard" />
	</node>
	<node changeset="58839628" id="5608599844" lat="58.3577507" lon="6.8779429" timestamp="2018-05-10T06:46:09Z" uid="3842253" user="NKA_import" version="1">
		<tag k="alt_name" v="Espeli" />
		<tag k="building" v="cabin" />
		<tag k="name" v="Lian" />
		<tag k="place" v="isolated_dwelling" />
		<tag k="ssr:stedsnr" v="121424" />
		<tag k="ssr:type" v="fritidsbolig" />
	</node>
	<node changeset="58839628" id="5608599845" lat="58.290125" lon="6.712175" timestamp="2018-05-10T06:46:09Z" uid="3842253" user="NKA_import" version="1">
		<tag k="alt_name" v="Egenes" />
		<tag k="name" v="Eikenes" />
		<tag k="place" v="farm" />
		<tag k="ssr:stedsnr" v="910252" />
		<tag k="ssr:type" v="bruk" />
	</node>
	<node changeset="58839628" id="5608599846" lat="58.4516389" lon="6.6391278" timestamp="2018-05-10T06:46:09Z" uid="3842253" user="NKA_import" version="1">
		<tag k="historic" v="shieling" />
		<tag k="name" v="Tjødnelitoa" />
		<tag k="place" v="locality" />
		<tag k="ssr:stedsnr" v="649948" />
		<tag k="ssr:type" v="seterStøl" />
	</node>
	<node changeset="58839628" id="5590655315" lat="58.4577222" lon="6.6587611" timestamp="2018-05-10T06:46:17Z" uid="3842253" user="NKA_import" version="2">
		<tag k="alt_name" v="Konstali" />
		<tag k="name" v="Konnstali" />
		<tag k="place" v="farm" />
		<tag k="ssr:stedsnr" v="303059" />
		<tag k="ssr:type" v="gard" />
	</node>
	<node changeset="72058776" id="5214974339" lat="58.3891456" lon="6.7928402" timestamp="2019-07-09T14:42:55Z" uid="8796119" user="chrisklung" version="4">
		<tag k="historic" v="shieling" />
		<tag k="place" v="farm" />
		<tag k="ssr:stedsnr" v="667393" />
		<tag k="ssr:type" v="gard" />
	</node>
	<node changeset="22433119" id="2869221773" lat="58.4110449" lon="6.6461279" timestamp="2014-05-19T20:53:18Z" uid="1710144" user="rubund" version="1" />
	<node changeset="58839628" id="5608599622" lat="58.4351737" lon="6.7387013" timestamp="2018-05-10T06:45:57Z" uid="3842253" user="NKA_import" version="1">
		<tag k="alt_name" v="Østre Fossdal" />
		<tag k="name" v="Fåsdal" />
		<tag k="place" v="hamlet" />
		<tag k="ssr:stedsnr" v="206483" />
		<tag k="ssr:type" v="grend" />
	</node>
	<node changeset="58839628" id="785549744" lat="58.2532611" lon="6.5527472" timestamp="2018-05-10T06:46:14Z" uid="3842253" user="NKA_import" version="2">
		<tag k="alt_name" v="Ytre Kleppe" />
		<tag k="name" v="Kleppe" />
		<tag k="place" v="farm" />
		<tag k="ssr:stedsnr" v="425043" />
		<tag k="ssr:type" v="gard" />
	</node>
	<node changeset="79204398" id="7108397506" lat="58.2961314" lon="6.6497849" timestamp="2020-01-05T03:09:53Z" uid="103253" user="gormur" version="1" />
	<node changeset="79204398" id="7108397507" lat="58.2961123" lon="6.6500062" timestamp="2020-01-05T03:09:53Z" uid="103253" user="gormur" version="1" />
	<node changeset="79204398" id="7108397508" lat="58.2962272" lon="6.6501215" timestamp="2020-01-05T03:09:53Z" uid="103253" user="gormur" version="1" />
	<node changeset="79204398" id="7108397509" lat="58.2963033" lon="6.6505426" timestamp="2020-01-05T03:09:53Z" uid="103253" user="gormur" version="1" />
	<node changeset="79204398" id="7108397510" lat="58.2964711" lon="6.6506512" timestamp="2020-01-05T03:09:53Z" uid="103253" user="gormur" version="1" />
	<node changeset="79204398" id="7108397511" lat="58.2965986" lon="6.6502838" timestamp="2020-01-05T03:09:53Z" uid="103253" user="gormur" version="1" />
	<node changeset="79204398" id="7108397512" lat="58.2965592" lon="6.6499418" timestamp="2020-01-05T03:09:53Z" uid="103253" user="gormur" version="1" />
	<node changeset="78731165" id="579987934" lat="58.2837418" lon="6.6411712" timestamp="2019-12-22T10:47:08Z" uid="10521807" user="Ssllle" version="2" />
	<node changeset="3283702" id="579987935" lat="58.2835808" lon="6.6428696" timestamp="2009-12-03T20:14:26Z" uid="192497" user="rogjak" version="1" />
	<node changeset="78731165" id="579987936" lat="58.2839785" lon="6.6463351" timestamp="2019-12-22T10:47:08Z" uid="10521807" user="Ssllle" version="2" />
	<node changeset="78731165" id="579987937" lat="58.2833581" lon="6.647306" timestamp="2019-12-22T10:47:08Z" uid="10521807" user="Ssllle" version="2" />
	<node changeset="3283702" id="579987938" lat="58.2811216" lon="6.6454875" timestamp="2009-12-03T20:14:26Z" uid="192497" user="rogjak" version="1" />
	<node changeset="3283702" id="579987939" lat="58.2797678" lon="6.644715" timestamp="2009-12-03T20:14:26Z" uid="192497" user="rogjak" version="1" />
	<node changeset="3283702" id="579987940" lat="58.2794744" lon="6.643213" timestamp="2009-12-03T20:14:27Z" uid="192497" user="rogjak" version="1" />
	<node changeset="3283702" id="579987941" lat="58.2797452" lon="6.6415393" timestamp="2009-12-03T20:14:27Z" uid="192497" user="rogjak" version="1" />
	<node changeset="78731165" id="579987942" lat="58.2806919" lon="6.6400703" timestamp="2019-12-22T10:47:08Z" uid="10521807" user="Ssllle" version="2" />
	<node changeset="78731165" id="579987943" lat="58.2821143" lon="6.6404717" timestamp="2019-12-22T10:47:08Z" uid="10521807" user="Ssllle" version="2" />
	<node changeset="78731165" id="579987944" lat="58.2830237" lon="6.6405331" timestamp="2019-12-22T10:47:08Z" uid="10521807" user="Ssllle" version="2" />
	<node changeset="58839628" id="575109680" lat="58.3300167" lon="6.6416139" timestamp="2018-05-10T06:46:12Z" uid="3842253" user="NKA_import" version="3">
		<tag k="alt_name" v="Strømland" />
		<tag k="name" v="Straumland" />
		<tag k="place" v="farm" />
		<tag k="ssr:stedsnr" v="485400" />
		<tag k="ssr:type" v="gard" />
	</node>
	<node changeset="58839628" id="808383026" lat="58.273475" lon="6.7251833" timestamp="2018-05-10T06:46:15Z" uid="3842253" user="NKA_import" version="2">
		<tag k="alt_name" v="Tjærland" />
		<tag k="name" v="Tjersland" />
		<tag k="place" v="hamlet" />
		<tag k="ssr:stedsnr" v="364294" />
		<tag k="ssr:type" v="gard" />
	</node>
	<node changeset="58839628" id="575109693" lat="58.3369933" lon="6.6372767" timestamp="2018-05-10T06:46:12Z" uid="3842253" user="NKA_import" version="4">
		<tag k="name" v="Soland" />
		<tag k="place" v="farm" />
		<tag k="ssr:stedsnr" v="303456" />
		<tag k="ssr:type" v="gard" />
	</node>
	<node changeset="58839628" id="455934531" lat="58.2323337" lon="6.5386289" timestamp="2018-05-10T06:46:09Z" uid="3842253" user="NKA_import" version="5">
		<tag k="loc_name" v="Kirkehamn" />
		<tag k="name" v="Kirkehavn" />
		<tag k="place" v="village" />
		<tag k="ssr:stedsnr" v="182068" />
		<tag k="ssr:type" v="tettsted" />
	</node>
	<node changeset="58839628" id="5608599652" lat="58.4114461" lon="6.6587829" timestamp="2018-05-10T06:46:00Z" uid="3842253" user="NKA_import" version="1">
		<tag k="name" v="Bakke" />
		<tag k="place" v="farm" />
		<tag k="ssr:stedsnr" v="978409" />
		<tag k="ssr:type" v="gard" />
	</node>
	<node changeset="58839628" id="527900752" lat="58.2861611" lon="6.4264333" timestamp="2018-05-10T06:46:11Z" uid="3842253" user="NKA_import" version="2">
		<tag k="alt_name" v="Midtbø" />
		<tag k="name" v="Midbø" />
		<tag k="place" v="hamlet" />
		<tag k="ssr:stedsnr" v="910019" />
		<tag k="ssr:type" v="gard" />
	</node>
	<node changeset="58839628" id="5608599658" lat="58.4622792" lon="6.7222168" timestamp="2018-05-10T06:46:00Z" uid="3842253" user="NKA_import" version="1">
		<tag k="name" v="Vestre Eitlandskleiv" />
		<tag k="place" v="farm" />
		<tag k="ssr:stedsnr" v="978418" />
		<tag k="ssr:type" v="gard" />
	</node>
	<node changeset="58839628" id="482394769" lat="58.2987304" lon="6.6546873" timestamp="2018-05-10T06:46:09Z" uid="3842253" user="NKA_import" version="11">
		<tag k="name" v="Lilleheia" />
		<tag k="place" v="neighbourhood" />
		<tag k="ssr:stedsnr" v="42574" />
		<tag k="ssr:type" v="boligfelt" />
	</node>
	<node changeset="32062458" id="3603769454" lat="58.2453848" lon="6.6529883" timestamp="2015-06-18T22:04:38Z" uid="103253" user="gormur" version="1" />
	<node changeset="58839628" id="482394775" lat="58.2943028" lon="6.60735" timestamp="2018-05-10T06:46:09Z" uid="3842253" user="NKA_import" version="6">
		<tag k="alt_name" v="Midtfjells;Midtre Fjeldså" />
		<tag k="name" v="Midtfjellsæ" />
		<tag k="place" v="hamlet" />
		<tag k="ssr:stedsnr" v="243243" />
		<tag k="ssr:type" v="gard" />
	</node>
	<node changeset="32062458" id="3603769455" lat="58.2456378" lon="6.657576" timestamp="2015-06-18T22:04:38Z" uid="103253" user="gormur" version="1" />
	<node changeset="32062458" id="3603769457" lat="58.2460448" lon="6.6554233" timestamp="2015-06-18T22:04:38Z" uid="103253" user="gormur" version="1" />
	<node changeset="32062458" id="3603769459" lat="58.2463747" lon="6.6521732" timestamp="2015-06-18T22:04:38Z" uid="103253" user="gormur" version="1" />
	<node changeset="32062458" id="3603769460" lat="58.2466002" lon="6.6587987" timestamp="2015-06-18T22:04:39Z" uid="103253" user="gormur" version="1" />
	<node changeset="32062458" id="3603769461" lat="58.2468147" lon="6.6533018" timestamp="2015-06-18T22:04:39Z" uid="103253" user="gormur" version="1" />
	<node changeset="32062458" id="3603769462" lat="58.2470072" lon="6.6527584" timestamp="2015-06-18T22:04:39Z" uid="103253" user="gormur" version="1" />
	<node changeset="58839628" id="5608599671" lat="58.2643028" lon="6.6044444" timestamp="2018-05-10T06:46:01Z" uid="3842253" user="NKA_import" version="1">
		<tag k="alt_name" v="Eigeland" />
		<tag k="name" v="Eikeland" />
		<tag k="place" v="farm" />
		<tag k="ssr:stedsnr" v="728259" />
		<tag k="ssr:type" v="bruk" />
	</node>
	<node changeset="32062458" id="3603769464" lat="58.2474197" lon="6.6576387" timestamp="2015-06-18T22:04:39Z" uid="103253" user="gormur" version="1" />
	<node changeset="32062458" id="3603769465" lat="58.2480631" lon="6.6555696" timestamp="2015-06-18T22:04:39Z" uid="103253" user="gormur" version="1" />
	<node changeset="58839628" id="785550044" lat="58.2542827" lon="6.5462515" timestamp="2018-05-10T06:46:14Z" uid="3842253" user="NKA_import" version="2">
		<tag k="name" v="Dåtland" />
		<tag k="place" v="farm" />
		<tag k="ssr:stedsnr" v="121065" />
		<tag k="ssr:type" v="gard" />
	</node>
	<node changeset="32062458" id="3603769466" lat="58.2484316" lon="6.6574088" timestamp="2015-06-18T22:04:39Z" uid="103253" user="gormur" version="1" />
	<node changeset="58839628" id="808381153" lat="58.2308457" lon="6.7088407" timestamp="2018-05-10T06:46:15Z" uid="3842253" user="NKA_import" version="2">
		<tag k="abandoned" v="yes" />
		<tag k="alt_name" v="Undhamar" />
		<tag k="name" v="Unhammer" />
		<tag k="place" v="farm" />
		<tag k="ssr:stedsnr" v="728130" />
		<tag k="ssr:type" v="gard" />
	</node>
	<node changeset="32062458" id="3603769467" lat="58.2485361" lon="6.656625" timestamp="2015-06-18T22:04:39Z" uid="103253" user="gormur" version="1" />
	<node changeset="58839628" id="583324505" lat="58.2640639" lon="6.6796333" timestamp="2018-05-10T06:46:12Z" uid="3842253" user="NKA_import" version="4">
		<tag k="name" v="Vollesfjord" />
		<tag k="place" v="isolated_dwelling" />
		<tag k="ssr:stedsnr" v="789294" />
		<tag k="ssr:type" v="eneboligMindreBoligbygg" />
	</node>
	<node changeset="58839628" id="576387944" lat="58.4302915" lon="6.8391886" timestamp="2018-05-10T06:46:12Z" uid="3842253" user="NKA_import" version="2">
		<tag k="name" v="Gyland" />
		<tag k="place" v="village" />
		<tag k="ssr:stedsnr" v="61084" />
		<tag k="ssr:type" v="bygdelagBygd" />
	</node>
	<node changeset="58839628" id="1361421173" lat="58.2202944" lon="6.5923667" timestamp="2018-05-10T06:46:16Z" uid="3842253" user="NKA_import" version="2">
		<tag k="alt_name" v="Veisdal, øvre;Veisdal" />
		<tag k="name" v="Øvre Veisdal" />
		<tag k="place" v="farm" />
		<tag k="ssr:stedsnr" v="364102" />
		<tag k="ssr:type" v="gard" />
	</node>
	<node changeset="53743695" id="576369539" lat="58.4093132" lon="6.6416118" timestamp="2017-11-13T15:25:33Z" uid="5732597" user="ENTUR Johan Wiklund" version="3" />
	<node changeset="53743695" id="576369543" lat="58.4103451" lon="6.6448604" timestamp="2017-11-13T15:25:33Z" uid="5732597" user="ENTUR Johan Wiklund" version="3" />
	<node changeset="58839628" id="680002440" lat="58.2845661" lon="6.5432277" timestamp="2018-05-10T06:46:14Z" uid="3842253" user="NKA_import" version="2">
		<tag k="name" v="Kvanvik" />
		<tag k="place" v="hamlet" />
		<tag k="ssr:stedsnr" v="346748" />
		<tag k="ssr:type" v="grend" />
	</node>
	<node changeset="3259310" id="576369545" lat="58.41151" lon="6.6477559" timestamp="2009-11-30T20:26:40Z" uid="192497" user="rogjak" version="2" />
	<node changeset="3258371" id="576369548" lat="58.412913" lon="6.6525906" timestamp="2009-11-30T18:45:11Z" uid="192497" user="rogjak" version="1" />
	<node changeset="3258371" id="576369550" lat="58.4134075" lon="6.655938" timestamp="2009-11-30T18:45:11Z" uid="192497" user="rogjak" version="1" />
	<node changeset="58839628" id="680002449" lat="58.2738731" lon="6.5448837" timestamp="2018-05-10T06:46:14Z" uid="3842253" user="NKA_import" version="2">
		<tag k="name" v="Fidsel" />
		<tag k="place" v="farm" />
		<tag k="ssr:stedsnr" v="546058" />
		<tag k="ssr:type" v="gard" />
	</node>
	<node changeset="53743695" id="576369555" lat="58.4123255" lon="6.6535924" timestamp="2017-11-13T15:25:33Z" uid="5732597" user="ENTUR Johan Wiklund" version="3" />
	<node changeset="53743695" id="576369557" lat="58.4101324" lon="6.6488258" timestamp="2017-11-13T15:25:33Z" uid="5732597" user="ENTUR Johan Wiklund" version="3" />
	<node changeset="3259310" id="576369561" lat="58.4085426" lon="6.6422627" timestamp="2009-11-30T20:26:41Z" uid="192497" user="rogjak" version="2" />
	<node changeset="58839628" id="785550265" lat="58.2503857" lon="6.5480869" timestamp="2018-05-10T06:46:15Z" uid="3842253" user="NKA_import" version="3">
		<tag k="name" v="Li" />
		<tag k="place" v="farm" />
		<tag k="ssr:stedsnr" v="53" />
		<tag k="ssr:type" v="gard" />
	</node>
	<node changeset="22433119" id="2869230579" lat="58.4114038" lon="6.647384" timestamp="2014-05-19T20:53:20Z" uid="1710144" user="rubund" version="1" />
	<node changeset="58839628" id="565517363" lat="58.2868118" lon="6.6727203" timestamp="2018-05-10T06:46:11Z" uid="3842253" user="NKA_import" version="6">
		<tag k="name" v="Rauli" />
		<tag k="place" v="suburb" />
		<tag k="ssr:stedsnr" v="646633" />
		<tag k="ssr:type" v="boligfelt" />
	</node>
	<node changeset="61773667" id="5840016441" lat="58.558937" lon="6.6193257" timestamp="2018-08-18T15:43:45Z" uid="2569034" user="kche_import" version="2">
		<tag k="ele" v="670" />
		<tag k="name" v="Spjodæ" />
		<tag k="natural" v="peak" />
		<tag k="official_name" v="Spjothei" />
		<tag k="ssr:stedsnr" v="976983" />
	</node>
	<node changeset="61773667" id="5840016442" lat="58.5553174" lon="6.6182247" timestamp="2018-08-18T15:43:45Z" uid="2569034" user="kche_import" version="2">
		<tag k="name" v="Spjodesteinen" />
		<tag k="natural" v="stone" />
		<tag k="ssr:stedsnr" v="974571" />
	</node>
	<node changeset="58839628" id="1361419344" lat="58.2110795" lon="6.5870194" timestamp="2018-05-10T06:46:16Z" uid="3842253" user="NKA_import" version="3">
		<tag k="loc_name" v="Hommerås" />
		<tag k="name" v="Hummerås" />
		<tag k="place" v="hamlet" />
		<tag k="ssr:stedsnr" v="978236" />
		<tag k="ssr:type" v="gard" />
	</node>
	<node changeset="58839628" id="1361419356" lat="58.2221048" lon="6.5824317" timestamp="2018-05-10T06:46:16Z" uid="3842253" user="NKA_import" version="2">
		<tag k="alt_name" v="Hestad" />
		<tag k="name" v="Hæstad" />
		<tag k="place" v="hamlet" />
		<tag k="ssr:stedsnr" v="667112" />
		<tag k="ssr:type" v="gard" />
	</node>
	<node changeset="58839628" id="1361419363" lat="58.2134069" lon="6.6117937" timestamp="2018-05-10T06:46:16Z" uid="3842253" user="NKA_import" version="2">
		<tag k="disused" v="yes" />
		<tag k="name" v="Langeland" />
		<tag k="place" v="farm" />
		<tag k="ssr:stedsnr" v="182143" />
		<tag k="ssr:type" v="gard" />
	</node>
	<node changeset="58839628" id="564888700" lat="58.2971906" lon="6.6442273" timestamp="2018-05-10T06:46:11Z" uid="3842253" user="NKA_import" version="7">
		<tag k="name" v="Tjørsvåg" />
		<tag k="place" v="suburb" />
		<tag k="ssr:stedsnr" v="910260" />
		<tag k="ssr:type" v="bydel" />
	</node>
	<node changeset="58839628" id="564780175" lat="58.2742191" lon="6.6664177" timestamp="2018-05-10T06:46:11Z" uid="3842253" user="NKA_import" version="6">
		<tag k="name" v="Snerthammer" />
		<tag k="place" v="neighbourhood" />
		<tag k="ssr:stedsnr" v="953184" />
		<tag k="ssr:type" v="grend" />
	</node>
	<node changeset="58839628" id="784669848" lat="58.2643667" lon="6.5818278" timestamp="2018-05-10T06:46:14Z" uid="3842253" user="NKA_import" version="2">
		<tag k="alt_name" v="Store Håland;Håland" />
		<tag k="name" v="Håland, store" />
		<tag k="place" v="locality" />
		<tag k="ssr:stedsnr" v="606049" />
		<tag k="ssr:type" v="gard" />
	</node>
	<node changeset="19501119" id="2583915724" lat="58.4159541" lon="6.6642653" timestamp="2013-12-17T16:37:35Z" uid="1846853" user="ersdalm" version="1" />
	<node changeset="58839628" id="567893203" lat="58.3047532" lon="6.676767" timestamp="2018-05-10T06:46:11Z" uid="3842253" user="NKA_import" version="4">
		<tag k="name" v="Kråketona" />
		<tag k="place" v="neighbourhood" />
		<tag k="ssr:stedsnr" v="706914" />
		<tag k="ssr:type" v="boligfelt" />
	</node>
	<node changeset="58839628" id="567893204" lat="58.3113924" lon="6.6701635" timestamp="2018-05-10T06:46:11Z" uid="3842253" user="NKA_import" version="4">
		<tag k="name" v="Drangeid" />
		<tag k="place" v="suburb" />
		<tag k="ssr:stedsnr" v="728475" />
		<tag k="ssr:type" v="bydel" />
	</node>
	<node changeset="58839628" id="567893205" lat="58.3313272" lon="6.7204553" timestamp="2018-05-10T06:46:11Z" uid="3842253" user="NKA_import" version="3">
		<tag k="alt_name" v="Lilledrange;Lille Drange" />
		<tag k="name" v="Litledranga" />
		<tag k="place" v="hamlet" />
		<tag k="ssr:stedsnr" v="606441" />
		<tag k="ssr:type" v="gard" />
	</node>
	<node changeset="58839628" id="1362070774" lat="58.237172" lon="6.597007" timestamp="2018-05-10T06:46:17Z" uid="3842253" user="NKA_import" version="2">
		<tag k="name" v="Bukstad" />
		<tag k="place" v="hamlet" />
		<tag k="ssr:stedsnr" v="43754" />
		<tag k="ssr:type" v="grend" />
	</node>
	<node changeset="58839628" id="1362070776" lat="58.2385028" lon="6.5356194" timestamp="2018-05-10T06:46:17Z" uid="3842253" user="NKA_import" version="2">
		<tag k="alt_name" v="Kjøyta;Kjøide" />
		<tag k="name" v="Kjøyda" />
		<tag k="place" v="farm" />
		<tag k="ssr:stedsnr" v="364068" />
		<tag k="ssr:type" v="gard" />
	</node>
	<node changeset="58839628" id="680002435" lat="58.326717" lon="6.6577802" timestamp="2018-05-10T06:46:13Z" uid="3842253" user="NKA_import" version="2">
		<tag k="alt_name" v="Logja" />
		<tag k="name" v="Loga" />
		<tag k="place" v="suburb" />
		<tag k="ssr:stedsnr" v="546429" />
		<tag k="ssr:type" v="grend" />
	</node>
	<node changeset="58839628" id="564630810" lat="58.2878854" lon="6.659742" timestamp="2018-05-10T06:46:11Z" uid="3842253" user="NKA_import" version="5">
		<tag k="name" v="Grønnes" />
		<tag k="place" v="neighbourhood" />
		<tag k="ssr:stedsnr" v="910256" />
		<tag k="ssr:type" v="grend" />
	</node>
	<node changeset="72058776" id="495514908" lat="58.3636376" lon="6.8092975" timestamp="2019-07-09T14:42:55Z" uid="8796119" user="chrisklung" version="3">
		<tag k="name" v="Klungland" />
		<tag k="place" v="hamlet" />
		<tag k="ssr:stedsnr" v="303430" />
		<tag k="ssr:type" v="bruk" />
	</node>
	<node changeset="58839628" id="495514911" lat="58.3778956" lon="6.7368168" timestamp="2018-05-10T06:46:10Z" uid="3842253" user="NKA_import" version="2">
		<tag k="name" v="Gausdal" />
		<tag k="place" v="hamlet" />
		<tag k="ssr:stedsnr" v="606390" />
		<tag k="ssr:type" v="gard" />
	</node>
	<node changeset="58839628" id="5608599431" lat="58.2032389" lon="6.5945167" timestamp="2018-05-10T06:45:48Z" uid="3842253" user="NKA_import" version="1">
		<tag k="name" v="Steian" />
		<tag k="place" v="locality" />
		<tag k="ssr:stedsnr" v="407362" />
		<tag k="ssr:type" v="gammelBosettingsplass" />
	</node>
	<node changeset="3258371" id="576372012" lat="58.4231619" lon="6.6591137" timestamp="2009-11-30T18:46:18Z" uid="192497" user="rogjak" version="1" />
	<node changeset="3258371" id="576372028" lat="58.4202403" lon="6.6591137" timestamp="2009-11-30T18:46:19Z" uid="192497" user="rogjak" version="1" />
	<node changeset="3258371" id="576372044" lat="58.4176782" lon="6.6591137" timestamp="2009-11-30T18:46:19Z" uid="192497" user="rogjak" version="1" />
	<node changeset="58839628" id="808381778" lat="58.2472472" lon="6.7050778" timestamp="2018-05-10T06:46:15Z" uid="3842253" user="NKA_import" version="2">
		<tag k="name" v="Ståby" />
		<tag k="place" v="farm" />
		<tag k="ssr:stedsnr" v="728109" />
		<tag k="ssr:type" v="gard" />
	</node>
	<node changeset="3258371" id="576372064" lat="58.4147562" lon="6.6592854" timestamp="2009-11-30T18:46:19Z" uid="192497" user="rogjak" version="1" />
	<node changeset="3258371" id="576369553" lat="58.4121038" lon="6.6579121" timestamp="2009-11-30T18:45:11Z" uid="192497" user="rogjak" version="1" />
	<node changeset="3258371" id="576372084" lat="58.4126882" lon="6.6585987" timestamp="2009-11-30T18:46:20Z" uid="192497" user="rogjak" version="1" />
	<node changeset="32062458" id="477887861" lat="58.2454013" lon="6.652006" timestamp="2015-06-18T22:04:39Z" uid="103253" user="gormur" version="3" />
	<node changeset="32062458" id="477887863" lat="58.2466497" lon="6.6519119" timestamp="2015-06-18T22:04:39Z" uid="103253" user="gormur" version="3" />
	<node changeset="32062458" id="477887864" lat="58.2467542" lon="6.6542946" timestamp="2015-06-18T22:04:39Z" uid="103253" user="gormur" version="3" />
	<node changeset="32062458" id="477887865" lat="58.2458798" lon="6.6544932" timestamp="2015-06-18T22:04:39Z" uid="103253" user="gormur" version="3" />
	<node changeset="3258371" id="576372115" lat="58.4121487" lon="6.6624611" timestamp="2009-11-30T18:46:20Z" uid="192497" user="rogjak" version="1" />
	<node changeset="3259310" id="576372128" lat="58.4140276" lon="6.6637204" timestamp="2009-11-30T20:26:39Z" uid="192497" user="rogjak" version="2" />
	<node changeset="3259310" id="576372136" lat="58.4188826" lon="6.6650937" timestamp="2009-11-30T20:26:39Z" uid="192497" user="rogjak" version="2" />
	<node changeset="58839628" id="696827327" lat="58.4149675" lon="6.797785" timestamp="2018-05-10T06:46:14Z" uid="3842253" user="NKA_import" version="2">
		<tag k="name" v="Nuland" />
		<tag k="place" v="hamlet" />
		<tag k="ssr:stedsnr" v="788358" />
		<tag k="ssr:type" v="gard" />
	</node>
	<node changeset="58839628" id="696827329" lat="58.4874528" lon="6.7869583" timestamp="2018-05-10T06:46:14Z" uid="3842253" user="NKA_import" version="3">
		<tag k="alt_name" v="Sandvann" />
		<tag k="name" v="Sandvatn" />
		<tag k="place" v="hamlet" />
		<tag k="source:no" v="Blått stedsnavnskilt" />
		<tag k="ssr:stedsnr" v="606029" />
		<tag k="ssr:type" v="gard" />
	</node>
	<node changeset="58839628" id="579984837" lat="58.3025162" lon="6.6671147" timestamp="2018-05-10T06:46:12Z" uid="3842253" user="NKA_import" version="3">
		<tag k="name" v="Uenes" />
		<tag k="place" v="suburb" />
		<tag k="ssr:stedsnr" v="829642" />
		<tag k="ssr:type" v="boligfelt" />
	</node>
	<node changeset="3259310" id="576372178" lat="58.4221188" lon="6.6680119" timestamp="2009-11-30T20:26:39Z" uid="192497" user="rogjak" version="2" />
	<node changeset="3258371" id="576372190" lat="58.424645" lon="6.6653793" timestamp="2009-11-30T18:46:22Z" uid="192497" user="rogjak" version="1" />
	<node changeset="58839628" id="564612583" lat="58.3025889" lon="6.6400778" timestamp="2018-05-10T06:46:11Z" uid="3842253" user="NKA_import" version="6">
		<tag k="name" v="Søyland" />
		<tag k="place" v="suburb" />
		<tag k="ssr:stedsnr" v="222605" />
		<tag k="ssr:type" v="boligfelt" />
	</node>
	<node changeset="58839628" id="2891261437" lat="58.3485107" lon="6.6630368" timestamp="2018-05-10T06:46:17Z" uid="3842253" user="NKA_import" version="2">
		<tag k="name" v="Flikka" />
		<tag k="place" v="village" />
		<tag k="ssr:stedsnr" v="789454" />
		<tag k="ssr:type" v="bygdelagBygd" />
	</node>
	<node changeset="58839628" id="2891261438" lat="58.3518598" lon="6.6493914" timestamp="2018-05-10T06:46:17Z" uid="3842253" user="NKA_import" version="2">
		<tag k="name" v="Lavoll" />
		<tag k="place" v="farm" />
		<tag k="ssr:stedsnr" v="103855" />
		<tag k="ssr:type" v="grend" />
	</node>
	<node changeset="58839628" id="5608599084" lat="58.2843583" lon="6.7473111" timestamp="2018-05-10T06:45:44Z" uid="3842253" user="NKA_import" version="1">
		<tag k="name" v="Nedrejord" />
		<tag k="place" v="farm" />
		<tag k="ssr:stedsnr" v="910270" />
		<tag k="ssr:type" v="gard" />
	</node>
	<node changeset="58839628" id="5608599085" lat="58.2855778" lon="6.7754611" timestamp="2018-05-10T06:45:44Z" uid="3842253" user="NKA_import" version="1">
		<tag k="name" v="Solli" />
		<tag k="place" v="farm" />
		<tag k="ssr:stedsnr" v="159652" />
		<tag k="ssr:type" v="gard" />
	</node>
	<node changeset="58839628" id="5608599086" lat="58.4340167" lon="6.8074167" timestamp="2018-05-10T06:45:44Z" uid="3842253" user="NKA_import" version="1">
		<tag k="alt_name" v="Tømmerli" />
		<tag k="name" v="Timmerli" />
		<tag k="place" v="farm" />
		<tag k="ssr:stedsnr" v="242088" />
		<tag k="ssr:type" v="gard" />
	</node>
	<node changeset="58839628" id="5608599087" lat="58.4695222" lon="6.6863" timestamp="2018-05-10T06:45:44Z" uid="3842253" user="NKA_import" version="1">
		<tag k="name" v="Krågen" />
		<tag k="place" v="farm" />
		<tag k="ssr:stedsnr" v="285967" />
		<tag k="ssr:type" v="bruk" />
	</node>
	<node changeset="58839628" id="5608599088" lat="58.2535583" lon="6.618975" timestamp="2018-05-10T06:45:44Z" uid="3842253" user="NKA_import" version="1">
		<tag k="name" v="Haugeland" />
		<tag k="place" v="farm" />
		<tag k="ssr:stedsnr" v="242293" />
		<tag k="ssr:type" v="gard" />
	</node>
	<node changeset="58839628" id="5608599089" lat="58.333825" lon="6.825575" timestamp="2018-05-10T06:45:44Z" uid="3842253" user="NKA_import" version="1">
		<tag k="alt_name" v="Krosli" />
		<tag k="name" v="Krossli" />
		<tag k="place" v="farm" />
		<tag k="ssr:stedsnr" v="910475" />
		<tag k="ssr:type" v="gard" />
	</node>
	<node changeset="58839628" id="5608599090" lat="58.3967056" lon="6.7731333" timestamp="2018-05-10T06:45:44Z" uid="3842253" user="NKA_import" version="1">
		<tag k="name" v="Bjørja" />
		<tag k="place" v="isolated_dwelling" />
		<tag k="ssr:stedsnr" v="159498" />
		<tag k="ssr:type" v="eneboligMindreBoligbygg" />
	</node>
	<node changeset="58839628" id="5608599091" lat="58.45575" lon="6.7919333" timestamp="2018-05-10T06:45:44Z" uid="3842253" user="NKA_import" version="1">
		<tag k="name" v="Sørheim" />
		<tag k="place" v="farm" />
		<tag k="ssr:stedsnr" v="911121" />
		<tag k="ssr:type" v="bruk" />
	</node>
	<node changeset="58839628" id="5608599092" lat="58.2615083" lon="6.7512667" timestamp="2018-05-10T06:45:44Z" uid="3842253" user="NKA_import" version="1">
		<tag k="name" v="Birkeland" />
		<tag k="place" v="farm" />
		<tag k="ssr:stedsnr" v="911304" />
		<tag k="ssr:type" v="gard" />
	</node>
	<node changeset="58839628" id="5608599093" lat="58.3568528" lon="6.7656833" timestamp="2018-05-10T06:45:45Z" uid="3842253" user="NKA_import" version="1">
		<tag k="historic" v="shieling" />
		<tag k="name" v="Listøl" />
		<tag k="place" v="farm" />
		<tag k="ssr:stedsnr" v="911451" />
		<tag k="ssr:type" v="gard" />
	</node>
	<node changeset="58839628" id="5608599094" lat="58.2812917" lon="6.4647917" timestamp="2018-05-10T06:45:45Z" uid="3842253" user="NKA_import" version="1">
		<tag k="name" v="Håskog" />
		<tag k="place" v="farm" />
		<tag k="ssr:stedsnr" v="667001" />
		<tag k="ssr:type" v="gard" />
	</node>
	<node changeset="58839628" id="5608599095" lat="58.2748417" lon="6.4543083" timestamp="2018-05-10T06:45:45Z" uid="3842253" user="NKA_import" version="1">
		<tag k="name" v="Vatland" />
		<tag k="place" v="farm" />
		<tag k="ssr:stedsnr" v="667013" />
		<tag k="ssr:type" v="gard" />
	</node>
	<node changeset="58839628" id="5608599096" lat="58.2930778" lon="6.6842556" timestamp="2018-05-10T06:45:45Z" uid="3842253" user="NKA_import" version="1">
		<tag k="name" v="Nygård" />
		<tag k="place" v="farm" />
		<tag k="ssr:stedsnr" v="771142" />
		<tag k="ssr:type" v="bruk" />
	</node>
	<node changeset="58839628" id="5608599097" lat="58.2427278" lon="6.6403917" timestamp="2018-05-10T06:45:45Z" uid="3842253" user="NKA_import" version="1">
		<tag k="name" v="Myran" />
		<tag k="place" v="hamlet" />
		<tag k="ssr:stedsnr" v="243103" />
		<tag k="ssr:type" v="grend" />
	</node>
	<node changeset="58839628" id="5608599098" lat="58.351775" lon="6.7692778" timestamp="2018-05-10T06:45:45Z" uid="3842253" user="NKA_import" version="1">
		<tag k="name" v="Uglandskar" />
		<tag k="place" v="farm" />
		<tag k="ssr:stedsnr" v="286379" />
		<tag k="ssr:type" v="bruk" />
	</node>
	<node changeset="58839628" id="5608599099" lat="58.26625" lon="6.4548861" timestamp="2018-05-10T06:45:45Z" uid="3842253" user="NKA_import" version="1">
		<tag k="name" v="Skarpenes" />
		<tag k="place" v="farm" />
		<tag k="ssr:stedsnr" v="667085" />
		<tag k="ssr:type" v="gard" />
	</node>
	<node changeset="58839628" id="5608599100" lat="58.5028611" lon="6.6616056" timestamp="2018-05-10T06:45:45Z" uid="3842253" user="NKA_import" version="1">
		<tag k="alt_name" v="Berghøyden" />
		<tag k="name" v="Berghyrne" />
		<tag k="place" v="farm" />
		<tag k="ssr:stedsnr" v="243369" />
		<tag k="ssr:type" v="bruk" />
	</node>
	<node changeset="58839628" id="5608599101" lat="58.420182" lon="6.8371206" timestamp="2018-05-10T06:45:45Z" uid="3842253" user="NKA_import" version="1">
		<tag k="name" v="Li" />
		<tag k="place" v="farm" />
		<tag k="ssr:stedsnr" v="243381" />
		<tag k="ssr:type" v="bruk" />
	</node>
	<node changeset="58839628" id="5608599102" lat="58.3720722" lon="6.7815472" timestamp="2018-05-10T06:45:45Z" uid="3842253" user="NKA_import" version="1">
		<tag k="name" v="Egra" />
		<tag k="place" v="farm" />
		<tag k="ssr:stedsnr" v="286683" />
		<tag k="ssr:type" v="bruk" />
	</node>
	<node changeset="58839628" id="5608599103" lat="58.40045" lon="6.7581833" timestamp="2018-05-10T06:45:45Z" uid="3842253" user="NKA_import" version="1">
		<tag k="name" v="Netland" />
		<tag k="place" v="farm" />
		<tag k="ssr:stedsnr" v="243396" />
		<tag k="ssr:type" v="gard" />
	</node>
	<node changeset="62170198" id="5608599104" lat="58.2203361" lon="6.6344556" timestamp="2018-08-31T12:07:07Z" uid="550300" user="Klumbumbus" version="2">
		<tag k="name" v="Furua" />
		<tag k="place" v="isolated_dwelling" />
		<tag k="ssr:stedsnr" v="161738" />
		<tag k="ssr:type" v="fritidsbolig" />
	</node>
	<node changeset="58839628" id="5608599105" lat="58.3461056" lon="6.8283222" timestamp="2018-05-10T06:45:46Z" uid="3842253" user="NKA_import" version="1">
		<tag k="name" v="Solli" />
		<tag k="place" v="farm" />
		<tag k="ssr:stedsnr" v="528244" />
		<tag k="ssr:type" v="bruk" />
	</node>
	<node changeset="58839628" id="5608599106" lat="58.3782131" lon="6.8401117" timestamp="2018-05-10T06:45:46Z" uid="3842253" user="NKA_import" version="1">
		<tag k="alt_name" v="Kumlevoll" />
		<tag k="name" v="Kongevoll" />
		<tag k="place" v="hamlet" />
		<tag k="ssr:stedsnr" v="243425" />
		<tag k="ssr:type" v="gard" />
	</node>
	<node changeset="58839628" id="5608599107" lat="58.3693167" lon="6.8068611" timestamp="2018-05-10T06:45:46Z" uid="3842253" user="NKA_import" version="1">
		<tag k="name" v="Tesåk" />
		<tag k="place" v="farm" />
		<tag k="ssr:stedsnr" v="243426" />
		<tag k="ssr:type" v="gard" />
	</node>
	<node changeset="58839628" id="5608599108" lat="58.4783306" lon="6.8476667" timestamp="2018-05-10T06:45:46Z" uid="3842253" user="NKA_import" version="1">
		<tag k="name" v="Fossheim" />
		<tag k="place" v="farm" />
		<tag k="ssr:stedsnr" v="667113" />
		<tag k="ssr:type" v="bruk" />
	</node>
	<node changeset="58839628" id="5608599109" lat="58.3654556" lon="6.8759917" timestamp="2018-05-10T06:45:46Z" uid="3842253" user="NKA_import" version="1">
		<tag k="name" v="Skåland" />
		<tag k="place" v="locality" />
		<tag k="ssr:stedsnr" v="771227" />
		<tag k="ssr:type" v="bruk" />
	</node>
	<node changeset="58839628" id="5608599110" lat="58.3059611" lon="6.7378278" timestamp="2018-05-10T06:45:46Z" uid="3842253" user="NKA_import" version="1">
		<tag k="name" v="Reppen" />
		<tag k="place" v="farm" />
		<tag k="ssr:stedsnr" v="243495" />
		<tag k="ssr:type" v="gard" />
	</node>
	<node changeset="58839628" id="5608599111" lat="58.2933556" lon="6.4477" timestamp="2018-05-10T06:45:46Z" uid="3842253" user="NKA_import" version="1">
		<tag k="alt_name" v="Austhom" />
		<tag k="name" v="Austerheim" />
		<tag k="place" v="isolated_dwelling" />
		<tag k="ssr:stedsnr" v="425013" />
		<tag k="ssr:type" v="eneboligMindreBoligbygg" />
	</node>
	<node changeset="58839628" id="5608599112" lat="58.301875" lon="6.73635" timestamp="2018-05-10T06:45:46Z" uid="3842253" user="NKA_import" version="1">
		<tag k="name" v="Seland" />
		<tag k="place" v="hamlet" />
		<tag k="ssr:stedsnr" v="667264" />
		<tag k="ssr:type" v="gard" />
	</node>
	<node changeset="58839628" id="5608599113" lat="58.4633417" lon="6.7008583" timestamp="2018-05-10T06:45:46Z" uid="3842253" user="NKA_import" version="1">
		<tag k="name" v="Modal" />
		<tag k="place" v="farm" />
		<tag k="ssr:stedsnr" v="303071" />
		<tag k="ssr:type" v="gard" />
	</node>
	<node changeset="58839628" id="5608599114" lat="58.2226917" lon="6.5524639" timestamp="2018-05-10T06:45:47Z" uid="3842253" user="NKA_import" version="1">
		<tag k="alt_name" v="Sæle" />
		<tag k="name" v="Sele" />
		<tag k="place" v="farm" />
		<tag k="ssr:stedsnr" v="303088" />
		<tag k="ssr:type" v="gard" />
	</node>
	<node changeset="58839628" id="5608599115" lat="58.524175" lon="6.646925" timestamp="2018-05-10T06:45:47Z" uid="3842253" user="NKA_import" version="1">
		<tag k="alt_name" v="Jendal, yt" />
		<tag k="name" v="Ytre Jendal" />
		<tag k="place" v="farm" />
		<tag k="ssr:stedsnr" v="667347" />
		<tag k="ssr:type" v="gard" />
	</node>
	<node changeset="58839628" id="5608599116" lat="58.4108181" lon="6.8260893" timestamp="2018-05-10T06:45:47Z" uid="3842253" user="NKA_import" version="1">
		<tag k="name" v="Stykket" />
		<tag k="place" v="farm" />
		<tag k="ssr:stedsnr" v="286143" />
		<tag k="ssr:type" v="bruk" />
	</node>
	<node changeset="58839628" id="5608599117" lat="58.2401444" lon="6.5481694" timestamp="2018-05-10T06:45:47Z" uid="3842253" user="NKA_import" version="1">
		<tag k="name" v="Reistad" />
		<tag k="place" v="farm" />
		<tag k="ssr:stedsnr" v="425064" />
		<tag k="ssr:type" v="gard" />
	</node>
	<node changeset="58839628" id="5608599118" lat="58.4039611" lon="6.8574056" timestamp="2018-05-10T06:45:47Z" uid="3842253" user="NKA_import" version="1">
		<tag k="name" v="Eikhom" />
		<tag k="place" v="farm" />
		<tag k="ssr:stedsnr" v="667379" />
		<tag k="ssr:type" v="gard" />
	</node>
	<node changeset="58839628" id="5608599119" lat="58.4696861" lon="6.693325" timestamp="2018-05-10T06:45:47Z" uid="3842253" user="NKA_import" version="1">
		<tag k="alt_name" v="Modalslien" />
		<tag k="name" v="Modalsli" />
		<tag k="place" v="hamlet" />
		<tag k="ssr:stedsnr" v="425069" />
		<tag k="ssr:type" v="gard" />
	</node>
	<node changeset="58839628" id="5608599840" lat="58.2769444" lon="6.6705528" timestamp="2018-05-10T06:46:08Z" uid="3842253" user="NKA_import" version="1">
		<tag k="name" v="Lauvik" />
		<tag k="place" v="neighbourhood" />
		<tag k="ssr:stedsnr" v="121283" />
		<tag k="ssr:type" v="gard" />
	</node>
	<node changeset="53743695" id="5226620652" lat="58.4111753" lon="6.6492319" timestamp="2017-11-13T15:25:32Z" uid="5732597" user="ENTUR Johan Wiklund" version="1" />
	<node changeset="58839628" id="1361473265" lat="58.2285618" lon="6.5339968" timestamp="2018-05-10T06:46:16Z" uid="3842253" user="NKA_import" version="2">
		<tag k="alt_name" v="Østre Fidje" />
		<tag k="name" v="Fidje" />
		<tag k="place" v="neighbourhood" />
		<tag k="ssr:stedsnr" v="467741" />
		<tag k="ssr:type" v="gard" />
	</node>
	<node changeset="58839628" id="1361473266" lat="58.2290735" lon="6.5574972" timestamp="2018-05-10T06:46:16Z" uid="3842253" user="NKA_import" version="2">
		<tag k="loc_name" v="Hafsvik" />
		<tag k="name" v="Havsvik" />
		<tag k="place" v="hamlet" />
		<tag k="ssr:stedsnr" v="425068" />
		<tag k="ssr:type" v="bruk" />
	</node>
	<node changeset="58839628" id="1361473271" lat="58.2413611" lon="6.5358583" timestamp="2018-05-10T06:46:16Z" uid="3842253" user="NKA_import" version="2">
		<tag k="alt_name" v="Kåde" />
		<tag k="name" v="Kåda" />
		<tag k="place" v="farm" />
		<tag k="ssr:stedsnr" v="69" />
		<tag k="ssr:type" v="gard" />
	</node>
	<node changeset="58839628" id="1361473275" lat="58.2403962" lon="6.540893" timestamp="2018-05-10T06:46:16Z" uid="3842253" user="NKA_import" version="2">
		<tag k="alt_name" v="Omland" />
		<tag k="name" v="Åmland" />
		<tag k="place" v="farm" />
		<tag k="ssr:stedsnr" v="61062" />
		<tag k="ssr:type" v="gard" />
	</node>
	<node changeset="58839628" id="1361473280" lat="58.2276352" lon="6.547754" timestamp="2018-05-10T06:46:17Z" uid="3842253" user="NKA_import" version="2">
		<tag k="name" v="Ulland" />
		<tag k="place" v="hamlet" />
		<tag k="ssr:stedsnr" v="225433" />
		<tag k="ssr:type" v="grend" />
	</node>
	<node changeset="58839628" id="1361473282" lat="58.2360002" lon="6.5360122" timestamp="2018-05-10T06:46:17Z" uid="3842253" user="NKA_import" version="2">
		<tag k="name" v="Valås" />
		<tag k="place" v="neighbourhood" />
		<tag k="ssr:stedsnr" v="978233" />
		<tag k="ssr:type" v="gard" />
	</node>
	<node changeset="58839628" id="1361473284" lat="58.2272137" lon="6.5571469" timestamp="2018-05-10T06:46:17Z" uid="3842253" user="NKA_import" version="2">
		<tag k="name" v="Våge" />
		<tag k="place" v="hamlet" />
		<tag k="ssr:stedsnr" v="910095" />
		<tag k="ssr:type" v="gard" />
	</node>
	<node changeset="58839628" id="696815384" lat="58.4193155" lon="6.8149408" timestamp="2018-05-10T06:46:14Z" uid="3842253" user="NKA_import" version="2">
		<tag k="loc_name" v="Heggeland" />
		<tag k="name" v="Heggland" />
		<tag k="place" v="hamlet" />
		<tag k="ssr:stedsnr" v="485309" />
		<tag k="ssr:type" v="gard" />
	</node>
	<node changeset="58839628" id="527877943" lat="58.2360121" lon="6.5595302" timestamp="2018-05-10T06:46:10Z" uid="3842253" user="NKA_import" version="4">
		<tag k="loc_name" v="Eie" />
		<tag k="name" v="Eide" />
		<tag k="place" v="hamlet" />
		<tag k="ssr:stedsnr" v="978283" />
		<tag k="ssr:type" v="gard" />
	</node>
	<node changeset="32062458" id="3603769463" lat="58.2471172" lon="6.655162" timestamp="2015-06-18T22:04:39Z" uid="103253" user="gormur" version="1" />
	<node changeset="58839628" id="527877948" lat="58.2595388" lon="6.5924932" timestamp="2018-05-10T06:46:10Z" uid="3842253" user="NKA_import" version="3">
		<tag k="name" v="Itland" />
		<tag k="place" v="farm" />
		<tag k="ssr:stedsnr" v="303050" />
		<tag k="ssr:type" v="gard" />
	</node>
	<node changeset="58839628" id="527877956" lat="58.2399798" lon="6.6487798" timestamp="2018-05-10T06:46:10Z" uid="3842253" user="NKA_import" version="2" />
	<node changeset="58839628" id="527877962" lat="58.2501415" lon="6.6364987" timestamp="2018-05-10T06:46:10Z" uid="3842253" user="NKA_import" version="2">
		<tag k="name" v="Kvelland" />
		<tag k="place" v="hamlet" />
		<tag k="ssr:stedsnr" v="224690" />
		<tag k="ssr:type" v="bygdelagBygd" />
	</node>
	<node changeset="58839628" id="527877964" lat="58.2696814" lon="6.6424987" timestamp="2018-05-10T06:46:10Z" uid="3842253" user="NKA_import" version="5">
		<tag k="alt_name" v="Fjellsæ" />
		<tag k="loc_name" v="Fjellså" />
		<tag k="name" v="Fjellse" />
		<tag k="place" v="hamlet" />
		<tag k="ssr:stedsnr" v="789279" />
		<tag k="ssr:type" v="tettbebyggelse" />
	</node>
	<node changeset="58839628" id="808384347" lat="58.2497851" lon="6.7318543" timestamp="2018-05-10T06:46:15Z" uid="3842253" user="NKA_import" version="2">
		<tag k="name" v="Bjelland" />
		<tag k="place" v="hamlet" />
		<tag k="ssr:stedsnr" v="164756" />
		<tag k="ssr:type" v="grend" />
	</node>
	<node changeset="78731165" id="7077205877" lat="58.2828603" lon="6.6462626" timestamp="2019-12-22T10:47:08Z" uid="10521807" user="Ssllle" version="1" />
	<node changeset="78731165" id="7077205878" lat="58.2820107" lon="6.6462452" timestamp="2019-12-22T10:47:08Z" uid="10521807" user="Ssllle" version="1" />
	<node changeset="58839628" id="5608599421" lat="58.3363083" lon="6.7648111" timestamp="2018-05-10T06:45:47Z" uid="3842253" user="NKA_import" version="1">
		<tag k="name" v="Eikedal" />
		<tag k="place" v="farm" />
		<tag k="ssr:stedsnr" v="667419" />
		<tag k="ssr:type" v="gard" />
	</node>
	<node changeset="58839628" id="5608599422" lat="58.3300694" lon="6.6823278" timestamp="2018-05-10T06:45:47Z" uid="3842253" user="NKA_import" version="1">
		<tag k="alt_name" v="Fladen" />
		<tag k="name" v="Flaten" />
		<tag k="place" v="farm" />
		<tag k="ssr:stedsnr" v="667433" />
		<tag k="ssr:type" v="gard" />
	</node>
	<node changeset="58839628" id="5608599423" lat="58.4254056" lon="6.6345611" timestamp="2018-05-10T06:45:47Z" uid="3842253" user="NKA_import" version="1">
		<tag k="alt_name" v="Skogen" />
		<tag k="name" v="Skogan" />
		<tag k="place" v="farm" />
		<tag k="ssr:stedsnr" v="425090" />
		<tag k="ssr:type" v="gard" />
	</node>
	<node changeset="58839628" id="5608599424" lat="58.3016167" lon="6.7528528" timestamp="2018-05-10T06:45:48Z" uid="3842253" user="NKA_import" version="1">
		<tag k="name" v="Helland" />
		<tag k="place" v="farm" />
		<tag k="ssr:stedsnr" v="303262" />
		<tag k="ssr:type" v="gard" />
	</node>
	<node changeset="58839628" id="5608599425" lat="58.23084" lon="6.5345245" timestamp="2018-05-10T06:45:48Z" uid="3842253" user="NKA_import" version="1">
		<tag k="name" v="Tuna" />
		<tag k="place" v="neighbourhood" />
		<tag k="ssr:stedsnr" v="528459" />
		<tag k="ssr:type" v="tettbebyggelse" />
	</node>
	<node changeset="58839628" id="5608599426" lat="58.4129" lon="6.7794111" timestamp="2018-05-10T06:45:48Z" uid="3842253" user="NKA_import" version="1">
		<tag k="name" v="Voilås" />
		<tag k="place" v="farm" />
		<tag k="ssr:stedsnr" v="303372" />
		<tag k="ssr:type" v="gard" />
	</node>
	<node changeset="58839628" id="5608599427" lat="58.3992389" lon="6.7972861" timestamp="2018-05-10T06:45:48Z" uid="3842253" user="NKA_import" version="1">
		<tag k="alt_name" v="Hjelleset;Jellesæd" />
		<tag k="name" v="Hjellesæ" />
		<tag k="place" v="farm" />
		<tag k="ssr:stedsnr" v="303389" />
		<tag k="ssr:type" v="gard" />
	</node>
	<node changeset="58839628" id="5608599428" lat="58.4459028" lon="6.8089555" timestamp="2018-05-10T06:45:48Z" uid="3842253" user="NKA_import" version="1">
		<tag k="alt_name" v="Uglandskaret;Uglandsskar" />
		<tag k="name" v="Uglandskard" />
		<tag k="place" v="farm" />
		<tag k="ssr:stedsnr" v="425107" />
		<tag k="ssr:type" v="gard" />
	</node>
	<node changeset="58839628" id="5608599429" lat="58.3888139" lon="6.810025" timestamp="2018-05-10T06:45:48Z" uid="3842253" user="NKA_import" version="1">
		<tag k="alt_name" v="Fedog" />
		<tag k="name" v="Fedåk" />
		<tag k="place" v="farm" />
		<tag k="ssr:stedsnr" v="303404" />
		<tag k="ssr:type" v="gard" />
	</node>
	<node changeset="58839628" id="5608599430" lat="58.2025194" lon="6.6151972" timestamp="2018-05-10T06:45:48Z" uid="3842253" user="NKA_import" version="1">
		<tag k="alt_name" v="Hitterøkalven" />
		<tag k="name" v="Kalven" />
		<tag k="place" v="farm" />
		<tag k="ssr:stedsnr" v="425167" />
		<tag k="ssr:type" v="gard" />
	</node>
	<node changeset="58839628" id="495515527" lat="58.4152516" lon="6.652369" timestamp="2018-05-10T06:46:10Z" uid="3842253" user="NKA_import" version="3">
		<tag k="name" v="Lende" />
		<tag k="place" v="hamlet" />
		<tag k="ssr:stedsnr" v="42679" />
		<tag k="ssr:type" v="bygdelagBygd" />
	</node>
	<node changeset="58839628" id="5608599432" lat="58.3870111" lon="6.7122111" timestamp="2018-05-10T06:45:48Z" uid="3842253" user="NKA_import" version="1">
		<tag k="name" v="Helledal" />
		<tag k="place" v="farm" />
		<tag k="ssr:stedsnr" v="425400" />
		<tag k="ssr:type" v="gard" />
	</node>
	<node changeset="58839628" id="5608599433" lat="58.5017251" lon="6.8073235" timestamp="2018-05-10T06:45:48Z" uid="3842253" user="NKA_import" version="1">
		<tag k="alt_name" v="Slettebø" />
		<tag k="building" v="cabin" />
		<tag k="name" v="Slettabø" />
		<tag k="place" v="isolated_dwelling" />
		<tag k="ssr:stedsnr" v="304361" />
		<tag k="ssr:type" v="fritidsbolig" />
	</node>
	<node changeset="58839628" id="5608599434" lat="58.39305" lon="6.7207861" timestamp="2018-05-10T06:45:49Z" uid="3842253" user="NKA_import" version="1">
		<tag k="name" v="Løland" />
		<tag k="place" v="farm" />
		<tag k="ssr:stedsnr" v="425402" />
		<tag k="ssr:type" v="gard" />
	</node>
	<node changeset="58839628" id="5608599435" lat="58.3262528" lon="6.8284361" timestamp="2018-05-10T06:45:49Z" uid="3842253" user="NKA_import" version="1">
		<tag k="name" v="Krossli" />
		<tag k="place" v="farm" />
		<tag k="ssr:stedsnr" v="425458" />
		<tag k="ssr:type" v="bruk" />
	</node>
	<node changeset="58839628" id="5608599436" lat="58.3326444" lon="6.747575" timestamp="2018-05-10T06:45:49Z" uid="3842253" user="NKA_import" version="1">
		<tag k="name" v="Lille Løyning" />
		<tag k="place" v="farm" />
		<tag k="ssr:stedsnr" v="42712" />
		<tag k="ssr:type" v="gard" />
	</node>
	<node changeset="58839628" id="5608599437" lat="58.2314306" lon="6.5581583" timestamp="2018-05-10T06:45:49Z" uid="3842253" user="NKA_import" version="1">
		<tag k="name" v="Ågenes" />
		<tag k="place" v="farm" />
		<tag k="ssr:stedsnr" v="407418" />
		<tag k="ssr:type" v="gard" />
	</node>
	<node changeset="58839628" id="5608599438" lat="58.2509917" lon="6.6146028" timestamp="2018-05-10T06:45:49Z" uid="3842253" user="NKA_import" version="1">
		<tag k="name" v="Kulåsen" />
		<tag k="place" v="farm" />
		<tag k="ssr:stedsnr" v="464723" />
		<tag k="ssr:type" v="bruk" />
	</node>
	<node changeset="58839628" id="5608599439" lat="58.464775" lon="6.7302778" timestamp="2018-05-10T06:45:49Z" uid="3842253" user="NKA_import" version="1">
		<tag k="historic" v="shieling" />
		<tag k="name" v="Kleivstølen" />
		<tag k="place" v="locality" />
		<tag k="ssr:stedsnr" v="341513" />
		<tag k="ssr:type" v="seterStøl" />
	</node>
	<node changeset="58839628" id="5608599440" lat="58.4027722" lon="6.840675" timestamp="2018-05-10T06:45:49Z" uid="3842253" user="NKA_import" version="1">
		<tag k="name" v="Hauan" />
		<tag k="place" v="farm" />
		<tag k="ssr:stedsnr" v="463151" />
		<tag k="ssr:type" v="bruk" />
	</node>
	<node changeset="58839628" id="5608599441" lat="58.2266899" lon="6.5344669" timestamp="2018-05-10T06:45:49Z" uid="3842253" user="NKA_import" version="1">
		<tag k="name" v="Ysthus" />
		<tag k="place" v="neighbourhood" />
		<tag k="ssr:stedsnr" v="771760" />
		<tag k="ssr:type" v="grend" />
	</node>
	<node changeset="79204398" id="5608599442" lat="58.296397" lon="6.6497078" timestamp="2020-01-05T03:09:54Z" uid="103253" user="gormur" version="2" />
	<node changeset="58839628" id="5608599443" lat="58.4780944" lon="6.8312861" timestamp="2018-05-10T06:45:49Z" uid="3842253" user="NKA_import" version="1">
		<tag k="historic" v="shieling" />
		<tag k="name" v="Stølen" />
		<tag k="place" v="farm" />
		<tag k="ssr:stedsnr" v="952676" />
		<tag k="ssr:type" v="bruk" />
	</node>
	<node changeset="58839628" id="5608599444" lat="58.293213" lon="6.6631916" timestamp="2018-05-10T06:45:49Z" uid="3842253" user="NKA_import" version="1">
		<tag k="name" v="Verven" />
		<tag k="place" v="locality" />
		<tag k="ssr:stedsnr" v="164128" />
		<tag k="ssr:type" v="industriområde" />
	</node>
	<node changeset="58839628" id="5608599445" lat="58.2906167" lon="6.6485861" timestamp="2018-05-10T06:45:49Z" uid="3842253" user="NKA_import" version="1">
		<tag k="name" v="Fagerstrand" />
		<tag k="place" v="neighbourhood" />
		<tag k="ssr:stedsnr" v="43093" />
		<tag k="ssr:type" v="tettbebyggelse" />
	</node>
	<node changeset="58839628" id="5608599446" lat="58.4867389" lon="6.7735639" timestamp="2018-05-10T06:45:50Z" uid="3842253" user="NKA_import" version="1">
		<tag k="name" v="Hjuringhuset" />
		<tag k="place" v="farm" />
		<tag k="ssr:stedsnr" v="709053" />
		<tag k="ssr:type" v="bruk" />
	</node>
	<node changeset="58839628" id="5608599447" lat="58.4262917" lon="6.6655806" timestamp="2018-05-10T06:45:50Z" uid="3842253" user="NKA_import" version="1">
		<tag k="name" v="Osen" />
		<tag k="place" v="neighbourhood" />
		<tag k="ssr:stedsnr" v="952869" />
		<tag k="ssr:type" v="tettbebyggelse" />
	</node>
	<node changeset="58839628" id="5608599448" lat="58.4147889" lon="6.8151389" timestamp="2018-05-10T06:45:50Z" uid="3842253" user="NKA_import" version="1">
		<tag k="name" v="Skaret" />
		<tag k="place" v="farm" />
		<tag k="ssr:stedsnr" v="164367" />
		<tag k="ssr:type" v="bruk" />
	</node>
	<node changeset="58839628" id="5608599449" lat="58.383673" lon="6.8377667" timestamp="2018-05-10T06:45:50Z" uid="3842253" user="NKA_import" version="1">
		<tag k="name" v="Lunden" />
		<tag k="place" v="neighbourhood" />
		<tag k="ssr:stedsnr" v="345062" />
		<tag k="ssr:type" v="boligfelt" />
	</node>
	<node changeset="58839628" id="5608599450" lat="58.4119059" lon="6.8295144" timestamp="2018-05-10T06:45:50Z" uid="3842253" user="NKA_import" version="1">
		<tag k="name" v="Steian" />
		<tag k="place" v="farm" />
		<tag k="ssr:stedsnr" v="892136" />
		<tag k="ssr:type" v="bruk" />
	</node>
	<node changeset="58839628" id="5608599451" lat="58.2776111" lon="6.5285917" timestamp="2018-05-10T06:45:50Z" uid="3842253" user="NKA_import" version="1">
		<tag k="name" v="Hogstad" />
		<tag k="place" v="farm" />
		<tag k="ssr:stedsnr" v="788050" />
		<tag k="ssr:type" v="gard" />
	</node>
	<node changeset="58839628" id="5608599452" lat="58.3716139" lon="6.7051472" timestamp="2018-05-10T06:45:50Z" uid="3842253" user="NKA_import" version="1">
		<tag k="name" v="Nordli" />
		<tag k="place" v="farm" />
		<tag k="ssr:stedsnr" v="407869" />
		<tag k="ssr:type" v="bruk" />
	</node>
	<node changeset="58839628" id="5608599453" lat="58.3569194" lon="6.6332194" timestamp="2018-05-10T06:45:50Z" uid="3842253" user="NKA_import" version="1">
		<tag k="name" v="Eikeland" />
		<tag k="place" v="farm" />
		<tag k="ssr:stedsnr" v="588863" />
		<tag k="ssr:type" v="bruk" />
	</node>
	<node changeset="58839628" id="5608599454" lat="58.284383" lon="6.623078" timestamp="2018-05-10T06:45:50Z" uid="3842253" user="NKA_import" version="1">
		<tag k="building" v="cabin" />
		<tag k="name" v="Bestyrarinnas Recidens" />
		<tag k="place" v="isolated_dwelling" />
		<tag k="ssr:stedsnr" v="710098" />
		<tag k="ssr:type" v="fritidsbolig" />
	</node>
	<node changeset="58839628" id="5608599455" lat="58.4690556" lon="6.7898417" timestamp="2018-05-10T06:45:50Z" uid="3842253" user="NKA_import" version="1">
		<tag k="name" v="Bø" />
		<tag k="place" v="farm" />
		<tag k="ssr:stedsnr" v="789070" />
		<tag k="ssr:type" v="bruk" />
	</node>
	<node changeset="58839628" id="5608599456" lat="58.2971472" lon="6.5201083" timestamp="2018-05-10T06:45:51Z" uid="3842253" user="NKA_import" version="1">
		<tag k="name" v="Gumpefjell" />
		<tag k="place" v="farm" />
		<tag k="ssr:stedsnr" v="546017" />
		<tag k="ssr:type" v="gard" />
	</node>
	<node changeset="58839628" id="5608599457" lat="58.2388361" lon="6.5309611" timestamp="2018-05-10T06:45:51Z" uid="3842253" user="NKA_import" version="1">
		<tag k="name" v="Kjøydevåg" />
		<tag k="place" v="hamlet" />
		<tag k="ssr:stedsnr" v="953356" />
		<tag k="ssr:type" v="grend" />
	</node>
	<node changeset="58839628" id="5608599458" lat="58.2825556" lon="6.4174639" timestamp="2018-05-10T06:45:51Z" uid="3842253" user="NKA_import" version="1">
		<tag k="name" v="Akerhus" />
		<tag k="place" v="locality" />
		<tag k="ssr:stedsnr" v="546021" />
		<tag k="ssr:type" v="eiendom" />
	</node>
	<node changeset="58839628" id="5608599459" lat="58.2204306" lon="6.5718389" timestamp="2018-05-10T06:45:51Z" uid="3842253" user="NKA_import" version="1">
		<tag k="name" v="Sønnevik" />
		<tag k="place" v="farm" />
		<tag k="ssr:stedsnr" v="789096" />
		<tag k="ssr:type" v="bruk" />
	</node>
	<node changeset="58839628" id="5608599460" lat="58.4683306" lon="6.8269083" timestamp="2018-05-10T06:45:51Z" uid="3842253" user="NKA_import" version="1">
		<tag k="name" v="Plasset" />
		<tag k="place" v="farm" />
		<tag k="ssr:stedsnr" v="345611" />
		<tag k="ssr:type" v="bruk" />
	</node>
	<node changeset="58839628" id="5608599461" lat="58.478875" lon="6.786825" timestamp="2018-05-10T06:45:51Z" uid="3842253" user="NKA_import" version="1">
		<tag k="name" v="Nordbø" />
		<tag k="place" v="farm" />
		<tag k="ssr:stedsnr" v="546093" />
		<tag k="ssr:type" v="bruk" />
	</node>
	<node changeset="58839628" id="5608599462" lat="58.2395111" lon="6.6990806" timestamp="2018-05-10T06:45:51Z" uid="3842253" user="NKA_import" version="1">
		<tag k="name" v="Helle" />
		<tag k="place" v="farm" />
		<tag k="ssr:stedsnr" v="789137" />
		<tag k="ssr:type" v="bruk" />
	</node>
	<node changeset="58839628" id="5608599463" lat="58.4779056" lon="6.6744306" timestamp="2018-05-10T06:45:51Z" uid="3842253" user="NKA_import" version="1">
		<tag k="name" v="Mjåsund" />
		<tag k="place" v="farm" />
		<tag k="ssr:stedsnr" v="546092" />
		<tag k="ssr:type" v="gard" />
	</node>
	<node changeset="58839628" id="5608599464" lat="58.4467667" lon="6.7982861" timestamp="2018-05-10T06:45:51Z" uid="3842253" user="NKA_import" version="1">
		<tag k="name" v="Rygg" />
		<tag k="place" v="farm" />
		<tag k="ssr:stedsnr" v="546125" />
		<tag k="ssr:type" v="gard" />
	</node>
	<node changeset="58839628" id="5608599465" lat="58.4465667" lon="6.6792861" timestamp="2018-05-10T06:45:51Z" uid="3842253" user="NKA_import" version="1">
		<tag k="name" v="Øigarden" />
		<tag k="place" v="locality" />
		<tag k="ssr:stedsnr" v="892974" />
		<tag k="ssr:type" v="gammelBosettingsplass" />
	</node>
	<node changeset="58839628" id="5608599466" lat="58.3789028" lon="6.7804083" timestamp="2018-05-10T06:45:51Z" uid="3842253" user="NKA_import" version="1">
		<tag k="alt_name" v="Eikås, store" />
		<tag k="name" v="Store Eikås" />
		<tag k="place" v="farm" />
		<tag k="ssr:stedsnr" v="789423" />
		<tag k="ssr:type" v="gard" />
	</node>
	<node changeset="58839628" id="5608599467" lat="58.3783861" lon="6.8035639" timestamp="2018-05-10T06:45:51Z" uid="3842253" user="NKA_import" version="1">
		<tag k="alt_name" v="Eikeland" />
		<tag k="loc_name" v="Eikjeland" />
		<tag k="name" v="Eigeland" />
		<tag k="place" v="hamlet" />
		<tag k="ssr:stedsnr" v="789424" />
		<tag k="ssr:type" v="gard" />
	</node>
	<node changeset="58839628" id="5608599468" lat="58.3624611" lon="6.6838278" timestamp="2018-05-10T06:45:52Z" uid="3842253" user="NKA_import" version="1">
		<tag k="alt_name" v="Lone" />
		<tag k="name" v="Lona" />
		<tag k="place" v="hamlet" />
		<tag k="ssr:stedsnr" v="789432" />
		<tag k="ssr:type" v="gard" />
	</node>
	<node changeset="58839628" id="5608599469" lat="58.2191361" lon="6.5731361" timestamp="2018-05-10T06:45:52Z" uid="3842253" user="NKA_import" version="1">
		<tag k="name" v="Vaulevik" />
		<tag k="place" v="farm" />
		<tag k="ssr:stedsnr" v="953429" />
		<tag k="ssr:type" v="bruk" />
	</node>
	<node changeset="58839628" id="5608599470" lat="58.3234778" lon="6.6566167" timestamp="2018-05-10T06:45:52Z" uid="3842253" user="NKA_import" version="1">
		<tag k="name" v="Logaåsen" />
		<tag k="place" v="neighbourhood" />
		<tag k="ssr:stedsnr" v="888163" />
		<tag k="ssr:type" v="boligfelt" />
	</node>
	<node changeset="58839628" id="5608599471" lat="58.53265" lon="6.6848361" timestamp="2018-05-10T06:45:52Z" uid="3842253" user="NKA_import" version="1">
		<tag k="name" v="Ramsli" />
		<tag k="place" v="farm" />
		<tag k="ssr:stedsnr" v="789728" />
		<tag k="ssr:type" v="gard" />
	</node>
	<node changeset="58839628" id="5608599472" lat="58.4160972" lon="6.8219972" timestamp="2018-05-10T06:45:52Z" uid="3842253" user="NKA_import" version="1">
		<tag k="name" v="Bjødnevollen" />
		<tag k="place" v="farm" />
		<tag k="ssr:stedsnr" v="467133" />
		<tag k="ssr:type" v="bruk" />
	</node>
	<node changeset="58839628" id="5608599473" lat="58.385975" lon="6.7356111" timestamp="2018-05-10T06:45:52Z" uid="3842253" user="NKA_import" version="1">
		<tag k="name" v="Haugland" />
		<tag k="place" v="farm" />
		<tag k="ssr:stedsnr" v="546373" />
		<tag k="ssr:type" v="gard" />
	</node>
	<node changeset="58839628" id="5608599474" lat="58.3537806" lon="6.7943583" timestamp="2018-05-10T06:45:53Z" uid="3842253" user="NKA_import" version="1">
		<tag k="alt_name" v="Rossestøl (Stølen)" />
		<tag k="historic" v="shieling" />
		<tag k="name" v="Røssestøl" />
		<tag k="place" v="farm" />
		<tag k="ssr:stedsnr" v="546413" />
		<tag k="ssr:type" v="gard" />
	</node>
	<node changeset="58839628" id="5608599475" lat="58.3230639" lon="6.6933167" timestamp="2018-05-10T06:45:53Z" uid="3842253" user="NKA_import" version="1">
		<tag k="name" v="Legenes" />
		<tag k="place" v="farm" />
		<tag k="ssr:stedsnr" v="888191" />
		<tag k="ssr:type" v="bruk" />
	</node>
	<node changeset="58839628" id="5608599476" lat="58.3497778" lon="6.7660861" timestamp="2018-05-10T06:45:53Z" uid="3842253" user="NKA_import" version="1">
		<tag k="name" v="Dunsæd" />
		<tag k="place" v="farm" />
		<tag k="ssr:stedsnr" v="546422" />
		<tag k="ssr:type" v="gard" />
	</node>
	<node changeset="58839628" id="5608599477" lat="58.5511444" lon="6.6752583" timestamp="2018-05-10T06:45:53Z" uid="3842253" user="NKA_import" version="1">
		<tag k="alt_name" v="Skrekeli" />
		<tag k="name" v="Skregeli" />
		<tag k="place" v="farm" />
		<tag k="ssr:stedsnr" v="546710" />
		<tag k="ssr:type" v="gard" />
	</node>
	<node changeset="58839628" id="5608599478" lat="58.2284861" lon="6.5662056" timestamp="2018-05-10T06:45:53Z" uid="3842253" user="NKA_import" version="1">
		<tag k="name" v="Helle" />
		<tag k="place" v="hamlet" />
		<tag k="ssr:stedsnr" v="710416" />
		<tag k="ssr:type" v="grend" />
	</node>
	<node changeset="58839628" id="5608599479" lat="58.2299758" lon="6.5520593" timestamp="2018-05-10T06:45:53Z" uid="3842253" user="NKA_import" version="1">
		<tag k="name" v="Fredheim" />
		<tag k="place" v="farm" />
		<tag k="ssr:stedsnr" v="710417" />
		<tag k="ssr:type" v="bruk" />
	</node>
	<node changeset="58839628" id="5608599480" lat="58.3616657" lon="6.6345575" timestamp="2018-05-10T06:45:53Z" uid="3842253" user="NKA_import" version="1">
		<tag k="name" v="Øvre Eie" />
		<tag k="place" v="farm" />
		<tag k="ssr:stedsnr" v="345855" />
		<tag k="ssr:type" v="grend" />
	</node>
	<node changeset="58839628" id="5608599481" lat="58.27435" lon="6.4863028" timestamp="2018-05-10T06:45:53Z" uid="3842253" user="NKA_import" version="1">
		<tag k="name" v="Åsnes" />
		<tag k="place" v="farm" />
		<tag k="ssr:stedsnr" v="61005" />
		<tag k="ssr:type" v="bruk" />
	</node>
	<node changeset="58839628" id="5608599482" lat="58.4977556" lon="6.6299528" timestamp="2018-05-10T06:45:53Z" uid="3842253" user="NKA_import" version="1">
		<tag k="alt_name" v="Furustøl" />
		<tag k="historic" v="shieling" />
		<tag k="name" v="Furstøl" />
		<tag k="place" v="farm" />
		<tag k="ssr:stedsnr" v="61029" />
		<tag k="ssr:type" v="gard" />
	</node>
	<node changeset="58839628" id="5608599483" lat="58.4043611" lon="6.639675" timestamp="2018-05-10T06:45:53Z" uid="3842253" user="NKA_import" version="1">
		<tag k="alt_name" v="Omdal" />
		<tag k="name" v="Åmdal" />
		<tag k="place" v="farm" />
		<tag k="ssr:stedsnr" v="61369" />
		<tag k="ssr:type" v="bruk" />
	</node>
	<node changeset="58839628" id="5608599484" lat="58.3095278" lon="6.5898306" timestamp="2018-05-10T06:45:54Z" uid="3842253" user="NKA_import" version="1">
		<tag k="name" v="Grønsund" />
		<tag k="place" v="farm" />
		<tag k="ssr:stedsnr" v="606010" />
		<tag k="ssr:type" v="gard" />
	</node>
	<node changeset="58839628" id="5608599485" lat="58.3773472" lon="6.6381194" timestamp="2018-05-10T06:45:54Z" uid="3842253" user="NKA_import" version="1">
		<tag k="name" v="Tona" />
		<tag k="place" v="farm" />
		<tag k="ssr:stedsnr" v="888871" />
		<tag k="ssr:type" v="bruk" />
	</node>
	<node changeset="58839628" id="5608599486" lat="58.2910167" lon="6.4421472" timestamp="2018-05-10T06:45:54Z" uid="3842253" user="NKA_import" version="1">
		<tag k="name" v="Sletta" />
		<tag k="place" v="hamlet" />
		<tag k="ssr:stedsnr" v="584317" />
		<tag k="ssr:type" v="grend" />
	</node>
	<node changeset="58839628" id="5608599487" lat="58.4030131" lon="6.8343188" timestamp="2018-05-10T06:45:54Z" uid="3842253" user="NKA_import" version="1">
		<tag k="name" v="Nedland" />
		<tag k="place" v="hamlet" />
		<tag k="ssr:stedsnr" v="61381" />
		<tag k="ssr:type" v="gard" />
	</node>
	<node changeset="58839628" id="5608599488" lat="58.4377611" lon="6.6554583" timestamp="2018-05-10T06:45:54Z" uid="3842253" user="NKA_import" version="1">
		<tag k="alt_name" v="Målløs" />
		<tag k="name" v="Mållaus" />
		<tag k="place" v="farm" />
		<tag k="ssr:stedsnr" v="164972" />
		<tag k="ssr:type" v="gard" />
	</node>
	<node changeset="58839628" id="5608599489" lat="58.3935611" lon="6.7623361" timestamp="2018-05-10T06:45:54Z" uid="3842253" user="NKA_import" version="1">
		<tag k="name" v="Hamar" />
		<tag k="place" v="farm" />
		<tag k="ssr:stedsnr" v="61388" />
		<tag k="ssr:type" v="bruk" />
	</node>
	<node changeset="58839628" id="5608599490" lat="58.4700365" lon="6.7880646" timestamp="2018-05-10T06:45:54Z" uid="3842253" user="NKA_import" version="1">
		<tag k="name" v="Mydland" />
		<tag k="place" v="hamlet" />
		<tag k="ssr:stedsnr" v="606075" />
		<tag k="ssr:type" v="gard" />
	</node>
	<node changeset="58839628" id="5608599491" lat="58.4203288" lon="6.8254556" timestamp="2018-05-10T06:45:54Z" uid="3842253" user="NKA_import" version="1">
		<tag k="name" v="Øvre Li" />
		<tag k="place" v="farm" />
		<tag k="ssr:stedsnr" v="104243" />
		<tag k="ssr:type" v="bruk" />
	</node>
	<node changeset="58839628" id="5608599492" lat="58.4805861" lon="6.65825" timestamp="2018-05-10T06:45:54Z" uid="3842253" user="NKA_import" version="1">
		<tag k="name" v="Brikland" />
		<tag k="place" v="farm" />
		<tag k="ssr:stedsnr" v="606085" />
		<tag k="ssr:type" v="gard" />
	</node>
	<node changeset="58839628" id="5608599493" lat="58.3697167" lon="6.7775555" timestamp="2018-05-10T06:45:54Z" uid="3842253" user="NKA_import" version="1">
		<tag k="alt_name" v="Eikås, l" />
		<tag k="name" v="Lille Eikås" />
		<tag k="place" v="farm" />
		<tag k="ssr:stedsnr" v="61411" />
		<tag k="ssr:type" v="gard" />
	</node>
	<node changeset="58839628" id="5608599494" lat="58.2296132" lon="6.5524293" timestamp="2018-05-10T06:45:54Z" uid="3842253" user="NKA_import" version="1">
		<tag k="name" v="Rudjord" />
		<tag k="place" v="isolated_dwelling" />
		<tag k="ssr:stedsnr" v="889705" />
		<tag k="ssr:type" v="eneboligMindreBoligbygg" />
	</node>
	<node changeset="58839628" id="5608599495" lat="58.3681333" lon="6.7100639" timestamp="2018-05-10T06:45:55Z" uid="3842253" user="NKA_import" version="1">
		<tag k="name" v="Skailand" />
		<tag k="place" v="farm" />
		<tag k="ssr:stedsnr" v="61422" />
		<tag k="ssr:type" v="gard" />
	</node>
	<node changeset="58839628" id="5608599496" lat="58.280775" lon="6.4029306" timestamp="2018-05-10T06:45:55Z" uid="3842253" user="NKA_import" version="1">
		<tag k="alt_name" v="Ystebø" />
		<tag k="name" v="Østebø" />
		<tag k="place" v="hamlet" />
		<tag k="ssr:stedsnr" v="953741" />
		<tag k="ssr:type" v="grend" />
	</node>
	<node changeset="58839628" id="5608599497" lat="58.4284333" lon="6.6605861" timestamp="2018-05-10T06:45:55Z" uid="3842253" user="NKA_import" version="1">
		<tag k="name" v="Rannestad" />
		<tag k="place" v="farm" />
		<tag k="ssr:stedsnr" v="606108" />
		<tag k="ssr:type" v="gard" />
	</node>
	<node changeset="58839628" id="5608599498" lat="58.3628417" lon="6.73065" timestamp="2018-05-10T06:45:55Z" uid="3842253" user="NKA_import" version="1">
		<tag k="name" v="Lindeland" />
		<tag k="place" v="farm" />
		<tag k="ssr:stedsnr" v="61421" />
		<tag k="ssr:type" v="gard" />
	</node>
	<node changeset="58839628" id="5608599499" lat="58.3420194" lon="6.7819861" timestamp="2018-05-10T06:45:55Z" uid="3842253" user="NKA_import" version="1">
		<tag k="name" v="Dunsæd" />
		<tag k="place" v="farm" />
		<tag k="ssr:stedsnr" v="890506" />
		<tag k="ssr:type" v="bruk" />
	</node>
	<node changeset="58839628" id="5608599500" lat="58.5573611" lon="6.6446556" timestamp="2018-05-10T06:45:55Z" uid="3842253" user="NKA_import" version="1">
		<tag k="alt_name" v="Skrekkelistølen;Skrekelistølen" />
		<tag k="historic" v="shieling" />
		<tag k="name" v="Skregelidstølen" />
		<tag k="place" v="locality" />
		<tag k="ssr:stedsnr" v="85665" />
		<tag k="ssr:type" v="seterStøl" />
	</node>
	<node changeset="58839628" id="5608599501" lat="58.4886139" lon="6.7512861" timestamp="2018-05-10T06:45:55Z" uid="3842253" user="NKA_import" version="1">
		<tag k="alt_name" v="Birkeland" />
		<tag k="name" v="Byrkjeland" />
		<tag k="place" v="farm" />
		<tag k="ssr:stedsnr" v="182033" />
		<tag k="ssr:type" v="gard" />
	</node>
	<node changeset="58839628" id="5608599502" lat="58.2998472" lon="6.7349194" timestamp="2018-05-10T06:45:55Z" uid="3842253" user="NKA_import" version="1">
		<tag k="name" v="Øvre Lian" />
		<tag k="place" v="farm" />
		<tag k="ssr:stedsnr" v="710631" />
		<tag k="ssr:type" v="bruk" />
	</node>
	<node changeset="58839628" id="5608599503" lat="58.4112933" lon="6.6367666" timestamp="2018-05-10T06:45:55Z" uid="3842253" user="NKA_import" version="1">
		<tag k="name" v="Sira" />
		<tag k="place" v="hamlet" />
		<tag k="ssr:stedsnr" v="89826" />
		<tag k="ssr:type" v="grend" />
	</node>
	<node changeset="58839628" id="5608599504" lat="58.2533" lon="6.5682139" timestamp="2018-05-10T06:45:55Z" uid="3842253" user="NKA_import" version="1">
		<tag k="alt_name" v="Lille Håland" />
		<tag k="name" v="Litle Håland" />
		<tag k="place" v="farm" />
		<tag k="ssr:stedsnr" v="182041" />
		<tag k="ssr:type" v="gard" />
	</node>
	<node changeset="58839628" id="5608599505" lat="58.2332333" lon="6.5554194" timestamp="2018-05-10T06:45:56Z" uid="3842253" user="NKA_import" version="1">
		<tag k="name" v="Lega" />
		<tag k="place" v="farm" />
		<tag k="ssr:stedsnr" v="467399" />
		<tag k="ssr:type" v="bruk" />
	</node>
	<node changeset="58839628" id="5608599506" lat="58.4624889" lon="6.7857639" timestamp="2018-05-10T06:45:56Z" uid="3842253" user="NKA_import" version="1">
		<tag k="name" v="Sørbø" />
		<tag k="place" v="farm" />
		<tag k="ssr:stedsnr" v="182054" />
		<tag k="ssr:type" v="bruk" />
	</node>
	<node changeset="58839628" id="5608599507" lat="58.4691389" lon="6.8192111" timestamp="2018-05-10T06:45:56Z" uid="3842253" user="NKA_import" version="1">
		<tag k="alt_name" v="Laugstøl" />
		<tag k="historic" v="shieling" />
		<tag k="name" v="Lavstøl" />
		<tag k="place" v="farm" />
		<tag k="ssr:stedsnr" v="182064" />
		<tag k="ssr:type" v="gard" />
	</node>
	<node changeset="58839628" id="5608599508" lat="58.4051694" lon="6.6472778" timestamp="2018-05-10T06:45:56Z" uid="3842253" user="NKA_import" version="1">
		<tag k="name" v="Hapte" />
		<tag k="place" v="farm" />
		<tag k="ssr:stedsnr" v="584973" />
		<tag k="ssr:type" v="bruk" />
	</node>
	<node changeset="58839628" id="5608599509" lat="58.2475889" lon="6.6371639" timestamp="2018-05-10T06:45:56Z" uid="3842253" user="NKA_import" version="1">
		<tag k="name" v="Fredli" />
		<tag k="place" v="farm" />
		<tag k="ssr:stedsnr" v="892057" />
		<tag k="ssr:type" v="bruk" />
	</node>
	<node changeset="58839628" id="5608599510" lat="58.3791306" lon="6.8502417" timestamp="2018-05-10T06:45:56Z" uid="3842253" user="NKA_import" version="1">
		<tag k="name" v="Krabban" />
		<tag k="place" v="farm" />
		<tag k="ssr:stedsnr" v="892064" />
		<tag k="ssr:type" v="bruk" />
	</node>
	<node changeset="58839628" id="5608599511" lat="58.4673583" lon="6.8164639" timestamp="2018-05-10T06:45:56Z" uid="3842253" user="NKA_import" version="1">
		<tag k="name" v="Unnevoll" />
		<tag k="place" v="farm" />
		<tag k="ssr:stedsnr" v="831384" />
		<tag k="ssr:type" v="bruk" />
	</node>
	<node changeset="58839628" id="5608599512" lat="58.2884306" lon="6.7434528" timestamp="2018-05-10T06:45:56Z" uid="3842253" user="NKA_import" version="1">
		<tag k="alt_name" v="Rødland" />
		<tag k="name" v="Røydland" />
		<tag k="place" v="farm" />
		<tag k="ssr:stedsnr" v="182245" />
		<tag k="ssr:type" v="gard" />
	</node>
	<node changeset="58839628" id="5608599513" lat="58.4578694" lon="6.7590111" timestamp="2018-05-10T06:45:56Z" uid="3842253" user="NKA_import" version="1">
		<tag k="name" v="Budal" />
		<tag k="place" v="farm" />
		<tag k="ssr:stedsnr" v="99473" />
		<tag k="ssr:type" v="gard" />
	</node>
	<node changeset="58839628" id="5608599514" lat="58.2968028" lon="6.7525083" timestamp="2018-05-10T06:45:56Z" uid="3842253" user="NKA_import" version="1">
		<tag k="alt_name" v="Store Løyning" />
		<tag k="name" v="Løyning" />
		<tag k="place" v="farm" />
		<tag k="ssr:stedsnr" v="182253" />
		<tag k="ssr:type" v="gard" />
	</node>
	<node changeset="58839628" id="5608599515" lat="58.2835917" lon="6.671775" timestamp="2018-05-10T06:45:56Z" uid="3842253" user="NKA_import" version="1">
		<tag k="alt_name" v="Rauli" />
		<tag k="name" v="Raudli" />
		<tag k="place" v="isolated_dwelling" />
		<tag k="ssr:stedsnr" v="182266" />
		<tag k="ssr:type" v="eneboligMindreBoligbygg" />
	</node>
	<node changeset="58839628" id="5608599516" lat="58.2481028" lon="6.5523667" timestamp="2018-05-10T06:45:57Z" uid="3842253" user="NKA_import" version="1">
		<tag k="alt_name" v="Lille Botne" />
		<tag k="name" v="Botna" />
		<tag k="place" v="farm" />
		<tag k="ssr:stedsnr" v="346371" />
		<tag k="ssr:type" v="gard" />
	</node>
	<node changeset="58839628" id="5608599517" lat="58.2572944" lon="6.7038056" timestamp="2018-05-10T06:45:57Z" uid="3842253" user="NKA_import" version="1">
		<tag k="alt_name" v="Grundevik" />
		<tag k="name" v="Grunnevik" />
		<tag k="place" v="farm" />
		<tag k="ssr:stedsnr" v="182286" />
		<tag k="ssr:type" v="gard" />
	</node>
	<node changeset="58839628" id="5608599518" lat="58.2952475" lon="6.6904417" timestamp="2018-05-10T06:45:57Z" uid="3842253" user="NKA_import" version="1">
		<tag k="name" v="Austad" />
		<tag k="place" v="village" />
		<tag k="ssr:stedsnr" v="892118" />
		<tag k="ssr:type" v="bygdelagBygd" />
	</node>
	<node changeset="58839628" id="5608599519" lat="58.42055" lon="6.71185" timestamp="2018-05-10T06:45:57Z" uid="3842253" user="NKA_import" version="1">
		<tag k="name" v="Nyvik" />
		<tag k="place" v="farm" />
		<tag k="ssr:stedsnr" v="182369" />
		<tag k="ssr:type" v="bruk" />
	</node>
	<node changeset="58839628" id="5608599520" lat="58.346325" lon="6.8607" timestamp="2018-05-10T06:45:57Z" uid="3842253" user="NKA_import" version="1">
		<tag k="name" v="Grøtteland" />
		<tag k="place" v="farm" />
		<tag k="ssr:stedsnr" v="182443" />
		<tag k="ssr:type" v="gard" />
	</node>
	<node changeset="58839628" id="288935909" lat="58.2127584" lon="6.5812262" timestamp="2018-05-10T06:46:09Z" uid="3842253" user="NKA_import" version="6">
		<tag k="name" v="Rasvåg" />
		<tag k="place" v="village" />
		<tag k="ssr:stedsnr" v="789093" />
		<tag k="ssr:type" v="tettbebyggelse" />
	</node>
	<node changeset="4475853" id="702445557" lat="58.2383376" lon="6.6493115" timestamp="2010-04-20T10:20:27Z" uid="53194" user="Andy S" version="1" />
	<node changeset="4475853" id="702445561" lat="58.2384758" lon="6.648357" timestamp="2010-04-20T10:20:27Z" uid="53194" user="Andy S" version="1" />
	<node changeset="4475853" id="702445563" lat="58.2381824" lon="6.6517379" timestamp="2010-04-20T10:20:28Z" uid="53194" user="Andy S" version="1" />
	<node changeset="4475853" id="702445566" lat="58.238292" lon="6.6520182" timestamp="2010-04-20T10:20:28Z" uid="53194" user="Andy S" version="1" />
	<way changeset="79171065" id="45342049" timestamp="2020-01-03T19:44:59Z" uid="3497659" user="NKA" version="10">
		<tag k="landuse" v="residential" />
		<tag k="name" v="Sira" />
		<tag k="place" v="village" />
		<tag k="population" v="613" />
		<tag k="population:date" v="2019-01-01" />
		<tag k="ref:ssb_tettsted" v="4032" />
		<tag k="ssr:stedsnr" v="364099" />
		<tag k="ssr:type" v="tettsted" />
		<tag k="wikidata" v="Q999320" />
		<tag k="wikipedia" v="en:Sira, Norway" />
		<nd ref="576372012" />
		<nd ref="576372028" />
		<nd ref="576372044" />
		<nd ref="576372064" />
		<nd ref="576372084" />
		<nd ref="576372115" />
		<nd ref="576372128" />
		<nd ref="2583915724" />
		<nd ref="576372136" />
		<nd ref="576372178" />
		<nd ref="576372190" />
		<nd ref="576372012" />
	</way>
	<way changeset="58839628" id="45342027" timestamp="2018-05-10T06:46:17Z" uid="3842253" user="NKA_import" version="6">
		<tag k="landuse" v="residential" />
		<tag k="name" v="Sirnes" />
		<tag k="place" v="neighbourhood" />
		<tag k="ssr:stedsnr" v="243386" />
		<tag k="ssr:type" v="bygdelagBygd" />
		<nd ref="576369539" />
		<nd ref="576369543" />
		<nd ref="2869221773" />
		<nd ref="2869230579" />
		<nd ref="576369545" />
		<nd ref="576369548" />
		<nd ref="576369550" />
		<nd ref="576369553" />
		<nd ref="576369555" />
		<nd ref="5226620652" />
		<nd ref="576369557" />
		<nd ref="576369561" />
		<nd ref="576369539" />
	</way>
	<way changeset="79204398" id="760875981" timestamp="2020-01-05T03:09:53Z" uid="103253" user="gormur" version="1">
		<tag k="leisure" v="park" />
		<tag k="name" v="Fjellparken" />
		<tag k="ssr:stedsnr" v="164099" />
		<tag k="ssr:type" v="park" />
		<nd ref="5608599442" />
		<nd ref="7108397512" />
		<nd ref="7108397511" />
		<nd ref="7108397510" />
		<nd ref="7108397509" />
		<nd ref="7108397508" />
		<nd ref="7108397507" />
		<nd ref="7108397506" />
		<nd ref="5608599442" />
	</way>
	<way changeset="78731165" id="45512238" timestamp="2019-12-22T10:47:08Z" uid="10521807" user="Ssllle" version="4">
		<tag k="landuse" v="industrial" />
		<tag k="name" v="Sveigeskogen" />
		<tag k="ssr:stedsnr" v="588591" />
		<tag k="ssr:type" v="industriområde" />
		<nd ref="579987934" />
		<nd ref="579987935" />
		<nd ref="579987936" />
		<nd ref="579987937" />
		<nd ref="7077205877" />
		<nd ref="7077205878" />
		<nd ref="579987938" />
		<nd ref="579987939" />
		<nd ref="579987940" />
		<nd ref="579987941" />
		<nd ref="579987942" />
		<nd ref="579987943" />
		<nd ref="579987944" />
		<nd ref="579987934" />
	</way>
	<way changeset="58839628" id="55956241" timestamp="2018-05-10T06:46:18Z" uid="3842253" user="NKA_import" version="2">
		<tag k="loc_name" v="Abelsnes" />
		<tag k="name" v="Abelnes" />
		<tag k="place" v="village" />
		<tag k="ssr:stedsnr" v="789136" />
		<tag k="ssr:type" v="bygdelagBygd" />
		<nd ref="527877956" />
		<nd ref="702445615" />
		<nd ref="702445610" />
		<nd ref="702445612" />
		<nd ref="702445633" />
		<nd ref="702445634" />
		<nd ref="702445632" />
		<nd ref="702445606" />
		<nd ref="702445623" />
		<nd ref="702445566" />
		<nd ref="702445563" />
		<nd ref="702445605" />
		<nd ref="702445608" />
		<nd ref="702445613" />
		<nd ref="702445592" />
		<nd ref="702445601" />
		<nd ref="702445603" />
		<nd ref="702445557" />
		<nd ref="702445561" />
		<nd ref="702445597" />
		<nd ref="527877956" />
	</way>
	<way changeset="58839628" id="39856858" timestamp="2018-05-10T06:46:17Z" uid="3842253" user="NKA_import" version="3">
		<tag k="landuse" v="industrial" />
		<tag k="man_made" v="works" />
		<tag k="name" v="Erikstemmen" />
		<tag k="ssr:stedsnr" v="406587" />
		<tag k="ssr:type" v="industriområde" />
		<nd ref="477887861" />
		<nd ref="3603769459" />
		<nd ref="477887863" />
		<nd ref="3603769462" />
		<nd ref="3603769461" />
		<nd ref="477887864" />
		<nd ref="3603769463" />
		<nd ref="3603769465" />
		<nd ref="3603769467" />
		<nd ref="3603769466" />
		<nd ref="3603769464" />
		<nd ref="3603769460" />
		<nd ref="3603769455" />
		<nd ref="3603769457" />
		<nd ref="477887865" />
		<nd ref="3603769454" />
		<nd ref="477887861" />
	</way>
</osm>
