<?xml version="1.0" encoding="UTF-8"?>
<osm generator="osmapis" version="0.6">
	<node id="-52736" lat="60.9048472178" lon="11.1268666713">
		<tag k="name" v="Kubekken" />
		<tag k="ssr:stedsnr" v="748215" />
		<tag k="waterway" v="stream" />
	</node>
	<node id="-52216" lat="61.054091665" lon="11.0878916754">
		<tag k="name" v="Jokumsjøen" />
		<tag k="natural" v="water" />
		<tag k="ssr:stedsnr" v="68616" />
	</node>
	<node id="-52214" lat="60.9854833299" lon="11.1078444401">
		<tag k="name" v="Velttjernet" />
		<tag k="natural" v="water" />
		<tag k="ssr:stedsnr" v="58907" />
	</node>
	<node id="-52722" lat="60.9524749997" lon="11.1481000048">
		<tag k="name" v="Styggdalsbekken" />
		<tag k="ssr:stedsnr" v="737562" />
		<tag k="waterway" v="stream" />
	</node>
	<node id="-52719" lat="61.0930777766" lon="11.051183333">
		<tag k="name" v="Hanaknebekken" />
		<tag k="ssr:stedsnr" v="735486" />
		<tag k="waterway" v="stream" />
	</node>
	<node id="-52717" lat="61.0270319765" lon="11.1140154535">
		<tag k="name" v="Brumundsjøen" />
		<tag k="natural" v="water" />
		<tag k="ssr:stedsnr" v="735290" />
		<tag k="water" v="lake" />
	</node>
	<node id="-52712" lat="61.0845527808" lon="11.1708333264">
		<tag k="name" v="Jomfrudalsbekken" />
		<tag k="ssr:stedsnr" v="723897" />
		<tag k="waterway" v="stream" />
	</node>
	<node id="-52194" lat="61.0346666651" lon="11.1090888921">
		<tag k="name" v="Blåbærholmen" />
		<tag k="place" v="islet" />
		<tag k="ssr:stedsnr" v="40909" />
	</node>
	<node id="-52190" lat="60.7894833316" lon="11.0764055626">
		<tag k="name" v="Vesle-Mjøsa" />
		<tag k="natural" v="bay" />
		<tag k="ssr:stedsnr" v="40562" />
	</node>
	<node id="-52701" lat="60.9595611125" lon="11.172525004">
		<tag k="name" v="Krakholsbekken" />
		<tag k="ssr:stedsnr" v="709384" />
		<tag k="waterway" v="stream" />
	</node>
	<node id="-52697" lat="60.7930555546" lon="11.1239472198">
		<tag k="name" v="Kråkholmen" />
		<tag k="place" v="islet" />
		<tag k="ssr:stedsnr" v="708526" />
	</node>
	<node id="-52693" lat="61.0199750044" lon="11.1220222229">
		<tag k="name" v="Kutangen" />
		<tag k="natural" v="cape" />
		<tag k="ssr:stedsnr" v="707894" />
	</node>
	<node id="-52692" lat="60.9119777789" lon="11.0993083306">
		<tag k="loc_name" v="Myssmørbekken" />
		<tag k="name" v="Mysmørbekken" />
		<tag k="ssr:stedsnr" v="707260" />
		<tag k="waterway" v="stream" />
	</node>
	<node id="-52691" lat="60.9226333332" lon="11.1140722303">
		<tag k="name" v="Nedre Langholmen" />
		<tag k="place" v="islet" />
		<tag k="ssr:stedsnr" v="707257" />
	</node>
	<node id="-52178" lat="60.9255722234" lon="11.14341111">
		<tag k="name" v="Fjelbolsdalsbekken" />
		<tag k="ssr:stedsnr" v="20661" />
		<tag k="waterway" v="stream" />
	</node>
	<node id="-52684" lat="60.7952750009" lon="11.1134527795">
		<tag k="name" v="Åkersvika" />
		<tag k="natural" v="bay" />
		<tag k="ssr:stedsnr" v="677916" />
	</node>
	<node id="-52678" lat="60.9764000034" lon="11.2011999921">
		<tag k="name" v="Grønbekken" />
		<tag k="ssr:stedsnr" v="677522" />
		<tag k="waterway" v="stream" />
	</node>
	<node id="-52161" lat="60.9525000021" lon="11.1076055515">
		<tag k="name" v="Tørbustilbekken" />
		<tag k="ssr:stedsnr" v="9563" />
		<tag k="waterway" v="stream" />
	</node>
	<node id="-52159" lat="60.9770138897" lon="11.1778500051">
		<tag k="alt_name" v="Kveådammen" />
		<tag k="name" v="Kveåsjøen" />
		<tag k="natural" v="water" />
		<tag k="ssr:stedsnr" v="9537" />
	</node>
	<node id="-52668" lat="60.7926138895" lon="11.0360055603">
		<tag k="name" v="Domkirkeodden" />
		<tag k="natural" v="cape" />
		<tag k="ssr:stedsnr" v="676480" />
	</node>
	<node id="-52666" lat="61.0188499965" lon="11.1949638883">
		<tag k="name" v="Lavsjøen" />
		<tag k="natural" v="water" />
		<tag k="ssr:stedsnr" v="674280" />
	</node>
	<node id="-52153" lat="61.08451111" lon="11.1220555499">
		<tag k="name" v="Godmyrbekken" />
		<tag k="ssr:stedsnr" v="7475" />
		<tag k="waterway" v="stream" />
	</node>
	<node id="-52152" lat="61.0677888856" lon="11.1038777815">
		<tag k="name" v="Tredvebekken" />
		<tag k="ssr:stedsnr" v="7267" />
		<tag k="waterway" v="stream" />
	</node>
	<node id="-52662" lat="60.9986166665" lon="11.2160638895">
		<tag k="name" v="Killingbekken" />
		<tag k="ssr:stedsnr" v="662095" />
		<tag k="waterway" v="stream" />
	</node>
	<node id="-52655" lat="60.9583472208" lon="11.1343000063">
		<tag k="name" v="Bukkhølholmen" />
		<tag k="place" v="islet" />
		<tag k="ssr:stedsnr" v="647498" />
	</node>
	<node id="-52124" lat="60.7947972192" lon="11.0363222213">
		<tag k="name" v="Rosenlundvika" />
		<tag k="natural" v="bay" />
		<tag k="ssr:stedsnr" v="891500" />
	</node>
	<node id="-52035" lat="61.034958336" lon="11.1110722189">
		<tag k="name" v="Lemodden" />
		<tag k="natural" v="cape" />
		<tag k="ssr:stedsnr" v="343914" />
	</node>
	<node id="-52112" lat="60.7998333319" lon="11.1631166582">
		<tag k="name" v="Frognertjernet" />
		<tag k="natural" v="water" />
		<tag k="old_name" v="Frogntjernet" />
		<tag k="ssr:stedsnr" v="890552" />
	</node>
	<node id="-52107" lat="60.9275388869" lon="11.1088777774">
		<tag k="name" v="Gråbendalsbekken" />
		<tag k="ssr:stedsnr" v="889239" />
		<tag k="waterway" v="stream" />
	</node>
	<node id="-52614" lat="60.9404027778" lon="11.1489916646">
		<tag k="name" v="Svartdalsbekken" />
		<tag k="ssr:stedsnr" v="615608" />
		<tag k="waterway" v="stream" />
	</node>
	<node id="-52101" lat="60.9702305564" lon="11.1674499952">
		<tag k="name" v="Nybubekken" />
		<tag k="ssr:stedsnr" v="405523" />
		<tag k="waterway" v="stream" />
	</node>
	<node id="-52611" lat="61.1120944465" lon="11.0320277737">
		<tag k="name" v="Kråleråa" />
		<tag k="ssr:stedsnr" v="614522" />
		<tag k="waterway" v="stream" />
	</node>
	<node id="-52098" lat="61.0321111105" lon="11.1150888799">
		<tag k="name" v="Granodden" />
		<tag k="natural" v="cape" />
		<tag k="ssr:stedsnr" v="404891" />
	</node>
	<node id="-52609" lat="61.0105388912" lon="11.1333527827">
		<tag k="name" v="Hestbekken" />
		<tag k="ssr:stedsnr" v="614295" />
		<tag k="waterway" v="stream" />
	</node>
	<node id="-52608" lat="61.0903249978" lon="11.1267194451">
		<tag k="name" v="Nysæterbekken" />
		<tag k="ssr:stedsnr" v="613496" />
		<tag k="waterway" v="stream" />
	</node>
	<node id="-52606" lat="60.9934749995" lon="11.201072228">
		<tag k="name" v="Mørkholmbekken" />
		<tag k="ssr:stedsnr" v="605126" />
		<tag k="waterway" v="stream" />
	</node>
	<node id="-52605" lat="61.1130861118" lon="11.1240888946">
		<tag k="name" v="Breborgbekken" />
		<tag k="ssr:stedsnr" v="603956" />
		<tag k="waterway" v="stream" />
	</node>
	<node id="-52603" lat="60.9813638898" lon="11.189586119">
		<tag k="name" v="Kveåa" />
		<tag k="ssr:stedsnr" v="602368" />
		<tag k="waterway" v="stream" />
	</node>
	<node id="-52089" lat="60.9219166635" lon="11.1524083291">
		<tag k="name" v="Stormyrbekken" />
		<tag k="ssr:stedsnr" v="401278" />
		<tag k="waterway" v="stream" />
	</node>
	<node id="-52087" lat="60.9286861115" lon="11.1511749941">
		<tag k="name" v="Flagstadhyttbekken" />
		<tag k="ssr:stedsnr" v="384221" />
		<tag k="waterway" v="stream" />
	</node>
	<node id="-52073" lat="60.903600003" lon="11.2330527689">
		<tag k="name" v="Vollbekken" />
		<tag k="ssr:stedsnr" v="373626" />
		<tag k="waterway" v="stream" />
	</node>
	<node id="-52072" lat="60.962152775" lon="11.2019861142">
		<tag k="name" v="Stensæterbekken" />
		<tag k="ssr:stedsnr" v="373600" />
		<tag k="waterway" v="stream" />
	</node>
	<node id="-52578" lat="60.8961333375" lon="11.1262000003">
		<tag k="name" v="Brennsæterbekken" />
		<tag k="ssr:stedsnr" v="585523" />
		<tag k="waterway" v="stream" />
	</node>
	<node id="-52064" lat="61.0719444461" lon="11.194680548">
		<tag k="name" v="Rosendalsbekken" />
		<tag k="ssr:stedsnr" v="362125" />
		<tag k="waterway" v="stream" />
	</node>
	<node id="-52574" lat="60.7827277783" lon="11.1675861065">
		<tag k="name" v="Svartelva" />
		<tag k="ssr:stedsnr" v="555895" />
		<tag k="waterway" v="river" />
	</node>
	<node id="-52573" lat="60.7880500011" lon="11.2198388903">
		<tag k="name" v="Lageråa" />
		<tag k="ssr:stedsnr" v="555883" />
		<tag k="waterway" v="stream" />
	</node>
	<node id="-52059" lat="61.1173472223" lon="11.0834416694">
		<tag k="name" v="Morgenvollbekken" />
		<tag k="ssr:stedsnr" v="360938" />
		<tag k="waterway" v="stream" />
	</node>
	<node id="-52567" lat="60.8589500041" lon="11.275750008">
		<tag k="name" v="Stabekken" />
		<tag k="ssr:stedsnr" v="555711" />
		<tag k="waterway" v="stream" />
	</node>
	<node id="-52552" lat="61.1357666639" lon="11.0703916646">
		<tag k="name" v="Nordkappbekken" />
		<tag k="ssr:stedsnr" v="553520" />
		<tag k="waterway" v="stream" />
	</node>
	<node id="-52551" lat="61.1266000033" lon="11.052763886">
		<tag k="name" v="Raudfjellsbekken" />
		<tag k="ssr:stedsnr" v="553511" />
		<tag k="waterway" v="stream" />
	</node>
	<node id="-52550" lat="61.0232416636" lon="11.140633336">
		<tag k="name" v="Bjørkholbekken" />
		<tag k="ssr:stedsnr" v="553276" />
		<tag k="waterway" v="stream" />
	</node>
	<node id="-52037" lat="60.945555553" lon="11.1633972246">
		<tag k="name" v="Måsæterbekken" />
		<tag k="ssr:stedsnr" v="344475" />
		<tag k="waterway" v="stream" />
	</node>
	<node id="-52548" lat="61.0272805518" lon="11.1981222147">
		<tag k="name" v="Krokåa" />
		<tag k="ssr:stedsnr" v="553257" />
		<tag k="waterway" v="stream" />
	</node>
	<node id="-52547" lat="61.0711277812" lon="11.1242277801">
		<tag k="name" v="Grønholtbekken" />
		<tag k="ssr:stedsnr" v="553253" />
		<tag k="waterway" v="stream" />
	</node>
	<node id="-52546" lat="61.0610249974" lon="11.0945888938">
		<tag k="name" v="Grytbekken" />
		<tag k="ssr:stedsnr" v="553248" />
		<tag k="waterway" v="stream" />
	</node>
	<node id="-52544" lat="60.9505305527" lon="11.1252305572">
		<tag k="name" v="Mæresbekken" />
		<tag k="ssr:stedsnr" v="544251" />
		<tag k="waterway" v="stream" />
	</node>
	<node id="-52538" lat="60.8904277736" lon="11.1755277689">
		<tag k="name" v="Kirkebybekken" />
		<tag k="ssr:stedsnr" v="541465" />
		<tag k="waterway" v="stream" />
	</node>
	<node id="-52532" lat="60.7927444464" lon="11.064441667">
		<tag k="name" v="Høyensalodden" />
		<tag k="natural" v="cape" />
		<tag k="old_name" v="Høiensalodden" />
		<tag k="ssr:stedsnr" v="527477" />
	</node>
	<node id="-52520" lat="61.0159361126" lon="11.1220083362">
		<tag k="name" v="Hestbekkvika" />
		<tag k="natural" v="bay" />
		<tag k="ssr:stedsnr" v="525881" />
	</node>
	<node id="-52007" lat="61.1211027784" lon="11.1118555601">
		<tag k="name" v="Storbekken" />
		<tag k="ssr:stedsnr" v="310475" />
		<tag k="waterway" v="stream" />
	</node>
	<node id="-52006" lat="61.0553027801" lon="11.1639722225">
		<tag k="name" v="Lavåa" />
		<tag k="old_name" v="Lauvåa" />
		<tag k="ssr:stedsnr" v="310242" />
		<tag k="waterway" v="river" />
	</node>
	<node id="-52516" lat="60.906824996" lon="11.1090694393">
		<tag k="name" v="Kammershølen" />
		<tag k="place" v="locality" />
		<tag k="ssr:stedsnr" v="525564" />
	</node>
	<node id="-52003" lat="60.8308805591" lon="11.1729944516">
		<tag k="name" v="Nashaugbekken" />
		<tag k="ssr:stedsnr" v="419579" />
		<tag k="waterway" v="stream" />
	</node>
	<node id="-52001" lat="60.8880555565" lon="11.2461055498">
		<tag k="name" v="Krokgranbekken" />
		<tag k="ssr:stedsnr" v="302107" />
		<tag k="waterway" v="stream" />
	</node>
	<node id="-51999" lat="60.9822861127" lon="11.1148611067">
		<tag k="name" v="Veltbekken" />
		<tag k="ssr:stedsnr" v="300892" />
		<tag k="waterway" v="stream" />
	</node>
	<node id="-51982" lat="61.0233777803" lon="11.1698222178">
		<tag k="name" v="Kråktjernet" />
		<tag k="natural" v="water" />
		<tag k="ssr:stedsnr" v="284142" />
	</node>
	<node id="-52487" lat="60.8923694403" lon="11.1034277837">
		<tag k="name" v="Flagstadelva" />
		<tag k="ssr:stedsnr" v="494603" />
		<tag k="waterway" v="river" />
	</node>
	<node id="-52332" lat="60.9740888925" lon="11.1367555554">
		<tag k="name" v="Overgroningen" />
		<tag k="natural" v="water" />
		<tag k="ssr:stedsnr" v="177354" />
		<tag k="water" v="lake" />
	</node>
	<node id="-51972" lat="60.9294333353" lon="11.0861999927">
		<tag k="name" v="Veslbekken" />
		<tag k="ssr:stedsnr" v="282208" />
		<tag k="waterway" v="stream" />
	</node>
	<node id="-52479" lat="61.0763749999" lon="11.1027249962">
		<tag k="name" v="Spjeldsjøen" />
		<tag k="natural" v="water" />
		<tag k="ssr:stedsnr" v="492458" />
		<tag k="water" v="lake" />
	</node>
	<node id="-52476" lat="60.9880388874" lon="11.1238027737">
		<tag k="name" v="Søthølbekken" />
		<tag k="ssr:stedsnr" v="482890" />
		<tag k="waterway" v="stream" />
	</node>
	<node id="-52350" lat="60.9443500031" lon="11.1369749912">
		<tag k="name" v="Hattbekken" />
		<tag k="ssr:stedsnr" v="191541" />
		<tag k="waterway" v="stream" />
	</node>
	<node id="-52465" lat="60.9448000038" lon="11.1469277725">
		<tag k="name" v="Svarttjernet" />
		<tag k="natural" v="water" />
		<tag k="ssr:stedsnr" v="466468" />
	</node>
	<node id="-52447" lat="60.9642555575" lon="11.1331361043">
		<tag k="name" v="Bukkhølbekken" />
		<tag k="old_name" v="Borkflotbekken" />
		<tag k="ssr:stedsnr" v="445557" />
		<tag k="waterway" v="stream" />
	</node>
	<node id="-52434" lat="61.1487166652" lon="11.0803833321">
		<tag k="name" v="Kvannbekken" />
		<tag k="ssr:stedsnr" v="432508" />
		<tag k="waterway" v="stream" />
	</node>
	<node id="-52768" lat="60.9118000018" lon="11.182502774">
		<tag k="alt_name" v="Gåsbuelva" />
		<tag k="name" v="Gåsbubekken" />
		<tag k="ssr:stedsnr" v="798572" />
		<tag k="waterway" v="stream" />
	</node>
	<node id="-52914" lat="60.9632305512" lon="11.1338833325">
		<tag k="name" v="Bukkhøldammen" />
		<tag k="ssr:stedsnr" v="951507" />
		<tag k="waterway" v="dam" />
	</node>
	<node id="-52401" lat="60.9781499995" lon="11.1683500069">
		<tag k="name" v="Holtbekken" />
		<tag k="ssr:stedsnr" v="252489" />
		<tag k="waterway" v="stream" />
	</node>
	<node id="-52400" lat="60.7997138893" lon="11.0255555521">
		<tag k="name" v="Martodden" />
		<tag k="natural" v="cape" />
		<tag k="ssr:stedsnr" v="252449" />
	</node>
	<node id="-52394" lat="61.1129805582" lon="11.110955554">
		<tag k="name" v="Kalvhølsbekken" />
		<tag k="ssr:stedsnr" v="239962" />
		<tag k="waterway" v="stream" />
	</node>
	<node id="-52392" lat="61.0977527805" lon="11.1347388859">
		<tag k="name" v="Nesholmen" />
		<tag k="place" v="islet" />
		<tag k="ssr:stedsnr" v="238931" />
	</node>
	<node id="-52390" lat="60.9806000017" lon="11.126461103">
		<tag k="name" v="Bjønnholtbekken" />
		<tag k="ssr:stedsnr" v="239925" />
		<tag k="waterway" v="stream" />
	</node>
	<node id="-52895" lat="60.96117222" lon="11.1705416694">
		<tag k="name" v="Nybubekken" />
		<tag k="ssr:stedsnr" v="931593" />
		<tag k="waterway" v="stream" />
	</node>
	<node id="-52878" lat="60.9139416683" lon="11.1158833353">
		<tag k="name" v="Kluksæterbekken" />
		<tag k="ssr:stedsnr" v="919601" />
		<tag k="waterway" v="stream" />
	</node>
	<node id="-52871" lat="61.0721472191" lon="11.1390416608">
		<tag k="name" v="Ingridsbekken" />
		<tag k="ssr:stedsnr" v="917226" />
		<tag k="waterway" v="stream" />
	</node>
	<node id="-52869" lat="60.94112222" lon="11.1231194433">
		<tag k="name" v="Tørbustilfallene" />
		<tag k="natural" v="waterfall" />
		<tag k="ssr:stedsnr" v="908265" />
	</node>
	<node id="-52866" lat="61.1125999975" lon="11.0995999918">
		<tag k="name" v="Børstadvollbekken" />
		<tag k="ssr:stedsnr" v="907939" />
		<tag k="waterway" v="stream" />
	</node>
	<node id="-52864" lat="61.0305833349" lon="11.1993194455">
		<tag k="name" v="Kroktjernet" />
		<tag k="natural" v="water" />
		<tag k="ssr:stedsnr" v="906089" />
	</node>
	<node id="-52351" lat="60.9635000009" lon="11.1520416594">
		<tag k="name" v="Nybusjøen" />
		<tag k="natural" v="water" />
		<tag k="ssr:stedsnr" v="191544" />
	</node>
	<node id="-52862" lat="61.072155559" lon="11.0793722214">
		<tag k="name" v="Navnløstjernet" />
		<tag k="natural" v="water" />
		<tag k="ssr:stedsnr" v="905874" />
	</node>
	<node id="-52343" lat="61.0885749996" lon="11.1013805505">
		<tag k="name" v="Spjeldåa" />
		<tag k="ssr:stedsnr" v="189455" />
		<tag k="waterway" v="stream" />
	</node>
	<node id="-52341" lat="61.0645555586" lon="11.2161444418">
		<tag k="name" v="Kvitstenbekken" />
		<tag k="ssr:stedsnr" v="189227" />
		<tag k="waterway" v="stream" />
	</node>
	<node id="-52337" lat="60.9419166683" lon="11.1302111177">
		<tag k="name" v="Himmelbekken" />
		<tag k="ssr:stedsnr" v="180242" />
		<tag k="waterway" v="stream" />
	</node>
	<node id="-52844" lat="60.8648749966" lon="11.1285499911">
		<tag k="name" v="Torsgårdsbekken" />
		<tag k="ssr:stedsnr" v="859669" />
		<tag k="waterway" v="stream" />
	</node>
	<node id="-52328" lat="61.1161638932" lon="11.0481666643">
		<tag k="name" v="Bubekken" />
		<tag k="ssr:stedsnr" v="176195" />
		<tag k="waterway" v="stream" />
	</node>
	<node id="-52839" lat="60.7884333365" lon="11.073000004">
		<tag k="name" v="Tjuvholmen" />
		<tag k="natural" v="cape" />
		<tag k="ssr:stedsnr" v="859474" />
	</node>
	<node id="-52824" lat="61.0948777753" lon="11.0721944489">
		<tag k="name" v="Skjæritbekken" />
		<tag k="ssr:stedsnr" v="844187" />
		<tag k="waterway" v="stream" />
	</node>
	<node id="-52823" lat="61.1088472238" lon="11.07030833">
		<tag k="name" v="Kjæringbekken" />
		<tag k="ssr:stedsnr" v="844183" />
		<tag k="waterway" v="stream" />
	</node>
	<node id="-52297" lat="60.8414805529" lon="11.1384805465">
		<tag k="name" v="Tomterbekken" />
		<tag k="ssr:stedsnr" v="130715" />
		<tag k="waterway" v="stream" />
	</node>
	<node id="-52294" lat="60.8633805553" lon="11.1482999917">
		<tag k="name" v="Dalbybekken" />
		<tag k="ssr:stedsnr" v="130697" />
		<tag k="waterway" v="stream" />
	</node>
	<node id="-52288" lat="60.9178500028" lon="11.1972750025">
		<tag k="name" v="Østeråa" />
		<tag k="ssr:stedsnr" v="130580" />
		<tag k="waterway" v="stream" />
	</node>
	<node id="-52278" lat="61.1122944452" lon="11.0409305513">
		<tag k="name" v="Kålåa" />
		<tag k="ssr:stedsnr" v="116174" />
		<tag k="waterway" v="stream" />
	</node>
	<node id="-52772" lat="61.1023249975" lon="11.0800250087">
		<tag k="name" v="Svarttjernet" />
		<tag k="natural" v="water" />
		<tag k="ssr:stedsnr" v="796513" />
	</node>
	<node id="-52771" lat="61.0126988845" lon="11.1128009206">
		<tag k="alt_name" v="Ørtjennet" />
		<tag k="name" v="Ørtjernet" />
		<tag k="natural" v="water" />
		<tag k="ssr:stedsnr" v="796287" />
	</node>
	<node id="-52256" lat="60.9264194451" lon="11.120941673">
		<tag k="name" v="Øvre Langholmen" />
		<tag k="place" v="islet" />
		<tag k="ssr:stedsnr" v="100205" />
	</node>
	<node id="-52767" lat="60.9615000001" lon="11.1246749981">
		<tag k="name" v="Haugsæterbekken" />
		<tag k="ssr:stedsnr" v="798546" />
		<tag k="waterway" v="stream" />
	</node>
	<node id="-52765" lat="60.9954250015" lon="11.2089750059">
		<tag k="name" v="Svartholbekken" />
		<tag k="ssr:stedsnr" v="798518" />
		<tag k="waterway" v="stream" />
	</node>
	<node id="-52763" lat="61.108152777" lon="11.1046833328">
		<tag k="name" v="Stangvollbekken" />
		<tag k="ssr:stedsnr" v="785962" />
		<tag k="waterway" v="stream" />
	</node>
	<node id="-52248" lat="60.9311500034" lon="11.1314750013">
		<tag k="name" v="Puttsjøen" />
		<tag k="natural" v="water" />
		<tag k="ssr:stedsnr" v="81236" />
		<tag k="water" v="lake" />
	</node>
	<node id="-52241" lat="60.8179250023" lon="11.1604777733">
		<tag k="name" v="Finsalbekken" />
		<tag k="ssr:stedsnr" v="70817" />
		<tag k="waterway" v="stream" />
	</node>
</osm>
