<?xml version="1.0" encoding="UTF-8"?>
<osm generator="osmapis" version="0.6">
	<node id="-198538" lat="59.317044448" lon="10.1541388904">
		<tag k="amenity" v="nursing_home" />
		<tag k="old_name" v="Hjemmet for døve" />
		<tag k="ssr:date" v="2017-01-19" />
		<tag k="ssr:gruppe" v="institusjoner" />
		<tag k="ssr:hovedgruppe" v="bebyggelse" />
		<tag k="ssr:stedsnr" v="88172" />
		<tag k="ssr:type" v="helseinstitusjon" />
	</node>
	<node id="-199876" lat="59.1380444417" lon="10.2629722189">
		<tag k="fixme" v="consider natural=peak for the most distinct mountains in the district" />
		<tag k="natural" v="hill" />
		<tag k="old_name" v="Engebretås" />
		<tag k="place" v="locality" />
		<tag k="ssr:date" v="2017-01-19" />
		<tag k="ssr:gruppe" v="høyder" />
		<tag k="ssr:hovedgruppe" v="terreng" />
		<tag k="ssr:stedsnr" v="768263" />
		<tag k="ssr:type" v="ås" />
	</node>
	<node id="-199842" lat="59.1380444417" lon="10.2629722189">
		<tag k="fixme" v="consider natural=peak for the most distinct mountains in the district" />
		<tag k="natural" v="hill" />
		<tag k="old_name" v="Kongen" />
		<tag k="place" v="locality" />
		<tag k="ssr:date" v="2017-01-19" />
		<tag k="ssr:gruppe" v="høyder" />
		<tag k="ssr:hovedgruppe" v="terreng" />
		<tag k="ssr:stedsnr" v="755720" />
		<tag k="ssr:type" v="ås" />
	</node>
	<node id="-200074" lat="59.1478611073" lon="10.3282305472">
		<tag k="fixme" v="consider seamark:type=rock or natural=shoal" />
		<tag k="old_name" v="Årøtangen" />
		<tag k="place" v="islet" />
		<tag k="ssr:date" v="2017-01-19" />
		<tag k="ssr:gruppe" v="grunnerISjø" />
		<tag k="ssr:hovedgruppe" v="sjø" />
		<tag k="ssr:stedsnr" v="875303" />
		<tag k="ssr:type" v="skjærISjø" />
	</node>
</osm>
