<?xml version="1.0" encoding="UTF-8"?>
<osm generator="osmapis" version="0.6">
	<node id="-200062" lat="59.1288333307" lon="10.2196944394">
		<tag k="loc_name" v="Sandefjord" />
		<tag k="name" v="Sandefjord kommune" />
		<tag k="ssr:date" v="2017-01-19" />
		<tag k="ssr:gruppe" v="administrativeIndelinger" />
		<tag k="ssr:hovedgruppe" v="offentligAdministrasjon" />
		<tag k="ssr:stedsnr" v="752262" />
		<tag k="ssr:type" v="kommune" />
	</node>
	<node id="-198300" lat="59.1139458793" lon="10.2692942942">
		<tag k="name" v="Ormestadpina" />
		<tag k="ssr:date" v="2019-05-31" />
		<tag k="ssr:gruppe" v="veg" />
		<tag k="ssr:hovedgruppe" v="infrastruktur" />
		<tag k="ssr:stedsnr" v="1047100" />
		<tag k="ssr:type" v="adressenavn" />
	</node>
	<node id="-198389" lat="59.2205414261" lon="10.3705430254">
		<tag k="name" v="Verjø" />
		<tag k="ssr:date" v="2019-05-31" />
		<tag k="ssr:gruppe" v="veg" />
		<tag k="ssr:hovedgruppe" v="infrastruktur" />
		<tag k="ssr:stedsnr" v="1052805" />
		<tag k="ssr:type" v="adressenavn" />
	</node>
	<node id="-198388" lat="59.1960868815" lon="10.3368554355">
		<tag k="name" v="Ravnø" />
		<tag k="ssr:date" v="2019-05-31" />
		<tag k="ssr:gruppe" v="veg" />
		<tag k="ssr:hovedgruppe" v="infrastruktur" />
		<tag k="ssr:stedsnr" v="1052799" />
		<tag k="ssr:type" v="adressenavn" />
	</node>
	<node id="-198387" lat="59.2255015006" lon="10.371351736">
		<tag k="name" v="Brunstadodden" />
		<tag k="ssr:date" v="2019-05-31" />
		<tag k="ssr:gruppe" v="veg" />
		<tag k="ssr:hovedgruppe" v="infrastruktur" />
		<tag k="ssr:stedsnr" v="1052769" />
		<tag k="ssr:type" v="adressenavn" />
	</node>
	<node id="-198256" lat="59.1163465156" lon="10.27086774">
		<tag k="name" v="Gokstadholmen" />
		<tag k="ssr:date" v="2019-05-31" />
		<tag k="ssr:gruppe" v="veg" />
		<tag k="ssr:hovedgruppe" v="infrastruktur" />
		<tag k="ssr:stedsnr" v="1045523" />
		<tag k="ssr:type" v="adressenavn" />
	</node>
	<node id="-198245" lat="59.0838108746" lon="10.2313580279">
		<tag k="name" v="Furuholmen" />
		<tag k="ssr:date" v="2019-05-31" />
		<tag k="ssr:gruppe" v="veg" />
		<tag k="ssr:hovedgruppe" v="infrastruktur" />
		<tag k="ssr:stedsnr" v="1045502" />
		<tag k="ssr:type" v="adressenavn" />
	</node>
	<node id="-198500" lat="59.1465075276" lon="10.2947632808">
		<tag k="name" v="Neskollen" />
		<tag k="ssr:date" v="2019-12-12" />
		<tag k="ssr:gruppe" v="veg" />
		<tag k="ssr:hovedgruppe" v="infrastruktur" />
		<tag k="ssr:stedsnr" v="1074130" />
		<tag k="ssr:type" v="adressenavn" />
	</node>
	<node id="-198499" lat="59.0838670489" lon="10.2112225675">
		<tag k="name" v="Berganskauen" />
		<tag k="ssr:date" v="2019-12-12" />
		<tag k="ssr:gruppe" v="veg" />
		<tag k="ssr:hovedgruppe" v="infrastruktur" />
		<tag k="ssr:stedsnr" v="1074129" />
		<tag k="ssr:type" v="adressenavn" />
	</node>
	<node id="-198498" lat="59.1315988348" lon="10.2020507224">
		<tag k="name" v="Kolonihagen" />
		<tag k="ssr:date" v="2019-12-12" />
		<tag k="ssr:gruppe" v="veg" />
		<tag k="ssr:hovedgruppe" v="infrastruktur" />
		<tag k="ssr:stedsnr" v="1074128" />
		<tag k="ssr:type" v="adressenavn" />
	</node>
	<node id="-198497" lat="59.1363212736" lon="10.1988060762">
		<tag k="name" v="Buengstien" />
		<tag k="ssr:date" v="2019-12-12" />
		<tag k="ssr:gruppe" v="veg" />
		<tag k="ssr:hovedgruppe" v="infrastruktur" />
		<tag k="ssr:stedsnr" v="1074127" />
		<tag k="ssr:type" v="adressenavn" />
	</node>
	<node id="-198202" lat="59.0840914285" lon="10.2897081522">
		<tag k="name" v="Eianholmen" />
		<tag k="ssr:date" v="2019-05-31" />
		<tag k="ssr:gruppe" v="veg" />
		<tag k="ssr:hovedgruppe" v="infrastruktur" />
		<tag k="ssr:stedsnr" v="1044919" />
		<tag k="ssr:type" v="adressenavn" />
	</node>
	<node id="-198201" lat="59.1323204361" lon="10.3099990591">
		<tag k="name" v="Båstadskjæra" />
		<tag k="ssr:date" v="2019-05-31" />
		<tag k="ssr:gruppe" v="veg" />
		<tag k="ssr:hovedgruppe" v="infrastruktur" />
		<tag k="ssr:stedsnr" v="1044790" />
		<tag k="ssr:type" v="adressenavn" />
	</node>
	<node id="-198224" lat="59.0876943488" lon="10.2290223811">
		<tag k="name" v="Fjellholmen" />
		<tag k="ssr:date" v="2019-05-31" />
		<tag k="ssr:gruppe" v="veg" />
		<tag k="ssr:hovedgruppe" v="infrastruktur" />
		<tag k="ssr:stedsnr" v="1045397" />
		<tag k="ssr:type" v="adressenavn" />
	</node>
	<node id="-198222" lat="59.0946465305" lon="10.2299169451">
		<tag k="name" v="Fredøy" />
		<tag k="ssr:date" v="2019-05-31" />
		<tag k="ssr:gruppe" v="veg" />
		<tag k="ssr:hovedgruppe" v="infrastruktur" />
		<tag k="ssr:stedsnr" v="1045207" />
		<tag k="ssr:type" v="adressenavn" />
	</node>
	<node id="-198242" lat="59.1022638586" lon="10.279966797">
		<tag k="name" v="Grindholmen" />
		<tag k="ssr:date" v="2019-05-31" />
		<tag k="ssr:gruppe" v="veg" />
		<tag k="ssr:hovedgruppe" v="infrastruktur" />
		<tag k="ssr:stedsnr" v="1045513" />
		<tag k="ssr:type" v="adressenavn" />
	</node>
	<node id="-198199" lat="59.0841940426" lon="10.2568874741">
		<tag k="name" v="Buerøya" />
		<tag k="ssr:date" v="2019-05-31" />
		<tag k="ssr:gruppe" v="veg" />
		<tag k="ssr:hovedgruppe" v="infrastruktur" />
		<tag k="ssr:stedsnr" v="1044180" />
		<tag k="ssr:type" v="adressenavn" />
	</node>
	<node id="-198198" lat="59.0764583783" lon="10.2375357523">
		<tag k="name" v="Beinskjæra" />
		<tag k="ssr:date" v="2019-05-31" />
		<tag k="ssr:gruppe" v="veg" />
		<tag k="ssr:hovedgruppe" v="infrastruktur" />
		<tag k="ssr:stedsnr" v="1042924" />
		<tag k="ssr:type" v="adressenavn" />
	</node>
	<node id="-198330" lat="59.0877275436" lon="10.2312050742">
		<tag k="name" v="Østre Bjerkholmen" />
		<tag k="ssr:date" v="2019-05-31" />
		<tag k="ssr:gruppe" v="veg" />
		<tag k="ssr:hovedgruppe" v="infrastruktur" />
		<tag k="ssr:stedsnr" v="1051026" />
		<tag k="ssr:type" v="adressenavn" />
	</node>
	<node id="-198329" lat="59.1108082146" lon="10.2622451224">
		<tag k="name" v="Vikaodden" />
		<tag k="ssr:date" v="2019-05-31" />
		<tag k="ssr:gruppe" v="veg" />
		<tag k="ssr:hovedgruppe" v="infrastruktur" />
		<tag k="ssr:stedsnr" v="1050997" />
		<tag k="ssr:type" v="adressenavn" />
	</node>
	<node id="-198328" lat="59.0818510072" lon="10.2324555584">
		<tag k="name" v="Vassholmen" />
		<tag k="ssr:date" v="2019-05-31" />
		<tag k="ssr:gruppe" v="veg" />
		<tag k="ssr:hovedgruppe" v="infrastruktur" />
		<tag k="ssr:stedsnr" v="1050882" />
		<tag k="ssr:type" v="adressenavn" />
	</node>
	<node id="-198327" lat="59.0821557705" lon="10.2315464063">
		<tag k="name" v="Vasskalven" />
		<tag k="ssr:date" v="2019-05-31" />
		<tag k="ssr:gruppe" v="veg" />
		<tag k="ssr:hovedgruppe" v="infrastruktur" />
		<tag k="ssr:stedsnr" v="1050881" />
		<tag k="ssr:type" v="adressenavn" />
	</node>
	<node id="-198326" lat="59.0889877906" lon="10.2298452883">
		<tag k="name" v="Vestre Bjerkholmen" />
		<tag k="ssr:date" v="2019-05-31" />
		<tag k="ssr:gruppe" v="veg" />
		<tag k="ssr:hovedgruppe" v="infrastruktur" />
		<tag k="ssr:stedsnr" v="1050866" />
		<tag k="ssr:type" v="adressenavn" />
	</node>
	<node id="-198325" lat="59.0847330695" lon="10.2287082953">
		<tag k="name" v="Vestre Furuholmen" />
		<tag k="ssr:date" v="2019-05-31" />
		<tag k="ssr:gruppe" v="veg" />
		<tag k="ssr:hovedgruppe" v="infrastruktur" />
		<tag k="ssr:stedsnr" v="1050865" />
		<tag k="ssr:type" v="adressenavn" />
	</node>
	<node id="-198324" lat="59.0845553058" lon="10.282825588">
		<tag k="name" v="Tossen" />
		<tag k="ssr:date" v="2019-05-31" />
		<tag k="ssr:gruppe" v="veg" />
		<tag k="ssr:hovedgruppe" v="infrastruktur" />
		<tag k="ssr:stedsnr" v="1050804" />
		<tag k="ssr:type" v="adressenavn" />
	</node>
	<node id="-198322" lat="59.0777896228" lon="10.2326112761">
		<tag k="name" v="Uleholmen nordre" />
		<tag k="ssr:date" v="2019-05-31" />
		<tag k="ssr:gruppe" v="veg" />
		<tag k="ssr:hovedgruppe" v="infrastruktur" />
		<tag k="ssr:stedsnr" v="1050542" />
		<tag k="ssr:type" v="adressenavn" />
	</node>
	<node id="-198321" lat="59.0752176935" lon="10.2301115588">
		<tag k="name" v="Uleholmen søndre" />
		<tag k="ssr:date" v="2019-05-31" />
		<tag k="ssr:gruppe" v="veg" />
		<tag k="ssr:hovedgruppe" v="infrastruktur" />
		<tag k="ssr:stedsnr" v="1050541" />
		<tag k="ssr:type" v="adressenavn" />
	</node>
	<node id="-198320" lat="59.0971819241" lon="10.2296411301">
		<tag k="name" v="Ulkeholmen" />
		<tag k="ssr:date" v="2019-05-31" />
		<tag k="ssr:gruppe" v="veg" />
		<tag k="ssr:hovedgruppe" v="infrastruktur" />
		<tag k="ssr:stedsnr" v="1050540" />
		<tag k="ssr:type" v="adressenavn" />
	</node>
	<node id="-198319" lat="59.0814536449" lon="10.259771033">
		<tag k="name" v="Stråholmen" />
		<tag k="ssr:date" v="2019-05-31" />
		<tag k="ssr:gruppe" v="veg" />
		<tag k="ssr:hovedgruppe" v="infrastruktur" />
		<tag k="ssr:stedsnr" v="1050146" />
		<tag k="ssr:type" v="adressenavn" />
	</node>
	<node id="-198318" lat="59.1300127525" lon="10.220236604">
		<tag k="name" v="Søebergtorget" />
		<tag k="ssr:date" v="2019-05-31" />
		<tag k="ssr:gruppe" v="veg" />
		<tag k="ssr:hovedgruppe" v="infrastruktur" />
		<tag k="ssr:stedsnr" v="1050072" />
		<tag k="ssr:type" v="adressenavn" />
	</node>
	<node id="-200619" lat="60.5908609473" lon="9.63819281559">
		<tag k="fixme" v="multiple name tags, choose one and add the other to alt_name" />
		<tag k="name" v="Austlandet;Østlandet" />
		<tag k="ssr:date" v="2018-01-09" />
		<tag k="ssr:gruppe" v="administrativeIndelinger" />
		<tag k="ssr:hovedgruppe" v="offentligAdministrasjon" />
		<tag k="ssr:stedsnr" v="974775" />
		<tag k="ssr:type" v="annenAdministrativInndeling" />
	</node>
	<node id="-198311" lat="59.1511701546" lon="10.32281142">
		<tag k="name" v="Store Verksholmen" />
		<tag k="ssr:date" v="2019-05-31" />
		<tag k="ssr:gruppe" v="veg" />
		<tag k="ssr:hovedgruppe" v="infrastruktur" />
		<tag k="ssr:stedsnr" v="1049431" />
		<tag k="ssr:type" v="adressenavn" />
	</node>
	<node id="-198310" lat="59.1086039021" lon="10.2764137131">
		<tag k="name" v="Storholmen" />
		<tag k="ssr:date" v="2019-05-31" />
		<tag k="ssr:gruppe" v="veg" />
		<tag k="ssr:hovedgruppe" v="infrastruktur" />
		<tag k="ssr:stedsnr" v="1048953" />
		<tag k="ssr:type" v="adressenavn" />
	</node>
	<node id="-198309" lat="59.0889246667" lon="10.2323520232">
		<tag k="name" v="Sjøbris" />
		<tag k="ssr:date" v="2019-05-31" />
		<tag k="ssr:gruppe" v="veg" />
		<tag k="ssr:hovedgruppe" v="infrastruktur" />
		<tag k="ssr:stedsnr" v="1047420" />
		<tag k="ssr:type" v="adressenavn" />
	</node>
	<node id="-198308" lat="59.0882239896" lon="10.2828644639">
		<tag k="name" v="Skitrot" />
		<tag k="ssr:date" v="2019-05-31" />
		<tag k="ssr:gruppe" v="veg" />
		<tag k="ssr:hovedgruppe" v="infrastruktur" />
		<tag k="ssr:stedsnr" v="1047359" />
		<tag k="ssr:type" v="adressenavn" />
	</node>
	<node id="-198307" lat="59.0936226223" lon="10.2493421696">
		<tag k="name" v="Sandholmen" />
		<tag k="ssr:date" v="2019-05-31" />
		<tag k="ssr:gruppe" v="veg" />
		<tag k="ssr:hovedgruppe" v="infrastruktur" />
		<tag k="ssr:stedsnr" v="1047341" />
		<tag k="ssr:type" v="adressenavn" />
	</node>
	<node id="-198306" lat="59.1451744275" lon="10.3251187502">
		<tag k="name" v="Saueholmen" />
		<tag k="ssr:date" v="2019-05-31" />
		<tag k="ssr:gruppe" v="veg" />
		<tag k="ssr:hovedgruppe" v="infrastruktur" />
		<tag k="ssr:stedsnr" v="1047333" />
		<tag k="ssr:type" v="adressenavn" />
	</node>
	<node id="-198305" lat="59.0906344077" lon="10.231536131">
		<tag k="name" v="Seilerholmen" />
		<tag k="ssr:date" v="2019-05-31" />
		<tag k="ssr:gruppe" v="veg" />
		<tag k="ssr:hovedgruppe" v="infrastruktur" />
		<tag k="ssr:stedsnr" v="1047222" />
		<tag k="ssr:type" v="adressenavn" />
	</node>
	<node id="-198304" lat="59.0919520636" lon="10.2505910149">
		<tag k="name" v="Raunebben" />
		<tag k="ssr:date" v="2019-05-31" />
		<tag k="ssr:gruppe" v="veg" />
		<tag k="ssr:hovedgruppe" v="infrastruktur" />
		<tag k="ssr:stedsnr" v="1047133" />
		<tag k="ssr:type" v="adressenavn" />
	</node>
	<node id="-198303" lat="59.0977247656" lon="10.2292239599">
		<tag k="name" v="Nåmannsholmen" />
		<tag k="ssr:date" v="2019-05-31" />
		<tag k="ssr:gruppe" v="veg" />
		<tag k="ssr:hovedgruppe" v="infrastruktur" />
		<tag k="ssr:stedsnr" v="1047113" />
		<tag k="ssr:type" v="adressenavn" />
	</node>
	<node id="-198302" lat="59.0834582727" lon="10.2277366557">
		<tag k="name" v="Nilseholmen" />
		<tag k="ssr:date" v="2019-05-31" />
		<tag k="ssr:gruppe" v="veg" />
		<tag k="ssr:hovedgruppe" v="infrastruktur" />
		<tag k="ssr:stedsnr" v="1047110" />
		<tag k="ssr:type" v="adressenavn" />
	</node>
	<node id="-198301" lat="59.1145798628" lon="10.2650735442">
		<tag k="name" v="Ormestadholmen" />
		<tag k="ssr:date" v="2019-05-31" />
		<tag k="ssr:gruppe" v="veg" />
		<tag k="ssr:hovedgruppe" v="infrastruktur" />
		<tag k="ssr:stedsnr" v="1047101" />
		<tag k="ssr:type" v="adressenavn" />
	</node>
	<node id="-199580" lat="59.0707083316" lon="10.314252776">
		<tag k="name" v="Truberodden" />
		<tag k="ssr:date" v="2017-01-19" />
		<tag k="ssr:gruppe" v="navigasjon" />
		<tag k="ssr:hovedgruppe" v="infrastruktur" />
		<tag k="ssr:stedsnr" v="514766" />
		<tag k="ssr:type" v="fyrlykt" />
	</node>
	<node id="-198299" lat="59.0926289447" lon="10.2500283064">
		<tag k="name" v="Mellomholmen" />
		<tag k="ssr:date" v="2019-05-31" />
		<tag k="ssr:gruppe" v="veg" />
		<tag k="ssr:hovedgruppe" v="infrastruktur" />
		<tag k="ssr:stedsnr" v="1046984" />
		<tag k="ssr:type" v="adressenavn" />
	</node>
	<node id="-198298" lat="59.084361504" lon="10.2310485381">
		<tag k="name" v="Lille Furuholmen" />
		<tag k="ssr:date" v="2019-05-31" />
		<tag k="ssr:gruppe" v="veg" />
		<tag k="ssr:hovedgruppe" v="infrastruktur" />
		<tag k="ssr:stedsnr" v="1046630" />
		<tag k="ssr:type" v="adressenavn" />
	</node>
	<node id="-198297" lat="59.0896360605" lon="10.2280821755">
		<tag k="name" v="Knatten" />
		<tag k="ssr:date" v="2019-05-31" />
		<tag k="ssr:gruppe" v="veg" />
		<tag k="ssr:hovedgruppe" v="infrastruktur" />
		<tag k="ssr:stedsnr" v="1046278" />
		<tag k="ssr:type" v="adressenavn" />
	</node>
	<node id="-198296" lat="59.0874542021" lon="10.2286989598">
		<tag k="name" v="Jordbærkarten" />
		<tag k="ssr:date" v="2019-05-31" />
		<tag k="ssr:gruppe" v="veg" />
		<tag k="ssr:hovedgruppe" v="infrastruktur" />
		<tag k="ssr:stedsnr" v="1046265" />
		<tag k="ssr:type" v="adressenavn" />
	</node>
	<node id="-198295" lat="59.0870871397" lon="10.2273778293">
		<tag k="name" v="Jordbærskjæret" />
		<tag k="ssr:date" v="2019-05-31" />
		<tag k="ssr:gruppe" v="veg" />
		<tag k="ssr:hovedgruppe" v="infrastruktur" />
		<tag k="ssr:stedsnr" v="1046264" />
		<tag k="ssr:type" v="adressenavn" />
	</node>
	<node id="-198294" lat="59.1347506209" lon="10.2221099336">
		<tag k="name" v="Jernbaneplassen" />
		<tag k="ssr:date" v="2019-05-31" />
		<tag k="ssr:gruppe" v="veg" />
		<tag k="ssr:hovedgruppe" v="infrastruktur" />
		<tag k="ssr:stedsnr" v="1046256" />
		<tag k="ssr:type" v="adressenavn" />
	</node>
	<node id="-198293" lat="59.1027063024" lon="10.1438907304">
		<tag k="name" v="Himbergveien" />
		<tag k="ssr:date" v="2019-05-31" />
		<tag k="ssr:gruppe" v="veg" />
		<tag k="ssr:hovedgruppe" v="infrastruktur" />
		<tag k="ssr:stedsnr" v="1046088" />
		<tag k="ssr:type" v="adressenavn" />
	</node>
	<node id="-198284" lat="59.0973697274" lon="10.231620488">
		<tag k="name" v="Gustholmen" />
		<tag k="ssr:date" v="2019-05-31" />
		<tag k="ssr:gruppe" v="veg" />
		<tag k="ssr:hovedgruppe" v="infrastruktur" />
		<tag k="ssr:stedsnr" v="1045628" />
		<tag k="ssr:type" v="adressenavn" />
	</node>
	<node id="-198150" lat="59.0966027822" lon="10.2385222188">
		<tag k="name" v="Asneset" />
		<tag k="ssr:date" v="2017-01-19" />
		<tag k="ssr:gruppe" v="navigasjon" />
		<tag k="ssr:hovedgruppe" v="infrastruktur" />
		<tag k="ssr:stedsnr" v="297904" />
		<tag k="ssr:type" v="fyrlykt" />
	</node>
	<node id="-198146" lat="59.0381277789" lon="10.2669694432">
		<tag k="name" v="Holtskjær" />
		<tag k="ssr:date" v="2017-01-19" />
		<tag k="ssr:gruppe" v="navigasjon" />
		<tag k="ssr:hovedgruppe" v="infrastruktur" />
		<tag k="ssr:stedsnr" v="272745" />
		<tag k="ssr:type" v="fyrlykt" />
	</node>
</osm>
