<?xml version="1.0" encoding="UTF-8"?>
<osm version="0.6" generator="osmapis">
	<node lat="59.90491064498976" lon="11.270855590834234" id="-26988">
		<tag k="alt_name" v="Breidsjøen" />
		<tag k="name" v="Breisjøen" />
		<tag k="natural" v="water" />
		<tag k="ssr:stedsnr" v="5602" />
		<tag k="water" v="lake" />
	</node>
	<node lat="59.90981667119829" lon="11.299436104002792" id="-26989">
		<tag k="alt_name" v="Helltjern, øvre;Øvre Helltjennet" />
		<tag k="name" v="Øvre Helltjern" />
		<tag k="natural" v="water" />
		<tag k="ssr:stedsnr" v="5606" />
	</node>
	<node lat="59.95117499785246" lon="11.29019166208017" id="-26991">
		<tag k="alt_name" v="Igletjennet" />
		<tag k="name" v="Igletjern" />
		<tag k="natural" v="water" />
		<tag k="ssr:stedsnr" v="5524" />
	</node>
	<node lat="59.79639444393305" lon="11.241994445663266" id="-27008">
		<tag k="name" v="Skjærabergene" />
		<tag k="natural" v="cape" />
		<tag k="ssr:stedsnr" v="39207" />
	</node>
	<node lat="59.79559722278634" lon="11.283027772654062" id="-27009">
		<tag k="name" v="Ulsrudhellholmen" />
		<tag k="place" v="islet" />
		<tag k="ssr:stedsnr" v="39212" />
	</node>
	<node lat="59.97881944107368" lon="11.428725006688584" id="-27010">
		<tag k="alt_name" v="Midtre Hurdalstjenn" />
		<tag k="name" v="Midtre Hudalstjenn" />
		<tag k="natural" v="water" />
		<tag k="ssr:stedsnr" v="40003" />
	</node>
	<node lat="59.962730553467296" lon="11.086944447650168" id="-27018">
		<tag k="name" v="Rottebekken" />
		<tag k="ssr:stedsnr" v="237875" />
		<tag k="waterway" v="stream" />
	</node>
	<node lat="59.96342221937572" lon="11.344286104694424" id="-27021">
		<tag k="name" v="Steinsrudåa" />
		<tag k="ssr:stedsnr" v="239246" />
		<tag k="waterway" v="river" />
	</node>
	<node lat="59.92470833438774" lon="11.329869447837417" id="-27025">
		<tag k="name" v="Kanamåsatjennet" />
		<tag k="natural" v="water" />
		<tag k="ssr:stedsnr" v="239276" />
	</node>
	<node lat="59.98957777498435" lon="11.245658340006143" id="-27035">
		<tag k="name" v="Kuskerudnebben" />
		<tag k="natural" v="cape" />
		<tag k="ssr:stedsnr" v="239731" />
	</node>
	<node lat="59.769125002120425" lon="11.317822218837899" id="-27068">
		<tag k="alt_name" v="Gravtjern, søndre;Søndre Gravtjenn" />
		<tag k="name" v="Søndre Gravtjern" />
		<tag k="natural" v="water" />
		<tag k="ssr:stedsnr" v="65921" />
	</node>
	<node lat="59.992033330364286" lon="11.248694448938357" id="-27070">
		<tag k="name" v="Lushammeren" />
		<tag k="natural" v="cape" />
		<tag k="ssr:stedsnr" v="241742" />
	</node>
	<node lat="59.94338611464896" lon="11.081150003977399" id="-27076">
		<tag k="name" v="Sørumsneset" />
		<tag k="natural" v="cape" />
		<tag k="ssr:stedsnr" v="247039" />
	</node>
	<node lat="59.85667499658854" lon="11.222941663716753" id="-27088">
		<tag k="name" v="Østanesåa" />
		<tag k="natural" v="bay" />
		<tag k="ssr:stedsnr" v="247709" />
	</node>
	<node lat="59.86031666453429" lon="11.303269449123198" id="-27089">
		<tag k="alt_name" v="Lintjenn" />
		<tag k="name" v="Lintjern" />
		<tag k="natural" v="water" />
		<tag k="ssr:stedsnr" v="247695" />
	</node>
	<node lat="59.839633334986885" lon="11.302516658668278" id="-27090">
		<tag k="name" v="Svarttjern" />
		<tag k="natural" v="water" />
		<tag k="ssr:stedsnr" v="247736" />
	</node>
	<node lat="59.81293889206271" lon="11.27091111746036" id="-27093">
		<tag k="name" v="Finnsbergtjenn" />
		<tag k="natural" v="water" />
		<tag k="ssr:stedsnr" v="100215" />
	</node>
	<node lat="59.790477777775465" lon="11.290788880245945" id="-27094">
		<tag k="name" v="Kjonestein" />
		<tag k="place" v="islet" />
		<tag k="ssr:stedsnr" v="100221" />
	</node>
	<node lat="59.79318611074568" lon="11.291544448062323" id="-27095">
		<tag k="name" v="Store Saueholmen" />
		<tag k="place" v="islet" />
		<tag k="ssr:stedsnr" v="100224" />
	</node>
	<node lat="59.962555558876545" lon="11.334908339912504" id="-27103">
		<tag k="name" v="Krokstadåa" />
		<tag k="ssr:stedsnr" v="100417" />
		<tag k="waterway" v="stream" />
	</node>
	<node lat="59.9110694435079" lon="11.262905547575166" id="-27113">
		<tag k="name" v="Tretysjøen" />
		<tag k="natural" v="water" />
		<tag k="ssr:stedsnr" v="248643" />
	</node>
	<node lat="59.87907500034104" lon="11.264841674542629" id="-27133">
		<tag k="name" v="Rødbekkbekken" />
		<tag k="ssr:stedsnr" v="118507" />
		<tag k="waterway" v="stream" />
	</node>
	<node lat="59.894547221500616" lon="11.165261114038495" id="-27136">
		<tag k="name" v="Jørholmvika" />
		<tag k="natural" v="bay" />
		<tag k="ssr:stedsnr" v="118481" />
	</node>
	<node lat="59.89505833248505" lon="11.146091664271568" id="-27137">
		<tag k="name" v="Sniksandråka" />
		<tag k="natural" v="strait" />
		<tag k="ssr:stedsnr" v="118483" />
	</node>
	<node lat="59.98633888484454" lon="11.261772227756552" id="-27140">
		<tag k="name" v="Tømmertangen" />
		<tag k="natural" v="cape" />
		<tag k="ssr:stedsnr" v="118620" />
	</node>
	<node lat="59.914722225729875" lon="11.256913880843452" id="-27142">
		<tag k="name" v="Butteltjenn" />
		<tag k="natural" v="water" />
		<tag k="ssr:stedsnr" v="118653" />
	</node>
	<node lat="59.954593885408364" lon="11.222463385010784" id="-27150">
		<tag k="alt_name" v="Lintjenna" />
		<tag k="name" v="Lintjerna" />
		<tag k="natural" v="water" />
		<tag k="ssr:stedsnr" v="126543" />
		<tag k="water" v="lake" />
	</node>
	<node lat="60.02007777874092" lon="11.364108334513464" id="-27158">
		<tag k="alt_name" v="Svarstadtjennet" />
		<tag k="name" v="Svarstadtjernet" />
		<tag k="natural" v="water" />
		<tag k="ssr:stedsnr" v="126923" />
	</node>
	<node lat="59.88242995279139" lon="11.153089917650837" id="-27165">
		<tag k="name" v="Bukkesand" />
		<tag k="place" v="islet" />
		<tag k="ssr:stedsnr" v="142111" />
	</node>
	<node lat="59.9672694404332" lon="11.032591668702743" id="-27168">
		<tag k="name" v="Sogna" />
		<tag k="ssr:stedsnr" v="144289" />
		<tag k="waterway" v="river" />
	</node>
	<node lat="59.96912222348268" lon="11.088988888843188" id="-27169">
		<tag k="name" v="Brauterbekken" />
		<tag k="ssr:stedsnr" v="144293" />
		<tag k="waterway" v="stream" />
	</node>
	<node lat="59.95313055677488" lon="11.011205559825356" id="-27171">
		<tag k="name" v="Sagelva" />
		<tag k="ssr:stedsnr" v="144413" />
		<tag k="waterway" v="river" />
	</node>
	<node lat="59.915077776446694" lon="11.131374999887255" id="-27184">
		<tag k="name" v="Merkja" />
		<tag k="natural" v="strait" />
		<tag k="ssr:stedsnr" v="163683" />
	</node>
	<node lat="59.968969442000216" lon="11.102494437250801" id="-27190">
		<tag k="name" v="Jølsensvingen" />
		<tag k="place" v="locality" />
		<tag k="ssr:stedsnr" v="176866" />
	</node>
	<node lat="59.964166668540415" lon="11.112330560136385" id="-27191">
		<tag k="name" v="Steindalsbekken" />
		<tag k="ssr:stedsnr" v="176871" />
		<tag k="waterway" v="stream" />
	</node>
	<node lat="59.776791667306874" lon="11.239413881885179" id="-27213">
		<tag k="name" v="Melnesholmen" />
		<tag k="place" v="islet" />
		<tag k="ssr:stedsnr" v="186900" />
	</node>
	<node lat="59.920983336474805" lon="11.229636106702596" id="-27216">
		<tag k="name" v="Slora" />
		<tag k="natural" v="bay" />
		<tag k="ssr:stedsnr" v="187573" />
	</node>
	<node lat="59.977122221184544" lon="11.091586112058737" id="-27222">
		<tag k="name" v="Sulustadsvingen" />
		<tag k="place" v="locality" />
		<tag k="ssr:stedsnr" v="266247" />
	</node>
	<node lat="59.94181944649921" lon="11.069066670551578" id="-27226">
		<tag k="name" v="Gullaugvika" />
		<tag k="natural" v="bay" />
		<tag k="ssr:stedsnr" v="266267" />
	</node>
	<node lat="59.964691668164946" lon="11.02206667435792" id="-27227">
		<tag k="name" v="Stavsvika" />
		<tag k="natural" v="bay" />
		<tag k="ssr:stedsnr" v="266268" />
	</node>
	<node lat="59.969475002203346" lon="11.015805551624508" id="-27228">
		<tag k="name" v="Nittebergstangen" />
		<tag k="natural" v="cape" />
		<tag k="ssr:stedsnr" v="266279" />
	</node>
	<node lat="59.97129444285519" lon="11.133263894813732" id="-27230">
		<tag k="name" v="Lindriktjern" />
		<tag k="natural" v="water" />
		<tag k="ssr:stedsnr" v="266446" />
	</node>
	<node lat="59.98088611541821" lon="11.089022229083904" id="-27231">
		<tag k="name" v="Fiskerisvingen" />
		<tag k="place" v="locality" />
		<tag k="ssr:stedsnr" v="205313" />
	</node>
	<node lat="59.944177776394774" lon="11.08666666255639" id="-27234">
		<tag k="name" v="Mastevika" />
		<tag k="natural" v="bay" />
		<tag k="ssr:stedsnr" v="205294" />
	</node>
	<node lat="59.97991111437631" lon="11.150188895800007" id="-27235">
		<tag k="name" v="Bukkedalsbekken" />
		<tag k="ssr:stedsnr" v="205301" />
		<tag k="waterway" v="stream" />
	</node>
	<node lat="60.041158330019144" lon="11.23817222861893" id="-27240">
		<tag k="name" v="Vølnerbekken" />
		<tag k="ssr:stedsnr" v="222308" />
		<tag k="waterway" v="stream" />
	</node>
	<node lat="59.97227499715843" lon="11.083630554703465" id="-27271">
		<tag k="alt_name" v="Brauterstilla" />
		<tag k="name" v="Ringstilla" />
		<tag k="natural" v="water" />
		<tag k="ssr:stedsnr" v="247528" />
		<tag k="water" v="lake" />
	</node>
	<node lat="59.903536112569796" lon="11.230077773664535" id="-27274">
		<tag k="alt_name" v="Lintjenn" />
		<tag k="name" v="Lintjern" />
		<tag k="natural" v="water" />
		<tag k="ssr:stedsnr" v="247617" />
	</node>
	<node lat="59.8005499955534" lon="11.283277777699196" id="-27276">
		<tag k="alt_name" v="Bråtatjenn" />
		<tag k="name" v="Bråtatjern" />
		<tag k="natural" v="water" />
		<tag k="ssr:stedsnr" v="247815" />
	</node>
	<node lat="59.95704999758408" lon="11.104211114614593" id="-27282">
		<tag k="name" v="Jølsenbekken" />
		<tag k="ssr:stedsnr" v="248516" />
		<tag k="waterway" v="stream" />
	</node>
	<node lat="60.03113889043271" lon="10.990366666178858" id="-27285">
		<tag k="name" v="Dammen" />
		<tag k="ssr:stedsnr" v="266021" />
		<tag k="waterway" v="dam" />
	</node>
	<node lat="59.790547218432884" lon="11.304283329315174" id="-27296">
		<tag k="name" v="Bånntjenn" />
		<tag k="natural" v="bay" />
		<tag k="ssr:stedsnr" v="282226" />
	</node>
	<node lat="59.91380000288671" lon="11.133241665873774" id="-27310">
		<tag k="name" v="Fråstadeng" />
		<tag k="natural" v="cape" />
		<tag k="ssr:stedsnr" v="285677" />
	</node>
	<node lat="59.961925003644666" lon="11.187661108363157" id="-27315">
		<tag k="name" v="Holmen" />
		<tag k="place" v="islet" />
		<tag k="ssr:stedsnr" v="298130" />
	</node>
	<node lat="59.921394442306855" lon="11.154966663115147" id="-27328">
		<tag k="name" v="Fetsund lense" />
		<tag k="place" v="locality" />
		<tag k="ssr:stedsnr" v="300683" />
	</node>
	<node lat="59.777847223856796" lon="11.240713890074945" id="-27332">
		<tag k="name" v="Holtvika" />
		<tag k="natural" v="bay" />
		<tag k="ssr:stedsnr" v="464287" />
	</node>
	<node lat="60.03864444023578" lon="11.23602499504903" id="-27335">
		<tag k="name" v="Gjesterbekken" />
		<tag k="ssr:stedsnr" v="464317" />
		<tag k="waterway" v="stream" />
	</node>
	<node lat="59.99681666385428" lon="11.152730562568042" id="-27341">
		<tag k="name" v="Lundertjernet" />
		<tag k="natural" v="water" />
		<tag k="ssr:stedsnr" v="307514" />
	</node>
	<node lat="59.984886115221016" lon="11.186200005637339" id="-27347">
		<tag k="alt_name" v="Agntjennet" />
		<tag k="name" v="Agnetjernet" />
		<tag k="natural" v="water" />
		<tag k="ssr:stedsnr" v="308414" />
	</node>
	<node lat="59.97467265858405" lon="11.16392721107321" id="-27350">
		<tag k="alt_name" v="Småtjern" />
		<tag k="name" v="Småtjerna" />
		<tag k="natural" v="water" />
		<tag k="ssr:stedsnr" v="308397" />
		<tag k="water" v="lake" />
	</node>
	<node lat="59.907408332280596" lon="11.20007778454699" id="-27351">
		<tag k="alt_name" v="Knappentjennet" />
		<tag k="name" v="Knappentjernet" />
		<tag k="natural" v="water" />
		<tag k="ssr:stedsnr" v="308594" />
	</node>
	<node lat="60.02685000321768" lon="10.989016662818491" id="-27357">
		<tag k="name" v="Ringdalsbekken" />
		<tag k="ssr:stedsnr" v="309447" />
		<tag k="waterway" v="stream" />
	</node>
	<node lat="59.928266664276705" lon="11.2284111051271" id="-27358">
		<tag k="name" v="Tangen" />
		<tag k="natural" v="cape" />
		<tag k="ssr:stedsnr" v="465848" />
	</node>
	<node lat="59.90274444232096" lon="11.172730547354686" id="-27377">
		<tag k="name" v="Råsokstranda" />
		<tag k="natural" v="beach" />
		<tag k="ssr:stedsnr" v="345675" />
	</node>
	<node lat="59.946816670049344" lon="11.145461113789807" id="-27390">
		<tag k="alt_name" v="Tientjennet" />
		<tag k="name" v="Tientjernet" />
		<tag k="natural" v="water" />
		<tag k="ssr:stedsnr" v="368586" />
	</node>
	<node lat="59.903886815019476" lon="11.141866809716115" id="-27395">
		<tag k="alt_name" v="Jushaugsand" />
		<tag k="name" v="Gjushaugsand" />
		<tag k="natural" v="cape" />
		<tag k="ssr:stedsnr" v="368673" />
	</node>
	<node lat="59.897285267056766" lon="11.160053942618449" id="-27396">
		<tag k="name" v="Jørholmen" />
		<tag k="natural" v="cape" />
		<tag k="ssr:stedsnr" v="368676" />
	</node>
	<node lat="59.76817777765477" lon="11.260169445401933" id="-27398">
		<tag k="name" v="Teigsåa" />
		<tag k="ssr:stedsnr" v="368898" />
		<tag k="waterway" v="stream" />
	</node>
	<node lat="59.77454166259822" lon="11.244211119516585" id="-27399">
		<tag k="name" v="Melnesvika" />
		<tag k="natural" v="bay" />
		<tag k="ssr:stedsnr" v="368899" />
	</node>
	<node lat="59.96879722588045" lon="11.202769442312139" id="-27406">
		<tag k="name" v="Strandevja" />
		<tag k="natural" v="bay" />
		<tag k="ssr:stedsnr" v="479127" />
	</node>
	<node lat="59.885469445408056" lon="11.186919439656625" id="-27420">
		<tag k="name" v="Laure" />
		<tag k="natural" v="shoal" />
		<tag k="ssr:stedsnr" v="482563" />
	</node>
	<node lat="59.892024998898606" lon="11.16413055074405" id="-27421">
		<tag k="name" v="Langvarpet" />
		<tag k="natural" v="bay" />
		<tag k="ssr:stedsnr" v="482529" />
	</node>
	<node lat="59.9321888921697" lon="11.12368332966845" id="-27426">
		<tag k="name" v="Balnesstrand" />
		<tag k="natural" v="beach" />
		<tag k="ssr:stedsnr" v="482661" />
	</node>
	<node lat="59.8047638908576" lon="11.244177781445625" id="-27434">
		<tag k="name" v="Kreppanebben" />
		<tag k="natural" v="cape" />
		<tag k="ssr:stedsnr" v="403241" />
	</node>
	<node lat="59.903672225825964" lon="11.327644443930483" id="-27446">
		<tag k="name" v="Buvika" />
		<tag k="natural" v="bay" />
		<tag k="ssr:stedsnr" v="421302" />
	</node>
	<node lat="59.99658888624199" lon="11.210249996139593" id="-27451">
		<tag k="name" v="Svartevja" />
		<tag k="natural" v="bay" />
		<tag k="ssr:stedsnr" v="421718" />
	</node>
	<node lat="60.93943888528743" lon="11.516244438964907" id="-27460">
		<tag k="fixme" v="multiple name tags, choose one and add the other to alt_name" />
		<tag k="name" v="Glåma;Glomma" />
		<tag k="ssr:stedsnr" v="426301" />
		<tag k="waterway" v="river" />
	</node>
	<node lat="59.98911111316471" lon="11.259699996714101" id="-27465">
		<tag k="name" v="Bingsfossen" />
		<tag k="natural" v="waterfall" />
		<tag k="ssr:stedsnr" v="490461" />
	</node>
	<node lat="59.87079999892992" lon="11.322180557086018" id="-27467">
		<tag k="alt_name" v="Rundtjenn" />
		<tag k="name" v="Rundtjern" />
		<tag k="natural" v="water" />
		<tag k="ssr:stedsnr" v="490688" />
	</node>
	<node lat="59.92520983042964" lon="11.109211123336934" id="-27473">
		<tag k="alt_name" v="Svelle" />
		<tag k="name" v="Svellet" />
		<tag k="natural" v="water" />
		<tag k="ssr:stedsnr" v="490560" />
	</node>
	<node lat="59.88730000167857" lon="11.144894448686216" id="-27477">
		<tag k="name" v="Storsand" />
		<tag k="place" v="islet" />
		<tag k="ssr:stedsnr" v="490647" />
	</node>
	<node lat="59.889622222637435" lon="11.280324997180077" id="-27478">
		<tag k="name" v="Tosken" />
		<tag k="natural" v="water" />
		<tag k="ssr:stedsnr" v="490657" />
	</node>
	<node lat="59.9873416685378" lon="11.146411108165553" id="-27483">
		<tag k="name" v="Stampetjernet" />
		<tag k="natural" v="water" />
		<tag k="ssr:stedsnr" v="429455" />
	</node>
	<node lat="59.89742490421523" lon="11.14935143445437" id="-27492">
		<tag k="name" v="Kusand" />
		<tag k="place" v="islet" />
		<tag k="ssr:stedsnr" v="429613" />
	</node>
	<node lat="59.7886611138386" lon="11.316200002787433" id="-27496">
		<tag k="alt_name" v="Bjørnebraate Tj" />
		<tag k="fixme" v="multiple name tags, choose one and add the other to alt_name" />
		<tag k="name" v="Dalatjern;Bjørnebråtetjern" />
		<tag k="natural" v="water" />
		<tag k="ssr:stedsnr" v="490866" />
	</node>
	<node lat="60.06213888894399" lon="11.285805553927398" id="-27497">
		<tag k="alt_name" v="Ormstadtjennet" />
		<tag k="name" v="Ormstadtjernet" />
		<tag k="natural" v="water" />
		<tag k="ssr:stedsnr" v="430004" />
	</node>
	<node lat="59.79212777872374" lon="11.279011109647872" id="-27504">
		<tag k="alt_name" v="Orlokstjenn" />
		<tag k="name" v="Orlokstjern" />
		<tag k="natural" v="water" />
		<tag k="ssr:stedsnr" v="430810" />
	</node>
	<node lat="59.87372499848835" lon="11.353333341560358" id="-27511">
		<tag k="name" v="Halstjenna" />
		<tag k="natural" v="water" />
		<tag k="ssr:stedsnr" v="446103" />
		<tag k="water" v="lake" />
	</node>
	<node lat="59.99227778178751" lon="11.208652777142927" id="-27521">
		<tag k="name" v="Rømua" />
		<tag k="ssr:stedsnr" v="671500" />
		<tag k="waterway" v="river" />
	</node>
	<node lat="59.86690789541619" lon="11.203639838477885" id="-27525">
		<tag k="name" v="Blesavika" />
		<tag k="natural" v="bay" />
		<tag k="ssr:stedsnr" v="672679" />
	</node>
	<node lat="59.91353055340167" lon="11.285758334914384" id="-27537">
		<tag k="alt_name" v="Mjøsjøen, nordre" />
		<tag k="name" v="Nordre Mjøsjøen" />
		<tag k="natural" v="water" />
		<tag k="ssr:stedsnr" v="672592" />
		<tag k="water" v="lake" />
	</node>
	<node lat="59.91603333010621" lon="11.243744446513483" id="-27538">
		<tag k="alt_name" v="Svarttjenn" />
		<tag k="name" v="Svarttjern" />
		<tag k="natural" v="water" />
		<tag k="ssr:stedsnr" v="672593" />
	</node>
	<node lat="59.78461389240519" lon="11.301880555867854" id="-27547">
		<tag k="name" v="Kolåsbekken" />
		<tag k="ssr:stedsnr" v="464275" />
		<tag k="waterway" v="stream" />
	</node>
	<node lat="59.76946111050629" lon="11.243733337707658" id="-27552">
		<tag k="name" v="Hunesholmene" />
		<tag k="place" v="islet" />
		<tag k="ssr:stedsnr" v="464302" />
	</node>
	<node lat="59.81962777917854" lon="11.255347227340748" id="-27554">
		<tag k="name" v="Møkkhølet" />
		<tag k="natural" v="water" />
		<tag k="ssr:stedsnr" v="464377" />
	</node>
	<node lat="59.868469448453965" lon="11.279877781537218" id="-27556">
		<tag k="name" v="Svenskerudbekken" />
		<tag k="ssr:stedsnr" v="465609" />
		<tag k="waterway" v="stream" />
	</node>
	<node lat="59.930936112234825" lon="11.217244442491454" id="-27559">
		<tag k="name" v="Vestheia" />
		<tag k="place" v="islet" />
		<tag k="ssr:stedsnr" v="465873" />
	</node>
	<node lat="59.90006110725112" lon="11.151761111180114" id="-27560">
		<tag k="name" v="Kusandflæra" />
		<tag k="natural" v="bay" />
		<tag k="ssr:stedsnr" v="466725" />
	</node>
	<node lat="60.01728611379786" lon="11.273791661584834" id="-27562">
		<tag k="name" v="Bergsbekken" />
		<tag k="ssr:stedsnr" v="467015" />
		<tag k="waterway" v="stream" />
	</node>
	<node lat="60.01622499585158" lon="11.28583056320578" id="-27563">
		<tag k="name" v="Børgendammen" />
		<tag k="natural" v="water" />
		<tag k="ssr:stedsnr" v="467017" />
	</node>
	<node lat="59.91388611516161" lon="11.326641665507106" id="-27568">
		<tag k="name" v="Bikkjehølet" />
		<tag k="natural" v="water" />
		<tag k="ssr:stedsnr" v="481260" />
		<tag k="water" v="pond" />
	</node>
	<node lat="59.89500555323275" lon="11.199472225492894" id="-27576">
		<tag k="name" v="Tolerudbekken" />
		<tag k="ssr:stedsnr" v="482558" />
		<tag k="waterway" v="stream" />
	</node>
	<node lat="59.89799722173757" lon="11.235444437319694" id="-27587">
		<tag k="name" v="Gjæsstjernet" />
		<tag k="natural" v="water" />
		<tag k="ssr:stedsnr" v="490637" />
	</node>
	<node lat="59.91450555950458" lon="11.225844441598325" id="-27611">
		<tag k="name" v="Kloterudbekken" />
		<tag k="ssr:stedsnr" v="527752" />
		<tag k="waterway" v="stream" />
	</node>
	<node lat="59.863944448004716" lon="11.244647221928865" id="-27612">
		<tag k="name" v="Høldammen" />
		<tag k="natural" v="water" />
		<tag k="ssr:stedsnr" v="527602" />
		<tag k="water" v="lake" />
	</node>
	<node lat="59.89671944026114" lon="11.165383332508119" id="-27614">
		<tag k="name" v="Svineskinna" />
		<tag k="natural" v="cape" />
		<tag k="ssr:stedsnr" v="527686" />
	</node>
	<node lat="59.911388891979534" lon="11.150633326953969" id="-27615">
		<tag k="name" v="Hovsand" />
		<tag k="natural" v="cape" />
		<tag k="ssr:stedsnr" v="527697" />
	</node>
	<node lat="59.88409166374722" lon="11.148333329612116" id="-27624">
		<tag k="name" v="Storsandråka" />
		<tag k="natural" v="strait" />
		<tag k="ssr:stedsnr" v="543517" />
	</node>
	<node lat="59.83456111285642" lon="11.255161111615262" id="-27631">
		<tag k="name" v="Jordsdammen" />
		<tag k="ssr:stedsnr" v="544367" />
		<tag k="waterway" v="dam" />
	</node>
	<node lat="59.967719445233136" lon="11.342458327107215" id="-27635">
		<tag k="name" v="Korsåa" />
		<tag k="ssr:stedsnr" v="544587" />
		<tag k="waterway" v="river" />
	</node>
	<node lat="59.861877778747576" lon="11.212838895127044" id="-27644">
		<tag k="name" v="Gansvika" />
		<tag k="natural" v="bay" />
		<tag k="ssr:stedsnr" v="550694" />
	</node>
	<node lat="59.822150002003596" lon="11.270644450414569" id="-27649">
		<tag k="alt_name" v="Vindlandstjenn" />
		<tag k="name" v="Vindlandstjernet" />
		<tag k="natural" v="water" />
		<tag k="ssr:stedsnr" v="550761" />
	</node>
	<node lat="60.05998888788738" lon="11.280805563340863" id="-27650">
		<tag k="name" v="Svartputten" />
		<tag k="natural" v="water" />
		<tag k="ssr:stedsnr" v="551006" />
	</node>
	<node lat="59.96306944067526" lon="11.27458889234249" id="-27654">
		<tag k="alt_name" v="Monsruddamtjennet" />
		<tag k="name" v="Monsruddamtjernet" />
		<tag k="natural" v="water" />
		<tag k="ssr:stedsnr" v="551508" />
	</node>
	<node lat="59.94988889189915" lon="11.246244444205285" id="-27656">
		<tag k="name" v="Frysjua" />
		<tag k="natural" v="water" />
		<tag k="ssr:stedsnr" v="551534" />
	</node>
	<node lat="59.94230555717972" lon="11.08176388759535" id="-27667">
		<tag k="name" v="Andevika" />
		<tag k="natural" v="bay" />
		<tag k="ssr:stedsnr" v="569259" />
	</node>
	<node lat="59.941072218764624" lon="11.067305562160001" id="-27668">
		<tag k="name" v="Åmotvarpet" />
		<tag k="place" v="locality" />
		<tag k="ssr:stedsnr" v="569277" />
	</node>
	<node lat="60.02917221796892" lon="11.194941667218007" id="-27692">
		<tag k="name" v="Kvennfossen" />
		<tag k="natural" v="waterfall" />
		<tag k="ssr:stedsnr" v="605255" />
	</node>
	<node lat="59.91204722548736" lon="11.237216660419795" id="-27700">
		<tag k="alt_name" v="Hvalstjenn" />
		<tag k="name" v="Hvalstjern" />
		<tag k="natural" v="water" />
		<tag k="ssr:stedsnr" v="611625" />
	</node>
	<node lat="59.88866944015394" lon="11.273788890945601" id="-27702">
		<tag k="alt_name" v="Breidmåsatjernet" />
		<tag k="name" v="Breimåsatjennet" />
		<tag k="natural" v="water" />
		<tag k="ssr:stedsnr" v="611678" />
	</node>
	<node lat="60.03079166472055" lon="10.974102785101778" id="-27708">
		<tag k="name" v="Kropptjernbekken" />
		<tag k="ssr:stedsnr" v="612428" />
		<tag k="waterway" v="stream" />
	</node>
	<node lat="60.04177221834387" lon="11.296666663928312" id="-27720">
		<tag k="name" v="Hellesjøbekken" />
		<tag k="ssr:stedsnr" v="646323" />
		<tag k="waterway" v="stream" />
	</node>
	<node lat="59.77667663092127" lon="11.241828427620847" id="-27725">
		<tag k="name" v="Nordre Melnesvika" />
		<tag k="natural" v="bay" />
		<tag k="ssr:stedsnr" v="646291" />
	</node>
	<node lat="59.9067638906886" lon="11.147688895110646" id="-27731">
		<tag k="name" v="Veslesand" />
		<tag k="natural" v="beach" />
		<tag k="ssr:stedsnr" v="648695" />
	</node>
	<node lat="59.97674444130753" lon="11.213047224104958" id="-27741">
		<tag k="name" v="Vatterudevja" />
		<tag k="natural" v="bay" />
		<tag k="ssr:stedsnr" v="707390" />
	</node>
	<node lat="60.02956944062561" lon="11.225486108112896" id="-27749">
		<tag k="name" v="Holsbekken" />
		<tag k="ssr:stedsnr" v="709049" />
		<tag k="waterway" v="stream" />
	</node>
	<node lat="59.93556110779495" lon="11.078388895656099" id="-27770">
		<tag k="fixme" v="multiple name tags, choose one and add the other to alt_name" />
		<tag k="name" v="Sundtangen;Tutangen" />
		<tag k="natural" v="cape" />
		<tag k="ssr:stedsnr" v="672062" />
	</node>
	<node lat="59.98278055134013" lon="11.333988879985641" id="-27772">
		<tag k="name" v="Fossåa" />
		<tag k="old_name" v="Åa" />
		<tag k="ssr:stedsnr" v="672415" />
		<tag k="waterway" v="river" />
	</node>
	<node lat="59.97553055417455" lon="11.13313888292364" id="-27773">
		<tag k="name" v="Svarttjern" />
		<tag k="natural" v="water" />
		<tag k="ssr:stedsnr" v="672422" />
	</node>
	<node lat="59.95167499808767" lon="11.264686104592855" id="-27778">
		<tag k="alt_name" v="Svarttjennet" />
		<tag k="name" v="Svarttjern" />
		<tag k="natural" v="water" />
		<tag k="ssr:stedsnr" v="672503" />
	</node>
	<node lat="59.793452587898706" lon="11.287267535367876" id="-27783">
		<tag k="name" v="Bølertjern" />
		<tag k="natural" v="water" />
		<tag k="old_name" v="Bølertjenn" />
		<tag k="ssr:stedsnr" v="672839" />
		<tag k="water" v="lake" />
	</node>
	<node lat="59.90980555928174" lon="11.151855554848112" id="-27791">
		<tag k="name" v="Hovsevja" />
		<tag k="natural" v="bay" />
		<tag k="ssr:stedsnr" v="892680" />
	</node>
	<node lat="59.94594444440316" lon="11.071552778447424" id="-27792">
		<tag k="name" v="Gullaugdammen" />
		<tag k="ssr:stedsnr" v="691026" />
		<tag k="waterway" v="dam" />
	</node>
	<node lat="59.946147218985416" lon="11.06188056207802" id="-27793">
		<tag k="name" v="Heiavika" />
		<tag k="natural" v="bay" />
		<tag k="ssr:stedsnr" v="691288" />
	</node>
	<node lat="59.94030277756814" lon="11.070458332069471" id="-27794">
		<tag k="name" v="Krim" />
		<tag k="natural" v="cape" />
		<tag k="ssr:stedsnr" v="691295" />
	</node>
	<node lat="59.97742777997516" lon="11.077511107575198" id="-27795">
		<tag k="name" v="Bergsbråtasvingen" />
		<tag k="place" v="locality" />
		<tag k="ssr:stedsnr" v="691298" />
	</node>
	<node lat="59.77623888984318" lon="11.27372500183302" id="-27812">
		<tag k="name" v="Kvernhusbekken" />
		<tag k="ssr:stedsnr" v="707313" />
		<tag k="waterway" v="stream" />
	</node>
	<node lat="59.8461194408054" lon="11.215758335740887" id="-27813">
		<tag k="name" v="Delingstangen" />
		<tag k="natural" v="cape" />
		<tag k="ssr:stedsnr" v="707361" />
	</node>
	<node lat="59.869002777360286" lon="11.267194445870803" id="-27815">
		<tag k="name" v="Hagendammen" />
		<tag k="natural" v="water" />
		<tag k="ssr:stedsnr" v="707621" />
	</node>
	<node lat="59.910577781619104" lon="11.125166664920245" id="-27820">
		<tag k="name" v="Balnesevja" />
		<tag k="natural" v="bay" />
		<tag k="ssr:stedsnr" v="709685" />
	</node>
	<node lat="59.91165833386901" lon="11.320619452348575" id="-27825">
		<tag k="name" v="Svartputten" />
		<tag k="natural" v="water" />
		<tag k="ssr:stedsnr" v="724216" />
		<tag k="water" v="pond" />
	</node>
	<node lat="59.93851944583814" lon="11.165655553169117" id="-27830">
		<tag k="name" v="Varåa" />
		<tag k="ssr:stedsnr" v="725607" />
		<tag k="waterway" v="stream" />
	</node>
	<node lat="59.98743611556656" lon="11.25539166892971" id="-27831">
		<tag k="name" v="Fynsand" />
		<tag k="natural" v="beach" />
		<tag k="ssr:stedsnr" v="725684" />
	</node>
	<node lat="59.86615277531462" lon="11.341113891366206" id="-27838">
		<tag k="alt_name" v="Bjønntjenn" />
		<tag k="name" v="Bjørntjern" />
		<tag k="natural" v="water" />
		<tag k="ssr:stedsnr" v="732707" />
	</node>
	<node lat="59.77653055815052" lon="11.31359722293249" id="-27840">
		<tag k="alt_name" v="Gravtjern, nordre;Nordre Gravtjenn" />
		<tag k="name" v="Nordre Gravtjern" />
		<tag k="natural" v="water" />
		<tag k="ssr:stedsnr" v="732846" />
	</node>
	<node lat="60.055799995830945" lon="11.279652772725345" id="-27841">
		<tag k="alt_name" v="Søtjennet" />
		<tag k="name" v="Søltjernet" />
		<tag k="natural" v="water" />
		<tag k="ssr:stedsnr" v="733011" />
	</node>
	<node lat="59.76879166483645" lon="11.329036118789684" id="-27848">
		<tag k="alt_name" v="Hansketjenn" />
		<tag k="name" v="Hansketjern" />
		<tag k="natural" v="water" />
		<tag k="ssr:stedsnr" v="733507" />
	</node>
	<node lat="59.78791944099612" lon="11.28590555135254" id="-27849">
		<tag k="alt_name" v="Lintjenn" />
		<tag k="name" v="Lintjernet" />
		<tag k="natural" v="water" />
		<tag k="ssr:stedsnr" v="733508" />
	</node>
	<node lat="59.90533406274044" lon="11.124195095198825" id="-27854">
		<tag k="alt_name" v="Rusholet" />
		<tag k="name" v="Rudsholet" />
		<tag k="natural" v="strait" />
		<tag k="ssr:stedsnr" v="733580" />
	</node>
	<node lat="59.90736667051198" lon="11.288052786178588" id="-27855">
		<tag k="alt_name" v="Helltjern, nedre;Nedre Helltjennet" />
		<tag k="name" v="Nedre Helltjern" />
		<tag k="natural" v="water" />
		<tag k="ssr:stedsnr" v="733592" />
	</node>
	<node lat="60.02129444031937" lon="11.066338890513302" id="-27869">
		<tag k="name" v="Skillebekken" />
		<tag k="ssr:stedsnr" v="906819" />
		<tag k="waterway" v="stream" />
	</node>
	<node lat="59.792983334108996" lon="11.293952784547942" id="-27870">
		<tag k="name" v="Seterlandet" />
		<tag k="natural" v="beach" />
		<tag k="ssr:stedsnr" v="767239" />
	</node>
	<node lat="59.79080832992985" lon="11.285141671970415" id="-27872">
		<tag k="name" v="Det breie sundet" />
		<tag k="natural" v="strait" />
		<tag k="ssr:stedsnr" v="767254" />
	</node>
	<node lat="59.89460398652221" lon="11.170340816314708" id="-27878">
		<tag k="name" v="Purka" />
		<tag k="place" v="islet" />
		<tag k="ssr:stedsnr" v="907484" />
	</node>
	<node lat="59.989027778152845" lon="11.264788888522856" id="-27880">
		<tag k="name" v="Holmen" />
		<tag k="place" v="islet" />
		<tag k="ssr:stedsnr" v="907684" />
	</node>
	<node lat="59.97554166610231" lon="11.142977777377663" id="-27901">
		<tag k="alt_name" v="Kongsrudtjern" />
		<tag k="name" v="Kongsrudtjernet" />
		<tag k="natural" v="water" />
		<tag k="ssr:stedsnr" v="793505" />
	</node>
	<node lat="59.8869611129483" lon="11.179172229658885" id="-27908">
		<tag k="name" v="Furusand" />
		<tag k="natural" v="cape" />
		<tag k="ssr:stedsnr" v="793686" />
	</node>
	<node lat="59.804752782168755" lon="11.291569438193262" id="-27909">
		<tag k="name" v="Blytetjern" />
		<tag k="natural" v="water" />
		<tag k="ssr:stedsnr" v="793805" />
	</node>
	<node lat="59.95682222066265" lon="11.184547218829842" id="-27920">
		<tag k="name" v="Skårersand" />
		<tag k="place" v="islet" />
		<tag k="ssr:stedsnr" v="794514" />
	</node>
	<node lat="59.838563885268016" lon="11.263674995120446" id="-27921">
		<tag k="alt_name" v="Rosstjenn" />
		<tag k="name" v="Rosstjern" />
		<tag k="natural" v="water" />
		<tag k="ssr:stedsnr" v="794773" />
	</node>
	<node lat="59.792977778234594" lon="11.302330559627444" id="-27927">
		<tag k="alt_name" v="Åbortjenn" />
		<tag k="name" v="Åbortjern" />
		<tag k="natural" v="water" />
		<tag k="ssr:stedsnr" v="794810" />
	</node>
	<node lat="59.991941666576594" lon="11.182308324500365" id="-27940">
		<tag k="alt_name" v="Bæreggstjennet" />
		<tag k="name" v="Bæreggtjernet" />
		<tag k="natural" v="water" />
		<tag k="ssr:stedsnr" v="915465" />
	</node>
	<node lat="59.90215000042841" lon="11.258741667635178" id="-27952">
		<tag k="alt_name" v="Sjølstjennet" />
		<tag k="name" v="Sjølstjernet" />
		<tag k="natural" v="water" />
		<tag k="ssr:stedsnr" v="915616" />
	</node>
	<node lat="59.80992500094768" lon="11.240175007786085" id="-27964">
		<tag k="name" v="Sandemsnebben" />
		<tag k="natural" v="cape" />
		<tag k="ssr:stedsnr" v="828213" />
	</node>
	<node lat="59.79047777839665" lon="11.29588610345413" id="-27965">
		<tag k="name" v="De hvite skjæra" />
		<tag k="place" v="islet" />
		<tag k="ssr:stedsnr" v="828222" />
	</node>
	<node lat="59.97647778092383" lon="11.209141671381731" id="-27971">
		<tag k="name" v="Bingen lenser" />
		<tag k="place" v="locality" />
		<tag k="ssr:stedsnr" v="829370" />
	</node>
	<node lat="59.901688886563775" lon="11.321477774739021" id="-27979">
		<tag k="name" v="Drøplene" />
		<tag k="natural" v="water" />
		<tag k="ssr:stedsnr" v="846283" />
		<tag k="water" v="pond" />
	</node>
	<node lat="59.91049444245231" lon="11.237183334424717" id="-27986">
		<tag k="name" v="Kariholmen" />
		<tag k="place" v="islet" />
		<tag k="ssr:stedsnr" v="846624" />
	</node>
	<node lat="59.881700000168" lon="11.323566660329838" id="-28003">
		<tag k="name" v="Slordammen" />
		<tag k="natural" v="water" />
		<tag k="old_name" v="Stordammen" />
		<tag k="ssr:stedsnr" v="854651" />
		<tag k="water" v="lake" />
	</node>
	<node lat="59.87861388555958" lon="11.18798888736623" id="-28004">
		<tag k="name" v="Karte" />
		<tag k="place" v="islet" />
		<tag k="ssr:stedsnr" v="854659" />
	</node>
	<node lat="59.96921944302577" lon="11.252469445932839" id="-28015">
		<tag k="name" v="Oleruddammen" />
		<tag k="natural" v="water" />
		<tag k="ssr:stedsnr" v="876211" />
	</node>
	<node lat="59.97361944833973" lon="11.088866663139141" id="-28019">
		<tag k="name" v="Lysledningen" />
		<tag k="place" v="locality" />
		<tag k="ssr:stedsnr" v="934238" />
	</node>
	<node lat="59.75858611105409" lon="11.30413055415661" id="-28021">
		<tag k="name" v="Krokedalsbekken" />
		<tag k="ssr:stedsnr" v="934255" />
		<tag k="waterway" v="stream" />
	</node>
	<node lat="60.02132222582193" lon="11.408872215351314" id="-28026">
		<tag k="name" v="Sloråa" />
		<tag k="old_name" v="Mjølukåa" />
		<tag k="ssr:stedsnr" v="889165" />
		<tag k="waterway" v="river" />
	</node>
	<node lat="59.80378333738942" lon="11.245825003966624" id="-28030">
		<tag k="name" v="Smekka" />
		<tag k="natural" v="bay" />
		<tag k="ssr:stedsnr" v="889264" />
	</node>
	<node lat="59.82352222295079" lon="11.254111113308443" id="-28032">
		<tag k="name" v="Vesle Opptjenn" />
		<tag k="natural" v="water" />
		<tag k="ssr:stedsnr" v="889363" />
	</node>
	<node lat="59.978875003130256" lon="11.213619436285784" id="-28033">
		<tag k="name" v="Villingsundet" />
		<tag k="natural" v="bay" />
		<tag k="ssr:stedsnr" v="889364" />
	</node>
	<node lat="59.859558334598844" lon="11.21302499769302" id="-28038">
		<tag k="name" v="Galgetangen" />
		<tag k="natural" v="cape" />
		<tag k="ssr:stedsnr" v="891380" />
	</node>
	<node lat="59.95715555380002" lon="11.283013889765595" id="-28064">
		<tag k="alt_name" v="Lavanstjennet" />
		<tag k="name" v="Lavanstjern" />
		<tag k="natural" v="water" />
		<tag k="ssr:stedsnr" v="915509" />
	</node>
	<node lat="59.91315277692447" lon="11.124311108759327" id="-28067">
		<tag k="name" v="Øya" />
		<tag k="place" v="island" />
		<tag k="ssr:stedsnr" v="915591" />
	</node>
	<node lat="59.951563889581685" lon="11.082394444142327" id="-28076">
		<tag k="name" v="Isakbekken" />
		<tag k="ssr:stedsnr" v="934231" />
		<tag k="waterway" v="stream" />
	</node>
	<node lat="59.79224722143594" lon="11.284047220653425" id="-28091">
		<tag k="name" v="Kavringen" />
		<tag k="place" v="islet" />
		<tag k="ssr:stedsnr" v="950281" />
	</node>
	<node lat="59.78729721909365" lon="11.2855805593759" id="-28094">
		<tag k="name" v="Vintervika" />
		<tag k="natural" v="bay" />
		<tag k="ssr:stedsnr" v="950299" />
	</node>
	<node lat="59.775802778951885" lon="11.244263883142995" id="-28095">
		<tag k="name" v="Søndre Melnesvika" />
		<tag k="natural" v="bay" />
		<tag k="ssr:stedsnr" v="950300" />
	</node>
	<node lat="59.94195277845935" lon="11.178644441210759" id="-28109">
		<tag k="name" v="Finsnes" />
		<tag k="natural" v="cape" />
		<tag k="ssr:stedsnr" v="965872" />
	</node>
	<node lat="59.90512222124654" lon="11.282747225997271" id="-28117">
		<tag k="name" v="Helltjennhakan" />
		<tag k="natural" v="bay" />
		<tag k="ssr:stedsnr" v="967202" />
	</node>
	<node lat="59.967613892013325" lon="11.330733339203404" id="-28122">
		<tag k="name" v="Grinibekken" />
		<tag k="ssr:stedsnr" v="969610" />
		<tag k="waterway" v="stream" />
	</node>
	<node lat="59.99407499801443" lon="11.197074994221587" id="-28193">
		<tag k="name" v="Dammen" />
		<tag k="natural" v="water" />
		<tag k="ssr:stedsnr" v="4491" />
		<tag k="water" v="pond" />
	</node>
	<node lat="59.93505555510622" lon="11.271611113677434" id="-28194">
		<tag k="alt_name" v="Klopptjennet" />
		<tag k="name" v="Klopptjern" />
		<tag k="natural" v="water" />
		<tag k="ssr:stedsnr" v="4563" />
	</node>
	<node lat="59.826605552115225" lon="11.275299999157038" id="-28201">
		<tag k="alt_name" v="Lomtjenn" />
		<tag k="name" v="Lomtjern" />
		<tag k="natural" v="water" />
		<tag k="ssr:stedsnr" v="4782" />
	</node>
	<node lat="59.82204722071872" lon="11.257522228922944" id="-28202">
		<tag k="name" v="Opptjern" />
		<tag k="natural" v="water" />
		<tag k="ssr:stedsnr" v="4835" />
	</node>
	<node lat="59.88839999931841" lon="11.31550833086345" id="-28204">
		<tag k="alt_name" v="Rundtjenna" />
		<tag k="name" v="Rundtjerna" />
		<tag k="natural" v="water" />
		<tag k="ssr:stedsnr" v="4655" />
		<tag k="water" v="lake" />
	</node>
	<node lat="59.77818889205413" lon="11.301525008157478" id="-28208">
		<tag k="alt_name" v="Igletjenn" />
		<tag k="name" v="Igletjern" />
		<tag k="natural" v="water" />
		<tag k="ssr:stedsnr" v="4869" />
	</node>
	<node lat="59.96592777684512" lon="11.08187500559973" id="-28214">
		<tag k="name" v="Stilla" />
		<tag k="natural" v="water" />
		<tag k="ssr:stedsnr" v="5488" />
		<tag k="water" v="lake" />
	</node>
	<node lat="60.014452104855984" lon="11.00396642028107" id="-28220">
		<tag k="alt_name" v="Tærudtjerna" />
		<tag k="name" v="Ringnestjerna" />
		<tag k="natural" v="water" />
		<tag k="ssr:stedsnr" v="6394" />
		<tag k="water" v="lake" />
	</node>
	<node lat="59.95259166652345" lon="11.09449721633931" id="-28225">
		<tag k="name" v="Nordlibekken" />
		<tag k="ssr:stedsnr" v="23316" />
		<tag k="waterway" v="stream" />
	</node>
	<node lat="59.775408329022234" lon="11.299302779784783" id="-28232">
		<tag k="name" v="Karustjenn" />
		<tag k="natural" v="water" />
		<tag k="ssr:stedsnr" v="39231" />
	</node>
	<node lat="59.76728332911705" lon="11.24173333100193" id="-28233">
		<tag k="name" v="Sulusand" />
		<tag k="place" v="islet" />
		<tag k="ssr:stedsnr" v="39255" />
	</node>
	<node lat="59.92685555653793" lon="11.217794445764875" id="-28242">
		<tag k="name" v="Ramstadvika" />
		<tag k="natural" v="bay" />
		<tag k="ssr:stedsnr" v="40850" />
	</node>
	<node lat="59.762169443630725" lon="11.246713884166425" id="-28252">
		<tag k="name" v="Hunesnebben" />
		<tag k="place" v="islet" />
		<tag k="ssr:stedsnr" v="46031" />
	</node>
	<node lat="59.958466666483005" lon="11.195313884675095" id="-28255">
		<tag k="name" v="Hareholmen" />
		<tag k="natural" v="cape" />
		<tag k="ssr:stedsnr" v="55874" />
	</node>
	<node lat="59.861424997553485" lon="11.3336916667129" id="-28263">
		<tag k="name" v="Midtskogdammen" />
		<tag k="natural" v="water" />
		<tag k="ssr:stedsnr" v="57575" />
	</node>
	<node lat="59.860044448058645" lon="11.320841662013413" id="-28264">
		<tag k="name" v="Kattfossen" />
		<tag k="natural" v="waterfall" />
		<tag k="ssr:stedsnr" v="57576" />
	</node>
	<node lat="59.86953889197097" lon="11.336119448471475" id="-28266">
		<tag k="name" v="Støttebergdammen" />
		<tag k="ssr:stedsnr" v="57563" />
		<tag k="waterway" v="dam" />
	</node>
	<node lat="59.99638610704656" lon="11.213858330120168" id="-28273">
		<tag k="name" v="Markensevja" />
		<tag k="natural" v="bay" />
		<tag k="ssr:stedsnr" v="57696" />
	</node>
	<node lat="60.03868611024659" lon="11.12969444839576" id="-28279">
		<tag k="name" v="Ulverudbekken" />
		<tag k="ssr:stedsnr" v="59243" />
		<tag k="waterway" v="stream" />
	</node>
	<node lat="59.84363888619649" lon="11.303044450451978" id="-28292">
		<tag k="alt_name" v="Holmetjenn" />
		<tag k="name" v="Holmetjern" />
		<tag k="natural" v="water" />
		<tag k="ssr:stedsnr" v="65746" />
	</node>
	<node lat="59.988774999036025" lon="11.13250555131237" id="-28297">
		<tag k="name" v="Tretjernet" />
		<tag k="natural" v="water" />
		<tag k="ssr:stedsnr" v="65470" />
	</node>
	<node lat="59.9556583291479" lon="11.236569450188227" id="-28305">
		<tag k="alt_name" v="Damtjennet" />
		<tag k="name" v="Damtjern" />
		<tag k="natural" v="water" />
		<tag k="ssr:stedsnr" v="66518" />
	</node>
	<node lat="59.80174166852788" lon="11.245972217356599" id="-28329">
		<tag k="name" v="Ersrudvika" />
		<tag k="natural" v="bay" />
		<tag k="ssr:stedsnr" v="100227" />
	</node>
	<node lat="59.97029166745038" lon="11.20476944512999" id="-28338">
		<tag k="name" v="Lystadtangen" />
		<tag k="natural" v="cape" />
		<tag k="ssr:stedsnr" v="100430" />
	</node>
	<node lat="60.01366111209619" lon="11.251472222277288" id="-28344">
		<tag k="name" v="Skeabekken" />
		<tag k="ssr:stedsnr" v="103021" />
		<tag k="waterway" v="stream" />
	</node>
	<node lat="59.97170000295212" lon="11.095125009050992" id="-28348">
		<tag k="name" v="Myrbosvingen" />
		<tag k="place" v="locality" />
		<tag k="ssr:stedsnr" v="116874" />
	</node>
	<node lat="59.85320000317824" lon="11.208550001446538" id="-28363">
		<tag k="name" v="Jonsnabben" />
		<tag k="natural" v="cape" />
		<tag k="ssr:stedsnr" v="120343" />
	</node>
	<node lat="59.96445278210143" lon="10.965922230332096" id="-28387">
		<tag k="name" v="Lukedammen" />
		<tag k="natural" v="water" />
		<tag k="ssr:stedsnr" v="126554" />
	</node>
	<node lat="59.937288891294756" lon="11.2780833345177" id="-28389">
		<tag k="alt_name" v="Langtjennet" />
		<tag k="name" v="Langtjern" />
		<tag k="natural" v="water" />
		<tag k="ssr:stedsnr" v="126566" />
	</node>
	<node lat="59.811394445284726" lon="11.2430027739715" id="-28420">
		<tag k="name" v="Marikjeldstranda" />
		<tag k="natural" v="beach" />
		<tag k="ssr:stedsnr" v="161263" />
	</node>
	<node lat="59.88378055187221" lon="11.32174722739028" id="-28447">
		<tag k="name" v="Svartputten" />
		<tag k="natural" v="bay" />
		<tag k="ssr:stedsnr" v="178288" />
	</node>
	<node lat="59.84370555329719" lon="11.30028333000141" id="-28468">
		<tag k="name" v="Stutøye" />
		<tag k="natural" v="water" />
		<tag k="ssr:stedsnr" v="180337" />
		<tag k="water" v="pond" />
	</node>
	<node lat="59.83984166458231" lon="11.299908330392512" id="-28469">
		<tag k="name" v="Snatatangen" />
		<tag k="natural" v="cape" />
		<tag k="ssr:stedsnr" v="180347" />
	</node>
	<node lat="59.78313889152753" lon="11.23645277253316" id="-28482">
		<tag k="name" v="Ringstadnebben" />
		<tag k="natural" v="cape" />
		<tag k="ssr:stedsnr" v="186866" />
	</node>
	<node lat="59.98396111355416" lon="11.080205564462776" id="-28495">
		<tag k="alt_name" v="Tomtstilla" />
		<tag k="name" v="Tomtestilla" />
		<tag k="natural" v="water" />
		<tag k="ssr:stedsnr" v="187543" />
		<tag k="water" v="lake" />
	</node>
	<node lat="59.928767918220295" lon="11.221093872504428" id="-28496">
		<tag k="name" v="Heia" />
		<tag k="natural" v="water" />
		<tag k="ssr:stedsnr" v="187550" />
		<tag k="water" v="lake" />
	</node>
	<node lat="59.957817511069074" lon="11.020774615687182" id="-28509">
		<tag k="name" v="Skjervagapet" />
		<tag k="natural" v="bay" />
		<tag k="ssr:stedsnr" v="205423" />
	</node>
	<node lat="59.98728575218361" lon="11.169861809746623" id="-28514">
		<tag k="name" v="Ballerudtjerna" />
		<tag k="natural" v="water" />
		<tag k="ssr:stedsnr" v="205526" />
		<tag k="water" v="lake" />
	</node>
	<node lat="59.77393888576476" lon="11.254488897574827" id="-28519">
		<tag k="name" v="Melnesåa" />
		<tag k="ssr:stedsnr" v="221280" />
		<tag k="waterway" v="stream" />
	</node>
	<node lat="59.79682500178004" lon="11.279563888875979" id="-28533">
		<tag k="name" v="Hella" />
		<tag k="natural" v="cape" />
		<tag k="ssr:stedsnr" v="282235" />
	</node>
	<node lat="59.78664444555553" lon="11.258963886604318" id="-28535">
		<tag k="name" v="Skredderstadbekken" />
		<tag k="ssr:stedsnr" v="282255" />
		<tag k="waterway" v="stream" />
	</node>
	<node lat="59.78022499578123" lon="11.283758332616392" id="-28537">
		<tag k="name" v="Svartdalbekken" />
		<tag k="ssr:stedsnr" v="282258" />
		<tag k="waterway" v="stream" />
	</node>
	<node lat="59.91256667105717" lon="11.132752780431268" id="-28551">
		<tag k="name" v="Leirtangen" />
		<tag k="natural" v="cape" />
		<tag k="ssr:stedsnr" v="285676" />
	</node>
	<node lat="59.88344721894223" lon="11.211183326770316" id="-28563">
		<tag k="name" v="Svendalsbekken" />
		<tag k="ssr:stedsnr" v="300556" />
		<tag k="waterway" v="stream" />
	</node>
	<node lat="59.88691944595527" lon="11.184477772281046" id="-28564">
		<tag k="name" v="Kvernhammervika" />
		<tag k="natural" v="bay" />
		<tag k="ssr:stedsnr" v="300562" />
	</node>
	<node lat="59.95442499810417" lon="11.081902780259746" id="-28576">
		<tag k="name" v="Langtangen" />
		<tag k="natural" v="cape" />
		<tag k="ssr:stedsnr" v="307541" />
	</node>
	<node lat="59.95933611098564" lon="11.131744449682039" id="-28585">
		<tag k="name" v="Bergerbekken" />
		<tag k="ssr:stedsnr" v="308462" />
		<tag k="waterway" v="stream" />
	</node>
	<node lat="59.95293611080805" lon="11.244016664266034" id="-28590">
		<tag k="alt_name" v="Svartputten" />
		<tag k="name" v="Svartpytten" />
		<tag k="natural" v="water" />
		<tag k="ssr:stedsnr" v="308510" />
	</node>
	<node lat="59.86128611510696" lon="11.352613881488262" id="-28596">
		<tag k="name" v="Holmetjern" />
		<tag k="natural" v="water" />
		<tag k="ssr:stedsnr" v="308681" />
	</node>
	<node lat="59.85863611568406" lon="11.206230549169163" id="-28597">
		<tag k="name" v="Tjuvholmen" />
		<tag k="place" v="islet" />
		<tag k="ssr:stedsnr" v="308690" />
	</node>
	<node lat="59.84193610865211" lon="11.312636106764023" id="-28599">
		<tag k="name" v="Brutjern" />
		<tag k="natural" v="water" />
		<tag k="ssr:stedsnr" v="308719" />
	</node>
	<node lat="59.80053888791242" lon="11.27405833159454" id="-28600">
		<tag k="alt_name" v="Langtjenn" />
		<tag k="name" v="Langtjernet" />
		<tag k="natural" v="water" />
		<tag k="ssr:stedsnr" v="308832" />
	</node>
	<node lat="59.96666111372506" lon="11.01949166250961" id="-28609">
		<tag k="name" v="Kulpvika" />
		<tag k="natural" v="bay" />
		<tag k="ssr:stedsnr" v="327245" />
	</node>
	<node lat="59.791994444329625" lon="11.290855554108292" id="-28623">
		<tag k="name" v="Vesle Saueholmen" />
		<tag k="place" v="islet" />
		<tag k="ssr:stedsnr" v="342229" />
	</node>
	<node lat="59.97662777674578" lon="11.189347214898797" id="-28630">
		<tag k="name" v="Agntjennsbekken" />
		<tag k="ssr:stedsnr" v="343328" />
		<tag k="waterway" v="stream" />
	</node>
	<node lat="59.87402777468886" lon="11.27368333575734" id="-28636">
		<tag k="name" v="Skjatvetdammen" />
		<tag k="natural" v="water" />
		<tag k="ssr:stedsnr" v="343642" />
	</node>
	<node lat="59.91641110705101" lon="11.152694440726387" id="-28644">
		<tag k="name" v="Prestestranda" />
		<tag k="natural" v="beach" />
		<tag k="ssr:stedsnr" v="345681" />
	</node>
	<node lat="59.93999999578813" lon="11.249983329722072" id="-28649">
		<tag k="name" v="Korsvika" />
		<tag k="natural" v="bay" />
		<tag k="ssr:stedsnr" v="358869" />
	</node>
	<node lat="59.88975278068613" lon="11.166216675035209" id="-28653">
		<tag k="alt_name" v="Rosholmråka" />
		<tag k="name" v="Rossholmråka" />
		<tag k="natural" v="strait" />
		<tag k="ssr:stedsnr" v="360491" />
	</node>
	<node lat="59.993111114129476" lon="11.186616670032972" id="-28657">
		<tag k="name" v="Tjennsbekken" />
		<tag k="ssr:stedsnr" v="360684" />
		<tag k="waterway" v="stream" />
	</node>
	<node lat="60.019383337620226" lon="11.21100000497582" id="-28672">
		<tag k="name" v="Melibekken" />
		<tag k="ssr:stedsnr" v="360953" />
		<tag k="waterway" v="stream" />
	</node>
	<node lat="59.905066667002416" lon="11.154747223592118" id="-28704">
		<tag k="name" v="Feta" />
		<tag k="natural" v="bay" />
		<tag k="ssr:stedsnr" v="369562" />
	</node>
	<node lat="59.97786111115825" lon="11.132236114461556" id="-28721">
		<tag k="name" v="Breimåsatjern" />
		<tag k="natural" v="water" />
		<tag k="ssr:stedsnr" v="387487" />
	</node>
	<node lat="59.975886110004005" lon="11.21921110796438" id="-28725">
		<tag k="name" v="Lystadbekken" />
		<tag k="ssr:stedsnr" v="403350" />
		<tag k="waterway" v="stream" />
	</node>
	<node lat="59.916013889563956" lon="11.124063886445494" id="-28738">
		<tag k="alt_name" v="Vestvolden" />
		<tag k="name" v="Vestvollen" />
		<tag k="natural" v="beach" />
		<tag k="ssr:stedsnr" v="406727" />
	</node>
	<node lat="59.89566944238316" lon="11.314800006709806" id="-28747">
		<tag k="alt_name" v="Jarsjøen, vestre" />
		<tag k="name" v="Vestre Jarsjøen" />
		<tag k="natural" v="water" />
		<tag k="ssr:stedsnr" v="429622" />
	</node>
	<node lat="59.88994444815925" lon="11.178044442083193" id="-28750">
		<tag k="alt_name" v="Skjeret" />
		<tag k="name" v="Skjæret" />
		<tag k="natural" v="shoal" />
		<tag k="ssr:stedsnr" v="429646" />
	</node>
	<node lat="59.863534883643645" lon="11.203783760573282" id="-28751">
		<tag k="alt_name" v="Brågården" />
		<tag k="name" v="Brågarden" />
		<tag k="natural" v="cape" />
		<tag k="ssr:stedsnr" v="429696" />
	</node>
	<node lat="59.93583889123537" lon="11.127300002852703" id="-28756">
		<tag k="name" v="Merkja" />
		<tag k="natural" v="bay" />
		<tag k="ssr:stedsnr" v="421658" />
	</node>
	<node lat="59.964977780450205" lon="11.12071388726787" id="-28780">
		<tag k="alt_name" v="Hotvettjennet" />
		<tag k="name" v="Hotvettjernet" />
		<tag k="natural" v="water" />
		<tag k="ssr:stedsnr" v="430479" />
	</node>
	<node lat="59.96401110688089" lon="11.029502769596775" id="-28804">
		<tag k="name" v="Bondetangen" />
		<tag k="natural" v="cape" />
		<tag k="ssr:stedsnr" v="509245" />
	</node>
	<node lat="59.96745000152639" lon="11.098838896267809" id="-28805">
		<tag k="name" v="Okseneset" />
		<tag k="natural" v="cape" />
		<tag k="ssr:stedsnr" v="509246" />
	</node>
	<node lat="59.9470611148791" lon="11.055877775406683" id="-28807">
		<tag k="name" v="Øya" />
		<tag k="natural" v="cape" />
		<tag k="ssr:stedsnr" v="509345" />
	</node>
	<node lat="59.79874166391004" lon="11.284100003503758" id="-28811">
		<tag k="name" v="Bråtatjennsundet" />
		<tag k="natural" v="strait" />
		<tag k="ssr:stedsnr" v="525290" />
	</node>
	<node lat="60.07599166483148" lon="11.250455552098785" id="-28820">
		<tag k="name" v="Slemdalsfossen" />
		<tag k="natural" v="waterfall" />
		<tag k="ssr:stedsnr" v="525439" />
	</node>
	<node lat="59.94431111007376" lon="11.25593332636495" id="-28822">
		<tag k="name" v="Setervika" />
		<tag k="natural" v="bay" />
		<tag k="ssr:stedsnr" v="525448" />
	</node>
	<node lat="59.962805559414996" lon="11.090638891830068" id="-28834">
		<tag k="name" v="Nesa" />
		<tag k="natural" v="cape" />
		<tag k="ssr:stedsnr" v="540884" />
	</node>
	<node lat="59.965508337123424" lon="11.097547223573187" id="-28835">
		<tag k="name" v="Jølsengrunna" />
		<tag k="natural" v="shoal" />
		<tag k="place" v="locality" />
		<tag k="ssr:stedsnr" v="540885" />
	</node>
	<node lat="59.87951944569233" lon="11.258886115568508" id="-28851">
		<tag k="name" v="Lintjenn" />
		<tag k="natural" v="water" />
		<tag k="ssr:stedsnr" v="543530" />
	</node>
	<node lat="59.94320162534913" lon="11.249396694064787" id="-28871">
		<tag k="name" v="Varsjøen" />
		<tag k="natural" v="water" />
		<tag k="ssr:stedsnr" v="550538" />
		<tag k="water" v="lake" />
	</node>
	<node lat="59.89253950232588" lon="11.146545504808687" id="-28872">
		<tag k="name" v="Sniksand" />
		<tag k="natural" v="cape" />
		<tag k="ssr:stedsnr" v="550620" />
	</node>
	<node lat="60.02568055146978" lon="11.018055551680145" id="-28878">
		<tag k="name" v="Ulvedalsbekken" />
		<tag k="ssr:stedsnr" v="551387" />
		<tag k="waterway" v="stream" />
	</node>
	<node lat="60.03970555747539" lon="11.122577785286573" id="-28881">
		<tag k="name" v="Jeksla" />
		<tag k="ssr:stedsnr" v="551892" />
		<tag k="waterway" v="stream" />
	</node>
	<node lat="59.784058335759646" lon="11.23687221860435" id="-28897">
		<tag k="name" v="Verkensvika" />
		<tag k="natural" v="bay" />
		<tag k="ssr:stedsnr" v="585257" />
	</node>
	<node lat="59.761402779451174" lon="11.33899444551243" id="-28899">
		<tag k="name" v="Nordre Huldertjenn" />
		<tag k="natural" v="water" />
		<tag k="ssr:stedsnr" v="585263" />
	</node>
	<node lat="59.906205560066404" lon="11.189805554034784" id="-28911">
		<tag k="name" v="Valrossdam" />
		<tag k="natural" v="water" />
		<tag k="ssr:stedsnr" v="588742" />
	</node>
	<node lat="60.04552777811651" lon="11.305058331010043" id="-28951">
		<tag k="alt_name" v="Hellesjøtjennet" />
		<tag k="name" v="Hellesjøtjernet" />
		<tag k="natural" v="water" />
		<tag k="ssr:stedsnr" v="612032" />
	</node>
	<node lat="59.89955278096225" lon="11.171180557798492" id="-28957">
		<tag k="name" v="Monsrudvika" />
		<tag k="natural" v="bay" />
		<tag k="ssr:stedsnr" v="611665" />
	</node>
	<node lat="59.97421921330795" lon="10.933621703447422" id="-28975">
		<tag k="name" v="Tokerudtjern" />
		<tag k="natural" v="water" />
		<tag k="ssr:stedsnr" v="630414" />
	</node>
	<node lat="59.79471110835076" lon="11.28485833753886" id="-28984">
		<tag k="name" v="Adams baderi" />
		<tag k="place" v="islet" />
		<tag k="ssr:stedsnr" v="646266" />
	</node>
	<node lat="59.94579722527763" lon="11.238255557853234" id="-28995">
		<tag k="name" v="Tofsrudnebben" />
		<tag k="natural" v="cape" />
		<tag k="ssr:stedsnr" v="661889" />
	</node>
	<node lat="59.94357777503846" lon="11.24412222895249" id="-28996">
		<tag k="name" v="Mattisnebben" />
		<tag k="natural" v="cape" />
		<tag k="ssr:stedsnr" v="661891" />
	</node>
	<node lat="59.92717222004314" lon="11.129966674813817" id="-29014">
		<tag k="name" v="Elvestrand" />
		<tag k="natural" v="beach" />
		<tag k="ssr:stedsnr" v="664663" />
	</node>
	<node lat="59.92311944664213" lon="11.132855561788741" id="-29015">
		<tag k="name" v="Hovinstrand" />
		<tag k="natural" v="beach" />
		<tag k="ssr:stedsnr" v="664667" />
	</node>
	<node lat="60.042850002118456" lon="11.223074996462085" id="-29019">
		<tag k="name" v="Mjønerudfossen" />
		<tag k="natural" v="waterfall" />
		<tag k="ssr:stedsnr" v="665246" />
	</node>
	<node lat="60.03592777348551" lon="11.169427769116258" id="-29020">
		<tag k="name" v="Vilbergsbekken" />
		<tag k="ssr:stedsnr" v="665259" />
		<tag k="waterway" v="stream" />
	</node>
	<node lat="59.97556388950073" lon="11.345397218736096" id="-29024">
		<tag k="name" v="Kauserudåa" />
		<tag k="ssr:stedsnr" v="666575" />
		<tag k="waterway" v="river" />
	</node>
	<node lat="59.993188891532895" lon="11.18301943612237" id="-29043">
		<tag k="name" v="Smedsrudvika" />
		<tag k="natural" v="bay" />
		<tag k="ssr:stedsnr" v="725663" />
	</node>
	<node lat="60.02966666372677" lon="11.164997220074843" id="-29048">
		<tag k="name" v="Hønsibekken" />
		<tag k="ssr:stedsnr" v="726260" />
		<tag k="waterway" v="stream" />
	</node>
	<node lat="59.84103611339033" lon="11.248530561336741" id="-29052">
		<tag k="name" v="Ulverudåa" />
		<tag k="ssr:stedsnr" v="727366" />
		<tag k="waterway" v="river" />
	</node>
	<node lat="59.90686944469564" lon="11.145674999155709" id="-29057">
		<tag k="alt_name" v="Jushaugsandråka" />
		<tag k="name" v="Gjushaugsandråka" />
		<tag k="ssr:stedsnr" v="732660" />
		<tag k="waterway" v="stream" />
	</node>
	<node lat="59.897661114290166" lon="11.279427770126047" id="-29058">
		<tag k="alt_name" v="Mjøsjøen, søndre" />
		<tag k="name" v="Søndre Mjøsjøen" />
		<tag k="natural" v="water" />
		<tag k="ssr:stedsnr" v="732666" />
	</node>
	<node lat="59.92636111557819" lon="11.253875001754547" id="-29069">
		<tag k="alt_name" v="Abbortjernet" />
		<tag k="name" v="Abbortjern" />
		<tag k="natural" v="water" />
		<tag k="ssr:stedsnr" v="733568" />
	</node>
	<node lat="59.84555404650724" lon="11.218644748020427" id="-29076">
		<tag k="name" v="Lindjulsvika" />
		<tag k="natural" v="bay" />
		<tag k="ssr:stedsnr" v="733708" />
	</node>
	<node lat="59.98788888984426" lon="11.084655560632108" id="-29080">
		<tag k="alt_name" v="Leirelva" />
		<tag k="name" v="Leira" />
		<tag k="ssr:stedsnr" v="733534" />
		<tag k="waterway" v="river" />
	</node>
	<node lat="59.948397219760864" lon="11.086736111478547" id="-29090">
		<tag k="name" v="Lille Sandhølet" />
		<tag k="place" v="island" />
		<tag k="ssr:stedsnr" v="751293" />
	</node>
	<node lat="59.93525555171865" lon="11.324219453038836" id="-29099">
		<tag k="name" v="Rossdalstjennet" />
		<tag k="natural" v="water" />
		<tag k="ssr:stedsnr" v="767429" />
	</node>
	<node lat="59.89119993131268" lon="11.1572678394796" id="-29115">
		<tag k="alt_name" v="Oversand sameie" />
		<tag k="name" v="Oversand" />
		<tag k="natural" v="cape" />
		<tag k="ssr:stedsnr" v="770672" />
	</node>
	<node lat="59.90365277725371" lon="11.113455551842998" id="-29116">
		<tag k="name" v="Kavringen" />
		<tag k="place" v="islet" />
		<tag k="ssr:stedsnr" v="770674" />
	</node>
	<node lat="59.91164322974091" lon="11.128697667883998" id="-29117">
		<tag k="name" v="Rudsholmen" />
		<tag k="natural" v="cape" />
		<tag k="ssr:stedsnr" v="770683" />
	</node>
	<node lat="59.95399444231267" lon="11.178361106555393" id="-29122">
		<tag k="name" v="Vestelva" />
		<tag k="natural" v="strait" />
		<tag k="ssr:stedsnr" v="783879" />
	</node>
	<node lat="59.878752778819326" lon="11.281994437213273" id="-29131">
		<tag k="name" v="Toskåa" />
		<tag k="ssr:stedsnr" v="785522" />
		<tag k="waterway" v="stream" />
	</node>
	<node lat="60.02984166546669" lon="11.197894450759847" id="-29141">
		<tag k="name" v="Asakbekken" />
		<tag k="ssr:stedsnr" v="787237" />
		<tag k="waterway" v="stream" />
	</node>
	<node lat="59.98762777440979" lon="11.439072216542717" id="-29150">
		<tag k="name" v="Hauketjern" />
		<tag k="natural" v="water" />
		<tag k="ssr:stedsnr" v="793489" />
	</node>
	<node lat="59.98353610720236" lon="11.188061113306327" id="-29152">
		<tag k="name" v="Skjortebytta" />
		<tag k="natural" v="water" />
		<tag k="ssr:stedsnr" v="793497" />
	</node>
	<node lat="59.76588333465685" lon="11.35043610992852" id="-29165">
		<tag k="name" v="Dalselva" />
		<tag k="ssr:stedsnr" v="793891" />
		<tag k="waterway" v="stream" />
	</node>
	<node lat="59.922127778909406" lon="11.203611105380775" id="-29169">
		<tag k="name" v="Gransbekken" />
		<tag k="ssr:stedsnr" v="793627" />
		<tag k="waterway" v="stream" />
	</node>
	<node lat="59.89998333539268" lon="11.156477774121772" id="-29171">
		<tag k="name" v="Kusandråka" />
		<tag k="natural" v="strait" />
		<tag k="ssr:stedsnr" v="793662" />
	</node>
	<node lat="59.794847223755994" lon="11.242602776936913" id="-29194">
		<tag k="name" v="Vikalandet" />
		<tag k="natural" v="beach" />
		<tag k="ssr:stedsnr" v="828230" />
	</node>
	<node lat="59.75985278205183" lon="11.336305556811126" id="-29200">
		<tag k="name" v="Søndre Huldertjenn" />
		<tag k="natural" v="water" />
		<tag k="ssr:stedsnr" v="828291" />
		<tag k="water" v="pond" />
	</node>
	<node lat="59.78920833390811" lon="11.285247229046849" id="-29202">
		<tag k="name" v="Det smale sundet" />
		<tag k="natural" v="strait" />
		<tag k="ssr:stedsnr" v="828237" />
	</node>
	<node lat="59.790397224488935" lon="11.240130562067286" id="-29204">
		<tag k="name" v="Nørstevika" />
		<tag k="natural" v="bay" />
		<tag k="ssr:stedsnr" v="828244" />
	</node>
	<node lat="59.903286106892416" lon="11.208711117304057" id="-29220">
		<tag k="name" v="Gransdammen" />
		<tag k="natural" v="water" />
		<tag k="ssr:stedsnr" v="831699" />
	</node>
	<node lat="60.0395361121951" lon="10.977372219364181" id="-29229">
		<tag k="alt_name" v="Klopptjern" />
		<tag k="name" v="Kropptjern" />
		<tag k="natural" v="water" />
		<tag k="ssr:stedsnr" v="855416" />
	</node>
	<node lat="59.86728888649539" lon="11.304377773871348" id="-29240">
		<tag k="name" v="Bikkjetjenn" />
		<tag k="natural" v="water" />
		<tag k="ssr:stedsnr" v="846599" />
	</node>
	<node lat="59.93302499846831" lon="11.166605549262458" id="-29241">
		<tag k="name" v="Holsevja" />
		<tag k="natural" v="bay" />
		<tag k="ssr:stedsnr" v="846641" />
	</node>
	<node lat="59.885649159659785" lon="11.161314601383573" id="-29260">
		<tag k="alt_name" v="Rosholmen" />
		<tag k="name" v="Rossholmen" />
		<tag k="natural" v="cape" />
		<tag k="ssr:stedsnr" v="854631" />
	</node>
	<node lat="59.80343610970239" lon="11.269122227751282" id="-29270">
		<tag k="alt_name" v="Lintjenn" />
		<tag k="name" v="Lintjernet" />
		<tag k="natural" v="water" />
		<tag k="ssr:stedsnr" v="854774" />
	</node>
	<node lat="60.00330000141324" lon="11.28927499520129" id="-29274">
		<tag k="name" v="Sundfossen" />
		<tag k="natural" v="waterfall" />
		<tag k="ssr:stedsnr" v="855962" />
	</node>
	<node lat="59.97648055713668" lon="11.085786109946202" id="-29276">
		<tag k="name" v="Asakneset" />
		<tag k="natural" v="cape" />
		<tag k="ssr:stedsnr" v="873271" />
	</node>
	<node lat="59.989783336182086" lon="11.087102775799615" id="-29277">
		<tag k="name" v="Sunnesand" />
		<tag k="place" v="island" />
		<tag k="ssr:stedsnr" v="873272" />
	</node>
	<node lat="59.86475277772747" lon="11.208494435544171" id="-29312">
		<tag k="alt_name" v="Brågårdhalsen" />
		<tag k="name" v="Brågardshalsen" />
		<tag k="place" v="locality" />
		<tag k="ssr:stedsnr" v="952335" />
	</node>
	<node lat="59.91702499656172" lon="11.146919444955635" id="-29315">
		<tag k="name" v="Lund lenseanlegg" />
		<tag k="place" v="locality" />
		<tag k="ssr:stedsnr" v="952721" />
	</node>
	<node lat="59.93195277953048" lon="11.351908326612804" id="-29326">
		<tag k="name" v="Jarsjøbekken" />
		<tag k="ssr:stedsnr" v="967232" />
		<tag k="waterway" v="stream" />
	</node>
	<node lat="59.98849999632134" lon="11.227225002110398" id="-29335">
		<tag k="name" v="Hofskjæret" />
		<tag k="place" v="islet" />
		<tag k="ssr:stedsnr" v="967679" />
	</node>
	<node lat="60.01008055375897" lon="11.202216660277724" id="-29339">
		<tag k="name" v="Bæreggsbekken" />
		<tag k="ssr:stedsnr" v="967914" />
		<tag k="waterway" v="stream" />
	</node>
	<node lat="59.84877222270649" lon="11.259444438335686" id="-29344">
		<tag k="name" v="Bjørndalsbekken" />
		<tag k="ssr:stedsnr" v="969360" />
		<tag k="waterway" v="stream" />
	</node>
	<node lat="60.06956201615391" lon="10.887701631507458" id="-30373">
		<tag k="loc_name" v="Nittelva" />
		<tag k="name" v="Nitelva" />
		<tag k="ssr:stedsnr" v="611618" />
		<tag k="waterway" v="river" />
	</node>
</osm>
