<?xml version="1.0" encoding="UTF-8"?>
<<<<<<< HEAD
<osm version="0.6" generator="osmapis">
	<node lat="59.951530555451576" lon="11.07595277381273" id="-13919">
		<tag k="name" v="Tangen" />
		<tag k="place" v="locality" />
		<tag k="ssr:stedsnr" v="23305" />
	</node>
	<node lat="59.80998055544491" lon="11.276825003883895" id="-13925">
		<tag k="name" v="Ulsrudbrenninga" />
		<tag k="place" v="locality" />
		<tag k="ssr:stedsnr" v="39202" />
	</node>
	<node lat="59.916002778096995" lon="11.30594722889554" id="-13958">
		<tag k="name" v="Dammyrene" />
		<tag k="natural" v="wetland" />
		<tag k="ssr:stedsnr" v="57210" />
	</node>
	<node lat="59.89566111377084" lon="11.218252783466879" id="-13962">
		<tag k="name" v="Askedalsmyra" />
		<tag k="natural" v="wetland" />
		<tag k="ssr:stedsnr" v="57524" />
	</node>
	<node lat="59.99870555402194" lon="11.13354444950497" id="-13972">
		<tag k="name" v="Ulvemyra" />
		<tag k="natural" v="wetland" />
		<tag k="ssr:stedsnr" v="59594" />
	</node>
	<node lat="59.91513055630963" lon="11.310591674250585" id="-13978">
		<tag k="name" v="Brumåsan" />
		<tag k="natural" v="wetland" />
		<tag k="ssr:stedsnr" v="65604" />
	</node>
	<node lat="59.96787499604029" lon="11.159097225994941" id="-13979">
		<tag k="alt_name" v="Rakkermåsan" />
		<tag k="name" v="Rakkemåsan" />
		<tag k="natural" v="wetland" />
		<tag k="ssr:stedsnr" v="65517" />
	</node>
	<node lat="59.78268055839264" lon="11.28403332829207" id="-14014">
		<tag k="name" v="Tøysemyrene" />
		<tag k="natural" v="wetland" />
		<tag k="ssr:stedsnr" v="100269" />
	</node>
	<node lat="59.75858611251733" lon="11.344886114459566" id="-14016">
		<tag k="name" v="Korpefløget" />
		<tag k="place" v="locality" />
		<tag k="ssr:stedsnr" v="100281" />
	</node>
	<node lat="59.947602774486064" lon="11.276625003319053" id="-14021">
		<tag k="historic" v="shieling" />
		<tag k="name" v="Fossumsetra" />
		<tag k="place" v="locality" />
		<tag k="ssr:stedsnr" v="100427" />
	</node>
	<node lat="59.83644722386518" lon="11.285449994220347" id="-14023">
		<tag k="name" v="Nordre Halvheklemyr" />
		<tag k="natural" v="wetland" />
		<tag k="ssr:stedsnr" v="100316" />
	</node>
	<node lat="59.97558055901918" lon="11.192341674146137" id="-14040">
		<tag k="historic" v="shieling" />
		<tag k="name" v="Setra" />
		<tag k="place" v="locality" />
		<tag k="ssr:stedsnr" v="116122" />
	</node>
	<node lat="59.96202777968714" lon="11.229766674764605" id="-14065">
		<tag k="name" v="Veamyra" />
		<tag k="natural" v="wetland" />
		<tag k="ssr:stedsnr" v="126524" />
	</node>
	<node lat="59.97763889350804" lon="11.410283324855136" id="-14068">
		<tag k="alt_name" v="Høgmåsan" />
		<tag k="name" v="Høgemåsan" />
		<tag k="natural" v="wetland" />
		<tag k="ssr:stedsnr" v="126454" />
	</node>
	<node lat="59.944405555690636" lon="11.07756665795384" id="-14084">
		<tag k="name" v="England" />
		<tag k="place" v="locality" />
		<tag k="ssr:stedsnr" v="144281" />
	</node>
	<node lat="59.963891666228704" lon="11.16593333401014" id="-14109">
		<tag k="name" v="Jasemyra" />
		<tag k="natural" v="wetland" />
		<tag k="ssr:stedsnr" v="176872" />
	</node>
	<node lat="59.96633611206225" lon="11.141691660488567" id="-14111">
		<tag k="name" v="Vinsnesskogen" />
		<tag k="place" v="locality" />
		<tag k="ssr:stedsnr" v="176875" />
	</node>
	<node lat="59.99238888610952" lon="11.397477781466527" id="-14113">
		<tag k="name" v="Klingemåsan" />
		<tag k="natural" v="wetland" />
		<tag k="ssr:stedsnr" v="178781" />
	</node>
	<node lat="60.011088887784624" lon="11.185886114058112" id="-14116">
		<tag k="name" v="Holtet" />
		<tag k="place" v="locality" />
		<tag k="ssr:stedsnr" v="178925" />
	</node>
	<node lat="59.890749998967394" lon="11.254105556334238" id="-14118">
		<tag k="name" v="Oppegårdsmyra" />
		<tag k="natural" v="wetland" />
		<tag k="ssr:stedsnr" v="179527" />
	</node>
	<node lat="59.84849722594434" lon="11.324572215607072" id="-14134">
		<tag k="name" v="Bjørkmyra" />
		<tag k="natural" v="wetland" />
		<tag k="ssr:stedsnr" v="187713" />
	</node>
	<node lat="60.03875278185858" lon="10.971352783811925" id="-14140">
		<tag k="name" v="Løkenmåsan" />
		<tag k="natural" v="wetland" />
		<tag k="ssr:stedsnr" v="266251" />
	</node>
	<node lat="59.97779999592638" lon="11.16626944314607" id="-14141">
		<tag k="name" v="Kongsrudmåsan" />
		<tag k="natural" v="wetland" />
		<tag k="ssr:stedsnr" v="266259" />
	</node>
	<node lat="59.973297218271945" lon="11.020183327397389" id="-14142">
		<tag k="name" v="Valstadslora" />
		<tag k="place" v="locality" />
		<tag k="ssr:stedsnr" v="266265" />
	</node>
	<node lat="60.02757222075646" lon="11.353158324585143" id="-14160">
		<tag k="name" v="Damstokkmyra" />
		<tag k="natural" v="wetland" />
		<tag k="ssr:stedsnr" v="222321" />
	</node>
	<node lat="59.921172218173155" lon="11.317936115730893" id="-14161">
		<tag k="name" v="Saueberga" />
		<tag k="place" v="locality" />
		<tag k="ssr:stedsnr" v="222409" />
	</node>
	<node lat="59.979261107541504" lon="11.171452770891287" id="-14167">
		<tag k="name" v="Slåttemyra" />
		<tag k="natural" v="wetland" />
		<tag k="ssr:stedsnr" v="237904" />
	</node>
	<node lat="59.96007500003506" lon="11.141108333820371" id="-14169">
		<tag k="name" v="Damsletta" />
		<tag k="place" v="locality" />
		<tag k="ssr:stedsnr" v="237998" />
	</node>
	<node lat="59.91687777859488" lon="11.319516663918655" id="-14171">
		<tag k="historic" v="shieling" />
		<tag k="name" v="Østmorksetra" />
		<tag k="place" v="locality" />
		<tag k="ssr:stedsnr" v="239233" />
	</node>
	<node lat="59.876616663626606" lon="11.216108336447169" id="-14173">
		<tag k="name" v="Snippen" />
		<tag k="place" v="locality" />
		<tag k="ssr:stedsnr" v="239507" />
	</node>
	<node lat="60.01667222598526" lon="11.130699997856375" id="-14179">
		<tag k="name" v="Yssihagan" />
		<tag k="place" v="locality" />
		<tag k="ssr:stedsnr" v="239938" />
	</node>
	<node lat="60.01418333223641" lon="11.128422213739892" id="-14180">
		<tag k="name" v="Skrøverhagan" />
		<tag k="place" v="locality" />
		<tag k="ssr:stedsnr" v="239939" />
	</node>
	<node lat="59.9624277750718" lon="11.262111113453065" id="-14184">
		<tag k="name" v="Brånan" />
		<tag k="natural" v="wetland" />
		<tag k="ssr:stedsnr" v="247502" />
	</node>
	<node lat="59.911502776213844" lon="11.205144435497004" id="-14201">
		<tag k="name" v="Balrusmyra" />
		<tag k="natural" v="wetland" />
		<tag k="ssr:stedsnr" v="248648" />
	</node>
	<node lat="59.79854722448622" lon="11.296313896754063" id="-14211">
		<tag k="name" v="Seterskogen" />
		<tag k="place" v="locality" />
		<tag k="ssr:stedsnr" v="282220" />
	</node>
	<node lat="59.8080500042241" lon="11.276675007146231" id="-14214">
		<tag k="name" v="Høgmåsan" />
		<tag k="natural" v="wetland" />
		<tag k="ssr:stedsnr" v="282227" />
	</node>
	<node lat="60.05619999901626" lon="11.295547230312046" id="-14217">
		<tag k="name" v="Askedalsmyra" />
		<tag k="natural" v="wetland" />
		<tag k="ssr:stedsnr" v="282405" />
	</node>
	<node lat="59.942708337536345" lon="11.282736113558657" id="-14219">
		<tag k="name" v="Bjønnmyra" />
=======
<osm generator="osmapis" version="0.6">
	<node id="-257532" lat="59.8625416692" lon="11.2988861186">
		<tag k="name" v="Langmyrene" />
		<tag k="natural" v="wetland" />
		<tag k="ssr:stedsnr" v="664584" />
	</node>
	<node id="-258038" lat="59.8246777768" lon="11.2532444451">
		<tag k="name" v="Opptjennmyra" />
		<tag k="natural" v="wetland" />
		<tag k="ssr:stedsnr" v="950354" />
	</node>
	<node id="-259059" lat="60.0557222179" lon="11.1696666632">
		<tag k="name" v="Bjønnmyra" />
		<tag k="natural" v="wetland" />
		<tag k="ssr:stedsnr" v="768382" />
	</node>
	<node id="-257522" lat="59.9726416645" lon="11.1121888974">
		<tag k="name" v="Jølsen skog" />
		<tag k="place" v="locality" />
		<tag k="ssr:stedsnr" v="661902" />
	</node>
	<node id="-258033" lat="59.7849527776" lon="11.2933499937">
		<tag k="name" v="Kannemåsan" />
		<tag k="natural" v="wetland" />
		<tag k="ssr:stedsnr" v="950284" />
	</node>
	<node id="-258030" lat="60.0325555547" lon="11.0619972281">
		<tag k="name" v="Vardemåsan" />
		<tag k="natural" v="wetland" />
		<tag k="ssr:stedsnr" v="873924" />
	</node>
	<node id="-259052" lat="59.8191194477" lon="11.2489083298">
		<tag k="name" v="Legermoen" />
		<tag k="place" v="locality" />
		<tag k="ssr:stedsnr" v="767360" />
	</node>
	<node id="-259051" lat="59.8262583319" lon="11.2865361066">
		<tag k="name" v="Bognemyra" />
		<tag k="natural" v="wetland" />
		<tag k="ssr:stedsnr" v="767354" />
	</node>
	<node id="-258023" lat="59.9724861071" lon="11.1288305513">
		<tag k="name" v="Svinemyra" />
		<tag k="natural" v="wetland" />
		<tag k="ssr:stedsnr" v="873258" />
	</node>
	<node id="-258531" lat="59.9975388923" lon="11.180794451">
		<tag k="name" v="Vivangsmyra" />
		<tag k="natural" v="wetland" />
		<tag k="ssr:stedsnr" v="300715" />
	</node>
	<node id="-259039" lat="59.906888887" lon="11.2071083386">
		<tag k="name" v="Løkenmåsan" />
		<tag k="natural" v="wetland" />
		<tag k="ssr:stedsnr" v="648728" />
	</node>
	<node id="-257497" lat="59.9030277806" lon="11.3086611045">
		<tag k="alt_name" v="Stutemåsan" />
		<tag k="name" v="Stutmåsan" />
		<tag k="natural" v="wetland" />
		<tag k="ssr:stedsnr" v="430627" />
	</node>
	<node id="-258515" lat="59.9604027814" lon="10.9538194436">
		<tag k="name" v="Ulvenhogget" />
		<tag k="place" v="locality" />
		<tag k="ssr:stedsnr" v="205283" />
	</node>
	<node id="-258002" lat="59.9488055527" lon="11.2808083301">
		<tag k="name" v="Fossummåsan" />
		<tag k="natural" v="wetland" />
		<tag k="ssr:stedsnr" v="950443" />
	</node>
	<node id="-257478" lat="59.8836055517" lon="11.2411472253">
		<tag k="name" v="Rundmyrene" />
		<tag k="natural" v="wetland" />
		<tag k="ssr:stedsnr" v="422558" />
	</node>
	<node id="-258209" lat="59.9038000032" lon="11.2494472264">
		<tag k="name" v="Villmåsan" />
		<tag k="natural" v="wetland" />
		<tag k="ssr:stedsnr" v="57611" />
	</node>
	<node id="-258498" lat="59.8484972259" lon="11.3245722156">
		<tag k="name" v="Bjørkmyra" />
		<tag k="natural" v="wetland" />
		<tag k="ssr:stedsnr" v="187713" />
	</node>
	<node id="-259009" lat="59.9750999972" lon="11.1010361147">
		<tag k="name" v="Asaklandet" />
		<tag k="place" v="locality" />
		<tag k="ssr:stedsnr" v="630246" />
	</node>
	<node id="-257472" lat="59.9466472191" lon="11.0809972226">
		<tag k="name" v="Lille England" />
		<tag k="place" v="locality" />
		<tag k="ssr:stedsnr" v="509234" />
	</node>
	<node id="-257979" lat="59.9100250032" lon="11.2703305629">
		<tag k="alt_name" v="Brennmyrane" />
		<tag k="name" v="Brennmyrene" />
		<tag k="natural" v="wetland" />
		<tag k="ssr:stedsnr" v="794616" />
	</node>
	<node id="-257463" lat="59.969141666" lon="11.2953416675">
		<tag k="name" v="Delemyrene" />
		<tag k="natural" v="wetland" />
		<tag k="ssr:stedsnr" v="404363" />
	</node>
	<node id="-257523" lat="59.8941944418" lon="11.3042750057">
		<tag k="name" v="Ulvegårdsmyrene" />
		<tag k="natural" v="wetland" />
		<tag k="ssr:stedsnr" v="663290" />
	</node>
	<node id="-257456" lat="59.9771499967" lon="11.0847611059">
		<tag k="name" v="Furuholen" />
		<tag k="place" v="locality" />
		<tag k="ssr:stedsnr" v="387279" />
	</node>
	<node id="-257455" lat="59.9724833309" lon="11.144341668">
		<tag k="name" v="Kongsrudmyra" />
		<tag k="natural" v="wetland" />
		<tag k="ssr:stedsnr" v="387273" />
	</node>
	<node id="-257454" lat="60.0209000025" lon="10.9758527704">
		<tag k="name" v="Hauermåsan" />
		<tag k="natural" v="wetland" />
		<tag k="ssr:stedsnr" v="387267" />
	</node>
	<node id="-257452" lat="59.8443138882" lon="11.3086611135">
		<tag k="name" v="Furutoppmyra" />
		<tag k="natural" v="wetland" />
		<tag k="ssr:stedsnr" v="362354" />
	</node>
	<node id="-257963" lat="59.8462694414" lon="11.27734167">
		<tag k="name" v="Tiurmyra" />
		<tag k="natural" v="wetland" />
		<tag k="ssr:stedsnr" v="787371" />
	</node>
	<node id="-257962" lat="59.8424250014" lon="11.2779333406">
		<tag k="name" v="Martemyra" />
		<tag k="natural" v="wetland" />
		<tag k="ssr:stedsnr" v="787361" />
	</node>
	<node id="-257180" lat="59.9476027745" lon="11.2766250033">
		<tag k="historic" v="shieling" />
		<tag k="name" v="Fossumsetra" />
		<tag k="place" v="locality" />
		<tag k="ssr:stedsnr" v="100427" />
	</node>
	<node id="-258981" lat="59.9967638928" lon="11.3418055603">
		<tag k="name" v="Skukstadmåsan" />
		<tag k="natural" v="wetland" />
		<tag k="ssr:stedsnr" v="611475" />
	</node>
	<node id="-258979" lat="59.8705361107" lon="11.3122138808">
		<tag k="name" v="Fuglemåsan" />
		<tag k="natural" v="wetland" />
		<tag k="ssr:stedsnr" v="611693" />
	</node>
	<node id="-258465" lat="59.9748472192" lon="11.3569777698">
		<tag k="name" v="Vesthagan" />
		<tag k="place" v="locality" />
		<tag k="ssr:stedsnr" v="180589" />
	</node>
	<node id="-258972" lat="59.9302027765" lon="11.2990555518">
		<tag k="fixme" v="multiple name tags, choose one and add the other to alt_name" />
		<tag k="name" v="Killingmyra;Kjellermyra" />
		<tag k="natural" v="wetland" />
		<tag k="ssr:stedsnr" v="611569" />
	</node>
	<node id="-258967" lat="59.9901666686" lon="11.1648166685">
		<tag k="name" v="Bjønnmyra" />
		<tag k="natural" v="wetland" />
		<tag k="ssr:stedsnr" v="605601" />
	</node>
	<node id="-258453" lat="60.0110888878" lon="11.1858861141">
		<tag k="name" v="Holtet" />
		<tag k="place" v="locality" />
		<tag k="ssr:stedsnr" v="178925" />
	</node>
	<node id="-257939" lat="59.9772027781" lon="11.3949250085">
		<tag k="name" v="Dammåsan" />
>>>>>>> e1d4bc35ff8a6074a6f2e91616a996b547c36f15
		<tag k="natural" v="wetland" />
		<tag k="ssr:stedsnr" v="282412" />
	</node>
<<<<<<< HEAD
	<node lat="59.93026944177294" lon="11.318088889103672" id="-14221">
		<tag k="name" v="Høgmåsan" />
		<tag k="natural" v="wetland" />
		<tag k="ssr:stedsnr" v="282419" />
	</node>
	<node lat="59.84691944537733" lon="11.224130560294038" id="-14223">
		<tag k="name" v="Østaneshagen" />
		<tag k="place" v="locality" />
		<tag k="ssr:stedsnr" v="282316" />
	</node>
	<node lat="59.85835000212534" lon="11.257147226983154" id="-14224">
		<tag k="name" v="Ingerhølet" />
		<tag k="natural" v="wetland" />
		<tag k="ssr:stedsnr" v="284609" />
	</node>
	<node lat="59.90103333070954" lon="11.177877773778059" id="-14228">
		<tag k="name" v="Råsokhagen" />
		<tag k="place" v="locality" />
		<tag k="ssr:stedsnr" v="285718" />
	</node>
	<node lat="59.99753889226924" lon="11.180794450985161" id="-14242">
		<tag k="name" v="Vivangsmyra" />
		<tag k="natural" v="wetland" />
		<tag k="ssr:stedsnr" v="300715" />
	</node>
	<node lat="59.76911666481882" lon="11.312800005764197" id="-14247">
		<tag k="name" v="Kollemyra" />
		<tag k="natural" v="wetland" />
		<tag k="ssr:stedsnr" v="464283" />
	</node>
	<node lat="59.97956944445642" lon="11.226197226453632" id="-14253">
		<tag k="name" v="Østbyhagen" />
		<tag k="place" v="locality" />
		<tag k="ssr:stedsnr" v="464386" />
	</node>
	<node lat="59.7840750018883" lon="11.297280557027946" id="-14290">
		<tag k="name" v="Høgmåsan" />
		<tag k="natural" v="wetland" />
		<tag k="ssr:stedsnr" v="342253" />
	</node>
	<node lat="59.924533333799694" lon="11.334741659940569" id="-14300">
		<tag k="name" v="Limultemyra" />
		<tag k="natural" v="wetland" />
		<tag k="ssr:stedsnr" v="360249" />
	</node>
	<node lat="59.79481666602724" lon="11.295452777899229" id="-14349">
		<tag k="name" v="Taskemåsan" />
		<tag k="natural" v="wetland" />
		<tag k="ssr:stedsnr" v="403236" />
	</node>
	<node lat="59.85211388753591" lon="11.259383333155416" id="-14373">
		<tag k="name" v="Vesthagen" />
		<tag k="place" v="locality" />
		<tag k="ssr:stedsnr" v="423390" />
	</node>
	<node lat="59.88988333111439" lon="11.243858335675068" id="-14395">
		<tag k="name" v="Fuglemåsan" />
		<tag k="natural" v="wetland" />
		<tag k="ssr:stedsnr" v="490662" />
	</node>
	<node lat="59.78125277425913" lon="11.311786103839875" id="-14464">
		<tag k="name" v="Søndre Dritermåsan" />
		<tag k="natural" v="wetland" />
		<tag k="ssr:stedsnr" v="464278" />
	</node>
	<node lat="59.834008330809326" lon="11.26386665830713" id="-14469">
		<tag k="name" v="Breimyra" />
		<tag k="natural" v="wetland" />
		<tag k="ssr:stedsnr" v="464358" />
	</node>
	<node lat="59.849686111503615" lon="11.307088888308982" id="-14492">
		<tag k="name" v="Nedre Torsmyr" />
		<tag k="natural" v="wetland" />
		<tag k="ssr:stedsnr" v="484310" />
	</node>
	<node lat="60.012513889663964" lon="11.345269439388115" id="-14515">
		<tag k="name" v="Skullerudmåsan" />
		<tag k="natural" v="wetland" />
		<tag k="ssr:stedsnr" v="525173" />
	</node>
	<node lat="59.97931944701904" lon="11.176347220013511" id="-14550">
		<tag k="name" v="Kumyra" />
		<tag k="natural" v="wetland" />
		<tag k="ssr:stedsnr" v="550450" />
	</node>
	<node lat="60.01533333331372" lon="10.982141665204587" id="-14577">
		<tag k="name" v="Kålhagemyra" />
		<tag k="natural" v="wetland" />
		<tag k="ssr:stedsnr" v="691273" />
	</node>
	<node lat="59.98140833675075" lon="11.186097227407485" id="-14590">
		<tag k="name" v="Dammyra" />
		<tag k="natural" v="wetland" />
		<tag k="ssr:stedsnr" v="585326" />
	</node>
	<node lat="59.780438892643204" lon="11.323205552831947" id="-14591">
		<tag k="name" v="Nedre Stordalsmyra" />
		<tag k="natural" v="wetland" />
		<tag k="ssr:stedsnr" v="585242" />
	</node>
	<node lat="59.99964999696537" lon="11.136741665433409" id="-14606">
		<tag k="name" v="Hellefjellet" />
		<tag k="place" v="locality" />
		<tag k="ssr:stedsnr" v="605582" />
	</node>
	<node lat="59.990166668550536" lon="11.164816668522652" id="-14607">
		<tag k="name" v="Bjønnmyra" />
		<tag k="natural" v="wetland" />
		<tag k="ssr:stedsnr" v="605601" />
	</node>
	<node lat="59.87053611073878" lon="11.312213880782213" id="-14615">
		<tag k="name" v="Fuglemåsan" />
		<tag k="natural" v="wetland" />
		<tag k="ssr:stedsnr" v="611693" />
	</node>
	<node lat="59.97509999715721" lon="11.101036114726817" id="-14625">
		<tag k="name" v="Asaklandet" />
		<tag k="place" v="locality" />
		<tag k="ssr:stedsnr" v="630246" />
	</node>
	<node lat="59.83292222514319" lon="11.286655562077534" id="-14633">
		<tag k="name" v="Lauvmoen" />
		<tag k="place" v="locality" />
		<tag k="ssr:stedsnr" v="646325" />
	</node>
	<node lat="59.780183333564125" lon="11.318411105070242" id="-14634">
		<tag k="name" v="Midtre Stordalsmyra" />
		<tag k="natural" v="wetland" />
		<tag k="ssr:stedsnr" v="646273" />
	</node>
	<node lat="59.79530555867582" lon="11.297802782192276" id="-14646">
		<tag k="name" v="Ingermåsan" />
		<tag k="natural" v="wetland" />
		<tag k="ssr:stedsnr" v="707277" />
	</node>
	<node lat="59.797602776638215" lon="11.26524999960193" id="-14647">
		<tag k="name" v="Dammyra" />
		<tag k="natural" v="wetland" />
		<tag k="ssr:stedsnr" v="707285" />
	</node>
	<node lat="59.76734444082646" lon="11.319036111148376" id="-14649">
		<tag k="name" v="Gravtjennmåsan" />
		<tag k="natural" v="wetland" />
		<tag k="ssr:stedsnr" v="707299" />
	</node>
	<node lat="59.862541669174306" lon="11.298886118594526" id="-14673">
		<tag k="name" v="Langmyrene" />
		<tag k="natural" v="wetland" />
		<tag k="ssr:stedsnr" v="664584" />
	</node>
	<node lat="59.988316664679424" lon="11.179988883206489" id="-14674">
		<tag k="name" v="Pussemyra" />
		<tag k="natural" v="wetland" />
		<tag k="ssr:stedsnr" v="664709" />
	</node>
	<node lat="59.85361388485539" lon="11.326466658287869" id="-14688">
		<tag k="name" v="Timbermåsan" />
		<tag k="natural" v="wetland" />
		<tag k="ssr:stedsnr" v="890638" />
	</node>
	<node lat="59.957158334702754" lon="11.2599083394011" id="-14689">
		<tag k="alt_name" v="Breidmåsan" />
		<tag k="name" v="Breimåsan" />
		<tag k="natural" v="wetland" />
		<tag k="ssr:stedsnr" v="672502" />
	</node>
	<node lat="59.85228888870035" lon="11.276805550315506" id="-14694">
		<tag k="name" v="Karimåsan" />
=======
	<node id="-258449" lat="59.9923888861" lon="11.3974777815">
		<tag k="name" v="Klingemåsan" />
		<tag k="natural" v="wetland" />
		<tag k="ssr:stedsnr" v="178781" />
	</node>
	<node id="-257176" lat="59.8364472239" lon="11.2854499942">
		<tag k="name" v="Nordre Halvheklemyr" />
		<tag k="natural" v="wetland" />
		<tag k="ssr:stedsnr" v="100316" />
	</node>
	<node id="-258442" lat="59.9245305545" lon="11.3210694419">
		<tag k="name" v="Kjeisomkring" />
		<tag k="place" v="locality" />
		<tag k="ssr:stedsnr" v="178269" />
	</node>
	<node id="-258441" lat="59.9187972196" lon="11.2815944412">
		<tag k="name" v="Vangsmåsan" />
		<tag k="natural" v="wetland" />
		<tag k="ssr:stedsnr" v="178238" />
	</node>
	<node id="-257927" lat="59.7690333337" lon="11.3327944497">
		<tag k="name" v="Hansketjennmoen" />
		<tag k="place" v="locality" />
		<tag k="ssr:stedsnr" v="767273" />
	</node>
	<node id="-258437" lat="59.9663361121" lon="11.1416916605">
		<tag k="name" v="Vinsnesskogen" />
		<tag k="place" v="locality" />
		<tag k="ssr:stedsnr" v="176875" />
	</node>
	<node id="-258435" lat="59.9638916662" lon="11.165933334">
		<tag k="name" v="Jasemyra" />
		<tag k="natural" v="wetland" />
		<tag k="ssr:stedsnr" v="176872" />
	</node>
	<node id="-258283" lat="59.7954916676" lon="11.2756416683">
		<tag k="name" v="Breimåsan" />
		<tag k="natural" v="wetland" />
		<tag k="ssr:stedsnr" v="100235" />
	</node>
	<node id="-258944" lat="59.9616638922" lon="11.1082138956">
		<tag k="name" v="Sommerfjøssletta" />
		<tag k="place" v="locality" />
		<tag k="ssr:stedsnr" v="600892" />
	</node>
	<node id="-258943" lat="59.950419448" lon="11.2204083335">
		<tag k="name" v="Nordmoen" />
		<tag k="natural" v="wetland" />
		<tag k="ssr:stedsnr" v="600883" />
	</node>
	<node id="-257918" lat="59.8500499997" lon="11.2842777827">
		<tag k="name" v="Øvre Høgmyr" />
		<tag k="natural" v="wetland" />
		<tag k="ssr:stedsnr" v="909345" />
	</node>
	<node id="-258965" lat="60.032811108" lon="11.1671777795">
		<tag k="name" v="Hesthagan" />
		<tag k="place" v="locality" />
		<tag k="ssr:stedsnr" v="605273" />
	</node>
	<node id="-258426" lat="59.8803333332" lon="11.2492027726">
		<tag k="name" v="Høymyrene" />
		<tag k="natural" v="wetland" />
		<tag k="ssr:stedsnr" v="300546" />
	</node>
	<node id="-257911" lat="60.0262000015" lon="11.2870777804">
		<tag k="name" v="Børgenmarka" />
		<tag k="place" v="locality" />
		<tag k="ssr:stedsnr" v="909212" />
	</node>
	<node id="-258930" lat="59.7804388926" lon="11.3232055528">
		<tag k="name" v="Nedre Stordalsmyra" />
		<tag k="natural" v="wetland" />
		<tag k="ssr:stedsnr" v="585242" />
	</node>
	<node id="-257427" lat="59.8898833311" lon="11.2438583357">
		<tag k="name" v="Fuglemåsan" />
		<tag k="natural" v="wetland" />
		<tag k="ssr:stedsnr" v="490662" />
	</node>
	<node id="-258925" lat="59.9814083368" lon="11.1860972274">
		<tag k="name" v="Dammyra" />
		<tag k="natural" v="wetland" />
		<tag k="ssr:stedsnr" v="585326" />
	</node>
	<node id="-257899" lat="59.9776055562" lon="11.1709861039">
		<tag k="name" v="Torvmåsan" />
		<tag k="natural" v="wetland" />
		<tag k="ssr:stedsnr" v="904919" />
	</node>
	<node id="-258410" lat="59.9458083337" lon="11.2847944385">
		<tag k="name" v="Setermyra" />
		<tag k="natural" v="wetland" />
		<tag k="ssr:stedsnr" v="161444" />
	</node>
	<node id="-258961" lat="59.991925002" lon="11.194286117">
		<tag k="name" v="Elgmyra" />
		<tag k="natural" v="wetland" />
		<tag k="ssr:stedsnr" v="603682" />
	</node>
	<node id="-258912" lat="60.0173416675" lon="10.980972221">
		<tag k="name" v="Blåbærmyra" />
		<tag k="natural" v="wetland" />
		<tag k="ssr:stedsnr" v="569245" />
	</node>
	<node id="-257168" lat="59.9783750027" lon="11.1332194374">
		<tag k="name" v="Breimåsan" />
		<tag k="natural" v="wetland" />
		<tag k="ssr:stedsnr" v="84268" />
	</node>
	<node id="-257167" lat="59.9981472232" lon="11.0964500009">
		<tag k="name" v="Kattismyra" />
		<tag k="natural" v="wetland" />
		<tag k="ssr:stedsnr" v="84267" />
	</node>
	<node id="-258169" lat="59.9424388902" lon="11.3426972235">
		<tag k="name" v="Morkhagan" />
		<tag k="place" v="locality" />
		<tag k="ssr:stedsnr" v="39380" />
	</node>
	<node id="-257166" lat="59.9734472263" lon="11.0999333282">
		<tag k="name" v="Myrbodammen" />
		<tag k="natural" v="wetland" />
		<tag k="ssr:stedsnr" v="84266" />
	</node>
	<node id="-258385" lat="59.9444055557" lon="11.077566658">
		<tag k="name" v="England" />
		<tag k="place" v="locality" />
		<tag k="ssr:stedsnr" v="144281" />
	</node>
	<node id="-258384" lat="60.0207499996" lon="11.0506666721">
		<tag k="name" v="Tremannsmyra" />
		<tag k="natural" v="wetland" />
		<tag k="ssr:stedsnr" v="144272" />
	</node>
	<node id="-258383" lat="60.020988893" lon="11.008752778">
		<tag k="name" v="Migmyra" />
		<tag k="natural" v="wetland" />
		<tag k="ssr:stedsnr" v="144271" />
	</node>
	<node id="-258382" lat="59.8640888926" lon="11.3084416732">
		<tag k="name" v="Sagmåsan" />
		<tag k="natural" v="wetland" />
		<tag k="ssr:stedsnr" v="142130" />
	</node>
	<node id="-258881" lat="59.8734527761" lon="11.3047666623">
		<tag k="alt_name" v="Storemåsan" />
		<tag k="name" v="Sloremåsan" />
		<tag k="natural" v="wetland" />
		<tag k="ssr:stedsnr" v="550678" />
	</node>
	<node id="-257343" lat="59.8504861156" lon="11.3009305484">
		<tag k="name" v="Snikestykket" />
		<tag k="place" v="locality" />
		<tag k="ssr:stedsnr" v="302355" />
	</node>
	<node id="-257854" lat="59.9583472222" lon="11.293091659">
		<tag k="name" v="Bråtenmyra" />
>>>>>>> e1d4bc35ff8a6074a6f2e91616a996b547c36f15
		<tag k="natural" v="wetland" />
		<tag k="ssr:stedsnr" v="889450" />
	</node>
<<<<<<< HEAD
	<node lat="59.95488888817595" lon="11.026836116262881" id="-14709">
		<tag k="landuse" v="meadow" />
		<tag k="name" v="Hestehavn" />
		<tag k="ssr:stedsnr" v="691394" />
	</node>
	<node lat="59.86224166890533" lon="11.249711110859497" id="-14729">
		<tag k="name" v="Gjestadhagen" />
		<tag k="place" v="locality" />
		<tag k="ssr:stedsnr" v="709601" />
	</node>
	<node lat="59.90562222310223" lon="11.2273777768156" id="-14733">
		<tag k="name" v="Lintjennmåsan" />
		<tag k="natural" v="wetland" />
		<tag k="ssr:stedsnr" v="709729" />
	</node>
	<node lat="59.86980832975245" lon="11.297297222879921" id="-14740">
		<tag k="name" v="Olahølsmyra" />
		<tag k="natural" v="wetland" />
		<tag k="ssr:stedsnr" v="725544" />
	</node>
	<node lat="60.041458335636435" lon="10.97134444746299" id="-14755">
		<tag k="name" v="Pettersmyra" />
		<tag k="natural" v="wetland" />
		<tag k="ssr:stedsnr" v="733407" />
	</node>
	<node lat="59.96138888935935" lon="11.100188895720462" id="-14779">
		<tag k="name" v="Nyryddingen" />
		<tag k="place" v="locality" />
		<tag k="ssr:stedsnr" v="904898" />
	</node>
	<node lat="59.850049999748265" lon="11.284277782749019" id="-14792">
		<tag k="name" v="Øvre Høgmyr" />
		<tag k="natural" v="wetland" />
		<tag k="ssr:stedsnr" v="909345" />
	</node>
	<node lat="59.97165000427787" lon="11.33873888282179" id="-14793">
		<tag k="name" v="Jødalsmåsan" />
		<tag k="natural" v="wetland" />
		<tag k="ssr:stedsnr" v="909590" />
	</node>
	<node lat="59.76946111197298" lon="11.298733341449251" id="-14824">
		<tag k="alt_name" v="Mærramyra" />
		<tag k="name" v="Merramyra" />
		<tag k="natural" v="wetland" />
		<tag k="ssr:stedsnr" v="793910" />
	</node>
	<node lat="59.91002500324222" lon="11.270330562928859" id="-14827">
		<tag k="alt_name" v="Brennmyrane" />
		<tag k="name" v="Brennmyrene" />
		<tag k="natural" v="wetland" />
		<tag k="ssr:stedsnr" v="794616" />
	</node>
	<node lat="59.97720277812363" lon="11.394925008538753" id="-14845">
		<tag k="name" v="Dammåsan" />
		<tag k="natural" v="wetland" />
		<tag k="ssr:stedsnr" v="915428" />
	</node>
	<node lat="59.885347219372804" lon="11.236294437563238" id="-14853">
		<tag k="alt_name" v="Haremyra" />
		<tag k="name" v="Haramyra" />
		<tag k="natural" v="wetland" />
		<tag k="ssr:stedsnr" v="915657" />
	</node>
	<node lat="59.80536111224915" lon="11.27166111677204" id="-14876">
		<tag k="name" v="Rønningen" />
		<tag k="place" v="locality" />
		<tag k="ssr:stedsnr" v="828223" />
	</node>
	<node lat="59.76169444262027" lon="11.319016671323126" id="-14878">
		<tag k="name" v="Håkonsetermoen" />
		<tag k="place" v="locality" />
		<tag k="ssr:stedsnr" v="828304" />
	</node>
	<node lat="59.85648055484063" lon="11.3064333246021" id="-14882">
		<tag k="name" v="Saghølet" />
		<tag k="natural" v="wetland" />
		<tag k="ssr:stedsnr" v="829621" />
	</node>
	<node lat="59.92767777722375" lon="11.279697213708703" id="-14887">
		<tag k="alt_name" v="Krogstadenga" />
		<tag k="name" v="Krokstadenga" />
		<tag k="place" v="locality" />
		<tag k="ssr:stedsnr" v="846215" />
	</node>
	<node lat="59.911052774662906" lon="11.251852778263" id="-14892">
		<tag k="name" v="Breimåsan" />
		<tag k="natural" v="wetland" />
		<tag k="ssr:stedsnr" v="846619" />
	</node>
	<node lat="59.80783888822976" lon="11.270705561352992" id="-14935">
		<tag k="name" v="Bjønnemyra" />
		<tag k="natural" v="wetland" />
		<tag k="ssr:stedsnr" v="889260" />
	</node>
	<node lat="59.788500002218036" lon="11.291847222917088" id="-14936">
		<tag k="name" v="Drypilen" />
		<tag k="natural" v="wetland" />
		<tag k="ssr:stedsnr" v="889262" />
	</node>
	<node lat="59.76393610757126" lon="11.334524997766135" id="-14938">
		<tag k="name" v="Søndre Høgmåsan" />
		<tag k="natural" v="wetland" />
		<tag k="ssr:stedsnr" v="889306" />
	</node>
	<node lat="59.95834722216046" lon="11.2930916589914" id="-14942">
		<tag k="name" v="Bråtenmyra" />
		<tag k="natural" v="wetland" />
		<tag k="ssr:stedsnr" v="889450" />
	</node>
	<node lat="59.97001944587055" lon="11.170724992581137" id="-14950">
		<tag k="name" v="Stordammen" />
		<tag k="natural" v="wetland" />
		<tag k="ssr:stedsnr" v="904905" />
	</node>
	<node lat="59.97760555618906" lon="11.170986103850515" id="-14951">
		<tag k="name" v="Torvmåsan" />
		<tag k="natural" v="wetland" />
		<tag k="ssr:stedsnr" v="904919" />
	</node>
	<node lat="59.931500000833374" lon="11.263316665317555" id="-14952">
		<tag k="name" v="Engermåsan" />
=======
	<node id="-257930" lat="59.8370583337" lon="11.2791027816">
		<tag k="name" v="Skjærsmåsan" />
		<tag k="natural" v="wetland" />
		<tag k="ssr:stedsnr" v="767335" />
	</node>
	<node id="-257845" lat="59.9764583355" lon="11.298680558">
		<tag k="name" v="Bjønnmyra" />
		<tag k="natural" v="wetland" />
		<tag k="ssr:stedsnr" v="889371" />
	</node>
	<node id="-257246" lat="59.7985472245" lon="11.2963138968">
		<tag k="name" v="Seterskogen" />
		<tag k="place" v="locality" />
		<tag k="ssr:stedsnr" v="282220" />
	</node>
	<node id="-258865" lat="59.979319447" lon="11.17634722">
		<tag k="name" v="Kumyra" />
		<tag k="natural" v="wetland" />
		<tag k="ssr:stedsnr" v="550450" />
	</node>
	<node id="-258352" lat="59.9620277797" lon="11.2297666748">
		<tag k="name" v="Veamyra" />
		<tag k="natural" v="wetland" />
		<tag k="ssr:stedsnr" v="126524" />
	</node>
	<node id="-258196" lat="59.9160027781" lon="11.3059472289">
		<tag k="name" v="Dammyrene" />
		<tag k="natural" v="wetland" />
		<tag k="ssr:stedsnr" v="57210" />
	</node>
	<node id="-257838" lat="59.7639361076" lon="11.3345249978">
		<tag k="name" v="Søndre Høgmåsan" />
		<tag k="natural" v="wetland" />
		<tag k="ssr:stedsnr" v="889306" />
	</node>
	<node id="-258349" lat="59.9776388935" lon="11.4102833249">
		<tag k="alt_name" v="Høgmåsan" />
		<tag k="name" v="Høgemåsan" />
		<tag k="natural" v="wetland" />
		<tag k="ssr:stedsnr" v="126454" />
	</node>
	<node id="-258348" lat="60.037324997" lon="11.0038000031">
		<tag k="name" v="Høgsmåsan" />
		<tag k="natural" v="wetland" />
		<tag k="ssr:stedsnr" v="126432" />
	</node>
	<node id="-257835" lat="59.7885000022" lon="11.2918472229">
		<tag k="name" v="Drypilen" />
		<tag k="natural" v="wetland" />
		<tag k="ssr:stedsnr" v="889262" />
	</node>
	<node id="-257834" lat="59.8078388882" lon="11.2707055614">
		<tag k="name" v="Bjønnemyra" />
		<tag k="natural" v="wetland" />
		<tag k="ssr:stedsnr" v="889260" />
	</node>
	<node id="-258642" lat="60.0244194406" lon="11.1441749974">
		<tag k="name" v="Yssimyra" />
		<tag k="place" v="locality" />
		<tag k="ssr:stedsnr" v="360933" />
	</node>
	<node id="-257320" lat="59.9795694445" lon="11.2261972265">
		<tag k="name" v="Østbyhagen" />
		<tag k="place" v="locality" />
		<tag k="ssr:stedsnr" v="464386" />
	</node>
	<node id="-258268" lat="59.7826805584" lon="11.2840333283">
		<tag k="name" v="Tøysemyrene" />
		<tag k="natural" v="wetland" />
		<tag k="ssr:stedsnr" v="100269" />
	</node>
	<node id="-258341" lat="59.8851611097" lon="11.3090638847">
		<tag k="name" v="Sankthansmyrene" />
		<tag k="natural" v="wetland" />
		<tag k="ssr:stedsnr" v="125676" />
	</node>
	<node id="-257316" lat="59.7691166648" lon="11.3128000058">
		<tag k="name" v="Kollemyra" />
		<tag k="natural" v="wetland" />
		<tag k="ssr:stedsnr" v="464283" />
	</node>
	<node id="-257315" lat="59.7812527743" lon="11.3117861038">
		<tag k="name" v="Søndre Dritermåsan" />
		<tag k="natural" v="wetland" />
		<tag k="ssr:stedsnr" v="464278" />
	</node>
	<node id="-257312" lat="60.0233888886" lon="10.9841222267">
		<tag k="name" v="Skyttermyra" />
		<tag k="natural" v="wetland" />
		<tag k="ssr:stedsnr" v="448266" />
	</node>
	<node id="-257823" lat="59.9571583347" lon="11.2599083394">
		<tag k="alt_name" v="Breidmåsan" />
		<tag k="name" v="Breimåsan" />
		<tag k="natural" v="wetland" />
		<tag k="ssr:stedsnr" v="672502" />
	</node>
	<node id="-258844" lat="59.8862055554" lon="11.1966027763">
		<tag k="name" v="Svindalshagen" />
		<tag k="place" v="locality" />
		<tag k="ssr:stedsnr" v="543560" />
	</node>
	<node id="-258841" lat="59.8893500015" lon="11.2843277851">
		<tag k="name" v="Bysetermyra" />
		<tag k="natural" v="wetland" />
		<tag k="ssr:stedsnr" v="543542" />
	</node>
	<node id="-257303" lat="59.9168777786" lon="11.3195166639">
		<tag k="historic" v="shieling" />
		<tag k="name" v="Østmorksetra" />
		<tag k="place" v="locality" />
		<tag k="ssr:stedsnr" v="239233" />
	</node>
	<node id="-257301" lat="59.9792611075" lon="11.1714527709">
		<tag k="name" v="Slåttemyra" />
		<tag k="natural" v="wetland" />
		<tag k="ssr:stedsnr" v="237904" />
	</node>
	<node id="-257812" lat="59.9883166647" lon="11.1799888832">
		<tag k="name" v="Pussemyra" />
		<tag k="natural" v="wetland" />
		<tag k="ssr:stedsnr" v="664709" />
	</node>
	<node id="-257857" lat="59.8536138849" lon="11.3264666583">
		<tag k="name" v="Timbermåsan" />
>>>>>>> e1d4bc35ff8a6074a6f2e91616a996b547c36f15
		<tag k="natural" v="wetland" />
		<tag k="ssr:stedsnr" v="890638" />
	</node>
<<<<<<< HEAD
	<node lat="59.920119447387556" lon="11.271663881925827" id="-14953">
		<tag k="name" v="Seterdalsmyra" />
		<tag k="natural" v="wetland" />
		<tag k="ssr:stedsnr" v="906269" />
	</node>
	<node lat="60.02620000153605" lon="11.287077780449138" id="-14958">
		<tag k="name" v="Børgenmarka" />
		<tag k="place" v="locality" />
		<tag k="ssr:stedsnr" v="909212" />
	</node>
	<node lat="59.950658334537835" lon="11.093836106603298" id="-14980">
		<tag k="name" v="Borgenholtet" />
		<tag k="place" v="locality" />
		<tag k="ssr:stedsnr" v="934222" />
	</node>
	<node lat="59.78495277762181" lon="11.293349993741002" id="-14998">
		<tag k="name" v="Kannemåsan" />
		<tag k="natural" v="wetland" />
		<tag k="ssr:stedsnr" v="950284" />
	</node>
	<node lat="59.948805552671395" lon="11.280808330104126" id="-15003">
		<tag k="name" v="Fossummåsan" />
		<tag k="natural" v="wetland" />
		<tag k="ssr:stedsnr" v="950443" />
	</node>
	<node lat="59.97311111366684" lon="11.183666669582184" id="-15009">
		<tag k="name" v="Blåbærmåsan" />
		<tag k="natural" v="wetland" />
		<tag k="ssr:stedsnr" v="965122" />
	</node>
	<node lat="59.922622221390014" lon="11.316713893156026" id="-15015">
		<tag k="name" v="Sarpdalsmyra" />
		<tag k="natural" v="wetland" />
		<tag k="ssr:stedsnr" v="967244" />
	</node>
	<node lat="59.87763055251061" lon="11.302197215376825" id="-15019">
		<tag k="name" v="Tørrhjellmåsan" />
		<tag k="natural" v="wetland" />
		<tag k="ssr:stedsnr" v="967508" />
	</node>
	<node lat="60.00884167006457" lon="11.165286111240583" id="-15021">
		<tag k="name" v="Størsrudfjellet" />
		<tag k="place" v="locality" />
		<tag k="ssr:stedsnr" v="967906" />
	</node>
	<node lat="59.891480557073365" lon="11.22274721409546" id="-15057">
		<tag k="name" v="Kinnsmåsan" />
		<tag k="natural" v="wetland" />
		<tag k="ssr:stedsnr" v="4658" />
	</node>
	<node lat="59.9424388902437" lon="11.34269722354581" id="-15081">
		<tag k="name" v="Morkhagan" />
		<tag k="place" v="locality" />
		<tag k="ssr:stedsnr" v="39380" />
	</node>
	<node lat="59.78345278115566" lon="11.309763881819627" id="-15083">
		<tag k="name" v="Nordre Dritermåsan" />
		<tag k="natural" v="wetland" />
		<tag k="ssr:stedsnr" v="39220" />
	</node>
	<node lat="59.75495555135579" lon="11.335249993834754" id="-15086">
		<tag k="name" v="Østre Midtfjellmyra" />
		<tag k="natural" v="wetland" />
		<tag k="ssr:stedsnr" v="39256" />
	</node>
	<node lat="59.9548472239167" lon="11.14268611467837" id="-15106">
		<tag k="name" v="Berger skog" />
		<tag k="place" v="locality" />
		<tag k="ssr:stedsnr" v="55738" />
	</node>
	<node lat="59.9491805516596" lon="11.152116674189488" id="-15107">
		<tag k="name" v="Veståsen" />
		<tag k="place" v="locality" />
		<tag k="ssr:stedsnr" v="55844" />
	</node>
	<node lat="59.97305555154563" lon="11.170222226675278" id="-15108">
		<tag k="name" v="Vesledammen" />
		<tag k="natural" v="wetland" />
		<tag k="ssr:stedsnr" v="55892" />
	</node>
	<node lat="59.89361944820254" lon="11.276827783551811" id="-15110">
		<tag k="name" v="Vegamåsan" />
		<tag k="natural" v="wetland" />
		<tag k="ssr:stedsnr" v="57499" />
	</node>
	<node lat="59.90380000322879" lon="11.249447226358454" id="-15122">
		<tag k="name" v="Villmåsan" />
=======
	<node id="-257298" lat="59.9505722183" lon="11.1193638887">
		<tag k="name" v="Fløtti" />
		<tag k="place" v="locality" />
		<tag k="ssr:stedsnr" v="298820" />
	</node>
	<node id="-257807" lat="60.0047611082" lon="11.1747944381">
		<tag k="name" v="Dammyra" />
		<tag k="natural" v="wetland" />
		<tag k="ssr:stedsnr" v="663919" />
	</node>
	<node id="-257837" lat="59.7708000026" lon="11.3126138836">
		<tag k="name" v="Lauvhersja" />
		<tag k="place" v="locality" />
		<tag k="ssr:stedsnr" v="889284" />
	</node>
	<node id="-258316" lat="59.9845499998" lon="11.3582944365">
		<tag k="name" v="Kjølstadhagan" />
		<tag k="place" v="locality" />
		<tag k="ssr:stedsnr" v="117786" />
	</node>
	<node id="-258826" lat="59.9860055522" lon="11.2056722281">
		<tag k="name" v="Fiskeberget" />
		<tag k="place" v="locality" />
		<tag k="ssr:stedsnr" v="542651" />
	</node>
	<node id="-258313" lat="59.9087305581" lon="11.317463884">
		<tag k="name" v="Langmyrene" />
		<tag k="natural" v="wetland" />
		<tag k="ssr:stedsnr" v="117296" />
	</node>
	<node id="-258312" lat="59.9081666666" lon="11.3234861102">
		<tag k="name" v="Orremåsan" />
		<tag k="natural" v="wetland" />
		<tag k="ssr:stedsnr" v="117295" />
	</node>
	<node id="-258823" lat="59.907027775" lon="11.2635277845">
		<tag k="name" v="Breisjødraget" />
		<tag k="natural" v="wetland" />
		<tag k="ssr:stedsnr" v="542253" />
	</node>
	<node id="-257286" lat="59.8426277777" lon="11.2740388971">
		<tag k="name" v="Rompemyra" />
		<tag k="natural" v="wetland" />
		<tag k="ssr:stedsnr" v="180353" />
	</node>
	<node id="-257285" lat="59.890749999" lon="11.2541055563">
		<tag k="name" v="Oppegårdsmyra" />
		<tag k="natural" v="wetland" />
		<tag k="ssr:stedsnr" v="179527" />
	</node>
	<node id="-258308" lat="59.9641000027" lon="11.1081166708">
		<tag k="name" v="Barkebråtfløtten" />
		<tag k="place" v="locality" />
		<tag k="ssr:stedsnr" v="116876" />
	</node>
	<node id="-258305" lat="59.975580559" lon="11.1923416741">
		<tag k="historic" v="shieling" />
		<tag k="name" v="Setra" />
		<tag k="place" v="locality" />
		<tag k="ssr:stedsnr" v="116122" />
	</node>
	<node id="-257790" lat="59.7801833336" lon="11.3184111051">
		<tag k="name" v="Midtre Stordalsmyra" />
		<tag k="natural" v="wetland" />
		<tag k="ssr:stedsnr" v="646273" />
	</node>
	<node id="-257277" lat="59.8583500021" lon="11.257147227">
		<tag k="name" v="Ingerhølet" />
		<tag k="natural" v="wetland" />
		<tag k="ssr:stedsnr" v="284609" />
	</node>
	<node id="-257276" lat="59.8713305552" lon="11.209966662">
		<tag k="alt_name" v="Blesahagen" />
		<tag k="name" v="Blesahagan" />
		<tag k="place" v="locality" />
		<tag k="ssr:stedsnr" v="284334" />
	</node>
	<node id="-257919" lat="59.9716500043" lon="11.3387388828">
		<tag k="name" v="Jødalsmåsan" />
		<tag k="natural" v="wetland" />
		<tag k="ssr:stedsnr" v="909590" />
	</node>
	<node id="-257782" lat="59.8445777771" lon="11.2905777721">
		<tag k="alt_name" v="Heiremåsan" />
		<tag k="name" v="Heirmåsan" />
		<tag k="natural" v="wetland" />
		<tag k="ssr:stedsnr" v="733719" />
	</node>
	<node id="-257267" lat="59.9302694418" lon="11.3180888891">
		<tag k="name" v="Høgmåsan" />
		<tag k="natural" v="wetland" />
		<tag k="ssr:stedsnr" v="282419" />
	</node>
	<node id="-257265" lat="59.9427083375" lon="11.2827361136">
		<tag k="name" v="Bjønnmyra" />
>>>>>>> e1d4bc35ff8a6074a6f2e91616a996b547c36f15
		<tag k="natural" v="wetland" />
		<tag k="ssr:stedsnr" v="282412" />
	</node>
<<<<<<< HEAD
	<node lat="59.92438889274722" lon="11.238386112298228" id="-15132">
		<tag k="name" v="Setermyra" />
		<tag k="natural" v="wetland" />
		<tag k="ssr:stedsnr" v="59832" />
	</node>
	<node lat="59.86964722558087" lon="11.30307500162516" id="-15138">
		<tag k="name" v="Vegmåsan" />
		<tag k="natural" v="wetland" />
		<tag k="ssr:stedsnr" v="65710" />
	</node>
	<node lat="59.85039166928973" lon="11.318705553982573" id="-15140">
		<tag k="name" v="Geitlimåsan" />
		<tag k="natural" v="wetland" />
		<tag k="ssr:stedsnr" v="65726" />
	</node>
	<node lat="59.84630833708993" lon="11.271397224529466" id="-15141">
		<tag k="alt_name" v="Veslemåsan" />
		<tag k="name" v="Veslemyra" />
		<tag k="natural" v="wetland" />
		<tag k="ssr:stedsnr" v="65740" />
	</node>
	<node lat="59.973447226302305" lon="11.0999333282298" id="-15160">
		<tag k="name" v="Myrbodammen" />
		<tag k="natural" v="wetland" />
		<tag k="ssr:stedsnr" v="84266" />
	</node>
	<node lat="59.99814722318798" lon="11.096450000920049" id="-15161">
		<tag k="name" v="Kattismyra" />
		<tag k="natural" v="wetland" />
		<tag k="ssr:stedsnr" v="84267" />
	</node>
	<node lat="59.97837500267404" lon="11.133219437386838" id="-15162">
		<tag k="name" v="Breimåsan" />
		<tag k="natural" v="wetland" />
		<tag k="ssr:stedsnr" v="84268" />
	</node>
	<node lat="59.795491667584905" lon="11.275641668327676" id="-15181">
		<tag k="name" v="Breimåsan" />
		<tag k="natural" v="wetland" />
		<tag k="ssr:stedsnr" v="100235" />
	</node>
	<node lat="59.90816666661728" lon="11.323486110218745" id="-15196">
		<tag k="name" v="Orremåsan" />
		<tag k="natural" v="wetland" />
		<tag k="ssr:stedsnr" v="117295" />
	</node>
	<node lat="59.90873055805583" lon="11.317463883961572" id="-15197">
		<tag k="name" v="Langmyrene" />
		<tag k="natural" v="wetland" />
		<tag k="ssr:stedsnr" v="117296" />
	</node>
	<node lat="59.9641000027072" lon="11.108116670755704" id="-15199">
		<tag k="name" v="Barkebråtfløtten" />
		<tag k="place" v="locality" />
		<tag k="ssr:stedsnr" v="116876" />
	</node>
	<node lat="59.98454999983536" lon="11.358294436510358" id="-15204">
		<tag k="name" v="Kjølstadhagan" />
		<tag k="place" v="locality" />
		<tag k="ssr:stedsnr" v="117786" />
	</node>
	<node lat="59.8786250037558" lon="11.321280556416328" id="-15210">
		<tag k="name" v="Tjonsteinen" />
		<tag k="natural" v="stone" />
		<tag k="ssr:stedsnr" v="119059" />
	</node>
	<node lat="59.834852773812486" lon="11.290283339494662" id="-15214">
		<tag k="name" v="Nedre Halvheklemyr" />
		<tag k="natural" v="wetland" />
		<tag k="ssr:stedsnr" v="120349" />
	</node>
	<node lat="59.88516110972452" lon="11.309063884740848" id="-15228">
		<tag k="name" v="Sankthansmyrene" />
		<tag k="natural" v="wetland" />
		<tag k="ssr:stedsnr" v="125676" />
	</node>
	<node lat="60.037324997049424" lon="11.003800003114767" id="-15235">
		<tag k="name" v="Høgsmåsan" />
		<tag k="natural" v="wetland" />
		<tag k="ssr:stedsnr" v="126432" />
	</node>
	<node lat="59.864088892635316" lon="11.308441673186076" id="-15252">
		<tag k="name" v="Sagmåsan" />
		<tag k="natural" v="wetland" />
		<tag k="ssr:stedsnr" v="142130" />
	</node>
	<node lat="60.0209888929597" lon="11.008752777972946" id="-15254">
		<tag k="name" v="Migmyra" />
		<tag k="natural" v="wetland" />
		<tag k="ssr:stedsnr" v="144271" />
	</node>
	<node lat="60.020749999633445" lon="11.05066667214533" id="-15255">
		<tag k="name" v="Tremannsmyra" />
		<tag k="natural" v="wetland" />
		<tag k="ssr:stedsnr" v="144272" />
	</node>
	<node lat="60.05343055127728" lon="11.200577778395028" id="-15265">
=======
	<node id="-257263" lat="60.056199999" lon="11.2955472303">
		<tag k="name" v="Askedalsmyra" />
		<tag k="natural" v="wetland" />
		<tag k="ssr:stedsnr" v="282405" />
	</node>
	<node id="-257262" lat="59.9723666662" lon="11.3019999996">
		<tag k="name" v="Torvstrømyra" />
		<tag k="natural" v="wetland" />
		<tag k="ssr:stedsnr" v="282363" />
	</node>
	<node id="-257773" lat="59.8823444419" lon="11.2723027722">
		<tag k="alt_name" v="Breidmåsan" />
		<tag k="name" v="Breimåsan" />
		<tag k="natural" v="wetland" />
		<tag k="ssr:stedsnr" v="733648" />
	</node>
	<node id="-259026" lat="59.8329222251" lon="11.2866555621">
		<tag k="name" v="Lauvmoen" />
		<tag k="place" v="locality" />
		<tag k="ssr:stedsnr" v="646325" />
	</node>
	<node id="-257258" lat="59.8469194454" lon="11.2241305603">
		<tag k="name" v="Østaneshagen" />
		<tag k="place" v="locality" />
		<tag k="ssr:stedsnr" v="282316" />
	</node>
	<node id="-258792" lat="59.8100555549" lon="11.2619750053">
		<tag k="name" v="Postmyra" />
		<tag k="natural" v="wetland" />
		<tag k="ssr:stedsnr" v="525278" />
	</node>
	<node id="-257254" lat="59.7691694427" lon="11.3072111095">
		<tag k="name" v="Løytnantmyra" />
		<tag k="natural" v="wetland" />
		<tag k="ssr:stedsnr" v="282256" />
	</node>
	<node id="-259299" lat="60.0088416701" lon="11.1652861112">
		<tag k="name" v="Størsrudfjellet" />
		<tag k="place" v="locality" />
		<tag k="ssr:stedsnr" v="967906" />
	</node>
	<node id="-257249" lat="59.8080500042" lon="11.2766750071">
		<tag k="name" v="Høgmåsan" />
		<tag k="natural" v="wetland" />
		<tag k="ssr:stedsnr" v="282227" />
	</node>
	<node id="-258270" lat="59.7585861125" lon="11.3448861145">
		<tag k="name" v="Korpefløget" />
		<tag k="place" v="locality" />
		<tag k="ssr:stedsnr" v="100281" />
	</node>
	<node id="-259292" lat="59.8792527765" lon="11.2982194356">
		<tag k="name" v="Matheamyr" />
		<tag k="natural" v="wetland" />
		<tag k="ssr:stedsnr" v="967669" />
	</node>
	<node id="-257753" lat="60.0414583356" lon="10.9713444475">
		<tag k="name" v="Pettersmyra" />
		<tag k="natural" v="wetland" />
		<tag k="ssr:stedsnr" v="733407" />
	</node>
	<node id="-257239" lat="59.9645083326" lon="11.2947527831">
		<tag k="name" v="Tjuvhølet" />
		<tag k="natural" v="wetland" />
		<tag k="ssr:stedsnr" v="161374" />
	</node>
	<node id="-259286" lat="59.9226222214" lon="11.3167138932">
		<tag k="name" v="Sarpdalsmyra" />
		<tag k="natural" v="wetland" />
		<tag k="ssr:stedsnr" v="967244" />
	</node>
	<node id="-258773" lat="59.8329305537" lon="11.2779111089">
		<tag k="name" v="Fuglemåsan" />
		<tag k="natural" v="wetland" />
		<tag k="ssr:stedsnr" v="430770" />
	</node>
	<node id="-258625" lat="60.0121361136" lon="11.2518527829">
		<tag k="name" v="Skjegget" />
		<tag k="place" v="locality" />
		<tag k="ssr:stedsnr" v="345032" />
	</node>
	<node id="-257231" lat="60.0534305513" lon="11.2005777784">
>>>>>>> e1d4bc35ff8a6074a6f2e91616a996b547c36f15
		<tag k="name" v="Refsummyra" />
		<tag k="natural" v="wetland" />
		<tag k="ssr:stedsnr" v="161406" />
	</node>
<<<<<<< HEAD
	<node lat="59.96450833262217" lon="11.29475278310072" id="-15276">
		<tag k="name" v="Tjuvhølet" />
		<tag k="natural" v="wetland" />
		<tag k="ssr:stedsnr" v="161374" />
	</node>
	<node lat="59.94580833374607" lon="11.284794438535453" id="-15283">
		<tag k="name" v="Setermyra" />
		<tag k="natural" v="wetland" />
		<tag k="ssr:stedsnr" v="161444" />
	</node>
	<node lat="59.85376666915262" lon="11.304530554033459" id="-15284">
		<tag k="name" v="Snikestykket" />
		<tag k="place" v="locality" />
		<tag k="ssr:stedsnr" v="161593" />
	</node>
	<node lat="59.92453055450428" lon="11.321069441888989" id="-15294">
		<tag k="name" v="Kjeisomkring" />
		<tag k="place" v="locality" />
		<tag k="ssr:stedsnr" v="178269" />
	</node>
	<node lat="59.91879721960785" lon="11.28159444119342" id="-15300">
		<tag k="name" v="Vangsmåsan" />
		<tag k="natural" v="wetland" />
		<tag k="ssr:stedsnr" v="178238" />
	</node>
	<node lat="59.84262777765774" lon="11.27403889708937" id="-15318">
		<tag k="name" v="Rompemyra" />
		<tag k="natural" v="wetland" />
		<tag k="ssr:stedsnr" v="180353" />
	</node>
	<node lat="59.974847219162456" lon="11.356977769759856" id="-15320">
		<tag k="name" v="Vesthagan" />
=======
	<node id="-257616" lat="60.0125138897" lon="11.3452694394">
		<tag k="name" v="Skullerudmåsan" />
		<tag k="natural" v="wetland" />
		<tag k="ssr:stedsnr" v="525173" />
	</node>
	<node id="-257292" lat="59.9010333307" lon="11.1778777738">
		<tag k="name" v="Råsokhagen" />
		<tag k="place" v="locality" />
		<tag k="ssr:stedsnr" v="285718" />
	</node>
	<node id="-257655" lat="59.7673444408" lon="11.3190361111">
		<tag k="name" v="Gravtjennmåsan" />
		<tag k="natural" v="wetland" />
		<tag k="ssr:stedsnr" v="707299" />
	</node>
	<node id="-258068" lat="59.8853472194" lon="11.2362944376">
		<tag k="alt_name" v="Haremyra" />
		<tag k="name" v="Haramyra" />
		<tag k="natural" v="wetland" />
		<tag k="ssr:stedsnr" v="915657" />
	</node>
	<node id="-257057" lat="59.9515305555" lon="11.0759527738">
		<tag k="name" v="Tangen" />
>>>>>>> e1d4bc35ff8a6074a6f2e91616a996b547c36f15
		<tag k="place" v="locality" />
		<tag k="ssr:stedsnr" v="23305" />
	</node>
<<<<<<< HEAD
	<node lat="59.960402781402244" lon="10.953819443618746" id="-15358">
		<tag k="name" v="Ulvenhogget" />
		<tag k="place" v="locality" />
		<tag k="ssr:stedsnr" v="205283" />
	</node>
	<node lat="59.78273611435831" lon="11.263083331313215" id="-15365">
		<tag k="name" v="Einerhagan" />
		<tag k="place" v="locality" />
		<tag k="ssr:stedsnr" v="221271" />
	</node>
	<node lat="59.779269446145825" lon="11.313680550847385" id="-15368">
		<tag k="name" v="Øvre Stordalsmyra" />
		<tag k="natural" v="wetland" />
		<tag k="ssr:stedsnr" v="221246" />
	</node>
	<node lat="59.774494446227834" lon="11.299561114830068" id="-15369">
		<tag k="name" v="Ødebymyrene" />
		<tag k="natural" v="wetland" />
		<tag k="ssr:stedsnr" v="221259" />
	</node>
	<node lat="59.94976944880499" lon="11.263880548653738" id="-15376">
		<tag k="name" v="Storrmyra" />
		<tag k="natural" v="wetland" />
		<tag k="ssr:stedsnr" v="222422" />
	</node>
	<node lat="59.90916666492429" lon="11.226952779643335" id="-15378">
		<tag k="name" v="Kumyra" />
		<tag k="natural" v="wetland" />
		<tag k="ssr:stedsnr" v="224727" />
	</node>
	<node lat="59.769169442671235" lon="11.307211109549408" id="-15385">
		<tag k="name" v="Løytnantmyra" />
		<tag k="natural" v="wetland" />
		<tag k="ssr:stedsnr" v="282256" />
	</node>
	<node lat="59.97236666617713" lon="11.301999999614598" id="-15391">
		<tag k="name" v="Torvstrømyra" />
		<tag k="natural" v="wetland" />
		<tag k="ssr:stedsnr" v="282363" />
	</node>
	<node lat="59.87133055524192" lon="11.209966661970002" id="-15398">
		<tag k="alt_name" v="Blesahagen" />
		<tag k="name" v="Blesahagan" />
		<tag k="place" v="locality" />
		<tag k="ssr:stedsnr" v="284334" />
	</node>
	<node lat="59.95057221829416" lon="11.119363888701667" id="-15403">
		<tag k="name" v="Fløtti" />
		<tag k="place" v="locality" />
		<tag k="ssr:stedsnr" v="298820" />
	</node>
	<node lat="59.88033333322091" lon="11.249202772577062" id="-15411">
		<tag k="name" v="Høymyrene" />
		<tag k="natural" v="wetland" />
		<tag k="ssr:stedsnr" v="300546" />
	</node>
	<node lat="59.850486115555654" lon="11.300930548373943" id="-15419">
		<tag k="name" v="Snikestykket" />
		<tag k="place" v="locality" />
		<tag k="ssr:stedsnr" v="302355" />
	</node>
	<node lat="59.9740805566442" lon="11.297494449414215" id="-15436">
		<tag k="alt_name" v="Strupmyra" />
		<tag k="name" v="Strupemyr" />
		<tag k="natural" v="wetland" />
		<tag k="ssr:stedsnr" v="308473" />
	</node>
	<node lat="59.97852777366065" lon="11.087894440607172" id="-15456">
		<tag k="name" v="Trollmyra" />
		<tag k="natural" v="wetland" />
		<tag k="ssr:stedsnr" v="327233" />
	</node>
	<node lat="59.952869440797315" lon="11.095297221325415" id="-15457">
		<tag k="name" v="Nordlihagen" />
		<tag k="place" v="locality" />
		<tag k="ssr:stedsnr" v="327240" />
	</node>
	<node lat="60.01572499908292" lon="11.330280553590903" id="-15480">
		<tag k="name" v="Eidshagan" />
		<tag k="place" v="locality" />
		<tag k="ssr:stedsnr" v="343428" />
	</node>
	<node lat="59.85462500022549" lon="11.299555557944824" id="-15485">
		<tag k="name" v="Tisteldalsmyra" />
		<tag k="natural" v="wetland" />
		<tag k="ssr:stedsnr" v="343649" />
	</node>
	<node lat="60.012136113560224" lon="11.251852782886361" id="-15491">
		<tag k="name" v="Skjegget" />
		<tag k="place" v="locality" />
		<tag k="ssr:stedsnr" v="345032" />
	</node>
	<node lat="60.02441944058271" lon="11.144174997417625" id="-15516">
		<tag k="name" v="Yssimyra" />
		<tag k="place" v="locality" />
		<tag k="ssr:stedsnr" v="360933" />
	</node>
	<node lat="59.844313888190364" lon="11.308661113486437" id="-15525">
		<tag k="name" v="Furutoppmyra" />
		<tag k="natural" v="wetland" />
		<tag k="ssr:stedsnr" v="362354" />
	</node>
	<node lat="59.851958336341276" lon="11.264783331030548" id="-15527">
		<tag k="name" v="Østhagen" />
		<tag k="place" v="locality" />
		<tag k="ssr:stedsnr" v="362366" />
	</node>
	<node lat="60.023647225252866" lon="11.292391666362008" id="-15554">
		<tag k="name" v="Børgimåsan" />
		<tag k="natural" v="wetland" />
		<tag k="ssr:stedsnr" v="369920" />
	</node>
	<node lat="60.02090000249571" lon="10.975852770439076" id="-15561">
		<tag k="name" v="Hauermåsan" />
		<tag k="natural" v="wetland" />
		<tag k="ssr:stedsnr" v="387267" />
	</node>
	<node lat="59.972483330878354" lon="11.144341668032352" id="-15562">
		<tag k="name" v="Kongsrudmyra" />
		<tag k="natural" v="wetland" />
		<tag k="ssr:stedsnr" v="387273" />
	</node>
	<node lat="59.977149996706686" lon="11.084761105856108" id="-15563">
		<tag k="name" v="Furuholen" />
		<tag k="place" v="locality" />
		<tag k="ssr:stedsnr" v="387279" />
	</node>
	<node lat="59.82461667108254" lon="11.27552222704653" id="-15570">
		<tag k="name" v="Lille Fuglemyr" />
		<tag k="natural" v="wetland" />
		<tag k="ssr:stedsnr" v="403332" />
	</node>
	<node lat="59.96914166604943" lon="11.29534166745373" id="-15576">
		<tag k="name" v="Delemyrene" />
		<tag k="natural" v="wetland" />
		<tag k="ssr:stedsnr" v="404363" />
	</node>
	<node lat="59.9509833373233" lon="11.171358338829737" id="-15588">
		<tag k="alt_name" v="Fallerhagen" />
		<tag k="name" v="Fallerhagan" />
		<tag k="place" v="locality" />
		<tag k="ssr:stedsnr" v="419849" />
	</node>
	<node lat="59.88916944044839" lon="11.329488895692357" id="-15595">
		<tag k="name" v="Slorene" />
		<tag k="natural" v="wetland" />
		<tag k="ssr:stedsnr" v="429638" />
	</node>
	<node lat="59.88360555170911" lon="11.241147225295906" id="-15610">
		<tag k="name" v="Rundmyrene" />
		<tag k="natural" v="wetland" />
		<tag k="ssr:stedsnr" v="422558" />
	</node>
	<node lat="59.90302778055668" lon="11.308661104523654" id="-15622">
		<tag k="alt_name" v="Stutemåsan" />
		<tag k="name" v="Stutmåsan" />
		<tag k="natural" v="wetland" />
		<tag k="ssr:stedsnr" v="430627" />
	</node>
	<node lat="59.83293055368162" lon="11.277911108878087" id="-15633">
		<tag k="name" v="Fuglemåsan" />
		<tag k="natural" v="wetland" />
		<tag k="ssr:stedsnr" v="430770" />
	</node>
	<node lat="60.02338888862487" lon="10.984122226744145" id="-15644">
		<tag k="name" v="Skyttermyra" />
		<tag k="natural" v="wetland" />
		<tag k="ssr:stedsnr" v="448266" />
	</node>
	<node lat="59.946647219121274" lon="11.080997222643635" id="-15649">
		<tag k="name" v="Lille England" />
		<tag k="place" v="locality" />
		<tag k="ssr:stedsnr" v="509234" />
	</node>
	<node lat="59.810055554861854" lon="11.261975005250685" id="-15656">
		<tag k="name" v="Postmyra" />
		<tag k="natural" v="wetland" />
		<tag k="ssr:stedsnr" v="525278" />
	</node>
	<node lat="59.90702777497439" lon="11.263527784548918" id="-15688">
		<tag k="name" v="Breisjødraget" />
		<tag k="natural" v="wetland" />
		<tag k="ssr:stedsnr" v="542253" />
	</node>
	<node lat="59.98600555216275" lon="11.20567222809439" id="-15689">
		<tag k="name" v="Fiskeberget" />
		<tag k="place" v="locality" />
		<tag k="ssr:stedsnr" v="542651" />
	</node>
	<node lat="59.88935000148179" lon="11.284327785111442" id="-15698">
		<tag k="name" v="Bysetermyra" />
		<tag k="natural" v="wetland" />
		<tag k="ssr:stedsnr" v="543542" />
	</node>
	<node lat="59.88620555537573" lon="11.196602776341923" id="-15701">
		<tag k="name" v="Svindalshagen" />
		<tag k="place" v="locality" />
		<tag k="ssr:stedsnr" v="543560" />
	</node>
	<node lat="59.87345277614118" lon="11.30476666233128" id="-15710">
		<tag k="alt_name" v="Storemåsan" />
		<tag k="name" v="Sloremåsan" />
		<tag k="natural" v="wetland" />
		<tag k="ssr:stedsnr" v="550678" />
	</node>
	<node lat="60.01734166751006" lon="10.980972221045828" id="-15732">
		<tag k="name" v="Blåbærmyra" />
		<tag k="natural" v="wetland" />
		<tag k="ssr:stedsnr" v="569245" />
	</node>
	<node lat="59.9110277807724" lon="11.2291166694964" id="-15757">
		<tag k="name" v="Blåbærmyra" />
		<tag k="natural" v="wetland" />
		<tag k="ssr:stedsnr" v="588745" />
	</node>
	<node lat="59.95041944802781" lon="11.220408333503084" id="-15760">
		<tag k="name" v="Nordmoen" />
		<tag k="natural" v="wetland" />
		<tag k="ssr:stedsnr" v="600883" />
	</node>
	<node lat="59.96166389218538" lon="11.108213895594357" id="-15761">
		<tag k="name" v="Sommerfjøssletta" />
		<tag k="place" v="locality" />
		<tag k="ssr:stedsnr" v="600892" />
	</node>
	<node lat="59.92229722118753" lon="11.215449999746223" id="-15776">
		<tag k="name" v="Hagenmåsan" />
		<tag k="natural" v="wetland" />
		<tag k="ssr:stedsnr" v="603808" />
	</node>
	<node lat="59.99192500198651" lon="11.194286117015306" id="-15778">
		<tag k="name" v="Elgmyra" />
		<tag k="natural" v="wetland" />
		<tag k="ssr:stedsnr" v="603682" />
	</node>
	<node lat="60.03281110795017" lon="11.167177779503616" id="-15780">
		<tag k="name" v="Hesthagan" />
		<tag k="place" v="locality" />
		<tag k="ssr:stedsnr" v="605273" />
	</node>
	<node lat="59.84891944545181" lon="11.303161110897753" id="-15784">
		<tag k="name" v="Øvre Torsmyr" />
		<tag k="natural" v="wetland" />
		<tag k="ssr:stedsnr" v="605363" />
	</node>
	<node lat="59.99676389278311" lon="11.34180556025721" id="-15787">
		<tag k="name" v="Skukstadmåsan" />
		<tag k="natural" v="wetland" />
		<tag k="ssr:stedsnr" v="611475" />
	</node>
	<node lat="59.93020277654769" lon="11.299055551791815" id="-15798">
		<tag k="fixme" v="multiple name tags, choose one and add the other to alt_name" />
		<tag k="name" v="Kjellermyra;Killingmyra" />
		<tag k="natural" v="wetland" />
		<tag k="ssr:stedsnr" v="611569" />
	</node>
	<node lat="59.90688888698882" lon="11.207108338600499" id="-15839">
		<tag k="name" v="Løkenmåsan" />
		<tag k="natural" v="wetland" />
		<tag k="ssr:stedsnr" v="648728" />
	</node>
	<node lat="59.9726416645358" lon="11.112188897382662" id="-15842">
		<tag k="name" v="Jølsen skog" />
		<tag k="place" v="locality" />
		<tag k="ssr:stedsnr" v="661902" />
	</node>
	<node lat="59.89419444184189" lon="11.304275005748716" id="-15845">
		<tag k="name" v="Ulvegårdsmyrene" />
		<tag k="natural" v="wetland" />
		<tag k="ssr:stedsnr" v="663290" />
	</node>
	<node lat="60.00476110823783" lon="11.174794438127957" id="-15854">
		<tag k="name" v="Dammyra" />
		<tag k="natural" v="wetland" />
		<tag k="ssr:stedsnr" v="663919" />
	</node>
	<node lat="59.97119166382377" lon="11.18730278325783" id="-15875">
		<tag k="name" v="Setermåsan" />
		<tag k="natural" v="wetland" />
		<tag k="ssr:stedsnr" v="722140" />
	</node>
	<node lat="59.922491663889474" lon="11.330269446640914" id="-15880">
		<tag k="name" v="Kanamåsan" />
		<tag k="natural" v="wetland" />
		<tag k="ssr:stedsnr" v="724254" />
	</node>
	<node lat="59.84495833699537" lon="11.250294446708132" id="-15896">
		<tag k="name" v="Ersrudhagen" />
		<tag k="place" v="locality" />
		<tag k="ssr:stedsnr" v="727348" />
	</node>
	<node lat="59.882344441939416" lon="11.272302772218548" id="-15915">
		<tag k="alt_name" v="Breidmåsan" />
		<tag k="name" v="Breimåsan" />
		<tag k="natural" v="wetland" />
		<tag k="ssr:stedsnr" v="733648" />
	</node>
	<node lat="59.84457777711416" lon="11.290577772080264" id="-15928">
		<tag k="alt_name" v="Heiremåsan" />
		<tag k="name" v="Heirmåsan" />
		<tag k="natural" v="wetland" />
		<tag k="ssr:stedsnr" v="733719" />
	</node>
	<node lat="59.837058333668026" lon="11.279102781567167" id="-15941">
		<tag k="name" v="Skjærsmåsan" />
		<tag k="natural" v="wetland" />
		<tag k="ssr:stedsnr" v="767335" />
	</node>
	<node lat="59.76903333374634" lon="11.332794449684453" id="-15945">
		<tag k="name" v="Hansketjennmoen" />
		<tag k="place" v="locality" />
		<tag k="ssr:stedsnr" v="767273" />
	</node>
	<node lat="59.82625833189988" lon="11.286536106585123" id="-15948">
		<tag k="name" v="Bognemyra" />
		<tag k="natural" v="wetland" />
		<tag k="ssr:stedsnr" v="767354" />
	</node>
	<node lat="59.819119447730344" lon="11.24890832982588" id="-15949">
		<tag k="name" v="Legermoen" />
		<tag k="place" v="locality" />
		<tag k="ssr:stedsnr" v="767360" />
	</node>
	<node lat="60.055722217872" lon="11.169666663224" id="-15952">
		<tag k="name" v="Bjønnmyra" />
		<tag k="natural" v="wetland" />
		<tag k="ssr:stedsnr" v="768382" />
	</node>
	<node lat="59.91479722017289" lon="11.320891668602767" id="-15971">
		<tag k="name" v="Setermåsan" />
		<tag k="natural" v="wetland" />
		<tag k="ssr:stedsnr" v="785244" />
	</node>
	<node lat="59.88672222125788" lon="11.248025003143596" id="-15972">
		<tag k="name" v="Ekebergholmen" />
		<tag k="place" v="locality" />
		<tag k="ssr:stedsnr" v="785520" />
	</node>
	<node lat="60.014577781362874" lon="11.219650003489328" id="-15980">
		<tag k="alt_name" v="Ålgårdshagen;Ålgardshagan" />
		<tag k="name" v="Ålgårdshagan" />
		<tag k="place" v="locality" />
		<tag k="ssr:stedsnr" v="785933" />
	</node>
	<node lat="60.02236111361023" lon="11.153211113534617" id="-15982">
		<tag k="name" v="Hønsihagan" />
		<tag k="place" v="locality" />
		<tag k="ssr:stedsnr" v="785945" />
	</node>
	<node lat="59.842425001398055" lon="11.277933340562136" id="-15984">
		<tag k="name" v="Martemyra" />
		<tag k="natural" v="wetland" />
		<tag k="ssr:stedsnr" v="787361" />
	</node>
	<node lat="59.846269441436355" lon="11.277341670032506" id="-15985">
		<tag k="name" v="Tiurmyra" />
		<tag k="natural" v="wetland" />
		<tag k="ssr:stedsnr" v="787371" />
	</node>
	<node lat="59.863566663976016" lon="11.316211104160281" id="-16015">
=======
	<node id="-258756" lat="59.8521138875" lon="11.2593833332">
		<tag k="name" v="Vesthagen" />
		<tag k="place" v="locality" />
		<tag k="ssr:stedsnr" v="423390" />
	</node>
	<node id="-257728" lat="59.844958337" lon="11.2502944467">
		<tag k="name" v="Ersrudhagen" />
		<tag k="place" v="locality" />
		<tag k="ssr:stedsnr" v="727348" />
	</node>
	<node id="-257653" lat="59.7976027766" lon="11.2652499996">
		<tag k="name" v="Dammyra" />
		<tag k="natural" v="wetland" />
		<tag k="ssr:stedsnr" v="707285" />
	</node>
	<node id="-257212" lat="59.9732972183" lon="11.0201833274">
		<tag k="name" v="Valstadslora" />
		<tag k="place" v="locality" />
		<tag k="ssr:stedsnr" v="266265" />
	</node>
	<node id="-257211" lat="59.9777999959" lon="11.1662694431">
		<tag k="name" v="Kongsrudmåsan" />
		<tag k="natural" v="wetland" />
		<tag k="ssr:stedsnr" v="266259" />
	</node>
	<node id="-257210" lat="60.0387527819" lon="10.9713527838">
		<tag k="name" v="Løkenmåsan" />
		<tag k="natural" v="wetland" />
		<tag k="ssr:stedsnr" v="266251" />
	</node>
	<node id="-257721" lat="59.8698083298" lon="11.2972972229">
		<tag k="name" v="Olahølsmyra" />
		<tag k="natural" v="wetland" />
		<tag k="ssr:stedsnr" v="725544" />
	</node>
	<node id="-258232" lat="59.998705554" lon="11.1335444495">
		<tag k="name" v="Ulvemyra" />
		<tag k="natural" v="wetland" />
		<tag k="ssr:stedsnr" v="59594" />
	</node>
	<node id="-257715" lat="59.9224916639" lon="11.3302694466">
		<tag k="name" v="Kanamåsan" />
		<tag k="natural" v="wetland" />
		<tag k="ssr:stedsnr" v="724254" />
	</node>
	<node id="-257201" lat="59.8348527738" lon="11.2902833395">
		<tag k="name" v="Nedre Halvheklemyr" />
		<tag k="natural" v="wetland" />
		<tag k="ssr:stedsnr" v="120349" />
	</node>
	<node id="-257710" lat="59.9711916638" lon="11.1873027833">
		<tag k="name" v="Setermåsan" />
		<tag k="natural" v="wetland" />
		<tag k="ssr:stedsnr" v="722140" />
	</node>
	<node id="-258730" lat="59.9509833373" lon="11.1713583388">
		<tag k="alt_name" v="Fallerhagen" />
		<tag k="name" v="Fallerhagan" />
		<tag k="place" v="locality" />
		<tag k="ssr:stedsnr" v="419849" />
	</node>
	<node id="-257702" lat="59.999649997" lon="11.1367416654">
		<tag k="name" v="Hellefjellet" />
		<tag k="place" v="locality" />
		<tag k="ssr:stedsnr" v="605582" />
	</node>
	<node id="-259233" lat="59.8489277766" lon="11.3323527758">
		<tag k="name" v="Badstumåsan" />
		<tag k="natural" v="wetland" />
		<tag k="ssr:stedsnr" v="848366" />
	</node>
	<node id="-257696" lat="59.9222972212" lon="11.2154499997">
		<tag k="name" v="Hagenmåsan" />
		<tag k="natural" v="wetland" />
		<tag k="ssr:stedsnr" v="603808" />
	</node>
	<node id="-258204" lat="59.8956611138" lon="11.2182527835">
		<tag k="name" v="Askedalsmyra" />
		<tag k="natural" v="wetland" />
		<tag k="ssr:stedsnr" v="57524" />
	</node>
	<node id="-257690" lat="59.9110277808" lon="11.2291166695">
		<tag k="name" v="Blåbærmyra" />
		<tag k="natural" v="wetland" />
		<tag k="ssr:stedsnr" v="588745" />
	</node>
	<node id="-258200" lat="59.8936194482" lon="11.2768277836">
		<tag k="name" v="Vegamåsan" />
		<tag k="natural" v="wetland" />
		<tag k="ssr:stedsnr" v="57499" />
	</node>
	<node id="-259221" lat="60.0005305585" lon="11.2312638806">
		<tag k="name" v="Bingshagan" />
		<tag k="place" v="locality" />
		<tag k="ssr:stedsnr" v="846702" />
	</node>
	<node id="-259220" lat="59.8827305576" lon="11.3002444488">
		<tag k="name" v="Vangsmåsan" />
		<tag k="natural" v="wetland" />
		<tag k="ssr:stedsnr" v="846701" />
	</node>
	<node id="-258707" lat="59.794816666" lon="11.2954527779">
		<tag k="name" v="Taskemåsan" />
		<tag k="natural" v="wetland" />
		<tag k="ssr:stedsnr" v="403236" />
	</node>
	<node id="-258193" lat="59.9491805517" lon="11.1521166742">
		<tag k="name" v="Veståsen" />
		<tag k="place" v="locality" />
		<tag k="ssr:stedsnr" v="55844" />
	</node>
	<node id="-258192" lat="59.9548472239" lon="11.1426861147">
		<tag k="name" v="Berger skog" />
		<tag k="place" v="locality" />
		<tag k="ssr:stedsnr" v="55738" />
	</node>
	<node id="-257679" lat="59.9056222231" lon="11.2273777768">
		<tag k="name" v="Lintjennmåsan" />
		<tag k="natural" v="wetland" />
		<tag k="ssr:stedsnr" v="709729" />
	</node>
	<node id="-258190" lat="59.9730555515" lon="11.1702222267">
		<tag k="name" v="Vesledammen" />
		<tag k="natural" v="wetland" />
		<tag k="ssr:stedsnr" v="55892" />
	</node>
	<node id="-258413" lat="59.8537666692" lon="11.304530554">
		<tag k="name" v="Snikestykket" />
		<tag k="place" v="locality" />
		<tag k="ssr:stedsnr" v="161593" />
	</node>
	<node id="-257674" lat="59.8622416689" lon="11.2497111109">
		<tag k="name" v="Gjestadhagen" />
		<tag k="place" v="locality" />
		<tag k="ssr:stedsnr" v="709601" />
	</node>
	<node id="-259209" lat="59.9110527747" lon="11.2518527783">
		<tag k="name" v="Breimåsan" />
		<tag k="natural" v="wetland" />
		<tag k="ssr:stedsnr" v="846619" />
	</node>
	<node id="-257160" lat="59.9115027762" lon="11.2051444355">
		<tag k="name" v="Balrusmyra" />
		<tag k="natural" v="wetland" />
		<tag k="ssr:stedsnr" v="248648" />
	</node>
	<node id="-258694" lat="60.0236472253" lon="11.2923916664">
		<tag k="name" v="Børgimåsan" />
		<tag k="natural" v="wetland" />
		<tag k="ssr:stedsnr" v="369920" />
	</node>
	<node id="-259202" lat="59.9267166693" lon="11.2608944422">
		<tag k="name" v="Vanakleivmåsan" />
		<tag k="natural" v="wetland" />
		<tag k="ssr:stedsnr" v="846217" />
	</node>
	<node id="-259201" lat="59.9276777772" lon="11.2796972137">
		<tag k="alt_name" v="Krogstadenga" />
		<tag k="name" v="Krokstadenga" />
		<tag k="place" v="locality" />
		<tag k="ssr:stedsnr" v="846215" />
	</node>
	<node id="-257045" lat="60.0275722208" lon="11.3531583246">
		<tag k="name" v="Damstokkmyra" />
		<tag k="natural" v="wetland" />
		<tag k="ssr:stedsnr" v="222321" />
	</node>
	<node id="-257898" lat="59.9613888894" lon="11.1001888957">
		<tag k="name" v="Nyryddingen" />
		<tag k="place" v="locality" />
		<tag k="ssr:stedsnr" v="904898" />
	</node>
	<node id="-259193" lat="59.9114999981" lon="11.1553111153">
		<tag k="name" v="Ballenga" />
		<tag k="place" v="locality" />
		<tag k="ssr:stedsnr" v="831653" />
	</node>
	<node id="-258055" lat="59.9315000008" lon="11.2633166653">
		<tag k="name" v="Engermåsan" />
		<tag k="natural" v="wetland" />
		<tag k="ssr:stedsnr" v="906268" />
	</node>
	<node id="-258167" lat="59.7834527812" lon="11.3097638818">
		<tag k="name" v="Nordre Dritermåsan" />
		<tag k="natural" v="wetland" />
		<tag k="ssr:stedsnr" v="39220" />
	</node>
	<node id="-259189" lat="59.859941669" lon="11.2867416682">
		<tag k="name" v="Gullerudmyra" />
		<tag k="natural" v="wetland" />
		<tag k="ssr:stedsnr" v="831319" />
	</node>
	<node id="-257652" lat="59.7953055587" lon="11.2978027822">
		<tag k="name" v="Ingermåsan" />
		<tag k="natural" v="wetland" />
		<tag k="ssr:stedsnr" v="707277" />
	</node>
	<node id="-259182" lat="59.8564805548" lon="11.3064333246">
		<tag k="name" v="Saghølet" />
		<tag k="natural" v="wetland" />
		<tag k="ssr:stedsnr" v="829621" />
	</node>
	<node id="-257129" lat="59.9624277751" lon="11.2621111135">
		<tag k="name" v="Brånan" />
		<tag k="natural" v="wetland" />
		<tag k="ssr:stedsnr" v="247502" />
	</node>
	<node id="-259176" lat="59.7616944426" lon="11.3190166713">
		<tag k="name" v="Håkonsetermoen" />
		<tag k="place" v="locality" />
		<tag k="ssr:stedsnr" v="828304" />
	</node>
	<node id="-257636" lat="59.9548888882" lon="11.0268361163">
		<tag k="landuse" v="meadow" />
		<tag k="name" v="Hestehavn" />
		<tag k="ssr:stedsnr" v="691394" />
	</node>
	<node id="-259238" lat="59.9448555587" lon="11.1546277822">
		<tag k="name" v="Breimåsan" />
		<tag k="natural" v="wetland" />
		<tag k="ssr:stedsnr" v="848861" />
	</node>
	<node id="-259168" lat="59.7873416706" lon="11.3067888938">
		<tag k="name" v="Kolåsvangen" />
		<tag k="place" v="locality" />
		<tag k="ssr:stedsnr" v="828242" />
	</node>
	<node id="-259165" lat="59.8053611122" lon="11.2716611168">
		<tag k="name" v="Rønningen" />
		<tag k="place" v="locality" />
		<tag k="ssr:stedsnr" v="828223" />
	</node>
	<node id="-257116" lat="59.9151305563" lon="11.3105916743">
		<tag k="name" v="Brumåsan" />
		<tag k="natural" v="wetland" />
		<tag k="ssr:stedsnr" v="65604" />
	</node>
	<node id="-258234" lat="59.9243888927" lon="11.2383861123">
		<tag k="name" v="Setermyra" />
		<tag k="natural" v="wetland" />
		<tag k="ssr:stedsnr" v="59832" />
	</node>
	<node id="-257113" lat="59.8463083371" lon="11.2713972245">
		<tag k="alt_name" v="Veslemåsan" />
		<tag k="name" v="Veslemyra" />
		<tag k="natural" v="wetland" />
		<tag k="ssr:stedsnr" v="65740" />
	</node>
	<node id="-257112" lat="59.8503916693" lon="11.318705554">
		<tag k="name" v="Geitlimåsan" />
		<tag k="natural" v="wetland" />
		<tag k="ssr:stedsnr" v="65726" />
	</node>
	<node id="-258647" lat="59.8519583363" lon="11.264783331">
		<tag k="name" v="Østhagen" />
		<tag k="place" v="locality" />
		<tag k="ssr:stedsnr" v="362366" />
	</node>
	<node id="-257110" lat="59.8696472256" lon="11.3030750016">
		<tag k="name" v="Vegmåsan" />
		<tag k="natural" v="wetland" />
		<tag k="ssr:stedsnr" v="65710" />
	</node>
	<node id="-257108" lat="59.967874996" lon="11.159097226">
		<tag k="alt_name" v="Rakkermåsan" />
		<tag k="name" v="Rakkemåsan" />
		<tag k="natural" v="wetland" />
		<tag k="ssr:stedsnr" v="65517" />
	</node>
	<node id="-259154" lat="59.9938749959" lon="11.0096861191">
		<tag k="name" v="Skrimstadsletta" />
		<tag k="place" v="locality" />
		<tag k="ssr:stedsnr" v="812275" />
	</node>
	<node id="-259153" lat="60.02410833" lon="10.9815305488">
		<tag k="name" v="Lindtjernmyra" />
		<tag k="natural" v="wetland" />
		<tag k="ssr:stedsnr" v="812261" />
	</node>
	<node id="-259152" lat="59.9087111087" lon="11.2236500011">
		<tag k="name" v="Postmyra" />
		<tag k="natural" v="wetland" />
		<tag k="ssr:stedsnr" v="794636" />
	</node>
	<node id="-257103" lat="60.0141833322" lon="11.1284222137">
		<tag k="name" v="Skrøverhagan" />
		<tag k="place" v="locality" />
		<tag k="ssr:stedsnr" v="239939" />
	</node>
	<node id="-257697" lat="59.8489194455" lon="11.3031611109">
		<tag k="name" v="Øvre Torsmyr" />
		<tag k="natural" v="wetland" />
		<tag k="ssr:stedsnr" v="605363" />
	</node>
	<node id="-258125" lat="59.8914805571" lon="11.2227472141">
		<tag k="name" v="Kinnsmåsan" />
		<tag k="natural" v="wetland" />
		<tag k="ssr:stedsnr" v="4658" />
	</node>
	<node id="-257032" lat="59.7792694461" lon="11.3136805508">
		<tag k="name" v="Øvre Stordalsmyra" />
		<tag k="natural" v="wetland" />
		<tag k="ssr:stedsnr" v="221246" />
	</node>
	<node id="-258631" lat="59.9245333338" lon="11.3347416599">
		<tag k="name" v="Limultemyra" />
		<tag k="natural" v="wetland" />
		<tag k="ssr:stedsnr" v="360249" />
	</node>
	<node id="-257605" lat="59.8496861115" lon="11.3070888883">
		<tag k="name" v="Nedre Torsmyr" />
		<tag k="natural" v="wetland" />
		<tag k="ssr:stedsnr" v="484310" />
	</node>
	<node id="-259137" lat="59.769461112" lon="11.2987333414">
		<tag k="alt_name" v="Mærramyra" />
		<tag k="name" v="Merramyra" />
		<tag k="natural" v="wetland" />
		<tag k="ssr:stedsnr" v="793910" />
	</node>
	<node id="-258623" lat="59.8546250002" lon="11.2995555579">
		<tag k="name" v="Tisteldalsmyra" />
		<tag k="natural" v="wetland" />
		<tag k="ssr:stedsnr" v="343649" />
	</node>
	<node id="-257086" lat="59.8766166636" lon="11.2161083364">
		<tag k="name" v="Snippen" />
		<tag k="place" v="locality" />
		<tag k="ssr:stedsnr" v="239507" />
	</node>
	<node id="-257596" lat="59.8522888887" lon="11.2768055503">
		<tag k="name" v="Karimåsan" />
		<tag k="natural" v="wetland" />
		<tag k="ssr:stedsnr" v="672716" />
	</node>
	<node id="-257082" lat="59.960075" lon="11.1411083338">
		<tag k="name" v="Damsletta" />
		<tag k="place" v="locality" />
		<tag k="ssr:stedsnr" v="237998" />
	</node>
	<node id="-259128" lat="59.863566664" lon="11.3162111042">
>>>>>>> e1d4bc35ff8a6074a6f2e91616a996b547c36f15
		<tag k="name" v="Bråtemåsan" />
		<tag k="natural" v="wetland" />
		<tag k="ssr:stedsnr" v="793735" />
	</node>
<<<<<<< HEAD
	<node lat="59.90871110872149" lon="11.223650001121145" id="-16027">
		<tag k="name" v="Postmyra" />
		<tag k="natural" v="wetland" />
		<tag k="ssr:stedsnr" v="794636" />
	</node>
	<node lat="60.02410832998025" lon="10.981530548779716" id="-16028">
		<tag k="name" v="Lindtjernmyra" />
		<tag k="natural" v="wetland" />
		<tag k="ssr:stedsnr" v="812261" />
	</node>
	<node lat="59.99387499592876" lon="11.009686119126284" id="-16029">
		<tag k="name" v="Skrimstadsletta" />
		<tag k="place" v="locality" />
		<tag k="ssr:stedsnr" v="812275" />
	</node>
	<node lat="59.787341670606864" lon="11.306788893840658" id="-16045">
		<tag k="name" v="Kolåsvangen" />
		<tag k="place" v="locality" />
		<tag k="ssr:stedsnr" v="828242" />
	</node>
	<node lat="59.85994166897992" lon="11.286741668179673" id="-16060">
		<tag k="name" v="Gullerudmyra" />
		<tag k="natural" v="wetland" />
		<tag k="ssr:stedsnr" v="831319" />
	</node>
	<node lat="59.91149999809569" lon="11.155311115283164" id="-16067">
		<tag k="name" v="Ballenga" />
		<tag k="place" v="locality" />
		<tag k="ssr:stedsnr" v="831653" />
	</node>
	<node lat="59.88273055755502" lon="11.300244448805916" id="-16075">
		<tag k="name" v="Vangsmåsan" />
=======
	<node id="-258614" lat="60.0157249991" lon="11.3302805536">
		<tag k="name" v="Eidshagan" />
		<tag k="place" v="locality" />
		<tag k="ssr:stedsnr" v="343428" />
	</node>
	<node id="-257033" lat="59.7744944462" lon="11.2995611148">
		<tag k="name" v="Ødebymyrene" />
		<tag k="natural" v="wetland" />
		<tag k="ssr:stedsnr" v="221259" />
	</node>
	<node id="-258100" lat="59.8776305525" lon="11.3021972154">
		<tag k="name" v="Tørrhjellmåsan" />
		<tag k="natural" v="wetland" />
		<tag k="ssr:stedsnr" v="967508" />
	</node>
	<node id="-257102" lat="60.016672226" lon="11.1306999979">
		<tag k="name" v="Yssihagan" />
		<tag k="place" v="locality" />
		<tag k="ssr:stedsnr" v="239938" />
	</node>
	<node id="-258094" lat="59.9731111137" lon="11.1836666696">
		<tag k="name" v="Blåbærmåsan" />
		<tag k="natural" v="wetland" />
		<tag k="ssr:stedsnr" v="965122" />
	</node>
	<node id="-258602" lat="59.7840750019" lon="11.297280557">
		<tag k="name" v="Høgmåsan" />
		<tag k="natural" v="wetland" />
		<tag k="ssr:stedsnr" v="342253" />
	</node>
	<node id="-257065" lat="59.7549555514" lon="11.3352499938">
		<tag k="name" v="Østre Midtfjellmyra" />
		<tag k="natural" v="wetland" />
		<tag k="ssr:stedsnr" v="39256" />
	</node>
	<node id="-257061" lat="59.8099805554" lon="11.2768250039">
		<tag k="name" v="Ulsrudbrenninga" />
		<tag k="place" v="locality" />
		<tag k="ssr:stedsnr" v="39202" />
	</node>
	<node id="-257491" lat="59.8891694404" lon="11.3294888957">
		<tag k="name" v="Slorene" />
		<tag k="natural" v="wetland" />
		<tag k="ssr:stedsnr" v="429638" />
	</node>
	<node id="-258594" lat="59.9528694408" lon="11.0952972213">
		<tag k="name" v="Nordlihagen" />
		<tag k="place" v="locality" />
		<tag k="ssr:stedsnr" v="327240" />
	</node>
	<node id="-258593" lat="59.9785277737" lon="11.0878944406">
		<tag k="name" v="Trollmyra" />
>>>>>>> e1d4bc35ff8a6074a6f2e91616a996b547c36f15
		<tag k="natural" v="wetland" />
		<tag k="ssr:stedsnr" v="327233" />
	</node>
<<<<<<< HEAD
	<node lat="60.00053055851103" lon="11.231263880595188" id="-16076">
		<tag k="name" v="Bingshagan" />
		<tag k="place" v="locality" />
		<tag k="ssr:stedsnr" v="846702" />
	</node>
	<node lat="59.92671666931911" lon="11.260894442181176" id="-16078">
		<tag k="name" v="Vanakleivmåsan" />
		<tag k="natural" v="wetland" />
		<tag k="ssr:stedsnr" v="846217" />
	</node>
	<node lat="59.8489277766447" lon="11.332352775799846" id="-16096">
		<tag k="name" v="Badstumåsan" />
		<tag k="natural" v="wetland" />
		<tag k="ssr:stedsnr" v="848366" />
	</node>
	<node lat="59.94485555871902" lon="11.154627782181892" id="-16097">
		<tag k="name" v="Breimåsan" />
		<tag k="natural" v="wetland" />
		<tag k="ssr:stedsnr" v="848861" />
	</node>
	<node lat="59.97248610711418" lon="11.128830551250344" id="-16120">
		<tag k="name" v="Svinemyra" />
		<tag k="natural" v="wetland" />
		<tag k="ssr:stedsnr" v="873258" />
	</node>
	<node lat="60.032555554732774" lon="11.061997228128492" id="-16130">
		<tag k="name" v="Vardemåsan" />
		<tag k="natural" v="wetland" />
		<tag k="ssr:stedsnr" v="873924" />
	</node>
	<node lat="59.770800002571434" lon="11.312613883552507" id="-16133">
		<tag k="name" v="Lauvhersja" />
		<tag k="place" v="locality" />
		<tag k="ssr:stedsnr" v="889284" />
	</node>
	<node lat="59.9764583355424" lon="11.298680557959107" id="-16140">
		<tag k="name" v="Bjønnmyra" />
		<tag k="natural" v="wetland" />
		<tag k="ssr:stedsnr" v="889371" />
	</node>
	<node lat="59.8246777768136" lon="11.25324444510358" id="-16148">
		<tag k="name" v="Opptjennmyra" />
		<tag k="natural" v="wetland" />
		<tag k="ssr:stedsnr" v="950354" />
	</node>
	<node lat="59.97977500112207" lon="11.285611117306404" id="-16150">
		<tag k="name" v="Vestjordet" />
		<tag k="place" v="locality" />
		<tag k="ssr:stedsnr" v="950375" />
	</node>
	<node lat="59.87925277648677" lon="11.298219435579984" id="-16172">
		<tag k="name" v="Matheamyr" />
		<tag k="natural" v="wetland" />
		<tag k="ssr:stedsnr" v="967669" />
=======
	<node id="-258080" lat="59.9506583345" lon="11.0938361066">
		<tag k="name" v="Borgenholtet" />
		<tag k="place" v="locality" />
		<tag k="ssr:stedsnr" v="934222" />
	</node>
	<node id="-257055" lat="59.9091666649" lon="11.2269527796">
		<tag k="name" v="Kumyra" />
		<tag k="natural" v="wetland" />
		<tag k="ssr:stedsnr" v="224727" />
	</node>
	<node id="-257051" lat="59.9497694488" lon="11.2638805487">
		<tag k="name" v="Storrmyra" />
		<tag k="natural" v="wetland" />
		<tag k="ssr:stedsnr" v="222422" />
	</node>
	<node id="-257048" lat="59.9211722182" lon="11.3179361157">
		<tag k="name" v="Saueberga" />
		<tag k="place" v="locality" />
		<tag k="ssr:stedsnr" v="222409" />
	</node>
	<node id="-257627" lat="60.0153333333" lon="10.9821416652">
		<tag k="name" v="Kålhagemyra" />
		<tag k="natural" v="wetland" />
		<tag k="ssr:stedsnr" v="691273" />
	</node>
	<node id="-258709" lat="59.8246166711" lon="11.275522227">
		<tag k="name" v="Lille Fuglemyr" />
		<tag k="natural" v="wetland" />
		<tag k="ssr:stedsnr" v="403332" />
	</node>
	<node id="-259092" lat="60.0223611136" lon="11.1532111135">
		<tag k="name" v="Hønsihagan" />
		<tag k="place" v="locality" />
		<tag k="ssr:stedsnr" v="785945" />
	</node>
	<node id="-257198" lat="59.8786250038" lon="11.3212805564">
		<tag k="name" v="Tjonsteinen" />
		<tag k="natural" v="stone" />
		<tag k="ssr:stedsnr" v="119059" />
	</node>
	<node id="-259090" lat="60.0145777814" lon="11.2196500035">
		<tag k="alt_name" v="Ålgårdshagen;Ålgardshagan" />
		<tag k="name" v="Ålgårdshagan" />
		<tag k="place" v="locality" />
		<tag k="ssr:stedsnr" v="785933" />
	</node>
	<node id="-257035" lat="59.7827361144" lon="11.2630833313">
		<tag k="name" v="Einerhagan" />
		<tag k="place" v="locality" />
		<tag k="ssr:stedsnr" v="221271" />
	</node>
	<node id="-259082" lat="59.8867222213" lon="11.2480250031">
		<tag k="name" v="Ekebergholmen" />
		<tag k="place" v="locality" />
		<tag k="ssr:stedsnr" v="785520" />
	</node>
	<node id="-257545" lat="59.8340083308" lon="11.2638666583">
		<tag k="name" v="Breimyra" />
		<tag k="natural" v="wetland" />
		<tag k="ssr:stedsnr" v="464358" />
	</node>
	<node id="-258056" lat="59.9201194474" lon="11.2716638819">
		<tag k="name" v="Seterdalsmyra" />
		<tag k="natural" v="wetland" />
		<tag k="ssr:stedsnr" v="906269" />
	</node>
	<node id="-259079" lat="59.9147972202" lon="11.3208916686">
		<tag k="name" v="Setermåsan" />
		<tag k="natural" v="wetland" />
		<tag k="ssr:stedsnr" v="785244" />
	</node>
	<node id="-258054" lat="59.9700194459" lon="11.1707249926">
		<tag k="name" v="Stordammen" />
		<tag k="natural" v="wetland" />
		<tag k="ssr:stedsnr" v="904905" />
	</node>
	<node id="-258049" lat="59.9797750011" lon="11.2856111173">
		<tag k="name" v="Vestjordet" />
		<tag k="place" v="locality" />
		<tag k="ssr:stedsnr" v="950375" />
	</node>
	<node id="-258561" lat="59.9740805566" lon="11.2974944494">
		<tag k="alt_name" v="Strupmyra" />
		<tag k="name" v="Strupemyr" />
		<tag k="natural" v="wetland" />
		<tag k="ssr:stedsnr" v="308473" />
>>>>>>> e1d4bc35ff8a6074a6f2e91616a996b547c36f15
	</node>
</osm>
