<?xml version="1.0" encoding="UTF-8"?>
<osm version="0.6" generator="osmapis">
	<node lat="59.96915833169384" lon="11.177797226327094" id="-28490">
		<tag k="name" v="Stordalen" />
		<tag k="natural" v="valley" />
		<tag k="place" v="locality" />
		<tag k="ssr:stedsnr" v="4506" />
	</node>
	<node lat="59.91455555997147" lon="11.300299997111475" id="-28534">
		<tag k="fixme" v="consider natural=peak for the most distinct mountains in the district" />
		<tag k="name" v="Dammyrhøgda" />
		<tag k="natural" v="hill" />
		<tag k="place" v="locality" />
		<tag k="ssr:stedsnr" v="239250" />
	</node>
	<node lat="59.906291670092166" lon="11.301802779751274" id="-28550">
		<tag k="name" v="Måruddalen" />
		<tag k="natural" v="valley" />
		<tag k="place" v="locality" />
		<tag k="ssr:stedsnr" v="57204" />
	</node>
	<node lat="59.905511110130256" lon="11.307472220875704" id="-28551">
		<tag k="fixme" v="consider natural=peak for the most distinct mountains in the district" />
		<tag k="name" v="Bjønnehihøgda" />
		<tag k="natural" v="hill" />
		<tag k="place" v="locality" />
		<tag k="ssr:stedsnr" v="57205" />
	</node>
	<node lat="59.91896389330184" lon="11.298369448927264" id="-28554">
		<tag k="name" v="Jervedalen" />
		<tag k="natural" v="valley" />
		<tag k="place" v="locality" />
		<tag k="ssr:stedsnr" v="57218" />
	</node>
	<node lat="59.86272222050052" lon="11.348233334828487" id="-28557">
		<tag k="name" v="Småtjerndalen" />
		<tag k="natural" v="valley" />
		<tag k="place" v="locality" />
		<tag k="ssr:stedsnr" v="57571" />
	</node>
	<node lat="59.98958055523987" lon="11.323886106523378" id="-28559">
		<tag k="name" v="Skukstadmoen" />
		<tag k="place" v="locality" />
		<tag k="ssr:stedsnr" v="57779" />
	</node>
	<node lat="59.8369166650078" lon="11.258230552963703" id="-28570">
		<tag k="fixme" v="consider natural=peak for the most distinct mountains in the district" />
		<tag k="name" v="Holeåsen" />
		<tag k="natural" v="hill" />
		<tag k="place" v="locality" />
		<tag k="ssr:stedsnr" v="241361" />
	</node>
	<node lat="59.920927778477335" lon="11.270019438818325" id="-28571">
		<tag k="alt_name" v="Seterdalen" />
		<tag k="name" v="Sæterdalen" />
		<tag k="natural" v="valley" />
		<tag k="place" v="locality" />
		<tag k="ssr:stedsnr" v="65602" />
	</node>
	<node lat="59.785172220020314" lon="11.284719448513519" id="-28578">
		<tag k="fixme" v="consider natural=peak for the most distinct mountains in the district" />
		<tag k="name" v="Bøleråsen" />
		<tag k="natural" v="hill" />
		<tag k="place" v="locality" />
		<tag k="ssr:stedsnr" v="65864" />
	</node>
	<node lat="59.9509388914147" lon="11.284680548349034" id="-28581">
		<tag k="alt_name" v="Igletjennshøgda" />
		<tag k="fixme" v="consider natural=peak for the most distinct mountains in the district" />
		<tag k="name" v="Igletjernhøgda" />
		<tag k="natural" v="hill" />
		<tag k="place" v="locality" />
		<tag k="ssr:stedsnr" v="66512" />
	</node>
	<node lat="60.00087500053166" lon="11.017780553487523" id="-28587">
		<tag k="name" v="Glassmesterbakken" />
		<tag k="natural" v="slope" />
		<tag k="place" v="locality" />
		<tag k="ssr:stedsnr" v="84493" />
	</node>
	<node lat="59.77028611121042" lon="11.315249996927978" id="-28608">
		<tag k="name" v="Søndre Minjarudkollen" />
		<tag k="natural" v="hill" />
		<tag k="place" v="locality" />
		<tag k="ssr:stedsnr" v="100267" />
	</node>
	<node lat="59.76518888803713" lon="11.32616943885601" id="-28610">
		<tag k="name" v="Hansketjenndalen" />
		<tag k="natural" v="valley" />
		<tag k="place" v="locality" />
		<tag k="ssr:stedsnr" v="100279" />
	</node>
	<node lat="59.984663889393" lon="11.180358328913698" id="-28634">
		<tag k="name" v="Agntjennslia" />
		<tag k="natural" v="slope" />
		<tag k="place" v="locality" />
		<tag k="ssr:stedsnr" v="116120" />
	</node>
	<node lat="59.88284166951279" lon="11.262633336847982" id="-28644">
		<tag k="fixme" v="consider natural=peak for the most distinct mountains in the district" />
		<tag k="name" v="Rødbekkåsen" />
		<tag k="natural" v="hill" />
		<tag k="place" v="locality" />
		<tag k="ssr:stedsnr" v="118503" />
	</node>
	<node lat="59.88800833399426" lon="11.21765277319676" id="-28646">
		<tag k="fixme" v="consider natural=peak for the most distinct mountains in the district" />
		<tag k="name" v="Ormåsen" />
		<tag k="natural" v="hill" />
		<tag k="place" v="locality" />
		<tag k="ssr:stedsnr" v="118509" />
	</node>
	<node lat="59.93934444269988" lon="11.151622220226068" id="-28653">
		<tag k="name" v="Vitåsen" />
		<tag k="natural" v="hill" />
		<tag k="place" v="locality" />
		<tag k="ssr:stedsnr" v="118631" />
	</node>
	<node lat="59.96539722246671" lon="10.951530551672159" id="-28688">
		<tag k="fixme" v="consider natural=peak for the most distinct mountains in the district" />
		<tag k="name" v="Øvre Lauvåsen" />
		<tag k="natural" v="hill" />
		<tag k="place" v="locality" />
		<tag k="ssr:stedsnr" v="144504" />
	</node>
	<node lat="59.85954444224009" lon="11.269763882956838" id="-28692">
		<tag k="name" v="Østbylia" />
		<tag k="natural" v="slope" />
		<tag k="place" v="locality" />
		<tag k="ssr:stedsnr" v="163566" />
	</node>
	<node lat="59.89964722480417" lon="11.159941659109482" id="-28693">
		<tag k="name" v="Bjaneshaugen" />
		<tag k="natural" v="hill" />
		<tag k="place" v="locality" />
		<tag k="ssr:stedsnr" v="163670" />
	</node>
	<node lat="59.8805611070516" lon="11.314891664819157" id="-28712">
		<tag k="name" v="Borgendalen" />
		<tag k="natural" v="valley" />
		<tag k="place" v="locality" />
		<tag k="ssr:stedsnr" v="179523" />
	</node>
	<node lat="59.84678055520375" lon="11.265966671076642" id="-28715">
		<tag k="name" v="Rossdallia" />
		<tag k="natural" v="slope" />
		<tag k="place" v="locality" />
		<tag k="ssr:stedsnr" v="180362" />
	</node>
	<node lat="59.84520555573476" lon="11.282891675459092" id="-28716">
		<tag k="name" v="Rogndalslia" />
		<tag k="natural" v="slope" />
		<tag k="place" v="locality" />
		<tag k="ssr:stedsnr" v="180368" />
	</node>
	<node lat="59.79667499689128" lon="11.244955562175619" id="-28750">
		<tag k="name" v="Syltedalen" />
		<tag k="natural" v="valley" />
		<tag k="place" v="locality" />
		<tag k="ssr:stedsnr" v="221223" />
	</node>
	<node lat="59.937152777599984" lon="11.297983324692455" id="-28757">
		<tag k="name" v="Sollilia" />
		<tag k="natural" v="slope" />
		<tag k="place" v="locality" />
		<tag k="ssr:stedsnr" v="222410" />
	</node>
	<node lat="59.873802780400396" lon="11.27845555533922" id="-28759">
		<tag k="name" v="Stokkedalen" />
		<tag k="natural" v="valley" />
		<tag k="place" v="locality" />
		<tag k="ssr:stedsnr" v="222578" />
	</node>
	<node lat="59.96168333713162" lon="11.144902778304829" id="-28765">
		<tag k="name" v="Sagholslia" />
		<tag k="natural" v="slope" />
		<tag k="place" v="locality" />
		<tag k="ssr:stedsnr" v="237888" />
	</node>
	<node lat="59.918391666739204" lon="11.325847228322088" id="-28767">
		<tag k="name" v="Styggdalen" />
		<tag k="natural" v="valley" />
		<tag k="place" v="locality" />
		<tag k="ssr:stedsnr" v="239239" />
	</node>
	<node lat="60.01685277333817" lon="11.090588892415926" id="-28771">
		<tag k="name" v="Seterhaugen" />
		<tag k="natural" v="hill" />
		<tag k="place" v="locality" />
		<tag k="ssr:stedsnr" v="239830" />
	</node>
	<node lat="59.93763888627015" lon="11.30911388335843" id="-28784">
		<tag k="alt_name" v="Rossdalen" />
		<tag k="name" v="Råsdalen" />
		<tag k="natural" v="valley" />
		<tag k="place" v="locality" />
		<tag k="ssr:stedsnr" v="247560" />
	</node>
	<node lat="59.872088890962324" lon="11.338852780300638" id="-28787">
		<tag k="alt_name" v="Bjønndalen" />
		<tag k="name" v="Bjørndalen" />
		<tag k="natural" v="valley" />
		<tag k="place" v="locality" />
		<tag k="ssr:stedsnr" v="247674" />
	</node>
	<node lat="60.06118889173683" lon="11.275105551149569" id="-28790">
		<tag k="fixme" v="consider natural=peak for the most distinct mountains in the district" />
		<tag k="name" v="Egneråsen" />
		<tag k="natural" v="hill" />
		<tag k="place" v="locality" />
		<tag k="ssr:stedsnr" v="248008" />
	</node>
	<node lat="59.80061111052983" lon="11.248588896147831" id="-28810">
		<tag k="name" v="Korsveiåsen" />
		<tag k="natural" v="hill" />
		<tag k="place" v="locality" />
		<tag k="ssr:stedsnr" v="282230" />
	</node>
	<node lat="59.960222224962656" lon="11.223516662420598" id="-28813">
		<tag k="name" v="Brenneppåsen" />
		<tag k="natural" v="hill" />
		<tag k="place" v="locality" />
		<tag k="ssr:stedsnr" v="282411" />
	</node>
	<node lat="59.95696666785511" lon="11.22210000825248" id="-28815">
		<tag k="fixme" v="consider natural=peak for the most distinct mountains in the district" />
		<tag k="name" v="Lintjennåsen" />
		<tag k="natural" v="hill" />
		<tag k="place" v="locality" />
		<tag k="ssr:stedsnr" v="282413" />
	</node>
	<node lat="59.872788893272876" lon="11.324072224136248" id="-28836">
		<tag k="fixme" v="consider natural=peak for the most distinct mountains in the district" />
		<tag k="name" v="Rundtjennåsen" />
		<tag k="natural" v="hill" />
		<tag k="place" v="locality" />
		<tag k="ssr:stedsnr" v="300604" />
	</node>
	<node lat="59.8435416708483" lon="11.280419440640834" id="-28842">
		<tag k="name" v="Rogndalen" />
		<tag k="natural" v="valley" />
		<tag k="place" v="locality" />
		<tag k="ssr:stedsnr" v="302383" />
	</node>
	<node lat="59.90251666502153" lon="11.199433330661508" id="-28852">
		<tag k="fixme" v="consider natural=peak for the most distinct mountains in the district" />
		<tag k="name" v="Råsåkhøgda" />
		<tag k="natural" v="hill" />
		<tag k="place" v="locality" />
		<tag k="ssr:stedsnr" v="307660" />
	</node>
	<node lat="60.035691664374" lon="11.15040000725422" id="-28872">
		<tag k="fixme" v="consider natural=peak for the most distinct mountains in the district" />
		<tag k="name" v="Vilbergfjellet" />
		<tag k="natural" v="hill" />
		<tag k="place" v="locality" />
		<tag k="ssr:stedsnr" v="309879" />
	</node>
	<node lat="59.88228333338868" lon="11.284683328059586" id="-28897">
		<tag k="name" v="Kråkehalsen" />
		<tag k="natural" v="valley" />
		<tag k="place" v="locality" />
		<tag k="ssr:stedsnr" v="360516" />
	</node>
	<node lat="59.7848388899149" lon="11.309611113789297" id="-28909">
		<tag k="fixme" v="consider natural=peak for the most distinct mountains in the district" />
		<tag k="name" v="Kolåshøgda" />
		<tag k="natural" v="hill" />
		<tag k="place" v="locality" />
		<tag k="ssr:stedsnr" v="368874" />
	</node>
	<node lat="59.97239722435158" lon="11.189336103932451" id="-28913">
		<tag k="fixme" v="consider natural=peak for the most distinct mountains in the district" />
		<tag k="name" v="Seteråsen" />
		<tag k="natural" v="hill" />
		<tag k="place" v="locality" />
		<tag k="ssr:stedsnr" v="369470" />
	</node>
	<node lat="59.975347222316266" lon="11.181555561416308" id="-28917">
		<tag k="name" v="Nybrudalen" />
		<tag k="natural" v="valley" />
		<tag k="place" v="locality" />
		<tag k="ssr:stedsnr" v="479124" />
	</node>
	<node lat="59.95376944140374" lon="11.206983341998333" id="-28922">
		<tag k="name" v="Dypdalen" />
		<tag k="natural" v="valley" />
		<tag k="place" v="locality" />
		<tag k="ssr:stedsnr" v="479889" />
	</node>
	<node lat="59.91986944110714" lon="11.31900833778694" id="-28924">
		<tag k="name" v="Sandbakkleiva" />
		<tag k="natural" v="slope" />
		<tag k="place" v="locality" />
		<tag k="ssr:stedsnr" v="481292" />
	</node>
	<node lat="59.89529444806519" lon="11.253019436548128" id="-28935">
		<tag k="name" v="Svartputtdalen" />
		<tag k="natural" v="valley" />
		<tag k="place" v="locality" />
		<tag k="ssr:stedsnr" v="482548" />
	</node>
	<node lat="59.8567805550435" lon="11.298597221022472" id="-28937">
		<tag k="fixme" v="consider natural=peak for the most distinct mountains in the district" />
		<tag k="name" v="Lauvåsen" />
		<tag k="natural" v="hill" />
		<tag k="place" v="locality" />
		<tag k="ssr:stedsnr" v="482599" />
	</node>
	<node lat="60.037708335602154" lon="11.15013611380426" id="-28941">
		<tag k="name" v="Kjerkefjellet" />
		<tag k="natural" v="hill" />
		<tag k="place" v="locality" />
		<tag k="ssr:stedsnr" v="483256" />
	</node>
	<node lat="59.80159444479935" lon="11.292583338106043" id="-28944">
		<tag k="name" v="Rølliksdalen" />
		<tag k="natural" v="valley" />
		<tag k="place" v="locality" />
		<tag k="ssr:stedsnr" v="403233" />
	</node>
	<node lat="59.873797221572815" lon="11.276650001737043" id="-28951">
		<tag k="name" v="Skjatvetåsen" />
		<tag k="natural" v="hill" />
		<tag k="place" v="locality" />
		<tag k="ssr:stedsnr" v="404600" />
	</node>
	<node lat="59.86665833490226" lon="11.238311105112109" id="-28952">
		<tag k="name" v="Tølleren" />
		<tag k="natural" v="hill" />
		<tag k="place" v="locality" />
		<tag k="ssr:stedsnr" v="404615" />
	</node>
	<node lat="59.854072224686725" lon="11.272911110430838" id="-28953">
		<tag k="name" v="Holtedalsåsen" />
		<tag k="natural" v="hill" />
		<tag k="place" v="locality" />
		<tag k="ssr:stedsnr" v="405340" />
	</node>
	<node lat="59.90544444215252" lon="11.316875000443092" id="-28956">
		<tag k="fixme" v="consider natural=peak for the most distinct mountains in the district" />
		<tag k="name" v="Langmyrhøgda" />
		<tag k="natural" v="hill" />
		<tag k="place" v="locality" />
		<tag k="ssr:stedsnr" v="421240" />
	</node>
	<node lat="59.89748333415849" lon="11.284547225496754" id="-28957">
		<tag k="name" v="Byseterlia" />
		<tag k="natural" v="slope" />
		<tag k="place" v="locality" />
		<tag k="ssr:stedsnr" v="421299" />
	</node>
	<node lat="59.96340000279372" lon="11.120952779113662" id="-28980">
		<tag k="fixme" v="consider natural=peak for the most distinct mountains in the district" />
		<tag k="name" v="Jølsenåsen" />
		<tag k="natural" v="hill" />
		<tag k="place" v="locality" />
		<tag k="ssr:stedsnr" v="490481" />
	</node>
	<node lat="59.94524166261769" lon="11.155619449387249" id="-28982">
		<tag k="fixme" v="consider natural=peak for the most distinct mountains in the district" />
		<tag k="name" v="Garderåsen" />
		<tag k="natural" v="hill" />
		<tag k="place" v="locality" />
		<tag k="ssr:stedsnr" v="490544" />
	</node>
	<node lat="59.91894722260446" lon="11.337194443508343" id="-28988">
		<tag k="name" v="Sjødalen" />
		<tag k="natural" v="valley" />
		<tag k="place" v="locality" />
		<tag k="ssr:stedsnr" v="490576" />
	</node>
	<node lat="59.967427777503275" lon="10.947124996507307" id="-29014">
		<tag k="fixme" v="consider natural=peak for the most distinct mountains in the district" />
		<tag k="name" v="Gjelleråsen" />
		<tag k="natural" v="hill" />
		<tag k="place" v="locality" />
		<tag k="ssr:stedsnr" v="430556" />
	</node>
	<node lat="59.95483888480854" lon="10.956897215366048" id="-29029">
		<tag k="name" v="Brattli" />
		<tag k="natural" v="slope" />
		<tag k="place" v="locality" />
		<tag k="ssr:stedsnr" v="448507" />
	</node>
	<node lat="59.92327221999939" lon="11.26069722335105" id="-29047">
		<tag k="fixme" v="consider natural=peak for the most distinct mountains in the district" />
		<tag k="name" v="Vanakleiv" />
		<tag k="natural" v="hill" />
		<tag k="place" v="locality" />
		<tag k="ssr:stedsnr" v="672577" />
	</node>
	<node lat="60.036808332503334" lon="11.071527777347868" id="-29058">
		<tag k="name" v="Semmerudtoppen" />
		<tag k="natural" v="hill" />
		<tag k="place" v="locality" />
		<tag k="ssr:stedsnr" v="464160" />
	</node>
	<node lat="59.96751388960911" lon="11.212397218650919" id="-29062">
		<tag k="name" v="Holendalen" />
		<tag k="natural" v="valley" />
		<tag k="place" v="locality" />
		<tag k="ssr:stedsnr" v="464455" />
	</node>
	<node lat="59.8531944414143" lon="11.29868889636362" id="-29069">
		<tag k="name" v="Bjørkedråga" />
		<tag k="natural" v="valley" />
		<tag k="place" v="locality" />
		<tag k="ssr:stedsnr" v="465617" />
	</node>
	<node lat="59.99504166485935" lon="11.16328889002023" id="-29091">
		<tag k="name" v="Kastet" />
		<tag k="place" v="locality" />
		<tag k="ssr:stedsnr" v="484578" />
	</node>
	<node lat="59.99852499902735" lon="11.161988891840586" id="-29093">
		<tag k="fixme" v="multiple name tags, choose one and add the other to alt_name; consider natural=peak for the most distinct mountains in the district" />
		<tag k="name" v="Størsrudåsen;Størsrudfjellet" />
		<tag k="natural" v="hill" />
		<tag k="place" v="locality" />
		<tag k="ssr:stedsnr" v="489518" />
	</node>
	<node lat="59.965763885484066" lon="11.267786106740962" id="-29097">
		<tag k="fixme" v="consider natural=peak for the most distinct mountains in the district" />
		<tag k="name" v="Gullsmedåsen" />
		<tag k="natural" v="hill" />
		<tag k="place" v="locality" />
		<tag k="ssr:stedsnr" v="490498" />
	</node>
	<node lat="59.910025003095654" lon="11.226186111637256" id="-29098">
		<tag k="fixme" v="consider natural=peak for the most distinct mountains in the district" />
		<tag k="name" v="Poståsen" />
		<tag k="natural" v="hill" />
		<tag k="place" v="locality" />
		<tag k="ssr:stedsnr" v="490625" />
	</node>
	<node lat="59.8265944427864" lon="11.240919449450095" id="-29115">
		<tag k="name" v="Bukkedalen" />
		<tag k="natural" v="valley" />
		<tag k="place" v="locality" />
		<tag k="ssr:stedsnr" v="525369" />
	</node>
	<node lat="59.83005555187431" lon="11.250788882601995" id="-29116">
		<tag k="fixme" v="consider natural=peak for the most distinct mountains in the district" />
		<tag k="name" v="Moltemyrås" />
		<tag k="natural" v="hill" />
		<tag k="place" v="locality" />
		<tag k="ssr:stedsnr" v="525371" />
	</node>
	<node lat="59.92381666960775" lon="11.303341661398559" id="-29131">
		<tag k="name" v="Djupdalslia" />
		<tag k="natural" v="slope" />
		<tag k="place" v="locality" />
		<tag k="ssr:stedsnr" v="542277" />
	</node>
	<node lat="59.840049998381915" lon="11.239949995455543" id="-29144">
		<tag k="fixme" v="consider natural=peak for the most distinct mountains in the district" />
		<tag k="name" v="Barkenesåsen" />
		<tag k="natural" v="hill" />
		<tag k="place" v="locality" />
		<tag k="ssr:stedsnr" v="544370" />
	</node>
	<node lat="60.00280278145653" lon="11.153950000619327" id="-29145">
		<tag k="name" v="Tjennsdalen" />
		<tag k="natural" v="valley" />
		<tag k="place" v="locality" />
		<tag k="ssr:stedsnr" v="544580" />
	</node>
	<node lat="59.98501111413489" lon="11.192211112857478" id="-29149">
		<tag k="fixme" v="consider natural=peak for the most distinct mountains in the district" />
		<tag k="name" v="Røysa" />
		<tag k="natural" v="hill" />
		<tag k="place" v="locality" />
		<tag k="ssr:stedsnr" v="550453" />
	</node>
	<node lat="59.99248888494678" lon="11.117499997994182" id="-29150">
		<tag k="fixme" v="consider natural=peak for the most distinct mountains in the district" />
		<tag k="name" v="Hauglifjellet" />
		<tag k="natural" v="hill" />
		<tag k="place" v="locality" />
		<tag k="ssr:stedsnr" v="550456" />
	</node>
	<node lat="59.81377499875138" lon="11.25195555376757" id="-29157">
		<tag k="name" v="Marikjelddalen" />
		<tag k="natural" v="valley" />
		<tag k="place" v="locality" />
		<tag k="ssr:stedsnr" v="550807" />
	</node>
	<node lat="59.935699996325845" lon="11.237144439819234" id="-29159">
		<tag k="fixme" v="consider natural=peak for the most distinct mountains in the district" />
		<tag k="name" v="Brattåsen" />
		<tag k="natural" v="hill" />
		<tag k="place" v="locality" />
		<tag k="ssr:stedsnr" v="550553" />
	</node>
	<node lat="60.013230552704925" lon="11.008797214677264" id="-29165">
		<tag k="name" v="Tærudkampen" />
		<tag k="natural" v="hill" />
		<tag k="place" v="locality" />
		<tag k="ssr:stedsnr" v="551358" />
	</node>
	<node lat="59.842813888399334" lon="11.317375001097261" id="-29169">
		<tag k="name" v="Delingsdalen" />
		<tag k="natural" v="valley" />
		<tag k="place" v="locality" />
		<tag k="ssr:stedsnr" v="551748" />
	</node>
	<node lat="59.97018333608763" lon="10.957177776586489" id="-29177">
		<tag k="fixme" v="consider natural=peak for the most distinct mountains in the district" />
		<tag k="name" v="Nedre Lauvåsen" />
		<tag k="natural" v="hill" />
		<tag k="place" v="locality" />
		<tag k="ssr:stedsnr" v="691455" />
	</node>
	<node lat="60.03815277679267" lon="10.978136108726314" id="-29178">
		<tag k="name" v="Klopptjerntoppen" />
		<tag k="natural" v="hill" />
		<tag k="place" v="locality" />
		<tag k="ssr:stedsnr" v="691464" />
	</node>
	<node lat="59.827338892772275" lon="11.285380559928127" id="-29187">
		<tag k="fixme" v="consider natural=peak for the most distinct mountains in the district" />
		<tag k="name" v="Bognemyrhøgda" />
		<tag k="natural" v="hill" />
		<tag k="place" v="locality" />
		<tag k="ssr:stedsnr" v="585318" />
	</node>
	<node lat="59.768597219005756" lon="11.290141672071812" id="-29190">
		<tag k="name" v="Kloropplia" />
		<tag k="natural" v="slope" />
		<tag k="place" v="locality" />
		<tag k="ssr:stedsnr" v="585249" />
	</node>
	<node lat="59.962147223087136" lon="11.152850003753326" id="-29196">
		<tag k="fixme" v="consider natural=peak for the most distinct mountains in the district" />
		<tag k="name" v="Damsåsen" />
		<tag k="natural" v="hill" />
		<tag k="place" v="locality" />
		<tag k="ssr:stedsnr" v="600902" />
	</node>
	<node lat="59.95488611369645" lon="10.958155557880575" id="-29210">
		<tag k="name" v="Djupdalen" />
		<tag k="natural" v="valley" />
		<tag k="place" v="locality" />
		<tag k="ssr:stedsnr" v="611503" />
	</node>
	<node lat="59.77206389301597" lon="11.309419444908691" id="-29219">
		<tag k="alt_name" v="Minjarud Kollene" />
		<tag k="fixme" v="consider natural=peak for the most distinct mountains in the district" />
		<tag k="name" v="Minjarudkollen" />
		<tag k="natural" v="hill" />
		<tag k="place" v="locality" />
		<tag k="ssr:stedsnr" v="611919" />
	</node>
	<node lat="60.0204277791658" lon="11.14831389489107" id="-29223">
		<tag k="name" v="Hønsiholtet" />
		<tag k="natural" v="cave_entrance" />
		<tag k="ssr:stedsnr" v="612920" />
	</node>
	<node lat="59.777041664305905" lon="11.283933325026158" id="-29238">
		<tag k="name" v="Ertekleivlia" />
		<tag k="natural" v="slope" />
		<tag k="place" v="locality" />
		<tag k="ssr:stedsnr" v="646293" />
	</node>
	<node lat="59.92916388875117" lon="11.327372230198593" id="-29239">
		<tag k="name" v="Mattisfalldalen" />
		<tag k="natural" v="valley" />
		<tag k="place" v="locality" />
		<tag k="ssr:stedsnr" v="646426" />
	</node>
	<node lat="60.023124998332435" lon="11.273188881540811" id="-29241">
		<tag k="name" v="Brudalen" />
		<tag k="natural" v="valley" />
		<tag k="place" v="locality" />
		<tag k="ssr:stedsnr" v="648037" />
	</node>
	<node lat="59.85768888628642" lon="11.263191670429954" id="-29242">
		<tag k="fixme" v="consider natural=peak for the most distinct mountains in the district" />
		<tag k="name" v="Vestbyåsen" />
		<tag k="natural" v="hill" />
		<tag k="place" v="locality" />
		<tag k="ssr:stedsnr" v="648612" />
	</node>
	<node lat="59.91544166501494" lon="11.160361107267907" id="-29244">
		<tag k="name" v="Kjempehaugen" />
		<tag k="natural" v="hill" />
		<tag k="place" v="locality" />
		<tag k="ssr:stedsnr" v="648697" />
	</node>
	<node lat="59.771761112888306" lon="11.30899165866738" id="-29248">
		<tag k="fixme" v="consider natural=peak for the most distinct mountains in the district" />
		<tag k="name" v="Nordre Minjarudkollen" />
		<tag k="natural" v="hill" />
		<tag k="place" v="locality" />
		<tag k="ssr:stedsnr" v="707297" />
	</node>
	<node lat="59.81725277592003" lon="11.260305551315728" id="-29251">
		<tag k="fixme" v="consider natural=peak for the most distinct mountains in the district" />
		<tag k="name" v="Kreppahøgdene" />
		<tag k="natural" v="hill" />
		<tag k="place" v="locality" />
		<tag k="ssr:stedsnr" v="707379" />
	</node>
	<node lat="60.0462749996555" lon="11.274133329473738" id="-29252">
		<tag k="name" v="Bognerudlia" />
		<tag k="natural" v="slope" />
		<tag k="place" v="locality" />
		<tag k="ssr:stedsnr" v="707332" />
	</node>
	<node lat="59.933736113597" lon="11.30426111012436" id="-29256">
		<tag k="name" v="Lauvhyttåsen" />
		<tag k="natural" v="hill" />
		<tag k="place" v="locality" />
		<tag k="ssr:stedsnr" v="707446" />
	</node>
	<node lat="59.960741667795766" lon="11.15085833309244" id="-29266">
		<tag k="fixme" v="consider natural=peak for the most distinct mountains in the district" />
		<tag k="name" v="Nordre Veståsen" />
		<tag k="natural" v="hill" />
		<tag k="place" v="locality" />
		<tag k="ssr:stedsnr" v="661882" />
	</node>
	<node lat="59.87919167059256" lon="11.294066667127256" id="-29272">
		<tag k="name" v="Bleikehjellen" />
		<tag k="natural" v="hill" />
		<tag k="place" v="locality" />
		<tag k="ssr:stedsnr" v="664699" />
	</node>
	<node lat="59.99521944409309" lon="11.14241110526365" id="-29279">
		<tag k="fixme" v="consider natural=peak for the most distinct mountains in the district" />
		<tag k="name" v="Ausenfjellet" />
		<tag k="natural" v="hill" />
		<tag k="place" v="locality" />
		<tag k="ssr:stedsnr" v="671504" />
	</node>
	<node lat="60.019936111232845" lon="11.361263882916633" id="-29318">
		<tag k="fixme" v="consider natural=peak for the most distinct mountains in the district" />
		<tag k="name" v="Svarstadåsen" />
		<tag k="natural" v="hill" />
		<tag k="place" v="locality" />
		<tag k="ssr:stedsnr" v="707165" />
	</node>
	<node lat="59.9155055577268" lon="11.169541665244033" id="-29333">
		<tag k="name" v="Ridderhaugen" />
		<tag k="natural" v="hill" />
		<tag k="place" v="locality" />
		<tag k="ssr:stedsnr" v="709694" />
	</node>
	<node lat="59.9598611095412" lon="11.213480555353332" id="-29363">
		<tag k="fixme" v="consider natural=peak for the most distinct mountains in the district" />
		<tag k="name" v="Piggåsen" />
		<tag k="natural" v="hill" />
		<tag k="place" v="locality" />
		<tag k="ssr:stedsnr" v="733512" />
	</node>
	<node lat="59.802702780810044" lon="11.261619440999217" id="-29368">
		<tag k="fixme" v="consider natural=peak for the most distinct mountains in the district" />
		<tag k="name" v="Høgås" />
		<tag k="natural" v="hill" />
		<tag k="place" v="locality" />
		<tag k="ssr:stedsnr" v="733823" />
	</node>
	<node lat="59.98048889059357" lon="11.179761103608095" id="-29373">
		<tag k="fixme" v="consider natural=peak for the most distinct mountains in the district" />
		<tag k="name" v="Ravnåsen" />
		<tag k="natural" v="hill" />
		<tag k="place" v="locality" />
		<tag k="ssr:stedsnr" v="904128" />
	</node>
	<node lat="59.96339722655298" lon="10.937827776777635" id="-29375">
		<tag k="name" v="Gropa" />
		<tag k="place" v="locality" />
		<tag k="ssr:stedsnr" v="751023" />
	</node>
	<node lat="59.95569167074231" lon="11.024663888347492" id="-29376">
		<tag k="name" v="Jenseberget" />
		<tag k="natural" v="hill" />
		<tag k="place" v="locality" />
		<tag k="ssr:stedsnr" v="751410" />
	</node>
	<node lat="59.874925003149855" lon="11.293916666703577" id="-29391">
		<tag k="fixme" v="consider natural=peak for the most distinct mountains in the district" />
		<tag k="name" v="Hvilesteinsåsen" />
		<tag k="natural" v="hill" />
		<tag k="place" v="locality" />
		<tag k="ssr:stedsnr" v="907497" />
	</node>
	<node lat="59.92322778158314" lon="11.24070556195788" id="-29397">
		<tag k="fixme" v="consider natural=peak for the most distinct mountains in the district" />
		<tag k="name" v="Seteråsen" />
		<tag k="natural" v="hill" />
		<tag k="place" v="locality" />
		<tag k="ssr:stedsnr" v="909846" />
	</node>
	<node lat="59.873383335527215" lon="11.327113881296833" id="-29405">
		<tag k="alt_name" v="Spjeldsmyrdalen" />
		<tag k="name" v="Spjellmyrdalen" />
		<tag k="natural" v="valley" />
		<tag k="place" v="locality" />
		<tag k="ssr:stedsnr" v="787055" />
	</node>
	<node lat="60.00008610809733" lon="11.17558055543367" id="-29408">
		<tag k="name" v="Rundfjellet" />
		<tag k="natural" v="hill" />
		<tag k="place" v="locality" />
		<tag k="ssr:stedsnr" v="787603" />
	</node>
	<node lat="59.89718888963019" lon="11.222950002872015" id="-29418">
		<tag k="fixme" v="consider natural=peak for the most distinct mountains in the district" />
		<tag k="name" v="Kinnåsen" />
		<tag k="natural" v="hill" />
		<tag k="place" v="locality" />
		<tag k="ssr:stedsnr" v="793671" />
	</node>
	<node lat="60.05350555320018" lon="11.281977773688578" id="-29445">
		<tag k="fixme" v="consider natural=peak for the most distinct mountains in the district" />
		<tag k="name" v="Jultonåsen" />
		<tag k="natural" v="hill" />
		<tag k="place" v="locality" />
		<tag k="ssr:stedsnr" v="915025" />
	</node>
	<node lat="59.99083611227971" lon="11.415758330310078" id="-29450">
		<tag k="alt_name" v="Hurdalen" />
		<tag k="name" v="Hudalen" />
		<tag k="natural" v="valley" />
		<tag k="place" v="locality" />
		<tag k="ssr:stedsnr" v="915456" />
	</node>
	<node lat="59.89426666775543" lon="11.3272722161421" id="-29465">
		<tag k="name" v="Hærfangkjerka" />
		<tag k="natural" v="cliff" />
		<tag k="ssr:stedsnr" v="915617" />
	</node>
	<node lat="60.0250166676652" lon="10.979769438353893" id="-29474">
		<tag k="alt_name" v="Lauvbråtelia" />
		<tag k="name" v="Lauvbråtalia" />
		<tag k="natural" v="slope" />
		<tag k="place" v="locality" />
		<tag k="ssr:stedsnr" v="812497" />
	</node>
	<node lat="59.97575277546202" lon="11.174952770403566" id="-29487">
		<tag k="name" v="Nordre Ravnåsen" />
		<tag k="natural" v="hill" />
		<tag k="place" v="locality" />
		<tag k="ssr:stedsnr" v="844910" />
	</node>
	<node lat="59.88053333174623" lon="11.321966661038303" id="-29490">
		<tag k="name" v="Hulderberget" />
		<tag k="natural" v="hill" />
		<tag k="place" v="locality" />
		<tag k="ssr:stedsnr" v="846278" />
	</node>
	<node lat="59.833530559536506" lon="11.29504722424792" id="-29500">
		<tag k="name" v="Mjøsjødalen" />
		<tag k="natural" v="valley" />
		<tag k="place" v="locality" />
		<tag k="ssr:stedsnr" v="848378" />
	</node>
	<node lat="59.84109444111634" lon="11.261333329738848" id="-29501">
		<tag k="fixme" v="consider natural=peak for the most distinct mountains in the district" />
		<tag k="name" v="Duerudåsen" />
		<tag k="natural" v="hill" />
		<tag k="place" v="locality" />
		<tag k="ssr:stedsnr" v="848381" />
	</node>
	<node lat="59.99594166325911" lon="11.131194449384552" id="-29502">
		<tag k="name" v="Jutulkleiva" />
		<tag k="natural" v="cliff" />
		<tag k="ssr:stedsnr" v="848606" />
	</node>
	<node lat="59.99270277349028" lon="11.14105555776937" id="-29503">
		<tag k="name" v="Røverhula" />
		<tag k="natural" v="cave_entrance" />
		<tag k="ssr:stedsnr" v="848611" />
	</node>
	<node lat="59.95713333206071" lon="11.01481111412896" id="-29532">
		<tag k="name" v="Gisledalen" />
		<tag k="natural" v="valley" />
		<tag k="place" v="locality" />
		<tag k="ssr:stedsnr" v="934425" />
	</node>
	<node lat="59.868380557461144" lon="11.295288896078741" id="-29562">
		<tag k="name" v="Olahølet" />
		<tag k="natural" v="valley" />
		<tag k="place" v="locality" />
		<tag k="ssr:stedsnr" v="907566" />
	</node>
	<node lat="59.889013889825954" lon="11.278175004703245" id="-29563">
		<tag k="fixme" v="consider natural=peak for the most distinct mountains in the district" />
		<tag k="name" v="Toskeåsen" />
		<tag k="natural" v="hill" />
		<tag k="place" v="locality" />
		<tag k="ssr:stedsnr" v="907501" />
	</node>
	<node lat="59.92701111086994" lon="11.31386945121211" id="-29577">
		<tag k="fixme" v="consider natural=peak for the most distinct mountains in the district" />
		<tag k="name" v="Våråsen" />
		<tag k="natural" v="hill" />
		<tag k="place" v="locality" />
		<tag k="ssr:stedsnr" v="915575" />
	</node>
	<node lat="60.0219972203125" lon="11.00943610974849" id="-29585">
		<tag k="name" v="Damefallet" />
		<tag k="place" v="locality" />
		<tag k="ssr:stedsnr" v="934016" />
	</node>
	<node lat="59.97543333231121" lon="11.11514165808677" id="-29592">
		<tag k="fixme" v="consider natural=peak for the most distinct mountains in the district" />
		<tag k="name" v="Korpåsen" />
		<tag k="natural" v="hill" />
		<tag k="place" v="locality" />
		<tag k="ssr:stedsnr" v="934407" />
	</node>
	<node lat="60.00634999772119" lon="11.051686113016622" id="-29593">
		<tag k="name" v="Skolemesterrabben" />
		<tag k="natural" v="ridge" />
		<tag k="place" v="locality" />
		<tag k="ssr:stedsnr" v="934408" />
	</node>
	<node lat="59.95310277854397" lon="10.971627778060075" id="-29594">
		<tag k="fixme" v="consider natural=peak for the most distinct mountains in the district" />
		<tag k="name" v="Skjettenåsen" />
		<tag k="natural" v="hill" />
		<tag k="place" v="locality" />
		<tag k="ssr:stedsnr" v="934411" />
	</node>
	<node lat="59.95265277443625" lon="10.991516672599886" id="-29595">
		<tag k="fixme" v="consider natural=peak for the most distinct mountains in the district" />
		<tag k="name" v="Bråteåsen" />
		<tag k="natural" v="hill" />
		<tag k="place" v="locality" />
		<tag k="ssr:stedsnr" v="934412" />
	</node>
	<node lat="59.96901944032394" lon="11.014225003271452" id="-29596">
		<tag k="name" v="Nøkleberget" />
		<tag k="natural" v="hill" />
		<tag k="place" v="locality" />
		<tag k="ssr:stedsnr" v="934418" />
	</node>
	<node lat="59.83440000013402" lon="11.268783329950319" id="-29599">
		<tag k="name" v="Fuglemåsalia" />
		<tag k="natural" v="slope" />
		<tag k="place" v="locality" />
		<tag k="ssr:stedsnr" v="950340" />
	</node>
	<node lat="59.789469441802815" lon="11.263930554999348" id="-29604">
		<tag k="fixme" v="consider natural=peak for the most distinct mountains in the district" />
		<tag k="name" v="Skredderåsen" />
		<tag k="natural" v="hill" />
		<tag k="place" v="locality" />
		<tag k="ssr:stedsnr" v="950282" />
	</node>
	<node lat="59.94295833097597" lon="11.238816672025804" id="-29622">
		<tag k="name" v="Delingsdalen" />
		<tag k="natural" v="valley" />
		<tag k="place" v="locality" />
		<tag k="ssr:stedsnr" v="965878" />
	</node>
	<node lat="59.920183335020326" lon="11.309280562520998" id="-29625">
		<tag k="name" v="Seterlia" />
		<tag k="natural" v="slope" />
		<tag k="place" v="locality" />
		<tag k="ssr:stedsnr" v="967207" />
	</node>
	<node lat="59.92406666264764" lon="11.3183888904082" id="-29627">
		<tag k="name" v="Sarpdalen" />
		<tag k="natural" v="valley" />
		<tag k="place" v="locality" />
		<tag k="ssr:stedsnr" v="967245" />
	</node>
	<node lat="59.931941668592174" lon="11.250155558046377" id="-29628">
		<tag k="name" v="Valdreshullet" />
		<tag k="natural" v="valley" />
		<tag k="place" v="locality" />
		<tag k="ssr:stedsnr" v="967199" />
	</node>
	<node lat="59.920008330849576" lon="11.253444435682738" id="-29639">
		<tag k="name" v="Svarttjenndalen" />
		<tag k="natural" v="valley" />
		<tag k="place" v="locality" />
		<tag k="ssr:stedsnr" v="969846" />
	</node>
	<node lat="59.981063461476666" lon="10.980016077992072" id="-29657">
		<tag k="name" v="Hellerudsletta" />
		<tag k="place" v="locality" />
		<tag k="ssr:stedsnr" v="990135" />
	</node>
	<node lat="59.898550001387186" lon="11.300641662041023" id="-29715">
		<tag k="fixme" v="consider natural=peak for the most distinct mountains in the district" />
		<tag k="name" v="Kukollen" />
		<tag k="natural" v="hill" />
		<tag k="place" v="locality" />
		<tag k="ssr:stedsnr" v="4636" />
	</node>
	<node lat="59.84220277465749" lon="11.264280551653542" id="-29723">
		<tag k="name" v="Rossdalen" />
		<tag k="natural" v="valley" />
		<tag k="place" v="locality" />
		<tag k="ssr:stedsnr" v="5722" />
	</node>
	<node lat="59.84423333740703" lon="11.297819443827727" id="-29725">
		<tag k="alt_name" v="Merradalen" />
		<tag k="name" v="Mærradalen" />
		<tag k="natural" v="valley" />
		<tag k="place" v="locality" />
		<tag k="ssr:stedsnr" v="5729" />
	</node>
	<node lat="59.93605277832244" lon="11.329447222850764" id="-29740">
		<tag k="fixme" v="consider natural=peak for the most distinct mountains in the district" />
		<tag k="name" v="Rabben" />
		<tag k="natural" v="hill" />
		<tag k="place" v="locality" />
		<tag k="ssr:stedsnr" v="39372" />
	</node>
	<node lat="60.040597225778924" lon="11.244758334686727" id="-29748">
		<tag k="name" v="Vølnerdalen" />
		<tag k="natural" v="valley" />
		<tag k="place" v="locality" />
		<tag k="ssr:stedsnr" v="40343" />
	</node>
	<node lat="60.01864721808207" lon="11.285477773327537" id="-29759">
		<tag k="fixme" v="consider natural=peak for the most distinct mountains in the district" />
		<tag k="name" v="Smiuåsen" />
		<tag k="natural" v="hill" />
		<tag k="place" v="locality" />
		<tag k="ssr:stedsnr" v="42016" />
	</node>
	<node lat="60.01928611031241" lon="11.277644445551289" id="-29760">
		<tag k="name" v="Mangemannsdalen" />
		<tag k="natural" v="valley" />
		<tag k="place" v="locality" />
		<tag k="ssr:stedsnr" v="42017" />
	</node>
	<node lat="59.954797225750156" lon="11.211708338375386" id="-29766">
		<tag k="name" v="Korpefjella" />
		<tag k="natural" v="hill" />
		<tag k="place" v="locality" />
		<tag k="ssr:stedsnr" v="55866" />
	</node>
	<node lat="59.97172777507401" lon="11.17338055252376" id="-29771">
		<tag k="name" v="Søndre Ravnåsen" />
		<tag k="natural" v="hill" />
		<tag k="place" v="locality" />
		<tag k="ssr:stedsnr" v="55893" />
	</node>
	<node lat="59.915994442237334" lon="11.290847230737501" id="-29777">
		<tag k="fixme" v="consider natural=peak for the most distinct mountains in the district" />
		<tag k="name" v="Jervedalshøgda" />
		<tag k="natural" v="hill" />
		<tag k="place" v="locality" />
		<tag k="ssr:stedsnr" v="57234" />
	</node>
	<node lat="59.91224722394269" lon="11.256672220463713" id="-29783">
		<tag k="fixme" v="consider natural=peak for the most distinct mountains in the district" />
		<tag k="name" v="Tretysjøåsen" />
		<tag k="natural" v="hill" />
		<tag k="place" v="locality" />
		<tag k="ssr:stedsnr" v="57647" />
	</node>
	<node lat="59.99011388599083" lon="11.177758338052493" id="-29786">
		<tag k="name" v="Tjennsdalen" />
		<tag k="natural" v="valley" />
		<tag k="place" v="locality" />
		<tag k="ssr:stedsnr" v="57700" />
	</node>
	<node lat="59.852508334184456" lon="11.27148056255268" id="-29793">
		<tag k="name" v="Karimåsalia" />
		<tag k="natural" v="slope" />
		<tag k="place" v="locality" />
		<tag k="ssr:stedsnr" v="59351" />
	</node>
	<node lat="59.931715384444914" lon="11.154052295189107" id="-29796">
		<tag k="name" v="Gardertoppen" />
		<tag k="natural" v="hill" />
		<tag k="place" v="locality" />
		<tag k="ssr:stedsnr" v="60429" />
	</node>
	<node lat="59.94241111268127" lon="11.16318611395374" id="-29797">
		<tag k="name" v="Falldalen" />
		<tag k="natural" v="valley" />
		<tag k="place" v="locality" />
		<tag k="ssr:stedsnr" v="65542" />
	</node>
	<node lat="59.94534444750328" lon="11.172958326255703" id="-29798">
		<tag k="fixme" v="consider natural=peak for the most distinct mountains in the district" />
		<tag k="name" v="Falleråsen" />
		<tag k="natural" v="hill" />
		<tag k="place" v="locality" />
		<tag k="ssr:stedsnr" v="65544" />
	</node>
	<node lat="60.01024167124512" lon="11.359802772392777" id="-29832">
		<tag k="fixme" v="consider natural=peak for the most distinct mountains in the district" />
		<tag k="name" v="Toreidfjellet" />
		<tag k="natural" v="hill" />
		<tag k="place" v="locality" />
		<tag k="ssr:stedsnr" v="100144" />
	</node>
	<node lat="59.767011106925295" lon="11.310980563683607" id="-29835">
		<tag k="fixme" v="consider natural=peak for the most distinct mountains in the district" />
		<tag k="name" v="Steindalshøgdene" />
		<tag k="natural" v="hill" />
		<tag k="place" v="locality" />
		<tag k="ssr:stedsnr" v="100286" />
	</node>
	<node lat="60.025577782130746" lon="11.303188884801443" id="-29839">
		<tag k="name" v="Fosserudhøgda" />
		<tag k="natural" v="hill" />
		<tag k="place" v="locality" />
		<tag k="ssr:stedsnr" v="100301" />
	</node>
	<node lat="60.054952780671464" lon="11.273094436827344" id="-29840">
		<tag k="name" v="Vølnebergåsen" />
		<tag k="natural" v="hill" />
		<tag k="place" v="locality" />
		<tag k="ssr:stedsnr" v="100398" />
	</node>
	<node lat="59.7889611132808" lon="11.277191671120606" id="-29844">
		<tag k="name" v="Kvernhusåsen" />
		<tag k="natural" v="hill" />
		<tag k="place" v="locality" />
		<tag k="ssr:stedsnr" v="100240" />
	</node>
	<node lat="59.79334999997576" lon="11.248172214208372" id="-29845">
		<tag k="fixme" v="consider natural=peak for the most distinct mountains in the district" />
		<tag k="name" v="Rudsåsen" />
		<tag k="natural" v="hill" />
		<tag k="place" v="locality" />
		<tag k="ssr:stedsnr" v="100245" />
	</node>
	<node lat="59.825080558297934" lon="11.272611111930765" id="-29847">
		<tag k="fixme" v="consider natural=peak for the most distinct mountains in the district" />
		<tag k="name" v="Vindlandsåsen" />
		<tag k="natural" v="hill" />
		<tag k="place" v="locality" />
		<tag k="ssr:stedsnr" v="100337" />
	</node>
	<node lat="59.8182194457963" lon="11.246402781401999" id="-29848">
		<tag k="name" v="Rådsdalen" />
		<tag k="natural" v="valley" />
		<tag k="place" v="locality" />
		<tag k="ssr:stedsnr" v="100342" />
	</node>
	<node lat="59.968922222730626" lon="11.255369442434832" id="-29849">
		<tag k="fixme" v="consider natural=peak for the most distinct mountains in the district" />
		<tag k="name" v="Løgnåsen" />
		<tag k="natural" v="hill" />
		<tag k="place" v="locality" />
		<tag k="ssr:stedsnr" v="100351" />
	</node>
	<node lat="59.88997222092995" lon="11.209794441628405" id="-29871">
		<tag k="name" v="Staurdalen" />
		<tag k="natural" v="valley" />
		<tag k="place" v="locality" />
		<tag k="ssr:stedsnr" v="118513" />
	</node>
	<node lat="59.84772221996915" lon="11.275405550528928" id="-29878">
		<tag k="fixme" v="consider natural=peak for the most distinct mountains in the district" />
		<tag k="name" v="Veslemåsahøgda" />
		<tag k="natural" v="hill" />
		<tag k="place" v="locality" />
		<tag k="ssr:stedsnr" v="120356" />
	</node>
	<node lat="59.99723333588211" lon="11.1692416748191" id="-29882">
		<tag k="name" v="Borkedalslia" />
		<tag k="natural" v="slope" />
		<tag k="place" v="locality" />
		<tag k="ssr:stedsnr" v="120580" />
	</node>
	<node lat="59.97867499663285" lon="11.126780558665466" id="-29886">
		<tag k="fixme" v="consider natural=peak for the most distinct mountains in the district" />
		<tag k="name" v="Skansen" />
		<tag k="natural" v="hill" />
		<tag k="place" v="locality" />
		<tag k="ssr:stedsnr" v="125492" />
	</node>
	<node lat="59.959004899682796" lon="10.957225020933691" id="-29887">
		<tag k="alt_name" v="Terudåsen;Høgda" />
		<tag k="fixme" v="consider natural=peak for the most distinct mountains in the district" />
		<tag k="name" v="Tærudåsen" />
		<tag k="natural" v="hill" />
		<tag k="place" v="locality" />
		<tag k="ssr:stedsnr" v="125520" />
	</node>
	<node lat="60.01036110959528" lon="11.017858329900136" id="-29912">
		<tag k="name" v="Tæruddalen" />
		<tag k="natural" v="valley" />
		<tag k="place" v="locality" />
		<tag k="ssr:stedsnr" v="127377" />
	</node>
	<node lat="59.979758333552866" lon="11.036202775876962" id="-29919">
		<tag k="name" v="Kjellerhaugen" />
		<tag k="natural" v="hill" />
		<tag k="place" v="locality" />
		<tag k="ssr:stedsnr" v="144507" />
	</node>
	<node lat="60.041430557117906" lon="10.972977783817669" id="-29920">
		<tag k="name" v="Lyberget" />
		<tag k="natural" v="hill" />
		<tag k="place" v="locality" />
		<tag k="ssr:stedsnr" v="144513" />
	</node>
	<node lat="59.77250277926455" lon="11.24961944674823" id="-29921">
		<tag k="fixme" v="consider natural=peak for the most distinct mountains in the district" />
		<tag k="name" v="Hunesåsen" />
		<tag k="natural" v="hill" />
		<tag k="place" v="locality" />
		<tag k="ssr:stedsnr" v="160269" />
	</node>
	<node lat="59.78333055345363" lon="11.270322219670524" id="-29925">
		<tag k="name" v="Melnesåsen" />
		<tag k="natural" v="hill" />
		<tag k="place" v="locality" />
		<tag k="ssr:stedsnr" v="161302" />
	</node>
	<node lat="59.83888333430093" lon="11.266127784508926" id="-29927">
		<tag k="name" v="Rosstjennlia" />
		<tag k="natural" v="slope" />
		<tag k="place" v="locality" />
		<tag k="ssr:stedsnr" v="161340" />
	</node>
	<node lat="59.79138611273798" lon="11.310225000073778" id="-29933">
		<tag k="name" v="Tjurukleiva" />
		<tag k="natural" v="slope" />
		<tag k="place" v="locality" />
		<tag k="ssr:stedsnr" v="161266" />
	</node>
	<node lat="59.76783055398117" lon="11.323094443898729" id="-29935">
		<tag k="fixme" v="consider natural=peak for the most distinct mountains in the district" />
		<tag k="name" v="Gravtjennhøgda" />
		<tag k="natural" v="hill" />
		<tag k="place" v="locality" />
		<tag k="ssr:stedsnr" v="161291" />
	</node>
	<node lat="59.93370555666127" lon="11.316341661769883" id="-29944">
		<tag k="name" v="Høgmåslia" />
		<tag k="natural" v="slope" />
		<tag k="place" v="locality" />
		<tag k="ssr:stedsnr" v="161439" />
	</node>
	<node lat="59.898105552291824" lon="11.177274997055212" id="-29952">
		<tag k="name" v="Brudeberget" />
		<tag k="natural" v="cliff" />
		<tag k="ssr:stedsnr" v="163736" />
	</node>
	<node lat="59.96273055430412" lon="11.156130549211799" id="-29962">
		<tag k="name" v="Rakkermåsalia" />
		<tag k="natural" v="slope" />
		<tag k="place" v="locality" />
		<tag k="ssr:stedsnr" v="176881" />
	</node>
	<node lat="59.85365833351937" lon="11.348219439788833" id="-29965">
		<tag k="name" v="Nordstigdalen" />
		<tag k="natural" v="valley" />
		<tag k="place" v="locality" />
		<tag k="ssr:stedsnr" v="178582" />
	</node>
	<node lat="59.994555551906764" lon="11.297766674816101" id="-29972">
		<tag k="name" v="Værhauglia" />
		<tag k="natural" v="slope" />
		<tag k="place" v="locality" />
		<tag k="ssr:stedsnr" v="178763" />
	</node>
	<node lat="59.89109444260234" lon="11.265391661055988" id="-29977">
		<tag k="name" v="Kudalen" />
		<tag k="natural" v="valley" />
		<tag k="place" v="locality" />
		<tag k="ssr:stedsnr" v="179529" />
	</node>
	<node lat="59.89469999575335" lon="11.256341671529007" id="-29978">
		<tag k="fixme" v="consider natural=peak for the most distinct mountains in the district" />
		<tag k="name" v="Veslesjølen" />
		<tag k="natural" v="hill" />
		<tag k="place" v="locality" />
		<tag k="ssr:stedsnr" v="179530" />
	</node>
	<node lat="59.8884749963552" lon="11.230519452555141" id="-29979">
		<tag k="name" v="Kartedalen" />
		<tag k="natural" v="valley" />
		<tag k="place" v="locality" />
		<tag k="ssr:stedsnr" v="179539" />
	</node>
	<node lat="59.9335472185565" lon="11.244963883107893" id="-29986">
		<tag k="name" v="Brattåsmoen" />
		<tag k="place" v="locality" />
		<tag k="ssr:stedsnr" v="180847" />
	</node>
	<node lat="59.99215833413239" lon="11.1493083393169" id="-29989">
		<tag k="fixme" v="consider natural=peak for the most distinct mountains in the district" />
		<tag k="name" v="Farshatten" />
		<tag k="natural" v="hill" />
		<tag k="place" v="locality" />
		<tag k="ssr:stedsnr" v="186551" />
	</node>
	<node lat="59.959666662768925" lon="11.239297226444759" id="-29998">
		<tag k="fixme" v="consider natural=peak for the most distinct mountains in the district" />
		<tag k="name" v="Olerudåsen" />
		<tag k="natural" v="hill" />
		<tag k="place" v="locality" />
		<tag k="ssr:stedsnr" v="187497" />
	</node>
	<node lat="59.96351944053547" lon="11.219169436157253" id="-30057">
		<tag k="name" v="Holåsen" />
		<tag k="natural" v="hill" />
		<tag k="place" v="locality" />
		<tag k="ssr:stedsnr" v="282431" />
	</node>
	<node lat="59.90723055815119" lon="11.151080550510107" id="-30063">
		<tag k="name" v="Jushaugen" />
		<tag k="natural" v="hill" />
		<tag k="place" v="locality" />
		<tag k="ssr:stedsnr" v="285671" />
	</node>
	<node lat="59.9208555560848" lon="11.308897214316524" id="-30068">
		<tag k="name" v="Steinbakken" />
		<tag k="natural" v="slope" />
		<tag k="place" v="locality" />
		<tag k="ssr:stedsnr" v="299306" />
	</node>
	<node lat="59.91830833520706" lon="11.264027771567077" id="-30069">
		<tag k="fixme" v="consider natural=peak for the most distinct mountains in the district" />
		<tag k="name" v="Telefonåsen" />
		<tag k="natural" v="hill" />
		<tag k="place" v="locality" />
		<tag k="ssr:stedsnr" v="299267" />
	</node>
	<node lat="60.03869166339458" lon="11.153108341323163" id="-30082">
		<tag k="name" v="St. Olavs gang" />
		<tag k="natural" v="valley" />
		<tag k="place" v="locality" />
		<tag k="ssr:stedsnr" v="302264" />
	</node>
	<node lat="59.92430278113124" lon="11.29741111723628" id="-30092">
		<tag k="name" v="Djupdalen" />
		<tag k="natural" v="valley" />
		<tag k="place" v="locality" />
		<tag k="ssr:stedsnr" v="308575" />
	</node>
	<node lat="59.923499999923244" lon="11.266169441227325" id="-30093">
		<tag k="name" v="Vanakleivdalen" />
		<tag k="natural" v="valley" />
		<tag k="place" v="locality" />
		<tag k="ssr:stedsnr" v="308576" />
	</node>
	<node lat="59.98886111525406" lon="11.167080549528704" id="-30097">
		<tag k="alt_name" v="Bjønnholen" />
		<tag k="fixme" v="consider natural=peak for the most distinct mountains in the district" />
		<tag k="name" v="Bjørnholen" />
		<tag k="natural" v="hill" />
		<tag k="place" v="locality" />
		<tag k="ssr:stedsnr" v="308444" />
	</node>
	<node lat="59.856936113891976" lon="11.253369441985894" id="-30111">
		<tag k="fixme" v="multiple name tags, choose one and add the other to alt_name; consider natural=peak for the most distinct mountains in the district" />
		<tag k="name" v="Torudåsen;Skinnerudåsen" />
		<tag k="natural" v="hill" />
		<tag k="place" v="locality" />
		<tag k="ssr:stedsnr" v="308694" />
	</node>
	<node lat="60.00370832933462" lon="11.39496111009047" id="-30118">
		<tag k="fixme" v="consider natural=peak for the most distinct mountains in the district" />
		<tag k="name" v="Stagrumsåsen" />
		<tag k="natural" v="hill" />
		<tag k="place" v="locality" />
		<tag k="ssr:stedsnr" v="309964" />
	</node>
	<node lat="59.96511666753997" lon="11.393894440745616" id="-30119">
		<tag k="fixme" v="consider natural=peak for the most distinct mountains in the district" />
		<tag k="name" v="Sameieåsen" />
		<tag k="natural" v="hill" />
		<tag k="old_name" v="Aurskog Varde" />
		<tag k="place" v="locality" />
		<tag k="ssr:stedsnr" v="325490" />
	</node>
	<node lat="59.96301111301322" lon="11.060747217998966" id="-30130">
		<tag k="name" v="Sørumsfjellet" />
		<tag k="natural" v="hill" />
		<tag k="place" v="locality" />
		<tag k="ssr:stedsnr" v="327441" />
	</node>
	<node lat="59.988495579790985" lon="11.108478801665134" id="-30131">
		<tag k="fixme" v="consider natural=peak for the most distinct mountains in the district" />
		<tag k="name" v="Veslefjellet" />
		<tag k="natural" v="hill" />
		<tag k="place" v="locality" />
		<tag k="ssr:stedsnr" v="327443" />
	</node>
	<node lat="59.965386115011796" lon="10.97228056241915" id="-30132">
		<tag k="name" v="Engerberget" />
		<tag k="natural" v="hill" />
		<tag k="place" v="locality" />
		<tag k="ssr:stedsnr" v="327448" />
	</node>
	<node lat="59.77026111263037" lon="11.295102773538291" id="-30134">
		<tag k="fixme" v="consider natural=peak for the most distinct mountains in the district" />
		<tag k="name" v="Merramyrhøgda" />
		<tag k="natural" v="hill" />
		<tag k="place" v="locality" />
		<tag k="ssr:stedsnr" v="342267" />
	</node>
	<node lat="59.94263611152508" lon="11.296213888571762" id="-30147">
		<tag k="name" v="Lønndalen" />
		<tag k="natural" v="valley" />
		<tag k="place" v="locality" />
		<tag k="ssr:stedsnr" v="343437" />
	</node>
	<node lat="59.85573888797423" lon="11.331186103576274" id="-30153">
		<tag k="name" v="Badstudalen" />
		<tag k="natural" v="valley" />
		<tag k="place" v="locality" />
		<tag k="ssr:stedsnr" v="343627" />
	</node>
	<node lat="59.9557499995495" lon="11.155675005320354" id="-30164">
		<tag k="name" v="Kjellerholen" />
		<tag k="place" v="locality" />
		<tag k="ssr:stedsnr" v="358998" />
	</node>
	<node lat="59.859508329584145" lon="11.325252771617945" id="-30167">
		<tag k="fixme" v="consider natural=peak for the most distinct mountains in the district" />
		<tag k="name" v="Tjoneåsen" />
		<tag k="natural" v="hill" />
		<tag k="place" v="locality" />
		<tag k="ssr:stedsnr" v="360586" />
	</node>
	<node lat="59.842558329114794" lon="11.269750008447438" id="-30195">
		<tag k="name" v="Rompemyrlia" />
		<tag k="natural" v="slope" />
		<tag k="place" v="locality" />
		<tag k="ssr:stedsnr" v="362369" />
	</node>
	<node lat="59.85675277821631" lon="11.284205548922696" id="-30210">
		<tag k="name" v="Kleivdalen" />
		<tag k="natural" v="valley" />
		<tag k="place" v="locality" />
		<tag k="ssr:stedsnr" v="368739" />
	</node>
	<node lat="59.865869448131114" lon="11.353472228928467" id="-30211">
		<tag k="fixme" v="consider natural=peak for the most distinct mountains in the district" />
		<tag k="name" v="Engahøgda" />
		<tag k="natural" v="hill" />
		<tag k="place" v="locality" />
		<tag k="ssr:stedsnr" v="368744" />
	</node>
	<node lat="59.847666669276656" lon="11.291111105796734" id="-30213">
		<tag k="fixme" v="consider natural=peak for the most distinct mountains in the district" />
		<tag k="name" v="Kaståsen" />
		<tag k="natural" v="hill" />
		<tag k="place" v="locality" />
		<tag k="ssr:stedsnr" v="368769" />
	</node>
	<node lat="59.92384166924777" lon="11.282502773210023" id="-30214">
		<tag k="name" v="Sandhaug" />
		<tag k="natural" v="hill" />
		<tag k="place" v="locality" />
		<tag k="ssr:stedsnr" v="368642" />
	</node>
	<node lat="59.859469447476506" lon="11.274080549424575" id="-30248">
		<tag k="name" v="Høgåsen" />
		<tag k="natural" v="hill" />
		<tag k="place" v="locality" />
		<tag k="ssr:stedsnr" v="405625" />
	</node>
	<node lat="59.915777776016014" lon="11.204138897601888" id="-30250">
		<tag k="name" v="Bjørndalen" />
		<tag k="natural" v="valley" />
		<tag k="place" v="locality" />
		<tag k="ssr:stedsnr" v="406744" />
	</node>
	<node lat="59.971194441619595" lon="11.10760000281915" id="-30257">
		<tag k="name" v="Kleiva" />
		<tag k="natural" v="slope" />
		<tag k="place" v="locality" />
		<tag k="ssr:stedsnr" v="419874" />
	</node>
	<node lat="59.9369694479352" lon="11.253861112594333" id="-30258">
		<tag k="name" v="Korsvikåsen" />
		<tag k="natural" v="hill" />
		<tag k="place" v="locality" />
		<tag k="ssr:stedsnr" v="421261" />
	</node>
	<node lat="59.89443610861177" lon="11.323241674751435" id="-30259">
		<tag k="fixme" v="consider natural=peak for the most distinct mountains in the district" />
		<tag k="name" v="Hærfangen" />
		<tag k="natural" v="hill" />
		<tag k="place" v="locality" />
		<tag k="ssr:stedsnr" v="429621" />
	</node>
	<node lat="59.89490555169958" lon="11.26536667094528" id="-30261">
		<tag k="fixme" v="consider natural=peak for the most distinct mountains in the district" />
		<tag k="name" v="Sjølen" />
		<tag k="natural" v="hill" />
		<tag k="place" v="locality" />
		<tag k="ssr:stedsnr" v="429624" />
	</node>
	<node lat="59.91662778184191" lon="11.253177776421774" id="-30273">
		<tag k="fixme" v="consider natural=peak for the most distinct mountains in the district" />
		<tag k="name" v="Svarttjennsåsen" />
		<tag k="natural" v="hill" />
		<tag k="place" v="locality" />
		<tag k="ssr:stedsnr" v="421668" />
	</node>
	<node lat="60.017874997115456" lon="11.185077777261434" id="-30275">
		<tag k="name" v="Melimoen" />
		<tag k="place" v="locality" />
		<tag k="ssr:stedsnr" v="421934" />
	</node>
	<node lat="59.89535555485694" lon="11.228297229252266" id="-30278">
		<tag k="fixme" v="consider natural=peak for the most distinct mountains in the district" />
		<tag k="name" v="Kinnshøgda" />
		<tag k="natural" v="hill" />
		<tag k="place" v="locality" />
		<tag k="ssr:stedsnr" v="422567" />
	</node>
	<node lat="59.796947225885525" lon="11.248519438981482" id="-30325">
		<tag k="name" v="Nygårdsåsen" />
		<tag k="natural" v="hill" />
		<tag k="place" v="locality" />
		<tag k="ssr:stedsnr" v="525293" />
	</node>
	<node lat="59.96697222592637" lon="11.401088884345379" id="-30327">
		<tag k="name" v="Djupdalen" />
		<tag k="natural" v="valley" />
		<tag k="place" v="locality" />
		<tag k="ssr:stedsnr" v="525823" />
	</node>
	<node lat="60.058391662258956" lon="11.289861116733821" id="-30334">
		<tag k="name" v="Gravdalen" />
		<tag k="natural" v="valley" />
		<tag k="place" v="locality" />
		<tag k="ssr:stedsnr" v="525444" />
	</node>
	<node lat="59.77986111175746" lon="11.32029445273625" id="-30337">
		<tag k="name" v="Stordalen" />
		<tag k="natural" v="valley" />
		<tag k="place" v="locality" />
		<tag k="ssr:stedsnr" v="525299" />
	</node>
	<node lat="60.00006111327077" lon="11.343400008501808" id="-30351">
		<tag k="fixme" v="consider natural=peak for the most distinct mountains in the district" />
		<tag k="name" v="Toreidåsen" />
		<tag k="natural" v="hill" />
		<tag k="place" v="locality" />
		<tag k="ssr:stedsnr" v="542789" />
	</node>
	<node lat="59.90342778084362" lon="11.30022778135123" id="-30353">
		<tag k="name" v="Kukollia" />
		<tag k="natural" v="slope" />
		<tag k="place" v="locality" />
		<tag k="ssr:stedsnr" v="542298" />
	</node>
	<node lat="59.930241668890226" lon="11.348583339935436" id="-30354">
		<tag k="name" v="Kamperudlia" />
		<tag k="natural" v="slope" />
		<tag k="place" v="locality" />
		<tag k="ssr:stedsnr" v="542239" />
	</node>
	<node lat="59.92549167003011" lon="11.279977775238317" id="-30355">
		<tag k="name" v="Engeråsen" />
		<tag k="natural" v="hill" />
		<tag k="place" v="locality" />
		<tag k="ssr:stedsnr" v="542249" />
	</node>
	<node lat="59.88177222379871" lon="11.259558329257954" id="-30367">
		<tag k="name" v="Lintjenndalen" />
		<tag k="natural" v="valley" />
		<tag k="place" v="locality" />
		<tag k="ssr:stedsnr" v="543545" />
	</node>
	<node lat="59.85187499635935" lon="11.335380551936368" id="-30373">
		<tag k="fixme" v="consider natural=peak for the most distinct mountains in the district" />
		<tag k="name" v="Badstuåsen" />
		<tag k="natural" v="hill" />
		<tag k="place" v="locality" />
		<tag k="ssr:stedsnr" v="544332" />
	</node>
	<node lat="59.97606389254793" lon="11.29741389612624" id="-30381">
		<tag k="fixme" v="consider natural=peak for the most distinct mountains in the district" />
		<tag k="name" v="Bjørneberget" />
		<tag k="natural" v="hill" />
		<tag k="place" v="locality" />
		<tag k="ssr:stedsnr" v="550431" />
	</node>
	<node lat="60.02259999889648" lon="10.997197222020818" id="-30388">
		<tag k="fixme" v="consider natural=peak for the most distinct mountains in the district" />
		<tag k="name" v="Geitåsen" />
		<tag k="natural" v="hill" />
		<tag k="place" v="locality" />
		<tag k="ssr:stedsnr" v="551372" />
	</node>
	<node lat="59.962805558721406" lon="10.941269440067565" id="-30405">
		<tag k="name" v="Kongedalen" />
		<tag k="natural" v="valley" />
		<tag k="place" v="locality" />
		<tag k="ssr:stedsnr" v="569467" />
	</node>
	<node lat="59.99698333475959" lon="11.016694441334117" id="-30406">
		<tag k="name" v="Hattemakerlia" />
		<tag k="natural" v="slope" />
		<tag k="place" v="locality" />
		<tag k="ssr:stedsnr" v="569469" />
	</node>
	<node lat="60.02096667108431" lon="10.985594445645859" id="-30407">
		<tag k="name" v="Proppslia" />
		<tag k="natural" v="slope" />
		<tag k="place" v="locality" />
		<tag k="ssr:stedsnr" v="569470" />
	</node>
	<node lat="59.9613916652458" lon="11.074919445810256" id="-30408">
		<tag k="name" v="Oksefjellet" />
		<tag k="natural" v="hill" />
		<tag k="place" v="locality" />
		<tag k="ssr:stedsnr" v="569481" />
	</node>
	<node lat="59.76225833392745" lon="11.319091663638037" id="-30413">
		<tag k="name" v="Steindalen" />
		<tag k="natural" v="valley" />
		<tag k="place" v="locality" />
		<tag k="ssr:stedsnr" v="585270" />
	</node>
	<node lat="60.0243861143374" lon="11.264605561348349" id="-30422">
		<tag k="name" v="Bergsmoen" />
		<tag k="place" v="locality" />
		<tag k="ssr:stedsnr" v="588031" />
	</node>
	<node lat="59.872200002927386" lon="11.335019445969397" id="-30445">
		<tag k="name" v="Sleipkleivdalen" />
		<tag k="natural" v="valley" />
		<tag k="place" v="locality" />
		<tag k="ssr:stedsnr" v="603578" />
	</node>
	<node lat="60.02984166608138" lon="11.25388333455178" id="-30449">
		<tag k="name" v="Åsgårddalen" />
		<tag k="natural" v="valley" />
		<tag k="place" v="locality" />
		<tag k="ssr:stedsnr" v="605228" />
	</node>
	<node lat="59.85201666639762" lon="11.255038881771958" id="-30453">
		<tag k="name" v="Bergerudåsen" />
		<tag k="natural" v="hill" />
		<tag k="place" v="locality" />
		<tag k="ssr:stedsnr" v="605368" />
	</node>
	<node lat="59.93820833073035" lon="11.215850006537243" id="-30454">
		<tag k="name" v="Engerhøgda" />
		<tag k="natural" v="hill" />
		<tag k="place" v="locality" />
		<tag k="ssr:stedsnr" v="605847" />
	</node>
	<node lat="59.960530559703905" lon="11.162758329433052" id="-30461">
		<tag k="fixme" v="consider natural=peak for the most distinct mountains in the district" />
		<tag k="name" v="Holtåsen" />
		<tag k="natural" v="hill" />
		<tag k="place" v="locality" />
		<tag k="ssr:stedsnr" v="611527" />
	</node>
	<node lat="59.92751666305242" lon="11.337724999340073" id="-30469">
		<tag k="alt_name" v="Liåsen" />
		<tag k="fixme" v="consider natural=peak for the most distinct mountains in the district" />
		<tag k="name" v="Liaåsen" />
		<tag k="natural" v="hill" />
		<tag k="place" v="locality" />
		<tag k="ssr:stedsnr" v="611589" />
	</node>
	<node lat="59.99023333257997" lon="11.111336105372624" id="-30489">
		<tag k="name" v="Stordalen" />
		<tag k="natural" v="valley" />
		<tag k="place" v="locality" />
		<tag k="ssr:stedsnr" v="630417" />
	</node>
	<node lat="59.975569445519916" lon="11.130500000370326" id="-30490">
		<tag k="name" v="Haukåsen" />
		<tag k="natural" v="hill" />
		<tag k="place" v="locality" />
		<tag k="ssr:stedsnr" v="630426" />
	</node>
	<node lat="60.03533333207259" lon="11.319738886292866" id="-30492">
		<tag k="fixme" v="consider natural=peak for the most distinct mountains in the district" />
		<tag k="name" v="Neslerudåsen" />
		<tag k="natural" v="hill" />
		<tag k="place" v="locality" />
		<tag k="ssr:stedsnr" v="646320" />
	</node>
	<node lat="59.76615833342327" lon="11.284116664151853" id="-30502">
		<tag k="fixme" v="consider natural=peak for the most distinct mountains in the district" />
		<tag k="name" v="Kjellåsen" />
		<tag k="natural" v="hill" />
		<tag k="place" v="locality" />
		<tag k="ssr:stedsnr" v="646466" />
	</node>
	<node lat="60.023133335725156" lon="11.25590555524598" id="-30505">
		<tag k="name" v="Skeamoen" />
		<tag k="place" v="locality" />
		<tag k="ssr:stedsnr" v="648021" />
	</node>
	<node lat="59.96611944302798" lon="11.123849992666138" id="-30511">
		<tag k="name" v="Askedalen" />
		<tag k="natural" v="valley" />
		<tag k="place" v="locality" />
		<tag k="ssr:stedsnr" v="661915" />
	</node>
	<node lat="59.94592777742235" lon="11.141680560633294" id="-30512">
		<tag k="name" v="Tienåsen" />
		<tag k="natural" v="hill" />
		<tag k="place" v="locality" />
		<tag k="ssr:stedsnr" v="661862" />
	</node>
	<node lat="59.88684722246091" lon="11.298547218623959" id="-30514">
		<tag k="name" v="Vangshøgda" />
		<tag k="natural" v="hill" />
		<tag k="place" v="locality" />
		<tag k="ssr:stedsnr" v="663291" />
	</node>
	<node lat="59.91085277917961" lon="11.275538896466642" id="-30516">
		<tag k="name" v="Mjøsjøåsen" />
		<tag k="natural" v="ridge" />
		<tag k="place" v="locality" />
		<tag k="ssr:stedsnr" v="663249" />
	</node>
	<node lat="59.86980833070917" lon="11.340727772366547" id="-30526">
		<tag k="fixme" v="consider natural=peak for the most distinct mountains in the district" />
		<tag k="name" v="Tyrihjellhøgdene" />
		<tag k="natural" v="hill" />
		<tag k="place" v="locality" />
		<tag k="ssr:stedsnr" v="664575" />
	</node>
	<node lat="59.947122218231804" lon="11.297508337280844" id="-30539">
		<tag k="name" v="Holmselia" />
		<tag k="natural" v="slope" />
		<tag k="place" v="locality" />
		<tag k="ssr:stedsnr" v="889435" />
	</node>
	<node lat="59.9598749983232" lon="11.152844448876525" id="-30547">
		<tag k="name" v="Bjønndalen" />
		<tag k="natural" v="valley" />
		<tag k="place" v="locality" />
		<tag k="ssr:stedsnr" v="722998" />
	</node>
	<node lat="60.00271110696176" lon="11.263105549010465" id="-30549">
		<tag k="name" v="Vallsmoen" />
		<tag k="place" v="locality" />
		<tag k="ssr:stedsnr" v="724768" />
	</node>
	<node lat="59.99419722479347" lon="11.271902785494351" id="-30552">
		<tag k="name" v="Bjønnskollen" />
		<tag k="natural" v="hill" />
		<tag k="place" v="locality" />
		<tag k="ssr:stedsnr" v="724764" />
	</node>
	<node lat="59.87600833121193" lon="11.300941662255747" id="-30558">
		<tag k="name" v="Stulterhølet" />
		<tag k="place" v="locality" />
		<tag k="ssr:stedsnr" v="725485" />
	</node>
	<node lat="59.8897861086615" lon="11.21246389034092" id="-30559">
		<tag k="name" v="Svendalen" />
		<tag k="natural" v="valley" />
		<tag k="place" v="locality" />
		<tag k="ssr:stedsnr" v="725497" />
	</node>
	<node lat="59.94449338430039" lon="11.316729998447112" id="-30568">
		<tag k="fixme" v="consider natural=peak for the most distinct mountains in the district" />
		<tag k="name" v="Vestmorkåsen" />
		<tag k="natural" v="hill" />
		<tag k="place" v="locality" />
		<tag k="ssr:stedsnr" v="732588" />
	</node>
	<node lat="59.95285010842784" lon="11.148170264647279" id="-30578">
		<tag k="fixme" v="consider natural=peak for the most distinct mountains in the district" />
		<tag k="name" v="Bergeråsen" />
		<tag k="natural" v="hill" />
		<tag k="place" v="locality" />
		<tag k="ssr:stedsnr" v="733515" />
	</node>
	<node lat="59.8642666705962" lon="11.23893611274454" id="-30586">
		<tag k="alt_name" v="Borghaugen" />
		<tag k="name" v="Borghaug" />
		<tag k="natural" v="hill" />
		<tag k="place" v="locality" />
		<tag k="ssr:stedsnr" v="733675" />
	</node>
	<node lat="59.85651944109629" lon="11.296041660680995" id="-30587">
		<tag k="alt_name" v="Tisteldalen" />
		<tag k="name" v="Tistedalen" />
		<tag k="natural" v="valley" />
		<tag k="place" v="locality" />
		<tag k="ssr:stedsnr" v="733677" />
	</node>
	<node lat="59.84601667020385" lon="11.314791674513634" id="-30591">
		<tag k="fixme" v="consider natural=peak for the most distinct mountains in the district" />
		<tag k="name" v="Geitskinnet" />
		<tag k="natural" v="hill" />
		<tag k="place" v="locality" />
		<tag k="ssr:stedsnr" v="733715" />
	</node>
	<node lat="60.01076944100619" lon="10.978822221917408" id="-30607">
		<tag k="name" v="Florstubakken" />
		<tag k="natural" v="slope" />
		<tag k="place" v="locality" />
		<tag k="ssr:stedsnr" v="751494" />
	</node>
	<node lat="60.01696388940485" lon="11.00595833150885" id="-30608">
		<tag k="name" v="Hulderkollen" />
		<tag k="natural" v="hill" />
		<tag k="place" v="locality" />
		<tag k="ssr:stedsnr" v="751500" />
	</node>
	<node lat="59.94906944506798" lon="10.994408331635888" id="-30609">
		<tag k="name" v="Sankthansfjellet" />
		<tag k="natural" v="hill" />
		<tag k="place" v="locality" />
		<tag k="ssr:stedsnr" v="751501" />
	</node>
	<node lat="59.8336055583361" lon="11.273208339308562" id="-30611">
		<tag k="name" v="Harehøgda" />
		<tag k="natural" v="hill" />
		<tag k="place" v="locality" />
		<tag k="ssr:stedsnr" v="767336" />
	</node>
	<node lat="59.77839444127686" lon="11.308808334239387" id="-30613">
		<tag k="name" v="Stordalhalsen" />
		<tag k="natural" v="valley" />
		<tag k="place" v="locality" />
		<tag k="ssr:stedsnr" v="767267" />
	</node>
	<node lat="59.975375003969184" lon="11.196647214370463" id="-30620">
		<tag k="name" v="Kikutåsen" />
		<tag k="natural" v="hill" />
		<tag k="place" v="locality" />
		<tag k="ssr:stedsnr" v="768336" />
	</node>
	<node lat="59.86030000194816" lon="11.28101389676687" id="-30625">
		<tag k="name" v="Svenskerudlia" />
		<tag k="natural" v="slope" />
		<tag k="place" v="locality" />
		<tag k="ssr:stedsnr" v="769324" />
	</node>
	<node lat="59.86168333014288" lon="11.2873611121365" id="-30626">
		<tag k="name" v="Orrhønedalen" />
		<tag k="natural" v="valley" />
		<tag k="place" v="locality" />
		<tag k="ssr:stedsnr" v="769326" />
	</node>
	<node lat="59.85967500214141" lon="11.24159166291887" id="-30627">
		<tag k="name" v="Bjønnhaugen" />
		<tag k="natural" v="hill" />
		<tag k="place" v="locality" />
		<tag k="ssr:stedsnr" v="769601" />
	</node>
	<node lat="59.91401944841968" lon="11.32015555582941" id="-30641">
		<tag k="name" v="Svartputtåsen" />
		<tag k="natural" v="hill" />
		<tag k="place" v="locality" />
		<tag k="ssr:stedsnr" v="785234" />
	</node>
	<node lat="59.86525555148183" lon="11.300913894478022" id="-30648">
		<tag k="fixme" v="consider natural=peak for the most distinct mountains in the district" />
		<tag k="name" v="Lintjennåsen" />
		<tag k="natural" v="hill" />
		<tag k="place" v="locality" />
		<tag k="ssr:stedsnr" v="785580" />
	</node>
	<node lat="59.92419166925509" lon="11.245711102841986" id="-30657">
		<tag k="name" v="Elgelia" />
		<tag k="natural" v="slope" />
		<tag k="place" v="locality" />
		<tag k="ssr:stedsnr" v="787841" />
	</node>
	<node lat="59.9830388856886" lon="11.414658324724428" id="-30662">
		<tag k="fixme" v="consider natural=peak for the most distinct mountains in the district" />
		<tag k="name" v="Askhøgda" />
		<tag k="natural" v="hill" />
		<tag k="place" v="locality" />
		<tag k="ssr:stedsnr" v="793487" />
	</node>
	<node lat="59.83267499998348" lon="11.274019438687258" id="-30709">
		<tag k="name" v="Smaldalen" />
		<tag k="natural" v="valley" />
		<tag k="place" v="locality" />
		<tag k="ssr:stedsnr" v="828347" />
	</node>
	<node lat="59.83266944891044" lon="11.267436108599032" id="-30710">
		<tag k="name" v="Knutsdalen" />
		<tag k="natural" v="valley" />
		<tag k="place" v="locality" />
		<tag k="ssr:stedsnr" v="828348" />
	</node>
	<node lat="60.04444166272545" lon="11.244733334636848" id="-30719">
		<tag k="name" v="Vølnermoen" />
		<tag k="place" v="locality" />
		<tag k="ssr:stedsnr" v="829339" />
	</node>
	<node lat="59.92160833557521" lon="11.32385278536234" id="-30725">
		<tag k="name" v="Tunnerudklubben" />
		<tag k="natural" v="hill" />
		<tag k="place" v="locality" />
		<tag k="ssr:stedsnr" v="829448" />
	</node>
	<node lat="59.90618611547234" lon="11.217311114398925" id="-30732">
		<tag k="name" v="Låkelia" />
		<tag k="natural" v="slope" />
		<tag k="place" v="locality" />
		<tag k="ssr:stedsnr" v="831696" />
	</node>
	<node lat="59.993638893461174" lon="11.186202772891235" id="-30745">
		<tag k="name" v="Tjennshøgda" />
		<tag k="natural" v="hill" />
		<tag k="place" v="locality" />
		<tag k="ssr:stedsnr" v="846694" />
	</node>
	<node lat="59.87765832958081" lon="11.276825000795101" id="-30758">
		<tag k="name" v="Lorthullet" />
		<tag k="place" v="locality" />
		<tag k="ssr:stedsnr" v="846543" />
	</node>
	<node lat="60.030202778324785" lon="11.195152780147774" id="-30766">
		<tag k="name" v="Kvennhaugen" />
		<tag k="natural" v="hill" />
		<tag k="place" v="locality" />
		<tag k="ssr:stedsnr" v="848253" />
	</node>
	<node lat="59.96970761031026" lon="11.131630330209076" id="-30772">
		<tag k="fixme" v="consider natural=peak for the most distinct mountains in the district" />
		<tag k="name" v="Rudskulen" />
		<tag k="natural" v="hill" />
		<tag k="place" v="locality" />
		<tag k="ssr:stedsnr" v="854496" />
	</node>
	<node lat="59.949036110194584" lon="11.271566666550626" id="-30777">
		<tag k="alt_name" v="Klovhøgda" />
		<tag k="fixme" v="consider natural=peak for the most distinct mountains in the district" />
		<tag k="name" v="Klovehøgda" />
		<tag k="natural" v="hill" />
		<tag k="place" v="locality" />
		<tag k="ssr:stedsnr" v="854521" />
	</node>
	<node lat="60.03966111423532" lon="11.017172223738902" id="-30786">
		<tag k="name" v="Ulvedalen" />
		<tag k="natural" v="valley" />
		<tag k="place" v="locality" />
		<tag k="ssr:stedsnr" v="855430" />
	</node>
	<node lat="59.91060647376703" lon="11.19164131373641" id="-30788">
		<tag k="fixme" v="consider natural=peak for the most distinct mountains in the district" />
		<tag k="name" v="Løkenåsen" />
		<tag k="natural" v="hill" />
		<tag k="place" v="locality" />
		<tag k="ssr:stedsnr" v="870008" />
	</node>
	<node lat="59.97406389186995" lon="10.984747231290397" id="-30799">
		<tag k="name" v="Buhaugen" />
		<tag k="natural" v="hill" />
		<tag k="place" v="locality" />
		<tag k="ssr:stedsnr" v="873460" />
	</node>
	<node lat="60.03776388626253" lon="11.252988892375122" id="-30806">
		<tag k="name" v="Gjestermoen" />
		<tag k="place" v="locality" />
		<tag k="ssr:stedsnr" v="889316" />
	</node>
	<node lat="60.028997787642865" lon="11.357889892151924" id="-30808">
		<tag k="name" v="Damstokklia" />
		<tag k="natural" v="slope" />
		<tag k="place" v="locality" />
		<tag k="ssr:stedsnr" v="889328" />
	</node>
	<node lat="59.975216664920346" lon="11.265563897092893" id="-30813">
		<tag k="name" v="Lysedalen" />
		<tag k="natural" v="valley" />
		<tag k="place" v="locality" />
		<tag k="ssr:stedsnr" v="889375" />
	</node>
	<node lat="60.039619443941746" lon="11.27828888204593" id="-30817">
		<tag k="fixme" v="consider natural=peak for the most distinct mountains in the district" />
		<tag k="name" v="Bøleråsen" />
		<tag k="natural" v="hill" />
		<tag k="place" v="locality" />
		<tag k="ssr:stedsnr" v="950332" />
	</node>
	<node lat="60.035969443995725" lon="11.302241659432717" id="-30818">
		<tag k="fixme" v="consider natural=peak for the most distinct mountains in the district" />
		<tag k="name" v="Tolerudåsen" />
		<tag k="natural" v="hill" />
		<tag k="place" v="locality" />
		<tag k="ssr:stedsnr" v="950334" />
	</node>
	<node lat="59.96118610823478" lon="11.123480549114744" id="-30833">
		<tag k="fixme" v="consider natural=peak for the most distinct mountains in the district" />
		<tag k="name" v="Smedsbergåsen" />
		<tag k="natural" v="hill" />
		<tag k="place" v="locality" />
		<tag k="ssr:stedsnr" v="965998" />
	</node>
	<node lat="59.89618333394429" lon="11.308702775319098" id="-30835">
		<tag k="fixme" v="consider natural=peak for the most distinct mountains in the district" />
		<tag k="name" v="Jarsjøhøgda" />
		<tag k="natural" v="hill" />
		<tag k="place" v="locality" />
		<tag k="ssr:stedsnr" v="967277" />
	</node>
	<node lat="59.8916611076428" lon="11.238025008005549" id="-30836">
		<tag k="name" v="Gjesstjerndalen" />
		<tag k="natural" v="valley" />
		<tag k="place" v="locality" />
		<tag k="ssr:stedsnr" v="967509" />
	</node>
	<node lat="59.89328889104793" lon="11.260016673204136" id="-30837">
		<tag k="name" v="Kubrudalen" />
		<tag k="natural" v="valley" />
		<tag k="place" v="locality" />
		<tag k="ssr:stedsnr" v="967512" />
	</node>
	<node lat="59.88450277646984" lon="11.221566674738389" id="-30840">
		<tag k="name" v="Fjellsrudåsen" />
		<tag k="natural" v="hill" />
		<tag k="place" v="locality" />
		<tag k="ssr:stedsnr" v="967537" />
	</node>
	<node lat="59.86979722473347" lon="11.3343138962165" id="-30841">
		<tag k="name" v="Festningen" />
		<tag k="natural" v="hill" />
		<tag k="place" v="locality" />
		<tag k="ssr:stedsnr" v="967567" />
	</node>
	<node lat="59.86307500029362" lon="11.341452769700858" id="-30842">
		<tag k="name" v="Engadalen" />
		<tag k="natural" v="valley" />
		<tag k="place" v="locality" />
		<tag k="ssr:stedsnr" v="967573" />
	</node>
	<node lat="59.98514444639312" lon="11.201166675384043" id="-30843">
		<tag k="name" v="Korpefjellet" />
		<tag k="natural" v="cliff" />
		<tag k="ssr:stedsnr" v="967612" />
	</node>
	<node lat="59.99932500396002" lon="11.197016658326802" id="-30846">
		<tag k="name" v="Damsfjellet" />
		<tag k="natural" v="cliff" />
		<tag k="ssr:stedsnr" v="967670" />
	</node>
	<node lat="59.998658331707176" lon="11.201044448382156" id="-30847">
		<tag k="name" v="Bæreggskampen" />
		<tag k="natural" v="hill" />
		<tag k="place" v="locality" />
		<tag k="ssr:stedsnr" v="967671" />
	</node>
	<node lat="59.99443333370171" lon="11.343091665060783" id="-30850">
		<tag k="fixme" v="consider natural=peak for the most distinct mountains in the district" />
		<tag k="name" v="Skukstadåsen" />
		<tag k="natural" v="hill" />
		<tag k="place" v="locality" />
		<tag k="ssr:stedsnr" v="967750" />
	</node>
	<node lat="59.844330554205165" lon="11.248022226214632" id="-30856">
		<tag k="name" v="Ersrudlia" />
		<tag k="natural" v="slope" />
		<tag k="place" v="locality" />
		<tag k="ssr:stedsnr" v="969354" />
	</node>
</osm>
