<?xml version="1.0" encoding="UTF-8"?>
<<<<<<< HEAD
<osm version="0.6" generator="osmapis">
	<node lat="59.967594447818655" lon="11.026163883334949" id="-13918">
=======
<osm generator="osmapis" version="0.6">
	<node id="-259199" lat="59.9665944415" lon="11.1741361058">
		<tag k="name" v="Gravene" />
		<tag k="place" v="locality" />
		<tag k="ssr:stedsnr" v="844899" />
	</node>
	<node id="-257657" lat="59.7866694425" lon="11.2699444354">
		<tag k="amenity" v="community_centre" />
		<tag k="name" v="Neset grendehus" />
		<tag k="ssr:stedsnr" v="707307" />
	</node>
	<node id="-258552" lat="59.9848555599" lon="11.3487805557">
		<tag k="amenity" v="community_centre" />
		<tag k="name" v="Bruvollen" />
		<tag k="ssr:stedsnr" v="308413" />
	</node>
	<node id="-259191" lat="59.9016666632" lon="11.1650083257">
		<tag k="name" v="Kløyva" />
		<tag k="place" v="locality" />
		<tag k="ssr:stedsnr" v="831648" />
	</node>
	<node id="-257525" lat="59.9209861124" lon="11.2780944443">
		<tag k="name" v="Sandhaug" />
		<tag k="place" v="locality" />
		<tag k="ssr:stedsnr" v="663244" />
	</node>
	<node id="-258162" lat="59.9675944478" lon="11.0261638833">
>>>>>>> e1d4bc35ff8a6074a6f2e91616a996b547c36f15
		<tag k="name" v="Nebbursvollen friluftsbad" />
		<tag k="place" v="locality" />
		<tag k="ssr:stedsnr" v="23032" />
	</node>
<<<<<<< HEAD
	<node lat="59.85802777350109" lon="11.238086111228121" id="-13933">
		<tag k="name" v="Tyrihjellen" />
		<tag k="place" v="locality" />
		<tag k="ssr:stedsnr" v="237123" />
	</node>
	<node lat="59.93849444056193" lon="11.134722218742043" id="-13947">
		<tag k="name" v="Tienenga" />
		<tag k="place" v="locality" />
		<tag k="ssr:stedsnr" v="239667" />
	</node>
	<node lat="59.90859166989173" lon="11.31054999265692" id="-13959">
		<tag k="name" v="Bjønnehibakken" />
		<tag k="place" v="locality" />
		<tag k="ssr:stedsnr" v="57215" />
	</node>
	<node lat="59.889605552834134" lon="11.234186115434623" id="-14055">
		<tag k="name" v="Sakrissen" />
		<tag k="place" v="locality" />
		<tag k="ssr:stedsnr" v="118498" />
	</node>
	<node lat="59.95267500153776" lon="11.015136106827217" id="-14087">
=======
	<node id="-257649" lat="60.013897226" lon="11.3356416706">
		<tag k="amenity" v="community_centre" />
		<tag k="name" v="Betania" />
		<tag k="ssr:stedsnr" v="707172" />
	</node>
	<node id="-257960" lat="60.025736107" lon="11.1796361151">
		<tag k="name" v="Knatten" />
		<tag k="place" v="locality" />
		<tag k="ssr:stedsnr" v="787208" />
	</node>
	<node id="-258286" lat="59.7780805538" lon="11.3270666693">
		<tag k="name" v="Breilivangen" />
		<tag k="place" v="locality" />
		<tag k="ssr:stedsnr" v="100251" />
	</node>
	<node id="-258541" lat="59.9428944467" lon="11.1209666672">
		<tag k="name" v="Nergård" />
		<tag k="place" v="locality" />
		<tag k="ssr:stedsnr" v="302850" />
	</node>
	<node id="-258540" lat="59.9359444475" lon="11.1964749965">
		<tag k="name" v="Guriholtet" />
		<tag k="place" v="locality" />
		<tag k="ssr:stedsnr" v="302820" />
	</node>
	<node id="-258414" lat="59.9223916627" lon="11.2060638858">
		<tag k="name" v="Dulpen" />
		<tag k="place" v="locality" />
		<tag k="ssr:stedsnr" v="161831" />
	</node>
	<node id="-259170" lat="59.7802111133" lon="11.3050500031">
		<tag k="name" v="Elgegravene" />
		<tag k="place" v="locality" />
		<tag k="ssr:stedsnr" v="828247" />
	</node>
	<node id="-257829" lat="60.0052194405" lon="11.3059500064">
		<tag k="name" v="Blaker skanse" />
		<tag k="place" v="locality" />
		<tag k="ssr:stedsnr" v="692725" />
	</node>
	<node id="-258393" lat="59.9526750015" lon="11.0151361068">
>>>>>>> e1d4bc35ff8a6074a6f2e91616a996b547c36f15
		<tag k="amenity" v="place_of_worship" />
		<tag k="denomination" v="lutheran" />
		<tag k="name" v="Strømmen kirke" />
		<tag k="religion" v="christian" />
		<tag k="ssr:stedsnr" v="144409" />
	</node>
<<<<<<< HEAD
	<node lat="60.000566663464475" lon="11.341713897239897" id="-14112">
		<tag k="amenity" v="community_centre" />
		<tag k="name" v="Skytterhuset" />
		<tag k="ssr:stedsnr" v="178766" />
	</node>
	<node lat="59.979758332512496" lon="11.336819435885868" id="-14122">
		<tag k="name" v="Mohagan" />
=======
	<node id="-258296" lat="59.8609666675" lon="11.2190138853">
		<tag k="name" v="Gansbruket" />
		<tag k="ssr:stedsnr" v="102399" />
		<tag k="tourism" v="museum" />
	</node>
	<node id="-257518" lat="59.9523724274" lon="11.1482950412">
		<tag k="name" v="Tårnet" />
		<tag k="place" v="locality" />
		<tag k="ssr:stedsnr" v="661739" />
	</node>
	<node id="-257613" lat="60.000247271" lon="11.0407362513">
		<tag k="amenity" v="community_centre" />
		<tag k="name" v="Skedsmo samfunnshus" />
		<tag k="ssr:stedsnr" v="509316" />
	</node>
	<node id="-258935" lat="59.9576694471" lon="11.3875333364">
		<tag k="name" v="Høyby" />
>>>>>>> e1d4bc35ff8a6074a6f2e91616a996b547c36f15
		<tag k="place" v="locality" />
		<tag k="ssr:stedsnr" v="180579" />
	</node>
<<<<<<< HEAD
	<node lat="59.94956943995595" lon="11.069658340986933" id="-14138">
		<tag k="name" v="Kran" />
		<tag k="place" v="locality" />
		<tag k="ssr:stedsnr" v="266029" />
	</node>
	<node lat="59.98485555985069" lon="11.348780555746407" id="-14262">
		<tag k="amenity" v="community_centre" />
		<tag k="name" v="Bruvollen" />
		<tag k="ssr:stedsnr" v="308413" />
	</node>
	<node lat="60.01492500252772" lon="11.231444438826731" id="-14334">
		<tag k="name" v="Fjellbrauta" />
=======
	<node id="-259270" lat="59.8721083349" lon="11.2478416756">
		<tag k="name" v="Aslakken" />
		<tag k="place" v="locality" />
		<tag k="ssr:stedsnr" v="950600" />
	</node>
	<node id="-257078" lat="59.8580277735" lon="11.2380861112">
		<tag k="name" v="Tyrihjellen" />
>>>>>>> e1d4bc35ff8a6074a6f2e91616a996b547c36f15
		<tag k="place" v="locality" />
		<tag k="ssr:stedsnr" v="237123" />
	</node>
<<<<<<< HEAD
	<node lat="59.8557055581987" lon="11.301450001626588" id="-14474">
		<tag k="name" v="Elgsgrava" />
		<tag k="place" v="locality" />
		<tag k="ssr:stedsnr" v="465619" />
	</node>
	<node lat="60.02748333337815" lon="11.268425002697652" id="-14493">
		<tag k="name" v="Postkassa" />
=======
	<node id="-257088" lat="59.9384944406" lon="11.1347222187">
		<tag k="name" v="Tienenga" />
		<tag k="place" v="locality" />
		<tag k="ssr:stedsnr" v="239667" />
	</node>
	<node id="-257723" lat="60.0305750021" lon="11.0936277858">
		<tag k="name" v="Melvoll" />
>>>>>>> e1d4bc35ff8a6074a6f2e91616a996b547c36f15
		<tag k="place" v="locality" />
		<tag k="ssr:stedsnr" v="484202" />
	</node>
<<<<<<< HEAD
	<node lat="60.00024727104619" lon="11.040736251300924" id="-14511">
		<tag k="amenity" v="community_centre" />
		<tag k="name" v="Skedsmo samfunnshus" />
		<tag k="ssr:stedsnr" v="509316" />
	</node>
	<node lat="59.98219167002152" lon="11.288736114477373" id="-14534">
		<tag k="name" v="Monserudpensen" />
=======
	<node id="-257207" lat="59.94956944" lon="11.069658341">
		<tag k="name" v="Kran" />
>>>>>>> e1d4bc35ff8a6074a6f2e91616a996b547c36f15
		<tag k="place" v="locality" />
		<tag k="ssr:stedsnr" v="542722" />
	</node>
<<<<<<< HEAD
	<node lat="59.87516111201404" lon="11.21885276957848" id="-14557">
		<tag k="amenity" v="community_centre" />
		<tag k="name" v="Dalheim" />
		<tag k="ssr:stedsnr" v="550659" />
	</node>
	<node lat="59.95766944714426" lon="11.387533336425296" id="-14594">
		<tag k="name" v="Høyby" />
=======
	<node id="-258230" lat="60.0255305563" lon="11.1756750048">
		<tag k="name" v="Østhagan" />
>>>>>>> e1d4bc35ff8a6074a6f2e91616a996b547c36f15
		<tag k="place" v="locality" />
		<tag k="ssr:stedsnr" v="585404" />
	</node>
<<<<<<< HEAD
	<node lat="59.952372427374236" lon="11.14829504122404" id="-14664">
		<tag k="name" v="Tårnet" />
=======
	<node id="-258228" lat="60.0375333344" lon="11.1690499968">
		<tag k="name" v="Øgarden" />
>>>>>>> e1d4bc35ff8a6074a6f2e91616a996b547c36f15
		<tag k="place" v="locality" />
		<tag k="ssr:stedsnr" v="661739" />
	</node>
<<<<<<< HEAD
	<node lat="59.9312694472381" lon="11.142775001056444" id="-14671">
		<tag k="name" v="Hovinhøgda" />
		<tag k="place" v="locality" />
		<tag k="ssr:stedsnr" v="664681" />
	</node>
	<node lat="60.00662538481135" lon="11.23453668325451" id="-14697">
		<tag k="alt_name" v="Sørum" />
=======
	<node id="-259246" lat="59.9143111136" lon="11.1657972189">
		<tag k="alt_name" v="Fet" />
>>>>>>> e1d4bc35ff8a6074a6f2e91616a996b547c36f15
		<tag k="amenity" v="place_of_worship" />
		<tag k="denomination" v="lutheran" />
		<tag k="name" v="Sørum kirke" />
		<tag k="religion" v="christian" />
		<tag k="ssr:stedsnr" v="673958" />
	</node>
	<node lat="60.005219440520804" lon="11.305950006407961" id="-14710">
		<tag k="name" v="Blaker skanse" />
		<tag k="place" v="locality" />
		<tag k="ssr:stedsnr" v="692725" />
	</node>
<<<<<<< HEAD
	<node lat="60.01389722602475" lon="11.335641670581026" id="-14719">
=======
	<node id="-258859" lat="59.9523972247" lon="11.3302361111">
>>>>>>> e1d4bc35ff8a6074a6f2e91616a996b547c36f15
		<tag k="amenity" v="community_centre" />
		<tag k="name" v="Betania" />
		<tag k="ssr:stedsnr" v="707172" />
	</node>
<<<<<<< HEAD
	<node lat="59.78666944248601" lon="11.269944435442115" id="-14722">
		<tag k="amenity" v="community_centre" />
		<tag k="name" v="Neset grendehus" />
		<tag k="ssr:stedsnr" v="707307" />
	</node>
	<node lat="60.02573610700006" lon="11.179636115080305" id="-14806">
		<tag k="name" v="Knatten" />
=======
	<node id="-257450" lat="60.0335472231" lon="11.16934444">
		<tag k="name" v="Kvennhusbråtan" />
		<tag k="place" v="locality" />
		<tag k="ssr:stedsnr" v="362252" />
	</node>
	<node id="-258344" lat="59.8639500045" lon="11.2267216907">
		<tag k="alt_name" v="Dalen kapell" />
		<tag k="amenity" v="place_of_worship" />
		<tag k="denomination" v="lutheran" />
		<tag k="name" v="Dalen kirke" />
		<tag k="religion" v="christian" />
		<tag k="ssr:stedsnr" v="125718" />
	</node>
	<node id="-257606" lat="60.0274833334" lon="11.2684250027">
		<tag k="name" v="Postkassa" />
>>>>>>> e1d4bc35ff8a6074a6f2e91616a996b547c36f15
		<tag k="place" v="locality" />
		<tag k="ssr:stedsnr" v="484202" />
	</node>
<<<<<<< HEAD
	<node lat="59.944602775343526" lon="11.022472219838729" id="-14810">
		<tag k="name" v="Stalsberghagen" />
=======
	<node id="-258726" lat="59.909825003" lon="11.1720499966">
		<tag k="name" v="Jaerhaugen" />
>>>>>>> e1d4bc35ff8a6074a6f2e91616a996b547c36f15
		<tag k="place" v="locality" />
		<tag k="ssr:stedsnr" v="793034" />
	</node>
<<<<<<< HEAD
	<node lat="59.95860833418429" lon="11.048247229814947" id="-14925">
=======
	<node id="-258085" lat="59.9586083342" lon="11.0482472298">
>>>>>>> e1d4bc35ff8a6074a6f2e91616a996b547c36f15
		<tag k="amenity" v="place_of_worship" />
		<tag k="denomination" v="lutheran" />
		<tag k="name" v="Lillestrøm kirke" />
		<tag k="religion" v="christian" />
		<tag k="ssr:stedsnr" v="934330" />
	</node>
<<<<<<< HEAD
	<node lat="59.872108334885965" lon="11.247841675613039" id="-15005">
		<tag k="name" v="Aslakken" />
=======
	<node id="-257444" lat="60.0099833318" lon="11.1881444359">
		<tag k="name" v="Haugen" />
		<tag k="place" v="locality" />
		<tag k="ssr:stedsnr" v="360917" />
	</node>
	<node id="-258246" lat="59.9937499998" lon="11.0450472193">
		<tag k="alt_name" v="Skedsmo" />
		<tag k="amenity" v="place_of_worship" />
		<tag k="denomination" v="lutheran" />
		<tag k="name" v="Skedsmo kirke" />
		<tag k="religion" v="christian" />
		<tag k="ssr:stedsnr" v="65554" />
	</node>
	<node id="-257826" lat="60.0066253848" lon="11.2345366833">
		<tag k="alt_name" v="Sørum" />
		<tag k="amenity" v="place_of_worship" />
		<tag k="denomination" v="lutheran" />
		<tag k="name" v="Sørum kirke" />
		<tag k="religion" v="christian" />
		<tag k="ssr:stedsnr" v="673958" />
	</node>
	<node id="-257441" lat="59.9051972217" lon="11.235486118">
		<tag k="name" v="Tjennsbonn" />
>>>>>>> e1d4bc35ff8a6074a6f2e91616a996b547c36f15
		<tag k="place" v="locality" />
		<tag k="ssr:stedsnr" v="950600" />
	</node>
<<<<<<< HEAD
	<node lat="59.90954721775383" lon="11.190455563777679" id="-15076">
=======
	<node id="-257056" lat="59.9095472178" lon="11.1904555638">
>>>>>>> e1d4bc35ff8a6074a6f2e91616a996b547c36f15
		<tag k="name" v="Løken varde" />
		<tag k="place" v="locality" />
		<tag k="ssr:stedsnr" v="21011" />
	</node>
<<<<<<< HEAD
	<node lat="59.907691664153205" lon="11.151450001610472" id="-15099">
		<tag k="name" v="Jaerstranda" />
=======
	<node id="-258463" lat="59.9797583325" lon="11.3368194359">
		<tag k="name" v="Mohagan" />
>>>>>>> e1d4bc35ff8a6074a6f2e91616a996b547c36f15
		<tag k="place" v="locality" />
		<tag k="ssr:stedsnr" v="42652" />
	</node>
<<<<<<< HEAD
	<node lat="60.03753333436894" lon="11.169049996771424" id="-15128">
		<tag k="name" v="Øgarden" />
		<tag k="place" v="locality" />
		<tag k="ssr:stedsnr" v="59238" />
	</node>
	<node lat="60.025530556282746" lon="11.17567500477155" id="-15130">
		<tag k="name" v="Østhagan" />
=======
	<node id="-257054" lat="59.8488944427" lon="11.2830000051">
		<tag k="name" v="Kaståsen" />
		<tag k="place" v="locality" />
		<tag k="ssr:stedsnr" v="223345" />
	</node>
	<node id="-259101" lat="59.9446027753" lon="11.0224722198">
		<tag k="name" v="Stalsberghagen" />
>>>>>>> e1d4bc35ff8a6074a6f2e91616a996b547c36f15
		<tag k="place" v="locality" />
		<tag k="ssr:stedsnr" v="59244" />
	</node>
<<<<<<< HEAD
	<node lat="59.99374999983896" lon="11.04504721931263" id="-15149">
		<tag k="alt_name" v="Skedsmo" />
=======
	<node id="-259356" lat="60.0205985857" lon="11.1048034438">
>>>>>>> e1d4bc35ff8a6074a6f2e91616a996b547c36f15
		<tag k="amenity" v="place_of_worship" />
		<tag k="denomination" v="lutheran" />
		<tag k="name" v="Skedsmo kirke" />
		<tag k="religion" v="christian" />
		<tag k="ssr:stedsnr" v="65554" />
	</node>
<<<<<<< HEAD
	<node lat="59.77808055378037" lon="11.32706666934882" id="-15184">
		<tag k="name" v="Breilivangen" />
=======
	<node id="-259099" lat="59.9413722187" lon="11.1223388939">
		<tag k="name" v="Ek" />
>>>>>>> e1d4bc35ff8a6074a6f2e91616a996b547c36f15
		<tag k="place" v="locality" />
		<tag k="ssr:stedsnr" v="100251" />
	</node>
	<node lat="59.86096666753457" lon="11.219013885264662" id="-15193">
		<tag k="name" v="Gansbruket" />
		<tag k="ssr:stedsnr" v="102399" />
		<tag k="tourism" v="museum" />
	</node>
<<<<<<< HEAD
	<node lat="60.036608330764906" lon="11.154158328397273" id="-15211">
=======
	<node id="-258328" lat="60.0366083308" lon="11.1541583284">
>>>>>>> e1d4bc35ff8a6074a6f2e91616a996b547c36f15
		<tag k="name" v="Hasler" />
		<tag k="place" v="locality" />
		<tag k="ssr:stedsnr" v="120231" />
	</node>
<<<<<<< HEAD
	<node lat="59.86395000448012" lon="11.22672169067212" id="-15231">
		<tag k="alt_name" v="Dalen kapell" />
		<tag k="amenity" v="place_of_worship" />
		<tag k="denomination" v="lutheran" />
		<tag k="name" v="Dalen kirke" />
		<tag k="religion" v="christian" />
		<tag k="ssr:stedsnr" v="125718" />
	</node>
	<node lat="59.92239166266565" lon="11.206063885790932" id="-15285">
		<tag k="name" v="Dulpen" />
=======
	<node id="-257600" lat="60.0149250025" lon="11.2314444388">
		<tag k="name" v="Fjellbrauta" />
		<tag k="place" v="locality" />
		<tag k="ssr:stedsnr" v="481956" />
	</node>
	<node id="-258197" lat="59.9085916699" lon="11.3105499927">
		<tag k="name" v="Bjønnehibakken" />
>>>>>>> e1d4bc35ff8a6074a6f2e91616a996b547c36f15
		<tag k="place" v="locality" />
		<tag k="ssr:stedsnr" v="161831" />
	</node>
<<<<<<< HEAD
	<node lat="59.84889444273088" lon="11.283000005070816" id="-15377">
		<tag k="name" v="Kaståsen" />
=======
	<node id="-258880" lat="59.875161112" lon="11.2188527696">
		<tag k="amenity" v="community_centre" />
		<tag k="name" v="Dalheim" />
		<tag k="ssr:stedsnr" v="550659" />
	</node>
	<node id="-258835" lat="59.98219167" lon="11.2887361145">
		<tag k="name" v="Monserudpensen" />
>>>>>>> e1d4bc35ff8a6074a6f2e91616a996b547c36f15
		<tag k="place" v="locality" />
		<tag k="ssr:stedsnr" v="223345" />
	</node>
<<<<<<< HEAD
	<node lat="59.94289444666647" lon="11.120966667215454" id="-15420">
		<tag k="name" v="Nergård" />
=======
	<node id="-258322" lat="59.8896055528" lon="11.2341861154">
		<tag k="name" v="Sakrissen" />
>>>>>>> e1d4bc35ff8a6074a6f2e91616a996b547c36f15
		<tag k="place" v="locality" />
		<tag k="ssr:stedsnr" v="302850" />
	</node>
<<<<<<< HEAD
	<node lat="59.93594444747516" lon="11.19647499650163" id="-15424">
		<tag k="name" v="Guriholtet" />
		<tag k="place" v="locality" />
		<tag k="ssr:stedsnr" v="302820" />
	</node>
	<node lat="59.90519722170382" lon="11.23548611801112" id="-15500">
		<tag k="name" v="Tjennsbonn" />
=======
	<node id="-257552" lat="59.8557055582" lon="11.3014500016">
		<tag k="name" v="Elgsgrava" />
>>>>>>> e1d4bc35ff8a6074a6f2e91616a996b547c36f15
		<tag k="place" v="locality" />
		<tag k="ssr:stedsnr" v="360619" />
	</node>
<<<<<<< HEAD
	<node lat="60.00998333182543" lon="11.18814443586932" id="-15514">
		<tag k="name" v="Haugen" />
		<tag k="place" v="locality" />
		<tag k="ssr:stedsnr" v="360917" />
	</node>
	<node lat="60.03354722311543" lon="11.169344439993514" id="-15520">
		<tag k="name" v="Kvennhusbråtan" />
		<tag k="place" v="locality" />
		<tag k="ssr:stedsnr" v="362252" />
	</node>
	<node lat="60.0200166656418" lon="11.105755555381297" id="-15555">
=======
	<node id="-258948" lat="59.914119442" lon="11.2710750076">
		<tag k="name" v="Seterdalsvangen" />
		<tag k="place" v="locality" />
		<tag k="ssr:stedsnr" v="602268" />
	</node>
	<node id="-257282" lat="60.0005666635" lon="11.3417138972">
		<tag k="amenity" v="community_centre" />
		<tag k="name" v="Skytterhuset" />
		<tag k="ssr:stedsnr" v="178766" />
	</node>
	<node id="-257815" lat="59.9312694472" lon="11.1427750011">
		<tag k="name" v="Hovinhøgda" />
		<tag k="place" v="locality" />
		<tag k="ssr:stedsnr" v="664681" />
	</node>
	<node id="-258695" lat="60.0200166656" lon="11.1057555554">
>>>>>>> e1d4bc35ff8a6074a6f2e91616a996b547c36f15
		<tag k="alt_name" v="Frogner" />
		<tag k="amenity" v="place_of_worship" />
		<tag k="denomination" v="lutheran" />
		<tag k="name" v="Frogner kirke" />
		<tag k="religion" v="christian" />
		<tag k="ssr:stedsnr" v="369928" />
	</node>
<<<<<<< HEAD
	<node lat="59.909825003045874" lon="11.172049996578304" id="-15585">
		<tag k="name" v="Jaerhaugen" />
=======
	<node id="-258181" lat="59.9076916642" lon="11.1514500016">
		<tag k="name" v="Jaerstranda" />
>>>>>>> e1d4bc35ff8a6074a6f2e91616a996b547c36f15
		<tag k="place" v="locality" />
		<tag k="ssr:stedsnr" v="406685" />
	</node>
<<<<<<< HEAD
	<node lat="59.9590536080882" lon="11.180473481472811" id="-15678">
		<tag k="amenity" v="community_centre" />
		<tag k="name" v="Håpets dør" />
		<tag k="ssr:stedsnr" v="540875" />
	</node>
	<node lat="59.95239722466891" lon="11.330236111120016" id="-15706">
		<tag k="amenity" v="community_centre" />
		<tag k="name" v="Bethania" />
		<tag k="ssr:stedsnr" v="544760" />
	</node>
	<node lat="59.91411944204829" lon="11.271075007567479" id="-15762">
		<tag k="name" v="Seterdalsvangen" />
		<tag k="place" v="locality" />
		<tag k="ssr:stedsnr" v="602268" />
	</node>
	<node lat="59.920986112439216" lon="11.27809444427302" id="-15847">
		<tag k="name" v="Sandhaug" />
=======
	<node id="-258820" lat="59.9590536081" lon="11.1804734815">
		<tag k="amenity" v="community_centre" />
		<tag k="name" v="Håpets dør" />
		<tag k="ssr:stedsnr" v="540875" />
	</node>
	<node id="-259075" lat="59.9593527759" lon="11.2056722163">
		<tag k="name" v="Olberg" />
>>>>>>> e1d4bc35ff8a6074a6f2e91616a996b547c36f15
		<tag k="place" v="locality" />
		<tag k="ssr:stedsnr" v="663244" />
	</node>
	<node lat="60.03057500212245" lon="11.093627785783225" id="-15892">
		<tag k="name" v="Melvoll" />
		<tag k="place" v="locality" />
		<tag k="ssr:stedsnr" v="726236" />
	</node>
<<<<<<< HEAD
	<node lat="60.00153457479716" lon="11.301727727786968" id="-15931">
=======
	<node id="-257794" lat="60.0015583334" lon="11.3017138821">
>>>>>>> e1d4bc35ff8a6074a6f2e91616a996b547c36f15
		<tag k="alt_name" v="Blaker" />
		<tag k="amenity" v="place_of_worship" />
		<tag k="denomination" v="lutheran" />
		<tag k="name" v="Blaker kirke" />
		<tag k="religion" v="christian" />
		<tag k="ssr:stedsnr" v="734946" />
	</node>
<<<<<<< HEAD
	<node lat="59.95935277585874" lon="11.205672216292923" id="-15966">
		<tag k="name" v="Olberg" />
		<tag k="place" v="locality" />
		<tag k="ssr:stedsnr" v="783880" />
	</node>
	<node lat="59.94137221872266" lon="11.12233889389655" id="-15987">
		<tag k="name" v="Ek" />
		<tag k="place" v="locality" />
		<tag k="ssr:stedsnr" v="787855" />
	</node>
	<node lat="59.78021111333581" lon="11.305050003068748" id="-16047">
		<tag k="name" v="Elgegravene" />
		<tag k="place" v="locality" />
		<tag k="ssr:stedsnr" v="828247" />
	</node>
	<node lat="59.90166666315808" lon="11.165008325744745" id="-16065">
		<tag k="name" v="Kløyva" />
		<tag k="place" v="locality" />
		<tag k="ssr:stedsnr" v="831648" />
	</node>
	<node lat="59.96659444151977" lon="11.174136105832044" id="-16071">
		<tag k="name" v="Gravene" />
		<tag k="place" v="locality" />
		<tag k="ssr:stedsnr" v="844899" />
	</node>
	<node lat="59.91431111362915" lon="11.165797218851829" id="-16107">
		<tag k="alt_name" v="Fet" />
		<tag k="amenity" v="place_of_worship" />
		<tag k="denomination" v="lutheran" />
		<tag k="name" v="Fet kirke" />
		<tag k="religion" v="christian" />
		<tag k="ssr:stedsnr" v="854587" />
	</node>
	<node lat="60.02059858572701" lon="11.104803443829878" id="-16217">
		<tag k="amenity" v="place_of_worship" />
		<tag k="denomination" v="lutheran" />
		<tag k="name" v="Frogner gamle kirke" />
		<tag k="religion" v="christian" />
		<tag k="ssr:stedsnr" v="990994" />
	</node>
=======
>>>>>>> e1d4bc35ff8a6074a6f2e91616a996b547c36f15
</osm>
