<?xml version="1.0" encoding="UTF-8"?>
<<<<<<< HEAD
<osm version="0.6" generator="osmapis">
	<node lat="59.95737222467716" lon="11.03053333115113" id="-13937">
		<tag k="bridge" v="yes" />
		<tag k="layer" v="1" />
		<tag k="name" v="Strand" />
		<tag k="ssr:stedsnr" v="45009" />
	</node>
	<node lat="59.99143889058793" lon="11.320150008881162" id="-13938">
		<tag k="bridge" v="yes" />
		<tag k="layer" v="1" />
		<tag k="name" v="Huseby" />
		<tag k="ssr:stedsnr" v="46041" />
	</node>
	<node lat="59.930697218295634" lon="11.288980547836497" id="-13941">
		<tag k="name" v="Fjellgrinda" />
		<tag k="place" v="locality" />
		<tag k="ssr:stedsnr" v="239270" />
	</node>
	<node lat="59.99927500031203" lon="11.123788890593714" id="-13973">
		<tag k="highway" v="path" />
		<tag k="name" v="Dragonvegen" />
		<tag k="ssr:stedsnr" v="59595" />
	</node>
	<node lat="59.99423333352194" lon="11.034116664442097" id="-14036">
		<tag k="bridge" v="yes" />
		<tag k="layer" v="1" />
		<tag k="name" v="Vestvollvegen" />
		<tag k="ssr:stedsnr" v="106005" />
	</node>
	<node lat="59.8625472260995" lon="11.225780553423254" id="-14037">
		<tag k="bridge" v="yes" />
		<tag k="layer" v="1" />
		<tag k="name" v="Gan" />
		<tag k="ssr:stedsnr" v="107037" />
	</node>
	<node lat="59.93777222574867" lon="11.134136109231367" id="-14038">
		<tag k="bridge" v="yes" />
		<tag k="layer" v="1" />
		<tag k="name" v="Bråten" />
		<tag k="ssr:stedsnr" v="107038" />
	</node>
	<node lat="59.987344441484844" lon="11.282691658333235" id="-14056">
		<tag k="name" v="Fossum stasjon" />
		<tag k="railway" v="station" />
		<tag k="ssr:stedsnr" v="118619" />
		<tag k="train" v="yes" />
	</node>
	<node lat="60.00451388873526" lon="11.03286943624671" id="-14094">
		<tag k="junction" v="yes" />
		<tag k="name" v="Skedsmokorset" />
		<tag k="place" v="locality" />
		<tag k="ssr:stedsnr" v="145014" />
	</node>
	<node lat="59.997091665869114" lon="11.088300002824615" id="-14102">
		<tag k="bridge" v="yes" />
		<tag k="layer" v="1" />
		<tag k="name" v="Leirsund" />
		<tag k="ssr:stedsnr" v="167009" />
	</node>
	<node lat="59.96863055263501" lon="11.174986110935365" id="-14110">
		<tag k="fixme" v="consider highway=path" />
		<tag k="highway" v="track" />
		<tag k="name" v="Nybudalsvegen" />
		<tag k="ssr:stedsnr" v="176874" />
	</node>
	<node lat="59.93577500068202" lon="11.194208328165896" id="-14123">
		<tag k="junction" v="yes" />
		<tag k="name" v="Falla" />
		<tag k="place" v="locality" />
		<tag k="ssr:stedsnr" v="180855" />
	</node>
	<node lat="60.00482221808663" lon="11.301358332122849" id="-14154">
		<tag k="name" v="Blaker stasjon" />
		<tag k="railway" v="station" />
		<tag k="ssr:stedsnr" v="219377" />
		<tag k="train" v="yes" />
	</node>
	<node lat="59.95198889185959" lon="11.330888883890104" id="-14163">
		<tag k="junction" v="yes" />
		<tag k="name" v="Mork" />
		<tag k="place" v="locality" />
		<tag k="ssr:stedsnr" v="222416" />
	</node>
	<node lat="59.93261666368334" lon="11.138302779231493" id="-14166">
		<tag k="bridge" v="yes" />
		<tag k="layer" v="1" />
		<tag k="name" v="Hovinbakken" />
		<tag k="ssr:stedsnr" v="228043" />
	</node>
	<node lat="59.927030554641775" lon="11.16241944105446" id="-14174">
		<tag k="name" v="Fetsund stasjon" />
		<tag k="railway" v="station" />
		<tag k="ssr:stedsnr" v="239695" />
		<tag k="train" v="yes" />
	</node>
	<node lat="59.967507132415896" lon="11.05277627483302" id="-14204">
		<tag k="junction" v="yes" />
		<tag k="name" v="Måsasvingen" />
		<tag k="place" v="locality" />
		<tag k="ssr:stedsnr" v="266304" />
	</node>
	<node lat="59.998419446243176" lon="11.041338884014893" id="-14208">
		<tag k="junction" v="yes" />
		<tag k="name" v="Skedsmovollen" />
		<tag k="place" v="locality" />
		<tag k="ssr:stedsnr" v="267007" />
	</node>
	<node lat="59.81536666711873" lon="11.243963896414522" id="-14212">
		<tag k="highway" v="path" />
		<tag k="name" v="Maristigen" />
		<tag k="ssr:stedsnr" v="282222" />
	</node>
	<node lat="59.98026666795215" lon="11.011319439138338" id="-14229">
		<tag k="bridge" v="yes" />
		<tag k="layer" v="1" />
		<tag k="name" v="Tandbergbygget" />
		<tag k="ssr:stedsnr" v="288008" />
	</node>
	<node lat="59.96194444563392" lon="10.974636107803304" id="-14230">
		<tag k="bridge" v="yes" />
		<tag k="layer" v="1" />
		<tag k="name" v="Torget" />
		<tag k="ssr:stedsnr" v="288013" />
	</node>
	<node lat="59.97498333550722" lon="11.166013890741642" id="-14233">
		<tag k="fixme" v="consider highway=path" />
		<tag k="highway" v="track" />
		<tag k="name" v="Kongsrudmåsavegen" />
		<tag k="ssr:stedsnr" v="298884" />
	</node>
	<node lat="59.96211944743113" lon="11.061105557687856" id="-14283">
		<tag k="bridge" v="yes" />
		<tag k="layer" v="1" />
		<tag k="name" v="Åråsen" />
		<tag k="ssr:stedsnr" v="470001" />
	</node>
	<node lat="59.9821944417323" lon="11.32065556124847" id="-14284">
		<tag k="bridge" v="yes" />
		<tag k="layer" v="1" />
		<tag k="name" v="Saghaug" />
		<tag k="ssr:stedsnr" v="470036" />
	</node>
	<node lat="59.96045555356511" lon="11.327819439449645" id="-14285">
		<tag k="bridge" v="yes" />
		<tag k="layer" v="1" />
		<tag k="name" v="Ramsås" />
		<tag k="ssr:stedsnr" v="470039" />
	</node>
	<node lat="59.84459722653501" lon="11.243983339122593" id="-14286">
		<tag k="bridge" v="yes" />
		<tag k="layer" v="1" />
		<tag k="name" v="Ulverud" />
		<tag k="ssr:stedsnr" v="471027" />
	</node>
	<node lat="59.923916668618304" lon="11.158027773851703" id="-14287">
		<tag k="bridge" v="yes" />
		<tag k="layer" v="1" />
		<tag k="name" v="Nedrum" />
		<tag k="ssr:stedsnr" v="471029" />
	</node>
	<node lat="59.983680554905696" lon="11.254030552569073" id="-14288">
		<tag k="bridge" v="yes" />
		<tag k="layer" v="1" />
		<tag k="name" v="Hobbybanen" />
		<tag k="ssr:stedsnr" v="471038" />
	</node>
	<node lat="60.03924999849109" lon="11.113119451022184" id="-14289">
		<tag k="bridge" v="yes" />
		<tag k="layer" v="1" />
		<tag k="name" v="Gran" />
		<tag k="ssr:stedsnr" v="471039" />
	</node>
	<node lat="59.97819444224361" lon="11.0010749984486" id="-14296">
		<tag k="bridge" v="yes" />
		<tag k="layer" v="1" />
		<tag k="name" v="Norheim" />
		<tag k="ssr:stedsnr" v="349009" />
	</node>
	<node lat="59.98903055564722" lon="11.028261105642194" id="-14297">
		<tag k="bridge" v="yes" />
		<tag k="layer" v="1" />
		<tag k="name" v="Brånås" />
		<tag k="ssr:stedsnr" v="349015" />
	</node>
	<node lat="60.02127778112983" lon="11.220513889562941" id="-14298">
		<tag k="bridge" v="yes" />
		<tag k="layer" v="1" />
		<tag k="name" v="Nordli" />
		<tag k="ssr:stedsnr" v="349053" />
	</node>
	<node lat="59.97135555406895" lon="11.032758341951553" id="-14318">
		<tag k="aeroway" v="aerodrome" />
		<tag k="alt_name" v="Kjeller" />
		<tag k="name" v="Kjeller flyplass" />
		<tag k="ssr:stedsnr" v="369477" />
	</node>
	<node lat="59.97382777508222" lon="11.004149992671394" id="-14358">
		<tag k="bridge" v="yes" />
		<tag k="layer" v="1" />
		<tag k="name" v="Valstadsvingen" />
		<tag k="ssr:stedsnr" v="409003" />
	</node>
	<node lat="59.99981731701677" lon="11.086850892372329" id="-14387">
		<tag k="alt_name" v="Leirsund" />
		<tag k="name" v="Leirsund stasjon" />
		<tag k="railway" v="station" />
		<tag k="ssr:stedsnr" v="490551" />
		<tag k="train" v="yes" />
	</node>
	<node lat="59.949066665414364" lon="11.063774999317962" id="-14434">
		<tag k="amenity" v="parking" />
		<tag k="name" v="Øyeren plass" />
		<tag k="ssr:stedsnr" v="449006" />
	</node>
	<node lat="59.96194167092425" lon="11.06151666213075" id="-14435">
		<tag k="junction" v="yes" />
		<tag k="name" v="Åråsen" />
		<tag k="place" v="locality" />
		<tag k="ssr:stedsnr" v="449007" />
	</node>
	<node lat="59.94928333314808" lon="11.075572222470676" id="-14481">
		<tag k="bridge" v="yes" />
		<tag k="layer" v="1" />
		<tag k="name" v="Sørumsneset" />
		<tag k="ssr:stedsnr" v="470010" />
	</node>
	<node lat="59.946997219338805" lon="11.071630551399569" id="-14482">
		<tag k="bridge" v="yes" />
		<tag k="layer" v="1" />
		<tag k="name" v="Isakveien" />
		<tag k="ssr:stedsnr" v="470019" />
	</node>
	<node lat="59.95666110926436" lon="11.048086113600016" id="-14512">
		<tag k="junction" v="yes" />
		<tag k="name" v="Fjeldberghjørnet" />
		<tag k="place" v="locality" />
		<tag k="ssr:stedsnr" v="509395" />
	</node>
	<node lat="59.958299997672704" lon="11.01652777998544" id="-14531">
		<tag k="alt_name" v="Sagelven" />
		<tag k="bridge" v="yes" />
		<tag k="layer" v="1" />
		<tag k="name" v="Sagelva" />
		<tag k="ssr:stedsnr" v="531009" />
	</node>
	<node lat="60.01306666236609" lon="10.97702500364588" id="-14583">
		<tag k="junction" v="yes" />
		<tag k="name" v="Solberg" />
		<tag k="place" v="locality" />
		<tag k="ssr:stedsnr" v="570012" />
	</node>
	<node lat="59.936552776281765" lon="11.188566658686186" id="-14609">
		<tag k="junction" v="yes" />
		<tag k="name" v="Fråstad" />
		<tag k="place" v="locality" />
		<tag k="ssr:stedsnr" v="605866" />
	</node>
	<node lat="59.997052778227655" lon="11.043650003609056" id="-14658">
		<tag k="bridge" v="yes" />
		<tag k="layer" v="1" />
		<tag k="name" v="Tærud" />
		<tag k="ssr:stedsnr" v="652005" />
	</node>
	<node lat="59.97351111236812" lon="11.055430559163218" id="-14711">
		<tag k="bridge" v="yes" />
		<tag k="layer" v="1" />
		<tag k="name" v="Brauter" />
		<tag k="ssr:stedsnr" v="896015" />
	</node>
	<node lat="59.93150555657235" lon="11.185288884142242" id="-14712">
		<tag k="bridge" v="yes" />
		<tag k="layer" v="1" />
		<tag k="name" v="Varå" />
		<tag k="ssr:stedsnr" v="896025" />
	</node>
	<node lat="59.9229722183311" lon="11.169097223063687" id="-14713">
		<tag k="bridge" v="yes" />
		<tag k="layer" v="1" />
		<tag k="name" v="Fetsund øst" />
		<tag k="ssr:stedsnr" v="896027" />
	</node>
	<node lat="60.029155551611126" lon="11.181855549185737" id="-14714">
		<tag k="bridge" v="yes" />
		<tag k="layer" v="1" />
		<tag k="name" v="Asak" />
		<tag k="ssr:stedsnr" v="896036" />
	</node>
	<node lat="60.02748332908621" lon="11.092194447548204" id="-14734">
=======
<osm generator="osmapis" version="0.6">
	<node id="-259070" lat="59.9848027769" lon="11.3478499923">
>>>>>>> e1d4bc35ff8a6074a6f2e91616a996b547c36f15
		<tag k="bridge" v="yes" />
		<tag k="layer" v="1" />
		<tag k="name" v="Stygdalen" />
		<tag k="ssr:stedsnr" v="713030" />
	</node>
<<<<<<< HEAD
	<node lat="60.02074166665629" lon="11.165405554968741" id="-14735">
=======
	<node id="-259069" lat="60.0299972266" lon="11.1145861104">
>>>>>>> e1d4bc35ff8a6074a6f2e91616a996b547c36f15
		<tag k="bridge" v="yes" />
		<tag k="layer" v="1" />
		<tag k="name" v="Vesterskaun" />
		<tag k="ssr:stedsnr" v="713032" />
	</node>
<<<<<<< HEAD
	<node lat="59.96840000388289" lon="11.218405552706521" id="-14787">
=======
	<node id="-259063" lat="59.9684000039" lon="11.2184055527">
>>>>>>> e1d4bc35ff8a6074a6f2e91616a996b547c36f15
		<tag k="junction" v="yes" />
		<tag k="name" v="Lystad" />
		<tag k="place" v="locality" />
		<tag k="ssr:stedsnr" v="768440" />
	</node>
<<<<<<< HEAD
	<node lat="60.02110833063337" lon="11.215800002903645" id="-14802">
=======
	<node id="-258034" lat="59.9795805546" lon="10.9947194511">
		<tag k="junction" v="yes" />
		<tag k="name" v="Hvam" />
		<tag k="place" v="locality" />
		<tag k="ssr:stedsnr" v="874011" />
	</node>
	<node id="-258301" lat="59.9942333335" lon="11.0341166644">
		<tag k="bridge" v="yes" />
		<tag k="layer" v="1" />
		<tag k="name" v="Vestvollvegen" />
		<tag k="ssr:stedsnr" v="106005" />
	</node>
	<node id="-257516" lat="59.9619416709" lon="11.0615166621">
>>>>>>> e1d4bc35ff8a6074a6f2e91616a996b547c36f15
		<tag k="junction" v="yes" />
		<tag k="name" v="Nordli" />
		<tag k="place" v="locality" />
<<<<<<< HEAD
		<tag k="ssr:stedsnr" v="785951" />
	</node>
	<node lat="59.9538233477688" lon="11.045179328211505" id="-14841">
		<tag k="alt_name" v="Lillestrøm" />
		<tag k="name" v="Lillestrøm stasjon" />
=======
		<tag k="ssr:stedsnr" v="449007" />
	</node>
	<node id="-257515" lat="59.9490666654" lon="11.0637749993">
		<tag k="amenity" v="parking" />
		<tag k="name" v="Øyeren plass" />
		<tag k="ssr:stedsnr" v="449006" />
	</node>
	<node id="-259239" lat="59.9495270347" lon="11.0015623223">
		<tag k="alt_name" v="Strømmen" />
		<tag k="name" v="Strømmen stasjon" />
		<tag k="railway" v="station" />
		<tag k="ssr:stedsnr" v="854028" />
		<tag k="train" v="yes" />
	</node>
	<node id="-258529" lat="59.9649027761" lon="10.9458361196">
		<tag k="highway" v="path" />
		<tag k="name" v="Kongeveien" />
		<tag k="ssr:stedsnr" v="206011" />
	</node>
	<node id="-258005" lat="59.9563519612" lon="11.0156320276">
		<tag k="alt_name" v="Sagdalen" />
		<tag k="name" v="Sagdalen holdeplass" />
>>>>>>> e1d4bc35ff8a6074a6f2e91616a996b547c36f15
		<tag k="railway" v="station" />
		<tag k="ssr:stedsnr" v="914540" />
		<tag k="train" v="yes" />
	</node>
<<<<<<< HEAD
	<node lat="60.035049997754946" lon="10.971758329203936" id="-14873">
		<tag k="highway" v="path" />
		<tag k="name" v="Vangveien" />
		<tag k="ssr:stedsnr" v="813006" />
	</node>
	<node lat="60.0241861079848" lon="11.28930555299527" id="-14883">
		<tag k="ford" v="yes" />
		<tag k="name" v="Steinsvadet" />
=======
	<node id="-258001" lat="59.9499833337" lon="10.9525722163">
		<tag k="bridge" v="yes" />
		<tag k="layer" v="1" />
		<tag k="name" v="Gryta" />
		<tag k="ssr:stedsnr" v="835011" />
	</node>
	<node id="-257997" lat="60.0521166624" lon="11.2503750023">
		<tag k="junction" v="yes" />
		<tag k="name" v="Vølneberg" />
		<tag k="place" v="locality" />
		<tag k="ssr:stedsnr" v="829439" />
	</node>
	<node id="-257483" lat="59.9934888891" lon="11.1256749924">
		<tag k="name" v="Dragonleet" />
		<tag k="place" v="locality" />
		<tag k="ssr:stedsnr" v="423636" />
	</node>
	<node id="-259016" lat="60.0354388852" lon="11.1030388961">
		<tag k="junction" v="yes" />
		<tag k="name" v="Gran" />
		<tag k="place" v="locality" />
		<tag k="ssr:stedsnr" v="646139" />
	</node>
	<node id="-257471" lat="59.9566611093" lon="11.0480861136">
		<tag k="junction" v="yes" />
		<tag k="name" v="Fjeldberghjørnet" />
		<tag k="place" v="locality" />
		<tag k="ssr:stedsnr" v="509395" />
	</node>
	<node id="-257451" lat="59.967763886" lon="11.3787638855">
		<tag k="junction" v="yes" />
		<tag k="name" v="Aremoen" />
>>>>>>> e1d4bc35ff8a6074a6f2e91616a996b547c36f15
		<tag k="place" v="locality" />
		<tag k="ssr:stedsnr" v="831038" />
	</node>
<<<<<<< HEAD
	<node lat="59.96742222208529" lon="11.116713889766293" id="-14886">
		<tag k="fixme" v="consider highway=path" />
		<tag k="highway" v="track" />
		<tag k="name" v="Steindalsvegen" />
		<tag k="ssr:stedsnr" v="844892" />
	</node>
	<node lat="59.99002222498829" lon="11.264980564582391" id="-14890">
		<tag k="landuse" v="industrial" />
		<tag k="name" v="Bingsfoss kraftanlegg" />
		<tag k="power" v="plant" />
		<tag k="ssr:stedsnr" v="846722" />
	</node>
	<node lat="59.94952703470635" lon="11.001562322301453" id="-14900">
		<tag k="alt_name" v="Strømmen" />
		<tag k="name" v="Strømmen stasjon" />
		<tag k="railway" v="station" />
		<tag k="ssr:stedsnr" v="854028" />
		<tag k="train" v="yes" />
	</node>
	<node lat="59.95635196122658" lon="11.015632027645337" id="-14904">
		<tag k="alt_name" v="Sagdalen" />
		<tag k="name" v="Sagdalen holdeplass" />
		<tag k="railway" v="station" />
		<tag k="ssr:stedsnr" v="854505" />
		<tag k="train" v="yes" />
	</node>
	<node lat="59.947705556387895" lon="11.061547215058708" id="-14947">
		<tag k="bridge" v="yes" />
		<tag k="layer" v="1" />
		<tag k="name" v="Trelastbrua" />
		<tag k="ssr:stedsnr" v="895006" />
	</node>
	<node lat="59.976180557801804" lon="11.024297214635892" id="-14948">
		<tag k="bridge" v="yes" />
		<tag k="layer" v="1" />
		<tag k="name" v="Kjellerstranda" />
		<tag k="ssr:stedsnr" v="895014" />
	</node>
	<node lat="59.97962222609159" lon="10.993925006960774" id="-14949">
=======
	<node id="-257449" lat="60.0273555581" lon="11.2348305583">
		<tag k="junction" v="yes" />
		<tag k="name" v="Skea" />
		<tag k="place" v="locality" />
		<tag k="ssr:stedsnr" v="362217" />
	</node>
	<node id="-258466" lat="59.9357750007" lon="11.1942083282">
		<tag k="junction" v="yes" />
		<tag k="name" v="Falla" />
		<tag k="place" v="locality" />
		<tag k="ssr:stedsnr" v="180855" />
	</node>
	<node id="-258970" lat="59.9365527763" lon="11.1885666587">
		<tag k="junction" v="yes" />
		<tag k="name" v="Fråstad" />
		<tag k="place" v="locality" />
		<tag k="ssr:stedsnr" v="605866" />
	</node>
	<node id="-257938" lat="59.9538233478" lon="11.0451793282">
		<tag k="alt_name" v="Lillestrøm" />
		<tag k="name" v="Lillestrøm stasjon" />
		<tag k="railway" v="station" />
		<tag k="ssr:stedsnr" v="914540" />
		<tag k="train" v="yes" />
	</node>
	<node id="-258447" lat="59.9229505701" lon="11.1410571119">
		<tag k="name" v="Nerdrum holdeplass" />
		<tag k="railway" v="halt" />
		<tag k="ssr:stedsnr" v="178639" />
		<tag k="train" v="yes" />
	</node>
	<node id="-257417" lat="59.9977046593" lon="11.0871178762">
		<tag k="alt_name" v="Leirsund" />
		<tag k="name" v="Leirsund stasjon" />
		<tag k="railway" v="station" />
		<tag k="ssr:stedsnr" v="490551" />
		<tag k="train" v="yes" />
	</node>
	<node id="-258436" lat="59.9686305526" lon="11.1749861109">
		<tag k="fixme" v="consider highway=path" />
		<tag k="highway" v="track" />
		<tag k="name" v="Nybudalsvegen" />
		<tag k="ssr:stedsnr" v="176874" />
	</node>
	<node id="-258941" lat="60.0095055578" lon="11.0307749991">
>>>>>>> e1d4bc35ff8a6074a6f2e91616a996b547c36f15
		<tag k="bridge" v="yes" />
		<tag k="layer" v="1" />
		<tag k="name" v="Hvam" />
		<tag k="ssr:stedsnr" v="895016" />
	</node>
<<<<<<< HEAD
	<node lat="60.02634721878459" lon="11.17795556127838" id="-14963">
=======
	<node id="-257916" lat="60.0263472188" lon="11.1779555613">
>>>>>>> e1d4bc35ff8a6074a6f2e91616a996b547c36f15
		<tag k="junction" v="yes" />
		<tag k="name" v="Knatten" />
		<tag k="place" v="locality" />
		<tag k="ssr:stedsnr" v="909259" />
	</node>
<<<<<<< HEAD
	<node lat="59.99819166788168" lon="11.041719444964182" id="-15007">
=======
	<node id="-258423" lat="59.9304270667" lon="11.1458057755">
>>>>>>> e1d4bc35ff8a6074a6f2e91616a996b547c36f15
		<tag k="bridge" v="yes" />
		<tag k="layer" v="1" />
		<tag k="name" v="Skedsmovollen" />
		<tag k="ssr:stedsnr" v="956014" />
	</node>
<<<<<<< HEAD
	<node lat="59.97431111554961" lon="10.991374997156562" id="-15008">
=======
	<node id="-258422" lat="59.860908336" lon="11.3154000077">
>>>>>>> e1d4bc35ff8a6074a6f2e91616a996b547c36f15
		<tag k="bridge" v="yes" />
		<tag k="layer" v="1" />
		<tag k="name" v="Hellerud" />
		<tag k="ssr:stedsnr" v="956017" />
	</node>
	<node lat="59.95389045785199" lon="11.042286561784433" id="-15043">
		<tag k="highway" v="bus_stop" />
		<tag k="name" v="Lillestrøm bussterminal" />
		<tag k="ssr:stedsnr" v="990137" />
	</node>
	<node lat="60.00759999766248" lon="11.26186110583122" id="-15096">
		<tag k="junction" v="yes" />
		<tag k="name" v="Vall" />
		<tag k="place" v="locality" />
		<tag k="ssr:stedsnr" v="42038" />
	</node>
<<<<<<< HEAD
	<node lat="60.00739166971661" lon="11.05050833923352" id="-15100">
=======
	<node id="-257395" lat="60.0212777811" lon="11.2205138896">
>>>>>>> e1d4bc35ff8a6074a6f2e91616a996b547c36f15
		<tag k="bridge" v="yes" />
		<tag k="layer" v="1" />
		<tag k="name" v="Høgslund" />
		<tag k="ssr:stedsnr" v="45023" />
	</node>
<<<<<<< HEAD
	<node lat="59.94281944492259" lon="11.128441666265175" id="-15101">
=======
	<node id="-257394" lat="59.9890305556" lon="11.0282611056">
>>>>>>> e1d4bc35ff8a6074a6f2e91616a996b547c36f15
		<tag k="bridge" v="yes" />
		<tag k="layer" v="1" />
		<tag k="name" v="Merkja" />
		<tag k="ssr:stedsnr" v="46029" />
	</node>
<<<<<<< HEAD
	<node lat="59.92439166223624" lon="11.15861666634835" id="-15103">
=======
	<node id="-257393" lat="59.9781944422" lon="11.0010749984">
>>>>>>> e1d4bc35ff8a6074a6f2e91616a996b547c36f15
		<tag k="bridge" v="yes" />
		<tag k="layer" v="1" />
		<tag k="name" v="Fetsund" />
		<tag k="ssr:stedsnr" v="46035" />
	</node>
<<<<<<< HEAD
	<node lat="60.030388890743005" lon="11.114369438229579" id="-15168">
=======
	<node id="-258924" lat="60.0392416695" lon="11.2668083368">
>>>>>>> e1d4bc35ff8a6074a6f2e91616a996b547c36f15
		<tag k="junction" v="yes" />
		<tag k="name" v="Mo" />
		<tag k="place" v="locality" />
		<tag k="ssr:stedsnr" v="100139" />
	</node>
<<<<<<< HEAD
	<node lat="60.040619446638246" lon="11.269827782356526" id="-15176">
		<tag k="fixme" v="consider highway=path" />
		<tag k="highway" v="track" />
		<tag k="name" v="Fjellvegen" />
		<tag k="ssr:stedsnr" v="100298" />
	</node>
	<node lat="59.923649996841384" lon="11.191991667925253" id="-15190">
=======
	<node id="-258922" lat="60.0130666624" lon="10.9770250036">
>>>>>>> e1d4bc35ff8a6074a6f2e91616a996b547c36f15
		<tag k="junction" v="yes" />
		<tag k="name" v="Ramstad" />
		<tag k="place" v="locality" />
		<tag k="ssr:stedsnr" v="101860" />
	</node>
<<<<<<< HEAD
	<node lat="59.99164444209341" lon="11.077527782601384" id="-15195">
=======
	<node id="-258400" lat="60.0108444457" lon="11.3237833337">
>>>>>>> e1d4bc35ff8a6074a6f2e91616a996b547c36f15
		<tag k="junction" v="yes" />
		<tag k="name" v="Kjus" />
		<tag k="place" v="locality" />
		<tag k="ssr:stedsnr" v="105365" />
	</node>
	<node lat="59.96135278095813" lon="11.137677778383853" id="-15201">
		<tag k="highway" v="path" />
		<tag k="name" v="Midtskogvegen" />
		<tag k="ssr:stedsnr" v="116885" />
	</node>
<<<<<<< HEAD
	<node lat="60.02244721905408" lon="11.116661118470375" id="-15206">
=======
	<node id="-258398" lat="60.0045138887" lon="11.0328694362">
>>>>>>> e1d4bc35ff8a6074a6f2e91616a996b547c36f15
		<tag k="junction" v="yes" />
		<tag k="name" v="Hval" />
		<tag k="place" v="locality" />
		<tag k="ssr:stedsnr" v="117808" />
	</node>
<<<<<<< HEAD
	<node lat="59.964308335143464" lon="11.3800027739658" id="-15217">
=======
	<node id="-257881" lat="59.9986027795" lon="11.3068361194">
>>>>>>> e1d4bc35ff8a6074a6f2e91616a996b547c36f15
		<tag k="junction" v="yes" />
		<tag k="name" v="Sandbakken" />
		<tag k="place" v="locality" />
		<tag k="ssr:stedsnr" v="120570" />
	</node>
<<<<<<< HEAD
	<node lat="60.010844445661164" lon="11.323783333695374" id="-15261">
		<tag k="junction" v="yes" />
		<tag k="name" v="Eidsteiet" />
		<tag k="place" v="locality" />
		<tag k="ssr:stedsnr" v="161177" />
	</node>
	<node lat="59.86090833603192" lon="11.315400007749364" id="-15290">
=======
	<node id="-257876" lat="60.0291555516" lon="11.1818555492">
		<tag k="bridge" v="yes" />
		<tag k="layer" v="1" />
		<tag k="name" v="Asak" />
		<tag k="ssr:stedsnr" v="896036" />
	</node>
	<node id="-257875" lat="59.9229722183" lon="11.1690972231">
>>>>>>> e1d4bc35ff8a6074a6f2e91616a996b547c36f15
		<tag k="bridge" v="yes" />
		<tag k="layer" v="1" />
		<tag k="name" v="Saga" />
		<tag k="ssr:stedsnr" v="167032" />
	</node>
<<<<<<< HEAD
	<node lat="59.92295057009836" lon="11.141057111932014" id="-15302">
		<tag k="name" v="Nerdrum holdeplass" />
		<tag k="railway" v="halt" />
		<tag k="ssr:stedsnr" v="178639" />
		<tag k="train" v="yes" />
	</node>
	<node lat="59.964902776117114" lon="10.94583611961613" id="-15363">
		<tag k="highway" v="path" />
		<tag k="name" v="Kongeveien" />
		<tag k="ssr:stedsnr" v="206011" />
	</node>
	<node lat="59.99747222678025" lon="11.099363886458619" id="-15379">
=======
	<node id="-257874" lat="59.9315055566" lon="11.1852888841">
		<tag k="bridge" v="yes" />
		<tag k="layer" v="1" />
		<tag k="name" v="Varå" />
		<tag k="ssr:stedsnr" v="896025" />
	</node>
	<node id="-257873" lat="59.9735111124" lon="11.0554305592">
		<tag k="bridge" v="yes" />
		<tag k="layer" v="1" />
		<tag k="name" v="Brauter" />
		<tag k="ssr:stedsnr" v="896015" />
	</node>
	<node id="-257872" lat="59.9796222261" lon="10.993925007">
>>>>>>> e1d4bc35ff8a6074a6f2e91616a996b547c36f15
		<tag k="bridge" v="yes" />
		<tag k="layer" v="1" />
		<tag k="name" v="Heishagen" />
		<tag k="ssr:stedsnr" v="227016" />
	</node>
<<<<<<< HEAD
	<node lat="60.03540555321252" lon="11.103186114269116" id="-15380">
=======
	<node id="-257871" lat="59.9761805578" lon="11.0242972146">
>>>>>>> e1d4bc35ff8a6074a6f2e91616a996b547c36f15
		<tag k="bridge" v="yes" />
		<tag k="layer" v="1" />
		<tag k="name" v="Grankrysset" />
		<tag k="ssr:stedsnr" v="228052" />
	</node>
<<<<<<< HEAD
	<node lat="59.9844444456474" lon="11.253011112938458" id="-15401">
=======
	<node id="-257870" lat="59.9477055564" lon="11.0615472151">
>>>>>>> e1d4bc35ff8a6074a6f2e91616a996b547c36f15
		<tag k="bridge" v="yes" />
		<tag k="layer" v="1" />
		<tag k="name" v="Fyn" />
		<tag k="ssr:stedsnr" v="289042" />
	</node>
<<<<<<< HEAD
	<node lat="60.02291318423322" lon="11.103408108708143" id="-15451">
		<tag k="alt_name" v="Frogner" />
		<tag k="name" v="Frogner stasjon" />
		<tag k="railway" v="station" />
		<tag k="ssr:stedsnr" v="309935" />
		<tag k="train" v="yes" />
	</node>
	<node lat="59.91934166611279" lon="11.183391662061355" id="-15493">
=======
	<node id="-257869" lat="60.0240333358" lon="11.0731305571">
		<tag k="bridge" v="yes" />
		<tag k="layer" v="1" />
		<tag k="name" v="Fjellbo" />
		<tag k="ssr:stedsnr" v="713041" />
	</node>
	<node id="-257868" lat="60.0207416667" lon="11.165405555">
>>>>>>> e1d4bc35ff8a6074a6f2e91616a996b547c36f15
		<tag k="bridge" v="yes" />
		<tag k="layer" v="1" />
		<tag k="name" v="Kringen" />
		<tag k="ssr:stedsnr" v="349047" />
	</node>
<<<<<<< HEAD
	<node lat="59.96583611026991" lon="11.165199998683244" id="-15498">
		<tag k="fixme" v="consider highway=path" />
		<tag k="highway" v="track" />
		<tag k="name" v="Jasemyrvegen" />
		<tag k="ssr:stedsnr" v="358883" />
	</node>
	<node lat="60.02735555808994" lon="11.234830558255858" id="-15523">
		<tag k="junction" v="yes" />
		<tag k="name" v="Skea" />
		<tag k="place" v="locality" />
		<tag k="ssr:stedsnr" v="362217" />
	</node>
	<node lat="59.96776388602318" lon="11.378763885510951" id="-15530">
		<tag k="alt_name" v="Aremoen" />
		<tag k="junction" v="yes" />
		<tag k="name" v="Armoen" />
		<tag k="place" v="locality" />
		<tag k="ssr:stedsnr" v="362606" />
	</node>
	<node lat="59.94293333326576" lon="11.102797215691327" id="-15568">
		<tag k="alt_name" v="Tuen" />
		<tag k="name" v="Tuen holdeplass" />
		<tag k="railway" v="halt" />
		<tag k="ssr:stedsnr" v="389982" />
		<tag k="train" v="yes" />
	</node>
	<node lat="59.95311666596757" lon="11.015788883222397" id="-15586">
=======
	<node id="-257867" lat="60.0274833291" lon="11.0921944475">
		<tag k="bridge" v="yes" />
		<tag k="layer" v="1" />
		<tag k="name" v="Stygdalen" />
		<tag k="ssr:stedsnr" v="713030" />
	</node>
	<node id="-257866" lat="59.9861083323" lon="11.0163027769">
		<tag k="bridge" v="yes" />
		<tag k="layer" v="1" />
		<tag k="name" v="Tuterud" />
		<tag k="ssr:stedsnr" v="713007" />
	</node>
	<node id="-257351" lat="59.9604555536" lon="11.3278194394">
		<tag k="bridge" v="yes" />
		<tag k="layer" v="1" />
		<tag k="name" v="Ramsås" />
		<tag k="ssr:stedsnr" v="470039" />
	</node>
	<node id="-257350" lat="59.9821944417" lon="11.3206555612">
		<tag k="bridge" v="yes" />
		<tag k="layer" v="1" />
		<tag k="name" v="Saghaug" />
		<tag k="ssr:stedsnr" v="470036" />
	</node>
	<node id="-257349" lat="59.9469972193" lon="11.0716305514">
>>>>>>> e1d4bc35ff8a6074a6f2e91616a996b547c36f15
		<tag k="bridge" v="yes" />
		<tag k="layer" v="1" />
		<tag k="name" v="Stalsberg" />
		<tag k="ssr:stedsnr" v="409014" />
	</node>
<<<<<<< HEAD
	<node lat="60.02701110947984" lon="11.11578055858032" id="-15587">
		<tag k="alt_name" v="Melvold" />
=======
	<node id="-257348" lat="59.9492833331" lon="11.0755722225">
>>>>>>> e1d4bc35ff8a6074a6f2e91616a996b547c36f15
		<tag k="bridge" v="yes" />
		<tag k="layer" v="1" />
		<tag k="name" v="Melvoll" />
		<tag k="ssr:stedsnr" v="410035" />
	</node>
<<<<<<< HEAD
	<node lat="59.99025833527672" lon="11.271577776350359" id="-15599">
		<tag k="name" v="Bingsfoss stasjon" />
		<tag k="railway" v="station" />
		<tag k="ssr:stedsnr" v="421728" />
		<tag k="train" v="yes" />
	</node>
	<node lat="59.99348888908341" lon="11.125674992413161" id="-15615">
		<tag k="name" v="Dragonleet" />
=======
	<node id="-257347" lat="59.9621194474" lon="11.0611055577">
		<tag k="bridge" v="yes" />
		<tag k="layer" v="1" />
		<tag k="name" v="Åråsen" />
		<tag k="ssr:stedsnr" v="470001" />
	</node>
	<node id="-257840" lat="60.0323388856" lon="11.3147888945">
		<tag k="junction" v="yes" />
		<tag k="name" v="Fosserud" />
>>>>>>> e1d4bc35ff8a6074a6f2e91616a996b547c36f15
		<tag k="place" v="locality" />
		<tag k="ssr:stedsnr" v="423636" />
	</node>
<<<<<<< HEAD
	<node lat="60.03944475550063" lon="11.12800348948938" id="-15639">
		<tag k="alt_name" v="Lindeberg" />
		<tag k="name" v="Lindeberg stasjon" />
		<tag k="railway" v="station" />
		<tag k="ssr:stedsnr" v="430869" />
		<tag k="train" v="yes" />
	</node>
	<node lat="59.95462780884713" lon="11.042440582782605" id="-15648">
=======
	<node id="-257324" lat="59.9749833355" lon="11.1660138907">
		<tag k="fixme" v="consider highway=path" />
		<tag k="highway" v="track" />
		<tag k="name" v="Kongsrudmåsavegen" />
		<tag k="ssr:stedsnr" v="298884" />
	</node>
	<node id="-257314" lat="59.9546278088" lon="11.0424405828">
>>>>>>> e1d4bc35ff8a6074a6f2e91616a996b547c36f15
		<tag k="amenity" v="parking" />
		<tag k="name" v="Pedersløkka" />
		<tag k="ssr:stedsnr" v="448466" />
	</node>
<<<<<<< HEAD
	<node lat="59.94853333781053" lon="11.351955549708828" id="-15669">
=======
	<node id="-258330" lat="59.9643083351" lon="11.380002774">
>>>>>>> e1d4bc35ff8a6074a6f2e91616a996b547c36f15
		<tag k="junction" v="yes" />
		<tag k="name" v="Steinsrud" />
		<tag k="place" v="locality" />
		<tag k="ssr:stedsnr" v="525457" />
	</node>
<<<<<<< HEAD
	<node lat="59.99869166988205" lon="11.311522223434686" id="-15681">
		<tag k="junction" v="yes" />
		<tag k="name" v="Huseby" />
		<tag k="place" v="locality" />
		<tag k="ssr:stedsnr" v="542784" />
	</node>
	<node lat="60.03924166945195" lon="11.266808336814174" id="-15746">
		<tag k="junction" v="yes" />
		<tag k="name" v="Bøler" />
		<tag k="place" v="locality" />
		<tag k="ssr:stedsnr" v="585282" />
	</node>
	<node lat="60.00950555778209" lon="11.030774999097032" id="-15758">
=======
	<node id="-257300" lat="60.0354055532" lon="11.1031861143">
		<tag k="bridge" v="yes" />
		<tag k="layer" v="1" />
		<tag k="name" v="Grankrysset" />
		<tag k="ssr:stedsnr" v="228052" />
	</node>
	<node id="-257299" lat="60.0048222181" lon="11.3013583321">
		<tag k="name" v="Blaker stasjon" />
		<tag k="railway" v="station" />
		<tag k="ssr:stedsnr" v="219377" />
		<tag k="train" v="yes" />
	</node>
	<node id="-257295" lat="59.9844444456" lon="11.2530111129">
>>>>>>> e1d4bc35ff8a6074a6f2e91616a996b547c36f15
		<tag k="bridge" v="yes" />
		<tag k="layer" v="1" />
		<tag k="name" v="Åsenhagen" />
		<tag k="ssr:stedsnr" v="591001" />
	</node>
	<node lat="60.03543888519612" lon="11.103038896076525" id="-15826">
		<tag k="junction" v="yes" />
		<tag k="name" v="Gran" />
		<tag k="place" v="locality" />
		<tag k="ssr:stedsnr" v="646139" />
	</node>
<<<<<<< HEAD
	<node lat="59.98610833234818" lon="11.016302776873903" id="-15873">
=======
	<node id="-257294" lat="59.9619444456" lon="10.9746361078">
>>>>>>> e1d4bc35ff8a6074a6f2e91616a996b547c36f15
		<tag k="bridge" v="yes" />
		<tag k="layer" v="1" />
		<tag k="name" v="Tuterud" />
		<tag k="ssr:stedsnr" v="713007" />
	</node>
<<<<<<< HEAD
	<node lat="60.024033335785255" lon="11.07313055712816" id="-15874">
		<tag k="bridge" v="yes" />
		<tag k="layer" v="1" />
		<tag k="name" v="Fjellbo" />
		<tag k="ssr:stedsnr" v="713041" />
	</node>
	<node lat="59.99860277947107" lon="11.306836119446091" id="-15883">
		<tag k="junction" v="yes" />
		<tag k="name" v="Fossmo" />
		<tag k="place" v="locality" />
		<tag k="ssr:stedsnr" v="724776" />
	</node>
	<node lat="60.02999722664322" lon="11.114586110446114" id="-15963">
=======
	<node id="-258829" lat="59.9986916699" lon="11.3115222234">
		<tag k="junction" v="yes" />
		<tag k="name" v="Huseby" />
		<tag k="place" v="locality" />
		<tag k="ssr:stedsnr" v="542784" />
	</node>
	<node id="-259339" lat="59.9538904579" lon="11.0422865618">
		<tag k="highway" v="bus_stop" />
		<tag k="name" v="Lillestrøm bussterminal" />
		<tag k="ssr:stedsnr" v="990137" />
	</node>
	<node id="-257798" lat="59.9970527782" lon="11.0436500036">
>>>>>>> e1d4bc35ff8a6074a6f2e91616a996b547c36f15
		<tag k="bridge" v="yes" />
		<tag k="layer" v="1" />
		<tag k="name" v="Mo" />
		<tag k="ssr:stedsnr" v="774037" />
	</node>
<<<<<<< HEAD
	<node lat="59.98480277693386" lon="11.347849992347204" id="-15964">
=======
	<node id="-258303" lat="59.9377722257" lon="11.1341361092">
>>>>>>> e1d4bc35ff8a6074a6f2e91616a996b547c36f15
		<tag k="bridge" v="yes" />
		<tag k="layer" v="1" />
		<tag k="name" v="Kjølstad" />
		<tag k="ssr:stedsnr" v="774039" />
	</node>
	<node lat="60.052116662446515" lon="11.2503750022542" id="-16052">
		<tag k="junction" v="yes" />
		<tag k="name" v="Vølneberg" />
		<tag k="place" v="locality" />
		<tag k="ssr:stedsnr" v="829439" />
	</node>
<<<<<<< HEAD
	<node lat="59.94998333366211" lon="10.952572216253955" id="-16068">
=======
	<node id="-258302" lat="59.8625472261" lon="11.2257805534">
>>>>>>> e1d4bc35ff8a6074a6f2e91616a996b547c36f15
		<tag k="bridge" v="yes" />
		<tag k="layer" v="1" />
		<tag k="name" v="Gryta" />
		<tag k="ssr:stedsnr" v="835011" />
	</node>
<<<<<<< HEAD
	<node lat="60.01534444892908" lon="11.112483329210997" id="-16069">
		<tag k="bridge" v="yes" />
		<tag k="layer" v="1" />
		<tag k="name" v="Leirsundveien" />
		<tag k="ssr:stedsnr" v="835040" />
	</node>
	<node lat="59.98659444846758" lon="11.251050003493066" id="-16085">
=======
	<node id="-259325" lat="59.9858885991" lon="11.2401870362">
		<tag k="name" v="Sørumsand stasjon" />
		<tag k="railway" v="station" />
		<tag k="ssr:stedsnr" v="990090" />
		<tag k="train" v="yes" />
	</node>
	<node id="-258300" lat="59.9916444421" lon="11.0775277826">
>>>>>>> e1d4bc35ff8a6074a6f2e91616a996b547c36f15
		<tag k="junction" v="yes" />
		<tag k="name" v="Sørumsand" />
		<tag k="place" v="locality" />
		<tag k="ssr:stedsnr" v="846648" />
	</node>
<<<<<<< HEAD
	<node lat="59.97958055461253" lon="10.99471945110911" id="-16131">
=======
	<node id="-258808" lat="59.9485333378" lon="11.3519555497">
>>>>>>> e1d4bc35ff8a6074a6f2e91616a996b547c36f15
		<tag k="junction" v="yes" />
		<tag k="name" v="Hvam" />
		<tag k="place" v="locality" />
		<tag k="ssr:stedsnr" v="874011" />
	</node>
	<node lat="60.032338885574525" lon="11.31478889447544" id="-16135">
		<tag k="junction" v="yes" />
		<tag k="name" v="Fosserud" />
		<tag k="place" v="locality" />
		<tag k="ssr:stedsnr" v="889327" />
	</node>
	<node lat="59.8564361080815" lon="11.339625000007949" id="-16157">
		<tag k="bridge" v="yes" />
		<tag k="layer" v="1" />
		<tag k="name" v="Midtskog" />
		<tag k="ssr:stedsnr" v="956044" />
	</node>
	<node lat="60.024388888162264" lon="11.09729999522153" id="-16158">
		<tag k="bridge" v="yes" />
		<tag k="layer" v="1" />
		<tag k="name" v="Frogner" />
		<tag k="ssr:stedsnr" v="956056" />
	</node>
<<<<<<< HEAD
	<node lat="60.020519445557355" lon="11.164738897845282" id="-16181">
=======
	<node id="-259302" lat="60.0205194456" lon="11.1647388978">
>>>>>>> e1d4bc35ff8a6074a6f2e91616a996b547c36f15
		<tag k="junction" v="yes" />
		<tag k="name" v="Hønsi" />
		<tag k="place" v="locality" />
		<tag k="ssr:stedsnr" v="967919" />
	</node>
<<<<<<< HEAD
	<node lat="59.9858885991285" lon="11.24018703624418" id="-16196">
		<tag k="name" v="Sørumsand stasjon" />
=======
	<node id="-258276" lat="60.0406194466" lon="11.2698277824">
		<tag k="fixme" v="consider highway=path" />
		<tag k="highway" v="track" />
		<tag k="name" v="Fjellvegen" />
		<tag k="ssr:stedsnr" v="100298" />
	</node>
	<node id="-258786" lat="60.0394447555" lon="11.1280034895">
		<tag k="alt_name" v="Lindeberg" />
		<tag k="name" v="Lindeberg stasjon" />
>>>>>>> e1d4bc35ff8a6074a6f2e91616a996b547c36f15
		<tag k="railway" v="station" />
		<tag k="ssr:stedsnr" v="990090" />
		<tag k="train" v="yes" />
	</node>
<<<<<<< HEAD
=======
	<node id="-257247" lat="59.8153666671" lon="11.2439638964">
		<tag k="highway" v="path" />
		<tag k="name" v="Maristigen" />
		<tag k="ssr:stedsnr" v="282222" />
	</node>
	<node id="-257244" lat="59.9970916659" lon="11.0883000028">
		<tag k="bridge" v="yes" />
		<tag k="layer" v="1" />
		<tag k="name" v="Leirsund" />
		<tag k="ssr:stedsnr" v="167009" />
	</node>
	<node id="-258266" lat="60.0303888907" lon="11.1143694382">
		<tag k="junction" v="yes" />
		<tag k="name" v="Mo" />
		<tag k="place" v="locality" />
		<tag k="ssr:stedsnr" v="100139" />
	</node>
	<node id="-257059" lat="59.9974722268" lon="11.0993638865">
		<tag k="bridge" v="yes" />
		<tag k="layer" v="1" />
		<tag k="name" v="Heishagen" />
		<tag k="ssr:stedsnr" v="227016" />
	</node>
	<node id="-259279" lat="60.0243888882" lon="11.0972999952">
		<tag k="bridge" v="yes" />
		<tag k="layer" v="1" />
		<tag k="name" v="Frogner" />
		<tag k="ssr:stedsnr" v="956056" />
	</node>
	<node id="-259278" lat="59.8564361081" lon="11.339625">
		<tag k="bridge" v="yes" />
		<tag k="layer" v="1" />
		<tag k="name" v="Midtskog" />
		<tag k="ssr:stedsnr" v="956044" />
	</node>
	<node id="-259277" lat="59.9743111155" lon="10.9913749972">
		<tag k="bridge" v="yes" />
		<tag k="layer" v="1" />
		<tag k="name" v="Hellerud" />
		<tag k="ssr:stedsnr" v="956017" />
	</node>
	<node id="-259276" lat="59.9981916679" lon="11.041719445">
		<tag k="bridge" v="yes" />
		<tag k="layer" v="1" />
		<tag k="name" v="Skedsmovollen" />
		<tag k="ssr:stedsnr" v="956014" />
	</node>
	<node id="-257222" lat="59.9984194462" lon="11.041338884">
		<tag k="junction" v="yes" />
		<tag k="name" v="Skedsmovollen" />
		<tag k="place" v="locality" />
		<tag k="ssr:stedsnr" v="267007" />
	</node>
	<node id="-257216" lat="59.9675071324" lon="11.0527762748">
		<tag k="junction" v="yes" />
		<tag k="name" v="Måsasvingen" />
		<tag k="place" v="locality" />
		<tag k="ssr:stedsnr" v="266304" />
	</node>
	<node id="-258748" lat="59.9902583353" lon="11.2715777764">
		<tag k="name" v="Bingsfoss stasjon" />
		<tag k="railway" v="station" />
		<tag k="ssr:stedsnr" v="421728" />
		<tag k="train" v="yes" />
	</node>
	<node id="-258233" lat="59.9992750003" lon="11.1237888906">
		<tag k="highway" v="path" />
		<tag k="name" v="Dragonvegen" />
		<tag k="ssr:stedsnr" v="59595" />
	</node>
	<node id="-258729" lat="60.0270111095" lon="11.1157805586">
		<tag k="bridge" v="yes" />
		<tag k="layer" v="1" />
		<tag k="name" v="Melvold" />
		<tag k="ssr:stedsnr" v="410035" />
	</node>
	<node id="-258728" lat="59.953116666" lon="11.0157888832">
		<tag k="bridge" v="yes" />
		<tag k="layer" v="1" />
		<tag k="name" v="Stalsberg" />
		<tag k="ssr:stedsnr" v="409014" />
	</node>
	<node id="-258727" lat="59.9738277751" lon="11.0041499927">
		<tag k="bridge" v="yes" />
		<tag k="layer" v="1" />
		<tag k="name" v="Valstadsvingen" />
		<tag k="ssr:stedsnr" v="409003" />
	</node>
	<node id="-257190" lat="59.9873444415" lon="11.2826916583">
		<tag k="name" v="Fossum stasjon" />
		<tag k="railway" v="station" />
		<tag k="ssr:stedsnr" v="118619" />
		<tag k="train" v="yes" />
	</node>
	<node id="-257189" lat="60.0224472191" lon="11.1166611185">
		<tag k="junction" v="yes" />
		<tag k="name" v="Hval" />
		<tag k="place" v="locality" />
		<tag k="ssr:stedsnr" v="117808" />
	</node>
	<node id="-257181" lat="59.9236499968" lon="11.1919916679">
		<tag k="junction" v="yes" />
		<tag k="name" v="Ramstad" />
		<tag k="place" v="locality" />
		<tag k="ssr:stedsnr" v="101860" />
	</node>
	<node id="-257050" lat="59.9519888919" lon="11.3308888839">
		<tag k="junction" v="yes" />
		<tag k="name" v="Mork" />
		<tag k="place" v="locality" />
		<tag k="ssr:stedsnr" v="222416" />
	</node>
	<node id="-259222" lat="59.990022225" lon="11.2649805646">
		<tag k="landuse" v="industrial" />
		<tag k="name" v="Bingsfoss kraftanlegg" />
		<tag k="power" v="plant" />
		<tag k="ssr:stedsnr" v="846722" />
	</node>
	<node id="-258585" lat="60.0229131842" lon="11.1034081087">
		<tag k="alt_name" v="Frogner" />
		<tag k="name" v="Frogner stasjon" />
		<tag k="railway" v="station" />
		<tag k="ssr:stedsnr" v="309935" />
		<tag k="train" v="yes" />
	</node>
	<node id="-258704" lat="59.9429333333" lon="11.1027972157">
		<tag k="alt_name" v="Tuen" />
		<tag k="name" v="Tuen holdeplass" />
		<tag k="railway" v="halt" />
		<tag k="ssr:stedsnr" v="389982" />
		<tag k="train" v="yes" />
	</node>
	<node id="-259214" lat="59.9865944485" lon="11.2510500035">
		<tag k="junction" v="yes" />
		<tag k="name" v="Sørumsand" />
		<tag k="place" v="locality" />
		<tag k="ssr:stedsnr" v="846648" />
	</node>
	<node id="-258187" lat="59.9914388906" lon="11.3201500089">
		<tag k="bridge" v="yes" />
		<tag k="layer" v="1" />
		<tag k="name" v="Huseby" />
		<tag k="ssr:stedsnr" v="46041" />
	</node>
	<node id="-258186" lat="59.9243916622" lon="11.1586166663">
		<tag k="bridge" v="yes" />
		<tag k="layer" v="1" />
		<tag k="name" v="Fetsund" />
		<tag k="ssr:stedsnr" v="46035" />
	</node>
	<node id="-258184" lat="59.9428194449" lon="11.1284416663">
		<tag k="bridge" v="yes" />
		<tag k="layer" v="1" />
		<tag k="name" v="Merkja" />
		<tag k="ssr:stedsnr" v="46029" />
	</node>
	<node id="-258183" lat="60.0073916697" lon="11.0505083392">
		<tag k="bridge" v="yes" />
		<tag k="layer" v="1" />
		<tag k="name" v="Høgslund" />
		<tag k="ssr:stedsnr" v="45023" />
	</node>
	<node id="-258182" lat="59.9573722247" lon="11.0305333312">
		<tag k="bridge" v="yes" />
		<tag k="layer" v="1" />
		<tag k="name" v="Strand" />
		<tag k="ssr:stedsnr" v="45009" />
	</node>
	<node id="-258180" lat="60.0075999977" lon="11.2618611058">
		<tag k="junction" v="yes" />
		<tag k="name" v="Vall" />
		<tag k="place" v="locality" />
		<tag k="ssr:stedsnr" v="42038" />
	</node>
	<node id="-259198" lat="59.9674222221" lon="11.1167138898">
		<tag k="fixme" v="consider highway=path" />
		<tag k="highway" v="track" />
		<tag k="name" v="Steindalsvegen" />
		<tag k="ssr:stedsnr" v="844892" />
	</node>
	<node id="-259197" lat="60.0153444489" lon="11.1124833292">
		<tag k="bridge" v="yes" />
		<tag k="layer" v="1" />
		<tag k="name" v="Leirsundveien" />
		<tag k="ssr:stedsnr" v="835040" />
	</node>
	<node id="-258684" lat="59.9713555541" lon="11.032758342">
		<tag k="aeroway" v="aerodrome" />
		<tag k="alt_name" v="Kjeller" />
		<tag k="name" v="Kjeller flyplass" />
		<tag k="ssr:stedsnr" v="369477" />
	</node>
	<node id="-259185" lat="60.024186108" lon="11.289305553">
		<tag k="ford" v="yes" />
		<tag k="name" v="Steinsvadet" />
		<tag k="place" v="locality" />
		<tag k="ssr:stedsnr" v="831038" />
	</node>
	<node id="-259161" lat="60.0350499978" lon="10.9717583292">
		<tag k="highway" v="path" />
		<tag k="name" v="Vangveien" />
		<tag k="ssr:stedsnr" v="813006" />
	</node>
	<node id="-257293" lat="59.980266668" lon="11.0113194391">
		<tag k="bridge" v="yes" />
		<tag k="layer" v="1" />
		<tag k="name" v="Tandbergbygget" />
		<tag k="ssr:stedsnr" v="288008" />
	</node>
	<node id="-258629" lat="59.9658361103" lon="11.1651999987">
		<tag k="fixme" v="consider highway=path" />
		<tag k="highway" v="track" />
		<tag k="name" v="Jasemyrvegen" />
		<tag k="ssr:stedsnr" v="358883" />
	</node>
	<node id="-257092" lat="59.9270305546" lon="11.1624194411">
		<tag k="name" v="Fetsund stasjon" />
		<tag k="railway" v="station" />
		<tag k="ssr:stedsnr" v="239695" />
		<tag k="train" v="yes" />
	</node>
	<node id="-258627" lat="59.9193416661" lon="11.1833916621">
		<tag k="bridge" v="yes" />
		<tag k="layer" v="1" />
		<tag k="name" v="Kringen" />
		<tag k="ssr:stedsnr" v="349047" />
	</node>
	<node id="-257083" lat="59.9306972183" lon="11.2889805478">
		<tag k="name" v="Fjellgrinda" />
		<tag k="place" v="locality" />
		<tag k="ssr:stedsnr" v="239270" />
	</node>
	<node id="-257060" lat="59.9326166637" lon="11.1383027792">
		<tag k="bridge" v="yes" />
		<tag k="layer" v="1" />
		<tag k="name" v="Hovinbakken" />
		<tag k="ssr:stedsnr" v="228043" />
	</node>
	<node id="-258310" lat="59.961352781" lon="11.1376777784">
		<tag k="highway" v="path" />
		<tag k="name" v="Midtskogvegen" />
		<tag k="ssr:stedsnr" v="116885" />
	</node>
	<node id="-257563" lat="60.0392499985" lon="11.113119451">
		<tag k="bridge" v="yes" />
		<tag k="layer" v="1" />
		<tag k="name" v="Gran" />
		<tag k="ssr:stedsnr" v="471039" />
	</node>
	<node id="-257562" lat="59.9836805549" lon="11.2540305526">
		<tag k="bridge" v="yes" />
		<tag k="layer" v="1" />
		<tag k="name" v="Hobbybanen" />
		<tag k="ssr:stedsnr" v="471038" />
	</node>
	<node id="-257561" lat="59.9239166686" lon="11.1580277739">
		<tag k="bridge" v="yes" />
		<tag k="layer" v="1" />
		<tag k="name" v="Nedrum" />
		<tag k="ssr:stedsnr" v="471029" />
	</node>
	<node id="-257560" lat="59.8445972265" lon="11.2439833391">
		<tag k="bridge" v="yes" />
		<tag k="layer" v="1" />
		<tag k="name" v="Ulverud" />
		<tag k="ssr:stedsnr" v="471027" />
	</node>
	<node id="-257625" lat="59.9582999977" lon="11.01652778">
		<tag k="bridge" v="yes" />
		<tag k="layer" v="1" />
		<tag k="name" v="Sagelven" />
		<tag k="ssr:stedsnr" v="531009" />
	</node>
	<node id="-259093" lat="60.0211083306" lon="11.2158000029">
		<tag k="junction" v="yes" />
		<tag k="name" v="Nordli" />
		<tag k="place" v="locality" />
		<tag k="ssr:stedsnr" v="785951" />
	</node>
>>>>>>> e1d4bc35ff8a6074a6f2e91616a996b547c36f15
</osm>
