<?xml version="1.0" encoding="UTF-8"?>
<osm version="0.6" generator="osmapis">
	<node id="249162202" lat="67.9324675" lon="13.0887684" version="11" timestamp="2022-08-05T09:53:35Z" changeset="124514773" uid="4611642" user="miroslavuzice87">
		<tag k="name" v="Reine" />
		<tag k="name:ru" v="Рейне" />
		<tag k="name:zh" v="雷纳" />
		<tag k="place" v="village" />
		<tag k="population" v="302" />
		<tag k="population:date" v="2021-01-01" />
		<tag k="ref:ssb_tettsted" v="7871" />
		<tag k="source:population" v="SSB - befolkning i tettstedet" />
		<tag k="ssr:stedsnr" v="684485" />
		<tag k="wikidata" v="Q593597" />
		<tag k="wikipedia" v="en:Reine" />
	</node>
	<node id="249162211" lat="67.9023396" lon="13.0418706" version="4" timestamp="2022-06-22T17:40:42Z" changeset="122722130" uid="3497659" user="NKA">
		<tag k="name" v="Moskenes" />
		<tag k="name:ru" v="Москенес" />
		<tag k="place" v="village" />
		<tag k="ssr:stedsnr" v="623395" />
	</node>
	<node id="249162213" lat="67.9460833" lon="13.132594" version="5" timestamp="2022-06-22T17:40:42Z" changeset="122722130" uid="3497659" user="NKA">
		<tag k="name" v="Hamnøya" />
		<tag k="name:ru" v="Хамноя" />
		<tag k="place" v="village" />
		<tag k="ssr:stedsnr" v="684478" />
	</node>
	<node id="249162214" lat="67.8796157" lon="12.9840442" version="9" timestamp="2022-06-22T17:40:42Z" changeset="122722130" uid="3497659" user="NKA">
		<tag k="alt_name" v="Å i Lofoten" />
		<tag k="name" v="Å" />
		<tag k="name:ru" v="O" />
		<tag k="place" v="village" />
		<tag k="ssr:stedsnr" v="744377" />
	</node>
	<node id="886662711" lat="67.9925176" lon="13.012833" version="4" timestamp="2022-06-22T17:40:42Z" changeset="122722130" uid="3497659" user="NKA">
		<tag k="alt_name" v="Kirkefjord" />
		<tag k="name" v="Kjerkfjorden" />
		<tag k="place" v="hamlet" />
		<tag k="ssr:stedsnr" v="17335" />
	</node>
	<node id="886662720" lat="67.9621972" lon="13.0463361" version="4" timestamp="2022-06-22T17:40:42Z" changeset="122722130" uid="3497659" user="NKA">
		<tag k="name" v="Rostad" />
		<tag k="place" v="hamlet" />
		<tag k="ssr:stedsnr" v="867481" />
	</node>
	<node id="1333499003" lat="67.9587305" lon="13.0037751" version="4" timestamp="2022-06-22T17:40:42Z" changeset="122722130" uid="3497659" user="NKA">
		<tag k="name" v="Vindstad" />
		<tag k="name:ru" v="Винстад" />
		<tag k="place" v="hamlet" />
		<tag k="ssr:stedsnr" v="684466" />
	</node>
	<node id="1599078849" lat="67.8896342" lon="13.0163707" version="7" timestamp="2022-06-22T17:40:42Z" changeset="122722130" uid="3497659" user="NKA">
		<tag k="name" v="Sørvågen" />
		<tag k="name:ru" v="Сёрвоген" />
		<tag k="place" v="village" />
		<tag k="population" v="415" />
		<tag k="population:date" v="2021-01-01" />
		<tag k="ref:ssb_tettsted" v="7872" />
		<tag k="source:population" v="SSB - befolkning i tettstedet" />
		<tag k="ssr:stedsnr" v="806389" />
	</node>
	<node id="1825074448" lat="67.885058" lon="12.9981805" version="3" timestamp="2022-06-22T17:40:42Z" changeset="122722130" uid="3497659" user="NKA">
		<tag k="name" v="Tind" />
		<tag k="name:ru" v="Тинд" />
		<tag k="place" v="hamlet" />
		<tag k="ssr:stedsnr" v="501380" />
	</node>
	<node id="9839402855" lat="67.9333611" lon="13.0736583" version="1" timestamp="2022-06-22T17:40:42Z" changeset="122722130" uid="3497659" user="NKA">
		<tag k="loc_name" v="Marka" />
		<tag k="name" v="Marken V" />
		<tag k="place" v="hamlet" />
		<tag k="ssr:stedsnr" v="534401" />
	</node>
	<node id="9839402856" lat="67.9446584" lon="12.9911416" version="1" timestamp="2022-06-22T17:40:42Z" changeset="122722130" uid="3497659" user="NKA">
		<tag k="name" v="Hoffstad" />
		<tag k="place" v="locality" />
		<tag k="ssr:stedsnr" v="657474" />
	</node>
	<node id="9839402857" lat="67.9597139" lon="12.9153001" version="1" timestamp="2022-06-22T17:40:42Z" changeset="122722130" uid="3497659" user="NKA">
		<tag k="name" v="Hermannsdal" />
		<tag k="place" v="locality" />
		<tag k="ssr:stedsnr" v="839063" />
	</node>
	<node id="9839402858" lat="67.9633033" lon="13.050666" version="1" timestamp="2022-06-22T17:40:42Z" changeset="122722130" uid="3497659" user="NKA">
		<tag k="name" v="Bisselvåg" />
		<tag k="place" v="locality" />
		<tag k="ssr:stedsnr" v="1075902" />
	</node>
	<node id="9839402859" lat="67.8445942" lon="12.8859839" version="1" timestamp="2022-06-22T17:40:42Z" changeset="122722130" uid="3497659" user="NKA">
		<tag k="name" v="Tuv" />
		<tag k="place" v="locality" />
		<tag k="ssr:stedsnr" v="684086" />
	</node>
	<node id="9839402860" lat="67.8848104" lon="12.995758" version="1" timestamp="2022-06-22T17:40:42Z" changeset="122722130" uid="3497659" user="NKA">
		<tag k="name" v="Tindsgården" />
		<tag k="place" v="farm" />
		<tag k="ssr:stedsnr" v="717352" />
	</node>
	<node id="9839402861" lat="67.9533429" lon="13.1197833" version="1" timestamp="2022-06-22T17:40:42Z" changeset="122722130" uid="3497659" user="NKA">
		<tag k="alt_name" v="Festhelen" />
		<tag k="name" v="Festhælen" />
		<tag k="place" v="farm" />
		<tag k="ssr:stedsnr" v="563467" />
	</node>
	<node id="9839402862" lat="67.9699556" lon="12.98215" version="1" timestamp="2022-06-22T17:40:42Z" changeset="122722130" uid="3497659" user="NKA">
		<tag k="name" v="Bunesfjorden" />
		<tag k="place" v="isolated_dwelling" />
		<tag k="ssr:stedsnr" v="563438" />
	</node>
	<node id="9839402863" lat="67.9511657" lon="13.1319296" version="1" timestamp="2022-06-22T17:40:42Z" changeset="122722130" uid="3497659" user="NKA">
		<tag k="name" v="Hella" />
		<tag k="place" v="farm" />
		<tag k="ssr:stedsnr" v="655403" />
	</node>
	<node id="9839402864" lat="67.9164556" lon="13.0388833" version="1" timestamp="2022-06-22T17:40:42Z" changeset="122722130" uid="3497659" user="NKA">
		<tag k="name" v="Oliannaplassen" />
		<tag k="place" v="locality" />
		<tag k="ssr:stedsnr" v="293339" />
	</node>
	<node id="9839402865" lat="67.8810847" lon="12.9802349" version="1" timestamp="2022-06-22T17:40:42Z" changeset="122722130" uid="3497659" user="NKA">
		<tag k="name" v="Å-gården" />
		<tag k="place" v="farm" />
		<tag k="ssr:stedsnr" v="171677" />
	</node>
	<node id="9839402866" lat="67.888111" lon="13.0118953" version="1" timestamp="2022-06-22T17:40:42Z" changeset="122722130" uid="3497659" user="NKA">
		<tag k="name" v="Flathaug" />
		<tag k="place" v="farm" />
		<tag k="ssr:stedsnr" v="1076934" />
	</node>
	<node id="9839402867" lat="67.9204639" lon="13.0464529" version="1" timestamp="2022-06-22T17:40:42Z" changeset="122722130" uid="3497659" user="NKA">
		<tag k="name" v="Neset" />
		<tag k="place" v="locality" />
		<tag k="ssr:stedsnr" v="171263" />
	</node>
	<node id="9839402868" lat="67.9370389" lon="13.0712055" version="1" timestamp="2022-06-22T17:40:42Z" changeset="122722130" uid="3497659" user="NKA">
		<tag k="loc_name" v="Marka" />
		<tag k="name" v="Marken Ø" />
		<tag k="place" v="hamlet" />
		<tag k="ssr:stedsnr" v="292379" />
	</node>
	<node id="9839402869" lat="68.0279886" lon="12.9957648" version="1" timestamp="2022-06-22T17:40:42Z" changeset="122722130" uid="3497659" user="NKA">
		<tag k="name" v="Horseid" />
		<tag k="place" v="locality" />
		<tag k="ssr:stedsnr" v="260031" />
	</node>
	<node id="9839402870" lat="67.9191137" lon="13.0402005" version="1" timestamp="2022-06-22T17:40:42Z" changeset="122722130" uid="3497659" user="NKA">
		<tag k="name" v="Djupfjorden" />
		<tag k="place" v="isolated_dwelling" />
		<tag k="ssr:stedsnr" v="320389" />
	</node>
	<node id="9839402871" lat="67.8406861" lon="12.8812861" version="1" timestamp="2022-06-22T17:40:42Z" changeset="122722130" uid="3497659" user="NKA">
		<tag k="name" v="Indretuven" />
		<tag k="place" v="locality" />
		<tag k="ssr:stedsnr" v="623099" />
	</node>
	<node id="9839402872" lat="67.9791224" lon="12.9541345" version="1" timestamp="2022-06-22T17:40:42Z" changeset="122722130" uid="3497659" user="NKA">
		<tag k="name" v="Buneset" />
		<tag k="place" v="farm" />
		<tag k="ssr:stedsnr" v="78438" />
	</node>
	<node id="9839402873" lat="67.942336" lon="13.0991713" version="1" timestamp="2022-06-22T17:40:42Z" changeset="122722130" uid="3497659" user="NKA">
		<tag k="name" v="Myran" />
		<tag k="place" v="hamlet" />
		<tag k="ssr:stedsnr" v="777385" />
	</node>
	<node id="9839402874" lat="67.9356094" lon="13.0736899" version="1" timestamp="2022-06-22T17:40:42Z" changeset="122722130" uid="3497659" user="NKA">
		<tag k="name" v="Solbakken" />
		<tag k="place" v="farm" />
		<tag k="ssr:stedsnr" v="768356" />
	</node>
	<node id="9839402875" lat="67.8533534" lon="12.8988981" version="2" timestamp="2022-08-02T14:14:56Z" changeset="124394444" uid="3545112" user="Woazboat">
		<tag k="name" v="Ånstad" />
		<tag k="place" v="isolated_dwelling" />
		<tag k="ssr:stedsnr" v="320429" />
	</node>
	<node id="9839402876" lat="67.8485128" lon="12.8471239" version="1" timestamp="2022-06-22T17:40:42Z" changeset="122722130" uid="3497659" user="NKA">
		<tag k="name" v="Refsvika" />
		<tag k="place" v="locality" />
		<tag k="ssr:stedsnr" v="1075899" />
	</node>
	<node id="9839402877" lat="67.8296983" lon="12.8158963" version="1" timestamp="2022-06-22T17:40:42Z" changeset="122722130" uid="3497659" user="NKA">
		<tag k="name" v="Helle" />
		<tag k="place" v="locality" />
		<tag k="ssr:stedsnr" v="320085" />
	</node>
</osm>
