<?xml version="1.0" encoding="UTF-8"?>
<osm version="0.6" generator="osmapis">
	<node lat="60.47873333590289" lon="5.2132694398588715" id="-68077">
		<tag k="fixme" v="consider place=hamlet" />
		<tag k="name" v="Ask" />
		<tag k="place" v="village" />
		<tag k="ssr:stedsnr" v="5367" />
	</node>
	<node lat="60.45933055944694" lon="5.231805563898597" id="-68079">
		<tag k="fixme" v="consider place=hamlet" />
		<tag k="name" v="Straumsnes" />
		<tag k="place" v="farm" />
		<tag k="ssr:stedsnr" v="5534" />
	</node>
	<node lat="60.41603455857193" lon="5.207053899668528" id="-68080">
		<tag k="alt_name" v="Kleppe, øvre" />
		<tag k="fixme" v="consider place=hamlet" />
		<tag k="name" v="Øvre Kleppe" />
		<tag k="place" v="farm" />
		<tag k="ssr:stedsnr" v="5564" />
	</node>
	<node lat="60.41464166766518" lon="5.18504999162451" id="-68081">
		<tag k="name" v="Sørbø" />
		<tag k="place" v="farm" />
		<tag k="ssr:stedsnr" v="5566" />
	</node>
	<node lat="60.55376900577476" lon="4.967460004257258" id="-68087">
		<tag k="fixme" v="consider place=hamlet" />
		<tag k="name" v="Håpoldøy" />
		<tag k="place" v="farm" />
		<tag k="ssr:stedsnr" v="6714" />
	</node>
	<node lat="60.424336108913366" lon="5.200833337386798" id="-68111">
		<tag k="name" v="Træet" />
		<tag k="place" v="farm" />
		<tag k="ssr:stedsnr" v="46701" />
	</node>
	<node lat="60.47301111530555" lon="5.222108340788849" id="-68122">
		<tag k="name" v="Bergstad" />
		<tag k="place" v="farm" />
		<tag k="ssr:stedsnr" v="66404" />
	</node>
	<node lat="60.47505987727133" lon="5.201878315446211" id="-68123">
		<tag k="fixme" v="consider place=hamlet" />
		<tag k="name" v="Sørli" />
		<tag k="place" v="farm" />
		<tag k="ssr:stedsnr" v="66400" />
	</node>
	<node lat="60.416650000592426" lon="5.184502785000487" id="-68124">
		<tag k="name" v="Nordbø" />
		<tag k="place" v="farm" />
		<tag k="ssr:stedsnr" v="66596" />
	</node>
	<node lat="60.52649162519114" lon="5.003392222462026" id="-68125">
		<tag k="name" v="Bekken" />
		<tag k="place" v="isolated_dwelling" />
		<tag k="ssr:stedsnr" v="67689" />
	</node>
	<node lat="60.50875000423862" lon="5.085527770292528" id="-68127">
		<tag k="alt_name" v="Træet" />
		<tag k="fixme" v="consider place=suburb, village or hamlet" />
		<tag k="name" v="Trædet" />
		<tag k="place" v="quarter" />
		<tag k="ssr:stedsnr" v="67699" />
	</node>
	<node lat="60.53216388489713" lon="5.025830551431194" id="-68128">
		<tag k="alt_name" v="Ådlandsviki" />
		<tag k="fixme" v="consider place=hamlet" />
		<tag k="name" v="Ådlandsvik" />
		<tag k="place" v="farm" />
		<tag k="ssr:stedsnr" v="67713" />
	</node>
	<node lat="60.52632777510448" lon="5.002083340031921" id="-68129">
		<tag k="name" v="Bekkestø" />
		<tag k="place" v="farm" />
		<tag k="ssr:stedsnr" v="85409" />
	</node>
	<node lat="60.49045802218575" lon="5.138198509310097" id="-68134">
		<tag k="fixme" v="consider place=hamlet" />
		<tag k="name" v="Åsebø" />
		<tag k="place" v="farm" />
		<tag k="ssr:stedsnr" v="248378" />
	</node>
	<node lat="60.50170555526994" lon="5.159349997630896" id="-68137">
		<tag k="name" v="Sæterstølen" />
		<tag k="place" v="farm" />
		<tag k="ssr:stedsnr" v="248489" />
	</node>
	<node lat="60.410225002294716" lon="5.154361104173465" id="-68138">
		<tag k="fixme" v="consider place=suburb, village or hamlet" />
		<tag k="name" v="Follese" />
		<tag k="place" v="quarter" />
		<tag k="ssr:stedsnr" v="248587" />
	</node>
	<node lat="60.41803610886202" lon="5.222113882560811" id="-68142">
		<tag k="name" v="Myrane" />
		<tag k="place" v="farm" />
		<tag k="ssr:stedsnr" v="248640" />
	</node>
	<node lat="60.566277777893966" lon="4.958997214407503" id="-68147">
		<tag k="name" v="Kringla" />
		<tag k="place" v="farm" />
		<tag k="ssr:stedsnr" v="105935" />
	</node>
	<node lat="60.48485277368783" lon="5.208302774094492" id="-68150">
		<tag k="name" v="Minde" />
		<tag k="place" v="farm" />
		<tag k="ssr:stedsnr" v="106510" />
	</node>
	<node lat="60.553972225474375" lon="4.992169449524357" id="-68176">
		<tag k="name" v="Hestnes" />
		<tag k="place" v="farm" />
		<tag k="ssr:stedsnr" v="113293" />
	</node>
	<node lat="60.50952777401055" lon="5.130769449476544" id="-68185">
		<tag k="name" v="Sletteviki" />
		<tag k="place" v="farm" />
		<tag k="ssr:stedsnr" v="127549" />
	</node>
	<node lat="60.42317777708074" lon="5.1754333399226535" id="-68188">
		<tag k="name" v="Solberg" />
		<tag k="place" v="isolated_dwelling" />
		<tag k="ssr:stedsnr" v="145721" />
	</node>
	<node lat="60.51677920386111" lon="5.019919240145045" id="-68189">
		<tag k="fixme" v="consider place=hamlet" />
		<tag k="name" v="Lille Fauskanger" />
		<tag k="old_name" v="Litla Fauskanger" />
		<tag k="place" v="farm" />
		<tag k="ssr:stedsnr" v="146460" />
	</node>
	<node lat="60.40864722637462" lon="5.191138883864368" id="-68204">
		<tag k="name" v="Storhaugen" />
		<tag k="place" v="farm" />
		<tag k="ssr:stedsnr" v="166876" />
	</node>
	<node lat="60.412411108038555" lon="5.149641658703091" id="-68205">
		<tag k="name" v="Haugen" />
		<tag k="place" v="farm" />
		<tag k="ssr:stedsnr" v="166909" />
	</node>
	<node lat="60.52240277855173" lon="5.029666672402579" id="-68214">
		<tag k="name" v="Hestetrædet" />
		<tag k="old_name" v="Hæstetrædet" />
		<tag k="place" v="farm" />
		<tag k="ssr:stedsnr" v="188706" />
	</node>
	<node lat="60.490632144397296" lon="5.143369348150045" id="-68219">
		<tag k="name" v="Neset" />
		<tag k="place" v="farm" />
		<tag k="ssr:stedsnr" v="227339" />
	</node>
	<node lat="60.44686388721028" lon="5.134438896600725" id="-68229">
		<tag k="name" v="Tveitevåg" />
		<tag k="place" v="farm" />
		<tag k="ssr:stedsnr" v="227611" />
	</node>
	<node lat="60.43867222567615" lon="5.17223332733599" id="-68240">
		<tag k="name" v="Øvrebø" />
		<tag k="place" v="farm" />
		<tag k="ssr:stedsnr" v="227893" />
	</node>
	<node lat="60.4184888888711" lon="5.176683331833993" id="-68242">
		<tag k="name" v="Minde" />
		<tag k="place" v="farm" />
		<tag k="ssr:stedsnr" v="227898" />
	</node>
	<node lat="60.51233174224057" lon="5.035882659835709" id="-68245">
		<tag k="fixme" v="consider place=hamlet" />
		<tag k="name" v="Store Fauskanger" />
		<tag k="place" v="farm" />
		<tag k="ssr:stedsnr" v="449449" />
	</node>
	<node lat="60.44651666697422" lon="5.153052780614275" id="-68262">
		<tag k="name" v="Grønavik" />
		<tag k="place" v="farm" />
		<tag k="ssr:stedsnr" v="248569" />
	</node>
	<node lat="60.40430000039136" lon="5.1928166709352555" id="-68263">
		<tag k="fixme" v="consider place=hamlet" />
		<tag k="name" v="Strusshamn" />
		<tag k="place" v="village" />
		<tag k="ssr:stedsnr" v="248601" />
	</node>
	<node lat="60.456817202579415" lon="5.225287175283364" id="-68266">
		<tag k="name" v="Olavik" />
		<tag k="place" v="farm" />
		<tag k="ssr:stedsnr" v="268503" />
	</node>
	<node lat="60.44544722675989" lon="5.123086119356315" id="-68268">
		<tag k="name" v="Søre Eid" />
		<tag k="place" v="isolated_dwelling" />
		<tag k="ssr:stedsnr" v="268889" />
	</node>
	<node lat="60.415169440690256" lon="5.147313896741191" id="-68273">
		<tag k="name" v="Knutmannshaugen" />
		<tag k="place" v="farm" />
		<tag k="ssr:stedsnr" v="287890" />
	</node>
	<node lat="60.40940833399219" lon="5.228883324332351" id="-68277">
		<tag k="name" v="Løfjellet" />
		<tag k="place" v="farm" />
		<tag k="ssr:stedsnr" v="287932" />
	</node>
	<node lat="60.41929166789384" lon="5.199477770425054" id="-68283">
		<tag k="name" v="Haugen" />
		<tag k="place" v="farm" />
		<tag k="ssr:stedsnr" v="288227" />
	</node>
	<node lat="60.41124166267768" lon="5.15047222706546" id="-68290">
		<tag k="name" v="Ekrena" />
		<tag k="place" v="farm" />
		<tag k="ssr:stedsnr" v="288912" />
	</node>
	<node lat="60.447938886475484" lon="5.222697217156883" id="-68302">
		<tag k="name" v="Myrane" />
		<tag k="place" v="farm" />
		<tag k="ssr:stedsnr" v="309536" />
	</node>
	<node lat="60.415024998185025" lon="5.232986114280654" id="-68304">
		<tag k="name" v="Kleiven" />
		<tag k="place" v="farm" />
		<tag k="ssr:stedsnr" v="469924" />
	</node>
	<node lat="60.420558331692234" lon="5.182944441103819" id="-68307">
		<tag k="name" v="Ospeli" />
		<tag k="place" v="farm" />
		<tag k="ssr:stedsnr" v="469249" />
	</node>
	<node lat="60.42272500332238" lon="5.180633334441833" id="-68318">
		<tag k="name" v="Kråkås" />
		<tag k="place" v="farm" />
		<tag k="ssr:stedsnr" v="329413" />
	</node>
	<node lat="60.41168332973029" lon="5.186138895626224" id="-68334">
		<tag k="name" v="Sørbø" />
		<tag k="place" v="farm" />
		<tag k="ssr:stedsnr" v="348258" />
	</node>
	<node lat="60.417975001162624" lon="5.217655553102313" id="-68367">
		<tag k="name" v="Heimdal" />
		<tag k="place" v="farm" />
		<tag k="ssr:stedsnr" v="388698" />
	</node>
	<node lat="60.46042222451211" lon="5.2313305482595585" id="-68390">
		<tag k="name" v="Nygård" />
		<tag k="place" v="farm" />
		<tag k="ssr:stedsnr" v="409889" />
	</node>
	<node lat="60.44701111535225" lon="5.160341669702427" id="-68391">
		<tag k="historic" v="shieling" />
		<tag k="name" v="Fjellheim" />
		<tag k="place" v="isolated_dwelling" />
		<tag k="ssr:stedsnr" v="409896" />
	</node>
	<node lat="60.51723888489275" lon="5.027605547489515" id="-68401">
		<tag k="name" v="Litlestølen" />
		<tag k="old_name" v="Lillestølen" />
		<tag k="place" v="farm" />
		<tag k="ssr:stedsnr" v="421021" />
	</node>
	<node lat="60.410588889196255" lon="5.228977775362068" id="-68406">
		<tag k="name" v="Strand" />
		<tag k="place" v="farm" />
		<tag k="ssr:stedsnr" v="490555" />
	</node>
	<node lat="60.47111110754166" lon="5.202774994955538" id="-68411">
		<tag k="name" v="Sætre" />
		<tag k="place" v="farm" />
		<tag k="ssr:stedsnr" v="430416" />
	</node>
	<node lat="60.4989944477938" lon="5.166583340580485" id="-68412">
		<tag k="name" v="Sæterstølen" />
		<tag k="place" v="isolated_dwelling" />
		<tag k="ssr:stedsnr" v="430452" />
	</node>
	<node lat="60.513225000808106" lon="5.085477781592105" id="-68422">
		<tag k="name" v="Haugland" />
		<tag k="place" v="hamlet" />
		<tag k="ssr:stedsnr" v="431693" />
	</node>
	<node lat="60.39247499623897" lon="5.176855556776098" id="-68432">
		<tag k="fixme" v="consider place=suburb, village or hamlet" />
		<tag k="name" v="Marikoven" />
		<tag k="place" v="quarter" />
		<tag k="ssr:stedsnr" v="491664" />
	</node>
	<node lat="60.46071944456894" lon="5.142375007650744" id="-68437">
		<tag k="fixme" v="consider place=hamlet" />
		<tag k="name" v="Tveit" />
		<tag k="place" v="farm" />
		<tag k="ssr:stedsnr" v="672388" />
	</node>
	<node lat="60.464500004220504" lon="5.14684165752304" id="-68438">
		<tag k="name" v="Haugen" />
		<tag k="place" v="farm" />
		<tag k="ssr:stedsnr" v="672391" />
	</node>
	<node lat="60.51933055581706" lon="5.021347224043985" id="-68451">
		<tag k="name" v="Skaret" />
		<tag k="place" v="farm" />
		<tag k="ssr:stedsnr" v="469270" />
	</node>
	<node lat="60.52418611238185" lon="5.059180555595119" id="-68452">
		<tag k="name" v="Storhaugen" />
		<tag k="place" v="farm" />
		<tag k="ssr:stedsnr" v="469280" />
	</node>
	<node lat="60.418802775237246" lon="5.234544447799116" id="-68463">
		<tag k="name" v="Hagen" />
		<tag k="place" v="farm" />
		<tag k="ssr:stedsnr" v="470631" />
	</node>
	<node lat="60.42134295288837" lon="5.180216523743178" id="-68478">
		<tag k="fixme" v="consider place=hamlet" />
		<tag k="name" v="Kråkås" />
		<tag k="place" v="farm" />
		<tag k="ssr:stedsnr" v="490604" />
	</node>
	<node lat="60.42006389014739" lon="5.182958341714547" id="-68490">
		<tag k="name" v="Kråkås" />
		<tag k="place" v="farm" />
		<tag k="ssr:stedsnr" v="511418" />
	</node>
	<node lat="60.41441388905111" lon="5.225688895430084" id="-68497">
		<tag k="name" v="Solhola" />
		<tag k="place" v="quarter" />
		<tag k="ssr:stedsnr" v="530292" />
	</node>
	<node lat="60.412336108482926" lon="5.222202773435505" id="-68498">
		<tag k="fixme" v="consider place=hamlet" />
		<tag k="name" v="Kleppestø" />
		<tag k="place" v="farm" />
		<tag k="ssr:stedsnr" v="530297" />
	</node>
	<node lat="60.41980833061563" lon="5.145683336654062" id="-68527">
		<tag k="name" v="Eide" />
		<tag k="place" v="hamlet" />
		<tag k="ssr:stedsnr" v="551604" />
	</node>
	<node lat="60.536933334437386" lon="5.022397216415469" id="-68532">
		<tag k="name" v="Søra Abedissa" />
		<tag k="place" v="farm" />
		<tag k="ssr:stedsnr" v="692468" />
	</node>
	<node lat="60.50386389210224" lon="5.143005563470012" id="-68558">
		<tag k="alt_name" v="Skjelviki" />
		<tag k="name" v="Skjelvika" />
		<tag k="place" v="hamlet" />
		<tag k="ssr:stedsnr" v="612528" />
	</node>
	<node lat="60.446316669019076" lon="5.22630555438087" id="-68559">
		<tag k="alt_name" v="Nordre Erdal" />
		<tag k="name" v="Norderdal" />
		<tag k="place" v="farm" />
		<tag k="ssr:stedsnr" v="612532" />
	</node>
	<node lat="60.4325283066269" lon="5.186724176226606" id="-68560">
		<tag k="name" v="Fjellheim" />
		<tag k="place" v="farm" />
		<tag k="ssr:stedsnr" v="612624" />
	</node>
	<node lat="60.406525003171936" lon="5.220511105180043" id="-68566">
		<tag k="alt_name" v="Holmedalen" />
		<tag k="name" v="Holmedal" />
		<tag k="place" v="isolated_dwelling" />
		<tag k="ssr:stedsnr" v="632708" />
	</node>
	<node lat="60.40263610830103" lon="5.203908336981713" id="-68576">
		<tag k="historic" v="shieling" />
		<tag k="name" v="Stølen" />
		<tag k="place" v="isolated_dwelling" />
		<tag k="ssr:stedsnr" v="651947" />
	</node>
	<node lat="60.442897226784744" lon="5.175825008321462" id="-68586">
		<tag k="name" v="Solheim" />
		<tag k="place" v="farm" />
		<tag k="ssr:stedsnr" v="652908" />
	</node>
	<node lat="60.40074166541288" lon="5.181713883482256" id="-68589">
		<tag k="alt_name" v="Skiftesvik" />
		<tag k="name" v="Skiftesvika" />
		<tag k="place" v="farm" />
		<tag k="ssr:stedsnr" v="672563" />
	</node>
	<node lat="60.44381098559011" lon="5.076345541914391" id="-68590">
		<tag k="alt_name" v="Hanøyni" />
		<tag k="fixme" v="consider place=hamlet" />
		<tag k="name" v="Hanøy" />
		<tag k="place" v="farm" />
		<tag k="ssr:stedsnr" v="673174" />
	</node>
	<node lat="60.42798888816738" lon="5.196063887915675" id="-68593">
		<tag k="name" v="Norddal" />
		<tag k="place" v="farm" />
		<tag k="ssr:stedsnr" v="673631" />
	</node>
	<node lat="60.53410243693734" lon="4.9982762281622275" id="-68599">
		<tag k="alt_name" v="Skråmestøi" />
		<tag k="fixme" v="consider place=hamlet" />
		<tag k="name" v="Skråmestø" />
		<tag k="place" v="farm" />
		<tag k="ssr:stedsnr" v="674716" />
	</node>
	<node lat="60.41814721780321" lon="5.202958330323914" id="-68601">
		<tag k="name" v="Nyestykket" />
		<tag k="place" v="farm" />
		<tag k="ssr:stedsnr" v="894287" />
	</node>
	<node lat="60.48922278753693" lon="5.2011741057931" id="-68602">
		<tag k="alt_name" v="Lilleholten" />
		<tag k="name" v="Litleholten" />
		<tag k="place" v="farm" />
		<tag k="ssr:stedsnr" v="894390" />
	</node>
	<node lat="60.45442427651187" lon="5.121968559756316" id="-68653">
		<tag k="fixme" v="consider place=hamlet" />
		<tag k="name" v="Kollevåg" />
		<tag k="place" v="farm" />
		<tag k="ssr:stedsnr" v="712301" />
	</node>
	<node lat="60.407688884680525" lon="5.169905555587546" id="-68681">
		<tag k="name" v="Stølen" />
		<tag k="place" v="isolated_dwelling" />
		<tag k="ssr:stedsnr" v="733547" />
	</node>
	<node lat="60.454258330402126" lon="5.221049997284884" id="-68682">
		<tag k="name" v="Lia" />
		<tag k="place" v="farm" />
		<tag k="ssr:stedsnr" v="733513" />
	</node>
	<node lat="60.42637500328041" lon="5.1704166668101195" id="-68685">
		<tag k="name" v="Kråkåshaugen" />
		<tag k="place" v="farm" />
		<tag k="ssr:stedsnr" v="734636" />
	</node>
	<node lat="60.50236424234564" lon="5.076080302591008" id="-68686">
		<tag k="alt_name" v="Frommereid" />
		<tag k="fixme" v="consider place=hamlet" />
		<tag k="name" v="Fromreide" />
		<tag k="place" v="farm" />
		<tag k="ssr:stedsnr" v="734703" />
	</node>
	<node lat="60.532957592497326" lon="4.986618811979044" id="-68688">
		<tag k="fixme" v="consider place=hamlet" />
		<tag k="name" v="Oksneset" />
		<tag k="place" v="farm" />
		<tag k="ssr:stedsnr" v="734715" />
	</node>
	<node lat="60.538933331844994" lon="5.0132472228696985" id="-68692">
		<tag k="name" v="Nordra Abedissa" />
		<tag k="place" v="farm" />
		<tag k="ssr:stedsnr" v="753462" />
	</node>
	<node lat="60.39376388509743" lon="5.168933328978117" id="-68697">
		<tag k="name" v="Signalen" />
		<tag k="place" v="farm" />
		<tag k="ssr:stedsnr" v="773379" />
	</node>
	<node lat="60.53920278157984" lon="5.023811108193011" id="-68705">
		<tag k="name" v="Nordre Abbedissen" />
		<tag k="place" v="farm" />
		<tag k="ssr:stedsnr" v="773907" />
	</node>
	<node lat="60.420975003859205" lon="5.238486104461275" id="-68728">
		<tag k="name" v="Florvåg" />
		<tag k="place" v="village" />
		<tag k="ssr:stedsnr" v="794619" />
	</node>
	<node lat="60.46441111457787" lon="5.220924992046059" id="-68733">
		<tag k="name" v="Haugane" />
		<tag k="place" v="farm" />
		<tag k="ssr:stedsnr" v="915396" />
	</node>
	<node lat="60.46231388518511" lon="5.197761108092618" id="-68734">
		<tag k="name" v="Vangen" />
		<tag k="place" v="farm" />
		<tag k="ssr:stedsnr" v="915397" />
	</node>
	<node lat="60.465094448542196" lon="5.077680552004598" id="-68737">
		<tag k="alt_name" v="Breidvik" />
		<tag k="fixme" v="consider place=suburb, village or hamlet" />
		<tag k="name" v="Breivik" />
		<tag k="place" v="quarter" />
		<tag k="ssr:stedsnr" v="915134" />
	</node>
	<node lat="60.4348722255914" lon="5.175730552582654" id="-68742">
		<tag k="name" v="Juvik" />
		<tag k="place" v="farm" />
		<tag k="ssr:stedsnr" v="916621" />
	</node>
	<node lat="60.46968889099903" lon="5.110444444721756" id="-68743">
		<tag k="fixme" v="consider place=hamlet" />
		<tag k="name" v="Davanger" />
		<tag k="place" v="village" />
		<tag k="ssr:stedsnr" v="916455" />
	</node>
	<node lat="60.42296388991284" lon="5.180102784188101" id="-68750">
		<tag k="name" v="Kråkås" />
		<tag k="place" v="farm" />
		<tag k="ssr:stedsnr" v="815417" />
	</node>
	<node lat="60.43775000231511" lon="5.05085555182774" id="-68752">
		<tag k="name" v="Gardkreken" />
		<tag k="place" v="farm" />
		<tag k="ssr:stedsnr" v="835677" />
	</node>
	<node lat="60.45155000299928" lon="5.2121777724329545" id="-68757">
		<tag k="name" v="Solheim" />
		<tag k="place" v="farm" />
		<tag k="ssr:stedsnr" v="855543" />
	</node>
	<node lat="60.46374999879172" lon="5.230869446425578" id="-68759">
		<tag k="name" v="Nyland" />
		<tag k="place" v="farm" />
		<tag k="ssr:stedsnr" v="855409" />
	</node>
	<node lat="60.43910555529418" lon="5.173644444664246" id="-68760">
		<tag k="name" v="Kråvik" />
		<tag k="place" v="farm" />
		<tag k="ssr:stedsnr" v="855502" />
	</node>
	<node lat="60.44263889005359" lon="5.227091659643141" id="-68764">
		<tag k="fixme" v="consider place=hamlet" />
		<tag k="name" v="Erdal" />
		<tag k="place" v="village" />
		<tag k="ssr:stedsnr" v="881928" />
	</node>
	<node lat="60.41601110790206" lon="5.214283341688611" id="-68771">
		<tag k="name" v="Austrheim" />
		<tag k="place" v="farm" />
		<tag k="ssr:stedsnr" v="894417" />
	</node>
	<node lat="60.48477777733296" lon="5.216425001155212" id="-68782">
		<tag k="name" v="Oldervik" />
		<tag k="place" v="farm" />
		<tag k="ssr:stedsnr" v="916406" />
	</node>
	<node lat="60.500275002190214" lon="5.051333340409362" id="-68784">
		<tag k="alt_name" v="Eikvåg" />
		<tag k="name" v="Eikevågen" />
		<tag k="place" v="farm" />
		<tag k="ssr:stedsnr" v="917627" />
	</node>
	<node lat="60.42357777669523" lon="5.193175008811364" id="-68813">
		<tag k="name" v="Vestgarden" />
		<tag k="place" v="farm" />
		<tag k="ssr:stedsnr" v="956692" />
	</node>
	<node lat="60.405638979009396" lon="5.194677592187771" id="-68825">
		<tag k="fixme" v="consider place=hamlet" />
		<tag k="name" v="Strusshamn" />
		<tag k="place" v="farm" />
		<tag k="ssr:stedsnr" v="989741" />
	</node>
	<node lat="60.40371589185157" lon="5.18777924608087" id="-68826">
		<tag k="fixme" v="consider place=hamlet" />
		<tag k="name" v="Neset" />
		<tag k="place" v="farm" />
		<tag k="ssr:stedsnr" v="989743" />
	</node>
	<node lat="60.41176772843683" lon="5.163185596591801" id="-68827">
		<tag k="fixme" v="consider place=hamlet" />
		<tag k="name" v="Follese" />
		<tag k="place" v="farm" />
		<tag k="ssr:stedsnr" v="989744" />
	</node>
	<node lat="60.42908098823958" lon="5.153305137924999" id="-68828">
		<tag k="fixme" v="consider place=hamlet" />
		<tag k="name" v="Hetlevik" />
		<tag k="place" v="farm" />
		<tag k="ssr:stedsnr" v="989745" />
	</node>
	<node lat="60.46057767787364" lon="5.153373467235987" id="-68829">
		<tag k="fixme" v="consider place=hamlet" />
		<tag k="name" v="Ravnanger" />
		<tag k="place" v="farm" />
		<tag k="ssr:stedsnr" v="989747" />
	</node>
	<node lat="60.47179417369088" lon="5.12087618289125" id="-68830">
		<tag k="fixme" v="consider place=hamlet" />
		<tag k="name" v="Davanger" />
		<tag k="place" v="farm" />
		<tag k="ssr:stedsnr" v="989748" />
	</node>
	<node lat="60.50244488295452" lon="5.158396279274598" id="-68831">
		<tag k="fixme" v="consider place=hamlet" />
		<tag k="name" v="Ask" />
		<tag k="place" v="farm" />
		<tag k="ssr:stedsnr" v="989749" />
	</node>
	<node lat="60.51848669085703" lon="5.017191669851765" id="-68832">
		<tag k="alt_name" v="Bakken" />
		<tag k="fixme" v="consider place=hamlet" />
		<tag k="name" v="Fauskangsbakken" />
		<tag k="place" v="farm" />
		<tag k="ssr:stedsnr" v="989750" />
	</node>
	<node lat="60.50858752429462" lon="5.082524544989559" id="-68833">
		<tag k="fixme" v="consider place=hamlet" />
		<tag k="name" v="Trædet" />
		<tag k="place" v="farm" />
		<tag k="ssr:stedsnr" v="989751" />
	</node>
	<node lat="60.49350413556314" lon="5.1520465536299405" id="-68838">
		<tag k="fixme" v="consider place=hamlet" />
		<tag k="name" v="Hanevik" />
		<tag k="place" v="farm" />
		<tag k="ssr:stedsnr" v="5376" />
	</node>
	<node lat="60.44666944317156" lon="5.133894451101335" id="-68840">
		<tag k="fixme" v="consider place=suburb, village or hamlet" />
		<tag k="name" v="Tveitevåg" />
		<tag k="place" v="quarter" />
		<tag k="ssr:stedsnr" v="5553" />
	</node>
	<node lat="60.42680833259158" lon="5.2395333255952545" id="-68842">
		<tag k="name" v="Bakarvågen" />
		<tag k="place" v="hamlet" />
		<tag k="ssr:stedsnr" v="5593" />
	</node>
	<node lat="60.4210094192768" lon="5.199653462334201" id="-68843">
		<tag k="alt_name" v="Kleppe, nedre" />
		<tag k="fixme" v="consider place=hamlet" />
		<tag k="name" v="Nedre Kleppe" />
		<tag k="place" v="farm" />
		<tag k="ssr:stedsnr" v="5599" />
	</node>
	<node lat="60.56104177278705" lon="4.964915609946922" id="-68850">
		<tag k="fixme" v="consider place=hamlet" />
		<tag k="name" v="Skansen" />
		<tag k="place" v="farm" />
		<tag k="ssr:stedsnr" v="6697" />
	</node>
	<node lat="60.53457499628065" lon="5.001266658022911" id="-68853">
		<tag k="name" v="Øvra Skråmestø" />
		<tag k="place" v="farm" />
		<tag k="ssr:stedsnr" v="25505" />
	</node>
	<node lat="60.48158611110274" lon="5.20838610811991" id="-68858">
		<tag k="name" v="Mellomgarden" />
		<tag k="place" v="farm" />
		<tag k="ssr:stedsnr" v="44919" />
	</node>
	<node lat="60.420725000940784" lon="5.22291388903345" id="-68864">
		<tag k="name" v="Nilsagjerdet" />
		<tag k="place" v="farm" />
		<tag k="ssr:stedsnr" v="45248" />
	</node>
	<node lat="60.49372500021512" lon="5.191875000775106" id="-68881">
		<tag k="alt_name" v="Breidvik" />
		<tag k="name" v="Breivik" />
		<tag k="place" v="farm" />
		<tag k="ssr:stedsnr" v="66376" />
	</node>
	<node lat="60.49621972987217" lon="5.1378496031698" id="-68883">
		<tag k="fixme" v="consider place=hamlet" />
		<tag k="name" v="Stien" />
		<tag k="place" v="farm" />
		<tag k="ssr:stedsnr" v="66443" />
	</node>
	<node lat="60.41159722612732" lon="5.202583332073967" id="-68884">
		<tag k="name" v="Dyrdal" />
		<tag k="place" v="farm" />
		<tag k="ssr:stedsnr" v="66547" />
	</node>
	<node lat="60.45504999800387" lon="5.1500916746761005" id="-68886">
		<tag k="name" v="Breidablikk" />
		<tag k="place" v="farm" />
		<tag k="ssr:stedsnr" v="66517" />
	</node>
	<node lat="60.441866667280394" lon="5.140450001709156" id="-68887">
		<tag k="name" v="Holsund" />
		<tag k="place" v="isolated_dwelling" />
		<tag k="ssr:stedsnr" v="66539" />
	</node>
	<node lat="60.44870555440709" lon="5.091580563513368" id="-68898">
		<tag k="name" v="Nyheim" />
		<tag k="place" v="farm" />
		<tag k="ssr:stedsnr" v="105351" />
	</node>
	<node lat="60.508819176549586" lon="5.0771023992004505" id="-68908">
		<tag k="name" v="Eidet" />
		<tag k="place" v="farm" />
		<tag k="ssr:stedsnr" v="106544" />
	</node>
	<node lat="60.47735000245105" lon="5.173819449952442" id="-68912">
		<tag k="name" v="Eidet" />
		<tag k="place" v="farm" />
		<tag k="ssr:stedsnr" v="106748" />
	</node>
	<node lat="60.51462125216645" lon="5.029311162222143" id="-68926">
		<tag k="name" v="Fauskanger" />
		<tag k="place" v="hamlet" />
		<tag k="ssr:stedsnr" v="128635" />
	</node>
	<node lat="60.54358055742163" lon="4.982525007707498" id="-68932">
		<tag k="name" v="Merkesvik" />
		<tag k="place" v="farm" />
		<tag k="ssr:stedsnr" v="166278" />
	</node>
	<node lat="60.417836108987075" lon="5.224602777446073" id="-68935">
		<tag k="name" v="Bergheim" />
		<tag k="place" v="farm" />
		<tag k="ssr:stedsnr" v="166369" />
	</node>
	<node lat="60.41149286662794" lon="5.216643705359009" id="-68936">
		<tag k="name" v="Grønnli" />
		<tag k="place" v="farm" />
		<tag k="ssr:stedsnr" v="166377" />
	</node>
	<node lat="60.405494443137755" lon="5.172877784065473" id="-68951">
		<tag k="name" v="Lindhaugen" />
		<tag k="place" v="farm" />
		<tag k="ssr:stedsnr" v="166883" />
	</node>
	<node lat="60.43924046603138" lon="5.2276379302400136" id="-68975">
		<tag k="alt_name" v="Søre Erdal" />
		<tag k="name" v="Sørerdal" />
		<tag k="place" v="hamlet" />
		<tag k="ssr:stedsnr" v="187496" />
	</node>
	<node lat="60.44608888564337" lon="5.155433338360599" id="-68978">
		<tag k="fixme" v="consider place=hamlet" />
		<tag k="name" v="Hauglandshella" />
		<tag k="place" v="village" />
		<tag k="ssr:stedsnr" v="187523" />
	</node>
	<node lat="60.434716667042025" lon="5.178113890821425" id="-68986">
		<tag k="fixme" v="consider place=suburb, village or hamlet" />
		<tag k="name" v="Juvik" />
		<tag k="place" v="quarter" />
		<tag k="ssr:stedsnr" v="206731" />
	</node>
	<node lat="60.56535555519086" lon="4.957133334241273" id="-68990">
		<tag k="name" v="Lund" />
		<tag k="place" v="farm" />
		<tag k="ssr:stedsnr" v="207959" />
	</node>
	<node lat="60.422111111574594" lon="5.184155553327186" id="-68991">
		<tag k="name" v="Kråkås" />
		<tag k="place" v="farm" />
		<tag k="ssr:stedsnr" v="208437" />
	</node>
	<node lat="60.42481388454374" lon="5.15089443833494" id="-69023">
		<tag k="name" v="Haugen" />
		<tag k="place" v="farm" />
		<tag k="ssr:stedsnr" v="287392" />
	</node>
	<node lat="60.42175277950476" lon="5.183111117224848" id="-69041">
		<tag k="name" v="Indrebø" />
		<tag k="place" v="farm" />
		<tag k="ssr:stedsnr" v="288231" />
	</node>
	<node lat="60.4606777751549" lon="5.149205561989975" id="-69059">
		<tag k="name" v="Apalen" />
		<tag k="place" v="farm" />
		<tag k="ssr:stedsnr" v="289734" />
	</node>
	<node lat="60.420891666709636" lon="5.148850005652104" id="-69065">
		<tag k="name" v="Skjønhaug" />
		<tag k="place" v="isolated_dwelling" />
		<tag k="ssr:stedsnr" v="308583" />
	</node>
	<node lat="60.436699996203714" lon="5.1809666713188385" id="-69067">
		<tag k="name" v="Lavik" />
		<tag k="place" v="farm" />
		<tag k="ssr:stedsnr" v="309551" />
	</node>
	<node lat="60.47115198318449" lon="5.220818921725957" id="-69068">
		<tag k="fixme" v="consider place=hamlet" />
		<tag k="name" v="Hop" />
		<tag k="place" v="farm" />
		<tag k="ssr:stedsnr" v="308374" />
	</node>
	<node lat="60.54627777401235" lon="4.982352770905019" id="-69078">
		<tag k="alt_name" v="Merkesviki" />
		<tag k="name" v="Merkesvik" />
		<tag k="place" v="village" />
		<tag k="ssr:stedsnr" v="310716" />
	</node>
	<node lat="60.42386111013501" lon="5.184236117695112" id="-69082">
		<tag k="name" v="Kråkås" />
		<tag k="place" v="farm" />
		<tag k="ssr:stedsnr" v="330476" />
	</node>
	<node lat="60.423416662664486" lon="5.176822217657077" id="-69089">
		<tag k="name" v="Myra" />
		<tag k="place" v="farm" />
		<tag k="ssr:stedsnr" v="348900" />
	</node>
	<node lat="60.51058055194064" lon="5.082591665561953" id="-69091">
		<tag k="fixme" v="consider place=hamlet" />
		<tag k="name" v="Nordre Haugland" />
		<tag k="place" v="farm" />
		<tag k="ssr:stedsnr" v="348289" />
	</node>
	<node lat="60.44617777387233" lon="5.120466658437651" id="-69117">
		<tag k="alt_name" v="Nordre Eid" />
		<tag k="name" v="Eide" />
		<tag k="place" v="isolated_dwelling" />
		<tag k="ssr:stedsnr" v="369497" />
	</node>
	<node lat="60.444205558945974" lon="5.1240861050509015" id="-69119">
		<tag k="name" v="Dalen" />
		<tag k="place" v="isolated_dwelling" />
		<tag k="ssr:stedsnr" v="369500" />
	</node>
	<node lat="60.45109166943188" lon="5.208644442800201" id="-69124">
		<tag k="name" v="Varden" />
		<tag k="place" v="farm" />
		<tag k="ssr:stedsnr" v="369441" />
	</node>
	<node lat="60.52236111217064" lon="5.095136108251093" id="-69128">
		<tag k="fixme" v="consider place=hamlet" />
		<tag k="name" v="Hegernes" />
		<tag k="place" v="farm" />
		<tag k="ssr:stedsnr" v="370435" />
	</node>
	<node lat="60.449877779466455" lon="5.083069441179478" id="-69134">
		<tag k="name" v="Boti" />
		<tag k="place" v="farm" />
		<tag k="ssr:stedsnr" v="389870" />
	</node>
	<node lat="60.4352333375106" lon="5.174850007809305" id="-69137">
		<tag k="name" v="Kråkås" />
		<tag k="place" v="farm" />
		<tag k="ssr:stedsnr" v="390380" />
	</node>
	<node lat="60.423805554057054" lon="5.1774111029646965" id="-69138">
		<tag k="name" v="Kråkås" />
		<tag k="place" v="farm" />
		<tag k="ssr:stedsnr" v="390404" />
	</node>
	<node lat="60.420680554010644" lon="5.178383330883211" id="-69139">
		<tag k="name" v="Kråkås" />
		<tag k="place" v="farm" />
		<tag k="ssr:stedsnr" v="390406" />
	</node>
	<node lat="60.41236110904366" lon="5.161722225458792" id="-69173">
		<tag k="name" v="Kråkestølen" />
		<tag k="place" v="isolated_dwelling" />
		<tag k="ssr:stedsnr" v="430592" />
	</node>
	<node lat="60.50262371720709" lon="5.0911177548832995" id="-69174">
		<tag k="fixme" v="consider place=hamlet" />
		<tag k="name" v="Kjerrgarden" />
		<tag k="place" v="farm" />
		<tag k="ssr:stedsnr" v="431525" />
	</node>
	<node lat="60.422291670190866" lon="5.184622219014349" id="-69178">
		<tag k="name" v="Kråkås" />
		<tag k="place" v="farm" />
		<tag k="ssr:stedsnr" v="511419" />
	</node>
	<node lat="60.50218611198537" lon="5.168411109318894" id="-69181">
		<tag k="name" v="Leirdal" />
		<tag k="place" v="farm" />
		<tag k="ssr:stedsnr" v="510581" />
	</node>
	<node lat="60.56748362914815" lon="4.9533817529160125" id="-69207">
		<tag k="fixme" v="consider place=hamlet" />
		<tag k="name" v="Herdla" />
		<tag k="place" v="farm" />
		<tag k="ssr:stedsnr" v="545395" />
	</node>
	<node lat="60.48592499918378" lon="5.2100388896344025" id="-69212">
		<tag k="alt_name" v="Kirkevik" />
		<tag k="name" v="Kyrkjevik" />
		<tag k="place" v="farm" />
		<tag k="ssr:stedsnr" v="551365" />
	</node>
	<node lat="60.40711110856973" lon="5.156691661945466" id="-69214">
		<tag k="name" v="Træet" />
		<tag k="place" v="isolated_dwelling" />
		<tag k="ssr:stedsnr" v="551569" />
	</node>
	<node lat="60.42773888843684" lon="5.1700916725345225" id="-69216">
		<tag k="name" v="Brattestigen" />
		<tag k="place" v="farm" />
		<tag k="ssr:stedsnr" v="551586" />
	</node>
	<node lat="60.425011114088456" lon="5.219594449009563" id="-69217">
		<tag k="name" v="Skogadal" />
		<tag k="place" v="farm" />
		<tag k="ssr:stedsnr" v="551618" />
	</node>
	<node lat="60.40843611175682" lon="5.227627778095497" id="-69279">
		<tag k="name" v="Kleppestø" />
		<tag k="place" v="village" />
		<tag k="ssr:stedsnr" v="612604" />
	</node>
	<node lat="60.52492777360462" lon="5.0549361111012" id="-69281">
		<tag k="fixme" v="consider place=hamlet" />
		<tag k="name" v="Berland" />
		<tag k="place" v="farm" />
		<tag k="ssr:stedsnr" v="613657" />
	</node>
	<node lat="60.49924722441591" lon="5.150644447720798" id="-69287">
		<tag k="fixme" v="consider place=suburb, village or hamlet" />
		<tag k="name" v="Hanevik" />
		<tag k="place" v="quarter" />
		<tag k="ssr:stedsnr" v="631561" />
	</node>
	<node lat="60.488219444694835" lon="5.206994442406365" id="-69292">
		<tag k="name" v="Steinsland" />
		<tag k="place" v="farm" />
		<tag k="ssr:stedsnr" v="651353" />
	</node>
	<node lat="60.450805554417826" lon="5.150516669974993" id="-69296">
		<tag k="name" v="Buneset" />
		<tag k="place" v="farm" />
		<tag k="ssr:stedsnr" v="651369" />
	</node>
	<node lat="60.42170555245509" lon="5.200886116583627" id="-69298">
		<tag k="name" v="Berget" />
		<tag k="place" v="farm" />
		<tag k="ssr:stedsnr" v="651933" />
	</node>
	<node lat="60.45179722686661" lon="5.132755560458092" id="-69322">
		<tag k="name" v="Mannekleiva" />
		<tag k="place" v="farm" />
		<tag k="ssr:stedsnr" v="712334" />
	</node>
	<node lat="60.42049444538657" lon="5.196577779624517" id="-69330">
		<tag k="name" v="Brattli" />
		<tag k="place" v="farm" />
		<tag k="ssr:stedsnr" v="712909" />
	</node>
	<node lat="60.42127044246087" lon="5.2334060937356" id="-69332">
		<tag k="fixme" v="consider place=hamlet" />
		<tag k="name" v="Florvåg" />
		<tag k="place" v="farm" />
		<tag k="ssr:stedsnr" v="712915" />
	</node>
	<node lat="60.46376666669285" lon="5.115527775140148" id="-69333">
		<tag k="amenity" v="school" />
		<tag k="name" v="Skulebøen" />
		<tag k="ssr:stedsnr" v="713718" />
	</node>
	<node lat="60.443058330077456" lon="5.215041658494927" id="-69350">
		<tag k="name" v="Åsen" />
		<tag k="place" v="farm" />
		<tag k="ssr:stedsnr" v="733461" />
	</node>
	<node lat="60.47873610933717" lon="5.216280548931208" id="-69356">
		<tag k="alt_name" v="Frugård" />
		<tag k="name" v="Frugarden" />
		<tag k="place" v="farm" />
		<tag k="ssr:stedsnr" v="734467" />
	</node>
	<node lat="60.42597499980056" lon="5.1494249962313186" id="-69358">
		<tag k="fixme" v="consider place=suburb, village or hamlet" />
		<tag k="name" v="Hetlevik" />
		<tag k="place" v="quarter" />
		<tag k="ssr:stedsnr" v="734638" />
	</node>
	<node lat="60.4305916664425" lon="5.185597216927941" id="-69364">
		<tag k="name" v="Kråkås" />
		<tag k="place" v="farm" />
		<tag k="ssr:stedsnr" v="754446" />
	</node>
	<node lat="60.42714166247357" lon="5.152791669112947" id="-69385">
		<tag k="name" v="Brattalid" />
		<tag k="place" v="farm" />
		<tag k="ssr:stedsnr" v="773887" />
	</node>
	<node lat="60.44485833225908" lon="5.156477786525791" id="-69386">
		<tag k="name" v="Hellehaugen" />
		<tag k="place" v="farm" />
		<tag k="ssr:stedsnr" v="773891" />
	</node>
	<node lat="60.46019167014488" lon="5.152049998154939" id="-69398">
		<tag k="alt_name" v="Ramnanger" />
		<tag k="fixme" v="consider place=hamlet" />
		<tag k="name" v="Ravnanger" />
		<tag k="place" v="village" />
		<tag k="ssr:stedsnr" v="794390" />
	</node>
	<node lat="60.46563332889877" lon="5.1149055542609885" id="-69399">
		<tag k="name" v="Kårevik" />
		<tag k="place" v="farm" />
		<tag k="ssr:stedsnr" v="794393" />
	</node>
	<node lat="60.46547499806134" lon="5.197700001564011" id="-69400">
		<tag k="name" v="Fredheim" />
		<tag k="place" v="farm" />
		<tag k="ssr:stedsnr" v="794400" />
	</node>
	<node lat="60.45898888604956" lon="5.206013894580982" id="-69405">
		<tag k="name" v="Svana" />
		<tag k="place" v="farm" />
		<tag k="ssr:stedsnr" v="794539" />
	</node>
	<node lat="60.499741663430065" lon="5.14916111218192" id="-69407">
		<tag k="name" v="Hanevik" />
		<tag k="place" v="farm" />
		<tag k="ssr:stedsnr" v="795549" />
	</node>
	<node lat="60.434108334937434" lon="5.169216666538256" id="-69412">
		<tag k="name" v="Dalamoen" />
		<tag k="place" v="farm" />
		<tag k="ssr:stedsnr" v="813731" />
	</node>
	<node lat="60.42534166538812" lon="5.1761527773674345" id="-69413">
		<tag k="name" v="Kråkås" />
		<tag k="place" v="farm" />
		<tag k="ssr:stedsnr" v="815420" />
	</node>
	<node lat="60.478483330541636" lon="5.208347220300745" id="-69414">
		<tag k="name" v="Frydenlund" />
		<tag k="place" v="farm" />
		<tag k="ssr:stedsnr" v="815498" />
	</node>
	<node lat="60.495419440297105" lon="5.144836119033214" id="-69417">
		<tag k="name" v="Ekrehaugen" />
		<tag k="place" v="farm" />
		<tag k="ssr:stedsnr" v="834341" />
	</node>
	<node lat="60.428863891158386" lon="5.148494450800162" id="-69420">
		<tag k="name" v="Vikane" />
		<tag k="place" v="farm" />
		<tag k="ssr:stedsnr" v="834358" />
	</node>
	<node lat="60.42100872854217" lon="5.203872858008346" id="-69422">
		<tag k="name" v="Bjørkeli" />
		<tag k="place" v="locality" />
		<tag k="ssr:stedsnr" v="834362" />
	</node>
	<node lat="60.40369999998536" lon="5.219174999265639" id="-69456">
		<tag k="name" v="Klubben" />
		<tag k="place" v="farm" />
		<tag k="ssr:stedsnr" v="834920" />
	</node>
	<node lat="60.45009444749488" lon="5.1604138835582045" id="-69473">
		<tag k="alt_name" v="Søndre Haugland;Søre Haugland" />
		<tag k="fixme" v="consider place=hamlet" />
		<tag k="name" v="Haugland" />
		<tag k="place" v="farm" />
		<tag k="ssr:stedsnr" v="855559" />
	</node>
	<node lat="60.41424064909422" lon="5.158870552882653" id="-69475">
		<tag k="name" v="Hovestølen" />
		<tag k="place" v="farm" />
		<tag k="ssr:stedsnr" v="855581" />
	</node>
	<node lat="60.41959464910087" lon="5.176856358863062" id="-69476">
		<tag k="alt_name" v="Lindaker" />
		<tag k="name" v="Linåker" />
		<tag k="place" v="farm" />
		<tag k="ssr:stedsnr" v="855632" />
	</node>
	<node lat="60.50185278094645" lon="5.090113893986146" id="-69479">
		<tag k="name" v="Kjerrgarden" />
		<tag k="place" v="village" />
		<tag k="ssr:stedsnr" v="856698" />
	</node>
	<node lat="60.538441662475606" lon="5.017174993777953" id="-69481">
		<tag k="fixme" v="consider place=hamlet" />
		<tag k="name" v="Abbedisso" />
		<tag k="place" v="farm" />
		<tag k="ssr:stedsnr" v="856711" />
	</node>
	<node lat="60.412611113904724" lon="5.2132972154632755" id="-69484">
		<tag k="name" v="Solli" />
		<tag k="place" v="farm" />
		<tag k="ssr:stedsnr" v="874961" />
	</node>
	<node lat="60.532286111415424" lon="4.997480550801203" id="-69485">
		<tag k="alt_name" v="Nedre Skråmestø" />
		<tag k="name" v="Nedra Skråmestø" />
		<tag k="place" v="farm" />
		<tag k="ssr:stedsnr" v="874519" />
	</node>
	<node lat="60.4154444426605" lon="5.241452771183042" id="-69511">
		<tag k="name" v="Ekrene" />
		<tag k="place" v="farm" />
		<tag k="ssr:stedsnr" v="955383" />
	</node>
	<node lat="60.41262221996564" lon="5.1530833288803075" id="-69515">
		<tag k="name" v="Åsen" />
		<tag k="place" v="farm" />
		<tag k="ssr:stedsnr" v="955890" />
	</node>
	<node lat="60.427083333666026" lon="5.150486112636766" id="-69516">
		<tag k="name" v="Stegane" />
		<tag k="place" v="farm" />
		<tag k="ssr:stedsnr" v="955892" />
	</node>
	<node lat="60.48223925027357" lon="5.214445090894704" id="-69547">
		<tag k="fixme" v="consider place=hamlet" />
		<tag k="name" v="Ask" />
		<tag k="place" v="farm" />
		<tag k="ssr:stedsnr" v="989724" />
	</node>
	<node lat="60.43760631761604" lon="5.22745847208234" id="-69548">
		<tag k="fixme" v="consider place=hamlet" />
		<tag k="name" v="Erdal" />
		<tag k="place" v="farm" />
		<tag k="ssr:stedsnr" v="989728" />
	</node>
	<node lat="60.418975005770584" lon="5.202662228052737" id="-69781">
		<tag k="name" v="Kleppe" />
		<tag k="place" v="hamlet" />
		<tag k="ssr:stedsnr" v="1080314" />
	</node>
</osm>
