<?xml version="1.0" encoding="UTF-8"?>
<osm generator="osmapis" version="0.6">
	<node id="-633691" lat="60.4194833312" lon="5.14956110804">
		<tag k="name" v="Veivaskaret" />
		<tag k="natural" v="valley" />
		<tag k="place" v="locality" />
		<tag k="ssr:stedsnr" v="849346" />
	</node>
	<node id="-632398" lat="60.4201249982" lon="5.24652777704">
		<tag k="name" v="Skansen" />
		<tag k="natural" v="hill" />
		<tag k="place" v="locality" />
		<tag k="ssr:stedsnr" v="227270" />
	</node>
	<node id="-632825" lat="60.5031972191" lon="5.101611105">
		<tag k="name" v="Stabben" />
		<tag k="place" v="locality" />
		<tag k="ssr:stedsnr" v="713590" />
	</node>
	<node id="-632823" lat="60.546586112" lon="4.98926945187">
		<tag k="name" v="Setrevikhaugen" />
		<tag k="natural" v="hill" />
		<tag k="place" v="locality" />
		<tag k="ssr:stedsnr" v="712912" />
	</node>
	<node id="-633332" lat="60.4075111077" lon="5.2099305487">
		<tag k="fixme" v="consider natural=peak for the most distinct mountains in the district" />
		<tag k="name" v="Heiafjellet" />
		<tag k="natural" v="hill" />
		<tag k="place" v="locality" />
		<tag k="ssr:stedsnr" v="348921" />
	</node>
	<node id="-632403" lat="60.4860388862" lon="5.13533055049">
		<tag k="name" v="Kleppedalen" />
		<tag k="natural" v="valley" />
		<tag k="place" v="locality" />
		<tag k="ssr:stedsnr" v="227530" />
	</node>
	<node id="-632816" lat="60.4377166649" lon="5.04885833005">
		<tag k="fixme" v="consider natural=peak for the most distinct mountains in the district" />
		<tag k="name" v="Ørnatua" />
		<tag k="natural" v="hill" />
		<tag k="ssr:stedsnr" v="712308" />
	</node>
	<node id="-633327" lat="60.4691472192" lon="5.20573055809">
		<tag k="name" v="Huldrehaugen" />
		<tag k="natural" v="hill" />
		<tag k="place" v="locality" />
		<tag k="ssr:stedsnr" v="348887" />
	</node>
	<node id="-633323" lat="60.5414888918" lon="4.98135556202">
		<tag k="name" v="Raudberget" />
		<tag k="natural" v="hill" />
		<tag k="place" v="locality" />
		<tag k="ssr:stedsnr" v="348588" />
	</node>
	<node id="-632810" lat="60.4630583337" lon="5.11690555097">
		<tag k="name" v="Hesthaugen" />
		<tag k="natural" v="hill" />
		<tag k="place" v="locality" />
		<tag k="ssr:stedsnr" v="712278" />
	</node>
	<node id="-633321" lat="60.4871675464" lon="5.19545943658">
		<tag k="name" v="Trollgjelet" />
		<tag k="natural" v="gorge" />
		<tag k="ssr:stedsnr" v="348494" />
	</node>
	<node id="-633320" lat="60.48458889" lon="5.16229167291">
		<tag k="name" v="Moshaugane" />
		<tag k="natural" v="hill" />
		<tag k="place" v="locality" />
		<tag k="ssr:stedsnr" v="348491" />
	</node>
	<node id="-633318" lat="60.4801972193" lon="5.16621389364">
		<tag k="name" v="Øyra" />
		<tag k="place" v="locality" />
		<tag k="ssr:stedsnr" v="348487" />
	</node>
	<node id="-632805" lat="60.4008888881" lon="5.19335833764">
		<tag k="name" v="Gibraltar" />
		<tag k="place" v="locality" />
		<tag k="ssr:stedsnr" v="591345" />
	</node>
	<node id="-633316" lat="60.4798722252" lon="5.2046694391">
		<tag k="name" v="Lundahaugen" />
		<tag k="natural" v="hill" />
		<tag k="place" v="locality" />
		<tag k="ssr:stedsnr" v="348337" />
	</node>
	<node id="-632486" lat="60.5079583349" lon="5.09989721639">
		<tag k="name" v="Myrledhaugen" />
		<tag k="natural" v="hill" />
		<tag k="place" v="locality" />
		<tag k="ssr:stedsnr" v="166554" />
	</node>
	<node id="-633314" lat="60.4205249984" lon="5.20565277008">
		<tag k="name" v="Bakkane" />
		<tag k="natural" v="slope" />
		<tag k="place" v="locality" />
		<tag k="ssr:stedsnr" v="348248" />
	</node>
	<node id="-633312" lat="60.5053749986" lon="5.05446110549">
		<tag k="name" v="Stølhaugen" />
		<tag k="natural" v="hill" />
		<tag k="place" v="locality" />
		<tag k="ssr:stedsnr" v="348283" />
	</node>
	<node id="-633373" lat="60.401241667" lon="5.20080554657">
		<tag k="name" v="Bakken" />
		<tag k="natural" v="slope" />
		<tag k="place" v="locality" />
		<tag k="ssr:stedsnr" v="409371" />
	</node>
	<node id="-632798" lat="60.4536416644" lon="5.0885305589">
		<tag k="alt_name" v="Hanøynipa" />
		<tag k="name" v="Nipa" />
		<tag k="natural" v="hill" />
		<tag k="place" v="locality" />
		<tag k="ssr:stedsnr" v="571886" />
	</node>
	<node id="-632797" lat="60.4785055524" lon="5.20528333317">
		<tag k="fixme" v="consider natural=peak for the most distinct mountains in the district" />
		<tag k="name" v="Plassafjellet" />
		<tag k="natural" v="hill" />
		<tag k="place" v="locality" />
		<tag k="ssr:stedsnr" v="571314" />
	</node>
	<node id="-632655" lat="60.4881833359" lon="5.09323055186">
		<tag k="name" v="Kvernhusdalen" />
		<tag k="natural" v="valley" />
		<tag k="place" v="locality" />
		<tag k="ssr:stedsnr" v="470739" />
	</node>
	<node id="-632792" lat="60.5418750015" lon="4.98421388096">
		<tag k="name" v="Dalen" />
		<tag k="natural" v="valley" />
		<tag k="place" v="locality" />
		<tag k="ssr:stedsnr" v="693535" />
	</node>
	<node id="-632654" lat="60.4888388891" lon="5.08743888903">
		<tag k="name" v="Åløypet" />
		<tag k="place" v="locality" />
		<tag k="ssr:stedsnr" v="470723" />
	</node>
	<node id="-633298" lat="60.475986112" lon="5.19384999819">
		<tag k="fixme" v="consider natural=peak for the most distinct mountains in the district" />
		<tag k="name" v="Litleåsen" />
		<tag k="natural" v="hill" />
		<tag k="place" v="locality" />
		<tag k="ssr:stedsnr" v="309470" />
	</node>
	<node id="-633297" lat="60.482583333" lon="5.10348889094">
		<tag k="fixme" v="consider natural=peak for the most distinct mountains in the district" />
		<tag k="name" v="Svultåsen" />
		<tag k="natural" v="hill" />
		<tag k="place" v="locality" />
		<tag k="ssr:stedsnr" v="309408" />
	</node>
	<node id="-632781" lat="60.407680559" lon="5.21399166318">
		<tag k="name" v="Gråskolten" />
		<tag k="place" v="locality" />
		<tag k="ssr:stedsnr" v="530907" />
	</node>
	<node id="-632777" lat="60.5014108864" lon="5.12618907445">
		<tag k="fixme" v="consider natural=peak for the most distinct mountains in the district" />
		<tag k="name" v="Nordåsen" />
		<tag k="natural" v="hill" />
		<tag k="place" v="locality" />
		<tag k="ssr:stedsnr" v="530567" />
	</node>
	<node id="-633288" lat="60.4842972206" lon="5.09164722273">
		<tag k="name" v="Lindebotnen" />
		<tag k="natural" v="valley" />
		<tag k="place" v="locality" />
		<tag k="ssr:stedsnr" v="308219" />
	</node>
	<node id="-632775" lat="60.5219055564" lon="5.0543361043">
		<tag k="name" v="Dalen" />
		<tag k="natural" v="valley" />
		<tag k="place" v="locality" />
		<tag k="ssr:stedsnr" v="530608" />
	</node>
	<node id="-632773" lat="60.5780777755" lon="4.95775278162">
		<tag k="alt_name" v="Herdlevalen" />
		<tag k="name" v="Valen" />
		<tag k="place" v="locality" />
		<tag k="ssr:stedsnr" v="510536" />
	</node>
	<node id="-632649" lat="60.4543805537" lon="5.09804443749">
		<tag k="fixme" v="consider natural=peak for the most distinct mountains in the district" />
		<tag k="name" v="Steinafjellet" />
		<tag k="natural" v="hill" />
		<tag k="place" v="locality" />
		<tag k="ssr:stedsnr" v="470685" />
	</node>
	<node id="-633282" lat="60.5805138892" lon="4.96009722052">
		<tag k="name" v="Ytste Valen" />
		<tag k="place" v="locality" />
		<tag k="ssr:stedsnr" v="207957" />
	</node>
	<node id="-633281" lat="60.4996638904" lon="5.10468610201">
		<tag k="fixme" v="consider natural=peak for the most distinct mountains in the district" />
		<tag k="name" v="Kjerrgardsåsen" />
		<tag k="natural" v="hill" />
		<tag k="place" v="locality" />
		<tag k="ssr:stedsnr" v="207648" />
	</node>
	<node id="-632768" lat="60.5379666676" lon="5.00655556148">
		<tag k="fixme" v="consider natural=peak for the most distinct mountains in the district" />
		<tag k="name" v="Abbedissefjellet" />
		<tag k="natural" v="hill" />
		<tag k="place" v="locality" />
		<tag k="ssr:stedsnr" v="674715" />
	</node>
	<node id="-633277" lat="60.4241611146" lon="5.20186388846">
		<tag k="name" v="Træet" />
		<tag k="natural" v="valley" />
		<tag k="place" v="locality" />
		<tag k="ssr:stedsnr" v="206717" />
	</node>
	<node id="-632759" lat="60.4957805544" lon="5.17275277679">
		<tag k="fixme" v="consider natural=peak for the most distinct mountains in the district" />
		<tag k="name" v="Stølsåsen" />
		<tag k="natural" v="hill" />
		<tag k="place" v="locality" />
		<tag k="ssr:stedsnr" v="673408" />
	</node>
	<node id="-632761" lat="60.4319111139" lon="5.22053611402">
		<tag k="fixme" v="consider natural=peak for the most distinct mountains in the district" />
		<tag k="name" v="Langafjellet" />
		<tag k="natural" v="hill" />
		<tag k="place" v="locality" />
		<tag k="ssr:stedsnr" v="673628" />
	</node>
	<node id="-633271" lat="60.5137611079" lon="5.09957777022">
		<tag k="name" v="Gaukvikdalen" />
		<tag k="natural" v="valley" />
		<tag k="place" v="locality" />
		<tag k="ssr:stedsnr" v="188418" />
	</node>
	<node id="-633269" lat="60.4107249988" lon="5.20895278342">
		<tag k="fixme" v="consider natural=peak for the most distinct mountains in the district" />
		<tag k="name" v="Dyrdalsfjellet" />
		<tag k="natural" v="hill" />
		<tag k="place" v="locality" />
		<tag k="ssr:stedsnr" v="187539" />
	</node>
	<node id="-633268" lat="60.4099305565" lon="5.17314999511">
		<tag k="fixme" v="consider natural=peak for the most distinct mountains in the district" />
		<tag k="name" v="Folleseåsen" />
		<tag k="natural" v="hill" />
		<tag k="place" v="locality" />
		<tag k="ssr:stedsnr" v="187535" />
	</node>
	<node id="-633265" lat="60.4491194475" lon="5.19710833841">
		<tag k="name" v="Frudalen" />
		<tag k="natural" v="valley" />
		<tag k="place" v="locality" />
		<tag k="ssr:stedsnr" v="187467" />
	</node>
	<node id="-632626" lat="60.507727774" lon="5.12565000848">
		<tag k="name" v="Purkesteinskaret" />
		<tag k="natural" v="valley" />
		<tag k="place" v="locality" />
		<tag k="ssr:stedsnr" v="469340" />
	</node>
	<node id="-632733" lat="60.4664194456" lon="5.11870555621">
		<tag k="name" v="Litle Kårevikshaugen" />
		<tag k="natural" v="hill" />
		<tag k="place" v="locality" />
		<tag k="ssr:stedsnr" v="409950" />
	</node>
	<node id="-632921" lat="60.4590527748" lon="5.09434166992">
		<tag k="fixme" v="consider natural=peak for the most distinct mountains in the district" />
		<tag k="name" v="Storevikfjellet" />
		<tag k="natural" v="hill" />
		<tag k="old_name" v="Pådlifjellet" />
		<tag k="place" v="locality" />
		<tag k="ssr:stedsnr" v="713720" />
	</node>
	<node id="-633258" lat="60.4643555543" lon="5.0900277774">
		<tag k="name" v="Kinna" />
		<tag k="place" v="locality" />
		<tag k="ssr:stedsnr" v="167733" />
	</node>
	<node id="-633251" lat="60.5560555589" lon="4.97339722075">
		<tag k="fixme" v="consider natural=peak for the most distinct mountains in the district" />
		<tag k="name" v="Marifjellet" />
		<tag k="natural" v="hill" />
		<tag k="place" v="locality" />
		<tag k="ssr:stedsnr" v="166936" />
	</node>
	<node id="-632880" lat="60.4818027749" lon="5.15634721819">
		<tag k="name" v="Djupedalen" />
		<tag k="natural" v="valley" />
		<tag k="place" v="locality" />
		<tag k="ssr:stedsnr" v="652508" />
	</node>
	<node id="-632560" lat="60.4900166655" lon="5.09479444445">
		<tag k="name" v="Futlaupet" />
		<tag k="place" v="locality" />
		<tag k="ssr:stedsnr" v="227713" />
	</node>
	<node id="-633245" lat="60.5454249994" lon="4.98630832635">
		<tag k="name" v="Revadalen" />
		<tag k="natural" v="valley" />
		<tag k="place" v="locality" />
		<tag k="ssr:stedsnr" v="166591" />
	</node>
	<node id="-633244" lat="60.5286166692" lon="5.01178054747">
		<tag k="name" v="Skitnedalen" />
		<tag k="natural" v="valley" />
		<tag k="place" v="locality" />
		<tag k="ssr:stedsnr" v="166587" />
	</node>
	<node id="-632731" lat="60.5256000001" lon="5.06915555764">
		<tag k="name" v="Gulenakkråna" />
		<tag k="natural" v="hill" />
		<tag k="place" v="locality" />
		<tag k="ssr:stedsnr" v="409941" />
	</node>
	<node id="-633754" lat="60.468572221" lon="5.10071665804">
		<tag k="name" v="Blombrekkene" />
		<tag k="natural" v="slope" />
		<tag k="place" v="locality" />
		<tag k="ssr:stedsnr" v="956729" />
	</node>
	<node id="-632815" lat="60.4996666706" lon="5.15985277917">
		<tag k="fixme" v="consider natural=peak for the most distinct mountains in the district" />
		<tag k="name" v="Litlåsen" />
		<tag k="natural" v="hill" />
		<tag k="place" v="locality" />
		<tag k="ssr:stedsnr" v="712306" />
	</node>
	<node id="-633239" lat="60.503947223" lon="5.13038333388">
		<tag k="name" v="Hofalldalen" />
		<tag k="natural" v="valley" />
		<tag k="place" v="locality" />
		<tag k="ssr:stedsnr" v="166538" />
	</node>
	<node id="-632726" lat="60.468919447" lon="5.11165278614">
		<tag k="name" v="Kvernhusberget" />
		<tag k="natural" v="hill" />
		<tag k="place" v="locality" />
		<tag k="ssr:stedsnr" v="409310" />
	</node>
	<node id="-633236" lat="60.4800222268" lon="5.15996111587">
		<tag k="name" v="Grøndalen" />
		<tag k="natural" v="valley" />
		<tag k="place" v="locality" />
		<tag k="ssr:stedsnr" v="166509" />
	</node>
	<node id="-633746" lat="60.4898388906" lon="5.12683611465">
		<tag k="name" v="Setene" />
		<tag k="place" v="locality" />
		<tag k="ssr:stedsnr" v="955960" />
	</node>
	<node id="-633233" lat="60.4379444487" lon="5.04794445247">
		<tag k="fixme" v="consider natural=peak for the most distinct mountains in the district" />
		<tag k="name" v="Ramsøyfjellet" />
		<tag k="natural" v="hill" />
		<tag k="place" v="locality" />
		<tag k="ssr:stedsnr" v="166336" />
	</node>
	<node id="-633742" lat="60.5497027804" lon="4.96589999809">
		<tag k="name" v="Storhaugen" />
		<tag k="natural" v="hill" />
		<tag k="place" v="locality" />
		<tag k="ssr:stedsnr" v="955934" />
	</node>
	<node id="-633741" lat="60.4038777811" lon="5.20179444823">
		<tag k="fixme" v="consider natural=peak for the most distinct mountains in the district" />
		<tag k="name" v="Stongafjellet" />
		<tag k="natural" v="hill" />
		<tag k="place" v="locality" />
		<tag k="ssr:stedsnr" v="955924" />
	</node>
	<node id="-632878" lat="60.4053111143" lon="5.18482221783">
		<tag k="name" v="Flagget" />
		<tag k="place" v="locality" />
		<tag k="ssr:stedsnr" v="651883" />
	</node>
	<node id="-633734" lat="60.3992388868" lon="5.17321111477">
		<tag k="fixme" v="consider natural=peak for the most distinct mountains in the district" />
		<tag k="name" v="Brakåsfjellet" />
		<tag k="natural" v="hill" />
		<tag k="place" v="locality" />
		<tag k="ssr:stedsnr" v="955881" />
	</node>
	<node id="-633221" lat="60.4253666669" lon="5.14120555543">
		<tag k="name" v="Kvithovden" />
		<tag k="natural" v="hill" />
		<tag k="place" v="locality" />
		<tag k="ssr:stedsnr" v="127644" />
	</node>
	<node id="-632820" lat="60.4195138878" lon="5.22781943909">
		<tag k="fixme" v="consider natural=peak for the most distinct mountains in the district" />
		<tag k="name" v="Litlevarden" />
		<tag k="natural" v="hill" />
		<tag k="ssr:stedsnr" v="712337" />
	</node>
	<node id="-632404" lat="60.4917444449" lon="5.12496943725">
		<tag k="name" v="Stortokanen" />
		<tag k="natural" v="hill" />
		<tag k="place" v="locality" />
		<tag k="ssr:stedsnr" v="227535" />
	</node>
	<node id="-632811" lat="60.4700833334" lon="5.11785556331">
		<tag k="name" v="Nonshaugen" />
		<tag k="natural" v="hill" />
		<tag k="place" v="locality" />
		<tag k="ssr:stedsnr" v="712279" />
	</node>
	<node id="-633728" lat="60.4963055519" lon="5.05163889277">
		<tag k="name" v="Skrubbavasshaugane" />
		<tag k="natural" v="hill" />
		<tag k="place" v="locality" />
		<tag k="ssr:stedsnr" v="955549" />
	</node>
	<node id="-632702" lat="60.4827027768" lon="5.15355555467">
		<tag k="fixme" v="consider natural=peak for the most distinct mountains in the district" />
		<tag k="name" v="Silkesåtene" />
		<tag k="natural" v="hill" />
		<tag k="place" v="locality" />
		<tag k="ssr:stedsnr" v="491395" />
	</node>
	<node id="-633725" lat="60.4857944486" lon="5.14694167487">
		<tag k="name" v="Storemyrhaugen" />
		<tag k="natural" v="hill" />
		<tag k="place" v="locality" />
		<tag k="ssr:stedsnr" v="955530" />
	</node>
	<node id="-633724" lat="60.4061999967" lon="5.2141888977">
		<tag k="name" v="Trollskaret" />
		<tag k="natural" v="hill" />
		<tag k="place" v="locality" />
		<tag k="ssr:stedsnr" v="955369" />
	</node>
	<node id="-633722" lat="60.4780638915" lon="5.1517416719">
		<tag k="name" v="Dagrosholet" />
		<tag k="natural" v="valley" />
		<tag k="place" v="locality" />
		<tag k="ssr:stedsnr" v="955325" />
	</node>
	<node id="-632800" lat="60.4141500016" lon="5.18442222937">
		<tag k="name" v="Krokåsdalen" />
		<tag k="natural" v="valley" />
		<tag k="place" v="locality" />
		<tag k="ssr:stedsnr" v="590263" />
	</node>
	<node id="-633208" lat="60.479933337" lon="5.10829721369">
		<tag k="name" v="Esingahaugen" />
		<tag k="natural" v="hill" />
		<tag k="place" v="locality" />
		<tag k="ssr:stedsnr" v="107729" />
	</node>
	<node id="-633717" lat="60.4967333318" lon="5.04725000244">
		<tag k="fixme" v="consider natural=peak for the most distinct mountains in the district" />
		<tag k="name" v="Krækjebærnipa" />
		<tag k="natural" v="hill" />
		<tag k="ssr:stedsnr" v="955284" />
	</node>
	<node id="-633204" lat="60.4668972202" lon="5.21887777347">
		<tag k="name" v="Buggehaugen" />
		<tag k="natural" v="hill" />
		<tag k="place" v="locality" />
		<tag k="ssr:stedsnr" v="107686" />
	</node>
	<node id="-633715" lat="60.5585055548" lon="4.96441945201">
		<tag k="fixme" v="consider natural=peak for the most distinct mountains in the district" />
		<tag k="name" v="Middagsfjellet" />
		<tag k="natural" v="hill" />
		<tag k="place" v="locality" />
		<tag k="ssr:stedsnr" v="955270" />
	</node>
	<node id="-633202" lat="60.4249972241" lon="5.21301666509">
		<tag k="name" v="Trettedalsklubben" />
		<tag k="natural" v="hill" />
		<tag k="place" v="locality" />
		<tag k="ssr:stedsnr" v="107672" />
	</node>
	<node id="-633713" lat="60.4112194406" lon="5.20152222527">
		<tag k="name" v="Dyrdalen" />
		<tag k="natural" v="valley" />
		<tag k="place" v="locality" />
		<tag k="ssr:stedsnr" v="955255" />
	</node>
	<node id="-633200" lat="60.4764972214" lon="5.18904443846">
		<tag k="fixme" v="consider natural=peak for the most distinct mountains in the district" />
		<tag k="name" v="Ramnefjellet" />
		<tag k="natural" v="hill" />
		<tag k="place" v="locality" />
		<tag k="ssr:stedsnr" v="106762" />
	</node>
	<node id="-633199" lat="60.4783499989" lon="5.19481111544">
		<tag k="fixme" v="consider natural=peak for the most distinct mountains in the district" />
		<tag k="name" v="Litlåsen" />
		<tag k="natural" v="hill" />
		<tag k="place" v="locality" />
		<tag k="ssr:stedsnr" v="106761" />
	</node>
	<node id="-632686" lat="60.4810250012" lon="5.11386666341">
		<tag k="name" v="Aurtodalen" />
		<tag k="natural" v="valley" />
		<tag k="place" v="locality" />
		<tag k="ssr:stedsnr" v="349742" />
	</node>
	<node id="-633197" lat="60.4759916686" lon="5.14910834218">
		<tag k="name" v="Merkesdalen" />
		<tag k="natural" v="valley" />
		<tag k="place" v="locality" />
		<tag k="ssr:stedsnr" v="106754" />
	</node>
	<node id="-632682" lat="60.4641583374" lon="5.18250278076">
		<tag k="name" v="Fjellvassbotnen" />
		<tag k="natural" v="valley" />
		<tag k="place" v="locality" />
		<tag k="ssr:stedsnr" v="349714" />
	</node>
	<node id="-633203" lat="60.4489361083" lon="5.08743055156">
		<tag k="fixme" v="consider natural=peak for the most distinct mountains in the district" />
		<tag k="name" v="Ospefjellet" />
		<tag k="natural" v="hill" />
		<tag k="place" v="locality" />
		<tag k="ssr:stedsnr" v="107677" />
	</node>
	<node id="-633191" lat="60.5440611153" lon="4.98619166622">
		<tag k="fixme" v="consider natural=peak for the most distinct mountains in the district" />
		<tag k="name" v="Ramsfjellet" />
		<tag k="natural" v="hill" />
		<tag k="place" v="locality" />
		<tag k="ssr:stedsnr" v="106592" />
	</node>
	<node id="-633700" lat="60.3937233971" lon="5.1695988317">
		<tag k="name" v="Straumberget" />
		<tag k="natural" v="hill" />
		<tag k="place" v="locality" />
		<tag k="ssr:stedsnr" v="855686" />
	</node>
	<node id="-632675" lat="60.5265944443" lon="5.04979999492">
		<tag k="name" v="Træet" />
		<tag k="natural" v="slope" />
		<tag k="place" v="locality" />
		<tag k="ssr:stedsnr" v="348575" />
	</node>
	<node id="-632674" lat="60.5263499986" lon="5.00405833008">
		<tag k="name" v="Grøno" />
		<tag k="natural" v="hill" />
		<tag k="place" v="locality" />
		<tag k="ssr:stedsnr" v="348570" />
	</node>
	<node id="-632673" lat="60.5192558557" lon="5.01615132901">
		<tag k="fixme" v="consider natural=peak for the most distinct mountains in the district" />
		<tag k="name" v="Bakkevarden" />
		<tag k="natural" v="hill" />
		<tag k="ssr:stedsnr" v="348569" />
	</node>
	<node id="-632672" lat="60.5271722222" lon="5.06338056338">
		<tag k="name" v="Reket" />
		<tag k="place" v="locality" />
		<tag k="ssr:stedsnr" v="348559" />
	</node>
	<node id="-632671" lat="60.5121111076" lon="5.11180000795">
		<tag k="name" v="Ørnareiret" />
		<tag k="place" v="locality" />
		<tag k="ssr:stedsnr" v="348555" />
	</node>
	<node id="-632670" lat="60.4463916665" lon="5.13885000657">
		<tag k="name" v="Kleiva" />
		<tag k="natural" v="hill" />
		<tag k="place" v="locality" />
		<tag k="ssr:stedsnr" v="348605" />
	</node>
	<node id="-632669" lat="60.4441027739" lon="5.17228610531">
		<tag k="name" v="Kikhaugen" />
		<tag k="natural" v="hill" />
		<tag k="place" v="locality" />
		<tag k="ssr:stedsnr" v="348604" />
	</node>
	<node id="-632668" lat="60.4971666687" lon="5.13121110409">
		<tag k="name" v="Almen" />
		<tag k="place" v="locality" />
		<tag k="ssr:stedsnr" v="348508" />
	</node>
	<node id="-632667" lat="60.4948416686" lon="5.14017500845">
		<tag k="name" v="Storekletten" />
		<tag k="natural" v="hill" />
		<tag k="place" v="locality" />
		<tag k="ssr:stedsnr" v="348506" />
	</node>
	<node id="-632666" lat="60.4000416636" lon="5.1983138893">
		<tag k="fixme" v="consider natural=peak for the most distinct mountains in the district" />
		<tag k="name" v="Mettedalsfjellet" />
		<tag k="natural" v="hill" />
		<tag k="place" v="locality" />
		<tag k="ssr:stedsnr" v="348359" />
	</node>
	<node id="-632664" lat="60.5192833362" lon="5.05419722436">
		<tag k="name" v="Hauglandsdalen" />
		<tag k="natural" v="valley" />
		<tag k="place" v="locality" />
		<tag k="ssr:stedsnr" v="348274" />
	</node>
	<node id="-633687" lat="60.4722333342" lon="5.19161111005">
		<tag k="name" v="Koladalen" />
		<tag k="natural" v="valley" />
		<tag k="place" v="locality" />
		<tag k="ssr:stedsnr" v="835726" />
	</node>
	<node id="-633174" lat="60.4016999967" lon="5.16791944295">
		<tag k="name" v="Fjellro" />
		<tag k="place" v="locality" />
		<tag k="ssr:stedsnr" v="105892" />
	</node>
	<node id="-633684" lat="60.5018072523" lon="5.09689644008">
		<tag k="name" v="Pålen" />
		<tag k="natural" v="valley" />
		<tag k="place" v="locality" />
		<tag k="ssr:stedsnr" v="834934" />
	</node>
	<node id="-633171" lat="60.5042694438" lon="5.13995000294">
		<tag k="name" v="Trongklyphaugen" />
		<tag k="natural" v="hill" />
		<tag k="place" v="locality" />
		<tag k="ssr:stedsnr" v="105362" />
	</node>
	<node id="-633169" lat="60.484413886" lon="5.1211527714">
		<tag k="fixme" v="consider natural=peak for the most distinct mountains in the district" />
		<tag k="name" v="Nordre Meåsen" />
		<tag k="natural" v="hill" />
		<tag k="place" v="locality" />
		<tag k="ssr:stedsnr" v="105347" />
	</node>
	<node id="-632656" lat="60.4955611146" lon="5.09699722476">
		<tag k="name" v="Kråhaugane" />
		<tag k="natural" v="hill" />
		<tag k="place" v="locality" />
		<tag k="ssr:stedsnr" v="470753" />
	</node>
	<node id="-633167" lat="60.4941833368" lon="5.10291945305">
		<tag k="name" v="Hundetjørnhaugen" />
		<tag k="natural" v="hill" />
		<tag k="place" v="locality" />
		<tag k="ssr:stedsnr" v="105340" />
	</node>
	<node id="-633678" lat="60.5212249979" lon="5.02498333">
		<tag k="name" v="Bobben" />
		<tag k="natural" v="hill" />
		<tag k="place" v="locality" />
		<tag k="ssr:stedsnr" v="834600" />
	</node>
	<node id="-632653" lat="60.4785222241" lon="5.10260834079">
		<tag k="name" v="Krossdalshaugane" />
		<tag k="natural" v="hill" />
		<tag k="place" v="locality" />
		<tag k="ssr:stedsnr" v="470721" />
	</node>
	<node id="-632802" lat="60.424780552" lon="5.1847722198">
		<tag k="name" v="Krokåshaugane" />
		<tag k="natural" v="hill" />
		<tag k="place" v="locality" />
		<tag k="ssr:stedsnr" v="590912" />
	</node>
	<node id="-633674" lat="60.5122611102" lon="5.10971665898">
		<tag k="name" v="Klemetsdalsnipa" />
		<tag k="place" v="locality" />
		<tag k="ssr:stedsnr" v="834588" />
	</node>
	<node id="-633673" lat="60.5146166672" lon="5.10218610628">
		<tag k="fixme" v="consider natural=peak for the most distinct mountains in the district" />
		<tag k="name" v="Grønnipa" />
		<tag k="natural" v="hill" />
		<tag k="ssr:stedsnr" v="834585" />
	</node>
	<node id="-632648" lat="60.4516972221" lon="5.07717500376">
		<tag k="name" v="Katten" />
		<tag k="place" v="locality" />
		<tag k="ssr:stedsnr" v="470646" />
	</node>
	<node id="-633669" lat="60.4994638922" lon="5.13948334095">
		<tag k="name" v="Stemhaugane" />
		<tag k="natural" v="hill" />
		<tag k="place" v="locality" />
		<tag k="ssr:stedsnr" v="834552" />
	</node>
	<node id="-633156" lat="60.4319249998" lon="5.22243054739">
		<tag k="name" v="Austdalen" />
		<tag k="natural" v="valley" />
		<tag k="place" v="locality" />
		<tag k="ssr:stedsnr" v="66583" />
	</node>
	<node id="-632730" lat="60.523830555" lon="5.0548027781">
		<tag k="name" v="Stølhaugane" />
		<tag k="natural" v="hill" />
		<tag k="place" v="locality" />
		<tag k="ssr:stedsnr" v="409940" />
	</node>
	<node id="-633151" lat="60.4896500024" lon="5.1281666746">
		<tag k="alt_name" v="Ospåsen;Åsebøåsen" />
		<tag k="fixme" v="consider natural=peak for the most distinct mountains in the district" />
		<tag k="name" v="Åsbøåsen" />
		<tag k="natural" v="hill" />
		<tag k="place" v="locality" />
		<tag k="ssr:stedsnr" v="66372" />
	</node>
	<node id="-633662" lat="60.4874777788" lon="5.16071944391">
		<tag k="name" v="Hatlevikhaugen" />
		<tag k="natural" v="hill" />
		<tag k="place" v="locality" />
		<tag k="ssr:stedsnr" v="834390" />
	</node>
	<node id="-632637" lat="60.483569447" lon="5.14811389683">
		<tag k="name" v="Lyhaugen" />
		<tag k="natural" v="hill" />
		<tag k="place" v="locality" />
		<tag k="ssr:stedsnr" v="470505" />
	</node>
	<node id="-633145" lat="60.485694448" lon="5.11176665759">
		<tag k="name" v="Brendaholet" />
		<tag k="natural" v="valley" />
		<tag k="place" v="locality" />
		<tag k="ssr:stedsnr" v="46751" />
	</node>
	<node id="-633144" lat="60.4838138881" lon="5.11111111859">
		<tag k="name" v="Fugledalen" />
		<tag k="natural" v="valley" />
		<tag k="place" v="locality" />
		<tag k="ssr:stedsnr" v="46750" />
	</node>
	<node id="-632629" lat="60.4615888902" lon="5.16080555494">
		<tag k="name" v="Stokkemyrhaugen" />
		<tag k="natural" v="hill" />
		<tag k="place" v="locality" />
		<tag k="ssr:stedsnr" v="469356" />
	</node>
	<node id="-632628" lat="60.4362583298" lon="5.05602500823">
		<tag k="name" v="Søre Hagen" />
		<tag k="place" v="locality" />
		<tag k="ssr:stedsnr" v="469345" />
	</node>
	<node id="-633138" lat="60.4591249971" lon="5.1302999986">
		<tag k="name" v="Litleskoghaugen" />
		<tag k="natural" v="hill" />
		<tag k="place" v="locality" />
		<tag k="ssr:stedsnr" v="46703" />
	</node>
	<node id="-633137" lat="60.4267083308" lon="5.2097416708">
		<tag k="name" v="Trettedalen" />
		<tag k="natural" v="valley" />
		<tag k="place" v="locality" />
		<tag k="ssr:stedsnr" v="46702" />
	</node>
	<node id="-632624" lat="60.4809861081" lon="5.12137777124">
		<tag k="fixme" v="consider natural=peak for the most distinct mountains in the district" />
		<tag k="name" v="Søre Meåsen" />
		<tag k="natural" v="hill" />
		<tag k="place" v="locality" />
		<tag k="ssr:stedsnr" v="469322" />
	</node>
	<node id="-633134" lat="60.4366194453" lon="5.209847219">
		<tag k="fixme" v="consider natural=peak for the most distinct mountains in the district" />
		<tag k="name" v="Kolbeinsvarden" />
		<tag k="natural" v="hill" />
		<tag k="place" v="locality" />
		<tag k="ssr:stedsnr" v="46182" />
	</node>
	<node id="-633644" lat="60.4571944482" lon="5.19577500436">
		<tag k="name" v="Skiftedalen" />
		<tag k="natural" v="valley" />
		<tag k="place" v="locality" />
		<tag k="ssr:stedsnr" v="794540" />
	</node>
	<node id="-633131" lat="60.523455559" lon="5.03123056031">
		<tag k="name" v="Kutræet" />
		<tag k="natural" v="slope" />
		<tag k="place" v="locality" />
		<tag k="ssr:stedsnr" v="45923" />
	</node>
	<node id="-633640" lat="60.4454916701" lon="5.20049444915">
		<tag k="name" v="Steinrusta" />
		<tag k="natural" v="ridge" />
		<tag k="place" v="locality" />
		<tag k="ssr:stedsnr" v="794481" />
	</node>
	<node id="-633127" lat="60.5361055568" lon="4.98489166155">
		<tag k="fixme" v="consider natural=peak for the most distinct mountains in the district" />
		<tag k="name" v="Kallekletten" />
		<tag k="natural" v="hill" />
		<tag k="ssr:stedsnr" v="45576" />
	</node>
	<node id="-632625" lat="60.4385833504" lon="5.06280095871">
		<tag k="name" v="Hilleshaugen" />
		<tag k="natural" v="hill" />
		<tag k="place" v="locality" />
		<tag k="ssr:stedsnr" v="469326" />
	</node>
	<node id="-632612" lat="60.4697888917" lon="5.22125000835">
		<tag k="name" v="Havnadalen" />
		<tag k="natural" v="valley" />
		<tag k="place" v="locality" />
		<tag k="ssr:stedsnr" v="289720" />
	</node>
	<node id="-632710" lat="60.4323277787" lon="5.19510833641">
		<tag k="fixme" v="consider natural=peak for the most distinct mountains in the district" />
		<tag k="name" v="Seterfjellet" />
		<tag k="natural" v="hill" />
		<tag k="place" v="locality" />
		<tag k="ssr:stedsnr" v="491542" />
	</node>
	<node id="-633634" lat="60.4839166686" lon="5.1063972172">
		<tag k="fixme" v="consider natural=peak for the most distinct mountains in the district" />
		<tag k="name" v="Fugledalsåsen" />
		<tag k="natural" v="hill" />
		<tag k="place" v="locality" />
		<tag k="ssr:stedsnr" v="774744" />
	</node>
	<node id="-632609" lat="60.4797083314" lon="5.12250832496">
		<tag k="name" v="Råsebeindalen" />
		<tag k="natural" v="valley" />
		<tag k="place" v="locality" />
		<tag k="ssr:stedsnr" v="288717" />
	</node>
	<node id="-632608" lat="60.4816472187" lon="5.1270499955">
		<tag k="fixme" v="consider natural=peak for the most distinct mountains in the district" />
		<tag k="name" v="Stølsøyna" />
		<tag k="natural" v="hill" />
		<tag k="place" v="locality" />
		<tag k="ssr:stedsnr" v="288714" />
	</node>
	<node id="-633631" lat="60.4469500023" lon="5.07241110288">
		<tag k="name" v="Moltehaugen" />
		<tag k="natural" v="hill" />
		<tag k="place" v="locality" />
		<tag k="ssr:stedsnr" v="774701" />
	</node>
	<node id="-633118" lat="60.4068194477" lon="5.20853332865">
		<tag k="fixme" v="consider natural=peak for the most distinct mountains in the district" />
		<tag k="name" v="Ørnafjellet" />
		<tag k="natural" v="hill" />
		<tag k="place" v="locality" />
		<tag k="ssr:stedsnr" v="45369" />
	</node>
	<node id="-633117" lat="60.4749166656" lon="5.16383611162">
		<tag k="name" v="Hesteneskanen" />
		<tag k="natural" v="hill" />
		<tag k="place" v="locality" />
		<tag k="ssr:stedsnr" v="45345" />
	</node>
	<node id="-633625" lat="60.4526888854" lon="5.15037499393">
		<tag k="name" v="Kråkhaugen" />
		<tag k="natural" v="hill" />
		<tag k="place" v="locality" />
		<tag k="ssr:stedsnr" v="773604" />
	</node>
	<node id="-633112" lat="60.5172305575" lon="5.07026388541">
		<tag k="name" v="Bjørndalshaugane" />
		<tag k="natural" v="hill" />
		<tag k="place" v="locality" />
		<tag k="ssr:stedsnr" v="45296" />
	</node>
	<node id="-632537" lat="60.494169445" lon="5.12463889499">
		<tag k="name" v="Haugarsdalen" />
		<tag k="natural" v="valley" />
		<tag k="place" v="locality" />
		<tag k="ssr:stedsnr" v="288493" />
	</node>
	<node id="-633619" lat="60.5150277803" lon="5.09636666313">
		<tag k="name" v="Gauvikhaugen" />
		<tag k="natural" v="hill" />
		<tag k="place" v="locality" />
		<tag k="ssr:stedsnr" v="773557" />
	</node>
	<node id="-633618" lat="60.501805556" lon="5.05764167137">
		<tag k="name" v="Trollmyrnipene" />
		<tag k="place" v="locality" />
		<tag k="ssr:stedsnr" v="773541" />
	</node>
	<node id="-633105" lat="60.4102527797" lon="5.17268055042">
		<tag k="name" v="Brendeklubben" />
		<tag k="place" v="locality" />
		<tag k="ssr:stedsnr" v="44876" />
	</node>
	<node id="-633616" lat="60.4998027801" lon="5.13093611879">
		<tag k="name" v="Rønhaugane" />
		<tag k="natural" v="hill" />
		<tag k="place" v="locality" />
		<tag k="ssr:stedsnr" v="773393" />
	</node>
	<node id="-633103" lat="60.4462750023" lon="5.17484165988">
		<tag k="name" v="Storhaugen" />
		<tag k="natural" v="hill" />
		<tag k="place" v="locality" />
		<tag k="ssr:stedsnr" v="44357" />
	</node>
	<node id="-633102" lat="60.4230611156" lon="5.19794444711">
		<tag k="name" v="Hushaugen" />
		<tag k="natural" v="hill" />
		<tag k="place" v="locality" />
		<tag k="ssr:stedsnr" v="44355" />
	</node>
	<node id="-632962" lat="60.4847111071" lon="5.09227777862">
		<tag k="fixme" v="consider natural=peak for the most distinct mountains in the district" />
		<tag k="name" v="Ålefjellet" />
		<tag k="natural" v="hill" />
		<tag k="place" v="locality" />
		<tag k="ssr:stedsnr" v="773315" />
	</node>
	<node id="-632535" lat="60.4761944454" lon="5.18643333491">
		<tag k="name" v="Vassbakken" />
		<tag k="natural" v="slope" />
		<tag k="place" v="locality" />
		<tag k="ssr:stedsnr" v="288728" />
	</node>
	<node id="-632584" lat="60.4727388862" lon="5.06843888894">
		<tag k="name" v="Tårnenipa" />
		<tag k="natural" v="hill" />
		<tag k="place" v="locality" />
		<tag k="ssr:stedsnr" v="450883" />
	</node>
	<node id="-632582" lat="60.4274111072" lon="5.22562500903">
		<tag k="fixme" v="consider natural=peak for the most distinct mountains in the district" />
		<tag k="name" v="Storevarden" />
		<tag k="natural" v="hill" />
		<tag k="place" v="locality" />
		<tag k="ssr:stedsnr" v="248624" />
	</node>
	<node id="-632705" lat="60.4746166636" lon="5.14932221379">
		<tag k="name" v="Hesteneskanen" />
		<tag k="natural" v="hill" />
		<tag k="place" v="locality" />
		<tag k="ssr:stedsnr" v="491452" />
	</node>
	<node id="-632559" lat="60.5094027784" lon="5.12141666341">
		<tag k="name" v="Setreskaret" />
		<tag k="natural" v="valley" />
		<tag k="place" v="locality" />
		<tag k="ssr:stedsnr" v="227557" />
	</node>
	<node id="-633087" lat="60.4691000012" lon="5.17375554927">
		<tag k="fixme" v="multiple name tags, choose one and add the other to alt_name; consider natural=peak for the most distinct mountains in the district" />
		<tag k="name" v="Storåsen;Dronninga" />
		<tag k="natural" v="hill" />
		<tag k="place" v="locality" />
		<tag k="ssr:stedsnr" v="6463" />
	</node>
	<node id="-633083" lat="60.4316749999" lon="5.17159167114">
		<tag k="name" v="Nipa" />
		<tag k="natural" v="hill" />
		<tag k="place" v="locality" />
		<tag k="ssr:stedsnr" v="5585" />
	</node>
	<node id="-633594" lat="60.5113250001" lon="5.12229999506">
		<tag k="name" v="Setredalen" />
		<tag k="natural" v="valley" />
		<tag k="place" v="locality" />
		<tag k="ssr:stedsnr" v="652547" />
	</node>
	<node id="-632569" lat="60.4711166634" lon="5.08820832941">
		<tag k="fixme" v="consider natural=peak for the most distinct mountains in the district" />
		<tag k="name" v="Hattafjellet" />
		<tag k="natural" v="hill" />
		<tag k="place" v="locality" />
		<tag k="ssr:stedsnr" v="228757" />
	</node>
	<node id="-632932" lat="60.5155722192" lon="5.10401666269">
		<tag k="name" v="Grønnipeskaret" />
		<tag k="natural" v="valley" />
		<tag k="place" v="locality" />
		<tag k="ssr:stedsnr" v="895542" />
	</node>
	<node id="-633076" lat="60.458388886" lon="5.18268055857">
		<tag k="name" v="Terleiken" />
		<tag k="natural" v="hill" />
		<tag k="place" v="locality" />
		<tag k="ssr:stedsnr" v="5523" />
	</node>
	<node id="-633587" lat="60.4559388872" lon="5.09879999537">
		<tag k="alt_name" v="Nordavindhaugen" />
		<tag k="name" v="Nordavindshaugen" />
		<tag k="natural" v="hill" />
		<tag k="place" v="locality" />
		<tag k="ssr:stedsnr" v="652680" />
	</node>
	<node id="-633586" lat="60.4585444402" lon="5.16965832487">
		<tag k="name" v="Lindhaugen" />
		<tag k="natural" v="hill" />
		<tag k="place" v="locality" />
		<tag k="ssr:stedsnr" v="652672" />
	</node>
	<node id="-633073" lat="60.4792611089" lon="5.13130554838">
		<tag k="fixme" v="consider natural=peak for the most distinct mountains in the district" />
		<tag k="name" v="Gausfjellet" />
		<tag k="natural" v="hill" />
		<tag k="place" v="locality" />
		<tag k="ssr:stedsnr" v="5362" />
	</node>
	<node id="-633584" lat="60.4912055558" lon="5.19805833812">
		<tag k="name" v="Høgholten" />
		<tag k="natural" v="hill" />
		<tag k="place" v="locality" />
		<tag k="ssr:stedsnr" v="652530" />
	</node>
	<node id="-633128" lat="60.4469138853" lon="5.15364166742">
		<tag k="name" v="Buaren" />
		<tag k="place" v="locality" />
		<tag k="ssr:stedsnr" v="45593" />
	</node>
	<node id="-632556" lat="60.5691750031" lon="4.94695833232">
		<tag k="name" v="Kongshella" />
		<tag k="place" v="locality" />
		<tag k="ssr:stedsnr" v="227604" />
	</node>
	<node id="-633578" lat="60.4912527778" lon="5.10956666028">
		<tag k="name" v="Ljosskaret" />
		<tag k="natural" v="valley" />
		<tag k="place" v="locality" />
		<tag k="ssr:stedsnr" v="651732" />
	</node>
	<node id="-632615" lat="60.419022218" lon="5.22193889677">
		<tag k="name" v="Skjøndalen" />
		<tag k="natural" v="valley" />
		<tag k="place" v="locality" />
		<tag k="ssr:stedsnr" v="469245" />
	</node>
	<node id="-633064" lat="60.4868833367" lon="5.1973888893">
		<tag k="name" v="Tremmene" />
		<tag k="place" v="locality" />
		<tag k="ssr:stedsnr" v="955523" />
	</node>
	<node id="-633063" lat="60.4826472221" lon="5.14335555809">
		<tag k="name" v="Hauglandsdalen" />
		<tag k="natural" v="valley" />
		<tag k="place" v="locality" />
		<tag k="ssr:stedsnr" v="955513" />
	</node>
	<node id="-633573" lat="60.4884416696" lon="5.19847499093">
		<tag k="name" v="Storekleiva" />
		<tag k="natural" v="slope" />
		<tag k="place" v="locality" />
		<tag k="ssr:stedsnr" v="651362" />
	</node>
	<node id="-632548" lat="60.490880559" lon="5.1333194375">
		<tag k="fixme" v="consider natural=peak for the most distinct mountains in the district" />
		<tag k="name" v="Svultåsen" />
		<tag k="natural" v="hill" />
		<tag k="place" v="locality" />
		<tag k="ssr:stedsnr" v="295078" />
	</node>
	<node id="-633570" lat="60.4596250006" lon="5.10625277301">
		<tag k="name" v="Grønhaugen" />
		<tag k="natural" v="hill" />
		<tag k="place" v="locality" />
		<tag k="ssr:stedsnr" v="651316" />
	</node>
	<node id="-632645" lat="60.4384055555" lon="5.04979999432">
		<tag k="name" v="Purka" />
		<tag k="place" v="locality" />
		<tag k="ssr:stedsnr" v="470626" />
	</node>
	<node id="-632543" lat="60.4581722212" lon="5.13588333164">
		<tag k="fixme" v="consider natural=peak for the most distinct mountains in the district" />
		<tag k="name" v="Sigvarden" />
		<tag k="natural" v="hill" />
		<tag k="ssr:stedsnr" v="289733" />
	</node>
	<node id="-632541" lat="60.465697221" lon="5.16015554939">
		<tag k="name" v="Spondalen" />
		<tag k="natural" v="valley" />
		<tag k="place" v="locality" />
		<tag k="ssr:stedsnr" v="289722" />
	</node>
	<node id="-632540" lat="60.4232472247" lon="5.223083325">
		<tag k="name" v="Skogedalen" />
		<tag k="natural" v="valley" />
		<tag k="place" v="locality" />
		<tag k="ssr:stedsnr" v="288593" />
	</node>
	<node id="-633561" lat="60.5141694424" lon="5.11689167317">
		<tag k="name" v="Klemetsdalen" />
		<tag k="natural" v="valley" />
		<tag k="place" v="locality" />
		<tag k="ssr:stedsnr" v="631473" />
	</node>
	<node id="-633048" lat="60.4760583376" lon="5.10989999538">
		<tag k="name" v="Kalvedalen" />
		<tag k="natural" v="valley" />
		<tag k="place" v="locality" />
		<tag k="ssr:stedsnr" v="896767" />
	</node>
	<node id="-633047" lat="60.4817305596" lon="5.09321943815">
		<tag k="name" v="Nilshaugane" />
		<tag k="natural" v="hill" />
		<tag k="place" v="locality" />
		<tag k="ssr:stedsnr" v="896756" />
	</node>
	<node id="-632534" lat="60.5269777795" lon="5.02370833736">
		<tag k="name" v="Dyrebotnen" />
		<tag k="natural" v="valley" />
		<tag k="place" v="locality" />
		<tag k="ssr:stedsnr" v="288546" />
	</node>
	<node id="-632531" lat="60.5138277735" lon="5.10881666162">
		<tag k="name" v="Storefjellskaret" />
		<tag k="natural" v="valley" />
		<tag k="place" v="locality" />
		<tag k="ssr:stedsnr" v="288535" />
	</node>
	<node id="-632530" lat="60.513224998" lon="5.09003888948">
		<tag k="name" v="Brendehaugen" />
		<tag k="natural" v="hill" />
		<tag k="place" v="locality" />
		<tag k="ssr:stedsnr" v="288530" />
	</node>
	<node id="-632529" lat="60.5111750041" lon="5.02233332584">
		<tag k="name" v="Flatskarhaugen" />
		<tag k="natural" v="hill" />
		<tag k="place" v="locality" />
		<tag k="ssr:stedsnr" v="288526" />
	</node>
	<node id="-632528" lat="60.5130083362" lon="5.01878054976">
		<tag k="name" v="Storehaugen" />
		<tag k="natural" v="hill" />
		<tag k="place" v="locality" />
		<tag k="ssr:stedsnr" v="288524" />
	</node>
	<node id="-633443" lat="60.489066664" lon="5.14798889473">
		<tag k="name" v="Skitdalshaugane" />
		<tag k="natural" v="hill" />
		<tag k="place" v="locality" />
		<tag k="ssr:stedsnr" v="530544" />
	</node>
	<node id="-632610" lat="60.4794916642" lon="5.15477222621">
		<tag k="name" v="Fjellstovehaugen" />
		<tag k="natural" v="hill" />
		<tag k="place" v="locality" />
		<tag k="ssr:stedsnr" v="288720" />
	</node>
	<node id="-632522" lat="60.4868722251" lon="5.15476944751">
		<tag k="name" v="Leitet" />
		<tag k="natural" v="slope" />
		<tag k="place" v="locality" />
		<tag k="ssr:stedsnr" v="288479" />
	</node>
	<node id="-632865" lat="60.4826027744" lon="5.16915832995">
		<tag k="name" v="Tona" />
		<tag k="natural" v="hill" />
		<tag k="place" v="locality" />
		<tag k="ssr:stedsnr" v="734415" />
	</node>
	<node id="-633540" lat="60.4862500029" lon="5.10092221799">
		<tag k="name" v="Samuelssveene" />
		<tag k="natural" v="hill" />
		<tag k="place" v="locality" />
		<tag k="ssr:stedsnr" v="592759" />
	</node>
	<node id="-633027" lat="60.4070916684" lon="5.20337221633">
		<tag k="fixme" v="consider natural=peak for the most distinct mountains in the district" />
		<tag k="name" v="Bustafjellet" />
		<tag k="natural" v="hill" />
		<tag k="place" v="locality" />
		<tag k="ssr:stedsnr" v="834919" />
	</node>
	<node id="-633538" lat="60.4622027789" lon="5.10515833808">
		<tag k="name" v="Kalsihaugen" />
		<tag k="natural" v="hill" />
		<tag k="place" v="locality" />
		<tag k="ssr:stedsnr" v="592748" />
	</node>
	<node id="-633024" lat="60.4888138912" lon="5.09499445186">
		<tag k="name" v="Futlaupdalen" />
		<tag k="natural" v="valley" />
		<tag k="place" v="locality" />
		<tag k="ssr:stedsnr" v="834724" />
	</node>
	<node id="-633120" lat="60.5056805555" lon="5.11134999668">
		<tag k="fixme" v="consider natural=peak for the most distinct mountains in the district" />
		<tag k="name" v="Byrkjeåsen" />
		<tag k="natural" v="hill" />
		<tag k="place" v="locality" />
		<tag k="ssr:stedsnr" v="45537" />
	</node>
	<node id="-633021" lat="60.5333472215" lon="4.98674444196">
		<tag k="fixme" v="consider natural=peak for the most distinct mountains in the district" />
		<tag k="name" v="Oksneskletten" />
		<tag k="natural" v="hill" />
		<tag k="ssr:stedsnr" v="834617" />
	</node>
	<node id="-632508" lat="60.4600583371" lon="5.12174166428">
		<tag k="name" v="Kalvetohaugen" />
		<tag k="natural" v="hill" />
		<tag k="place" v="locality" />
		<tag k="ssr:stedsnr" v="287366" />
	</node>
	<node id="-633018" lat="60.4054666709" lon="5.1673805498">
		<tag k="name" v="Slettebrekka" />
		<tag k="natural" v="slope" />
		<tag k="place" v="locality" />
		<tag k="ssr:stedsnr" v="834361" />
	</node>
	<node id="-633119" lat="60.5576027806" lon="4.96716665911">
		<tag k="fixme" v="consider natural=peak for the most distinct mountains in the district" />
		<tag k="name" v="Knoltrefjellet" />
		<tag k="natural" v="hill" />
		<tag k="place" v="locality" />
		<tag k="ssr:stedsnr" v="45396" />
	</node>
	<node id="-632692" lat="60.4685527734" lon="5.13800832764">
		<tag k="fixme" v="consider natural=peak for the most distinct mountains in the district" />
		<tag k="name" v="Annfinnåsen" />
		<tag k="natural" v="hill" />
		<tag k="place" v="locality" />
		<tag k="ssr:stedsnr" v="490394" />
	</node>
	<node id="-633526" lat="60.5205722199" lon="5.05814721988">
		<tag k="name" v="Ormehaugane" />
		<tag k="natural" v="hill" />
		<tag k="place" v="locality" />
		<tag k="ssr:stedsnr" v="591559" />
	</node>
	<node id="-632501" lat="60.4543833354" lon="5.15923055065">
		<tag k="name" v="Storhaugen" />
		<tag k="natural" v="hill" />
		<tag k="place" v="locality" />
		<tag k="ssr:stedsnr" v="167713" />
	</node>
	<node id="-632657" lat="60.4793944406" lon="5.19133054986">
		<tag k="name" v="Krutkulene" />
		<tag k="place" v="locality" />
		<tag k="ssr:stedsnr" v="470757" />
	</node>
	<node id="-633010" lat="60.4428166637" lon="5.16722778041">
		<tag k="fixme" v="consider natural=peak for the most distinct mountains in the district" />
		<tag k="name" v="Helleren" />
		<tag k="natural" v="hill" />
		<tag k="place" v="locality" />
		<tag k="ssr:stedsnr" v="935977" />
	</node>
	<node id="-632497" lat="60.4033666645" lon="5.19198610925">
		<tag k="fixme" v="consider natural=peak for the most distinct mountains in the district" />
		<tag k="name" v="Kyrkjefjellet" />
		<tag k="natural" v="hill" />
		<tag k="place" v="locality" />
		<tag k="ssr:stedsnr" v="166926" />
	</node>
	<node id="-632496" lat="60.4067305584" lon="5.19744721461">
		<tag k="name" v="Orrtua" />
		<tag k="place" v="locality" />
		<tag k="ssr:stedsnr" v="166925" />
	</node>
	<node id="-633518" lat="60.4878495992" lon="5.19627641942">
		<tag k="name" v="Oterdalen" />
		<tag k="natural" v="valley" />
		<tag k="place" v="locality" />
		<tag k="ssr:stedsnr" v="591507" />
	</node>
	<node id="-633517" lat="60.4882055582" lon="5.14277222408">
		<tag k="name" v="Posholet" />
		<tag k="place" v="locality" />
		<tag k="ssr:stedsnr" v="591501" />
	</node>
	<node id="-632492" lat="60.5165200935" lon="5.0234908163">
		<tag k="fixme" v="consider natural=peak for the most distinct mountains in the district" />
		<tag k="name" v="Storevarden" />
		<tag k="natural" v="hill" />
		<tag k="ssr:stedsnr" v="166576" />
	</node>
	<node id="-633515" lat="60.4812416633" lon="5.17447776954">
		<tag k="name" v="Kaldalen" />
		<tag k="natural" v="valley" />
		<tag k="place" v="locality" />
		<tag k="ssr:stedsnr" v="591491" />
	</node>
	<node id="-632490" lat="60.5138277805" lon="5.09454444947">
		<tag k="name" v="Kvernhusdalen" />
		<tag k="natural" v="valley" />
		<tag k="place" v="locality" />
		<tag k="ssr:stedsnr" v="166564" />
	</node>
	<node id="-632489" lat="60.5099694421" lon="5.05433334126">
		<tag k="name" v="Storevardshaugane" />
		<tag k="natural" v="hill" />
		<tag k="place" v="locality" />
		<tag k="ssr:stedsnr" v="166562" />
	</node>
	<node id="-633510" lat="60.4262027777" lon="5.19388611612">
		<tag k="name" v="Norddalen" />
		<tag k="natural" v="valley" />
		<tag k="place" v="locality" />
		<tag k="ssr:stedsnr" v="590362" />
	</node>
	<node id="-632503" lat="60.4569916655" lon="5.1130722284">
		<tag k="name" v="Kamhaugen" />
		<tag k="natural" v="hill" />
		<tag k="place" v="locality" />
		<tag k="ssr:stedsnr" v="167721" />
	</node>
	<node id="-633505" lat="60.4156666646" lon="5.15338055916">
		<tag k="name" v="Haugadalen" />
		<tag k="natural" v="valley" />
		<tag k="place" v="locality" />
		<tag k="ssr:stedsnr" v="590361" />
	</node>
	<node id="-632480" lat="60.4185555549" lon="5.21198611905">
		<tag k="name" v="Kleiva" />
		<tag k="natural" v="slope" />
		<tag k="place" v="locality" />
		<tag k="ssr:stedsnr" v="166263" />
	</node>
	<node id="-633503" lat="60.4563583317" lon="5.23337778423">
		<tag k="name" v="Aspehaugen" />
		<tag k="natural" v="hill" />
		<tag k="place" v="locality" />
		<tag k="ssr:stedsnr" v="590351" />
	</node>
	<node id="-633502" lat="60.4390083338" lon="5.05332500589">
		<tag k="name" v="Nordre Hagen" />
		<tag k="place" v="locality" />
		<tag k="ssr:stedsnr" v="590342" />
	</node>
	<node id="-632989" lat="60.4738027759" lon="5.19415278573">
		<tag k="name" v="Svartedalen" />
		<tag k="natural" v="valley" />
		<tag k="place" v="locality" />
		<tag k="ssr:stedsnr" v="774725" />
	</node>
	<node id="-633572" lat="60.4727527758" lon="5.20950832723">
		<tag k="fixme" v="consider natural=peak for the most distinct mountains in the district" />
		<tag k="name" v="Kongshaugen" />
		<tag k="natural" v="hill" />
		<tag k="ssr:stedsnr" v="651357" />
	</node>
	<node id="-632986" lat="60.4673222234" lon="5.15749167279">
		<tag k="fixme" v="consider natural=peak for the most distinct mountains in the district" />
		<tag k="name" v="Brannfjellet" />
		<tag k="natural" v="hill" />
		<tag k="place" v="locality" />
		<tag k="ssr:stedsnr" v="774711" />
	</node>
	<node id="-632622" lat="60.4894222202" lon="5.1042583333">
		<tag k="fixme" v="consider natural=peak for the most distinct mountains in the district" />
		<tag k="name" v="Sevfjellet" />
		<tag k="natural" v="hill" />
		<tag k="old_name" v="Vestre Langfjellet" />
		<tag k="place" v="locality" />
		<tag k="ssr:stedsnr" v="469313" />
	</node>
	<node id="-633495" lat="60.5417361138" lon="5.00709721681">
		<tag k="name" v="Tjuvberget" />
		<tag k="natural" v="hill" />
		<tag k="place" v="locality" />
		<tag k="ssr:stedsnr" v="571518" />
	</node>
	<node id="-633494" lat="60.5392722243" lon="5.01010277769">
		<tag k="fixme" v="consider natural=peak for the most distinct mountains in the district" />
		<tag k="name" v="Lonevardåsen" />
		<tag k="natural" v="hill" />
		<tag k="place" v="locality" />
		<tag k="ssr:stedsnr" v="571516" />
	</node>
	<node id="-632601" lat="60.4816222239" lon="5.14589444556">
		<tag k="name" v="Rasmusholet" />
		<tag k="natural" v="valley" />
		<tag k="place" v="locality" />
		<tag k="ssr:stedsnr" v="288471" />
	</node>
	<node id="-632979" lat="60.423925" lon="5.17510833773">
		<tag k="name" v="Botnen" />
		<tag k="natural" v="valley" />
		<tag k="place" v="locality" />
		<tag k="ssr:stedsnr" v="773873" />
	</node>
	<node id="-632515" lat="60.425472222" lon="5.17391666602">
		<tag k="name" v="Torvkleiva" />
		<tag k="natural" v="hill" />
		<tag k="place" v="locality" />
		<tag k="ssr:stedsnr" v="287891" />
	</node>
	<node id="-632976" lat="60.3968305595" lon="5.16580000794">
		<tag k="name" v="Brakedalen" />
		<tag k="natural" v="valley" />
		<tag k="place" v="locality" />
		<tag k="ssr:stedsnr" v="773860" />
	</node>
	<node id="-632973" lat="60.4789222189" lon="5.20348611931">
		<tag k="name" v="Sagskaret" />
		<tag k="natural" v="valley" />
		<tag k="place" v="locality" />
		<tag k="ssr:stedsnr" v="773741" />
	</node>
	<node id="-632460" lat="60.5135555519" lon="5.05533056129">
		<tag k="name" v="Leirdalen" />
		<tag k="natural" v="valley" />
		<tag k="place" v="locality" />
		<tag k="ssr:stedsnr" v="249655" />
	</node>
	<node id="-633681" lat="60.4801694484" lon="5.13920556352">
		<tag k="name" v="Stykkedalen" />
		<tag k="natural" v="valley" />
		<tag k="place" v="locality" />
		<tag k="ssr:stedsnr" v="834744" />
	</node>
	<node id="-632967" lat="60.4872972183" lon="5.12792777828">
		<tag k="name" v="Meiane" />
		<tag k="place" v="locality" />
		<tag k="ssr:stedsnr" v="773507" />
	</node>
	<node id="-633476" lat="60.474205553" lon="5.12228889756">
		<tag k="fixme" v="consider natural=peak for the most distinct mountains in the district" />
		<tag k="name" v="Klettane" />
		<tag k="natural" v="hill" />
		<tag k="place" v="locality" />
		<tag k="ssr:stedsnr" v="551413" />
	</node>
	<node id="-633576" lat="60.4083527752" lon="5.17352499329">
		<tag k="fixme" v="consider natural=peak for the most distinct mountains in the district" />
		<tag k="name" v="Sørafjellet" />
		<tag k="natural" v="hill" />
		<tag k="place" v="locality" />
		<tag k="ssr:stedsnr" v="651377" />
	</node>
	<node id="-632536" lat="60.4926888921" lon="5.12410833588">
		<tag k="name" v="Ormkanen" />
		<tag k="natural" v="hill" />
		<tag k="place" v="locality" />
		<tag k="ssr:stedsnr" v="288490" />
	</node>
	<node id="-633466" lat="60.4882999981" lon="5.11539721385">
		<tag k="fixme" v="consider natural=peak for the most distinct mountains in the district" />
		<tag k="name" v="Baset" />
		<tag k="natural" v="hill" />
		<tag k="ssr:stedsnr" v="531736" />
	</node>
	<node id="-633023" lat="60.4809111075" lon="5.19758889635">
		<tag k="name" v="Sagadalen" />
		<tag k="natural" v="valley" />
		<tag k="place" v="locality" />
		<tag k="ssr:stedsnr" v="834506" />
	</node>
	<node id="-632638" lat="60.4973638876" lon="5.14803888634">
		<tag k="name" v="Ospedalen" />
		<tag k="natural" v="valley" />
		<tag k="place" v="locality" />
		<tag k="ssr:stedsnr" v="470528" />
	</node>
	<node id="-632949" lat="60.4632" lon="5.11031110627">
		<tag k="name" v="Seljehaugen" />
		<tag k="natural" v="hill" />
		<tag k="place" v="locality" />
		<tag k="ssr:stedsnr" v="896749" />
	</node>
	<node id="-632436" lat="60.4941444481" lon="5.15918888125">
		<tag k="name" v="Nedre Midtskaret" />
		<tag k="natural" v="valley" />
		<tag k="place" v="locality" />
		<tag k="ssr:stedsnr" v="45519" />
	</node>
	<node id="-632434" lat="60.4879666659" lon="5.14970000715">
		<tag k="name" v="Silkesåtedalen" />
		<tag k="natural" v="valley" />
		<tag k="place" v="locality" />
		<tag k="ssr:stedsnr" v="45515" />
	</node>
	<node id="-632595" lat="60.4937777778" lon="5.11500556094">
		<tag k="fixme" v="consider natural=peak for the most distinct mountains in the district" />
		<tag k="name" v="Ekornfjellet" />
		<tag k="natural" v="hill" />
		<tag k="place" v="locality" />
		<tag k="ssr:stedsnr" v="287954" />
	</node>
	<node id="-632429" lat="60.4350944446" lon="5.19794722063">
		<tag k="fixme" v="consider natural=peak for the most distinct mountains in the district" />
		<tag k="name" v="Børefjellet" />
		<tag k="natural" v="hill" />
		<tag k="place" v="locality" />
		<tag k="ssr:stedsnr" v="228182" />
	</node>
	<node id="-633451" lat="60.4087722212" lon="5.21485278502">
		<tag k="name" v="Hesdalen" />
		<tag k="natural" v="valley" />
		<tag k="place" v="locality" />
		<tag k="ssr:stedsnr" v="530908" />
	</node>
	<node id="-632937" lat="60.5732750046" lon="4.95146667448">
		<tag k="fixme" v="consider natural=peak for the most distinct mountains in the district" />
		<tag k="name" v="Herdleåsen" />
		<tag k="natural" v="hill" />
		<tag k="place" v="locality" />
		<tag k="ssr:stedsnr" v="895572" />
	</node>
	<node id="-633020" lat="60.5284499975" lon="5.01344166001">
		<tag k="fixme" v="consider natural=peak for the most distinct mountains in the district" />
		<tag k="name" v="Bruna" />
		<tag k="natural" v="hill" />
		<tag k="ssr:stedsnr" v="834614" />
	</node>
	<node id="-632422" lat="60.5342472259" lon="5.00278055591">
		<tag k="name" v="Skråmestøkletten" />
		<tag k="natural" v="hill" />
		<tag k="place" v="locality" />
		<tag k="ssr:stedsnr" v="227924" />
	</node>
	<node id="-632421" lat="60.4789861135" lon="5.19226943909">
		<tag k="name" v="Oksebåsen" />
		<tag k="place" v="locality" />
		<tag k="ssr:stedsnr" v="227745" />
	</node>
	<node id="-632437" lat="60.5001388922" lon="5.15756943498">
		<tag k="fixme" v="consider natural=peak for the most distinct mountains in the district" />
		<tag k="name" v="Høgafjellet" />
		<tag k="natural" v="hill" />
		<tag k="place" v="locality" />
		<tag k="ssr:stedsnr" v="45526" />
	</node>
	<node id="-632419" lat="60.4948777734" lon="5.10806110322">
		<tag k="name" v="Oldrane" />
		<tag k="place" v="locality" />
		<tag k="ssr:stedsnr" v="227741" />
	</node>
	<node id="-633442" lat="60.4908611119" lon="5.1408138962">
		<tag k="name" v="Vassdalen" />
		<tag k="natural" v="valley" />
		<tag k="place" v="locality" />
		<tag k="ssr:stedsnr" v="530542" />
	</node>
	<node id="-633441" lat="60.486277775" lon="5.16109721765">
		<tag k="name" v="Hatlevikbotnen" />
		<tag k="natural" v="valley" />
		<tag k="place" v="locality" />
		<tag k="ssr:stedsnr" v="530535" />
	</node>
	<node id="-632928" lat="60.4895250035" lon="5.18954722711">
		<tag k="name" v="Saltbudalen" />
		<tag k="natural" v="valley" />
		<tag k="place" v="locality" />
		<tag k="ssr:stedsnr" v="895505" />
	</node>
	<node id="-632927" lat="60.4825638898" lon="5.1518944481">
		<tag k="name" v="Fallekråna" />
		<tag k="place" v="locality" />
		<tag k="ssr:stedsnr" v="895487" />
	</node>
	<node id="-632933" lat="60.5174888893" lon="5.09824166521">
		<tag k="name" v="Jonsokhaugen" />
		<tag k="natural" v="hill" />
		<tag k="place" v="locality" />
		<tag k="ssr:stedsnr" v="895543" />
	</node>
	<node id="-633530" lat="60.4424500026" lon="5.11053055308">
		<tag k="name" v="Vardneshaugane" />
		<tag k="natural" v="hill" />
		<tag k="place" v="locality" />
		<tag k="ssr:stedsnr" v="591636" />
	</node>
	<node id="-633434" lat="60.5495083327" lon="4.97713333985">
		<tag k="fixme" v="consider natural=peak for the most distinct mountains in the district" />
		<tag k="name" v="Sanninarivarden" />
		<tag k="natural" v="hill" />
		<tag k="ssr:stedsnr" v="530312" />
	</node>
	<node id="-632409" lat="60.5142055544" lon="5.05564722716">
		<tag k="name" v="Leirdalshaugane" />
		<tag k="natural" v="hill" />
		<tag k="place" v="locality" />
		<tag k="ssr:stedsnr" v="227568" />
	</node>
	<node id="-633188" lat="60.514244445" lon="5.07423334161">
		<tag k="name" v="Brandane" />
		<tag k="natural" v="hill" />
		<tag k="place" v="locality" />
		<tag k="ssr:stedsnr" v="106552" />
	</node>
	<node id="-632406" lat="60.4960722221" lon="5.17218334006">
		<tag k="name" v="Kattet" />
		<tag k="place" v="locality" />
		<tag k="ssr:stedsnr" v="227542" />
	</node>
	<node id="-632917" lat="60.4577166682" lon="5.21653333763">
		<tag k="name" v="Vassbotnen" />
		<tag k="natural" v="valley" />
		<tag k="place" v="locality" />
		<tag k="ssr:stedsnr" v="713713" />
	</node>
	<node id="-632916" lat="60.4634972214" lon="5.14468889118">
		<tag k="name" v="Tveitdalen" />
		<tag k="natural" v="valley" />
		<tag k="place" v="locality" />
		<tag k="ssr:stedsnr" v="713709" />
	</node>
	<node id="-632590" lat="60.4160861079" lon="5.20504444852">
		<tag k="fixme" v="consider natural=peak for the most distinct mountains in the district" />
		<tag k="name" v="Varden" />
		<tag k="natural" v="hill" />
		<tag k="ssr:stedsnr" v="287406" />
	</node>
	<node id="-632402" lat="60.4447361132" lon="5.12671944757">
		<tag k="name" v="Kobbhaugen" />
		<tag k="natural" v="hill" />
		<tag k="place" v="locality" />
		<tag k="ssr:stedsnr" v="227341" />
	</node>
	<node id="-632913" lat="60.494877779" lon="5.13600277228">
		<tag k="name" v="Stora Lammetona" />
		<tag k="place" v="locality" />
		<tag k="ssr:stedsnr" v="713559" />
	</node>
	<node id="-632400" lat="60.4750388879" lon="5.13209443618">
		<tag k="fixme" v="consider natural=peak for the most distinct mountains in the district" />
		<tag k="name" v="Stongavarden" />
		<tag k="natural" v="hill" />
		<tag k="ssr:stedsnr" v="227334" />
	</node>
	<node id="-632399" lat="60.5142972211" lon="5.06551110792">
		<tag k="name" v="Lushaugane" />
		<tag k="natural" v="hill" />
		<tag k="place" v="locality" />
		<tag k="ssr:stedsnr" v="227301" />
	</node>
	<node id="-632910" lat="60.45678889" lon="5.09530556209">
		<tag k="name" v="Såtene" />
		<tag k="natural" v="hill" />
		<tag k="place" v="locality" />
		<tag k="ssr:stedsnr" v="894954" />
	</node>
	<node id="-632909" lat="60.5532166623" lon="4.97931943715">
		<tag k="fixme" v="consider natural=peak for the most distinct mountains in the district" />
		<tag k="name" v="Mjølkevikvarden" />
		<tag k="natural" v="hill" />
		<tag k="ssr:stedsnr" v="894949" />
	</node>
	<node id="-633186" lat="60.5099027743" lon="5.08928888307">
		<tag k="name" v="Midtvardhaugane" />
		<tag k="natural" v="hill" />
		<tag k="place" v="locality" />
		<tag k="ssr:stedsnr" v="106543" />
	</node>
	<node id="-632906" lat="60.4033944416" lon="5.16079722496">
		<tag k="name" v="Vindfellen" />
		<tag k="place" v="locality" />
		<tag k="ssr:stedsnr" v="894898" />
	</node>
	<node id="-632905" lat="60.4146222201" lon="5.18800277623">
		<tag k="fixme" v="consider natural=peak for the most distinct mountains in the district" />
		<tag k="name" v="Gunnlafjellet" />
		<tag k="natural" v="hill" />
		<tag k="place" v="locality" />
		<tag k="ssr:stedsnr" v="712219" />
	</node>
	<node id="-632902" lat="60.4688222251" lon="5.08318888075">
		<tag k="fixme" v="consider natural=peak for the most distinct mountains in the district" />
		<tag k="name" v="Vardafjellet" />
		<tag k="natural" v="hill" />
		<tag k="place" v="locality" />
		<tag k="ssr:stedsnr" v="894353" />
	</node>
	<node id="-632899" lat="60.4971916702" lon="5.10913889598">
		<tag k="name" v="Oksen" />
		<tag k="place" v="locality" />
		<tag k="ssr:stedsnr" v="894338" />
	</node>
	<node id="-633405" lat="60.4672194475" lon="5.11810277447">
		<tag k="name" v="Torsenhelleren" />
		<tag k="natural" v="hill" />
		<tag k="place" v="locality" />
		<tag k="ssr:stedsnr" v="410709" />
	</node>
	<node id="-633402" lat="60.46150833" lon="5.15737500401">
		<tag k="fixme" v="consider natural=peak for the most distinct mountains in the district" />
		<tag k="name" v="Rastifjellet" />
		<tag k="natural" v="hill" />
		<tag k="place" v="locality" />
		<tag k="ssr:stedsnr" v="410688" />
	</node>
	<node id="-633401" lat="60.4613388864" lon="5.17254443873">
		<tag k="name" v="Krabbetjørndalen" />
		<tag k="natural" v="valley" />
		<tag k="place" v="locality" />
		<tag k="ssr:stedsnr" v="410685" />
	</node>
	<node id="-632756" lat="60.4188305513" lon="5.1526166707">
		<tag k="name" v="Nibbene" />
		<tag k="natural" v="hill" />
		<tag k="place" v="locality" />
		<tag k="ssr:stedsnr" v="672597" />
	</node>
	<node id="-633541" lat="60.4816416637" lon="5.11886667004">
		<tag k="name" v="Meåsdalen" />
		<tag k="natural" v="valley" />
		<tag k="place" v="locality" />
		<tag k="ssr:stedsnr" v="592761" />
	</node>
	<node id="-633677" lat="60.5191166632" lon="5.058416661">
		<tag k="name" v="Skitnemyrhaugane" />
		<tag k="natural" v="hill" />
		<tag k="place" v="locality" />
		<tag k="ssr:stedsnr" v="834597" />
	</node>
	<node id="-633392" lat="60.4912962132" lon="5.11928535758">
		<tag k="name" v="Lunnekleiva" />
		<tag k="natural" v="slope" />
		<tag k="place" v="locality" />
		<tag k="ssr:stedsnr" v="409721" />
	</node>
	<node id="-632879" lat="60.3909805586" lon="5.17511111619">
		<tag k="name" v="Stølhaugane" />
		<tag k="old_name" v="Skjerringa" />
		<tag k="place" v="locality" />
		<tag k="ssr:stedsnr" v="652328" />
	</node>
	<node id="-633390" lat="60.4891861076" lon="5.10875000764">
		<tag k="fixme" v="consider natural=peak for the most distinct mountains in the district" />
		<tag k="name" v="Langefjellet" />
		<tag k="natural" v="hill" />
		<tag k="place" v="locality" />
		<tag k="ssr:stedsnr" v="409719" />
	</node>
	<node id="-632925" lat="60.4216222189" lon="5.24509166368">
		<tag k="name" v="Storhaugen" />
		<tag k="natural" v="hill" />
		<tag k="place" v="locality" />
		<tag k="ssr:stedsnr" v="895368" />
	</node>
	<node id="-632499" lat="60.4739361081" lon="5.09785278104">
		<tag k="fixme" v="consider natural=peak for the most distinct mountains in the district" />
		<tag k="name" v="Kvernhusfjellet" />
		<tag k="natural" v="hill" />
		<tag k="place" v="locality" />
		<tag k="ssr:stedsnr" v="166954" />
	</node>
	<node id="-632516" lat="60.4236027769" lon="5.16952778114">
		<tag k="name" v="Raudmilda" />
		<tag k="place" v="locality" />
		<tag k="ssr:stedsnr" v="287892" />
	</node>
	<node id="-633383" lat="60.5259277753" lon="5.0065472304">
		<tag k="fixme" v="consider natural=peak for the most distinct mountains in the district" />
		<tag k="name" v="Bekkefjellet" />
		<tag k="natural" v="hill" />
		<tag k="place" v="locality" />
		<tag k="ssr:stedsnr" v="409584" />
	</node>
	<node id="-633381" lat="60.5164444452" lon="5.06455278645">
		<tag k="name" v="Hauglandsdalen" />
		<tag k="natural" v="valley" />
		<tag k="place" v="locality" />
		<tag k="ssr:stedsnr" v="409575" />
	</node>
	<node id="-633380" lat="60.5102305581" lon="5.03794722422">
		<tag k="fixme" v="consider natural=peak for the most distinct mountains in the district" />
		<tag k="name" v="Storfjellet" />
		<tag k="natural" v="hill" />
		<tag k="place" v="locality" />
		<tag k="ssr:stedsnr" v="409562" />
	</node>
	<node id="-633214" lat="60.4366249997" lon="5.20951388195">
		<tag k="fixme" v="consider natural=peak for the most distinct mountains in the district" />
		<tag k="name" v="Kolbeinsvarden" />
		<tag k="natural" v="hill" />
		<tag k="place" v="locality" />
		<tag k="ssr:stedsnr" v="126522" />
	</node>
	<node id="-633378" lat="60.50466944" lon="5.12728610434">
		<tag k="name" v="Steinstemma" />
		<tag k="place" v="locality" />
		<tag k="ssr:stedsnr" v="409523" />
	</node>
	<node id="-633377" lat="60.4867583311" lon="5.13782499627">
		<tag k="name" v="Brunhaugane" />
		<tag k="natural" v="hill" />
		<tag k="place" v="locality" />
		<tag k="ssr:stedsnr" v="409514" />
	</node>
	<node id="-633376" lat="60.4662388914" lon="5.14856110494">
		<tag k="name" v="Gurihaugen" />
		<tag k="natural" v="hill" />
		<tag k="place" v="locality" />
		<tag k="ssr:stedsnr" v="409963" />
	</node>
	<node id="-633675" lat="60.5161361081" lon="5.1009583357">
		<tag k="name" v="Breiaskaret" />
		<tag k="natural" v="valley" />
		<tag k="place" v="locality" />
		<tag k="ssr:stedsnr" v="834591" />
	</node>
	<node id="-633029" lat="60.5018861142" lon="5.1652916641">
		<tag k="name" v="Leirdalen" />
		<tag k="natural" v="valley" />
		<tag k="place" v="locality" />
		<tag k="ssr:stedsnr" v="834957" />
	</node>
	<node id="-633726" lat="60.4898833326" lon="5.18515833959">
		<tag k="name" v="Kjøringadalen" />
		<tag k="natural" v="valley" />
		<tag k="place" v="locality" />
		<tag k="ssr:stedsnr" v="955536" />
	</node>
	<node id="-633369" lat="60.570983336" lon="4.94712777061">
		<tag k="name" v="Djupedalen" />
		<tag k="natural" v="valley" />
		<tag k="place" v="locality" />
		<tag k="ssr:stedsnr" v="409282" />
	</node>
	<node id="-633179" lat="60.4791638887" lon="5.12103055621">
		<tag k="fixme" v="consider natural=peak for the most distinct mountains in the district" />
		<tag k="name" v="Nordre Djupedalsfjellet" />
		<tag k="natural" v="hill" />
		<tag k="place" v="locality" />
		<tag k="ssr:stedsnr" v="105959" />
	</node>
	<node id="-633363" lat="60.5755583372" lon="4.95466945144">
		<tag k="name" v="Heimste Valen" />
		<tag k="place" v="locality" />
		<tag k="ssr:stedsnr" v="388498" />
	</node>
	<node id="-632849" lat="60.422141668" lon="5.21378333709">
		<tag k="fixme" v="consider natural=peak for the most distinct mountains in the district" />
		<tag k="name" v="Brikafjellet" />
		<tag k="natural" v="hill" />
		<tag k="place" v="locality" />
		<tag k="ssr:stedsnr" v="611632" />
	</node>
	<node id="-632847" lat="60.4662972219" lon="5.11455277197">
		<tag k="name" v="Selberget" />
		<tag k="natural" v="hill" />
		<tag k="place" v="locality" />
		<tag k="ssr:stedsnr" v="713734" />
	</node>
	<node id="-633180" lat="60.4849888924" lon="5.20282221411">
		<tag k="name" v="Stølshaugen" />
		<tag k="natural" v="hill" />
		<tag k="place" v="locality" />
		<tag k="ssr:stedsnr" v="106509" />
	</node>
	<node id="-632930" lat="60.4945083326" lon="5.12190000786">
		<tag k="name" v="Vigrebrotet" />
		<tag k="natural" v="hill" />
		<tag k="place" v="locality" />
		<tag k="ssr:stedsnr" v="895516" />
	</node>
	<node id="-632842" lat="60.4528250031" lon="5.10016389132">
		<tag k="name" v="Jonasdal" />
		<tag k="natural" v="valley" />
		<tag k="place" v="locality" />
		<tag k="ssr:stedsnr" v="713689" />
	</node>
	<node id="-632890" lat="60.4209111083" lon="5.18224444571">
		<tag k="name" v="Træet" />
		<tag k="natural" v="valley" />
		<tag k="place" v="locality" />
		<tag k="ssr:stedsnr" v="692711" />
	</node>
	<node id="-632839" lat="60.4310694481" lon="5.20539722621">
		<tag k="name" v="Grønabrekka" />
		<tag k="natural" v="slope" />
		<tag k="place" v="locality" />
		<tag k="ssr:stedsnr" v="713679" />
	</node>
	<node id="-633349" lat="60.4472388913" lon="5.16584443917">
		<tag k="name" v="Varden" />
		<tag k="natural" v="hill" />
		<tag k="place" v="locality" />
		<tag k="ssr:stedsnr" v="369499" />
	</node>
	<node id="-632491" lat="60.5148000015" lon="5.10520000806">
		<tag k="name" v="Storefjellskarhaugen" />
		<tag k="natural" v="hill" />
		<tag k="place" v="locality" />
		<tag k="ssr:stedsnr" v="166565" />
	</node>
</osm>
