<?xml version="1.0" encoding="UTF-8"?>
<osm version="0.6" generator="osmapis">
	<node lat="60.47873333590289" lon="5.2132694398588715" id="-72620">
		<tag k="fixme" v="consider place=hamlet" />
		<tag k="name" v="Ask" />
		<tag k="place" v="village" />
		<tag k="ssr:stedsnr" v="5367" />
	</node>
	<node lat="60.45933055944694" lon="5.231805563898597" id="-72622">
		<tag k="fixme" v="consider place=hamlet" />
		<tag k="name" v="Straumsnes" />
		<tag k="place" v="farm" />
		<tag k="ssr:stedsnr" v="5534" />
	</node>
	<node lat="60.41603455857193" lon="5.207053899668528" id="-72623">
		<tag k="alt_name" v="Kleppe, øvre" />
		<tag k="fixme" v="consider place=hamlet" />
		<tag k="name" v="Øvre Kleppe" />
		<tag k="place" v="farm" />
		<tag k="ssr:stedsnr" v="5564" />
	</node>
	<node lat="60.41464166766518" lon="5.18504999162451" id="-72624">
		<tag k="name" v="Sørbø" />
		<tag k="place" v="farm" />
		<tag k="ssr:stedsnr" v="5566" />
	</node>
	<node lat="60.40644166373111" lon="5.13452778576231" id="-72625">
		<tag k="name" v="Lamholmen" />
		<tag k="place" v="islet" />
		<tag k="ssr:stedsnr" v="5570" />
	</node>
	<node lat="60.587899996196974" lon="4.924919443743304" id="-72628">
		<tag k="name" v="Videskallen" />
		<tag k="natural" v="shoal" />
		<tag k="place" v="locality" />
		<tag k="ssr:stedsnr" v="6706" />
	</node>
	<node lat="60.46005833714076" lon="5.121741664284928" id="-72632">
		<tag k="name" v="Kalvetohaugen" />
		<tag k="natural" v="hill" />
		<tag k="place" v="locality" />
		<tag k="ssr:stedsnr" v="287366" />
	</node>
	<node lat="60.39997500430025" lon="5.183874996658951" id="-72633">
		<tag k="name" v="Småvika" />
		<tag k="natural" v="bay" />
		<tag k="ssr:stedsnr" v="44872" />
	</node>
	<node lat="60.39604444574634" lon="5.178466665544522" id="-72635">
		<tag k="name" v="Kvitaneset" />
		<tag k="natural" v="cape" />
		<tag k="ssr:stedsnr" v="44881" />
	</node>
	<node lat="60.396844445051016" lon="5.161083339593587" id="-72636">
		<tag k="name" v="Brakedalsvika" />
		<tag k="natural" v="bay" />
		<tag k="ssr:stedsnr" v="44884" />
	</node>
	<node lat="60.43903332947749" lon="5.081205548934114" id="-72637">
		<tag k="name" v="Tangeneset" />
		<tag k="natural" v="cape" />
		<tag k="ssr:stedsnr" v="45325" />
	</node>
	<node lat="60.4418999992659" lon="5.107822224771976" id="-72638">
		<tag k="name" v="Ingahola" />
		<tag k="natural" v="bay" />
		<tag k="ssr:stedsnr" v="45329" />
	</node>
	<node lat="60.525837306824535" lon="5.027653876117436" id="-72639">
		<tag k="name" v="Tjørna" />
		<tag k="natural" v="water" />
		<tag k="ssr:stedsnr" v="45282" />
	</node>
	<node lat="60.513841663642935" lon="5.017388882497172" id="-72640">
		<tag k="name" v="Breivika" />
		<tag k="natural" v="bay" />
		<tag k="ssr:stedsnr" v="45289" />
	</node>
	<node lat="60.517230557527895" lon="5.070263885414029" id="-72641">
		<tag k="name" v="Bjørndalshaugane" />
		<tag k="natural" v="hill" />
		<tag k="place" v="locality" />
		<tag k="ssr:stedsnr" v="45296" />
	</node>
	<node lat="60.500138892183514" lon="5.157569434977195" id="-72643">
		<tag k="fixme" v="consider natural=peak for the most distinct mountains in the district" />
		<tag k="name" v="Høgafjellet" />
		<tag k="natural" v="hill" />
		<tag k="place" v="locality" />
		<tag k="ssr:stedsnr" v="45526" />
	</node>
	<node lat="60.52886944285465" lon="5.049202778344253" id="-72645">
		<tag k="name" v="Klubben" />
		<tag k="natural" v="cape" />
		<tag k="ssr:stedsnr" v="45571" />
	</node>
	<node lat="60.44691388527373" lon="5.153641667420889" id="-72647">
		<tag k="name" v="Buaren" />
		<tag k="place" v="locality" />
		<tag k="ssr:stedsnr" v="45593" />
	</node>
	<node lat="60.469186108226204" lon="5.0581944501596965" id="-72648">
		<tag k="name" v="Bymannsvikane" />
		<tag k="natural" v="bay" />
		<tag k="ssr:stedsnr" v="45684" />
	</node>
	<node lat="60.52345555904617" lon="5.031230560309351" id="-72649">
		<tag k="name" v="Kutræet" />
		<tag k="natural" v="slope" />
		<tag k="place" v="locality" />
		<tag k="ssr:stedsnr" v="45923" />
	</node>
	<node lat="60.52529699352096" lon="5.001692539844826" id="-72650">
		<tag k="name" v="Bekkeneset" />
		<tag k="natural" v="cape" />
		<tag k="ssr:stedsnr" v="45926" />
	</node>
	<node lat="60.42906388874512" lon="5.148941663857071" id="-72652">
		<tag k="name" v="Størjevika" />
		<tag k="natural" v="bay" />
		<tag k="ssr:stedsnr" v="45885" />
	</node>
	<node lat="60.43661944533129" lon="5.209847219004914" id="-72653">
		<tag k="fixme" v="consider natural=peak for the most distinct mountains in the district" />
		<tag k="name" v="Kolbeinsvarden" />
		<tag k="natural" v="hill" />
		<tag k="place" v="locality" />
		<tag k="ssr:stedsnr" v="46182" />
	</node>
	<node lat="60.424336108913366" lon="5.200833337386798" id="-72654">
		<tag k="name" v="Træet" />
		<tag k="place" v="farm" />
		<tag k="ssr:stedsnr" v="46701" />
	</node>
	<node lat="60.42670833075521" lon="5.209741670800001" id="-72655">
		<tag k="name" v="Trettedalen" />
		<tag k="natural" v="valley" />
		<tag k="place" v="locality" />
		<tag k="ssr:stedsnr" v="46702" />
	</node>
	<node lat="60.443541667023844" lon="5.113677777853563" id="-72657">
		<tag k="name" v="Vardnesklubben" />
		<tag k="natural" v="cape" />
		<tag k="ssr:stedsnr" v="46708" />
	</node>
	<node lat="60.44385555181873" lon="5.078972224164118" id="-72658">
		<tag k="name" v="Kobbevågen" />
		<tag k="natural" v="bay" />
		<tag k="ssr:stedsnr" v="46712" />
	</node>
	<node lat="60.46913889335617" lon="5.121155555119963" id="-72659">
		<tag k="name" v="Nordre Vågen" />
		<tag k="natural" v="bay" />
		<tag k="ssr:stedsnr" v="46713" />
	</node>
	<node lat="60.430216668261394" lon="5.190222225866713" id="-72660">
		<tag k="bridge" v="yes" />
		<tag k="layer" v="1" />
		<tag k="name" v="Juvikflaten" />
		<tag k="ssr:stedsnr" v="47223" />
	</node>
	<node lat="60.47301111530555" lon="5.222108340788849" id="-72665">
		<tag k="name" v="Bergstad" />
		<tag k="place" v="farm" />
		<tag k="ssr:stedsnr" v="66404" />
	</node>
	<node lat="60.47505987727133" lon="5.201878315446211" id="-72666">
		<tag k="fixme" v="consider place=hamlet" />
		<tag k="name" v="Sørli" />
		<tag k="place" v="farm" />
		<tag k="ssr:stedsnr" v="66400" />
	</node>
	<node lat="60.416650000592426" lon="5.184502785000487" id="-72667">
		<tag k="name" v="Nordbø" />
		<tag k="place" v="farm" />
		<tag k="ssr:stedsnr" v="66596" />
	</node>
	<node lat="60.52649162519114" lon="5.003392222462026" id="-72668">
		<tag k="name" v="Bekken" />
		<tag k="place" v="isolated_dwelling" />
		<tag k="ssr:stedsnr" v="67689" />
	</node>
	<node lat="60.50875000423862" lon="5.085527770292528" id="-72670">
		<tag k="alt_name" v="Træet" />
		<tag k="fixme" v="consider place=suburb, village or hamlet" />
		<tag k="name" v="Trædet" />
		<tag k="place" v="quarter" />
		<tag k="ssr:stedsnr" v="67699" />
	</node>
	<node lat="60.53216388489713" lon="5.025830551431194" id="-72671">
		<tag k="alt_name" v="Ådlandsviki" />
		<tag k="fixme" v="consider place=hamlet" />
		<tag k="name" v="Ådlandsvik" />
		<tag k="place" v="farm" />
		<tag k="ssr:stedsnr" v="67713" />
	</node>
	<node lat="60.52632777510448" lon="5.002083340031921" id="-72672">
		<tag k="name" v="Bekkestø" />
		<tag k="place" v="farm" />
		<tag k="ssr:stedsnr" v="85409" />
	</node>
	<node lat="60.419809348396" lon="5.181095735162043" id="-72673">
		<tag k="alt_name" v="Krokåsvatnet" />
		<tag k="name" v="Kråkåsvatnet" />
		<tag k="natural" v="water" />
		<tag k="ssr:stedsnr" v="85986" />
		<tag k="water" v="lake" />
	</node>
	<node lat="60.477433857815996" lon="5.118459710158163" id="-72675">
		<tag k="name" v="Svartetjørna" />
		<tag k="natural" v="water" />
		<tag k="ssr:stedsnr" v="248350" />
	</node>
	<node lat="60.46479444736321" lon="5.230983329748701" id="-72678">
		<tag k="name" v="Straumsneset" />
		<tag k="natural" v="cape" />
		<tag k="ssr:stedsnr" v="248396" />
	</node>
	<node lat="60.44140555639563" lon="5.230605551402238" id="-72679">
		<tag k="name" v="Erdalsvågen" />
		<tag k="natural" v="bay" />
		<tag k="ssr:stedsnr" v="248522" />
	</node>
	<node lat="60.50170555526994" lon="5.159349997630896" id="-72680">
		<tag k="name" v="Sæterstølen" />
		<tag k="place" v="farm" />
		<tag k="ssr:stedsnr" v="248489" />
	</node>
	<node lat="60.410225002294716" lon="5.154361104173465" id="-72681">
		<tag k="fixme" v="consider place=suburb, village or hamlet" />
		<tag k="name" v="Follese" />
		<tag k="place" v="quarter" />
		<tag k="ssr:stedsnr" v="248587" />
	</node>
	<node lat="60.409463885788966" lon="5.250877771194399" id="-72682">
		<tag k="name" v="Øyarodden" />
		<tag k="natural" v="cape" />
		<tag k="ssr:stedsnr" v="248594" />
	</node>
	<node lat="60.44259166488414" lon="5.230011110070301" id="-72683">
		<tag k="name" v="Laksen" />
		<tag k="natural" v="cape" />
		<tag k="ssr:stedsnr" v="248524" />
	</node>
	<node lat="60.42741110724457" lon="5.225625009031419" id="-72684">
		<tag k="fixme" v="consider natural=peak for the most distinct mountains in the district" />
		<tag k="name" v="Storevarden" />
		<tag k="natural" v="hill" />
		<tag k="place" v="locality" />
		<tag k="ssr:stedsnr" v="248624" />
	</node>
	<node lat="60.41803610886202" lon="5.222113882560811" id="-72685">
		<tag k="name" v="Myrane" />
		<tag k="place" v="farm" />
		<tag k="ssr:stedsnr" v="248640" />
	</node>
	<node lat="60.395471173867634" lon="5.1994171898656685" id="-72688">
		<tag k="name" v="Vispaneset" />
		<tag k="natural" v="cape" />
		<tag k="ssr:stedsnr" v="105886" />
	</node>
	<node lat="60.40169999667478" lon="5.167919442954693" id="-72689">
		<tag k="name" v="Fjellro" />
		<tag k="place" v="locality" />
		<tag k="ssr:stedsnr" v="105892" />
	</node>
	<node lat="60.566277777893966" lon="4.958997214407503" id="-72690">
		<tag k="name" v="Kringla" />
		<tag k="place" v="farm" />
		<tag k="ssr:stedsnr" v="105935" />
	</node>
	<node lat="60.55035833501634" lon="4.972638883679208" id="-72691">
		<tag k="fixme" v="consider seamark:type=rock or natural=shoal" />
		<tag k="name" v="Jakobsskjeret" />
		<tag k="place" v="islet" />
		<tag k="ssr:stedsnr" v="105941" />
	</node>
	<node lat="60.484988892414286" lon="5.202822214111484" id="-72692">
		<tag k="name" v="Stølshaugen" />
		<tag k="natural" v="hill" />
		<tag k="place" v="locality" />
		<tag k="ssr:stedsnr" v="106509" />
	</node>
	<node lat="60.48485277368783" lon="5.208302774094492" id="-72693">
		<tag k="name" v="Minde" />
		<tag k="place" v="farm" />
		<tag k="ssr:stedsnr" v="106510" />
	</node>
	<node lat="60.49227777679594" lon="5.157713883000082" id="-72694">
		<tag k="name" v="Vassneset" />
		<tag k="natural" v="cape" />
		<tag k="ssr:stedsnr" v="106517" />
	</node>
	<node lat="60.530386109200926" lon="4.990119437336868" id="-72695">
		<tag k="name" v="Skarvaneset" />
		<tag k="natural" v="cape" />
		<tag k="ssr:stedsnr" v="106587" />
	</node>
	<node lat="60.5256749966383" lon="5.000547227175232" id="-72696">
		<tag k="name" v="Bekkestø" />
		<tag k="natural" v="bay" />
		<tag k="ssr:stedsnr" v="106589" />
	</node>
	<node lat="60.54406111534487" lon="4.986191666223546" id="-72697">
		<tag k="fixme" v="consider natural=peak for the most distinct mountains in the district" />
		<tag k="name" v="Ramsfjellet" />
		<tag k="natural" v="hill" />
		<tag k="place" v="locality" />
		<tag k="ssr:stedsnr" v="106592" />
	</node>
	<node lat="60.43816415789772" lon="5.052234899422487" id="-72698">
		<tag k="name" v="Smalhusneset" />
		<tag k="natural" v="cape" />
		<tag k="ssr:stedsnr" v="106616" />
	</node>
	<node lat="60.49057499711484" lon="5.080169439575588" id="-72699">
		<tag k="name" v="Store Skotnesholmen" />
		<tag k="place" v="islet" />
		<tag k="ssr:stedsnr" v="106729" />
	</node>
	<node lat="60.42795555546788" lon="5.144433331085676" id="-72700">
		<tag k="name" v="Hola" />
		<tag k="natural" v="bay" />
		<tag k="ssr:stedsnr" v="106906" />
	</node>
	<node lat="60.479933336977844" lon="5.108297213692737" id="-72701">
		<tag k="name" v="Esingahaugen" />
		<tag k="natural" v="hill" />
		<tag k="place" v="locality" />
		<tag k="ssr:stedsnr" v="107729" />
	</node>
	<node lat="60.42499722408207" lon="5.213016665093208" id="-72702">
		<tag k="name" v="Trettedalsklubben" />
		<tag k="natural" v="hill" />
		<tag k="place" v="locality" />
		<tag k="ssr:stedsnr" v="107672" />
	</node>
	<node lat="60.44893610830767" lon="5.0874305515613445" id="-72703">
		<tag k="fixme" v="consider natural=peak for the most distinct mountains in the district" />
		<tag k="name" v="Ospefjellet" />
		<tag k="natural" v="hill" />
		<tag k="place" v="locality" />
		<tag k="ssr:stedsnr" v="107677" />
	</node>
	<node lat="60.46689722020918" lon="5.218877773468462" id="-72704">
		<tag k="name" v="Buggehaugen" />
		<tag k="natural" v="hill" />
		<tag k="place" v="locality" />
		<tag k="ssr:stedsnr" v="107686" />
	</node>
	<node lat="60.4578777788797" lon="5.098977784983963" id="-72707">
		<tag k="name" v="Pøylo" />
		<tag k="natural" v="bay" />
		<tag k="ssr:stedsnr" v="107700" />
	</node>
	<node lat="60.521786106815576" lon="4.988013889552122" id="-72708">
		<tag k="name" v="Myrbærflua" />
		<tag k="natural" v="shoal" />
		<tag k="place" v="locality" />
		<tag k="ssr:stedsnr" v="249693" />
	</node>
	<node lat="60.52331666528524" lon="4.9878611076293184" id="-72709">
		<tag k="name" v="Myrbærholmen" />
		<tag k="place" v="islet" />
		<tag k="ssr:stedsnr" v="249694" />
	</node>
	<node lat="60.513555551923865" lon="5.0553305612885255" id="-72712">
		<tag k="name" v="Leirdalen" />
		<tag k="natural" v="valley" />
		<tag k="place" v="locality" />
		<tag k="ssr:stedsnr" v="249655" />
	</node>
	<node lat="60.57642500390732" lon="4.984063888333491" id="-72713">
		<tag k="name" v="Basholmen" />
		<tag k="place" v="islet" />
		<tag k="ssr:stedsnr" v="249668" />
	</node>
	<node lat="60.57834444785295" lon="4.92790000136195" id="-72715">
		<tag k="name" v="Gavleskallen" />
		<tag k="natural" v="shoal" />
		<tag k="place" v="locality" />
		<tag k="ssr:stedsnr" v="249683" />
	</node>
	<node lat="60.52928333174618" lon="4.992483326713176" id="-72716">
		<tag k="name" v="Bratten" />
		<tag k="place" v="islet" />
		<tag k="ssr:stedsnr" v="249689" />
	</node>
	<node lat="60.62740394385309" lon="4.925041023452076" id="-72718">
		<tag k="bay" v="fjord" />
		<tag k="name" v="Mangersfjorden" />
		<tag k="natural" v="bay" />
		<tag k="ssr:stedsnr" v="249958" />
	</node>
	<node lat="60.47753333136626" lon="5.057800003697636" id="-72723">
		<tag k="name" v="Skogholmen" />
		<tag k="place" v="islet" />
		<tag k="ssr:stedsnr" v="126226" />
	</node>
	<node lat="60.43662499971493" lon="5.209513881946212" id="-72724">
		<tag k="fixme" v="consider natural=peak for the most distinct mountains in the district" />
		<tag k="name" v="Kolbeinsvarden" />
		<tag k="natural" v="hill" />
		<tag k="place" v="locality" />
		<tag k="ssr:stedsnr" v="126522" />
	</node>
	<node lat="60.425366666856256" lon="5.1412055554319265" id="-72726">
		<tag k="name" v="Kvithovden" />
		<tag k="natural" v="hill" />
		<tag k="place" v="locality" />
		<tag k="ssr:stedsnr" v="127644" />
	</node>
	<node lat="60.50952777401055" lon="5.130769449476544" id="-72728">
		<tag k="name" v="Sletteviki" />
		<tag k="place" v="farm" />
		<tag k="ssr:stedsnr" v="127549" />
	</node>
	<node lat="60.52436111194062" lon="5.010311111755912" id="-72729">
		<tag k="name" v="Furevatnet" />
		<tag k="natural" v="water" />
		<tag k="ssr:stedsnr" v="127697" />
	</node>
	<node lat="60.54932777845428" lon="4.969322216908274" id="-72730">
		<tag k="name" v="Gulbrandsøyna" />
		<tag k="place" v="islet" />
		<tag k="ssr:stedsnr" v="127746" />
	</node>
	<node lat="60.42317777708074" lon="5.1754333399226535" id="-72731">
		<tag k="name" v="Solberg" />
		<tag k="place" v="isolated_dwelling" />
		<tag k="ssr:stedsnr" v="145721" />
	</node>
	<node lat="60.48266111318479" lon="5.063555561016642" id="-72733">
		<tag k="name" v="Langevågen" />
		<tag k="natural" v="bay" />
		<tag k="ssr:stedsnr" v="146878" />
	</node>
	<node lat="60.488949999478564" lon="5.050074995767353" id="-72735">
		<tag k="name" v="Håholmen" />
		<tag k="place" v="islet" />
		<tag k="ssr:stedsnr" v="166303" />
	</node>
	<node lat="60.446530553204155" lon="5.148819443027347" id="-72738">
		<tag k="name" v="Bratteidet" />
		<tag k="place" v="locality" />
		<tag k="ssr:stedsnr" v="166609" />
	</node>
	<node lat="60.480022226757114" lon="5.159961115870878" id="-72739">
		<tag k="name" v="Grøndalen" />
		<tag k="natural" v="valley" />
		<tag k="place" v="locality" />
		<tag k="ssr:stedsnr" v="166509" />
	</node>
	<node lat="60.485597221071714" lon="5.169683325662167" id="-72740">
		<tag k="name" v="Sanden" />
		<tag k="natural" v="beach" />
		<tag k="ssr:stedsnr" v="166512" />
	</node>
	<node lat="60.512702773818646" lon="5.07921388381775" id="-72741">
		<tag k="name" v="Eidsundet" />
		<tag k="natural" v="strait" />
		<tag k="ssr:stedsnr" v="166557" />
	</node>
	<node lat="60.50894722658348" lon="5.010191673278067" id="-72742">
		<tag k="name" v="Storsundet" />
		<tag k="natural" v="strait" />
		<tag k="ssr:stedsnr" v="166560" />
	</node>
	<node lat="60.51382778053072" lon="5.09454444947489" id="-72744">
		<tag k="name" v="Kvernhusdalen" />
		<tag k="natural" v="valley" />
		<tag k="place" v="locality" />
		<tag k="ssr:stedsnr" v="166564" />
	</node>
	<node lat="60.40864722637462" lon="5.191138883864368" id="-72747">
		<tag k="name" v="Storhaugen" />
		<tag k="place" v="farm" />
		<tag k="ssr:stedsnr" v="166876" />
	</node>
	<node lat="60.412411108038555" lon="5.149641658703091" id="-72748">
		<tag k="name" v="Haugen" />
		<tag k="place" v="farm" />
		<tag k="ssr:stedsnr" v="166909" />
	</node>
	<node lat="60.39896679169797" lon="5.18309428608496" id="-72749">
		<tag k="name" v="Skiftesvika" />
		<tag k="natural" v="bay" />
		<tag k="ssr:stedsnr" v="166919" />
	</node>
	<node lat="60.40336666454518" lon="5.19198610924662" id="-72751">
		<tag k="fixme" v="consider natural=peak for the most distinct mountains in the district" />
		<tag k="name" v="Kyrkjefjellet" />
		<tag k="natural" v="hill" />
		<tag k="place" v="locality" />
		<tag k="ssr:stedsnr" v="166926" />
	</node>
	<node lat="60.454383335405595" lon="5.159230550650908" id="-72752">
		<tag k="name" v="Storhaugen" />
		<tag k="natural" v="hill" />
		<tag k="place" v="locality" />
		<tag k="ssr:stedsnr" v="167713" />
	</node>
	<node lat="60.458994443769804" lon="5.107177775164054" id="-72753">
		<tag k="name" v="Brekkemyrane" />
		<tag k="natural" v="wetland" />
		<tag k="ssr:stedsnr" v="167718" />
	</node>
	<node lat="60.45699166554786" lon="5.113072228403469" id="-72754">
		<tag k="name" v="Kamhaugen" />
		<tag k="natural" v="hill" />
		<tag k="place" v="locality" />
		<tag k="ssr:stedsnr" v="167721" />
	</node>
	<node lat="60.477234623199664" lon="5.104915105433207" id="-72755">
		<tag k="name" v="Skogatjørna" />
		<tag k="natural" v="water" />
		<tag k="ssr:stedsnr" v="187377" />
	</node>
	<node lat="60.52240277855173" lon="5.029666672402579" id="-72757">
		<tag k="name" v="Hestetrædet" />
		<tag k="old_name" v="Hæstetrædet" />
		<tag k="place" v="farm" />
		<tag k="ssr:stedsnr" v="188706" />
	</node>
	<node lat="60.43074444276604" lon="5.2404999934216745" id="-72758">
		<tag k="name" v="Bakarvågneset" />
		<tag k="natural" v="cape" />
		<tag k="ssr:stedsnr" v="188650" />
	</node>
	<node lat="60.42416111457529" lon="5.201863888455687" id="-72759">
		<tag k="name" v="Træet" />
		<tag k="natural" v="valley" />
		<tag k="place" v="locality" />
		<tag k="ssr:stedsnr" v="206717" />
	</node>
	<node lat="60.475038887927994" lon="5.132094436184957" id="-72761">
		<tag k="fixme" v="consider natural=peak for the most distinct mountains in the district" />
		<tag k="name" v="Stongavarden" />
		<tag k="natural" v="hill" />
		<tag k="place" v="locality" />
		<tag k="ssr:stedsnr" v="227334" />
	</node>
	<node lat="60.490632144397296" lon="5.143369348150045" id="-72762">
		<tag k="name" v="Neset" />
		<tag k="place" v="farm" />
		<tag k="ssr:stedsnr" v="227339" />
	</node>
	<node lat="60.493783335881574" lon="5.154977769386315" id="-72766">
		<tag k="name" v="Vassvika" />
		<tag k="natural" v="bay" />
		<tag k="ssr:stedsnr" v="227537" />
	</node>
	<node lat="60.49607222214107" lon="5.172183340057889" id="-72767">
		<tag k="name" v="Kattet" />
		<tag k="place" v="locality" />
		<tag k="ssr:stedsnr" v="227542" />
	</node>
	<node lat="60.51429722109735" lon="5.06551110792168" id="-72768">
		<tag k="name" v="Lushaugane" />
		<tag k="natural" v="hill" />
		<tag k="place" v="locality" />
		<tag k="ssr:stedsnr" v="227301" />
	</node>
	<node lat="60.4416361102695" lon="5.1617611145714335" id="-72771">
		<tag k="name" v="Kaldholet" />
		<tag k="natural" v="bay" />
		<tag k="ssr:stedsnr" v="227605" />
	</node>
	<node lat="60.44686388721028" lon="5.134438896600725" id="-72772">
		<tag k="name" v="Tveitevåg" />
		<tag k="place" v="farm" />
		<tag k="ssr:stedsnr" v="227611" />
	</node>
	<node lat="60.47958333770588" lon="5.176141663678208" id="-72775">
		<tag k="name" v="Kaldalsvika" />
		<tag k="natural" v="bay" />
		<tag k="ssr:stedsnr" v="227731" />
	</node>
	<node lat="60.477383336755196" lon="5.180327769288989" id="-72776">
		<tag k="name" v="Grønevika" />
		<tag k="natural" v="bay" />
		<tag k="ssr:stedsnr" v="227732" />
	</node>
	<node lat="60.47900277441926" lon="5.186266660340545" id="-72777">
		<tag k="name" v="Oterneset" />
		<tag k="natural" v="cape" />
		<tag k="ssr:stedsnr" v="227735" />
	</node>
	<node lat="60.45496666707974" lon="5.142097229417862" id="-72779">
		<tag k="name" v="Vassholmen" />
		<tag k="place" v="islet" />
		<tag k="ssr:stedsnr" v="227908" />
	</node>
	<node lat="60.4976555596255" lon="5.0872888835657735" id="-72780">
		<tag k="name" v="Stevika" />
		<tag k="natural" v="bay" />
		<tag k="ssr:stedsnr" v="227935" />
	</node>
	<node lat="60.429048210152956" lon="5.166575715335162" id="-72781">
		<tag k="name" v="Horsøysundet" />
		<tag k="natural" v="bay" />
		<tag k="ssr:stedsnr" v="227887" />
	</node>
	<node lat="60.4584500006257" lon="5.152613881389083" id="-72782">
		<tag k="historic" v="shieling" />
		<tag k="name" v="Stølen" />
		<tag k="place" v="locality" />
		<tag k="ssr:stedsnr" v="227892" />
	</node>
	<node lat="60.43867222567615" lon="5.17223332733599" id="-72783">
		<tag k="name" v="Øvrebø" />
		<tag k="place" v="farm" />
		<tag k="ssr:stedsnr" v="227893" />
	</node>
	<node lat="60.491524996927254" lon="5.203088890646169" id="-72784">
		<tag k="name" v="Søre Kyraneset" />
		<tag k="natural" v="cape" />
		<tag k="ssr:stedsnr" v="227894" />
	</node>
	<node lat="60.4184888888711" lon="5.176683331833993" id="-72785">
		<tag k="name" v="Minde" />
		<tag k="place" v="farm" />
		<tag k="ssr:stedsnr" v="227898" />
	</node>
	<node lat="60.455488888108725" lon="5.0912527809140515" id="-72787">
		<tag k="name" v="Keila" />
		<tag k="natural" v="bay" />
		<tag k="ssr:stedsnr" v="228730" />
	</node>
	<node lat="60.51233174224057" lon="5.035882659835709" id="-72788">
		<tag k="fixme" v="consider place=hamlet" />
		<tag k="name" v="Store Fauskanger" />
		<tag k="place" v="farm" />
		<tag k="ssr:stedsnr" v="449449" />
	</node>
	<node lat="60.519622223246145" lon="5.0762444529101565" id="-72789">
		<tag k="name" v="Småholmane" />
		<tag k="place" v="islet" />
		<tag k="ssr:stedsnr" v="449450" />
	</node>
	<node lat="60.499555557539594" lon="5.037247220171421" id="-72790">
		<tag k="name" v="Raunholmen" />
		<tag k="place" v="islet" />
		<tag k="ssr:stedsnr" v="449454" />
	</node>
	<node lat="60.440008331057335" lon="5.17026943656053" id="-72793">
		<tag k="name" v="Pollen" />
		<tag k="natural" v="bay" />
		<tag k="ssr:stedsnr" v="449941" />
	</node>
	<node lat="60.413700003992645" lon="5.103166673951308" id="-72797">
		<tag k="name" v="Pikkeskallen" />
		<tag k="natural" v="shoal" />
		<tag k="place" v="locality" />
		<tag k="ssr:stedsnr" v="450901" />
	</node>
	<node lat="60.4975804315485" lon="5.096064849138789" id="-72800">
		<tag k="name" v="Kråvatnet" />
		<tag k="natural" v="water" />
		<tag k="ssr:stedsnr" v="248469" />
	</node>
	<node lat="60.42883610777279" lon="5.155705551740438" id="-72801">
		<tag k="name" v="Geitholmen" />
		<tag k="place" v="islet" />
		<tag k="ssr:stedsnr" v="248614" />
	</node>
	<node lat="60.431249997079185" lon="5.160733331252804" id="-72802">
		<tag k="name" v="Horsøyna" />
		<tag k="natural" v="cape" />
		<tag k="ssr:stedsnr" v="248615" />
	</node>
	<node lat="60.4359777777518" lon="5.1549333352383275" id="-72803">
		<tag k="name" v="Håholmen" />
		<tag k="place" v="islet" />
		<tag k="ssr:stedsnr" v="248517" />
	</node>
	<node lat="60.459591669895744" lon="5.21710000163404" id="-72804">
		<tag k="name" v="Dyrneset" />
		<tag k="natural" v="cape" />
		<tag k="ssr:stedsnr" v="248549" />
	</node>
	<node lat="60.44651666697422" lon="5.153052780614275" id="-72805">
		<tag k="name" v="Grønavik" />
		<tag k="place" v="farm" />
		<tag k="ssr:stedsnr" v="248569" />
	</node>
	<node lat="60.40430000039136" lon="5.1928166709352555" id="-72806">
		<tag k="fixme" v="consider place=hamlet" />
		<tag k="name" v="Strusshamn" />
		<tag k="place" v="village" />
		<tag k="ssr:stedsnr" v="248601" />
	</node>
	<node lat="60.609680552401144" lon="4.932794450763331" id="-72807">
		<tag k="name" v="Hundane" />
		<tag k="natural" v="shoal" />
		<tag k="place" v="locality" />
		<tag k="ssr:stedsnr" v="248916" />
	</node>
	<node lat="60.456817202579415" lon="5.225287175283364" id="-72809">
		<tag k="name" v="Olavik" />
		<tag k="place" v="farm" />
		<tag k="ssr:stedsnr" v="268503" />
	</node>
	<node lat="60.44544722675989" lon="5.123086119356315" id="-72811">
		<tag k="name" v="Søre Eid" />
		<tag k="place" v="isolated_dwelling" />
		<tag k="ssr:stedsnr" v="268889" />
	</node>
	<node lat="60.47043055780901" lon="5.233975007592646" id="-72812">
		<tag k="name" v="Hopsflua" />
		<tag k="natural" v="shoal" />
		<tag k="place" v="locality" />
		<tag k="ssr:stedsnr" v="269535" />
	</node>
	<node lat="60.41608610791355" lon="5.20504444851605" id="-72814">
		<tag k="fixme" v="consider natural=peak for the most distinct mountains in the district" />
		<tag k="name" v="Varden" />
		<tag k="natural" v="hill" />
		<tag k="place" v="locality" />
		<tag k="ssr:stedsnr" v="287406" />
	</node>
	<node lat="60.39754999667552" lon="5.159577783544514" id="-72815">
		<tag k="name" v="Kjerringa" />
		<tag k="natural" v="cape" />
		<tag k="ssr:stedsnr" v="287884" />
	</node>
	<node lat="60.415169440690256" lon="5.147313896741191" id="-72816">
		<tag k="name" v="Knutmannshaugen" />
		<tag k="place" v="farm" />
		<tag k="ssr:stedsnr" v="287890" />
	</node>
	<node lat="60.42547222200052" lon="5.173916666018801" id="-72817">
		<tag k="name" v="Torvkleiva" />
		<tag k="natural" v="hill" />
		<tag k="place" v="locality" />
		<tag k="ssr:stedsnr" v="287891" />
	</node>
	<node lat="60.596691670572234" lon="4.955997220881314" id="-72819">
		<tag k="name" v="Flatholmen" />
		<tag k="place" v="islet" />
		<tag k="ssr:stedsnr" v="287926" />
	</node>
	<node lat="60.40940833399219" lon="5.228883324332351" id="-72820">
		<tag k="name" v="Løfjellet" />
		<tag k="place" v="farm" />
		<tag k="ssr:stedsnr" v="287932" />
	</node>
	<node lat="60.498413884681526" lon="5.075730548031491" id="-72821">
		<tag k="name" v="Slåttevika" />
		<tag k="natural" v="bay" />
		<tag k="ssr:stedsnr" v="288510" />
	</node>
	<node lat="60.512463891204035" lon="5.015577776243605" id="-72823">
		<tag k="name" v="Osen" />
		<tag k="natural" v="bay" />
		<tag k="ssr:stedsnr" v="288541" />
	</node>
	<node lat="60.52697777945582" lon="5.023708337362835" id="-72825">
		<tag k="name" v="Dyrebotnen" />
		<tag k="natural" v="valley" />
		<tag k="place" v="locality" />
		<tag k="ssr:stedsnr" v="288546" />
	</node>
	<node lat="60.41929166789384" lon="5.199477770425054" id="-72826">
		<tag k="name" v="Haugen" />
		<tag k="place" v="farm" />
		<tag k="ssr:stedsnr" v="288227" />
	</node>
	<node lat="60.486872225142704" lon="5.1547694475135915" id="-72827">
		<tag k="name" v="Leitet" />
		<tag k="natural" v="slope" />
		<tag k="place" v="locality" />
		<tag k="ssr:stedsnr" v="288479" />
	</node>
	<node lat="60.48742222607503" lon="5.167161108294132" id="-72828">
		<tag k="name" v="Sveneset" />
		<tag k="natural" v="cape" />
		<tag k="ssr:stedsnr" v="288481" />
	</node>
	<node lat="60.494169445005205" lon="5.12463889499255" id="-72830">
		<tag k="name" v="Haugarsdalen" />
		<tag k="natural" v="valley" />
		<tag k="place" v="locality" />
		<tag k="ssr:stedsnr" v="288493" />
	</node>
	<node lat="60.476194445399464" lon="5.186433334910472" id="-72832">
		<tag k="name" v="Vassbakken" />
		<tag k="natural" v="slope" />
		<tag k="place" v="locality" />
		<tag k="ssr:stedsnr" v="288728" />
	</node>
	<node lat="60.41124166267768" lon="5.15047222706546" id="-72833">
		<tag k="name" v="Ekrena" />
		<tag k="place" v="farm" />
		<tag k="ssr:stedsnr" v="288912" />
	</node>
	<node lat="60.46250833130875" lon="5.217880550014823" id="-72834">
		<tag k="name" v="Nålaneset" />
		<tag k="natural" v="cape" />
		<tag k="ssr:stedsnr" v="289726" />
	</node>
	<node lat="60.47368432081966" lon="5.078789019178969" id="-72835">
		<tag k="name" v="Seiatjørna" />
		<tag k="natural" v="water" />
		<tag k="ssr:stedsnr" v="289775" />
	</node>
	<node lat="60.41518889304501" lon="5.237052781113276" id="-72836">
		<tag k="bridge" v="yes" />
		<tag k="layer" v="1" />
		<tag k="name" v="Florvåg" />
		<tag k="ssr:stedsnr" v="290211" />
	</node>
	<node lat="60.49088055897717" lon="5.133319437503967" id="-72837">
		<tag k="fixme" v="consider natural=peak for the most distinct mountains in the district" />
		<tag k="name" v="Svultåsen" />
		<tag k="natural" v="hill" />
		<tag k="place" v="locality" />
		<tag k="ssr:stedsnr" v="295078" />
	</node>
	<node lat="60.49380277751291" lon="5.07555833825792" id="-72841">
		<tag k="name" v="Kjerrgardsosen" />
		<tag k="natural" v="strait" />
		<tag k="ssr:stedsnr" v="308205" />
	</node>
	<node lat="60.482866665742144" lon="5.010697219504662" id="-72842">
		<tag k="name" v="Søra Tretteflua" />
		<tag k="natural" v="shoal" />
		<tag k="place" v="locality" />
		<tag k="ssr:stedsnr" v="308213" />
	</node>
	<node lat="60.48429722059071" lon="5.091647222728918" id="-72844">
		<tag k="name" v="Lindebotnen" />
		<tag k="natural" v="valley" />
		<tag k="place" v="locality" />
		<tag k="ssr:stedsnr" v="308219" />
	</node>
	<node lat="60.447938886475484" lon="5.222697217156883" id="-72845">
		<tag k="name" v="Myrane" />
		<tag k="place" v="farm" />
		<tag k="ssr:stedsnr" v="309536" />
	</node>
	<node lat="60.415024998185025" lon="5.232986114280654" id="-72847">
		<tag k="name" v="Kleiven" />
		<tag k="place" v="farm" />
		<tag k="ssr:stedsnr" v="469924" />
	</node>
	<node lat="60.41902221802494" lon="5.2219388967730875" id="-72849">
		<tag k="name" v="Skjøndalen" />
		<tag k="natural" v="valley" />
		<tag k="place" v="locality" />
		<tag k="ssr:stedsnr" v="469245" />
	</node>
	<node lat="60.420558331692234" lon="5.182944441103819" id="-72850">
		<tag k="name" v="Ospeli" />
		<tag k="place" v="farm" />
		<tag k="ssr:stedsnr" v="469249" />
	</node>
	<node lat="60.50772777400435" lon="5.125650008483691" id="-72851">
		<tag k="name" v="Purkesteinskaret" />
		<tag k="natural" v="valley" />
		<tag k="place" v="locality" />
		<tag k="ssr:stedsnr" v="469340" />
	</node>
	<node lat="60.49372222285255" lon="5.017958325580273" id="-72853">
		<tag k="name" v="Maurholmen" />
		<tag k="place" v="islet" />
		<tag k="ssr:stedsnr" v="469299" />
	</node>
	<node lat="60.398002779636464" lon="5.171991670353932" id="-72857">
		<tag k="name" v="Pøyla" />
		<tag k="natural" v="bay" />
		<tag k="ssr:stedsnr" v="469895" />
	</node>
	<node lat="60.57051111127015" lon="4.956136105257786" id="-72858">
		<tag k="name" v="Laksevågen" />
		<tag k="natural" v="bay" />
		<tag k="ssr:stedsnr" v="469948" />
	</node>
	<node lat="60.60144444685775" lon="4.946924993380358" id="-72859">
		<tag k="fixme" v="consider seamark:type=rock or natural=shoal" />
		<tag k="name" v="Langeskjeret" />
		<tag k="place" v="islet" />
		<tag k="ssr:stedsnr" v="469995" />
	</node>
	<node lat="60.49137777733591" lon="5.047283334417313" id="-72862">
		<tag k="fixme" v="consider seamark:type=rock or natural=shoal" />
		<tag k="name" v="Terneskjeret" />
		<tag k="place" v="islet" />
		<tag k="ssr:stedsnr" v="329871" />
	</node>
	<node lat="60.51492221899772" lon="5.084680552959978" id="-72865">
		<tag k="name" v="Gamlestøa" />
		<tag k="natural" v="bay" />
		<tag k="ssr:stedsnr" v="470574" />
	</node>
	<node lat="60.48356944704721" lon="5.148113896832138" id="-72867">
		<tag k="name" v="Lyhaugen" />
		<tag k="natural" v="hill" />
		<tag k="place" v="locality" />
		<tag k="ssr:stedsnr" v="470505" />
	</node>
	<node lat="60.42748314848705" lon="5.213854160883164" id="-72868">
		<tag k="name" v="Kattatjørna" />
		<tag k="natural" v="water" />
		<tag k="ssr:stedsnr" v="470636" />
	</node>
	<node lat="60.451697222149946" lon="5.077175003764321" id="-72869">
		<tag k="name" v="Katten" />
		<tag k="place" v="locality" />
		<tag k="ssr:stedsnr" v="470646" />
	</node>
	<node lat="60.48818333591574" lon="5.093230551863639" id="-72871">
		<tag k="name" v="Kvernhusdalen" />
		<tag k="natural" v="valley" />
		<tag k="place" v="locality" />
		<tag k="ssr:stedsnr" v="470739" />
	</node>
	<node lat="60.49556111455628" lon="5.096997224759678" id="-72873">
		<tag k="name" v="Kråhaugane" />
		<tag k="natural" v="hill" />
		<tag k="place" v="locality" />
		<tag k="ssr:stedsnr" v="470753" />
	</node>
	<node lat="60.47939444059813" lon="5.191330549863081" id="-72874">
		<tag k="name" v="Krutkulene" />
		<tag k="place" v="locality" />
		<tag k="ssr:stedsnr" v="470757" />
	</node>
	<node lat="60.400041663621884" lon="5.198313889298883" id="-72876">
		<tag k="fixme" v="consider natural=peak for the most distinct mountains in the district" />
		<tag k="name" v="Mettedalsfjellet" />
		<tag k="natural" v="hill" />
		<tag k="place" v="locality" />
		<tag k="ssr:stedsnr" v="348359" />
	</node>
	<node lat="60.41168332973029" lon="5.186138895626224" id="-72877">
		<tag k="name" v="Sørbø" />
		<tag k="place" v="farm" />
		<tag k="ssr:stedsnr" v="348258" />
	</node>
	<node lat="60.55123055670395" lon="4.961638896474352" id="-72878">
		<tag k="name" v="Midtsundet" />
		<tag k="natural" v="strait" />
		<tag k="ssr:stedsnr" v="348263" />
	</node>
	<node lat="60.52568223949695" lon="5.002739892006758" id="-72880">
		<tag k="name" v="Stokkevika" />
		<tag k="natural" v="bay" />
		<tag k="ssr:stedsnr" v="348272" />
	</node>
	<node lat="60.51928333622669" lon="5.05419722435927" id="-72881">
		<tag k="name" v="Hauglandsdalen" />
		<tag k="natural" v="valley" />
		<tag k="place" v="locality" />
		<tag k="ssr:stedsnr" v="348274" />
	</node>
	<node lat="60.494841668583675" lon="5.140175008454836" id="-72882">
		<tag k="name" v="Storekletten" />
		<tag k="natural" v="hill" />
		<tag k="place" v="locality" />
		<tag k="ssr:stedsnr" v="348506" />
	</node>
	<node lat="60.4971666686601" lon="5.131211104091096" id="-72883">
		<tag k="name" v="Almen" />
		<tag k="place" v="locality" />
		<tag k="ssr:stedsnr" v="348508" />
	</node>
	<node lat="60.512111107616526" lon="5.1118000079469335" id="-72884">
		<tag k="name" v="Ørnareiret" />
		<tag k="place" v="locality" />
		<tag k="ssr:stedsnr" v="348555" />
	</node>
	<node lat="60.51925585565605" lon="5.016151329010701" id="-72886">
		<tag k="fixme" v="consider natural=peak for the most distinct mountains in the district" />
		<tag k="name" v="Bakkevarden" />
		<tag k="natural" v="hill" />
		<tag k="place" v="locality" />
		<tag k="ssr:stedsnr" v="348569" />
	</node>
	<node lat="60.52634999860751" lon="5.0040583300754085" id="-72887">
		<tag k="name" v="Grøno" />
		<tag k="natural" v="hill" />
		<tag k="place" v="locality" />
		<tag k="ssr:stedsnr" v="348570" />
	</node>
	<node lat="60.52659444428128" lon="5.0497999949202" id="-72888">
		<tag k="name" v="Træet" />
		<tag k="natural" v="slope" />
		<tag k="place" v="locality" />
		<tag k="ssr:stedsnr" v="348575" />
	</node>
	<node lat="60.444102773899594" lon="5.172286105312393" id="-72890">
		<tag k="name" v="Kikhaugen" />
		<tag k="natural" v="hill" />
		<tag k="place" v="locality" />
		<tag k="ssr:stedsnr" v="348604" />
	</node>
	<node lat="60.4463916664577" lon="5.138850006565061" id="-72891">
		<tag k="name" v="Kleiva" />
		<tag k="natural" v="hill" />
		<tag k="place" v="locality" />
		<tag k="ssr:stedsnr" v="348605" />
	</node>
	<node lat="60.561931970502194" lon="4.962186356535405" id="-72892">
		<tag k="name" v="Skanseneset" />
		<tag k="natural" v="cape" />
		<tag k="ssr:stedsnr" v="348911" />
	</node>
	<node lat="60.429816669006605" lon="5.1568027845443" id="-72894">
		<tag k="name" v="Storsundet" />
		<tag k="natural" v="strait" />
		<tag k="ssr:stedsnr" v="348874" />
	</node>
	<node lat="60.46830555586561" lon="5.121561106817656" id="-72896">
		<tag k="name" v="Søre Vågen" />
		<tag k="natural" v="bay" />
		<tag k="ssr:stedsnr" v="349710" />
	</node>
	<node lat="60.46415833743817" lon="5.182502780761275" id="-72897">
		<tag k="name" v="Fjellvassbotnen" />
		<tag k="natural" v="valley" />
		<tag k="place" v="locality" />
		<tag k="ssr:stedsnr" v="349714" />
	</node>
	<node lat="60.45731944789468" lon="5.162238888383865" id="-72898">
		<tag k="name" v="Hauglandsmyrane" />
		<tag k="natural" v="wetland" />
		<tag k="ssr:stedsnr" v="349716" />
	</node>
	<node lat="60.469133335245935" lon="5.108222229699615" id="-72899">
		<tag k="name" v="Kvernhusvika" />
		<tag k="natural" v="bay" />
		<tag k="ssr:stedsnr" v="349731" />
	</node>
	<node lat="60.48161111415018" lon="5.05156666929947" id="-72901">
		<tag k="fixme" v="consider seamark:type=rock or natural=shoal" />
		<tag k="name" v="Hjelmen" />
		<tag k="place" v="islet" />
		<tag k="ssr:stedsnr" v="369227" />
	</node>
	<node lat="60.530405554353074" lon="4.982019440182178" id="-72902">
		<tag k="name" v="Kalven" />
		<tag k="place" v="islet" />
		<tag k="ssr:stedsnr" v="370711" />
	</node>
	<node lat="60.54734422247561" lon="4.9843143616069225" id="-72906">
		<tag k="name" v="Merkesvikvatnet" />
		<tag k="natural" v="water" />
		<tag k="ssr:stedsnr" v="370725" />
	</node>
	<node lat="60.417975001162624" lon="5.217655553102313" id="-72910">
		<tag k="name" v="Heimdal" />
		<tag k="place" v="farm" />
		<tag k="ssr:stedsnr" v="388698" />
	</node>
	<node lat="60.484724999199706" lon="5.198174999441787" id="-72915">
		<tag k="name" v="Søre Pollen" />
		<tag k="natural" v="bay" />
		<tag k="ssr:stedsnr" v="409339" />
	</node>
	<node lat="60.48815833342253" lon="5.089611116023953" id="-72918">
		<tag k="name" v="Ålevika" />
		<tag k="natural" v="bay" />
		<tag k="ssr:stedsnr" v="409304" />
	</node>
	<node lat="60.46891944695002" lon="5.111652786142685" id="-72919">
		<tag k="name" v="Kvernhusberget" />
		<tag k="natural" v="hill" />
		<tag k="place" v="locality" />
		<tag k="ssr:stedsnr" v="409310" />
	</node>
	<node lat="60.478438890357964" lon="5.175572229879875" id="-72920">
		<tag k="name" v="Brunelvvika" />
		<tag k="natural" v="bay" />
		<tag k="ssr:stedsnr" v="409334" />
	</node>
	<node lat="60.57569722624006" lon="4.964933329978708" id="-72923">
		<tag k="name" v="Lamhola" />
		<tag k="natural" v="bay" />
		<tag k="ssr:stedsnr" v="409607" />
	</node>
	<node lat="60.56183523100936" lon="4.963251528539781" id="-72926">
		<tag k="name" v="Skansevika" />
		<tag k="natural" v="bay" />
		<tag k="ssr:stedsnr" v="409601" />
	</node>
	<node lat="60.49129621317921" lon="5.11928535758171" id="-72929">
		<tag k="name" v="Lunnekleiva" />
		<tag k="natural" v="slope" />
		<tag k="place" v="locality" />
		<tag k="ssr:stedsnr" v="409721" />
	</node>
	<node lat="60.483869447292875" lon="5.075097218241783" id="-72930">
		<tag k="fixme" v="consider seamark:type=rock or natural=shoal" />
		<tag k="name" v="Slottet" />
		<tag k="place" v="islet" />
		<tag k="ssr:stedsnr" v="409724" />
	</node>
	<node lat="60.484041666817234" lon="5.088969438991214" id="-72932">
		<tag k="name" v="Krossholmen" />
		<tag k="place" v="islet" />
		<tag k="ssr:stedsnr" v="409727" />
	</node>
	<node lat="60.46042222451211" lon="5.2313305482595585" id="-72933">
		<tag k="name" v="Nygård" />
		<tag k="place" v="farm" />
		<tag k="ssr:stedsnr" v="409889" />
	</node>
	<node lat="60.44701111535225" lon="5.160341669702427" id="-72934">
		<tag k="historic" v="shieling" />
		<tag k="name" v="Fjellheim" />
		<tag k="place" v="isolated_dwelling" />
		<tag k="ssr:stedsnr" v="409896" />
	</node>
	<node lat="60.52383055499173" lon="5.054802778104884" id="-72935">
		<tag k="name" v="Stølhaugane" />
		<tag k="natural" v="hill" />
		<tag k="place" v="locality" />
		<tag k="ssr:stedsnr" v="409940" />
	</node>
	<node lat="60.46641944559912" lon="5.1187055562076" id="-72937">
		<tag k="name" v="Litle Kårevikshaugen" />
		<tag k="natural" v="hill" />
		<tag k="place" v="locality" />
		<tag k="ssr:stedsnr" v="409950" />
	</node>
	<node lat="60.473350001094296" lon="5.223219441094314" id="-72939">
		<tag k="name" v="Hopsholten" />
		<tag k="natural" v="cape" />
		<tag k="ssr:stedsnr" v="410702" />
	</node>
	<node lat="60.470939591253185" lon="5.107128508451806" id="-72941">
		<tag k="name" v="Dammen" />
		<tag k="natural" v="water" />
		<tag k="ssr:stedsnr" v="410729" />
		<tag k="water" v="lake" />
	</node>
	<node lat="60.471797220466954" lon="5.055913895037496" id="-72942">
		<tag k="name" v="Gommen" />
		<tag k="place" v="islet" />
		<tag k="ssr:stedsnr" v="410732" />
	</node>
	<node lat="60.50894999761728" lon="5.078611110139012" id="-72943">
		<tag k="bridge" v="yes" />
		<tag k="layer" v="1" />
		<tag k="name" v="Berland" />
		<tag k="ssr:stedsnr" v="411215" />
	</node>
	<node lat="60.488494447980315" lon="5.039199994678388" id="-72946">
		<tag k="name" v="Ertenøynane" />
		<tag k="place" v="island" />
		<tag k="ssr:stedsnr" v="490222" />
	</node>
	<node lat="60.44632500295602" lon="5.116227772271432" id="-72948">
		<tag k="alt_name" v="Kolavågen" />
		<tag k="name" v="Kollevågen" />
		<tag k="natural" v="bay" />
		<tag k="ssr:stedsnr" v="490541" />
	</node>
	<node lat="60.410588889196255" lon="5.228977775362068" id="-72949">
		<tag k="name" v="Strand" />
		<tag k="place" v="farm" />
		<tag k="ssr:stedsnr" v="490555" />
	</node>
	<node lat="60.495463889835335" lon="4.998869450836428" id="-72951">
		<tag k="name" v="Tretteskallen" />
		<tag k="natural" v="shoal" />
		<tag k="place" v="locality" />
		<tag k="ssr:stedsnr" v="430219" />
	</node>
	<node lat="60.49721205274381" lon="5.079406014875191" id="-72952">
		<tag k="name" v="Hansneset" />
		<tag k="natural" v="cape" />
		<tag k="ssr:stedsnr" v="430220" />
	</node>
	<node lat="60.47554166654597" lon="5.222288883651415" id="-72953">
		<tag k="alt_name" v="Juvik" />
		<tag k="name" v="Juvika" />
		<tag k="natural" v="bay" />
		<tag k="ssr:stedsnr" v="430413" />
	</node>
	<node lat="60.47111110754166" lon="5.202774994955538" id="-72954">
		<tag k="name" v="Sætre" />
		<tag k="place" v="farm" />
		<tag k="ssr:stedsnr" v="430416" />
	</node>
	<node lat="60.4989944477938" lon="5.166583340580485" id="-72955">
		<tag k="name" v="Sæterstølen" />
		<tag k="place" v="isolated_dwelling" />
		<tag k="ssr:stedsnr" v="430452" />
	</node>
	<node lat="60.43183889089865" lon="5.109683340082306" id="-72956">
		<tag k="bay" v="fjord" />
		<tag k="name" v="Hauglandsosen" />
		<tag k="natural" v="bay" />
		<tag k="ssr:stedsnr" v="430500" />
	</node>
	<node lat="60.428827775160066" lon="5.146724999687387" id="-72958">
		<tag k="name" v="Torvneset" />
		<tag k="natural" v="cape" />
		<tag k="ssr:stedsnr" v="430608" />
	</node>
	<node lat="60.57161666541414" lon="4.9739749995581075" id="-72960">
		<tag k="name" v="Lamøysundet" />
		<tag k="natural" v="strait" />
		<tag k="ssr:stedsnr" v="431714" />
	</node>
	<node lat="60.53792500348365" lon="4.992949991938939" id="-72961">
		<tag k="name" v="Oksnesvatnet" />
		<tag k="natural" v="water" />
		<tag k="ssr:stedsnr" v="431723" />
	</node>
	<node lat="60.52608889268588" lon="4.995399992763281" id="-72963">
		<tag k="name" v="Vollen" />
		<tag k="place" v="islet" />
		<tag k="ssr:stedsnr" v="431729" />
	</node>
	<node lat="60.513225000808106" lon="5.085477781592105" id="-72965">
		<tag k="name" v="Haugland" />
		<tag k="place" v="hamlet" />
		<tag k="ssr:stedsnr" v="431693" />
	</node>
	<node lat="60.52716388510063" lon="5.0407416670247835" id="-72966">
		<tag k="name" v="Smalneset" />
		<tag k="natural" v="cape" />
		<tag k="ssr:stedsnr" v="431697" />
	</node>
	<node lat="60.48340000271336" lon="5.180577781769844" id="-72967">
		<tag k="name" v="Øyna" />
		<tag k="place" v="islet" />
		<tag k="ssr:stedsnr" v="491394" />
	</node>
	<node lat="60.48027500004255" lon="5.222466662424191" id="-72970">
		<tag k="name" v="Frugardsholten" />
		<tag k="natural" v="cape" />
		<tag k="ssr:stedsnr" v="491399" />
	</node>
	<node lat="60.44126389105102" lon="5.163386107280439" id="-72973">
		<tag k="name" v="Knappen" />
		<tag k="natural" v="cape" />
		<tag k="ssr:stedsnr" v="491541" />
	</node>
	<node lat="60.39247499623897" lon="5.176855556776098" id="-72975">
		<tag k="fixme" v="consider place=suburb, village or hamlet" />
		<tag k="name" v="Marikoven" />
		<tag k="place" v="quarter" />
		<tag k="ssr:stedsnr" v="491664" />
	</node>
	<node lat="60.50502045302445" lon="5.079911798951585" id="-72977">
		<tag k="alt_name" v="Frommereidpollen" />
		<tag k="name" v="Fromreidpollen" />
		<tag k="natural" v="bay" />
		<tag k="ssr:stedsnr" v="492660" />
	</node>
	<node lat="60.461732156012324" lon="5.120191919613809" id="-72978">
		<tag k="name" v="Svartevatnet" />
		<tag k="natural" v="water" />
		<tag k="ssr:stedsnr" v="551397" />
	</node>
	<node lat="60.47273888623395" lon="5.068438888938306" id="-72979">
		<tag k="name" v="Tårnenipa" />
		<tag k="natural" v="hill" />
		<tag k="place" v="locality" />
		<tag k="ssr:stedsnr" v="450883" />
	</node>
	<node lat="60.46071944456894" lon="5.142375007650744" id="-72980">
		<tag k="fixme" v="consider place=hamlet" />
		<tag k="name" v="Tveit" />
		<tag k="place" v="farm" />
		<tag k="ssr:stedsnr" v="672388" />
	</node>
	<node lat="60.464500004220504" lon="5.14684165752304" id="-72981">
		<tag k="name" v="Haugen" />
		<tag k="place" v="farm" />
		<tag k="ssr:stedsnr" v="672391" />
	</node>
	<node lat="60.4619913175335" lon="5.212089369301914" id="-72982">
		<tag k="name" v="Hopsvatnet" />
		<tag k="natural" v="water" />
		<tag k="ssr:stedsnr" v="672396" />
		<tag k="water" v="lake" />
	</node>
	<node lat="60.41883055125216" lon="5.1526166706959655" id="-72983">
		<tag k="name" v="Nibbene" />
		<tag k="natural" v="hill" />
		<tag k="place" v="locality" />
		<tag k="ssr:stedsnr" v="672597" />
	</node>
	<node lat="60.401481041643585" lon="5.189600099893159" id="-72984">
		<tag k="amenity" v="place_of_worship" />
		<tag k="denomination" v="lutheran" />
		<tag k="name" v="Strusshamn kirke" />
		<tag k="religion" v="christian" />
		<tag k="ssr:stedsnr" v="672554" />
	</node>
	<node lat="60.408194446587224" lon="5.246283329270223" id="-72985">
		<tag k="name" v="Storholmen" />
		<tag k="place" v="islet" />
		<tag k="ssr:stedsnr" v="672558" />
	</node>
	<node lat="60.495780554436664" lon="5.17275277678684" id="-72986">
		<tag k="fixme" v="consider natural=peak for the most distinct mountains in the district" />
		<tag k="name" v="Stølsåsen" />
		<tag k="natural" v="hill" />
		<tag k="place" v="locality" />
		<tag k="ssr:stedsnr" v="673408" />
	</node>
	<node lat="60.49092499642175" lon="5.203374992266303" id="-72987">
		<tag k="name" v="Flensberghamna" />
		<tag k="natural" v="bay" />
		<tag k="ssr:stedsnr" v="673410" />
	</node>
	<node lat="60.522630554206444" lon="5.097255555923299" id="-72990">
		<tag k="name" v="Hegernesvika" />
		<tag k="natural" v="bay" />
		<tag k="ssr:stedsnr" v="674376" />
	</node>
	<node lat="60.568069446474205" lon="4.931711108030149" id="-72993">
		<tag k="name" v="Langeskallen" />
		<tag k="natural" v="shoal" />
		<tag k="place" v="locality" />
		<tag k="ssr:stedsnr" v="674697" />
	</node>
	<node lat="60.51933055581706" lon="5.021347224043985" id="-72994">
		<tag k="name" v="Skaret" />
		<tag k="place" v="farm" />
		<tag k="ssr:stedsnr" v="469270" />
	</node>
	<node lat="60.52418611238185" lon="5.059180555595119" id="-72995">
		<tag k="name" v="Storhaugen" />
		<tag k="place" v="farm" />
		<tag k="ssr:stedsnr" v="469280" />
	</node>
	<node lat="60.50503602118452" lon="5.04501054215213" id="-72996">
		<tag k="name" v="Rottjørna" />
		<tag k="natural" v="water" />
		<tag k="ssr:stedsnr" v="469286" />
	</node>
	<node lat="60.463891665548076" lon="5.082180560358393" id="-72998">
		<tag k="name" v="Stora Breivika" />
		<tag k="natural" v="bay" />
		<tag k="ssr:stedsnr" v="469321" />
	</node>
	<node lat="60.48098610807434" lon="5.121377771242798" id="-72999">
		<tag k="fixme" v="consider natural=peak for the most distinct mountains in the district" />
		<tag k="name" v="Søre Meåsen" />
		<tag k="natural" v="hill" />
		<tag k="place" v="locality" />
		<tag k="ssr:stedsnr" v="469322" />
	</node>
	<node lat="60.409205558719435" lon="5.150855564135456" id="-73001">
		<tag k="name" v="Follesevågen" />
		<tag k="natural" v="bay" />
		<tag k="ssr:stedsnr" v="469903" />
	</node>
	<node lat="60.49736388757722" lon="5.148038886342398" id="-73002">
		<tag k="name" v="Ospedalen" />
		<tag k="natural" v="valley" />
		<tag k="place" v="locality" />
		<tag k="ssr:stedsnr" v="470528" />
	</node>
	<node lat="60.576397219165244" lon="4.9463611122922755" id="-73003">
		<tag k="name" v="Nordre Signalen" />
		<tag k="natural" v="cape" />
		<tag k="ssr:stedsnr" v="470610" />
	</node>
	<node lat="60.438405555538566" lon="5.049799994323147" id="-73005">
		<tag k="name" v="Purka" />
		<tag k="place" v="locality" />
		<tag k="ssr:stedsnr" v="470626" />
	</node>
	<node lat="60.418802775237246" lon="5.234544447799116" id="-73006">
		<tag k="name" v="Hagen" />
		<tag k="place" v="farm" />
		<tag k="ssr:stedsnr" v="470631" />
	</node>
	<node lat="60.45438055373977" lon="5.0980444374854414" id="-73007">
		<tag k="fixme" v="consider natural=peak for the most distinct mountains in the district" />
		<tag k="name" v="Steinafjellet" />
		<tag k="natural" v="hill" />
		<tag k="place" v="locality" />
		<tag k="ssr:stedsnr" v="470685" />
	</node>
	<node lat="60.47221111040393" lon="5.139591660326824" id="-73008">
		<tag k="name" v="Revura" />
		<tag k="natural" v="scree" />
		<tag k="ssr:stedsnr" v="470686" />
	</node>
	<node lat="60.474459605768295" lon="5.111059675643999" id="-73009">
		<tag k="name" v="Bustevatnet" />
		<tag k="natural" v="water" />
		<tag k="ssr:stedsnr" v="470712" />
		<tag k="water" v="lake" />
	</node>
	<node lat="60.47852222409215" lon="5.102608340793331" id="-73010">
		<tag k="name" v="Krossdalshaugane" />
		<tag k="natural" v="hill" />
		<tag k="place" v="locality" />
		<tag k="ssr:stedsnr" v="470721" />
	</node>
	<node lat="60.47341388966243" lon="5.027175006660557" id="-73017">
		<tag k="name" v="Marholmgrunnen" />
		<tag k="natural" v="shoal" />
		<tag k="place" v="locality" />
		<tag k="ssr:stedsnr" v="490235" />
	</node>
	<node lat="60.45133348024266" lon="5.227763031370717" id="-73020">
		<tag k="alt_name" v="Skogvika" />
		<tag k="name" v="Skogvik" />
		<tag k="natural" v="bay" />
		<tag k="ssr:stedsnr" v="490489" />
	</node>
	<node lat="60.41627838768039" lon="5.174020679274973" id="-73022">
		<tag k="name" v="Follesevatnet" />
		<tag k="natural" v="water" />
		<tag k="ssr:stedsnr" v="490607" />
	</node>
	<node lat="60.42028611376389" lon="5.241577773580713" id="-73025">
		<tag k="name" v="Florvågen" />
		<tag k="natural" v="bay" />
		<tag k="ssr:stedsnr" v="490599" />
	</node>
	<node lat="60.502792314079215" lon="5.161778165738919" id="-73026">
		<tag k="name" v="Sæterstølvika" />
		<tag k="natural" v="bay" />
		<tag k="ssr:stedsnr" v="491516" />
	</node>
	<node lat="60.5878611116973" lon="4.96225000585007" id="-73032">
		<tag k="name" v="Strykjene" />
		<tag k="natural" v="shoal" />
		<tag k="place" v="locality" />
		<tag k="ssr:stedsnr" v="509669" />
	</node>
	<node lat="60.41928333055914" lon="5.249961117084025" id="-73035">
		<tag k="name" v="Søre Tjuvavågen" />
		<tag k="natural" v="bay" />
		<tag k="ssr:stedsnr" v="530302" />
	</node>
	<node lat="60.55109167032424" lon="4.965377777427264" id="-73036">
		<tag k="name" v="Øyarstøa" />
		<tag k="natural" v="strait" />
		<tag k="ssr:stedsnr" v="530307" />
	</node>
	<node lat="60.549508332663386" lon="4.977133339854312" id="-73037">
		<tag k="fixme" v="consider natural=peak for the most distinct mountains in the district" />
		<tag k="name" v="Sanninarivarden" />
		<tag k="natural" v="hill" />
		<tag k="place" v="locality" />
		<tag k="ssr:stedsnr" v="530312" />
	</node>
	<node lat="60.41441388905111" lon="5.225688895430084" id="-73040">
		<tag k="name" v="Solhola" />
		<tag k="place" v="quarter" />
		<tag k="ssr:stedsnr" v="530292" />
	</node>
	<node lat="60.412336108482926" lon="5.222202773435505" id="-73041">
		<tag k="fixme" v="consider place=hamlet" />
		<tag k="name" v="Kleppestø" />
		<tag k="place" v="farm" />
		<tag k="ssr:stedsnr" v="530297" />
	</node>
	<node lat="60.415969442442275" lon="5.245213896249405" id="-73042">
		<tag k="name" v="Sundet" />
		<tag k="natural" v="strait" />
		<tag k="ssr:stedsnr" v="530404" />
	</node>
	<node lat="60.509208333823345" lon="5.018355551773287" id="-73045">
		<tag k="name" v="Rossneset" />
		<tag k="natural" v="cape" />
		<tag k="ssr:stedsnr" v="530594" />
	</node>
	<node lat="60.492069441604514" lon="5.055180562739079" id="-73047">
		<tag k="name" v="Lisstraumen" />
		<tag k="natural" v="strait" />
		<tag k="ssr:stedsnr" v="530726" />
	</node>
	<node lat="60.52190555635424" lon="5.054336104296774" id="-73048">
		<tag k="name" v="Dalen" />
		<tag k="natural" v="valley" />
		<tag k="place" v="locality" />
		<tag k="ssr:stedsnr" v="530608" />
	</node>
	<node lat="60.40768055896239" lon="5.213991663183075" id="-73049">
		<tag k="name" v="Gråskolten" />
		<tag k="place" v="locality" />
		<tag k="ssr:stedsnr" v="530907" />
	</node>
	<node lat="60.408772221214704" lon="5.214852785015769" id="-73050">
		<tag k="name" v="Hesdalen" />
		<tag k="natural" v="valley" />
		<tag k="place" v="locality" />
		<tag k="ssr:stedsnr" v="530908" />
	</node>
	<node lat="60.55159167009883" lon="4.954169446107706" id="-73051">
		<tag k="fixme" v="consider seamark:type=rock or natural=shoal" />
		<tag k="name" v="Langeskjeret" />
		<tag k="place" v="islet" />
		<tag k="ssr:stedsnr" v="530920" />
	</node>
	<node lat="60.49872148206611" lon="5.071319248589938" id="-73052">
		<tag k="name" v="Uneset" />
		<tag k="natural" v="cape" />
		<tag k="ssr:stedsnr" v="530927" />
	</node>
	<node lat="60.50836276724605" lon="5.118455710201127" id="-73053">
		<tag k="name" v="Vassvika" />
		<tag k="natural" v="bay" />
		<tag k="ssr:stedsnr" v="530930" />
	</node>
	<node lat="60.424116669780986" lon="5.139202783562189" id="-73054">
		<tag k="name" v="Stølsvika" />
		<tag k="natural" v="bay" />
		<tag k="ssr:stedsnr" v="530888" />
	</node>
	<node lat="60.428841669667115" lon="5.151800004027541" id="-73055">
		<tag k="name" v="Breivika" />
		<tag k="natural" v="bay" />
		<tag k="ssr:stedsnr" v="530890" />
	</node>
	<node lat="60.42856944628973" lon="5.208586102087151" id="-73057">
		<tag k="name" v="Rørebekken" />
		<tag k="ssr:stedsnr" v="531681" />
		<tag k="waterway" v="stream" />
	</node>
	<node lat="60.44700277514426" lon="5.115866668858373" id="-73058">
		<tag k="name" v="Mjøneset" />
		<tag k="natural" v="cape" />
		<tag k="ssr:stedsnr" v="531693" />
	</node>
	<node lat="60.48332990937232" lon="5.096654819028481" id="-73059">
		<tag k="name" v="Svartepyttjørna" />
		<tag k="natural" v="water" />
		<tag k="ssr:stedsnr" v="531729" />
	</node>
	<node lat="60.488283335092625" lon="5.201436119341919" id="-73060">
		<tag k="bridge" v="yes" />
		<tag k="layer" v="1" />
		<tag k="name" v="Bakkeland" />
		<tag k="ssr:stedsnr" v="533207" />
	</node>
	<node lat="60.41296111156658" lon="5.226422213183867" id="-73061">
		<tag k="bridge" v="yes" />
		<tag k="layer" v="1" />
		<tag k="name" v="Kleppestø" />
		<tag k="ssr:stedsnr" v="533212" />
	</node>
	<node lat="60.45544166814443" lon="5.226008325238792" id="-73062">
		<tag k="bridge" v="yes" />
		<tag k="layer" v="1" />
		<tag k="name" v="Olaviken" />
		<tag k="ssr:stedsnr" v="533213" />
	</node>
	<node lat="60.45390833311859" lon="5.094822213789921" id="-73063">
		<tag k="bridge" v="yes" />
		<tag k="layer" v="1" />
		<tag k="name" v="Tverrmeisa" />
		<tag k="ssr:stedsnr" v="533217" />
	</node>
	<node lat="60.47420555300881" lon="5.122288897556957" id="-73068">
		<tag k="fixme" v="consider natural=peak for the most distinct mountains in the district" />
		<tag k="name" v="Klettane" />
		<tag k="natural" v="hill" />
		<tag k="place" v="locality" />
		<tag k="ssr:stedsnr" v="551413" />
	</node>
	<node lat="60.47688332906181" lon="5.212430551413542" id="-73069">
		<tag k="amenity" v="place_of_worship" />
		<tag k="denomination" v="lutheran" />
		<tag k="name" v="Ask kirke" />
		<tag k="religion" v="christian" />
		<tag k="ssr:stedsnr" v="551418" />
	</node>
	<node lat="60.41980833061563" lon="5.145683336654062" id="-73070">
		<tag k="name" v="Eide" />
		<tag k="place" v="hamlet" />
		<tag k="ssr:stedsnr" v="551604" />
	</node>
	<node lat="60.5140388932687" lon="4.9821166688148315" id="-73072">
		<tag k="name" v="Guriholet" />
		<tag k="natural" v="shoal" />
		<tag k="place" v="locality" />
		<tag k="ssr:stedsnr" v="552710" />
	</node>
	<node lat="60.53783611005751" lon="4.980536118543663" id="-73074">
		<tag k="fixme" v="consider seamark:type=rock or natural=shoal" />
		<tag k="name" v="Randeskjeret" />
		<tag k="place" v="islet" />
		<tag k="ssr:stedsnr" v="692466" />
	</node>
	<node lat="60.536933334437386" lon="5.022397216415469" id="-73075">
		<tag k="name" v="Søra Abedissa" />
		<tag k="place" v="farm" />
		<tag k="ssr:stedsnr" v="692468" />
	</node>
	<node lat="60.42091110826171" lon="5.182244445712987" id="-73076">
		<tag k="name" v="Træet" />
		<tag k="natural" v="valley" />
		<tag k="place" v="locality" />
		<tag k="ssr:stedsnr" v="692711" />
	</node>
	<node lat="60.541875001525845" lon="4.984213880959199" id="-73077">
		<tag k="name" v="Dalen" />
		<tag k="natural" v="valley" />
		<tag k="place" v="locality" />
		<tag k="ssr:stedsnr" v="693535" />
	</node>
	<node lat="60.41415000161781" lon="5.184422229366408" id="-73081">
		<tag k="name" v="Krokåsdalen" />
		<tag k="natural" v="valley" />
		<tag k="place" v="locality" />
		<tag k="ssr:stedsnr" v="590263" />
	</node>
	<node lat="60.47823825687775" lon="5.087580291916722" id="-73082">
		<tag k="name" v="Kremmarvatnet" />
		<tag k="natural" v="water" />
		<tag k="ssr:stedsnr" v="590317" />
		<tag k="water" v="lake" />
	</node>
	<node lat="60.467350000029285" lon="5.16171111967924" id="-73083">
		<tag k="name" v="Tuemyrane" />
		<tag k="natural" v="wetland" />
		<tag k="ssr:stedsnr" v="590906" />
	</node>
	<node lat="60.42478055200964" lon="5.184772219802836" id="-73084">
		<tag k="name" v="Krokåshaugane" />
		<tag k="natural" v="hill" />
		<tag k="place" v="locality" />
		<tag k="ssr:stedsnr" v="590912" />
	</node>
	<node lat="60.424186115189954" lon="5.153380557371444" id="-73085">
		<tag k="name" v="Basneset" />
		<tag k="natural" v="cape" />
		<tag k="ssr:stedsnr" v="590913" />
	</node>
	<node lat="60.48784959922657" lon="5.1962764194200535" id="-73086">
		<tag k="name" v="Oterdalen" />
		<tag k="natural" v="valley" />
		<tag k="place" v="locality" />
		<tag k="ssr:stedsnr" v="591507" />
	</node>
	<node lat="60.492799999183674" lon="5.200727785211913" id="-73088">
		<tag k="name" v="Nordre Kyraneset" />
		<tag k="natural" v="cape" />
		<tag k="ssr:stedsnr" v="591519" />
	</node>
	<node lat="60.505075000872736" lon="5.145619449414438" id="-73089">
		<tag k="name" v="Nordre Holmen" />
		<tag k="place" v="islet" />
		<tag k="ssr:stedsnr" v="591525" />
	</node>
	<node lat="60.46770833200148" lon="5.075638894526963" id="-73092">
		<tag k="name" v="Bjøllevågsholmen" />
		<tag k="place" v="islet" />
		<tag k="ssr:stedsnr" v="591679" />
	</node>
	<node lat="60.46034999907451" lon="5.106886116994818" id="-73093">
		<tag k="name" v="Kalsimyra" />
		<tag k="natural" v="wetland" />
		<tag k="ssr:stedsnr" v="592717" />
	</node>
	<node lat="60.50473333635017" lon="5.165225003261003" id="-73100">
		<tag k="name" v="Seljeneset" />
		<tag k="natural" v="cape" />
		<tag k="ssr:stedsnr" v="612524" />
	</node>
	<node lat="60.50386389210224" lon="5.143005563470012" id="-73101">
		<tag k="alt_name" v="Skjelviki" />
		<tag k="name" v="Skjelvika" />
		<tag k="place" v="hamlet" />
		<tag k="ssr:stedsnr" v="612528" />
	</node>
	<node lat="60.446316669019076" lon="5.22630555438087" id="-73102">
		<tag k="alt_name" v="Nordre Erdal" />
		<tag k="name" v="Norderdal" />
		<tag k="place" v="farm" />
		<tag k="ssr:stedsnr" v="612532" />
	</node>
	<node lat="60.4325283066269" lon="5.186724176226606" id="-73103">
		<tag k="name" v="Fjellheim" />
		<tag k="place" v="farm" />
		<tag k="ssr:stedsnr" v="612624" />
	</node>
	<node lat="60.530211113443066" lon="4.9975194448964695" id="-73106">
		<tag k="name" v="Langevågen" />
		<tag k="natural" v="bay" />
		<tag k="ssr:stedsnr" v="631485" />
	</node>
	<node lat="60.504100000698735" lon="5.016911104911778" id="-73107">
		<tag k="name" v="Lyngholmen" />
		<tag k="place" v="islet" />
		<tag k="ssr:stedsnr" v="631497" />
	</node>
	<node lat="60.406525003171936" lon="5.220511105180043" id="-73109">
		<tag k="alt_name" v="Holmedalen" />
		<tag k="name" v="Holmedal" />
		<tag k="place" v="isolated_dwelling" />
		<tag k="ssr:stedsnr" v="632708" />
	</node>
	<node lat="60.43621666547681" lon="5.102469448287468" id="-73110">
		<tag k="name" v="Vardøyflua" />
		<tag k="natural" v="shoal" />
		<tag k="place" v="locality" />
		<tag k="ssr:stedsnr" v="632880" />
	</node>
	<node lat="60.51809166894993" lon="5.029636114534907" id="-73112">
		<tag k="name" v="Juvika" />
		<tag k="natural" v="bay" />
		<tag k="ssr:stedsnr" v="651288" />
	</node>
	<node lat="60.51300435207851" lon="5.022392312888987" id="-73114">
		<tag k="name" v="Breiviktjørna" />
		<tag k="natural" v="water" />
		<tag k="ssr:stedsnr" v="651298" />
	</node>
	<node lat="60.509261021552135" lon="5.096592090286528" id="-73115">
		<tag k="name" v="Purketjørna" />
		<tag k="natural" v="water" />
		<tag k="ssr:stedsnr" v="651305" />
	</node>
	<node lat="60.459702244638045" lon="5.105201274802788" id="-73116">
		<tag k="name" v="Brekketjørna" />
		<tag k="natural" v="water" />
		<tag k="ssr:stedsnr" v="651315" />
	</node>
	<node lat="60.45962500059153" lon="5.106252773012777" id="-73117">
		<tag k="name" v="Grønhaugen" />
		<tag k="natural" v="hill" />
		<tag k="place" v="locality" />
		<tag k="ssr:stedsnr" v="651316" />
	</node>
	<node lat="60.40263610830103" lon="5.203908336981713" id="-73119">
		<tag k="historic" v="shieling" />
		<tag k="name" v="Stølen" />
		<tag k="place" v="isolated_dwelling" />
		<tag k="ssr:stedsnr" v="651947" />
	</node>
	<node lat="60.49909444762981" lon="5.039461101704635" id="-73121">
		<tag k="name" v="Eikeneset" />
		<tag k="natural" v="cape" />
		<tag k="ssr:stedsnr" v="652539" />
	</node>
	<node lat="60.49917500134603" lon="5.070502780875879" id="-73122">
		<tag k="name" v="Naustvika" />
		<tag k="natural" v="bay" />
		<tag k="ssr:stedsnr" v="652542" />
	</node>
	<node lat="60.47234722000328" lon="5.06568054680132" id="-73124">
		<tag k="name" v="Søre Krossundkeila" />
		<tag k="natural" v="strait" />
		<tag k="ssr:stedsnr" v="652710" />
	</node>
	<node lat="60.442897226784744" lon="5.175825008321462" id="-73129">
		<tag k="name" v="Solheim" />
		<tag k="place" v="farm" />
		<tag k="ssr:stedsnr" v="652908" />
	</node>
	<node lat="60.40074166541288" lon="5.181713883482256" id="-73132">
		<tag k="alt_name" v="Skiftesvik" />
		<tag k="name" v="Skiftesvika" />
		<tag k="place" v="farm" />
		<tag k="ssr:stedsnr" v="672563" />
	</node>
	<node lat="60.44381098559011" lon="5.076345541914391" id="-73133">
		<tag k="alt_name" v="Hanøyni" />
		<tag k="fixme" v="consider place=hamlet" />
		<tag k="name" v="Hanøy" />
		<tag k="place" v="farm" />
		<tag k="ssr:stedsnr" v="673174" />
	</node>
	<node lat="60.491631487445844" lon="5.1218819683246934" id="-73134">
		<tag k="alt_name" v="Kistetjørna" />
		<tag k="name" v="Nordra Kistetjørna" />
		<tag k="natural" v="water" />
		<tag k="ssr:stedsnr" v="673404" />
	</node>
	<node lat="60.42798888816738" lon="5.196063887915675" id="-73136">
		<tag k="name" v="Norddal" />
		<tag k="place" v="farm" />
		<tag k="ssr:stedsnr" v="673631" />
	</node>
	<node lat="60.5148833336003" lon="5.121761103919029" id="-73137">
		<tag k="name" v="Olderneset" />
		<tag k="natural" v="cape" />
		<tag k="ssr:stedsnr" v="674034" />
	</node>
	<node lat="60.521427779336484" lon="5.091780563264179" id="-73140">
		<tag k="alt_name" v="Hegernes" />
		<tag k="name" v="Hegerneset" />
		<tag k="natural" v="cape" />
		<tag k="ssr:stedsnr" v="674668" />
	</node>
	<node lat="60.53796666756366" lon="5.006555561481855" id="-73141">
		<tag k="fixme" v="consider natural=peak for the most distinct mountains in the district" />
		<tag k="name" v="Abbedissefjellet" />
		<tag k="natural" v="hill" />
		<tag k="place" v="locality" />
		<tag k="ssr:stedsnr" v="674715" />
	</node>
	<node lat="60.53410243693734" lon="4.9982762281622275" id="-73142">
		<tag k="alt_name" v="Skråmestøi" />
		<tag k="fixme" v="consider place=hamlet" />
		<tag k="name" v="Skråmestø" />
		<tag k="place" v="farm" />
		<tag k="ssr:stedsnr" v="674716" />
	</node>
	<node lat="60.41814721780321" lon="5.202958330323914" id="-73144">
		<tag k="name" v="Nyestykket" />
		<tag k="place" v="farm" />
		<tag k="ssr:stedsnr" v="894287" />
	</node>
	<node lat="60.48922278753693" lon="5.2011741057931" id="-73145">
		<tag k="alt_name" v="Lilleholten" />
		<tag k="name" v="Litleholten" />
		<tag k="place" v="farm" />
		<tag k="ssr:stedsnr" v="894390" />
	</node>
	<node lat="60.49719167015633" lon="5.1091388959761295" id="-73146">
		<tag k="name" v="Oksen" />
		<tag k="place" v="locality" />
		<tag k="ssr:stedsnr" v="894338" />
	</node>
	<node lat="60.484320829975616" lon="5.103092071233757" id="-73147">
		<tag k="name" v="Svartepyttvatnet" />
		<tag k="natural" v="water" />
		<tag k="ssr:stedsnr" v="894345" />
		<tag k="water" v="lake" />
	</node>
	<node lat="60.591783332340256" lon="4.945763884649699" id="-73150">
		<tag k="name" v="Søreflua" />
		<tag k="natural" v="shoal" />
		<tag k="place" v="locality" />
		<tag k="ssr:stedsnr" v="692679" />
	</node>
	<node lat="60.588111111872635" lon="4.968158329840518" id="-73151">
		<tag k="name" v="Kvitholmflua" />
		<tag k="natural" v="shoal" />
		<tag k="place" v="locality" />
		<tag k="ssr:stedsnr" v="692692" />
	</node>
	<node lat="60.46909166328796" lon="5.081097227930469" id="-73154">
		<tag k="name" v="Jodlevågen" />
		<tag k="natural" v="bay" />
		<tag k="ssr:stedsnr" v="693874" />
	</node>
	<node lat="60.42062222355052" lon="5.089066664199472" id="-73155">
		<tag k="name" v="Kristofferholmen" />
		<tag k="place" v="islet" />
		<tag k="ssr:stedsnr" v="693888" />
	</node>
	<node lat="60.409952775498375" lon="5.128716664611537" id="-73156">
		<tag k="fixme" v="consider seamark:type=rock or natural=shoal" />
		<tag k="name" v="Skarven" />
		<tag k="place" v="islet" />
		<tag k="ssr:stedsnr" v="693974" />
	</node>
	<node lat="60.52170000422608" lon="5.016883330472673" id="-73158">
		<tag k="name" v="Støletjørna" />
		<tag k="natural" v="water" />
		<tag k="ssr:stedsnr" v="894945" />
	</node>
	<node lat="60.403394441572686" lon="5.160797224959713" id="-73162">
		<tag k="name" v="Vindfellen" />
		<tag k="place" v="locality" />
		<tag k="ssr:stedsnr" v="894898" />
	</node>
	<node lat="60.41298055499717" lon="5.247922222115768" id="-73163">
		<tag k="name" v="Støneset" />
		<tag k="natural" v="cape" />
		<tag k="ssr:stedsnr" v="894997" />
	</node>
	<node lat="60.39676666917234" lon="5.200105550040443" id="-73164">
		<tag k="name" v="Engevika" />
		<tag k="natural" v="bay" />
		<tag k="ssr:stedsnr" v="895342" />
	</node>
	<node lat="60.51557221923067" lon="5.104016662694665" id="-73167">
		<tag k="name" v="Grønnipeskaret" />
		<tag k="natural" v="valley" />
		<tag k="place" v="locality" />
		<tag k="ssr:stedsnr" v="895542" />
	</node>
	<node lat="60.517488889301056" lon="5.098241665209941" id="-73168">
		<tag k="name" v="Jonsokhaugen" />
		<tag k="natural" v="hill" />
		<tag k="place" v="locality" />
		<tag k="ssr:stedsnr" v="895543" />
	</node>
	<node lat="60.52768888590228" lon="4.990863880175619" id="-73170">
		<tag k="fixme" v="consider seamark:type=rock or natural=shoal" />
		<tag k="name" v="Bollen" />
		<tag k="place" v="islet" />
		<tag k="ssr:stedsnr" v="895563" />
	</node>
	<node lat="60.56998055820433" lon="4.957322223772887" id="-73173">
		<tag k="name" v="Lakseneset" />
		<tag k="natural" v="cape" />
		<tag k="ssr:stedsnr" v="895573" />
	</node>
	<node lat="60.45614887611342" lon="5.127527008754631" id="-73177">
		<tag k="name" v="Holatjørna" />
		<tag k="natural" v="water" />
		<tag k="ssr:stedsnr" v="895653" />
	</node>
	<node lat="60.47994721989982" lon="5.189397228529734" id="-73179">
		<tag k="name" v="Andøyna" />
		<tag k="place" v="island" />
		<tag k="ssr:stedsnr" v="895737" />
	</node>
	<node lat="60.43543822989143" lon="5.052272986073407" id="-73181">
		<tag k="name" v="Myrafjæra" />
		<tag k="natural" v="bay" />
		<tag k="ssr:stedsnr" v="895592" />
	</node>
	<node lat="60.47419999767166" lon="5.159205559076445" id="-73184">
		<tag k="name" v="Vassvika" />
		<tag k="natural" v="bay" />
		<tag k="ssr:stedsnr" v="896740" />
	</node>
	<node lat="60.463199999991616" lon="5.110311106274168" id="-73185">
		<tag k="name" v="Seljehaugen" />
		<tag k="natural" v="hill" />
		<tag k="place" v="locality" />
		<tag k="ssr:stedsnr" v="896749" />
	</node>
	<node lat="60.46111111021749" lon="5.099375007342138" id="-73186">
		<tag k="fixme" v="consider seamark:type=rock or natural=shoal" />
		<tag k="name" v="Pøyleskjeret" />
		<tag k="place" v="islet" />
		<tag k="ssr:stedsnr" v="896751" />
	</node>
	<node lat="60.46165773043034" lon="5.097494535507069" id="-73187">
		<tag k="name" v="Storevikneset" />
		<tag k="natural" v="cape" />
		<tag k="ssr:stedsnr" v="896752" />
	</node>
	<node lat="60.437716664888924" lon="5.048858330048327" id="-73190">
		<tag k="fixme" v="consider natural=peak for the most distinct mountains in the district" />
		<tag k="name" v="Ørnatua" />
		<tag k="natural" v="hill" />
		<tag k="place" v="locality" />
		<tag k="ssr:stedsnr" v="712308" />
	</node>
	<node lat="60.49478611007463" lon="5.120652780577208" id="-73191">
		<tag k="name" v="Kjerrgardselva" />
		<tag k="ssr:stedsnr" v="712277" />
		<tag k="waterway" v="stream" />
	</node>
	<node lat="60.470083333412056" lon="5.117855563306414" id="-73193">
		<tag k="name" v="Nonshaugen" />
		<tag k="natural" v="hill" />
		<tag k="place" v="locality" />
		<tag k="ssr:stedsnr" v="712279" />
	</node>
	<node lat="60.48023043122178" lon="5.112575475909075" id="-73194">
		<tag k="name" v="Nordre Fagerbakktjørna" />
		<tag k="natural" v="water" />
		<tag k="ssr:stedsnr" v="712282" />
	</node>
	<node lat="60.45143888916706" lon="5.103619442523287" id="-73195">
		<tag k="name" v="Kaggevikane" />
		<tag k="natural" v="bay" />
		<tag k="ssr:stedsnr" v="712295" />
	</node>
	<node lat="60.45442427651187" lon="5.121968559756316" id="-73196">
		<tag k="fixme" v="consider place=hamlet" />
		<tag k="name" v="Kollevåg" />
		<tag k="place" v="farm" />
		<tag k="ssr:stedsnr" v="712301" />
	</node>
	<node lat="60.39850277978036" lon="5.2102916692212276" id="-73198">
		<tag k="name" v="Byneset" />
		<tag k="natural" v="cape" />
		<tag k="ssr:stedsnr" v="712876" />
	</node>
	<node lat="60.5276861081656" lon="5.039950005533664" id="-73199">
		<tag k="name" v="Neset" />
		<tag k="natural" v="cape" />
		<tag k="ssr:stedsnr" v="713617" />
	</node>
	<node lat="60.55358055764219" lon="4.964602785495125" id="-73200">
		<tag k="name" v="Anderssundet" />
		<tag k="natural" v="strait" />
		<tag k="ssr:stedsnr" v="713625" />
	</node>
	<node lat="60.56302221961413" lon="4.959288895499585" id="-73201">
		<tag k="name" v="Vestrevika" />
		<tag k="natural" v="bay" />
		<tag k="ssr:stedsnr" v="713627" />
	</node>
	<node lat="60.57780833266011" lon="4.942897215063653" id="-73202">
		<tag k="name" v="Gavlevika" />
		<tag k="natural" v="bay" />
		<tag k="ssr:stedsnr" v="713634" />
	</node>
	<node lat="60.48436944736359" lon="5.176719442660456" id="-73203">
		<tag k="name" v="Sundet" />
		<tag k="natural" v="strait" />
		<tag k="ssr:stedsnr" v="713526" />
	</node>
	<node lat="60.50319721907152" lon="5.101611104996331" id="-73204">
		<tag k="name" v="Stabben" />
		<tag k="place" v="locality" />
		<tag k="ssr:stedsnr" v="713590" />
	</node>
	<node lat="60.45771666816679" lon="5.2165333376294765" id="-73207">
		<tag k="name" v="Vassbotnen" />
		<tag k="natural" v="valley" />
		<tag k="place" v="locality" />
		<tag k="ssr:stedsnr" v="713713" />
	</node>
	<node lat="60.454880555811435" lon="5.227080546630051" id="-73208">
		<tag k="name" v="Olavika" />
		<tag k="natural" v="bay" />
		<tag k="ssr:stedsnr" v="713714" />
	</node>
	<node lat="60.47253611173347" lon="5.226422216282068" id="-73210">
		<tag k="name" v="Raspekaka" />
		<tag k="natural" v="cape" />
		<tag k="ssr:stedsnr" v="713730" />
	</node>
	<node lat="60.43106944813627" lon="5.205397226208977" id="-73211">
		<tag k="name" v="Grønabrekka" />
		<tag k="natural" v="slope" />
		<tag k="place" v="locality" />
		<tag k="ssr:stedsnr" v="713679" />
	</node>
	<node lat="60.42923611498255" lon="5.206461110211039" id="-73212">
		<tag k="name" v="Vassmyra" />
		<tag k="natural" v="wetland" />
		<tag k="ssr:stedsnr" v="713683" />
	</node>
	<node lat="60.45023611315327" lon="5.0745111187212695" id="-73213">
		<tag k="name" v="Hanøyklubbmyra" />
		<tag k="natural" v="wetland" />
		<tag k="ssr:stedsnr" v="713686" />
	</node>
	<node lat="60.452825003149876" lon="5.100163891319305" id="-73214">
		<tag k="name" v="Jonasdal" />
		<tag k="natural" v="valley" />
		<tag k="place" v="locality" />
		<tag k="ssr:stedsnr" v="713689" />
	</node>
	<node lat="60.4451805563851" lon="5.088402769851765" id="-73215">
		<tag k="name" v="Slåttevika" />
		<tag k="natural" v="bay" />
		<tag k="ssr:stedsnr" v="713692" />
	</node>
	<node lat="60.494294447143496" lon="5.089319438951124" id="-73217">
		<tag k="name" v="Badevika" />
		<tag k="natural" v="bay" />
		<tag k="ssr:stedsnr" v="713777" />
	</node>
	<node lat="60.47894540358027" lon="5.201496549903838" id="-73218">
		<tag k="name" v="Mølledammen" />
		<tag k="natural" v="water" />
		<tag k="ssr:stedsnr" v="713778" />
		<tag k="water" v="lake" />
	</node>
	<node lat="60.407688884680525" lon="5.169905555587546" id="-73224">
		<tag k="name" v="Stølen" />
		<tag k="place" v="isolated_dwelling" />
		<tag k="ssr:stedsnr" v="733547" />
	</node>
	<node lat="60.454258330402126" lon="5.221049997284884" id="-73225">
		<tag k="name" v="Lia" />
		<tag k="place" v="farm" />
		<tag k="ssr:stedsnr" v="733513" />
	</node>
	<node lat="60.482602774408605" lon="5.169158329954515" id="-73226">
		<tag k="name" v="Tona" />
		<tag k="natural" v="hill" />
		<tag k="place" v="locality" />
		<tag k="ssr:stedsnr" v="734415" />
	</node>
	<node lat="60.42637500328041" lon="5.1704166668101195" id="-73228">
		<tag k="name" v="Kråkåshaugen" />
		<tag k="place" v="farm" />
		<tag k="ssr:stedsnr" v="734636" />
	</node>
	<node lat="60.50236424234564" lon="5.076080302591008" id="-73229">
		<tag k="alt_name" v="Frommereid" />
		<tag k="fixme" v="consider place=hamlet" />
		<tag k="name" v="Fromreide" />
		<tag k="place" v="farm" />
		<tag k="ssr:stedsnr" v="734703" />
	</node>
	<node lat="60.532957592497326" lon="4.986618811979044" id="-73231">
		<tag k="fixme" v="consider place=hamlet" />
		<tag k="name" v="Oksneset" />
		<tag k="place" v="farm" />
		<tag k="ssr:stedsnr" v="734715" />
	</node>
	<node lat="60.60726944403607" lon="4.93362777001763" id="-73232">
		<tag k="name" v="Prestholmen" />
		<tag k="place" v="islet" />
		<tag k="ssr:stedsnr" v="734898" />
	</node>
	<node lat="60.61294166703247" lon="4.923602771217424" id="-73233">
		<tag k="name" v="Kvernane" />
		<tag k="place" v="islet" />
		<tag k="ssr:stedsnr" v="734900" />
	</node>
	<node lat="60.59316388874391" lon="4.947930557803719" id="-73234">
		<tag k="name" v="Nordreflua" />
		<tag k="natural" v="shoal" />
		<tag k="place" v="locality" />
		<tag k="ssr:stedsnr" v="752659" />
	</node>
	<node lat="60.538933331844994" lon="5.0132472228696985" id="-73235">
		<tag k="name" v="Nordra Abedissa" />
		<tag k="place" v="farm" />
		<tag k="ssr:stedsnr" v="753462" />
	</node>
	<node lat="60.422472218666236" lon="5.183455559912767" id="-73239">
		<tag k="historic" v="shieling" />
		<tag k="name" v="Kleppestølen" />
		<tag k="place" v="locality" />
		<tag k="ssr:stedsnr" v="773368" />
	</node>
	<node lat="60.39376388509743" lon="5.168933328978117" id="-73240">
		<tag k="name" v="Signalen" />
		<tag k="place" v="farm" />
		<tag k="ssr:stedsnr" v="773379" />
	</node>
	<node lat="60.49250832996471" lon="5.145699999853733" id="-73241">
		<tag k="name" v="Kråkenebben" />
		<tag k="natural" v="cape" />
		<tag k="ssr:stedsnr" v="773503" />
	</node>
	<node lat="60.48729721828527" lon="5.127927778275144" id="-73242">
		<tag k="name" v="Meiane" />
		<tag k="place" v="locality" />
		<tag k="ssr:stedsnr" v="773507" />
	</node>
	<node lat="60.500713888794856" lon="5.151038896570179" id="-73243">
		<tag k="name" v="Langaneset" />
		<tag k="natural" v="cape" />
		<tag k="ssr:stedsnr" v="773519" />
	</node>
	<node lat="60.51750000337274" lon="5.005311108000687" id="-73244">
		<tag k="name" v="Klubbevika" />
		<tag k="natural" v="bay" />
		<tag k="ssr:stedsnr" v="773571" />
	</node>
	<node lat="60.5183277774815" lon="5.032138885420664" id="-73245">
		<tag k="name" v="Juvikneset" />
		<tag k="natural" v="cape" />
		<tag k="ssr:stedsnr" v="773573" />
	</node>
	<node lat="60.52845277721269" lon="5.007813886578685" id="-73246">
		<tag k="name" v="Lyngneset" />
		<tag k="natural" v="cape" />
		<tag k="ssr:stedsnr" v="773580" />
	</node>
	<node lat="60.4526888854066" lon="5.150374993933891" id="-73247">
		<tag k="name" v="Kråkhaugen" />
		<tag k="natural" v="hill" />
		<tag k="place" v="locality" />
		<tag k="ssr:stedsnr" v="773604" />
	</node>
	<node lat="60.53920278157984" lon="5.023811108193011" id="-73248">
		<tag k="name" v="Nordre Abbedissen" />
		<tag k="place" v="farm" />
		<tag k="ssr:stedsnr" v="773907" />
	</node>
	<node lat="60.52449722308288" lon="5.043363889712145" id="-73249">
		<tag k="name" v="Nesskarvika" />
		<tag k="natural" v="bay" />
		<tag k="ssr:stedsnr" v="773924" />
	</node>
	<node lat="60.39683055946826" lon="5.165800007941717" id="-73251">
		<tag k="name" v="Brakedalen" />
		<tag k="natural" v="valley" />
		<tag k="place" v="locality" />
		<tag k="ssr:stedsnr" v="773860" />
	</node>
	<node lat="60.392416662544264" lon="5.166049995026421" id="-73252">
		<tag k="name" v="Ølkona" />
		<tag k="natural" v="cape" />
		<tag k="ssr:stedsnr" v="773866" />
	</node>
	<node lat="60.42436389293276" lon="5.158805563094656" id="-73256">
		<tag k="name" v="Hustrevika" />
		<tag k="natural" v="bay" />
		<tag k="ssr:stedsnr" v="773878" />
	</node>
	<node lat="60.467322223448484" lon="5.157491672794477" id="-73259">
		<tag k="fixme" v="consider natural=peak for the most distinct mountains in the district" />
		<tag k="name" v="Brannfjellet" />
		<tag k="natural" v="hill" />
		<tag k="place" v="locality" />
		<tag k="ssr:stedsnr" v="774711" />
	</node>
	<node lat="60.460691670851936" lon="5.164244436495733" id="-73261">
		<tag k="name" v="Kolbeinsmyra" />
		<tag k="natural" v="wetland" />
		<tag k="ssr:stedsnr" v="774720" />
	</node>
	<node lat="60.47380277591967" lon="5.194152785732604" id="-73262">
		<tag k="name" v="Svartedalen" />
		<tag k="natural" v="valley" />
		<tag k="place" v="locality" />
		<tag k="ssr:stedsnr" v="774725" />
	</node>
	<node lat="60.44549167007098" lon="5.20049444914969" id="-73269">
		<tag k="name" v="Steinrusta" />
		<tag k="natural" v="ridge" />
		<tag k="place" v="locality" />
		<tag k="ssr:stedsnr" v="794481" />
	</node>
	<node lat="60.42002499947218" lon="5.122241668057864" id="-73270">
		<tag k="alt_name" v="Skorpa" />
		<tag k="name" v="Skorpo" />
		<tag k="place" v="island" />
		<tag k="ssr:stedsnr" v="794608" />
	</node>
	<node lat="60.420975003859205" lon="5.238486104461275" id="-73271">
		<tag k="name" v="Florvåg" />
		<tag k="place" v="village" />
		<tag k="ssr:stedsnr" v="794619" />
	</node>
	<node lat="60.49244999993411" lon="5.1978749929402355" id="-73272">
		<tag k="name" v="Byneset" />
		<tag k="natural" v="cape" />
		<tag k="ssr:stedsnr" v="794371" />
	</node>
	<node lat="60.46441111457787" lon="5.220924992046059" id="-73276">
		<tag k="name" v="Haugane" />
		<tag k="place" v="farm" />
		<tag k="ssr:stedsnr" v="915396" />
	</node>
	<node lat="60.46231388518511" lon="5.197761108092618" id="-73277">
		<tag k="name" v="Vangen" />
		<tag k="place" v="farm" />
		<tag k="ssr:stedsnr" v="915397" />
	</node>
	<node lat="60.465094448542196" lon="5.077680552004598" id="-73280">
		<tag k="alt_name" v="Breidvik" />
		<tag k="fixme" v="consider place=suburb, village or hamlet" />
		<tag k="name" v="Breivik" />
		<tag k="place" v="quarter" />
		<tag k="ssr:stedsnr" v="915134" />
	</node>
	<node lat="60.46619166269572" lon="5.04093333293308" id="-73281">
		<tag k="name" v="Marholmen" />
		<tag k="place" v="islet" />
		<tag k="ssr:stedsnr" v="915228" />
	</node>
	<node lat="60.453758331901405" lon="5.2406361083482285" id="-73283">
		<tag k="name" v="Straumsnesholmane" />
		<tag k="place" v="islet" />
		<tag k="ssr:stedsnr" v="915528" />
	</node>
	<node lat="60.44518611327368" lon="5.057338889845946" id="-73284">
		<tag k="name" v="Lauvøyflua" />
		<tag k="natural" v="shoal" />
		<tag k="place" v="locality" />
		<tag k="ssr:stedsnr" v="916158" />
	</node>
	<node lat="60.4348722255914" lon="5.175730552582654" id="-73285">
		<tag k="name" v="Juvik" />
		<tag k="place" v="farm" />
		<tag k="ssr:stedsnr" v="916621" />
	</node>
	<node lat="60.46968889099903" lon="5.110444444721756" id="-73286">
		<tag k="fixme" v="consider place=hamlet" />
		<tag k="name" v="Davanger" />
		<tag k="place" v="village" />
		<tag k="ssr:stedsnr" v="916455" />
	</node>
	<node lat="60.50205000324496" lon="5.028752784036057" id="-73287">
		<tag k="name" v="Smalneset" />
		<tag k="natural" v="cape" />
		<tag k="ssr:stedsnr" v="917021" />
	</node>
	<node lat="60.551641664413346" lon="4.98585000769941" id="-73289">
		<tag k="name" v="Stigsvika" />
		<tag k="natural" v="bay" />
		<tag k="ssr:stedsnr" v="917693" />
	</node>
	<node lat="60.43775000231511" lon="5.05085555182774" id="-73295">
		<tag k="name" v="Gardkreken" />
		<tag k="place" v="farm" />
		<tag k="ssr:stedsnr" v="835677" />
	</node>
	<node lat="60.472233334241885" lon="5.1916111100546445" id="-73296">
		<tag k="name" v="Koladalen" />
		<tag k="natural" v="valley" />
		<tag k="place" v="locality" />
		<tag k="ssr:stedsnr" v="835726" />
	</node>
	<node lat="60.46586110869958" lon="5.11219722323097" id="-73297">
		<tag k="name" v="Hola" />
		<tag k="natural" v="bay" />
		<tag k="ssr:stedsnr" v="835737" />
	</node>
	<node lat="60.48845000346655" lon="5.211602775625439" id="-73299">
		<tag k="alt_name" v="Kyrkjevik" />
		<tag k="name" v="Kyrkjevika" />
		<tag k="natural" v="bay" />
		<tag k="ssr:stedsnr" v="855392" />
	</node>
	<node lat="60.45155000299928" lon="5.2121777724329545" id="-73300">
		<tag k="name" v="Solheim" />
		<tag k="place" v="farm" />
		<tag k="ssr:stedsnr" v="855543" />
	</node>
	<node lat="60.46374999879172" lon="5.230869446425578" id="-73302">
		<tag k="name" v="Nyland" />
		<tag k="place" v="farm" />
		<tag k="ssr:stedsnr" v="855409" />
	</node>
	<node lat="60.43910555529418" lon="5.173644444664246" id="-73303">
		<tag k="name" v="Kråvik" />
		<tag k="place" v="farm" />
		<tag k="ssr:stedsnr" v="855502" />
	</node>
	<node lat="60.44263889005359" lon="5.227091659643141" id="-73307">
		<tag k="fixme" v="consider place=hamlet" />
		<tag k="name" v="Erdal" />
		<tag k="place" v="village" />
		<tag k="ssr:stedsnr" v="881928" />
	</node>
	<node lat="60.533121481348914" lon="4.998516192644745" id="-73309">
		<tag k="name" v="Skråmestøvatnet" />
		<tag k="natural" v="water" />
		<tag k="ssr:stedsnr" v="894319" />
		<tag k="water" v="lake" />
	</node>
	<node lat="60.532322219600125" lon="5.041663898205009" id="-73311">
		<tag k="name" v="Nordre Berlandsholmen" />
		<tag k="place" v="islet" />
		<tag k="ssr:stedsnr" v="894325" />
	</node>
	<node lat="60.52251490311855" lon="5.021170737512422" id="-73312">
		<tag k="name" v="Stemmevatnet" />
		<tag k="natural" v="water" />
		<tag k="ssr:stedsnr" v="894327" />
		<tag k="water" v="lake" />
	</node>
	<node lat="60.50720897710455" lon="5.043928106565283" id="-73313">
		<tag k="name" v="Kaldtjørna" />
		<tag k="natural" v="water" />
		<tag k="ssr:stedsnr" v="894329" />
	</node>
	<node lat="60.41601110790206" lon="5.214283341688611" id="-73314">
		<tag k="name" v="Austrheim" />
		<tag k="place" v="farm" />
		<tag k="ssr:stedsnr" v="894417" />
	</node>
	<node lat="60.40599444669204" lon="5.225666673526363" id="-73315">
		<tag k="name" v="Kleppestøsundet" />
		<tag k="natural" v="strait" />
		<tag k="ssr:stedsnr" v="894921" />
	</node>
	<node lat="60.42162221893678" lon="5.245091663682652" id="-73316">
		<tag k="name" v="Storhaugen" />
		<tag k="natural" v="hill" />
		<tag k="place" v="locality" />
		<tag k="ssr:stedsnr" v="895368" />
	</node>
	<node lat="60.464705554942704" lon="5.072602770638813" id="-73317">
		<tag k="name" v="Klubben" />
		<tag k="natural" v="cape" />
		<tag k="ssr:stedsnr" v="895374" />
	</node>
	<node lat="60.499816669633425" lon="5.151280551126559" id="-73318">
		<tag k="name" v="Monsestøa" />
		<tag k="natural" v="bay" />
		<tag k="ssr:stedsnr" v="895514" />
	</node>
	<node lat="60.494508332594194" lon="5.121900007855703" id="-73319">
		<tag k="name" v="Vigrebrotet" />
		<tag k="natural" v="hill" />
		<tag k="place" v="locality" />
		<tag k="ssr:stedsnr" v="895516" />
	</node>
	<node lat="60.5239833354" lon="5.0403944427774245" id="-73320">
		<tag k="name" v="Krabbeneset" />
		<tag k="natural" v="cape" />
		<tag k="ssr:stedsnr" v="895557" />
	</node>
	<node lat="60.48173055959175" lon="5.093219438150997" id="-73321">
		<tag k="name" v="Nilshaugane" />
		<tag k="natural" v="hill" />
		<tag k="place" v="locality" />
		<tag k="ssr:stedsnr" v="896756" />
	</node>
	<node lat="60.476058337551734" lon="5.109899995383233" id="-73322">
		<tag k="name" v="Kalvedalen" />
		<tag k="natural" v="valley" />
		<tag k="place" v="locality" />
		<tag k="ssr:stedsnr" v="896767" />
	</node>
	<node lat="60.48477777733296" lon="5.216425001155212" id="-73325">
		<tag k="name" v="Oldervik" />
		<tag k="place" v="farm" />
		<tag k="ssr:stedsnr" v="916406" />
	</node>
	<node lat="60.500275002190214" lon="5.051333340409362" id="-73327">
		<tag k="alt_name" v="Eikvåg" />
		<tag k="name" v="Eikevågen" />
		<tag k="place" v="farm" />
		<tag k="ssr:stedsnr" v="917627" />
	</node>
	<node lat="60.40136388602609" lon="5.126086107913555" id="-73328">
		<tag k="name" v="Færøyfluene" />
		<tag k="natural" v="shoal" />
		<tag k="place" v="locality" />
		<tag k="ssr:stedsnr" v="935831" />
	</node>
	<node lat="60.4105999976598" lon="5.114208340378699" id="-73329">
		<tag k="name" v="Bukkholmflua" />
		<tag k="natural" v="shoal" />
		<tag k="place" v="locality" />
		<tag k="ssr:stedsnr" v="936886" />
	</node>
	<node lat="60.46243333010248" lon="5.056488897673039" id="-73330">
		<tag k="name" v="Børøygavlsvika" />
		<tag k="natural" v="bay" />
		<tag k="ssr:stedsnr" v="228747" />
	</node>
	<node lat="60.4742763898425" lon="5.088128008333551" id="-73331">
		<tag k="name" v="Svartevatnet" />
		<tag k="natural" v="water" />
		<tag k="ssr:stedsnr" v="228756" />
		<tag k="water" v="lake" />
	</node>
	<node lat="60.47417499989562" lon="5.049749997461863" id="-73333">
		<tag k="fixme" v="consider seamark:type=rock or natural=shoal" />
		<tag k="name" v="Langeskjeret" />
		<tag k="place" v="islet" />
		<tag k="ssr:stedsnr" v="228760" />
	</node>
	<node lat="60.417716664703754" lon="5.241886116667897" id="-73335">
		<tag k="name" v="Moteidet" />
		<tag k="natural" v="bay" />
		<tag k="ssr:stedsnr" v="955254" />
	</node>
	<node lat="60.4112194406181" lon="5.201522225274792" id="-73336">
		<tag k="name" v="Dyrdalen" />
		<tag k="natural" v="valley" />
		<tag k="place" v="locality" />
		<tag k="ssr:stedsnr" v="955255" />
	</node>
	<node lat="60.449216669985354" lon="5.149108332390154" id="-73338">
		<tag k="name" v="Båtstøa" />
		<tag k="natural" v="bay" />
		<tag k="ssr:stedsnr" v="955354" />
	</node>
	<node lat="60.48264722207965" lon="5.143355558090286" id="-73339">
		<tag k="name" v="Hauglandsdalen" />
		<tag k="natural" v="valley" />
		<tag k="place" v="locality" />
		<tag k="ssr:stedsnr" v="955513" />
	</node>
	<node lat="60.50252499893511" lon="5.150969452947365" id="-73340">
		<tag k="name" v="Brenna" />
		<tag k="natural" v="cape" />
		<tag k="ssr:stedsnr" v="955543" />
	</node>
	<node lat="60.483483334302385" lon="5.087494448677708" id="-73343">
		<tag k="name" v="Lindholmen" />
		<tag k="place" v="islet" />
		<tag k="ssr:stedsnr" v="955294" />
	</node>
	<node lat="60.554202775713065" lon="4.981825006404127" id="-73345">
		<tag k="name" v="Såpevikneset" />
		<tag k="natural" v="cape" />
		<tag k="ssr:stedsnr" v="955619" />
	</node>
	<node lat="60.460734603929076" lon="5.109217213690517" id="-73349">
		<tag k="name" v="Kalsitjørna" />
		<tag k="natural" v="water" />
		<tag k="ssr:stedsnr" v="955946" />
	</node>
	<node lat="60.46039166395941" lon="5.23529166675671" id="-73352">
		<tag k="name" v="Nordavindsholet" />
		<tag k="natural" v="bay" />
		<tag k="ssr:stedsnr" v="956712" />
	</node>
	<node lat="60.455061106736785" lon="5.096772215799312" id="-73353">
		<tag k="name" v="Søre Steinseidet" />
		<tag k="place" v="locality" />
		<tag k="ssr:stedsnr" v="956719" />
	</node>
	<node lat="60.437294446202074" lon="5.056027776590432" id="-73354">
		<tag k="name" v="Molohopen" />
		<tag k="natural" v="bay" />
		<tag k="ssr:stedsnr" v="956688" />
	</node>
	<node lat="60.42357777669523" lon="5.193175008811364" id="-73356">
		<tag k="name" v="Vestgarden" />
		<tag k="place" v="farm" />
		<tag k="ssr:stedsnr" v="956692" />
	</node>
	<node lat="60.46507221220709" lon="5.06088515084995" id="-73357">
		<tag k="name" v="Børøypollen" />
		<tag k="natural" v="bay" />
		<tag k="ssr:stedsnr" v="956737" />
	</node>
	<node lat="60.481061107718006" lon="5.076544443135243" id="-73358">
		<tag k="name" v="Søre Skotnesvika" />
		<tag k="natural" v="bay" />
		<tag k="ssr:stedsnr" v="956738" />
	</node>
	<node lat="60.423455557341896" lon="5.243169452154121" id="-73359">
		<tag k="bridge" v="yes" />
		<tag k="layer" v="1" />
		<tag k="name" v="Drageidet" />
		<tag k="ssr:stedsnr" v="957208" />
	</node>
	<node lat="60.405638979009396" lon="5.194677592187771" id="-73368">
		<tag k="fixme" v="consider place=hamlet" />
		<tag k="name" v="Strusshamn" />
		<tag k="place" v="farm" />
		<tag k="ssr:stedsnr" v="989741" />
	</node>
	<node lat="60.40371589185157" lon="5.18777924608087" id="-73369">
		<tag k="fixme" v="consider place=hamlet" />
		<tag k="name" v="Neset" />
		<tag k="place" v="farm" />
		<tag k="ssr:stedsnr" v="989743" />
	</node>
	<node lat="60.41176772843683" lon="5.163185596591801" id="-73370">
		<tag k="fixme" v="consider place=hamlet" />
		<tag k="name" v="Follese" />
		<tag k="place" v="farm" />
		<tag k="ssr:stedsnr" v="989744" />
	</node>
	<node lat="60.42908098823958" lon="5.153305137924999" id="-73371">
		<tag k="fixme" v="consider place=hamlet" />
		<tag k="name" v="Hetlevik" />
		<tag k="place" v="farm" />
		<tag k="ssr:stedsnr" v="989745" />
	</node>
	<node lat="60.46057767787364" lon="5.153373467235987" id="-73372">
		<tag k="fixme" v="consider place=hamlet" />
		<tag k="name" v="Ravnanger" />
		<tag k="place" v="farm" />
		<tag k="ssr:stedsnr" v="989747" />
	</node>
	<node lat="60.47179417369088" lon="5.12087618289125" id="-73373">
		<tag k="fixme" v="consider place=hamlet" />
		<tag k="name" v="Davanger" />
		<tag k="place" v="farm" />
		<tag k="ssr:stedsnr" v="989748" />
	</node>
	<node lat="60.50244488295452" lon="5.158396279274598" id="-73374">
		<tag k="fixme" v="consider place=hamlet" />
		<tag k="name" v="Ask" />
		<tag k="place" v="farm" />
		<tag k="ssr:stedsnr" v="989749" />
	</node>
	<node lat="60.51848669085703" lon="5.017191669851765" id="-73375">
		<tag k="alt_name" v="Bakken" />
		<tag k="fixme" v="consider place=hamlet" />
		<tag k="name" v="Fauskangsbakken" />
		<tag k="place" v="farm" />
		<tag k="ssr:stedsnr" v="989750" />
	</node>
	<node lat="60.50858752429462" lon="5.082524544989559" id="-73376">
		<tag k="fixme" v="consider place=hamlet" />
		<tag k="name" v="Trædet" />
		<tag k="place" v="farm" />
		<tag k="ssr:stedsnr" v="989751" />
	</node>
	<node lat="60.43902392208838" lon="5.228019565398706" id="-73377">
		<tag k="amenity" v="place_of_worship" />
		<tag k="denomination" v="lutheran" />
		<tag k="name" v="Erdal kirke" />
		<tag k="religion" v="christian" />
		<tag k="ssr:stedsnr" v="990956" />
	</node>
	<node lat="60.44696110789983" lon="5.07656111742437" id="-73378">
		<tag k="name" v="Hanøyna" />
		<tag k="place" v="island" />
		<tag k="ssr:stedsnr" v="5151" />
	</node>
	<node lat="60.49350413556314" lon="5.1520465536299405" id="-73381">
		<tag k="fixme" v="consider place=hamlet" />
		<tag k="name" v="Hanevik" />
		<tag k="place" v="farm" />
		<tag k="ssr:stedsnr" v="5376" />
	</node>
	<node lat="60.44666944317156" lon="5.133894451101335" id="-73383">
		<tag k="fixme" v="consider place=suburb, village or hamlet" />
		<tag k="name" v="Tveitevåg" />
		<tag k="place" v="quarter" />
		<tag k="ssr:stedsnr" v="5553" />
	</node>
	<node lat="60.43167499986638" lon="5.171591671138089" id="-73384">
		<tag k="name" v="Nipa" />
		<tag k="natural" v="hill" />
		<tag k="place" v="locality" />
		<tag k="ssr:stedsnr" v="5585" />
	</node>
	<node lat="60.42680833259158" lon="5.2395333255952545" id="-73385">
		<tag k="name" v="Bakarvågen" />
		<tag k="place" v="hamlet" />
		<tag k="ssr:stedsnr" v="5593" />
	</node>
	<node lat="60.4210094192768" lon="5.199653462334201" id="-73386">
		<tag k="alt_name" v="Kleppe, nedre" />
		<tag k="fixme" v="consider place=hamlet" />
		<tag k="name" v="Nedre Kleppe" />
		<tag k="place" v="farm" />
		<tag k="ssr:stedsnr" v="5599" />
	</node>
	<node lat="60.469100001240285" lon="5.173755549271223" id="-73387">
		<tag k="fixme" v="multiple name tags, choose one and add the other to alt_name; consider natural=peak for the most distinct mountains in the district" />
		<tag k="name" v="Storåsen;Dronninga" />
		<tag k="natural" v="hill" />
		<tag k="place" v="locality" />
		<tag k="ssr:stedsnr" v="6463" />
	</node>
	<node lat="60.49492985643062" lon="5.133438238068587" id="-73390">
		<tag k="name" v="Lammetovatnet" />
		<tag k="natural" v="water" />
		<tag k="ssr:stedsnr" v="6517" />
	</node>
	<node lat="60.56104177278705" lon="4.964915609946922" id="-73393">
		<tag k="fixme" v="consider place=hamlet" />
		<tag k="name" v="Skansen" />
		<tag k="place" v="farm" />
		<tag k="ssr:stedsnr" v="6697" />
	</node>
	<node lat="60.50339166641923" lon="5.037902779368089" id="-73394">
		<tag k="name" v="Klubben" />
		<tag k="natural" v="cape" />
		<tag k="ssr:stedsnr" v="7043" />
	</node>
	<node lat="60.496594447336435" lon="5.041652774687724" id="-73395">
		<tag k="name" v="Steinfluene" />
		<tag k="natural" v="shoal" />
		<tag k="place" v="locality" />
		<tag k="ssr:stedsnr" v="25496" />
	</node>
	<node lat="60.53457499628065" lon="5.001266658022911" id="-73396">
		<tag k="name" v="Øvra Skråmestø" />
		<tag k="place" v="farm" />
		<tag k="ssr:stedsnr" v="25505" />
	</node>
	<node lat="60.43704999689093" lon="5.126052782068354" id="-73397">
		<tag k="name" v="Tveitevågskolten" />
		<tag k="natural" v="shoal" />
		<tag k="place" v="locality" />
		<tag k="ssr:stedsnr" v="25890" />
	</node>
	<node lat="60.42306111555079" lon="5.19794444711084" id="-73399">
		<tag k="name" v="Hushaugen" />
		<tag k="natural" v="hill" />
		<tag k="place" v="locality" />
		<tag k="ssr:stedsnr" v="44355" />
	</node>
	<node lat="60.44627500232493" lon="5.174841659884653" id="-73400">
		<tag k="name" v="Storhaugen" />
		<tag k="natural" v="hill" />
		<tag k="place" v="locality" />
		<tag k="ssr:stedsnr" v="44357" />
	</node>
	<node lat="60.48158611110274" lon="5.20838610811991" id="-73401">
		<tag k="name" v="Mellomgarden" />
		<tag k="place" v="farm" />
		<tag k="ssr:stedsnr" v="44919" />
	</node>
	<node lat="60.406819447733696" lon="5.20853332864765" id="-73404">
		<tag k="fixme" v="consider natural=peak for the most distinct mountains in the district" />
		<tag k="name" v="Ørnafjellet" />
		<tag k="natural" v="hill" />
		<tag k="place" v="locality" />
		<tag k="ssr:stedsnr" v="45369" />
	</node>
	<node lat="60.55760278059365" lon="4.9671666591138655" id="-73406">
		<tag k="fixme" v="consider natural=peak for the most distinct mountains in the district" />
		<tag k="name" v="Knoltrefjellet" />
		<tag k="natural" v="hill" />
		<tag k="place" v="locality" />
		<tag k="ssr:stedsnr" v="45396" />
	</node>
	<node lat="60.420725000940784" lon="5.22291388903345" id="-73407">
		<tag k="name" v="Nilsagjerdet" />
		<tag k="place" v="farm" />
		<tag k="ssr:stedsnr" v="45248" />
	</node>
	<node lat="60.50568055549604" lon="5.111349996679829" id="-73409">
		<tag k="fixme" v="consider natural=peak for the most distinct mountains in the district" />
		<tag k="name" v="Byrkjeåsen" />
		<tag k="natural" v="hill" />
		<tag k="place" v="locality" />
		<tag k="ssr:stedsnr" v="45537" />
	</node>
	<node lat="60.503692620327556" lon="5.0962399218124315" id="-73410">
		<tag k="name" v="Kjerrgardstjørna" />
		<tag k="natural" v="water" />
		<tag k="ssr:stedsnr" v="45540" />
	</node>
	<node lat="60.51462500087867" lon="5.0142500075804035" id="-73412">
		<tag k="name" v="Bakkaneset" />
		<tag k="natural" v="cape" />
		<tag k="ssr:stedsnr" v="45560" />
	</node>
	<node lat="60.52681388675819" lon="5.0165722217689" id="-73413">
		<tag k="name" v="Vassenden" />
		<tag k="natural" v="bay" />
		<tag k="ssr:stedsnr" v="45568" />
	</node>
	<node lat="60.48796666592945" lon="5.1497000071524655" id="-73414">
		<tag k="name" v="Silkesåtedalen" />
		<tag k="natural" v="valley" />
		<tag k="place" v="locality" />
		<tag k="ssr:stedsnr" v="45515" />
	</node>
	<node lat="60.4941444481356" lon="5.159188881249281" id="-73416">
		<tag k="name" v="Nedre Midtskaret" />
		<tag k="natural" v="valley" />
		<tag k="place" v="locality" />
		<tag k="ssr:stedsnr" v="45519" />
	</node>
	<node lat="60.46441111418931" lon="5.21205277713884" id="-73418">
		<tag k="name" v="Kuneset" />
		<tag k="natural" v="cape" />
		<tag k="ssr:stedsnr" v="46718" />
	</node>
	<node lat="60.46259999906384" lon="5.1029305465647585" id="-73419">
		<tag k="name" v="Svartegyta" />
		<tag k="natural" v="bay" />
		<tag k="ssr:stedsnr" v="46740" />
	</node>
	<node lat="60.4838138881211" lon="5.111111118591328" id="-73420">
		<tag k="name" v="Fugledalen" />
		<tag k="natural" v="valley" />
		<tag k="place" v="locality" />
		<tag k="ssr:stedsnr" v="46750" />
	</node>
	<node lat="60.485694447959865" lon="5.111766657586315" id="-73421">
		<tag k="name" v="Brendaholet" />
		<tag k="natural" v="valley" />
		<tag k="place" v="locality" />
		<tag k="ssr:stedsnr" v="46751" />
	</node>
	<node lat="60.49372500021512" lon="5.191875000775106" id="-73424">
		<tag k="alt_name" v="Breidvik" />
		<tag k="name" v="Breivik" />
		<tag k="place" v="farm" />
		<tag k="ssr:stedsnr" v="66376" />
	</node>
	<node lat="60.49621972987217" lon="5.1378496031698" id="-73426">
		<tag k="fixme" v="consider place=hamlet" />
		<tag k="name" v="Stien" />
		<tag k="place" v="farm" />
		<tag k="ssr:stedsnr" v="66443" />
	</node>
	<node lat="60.41159722612732" lon="5.202583332073967" id="-73427">
		<tag k="name" v="Dyrdal" />
		<tag k="place" v="farm" />
		<tag k="ssr:stedsnr" v="66547" />
	</node>
	<node lat="60.4319249997667" lon="5.222430547388401" id="-73428">
		<tag k="name" v="Austdalen" />
		<tag k="natural" v="valley" />
		<tag k="place" v="locality" />
		<tag k="ssr:stedsnr" v="66583" />
	</node>
	<node lat="60.45504999800387" lon="5.1500916746761005" id="-73429">
		<tag k="name" v="Breidablikk" />
		<tag k="place" v="farm" />
		<tag k="ssr:stedsnr" v="66517" />
	</node>
	<node lat="60.441866667280394" lon="5.140450001709156" id="-73430">
		<tag k="name" v="Holsund" />
		<tag k="place" v="isolated_dwelling" />
		<tag k="ssr:stedsnr" v="66539" />
	</node>
	<node lat="60.60388611180718" lon="4.946855550635247" id="-73431">
		<tag k="name" v="Sundet" />
		<tag k="natural" v="strait" />
		<tag k="ssr:stedsnr" v="67950" />
	</node>
	<node lat="60.50866110888118" lon="5.078263880804201" id="-73434">
		<tag k="name" v="Eidet" />
		<tag k="place" v="locality" />
		<tag k="ssr:stedsnr" v="85389" />
	</node>
	<node lat="60.45109167079823" lon="5.237072224993047" id="-73435">
		<tag k="name" v="Blindingen" />
		<tag k="natural" v="shoal" />
		<tag k="place" v="locality" />
		<tag k="ssr:stedsnr" v="86511" />
	</node>
	<node lat="60.47899930478229" lon="5.113947888600232" id="-73439">
		<tag k="name" v="Søre Fagerbakktjørna" />
		<tag k="natural" v="water" />
		<tag k="ssr:stedsnr" v="105345" />
	</node>
	<node lat="60.48441388602616" lon="5.1211527713971146" id="-73440">
		<tag k="fixme" v="consider natural=peak for the most distinct mountains in the district" />
		<tag k="name" v="Nordre Meåsen" />
		<tag k="natural" v="hill" />
		<tag k="place" v="locality" />
		<tag k="ssr:stedsnr" v="105347" />
	</node>
	<node lat="60.44870555440709" lon="5.091580563513368" id="-73441">
		<tag k="name" v="Nyheim" />
		<tag k="place" v="farm" />
		<tag k="ssr:stedsnr" v="105351" />
	</node>
	<node lat="60.409688884752526" lon="5.14931666142228" id="-73443">
		<tag k="name" v="Høyneset" />
		<tag k="natural" v="cape" />
		<tag k="ssr:stedsnr" v="105901" />
	</node>
	<node lat="60.48515278124357" lon="5.045188891739009" id="-73444">
		<tag k="name" v="Ertenbogen" />
		<tag k="natural" v="bay" />
		<tag k="ssr:stedsnr" v="105956" />
	</node>
	<node lat="60.47916388867249" lon="5.12103055621475" id="-73445">
		<tag k="fixme" v="consider natural=peak for the most distinct mountains in the district" />
		<tag k="name" v="Nordre Djupedalsfjellet" />
		<tag k="natural" v="hill" />
		<tag k="place" v="locality" />
		<tag k="ssr:stedsnr" v="105959" />
	</node>
	<node lat="60.46439166388772" lon="5.045236109073634" id="-73446">
		<tag k="name" v="Prestholmen" />
		<tag k="place" v="islet" />
		<tag k="ssr:stedsnr" v="106690" />
	</node>
	<node lat="60.500263928024104" lon="5.068677852398486" id="-73447">
		<tag k="name" v="Skutlevika" />
		<tag k="natural" v="bay" />
		<tag k="ssr:stedsnr" v="106533" />
	</node>
	<node lat="60.50284444293706" lon="5.120313880812192" id="-73448">
		<tag k="name" v="Vassenden" />
		<tag k="natural" v="bay" />
		<tag k="ssr:stedsnr" v="106538" />
	</node>
	<node lat="60.508819176549586" lon="5.0771023992004505" id="-73451">
		<tag k="name" v="Eidet" />
		<tag k="place" v="farm" />
		<tag k="ssr:stedsnr" v="106544" />
	</node>
	<node lat="60.51424444499731" lon="5.074233341609248" id="-73452">
		<tag k="name" v="Brandane" />
		<tag k="natural" v="hill" />
		<tag k="place" v="locality" />
		<tag k="ssr:stedsnr" v="106552" />
	</node>
	<node lat="60.43955555256652" lon="5.0874388943546665" id="-73453">
		<tag k="name" v="Djupeskarsundet" />
		<tag k="natural" v="strait" />
		<tag k="ssr:stedsnr" v="106660" />
	</node>
	<node lat="60.47735000245105" lon="5.173819449952442" id="-73455">
		<tag k="name" v="Eidet" />
		<tag k="place" v="farm" />
		<tag k="ssr:stedsnr" v="106748" />
	</node>
	<node lat="60.47599166856358" lon="5.149108342180737" id="-73456">
		<tag k="name" v="Merkesdalen" />
		<tag k="natural" v="valley" />
		<tag k="place" v="locality" />
		<tag k="ssr:stedsnr" v="106754" />
	</node>
	<node lat="60.47649722140688" lon="5.189044438464806" id="-73459">
		<tag k="fixme" v="consider natural=peak for the most distinct mountains in the district" />
		<tag k="name" v="Ramnefjellet" />
		<tag k="natural" v="hill" />
		<tag k="place" v="locality" />
		<tag k="ssr:stedsnr" v="106762" />
	</node>
	<node lat="60.44727777451566" lon="5.103399992697274" id="-73460">
		<tag k="bridge" v="yes" />
		<tag k="layer" v="1" />
		<tag k="name" v="Marholm" />
		<tag k="ssr:stedsnr" v="108217" />
	</node>
	<node lat="60.49030511524898" lon="5.1703999666306135" id="-73461">
		<tag k="name" v="Askevatnet" />
		<tag k="natural" v="water" />
		<tag k="ssr:stedsnr" v="126386" />
		<tag k="water" v="lake" />
	</node>
	<node lat="60.442744444681175" lon="5.119002778958268" id="-73463">
		<tag k="name" v="Tussholmen" />
		<tag k="place" v="islet" />
		<tag k="ssr:stedsnr" v="126556" />
	</node>
	<node lat="60.39990109263715" lon="5.211119418915306" id="-73465">
		<tag k="name" v="Storeklubben" />
		<tag k="natural" v="cape" />
		<tag k="ssr:stedsnr" v="126584" />
	</node>
	<node lat="60.56823888890856" lon="4.950533329563047" id="-73466">
		<tag k="alt_name" v="Herdla kirke" />
		<tag k="amenity" v="place_of_worship" />
		<tag k="denomination" v="lutheran" />
		<tag k="name" v="Herdla kyrkje" />
		<tag k="religion" v="christian" />
		<tag k="ssr:stedsnr" v="127725" />
	</node>
	<node lat="60.51462125216645" lon="5.029311162222143" id="-73469">
		<tag k="name" v="Fauskanger" />
		<tag k="place" v="hamlet" />
		<tag k="ssr:stedsnr" v="128635" />
	</node>
	<node lat="60.45153333278711" lon="5.073697221164081" id="-73470">
		<tag k="name" v="Hanøyklubben" />
		<tag k="natural" v="cape" />
		<tag k="ssr:stedsnr" v="146888" />
	</node>
	<node lat="60.418555554883454" lon="5.211986119053477" id="-73474">
		<tag k="name" v="Kleiva" />
		<tag k="natural" v="slope" />
		<tag k="place" v="locality" />
		<tag k="ssr:stedsnr" v="166263" />
	</node>
	<node lat="60.54358055742163" lon="4.982525007707498" id="-73475">
		<tag k="name" v="Merkesvik" />
		<tag k="place" v="farm" />
		<tag k="ssr:stedsnr" v="166278" />
	</node>
	<node lat="60.50020626322766" lon="5.084264850450869" id="-73476">
		<tag k="name" v="Kjerrgardsvika" />
		<tag k="natural" v="bay" />
		<tag k="ssr:stedsnr" v="166298" />
	</node>
	<node lat="60.515477781128446" lon="5.087069452023207" id="-73477">
		<tag k="name" v="Brennevika" />
		<tag k="natural" v="bay" />
		<tag k="ssr:stedsnr" v="166301" />
	</node>
	<node lat="60.417836108987075" lon="5.224602777446073" id="-73478">
		<tag k="name" v="Bergheim" />
		<tag k="place" v="farm" />
		<tag k="ssr:stedsnr" v="166369" />
	</node>
	<node lat="60.4156861133276" lon="5.248977773888033" id="-73480">
		<tag k="name" v="Florvågøyna" />
		<tag k="place" v="island" />
		<tag k="ssr:stedsnr" v="166399" />
	</node>
	<node lat="60.43794444869644" lon="5.047944452465007" id="-73481">
		<tag k="fixme" v="consider natural=peak for the most distinct mountains in the district" />
		<tag k="name" v="Ramsøyfjellet" />
		<tag k="natural" v="hill" />
		<tag k="place" v="locality" />
		<tag k="ssr:stedsnr" v="166336" />
	</node>
	<node lat="60.5286166691731" lon="5.011780547474266" id="-73484">
		<tag k="name" v="Skitnedalen" />
		<tag k="natural" v="valley" />
		<tag k="place" v="locality" />
		<tag k="ssr:stedsnr" v="166587" />
	</node>
	<node lat="60.545424999406855" lon="4.986308326349927" id="-73485">
		<tag k="name" v="Revadalen" />
		<tag k="natural" v="valley" />
		<tag k="place" v="locality" />
		<tag k="ssr:stedsnr" v="166591" />
	</node>
	<node lat="60.564016664221725" lon="4.963194449507956" id="-73486">
		<tag k="name" v="Ellingsneset" />
		<tag k="natural" v="cape" />
		<tag k="ssr:stedsnr" v="166596" />
	</node>
	<node lat="60.515344447679354" lon="5.121319441412774" id="-73490">
		<tag k="name" v="Holmevika" />
		<tag k="natural" v="bay" />
		<tag k="ssr:stedsnr" v="166546" />
	</node>
	<node lat="60.50815519733937" lon="5.117099312062598" id="-73491">
		<tag k="name" v="Vassneset" />
		<tag k="natural" v="cape" />
		<tag k="ssr:stedsnr" v="166552" />
	</node>
	<node lat="60.405494443137755" lon="5.172877784065473" id="-73494">
		<tag k="name" v="Lindhaugen" />
		<tag k="place" v="farm" />
		<tag k="ssr:stedsnr" v="166883" />
	</node>
	<node lat="60.39078611444834" lon="5.179024995131218" id="-73495">
		<tag k="name" v="Brattneset" />
		<tag k="natural" v="cape" />
		<tag k="ssr:stedsnr" v="166888" />
	</node>
	<node lat="60.55605555893649" lon="4.973397220748618" id="-73497">
		<tag k="fixme" v="consider natural=peak for the most distinct mountains in the district" />
		<tag k="name" v="Marifjellet" />
		<tag k="natural" v="hill" />
		<tag k="place" v="locality" />
		<tag k="ssr:stedsnr" v="166936" />
	</node>
	<node lat="60.49459444634863" lon="5.060361113977294" id="-73498">
		<tag k="name" v="Lisstraumholmen" />
		<tag k="place" v="islet" />
		<tag k="ssr:stedsnr" v="166940" />
	</node>
	<node lat="60.473936108070106" lon="5.097852781042394" id="-73500">
		<tag k="fixme" v="consider natural=peak for the most distinct mountains in the district" />
		<tag k="name" v="Kvernhusfjellet" />
		<tag k="natural" v="hill" />
		<tag k="place" v="locality" />
		<tag k="ssr:stedsnr" v="166954" />
	</node>
	<node lat="60.464355554293064" lon="5.090027777400887" id="-73502">
		<tag k="name" v="Kinna" />
		<tag k="place" v="locality" />
		<tag k="ssr:stedsnr" v="167733" />
	</node>
	<node lat="60.46328611538007" lon="5.084769439699273" id="-73503">
		<tag k="name" v="Breivikneset" />
		<tag k="natural" v="cape" />
		<tag k="ssr:stedsnr" v="167735" />
	</node>
	<node lat="60.482655552609934" lon="5.073677777816884" id="-73504">
		<tag k="name" v="Skotnesholmane" />
		<tag k="place" v="islet" />
		<tag k="ssr:stedsnr" v="167740" />
	</node>
	<node lat="60.450502780537384" lon="5.118383337690761" id="-73508">
		<tag k="name" v="Medavågen" />
		<tag k="natural" v="bay" />
		<tag k="ssr:stedsnr" v="167694" />
	</node>
	<node lat="60.50094166922299" lon="5.08293888166396" id="-73509">
		<tag k="bridge" v="yes" />
		<tag k="layer" v="1" />
		<tag k="name" v="Fromreidstraumen" />
		<tag k="ssr:stedsnr" v="168204" />
	</node>
	<node lat="60.44744166557761" lon="5.15981667316577" id="-73510">
		<tag k="bridge" v="yes" />
		<tag k="layer" v="1" />
		<tag k="name" v="Loneelva" />
		<tag k="ssr:stedsnr" v="168213" />
	</node>
	<node lat="60.48818610817098" lon="5.024802774435981" id="-73517">
		<tag k="name" v="Turiholmen" />
		<tag k="place" v="islet" />
		<tag k="ssr:stedsnr" v="187223" />
	</node>
	<node lat="60.43924046603138" lon="5.2276379302400136" id="-73518">
		<tag k="alt_name" v="Søre Erdal" />
		<tag k="name" v="Sørerdal" />
		<tag k="place" v="hamlet" />
		<tag k="ssr:stedsnr" v="187496" />
	</node>
	<node lat="60.44608888564337" lon="5.155433338360599" id="-73521">
		<tag k="fixme" v="consider place=hamlet" />
		<tag k="name" v="Hauglandshella" />
		<tag k="place" v="village" />
		<tag k="ssr:stedsnr" v="187523" />
	</node>
	<node lat="60.40993055651375" lon="5.173149995108202" id="-73522">
		<tag k="fixme" v="consider natural=peak for the most distinct mountains in the district" />
		<tag k="name" v="Folleseåsen" />
		<tag k="natural" v="hill" />
		<tag k="place" v="locality" />
		<tag k="ssr:stedsnr" v="187535" />
	</node>
	<node lat="60.41072499883608" lon="5.208952783417387" id="-73523">
		<tag k="fixme" v="consider natural=peak for the most distinct mountains in the district" />
		<tag k="name" v="Dyrdalsfjellet" />
		<tag k="natural" v="hill" />
		<tag k="place" v="locality" />
		<tag k="ssr:stedsnr" v="187539" />
	</node>
	<node lat="60.434716667042025" lon="5.178113890821425" id="-73529">
		<tag k="fixme" v="consider place=suburb, village or hamlet" />
		<tag k="name" v="Juvik" />
		<tag k="place" v="quarter" />
		<tag k="ssr:stedsnr" v="206731" />
	</node>
	<node lat="60.49966389035648" lon="5.104686102005488" id="-73532">
		<tag k="fixme" v="consider natural=peak for the most distinct mountains in the district" />
		<tag k="name" v="Kjerrgardsåsen" />
		<tag k="natural" v="hill" />
		<tag k="place" v="locality" />
		<tag k="ssr:stedsnr" v="207648" />
	</node>
	<node lat="60.56535555519086" lon="4.957133334241273" id="-73533">
		<tag k="name" v="Lund" />
		<tag k="place" v="farm" />
		<tag k="ssr:stedsnr" v="207959" />
	</node>
	<node lat="60.4127197012699" lon="5.231835859798392" id="-73535">
		<tag k="alt_name" v="Florvåg" />
		<tag k="layer" v="-1" />
		<tag k="name" v="Florvågtunnelen" />
		<tag k="ssr:stedsnr" v="226455" />
		<tag k="tunnel" v="yes" />
	</node>
	<node lat="60.49487777344212" lon="5.108061103217218" id="-73536">
		<tag k="name" v="Oldrane" />
		<tag k="place" v="locality" />
		<tag k="ssr:stedsnr" v="227741" />
	</node>
	<node lat="60.49356196209649" lon="5.111835840373242" id="-73537">
		<tag k="name" v="Stordiket" />
		<tag k="natural" v="water" />
		<tag k="ssr:stedsnr" v="227743" />
	</node>
	<node lat="60.47898611352443" lon="5.19226943909307" id="-73538">
		<tag k="name" v="Oksebåsen" />
		<tag k="place" v="locality" />
		<tag k="ssr:stedsnr" v="227745" />
	</node>
	<node lat="60.49001256396952" lon="5.099792288459693" id="-73539">
		<tag k="name" v="Futlauptjørna" />
		<tag k="natural" v="water" />
		<tag k="ssr:stedsnr" v="227314" />
	</node>
	<node lat="60.48308539484009" lon="5.1112258784144835" id="-73541">
		<tag k="name" v="Fugledalstjørna" />
		<tag k="natural" v="water" />
		<tag k="ssr:stedsnr" v="227323" />
	</node>
	<node lat="60.414655214229725" lon="5.23203709190702" id="-73542">
		<tag k="name" v="Rotavatnet" />
		<tag k="natural" v="water" />
		<tag k="ssr:stedsnr" v="227259" />
		<tag k="water" v="lake" />
	</node>
	<node lat="60.413052778831094" lon="5.193597217802232" id="-73543">
		<tag k="name" v="Stykket" />
		<tag k="place" v="locality" />
		<tag k="ssr:stedsnr" v="227260" />
	</node>
	<node lat="60.41590212271435" lon="5.239462108158354" id="-73544">
		<tag k="name" v="Storavatnet" />
		<tag k="natural" v="water" />
		<tag k="ssr:stedsnr" v="227268" />
		<tag k="water" v="lake" />
	</node>
	<node lat="60.420124998216046" lon="5.246527777036863" id="-73545">
		<tag k="name" v="Skansen" />
		<tag k="natural" v="hill" />
		<tag k="place" v="locality" />
		<tag k="ssr:stedsnr" v="227270" />
	</node>
	<node lat="60.48480277887888" lon="5.174125006366353" id="-73547">
		<tag k="name" v="Øyaneset" />
		<tag k="natural" v="cape" />
		<tag k="ssr:stedsnr" v="227524" />
	</node>
	<node lat="60.48603888618519" lon="5.135330550488343" id="-73548">
		<tag k="name" v="Kleppedalen" />
		<tag k="natural" v="valley" />
		<tag k="place" v="locality" />
		<tag k="ssr:stedsnr" v="227530" />
	</node>
	<node lat="60.51093055928047" lon="5.030736113969227" id="-73551">
		<tag k="historic" v="shieling" />
		<tag k="name" v="Storstølen" />
		<tag k="place" v="locality" />
		<tag k="ssr:stedsnr" v="227567" />
	</node>
	<node lat="60.514205554403325" lon="5.055647227162769" id="-73552">
		<tag k="name" v="Leirdalshaugane" />
		<tag k="natural" v="hill" />
		<tag k="place" v="locality" />
		<tag k="ssr:stedsnr" v="227568" />
	</node>
	<node lat="60.516613887638684" lon="5.07775000511722" id="-73553">
		<tag k="name" v="Bjørndalsneset" />
		<tag k="natural" v="cape" />
		<tag k="ssr:stedsnr" v="227578" />
	</node>
	<node lat="60.535783336305684" lon="5.025030562128263" id="-73554">
		<tag k="name" v="Abbedissevika" />
		<tag k="natural" v="bay" />
		<tag k="ssr:stedsnr" v="227593" />
	</node>
	<node lat="60.49001666546578" lon="5.094794444454334" id="-73556">
		<tag k="name" v="Futlaupet" />
		<tag k="place" v="locality" />
		<tag k="ssr:stedsnr" v="227713" />
	</node>
	<node lat="60.4922000016112" lon="5.088999995310153" id="-73557">
		<tag k="fixme" v="consider seamark:type=rock or natural=shoal" />
		<tag k="name" v="Kleppsskjera" />
		<tag k="place" v="islet" />
		<tag k="ssr:stedsnr" v="227717" />
	</node>
	<node lat="60.394872220689365" lon="5.177952771155433" id="-73560">
		<tag k="name" v="Holmaskaget" />
		<tag k="natural" v="cape" />
		<tag k="ssr:stedsnr" v="227873" />
	</node>
	<node lat="60.438244136298586" lon="5.06365272617736" id="-73562">
		<tag k="name" v="Austra Hillesvika" />
		<tag k="natural" v="bay" />
		<tag k="ssr:stedsnr" v="227958" />
	</node>
	<node lat="60.53424722587282" lon="5.002780555910667" id="-73563">
		<tag k="name" v="Skråmestøkletten" />
		<tag k="natural" v="hill" />
		<tag k="place" v="locality" />
		<tag k="ssr:stedsnr" v="227924" />
	</node>
	<node lat="60.42481388454374" lon="5.15089443833494" id="-73566">
		<tag k="name" v="Haugen" />
		<tag k="place" v="farm" />
		<tag k="ssr:stedsnr" v="287392" />
	</node>
	<node lat="60.4119096185832" lon="5.230361308733479" id="-73567">
		<tag k="name" v="Vatnavatnet" />
		<tag k="natural" v="water" />
		<tag k="ssr:stedsnr" v="287400" />
		<tag k="water" v="lake" />
	</node>
	<node lat="60.50416944590931" lon="5.15239721545775" id="-73569">
		<tag k="name" v="Tretthola" />
		<tag k="natural" v="bay" />
		<tag k="ssr:stedsnr" v="287358" />
	</node>
	<node lat="60.45466388877752" lon="5.152216671817644" id="-73570">
		<tag k="name" v="Vassdalsmyra" />
		<tag k="natural" v="wetland" />
		<tag k="ssr:stedsnr" v="287365" />
	</node>
	<node lat="60.41203055821132" lon="5.248324993246249" id="-73571">
		<tag k="name" v="Seienesvika" />
		<tag k="natural" v="bay" />
		<tag k="ssr:stedsnr" v="288346" />
	</node>
	<node lat="60.48156944548101" lon="5.18066945251613" id="-73573">
		<tag k="name" v="Paradisholmen" />
		<tag k="place" v="islet" />
		<tag k="ssr:stedsnr" v="288466" />
	</node>
	<node lat="60.482674671066306" lon="5.219321404245202" id="-73574">
		<tag k="name" v="Oldervika" />
		<tag k="natural" v="bay" />
		<tag k="ssr:stedsnr" v="288469" />
	</node>
	<node lat="60.48162222392561" lon="5.145894445556104" id="-73575">
		<tag k="name" v="Rasmusholet" />
		<tag k="natural" v="valley" />
		<tag k="place" v="locality" />
		<tag k="ssr:stedsnr" v="288471" />
	</node>
	<node lat="60.493777777785525" lon="5.115005560942149" id="-73579">
		<tag k="fixme" v="consider natural=peak for the most distinct mountains in the district" />
		<tag k="name" v="Ekornfjellet" />
		<tag k="natural" v="hill" />
		<tag k="place" v="locality" />
		<tag k="ssr:stedsnr" v="287954" />
	</node>
	<node lat="60.49929444665132" lon="5.182102778215193" id="-73580">
		<tag k="name" v="Svartenakken" />
		<tag k="natural" v="cape" />
		<tag k="ssr:stedsnr" v="287956" />
	</node>
	<node lat="60.481424298070515" lon="5.164452145240499" id="-73581">
		<tag k="name" v="Grøndalstjørna" />
		<tag k="natural" v="water" />
		<tag k="ssr:stedsnr" v="287959" />
	</node>
	<node lat="60.40893173046483" lon="5.188028478776079" id="-73583">
		<tag k="name" v="Vestravatnet" />
		<tag k="natural" v="water" />
		<tag k="ssr:stedsnr" v="287913" />
		<tag k="water" v="lake" />
	</node>
	<node lat="60.42175277950476" lon="5.183111117224848" id="-73584">
		<tag k="name" v="Indrebø" />
		<tag k="place" v="farm" />
		<tag k="ssr:stedsnr" v="288231" />
	</node>
	<node lat="60.51382499699879" lon="5.079344438288809" id="-73587">
		<tag k="name" v="Notholmen" />
		<tag k="place" v="islet" />
		<tag k="ssr:stedsnr" v="288522" />
	</node>
	<node lat="60.51300833619618" lon="5.018780549757837" id="-73588">
		<tag k="name" v="Storehaugen" />
		<tag k="natural" v="hill" />
		<tag k="place" v="locality" />
		<tag k="ssr:stedsnr" v="288524" />
	</node>
	<node lat="60.42324722466755" lon="5.223083325000988" id="-73590">
		<tag k="name" v="Skogedalen" />
		<tag k="natural" v="valley" />
		<tag k="place" v="locality" />
		<tag k="ssr:stedsnr" v="288593" />
	</node>
	<node lat="60.5305722226375" lon="5.034669448758237" id="-73594">
		<tag k="name" v="Bukta" />
		<tag k="natural" v="bay" />
		<tag k="ssr:stedsnr" v="288552" />
	</node>
	<node lat="60.53265555199444" lon="5.028955553807472" id="-73595">
		<tag k="name" v="Bøneset" />
		<tag k="natural" v="cape" />
		<tag k="ssr:stedsnr" v="288554" />
	</node>
	<node lat="60.46569722099655" lon="5.160155549392215" id="-73600">
		<tag k="name" v="Spondalen" />
		<tag k="natural" v="valley" />
		<tag k="place" v="locality" />
		<tag k="ssr:stedsnr" v="289722" />
	</node>
	<node lat="60.45817222121192" lon="5.1358833316350365" id="-73601">
		<tag k="fixme" v="consider natural=peak for the most distinct mountains in the district" />
		<tag k="name" v="Sigvarden" />
		<tag k="natural" v="hill" />
		<tag k="place" v="locality" />
		<tag k="ssr:stedsnr" v="289733" />
	</node>
	<node lat="60.4606777751549" lon="5.149205561989975" id="-73602">
		<tag k="name" v="Apalen" />
		<tag k="place" v="farm" />
		<tag k="ssr:stedsnr" v="289734" />
	</node>
	<node lat="60.460422220516946" lon="5.05653611094313" id="-73603">
		<tag k="name" v="Børøygavlen" />
		<tag k="natural" v="cape" />
		<tag k="ssr:stedsnr" v="289739" />
	</node>
	<node lat="60.46326388568523" lon="5.078250001384526" id="-73604">
		<tag k="name" v="Litla Breivika" />
		<tag k="natural" v="bay" />
		<tag k="ssr:stedsnr" v="289762" />
	</node>
	<node lat="60.41138055959779" lon="5.135216658825574" id="-73607">
		<tag k="fixme" v="consider seamark:type=rock or natural=shoal" />
		<tag k="name" v="Guleskjera" />
		<tag k="place" v="islet" />
		<tag k="ssr:stedsnr" v="299901" />
	</node>
	<node lat="60.420891666709636" lon="5.148850005652104" id="-73608">
		<tag k="name" v="Skjønhaug" />
		<tag k="place" v="isolated_dwelling" />
		<tag k="ssr:stedsnr" v="308583" />
	</node>
	<node lat="60.436699996203714" lon="5.1809666713188385" id="-73610">
		<tag k="name" v="Lavik" />
		<tag k="place" v="farm" />
		<tag k="ssr:stedsnr" v="309551" />
	</node>
	<node lat="60.47115198318449" lon="5.220818921725957" id="-73611">
		<tag k="fixme" v="consider place=hamlet" />
		<tag k="name" v="Hop" />
		<tag k="place" v="farm" />
		<tag k="ssr:stedsnr" v="308374" />
	</node>
	<node lat="60.4620251703546" lon="5.186450802388628" id="-73612">
		<tag k="name" v="Fjellvatnet" />
		<tag k="natural" v="water" />
		<tag k="ssr:stedsnr" v="308378" />
	</node>
	<node lat="60.45394274860252" lon="5.115565903845343" id="-73614">
		<tag k="name" v="Bergsvatnet" />
		<tag k="natural" v="water" />
		<tag k="ssr:stedsnr" v="308512" />
	</node>
	<node lat="60.447224806428004" lon="5.099684026495596" id="-73617">
		<tag k="name" v="Hanøytangen" />
		<tag k="natural" v="cape" />
		<tag k="ssr:stedsnr" v="309165" />
	</node>
	<node lat="60.48258333302298" lon="5.103488890944516" id="-73618">
		<tag k="fixme" v="consider natural=peak for the most distinct mountains in the district" />
		<tag k="name" v="Svultåsen" />
		<tag k="natural" v="hill" />
		<tag k="place" v="locality" />
		<tag k="ssr:stedsnr" v="309408" />
	</node>
	<node lat="60.50225000286705" lon="5.147844435375497" id="-73619">
		<tag k="name" v="Hanevika" />
		<tag k="natural" v="bay" />
		<tag k="ssr:stedsnr" v="309525" />
	</node>
	<node lat="60.56644999844932" lon="4.983038897341624" id="-73620">
		<tag k="name" v="Parisholmane" />
		<tag k="place" v="islet" />
		<tag k="ssr:stedsnr" v="310694" />
	</node>
	<node lat="60.54627777401235" lon="4.982352770905019" id="-73621">
		<tag k="alt_name" v="Merkesviki" />
		<tag k="name" v="Merkesvik" />
		<tag k="place" v="village" />
		<tag k="ssr:stedsnr" v="310716" />
	</node>
	<node lat="60.51046696867942" lon="5.0285771292440025" id="-73623">
		<tag k="name" v="Storstølvatnet" />
		<tag k="natural" v="water" />
		<tag k="ssr:stedsnr" v="310668" />
	</node>
	<node lat="60.510905558909236" lon="5.037444452943168" id="-73624">
		<tag k="name" v="Eidet" />
		<tag k="place" v="locality" />
		<tag k="ssr:stedsnr" v="329546" />
	</node>
	<node lat="60.42052499844353" lon="5.2056527700798405" id="-73626">
		<tag k="name" v="Bakkane" />
		<tag k="natural" v="slope" />
		<tag k="place" v="locality" />
		<tag k="ssr:stedsnr" v="348248" />
	</node>
	<node lat="60.48500555331224" lon="5.176558331192937" id="-73628">
		<tag k="name" v="Hanevikholmen" />
		<tag k="place" v="islet" />
		<tag k="ssr:stedsnr" v="348336" />
	</node>
	<node lat="60.469147219177735" lon="5.205730558092539" id="-73631">
		<tag k="name" v="Huldrehaugen" />
		<tag k="natural" v="hill" />
		<tag k="place" v="locality" />
		<tag k="ssr:stedsnr" v="348887" />
	</node>
	<node lat="60.423416662664486" lon="5.176822217657077" id="-73632">
		<tag k="name" v="Myra" />
		<tag k="place" v="farm" />
		<tag k="ssr:stedsnr" v="348900" />
	</node>
	<node lat="60.505374998563916" lon="5.054461105489203" id="-73633">
		<tag k="name" v="Stølhaugen" />
		<tag k="natural" v="hill" />
		<tag k="place" v="locality" />
		<tag k="ssr:stedsnr" v="348283" />
	</node>
	<node lat="60.51058055194064" lon="5.082591665561953" id="-73634">
		<tag k="fixme" v="consider place=hamlet" />
		<tag k="name" v="Nordre Haugland" />
		<tag k="place" v="farm" />
		<tag k="ssr:stedsnr" v="348289" />
	</node>
	<node lat="60.424034974277085" lon="5.234645966050673" id="-73635">
		<tag k="name" v="Nyavatnet" />
		<tag k="natural" v="water" />
		<tag k="ssr:stedsnr" v="348350" />
		<tag k="water" v="lake" />
	</node>
	<node lat="60.48019721929233" lon="5.166213893643947" id="-73636">
		<tag k="name" v="Øyra" />
		<tag k="place" v="locality" />
		<tag k="ssr:stedsnr" v="348487" />
	</node>
	<node lat="60.54148889182581" lon="4.98135556202082" id="-73641">
		<tag k="name" v="Raudberget" />
		<tag k="natural" v="hill" />
		<tag k="place" v="locality" />
		<tag k="ssr:stedsnr" v="348588" />
	</node>
	<node lat="60.57153333515832" lon="4.978225004081304" id="-73642">
		<tag k="name" v="Grunnosen" />
		<tag k="natural" v="strait" />
		<tag k="ssr:stedsnr" v="348589" />
	</node>
	<node lat="60.498088889080904" lon="5.1636666605565" id="-73644">
		<tag k="name" v="Kjøringavika" />
		<tag k="natural" v="bay" />
		<tag k="ssr:stedsnr" v="348519" />
	</node>
	<node lat="60.40751110765708" lon="5.2099305487039" id="-73648">
		<tag k="fixme" v="consider natural=peak for the most distinct mountains in the district" />
		<tag k="name" v="Heiafjellet" />
		<tag k="natural" v="hill" />
		<tag k="place" v="locality" />
		<tag k="ssr:stedsnr" v="348921" />
	</node>
	<node lat="60.469338885719324" lon="5.117083338602555" id="-73650">
		<tag k="name" v="Naustvika" />
		<tag k="natural" v="bay" />
		<tag k="ssr:stedsnr" v="349734" />
	</node>
	<node lat="60.48102500124826" lon="5.113866663412308" id="-73651">
		<tag k="name" v="Aurtodalen" />
		<tag k="natural" v="valley" />
		<tag k="place" v="locality" />
		<tag k="ssr:stedsnr" v="349742" />
	</node>
	<node lat="60.42233333466505" lon="5.244241669261487" id="-73654">
		<tag k="bridge" v="yes" />
		<tag k="layer" v="1" />
		<tag k="name" v="Florvågøy" />
		<tag k="ssr:stedsnr" v="350193" />
	</node>
	<node lat="60.39730000360878" lon="5.1745166688674615" id="-73655">
		<tag k="bridge" v="yes" />
		<tag k="layer" v="1" />
		<tag k="name" v="Marikoven" />
		<tag k="ssr:stedsnr" v="350197" />
	</node>
	<node lat="60.45531666708659" lon="5.230319443401919" id="-73659">
		<tag k="name" v="Olsnes" />
		<tag k="natural" v="cape" />
		<tag k="ssr:stedsnr" v="369493" />
	</node>
	<node lat="60.44617777387233" lon="5.120466658437651" id="-73660">
		<tag k="alt_name" v="Nordre Eid" />
		<tag k="name" v="Eide" />
		<tag k="place" v="isolated_dwelling" />
		<tag k="ssr:stedsnr" v="369497" />
	</node>
	<node lat="60.447238891321504" lon="5.165844439172313" id="-73661">
		<tag k="name" v="Varden" />
		<tag k="natural" v="hill" />
		<tag k="place" v="locality" />
		<tag k="ssr:stedsnr" v="369499" />
	</node>
	<node lat="60.444205558945974" lon="5.1240861050509015" id="-73662">
		<tag k="name" v="Dalen" />
		<tag k="place" v="isolated_dwelling" />
		<tag k="ssr:stedsnr" v="369500" />
	</node>
	<node lat="60.44821111332806" lon="5.081263888214749" id="-73664">
		<tag k="name" v="Botakeila" />
		<tag k="natural" v="bay" />
		<tag k="ssr:stedsnr" v="369144" />
	</node>
	<node lat="60.45109166943188" lon="5.208644442800201" id="-73667">
		<tag k="name" v="Varden" />
		<tag k="place" v="farm" />
		<tag k="ssr:stedsnr" v="369441" />
	</node>
	<node lat="60.44053055587987" lon="5.109933327430106" id="-73668">
		<tag k="alt_name" v="Vardeneset" />
		<tag k="name" v="Vardaneset" />
		<tag k="natural" v="cape" />
		<tag k="ssr:stedsnr" v="369448" />
	</node>
	<node lat="60.42628256110664" lon="5.2071977932073" id="-73669">
		<tag k="name" v="Kleppevatnet" />
		<tag k="natural" v="water" />
		<tag k="ssr:stedsnr" v="369556" />
	</node>
	<node lat="60.41521111429192" lon="5.121469449739025" id="-73670">
		<tag k="name" v="Apalholmen" />
		<tag k="place" v="islet" />
		<tag k="ssr:stedsnr" v="369557" />
	</node>
	<node lat="60.52236111217064" lon="5.095136108251093" id="-73671">
		<tag k="fixme" v="consider place=hamlet" />
		<tag k="name" v="Hegernes" />
		<tag k="place" v="farm" />
		<tag k="ssr:stedsnr" v="370435" />
	</node>
	<node lat="60.463202776619895" lon="5.2269694525623045" id="-73675">
		<tag k="name" v="Holmen" />
		<tag k="place" v="islet" />
		<tag k="ssr:stedsnr" v="388981" />
	</node>
	<node lat="60.449877779466455" lon="5.083069441179478" id="-73677">
		<tag k="name" v="Boti" />
		<tag k="place" v="farm" />
		<tag k="ssr:stedsnr" v="389870" />
	</node>
	<node lat="60.400288669640396" lon="5.211000728103116" id="-73679">
		<tag k="bridge" v="yes" />
		<tag k="layer" v="1" />
		<tag k="name" v="Askøybrua" />
		<tag k="ssr:stedsnr" v="390250" />
	</node>
	<node lat="60.570983335974184" lon="4.947127770610282" id="-73683">
		<tag k="name" v="Djupedalen" />
		<tag k="natural" v="valley" />
		<tag k="place" v="locality" />
		<tag k="ssr:stedsnr" v="409282" />
	</node>
	<node lat="60.53105833134459" lon="5.004236117267401" id="-73684">
		<tag k="name" v="Øyravatnet" />
		<tag k="natural" v="water" />
		<tag k="ssr:stedsnr" v="409283" />
		<tag k="water" v="lake" />
	</node>
	<node lat="60.51023055812766" lon="5.037947224222951" id="-73685">
		<tag k="fixme" v="consider natural=peak for the most distinct mountains in the district" />
		<tag k="name" v="Storfjellet" />
		<tag k="natural" v="hill" />
		<tag k="place" v="locality" />
		<tag k="ssr:stedsnr" v="409562" />
	</node>
	<node lat="60.41934166679567" lon="5.2143249973699906" id="-73686">
		<tag k="historic" v="shieling" />
		<tag k="name" v="Soldal" />
		<tag k="place" v="locality" />
		<tag k="ssr:stedsnr" v="409361" />
	</node>
	<node lat="60.40124166699404" lon="5.200805546572107" id="-73687">
		<tag k="name" v="Bakken" />
		<tag k="natural" v="slope" />
		<tag k="place" v="locality" />
		<tag k="ssr:stedsnr" v="409371" />
	</node>
	<node lat="60.50466944002522" lon="5.1272861043443845" id="-73688">
		<tag k="name" v="Steinstemma" />
		<tag k="place" v="locality" />
		<tag k="ssr:stedsnr" v="409523" />
	</node>
	<node lat="60.50515277894493" lon="5.167877773022815" id="-73689">
		<tag k="name" v="Nordre Signalvika" />
		<tag k="natural" v="bay" />
		<tag k="ssr:stedsnr" v="409526" />
	</node>
	<node lat="60.51644444522508" lon="5.064552786454254" id="-73692">
		<tag k="name" v="Hauglandsdalen" />
		<tag k="natural" v="valley" />
		<tag k="place" v="locality" />
		<tag k="ssr:stedsnr" v="409575" />
	</node>
	<node lat="60.52526388581565" lon="5.061480560436224" id="-73693">
		<tag k="historic" v="shieling" />
		<tag k="name" v="Sjorstølen" />
		<tag k="place" v="locality" />
		<tag k="ssr:stedsnr" v="409576" />
	</node>
	<node lat="60.52592777527949" lon="5.006547230404256" id="-73694">
		<tag k="fixme" v="consider natural=peak for the most distinct mountains in the district" />
		<tag k="name" v="Bekkefjellet" />
		<tag k="natural" v="hill" />
		<tag k="place" v="locality" />
		<tag k="ssr:stedsnr" v="409584" />
	</node>
	<node lat="60.399122223875295" lon="5.195091670424464" id="-73697">
		<tag k="name" v="Kråkevika" />
		<tag k="natural" v="bay" />
		<tag k="ssr:stedsnr" v="409862" />
	</node>
	<node lat="60.40077499748075" lon="5.17331388096445" id="-73698">
		<tag k="name" v="Mossaskogen" />
		<tag k="place" v="locality" />
		<tag k="ssr:stedsnr" v="409868" />
	</node>
	<node lat="60.466238891361506" lon="5.148561104944076" id="-73699">
		<tag k="name" v="Gurihaugen" />
		<tag k="natural" v="hill" />
		<tag k="place" v="locality" />
		<tag k="ssr:stedsnr" v="409963" />
	</node>
	<node lat="60.44835000108375" lon="5.118752785675728" id="-73700">
		<tag k="fixme" v="consider seamark:type=rock or natural=shoal" />
		<tag k="name" v="Gulaskjeret" />
		<tag k="place" v="islet" />
		<tag k="ssr:stedsnr" v="410656" />
	</node>
	<node lat="60.44141111136701" lon="5.104349994821784" id="-73702">
		<tag k="name" v="Austre Nesjane" />
		<tag k="natural" v="cape" />
		<tag k="ssr:stedsnr" v="410670" />
	</node>
	<node lat="60.46655833137106" lon="5.192988893557217" id="-73703">
		<tag k="name" v="Fjellvasselva" />
		<tag k="ssr:stedsnr" v="410671" />
		<tag k="waterway" v="stream" />
	</node>
	<node lat="60.461338886428926" lon="5.172544438734733" id="-73704">
		<tag k="name" v="Krabbetjørndalen" />
		<tag k="natural" v="valley" />
		<tag k="place" v="locality" />
		<tag k="ssr:stedsnr" v="410685" />
	</node>
	<node lat="60.41743611095435" lon="5.249525003525731" id="-73710">
		<tag k="alt_name" v="Florvågøy" />
		<tag k="name" v="Florvågøyna" />
		<tag k="natural" v="cape" />
		<tag k="ssr:stedsnr" v="430620" />
	</node>
	<node lat="60.484491667440025" lon="5.082150006211847" id="-73711">
		<tag k="name" v="Skotnes" />
		<tag k="natural" v="cape" />
		<tag k="ssr:stedsnr" v="430229" />
	</node>
	<node lat="60.5299994477321" lon="4.948421781516312" id="-73713">
		<tag k="bay" v="fjord" />
		<tag k="name" v="Hjeltefjorden" />
		<tag k="natural" v="bay" />
		<tag k="ssr:stedsnr" v="430242" />
	</node>
	<node lat="60.48903333270584" lon="5.219044447897289" id="-73714">
		<tag k="name" v="Askeneset" />
		<tag k="natural" v="cape" />
		<tag k="ssr:stedsnr" v="430367" />
	</node>
	<node lat="60.48491666440601" lon="5.190102781993756" id="-73715">
		<tag k="name" v="Ormaneset" />
		<tag k="natural" v="cape" />
		<tag k="ssr:stedsnr" v="430369" />
	</node>
	<node lat="60.41236110904366" lon="5.161722225458792" id="-73716">
		<tag k="name" v="Kråkestølen" />
		<tag k="place" v="isolated_dwelling" />
		<tag k="ssr:stedsnr" v="430592" />
	</node>
	<node lat="60.50262371720709" lon="5.0911177548832995" id="-73717">
		<tag k="fixme" v="consider place=hamlet" />
		<tag k="name" v="Kjerrgarden" />
		<tag k="place" v="farm" />
		<tag k="ssr:stedsnr" v="431525" />
	</node>
	<node lat="60.51840277689524" lon="5.005649991078497" id="-73719">
		<tag k="name" v="Klubben" />
		<tag k="natural" v="cape" />
		<tag k="ssr:stedsnr" v="432024" />
	</node>
	<node lat="60.60414444101329" lon="4.944541669891758" id="-73720">
		<tag k="name" v="Søre Hunden" />
		<tag k="natural" v="shoal" />
		<tag k="place" v="locality" />
		<tag k="ssr:stedsnr" v="509644" />
	</node>
	<node lat="60.57807777546202" lon="4.957752781620076" id="-73723">
		<tag k="alt_name" v="Herdlevalen" />
		<tag k="name" v="Valen" />
		<tag k="place" v="locality" />
		<tag k="ssr:stedsnr" v="510536" />
	</node>
	<node lat="60.50218611198537" lon="5.168411109318894" id="-73724">
		<tag k="name" v="Leirdal" />
		<tag k="place" v="farm" />
		<tag k="ssr:stedsnr" v="510581" />
	</node>
	<node lat="60.44576944495038" lon="5.091394441646331" id="-73725">
		<tag k="fixme" v="consider seamark:type=rock or natural=shoal" />
		<tag k="name" v="Lyngskjeret" />
		<tag k="place" v="islet" />
		<tag k="ssr:stedsnr" v="530945" />
	</node>
	<node lat="60.53041111142455" lon="5.041977778978619" id="-73727">
		<tag k="name" v="Hundevika" />
		<tag k="natural" v="bay" />
		<tag k="ssr:stedsnr" v="531633" />
	</node>
	<node lat="60.45085222530532" lon="5.08956155541237" id="-73728">
		<tag k="name" v="Storavatnet" />
		<tag k="natural" v="water" />
		<tag k="ssr:stedsnr" v="530348" />
		<tag k="water" v="lake" />
	</node>
	<node lat="60.4369416644687" lon="5.057161109993331" id="-73731">
		<tag k="name" v="Sandvika" />
		<tag k="natural" v="bay" />
		<tag k="ssr:stedsnr" v="530365" />
	</node>
	<node lat="60.486277774981296" lon="5.161097217648949" id="-73732">
		<tag k="name" v="Hatlevikbotnen" />
		<tag k="natural" v="valley" />
		<tag k="place" v="locality" />
		<tag k="ssr:stedsnr" v="530535" />
	</node>
	<node lat="60.4908611119192" lon="5.1408138962044125" id="-73733">
		<tag k="name" v="Vassdalen" />
		<tag k="natural" v="valley" />
		<tag k="place" v="locality" />
		<tag k="ssr:stedsnr" v="530542" />
	</node>
	<node lat="60.39594444108101" lon="5.196480552726297" id="-73736">
		<tag k="name" v="Kupa" />
		<tag k="natural" v="bay" />
		<tag k="ssr:stedsnr" v="530394" />
	</node>
	<node lat="60.478452781811725" lon="5.180408341627709" id="-73737">
		<tag k="name" v="Frukostholmen" />
		<tag k="place" v="islet" />
		<tag k="ssr:stedsnr" v="530734" />
	</node>
	<node lat="60.399318095565725" lon="5.18672743226311" id="-73738">
		<tag k="name" v="Lyngneset" />
		<tag k="natural" v="cape" />
		<tag k="ssr:stedsnr" v="530866" />
	</node>
	<node lat="60.398569660672145" lon="5.208892477857521" id="-73739">
		<tag k="name" v="Småholmen" />
		<tag k="place" v="islet" />
		<tag k="ssr:stedsnr" v="530869" />
	</node>
	<node lat="60.48225277867592" lon="5.199022215151054" id="-73740">
		<tag k="name" v="Jakvitzholmen" />
		<tag k="place" v="islet" />
		<tag k="ssr:stedsnr" v="531392" />
	</node>
	<node lat="60.44593889121203" lon="5.11303888094649" id="-73741">
		<tag k="name" v="Sandvika" />
		<tag k="natural" v="bay" />
		<tag k="ssr:stedsnr" v="531694" />
	</node>
	<node lat="60.4582033320988" lon="5.116906633299584" id="-73742">
		<tag k="name" v="Gamlestølsvatnet" />
		<tag k="natural" v="water" />
		<tag k="ssr:stedsnr" v="531711" />
		<tag k="water" v="lake" />
	</node>
	<node lat="60.45618610741344" lon="5.116183329357043" id="-73743">
		<tag k="historic" v="shieling" />
		<tag k="name" v="Gamlestølen" />
		<tag k="place" v="locality" />
		<tag k="ssr:stedsnr" v="531716" />
	</node>
	<node lat="60.474102781839555" lon="5.205908332955439" id="-73744">
		<tag k="name" v="Holmen" />
		<tag k="place" v="islet" />
		<tag k="ssr:stedsnr" v="531718" />
	</node>
	<node lat="60.468597225798355" lon="5.079663879768874" id="-73745">
		<tag k="name" v="Bjøllevågen" />
		<tag k="natural" v="bay" />
		<tag k="ssr:stedsnr" v="531719" />
	</node>
	<node lat="60.47301944653564" lon="5.054986118827932" id="-73747">
		<tag k="name" v="Hansholmen" />
		<tag k="place" v="islet" />
		<tag k="ssr:stedsnr" v="531740" />
	</node>
	<node lat="60.47635000284809" lon="5.0778499959333026" id="-73748">
		<tag k="name" v="Seiatjørnvika" />
		<tag k="natural" v="bay" />
		<tag k="ssr:stedsnr" v="531741" />
	</node>
	<node lat="60.471096090388656" lon="5.073366270727065" id="-73753">
		<tag k="alt_name" v="Langesundet" />
		<tag k="name" v="Langøysundet" />
		<tag k="natural" v="strait" />
		<tag k="ssr:stedsnr" v="551252" />
	</node>
	<node lat="60.47643383112397" lon="5.144387593279268" id="-73754">
		<tag k="name" v="Heiavatnet" />
		<tag k="natural" v="water" />
		<tag k="ssr:stedsnr" v="551363" />
	</node>
	<node lat="60.48592499918378" lon="5.2100388896344025" id="-73755">
		<tag k="alt_name" v="Kirkevik" />
		<tag k="name" v="Kyrkjevik" />
		<tag k="place" v="farm" />
		<tag k="ssr:stedsnr" v="551365" />
	</node>
	<node lat="60.481004362076604" lon="5.219299376652079" id="-73756">
		<tag k="alt_name" v="Askehamn" />
		<tag k="name" v="Askehamna" />
		<tag k="natural" v="bay" />
		<tag k="ssr:stedsnr" v="551371" />
	</node>
	<node lat="60.40711110856973" lon="5.156691661945466" id="-73757">
		<tag k="name" v="Træet" />
		<tag k="place" v="isolated_dwelling" />
		<tag k="ssr:stedsnr" v="551569" />
	</node>
	<node lat="60.40660277360301" lon="5.228372219853523" id="-73758">
		<tag k="name" v="Maltvika" />
		<tag k="natural" v="bay" />
		<tag k="ssr:stedsnr" v="551579" />
	</node>
	<node lat="60.42773888843684" lon="5.1700916725345225" id="-73759">
		<tag k="name" v="Brattestigen" />
		<tag k="place" v="farm" />
		<tag k="ssr:stedsnr" v="551586" />
	</node>
	<node lat="60.425011114088456" lon="5.219594449009563" id="-73760">
		<tag k="name" v="Skogadal" />
		<tag k="place" v="farm" />
		<tag k="ssr:stedsnr" v="551618" />
	</node>
	<node lat="60.603183336438946" lon="4.903424995631258" id="-73762">
		<tag k="name" v="Søreskallen" />
		<tag k="natural" v="shoal" />
		<tag k="place" v="locality" />
		<tag k="ssr:stedsnr" v="551900" />
	</node>
	<node lat="60.40376417416592" lon="5.220657193146178" id="-73763">
		<tag k="name" v="Klubben" />
		<tag k="natural" v="cape" />
		<tag k="ssr:stedsnr" v="552591" />
	</node>
	<node lat="60.52485277612469" lon="5.023202780853568" id="-73764">
		<tag k="name" v="Storavatnet" />
		<tag k="natural" v="water" />
		<tag k="ssr:stedsnr" v="552715" />
	</node>
	<node lat="60.57673055532522" lon="4.942513888689177" id="-73765">
		<tag k="name" v="Gavlen" />
		<tag k="natural" v="cape" />
		<tag k="ssr:stedsnr" v="552732" />
	</node>
	<node lat="60.453641664356525" lon="5.088530558895429" id="-73769">
		<tag k="alt_name" v="Hanøynipa" />
		<tag k="name" v="Nipa" />
		<tag k="natural" v="hill" />
		<tag k="place" v="locality" />
		<tag k="ssr:stedsnr" v="571886" />
	</node>
	<node lat="60.49974999681564" lon="5.181508342097982" id="-73774">
		<tag k="name" v="Badevika" />
		<tag k="natural" v="bay" />
		<tag k="ssr:stedsnr" v="590335" />
	</node>
	<node lat="60.439008333842494" lon="5.053325005893465" id="-73776">
		<tag k="name" v="Nordre Hagen" />
		<tag k="place" v="locality" />
		<tag k="ssr:stedsnr" v="590342" />
	</node>
	<node lat="60.531324997826076" lon="4.993150007314313" id="-73777">
		<tag k="name" v="Skråmestøvågen" />
		<tag k="natural" v="bay" />
		<tag k="ssr:stedsnr" v="590291" />
	</node>
	<node lat="60.456358331686275" lon="5.233377784234464" id="-73778">
		<tag k="name" v="Aspehaugen" />
		<tag k="natural" v="hill" />
		<tag k="place" v="locality" />
		<tag k="ssr:stedsnr" v="590351" />
	</node>
	<node lat="60.48686110863751" lon="5.192697220420944" id="-73779">
		<tag k="name" v="Nordre Pollen" />
		<tag k="natural" v="bay" />
		<tag k="ssr:stedsnr" v="590355" />
	</node>
	<node lat="60.41566666460949" lon="5.153380559162575" id="-73780">
		<tag k="name" v="Haugadalen" />
		<tag k="natural" v="valley" />
		<tag k="place" v="locality" />
		<tag k="ssr:stedsnr" v="590361" />
	</node>
	<node lat="60.426202777739725" lon="5.193886116123352" id="-73781">
		<tag k="name" v="Norddalen" />
		<tag k="natural" v="valley" />
		<tag k="place" v="locality" />
		<tag k="ssr:stedsnr" v="590362" />
	</node>
	<node lat="60.400888888111155" lon="5.19335833763596" id="-73782">
		<tag k="name" v="Gibraltar" />
		<tag k="place" v="locality" />
		<tag k="ssr:stedsnr" v="591345" />
	</node>
	<node lat="60.396602778047956" lon="5.176183326077919" id="-73787">
		<tag k="name" v="Straumen" />
		<tag k="natural" v="strait" />
		<tag k="ssr:stedsnr" v="590885" />
	</node>
	<node lat="60.50353611161108" lon="5.146299991652728" id="-73789">
		<tag k="name" v="Søre Holmen" />
		<tag k="place" v="islet" />
		<tag k="ssr:stedsnr" v="590969" />
	</node>
	<node lat="60.57284444544804" lon="4.951752781325604" id="-73790">
		<tag k="name" v="Søre Signalen" />
		<tag k="natural" v="cape" />
		<tag k="ssr:stedsnr" v="591238" />
	</node>
	<node lat="60.48124166331947" lon="5.174477769539887" id="-73791">
		<tag k="name" v="Kaldalen" />
		<tag k="natural" v="valley" />
		<tag k="place" v="locality" />
		<tag k="ssr:stedsnr" v="591491" />
	</node>
	<node lat="60.50047778059219" lon="5.152208333656855" id="-73792">
		<tag k="name" v="Plassavika" />
		<tag k="natural" v="bay" />
		<tag k="ssr:stedsnr" v="591532" />
	</node>
	<node lat="60.51615555935261" lon="5.076669446313365" id="-73795">
		<tag k="name" v="Bjørndalsvika" />
		<tag k="natural" v="bay" />
		<tag k="ssr:stedsnr" v="591552" />
	</node>
	<node lat="60.48427473017974" lon="5.166583364235254" id="-73797">
		<tag k="name" v="Dyrtjørna" />
		<tag k="natural" v="water" />
		<tag k="ssr:stedsnr" v="591498" />
	</node>
	<node lat="60.44138333617261" lon="5.072361107647139" id="-73799">
		<tag k="name" v="Hanøysundet" />
		<tag k="natural" v="strait" />
		<tag k="ssr:stedsnr" v="591634" />
	</node>
	<node lat="60.44245000262364" lon="5.110530553084261" id="-73800">
		<tag k="name" v="Vardneshaugane" />
		<tag k="natural" v="hill" />
		<tag k="place" v="locality" />
		<tag k="ssr:stedsnr" v="591636" />
	</node>
	<node lat="60.46781217586828" lon="5.17594042617684" id="-73801">
		<tag k="name" v="Åstjørna" />
		<tag k="natural" v="water" />
		<tag k="ssr:stedsnr" v="591648" />
		<tag k="water" v="pond" />
	</node>
	<node lat="60.451961112874805" lon="5.10322500671361" id="-73804">
		<tag k="bridge" v="yes" />
		<tag k="layer" v="1" />
		<tag k="name" v="Evjevik" />
		<tag k="ssr:stedsnr" v="593196" />
	</node>
	<node lat="60.459758336028415" lon="5.15040833195688" id="-73805">
		<tag k="bridge" v="yes" />
		<tag k="layer" v="1" />
		<tag k="name" v="Ravnanger" />
		<tag k="ssr:stedsnr" v="593199" />
	</node>
	<node lat="60.46220277887723" lon="5.105158338082318" id="-73807">
		<tag k="name" v="Kalsihaugen" />
		<tag k="natural" v="hill" />
		<tag k="place" v="locality" />
		<tag k="ssr:stedsnr" v="592748" />
	</node>
	<node lat="60.462400001653144" lon="5.049769449035217" id="-73808">
		<tag k="name" v="Børosen" />
		<tag k="natural" v="strait" />
		<tag k="ssr:stedsnr" v="592752" />
	</node>
	<node lat="60.481641663715216" lon="5.118866670035952" id="-73810">
		<tag k="name" v="Meåsdalen" />
		<tag k="natural" v="valley" />
		<tag k="place" v="locality" />
		<tag k="ssr:stedsnr" v="592761" />
	</node>
	<node lat="60.42795000219361" lon="5.088652771314371" id="-73817">
		<tag k="name" v="Småværsundet" />
		<tag k="natural" v="strait" />
		<tag k="ssr:stedsnr" v="612197" />
	</node>
	<node lat="60.45429444574984" lon="5.13152777152862" id="-73818">
		<tag k="amenity" v="place_of_worship" />
		<tag k="denomination" v="lutheran" />
		<tag k="name" v="Tveit kirke" />
		<tag k="religion" v="christian" />
		<tag k="ssr:stedsnr" v="611542" />
	</node>
	<node lat="60.422141668031045" lon="5.213783337093584" id="-73820">
		<tag k="fixme" v="consider natural=peak for the most distinct mountains in the district" />
		<tag k="name" v="Brikafjellet" />
		<tag k="natural" v="hill" />
		<tag k="place" v="locality" />
		<tag k="ssr:stedsnr" v="611632" />
	</node>
	<node lat="60.43673055880372" lon="5.174561117182132" id="-73821">
		<tag k="alt_name" v="Djupvika" />
		<tag k="name" v="Juvika" />
		<tag k="natural" v="bay" />
		<tag k="ssr:stedsnr" v="612547" />
	</node>
	<node lat="60.40843611175682" lon="5.227627778095497" id="-73822">
		<tag k="name" v="Kleppestø" />
		<tag k="place" v="village" />
		<tag k="ssr:stedsnr" v="612604" />
	</node>
	<node lat="60.52492777360462" lon="5.0549361111012" id="-73824">
		<tag k="fixme" v="consider place=hamlet" />
		<tag k="name" v="Berland" />
		<tag k="place" v="farm" />
		<tag k="ssr:stedsnr" v="613657" />
	</node>
	<node lat="60.51784999813281" lon="5.082052782744199" id="-73828">
		<tag k="name" v="Hauglandsosen" />
		<tag k="natural" v="strait" />
		<tag k="ssr:stedsnr" v="613650" />
	</node>
	<node lat="60.49924722441591" lon="5.150644447720798" id="-73830">
		<tag k="fixme" v="consider place=suburb, village or hamlet" />
		<tag k="name" v="Hanevik" />
		<tag k="place" v="quarter" />
		<tag k="ssr:stedsnr" v="631561" />
	</node>
	<node lat="60.41583333037673" lon="5.243055563586242" id="-73831">
		<tag k="name" v="Bastaneset" />
		<tag k="natural" v="cape" />
		<tag k="ssr:stedsnr" v="631977" />
	</node>
	<node lat="60.4075693279193" lon="5.197109259820332" id="-73833">
		<tag k="alt_name" v="Stongafjell" />
		<tag k="layer" v="-1" />
		<tag k="name" v="Stongafjelltunnelen" />
		<tag k="ssr:stedsnr" v="650680" />
		<tag k="tunnel" v="yes" />
	</node>
	<node lat="60.41882500263292" lon="5.226519443855843" id="-73834">
		<tag k="name" v="Svensmyra" />
		<tag k="natural" v="wetland" />
		<tag k="ssr:stedsnr" v="651261" />
	</node>
	<node lat="60.488219444694835" lon="5.206994442406365" id="-73835">
		<tag k="name" v="Steinsland" />
		<tag k="place" v="farm" />
		<tag k="ssr:stedsnr" v="651353" />
	</node>
	<node lat="60.472752775793474" lon="5.2095083272284235" id="-73836">
		<tag k="fixme" v="consider natural=peak for the most distinct mountains in the district" />
		<tag k="name" v="Kongshaugen" />
		<tag k="natural" v="hill" />
		<tag k="place" v="locality" />
		<tag k="ssr:stedsnr" v="651357" />
	</node>
	<node lat="60.412730555632535" lon="5.145222219852979" id="-73838">
		<tag k="name" v="Enden" />
		<tag k="natural" v="cape" />
		<tag k="ssr:stedsnr" v="651365" />
	</node>
	<node lat="60.450805554417826" lon="5.150516669974993" id="-73839">
		<tag k="name" v="Buneset" />
		<tag k="place" v="farm" />
		<tag k="ssr:stedsnr" v="651369" />
	</node>
	<node lat="60.40835277516732" lon="5.1735249932892104" id="-73840">
		<tag k="fixme" v="consider natural=peak for the most distinct mountains in the district" />
		<tag k="name" v="Sørafjellet" />
		<tag k="natural" v="hill" />
		<tag k="place" v="locality" />
		<tag k="ssr:stedsnr" v="651377" />
	</node>
	<node lat="60.42170555245509" lon="5.200886116583627" id="-73841">
		<tag k="name" v="Berget" />
		<tag k="place" v="farm" />
		<tag k="ssr:stedsnr" v="651933" />
	</node>
	<node lat="60.50415300405636" lon="5.046775325857481" id="-73842">
		<tag k="name" v="Rottjørna" />
		<tag k="natural" v="water" />
		<tag k="ssr:stedsnr" v="651961" />
	</node>
	<node lat="60.40531111431017" lon="5.184822217830569" id="-73844">
		<tag k="name" v="Flagget" />
		<tag k="place" v="locality" />
		<tag k="ssr:stedsnr" v="651883" />
	</node>
	<node lat="60.49125277776236" lon="5.109566660279066" id="-73846">
		<tag k="name" v="Ljosskaret" />
		<tag k="natural" v="valley" />
		<tag k="place" v="locality" />
		<tag k="ssr:stedsnr" v="651732" />
	</node>
	<node lat="60.48180277489582" lon="5.156347218194601" id="-73847">
		<tag k="name" v="Djupedalen" />
		<tag k="natural" v="valley" />
		<tag k="place" v="locality" />
		<tag k="ssr:stedsnr" v="652508" />
	</node>
	<node lat="60.49120555584079" lon="5.198058338116991" id="-73848">
		<tag k="name" v="Høgholten" />
		<tag k="natural" v="hill" />
		<tag k="place" v="locality" />
		<tag k="ssr:stedsnr" v="652530" />
	</node>
	<node lat="60.50452302387665" lon="5.155211354680736" id="-73850">
		<tag k="name" v="Breiavika" />
		<tag k="natural" v="bay" />
		<tag k="ssr:stedsnr" v="651972" />
	</node>
	<node lat="60.51485833664529" lon="5.017666672910243" id="-73855">
		<tag k="name" v="Straumen" />
		<tag k="natural" v="strait" />
		<tag k="ssr:stedsnr" v="652577" />
	</node>
	<node lat="60.45854444023151" lon="5.169658324867419" id="-73856">
		<tag k="name" v="Lindhaugen" />
		<tag k="natural" v="hill" />
		<tag k="place" v="locality" />
		<tag k="ssr:stedsnr" v="652672" />
	</node>
	<node lat="60.45593888719124" lon="5.098799995369011" id="-73857">
		<tag k="alt_name" v="Nordavindhaugen" />
		<tag k="name" v="Nordavindshaugen" />
		<tag k="natural" v="hill" />
		<tag k="place" v="locality" />
		<tag k="ssr:stedsnr" v="652680" />
	</node>
	<node lat="60.48003333081106" lon="5.073447216945294" id="-73859">
		<tag k="name" v="Midtskaget" />
		<tag k="natural" v="cape" />
		<tag k="ssr:stedsnr" v="652702" />
	</node>
	<node lat="60.578755557782536" lon="4.945822214018428" id="-73860">
		<tag k="name" v="Svarthola" />
		<tag k="natural" v="bay" />
		<tag k="ssr:stedsnr" v="652611" />
	</node>
	<node lat="60.56092221826186" lon="4.961680550234845" id="-73861">
		<tag k="bridge" v="yes" />
		<tag k="layer" v="1" />
		<tag k="name" v="Herdlesundet" />
		<tag k="ssr:stedsnr" v="654216" />
	</node>
	<node lat="60.50992264914982" lon="5.038439134372268" id="-73864">
		<tag k="alt_name" v="Fauskanger" />
		<tag k="layer" v="-1" />
		<tag k="name" v="Fauskangertunnelen" />
		<tag k="ssr:stedsnr" v="711430" />
		<tag k="tunnel" v="yes" />
	</node>
	<node lat="60.45179722686661" lon="5.132755560458092" id="-73865">
		<tag k="name" v="Mannekleiva" />
		<tag k="place" v="farm" />
		<tag k="ssr:stedsnr" v="712334" />
	</node>
	<node lat="60.41462222006193" lon="5.188002776227721" id="-73867">
		<tag k="fixme" v="consider natural=peak for the most distinct mountains in the district" />
		<tag k="name" v="Gunnlafjellet" />
		<tag k="natural" v="hill" />
		<tag k="place" v="locality" />
		<tag k="ssr:stedsnr" v="712219" />
	</node>
	<node lat="60.495813888188025" lon="5.163019448594513" id="-73868">
		<tag k="name" v="Huneviksholmen" />
		<tag k="place" v="islet" />
		<tag k="ssr:stedsnr" v="712312" />
	</node>
	<node lat="60.49751114531372" lon="5.057622457794027" id="-73871">
		<tag k="name" v="Straumsvatnet" />
		<tag k="natural" v="water" />
		<tag k="ssr:stedsnr" v="712262" />
		<tag k="water" v="lake" />
	</node>
	<node lat="60.47665277503302" lon="5.0594194470969756" id="-73872">
		<tag k="name" v="Krossundholmen" />
		<tag k="place" v="islet" />
		<tag k="ssr:stedsnr" v="712266" />
	</node>
	<node lat="60.42049444538657" lon="5.196577779624517" id="-73873">
		<tag k="name" v="Brattli" />
		<tag k="place" v="farm" />
		<tag k="ssr:stedsnr" v="712909" />
	</node>
	<node lat="60.42127044246087" lon="5.2334060937356" id="-73875">
		<tag k="fixme" v="consider place=hamlet" />
		<tag k="name" v="Florvåg" />
		<tag k="place" v="farm" />
		<tag k="ssr:stedsnr" v="712915" />
	</node>
	<node lat="60.46376666669285" lon="5.115527775140148" id="-73876">
		<tag k="amenity" v="school" />
		<tag k="name" v="Skulebøen" />
		<tag k="ssr:stedsnr" v="713718" />
	</node>
	<node lat="60.45579166346161" lon="5.077505557884762" id="-73878">
		<tag k="name" v="Tveitneset" />
		<tag k="natural" v="cape" />
		<tag k="ssr:stedsnr" v="713723" />
	</node>
	<node lat="60.494263885090305" lon="5.162408334988282" id="-73880">
		<tag k="name" v="Langeneset" />
		<tag k="natural" v="cape" />
		<tag k="ssr:stedsnr" v="713565" />
	</node>
	<node lat="60.5034833361055" lon="5.173527776450786" id="-73881">
		<tag k="name" v="Søre Signalvika" />
		<tag k="natural" v="bay" />
		<tag k="ssr:stedsnr" v="713573" />
	</node>
	<node lat="60.44234444648708" lon="5.1547666654625095" id="-73882">
		<tag k="name" v="Hauglandsneset" />
		<tag k="natural" v="cape" />
		<tag k="ssr:stedsnr" v="713637" />
	</node>
	<node lat="60.44788813082679" lon="5.176354156630228" id="-73883">
		<tag k="name" v="Fagerdalstjørna" />
		<tag k="natural" v="water" />
		<tag k="ssr:stedsnr" v="713650" />
	</node>
	<node lat="60.43987778081922" lon="5.055622227845758" id="-73885">
		<tag k="name" v="Sofaen" />
		<tag k="natural" v="bay" />
		<tag k="ssr:stedsnr" v="713669" />
	</node>
	<node lat="60.43650833137412" lon="5.0707833395511726" id="-73886">
		<tag k="name" v="Breiavika" />
		<tag k="natural" v="bay" />
		<tag k="ssr:stedsnr" v="713671" />
	</node>
	<node lat="60.47782499928615" lon="5.176480554685665" id="-73887">
		<tag k="name" v="Eidsvika" />
		<tag k="natural" v="bay" />
		<tag k="ssr:stedsnr" v="713765" />
	</node>
	<node lat="60.40541388650854" lon="5.219927786780359" id="-73889">
		<tag k="bridge" v="yes" />
		<tag k="layer" v="1" />
		<tag k="name" v="Holmedalen" />
		<tag k="ssr:stedsnr" v="715220" />
	</node>
	<node lat="60.443058330077456" lon="5.215041658494927" id="-73893">
		<tag k="name" v="Åsen" />
		<tag k="place" v="farm" />
		<tag k="ssr:stedsnr" v="733461" />
	</node>
	<node lat="60.441305555806586" lon="5.141477782635023" id="-73894">
		<tag k="name" v="Laksholmen" />
		<tag k="place" v="islet" />
		<tag k="ssr:stedsnr" v="733479" />
	</node>
	<node lat="60.43785555119943" lon="5.167680550708653" id="-73895">
		<tag k="name" v="Risholmen" />
		<tag k="place" v="islet" />
		<tag k="ssr:stedsnr" v="733481" />
	</node>
	<node lat="60.40035277561491" lon="5.161672228708113" id="-73896">
		<tag k="name" v="Eidsvika" />
		<tag k="natural" v="bay" />
		<tag k="ssr:stedsnr" v="733557" />
	</node>
	<node lat="60.47873610933717" lon="5.216280548931208" id="-73899">
		<tag k="alt_name" v="Frugård" />
		<tag k="name" v="Frugarden" />
		<tag k="place" v="farm" />
		<tag k="ssr:stedsnr" v="734467" />
	</node>
	<node lat="60.50456666962176" lon="5.171880562301721" id="-73900">
		<tag k="name" v="Signalneset" />
		<tag k="natural" v="cape" />
		<tag k="ssr:stedsnr" v="734514" />
	</node>
	<node lat="60.42597499980056" lon="5.1494249962313186" id="-73901">
		<tag k="fixme" v="consider place=suburb, village or hamlet" />
		<tag k="name" v="Hetlevik" />
		<tag k="place" v="quarter" />
		<tag k="ssr:stedsnr" v="734638" />
	</node>
	<node lat="60.45550000152546" lon="5.241677774330301" id="-73902">
		<tag k="fixme" v="consider seamark:type=rock or natural=shoal" />
		<tag k="name" v="Ringskjeret" />
		<tag k="place" v="islet" />
		<tag k="ssr:stedsnr" v="753438" />
	</node>
	<node lat="60.40202222277072" lon="5.195597214759624" id="-73904">
		<tag k="name" v="Vågen" />
		<tag k="natural" v="bay" />
		<tag k="ssr:stedsnr" v="753976" />
	</node>
	<node lat="60.40857499922477" lon="5.241119439442271" id="-73905">
		<tag k="name" v="Knektholmen" />
		<tag k="place" v="islet" />
		<tag k="ssr:stedsnr" v="753985" />
	</node>
	<node lat="60.4121108996886" lon="5.1985658686278775" id="-73906">
		<tag k="name" v="Strusshamnvatnet" />
		<tag k="natural" v="water" />
		<tag k="ssr:stedsnr" v="753991" />
		<tag k="water" v="lake" />
	</node>
	<node lat="60.48471110705544" lon="5.0922777786230675" id="-73909">
		<tag k="fixme" v="consider natural=peak for the most distinct mountains in the district" />
		<tag k="name" v="Ålefjellet" />
		<tag k="natural" v="hill" />
		<tag k="place" v="locality" />
		<tag k="ssr:stedsnr" v="773315" />
	</node>
	<node lat="60.49842880066624" lon="5.049136666094084" id="-73912">
		<tag k="name" v="Midtvatnet" />
		<tag k="natural" v="water" />
		<tag k="ssr:stedsnr" v="773299" />
	</node>
	<node lat="60.488461720642576" lon="5.147301920365275" id="-73913">
		<tag k="name" v="Rotatjørna" />
		<tag k="natural" v="water" />
		<tag k="ssr:stedsnr" v="773354" />
	</node>
	<node lat="60.504327774424695" lon="5.150611117960585" id="-73914">
		<tag k="name" v="Brenneneset" />
		<tag k="natural" v="cape" />
		<tag k="ssr:stedsnr" v="773344" />
	</node>
	<node lat="60.49652777785767" lon="5.162544439079555" id="-73915">
		<tag k="name" v="Hunevika" />
		<tag k="natural" v="bay" />
		<tag k="ssr:stedsnr" v="773350" />
	</node>
	<node lat="60.499802780113484" lon="5.13093611879443" id="-73918">
		<tag k="name" v="Rønhaugane" />
		<tag k="natural" v="hill" />
		<tag k="place" v="locality" />
		<tag k="ssr:stedsnr" v="773393" />
	</node>
	<node lat="60.57996666974004" lon="4.9722333391484" id="-73920">
		<tag k="name" v="Paddehola" />
		<tag k="natural" v="wetland" />
		<tag k="ssr:stedsnr" v="773595" />
	</node>
	<node lat="60.48881389090075" lon="5.066633337767754" id="-73922">
		<tag k="name" v="Risstraumen" />
		<tag k="natural" v="strait" />
		<tag k="ssr:stedsnr" v="773713" />
	</node>
	<node lat="60.47709721922476" lon="5.162897218175154" id="-73923">
		<tag k="name" v="Grøndalsneset" />
		<tag k="natural" v="cape" />
		<tag k="ssr:stedsnr" v="773716" />
	</node>
	<node lat="60.477847220279415" lon="5.160947214992931" id="-73924">
		<tag k="name" v="Grøndalsvika" />
		<tag k="natural" v="bay" />
		<tag k="ssr:stedsnr" v="773717" />
	</node>
	<node lat="60.48107222640378" lon="5.129686114072178" id="-73925">
		<tag k="name" v="Lonene" />
		<tag k="natural" v="water" />
		<tag k="ssr:stedsnr" v="773727" />
		<tag k="water" v="lake" />
	</node>
	<node lat="60.42714166247357" lon="5.152791669112947" id="-73928">
		<tag k="name" v="Brattalid" />
		<tag k="place" v="farm" />
		<tag k="ssr:stedsnr" v="773887" />
	</node>
	<node lat="60.44485833225908" lon="5.156477786525791" id="-73929">
		<tag k="name" v="Hellehaugen" />
		<tag k="place" v="farm" />
		<tag k="ssr:stedsnr" v="773891" />
	</node>
	<node lat="60.448022222396965" lon="5.096138892378486" id="-73931">
		<tag k="name" v="Myravika" />
		<tag k="natural" v="bay" />
		<tag k="ssr:stedsnr" v="774697" />
	</node>
	<node lat="60.45012777928689" lon="5.098552777692703" id="-73932">
		<tag k="name" v="Skaget" />
		<tag k="natural" v="cape" />
		<tag k="ssr:stedsnr" v="774698" />
	</node>
	<node lat="60.44695000230694" lon="5.072411102876322" id="-73933">
		<tag k="name" v="Moltehaugen" />
		<tag k="natural" v="hill" />
		<tag k="place" v="locality" />
		<tag k="ssr:stedsnr" v="774701" />
	</node>
	<node lat="60.48391666858946" lon="5.10639721720289" id="-73936">
		<tag k="fixme" v="consider natural=peak for the most distinct mountains in the district" />
		<tag k="name" v="Fugledalsåsen" />
		<tag k="natural" v="hill" />
		<tag k="place" v="locality" />
		<tag k="ssr:stedsnr" v="774744" />
	</node>
	<node lat="60.4610333344323" lon="5.045183338348668" id="-73937">
		<tag k="name" v="Agnesholmane" />
		<tag k="place" v="islet" />
		<tag k="ssr:stedsnr" v="794131" />
	</node>
	<node lat="60.4370583300191" lon="5.0523444438325935" id="-73939">
		<tag k="name" v="Ramsøyna" />
		<tag k="place" v="island" />
		<tag k="ssr:stedsnr" v="794155" />
	</node>
	<node lat="60.46019167014488" lon="5.152049998154939" id="-73941">
		<tag k="alt_name" v="Ramnanger" />
		<tag k="fixme" v="consider place=hamlet" />
		<tag k="name" v="Ravnanger" />
		<tag k="place" v="village" />
		<tag k="ssr:stedsnr" v="794390" />
	</node>
	<node lat="60.46563332889877" lon="5.1149055542609885" id="-73942">
		<tag k="name" v="Kårevik" />
		<tag k="place" v="farm" />
		<tag k="ssr:stedsnr" v="794393" />
	</node>
	<node lat="60.46547499806134" lon="5.197700001564011" id="-73943">
		<tag k="name" v="Fredheim" />
		<tag k="place" v="farm" />
		<tag k="ssr:stedsnr" v="794400" />
	</node>
	<node lat="60.46974966578249" lon="5.1973052972835925" id="-73944">
		<tag k="name" v="Tranetjørna" />
		<tag k="natural" v="water" />
		<tag k="ssr:stedsnr" v="794402" />
	</node>
	<node lat="60.45766388999968" lon="5.097016670093285" id="-73946">
		<tag k="name" v="Steinseidet" />
		<tag k="place" v="locality" />
		<tag k="ssr:stedsnr" v="794524" />
	</node>
	<node lat="60.451478198111914" lon="5.1433783453610475" id="-73947">
		<tag k="alt_name" v="Tveitavatnet" />
		<tag k="name" v="Storavatnet" />
		<tag k="natural" v="water" />
		<tag k="ssr:stedsnr" v="794533" />
		<tag k="water" v="lake" />
	</node>
	<node lat="60.45898888604956" lon="5.206013894580982" id="-73948">
		<tag k="name" v="Svana" />
		<tag k="place" v="farm" />
		<tag k="ssr:stedsnr" v="794539" />
	</node>
	<node lat="60.45719444819143" lon="5.195775004364463" id="-73949">
		<tag k="name" v="Skiftedalen" />
		<tag k="natural" v="valley" />
		<tag k="place" v="locality" />
		<tag k="ssr:stedsnr" v="794540" />
	</node>
	<node lat="60.499741663430065" lon="5.14916111218192" id="-73950">
		<tag k="name" v="Hanevik" />
		<tag k="place" v="farm" />
		<tag k="ssr:stedsnr" v="795549" />
	</node>
	<node lat="60.4426083292448" lon="5.160902772552465" id="-73954">
		<tag k="name" v="Tømmervika" />
		<tag k="natural" v="bay" />
		<tag k="ssr:stedsnr" v="813963" />
	</node>
	<node lat="60.434108334937434" lon="5.169216666538256" id="-73955">
		<tag k="name" v="Dalamoen" />
		<tag k="place" v="farm" />
		<tag k="ssr:stedsnr" v="813731" />
	</node>
	<node lat="60.478483330541636" lon="5.208347220300745" id="-73957">
		<tag k="name" v="Frydenlund" />
		<tag k="place" v="farm" />
		<tag k="ssr:stedsnr" v="815498" />
	</node>
	<node lat="60.495419440297105" lon="5.144836119033214" id="-73960">
		<tag k="name" v="Ekrehaugen" />
		<tag k="place" v="farm" />
		<tag k="ssr:stedsnr" v="834341" />
	</node>
	<node lat="60.47847482616967" lon="5.2204896824906" id="-73961">
		<tag k="name" v="Frugårdstjørna" />
		<tag k="natural" v="water" />
		<tag k="ssr:stedsnr" v="834351" />
	</node>
	<node lat="60.42518888438057" lon="5.153080551512405" id="-73962">
		<tag k="name" v="Båtholmen" />
		<tag k="place" v="islet" />
		<tag k="ssr:stedsnr" v="834357" />
	</node>
	<node lat="60.428863891158386" lon="5.148494450800162" id="-73963">
		<tag k="name" v="Vikane" />
		<tag k="place" v="farm" />
		<tag k="ssr:stedsnr" v="834358" />
	</node>
	<node lat="60.40546667088697" lon="5.167380549804879" id="-73964">
		<tag k="name" v="Slettebrekka" />
		<tag k="natural" v="slope" />
		<tag k="place" v="locality" />
		<tag k="ssr:stedsnr" v="834361" />
	</node>
	<node lat="60.502151194868105" lon="5.123966351248749" id="-73966">
		<tag k="name" v="Rotatjørna" />
		<tag k="natural" v="water" />
		<tag k="ssr:stedsnr" v="834290" />
	</node>
	<node lat="60.48022945937261" lon="5.0834939499077425" id="-73967">
		<tag k="name" v="Kremmartjørna" />
		<tag k="natural" v="water" />
		<tag k="ssr:stedsnr" v="834299" />
	</node>
	<node lat="60.45418888576378" lon="5.102611119080632" id="-73969">
		<tag k="name" v="Evjemyra" />
		<tag k="natural" v="wetland" />
		<tag k="ssr:stedsnr" v="834327" />
	</node>
	<node lat="60.48747777877399" lon="5.160719443913897" id="-73971">
		<tag k="name" v="Hatlevikhaugen" />
		<tag k="natural" v="hill" />
		<tag k="place" v="locality" />
		<tag k="ssr:stedsnr" v="834390" />
	</node>
	<node lat="60.48821944518442" lon="5.144619444811151" id="-73973">
		<tag k="name" v="Sundet" />
		<tag k="natural" v="strait" />
		<tag k="ssr:stedsnr" v="834520" />
	</node>
	<node lat="60.51613610813678" lon="5.100958335698152" id="-73976">
		<tag k="name" v="Breiaskaret" />
		<tag k="natural" v="valley" />
		<tag k="place" v="locality" />
		<tag k="ssr:stedsnr" v="834591" />
	</node>
	<node lat="60.515466669864445" lon="5.081805551750362" id="-73977">
		<tag k="name" v="Bøneset" />
		<tag k="natural" v="cape" />
		<tag k="ssr:stedsnr" v="834593" />
	</node>
	<node lat="60.44780555726178" lon="5.125297230083352" id="-73981">
		<tag k="name" v="Kobbamyra" />
		<tag k="natural" v="wetland" />
		<tag k="ssr:stedsnr" v="834632" />
	</node>
	<node lat="60.52844999749092" lon="5.013441660007815" id="-73983">
		<tag k="fixme" v="consider natural=peak for the most distinct mountains in the district" />
		<tag k="name" v="Bruna" />
		<tag k="natural" v="hill" />
		<tag k="place" v="locality" />
		<tag k="ssr:stedsnr" v="834614" />
	</node>
	<node lat="60.53334722147064" lon="4.986744441959778" id="-73984">
		<tag k="fixme" v="consider natural=peak for the most distinct mountains in the district" />
		<tag k="name" v="Oksneskletten" />
		<tag k="natural" v="hill" />
		<tag k="place" v="locality" />
		<tag k="ssr:stedsnr" v="834617" />
	</node>
	<node lat="60.42072500367462" lon="5.1395527729457635" id="-73986">
		<tag k="name" v="Langetangen" />
		<tag k="natural" v="cape" />
		<tag k="ssr:stedsnr" v="834885" />
	</node>
	<node lat="60.42134166957351" lon="5.248747218262849" id="-73987">
		<tag k="name" v="Nordre Tjuvavågen" />
		<tag k="natural" v="bay" />
		<tag k="ssr:stedsnr" v="834902" />
	</node>
	<node lat="60.46652222128731" lon="5.045333341514896" id="-73988">
		<tag k="name" v="Høgholmen" />
		<tag k="place" v="islet" />
		<tag k="ssr:stedsnr" v="834692" />
	</node>
	<node lat="60.488813891192976" lon="5.0949944518560715" id="-73990">
		<tag k="name" v="Futlaupdalen" />
		<tag k="natural" v="valley" />
		<tag k="place" v="locality" />
		<tag k="ssr:stedsnr" v="834724" />
	</node>
	<node lat="60.48016944835826" lon="5.139205563517389" id="-73992">
		<tag k="name" v="Stykkedalen" />
		<tag k="natural" v="valley" />
		<tag k="place" v="locality" />
		<tag k="ssr:stedsnr" v="834744" />
	</node>
	<node lat="60.44717500328516" lon="5.094677779001678" id="-73993">
		<tag k="fixme" v="consider seamark:type=rock or natural=shoal" />
		<tag k="name" v="Klungerskjeret" />
		<tag k="place" v="islet" />
		<tag k="ssr:stedsnr" v="834905" />
	</node>
	<node lat="60.50180725227054" lon="5.096896440075551" id="-73995">
		<tag k="name" v="Pålen" />
		<tag k="natural" v="valley" />
		<tag k="place" v="locality" />
		<tag k="ssr:stedsnr" v="834934" />
	</node>
	<node lat="60.47064388270563" lon="5.085159724853668" id="-73996">
		<tag k="name" v="Bjøllevågstjørna" />
		<tag k="natural" v="water" />
		<tag k="ssr:stedsnr" v="834945" />
	</node>
	<node lat="60.50188611416686" lon="5.165291664098913" id="-73997">
		<tag k="name" v="Leirdalen" />
		<tag k="natural" v="valley" />
		<tag k="place" v="locality" />
		<tag k="ssr:stedsnr" v="834957" />
	</node>
	<node lat="60.40709166843219" lon="5.203372216333142" id="-73998">
		<tag k="fixme" v="consider natural=peak for the most distinct mountains in the district" />
		<tag k="name" v="Bustafjellet" />
		<tag k="natural" v="hill" />
		<tag k="place" v="locality" />
		<tag k="ssr:stedsnr" v="834919" />
	</node>
	<node lat="60.40369999998536" lon="5.219174999265639" id="-73999">
		<tag k="name" v="Klubben" />
		<tag k="place" v="farm" />
		<tag k="ssr:stedsnr" v="834920" />
	</node>
	<node lat="60.46248888940468" lon="5.064088897302874" id="-74002">
		<tag k="name" v="Fløysundet" />
		<tag k="natural" v="strait" />
		<tag k="ssr:stedsnr" v="835739" />
	</node>
	<node lat="60.474177779777335" lon="5.058533325915158" id="-74003">
		<tag k="name" v="Krossundholmen" />
		<tag k="place" v="islet" />
		<tag k="ssr:stedsnr" v="835746" />
	</node>
	<node lat="60.44145832958655" lon="5.089816675394787" id="-74004">
		<tag k="name" v="Nordre Skaget" />
		<tag k="natural" v="cape" />
		<tag k="ssr:stedsnr" v="835704" />
	</node>
	<node lat="60.41361388538458" lon="5.151383324920066" id="-74005">
		<tag k="bridge" v="yes" />
		<tag k="layer" v="1" />
		<tag k="name" v="Haugadalen" />
		<tag k="ssr:stedsnr" v="836170" />
	</node>
	<node lat="60.45009444749488" lon="5.1604138835582045" id="-74016">
		<tag k="alt_name" v="Søndre Haugland;Søre Haugland" />
		<tag k="fixme" v="consider place=hamlet" />
		<tag k="name" v="Haugland" />
		<tag k="place" v="farm" />
		<tag k="ssr:stedsnr" v="855559" />
	</node>
	<node lat="60.41297499793435" lon="5.120916665547189" id="-74017">
		<tag k="name" v="Bukkholmen" />
		<tag k="place" v="islet" />
		<tag k="ssr:stedsnr" v="855577" />
	</node>
	<node lat="60.41424064909422" lon="5.158870552882653" id="-74018">
		<tag k="name" v="Hovestølen" />
		<tag k="place" v="farm" />
		<tag k="ssr:stedsnr" v="855581" />
	</node>
	<node lat="60.41959464910087" lon="5.176856358863062" id="-74019">
		<tag k="alt_name" v="Lindaker" />
		<tag k="name" v="Linåker" />
		<tag k="place" v="farm" />
		<tag k="ssr:stedsnr" v="855632" />
	</node>
	<node lat="60.504847226606536" lon="5.153130552050868" id="-74020">
		<tag k="name" v="Revaneset" />
		<tag k="natural" v="cape" />
		<tag k="ssr:stedsnr" v="856551" />
	</node>
	<node lat="60.50185278094645" lon="5.090113893986146" id="-74022">
		<tag k="name" v="Kjerrgarden" />
		<tag k="place" v="village" />
		<tag k="ssr:stedsnr" v="856698" />
	</node>
	<node lat="60.538441662475606" lon="5.017174993777953" id="-74024">
		<tag k="fixme" v="consider place=hamlet" />
		<tag k="name" v="Abbedisso" />
		<tag k="place" v="farm" />
		<tag k="ssr:stedsnr" v="856711" />
	</node>
	<node lat="60.53705555613843" lon="4.957074992757057" id="-74025">
		<tag k="name" v="Okseflua" />
		<tag k="natural" v="shoal" />
		<tag k="place" v="locality" />
		<tag k="ssr:stedsnr" v="856725" />
	</node>
	<node lat="60.50328611069735" lon="5.0068749919926425" id="-74026">
		<tag k="name" v="Storøyålen" />
		<tag k="natural" v="strait" />
		<tag k="ssr:stedsnr" v="856678" />
	</node>
	<node lat="60.412611113904724" lon="5.2132972154632755" id="-74027">
		<tag k="name" v="Solli" />
		<tag k="place" v="farm" />
		<tag k="ssr:stedsnr" v="874961" />
	</node>
	<node lat="60.532286111415424" lon="4.997480550801203" id="-74028">
		<tag k="alt_name" v="Nedre Skråmestø" />
		<tag k="name" v="Nedra Skråmestø" />
		<tag k="place" v="farm" />
		<tag k="ssr:stedsnr" v="874519" />
	</node>
	<node lat="60.509852779962976" lon="5.14936666339578" id="-74029">
		<tag k="name" v="Nordre Hanevikskallen" />
		<tag k="natural" v="shoal" />
		<tag k="place" v="locality" />
		<tag k="ssr:stedsnr" v="874499" />
	</node>
	<node lat="60.42744763610668" lon="5.165509346746606" id="-74032">
		<tag k="alt_name" v="Krokåsvågen" />
		<tag k="name" v="Kråkåsvågen" />
		<tag k="natural" v="bay" />
		<tag k="ssr:stedsnr" v="874748" />
	</node>
	<node lat="60.50765833477057" lon="5.15983610548121" id="-74036">
		<tag k="name" v="Søre Hanevikskallen" />
		<tag k="natural" v="shoal" />
		<tag k="place" v="locality" />
		<tag k="ssr:stedsnr" v="935495" />
	</node>
	<node lat="60.42459166738221" lon="5.246174993854772" id="-74039">
		<tag k="name" v="Drageidet" />
		<tag k="natural" v="bay" />
		<tag k="ssr:stedsnr" v="936720" />
	</node>
	<node lat="60.44429444867493" lon="5.134449992726057" id="-74041">
		<tag k="name" v="Tveitevågen" />
		<tag k="natural" v="bay" />
		<tag k="ssr:stedsnr" v="936880" />
	</node>
	<node lat="60.55850555478613" lon="4.964419452013426" id="-74044">
		<tag k="fixme" v="consider natural=peak for the most distinct mountains in the district" />
		<tag k="name" v="Middagsfjellet" />
		<tag k="natural" v="hill" />
		<tag k="place" v="locality" />
		<tag k="ssr:stedsnr" v="955270" />
	</node>
	<node lat="60.45080414249995" lon="5.085912115424284" id="-74046">
		<tag k="name" v="Botatjørna" />
		<tag k="natural" v="water" />
		<tag k="ssr:stedsnr" v="955310" />
	</node>
	<node lat="60.47806389149676" lon="5.151741671900395" id="-74047">
		<tag k="name" v="Dagrosholet" />
		<tag k="natural" v="valley" />
		<tag k="place" v="locality" />
		<tag k="ssr:stedsnr" v="955325" />
	</node>
	<node lat="60.486883336686184" lon="5.197388889301745" id="-74048">
		<tag k="name" v="Tremmene" />
		<tag k="place" v="locality" />
		<tag k="ssr:stedsnr" v="955523" />
	</node>
	<node lat="60.49238055508766" lon="5.149286106712797" id="-74049">
		<tag k="historic" v="shieling" />
		<tag k="name" v="Hanevikstølen" />
		<tag k="place" v="locality" />
		<tag k="ssr:stedsnr" v="955526" />
	</node>
	<node lat="60.48579444856934" lon="5.146941674870869" id="-74050">
		<tag k="name" v="Storemyrhaugen" />
		<tag k="natural" v="hill" />
		<tag k="place" v="locality" />
		<tag k="ssr:stedsnr" v="955530" />
	</node>
	<node lat="60.48988333263478" lon="5.185158339594115" id="-74051">
		<tag k="name" v="Kjøringadalen" />
		<tag k="natural" v="valley" />
		<tag k="place" v="locality" />
		<tag k="ssr:stedsnr" v="955536" />
	</node>
	<node lat="60.4154444426605" lon="5.241452771183042" id="-74054">
		<tag k="name" v="Ekrene" />
		<tag k="place" v="farm" />
		<tag k="ssr:stedsnr" v="955383" />
	</node>
	<node lat="60.51603055650565" lon="5.082791666513845" id="-74055">
		<tag k="name" v="Høgholmen" />
		<tag k="place" v="islet" />
		<tag k="ssr:stedsnr" v="955587" />
	</node>
	<node lat="60.399238886765716" lon="5.1732111147677795" id="-74056">
		<tag k="fixme" v="consider natural=peak for the most distinct mountains in the district" />
		<tag k="name" v="Brakåsfjellet" />
		<tag k="natural" v="hill" />
		<tag k="place" v="locality" />
		<tag k="ssr:stedsnr" v="955881" />
	</node>
	<node lat="60.4033333364401" lon="5.1559888875620965" id="-74057">
		<tag k="name" v="Byneset" />
		<tag k="natural" v="cape" />
		<tag k="ssr:stedsnr" v="955888" />
	</node>
	<node lat="60.41262221996564" lon="5.1530833288803075" id="-74058">
		<tag k="name" v="Åsen" />
		<tag k="place" v="farm" />
		<tag k="ssr:stedsnr" v="955890" />
	</node>
	<node lat="60.427083333666026" lon="5.150486112636766" id="-74059">
		<tag k="name" v="Stegane" />
		<tag k="place" v="farm" />
		<tag k="ssr:stedsnr" v="955892" />
	</node>
	<node lat="60.459582735646606" lon="5.223432870282671" id="-74060">
		<tag k="name" v="Jomfrutjørna" />
		<tag k="natural" v="water" />
		<tag k="ssr:stedsnr" v="955895" />
	</node>
	<node lat="60.46730516453331" lon="5.221227471651667" id="-74061">
		<tag k="name" v="Gjeddetjørna" />
		<tag k="natural" v="water" />
		<tag k="ssr:stedsnr" v="955896" />
	</node>
	<node lat="60.45744444743879" lon="5.217211104549119" id="-74062">
		<tag k="name" v="Oterneset" />
		<tag k="natural" v="cape" />
		<tag k="ssr:stedsnr" v="955899" />
	</node>
	<node lat="60.54970278041437" lon="4.9658999980865834" id="-74064">
		<tag k="name" v="Storhaugen" />
		<tag k="natural" v="hill" />
		<tag k="place" v="locality" />
		<tag k="ssr:stedsnr" v="955934" />
	</node>
	<node lat="60.48983889061617" lon="5.126836114645593" id="-74065">
		<tag k="name" v="Setene" />
		<tag k="place" v="locality" />
		<tag k="ssr:stedsnr" v="955960" />
	</node>
	<node lat="60.43847777348216" lon="5.0553388865839946" id="-74066">
		<tag k="name" v="Grisavika" />
		<tag k="natural" v="bay" />
		<tag k="ssr:stedsnr" v="955967" />
	</node>
	<node lat="60.49276111121952" lon="5.090966664246265" id="-74067">
		<tag k="name" v="Kobbeneset" />
		<tag k="natural" v="cape" />
		<tag k="ssr:stedsnr" v="955729" />
	</node>
	<node lat="60.48223925027357" lon="5.214445090894704" id="-74090">
		<tag k="fixme" v="consider place=hamlet" />
		<tag k="name" v="Ask" />
		<tag k="place" v="farm" />
		<tag k="ssr:stedsnr" v="989724" />
	</node>
	<node lat="60.43760631761604" lon="5.22745847208234" id="-74091">
		<tag k="fixme" v="consider place=hamlet" />
		<tag k="name" v="Erdal" />
		<tag k="place" v="farm" />
		<tag k="ssr:stedsnr" v="989728" />
	</node>
	<node lat="60.490339533457714" lon="5.065870242261537" id="-74308">
		<tag k="name" v="Risøykylpa" />
		<tag k="place" v="locality" />
		<tag k="ssr:stedsnr" v="1072071" />
	</node>
	<node lat="60.52723489779768" lon="5.059185611499345" id="-74309">
		<tag k="name" v="Notabu" />
		<tag k="natural" v="bay" />
		<tag k="ssr:stedsnr" v="1072170" />
	</node>
	<node lat="60.527089458589614" lon="5.0598433211422975" id="-74310">
		<tag k="name" v="Kammerset" />
		<tag k="natural" v="bay" />
		<tag k="ssr:stedsnr" v="1072171" />
	</node>
	<node lat="60.52735361222933" lon="5.05810931742922" id="-74311">
		<tag k="name" v="Garnstolen" />
		<tag k="natural" v="cape" />
		<tag k="ssr:stedsnr" v="1072172" />
	</node>
	<node lat="60.39831560557905" lon="5.1856817687669645" id="-74322">
		<tag k="name" v="Jensaholmen" />
		<tag k="place" v="islet" />
		<tag k="ssr:stedsnr" v="1079575" />
	</node>
	<node lat="60.418975005770584" lon="5.202662228052737" id="-74324">
		<tag k="name" v="Kleppe" />
		<tag k="place" v="hamlet" />
		<tag k="ssr:stedsnr" v="1080314" />
	</node>
</osm>
