<?xml version="1.0" encoding="UTF-8"?>
<osm generator="osmapis" version="0.6">
	<node id="-63701" lat="60.4223333347" lon="5.24424166926">
		<tag k="bridge" v="yes" />
		<tag k="layer" v="1" />
		<tag k="name" v="Florvågøy" />
		<tag k="ssr:stedsnr" v="350193" />
	</node>
	<node id="-64121" lat="60.4234555573" lon="5.24316945215">
		<tag k="bridge" v="yes" />
		<tag k="layer" v="1" />
		<tag k="name" v="Drageidet" />
		<tag k="ssr:stedsnr" v="957208" />
	</node>
	<node id="-63212" lat="60.4054138865" lon="5.21992778678">
		<tag k="bridge" v="yes" />
		<tag k="layer" v="1" />
		<tag k="name" v="Holmedalen" />
		<tag k="ssr:stedsnr" v="715220" />
	</node>
	<node id="-63702" lat="60.3973000036" lon="5.17451666887">
		<tag k="bridge" v="yes" />
		<tag k="layer" v="1" />
		<tag k="name" v="Marikoven" />
		<tag k="ssr:stedsnr" v="350197" />
	</node>
	<node id="-63573" lat="60.4472777745" lon="5.1033999927">
		<tag k="bridge" v="yes" />
		<tag k="layer" v="1" />
		<tag k="name" v="Marholm" />
		<tag k="ssr:stedsnr" v="108217" />
	</node>
	<node id="-63549" lat="60.5073111152" lon="5.09498055233">
		<tag k="highway" v="path" />
		<tag k="name" v="Søre Stigen" />
		<tag k="ssr:stedsnr" v="106540" />
	</node>
	<node id="-63023" lat="60.4237454625" lon="5.24385417408">
		<tag k="name" v="Skitnehola" />
		<tag k="ssr:stedsnr" v="348253" />
		<tag k="waterway" v="canal" />
	</node>
	<node id="-63150" lat="60.4554416681" lon="5.22600832524">
		<tag k="bridge" v="yes" />
		<tag k="layer" v="1" />
		<tag k="name" v="Olaviken" />
		<tag k="ssr:stedsnr" v="533213" />
	</node>
	<node id="-63149" lat="60.4129611116" lon="5.22642221318">
		<tag k="bridge" v="yes" />
		<tag k="layer" v="1" />
		<tag k="name" v="Kleppestø" />
		<tag k="ssr:stedsnr" v="533212" />
	</node>
	<node id="-63148" lat="60.4882833351" lon="5.20143611934">
		<tag k="bridge" v="yes" />
		<tag k="layer" v="1" />
		<tag k="name" v="Bakkeland" />
		<tag k="ssr:stedsnr" v="533207" />
	</node>
	<node id="-63398" lat="60.4431861094" lon="5.07046667013">
		<tag k="bridge" v="yes" />
		<tag k="layer" v="1" />
		<tag k="name" v="Litla Lauvøysundet" />
		<tag k="ssr:stedsnr" v="836172" />
	</node>
	<node id="-63397" lat="60.4136138854" lon="5.15138332492">
		<tag k="bridge" v="yes" />
		<tag k="layer" v="1" />
		<tag k="name" v="Haugadalen" />
		<tag k="ssr:stedsnr" v="836170" />
	</node>
	<node id="-63907" lat="60.459758336" lon="5.15040833196">
		<tag k="bridge" v="yes" />
		<tag k="layer" v="1" />
		<tag k="name" v="Ravnanger" />
		<tag k="ssr:stedsnr" v="593199" />
	</node>
	<node id="-63906" lat="60.4519611129" lon="5.10322500671">
		<tag k="bridge" v="yes" />
		<tag k="layer" v="1" />
		<tag k="name" v="Evjevik" />
		<tag k="ssr:stedsnr" v="593196" />
	</node>
	<node id="-63772" lat="60.5089499976" lon="5.07861111014">
		<tag k="bridge" v="yes" />
		<tag k="layer" v="1" />
		<tag k="name" v="Berland" />
		<tag k="ssr:stedsnr" v="411215" />
	</node>
	<node id="-63151" lat="60.4539083331" lon="5.09482221379">
		<tag k="bridge" v="yes" />
		<tag k="layer" v="1" />
		<tag k="name" v="Tverrmeisa" />
		<tag k="ssr:stedsnr" v="533217" />
	</node>
	<node id="-63510" lat="60.4302166683" lon="5.19022222587">
		<tag k="bridge" v="yes" />
		<tag k="layer" v="1" />
		<tag k="name" v="Juvikflaten" />
		<tag k="ssr:stedsnr" v="47223" />
	</node>
	<node id="-62869" lat="60.4474416656" lon="5.15981667317">
		<tag k="bridge" v="yes" />
		<tag k="layer" v="1" />
		<tag k="name" v="Loneelva" />
		<tag k="ssr:stedsnr" v="168213" />
	</node>
	<node id="-62868" lat="60.5009416692" lon="5.08293888166">
		<tag k="bridge" v="yes" />
		<tag k="layer" v="1" />
		<tag k="name" v="Fromreidstraumen" />
		<tag k="ssr:stedsnr" v="168204" />
	</node>
	<node id="-63248" lat="60.5609222183" lon="4.96168055023">
		<tag k="bridge" v="yes" />
		<tag k="layer" v="1" />
		<tag k="name" v="Herdlesundet" />
		<tag k="ssr:stedsnr" v="654216" />
	</node>
	<node id="-64140" lat="60.4903395335" lon="5.06587024226">
		<tag k="name" v="Risøykylpa" />
		<tag k="place" v="locality" />
		<tag k="ssr:stedsnr" v="1072071" />
	</node>
	<node id="-63883" lat="60.4844194404" lon="5.12970555813">
		<tag k="fixme" v="consider highway=path" />
		<tag k="highway" v="track" />
		<tag k="name" v="Stølsvegen" />
		<tag k="ssr:stedsnr" v="591513" />
	</node>
	<node id="-62978" lat="60.415188893" lon="5.23705278111">
		<tag k="bridge" v="yes" />
		<tag k="layer" v="1" />
		<tag k="name" v="Florvåg" />
		<tag k="ssr:stedsnr" v="290211" />
	</node>
</osm>
