<?xml version="1.0" encoding="UTF-8"?>
<<<<<<< HEAD
<osm version="0.6" generator="osmapis">
	<node lat="60.525837306824535" lon="5.027653876117436" id="-35917">
		<tag k="name" v="Tjørna" />
		<tag k="natural" v="water" />
		<tag k="ssr:stedsnr" v="45282" />
	</node>
	<node lat="60.51065277988541" lon="5.069836107331309" id="-35922">
		<tag k="name" v="Berlandstjørna" />
		<tag k="natural" v="water" />
		<tag k="ssr:stedsnr" v="45547" />
	</node>
	<node lat="60.419809348396" lon="5.181095735162043" id="-35950">
		<tag k="alt_name" v="Krokåsvatnet" />
		<tag k="name" v="Kråkåsvatnet" />
		<tag k="natural" v="water" />
		<tag k="ssr:stedsnr" v="85986" />
		<tag k="water" v="lake" />
	</node>
	<node lat="60.477433857815996" lon="5.118459710158163" id="-35951">
		<tag k="name" v="Svartetjørna" />
		<tag k="natural" v="water" />
		<tag k="ssr:stedsnr" v="248350" />
	</node>
	<node lat="60.529860053462635" lon="5.003633322756746" id="-35993">
		<tag k="name" v="Bekkevatnet" />
		<tag k="natural" v="water" />
		<tag k="ssr:stedsnr" v="249691" />
	</node>
	<node lat="60.52436111194062" lon="5.010311111755912" id="-36002">
		<tag k="name" v="Furevatnet" />
		<tag k="natural" v="water" />
		<tag k="ssr:stedsnr" v="127697" />
	</node>
	<node lat="60.485597221071714" lon="5.169683325662167" id="-36013">
		<tag k="name" v="Sanden" />
		<tag k="natural" v="beach" />
		<tag k="ssr:stedsnr" v="166512" />
	</node>
	<node lat="60.477234623199664" lon="5.104915105433207" id="-36028">
		<tag k="name" v="Skogatjørna" />
		<tag k="natural" v="water" />
		<tag k="ssr:stedsnr" v="187377" />
	</node>
	<node lat="60.45314386595833" lon="5.2240997207153965" id="-36037">
		<tag k="name" v="Møllevatnet" />
		<tag k="natural" v="water" />
		<tag k="ssr:stedsnr" v="227384" />
		<tag k="water" v="lake" />
	</node>
	<node lat="60.45496666707974" lon="5.142097229417862" id="-36052">
		<tag k="name" v="Vassholmen" />
		<tag k="place" v="islet" />
		<tag k="ssr:stedsnr" v="227908" />
	</node>
	<node lat="60.498201269548424" lon="5.139351937650982" id="-36071">
		<tag k="name" v="Bottsvatnet" />
		<tag k="natural" v="water" />
		<tag k="ssr:stedsnr" v="248468" />
	</node>
	<node lat="60.4975804315485" lon="5.096064849138789" id="-36072">
		<tag k="name" v="Kråvatnet" />
		<tag k="natural" v="water" />
		<tag k="ssr:stedsnr" v="248469" />
	</node>
	<node lat="60.459591669895744" lon="5.21710000163404" id="-36076">
		<tag k="name" v="Dyrneset" />
		<tag k="natural" v="cape" />
		<tag k="ssr:stedsnr" v="248549" />
	</node>
	<node lat="60.49448094514683" lon="5.1028032525838265" id="-36085">
		<tag k="name" v="Hundetjørna" />
		<tag k="natural" v="water" />
		<tag k="ssr:stedsnr" v="287330" />
	</node>
	<node lat="60.505235743606285" lon="5.133536385513985" id="-36103">
		<tag k="name" v="Langavatnet" />
		<tag k="natural" v="water" />
		<tag k="ssr:stedsnr" v="288498" />
		<tag k="water" v="lake" />
	</node>
	<node lat="60.47368432081966" lon="5.078789019178969" id="-36107">
		<tag k="name" v="Seiatjørna" />
		<tag k="natural" v="water" />
		<tag k="ssr:stedsnr" v="289775" />
	</node>
	<node lat="60.40035219485053" lon="5.171366066582704" id="-36124">
		<tag k="name" v="Storatjørna" />
		<tag k="natural" v="water" />
		<tag k="ssr:stedsnr" v="469388" />
	</node>
	<node lat="60.50243842295339" lon="5.13731485310783" id="-36133">
		<tag k="name" v="Hofalltjørna" />
		<tag k="natural" v="water" />
		<tag k="ssr:stedsnr" v="470540" />
	</node>
	<node lat="60.42748314848705" lon="5.213854160883164" id="-36138">
		<tag k="name" v="Kattatjørna" />
		<tag k="natural" v="water" />
		<tag k="ssr:stedsnr" v="470636" />
	</node>
	<node lat="60.490808318155636" lon="5.1073493747330785" id="-36145">
		<tag k="name" v="Langetjørna" />
		<tag k="natural" v="water" />
		<tag k="ssr:stedsnr" v="348305" />
	</node>
	<node lat="60.52518055813918" lon="5.0147388876669385" id="-36149">
		<tag k="name" v="Skogdalstjørna" />
		<tag k="natural" v="water" />
		<tag k="ssr:stedsnr" v="348270" />
	</node>
	<node lat="60.54734422247561" lon="4.9843143616069225" id="-36175">
		<tag k="name" v="Merkesvikvatnet" />
		<tag k="natural" v="water" />
		<tag k="ssr:stedsnr" v="370725" />
	</node>
	<node lat="60.47368142384847" lon="5.075676410278026" id="-36183">
		<tag k="name" v="Nordre Migen" />
		<tag k="natural" v="water" />
		<tag k="ssr:stedsnr" v="409303" />
		<tag k="water" v="lake" />
	</node>
	<node lat="60.49840182708008" lon="5.0470453176342405" id="-36187">
		<tag k="name" v="Vestra Vatnet" />
		<tag k="natural" v="water" />
		<tag k="ssr:stedsnr" v="409295" />
		<tag k="water" v="lake" />
	</node>
	<node lat="60.49209722388862" lon="5.113647217145535" id="-36194">
		<tag k="name" v="Grønålen" />
		<tag k="ssr:stedsnr" v="409720" />
		<tag k="waterway" v="stream" />
	</node>
	<node lat="60.470939591253185" lon="5.107128508451806" id="-36207">
		<tag k="name" v="Dammen" />
		<tag k="natural" v="water" />
		<tag k="ssr:stedsnr" v="410729" />
		<tag k="water" v="lake" />
	</node>
	<node lat="60.41644519507863" lon="5.23522063575185" id="-36215">
		<tag k="name" v="Kopparvatnet" />
		<tag k="natural" v="water" />
		<tag k="ssr:stedsnr" v="490556" />
	</node>
	<node lat="60.40458825951286" lon="5.170678124664708" id="-36222">
		<tag k="name" v="Træsvatnet" />
		<tag k="natural" v="water" />
		<tag k="ssr:stedsnr" v="430602" />
	</node>
	<node lat="60.4530580986312" lon="5.1895243362838395" id="-36224">
		<tag k="name" v="Ingjerdsvatnet" />
		<tag k="natural" v="water" />
		<tag k="ssr:stedsnr" v="430547" />
	</node>
	<node lat="60.53792500348365" lon="4.992949991938939" id="-36226">
		<tag k="name" v="Oksnesvatnet" />
		<tag k="natural" v="water" />
		<tag k="ssr:stedsnr" v="431723" />
	</node>
	<node lat="60.48340000271336" lon="5.180577781769844" id="-36232">
		<tag k="name" v="Øyna" />
		<tag k="place" v="islet" />
		<tag k="ssr:stedsnr" v="491394" />
	</node>
	<node lat="60.461732156012324" lon="5.120191919613809" id="-36243">
		<tag k="name" v="Svartevatnet" />
		<tag k="natural" v="water" />
		<tag k="ssr:stedsnr" v="551397" />
	</node>
	<node lat="60.4619913175335" lon="5.212089369301914" id="-36247">
		<tag k="name" v="Hopsvatnet" />
		<tag k="natural" v="water" />
		<tag k="ssr:stedsnr" v="672396" />
		<tag k="water" v="lake" />
	</node>
	<node lat="60.50503602118452" lon="5.04501054215213" id="-36260">
		<tag k="name" v="Rottjørna" />
		<tag k="natural" v="water" />
		<tag k="ssr:stedsnr" v="469286" />
	</node>
	<node lat="60.45340807443589" lon="5.126997219427709" id="-36268">
		<tag k="name" v="Hundtjørna" />
		<tag k="natural" v="water" />
		<tag k="ssr:stedsnr" v="470616" />
	</node>
	<node lat="60.474459605768295" lon="5.111059675643999" id="-36273">
		<tag k="name" v="Bustevatnet" />
		<tag k="natural" v="water" />
		<tag k="ssr:stedsnr" v="470712" />
		<tag k="water" v="lake" />
	</node>
	<node lat="60.41627838768039" lon="5.174020679274973" id="-36281">
		<tag k="name" v="Follesevatnet" />
		<tag k="natural" v="water" />
		<tag k="ssr:stedsnr" v="490607" />
	</node>
	<node lat="60.50466768059062" lon="5.049705536736519" id="-36302">
		<tag k="name" v="Skiparvatnet" />
		<tag k="natural" v="water" />
		<tag k="ssr:stedsnr" v="530582" />
		<tag k="water" v="lake" />
	</node>
	<node lat="60.42856944628973" lon="5.208586102087151" id="-36315">
		<tag k="name" v="Rørebekken" />
		<tag k="ssr:stedsnr" v="531681" />
		<tag k="waterway" v="stream" />
	</node>
	<node lat="60.48332990937232" lon="5.096654819028481" id="-36317">
		<tag k="name" v="Svartepyttjørna" />
		<tag k="natural" v="water" />
		<tag k="ssr:stedsnr" v="531729" />
	</node>
	<node lat="60.47823825687775" lon="5.087580291916722" id="-36338">
		<tag k="name" v="Kremmarvatnet" />
		<tag k="natural" v="water" />
		<tag k="ssr:stedsnr" v="590317" />
		<tag k="water" v="lake" />
	</node>
	<node lat="60.50884553868943" lon="5.037600347760435" id="-36365">
		<tag k="name" v="Søra Vatnet" />
=======
<osm generator="osmapis" version="0.6">
	<node id="-640511" lat="60.4935619621" lon="5.11183584037">
		<tag k="name" v="Stordiket" />
		<tag k="natural" v="water" />
		<tag k="ssr:stedsnr" v="227743" />
	</node>
	<node id="-641530" lat="60.4508522253" lon="5.08956155541">
		<tag k="name" v="Storavatnet" />
		<tag k="natural" v="water" />
		<tag k="ssr:stedsnr" v="530348" />
		<tag k="water" v="lake" />
	</node>
	<node id="-641516" lat="60.5379250035" lon="4.99294999194">
		<tag k="name" v="Oksnesvatnet" />
		<tag k="natural" v="water" />
		<tag k="ssr:stedsnr" v="431723" />
	</node>
	<node id="-641002" lat="60.4733725933" lon="5.0857998352">
		<tag k="name" v="Nordre Rotevatnet" />
		<tag k="natural" v="water" />
		<tag k="ssr:stedsnr" v="894956" />
		<tag k="water" v="lake" />
	</node>
	<node id="-640488" lat="60.4159021227" lon="5.23946210816">
		<tag k="name" v="Storavatnet" />
		<tag k="natural" v="water" />
		<tag k="ssr:stedsnr" v="227268" />
		<tag k="water" v="lake" />
	</node>
	<node id="-640999" lat="60.5217000042" lon="5.01688333047">
		<tag k="name" v="Støletjørna" />
		<tag k="natural" v="water" />
		<tag k="ssr:stedsnr" v="894945" />
	</node>
	<node id="-640486" lat="60.4146552142" lon="5.23203709191">
		<tag k="name" v="Rotavatnet" />
		<tag k="natural" v="water" />
		<tag k="ssr:stedsnr" v="227259" />
		<tag k="water" v="lake" />
	</node>
	<node id="-641509" lat="60.4530580986" lon="5.18952433628">
		<tag k="name" v="Ingjerdsvatnet" />
		<tag k="natural" v="water" />
		<tag k="ssr:stedsnr" v="430547" />
	</node>
	<node id="-641507" lat="60.4849166644" lon="5.19010278199">
		<tag k="name" v="Ormaneset" />
		<tag k="natural" v="cape" />
		<tag k="ssr:stedsnr" v="430369" />
	</node>
	<node id="-640992" lat="60.4564172293" lon="5.10710469322">
		<tag k="name" v="Kollevågtjørna" />
		<tag k="natural" v="water" />
		<tag k="ssr:stedsnr" v="894350" />
	</node>
	<node id="-640991" lat="60.48432083" lon="5.10309207123">
		<tag k="name" v="Svartepyttvatnet" />
		<tag k="natural" v="water" />
		<tag k="ssr:stedsnr" v="894345" />
		<tag k="water" v="lake" />
	</node>
	<node id="-640989" lat="60.5072089771" lon="5.04392810657">
		<tag k="name" v="Kaldtjørna" />
		<tag k="natural" v="water" />
		<tag k="ssr:stedsnr" v="894329" />
	</node>
	<node id="-641500" lat="60.4718932025" lon="5.08660212014">
		<tag k="name" v="Søre Rotevatnet" />
		<tag k="natural" v="water" />
		<tag k="ssr:stedsnr" v="419727" />
		<tag k="water" v="lake" />
	</node>
	<node id="-640986" lat="60.5208087084" lon="5.00783485515">
		<tag k="name" v="Straumsvatnet" />
		<tag k="natural" v="water" />
		<tag k="ssr:stedsnr" v="894323" />
		<tag k="water" v="lake" />
	</node>
	<node id="-641497" lat="60.4709395913" lon="5.10712850845">
		<tag k="name" v="Dammen" />
		<tag k="natural" v="water" />
		<tag k="ssr:stedsnr" v="410729" />
		<tag k="water" v="lake" />
	</node>
	<node id="-641491" lat="60.4665583314" lon="5.19298889356">
		<tag k="name" v="Fjellvasselva" />
		<tag k="ssr:stedsnr" v="410671" />
		<tag k="waterway" v="stream" />
	</node>
	<node id="-640973" lat="60.4732796941" lon="5.08323582011">
		<tag k="name" v="Maradalsvatnet" />
		<tag k="natural" v="water" />
		<tag k="ssr:stedsnr" v="652711" />
		<tag k="water" v="lake" />
	</node>
	<node id="-641482" lat="60.4920972239" lon="5.11364721715">
		<tag k="name" v="Grønålen" />
		<tag k="ssr:stedsnr" v="409720" />
		<tag k="waterway" v="stream" />
	</node>
	<node id="-640966" lat="60.5092610216" lon="5.09659209029">
		<tag k="name" v="Purketjørna" />
		<tag k="natural" v="water" />
		<tag k="ssr:stedsnr" v="651305" />
	</node>
	<node id="-641476" lat="60.532762094" lon="5.01305724877">
		<tag k="name" v="Vadtjørna" />
		<tag k="natural" v="water" />
		<tag k="ssr:stedsnr" v="409594" />
	</node>
	<node id="-640843" lat="60.4619913175" lon="5.2120893693">
		<tag k="name" v="Hopsvatnet" />
		<tag k="natural" v="water" />
		<tag k="ssr:stedsnr" v="672396" />
		<tag k="water" v="lake" />
	</node>
	<node id="-640957" lat="60.4742679516" lon="5.10445583297">
		<tag k="name" v="Sagvatnet" />
		<tag k="natural" v="water" />
		<tag k="ssr:stedsnr" v="734453" />
	</node>
	<node id="-641462" lat="60.4984018271" lon="5.04704531763">
		<tag k="name" v="Vestra Vatnet" />
		<tag k="natural" v="water" />
		<tag k="ssr:stedsnr" v="409295" />
		<tag k="water" v="lake" />
	</node>
	<node id="-641461" lat="60.5310583313" lon="5.00423611727">
		<tag k="name" v="Øyravatnet" />
		<tag k="natural" v="water" />
		<tag k="ssr:stedsnr" v="409283" />
		<tag k="water" v="lake" />
	</node>
	<node id="-640540" lat="60.4982012695" lon="5.13935193765">
		<tag k="name" v="Bottsvatnet" />
		<tag k="natural" v="water" />
		<tag k="ssr:stedsnr" v="248468" />
	</node>
	<node id="-641453" lat="60.5473442225" lon="4.98431436161">
		<tag k="name" v="Merkesvikvatnet" />
		<tag k="natural" v="water" />
		<tag k="ssr:stedsnr" v="370725" />
	</node>
	<node id="-641036" lat="60.4561488761" lon="5.12752700875">
		<tag k="name" v="Holatjørna" />
		<tag k="natural" v="water" />
		<tag k="ssr:stedsnr" v="895653" />
	</node>
	<node id="-641442" lat="60.4262825611" lon="5.20719779321">
		<tag k="name" v="Kleppevatnet" />
		<tag k="natural" v="water" />
		<tag k="ssr:stedsnr" v="369556" />
	</node>
	<node id="-640926" lat="60.4478881308" lon="5.17635415663">
		<tag k="name" v="Fagerdalstjørna" />
		<tag k="natural" v="water" />
		<tag k="ssr:stedsnr" v="713650" />
	</node>
	<node id="-640925" lat="60.4789454036" lon="5.2014965499">
		<tag k="name" v="Mølledammen" />
		<tag k="natural" v="water" />
		<tag k="ssr:stedsnr" v="713778" />
		<tag k="water" v="lake" />
	</node>
	<node id="-641435" lat="60.4755660961" lon="5.1600670726">
		<tag k="name" v="Båtevikvatnet" />
		<tag k="natural" v="water" />
		<tag k="ssr:stedsnr" v="369381" />
	</node>
	<node id="-641434" lat="60.4947353724" lon="5.18232241894">
		<tag k="name" v="Saltbuvatnet" />
		<tag k="natural" v="water" />
		<tag k="ssr:stedsnr" v="369355" />
	</node>
	<node id="-640909" lat="60.4463750036" lon="5.12530555057">
		<tag k="name" v="Kobbatjørna" />
		<tag k="natural" v="water" />
		<tag k="ssr:stedsnr" v="712322" />
	</node>
	<node id="-640908" lat="60.4958138882" lon="5.16301944859">
		<tag k="name" v="Huneviksholmen" />
		<tag k="place" v="islet" />
		<tag k="ssr:stedsnr" v="712312" />
	</node>
	<node id="-640903" lat="60.4802304312" lon="5.11257547591">
		<tag k="name" v="Nordre Fagerbakktjørna" />
		<tag k="natural" v="water" />
		<tag k="ssr:stedsnr" v="712282" />
	</node>
	<node id="-640900" lat="60.4947861101" lon="5.12065278058">
		<tag k="name" v="Kjerrgardselva" />
		<tag k="ssr:stedsnr" v="712277" />
		<tag k="waterway" v="stream" />
	</node>
	<node id="-640898" lat="60.4975111453" lon="5.05762245779">
		<tag k="name" v="Straumsvatnet" />
		<tag k="natural" v="water" />
		<tag k="ssr:stedsnr" v="712262" />
		<tag k="water" v="lake" />
	</node>
	<node id="-641408" lat="60.4240349743" lon="5.23464596605">
		<tag k="name" v="Nyavatnet" />
>>>>>>> e1d4bc35ff8a6074a6f2e91616a996b547c36f15
		<tag k="natural" v="water" />
		<tag k="ssr:stedsnr" v="348350" />
		<tag k="water" v="lake" />
	</node>
<<<<<<< HEAD
	<node lat="60.51300435207851" lon="5.022392312888987" id="-36366">
		<tag k="name" v="Breiviktjørna" />
		<tag k="natural" v="water" />
		<tag k="ssr:stedsnr" v="651298" />
	</node>
	<node lat="60.509261021552135" lon="5.096592090286528" id="-36367">
		<tag k="name" v="Purketjørna" />
		<tag k="natural" v="water" />
		<tag k="ssr:stedsnr" v="651305" />
	</node>
	<node lat="60.459702244638045" lon="5.105201274802788" id="-36368">
		<tag k="name" v="Brekketjørna" />
		<tag k="natural" v="water" />
		<tag k="ssr:stedsnr" v="651315" />
	</node>
	<node lat="60.47327969406159" lon="5.083235820108875" id="-36377">
		<tag k="name" v="Maradalsvatnet" />
		<tag k="natural" v="water" />
		<tag k="ssr:stedsnr" v="652711" />
		<tag k="water" v="lake" />
	</node>
	<node lat="60.491631487445844" lon="5.1218819683246934" id="-36384">
		<tag k="alt_name" v="Kistetjørna" />
		<tag k="name" v="Nordra Kistetjørna" />
		<tag k="natural" v="water" />
		<tag k="ssr:stedsnr" v="673404" />
	</node>
	<node lat="60.484320829975616" lon="5.103092071233757" id="-36397">
		<tag k="name" v="Svartepyttvatnet" />
		<tag k="natural" v="water" />
		<tag k="ssr:stedsnr" v="894345" />
		<tag k="water" v="lake" />
	</node>
	<node lat="60.45641722932851" lon="5.107104693219693" id="-36398">
		<tag k="name" v="Kollevågtjørna" />
		<tag k="natural" v="water" />
		<tag k="ssr:stedsnr" v="894350" />
	</node>
	<node lat="60.52170000422608" lon="5.016883330472673" id="-36408">
		<tag k="name" v="Støletjørna" />
		<tag k="natural" v="water" />
		<tag k="ssr:stedsnr" v="894945" />
	</node>
	<node lat="60.47337259328374" lon="5.085799835204136" id="-36411">
		<tag k="name" v="Nordre Rotevatnet" />
		<tag k="natural" v="water" />
		<tag k="ssr:stedsnr" v="894956" />
		<tag k="water" v="lake" />
	</node>
	<node lat="60.45614887611342" lon="5.127527008754631" id="-36427">
		<tag k="name" v="Holatjørna" />
		<tag k="natural" v="water" />
		<tag k="ssr:stedsnr" v="895653" />
	</node>
	<node lat="60.49478611007463" lon="5.120652780577208" id="-36440">
		<tag k="name" v="Kjerrgardselva" />
		<tag k="ssr:stedsnr" v="712277" />
		<tag k="waterway" v="stream" />
	</node>
	<node lat="60.48023043122178" lon="5.112575475909075" id="-36443">
		<tag k="name" v="Nordre Fagerbakktjørna" />
		<tag k="natural" v="water" />
		<tag k="ssr:stedsnr" v="712282" />
	</node>
	<node lat="60.47894540358027" lon="5.201496549903838" id="-36466">
		<tag k="name" v="Mølledammen" />
		<tag k="natural" v="water" />
		<tag k="ssr:stedsnr" v="713778" />
		<tag k="water" v="lake" />
	</node>
	<node lat="60.474267951574376" lon="5.10445583296828" id="-36473">
		<tag k="name" v="Sagvatnet" />
		<tag k="natural" v="water" />
		<tag k="ssr:stedsnr" v="734453" />
	</node>
	<node lat="60.49818108629823" lon="5.059506567548776" id="-36508">
		<tag k="name" v="Kvernavatnet" />
		<tag k="natural" v="water" />
		<tag k="ssr:stedsnr" v="794212" />
	</node>
	<node lat="60.470605284563625" lon="5.13383293089199" id="-36511">
		<tag k="name" v="Kvernavatnet" />
=======
	<node id="-641406" lat="60.4850055533" lon="5.17655833119">
		<tag k="name" v="Hanevikholmen" />
		<tag k="place" v="islet" />
		<tag k="ssr:stedsnr" v="348336" />
	</node>
	<node id="-641401" lat="60.5109055589" lon="5.03744445294">
		<tag k="name" v="Eidet" />
		<tag k="natural" v="strait" />
		<tag k="ssr:stedsnr" v="329546" />
	</node>
	<node id="-641395" lat="60.5104669687" lon="5.02857712924">
		<tag k="name" v="Storstølvatnet" />
		<tag k="natural" v="water" />
		<tag k="ssr:stedsnr" v="310668" />
	</node>
	<node id="-640743" lat="60.4744596058" lon="5.11105967564">
		<tag k="name" v="Bustevatnet" />
		<tag k="natural" v="water" />
		<tag k="ssr:stedsnr" v="470712" />
		<tag k="water" v="lake" />
	</node>
	<node id="-641383" lat="60.4539427486" lon="5.11556590385">
		<tag k="name" v="Bergsvatnet" />
		<tag k="natural" v="water" />
		<tag k="ssr:stedsnr" v="308512" />
	</node>
	<node id="-641382" lat="60.4543638874" lon="5.17112499181">
		<tag k="name" v="Lonelva" />
		<tag k="ssr:stedsnr" v="308509" />
		<tag k="waterway" v="river" />
	</node>
	<node id="-641381" lat="60.4620251704" lon="5.18645080239">
		<tag k="name" v="Fjellvatnet" />
		<tag k="natural" v="water" />
		<tag k="ssr:stedsnr" v="308378" />
	</node>
	<node id="-640655" lat="60.4549666671" lon="5.14209722942">
		<tag k="name" v="Vassholmen" />
		<tag k="place" v="islet" />
		<tag k="ssr:stedsnr" v="227908" />
	</node>
	<node id="-640849" lat="60.4916314874" lon="5.12188196832">
		<tag k="alt_name" v="Kistetjørna" />
		<tag k="name" v="Nordra Kistetjørna" />
		<tag k="natural" v="water" />
		<tag k="ssr:stedsnr" v="673404" />
	</node>
	<node id="-641355" lat="60.4772346232" lon="5.10491510543">
		<tag k="name" v="Skogatjørna" />
		<tag k="natural" v="water" />
		<tag k="ssr:stedsnr" v="187377" />
	</node>
	<node id="-641354" lat="60.4908349039" lon="5.14753501074">
		<tag k="alt_name" v="Åsebøvatnet" />
		<tag k="name" v="Åsbøvatnet" />
		<tag k="natural" v="water" />
		<tag k="ssr:stedsnr" v="187361" />
	</node>
	<node id="-640840" lat="60.4844066192" lon="5.13758204345">
		<tag k="name" v="Lonevatnet" />
		<tag k="natural" v="water" />
		<tag k="ssr:stedsnr" v="664367" />
	</node>
	<node id="-640836" lat="60.4045882595" lon="5.17067812466">
		<tag k="name" v="Træsvatnet" />
		<tag k="natural" v="water" />
		<tag k="ssr:stedsnr" v="430602" />
	</node>
	<node id="-641346" lat="60.4298721311" lon="5.21750903916">
		<tag k="name" v="Langafjellstjørna" />
>>>>>>> e1d4bc35ff8a6074a6f2e91616a996b547c36f15
		<tag k="natural" v="water" />
		<tag k="ssr:stedsnr" v="167684" />
	</node>
<<<<<<< HEAD
	<node lat="60.478603850147714" lon="5.098536703040447" id="-36516">
		<tag k="name" v="Træsvatnet" />
		<tag k="natural" v="water" />
		<tag k="ssr:stedsnr" v="794382" />
	</node>
	<node lat="60.44498611368107" lon="5.188436117329888" id="-36521">
		<tag k="name" v="Pollelva" />
		<tag k="ssr:stedsnr" v="915482" />
		<tag k="waterway" v="stream" />
	</node>
	<node lat="60.45833641567934" lon="5.1771450839228015" id="-36525">
		<tag k="name" v="Krabbetjørna" />
		<tag k="natural" v="water" />
		<tag k="ssr:stedsnr" v="915518" />
	</node>
	<node lat="60.533121481348914" lon="4.998516192644745" id="-36550">
		<tag k="name" v="Skråmestøvatnet" />
		<tag k="natural" v="water" />
		<tag k="ssr:stedsnr" v="894319" />
		<tag k="water" v="lake" />
	</node>
	<node lat="60.520808708403436" lon="5.007834855154518" id="-36551">
		<tag k="name" v="Straumsvatnet" />
		<tag k="natural" v="water" />
		<tag k="ssr:stedsnr" v="894323" />
		<tag k="water" v="lake" />
	</node>
	<node lat="60.52251490311855" lon="5.021170737512422" id="-36553">
=======
	<node id="-641344" lat="60.5010797774" lon="5.05605252853">
		<tag k="name" v="Småkvernavatnet" />
		<tag k="natural" v="water" />
		<tag k="ssr:stedsnr" v="166942" />
	</node>
	<node id="-641850" lat="60.5558012714" lon="4.9623866871">
		<tag k="name" v="Håpoldskjeret" />
		<tag k="place" v="islet" />
		<tag k="ssr:stedsnr" v="975593" />
	</node>
	<node id="-641844" lat="60.4550611067" lon="5.0967722158">
		<tag k="name" v="Søre Steinseidet" />
		<tag k="natural" v="strait" />
		<tag k="ssr:stedsnr" v="956719" />
	</node>
	<node id="-641328" lat="60.4855972211" lon="5.16968332566">
		<tag k="name" v="Sanden" />
		<tag k="natural" v="beach" />
		<tag k="ssr:stedsnr" v="166512" />
	</node>
	<node id="-640815" lat="60.4736814238" lon="5.07567641028">
		<tag k="name" v="Nordre Migen" />
		<tag k="natural" v="water" />
		<tag k="ssr:stedsnr" v="409303" />
		<tag k="water" v="lake" />
	</node>
	<node id="-641325" lat="60.4817863445" lon="5.15109067228">
		<tag k="name" v="Ravnangertjørna" />
		<tag k="natural" v="water" />
		<tag k="ssr:stedsnr" v="166340" />
	</node>
	<node id="-641835" lat="60.4607346039" lon="5.10921721369">
		<tag k="name" v="Kalsitjørna" />
		<tag k="natural" v="water" />
		<tag k="ssr:stedsnr" v="955946" />
	</node>
	<node id="-640988" lat="60.5225149031" lon="5.02117073751">
>>>>>>> e1d4bc35ff8a6074a6f2e91616a996b547c36f15
		<tag k="name" v="Stemmevatnet" />
		<tag k="natural" v="water" />
		<tag k="ssr:stedsnr" v="894327" />
		<tag k="water" v="lake" />
	</node>
<<<<<<< HEAD
	<node lat="60.50720897710455" lon="5.043928106565283" id="-36554">
		<tag k="name" v="Kaldtjørna" />
		<tag k="natural" v="water" />
		<tag k="ssr:stedsnr" v="894329" />
	</node>
	<node lat="60.4742763898425" lon="5.088128008333551" id="-36572">
		<tag k="name" v="Svartevatnet" />
		<tag k="natural" v="water" />
		<tag k="ssr:stedsnr" v="228756" />
		<tag k="water" v="lake" />
	</node>
	<node lat="60.47666330408285" lon="5.0949661047046195" id="-36585">
		<tag k="name" v="Furekamtjørna" />
		<tag k="natural" v="water" />
		<tag k="ssr:stedsnr" v="955295" />
	</node>
	<node lat="60.460734603929076" lon="5.109217213690517" id="-36590">
		<tag k="name" v="Kalsitjørna" />
		<tag k="natural" v="water" />
		<tag k="ssr:stedsnr" v="955946" />
	</node>
	<node lat="60.455061106736785" lon="5.096772215799312" id="-36594">
		<tag k="name" v="Søre Steinseidet" />
		<tag k="place" v="locality" />
		<tag k="ssr:stedsnr" v="956719" />
	</node>
	<node lat="60.555801271357545" lon="4.9623866870961235" id="-36602">
		<tag k="name" v="Håpoldskjeret" />
		<tag k="place" v="islet" />
		<tag k="ssr:stedsnr" v="975593" />
	</node>
	<node lat="60.50987777685888" lon="5.024644438451209" id="-36626">
		<tag k="name" v="Flatskarvatnet" />
		<tag k="natural" v="water" />
		<tag k="ssr:stedsnr" v="6679" />
	</node>
	<node lat="60.49492985643062" lon="5.133438238068587" id="-36627">
		<tag k="name" v="Lammetovatnet" />
		<tag k="natural" v="water" />
		<tag k="ssr:stedsnr" v="6517" />
	</node>
	<node lat="60.50666926225235" lon="5.118317717776517" id="-36628">
		<tag k="name" v="Siglingavatnet" />
		<tag k="natural" v="water" />
		<tag k="ssr:stedsnr" v="6545" />
	</node>
	<node lat="60.49162777447614" lon="5.154583326701676" id="-36639">
		<tag k="name" v="Hanevikelva" />
		<tag k="old_name" v="Sagelvi;Sageelva" />
		<tag k="ssr:stedsnr" v="45344" />
		<tag k="waterway" v="stream" />
	</node>
	<node lat="60.50019399693025" lon="5.056158434101389" id="-36645">
		<tag k="name" v="Langetjørnane" />
=======
	<node id="-641830" lat="60.4673051645" lon="5.22122747165">
		<tag k="name" v="Gjeddetjørna" />
		<tag k="natural" v="water" />
		<tag k="ssr:stedsnr" v="955896" />
	</node>
	<node id="-641829" lat="60.4595827356" lon="5.22343287028">
		<tag k="name" v="Jomfrutjørna" />
		<tag k="natural" v="water" />
		<tag k="ssr:stedsnr" v="955895" />
	</node>
	<node id="-641316" lat="60.5243611119" lon="5.01031111176">
		<tag k="name" v="Furevatnet" />
		<tag k="natural" v="water" />
		<tag k="ssr:stedsnr" v="127697" />
	</node>
	<node id="-640730" lat="60.502438423" lon="5.13731485311">
		<tag k="name" v="Hofalltjørna" />
		<tag k="natural" v="water" />
		<tag k="ssr:stedsnr" v="470540" />
	</node>
	<node id="-641304" lat="60.4903051152" lon="5.17039996663">
		<tag k="name" v="Askevatnet" />
		<tag k="natural" v="water" />
		<tag k="ssr:stedsnr" v="126386" />
		<tag k="water" v="lake" />
	</node>
	<node id="-640791" lat="60.4162783877" lon="5.17402067927">
		<tag k="name" v="Follesevatnet" />
		<tag k="natural" v="water" />
		<tag k="ssr:stedsnr" v="490607" />
	</node>
	<node id="-640985" lat="60.5331214813" lon="4.99851619264">
		<tag k="name" v="Skråmestøvatnet" />
>>>>>>> e1d4bc35ff8a6074a6f2e91616a996b547c36f15
		<tag k="natural" v="water" />
		<tag k="ssr:stedsnr" v="894319" />
		<tag k="water" v="lake" />
	</node>
<<<<<<< HEAD
	<node lat="60.503692620327556" lon="5.0962399218124315" id="-36647">
		<tag k="name" v="Kjerrgardstjørna" />
		<tag k="natural" v="water" />
		<tag k="ssr:stedsnr" v="45540" />
	</node>
	<node lat="60.4964878148056" lon="5.157365083208967" id="-36652">
		<tag k="name" v="Plassatjørna" />
		<tag k="natural" v="water" />
		<tag k="ssr:stedsnr" v="45516" />
	</node>
	<node lat="60.502736829566324" lon="5.053266176344715" id="-36669">
		<tag k="name" v="Langavatnet" />
		<tag k="natural" v="water" />
		<tag k="ssr:stedsnr" v="67673" />
	</node>
	<node lat="60.50866110888118" lon="5.078263880804201" id="-36671">
		<tag k="name" v="Eidet" />
		<tag k="place" v="locality" />
		<tag k="ssr:stedsnr" v="85389" />
	</node>
	<node lat="60.47899930478229" lon="5.113947888600232" id="-36675">
		<tag k="name" v="Søre Fagerbakktjørna" />
		<tag k="natural" v="water" />
		<tag k="ssr:stedsnr" v="105345" />
	</node>
	<node lat="60.49020391101137" lon="5.103341024497109" id="-36690">
		<tag k="name" v="Sevtjørna" />
		<tag k="natural" v="water" />
		<tag k="ssr:stedsnr" v="106736" />
	</node>
	<node lat="60.49439506623598" lon="5.053810952246851" id="-36693">
		<tag k="name" v="Skrubbavatnet" />
		<tag k="natural" v="water" />
		<tag k="ssr:stedsnr" v="106758" />
		<tag k="water" v="lake" />
	</node>
	<node lat="60.49030511524898" lon="5.1703999666306135" id="-36697">
		<tag k="name" v="Askevatnet" />
		<tag k="natural" v="water" />
		<tag k="ssr:stedsnr" v="126386" />
		<tag k="water" v="lake" />
	</node>
	<node lat="60.51901820410097" lon="5.046478760625497" id="-36704">
		<tag k="name" v="Hatlelitjørna" />
		<tag k="natural" v="water" />
		<tag k="ssr:stedsnr" v="128634" />
	</node>
	<node lat="60.481786344534505" lon="5.151090672276709" id="-36717">
		<tag k="name" v="Ravnangertjørna" />
		<tag k="natural" v="water" />
		<tag k="ssr:stedsnr" v="166340" />
	</node>
	<node lat="60.501079777375736" lon="5.056052528533751" id="-36734">
		<tag k="name" v="Småkvernavatnet" />
		<tag k="natural" v="water" />
		<tag k="ssr:stedsnr" v="166942" />
	</node>
	<node lat="60.42987213113514" lon="5.217509039155862" id="-36741">
		<tag k="name" v="Langafjellstjørna" />
		<tag k="natural" v="water" />
		<tag k="ssr:stedsnr" v="167684" />
	</node>
	<node lat="60.49083490388076" lon="5.147535010737408" id="-36749">
		<tag k="alt_name" v="Åsebøvatnet" />
		<tag k="name" v="Åsbøvatnet" />
		<tag k="natural" v="water" />
		<tag k="ssr:stedsnr" v="187361" />
	</node>
	<node lat="60.49356196209649" lon="5.111835840373242" id="-36766">
		<tag k="name" v="Stordiket" />
		<tag k="natural" v="water" />
		<tag k="ssr:stedsnr" v="227743" />
	</node>
	<node lat="60.49001256396952" lon="5.099792288459693" id="-36768">
		<tag k="name" v="Futlauptjørna" />
		<tag k="natural" v="water" />
		<tag k="ssr:stedsnr" v="227314" />
	</node>
	<node lat="60.47128826296641" lon="5.076562700100404" id="-36769">
		<tag k="name" v="Søre Migen" />
		<tag k="natural" v="water" />
		<tag k="ssr:stedsnr" v="227321" />
		<tag k="water" v="lake" />
	</node>
	<node lat="60.48308539484009" lon="5.1112258784144835" id="-36770">
		<tag k="name" v="Fugledalstjørna" />
		<tag k="natural" v="water" />
		<tag k="ssr:stedsnr" v="227323" />
	</node>
	<node lat="60.414655214229725" lon="5.23203709190702" id="-36771">
		<tag k="name" v="Rotavatnet" />
		<tag k="natural" v="water" />
		<tag k="ssr:stedsnr" v="227259" />
		<tag k="water" v="lake" />
	</node>
	<node lat="60.41590212271435" lon="5.239462108158354" id="-36773">
		<tag k="name" v="Storavatnet" />
		<tag k="natural" v="water" />
		<tag k="ssr:stedsnr" v="227268" />
		<tag k="water" v="lake" />
	</node>
	<node lat="60.48227623437479" lon="5.125730497653936" id="-36790">
		<tag k="name" v="Stølsøytjørna" />
		<tag k="natural" v="water" />
		<tag k="ssr:stedsnr" v="227956" />
	</node>
	<node lat="60.4119096185832" lon="5.230361308733479" id="-36795">
		<tag k="name" v="Vatnavatnet" />
		<tag k="natural" v="water" />
		<tag k="ssr:stedsnr" v="287400" />
		<tag k="water" v="lake" />
	</node>
	<node lat="60.48156944548101" lon="5.18066945251613" id="-36801">
		<tag k="name" v="Paradisholmen" />
		<tag k="place" v="islet" />
		<tag k="ssr:stedsnr" v="288466" />
	</node>
	<node lat="60.481424298070515" lon="5.164452145240499" id="-36809">
		<tag k="name" v="Grøndalstjørna" />
		<tag k="natural" v="water" />
		<tag k="ssr:stedsnr" v="287959" />
	</node>
	<node lat="60.40893173046483" lon="5.188028478776079" id="-36811">
		<tag k="name" v="Vestravatnet" />
		<tag k="natural" v="water" />
		<tag k="ssr:stedsnr" v="287913" />
		<tag k="water" v="lake" />
	</node>
	<node lat="60.4620251703546" lon="5.186450802388628" id="-36838">
		<tag k="name" v="Fjellvatnet" />
		<tag k="natural" v="water" />
		<tag k="ssr:stedsnr" v="308378" />
	</node>
	<node lat="60.45436388739227" lon="5.171124991810915" id="-36839">
		<tag k="name" v="Lonelva" />
		<tag k="ssr:stedsnr" v="308509" />
		<tag k="waterway" v="river" />
	</node>
	<node lat="60.45394274860252" lon="5.115565903845343" id="-36840">
		<tag k="name" v="Bergsvatnet" />
		<tag k="natural" v="water" />
		<tag k="ssr:stedsnr" v="308512" />
	</node>
	<node lat="60.51046696867942" lon="5.0285771292440025" id="-36849">
		<tag k="name" v="Storstølvatnet" />
		<tag k="natural" v="water" />
		<tag k="ssr:stedsnr" v="310668" />
	</node>
	<node lat="60.510905558909236" lon="5.037444452943168" id="-36850">
		<tag k="name" v="Eidet" />
		<tag k="place" v="locality" />
		<tag k="ssr:stedsnr" v="329546" />
	</node>
	<node lat="60.48500555331224" lon="5.176558331192937" id="-36854">
		<tag k="name" v="Hanevikholmen" />
		<tag k="place" v="islet" />
		<tag k="ssr:stedsnr" v="348336" />
	</node>
	<node lat="60.424034974277085" lon="5.234645966050673" id="-36861">
		<tag k="name" v="Nyavatnet" />
		<tag k="natural" v="water" />
		<tag k="ssr:stedsnr" v="348350" />
		<tag k="water" v="lake" />
	</node>
	<node lat="60.47556609608671" lon="5.160067072604784" id="-36887">
		<tag k="name" v="Båtevikvatnet" />
		<tag k="natural" v="water" />
		<tag k="ssr:stedsnr" v="369381" />
		<tag k="water" v="lake" />
	</node>
	<node lat="60.494735372350235" lon="5.182322418939883" id="-36890">
		<tag k="name" v="Saltbuvatnet" />
=======
	<node id="-641812" lat="60.4508041425" lon="5.08591211542">
		<tag k="name" v="Botatjørna" />
		<tag k="natural" v="water" />
		<tag k="ssr:stedsnr" v="955310" />
	</node>
	<node id="-641811" lat="60.4766633041" lon="5.0949661047">
		<tag k="name" v="Furekamtjørna" />
		<tag k="natural" v="water" />
		<tag k="ssr:stedsnr" v="955295" />
	</node>
	<node id="-641807" lat="60.5318542803" lon="5.02247187451">
		<tag k="name" v="Hundtjørna" />
		<tag k="natural" v="water" />
		<tag k="ssr:stedsnr" v="955273" />
	</node>
	<node id="-641289" lat="60.4943950662" lon="5.05381095225">
		<tag k="name" v="Skrubbavatnet" />
		<tag k="natural" v="water" />
		<tag k="ssr:stedsnr" v="106758" />
		<tag k="water" v="lake" />
	</node>
	<node id="-640756" lat="60.4908083182" lon="5.10734937473">
		<tag k="name" v="Langetjørna" />
		<tag k="natural" v="water" />
		<tag k="ssr:stedsnr" v="348305" />
	</node>
	<node id="-640753" lat="60.5251805581" lon="5.01473888767">
		<tag k="name" v="Skogdalstjørna" />
		<tag k="natural" v="water" />
		<tag k="ssr:stedsnr" v="348270" />
	</node>
	<node id="-641776" lat="60.4706438827" lon="5.08515972485">
		<tag k="name" v="Bjøllevågstjørna" />
		<tag k="natural" v="water" />
		<tag k="ssr:stedsnr" v="834945" />
	</node>
	<node id="-641263" lat="60.490203911" lon="5.1033410245">
		<tag k="name" v="Sevtjørna" />
		<tag k="natural" v="water" />
		<tag k="ssr:stedsnr" v="106736" />
	</node>
	<node id="-641259" lat="60.4789993048" lon="5.1139478886">
		<tag k="name" v="Søre Fagerbakktjørna" />
		<tag k="natural" v="water" />
		<tag k="ssr:stedsnr" v="105345" />
	</node>
	<node id="-641255" lat="60.4198093484" lon="5.18109573516">
		<tag k="alt_name" v="Krokåsvatnet" />
		<tag k="name" v="Kråkåsvatnet" />
		<tag k="natural" v="water" />
		<tag k="ssr:stedsnr" v="85986" />
		<tag k="water" v="lake" />
	</node>
	<node id="-641254" lat="60.5086611089" lon="5.0782638808">
		<tag k="name" v="Eidet" />
		<tag k="natural" v="strait" />
		<tag k="ssr:stedsnr" v="85389" />
	</node>
	<node id="-640738" lat="60.4274831485" lon="5.21385416088">
		<tag k="name" v="Kattatjørna" />
		<tag k="natural" v="water" />
		<tag k="ssr:stedsnr" v="470636" />
	</node>
	<node id="-641249" lat="60.5027368296" lon="5.05326617634">
		<tag k="name" v="Langavatnet" />
		<tag k="natural" v="water" />
		<tag k="ssr:stedsnr" v="67673" />
	</node>
	<node id="-640735" lat="60.4534080744" lon="5.12699721943">
		<tag k="name" v="Hundtjørna" />
		<tag k="natural" v="water" />
		<tag k="ssr:stedsnr" v="470616" />
	</node>
	<node id="-641758" lat="60.4784748262" lon="5.22048968249">
		<tag k="name" v="Frugårdstjørna" />
		<tag k="natural" v="water" />
		<tag k="ssr:stedsnr" v="834351" />
	</node>
	<node id="-641756" lat="60.4692265891" lon="5.14801495482">
		<tag k="name" v="Drivetjørna" />
		<tag k="natural" v="water" />
		<tag k="ssr:stedsnr" v="834335" />
	</node>
	<node id="-641755" lat="60.4802294594" lon="5.08349394991">
		<tag k="name" v="Kremmartjørna" />
		<tag k="natural" v="water" />
		<tag k="ssr:stedsnr" v="834299" />
	</node>
	<node id="-641754" lat="60.5021511949" lon="5.12396635125">
		<tag k="name" v="Rotatjørna" />
		<tag k="natural" v="water" />
		<tag k="ssr:stedsnr" v="834290" />
	</node>
	<node id="-641752" lat="60.5268215083" lon="5.01032688888">
		<tag k="name" v="Tverrgardstjørna" />
		<tag k="natural" v="water" />
		<tag k="ssr:stedsnr" v="834385" />
	</node>
	<node id="-640721" lat="60.4003521949" lon="5.17136606658">
		<tag k="name" v="Storatjørna" />
		<tag k="natural" v="water" />
		<tag k="ssr:stedsnr" v="469388" />
	</node>
	<node id="-640710" lat="60.5050360212" lon="5.04501054215">
		<tag k="name" v="Rottjørna" />
		<tag k="natural" v="water" />
		<tag k="ssr:stedsnr" v="469286" />
	</node>
	<node id="-641733" lat="60.4514781981" lon="5.14337834536">
		<tag k="alt_name" v="Tveitavatnet" />
		<tag k="name" v="Storavatnet" />
		<tag k="natural" v="water" />
		<tag k="ssr:stedsnr" v="794533" />
		<tag k="water" v="lake" />
	</node>
	<node id="-641732" lat="60.45766389" lon="5.09701667009">
		<tag k="name" v="Steinseidet" />
		<tag k="natural" v="strait" />
		<tag k="ssr:stedsnr" v="794524" />
	</node>
	<node id="-641728" lat="60.4981810863" lon="5.05950656755">
		<tag k="name" v="Kvernavatnet" />
		<tag k="natural" v="water" />
		<tag k="ssr:stedsnr" v="794212" />
	</node>
	<node id="-641213" lat="60.5106527799" lon="5.06983610733">
		<tag k="name" v="Berlandstjørna" />
		<tag k="natural" v="water" />
		<tag k="ssr:stedsnr" v="45547" />
	</node>
	<node id="-641212" lat="60.5036926203" lon="5.09623992181">
		<tag k="name" v="Kjerrgardstjørna" />
		<tag k="natural" v="water" />
		<tag k="ssr:stedsnr" v="45540" />
	</node>
	<node id="-641207" lat="60.4916277745" lon="5.1545833267">
		<tag k="name" v="Hanevikelva" />
		<tag k="old_name" v="Sagelvi;Sageelva" />
		<tag k="ssr:stedsnr" v="45344" />
		<tag k="waterway" v="stream" />
	</node>
	<node id="-641715" lat="60.447377068" lon="5.13099342896">
		<tag k="name" v="Kollevågtjørna" />
		<tag k="natural" v="water" />
		<tag k="ssr:stedsnr" v="773600" />
	</node>
	<node id="-640690" lat="60.4815694455" lon="5.18066945252">
		<tag k="name" v="Paradisholmen" />
		<tag k="place" v="islet" />
		<tag k="ssr:stedsnr" v="288466" />
	</node>
	<node id="-641201" lat="60.5258373068" lon="5.02765387612">
		<tag k="name" v="Tjørna" />
		<tag k="natural" v="water" />
		<tag k="ssr:stedsnr" v="45282" />
	</node>
	<node id="-640688" lat="60.4814242981" lon="5.16445214524">
		<tag k="name" v="Grøndalstjørna" />
		<tag k="natural" v="water" />
		<tag k="ssr:stedsnr" v="287959" />
	</node>
	<node id="-640684" lat="60.4089317305" lon="5.18802847878">
		<tag k="name" v="Vestravatnet" />
		<tag k="natural" v="water" />
		<tag k="ssr:stedsnr" v="287913" />
		<tag k="water" v="lake" />
	</node>
	<node id="-641704" lat="60.4884617206" lon="5.14730192037">
		<tag k="name" v="Rotatjørna" />
		<tag k="natural" v="water" />
		<tag k="ssr:stedsnr" v="773354" />
	</node>
	<node id="-641703" lat="60.4984288007" lon="5.04913666609">
		<tag k="name" v="Midtvatnet" />
		<tag k="natural" v="water" />
		<tag k="ssr:stedsnr" v="773299" />
	</node>
	<node id="-641700" lat="60.4121108997" lon="5.19856586863">
		<tag k="name" v="Strusshamnvatnet" />
>>>>>>> e1d4bc35ff8a6074a6f2e91616a996b547c36f15
		<tag k="natural" v="water" />
		<tag k="ssr:stedsnr" v="753991" />
		<tag k="water" v="lake" />
	</node>
<<<<<<< HEAD
	<node lat="60.42628256110664" lon="5.2071977932073" id="-36893">
		<tag k="name" v="Kleppevatnet" />
		<tag k="natural" v="water" />
		<tag k="ssr:stedsnr" v="369556" />
	</node>
	<node lat="60.53105833134459" lon="5.004236117267401" id="-36907">
		<tag k="name" v="Øyravatnet" />
		<tag k="natural" v="water" />
		<tag k="ssr:stedsnr" v="409283" />
		<tag k="water" v="lake" />
	</node>
	<node lat="60.53276209400849" lon="5.013057248772654" id="-36914">
		<tag k="name" v="Vadtjørna" />
		<tag k="natural" v="water" />
		<tag k="ssr:stedsnr" v="409594" />
	</node>
	<node lat="60.46655833137106" lon="5.192988893557217" id="-36926">
		<tag k="name" v="Fjellvasselva" />
		<tag k="ssr:stedsnr" v="410671" />
		<tag k="waterway" v="stream" />
	</node>
	<node lat="60.47189320247856" lon="5.08660212013824" id="-36930">
		<tag k="name" v="Søre Rotevatnet" />
		<tag k="natural" v="water" />
		<tag k="ssr:stedsnr" v="419727" />
		<tag k="water" v="lake" />
	</node>
	<node lat="60.48491666440601" lon="5.190102781993756" id="-36936">
		<tag k="name" v="Ormaneset" />
		<tag k="natural" v="cape" />
		<tag k="ssr:stedsnr" v="430369" />
	</node>
	<node lat="60.45085222530532" lon="5.08956155541237" id="-36949">
		<tag k="name" v="Storavatnet" />
		<tag k="natural" v="water" />
		<tag k="ssr:stedsnr" v="530348" />
		<tag k="water" v="lake" />
	</node>
	<node lat="60.478452781811725" lon="5.180408341627709" id="-36958">
		<tag k="name" v="Frukostholmen" />
		<tag k="place" v="islet" />
		<tag k="ssr:stedsnr" v="530734" />
	</node>
	<node lat="60.48225277867592" lon="5.199022215151054" id="-36961">
		<tag k="name" v="Jakvitzholmen" />
		<tag k="place" v="islet" />
		<tag k="ssr:stedsnr" v="531392" />
	</node>
	<node lat="60.4582033320988" lon="5.116906633299584" id="-36963">
		<tag k="name" v="Gamlestølsvatnet" />
		<tag k="natural" v="water" />
		<tag k="ssr:stedsnr" v="531711" />
		<tag k="water" v="lake" />
	</node>
	<node lat="60.474102781839555" lon="5.205908332955439" id="-36965">
		<tag k="name" v="Holmen" />
		<tag k="place" v="islet" />
		<tag k="ssr:stedsnr" v="531718" />
	</node>
	<node lat="60.47643383112397" lon="5.144387593279268" id="-36973">
		<tag k="name" v="Heiavatnet" />
		<tag k="natural" v="water" />
		<tag k="ssr:stedsnr" v="551363" />
	</node>
	<node lat="60.52485277612469" lon="5.023202780853568" id="-36983">
		<tag k="name" v="Storavatnet" />
		<tag k="natural" v="water" />
		<tag k="ssr:stedsnr" v="552715" />
	</node>
	<node lat="60.488977589436196" lon="5.121416386748516" id="-36991">
		<tag k="name" v="Søra Kistetjørna" />
		<tag k="natural" v="water" />
		<tag k="ssr:stedsnr" v="590330" />
	</node>
	<node lat="60.476898322086186" lon="5.131482154881422" id="-36994">
		<tag k="name" v="Gausfjelltjørna" />
		<tag k="natural" v="water" />
		<tag k="ssr:stedsnr" v="590336" />
	</node>
	<node lat="60.48427473017974" lon="5.166583364235254" id="-37016">
		<tag k="name" v="Dyrtjørna" />
		<tag k="natural" v="water" />
		<tag k="ssr:stedsnr" v="591498" />
	</node>
	<node lat="60.46781217586828" lon="5.17594042617684" id="-37020">
		<tag k="name" v="Åstjørna" />
		<tag k="natural" v="water" />
		<tag k="ssr:stedsnr" v="591648" />
		<tag k="water" v="pond" />
	</node>
	<node lat="60.475480238103515" lon="5.2059064615769834" id="-37025">
		<tag k="name" v="Træsvatnet" />
		<tag k="natural" v="water" />
		<tag k="ssr:stedsnr" v="592734" />
		<tag k="water" v="lake" />
	</node>
	<node lat="60.50415300405636" lon="5.046775325857481" id="-37055">
		<tag k="name" v="Rottjørna" />
		<tag k="natural" v="water" />
		<tag k="ssr:stedsnr" v="651961" />
	</node>
	<node lat="60.484406619219556" lon="5.137582043448607" id="-37075">
		<tag k="name" v="Lonevatnet" />
		<tag k="natural" v="water" />
		<tag k="ssr:stedsnr" v="664367" />
	</node>
	<node lat="60.495813888188025" lon="5.163019448594513" id="-37079">
		<tag k="name" v="Huneviksholmen" />
		<tag k="place" v="islet" />
		<tag k="ssr:stedsnr" v="712312" />
	</node>
	<node lat="60.44637500359891" lon="5.125305550571918" id="-37080">
		<tag k="name" v="Kobbatjørna" />
		<tag k="natural" v="water" />
		<tag k="ssr:stedsnr" v="712322" />
	</node>
	<node lat="60.49751114531372" lon="5.057622457794027" id="-37082">
		<tag k="name" v="Straumsvatnet" />
		<tag k="natural" v="water" />
		<tag k="ssr:stedsnr" v="712262" />
		<tag k="water" v="lake" />
	</node>
	<node lat="60.44788813082679" lon="5.176354156630228" id="-37094">
		<tag k="name" v="Fagerdalstjørna" />
		<tag k="natural" v="water" />
		<tag k="ssr:stedsnr" v="713650" />
	</node>
	<node lat="60.4121108996886" lon="5.1985658686278775" id="-37113">
		<tag k="name" v="Strusshamnvatnet" />
		<tag k="natural" v="water" />
		<tag k="ssr:stedsnr" v="753991" />
		<tag k="water" v="lake" />
	</node>
	<node lat="60.49842880066624" lon="5.049136666094084" id="-37119">
		<tag k="name" v="Midtvatnet" />
		<tag k="natural" v="water" />
		<tag k="ssr:stedsnr" v="773299" />
	</node>
	<node lat="60.488461720642576" lon="5.147301920365275" id="-37120">
		<tag k="name" v="Rotatjørna" />
		<tag k="natural" v="water" />
		<tag k="ssr:stedsnr" v="773354" />
	</node>
	<node lat="60.447377068022575" lon="5.130993428955198" id="-37128">
		<tag k="name" v="Kollevågtjørna" />
		<tag k="natural" v="water" />
		<tag k="ssr:stedsnr" v="773600" />
	</node>
	<node lat="60.48107222640378" lon="5.129686114072178" id="-37132">
		<tag k="name" v="Lonene" />
		<tag k="natural" v="water" />
		<tag k="ssr:stedsnr" v="773727" />
		<tag k="water" v="lake" />
	</node>
	<node lat="60.46974966578249" lon="5.1973052972835925" id="-37151">
		<tag k="name" v="Tranetjørna" />
		<tag k="natural" v="water" />
		<tag k="ssr:stedsnr" v="794402" />
	</node>
	<node lat="60.45766388999968" lon="5.097016670093285" id="-37153">
		<tag k="name" v="Steinseidet" />
		<tag k="place" v="locality" />
		<tag k="ssr:stedsnr" v="794524" />
	</node>
	<node lat="60.451478198111914" lon="5.1433783453610475" id="-37154">
		<tag k="alt_name" v="Tveitavatnet" />
		<tag k="name" v="Storavatnet" />
		<tag k="natural" v="water" />
		<tag k="ssr:stedsnr" v="794533" />
		<tag k="water" v="lake" />
	</node>
	<node lat="60.469226589064434" lon="5.148014954819407" id="-37166">
		<tag k="name" v="Drivetjørna" />
		<tag k="natural" v="water" />
		<tag k="ssr:stedsnr" v="834335" />
	</node>
	<node lat="60.47847482616967" lon="5.2204896824906" id="-37168">
		<tag k="name" v="Frugårdstjørna" />
		<tag k="natural" v="water" />
		<tag k="ssr:stedsnr" v="834351" />
	</node>
	<node lat="60.502151194868105" lon="5.123966351248749" id="-37173">
		<tag k="name" v="Rotatjørna" />
		<tag k="natural" v="water" />
		<tag k="ssr:stedsnr" v="834290" />
	</node>
	<node lat="60.48022945937261" lon="5.0834939499077425" id="-37174">
		<tag k="name" v="Kremmartjørna" />
		<tag k="natural" v="water" />
		<tag k="ssr:stedsnr" v="834299" />
	</node>
	<node lat="60.467473989494884" lon="5.065029550036934" id="-37175">
		<tag k="name" v="Børøyvatnet" />
		<tag k="natural" v="water" />
		<tag k="ssr:stedsnr" v="834311" />
		<tag k="water" v="lake" />
	</node>
	<node lat="60.52682150828259" lon="5.010326888877538" id="-37177">
		<tag k="name" v="Tverrgardstjørna" />
		<tag k="natural" v="water" />
		<tag k="ssr:stedsnr" v="834385" />
	</node>
	<node lat="60.547269574612" lon="4.976271616759181" id="-37192">
		<tag k="name" v="Osterpollen" />
		<tag k="natural" v="water" />
		<tag k="ssr:stedsnr" v="834620" />
		<tag k="water" v="lake" />
	</node>
	<node lat="60.47064388270563" lon="5.085159724853668" id="-37203">
		<tag k="name" v="Bjøllevågstjørna" />
=======
	<node id="-641182" lat="60.5098777769" lon="5.02464443845">
		<tag k="name" v="Flatskarvatnet" />
		<tag k="natural" v="water" />
		<tag k="ssr:stedsnr" v="6679" />
	</node>
	<node id="-641180" lat="60.5066692623" lon="5.11831771778">
		<tag k="name" v="Siglingavatnet" />
		<tag k="natural" v="water" />
		<tag k="ssr:stedsnr" v="6545" />
	</node>
	<node id="-641179" lat="60.4949298564" lon="5.13343823807">
		<tag k="name" v="Lammetovatnet" />
		<tag k="natural" v="water" />
		<tag k="ssr:stedsnr" v="6517" />
	</node>
	<node id="-640659" lat="60.4742763898" lon="5.08812800833">
		<tag k="name" v="Svartevatnet" />
		<tag k="natural" v="water" />
		<tag k="ssr:stedsnr" v="228756" />
		<tag k="water" v="lake" />
	</node>
	<node id="-640657" lat="60.4822762344" lon="5.12573049765">
		<tag k="name" v="Stølsøytjørna" />
		<tag k="natural" v="water" />
		<tag k="ssr:stedsnr" v="227956" />
	</node>
	<node id="-640792" lat="60.4834000027" lon="5.18057778177">
		<tag k="name" v="Øyna" />
		<tag k="place" v="islet" />
		<tag k="ssr:stedsnr" v="491394" />
	</node>
	<node id="-641671" lat="60.5041530041" lon="5.04677532586">
		<tag k="name" v="Rottjørna" />
		<tag k="natural" v="water" />
		<tag k="ssr:stedsnr" v="651961" />
	</node>
	<node id="-640643" lat="60.4830853948" lon="5.11122587841">
		<tag k="name" v="Fugledalstjørna" />
		<tag k="natural" v="water" />
		<tag k="ssr:stedsnr" v="227323" />
	</node>
	<node id="-640642" lat="60.471288263" lon="5.0765627001">
		<tag k="name" v="Søre Migen" />
		<tag k="natural" v="water" />
		<tag k="ssr:stedsnr" v="227321" />
		<tag k="water" v="lake" />
	</node>
	<node id="-640641" lat="60.490012564" lon="5.09979228846">
		<tag k="name" v="Futlauptjørna" />
		<tag k="natural" v="water" />
		<tag k="ssr:stedsnr" v="227314" />
	</node>
	<node id="-640637" lat="60.4736843208" lon="5.07878901918">
		<tag k="name" v="Seiatjørna" />
		<tag k="natural" v="water" />
		<tag k="ssr:stedsnr" v="289775" />
	</node>
	<node id="-641660" lat="60.4597022446" lon="5.1052012748">
		<tag k="name" v="Brekketjørna" />
		<tag k="natural" v="water" />
		<tag k="ssr:stedsnr" v="651315" />
	</node>
	<node id="-641659" lat="60.5130043521" lon="5.02239231289">
		<tag k="name" v="Breiviktjørna" />
		<tag k="natural" v="water" />
		<tag k="ssr:stedsnr" v="651298" />
	</node>
	<node id="-641658" lat="60.5088455387" lon="5.03760034776">
		<tag k="name" v="Søra Vatnet" />
		<tag k="natural" v="water" />
		<tag k="ssr:stedsnr" v="651296" />
		<tag k="water" v="lake" />
	</node>
	<node id="-641142" lat="60.4583364157" lon="5.17714508392">
		<tag k="name" v="Krabbetjørna" />
		<tag k="natural" v="water" />
		<tag k="ssr:stedsnr" v="915518" />
	</node>
	<node id="-640629" lat="60.5052357436" lon="5.13353638551">
		<tag k="name" v="Langavatnet" />
		<tag k="natural" v="water" />
		<tag k="ssr:stedsnr" v="288498" />
		<tag k="water" v="lake" />
	</node>
	<node id="-640787" lat="60.4164451951" lon="5.23522063575">
		<tag k="name" v="Kopparvatnet" />
		<tag k="natural" v="water" />
		<tag k="ssr:stedsnr" v="490556" />
	</node>
	<node id="-641128" lat="60.4732547027" lon="5.09493557117">
		<tag k="name" v="Hamyrsvatnet" />
		<tag k="natural" v="water" />
		<tag k="ssr:stedsnr" v="855253" />
		<tag k="water" v="lake" />
	</node>
	<node id="-640529" lat="60.5001939969" lon="5.0561584341">
		<tag k="name" v="Langetjørnane" />
		<tag k="natural" v="water" />
		<tag k="ssr:stedsnr" v="45529" />
		<tag k="water" v="lake" />
	</node>
	<node id="-640870" lat="60.5046676806" lon="5.04970553674">
		<tag k="name" v="Skiparvatnet" />
		<tag k="natural" v="water" />
		<tag k="ssr:stedsnr" v="530582" />
		<tag k="water" v="lake" />
	</node>
	<node id="-641122" lat="60.5002328968" lon="5.14097172607">
		<tag k="name" v="Kvernavatnet" />
		<tag k="natural" v="water" />
		<tag k="ssr:stedsnr" v="834964" />
	</node>
	<node id="-641121" lat="60.4772076386" lon="5.14469814227">
		<tag k="name" v="Heiavassholmen" />
		<tag k="place" v="islet" />
		<tag k="ssr:stedsnr" v="834960" />
	</node>
	<node id="-641628" lat="60.4754802381" lon="5.20590646158">
		<tag k="name" v="Træsvatnet" />
		<tag k="natural" v="water" />
		<tag k="ssr:stedsnr" v="592734" />
		<tag k="water" v="lake" />
	</node>
	<node id="-640602" lat="60.4944809451" lon="5.10280325258">
		<tag k="name" v="Hundetjørna" />
		<tag k="natural" v="water" />
		<tag k="ssr:stedsnr" v="287330" />
	</node>
	<node id="-641113" lat="60.5472695746" lon="4.97627161676">
		<tag k="name" v="Osterpollen" />
		<tag k="natural" v="water" />
		<tag k="ssr:stedsnr" v="834620" />
		<tag k="water" v="lake" />
	</node>
	<node id="-641622" lat="60.4678121759" lon="5.17594042618">
		<tag k="name" v="Åstjørna" />
		<tag k="natural" v="water" />
		<tag k="ssr:stedsnr" v="591648" />
		<tag k="water" v="pond" />
	</node>
	<node id="-641105" lat="60.4674739895" lon="5.06502955004">
		<tag k="name" v="Børøyvatnet" />
		<tag k="natural" v="water" />
		<tag k="ssr:stedsnr" v="834311" />
		<tag k="water" v="lake" />
	</node>
	<node id="-641607" lat="60.4842747302" lon="5.16658336424">
		<tag k="name" v="Dyrtjørna" />
		<tag k="natural" v="water" />
		<tag k="ssr:stedsnr" v="591498" />
	</node>
	<node id="-640483" lat="60.453143866" lon="5.22409972072">
		<tag k="name" v="Møllevatnet" />
		<tag k="natural" v="water" />
		<tag k="ssr:stedsnr" v="227384" />
		<tag k="water" v="lake" />
	</node>
	<node id="-641091" lat="60.4697496658" lon="5.19730529728">
		<tag k="name" v="Tranetjørna" />
		<tag k="natural" v="water" />
		<tag k="ssr:stedsnr" v="794402" />
	</node>
	<node id="-641087" lat="60.4786038501" lon="5.09853670304">
		<tag k="name" v="Træsvatnet" />
		<tag k="natural" v="water" />
		<tag k="ssr:stedsnr" v="794382" />
	</node>
	<node id="-641085" lat="60.4706052846" lon="5.13383293089">
		<tag k="name" v="Kvernavatnet" />
		<tag k="natural" v="water" />
		<tag k="ssr:stedsnr" v="794413" />
	</node>
	<node id="-641592" lat="60.4768983221" lon="5.13148215488">
		<tag k="name" v="Gausfjelltjørna" />
		<tag k="natural" v="water" />
		<tag k="ssr:stedsnr" v="590336" />
	</node>
	<node id="-641589" lat="60.4889775894" lon="5.12141638675">
		<tag k="name" v="Søra Kistetjørna" />
		<tag k="natural" v="water" />
		<tag k="ssr:stedsnr" v="590330" />
	</node>
	<node id="-641588" lat="60.4782382569" lon="5.08758029192">
		<tag k="name" v="Kremmarvatnet" />
		<tag k="natural" v="water" />
		<tag k="ssr:stedsnr" v="590317" />
		<tag k="water" v="lake" />
	</node>
	<node id="-640562" lat="60.5190182041" lon="5.04647876063">
		<tag k="name" v="Hatlelitjørna" />
		<tag k="natural" v="water" />
		<tag k="ssr:stedsnr" v="128634" />
	</node>
	<node id="-641581" lat="60.5248527761" lon="5.02320278085">
		<tag k="name" v="Storavatnet" />
		<tag k="natural" v="water" />
		<tag k="ssr:stedsnr" v="552715" />
	</node>
	<node id="-640556" lat="60.5298600535" lon="5.00363332276">
		<tag k="name" v="Bekkevatnet" />
		<tag k="natural" v="water" />
		<tag k="ssr:stedsnr" v="249691" />
	</node>
	<node id="-641063" lat="60.4810722264" lon="5.12968611407">
		<tag k="name" v="Lonene" />
		<tag k="natural" v="water" />
		<tag k="ssr:stedsnr" v="773727" />
		<tag k="water" v="lake" />
	</node>
	<node id="-640546" lat="60.4595916699" lon="5.21710000163">
		<tag k="name" v="Dyrneset" />
		<tag k="natural" v="cape" />
		<tag k="ssr:stedsnr" v="248549" />
	</node>
	<node id="-641566" lat="60.461732156" lon="5.12019191961">
		<tag k="name" v="Svartevatnet" />
		<tag k="natural" v="water" />
		<tag k="ssr:stedsnr" v="551397" />
	</node>
	<node id="-640541" lat="60.4975804315" lon="5.09606484914">
		<tag k="name" v="Kråvatnet" />
>>>>>>> e1d4bc35ff8a6074a6f2e91616a996b547c36f15
		<tag k="natural" v="water" />
		<tag k="ssr:stedsnr" v="248469" />
	</node>
<<<<<<< HEAD
	<node lat="60.47720763863841" lon="5.144698142271064" id="-37207">
		<tag k="name" v="Heiavassholmen" />
		<tag k="place" v="islet" />
		<tag k="ssr:stedsnr" v="834960" />
	</node>
	<node lat="60.500232896845475" lon="5.140971726072114" id="-37208">
		<tag k="name" v="Kvernavatnet" />
		<tag k="natural" v="water" />
		<tag k="ssr:stedsnr" v="834964" />
	</node>
	<node lat="60.47325470267891" lon="5.094935571171687" id="-37217">
		<tag k="name" v="Hamyrsvatnet" />
		<tag k="natural" v="water" />
		<tag k="ssr:stedsnr" v="855253" />
		<tag k="water" v="lake" />
	</node>
	<node lat="60.53185428031765" lon="5.022471874512296" id="-37247">
		<tag k="name" v="Hundtjørna" />
		<tag k="natural" v="water" />
		<tag k="ssr:stedsnr" v="955273" />
	</node>
	<node lat="60.45080414249995" lon="5.085912115424284" id="-37248">
		<tag k="name" v="Botatjørna" />
		<tag k="natural" v="water" />
		<tag k="ssr:stedsnr" v="955310" />
	</node>
	<node lat="60.459582735646606" lon="5.223432870282671" id="-37262">
		<tag k="name" v="Jomfrutjørna" />
		<tag k="natural" v="water" />
		<tag k="ssr:stedsnr" v="955895" />
	</node>
	<node lat="60.46730516453331" lon="5.221227471651667" id="-37263">
		<tag k="name" v="Gjeddetjørna" />
		<tag k="natural" v="water" />
		<tag k="ssr:stedsnr" v="955896" />
=======
	<node id="-641564" lat="60.4764338311" lon="5.14438759328">
		<tag k="name" v="Heiavatnet" />
		<tag k="natural" v="water" />
		<tag k="ssr:stedsnr" v="551363" />
	</node>
	<node id="-641050" lat="60.4449861137" lon="5.18843611733">
		<tag k="name" v="Pollelva" />
		<tag k="ssr:stedsnr" v="915482" />
		<tag k="waterway" v="stream" />
	</node>
	<node id="-640536" lat="60.4774338578" lon="5.11845971016">
		<tag k="name" v="Svartetjørna" />
		<tag k="natural" v="water" />
		<tag k="ssr:stedsnr" v="248350" />
	</node>
	<node id="-640601" lat="60.4119096186" lon="5.23036130873">
		<tag k="name" v="Vatnavatnet" />
		<tag k="natural" v="water" />
		<tag k="ssr:stedsnr" v="287400" />
		<tag k="water" v="lake" />
	</node>
	<node id="-641556" lat="60.4833299094" lon="5.09665481903">
		<tag k="name" v="Svartepyttjørna" />
		<tag k="natural" v="water" />
		<tag k="ssr:stedsnr" v="531729" />
	</node>
	<node id="-641555" lat="60.4822527787" lon="5.19902221515">
		<tag k="name" v="Jakvitzholmen" />
		<tag k="place" v="islet" />
		<tag k="ssr:stedsnr" v="531392" />
	</node>
	<node id="-641553" lat="60.4741027818" lon="5.20590833296">
		<tag k="name" v="Holmen" />
		<tag k="place" v="islet" />
		<tag k="ssr:stedsnr" v="531718" />
	</node>
	<node id="-641551" lat="60.4582033321" lon="5.1169066333">
		<tag k="name" v="Gamlestølsvatnet" />
		<tag k="natural" v="water" />
		<tag k="ssr:stedsnr" v="531711" />
		<tag k="water" v="lake" />
	</node>
	<node id="-640526" lat="60.4964878148" lon="5.15736508321">
		<tag k="name" v="Plassatjørna" />
		<tag k="natural" v="water" />
		<tag k="ssr:stedsnr" v="45516" />
	</node>
	<node id="-641548" lat="60.4285694463" lon="5.20858610209">
		<tag k="name" v="Rørebekken" />
		<tag k="ssr:stedsnr" v="531681" />
		<tag k="waterway" v="stream" />
	</node>
	<node id="-641539" lat="60.4784527818" lon="5.18040834163">
		<tag k="name" v="Frukostholmen" />
		<tag k="place" v="islet" />
		<tag k="ssr:stedsnr" v="530734" />
>>>>>>> e1d4bc35ff8a6074a6f2e91616a996b547c36f15
	</node>
</osm>
