<?xml version="1.0" encoding="UTF-8"?>
<osm generator="osmapis" version="0.6">
	<node id="-63488" lat="60.5146250009" lon="5.01425000758">
		<tag k="name" v="Bakkaneset" />
		<tag k="natural" v="cape" />
		<tag k="ssr:stedsnr" v="45560" />
	</node>
	<node id="-63487" lat="60.512083334" lon="5.00821944127">
		<tag k="name" v="Nordre Makrellavika" />
		<tag k="natural" v="bay" />
		<tag k="ssr:stedsnr" v="45559" />
	</node>
	<node id="-63479" lat="60.4418999993" lon="5.10782222477">
		<tag k="name" v="Ingahola" />
		<tag k="natural" v="bay" />
		<tag k="ssr:stedsnr" v="45329" />
	</node>
	<node id="-63478" lat="60.4390333295" lon="5.08120554893">
		<tag k="name" v="Tangeneset" />
		<tag k="natural" v="cape" />
		<tag k="ssr:stedsnr" v="45325" />
	</node>
	<node id="-63477" lat="60.4983277767" lon="5.06622777756">
		<tag k="name" v="Ytste Notnesvika" />
		<tag k="natural" v="bay" />
		<tag k="ssr:stedsnr" v="45298" />
	</node>
	<node id="-63475" lat="60.5138416636" lon="5.0173888825">
		<tag k="name" v="Breivika" />
		<tag k="natural" v="bay" />
		<tag k="ssr:stedsnr" v="45289" />
	</node>
	<node id="-63471" lat="60.3968444451" lon="5.16108333959">
		<tag k="name" v="Brakedalsvika" />
		<tag k="natural" v="bay" />
		<tag k="ssr:stedsnr" v="44884" />
	</node>
	<node id="-63470" lat="60.3960444457" lon="5.17846666554">
		<tag k="name" v="Kvitaneset" />
		<tag k="natural" v="cape" />
		<tag k="ssr:stedsnr" v="44881" />
	</node>
	<node id="-63468" lat="60.3999750043" lon="5.18387499666">
		<tag k="name" v="Småvika" />
		<tag k="natural" v="bay" />
		<tag k="ssr:stedsnr" v="44872" />
	</node>
	<node id="-63464" lat="60.4370499969" lon="5.12605278207">
		<tag k="name" v="Tveitevågskolten" />
		<tag k="natural" v="shoal" />
		<tag k="place" v="locality" />
		<tag k="ssr:stedsnr" v="25890" />
	</node>
	<node id="-63463" lat="60.4965944473" lon="5.04165277469">
		<tag k="name" v="Steinfluene" />
		<tag k="natural" v="shoal" />
		<tag k="place" v="locality" />
		<tag k="ssr:stedsnr" v="25496" />
	</node>
	<node id="-63462" lat="60.5033916664" lon="5.03790277937">
		<tag k="name" v="Klubben" />
		<tag k="natural" v="cape" />
		<tag k="ssr:stedsnr" v="7043" />
	</node>
	<node id="-63461" lat="60.5512000022" lon="4.97349999102">
		<tag k="name" v="Sørepollen" />
		<tag k="natural" v="bay" />
		<tag k="ssr:stedsnr" v="6719" />
	</node>
	<node id="-63459" lat="60.5529305543" lon="4.96392777157">
		<tag k="name" v="Lykleøyna" />
		<tag k="place" v="islet" />
		<tag k="ssr:stedsnr" v="6713" />
	</node>
	<node id="-63458" lat="60.5878999962" lon="4.92491944374">
		<tag k="name" v="Videskallen" />
		<tag k="natural" v="shoal" />
		<tag k="place" v="locality" />
		<tag k="ssr:stedsnr" v="6706" />
	</node>
	<node id="-63456" lat="60.5736027754" lon="4.96996945356">
		<tag k="name" v="Lamøyna" />
		<tag k="place" v="island" />
		<tag k="ssr:stedsnr" v="6696" />
	</node>
	<node id="-63454" lat="60.5093694435" lon="4.99604165892">
		<tag k="name" v="Vestre Storøygrunnen" />
		<tag k="natural" v="shoal" />
		<tag k="place" v="locality" />
		<tag k="ssr:stedsnr" v="6676" />
	</node>
	<node id="-63450" lat="60.4255749966" lon="5.09300000621">
		<tag k="name" v="Nordra Rotøyna" />
		<tag k="place" v="island" />
		<tag k="ssr:stedsnr" v="6203" />
	</node>
	<node id="-63446" lat="60.4073805574" lon="5.12685833848">
		<tag k="name" v="Færøyna" />
		<tag k="place" v="island" />
		<tag k="ssr:stedsnr" v="5571" />
	</node>
	<node id="-63445" lat="60.4064416637" lon="5.13452778576">
		<tag k="name" v="Lamholmen" />
		<tag k="place" v="islet" />
		<tag k="ssr:stedsnr" v="5570" />
	</node>
	<node id="-63442" lat="60.4458555566" lon="5.0997499983">
		<tag k="name" v="Marholmen" />
		<tag k="place" v="islet" />
		<tag k="ssr:stedsnr" v="5548" />
	</node>
	<node id="-63436" lat="60.4667888881" lon="5.06668333072">
		<tag k="name" v="Stora Børøyna" />
		<tag k="place" v="island" />
		<tag k="ssr:stedsnr" v="5248" />
	</node>
	<node id="-63435" lat="60.4439277767" lon="5.03680555751">
		<tag k="name" v="Nordvestre Ramsøygrunnen" />
		<tag k="natural" v="shoal" />
		<tag k="place" v="locality" />
		<tag k="ssr:stedsnr" v="5154" />
	</node>
	<node id="-63434" lat="60.4469611079" lon="5.07656111742">
		<tag k="name" v="Hanøyna" />
		<tag k="place" v="island" />
		<tag k="ssr:stedsnr" v="5151" />
	</node>
	<node id="-63426" lat="60.4245916674" lon="5.24617499385">
		<tag k="name" v="Drageidet" />
		<tag k="natural" v="bay" />
		<tag k="ssr:stedsnr" v="936720" />
	</node>
	<node id="-63425" lat="60.401363886" lon="5.12608610791">
		<tag k="name" v="Færøyfluene" />
		<tag k="natural" v="shoal" />
		<tag k="place" v="locality" />
		<tag k="ssr:stedsnr" v="935831" />
	</node>
	<node id="-63423" lat="60.5963972181" lon="4.95330000148">
		<tag k="name" v="Litla Agnøyna" />
		<tag k="place" v="islet" />
		<tag k="ssr:stedsnr" v="916915" />
	</node>
	<node id="-63422" lat="60.5020500032" lon="5.02875278404">
		<tag k="name" v="Smalneset" />
		<tag k="natural" v="cape" />
		<tag k="ssr:stedsnr" v="917021" />
	</node>
	<node id="-63418" lat="60.5116750024" lon="5.12969721355">
		<tag k="name" v="Merkesvika" />
		<tag k="natural" v="bay" />
		<tag k="ssr:stedsnr" v="916404" />
	</node>
	<node id="-63417" lat="60.4326749969" lon="5.03921388572">
		<tag k="name" v="Vestre Ramsøygrunnen" />
		<tag k="natural" v="shoal" />
		<tag k="place" v="locality" />
		<tag k="ssr:stedsnr" v="916170" />
	</node>
	<node id="-63416" lat="60.4451861133" lon="5.05733888985">
		<tag k="name" v="Lauvøyflua" />
		<tag k="natural" v="shoal" />
		<tag k="place" v="locality" />
		<tag k="ssr:stedsnr" v="916158" />
	</node>
	<node id="-63414" lat="60.4661916627" lon="5.04093333293">
		<tag k="name" v="Marholmen" />
		<tag k="place" v="islet" />
		<tag k="ssr:stedsnr" v="915228" />
	</node>
	<node id="-63413" lat="60.4878805512" lon="5.00946110305">
		<tag k="name" v="Nordra Tretteflua" />
		<tag k="natural" v="shoal" />
		<tag k="place" v="locality" />
		<tag k="ssr:stedsnr" v="915207" />
	</node>
	<node id="-63408" lat="60.502025003" lon="5.04170278299">
		<tag k="name" v="Eikevågholmen" />
		<tag k="place" v="islet" />
		<tag k="ssr:stedsnr" v="874504" />
	</node>
	<node id="-63406" lat="60.5370555561" lon="4.95707499276">
		<tag k="name" v="Okseflua" />
		<tag k="natural" v="shoal" />
		<tag k="place" v="locality" />
		<tag k="ssr:stedsnr" v="856725" />
	</node>
	<node id="-63404" lat="60.5819000012" lon="4.95840834222">
		<tag k="name" v="Urneset" />
		<tag k="natural" v="cape" />
		<tag k="ssr:stedsnr" v="856709" />
	</node>
	<node id="-63403" lat="60.5622159182" lon="4.96090731831">
		<tag k="name" v="Herdlesundet" />
		<tag k="natural" v="strait" />
		<tag k="ssr:stedsnr" v="856704" />
	</node>
	<node id="-63399" lat="60.4399861108" lon="5.20932777895">
		<tag k="name" v="Askøy" />
		<tag k="place" v="island" />
		<tag k="ssr:stedsnr" v="855504" />
	</node>
	<node id="-63396" lat="60.4414583296" lon="5.08981667539">
		<tag k="name" v="Nordre Skaget" />
		<tag k="natural" v="cape" />
		<tag k="ssr:stedsnr" v="835704" />
	</node>
	<node id="-63390" lat="60.4471750033" lon="5.094677779">
		<tag k="fixme" v="consider seamark:type=rock or natural=shoal" />
		<tag k="name" v="Klungerskjeret" />
		<tag k="place" v="islet" />
		<tag k="ssr:stedsnr" v="834905" />
	</node>
	<node id="-63389" lat="60.4045249969" lon="5.22036388704">
		<tag k="name" v="Klubbavika" />
		<tag k="natural" v="bay" />
		<tag k="ssr:stedsnr" v="834870" />
	</node>
	<node id="-63380" lat="60.4251888844" lon="5.15308055151">
		<tag k="name" v="Båtholmen" />
		<tag k="place" v="islet" />
		<tag k="ssr:stedsnr" v="834357" />
	</node>
	<node id="-63377" lat="60.4105999977" lon="5.11420834038">
		<tag k="name" v="Bukkholmflua" />
		<tag k="natural" v="shoal" />
		<tag k="place" v="locality" />
		<tag k="ssr:stedsnr" v="936886" />
	</node>
	<node id="-63376" lat="60.4442944487" lon="5.13444999273">
		<tag k="name" v="Tveitevågen" />
		<tag k="natural" v="bay" />
		<tag k="ssr:stedsnr" v="936880" />
	</node>
	<node id="-63375" lat="60.45872349" lon="5.09312021448">
		<tag k="name" v="Nordra Storvika" />
		<tag k="natural" v="bay" />
		<tag k="ssr:stedsnr" v="936869" />
	</node>
	<node id="-63373" lat="60.5734750009" lon="4.94762500844">
		<tag k="name" v="Herdla" />
		<tag k="place" v="island" />
		<tag k="ssr:stedsnr" v="935974" />
	</node>
	<node id="-63372" lat="60.5076583348" lon="5.15983610548">
		<tag k="name" v="Søre Hanevikskallen" />
		<tag k="natural" v="shoal" />
		<tag k="place" v="locality" />
		<tag k="ssr:stedsnr" v="935495" />
	</node>
	<node id="-63371" lat="60.5156972178" lon="5.08337499364">
		<tag k="fixme" v="consider seamark:type=rock or natural=shoal" />
		<tag k="name" v="Skarveskjeret" />
		<tag k="place" v="islet" />
		<tag k="ssr:stedsnr" v="935492" />
	</node>
	<node id="-63370" lat="60.4233361143" lon="5.15037777278">
		<tag k="name" v="Veidvågen" />
		<tag k="natural" v="bay" />
		<tag k="ssr:stedsnr" v="814976" />
	</node>
	<node id="-63369" lat="60.4810611077" lon="5.07654444314">
		<tag k="name" v="Søre Skotnesvika" />
		<tag k="natural" v="bay" />
		<tag k="ssr:stedsnr" v="956738" />
	</node>
	<node id="-63368" lat="60.4650722122" lon="5.06088515085">
		<tag k="name" v="Børøypollen" />
		<tag k="natural" v="bay" />
		<tag k="ssr:stedsnr" v="956737" />
	</node>
	<node id="-63365" lat="60.4200249995" lon="5.12224166806">
		<tag k="alt_name" v="Skorpa" />
		<tag k="name" v="Skorpo" />
		<tag k="place" v="island" />
		<tag k="ssr:stedsnr" v="794608" />
	</node>
	<node id="-63359" lat="60.4924499999" lon="5.19787499294">
		<tag k="name" v="Byneset" />
		<tag k="natural" v="cape" />
		<tag k="ssr:stedsnr" v="794371" />
	</node>
	<node id="-63357" lat="60.4436027799" lon="5.06144721837">
		<tag k="name" v="Stora Lauvøyna" />
		<tag k="place" v="islet" />
		<tag k="ssr:stedsnr" v="794142" />
	</node>
	<node id="-63356" lat="60.4610333344" lon="5.04518333835">
		<tag k="name" v="Agnesholmane" />
		<tag k="place" v="islet" />
		<tag k="ssr:stedsnr" v="794131" />
	</node>
	<node id="-63355" lat="60.5516416644" lon="4.9858500077">
		<tag k="name" v="Stigsvika" />
		<tag k="natural" v="bay" />
		<tag k="ssr:stedsnr" v="917693" />
	</node>
	<node id="-63354" lat="60.5120194438" lon="5.01147223092">
		<tag k="name" v="Sydnøyna" />
		<tag k="place" v="island" />
		<tag k="ssr:stedsnr" v="917637" />
	</node>
	<node id="-63348" lat="60.4423444428" lon="5.08456110558">
		<tag k="name" v="Jektevikholmen" />
		<tag k="place" v="islet" />
		<tag k="ssr:stedsnr" v="774704" />
	</node>
	<node id="-63345" lat="60.4243638929" lon="5.15880556309">
		<tag k="name" v="Hustrevika" />
		<tag k="natural" v="bay" />
		<tag k="ssr:stedsnr" v="773878" />
	</node>
	<node id="-63344" lat="60.4274305595" lon="5.15520278434">
		<tag k="fixme" v="consider seamark:type=rock or natural=shoal" />
		<tag k="name" v="Måsaskjeret" />
		<tag k="place" v="islet" />
		<tag k="ssr:stedsnr" v="773877" />
	</node>
	<node id="-63342" lat="60.3911916698" lon="5.16811111104">
		<tag k="name" v="Eistene" />
		<tag k="natural" v="cape" />
		<tag k="ssr:stedsnr" v="773869" />
	</node>
	<node id="-63341" lat="60.3924166625" lon="5.16604999503">
		<tag k="name" v="Ølkona" />
		<tag k="natural" v="cape" />
		<tag k="ssr:stedsnr" v="773866" />
	</node>
	<node id="-63339" lat="60.5244972231" lon="5.04336388971">
		<tag k="name" v="Nesskarvika" />
		<tag k="natural" v="bay" />
		<tag k="ssr:stedsnr" v="773924" />
	</node>
	<node id="-63335" lat="60.4778472203" lon="5.16094721499">
		<tag k="name" v="Grøndalsvika" />
		<tag k="natural" v="bay" />
		<tag k="ssr:stedsnr" v="773717" />
	</node>
	<node id="-63334" lat="60.4770972192" lon="5.16289721818">
		<tag k="name" v="Grøndalsneset" />
		<tag k="natural" v="cape" />
		<tag k="ssr:stedsnr" v="773716" />
	</node>
	<node id="-63333" lat="60.4888138909" lon="5.06663333777">
		<tag k="name" v="Risstraumen" />
		<tag k="natural" v="strait" />
		<tag k="ssr:stedsnr" v="773713" />
	</node>
	<node id="-63332" lat="60.5007138888" lon="5.15103889657">
		<tag k="name" v="Langaneset" />
		<tag k="natural" v="cape" />
		<tag k="ssr:stedsnr" v="773519" />
	</node>
	<node id="-63330" lat="60.49250833" lon="5.14569999985">
		<tag k="name" v="Kråkenebben" />
		<tag k="natural" v="cape" />
		<tag k="ssr:stedsnr" v="773503" />
	</node>
	<node id="-63329" lat="60.4162305519" lon="5.25063055214">
		<tag k="name" v="Gulskjervika" />
		<tag k="natural" v="bay" />
		<tag k="ssr:stedsnr" v="773277" />
	</node>
	<node id="-63328" lat="60.4965277779" lon="5.16254443908">
		<tag k="name" v="Hunevika" />
		<tag k="natural" v="bay" />
		<tag k="ssr:stedsnr" v="773350" />
	</node>
	<node id="-63327" lat="60.5043277744" lon="5.15061111796">
		<tag k="name" v="Brenneneset" />
		<tag k="natural" v="cape" />
		<tag k="ssr:stedsnr" v="773344" />
	</node>
	<node id="-63325" lat="60.4820833365" lon="5.07286111011">
		<tag k="name" v="Havnen" />
		<tag k="natural" v="bay" />
		<tag k="ssr:stedsnr" v="773312" />
	</node>
	<node id="-63324" lat="60.4537583319" lon="5.24063610835">
		<tag k="name" v="Straumsnesholmane" />
		<tag k="place" v="islet" />
		<tag k="ssr:stedsnr" v="915528" />
	</node>
	<node id="-63319" lat="60.4588833377" lon="5.02173333171">
		<tag k="name" v="Kalvsøyflua" />
		<tag k="natural" v="shoal" />
		<tag k="place" v="locality" />
		<tag k="ssr:stedsnr" v="915133" />
	</node>
	<node id="-63317" lat="60.5531388856" lon="4.93983333883">
		<tag k="name" v="Hønseskallen" />
		<tag k="natural" v="shoal" />
		<tag k="place" v="locality" />
		<tag k="ssr:stedsnr" v="734708" />
	</node>
	<node id="-63315" lat="60.4616577304" lon="5.09749453551">
		<tag k="name" v="Storevikneset" />
		<tag k="natural" v="cape" />
		<tag k="ssr:stedsnr" v="896752" />
	</node>
	<node id="-63314" lat="60.4611111102" lon="5.09937500734">
		<tag k="fixme" v="consider seamark:type=rock or natural=shoal" />
		<tag k="name" v="Pøyleskjeret" />
		<tag k="place" v="islet" />
		<tag k="ssr:stedsnr" v="896751" />
	</node>
	<node id="-63312" lat="60.4741999977" lon="5.15920555908">
		<tag k="name" v="Vassvika" />
		<tag k="natural" v="bay" />
		<tag k="ssr:stedsnr" v="896740" />
	</node>
	<node id="-63311" lat="60.4799472199" lon="5.18939722853">
		<tag k="name" v="Andøyna" />
		<tag k="place" v="island" />
		<tag k="ssr:stedsnr" v="895737" />
	</node>
	<node id="-63308" lat="60.4365916702" lon="5.05784166759">
		<tag k="name" v="Gule Nakken" />
		<tag k="natural" v="cape" />
		<tag k="ssr:stedsnr" v="895599" />
	</node>
	<node id="-63307" lat="60.440302298" lon="5.0545929113">
		<tag k="name" v="Nordaustre Ramsøytangen" />
		<tag k="natural" v="cape" />
		<tag k="ssr:stedsnr" v="895596" />
	</node>
	<node id="-63306" lat="60.4354382299" lon="5.05227298607">
		<tag k="name" v="Myrafjæra" />
		<tag k="natural" v="bay" />
		<tag k="ssr:stedsnr" v="895592" />
	</node>
	<node id="-63304" lat="60.4456555589" lon="5.15033611238">
		<tag k="name" v="Grønevika" />
		<tag k="natural" v="bay" />
		<tag k="ssr:stedsnr" v="895582" />
	</node>
	<node id="-63303" lat="60.5637999978" lon="4.96120000428">
		<tag k="name" v="Austra Vika" />
		<tag k="natural" v="bay" />
		<tag k="ssr:stedsnr" v="895575" />
	</node>
	<node id="-63302" lat="60.5699805582" lon="4.95732222377">
		<tag k="name" v="Lakseneset" />
		<tag k="natural" v="cape" />
		<tag k="ssr:stedsnr" v="895573" />
	</node>
	<node id="-63300" lat="60.5551270292" lon="4.96714295915">
		<tag k="name" v="Håpolden" />
		<tag k="natural" v="bay" />
		<tag k="ssr:stedsnr" v="895569" />
	</node>
	<node id="-63299" lat="60.5276888859" lon="4.99086388018">
		<tag k="fixme" v="consider seamark:type=rock or natural=shoal" />
		<tag k="name" v="Bollen" />
		<tag k="place" v="islet" />
		<tag k="ssr:stedsnr" v="895563" />
	</node>
	<node id="-63298" lat="60.5239833354" lon="5.04039444278">
		<tag k="name" v="Krabbeneset" />
		<tag k="natural" v="cape" />
		<tag k="ssr:stedsnr" v="895557" />
	</node>
	<node id="-63295" lat="60.5141194448" lon="5.04115278104">
		<tag k="fixme" v="consider seamark:type=rock or natural=shoal" />
		<tag k="name" v="Låsbua" />
		<tag k="place" v="islet" />
		<tag k="ssr:stedsnr" v="895537" />
	</node>
	<node id="-63293" lat="60.4998166696" lon="5.15128055113">
		<tag k="name" v="Monsestøa" />
		<tag k="natural" v="bay" />
		<tag k="ssr:stedsnr" v="895514" />
	</node>
	<node id="-63290" lat="60.4647055549" lon="5.07260277064">
		<tag k="name" v="Klubben" />
		<tag k="natural" v="cape" />
		<tag k="ssr:stedsnr" v="895374" />
	</node>
	<node id="-63288" lat="60.3931083344" lon="5.179091658">
		<tag k="name" v="Smeltevikneset" />
		<tag k="natural" v="cape" />
		<tag k="ssr:stedsnr" v="895348" />
	</node>
	<node id="-63287" lat="60.3967666692" lon="5.20010555004">
		<tag k="name" v="Engevika" />
		<tag k="natural" v="bay" />
		<tag k="ssr:stedsnr" v="895342" />
	</node>
	<node id="-63286" lat="60.4778249993" lon="5.17648055469">
		<tag k="name" v="Eidsvika" />
		<tag k="natural" v="bay" />
		<tag k="ssr:stedsnr" v="713765" />
	</node>
	<node id="-63283" lat="60.4595638877" lon="5.22613611143">
		<tag k="name" v="Purkhola" />
		<tag k="natural" v="bay" />
		<tag k="ssr:stedsnr" v="713716" />
	</node>
	<node id="-63282" lat="60.4548805558" lon="5.22708054663">
		<tag k="name" v="Olavika" />
		<tag k="natural" v="bay" />
		<tag k="ssr:stedsnr" v="713714" />
	</node>
	<node id="-63279" lat="60.5034833361" lon="5.17352777645">
		<tag k="name" v="Søre Signalvika" />
		<tag k="natural" v="bay" />
		<tag k="ssr:stedsnr" v="713573" />
	</node>
	<node id="-63278" lat="60.4942638851" lon="5.16240833499">
		<tag k="name" v="Langeneset" />
		<tag k="natural" v="cape" />
		<tag k="ssr:stedsnr" v="713565" />
	</node>
	<node id="-63276" lat="60.412980555" lon="5.24792222212">
		<tag k="name" v="Støneset" />
		<tag k="natural" v="cape" />
		<tag k="ssr:stedsnr" v="894997" />
	</node>
	<node id="-63271" lat="60.4059944467" lon="5.22566667353">
		<tag k="name" v="Kleppestøsundet" />
		<tag k="natural" v="strait" />
		<tag k="ssr:stedsnr" v="894921" />
	</node>
	<node id="-63260" lat="60.5323222196" lon="5.04166389821">
		<tag k="name" v="Nordre Berlandsholmen" />
		<tag k="place" v="islet" />
		<tag k="ssr:stedsnr" v="894325" />
	</node>
	<node id="-63256" lat="60.410272225" lon="5.14534444536">
		<tag k="fixme" v="consider seamark:type=rock or natural=shoal" />
		<tag k="name" v="Damskjeret" />
		<tag k="place" v="islet" />
		<tag k="ssr:stedsnr" v="693975" />
	</node>
	<node id="-63255" lat="60.4099527755" lon="5.12871666461">
		<tag k="fixme" v="consider seamark:type=rock or natural=shoal" />
		<tag k="name" v="Skarven" />
		<tag k="place" v="islet" />
		<tag k="ssr:stedsnr" v="693974" />
	</node>
	<node id="-63252" lat="60.5378361101" lon="4.98053611854">
		<tag k="fixme" v="consider seamark:type=rock or natural=shoal" />
		<tag k="name" v="Randeskjeret" />
		<tag k="place" v="islet" />
		<tag k="ssr:stedsnr" v="692466" />
	</node>
	<node id="-63251" lat="60.5263694415" lon="5.03750277457">
		<tag k="name" v="Fauskangsstraumen" />
		<tag k="natural" v="strait" />
		<tag k="ssr:stedsnr" v="674679" />
	</node>
	<node id="-63250" lat="60.5214277793" lon="5.09178056326">
		<tag k="alt_name" v="Hegernes" />
		<tag k="name" v="Hegerneset" />
		<tag k="natural" v="cape" />
		<tag k="ssr:stedsnr" v="674668" />
	</node>
	<node id="-63249" lat="60.5011555559" lon="5.0441944515">
		<tag k="name" v="Eikevågen" />
		<tag k="natural" v="bay" />
		<tag k="ssr:stedsnr" v="674664" />
	</node>
	<node id="-63247" lat="60.4898777775" lon="5.03797222142">
		<tag k="name" v="Fløsundholmen" />
		<tag k="place" v="islet" />
		<tag k="ssr:stedsnr" v="652712" />
	</node>
	<node id="-63245" lat="60.47234722" lon="5.0656805468">
		<tag k="name" v="Søre Krossundkeila" />
		<tag k="natural" v="strait" />
		<tag k="ssr:stedsnr" v="652710" />
	</node>
	<node id="-63237" lat="60.612941667" lon="4.92360277122">
		<tag k="name" v="Kvernane" />
		<tag k="place" v="islet" />
		<tag k="ssr:stedsnr" v="734900" />
	</node>
	<node id="-63236" lat="60.607269444" lon="4.93362777002">
		<tag k="name" v="Prestholmen" />
		<tag k="place" v="islet" />
		<tag k="ssr:stedsnr" v="734898" />
	</node>
	<node id="-63233" lat="60.5045666696" lon="5.1718805623">
		<tag k="name" v="Signalneset" />
		<tag k="natural" v="cape" />
		<tag k="ssr:stedsnr" v="734514" />
	</node>
	<node id="-63231" lat="60.4720416711" lon="5.22249444557">
		<tag k="name" v="Hopshavnen" />
		<tag k="natural" v="bay" />
		<tag k="ssr:stedsnr" v="734461" />
	</node>
	<node id="-63228" lat="60.3975583293" lon="5.20639722692">
		<tag k="name" v="Skarholmen" />
		<tag k="place" v="islet" />
		<tag k="ssr:stedsnr" v="733659" />
	</node>
	<node id="-63227" lat="60.4003527756" lon="5.16167222871">
		<tag k="name" v="Eidsvika" />
		<tag k="natural" v="bay" />
		<tag k="ssr:stedsnr" v="733557" />
	</node>
	<node id="-63225" lat="60.4134583321" lon="5.24253611454">
		<tag k="name" v="Kylleren" />
		<tag k="natural" v="bay" />
		<tag k="ssr:stedsnr" v="733539" />
	</node>
	<node id="-63223" lat="60.4357777782" lon="5.23455277786">
		<tag k="name" v="Erdalsneset" />
		<tag k="natural" v="cape" />
		<tag k="ssr:stedsnr" v="733486" />
	</node>
	<node id="-63222" lat="60.4378555512" lon="5.16768055071">
		<tag k="name" v="Risholmen" />
		<tag k="place" v="islet" />
		<tag k="ssr:stedsnr" v="733481" />
	</node>
	<node id="-63221" lat="60.4413055558" lon="5.14147778264">
		<tag k="name" v="Laksholmen" />
		<tag k="place" v="islet" />
		<tag k="ssr:stedsnr" v="733479" />
	</node>
	<node id="-63219" lat="60.4685361083" lon="5.15359445127">
		<tag k="name" v="Båtevika" />
		<tag k="natural" v="bay" />
		<tag k="ssr:stedsnr" v="733387" />
	</node>
	<node id="-63218" lat="60.4829527751" lon="5.08991666236">
		<tag k="name" v="Lindebotnen" />
		<tag k="natural" v="bay" />
		<tag k="ssr:stedsnr" v="632867" />
	</node>
	<node id="-63216" lat="60.4158333304" lon="5.24305556359">
		<tag k="name" v="Bastaneset" />
		<tag k="natural" v="cape" />
		<tag k="ssr:stedsnr" v="631977" />
	</node>
	<node id="-63210" lat="60.4725361117" lon="5.22642221628">
		<tag k="name" v="Raspekaka" />
		<tag k="natural" v="cape" />
		<tag k="ssr:stedsnr" v="713730" />
	</node>
	<node id="-63209" lat="60.4557916635" lon="5.07750555788">
		<tag k="name" v="Tveitneset" />
		<tag k="natural" v="cape" />
		<tag k="ssr:stedsnr" v="713723" />
	</node>
	<node id="-63208" lat="60.4432138887" lon="5.08634721671">
		<tag k="name" v="Jektevikneset" />
		<tag k="natural" v="cape" />
		<tag k="ssr:stedsnr" v="713693" />
	</node>
	<node id="-63207" lat="60.4451805564" lon="5.08840276985">
		<tag k="name" v="Slåttevika" />
		<tag k="natural" v="bay" />
		<tag k="ssr:stedsnr" v="713692" />
	</node>
	<node id="-63202" lat="60.4365083314" lon="5.07078333955">
		<tag k="name" v="Breiavika" />
		<tag k="natural" v="bay" />
		<tag k="ssr:stedsnr" v="713671" />
	</node>
	<node id="-63201" lat="60.4398777808" lon="5.05562222785">
		<tag k="name" v="Sofaen" />
		<tag k="natural" v="bay" />
		<tag k="ssr:stedsnr" v="713669" />
	</node>
	<node id="-63200" lat="60.4387749977" lon="5.05108055167">
		<tag k="name" v="Nordra Lefjæra" />
		<tag k="natural" v="cape" />
		<tag k="ssr:stedsnr" v="713665" />
	</node>
	<node id="-63197" lat="60.4942944471" lon="5.08931943895">
		<tag k="name" v="Badevika" />
		<tag k="natural" v="bay" />
		<tag k="ssr:stedsnr" v="713777" />
	</node>
	<node id="-63196" lat="60.4843694474" lon="5.17671944266">
		<tag k="name" v="Sundet" />
		<tag k="natural" v="strait" />
		<tag k="ssr:stedsnr" v="713526" />
	</node>
	<node id="-63195" lat="60.4423444465" lon="5.15476666546">
		<tag k="name" v="Hauglandsneset" />
		<tag k="natural" v="cape" />
		<tag k="ssr:stedsnr" v="713637" />
	</node>
	<node id="-63194" lat="60.5778083327" lon="4.94289721506">
		<tag k="name" v="Gavlevika" />
		<tag k="natural" v="bay" />
		<tag k="ssr:stedsnr" v="713634" />
	</node>
	<node id="-63193" lat="60.5630222196" lon="4.9592888955">
		<tag k="name" v="Vestrevika" />
		<tag k="natural" v="bay" />
		<tag k="ssr:stedsnr" v="713627" />
	</node>
	<node id="-63192" lat="60.5535805576" lon="4.9646027855">
		<tag k="name" v="Anderssundet" />
		<tag k="natural" v="strait" />
		<tag k="ssr:stedsnr" v="713625" />
	</node>
	<node id="-63191" lat="60.5276861082" lon="5.03995000553">
		<tag k="name" v="Neset" />
		<tag k="natural" v="cape" />
		<tag k="ssr:stedsnr" v="713617" />
	</node>
	<node id="-63190" lat="60.5142666699" lon="5.08053889015">
		<tag k="name" v="Monsastøa" />
		<tag k="natural" v="bay" />
		<tag k="ssr:stedsnr" v="713592" />
	</node>
	<node id="-63185" lat="60.3985027798" lon="5.21029166922">
		<tag k="name" v="Byneset" />
		<tag k="natural" v="cape" />
		<tag k="ssr:stedsnr" v="712876" />
	</node>
	<node id="-63177" lat="60.4514388892" lon="5.10361944252">
		<tag k="name" v="Kaggevikane" />
		<tag k="natural" v="bay" />
		<tag k="ssr:stedsnr" v="712295" />
	</node>
	<node id="-63172" lat="60.476652775" lon="5.0594194471">
		<tag k="name" v="Krossundholmen" />
		<tag k="place" v="islet" />
		<tag k="ssr:stedsnr" v="712266" />
	</node>
	<node id="-63170" lat="60.5163611098" lon="5.0075805525">
		<tag k="fixme" v="consider seamark:type=rock or natural=shoal" />
		<tag k="name" v="Sydnøyskjeret" />
		<tag k="place" v="islet" />
		<tag k="ssr:stedsnr" v="712252" />
	</node>
	<node id="-63168" lat="60.5441805553" lon="4.97985833044">
		<tag k="name" v="Notaneset" />
		<tag k="natural" v="cape" />
		<tag k="ssr:stedsnr" v="590935" />
	</node>
	<node id="-63167" lat="60.4241861152" lon="5.15338055737">
		<tag k="name" v="Basneset" />
		<tag k="natural" v="cape" />
		<tag k="ssr:stedsnr" v="590913" />
	</node>
	<node id="-63163" lat="60.4581722212" lon="5.08693055162">
		<tag k="name" v="Utfarsvika" />
		<tag k="natural" v="bay" />
		<tag k="ssr:stedsnr" v="571888" />
	</node>
	<node id="-63159" lat="60.4206222236" lon="5.0890666642">
		<tag k="name" v="Kristofferholmen" />
		<tag k="place" v="islet" />
		<tag k="ssr:stedsnr" v="693888" />
	</node>
	<node id="-63158" lat="60.3972166669" lon="5.19258055093">
		<tag k="fixme" v="consider seamark:type=rock or natural=shoal" />
		<tag k="name" v="Småskjera" />
		<tag k="place" v="islet" />
		<tag k="ssr:stedsnr" v="693745" />
	</node>
	<node id="-63157" lat="60.4690916633" lon="5.08109722793">
		<tag k="name" v="Jodlevågen" />
		<tag k="natural" v="bay" />
		<tag k="ssr:stedsnr" v="693874" />
	</node>
	<node id="-63155" lat="60.4193694436" lon="5.2507222172">
		<tag k="name" v="Tjuvavågane" />
		<tag k="natural" v="bay" />
		<tag k="ssr:stedsnr" v="692980" />
	</node>
	<node id="-63154" lat="60.4130107335" lon="5.23988984817">
		<tag k="name" v="Leirvika" />
		<tag k="natural" v="bay" />
		<tag k="ssr:stedsnr" v="692973" />
	</node>
	<node id="-63153" lat="60.5881111119" lon="4.96815832984">
		<tag k="name" v="Kvitholmflua" />
		<tag k="natural" v="shoal" />
		<tag k="place" v="locality" />
		<tag k="ssr:stedsnr" v="692692" />
	</node>
	<node id="-63152" lat="60.5917833323" lon="4.94576388465">
		<tag k="name" v="Søreflua" />
		<tag k="natural" v="shoal" />
		<tag k="place" v="locality" />
		<tag k="ssr:stedsnr" v="692679" />
	</node>
	<node id="-63147" lat="60.5304111114" lon="5.04197777898">
		<tag k="name" v="Hundevika" />
		<tag k="natural" v="bay" />
		<tag k="ssr:stedsnr" v="531633" />
	</node>
	<node id="-63144" lat="60.5092083338" lon="5.01835555177">
		<tag k="name" v="Rossneset" />
		<tag k="natural" v="cape" />
		<tag k="ssr:stedsnr" v="530594" />
	</node>
	<node id="-63142" lat="60.5136500005" lon="5.12435556216">
		<tag k="name" v="Setrevika" />
		<tag k="natural" v="bay" />
		<tag k="ssr:stedsnr" v="530574" />
	</node>
	<node id="-63140" lat="60.4413333317" lon="5.08691945213">
		<tag k="name" v="Kobbholmen" />
		<tag k="place" v="islet" />
		<tag k="ssr:stedsnr" v="530352" />
	</node>
	<node id="-63138" lat="60.4159694424" lon="5.24521389625">
		<tag k="name" v="Sundet" />
		<tag k="natural" v="strait" />
		<tag k="ssr:stedsnr" v="530404" />
	</node>
	<node id="-63136" lat="60.525258331" lon="4.98767778312">
		<tag k="fixme" v="consider seamark:type=rock or natural=shoal" />
		<tag k="name" v="Myrbærskjeret" />
		<tag k="place" v="islet" />
		<tag k="ssr:stedsnr" v="510518" />
	</node>
	<node id="-63135" lat="60.5878611117" lon="4.96225000585">
		<tag k="name" v="Strykjene" />
		<tag k="natural" v="shoal" />
		<tag k="place" v="locality" />
		<tag k="ssr:stedsnr" v="509669" />
	</node>
	<node id="-63134" lat="60.5563638883" lon="4.97726666298">
		<tag k="name" v="Mjølkevika" />
		<tag k="natural" v="bay" />
		<tag k="ssr:stedsnr" v="674721" />
	</node>
	<node id="-63131" lat="60.5680694465" lon="4.93171110803">
		<tag k="name" v="Langeskallen" />
		<tag k="natural" v="shoal" />
		<tag k="place" v="locality" />
		<tag k="ssr:stedsnr" v="674697" />
	</node>
	<node id="-63130" lat="60.5226305542" lon="5.09725555592">
		<tag k="name" v="Hegernesvika" />
		<tag k="natural" v="bay" />
		<tag k="ssr:stedsnr" v="674376" />
	</node>
	<node id="-63129" lat="60.5148833336" lon="5.12176110392">
		<tag k="name" v="Olderneset" />
		<tag k="natural" v="cape" />
		<tag k="ssr:stedsnr" v="674034" />
	</node>
	<node id="-63128" lat="60.598561107" lon="4.94720000473">
		<tag k="name" v="Naustøyna" />
		<tag k="place" v="island" />
		<tag k="ssr:stedsnr" v="673911" />
	</node>
	<node id="-63127" lat="60.3955666629" lon="5.19825556387">
		<tag k="name" v="Storebuneset" />
		<tag k="natural" v="cape" />
		<tag k="ssr:stedsnr" v="673686" />
	</node>
	<node id="-63124" lat="60.4909249964" lon="5.20337499227">
		<tag k="name" v="Flensberghamna" />
		<tag k="natural" v="bay" />
		<tag k="ssr:stedsnr" v="673410" />
	</node>
	<node id="-63118" lat="60.4081944466" lon="5.24628332927">
		<tag k="name" v="Storholmen" />
		<tag k="place" v="islet" />
		<tag k="ssr:stedsnr" v="672558" />
	</node>
	<node id="-63112" lat="60.5247333357" lon="5.00102222423">
		<tag k="fixme" v="consider seamark:type=rock or natural=shoal" />
		<tag k="name" v="Bekkeskjeret" />
		<tag k="place" v="islet" />
		<tag k="ssr:stedsnr" v="450542" />
	</node>
	<node id="-63111" lat="60.417436111" lon="5.24952500353">
		<tag k="alt_name" v="Florvågøy" />
		<tag k="name" v="Florvågøyna" />
		<tag k="natural" v="cape" />
		<tag k="ssr:stedsnr" v="430620" />
	</node>
	<node id="-63110" lat="60.4288277752" lon="5.14672499969">
		<tag k="name" v="Torvneset" />
		<tag k="natural" v="cape" />
		<tag k="ssr:stedsnr" v="430608" />
	</node>
	<node id="-63106" lat="60.4755416665" lon="5.22228888365">
		<tag k="alt_name" v="Juvik" />
		<tag k="name" v="Juvika" />
		<tag k="natural" v="bay" />
		<tag k="ssr:stedsnr" v="430413" />
	</node>
	<node id="-63100" lat="60.3991222239" lon="5.19509167042">
		<tag k="name" v="Kråkevika" />
		<tag k="natural" v="bay" />
		<tag k="ssr:stedsnr" v="409862" />
	</node>
	<node id="-63099" lat="60.4062555575" lon="5.22937500116">
		<tag k="name" v="Maltvikaneset" />
		<tag k="natural" v="cape" />
		<tag k="ssr:stedsnr" v="409861" />
	</node>
	<node id="-63098" lat="60.451238889" lon="5.0985388903">
		<tag k="name" v="Furholmen" />
		<tag k="place" v="islet" />
		<tag k="ssr:stedsnr" v="409951" />
	</node>
	<node id="-63093" lat="60.604144441" lon="4.94454166989">
		<tag k="name" v="Søre Hunden" />
		<tag k="natural" v="shoal" />
		<tag k="place" v="locality" />
		<tag k="ssr:stedsnr" v="509644" />
	</node>
	<node id="-63092" lat="60.4847249992" lon="5.19817499944">
		<tag k="name" v="Søre Pollen" />
		<tag k="natural" v="bay" />
		<tag k="ssr:stedsnr" v="409339" />
	</node>
	<node id="-63091" lat="60.4784388904" lon="5.17557222988">
		<tag k="name" v="Brunelvvika" />
		<tag k="natural" v="bay" />
		<tag k="ssr:stedsnr" v="409334" />
	</node>
	<node id="-63089" lat="60.4881583334" lon="5.08961111602">
		<tag k="name" v="Ålevika" />
		<tag k="natural" v="bay" />
		<tag k="ssr:stedsnr" v="409304" />
	</node>
	<node id="-63087" lat="60.48891111" lon="5.05751388437">
		<tag k="name" v="Ytste Risholmen" />
		<tag k="place" v="islet" />
		<tag k="ssr:stedsnr" v="409302" />
	</node>
	<node id="-63084" lat="60.4548944488" lon="5.09345833329">
		<tag k="name" v="Steinsundet" />
		<tag k="natural" v="strait" />
		<tag k="ssr:stedsnr" v="389871" />
	</node>
	<node id="-63082" lat="60.50582778" lon="5.14222500242">
		<tag k="name" v="Kammaren" />
		<tag k="natural" v="cape" />
		<tag k="ssr:stedsnr" v="389676" />
	</node>
	<node id="-63081" lat="60.5378972183" lon="4.96971666252">
		<tag k="name" v="Storoksen" />
		<tag k="place" v="island" />
		<tag k="ssr:stedsnr" v="492702" />
	</node>
	<node id="-63080" lat="60.5826222244" lon="4.97487222888">
		<tag k="name" v="Kvitholmen" />
		<tag k="place" v="islet" />
		<tag k="ssr:stedsnr" v="492684" />
	</node>
	<node id="-63079" lat="60.5584888919" lon="4.95251111018">
		<tag k="name" v="Herdleflua" />
		<tag k="natural" v="shoal" />
		<tag k="place" v="locality" />
		<tag k="ssr:stedsnr" v="492675" />
	</node>
	<node id="-63078" lat="60.505020453" lon="5.07991179895">
		<tag k="alt_name" v="Frommereidpollen" />
		<tag k="name" v="Fromreidpollen" />
		<tag k="natural" v="bay" />
		<tag k="ssr:stedsnr" v="492660" />
	</node>
	<node id="-63077" lat="60.5237694472" lon="5.04561111706">
		<tag k="name" v="Kalvvika" />
		<tag k="natural" v="bay" />
		<tag k="ssr:stedsnr" v="492640" />
	</node>
	<node id="-63075" lat="60.4261555531" lon="5.15853055866">
		<tag k="name" v="Storevågen" />
		<tag k="natural" v="bay" />
		<tag k="ssr:stedsnr" v="491613" />
	</node>
	<node id="-63073" lat="60.4412638911" lon="5.16338610728">
		<tag k="name" v="Knappen" />
		<tag k="natural" v="cape" />
		<tag k="ssr:stedsnr" v="491541" />
	</node>
	<node id="-63072" lat="60.4381083315" lon="5.09311111592">
		<tag k="name" v="Vestre Skjerholmen" />
		<tag k="place" v="islet" />
		<tag k="ssr:stedsnr" v="491540" />
	</node>
	<node id="-63071" lat="60.5027923141" lon="5.16177816574">
		<tag k="name" v="Sæterstølvika" />
		<tag k="natural" v="bay" />
		<tag k="ssr:stedsnr" v="491516" />
	</node>
	<node id="-63070" lat="60.4979833343" lon="5.18530555568">
		<tag k="name" v="Olderneset" />
		<tag k="natural" v="cape" />
		<tag k="ssr:stedsnr" v="491497" />
	</node>
	<node id="-63068" lat="60.480275" lon="5.22246666242">
		<tag k="name" v="Frugardsholten" />
		<tag k="natural" v="cape" />
		<tag k="ssr:stedsnr" v="491399" />
	</node>
	<node id="-63067" lat="60.5117722243" lon="5.13243888762">
		<tag k="name" v="Slettevika" />
		<tag k="natural" v="bay" />
		<tag k="ssr:stedsnr" v="491398" />
	</node>
	<node id="-63062" lat="60.4202861138" lon="5.24157777358">
		<tag k="name" v="Florvågen" />
		<tag k="natural" v="bay" />
		<tag k="ssr:stedsnr" v="490599" />
	</node>
	<node id="-63061" lat="60.4249333356" lon="5.24351389121">
		<tag k="name" v="Skarpaneset" />
		<tag k="natural" v="cape" />
		<tag k="ssr:stedsnr" v="490597" />
	</node>
	<node id="-63058" lat="60.446325003" lon="5.11622777227">
		<tag k="alt_name" v="Kolavågen" />
		<tag k="name" v="Kollevågen" />
		<tag k="natural" v="bay" />
		<tag k="ssr:stedsnr" v="490541" />
	</node>
	<node id="-63057" lat="60.4513334802" lon="5.22776303137">
		<tag k="alt_name" v="Skogvika" />
		<tag k="name" v="Skogvik" />
		<tag k="natural" v="bay" />
		<tag k="ssr:stedsnr" v="490489" />
	</node>
	<node id="-63055" lat="60.4734138897" lon="5.02717500666">
		<tag k="name" v="Marholmgrunnen" />
		<tag k="natural" v="shoal" />
		<tag k="place" v="locality" />
		<tag k="ssr:stedsnr" v="490235" />
	</node>
	<node id="-63054" lat="60.488494448" lon="5.03919999468">
		<tag k="name" v="Ertenøynane" />
		<tag k="place" v="island" />
		<tag k="ssr:stedsnr" v="490222" />
	</node>
	<node id="-63053" lat="60.4426777764" lon="5.06698054713">
		<tag k="name" v="Litla Lauvøyna" />
		<tag k="place" v="islet" />
		<tag k="ssr:stedsnr" v="490147" />
	</node>
	<node id="-63052" lat="60.4618916666" lon="5.09121388433">
		<tag k="bay" v="fjord" />
		<tag k="name" v="Davangsvågen" />
		<tag k="natural" v="bay" />
		<tag k="ssr:stedsnr" v="490139" />
	</node>
	<node id="-63051" lat="60.4614861092" lon="5.02714443867">
		<tag k="fixme" v="multiple name tags, choose one and add the other to alt_name" />
		<tag k="name" v="Store Kalven;Kalsøykalven" />
		<tag k="old_name" v="Kallsøykalven" />
		<tag k="place" v="islet" />
		<tag k="ssr:stedsnr" v="490136" />
	</node>
	<node id="-63049" lat="60.4693388857" lon="5.1170833386">
		<tag k="name" v="Naustvika" />
		<tag k="natural" v="bay" />
		<tag k="ssr:stedsnr" v="349734" />
	</node>
	<node id="-63048" lat="60.4691333352" lon="5.1082222297">
		<tag k="name" v="Kvernhusvika" />
		<tag k="natural" v="bay" />
		<tag k="ssr:stedsnr" v="349731" />
	</node>
	<node id="-63045" lat="60.4683055559" lon="5.12156110682">
		<tag k="name" v="Søre Vågen" />
		<tag k="natural" v="bay" />
		<tag k="ssr:stedsnr" v="349710" />
	</node>
	<node id="-63044" lat="60.4475805513" lon="5.09331943775">
		<tag k="name" v="Båtvika" />
		<tag k="natural" v="bay" />
		<tag k="ssr:stedsnr" v="349707" />
	</node>
	<node id="-63043" lat="60.429816669" lon="5.15680278454">
		<tag k="name" v="Storsundet" />
		<tag k="natural" v="strait" />
		<tag k="ssr:stedsnr" v="348874" />
	</node>
	<node id="-63042" lat="60.4035249989" lon="5.21424722457">
		<tag k="name" v="Askjellsvika" />
		<tag k="natural" v="bay" />
		<tag k="ssr:stedsnr" v="348852" />
	</node>
	<node id="-63041" lat="60.4745499998" lon="5.15328333464">
		<tag k="name" v="Hesteneset" />
		<tag k="natural" v="cape" />
		<tag k="ssr:stedsnr" v="348954" />
	</node>
	<node id="-63040" lat="60.4886972198" lon="5.04245276983">
		<tag k="name" v="Søra Fløsundvika" />
		<tag k="natural" v="bay" />
		<tag k="ssr:stedsnr" v="348726" />
	</node>
	<node id="-63027" lat="60.5256822395" lon="5.00273989201">
		<tag k="name" v="Stokkevika" />
		<tag k="natural" v="bay" />
		<tag k="ssr:stedsnr" v="348272" />
	</node>
	<node id="-63025" lat="60.5512305567" lon="4.96163889647">
		<tag k="name" v="Midtsundet" />
		<tag k="natural" v="strait" />
		<tag k="ssr:stedsnr" v="348263" />
	</node>
	<node id="-63022" lat="60.4810043621" lon="5.21929937665">
		<tag k="alt_name" v="Askehamn" />
		<tag k="name" v="Askehamna" />
		<tag k="natural" v="bay" />
		<tag k="ssr:stedsnr" v="551371" />
	</node>
	<node id="-63015" lat="60.469619445" lon="5.12025554803">
		<tag k="name" v="Kalvvika" />
		<tag k="natural" v="bay" />
		<tag k="ssr:stedsnr" v="470698" />
	</node>
	<node id="-63007" lat="60.5763972192" lon="4.94636111229">
		<tag k="name" v="Nordre Signalen" />
		<tag k="natural" v="cape" />
		<tag k="ssr:stedsnr" v="470610" />
	</node>
	<node id="-63006" lat="60.5765249963" lon="4.97716666507">
		<tag k="name" v="Kalvsøysundet" />
		<tag k="natural" v="strait" />
		<tag k="ssr:stedsnr" v="470607" />
	</node>
	<node id="-63005" lat="60.514922219" lon="5.08468055296">
		<tag k="name" v="Gamlestøa" />
		<tag k="natural" v="bay" />
		<tag k="ssr:stedsnr" v="470574" />
	</node>
	<node id="-63004" lat="60.5009722176" lon="5.08484443951">
		<tag k="name" v="Løypet" />
		<tag k="natural" v="bay" />
		<tag k="ssr:stedsnr" v="470548" />
	</node>
	<node id="-63000" lat="60.4823138845" lon="5.19230555541">
		<tag k="name" v="Sagedalsvika" />
		<tag k="natural" v="bay" />
		<tag k="old_name" v="Ormevika" />
		<tag k="ssr:stedsnr" v="470503" />
	</node>
	<node id="-62999" lat="60.6014444469" lon="4.94692499338">
		<tag k="fixme" v="consider seamark:type=rock or natural=shoal" />
		<tag k="name" v="Langeskjeret" />
		<tag k="place" v="islet" />
		<tag k="ssr:stedsnr" v="469995" />
	</node>
	<node id="-62998" lat="60.5705111113" lon="4.95613610526">
		<tag k="name" v="Laksevågen" />
		<tag k="natural" v="bay" />
		<tag k="ssr:stedsnr" v="469948" />
	</node>
	<node id="-62996" lat="60.4092055587" lon="5.15085556414">
		<tag k="name" v="Follesevågen" />
		<tag k="natural" v="bay" />
		<tag k="ssr:stedsnr" v="469903" />
	</node>
	<node id="-62995" lat="60.3980027796" lon="5.17199167035">
		<tag k="name" v="Pøyla" />
		<tag k="natural" v="bay" />
		<tag k="ssr:stedsnr" v="469895" />
	</node>
	<node id="-62991" lat="60.4358805592" lon="5.0617638813">
		<tag k="name" v="Søre Hillesøyneset" />
		<tag k="natural" v="cape" />
		<tag k="ssr:stedsnr" v="469342" />
	</node>
	<node id="-62987" lat="60.4638916655" lon="5.08218056036">
		<tag k="name" v="Stora Breivika" />
		<tag k="natural" v="bay" />
		<tag k="ssr:stedsnr" v="469321" />
	</node>
	<node id="-62985" lat="60.4937222229" lon="5.01795832558">
		<tag k="name" v="Maurholmen" />
		<tag k="place" v="islet" />
		<tag k="ssr:stedsnr" v="469299" />
	</node>
	<node id="-62984" lat="60.4937416685" lon="5.04668610824">
		<tag k="fixme" v="consider seamark:type=rock or natural=shoal" />
		<tag k="name" v="Krækjebærskjera" />
		<tag k="place" v="islet" />
		<tag k="ssr:stedsnr" v="469289" />
	</node>
	<node id="-62977" lat="60.4632638857" lon="5.07825000138">
		<tag k="name" v="Litla Breivika" />
		<tag k="natural" v="bay" />
		<tag k="ssr:stedsnr" v="289762" />
	</node>
	<node id="-62971" lat="60.4883555545" lon="5.04333332588">
		<tag k="fixme" v="consider seamark:type=rock or natural=shoal" />
		<tag k="name" v="Fløsundskjera" />
		<tag k="place" v="islet" />
		<tag k="ssr:stedsnr" v="288705" />
	</node>
	<node id="-62970" lat="60.4425916705" lon="5.12773888346">
		<tag k="name" v="Krossvika" />
		<tag k="natural" v="bay" />
		<tag k="ssr:stedsnr" v="288572" />
	</node>
	<node id="-62969" lat="60.5464972265" lon="4.97234167248">
		<tag k="fixme" v="consider seamark:type=rock or natural=shoal" />
		<tag k="name" v="Sandskjera" />
		<tag k="place" v="islet" />
		<tag k="ssr:stedsnr" v="288558" />
	</node>
	<node id="-62968" lat="60.532655552" lon="5.02895555381">
		<tag k="name" v="Bøneset" />
		<tag k="natural" v="cape" />
		<tag k="ssr:stedsnr" v="288554" />
	</node>
	<node id="-62967" lat="60.5305722226" lon="5.03466944876">
		<tag k="name" v="Bukta" />
		<tag k="natural" v="bay" />
		<tag k="ssr:stedsnr" v="288552" />
	</node>
	<node id="-62966" lat="60.4446916681" lon="5.07125000254">
		<tag k="name" v="Naustvika" />
		<tag k="natural" v="bay" />
		<tag k="ssr:stedsnr" v="288613" />
	</node>
	<node id="-62964" lat="60.4826746711" lon="5.21932140425">
		<tag k="name" v="Oldervika" />
		<tag k="natural" v="bay" />
		<tag k="ssr:stedsnr" v="288469" />
	</node>
	<node id="-62962" lat="60.41728611" lon="5.24571110433">
		<tag k="name" v="Havnen" />
		<tag k="natural" v="bay" />
		<tag k="ssr:stedsnr" v="288363" />
	</node>
	<node id="-62960" lat="60.4992944467" lon="5.18210277822">
		<tag k="name" v="Svartenakken" />
		<tag k="natural" v="cape" />
		<tag k="ssr:stedsnr" v="287956" />
	</node>
	<node id="-62958" lat="60.5966916706" lon="4.95599722088">
		<tag k="name" v="Flatholmen" />
		<tag k="place" v="islet" />
		<tag k="ssr:stedsnr" v="287926" />
	</node>
	<node id="-62956" lat="60.4422583297" lon="5.14233333739">
		<tag k="name" v="Holsundet" />
		<tag k="natural" v="strait" />
		<tag k="ssr:stedsnr" v="287909" />
	</node>
	<node id="-62955" lat="60.5041694459" lon="5.15239721546">
		<tag k="name" v="Tretthola" />
		<tag k="natural" v="bay" />
		<tag k="ssr:stedsnr" v="287358" />
	</node>
	<node id="-62953" lat="60.5062987777" lon="5.08328681747">
		<tag k="name" v="Træsvika" />
		<tag k="natural" v="bay" />
		<tag k="ssr:stedsnr" v="287318" />
	</node>
	<node id="-62950" lat="60.413700004" lon="5.10316667395">
		<tag k="name" v="Pikkeskallen" />
		<tag k="natural" v="shoal" />
		<tag k="place" v="locality" />
		<tag k="ssr:stedsnr" v="450901" />
	</node>
	<node id="-62949" lat="60.4348333377" lon="5.14230555371">
		<tag k="name" v="Storegrunnen" />
		<tag k="natural" v="shoal" />
		<tag k="place" v="locality" />
		<tag k="ssr:stedsnr" v="450894" />
	</node>
	<node id="-62947" lat="60.4062027788" lon="5.24406388857">
		<tag k="fixme" v="consider seamark:type=rock or natural=shoal" />
		<tag k="name" v="Florvågskjeret" />
		<tag k="place" v="islet" />
		<tag k="ssr:stedsnr" v="449968" />
	</node>
	<node id="-62945" lat="60.4312499971" lon="5.16073333125">
		<tag k="name" v="Horsøyna" />
		<tag k="natural" v="cape" />
		<tag k="ssr:stedsnr" v="248615" />
	</node>
	<node id="-62944" lat="60.4288361078" lon="5.15570555174">
		<tag k="name" v="Geitholmen" />
		<tag k="place" v="islet" />
		<tag k="ssr:stedsnr" v="248614" />
	</node>
	<node id="-62942" lat="60.4094638858" lon="5.25087777119">
		<tag k="name" v="Øyarodden" />
		<tag k="natural" v="cape" />
		<tag k="ssr:stedsnr" v="248594" />
	</node>
	<node id="-62939" lat="60.4400083311" lon="5.17026943656">
		<tag k="name" v="Pollen" />
		<tag k="natural" v="bay" />
		<tag k="ssr:stedsnr" v="449941" />
	</node>
	<node id="-62938" lat="60.4995555575" lon="5.03724722017">
		<tag k="name" v="Raunholmen" />
		<tag k="place" v="islet" />
		<tag k="ssr:stedsnr" v="449454" />
	</node>
	<node id="-62937" lat="60.5196222232" lon="5.07624445291">
		<tag k="name" v="Småholmane" />
		<tag k="place" v="islet" />
		<tag k="ssr:stedsnr" v="449450" />
	</node>
	<node id="-62935" lat="60.4550499959" lon="5.07831388687">
		<tag k="fixme" v="consider seamark:type=rock or natural=shoal" />
		<tag k="name" v="Steinsundskjera" />
		<tag k="place" v="islet" />
		<tag k="ssr:stedsnr" v="233902" />
	</node>
	<node id="-62934" lat="60.4741749999" lon="5.04974999746">
		<tag k="fixme" v="consider seamark:type=rock or natural=shoal" />
		<tag k="name" v="Langeskjeret" />
		<tag k="place" v="islet" />
		<tag k="ssr:stedsnr" v="228760" />
	</node>
	<node id="-62931" lat="60.4382441363" lon="5.06365272618">
		<tag k="name" v="Austra Hillesvika" />
		<tag k="natural" v="bay" />
		<tag k="ssr:stedsnr" v="227958" />
	</node>
	<node id="-62929" lat="60.3948722207" lon="5.17795277116">
		<tag k="name" v="Holmaskaget" />
		<tag k="natural" v="cape" />
		<tag k="ssr:stedsnr" v="227873" />
	</node>
	<node id="-62927" lat="60.5068666688" lon="5.11581389063">
		<tag k="name" v="Skjenstø" />
		<tag k="natural" v="bay" />
		<tag k="ssr:stedsnr" v="227906" />
	</node>
	<node id="-62926" lat="60.4913272506" lon="5.04673263517">
		<tag k="name" v="Ternholmen" />
		<tag k="place" v="islet" />
		<tag k="ssr:stedsnr" v="227727" />
	</node>
	<node id="-62925" lat="60.4922000016" lon="5.08899999531">
		<tag k="fixme" v="consider seamark:type=rock or natural=shoal" />
		<tag k="name" v="Kleppsskjera" />
		<tag k="place" v="islet" />
		<tag k="ssr:stedsnr" v="227717" />
	</node>
	<node id="-62921" lat="60.4416361103" lon="5.16176111457">
		<tag k="name" v="Kaldholet" />
		<tag k="natural" v="bay" />
		<tag k="ssr:stedsnr" v="227605" />
	</node>
	<node id="-62919" lat="60.5631305545" lon="4.9513305583">
		<tag k="name" v="Vestra Fjæra" />
		<tag k="natural" v="beach" />
		<tag k="place" v="locality" />
		<tag k="ssr:stedsnr" v="227602" />
	</node>
	<node id="-62918" lat="60.4848027789" lon="5.17412500637">
		<tag k="name" v="Øyaneset" />
		<tag k="natural" v="cape" />
		<tag k="ssr:stedsnr" v="227524" />
	</node>
	<node id="-62917" lat="60.4843194475" lon="5.17318055379">
		<tag k="name" v="Store Hatlevika" />
		<tag k="natural" v="bay" />
		<tag k="ssr:stedsnr" v="227512" />
	</node>
	<node id="-62911" lat="60.5066666675" lon="5.00921389719">
		<tag k="name" v="Storøyna" />
		<tag k="place" v="islet" />
		<tag k="ssr:stedsnr" v="189029" />
	</node>
	<node id="-62909" lat="60.4604222205" lon="5.05653611094">
		<tag k="name" v="Børøygavlen" />
		<tag k="natural" v="cape" />
		<tag k="ssr:stedsnr" v="289739" />
	</node>
	<node id="-62906" lat="60.4625083313" lon="5.21788055001">
		<tag k="name" v="Nålaneset" />
		<tag k="natural" v="cape" />
		<tag k="ssr:stedsnr" v="289726" />
	</node>
	<node id="-62903" lat="60.4381638902" lon="5.07451389525">
		<tag k="name" v="Hornavika" />
		<tag k="natural" v="bay" />
		<tag k="ssr:stedsnr" v="288582" />
	</node>
	<node id="-62897" lat="60.5151111067" lon="5.01081666044">
		<tag k="name" v="Sydnøysundet" />
		<tag k="natural" v="strait" />
		<tag k="ssr:stedsnr" v="288542" />
	</node>
	<node id="-62896" lat="60.5124638912" lon="5.01557777624">
		<tag k="name" v="Osen" />
		<tag k="natural" v="bay" />
		<tag k="ssr:stedsnr" v="288541" />
	</node>
	<node id="-62891" lat="60.513824997" lon="5.07934443829">
		<tag k="name" v="Notholmen" />
		<tag k="place" v="islet" />
		<tag k="ssr:stedsnr" v="288522" />
	</node>
	<node id="-62890" lat="60.5048416696" lon="5.03544999171">
		<tag k="name" v="Skjåneset" />
		<tag k="natural" v="cape" />
		<tag k="ssr:stedsnr" v="288520" />
	</node>
	<node id="-62889" lat="60.4998861114" lon="5.08246111315">
		<tag k="name" v="Nedrestraumen" />
		<tag k="natural" v="strait" />
		<tag k="ssr:stedsnr" v="288511" />
	</node>
	<node id="-62888" lat="60.4984138847" lon="5.07573054803">
		<tag k="name" v="Slåttevika" />
		<tag k="natural" v="bay" />
		<tag k="ssr:stedsnr" v="288510" />
	</node>
	<node id="-62887" lat="60.4874222261" lon="5.16716110829">
		<tag k="name" v="Sveneset" />
		<tag k="natural" v="cape" />
		<tag k="ssr:stedsnr" v="288481" />
	</node>
	<node id="-62885" lat="60.4120305582" lon="5.24832499325">
		<tag k="name" v="Seienesvika" />
		<tag k="natural" v="bay" />
		<tag k="ssr:stedsnr" v="288346" />
	</node>
	<node id="-62884" lat="60.4138333348" lon="5.24627221817">
		<tag k="name" v="Skjervika" />
		<tag k="natural" v="bay" />
		<tag k="ssr:stedsnr" v="288241" />
	</node>
	<node id="-62877" lat="60.3975499967" lon="5.15957778354">
		<tag k="name" v="Kjerringa" />
		<tag k="natural" v="cape" />
		<tag k="ssr:stedsnr" v="287884" />
	</node>
	<node id="-62876" lat="60.4385444407" lon="5.0838000017">
		<tag k="name" v="Søre Smørøskjeholmen" />
		<tag k="place" v="islet" />
		<tag k="ssr:stedsnr" v="287347" />
	</node>
	<node id="-62870" lat="60.4113805596" lon="5.13521665883">
		<tag k="fixme" v="consider seamark:type=rock or natural=shoal" />
		<tag k="name" v="Guleskjera" />
		<tag k="place" v="islet" />
		<tag k="ssr:stedsnr" v="299901" />
	</node>
	<node id="-62864" lat="60.4735944469" lon="5.0630361099">
		<tag k="name" v="Krossundet" />
		<tag k="natural" v="strait" />
		<tag k="ssr:stedsnr" v="166955" />
	</node>
	<node id="-62859" lat="60.3989667917" lon="5.18309428608">
		<tag k="name" v="Skiftesvika" />
		<tag k="natural" v="bay" />
		<tag k="ssr:stedsnr" v="166919" />
	</node>
	<node id="-62852" lat="60.5089472266" lon="5.01019167328">
		<tag k="name" v="Storsundet" />
		<tag k="natural" v="strait" />
		<tag k="ssr:stedsnr" v="166560" />
	</node>
	<node id="-62851" lat="60.5127027738" lon="5.07921388382">
		<tag k="name" v="Eidsundet" />
		<tag k="natural" v="strait" />
		<tag k="ssr:stedsnr" v="166557" />
	</node>
	<node id="-62849" lat="60.5081551973" lon="5.11709931206">
		<tag k="name" v="Vassneset" />
		<tag k="natural" v="cape" />
		<tag k="ssr:stedsnr" v="166552" />
	</node>
	<node id="-62847" lat="60.4751055544" lon="5.22228889456">
		<tag k="name" v="Nordre Havnen" />
		<tag k="natural" v="bay" />
		<tag k="ssr:stedsnr" v="166353" />
	</node>
	<node id="-62846" lat="60.5154777811" lon="5.08706945202">
		<tag k="name" v="Brennevika" />
		<tag k="natural" v="bay" />
		<tag k="ssr:stedsnr" v="166301" />
	</node>
	<node id="-62845" lat="60.5002062632" lon="5.08426485045">
		<tag k="name" v="Kjerrgardsvika" />
		<tag k="natural" v="bay" />
		<tag k="ssr:stedsnr" v="166298" />
	</node>
	<node id="-62843" lat="60.4916138843" lon="5.06596666129">
		<tag k="name" v="Risøyvika" />
		<tag k="natural" v="bay" />
		<tag k="ssr:stedsnr" v="166306" />
	</node>
	<node id="-62842" lat="60.4889499995" lon="5.05007499577">
		<tag k="name" v="Håholmen" />
		<tag k="place" v="islet" />
		<tag k="ssr:stedsnr" v="166303" />
	</node>
	<node id="-62839" lat="60.4704305578" lon="5.23397500759">
		<tag k="name" v="Hopsflua" />
		<tag k="natural" v="shoal" />
		<tag k="place" v="locality" />
		<tag k="ssr:stedsnr" v="269535" />
	</node>
	<node id="-62837" lat="60.491086111" lon="5.09203332759">
		<tag k="name" v="Løypet" />
		<tag k="natural" v="bay" />
		<tag k="ssr:stedsnr" v="268881" />
	</node>
	<node id="-62834" lat="60.4510916708" lon="5.23707222499">
		<tag k="name" v="Blindingen" />
		<tag k="natural" v="shoal" />
		<tag k="place" v="locality" />
		<tag k="ssr:stedsnr" v="86511" />
	</node>
	<node id="-62832" lat="60.5509916675" lon="4.95014445115">
		<tag k="fixme" v="consider seamark:type=rock or natural=shoal" />
		<tag k="name" v="Hønsene" />
		<tag k="place" v="islet" />
		<tag k="ssr:stedsnr" v="249696" />
	</node>
	<node id="-62831" lat="60.5233166653" lon="4.98786110763">
		<tag k="name" v="Myrbærholmen" />
		<tag k="place" v="islet" />
		<tag k="ssr:stedsnr" v="249694" />
	</node>
	<node id="-62830" lat="60.5217861068" lon="4.98801388955">
		<tag k="name" v="Myrbærflua" />
		<tag k="natural" v="shoal" />
		<tag k="place" v="locality" />
		<tag k="ssr:stedsnr" v="249693" />
	</node>
	<node id="-62828" lat="60.5292833317" lon="4.99248332671">
		<tag k="name" v="Bratten" />
		<tag k="place" v="islet" />
		<tag k="ssr:stedsnr" v="249689" />
	</node>
	<node id="-62827" lat="60.5783444479" lon="4.92790000136">
		<tag k="name" v="Gavleskallen" />
		<tag k="natural" v="shoal" />
		<tag k="place" v="locality" />
		<tag k="ssr:stedsnr" v="249683" />
	</node>
	<node id="-62826" lat="60.569072218" lon="4.9773999952">
		<tag k="name" v="Skarvøyna" />
		<tag k="place" v="island" />
		<tag k="ssr:stedsnr" v="249673" />
	</node>
	<node id="-62825" lat="60.5764250039" lon="4.98406388833">
		<tag k="name" v="Basholmen" />
		<tag k="place" v="islet" />
		<tag k="ssr:stedsnr" v="249668" />
	</node>
	<node id="-62823" lat="60.5033416689" lon="5.03470000306">
		<tag k="name" v="Fauskangsvågen" />
		<tag k="natural" v="bay" />
		<tag k="ssr:stedsnr" v="249652" />
	</node>
	<node id="-62822" lat="60.5273749968" lon="4.99766944709">
		<tag k="name" v="Langøyna" />
		<tag k="place" v="islet" />
		<tag k="ssr:stedsnr" v="249034" />
	</node>
	<node id="-62821" lat="60.6096805524" lon="4.93279445076">
		<tag k="name" v="Hundane" />
		<tag k="natural" v="shoal" />
		<tag k="place" v="locality" />
		<tag k="ssr:stedsnr" v="248916" />
	</node>
	<node id="-62818" lat="60.4425916649" lon="5.23001111007">
		<tag k="name" v="Laksen" />
		<tag k="natural" v="cape" />
		<tag k="ssr:stedsnr" v="248524" />
	</node>
	<node id="-62817" lat="60.4414055564" lon="5.2306055514">
		<tag k="name" v="Erdalsvågen" />
		<tag k="natural" v="bay" />
		<tag k="ssr:stedsnr" v="248522" />
	</node>
	<node id="-62816" lat="60.4359777778" lon="5.15493333524">
		<tag k="name" v="Håholmen" />
		<tag k="place" v="islet" />
		<tag k="ssr:stedsnr" v="248517" />
	</node>
	<node id="-62812" lat="60.4647944474" lon="5.23098332975">
		<tag k="name" v="Straumsneset" />
		<tag k="natural" v="cape" />
		<tag k="ssr:stedsnr" v="248396" />
	</node>
	<node id="-62810" lat="60.5167277774" lon="5.09492221437">
		<tag k="name" v="Gauvika" />
		<tag k="natural" v="bay" />
		<tag k="ssr:stedsnr" v="248371" />
	</node>
	<node id="-62808" lat="60.4352194432" lon="5.07766944165">
		<tag k="name" v="Hauglandsøyna" />
		<tag k="place" v="island" />
		<tag k="ssr:stedsnr" v="248162" />
	</node>
	<node id="-62807" lat="60.6038861118" lon="4.94685555064">
		<tag k="name" v="Sundet" />
		<tag k="natural" v="strait" />
		<tag k="ssr:stedsnr" v="67950" />
	</node>
	<node id="-62797" lat="60.484213888" lon="5.19998888376">
		<tag k="name" v="Hesthola" />
		<tag k="natural" v="bay" />
		<tag k="ssr:stedsnr" v="45505" />
	</node>
	<node id="-62796" lat="60.4624333301" lon="5.05648889767">
		<tag k="name" v="Børøygavlsvika" />
		<tag k="natural" v="bay" />
		<tag k="ssr:stedsnr" v="228747" />
	</node>
	<node id="-62795" lat="60.4554888881" lon="5.09125278091">
		<tag k="name" v="Keila" />
		<tag k="natural" v="bay" />
		<tag k="ssr:stedsnr" v="228730" />
	</node>
	<node id="-62794" lat="60.4389316841" lon="5.04776587566">
		<tag k="name" v="Nordvestre Ramsøytangen" />
		<tag k="natural" v="cape" />
		<tag k="ssr:stedsnr" v="228695" />
	</node>
	<node id="-62791" lat="60.4915249969" lon="5.20308889065">
		<tag k="name" v="Søre Kyraneset" />
		<tag k="natural" v="cape" />
		<tag k="ssr:stedsnr" v="227894" />
	</node>
	<node id="-62788" lat="60.4290482102" lon="5.16657571534">
		<tag k="name" v="Horsøysundet" />
		<tag k="natural" v="bay" />
		<tag k="ssr:stedsnr" v="227887" />
	</node>
	<node id="-62787" lat="60.4976555596" lon="5.08728888357">
		<tag k="name" v="Stevika" />
		<tag k="natural" v="bay" />
		<tag k="ssr:stedsnr" v="227935" />
	</node>
	<node id="-62782" lat="60.4790027744" lon="5.18626666034">
		<tag k="name" v="Oterneset" />
		<tag k="natural" v="cape" />
		<tag k="ssr:stedsnr" v="227735" />
	</node>
	<node id="-62781" lat="60.4773833368" lon="5.18032776929">
		<tag k="name" v="Grønevika" />
		<tag k="natural" v="bay" />
		<tag k="ssr:stedsnr" v="227732" />
	</node>
	<node id="-62780" lat="60.4795833377" lon="5.17614166368">
		<tag k="name" v="Kaldalsvika" />
		<tag k="natural" v="bay" />
		<tag k="ssr:stedsnr" v="227731" />
	</node>
	<node id="-62779" lat="60.4901611132" lon="5.03750277087">
		<tag k="name" v="Nordra Fløsundvika" />
		<tag k="natural" v="bay" />
		<tag k="ssr:stedsnr" v="227729" />
	</node>
	<node id="-62778" lat="60.5336750027" lon="4.99079443827">
		<tag k="name" v="Litlevågen" />
		<tag k="natural" v="bay" />
		<tag k="ssr:stedsnr" v="227594" />
	</node>
	<node id="-62777" lat="60.5357833363" lon="5.02503056213">
		<tag k="name" v="Abbedissevika" />
		<tag k="natural" v="bay" />
		<tag k="ssr:stedsnr" v="227593" />
	</node>
	<node id="-62776" lat="60.5280999978" lon="5.05126667068">
		<tag k="name" v="Kylleren" />
		<tag k="natural" v="bay" />
		<tag k="ssr:stedsnr" v="227589" />
	</node>
	<node id="-62775" lat="60.5106222216" lon="5.01401388911">
		<tag k="name" v="Søre Makrellavika" />
		<tag k="natural" v="bay" />
		<tag k="ssr:stedsnr" v="227581" />
	</node>
	<node id="-62774" lat="60.5166138876" lon="5.07775000512">
		<tag k="name" v="Bjørndalsneset" />
		<tag k="natural" v="cape" />
		<tag k="ssr:stedsnr" v="227578" />
	</node>
	<node id="-62771" lat="60.5044888909" lon="5.03321666551">
		<tag k="name" v="Annfinneset" />
		<tag k="natural" v="cape" />
		<tag k="ssr:stedsnr" v="227564" />
	</node>
	<node id="-62769" lat="60.4937833359" lon="5.15497776939">
		<tag k="name" v="Vassvika" />
		<tag k="natural" v="bay" />
		<tag k="ssr:stedsnr" v="227537" />
	</node>
	<node id="-64153" lat="60.6274039439" lon="4.92504102345">
		<tag k="bay" v="fjord" />
		<tag k="name" v="Mangersfjorden" />
		<tag k="natural" v="bay" />
		<tag k="ssr:stedsnr" v="249958" />
	</node>
	<node id="-64143" lat="60.5273536122" lon="5.05810931743">
		<tag k="name" v="Garnstolen" />
		<tag k="natural" v="cape" />
		<tag k="ssr:stedsnr" v="1072172" />
	</node>
	<node id="-64142" lat="60.5270894586" lon="5.05984332114">
		<tag k="name" v="Kammerset" />
		<tag k="natural" v="bay" />
		<tag k="ssr:stedsnr" v="1072171" />
	</node>
	<node id="-64141" lat="60.5272348978" lon="5.0591856115">
		<tag k="name" v="Notabu" />
		<tag k="natural" v="bay" />
		<tag k="ssr:stedsnr" v="1072170" />
	</node>
	<node id="-64122" lat="60.4602861146" lon="5.10019999688">
		<tag k="name" v="Pøylevika" />
		<tag k="natural" v="bay" />
		<tag k="old_name" v="Indra Storaviki;Indra Storavika" />
		<tag k="ssr:stedsnr" v="966896" />
	</node>
	<node id="-64120" lat="60.4641277742" lon="5.07394166909">
		<tag k="name" v="Klubbavika" />
		<tag k="natural" v="bay" />
		<tag k="ssr:stedsnr" v="956736" />
	</node>
	<node id="-64119" lat="60.4672416641" lon="5.09861667429">
		<tag k="name" v="Hamyrsvika" />
		<tag k="natural" v="bay" />
		<tag k="ssr:stedsnr" v="956730" />
	</node>
	<node id="-64116" lat="60.460391664" lon="5.23529166676">
		<tag k="name" v="Nordavindsholet" />
		<tag k="natural" v="bay" />
		<tag k="ssr:stedsnr" v="956712" />
	</node>
	<node id="-64113" lat="60.4384499964" lon="5.07751666649">
		<tag k="name" v="Torvholmen" />
		<tag k="place" v="islet" />
		<tag k="ssr:stedsnr" v="956691" />
	</node>
	<node id="-64112" lat="60.4372944462" lon="5.05602777659">
		<tag k="name" v="Molohopen" />
		<tag k="natural" v="bay" />
		<tag k="ssr:stedsnr" v="956688" />
	</node>
	<node id="-64111" lat="60.4384777735" lon="5.05533888658">
		<tag k="name" v="Grisavika" />
		<tag k="natural" v="bay" />
		<tag k="ssr:stedsnr" v="955967" />
	</node>
	<node id="-64109" lat="60.4650805564" lon="5.05478332647">
		<tag k="name" v="Litle Børøyna" />
		<tag k="place" v="island" />
		<tag k="ssr:stedsnr" v="955956" />
	</node>
	<node id="-64107" lat="60.5087472194" lon="5.01654167451">
		<tag k="fixme" v="consider seamark:type=rock or natural=shoal" />
		<tag k="name" v="Pollskjeret" />
		<tag k="place" v="islet" />
		<tag k="ssr:stedsnr" v="955943" />
	</node>
	<node id="-64104" lat="60.4574444474" lon="5.21721110455">
		<tag k="name" v="Oterneset" />
		<tag k="natural" v="cape" />
		<tag k="ssr:stedsnr" v="955899" />
	</node>
	<node id="-64099" lat="60.4033333364" lon="5.15598888756">
		<tag k="name" v="Byneset" />
		<tag k="natural" v="cape" />
		<tag k="ssr:stedsnr" v="955888" />
	</node>
	<node id="-64097" lat="60.4931777803" lon="5.03531110499">
		<tag k="name" v="Tjuvasteinvågen" />
		<tag k="natural" v="bay" />
		<tag k="ssr:stedsnr" v="955743" />
	</node>
	<node id="-64096" lat="60.4927611112" lon="5.09096666425">
		<tag k="name" v="Kobbeneset" />
		<tag k="natural" v="cape" />
		<tag k="ssr:stedsnr" v="955729" />
	</node>
	<node id="-64095" lat="60.5712305541" lon="4.97063056315">
		<tag k="name" v="Lamøyklubben" />
		<tag k="natural" v="cape" />
		<tag k="ssr:stedsnr" v="955621" />
	</node>
	<node id="-64094" lat="60.5542027757" lon="4.9818250064">
		<tag k="name" v="Såpevikneset" />
		<tag k="natural" v="cape" />
		<tag k="ssr:stedsnr" v="955619" />
	</node>
	<node id="-64093" lat="60.5160305565" lon="5.08279166651">
		<tag k="name" v="Høgholmen" />
		<tag k="place" v="islet" />
		<tag k="ssr:stedsnr" v="955587" />
	</node>
	<node id="-64091" lat="60.5025249989" lon="5.15096945295">
		<tag k="name" v="Brenna" />
		<tag k="natural" v="cape" />
		<tag k="ssr:stedsnr" v="955543" />
	</node>
	<node id="-64087" lat="60.44921667" lon="5.14910833239">
		<tag k="name" v="Båtstøa" />
		<tag k="natural" v="bay" />
		<tag k="ssr:stedsnr" v="955354" />
	</node>
	<node id="-64083" lat="60.4834833343" lon="5.08749444868">
		<tag k="name" v="Lindholmen" />
		<tag k="place" v="islet" />
		<tag k="ssr:stedsnr" v="955294" />
	</node>
	<node id="-64082" lat="60.48986944" lon="5.06437500011">
		<tag k="name" v="Kylpo" />
		<tag k="natural" v="bay" />
		<tag k="ssr:stedsnr" v="955292" />
	</node>
	<node id="-64078" lat="60.4147944483" lon="5.25357777882">
		<tag k="fixme" v="consider seamark:type=rock or natural=shoal" />
		<tag k="name" v="Gulskjeret" />
		<tag k="place" v="islet" />
		<tag k="ssr:stedsnr" v="955258" />
	</node>
	<node id="-64076" lat="60.4177166647" lon="5.24188611667">
		<tag k="name" v="Moteidet" />
		<tag k="natural" v="bay" />
		<tag k="ssr:stedsnr" v="955254" />
	</node>
	<node id="-64074" lat="60.4274476361" lon="5.16550934675">
		<tag k="alt_name" v="Krokåsvågen" />
		<tag k="name" v="Kråkåsvågen" />
		<tag k="natural" v="bay" />
		<tag k="ssr:stedsnr" v="874748" />
	</node>
	<node id="-64072" lat="60.5141611118" lon="5.04198888356">
		<tag k="name" v="Låsbuholmane" />
		<tag k="place" v="islet" />
		<tag k="ssr:stedsnr" v="874502" />
	</node>
	<node id="-64071" lat="60.50985278" lon="5.1493666634">
		<tag k="name" v="Nordre Hanevikskallen" />
		<tag k="natural" v="shoal" />
		<tag k="place" v="locality" />
		<tag k="ssr:stedsnr" v="874499" />
	</node>
	<node id="-64069" lat="60.5032861107" lon="5.00687499199">
		<tag k="name" v="Storøyålen" />
		<tag k="natural" v="strait" />
		<tag k="ssr:stedsnr" v="856678" />
	</node>
	<node id="-64068" lat="60.5108861104" lon="5.13628054857">
		<tag k="name" v="Stigsneset" />
		<tag k="natural" v="cape" />
		<tag k="ssr:stedsnr" v="856552" />
	</node>
	<node id="-64067" lat="60.5048472266" lon="5.15313055205">
		<tag k="name" v="Revaneset" />
		<tag k="natural" v="cape" />
		<tag k="ssr:stedsnr" v="856551" />
	</node>
	<node id="-64066" lat="60.5798222184" lon="4.95442777772">
		<tag k="name" v="Prestevika" />
		<tag k="natural" v="bay" />
		<tag k="ssr:stedsnr" v="856035" />
	</node>
	<node id="-64063" lat="60.3901916683" lon="5.17597777311">
		<tag k="name" v="Hjeltaneset" />
		<tag k="natural" v="cape" />
		<tag k="ssr:stedsnr" v="855684" />
	</node>
	<node id="-64059" lat="60.4129749979" lon="5.12091666555">
		<tag k="name" v="Bukkholmen" />
		<tag k="place" v="islet" />
		<tag k="ssr:stedsnr" v="855577" />
	</node>
	<node id="-64058" lat="60.4884500035" lon="5.21160277563">
		<tag k="alt_name" v="Kyrkjevik" />
		<tag k="name" v="Kyrkjevika" />
		<tag k="natural" v="bay" />
		<tag k="ssr:stedsnr" v="855392" />
	</node>
	<node id="-64057" lat="60.4800555552" lon="5.04084722607">
		<tag k="fixme" v="consider seamark:type=rock or natural=shoal" />
		<tag k="name" v="Krabbeskjeret" />
		<tag k="place" v="islet" />
		<tag k="ssr:stedsnr" v="855247" />
	</node>
	<node id="-64056" lat="60.4210027745" lon="5.0801805605">
		<tag k="name" v="Midtra Rotøyna" />
		<tag k="place" v="island" />
		<tag k="ssr:stedsnr" v="855325" />
	</node>
	<node id="-64054" lat="60.4741777798" lon="5.05853332592">
		<tag k="name" v="Krossundholmen" />
		<tag k="place" v="islet" />
		<tag k="ssr:stedsnr" v="835746" />
	</node>
	<node id="-64053" lat="60.4624888894" lon="5.0640888973">
		<tag k="name" v="Fløysundet" />
		<tag k="natural" v="strait" />
		<tag k="ssr:stedsnr" v="835739" />
	</node>
	<node id="-64052" lat="60.4658611087" lon="5.11219722323">
		<tag k="name" v="Hola" />
		<tag k="natural" v="bay" />
		<tag k="ssr:stedsnr" v="835737" />
	</node>
	<node id="-64047" lat="60.4213416696" lon="5.24874721826">
		<tag k="name" v="Nordre Tjuvavågen" />
		<tag k="natural" v="bay" />
		<tag k="ssr:stedsnr" v="834902" />
	</node>
	<node id="-64046" lat="60.4207250037" lon="5.13955277295">
		<tag k="name" v="Langetangen" />
		<tag k="natural" v="cape" />
		<tag k="ssr:stedsnr" v="834885" />
	</node>
	<node id="-64043" lat="60.4496000009" lon="5.14164444073">
		<tag k="name" v="Furneset" />
		<tag k="natural" v="cape" />
		<tag k="ssr:stedsnr" v="834630" />
	</node>
	<node id="-64040" lat="60.5154666699" lon="5.08180555175">
		<tag k="name" v="Bøneset" />
		<tag k="natural" v="cape" />
		<tag k="ssr:stedsnr" v="834593" />
	</node>
	<node id="-64036" lat="60.4926388897" lon="5.07998334046">
		<tag k="fixme" v="consider seamark:type=rock or natural=shoal" />
		<tag k="name" v="Flæene" />
		<tag k="place" v="islet" />
		<tag k="ssr:stedsnr" v="834727" />
	</node>
	<node id="-64035" lat="60.4682444475" lon="5.07941667112">
		<tag k="fixme" v="consider seamark:type=rock or natural=shoal" />
		<tag k="name" v="Vada" />
		<tag k="place" v="islet" />
		<tag k="ssr:stedsnr" v="834696" />
	</node>
	<node id="-64034" lat="60.4665222213" lon="5.04533334151">
		<tag k="name" v="Høgholmen" />
		<tag k="place" v="islet" />
		<tag k="ssr:stedsnr" v="834692" />
	</node>
	<node id="-64032" lat="60.4882194452" lon="5.14461944481">
		<tag k="name" v="Sundet" />
		<tag k="natural" v="strait" />
		<tag k="ssr:stedsnr" v="834520" />
	</node>
	<node id="-64023" lat="60.4235249989" lon="5.09058888312">
		<tag k="name" v="Purkholmen" />
		<tag k="place" v="islet" />
		<tag k="ssr:stedsnr" v="875881" />
	</node>
	<node id="-64022" lat="60.449036114" lon="5.07158054951">
		<tag k="name" v="Gulskjeret" />
		<tag k="natural" v="cape" />
		<tag k="ssr:stedsnr" v="875869" />
	</node>
	<node id="-64018" lat="60.4302083301" lon="5.23787221447">
		<tag k="name" v="Bakarvågen" />
		<tag k="natural" v="bay" />
		<tag k="ssr:stedsnr" v="813982" />
	</node>
	<node id="-64017" lat="60.4426083292" lon="5.16090277255">
		<tag k="name" v="Tømmervika" />
		<tag k="natural" v="bay" />
		<tag k="ssr:stedsnr" v="813963" />
	</node>
	<node id="-64015" lat="60.4949638845" lon="5.04582500021">
		<tag k="name" v="Krækjebærholmane" />
		<tag k="place" v="islet" />
		<tag k="ssr:stedsnr" v="813446" />
	</node>
	<node id="-64014" lat="60.5047027799" lon="5.1446916683">
		<tag k="name" v="Skjelvika" />
		<tag k="natural" v="bay" />
		<tag k="ssr:stedsnr" v="813434" />
	</node>
	<node id="-64013" lat="60.6077444442" lon="4.90873610838">
		<tag k="name" v="Mefjordboen" />
		<tag k="natural" v="shoal" />
		<tag k="place" v="locality" />
		<tag k="ssr:stedsnr" v="795903" />
	</node>
	<node id="-64012" lat="60.6018222242" lon="4.9406972186">
		<tag k="name" v="Stora Agnøyna" />
		<tag k="place" v="islet" />
		<tag k="ssr:stedsnr" v="795902" />
	</node>
	<node id="-64011" lat="60.5678805569" lon="4.95553889273">
		<tag k="name" v="Herdlevågen" />
		<tag k="natural" v="bay" />
		<tag k="ssr:stedsnr" v="795700" />
	</node>
	<node id="-64009" lat="60.4029305567" lon="5.2156750068">
		<tag k="name" v="Klampavika" />
		<tag k="natural" v="bay" />
		<tag k="ssr:stedsnr" v="794587" />
	</node>
	<node id="-64003" lat="60.479400003" lon="5.0758250044">
		<tag k="name" v="Oterosen" />
		<tag k="natural" v="strait" />
		<tag k="ssr:stedsnr" v="794218" />
	</node>
	<node id="-64002" lat="60.4878027815" lon="5.02938610502">
		<tag k="name" v="Ytste Laksholmen" />
		<tag k="place" v="islet" />
		<tag k="ssr:stedsnr" v="794217" />
	</node>
	<node id="-64000" lat="60.4290833318" lon="5.05911111883">
		<tag k="name" v="Søre Ramsøygrunnen" />
		<tag k="natural" v="shoal" />
		<tag k="place" v="locality" />
		<tag k="ssr:stedsnr" v="794164" />
	</node>
	<node id="-63999" lat="60.43705833" lon="5.05234444383">
		<tag k="name" v="Ramsøyna" />
		<tag k="place" v="island" />
		<tag k="ssr:stedsnr" v="794155" />
	</node>
	<node id="-63997" lat="60.4786916674" lon="5.05882778417">
		<tag k="name" v="Krossundet" />
		<tag k="natural" v="strait" />
		<tag k="ssr:stedsnr" v="774739" />
	</node>
	<node id="-63996" lat="60.4746222214" lon="5.20748611211">
		<tag k="name" v="Træsneset" />
		<tag k="natural" v="cape" />
		<tag k="ssr:stedsnr" v="774731" />
	</node>
	<node id="-63994" lat="60.4501277793" lon="5.09855277769">
		<tag k="name" v="Skaget" />
		<tag k="natural" v="cape" />
		<tag k="ssr:stedsnr" v="774698" />
	</node>
	<node id="-63993" lat="60.4480222224" lon="5.09613889238">
		<tag k="name" v="Myravika" />
		<tag k="natural" v="bay" />
		<tag k="ssr:stedsnr" v="774697" />
	</node>
	<node id="-63992" lat="60.4490916682" lon="5.06978888518">
		<tag k="fixme" v="consider seamark:type=rock or natural=shoal" />
		<tag k="name" v="Gulskjeret" />
		<tag k="place" v="islet" />
		<tag k="ssr:stedsnr" v="774695" />
	</node>
	<node id="-63991" lat="60.50028611" lon="5.02948333165">
		<tag k="fixme" v="consider seamark:type=rock or natural=shoal" />
		<tag k="name" v="Smalnesskjeret" />
		<tag k="place" v="islet" />
		<tag k="ssr:stedsnr" v="773941" />
	</node>
	<node id="-63990" lat="60.5766611091" lon="4.98613888864">
		<tag k="fixme" v="consider seamark:type=rock or natural=shoal" />
		<tag k="name" v="Basholmskjeret" />
		<tag k="place" v="islet" />
		<tag k="ssr:stedsnr" v="773929" />
	</node>
	<node id="-63986" lat="60.5284527772" lon="5.00781388658">
		<tag k="name" v="Lyngneset" />
		<tag k="natural" v="cape" />
		<tag k="ssr:stedsnr" v="773580" />
	</node>
	<node id="-63985" lat="60.5183277775" lon="5.03213888542">
		<tag k="name" v="Juvikneset" />
		<tag k="natural" v="cape" />
		<tag k="ssr:stedsnr" v="773573" />
	</node>
	<node id="-63984" lat="60.5175000034" lon="5.005311108">
		<tag k="name" v="Klubbevika" />
		<tag k="natural" v="bay" />
		<tag k="ssr:stedsnr" v="773571" />
	</node>
	<node id="-63975" lat="60.5170572582" lon="5.01774874921">
		<tag k="name" v="Fauskangspollen" />
		<tag k="natural" v="bay" />
		<tag k="ssr:stedsnr" v="773288" />
	</node>
	<node id="-63972" lat="60.4085749992" lon="5.24111943944">
		<tag k="name" v="Knektholmen" />
		<tag k="place" v="islet" />
		<tag k="ssr:stedsnr" v="753985" />
	</node>
	<node id="-63971" lat="60.4020222228" lon="5.19559721476">
		<tag k="name" v="Vågen" />
		<tag k="natural" v="bay" />
		<tag k="ssr:stedsnr" v="753976" />
	</node>
	<node id="-63970" lat="60.4223888914" lon="5.15425277694">
		<tag k="name" v="Hølen" />
		<tag k="natural" v="bay" />
		<tag k="ssr:stedsnr" v="753963" />
	</node>
	<node id="-63969" lat="60.4462027764" lon="5.08256666504">
		<tag k="name" v="Jektevika" />
		<tag k="natural" v="bay" />
		<tag k="ssr:stedsnr" v="753877" />
	</node>
	<node id="-63966" lat="60.4555000015" lon="5.24167777433">
		<tag k="fixme" v="consider seamark:type=rock or natural=shoal" />
		<tag k="name" v="Ringskjeret" />
		<tag k="place" v="islet" />
		<tag k="ssr:stedsnr" v="753438" />
	</node>
	<node id="-63965" lat="60.5931638887" lon="4.9479305578">
		<tag k="name" v="Nordreflua" />
		<tag k="natural" v="shoal" />
		<tag k="place" v="locality" />
		<tag k="ssr:stedsnr" v="752659" />
	</node>
	<node id="-63963" lat="60.4525249988" lon="5.07374167009">
		<tag k="name" v="Skorfestet" />
		<tag k="natural" v="cape" />
		<tag k="ssr:stedsnr" v="652650" />
	</node>
	<node id="-63962" lat="60.4373444439" lon="5.08054165951">
		<tag k="name" v="Straumsholet" />
		<tag k="natural" v="strait" />
		<tag k="ssr:stedsnr" v="652642" />
	</node>
	<node id="-63961" lat="60.5787555578" lon="4.94582221402">
		<tag k="name" v="Svarthola" />
		<tag k="natural" v="bay" />
		<tag k="ssr:stedsnr" v="652611" />
	</node>
	<node id="-63960" lat="60.5148583366" lon="5.01766667291">
		<tag k="name" v="Straumen" />
		<tag k="natural" v="strait" />
		<tag k="ssr:stedsnr" v="652577" />
	</node>
	<node id="-63959" lat="60.5246388863" lon="5.06398056085">
		<tag k="name" v="Sjorstølfjæra" />
		<tag k="natural" v="beach" />
		<tag k="place" v="locality" />
		<tag k="ssr:stedsnr" v="652572" />
	</node>
	<node id="-63957" lat="60.4991750013" lon="5.07050278088">
		<tag k="name" v="Naustvika" />
		<tag k="natural" v="bay" />
		<tag k="ssr:stedsnr" v="652542" />
	</node>
	<node id="-63956" lat="60.4990944476" lon="5.0394611017">
		<tag k="name" v="Eikeneset" />
		<tag k="natural" v="cape" />
		<tag k="ssr:stedsnr" v="652539" />
	</node>
	<node id="-63955" lat="60.4800333308" lon="5.07344721695">
		<tag k="name" v="Midtskaget" />
		<tag k="natural" v="cape" />
		<tag k="ssr:stedsnr" v="652702" />
	</node>
	<node id="-63954" lat="60.4651277771" lon="5.0485138873">
		<tag k="name" v="Brendeholmen" />
		<tag k="place" v="islet" />
		<tag k="ssr:stedsnr" v="652701" />
	</node>
	<node id="-63953" lat="60.4687166697" lon="5.11524721362">
		<tag k="name" v="Hestevika" />
		<tag k="natural" v="bay" />
		<tag k="ssr:stedsnr" v="652692" />
	</node>
	<node id="-63949" lat="60.4402472255" lon="5.07717221501">
		<tag k="name" v="Søra Vika" />
		<tag k="natural" v="bay" />
		<tag k="ssr:stedsnr" v="652658" />
	</node>
	<node id="-63947" lat="60.5045230239" lon="5.15521135468">
		<tag k="name" v="Breiavika" />
		<tag k="natural" v="bay" />
		<tag k="ssr:stedsnr" v="651972" />
	</node>
	<node id="-63946" lat="60.493108336" lon="5.0320944413">
		<tag k="fixme" v="consider seamark:type=rock or natural=shoal" />
		<tag k="name" v="Tjuvasteinskjeret" />
		<tag k="place" v="islet" />
		<tag k="ssr:stedsnr" v="651968" />
	</node>
	<node id="-63945" lat="60.4492055597" lon="5.10586110641">
		<tag k="name" v="Litle Langøyna" />
		<tag k="place" v="island" />
		<tag k="ssr:stedsnr" v="651965" />
	</node>
	<node id="-63943" lat="60.4926249993" lon="5.09356110955">
		<tag k="name" v="Løypet" />
		<tag k="natural" v="strait" />
		<tag k="ssr:stedsnr" v="651734" />
	</node>
	<node id="-63941" lat="60.4904805518" lon="5.09155834248">
		<tag k="name" v="Kvitaneset" />
		<tag k="natural" v="cape" />
		<tag k="ssr:stedsnr" v="651729" />
	</node>
	<node id="-63938" lat="60.4127305556" lon="5.14522221985">
		<tag k="name" v="Enden" />
		<tag k="natural" v="cape" />
		<tag k="ssr:stedsnr" v="651365" />
	</node>
	<node id="-63930" lat="60.5180916689" lon="5.02963611453">
		<tag k="name" v="Juvika" />
		<tag k="natural" v="bay" />
		<tag k="ssr:stedsnr" v="651288" />
	</node>
	<node id="-63929" lat="60.4362166655" lon="5.10246944829">
		<tag k="name" v="Vardøyflua" />
		<tag k="natural" v="shoal" />
		<tag k="place" v="locality" />
		<tag k="ssr:stedsnr" v="632880" />
	</node>
	<node id="-63928" lat="60.4777027813" lon="5.22479166679">
		<tag k="fixme" v="consider seamark:type=rock or natural=shoal" />
		<tag k="name" v="Gulskjeret" />
		<tag k="place" v="islet" />
		<tag k="ssr:stedsnr" v="632531" />
	</node>
	<node id="-63927" lat="60.5041000007" lon="5.01691110491">
		<tag k="name" v="Lyngholmen" />
		<tag k="place" v="islet" />
		<tag k="ssr:stedsnr" v="631497" />
	</node>
	<node id="-63926" lat="60.5302111134" lon="4.9975194449">
		<tag k="name" v="Langevågen" />
		<tag k="natural" v="bay" />
		<tag k="ssr:stedsnr" v="631485" />
	</node>
	<node id="-63924" lat="60.5485666691" lon="4.95607500322">
		<tag k="name" v="Ytstøyna" />
		<tag k="place" v="islet" />
		<tag k="ssr:stedsnr" v="613699" />
	</node>
	<node id="-63923" lat="60.5344972233" lon="4.96848889254">
		<tag k="name" v="Langøyna" />
		<tag k="place" v="islet" />
		<tag k="ssr:stedsnr" v="613692" />
	</node>
	<node id="-63922" lat="60.5786222216" lon="4.97750833167">
		<tag k="fixme" v="multiple name tags, choose one and add the other to alt_name" />
		<tag k="name" v="Storekalvsøyna;Kalvsøyna" />
		<tag k="place" v="island" />
		<tag k="ssr:stedsnr" v="613674" />
	</node>
	<node id="-63921" lat="60.4233027737" lon="5.26819722388">
		<tag k="bay" v="fjord" />
		<tag k="name" v="Byfjorden" />
		<tag k="natural" v="bay" />
		<tag k="ssr:stedsnr" v="613525" />
	</node>
	<node id="-63919" lat="60.5265250039" lon="5.06735834038">
		<tag k="name" v="Berlandsøyna" />
		<tag k="place" v="island" />
		<tag k="ssr:stedsnr" v="613655" />
	</node>
	<node id="-63918" lat="60.5178499981" lon="5.08205278274">
		<tag k="name" v="Hauglandsosen" />
		<tag k="natural" v="strait" />
		<tag k="ssr:stedsnr" v="613650" />
	</node>
	<node id="-63916" lat="60.4367305588" lon="5.17456111718">
		<tag k="alt_name" v="Djupvika" />
		<tag k="name" v="Juvika" />
		<tag k="natural" v="bay" />
		<tag k="ssr:stedsnr" v="612547" />
	</node>
	<node id="-63913" lat="60.5047333364" lon="5.16522500326">
		<tag k="name" v="Seljeneset" />
		<tag k="natural" v="cape" />
		<tag k="ssr:stedsnr" v="612524" />
	</node>
	<node id="-63912" lat="60.4279500022" lon="5.08865277131">
		<tag k="name" v="Småværsundet" />
		<tag k="natural" v="strait" />
		<tag k="ssr:stedsnr" v="612197" />
	</node>
	<node id="-63909" lat="60.4701527758" lon="5.05030556217">
		<tag k="name" v="Litlalangøyna" />
		<tag k="place" v="islet" />
		<tag k="ssr:stedsnr" v="611242" />
	</node>
	<node id="-63908" lat="60.486561112" lon="5.019338895">
		<tag k="fixme" v="consider seamark:type=rock or natural=shoal" />
		<tag k="name" v="Gulskjeret" />
		<tag k="place" v="islet" />
		<tag k="ssr:stedsnr" v="611229" />
	</node>
	<node id="-63903" lat="60.4624000017" lon="5.04976944904">
		<tag k="name" v="Børosen" />
		<tag k="natural" v="strait" />
		<tag k="ssr:stedsnr" v="592752" />
	</node>
	<node id="-63900" lat="60.4609527822" lon="5.04110278097">
		<tag k="name" v="Kalvsøysundet" />
		<tag k="natural" v="strait" />
		<tag k="ssr:stedsnr" v="592718" />
	</node>
	<node id="-63898" lat="60.4250805595" lon="5.16066388718">
		<tag k="name" v="Litle Hustrevika" />
		<tag k="natural" v="bay" />
		<tag k="ssr:stedsnr" v="591897" />
	</node>
	<node id="-63897" lat="60.4896472246" lon="5.06026666539">
		<tag k="name" v="Inste Risholmen" />
		<tag k="place" v="islet" />
		<tag k="ssr:stedsnr" v="591714" />
	</node>
	<node id="-63896" lat="60.467708332" lon="5.07563889453">
		<tag k="name" v="Bjøllevågsholmen" />
		<tag k="place" v="islet" />
		<tag k="ssr:stedsnr" v="591679" />
	</node>
	<node id="-63893" lat="60.4413833362" lon="5.07236110765">
		<tag k="name" v="Hanøysundet" />
		<tag k="natural" v="strait" />
		<tag k="ssr:stedsnr" v="591634" />
	</node>
	<node id="-63892" lat="60.4420749967" lon="5.12303333381">
		<tag k="name" v="Kjelaneset" />
		<tag k="natural" v="cape" />
		<tag k="ssr:stedsnr" v="591595" />
	</node>
	<node id="-63891" lat="60.5313805559" lon="5.04187221683">
		<tag k="fixme" v="consider seamark:type=rock or natural=shoal" />
		<tag k="name" v="Smalnesskjeret" />
		<tag k="place" v="islet" />
		<tag k="ssr:stedsnr" v="591567" />
	</node>
	<node id="-63889" lat="60.5161555594" lon="5.07666944631">
		<tag k="name" v="Bjørndalsvika" />
		<tag k="natural" v="bay" />
		<tag k="ssr:stedsnr" v="591552" />
	</node>
	<node id="-63888" lat="60.5168861146" lon="5.1163277852">
		<tag k="name" v="Klemetsdalsvika" />
		<tag k="natural" v="bay" />
		<tag k="ssr:stedsnr" v="591551" />
	</node>
	<node id="-63887" lat="60.5144805544" lon="5.12256111386">
		<tag k="name" v="Oldervika" />
		<tag k="natural" v="bay" />
		<tag k="ssr:stedsnr" v="591537" />
	</node>
	<node id="-63886" lat="60.5004777806" lon="5.15220833366">
		<tag k="name" v="Plassavika" />
		<tag k="natural" v="bay" />
		<tag k="ssr:stedsnr" v="591532" />
	</node>
	<node id="-63885" lat="60.5050750009" lon="5.14561944941">
		<tag k="name" v="Nordre Holmen" />
		<tag k="place" v="islet" />
		<tag k="ssr:stedsnr" v="591525" />
	</node>
	<node id="-63884" lat="60.4927999992" lon="5.20072778521">
		<tag k="name" v="Nordre Kyraneset" />
		<tag k="natural" v="cape" />
		<tag k="ssr:stedsnr" v="591519" />
	</node>
	<node id="-63878" lat="60.5728444454" lon="4.95175278133">
		<tag k="name" v="Søre Signalen" />
		<tag k="natural" v="cape" />
		<tag k="ssr:stedsnr" v="591238" />
	</node>
	<node id="-63877" lat="60.3942555562" lon="5.16213610287">
		<tag k="name" v="Straumbergsvika" />
		<tag k="natural" v="bay" />
		<tag k="ssr:stedsnr" v="590889" />
	</node>
	<node id="-63876" lat="60.396602778" lon="5.17618332608">
		<tag k="name" v="Straumen" />
		<tag k="natural" v="strait" />
		<tag k="ssr:stedsnr" v="590885" />
	</node>
	<node id="-63875" lat="60.5035361116" lon="5.14629999165">
		<tag k="name" v="Søre Holmen" />
		<tag k="place" v="islet" />
		<tag k="ssr:stedsnr" v="590969" />
	</node>
	<node id="-63873" lat="60.503205559" lon="5.02363888744">
		<tag k="name" v="Robbersholmane" />
		<tag k="place" v="islet" />
		<tag k="ssr:stedsnr" v="590297" />
	</node>
	<node id="-63872" lat="60.5255638858" lon="5.01523888334">
		<tag k="name" v="Stora Lyngneset" />
		<tag k="natural" v="cape" />
		<tag k="ssr:stedsnr" v="590296" />
	</node>
	<node id="-63871" lat="60.5185999963" lon="5.01476388467">
		<tag k="name" v="Rotepollen" />
		<tag k="natural" v="bay" />
		<tag k="ssr:stedsnr" v="590294" />
	</node>
	<node id="-63870" lat="60.5313249978" lon="4.99315000731">
		<tag k="name" v="Skråmestøvågen" />
		<tag k="natural" v="bay" />
		<tag k="ssr:stedsnr" v="590291" />
	</node>
	<node id="-63868" lat="60.4868611086" lon="5.19269722042">
		<tag k="name" v="Nordre Pollen" />
		<tag k="natural" v="bay" />
		<tag k="ssr:stedsnr" v="590355" />
	</node>
	<node id="-63864" lat="60.4997499968" lon="5.1815083421">
		<tag k="name" v="Badevika" />
		<tag k="natural" v="bay" />
		<tag k="ssr:stedsnr" v="590335" />
	</node>
	<node id="-63863" lat="60.4381138877" lon="5.08223332621">
		<tag k="name" v="Straumsholmen" />
		<tag k="place" v="islet" />
		<tag k="ssr:stedsnr" v="590332" />
	</node>
	<node id="-63857" lat="60.5287805539" lon="5.03326945026">
		<tag k="name" v="Sjurvika" />
		<tag k="natural" v="bay" />
		<tag k="ssr:stedsnr" v="570448" />
	</node>
	<node id="-63856" lat="60.5510611144" lon="4.96008889724">
		<tag k="name" v="Midtøyna" />
		<tag k="place" v="islet" />
		<tag k="ssr:stedsnr" v="552739" />
	</node>
	<node id="-63855" lat="60.5767305553" lon="4.94251388869">
		<tag k="name" v="Gavlen" />
		<tag k="natural" v="cape" />
		<tag k="ssr:stedsnr" v="552732" />
	</node>
	<node id="-63853" lat="60.4037641742" lon="5.22065719315">
		<tag k="name" v="Klubben" />
		<tag k="natural" v="cape" />
		<tag k="ssr:stedsnr" v="552591" />
	</node>
	<node id="-63852" lat="60.5246027819" lon="5.06540277721">
		<tag k="name" v="Berlandssundet" />
		<tag k="natural" v="strait" />
		<tag k="ssr:stedsnr" v="552711" />
	</node>
	<node id="-63851" lat="60.5140388933" lon="4.98211666881">
		<tag k="name" v="Guriholet" />
		<tag k="natural" v="shoal" />
		<tag k="place" v="locality" />
		<tag k="ssr:stedsnr" v="552710" />
	</node>
	<node id="-63850" lat="60.5473805571" lon="4.9935888962">
		<tag k="name" v="Setrevika" />
		<tag k="natural" v="bay" />
		<tag k="ssr:stedsnr" v="552052" />
	</node>
	<node id="-63849" lat="60.6031833364" lon="4.90342499563">
		<tag k="name" v="Søreskallen" />
		<tag k="natural" v="shoal" />
		<tag k="place" v="locality" />
		<tag k="ssr:stedsnr" v="551900" />
	</node>
	<node id="-63848" lat="60.3877683881" lon="5.17216198378">
		<tag k="fixme" v="consider seamark:type=rock or natural=shoal" />
		<tag k="name" v="Hjeltaskjeret" />
		<tag k="place" v="islet" />
		<tag k="ssr:stedsnr" v="551628" />
	</node>
	<node id="-63844" lat="60.4066027736" lon="5.22837221985">
		<tag k="name" v="Maltvika" />
		<tag k="natural" v="bay" />
		<tag k="ssr:stedsnr" v="551579" />
	</node>
	<node id="-63842" lat="60.4427527777" lon="5.09850277542">
		<tag k="name" v="Vardøyna" />
		<tag k="place" v="islet" />
		<tag k="ssr:stedsnr" v="551554" />
	</node>
	<node id="-63836" lat="60.4710960904" lon="5.07336627073">
		<tag k="alt_name" v="Langesundet" />
		<tag k="name" v="Langøysundet" />
		<tag k="natural" v="strait" />
		<tag k="ssr:stedsnr" v="551252" />
	</node>
	<node id="-63835" lat="60.4905138912" lon="5.01557499156">
		<tag k="name" v="Småtrettøyna" />
		<tag k="place" v="islet" />
		<tag k="ssr:stedsnr" v="551243" />
	</node>
	<node id="-63834" lat="60.4374805543" lon="5.06208054983">
		<tag k="name" v="Hillesøyna" />
		<tag k="place" v="islet" />
		<tag k="ssr:stedsnr" v="551182" />
	</node>
	<node id="-63832" lat="60.4763500028" lon="5.07784999593">
		<tag k="name" v="Seiatjørnvika" />
		<tag k="natural" v="bay" />
		<tag k="ssr:stedsnr" v="531741" />
	</node>
	<node id="-63831" lat="60.4730194465" lon="5.05498611883">
		<tag k="name" v="Hansholmen" />
		<tag k="place" v="islet" />
		<tag k="ssr:stedsnr" v="531740" />
	</node>
	<node id="-63827" lat="60.4685972258" lon="5.07966387977">
		<tag k="name" v="Bjøllevågen" />
		<tag k="natural" v="bay" />
		<tag k="ssr:stedsnr" v="531719" />
	</node>
	<node id="-63823" lat="60.4459388912" lon="5.11303888095">
		<tag k="name" v="Sandvika" />
		<tag k="natural" v="bay" />
		<tag k="ssr:stedsnr" v="531694" />
	</node>
	<node id="-63822" lat="60.4470027751" lon="5.11586666886">
		<tag k="name" v="Mjøneset" />
		<tag k="natural" v="cape" />
		<tag k="ssr:stedsnr" v="531693" />
	</node>
	<node id="-63820" lat="60.4355454031" lon="5.04913473525">
		<tag k="name" v="Sørvestre Ramsøytangen" />
		<tag k="natural" v="cape" />
		<tag k="ssr:stedsnr" v="531676" />
	</node>
	<node id="-63819" lat="60.445769445" lon="5.09139444165">
		<tag k="fixme" v="consider seamark:type=rock or natural=shoal" />
		<tag k="name" v="Lyngskjeret" />
		<tag k="place" v="islet" />
		<tag k="ssr:stedsnr" v="530945" />
	</node>
	<node id="-63818" lat="60.5083627672" lon="5.1184557102">
		<tag k="name" v="Vassvika" />
		<tag k="natural" v="bay" />
		<tag k="ssr:stedsnr" v="530930" />
	</node>
	<node id="-63817" lat="60.4987214821" lon="5.07131924859">
		<tag k="name" v="Uneset" />
		<tag k="natural" v="cape" />
		<tag k="ssr:stedsnr" v="530927" />
	</node>
	<node id="-63816" lat="60.5515916701" lon="4.95416944611">
		<tag k="fixme" v="consider seamark:type=rock or natural=shoal" />
		<tag k="name" v="Langeskjeret" />
		<tag k="place" v="islet" />
		<tag k="ssr:stedsnr" v="530920" />
	</node>
	<node id="-63814" lat="60.4288416697" lon="5.15180000403">
		<tag k="name" v="Breivika" />
		<tag k="natural" v="bay" />
		<tag k="ssr:stedsnr" v="530890" />
	</node>
	<node id="-63813" lat="60.4241166698" lon="5.13920278356">
		<tag k="name" v="Stølsvika" />
		<tag k="natural" v="bay" />
		<tag k="ssr:stedsnr" v="530888" />
	</node>
	<node id="-63811" lat="60.4920694416" lon="5.05518056274">
		<tag k="name" v="Lisstraumen" />
		<tag k="natural" v="strait" />
		<tag k="ssr:stedsnr" v="530726" />
	</node>
	<node id="-63810" lat="60.492005552" lon="5.08441388419">
		<tag k="name" v="Åløypholmen" />
		<tag k="place" v="islet" />
		<tag k="ssr:stedsnr" v="530723" />
	</node>
	<node id="-63809" lat="60.3985696607" lon="5.20889247786">
		<tag k="name" v="Småholmen" />
		<tag k="place" v="islet" />
		<tag k="ssr:stedsnr" v="530869" />
	</node>
	<node id="-63808" lat="60.3990166628" lon="5.18586110251">
		<tag k="name" v="Lyngneset" />
		<tag k="natural" v="cape" />
		<tag k="ssr:stedsnr" v="530866" />
	</node>
	<node id="-63804" lat="60.4410749998" lon="5.08456666176">
		<tag k="name" v="Nordre Smørøskjeholmen" />
		<tag k="place" v="islet" />
		<tag k="ssr:stedsnr" v="530351" />
	</node>
	<node id="-63802" lat="60.3959444411" lon="5.19648055273">
		<tag k="name" v="Kupa" />
		<tag k="natural" v="bay" />
		<tag k="ssr:stedsnr" v="530394" />
	</node>
	<node id="-63801" lat="60.4369416645" lon="5.05716110999">
		<tag k="name" v="Sandvika" />
		<tag k="natural" v="bay" />
		<tag k="ssr:stedsnr" v="530365" />
	</node>
	<node id="-63800" lat="60.5305555574" lon="4.9961611164">
		<tag k="fixme" v="consider seamark:type=rock or natural=shoal" />
		<tag k="name" v="Kjerringa" />
		<tag k="place" v="islet" />
		<tag k="ssr:stedsnr" v="530319" />
	</node>
	<node id="-63799" lat="60.578511109" lon="4.96970277901">
		<tag k="name" v="Småkalvsøyna" />
		<tag k="place" v="island" />
		<tag k="ssr:stedsnr" v="530315" />
	</node>
	<node id="-63797" lat="60.5510916703" lon="4.96537777743">
		<tag k="name" v="Øyarstøa" />
		<tag k="natural" v="strait" />
		<tag k="ssr:stedsnr" v="530307" />
	</node>
	<node id="-63796" lat="60.4192833306" lon="5.24996111708">
		<tag k="name" v="Søre Tjuvavågen" />
		<tag k="natural" v="bay" />
		<tag k="ssr:stedsnr" v="530302" />
	</node>
	<node id="-63793" lat="60.625102781" lon="4.92034999794">
		<tag k="name" v="Svenesskallen" />
		<tag k="natural" v="shoal" />
		<tag k="place" v="locality" />
		<tag k="ssr:stedsnr" v="431962" />
	</node>
	<node id="-63792" lat="60.5184027769" lon="5.00564999108">
		<tag k="name" v="Klubben" />
		<tag k="natural" v="cape" />
		<tag k="ssr:stedsnr" v="432024" />
	</node>
	<node id="-63791" lat="60.5260888927" lon="4.99539999276">
		<tag k="name" v="Vollen" />
		<tag k="place" v="islet" />
		<tag k="ssr:stedsnr" v="431729" />
	</node>
	<node id="-63790" lat="60.5278944448" lon="4.98270000653">
		<tag k="name" v="Storøyna" />
		<tag k="place" v="islet" />
		<tag k="ssr:stedsnr" v="431725" />
	</node>
	<node id="-63788" lat="60.5716166654" lon="4.97397499956">
		<tag k="name" v="Lamøysundet" />
		<tag k="natural" v="strait" />
		<tag k="ssr:stedsnr" v="431714" />
	</node>
	<node id="-63787" lat="60.5271638851" lon="5.04074166702">
		<tag k="name" v="Smalneset" />
		<tag k="natural" v="cape" />
		<tag k="ssr:stedsnr" v="431697" />
	</node>
	<node id="-63785" lat="60.5104055541" lon="4.98420833206">
		<tag k="name" v="Austre Storøygrunnen" />
		<tag k="natural" v="shoal" />
		<tag k="place" v="locality" />
		<tag k="ssr:stedsnr" v="431691" />
	</node>
	<node id="-63781" lat="60.4318388909" lon="5.10968334008">
		<tag k="bay" v="fjord" />
		<tag k="name" v="Hauglandsosen" />
		<tag k="natural" v="bay" />
		<tag k="ssr:stedsnr" v="430500" />
	</node>
	<node id="-63779" lat="60.4890333327" lon="5.2190444479">
		<tag k="name" v="Askeneset" />
		<tag k="natural" v="cape" />
		<tag k="ssr:stedsnr" v="430367" />
	</node>
	<node id="-63778" lat="60.5299994477" lon="4.94842178152">
		<tag k="bay" v="fjord" />
		<tag k="name" v="Hjeltefjorden" />
		<tag k="natural" v="bay" />
		<tag k="ssr:stedsnr" v="430242" />
	</node>
	<node id="-63777" lat="60.4773944482" lon="5.03215278031">
		<tag k="name" v="Krabbeskjerflua" />
		<tag k="natural" v="shoal" />
		<tag k="place" v="locality" />
		<tag k="ssr:stedsnr" v="430236" />
	</node>
	<node id="-63776" lat="60.4844916674" lon="5.08215000621">
		<tag k="name" v="Skotnes" />
		<tag k="natural" v="cape" />
		<tag k="ssr:stedsnr" v="430229" />
	</node>
	<node id="-63775" lat="60.4972120527" lon="5.07940601488">
		<tag k="name" v="Hansneset" />
		<tag k="natural" v="cape" />
		<tag k="ssr:stedsnr" v="430220" />
	</node>
	<node id="-63774" lat="60.4954638898" lon="4.99886945084">
		<tag k="name" v="Tretteskallen" />
		<tag k="natural" v="shoal" />
		<tag k="place" v="locality" />
		<tag k="ssr:stedsnr" v="430219" />
	</node>
	<node id="-63771" lat="60.4717972205" lon="5.05591389504">
		<tag k="name" v="Gommen" />
		<tag k="place" v="islet" />
		<tag k="ssr:stedsnr" v="410732" />
	</node>
	<node id="-63768" lat="60.4733500011" lon="5.22321944109">
		<tag k="name" v="Hopsholten" />
		<tag k="natural" v="cape" />
		<tag k="ssr:stedsnr" v="410702" />
	</node>
	<node id="-63767" lat="60.4742444456" lon="5.20844167468">
		<tag k="name" v="Træshopen" />
		<tag k="natural" v="bay" />
		<tag k="ssr:stedsnr" v="410700" />
	</node>
	<node id="-63763" lat="60.4414111114" lon="5.10434999482">
		<tag k="name" v="Austre Nesjane" />
		<tag k="natural" v="cape" />
		<tag k="ssr:stedsnr" v="410670" />
	</node>
	<node id="-63761" lat="60.4483500011" lon="5.11875278568">
		<tag k="fixme" v="consider seamark:type=rock or natural=shoal" />
		<tag k="name" v="Gulaskjeret" />
		<tag k="place" v="islet" />
		<tag k="ssr:stedsnr" v="410656" />
	</node>
	<node id="-63760" lat="60.4913527754" lon="5.030158342">
		<tag k="name" v="Tjuvasteinholmen" />
		<tag k="place" v="islet" />
		<tag k="ssr:stedsnr" v="409730" />
	</node>
	<node id="-63759" lat="60.4840416668" lon="5.08896943899">
		<tag k="name" v="Krossholmen" />
		<tag k="place" v="islet" />
		<tag k="ssr:stedsnr" v="409727" />
	</node>
	<node id="-63758" lat="60.4817000038" lon="5.05503889466">
		<tag k="fixme" v="consider seamark:type=rock or natural=shoal" />
		<tag k="name" v="Hjelmskjera" />
		<tag k="place" v="islet" />
		<tag k="ssr:stedsnr" v="409725" />
	</node>
	<node id="-63757" lat="60.4838694473" lon="5.07509721824">
		<tag k="fixme" v="consider seamark:type=rock or natural=shoal" />
		<tag k="name" v="Slottet" />
		<tag k="place" v="islet" />
		<tag k="ssr:stedsnr" v="409724" />
	</node>
	<node id="-63753" lat="60.5756972262" lon="4.96493332998">
		<tag k="name" v="Lamhola" />
		<tag k="natural" v="bay" />
		<tag k="ssr:stedsnr" v="409607" />
	</node>
	<node id="-63752" lat="60.5527555561" lon="4.97388056237">
		<tag k="name" v="Leirvika" />
		<tag k="natural" v="bay" />
		<tag k="old_name" v="Sekkevika" />
		<tag k="ssr:stedsnr" v="409603" />
	</node>
	<node id="-63751" lat="60.561835231" lon="4.96325152854">
		<tag k="name" v="Skansevika" />
		<tag k="natural" v="bay" />
		<tag k="ssr:stedsnr" v="409601" />
	</node>
	<node id="-63750" lat="60.5422499976" lon="4.98088055527">
		<tag k="fixme" v="consider seamark:type=rock or natural=shoal" />
		<tag k="name" v="Dalskjeret" />
		<tag k="place" v="islet" />
		<tag k="ssr:stedsnr" v="409600" />
	</node>
	<node id="-63743" lat="60.5051527789" lon="5.16787777302">
		<tag k="name" v="Nordre Signalvika" />
		<tag k="natural" v="bay" />
		<tag k="ssr:stedsnr" v="409526" />
	</node>
	<node id="-63730" lat="60.4632027766" lon="5.22696945256">
		<tag k="name" v="Holmen" />
		<tag k="place" v="islet" />
		<tag k="ssr:stedsnr" v="388981" />
	</node>
	<node id="-63728" lat="60.5192972228" lon="5.11177222435">
		<tag k="name" v="Meikjevika" />
		<tag k="natural" v="bay" />
		<tag k="ssr:stedsnr" v="388441" />
	</node>
	<node id="-63725" lat="60.5423472244" lon="4.97164721797">
		<tag k="name" v="Gulbrandsøyosen" />
		<tag k="natural" v="strait" />
		<tag k="ssr:stedsnr" v="370722" />
	</node>
	<node id="-63724" lat="60.5598111115" lon="4.9714499963">
		<tag k="name" v="Marivika" />
		<tag k="natural" v="bay" />
		<tag k="ssr:stedsnr" v="370718" />
	</node>
	<node id="-63723" lat="60.5303706098" lon="5.04992818546">
		<tag k="name" v="Berlandsholmen" />
		<tag k="place" v="islet" />
		<tag k="ssr:stedsnr" v="370717" />
	</node>
	<node id="-63722" lat="60.5304055544" lon="4.98201944018">
		<tag k="name" v="Kalven" />
		<tag k="place" v="islet" />
		<tag k="ssr:stedsnr" v="370711" />
	</node>
	<node id="-63721" lat="60.5739138869" lon="4.98240556069">
		<tag k="name" v="Jakobsøyna" />
		<tag k="place" v="island" />
		<tag k="ssr:stedsnr" v="370693" />
	</node>
	<node id="-63720" lat="60.5281111103" lon="5.04589999458">
		<tag k="name" v="Havnen" />
		<tag k="natural" v="bay" />
		<tag k="ssr:stedsnr" v="370674" />
	</node>
	<node id="-63719" lat="60.5186638868" lon="5.03691111435">
		<tag k="name" v="Fauskangspollen" />
		<tag k="natural" v="bay" />
		<tag k="ssr:stedsnr" v="370673" />
	</node>
	<node id="-63718" lat="60.5038444461" lon="5.16382222819">
		<tag k="name" v="Leirdalsvika" />
		<tag k="natural" v="bay" />
		<tag k="ssr:stedsnr" v="370546" />
	</node>
	<node id="-63716" lat="60.4152111143" lon="5.12146944974">
		<tag k="name" v="Apalholmen" />
		<tag k="place" v="islet" />
		<tag k="ssr:stedsnr" v="369557" />
	</node>
	<node id="-63711" lat="60.4553166671" lon="5.2303194434">
		<tag k="name" v="Olsnes" />
		<tag k="natural" v="cape" />
		<tag k="ssr:stedsnr" v="369493" />
	</node>
	<node id="-63710" lat="60.4405305559" lon="5.10993332743">
		<tag k="alt_name" v="Vardeneset" />
		<tag k="name" v="Vardaneset" />
		<tag k="natural" v="cape" />
		<tag k="ssr:stedsnr" v="369448" />
	</node>
	<node id="-63706" lat="60.4943944427" lon="5.2159249921">
		<tag k="bay" v="fjord" />
		<tag k="name" v="Herdlefjorden" />
		<tag k="natural" v="bay" />
		<tag k="ssr:stedsnr" v="369353" />
	</node>
	<node id="-63705" lat="60.4816111142" lon="5.0515666693">
		<tag k="fixme" v="consider seamark:type=rock or natural=shoal" />
		<tag k="name" v="Hjelmen" />
		<tag k="place" v="islet" />
		<tag k="ssr:stedsnr" v="369227" />
	</node>
	<node id="-63704" lat="60.4482111133" lon="5.08126388821">
		<tag k="name" v="Botakeila" />
		<tag k="natural" v="bay" />
		<tag k="ssr:stedsnr" v="369144" />
	</node>
	<node id="-63699" lat="60.4348662133" lon="5.05357299325">
		<tag k="name" v="Søra Neset" />
		<tag k="natural" v="cape" />
		<tag k="ssr:stedsnr" v="349692" />
	</node>
	<node id="-63697" lat="60.4890888855" lon="5.01513055665">
		<tag k="fixme" v="consider seamark:type=rock or natural=shoal" />
		<tag k="name" v="Tretteskjeret" />
		<tag k="place" v="islet" />
		<tag k="ssr:stedsnr" v="348934" />
	</node>
	<node id="-63695" lat="60.5619319705" lon="4.96218635654">
		<tag k="name" v="Skanseneset" />
		<tag k="natural" v="cape" />
		<tag k="ssr:stedsnr" v="348911" />
	</node>
	<node id="-63694" lat="60.5030388879" lon="5.02562777961">
		<tag k="name" v="Robbersfjæra" />
		<tag k="natural" v="beach" />
		<tag k="place" v="locality" />
		<tag k="ssr:stedsnr" v="348545" />
	</node>
	<node id="-63693" lat="60.5073055294" lon="5.07586212255">
		<tag k="name" v="Rindevika" />
		<tag k="natural" v="bay" />
		<tag k="ssr:stedsnr" v="348538" />
	</node>
	<node id="-63692" lat="60.4980888891" lon="5.16366666056">
		<tag k="name" v="Kjøringavika" />
		<tag k="natural" v="bay" />
		<tag k="ssr:stedsnr" v="348519" />
	</node>
	<node id="-63690" lat="60.4260916672" lon="5.13904999744">
		<tag k="name" v="Kvithovdneset" />
		<tag k="natural" v="cape" />
		<tag k="ssr:stedsnr" v="348881" />
	</node>
	<node id="-63689" lat="60.5561459763" lon="4.96286046522">
		<tag k="name" v="Håpoldenden" />
		<tag k="natural" v="cape" />
		<tag k="ssr:stedsnr" v="348590" />
	</node>
	<node id="-63688" lat="60.5715333352" lon="4.97822500408">
		<tag k="name" v="Grunnosen" />
		<tag k="natural" v="strait" />
		<tag k="ssr:stedsnr" v="348589" />
	</node>
	<node id="-63686" lat="60.4899027739" lon="5.15698333049">
		<tag k="fixme" v="consider seamark:type=rock or natural=shoal" />
		<tag k="name" v="Olderskjeret" />
		<tag k="place" v="islet" />
		<tag k="ssr:stedsnr" v="348500" />
	</node>
	<node id="-63683" lat="60.4885166673" lon="5.15913332423">
		<tag k="name" v="Litle Hatlevika" />
		<tag k="natural" v="bay" />
		<tag k="ssr:stedsnr" v="348488" />
	</node>
	<node id="-63672" lat="60.4913777773" lon="5.04728333442">
		<tag k="fixme" v="consider seamark:type=rock or natural=shoal" />
		<tag k="name" v="Terneskjeret" />
		<tag k="place" v="islet" />
		<tag k="ssr:stedsnr" v="329871" />
	</node>
	<node id="-63671" lat="60.4366833354" lon="5.15874722189">
		<tag k="fixme" v="consider seamark:type=rock or natural=shoal" />
		<tag k="name" v="Gulskjeret" />
		<tag k="place" v="islet" />
		<tag k="ssr:stedsnr" v="328965" />
	</node>
	<node id="-63669" lat="60.5664499984" lon="4.98303889734">
		<tag k="name" v="Parisholmane" />
		<tag k="place" v="islet" />
		<tag k="ssr:stedsnr" v="310694" />
	</node>
	<node id="-63667" lat="60.5065777802" lon="5.02591944581">
		<tag k="name" v="Skitnepollen" />
		<tag k="natural" v="bay" />
		<tag k="ssr:stedsnr" v="310659" />
	</node>
	<node id="-63665" lat="60.4386611136" lon="5.09658332505">
		<tag k="name" v="Austre Skjerholmen" />
		<tag k="place" v="islet" />
		<tag k="ssr:stedsnr" v="309547" />
	</node>
	<node id="-63663" lat="60.5022500029" lon="5.14784443538">
		<tag k="name" v="Hanevika" />
		<tag k="natural" v="bay" />
		<tag k="ssr:stedsnr" v="309525" />
	</node>
	<node id="-63660" lat="60.4472248064" lon="5.0996840265">
		<tag k="name" v="Hanøytangen" />
		<tag k="natural" v="cape" />
		<tag k="ssr:stedsnr" v="309165" />
	</node>
	<node id="-63659" lat="60.4488305521" lon="5.06297499415">
		<tag k="name" v="Bollholmane" />
		<tag k="place" v="islet" />
		<tag k="ssr:stedsnr" v="309164" />
	</node>
	<node id="-63657" lat="60.4422805563" lon="5.12988333095">
		<tag k="name" v="Krossneset" />
		<tag k="natural" v="cape" />
		<tag k="ssr:stedsnr" v="308530" />
	</node>
	<node id="-63651" lat="60.4919138916" lon="5.06344722914">
		<tag k="name" v="Risøyna" />
		<tag k="place" v="island" />
		<tag k="ssr:stedsnr" v="308215" />
	</node>
	<node id="-63650" lat="60.4828666657" lon="5.0106972195">
		<tag k="name" v="Søra Tretteflua" />
		<tag k="natural" v="shoal" />
		<tag k="place" v="locality" />
		<tag k="ssr:stedsnr" v="308213" />
	</node>
	<node id="-63649" lat="60.4938027775" lon="5.07555833826">
		<tag k="name" v="Kjerrgardsosen" />
		<tag k="natural" v="strait" />
		<tag k="ssr:stedsnr" v="308205" />
	</node>
	<node id="-63648" lat="60.4938333326" lon="5.01354443789">
		<tag k="name" v="Stora Trettøyna" />
		<tag k="place" v="islet" />
		<tag k="ssr:stedsnr" v="308202" />
	</node>
	<node id="-63644" lat="60.5113611115" lon="5.01828056351">
		<tag k="fixme" v="consider seamark:type=rock or natural=shoal" />
		<tag k="name" v="Skarvaskjeret" />
		<tag k="place" v="islet" />
		<tag k="ssr:stedsnr" v="207495" />
	</node>
	<node id="-63643" lat="60.4432388911" lon="5.23938332715">
		<tag k="name" v="Øydjordsskallen" />
		<tag k="natural" v="shoal" />
		<tag k="place" v="locality" />
		<tag k="ssr:stedsnr" v="207459" />
	</node>
	<node id="-63640" lat="60.5544277806" lon="4.96538332784">
		<tag k="name" v="Håpoldøyna" />
		<tag k="place" v="island" />
		<tag k="ssr:stedsnr" v="188738" />
	</node>
	<node id="-63639" lat="60.536727781" lon="4.96127223008">
		<tag k="name" v="Litloksen" />
		<tag k="place" v="island" />
		<tag k="ssr:stedsnr" v="188728" />
	</node>
	<node id="-63636" lat="60.4307444428" lon="5.24049999342">
		<tag k="name" v="Bakarvågneset" />
		<tag k="natural" v="cape" />
		<tag k="ssr:stedsnr" v="188650" />
	</node>
	<node id="-63634" lat="60.3896305526" lon="5.17115833358">
		<tag k="name" v="Hjeltaskjervika" />
		<tag k="natural" v="bay" />
		<tag k="ssr:stedsnr" v="187618" />
	</node>
	<node id="-63626" lat="60.4881861082" lon="5.02480277444">
		<tag k="name" v="Turiholmen" />
		<tag k="place" v="islet" />
		<tag k="ssr:stedsnr" v="187223" />
	</node>
	<node id="-63625" lat="60.4589861093" lon="5.03699166468">
		<tag k="name" v="Kalvsøyna" />
		<tag k="place" v="islet" />
		<tag k="ssr:stedsnr" v="187135" />
	</node>
	<node id="-63624" lat="60.4826555526" lon="5.07367777782">
		<tag k="name" v="Skotnesholmane" />
		<tag k="place" v="islet" />
		<tag k="ssr:stedsnr" v="167740" />
	</node>
	<node id="-63623" lat="60.4632861154" lon="5.0847694397">
		<tag k="name" v="Breivikneset" />
		<tag k="natural" v="cape" />
		<tag k="ssr:stedsnr" v="167735" />
	</node>
	<node id="-63621" lat="60.4505027805" lon="5.11838333769">
		<tag k="name" v="Medavågen" />
		<tag k="natural" v="bay" />
		<tag k="ssr:stedsnr" v="167694" />
	</node>
	<node id="-63620" lat="60.4485638932" lon="5.07232777026">
		<tag k="name" v="Gulskjervika" />
		<tag k="natural" v="bay" />
		<tag k="ssr:stedsnr" v="167691" />
	</node>
	<node id="-63618" lat="60.4371125701" lon="5.06390695784">
		<tag k="name" v="Søre Hillesvika" />
		<tag k="natural" v="bay" />
		<tag k="ssr:stedsnr" v="167683" />
	</node>
	<node id="-63616" lat="60.4945944463" lon="5.06036111398">
		<tag k="name" v="Lisstraumholmen" />
		<tag k="place" v="islet" />
		<tag k="ssr:stedsnr" v="166940" />
	</node>
	<node id="-63614" lat="60.3907861144" lon="5.17902499513">
		<tag k="name" v="Brattneset" />
		<tag k="natural" v="cape" />
		<tag k="ssr:stedsnr" v="166888" />
	</node>
	<node id="-63612" lat="60.4465305532" lon="5.14881944303">
		<tag k="name" v="Bratteidet" />
		<tag k="place" v="locality" />
		<tag k="ssr:stedsnr" v="166609" />
	</node>
	<node id="-63611" lat="60.4401111146" lon="5.16470832792">
		<tag k="name" v="Djupavika" />
		<tag k="natural" v="bay" />
		<tag k="ssr:stedsnr" v="166603" />
	</node>
	<node id="-63610" lat="60.5640166642" lon="4.96319444951">
		<tag k="name" v="Ellingsneset" />
		<tag k="natural" v="cape" />
		<tag k="ssr:stedsnr" v="166596" />
	</node>
	<node id="-63607" lat="60.4156861133" lon="5.24897777389">
		<tag k="name" v="Florvågøyna" />
		<tag k="place" v="island" />
		<tag k="ssr:stedsnr" v="166399" />
	</node>
	<node id="-63606" lat="60.4764555515" lon="5.15731666623">
		<tag k="name" v="Fjellstovevika" />
		<tag k="natural" v="bay" />
		<tag k="ssr:stedsnr" v="166735" />
	</node>
	<node id="-63605" lat="60.5153444477" lon="5.12131944141">
		<tag k="name" v="Holmevika" />
		<tag k="natural" v="bay" />
		<tag k="ssr:stedsnr" v="166546" />
	</node>
	<node id="-63604" lat="60.4992916643" lon="5.06776944409">
		<tag k="name" v="Inste Notnesvika" />
		<tag k="natural" v="bay" />
		<tag k="ssr:stedsnr" v="166544" />
	</node>
	<node id="-63602" lat="60.4950027735" lon="5.16018611417">
		<tag k="name" v="Eidvika" />
		<tag k="natural" v="bay" />
		<tag k="ssr:stedsnr" v="166536" />
	</node>
	<node id="-63594" lat="60.4118833337" lon="5.23611945006">
		<tag k="name" v="Sandvika" />
		<tag k="natural" v="bay" />
		<tag k="ssr:stedsnr" v="146980" />
	</node>
	<node id="-63593" lat="60.4515333328" lon="5.07369722116">
		<tag k="name" v="Hanøyklubben" />
		<tag k="natural" v="cape" />
		<tag k="ssr:stedsnr" v="146888" />
	</node>
	<node id="-63592" lat="60.4869333338" lon="5.05875555929">
		<tag k="name" v="Inste Laksholmen" />
		<tag k="place" v="islet" />
		<tag k="ssr:stedsnr" v="146879" />
	</node>
	<node id="-63591" lat="60.4826611132" lon="5.06355556102">
		<tag k="name" v="Langevågen" />
		<tag k="natural" v="bay" />
		<tag k="ssr:stedsnr" v="146878" />
	</node>
	<node id="-63588" lat="60.5493277785" lon="4.96932221691">
		<tag k="name" v="Gulbrandsøyna" />
		<tag k="place" v="islet" />
		<tag k="ssr:stedsnr" v="127746" />
	</node>
	<node id="-63587" lat="60.5883805557" lon="4.94448333808">
		<tag k="name" v="Herdleflaket" />
		<tag k="natural" v="shoal" />
		<tag k="place" v="locality" />
		<tag k="ssr:stedsnr" v="127731" />
	</node>
	<node id="-63583" lat="60.5119550156" lon="5.12789983491">
		<tag k="name" v="Hammarhelleren" />
		<tag k="natural" v="cape" />
		<tag k="ssr:stedsnr" v="127400" />
	</node>
	<node id="-63582" lat="60.3962888847" lon="5.1831527693">
		<tag k="name" v="Marikovneset" />
		<tag k="natural" v="cape" />
		<tag k="ssr:stedsnr" v="126643" />
	</node>
	<node id="-63581" lat="60.3999010926" lon="5.21111941892">
		<tag k="name" v="Storeklubben" />
		<tag k="natural" v="cape" />
		<tag k="ssr:stedsnr" v="126584" />
	</node>
	<node id="-63580" lat="60.4427444447" lon="5.11900277896">
		<tag k="name" v="Tussholmen" />
		<tag k="place" v="islet" />
		<tag k="ssr:stedsnr" v="126556" />
	</node>
	<node id="-63579" lat="60.4494527803" lon="5.10321111703">
		<tag k="name" v="Langøyna" />
		<tag k="place" v="islet" />
		<tag k="ssr:stedsnr" v="126531" />
	</node>
	<node id="-63576" lat="60.4758694402" lon="5.03627499215">
		<tag k="name" v="Krabbeskjerosen" />
		<tag k="natural" v="strait" />
		<tag k="ssr:stedsnr" v="126231" />
	</node>
	<node id="-63575" lat="60.4775333314" lon="5.0578000037">
		<tag k="name" v="Skogholmen" />
		<tag k="place" v="islet" />
		<tag k="ssr:stedsnr" v="126226" />
	</node>
	<node id="-63571" lat="60.4578777789" lon="5.09897778498">
		<tag k="name" v="Pøylo" />
		<tag k="natural" v="bay" />
		<tag k="ssr:stedsnr" v="107700" />
	</node>
	<node id="-63570" lat="60.4569694455" lon="5.14499166846">
		<tag k="name" v="Tveitneset" />
		<tag k="natural" v="cape" />
		<tag k="ssr:stedsnr" v="107695" />
	</node>
	<node id="-63565" lat="60.4279555555" lon="5.14443333109">
		<tag k="name" v="Hola" />
		<tag k="natural" v="bay" />
		<tag k="ssr:stedsnr" v="106906" />
	</node>
	<node id="-63559" lat="60.4905749971" lon="5.08016943958">
		<tag k="name" v="Store Skotnesholmen" />
		<tag k="place" v="islet" />
		<tag k="ssr:stedsnr" v="106729" />
	</node>
	<node id="-63558" lat="60.4643916639" lon="5.04523610907">
		<tag k="name" v="Prestholmen" />
		<tag k="place" v="islet" />
		<tag k="ssr:stedsnr" v="106690" />
	</node>
	<node id="-63557" lat="60.4395555526" lon="5.08743889435">
		<tag k="name" v="Djupeskarsundet" />
		<tag k="natural" v="strait" />
		<tag k="ssr:stedsnr" v="106660" />
	</node>
	<node id="-63556" lat="60.4381641579" lon="5.05223489942">
		<tag k="name" v="Smalhusneset" />
		<tag k="natural" v="cape" />
		<tag k="ssr:stedsnr" v="106616" />
	</node>
	<node id="-63554" lat="60.5256749966" lon="5.00054722718">
		<tag k="name" v="Bekkestø" />
		<tag k="natural" v="bay" />
		<tag k="ssr:stedsnr" v="106589" />
	</node>
	<node id="-63553" lat="60.5303861092" lon="4.99011943734">
		<tag k="name" v="Skarvaneset" />
		<tag k="natural" v="cape" />
		<tag k="ssr:stedsnr" v="106587" />
	</node>
	<node id="-63548" lat="60.5028444429" lon="5.12031388081">
		<tag k="name" v="Vassenden" />
		<tag k="natural" v="bay" />
		<tag k="ssr:stedsnr" v="106538" />
	</node>
	<node id="-63547" lat="60.500263928" lon="5.0686778524">
		<tag k="name" v="Skutlevika" />
		<tag k="natural" v="bay" />
		<tag k="ssr:stedsnr" v="106533" />
	</node>
	<node id="-63546" lat="60.4922777768" lon="5.157713883">
		<tag k="name" v="Vassneset" />
		<tag k="natural" v="cape" />
		<tag k="ssr:stedsnr" v="106517" />
	</node>
	<node id="-63542" lat="60.4851527812" lon="5.04518889174">
		<tag k="name" v="Ertenbogen" />
		<tag k="natural" v="bay" />
		<tag k="ssr:stedsnr" v="105956" />
	</node>
	<node id="-63541" lat="60.550358335" lon="4.97263888368">
		<tag k="fixme" v="consider seamark:type=rock or natural=shoal" />
		<tag k="name" v="Jakobsskjeret" />
		<tag k="place" v="islet" />
		<tag k="ssr:stedsnr" v="105941" />
	</node>
	<node id="-63539" lat="60.4096888848" lon="5.14931666142">
		<tag k="name" v="Høyneset" />
		<tag k="natural" v="cape" />
		<tag k="ssr:stedsnr" v="105901" />
	</node>
	<node id="-63537" lat="60.3952361146" lon="5.19907499191">
		<tag k="name" v="Vispaneset" />
		<tag k="natural" v="cape" />
		<tag k="ssr:stedsnr" v="105886" />
	</node>
	<node id="-63530" lat="60.4792416654" lon="5.06645276908">
		<tag k="name" v="Langøyna" />
		<tag k="place" v="island" />
		<tag k="ssr:stedsnr" v="105333" />
	</node>
	<node id="-63529" lat="60.5048916623" lon="5.03141665818">
		<tag k="name" v="Annfinnstøa" />
		<tag k="natural" v="bay" />
		<tag k="ssr:stedsnr" v="105324" />
	</node>
	<node id="-63525" lat="60.5070027767" lon="5.04931111501">
		<tag k="name" v="Vågsbotnen" />
		<tag k="natural" v="bay" />
		<tag k="ssr:stedsnr" v="67696" />
	</node>
	<node id="-63523" lat="60.5013416691" lon="5.01389722822">
		<tag k="name" v="Lisløyna" />
		<tag k="place" v="islet" />
		<tag k="ssr:stedsnr" v="67674" />
	</node>
	<node id="-63514" lat="60.4182083356" lon="5.0779750015">
		<tag k="name" v="Søra Rotøyna" />
		<tag k="place" v="island" />
		<tag k="ssr:stedsnr" v="66334" />
	</node>
	<node id="-63513" lat="60.430602775" lon="5.08587778515">
		<tag k="fixme" v="consider seamark:type=rock or natural=shoal" />
		<tag k="name" v="Småværa" />
		<tag k="place" v="islet" />
		<tag k="ssr:stedsnr" v="66176" />
	</node>
	<node id="-63512" lat="60.4387388921" lon="5.08303054661">
		<tag k="name" v="Smørøskja" />
		<tag k="natural" v="strait" />
		<tag k="ssr:stedsnr" v="66160" />
	</node>
	<node id="-63511" lat="60.4960416691" lon="5.02925278505">
		<tag k="name" v="Trettosen" />
		<tag k="natural" v="strait" />
		<tag k="ssr:stedsnr" v="66214" />
	</node>
	<node id="-63507" lat="60.4625999991" lon="5.10293054656">
		<tag k="name" v="Svartegyta" />
		<tag k="natural" v="bay" />
		<tag k="ssr:stedsnr" v="46740" />
	</node>
	<node id="-63506" lat="60.4644111142" lon="5.21205277714">
		<tag k="name" v="Kuneset" />
		<tag k="natural" v="cape" />
		<tag k="ssr:stedsnr" v="46718" />
	</node>
	<node id="-63505" lat="60.4691388934" lon="5.12115555512">
		<tag k="name" v="Nordre Vågen" />
		<tag k="natural" v="bay" />
		<tag k="ssr:stedsnr" v="46713" />
	</node>
	<node id="-63504" lat="60.4438555518" lon="5.07897222416">
		<tag k="name" v="Kobbevågen" />
		<tag k="natural" v="bay" />
		<tag k="ssr:stedsnr" v="46712" />
	</node>
	<node id="-63503" lat="60.443541667" lon="5.11367777785">
		<tag k="name" v="Vardnesklubben" />
		<tag k="natural" v="cape" />
		<tag k="ssr:stedsnr" v="46708" />
	</node>
	<node id="-63499" lat="60.4355373068" lon="5.05528851872">
		<tag k="name" v="Søra Lefjæra" />
		<tag k="natural" v="bay" />
		<tag k="ssr:stedsnr" v="46697" />
	</node>
	<node id="-63497" lat="60.4381583372" lon="5.07802499679">
		<tag k="name" v="Torvholmsundet" />
		<tag k="natural" v="strait" />
		<tag k="ssr:stedsnr" v="45956" />
	</node>
	<node id="-63496" lat="60.5252969935" lon="5.00169253984">
		<tag k="name" v="Bekkeneset" />
		<tag k="natural" v="cape" />
		<tag k="ssr:stedsnr" v="45926" />
	</node>
	<node id="-63494" lat="60.4290638887" lon="5.14894166386">
		<tag k="name" v="Størjevika" />
		<tag k="natural" v="bay" />
		<tag k="ssr:stedsnr" v="45885" />
	</node>
	<node id="-63493" lat="60.4691861082" lon="5.05819445016">
		<tag k="name" v="Bymannsvikane" />
		<tag k="natural" v="bay" />
		<tag k="ssr:stedsnr" v="45684" />
	</node>
	<node id="-63490" lat="60.5288694429" lon="5.04920277834">
		<tag k="name" v="Klubben" />
		<tag k="natural" v="cape" />
		<tag k="ssr:stedsnr" v="45571" />
	</node>
	<node id="-63489" lat="60.5268138868" lon="5.01657222177">
		<tag k="name" v="Vassenden" />
		<tag k="natural" v="bay" />
		<tag k="ssr:stedsnr" v="45568" />
	</node>
</osm>
