<?xml version="1.0" encoding="UTF-8"?>
<osm version="0.6" generator="osmapis">
	<node lat="60.56823888890856" lon="4.950533329563047" id="-70742">
		<tag k="alt_name" v="Herdla kirke" />
		<tag k="amenity" v="place_of_worship" />
		<tag k="denomination" v="lutheran" />
		<tag k="name" v="Herdla kyrkje" />
		<tag k="religion" v="christian" />
		<tag k="ssr:stedsnr" v="127725" />
	</node>
	<node lat="60.401481041643585" lon="5.189600099893159" id="-71074">
		<tag k="amenity" v="place_of_worship" />
		<tag k="denomination" v="lutheran" />
		<tag k="name" v="Strusshamn kirke" />
		<tag k="religion" v="christian" />
		<tag k="ssr:stedsnr" v="672554" />
	</node>
	<node lat="60.47688332906181" lon="5.212430551413542" id="-71781">
		<tag k="amenity" v="place_of_worship" />
		<tag k="denomination" v="lutheran" />
		<tag k="name" v="Ask kirke" />
		<tag k="religion" v="christian" />
		<tag k="ssr:stedsnr" v="551418" />
	</node>
	<node lat="60.45429444574984" lon="5.13152777152862" id="-71837">
		<tag k="amenity" v="place_of_worship" />
		<tag k="denomination" v="lutheran" />
		<tag k="name" v="Tveit kirke" />
		<tag k="religion" v="christian" />
		<tag k="ssr:stedsnr" v="611542" />
	</node>
	<node lat="60.439023922088396" lon="5.228019565398706" id="-72106">
		<tag k="amenity" v="place_of_worship" />
		<tag k="denomination" v="lutheran" />
		<tag k="name" v="Erdal kirke" />
		<tag k="religion" v="christian" />
		<tag k="ssr:stedsnr" v="990956" />
	</node>
</osm>
