<?xml version="1.0" encoding="UTF-8"?>
<osm generator="osmapis" version="0.6">
	<node id="-634623" lat="60.4675166663" lon="5.18754167109">
		<tag k="name" v="Høljemyrane" />
		<tag k="natural" v="wetland" />
		<tag k="ssr:stedsnr" v="774706" />
	</node>
	<node id="-635389" lat="60.462952777" lon="5.20178611933">
		<tag k="historic" v="shieling" />
		<tag k="name" v="Grønestølen" />
		<tag k="place" v="locality" />
		<tag k="ssr:stedsnr" v="956711" />
	</node>
	<node id="-635252" lat="60.4224722187" lon="5.18345555991">
		<tag k="historic" v="shieling" />
		<tag k="name" v="Kleppestølen" />
		<tag k="place" v="locality" />
		<tag k="ssr:stedsnr" v="773368" />
	</node>
	<node id="-634478" lat="60.4502361132" lon="5.07451111872">
		<tag k="name" v="Hanøyklubbmyra" />
		<tag k="natural" v="wetland" />
		<tag k="ssr:stedsnr" v="713686" />
	</node>
	<node id="-635261" lat="60.5799666697" lon="4.97223333915">
		<tag k="name" v="Paddehola" />
		<tag k="natural" v="wetland" />
		<tag k="ssr:stedsnr" v="773595" />
	</node>
	<node id="-634974" lat="60.4856083367" lon="5.09832222925">
		<tag k="historic" v="shieling" />
		<tag k="name" v="Seta" />
		<tag k="place" v="locality" />
		<tag k="ssr:stedsnr" v="349761" />
	</node>
	<node id="-635099" lat="60.4561861074" lon="5.11618332936">
		<tag k="historic" v="shieling" />
		<tag k="name" v="Gamlestølen" />
		<tag k="place" v="locality" />
		<tag k="ssr:stedsnr" v="531716" />
	</node>
	<node id="-635226" lat="60.4685194464" lon="5.09554999699">
		<tag k="name" v="Hamyra" />
		<tag k="natural" v="wetland" />
		<tag k="ssr:stedsnr" v="652687" />
	</node>
	<node id="-634584" lat="60.4783166695" lon="5.12691943993">
		<tag k="name" v="Gausfjellmyrane" />
		<tag k="natural" v="wetland" />
		<tag k="ssr:stedsnr" v="895730" />
	</node>
	<node id="-635349" lat="60.4205194415" lon="5.20946944752">
		<tag k="historic" v="shieling" />
		<tag k="name" v="Elsstølen" />
		<tag k="place" v="locality" />
		<tag k="ssr:stedsnr" v="955249" />
	</node>
	<node id="-634579" lat="60.449938891" lon="5.12630000193">
		<tag k="name" v="Stiklemyra" />
		<tag k="natural" v="wetland" />
		<tag k="ssr:stedsnr" v="895588" />
	</node>
	<node id="-634320" lat="60.4573194479" lon="5.16223888838">
		<tag k="name" v="Hauglandsmyrane" />
		<tag k="natural" v="wetland" />
		<tag k="ssr:stedsnr" v="349716" />
	</node>
	<node id="-634703" lat="60.4923805551" lon="5.14928610671">
		<tag k="historic" v="shieling" />
		<tag k="name" v="Hanevikstølen" />
		<tag k="place" v="locality" />
		<tag k="ssr:stedsnr" v="955526" />
	</node>
	<node id="-634062" lat="60.4584500006" lon="5.15261388139">
		<tag k="historic" v="shieling" />
		<tag k="name" v="Stølen" />
		<tag k="place" v="locality" />
		<tag k="ssr:stedsnr" v="227892" />
	</node>
	<node id="-634438" lat="60.46735" lon="5.16171111968">
		<tag k="name" v="Tuemyrane" />
		<tag k="natural" v="wetland" />
		<tag k="ssr:stedsnr" v="590906" />
	</node>
	<node id="-634045" lat="60.5109305593" lon="5.03073611397">
		<tag k="historic" v="shieling" />
		<tag k="name" v="Storstølen" />
		<tag k="place" v="locality" />
		<tag k="ssr:stedsnr" v="227567" />
	</node>
	<node id="-635318" lat="60.4478055573" lon="5.12529723008">
		<tag k="name" v="Kobbamyra" />
		<tag k="natural" v="wetland" />
		<tag k="ssr:stedsnr" v="834632" />
	</node>
	<node id="-634419" lat="60.4972611108" lon="5.14288056381">
		<tag k="historic" v="shieling" />
		<tag k="name" v="Stigsstølen" />
		<tag k="place" v="locality" />
		<tag k="ssr:stedsnr" v="530963" />
	</node>
	<node id="-634033" lat="60.4130527788" lon="5.1935972178">
		<tag k="name" v="Stykket" />
		<tag k="place" v="locality" />
		<tag k="ssr:stedsnr" v="227260" />
	</node>
	<node id="-634287" lat="60.4722111104" lon="5.13959166033">
		<tag k="name" v="Revura" />
		<tag k="natural" v="scree" />
		<tag k="ssr:stedsnr" v="470686" />
	</node>
	<node id="-635173" lat="60.4603499991" lon="5.10688611699">
		<tag k="name" v="Kalsimyra" />
		<tag k="natural" v="wetland" />
		<tag k="ssr:stedsnr" v="592717" />
	</node>
	<node id="-634843" lat="60.464975003" lon="5.12501389178">
		<tag k="name" v="Dyrtomyra" />
		<tag k="natural" v="wetland" />
		<tag k="ssr:stedsnr" v="107689" />
	</node>
	<node id="-634144" lat="60.4546638888" lon="5.15221667182">
		<tag k="name" v="Vassdalsmyra" />
		<tag k="natural" v="wetland" />
		<tag k="ssr:stedsnr" v="287365" />
	</node>
	<node id="-634653" lat="60.4541888858" lon="5.10261111908">
		<tag k="name" v="Evjemyra" />
		<tag k="natural" v="wetland" />
		<tag k="ssr:stedsnr" v="834327" />
	</node>
	<node id="-635036" lat="60.4422305559" lon="5.07345833784">
		<tag k="name" v="Mosamyra" />
		<tag k="natural" v="wetland" />
		<tag k="ssr:stedsnr" v="410668" />
	</node>
	<node id="-634139" lat="60.4589944438" lon="5.10717777516">
		<tag k="name" v="Brekkemyrane" />
		<tag k="natural" v="wetland" />
		<tag k="ssr:stedsnr" v="167718" />
	</node>
	<node id="-634135" lat="60.4054166628" lon="5.20715832688">
		<tag k="name" v="Bustafjellmyra" />
		<tag k="natural" v="wetland" />
		<tag k="ssr:stedsnr" v="166928" />
	</node>
	<node id="-634512" lat="60.4188250026" lon="5.22651944386">
		<tag k="name" v="Svensmyra" />
		<tag k="natural" v="wetland" />
		<tag k="ssr:stedsnr" v="651261" />
	</node>
	<node id="-635022" lat="60.529308332" lon="5.03865833839">
		<tag k="name" v="Peura" />
		<tag k="natural" v="scree" />
		<tag k="ssr:stedsnr" v="409591" />
	</node>
	<node id="-634477" lat="60.429236115" lon="5.20646111021">
		<tag k="name" v="Vassmyra" />
		<tag k="natural" v="wetland" />
		<tag k="ssr:stedsnr" v="713683" />
	</node>
	<node id="-635020" lat="60.5252638858" lon="5.06148056044">
		<tag k="historic" v="shieling" />
		<tag k="name" v="Sjorstølen" />
		<tag k="place" v="locality" />
		<tag k="ssr:stedsnr" v="409576" />
	</node>
	<node id="-635010" lat="60.4193416668" lon="5.21432499737">
		<tag k="historic" v="shieling" />
		<tag k="name" v="Soldal" />
		<tag k="place" v="locality" />
		<tag k="ssr:stedsnr" v="409361" />
	</node>
	<node id="-634374" lat="60.4007749975" lon="5.17331388096">
		<tag k="name" v="Mossaskogen" />
		<tag k="place" v="locality" />
		<tag k="ssr:stedsnr" v="409868" />
	</node>
	<node id="-634626" lat="60.4606916709" lon="5.1642444365">
		<tag k="name" v="Kolbeinsmyra" />
		<tag k="natural" v="wetland" />
		<tag k="ssr:stedsnr" v="774720" />
	</node>
	<node id="-634625" lat="60.4631722213" lon="5.15985555432">
		<tag k="name" v="Stokkemyrane" />
		<tag k="natural" v="wetland" />
		<tag k="ssr:stedsnr" v="774712" />
	</node>
</osm>
