<?xml version="1.0" encoding="UTF-8"?>
<osm version="0.6" generator="osmapis">
	<node id="775361157" lat="62.1987505" lon="5.4881557" version="7" timestamp="2022-08-18T05:33:06Z" changeset="125043361" uid="3497659" user="NKA">
		<tag k="name" v="Åramneset" />
		<tag k="place" v="hamlet" />
		<tag k="ssr:stedsnr" v="704883" />
		<tag k="wikidata" v="Q12719626" />
		<tag k="wikipedia" v="en:Åram" />
	</node>
	<node id="775779808" lat="62.1708981" lon="5.6400867" version="3" timestamp="2022-08-18T05:33:06Z" changeset="125043361" uid="3497659" user="NKA">
		<tag k="name" v="Koparnes" />
		<tag k="place" v="hamlet" />
		<tag k="ssr:stedsnr" v="341976" />
	</node>
	<node id="775786888" lat="62.1429423" lon="5.4215645" version="4" timestamp="2022-08-18T05:33:06Z" changeset="125043361" uid="3497659" user="NKA">
		<tag k="name" v="Hakallestranda" />
		<tag k="place" v="hamlet" />
		<tag k="ssr:stedsnr" v="688308" />
	</node>
	<node id="775792712" lat="62.1004924" lon="5.558251" version="6" timestamp="2022-08-18T05:33:06Z" changeset="125043361" uid="3497659" user="NKA">
		<tag k="alt_name" v="Fiskåbygd" />
		<tag k="name" v="Fiskå" />
		<tag k="place" v="village" />
		<tag k="population" v="479" />
		<tag k="population:date" v="2021-01-01" />
		<tag k="ref:ssb_tettsted" v="6341" />
		<tag k="source:population" v="SSB - befolkning i tettstedet" />
		<tag k="ssr:stedsnr" v="739414" />
	</node>
	<node id="775792715" lat="62.1051975" lon="5.5901241" version="5" timestamp="2022-08-18T05:33:06Z" changeset="125043361" uid="3497659" user="NKA">
		<tag k="name" v="Rusta" />
		<tag k="place" v="hamlet" />
		<tag k="ssr:stedsnr" v="739416" />
	</node>
	<node id="775798380" lat="62.0672802" lon="5.6243675" version="4" timestamp="2022-08-18T05:33:06Z" changeset="125043361" uid="3497659" user="NKA">
		<tag k="name" v="Skjervheim" />
		<tag k="place" v="hamlet" />
		<tag k="ssr:stedsnr" v="314397" />
	</node>
	<node id="775798381" lat="62.0735441" lon="5.5270225" version="4" timestamp="2022-08-18T05:33:06Z" changeset="125043361" uid="3497659" user="NKA">
		<tag k="name" v="Slagnes" />
		<tag k="place" v="village" />
		<tag k="ssr:stedsnr" v="253369" />
	</node>
	<node id="775800568" lat="62.0360845" lon="5.5306672" version="4" timestamp="2022-08-18T05:33:06Z" changeset="125043361" uid="3497659" user="NKA">
		<tag k="name" v="Åheim" />
		<tag k="place" v="village" />
		<tag k="ssr:stedsnr" v="799280" />
	</node>
	<node id="1893810610" lat="61.9977062" lon="5.6505782" version="3" timestamp="2022-08-18T05:33:06Z" changeset="125043361" uid="3497659" user="NKA">
		<tag k="name" v="Almklov" />
		<tag k="place" v="hamlet" />
		<tag k="ssr:stedsnr" v="920053" />
	</node>
	<node id="2552327415" lat="62.1061329" lon="5.6223388" version="2" timestamp="2022-08-18T05:33:06Z" changeset="125043361" uid="3497659" user="NKA">
		<tag k="name" v="Storeide" />
		<tag k="place" v="farm" />
		<tag k="ssr:stedsnr" v="739424" />
	</node>
	<node id="2552327500" lat="62.1059973" lon="5.6494487" version="2" timestamp="2022-08-18T05:33:06Z" changeset="125043361" uid="3497659" user="NKA">
		<tag k="name" v="Lilleeide" />
		<tag k="old_name" v="EIDE LILLE" />
		<tag k="place" v="farm" />
		<tag k="ssr:stedsnr" v="1082089" />
	</node>
	<node id="2552332822" lat="62.1146617" lon="5.671998" version="3" timestamp="2022-08-18T05:33:06Z" changeset="125043361" uid="3497659" user="NKA">
		<tag k="name" v="Eidså" />
		<tag k="place" v="village" />
		<tag k="ssr:stedsnr" v="678416" />
	</node>
	<node id="2552333196" lat="62.0891022" lon="5.7399975" version="2" timestamp="2022-08-18T05:33:06Z" changeset="125043361" uid="3497659" user="NKA">
		<tag k="name" v="Syvde" />
		<tag k="place" v="village" />
		<tag k="ssr:stedsnr" v="678846" />
	</node>
	<node id="2552333442" lat="62.1788232" lon="5.7540104" version="2" timestamp="2022-08-18T05:33:06Z" changeset="125043361" uid="3497659" user="NKA">
		<tag k="alt_name" v="Rovde" />
		<tag k="name" v="Rovdane" />
		<tag k="place" v="village" />
		<tag k="ssr:stedsnr" v="71131" />
	</node>
	<node id="2552333871" lat="61.991462" lon="5.5806297" version="3" timestamp="2022-08-18T05:33:06Z" changeset="125043361" uid="3497659" user="NKA">
		<tag k="name" v="Sunndalen" />
		<tag k="place" v="hamlet" />
		<tag k="ssr:stedsnr" v="495055" />
	</node>
	<node id="2552335968" lat="62.1679432" lon="5.5590148" version="3" timestamp="2022-08-18T05:33:06Z" changeset="125043361" uid="3497659" user="NKA">
		<tag k="name" v="Sørbrandal" />
		<tag k="place" v="hamlet" />
		<tag k="ssr:stedsnr" v="21308" />
	</node>
	<node id="2552336309" lat="62.0514713" lon="5.6204737" version="2" timestamp="2022-08-18T05:33:06Z" changeset="125043361" uid="3497659" user="NKA">
		<tag k="name" v="Sylte" />
		<tag k="place" v="village" />
		<tag k="ssr:stedsnr" v="739333" />
	</node>
	<node id="3002907032" lat="61.9958979" lon="5.639107" version="2" timestamp="2022-08-18T05:33:06Z" changeset="125043361" uid="3497659" user="NKA">
		<tag k="name" v="Åsen" />
		<tag k="place" v="hamlet" />
		<tag k="ssr:stedsnr" v="799042" />
	</node>
	<node id="3002921504" lat="61.9954741" lon="5.6253671" version="2" timestamp="2022-08-18T05:33:06Z" changeset="125043361" uid="3497659" user="NKA">
		<tag k="name" v="Kassen" />
		<tag k="place" v="farm" />
		<tag k="ssr:stedsnr" v="71043" />
	</node>
	<node id="3002921505" lat="62.0051851" lon="5.635695" version="2" timestamp="2022-08-18T05:33:06Z" changeset="125043361" uid="3497659" user="NKA">
		<tag k="alt_name" v="Nøre Hellebust;Hellebust, nordre" />
		<tag k="name" v="Nordre Hellebust" />
		<tag k="place" v="farm" />
		<tag k="ssr:stedsnr" v="314230" />
	</node>
	<node id="3002921507" lat="62.0016818" lon="5.6404343" version="2" timestamp="2022-08-18T05:33:06Z" changeset="125043361" uid="3497659" user="NKA">
		<tag k="name" v="Kroken" />
		<tag k="place" v="farm" />
		<tag k="ssr:stedsnr" v="920215" />
	</node>
	<node id="3002922171" lat="62.0047759" lon="5.6297827" version="3" timestamp="2022-08-18T05:33:06Z" changeset="125043361" uid="3497659" user="NKA">
		<tag k="name" v="Hellebust" />
		<tag k="place" v="hamlet" />
		<tag k="ssr:stedsnr" v="860243" />
	</node>
	<node id="3002925444" lat="61.9995706" lon="5.6202615" version="2" timestamp="2022-08-18T05:33:06Z" changeset="125043361" uid="3497659" user="NKA">
		<tag k="name" v="Lida" />
		<tag k="place" v="farm" />
		<tag k="ssr:stedsnr" v="10211" />
	</node>
	<node id="3002926656" lat="61.9976127" lon="5.6198151" version="2" timestamp="2022-08-18T05:33:06Z" changeset="125043361" uid="3497659" user="NKA">
		<tag k="name" v="Trollehaugen" />
		<tag k="place" v="farm" />
		<tag k="ssr:stedsnr" v="495058" />
	</node>
	<node id="3002929085" lat="61.9958582" lon="5.6515528" version="2" timestamp="2022-08-18T05:33:06Z" changeset="125043361" uid="3497659" user="NKA">
		<tag k="name" v="Haugen" />
		<tag k="place" v="farm" />
		<tag k="ssr:stedsnr" v="617075" />
	</node>
	<node id="3199791814" lat="62.0650374" lon="5.6251657" version="2" timestamp="2022-08-18T05:33:06Z" changeset="125043361" uid="3497659" user="NKA">
		<tag k="name" v="Litlebøen" />
		<tag k="place" v="farm" />
		<tag k="ssr:stedsnr" v="329941" />
	</node>
	<node id="3199791815" lat="62.0606761" lon="5.6200309" version="2" timestamp="2022-08-18T05:33:06Z" changeset="125043361" uid="3497659" user="NKA">
		<tag k="name" v="Vidnes" />
		<tag k="place" v="hamlet" />
		<tag k="ssr:stedsnr" v="921376" />
	</node>
	<node id="3199815877" lat="62.0525521" lon="5.6297258" version="2" timestamp="2022-08-18T05:33:06Z" changeset="125043361" uid="3497659" user="NKA">
		<tag k="alt_name" v="Lundahaugen" />
		<tag k="name" v="Lundehaug" />
		<tag k="place" v="farm" />
		<tag k="ssr:stedsnr" v="921280" />
	</node>
	<node id="3199815878" lat="62.068135" lon="5.5951382" version="2" timestamp="2022-08-18T05:33:06Z" changeset="125043361" uid="3497659" user="NKA">
		<tag k="alt_name" v="Hatleneset" />
		<tag k="name" v="Hatlenes" />
		<tag k="place" v="hamlet" />
		<tag k="ssr:stedsnr" v="617386" />
	</node>
	<node id="3199815879" lat="62.0381388" lon="5.6502407" version="2" timestamp="2022-08-18T05:33:06Z" changeset="125043361" uid="3497659" user="NKA">
		<tag k="name" v="Myklebust" />
		<tag k="place" v="hamlet" />
		<tag k="ssr:stedsnr" v="496273" />
	</node>
	<node id="3199815880" lat="62.0436015" lon="5.6493768" version="2" timestamp="2022-08-18T05:33:06Z" changeset="125043361" uid="3497659" user="NKA">
		<tag k="name" v="Litlestøylen" />
		<tag k="place" v="hamlet" />
		<tag k="ssr:stedsnr" v="329767" />
	</node>
	<node id="3199815881" lat="62.0591813" lon="5.5987624" version="2" timestamp="2022-08-18T05:33:06Z" changeset="125043361" uid="3497659" user="NKA">
		<tag k="alt_name" v="Morset" />
		<tag k="name" v="Mårset" />
		<tag k="place" v="hamlet" />
		<tag k="ssr:stedsnr" v="739326" />
	</node>
	<node id="3199815882" lat="62.0533482" lon="5.6008293" version="2" timestamp="2022-08-18T05:33:06Z" changeset="125043361" uid="3497659" user="NKA">
		<tag k="name" v="Ekreim" />
		<tag k="place" v="hamlet" />
		<tag k="ssr:stedsnr" v="921380" />
	</node>
	<node id="3199815883" lat="62.0722963" lon="5.5854978" version="2" timestamp="2022-08-18T05:33:06Z" changeset="125043361" uid="3497659" user="NKA">
		<tag k="name" v="Krokeneset" />
		<tag k="place" v="hamlet" />
		<tag k="ssr:stedsnr" v="271036" />
	</node>
	<node id="3199815884" lat="62.0495138" lon="5.6316361" version="2" timestamp="2022-08-18T05:33:06Z" changeset="125043361" uid="3497659" user="NKA">
		<tag k="alt_name" v="Brekka" />
		<tag k="name" v="Hatlebrekka" />
		<tag k="place" v="hamlet" />
		<tag k="ssr:stedsnr" v="860321" />
	</node>
	<node id="3199815885" lat="62.0470057" lon="5.6397508" version="2" timestamp="2022-08-18T05:33:06Z" changeset="125043361" uid="3497659" user="NKA">
		<tag k="name" v="Nedrebrekka" />
		<tag k="place" v="farm" />
		<tag k="ssr:stedsnr" v="572816" />
	</node>
	<node id="3199815886" lat="62.044441" lon="5.6400891" version="2" timestamp="2022-08-18T05:33:06Z" changeset="125043361" uid="3497659" user="NKA">
		<tag k="name" v="Øvrebrekka" />
		<tag k="place" v="farm" />
		<tag k="ssr:stedsnr" v="87801" />
	</node>
	<node id="3199815887" lat="62.0498782" lon="5.6045836" version="2" timestamp="2022-08-18T05:33:06Z" changeset="125043361" uid="3497659" user="NKA">
		<tag k="name" v="Skalle" />
		<tag k="place" v="hamlet" />
		<tag k="ssr:stedsnr" v="192295" />
	</node>
	<node id="3199815888" lat="62.0465154" lon="5.6474588" version="2" timestamp="2022-08-18T05:33:06Z" changeset="125043361" uid="3497659" user="NKA">
		<tag k="name" v="Slåttelid" />
		<tag k="place" v="farm" />
		<tag k="ssr:stedsnr" v="860325" />
	</node>
	<node id="3199815889" lat="62.0451283" lon="5.6485423" version="2" timestamp="2022-08-18T05:33:06Z" changeset="125043361" uid="3497659" user="NKA">
		<tag k="name" v="Sollid" />
		<tag k="place" v="farm" />
		<tag k="ssr:stedsnr" v="572815" />
	</node>
	<node id="3677353905" lat="61.9936556" lon="5.632722" version="3" timestamp="2022-08-18T05:33:06Z" changeset="125043361" uid="3497659" user="NKA">
		<tag k="loc_name" v="Duestølen" />
		<tag k="name" v="Duestøylen" />
		<tag k="place" v="farm" />
		<tag k="ssr:stedsnr" v="192053" />
	</node>
	<node id="4761362067" lat="62.1629535" lon="5.4401619" version="2" timestamp="2022-08-18T05:33:06Z" changeset="125043361" uid="3497659" user="NKA">
		<tag k="name" v="Hola" />
		<tag k="place" v="farm" />
		<tag k="ssr:stedsnr" v="921489" />
	</node>
	<node id="4761362068" lat="62.1671687" lon="5.4398156" version="2" timestamp="2022-08-18T05:33:06Z" changeset="125043361" uid="3497659" user="NKA">
		<tag k="name" v="Bergsnev" />
		<tag k="place" v="hamlet" />
		<tag k="ssr:stedsnr" v="374506" />
	</node>
	<node id="9960771242" lat="62.0135707" lon="5.6349767" version="1" timestamp="2022-08-18T05:33:06Z" changeset="125043361" uid="3497659" user="NKA">
		<tag k="name" v="Ekreimsætra" />
		<tag k="place" v="farm" />
		<tag k="ssr:stedsnr" v="678239" />
	</node>
	<node id="9960771243" lat="62.1663649" lon="5.5590348" version="1" timestamp="2022-08-18T05:33:06Z" changeset="125043361" uid="3497659" user="NKA">
		<tag k="name" v="Brandal" />
		<tag k="place" v="farm" />
		<tag k="ssr:stedsnr" v="193481" />
	</node>
	<node id="9960771244" lat="62.1039274" lon="5.7372641" version="1" timestamp="2022-08-18T05:33:06Z" changeset="125043361" uid="3497659" user="NKA">
		<tag k="alt_name" v="Vidlog" />
		<tag k="name" v="Vidlogane" />
		<tag k="place" v="hamlet" />
		<tag k="ssr:stedsnr" v="253861" />
	</node>
	<node id="9960771245" lat="62.012836" lon="5.5800221" version="1" timestamp="2022-08-18T05:33:06Z" changeset="125043361" uid="3497659" user="NKA">
		<tag k="name" v="Sætrenes" />
		<tag k="place" v="farm" />
		<tag k="ssr:stedsnr" v="617245" />
	</node>
	<node id="9960771246" lat="62.0046498" lon="5.5627736" version="1" timestamp="2022-08-18T05:33:06Z" changeset="125043361" uid="3497659" user="NKA">
		<tag k="name" v="Kroken" />
		<tag k="place" v="farm" />
		<tag k="ssr:stedsnr" v="11190" />
	</node>
	<node id="9960771247" lat="62.1070361" lon="5.7541309" version="1" timestamp="2022-08-18T05:33:06Z" changeset="125043361" uid="3497659" user="NKA">
		<tag k="historic" v="shieling" />
		<tag k="name" v="Brenslene" />
		<tag k="place" v="isolated_dwelling" />
		<tag k="ssr:stedsnr" v="253865" />
	</node>
	<node id="9960771248" lat="62.1566324" lon="5.4403548" version="1" timestamp="2022-08-18T05:33:06Z" changeset="125043361" uid="3497659" user="NKA">
		<tag k="name" v="Sandvika" />
		<tag k="place" v="hamlet" />
		<tag k="ssr:stedsnr" v="193473" />
	</node>
	<node id="9960771249" lat="62.1916865" lon="5.5053501" version="1" timestamp="2022-08-18T05:33:06Z" changeset="125043361" uid="3497659" user="NKA">
		<tag k="name" v="Åram" />
		<tag k="place" v="hamlet" />
		<tag k="ssr:stedsnr" v="860604" />
	</node>
	<node id="9960771250" lat="62.1560084" lon="5.7809031" version="1" timestamp="2022-08-18T05:33:06Z" changeset="125043361" uid="3497659" user="NKA">
		<tag k="historic" v="shieling" />
		<tag k="name" v="Knarrdalsselet" />
		<tag k="place" v="isolated_dwelling" />
		<tag k="ssr:stedsnr" v="254043" />
	</node>
	<node id="9960771251" lat="62.0686528" lon="5.8291142" version="1" timestamp="2022-08-18T05:33:06Z" changeset="125043361" uid="3497659" user="NKA">
		<tag k="alt_name" v="Høgevoll" />
		<tag k="name" v="Høgvoll" />
		<tag k="place" v="farm" />
		<tag k="ssr:stedsnr" v="132913" />
	</node>
	<node id="9960771252" lat="62.0914305" lon="5.7517947" version="1" timestamp="2022-08-18T05:33:06Z" changeset="125043361" uid="3497659" user="NKA">
		<tag k="name" v="Haugane" />
		<tag k="place" v="farm" />
		<tag k="ssr:stedsnr" v="860837" />
	</node>
	<node id="9960771253" lat="62.021825" lon="5.5364059" version="1" timestamp="2022-08-18T05:33:06Z" changeset="125043361" uid="3497659" user="NKA">
		<tag k="name" v="Holmen" />
		<tag k="place" v="farm" />
		<tag k="ssr:stedsnr" v="921299" />
	</node>
	<node id="9960771254" lat="62.1001836" lon="5.7446886" version="1" timestamp="2022-08-18T05:33:06Z" changeset="125043361" uid="3497659" user="NKA">
		<tag k="name" v="Indre Eikrem" />
		<tag k="place" v="farm" />
		<tag k="ssr:stedsnr" v="1078718" />
	</node>
	<node id="9960771255" lat="62.0563442" lon="5.7485158" version="1" timestamp="2022-08-18T05:33:06Z" changeset="125043361" uid="3497659" user="NKA">
		<tag k="historic" v="shieling" />
		<tag k="name" v="Røfsdalssætra" />
		<tag k="place" v="hamlet" />
		<tag k="ssr:stedsnr" v="132922" />
	</node>
	<node id="9960771256" lat="62.0872826" lon="5.7379964" version="1" timestamp="2022-08-18T05:33:06Z" changeset="125043361" uid="3497659" user="NKA">
		<tag k="name" v="Røysa" />
		<tag k="place" v="farm" />
		<tag k="ssr:stedsnr" v="1072043" />
	</node>
	<node id="9960771257" lat="62.0986395" lon="5.7477693" version="1" timestamp="2022-08-18T05:33:06Z" changeset="125043361" uid="3497659" user="NKA">
		<tag k="name" v="Haggarden" />
		<tag k="place" v="farm" />
		<tag k="ssr:stedsnr" v="799889" />
	</node>
	<node id="9960771258" lat="62.0882129" lon="5.7937039" version="1" timestamp="2022-08-18T05:33:06Z" changeset="125043361" uid="3497659" user="NKA">
		<tag k="name" v="Landsverk" />
		<tag k="place" v="hamlet" />
		<tag k="ssr:stedsnr" v="799839" />
	</node>
	<node id="9960771259" lat="62.1579794" lon="5.4491209" version="1" timestamp="2022-08-18T05:33:06Z" changeset="125043361" uid="3497659" user="NKA">
		<tag k="name" v="Kvia" />
		<tag k="place" v="farm" />
		<tag k="ssr:stedsnr" v="766982" />
	</node>
	<node id="9960771260" lat="62.0610709" lon="5.8421689" version="1" timestamp="2022-08-18T05:33:06Z" changeset="125043361" uid="3497659" user="NKA">
		<tag k="historic" v="shieling" />
		<tag k="name" v="Sætra" />
		<tag k="place" v="isolated_dwelling" />
		<tag k="ssr:stedsnr" v="860950" />
	</node>
	<node id="9960771261" lat="62.0727972" lon="5.8158476" version="1" timestamp="2022-08-18T05:33:06Z" changeset="125043361" uid="3497659" user="NKA">
		<tag k="name" v="Gullikgarden" />
		<tag k="place" v="farm" />
		<tag k="ssr:stedsnr" v="739904" />
	</node>
	<node id="9960771262" lat="62.0983416" lon="5.7742781" version="1" timestamp="2022-08-18T05:33:06Z" changeset="125043361" uid="3497659" user="NKA">
		<tag k="historic" v="shieling" />
		<tag k="name" v="Sætra" />
		<tag k="place" v="isolated_dwelling" />
		<tag k="ssr:stedsnr" v="876153" />
	</node>
	<node id="9960771263" lat="62.0715056" lon="5.8191252" version="1" timestamp="2022-08-18T05:33:06Z" changeset="125043361" uid="3497659" user="NKA">
		<tag k="name" v="Bakken" />
		<tag k="place" v="farm" />
		<tag k="ssr:stedsnr" v="71941" />
	</node>
	<node id="9960771264" lat="62.180141" lon="5.5304151" version="1" timestamp="2022-08-18T05:33:06Z" changeset="125043361" uid="3497659" user="NKA">
		<tag k="name" v="Myrane" />
		<tag k="place" v="farm" />
		<tag k="ssr:stedsnr" v="341979" />
	</node>
	<node id="9960771265" lat="62.0978722" lon="5.7948448" version="1" timestamp="2022-08-18T05:33:06Z" changeset="125043361" uid="3497659" user="NKA">
		<tag k="name" v="Landstrykestøylen" />
		<tag k="place" v="locality" />
		<tag k="ssr:stedsnr" v="572166" />
	</node>
	<node id="9960771266" lat="62.0727298" lon="5.8187581" version="1" timestamp="2022-08-18T05:33:06Z" changeset="125043361" uid="3497659" user="NKA">
		<tag k="name" v="Norddalen" />
		<tag k="place" v="hamlet" />
		<tag k="ssr:stedsnr" v="678903" />
	</node>
	<node id="9960771267" lat="62.1933625" lon="5.482852" version="1" timestamp="2022-08-18T05:33:06Z" changeset="125043361" uid="3497659" user="NKA">
		<tag k="name" v="Sætrevik" />
		<tag k="place" v="hamlet" />
		<tag k="ssr:stedsnr" v="314576" />
	</node>
	<node id="9960771268" lat="62.0974583" lon="5.7948308" version="1" timestamp="2022-08-18T05:33:06Z" changeset="125043361" uid="3497659" user="NKA">
		<tag k="name" v="Brudavollstøylen" />
		<tag k="place" v="locality" />
		<tag k="ssr:stedsnr" v="633162" />
	</node>
	<node id="9960771269" lat="61.9821777" lon="5.5417172" version="1" timestamp="2022-08-18T05:33:06Z" changeset="125043361" uid="3497659" user="NKA">
		<tag k="name" v="Solveigsætra" />
		<tag k="place" v="isolated_dwelling" />
		<tag k="ssr:stedsnr" v="131058" />
	</node>
	<node id="9960771270" lat="62.0706526" lon="5.8299178" version="1" timestamp="2022-08-18T05:33:06Z" changeset="125043361" uid="3497659" user="NKA">
		<tag k="name" v="Gardsgarden" />
		<tag k="place" v="farm" />
		<tag k="ssr:stedsnr" v="556918" />
	</node>
	<node id="9960771271" lat="62.1672825" lon="5.5602821" version="1" timestamp="2022-08-18T05:33:06Z" changeset="125043361" uid="3497659" user="NKA">
		<tag k="name" v="Solvoll" />
		<tag k="place" v="farm" />
		<tag k="ssr:stedsnr" v="281985" />
	</node>
	<node id="9960771272" lat="62.1826917" lon="5.5220724" version="1" timestamp="2022-08-18T05:33:06Z" changeset="125043361" uid="3497659" user="NKA">
		<tag k="name" v="Arset" />
		<tag k="place" v="hamlet" />
		<tag k="ssr:stedsnr" v="71549" />
	</node>
	<node id="9960771273" lat="62.0892616" lon="5.792635" version="1" timestamp="2022-08-18T05:33:06Z" changeset="125043361" uid="3497659" user="NKA">
		<tag k="name" v="Bakken" />
		<tag k="place" v="farm" />
		<tag k="ssr:stedsnr" v="454473" />
	</node>
	<node id="9960771274" lat="62.1019849" lon="5.7414671" version="1" timestamp="2022-08-18T05:33:06Z" changeset="125043361" uid="3497659" user="NKA">
		<tag k="name" v="Eikrem" />
		<tag k="place" v="hamlet" />
		<tag k="ssr:stedsnr" v="556866" />
	</node>
	<node id="9960771275" lat="62.082435" lon="5.740251" version="1" timestamp="2022-08-18T05:33:06Z" changeset="125043361" uid="3497659" user="NKA">
		<tag k="name" v="Gylet" />
		<tag k="place" v="farm" />
		<tag k="ssr:stedsnr" v="1072037" />
	</node>
	<node id="9960771276" lat="62.0839041" lon="5.5929894" version="1" timestamp="2022-08-18T05:33:06Z" changeset="125043361" uid="3497659" user="NKA">
		<tag k="alt_name" v="Tunheim, in" />
		<tag k="name" v="Indre Tunheim" />
		<tag k="place" v="farm" />
		<tag k="ssr:stedsnr" v="11416" />
	</node>
	<node id="9960771277" lat="62.1695035" lon="5.727352" version="1" timestamp="2022-08-18T05:33:06Z" changeset="125043361" uid="3497659" user="NKA">
		<tag k="alt_name" v="Ljøsåna" />
		<tag k="name" v="Ljoså" />
		<tag k="place" v="hamlet" />
		<tag k="ssr:stedsnr" v="193007" />
	</node>
	<node id="9960771278" lat="62.0757272" lon="5.7361493" version="1" timestamp="2022-08-18T05:33:06Z" changeset="125043361" uid="3497659" user="NKA">
		<tag k="name" v="Brekke" />
		<tag k="place" v="farm" />
		<tag k="ssr:stedsnr" v="192859" />
	</node>
	<node id="9960771279" lat="62.1724172" lon="5.736798" version="1" timestamp="2022-08-18T05:33:06Z" changeset="125043361" uid="3497659" user="NKA">
		<tag k="alt_name" v="Store Rovde" />
		<tag k="name" v="Rovdane" />
		<tag k="place" v="farm" />
		<tag k="ssr:stedsnr" v="861008" />
	</node>
	<node id="9960771280" lat="62.088275" lon="5.7882393" version="1" timestamp="2022-08-18T05:33:06Z" changeset="125043361" uid="3497659" user="NKA">
		<tag k="name" v="Plassen" />
		<tag k="place" v="farm" />
		<tag k="ssr:stedsnr" v="314817" />
	</node>
	<node id="9960771281" lat="62.1651111" lon="5.4598561" version="1" timestamp="2022-08-18T05:33:06Z" changeset="125043361" uid="3497659" user="NKA">
		<tag k="name" v="Olastøylen" />
		<tag k="place" v="locality" />
		<tag k="ssr:stedsnr" v="37902" />
	</node>
	<node id="9960771282" lat="62.1137889" lon="5.7393087" version="1" timestamp="2022-08-18T05:33:06Z" changeset="125043361" uid="3497659" user="NKA">
		<tag k="name" v="Opsalstøylane" />
		<tag k="place" v="locality" />
		<tag k="ssr:stedsnr" v="633882" />
	</node>
	<node id="9960771283" lat="62.0897851" lon="5.7891097" version="1" timestamp="2022-08-18T05:33:06Z" changeset="125043361" uid="3497659" user="NKA">
		<tag k="name" v="Tungastøylen" />
		<tag k="place" v="farm" />
		<tag k="ssr:stedsnr" v="272452" />
	</node>
	<node id="9960771284" lat="62.1645801" lon="5.5532389" version="1" timestamp="2022-08-18T05:33:06Z" changeset="125043361" uid="3497659" user="NKA">
		<tag k="name" v="Plassen" />
		<tag k="place" v="farm" />
		<tag k="ssr:stedsnr" v="888944" />
	</node>
	<node id="9960771285" lat="62.139271" lon="5.4219071" version="1" timestamp="2022-08-18T05:33:06Z" changeset="125043361" uid="3497659" user="NKA">
		<tag k="name" v="Krokevika" />
		<tag k="place" v="hamlet" />
		<tag k="ssr:stedsnr" v="193463" />
	</node>
	<node id="9960771286" lat="62.0507139" lon="5.7337726" version="1" timestamp="2022-08-18T05:33:06Z" changeset="125043361" uid="3497659" user="NKA">
		<tag k="name" v="Nyestøylen" />
		<tag k="place" v="locality" />
		<tag k="ssr:stedsnr" v="454194" />
	</node>
	<node id="9960771287" lat="62.1550069" lon="5.4415538" version="1" timestamp="2022-08-18T05:33:06Z" changeset="125043361" uid="3497659" user="NKA">
		<tag k="name" v="Lote" />
		<tag k="place" v="farm" />
		<tag k="ssr:stedsnr" v="463985" />
	</node>
	<node id="9960771288" lat="62.0962103" lon="5.7570341" version="1" timestamp="2022-08-18T05:33:06Z" changeset="125043361" uid="3497659" user="NKA">
		<tag k="name" v="Nordvika" />
		<tag k="place" v="neighbourhood" />
		<tag k="ssr:stedsnr" v="768629" />
	</node>
	<node id="9960771289" lat="62.1173762" lon="5.4757496" version="1" timestamp="2022-08-18T05:33:06Z" changeset="125043361" uid="3497659" user="NKA">
		<tag k="historic" v="shieling" />
		<tag k="name" v="Støylen" />
		<tag k="place" v="isolated_dwelling" />
		<tag k="ssr:stedsnr" v="571756" />
	</node>
	<node id="9960771290" lat="62.1500781" lon="5.435531" version="1" timestamp="2022-08-18T05:33:06Z" changeset="125043361" uid="3497659" user="NKA">
		<tag k="name" v="Hammaren" />
		<tag k="place" v="hamlet" />
		<tag k="ssr:stedsnr" v="314499" />
	</node>
	<node id="9960771291" lat="62.0986351" lon="5.74776" version="1" timestamp="2022-08-18T05:33:06Z" changeset="125043361" uid="3497659" user="NKA">
		<tag k="name" v="Nykreim" />
		<tag k="place" v="farm" />
		<tag k="ssr:stedsnr" v="405046" />
	</node>
	<node id="9960771292" lat="62.1525487" lon="5.4317696" version="1" timestamp="2022-08-18T05:33:06Z" changeset="125043361" uid="3497659" user="NKA">
		<tag k="name" v="Halsen" />
		<tag k="place" v="hamlet" />
		<tag k="ssr:stedsnr" v="374450" />
	</node>
	<node id="9960771293" lat="62.1610017" lon="5.4410928" version="1" timestamp="2022-08-18T05:33:06Z" changeset="125043361" uid="3497659" user="NKA">
		<tag k="alt_name" v="Håberg, s;Store Håberg" />
		<tag k="name" v="Søre Håberg" />
		<tag k="place" v="farm" />
		<tag k="ssr:stedsnr" v="193479" />
	</node>
	<node id="9960771294" lat="62.0920861" lon="5.7736254" version="1" timestamp="2022-08-18T05:33:06Z" changeset="125043361" uid="3497659" user="NKA">
		<tag k="name" v="Espeholen" />
		<tag k="place" v="farm" />
		<tag k="ssr:stedsnr" v="374834" />
	</node>
	<node id="9960771295" lat="62.1860624" lon="5.4597377" version="1" timestamp="2022-08-18T05:33:06Z" changeset="125043361" uid="3497659" user="NKA">
		<tag k="name" v="Nystøylen" />
		<tag k="place" v="hamlet" />
		<tag k="ssr:stedsnr" v="374534" />
	</node>
	<node id="9960771296" lat="62.0598722" lon="5.8375558" version="1" timestamp="2022-08-18T05:33:06Z" changeset="125043361" uid="3497659" user="NKA">
		<tag k="historic" v="shieling" />
		<tag k="name" v="Haugen" />
		<tag k="place" v="isolated_dwelling" />
		<tag k="ssr:stedsnr" v="132905" />
	</node>
	<node id="9960771297" lat="62.0397778" lon="5.8292865" version="1" timestamp="2022-08-18T05:33:06Z" changeset="125043361" uid="3497659" user="NKA">
		<tag k="name" v="Buestøylen" />
		<tag k="place" v="locality" />
		<tag k="ssr:stedsnr" v="273204" />
	</node>
	<node id="9960771298" lat="62.1886075" lon="5.8258899" version="1" timestamp="2022-08-18T05:33:06Z" changeset="125043361" uid="3497659" user="NKA">
		<tag k="name" v="Hola" />
		<tag k="place" v="farm" />
		<tag k="ssr:stedsnr" v="739091" />
	</node>
	<node id="9960771299" lat="62.0378441" lon="5.6881442" version="1" timestamp="2022-08-18T05:33:06Z" changeset="125043361" uid="3497659" user="NKA">
		<tag k="alt_name" v="Berget, øvre;Øvre Berget" />
		<tag k="name" v="Øvreberg" />
		<tag k="place" v="farm" />
		<tag k="ssr:stedsnr" v="374328" />
	</node>
	<node id="9960771300" lat="62.1624778" lon="5.7874782" version="1" timestamp="2022-08-18T05:33:06Z" changeset="125043361" uid="3497659" user="NKA">
		<tag k="name" v="Litlerovd-støylen" />
		<tag k="place" v="locality" />
		<tag k="ssr:stedsnr" v="146912" />
	</node>
	<node id="9960771301" lat="62.1637139" lon="5.802428" version="1" timestamp="2022-08-18T05:33:06Z" changeset="125043361" uid="3497659" user="NKA">
		<tag k="name" v="Vedeldstøylen" />
		<tag k="place" v="locality" />
		<tag k="ssr:stedsnr" v="147909" />
	</node>
	<node id="9960771302" lat="62.113405" lon="5.7158734" version="1" timestamp="2022-08-18T05:33:06Z" changeset="125043361" uid="3497659" user="NKA">
		<tag k="alt_name" v="Sætre, ytre" />
		<tag k="name" v="Ytste Sætre" />
		<tag k="place" v="hamlet" />
		<tag k="ssr:stedsnr" v="132410" />
	</node>
	<node id="9960771303" lat="62.1544395" lon="5.438731" version="1" timestamp="2022-08-18T05:33:06Z" changeset="125043361" uid="3497659" user="NKA">
		<tag k="name" v="Ytstemyrane" />
		<tag k="place" v="farm" />
		<tag k="ssr:stedsnr" v="887937" />
	</node>
	<node id="9960771304" lat="62.1905789" lon="5.4662928" version="1" timestamp="2022-08-18T05:33:06Z" changeset="125043361" uid="3497659" user="NKA">
		<tag k="name" v="Leitet" />
		<tag k="place" v="farm" />
		<tag k="ssr:stedsnr" v="99986" />
	</node>
	<node id="9960771305" lat="62.0209946" lon="5.4959242" version="1" timestamp="2022-08-18T05:33:06Z" changeset="125043361" uid="3497659" user="NKA">
		<tag k="name" v="Ytre Skorge" />
		<tag k="place" v="farm" />
		<tag k="ssr:stedsnr" v="634639" />
	</node>
	<node id="9960771306" lat="62.1636841" lon="5.4409603" version="1" timestamp="2022-08-18T05:33:06Z" changeset="125043361" uid="3497659" user="NKA">
		<tag k="name" v="Håberg" />
		<tag k="place" v="hamlet" />
		<tag k="ssr:stedsnr" v="279023" />
	</node>
	<node id="9960771307" lat="62.0072474" lon="5.5842139" version="1" timestamp="2022-08-18T05:33:06Z" changeset="125043361" uid="3497659" user="NKA">
		<tag k="name" v="Birkelid" />
		<tag k="place" v="isolated_dwelling" />
		<tag k="ssr:stedsnr" v="572689" />
	</node>
	<node id="9960771308" lat="62.1864953" lon="5.8079687" version="1" timestamp="2022-08-18T05:33:06Z" changeset="125043361" uid="3497659" user="NKA">
		<tag k="alt_name" v="Rise" />
		<tag k="name" v="Rese" />
		<tag k="place" v="hamlet" />
		<tag k="ssr:stedsnr" v="583744" />
	</node>
	<node id="9960771309" lat="62.0189628" lon="5.5770448" version="1" timestamp="2022-08-18T05:33:06Z" changeset="125043361" uid="3497659" user="NKA">
		<tag k="name" v="Gusdalen" />
		<tag k="place" v="hamlet" />
		<tag k="ssr:stedsnr" v="436185" />
	</node>
	<node id="9960771310" lat="62.0987611" lon="5.7906058" version="1" timestamp="2022-08-18T05:33:06Z" changeset="125043361" uid="3497659" user="NKA">
		<tag k="name" v="Seltufta" />
		<tag k="place" v="locality" />
		<tag k="ssr:stedsnr" v="815144" />
	</node>
	<node id="9960771311" lat="62.0433083" lon="5.5317512" version="1" timestamp="2022-08-18T05:33:06Z" changeset="125043361" uid="3497659" user="NKA">
		<tag k="alt_name" v="Torvikfeltet" />
		<tag k="name" v="Torvika" />
		<tag k="place" v="neighbourhood" />
		<tag k="ssr:stedsnr" v="300776" />
	</node>
	<node id="9960771312" lat="62.1745939" lon="5.4400051" version="1" timestamp="2022-08-18T05:33:06Z" changeset="125043361" uid="3497659" user="NKA">
		<tag k="name" v="Krakset" />
		<tag k="place" v="hamlet" />
		<tag k="ssr:stedsnr" v="921540" />
	</node>
	<node id="9960771313" lat="62.0814135" lon="5.7383277" version="1" timestamp="2022-08-18T05:33:06Z" changeset="125043361" uid="3497659" user="NKA">
		<tag k="name" v="Villabøen" />
		<tag k="place" v="farm" />
		<tag k="ssr:stedsnr" v="1072045" />
	</node>
	<node id="9960771314" lat="62.0268888" lon="5.5411224" version="1" timestamp="2022-08-18T05:33:06Z" changeset="125043361" uid="3497659" user="NKA">
		<tag k="name" v="Løvollane" />
		<tag k="place" v="hamlet" />
		<tag k="ssr:stedsnr" v="314338" />
	</node>
	<node id="9960771315" lat="61.9964611" lon="5.6974087" version="1" timestamp="2022-08-18T05:33:06Z" changeset="125043361" uid="3497659" user="NKA">
		<tag k="name" v="Nausane" />
		<tag k="place" v="locality" />
		<tag k="ssr:stedsnr" v="71055" />
	</node>
	<node id="9960771316" lat="62.1102445" lon="5.679931" version="1" timestamp="2022-08-18T05:33:06Z" changeset="125043361" uid="3497659" user="NKA">
		<tag k="name" v="Leitebakkane" />
		<tag k="place" v="neighbourhood" />
		<tag k="ssr:stedsnr" v="829627" />
	</node>
	<node id="9960781317" lat="62.0300185" lon="5.5279825" version="1" timestamp="2022-08-18T05:33:06Z" changeset="125043361" uid="3497659" user="NKA">
		<tag k="name" v="Tue" />
		<tag k="place" v="hamlet" />
		<tag k="ssr:stedsnr" v="253361" />
	</node>
	<node id="9960781318" lat="62.0089044" lon="5.5815761" version="1" timestamp="2022-08-18T05:33:06Z" changeset="125043361" uid="3497659" user="NKA">
		<tag k="name" v="Nygard" />
		<tag k="place" v="farm" />
		<tag k="ssr:stedsnr" v="132199" />
	</node>
	<node id="9960781319" lat="62.0427961" lon="5.5282611" version="1" timestamp="2022-08-18T05:33:06Z" changeset="125043361" uid="3497659" user="NKA">
		<tag k="alt_name" v="Torvik, store;Prestegarden" />
		<tag k="name" v="Store Torvik" />
		<tag k="place" v="farm" />
		<tag k="ssr:stedsnr" v="253324" />
	</node>
	<node id="9960781320" lat="62.0704187" lon="5.5249823" version="1" timestamp="2022-08-18T05:33:06Z" changeset="125043361" uid="3497659" user="NKA">
		<tag k="name" v="Løvik" />
		<tag k="place" v="farm" />
		<tag k="ssr:stedsnr" v="11299" />
	</node>
	<node id="9960781321" lat="62.1044922" lon="5.5445334" version="1" timestamp="2022-08-18T05:33:06Z" changeset="125043361" uid="3497659" user="NKA">
		<tag k="name" v="Tørla" />
		<tag k="place" v="farm" />
		<tag k="ssr:stedsnr" v="71453" />
	</node>
	<node id="9960781322" lat="62.0205758" lon="5.5433023" version="1" timestamp="2022-08-18T05:33:06Z" changeset="125043361" uid="3497659" user="NKA">
		<tag k="name" v="Lunden" />
		<tag k="place" v="farm" />
		<tag k="ssr:stedsnr" v="1080190" />
	</node>
	<node id="9960781323" lat="62.0950347" lon="5.5710965" version="1" timestamp="2022-08-18T05:33:06Z" changeset="125043361" uid="3497659" user="NKA">
		<tag k="name" v="Myrane" />
		<tag k="place" v="neighbourhood" />
		<tag k="ssr:stedsnr" v="950603" />
	</node>
	<node id="9960781324" lat="62.0226784" lon="5.541905" version="1" timestamp="2022-08-18T05:33:06Z" changeset="125043361" uid="3497659" user="NKA">
		<tag k="alt_name" v="Fagerhol" />
		<tag k="name" v="Lynget" />
		<tag k="place" v="farm" />
		<tag k="ssr:stedsnr" v="1082166" />
	</node>
	<node id="9960781325" lat="62.0630056" lon="5.5651921" version="1" timestamp="2022-08-18T05:33:06Z" changeset="125043361" uid="3497659" user="NKA">
		<tag k="name" v="Vikestøylen" />
		<tag k="place" v="locality" />
		<tag k="ssr:stedsnr" v="877060" />
	</node>
	<node id="9960781326" lat="62.0670751" lon="5.6631425" version="1" timestamp="2022-08-18T05:33:06Z" changeset="125043361" uid="3497659" user="NKA">
		<tag k="name" v="Skjervheimsstøylen" />
		<tag k="place" v="isolated_dwelling" />
		<tag k="ssr:stedsnr" v="694956" />
	</node>
	<node id="9960781327" lat="61.9828611" lon="5.5091171" version="1" timestamp="2022-08-18T05:33:06Z" changeset="125043361" uid="3497659" user="NKA">
		<tag k="historic" v="shieling" />
		<tag k="name" v="Bekslesætra" />
		<tag k="place" v="isolated_dwelling" />
		<tag k="ssr:stedsnr" v="748516" />
	</node>
	<node id="9960781328" lat="62.0198196" lon="5.5394868" version="1" timestamp="2022-08-18T05:33:06Z" changeset="125043361" uid="3497659" user="NKA">
		<tag k="name" v="Birkedal" />
		<tag k="old_name" v="Bjørketun" />
		<tag k="place" v="farm" />
		<tag k="ssr:stedsnr" v="1081533" />
	</node>
	<node id="9960781329" lat="62.1034367" lon="5.4376901" version="1" timestamp="2022-08-18T05:33:06Z" changeset="125043361" uid="3497659" user="NKA">
		<tag k="name" v="Solnes" />
		<tag k="place" v="farm" />
		<tag k="ssr:stedsnr" v="1072038" />
	</node>
	<node id="9960781330" lat="62.0743314" lon="5.5453022" version="1" timestamp="2022-08-18T05:33:06Z" changeset="125043361" uid="3497659" user="NKA">
		<tag k="name" v="Vik" />
		<tag k="place" v="hamlet" />
		<tag k="ssr:stedsnr" v="449568" />
	</node>
	<node id="9960781331" lat="62.0188523" lon="5.4944445" version="1" timestamp="2022-08-18T05:33:06Z" changeset="125043361" uid="3497659" user="NKA">
		<tag k="name" v="Skorge" />
		<tag k="place" v="hamlet" />
		<tag k="ssr:stedsnr" v="678310" />
	</node>
	<node id="9960781332" lat="62.1459113" lon="5.4246251" version="1" timestamp="2022-08-18T05:33:06Z" changeset="125043361" uid="3497659" user="NKA">
		<tag k="name" v="Rønnestad" />
		<tag k="place" v="hamlet" />
		<tag k="ssr:stedsnr" v="617465" />
	</node>
	<node id="9960781333" lat="62.0319615" lon="5.5334556" version="1" timestamp="2022-08-18T05:33:06Z" changeset="125043361" uid="3497659" user="NKA">
		<tag k="name" v="Årøy" />
		<tag k="place" v="farm" />
		<tag k="ssr:stedsnr" v="193307" />
	</node>
	<node id="9960781334" lat="62.1662472" lon="5.544756" version="1" timestamp="2022-08-18T05:33:06Z" changeset="125043361" uid="3497659" user="NKA">
		<tag k="name" v="Øvrelid" />
		<tag k="place" v="farm" />
		<tag k="ssr:stedsnr" v="402977" />
	</node>
	<node id="9960781335" lat="62.1104695" lon="5.4957921" version="1" timestamp="2022-08-18T05:33:06Z" changeset="125043361" uid="3497659" user="NKA">
		<tag k="name" v="Myklebustsetra" />
		<tag k="place" v="locality" />
		<tag k="ssr:stedsnr" v="876735" />
	</node>
	<node id="9960781336" lat="62.1009174" lon="5.4614283" version="1" timestamp="2022-08-18T05:33:06Z" changeset="125043361" uid="3497659" user="NKA">
		<tag k="name" v="Hundsnes" />
		<tag k="place" v="hamlet" />
		<tag k="ssr:stedsnr" v="193446" />
	</node>
	<node id="9960781337" lat="62.1061205" lon="5.5741243" version="1" timestamp="2022-08-18T05:33:06Z" changeset="125043361" uid="3497659" user="NKA">
		<tag k="name" v="Årøyane" />
		<tag k="place" v="hamlet" />
		<tag k="ssr:stedsnr" v="374438" />
	</node>
	<node id="9960781338" lat="61.9820172" lon="5.6186443" version="1" timestamp="2022-08-18T05:33:06Z" changeset="125043361" uid="3497659" user="NKA">
		<tag k="historic" v="shieling" />
		<tag k="name" v="Klovestøylen" />
		<tag k="place" v="isolated_dwelling" />
		<tag k="ssr:stedsnr" v="677031" />
	</node>
	<node id="9960781339" lat="62.103955" lon="5.5537835" version="1" timestamp="2022-08-18T05:33:06Z" changeset="125043361" uid="3497659" user="NKA">
		<tag k="name" v="Rabben" />
		<tag k="place" v="farm" />
		<tag k="ssr:stedsnr" v="633685" />
	</node>
	<node id="9960781340" lat="62.1674551" lon="5.5514538" version="1" timestamp="2022-08-18T05:33:06Z" changeset="125043361" uid="3497659" user="NKA">
		<tag k="name" v="Nedrelid" />
		<tag k="place" v="farm" />
		<tag k="ssr:stedsnr" v="341954" />
	</node>
	<node id="9960781341" lat="62.0782988" lon="5.6143892" version="1" timestamp="2022-08-18T05:33:06Z" changeset="125043361" uid="3497659" user="NKA">
		<tag k="name" v="Stranda" />
		<tag k="place" v="hamlet" />
		<tag k="ssr:stedsnr" v="314352" />
	</node>
	<node id="9960781342" lat="62.1050198" lon="5.5791961" version="1" timestamp="2022-08-18T05:33:06Z" changeset="125043361" uid="3497659" user="NKA">
		<tag k="name" v="Myrset" />
		<tag k="place" v="farm" />
		<tag k="ssr:stedsnr" v="210261" />
	</node>
	<node id="9960781343" lat="62.1042374" lon="5.4490969" version="1" timestamp="2022-08-18T05:33:06Z" changeset="125043361" uid="3497659" user="NKA">
		<tag k="name" v="Sighaug" />
		<tag k="place" v="hamlet" />
		<tag k="ssr:stedsnr" v="556464" />
	</node>
	<node id="9960781344" lat="62.0213805" lon="5.5337976" version="1" timestamp="2022-08-18T05:33:06Z" changeset="125043361" uid="3497659" user="NKA">
		<tag k="name" v="Tuefjøsane" />
		<tag k="place" v="locality" />
		<tag k="ssr:stedsnr" v="877596" />
	</node>
	<node id="9960781345" lat="62.1521583" lon="5.4707783" version="1" timestamp="2022-08-18T05:33:06Z" changeset="125043361" uid="3497659" user="NKA">
		<tag k="name" v="Jostøylan" />
		<tag k="place" v="locality" />
		<tag k="ssr:stedsnr" v="522930" />
	</node>
	<node id="9960781346" lat="62.012487" lon="5.6068401" version="1" timestamp="2022-08-18T05:33:06Z" changeset="125043361" uid="3497659" user="NKA">
		<tag k="name" v="Rusta" />
		<tag k="place" v="farm" />
		<tag k="ssr:stedsnr" v="739211" />
	</node>
	<node id="9960781347" lat="62.0378968" lon="5.6867939" version="1" timestamp="2022-08-18T05:33:06Z" changeset="125043361" uid="3497659" user="NKA">
		<tag k="name" v="Berget" />
		<tag k="place" v="hamlet" />
		<tag k="ssr:stedsnr" v="969438" />
	</node>
	<node id="9960781348" lat="62.0003132" lon="5.5805251" version="1" timestamp="2022-08-18T05:33:06Z" changeset="125043361" uid="3497659" user="NKA">
		<tag k="alt_name" v="Grubse" />
		<tag k="name" v="Grofsa" />
		<tag k="place" v="farm" />
		<tag k="ssr:stedsnr" v="861191" />
	</node>
	<node id="9960781349" lat="62.1529416" lon="5.6561949" version="1" timestamp="2022-08-18T05:33:06Z" changeset="125043361" uid="3497659" user="NKA">
		<tag k="name" v="Krokå" />
		<tag k="place" v="farm" />
		<tag k="ssr:stedsnr" v="132483" />
	</node>
	<node id="9960781350" lat="62.0289994" lon="5.5322238" version="1" timestamp="2022-08-18T05:33:06Z" changeset="125043361" uid="3497659" user="NKA">
		<tag k="name" v="Kriken" />
		<tag k="place" v="farm" />
		<tag k="ssr:stedsnr" v="331409" />
	</node>
	<node id="9960781351" lat="62.0560694" lon="5.595631" version="1" timestamp="2022-08-18T05:33:06Z" changeset="125043361" uid="3497659" user="NKA">
		<tag k="name" v="Nygard" />
		<tag k="place" v="farm" />
		<tag k="ssr:stedsnr" v="11337" />
	</node>
	<node id="9960781352" lat="62.0217256" lon="5.49555" version="1" timestamp="2022-08-18T05:33:06Z" changeset="125043361" uid="3497659" user="NKA">
		<tag k="name" v="Høybakk" />
		<tag k="place" v="farm" />
		<tag k="ssr:stedsnr" v="421979" />
	</node>
	<node id="9960781353" lat="62.0961055" lon="5.5683476" version="1" timestamp="2022-08-18T05:33:06Z" changeset="125043361" uid="3497659" user="NKA">
		<tag k="name" v="Øyra" />
		<tag k="place" v="farm" />
		<tag k="ssr:stedsnr" v="193439" />
	</node>
	<node id="9960781354" lat="61.9758055" lon="5.5512254" version="1" timestamp="2022-08-18T05:33:06Z" changeset="125043361" uid="3497659" user="NKA">
		<tag k="name" v="Sundalsætra" />
		<tag k="place" v="locality" />
		<tag k="ssr:stedsnr" v="147365" />
	</node>
	<node id="9960781355" lat="62.0873481" lon="5.5752476" version="1" timestamp="2022-08-18T05:33:06Z" changeset="125043361" uid="3497659" user="NKA">
		<tag k="alt_name" v="Tunheim, yt" />
		<tag k="name" v="Ytre Tunheim" />
		<tag k="place" v="farm" />
		<tag k="ssr:stedsnr" v="132308" />
	</node>
	<node id="9960781356" lat="62.1034389" lon="5.5594397" version="1" timestamp="2022-08-18T05:33:06Z" changeset="125043361" uid="3497659" user="NKA">
		<tag k="name" v="Fredsvoll" />
		<tag k="place" v="farm" />
		<tag k="ssr:stedsnr" v="876675" />
	</node>
	<node id="9960781357" lat="62.1583083" lon="5.5123865" version="1" timestamp="2022-08-18T05:33:06Z" changeset="125043361" uid="3497659" user="NKA">
		<tag k="name" v="Dalebøen" />
		<tag k="place" v="locality" />
		<tag k="ssr:stedsnr" v="948010" />
	</node>
	<node id="9960781358" lat="62.0910022" lon="5.5730044" version="1" timestamp="2022-08-18T05:33:06Z" changeset="125043361" uid="3497659" user="NKA">
		<tag k="name" v="Låtra" />
		<tag k="place" v="farm" />
		<tag k="ssr:stedsnr" v="755003" />
	</node>
	<node id="9960781359" lat="62.0898084" lon="5.7462754" version="1" timestamp="2022-08-18T05:33:06Z" changeset="125043361" uid="3497659" user="NKA">
		<tag k="name" v="Teigane" />
		<tag k="place" v="farm" />
		<tag k="ssr:stedsnr" v="738835" />
	</node>
	<node id="9960781360" lat="62.0959166" lon="5.6013033" version="1" timestamp="2022-08-18T05:33:06Z" changeset="125043361" uid="3497659" user="NKA">
		<tag k="name" v="Småsætrane" />
		<tag k="place" v="locality" />
		<tag k="ssr:stedsnr" v="816269" />
	</node>
	<node id="9960781361" lat="62.1702333" lon="5.7338449" version="1" timestamp="2022-08-18T05:33:06Z" changeset="125043361" uid="3497659" user="NKA">
		<tag k="name" v="Nybø" />
		<tag k="place" v="farm" />
		<tag k="ssr:stedsnr" v="800014" />
	</node>
	<node id="9960781362" lat="62.0782806" lon="5.8070949" version="1" timestamp="2022-08-18T05:33:06Z" changeset="125043361" uid="3497659" user="NKA">
		<tag k="name" v="Erikegarden" />
		<tag k="place" v="farm" />
		<tag k="ssr:stedsnr" v="374858" />
	</node>
	<node id="9960781363" lat="62.07655" lon="5.5432921" version="1" timestamp="2022-08-18T05:33:06Z" changeset="125043361" uid="3497659" user="NKA">
		<tag k="name" v="Korsneset" />
		<tag k="place" v="neighbourhood" />
		<tag k="ssr:stedsnr" v="525606" />
	</node>
	<node id="9960781364" lat="62.0527639" lon="5.5326255" version="1" timestamp="2022-08-18T05:33:06Z" changeset="125043361" uid="3497659" user="NKA">
		<tag k="name" v="Karisætra" />
		<tag k="place" v="locality" />
		<tag k="ssr:stedsnr" v="557327" />
	</node>
	<node id="9960781365" lat="62.1583253" lon="5.4434079" version="1" timestamp="2022-08-18T05:33:06Z" changeset="125043361" uid="3497659" user="NKA">
		<tag k="name" v="Sandvik" />
		<tag k="place" v="farm" />
		<tag k="ssr:stedsnr" v="401847" />
	</node>
	<node id="9960781366" lat="62.1031018" lon="5.5162854" version="1" timestamp="2022-08-18T05:33:06Z" changeset="125043361" uid="3497659" user="NKA">
		<tag k="name" v="Seljebakken" />
		<tag k="place" v="farm" />
		<tag k="ssr:stedsnr" v="87649" />
	</node>
	<node id="9960781367" lat="62.0458622" lon="5.5311175" version="1" timestamp="2022-08-18T05:33:06Z" changeset="125043361" uid="3497659" user="NKA">
		<tag k="alt_name" v="Torvik, l" />
		<tag k="name" v="Litle Torvik" />
		<tag k="place" v="farm" />
		<tag k="ssr:stedsnr" v="192300" />
	</node>
	<node id="9960781368" lat="62.069407" lon="5.5579157" version="1" timestamp="2022-08-18T05:33:06Z" changeset="125043361" uid="3497659" user="NKA">
		<tag k="alt_name" v="Vik, indre" />
		<tag k="name" v="Indre Vik" />
		<tag k="place" v="farm" />
		<tag k="ssr:stedsnr" v="496389" />
	</node>
	<node id="9960781369" lat="61.97285" lon="5.5573004" version="1" timestamp="2022-08-18T05:33:06Z" changeset="125043361" uid="3497659" user="NKA">
		<tag k="historic" v="shieling" />
		<tag k="name" v="Grofsesætra" />
		<tag k="place" v="isolated_dwelling" />
		<tag k="ssr:stedsnr" v="10039" />
	</node>
	<node id="9960781370" lat="62.0114477" lon="5.5876387" version="1" timestamp="2022-08-18T05:33:06Z" changeset="125043361" uid="3497659" user="NKA">
		<tag k="name" v="Åhaug" />
		<tag k="place" v="farm" />
		<tag k="ssr:stedsnr" v="496232" />
	</node>
	<node id="9960781371" lat="62.0717278" lon="5.6232838" version="1" timestamp="2022-08-18T05:33:06Z" changeset="125043361" uid="3497659" user="NKA">
		<tag k="name" v="Lisjebøen" />
		<tag k="place" v="farm" />
		<tag k="ssr:stedsnr" v="817442" />
	</node>
	<node id="9960781372" lat="62.1110774" lon="5.6815502" version="1" timestamp="2022-08-18T05:33:06Z" changeset="125043361" uid="3497659" user="NKA">
		<tag k="name" v="Leitet" />
		<tag k="place" v="farm" />
		<tag k="ssr:stedsnr" v="391047" />
	</node>
	<node id="9960781373" lat="62.0159777" lon="5.5571583" version="1" timestamp="2022-08-18T05:33:06Z" changeset="125043361" uid="3497659" user="NKA">
		<tag k="name" v="Vika" />
		<tag k="place" v="farm" />
		<tag k="ssr:stedsnr" v="11201" />
	</node>
	<node id="9960781374" lat="62.0502158" lon="5.6194735" version="1" timestamp="2022-08-18T05:33:06Z" changeset="125043361" uid="3497659" user="NKA">
		<tag k="name" v="Gjelet" />
		<tag k="place" v="isolated_dwelling" />
		<tag k="ssr:stedsnr" v="176221" />
	</node>
	<node id="9960781375" lat="62.0495318" lon="5.7031068" version="1" timestamp="2022-08-18T05:33:06Z" changeset="125043361" uid="3497659" user="NKA">
		<tag k="name" v="Lade" />
		<tag k="place" v="hamlet" />
		<tag k="ssr:stedsnr" v="374298" />
	</node>
	<node id="9960781376" lat="62.1688729" lon="5.7006406" version="1" timestamp="2022-08-18T05:33:06Z" changeset="125043361" uid="3497659" user="NKA">
		<tag k="name" v="Midtbø" />
		<tag k="place" v="farm" />
		<tag k="ssr:stedsnr" v="693519" />
	</node>
	<node id="9960781377" lat="62.0494957" lon="5.6070582" version="1" timestamp="2022-08-18T05:33:06Z" changeset="125043361" uid="3497659" user="NKA">
		<tag k="name" v="Stigabakken" />
		<tag k="place" v="farm" />
		<tag k="ssr:stedsnr" v="176222" />
	</node>
	<node id="9960781378" lat="62.1692277" lon="5.6956753" version="1" timestamp="2022-08-18T05:33:06Z" changeset="125043361" uid="3497659" user="NKA">
		<tag k="alt_name" v="Strandabøen" />
		<tag k="name" v="Strandabø" />
		<tag k="place" v="farm" />
		<tag k="ssr:stedsnr" v="556508" />
	</node>
	<node id="9960781379" lat="62.1045517" lon="5.6975178" version="1" timestamp="2022-08-18T05:33:06Z" changeset="125043361" uid="3497659" user="NKA">
		<tag k="name" v="Flatefjøra" />
		<tag k="place" v="isolated_dwelling" />
		<tag k="ssr:stedsnr" v="951757" />
	</node>
	<node id="9960781380" lat="62.1911421" lon="5.8034371" version="1" timestamp="2022-08-18T05:33:06Z" changeset="125043361" uid="3497659" user="NKA">
		<tag k="name" v="Bøen" />
		<tag k="place" v="farm" />
		<tag k="ssr:stedsnr" v="193099" />
	</node>
	<node id="9960781381" lat="62.1040333" lon="5.5411449" version="1" timestamp="2022-08-18T05:33:06Z" changeset="125043361" uid="3497659" user="NKA">
		<tag k="name" v="Hogga" />
		<tag k="place" v="farm" />
		<tag k="ssr:stedsnr" v="390623" />
	</node>
	<node id="9960781382" lat="62.1764596" lon="5.7552538" version="1" timestamp="2022-08-18T05:33:06Z" changeset="125043361" uid="3497659" user="NKA">
		<tag k="name" v="Åsemyra" />
		<tag k="place" v="farm" />
		<tag k="ssr:stedsnr" v="329910" />
	</node>
	<node id="9960781383" lat="62.1750252" lon="5.5416925" version="1" timestamp="2022-08-18T05:33:06Z" changeset="125043361" uid="3497659" user="NKA">
		<tag k="alt_name" v="Krabbestien" />
		<tag k="name" v="Krabbestigen" />
		<tag k="place" v="farm" />
		<tag k="ssr:stedsnr" v="982809" />
	</node>
	<node id="9960781384" lat="62.105545" lon="5.6301448" version="1" timestamp="2022-08-18T05:33:06Z" changeset="125043361" uid="3497659" user="NKA">
		<tag k="name" v="Eide" />
		<tag k="place" v="hamlet" />
		<tag k="ssr:stedsnr" v="936583" />
	</node>
	<node id="9960781385" lat="62.1881011" lon="5.8019157" version="1" timestamp="2022-08-18T05:33:06Z" changeset="125043361" uid="3497659" user="NKA">
		<tag k="name" v="Sundnes" />
		<tag k="place" v="farm" />
		<tag k="ssr:stedsnr" v="766784" />
	</node>
	<node id="9960781386" lat="62.0925009" lon="5.7150239" version="1" timestamp="2022-08-18T05:33:06Z" changeset="125043361" uid="3497659" user="NKA">
		<tag k="name" v="Strand" />
		<tag k="place" v="hamlet" />
		<tag k="ssr:stedsnr" v="678438" />
	</node>
	<node id="9960781387" lat="62.188934" lon="5.8247689" version="1" timestamp="2022-08-18T05:33:06Z" changeset="125043361" uid="3497659" user="NKA">
		<tag k="name" v="Legene" />
		<tag k="place" v="farm" />
		<tag k="ssr:stedsnr" v="678113" />
	</node>
	<node id="9960781388" lat="62.1555445" lon="5.5523116" version="1" timestamp="2022-08-18T05:33:06Z" changeset="125043361" uid="3497659" user="NKA">
		<tag k="name" v="Lødevollane" />
		<tag k="place" v="locality" />
		<tag k="ssr:stedsnr" v="402932" />
	</node>
	<node id="9960781389" lat="62.0067774" lon="5.5665766" version="1" timestamp="2022-08-18T05:33:06Z" changeset="125043361" uid="3497659" user="NKA">
		<tag k="name" v="Skaret" />
		<tag k="place" v="farm" />
		<tag k="ssr:stedsnr" v="921228" />
	</node>
	<node id="9960781390" lat="62.0632973" lon="5.5984031" version="1" timestamp="2022-08-18T05:33:06Z" changeset="125043361" uid="3497659" user="NKA">
		<tag k="alt_name" v="Solvoll" />
		<tag k="name" v="Krakset" />
		<tag k="place" v="farm" />
		<tag k="ssr:stedsnr" v="921388" />
	</node>
	<node id="9960781391" lat="62.0953527" lon="5.6794615" version="1" timestamp="2022-08-18T05:33:06Z" changeset="125043361" uid="3497659" user="NKA">
		<tag k="name" v="Grønæda" />
		<tag k="place" v="isolated_dwelling" />
		<tag k="ssr:stedsnr" v="27184" />
	</node>
	<node id="9960781392" lat="62.166276" lon="5.5477515" version="1" timestamp="2022-08-18T05:33:06Z" changeset="125043361" uid="3497659" user="NKA">
		<tag k="name" v="Lida" />
		<tag k="place" v="hamlet" />
		<tag k="ssr:stedsnr" v="436439" />
	</node>
	<node id="9960781393" lat="62.1669337" lon="5.6271569" version="1" timestamp="2022-08-18T05:33:06Z" changeset="125043361" uid="3497659" user="NKA">
		<tag k="name" v="Bjørlykkja" />
		<tag k="place" v="hamlet" />
		<tag k="ssr:stedsnr" v="374455" />
	</node>
	<node id="9960781394" lat="62.1035333" lon="5.4919713" version="1" timestamp="2022-08-18T05:33:06Z" changeset="125043361" uid="3497659" user="NKA">
		<tag k="name" v="Myklebust" />
		<tag k="place" v="hamlet" />
		<tag k="ssr:stedsnr" v="314490" />
	</node>
	<node id="9960781395" lat="62.1761639" lon="5.4401783" version="1" timestamp="2022-08-18T05:33:06Z" changeset="125043361" uid="3497659" user="NKA">
		<tag k="name" v="Bellen" />
		<tag k="place" v="farm" />
		<tag k="ssr:stedsnr" v="435530" />
	</node>
	<node id="9960781396" lat="62.071688" lon="5.553037" version="1" timestamp="2022-08-18T05:33:06Z" changeset="125043361" uid="3497659" user="NKA">
		<tag k="name" v="Vikebakken" />
		<tag k="place" v="farm" />
		<tag k="ssr:stedsnr" v="783191" />
	</node>
	<node id="9960781397" lat="62.046235" lon="5.698533" version="1" timestamp="2022-08-18T05:33:06Z" changeset="125043361" uid="3497659" user="NKA">
		<tag k="alt_name" v="Berget, nedre;Nedre Berget" />
		<tag k="name" v="Nedreberg" />
		<tag k="place" v="farm" />
		<tag k="ssr:stedsnr" v="921313" />
	</node>
	<node id="9960781398" lat="62.129885" lon="5.6964998" version="1" timestamp="2022-08-18T05:33:06Z" changeset="125043361" uid="3497659" user="NKA">
		<tag k="name" v="Skår" />
		<tag k="place" v="hamlet" />
		<tag k="ssr:stedsnr" v="921435" />
	</node>
	<node id="9960781399" lat="62.1687472" lon="5.4518865" version="1" timestamp="2022-08-18T05:33:06Z" changeset="125043361" uid="3497659" user="NKA">
		<tag k="name" v="Kjerringstøylen" />
		<tag k="place" v="locality" />
		<tag k="ssr:stedsnr" v="462900" />
	</node>
	<node id="9960781400" lat="62.0825389" lon="5.8008198" version="1" timestamp="2022-08-18T05:33:06Z" changeset="125043361" uid="3497659" user="NKA">
		<tag k="name" v="Haggarden" />
		<tag k="place" v="farm" />
		<tag k="ssr:stedsnr" v="799863" />
	</node>
	<node id="9960781401" lat="62.0477578" lon="5.6370965" version="1" timestamp="2022-08-18T05:33:06Z" changeset="125043361" uid="3497659" user="NKA">
		<tag k="name" v="Steinane" />
		<tag k="old_name" v="Nedre Brekke" />
		<tag k="place" v="farm" />
		<tag k="ssr:stedsnr" v="1082096" />
	</node>
	<node id="9960781402" lat="62.1305583" lon="5.6315087" version="1" timestamp="2022-08-18T05:33:06Z" changeset="125043361" uid="3497659" user="NKA">
		<tag k="name" v="Resstøylen" />
		<tag k="place" v="locality" />
		<tag k="ssr:stedsnr" v="695161" />
	</node>
	<node id="9960781403" lat="62.1059072" lon="5.6241148" version="1" timestamp="2022-08-18T05:33:06Z" changeset="125043361" uid="3497659" user="NKA">
		<tag k="name" v="Adamsbruket" />
		<tag k="old_name" v="EIDE STORE" />
		<tag k="place" v="farm" />
		<tag k="ssr:stedsnr" v="1082095" />
	</node>
	<node id="9960781404" lat="62.1283611" lon="5.6285309" version="1" timestamp="2022-08-18T05:33:06Z" changeset="125043361" uid="3497659" user="NKA">
		<tag k="name" v="Kolgrovstøylen" />
		<tag k="place" v="locality" />
		<tag k="ssr:stedsnr" v="877148" />
	</node>
	<node id="9960781405" lat="62.0845972" lon="5.7313892" version="1" timestamp="2022-08-18T05:33:06Z" changeset="125043361" uid="3497659" user="NKA">
		<tag k="name" v="Myrvang" />
		<tag k="place" v="farm" />
		<tag k="ssr:stedsnr" v="71835" />
	</node>
	<node id="9960781406" lat="62.1309285" lon="5.640584" version="1" timestamp="2022-08-18T05:33:06Z" changeset="125043361" uid="3497659" user="NKA">
		<tag k="name" v="Øyrasætra" />
		<tag k="place" v="isolated_dwelling" />
		<tag k="ssr:stedsnr" v="513153" />
	</node>
	<node id="9960781407" lat="62.165749" lon="5.4390153" version="1" timestamp="2022-08-18T05:33:06Z" changeset="125043361" uid="3497659" user="NKA">
		<tag k="alt_name" v="Håberg, nordre;Litle Håberg" />
		<tag k="name" v="Nørdre Håberg" />
		<tag k="place" v="farm" />
		<tag k="ssr:stedsnr" v="71484" />
	</node>
	<node id="9960781408" lat="62.1617944" lon="5.6481281" version="1" timestamp="2022-08-18T05:33:06Z" changeset="125043361" uid="3497659" user="NKA">
		<tag k="name" v="Fagerlid" />
		<tag k="place" v="farm" />
		<tag k="ssr:stedsnr" v="72431" />
	</node>
	<node id="9960781409" lat="62.1657139" lon="5.643756" version="1" timestamp="2022-08-18T05:33:06Z" changeset="125043361" uid="3497659" user="NKA">
		<tag k="name" v="Indretun" />
		<tag k="place" v="farm" />
		<tag k="ssr:stedsnr" v="11478" />
	</node>
	<node id="9960781410" lat="62.1374333" lon="5.6334893" version="1" timestamp="2022-08-18T05:33:06Z" changeset="125043361" uid="3497659" user="NKA">
		<tag k="historic" v="shieling" />
		<tag k="name" v="Lidasætra" />
		<tag k="place" v="isolated_dwelling" />
		<tag k="ssr:stedsnr" v="374472" />
	</node>
	<node id="9960781411" lat="62.1059582" lon="5.6467672" version="1" timestamp="2022-08-18T05:33:06Z" changeset="125043361" uid="3497659" user="NKA">
		<tag k="name" v="Lisjeeide" />
		<tag k="place" v="farm" />
		<tag k="ssr:stedsnr" v="617457" />
	</node>
	<node id="9960781412" lat="62.1093027" lon="5.7264197" version="1" timestamp="2022-08-18T05:33:06Z" changeset="125043361" uid="3497659" user="NKA">
		<tag k="name" v="Opsal" />
		<tag k="place" v="hamlet" />
		<tag k="ssr:stedsnr" v="10848" />
	</node>
	<node id="9960781413" lat="62.061625" lon="5.8121392" version="1" timestamp="2022-08-18T05:33:06Z" changeset="125043361" uid="3497659" user="NKA">
		<tag k="name" v="Sandfjellstøylen" />
		<tag k="place" v="locality" />
		<tag k="ssr:stedsnr" v="576354" />
	</node>
	<node id="9960781414" lat="62.0858994" lon="5.5796854" version="1" timestamp="2022-08-18T05:33:06Z" changeset="125043361" uid="3497659" user="NKA">
		<tag k="name" v="Tunheim" />
		<tag k="place" v="hamlet" />
		<tag k="ssr:stedsnr" v="1080735" />
	</node>
	<node id="9960781415" lat="62.1733" lon="5.5384004" version="1" timestamp="2022-08-18T05:33:06Z" changeset="125043361" uid="3497659" user="NKA">
		<tag k="name" v="Sætra" />
		<tag k="place" v="locality" />
		<tag k="ssr:stedsnr" v="948992" />
	</node>
	<node id="9960781416" lat="62.1686334" lon="5.7178203" version="1" timestamp="2022-08-18T05:33:06Z" changeset="125043361" uid="3497659" user="NKA">
		<tag k="alt_name" v="Hånes" />
		<tag k="name" v="Håneset" />
		<tag k="place" v="farm" />
		<tag k="ssr:stedsnr" v="921012" />
	</node>
	<node id="9960781417" lat="62.112077" lon="5.7200696" version="1" timestamp="2022-08-18T05:33:06Z" changeset="125043361" uid="3497659" user="NKA">
		<tag k="alt_name" v="Sætre, indre" />
		<tag k="name" v="Inste Sætre" />
		<tag k="place" v="hamlet" />
		<tag k="ssr:stedsnr" v="617790" />
	</node>
	<node id="9960781418" lat="62.1325527" lon="5.631306" version="1" timestamp="2022-08-18T05:33:06Z" changeset="125043361" uid="3497659" user="NKA">
		<tag k="name" v="Sandnessætra" />
		<tag k="place" v="isolated_dwelling" />
		<tag k="ssr:stedsnr" v="253451" />
	</node>
	<node id="9960781419" lat="62.1612007" lon="5.649969" version="1" timestamp="2022-08-18T05:33:06Z" changeset="125043361" uid="3497659" user="NKA">
		<tag k="name" v="Lid" />
		<tag k="place" v="hamlet" />
		<tag k="ssr:stedsnr" v="314506" />
	</node>
	<node id="9960781420" lat="62.034" lon="5.5745449" version="1" timestamp="2022-08-18T05:33:06Z" changeset="125043361" uid="3497659" user="NKA">
		<tag k="historic" v="shieling" />
		<tag k="name" v="Brenslene" />
		<tag k="place" v="isolated_dwelling" />
		<tag k="ssr:stedsnr" v="936969" />
	</node>
	<node id="9960781421" lat="62.1306917" lon="5.6973972" version="1" timestamp="2022-08-18T05:33:06Z" changeset="125043361" uid="3497659" user="NKA">
		<tag k="name" v="Ytre Skår" />
		<tag k="old_name" v="Skaar yttre" />
		<tag k="place" v="farm" />
		<tag k="ssr:stedsnr" v="1078724" />
	</node>
	<node id="9960781422" lat="62.08615" lon="5.7416475" version="1" timestamp="2022-08-18T05:33:06Z" changeset="125043361" uid="3497659" user="NKA">
		<tag k="name" v="Kviene" />
		<tag k="place" v="farm" />
		<tag k="ssr:stedsnr" v="799838" />
	</node>
	<node id="9960781423" lat="62.0326417" lon="5.6453143" version="1" timestamp="2022-08-18T05:33:06Z" changeset="125043361" uid="3497659" user="NKA">
		<tag k="name" v="Årstøylen" />
		<tag k="place" v="farm" />
		<tag k="ssr:stedsnr" v="253334" />
	</node>
	<node id="9960781424" lat="62.1072946" lon="5.6915534" version="1" timestamp="2022-08-18T05:33:06Z" changeset="125043361" uid="3497659" user="NKA">
		<tag k="name" v="Karlgarden" />
		<tag k="place" v="farm" />
		<tag k="ssr:stedsnr" v="1074631" />
	</node>
	<node id="9960781425" lat="62.1649139" lon="5.5746838" version="1" timestamp="2022-08-18T05:33:06Z" changeset="125043361" uid="3497659" user="NKA">
		<tag k="name" v="Lunnen" />
		<tag k="place" v="farm" />
		<tag k="ssr:stedsnr" v="523976" />
	</node>
	<node id="9960781426" lat="62.0653833" lon="5.6389422" version="1" timestamp="2022-08-18T05:33:06Z" changeset="125043361" uid="3497659" user="NKA">
		<tag k="name" v="Vidnesstøylen" />
		<tag k="place" v="isolated_dwelling" />
		<tag k="ssr:stedsnr" v="208971" />
	</node>
	<node id="9960781427" lat="62.102315" lon="5.530928" version="1" timestamp="2022-08-18T05:33:06Z" changeset="125043361" uid="3497659" user="NKA">
		<tag k="name" v="Gotene" />
		<tag k="place" v="farm" />
		<tag k="ssr:stedsnr" v="876689" />
	</node>
	<node id="9960781428" lat="62.145755" lon="5.6667775" version="1" timestamp="2022-08-18T05:33:06Z" changeset="125043361" uid="3497659" user="NKA">
		<tag k="name" v="Pergarden" />
		<tag k="place" v="farm" />
		<tag k="ssr:stedsnr" v="1074632" />
	</node>
	<node id="9960781429" lat="62.1138055" lon="5.6033338" version="1" timestamp="2022-08-18T05:33:06Z" changeset="125043361" uid="3497659" user="NKA">
		<tag k="name" v="Eidsstøylen" />
		<tag k="place" v="isolated_dwelling" />
		<tag k="ssr:stedsnr" v="209250" />
	</node>
	<node id="9960781430" lat="62.1462892" lon="5.6615783" version="1" timestamp="2022-08-18T05:33:06Z" changeset="125043361" uid="3497659" user="NKA">
		<tag k="name" v="Sandnes" />
		<tag k="place" v="hamlet" />
		<tag k="ssr:stedsnr" v="861472" />
	</node>
	<node id="9960781431" lat="62.0336361" lon="5.689492" version="1" timestamp="2022-08-18T05:33:06Z" changeset="125043361" uid="3497659" user="NKA">
		<tag k="name" v="Gamlesetra" />
		<tag k="place" v="locality" />
		<tag k="ssr:stedsnr" v="818457" />
	</node>
	<node id="9960781432" lat="62.0939222" lon="5.6817198" version="1" timestamp="2022-08-18T05:33:06Z" changeset="125043361" uid="3497659" user="NKA">
		<tag k="name" v="Gamlestøylen" />
		<tag k="place" v="locality" />
		<tag k="ssr:stedsnr" v="331203" />
	</node>
	<node id="9960781433" lat="62.1370487" lon="5.6735767" version="1" timestamp="2022-08-18T05:33:06Z" changeset="125043361" uid="3497659" user="NKA">
		<tag k="name" v="Øyra" />
		<tag k="place" v="hamlet" />
		<tag k="ssr:stedsnr" v="860509" />
	</node>
	<node id="9960781434" lat="62.1037556" lon="5.6779031" version="1" timestamp="2022-08-18T05:33:06Z" changeset="125043361" uid="3497659" user="NKA">
		<tag k="alt_name" v="Taksetnakken" />
		<tag k="name" v="Nakkebøen" />
		<tag k="place" v="locality" />
		<tag k="ssr:stedsnr" v="88034" />
	</node>
	<node id="9960781435" lat="62.0803972" lon="5.7362086" version="1" timestamp="2022-08-18T05:33:06Z" changeset="125043361" uid="3497659" user="NKA">
		<tag k="name" v="Sjurgarden" />
		<tag k="place" v="farm" />
		<tag k="ssr:stedsnr" v="617842" />
	</node>
	<node id="9960781436" lat="62.1814223" lon="5.527706" version="1" timestamp="2022-08-18T05:33:06Z" changeset="125043361" uid="3497659" user="NKA">
		<tag k="name" v="Haugen" />
		<tag k="place" v="farm" />
		<tag k="ssr:stedsnr" v="766977" />
	</node>
	<node id="9960781437" lat="62.0855041" lon="5.5824532" version="1" timestamp="2022-08-18T05:33:06Z" changeset="125043361" uid="3497659" user="NKA">
		<tag k="alt_name" v="Tunheim, midtre" />
		<tag k="name" v="Midtre Tunheim" />
		<tag k="place" v="farm" />
		<tag k="ssr:stedsnr" v="800323" />
	</node>
	<node id="9960781438" lat="62.1070056" lon="5.6900544" version="1" timestamp="2022-08-18T05:33:06Z" changeset="125043361" uid="3497659" user="NKA">
		<tag k="name" v="Takset" />
		<tag k="place" v="hamlet" />
		<tag k="ssr:stedsnr" v="860490" />
	</node>
	<node id="9960781439" lat="62.0748737" lon="5.6218347" version="1" timestamp="2022-08-18T05:33:06Z" changeset="125043361" uid="3497659" user="NKA">
		<tag k="name" v="Bakken" />
		<tag k="place" v="hamlet" />
		<tag k="ssr:stedsnr" v="496337" />
	</node>
	<node id="9960781440" lat="62.0492041" lon="5.6082037" version="1" timestamp="2022-08-18T05:33:06Z" changeset="125043361" uid="3497659" user="NKA">
		<tag k="name" v="Eikremsbakken" />
		<tag k="place" v="farm" />
		<tag k="ssr:stedsnr" v="86752" />
	</node>
	<node id="9960781441" lat="62.1266536" lon="5.6961599" version="1" timestamp="2022-08-18T05:33:06Z" changeset="125043361" uid="3497659" user="NKA">
		<tag k="name" v="Indre Skår" />
		<tag k="old_name" v="Skaar indre" />
		<tag k="place" v="farm" />
		<tag k="ssr:stedsnr" v="1078726" />
	</node>
	<node id="9960781442" lat="61.9977024" lon="5.6563218" version="1" timestamp="2022-08-18T05:33:06Z" changeset="125043361" uid="3497659" user="NKA">
		<tag k="name" v="Lille Almklov" />
		<tag k="old_name" v="Bøen" />
		<tag k="place" v="farm" />
		<tag k="ssr:stedsnr" v="1082112" />
	</node>
	<node id="9960781443" lat="62.0388583" lon="5.666442" version="1" timestamp="2022-08-18T05:33:06Z" changeset="125043361" uid="3497659" user="NKA">
		<tag k="name" v="Kilebrekka" />
		<tag k="place" v="locality" />
		<tag k="ssr:stedsnr" v="86773" />
	</node>
	<node id="9960781444" lat="62.0395333" lon="5.5227559" version="1" timestamp="2022-08-18T05:33:06Z" changeset="125043361" uid="3497659" user="NKA">
		<tag k="name" v="Saltvik" />
		<tag k="place" v="farm" />
		<tag k="ssr:stedsnr" v="739253" />
	</node>
	<node id="9960781445" lat="62.0727878" lon="5.6229808" version="1" timestamp="2022-08-18T05:33:06Z" changeset="125043361" uid="3497659" user="NKA">
		<tag k="name" v="Vangen" />
		<tag k="place" v="isolated_dwelling" />
		<tag k="ssr:stedsnr" v="299250" />
	</node>
	<node id="9960781446" lat="62.1030907" lon="5.5162617" version="1" timestamp="2022-08-18T05:33:06Z" changeset="125043361" uid="3497659" user="NKA">
		<tag k="name" v="Fagerhaug" />
		<tag k="place" v="farm" />
		<tag k="ssr:stedsnr" v="724970" />
	</node>
	<node id="9960781447" lat="61.9869778" lon="5.6385449" version="1" timestamp="2022-08-18T05:33:06Z" changeset="125043361" uid="3497659" user="NKA">
		<tag k="name" v="Brautene" />
		<tag k="place" v="isolated_dwelling" />
		<tag k="ssr:stedsnr" v="202517" />
	</node>
	<node id="9960781448" lat="62.0555949" lon="5.6011721" version="1" timestamp="2022-08-18T05:33:06Z" changeset="125043361" uid="3497659" user="NKA">
		<tag k="name" v="Haugen" />
		<tag k="place" v="farm" />
		<tag k="ssr:stedsnr" v="1074628" />
	</node>
	<node id="9960781449" lat="62.1727739" lon="5.6758472" version="1" timestamp="2022-08-18T05:33:06Z" changeset="125043361" uid="3497659" user="NKA">
		<tag k="name" v="Syvdsnes" />
		<tag k="place" v="hamlet" />
		<tag k="ssr:stedsnr" v="556564" />
	</node>
	<node id="9960781450" lat="62.1433417" lon="5.6355393" version="1" timestamp="2022-08-18T05:33:06Z" changeset="125043361" uid="3497659" user="NKA">
		<tag k="name" v="Koparnessætra" />
		<tag k="place" v="isolated_dwelling" />
		<tag k="ssr:stedsnr" v="495471" />
	</node>
	<node id="9960781451" lat="62.1690664" lon="5.7034234" version="1" timestamp="2022-08-18T05:33:06Z" changeset="125043361" uid="3497659" user="NKA">
		<tag k="name" v="Nørdrestranda" />
		<tag k="place" v="farm" />
		<tag k="ssr:stedsnr" v="617473" />
	</node>
	<node id="9960781452" lat="62.1419572" lon="5.6336067" version="1" timestamp="2022-08-18T05:33:06Z" changeset="125043361" uid="3497659" user="NKA">
		<tag k="historic" v="shieling" />
		<tag k="name" v="Lidasætra" />
		<tag k="place" v="isolated_dwelling" />
		<tag k="ssr:stedsnr" v="463967" />
	</node>
	<node id="9960781453" lat="62.1775149" lon="5.7440166" version="1" timestamp="2022-08-18T05:33:06Z" changeset="125043361" uid="3497659" user="NKA">
		<tag k="alt_name" v="Årskog" />
		<tag k="name" v="Årskogane" />
		<tag k="place" v="hamlet" />
		<tag k="ssr:stedsnr" v="314125" />
	</node>
	<node id="9960781454" lat="62.0934767" lon="5.7519962" version="1" timestamp="2022-08-18T05:33:06Z" changeset="125043361" uid="3497659" user="NKA">
		<tag k="name" v="Vik" />
		<tag k="place" v="hamlet" />
		<tag k="ssr:stedsnr" v="253880" />
	</node>
	<node id="9960781455" lat="62.1269976" lon="5.4131188" version="1" timestamp="2022-08-18T05:33:06Z" changeset="125043361" uid="3497659" user="NKA">
		<tag k="name" v="Flugevågen" />
		<tag k="place" v="hamlet" />
		<tag k="ssr:stedsnr" v="435504" />
	</node>
	<node id="9960781456" lat="62.1791762" lon="5.7516749" version="1" timestamp="2022-08-18T05:33:06Z" changeset="125043361" uid="3497659" user="NKA">
		<tag k="alt_name" v="Knarrdal;Knardal" />
		<tag k="name" v="Knarrdalen" />
		<tag k="place" v="farm" />
		<tag k="ssr:stedsnr" v="11095" />
	</node>
	<node id="9960781457" lat="62.1682945" lon="5.711322" version="1" timestamp="2022-08-18T05:33:06Z" changeset="125043361" uid="3497659" user="NKA">
		<tag k="alt_name" v="Rota" />
		<tag k="name" v="Rot" />
		<tag k="place" v="hamlet" />
		<tag k="ssr:stedsnr" v="253495" />
	</node>
	<node id="9960781458" lat="62.1403833" lon="5.6706072" version="1" timestamp="2022-08-18T05:33:06Z" changeset="125043361" uid="3497659" user="NKA">
		<tag k="name" v="Årset" />
		<tag k="place" v="farm" />
		<tag k="ssr:stedsnr" v="283720" />
	</node>
	<node id="9960781459" lat="62.0768641" lon="5.8069226" version="1" timestamp="2022-08-18T05:33:06Z" changeset="125043361" uid="3497659" user="NKA">
		<tag k="name" v="Lødebakken" />
		<tag k="place" v="farm" />
		<tag k="ssr:stedsnr" v="71852" />
	</node>
	<node id="9960781460" lat="62.1023973" lon="5.7974421" version="1" timestamp="2022-08-18T05:33:06Z" changeset="125043361" uid="3497659" user="NKA">
		<tag k="historic" v="shieling" />
		<tag k="name" v="Vikesela" />
		<tag k="place" v="isolated_dwelling" />
		<tag k="ssr:stedsnr" v="435867" />
	</node>
	<node id="9960781461" lat="62.1546028" lon="5.755756" version="1" timestamp="2022-08-18T05:33:06Z" changeset="125043361" uid="3497659" user="NKA">
		<tag k="historic" v="shieling" />
		<tag k="name" v="Skålehaugane" />
		<tag k="place" v="isolated_dwelling" />
		<tag k="ssr:stedsnr" v="72050" />
	</node>
	<node id="9960781462" lat="62.1976" lon="5.4931143" version="1" timestamp="2022-08-18T05:33:06Z" changeset="125043361" uid="3497659" user="NKA">
		<tag k="name" v="Solvang" />
		<tag k="place" v="farm" />
		<tag k="ssr:stedsnr" v="436523" />
	</node>
	<node id="9960781463" lat="62.0897917" lon="5.7163392" version="1" timestamp="2022-08-18T05:33:06Z" changeset="125043361" uid="3497659" user="NKA">
		<tag k="name" v="Oseberg" />
		<tag k="place" v="farm" />
		<tag k="ssr:stedsnr" v="557315" />
	</node>
	<node id="9960781464" lat="62.09931" lon="5.7465475" version="1" timestamp="2022-08-18T05:33:06Z" changeset="125043361" uid="3497659" user="NKA">
		<tag k="name" v="Ellinggarden" />
		<tag k="old_name" v="Lund" />
		<tag k="place" v="farm" />
		<tag k="ssr:stedsnr" v="1080188" />
	</node>
	<node id="9960781465" lat="62.1024124" lon="5.5369276" version="1" timestamp="2022-08-18T05:33:06Z" changeset="125043361" uid="3497659" user="NKA">
		<tag k="alt_name" v="Strand, in" />
		<tag k="name" v="Indre Strand" />
		<tag k="place" v="hamlet" />
		<tag k="ssr:stedsnr" v="496455" />
	</node>
	<node id="9960781466" lat="62.0915108" lon="5.748997" version="1" timestamp="2022-08-18T05:33:06Z" changeset="125043361" uid="3497659" user="NKA">
		<tag k="name" v="Nakkolagarden" />
		<tag k="place" v="farm" />
		<tag k="ssr:stedsnr" v="1072041" />
	</node>
	<node id="9960781467" lat="61.9933589" lon="5.5587704" version="1" timestamp="2022-08-18T05:33:06Z" changeset="125043361" uid="3497659" user="NKA">
		<tag k="name" v="Gamlesætra" />
		<tag k="place" v="farm" />
		<tag k="ssr:stedsnr" v="435073" />
	</node>
	<node id="9960781468" lat="62.0866263" lon="5.7380427" version="1" timestamp="2022-08-18T05:33:06Z" changeset="125043361" uid="3497659" user="NKA">
		<tag k="name" v="Ystebakk" />
		<tag k="place" v="farm" />
		<tag k="ssr:stedsnr" v="1072044" />
	</node>
	<node id="9960781469" lat="62.0752139" lon="5.746406" version="1" timestamp="2022-08-18T05:33:06Z" changeset="125043361" uid="3497659" user="NKA">
		<tag k="name" v="Gamlegarden" />
		<tag k="place" v="locality" />
		<tag k="ssr:stedsnr" v="636395" />
	</node>
	<node id="9960781470" lat="62.1793684" lon="5.4459985" version="1" timestamp="2022-08-18T05:33:06Z" changeset="125043361" uid="3497659" user="NKA">
		<tag k="alt_name" v="Klovning" />
		<tag k="name" v="Klovningen" />
		<tag k="place" v="hamlet" />
		<tag k="ssr:stedsnr" v="374494" />
	</node>
	<node id="9960781471" lat="62.1336058" lon="5.5944341" version="1" timestamp="2022-08-18T05:33:06Z" changeset="125043361" uid="3497659" user="NKA">
		<tag k="name" v="Ris-støylen" />
		<tag k="place" v="isolated_dwelling" />
		<tag k="ssr:stedsnr" v="208346" />
	</node>
	<node id="9960781472" lat="62.0230979" lon="5.6021694" version="1" timestamp="2022-08-18T05:33:06Z" changeset="125043361" uid="3497659" user="NKA">
		<tag k="name" v="Berge" />
		<tag k="place" v="farm" />
		<tag k="ssr:stedsnr" v="253236" />
	</node>
	<node id="9960781473" lat="62.0505892" lon="5.6029138" version="1" timestamp="2022-08-18T05:33:06Z" changeset="125043361" uid="3497659" user="NKA">
		<tag k="name" v="Nova" />
		<tag k="place" v="farm" />
		<tag k="ssr:stedsnr" v="358202" />
	</node>
	<node id="9960781474" lat="62.0151542" lon="5.4941688" version="1" timestamp="2022-08-18T05:33:06Z" changeset="125043361" uid="3497659" user="NKA">
		<tag k="alt_name" v="Indre Skorge" />
		<tag k="name" v="Skorgetunet" />
		<tag k="place" v="farm" />
		<tag k="ssr:stedsnr" v="331603" />
	</node>
	<node id="9960781475" lat="62.1725083" lon="5.7629475" version="1" timestamp="2022-08-18T05:33:06Z" changeset="125043361" uid="3497659" user="NKA">
		<tag k="name" v="Nytun" />
		<tag k="place" v="farm" />
		<tag k="ssr:stedsnr" v="496006" />
	</node>
	<node id="9960781476" lat="62.0325944" lon="5.5145421" version="1" timestamp="2022-08-18T05:33:06Z" changeset="125043361" uid="3497659" user="NKA">
		<tag k="name" v="Reiten" />
		<tag k="place" v="farm" />
		<tag k="ssr:stedsnr" v="270421" />
	</node>
	<node id="9960781477" lat="62.0545437" lon="5.6011855" version="1" timestamp="2022-08-18T05:33:06Z" changeset="125043361" uid="3497659" user="NKA">
		<tag k="name" v="Espehaugen" />
		<tag k="place" v="farm" />
		<tag k="ssr:stedsnr" v="661209" />
	</node>
	<node id="9960781478" lat="62.0790083" lon="5.7393864" version="1" timestamp="2022-08-18T05:33:06Z" changeset="125043361" uid="3497659" user="NKA">
		<tag k="name" v="Reiten" />
		<tag k="place" v="farm" />
		<tag k="ssr:stedsnr" v="253842" />
	</node>
	<node id="9960781479" lat="62.1301902" lon="5.670777" version="1" timestamp="2022-08-18T05:33:06Z" changeset="125043361" uid="3497659" user="NKA">
		<tag k="name" v="Kolgrova" />
		<tag k="place" v="hamlet" />
		<tag k="ssr:stedsnr" v="374403" />
	</node>
	<node id="9960781480" lat="62.0016444" lon="5.5166894" version="1" timestamp="2022-08-18T05:33:06Z" changeset="125043361" uid="3497659" user="NKA">
		<tag k="historic" v="shieling" />
		<tag k="name" v="Vauleleitet" />
		<tag k="place" v="isolated_dwelling" />
		<tag k="ssr:stedsnr" v="210424" />
	</node>
	<node id="9960781481" lat="62.1880178" lon="5.5093823" version="1" timestamp="2022-08-18T05:33:06Z" changeset="125043361" uid="3497659" user="NKA">
		<tag k="name" v="Årøyane" />
		<tag k="place" v="farm" />
		<tag k="ssr:stedsnr" v="644987" />
	</node>
	<node id="9960781482" lat="62.1752583" lon="5.7538504" version="1" timestamp="2022-08-18T05:33:06Z" changeset="125043361" uid="3497659" user="NKA">
		<tag k="name" v="Åsen" />
		<tag k="place" v="farm" />
		<tag k="ssr:stedsnr" v="496117" />
	</node>
	<node id="9960781483" lat="62.1650138" lon="5.7545059" version="1" timestamp="2022-08-18T05:33:06Z" changeset="125043361" uid="3497659" user="NKA">
		<tag k="name" v="Litlestøylen" />
		<tag k="place" v="locality" />
		<tag k="ssr:stedsnr" v="148628" />
	</node>
	<node id="9960781484" lat="62.1406551" lon="5.7922451" version="1" timestamp="2022-08-18T05:33:06Z" changeset="125043361" uid="3497659" user="NKA">
		<tag k="name" v="Riddarbu" />
		<tag k="place" v="isolated_dwelling" />
		<tag k="ssr:stedsnr" v="88885" />
	</node>
	<node id="9960781485" lat="62.0561516" lon="5.706812" version="1" timestamp="2022-08-18T05:33:06Z" changeset="125043361" uid="3497659" user="NKA">
		<tag k="name" v="Koppehaugen" />
		<tag k="place" v="farm" />
		<tag k="ssr:stedsnr" v="90210" />
	</node>
	<node id="9960781486" lat="62.0043548" lon="5.5683685" version="1" timestamp="2022-08-18T05:33:06Z" changeset="125043361" uid="3497659" user="NKA">
		<tag k="name" v="Halse" />
		<tag k="place" v="hamlet" />
		<tag k="ssr:stedsnr" v="132196" />
	</node>
	<node id="9960781487" lat="62.0951375" lon="5.7608886" version="1" timestamp="2022-08-18T05:33:06Z" changeset="125043361" uid="3497659" user="NKA">
		<tag k="alt_name" v="Bjørkeli" />
		<tag k="name" v="Bjørkelid" />
		<tag k="place" v="farm" />
		<tag k="ssr:stedsnr" v="799893" />
	</node>
	<node id="9960781488" lat="62.1367973" lon="5.4158894" version="1" timestamp="2022-08-18T05:33:06Z" changeset="125043361" uid="3497659" user="NKA">
		<tag k="alt_name" v="Breidemyra;Breidmyr" />
		<tag k="name" v="Breidemyr" />
		<tag k="place" v="farm" />
		<tag k="ssr:stedsnr" v="739483" />
	</node>
	<node id="9960781489" lat="62.1432289" lon="5.6938596" version="1" timestamp="2022-08-18T05:33:06Z" changeset="125043361" uid="3497659" user="NKA">
		<tag k="alt_name" v="Breidteig" />
		<tag k="name" v="Breiteig" />
		<tag k="place" v="farm" />
		<tag k="ssr:stedsnr" v="495464" />
	</node>
	<node id="9960781490" lat="62.0008834" lon="5.6977003" version="1" timestamp="2022-08-18T05:33:06Z" changeset="125043361" uid="3497659" user="NKA">
		<tag k="name" v="Rota" />
		<tag k="place" v="neighbourhood" />
		<tag k="ssr:stedsnr" v="222566" />
	</node>
	<node id="9960781491" lat="62.1168263" lon="5.5529041" version="1" timestamp="2022-08-18T05:33:06Z" changeset="125043361" uid="3497659" user="NKA">
		<tag k="name" v="Torestøylen" />
		<tag k="place" v="isolated_dwelling" />
		<tag k="ssr:stedsnr" v="754737" />
	</node>
	<node id="9960781492" lat="62.1547417" lon="5.8342392" version="1" timestamp="2022-08-18T05:33:06Z" changeset="125043361" uid="3497659" user="NKA">
		<tag k="historic" v="shieling" />
		<tag k="name" v="Sundnessætra" />
		<tag k="place" v="isolated_dwelling" />
		<tag k="ssr:stedsnr" v="375039" />
	</node>
	<node id="9960781493" lat="62.0891484" lon="5.7799674" version="1" timestamp="2022-08-18T05:33:06Z" changeset="125043361" uid="3497659" user="NKA">
		<tag k="name" v="Koppen" />
		<tag k="place" v="hamlet" />
		<tag k="ssr:stedsnr" v="678804" />
	</node>
	<node id="9960781494" lat="62.0837872" lon="5.7343289" version="1" timestamp="2022-08-18T05:33:06Z" changeset="125043361" uid="3497659" user="NKA">
		<tag k="alt_name" v="Myklebust" />
		<tag k="name" v="Myklebost" />
		<tag k="place" v="hamlet" />
		<tag k="ssr:stedsnr" v="678801" />
	</node>
	<node id="9960781495" lat="62.0706758" lon="5.6244217" version="1" timestamp="2022-08-18T05:33:06Z" changeset="125043361" uid="3497659" user="NKA">
		<tag k="name" v="Kviabakkane" />
		<tag k="place" v="hamlet" />
		<tag k="ssr:stedsnr" v="496397" />
	</node>
	<node id="9960781496" lat="62.1485528" lon="5.4278057" version="1" timestamp="2022-08-18T05:33:06Z" changeset="125043361" uid="3497659" user="NKA">
		<tag k="name" v="Molvika" />
		<tag k="place" v="hamlet" />
		<tag k="ssr:stedsnr" v="557420" />
	</node>
	<node id="9960781497" lat="62.1834081" lon="5.7924037" version="1" timestamp="2022-08-18T05:33:06Z" changeset="125043361" uid="3497659" user="NKA">
		<tag k="name" v="Enebakk" />
		<tag k="place" v="farm" />
		<tag k="ssr:stedsnr" v="38801" />
	</node>
	<node id="9960781498" lat="62.1065213" lon="5.568364" version="1" timestamp="2022-08-18T05:33:06Z" changeset="125043361" uid="3497659" user="NKA">
		<tag k="name" v="Legene" />
		<tag k="place" v="farm" />
		<tag k="ssr:stedsnr" v="513257" />
	</node>
	<node id="9960781499" lat="62.1694821" lon="5.6763348" version="1" timestamp="2022-08-18T05:33:06Z" changeset="125043361" uid="3497659" user="NKA">
		<tag k="name" v="Litlebø" />
		<tag k="place" v="farm" />
		<tag k="ssr:stedsnr" v="132446" />
	</node>
	<node id="9960781500" lat="62.182625" lon="5.7869308" version="1" timestamp="2022-08-18T05:33:06Z" changeset="125043361" uid="3497659" user="NKA">
		<tag k="name" v="Vedelda" />
		<tag k="place" v="farm" />
		<tag k="ssr:stedsnr" v="11084" />
	</node>
	<node id="9960781501" lat="62.0926551" lon="5.7471193" version="1" timestamp="2022-08-18T05:33:06Z" changeset="125043361" uid="3497659" user="NKA">
		<tag k="name" v="Ulasgarden" />
		<tag k="place" v="farm" />
		<tag k="ssr:stedsnr" v="1072040" />
	</node>
	<node id="9960781502" lat="62.1781795" lon="5.7633233" version="1" timestamp="2022-08-18T05:33:06Z" changeset="125043361" uid="3497659" user="NKA">
		<tag k="name" v="Slettevold" />
		<tag k="place" v="farm" />
		<tag k="ssr:stedsnr" v="112956" />
	</node>
	<node id="9960781503" lat="62.0978155" lon="5.7062026" version="1" timestamp="2022-08-18T05:33:06Z" changeset="125043361" uid="3497659" user="NKA">
		<tag k="name" v="Løset" />
		<tag k="place" v="hamlet" />
		<tag k="ssr:stedsnr" v="436385" />
	</node>
	<node id="9960781504" lat="62.0002787" lon="5.4937442" version="1" timestamp="2022-08-18T05:33:06Z" changeset="125043361" uid="3497659" user="NKA">
		<tag k="historic" v="shieling" />
		<tag k="name" v="Heimste Skorgesetra" />
		<tag k="place" v="isolated_dwelling" />
		<tag k="ssr:stedsnr" v="936282" />
	</node>
	<node id="9960781505" lat="62.1785889" lon="5.762531" version="1" timestamp="2022-08-18T05:33:06Z" changeset="125043361" uid="3497659" user="NKA">
		<tag k="name" v="Brensla" />
		<tag k="place" v="locality" />
		<tag k="ssr:stedsnr" v="814910" />
	</node>
	<node id="9960781506" lat="62.1015972" lon="5.5081888" version="1" timestamp="2022-08-18T05:33:06Z" changeset="125043361" uid="3497659" user="NKA">
		<tag k="alt_name" v="Strand;Strand, yt" />
		<tag k="name" v="Ytre Strand" />
		<tag k="place" v="hamlet" />
		<tag k="ssr:stedsnr" v="314473" />
	</node>
	<node id="9960781507" lat="62.1532222" lon="5.8178031" version="1" timestamp="2022-08-18T05:33:06Z" changeset="125043361" uid="3497659" user="NKA">
		<tag k="alt_name" v="Rovdeselet, litle" />
		<tag k="historic" v="shieling" />
		<tag k="name" v="Litle Rovdeselet" />
		<tag k="place" v="isolated_dwelling" />
		<tag k="ssr:stedsnr" v="861051" />
	</node>
	<node id="9960781508" lat="62.1840355" lon="5.7943613" version="1" timestamp="2022-08-18T05:33:06Z" changeset="125043361" uid="3497659" user="NKA">
		<tag k="alt_name" v="Einebakke" />
		<tag k="name" v="Bakkane" />
		<tag k="place" v="hamlet" />
		<tag k="ssr:stedsnr" v="800109" />
	</node>
	<node id="9960781509" lat="62.1107819" lon="5.4368986" version="1" timestamp="2022-08-18T05:33:06Z" changeset="125043361" uid="3497659" user="NKA">
		<tag k="name" v="Brudevika" />
		<tag k="place" v="hamlet" />
		<tag k="ssr:stedsnr" v="314413" />
	</node>
	<node id="9960781510" lat="62.1582222" lon="5.7714365" version="1" timestamp="2022-08-18T05:33:06Z" changeset="125043361" uid="3497659" user="NKA">
		<tag k="name" v="Brensla" />
		<tag k="place" v="locality" />
		<tag k="ssr:stedsnr" v="572554" />
	</node>
	<node id="9960781511" lat="62.1699706" lon="5.4394818" version="1" timestamp="2022-08-18T05:33:06Z" changeset="125043361" uid="3497659" user="NKA">
		<tag k="alt_name" v="Kobbevika" />
		<tag k="name" v="Kobbevik" />
		<tag k="place" v="hamlet" />
		<tag k="ssr:stedsnr" v="556560" />
	</node>
	<node id="9960781512" lat="62.0890056" lon="5.7056864" version="1" timestamp="2022-08-18T05:33:06Z" changeset="125043361" uid="3497659" user="NKA">
		<tag k="name" v="Ivasætra" />
		<tag k="place" v="locality" />
		<tag k="ssr:stedsnr" v="815774" />
	</node>
	<node id="9960781513" lat="62.1851908" lon="5.804223" version="1" timestamp="2022-08-18T05:33:06Z" changeset="125043361" uid="3497659" user="NKA">
		<tag k="name" v="Rabben" />
		<tag k="place" v="farm" />
		<tag k="ssr:stedsnr" v="193101" />
	</node>
	<node id="9960781514" lat="62.0740502" lon="5.5515808" version="1" timestamp="2022-08-18T05:33:06Z" changeset="125043361" uid="3497659" user="NKA">
		<tag k="alt_name" v="Vik, ytre" />
		<tag k="name" v="Ytre Vik" />
		<tag k="place" v="farm" />
		<tag k="ssr:stedsnr" v="496332" />
	</node>
	<node id="9960781515" lat="62.1785009" lon="5.7584509" version="1" timestamp="2022-08-18T05:33:06Z" changeset="125043361" uid="3497659" user="NKA">
		<tag k="name" v="Åsvika" />
		<tag k="place" v="farm" />
		<tag k="ssr:stedsnr" v="511906" />
	</node>
	<node id="9960781516" lat="62.071575" lon="5.8246447" version="1" timestamp="2022-08-18T05:33:06Z" changeset="125043361" uid="3497659" user="NKA">
		<tag k="name" v="Støylen" />
		<tag k="place" v="farm" />
		<tag k="ssr:stedsnr" v="263928" />
	</node>
	<node id="9960781517" lat="62.1804954" lon="5.7666641" version="1" timestamp="2022-08-18T05:33:06Z" changeset="125043361" uid="3497659" user="NKA">
		<tag k="alt_name" v="Litle Rovde" />
		<tag k="name" v="Litlerovdane" />
		<tag k="place" v="hamlet" />
		<tag k="ssr:stedsnr" v="678128" />
	</node>
	<node id="9960781518" lat="62.1597203" lon="5.681953" version="1" timestamp="2022-08-18T05:33:06Z" changeset="125043361" uid="3497659" user="NKA">
		<tag k="name" v="Haukeland" />
		<tag k="place" v="farm" />
		<tag k="ssr:stedsnr" v="436426" />
	</node>
	<node id="9960781519" lat="62.0851998" lon="5.7282467" version="1" timestamp="2022-08-18T05:33:06Z" changeset="125043361" uid="3497659" user="NKA">
		<tag k="historic" v="shieling" />
		<tag k="name" v="Gardsstøyl" />
		<tag k="place" v="isolated_dwelling" />
		<tag k="ssr:stedsnr" v="223783" />
	</node>
	<node id="9960781520" lat="62.0609614" lon="5.7108621" version="1" timestamp="2022-08-18T05:33:06Z" changeset="125043361" uid="3497659" user="NKA">
		<tag k="name" v="Saurdalen" />
		<tag k="place" v="hamlet" />
		<tag k="ssr:stedsnr" v="435404" />
	</node>
	<node id="9960781521" lat="62.1887138" lon="5.8190833" version="1" timestamp="2022-08-18T05:33:06Z" changeset="125043361" uid="3497659" user="NKA">
		<tag k="alt_name" v="Øygarden" />
		<tag k="name" v="Hovden" />
		<tag k="place" v="farm" />
		<tag k="ssr:stedsnr" v="556128" />
	</node>
	<node id="9960781522" lat="62.1965187" lon="5.8297962" version="1" timestamp="2022-08-18T05:33:06Z" changeset="125043361" uid="3497659" user="NKA">
		<tag k="name" v="Korsfura" />
		<tag k="place" v="hamlet" />
		<tag k="ssr:stedsnr" v="193090" />
	</node>
	<node id="9960781523" lat="62.1536806" lon="5.7791726" version="1" timestamp="2022-08-18T05:33:06Z" changeset="125043361" uid="3497659" user="NKA">
		<tag k="name" v="Stølen" />
		<tag k="place" v="locality" />
		<tag k="ssr:stedsnr" v="937820" />
	</node>
	<node id="9960781524" lat="62.0787692" lon="5.8061418" version="1" timestamp="2022-08-18T05:33:06Z" changeset="125043361" uid="3497659" user="NKA">
		<tag k="name" v="Monsgarden" />
		<tag k="place" v="farm" />
		<tag k="ssr:stedsnr" v="921840" />
	</node>
	<node id="9960781525" lat="62.1657612" lon="5.5663737" version="1" timestamp="2022-08-18T05:33:06Z" changeset="125043361" uid="3497659" user="NKA">
		<tag k="name" v="Strand" />
		<tag k="place" v="farm" />
		<tag k="ssr:stedsnr" v="99981" />
	</node>
	<node id="9960781526" lat="62.1721611" lon="5.8260643" version="1" timestamp="2022-08-18T05:33:06Z" changeset="125043361" uid="3497659" user="NKA">
		<tag k="name" v="Lidastøylen" />
		<tag k="place" v="locality" />
		<tag k="ssr:stedsnr" v="151756" />
	</node>
	<node id="9960781527" lat="62.0795777" lon="5.7410564" version="1" timestamp="2022-08-18T05:33:06Z" changeset="125043361" uid="3497659" user="NKA">
		<tag k="name" v="Smedbøen" />
		<tag k="place" v="hamlet" />
		<tag k="ssr:stedsnr" v="678812" />
	</node>
	<node id="9960781528" lat="62.1534757" lon="5.4399311" version="1" timestamp="2022-08-18T05:33:06Z" changeset="125043361" uid="3497659" user="NKA">
		<tag k="name" v="Nymark" />
		<tag k="place" v="farm" />
		<tag k="ssr:stedsnr" v="38994" />
	</node>
	<node id="9960781529" lat="62.0915988" lon="5.7795765" version="1" timestamp="2022-08-18T05:33:06Z" changeset="125043361" uid="3497659" user="NKA">
		<tag k="name" v="Brudavollane" />
		<tag k="place" v="hamlet" />
		<tag k="ssr:stedsnr" v="496815" />
	</node>
	<node id="9960781530" lat="62.1615139" lon="5.7456976" version="1" timestamp="2022-08-18T05:33:06Z" changeset="125043361" uid="3497659" user="NKA">
		<tag k="name" v="Barbrosætra" />
		<tag k="place" v="locality" />
		<tag k="ssr:stedsnr" v="330628" />
	</node>
	<node id="9960781531" lat="62.0685985" lon="5.834147" version="1" timestamp="2022-08-18T05:33:06Z" changeset="125043361" uid="3497659" user="NKA">
		<tag k="name" v="Tverrberget" />
		<tag k="place" v="hamlet" />
		<tag k="ssr:stedsnr" v="799933" />
	</node>
	<node id="9960781532" lat="62.1675947" lon="5.5481945" version="1" timestamp="2022-08-18T05:33:06Z" changeset="125043361" uid="3497659" user="NKA">
		<tag k="name" v="Midtlid" />
		<tag k="place" v="farm" />
		<tag k="ssr:stedsnr" v="38984" />
	</node>
	<node id="9960781533" lat="62.0753166" lon="5.8114086" version="1" timestamp="2022-08-18T05:33:06Z" changeset="125043361" uid="3497659" user="NKA">
		<tag k="name" v="Bakkene" />
		<tag k="place" v="farm" />
		<tag k="ssr:stedsnr" v="556850" />
	</node>
</osm>
