<?xml version="1.0" encoding="UTF-8"?>
<osm generator="osmapis" version="0.6">
	<node id="-13691" lat="62.1471084276" lon="6.06289666722">
		<tag k="name" v="Lensmannsvegen" />
		<tag k="ssr:date" v="2020-06-09" />
		<tag k="ssr:gruppe" v="veg" />
		<tag k="ssr:hovedgruppe" v="infrastruktur" />
		<tag k="ssr:stedsnr" v="1076958" />
		<tag k="ssr:type" v="adressenavn" />
	</node>
	<node id="-13690" lat="62.1394055152" lon="6.08975862475">
		<tag k="name" v="Torvbanken" />
		<tag k="ssr:date" v="2019-12-27" />
		<tag k="ssr:gruppe" v="veg" />
		<tag k="ssr:hovedgruppe" v="infrastruktur" />
		<tag k="ssr:stedsnr" v="1074085" />
		<tag k="ssr:type" v="adressenavn" />
	</node>
	<node id="-12500" lat="62.2240347384" lon="5.89073183758">
		<tag k="name" v="Yksnøy" />
		<tag k="ssr:date" v="2020-09-08" />
		<tag k="ssr:gruppe" v="navigasjon" />
		<tag k="ssr:hovedgruppe" v="infrastruktur" />
		<tag k="ssr:stedsnr" v="314201" />
		<tag k="ssr:type" v="fyrlykt" />
	</node>
	<node id="-13685" lat="62.147912533" lon="6.06504018627">
		<tag k="name" v="Dokterhaugen" />
		<tag k="ssr:date" v="2019-12-27" />
		<tag k="ssr:gruppe" v="veg" />
		<tag k="ssr:hovedgruppe" v="infrastruktur" />
		<tag k="ssr:stedsnr" v="1071982" />
		<tag k="ssr:type" v="adressenavn" />
	</node>
	<node id="-13684" lat="62.1409401793" lon="5.9265970871">
		<tag k="name" v="Sæsshaugen" />
		<tag k="ssr:date" v="2019-12-27" />
		<tag k="ssr:gruppe" v="veg" />
		<tag k="ssr:hovedgruppe" v="infrastruktur" />
		<tag k="ssr:stedsnr" v="1062085" />
		<tag k="ssr:type" v="adressenavn" />
	</node>
	<node id="-13683" lat="62.0024596288" lon="5.76223872184">
		<tag k="name" v="Storlida" />
		<tag k="ssr:date" v="2019-12-27" />
		<tag k="ssr:gruppe" v="veg" />
		<tag k="ssr:hovedgruppe" v="infrastruktur" />
		<tag k="ssr:stedsnr" v="1061885" />
		<tag k="ssr:type" v="adressenavn" />
	</node>
	<node id="-13682" lat="61.9946166071" lon="6.4467535257">
		<tag k="name" v="Otterdalssætra" />
		<tag k="ssr:date" v="2019-12-27" />
		<tag k="ssr:gruppe" v="veg" />
		<tag k="ssr:hovedgruppe" v="infrastruktur" />
		<tag k="ssr:stedsnr" v="1053498" />
		<tag k="ssr:type" v="adressenavn" />
	</node>
	<node id="-11950" lat="61.9744515913" lon="6.51805847866">
		<tag k="name" v="Skomakarvegen" />
		<tag k="ssr:date" v="2019-12-27" />
		<tag k="ssr:gruppe" v="veg" />
		<tag k="ssr:hovedgruppe" v="infrastruktur" />
		<tag k="ssr:stedsnr" v="1053476" />
		<tag k="ssr:type" v="adressenavn" />
	</node>
	<node id="-11949" lat="61.9943371093" lon="6.53201401121">
		<tag k="name" v="Beitevegen" />
		<tag k="ssr:date" v="2019-12-27" />
		<tag k="ssr:gruppe" v="veg" />
		<tag k="ssr:hovedgruppe" v="infrastruktur" />
		<tag k="ssr:stedsnr" v="1053465" />
		<tag k="ssr:type" v="adressenavn" />
	</node>
	<node id="-11948" lat="61.9881705572" lon="6.57622140196">
		<tag k="name" v="Sætren" />
		<tag k="ssr:date" v="2019-12-27" />
		<tag k="ssr:gruppe" v="veg" />
		<tag k="ssr:hovedgruppe" v="infrastruktur" />
		<tag k="ssr:stedsnr" v="1053427" />
		<tag k="ssr:type" v="adressenavn" />
	</node>
	<node id="-12523" lat="61.969233335" lon="6.52251944143">
		<tag k="alt_name" v="Hornindal" />
		<tag k="name" v="Hornindal kommune" />
		<tag k="ssr:date" v="2019-12-27" />
		<tag k="ssr:gruppe" v="administrativeIndelinger" />
		<tag k="ssr:hovedgruppe" v="offentligAdministrasjon" />
		<tag k="ssr:stedsnr" v="328097" />
		<tag k="ssr:type" v="kommune" />
	</node>
	<node id="-11050" lat="62.0753611137" lon="6.3145333325">
		<tag k="name" v="Leitet" />
		<tag k="ssr:date" v="2019-12-27" />
		<tag k="ssr:gruppe" v="navigasjon" />
		<tag k="ssr:hovedgruppe" v="infrastruktur" />
		<tag k="ssr:stedsnr" v="374609" />
		<tag k="ssr:type" v="fyrlykt" />
	</node>
	<node id="-13402" lat="62.0945250022" lon="6.14195000785">
		<tag k="name" v="Furnes" />
		<tag k="ssr:date" v="2019-12-27" />
		<tag k="ssr:gruppe" v="navigasjon" />
		<tag k="ssr:hovedgruppe" v="infrastruktur" />
		<tag k="ssr:stedsnr" v="799847" />
		<tag k="ssr:type" v="fyrlykt" />
	</node>
	<node id="-13447" lat="62.1467777781" lon="6.0680055575">
		<tag k="alt_name" v="Volda" />
		<tag k="name" v="Volda kommune" />
		<tag k="ssr:date" v="2019-12-27" />
		<tag k="ssr:gruppe" v="administrativeIndelinger" />
		<tag k="ssr:hovedgruppe" v="offentligAdministrasjon" />
		<tag k="ssr:stedsnr" v="814107" />
		<tag k="ssr:type" v="kommune" />
	</node>
	<node id="-12322" lat="62.0768338079" lon="6.25575164477">
		<tag k="name" v="Årsetøy" />
		<tag k="ssr:date" v="2020-09-08" />
		<tag k="ssr:gruppe" v="navigasjon" />
		<tag k="ssr:hovedgruppe" v="infrastruktur" />
		<tag k="ssr:stedsnr" v="132639" />
		<tag k="ssr:type" v="fyrlykt" />
	</node>
</osm>
