<?xml version="1.0" encoding="UTF-8"?>
<osm generator="osmapis" version="0.6">
	<node id="-15896" lat="59.6878334469" lon="11.0765115349">
		<tag k="name" v="Åsli" />
		<tag k="place" v="locality" />
		<tag k="ssr:stedsnr" v="976222" />
	</node>
	<node id="-15895" lat="59.6847366316" lon="11.0777965184">
		<tag k="name" v="Setra" />
		<tag k="place" v="farm" />
		<tag k="ssr:stedsnr" v="976221" />
	</node>
	<node id="-15892" lat="59.6804138879" lon="11.2139333317">
		<tag k="alt_name" v="Sververud" />
		<tag k="name" v="Svarverud" />
		<tag k="place" v="farm" />
		<tag k="ssr:stedsnr" v="934092" />
	</node>
	<node id="-15889" lat="59.5254805561" lon="10.9963861038">
		<tag k="name" v="Tuehagen" />
		<tag k="place" v="locality" />
		<tag k="ssr:stedsnr" v="932986" />
	</node>
	<node id="-15887" lat="59.5468027781" lon="11.1025333275">
		<tag k="name" v="Torp" />
		<tag k="place" v="farm" />
		<tag k="ssr:stedsnr" v="932782" />
	</node>
	<node id="-15885" lat="59.6539861121" lon="11.0515888901">
		<tag k="name" v="Bjørnstad" />
		<tag k="place" v="farm" />
		<tag k="ssr:stedsnr" v="932769" />
	</node>
	<node id="-15882" lat="59.5864972179" lon="11.0757972175">
		<tag k="name" v="Giltvet" />
		<tag k="place" v="farm" />
		<tag k="ssr:stedsnr" v="932744" />
	</node>
	<node id="-15879" lat="59.6586777817" lon="11.0679777838">
		<tag k="alt_name" v="Passopp nordre" />
		<tag k="name" v="Nordre Passopp" />
		<tag k="place" v="farm" />
		<tag k="ssr:stedsnr" v="932678" />
	</node>
	<node id="-15877" lat="59.6655027811" lon="11.1401916616">
		<tag k="name" v="Myrberg" />
		<tag k="place" v="farm" />
		<tag k="ssr:stedsnr" v="932666" />
	</node>
	<node id="-15875" lat="59.6744361124" lon="11.0997388928">
		<tag k="alt_name" v="Rud østre" />
		<tag k="name" v="Østre Rud" />
		<tag k="place" v="farm" />
		<tag k="ssr:stedsnr" v="932657" />
	</node>
	<node id="-15873" lat="59.6796083344" lon="11.1183027798">
		<tag k="name" v="Hemnes" />
		<tag k="place" v="farm" />
		<tag k="ssr:stedsnr" v="932651" />
	</node>
	<node id="-15869" lat="59.5665277804" lon="11.097930561">
		<tag k="name" v="Nordby" />
		<tag k="place" v="farm" />
		<tag k="ssr:stedsnr" v="932589" />
	</node>
	<node id="-15868" lat="59.63987778" lon="11.1204916756">
		<tag k="alt_name" v="Bøler øvre" />
		<tag k="name" v="Bøler" />
		<tag k="place" v="farm" />
		<tag k="ssr:stedsnr" v="914979" />
	</node>
	<node id="-15867" lat="59.634305558" lon="11.1284416631">
		<tag k="alt_name" v="Torp, nordre;Torp nordre" />
		<tag k="name" v="Nordre Torp" />
		<tag k="place" v="farm" />
		<tag k="ssr:stedsnr" v="914963" />
	</node>
	<node id="-15866" lat="59.6318972228" lon="11.1319222215">
		<tag k="alt_name" v="Torp søndre;Torp" />
		<tag k="name" v="Søndre Torp" />
		<tag k="place" v="farm" />
		<tag k="ssr:stedsnr" v="914964" />
	</node>
	<node id="-15863" lat="59.5638777737" lon="11.1047499952">
		<tag k="name" v="Nordby" />
		<tag k="place" v="farm" />
		<tag k="ssr:stedsnr" v="914579" />
	</node>
	<node id="-15862" lat="59.5386111147" lon="11.0934638918">
		<tag k="name" v="Bråten" />
		<tag k="place" v="farm" />
		<tag k="ssr:stedsnr" v="914529" />
	</node>
	<node id="-15860" lat="59.5842972228" lon="11.0588027835">
		<tag k="name" v="Kjos" />
		<tag k="place" v="farm" />
		<tag k="ssr:stedsnr" v="914181" />
	</node>
	<node id="-15859" lat="59.604149997" lon="11.0689305632">
		<tag k="name" v="Vollene" />
		<tag k="place" v="farm" />
		<tag k="ssr:stedsnr" v="914160" />
	</node>
	<node id="-15858" lat="59.595950001" lon="11.0321749944">
		<tag k="alt_name" v="Kjosetangen" />
		<tag k="name" v="Tangen" />
		<tag k="place" v="farm" />
		<tag k="ssr:stedsnr" v="914134" />
	</node>
	<node id="-15856" lat="59.5436916686" lon="11.0861166749">
		<tag k="name" v="Myra" />
		<tag k="place" v="farm" />
		<tag k="ssr:stedsnr" v="914022" />
	</node>
	<node id="-15855" lat="59.6183832504" lon="11.0688416171">
		<tag k="alt_name" v="Løvestad nedre;Løvstad søndre;Søndre Løvstad" />
		<tag k="name" v="Østre Løvestad" />
		<tag k="place" v="farm" />
		<tag k="ssr:stedsnr" v="913358" />
	</node>
	<node id="-15854" lat="59.6187833351" lon="11.0366583314">
		<tag k="name" v="Bjørge" />
		<tag k="place" v="farm" />
		<tag k="ssr:stedsnr" v="913356" />
	</node>
	<node id="-15853" lat="59.6108833343" lon="11.0270861133">
		<tag k="name" v="Stabberud" />
		<tag k="place" v="farm" />
		<tag k="ssr:stedsnr" v="913357" />
	</node>
	<node id="-15852" lat="59.6503861128" lon="11.0794972151">
		<tag k="name" v="Olafsrud" />
		<tag k="place" v="farm" />
		<tag k="ssr:stedsnr" v="913253" />
	</node>
	<node id="-15851" lat="59.5120472222" lon="11.0457972207">
		<tag k="name" v="Trollerud" />
		<tag k="place" v="farm" />
		<tag k="ssr:stedsnr" v="871994" />
	</node>
	<node id="-15846" lat="59.6466083372" lon="11.1026944485">
		<tag k="alt_name" v="Galtebo øvre" />
		<tag k="name" v="Øvre Galtebo" />
		<tag k="place" v="farm" />
		<tag k="ssr:stedsnr" v="871717" />
	</node>
	<node id="-15845" lat="59.6563583344" lon="11.0685055587">
		<tag k="name" v="Syverud" />
		<tag k="place" v="isolated_dwelling" />
		<tag k="ssr:stedsnr" v="871689" />
	</node>
	<node id="-15844" lat="59.6630749975" lon="11.1495611096">
		<tag k="name" v="Hvitstein" />
		<tag k="place" v="farm" />
		<tag k="ssr:stedsnr" v="871671" />
	</node>
	<node id="-15841" lat="59.6088388927" lon="11.100022231">
		<tag k="name" v="Haga" />
		<tag k="place" v="farm" />
		<tag k="ssr:stedsnr" v="871638" />
	</node>
	<node id="-15839" lat="59.5529694455" lon="11.0783083331">
		<tag k="name" v="Heiestad" />
		<tag k="place" v="farm" />
		<tag k="ssr:stedsnr" v="871602" />
	</node>
	<node id="-15838" lat="59.5605194463" lon="11.080383338">
		<tag k="name" v="Skarnes bru" />
		<tag k="place" v="farm" />
		<tag k="ssr:stedsnr" v="871601" />
	</node>
	<node id="-15837" lat="59.5601416634" lon="11.0585805608">
		<tag k="name" v="Knappås" />
		<tag k="place" v="farm" />
		<tag k="ssr:stedsnr" v="871595" />
	</node>
	<node id="-15835" lat="59.6505749999" lon="11.1261361122">
		<tag k="name" v="Nestingen" />
		<tag k="place" v="farm" />
		<tag k="ssr:stedsnr" v="854751" />
	</node>
	<node id="-15834" lat="59.5468055554" lon="11.118900006">
		<tag k="name" v="Revhaug" />
		<tag k="place" v="farm" />
		<tag k="ssr:stedsnr" v="854525" />
	</node>
	<node id="-15833" lat="59.5581333348" lon="11.0938444513">
		<tag k="name" v="Tettum" />
		<tag k="place" v="farm" />
		<tag k="ssr:stedsnr" v="854509" />
	</node>
	<node id="-15832" lat="59.5814166653" lon="11.0688111159">
		<tag k="name" v="Auten" />
		<tag k="place" v="farm" />
		<tag k="ssr:stedsnr" v="854151" />
	</node>
	<node id="-15831" lat="59.5751194404" lon="11.0242250066">
		<tag k="name" v="Murås" />
		<tag k="place" v="farm" />
		<tag k="ssr:stedsnr" v="854152" />
	</node>
	<node id="-15830" lat="59.5968583324" lon="11.0665527761">
		<tag k="name" v="Hovienga" />
		<tag k="place" v="farm" />
		<tag k="ssr:stedsnr" v="854111" />
	</node>
	<node id="-15829" lat="59.5930111125" lon="11.0584555476">
		<tag k="alt_name" v="Tunnby" />
		<tag k="name" v="Tunby" />
		<tag k="place" v="farm" />
		<tag k="ssr:stedsnr" v="854109" />
	</node>
	<node id="-15828" lat="59.5980777779" lon="11.032883331">
		<tag k="name" v="Hauger" />
		<tag k="place" v="farm" />
		<tag k="ssr:stedsnr" v="854106" />
	</node>
	<node id="-15826" lat="59.6268111105" lon="11.1007444454">
		<tag k="name" v="Kallerud" />
		<tag k="place" v="farm" />
		<tag k="ssr:stedsnr" v="853946" />
	</node>
	<node id="-15825" lat="59.6750999982" lon="11.0505888961">
		<tag k="name" v="Tørtland" />
		<tag k="place" v="isolated_dwelling" />
		<tag k="ssr:stedsnr" v="853454" />
	</node>
	<node id="-15824" lat="59.6119166706" lon="11.0369333275">
		<tag k="name" v="Tomter" />
		<tag k="place" v="farm" />
		<tag k="ssr:stedsnr" v="853363" />
	</node>
	<node id="-15823" lat="59.6213305555" lon="11.0387638831">
		<tag k="name" v="Myrer" />
		<tag k="place" v="farm" />
		<tag k="ssr:stedsnr" v="853341" />
	</node>
	<node id="-15822" lat="59.5562111124" lon="11.0186666705">
		<tag k="name" v="Holt" />
		<tag k="place" v="farm" />
		<tag k="ssr:stedsnr" v="853207" />
	</node>
	<node id="-15821" lat="59.5542749971" lon="11.0242833418">
		<tag k="alt_name" v="Hagan" />
		<tag k="name" v="Hagen" />
		<tag k="place" v="farm" />
		<tag k="ssr:stedsnr" v="853203" />
	</node>
	<node id="-15819" lat="59.6039611122" lon="11.0348999918">
		<tag k="alt_name" v="Hauer;Hauger vestre" />
		<tag k="name" v="Vestre Hauger" />
		<tag k="place" v="farm" />
		<tag k="ssr:stedsnr" v="853033" />
	</node>
	<node id="-15816" lat="59.6736527793" lon="11.2190472277">
		<tag k="name" v="Hestehagen" />
		<tag k="place" v="farm" />
		<tag k="ssr:stedsnr" v="812143" />
	</node>
	<node id="-15815" lat="59.6619944403" lon="11.1896222301">
		<tag k="name" v="Haugland" />
		<tag k="place" v="farm" />
		<tag k="ssr:stedsnr" v="812134" />
	</node>
	<node id="-15814" lat="59.6633694454" lon="11.1792888907">
		<tag k="name" v="Hellerud" />
		<tag k="place" v="farm" />
		<tag k="ssr:stedsnr" v="812128" />
	</node>
	<node id="-15805" lat="59.6041777742" lon="11.0689138924">
		<tag k="alt_name" v="Vollene vestre" />
		<tag k="name" v="Vestre Vollene" />
		<tag k="place" v="farm" />
		<tag k="ssr:stedsnr" v="811650" />
	</node>
	<node id="-15804" lat="59.6150805515" lon="11.0684805634">
		<tag k="name" v="Holtet" />
		<tag k="place" v="isolated_dwelling" />
		<tag k="ssr:stedsnr" v="811648" />
	</node>
	<node id="-15801" lat="59.6775527822" lon="11.0991416677">
		<tag k="name" v="Haugerud" />
		<tag k="place" v="farm" />
		<tag k="ssr:stedsnr" v="810706" />
	</node>
	<node id="-15800" lat="59.6238833337" lon="11.137883336">
		<tag k="name" v="Sundås" />
		<tag k="place" v="farm" />
		<tag k="ssr:stedsnr" v="810657" />
	</node>
	<node id="-15799" lat="59.6260250006" lon="11.1148472275">
		<tag k="name" v="Åkeberg" />
		<tag k="place" v="farm" />
		<tag k="ssr:stedsnr" v="810653" />
	</node>
	<node id="-15798" lat="59.624716668" lon="11.0814666665">
		<tag k="name" v="Skuleberg" />
		<tag k="place" v="farm" />
		<tag k="ssr:stedsnr" v="810651" />
	</node>
	<node id="-15797" lat="59.6444666661" lon="11.1106305483">
		<tag k="name" v="Kåtorp" />
		<tag k="place" v="farm" />
		<tag k="ssr:stedsnr" v="793986" />
	</node>
	<node id="-15796" lat="59.6591632762" lon="11.176738933">
		<tag k="fixme" v="consider place=hamlet" />
		<tag k="name" v="Skråperud" />
		<tag k="place" v="farm" />
		<tag k="ssr:stedsnr" v="793776" />
	</node>
	<node id="-15795" lat="59.6580999996" lon="11.153861113">
		<tag k="name" v="Kallum" />
		<tag k="place" v="farm" />
		<tag k="ssr:stedsnr" v="793774" />
	</node>
	<node id="-15794" lat="59.5703888847" lon="11.0267027851">
		<tag k="alt_name" v="Unnerud vestre" />
		<tag k="name" v="Vestre Unnerud" />
		<tag k="place" v="farm" />
		<tag k="ssr:stedsnr" v="793222" />
	</node>
	<node id="-15793" lat="59.5125138918" lon="11.0673638824">
		<tag k="name" v="Risebru" />
		<tag k="place" v="farm" />
		<tag k="ssr:stedsnr" v="793022" />
	</node>
	<node id="-15791" lat="59.6110916636" lon="11.0990694389">
		<tag k="name" v="Østereng" />
		<tag k="place" v="farm" />
		<tag k="ssr:stedsnr" v="792910" />
	</node>
	<node id="-15789" lat="59.5746500005" lon="11.0961805468">
		<tag k="name" v="Skogen" />
		<tag k="place" v="farm" />
		<tag k="ssr:stedsnr" v="792606" />
	</node>
	<node id="-15788" lat="59.5438999983" lon="11.0937027776">
		<tag k="alt_name" v="Alvumdalen" />
		<tag k="name" v="Dal" />
		<tag k="place" v="farm" />
		<tag k="ssr:stedsnr" v="792500" />
	</node>
	<node id="-15787" lat="59.6301638925" lon="11.061522214">
		<tag k="alt_name" v="Hyllibråten" />
		<tag k="name" v="Bråten" />
		<tag k="place" v="farm" />
		<tag k="ssr:stedsnr" v="792293" />
	</node>
	<node id="-15786" lat="59.6355754343" lon="11.079537519">
		<tag k="fixme" v="consider place=hamlet" />
		<tag k="name" v="Dingstad" />
		<tag k="place" v="farm" />
		<tag k="ssr:stedsnr" v="792292" />
	</node>
	<node id="-15785" lat="59.5629888921" lon="11.0865499945">
		<tag k="alt_name" v="Skorrberg" />
		<tag k="name" v="Skorreberg" />
		<tag k="place" v="farm" />
		<tag k="ssr:stedsnr" v="792236" />
	</node>
	<node id="-15783" lat="59.6591722206" lon="11.1772250048">
		<tag k="alt_name" v="Skråperud søndre" />
		<tag k="name" v="Søndre Skråperud" />
		<tag k="place" v="farm" />
		<tag k="ssr:stedsnr" v="752092" />
	</node>
	<node id="-15782" lat="59.6604444474" lon="11.1785666735">
		<tag k="alt_name" v="Skråperud nordre" />
		<tag k="name" v="Nordre Skråperud" />
		<tag k="place" v="farm" />
		<tag k="ssr:stedsnr" v="752090" />
	</node>
	<node id="-15781" lat="59.6715249967" lon="11.220647215">
		<tag k="name" v="Englund" />
		<tag k="place" v="farm" />
		<tag k="ssr:stedsnr" v="752088" />
	</node>
	<node id="-15778" lat="59.5127111115" lon="11.0382861117">
		<tag k="name" v="Espenes" />
		<tag k="place" v="isolated_dwelling" />
		<tag k="ssr:stedsnr" v="750989" />
	</node>
	<node id="-15777" lat="59.5613888866" lon="10.9912694527">
		<tag k="name" v="Stenerud" />
		<tag k="place" v="farm" />
		<tag k="ssr:stedsnr" v="750978" />
	</node>
	<node id="-15770" lat="59.6642083331" lon="11.1549555481">
		<tag k="name" v="Hjertum" />
		<tag k="place" v="farm" />
		<tag k="ssr:stedsnr" v="750684" />
	</node>
	<node id="-15767" lat="59.5631333354" lon="11.0842416658">
		<tag k="name" v="Skorrberg" />
		<tag k="place" v="farm" />
		<tag k="ssr:stedsnr" v="750619" />
	</node>
	<node id="-15766" lat="59.6544972252" lon="11.1180055589">
		<tag k="alt_name" v="Berger søndre" />
		<tag k="name" v="Søndre Berger" />
		<tag k="place" v="farm" />
		<tag k="ssr:stedsnr" v="732778" />
	</node>
	<node id="-15765" lat="59.5544305589" lon="11.1059083315">
		<tag k="alt_name" v="Heli, søndre;Heli søndre" />
		<tag k="name" v="Søndre Heli" />
		<tag k="place" v="farm" />
		<tag k="ssr:stedsnr" v="732572" />
	</node>
	<node id="-15763" lat="59.5420999967" lon="11.1004361041">
		<tag k="name" v="Kiserud" />
		<tag k="place" v="farm" />
		<tag k="ssr:stedsnr" v="732543" />
	</node>
	<node id="-15762" lat="59.6869780311" lon="11.0799350612">
		<tag k="name" v="Kleiva" />
		<tag k="place" v="isolated_dwelling" />
		<tag k="ssr:stedsnr" v="732445" />
	</node>
	<node id="-15761" lat="59.5548167888" lon="11.0754568596">
		<tag k="alt_name" v="Børen øvre" />
		<tag k="name" v="Øvre Børen" />
		<tag k="place" v="farm" />
		<tag k="ssr:stedsnr" v="732261" />
	</node>
	<node id="-15760" lat="59.554566664" lon="11.0818861101">
		<tag k="name" v="Kleiver" />
		<tag k="place" v="farm" />
		<tag k="ssr:stedsnr" v="732242" />
	</node>
	<node id="-15758" lat="59.5681027742" lon="11.0864222166">
		<tag k="alt_name" v="Skorrberg øvre" />
		<tag k="name" v="Skorreberg" />
		<tag k="place" v="farm" />
		<tag k="ssr:stedsnr" v="732215" />
	</node>
	<node id="-15757" lat="59.5459249996" lon="11.0215361089">
		<tag k="alt_name" v="Harestad" />
		<tag k="name" v="Harastad" />
		<tag k="place" v="farm" />
		<tag k="ssr:stedsnr" v="732018" />
	</node>
	<node id="-15756" lat="59.6170805537" lon="11.0855777747">
		<tag k="name" v="Spydeberg" />
		<tag k="place" v="village" />
		<tag k="ssr:stedsnr" v="731297" />
	</node>
	<node id="-15755" lat="59.5550886305" lon="11.0751120605">
		<tag k="fixme" v="consider place=hamlet" />
		<tag k="name" v="Børen" />
		<tag k="place" v="farm" />
		<tag k="ssr:stedsnr" v="722326" />
	</node>
	<node id="-15744" lat="59.541297221" lon="11.1168888827">
		<tag k="name" v="Mjølkeberg" />
		<tag k="place" v="farm" />
		<tag k="ssr:stedsnr" v="689771" />
	</node>
	<node id="-15743" lat="59.5865527748" lon="11.058516667">
		<tag k="name" v="Siljestykket" />
		<tag k="place" v="locality" />
		<tag k="ssr:stedsnr" v="689753" />
	</node>
	<node id="-15742" lat="59.6126750037" lon="11.0205749923">
		<tag k="name" v="Ormerud" />
		<tag k="place" v="farm" />
		<tag k="ssr:stedsnr" v="689721" />
	</node>
	<node id="-15738" lat="59.6532333356" lon="11.1417388803">
		<tag k="alt_name" v="Solberg vestre" />
		<tag k="name" v="Vestre Solberg" />
		<tag k="place" v="farm" />
		<tag k="ssr:stedsnr" v="689678" />
	</node>
	<node id="-15736" lat="59.6565694433" lon="11.0942694385">
		<tag k="name" v="Frantsvoll" />
		<tag k="place" v="farm" />
		<tag k="ssr:stedsnr" v="689662" />
	</node>
	<node id="-15735" lat="59.6650277784" lon="11.1453611179">
		<tag k="name" v="Hvitstein" />
		<tag k="place" v="farm" />
		<tag k="ssr:stedsnr" v="689659" />
	</node>
	<node id="-15733" lat="59.6043138909" lon="11.0749027769">
		<tag k="name" v="Buerhøgda" />
		<tag k="place" v="farm" />
		<tag k="ssr:stedsnr" v="689613" />
	</node>
	<node id="-15732" lat="59.5641444435" lon="11.1044222215">
		<tag k="alt_name" v="Nordby mellem" />
		<tag k="name" v="Mellom-Nordby" />
		<tag k="place" v="farm" />
		<tag k="ssr:stedsnr" v="689581" />
	</node>
	<node id="-15731" lat="59.6287027778" lon="11.1145000012">
		<tag k="name" v="Åkeberg" />
		<tag k="place" v="farm" />
		<tag k="ssr:stedsnr" v="671966" />
	</node>
	<node id="-15729" lat="59.6068694483" lon="11.1058249919">
		<tag k="name" v="Doggetorp" />
		<tag k="place" v="farm" />
		<tag k="ssr:stedsnr" v="671902" />
	</node>
	<node id="-15728" lat="59.6654861084" lon="11.2258555632">
		<tag k="name" v="Sandvik" />
		<tag k="place" v="farm" />
		<tag k="ssr:stedsnr" v="671783" />
	</node>
	<node id="-15727" lat="59.669916665" lon="11.2225444518">
		<tag k="name" v="Skarpsno" />
		<tag k="place" v="farm" />
		<tag k="ssr:stedsnr" v="671782" />
	</node>
	<node id="-15726" lat="59.6447500027" lon="11.1495611168">
		<tag k="name" v="Holm" />
		<tag k="place" v="farm" />
		<tag k="ssr:stedsnr" v="671763" />
	</node>
	<node id="-15724" lat="59.6554055587" lon="11.1474416732">
		<tag k="alt_name" v="Glåmvik" />
		<tag k="name" v="Glomsvik" />
		<tag k="place" v="farm" />
		<tag k="ssr:stedsnr" v="671744" />
	</node>
	<node id="-15723" lat="59.5795611148" lon="11.0450722287">
		<tag k="name" v="Fjerdingen" />
		<tag k="place" v="farm" />
		<tag k="ssr:stedsnr" v="671160" />
	</node>
	<node id="-15722" lat="59.5211750002" lon="11.0372916726">
		<tag k="alt_name" v="Jammerbakke" />
		<tag k="name" v="Bakke" />
		<tag k="place" v="farm" />
		<tag k="ssr:stedsnr" v="671051" />
	</node>
	<node id="-15721" lat="59.541686112" lon="11.0022999977">
		<tag k="name" v="Høgås" />
		<tag k="place" v="farm" />
		<tag k="ssr:stedsnr" v="671021" />
	</node>
	<node id="-15720" lat="59.6204556546" lon="11.0642026949">
		<tag k="alt_name" v="Løvstad vestre;Vestre Løvstad" />
		<tag k="name" v="Vestre Løvestad" />
		<tag k="place" v="farm" />
		<tag k="ssr:stedsnr" v="670366" />
	</node>
	<node id="-15719" lat="59.620547218" lon="11.074391673">
		<tag k="name" v="Hylli" />
		<tag k="place" v="farm" />
		<tag k="ssr:stedsnr" v="670346" />
	</node>
	<node id="-15718" lat="59.6305527792" lon="11.0924472309">
		<tag k="name" v="Østvet" />
		<tag k="place" v="farm" />
		<tag k="ssr:stedsnr" v="670315" />
	</node>
	<node id="-15717" lat="59.6410055517" lon="11.0825916641">
		<tag k="alt_name" v="Hov vestre" />
		<tag k="name" v="Vestre Hov" />
		<tag k="place" v="farm" />
		<tag k="ssr:stedsnr" v="670292" />
	</node>
	<node id="-15716" lat="59.6372055541" lon="11.0688916597">
		<tag k="alt_name" v="Bøler vestby" />
		<tag k="name" v="Vestby" />
		<tag k="place" v="farm" />
		<tag k="ssr:stedsnr" v="670289" />
	</node>
	<node id="-15715" lat="59.5654888918" lon="11.0368750074">
		<tag k="name" v="Nygård" />
		<tag k="place" v="farm" />
		<tag k="ssr:stedsnr" v="671253" />
	</node>
	<node id="-15714" lat="59.5631416693" lon="11.0408611163">
		<tag k="fixme" v="consider place=hamlet" />
		<tag k="name" v="Skogrem" />
		<tag k="place" v="farm" />
		<tag k="ssr:stedsnr" v="671252" />
	</node>
	<node id="-15713" lat="59.5604722222" lon="11.0616666717">
		<tag k="alt_name" v="Skjersåker søndre" />
		<tag k="name" v="Skjersåker" />
		<tag k="place" v="farm" />
		<tag k="ssr:stedsnr" v="671250" />
	</node>
	<node id="-15712" lat="59.5488555546" lon="11.0221722226">
		<tag k="name" v="Langholen" />
		<tag k="place" v="farm" />
		<tag k="ssr:stedsnr" v="671228" />
	</node>
	<node id="-15711" lat="59.5656666634" lon="11.0751555568">
		<tag k="name" v="Østli" />
		<tag k="place" v="farm" />
		<tag k="ssr:stedsnr" v="671206" />
	</node>
	<node id="-15709" lat="59.5570222193" lon="11.0662583246">
		<tag k="alt_name" v="Børen nedre" />
		<tag k="name" v="Nedre Børen" />
		<tag k="place" v="farm" />
		<tag k="ssr:stedsnr" v="632632" />
	</node>
	<node id="-15704" lat="59.5474999993" lon="11.0746611128">
		<tag k="name" v="Petersborg" />
		<tag k="place" v="farm" />
		<tag k="ssr:stedsnr" v="628786" />
	</node>
	<node id="-15703" lat="59.6570555595" lon="11.0802361198">
		<tag k="name" v="Hustangen" />
		<tag k="place" v="isolated_dwelling" />
		<tag k="ssr:stedsnr" v="628694" />
	</node>
	<node id="-15701" lat="59.602175004" lon="11.0582527852">
		<tag k="name" v="Bjabergholtet" />
		<tag k="place" v="farm" />
		<tag k="ssr:stedsnr" v="628646" />
	</node>
	<node id="-15700" lat="59.6321833329" lon="11.1197777711">
		<tag k="alt_name" v="Hovin nordre" />
		<tag k="name" v="Nordre Hovin" />
		<tag k="place" v="farm" />
		<tag k="ssr:stedsnr" v="628643" />
	</node>
	<node id="-15699" lat="59.6253611103" lon="11.1070666632">
		<tag k="name" v="Gresshagen" />
		<tag k="place" v="farm" />
		<tag k="ssr:stedsnr" v="628640" />
	</node>
	<node id="-15698" lat="59.6319416664" lon="11.0609111191">
		<tag k="name" v="Leon" />
		<tag k="place" v="locality" />
		<tag k="ssr:stedsnr" v="628628" />
	</node>
	<node id="-15697" lat="59.5538583304" lon="11.0966388822">
		<tag k="name" v="Alvum" />
		<tag k="place" v="farm" />
		<tag k="ssr:stedsnr" v="611557" />
	</node>
	<node id="-15696" lat="59.6504500019" lon="11.1619777713">
		<tag k="name" v="Solli" />
		<tag k="place" v="locality" />
		<tag k="ssr:stedsnr" v="610999" />
	</node>
	<node id="-15695" lat="59.6222525058" lon="11.1005206096">
		<tag k="fixme" v="consider place=hamlet" />
		<tag k="name" v="Glenne" />
		<tag k="place" v="farm" />
		<tag k="ssr:stedsnr" v="610960" />
	</node>
	<node id="-15692" lat="59.6647388922" lon="11.1560805563">
		<tag k="name" v="Hjertum" />
		<tag k="place" v="farm" />
		<tag k="ssr:stedsnr" v="610810" />
	</node>
	<node id="-15691" lat="59.6709666624" lon="11.1288666618">
		<tag k="name" v="Vøyen" />
		<tag k="place" v="farm" />
		<tag k="ssr:stedsnr" v="610809" />
	</node>
	<node id="-15690" lat="59.6622277783" lon="11.1320583398">
		<tag k="name" v="Nordli" />
		<tag k="place" v="farm" />
		<tag k="ssr:stedsnr" v="610795" />
	</node>
	<node id="-15689" lat="59.6779083295" lon="11.0704583347">
		<tag k="name" v="Lystad" />
		<tag k="place" v="farm" />
		<tag k="ssr:stedsnr" v="610509" />
	</node>
	<node id="-15688" lat="59.5766750032" lon="11.0510750022">
		<tag k="name" v="Vestby" />
		<tag k="place" v="farm" />
		<tag k="ssr:stedsnr" v="610182" />
	</node>
	<node id="-15686" lat="59.5450499967" lon="11.0758138818">
		<tag k="name" v="Røtterud" />
		<tag k="place" v="farm" />
		<tag k="ssr:stedsnr" v="610024" />
	</node>
	<node id="-15684" lat="59.634663886" lon="11.0585722152">
		<tag k="name" v="Kvardal" />
		<tag k="place" v="farm" />
		<tag k="ssr:stedsnr" v="609310" />
	</node>
	<node id="-15683" lat="59.6522249996" lon="11.0532916696">
		<tag k="name" v="Bjørnstad" />
		<tag k="place" v="farm" />
		<tag k="ssr:stedsnr" v="609257" />
	</node>
	<node id="-15682" lat="59.6582416667" lon="11.0695499966">
		<tag k="name" v="Passop" />
		<tag k="place" v="farm" />
		<tag k="ssr:stedsnr" v="609241" />
	</node>
	<node id="-15680" lat="59.66748611" lon="11.2043638805">
		<tag k="name" v="Teverud" />
		<tag k="place" v="farm" />
		<tag k="ssr:stedsnr" v="569130" />
	</node>
	<node id="-15675" lat="59.5433472233" lon="11.0907388933">
		<tag k="name" v="Bjørnebekk" />
		<tag k="place" v="farm" />
		<tag k="ssr:stedsnr" v="567810" />
	</node>
	<node id="-15670" lat="59.6445305531" lon="11.1014111087">
		<tag k="alt_name" v="Galtebo nedre" />
		<tag k="name" v="Nedre Galtebo" />
		<tag k="place" v="farm" />
		<tag k="ssr:stedsnr" v="567708" />
	</node>
	<node id="-15669" lat="59.6636250019" lon="11.1518861162">
		<tag k="name" v="Fagerås" />
		<tag k="place" v="farm" />
		<tag k="ssr:stedsnr" v="567690" />
	</node>
	<node id="-15666" lat="59.6193972241" lon="11.1199638896">
		<tag k="name" v="Åssum" />
		<tag k="place" v="farm" />
		<tag k="ssr:stedsnr" v="567639" />
	</node>
	<node id="-15664" lat="59.6338222187" lon="11.0591222283">
		<tag k="name" v="Fjellstad" />
		<tag k="place" v="isolated_dwelling" />
		<tag k="ssr:stedsnr" v="567627" />
	</node>
	<node id="-15663" lat="59.5627527789" lon="11.0630222215">
		<tag k="name" v="Skjersåker" />
		<tag k="place" v="farm" />
		<tag k="ssr:stedsnr" v="567609" />
	</node>
	<node id="-15662" lat="59.5588583332" lon="10.9984722206">
		<tag k="alt_name" v="Granerud" />
		<tag k="name" v="Granrud" />
		<tag k="place" v="farm" />
		<tag k="ssr:stedsnr" v="610292" />
	</node>
	<node id="-15661" lat="59.561733336" lon="11.0842750085">
		<tag k="name" v="Prestby" />
		<tag k="place" v="farm" />
		<tag k="ssr:stedsnr" v="610286" />
	</node>
	<node id="-15660" lat="59.5713972218" lon="11.0354222205">
		<tag k="alt_name" v="Unnerud østre" />
		<tag k="name" v="Østre Unnerud" />
		<tag k="place" v="farm" />
		<tag k="ssr:stedsnr" v="610254" />
	</node>
	<node id="-15659" lat="59.5908749962" lon="11.0772749977">
		<tag k="alt_name" v="Prestegården" />
		<tag k="name" v="Vasstvet" />
		<tag k="place" v="farm" />
		<tag k="ssr:stedsnr" v="610213" />
	</node>
	<node id="-15658" lat="59.6375166623" lon="11.1429249947">
		<tag k="alt_name" v="Skoro østre" />
		<tag k="name" v="Østre Skoro" />
		<tag k="place" v="farm" />
		<tag k="ssr:stedsnr" v="550977" />
	</node>
	<node id="-15656" lat="59.6648694417" lon="11.1081305514">
		<tag k="name" v="Holtet" />
		<tag k="place" v="farm" />
		<tag k="ssr:stedsnr" v="550787" />
	</node>
	<node id="-15655" lat="59.6592972266" lon="11.135122223">
		<tag k="name" v="Li" />
		<tag k="place" v="farm" />
		<tag k="ssr:stedsnr" v="550776" />
	</node>
	<node id="-15654" lat="59.6585250043" lon="11.1072194365">
		<tag k="alt_name" v="Huseby vestre" />
		<tag k="name" v="Huseby" />
		<tag k="place" v="farm" />
		<tag k="ssr:stedsnr" v="550774" />
	</node>
	<node id="-15653" lat="59.5480416643" lon="11.0190805546">
		<tag k="alt_name" v="Kvarudmyren;Søndre Kvarud" />
		<tag k="fixme" v="multiple name tags, choose one and add the other to alt_name" />
		<tag k="name" v="Kvarud søndre;Kvarudmyra" />
		<tag k="place" v="farm" />
		<tag k="ssr:stedsnr" v="550232" />
	</node>
	<node id="-15652" lat="59.5402749978" lon="11.0847249938">
		<tag k="alt_name" v="Bjørneklemma" />
		<tag k="name" v="Klemma" />
		<tag k="place" v="farm" />
		<tag k="ssr:stedsnr" v="550026" />
	</node>
	<node id="-15650" lat="59.6216583379" lon="11.1235083261">
		<tag k="name" v="Saksebøl" />
		<tag k="place" v="farm" />
		<tag k="ssr:stedsnr" v="549943" />
	</node>
	<node id="-15649" lat="59.6772666637" lon="11.0792805477">
		<tag k="name" v="Dalen" />
		<tag k="place" v="farm" />
		<tag k="ssr:stedsnr" v="549437" />
	</node>
	<node id="-15648" lat="59.6774972262" lon="11.0545361159">
		<tag k="name" v="Eikeland" />
		<tag k="place" v="farm" />
		<tag k="ssr:stedsnr" v="549436" />
	</node>
	<node id="-15647" lat="59.6234972229" lon="11.092697229">
		<tag k="name" v="Husa" />
		<tag k="place" v="farm" />
		<tag k="ssr:stedsnr" v="549353" />
	</node>
	<node id="-15646" lat="59.6046499968" lon="11.0370083396">
		<tag k="alt_name" v="Hauger nordre" />
		<tag k="name" v="Hauer" />
		<tag k="place" v="farm" />
		<tag k="ssr:stedsnr" v="549157" />
	</node>
	<node id="-15645" lat="59.5249249994" lon="11.005133335">
		<tag k="fixme" v="consider place=hamlet" />
		<tag k="name" v="Mørk" />
		<tag k="place" v="farm" />
		<tag k="ssr:stedsnr" v="540308" />
	</node>
	<node id="-15644" lat="59.5921222179" lon="11.0590583372">
		<tag k="alt_name" v="Tunnby" />
		<tag k="name" v="Tunby" />
		<tag k="place" v="farm" />
		<tag k="ssr:stedsnr" v="530446" />
	</node>
	<node id="-15643" lat="59.6213166691" lon="11.1009194455">
		<tag k="alt_name" v="Glennde mellom" />
		<tag k="name" v="Mellom-Glenne" />
		<tag k="place" v="farm" />
		<tag k="ssr:stedsnr" v="529216" />
	</node>
	<node id="-15639" lat="59.6694888869" lon="11.2124138957">
		<tag k="name" v="Mørk" />
		<tag k="place" v="farm" />
		<tag k="ssr:stedsnr" v="509102" />
	</node>
	<node id="-15638" lat="59.6639111092" lon="11.2081583349">
		<tag k="name" v="Nes" />
		<tag k="place" v="farm" />
		<tag k="ssr:stedsnr" v="509097" />
	</node>
	<node id="-15634" lat="59.5846055598" lon="11.0310500037">
		<tag k="name" v="Sandvollen" />
		<tag k="place" v="farm" />
		<tag k="ssr:stedsnr" v="507798" />
	</node>
	<node id="-15630" lat="59.6751388862" lon="11.080091668">
		<tag k="name" v="Sandås" />
		<tag k="place" v="farm" />
		<tag k="ssr:stedsnr" v="507697" />
	</node>
	<node id="-15629" lat="59.6055888871" lon="11.103036109">
		<tag k="name" v="Hamborg" />
		<tag k="place" v="farm" />
		<tag k="ssr:stedsnr" v="507672" />
	</node>
	<node id="-15628" lat="59.6190472205" lon="11.0943555517">
		<tag k="name" v="Åsland" />
		<tag k="place" v="locality" />
		<tag k="ssr:stedsnr" v="507660" />
	</node>
	<node id="-15626" lat="59.6336777744" lon="11.1212361149">
		<tag k="alt_name" v="Trommelberg" />
		<tag k="fixme" v="consider place=hamlet" />
		<tag k="name" v="Trammelberg" />
		<tag k="old_name" v="Tromelberg" />
		<tag k="place" v="farm" />
		<tag k="ssr:stedsnr" v="489966" />
	</node>
	<node id="-15625" lat="59.6311249999" lon="11.0944333252">
		<tag k="name" v="Sørli" />
		<tag k="place" v="farm" />
		<tag k="ssr:stedsnr" v="489965" />
	</node>
	<node id="-15623" lat="59.6653138876" lon="11.1976111188">
		<tag k="name" v="Berger" />
		<tag k="place" v="farm" />
		<tag k="ssr:stedsnr" v="489795" />
	</node>
	<node id="-15622" lat="59.6694611084" lon="11.2106000007">
		<tag k="name" v="Mørk" />
		<tag k="place" v="farm" />
		<tag k="ssr:stedsnr" v="489794" />
	</node>
	<node id="-15620" lat="59.66275278" lon="11.1902166594">
		<tag k="name" v="Haugland" />
		<tag k="place" v="farm" />
		<tag k="ssr:stedsnr" v="489790" />
	</node>
	<node id="-15619" lat="59.648016666" lon="11.1382750023">
		<tag k="name" v="Ingstad" />
		<tag k="place" v="farm" />
		<tag k="ssr:stedsnr" v="489771" />
	</node>
	<node id="-15618" lat="59.5454583292" lon="11.1117750063">
		<tag k="name" v="Mjølkeberg" />
		<tag k="place" v="farm" />
		<tag k="ssr:stedsnr" v="489537" />
	</node>
	<node id="-15617" lat="59.5455249984" lon="11.1020138914">
		<tag k="name" v="Torp" />
		<tag k="place" v="farm" />
		<tag k="ssr:stedsnr" v="489525" />
	</node>
	<node id="-15616" lat="59.6792527745" lon="11.0620861047">
		<tag k="name" v="Amundrud" />
		<tag k="place" v="farm" />
		<tag k="ssr:stedsnr" v="489490" />
	</node>
	<node id="-15614" lat="59.5534555513" lon="11.0772166595">
		<tag k="name" v="Heiestad" />
		<tag k="place" v="farm" />
		<tag k="ssr:stedsnr" v="489261" />
	</node>
	<node id="-15612" lat="59.5938749964" lon="11.0648472193">
		<tag k="name" v="Bjaberg" />
		<tag k="place" v="farm" />
		<tag k="ssr:stedsnr" v="489139" />
	</node>
	<node id="-15609" lat="59.6618555537" lon="11.2250861038">
		<tag k="name" v="Vassbråten" />
		<tag k="place" v="farm" />
		<tag k="ssr:stedsnr" v="449098" />
	</node>
	<node id="-15606" lat="59.5718416666" lon="11.0548194363">
		<tag k="name" v="Dæli" />
		<tag k="place" v="farm" />
		<tag k="ssr:stedsnr" v="447981" />
	</node>
	<node id="-15602" lat="59.5427916693" lon="11.0873972256">
		<tag k="name" v="Skreppa" />
		<tag k="place" v="locality" />
		<tag k="ssr:stedsnr" v="447794" />
	</node>
	<node id="-15601" lat="59.5457305596" lon="11.1224027839">
		<tag k="name" v="Revhaug" />
		<tag k="place" v="farm" />
		<tag k="ssr:stedsnr" v="447788" />
	</node>
	<node id="-15599" lat="59.6751694441" lon="11.1492499995">
		<tag k="name" v="Tretterstykket" />
		<tag k="place" v="locality" />
		<tag k="ssr:stedsnr" v="447682" />
	</node>
	<node id="-15597" lat="59.6316722216" lon="11.1209055566">
		<tag k="alt_name" v="Hovin søndre" />
		<tag k="name" v="Søndre Hovin" />
		<tag k="place" v="farm" />
		<tag k="ssr:stedsnr" v="447633" />
	</node>
	<node id="-15596" lat="59.6341194444" lon="11.0799972289">
		<tag k="alt_name" v="Dingstad søndre" />
		<tag k="name" v="Søndre Dingstad" />
		<tag k="place" v="farm" />
		<tag k="ssr:stedsnr" v="447627" />
	</node>
	<node id="-15595" lat="59.5631638893" lon="11.1115138853">
		<tag k="alt_name" v="Nordby øvre" />
		<tag k="name" v="Øvre Nordby" />
		<tag k="place" v="farm" />
		<tag k="ssr:stedsnr" v="447608" />
	</node>
	<node id="-15594" lat="59.6488027795" lon="11.1385222252">
		<tag k="alt_name" v="Ingstad østre" />
		<tag k="name" v="Østre Ingstad" />
		<tag k="place" v="farm" />
		<tag k="ssr:stedsnr" v="446731" />
	</node>
	<node id="-15593" lat="59.6497527802" lon="11.1009611173">
		<tag k="name" v="Grinna" />
		<tag k="place" v="isolated_dwelling" />
		<tag k="ssr:stedsnr" v="446719" />
	</node>
	<node id="-15591" lat="59.6777194478" lon="11.0767888878">
		<tag k="name" v="Lystadhytta" />
		<tag k="place" v="isolated_dwelling" />
		<tag k="ssr:stedsnr" v="446697" />
	</node>
	<node id="-15590" lat="59.6727666659" lon="11.0673416683">
		<tag k="name" v="Gudbrandsdalen" />
		<tag k="place" v="farm" />
		<tag k="ssr:stedsnr" v="446696" />
	</node>
	<node id="-15589" lat="59.6105416707" lon="11.1094083369">
		<tag k="name" v="Østli" />
		<tag k="place" v="farm" />
		<tag k="ssr:stedsnr" v="446686" />
	</node>
	<node id="-15588" lat="59.6408444425" lon="11.0994916676">
		<tag k="name" v="Moen" />
		<tag k="place" v="farm" />
		<tag k="ssr:stedsnr" v="429987" />
	</node>
	<node id="-15587" lat="59.6522638896" lon="11.1454638883">
		<tag k="name" v="Solberg" />
		<tag k="place" v="farm" />
		<tag k="ssr:stedsnr" v="429763" />
	</node>
	<node id="-15586" lat="59.5557916643" lon="11.117024992">
		<tag k="name" v="Vrangen" />
		<tag k="place" v="farm" />
		<tag k="ssr:stedsnr" v="429503" />
	</node>
	<node id="-15585" lat="59.5853638866" lon="11.0870555467">
		<tag k="name" v="Haltorp" />
		<tag k="place" v="farm" />
		<tag k="ssr:stedsnr" v="429166" />
	</node>
	<node id="-15584" lat="59.5778888927" lon="11.0718583303">
		<tag k="alt_name" v="Rud vestre;Rud" />
		<tag k="name" v="Vestre Rud" />
		<tag k="place" v="farm" />
		<tag k="ssr:stedsnr" v="429149" />
	</node>
	<node id="-15582" lat="59.5420416666" lon="11.0184749913">
		<tag k="name" v="Bjørnstad" />
		<tag k="place" v="farm" />
		<tag k="ssr:stedsnr" v="429019" />
	</node>
	<node id="-15581" lat="59.5297277744" lon="11.000213894">
		<tag k="alt_name" v="Mørk nordre" />
		<tag k="name" v="Nordre Mørk" />
		<tag k="place" v="farm" />
		<tag k="ssr:stedsnr" v="429014" />
	</node>
	<node id="-15580" lat="59.6169861111" lon="11.0229333322">
		<tag k="alt_name" v="Kirkerud vestre;Kirkerud" />
		<tag k="name" v="Vestre Kirkerud" />
		<tag k="place" v="farm" />
		<tag k="ssr:stedsnr" v="428324" />
	</node>
	<node id="-15579" lat="59.6260888902" lon="11.0800888843">
		<tag k="name" v="Skuleberg" />
		<tag k="place" v="farm" />
		<tag k="ssr:stedsnr" v="428318" />
	</node>
	<node id="-15578" lat="59.5585777792" lon="11.0587888869">
		<tag k="name" v="Busterud" />
		<tag k="place" v="farm" />
		<tag k="ssr:stedsnr" v="428223" />
	</node>
	<node id="-15577" lat="59.6060833362" lon="11.0579916731">
		<tag k="alt_name" v="Eikeberg nordre" />
		<tag k="name" v="Eikeberg" />
		<tag k="place" v="farm" />
		<tag k="ssr:stedsnr" v="428131" />
	</node>
	<node id="-15576" lat="59.509005555" lon="11.0426361133">
		<tag k="name" v="Enga" />
		<tag k="place" v="farm" />
		<tag k="ssr:stedsnr" v="428082" />
	</node>
	<node id="-15575" lat="59.5474000025" lon="11.0795499968">
		<tag k="alt_name" v="Muskog" />
		<tag k="name" v="Moskau" />
		<tag k="place" v="farm" />
		<tag k="ssr:stedsnr" v="429215" />
	</node>
	<node id="-15574" lat="59.6825250006" lon="11.2049250032">
		<tag k="name" v="Kjerringstad" />
		<tag k="place" v="farm" />
		<tag k="ssr:stedsnr" v="266103" />
	</node>
	<node id="-15568" lat="59.5812888889" lon="11.0928166691">
		<tag k="name" v="Sørli" />
		<tag k="place" v="farm" />
		<tag k="ssr:stedsnr" v="264797" />
	</node>
	<node id="-15567" lat="59.581941667" lon="11.0639277726">
		<tag k="name" v="Presthagen" />
		<tag k="place" v="farm" />
		<tag k="ssr:stedsnr" v="264783" />
	</node>
	<node id="-15565" lat="59.6541277739" lon="11.1108444462">
		<tag k="name" v="Huseby" />
		<tag k="place" v="farm" />
		<tag k="ssr:stedsnr" v="264716" />
	</node>
	<node id="-15564" lat="59.6437444407" lon="11.0941277704">
		<tag k="name" v="Grønnlund" />
		<tag k="place" v="farm" />
		<tag k="ssr:stedsnr" v="264702" />
	</node>
	<node id="-15563" lat="59.6460611148" lon="11.0935583278">
		<tag k="name" v="Bergenhus" />
		<tag k="place" v="farm" />
		<tag k="ssr:stedsnr" v="264703" />
	</node>
	<node id="-15562" lat="59.6626833335" lon="11.1434583392">
		<tag k="name" v="Løvås" />
		<tag k="place" v="farm" />
		<tag k="ssr:stedsnr" v="264693" />
	</node>
	<node id="-15561" lat="59.671727774" lon="11.1544194423">
		<tag k="name" v="Tomta" />
		<tag k="place" v="locality" />
		<tag k="ssr:stedsnr" v="264686" />
	</node>
	<node id="-15557" lat="59.5575972193" lon="11.0985083285">
		<tag k="name" v="Nydalen" />
		<tag k="place" v="farm" />
		<tag k="ssr:stedsnr" v="264605" />
	</node>
	<node id="-15556" lat="59.572130555" lon="11.0868305544">
		<tag k="name" v="Skogly" />
		<tag k="place" v="farm" />
		<tag k="ssr:stedsnr" v="247201" />
	</node>
	<node id="-15555" lat="59.5193166659" lon="11.0200138858">
		<tag k="name" v="Fossen" />
		<tag k="place" v="farm" />
		<tag k="ssr:stedsnr" v="247051" />
	</node>
	<node id="-15554" lat="59.5423638874" lon="11.0044111095">
		<tag k="name" v="Sagbakken" />
		<tag k="place" v="farm" />
		<tag k="ssr:stedsnr" v="247020" />
	</node>
	<node id="-15553" lat="59.6157861129" lon="11.1132638864">
		<tag k="name" v="Bovum" />
		<tag k="place" v="farm" />
		<tag k="ssr:stedsnr" v="246918" />
	</node>
	<node id="-15552" lat="59.6879194425" lon="11.134458339">
		<tag k="name" v="Vøyentangen" />
		<tag k="place" v="neighbourhood" />
		<tag k="ssr:stedsnr" v="246801" />
	</node>
	<node id="-15551" lat="59.5374416632" lon="11.1168805616">
		<tag k="name" v="Anstensrud" />
		<tag k="place" v="farm" />
		<tag k="ssr:stedsnr" v="246483" />
	</node>
	<node id="-15550" lat="59.678977776" lon="11.0324416695">
		<tag k="alt_name" v="Nesset" />
		<tag k="name" v="Nesa" />
		<tag k="place" v="farm" />
		<tag k="ssr:stedsnr" v="246421" />
	</node>
	<node id="-15549" lat="59.5510916666" lon="11.0924305468">
		<tag k="name" v="Ås" />
		<tag k="place" v="farm" />
		<tag k="ssr:stedsnr" v="246227" />
	</node>
	<node id="-15548" lat="59.6101194414" lon="11.0410138855">
		<tag k="name" v="Skøyen" />
		<tag k="place" v="farm" />
		<tag k="ssr:stedsnr" v="246149" />
	</node>
	<node id="-15547" lat="59.6044416689" lon="11.0544166675">
		<tag k="alt_name" v="Molle, østre;Molle" />
		<tag k="name" v="Østre Molle" />
		<tag k="place" v="farm" />
		<tag k="ssr:stedsnr" v="246150" />
	</node>
	<node id="-15546" lat="59.6057972242" lon="11.0716194486">
		<tag k="name" v="Rud" />
		<tag k="place" v="farm" />
		<tag k="ssr:stedsnr" v="246139" />
	</node>
	<node id="-15544" lat="59.5097083291" lon="11.0653749934">
		<tag k="name" v="Solli" />
		<tag k="place" v="farm" />
		<tag k="ssr:stedsnr" v="246077" />
	</node>
	<node id="-15542" lat="59.6402944435" lon="11.0881416621">
		<tag k="fixme" v="consider place=hamlet" />
		<tag k="name" v="Hov" />
		<tag k="place" v="farm" />
		<tag k="ssr:stedsnr" v="237328" />
	</node>
	<node id="-15541" lat="59.5841861131" lon="11.0258666735">
		<tag k="name" v="Bjørkebakke" />
		<tag k="place" v="farm" />
		<tag k="ssr:stedsnr" v="204777" />
	</node>
	<node id="-15540" lat="59.5868888886" lon="11.0621666748">
		<tag k="name" v="Underlannet" />
		<tag k="place" v="locality" />
		<tag k="ssr:stedsnr" v="204771" />
	</node>
	<node id="-15538" lat="59.6488833323" lon="11.1368305548">
		<tag k="alt_name" v="Ingstad vestre" />
		<tag k="name" v="Vestre Ingstad" />
		<tag k="place" v="farm" />
		<tag k="ssr:stedsnr" v="204686" />
	</node>
	<node id="-15533" lat="59.6144055554" lon="11.1157777853">
		<tag k="name" v="Bovum" />
		<tag k="place" v="isolated_dwelling" />
		<tag k="ssr:stedsnr" v="204649" />
	</node>
	<node id="-15532" lat="59.6048166635" lon="11.0997805597">
		<tag k="name" v="Torget" />
		<tag k="place" v="isolated_dwelling" />
		<tag k="ssr:stedsnr" v="204640" />
	</node>
	<node id="-15529" lat="59.5645722211" lon="11.0961972282">
		<tag k="name" v="Prestby" />
		<tag k="place" v="farm" />
		<tag k="ssr:stedsnr" v="204597" />
	</node>
	<node id="-15527" lat="59.6368805572" lon="11.13593056">
		<tag k="alt_name" v="Skoro vestre" />
		<tag k="name" v="Vestre Skoro" />
		<tag k="place" v="farm" />
		<tag k="ssr:stedsnr" v="186975" />
	</node>
	<node id="-15526" lat="59.645422226" lon="11.1022305585">
		<tag k="alt_name" v="Galtebo" />
		<tag k="name" v="Galtebu" />
		<tag k="place" v="farm" />
		<tag k="ssr:stedsnr" v="186778" />
	</node>
	<node id="-15525" lat="59.651494449" lon="11.1081249918">
		<tag k="name" v="Østby" />
		<tag k="place" v="farm" />
		<tag k="ssr:stedsnr" v="186777" />
	</node>
	<node id="-15523" lat="59.6681388907" lon="11.193730562">
		<tag k="name" v="Sandum" />
		<tag k="place" v="farm" />
		<tag k="ssr:stedsnr" v="186810" />
	</node>
	<node id="-15522" lat="59.5515416677" lon="11.107219445">
		<tag k="name" v="Fagerhøy" />
		<tag k="place" v="farm" />
		<tag k="ssr:stedsnr" v="186598" />
	</node>
	<node id="-15521" lat="59.5701527754" lon="11.0550722139">
		<tag k="name" v="Dæli" />
		<tag k="place" v="farm" />
		<tag k="ssr:stedsnr" v="186205" />
	</node>
	<node id="-15520" lat="59.5917111121" lon="11.0874416592">
		<tag k="name" v="Dalen" />
		<tag k="place" v="farm" />
		<tag k="ssr:stedsnr" v="186124" />
	</node>
	<node id="-15519" lat="59.506152774" lon="11.0571833411">
		<tag k="alt_name" v="Ødegården" />
		<tag k="name" v="Ødegård" />
		<tag k="place" v="farm" />
		<tag k="ssr:stedsnr" v="186078" />
	</node>
	<node id="-15517" lat="59.5205583317" lon="10.9901055617">
		<tag k="name" v="Sagstua" />
		<tag k="place" v="farm" />
		<tag k="ssr:stedsnr" v="186060" />
	</node>
	<node id="-15513" lat="59.6117722182" lon="11.0828888938">
		<tag k="name" v="Løken" />
		<tag k="place" v="farm" />
		<tag k="ssr:stedsnr" v="185347" />
	</node>
	<node id="-15512" lat="59.6168916655" lon="11.0284222179">
		<tag k="alt_name" v="Kirkerud nordre;Kirkerud" />
		<tag k="name" v="Nordre Kirkerud" />
		<tag k="place" v="farm" />
		<tag k="ssr:stedsnr" v="185341" />
	</node>
	<node id="-15511" lat="59.6422138876" lon="11.0594972211">
		<tag k="alt_name" v="Bøler vestre" />
		<tag k="name" v="Bøler" />
		<tag k="place" v="farm" />
		<tag k="ssr:stedsnr" v="185279" />
	</node>
	<node id="-15510" lat="59.6471555599" lon="11.0639500003">
		<tag k="name" v="Vien" />
		<tag k="place" v="farm" />
		<tag k="ssr:stedsnr" v="185257" />
	</node>
	<node id="-15509" lat="59.6494333304" lon="11.0440527756">
		<tag k="name" v="Rustad" />
		<tag k="place" v="farm" />
		<tag k="ssr:stedsnr" v="185258" />
	</node>
	<node id="-15508" lat="59.6543149683" lon="11.0629868314">
		<tag k="alt_name" v="Tolerud, søndre;Torud søndre;Tolerud søndre" />
		<tag k="name" v="Søndre Tolerud" />
		<tag k="place" v="farm" />
		<tag k="ssr:stedsnr" v="185236" />
	</node>
	<node id="-15503" lat="59.5934916673" lon="11.0696444457">
		<tag k="name" v="Klippen" />
		<tag k="place" v="farm" />
		<tag k="ssr:stedsnr" v="143768" />
	</node>
	<node id="-15502" lat="59.5763305589" lon="11.0505499923">
		<tag k="alt_name" v="Vestby østre" />
		<tag k="name" v="Østre Vestby" />
		<tag k="place" v="farm" />
		<tag k="ssr:stedsnr" v="143762" />
	</node>
	<node id="-15500" lat="59.6561333302" lon="11.1119416656">
		<tag k="alt_name" v="Huseby østre" />
		<tag k="name" v="Østre Huseby" />
		<tag k="place" v="isolated_dwelling" />
		<tag k="ssr:stedsnr" v="143704" />
	</node>
	<node id="-15499" lat="59.6438333373" lon="11.1491333392">
		<tag k="alt_name" v="Holm søndre" />
		<tag k="name" v="Søndre Holm" />
		<tag k="place" v="farm" />
		<tag k="ssr:stedsnr" v="143698" />
	</node>
	<node id="-15497" lat="59.64119444" lon="11.0964750027">
		<tag k="name" v="Frydenlund" />
		<tag k="place" v="farm" />
		<tag k="ssr:stedsnr" v="143693" />
	</node>
	<node id="-15496" lat="59.6494305536" lon="11.0925944441">
		<tag k="name" v="Nordenga" />
		<tag k="place" v="farm" />
		<tag k="ssr:stedsnr" v="143691" />
	</node>
	<node id="-15494" lat="59.6717138889" lon="11.0857027854">
		<tag k="name" v="Veslerud" />
		<tag k="place" v="isolated_dwelling" />
		<tag k="ssr:stedsnr" v="143681" />
	</node>
	<node id="-15492" lat="59.604633331" lon="11.0706194512">
		<tag k="alt_name" v="Vollene østre" />
		<tag k="name" v="Østre Vollene" />
		<tag k="place" v="farm" />
		<tag k="ssr:stedsnr" v="143655" />
	</node>
	<node id="-15491" lat="59.6212250045" lon="11.0749777748">
		<tag k="alt_name" v="Hylli nordre" />
		<tag k="name" v="Nordre Hylli" />
		<tag k="place" v="farm" />
		<tag k="ssr:stedsnr" v="143643" />
	</node>
	<node id="-15489" lat="59.5614722187" lon="11.0843583399">
		<tag k="name" v="Skorrberg" />
		<tag k="place" v="farm" />
		<tag k="ssr:stedsnr" v="143627" />
	</node>
	<node id="-15488" lat="59.6525861093" lon="11.1553527713">
		<tag k="alt_name" v="Tonnerud" />
		<tag k="name" v="Tonerud" />
		<tag k="place" v="farm" />
		<tag k="ssr:stedsnr" v="125999" />
	</node>
	<node id="-15487" lat="59.6624499982" lon="11.2072944481">
		<tag k="name" v="Flateby" />
		<tag k="place" v="farm" />
		<tag k="ssr:stedsnr" v="125810" />
	</node>
	<node id="-15486" lat="59.5646111139" lon="11.046466674">
		<tag k="name" v="Voll" />
		<tag k="place" v="farm" />
		<tag k="ssr:stedsnr" v="125272" />
	</node>
	<node id="-15485" lat="59.5514583374" lon="10.991150009">
		<tag k="name" v="Slorebråten" />
		<tag k="place" v="farm" />
		<tag k="ssr:stedsnr" v="125262" />
	</node>
	<node id="-15484" lat="59.5586638926" lon="11.0163166714">
		<tag k="alt_name" v="Raukleiva" />
		<tag k="name" v="Rødkleiva" />
		<tag k="place" v="isolated_dwelling" />
		<tag k="ssr:stedsnr" v="125214" />
	</node>
	<node id="-15482" lat="59.5857277769" lon="11.0812138877">
		<tag k="name" v="Hesleskog" />
		<tag k="place" v="farm" />
		<tag k="ssr:stedsnr" v="125186" />
	</node>
	<node id="-15481" lat="59.6064111077" lon="11.0911750038">
		<tag k="alt_name" v="Fossum vestre" />
		<tag k="name" v="Fossum" />
		<tag k="place" v="farm" />
		<tag k="ssr:stedsnr" v="125148" />
	</node>
	<node id="-15479" lat="59.5373027742" lon="11.0022888959">
		<tag k="name" v="Åserud" />
		<tag k="place" v="farm" />
		<tag k="ssr:stedsnr" v="125032" />
	</node>
	<node id="-15477" lat="59.6578500044" lon="11.0623944444">
		<tag k="alt_name" v="Tolerud, nordre;Torud Nordre" />
		<tag k="name" v="Nordre Tolerud" />
		<tag k="place" v="farm" />
		<tag k="ssr:stedsnr" v="124205" />
	</node>
	<node id="-15473" lat="59.6222659879" lon="11.1009202014">
		<tag k="alt_name" v="Glennde nordre" />
		<tag k="name" v="Nordre Glenne" />
		<tag k="place" v="farm" />
		<tag k="ssr:stedsnr" v="103652" />
	</node>
	<node id="-15471" lat="59.5690472226" lon="11.0264999952">
		<tag k="name" v="Sletner" />
		<tag k="place" v="farm" />
		<tag k="ssr:stedsnr" v="82976" />
	</node>
	<node id="-15463" lat="59.6410249984" lon="11.1505222216">
		<tag k="name" v="Danmark" />
		<tag k="place" v="farm" />
		<tag k="ssr:stedsnr" v="82706" />
	</node>
	<node id="-15462" lat="59.6415722231" lon="11.1365833404">
		<tag k="name" v="Bølermyra" />
		<tag k="place" v="farm" />
		<tag k="ssr:stedsnr" v="82700" />
	</node>
	<node id="-15461" lat="59.6580666663" lon="11.0691083368">
		<tag k="alt_name" v="Passopp søndre" />
		<tag k="name" v="Søndre Passopp" />
		<tag k="place" v="farm" />
		<tag k="ssr:stedsnr" v="82696" />
	</node>
	<node id="-15459" lat="59.6626694428" lon="11.1001527693">
		<tag k="alt_name" v="Hjørnerud" />
		<tag k="name" v="Jørnerud" />
		<tag k="place" v="farm" />
		<tag k="ssr:stedsnr" v="82683" />
	</node>
	<node id="-15457" lat="59.6121611111" lon="11.079105563">
		<tag k="alt_name" v="Løken nordre" />
		<tag k="name" v="Nordre Løken" />
		<tag k="place" v="farm" />
		<tag k="ssr:stedsnr" v="82647" />
	</node>
	<node id="-15456" lat="59.6165055588" lon="11.0594194416">
		<tag k="name" v="Lundeby" />
		<tag k="place" v="farm" />
		<tag k="ssr:stedsnr" v="82643" />
	</node>
	<node id="-15455" lat="59.5859861086" lon="11.0757333341">
		<tag k="name" v="Giltvet" />
		<tag k="place" v="farm" />
		<tag k="ssr:stedsnr" v="65178" />
	</node>
	<node id="-15454" lat="59.5778138912" lon="11.0782277714">
		<tag k="alt_name" v="Rud østre;Rud" />
		<tag k="name" v="Østre Rud" />
		<tag k="place" v="farm" />
		<tag k="ssr:stedsnr" v="65153" />
	</node>
	<node id="-15453" lat="59.5149055569" lon="10.9820111055">
		<tag k="alt_name" v="Havnedalen" />
		<tag k="name" v="Havnadalen" />
		<tag k="place" v="farm" />
		<tag k="ssr:stedsnr" v="65051" />
	</node>
	<node id="-15452" lat="59.5137000026" lon="11.0713777781">
		<tag k="name" v="Holstein" />
		<tag k="place" v="farm" />
		<tag k="ssr:stedsnr" v="65026" />
	</node>
	<node id="-15451" lat="59.6639638876" lon="11.2159694404">
		<tag k="name" v="Nes" />
		<tag k="place" v="farm" />
		<tag k="ssr:stedsnr" v="64805" />
	</node>
	<node id="-15449" lat="59.6172972202" lon="11.0473999955">
		<tag k="alt_name" v="Myrvold" />
		<tag k="name" v="Myrvoll" />
		<tag k="place" v="farm" />
		<tag k="ssr:stedsnr" v="64363" />
	</node>
	<node id="-15448" lat="59.6165120757" lon="11.0627929984">
		<tag k="name" v="Li" />
		<tag k="place" v="farm" />
		<tag k="ssr:stedsnr" v="64360" />
	</node>
	<node id="-15447" lat="59.548830552" lon="11.0725777831">
		<tag k="name" v="Petersborg" />
		<tag k="place" v="farm" />
		<tag k="ssr:stedsnr" v="64225" />
	</node>
	<node id="-15446" lat="59.602908331" lon="11.0276527764">
		<tag k="alt_name" v="Kokkstad" />
		<tag k="name" v="Kokstad" />
		<tag k="place" v="farm" />
		<tag k="ssr:stedsnr" v="64141" />
	</node>
	<node id="-15445" lat="59.6654749975" lon="11.0490250046">
		<tag k="name" v="Svennebyhytta" />
		<tag k="place" v="isolated_dwelling" />
		<tag k="ssr:stedsnr" v="63497" />
	</node>
	<node id="-15444" lat="59.665411114" lon="11.0973333296">
		<tag k="fixme" v="consider place=hamlet" />
		<tag k="name" v="Holli" />
		<tag k="old_name" v="Holi" />
		<tag k="place" v="farm" />
		<tag k="ssr:stedsnr" v="54785" />
	</node>
	<node id="-15443" lat="59.5264694483" lon="11.0451944503">
		<tag k="name" v="Mamrelundstykket" />
		<tag k="place" v="locality" />
		<tag k="ssr:stedsnr" v="22998" />
	</node>
	<node id="-15441" lat="59.5760222221" lon="11.048633337">
		<tag k="alt_name" v="Vestby vestre" />
		<tag k="name" v="Vestre Vestby" />
		<tag k="place" v="farm" />
		<tag k="ssr:stedsnr" v="22778" />
	</node>
	<node id="-15440" lat="59.5545138905" lon="11.0271333356">
		<tag k="name" v="Hagaenga" />
		<tag k="place" v="farm" />
		<tag k="ssr:stedsnr" v="22770" />
	</node>
	<node id="-15439" lat="59.65235556" lon="11.1454138892">
		<tag k="alt_name" v="Solberg østre" />
		<tag k="name" v="Østre Solberg" />
		<tag k="place" v="farm" />
		<tag k="ssr:stedsnr" v="22708" />
	</node>
	<node id="-15437" lat="59.6668000035" lon="11.1573583311">
		<tag k="name" v="Hekkemyra" />
		<tag k="place" v="farm" />
		<tag k="ssr:stedsnr" v="22689" />
	</node>
	<node id="-15436" lat="59.6134416625" lon="11.0934027802">
		<tag k="alt_name" v="Sølberg søndre" />
		<tag k="name" v="Søndre Sølberg" />
		<tag k="place" v="farm" />
		<tag k="ssr:stedsnr" v="22662" />
	</node>
	<node id="-15435" lat="59.6046583368" lon="11.0598305506">
		<tag k="alt_name" v="Eikeberg søndre" />
		<tag k="name" v="Ekeberg" />
		<tag k="place" v="farm" />
		<tag k="ssr:stedsnr" v="22649" />
	</node>
	<node id="-15433" lat="59.6257111125" lon="11.0959055585">
		<tag k="name" v="Espenes" />
		<tag k="place" v="farm" />
		<tag k="ssr:stedsnr" v="22638" />
	</node>
	<node id="-15432" lat="59.6200833294" lon="11.0743472262">
		<tag k="alt_name" v="Hylli søndre" />
		<tag k="name" v="Søndre Hylli" />
		<tag k="place" v="farm" />
		<tag k="ssr:stedsnr" v="22634" />
	</node>
	<node id="-15431" lat="59.6351815947" lon="11.0791770659">
		<tag k="alt_name" v="Dingstad nordre" />
		<tag k="name" v="Nordre Dingstad" />
		<tag k="place" v="farm" />
		<tag k="ssr:stedsnr" v="22635" />
	</node>
	<node id="-15430" lat="59.6372444427" lon="11.0955249964">
		<tag k="name" v="Ramstad" />
		<tag k="place" v="farm" />
		<tag k="ssr:stedsnr" v="4985" />
	</node>
	<node id="-15428" lat="59.6806249968" lon="11.0949250081">
		<tag k="name" v="Tangen" />
		<tag k="place" v="farm" />
		<tag k="ssr:stedsnr" v="4832" />
	</node>
	<node id="-15427" lat="59.6721666676" lon="11.1246249921">
		<tag k="name" v="Haugen" />
		<tag k="place" v="farm" />
		<tag k="ssr:stedsnr" v="4828" />
	</node>
	<node id="-15426" lat="59.676602775" lon="11.0954277739">
		<tag k="alt_name" v="Rud vestre" />
		<tag k="name" v="Rud" />
		<tag k="place" v="farm" />
		<tag k="ssr:stedsnr" v="4829" />
	</node>
	<node id="-15425" lat="59.6699777824" lon="11.1520666586">
		<tag k="alt_name" v="Hestehagen" />
		<tag k="name" v="Hesthagen" />
		<tag k="place" v="farm" />
		<tag k="ssr:stedsnr" v="4818" />
	</node>
	<node id="-15423" lat="59.5568611139" lon="11.1035500082">
		<tag k="alt_name" v="Heli, nordre;Heli nordre" />
		<tag k="name" v="Nordre Heli" />
		<tag k="place" v="farm" />
		<tag k="ssr:stedsnr" v="4528" />
	</node>
	<node id="-15422" lat="59.6830750038" lon="11.0715222302">
		<tag k="name" v="Hallerud" />
		<tag k="place" v="farm" />
		<tag k="ssr:stedsnr" v="4417" />
	</node>
	<node id="-15421" lat="59.6838861108" lon="11.0900833396">
		<tag k="name" v="Haukenes" />
		<tag k="place" v="farm" />
		<tag k="ssr:stedsnr" v="4416" />
	</node>
	<node id="-15420" lat="59.5511555538" lon="11.0272805506">
		<tag k="name" v="Sandås" />
		<tag k="place" v="farm" />
		<tag k="ssr:stedsnr" v="4224" />
	</node>
	<node id="-15419" lat="59.6039888861" lon="11.047122216">
		<tag k="alt_name" v="Molle, vestre;Molle" />
		<tag k="name" v="Vestre Molle" />
		<tag k="place" v="farm" />
		<tag k="ssr:stedsnr" v="4163" />
	</node>
	<node id="-15416" lat="59.5218250027" lon="11.0315833333">
		<tag k="name" v="Roås" />
		<tag k="place" v="farm" />
		<tag k="ssr:stedsnr" v="4008" />
	</node>
	<node id="-15414" lat="59.6243694436" lon="11.1175444493">
		<tag k="alt_name" v="Åssum" />
		<tag k="name" v="Åsum" />
		<tag k="place" v="farm" />
		<tag k="ssr:stedsnr" v="3951" />
	</node>
	<node id="-15413" lat="59.5375944487" lon="11.1018888886">
		<tag k="name" v="Svinningen" />
		<tag k="place" v="farm" />
		<tag k="ssr:stedsnr" v="3717" />
	</node>
	<node id="-15412" lat="59.6760527739" lon="11.0414833375">
		<tag k="name" v="Svenneby" />
		<tag k="place" v="farm" />
		<tag k="ssr:stedsnr" v="3419" />
	</node>
	<node id="-15411" lat="59.5652750019" lon="11.061375005">
		<tag k="alt_name" v="Skjersåker øvre" />
		<tag k="name" v="Skjersåker" />
		<tag k="place" v="farm" />
		<tag k="ssr:stedsnr" v="3217" />
	</node>
	<node id="-15409" lat="59.6194475943" lon="11.0663635008">
		<tag k="fixme" v="consider place=hamlet" />
		<tag k="name" v="Løvestad" />
		<tag k="place" v="farm" />
		<tag k="ssr:stedsnr" v="986160" />
	</node>
	<node id="-15408" lat="59.6817871787" lon="11.1555036569">
		<tag k="name" v="Skimtefjellhytta" />
		<tag k="place" v="locality" />
		<tag k="ssr:stedsnr" v="982325" />
	</node>
	<node id="-15406" lat="59.620044447" lon="11.1023805526">
		<tag k="alt_name" v="Glennde søndre" />
		<tag k="name" v="Søndre Glenne" />
		<tag k="place" v="farm" />
		<tag k="ssr:stedsnr" v="892636" />
	</node>
	<node id="-15401" lat="59.666113888" lon="11.1758444375">
		<tag k="name" v="Funkerud" />
		<tag k="place" v="farm" />
		<tag k="ssr:stedsnr" v="387133" />
	</node>
	<node id="-15397" lat="59.6795888904" lon="11.0357416734">
		<tag k="name" v="Bjerklund" />
		<tag k="place" v="isolated_dwelling" />
		<tag k="ssr:stedsnr" v="385760" />
	</node>
	<node id="-15396" lat="59.681230557" lon="11.0967499988">
		<tag k="name" v="Tangen" />
		<tag k="place" v="locality" />
		<tag k="ssr:stedsnr" v="385746" />
	</node>
	<node id="-15394" lat="59.6062416708" lon="11.0956583322">
		<tag k="alt_name" v="Fossum nordre" />
		<tag k="name" v="Nordre Fossum" />
		<tag k="place" v="farm" />
		<tag k="ssr:stedsnr" v="385683" />
	</node>
	<node id="-15391" lat="59.6206277779" lon="11.1118694465">
		<tag k="alt_name" v="Glennde østre" />
		<tag k="name" v="Østre Glenne" />
		<tag k="place" v="farm" />
		<tag k="ssr:stedsnr" v="385666" />
	</node>
	<node id="-15390" lat="59.6346888873" lon="11.058811109">
		<tag k="name" v="Gullberg" />
		<tag k="place" v="isolated_dwelling" />
		<tag k="ssr:stedsnr" v="385649" />
	</node>
	<node id="-15389" lat="59.554216663" lon="11.0918916606">
		<tag k="name" v="Bergli" />
		<tag k="place" v="farm" />
		<tag k="ssr:stedsnr" v="385636" />
	</node>
	<node id="-15388" lat="59.6554388873" lon="11.1277527705">
		<tag k="name" v="Ligott" />
		<tag k="place" v="farm" />
		<tag k="ssr:stedsnr" v="385734" />
	</node>
	<node id="-15387" lat="59.6686305567" lon="11.1005749942">
		<tag k="name" v="Smedhytta" />
		<tag k="place" v="isolated_dwelling" />
		<tag k="ssr:stedsnr" v="385715" />
	</node>
	<node id="-15385" lat="59.6378805525" lon="11.106827784">
		<tag k="name" v="Hesle" />
		<tag k="place" v="farm" />
		<tag k="ssr:stedsnr" v="368986" />
	</node>
	<node id="-15384" lat="59.6380000036" lon="11.1364999987">
		<tag k="alt_name" v="Skoro nordre" />
		<tag k="fixme" v="multiple name tags, choose one and add the other to alt_name" />
		<tag k="name" v="Skoro;Nordre Skoro" />
		<tag k="place" v="farm" />
		<tag k="ssr:stedsnr" v="368985" />
	</node>
	<node id="-15383" lat="59.6801194413" lon="11.1066388878">
		<tag k="name" v="Kula" />
		<tag k="place" v="farm" />
		<tag k="ssr:stedsnr" v="368840" />
	</node>
	<node id="-15382" lat="59.6583861116" lon="11.118447214">
		<tag k="alt_name" v="Berger nordre" />
		<tag k="name" v="Nordre Berger" />
		<tag k="place" v="farm" />
		<tag k="ssr:stedsnr" v="368814" />
	</node>
	<node id="-15381" lat="59.5506749959" lon="11.021855552">
		<tag k="alt_name" v="Kvarud nordre;Kvarud" />
		<tag k="name" v="Nordre Kvarud" />
		<tag k="place" v="farm" />
		<tag k="ssr:stedsnr" v="368246" />
	</node>
	<node id="-15380" lat="59.5665138888" lon="11.0430583405">
		<tag k="name" v="Sundby" />
		<tag k="place" v="farm" />
		<tag k="ssr:stedsnr" v="368229" />
	</node>
	<node id="-15379" lat="59.6057750027" lon="11.0871499993">
		<tag k="alt_name" v="Løken søndre" />
		<tag k="name" v="Løken" />
		<tag k="place" v="farm" />
		<tag k="ssr:stedsnr" v="368162" />
	</node>
	<node id="-15378" lat="59.5986555527" lon="11.0668638972">
		<tag k="alt_name" v="Grinna" />
		<tag k="name" v="Grinda" />
		<tag k="place" v="farm" />
		<tag k="ssr:stedsnr" v="368146" />
	</node>
	<node id="-15377" lat="59.5211499962" lon="11.0815222223">
		<tag k="name" v="Mulerud" />
		<tag k="place" v="farm" />
		<tag k="ssr:stedsnr" v="368054" />
	</node>
	<node id="-15376" lat="59.6039888887" lon="11.0939833387">
		<tag k="name" v="Fossum" />
		<tag k="place" v="farm" />
		<tag k="ssr:stedsnr" v="368040" />
	</node>
	<node id="-15375" lat="59.5133999988" lon="11.0451805551">
		<tag k="name" v="Trollerud" />
		<tag k="place" v="farm" />
		<tag k="ssr:stedsnr" v="368039" />
	</node>
	<node id="-15374" lat="59.5252972206" lon="11.0049416617">
		<tag k="alt_name" v="Mørk søndre" />
		<tag k="name" v="Søndre Mørk" />
		<tag k="place" v="farm" />
		<tag k="ssr:stedsnr" v="368012" />
	</node>
	<node id="-15373" lat="59.6141361103" lon="11.0524749981">
		<tag k="name" v="Tronstad" />
		<tag k="place" v="farm" />
		<tag k="ssr:stedsnr" v="367303" />
	</node>
	<node id="-15372" lat="59.6434305599" lon="11.0757333384">
		<tag k="name" v="Kausebøl" />
		<tag k="place" v="farm" />
		<tag k="ssr:stedsnr" v="367241" />
	</node>
	<node id="-15371" lat="59.64438611" lon="11.049922216">
		<tag k="name" v="Asper" />
		<tag k="place" v="farm" />
		<tag k="ssr:stedsnr" v="367240" />
	</node>
	<node id="-15368" lat="59.5709083362" lon="11.0156749983">
		<tag k="name" v="Tronsehytta" />
		<tag k="place" v="isolated_dwelling" />
		<tag k="ssr:stedsnr" v="325973" />
	</node>
	<node id="-15367" lat="59.5428388912" lon="11.1146277803">
		<tag k="name" v="Mjølkeberg" />
		<tag k="place" v="farm" />
		<tag k="ssr:stedsnr" v="325782" />
	</node>
	<node id="-15365" lat="59.5566444489" lon="11.0571249961">
		<tag k="name" v="Busterud" />
		<tag k="place" v="farm" />
		<tag k="ssr:stedsnr" v="325745" />
	</node>
	<node id="-15362" lat="59.6487722237" lon="11.0592555559">
		<tag k="name" v="Vienhytta" />
		<tag k="place" v="isolated_dwelling" />
		<tag k="ssr:stedsnr" v="325701" />
	</node>
	<node id="-15361" lat="59.639744441" lon="11.1360583361">
		<tag k="name" v="Jemtland" />
		<tag k="place" v="farm" />
		<tag k="ssr:stedsnr" v="325696" />
	</node>
	<node id="-15358" lat="59.6145833298" lon="11.0935416748">
		<tag k="alt_name" v="Sølberg nordre" />
		<tag k="name" v="Nordre Sølberg" />
		<tag k="place" v="farm" />
		<tag k="ssr:stedsnr" v="325657" />
	</node>
	<node id="-15357" lat="59.6087638871" lon="11.0840722186">
		<tag k="name" v="Løken" />
		<tag k="place" v="farm" />
		<tag k="ssr:stedsnr" v="325656" />
	</node>
	<node id="-15356" lat="59.5982527768" lon="11.0766527799">
		<tag k="name" v="Solli" />
		<tag k="place" v="isolated_dwelling" />
		<tag k="ssr:stedsnr" v="325654" />
	</node>
	<node id="-15355" lat="59.6048861103" lon="11.0953833357">
		<tag k="alt_name" v="Fossum søndre" />
		<tag k="name" v="Søndre Fossum" />
		<tag k="place" v="farm" />
		<tag k="ssr:stedsnr" v="325653" />
	</node>
	<node id="-15354" lat="59.6943138922" lon="11.0937055538">
		<tag k="name" v="Vatn" />
		<tag k="place" v="farm" />
		<tag k="ssr:stedsnr" v="307841" />
	</node>
	<node id="-15353" lat="59.6560111088" lon="11.1316083337">
		<tag k="alt_name" v="Ødeli" />
		<tag k="name" v="Øde-Li" />
		<tag k="place" v="farm" />
		<tag k="ssr:stedsnr" v="307780" />
	</node>
	<node id="-15351" lat="59.5628138883" lon="11.0510638909">
		<tag k="name" v="Grav" />
		<tag k="place" v="farm" />
		<tag k="ssr:stedsnr" v="307287" />
	</node>
	<node id="-15350" lat="59.5678166694" lon="11.0591583264">
		<tag k="alt_name" v="Dæli øvre;Nedre Dæli" />
		<tag k="name" v="Dæli, nedre" />
		<tag k="place" v="farm" />
		<tag k="ssr:stedsnr" v="307229" />
	</node>
	<node id="-15349" lat="59.5609777809" lon="10.9861361114">
		<tag k="name" v="Stenerud" />
		<tag k="place" v="farm" />
		<tag k="ssr:stedsnr" v="307209" />
	</node>
	<node id="-15348" lat="59.5829777778" lon="11.0257249924">
		<tag k="alt_name" v="Bjørkebakke" />
		<tag k="name" v="Bjerkebakke" />
		<tag k="place" v="farm" />
		<tag k="ssr:stedsnr" v="307175" />
	</node>
	<node id="-15345" lat="59.614224999" lon="11.0307472166">
		<tag k="alt_name" v="Kirkerud søndre;Kirkerud" />
		<tag k="name" v="Søndre Kirkerud" />
		<tag k="place" v="farm" />
		<tag k="ssr:stedsnr" v="306354" />
	</node>
	<node id="-15344" lat="59.6114499998" lon="11.0674833292">
		<tag k="name" v="Lund" />
		<tag k="place" v="farm" />
		<tag k="ssr:stedsnr" v="306352" />
	</node>
	<node id="-15343" lat="59.6384083328" lon="11.0894027761">
		<tag k="alt_name" v="Hov østre" />
		<tag k="name" v="Østre Hov" />
		<tag k="place" v="farm" />
		<tag k="ssr:stedsnr" v="306282" />
	</node>
	<node id="-15342" lat="59.6625527759" lon="11.0651249961">
		<tag k="name" v="Stensrud" />
		<tag k="place" v="farm" />
		<tag k="ssr:stedsnr" v="306229" />
	</node>
	<node id="-15341" lat="59.6549294662" lon="11.0629577687">
		<tag k="fixme" v="consider place=hamlet" />
		<tag k="name" v="Tolerud" />
		<tag k="place" v="farm" />
		<tag k="ssr:stedsnr" v="294614" />
	</node>
</osm>
