<?xml version="1.0" encoding="UTF-8"?>
<osm generator="osmapis" version="0.6">
	<node id="-15360" lat="59.6668611118" lon="11.1496416737">
		<tag k="name" v="Nygård" />
		<tag k="place" v="locality" />
		<tag k="ssr:stedsnr" v="325684" />
	</node>
	<node id="-15741" lat="59.6840916625" lon="11.1465444404">
		<tag k="name" v="Gulltjernmosen" />
		<tag k="natural" v="wetland" />
		<tag k="ssr:stedsnr" v="689699" />
	</node>
	<node id="-15605" lat="59.5642583301" lon="11.0151638909">
		<tag k="name" v="Veslemosen" />
		<tag k="natural" v="wetland" />
		<tag k="ssr:stedsnr" v="447977" />
	</node>
	<node id="-15857" lat="59.5182750034" lon="11.0715166616">
		<tag k="name" v="Heimyra" />
		<tag k="natural" v="wetland" />
		<tag k="ssr:stedsnr" v="914033" />
	</node>
	<node id="-15600" lat="59.6724722209" lon="11.1634305516">
		<tag k="name" v="Svarthølet" />
		<tag k="place" v="locality" />
		<tag k="ssr:stedsnr" v="447691" />
	</node>
	<node id="-15598" lat="59.6769833357" lon="11.1361111089">
		<tag k="name" v="Bjørnemyr" />
		<tag k="natural" v="wetland" />
		<tag k="ssr:stedsnr" v="447676" />
	</node>
	<node id="-15850" lat="59.5247222266" lon="10.9813611071">
		<tag k="name" v="Delingsmyr" />
		<tag k="natural" v="wetland" />
		<tag k="ssr:stedsnr" v="871987" />
	</node>
	<node id="-15848" lat="59.5647722199" lon="11.0225277744">
		<tag k="name" v="Fuglesangen" />
		<tag k="natural" v="wetland" />
		<tag k="ssr:stedsnr" v="871976" />
	</node>
	<node id="-15458" lat="59.6740055586" lon="11.1292250002">
		<tag k="name" v="Slorene" />
		<tag k="natural" v="wetland" />
		<tag k="ssr:stedsnr" v="82681" />
	</node>
	<node id="-15504" lat="59.5343388872" lon="11.0113361088">
		<tag k="name" v="Myrvoll" />
		<tag k="natural" v="wetland" />
		<tag k="ssr:stedsnr" v="143933" />
	</node>
	<node id="-15836" lat="59.6695805513" lon="11.1675444433">
		<tag k="alt_name" v="Fjellsmyra" />
		<tag k="name" v="Fjellmosen" />
		<tag k="natural" v="wetland" />
		<tag k="ssr:stedsnr" v="854772" />
	</node>
	<node id="-15707" lat="59.5707694439" lon="11.0049861148">
		<tag k="name" v="Bremosen" />
		<tag k="natural" v="wetland" />
		<tag k="ssr:stedsnr" v="628974" />
	</node>
	<node id="-15637" lat="59.5295555583" lon="11.0169972268">
		<tag k="name" v="Vadmyr" />
		<tag k="natural" v="wetland" />
		<tag k="ssr:stedsnr" v="508000" />
	</node>
	<node id="-15673" lat="59.5930999979" lon="11.0376722161">
		<tag k="name" v="Tangenmyra" />
		<tag k="natural" v="wetland" />
		<tag k="ssr:stedsnr" v="567788" />
	</node>
	<node id="-15572" lat="59.5351833372" lon="11.0292000062">
		<tag k="name" v="Bjørnstadmosen" />
		<tag k="natural" v="wetland" />
		<tag k="ssr:stedsnr" v="264995" />
	</node>
	<node id="-15442" lat="59.5476805562" lon="11.0188638935">
		<tag k="name" v="Kvarudmyra" />
		<tag k="natural" v="wetland" />
		<tag k="ssr:stedsnr" v="22951" />
	</node>
	<node id="-15543" lat="59.6668083315" lon="11.080450001">
		<tag k="alt_name" v="Langmosen" />
		<tag k="name" v="Langmosan" />
		<tag k="natural" v="wetland" />
		<tag k="ssr:stedsnr" v="245456" />
	</node>
	<node id="-15812" lat="59.5724166636" lon="10.9987999921">
		<tag k="name" v="Sundbymosen" />
		<tag k="natural" v="wetland" />
		<tag k="ssr:stedsnr" v="811981" />
	</node>
	<node id="-15808" lat="59.5275972269" lon="11.0654416583">
		<tag k="name" v="Gåsehalsen" />
		<tag k="natural" v="wetland" />
		<tag k="ssr:stedsnr" v="811829" />
	</node>
	<node id="-15802" lat="59.6644444484" lon="11.0910666597">
		<tag k="name" v="Hollimosen" />
		<tag k="natural" v="wetland" />
		<tag k="ssr:stedsnr" v="810707" />
	</node>
	<node id="-15417" lat="59.5227416697" lon="11.0665388896">
		<tag k="alt_name" v="Breimosen" />
		<tag k="name" v="Breidmosan" />
		<tag k="natural" v="wetland" />
		<tag k="ssr:stedsnr" v="4010" />
	</node>
	<node id="-15671" lat="59.6885944469" lon="11.1450222151">
		<tag k="name" v="Jakobsmosen" />
		<tag k="natural" v="wetland" />
		<tag k="ssr:stedsnr" v="567714" />
	</node>
	<node id="-15539" lat="59.580188886" lon="11.0237138923">
		<tag k="name" v="Muråsmyra" />
		<tag k="natural" v="wetland" />
		<tag k="ssr:stedsnr" v="204767" />
	</node>
	<node id="-15792" lat="59.6324916641" lon="11.1106944471">
		<tag k="alt_name" v="Ramstadgrinna" />
		<tag k="name" v="Grinda" />
		<tag k="place" v="locality" />
		<tag k="ssr:stedsnr" v="792969" />
	</node>
	<node id="-15404" lat="59.533000003" lon="10.9906833256">
		<tag k="landuse" v="meadow" />
		<tag k="name" v="Bjørnenga" />
		<tag k="ssr:stedsnr" v="386947" />
	</node>
	<node id="-15657" lat="59.6785333372" lon="11.1947111043">
		<tag k="name" v="Tjernsmyra" />
		<tag k="natural" v="wetland" />
		<tag k="ssr:stedsnr" v="550809" />
	</node>
	<node id="-15631" lat="59.6873333371" lon="11.144305552">
		<tag k="name" v="Grevlinghimosen" />
		<tag k="natural" v="wetland" />
		<tag k="ssr:stedsnr" v="507735" />
	</node>
	<node id="-15779" lat="59.5294083369" lon="11.010822221">
		<tag k="name" v="Trolleina" />
		<tag k="place" v="locality" />
		<tag k="ssr:stedsnr" v="750997" />
	</node>
	<node id="-15776" lat="59.5538944423" lon="11.0047777727">
		<tag k="name" v="Skogremmosen" />
		<tag k="natural" v="wetland" />
		<tag k="ssr:stedsnr" v="750974" />
	</node>
	<node id="-15536" lat="59.6776722253" lon="11.1551638966">
		<tag k="name" v="Lauvåsmosen" />
		<tag k="natural" v="wetland" />
		<tag k="ssr:stedsnr" v="204667" />
	</node>
	<node id="-15518" lat="59.5123500024" lon="11.0096305625">
		<tag k="alt_name" v="Mørkmosan" />
		<tag k="name" v="Mørkmosen" />
		<tag k="natural" v="wetland" />
		<tag k="ssr:stedsnr" v="186061" />
	</node>
	<node id="-15386" lat="59.6676972211" lon="11.1054222188">
		<tag k="name" v="Grøtjern" />
		<tag k="place" v="locality" />
		<tag k="ssr:stedsnr" v="385716" />
	</node>
	<node id="-15641" lat="59.6725472242" lon="11.1816777809">
		<tag k="name" v="Sandummosen" />
		<tag k="natural" v="wetland" />
		<tag k="ssr:stedsnr" v="509106" />
	</node>
	<node id="-15769" lat="59.6763305596" lon="11.1636277715">
		<tag k="name" v="Sjutjernmosen" />
		<tag k="natural" v="wetland" />
		<tag k="ssr:stedsnr" v="750681" />
	</node>
	<node id="-15635" lat="59.5317722184" lon="11.0488888924">
		<tag k="name" v="Høymyr" />
		<tag k="natural" v="wetland" />
		<tag k="ssr:stedsnr" v="507995" />
	</node>
	<node id="-15890" lat="59.5322583291" lon="11.0227833271">
		<tag k="name" v="Vinterveimyr" />
		<tag k="natural" v="wetland" />
		<tag k="ssr:stedsnr" v="932988" />
	</node>
	<node id="-15505" lat="59.5626333323" lon="11.0053972238">
		<tag k="name" v="Høymyr" />
		<tag k="natural" v="wetland" />
		<tag k="ssr:stedsnr" v="143977" />
	</node>
	<node id="-15888" lat="59.5376694418" lon="11.0403944478">
		<tag k="name" v="Langmosen" />
		<tag k="natural" v="wetland" />
		<tag k="ssr:stedsnr" v="932940" />
	</node>
	<node id="-15759" lat="59.5728777798" lon="10.9938138876">
		<tag k="alt_name" v="Langmosen" />
		<tag k="name" v="Langmosan" />
		<tag k="natural" v="wetland" />
		<tag k="ssr:stedsnr" v="732222" />
	</node>
	<node id="-15884" lat="59.5888194471" lon="11.0351138835">
		<tag k="name" v="Kjelstadmyra" />
		<tag k="natural" v="wetland" />
		<tag k="ssr:stedsnr" v="932762" />
	</node>
	<node id="-15498" lat="59.6701333292" lon="11.1666805521">
		<tag k="name" v="Hauglandmosen" />
		<tag k="natural" v="wetland" />
		<tag k="ssr:stedsnr" v="143695" />
	</node>
	<node id="-15749" lat="59.5122111095" lon="10.9995361075">
		<tag k="name" v="Korsmyr" />
		<tag k="natural" v="wetland" />
		<tag k="ssr:stedsnr" v="689998" />
	</node>
	<node id="-15748" lat="59.5657583334" lon="10.9821666628">
		<tag k="name" v="Slora" />
		<tag k="natural" v="wetland" />
		<tag k="ssr:stedsnr" v="689983" />
	</node>
	<node id="-15747" lat="59.5360583325" lon="10.9965638956">
		<tag k="name" v="Vestenga" />
		<tag k="place" v="locality" />
		<tag k="ssr:stedsnr" v="689952" />
	</node>
</osm>
