<?xml version="1.0" encoding="UTF-8"?>
<osm generator="osmapis" version="0.6">
	<node id="-15870" lat="59.6322833367" lon="11.0653305485">
		<tag k="fixme" v="consider natural=peak for the most distinct mountains in the district" />
		<tag k="name" v="Klompåsen" />
		<tag k="natural" v="hill" />
		<tag k="place" v="locality" />
		<tag k="ssr:stedsnr" v="932606" />
	</node>
	<node id="-15613" lat="59.5485472221" lon="11.0494527752">
		<tag k="fixme" v="consider natural=peak for the most distinct mountains in the district" />
		<tag k="name" v="Røysås" />
		<tag k="natural" v="hill" />
		<tag k="place" v="locality" />
		<tag k="ssr:stedsnr" v="489259" />
	</node>
	<node id="-15483" lat="59.5598416675" lon="11.0063361183">
		<tag k="fixme" v="consider natural=peak for the most distinct mountains in the district" />
		<tag k="name" v="Kattås" />
		<tag k="natural" v="hill" />
		<tag k="place" v="locality" />
		<tag k="ssr:stedsnr" v="125213" />
	</node>
	<node id="-15737" lat="59.6524194422" lon="11.0886916752">
		<tag k="fixme" v="consider natural=peak for the most distinct mountains in the district" />
		<tag k="name" v="Høgås" />
		<tag k="natural" v="hill" />
		<tag k="place" v="locality" />
		<tag k="ssr:stedsnr" v="689664" />
	</node>
	<node id="-15352" lat="59.6569111139" lon="11.1659805605">
		<tag k="fixme" v="consider natural=peak for the most distinct mountains in the district" />
		<tag k="name" v="Solliåsen" />
		<tag k="natural" v="hill" />
		<tag k="place" v="locality" />
		<tag k="ssr:stedsnr" v="307754" />
	</node>
	<node id="-15607" lat="59.6632805529" lon="11.2178111173">
		<tag k="fixme" v="consider natural=peak for the most distinct mountains in the district" />
		<tag k="name" v="Nesåsen" />
		<tag k="natural" v="hill" />
		<tag k="place" v="locality" />
		<tag k="ssr:stedsnr" v="449091" />
	</node>
	<node id="-15734" lat="59.6694583309" lon="11.1380249937">
		<tag k="fixme" v="consider natural=peak for the most distinct mountains in the district" />
		<tag k="name" v="Badstuåsen" />
		<tag k="natural" v="hill" />
		<tag k="place" v="locality" />
		<tag k="ssr:stedsnr" v="689657" />
	</node>
	<node id="-15861" lat="59.5687472233" lon="11.0091138803">
		<tag k="fixme" v="consider natural=peak for the most distinct mountains in the district" />
		<tag k="name" v="Sundbyvarden" />
		<tag k="natural" v="hill" />
		<tag k="place" v="locality" />
		<tag k="ssr:stedsnr" v="914225" />
	</node>
	<node id="-15604" lat="59.5517527778" lon="11.0037472262">
		<tag k="fixme" v="consider natural=peak for the most distinct mountains in the district" />
		<tag k="name" v="Nygårdsåsen" />
		<tag k="natural" v="hill" />
		<tag k="place" v="locality" />
		<tag k="ssr:stedsnr" v="447941" />
	</node>
	<node id="-15603" lat="59.5441111067" lon="11.0299000079">
		<tag k="name" v="Fugleleiken" />
		<tag k="place" v="locality" />
		<tag k="ssr:stedsnr" v="447937" />
	</node>
	<node id="-15571" lat="59.5284638895" lon="10.9907472209">
		<tag k="fixme" v="consider natural=peak for the most distinct mountains in the district" />
		<tag k="name" v="Steinbrottåsen" />
		<tag k="natural" v="hill" />
		<tag k="place" v="locality" />
		<tag k="ssr:stedsnr" v="264993" />
	</node>
	<node id="-15464" lat="59.6861388846" lon="11.1415777776">
		<tag k="fixme" v="consider natural=peak for the most distinct mountains in the district" />
		<tag k="name" v="Lysefjell" />
		<tag k="natural" v="hill" />
		<tag k="place" v="locality" />
		<tag k="ssr:stedsnr" v="82715" />
	</node>
	<node id="-15470" lat="59.5682583292" lon="11.0204833293">
		<tag k="name" v="Vad" />
		<tag k="place" v="locality" />
		<tag k="ssr:stedsnr" v="82975" />
	</node>
	<node id="-15469" lat="59.505983337" lon="10.9795583401">
		<tag k="name" v="Mørkdalen" />
		<tag k="natural" v="valley" />
		<tag k="place" v="locality" />
		<tag k="ssr:stedsnr" v="82939" />
	</node>
	<node id="-15468" lat="59.5420916638" lon="10.9971750077">
		<tag k="fixme" v="consider natural=peak for the most distinct mountains in the district" />
		<tag k="name" v="Høgåsen" />
		<tag k="natural" v="hill" />
		<tag k="place" v="locality" />
		<tag k="ssr:stedsnr" v="82931" />
	</node>
	<node id="-15467" lat="59.5942416693" lon="11.0323833291">
		<tag k="fixme" v="consider natural=peak for the most distinct mountains in the district" />
		<tag k="name" v="Tangenåsen" />
		<tag k="natural" v="hill" />
		<tag k="place" v="locality" />
		<tag k="ssr:stedsnr" v="82799" />
	</node>
	<node id="-15849" lat="59.5728166634" lon="11.0148888929">
		<tag k="name" v="Svartdal" />
		<tag k="natural" v="valley" />
		<tag k="place" v="locality" />
		<tag k="ssr:stedsnr" v="871983" />
	</node>
	<node id="-15592" lat="59.6689083354" lon="11.089538891">
		<tag k="fixme" v="consider natural=peak for the most distinct mountains in the district" />
		<tag k="name" v="Hollihøgda" />
		<tag k="natural" v="hill" />
		<tag k="place" v="locality" />
		<tag k="ssr:stedsnr" v="446701" />
	</node>
	<node id="-15847" lat="59.5419305568" lon="11.0076694379">
		<tag k="name" v="Sagbakkhølet" />
		<tag k="natural" v="valley" />
		<tag k="place" v="locality" />
		<tag k="ssr:stedsnr" v="871942" />
	</node>
	<node id="-15418" lat="59.5262833347" lon="11.0821749931">
		<tag k="fixme" v="consider natural=peak for the most distinct mountains in the district" />
		<tag k="name" v="Røysås" />
		<tag k="natural" v="hill" />
		<tag k="place" v="locality" />
		<tag k="ssr:stedsnr" v="4038" />
	</node>
	<node id="-15706" lat="59.5497527805" lon="11.0051222202">
		<tag k="name" v="Bjørkeklopp" />
		<tag k="natural" v="valley" />
		<tag k="place" v="locality" />
		<tag k="ssr:stedsnr" v="628935" />
	</node>
	<node id="-15524" lat="59.6773555546" lon="11.2033388904">
		<tag k="alt_name" v="Røysåsen" />
		<tag k="fixme" v="consider natural=peak for the most distinct mountains in the district" />
		<tag k="name" v="Mørkåsen" />
		<tag k="natural" v="hill" />
		<tag k="place" v="locality" />
		<tag k="ssr:stedsnr" v="186827" />
	</node>
	<node id="-15573" lat="59.534438889" lon="11.0525027791">
		<tag k="name" v="Volledalen" />
		<tag k="natural" v="valley" />
		<tag k="place" v="locality" />
		<tag k="ssr:stedsnr" v="264997" />
	</node>
	<node id="-15827" lat="59.533280558" lon="11.0250055551">
		<tag k="fixme" v="consider natural=peak for the most distinct mountains in the district" />
		<tag k="name" v="Trolleina" />
		<tag k="natural" v="hill" />
		<tag k="place" v="locality" />
		<tag k="ssr:stedsnr" v="854024" />
	</node>
	<node id="-15570" lat="59.5598472215" lon="11.021272216">
		<tag k="fixme" v="consider natural=peak for the most distinct mountains in the district" />
		<tag k="name" v="Brånan" />
		<tag k="natural" v="hill" />
		<tag k="place" v="locality" />
		<tag k="ssr:stedsnr" v="264986" />
	</node>
	<node id="-15569" lat="59.5369111135" lon="11.0052972157">
		<tag k="name" v="Nissehølet" />
		<tag k="natural" v="valley" />
		<tag k="place" v="locality" />
		<tag k="ssr:stedsnr" v="264945" />
	</node>
	<node id="-15693" lat="59.6789333347" lon="11.1694611072">
		<tag k="fixme" v="consider natural=peak for the most distinct mountains in the district" />
		<tag k="name" v="Hauglandsfjellet" />
		<tag k="natural" v="hill" />
		<tag k="place" v="locality" />
		<tag k="ssr:stedsnr" v="610820" />
	</node>
	<node id="-15820" lat="59.607222223" lon="11.0182861033">
		<tag k="fixme" v="consider natural=peak for the most distinct mountains in the district" />
		<tag k="name" v="Høgåsen" />
		<tag k="natural" v="hill" />
		<tag k="place" v="locality" />
		<tag k="ssr:stedsnr" v="853034" />
	</node>
	<node id="-15817" lat="59.6588555588" lon="11.1818361156">
		<tag k="fixme" v="consider natural=peak for the most distinct mountains in the district" />
		<tag k="name" v="Brudeberget" />
		<tag k="natural" v="hill" />
		<tag k="place" v="locality" />
		<tag k="ssr:stedsnr" v="812147" />
	</node>
	<node id="-15687" lat="59.6003027768" lon="11.0792916733">
		<tag k="fixme" v="consider natural=peak for the most distinct mountains in the district" />
		<tag k="name" v="Grååsen" />
		<tag k="natural" v="hill" />
		<tag k="place" v="locality" />
		<tag k="ssr:stedsnr" v="610151" />
	</node>
	<node id="-15558" lat="59.6084583313" lon="11.0749416743">
		<tag k="name" v="Bekkevoll" />
		<tag k="natural" v="slope" />
		<tag k="place" v="locality" />
		<tag k="ssr:stedsnr" v="264646" />
	</node>
	<node id="-15813" lat="59.5099083332" lon="10.9851083408">
		<tag k="fixme" v="consider natural=peak for the most distinct mountains in the district" />
		<tag k="name" v="Bjelleholåsen" />
		<tag k="natural" v="hill" />
		<tag k="place" v="locality" />
		<tag k="ssr:stedsnr" v="811995" />
	</node>
	<node id="-15424" lat="59.6627250039" lon="11.1381777856">
		<tag k="fixme" v="consider natural=peak for the most distinct mountains in the district" />
		<tag k="name" v="Liåsen" />
		<tag k="natural" v="hill" />
		<tag k="place" v="locality" />
		<tag k="ssr:stedsnr" v="4771" />
	</node>
	<node id="-15807" lat="59.6034611104" lon="11.0518499925">
		<tag k="name" v="Mollehøgda" />
		<tag k="natural" v="hill" />
		<tag k="place" v="locality" />
		<tag k="ssr:stedsnr" v="811727" />
	</node>
	<node id="-15677" lat="59.5391527817" lon="10.995058342">
		<tag k="name" v="Vestengdalen" />
		<tag k="natural" v="valley" />
		<tag k="place" v="locality" />
		<tag k="ssr:stedsnr" v="567944" />
	</node>
	<node id="-15369" lat="59.5137055601" lon="11.005616664">
		<tag k="fixme" v="consider natural=peak for the most distinct mountains in the district" />
		<tag k="name" v="Bekahyttåsen" />
		<tag k="natural" v="hill" />
		<tag k="place" v="locality" />
		<tag k="ssr:stedsnr" v="325999" />
	</node>
	<node id="-15674" lat="59.6563638856" lon="11.0536277737">
		<tag k="fixme" v="consider natural=peak for the most distinct mountains in the district" />
		<tag k="name" v="Torudåsen" />
		<tag k="natural" v="hill" />
		<tag k="place" v="locality" />
		<tag k="ssr:stedsnr" v="567797" />
	</node>
	<node id="-15672" lat="59.5794666675" lon="11.0472194528">
		<tag k="fixme" v="consider natural=peak for the most distinct mountains in the district" />
		<tag k="name" v="Bjørkås" />
		<tag k="natural" v="hill" />
		<tag k="place" v="locality" />
		<tag k="ssr:stedsnr" v="567778" />
	</node>
	<node id="-15753" lat="59.6785222181" lon="11.1760805572">
		<tag k="name" v="Livedalen" />
		<tag k="natural" v="valley" />
		<tag k="place" v="locality" />
		<tag k="ssr:stedsnr" v="691138" />
	</node>
	<node id="-15668" lat="59.6802416672" lon="11.1574305593">
		<tag k="fixme" v="consider natural=peak for the most distinct mountains in the district" />
		<tag k="name" v="Skimtefjell" />
		<tag k="natural" v="hill" />
		<tag k="place" v="locality" />
		<tag k="ssr:stedsnr" v="567685" />
	</node>
	<node id="-15667" lat="59.6135472219" lon="11.1129000064">
		<tag k="name" v="Bovumdalen" />
		<tag k="natural" v="valley" />
		<tag k="place" v="locality" />
		<tag k="ssr:stedsnr" v="567655" />
	</node>
	<node id="-15475" lat="59.6550388873" lon="11.0869583316">
		<tag k="fixme" v="consider natural=peak for the most distinct mountains in the district" />
		<tag k="name" v="Slottsåsen" />
		<tag k="natural" v="hill" />
		<tag k="place" v="locality" />
		<tag k="ssr:stedsnr" v="124202" />
	</node>
	<node id="-15535" lat="59.6764722207" lon="11.1323916654">
		<tag k="fixme" v="consider natural=peak for the most distinct mountains in the district" />
		<tag k="name" v="Jutulen" />
		<tag k="natural" v="hill" />
		<tag k="place" v="locality" />
		<tag k="ssr:stedsnr" v="204657" />
	</node>
	<node id="-15403" lat="59.5460222247" lon="11.0086194478">
		<tag k="fixme" v="consider natural=peak for the most distinct mountains in the district" />
		<tag k="name" v="Sagbakkåsen" />
		<tag k="natural" v="hill" />
		<tag k="place" v="locality" />
		<tag k="ssr:stedsnr" v="386945" />
	</node>
	<node id="-15530" lat="59.6281555587" lon="11.0694194432">
		<tag k="fixme" v="consider natural=peak for the most distinct mountains in the district" />
		<tag k="name" v="Hylliåsen" />
		<tag k="natural" v="hill" />
		<tag k="place" v="locality" />
		<tag k="ssr:stedsnr" v="204613" />
	</node>
	<node id="-15528" lat="59.6434055563" lon="11.1300277765">
		<tag k="fixme" v="consider natural=peak for the most distinct mountains in the district" />
		<tag k="name" v="Bøleråsen" />
		<tag k="natural" v="hill" />
		<tag k="place" v="locality" />
		<tag k="ssr:stedsnr" v="186976" />
	</node>
	<node id="-15399" lat="59.5311249982" lon="11.0386333381">
		<tag k="fixme" v="consider natural=peak for the most distinct mountains in the district" />
		<tag k="name" v="Knollen" />
		<tag k="natural" v="hill" />
		<tag k="place" v="locality" />
		<tag k="ssr:stedsnr" v="385989" />
	</node>
	<node id="-15398" lat="59.5825444422" lon="11.0519694491">
		<tag k="name" v="Fosser" />
		<tag k="natural" v="slope" />
		<tag k="place" v="locality" />
		<tag k="ssr:stedsnr" v="385809" />
	</node>
	<node id="-15537" lat="59.6436277745" lon="11.1541861065">
		<tag k="fixme" v="consider natural=peak for the most distinct mountains in the district" />
		<tag k="name" v="Holmsåsen" />
		<tag k="natural" v="hill" />
		<tag k="place" v="locality" />
		<tag k="ssr:stedsnr" v="204681" />
	</node>
	<node id="-15780" lat="59.525286108" lon="11.0341861086">
		<tag k="name" v="Svavedalen" />
		<tag k="natural" v="valley" />
		<tag k="place" v="locality" />
		<tag k="ssr:stedsnr" v="751000" />
	</node>
	<node id="-15775" lat="59.5064333304" lon="10.9888083398">
		<tag k="name" v="Seterholtet" />
		<tag k="place" v="locality" />
		<tag k="ssr:stedsnr" v="750935" />
	</node>
	<node id="-15774" lat="59.6744138897" lon="11.0402638901">
		<tag k="name" v="Spennivegg" />
		<tag k="natural" v="slope" />
		<tag k="place" v="locality" />
		<tag k="ssr:stedsnr" v="750785" />
	</node>
	<node id="-15685" lat="59.5209805522" lon="11.0511027815">
		<tag k="fixme" v="consider natural=peak for the most distinct mountains in the district" />
		<tag k="name" v="Trollerudåsen" />
		<tag k="natural" v="hill" />
		<tag k="place" v="locality" />
		<tag k="ssr:stedsnr" v="610017" />
	</node>
	<node id="-15772" lat="59.686549996" lon="11.067344451">
		<tag k="fixme" v="consider natural=peak for the most distinct mountains in the district" />
		<tag k="name" v="Hallerudåsen" />
		<tag k="natural" v="hill" />
		<tag k="place" v="locality" />
		<tag k="ssr:stedsnr" v="750708" />
	</node>
	<node id="-15771" lat="59.6593888857" lon="11.0732444508">
		<tag k="fixme" v="consider natural=peak for the most distinct mountains in the district" />
		<tag k="name" v="Passoppåsen" />
		<tag k="natural" v="hill" />
		<tag k="place" v="locality" />
		<tag k="ssr:stedsnr" v="750691" />
	</node>
	<node id="-15516" lat="59.5779000042" lon="11.0059638958">
		<tag k="fixme" v="consider natural=peak for the most distinct mountains in the district" />
		<tag k="name" v="Spydeberg varde" />
		<tag k="natural" v="hill" />
		<tag k="place" v="locality" />
		<tag k="ssr:stedsnr" v="186165" />
	</node>
	<node id="-15501" lat="59.6820228137" lon="11.0646963357">
		<tag k="name" v="Hallerudhøgda" />
		<tag k="natural" v="hill" />
		<tag k="place" v="locality" />
		<tag k="ssr:stedsnr" v="143714" />
	</node>
	<node id="-15400" lat="59.5169722201" lon="10.9835416686">
		<tag k="fixme" v="consider natural=peak for the most distinct mountains in the district" />
		<tag k="name" v="Havnedalsåsen" />
		<tag k="natural" v="hill" />
		<tag k="place" v="locality" />
		<tag k="ssr:stedsnr" v="385993" />
	</node>
	<node id="-15883" lat="59.5919444444" lon="11.0326833311">
		<tag k="fixme" v="consider natural=peak for the most distinct mountains in the district" />
		<tag k="name" v="Kjelstadåsen" />
		<tag k="natural" v="hill" />
		<tag k="place" v="locality" />
		<tag k="ssr:stedsnr" v="932759" />
	</node>
	<node id="-15881" lat="59.682986113" lon="11.1626833419">
		<tag k="name" v="Bjørnehidråget" />
		<tag k="natural" v="slope" />
		<tag k="place" v="locality" />
		<tag k="ssr:stedsnr" v="932701" />
	</node>
	<node id="-15495" lat="59.6796166659" lon="11.133247218">
		<tag k="name" v="Lysefjelldalen" />
		<tag k="natural" v="valley" />
		<tag k="place" v="locality" />
		<tag k="ssr:stedsnr" v="143685" />
	</node>
	<node id="-15878" lat="59.6542027811" lon="11.0743027728">
		<tag k="name" v="Kjerringdalen" />
		<tag k="natural" v="valley" />
		<tag k="place" v="locality" />
		<tag k="ssr:stedsnr" v="932675" />
	</node>
	<node id="-15621" lat="59.6696638887" lon="11.1394361166">
		<tag k="fixme" v="consider natural=peak for the most distinct mountains in the district" />
		<tag k="name" v="Våifjellet" />
		<tag k="natural" v="hill" />
		<tag k="place" v="locality" />
		<tag k="ssr:stedsnr" v="489791" />
	</node>
	<node id="-15876" lat="59.6690361135" lon="11.1072583403">
		<tag k="name" v="Grøtjerntoppen" />
		<tag k="natural" v="hill" />
		<tag k="place" v="locality" />
		<tag k="ssr:stedsnr" v="932661" />
	</node>
</osm>
