<?xml version="1.0" encoding="UTF-8"?>
<osm generator="osmapis" version="0.6">
	<node id="-15740" lat="59.6207108852" lon="11.0790127561">
		<tag k="alt_name" v="Spydeberg" />
		<tag k="name" v="Spydeberg stasjon" />
		<tag k="railway" v="station" />
		<tag k="ssr:stedsnr" v="750632" />
		<tag k="train" v="yes" />
	</node>
	<node id="-15865" lat="59.6179944402" lon="11.0335444517">
		<tag k="bridge" v="yes" />
		<tag k="layer" v="1" />
		<tag k="name" v="Knapstad" />
		<tag k="ssr:stedsnr" v="955555" />
	</node>
	<node id="-15379" lat="59.5665194472" lon="11.0787138895">
		<tag k="bridge" v="yes" />
		<tag k="layer" v="1" />
		<tag k="name" v="Skjærsåker" />
		<tag k="ssr:stedsnr" v="895522" />
	</node>
	<node id="-15377" lat="59.6148333319" lon="11.0790722188">
		<tag k="bridge" v="yes" />
		<tag k="layer" v="1" />
		<tag k="name" v="Myrakrysset" />
		<tag k="ssr:stedsnr" v="409540" />
	</node>
	<node id="-15312" lat="59.5213055522" lon="11.0209444393">
		<tag k="bridge" v="yes" />
		<tag k="layer" v="1" />
		<tag k="name" v="Fossen" />
		<tag k="ssr:stedsnr" v="288509" />
	</node>
	<node id="-15311" lat="59.6328305536" lon="11.1109333377">
		<tag k="bridge" v="yes" />
		<tag k="layer" v="1" />
		<tag k="name" v="Hovin" />
		<tag k="ssr:stedsnr" v="288505" />
	</node>
	<node id="-15342" lat="59.5835583339" lon="11.0620666681">
		<tag k="bridge" v="yes" />
		<tag k="layer" v="1" />
		<tag k="name" v="Kjos" />
		<tag k="ssr:stedsnr" v="348530" />
	</node>
	<node id="-15532" lat="59.6121916622" lon="11.0862833396">
		<tag k="junction" v="yes" />
		<tag k="name" v="Høgda" />
		<tag k="place" v="locality" />
		<tag k="ssr:stedsnr" v="264650" />
	</node>
	<node id="-15790" lat="59.6708027766" lon="11.1334000032">
		<tag k="bridge" v="yes" />
		<tag k="layer" v="1" />
		<tag k="name" v="Haugen" />
		<tag k="ssr:stedsnr" v="834558" />
	</node>
	<node id="-15726" lat="59.559016665" lon="11.0653638942">
		<tag k="bridge" v="yes" />
		<tag k="layer" v="1" />
		<tag k="loc_name" v="Børen" />
		<tag k="name" v="Bøhren" />
		<tag k="ssr:stedsnr" v="713579" />
	</node>
	<node id="-15432" lat="59.6612388925" lon="11.153319443">
		<tag k="junction" v="yes" />
		<tag k="name" v="Godheim" />
		<tag k="place" v="locality" />
		<tag k="ssr:stedsnr" v="82688" />
	</node>
	<node id="-15756" lat="59.5910750004" lon="11.0679972259">
		<tag k="bridge" v="yes" />
		<tag k="layer" v="1" />
		<tag k="name" v="Bjaberg" />
		<tag k="ssr:stedsnr" v="773524" />
	</node>
	<node id="-15653" lat="59.6049888909" lon="11.1007083298">
		<tag k="bridge" v="yes" />
		<tag k="layer" v="1" />
		<tag k="name" v="Tørje" />
		<tag k="ssr:stedsnr" v="591540" />
	</node>
	<node id="-15682" lat="59.6159444406" lon="11.0639666618">
		<tag k="bridge" v="yes" />
		<tag k="layer" v="1" />
		<tag k="name" v="Lundsåsen" />
		<tag k="ssr:stedsnr" v="652543" />
	</node>
	<node id="-15531" lat="59.6149638855" lon="11.0781277721">
		<tag k="junction" v="yes" />
		<tag k="name" v="Myrakrysset" />
		<tag k="place" v="locality" />
		<tag k="ssr:stedsnr" v="264645" />
	</node>
</osm>
