<?xml version="1.0" encoding="UTF-8"?>
<osm generator="osmapis" version="0.6">
	<node id="-15583" lat="59.5950333333" lon="11.0687611038">
		<tag k="amenity" v="place_of_worship" />
		<tag k="denomination" v="lutheran" />
		<tag k="name" v="Spydeberg kirke" />
		<tag k="religion" v="christian" />
		<tag k="ssr:stedsnr" v="429122" />
	</node>
	<node id="-15678" lat="59.6760555542" lon="11.2183361165">
		<tag k="name" v="Holmen" />
		<tag k="place" v="locality" />
		<tag k="ssr:stedsnr" v="569123" />
	</node>
	<node id="-15610" lat="59.6565611104" lon="11.1890722163">
		<tag k="name" v="TÃ¸mmersleppa" />
		<tag k="place" v="locality" />
		<tag k="ssr:stedsnr" v="449109" />
	</node>
	<node id="-15679" lat="59.6668416664" lon="11.2015500046">
		<tag k="name" v="Stegen" />
		<tag k="place" v="locality" />
		<tag k="ssr:stedsnr" v="569125" />
	</node>
	<node id="-15415" lat="59.6307916641" lon="11.1203444411">
		<tag k="amenity" v="place_of_worship" />
		<tag k="denomination" v="lutheran" />
		<tag k="name" v="Hovin kirke" />
		<tag k="religion" v="christian" />
		<tag k="ssr:stedsnr" v="3966" />
	</node>
	<node id="-15764" lat="59.5631138908" lon="11.0964194442">
		<tag k="amenity" v="place_of_worship" />
		<tag k="denomination" v="lutheran" />
		<tag k="name" v="Heli kirke" />
		<tag k="religion" v="christian" />
		<tag k="ssr:stedsnr" v="732569" />
	</node>
	<node id="-15751" lat="59.6570555546" lon="11.1953361117">
		<tag k="name" v="Brustedet" />
		<tag k="place" v="locality" />
		<tag k="ssr:stedsnr" v="691133" />
	</node>
</osm>
