<?xml version="1.0" encoding="UTF-8"?>
<osm generator="osmapis" version="0.6">
	<node id="-15872" lat="59.6790277778" lon="11.1215583268">
		<tag k="name" v="Haugensvika" />
		<tag k="natural" v="bay" />
		<tag k="ssr:stedsnr" v="932649" />
	</node>
	<node id="-15871" lat="59.6232027817" lon="11.132402786">
		<tag k="name" v="Hovinvika" />
		<tag k="natural" v="bay" />
		<tag k="ssr:stedsnr" v="932622" />
	</node>
	<node id="-15740" lat="59.6826027757" lon="11.0946944365">
		<tag k="name" v="Stallvika" />
		<tag k="natural" v="bay" />
		<tag k="ssr:stedsnr" v="689689" />
	</node>
	<node id="-15739" lat="59.6862416622" lon="11.1356805548">
		<tag k="name" v="Nordre Tangevik" />
		<tag k="natural" v="bay" />
		<tag k="ssr:stedsnr" v="689688" />
	</node>
	<node id="-15865" lat="59.6203305546" lon="11.1089027807">
		<tag k="name" v="Smalelva" />
		<tag k="ssr:stedsnr" v="914954" />
		<tag k="waterway" v="river" />
	</node>
	<node id="-15864" lat="59.6902750044" lon="11.1295750077">
		<tag k="alt_name" v="Bokkøya" />
		<tag k="name" v="Bukkøya" />
		<tag k="place" v="island" />
		<tag k="ssr:stedsnr" v="914816" />
	</node>
	<node id="-15478" lat="59.5286249981" lon="11.047713891">
		<tag k="alt_name" v="Trestrekletjern" />
		<tag k="name" v="Trestikkeltjernet" />
		<tag k="natural" v="water" />
		<tag k="ssr:stedsnr" v="125013" />
	</node>
	<node id="-15476" lat="59.6610472181" lon="11.0915555564">
		<tag k="alt_name" v="Hollitjern" />
		<tag k="name" v="Hollitjernet" />
		<tag k="natural" v="water" />
		<tag k="ssr:stedsnr" v="124203" />
	</node>
	<node id="-15347" lat="59.5166000036" lon="11.0300000089">
		<tag k="alt_name" v="Stutefosstjernet" />
		<tag k="name" v="Stutfosstjern" />
		<tag k="natural" v="water" />
		<tag k="ssr:stedsnr" v="307066" />
	</node>
	<node id="-15730" lat="59.6151250023" lon="11.127049997">
		<tag k="alt_name" v="Saksebøløya" />
		<tag k="name" v="Jutulbrua" />
		<tag k="place" v="islet" />
		<tag k="ssr:stedsnr" v="671925" />
	</node>
	<node id="-15472" lat="59.6566083348" lon="11.180838889">
		<tag k="name" v="Skråperudvika" />
		<tag k="natural" v="bay" />
		<tag k="ssr:stedsnr" v="84151" />
	</node>
	<node id="-15725" lat="59.6587055544" lon="11.200674992">
		<tag k="name" v="Flatebyvika" />
		<tag k="natural" v="bay" />
		<tag k="ssr:stedsnr" v="671747" />
	</node>
	<node id="-15514" lat="59.670915206" lon="11.0880194873">
		<tag k="fixme" v="multiple name tags, choose one and add the other to alt_name" />
		<tag k="name" v="Rudtjernet;Skoletjern" />
		<tag k="natural" v="water" />
		<tag k="ssr:stedsnr" v="185431" />
	</node>
	<node id="-15466" lat="59.5925222184" lon="11.0819833317">
		<tag k="name" v="Kirkebekken" />
		<tag k="ssr:stedsnr" v="82786" />
		<tag k="waterway" v="stream" />
	</node>
	<node id="-15465" lat="59.687991671" lon="11.1143111043">
		<tag k="name" v="Tullebekkvika" />
		<tag k="natural" v="bay" />
		<tag k="ssr:stedsnr" v="82720" />
	</node>
	<node id="-15624" lat="59.6968944425" lon="11.1309388958">
		<tag k="name" v="Storøya" />
		<tag k="place" v="island" />
		<tag k="ssr:stedsnr" v="489826" />
	</node>
	<node id="-15843" lat="59.6806388846" lon="11.0834083332">
		<tag k="name" v="Gransodden" />
		<tag k="natural" v="cape" />
		<tag k="ssr:stedsnr" v="871661" />
	</node>
	<node id="-15842" lat="59.6790333317" lon="11.0791861192">
		<tag k="name" v="Dalennabben" />
		<tag k="natural" v="cape" />
		<tag k="ssr:stedsnr" v="871659" />
	</node>
	<node id="-15611" lat="59.5323388853" lon="11.0695861167">
		<tag k="alt_name" v="Gåsehalstjern" />
		<tag k="name" v="Gåsehalsen" />
		<tag k="natural" v="water" />
		<tag k="ssr:stedsnr" v="489002" />
	</node>
	<node id="-15708" lat="59.6674249968" lon="11.2212999971">
		<tag k="name" v="Bogen" />
		<tag k="natural" v="bay" />
		<tag k="ssr:stedsnr" v="630121" />
	</node>
	<node id="-15450" lat="59.6664750043" lon="11.2270388937">
		<tag k="name" v="Sleppetangen" />
		<tag k="natural" v="cape" />
		<tag k="ssr:stedsnr" v="64803" />
	</node>
	<node id="-15705" lat="59.5413666678" lon="11.0458083271">
		<tag k="name" v="Brønnstjern" />
		<tag k="natural" v="water" />
		<tag k="ssr:stedsnr" v="628932" />
	</node>
	<node id="-15702" lat="59.6797111135" lon="11.1013027844">
		<tag k="name" v="Rudsvika" />
		<tag k="natural" v="bay" />
		<tag k="ssr:stedsnr" v="628661" />
	</node>
	<node id="-15438" lat="59.6787777738" lon="11.1649944416">
		<tag k="name" v="Sjutjern" />
		<tag k="natural" v="water" />
		<tag k="ssr:stedsnr" v="22692" />
	</node>
	<node id="-15395" lat="59.6162555515" lon="11.1345805537">
		<tag k="name" v="Jutulen" />
		<tag k="natural" v="shoal" />
		<tag k="place" v="locality" />
		<tag k="ssr:stedsnr" v="385696" />
	</node>
	<node id="-15480" lat="59.5348583334" lon="11.0396750075">
		<tag k="name" v="Svarttjerna" />
		<tag k="natural" v="water" />
		<tag k="ssr:stedsnr" v="125031" />
	</node>
	<node id="-15694" lat="59.6877277769" lon="11.0988361042">
		<tag k="name" v="Haukenestangen" />
		<tag k="natural" v="cape" />
		<tag k="ssr:stedsnr" v="610835" />
	</node>
	<node id="-15790" lat="59.6960888926" lon="11.1196916606">
		<tag k="alt_name" v="Grinøya" />
		<tag k="name" v="Grønøya" />
		<tag k="place" v="island" />
		<tag k="ssr:stedsnr" v="792797" />
	</node>
	<node id="-15434" lat="59.6053055522" lon="11.0654638896">
		<tag k="name" v="Lundsbekken" />
		<tag k="ssr:stedsnr" v="22650" />
		<tag k="waterway" v="stream" />
	</node>
	<node id="-15608" lat="59.6629583363" lon="11.2272527718">
		<tag k="name" v="Svarthølet" />
		<tag k="natural" v="bay" />
		<tag k="ssr:stedsnr" v="449096" />
	</node>
	<node id="-15429" lat="59.690786109" lon="11.1152500062">
		<tag k="name" v="Hemnestangen" />
		<tag k="natural" v="cape" />
		<tag k="ssr:stedsnr" v="4840" />
	</node>
	<node id="-15615" lat="59.6986166622" lon="11.0860611139">
		<tag k="alt_name" v="Vasshytt-tjern" />
		<tag k="name" v="Vasstjernet" />
		<tag k="natural" v="water" />
		<tag k="ssr:stedsnr" v="489432" />
	</node>
	<node id="-15811" lat="59.5349666709" lon="11.0397638849">
		<tag k="name" v="Øvre Svarttjern" />
		<tag k="natural" v="water" />
		<tag k="ssr:stedsnr" v="811948" />
	</node>
	<node id="-15810" lat="59.5375944434" lon="11.0352111119">
		<tag k="name" v="Nedre Svarttjern" />
		<tag k="natural" v="water" />
		<tag k="ssr:stedsnr" v="811939" />
	</node>
	<node id="-15809" lat="59.5394194485" lon="11.0492694404">
		<tag k="name" v="Volledalsbekken" />
		<tag k="ssr:stedsnr" v="811937" />
		<tag k="waterway" v="stream" />
	</node>
	<node id="-15806" lat="59.6832805532" lon="11.1335166642">
		<tag k="name" v="Søndre Tangevik" />
		<tag k="natural" v="bay" />
		<tag k="ssr:stedsnr" v="811702" />
	</node>
	<node id="-15676" lat="59.5152194481" lon="11.0738749995">
		<tag k="name" v="Sollibekk" />
		<tag k="ssr:stedsnr" v="567867" />
		<tag k="waterway" v="stream" />
	</node>
	<node id="-15803" lat="59.6490194402" lon="11.1523305567">
		<tag k="name" v="Tonnerudvika" />
		<tag k="natural" v="bay" />
		<tag k="ssr:stedsnr" v="810732" />
	</node>
	<node id="-15359" lat="59.6790138927" lon="11.1291638834">
		<tag k="name" v="Brudeberget" />
		<tag k="natural" v="cape" />
		<tag k="ssr:stedsnr" v="325674" />
	</node>
	<node id="-15545" lat="59.5106472233" lon="11.0162249987">
		<tag k="name" v="Muskedalstjernet" />
		<tag k="natural" v="water" />
		<tag k="ssr:stedsnr" v="246086" />
	</node>
	<node id="-15474" lat="59.6842305542" lon="11.0833777864">
		<tag k="name" v="Lyseren" />
		<tag k="natural" v="water" />
		<tag k="ssr:stedsnr" v="125447" />
		<tag k="water" v="lake" />
	</node>
	<node id="-15880" lat="59.6819611124" lon="11.0786611184">
		<tag k="name" v="Lystadvika" />
		<tag k="natural" v="bay" />
		<tag k="ssr:stedsnr" v="932694" />
	</node>
	<node id="-15534" lat="59.6161277791" lon="11.123569436">
		<tag k="name" v="Saksebølvika" />
		<tag k="natural" v="bay" />
		<tag k="ssr:stedsnr" v="204651" />
	</node>
	<node id="-15346" lat="59.5261472184" lon="11.0580305553">
		<tag k="alt_name" v="Høymyrtjern" />
		<tag k="name" v="Høymyrtjernet" />
		<tag k="natural" v="water" />
		<tag k="ssr:stedsnr" v="307020" />
	</node>
	<node id="-15402" lat="59.5485888929" lon="10.9913888812">
		<tag k="name" v="Slorebråttjernet" />
		<tag k="natural" v="water" />
		<tag k="ssr:stedsnr" v="386934" />
	</node>
	<node id="-15874" lat="59.6781805552" lon="11.1257750027">
		<tag k="name" v="Onsnabben" />
		<tag k="natural" v="cape" />
		<tag k="ssr:stedsnr" v="932654" />
	</node>
	<node id="-15651" lat="59.5451055521" lon="11.052463896">
		<tag k="alt_name" v="Gravtjern" />
		<tag k="name" v="Gravtjernet" />
		<tag k="natural" v="water" />
		<tag k="ssr:stedsnr" v="550024" />
	</node>
	<node id="-15531" lat="59.6200749999" lon="11.1343361036">
		<tag k="name" v="Åssumtangen" />
		<tag k="natural" v="cape" />
		<tag k="ssr:stedsnr" v="204627" />
	</node>
	<node id="-15773" lat="59.5867722214" lon="11.0513444383">
		<tag k="name" v="Nykjosbekken" />
		<tag k="ssr:stedsnr" v="750770" />
		<tag k="waterway" v="stream" />
	</node>
	<node id="-15515" lat="59.6753944484" lon="11.1475999936">
		<tag k="name" v="Langtjern" />
		<tag k="natural" v="water" />
		<tag k="ssr:stedsnr" v="186029" />
	</node>
	<node id="-15642" lat="59.6563166681" lon="11.1842805559">
		<tag k="name" v="Rugga hølet" />
		<tag k="natural" v="bay" />
		<tag k="ssr:stedsnr" v="509117" />
	</node>
	<node id="-15640" lat="59.668338892" lon="11.2252666662">
		<tag k="name" v="Bognabben" />
		<tag k="natural" v="cape" />
		<tag k="ssr:stedsnr" v="509104" />
	</node>
	<node id="-15636" lat="59.5202388916" lon="10.9803222271">
		<tag k="name" v="Nesoddammen" />
		<tag k="natural" v="water" />
		<tag k="ssr:stedsnr" v="507999" />
	</node>
	<node id="-15891" lat="59.5133111155" lon="11.0228277733">
		<tag k="name" v="Vesletjern" />
		<tag k="natural" v="water" />
		<tag k="ssr:stedsnr" v="932991" />
	</node>
	<node id="-15506" lat="59.5640999961" lon="10.9826388944">
		<tag k="name" v="Mørkbekken" />
		<tag k="ssr:stedsnr" v="143983" />
		<tag k="waterway" v="stream" />
	</node>
	<node id="-15633" lat="59.5825472226" lon="11.0613583387">
		<tag k="name" v="Kjosebekken" />
		<tag k="ssr:stedsnr" v="507783" />
		<tag k="waterway" v="stream" />
	</node>
	<node id="-15632" lat="59.6844527773" lon="11.1120277705">
		<tag k="name" v="Sørvika" />
		<tag k="natural" v="bay" />
		<tag k="ssr:stedsnr" v="507742" />
	</node>
	<node id="-15366" lat="59.5785027797" lon="11.0081805501">
		<tag k="name" v="Svarttjern" />
		<tag k="natural" v="water" />
		<tag k="ssr:stedsnr" v="325757" />
	</node>
	<node id="-15886" lat="59.5306194456" lon="11.0649277756">
		<tag k="name" v="Svartekulp" />
		<tag k="natural" v="water" />
		<tag k="ssr:stedsnr" v="932779" />
	</node>
	<node id="-15627" lat="59.6267611154" lon="11.0782250023">
		<tag k="name" v="Hyllibekken" />
		<tag k="ssr:stedsnr" v="507652" />
		<tag k="waterway" v="stream" />
	</node>
	<node id="-15752" lat="59.6579944466" lon="11.2036500087">
		<tag k="name" v="Flatebynabben" />
		<tag k="natural" v="cape" />
		<tag k="ssr:stedsnr" v="691134" />
	</node>
	<node id="-15750" lat="59.676966667" lon="11.2191055571">
		<tag k="name" v="Tjueholmen" />
		<tag k="place" v="islet" />
		<tag k="ssr:stedsnr" v="691132" />
	</node>
	<node id="-15566" lat="59.6842805525" lon="11.0829805544">
		<tag k="name" v="Kaninøya" />
		<tag k="place" v="islet" />
		<tag k="ssr:stedsnr" v="264726" />
	</node>
	<node id="-15364" lat="59.6839611134" lon="11.1423611143">
		<tag k="name" v="Gulltjern" />
		<tag k="natural" v="water" />
		<tag k="ssr:stedsnr" v="325704" />
	</node>
	<node id="-15363" lat="59.6930583362" lon="11.1387555631">
		<tag k="name" v="Kattholmen" />
		<tag k="place" v="islet" />
		<tag k="ssr:stedsnr" v="325706" />
	</node>
	<node id="-15746" lat="59.5407305555" lon="11.0550250074">
		<tag k="name" v="Vesle Gravtjern" />
		<tag k="natural" v="water" />
		<tag k="ssr:stedsnr" v="689946" />
	</node>
	<node id="-15745" lat="59.5473762306" lon="10.9940624347">
		<tag k="name" v="Dammen" />
		<tag k="natural" v="water" />
		<tag k="ssr:stedsnr" v="689934" />
		<tag k="water" v="lake" />
	</node>
</osm>
