<?xml version="1.0" encoding="UTF-8"?>
<<<<<<< HEAD
<osm version="0.6" generator="osmapis">
	<node lat="59.143236112621054" lon="5.259083331357123" id="-2416">
		<tag k="name" v="Skudeneshavn molo" />
		<tag k="ssr:date" v="2016-05-10" />
		<tag k="ssr:gruppe" v="navigasjon" />
		<tag k="ssr:hovedgruppe" v="infrastruktur" />
		<tag k="ssr:stedsnr" v="57715" />
		<tag k="ssr:type" v="lanterne" />
	</node>
	<node lat="59.403316664977055" lon="5.157633336488887" id="-2495">
		<tag k="alt_name" v="Kvaløytåi" />
		<tag k="name" v="Kvaløytåi lykt" />
		<tag k="old_name" v="Kvaløytåa" />
		<tag k="ssr:date" v="2016-05-10" />
		<tag k="ssr:gruppe" v="navigasjon" />
		<tag k="ssr:hovedgruppe" v="infrastruktur" />
		<tag k="ssr:stedsnr" v="244644" />
		<tag k="ssr:type" v="fyrlykt" />
	</node>
	<node lat="59.37573611080689" lon="5.297066661945419" id="-2563">
		<tag k="alt_name" v="Norheim" />
		<tag k="name" v="Norheim lykt" />
		<tag k="ssr:date" v="2016-05-10" />
		<tag k="ssr:gruppe" v="navigasjon" />
		<tag k="ssr:hovedgruppe" v="infrastruktur" />
		<tag k="ssr:stedsnr" v="178113" />
		<tag k="ssr:type" v="fyrlykt" />
	</node>
	<node lat="59.24317499561628" lon="5.197869446890841" id="-2566">
		<tag k="name" v="Liknesstien" />
		<tag k="ssr:date" v="2019-05-30" />
		<tag k="ssr:gruppe" v="veg" />
		<tag k="ssr:hovedgruppe" v="infrastruktur" />
		<tag k="ssr:stedsnr" v="181108" />
		<tag k="ssr:type" v="adressenavn" />
	</node>
	<node lat="59.301169447315885" lon="5.209619452593212" id="-2574">
		<tag k="name" v="Hellesøyskjeret" />
		<tag k="ssr:date" v="2019-05-30" />
		<tag k="ssr:gruppe" v="veg" />
		<tag k="ssr:hovedgruppe" v="infrastruktur" />
		<tag k="ssr:stedsnr" v="181427" />
		<tag k="ssr:type" v="adressenavn" />
	</node>
	<node lat="59.398221393377916" lon="5.208677027278977" id="-2599">
		<tag k="alt_name" v="Hanseskjær" />
		<tag k="name" v="Hanseskjer lykt" />
		<tag k="ssr:date" v="2017-11-27" />
		<tag k="ssr:gruppe" v="navigasjon" />
		<tag k="ssr:hovedgruppe" v="infrastruktur" />
		<tag k="ssr:stedsnr" v="183608" />
		<tag k="ssr:type" v="fyrlykt" />
	</node>
	<node lat="59.29913055774699" lon="5.334830555045328" id="-2607">
		<tag k="alt_name" v="Dua" />
		<tag k="name" v="Dua lykt" />
		<tag k="ssr:date" v="2016-05-10" />
		<tag k="ssr:gruppe" v="navigasjon" />
		<tag k="ssr:hovedgruppe" v="infrastruktur" />
		<tag k="ssr:stedsnr" v="184943" />
		<tag k="ssr:type" v="fyrlykt" />
	</node>
	<node lat="59.40884108526631" lon="5.2465513137880855" id="-2614">
		<tag k="name" v="Osnesgavlen" />
		<tag k="ssr:date" v="2017-03-24" />
		<tag k="ssr:gruppe" v="navigasjon" />
		<tag k="ssr:hovedgruppe" v="infrastruktur" />
		<tag k="ssr:stedsnr" v="267397" />
		<tag k="ssr:type" v="fyrlykt" />
	</node>
	<node lat="59.37216689218379" lon="5.171854721548598" id="-2713">
		<tag k="alt_name" v="Feøy" />
		<tag k="name" v="Feøy lykt" />
		<tag k="ssr:date" v="2020-09-03" />
		<tag k="ssr:gruppe" v="navigasjon" />
		<tag k="ssr:hovedgruppe" v="infrastruktur" />
		<tag k="ssr:stedsnr" v="244578" />
		<tag k="ssr:type" v="fyrlykt" />
	</node>
	<node lat="59.40601666721114" lon="5.233916666354018" id="-2786">
		<tag k="name" v="Kobbholmen, Øvre" />
		<tag k="ssr:date" v="2016-05-10" />
		<tag k="ssr:gruppe" v="navigasjon" />
		<tag k="ssr:hovedgruppe" v="infrastruktur" />
		<tag k="ssr:stedsnr" v="344814" />
		<tag k="ssr:type" v="lanterne" />
	</node>
	<node lat="59.15204167100217" lon="5.174483339400258" id="-2950">
		<tag k="alt_name" v="Jarsteinen" />
		<tag k="name" v="Jarsteinen lykt" />
		<tag k="ssr:date" v="2016-05-10" />
		<tag k="ssr:gruppe" v="navigasjon" />
		<tag k="ssr:hovedgruppe" v="infrastruktur" />
		<tag k="ssr:stedsnr" v="427410" />
		<tag k="ssr:type" v="fyrlykt" />
	</node>
	<node lat="59.307030553414755" lon="5.215805561988078" id="-2954">
		<tag k="alt_name" v="Veavåg;Veavåg lykt" />
		<tag k="name" v="Veavågen lykt" />
		<tag k="ssr:date" v="2016-05-10" />
		<tag k="ssr:gruppe" v="navigasjon" />
		<tag k="ssr:hovedgruppe" v="infrastruktur" />
		<tag k="ssr:stedsnr" v="670965" />
		<tag k="ssr:type" v="fyrlykt" />
	</node>
	<node lat="59.144816662329426" lon="5.266188893337552" id="-2971">
		<tag k="alt_name" v="Ringaskjær" />
		<tag k="name" v="Ringaskjer lanterne" />
		<tag k="ssr:date" v="2016-05-10" />
		<tag k="ssr:gruppe" v="navigasjon" />
		<tag k="ssr:hovedgruppe" v="infrastruktur" />
		<tag k="ssr:stedsnr" v="482708" />
		<tag k="ssr:type" v="lanterne" />
	</node>
	<node lat="59.14360000459651" lon="5.273302784824565" id="-2972">
		<tag k="name" v="Bell Rock lanterne" />
		<tag k="ssr:date" v="2016-05-10" />
		<tag k="ssr:gruppe" v="navigasjon" />
		<tag k="ssr:hovedgruppe" v="infrastruktur" />
		<tag k="ssr:stedsnr" v="482710" />
		<tag k="ssr:type" v="lanterne" />
	</node>
	<node lat="59.25425277825246" lon="5.173727785636045" id="-3018">
		<tag k="loc_name" v="Åkrehamn lykt" />
		<tag k="name" v="Åkrehamn" />
		<tag k="ssr:date" v="2016-05-10" />
		<tag k="ssr:gruppe" v="navigasjon" />
		<tag k="ssr:hovedgruppe" v="infrastruktur" />
		<tag k="ssr:stedsnr" v="511099" />
		<tag k="ssr:type" v="fyrlykt" />
	</node>
	<node lat="59.14194963860201" lon="5.276044458191519" id="-3057">
		<tag k="alt_name" v="Vikaholmen" />
		<tag k="name" v="Vikaholmen lykt" />
		<tag k="old_name" v="Vikholmen" />
		<tag k="ssr:date" v="2020-09-03" />
		<tag k="ssr:gruppe" v="navigasjon" />
		<tag k="ssr:hovedgruppe" v="infrastruktur" />
		<tag k="ssr:stedsnr" v="548416" />
		<tag k="ssr:type" v="fyrlykt" />
	</node>
	<node lat="59.17713986290145" lon="5.191111526513435" id="-3067">
		<tag k="alt_name" v="Sandve" />
		<tag k="name" v="Sandve lykt" />
		<tag k="ssr:date" v="2020-09-03" />
		<tag k="ssr:gruppe" v="navigasjon" />
		<tag k="ssr:hovedgruppe" v="infrastruktur" />
		<tag k="ssr:stedsnr" v="570306" />
		<tag k="ssr:type" v="fyrlykt" />
	</node>
	<node lat="59.22681944643937" lon="5.169611116776408" id="-3090">
		<tag k="alt_name" v="Ferkingstadneset" />
		<tag k="name" v="Ferkingstadneset lykt" />
		<tag k="ssr:date" v="2016-05-10" />
		<tag k="ssr:gruppe" v="navigasjon" />
		<tag k="ssr:hovedgruppe" v="infrastruktur" />
		<tag k="ssr:stedsnr" v="583741" />
		<tag k="ssr:type" v="fyrlykt" />
	</node>
	<node lat="59.14711944230163" lon="5.225305558766574" id="-3143">
		<tag k="alt_name" v="Syrevågen" />
		<tag k="name" v="Syrevågen lykt" />
		<tag k="ssr:date" v="2016-05-10" />
		<tag k="ssr:gruppe" v="navigasjon" />
		<tag k="ssr:hovedgruppe" v="infrastruktur" />
		<tag k="ssr:stedsnr" v="633758" />
		<tag k="ssr:type" v="fyrlykt" />
	</node>
	<node lat="59.16148611490107" lon="5.311894446289901" id="-3224">
		<tag k="name" v="Svortingen lykt" />
		<tag k="ssr:date" v="2016-05-11" />
		<tag k="ssr:gruppe" v="navigasjon" />
		<tag k="ssr:hovedgruppe" v="infrastruktur" />
		<tag k="ssr:stedsnr" v="727641" />
		<tag k="ssr:type" v="fyrlykt" />
	</node>
	<node lat="59.38583888761246" lon="5.183877769294568" id="-3242">
		<tag k="alt_name" v="Kvaløysund" />
		<tag k="fixme" v="multiple name tags, choose one and add the other to alt_name" />
		<tag k="name" v="Kvaløysund lykt;Kvaløysundet" />
		<tag k="ssr:date" v="2016-05-11" />
		<tag k="ssr:gruppe" v="navigasjon" />
		<tag k="ssr:hovedgruppe" v="infrastruktur" />
		<tag k="ssr:stedsnr" v="730610" />
		<tag k="ssr:type" v="fyrlykt" />
	</node>
	<node lat="59.14551666318934" lon="5.259655550574899" id="-3312">
		<tag k="name" v="Steiningsodden lanterne" />
		<tag k="ssr:date" v="2016-05-11" />
		<tag k="ssr:gruppe" v="navigasjon" />
		<tag k="ssr:hovedgruppe" v="infrastruktur" />
		<tag k="ssr:stedsnr" v="785715" />
		<tag k="ssr:type" v="lanterne" />
	</node>
	<node lat="59.33845277826151" lon="5.189077777953418" id="-3376">
		<tag k="alt_name" v="Kallstø" />
		<tag k="name" v="Kallstø lykt" />
		<tag k="ssr:date" v="2016-05-11" />
		<tag k="ssr:gruppe" v="navigasjon" />
		<tag k="ssr:hovedgruppe" v="infrastruktur" />
		<tag k="ssr:stedsnr" v="912544" />
		<tag k="ssr:type" v="fyrlykt" />
	</node>
	<node lat="59.40649721946214" lon="5.233175003834336" id="-3405">
		<tag k="name" v="Kobbholmen, Nedre" />
		<tag k="ssr:date" v="2016-05-11" />
		<tag k="ssr:gruppe" v="navigasjon" />
		<tag k="ssr:hovedgruppe" v="infrastruktur" />
		<tag k="ssr:stedsnr" v="830810" />
		<tag k="ssr:type" v="lanterne" />
	</node>
	<node lat="59.25281944500855" lon="5.184874993352174" id="-3485">
		<tag k="name" v="Stongtunet" />
		<tag k="ssr:date" v="2019-05-30" />
		<tag k="ssr:gruppe" v="veg" />
		<tag k="ssr:hovedgruppe" v="infrastruktur" />
		<tag k="ssr:stedsnr" v="909712" />
		<tag k="ssr:type" v="adressenavn" />
	</node>
	<node lat="59.255444925602355" lon="5.175703938909394" id="-3562">
		<tag k="name" v="Mortholmen" />
		<tag k="ssr:date" v="2019-05-30" />
		<tag k="ssr:gruppe" v="veg" />
		<tag k="ssr:hovedgruppe" v="infrastruktur" />
		<tag k="ssr:stedsnr" v="972589" />
		<tag k="ssr:type" v="adressenavn" />
	</node>
	<node lat="59.14390519800429" lon="5.258208568182772" id="-3563">
		<tag k="name" v="Skagaskjeret lanterne" />
		<tag k="ssr:date" v="2016-12-28" />
		<tag k="ssr:gruppe" v="navigasjon" />
		<tag k="ssr:hovedgruppe" v="infrastruktur" />
		<tag k="ssr:stedsnr" v="973627" />
		<tag k="ssr:type" v="lanterne" />
	</node>
	<node lat="59.38448189904417" lon="5.3297703065581405" id="-3568">
		<tag k="name" v="Spannatoppen" />
=======
<osm generator="osmapis" version="0.6">
	<node id="-40436" lat="59.3804472244" lon="5.30719722814">
		<tag k="name" v="Spannadalen" />
>>>>>>> e1d4bc35ff8a6074a6f2e91616a996b547c36f15
		<tag k="ssr:date" v="2019-05-30" />
		<tag k="ssr:gruppe" v="veg" />
		<tag k="ssr:hovedgruppe" v="infrastruktur" />
		<tag k="ssr:stedsnr" v="975919" />
		<tag k="ssr:type" v="adressenavn" />
	</node>
<<<<<<< HEAD
	<node lat="59.29265687092603" lon="5.296394285325203" id="-3581">
		<tag k="name" v="Nordalsbakken" />
=======
	<node id="-41451" lat="59.3904583374" lon="5.330655556">
		<tag k="name" v="Husafjellvegen" />
>>>>>>> e1d4bc35ff8a6074a6f2e91616a996b547c36f15
		<tag k="ssr:date" v="2019-05-30" />
		<tag k="ssr:gruppe" v="veg" />
		<tag k="ssr:hovedgruppe" v="infrastruktur" />
		<tag k="ssr:stedsnr" v="987731" />
		<tag k="ssr:type" v="adressenavn" />
	</node>
<<<<<<< HEAD
	<node lat="59.280805556149204" lon="5.305391661076456" id="-3603">
		<tag k="alt_name" v="Karmøy" />
		<tag k="name" v="Karmøy kommune" />
		<tag k="ssr:date" v="2017-03-24" />
		<tag k="ssr:gruppe" v="administrativeIndelinger" />
		<tag k="ssr:hovedgruppe" v="offentligAdministrasjon" />
		<tag k="ssr:stedsnr" v="24817" />
		<tag k="ssr:type" v="kommune" />
	</node>
	<node lat="59.33372584269106" lon="5.31548632885094" id="-3625">
		<tag k="alt_name" v="Høgevarde" />
		<tag k="name" v="Høgevarde lykt" />
		<tag k="ssr:date" v="2020-09-03" />
=======
	<node id="-41441" lat="59.4064972195" lon="5.23317500383">
		<tag k="name" v="Kobbholmen, Nedre" />
		<tag k="ssr:date" v="2016-05-11" />
>>>>>>> e1d4bc35ff8a6074a6f2e91616a996b547c36f15
		<tag k="ssr:gruppe" v="navigasjon" />
		<tag k="ssr:hovedgruppe" v="infrastruktur" />
		<tag k="ssr:stedsnr" v="52482" />
		<tag k="ssr:type" v="fyrlykt" />
	</node>
<<<<<<< HEAD
	<node lat="59.131477781779054" lon="5.24264722706507" id="-3734">
		<tag k="alt_name" v="Geitungen" />
		<tag k="name" v="Geitungen fyr" />
=======
	<node id="-39901" lat="59.1436000046" lon="5.27330278482">
		<tag k="name" v="Bell Rock lanterne" />
>>>>>>> e1d4bc35ff8a6074a6f2e91616a996b547c36f15
		<tag k="ssr:date" v="2016-05-10" />
		<tag k="ssr:gruppe" v="navigasjon" />
		<tag k="ssr:hovedgruppe" v="infrastruktur" />
		<tag k="ssr:stedsnr" v="122396" />
		<tag k="ssr:type" v="fyrstasjon" />
	</node>
<<<<<<< HEAD
	<node lat="59.353519891119404" lon="5.30983921585448" id="-3908">
		<tag k="alt_name" v="Bukøy" />
		<tag k="name" v="Bukkøya lykt" />
		<tag k="ssr:date" v="2020-09-03" />
		<tag k="ssr:gruppe" v="navigasjon" />
		<tag k="ssr:hovedgruppe" v="infrastruktur" />
		<tag k="ssr:stedsnr" v="305558" />
		<tag k="ssr:type" v="fyrlykt" />
	</node>
	<node lat="59.37666944665842" lon="5.148177770672583" id="-3910">
		<tag k="alt_name" v="Middagsnes" />
		<tag k="name" v="Middagsnes lykt" />
=======
	<node id="-39900" lat="59.1448166623" lon="5.26618889334">
		<tag k="alt_name" v="Ringaskjær" />
		<tag k="name" v="Ringaskjer lanterne" />
>>>>>>> e1d4bc35ff8a6074a6f2e91616a996b547c36f15
		<tag k="ssr:date" v="2016-05-10" />
		<tag k="ssr:gruppe" v="navigasjon" />
		<tag k="ssr:hovedgruppe" v="infrastruktur" />
		<tag k="ssr:stedsnr" v="305637" />
		<tag k="ssr:type" v="fyrlykt" />
	</node>
<<<<<<< HEAD
	<node lat="59.27669166548841" lon="5.179497213843636" id="-3918">
		<tag k="alt_name" v="Marøy" />
		<tag k="name" v="Marøy lykt" />
=======
	<node id="-39897" lat="59.3070305534" lon="5.21580556199">
		<tag k="alt_name" v="Veavåg;Veavåg lykt" />
		<tag k="name" v="Veavågen lykt" />
>>>>>>> e1d4bc35ff8a6074a6f2e91616a996b547c36f15
		<tag k="ssr:date" v="2016-05-10" />
		<tag k="ssr:gruppe" v="navigasjon" />
		<tag k="ssr:hovedgruppe" v="infrastruktur" />
		<tag k="ssr:stedsnr" v="305925" />
		<tag k="ssr:type" v="fyrlykt" />
	</node>
<<<<<<< HEAD
	<node lat="59.26836944469814" lon="5.356297214460288" id="-3930">
=======
	<node id="-40920" lat="59.2683694447" lon="5.35629721446">
>>>>>>> e1d4bc35ff8a6074a6f2e91616a996b547c36f15
		<tag k="alt_name" v="Krokeneset" />
		<tag k="name" v="Krokeneset lykt" />
		<tag k="ssr:date" v="2016-05-10" />
		<tag k="ssr:gruppe" v="navigasjon" />
		<tag k="ssr:hovedgruppe" v="infrastruktur" />
		<tag k="ssr:stedsnr" v="329094" />
		<tag k="ssr:type" v="fyrlykt" />
	</node>
<<<<<<< HEAD
	<node lat="59.14925833203926" lon="5.269955559054841" id="-3952">
		<tag k="name" v="Berglundvegen" />
		<tag k="ssr:date" v="2019-05-30" />
		<tag k="ssr:gruppe" v="veg" />
=======
	<node id="-39881" lat="59.4203749989" lon="5.20974166774">
		<tag k="alt_name" v="Kråkene" />
		<tag k="name" v="Kråkene lykt" />
		<tag k="ssr:date" v="2016-05-10" />
		<tag k="ssr:gruppe" v="navigasjon" />
>>>>>>> e1d4bc35ff8a6074a6f2e91616a996b547c36f15
		<tag k="ssr:hovedgruppe" v="infrastruktur" />
		<tag k="ssr:stedsnr" v="362994" />
		<tag k="ssr:type" v="adressenavn" />
	</node>
<<<<<<< HEAD
	<node lat="59.41610555365556" lon="5.230858331628167" id="-4085">
		<tag k="alt_name" v="Vestre Karmsund" />
		<tag k="name" v="Vestre Karmsund lykt" />
=======
	<node id="-39878" lat="59.3741666625" lon="5.19946110817">
		<tag k="alt_name" v="Flatmøy" />
		<tag k="name" v="Flatmøy lykt" />
>>>>>>> e1d4bc35ff8a6074a6f2e91616a996b547c36f15
		<tag k="ssr:date" v="2016-05-10" />
		<tag k="ssr:gruppe" v="navigasjon" />
		<tag k="ssr:hovedgruppe" v="infrastruktur" />
		<tag k="ssr:stedsnr" v="509350" />
		<tag k="ssr:type" v="fyrlykt" />
	</node>
<<<<<<< HEAD
	<node lat="59.34911667074063" lon="5.3159555548195785" id="-4088">
		<tag k="alt_name" v="Snikspynten" />
		<tag k="name" v="Snikspynten lykt" />
=======
	<node id="-40901" lat="59.2766916655" lon="5.17949721384">
		<tag k="alt_name" v="Marøy" />
		<tag k="name" v="Marøy lykt" />
>>>>>>> e1d4bc35ff8a6074a6f2e91616a996b547c36f15
		<tag k="ssr:date" v="2016-05-10" />
		<tag k="ssr:gruppe" v="navigasjon" />
		<tag k="ssr:hovedgruppe" v="infrastruktur" />
		<tag k="ssr:stedsnr" v="510397" />
		<tag k="ssr:type" v="fyrlykt" />
	</node>
<<<<<<< HEAD
	<node lat="58.9647333357896" lon="5.731188892301877" id="-4093">
		<tag k="alt_name" v="Rogaland" />
		<tag k="name" v="Rogaland fylke" />
		<tag k="ssr:date" v="2021-02-03" />
		<tag k="ssr:gruppe" v="administrativeIndelinger" />
		<tag k="ssr:hovedgruppe" v="offentligAdministrasjon" />
		<tag k="ssr:stedsnr" v="511115" />
		<tag k="ssr:type" v="fylke" />
	</node>
	<node lat="59.334661112126135" lon="5.303569438947606" id="-4111">
		<tag k="name" v="Melandholmen" />
		<tag k="ssr:date" v="2016-05-10" />
=======
	<node id="-40388" lat="59.3757194399" lon="5.29367221828">
		<tag k="alt_name" v="Salhus" />
		<tag k="name" v="Salhus lykt" />
		<tag k="ssr:date" v="2016-05-11" />
>>>>>>> e1d4bc35ff8a6074a6f2e91616a996b547c36f15
		<tag k="ssr:gruppe" v="navigasjon" />
		<tag k="ssr:hovedgruppe" v="infrastruktur" />
		<tag k="ssr:stedsnr" v="537150" />
		<tag k="ssr:type" v="jernstang" />
	</node>
<<<<<<< HEAD
	<node lat="59.37819166741335" lon="5.311055562111396" id="-4114">
		<tag k="name" v="Norheimstien" />
		<tag k="ssr:date" v="2019-05-30" />
		<tag k="ssr:gruppe" v="veg" />
		<tag k="ssr:hovedgruppe" v="infrastruktur" />
		<tag k="ssr:stedsnr" v="544999" />
		<tag k="ssr:type" v="adressenavn" />
	</node>
	<node lat="59.25206755173406" lon="5.35041244228993" id="-4164">
		<tag k="alt_name" v="Smørstakk" />
		<tag k="name" v="Smørstakk lykt" />
		<tag k="ssr:date" v="2020-09-03" />
		<tag k="ssr:gruppe" v="navigasjon" />
		<tag k="ssr:hovedgruppe" v="infrastruktur" />
		<tag k="ssr:stedsnr" v="548871" />
		<tag k="ssr:type" v="fyrlykt" />
	</node>
	<node lat="59.28952221825822" lon="5.318363895309145" id="-4255">
		<tag k="alt_name" v="Kopervik" />
		<tag k="name" v="Kopervik lykt" />
=======
	<node id="-40895" lat="59.3766694467" lon="5.14817777067">
		<tag k="alt_name" v="Middagsnes" />
		<tag k="name" v="Middagsnes lykt" />
		<tag k="ssr:date" v="2016-05-10" />
		<tag k="ssr:gruppe" v="navigasjon" />
		<tag k="ssr:hovedgruppe" v="infrastruktur" />
		<tag k="ssr:stedsnr" v="305637" />
		<tag k="ssr:type" v="fyrlykt" />
	</node>
	<node id="-40889" lat="59.353491663" lon="5.30986388316">
		<tag k="alt_name" v="Bukøy" />
		<tag k="name" v="Bukkøya" />
>>>>>>> e1d4bc35ff8a6074a6f2e91616a996b547c36f15
		<tag k="ssr:date" v="2016-05-10" />
		<tag k="ssr:gruppe" v="navigasjon" />
		<tag k="ssr:hovedgruppe" v="infrastruktur" />
		<tag k="ssr:stedsnr" v="632094" />
		<tag k="ssr:type" v="fyrlykt" />
	</node>
<<<<<<< HEAD
	<node lat="59.14336389195687" lon="5.271911110770336" id="-4265">
		<tag k="name" v="Nesegapet" />
		<tag k="ssr:date" v="2016-05-10" />
=======
	<node id="-41352" lat="59.1455166632" lon="5.25965555057">
		<tag k="name" v="Steiningsodden lanterne" />
		<tag k="ssr:date" v="2016-05-11" />
>>>>>>> e1d4bc35ff8a6074a6f2e91616a996b547c36f15
		<tag k="ssr:gruppe" v="navigasjon" />
		<tag k="ssr:hovedgruppe" v="infrastruktur" />
		<tag k="ssr:stedsnr" v="664722" />
		<tag k="ssr:type" v="lanterne" />
	</node>
<<<<<<< HEAD
	<node lat="59.42045123610544" lon="5.20965774347865" id="-4318">
		<tag k="alt_name" v="Kråkene" />
		<tag k="name" v="Kråkene lykt" />
		<tag k="ssr:date" v="2020-09-03" />
=======
	<node id="-40820" lat="59.2991305577" lon="5.33483055505">
		<tag k="alt_name" v="Dua" />
		<tag k="name" v="Dua lykt" />
		<tag k="ssr:date" v="2016-05-10" />
>>>>>>> e1d4bc35ff8a6074a6f2e91616a996b547c36f15
		<tag k="ssr:gruppe" v="navigasjon" />
		<tag k="ssr:hovedgruppe" v="infrastruktur" />
		<tag k="ssr:stedsnr" v="669654" />
		<tag k="ssr:type" v="fyrlykt" />
	</node>
<<<<<<< HEAD
	<node lat="59.37416666251485" lon="5.199461108172712" id="-4322">
		<tag k="alt_name" v="Flatmøy" />
		<tag k="name" v="Flatmøy lykt" />
=======
	<node id="-39793" lat="59.152041671" lon="5.1744833394">
		<tag k="alt_name" v="Jarsteinen" />
		<tag k="name" v="Jarsteinen lykt" />
>>>>>>> e1d4bc35ff8a6074a6f2e91616a996b547c36f15
		<tag k="ssr:date" v="2016-05-10" />
		<tag k="ssr:gruppe" v="navigasjon" />
		<tag k="ssr:hovedgruppe" v="infrastruktur" />
		<tag k="ssr:stedsnr" v="669599" />
		<tag k="ssr:type" v="fyrlykt" />
	</node>
<<<<<<< HEAD
	<node lat="59.14075277732163" lon="5.292855564299627" id="-4376">
		<tag k="alt_name" v="Skudenes" />
		<tag k="name" v="Skudenes lykt" />
		<tag k="ssr:date" v="2016-05-11" />
=======
	<node id="-41618" lat="59.349731486" lon="5.32439073165">
		<tag k="name" v="Snikspynten" />
		<tag k="ssr:date" v="2019-05-30" />
		<tag k="ssr:gruppe" v="veg" />
		<tag k="ssr:hovedgruppe" v="infrastruktur" />
		<tag k="ssr:stedsnr" v="987732" />
		<tag k="ssr:type" v="adressenavn" />
	</node>
	<node id="-40797" lat="59.3982213934" lon="5.20867702728">
		<tag k="alt_name" v="Hanseskjær" />
		<tag k="name" v="Hanseskjer lykt" />
		<tag k="ssr:date" v="2017-11-27" />
>>>>>>> e1d4bc35ff8a6074a6f2e91616a996b547c36f15
		<tag k="ssr:gruppe" v="navigasjon" />
		<tag k="ssr:hovedgruppe" v="infrastruktur" />
		<tag k="ssr:stedsnr" v="729397" />
		<tag k="ssr:type" v="fyrlykt" />
	</node>
<<<<<<< HEAD
	<node lat="59.14054166437861" lon="5.238347229612656" id="-4377">
		<tag k="alt_name" v="Hekseterholmen" />
		<tag k="name" v="Hekseterholmen lykt" />
=======
	<node id="-40278" lat="59.3384527783" lon="5.18907777795">
		<tag k="alt_name" v="Kallstø" />
		<tag k="name" v="Kallstø lykt" />
>>>>>>> e1d4bc35ff8a6074a6f2e91616a996b547c36f15
		<tag k="ssr:date" v="2016-05-11" />
		<tag k="ssr:gruppe" v="navigasjon" />
		<tag k="ssr:hovedgruppe" v="infrastruktur" />
		<tag k="ssr:stedsnr" v="729399" />
		<tag k="ssr:type" v="fyrlykt" />
	</node>
<<<<<<< HEAD
	<node lat="59.39045833735908" lon="5.330655556003887" id="-4492">
		<tag k="name" v="Husafjellvegen" />
		<tag k="ssr:date" v="2019-05-30" />
		<tag k="ssr:gruppe" v="veg" />
=======
	<node id="-41301" lat="59.2895222183" lon="5.31836389531">
		<tag k="alt_name" v="Kopervik" />
		<tag k="name" v="Kopervik lykt" />
		<tag k="ssr:date" v="2016-05-10" />
		<tag k="ssr:gruppe" v="navigasjon" />
>>>>>>> e1d4bc35ff8a6074a6f2e91616a996b547c36f15
		<tag k="ssr:hovedgruppe" v="infrastruktur" />
		<tag k="ssr:stedsnr" v="849134" />
		<tag k="ssr:type" v="adressenavn" />
	</node>
<<<<<<< HEAD
	<node lat="59.301774998999825" lon="5.2115388821811806" id="-4507">
		<tag k="name" v="Hellesøy" />
		<tag k="ssr:date" v="2019-05-30" />
		<tag k="ssr:gruppe" v="veg" />
=======
	<node id="-40451" lat="59.2545239357" lon="5.36098838234">
		<tag k="name" v="Lauvøy" />
		<tag k="ssr:date" v="2019-05-30" />
		<tag k="ssr:gruppe" v="veg" />
		<tag k="ssr:hovedgruppe" v="infrastruktur" />
		<tag k="ssr:stedsnr" v="1029415" />
		<tag k="ssr:type" v="adressenavn" />
	</node>
	<node id="-39741" lat="59.2542527783" lon="5.17372778564">
		<tag k="loc_name" v="Åkrehamn lykt" />
		<tag k="name" v="Åkrehamn" />
		<tag k="ssr:date" v="2016-05-10" />
		<tag k="ssr:gruppe" v="navigasjon" />
>>>>>>> e1d4bc35ff8a6074a6f2e91616a996b547c36f15
		<tag k="ssr:hovedgruppe" v="infrastruktur" />
		<tag k="ssr:stedsnr" v="849428" />
		<tag k="ssr:type" v="adressenavn" />
	</node>
<<<<<<< HEAD
	<node lat="59.375719439886424" lon="5.2936722182769715" id="-4542">
		<tag k="alt_name" v="Salhus" />
		<tag k="name" v="Salhus lykt" />
		<tag k="ssr:date" v="2016-05-11" />
=======
	<node id="-39738" lat="59.3491166707" lon="5.31595555482">
		<tag k="alt_name" v="Snikspynten" />
		<tag k="name" v="Snikspynten lykt" />
		<tag k="ssr:date" v="2016-05-10" />
>>>>>>> e1d4bc35ff8a6074a6f2e91616a996b547c36f15
		<tag k="ssr:gruppe" v="navigasjon" />
		<tag k="ssr:hovedgruppe" v="infrastruktur" />
		<tag k="ssr:stedsnr" v="874416" />
		<tag k="ssr:type" v="fyrlykt" />
	</node>
<<<<<<< HEAD
	<node lat="59.38044722444146" lon="5.307197228143993" id="-4616">
		<tag k="name" v="Spannadalen" />
		<tag k="ssr:date" v="2019-05-30" />
		<tag k="ssr:gruppe" v="veg" />
=======
	<node id="-39734" lat="59.4161055537" lon="5.23085833163">
		<tag k="alt_name" v="Vestre Karmsund" />
		<tag k="name" v="Vestre Karmsund lykt" />
		<tag k="ssr:date" v="2016-05-10" />
		<tag k="ssr:gruppe" v="navigasjon" />
>>>>>>> e1d4bc35ff8a6074a6f2e91616a996b547c36f15
		<tag k="ssr:hovedgruppe" v="infrastruktur" />
		<tag k="ssr:stedsnr" v="970165" />
		<tag k="ssr:type" v="adressenavn" />
	</node>
<<<<<<< HEAD
	<node lat="59.328889130891554" lon="5.3494247638268275" id="-4639">
		<tag k="name" v="Sukkervika" />
=======
	<node id="-40241" lat="59.252819445" lon="5.18487499335">
		<tag k="name" v="Stongtunet" />
>>>>>>> e1d4bc35ff8a6074a6f2e91616a996b547c36f15
		<tag k="ssr:date" v="2019-05-30" />
		<tag k="ssr:gruppe" v="veg" />
		<tag k="ssr:hovedgruppe" v="infrastruktur" />
		<tag k="ssr:stedsnr" v="975671" />
		<tag k="ssr:type" v="adressenavn" />
	</node>
<<<<<<< HEAD
	<node lat="59.289035520339056" lon="5.240350442813123" id="-4640">
		<tag k="name" v="Skippervegen" />
=======
	<node id="-39702" lat="59.149258332" lon="5.26995555905">
		<tag k="name" v="Berglundvegen" />
>>>>>>> e1d4bc35ff8a6074a6f2e91616a996b547c36f15
		<tag k="ssr:date" v="2019-05-30" />
		<tag k="ssr:gruppe" v="veg" />
		<tag k="ssr:hovedgruppe" v="infrastruktur" />
		<tag k="ssr:stedsnr" v="975672" />
		<tag k="ssr:type" v="adressenavn" />
	</node>
<<<<<<< HEAD
	<node lat="59.281157609264746" lon="5.310872433463158" id="-4641">
		<tag k="name" v="Olaf Siqvelands veg" />
		<tag k="ssr:date" v="2019-05-30" />
		<tag k="ssr:gruppe" v="veg" />
=======
	<node id="-40189" lat="59.3858388876" lon="5.18387776929">
		<tag k="alt_name" v="Kvaløysund" />
		<tag k="fixme" v="multiple name tags, choose one and add the other to alt_name" />
		<tag k="name" v="Kvaløysund lykt;Kvaløysundet" />
		<tag k="ssr:date" v="2016-05-11" />
		<tag k="ssr:gruppe" v="navigasjon" />
>>>>>>> e1d4bc35ff8a6074a6f2e91616a996b547c36f15
		<tag k="ssr:hovedgruppe" v="infrastruktur" />
		<tag k="ssr:stedsnr" v="976905" />
		<tag k="ssr:type" v="adressenavn" />
	</node>
<<<<<<< HEAD
	<node lat="59.34973148600301" lon="5.324390731654366" id="-4645">
		<tag k="name" v="Snikspynten" />
		<tag k="ssr:date" v="2019-05-30" />
		<tag k="ssr:gruppe" v="veg" />
=======
	<node id="-39674" lat="59.4060166672" lon="5.23391666635">
		<tag k="name" v="Kobbholmen, Øvre" />
		<tag k="ssr:date" v="2016-05-10" />
		<tag k="ssr:gruppe" v="navigasjon" />
>>>>>>> e1d4bc35ff8a6074a6f2e91616a996b547c36f15
		<tag k="ssr:hovedgruppe" v="infrastruktur" />
		<tag k="ssr:stedsnr" v="987732" />
		<tag k="ssr:type" v="adressenavn" />
	</node>
<<<<<<< HEAD
	<node lat="59.4017855237071" lon="5.256110881782822" id="-4646">
		<tag k="name" v="Fagervolltunet" />
		<tag k="ssr:date" v="2019-05-30" />
		<tag k="ssr:gruppe" v="veg" />
=======
	<node id="-40175" lat="59.1614861149" lon="5.31189444629">
		<tag k="name" v="Svortingen lykt" />
		<tag k="ssr:date" v="2016-05-11" />
		<tag k="ssr:gruppe" v="navigasjon" />
>>>>>>> e1d4bc35ff8a6074a6f2e91616a996b547c36f15
		<tag k="ssr:hovedgruppe" v="infrastruktur" />
		<tag k="ssr:stedsnr" v="987738" />
		<tag k="ssr:type" v="adressenavn" />
	</node>
<<<<<<< HEAD
	<node lat="59.27539749728243" lon="5.192429647110363" id="-4647">
		<tag k="name" v="Stivlevågsvegen" />
		<tag k="ssr:date" v="2019-05-30" />
		<tag k="ssr:gruppe" v="veg" />
=======
	<node id="-41193" lat="59.2519444469" lon="5.35055554838">
		<tag k="alt_name" v="Smørstakk" />
		<tag k="name" v="Smørstakk lykt" />
		<tag k="ssr:date" v="2016-05-10" />
		<tag k="ssr:gruppe" v="navigasjon" />
>>>>>>> e1d4bc35ff8a6074a6f2e91616a996b547c36f15
		<tag k="ssr:hovedgruppe" v="infrastruktur" />
		<tag k="ssr:stedsnr" v="991043" />
		<tag k="ssr:type" v="adressenavn" />
	</node>
<<<<<<< HEAD
	<node lat="59.27976451016951" lon="5.361039294871304" id="-4649">
		<tag k="name" v="Vågavågen" />
		<tag k="ssr:date" v="2019-05-30" />
		<tag k="ssr:gruppe" v="veg" />
=======
	<node id="-41191" lat="59.1419805601" lon="5.2761138936">
		<tag k="alt_name" v="Vikaholmen" />
		<tag k="name" v="Vikaholmen lykt" />
		<tag k="old_name" v="Vikholmen" />
		<tag k="ssr:date" v="2016-05-10" />
		<tag k="ssr:gruppe" v="navigasjon" />
>>>>>>> e1d4bc35ff8a6074a6f2e91616a996b547c36f15
		<tag k="ssr:hovedgruppe" v="infrastruktur" />
		<tag k="ssr:stedsnr" v="1029394" />
		<tag k="ssr:type" v="adressenavn" />
	</node>
<<<<<<< HEAD
	<node lat="59.14336659243603" lon="5.26474005845361" id="-4650">
		<tag k="name" v="Sjåholmen" />
		<tag k="ssr:date" v="2019-05-30" />
		<tag k="ssr:gruppe" v="veg" />
=======
	<node id="-40675" lat="59.1314777818" lon="5.24264722707">
		<tag k="alt_name" v="Geitungen" />
		<tag k="name" v="Geitungen fyr" />
		<tag k="ssr:date" v="2016-05-10" />
		<tag k="ssr:gruppe" v="navigasjon" />
>>>>>>> e1d4bc35ff8a6074a6f2e91616a996b547c36f15
		<tag k="ssr:hovedgruppe" v="infrastruktur" />
		<tag k="ssr:stedsnr" v="1029402" />
		<tag k="ssr:type" v="adressenavn" />
	</node>
<<<<<<< HEAD
	<node lat="59.1434606404426" lon="5.269695197031591" id="-4651">
		<tag k="name" v="Bakarholmen" />
		<tag k="ssr:date" v="2019-05-30" />
		<tag k="ssr:gruppe" v="veg" />
=======
	<node id="-40129" lat="59.143363892" lon="5.27191111077">
		<tag k="name" v="Nesegapet" />
		<tag k="ssr:date" v="2016-05-10" />
		<tag k="ssr:gruppe" v="navigasjon" />
>>>>>>> e1d4bc35ff8a6074a6f2e91616a996b547c36f15
		<tag k="ssr:hovedgruppe" v="infrastruktur" />
		<tag k="ssr:stedsnr" v="1029404" />
		<tag k="ssr:type" v="adressenavn" />
	</node>
<<<<<<< HEAD
	<node lat="59.254523935713536" lon="5.3609883823377595" id="-4652">
		<tag k="name" v="Lauvøy" />
		<tag k="ssr:date" v="2019-05-30" />
=======
	<node id="-41649" lat="59.3534182012" lon="5.3241149422">
		<tag k="name" v="Krossneshagen" />
		<tag k="ssr:date" v="2020-06-09" />
		<tag k="ssr:gruppe" v="veg" />
		<tag k="ssr:hovedgruppe" v="infrastruktur" />
		<tag k="ssr:stedsnr" v="1077270" />
		<tag k="ssr:type" v="adressenavn" />
	</node>
	<node id="-41648" lat="69.6388889725" lon="30.5666644427">
		<tag k="fixme" v="multiple name tags, choose one and add the other to alt_name" />
		<tag k="loc_name:se" v="Norgga gonagasriika" />
		<tag k="loc_name:sma" v="Nöörjen gånkarïjhke" />
		<tag k="loc_name:smj" v="Vuona gånågisrijkka" />
		<tag k="name" v="Noreg;Norge" />
		<tag k="name:en" v="Norway" />
		<tag k="name:no" v="Noreg;Norge" />
		<tag k="ssr:date" v="2020-06-04" />
		<tag k="ssr:gruppe" v="administrativeIndelinger" />
		<tag k="ssr:hovedgruppe" v="offentligAdministrasjon" />
		<tag k="ssr:stedsnr" v="26330" />
		<tag k="ssr:type" v="nasjon" />
	</node>
	<node id="-41647" lat="59.2985280226" lon="5.20750638948">
		<tag k="name" v="Porsholmen" />
		<tag k="ssr:date" v="2019-11-18" />
>>>>>>> e1d4bc35ff8a6074a6f2e91616a996b547c36f15
		<tag k="ssr:gruppe" v="veg" />
		<tag k="ssr:hovedgruppe" v="infrastruktur" />
		<tag k="ssr:stedsnr" v="1029415" />
		<tag k="ssr:type" v="adressenavn" />
	</node>
<<<<<<< HEAD
	<node lat="59.26753810826182" lon="5.365744372716562" id="-4653">
		<tag k="name" v="Selen" />
		<tag k="ssr:date" v="2019-05-30" />
=======
	<node id="-41645" lat="59.2894257407" lon="5.22619747023">
		<tag k="name" v="Sørbøvegen" />
		<tag k="ssr:date" v="2019-10-08" />
>>>>>>> e1d4bc35ff8a6074a6f2e91616a996b547c36f15
		<tag k="ssr:gruppe" v="veg" />
		<tag k="ssr:hovedgruppe" v="infrastruktur" />
		<tag k="ssr:stedsnr" v="1029417" />
		<tag k="ssr:type" v="adressenavn" />
	</node>
<<<<<<< HEAD
	<node lat="59.149012456681405" lon="5.226394155928934" id="-4654">
		<tag k="name" v="Sandholmen" />
=======
	<node id="-41124" lat="59.3781916674" lon="5.31105556211">
		<tag k="name" v="Norheimstien" />
>>>>>>> e1d4bc35ff8a6074a6f2e91616a996b547c36f15
		<tag k="ssr:date" v="2019-05-30" />
		<tag k="ssr:gruppe" v="veg" />
		<tag k="ssr:hovedgruppe" v="infrastruktur" />
		<tag k="ssr:stedsnr" v="1029418" />
		<tag k="ssr:type" v="adressenavn" />
	</node>
<<<<<<< HEAD
	<node lat="59.182242472180775" lon="5.247283221153132" id="-4655">
		<tag k="name" v="Røyningsbu" />
		<tag k="ssr:date" v="2019-05-30" />
		<tag k="ssr:gruppe" v="veg" />
=======
	<node id="-41122" lat="59.3346611121" lon="5.30356943895">
		<tag k="name" v="Melandholmen" />
		<tag k="ssr:date" v="2016-05-10" />
		<tag k="ssr:gruppe" v="navigasjon" />
>>>>>>> e1d4bc35ff8a6074a6f2e91616a996b547c36f15
		<tag k="ssr:hovedgruppe" v="infrastruktur" />
		<tag k="ssr:stedsnr" v="1029419" />
		<tag k="ssr:type" v="adressenavn" />
	</node>
<<<<<<< HEAD
	<node lat="59.14808058750603" lon="5.213510914991988" id="-4656">
		<tag k="name" v="Stokkavika" />
=======
	<node id="-41632" lat="59.3026209711" lon="5.21290560485">
		<tag k="name" v="Nesheimskjeret" />
>>>>>>> e1d4bc35ff8a6074a6f2e91616a996b547c36f15
		<tag k="ssr:date" v="2019-05-30" />
		<tag k="ssr:gruppe" v="veg" />
		<tag k="ssr:hovedgruppe" v="infrastruktur" />
		<tag k="ssr:stedsnr" v="1029422" />
		<tag k="ssr:type" v="adressenavn" />
	</node>
<<<<<<< HEAD
	<node lat="59.29846303397122" lon="5.210088569148501" id="-4657">
		<tag k="name" v="Store Kjeholmen" />
=======
	<node id="-41631" lat="59.2867060863" lon="5.23937776357">
		<tag k="name" v="Slettastien" />
>>>>>>> e1d4bc35ff8a6074a6f2e91616a996b547c36f15
		<tag k="ssr:date" v="2019-05-30" />
		<tag k="ssr:gruppe" v="veg" />
		<tag k="ssr:hovedgruppe" v="infrastruktur" />
		<tag k="ssr:stedsnr" v="1029430" />
		<tag k="ssr:type" v="adressenavn" />
	</node>
<<<<<<< HEAD
	<node lat="59.28940606256817" lon="5.3986384161573735" id="-4658">
		<tag k="name" v="Høvringøy" />
=======
	<node id="-41630" lat="59.3028571233" lon="5.21394634153">
		<tag k="name" v="Kvartnesholmen" />
>>>>>>> e1d4bc35ff8a6074a6f2e91616a996b547c36f15
		<tag k="ssr:date" v="2019-05-30" />
		<tag k="ssr:gruppe" v="veg" />
		<tag k="ssr:hovedgruppe" v="infrastruktur" />
		<tag k="ssr:stedsnr" v="1029433" />
		<tag k="ssr:type" v="adressenavn" />
	</node>
<<<<<<< HEAD
	<node lat="59.380414362151754" lon="5.163891992831681" id="-4659">
		<tag k="name" v="Ulvøy" />
=======
	<node id="-41629" lat="59.3280818553" lon="5.34609012934">
		<tag k="name" v="Ramsvikneset" />
>>>>>>> e1d4bc35ff8a6074a6f2e91616a996b547c36f15
		<tag k="ssr:date" v="2019-05-30" />
		<tag k="ssr:gruppe" v="veg" />
		<tag k="ssr:hovedgruppe" v="infrastruktur" />
		<tag k="ssr:stedsnr" v="1029435" />
		<tag k="ssr:type" v="adressenavn" />
	</node>
<<<<<<< HEAD
	<node lat="59.2580824661072" lon="5.211480674335675" id="-4660">
=======
	<node id="-41628" lat="59.2580824661" lon="5.21148067434">
>>>>>>> e1d4bc35ff8a6074a6f2e91616a996b547c36f15
		<tag k="name" v="Oddabakken" />
		<tag k="ssr:date" v="2019-05-30" />
		<tag k="ssr:gruppe" v="veg" />
		<tag k="ssr:hovedgruppe" v="infrastruktur" />
		<tag k="ssr:stedsnr" v="1029767" />
		<tag k="ssr:type" v="adressenavn" />
	</node>
<<<<<<< HEAD
	<node lat="59.32808185528654" lon="5.346090129340334" id="-4661">
		<tag k="name" v="Ramsvikneset" />
=======
	<node id="-41627" lat="59.1434606404" lon="5.26969519703">
		<tag k="name" v="Bakarholmen" />
>>>>>>> e1d4bc35ff8a6074a6f2e91616a996b547c36f15
		<tag k="ssr:date" v="2019-05-30" />
		<tag k="ssr:gruppe" v="veg" />
		<tag k="ssr:hovedgruppe" v="infrastruktur" />
		<tag k="ssr:stedsnr" v="1029768" />
		<tag k="ssr:type" v="adressenavn" />
	</node>
<<<<<<< HEAD
	<node lat="59.30285712332916" lon="5.213946341529447" id="-4662">
		<tag k="name" v="Kvartnesholmen" />
=======
	<node id="-41626" lat="59.1433665924" lon="5.26474005845">
		<tag k="name" v="Sjåholmen" />
>>>>>>> e1d4bc35ff8a6074a6f2e91616a996b547c36f15
		<tag k="ssr:date" v="2019-05-30" />
		<tag k="ssr:gruppe" v="veg" />
		<tag k="ssr:hovedgruppe" v="infrastruktur" />
		<tag k="ssr:stedsnr" v="1029769" />
		<tag k="ssr:type" v="adressenavn" />
	</node>
<<<<<<< HEAD
	<node lat="59.28670608625124" lon="5.2393777635734" id="-4663">
		<tag k="name" v="Slettastien" />
=======
	<node id="-41625" lat="59.2797645102" lon="5.36103929487">
		<tag k="name" v="Vågavågen" />
>>>>>>> e1d4bc35ff8a6074a6f2e91616a996b547c36f15
		<tag k="ssr:date" v="2019-05-30" />
		<tag k="ssr:gruppe" v="veg" />
		<tag k="ssr:hovedgruppe" v="infrastruktur" />
		<tag k="ssr:stedsnr" v="1029777" />
		<tag k="ssr:type" v="adressenavn" />
	</node>
	<node lat="59.131954395337466" lon="5.2426137742719385" id="-4664">
		<tag k="name" v="Geitungen fyr" />
		<tag k="ssr:date" v="2019-05-30" />
		<tag k="ssr:gruppe" v="veg" />
		<tag k="ssr:hovedgruppe" v="infrastruktur" />
		<tag k="ssr:stedsnr" v="1029375" />
		<tag k="ssr:type" v="adressenavn" />
	</node>
<<<<<<< HEAD
	<node lat="59.141938616948046" lon="5.275823379499547" id="-4665">
=======
	<node id="-41624" lat="59.1419386169" lon="5.2758233795">
>>>>>>> e1d4bc35ff8a6074a6f2e91616a996b547c36f15
		<tag k="name" v="Vikholmen fyr" />
		<tag k="ssr:date" v="2019-05-30" />
		<tag k="ssr:gruppe" v="veg" />
		<tag k="ssr:hovedgruppe" v="infrastruktur" />
		<tag k="ssr:stedsnr" v="1029380" />
		<tag k="ssr:type" v="adressenavn" />
	</node>
<<<<<<< HEAD
	<node lat="59.391112113247544" lon="5.1540965947237956" id="-4666">
		<tag k="name" v="Feøy" />
=======
	<node id="-41623" lat="59.1319543953" lon="5.24261377427">
		<tag k="name" v="Geitungen fyr" />
>>>>>>> e1d4bc35ff8a6074a6f2e91616a996b547c36f15
		<tag k="ssr:date" v="2019-05-30" />
		<tag k="ssr:gruppe" v="veg" />
		<tag k="ssr:hovedgruppe" v="infrastruktur" />
		<tag k="ssr:stedsnr" v="1029436" />
		<tag k="ssr:type" v="adressenavn" />
	</node>
<<<<<<< HEAD
	<node lat="59.377545323636234" lon="5.162535694369873" id="-4667">
		<tag k="name" v="Duøy" />
=======
	<node id="-41620" lat="59.2753974973" lon="5.19242964711">
		<tag k="name" v="Stivlevågsvegen" />
>>>>>>> e1d4bc35ff8a6074a6f2e91616a996b547c36f15
		<tag k="ssr:date" v="2019-05-30" />
		<tag k="ssr:gruppe" v="veg" />
		<tag k="ssr:hovedgruppe" v="infrastruktur" />
		<tag k="ssr:stedsnr" v="1029438" />
		<tag k="ssr:type" v="adressenavn" />
	</node>
<<<<<<< HEAD
	<node lat="59.37729210652254" lon="5.1583360904260065" id="-4668">
		<tag k="name" v="Vaholmvegen" />
		<tag k="ssr:date" v="2019-05-30" />
		<tag k="ssr:gruppe" v="veg" />
		<tag k="ssr:hovedgruppe" v="infrastruktur" />
		<tag k="ssr:stedsnr" v="1029445" />
		<tag k="ssr:type" v="adressenavn" />
	</node>
	<node lat="59.37866073053671" lon="5.150612198323571" id="-4669">
		<tag k="name" v="Sørøyvegen" />
		<tag k="ssr:date" v="2019-05-30" />
		<tag k="ssr:gruppe" v="veg" />
		<tag k="ssr:hovedgruppe" v="infrastruktur" />
		<tag k="ssr:stedsnr" v="1029446" />
		<tag k="ssr:type" v="adressenavn" />
	</node>
	<node lat="59.3782335921797" lon="5.157003240832993" id="-4670">
		<tag k="name" v="Vestrehamnvegen" />
=======
	<node id="-41619" lat="59.4017855237" lon="5.25611088178">
		<tag k="name" v="Fagervolltunet" />
		<tag k="ssr:date" v="2019-05-30" />
		<tag k="ssr:gruppe" v="veg" />
		<tag k="ssr:hovedgruppe" v="infrastruktur" />
		<tag k="ssr:stedsnr" v="987738" />
		<tag k="ssr:type" v="adressenavn" />
	</node>
	<node id="-40082" lat="59.1407527773" lon="5.2928555643">
		<tag k="alt_name" v="Skudenes" />
		<tag k="name" v="Skudenes lykt" />
		<tag k="ssr:date" v="2016-05-11" />
		<tag k="ssr:gruppe" v="navigasjon" />
		<tag k="ssr:hovedgruppe" v="infrastruktur" />
		<tag k="ssr:stedsnr" v="729397" />
		<tag k="ssr:type" v="fyrlykt" />
	</node>
	<node id="-41617" lat="59.2926568709" lon="5.29639428533">
		<tag k="name" v="Nordalsbakken" />
>>>>>>> e1d4bc35ff8a6074a6f2e91616a996b547c36f15
		<tag k="ssr:date" v="2019-05-30" />
		<tag k="ssr:gruppe" v="veg" />
		<tag k="ssr:hovedgruppe" v="infrastruktur" />
		<tag k="ssr:stedsnr" v="1029447" />
		<tag k="ssr:type" v="adressenavn" />
	</node>
<<<<<<< HEAD
	<node lat="59.37580482149493" lon="5.155428587192662" id="-4671">
		<tag k="name" v="Slåttholmvegen" />
		<tag k="ssr:date" v="2019-05-30" />
		<tag k="ssr:gruppe" v="veg" />
=======
	<node id="-40078" lat="59.1471194423" lon="5.22530555877">
		<tag k="alt_name" v="Syrevågen" />
		<tag k="name" v="Syrevågen lykt" />
		<tag k="ssr:date" v="2016-05-10" />
		<tag k="ssr:gruppe" v="navigasjon" />
>>>>>>> e1d4bc35ff8a6074a6f2e91616a996b547c36f15
		<tag k="ssr:hovedgruppe" v="infrastruktur" />
		<tag k="ssr:stedsnr" v="1029448" />
		<tag k="ssr:type" v="adressenavn" />
	</node>
<<<<<<< HEAD
	<node lat="59.37696035932653" lon="5.153764901932843" id="-4672">
		<tag k="name" v="Brattestøvegen" />
=======
	<node id="-41610" lat="59.2811576093" lon="5.31087243346">
		<tag k="name" v="Olaf Siqvelands veg" />
>>>>>>> e1d4bc35ff8a6074a6f2e91616a996b547c36f15
		<tag k="ssr:date" v="2019-05-30" />
		<tag k="ssr:gruppe" v="veg" />
		<tag k="ssr:hovedgruppe" v="infrastruktur" />
		<tag k="ssr:stedsnr" v="1029449" />
		<tag k="ssr:type" v="adressenavn" />
	</node>
<<<<<<< HEAD
	<node lat="59.374338241022265" lon="5.283959515317572" id="-4673">
		<tag k="name" v="Gittavegen" />
=======
	<node id="-41609" lat="59.384481899" lon="5.32977030656">
		<tag k="name" v="Spannatoppen" />
>>>>>>> e1d4bc35ff8a6074a6f2e91616a996b547c36f15
		<tag k="ssr:date" v="2019-05-30" />
		<tag k="ssr:gruppe" v="veg" />
		<tag k="ssr:hovedgruppe" v="infrastruktur" />
		<tag k="ssr:stedsnr" v="1029454" />
		<tag k="ssr:type" v="adressenavn" />
	</node>
<<<<<<< HEAD
	<node lat="59.302620971100076" lon="5.212905604846179" id="-4674">
		<tag k="name" v="Nesheimskjeret" />
=======
	<node id="-41608" lat="59.2890355203" lon="5.24035044281">
		<tag k="name" v="Skippervegen" />
>>>>>>> e1d4bc35ff8a6074a6f2e91616a996b547c36f15
		<tag k="ssr:date" v="2019-05-30" />
		<tag k="ssr:gruppe" v="veg" />
		<tag k="ssr:hovedgruppe" v="infrastruktur" />
		<tag k="ssr:stedsnr" v="1029783" />
		<tag k="ssr:type" v="adressenavn" />
	</node>
<<<<<<< HEAD
	<node lat="59.2894257406951" lon="5.226197470232368" id="-4687">
		<tag k="name" v="Sørbøvegen" />
		<tag k="ssr:date" v="2019-10-08" />
=======
	<node id="-41607" lat="59.3288891309" lon="5.34942476383">
		<tag k="name" v="Sukkervika" />
		<tag k="ssr:date" v="2019-05-30" />
>>>>>>> e1d4bc35ff8a6074a6f2e91616a996b547c36f15
		<tag k="ssr:gruppe" v="veg" />
		<tag k="ssr:hovedgruppe" v="infrastruktur" />
		<tag k="ssr:stedsnr" v="1072864" />
		<tag k="ssr:type" v="adressenavn" />
	</node>
<<<<<<< HEAD
	<node lat="59.29852802256943" lon="5.207506389475747" id="-4688">
		<tag k="name" v="Porsholmen" />
		<tag k="ssr:date" v="2019-11-18" />
		<tag k="ssr:gruppe" v="veg" />
=======
	<node id="-41602" lat="59.143905198" lon="5.25820856818">
		<tag k="name" v="Skagaskjeret lanterne" />
		<tag k="ssr:date" v="2016-12-28" />
		<tag k="ssr:gruppe" v="navigasjon" />
>>>>>>> e1d4bc35ff8a6074a6f2e91616a996b547c36f15
		<tag k="ssr:hovedgruppe" v="infrastruktur" />
		<tag k="ssr:stedsnr" v="1073334" />
		<tag k="ssr:type" v="adressenavn" />
	</node>
<<<<<<< HEAD
	<node lat="59.353418201220386" lon="5.3241149422012635" id="-4691">
		<tag k="name" v="Krossneshagen" />
		<tag k="ssr:date" v="2020-06-09" />
=======
	<node id="-41601" lat="59.2554449256" lon="5.17570393891">
		<tag k="name" v="Mortholmen" />
		<tag k="ssr:date" v="2019-05-30" />
>>>>>>> e1d4bc35ff8a6074a6f2e91616a996b547c36f15
		<tag k="ssr:gruppe" v="veg" />
		<tag k="ssr:hovedgruppe" v="infrastruktur" />
		<tag k="ssr:stedsnr" v="1077270" />
		<tag k="ssr:type" v="adressenavn" />
	</node>
<<<<<<< HEAD
	<node lat="59.35558308066318" lon="5.292033172672423" id="-4692">
		<tag k="name" v="Bukkøya" />
		<tag k="ssr:date" v="2020-08-24" />
		<tag k="ssr:gruppe" v="veg" />
		<tag k="ssr:hovedgruppe" v="infrastruktur" />
		<tag k="ssr:stedsnr" v="1077977" />
		<tag k="ssr:type" v="adressenavn" />
	</node>
	<node lat="59.14914134746323" lon="5.2600963960755065" id="-4695">
		<tag k="name" v="Nessabakken" />
		<tag k="ssr:date" v="2020-10-29" />
		<tag k="ssr:gruppe" v="veg" />
		<tag k="ssr:hovedgruppe" v="infrastruktur" />
		<tag k="ssr:stedsnr" v="1078409" />
		<tag k="ssr:type" v="adressenavn" />
	</node>
	<node lat="59.28260051050566" lon="5.247561001111231" id="-4697">
		<tag k="name" v="Austmarkvegen" />
		<tag k="ssr:date" v="2021-05-20" />
		<tag k="ssr:gruppe" v="veg" />
		<tag k="ssr:hovedgruppe" v="infrastruktur" />
		<tag k="ssr:stedsnr" v="1081299" />
		<tag k="ssr:type" v="adressenavn" />
	</node>
	<node lat="59.40543710515796" lon="5.251266113273986" id="-4699">
		<tag k="name" v="Litlatuvegen" />
		<tag k="ssr:date" v="2021-10-05" />
		<tag k="ssr:gruppe" v="veg" />
		<tag k="ssr:hovedgruppe" v="infrastruktur" />
		<tag k="ssr:stedsnr" v="1082521" />
		<tag k="ssr:type" v="adressenavn" />
	</node>
	<node lat="59.265646063591326" lon="5.212457204274877" id="-4700">
		<tag k="name" v="Lyngtrevegen" />
		<tag k="ssr:date" v="2021-11-02" />
		<tag k="ssr:gruppe" v="veg" />
		<tag k="ssr:hovedgruppe" v="infrastruktur" />
		<tag k="ssr:stedsnr" v="1082780" />
=======
	<node id="-39513" lat="59.3011694473" lon="5.20961945259">
		<tag k="name" v="Hellesøyskjeret" />
		<tag k="ssr:date" v="2019-05-30" />
		<tag k="ssr:gruppe" v="veg" />
		<tag k="ssr:hovedgruppe" v="infrastruktur" />
		<tag k="ssr:stedsnr" v="181427" />
		<tag k="ssr:type" v="adressenavn" />
	</node>
	<node id="-39509" lat="59.2431749956" lon="5.19786944689">
		<tag k="name" v="Liknesstien" />
		<tag k="ssr:date" v="2019-05-30" />
		<tag k="ssr:gruppe" v="veg" />
		<tag k="ssr:hovedgruppe" v="infrastruktur" />
		<tag k="ssr:stedsnr" v="181108" />
		<tag k="ssr:type" v="adressenavn" />
	</node>
	<node id="-39504" lat="59.3757361108" lon="5.29706666195">
		<tag k="alt_name" v="Norheim" />
		<tag k="name" v="Norheim lykt" />
		<tag k="ssr:date" v="2016-05-10" />
		<tag k="ssr:gruppe" v="navigasjon" />
		<tag k="ssr:hovedgruppe" v="infrastruktur" />
		<tag k="ssr:stedsnr" v="178113" />
		<tag k="ssr:type" v="fyrlykt" />
	</node>
	<node id="-40512" lat="59.1432361126" lon="5.25908333136">
		<tag k="name" v="Skudeneshavn molo" />
		<tag k="ssr:date" v="2016-05-10" />
		<tag k="ssr:gruppe" v="navigasjon" />
		<tag k="ssr:hovedgruppe" v="infrastruktur" />
		<tag k="ssr:stedsnr" v="57715" />
		<tag k="ssr:type" v="lanterne" />
	</node>
	<node id="-40511" lat="59.3337277784" lon="5.315486119">
		<tag k="alt_name" v="Høgevarde" />
		<tag k="name" v="Høgevarde lykt" />
		<tag k="ssr:date" v="2016-05-10" />
		<tag k="ssr:gruppe" v="navigasjon" />
		<tag k="ssr:hovedgruppe" v="infrastruktur" />
		<tag k="ssr:stedsnr" v="52482" />
		<tag k="ssr:type" v="fyrlykt" />
	</node>
	<node id="-40494" lat="59.2808055561" lon="5.30539166108">
		<tag k="alt_name" v="Karmøy" />
		<tag k="name" v="Karmøy kommune" />
		<tag k="ssr:date" v="2017-03-24" />
		<tag k="ssr:gruppe" v="administrativeIndelinger" />
		<tag k="ssr:hovedgruppe" v="offentligAdministrasjon" />
		<tag k="ssr:stedsnr" v="24817" />
		<tag k="ssr:type" v="kommune" />
	</node>
	<node id="-39978" lat="59.2268194464" lon="5.16961111678">
		<tag k="alt_name" v="Ferkingstadneset" />
		<tag k="name" v="Ferkingstadneset lykt" />
		<tag k="ssr:date" v="2016-05-10" />
		<tag k="ssr:gruppe" v="navigasjon" />
		<tag k="ssr:hovedgruppe" v="infrastruktur" />
		<tag k="ssr:stedsnr" v="583741" />
		<tag k="ssr:type" v="fyrlykt" />
	</node>
	<node id="-39463" lat="59.4088410853" lon="5.24655131379">
		<tag k="name" v="Osnesgavlen" />
		<tag k="ssr:date" v="2017-03-24" />
		<tag k="ssr:gruppe" v="navigasjon" />
		<tag k="ssr:hovedgruppe" v="infrastruktur" />
		<tag k="ssr:stedsnr" v="267397" />
		<tag k="ssr:type" v="fyrlykt" />
	</node>
	<node id="-39964" lat="59.1771527815" lon="5.19104444477">
		<tag k="alt_name" v="Sandve" />
		<tag k="name" v="Sandve lykt" />
		<tag k="ssr:date" v="2016-05-10" />
		<tag k="ssr:gruppe" v="navigasjon" />
		<tag k="ssr:hovedgruppe" v="infrastruktur" />
		<tag k="ssr:stedsnr" v="570306" />
		<tag k="ssr:type" v="fyrlykt" />
	</node>
	<node id="-40083" lat="59.1405416644" lon="5.23834722961">
		<tag k="alt_name" v="Hekseterholmen" />
		<tag k="name" v="Hekseterholmen lykt" />
		<tag k="ssr:date" v="2016-05-11" />
		<tag k="ssr:gruppe" v="navigasjon" />
		<tag k="ssr:hovedgruppe" v="infrastruktur" />
		<tag k="ssr:stedsnr" v="729399" />
		<tag k="ssr:type" v="fyrlykt" />
	</node>
	<node id="-39448" lat="59.403316665" lon="5.15763333649">
		<tag k="alt_name" v="Kvaløytåi" />
		<tag k="name" v="Kvaløytåi lykt" />
		<tag k="old_name" v="Kvaløytåa" />
		<tag k="ssr:date" v="2016-05-10" />
		<tag k="ssr:gruppe" v="navigasjon" />
		<tag k="ssr:hovedgruppe" v="infrastruktur" />
		<tag k="ssr:stedsnr" v="244644" />
		<tag k="ssr:type" v="fyrlykt" />
	</node>
	<node id="-39444" lat="59.3721500014" lon="5.17183334028">
		<tag k="alt_name" v="Feøy" />
		<tag k="name" v="Feøy lykt" />
		<tag k="ssr:date" v="2016-05-10" />
		<tag k="ssr:gruppe" v="navigasjon" />
		<tag k="ssr:hovedgruppe" v="infrastruktur" />
		<tag k="ssr:stedsnr" v="244578" />
		<tag k="ssr:type" v="fyrlykt" />
	</node>
	<node id="-40466" lat="59.374338241" lon="5.28395951532">
		<tag k="name" v="Gittavegen" />
		<tag k="ssr:date" v="2019-05-30" />
		<tag k="ssr:gruppe" v="veg" />
		<tag k="ssr:hovedgruppe" v="infrastruktur" />
		<tag k="ssr:stedsnr" v="1029454" />
		<tag k="ssr:type" v="adressenavn" />
	</node>
	<node id="-40465" lat="59.3769603593" lon="5.15376490193">
		<tag k="name" v="Brattestøvegen" />
		<tag k="ssr:date" v="2019-05-30" />
		<tag k="ssr:gruppe" v="veg" />
		<tag k="ssr:hovedgruppe" v="infrastruktur" />
		<tag k="ssr:stedsnr" v="1029449" />
		<tag k="ssr:type" v="adressenavn" />
	</node>
	<node id="-40464" lat="59.3758048215" lon="5.15542858719">
		<tag k="name" v="Slåttholmvegen" />
		<tag k="ssr:date" v="2019-05-30" />
		<tag k="ssr:gruppe" v="veg" />
		<tag k="ssr:hovedgruppe" v="infrastruktur" />
		<tag k="ssr:stedsnr" v="1029448" />
		<tag k="ssr:type" v="adressenavn" />
	</node>
	<node id="-40463" lat="59.3782335922" lon="5.15700324083">
		<tag k="name" v="Vestrehamnvegen" />
		<tag k="ssr:date" v="2019-05-30" />
		<tag k="ssr:gruppe" v="veg" />
		<tag k="ssr:hovedgruppe" v="infrastruktur" />
		<tag k="ssr:stedsnr" v="1029447" />
		<tag k="ssr:type" v="adressenavn" />
	</node>
	<node id="-40462" lat="59.3786607305" lon="5.15061219832">
		<tag k="name" v="Sørøyvegen" />
		<tag k="ssr:date" v="2019-05-30" />
		<tag k="ssr:gruppe" v="veg" />
		<tag k="ssr:hovedgruppe" v="infrastruktur" />
		<tag k="ssr:stedsnr" v="1029446" />
		<tag k="ssr:type" v="adressenavn" />
	</node>
	<node id="-40461" lat="59.3772921065" lon="5.15833609043">
		<tag k="name" v="Vaholmvegen" />
		<tag k="ssr:date" v="2019-05-30" />
		<tag k="ssr:gruppe" v="veg" />
		<tag k="ssr:hovedgruppe" v="infrastruktur" />
		<tag k="ssr:stedsnr" v="1029445" />
		<tag k="ssr:type" v="adressenavn" />
	</node>
	<node id="-40460" lat="59.3775453236" lon="5.16253569437">
		<tag k="name" v="Duøy" />
		<tag k="ssr:date" v="2019-05-30" />
		<tag k="ssr:gruppe" v="veg" />
		<tag k="ssr:hovedgruppe" v="infrastruktur" />
		<tag k="ssr:stedsnr" v="1029438" />
		<tag k="ssr:type" v="adressenavn" />
	</node>
	<node id="-40459" lat="59.3911121132" lon="5.15409659472">
		<tag k="name" v="Feøy" />
		<tag k="ssr:date" v="2019-05-30" />
		<tag k="ssr:gruppe" v="veg" />
		<tag k="ssr:hovedgruppe" v="infrastruktur" />
		<tag k="ssr:stedsnr" v="1029436" />
		<tag k="ssr:type" v="adressenavn" />
	</node>
	<node id="-40458" lat="59.3804143622" lon="5.16389199283">
		<tag k="name" v="Ulvøy" />
		<tag k="ssr:date" v="2019-05-30" />
		<tag k="ssr:gruppe" v="veg" />
		<tag k="ssr:hovedgruppe" v="infrastruktur" />
		<tag k="ssr:stedsnr" v="1029435" />
		<tag k="ssr:type" v="adressenavn" />
	</node>
	<node id="-40457" lat="59.2894060626" lon="5.39863841616">
		<tag k="name" v="Høvringøy" />
		<tag k="ssr:date" v="2019-05-30" />
		<tag k="ssr:gruppe" v="veg" />
		<tag k="ssr:hovedgruppe" v="infrastruktur" />
		<tag k="ssr:stedsnr" v="1029433" />
		<tag k="ssr:type" v="adressenavn" />
	</node>
	<node id="-40456" lat="59.298463034" lon="5.21008856915">
		<tag k="name" v="Store Kjeholmen" />
		<tag k="ssr:date" v="2019-05-30" />
		<tag k="ssr:gruppe" v="veg" />
		<tag k="ssr:hovedgruppe" v="infrastruktur" />
		<tag k="ssr:stedsnr" v="1029430" />
		<tag k="ssr:type" v="adressenavn" />
	</node>
	<node id="-40455" lat="59.1480805875" lon="5.21351091499">
		<tag k="name" v="Stokkavika" />
		<tag k="ssr:date" v="2019-05-30" />
		<tag k="ssr:gruppe" v="veg" />
		<tag k="ssr:hovedgruppe" v="infrastruktur" />
		<tag k="ssr:stedsnr" v="1029422" />
		<tag k="ssr:type" v="adressenavn" />
	</node>
	<node id="-40454" lat="59.1822424722" lon="5.24728322115">
		<tag k="name" v="Røyningsbu" />
		<tag k="ssr:date" v="2019-05-30" />
		<tag k="ssr:gruppe" v="veg" />
		<tag k="ssr:hovedgruppe" v="infrastruktur" />
		<tag k="ssr:stedsnr" v="1029419" />
		<tag k="ssr:type" v="adressenavn" />
	</node>
	<node id="-40453" lat="59.1490124567" lon="5.22639415593">
		<tag k="name" v="Sandholmen" />
		<tag k="ssr:date" v="2019-05-30" />
		<tag k="ssr:gruppe" v="veg" />
		<tag k="ssr:hovedgruppe" v="infrastruktur" />
		<tag k="ssr:stedsnr" v="1029418" />
		<tag k="ssr:type" v="adressenavn" />
	</node>
	<node id="-40452" lat="59.2675381083" lon="5.36574437272">
		<tag k="name" v="Selen" />
		<tag k="ssr:date" v="2019-05-30" />
		<tag k="ssr:gruppe" v="veg" />
		<tag k="ssr:hovedgruppe" v="infrastruktur" />
		<tag k="ssr:stedsnr" v="1029417" />
		<tag k="ssr:type" v="adressenavn" />
	</node>
	<node id="-41475" lat="59.301774999" lon="5.21153888218">
		<tag k="name" v="Hellesøy" />
		<tag k="ssr:date" v="2019-05-30" />
		<tag k="ssr:gruppe" v="veg" />
		<tag k="ssr:hovedgruppe" v="infrastruktur" />
		<tag k="ssr:stedsnr" v="849428" />
>>>>>>> e1d4bc35ff8a6074a6f2e91616a996b547c36f15
		<tag k="ssr:type" v="adressenavn" />
	</node>
</osm>
