<?xml version="1.0" encoding="UTF-8"?>
<osm version="0.6" generator="osmapis">
	<node id="60706246" lat="61.8720877" lon="6.8466459" version="3" timestamp="2022-08-19T05:37:04Z" changeset="125088811" uid="3497659" user="NKA">
		<tag k="name" v="Loen" />
		<tag k="place" v="village" />
		<tag k="ssr:stedsnr" v="131345" />
	</node>
	<node id="60873385" lat="61.8351511" lon="6.8072075" version="5" timestamp="2022-08-19T05:37:04Z" changeset="125088811" uid="3497659" user="NKA">
		<tag k="name" v="Olden" />
		<tag k="place" v="village" />
		<tag k="population" v="490" />
		<tag k="population:date" v="2021-01-01" />
		<tag k="ref:ssb_tettsted" v="5733" />
		<tag k="source:population" v="SSB - befolkning i tettstedet" />
		<tag k="ssr:stedsnr" v="253391" />
	</node>
	<node id="81687680" lat="61.9149104" lon="7.1133828" version="3" timestamp="2022-08-19T05:37:04Z" changeset="125088811" uid="3497659" user="NKA">
		<tag k="name" v="Hjelle" />
		<tag k="place" v="village" />
		<tag k="ssr:stedsnr" v="920473" />
	</node>
	<node id="248158772" lat="61.6648371" lon="6.8164871" version="3" timestamp="2022-08-19T05:37:04Z" changeset="125088811" uid="3497659" user="NKA">
		<tag k="alt_name" v="Briksdalsbre" />
		<tag k="name" v="Briksdalen" />
		<tag k="place" v="hamlet" />
		<tag k="ssr:stedsnr" v="677947" />
	</node>
	<node id="248159028" lat="61.871469" lon="6.7927118" version="3" timestamp="2022-08-19T05:37:04Z" changeset="125088811" uid="3497659" user="NKA">
		<tag k="name" v="Rake" />
		<tag k="place" v="hamlet" />
		<tag k="ssr:stedsnr" v="572672" />
	</node>
	<node id="264151062" lat="61.806331" lon="6.5191967" version="2" timestamp="2022-08-19T05:37:04Z" changeset="125088811" uid="3497659" user="NKA">
		<tag k="name" v="Utvik" />
		<tag k="place" v="village" />
		<tag k="ssr:stedsnr" v="555074" />
	</node>
	<node id="276270906" lat="61.978491" lon="7.1464464" version="3" timestamp="2022-08-19T05:37:04Z" changeset="125088811" uid="3497659" user="NKA">
		<tag k="historic" v="shieling" />
		<tag k="name" v="Stol" />
		<tag k="place" v="isolated_dwelling" />
		<tag k="ssr:stedsnr" v="131374" />
	</node>
	<node id="276271224" lat="61.9474054" lon="7.1270595" version="4" timestamp="2022-08-19T05:37:04Z" changeset="125088811" uid="3497659" user="NKA">
		<tag k="historic" v="shieling" />
		<tag k="name" v="Nos" />
		<tag k="place" v="locality" />
		<tag k="ssr:stedsnr" v="738376" />
	</node>
	<node id="276271444" lat="61.9330447" lon="7.1044406" version="3" timestamp="2022-08-19T05:37:04Z" changeset="125088811" uid="3497659" user="NKA">
		<tag k="alt_name" v="Glomnessetra" />
		<tag k="historic" v="shieling" />
		<tag k="name" v="Glomnessætra" />
		<tag k="place" v="isolated_dwelling" />
		<tag k="ssr:stedsnr" v="555321" />
	</node>
	<node id="276509588" lat="61.8544047" lon="7.1591126" version="2" timestamp="2022-08-19T05:37:04Z" changeset="125088811" uid="3497659" user="NKA">
		<tag k="alt_name" v="Erdalssetra" />
		<tag k="historic" v="shieling" />
		<tag k="name" v="Storesætra" />
		<tag k="place" v="hamlet" />
		<tag k="ssr:stedsnr" v="555393" />
	</node>
	<node id="276509893" lat="61.8454085" lon="7.1860271" version="2" timestamp="2022-08-19T05:37:04Z" changeset="125088811" uid="3497659" user="NKA">
		<tag k="alt_name" v="Vetledalsseter" />
		<tag k="historic" v="shieling" />
		<tag k="name" v="Vesledalssetra" />
		<tag k="place" v="isolated_dwelling" />
		<tag k="ssr:stedsnr" v="397532" />
	</node>
	<node id="276511807" lat="61.948667" lon="7.0254683" version="2" timestamp="2022-08-19T05:37:04Z" changeset="125088811" uid="3497659" user="NKA">
		<tag k="name" v="Flo" />
		<tag k="place" v="hamlet" />
		<tag k="ssr:stedsnr" v="374395" />
	</node>
	<node id="276573503" lat="61.888325" lon="7.2838753" version="3" timestamp="2022-08-19T05:37:04Z" changeset="125088811" uid="3497659" user="NKA">
		<tag k="historic" v="shieling" />
		<tag k="name" v="Sunndalssætra" />
		<tag k="place" v="hamlet" />
		<tag k="ssr:stedsnr" v="71491" />
	</node>
	<node id="440766113" lat="61.9250622" lon="7.0858566" version="3" timestamp="2022-08-19T05:37:04Z" changeset="125088811" uid="3497659" user="NKA">
		<tag k="name" v="Segestad" />
		<tag k="place" v="farm" />
		<tag k="ssr:stedsnr" v="313486" />
	</node>
	<node id="567951189" lat="61.8521038" lon="6.6151452" version="5" timestamp="2022-08-19T05:37:04Z" changeset="125088811" uid="3497659" user="NKA">
		<tag k="name" v="Innvik" />
		<tag k="place" v="village" />
		<tag k="population" v="444" />
		<tag k="population:date" v="2021-01-01" />
		<tag k="ref:ssb_tettsted" v="5732" />
		<tag k="source:population" v="SSB - befolkning i tettstedet" />
		<tag k="ssr:stedsnr" v="313372" />
	</node>
	<node id="766048908" lat="61.8588216" lon="6.8515745" version="3" timestamp="2022-08-19T05:37:04Z" changeset="125088811" uid="3497659" user="NKA">
		<tag k="historic" v="shieling" />
		<tag k="name" v="Losætra" />
		<tag k="place" v="hamlet" />
		<tag k="ssr:stedsnr" v="70320" />
	</node>
	<node id="794098552" lat="61.8888146" lon="6.6172847" version="3" timestamp="2022-08-19T05:37:04Z" changeset="125088811" uid="3497659" user="NKA">
		<tag k="name" v="Faleide" />
		<tag k="place" v="hamlet" />
		<tag k="ssr:stedsnr" v="131271" />
	</node>
	<node id="794100512" lat="61.8599076" lon="6.5313049" version="4" timestamp="2022-08-19T05:37:04Z" changeset="125088811" uid="3497659" user="NKA">
		<tag k="alt_name" v="Blaksæter" />
		<tag k="name" v="Blakset" />
		<tag k="place" v="village" />
		<tag k="ssr:stedsnr" v="374019" />
	</node>
	<node id="794102455" lat="61.8402962" lon="6.4661706" version="2" timestamp="2022-08-19T05:37:04Z" changeset="125088811" uid="3497659" user="NKA">
		<tag k="name" v="Fjelli" />
		<tag k="place" v="hamlet" />
		<tag k="ssr:stedsnr" v="388534" />
	</node>
	<node id="794102991" lat="61.868173" lon="6.3274242" version="2" timestamp="2022-08-19T05:37:04Z" changeset="125088811" uid="3497659" user="NKA">
		<tag k="name" v="Randabygda" />
		<tag k="place" v="village" />
		<tag k="ssr:stedsnr" v="738066" />
	</node>
	<node id="3715808729" lat="61.947845" lon="6.8780182" version="2" timestamp="2022-08-19T05:37:04Z" changeset="125088811" uid="3497659" user="NKA">
		<tag k="historic" v="shieling" />
		<tag k="name" v="Innigardssætra" />
		<tag k="place" v="isolated_dwelling" />
		<tag k="ssr:stedsnr" v="374236" />
	</node>
	<node id="3715808733" lat="61.9364681" lon="6.8776391" version="2" timestamp="2022-08-19T05:37:04Z" changeset="125088811" uid="3497659" user="NKA">
		<tag k="name" v="Storesunde" />
		<tag k="place" v="hamlet" />
		<tag k="ssr:stedsnr" v="313298" />
	</node>
	<node id="4857419849" lat="61.9170575" lon="6.8070944" version="2" timestamp="2022-08-19T05:37:04Z" changeset="125088811" uid="3497659" user="NKA">
		<tag k="name" v="Stauri" />
		<tag k="place" v="hamlet" />
		<tag k="ssr:stedsnr" v="374320" />
	</node>
	<node id="4871971450" lat="61.8773884" lon="6.7952489" version="2" timestamp="2022-08-19T05:37:04Z" changeset="125088811" uid="3497659" user="NKA">
		<tag k="name" v="Oppheim" />
		<tag k="place" v="hamlet" />
		<tag k="ssr:stedsnr" v="10254" />
	</node>
	<node id="4871971451" lat="61.8891582" lon="6.7837037" version="2" timestamp="2022-08-19T05:37:04Z" changeset="125088811" uid="3497659" user="NKA">
		<tag k="historic" v="shieling" />
		<tag k="name" v="Oppheimssætra" />
		<tag k="place" v="isolated_dwelling" />
		<tag k="ssr:stedsnr" v="192274" />
	</node>
	<node id="5073213089" lat="61.8526006" lon="6.9105257" version="2" timestamp="2022-08-19T05:37:04Z" changeset="125088811" uid="3497659" user="NKA">
		<tag k="name" v="Sande" />
		<tag k="place" v="hamlet" />
		<tag k="ssr:stedsnr" v="860422" />
	</node>
	<node id="5083105376" lat="61.9043319" lon="6.7236373" version="5" timestamp="2022-08-19T05:37:04Z" changeset="125088811" uid="3497659" user="NKA">
		<tag k="name" v="Stryn" />
		<tag k="place" v="village" />
		<tag k="population" v="2530" />
		<tag k="population:date" v="2021-01-01" />
		<tag k="ref:ssb_tettsted" v="5731" />
		<tag k="source:population" v="SSB - befolkning i tettstedet" />
		<tag k="ssr:stedsnr" v="556333" />
	</node>
	<node id="5083673702" lat="61.9216678" lon="7.1443927" version="3" timestamp="2022-08-19T05:37:04Z" changeset="125088811" uid="3497659" user="NKA">
		<tag k="name" v="Bolstad" />
		<tag k="place" v="hamlet" />
		<tag k="ssr:stedsnr" v="920481" />
	</node>
	<node id="5743921367" lat="61.7857528" lon="6.9861849" version="2" timestamp="2022-08-19T05:37:04Z" changeset="125088811" uid="3497659" user="NKA">
		<tag k="name" v="Nesdal" />
		<tag k="place" v="hamlet" />
		<tag k="ssr:stedsnr" v="677573" />
	</node>
	<node id="6022398711" lat="61.9187348" lon="6.5391763" version="2" timestamp="2022-08-19T05:37:04Z" changeset="125088811" uid="3497659" user="NKA">
		<tag k="name" v="Flore" />
		<tag k="place" v="hamlet" />
		<tag k="ssr:stedsnr" v="10960" />
	</node>
	<node id="6022398712" lat="61.9256572" lon="6.5404282" version="2" timestamp="2022-08-19T05:37:04Z" changeset="125088811" uid="3497659" user="NKA">
		<tag k="name" v="Sindre" />
		<tag k="place" v="farm" />
		<tag k="ssr:stedsnr" v="313962" />
	</node>
	<node id="6214191513" lat="61.9217198" lon="7.1729061" version="2" timestamp="2022-08-19T05:37:04Z" changeset="125088811" uid="3497659" user="NKA">
		<tag k="alt_name" v="Hjelledalen" />
		<tag k="name" v="Grov" />
		<tag k="place" v="hamlet" />
		<tag k="ssr:stedsnr" v="495483" />
	</node>
	<node id="6214191514" lat="61.6934936" lon="6.8065304" version="2" timestamp="2022-08-19T05:37:04Z" changeset="125088811" uid="3497659" user="NKA">
		<tag k="alt_name" v="Oldedalen" />
		<tag k="name" v="Høgalmane" />
		<tag k="place" v="hamlet" />
		<tag k="ssr:stedsnr" v="615910" />
	</node>
	<node id="6216710671" lat="61.86779" lon="6.3133295" version="2" timestamp="2022-08-19T05:37:04Z" changeset="125088811" uid="3497659" user="NKA">
		<tag k="name" v="Hopland" />
		<tag k="place" v="hamlet" />
		<tag k="ssr:stedsnr" v="920063" />
	</node>
	<node id="6216710681" lat="61.9086778" lon="7.0555579" version="2" timestamp="2022-08-19T05:37:04Z" changeset="125088811" uid="3497659" user="NKA">
		<tag k="alt_name" v="Oppstryn" />
		<tag k="name" v="Fosnes" />
		<tag k="place" v="village" />
		<tag k="ssr:stedsnr" v="435512" />
	</node>
	<node id="6264472373" lat="61.8742804" lon="6.7813869" version="2" timestamp="2022-08-19T05:37:04Z" changeset="125088811" uid="3497659" user="NKA">
		<tag k="name" v="Marså" />
		<tag k="place" v="farm" />
		<tag k="ssr:stedsnr" v="822195" />
	</node>
	<node id="6264472627" lat="61.8867353" lon="6.7264008" version="2" timestamp="2022-08-19T05:37:04Z" changeset="125088811" uid="3497659" user="NKA">
		<tag k="alt_name" v="Strandasetra" />
		<tag k="historic" v="shieling" />
		<tag k="name" v="Strandasætra" />
		<tag k="place" v="isolated_dwelling" />
		<tag k="ssr:stedsnr" v="71274" />
	</node>
	<node id="6264472628" lat="61.8899032" lon="6.7237937" version="2" timestamp="2022-08-19T05:37:04Z" changeset="125088811" uid="3497659" user="NKA">
		<tag k="historic" v="shieling" />
		<tag k="name" v="Årheimssætra" />
		<tag k="place" v="isolated_dwelling" />
		<tag k="ssr:stedsnr" v="314312" />
	</node>
	<node id="8942363421" lat="61.9228527" lon="6.5136964" version="2" timestamp="2022-08-19T05:37:04Z" changeset="125088811" uid="3497659" user="NKA">
		<tag k="name" v="Nybø" />
		<tag k="place" v="farm" />
		<tag k="ssr:stedsnr" v="738967" />
	</node>
	<node id="8942431090" lat="61.9113771" lon="6.5860382" version="2" timestamp="2022-08-19T05:37:04Z" changeset="125088811" uid="3497659" user="NKA">
		<tag k="name" v="Markane" />
		<tag k="place" v="hamlet" />
		<tag k="ssr:stedsnr" v="570197" />
	</node>
	<node id="9963084785" lat="61.8900107" lon="6.6839016" version="1" timestamp="2022-08-19T05:37:04Z" changeset="125088811" uid="3497659" user="NKA">
		<tag k="name" v="Lindset" />
		<tag k="place" v="neighbourhood" />
		<tag k="ssr:stedsnr" v="1083294" />
	</node>
	<node id="9963084786" lat="61.9333719" lon="6.676948" version="1" timestamp="2022-08-19T05:37:04Z" changeset="125088811" uid="3497659" user="NKA">
		<tag k="historic" v="shieling" />
		<tag k="name" v="Vikasætra" />
		<tag k="place" v="isolated_dwelling" />
		<tag k="ssr:stedsnr" v="94032" />
	</node>
	<node id="9963084787" lat="61.9224778" lon="6.6997085" version="1" timestamp="2022-08-19T05:37:04Z" changeset="125088811" uid="3497659" user="NKA">
		<tag k="historic" v="shieling" />
		<tag k="name" v="Bøanedsætra" />
		<tag k="place" v="isolated_dwelling" />
		<tag k="ssr:stedsnr" v="215461" />
	</node>
	<node id="9963084788" lat="61.8392889" lon="6.4725252" version="1" timestamp="2022-08-19T05:37:04Z" changeset="125088811" uid="3497659" user="NKA">
		<tag k="name" v="Lundberg" />
		<tag k="place" v="farm" />
		<tag k="ssr:stedsnr" v="71110" />
	</node>
	<node id="9963084789" lat="61.844247" lon="6.638216" version="1" timestamp="2022-08-19T05:37:04Z" changeset="125088811" uid="3497659" user="NKA">
		<tag k="name" v="Reme" />
		<tag k="place" v="hamlet" />
		<tag k="ssr:stedsnr" v="192376" />
	</node>
	<node id="9963084790" lat="61.9323634" lon="6.6771956" version="1" timestamp="2022-08-19T05:37:04Z" changeset="125088811" uid="3497659" user="NKA">
		<tag k="historic" v="shieling" />
		<tag k="name" v="Tonningssætra" />
		<tag k="place" v="hamlet" />
		<tag k="ssr:stedsnr" v="738215" />
	</node>
	<node id="9963084791" lat="61.83725" lon="6.4700557" version="1" timestamp="2022-08-19T05:37:04Z" changeset="125088811" uid="3497659" user="NKA">
		<tag k="name" v="Lillejord" />
		<tag k="old_name" v="Litlejordet" />
		<tag k="place" v="farm" />
		<tag k="ssr:stedsnr" v="53124" />
	</node>
	<node id="9963084792" lat="61.8719944" lon="6.5131251" version="1" timestamp="2022-08-19T05:37:04Z" changeset="125088811" uid="3497659" user="NKA">
		<tag k="name" v="Hellgardsvad" />
		<tag k="place" v="locality" />
		<tag k="ssr:stedsnr" v="616001" />
	</node>
	<node id="9963084793" lat="61.8602306" lon="6.4934113" version="1" timestamp="2022-08-19T05:37:04Z" changeset="125088811" uid="3497659" user="NKA">
		<tag k="historic" v="shieling" />
		<tag k="name" v="Rosetstøylen" />
		<tag k="place" v="isolated_dwelling" />
		<tag k="ssr:stedsnr" v="10019" />
	</node>
	<node id="9963084794" lat="61.8907307" lon="6.677212" version="1" timestamp="2022-08-19T05:37:04Z" changeset="125088811" uid="3497659" user="NKA">
		<tag k="name" v="Bergsida" />
		<tag k="place" v="hamlet" />
		<tag k="ssr:stedsnr" v="860328" />
	</node>
	<node id="9963084795" lat="61.9111527" lon="6.5673501" version="1" timestamp="2022-08-19T05:37:04Z" changeset="125088811" uid="3497659" user="NKA">
		<tag k="name" v="Bruheim" />
		<tag k="place" v="farm" />
		<tag k="ssr:stedsnr" v="71998" />
	</node>
	<node id="9963084796" lat="61.8698806" lon="6.2781835" version="1" timestamp="2022-08-19T05:37:04Z" changeset="125088811" uid="3497659" user="NKA">
		<tag k="historic" v="shieling" />
		<tag k="name" v="Holesætra" />
		<tag k="place" v="isolated_dwelling" />
		<tag k="ssr:stedsnr" v="131054" />
	</node>
	<node id="9963084797" lat="61.8272778" lon="6.3281904" version="1" timestamp="2022-08-19T05:37:04Z" changeset="125088811" uid="3497659" user="NKA">
		<tag k="historic" v="shieling" />
		<tag k="name" v="Moldreimsstøylen" />
		<tag k="place" v="isolated_dwelling" />
		<tag k="ssr:stedsnr" v="859102" />
	</node>
	<node id="9963084798" lat="61.838681" lon="6.4220515" version="1" timestamp="2022-08-19T05:37:04Z" changeset="125088811" uid="3497659" user="NKA">
		<tag k="name" v="Lida" />
		<tag k="place" v="farm" />
		<tag k="ssr:stedsnr" v="799099" />
	</node>
	<node id="9963084799" lat="61.8828004" lon="6.5507101" version="1" timestamp="2022-08-19T05:37:04Z" changeset="125088811" uid="3497659" user="NKA">
		<tag k="name" v="Robjørgane" />
		<tag k="place" v="hamlet" />
		<tag k="ssr:stedsnr" v="10047" />
	</node>
	<node id="9963084800" lat="61.7853781" lon="6.9889901" version="1" timestamp="2022-08-19T05:37:04Z" changeset="125088811" uid="3497659" user="NKA">
		<tag k="loc_name" v="Innigard;Inigarden" />
		<tag k="name" v="Indre Nesdal" />
		<tag k="place" v="farm" />
		<tag k="ssr:stedsnr" v="972227" />
	</node>
	<node id="9963084801" lat="61.8644361" lon="6.7027862" version="1" timestamp="2022-08-19T05:37:04Z" changeset="125088811" uid="3497659" user="NKA">
		<tag k="historic" v="shieling" />
		<tag k="name" v="Agjeldssætra" />
		<tag k="place" v="isolated_dwelling" />
		<tag k="ssr:stedsnr" v="313362" />
	</node>
	<node id="9963084802" lat="61.8441245" lon="6.6315034" version="1" timestamp="2022-08-19T05:37:04Z" changeset="125088811" uid="3497659" user="NKA">
		<tag k="name" v="Torvund" />
		<tag k="place" v="farm" />
		<tag k="ssr:stedsnr" v="518328" />
	</node>
	<node id="9963084803" lat="61.8429939" lon="6.6340115" version="1" timestamp="2022-08-19T05:37:04Z" changeset="125088811" uid="3497659" user="NKA">
		<tag k="name" v="Taraldset" />
		<tag k="place" v="farm" />
		<tag k="ssr:stedsnr" v="252318" />
	</node>
	<node id="9963084804" lat="61.861212" lon="6.5342702" version="1" timestamp="2022-08-19T05:37:04Z" changeset="125088811" uid="3497659" user="NKA">
		<tag k="name" v="Blaksetnausta" />
		<tag k="place" v="locality" />
		<tag k="ssr:stedsnr" v="336290" />
	</node>
	<node id="9963084805" lat="61.8519463" lon="6.5189753" version="1" timestamp="2022-08-19T05:37:04Z" changeset="125088811" uid="3497659" user="NKA">
		<tag k="name" v="Roset" />
		<tag k="place" v="hamlet" />
		<tag k="ssr:stedsnr" v="374036" />
	</node>
	<node id="9963084806" lat="61.9408164" lon="6.9403282" version="1" timestamp="2022-08-19T05:37:04Z" changeset="125088811" uid="3497659" user="NKA">
		<tag k="name" v="Nestun" />
		<tag k="place" v="farm" />
		<tag k="ssr:stedsnr" v="975244" />
	</node>
	<node id="9963084807" lat="61.8475111" lon="6.4688641" version="1" timestamp="2022-08-19T05:37:04Z" changeset="125088811" uid="3497659" user="NKA">
		<tag k="name" v="Vangen" />
		<tag k="place" v="farm" />
		<tag k="ssr:stedsnr" v="313023" />
	</node>
	<node id="9963084808" lat="61.8379499" lon="6.5962258" version="1" timestamp="2022-08-19T05:37:04Z" changeset="125088811" uid="3497659" user="NKA">
		<tag k="name" v="Heggdal" />
		<tag k="old_name" v="Heggedal" />
		<tag k="place" v="hamlet" />
		<tag k="ssr:stedsnr" v="131340" />
	</node>
	<node id="9963084809" lat="61.8375147" lon="6.5052853" version="1" timestamp="2022-08-19T05:37:04Z" changeset="125088811" uid="3497659" user="NKA">
		<tag k="name" v="Ulvedal" />
		<tag k="place" v="hamlet" />
		<tag k="ssr:stedsnr" v="373101" />
	</node>
	<node id="9963084810" lat="61.7862667" lon="6.5520973" version="1" timestamp="2022-08-19T05:37:04Z" changeset="125088811" uid="3497659" user="NKA">
		<tag k="historic" v="shieling" />
		<tag k="name" v="Verlostøylen" />
		<tag k="place" v="isolated_dwelling" />
		<tag k="ssr:stedsnr" v="313181" />
	</node>
	<node id="9963084811" lat="61.8481835" lon="6.5303458" version="1" timestamp="2022-08-19T05:37:04Z" changeset="125088811" uid="3497659" user="NKA">
		<tag k="name" v="Rosetnausta" />
		<tag k="place" v="locality" />
		<tag k="ssr:stedsnr" v="253111" />
	</node>
	<node id="9963084812" lat="61.8012991" lon="6.5135762" version="1" timestamp="2022-08-19T05:37:04Z" changeset="125088811" uid="3497659" user="NKA">
		<tag k="name" v="Valåker" />
		<tag k="place" v="hamlet" />
		<tag k="ssr:stedsnr" v="253089" />
	</node>
	<node id="9963084813" lat="61.8905794" lon="6.6712271" version="1" timestamp="2022-08-19T05:37:04Z" changeset="125088811" uid="3497659" user="NKA">
		<tag k="name" v="Øvreberg" />
		<tag k="place" v="farm" />
		<tag k="ssr:stedsnr" v="71299" />
	</node>
	<node id="9963084814" lat="61.8558112" lon="6.4451558" version="1" timestamp="2022-08-19T05:37:04Z" changeset="125088811" uid="3497659" user="NKA">
		<tag k="historic" v="shieling" />
		<tag k="name" v="Indre Sølvbergsstøylen" />
		<tag k="place" v="isolated_dwelling" />
		<tag k="ssr:stedsnr" v="253028" />
	</node>
	<node id="9963084815" lat="61.8557622" lon="6.7726823" version="1" timestamp="2022-08-19T05:37:04Z" changeset="125088811" uid="3497659" user="NKA">
		<tag k="name" v="Heggestad" />
		<tag k="place" v="farm" />
		<tag k="ssr:stedsnr" v="920340" />
	</node>
	<node id="9963084816" lat="61.83565" lon="6.9251252" version="1" timestamp="2022-08-19T05:37:04Z" changeset="125088811" uid="3497659" user="NKA">
		<tag k="alt_name" v="Nesbønen" />
		<tag k="name" v="Nesbøen" />
		<tag k="place" v="locality" />
		<tag k="ssr:stedsnr" v="920329" />
	</node>
	<node id="9963104617" lat="61.8699422" lon="6.6519749" version="1" timestamp="2022-08-19T05:37:04Z" changeset="125088811" uid="3497659" user="NKA">
		<tag k="alt_name" v="Nedstesætra" />
		<tag k="name" v="Holnedstesætra" />
		<tag k="place" v="locality" />
		<tag k="ssr:stedsnr" v="1083020" />
	</node>
	<node id="9963104618" lat="61.9032083" lon="6.6366446" version="1" timestamp="2022-08-19T05:37:04Z" changeset="125088811" uid="3497659" user="NKA">
		<tag k="historic" v="shieling" />
		<tag k="name" v="Svarstadstøylen" />
		<tag k="place" v="isolated_dwelling" />
		<tag k="ssr:stedsnr" v="192286" />
	</node>
	<node id="9963104619" lat="61.8182022" lon="6.3724686" version="1" timestamp="2022-08-19T05:37:04Z" changeset="125088811" uid="3497659" user="NKA">
		<tag k="name" v="Skogly" />
		<tag k="place" v="farm" />
		<tag k="ssr:stedsnr" v="215158" />
	</node>
	<node id="9963104620" lat="61.9389569" lon="6.8988072" version="1" timestamp="2022-08-19T05:37:04Z" changeset="125088811" uid="3497659" user="NKA">
		<tag k="name" v="Grønneset" />
		<tag k="place" v="farm" />
		<tag k="ssr:stedsnr" v="920292" />
	</node>
	<node id="9963104621" lat="61.8235694" lon="6.648528" version="1" timestamp="2022-08-19T05:37:04Z" changeset="125088811" uid="3497659" user="NKA">
		<tag k="historic" v="shieling" />
		<tag k="name" v="Prestestøylen" />
		<tag k="place" v="isolated_dwelling" />
		<tag k="ssr:stedsnr" v="192367" />
	</node>
	<node id="9963104622" lat="61.8506692" lon="6.5194046" version="1" timestamp="2022-08-19T05:37:04Z" changeset="125088811" uid="3497659" user="NKA">
		<tag k="name" v="Ekrene" />
		<tag k="place" v="farm" />
		<tag k="ssr:stedsnr" v="160052" />
	</node>
	<node id="9963104623" lat="61.8363306" lon="6.6736751" version="1" timestamp="2022-08-19T05:37:04Z" changeset="125088811" uid="3497659" user="NKA">
		<tag k="name" v="Hestehytta" />
		<tag k="place" v="isolated_dwelling" />
		<tag k="ssr:stedsnr" v="860405" />
	</node>
	<node id="9963104624" lat="61.8458797" lon="6.6285272" version="1" timestamp="2022-08-19T05:37:04Z" changeset="125088811" uid="3497659" user="NKA">
		<tag k="name" v="Langvin" />
		<tag k="place" v="farm" />
		<tag k="ssr:stedsnr" v="192375" />
	</node>
	<node id="9963104625" lat="61.9178359" lon="6.7847165" version="1" timestamp="2022-08-19T05:37:04Z" changeset="125088811" uid="3497659" user="NKA">
		<tag k="name" v="Kyrkjeeide" />
		<tag k="place" v="hamlet" />
		<tag k="ssr:stedsnr" v="860341" />
	</node>
	<node id="9963104626" lat="61.8699997" lon="6.9043108" version="1" timestamp="2022-08-19T05:37:04Z" changeset="125088811" uid="3497659" user="NKA">
		<tag k="alt_name" v="Tyvasætra" />
		<tag k="historic" v="shieling" />
		<tag k="name" v="Haugasætra" />
		<tag k="place" v="isolated_dwelling" />
		<tag k="ssr:stedsnr" v="788579" />
	</node>
	<node id="9963104627" lat="61.8645585" lon="6.3042712" version="1" timestamp="2022-08-19T05:37:04Z" changeset="125088811" uid="3497659" user="NKA">
		<tag k="alt_name" v="Bjerkeli" />
		<tag k="name" v="Bjørkelid" />
		<tag k="place" v="farm" />
		<tag k="ssr:stedsnr" v="154191" />
	</node>
	<node id="9963104628" lat="61.8762696" lon="6.4893999" version="1" timestamp="2022-08-19T05:37:04Z" changeset="125088811" uid="3497659" user="NKA">
		<tag k="historic" v="shieling" />
		<tag k="name" v="Smørdalstølen" />
		<tag k="place" v="isolated_dwelling" />
		<tag k="ssr:stedsnr" v="154377" />
	</node>
	<node id="9963104629" lat="61.9462677" lon="6.8737461" version="1" timestamp="2022-08-19T05:37:04Z" changeset="125088811" uid="3497659" user="NKA">
		<tag k="historic" v="shieling" />
		<tag k="name" v="Utigardssætra" />
		<tag k="place" v="isolated_dwelling" />
		<tag k="ssr:stedsnr" v="799220" />
	</node>
	<node id="9963104630" lat="61.8320056" lon="6.3363891" version="1" timestamp="2022-08-19T05:37:04Z" changeset="125088811" uid="3497659" user="NKA">
		<tag k="historic" v="shieling" />
		<tag k="name" v="Nerstølen" />
		<tag k="place" v="isolated_dwelling" />
		<tag k="ssr:stedsnr" v="154164" />
	</node>
	<node id="9963104631" lat="61.8519139" lon="6.4924918" version="1" timestamp="2022-08-19T05:37:04Z" changeset="125088811" uid="3497659" user="NKA">
		<tag k="name" v="Brekkene" />
		<tag k="place" v="locality" />
		<tag k="ssr:stedsnr" v="131034" />
	</node>
	<node id="9963104632" lat="61.8153861" lon="6.5417473" version="1" timestamp="2022-08-19T05:37:04Z" changeset="125088811" uid="3497659" user="NKA">
		<tag k="name" v="Innlegda" />
		<tag k="place" v="farm" />
		<tag k="ssr:stedsnr" v="131066" />
	</node>
	<node id="9963104633" lat="61.8522198" lon="6.7817458" version="1" timestamp="2022-08-19T05:37:04Z" changeset="125088811" uid="3497659" user="NKA">
		<tag k="name" v="Gildestad" />
		<tag k="place" v="hamlet" />
		<tag k="ssr:stedsnr" v="775895" />
	</node>
	<node id="9963104634" lat="61.8480472" lon="6.7633139" version="1" timestamp="2022-08-19T05:37:04Z" changeset="125088811" uid="3497659" user="NKA">
		<tag k="name" v="Fossen" />
		<tag k="place" v="isolated_dwelling" />
		<tag k="ssr:stedsnr" v="738362" />
	</node>
	<node id="9963104635" lat="61.8784777" lon="6.5329585" version="1" timestamp="2022-08-19T05:37:04Z" changeset="125088811" uid="3497659" user="NKA">
		<tag k="historic" v="shieling" />
		<tag k="name" v="Rosetstøylen" />
		<tag k="place" v="isolated_dwelling" />
		<tag k="ssr:stedsnr" v="71045" />
	</node>
	<node id="9963104636" lat="61.9269638" lon="6.7603252" version="1" timestamp="2022-08-19T05:37:04Z" changeset="125088811" uid="3497659" user="NKA">
		<tag k="historic" v="shieling" />
		<tag k="name" v="Kyrkjeeidssætra" />
		<tag k="place" v="isolated_dwelling" />
		<tag k="ssr:stedsnr" v="313307" />
	</node>
	<node id="9963104637" lat="61.9268584" lon="6.6516133" version="1" timestamp="2022-08-19T05:37:04Z" changeset="125088811" uid="3497659" user="NKA">
		<tag k="historic" v="shieling" />
		<tag k="name" v="Øvrebergssætra" />
		<tag k="place" v="hamlet" />
		<tag k="ssr:stedsnr" v="313302" />
	</node>
	<node id="9963104638" lat="61.8445015" lon="6.6125929" version="1" timestamp="2022-08-19T05:37:04Z" changeset="125088811" uid="3497659" user="NKA">
		<tag k="loc_name" v="Skodi;Skoden" />
		<tag k="name" v="Skåden" />
		<tag k="place" v="hamlet" />
		<tag k="ssr:stedsnr" v="677323" />
	</node>
	<node id="9963104639" lat="61.8317222" lon="6.4674308" version="1" timestamp="2022-08-19T05:37:04Z" changeset="125088811" uid="3497659" user="NKA">
		<tag k="name" v="Bergsetnausta" />
		<tag k="place" v="locality" />
		<tag k="ssr:stedsnr" v="70096" />
	</node>
	<node id="9963104640" lat="61.8411486" lon="6.6102553" version="1" timestamp="2022-08-19T05:37:04Z" changeset="125088811" uid="3497659" user="NKA">
		<tag k="alt_name" v="Gjeilemyra" />
		<tag k="name" v="Geilemyra" />
		<tag k="place" v="farm" />
		<tag k="ssr:stedsnr" v="282888" />
	</node>
	<node id="9963104641" lat="61.8739778" lon="6.3031169" version="1" timestamp="2022-08-19T05:37:04Z" changeset="125088811" uid="3497659" user="NKA">
		<tag k="name" v="Brekkene" />
		<tag k="place" v="locality" />
		<tag k="ssr:stedsnr" v="71033" />
	</node>
	<node id="9963104642" lat="61.8376861" lon="6.4125752" version="1" timestamp="2022-08-19T05:37:04Z" changeset="125088811" uid="3497659" user="NKA">
		<tag k="name" v="Skor" />
		<tag k="place" v="farm" />
		<tag k="ssr:stedsnr" v="10127" />
	</node>
	<node id="9963104643" lat="61.8004888" lon="6.5661086" version="1" timestamp="2022-08-19T05:37:04Z" changeset="125088811" uid="3497659" user="NKA">
		<tag k="historic" v="shieling" />
		<tag k="name" v="Bergsstøylen" />
		<tag k="place" v="isolated_dwelling" />
		<tag k="ssr:stedsnr" v="860102" />
	</node>
	<node id="9963104644" lat="61.8710741" lon="6.5313895" version="1" timestamp="2022-08-19T05:37:04Z" changeset="125088811" uid="3497659" user="NKA">
		<tag k="name" v="Teigen" />
		<tag k="place" v="farm" />
		<tag k="ssr:stedsnr" v="10009" />
	</node>
	<node id="9963104645" lat="61.8905704" lon="6.638175" version="1" timestamp="2022-08-19T05:37:04Z" changeset="125088811" uid="3497659" user="NKA">
		<tag k="name" v="Svarstad" />
		<tag k="place" v="hamlet" />
		<tag k="ssr:stedsnr" v="192297" />
	</node>
	<node id="9963104646" lat="61.9061661" lon="6.7026038" version="1" timestamp="2022-08-19T05:37:04Z" changeset="125088811" uid="3497659" user="NKA">
		<tag k="name" v="Sandberg" />
		<tag k="place" v="neighbourhood" />
		<tag k="ssr:stedsnr" v="342010" />
	</node>
	<node id="9963104647" lat="61.8878008" lon="6.6743141" version="1" timestamp="2022-08-19T05:37:04Z" changeset="125088811" uid="3497659" user="NKA">
		<tag k="name" v="Lunde" />
		<tag k="place" v="hamlet" />
		<tag k="ssr:stedsnr" v="71272" />
	</node>
	<node id="9963104648" lat="61.8575874" lon="6.6083079" version="1" timestamp="2022-08-19T05:37:04Z" changeset="125088811" uid="3497659" user="NKA">
		<tag k="name" v="Hilde" />
		<tag k="place" v="quarter" />
		<tag k="ssr:stedsnr" v="94416" />
	</node>
	<node id="9963104649" lat="61.8361622" lon="6.5859815" version="1" timestamp="2022-08-19T05:37:04Z" changeset="125088811" uid="3497659" user="NKA">
		<tag k="name" v="Geilane" />
		<tag k="place" v="locality" />
		<tag k="ssr:stedsnr" v="859108" />
	</node>
	<node id="9963104650" lat="61.8551504" lon="6.6113766" version="1" timestamp="2022-08-19T05:37:04Z" changeset="125088811" uid="3497659" user="NKA">
		<tag k="name" v="Hildanausta" />
		<tag k="place" v="locality" />
		<tag k="ssr:stedsnr" v="883415" />
	</node>
	<node id="9963104651" lat="61.8632146" lon="6.3382973" version="1" timestamp="2022-08-19T05:37:04Z" changeset="125088811" uid="3497659" user="NKA">
		<tag k="name" v="Gamlegarden" />
		<tag k="place" v="farm" />
		<tag k="ssr:stedsnr" v="883264" />
	</node>
	<node id="9963104652" lat="61.7900497" lon="6.8204926" version="1" timestamp="2022-08-19T05:37:04Z" changeset="125088811" uid="3497659" user="NKA">
		<tag k="name" v="Beinnes" />
		<tag k="place" v="hamlet" />
		<tag k="ssr:stedsnr" v="677405" />
	</node>
	<node id="9963104653" lat="61.8635417" lon="6.3150613" version="1" timestamp="2022-08-19T05:37:04Z" changeset="125088811" uid="3497659" user="NKA">
		<tag k="name" v="Hoplandsnausta" />
		<tag k="place" v="locality" />
		<tag k="ssr:stedsnr" v="883178" />
	</node>
	<node id="9963104654" lat="61.9412486" lon="6.9126271" version="1" timestamp="2022-08-19T05:37:04Z" changeset="125088811" uid="3497659" user="NKA">
		<tag k="name" v="Skor" />
		<tag k="place" v="hamlet" />
		<tag k="ssr:stedsnr" v="677273" />
	</node>
	<node id="9963104655" lat="61.8607223" lon="6.8908613" version="1" timestamp="2022-08-19T05:37:04Z" changeset="125088811" uid="3497659" user="NKA">
		<tag k="name" v="Sande" />
		<tag k="place" v="farm" />
		<tag k="ssr:stedsnr" v="616332" />
	</node>
	<node id="9963104656" lat="61.9221901" lon="6.6177816" version="1" timestamp="2022-08-19T05:37:04Z" changeset="125088811" uid="3497659" user="NKA">
		<tag k="name" v="Svingeset" />
		<tag k="place" v="hamlet" />
		<tag k="ssr:stedsnr" v="10291" />
	</node>
	<node id="9963104657" lat="61.9164585" lon="6.7030195" version="1" timestamp="2022-08-19T05:37:04Z" changeset="125088811" uid="3497659" user="NKA">
		<tag k="name" v="Lida" />
		<tag k="place" v="farm" />
		<tag k="ssr:stedsnr" v="10274" />
	</node>
	<node id="9963104658" lat="61.844724" lon="6.79168" version="1" timestamp="2022-08-19T05:37:04Z" changeset="125088811" uid="3497659" user="NKA">
		<tag k="name" v="Skarstein" />
		<tag k="place" v="hamlet" />
		<tag k="ssr:stedsnr" v="616340" />
	</node>
	<node id="9963104659" lat="61.8380056" lon="6.4594058" version="1" timestamp="2022-08-19T05:37:04Z" changeset="125088811" uid="3497659" user="NKA">
		<tag k="name" v="Øverland" />
		<tag k="place" v="farm" />
		<tag k="ssr:stedsnr" v="738107" />
	</node>
	<node id="9963104660" lat="61.8362425" lon="6.4613384" version="1" timestamp="2022-08-19T05:37:04Z" changeset="125088811" uid="3497659" user="NKA">
		<tag k="name" v="Sølvberg" />
		<tag k="place" v="hamlet" />
		<tag k="ssr:stedsnr" v="859097" />
	</node>
	<node id="9963104661" lat="61.9052674" lon="6.7083649" version="1" timestamp="2022-08-19T05:37:04Z" changeset="125088811" uid="3497659" user="NKA">
		<tag k="name" v="Tonning" />
		<tag k="place" v="quarter" />
		<tag k="ssr:stedsnr" v="10265" />
	</node>
	<node id="9963104662" lat="61.8621173" lon="6.7534428" version="1" timestamp="2022-08-19T05:37:04Z" changeset="125088811" uid="3497659" user="NKA">
		<tag k="name" v="Vangberg" />
		<tag k="place" v="hamlet" />
		<tag k="ssr:stedsnr" v="10342" />
	</node>
	<node id="9963104663" lat="61.8409615" lon="6.6053062" version="1" timestamp="2022-08-19T05:37:04Z" changeset="125088811" uid="3497659" user="NKA">
		<tag k="name" v="Lyslo" />
		<tag k="place" v="hamlet" />
		<tag k="ssr:stedsnr" v="10331" />
	</node>
	<node id="9963104664" lat="61.8375916" lon="6.4170864" version="1" timestamp="2022-08-19T05:37:04Z" changeset="125088811" uid="3497659" user="NKA">
		<tag k="name" v="Heimli" />
		<tag k="place" v="farm" />
		<tag k="ssr:stedsnr" v="859103" />
	</node>
	<node id="9963104665" lat="61.9342519" lon="6.8355968" version="1" timestamp="2022-08-19T05:37:04Z" changeset="125088811" uid="3497659" user="NKA">
		<tag k="name" v="Skor" />
		<tag k="place" v="farm" />
		<tag k="ssr:stedsnr" v="555249" />
	</node>
	<node id="9963104666" lat="61.8632166" lon="6.3299505" version="1" timestamp="2022-08-19T05:37:04Z" changeset="125088811" uid="3497659" user="NKA">
		<tag k="name" v="Hammar" />
		<tag k="place" v="farm" />
		<tag k="ssr:stedsnr" v="192014" />
	</node>
	<node id="9963104667" lat="61.8695223" lon="6.5409841" version="1" timestamp="2022-08-19T05:37:04Z" changeset="125088811" uid="3497659" user="NKA">
		<tag k="name" v="Dokset" />
		<tag k="place" v="hamlet" />
		<tag k="ssr:stedsnr" v="192006" />
	</node>
	<node id="9963104668" lat="61.8366556" lon="6.4308084" version="1" timestamp="2022-08-19T05:37:04Z" changeset="125088811" uid="3497659" user="NKA">
		<tag k="name" v="Hogstad" />
		<tag k="place" v="farm" />
		<tag k="ssr:stedsnr" v="71097" />
	</node>
	<node id="9963104669" lat="61.8324888" lon="6.3453924" version="1" timestamp="2022-08-19T05:37:04Z" changeset="125088811" uid="3497659" user="NKA">
		<tag k="name" v="Moldreim" />
		<tag k="place" v="hamlet" />
		<tag k="ssr:stedsnr" v="10125" />
	</node>
	<node id="9963104671" lat="61.8069639" lon="6.5279742" version="1" timestamp="2022-08-19T05:37:04Z" changeset="125088811" uid="3497659" user="NKA">
		<tag k="name" v="Hage" />
		<tag k="place" v="hamlet" />
		<tag k="ssr:stedsnr" v="859069" />
	</node>
	<node id="9963104672" lat="61.9341784" lon="6.8609126" version="1" timestamp="2022-08-19T05:37:04Z" changeset="125088811" uid="3497659" user="NKA">
		<tag k="name" v="Tenna" />
		<tag k="place" v="farm" />
		<tag k="ssr:stedsnr" v="555248" />
	</node>
	<node id="9963104673" lat="61.831525" lon="6.4660612" version="1" timestamp="2022-08-19T05:37:04Z" changeset="125088811" uid="3497659" user="NKA">
		<tag k="alt_name" v="Sølvbergnausta" />
		<tag k="name" v="Sølvbergsnausta" />
		<tag k="place" v="locality" />
		<tag k="ssr:stedsnr" v="616107" />
	</node>
	<node id="9963104674" lat="61.8001366" lon="6.8170511" version="1" timestamp="2022-08-19T05:37:04Z" changeset="125088811" uid="3497659" user="NKA">
		<tag k="historic" v="shieling" />
		<tag k="name" v="Gardstølane" />
		<tag k="place" v="isolated_dwelling" />
		<tag k="ssr:stedsnr" v="518077" />
	</node>
	<node id="9963104675" lat="61.9148445" lon="6.4853947" version="1" timestamp="2022-08-19T05:37:04Z" changeset="125088811" uid="3497659" user="NKA">
		<tag k="historic" v="shieling" />
		<tag k="name" v="Nybøstøylen" />
		<tag k="place" v="isolated_dwelling" />
		<tag k="ssr:stedsnr" v="374960" />
	</node>
	<node id="9963104676" lat="61.932652" lon="6.5387829" version="1" timestamp="2022-08-19T05:37:04Z" changeset="125088811" uid="3497659" user="NKA">
		<tag k="alt_name" v="Øen" />
		<tag k="name" v="Øyane" />
		<tag k="place" v="farm" />
		<tag k="ssr:stedsnr" v="374910" />
	</node>
	<node id="9963104677" lat="61.8508966" lon="6.8490155" version="1" timestamp="2022-08-19T05:37:04Z" changeset="125088811" uid="3497659" user="NKA">
		<tag k="historic" v="shieling" />
		<tag k="loc_name" v="Avleisætra" />
		<tag k="name" v="Avleinssætra" />
		<tag k="place" v="isolated_dwelling" />
		<tag k="ssr:stedsnr" v="451666" />
	</node>
	<node id="9963104678" lat="61.9284889" lon="6.6050751" version="1" timestamp="2022-08-19T05:37:04Z" changeset="125088811" uid="3497659" user="NKA">
		<tag k="name" v="Djupvoll" />
		<tag k="place" v="hamlet" />
		<tag k="ssr:stedsnr" v="131294" />
	</node>
	<node id="9963104679" lat="61.7688111" lon="6.9641279" version="1" timestamp="2022-08-19T05:37:04Z" changeset="125088811" uid="3497659" user="NKA">
		<tag k="historic" v="shieling" />
		<tag k="name" v="Ruteflotsætra" />
		<tag k="place" v="isolated_dwelling" />
		<tag k="ssr:stedsnr" v="495420" />
	</node>
	<node id="9963104680" lat="61.9129972" lon="6.4850501" version="1" timestamp="2022-08-19T05:37:04Z" changeset="125088811" uid="3497659" user="NKA">
		<tag k="historic" v="shieling" />
		<tag k="name" v="Sindresætra" />
		<tag k="place" v="isolated_dwelling" />
		<tag k="ssr:stedsnr" v="131957" />
	</node>
	<node id="9963104681" lat="61.9476236" lon="6.9343781" version="1" timestamp="2022-08-19T05:37:04Z" changeset="125088811" uid="3497659" user="NKA">
		<tag k="alt_name" v="Solli" />
		<tag k="name" v="Sollida" />
		<tag k="place" v="farm" />
		<tag k="ssr:stedsnr" v="435245" />
	</node>
	<node id="9963104682" lat="61.7812854" lon="6.835862" version="1" timestamp="2022-08-19T05:37:04Z" changeset="125088811" uid="3497659" user="NKA">
		<tag k="name" v="Håheim" />
		<tag k="place" v="hamlet" />
		<tag k="ssr:stedsnr" v="435481" />
	</node>
	<node id="9963104683" lat="61.8974701" lon="7.0815631" version="1" timestamp="2022-08-19T05:37:04Z" changeset="125088811" uid="3497659" user="NKA">
		<tag k="name" v="Mork" />
		<tag k="place" v="farm" />
		<tag k="ssr:stedsnr" v="435510" />
	</node>
	<node id="9963104684" lat="61.9273305" lon="6.598803" version="1" timestamp="2022-08-19T05:37:04Z" changeset="125088811" uid="3497659" user="NKA">
		<tag k="name" v="Bakkevoll" />
		<tag k="place" v="farm" />
		<tag k="ssr:stedsnr" v="131292" />
	</node>
	<node id="9963104685" lat="61.9075" lon="6.5321807" version="1" timestamp="2022-08-19T05:37:04Z" changeset="125088811" uid="3497659" user="NKA">
		<tag k="historic" v="shieling" />
		<tag k="name" v="Florestøylane" />
		<tag k="place" v="isolated_dwelling" />
		<tag k="ssr:stedsnr" v="10996" />
	</node>
	<node id="9963104686" lat="61.8289805" lon="6.9847751" version="1" timestamp="2022-08-19T05:37:04Z" changeset="125088811" uid="3497659" user="NKA">
		<tag k="historic" v="shieling" />
		<tag k="name" v="Hogrenningssætra" />
		<tag k="place" v="isolated_dwelling" />
		<tag k="ssr:stedsnr" v="434399" />
	</node>
	<node id="9963104687" lat="61.8004149" lon="7.0101171" version="1" timestamp="2022-08-19T05:37:04Z" changeset="125088811" uid="3497659" user="NKA">
		<tag k="name" v="Bødal" />
		<tag k="place" v="hamlet" />
		<tag k="ssr:stedsnr" v="434395" />
	</node>
	<node id="9963104688" lat="61.9213469" lon="6.6474584" version="1" timestamp="2022-08-19T05:37:04Z" changeset="125088811" uid="3497659" user="NKA">
		<tag k="historic" v="shieling" />
		<tag k="name" v="Lundasætra" />
		<tag k="place" v="isolated_dwelling" />
		<tag k="ssr:stedsnr" v="677256" />
	</node>
	<node id="9963104689" lat="61.7587598" lon="6.828635" version="1" timestamp="2022-08-19T05:37:04Z" changeset="125088811" uid="3497659" user="NKA">
		<tag k="loc_name" v="Gjærde" />
		<tag k="name" v="Gjerdane" />
		<tag k="place" v="hamlet" />
		<tag k="ssr:stedsnr" v="253472" />
	</node>
	<node id="9963104690" lat="61.8994956" lon="6.6977679" version="1" timestamp="2022-08-19T05:37:04Z" changeset="125088811" uid="3497659" user="NKA">
		<tag k="name" v="Grønevik" />
		<tag k="place" v="farm" />
		<tag k="ssr:stedsnr" v="221089" />
	</node>
	<node id="9963104691" lat="61.9326786" lon="6.5711843" version="1" timestamp="2022-08-19T05:37:04Z" changeset="125088811" uid="3497659" user="NKA">
		<tag k="name" v="Maurset" />
		<tag k="place" v="hamlet" />
		<tag k="ssr:stedsnr" v="920910" />
	</node>
	<node id="9963104692" lat="61.9309416" lon="6.9022168" version="1" timestamp="2022-08-19T05:37:04Z" changeset="125088811" uid="3497659" user="NKA">
		<tag k="loc_name" v="Gjerdane" />
		<tag k="name" v="Gjerane" />
		<tag k="place" v="farm" />
		<tag k="ssr:stedsnr" v="253365" />
	</node>
	<node id="9963104693" lat="61.8597416" lon="6.3435696" version="1" timestamp="2022-08-19T05:37:04Z" changeset="125088811" uid="3497659" user="NKA">
		<tag k="name" v="Kvia" />
		<tag k="place" v="locality" />
		<tag k="ssr:stedsnr" v="677014" />
	</node>
	<node id="9963104694" lat="61.8460667" lon="6.5216891" version="1" timestamp="2022-08-19T05:37:04Z" changeset="125088811" uid="3497659" user="NKA">
		<tag k="name" v="Svanheim" />
		<tag k="place" v="farm" />
		<tag k="ssr:stedsnr" v="192120" />
	</node>
	<node id="9963104695" lat="61.8037848" lon="6.5040305" version="1" timestamp="2022-08-19T05:37:04Z" changeset="125088811" uid="3497659" user="NKA">
		<tag k="name" v="Bruland" />
		<tag k="place" v="hamlet" />
		<tag k="ssr:stedsnr" v="495111" />
	</node>
	<node id="9963104696" lat="61.974525" lon="7.0515001" version="1" timestamp="2022-08-19T05:37:04Z" changeset="125088811" uid="3497659" user="NKA">
		<tag k="historic" v="shieling" />
		<tag k="name" v="Øvre-Flosætra" />
		<tag k="place" v="isolated_dwelling" />
		<tag k="ssr:stedsnr" v="131372" />
	</node>
	<node id="9963104697" lat="61.8594861" lon="6.5332307" version="1" timestamp="2022-08-19T05:37:04Z" changeset="125088811" uid="3497659" user="NKA">
		<tag k="name" v="Steinset" />
		<tag k="place" v="farm" />
		<tag k="ssr:stedsnr" v="71018" />
	</node>
	<node id="9963104698" lat="61.8401567" lon="6.8113634" version="1" timestamp="2022-08-19T05:37:04Z" changeset="125088811" uid="3497659" user="NKA">
		<tag k="name" v="Murinausta" />
		<tag k="place" v="locality" />
		<tag k="ssr:stedsnr" v="215191" />
	</node>
	<node id="9963104699" lat="61.9488667" lon="6.9147168" version="1" timestamp="2022-08-19T05:37:04Z" changeset="125088811" uid="3497659" user="NKA">
		<tag k="historic" v="shieling" />
		<tag k="name" v="Skorsætra" />
		<tag k="place" v="isolated_dwelling" />
		<tag k="ssr:stedsnr" v="131198" />
	</node>
	<node id="9963104700" lat="61.7060611" lon="6.8318863" version="1" timestamp="2022-08-19T05:37:04Z" changeset="125088811" uid="3497659" user="NKA">
		<tag k="historic" v="shieling" />
		<tag k="name" v="Utforsetra" />
		<tag k="place" v="isolated_dwelling" />
		<tag k="ssr:stedsnr" v="336102" />
	</node>
	<node id="9963104701" lat="61.7602831" lon="6.8112099" version="1" timestamp="2022-08-19T05:37:04Z" changeset="125088811" uid="3497659" user="NKA">
		<tag k="name" v="Mindresunde" />
		<tag k="place" v="farm" />
		<tag k="ssr:stedsnr" v="131395" />
	</node>
	<node id="9963104702" lat="61.8554746" lon="6.5266032" version="1" timestamp="2022-08-19T05:37:04Z" changeset="125088811" uid="3497659" user="NKA">
		<tag k="name" v="Kleiva" />
		<tag k="place" v="farm" />
		<tag k="ssr:stedsnr" v="761296" />
	</node>
	<node id="9963104703" lat="61.8940917" lon="6.5701724" version="1" timestamp="2022-08-19T05:37:04Z" changeset="125088811" uid="3497659" user="NKA">
		<tag k="historic" v="shieling" />
		<tag k="name" v="Faleidstøylen" />
		<tag k="place" v="isolated_dwelling" />
		<tag k="ssr:stedsnr" v="192038" />
	</node>
	<node id="9963104704" lat="61.8358438" lon="6.4322624" version="1" timestamp="2022-08-19T05:37:04Z" changeset="125088811" uid="3497659" user="NKA">
		<tag k="name" v="Pertun" />
		<tag k="place" v="farm" />
		<tag k="ssr:stedsnr" v="639304" />
	</node>
	<node id="9963104705" lat="61.8424222" lon="6.8116085" version="1" timestamp="2022-08-19T05:37:04Z" changeset="125088811" uid="3497659" user="NKA">
		<tag k="name" v="Muri" />
		<tag k="place" v="farm" />
		<tag k="ssr:stedsnr" v="859325" />
	</node>
	<node id="9963104706" lat="61.7438001" lon="6.7878862" version="1" timestamp="2022-08-19T05:37:04Z" changeset="125088811" uid="3497659" user="NKA">
		<tag k="name" v="Gytri" />
		<tag k="place" v="farm" />
		<tag k="ssr:stedsnr" v="70880" />
	</node>
	<node id="9963104707" lat="61.9210858" lon="6.807909" version="1" timestamp="2022-08-19T05:37:04Z" changeset="125088811" uid="3497659" user="NKA">
		<tag k="name" v="Gjørven" />
		<tag k="place" v="farm" />
		<tag k="ssr:stedsnr" v="192314" />
	</node>
	<node id="9963104708" lat="61.8378144" lon="6.8087348" version="1" timestamp="2022-08-19T05:37:04Z" changeset="125088811" uid="3497659" user="NKA">
		<tag k="name" v="Oldeleirane" />
		<tag k="place" v="quarter" />
		<tag k="ssr:stedsnr" v="1085482" />
	</node>
	<node id="9963104713" lat="61.7753735" lon="6.9688861" version="1" timestamp="2022-08-19T05:37:04Z" changeset="125088811" uid="3497659" user="NKA">
		<tag k="historic" v="shieling" />
		<tag k="loc_name" v="Utigardssætra" />
		<tag k="name" v="Utigardsetra" />
		<tag k="place" v="isolated_dwelling" />
		<tag k="ssr:stedsnr" v="639241" />
	</node>
	<node id="9963104714" lat="61.9407388" lon="6.5622251" version="1" timestamp="2022-08-19T05:37:04Z" changeset="125088811" uid="3497659" user="NKA">
		<tag k="historic" v="shieling" />
		<tag k="name" v="Høgestølen" />
		<tag k="place" v="isolated_dwelling" />
		<tag k="ssr:stedsnr" v="396204" />
	</node>
	<node id="9963104715" lat="61.7711528" lon="6.9649278" version="1" timestamp="2022-08-19T05:37:04Z" changeset="125088811" uid="3497659" user="NKA">
		<tag k="historic" v="shieling" />
		<tag k="name" v="Framsetra" />
		<tag k="place" v="isolated_dwelling" />
		<tag k="ssr:stedsnr" v="276277" />
	</node>
	<node id="9963104716" lat="61.9342028" lon="6.8419029" version="1" timestamp="2022-08-19T05:37:04Z" changeset="125088811" uid="3497659" user="NKA">
		<tag k="alt_name" v="Garli" />
		<tag k="name" v="Garlid" />
		<tag k="place" v="farm" />
		<tag k="ssr:stedsnr" v="495306" />
	</node>
	<node id="9963104717" lat="61.6882055" lon="6.794275" version="1" timestamp="2022-08-19T05:37:04Z" changeset="125088811" uid="3497659" user="NKA">
		<tag k="historic" v="shieling" />
		<tag k="name" v="Myklebustsetra" />
		<tag k="place" v="isolated_dwelling" />
		<tag k="ssr:stedsnr" v="701004" />
	</node>
	<node id="9963104718" lat="61.9322055" lon="6.5654474" version="1" timestamp="2022-08-19T05:37:04Z" changeset="125088811" uid="3497659" user="NKA">
		<tag k="name" v="Åsen" />
		<tag k="place" v="farm" />
		<tag k="ssr:stedsnr" v="253906" />
	</node>
	<node id="9963104719" lat="61.9694889" lon="7.0401861" version="1" timestamp="2022-08-19T05:37:04Z" changeset="125088811" uid="3497659" user="NKA">
		<tag k="historic" v="shieling" />
		<tag k="name" v="Nedre-Flosætra" />
		<tag k="place" v="isolated_dwelling" />
		<tag k="ssr:stedsnr" v="373387" />
	</node>
	<node id="9963104720" lat="61.8162441" lon="6.3803903" version="1" timestamp="2022-08-19T05:37:04Z" changeset="125088811" uid="3497659" user="NKA">
		<tag k="name" v="Frøyset" />
		<tag k="place" v="hamlet" />
		<tag k="ssr:stedsnr" v="495084" />
	</node>
	<node id="9963104721" lat="61.8712823" lon="6.3250201" version="1" timestamp="2022-08-19T05:37:04Z" changeset="125088811" uid="3497659" user="NKA">
		<tag k="name" v="Rand" />
		<tag k="place" v="hamlet" />
		<tag k="ssr:stedsnr" v="192066" />
	</node>
	<node id="9963104722" lat="61.863136" lon="6.3493266" version="1" timestamp="2022-08-19T05:37:04Z" changeset="125088811" uid="3497659" user="NKA">
		<tag k="name" v="Tvinnereim" />
		<tag k="place" v="hamlet" />
		<tag k="ssr:stedsnr" v="71057" />
	</node>
	<node id="9963104723" lat="61.8081322" lon="6.8229208" version="1" timestamp="2022-08-19T05:37:04Z" changeset="125088811" uid="3497659" user="NKA">
		<tag k="name" v="Solheim" />
		<tag k="place" v="farm" />
		<tag k="ssr:stedsnr" v="458083" />
	</node>
	<node id="9963104724" lat="61.9403695" lon="6.887464" version="1" timestamp="2022-08-19T05:37:04Z" changeset="125088811" uid="3497659" user="NKA">
		<tag k="name" v="Vonheim" />
		<tag k="place" v="farm" />
		<tag k="ssr:stedsnr" v="555240" />
	</node>
	<node id="9963104725" lat="61.9078861" lon="6.6841917" version="1" timestamp="2022-08-19T05:37:04Z" changeset="125088811" uid="3497659" user="NKA">
		<tag k="historic" v="shieling" />
		<tag k="name" v="Ryggen" />
		<tag k="place" v="isolated_dwelling" />
		<tag k="ssr:stedsnr" v="518440" />
	</node>
	<node id="9963104726" lat="61.8486916" lon="6.7720669" version="1" timestamp="2022-08-19T05:37:04Z" changeset="125088811" uid="3497659" user="NKA">
		<tag k="historic" v="shieling" />
		<tag k="name" v="Skarsteinssætra" />
		<tag k="place" v="isolated_dwelling" />
		<tag k="ssr:stedsnr" v="616338" />
	</node>
	<node id="9963104727" lat="61.8129472" lon="6.8350807" version="1" timestamp="2022-08-19T05:37:04Z" changeset="125088811" uid="3497659" user="NKA">
		<tag k="historic" v="shieling" />
		<tag k="loc_name" v="Meleisætra" />
		<tag k="name" v="Meleinssætra" />
		<tag k="place" v="isolated_dwelling" />
		<tag k="ssr:stedsnr" v="148629" />
	</node>
	<node id="9963104728" lat="61.9255696" lon="6.8470825" version="1" timestamp="2022-08-19T05:37:04Z" changeset="125088811" uid="3497659" user="NKA">
		<tag k="name" v="Lunde" />
		<tag k="place" v="hamlet" />
		<tag k="ssr:stedsnr" v="71312" />
	</node>
	<node id="9963104729" lat="61.702664" lon="6.817873" version="1" timestamp="2022-08-19T05:37:04Z" changeset="125088811" uid="3497659" user="NKA">
		<tag k="name" v="Kvame" />
		<tag k="place" v="hamlet" />
		<tag k="ssr:stedsnr" v="130903" />
	</node>
	<node id="9963104730" lat="61.8181379" lon="6.7142929" version="1" timestamp="2022-08-19T05:37:04Z" changeset="125088811" uid="3497659" user="NKA">
		<tag k="historic" v="shieling" />
		<tag k="name" v="Hildastøylen" />
		<tag k="place" v="isolated_dwelling" />
		<tag k="ssr:stedsnr" v="71376" />
	</node>
	<node id="9963104731" lat="61.705067" lon="6.8027209" version="1" timestamp="2022-08-19T05:37:04Z" changeset="125088811" uid="3497659" user="NKA">
		<tag k="name" v="Rustøyane" />
		<tag k="place" v="hamlet" />
		<tag k="ssr:stedsnr" v="70908" />
	</node>
	<node id="9963104732" lat="61.9008859" lon="6.6120294" version="1" timestamp="2022-08-19T05:37:04Z" changeset="125088811" uid="3497659" user="NKA">
		<tag k="name" v="Langeset" />
		<tag k="place" v="farm" />
		<tag k="ssr:stedsnr" v="738276" />
	</node>
	<node id="9963104733" lat="61.8121825" lon="6.5375831" version="1" timestamp="2022-08-19T05:37:04Z" changeset="125088811" uid="3497659" user="NKA">
		<tag k="name" v="Hammar" />
		<tag k="place" v="farm" />
		<tag k="ssr:stedsnr" v="859071" />
	</node>
	<node id="9963104734" lat="61.8409885" lon="6.6126803" version="1" timestamp="2022-08-19T05:37:04Z" changeset="125088811" uid="3497659" user="NKA">
		<tag k="name" v="Indrebø" />
		<tag k="place" v="locality" />
		<tag k="ssr:stedsnr" v="990830" />
	</node>
	<node id="9963104735" lat="61.9256084" lon="6.600078" version="1" timestamp="2022-08-19T05:37:04Z" changeset="125088811" uid="3497659" user="NKA">
		<tag k="name" v="Fen" />
		<tag k="place" v="farm" />
		<tag k="ssr:stedsnr" v="616290" />
	</node>
	<node id="9963104736" lat="61.8246389" lon="6.6219141" version="1" timestamp="2022-08-19T05:37:04Z" changeset="125088811" uid="3497659" user="NKA">
		<tag k="historic" v="shieling" />
		<tag k="name" v="Lyslostøylen" />
		<tag k="place" v="isolated_dwelling" />
		<tag k="ssr:stedsnr" v="435371" />
	</node>
	<node id="9963104737" lat="61.7661414" lon="6.8356894" version="1" timestamp="2022-08-19T05:37:04Z" changeset="125088811" uid="3497659" user="NKA">
		<tag k="name" v="Strand" />
		<tag k="place" v="hamlet" />
		<tag k="ssr:stedsnr" v="556471" />
	</node>
	<node id="9963104738" lat="61.7569087" lon="6.816361" version="1" timestamp="2022-08-19T05:37:04Z" changeset="125088811" uid="3497659" user="NKA">
		<tag k="name" v="Sunde" />
		<tag k="place" v="hamlet" />
		<tag k="ssr:stedsnr" v="556458" />
	</node>
	<node id="9963104739" lat="61.697582" lon="6.8097712" version="1" timestamp="2022-08-19T05:37:04Z" changeset="125088811" uid="3497659" user="NKA">
		<tag k="name" v="Mykløy" />
		<tag k="place" v="farm" />
		<tag k="ssr:stedsnr" v="33010" />
	</node>
	<node id="9963104740" lat="61.6802875" lon="6.8234396" version="1" timestamp="2022-08-19T05:37:04Z" changeset="125088811" uid="3497659" user="NKA">
		<tag k="historic" v="shieling" />
		<tag k="name" v="Brenndalsetra" />
		<tag k="place" v="isolated_dwelling" />
		<tag k="ssr:stedsnr" v="397140" />
	</node>
	<node id="9963104741" lat="61.8198431" lon="6.8161181" version="1" timestamp="2022-08-19T05:37:04Z" changeset="125088811" uid="3497659" user="NKA">
		<tag k="loc_name" v="Melheim" />
		<tag k="name" v="Melein" />
		<tag k="place" v="hamlet" />
		<tag k="ssr:stedsnr" v="556402" />
	</node>
	<node id="9963104742" lat="61.7849861" lon="6.5757002" version="1" timestamp="2022-08-19T05:37:04Z" changeset="125088811" uid="3497659" user="NKA">
		<tag k="historic" v="shieling" />
		<tag k="name" v="Myklebuststøylen" />
		<tag k="place" v="isolated_dwelling" />
		<tag k="ssr:stedsnr" v="556211" />
	</node>
	<node id="9963104743" lat="61.8260368" lon="6.8111379" version="1" timestamp="2022-08-19T05:37:04Z" changeset="125088811" uid="3497659" user="NKA">
		<tag k="name" v="Brynestad" />
		<tag k="place" v="hamlet" />
		<tag k="ssr:stedsnr" v="10322" />
	</node>
	<node id="9963104744" lat="61.796594" lon="6.8284777" version="1" timestamp="2022-08-19T05:37:04Z" changeset="125088811" uid="3497659" user="NKA">
		<tag k="name" v="Sandnes" />
		<tag k="place" v="farm" />
		<tag k="ssr:stedsnr" v="10308" />
	</node>
	<node id="9963104745" lat="61.8066416" lon="6.3938141" version="1" timestamp="2022-08-19T05:37:04Z" changeset="125088811" uid="3497659" user="NKA">
		<tag k="historic" v="shieling" />
		<tag k="name" v="Frøysetstøylen" />
		<tag k="place" v="isolated_dwelling" />
		<tag k="ssr:stedsnr" v="313072" />
	</node>
	<node id="9963104746" lat="61.7902472" lon="6.4426029" version="1" timestamp="2022-08-19T05:37:04Z" changeset="125088811" uid="3497659" user="NKA">
		<tag k="name" v="Hytteranten" />
		<tag k="place" v="locality" />
		<tag k="ssr:stedsnr" v="677164" />
	</node>
	<node id="9963104747" lat="61.7949194" lon="6.5663196" version="1" timestamp="2022-08-19T05:37:04Z" changeset="125088811" uid="3497659" user="NKA">
		<tag k="historic" v="shieling" />
		<tag k="name" v="Gjøljestølen" />
		<tag k="place" v="isolated_dwelling" />
		<tag k="ssr:stedsnr" v="943362" />
	</node>
	<node id="9963104748" lat="61.7887374" lon="6.500068" version="1" timestamp="2022-08-19T05:37:04Z" changeset="125088811" uid="3497659" user="NKA">
		<tag k="name" v="Karistova" />
		<tag k="place" v="isolated_dwelling" />
		<tag k="ssr:stedsnr" v="822893" />
	</node>
	<node id="9963104749" lat="61.7496638" lon="6.8298115" version="1" timestamp="2022-08-19T05:37:04Z" changeset="125088811" uid="3497659" user="NKA">
		<tag k="historic" v="shieling" />
		<tag k="name" v="Sundssetra" />
		<tag k="place" v="isolated_dwelling" />
		<tag k="ssr:stedsnr" v="276099" />
	</node>
	<node id="9963104750" lat="61.8699436" lon="6.3092163" version="1" timestamp="2022-08-19T05:37:04Z" changeset="125088811" uid="3497659" user="NKA">
		<tag k="name" v="Haugen" />
		<tag k="place" v="farm" />
		<tag k="ssr:stedsnr" v="458178" />
	</node>
	<node id="9963104751" lat="61.6861098" lon="6.8154902" version="1" timestamp="2022-08-19T05:37:04Z" changeset="125088811" uid="3497659" user="NKA">
		<tag k="name" v="Tungøy" />
		<tag k="place" v="farm" />
		<tag k="ssr:stedsnr" v="276147" />
	</node>
	<node id="9963104752" lat="61.702884" lon="6.7882401" version="1" timestamp="2022-08-19T05:37:04Z" changeset="125088811" uid="3497659" user="NKA">
		<tag k="name" v="Rustøysetra" />
		<tag k="place" v="farm" />
		<tag k="ssr:stedsnr" v="276007" />
	</node>
	<node id="9963104753" lat="61.8397945" lon="6.3902529" version="1" timestamp="2022-08-19T05:37:04Z" changeset="125088811" uid="3497659" user="NKA">
		<tag k="name" v="Galdsnausta" />
		<tag k="place" v="locality" />
		<tag k="ssr:stedsnr" v="452900" />
	</node>
	<node id="9963104754" lat="61.8785528" lon="6.3536947" version="1" timestamp="2022-08-19T05:37:04Z" changeset="125088811" uid="3497659" user="NKA">
		<tag k="historic" v="shieling" />
		<tag k="name" v="Nedrestølen" />
		<tag k="place" v="isolated_dwelling" />
		<tag k="ssr:stedsnr" v="336203" />
	</node>
	<node id="9963104755" lat="61.7009" lon="6.8350501" version="1" timestamp="2022-08-19T05:37:04Z" changeset="125088811" uid="3497659" user="NKA">
		<tag k="historic" v="shieling" />
		<tag k="name" v="Kvamssætra" />
		<tag k="place" v="isolated_dwelling" />
		<tag k="ssr:stedsnr" v="434906" />
	</node>
	<node id="9963104756" lat="61.6936117" lon="6.8153796" version="1" timestamp="2022-08-19T05:37:04Z" changeset="125088811" uid="3497659" user="NKA">
		<tag k="name" v="Åberg" />
		<tag k="place" v="farm" />
		<tag k="ssr:stedsnr" v="919915" />
	</node>
	<node id="9963104757" lat="61.6991611" lon="6.7925196" version="1" timestamp="2022-08-19T05:37:04Z" changeset="125088811" uid="3497659" user="NKA">
		<tag k="historic" v="shieling" />
		<tag k="name" v="Høgalmesetra" />
		<tag k="place" v="isolated_dwelling" />
		<tag k="ssr:stedsnr" v="701002" />
	</node>
	<node id="9963104758" lat="61.8651388" lon="6.3851919" version="1" timestamp="2022-08-19T05:37:04Z" changeset="125088811" uid="3497659" user="NKA">
		<tag k="name" v="Langeskor" />
		<tag k="place" v="locality" />
		<tag k="ssr:stedsnr" v="10063" />
	</node>
	<node id="9963104759" lat="61.8703171" lon="6.3090375" version="1" timestamp="2022-08-19T05:37:04Z" changeset="125088811" uid="3497659" user="NKA">
		<tag k="name" v="Nykvia" />
		<tag k="place" v="locality" />
		<tag k="ssr:stedsnr" v="10055" />
	</node>
	<node id="9963104760" lat="61.7239805" lon="6.7828502" version="1" timestamp="2022-08-19T05:37:04Z" changeset="125088811" uid="3497659" user="NKA">
		<tag k="historic" v="shieling" />
		<tag k="name" v="Ytre Yrisetra" />
		<tag k="place" v="isolated_dwelling" />
		<tag k="ssr:stedsnr" v="215528" />
	</node>
	<node id="9963104761" lat="61.6922028" lon="6.8024085" version="1" timestamp="2022-08-19T05:37:04Z" changeset="125088811" uid="3497659" user="NKA">
		<tag k="historic" v="shieling" />
		<tag k="name" v="Gardstølane" />
		<tag k="place" v="isolated_dwelling" />
		<tag k="ssr:stedsnr" v="579006" />
	</node>
	<node id="9963104762" lat="61.9373472" lon="6.6755779" version="1" timestamp="2022-08-19T05:37:04Z" changeset="125088811" uid="3497659" user="NKA">
		<tag k="historic" v="shieling" />
		<tag k="name" v="Karisetra" />
		<tag k="place" v="isolated_dwelling" />
		<tag k="ssr:stedsnr" v="397025" />
	</node>
	<node id="9963104763" lat="61.9014653" lon="6.7230657" version="1" timestamp="2022-08-19T05:37:04Z" changeset="125088811" uid="3497659" user="NKA">
		<tag k="name" v="Bruagrenda" />
		<tag k="place" v="hamlet" />
		<tag k="ssr:stedsnr" v="94066" />
	</node>
	<node id="9963104764" lat="61.9093804" lon="6.7295962" version="1" timestamp="2022-08-19T05:37:04Z" changeset="125088811" uid="3497659" user="NKA">
		<tag k="alt_name" v="Bø Indre" />
		<tag k="name" v="Indre Bø" />
		<tag k="place" v="farm" />
		<tag k="ssr:stedsnr" v="1085208" />
	</node>
	<node id="9963104765" lat="61.9203916" lon="6.4524918" version="1" timestamp="2022-08-19T05:37:04Z" changeset="125088811" uid="3497659" user="NKA">
		<tag k="name" v="Randasaga" />
		<tag k="place" v="locality" />
		<tag k="ssr:stedsnr" v="920973" />
	</node>
	<node id="9963104766" lat="61.8218316" lon="6.6877348" version="1" timestamp="2022-08-19T05:37:04Z" changeset="125088811" uid="3497659" user="NKA">
		<tag k="historic" v="shieling" />
		<tag k="name" v="Prestestølen" />
		<tag k="place" v="isolated_dwelling" />
		<tag k="ssr:stedsnr" v="639505" />
	</node>
	<node id="9963104767" lat="61.9074743" lon="6.6980081" version="1" timestamp="2022-08-19T05:37:04Z" changeset="125088811" uid="3497659" user="NKA">
		<tag k="name" v="Hol" />
		<tag k="place" v="neighbourhood" />
		<tag k="ssr:stedsnr" v="860354" />
	</node>
	<node id="9963104768" lat="61.9120865" lon="6.7694394" version="1" timestamp="2022-08-19T05:37:04Z" changeset="125088811" uid="3497659" user="NKA">
		<tag k="name" v="Sætre" />
		<tag k="place" v="farm" />
		<tag k="ssr:stedsnr" v="860351" />
	</node>
	<node id="9963104769" lat="61.9032556" lon="6.5616947" version="1" timestamp="2022-08-19T05:37:04Z" changeset="125088811" uid="3497659" user="NKA">
		<tag k="historic" v="shieling" />
		<tag k="name" v="Maurhaugstøylen" />
		<tag k="place" v="isolated_dwelling" />
		<tag k="ssr:stedsnr" v="799997" />
	</node>
	<node id="9963104770" lat="61.8206667" lon="6.3740718" version="1" timestamp="2022-08-19T05:37:04Z" changeset="125088811" uid="3497659" user="NKA">
		<tag k="name" v="Tisthammar" />
		<tag k="place" v="hamlet" />
		<tag k="ssr:stedsnr" v="799068" />
	</node>
	<node id="9963104771" lat="61.8126328" lon="6.4103917" version="1" timestamp="2022-08-19T05:37:04Z" changeset="125088811" uid="3497659" user="NKA">
		<tag k="name" v="Juv" />
		<tag k="place" v="hamlet" />
		<tag k="ssr:stedsnr" v="920068" />
	</node>
	<node id="9963104772" lat="61.8484861" lon="6.7227584" version="1" timestamp="2022-08-19T05:37:04Z" changeset="125088811" uid="3497659" user="NKA">
		<tag k="name" v="Hornvasshytta" />
		<tag k="place" v="isolated_dwelling" />
		<tag k="ssr:stedsnr" v="555284" />
	</node>
	<node id="9963104773" lat="61.9289277" lon="6.5746473" version="1" timestamp="2022-08-19T05:37:04Z" changeset="125088811" uid="3497659" user="NKA">
		<tag k="name" v="Arnehaugen" />
		<tag k="place" v="farm" />
		<tag k="ssr:stedsnr" v="738970" />
	</node>
	<node id="9963104774" lat="61.8144861" lon="6.3359363" version="1" timestamp="2022-08-19T05:37:04Z" changeset="125088811" uid="3497659" user="NKA">
		<tag k="historic" v="shieling" />
		<tag k="name" v="Tisthammarstøylen" />
		<tag k="place" v="isolated_dwelling" />
		<tag k="ssr:stedsnr" v="738073" />
	</node>
	<node id="9963104775" lat="61.8536194" lon="6.4570501" version="1" timestamp="2022-08-19T05:37:04Z" changeset="125088811" uid="3497659" user="NKA">
		<tag k="historic" v="shieling" />
		<tag k="name" v="Gamlestølen" />
		<tag k="place" v="isolated_dwelling" />
		<tag k="ssr:stedsnr" v="761323" />
	</node>
	<node id="9963104776" lat="61.8365648" lon="6.8077244" version="1" timestamp="2022-08-19T05:37:04Z" changeset="125088811" uid="3497659" user="NKA">
		<tag k="name" v="Flinta" />
		<tag k="place" v="locality" />
		<tag k="ssr:stedsnr" v="342848" />
	</node>
	<node id="9963104777" lat="61.8888797" lon="7.1064023" version="1" timestamp="2022-08-19T05:37:04Z" changeset="125088811" uid="3497659" user="NKA">
		<tag k="name" v="Rygg" />
		<tag k="place" v="farm" />
		<tag k="ssr:stedsnr" v="71502" />
	</node>
	<node id="9963104778" lat="61.9322882" lon="6.8845644" version="1" timestamp="2022-08-19T05:37:04Z" changeset="125088811" uid="3497659" user="NKA">
		<tag k="name" v="Mindresunde" />
		<tag k="place" v="farm" />
		<tag k="ssr:stedsnr" v="616298" />
	</node>
	<node id="9963104779" lat="61.8026555" lon="6.5681779" version="1" timestamp="2022-08-19T05:37:04Z" changeset="125088811" uid="3497659" user="NKA">
		<tag k="historic" v="shieling" />
		<tag k="name" v="Kårstadstøylen" />
		<tag k="place" v="isolated_dwelling" />
		<tag k="ssr:stedsnr" v="738168" />
	</node>
	<node id="9963104780" lat="61.899656" lon="7.2393372" version="1" timestamp="2022-08-19T05:37:04Z" changeset="125088811" uid="3497659" user="NKA">
		<tag k="historic" v="shieling" />
		<tag k="name" v="Sunndalen" />
		<tag k="place" v="isolated_dwelling" />
		<tag k="ssr:stedsnr" v="71507" />
	</node>
	<node id="9963104781" lat="61.8183316" lon="6.37742" version="1" timestamp="2022-08-19T05:37:04Z" changeset="125088811" uid="3497659" user="NKA">
		<tag k="name" v="Utigard" />
		<tag k="place" v="farm" />
		<tag k="ssr:stedsnr" v="700159" />
	</node>
	<node id="9963104782" lat="61.8706834" lon="7.1283202" version="1" timestamp="2022-08-19T05:37:04Z" changeset="125088811" uid="3497659" user="NKA">
		<tag k="name" v="Greidung" />
		<tag k="place" v="hamlet" />
		<tag k="ssr:stedsnr" v="10455" />
	</node>
	<node id="9963104783" lat="61.9048194" lon="6.8315584" version="1" timestamp="2022-08-19T05:37:04Z" changeset="125088811" uid="3497659" user="NKA">
		<tag k="historic" v="shieling" />
		<tag k="name" v="Lundasætra" />
		<tag k="place" v="isolated_dwelling" />
		<tag k="ssr:stedsnr" v="617307" />
	</node>
	<node id="9963104784" lat="61.8842111" lon="6.3200752" version="1" timestamp="2022-08-19T05:37:04Z" changeset="125088811" uid="3497659" user="NKA">
		<tag k="historic" v="shieling" />
		<tag k="name" v="Ålandsstøylen" />
		<tag k="place" v="isolated_dwelling" />
		<tag k="ssr:stedsnr" v="677979" />
	</node>
	<node id="9963104785" lat="61.9373565" lon="6.9054222" version="1" timestamp="2022-08-19T05:37:04Z" changeset="125088811" uid="3497659" user="NKA">
		<tag k="name" v="Eikenes" />
		<tag k="place" v="farm" />
		<tag k="ssr:stedsnr" v="276403" />
	</node>
	<node id="9963104786" lat="61.8356722" lon="6.4387946" version="1" timestamp="2022-08-19T05:37:04Z" changeset="125088811" uid="3497659" user="NKA">
		<tag k="name" v="Løfteng" />
		<tag k="place" v="farm" />
		<tag k="ssr:stedsnr" v="677120" />
	</node>
	<node id="9963104787" lat="61.8491495" lon="6.372819" version="1" timestamp="2022-08-19T05:37:04Z" changeset="125088811" uid="3497659" user="NKA">
		<tag k="name" v="Nos" />
		<tag k="place" v="hamlet" />
		<tag k="ssr:stedsnr" v="678034" />
	</node>
	<node id="9963104788" lat="61.9491845" lon="6.9418598" version="1" timestamp="2022-08-19T05:37:04Z" changeset="125088811" uid="3497659" user="NKA">
		<tag k="name" v="Fure" />
		<tag k="place" v="hamlet" />
		<tag k="ssr:stedsnr" v="131196" />
	</node>
	<node id="9963104789" lat="61.8230979" lon="6.3673804" version="1" timestamp="2022-08-19T05:37:04Z" changeset="125088811" uid="3497659" user="NKA">
		<tag k="name" v="Tistam" />
		<tag k="place" v="hamlet" />
		<tag k="ssr:stedsnr" v="510228" />
	</node>
	<node id="9963104790" lat="61.9078389" lon="6.5184557" version="1" timestamp="2022-08-19T05:37:04Z" changeset="125088811" uid="3497659" user="NKA">
		<tag k="name" v="Florehytta" />
		<tag k="place" v="isolated_dwelling" />
		<tag k="ssr:stedsnr" v="495998" />
	</node>
	<node id="9963104791" lat="61.7808361" lon="6.9747251" version="1" timestamp="2022-08-19T05:37:04Z" changeset="125088811" uid="3497659" user="NKA">
		<tag k="historic" v="shieling" />
		<tag k="name" v="Bakkesetra" />
		<tag k="place" v="isolated_dwelling" />
		<tag k="ssr:stedsnr" v="943235" />
	</node>
	<node id="9963104792" lat="61.9200333" lon="6.4827974" version="1" timestamp="2022-08-19T05:37:04Z" changeset="125088811" uid="3497659" user="NKA">
		<tag k="historic" v="shieling" />
		<tag k="name" v="Jutdalssætra" />
		<tag k="place" v="isolated_dwelling" />
		<tag k="ssr:stedsnr" v="495966" />
	</node>
	<node id="9963104793" lat="61.9214944" lon="6.9178613" version="1" timestamp="2022-08-19T05:37:04Z" changeset="125088811" uid="3497659" user="NKA">
		<tag k="historic" v="shieling" />
		<tag k="name" v="Dispasetra" />
		<tag k="place" v="isolated_dwelling" />
		<tag k="ssr:stedsnr" v="944385" />
	</node>
	<node id="9963104794" lat="61.8450999" lon="6.4623724" version="1" timestamp="2022-08-19T05:37:04Z" changeset="125088811" uid="3497659" user="NKA">
		<tag k="name" v="Heiberg" />
		<tag k="place" v="farm" />
		<tag k="ssr:stedsnr" v="495128" />
	</node>
	<node id="9963104795" lat="61.860716" lon="6.880828" version="1" timestamp="2022-08-19T05:37:04Z" changeset="125088811" uid="3497659" user="NKA">
		<tag k="name" v="Sæten" />
		<tag k="place" v="hamlet" />
		<tag k="ssr:stedsnr" v="192378" />
	</node>
	<node id="9963104796" lat="61.8739161" lon="6.3202712" version="1" timestamp="2022-08-19T05:37:04Z" changeset="125088811" uid="3497659" user="NKA">
		<tag k="name" v="Åland" />
		<tag k="place" v="hamlet" />
		<tag k="ssr:stedsnr" v="435056" />
	</node>
	<node id="9963104797" lat="61.8393417" lon="6.4036364" version="1" timestamp="2022-08-19T05:37:04Z" changeset="125088811" uid="3497659" user="NKA">
		<tag k="name" v="Rosenlid" />
		<tag k="place" v="farm" />
		<tag k="ssr:stedsnr" v="495117" />
	</node>
	<node id="9963104798" lat="61.845587" lon="6.3865539" version="1" timestamp="2022-08-19T05:37:04Z" changeset="125088811" uid="3497659" user="NKA">
		<tag k="name" v="Gald" />
		<tag k="place" v="farm" />
		<tag k="ssr:stedsnr" v="435132" />
	</node>
	<node id="9963104799" lat="61.8731972" lon="6.275278" version="1" timestamp="2022-08-19T05:37:04Z" changeset="125088811" uid="3497659" user="NKA">
		<tag k="historic" v="shieling" />
		<tag k="name" v="Utitunsstøylen" />
		<tag k="place" v="isolated_dwelling" />
		<tag k="ssr:stedsnr" v="435050" />
	</node>
	<node id="9963104800" lat="61.8061528" lon="6.4357557" version="1" timestamp="2022-08-19T05:37:04Z" changeset="125088811" uid="3497659" user="NKA">
		<tag k="name" v="Svorane" />
		<tag k="place" v="locality" />
		<tag k="ssr:stedsnr" v="435113" />
	</node>
	<node id="9963104801" lat="61.8105972" lon="6.4282779" version="1" timestamp="2022-08-19T05:37:04Z" changeset="125088811" uid="3497659" user="NKA">
		<tag k="name" v="Kristisonen" />
		<tag k="place" v="farm" />
		<tag k="ssr:stedsnr" v="435090" />
	</node>
	<node id="9963104802" lat="61.8346306" lon="6.4020918" version="1" timestamp="2022-08-19T05:37:04Z" changeset="125088811" uid="3497659" user="NKA">
		<tag k="name" v="Kårstadnausta" />
		<tag k="place" v="locality" />
		<tag k="ssr:stedsnr" v="392916" />
	</node>
	<node id="9963104803" lat="61.7993667" lon="6.4358223" version="1" timestamp="2022-08-19T05:37:04Z" changeset="125088811" uid="3497659" user="NKA">
		<tag k="historic" v="shieling" />
		<tag k="name" v="Brulandsstøylen" />
		<tag k="place" v="isolated_dwelling" />
		<tag k="ssr:stedsnr" v="313103" />
	</node>
	<node id="9963104804" lat="61.8418139" lon="6.9425695" version="1" timestamp="2022-08-19T05:37:04Z" changeset="125088811" uid="3497659" user="NKA">
		<tag k="historic" v="shieling" />
		<tag k="name" v="Breng" />
		<tag k="place" v="isolated_dwelling" />
		<tag k="ssr:stedsnr" v="860403" />
	</node>
	<node id="9963104805" lat="61.9451538" lon="6.9413268" version="1" timestamp="2022-08-19T05:37:04Z" changeset="125088811" uid="3497659" user="NKA">
		<tag k="name" v="Veslebygda" />
		<tag k="place" v="hamlet" />
		<tag k="ssr:stedsnr" v="860244" />
	</node>
	<node id="9963104806" lat="61.8648453" lon="6.3309231" version="1" timestamp="2022-08-19T05:37:04Z" changeset="125088811" uid="3497659" user="NKA">
		<tag k="name" v="Skrede" />
		<tag k="place" v="farm" />
		<tag k="ssr:stedsnr" v="374069" />
	</node>
	<node id="9963104807" lat="61.9655466" lon="7.2500852" version="1" timestamp="2022-08-19T05:37:04Z" changeset="125088811" uid="3497659" user="NKA">
		<tag k="historic" v="shieling" />
		<tag k="name" v="Skjerdingsdalssætra" />
		<tag k="place" v="isolated_dwelling" />
		<tag k="ssr:stedsnr" v="738383" />
	</node>
	<node id="9963104808" lat="61.9477611" lon="7.0290002" version="1" timestamp="2022-08-19T05:37:04Z" changeset="125088811" uid="3497659" user="NKA">
		<tag k="name" v="Nedre Flo" />
		<tag k="place" v="farm" />
		<tag k="ssr:stedsnr" v="639193" />
	</node>
	<node id="9963104809" lat="61.82315" lon="6.9809306" version="1" timestamp="2022-08-19T05:37:04Z" changeset="125088811" uid="3497659" user="NKA">
		<tag k="historic" v="shieling" />
		<tag k="name" v="Gardsstølane" />
		<tag k="place" v="isolated_dwelling" />
		<tag k="ssr:stedsnr" v="458352" />
	</node>
	<node id="9963104810" lat="61.8690006" lon="6.7012426" version="1" timestamp="2022-08-19T05:37:04Z" changeset="125088811" uid="3497659" user="NKA">
		<tag k="name" v="Agjeld" />
		<tag k="place" v="farm" />
		<tag k="ssr:stedsnr" v="920339" />
	</node>
	<node id="9963104811" lat="61.8439972" lon="6.4683248" version="1" timestamp="2022-08-19T05:37:04Z" changeset="125088811" uid="3497659" user="NKA">
		<tag k="name" v="Bergset" />
		<tag k="place" v="hamlet" />
		<tag k="ssr:stedsnr" v="374119" />
	</node>
	<node id="9963104812" lat="61.9368246" lon="6.9792438" version="1" timestamp="2022-08-19T05:37:04Z" changeset="125088811" uid="3497659" user="NKA">
		<tag k="name" v="Årnes" />
		<tag k="place" v="farm" />
		<tag k="ssr:stedsnr" v="555316" />
	</node>
	<node id="9963104813" lat="61.8701083" lon="6.3856363" version="1" timestamp="2022-08-19T05:37:04Z" changeset="125088811" uid="3497659" user="NKA">
		<tag k="historic" v="shieling" />
		<tag k="name" v="Tvinnereimstølen" />
		<tag k="place" v="isolated_dwelling" />
		<tag k="ssr:stedsnr" v="94299" />
	</node>
	<node id="9963104814" lat="61.8691832" lon="6.8806786" version="1" timestamp="2022-08-19T05:37:04Z" changeset="125088811" uid="3497659" user="NKA">
		<tag k="name" v="Tyva" />
		<tag k="place" v="hamlet" />
		<tag k="ssr:stedsnr" v="373362" />
	</node>
	<node id="9963104815" lat="61.8419972" lon="6.5279863" version="1" timestamp="2022-08-19T05:37:04Z" changeset="125088811" uid="3497659" user="NKA">
		<tag k="name" v="Ulvedalsnausta" />
		<tag k="place" v="locality" />
		<tag k="ssr:stedsnr" v="215297" />
	</node>
	<node id="9963104816" lat="61.8945535" lon="6.6821744" version="1" timestamp="2022-08-19T05:37:04Z" changeset="125088811" uid="3497659" user="NKA">
		<tag k="name" v="Vinsrygg" />
		<tag k="place" v="farm" />
		<tag k="ssr:stedsnr" v="678294" />
	</node>
	<node id="9963104817" lat="61.8523186" lon="6.8150228" version="1" timestamp="2022-08-19T05:37:04Z" changeset="125088811" uid="3497659" user="NKA">
		<tag k="name" v="Avleinausta" />
		<tag k="place" v="locality" />
		<tag k="ssr:stedsnr" v="761175" />
	</node>
	<node id="9963104818" lat="61.8679166" lon="6.718914" version="1" timestamp="2022-08-19T05:37:04Z" changeset="125088811" uid="3497659" user="NKA">
		<tag k="name" v="Agjeldnausta" />
		<tag k="place" v="locality" />
		<tag k="ssr:stedsnr" v="700476" />
	</node>
	<node id="9963104819" lat="61.8376305" lon="6.4005891" version="1" timestamp="2022-08-19T05:37:04Z" changeset="125088811" uid="3497659" user="NKA">
		<tag k="name" v="Skora" />
		<tag k="place" v="farm" />
		<tag k="ssr:stedsnr" v="192104" />
	</node>
	<node id="9963104820" lat="61.8560306" lon="6.7516112" version="1" timestamp="2022-08-19T05:37:04Z" changeset="125088811" uid="3497659" user="NKA">
		<tag k="historic" v="shieling" />
		<tag k="name" v="Vangbergssætra" />
		<tag k="place" v="isolated_dwelling" />
		<tag k="ssr:stedsnr" v="639490" />
	</node>
	<node id="9963104821" lat="61.7376861" lon="6.7762418" version="1" timestamp="2022-08-19T05:37:04Z" changeset="125088811" uid="3497659" user="NKA">
		<tag k="historic" v="shieling" />
		<tag k="name" v="Gytrisetra" />
		<tag k="place" v="locality" />
		<tag k="ssr:stedsnr" v="579551" />
	</node>
	<node id="9963104822" lat="61.8757805" lon="6.4899279" version="1" timestamp="2022-08-19T05:37:04Z" changeset="125088811" uid="3497659" user="NKA">
		<tag k="historic" v="shieling" />
		<tag k="name" v="Smørdalen" />
		<tag k="place" v="isolated_dwelling" />
		<tag k="ssr:stedsnr" v="452902" />
	</node>
	<node id="9963104823" lat="61.8481336" lon="6.5272826" version="1" timestamp="2022-08-19T05:37:04Z" changeset="125088811" uid="3497659" user="NKA">
		<tag k="name" v="Solvang" />
		<tag k="place" v="farm" />
		<tag k="ssr:stedsnr" v="920032" />
	</node>
	<node id="9963104824" lat="61.8479417" lon="6.7626223" version="1" timestamp="2022-08-19T05:37:04Z" changeset="125088811" uid="3497659" user="NKA">
		<tag k="historic" v="shieling" />
		<tag k="name" v="Øvstesetra" />
		<tag k="place" v="isolated_dwelling" />
		<tag k="ssr:stedsnr" v="639498" />
	</node>
	<node id="9963104825" lat="61.9436741" lon="6.9297617" version="1" timestamp="2022-08-19T05:37:04Z" changeset="125088811" uid="3497659" user="NKA">
		<tag k="name" v="Ljåstad" />
		<tag k="place" v="farm" />
		<tag k="ssr:stedsnr" v="10284" />
	</node>
	<node id="9963104826" lat="61.8720688" lon="6.6273546" version="1" timestamp="2022-08-19T05:37:04Z" changeset="125088811" uid="3497659" user="NKA">
		<tag k="name" v="Frøholm" />
		<tag k="old_name" v="Freholme" />
		<tag k="place" v="hamlet" />
		<tag k="ssr:stedsnr" v="738267" />
	</node>
	<node id="9963104827" lat="61.8226444" lon="6.597589" version="1" timestamp="2022-08-19T05:37:04Z" changeset="125088811" uid="3497659" user="NKA">
		<tag k="historic" v="shieling" />
		<tag k="name" v="Heggdalsstøylen" />
		<tag k="place" v="isolated_dwelling" />
		<tag k="ssr:stedsnr" v="920328" />
	</node>
	<node id="9963104828" lat="61.8634862" lon="6.5244971" version="1" timestamp="2022-08-19T05:37:04Z" changeset="125088811" uid="3497659" user="NKA">
		<tag k="name" v="Nytun" />
		<tag k="place" v="farm" />
		<tag k="ssr:stedsnr" v="920020" />
	</node>
	<node id="9963104829" lat="61.9117555" lon="7.1831473" version="1" timestamp="2022-08-19T05:37:04Z" changeset="125088811" uid="3497659" user="NKA">
		<tag k="name" v="Åsefjøsane" />
		<tag k="place" v="locality" />
		<tag k="ssr:stedsnr" v="761450" />
	</node>
	<node id="9963104830" lat="61.8887831" lon="6.560332" version="1" timestamp="2022-08-19T05:37:04Z" changeset="125088811" uid="3497659" user="NKA">
		<tag k="name" v="Haugen" />
		<tag k="place" v="farm" />
		<tag k="ssr:stedsnr" v="738033" />
	</node>
	<node id="9963104831" lat="61.9188882" lon="6.5531358" version="1" timestamp="2022-08-19T05:37:04Z" changeset="125088811" uid="3497659" user="NKA">
		<tag k="name" v="Haugen" />
		<tag k="place" v="farm" />
		<tag k="ssr:stedsnr" v="920955" />
	</node>
	<node id="9963104832" lat="61.8115917" lon="6.7936446" version="1" timestamp="2022-08-19T05:37:04Z" changeset="125088811" uid="3497659" user="NKA">
		<tag k="historic" v="shieling" />
		<tag k="name" v="Laukisætra" />
		<tag k="place" v="isolated_dwelling" />
		<tag k="ssr:stedsnr" v="677288" />
	</node>
	<node id="9963104833" lat="61.94035" lon="6.5872168" version="1" timestamp="2022-08-19T05:37:04Z" changeset="125088811" uid="3497659" user="NKA">
		<tag k="historic" v="shieling" />
		<tag k="name" v="Maursetsætra" />
		<tag k="place" v="isolated_dwelling" />
		<tag k="ssr:stedsnr" v="616940" />
	</node>
	<node id="9963104834" lat="61.9483084" lon="7.0218556" version="1" timestamp="2022-08-19T05:37:04Z" changeset="125088811" uid="3497659" user="NKA">
		<tag k="name" v="Holen" />
		<tag k="place" v="farm" />
		<tag k="ssr:stedsnr" v="701328" />
	</node>
	<node id="9963104835" lat="61.9079139" lon="6.5824058" version="1" timestamp="2022-08-19T05:37:04Z" changeset="125088811" uid="3497659" user="NKA">
		<tag k="name" v="Skogtun" />
		<tag k="place" v="farm" />
		<tag k="ssr:stedsnr" v="617997" />
	</node>
	<node id="9963104836" lat="61.9204276" lon="7.023679" version="1" timestamp="2022-08-19T05:37:04Z" changeset="125088811" uid="3497659" user="NKA">
		<tag k="name" v="Nesje" />
		<tag k="place" v="hamlet" />
		<tag k="ssr:stedsnr" v="616486" />
	</node>
	<node id="9963104837" lat="61.835484" lon="6.5844033" version="1" timestamp="2022-08-19T05:37:04Z" changeset="125088811" uid="3497659" user="NKA">
		<tag k="name" v="Skogstad" />
		<tag k="place" v="farm" />
		<tag k="ssr:stedsnr" v="677126" />
	</node>
	<node id="9963104838" lat="61.8333374" lon="6.5920986" version="1" timestamp="2022-08-19T05:37:04Z" changeset="125088811" uid="3497659" user="NKA">
		<tag k="alt_name" v="Li" />
		<tag k="name" v="Lid" />
		<tag k="place" v="farm" />
		<tag k="ssr:stedsnr" v="677127" />
	</node>
	<node id="9963104839" lat="61.8658056" lon="6.7340251" version="1" timestamp="2022-08-19T05:37:04Z" changeset="125088811" uid="3497659" user="NKA">
		<tag k="name" v="Ugla" />
		<tag k="place" v="farm" />
		<tag k="ssr:stedsnr" v="677339" />
	</node>
	<node id="9963104840" lat="61.8031719" lon="6.5346877" version="1" timestamp="2022-08-19T05:37:04Z" changeset="125088811" uid="3497659" user="NKA">
		<tag k="name" v="Myklebust" />
		<tag k="place" v="hamlet" />
		<tag k="ssr:stedsnr" v="616074" />
	</node>
	<node id="9963104841" lat="61.8092444" lon="7.0852306" version="1" timestamp="2022-08-19T05:37:04Z" changeset="125088811" uid="3497659" user="NKA">
		<tag k="alt_name" v="Bødalseter" />
		<tag k="name" v="Bødalsseter" />
		<tag k="place" v="isolated_dwelling" />
		<tag k="ssr:stedsnr" v="511084" />
	</node>
	<node id="9963104842" lat="61.9321038" lon="6.688081" version="1" timestamp="2022-08-19T05:37:04Z" changeset="125088811" uid="3497659" user="NKA">
		<tag k="historic" v="shieling" />
		<tag k="name" v="Bøasætra" />
		<tag k="place" v="hamlet" />
		<tag k="ssr:stedsnr" v="677276" />
	</node>
	<node id="9963104843" lat="61.8347777" lon="6.8046891" version="1" timestamp="2022-08-19T05:37:04Z" changeset="125088811" uid="3497659" user="NKA">
		<tag k="alt_name" v="Oldøyra" />
		<tag k="name" v="Øyra" />
		<tag k="place" v="hamlet" />
		<tag k="ssr:stedsnr" v="579521" />
	</node>
	<node id="9963104844" lat="61.8968805" lon="6.6341223" version="1" timestamp="2022-08-19T05:37:04Z" changeset="125088811" uid="3497659" user="NKA">
		<tag k="historic" v="shieling" />
		<tag k="name" v="Gamlesetra" />
		<tag k="place" v="isolated_dwelling" />
		<tag k="ssr:stedsnr" v="579427" />
	</node>
	<node id="9963104845" lat="61.6616695" lon="6.8440724" version="1" timestamp="2022-08-19T05:37:04Z" changeset="125088811" uid="3497659" user="NKA">
		<tag k="historic" v="shieling" />
		<tag k="name" v="Briksdalssetra" />
		<tag k="place" v="locality" />
		<tag k="ssr:stedsnr" v="518123" />
	</node>
	<node id="9963104846" lat="61.9183071" lon="7.1771383" version="1" timestamp="2022-08-19T05:37:04Z" changeset="125088811" uid="3497659" user="NKA">
		<tag k="name" v="Folva" />
		<tag k="place" v="hamlet" />
		<tag k="ssr:stedsnr" v="10476" />
	</node>
	<node id="9963104847" lat="61.8010049" lon="6.5233133" version="1" timestamp="2022-08-19T05:37:04Z" changeset="125088811" uid="3497659" user="NKA">
		<tag k="name" v="Verlo" />
		<tag k="place" v="hamlet" />
		<tag k="ssr:stedsnr" v="556097" />
	</node>
	<node id="9963104848" lat="61.8139048" lon="6.8082218" version="1" timestamp="2022-08-19T05:37:04Z" changeset="125088811" uid="3497659" user="NKA">
		<tag k="name" v="Lauki" />
		<tag k="place" v="hamlet" />
		<tag k="ssr:stedsnr" v="556383" />
	</node>
	<node id="9963104849" lat="61.9366722" lon="6.6455918" version="1" timestamp="2022-08-19T05:37:04Z" changeset="125088811" uid="3497659" user="NKA">
		<tag k="alt_name" v="Holesetra" />
		<tag k="historic" v="shieling" />
		<tag k="name" v="Holesætra" />
		<tag k="place" v="isolated_dwelling" />
		<tag k="ssr:stedsnr" v="495218" />
	</node>
	<node id="9963104850" lat="61.6648889" lon="6.7814029" version="1" timestamp="2022-08-19T05:37:04Z" changeset="125088811" uid="3497659" user="NKA">
		<tag k="name" v="Jarbu" />
		<tag k="place" v="isolated_dwelling" />
		<tag k="ssr:stedsnr" v="494926" />
	</node>
	<node id="9963104851" lat="61.9189288" lon="7.0916154" version="1" timestamp="2022-08-19T05:37:04Z" changeset="125088811" uid="3497659" user="NKA">
		<tag k="name" v="Glomnes" />
		<tag k="place" v="hamlet" />
		<tag k="ssr:stedsnr" v="71523" />
	</node>
	<node id="9963104852" lat="61.8702638" lon="6.6485283" version="1" timestamp="2022-08-19T05:37:04Z" changeset="125088811" uid="3497659" user="NKA">
		<tag k="historic" v="shieling" />
		<tag k="name" v="Frøholmsstøylen" />
		<tag k="place" v="isolated_dwelling" />
		<tag k="ssr:stedsnr" v="495264" />
	</node>
	<node id="9963104853" lat="61.8911147" lon="6.5870121" version="1" timestamp="2022-08-19T05:37:04Z" changeset="125088811" uid="3497659" user="NKA">
		<tag k="name" v="Sætra" />
		<tag k="place" v="hamlet" />
		<tag k="ssr:stedsnr" v="799029" />
	</node>
	<node id="9963104854" lat="61.8490514" lon="6.8143136" version="1" timestamp="2022-08-19T05:37:04Z" changeset="125088811" uid="3497659" user="NKA">
		<tag k="name" v="Flata" />
		<tag k="place" v="quarter" />
		<tag k="ssr:stedsnr" v="458165" />
	</node>
	<node id="9963104855" lat="61.8559649" lon="6.5302601" version="1" timestamp="2022-08-19T05:37:04Z" changeset="125088811" uid="3497659" user="NKA">
		<tag k="name" v="Øyestad" />
		<tag k="place" v="farm" />
		<tag k="ssr:stedsnr" v="495038" />
	</node>
	<node id="9963104856" lat="61.9421444" lon="6.5551419" version="1" timestamp="2022-08-19T05:37:04Z" changeset="125088811" uid="3497659" user="NKA">
		<tag k="historic" v="shieling" />
		<tag k="name" v="Øyesætra" />
		<tag k="place" v="isolated_dwelling" />
		<tag k="ssr:stedsnr" v="435947" />
	</node>
	<node id="9963104857" lat="61.9074083" lon="6.8157863" version="1" timestamp="2022-08-19T05:37:04Z" changeset="125088811" uid="3497659" user="NKA">
		<tag k="name" v="Kviesetra" />
		<tag k="place" v="farm" />
		<tag k="ssr:stedsnr" v="397163" />
	</node>
	<node id="9963104858" lat="61.8606639" lon="6.5064197" version="1" timestamp="2022-08-19T05:37:04Z" changeset="125088811" uid="3497659" user="NKA">
		<tag k="historic" v="shieling" />
		<tag k="name" v="Øyestadstøylen" />
		<tag k="place" v="isolated_dwelling" />
		<tag k="ssr:stedsnr" v="738019" />
	</node>
	<node id="9963104859" lat="61.891348" lon="6.6792609" version="1" timestamp="2022-08-19T05:37:04Z" changeset="125088811" uid="3497659" user="NKA">
		<tag k="name" v="Nedreberg" />
		<tag k="place" v="farm" />
		<tag k="ssr:stedsnr" v="556342" />
	</node>
	<node id="9963104860" lat="61.8096295" lon="6.5332682" version="1" timestamp="2022-08-19T05:37:04Z" changeset="125088811" uid="3497659" user="NKA">
		<tag k="name" v="Kårstad" />
		<tag k="place" v="hamlet" />
		<tag k="ssr:stedsnr" v="374091" />
	</node>
	<node id="9963104861" lat="61.9401222" lon="6.6025251" version="1" timestamp="2022-08-19T05:37:04Z" changeset="125088811" uid="3497659" user="NKA">
		<tag k="historic" v="shieling" />
		<tag k="loc_name" v="Grendasetra" />
		<tag k="name" v="Grendalssætra" />
		<tag k="place" v="isolated_dwelling" />
		<tag k="ssr:stedsnr" v="313212" />
	</node>
	<node id="9963104862" lat="61.8255028" lon="6.6755029" version="1" timestamp="2022-08-19T05:37:04Z" changeset="125088811" uid="3497659" user="NKA">
		<tag k="alt_name" v="Skådistølen" />
		<tag k="historic" v="shieling" />
		<tag k="name" v="Skådistøylen" />
		<tag k="place" v="isolated_dwelling" />
		<tag k="ssr:stedsnr" v="374360" />
	</node>
	<node id="9963104863" lat="61.8800397" lon="6.7474921" version="1" timestamp="2022-08-19T05:37:04Z" changeset="125088811" uid="3497659" user="NKA">
		<tag k="alt_name" v="Stranda" />
		<tag k="name" v="Strand" />
		<tag k="place" v="farm" />
		<tag k="ssr:stedsnr" v="314286" />
	</node>
	<node id="9963104864" lat="61.8437335" lon="6.6221529" version="1" timestamp="2022-08-19T05:37:04Z" changeset="125088811" uid="3497659" user="NKA">
		<tag k="name" v="Einebakk" />
		<tag k="place" v="farm" />
		<tag k="ssr:stedsnr" v="94400" />
	</node>
	<node id="9963104865" lat="61.8272083" lon="6.6797418" version="1" timestamp="2022-08-19T05:37:04Z" changeset="125088811" uid="3497659" user="NKA">
		<tag k="alt_name" v="Dragesetstølen" />
		<tag k="historic" v="shieling" />
		<tag k="name" v="Dragesetstøylen" />
		<tag k="place" v="isolated_dwelling" />
		<tag k="ssr:stedsnr" v="131316" />
	</node>
	<node id="9963104866" lat="61.8852723" lon="6.7755917" version="1" timestamp="2022-08-19T05:37:04Z" changeset="125088811" uid="3497659" user="NKA">
		<tag k="alt_name" v="Rakesetra" />
		<tag k="historic" v="shieling" />
		<tag k="name" v="Raksætra" />
		<tag k="place" v="isolated_dwelling" />
		<tag k="ssr:stedsnr" v="131246" />
	</node>
	<node id="9963104867" lat="61.8728086" lon="6.858018" version="1" timestamp="2022-08-19T05:37:04Z" changeset="125088811" uid="3497659" user="NKA">
		<tag k="name" v="Loen" />
		<tag k="place" v="farm" />
		<tag k="ssr:stedsnr" v="977960" />
	</node>
	<node id="9963104868" lat="61.7860279" lon="6.9831661" version="1" timestamp="2022-08-19T05:37:04Z" changeset="125088811" uid="3497659" user="NKA">
		<tag k="loc_name" v="Utigard;Utigarden" />
		<tag k="name" v="Ytre Nesdal" />
		<tag k="place" v="farm" />
		<tag k="ssr:stedsnr" v="972226" />
	</node>
	<node id="9963104869" lat="61.8479167" lon="6.4301695" version="1" timestamp="2022-08-19T05:37:04Z" changeset="125088811" uid="3497659" user="NKA">
		<tag k="historic" v="shieling" />
		<tag k="name" v="Ytre Sølvbergsstøylen" />
		<tag k="place" v="isolated_dwelling" />
		<tag k="ssr:stedsnr" v="435032" />
	</node>
	<node id="9963104870" lat="61.8424111" lon="6.6605001" version="1" timestamp="2022-08-19T05:37:04Z" changeset="125088811" uid="3497659" user="NKA">
		<tag k="historic" v="shieling" />
		<tag k="name" v="Remestøylen" />
		<tag k="place" v="isolated_dwelling" />
		<tag k="ssr:stedsnr" v="71386" />
	</node>
	<node id="9963104871" lat="61.9322271" lon="6.9986483" version="1" timestamp="2022-08-19T05:37:04Z" changeset="125088811" uid="3497659" user="NKA">
		<tag k="name" v="Tunål" />
		<tag k="place" v="farm" />
		<tag k="ssr:stedsnr" v="920352" />
	</node>
	<node id="9963104872" lat="61.9114997" lon="6.714775" version="1" timestamp="2022-08-19T05:37:04Z" changeset="125088811" uid="3497659" user="NKA">
		<tag k="name" v="Hogane" />
		<tag k="place" v="neighbourhood" />
		<tag k="ssr:stedsnr" v="1084068" />
	</node>
	<node id="9963104873" lat="61.7570312" lon="6.8077141" version="1" timestamp="2022-08-19T05:37:04Z" changeset="125088811" uid="3497659" user="NKA">
		<tag k="name" v="Floten" />
		<tag k="place" v="farm" />
		<tag k="ssr:stedsnr" v="738419" />
	</node>
	<node id="9963104874" lat="61.8893149" lon="6.4819737" version="1" timestamp="2022-08-19T05:37:04Z" changeset="125088811" uid="3497659" user="NKA">
		<tag k="historic" v="shieling" />
		<tag k="name" v="Raudfjell" />
		<tag k="place" v="hamlet" />
		<tag k="ssr:stedsnr" v="920981" />
	</node>
	<node id="9963104875" lat="61.9357194" lon="6.9611223" version="1" timestamp="2022-08-19T05:37:04Z" changeset="125088811" uid="3497659" user="NKA">
		<tag k="name" v="Holmevik" />
		<tag k="place" v="farm" />
		<tag k="ssr:stedsnr" v="822394" />
	</node>
	<node id="9963104876" lat="61.9181995" lon="6.7758443" version="1" timestamp="2022-08-19T05:37:04Z" changeset="125088811" uid="3497659" user="NKA">
		<tag k="name" v="Ytreeide" />
		<tag k="place" v="farm" />
		<tag k="ssr:stedsnr" v="799306" />
	</node>
	<node id="9963104877" lat="61.9048926" lon="6.6999519" version="1" timestamp="2022-08-19T05:37:04Z" changeset="125088811" uid="3497659" user="NKA">
		<tag k="name" v="Vik" />
		<tag k="place" v="neighbourhood" />
		<tag k="ssr:stedsnr" v="556334" />
	</node>
	<node id="9963104878" lat="61.86815" lon="6.3919335" version="1" timestamp="2022-08-19T05:37:04Z" changeset="125088811" uid="3497659" user="NKA">
		<tag k="alt_name" v="Øvsteladene" />
		<tag k="name" v="Øvsteløene" />
		<tag k="place" v="locality" />
		<tag k="ssr:stedsnr" v="799050" />
	</node>
	<node id="9963104879" lat="61.8390052" lon="6.6381171" version="1" timestamp="2022-08-19T05:37:04Z" changeset="125088811" uid="3497659" user="NKA">
		<tag k="name" v="Drageset" />
		<tag k="place" v="hamlet" />
		<tag k="ssr:stedsnr" v="799363" />
	</node>
	<node id="9963104880" lat="61.8316194" lon="6.8139362" version="1" timestamp="2022-08-19T05:37:04Z" changeset="125088811" uid="3497659" user="NKA">
		<tag k="name" v="Dalheim" />
		<tag k="place" v="farm" />
		<tag k="ssr:stedsnr" v="677314" />
	</node>
	<node id="9963104881" lat="61.8785305" lon="6.5115113" version="1" timestamp="2022-08-19T05:37:04Z" changeset="125088811" uid="3497659" user="NKA">
		<tag k="historic" v="shieling" />
		<tag k="name" v="Gamlestøylen" />
		<tag k="place" v="isolated_dwelling" />
		<tag k="ssr:stedsnr" v="799040" />
	</node>
	<node id="9963104882" lat="61.8806083" lon="6.3641751" version="1" timestamp="2022-08-19T05:37:04Z" changeset="125088811" uid="3497659" user="NKA">
		<tag k="historic" v="shieling" />
		<tag k="name" v="Randastøylen" />
		<tag k="place" v="isolated_dwelling" />
		<tag k="ssr:stedsnr" v="799035" />
	</node>
	<node id="9963104883" lat="61.8437808" lon="6.7922509" version="1" timestamp="2022-08-19T05:37:04Z" changeset="125088811" uid="3497659" user="NKA">
		<tag k="name" v="Indre Skarstein" />
		<tag k="place" v="farm" />
		<tag k="ssr:stedsnr" v="555278" />
	</node>
	<node id="9963104884" lat="61.8757123" lon="6.5183717" version="1" timestamp="2022-08-19T05:37:04Z" changeset="125088811" uid="3497659" user="NKA">
		<tag k="historic" v="shieling" />
		<tag k="name" v="Leitet" />
		<tag k="place" v="isolated_dwelling" />
		<tag k="ssr:stedsnr" v="677042" />
	</node>
	<node id="9963104885" lat="61.8731667" lon="6.8091863" version="1" timestamp="2022-08-19T05:37:04Z" changeset="125088811" uid="3497659" user="NKA">
		<tag k="name" v="Solvik" />
		<tag k="place" v="farm" />
		<tag k="ssr:stedsnr" v="616249" />
	</node>
	<node id="9963104886" lat="61.8854333" lon="6.3036531" version="1" timestamp="2022-08-19T05:37:04Z" changeset="125088811" uid="3497659" user="NKA">
		<tag k="historic" v="shieling" />
		<tag k="name" v="Innitunsstøylen" />
		<tag k="old_name" v="Hoplandstølen;Indre Hoplandstølen" />
		<tag k="place" v="isolated_dwelling" />
		<tag k="ssr:stedsnr" v="738977" />
	</node>
	<node id="9963104887" lat="61.9088195" lon="6.4938306" version="1" timestamp="2022-08-19T05:37:04Z" changeset="125088811" uid="3497659" user="NKA">
		<tag k="historic" v="shieling" />
		<tag k="name" v="Høgestøylane" />
		<tag k="place" v="isolated_dwelling" />
		<tag k="ssr:stedsnr" v="617993" />
	</node>
	<node id="9963104888" lat="61.9263008" lon="6.8585358" version="1" timestamp="2022-08-19T05:37:04Z" changeset="125088811" uid="3497659" user="NKA">
		<tag k="name" v="Hatlen" />
		<tag k="place" v="farm" />
		<tag k="ssr:stedsnr" v="276285" />
	</node>
	<node id="9963104889" lat="61.7944055" lon="6.4655696" version="1" timestamp="2022-08-19T05:37:04Z" changeset="125088811" uid="3497659" user="NKA">
		<tag k="historic" v="shieling" />
		<tag k="name" v="Valåkerstøylen" />
		<tag k="place" v="isolated_dwelling" />
		<tag k="ssr:stedsnr" v="616077" />
	</node>
	<node id="9963104890" lat="61.8582301" lon="6.8194333" version="1" timestamp="2022-08-19T05:37:04Z" changeset="125088811" uid="3497659" user="NKA">
		<tag k="name" v="Avlein" />
		<tag k="place" v="hamlet" />
		<tag k="ssr:stedsnr" v="313367" />
	</node>
	<node id="9963104891" lat="61.8062861" lon="6.5543752" version="1" timestamp="2022-08-19T05:37:04Z" changeset="125088811" uid="3497659" user="NKA">
		<tag k="historic" v="shieling" />
		<tag k="name" v="Sverkestølen" />
		<tag k="place" v="isolated_dwelling" />
		<tag k="ssr:stedsnr" v="518360" />
	</node>
	<node id="9963104892" lat="61.9487861" lon="6.8753585" version="1" timestamp="2022-08-19T05:37:04Z" changeset="125088811" uid="3497659" user="NKA">
		<tag k="historic" v="shieling" />
		<tag k="name" v="Høgesetra" />
		<tag k="place" v="locality" />
		<tag k="ssr:stedsnr" v="215286" />
	</node>
	<node id="9963104893" lat="61.9589667" lon="6.9295474" version="1" timestamp="2022-08-19T05:37:04Z" changeset="125088811" uid="3497659" user="NKA">
		<tag k="historic" v="shieling" />
		<tag k="name" v="Vikasetra" />
		<tag k="place" v="isolated_dwelling" />
		<tag k="ssr:stedsnr" v="944268" />
	</node>
	<node id="9963104894" lat="61.8564695" lon="6.4521168" version="1" timestamp="2022-08-19T05:37:04Z" changeset="125088811" uid="3497659" user="NKA">
		<tag k="historic" v="shieling" />
		<tag k="name" v="Bergsetstøylen" />
		<tag k="place" v="isolated_dwelling" />
		<tag k="ssr:stedsnr" v="253010" />
	</node>
	<node id="9963104895" lat="61.7171583" lon="6.7836946" version="1" timestamp="2022-08-19T05:37:04Z" changeset="125088811" uid="3497659" user="NKA">
		<tag k="historic" v="shieling" />
		<tag k="name" v="Indre Yrisetra" />
		<tag k="place" v="isolated_dwelling" />
		<tag k="ssr:stedsnr" v="397496" />
	</node>
	<node id="9963104896" lat="61.8094784" lon="7.0853011" version="1" timestamp="2022-08-19T05:37:04Z" changeset="125088811" uid="3497659" user="NKA">
		<tag k="historic" v="shieling" />
		<tag k="name" v="Bødalssætra" />
		<tag k="place" v="hamlet" />
		<tag k="ssr:stedsnr" v="555380" />
	</node>
	<node id="9963104897" lat="61.8244828" lon="6.9780691" version="1" timestamp="2022-08-19T05:37:04Z" changeset="125088811" uid="3497659" user="NKA">
		<tag k="name" v="Hogrenning" />
		<tag k="old_name" v="Høgrenning" />
		<tag k="place" v="hamlet" />
		<tag k="ssr:stedsnr" v="738440" />
	</node>
	<node id="9963104898" lat="61.7109878" lon="6.8158527" version="1" timestamp="2022-08-19T05:37:04Z" changeset="125088811" uid="3497659" user="NKA">
		<tag k="name" v="For" />
		<tag k="place" v="locality" />
		<tag k="ssr:stedsnr" v="518109" />
	</node>
	<node id="9963104899" lat="61.9017472" lon="6.7641889" version="1" timestamp="2022-08-19T05:37:04Z" changeset="125088811" uid="3497659" user="NKA">
		<tag k="alt_name" v="Sætresetra" />
		<tag k="historic" v="shieling" />
		<tag k="name" v="Sætresætra" />
		<tag k="place" v="isolated_dwelling" />
		<tag k="ssr:stedsnr" v="799295" />
	</node>
	<node id="9963104900" lat="61.8661626" lon="6.7233104" version="1" timestamp="2022-08-19T05:37:04Z" changeset="125088811" uid="3497659" user="NKA">
		<tag k="name" v="Agjeld" />
		<tag k="place" v="farm" />
		<tag k="ssr:stedsnr" v="920338" />
	</node>
	<node id="9963104901" lat="61.6738528" lon="6.8223556" version="1" timestamp="2022-08-19T05:37:04Z" changeset="125088811" uid="3497659" user="NKA">
		<tag k="historic" v="shieling" />
		<tag k="name" v="Setra" />
		<tag k="place" v="isolated_dwelling" />
		<tag k="ssr:stedsnr" v="397131" />
	</node>
	<node id="9963104902" lat="61.9304242" lon="6.9294567" version="1" timestamp="2022-08-19T05:37:04Z" changeset="125088811" uid="3497659" user="NKA">
		<tag k="name" v="Berstad" />
		<tag k="place" v="farm" />
		<tag k="ssr:stedsnr" v="616294" />
	</node>
	<node id="9963104903" lat="61.8425571" lon="6.9069418" version="1" timestamp="2022-08-19T05:37:04Z" changeset="125088811" uid="3497659" user="NKA">
		<tag k="historic" v="shieling" />
		<tag k="name" v="Sandsstølen" />
		<tag k="place" v="isolated_dwelling" />
		<tag k="ssr:stedsnr" v="701370" />
	</node>
	<node id="9963104904" lat="61.8709843" lon="6.6745943" version="1" timestamp="2022-08-19T05:37:04Z" changeset="125088811" uid="3497659" user="NKA">
		<tag k="alt_name" v="Årholen" />
		<tag k="name" v="Holen" />
		<tag k="place" v="farm" />
		<tag k="ssr:stedsnr" v="920252" />
	</node>
	<node id="9963104905" lat="61.8144055" lon="6.5810307" version="1" timestamp="2022-08-19T05:37:04Z" changeset="125088811" uid="3497659" user="NKA">
		<tag k="name" v="Svartesvad" />
		<tag k="place" v="locality" />
		<tag k="ssr:stedsnr" v="859068" />
	</node>
	<node id="9963104906" lat="61.8987938" lon="6.7101918" version="1" timestamp="2022-08-19T05:37:04Z" changeset="125088811" uid="3497659" user="NKA">
		<tag k="name" v="Visnes" />
		<tag k="place" v="quarter" />
		<tag k="ssr:stedsnr" v="495280" />
	</node>
	<node id="9963104907" lat="61.8441389" lon="6.9014446" version="1" timestamp="2022-08-19T05:37:04Z" changeset="125088811" uid="3497659" user="NKA">
		<tag k="name" v="Vikane" />
		<tag k="place" v="farm" />
		<tag k="ssr:stedsnr" v="518162" />
	</node>
	<node id="9963104908" lat="61.9497786" lon="7.0336229" version="1" timestamp="2022-08-19T05:37:04Z" changeset="125088811" uid="3497659" user="NKA">
		<tag k="name" v="Øvre Flo" />
		<tag k="place" v="farm" />
		<tag k="ssr:stedsnr" v="579518" />
	</node>
	<node id="9963104909" lat="61.9440693" lon="6.942658" version="1" timestamp="2022-08-19T05:37:04Z" changeset="125088811" uid="3497659" user="NKA">
		<tag k="name" v="Lindvika" />
		<tag k="place" v="farm" />
		<tag k="ssr:stedsnr" v="435333" />
	</node>
	<node id="9963104910" lat="61.9171758" lon="7.134846" version="1" timestamp="2022-08-19T05:37:04Z" changeset="125088811" uid="3497659" user="NKA">
		<tag k="name" v="Einebakken" />
		<tag k="place" v="farm" />
		<tag k="ssr:stedsnr" v="977941" />
	</node>
	<node id="9963104911" lat="61.89615" lon="7.1088111" version="1" timestamp="2022-08-19T05:37:04Z" changeset="125088811" uid="3497659" user="NKA">
		<tag k="name" v="Sandbu" />
		<tag k="place" v="farm" />
		<tag k="ssr:stedsnr" v="374474" />
	</node>
	<node id="9963104912" lat="61.9069223" lon="6.7435307" version="1" timestamp="2022-08-19T05:37:04Z" changeset="125088811" uid="3497659" user="NKA">
		<tag k="name" v="Skjolden" />
		<tag k="place" v="farm" />
		<tag k="ssr:stedsnr" v="374322" />
	</node>
	<node id="9963104913" lat="61.826106" lon="6.9689202" version="1" timestamp="2022-08-19T05:37:04Z" changeset="125088811" uid="3497659" user="NKA">
		<tag k="loc_name" v="Helsete;Hellesæter" />
		<tag k="name" v="Hellsete" />
		<tag k="place" v="farm" />
		<tag k="ssr:stedsnr" v="252409" />
	</node>
	<node id="9963104914" lat="61.9017291" lon="7.0734144" version="1" timestamp="2022-08-19T05:37:04Z" changeset="125088811" uid="3497659" user="NKA">
		<tag k="name" v="Dårflot" />
		<tag k="place" v="farm" />
		<tag k="ssr:stedsnr" v="920464" />
	</node>
	<node id="9963104915" lat="61.8860005" lon="7.1092449" version="1" timestamp="2022-08-19T05:37:04Z" changeset="125088811" uid="3497659" user="NKA">
		<tag k="name" v="Berge" />
		<tag k="place" v="farm" />
		<tag k="ssr:stedsnr" v="253512" />
	</node>
	<node id="9963104916" lat="61.8819333" lon="6.8797556" version="1" timestamp="2022-08-19T05:37:04Z" changeset="125088811" uid="3497659" user="NKA">
		<tag k="historic" v="shieling" />
		<tag k="name" v="Lohøgesætra" />
		<tag k="place" v="isolated_dwelling" />
		<tag k="ssr:stedsnr" v="314288" />
	</node>
	<node id="9963104917" lat="61.9041607" lon="6.7333531" version="1" timestamp="2022-08-19T05:37:04Z" changeset="125088811" uid="3497659" user="NKA">
		<tag k="name" v="Årheim" />
		<tag k="place" v="hamlet" />
		<tag k="ssr:stedsnr" v="253313" />
	</node>
	<node id="9963104918" lat="61.89935" lon="7.1074139" version="1" timestamp="2022-08-19T05:37:04Z" changeset="125088811" uid="3497659" user="NKA">
		<tag k="name" v="Årnes" />
		<tag k="place" v="farm" />
		<tag k="ssr:stedsnr" v="920463" />
	</node>
	<node id="9963104919" lat="61.9525972" lon="6.9776196" version="1" timestamp="2022-08-19T05:37:04Z" changeset="125088811" uid="3497659" user="NKA">
		<tag k="historic" v="shieling" />
		<tag k="name" v="Vikasetra" />
		<tag k="place" v="locality" />
		<tag k="ssr:stedsnr" v="336284" />
	</node>
	<node id="9963104920" lat="61.9169972" lon="7.1187762" version="1" timestamp="2022-08-19T05:37:04Z" changeset="125088811" uid="3497659" user="NKA">
		<tag k="name" v="Vollsnes" />
		<tag k="place" v="farm" />
		<tag k="ssr:stedsnr" v="799493" />
	</node>
	<node id="9963104921" lat="61.9295699" lon="6.8340953" version="1" timestamp="2022-08-19T05:37:04Z" changeset="125088811" uid="3497659" user="NKA">
		<tag k="name" v="Øvreeide" />
		<tag k="place" v="farm" />
		<tag k="ssr:stedsnr" v="71333" />
	</node>
	<node id="9963104922" lat="61.7971584" lon="7.0035779" version="1" timestamp="2022-08-19T05:37:04Z" changeset="125088811" uid="3497659" user="NKA">
		<tag k="name" v="Gjerdshaugen" />
		<tag k="place" v="isolated_dwelling" />
		<tag k="ssr:stedsnr" v="695895" />
	</node>
	<node id="9963104923" lat="61.9089826" lon="6.7264867" version="1" timestamp="2022-08-19T05:37:04Z" changeset="125088811" uid="3497659" user="NKA">
		<tag k="alt_name" v="Bø Ytre" />
		<tag k="name" v="Ytre Bø" />
		<tag k="place" v="locality" />
		<tag k="ssr:stedsnr" v="1085209" />
	</node>
	<node id="9963104924" lat="61.9263888" lon="6.7536223" version="1" timestamp="2022-08-19T05:37:04Z" changeset="125088811" uid="3497659" user="NKA">
		<tag k="historic" v="shieling" />
		<tag k="name" v="Ytreeidssætra" />
		<tag k="place" v="isolated_dwelling" />
		<tag k="ssr:stedsnr" v="920297" />
	</node>
	<node id="9963104925" lat="61.9411972" lon="6.8263667" version="1" timestamp="2022-08-19T05:37:04Z" changeset="125088811" uid="3497659" user="NKA">
		<tag k="alt_name" v="Skårsetra;Kopasetra" />
		<tag k="historic" v="shieling" />
		<tag k="name" v="Kopasætra" />
		<tag k="place" v="isolated_dwelling" />
		<tag k="ssr:stedsnr" v="920192" />
	</node>
	<node id="9963104926" lat="61.9350225" lon="6.8447811" version="1" timestamp="2022-08-19T05:37:04Z" changeset="125088811" uid="3497659" user="NKA">
		<tag k="alt_name" v="Bakkeli;Bakkelia" />
		<tag k="name" v="Bakkelid" />
		<tag k="place" v="farm" />
		<tag k="ssr:stedsnr" v="71224" />
	</node>
	<node id="9963104927" lat="61.9135448" lon="6.7525554" version="1" timestamp="2022-08-19T05:37:04Z" changeset="125088811" uid="3497659" user="NKA">
		<tag k="alt_name" v="Ytre Rise;Inste Rise" />
		<tag k="name" v="Rise" />
		<tag k="place" v="farm" />
		<tag k="ssr:stedsnr" v="71321" />
	</node>
	<node id="9963104928" lat="61.9251148" lon="6.8411533" version="1" timestamp="2022-08-19T05:37:04Z" changeset="125088811" uid="3497659" user="NKA">
		<tag k="name" v="Ytre Lunde" />
		<tag k="place" v="farm" />
		<tag k="ssr:stedsnr" v="1072639" />
	</node>
	<node id="9963104929" lat="61.9472722" lon="6.8266806" version="1" timestamp="2022-08-19T05:37:04Z" changeset="125088811" uid="3497659" user="NKA">
		<tag k="historic" v="shieling" />
		<tag k="name" v="Skorsætra" />
		<tag k="place" v="isolated_dwelling" />
		<tag k="ssr:stedsnr" v="860248" />
	</node>
	<node id="9963104930" lat="61.9104806" lon="7.0424054" version="1" timestamp="2022-08-19T05:37:04Z" changeset="125088811" uid="3497659" user="NKA">
		<tag k="name" v="Sandvik" />
		<tag k="place" v="farm" />
		<tag k="ssr:stedsnr" v="860524" />
	</node>
	<node id="9963104931" lat="61.9255586" lon="6.8510522" version="1" timestamp="2022-08-19T05:37:04Z" changeset="125088811" uid="3497659" user="NKA">
		<tag k="name" v="Indre Lunde" />
		<tag k="place" v="farm" />
		<tag k="ssr:stedsnr" v="1072641" />
	</node>
	<node id="9963104932" lat="61.8916134" lon="7.1041168" version="1" timestamp="2022-08-19T05:37:04Z" changeset="125088811" uid="3497659" user="NKA">
		<tag k="name" v="Erdal" />
		<tag k="place" v="hamlet" />
		<tag k="ssr:stedsnr" v="738458" />
	</node>
	<node id="9963104933" lat="61.8791861" lon="7.1179029" version="1" timestamp="2022-08-19T05:37:04Z" changeset="125088811" uid="3497659" user="NKA">
		<tag k="name" v="Nytun" />
		<tag k="place" v="farm" />
		<tag k="ssr:stedsnr" v="435499" />
	</node>
	<node id="9963104934" lat="61.9241189" lon="7.0092944" version="1" timestamp="2022-08-19T05:37:04Z" changeset="125088811" uid="3497659" user="NKA">
		<tag k="name" v="Åning" />
		<tag k="place" v="farm" />
		<tag k="ssr:stedsnr" v="799505" />
	</node>
	<node id="9963104935" lat="61.8765342" lon="6.8063742" version="1" timestamp="2022-08-19T05:37:04Z" changeset="125088811" uid="3497659" user="NKA">
		<tag k="name" v="Hola" />
		<tag k="place" v="farm" />
		<tag k="ssr:stedsnr" v="192282" />
	</node>
	<node id="9963104936" lat="61.9313639" lon="6.9232358" version="1" timestamp="2022-08-19T05:37:04Z" changeset="125088811" uid="3497659" user="NKA">
		<tag k="name" v="Meland" />
		<tag k="place" v="hamlet" />
		<tag k="ssr:stedsnr" v="860370" />
	</node>
	<node id="9963104937" lat="61.9091785" lon="6.7282294" version="1" timestamp="2022-08-19T05:37:04Z" changeset="125088811" uid="3497659" user="NKA">
		<tag k="name" v="Bø" />
		<tag k="place" v="neighbourhood" />
		<tag k="ssr:stedsnr" v="192322" />
	</node>
	<node id="9963104938" lat="61.8753241" lon="6.7984389" version="1" timestamp="2022-08-19T05:37:04Z" changeset="125088811" uid="3497659" user="NKA">
		<tag k="name" v="Åheim" />
		<tag k="place" v="farm" />
		<tag k="ssr:stedsnr" v="859242" />
	</node>
	<node id="9963104939" lat="61.9166291" lon="6.5903955" version="1" timestamp="2022-08-19T05:37:04Z" changeset="125088811" uid="3497659" user="NKA">
		<tag k="name" v="Dale" />
		<tag k="place" v="farm" />
		<tag k="ssr:stedsnr" v="799949" />
	</node>
	<node id="9963104940" lat="61.9300556" lon="6.9092833" version="1" timestamp="2022-08-19T05:37:04Z" changeset="125088811" uid="3497659" user="NKA">
		<tag k="name" v="Dispen" />
		<tag k="place" v="hamlet" />
		<tag k="ssr:stedsnr" v="860372" />
	</node>
	<node id="9963104941" lat="61.8755927" lon="6.8288859" version="1" timestamp="2022-08-19T05:37:04Z" changeset="125088811" uid="3497659" user="NKA">
		<tag k="name" v="Hella" />
		<tag k="place" v="isolated_dwelling" />
		<tag k="ssr:stedsnr" v="706475" />
	</node>
	<node id="9963104942" lat="61.9232036" lon="7.1805821" version="1" timestamp="2022-08-19T05:37:04Z" changeset="125088811" uid="3497659" user="NKA">
		<tag k="alt_name" v="Guddal;Gutdalen" />
		<tag k="loc_name" v="Guddalen;Gudal" />
		<tag k="name" v="Gutdal" />
		<tag k="place" v="farm" />
		<tag k="ssr:stedsnr" v="313480" />
	</node>
	<node id="9963104943" lat="61.8940113" lon="7.089532" version="1" timestamp="2022-08-19T05:37:04Z" changeset="125088811" uid="3497659" user="NKA">
		<tag k="name" v="Grønfor" />
		<tag k="place" v="farm" />
		<tag k="ssr:stedsnr" v="253519" />
	</node>
	<node id="9963104944" lat="61.9669667" lon="7.144475" version="1" timestamp="2022-08-19T05:37:04Z" changeset="125088811" uid="3497659" user="NKA">
		<tag k="historic" v="shieling" />
		<tag k="name" v="Midtstøylen" />
		<tag k="place" v="isolated_dwelling" />
		<tag k="ssr:stedsnr" v="323508" />
	</node>
	<node id="9963104945" lat="61.9364528" lon="6.6024669" version="1" timestamp="2022-08-19T05:37:04Z" changeset="125088811" uid="3497659" user="NKA">
		<tag k="historic" v="shieling" />
		<tag k="name" v="Gamlesetra" />
		<tag k="place" v="isolated_dwelling" />
		<tag k="ssr:stedsnr" v="761525" />
	</node>
	<node id="9963104946" lat="61.8629925" lon="6.5310826" version="1" timestamp="2022-08-19T05:37:04Z" changeset="125088811" uid="3497659" user="NKA">
		<tag k="name" v="Hatleim" />
		<tag k="place" v="farm" />
		<tag k="ssr:stedsnr" v="616014" />
	</node>
	<node id="9963104947" lat="61.7780983" lon="7.0155707" version="1" timestamp="2022-08-19T05:37:04Z" changeset="125088811" uid="3497659" user="NKA">
		<tag k="historic" v="shieling" />
		<tag k="name" v="Dalefjøsane" />
		<tag k="place" v="isolated_dwelling" />
		<tag k="ssr:stedsnr" v="336195" />
	</node>
	<node id="9963104948" lat="61.9339806" lon="7.1006556" version="1" timestamp="2022-08-19T05:37:04Z" changeset="125088811" uid="3497659" user="NKA">
		<tag k="historic" v="shieling" />
		<tag k="name" v="Segestadsætra" />
		<tag k="place" v="isolated_dwelling" />
		<tag k="ssr:stedsnr" v="253435" />
	</node>
	<node id="9963104949" lat="61.8017278" lon="6.410503" version="1" timestamp="2022-08-19T05:37:04Z" changeset="125088811" uid="3497659" user="NKA">
		<tag k="historic" v="shieling" />
		<tag k="name" v="Juvsstøylen" />
		<tag k="place" v="isolated_dwelling" />
		<tag k="ssr:stedsnr" v="677076" />
	</node>
	<node id="9963104950" lat="61.9439936" lon="7.035792" version="1" timestamp="2022-08-19T05:37:04Z" changeset="125088811" uid="3497659" user="NKA">
		<tag k="name" v="Oppigardsnausta" />
		<tag k="place" v="locality" />
		<tag k="ssr:stedsnr" v="154494" />
	</node>
	<node id="9963104951" lat="61.8211027" lon="6.8065557" version="1" timestamp="2022-08-19T05:37:04Z" changeset="125088811" uid="3497659" user="NKA">
		<tag k="name" v="Bruvoll" />
		<tag k="place" v="farm" />
		<tag k="ssr:stedsnr" v="253401" />
	</node>
	<node id="9963104952" lat="61.8474697" lon="6.7910733" version="1" timestamp="2022-08-19T05:37:04Z" changeset="125088811" uid="3497659" user="NKA">
		<tag k="name" v="Ytre Skarstein" />
		<tag k="place" v="farm" />
		<tag k="ssr:stedsnr" v="313356" />
	</node>
	<node id="9963104953" lat="61.9369222" lon="6.6847474" version="1" timestamp="2022-08-19T05:37:04Z" changeset="125088811" uid="3497659" user="NKA">
		<tag k="historic" v="shieling" />
		<tag k="name" v="Gamlesetra" />
		<tag k="place" v="isolated_dwelling" />
		<tag k="ssr:stedsnr" v="154025" />
	</node>
	<node id="9963104954" lat="61.8349529" lon="6.8136854" version="1" timestamp="2022-08-19T05:37:04Z" changeset="125088811" uid="3497659" user="NKA">
		<tag k="name" v="Muri" />
		<tag k="place" v="hamlet" />
		<tag k="ssr:stedsnr" v="131327" />
	</node>
	<node id="9963104955" lat="61.9103583" lon="6.8130806" version="1" timestamp="2022-08-19T05:37:04Z" changeset="125088811" uid="3497659" user="NKA">
		<tag k="name" v="Nedsetra" />
		<tag k="place" v="farm" />
		<tag k="ssr:stedsnr" v="154158" />
	</node>
	<node id="9963104956" lat="61.8271094" lon="6.8026424" version="1" timestamp="2022-08-19T05:37:04Z" changeset="125088811" uid="3497659" user="NKA">
		<tag k="name" v="Bruvoll" />
		<tag k="place" v="farm" />
		<tag k="ssr:stedsnr" v="131328" />
	</node>
	<node id="9963104957" lat="61.9080496" lon="7.0523299" version="1" timestamp="2022-08-19T05:37:04Z" changeset="125088811" uid="3497659" user="NKA">
		<tag k="loc_name" v="Espholen;Ospholen" />
		<tag k="name" v="Aspholen" />
		<tag k="place" v="farm" />
		<tag k="ssr:stedsnr" v="1079996" />
	</node>
	<node id="9963104958" lat="61.843464" lon="6.3978777" version="1" timestamp="2022-08-19T05:37:04Z" changeset="125088811" uid="3497659" user="NKA">
		<tag k="name" v="Fjellkårstad" />
		<tag k="place" v="hamlet" />
		<tag k="ssr:stedsnr" v="495122" />
	</node>
	<node id="9963104959" lat="61.7604416" lon="6.8268195" version="1" timestamp="2022-08-19T05:37:04Z" changeset="125088811" uid="3497659" user="NKA">
		<tag k="loc_name" v="Gjerdanausta" />
		<tag k="name" v="Gjerdenausta" />
		<tag k="place" v="locality" />
		<tag k="ssr:stedsnr" v="33096" />
	</node>
	<node id="9963104960" lat="61.8648481" lon="6.8872755" version="1" timestamp="2022-08-19T05:37:04Z" changeset="125088811" uid="3497659" user="NKA">
		<tag k="name" v="Haugen" />
		<tag k="place" v="hamlet" />
		<tag k="ssr:stedsnr" v="70344" />
	</node>
	<node id="9963104961" lat="61.9143416" lon="6.5643918" version="1" timestamp="2022-08-19T05:37:04Z" changeset="125088811" uid="3497659" user="NKA">
		<tag k="name" v="Kroken" />
		<tag k="place" v="farm" />
		<tag k="ssr:stedsnr" v="495947" />
	</node>
	<node id="9963104962" lat="61.7226706" lon="6.793149" version="1" timestamp="2022-08-19T05:37:04Z" changeset="125088811" uid="3497659" user="NKA">
		<tag k="name" v="Yri" />
		<tag k="place" v="hamlet" />
		<tag k="ssr:stedsnr" v="859884" />
	</node>
	<node id="9963104963" lat="61.923429" lon="6.5658743" version="1" timestamp="2022-08-19T05:37:04Z" changeset="125088811" uid="3497659" user="NKA">
		<tag k="name" v="Hatledal" />
		<tag k="place" v="hamlet" />
		<tag k="ssr:stedsnr" v="253963" />
	</node>
	<node id="9963104964" lat="61.7783" lon="7.0159417" version="1" timestamp="2022-08-19T05:37:04Z" changeset="125088811" uid="3497659" user="NKA">
		<tag k="name" v="Sanden" />
		<tag k="place" v="locality" />
		<tag k="ssr:stedsnr" v="10576" />
	</node>
	<node id="9963104965" lat="61.9086364" lon="6.5758974" version="1" timestamp="2022-08-19T05:37:04Z" changeset="125088811" uid="3497659" user="NKA">
		<tag k="name" v="Maurhaugen" />
		<tag k="place" v="farm" />
		<tag k="ssr:stedsnr" v="313993" />
	</node>
	<node id="9963104966" lat="61.9166306" lon="7.0101807" version="1" timestamp="2022-08-19T05:37:04Z" changeset="125088811" uid="3497659" user="NKA">
		<tag k="historic" v="shieling" />
		<tag k="name" v="Setra" />
		<tag k="place" v="isolated_dwelling" />
		<tag k="ssr:stedsnr" v="883332" />
	</node>
	<node id="9963104967" lat="61.8143389" lon="6.9937251" version="1" timestamp="2022-08-19T05:37:04Z" changeset="125088811" uid="3497659" user="NKA">
		<tag k="name" v="Raudi" />
		<tag k="place" v="locality" />
		<tag k="ssr:stedsnr" v="798406" />
	</node>
	<node id="9963104968" lat="61.8609222" lon="6.4737668" version="1" timestamp="2022-08-19T05:37:04Z" changeset="125088811" uid="3497659" user="NKA">
		<tag k="historic" v="shieling" />
		<tag k="name" v="Ulvedalsstøylen" />
		<tag k="place" v="isolated_dwelling" />
		<tag k="ssr:stedsnr" v="313015" />
	</node>
	<node id="9963104969" lat="61.6782855" lon="6.8093948" version="1" timestamp="2022-08-19T05:37:04Z" changeset="125088811" uid="3497659" user="NKA">
		<tag k="name" v="Melkevoll" />
		<tag k="place" v="farm" />
		<tag k="ssr:stedsnr" v="859909" />
	</node>
	<node id="9963104970" lat="61.8077307" lon="6.5380389" version="1" timestamp="2022-08-19T05:37:04Z" changeset="125088811" uid="3497659" user="NKA">
		<tag k="name" v="Berge" />
		<tag k="place" v="hamlet" />
		<tag k="ssr:stedsnr" v="71079" />
	</node>
	<node id="9963104971" lat="61.8768068" lon="7.1200931" version="1" timestamp="2022-08-19T05:37:04Z" changeset="125088811" uid="3497659" user="NKA">
		<tag k="name" v="Tjellog" />
		<tag k="place" v="farm" />
		<tag k="ssr:stedsnr" v="860507" />
	</node>
	<node id="9963104972" lat="61.8997636" lon="7.0388237" version="1" timestamp="2022-08-19T05:37:04Z" changeset="125088811" uid="3497659" user="NKA">
		<tag k="name" v="Fosdalssætra" />
		<tag k="place" v="isolated_dwelling" />
		<tag k="ssr:stedsnr" v="192508" />
	</node>
	<node id="9963104973" lat="61.8455785" lon="7.1866643" version="1" timestamp="2022-08-19T05:37:04Z" changeset="125088811" uid="3497659" user="NKA">
		<tag k="historic" v="shieling" />
		<tag k="name" v="Vesledalen" />
		<tag k="place" v="isolated_dwelling" />
		<tag k="ssr:stedsnr" v="192470" />
	</node>
	<node id="9963104974" lat="61.8014936" lon="6.8206346" version="1" timestamp="2022-08-19T05:37:04Z" changeset="125088811" uid="3497659" user="NKA">
		<tag k="name" v="Eide" />
		<tag k="place" v="hamlet" />
		<tag k="ssr:stedsnr" v="192352" />
	</node>
	<node id="9963104975" lat="61.7565361" lon="6.8242667" version="1" timestamp="2022-08-19T05:37:04Z" changeset="125088811" uid="3497659" user="NKA">
		<tag k="name" v="Sandbrekka" />
		<tag k="place" v="farm" />
		<tag k="ssr:stedsnr" v="860480" />
	</node>
	<node id="9963104976" lat="61.8307778" lon="6.8317556" version="1" timestamp="2022-08-19T05:37:04Z" changeset="125088811" uid="3497659" user="NKA">
		<tag k="historic" v="shieling" />
		<tag k="name" v="Murisætra" />
		<tag k="place" v="isolated_dwelling" />
		<tag k="ssr:stedsnr" v="192371" />
	</node>
	<node id="9963104977" lat="61.8359333" lon="6.4479113" version="1" timestamp="2022-08-19T05:37:04Z" changeset="125088811" uid="3497659" user="NKA">
		<tag k="name" v="Fjellvang" />
		<tag k="place" v="farm" />
		<tag k="ssr:stedsnr" v="192124" />
	</node>
	<node id="9963104978" lat="61.6826657" lon="6.8075976" version="1" timestamp="2022-08-19T05:37:04Z" changeset="125088811" uid="3497659" user="NKA">
		<tag k="name" v="Myklebust" />
		<tag k="place" v="hamlet" />
		<tag k="ssr:stedsnr" v="191890" />
	</node>
	<node id="9963104979" lat="61.6783019" lon="6.8159151" version="1" timestamp="2022-08-19T05:37:04Z" changeset="125088811" uid="3497659" user="NKA">
		<tag k="name" v="Åbrekke" />
		<tag k="place" v="farm" />
		<tag k="ssr:stedsnr" v="859913" />
	</node>
	<node id="9963104980" lat="61.9225389" lon="7.191" version="1" timestamp="2022-08-19T05:37:04Z" changeset="125088811" uid="3497659" user="NKA">
		<tag k="name" v="Haugane" />
		<tag k="place" v="farm" />
		<tag k="ssr:stedsnr" v="313482" />
	</node>
	<node id="9963104981" lat="61.8886527" lon="6.5800417" version="1" timestamp="2022-08-19T05:37:04Z" changeset="125088811" uid="3497659" user="NKA">
		<tag k="historic" v="shieling" />
		<tag k="name" v="Gjølvestølen" />
		<tag k="place" v="isolated_dwelling" />
		<tag k="ssr:stedsnr" v="639427" />
	</node>
	<node id="9963104982" lat="61.9276492" lon="7.0032177" version="1" timestamp="2022-08-19T05:37:04Z" changeset="125088811" uid="3497659" user="NKA">
		<tag k="name" v="Brekke" />
		<tag k="place" v="hamlet" />
		<tag k="ssr:stedsnr" v="555444" />
	</node>
	<node id="9963104983" lat="61.8451666" lon="6.4611336" version="1" timestamp="2022-08-19T05:37:04Z" changeset="125088811" uid="3497659" user="NKA">
		<tag k="name" v="Bergli" />
		<tag k="place" v="farm" />
		<tag k="ssr:stedsnr" v="860111" />
	</node>
	<node id="9963104984" lat="61.9192124" lon="7.1535231" version="1" timestamp="2022-08-19T05:37:04Z" changeset="125088811" uid="3497659" user="NKA">
		<tag k="alt_name" v="Grovaøyane" />
		<tag k="name" v="Grovøyane" />
		<tag k="place" v="hamlet" />
		<tag k="ssr:stedsnr" v="192514" />
	</node>
	<node id="9963104985" lat="61.8623445" lon="6.490728" version="1" timestamp="2022-08-19T05:37:04Z" changeset="125088811" uid="3497659" user="NKA">
		<tag k="historic" v="shieling" />
		<tag k="name" v="Bulægene" />
		<tag k="place" v="isolated_dwelling" />
		<tag k="ssr:stedsnr" v="374012" />
	</node>
	<node id="9963104986" lat="61.902775" lon="7.213089" version="1" timestamp="2022-08-19T05:37:04Z" changeset="125088811" uid="3497659" user="NKA">
		<tag k="historic" v="shieling" />
		<tag k="name" v="Almfloten" />
		<tag k="place" v="isolated_dwelling" />
		<tag k="ssr:stedsnr" v="81498" />
	</node>
	<node id="9963104987" lat="61.809775" lon="6.5531474" version="1" timestamp="2022-08-19T05:37:04Z" changeset="125088811" uid="3497659" user="NKA">
		<tag k="name" v="Gamlestølen" />
		<tag k="place" v="farm" />
		<tag k="ssr:stedsnr" v="458404" />
	</node>
	<node id="9963104988" lat="61.9127694" lon="6.678189" version="1" timestamp="2022-08-19T05:37:04Z" changeset="125088811" uid="3497659" user="NKA">
		<tag k="historic" v="shieling" />
		<tag k="name" v="Vinsryggsætra" />
		<tag k="place" v="isolated_dwelling" />
		<tag k="ssr:stedsnr" v="677265" />
	</node>
	<node id="9963104989" lat="61.8651749" lon="6.6519053" version="1" timestamp="2022-08-19T05:37:04Z" changeset="125088811" uid="3497659" user="NKA">
		<tag k="alt_name" v="Holestøylen;Høgesætra" />
		<tag k="historic" v="shieling" />
		<tag k="name" v="Holhøgesætra" />
		<tag k="place" v="isolated_dwelling" />
		<tag k="ssr:stedsnr" v="373352" />
	</node>
	<node id="9963104990" lat="61.9319861" lon="7.2247959" version="1" timestamp="2022-08-19T05:37:04Z" changeset="125088811" uid="3497659" user="NKA">
		<tag k="name" v="Skora" />
		<tag k="place" v="hamlet" />
		<tag k="ssr:stedsnr" v="192400" />
	</node>
	<node id="9963104991" lat="61.8683668" lon="6.5321949" version="1" timestamp="2022-08-19T05:37:04Z" changeset="125088811" uid="3497659" user="NKA">
		<tag k="name" v="Steinsåker" />
		<tag k="place" v="farm" />
		<tag k="ssr:stedsnr" v="313007" />
	</node>
	<node id="9963104992" lat="61.80461" lon="6.5257253" version="1" timestamp="2022-08-19T05:37:04Z" changeset="125088811" uid="3497659" user="NKA">
		<tag k="name" v="Dalen" />
		<tag k="place" v="farm" />
		<tag k="ssr:stedsnr" v="94362" />
	</node>
	<node id="9963104993" lat="61.9169222" lon="6.6821724" version="1" timestamp="2022-08-19T05:37:04Z" changeset="125088811" uid="3497659" user="NKA">
		<tag k="historic" v="shieling" />
		<tag k="name" v="Vikanedsætra" />
		<tag k="place" v="isolated_dwelling" />
		<tag k="ssr:stedsnr" v="276506" />
	</node>
	<node id="9963104994" lat="61.8648558" lon="6.5218744" version="1" timestamp="2022-08-19T05:37:04Z" changeset="125088811" uid="3497659" user="NKA">
		<tag k="alt_name" v="Nygard" />
		<tag k="name" v="Nygård" />
		<tag k="place" v="farm" />
		<tag k="ssr:stedsnr" v="131020" />
	</node>
	<node id="9963104995" lat="61.9305555" lon="6.6795949" version="1" timestamp="2022-08-19T05:37:04Z" changeset="125088811" uid="3497659" user="NKA">
		<tag k="name" v="Fellesfjøsen" />
		<tag k="place" v="locality" />
		<tag k="ssr:stedsnr" v="397024" />
	</node>
</osm>
