<?xml version="1.0" encoding="UTF-8"?>
<osm generator="osmapis" version="0.6">
	<node id="-131319" lat="60.5448916663" lon="10.9548083268">
		<tag k="historic" v="shieling" />
		<tag k="old_name" v="Brennsætra" />
		<tag k="place" v="locality" />
		<tag k="ssr:date" v="2016-05-10" />
		<tag k="ssr:gruppe" v="gardsbebyggelse" />
		<tag k="ssr:hovedgruppe" v="bebyggelse" />
		<tag k="ssr:stedsnr" v="310687" />
		<tag k="ssr:type" v="seterStøl" />
	</node>
	<node id="-131469" lat="60.6334694431" lon="10.7871527765">
		<tag k="amenity" v="school" />
		<tag k="old_name" v="Smeby skole" />
		<tag k="ssr:date" v="2016-05-10" />
		<tag k="ssr:gruppe" v="institusjoner" />
		<tag k="ssr:hovedgruppe" v="bebyggelse" />
		<tag k="ssr:stedsnr" v="390231" />
		<tag k="ssr:type" v="skole" />
	</node>
	<node id="-131940" lat="60.6817694456" lon="10.8152777713">
		<tag k="old_name" v="Labu, nedre" />
		<tag k="place" v="farm" />
		<tag k="ssr:date" v="2016-05-10" />
		<tag k="ssr:gruppe" v="gardsbebyggelse" />
		<tag k="ssr:hovedgruppe" v="bebyggelse" />
		<tag k="ssr:stedsnr" v="189963" />
		<tag k="ssr:type" v="bruk" />
	</node>
	<node id="-133002" lat="60.5979361089" lon="10.7337527781">
		<tag k="amenity" v="school" />
		<tag k="old_name" v="Lund skole" />
		<tag k="ssr:date" v="2016-05-11" />
		<tag k="ssr:gruppe" v="institusjoner" />
		<tag k="ssr:hovedgruppe" v="bebyggelse" />
		<tag k="ssr:stedsnr" v="936636" />
		<tag k="ssr:type" v="skole" />
	</node>
	<node id="-131575" lat="60.6197219634" lon="10.7654504794">
		<tag k="loc_name" v="Fjellberg" />
		<tag k="place" v="locality" />
		<tag k="ssr:date" v="2018-12-04" />
		<tag k="ssr:gruppe" v="gardsbebyggelse" />
		<tag k="ssr:hovedgruppe" v="bebyggelse" />
		<tag k="ssr:stedsnr" v="988866" />
		<tag k="ssr:type" v="eiendom" />
	</node>
</osm>
