<?xml version="1.0" encoding="UTF-8"?>
<osm generator="osmapis" version="0.6">
	<node id="-131680" lat="60.6471277764" lon="10.7055277696">
		<tag k="name" v="Skreiabanen" />
		<tag k="ssr:date" v="2016-05-10" />
		<tag k="ssr:gruppe" v="bane" />
		<tag k="ssr:hovedgruppe" v="infrastruktur" />
		<tag k="ssr:stedsnr" v="389582" />
		<tag k="ssr:type" v="banestrekning" />
	</node>
	<node id="-131679" lat="60.5805893992" lon="10.7658751487">
		<tag k="name" v="Hellumvegen" />
		<tag k="ssr:date" v="2019-12-05" />
		<tag k="ssr:gruppe" v="veg" />
		<tag k="ssr:hovedgruppe" v="infrastruktur" />
		<tag k="ssr:stedsnr" v="1073793" />
		<tag k="ssr:type" v="adressenavn" />
	</node>
	<node id="-131678" lat="60.4880888169" lon="10.8207069265">
		<tag k="name" v="Svartungen hyttefelt" />
		<tag k="ssr:date" v="2019-12-05" />
		<tag k="ssr:gruppe" v="veg" />
		<tag k="ssr:hovedgruppe" v="infrastruktur" />
		<tag k="ssr:stedsnr" v="1073791" />
		<tag k="ssr:type" v="adressenavn" />
	</node>
	<node id="-133053" lat="60.6590249988" lon="10.7538000087">
		<tag k="name" v="Skreiabanen" />
		<tag k="ssr:date" v="2016-05-11" />
		<tag k="ssr:gruppe" v="bane" />
		<tag k="ssr:hovedgruppe" v="infrastruktur" />
		<tag k="ssr:stedsnr" v="876342" />
		<tag k="ssr:type" v="banestrekning" />
	</node>
	<node id="-131708" lat="60.7484620811" lon="10.710605702">
		<tag k="name" v="Vestre Toten veg" />
		<tag k="ssr:date" v="2019-05-30" />
		<tag k="ssr:gruppe" v="veg" />
		<tag k="ssr:hovedgruppe" v="infrastruktur" />
		<tag k="ssr:stedsnr" v="1014902" />
		<tag k="ssr:type" v="adressenavn" />
	</node>
	<node id="-131675" lat="60.5805805472" lon="10.8221400479">
		<tag k="name" v="Vålsjøen" />
		<tag k="ssr:date" v="2019-08-27" />
		<tag k="ssr:gruppe" v="veg" />
		<tag k="ssr:hovedgruppe" v="infrastruktur" />
		<tag k="ssr:stedsnr" v="1072399" />
		<tag k="ssr:type" v="adressenavn" />
	</node>
	<node id="-133173" lat="60.5908609473" lon="9.63819281559">
		<tag k="fixme" v="multiple name tags, choose one and add the other to alt_name" />
		<tag k="name" v="Austlandet;Østlandet" />
		<tag k="ssr:date" v="2018-01-09" />
		<tag k="ssr:gruppe" v="administrativeIndelinger" />
		<tag k="ssr:hovedgruppe" v="offentligAdministrasjon" />
		<tag k="ssr:stedsnr" v="974775" />
		<tag k="ssr:type" v="annenAdministrativInndeling" />
	</node>
	<node id="-131677" lat="60.5217251537" lon="11.0715067266">
		<tag k="name" v="Steinsjøvegen" />
		<tag k="ssr:date" v="2019-12-05" />
		<tag k="ssr:gruppe" v="veg" />
		<tag k="ssr:hovedgruppe" v="infrastruktur" />
		<tag k="ssr:stedsnr" v="1073789" />
		<tag k="ssr:type" v="adressenavn" />
	</node>
	<node id="-131856" lat="60.6765833341" lon="10.8199666586">
		<tag k="name" v="Østre Toten kommune" />
		<tag k="ssr:date" v="2016-05-10" />
		<tag k="ssr:gruppe" v="administrativeIndelinger" />
		<tag k="ssr:hovedgruppe" v="offentligAdministrasjon" />
		<tag k="ssr:stedsnr" v="85638" />
		<tag k="ssr:type" v="kommune" />
	</node>
	<node id="-131709" lat="60.5428872087" lon="10.9561467251">
		<tag k="name" v="Brennsætervegen" />
		<tag k="ssr:date" v="2019-05-30" />
		<tag k="ssr:gruppe" v="veg" />
		<tag k="ssr:hovedgruppe" v="infrastruktur" />
		<tag k="ssr:stedsnr" v="1019164" />
		<tag k="ssr:type" v="adressenavn" />
	</node>
	<node id="-132584" lat="60.6491555555" lon="10.7301138913">
		<tag k="name" v="Skreiabanen" />
		<tag k="ssr:date" v="2016-05-10" />
		<tag k="ssr:gruppe" v="bane" />
		<tag k="ssr:hovedgruppe" v="infrastruktur" />
		<tag k="ssr:stedsnr" v="633727" />
		<tag k="ssr:type" v="banestrekning" />
	</node>
</osm>
