<?xml version="1.0" encoding="UTF-8"?>
<osm generator="osmapis" version="0.6">
	<node changeset="70122828" id="6465581056" lat="59.8885556" lon="10.4541167" timestamp="2019-05-10T19:49:40Z" uid="633013" user="Honning" version="1">
		<tag k="name" v="Holo" />
		<tag k="place" v="farm" />
		<tag k="ssr:stedsnr" v="854860" />
	</node>
	<node changeset="70122828" id="6465581057" lat="59.8970861" lon="10.4170055" timestamp="2019-05-10T19:49:40Z" uid="633013" user="Honning" version="1">
		<tag k="alt_name" v="Rolihølet" />
		<tag k="name" v="Roligholet" />
		<tag k="place" v="isolated_dwelling" />
		<tag k="ssr:stedsnr" v="854884" />
	</node>
	<node changeset="70122828" id="6465581058" lat="59.9179778" lon="10.4556917" timestamp="2019-05-10T19:49:40Z" uid="633013" user="Honning" version="1">
		<tag k="name" v="Kveise" />
		<tag k="place" v="farm" />
		<tag k="ssr:stedsnr" v="854935" />
	</node>
	<node changeset="70122828" id="6465581059" lat="59.9266222" lon="10.4411194" timestamp="2019-05-10T19:49:40Z" uid="633013" user="Honning" version="1">
		<tag k="leisure" v="pitch" />
		<tag k="name" v="Skuibakken" />
		<tag k="ssr:stedsnr" v="854939" />
	</node>
	<node changeset="70122828" id="6465581060" lat="59.9433417" lon="10.5779917" timestamp="2019-05-10T19:49:40Z" uid="633013" user="Honning" version="1">
		<tag k="name" v="Haga" />
		<tag k="place" v="farm" />
		<tag k="ssr:stedsnr" v="854967" />
	</node>
	<node changeset="70122828" id="6465581061" lat="59.9425333" lon="10.5986167" timestamp="2019-05-10T19:49:40Z" uid="633013" user="Honning" version="1">
		<tag k="name" v="Lønnås" />
		<tag k="old_name" v="Lønås" />
		<tag k="place" v="farm" />
		<tag k="ssr:stedsnr" v="854979" />
	</node>
	<node changeset="70122828" id="6465581062" lat="59.9480917" lon="10.3845222" timestamp="2019-05-10T19:49:40Z" uid="633013" user="Honning" version="1">
		<tag k="name" v="Skoglund" />
		<tag k="place" v="isolated_dwelling" />
		<tag k="ssr:stedsnr" v="854999" />
	</node>
	<node changeset="70122828" id="6465581063" lat="59.9398361" lon="10.4026389" timestamp="2019-05-10T19:49:40Z" uid="633013" user="Honning" version="1">
		<tag k="alt_name" v="Ullbråten nordre" />
		<tag k="name" v="Nordre Ullbråten" />
		<tag k="place" v="farm" />
		<tag k="ssr:stedsnr" v="871033" />
	</node>
	<node changeset="70122828" id="6465581064" lat="59.9040639" lon="10.4813583" timestamp="2019-05-10T19:49:40Z" uid="633013" user="Honning" version="1">
		<tag k="aerialway" v="drag_lift" />
		<tag k="fixme" v="consider the other aerialway types" />
		<tag k="name" v="Kirkerudbakken" />
		<tag k="ssr:stedsnr" v="871044" />
	</node>
	<node changeset="70122828" id="6465581065" lat="59.9154083" lon="10.4664583" timestamp="2019-05-10T19:49:40Z" uid="633013" user="Honning" version="1">
		<tag k="name" v="Hornienga" />
		<tag k="place" v="farm" />
		<tag k="ssr:stedsnr" v="871053" />
	</node>
	<node changeset="70122828" id="6465581067" lat="59.9541472" lon="10.5849917" timestamp="2019-05-10T19:49:40Z" uid="633013" user="Honning" version="1">
		<tag k="alt_name" v="Ila øvre" />
		<tag k="name" v="Øvre Ila" />
		<tag k="place" v="locality" />
		<tag k="ssr:stedsnr" v="871864" />
	</node>
	<node changeset="70122828" id="6465581069" lat="59.9258556" lon="10.6159194" timestamp="2019-05-10T19:49:40Z" uid="633013" user="Honning" version="1">
		<tag k="leisure" v="pitch" />
		<tag k="name" v="Jarmyra" />
		<tag k="ssr:stedsnr" v="871910" />
	</node>
	<node changeset="70122828" id="6465581070" lat="59.9012722" lon="10.5009444" timestamp="2019-05-10T19:49:40Z" uid="633013" user="Honning" version="1">
		<tag k="amenity" v="nursing_home" />
		<tag k="name" v="Marie Plahtes Minde" />
		<tag k="ssr:stedsnr" v="871973" />
	</node>
	<node changeset="70122828" id="6465581071" lat="59.9146667" lon="10.5079695" timestamp="2019-05-10T19:49:40Z" uid="633013" user="Honning" version="1">
		<tag k="amenity" v="hospital" />
		<tag k="name" v="Kolsås sykehjem" />
		<tag k="ssr:stedsnr" v="871978" />
	</node>
	<node changeset="70122828" id="6465581073" lat="59.9235667" lon="10.5624472" timestamp="2019-05-10T19:49:40Z" uid="633013" user="Honning" version="1">
		<tag k="alt_name" v="Haslum vestre" />
		<tag k="name" v="Vestre Haslum" />
		<tag k="place" v="farm" />
		<tag k="ssr:stedsnr" v="871990" />
	</node>
	<node changeset="70122828" id="6465581074" lat="59.9362639" lon="10.5444639" timestamp="2019-05-10T19:49:41Z" uid="633013" user="Honning" version="1">
		<tag k="name" v="Sagstua" />
		<tag k="place" v="isolated_dwelling" />
		<tag k="ssr:stedsnr" v="871996" />
	</node>
	<node changeset="70122828" id="6465581075" lat="59.8972972" lon="10.6081833" timestamp="2019-05-10T19:49:41Z" uid="633013" user="Honning" version="1">
		<tag k="name" v="Lilleøystua" />
		<tag k="place" v="isolated_dwelling" />
		<tag k="ssr:stedsnr" v="872117" />
	</node>
	<node changeset="70122828" id="6465581076" lat="59.8942083" lon="10.4564583" timestamp="2019-05-10T19:49:41Z" uid="633013" user="Honning" version="1">
		<tag k="alt_name" v="Ringi nedre" />
		<tag k="name" v="Nedre Ringi" />
		<tag k="place" v="farm" />
		<tag k="ssr:stedsnr" v="872633" />
	</node>
	<node changeset="70122828" id="6465581077" lat="59.9731639" lon="10.4654778" timestamp="2019-05-10T19:49:41Z" uid="633013" user="Honning" version="1">
		<tag k="name" v="Guriby" />
		<tag k="place" v="farm" />
		<tag k="ssr:stedsnr" v="914026" />
	</node>
	<node changeset="70122828" id="6465581078" lat="59.9088056" lon="10.4958111" timestamp="2019-05-10T19:49:41Z" uid="633013" user="Honning" version="1">
		<tag k="name" v="Rud" />
		<tag k="place" v="farm" />
		<tag k="ssr:stedsnr" v="914895" />
	</node>
	<node changeset="70122828" id="6465581079" lat="59.9118417" lon="10.4927111" timestamp="2019-05-10T19:49:41Z" uid="633013" user="Honning" version="1">
		<tag k="name" v="Hagan" />
		<tag k="place" v="farm" />
		<tag k="ssr:stedsnr" v="914896" />
	</node>
	<node changeset="70122828" id="6465581080" lat="59.91115" lon="10.5277861" timestamp="2019-05-10T19:49:41Z" uid="633013" user="Honning" version="1">
		<tag k="alt_name" v="Gjettum, nordre;Gjettum" />
		<tag k="name" v="Nordre Gjettum" />
		<tag k="place" v="farm" />
		<tag k="ssr:stedsnr" v="914900" />
	</node>
	<node changeset="70122828" id="6465581081" lat="59.9381639" lon="10.4188111" timestamp="2019-05-10T19:49:41Z" uid="633013" user="Honning" version="1">
		<tag k="name" v="Hvile" />
		<tag k="place" v="isolated_dwelling" />
		<tag k="ssr:stedsnr" v="914961" />
	</node>
	<node changeset="70122828" id="129994778" lat="59.9136306" lon="10.5119139" timestamp="2019-05-10T19:49:53Z" uid="633013" user="Honning" version="5">
		<tag k="name" v="Kolsås" />
		<tag k="place" v="suburb" />
		<tag k="ssr:stedsnr" v="632931" />
	</node>
	<node changeset="70122828" id="6465581083" lat="59.9731917" lon="10.5764417" timestamp="2019-05-10T19:49:41Z" uid="633013" user="Honning" version="1">
		<tag k="name" v="Skillebekkhytta" />
		<tag k="place" v="isolated_dwelling" />
		<tag k="ssr:stedsnr" v="932871" />
	</node>
	<node changeset="70122828" id="6465581084" lat="59.9320833" lon="10.5762833" timestamp="2019-05-10T19:49:41Z" uid="633013" user="Honning" version="1">
		<tag k="alt_name" v="Hosle søndre" />
		<tag k="name" v="Søndre Hosle" />
		<tag k="place" v="farm" />
		<tag k="ssr:stedsnr" v="932985" />
	</node>
	<node changeset="70122828" id="603592733" lat="59.9568861" lon="10.5683556" timestamp="2019-05-10T19:49:54Z" uid="633013" user="Honning" version="3">
		<tag k="historic" v="croft" />
		<tag k="name" v="Lund" />
		<tag k="place" v="isolated_dwelling" />
		<tag k="ssr:stedsnr" v="65993" />
	</node>
	<node changeset="70122828" id="6465581087" lat="59.9293389" lon="10.4423639" timestamp="2019-05-10T19:49:41Z" uid="633013" user="Honning" version="1">
		<tag k="alt_name" v="Nordre Skui" />
		<tag k="name" v="Hagabråten" />
		<tag k="place" v="farm" />
		<tag k="ssr:stedsnr" v="933068" />
	</node>
	<node changeset="70122828" id="6465581088" lat="59.9187944" lon="10.4629806" timestamp="2019-05-10T19:49:41Z" uid="633013" user="Honning" version="1">
		<tag k="name" v="England" />
		<tag k="place" v="farm" />
		<tag k="ssr:stedsnr" v="933070" />
	</node>
	<node changeset="70122828" id="6465581089" lat="59.8962889" lon="10.5173611" timestamp="2019-05-10T19:49:41Z" uid="633013" user="Honning" version="1">
		<tag k="name" v="Hagelund" />
		<tag k="place" v="farm" />
		<tag k="ssr:stedsnr" v="933565" />
	</node>
	<node changeset="70122828" id="6465581090" lat="59.8946111" lon="10.4598889" timestamp="2019-05-10T19:49:41Z" uid="633013" user="Honning" version="1">
		<tag k="alt_name" v="Ringi øvre" />
		<tag k="name" v="Øvre Ringi" />
		<tag k="place" v="farm" />
		<tag k="ssr:stedsnr" v="933642" />
	</node>
	<node changeset="70122828" id="6465581091" lat="59.9193363" lon="10.3898646" timestamp="2019-05-10T19:49:41Z" uid="633013" user="Honning" version="1">
		<tag k="name" v="Svartvannshytta" />
		<tag k="ssr:stedsnr" v="973899" />
		<tag k="tourism" v="chalet" />
	</node>
	<node changeset="70122828" id="6465581092" lat="59.9387606" lon="10.5111804" timestamp="2019-05-10T19:49:42Z" uid="633013" user="Honning" version="1">
		<tag k="name" v="Toppenhaug" />
		<tag k="place" v="quarter" />
		<tag k="ssr:stedsnr" v="981111" />
	</node>
	<node changeset="70122828" id="6465581093" lat="59.9588999" lon="10.495048" timestamp="2019-05-10T19:49:42Z" uid="633013" user="Honning" version="1">
		<tag k="name" v="Hellerud" />
		<tag k="place" v="quarter" />
		<tag k="ssr:stedsnr" v="981112" />
	</node>
	<node changeset="70122828" id="6465581094" lat="59.9577995" lon="10.4666671" timestamp="2019-05-10T19:49:42Z" uid="633013" user="Honning" version="1">
		<tag k="name" v="Trulsrudmarka" />
		<tag k="place" v="quarter" />
		<tag k="ssr:stedsnr" v="981113" />
	</node>
	<node changeset="70122828" id="6465581095" lat="59.9542435" lon="10.5135507" timestamp="2019-05-10T19:49:42Z" uid="633013" user="Honning" version="1">
		<tag k="name" v="Trulsebråten" />
		<tag k="place" v="quarter" />
		<tag k="ssr:stedsnr" v="981115" />
	</node>
	<node changeset="70122828" id="6465581096" lat="59.9631327" lon="10.4684075" timestamp="2019-05-10T19:49:42Z" uid="633013" user="Honning" version="1">
		<tag k="name" v="Bjerke" />
		<tag k="place" v="quarter" />
		<tag k="ssr:stedsnr" v="981114" />
	</node>
	<node changeset="70122828" id="6465581097" lat="59.9464842" lon="10.5017393" timestamp="2019-05-10T19:49:42Z" uid="633013" user="Honning" version="1">
		<tag k="name" v="Sleiverud" />
		<tag k="place" v="quarter" />
		<tag k="ssr:stedsnr" v="981117" />
	</node>
	<node changeset="70122828" id="6465581098" lat="59.9520243" lon="10.5136285" timestamp="2019-05-10T19:49:42Z" uid="633013" user="Honning" version="1">
		<tag k="name" v="Lesterud" />
		<tag k="place" v="quarter" />
		<tag k="ssr:stedsnr" v="981116" />
	</node>
	<node changeset="70122828" id="6465581099" lat="59.8889703" lon="10.4771254" timestamp="2019-05-10T19:49:42Z" uid="633013" user="Honning" version="1">
		<tag k="name" v="Tanum" />
		<tag k="place" v="quarter" />
		<tag k="ssr:stedsnr" v="981119" />
	</node>
	<node changeset="70122828" id="6465581100" lat="59.9468985" lon="10.5079345" timestamp="2019-05-10T19:49:42Z" uid="633013" user="Honning" version="1">
		<tag k="name" v="Grorudhaugen" />
		<tag k="place" v="quarter" />
		<tag k="ssr:stedsnr" v="981118" />
	</node>
	<node changeset="70122828" id="6465581101" lat="59.9530726" lon="10.4806039" timestamp="2019-05-10T19:49:42Z" uid="633013" user="Honning" version="1">
		<tag k="name" v="Børjerlia" />
		<tag k="place" v="quarter" />
		<tag k="ssr:stedsnr" v="981120" />
	</node>
	<node changeset="70122828" id="6465581102" lat="59.8841361" lon="10.6033346" timestamp="2019-05-10T19:49:42Z" uid="633013" user="Honning" version="1">
		<tag k="name" v="Langodden" />
		<tag k="place" v="quarter" />
		<tag k="ssr:stedsnr" v="981121" />
	</node>
	<node changeset="70122828" id="6465581103" lat="59.8793108" lon="10.6182175" timestamp="2019-05-10T19:49:42Z" uid="633013" user="Honning" version="1">
		<tag k="name" v="Strømstangen" />
		<tag k="place" v="quarter" />
		<tag k="ssr:stedsnr" v="981123" />
	</node>
	<node changeset="70122828" id="6465581104" lat="59.8868482" lon="10.6260719" timestamp="2019-05-10T19:49:42Z" uid="633013" user="Honning" version="1">
		<tag k="name" v="Halden" />
		<tag k="place" v="quarter" />
		<tag k="ssr:stedsnr" v="981124" />
	</node>
	<node changeset="70122828" id="357406769" lat="59.9643528" lon="10.3666083" timestamp="2019-05-10T19:49:53Z" uid="633013" user="Honning" version="2">
		<tag k="name" v="Skogen" />
		<tag k="place" v="farm" />
		<tag k="ssr:stedsnr" v="610039" />
	</node>
	<node changeset="70122828" id="6465581106" lat="59.886375" lon="10.4743944" timestamp="2019-05-10T19:49:42Z" uid="633013" user="Honning" version="1">
		<tag k="name" v="Lagerud" />
		<tag k="place" v="farm" />
		<tag k="ssr:stedsnr" v="307848" />
	</node>
	<node changeset="70122828" id="6465581107" lat="59.9065694" lon="10.5800944" timestamp="2019-05-10T19:49:42Z" uid="633013" user="Honning" version="1">
		<tag k="name" v="Ballerud" />
		<tag k="place" v="farm" />
		<tag k="ssr:stedsnr" v="307889" />
	</node>
	<node changeset="70122828" id="6465581108" lat="59.9262917" lon="10.3891972" timestamp="2019-05-10T19:49:42Z" uid="633013" user="Honning" version="1">
		<tag k="alt_name" v="Gotland" />
		<tag k="name" v="Godtland" />
		<tag k="place" v="locality" />
		<tag k="ssr:stedsnr" v="307939" />
	</node>
	<node changeset="70122828" id="6465581109" lat="59.9623" lon="10.4688833" timestamp="2019-05-10T19:49:42Z" uid="633013" user="Honning" version="1">
		<tag k="name" v="Bjørke" />
		<tag k="place" v="farm" />
		<tag k="ssr:stedsnr" v="308027" />
	</node>
	<node changeset="70122828" id="6465581110" lat="59.9145361" lon="10.4557222" timestamp="2019-05-10T19:49:42Z" uid="633013" user="Honning" version="1">
		<tag k="alt_name" v="Horni nedre" />
		<tag k="name" v="Nedre Horni" />
		<tag k="place" v="farm" />
		<tag k="ssr:stedsnr" v="325040" />
	</node>
	<node changeset="70122828" id="6465581111" lat="59.9428389" lon="10.5034667" timestamp="2019-05-10T19:49:42Z" uid="633013" user="Honning" version="1">
		<tag k="name" v="Helset" />
		<tag k="place" v="quarter" />
		<tag k="ssr:stedsnr" v="325235" />
	</node>
	<node changeset="70122828" id="6465581112" lat="59.9382889" lon="10.617775" timestamp="2019-05-10T19:49:43Z" uid="633013" user="Honning" version="1">
		<tag k="leisure" v="pitch" />
		<tag k="name" v="Øvrevoll galoppbane" />
		<tag k="ssr:stedsnr" v="325905" />
	</node>
	<node changeset="70122828" id="6465581113" lat="59.9033583" lon="10.4927639" timestamp="2019-05-10T19:49:43Z" uid="633013" user="Honning" version="1">
		<tag k="name" v="Langelår" />
		<tag k="place" v="locality" />
		<tag k="ssr:stedsnr" v="325970" />
	</node>
	<node changeset="70122828" id="6465581115" lat="59.924275" lon="10.4653" timestamp="2019-05-10T19:49:43Z" uid="633013" user="Honning" version="1">
		<tag k="alt_name" v="Økern nordre" />
		<tag k="name" v="Nordre Økern" />
		<tag k="place" v="farm" />
		<tag k="ssr:stedsnr" v="326051" />
	</node>
	<node changeset="70122828" id="6465581116" lat="59.9826278" lon="10.470775" timestamp="2019-05-10T19:49:43Z" uid="633013" user="Honning" version="1">
		<tag k="name" v="Bruløkka" />
		<tag k="place" v="farm" />
		<tag k="ssr:stedsnr" v="326072" />
	</node>
	<node changeset="70122828" id="6465581117" lat="59.8785833" lon="10.4229333" timestamp="2019-05-10T19:49:43Z" uid="633013" user="Honning" version="1">
		<tag k="name" v="Backerhytta" />
		<tag k="place" v="isolated_dwelling" />
		<tag k="ssr:stedsnr" v="326626" />
	</node>
	<node changeset="70122828" id="6465581118" lat="59.89" lon="10.4743861" timestamp="2019-05-10T19:49:43Z" uid="633013" user="Honning" version="1">
		<tag k="name" v="Tanumbråtan" />
		<tag k="place" v="isolated_dwelling" />
		<tag k="ssr:stedsnr" v="326642" />
	</node>
	<node changeset="70122828" id="6465581119" lat="59.9690075" lon="10.6079666" timestamp="2019-05-10T19:49:43Z" uid="633013" user="Honning" version="1">
		<tag k="name" v="Lathus" />
		<tag k="place" v="hamlet" />
		<tag k="ssr:stedsnr" v="367036" />
	</node>
	<node changeset="70122828" id="6465581120" lat="59.9518778" lon="10.4912167" timestamp="2019-05-10T19:49:43Z" uid="633013" user="Honning" version="1">
		<tag k="name" v="Solberg" />
		<tag k="place" v="farm" />
		<tag k="ssr:stedsnr" v="368053" />
	</node>
	<node changeset="70122828" id="6465581121" lat="59.9556222" lon="10.4958583" timestamp="2019-05-10T19:49:43Z" uid="633013" user="Honning" version="1">
		<tag k="name" v="Muserud" />
		<tag k="place" v="farm" />
		<tag k="ssr:stedsnr" v="368055" />
	</node>
	<node changeset="70122828" id="6465581122" lat="59.9632" lon="10.5744972" timestamp="2019-05-10T19:49:43Z" uid="633013" user="Honning" version="1">
		<tag k="leisure" v="pitch" />
		<tag k="name" v="Løvenskioldbanen" />
		<tag k="ssr:stedsnr" v="368078" />
	</node>
	<node changeset="70122828" id="6465581123" lat="59.887825" lon="10.5636361" timestamp="2019-05-10T19:49:43Z" uid="633013" user="Honning" version="1">
		<tag k="alt_name" v="Det Norske Veritas" />
		<tag k="building" v="industrial" />
		<tag k="industrial" v="factory" />
		<tag k="name" v="Veritas" />
		<tag k="ssr:stedsnr" v="368880" />
	</node>
	<node changeset="70122828" id="6465581124" lat="59.9025694" lon="10.5277694" timestamp="2019-05-10T19:49:43Z" uid="633013" user="Honning" version="1">
		<tag k="name" v="Valler" />
		<tag k="place" v="farm" />
		<tag k="ssr:stedsnr" v="368895" />
	</node>
	<node changeset="70122828" id="6465581125" lat="59.8994222" lon="10.4963417" timestamp="2019-05-10T19:49:43Z" uid="633013" user="Honning" version="1">
		<tag k="building" v="industrial" />
		<tag k="industrial" v="factory" />
		<tag k="name" v="Franzefoss" />
		<tag k="old_name" v="Franzefoss Bruk" />
		<tag k="ssr:stedsnr" v="368896" />
	</node>
	<node changeset="70122828" id="6465581126" lat="59.9105083" lon="10.3904861" timestamp="2019-05-10T19:49:43Z" uid="633013" user="Honning" version="1">
		<tag k="name" v="Ringivollen" />
		<tag k="place" v="locality" />
		<tag k="ssr:stedsnr" v="368924" />
	</node>
	<node changeset="70122828" id="6465581127" lat="59.9306833" lon="10.4672167" timestamp="2019-05-10T19:49:43Z" uid="633013" user="Honning" version="1">
		<tag k="name" v="Løkka" />
		<tag k="place" v="isolated_dwelling" />
		<tag k="ssr:stedsnr" v="368957" />
	</node>
	<node changeset="70122828" id="6465581128" lat="59.9378028" lon="10.4055528" timestamp="2019-05-10T19:49:43Z" uid="633013" user="Honning" version="1">
		<tag k="name" v="Ullbråtan" />
		<tag k="place" v="farm" />
		<tag k="ssr:stedsnr" v="368964" />
	</node>
	<node changeset="70122828" id="6465581129" lat="59.9405417" lon="10.4072611" timestamp="2019-05-10T19:49:43Z" uid="633013" user="Honning" version="1">
		<tag k="alt_name" v="Brennengen" />
		<tag k="name" v="Brennenga" />
		<tag k="place" v="farm" />
		<tag k="ssr:stedsnr" v="368965" />
	</node>
	<node changeset="70122828" id="6465581130" lat="59.940625" lon="10.5836278" timestamp="2019-05-10T19:49:44Z" uid="633013" user="Honning" version="1">
		<tag k="name" v="Toppen" />
		<tag k="place" v="farm" />
		<tag k="ssr:stedsnr" v="368987" />
	</node>
	<node changeset="70122828" id="6465581131" lat="59.9544528" lon="10.58295" timestamp="2019-05-10T19:49:44Z" uid="633013" user="Honning" version="1">
		<tag k="amenity" v="prison" />
		<tag k="name" v="Ila fengsel og forvaringsanstalt" />
		<tag k="ssr:stedsnr" v="368995" />
	</node>
	<node changeset="70122828" id="6465581132" lat="59.9592722" lon="10.4792389" timestamp="2019-05-10T19:49:44Z" uid="633013" user="Honning" version="1">
		<tag k="alt_name" v="Trulsrud nedre" />
		<tag k="name" v="Nedre Trulsrud" />
		<tag k="place" v="farm" />
		<tag k="ssr:stedsnr" v="386019" />
	</node>
	<node changeset="70122828" id="6465581133" lat="59.9568972" lon="10.372825" timestamp="2019-05-10T19:49:44Z" uid="633013" user="Honning" version="1">
		<tag k="historic" v="shieling" />
		<tag k="name" v="Avtjernsetra" />
		<tag k="place" v="locality" />
		<tag k="ssr:stedsnr" v="386036" />
	</node>
	<node changeset="70122828" id="6465581134" lat="59.9588222" lon="10.361075" timestamp="2019-05-10T19:49:44Z" uid="633013" user="Honning" version="1">
		<tag k="name" v="Bjerkestua" />
		<tag k="place" v="isolated_dwelling" />
		<tag k="ssr:stedsnr" v="386043" />
	</node>
	<node changeset="70122828" id="6465581135" lat="59.9071917" lon="10.4735445" timestamp="2019-05-10T19:49:44Z" uid="633013" user="Honning" version="1">
		<tag k="name" v="Borkenholm" />
		<tag k="place" v="farm" />
		<tag k="ssr:stedsnr" v="386049" />
	</node>
	<node changeset="70122828" id="6465581137" lat="59.9415972" lon="10.5330028" timestamp="2019-05-10T19:49:44Z" uid="633013" user="Honning" version="1">
		<tag k="name" v="Lybråtan" />
		<tag k="place" v="locality" />
		<tag k="ssr:stedsnr" v="386096" />
	</node>
	<node changeset="70122828" id="6465581138" lat="59.8880917" lon="10.4571028" timestamp="2019-05-10T19:49:44Z" uid="633013" user="Honning" version="1">
		<tag k="name" v="Moltemyra" />
		<tag k="place" v="isolated_dwelling" />
		<tag k="ssr:stedsnr" v="386611" />
	</node>
	<node changeset="26535158" id="1029748819" lat="59.960276" lon="10.5483139" timestamp="2014-11-03T20:45:30Z" uid="11992" user="vibrog" version="3" />
	<node changeset="70122828" id="6465581140" lat="59.9495" lon="10.6295139" timestamp="2019-05-10T19:49:44Z" uid="633013" user="Honning" version="1">
		<tag k="name" v="Grini" />
		<tag k="place" v="farm" />
		<tag k="ssr:stedsnr" v="386915" />
	</node>
	<node changeset="70122828" id="6465581141" lat="59.912475" lon="10.5870778" timestamp="2019-05-10T19:49:44Z" uid="633013" user="Honning" version="1">
		<tag k="name" v="Kleven" />
		<tag k="place" v="farm" />
		<tag k="ssr:stedsnr" v="386888" />
	</node>
	<node changeset="70122828" id="6465581142" lat="59.9108167" lon="10.5916056" timestamp="2019-05-10T19:49:44Z" uid="633013" user="Honning" version="1">
		<tag k="name" v="Skallum" />
		<tag k="place" v="farm" />
		<tag k="ssr:stedsnr" v="386890" />
	</node>
	<node changeset="70122828" id="6465581143" lat="59.9281806" lon="10.4943806" timestamp="2019-05-10T19:49:44Z" uid="633013" user="Honning" version="1">
		<tag k="name" v="Gamlebruket" />
		<tag k="place" v="locality" />
		<tag k="ssr:stedsnr" v="386944" />
	</node>
	<node changeset="70122828" id="6465581144" lat="59.9229556" lon="10.554225" timestamp="2019-05-10T19:49:44Z" uid="633013" user="Honning" version="1">
		<tag k="name" v="Åsterud" />
		<tag k="place" v="farm" />
		<tag k="ssr:stedsnr" v="386988" />
	</node>
	<node changeset="70122828" id="6465581146" lat="59.8931139" lon="10.5021611" timestamp="2019-05-10T19:49:44Z" uid="633013" user="Honning" version="1">
		<tag k="alt_name" v="Jong østre" />
		<tag k="name" v="Østre Jong" />
		<tag k="place" v="farm" />
		<tag k="ssr:stedsnr" v="387308" />
	</node>
	<node changeset="70122828" id="6465581147" lat="59.9196997" lon="10.5954722" timestamp="2019-05-10T19:49:44Z" uid="633013" user="Honning" version="1">
		<tag k="name" v="Egne Hjem" />
		<tag k="place" v="quarter" />
		<tag k="ssr:stedsnr" v="989214" />
	</node>
	<node changeset="70122828" id="6465581148" lat="59.9204279" lon="10.6105159" timestamp="2019-05-10T19:49:44Z" uid="633013" user="Honning" version="1">
		<tag k="name" v="Tjernsrud" />
		<tag k="place" v="quarter" />
		<tag k="ssr:stedsnr" v="989215" />
	</node>
	<node changeset="70122828" id="6465581149" lat="59.97745" lon="10.4683889" timestamp="2019-05-10T19:49:44Z" uid="633013" user="Honning" version="1">
		<tag k="name" v="Åmot" />
		<tag k="place" v="farm" />
		<tag k="ssr:stedsnr" v="3031" />
	</node>
	<node changeset="70122828" id="6465581150" lat="59.961025" lon="10.5833111" timestamp="2019-05-10T19:49:45Z" uid="633013" user="Honning" version="1">
		<tag k="name" v="Skytterkollen" />
		<tag k="place" v="isolated_dwelling" />
		<tag k="ssr:stedsnr" v="4061" />
	</node>
	<node changeset="70122828" id="6465581151" lat="59.8995" lon="10.5952222" timestamp="2019-05-10T19:49:45Z" uid="633013" user="Honning" version="1">
		<tag k="name" v="Strand" />
		<tag k="place" v="isolated_dwelling" />
		<tag k="ssr:stedsnr" v="4888" />
	</node>
	<node changeset="70122828" id="6465581152" lat="59.9174361" lon="10.5219222" timestamp="2019-05-10T19:49:45Z" uid="633013" user="Honning" version="1">
		<tag k="name" v="Kif-hytta" />
		<tag k="place" v="isolated_dwelling" />
		<tag k="ssr:stedsnr" v="4923" />
	</node>
	<node changeset="70122828" id="6465581153" lat="59.9132833" lon="10.5567139" timestamp="2019-05-10T19:49:45Z" uid="633013" user="Honning" version="1">
		<tag k="name" v="Avløs" />
		<tag k="place" v="farm" />
		<tag k="ssr:stedsnr" v="4927" />
	</node>
	<node changeset="70122828" id="6465581154" lat="59.9200972" lon="10.4530361" timestamp="2019-05-10T19:49:45Z" uid="633013" user="Honning" version="1">
		<tag k="alt_name" v="Søndre Skui" />
		<tag k="name" v="Skui" />
		<tag k="place" v="farm" />
		<tag k="ssr:stedsnr" v="4948" />
	</node>
	<node changeset="70122828" id="6465581155" lat="59.9407139" lon="10.4044278" timestamp="2019-05-10T19:49:45Z" uid="633013" user="Honning" version="1">
		<tag k="alt_name" v="Rustad" />
		<tag k="name" v="Rustan" />
		<tag k="place" v="farm" />
		<tag k="ssr:stedsnr" v="4962" />
	</node>
	<node changeset="6597039" id="1029748837" lat="59.9601655" lon="10.5447942" timestamp="2010-12-09T17:04:38Z" uid="11992" user="vibrog" version="1" />
	<node changeset="70122828" id="6465581158" lat="59.9287583" lon="10.4976139" timestamp="2019-05-10T19:49:45Z" uid="633013" user="Honning" version="1">
		<tag k="loc_name" v="Spikerhammaren" />
		<tag k="name" v="Spikerhammarn" />
		<tag k="place" v="locality" />
		<tag k="ssr:stedsnr" v="22939" />
	</node>
	<node changeset="70122828" id="6465581159" lat="59.9389944" lon="10.5052194" timestamp="2019-05-10T19:49:45Z" uid="633013" user="Honning" version="1">
		<tag k="name" v="Toppenhaug" />
		<tag k="place" v="isolated_dwelling" />
		<tag k="ssr:stedsnr" v="22948" />
	</node>
	<node changeset="49714732" id="4928358691" lat="59.9259577" lon="10.4664059" timestamp="2017-06-21T09:08:36Z" uid="5735621" user="Ralf_Jeppsson" version="1" />
	<node changeset="70122828" id="6465581162" lat="59.9207861" lon="10.4712444" timestamp="2019-05-10T19:49:45Z" uid="633013" user="Honning" version="1">
		<tag k="alt_name" v="Økern lille" />
		<tag k="name" v="Lille Økern" />
		<tag k="place" v="farm" />
		<tag k="ssr:stedsnr" v="23077" />
	</node>
	<node changeset="70122828" id="6465581163" lat="59.9704944" lon="10.4570083" timestamp="2019-05-10T19:49:45Z" uid="633013" user="Honning" version="1">
		<tag k="historic" v="shieling" />
		<tag k="name" v="Granbakken" />
		<tag k="place" v="locality" />
		<tag k="ssr:stedsnr" v="23088" />
	</node>
	<node changeset="70122828" id="6465581164" lat="59.9627278" lon="10.4692972" timestamp="2019-05-10T19:49:45Z" uid="633013" user="Honning" version="1">
		<tag k="alt_name" v="Bjerke øvre" />
		<tag k="name" v="Øvre Bjerke" />
		<tag k="place" v="farm" />
		<tag k="ssr:stedsnr" v="23099" />
	</node>
	<node changeset="70122828" id="6465581165" lat="59.9645111" lon="10.6216306" timestamp="2019-05-10T19:49:45Z" uid="633013" user="Honning" version="1">
		<tag k="name" v="Osbakken" />
		<tag k="place" v="farm" />
		<tag k="ssr:stedsnr" v="23137" />
	</node>
	<node changeset="70122828" id="6465581166" lat="59.8966333" lon="10.5889806" timestamp="2019-05-10T19:49:45Z" uid="633013" user="Honning" version="1">
		<tag k="name" v="Granly barnehjem" />
		<tag k="ssr:stedsnr" v="23308" />
		<tag k="tourism" v="guest_house" />
	</node>
	<node changeset="70122828" id="6465581167" lat="59.8957139" lon="10.5760139" timestamp="2019-05-10T19:49:45Z" uid="633013" user="Honning" version="1">
		<tag k="alt_name" v="Høvik nordre" />
		<tag k="name" v="Nordre Høvik" />
		<tag k="place" v="farm" />
		<tag k="ssr:stedsnr" v="23340" />
	</node>
	<node changeset="70122828" id="3474651248" lat="59.9307697" lon="10.6063907" timestamp="2019-05-10T19:49:56Z" uid="633013" user="Honning" version="2">
		<tag k="historic" v="farm" />
		<tag k="name" v="Grav" />
		<tag k="place" v="farm" />
		<tag k="ssr:stedsnr" v="186944" />
	</node>
	<node changeset="70122828" id="6465581169" lat="59.8946111" lon="10.41475" timestamp="2019-05-10T19:49:46Z" uid="633013" user="Honning" version="1">
		<tag k="name" v="Saubakken" />
		<tag k="place" v="isolated_dwelling" />
		<tag k="ssr:stedsnr" v="23628" />
	</node>
	<node changeset="70122828" id="6465581170" lat="59.8955694" lon="10.4517722" timestamp="2019-05-10T19:49:46Z" uid="633013" user="Honning" version="1">
		<tag k="name" v="Jansbråtan" />
		<tag k="place" v="isolated_dwelling" />
		<tag k="ssr:stedsnr" v="23637" />
	</node>
	<node changeset="70122828" id="6465581171" lat="59.8963611" lon="10.4772722" timestamp="2019-05-10T19:49:46Z" uid="633013" user="Honning" version="1">
		<tag k="name" v="Søndre Tanum" />
		<tag k="place" v="farm" />
		<tag k="ssr:stedsnr" v="23643" />
	</node>
	<node changeset="70122828" id="6465581172" lat="59.9122056" lon="10.4585389" timestamp="2019-05-10T19:49:46Z" uid="633013" user="Honning" version="1">
		<tag k="name" v="Nordre Stovi" />
		<tag k="place" v="farm" />
		<tag k="ssr:stedsnr" v="39395" />
	</node>
	<node changeset="70122828" id="6465581173" lat="59.8870861" lon="10.6296167" timestamp="2019-05-10T19:49:46Z" uid="633013" user="Honning" version="1">
		<tag k="name" v="Hamna" />
		<tag k="place" v="isolated_dwelling" />
		<tag k="ssr:stedsnr" v="65865" />
	</node>
	<node changeset="70122828" id="6465581174" lat="59.8931972" lon="10.5679639" timestamp="2019-05-10T19:49:46Z" uid="633013" user="Honning" version="1">
		<tag k="name" v="Høvik verk" />
		<tag k="place" v="village" />
		<tag k="ssr:stedsnr" v="65869" />
	</node>
	<node changeset="70122828" id="6465581175" lat="59.9138111" lon="10.5045333" timestamp="2019-05-10T19:49:46Z" uid="633013" user="Honning" version="1">
		<tag k="alt_name" v="Hauger, nordre" />
		<tag k="name" v="Nordre Hauger" />
		<tag k="place" v="farm" />
		<tag k="ssr:stedsnr" v="65916" />
	</node>
	<node changeset="70122828" id="6465581176" lat="59.9400528" lon="10.4636028" timestamp="2019-05-10T19:49:46Z" uid="633013" user="Honning" version="1">
		<tag k="name" v="Solfjellstua" />
		<tag k="place" v="isolated_dwelling" />
		<tag k="ssr:stedsnr" v="65965" />
	</node>
	<node changeset="70122828" id="6465581177" lat="59.9499556" lon="10.5093028" timestamp="2019-05-10T19:49:46Z" uid="633013" user="Honning" version="1">
		<tag k="name" v="Grorud" />
		<tag k="place" v="farm" />
		<tag k="ssr:stedsnr" v="65971" />
	</node>
	<node changeset="70122828" id="6465581178" lat="59.9007278" lon="10.4595139" timestamp="2019-05-10T19:49:46Z" uid="633013" user="Honning" version="1">
		<tag k="name" v="Gamle Butterud" />
		<tag k="place" v="locality" />
		<tag k="ssr:stedsnr" v="82045" />
	</node>
	<node changeset="70122828" id="6465581180" lat="59.9246583" lon="10.5381417" timestamp="2019-05-10T19:49:46Z" uid="633013" user="Honning" version="1">
		<tag k="name" v="Hestebråtan" />
		<tag k="place" v="farm" />
		<tag k="ssr:stedsnr" v="82995" />
	</node>
	<node changeset="70122828" id="6465581181" lat="59.9040194" lon="10.4667611" timestamp="2019-05-10T19:49:46Z" uid="633013" user="Honning" version="1">
		<tag k="name" v="Solheim" />
		<tag k="place" v="farm" />
		<tag k="ssr:stedsnr" v="83046" />
	</node>
	<node changeset="70122828" id="6465581182" lat="59.9139861" lon="10.47285" timestamp="2019-05-10T19:49:46Z" uid="633013" user="Honning" version="1">
		<tag k="name" v="Holma" />
		<tag k="place" v="farm" />
		<tag k="ssr:stedsnr" v="83052" />
	</node>
	<node changeset="70122828" id="6465581183" lat="59.9239972" lon="10.474725" timestamp="2019-05-10T19:49:46Z" uid="633013" user="Honning" version="1">
		<tag k="name" v="Makedonien" />
		<tag k="place" v="farm" />
		<tag k="ssr:stedsnr" v="83060" />
	</node>
	<node changeset="70122828" id="6465581184" lat="59.9311472" lon="10.4380083" timestamp="2019-05-10T19:49:46Z" uid="633013" user="Honning" version="1">
		<tag k="name" v="Holmen" />
		<tag k="place" v="farm" />
		<tag k="ssr:stedsnr" v="83064" />
	</node>
	<node changeset="70122828" id="6465580736" lat="59.9303889" lon="10.498875" timestamp="2019-05-10T19:49:33Z" uid="633013" user="Honning" version="1">
		<tag k="name" v="Glitterud" />
		<tag k="place" v="isolated_dwelling" />
		<tag k="ssr:stedsnr" v="550959" />
	</node>
	<node changeset="70122828" id="611225735" lat="59.9442556" lon="10.5781083" timestamp="2019-05-10T19:49:54Z" uid="633013" user="Honning" version="2">
		<tag k="alt_name" v="Haga øvre" />
		<tag k="name" v="Øvre Haga" />
		<tag k="place" v="farm" />
		<tag k="ssr:stedsnr" v="689854" />
	</node>
	<node changeset="70122828" id="611225736" lat="59.9457389" lon="10.5893667" timestamp="2019-05-10T19:49:54Z" uid="633013" user="Honning" version="2">
		<tag k="name" v="Nordli" />
		<tag k="place" v="farm" />
		<tag k="ssr:stedsnr" v="65969" />
	</node>
	<node changeset="70122828" id="611225737" lat="59.949425" lon="10.5997833" timestamp="2019-05-10T19:49:54Z" uid="633013" user="Honning" version="2">
		<tag k="name" v="Nordby" />
		<tag k="place" v="farm" />
		<tag k="ssr:stedsnr" v="854983" />
	</node>
	<node changeset="70122828" id="6465581082" lat="59.9135778" lon="10.4083444" timestamp="2019-05-10T19:49:41Z" uid="633013" user="Honning" version="1">
		<tag k="loc_name" v="Langåshytta" />
		<tag k="name" v="Ramsåshytta" />
		<tag k="place" v="isolated_dwelling" />
		<tag k="ssr:stedsnr" v="932039" />
	</node>
	<node changeset="13572930" id="1975709856" lat="59.8941243" lon="10.4559892" timestamp="2012-10-20T20:54:49Z" uid="11992" user="vibrog" version="1" />
	<node changeset="70122828" id="6465581085" lat="59.9327444" lon="10.5372389" timestamp="2019-05-10T19:49:41Z" uid="633013" user="Honning" version="1">
		<tag k="name" v="Gorudstua" />
		<tag k="place" v="isolated_dwelling" />
		<tag k="ssr:stedsnr" v="932995" />
	</node>
	<node changeset="6597039" id="1029748932" lat="59.9494798" lon="10.5556585" timestamp="2010-12-09T17:04:41Z" uid="11992" user="vibrog" version="1" />
	<node changeset="6597272" id="1029748934" lat="59.9608385" lon="10.5443358" timestamp="2010-12-09T17:28:57Z" uid="11992" user="vibrog" version="2" />
	<node changeset="70122828" id="6465580749" lat="59.9032833" lon="10.6033278" timestamp="2019-05-10T19:49:34Z" uid="633013" user="Honning" version="1">
		<tag k="name" v="Holtet" />
		<tag k="place" v="quarter" />
		<tag k="ssr:stedsnr" v="568111" />
	</node>
	<node changeset="70122828" id="6465580999" lat="59.907" lon="10.5279944" timestamp="2019-05-10T19:49:37Z" uid="633013" user="Honning" version="1">
		<tag k="alt_name" v="Gjettum, søndre" />
		<tag k="name" v="Søndre Gjettum" />
		<tag k="place" v="farm" />
		<tag k="ssr:stedsnr" v="732887" />
	</node>
	<node changeset="16514981" id="2340954489" lat="59.9526219" lon="10.5771793" timestamp="2013-06-11T19:30:36Z" uid="11992" user="vibrog" version="1" />
	<node changeset="70122828" id="6465581285" lat="59.9089111" lon="10.6413695" timestamp="2019-05-10T19:49:46Z" uid="633013" user="Honning" version="1">
		<tag k="name" v="Godthåp" />
		<tag k="place" v="isolated_dwelling" />
		<tag k="ssr:stedsnr" v="83093" />
	</node>
	<node changeset="70122828" id="6465581286" lat="59.8877222" lon="10.4542139" timestamp="2019-05-10T19:49:46Z" uid="633013" user="Honning" version="1">
		<tag k="alt_name" v="Holo søndre" />
		<tag k="name" v="Søndre Holo" />
		<tag k="place" v="farm" />
		<tag k="ssr:stedsnr" v="83603" />
	</node>
	<node changeset="70122828" id="6465581287" lat="59.8808417" lon="10.4605722" timestamp="2019-05-10T19:49:47Z" uid="633013" user="Honning" version="1">
		<tag k="name" v="Vestre Furuset" />
		<tag k="place" v="farm" />
		<tag k="ssr:stedsnr" v="83600" />
	</node>
	<node changeset="70122828" id="6465581288" lat="59.89535" lon="10.4532694" timestamp="2019-05-10T19:49:47Z" uid="633013" user="Honning" version="1">
		<tag k="name" v="Tyskestua" />
		<tag k="place" v="isolated_dwelling" />
		<tag k="ssr:stedsnr" v="83601" />
	</node>
	<node changeset="70122828" id="6465581289" lat="59.8999917" lon="10.5646139" timestamp="2019-05-10T19:49:47Z" uid="633013" user="Honning" version="1">
		<tag k="name" v="Ramstad" />
		<tag k="place" v="farm" />
		<tag k="ssr:stedsnr" v="83897" />
	</node>
	<node changeset="73256074" id="6465581290" lat="59.8977194" lon="10.5072583" timestamp="2019-08-12T06:27:21Z" uid="9577574" user="Hungarian_user" version="2">
		<tag k="amenity" v="hospital" />
		<tag k="healthcare" v="hospital" />
		<tag k="name" v="Martina Hansens hospital" />
		<tag k="ssr:stedsnr" v="83907" />
	</node>
	<node changeset="70122828" id="6465581291" lat="59.9062528" lon="10.4905278" timestamp="2019-05-10T19:49:47Z" uid="633013" user="Honning" version="1">
		<tag k="name" v="Løxa" />
		<tag k="place" v="farm" />
		<tag k="ssr:stedsnr" v="83971" />
	</node>
	<node changeset="70122828" id="6465581292" lat="59.9047092" lon="10.5369652" timestamp="2019-05-10T19:49:47Z" uid="633013" user="Honning" version="1">
		<tag k="alt_name" v="Statens senter for epilepsi" />
		<tag k="amenity" v="nursing_home" />
		<tag k="name" v="Spesialsykehuset for epilepsi" />
		<tag k="ssr:stedsnr" v="83975" />
	</node>
	<node changeset="70122828" id="6465581295" lat="59.9671889" lon="10.47145" timestamp="2019-05-10T19:49:47Z" uid="633013" user="Honning" version="1">
		<tag k="alt_name" v="Jonsrud, nedre;Jonsrud nedre" />
		<tag k="name" v="Nedre Jonsrud" />
		<tag k="place" v="farm" />
		<tag k="ssr:stedsnr" v="124024" />
	</node>
	<node changeset="70122828" id="6465581296" lat="59.9577861" lon="10.4811667" timestamp="2019-05-10T19:49:47Z" uid="633013" user="Honning" version="1">
		<tag k="alt_name" v="Krysby" />
		<tag k="name" v="Kryssby" />
		<tag k="place" v="farm" />
		<tag k="ssr:stedsnr" v="125048" />
	</node>
	<node changeset="70122828" id="6465581297" lat="59.9552583" lon="10.3747278" timestamp="2019-05-10T19:49:47Z" uid="633013" user="Honning" version="1">
		<tag k="name" v="Avtjerna" />
		<tag k="place" v="isolated_dwelling" />
		<tag k="ssr:stedsnr" v="125053" />
	</node>
	<node changeset="70122828" id="6465581298" lat="59.8723" lon="10.5605694" timestamp="2019-05-10T19:49:47Z" uid="633013" user="Honning" version="1">
		<tag k="name" v="Prinsen" />
		<tag k="place" v="isolated_dwelling" />
		<tag k="ssr:stedsnr" v="125836" />
	</node>
	<node changeset="70122828" id="6465581299" lat="59.8739111" lon="10.5612389" timestamp="2019-05-10T19:49:47Z" uid="633013" user="Honning" version="1">
		<tag k="alt_name" v="Dronningen" />
		<tag k="name" v="Dronninga" />
		<tag k="place" v="isolated_dwelling" />
		<tag k="ssr:stedsnr" v="125837" />
	</node>
	<node changeset="70122828" id="6465581300" lat="59.9158139" lon="10.4971639" timestamp="2019-05-10T19:49:47Z" uid="633013" user="Honning" version="1">
		<tag k="name" v="Løken" />
		<tag k="place" v="farm" />
		<tag k="ssr:stedsnr" v="125915" />
	</node>
	<node changeset="70122828" id="6465581301" lat="59.9357639" lon="10.4106555" timestamp="2019-05-10T19:49:47Z" uid="633013" user="Honning" version="1">
		<tag k="name" v="Bakken" />
		<tag k="place" v="farm" />
		<tag k="ssr:stedsnr" v="125970" />
	</node>
	<node changeset="77132468" id="6465581302" lat="59.9307667" lon="10.4662333" timestamp="2019-11-15T14:28:54Z" uid="5735621" user="Ralf_Jeppsson" version="2">
		<tag k="amenity" v="social_facility=nursing_home" />
		<tag k="name" v="Løkka bo- og behandlingssenter" />
		<tag k="ssr:stedsnr" v="143054" />
		<tag k="website" v="https://www.baerum.kommune.no/om-barum-kommune/organisasjon/om-eiendom-i-baerum-kommune/prosjekter-eiendom/saubakken-19/" />
	</node>
	<node changeset="70122828" id="6465581303" lat="59.9310861" lon="10.4741889" timestamp="2019-05-10T19:49:47Z" uid="633013" user="Honning" version="1">
		<tag k="name" v="Labråtan" />
		<tag k="place" v="isolated_dwelling" />
		<tag k="ssr:stedsnr" v="143064" />
	</node>
	<node changeset="70122828" id="6465581304" lat="59.9839556" lon="10.54865" timestamp="2019-05-10T19:49:47Z" uid="633013" user="Honning" version="1">
		<tag k="name" v="Dæliseterhyttene" />
		<tag k="place" v="isolated_dwelling" />
		<tag k="ssr:stedsnr" v="143087" />
	</node>
	<node changeset="70122828" id="6465581305" lat="59.9001639" lon="10.3777194" timestamp="2019-05-10T19:49:47Z" uid="633013" user="Honning" version="1">
		<tag k="name" v="Rudsmyrhytta" />
		<tag k="place" v="isolated_dwelling" />
		<tag k="ssr:stedsnr" v="143026" />
	</node>
	<node changeset="70122828" id="6465581306" lat="59.9027778" lon="10.4698083" timestamp="2019-05-10T19:49:47Z" uid="633013" user="Honning" version="1">
		<tag k="alt_name" v="Grinibråten øvre" />
		<tag k="name" v="Øvre Grinibråten" />
		<tag k="place" v="farm" />
		<tag k="ssr:stedsnr" v="143042" />
	</node>
	<node changeset="70122828" id="6465581307" lat="59.9110583" lon="10.4587528" timestamp="2019-05-10T19:49:48Z" uid="633013" user="Honning" version="1">
		<tag k="alt_name" v="Stovi søndre" />
		<tag k="name" v="Søndre Stovi" />
		<tag k="place" v="farm" />
		<tag k="ssr:stedsnr" v="143046" />
	</node>
	<node changeset="70122828" id="6465581308" lat="59.8895833" lon="10.4529333" timestamp="2019-05-10T19:49:48Z" uid="633013" user="Honning" version="1">
		<tag k="alt_name" v="Holo nordre" />
		<tag k="name" v="Nordre Holo" />
		<tag k="place" v="farm" />
		<tag k="ssr:stedsnr" v="143600" />
	</node>
	<node changeset="70122828" id="6465581309" lat="59.9516583" lon="10.5845556" timestamp="2019-05-10T19:49:48Z" uid="633013" user="Honning" version="1">
		<tag k="alt_name" v="Ila nedre" />
		<tag k="name" v="Nedre Ila" />
		<tag k="place" v="locality" />
		<tag k="ssr:stedsnr" v="143853" />
	</node>
	<node changeset="49714732" id="4928358654" lat="59.9364403" lon="10.4635983" timestamp="2017-06-21T09:08:35Z" uid="5735621" user="Ralf_Jeppsson" version="1" />
	<node changeset="70122828" id="6465581311" lat="59.9484611" lon="10.6343472" timestamp="2019-05-10T19:49:48Z" uid="633013" user="Honning" version="1">
		<tag k="name" v="Saga II" />
		<tag k="place" v="locality" />
		<tag k="ssr:stedsnr" v="143908" />
	</node>
	<node changeset="70122828" id="6465581312" lat="59.9357111" lon="10.4951889" timestamp="2019-05-10T19:49:48Z" uid="633013" user="Honning" version="1">
		<tag k="name" v="Eplehaugen" />
		<tag k="place" v="farm" />
		<tag k="ssr:stedsnr" v="143934" />
	</node>
	<node changeset="70122828" id="6465581313" lat="59.9335056" lon="10.5019472" timestamp="2019-05-10T19:49:48Z" uid="633013" user="Honning" version="1">
		<tag k="name" v="Kjerringløkka" />
		<tag k="place" v="farm" />
		<tag k="ssr:stedsnr" v="143938" />
	</node>
	<node changeset="70122828" id="6465581314" lat="59.938725" lon="10.5219111" timestamp="2019-05-10T19:49:48Z" uid="633013" user="Honning" version="1">
		<tag k="alt_name" v="Steinskogen nordre" />
		<tag k="name" v="Nordre Steinskogen" />
		<tag k="place" v="isolated_dwelling" />
		<tag k="ssr:stedsnr" v="143942" />
	</node>
	<node changeset="49714732" id="4928358659" lat="59.9273255" lon="10.4591179" timestamp="2017-06-21T09:08:35Z" uid="5735621" user="Ralf_Jeppsson" version="1" />
	<node changeset="49714732" id="4928358660" lat="59.9275345" lon="10.4595524" timestamp="2017-06-21T09:08:35Z" uid="5735621" user="Ralf_Jeppsson" version="1" />
	<node changeset="70122828" id="6465581317" lat="59.933075" lon="10.5805722" timestamp="2019-05-10T19:49:48Z" uid="633013" user="Honning" version="1">
		<tag k="alt_name" v="Hosle østre" />
		<tag k="name" v="Østre Hosle" />
		<tag k="place" v="farm" />
		<tag k="ssr:stedsnr" v="143987" />
	</node>
	<node changeset="70122828" id="6465581318" lat="59.8909028" lon="10.4796611" timestamp="2019-05-10T19:49:48Z" uid="633013" user="Honning" version="1">
		<tag k="name" v="Lund" />
		<tag k="place" v="farm" />
		<tag k="ssr:stedsnr" v="144624" />
	</node>
	<node changeset="70122828" id="6465581319" lat="59.9884139" lon="10.4813028" timestamp="2019-05-10T19:49:48Z" uid="633013" user="Honning" version="1">
		<tag k="name" v="Tobonn" />
		<tag k="place" v="locality" />
		<tag k="ssr:stedsnr" v="181781" />
	</node>
	<node changeset="70122828" id="6465581320" lat="59.9603861" lon="10.4634806" timestamp="2019-05-10T19:49:48Z" uid="633013" user="Honning" version="1">
		<tag k="name" v="Knutsløkka" />
		<tag k="place" v="farm" />
		<tag k="ssr:stedsnr" v="186035" />
	</node>
	<node changeset="70122828" id="6465581321" lat="59.8814972" lon="10.5079889" timestamp="2019-05-10T19:49:48Z" uid="633013" user="Honning" version="1">
		<tag k="name" v="Gyssestad" />
		<tag k="place" v="isolated_dwelling" />
		<tag k="ssr:stedsnr" v="185831" />
	</node>
	<node changeset="70122828" id="6465581322" lat="59.918875" lon="10.555925" timestamp="2019-05-10T19:49:48Z" uid="633013" user="Honning" version="1">
		<tag k="name" v="Nes" />
		<tag k="place" v="farm" />
		<tag k="ssr:stedsnr" v="186914" />
	</node>
	<node changeset="70122828" id="6465581323" lat="59.9034028" lon="10.3974111" timestamp="2019-05-10T19:49:48Z" uid="633013" user="Honning" version="1">
		<tag k="name" v="Grønland" />
		<tag k="place" v="isolated_dwelling" />
		<tag k="ssr:stedsnr" v="186883" />
	</node>
	<node changeset="70122828" id="6465581324" lat="59.9125722" lon="10.4589806" timestamp="2019-05-10T19:49:49Z" uid="633013" user="Honning" version="1">
		<tag k="name" v="Stovi" />
		<tag k="old_name" v="Staavi" />
		<tag k="place" v="hamlet" />
		<tag k="ssr:stedsnr" v="186899" />
	</node>
	<node changeset="70122828" id="6465581325" lat="59.9473278" lon="10.5584528" timestamp="2019-05-10T19:49:49Z" uid="633013" user="Honning" version="1">
		<tag k="name" v="Holen" />
		<tag k="place" v="isolated_dwelling" />
		<tag k="ssr:stedsnr" v="186970" />
	</node>
	<node changeset="70122828" id="6465581326" lat="59.9480611" lon="10.4012417" timestamp="2019-05-10T19:49:49Z" uid="633013" user="Honning" version="1">
		<tag k="name" v="Løkkene" />
		<tag k="place" v="farm" />
		<tag k="ssr:stedsnr" v="186998" />
	</node>
	<node changeset="70122828" id="6465581327" lat="59.953475" lon="10.4854389" timestamp="2019-05-10T19:49:49Z" uid="633013" user="Honning" version="1">
		<tag k="alt_name" v="Haug nedre" />
		<tag k="name" v="Nedre Haug" />
		<tag k="place" v="farm" />
		<tag k="ssr:stedsnr" v="204010" />
	</node>
	<node changeset="70122828" id="6465581328" lat="59.912325" lon="10.4464444" timestamp="2019-05-10T19:49:49Z" uid="633013" user="Honning" version="1">
		<tag k="name" v="Bakken" />
		<tag k="place" v="locality" />
		<tag k="ssr:stedsnr" v="204038" />
	</node>
	<node changeset="70122828" id="6465581329" lat="59.9517889" lon="10.5068167" timestamp="2019-05-10T19:49:49Z" uid="633013" user="Honning" version="1">
		<tag k="alt_name" v="Skollerud søndre" />
		<tag k="name" v="Søndre Skollerud" />
		<tag k="place" v="farm" />
		<tag k="ssr:stedsnr" v="204083" />
	</node>
	<node changeset="70122828" id="6465581330" lat="59.9430417" lon="10.485575" timestamp="2019-05-10T19:49:49Z" uid="633013" user="Honning" version="1">
		<tag k="name" v="Gullhaug" />
		<tag k="place" v="quarter" />
		<tag k="ssr:stedsnr" v="204186" />
	</node>
	<node changeset="70122828" id="6465581331" lat="59.9323139" lon="10.5028833" timestamp="2019-05-10T19:49:49Z" uid="633013" user="Honning" version="1">
		<tag k="name" v="Kastet" />
		<tag k="place" v="farm" />
		<tag k="ssr:stedsnr" v="204953" />
	</node>
	<node changeset="70122828" id="6465581332" lat="59.9841784" lon="10.4720234" timestamp="2019-05-10T19:49:49Z" uid="633013" user="Honning" version="1">
		<tag k="alt_name" v="Åmot nordre" />
		<tag k="name" v="Nordre Åmot" />
		<tag k="place" v="farm" />
		<tag k="ssr:stedsnr" v="204963" />
	</node>
	<node changeset="70122828" id="6465581333" lat="59.98865" lon="10.4746528" timestamp="2019-05-10T19:49:49Z" uid="633013" user="Honning" version="1">
		<tag k="name" v="Torgholtet" />
		<tag k="place" v="farm" />
		<tag k="ssr:stedsnr" v="204967" />
	</node>
	<node changeset="70122828" id="6465581334" lat="59.9299556" lon="10.5522389" timestamp="2019-05-10T19:49:49Z" uid="633013" user="Honning" version="1">
		<tag k="name" v="Løkka" />
		<tag k="place" v="farm" />
		<tag k="ssr:stedsnr" v="204988" />
	</node>
	<node changeset="70122828" id="6465581335" lat="59.8848583" lon="10.44785" timestamp="2019-05-10T19:49:49Z" uid="633013" user="Honning" version="1">
		<tag k="historic" v="shieling" />
		<tag k="name" v="Kølabråtan" />
		<tag k="place" v="locality" />
		<tag k="ssr:stedsnr" v="205628" />
	</node>
	<node changeset="70122828" id="6465581336" lat="59.8904583" lon="10.4485972" timestamp="2019-05-10T19:49:49Z" uid="633013" user="Honning" version="1">
		<tag k="name" v="Seterbråten" />
		<tag k="place" v="isolated_dwelling" />
		<tag k="ssr:stedsnr" v="205631" />
	</node>
	<node changeset="49714732" id="4928358681" lat="59.9264457" lon="10.4657256" timestamp="2017-06-21T09:08:36Z" uid="5735621" user="Ralf_Jeppsson" version="1" />
	<node changeset="70122828" id="6465581338" lat="59.9391833" lon="10.4510528" timestamp="2019-05-10T19:49:49Z" uid="633013" user="Honning" version="1">
		<tag k="name" v="Bakken" />
		<tag k="place" v="farm" />
		<tag k="ssr:stedsnr" v="205078" />
	</node>
	<node changeset="70122828" id="6465581339" lat="59.96345" lon="10.4768833" timestamp="2019-05-10T19:49:49Z" uid="633013" user="Honning" version="1">
		<tag k="alt_name" v="Bjerke nedre" />
		<tag k="name" v="Nedre Bjerke" />
		<tag k="place" v="farm" />
		<tag k="ssr:stedsnr" v="205086" />
	</node>
	<node changeset="70122828" id="6465581340" lat="59.9731083" lon="10.4669806" timestamp="2019-05-10T19:49:49Z" uid="633013" user="Honning" version="1">
		<tag k="alt_name" v="Guriby søndre" />
		<tag k="name" v="Søndre Guriby" />
		<tag k="place" v="farm" />
		<tag k="ssr:stedsnr" v="205094" />
	</node>
	<node changeset="70122828" id="6465581341" lat="59.9749194" lon="10.4756694" timestamp="2019-05-10T19:49:49Z" uid="633013" user="Honning" version="1">
		<tag k="alt_name" v="Vensås nedre" />
		<tag k="name" v="Nedre Vensås" />
		<tag k="place" v="farm" />
		<tag k="ssr:stedsnr" v="205095" />
	</node>
	<node changeset="70122828" id="6465581342" lat="59.9193917" lon="10.4788695" timestamp="2019-05-10T19:49:50Z" uid="633013" user="Honning" version="1">
		<tag k="name" v="Grindstua" />
		<tag k="place" v="farm" />
		<tag k="ssr:stedsnr" v="205097" />
	</node>
	<node changeset="70122828" id="6465581343" lat="59.9201222" lon="10.4864083" timestamp="2019-05-10T19:49:50Z" uid="633013" user="Honning" version="1">
		<tag k="name" v="Bryn" />
		<tag k="place" v="farm" />
		<tag k="ssr:stedsnr" v="205098" />
	</node>
	<node changeset="70122828" id="6465581344" lat="59.9037667" lon="10.604375" timestamp="2019-05-10T19:49:50Z" uid="633013" user="Honning" version="1">
		<tag k="amenity" v="school" />
		<tag k="name" v="Holtekilen folkehøgskole" />
		<tag k="ssr:stedsnr" v="205129" />
	</node>
	<node changeset="70122828" id="6465581345" lat="59.938175" lon="10.4055528" timestamp="2019-05-10T19:49:50Z" uid="633013" user="Honning" version="1">
		<tag k="alt_name" v="Ullbråten søndre" />
		<tag k="name" v="Søndre Ullbråten" />
		<tag k="place" v="farm" />
		<tag k="ssr:stedsnr" v="205133" />
	</node>
	<node changeset="49714732" id="4928358690" lat="59.9255777" lon="10.4665404" timestamp="2017-06-21T09:08:36Z" uid="5735621" user="Ralf_Jeppsson" version="1" />
	<node changeset="6669656" id="1039468835" lat="59.9590672" lon="10.6043784" timestamp="2010-12-15T17:34:42Z" uid="11992" user="vibrog" version="1" />
	<node changeset="70122828" id="6465581348" lat="59.9761778" lon="10.4770194" timestamp="2019-05-10T19:49:50Z" uid="633013" user="Honning" version="1">
		<tag k="alt_name" v="Vensås østre" />
		<tag k="name" v="Østre Vensås" />
		<tag k="place" v="farm" />
		<tag k="ssr:stedsnr" v="205968" />
	</node>
	<node changeset="70122828" id="6465581349" lat="59.9121671" lon="10.4855133" timestamp="2019-05-10T19:49:50Z" uid="633013" user="Honning" version="1">
		<tag k="name" v="Vøyen" />
		<tag k="place" v="farm" />
		<tag k="ssr:stedsnr" v="914886;236639" />
	</node>
	<node changeset="70122828" id="6465581350" lat="59.9754583" lon="10.47615" timestamp="2019-05-10T19:49:50Z" uid="633013" user="Honning" version="1">
		<tag k="name" v="Vensås" />
		<tag k="place" v="farm" />
		<tag k="ssr:stedsnr" v="246032" />
	</node>
	<node changeset="70122828" id="6465581351" lat="59.9762583" lon="10.4688444" timestamp="2019-05-10T19:49:50Z" uid="633013" user="Honning" version="1">
		<tag k="name" v="Lommedalen" />
		<tag k="place" v="village" />
		<tag k="ssr:stedsnr" v="246045" />
	</node>
	<node changeset="70122828" id="6465581352" lat="59.9802861" lon="10.5115417" timestamp="2019-05-10T19:49:50Z" uid="633013" user="Honning" version="1">
		<tag k="name" v="Haugen" />
		<tag k="place" v="farm" />
		<tag k="ssr:stedsnr" v="247017" />
	</node>
	<node changeset="70122828" id="6465581353" lat="59.964975" lon="10.479825" timestamp="2019-05-10T19:49:50Z" uid="633013" user="Honning" version="1">
		<tag k="name" v="Kirkeby" />
		<tag k="place" v="farm" />
		<tag k="ssr:stedsnr" v="247028" />
	</node>
	<node changeset="70122828" id="6465581354" lat="59.9590373" lon="10.4766849" timestamp="2019-05-10T19:49:50Z" uid="633013" user="Honning" version="1">
		<tag k="name" v="Trulsrud" />
		<tag k="place" v="hamlet" />
		<tag k="ssr:stedsnr" v="247030" />
	</node>
	<node changeset="70122828" id="6465581355" lat="59.9813083" lon="10.4459083" timestamp="2019-05-10T19:49:50Z" uid="633013" user="Honning" version="1">
		<tag k="building" v="industrial" />
		<tag k="industrial" v="factory" />
		<tag k="name" v="Guribysaga" />
		<tag k="ssr:stedsnr" v="247104" />
	</node>
	<node changeset="70122828" id="6465581356" lat="59.9042694" lon="10.5368613" timestamp="2019-05-10T19:49:50Z" uid="633013" user="Honning" version="1">
		<tag k="name" v="Solberg" />
		<tag k="place" v="farm" />
		<tag k="ssr:stedsnr" v="247876" />
	</node>
	<node changeset="70122828" id="6465581357" lat="59.908525" lon="10.4467667" timestamp="2019-05-10T19:49:50Z" uid="633013" user="Honning" version="1">
		<tag k="name" v="Libakke" />
		<tag k="place" v="isolated_dwelling" />
		<tag k="ssr:stedsnr" v="247884" />
	</node>
	<node changeset="70122828" id="6465581358" lat="59.9070556" lon="10.5539722" timestamp="2019-05-10T19:49:50Z" uid="633013" user="Honning" version="1">
		<tag k="name" v="Løkeberg" />
		<tag k="place" v="isolated_dwelling" />
		<tag k="ssr:stedsnr" v="247890" />
	</node>
	<node changeset="70122828" id="6465581359" lat="59.9385556" lon="10.45525" timestamp="2019-05-10T19:49:50Z" uid="633013" user="Honning" version="1">
		<tag k="alt_name" v="Enli" />
		<tag k="name" v="Endli" />
		<tag k="place" v="farm" />
		<tag k="ssr:stedsnr" v="247955" />
	</node>
	<node changeset="70122828" id="6465581360" lat="59.9338556" lon="10.4701306" timestamp="2019-05-10T19:49:51Z" uid="633013" user="Honning" version="1">
		<tag k="name" v="Rykkinn" />
		<tag k="place" v="farm" />
		<tag k="ssr:stedsnr" v="247964" />
	</node>
	<node changeset="70122828" id="6465581361" lat="59.9507083" lon="10.6097111" timestamp="2019-05-10T19:49:51Z" uid="633013" user="Honning" version="1">
		<tag k="name" v="Østern" />
		<tag k="place" v="farm" />
		<tag k="ssr:stedsnr" v="247984" />
	</node>
	<node changeset="70122828" id="6465581362" lat="59.986875" lon="10.5704" timestamp="2019-05-10T19:49:51Z" uid="633013" user="Honning" version="1">
		<tag k="name" v="Åbortjernshytta" />
		<tag k="place" v="isolated_dwelling" />
		<tag k="ssr:stedsnr" v="264098" />
	</node>
	<node changeset="70122828" id="6465581363" lat="59.9103028" lon="10.6412417" timestamp="2019-05-10T19:49:51Z" uid="633013" user="Honning" version="1">
		<tag k="name" v="Odden" />
		<tag k="place" v="isolated_dwelling" />
		<tag k="ssr:stedsnr" v="264104" />
	</node>
	<node changeset="6597039" id="1029749045" lat="59.9603038" lon="10.5452263" timestamp="2010-12-09T17:04:45Z" uid="11992" user="vibrog" version="1" />
	<node changeset="70122828" id="6465581366" lat="59.9543639" lon="10.5708" timestamp="2019-05-10T19:49:51Z" uid="633013" user="Honning" version="1">
		<tag k="name" v="Øverstemarka" />
		<tag k="place" v="locality" />
		<tag k="ssr:stedsnr" v="264872" />
	</node>
	<node changeset="70122828" id="6465581367" lat="59.9591222" lon="10.5649417" timestamp="2019-05-10T19:49:51Z" uid="633013" user="Honning" version="1">
		<tag k="name" v="Nordremarka" />
		<tag k="place" v="locality" />
		<tag k="ssr:stedsnr" v="264874" />
	</node>
	<node changeset="70122828" id="6465581368" lat="59.9413361" lon="10.6116472" timestamp="2019-05-10T19:49:51Z" uid="633013" user="Honning" version="1">
		<tag k="amenity" v="hospital" />
		<tag k="name" v="Eiksåsen sykehjem" />
		<tag k="ssr:stedsnr" v="264912" />
	</node>
	<node changeset="70122828" id="6465581369" lat="59.9064722" lon="10.5141528" timestamp="2019-05-10T19:49:51Z" uid="633013" user="Honning" version="1">
		<tag k="alt_name" v="Levre søndre" />
		<tag k="name" v="Søndre Levre" />
		<tag k="place" v="farm" />
		<tag k="ssr:stedsnr" v="264990" />
	</node>
	<node changeset="70122828" id="6465581370" lat="59.9170389" lon="10.4642472" timestamp="2019-05-10T19:49:51Z" uid="633013" user="Honning" version="1">
		<tag k="name" v="Hasle" />
		<tag k="place" v="farm" />
		<tag k="ssr:stedsnr" v="265051" />
	</node>
	<node changeset="70122828" id="6465581371" lat="59.9218278" lon="10.4486917" timestamp="2019-05-10T19:49:51Z" uid="633013" user="Honning" version="1">
		<tag k="alt_name" v="Sand øvre" />
		<tag k="name" v="Øvre Sand" />
		<tag k="place" v="farm" />
		<tag k="ssr:stedsnr" v="265063" />
	</node>
	<node changeset="70122828" id="6465581372" lat="59.928125" lon="10.4466722" timestamp="2019-05-10T19:49:51Z" uid="633013" user="Honning" version="1">
		<tag k="name" v="Haugen" />
		<tag k="place" v="farm" />
		<tag k="ssr:stedsnr" v="265066" />
	</node>
	<node changeset="70122828" id="6465581374" lat="59.9392417" lon="10.4123056" timestamp="2019-05-10T19:49:51Z" uid="633013" user="Honning" version="1">
		<tag k="name" v="Bjørumsbråtan" />
		<tag k="place" v="locality" />
		<tag k="ssr:stedsnr" v="265122" />
	</node>
	<node changeset="70122828" id="6465581375" lat="59.8910889" lon="10.4983694" timestamp="2019-05-10T19:49:51Z" uid="633013" user="Honning" version="1">
		<tag k="alt_name" v="Jong vestre" />
		<tag k="name" v="Vestre Jong" />
		<tag k="place" v="farm" />
		<tag k="ssr:stedsnr" v="265548" />
	</node>
	<node changeset="70122828" id="6465581376" lat="59.88745" lon="10.496625" timestamp="2019-05-10T19:49:51Z" uid="633013" user="Honning" version="1">
		<tag k="amenity" v="sports_centre" />
		<tag k="name" v="Combihallen" />
		<tag k="ssr:stedsnr" v="265562" />
	</node>
	<node changeset="13103320" id="1913669953" lat="59.8928055" lon="10.4564573" timestamp="2012-09-14T06:01:22Z" uid="11992" user="vibrog" version="1" />
	<node changeset="70122828" id="6465581378" lat="59.8804556" lon="10.4742111" timestamp="2019-05-10T19:49:51Z" uid="633013" user="Honning" version="1">
		<tag k="name" v="Staverhagen" />
		<tag k="place" v="farm" />
		<tag k="ssr:stedsnr" v="265644" />
	</node>
	<node changeset="70122828" id="6465581380" lat="59.8626735" lon="10.5794152" timestamp="2019-05-10T19:49:52Z" uid="633013" user="Honning" version="1">
		<tag k="name" v="Lille Oust" />
		<tag k="place" v="locality" />
		<tag k="ssr:stedsnr" v="266257" />
	</node>
	<node changeset="70122828" id="6465581381" lat="59.8872583" lon="10.5069278" timestamp="2019-05-10T19:49:52Z" uid="633013" user="Honning" version="1">
		<tag k="alt_name" v="Jong;Jong søndre" />
		<tag k="name" v="Søndre Jong" />
		<tag k="place" v="farm" />
		<tag k="ssr:stedsnr" v="268228" />
	</node>
	<node changeset="70122828" id="6465581382" lat="59.969975" lon="10.4811917" timestamp="2019-05-10T19:49:52Z" uid="633013" user="Honning" version="1">
		<tag k="name" v="Tasserud" />
		<tag k="place" v="farm" />
		<tag k="ssr:stedsnr" v="428017" />
	</node>
	<node changeset="70122828" id="6465581383" lat="59.9931361" lon="10.5373528" timestamp="2019-05-10T19:49:52Z" uid="633013" user="Honning" version="1">
		<tag k="alt_name" v="Søthølet" />
		<tag k="name" v="Søtholet" />
		<tag k="place" v="isolated_dwelling" />
		<tag k="ssr:stedsnr" v="429116" />
	</node>
	<node changeset="70122828" id="6465581384" lat="59.881875" lon="10.4085139" timestamp="2019-05-10T19:49:52Z" uid="633013" user="Honning" version="1">
		<tag k="name" v="Furuholmen" />
		<tag k="ssr:stedsnr" v="429845" />
		<tag k="tourism" v="hotel" />
	</node>
	<node changeset="70122828" id="3942097975" lat="59.9328" lon="10.5805333" timestamp="2019-05-10T19:49:56Z" uid="633013" user="Honning" version="2">
		<tag k="name" v="Hosle" />
		<tag k="place" v="suburb" />
		<tag k="ssr:stedsnr" v="4965" />
	</node>
	<node changeset="70122828" id="6465581003" lat="59.9454167" lon="10.5041556" timestamp="2019-05-10T19:49:37Z" uid="633013" user="Honning" version="1">
		<tag k="name" v="Sleiverud" />
		<tag k="place" v="farm" />
		<tag k="ssr:stedsnr" v="732979" />
	</node>
	<node changeset="70122828" id="2387634512" lat="59.890075" lon="10.3930139" timestamp="2019-05-10T19:49:55Z" uid="633013" user="Honning" version="9">
		<tag k="historic" v="charcoal_pile" />
		<tag k="name" v="Persbonn" />
		<tag k="place" v="isolated_dwelling" />
		<tag k="source" v="Jan Martin Larsen (Asker og Bærum historielag)" />
		<tag k="source:name" v="Kartverket SSR" />
		<tag k="ssr:stedsnr" v="933625" />
	</node>
	<node changeset="13103320" id="1913669971" lat="59.8932526" lon="10.4566729" timestamp="2012-09-14T06:01:23Z" uid="11992" user="vibrog" version="1" />
	<node changeset="70122828" id="4327768404" lat="59.9826994" lon="10.4813857" timestamp="2019-05-10T19:49:56Z" uid="633013" user="Honning" version="2">
		<tag k="name" v="Tolverud" />
		<tag k="place" v="farm" />
		<tag k="ssr:stedsnr" v="550015" />
	</node>
	<node changeset="13103320" id="1913669973" lat="59.8933233" lon="10.4557069" timestamp="2012-09-14T06:01:23Z" uid="11992" user="vibrog" version="1" />
	<node changeset="13571124" id="1913669977" lat="59.8933961" lon="10.4586897" timestamp="2012-10-20T18:29:27Z" uid="11992" user="vibrog" version="2" />
	<node changeset="13571124" id="1913669979" lat="59.8934603" lon="10.4562519" timestamp="2012-10-20T18:29:27Z" uid="11992" user="vibrog" version="2" />
	<node changeset="13571124" id="1913669981" lat="59.8934502" lon="10.4590416" timestamp="2012-10-20T18:29:27Z" uid="11992" user="vibrog" version="2" />
	<node changeset="13571124" id="1913669984" lat="59.8934296" lon="10.4576213" timestamp="2012-10-20T18:29:27Z" uid="11992" user="vibrog" version="2" />
	<node changeset="6669656" id="1039468898" lat="59.9588044" lon="10.6030727" timestamp="2010-12-15T17:34:46Z" uid="11992" user="vibrog" version="1" />
	<node changeset="13064819" id="1909510203" lat="59.9335927" lon="10.5452582" timestamp="2012-09-11T05:20:52Z" uid="11992" user="vibrog" version="1" />
	<node changeset="70122828" id="6465580731" lat="59.9141917" lon="10.4568667" timestamp="2019-05-10T19:49:33Z" uid="633013" user="Honning" version="1">
		<tag k="name" v="Horni" />
		<tag k="place" v="farm" />
		<tag k="ssr:stedsnr" v="550888" />
	</node>
	<node changeset="26535158" id="1029749098" lat="59.9600517" lon="10.5484959" timestamp="2014-11-03T20:45:30Z" uid="11992" user="vibrog" version="2" />
	<node changeset="13571124" id="1913669995" lat="59.8938589" lon="10.4589715" timestamp="2012-10-20T18:29:27Z" uid="11992" user="vibrog" version="2" />
	<node changeset="13572930" id="1913669999" lat="59.8939606" lon="10.4564418" timestamp="2012-10-20T20:54:51Z" uid="11992" user="vibrog" version="2" />
	<node changeset="13103320" id="1913670000" lat="59.8940449" lon="10.4607689" timestamp="2012-09-14T06:01:24Z" uid="11992" user="vibrog" version="1" />
	<node changeset="16475487" id="1039468947" lat="59.9593776" lon="10.6039808" timestamp="2013-06-08T22:51:10Z" uid="11992" user="vibrog" version="2" />
	<node changeset="13103320" id="1913670004" lat="59.8942196" lon="10.4610591" timestamp="2012-09-14T06:01:24Z" uid="11992" user="vibrog" version="1" />
	<node changeset="13103320" id="1913670005" lat="59.8942446" lon="10.4557235" timestamp="2012-09-14T06:01:24Z" uid="11992" user="vibrog" version="1" />
	<node changeset="13103320" id="1913670007" lat="59.8942945" lon="10.4564614" timestamp="2012-09-14T06:01:25Z" uid="11992" user="vibrog" version="1" />
	<node changeset="13103320" id="1913670009" lat="59.8943278" lon="10.4560012" timestamp="2012-09-14T06:01:25Z" uid="11992" user="vibrog" version="1" />
	<node changeset="13571124" id="1913670010" lat="59.8943824" lon="10.4568394" timestamp="2012-10-20T18:29:27Z" uid="11992" user="vibrog" version="2" />
	<node changeset="13103320" id="1913670011" lat="59.8945107" lon="10.4591147" timestamp="2012-09-14T06:01:25Z" uid="11992" user="vibrog" version="1" />
	<node changeset="16514981" id="2340954492" lat="59.9528749" lon="10.5770189" timestamp="2013-06-11T19:30:36Z" uid="11992" user="vibrog" version="1" />
	<node changeset="70122828" id="550392190" lat="59.913975" lon="10.5350667" timestamp="2019-05-10T19:49:54Z" uid="633013" user="Honning" version="2">
		<tag k="name" v="Fleskum" />
		<tag k="place" v="farm" />
		<tag k="ssr:stedsnr" v="732900" />
	</node>
	<node changeset="6597039" id="1029749119" lat="59.9494503" lon="10.5552783" timestamp="2010-12-09T17:04:47Z" uid="11992" user="vibrog" version="1" />
	<node changeset="13064819" id="1909510208" lat="59.9337523" lon="10.5461056" timestamp="2012-09-11T05:20:52Z" uid="11992" user="vibrog" version="1" />
	<node changeset="13571124" id="1913670018" lat="59.8951234" lon="10.4573613" timestamp="2012-10-20T18:29:27Z" uid="11992" user="vibrog" version="2" />
	<node changeset="13571124" id="1913670019" lat="59.8952632" lon="10.4578152" timestamp="2012-10-20T18:29:27Z" uid="11992" user="vibrog" version="2" />
	<node changeset="6597039" id="1029749125" lat="59.9605984" lon="10.5440412" timestamp="2010-12-09T17:04:47Z" uid="11992" user="vibrog" version="1" />
	<node changeset="15946930" id="2289178689" lat="59.9563289" lon="10.5497587" timestamp="2013-05-02T14:15:25Z" uid="11992" user="vibrog" version="1" />
	<node changeset="6669656" id="1039468937" lat="59.9592487" lon="10.6008266" timestamp="2010-12-15T17:34:49Z" uid="11992" user="vibrog" version="1" />
	<node changeset="13064819" id="1909510210" lat="59.9338043" lon="10.5446474" timestamp="2012-09-11T05:20:52Z" uid="11992" user="vibrog" version="1" />
	<node changeset="15946930" id="2289178699" lat="59.9564303" lon="10.550595" timestamp="2013-05-02T14:15:25Z" uid="11992" user="vibrog" version="1" />
	<node changeset="15946930" id="2289178691" lat="59.9563465" lon="10.5503881" timestamp="2013-05-02T14:15:25Z" uid="11992" user="vibrog" version="1" />
	<node changeset="13064819" id="1909510212" lat="59.9338704" lon="10.5450697" timestamp="2012-09-11T05:20:52Z" uid="11992" user="vibrog" version="1" />
	<node changeset="6597039" id="1029749152" lat="59.9601821" lon="10.5443833" timestamp="2010-12-09T17:04:48Z" uid="11992" user="vibrog" version="1" />
	<node changeset="6597039" id="1029749154" lat="59.9490766" lon="10.5553881" timestamp="2010-12-09T17:04:48Z" uid="11992" user="vibrog" version="1" />
	<node changeset="70122828" id="4847366563" lat="59.9231528" lon="10.48905" timestamp="2019-05-10T19:49:57Z" uid="633013" user="Honning" version="2">
		<tag k="name" v="Belset" />
		<tag k="place" v="neighbourhood" />
		<tag k="ssr:stedsnr" v="307951" />
	</node>
	<node changeset="13064819" id="1909510214" lat="59.933874" lon="10.5466382" timestamp="2012-09-11T05:20:52Z" uid="11992" user="vibrog" version="1" />
	<node changeset="6669656" id="1039468966" lat="59.958736" lon="10.6007805" timestamp="2010-12-15T17:34:52Z" uid="11992" user="vibrog" version="1" />
	<node changeset="13800338" id="2003085738" lat="59.9584721" lon="10.6125802" timestamp="2012-11-08T18:30:37Z" uid="552544" user="Tovang" version="2" />
	<node changeset="70122828" id="6465581485" lat="59.8951278" lon="10.5760611" timestamp="2019-05-10T19:49:52Z" uid="633013" user="Honning" version="1">
		<tag k="name" v="Høvik" />
		<tag k="place" v="farm" />
		<tag k="ssr:stedsnr" v="429885" />
	</node>
	<node changeset="16514981" id="2340954542" lat="59.9567574" lon="10.6161412" timestamp="2013-06-11T19:30:37Z" uid="11992" user="vibrog" version="1" />
	<node changeset="70122828" id="6465581487" lat="59.9268583" lon="10.4386167" timestamp="2019-05-10T19:49:52Z" uid="633013" user="Honning" version="1">
		<tag k="name" v="Kleiva" />
		<tag k="place" v="isolated_dwelling" />
		<tag k="ssr:stedsnr" v="429945" />
	</node>
	<node changeset="70122828" id="6465581488" lat="59.9281361" lon="10.5532389" timestamp="2019-05-10T19:49:52Z" uid="633013" user="Honning" version="1">
		<tag k="alt_name" v="Godthåp rekonvalesenthjem" />
		<tag k="amenity" v="nursing_home" />
		<tag k="name" v="Godthåp" />
		<tag k="ssr:stedsnr" v="429953" />
	</node>
	<node changeset="70122828" id="6465581489" lat="59.9385806" lon="10.4513139" timestamp="2019-05-10T19:49:52Z" uid="633013" user="Honning" version="1">
		<tag k="name" v="Grinda" />
		<tag k="place" v="farm" />
		<tag k="ssr:stedsnr" v="429958" />
	</node>
	<node changeset="70122828" id="6465581490" lat="59.9415056" lon="10.4330722" timestamp="2019-05-10T19:49:52Z" uid="633013" user="Honning" version="1">
		<tag k="alt_name" v="Merkebekk øvre" />
		<tag k="name" v="Øvre Merkebekk" />
		<tag k="place" v="isolated_dwelling" />
		<tag k="ssr:stedsnr" v="447025" />
	</node>
	<node changeset="16514981" id="2340954547" lat="59.9568042" lon="10.6168893" timestamp="2013-06-11T19:30:37Z" uid="11992" user="vibrog" version="1" />
	<node changeset="70122828" id="6465581492" lat="59.9257556" lon="10.4521083" timestamp="2019-05-10T19:49:52Z" uid="633013" user="Honning" version="1">
		<tag k="name" v="Tyskland" />
		<tag k="place" v="farm" />
		<tag k="ssr:stedsnr" v="447061" />
	</node>
	<node changeset="70122828" id="6465581493" lat="59.9352528" lon="10.4660195" timestamp="2019-05-10T19:49:52Z" uid="633013" user="Honning" version="1">
		<tag k="name" v="Mallinsrud" />
		<tag k="place" v="farm" />
		<tag k="ssr:stedsnr" v="447067" />
	</node>
	<node changeset="70122828" id="6465581494" lat="59.9218083" lon="10.4810528" timestamp="2019-05-10T19:49:52Z" uid="633013" user="Honning" version="1">
		<tag k="name" v="Kullebundbråten" />
		<tag k="place" v="farm" />
		<tag k="ssr:stedsnr" v="447083" />
	</node>
	<node changeset="16514981" id="2340954551" lat="59.9568159" lon="10.617166" timestamp="2013-06-11T19:30:37Z" uid="11992" user="vibrog" version="1" />
	<node changeset="6730951" id="1055515064" lat="59.9481756" lon="10.4818064" timestamp="2010-12-21T22:39:55Z" uid="11992" user="vibrog" version="1" />
	<node changeset="16514981" id="2340954554" lat="59.956892" lon="10.6161217" timestamp="2013-06-11T19:30:37Z" uid="11992" user="vibrog" version="1" />
	<node changeset="70122828" id="6465581049" lat="59.931125" lon="10.5690444" timestamp="2019-05-10T19:49:39Z" uid="633013" user="Honning" version="1">
		<tag k="building" v="commercial" />
		<tag k="name" v="L.O.G. Prøvegartneri" />
		<tag k="ssr:stedsnr" v="811985" />
	</node>
	<node changeset="25214315" id="632650173" lat="59.8784196" lon="10.4182288" timestamp="2014-09-03T20:35:52Z" uid="11992" user="vibrog" version="4" />
	<node changeset="16514981" id="2340954561" lat="59.9569969" lon="10.6165907" timestamp="2013-06-11T19:30:37Z" uid="11992" user="vibrog" version="1" />
	<node changeset="6597039" id="1029749187" lat="59.9603247" lon="10.5475138" timestamp="2010-12-09T17:04:48Z" uid="11992" user="vibrog" version="1" />
	<node changeset="10842687" id="632650183" lat="59.8783651" lon="10.4184112" timestamp="2012-03-01T21:50:19Z" uid="11992" user="vibrog" version="2" />
	<node changeset="13064819" id="1909510220" lat="59.9340556" lon="10.5468142" timestamp="2012-09-11T05:20:53Z" uid="11992" user="vibrog" version="1" />
	<node changeset="16514981" id="2340954570" lat="59.9571529" lon="10.6167832" timestamp="2013-06-11T19:30:37Z" uid="11992" user="vibrog" version="1" />
	<node changeset="16514981" id="2340954572" lat="59.9571929" lon="10.6182156" timestamp="2013-06-11T19:30:37Z" uid="11992" user="vibrog" version="1" />
	<node changeset="25214315" id="632650189" lat="59.8786256" lon="10.4186917" timestamp="2014-09-03T20:35:52Z" uid="11992" user="vibrog" version="4" />
	<node changeset="3817191" id="632650193" lat="59.8788506" lon="10.4186572" timestamp="2010-02-07T18:09:43Z" uid="11992" user="vibrog" version="2" />
	<node changeset="6669656" id="1039469010" lat="59.9585416" lon="10.6034055" timestamp="2010-12-15T17:34:54Z" uid="11992" user="vibrog" version="1" />
	<node changeset="16514981" id="2340954579" lat="59.9573257" lon="10.6181412" timestamp="2013-06-11T19:30:37Z" uid="11992" user="vibrog" version="1" />
	<node changeset="10842687" id="632650198" lat="59.879108" lon="10.4176416" timestamp="2012-03-01T21:50:20Z" uid="11992" user="vibrog" version="2" />
	<node changeset="13064819" id="1909510223" lat="59.9343332" lon="10.5479277" timestamp="2012-09-11T05:20:53Z" uid="11992" user="vibrog" version="1" />
	<node changeset="6597272" id="1029749219" lat="59.9610033" lon="10.5447339" timestamp="2010-12-09T17:28:56Z" uid="11992" user="vibrog" version="2" />
	<node changeset="70122828" id="6465581008" lat="59.9338444" lon="10.4346944" timestamp="2019-05-10T19:49:37Z" uid="633013" user="Honning" version="1">
		<tag k="name" v="Nordby" />
		<tag k="place" v="isolated_dwelling" />
		<tag k="ssr:stedsnr" v="750053" />
	</node>
	<node changeset="13064819" id="1909510225" lat="59.9344522" lon="10.5465251" timestamp="2012-09-11T05:20:53Z" uid="11992" user="vibrog" version="1" />
	<node changeset="6597039" id="1029749235" lat="59.9492362" lon="10.5561733" timestamp="2010-12-09T17:04:49Z" uid="11992" user="vibrog" version="1" />
	<node changeset="13064819" id="1909510228" lat="59.9345542" lon="10.5449377" timestamp="2012-09-11T05:20:53Z" uid="11992" user="vibrog" version="1" />
	<node changeset="12924143" id="1890677251" lat="59.9347301" lon="10.5565115" timestamp="2012-08-30T22:00:43Z" uid="11992" user="vibrog" version="1" />
	<node changeset="13064819" id="1909510230" lat="59.9345624" lon="10.5458794" timestamp="2012-09-11T05:20:53Z" uid="11992" user="vibrog" version="1" />
	<node changeset="70122828" id="653777417" lat="59.9797407" lon="10.4657207" timestamp="2019-05-10T19:49:54Z" uid="633013" user="Honning" version="3">
		<tag k="name" v="By" />
		<tag k="note:no" v="Lommedalens første gård (ryddet for 3000 år siden)?" />
		<tag k="ojo:iid" v="1" />
		<tag k="place" v="farm" />
		<tag k="ssr:stedsnr" v="610018" />
	</node>
	<node changeset="6597039" id="1029749262" lat="59.9598107" lon="10.5478614" timestamp="2010-12-09T17:04:50Z" uid="11992" user="vibrog" version="1" />
	<node changeset="25214315" id="632650157" lat="59.8788121" lon="10.4175394" timestamp="2014-09-03T20:35:52Z" uid="11992" user="vibrog" version="4" />
	<node changeset="13064819" id="1909510232" lat="59.9345845" lon="10.5464836" timestamp="2012-09-11T05:20:53Z" uid="11992" user="vibrog" version="1" />
	<node changeset="70122828" id="6465581486" lat="59.9183778" lon="10.4306" timestamp="2019-05-10T19:49:52Z" uid="633013" user="Honning" version="1">
		<tag k="alt_name" v="Persbråten" />
		<tag k="name" v="Persbråtan" />
		<tag k="place" v="farm" />
		<tag k="ssr:stedsnr" v="429940" />
	</node>
	<node changeset="70122828" id="6465580737" lat="59.9543583" lon="10.4818361" timestamp="2019-05-10T19:49:33Z" uid="633013" user="Honning" version="1">
		<tag k="alt_name" v="Haug nordre" />
		<tag k="name" v="Nordre Haug" />
		<tag k="place" v="farm" />
		<tag k="ssr:stedsnr" v="567017" />
	</node>
	<node changeset="13064819" id="1909510234" lat="59.9350112" lon="10.5470579" timestamp="2012-09-11T05:20:53Z" uid="11992" user="vibrog" version="1" />
	<node changeset="70122828" id="6465581010" lat="59.9341694" lon="10.4761139" timestamp="2019-05-10T19:49:37Z" uid="633013" user="Honning" version="1">
		<tag k="amenity" v="nursing_home" />
		<tag k="name" v="Sjømennenes helseheim" />
		<tag k="ssr:stedsnr" v="750062" />
	</node>
	<node changeset="6603601" id="1029748827" lat="59.9489355" lon="10.5558084" timestamp="2010-12-10T10:12:32Z" uid="11992" user="vibrog" version="2" />
	<node changeset="70122828" id="306833961" lat="59.9169" lon="10.5342722" timestamp="2019-05-10T19:49:53Z" uid="633013" user="Honning" version="3">
		<tag k="name" v="Dæli" />
		<tag k="place" v="farm" />
		<tag k="ssr:stedsnr" v="732901" />
	</node>
	<node changeset="70122828" id="6465581491" lat="59.904825" lon="10.3897528" timestamp="2019-05-10T19:49:52Z" uid="633013" user="Honning" version="1">
		<tag k="name" v="Tanumvollen" />
		<tag k="place" v="locality" />
		<tag k="ssr:stedsnr" v="447026" />
	</node>
	<node changeset="13064819" id="1909510238" lat="59.9351715" lon="10.5467859" timestamp="2012-09-11T05:20:53Z" uid="11992" user="vibrog" version="1" />
	<node changeset="6669656" id="1039469124" lat="59.9584167" lon="10.603892" timestamp="2010-12-15T17:35:01Z" uid="11992" user="vibrog" version="1" />
	<node changeset="6730951" id="1055515206" lat="59.9481296" lon="10.483369" timestamp="2010-12-21T22:40:00Z" uid="11992" user="vibrog" version="1" />
	<node changeset="70122828" id="6465581495" lat="59.9141944" lon="10.6363167" timestamp="2019-05-10T19:49:52Z" uid="633013" user="Honning" version="1">
		<tag k="name" v="Lysaker mølle" />
		<tag k="place" v="quarter" />
		<tag k="ssr:stedsnr" v="447091" />
	</node>
	<node changeset="70122828" id="6465581496" lat="59.8793889" lon="10.5065722" timestamp="2019-05-10T19:49:52Z" uid="633013" user="Honning" version="1">
		<tag k="building" v="commercial" />
		<tag k="name" v="Sjøengen" />
		<tag k="ssr:stedsnr" v="447515" />
	</node>
	<node changeset="70122828" id="4537893646" lat="59.9338694" lon="10.5538667" timestamp="2019-05-10T19:49:57Z" uid="633013" user="Honning" version="2">
		<tag k="historic" v="croft" />
		<tag k="name" v="Gardlaus" />
		<tag k="operator" v="Bærum kommune" />
		<tag k="place" v="isolated_dwelling" />
		<tag k="ssr:stedsnr" v="932981" />
	</node>
	<node changeset="6730951" id="1055515238" lat="59.948194" lon="10.481304" timestamp="2010-12-21T22:40:01Z" uid="11992" user="vibrog" version="1" />
	<node changeset="70122828" id="127898219" lat="59.9177484" lon="10.5873302" timestamp="2019-05-10T19:49:53Z" uid="633013" user="Honning" version="7">
		<tag k="name" v="Bekkestua" />
		<tag k="name:lt" v="Bekestua" />
		<tag k="place" v="suburb" />
		<tag k="ssr:stedsnr" v="816967" />
		<tag k="wikidata" v="Q4129837" />
		<tag k="wikipedia" v="en:Bekkestua" />
	</node>
	<node changeset="6597039" id="1029749356" lat="59.9495473" lon="10.5550351" timestamp="2010-12-09T17:04:51Z" uid="11992" user="vibrog" version="1" />
	<node changeset="16514981" id="2340954557" lat="59.9569505" lon="10.6177933" timestamp="2013-06-11T19:30:37Z" uid="11992" user="vibrog" version="1" />
	<node changeset="6730951" id="1055515253" lat="59.9554943" lon="10.5092441" timestamp="2010-12-21T22:40:01Z" uid="11992" user="vibrog" version="1" />
	<node changeset="58520958" id="5585767035" lat="59.9174816" lon="10.5777374" timestamp="2018-04-29T08:22:58Z" uid="4999695" user="Da9l" version="1" />
	<node changeset="6669656" id="1039469183" lat="59.958918" lon="10.6014001" timestamp="2010-12-15T17:35:04Z" uid="11992" user="vibrog" version="1" />
	<node changeset="16382020" id="2328412800" lat="59.9744337" lon="10.6073011" timestamp="2013-06-01T19:20:07Z" uid="11992" user="vibrog" version="1" />
	<node changeset="16382020" id="2328412802" lat="59.9744688" lon="10.6084468" timestamp="2013-06-01T19:20:07Z" uid="11992" user="vibrog" version="1" />
	<node changeset="16382020" id="2328412805" lat="59.9745468" lon="10.607683" timestamp="2013-06-01T19:20:07Z" uid="11992" user="vibrog" version="1" />
	<node changeset="16382020" id="2328412807" lat="59.9747418" lon="10.6080571" timestamp="2013-06-01T19:20:07Z" uid="11992" user="vibrog" version="1" />
	<node changeset="16382020" id="2328412808" lat="59.974929" lon="10.6075817" timestamp="2013-06-01T19:20:07Z" uid="11992" user="vibrog" version="1" />
	<node changeset="16382020" id="2328412809" lat="59.9750343" lon="10.6077843" timestamp="2013-06-01T19:20:07Z" uid="11992" user="vibrog" version="1" />
	<node changeset="6597039" id="1029749387" lat="59.9602601" lon="10.5446218" timestamp="2010-12-09T17:04:52Z" uid="11992" user="vibrog" version="1" />
	<node changeset="70122828" id="3380040332" lat="59.902475" lon="10.50105" timestamp="2019-05-10T19:49:55Z" uid="633013" user="Honning" version="2">
		<tag k="name" v="Dønski" />
		<tag k="place" v="suburb" />
		<tag k="ssr:stedsnr" v="550881" />
	</node>
	<node changeset="70122828" id="3380040333" lat="59.896375" lon="10.5033667" timestamp="2019-05-10T19:49:55Z" uid="633013" user="Honning" version="2">
		<tag k="name" v="Hamang" />
		<tag k="place" v="neighbourhood" />
		<tag k="ssr:stedsnr" v="4870" />
	</node>
	<node changeset="70122828" id="3380040334" lat="59.9006806" lon="10.4860417" timestamp="2019-05-10T19:49:55Z" uid="633013" user="Honning" version="2">
		<tag k="name" v="Haug" />
		<tag k="place" v="neighbourhood" />
		<tag k="ssr:stedsnr" v="125900" />
	</node>
	<node changeset="70122828" id="3380040335" lat="59.9064" lon="10.51085" timestamp="2019-05-10T19:49:56Z" uid="633013" user="Honning" version="2">
		<tag k="name" v="Levre" />
		<tag k="place" v="neighbourhood" />
		<tag k="ssr:stedsnr" v="307885" />
	</node>
	<node changeset="70122828" id="3380040336" lat="59.9084583" lon="10.4747556" timestamp="2019-05-10T19:49:56Z" uid="633013" user="Honning" version="2">
		<tag k="name" v="Vøyenenga" />
		<tag k="place" v="suburb" />
		<tag k="ssr:stedsnr" v="125905" />
	</node>
	<node changeset="16381976" id="2328410782" lat="59.9695433" lon="10.6117196" timestamp="2013-06-01T19:17:02Z" uid="11992" user="vibrog" version="1" />
	<node changeset="16381976" id="2328410783" lat="59.9696222" lon="10.6122009" timestamp="2013-06-01T19:17:02Z" uid="11992" user="vibrog" version="1" />
	<node changeset="16381976" id="2328410784" lat="59.9700612" lon="10.6114308" timestamp="2013-06-01T19:17:02Z" uid="11992" user="vibrog" version="1" />
	<node changeset="16381976" id="2328410785" lat="59.9700879" lon="10.6126394" timestamp="2013-06-01T19:17:02Z" uid="11992" user="vibrog" version="1" />
	<node changeset="16381976" id="2328410786" lat="59.9701843" lon="10.6118586" timestamp="2013-06-01T19:17:02Z" uid="11992" user="vibrog" version="1" />
	<node changeset="16381976" id="2328410787" lat="59.970211" lon="10.6124362" timestamp="2013-06-01T19:17:02Z" uid="11992" user="vibrog" version="1" />
	<node changeset="16381976" id="2328410788" lat="59.9702806" lon="10.6115056" timestamp="2013-06-01T19:17:02Z" uid="11992" user="vibrog" version="1" />
	<node changeset="13450239" id="1957965254" lat="59.9179768" lon="10.5778983" timestamp="2012-10-11T06:23:02Z" uid="11992" user="vibrog" version="1" />
	<node changeset="6597039" id="1029749414" lat="59.9602378" lon="10.5473625" timestamp="2010-12-09T17:04:53Z" uid="11992" user="vibrog" version="1" />
	<node changeset="6669656" id="1039469227" lat="59.9593897" lon="10.6003913" timestamp="2010-12-15T17:35:08Z" uid="11992" user="vibrog" version="1" />
	<node changeset="6730951" id="1055515308" lat="59.9482278" lon="10.4841166" timestamp="2010-12-21T22:40:03Z" uid="11992" user="vibrog" version="1" />
	<node changeset="6669656" id="1039469233" lat="59.958766" lon="10.6043016" timestamp="2010-12-15T17:35:08Z" uid="11992" user="vibrog" version="1" />
	<node changeset="6597272" id="1029749426" lat="59.9609248" lon="10.5443868" timestamp="2010-12-09T17:28:34Z" uid="11992" user="vibrog" version="2" />
	<node changeset="6597039" id="1029748778" lat="59.9603696" lon="10.5441406" timestamp="2010-12-09T17:04:36Z" uid="11992" user="vibrog" version="1" />
	<node changeset="70122828" id="560491192" lat="59.9437056" lon="10.5748555" timestamp="2019-05-10T19:49:54Z" uid="633013" user="Honning" version="3">
		<tag k="alt_name" v="Haga nedre" />
		<tag k="name" v="Nedre Haga" />
		<tag k="place" v="farm" />
		<tag k="ssr:stedsnr" v="83877" />
	</node>
	<node changeset="70122828" id="343454393" lat="59.894989" lon="10.4603502" timestamp="2019-05-10T19:49:53Z" uid="633013" user="Honning" version="5" />
	<node changeset="6587957" id="567284418" lat="59.9349864" lon="10.5560948" timestamp="2010-12-08T18:34:12Z" uid="11992" user="vibrog" version="2" />
	<node changeset="6587957" id="567284420" lat="59.9345053" lon="10.5566604" timestamp="2010-12-08T18:34:18Z" uid="11992" user="vibrog" version="2" />
	<node changeset="13064819" id="1909510236" lat="59.9350994" lon="10.5460234" timestamp="2012-09-11T05:20:53Z" uid="11992" user="vibrog" version="1" />
	<node changeset="6587957" id="567284423" lat="59.9354064" lon="10.5570106" timestamp="2010-12-08T18:34:06Z" uid="11992" user="vibrog" version="2" />
	<node changeset="6587957" id="567284424" lat="59.9353035" lon="10.5571291" timestamp="2010-12-08T18:34:13Z" uid="11992" user="vibrog" version="2" />
	<node changeset="6669656" id="1039469258" lat="59.9593043" lon="10.6031623" timestamp="2010-12-15T17:35:10Z" uid="11992" user="vibrog" version="1" />
	<node changeset="6597039" id="1029749453" lat="59.9494417" lon="10.5559283" timestamp="2010-12-09T17:04:54Z" uid="11992" user="vibrog" version="1" />
	<node changeset="6597039" id="1029749457" lat="59.9609091" lon="10.545324" timestamp="2010-12-09T17:04:54Z" uid="11992" user="vibrog" version="1" />
	<node changeset="70122828" id="343454418" lat="59.9222364" lon="10.4478335" timestamp="2019-05-10T19:49:53Z" uid="633013" user="Honning" version="3">
		<tag k="name" v="Sand" />
		<tag k="place" v="hamlet" />
		<tag k="ssr:stedsnr" v="854932" />
	</node>
	<node changeset="13571124" id="1975538387" lat="59.8934001" lon="10.458412" timestamp="2012-10-20T18:29:17Z" uid="11992" user="vibrog" version="1" />
	<node changeset="13571124" id="1975538392" lat="59.893459" lon="10.4582639" timestamp="2012-10-20T18:29:17Z" uid="11992" user="vibrog" version="1" />
	<node changeset="15946930" id="2289178710" lat="59.9566595" lon="10.5493449" timestamp="2013-05-02T14:15:25Z" uid="11992" user="vibrog" version="1" />
	<node changeset="70122828" id="2988094182" lat="59.971675" lon="10.3885" timestamp="2019-05-10T19:49:55Z" uid="633013" user="Honning" version="4">
		<tag k="alt_name" v="Frognerseter" />
		<tag k="historic" v="shieling" />
		<tag k="historic:operator" v="Berger;Frogner" />
		<tag k="name" v="Knappnæring" />
		<tag k="place" v="isolated_dwelling" />
		<tag k="ssr:stedsnr" v="610030" />
	</node>
	<node changeset="6669656" id="1039469294" lat="59.9589294" lon="10.6033287" timestamp="2010-12-15T17:35:12Z" uid="11992" user="vibrog" version="1" />
	<node changeset="26535158" id="1029749499" lat="59.9601219" lon="10.5484751" timestamp="2014-11-03T20:45:30Z" uid="11992" user="vibrog" version="2" />
	<node changeset="70122828" id="343462661" lat="59.902025" lon="10.4599278" timestamp="2019-05-10T19:49:53Z" uid="633013" user="Honning" version="3">
		<tag k="name" v="Butterud" />
		<tag k="place" v="farm" />
		<tag k="ssr:stedsnr" v="914879" />
	</node>
	<node changeset="6597039" id="1029749517" lat="59.9494325" lon="10.5545793" timestamp="2010-12-09T17:04:55Z" uid="11992" user="vibrog" version="1" />
	<node changeset="6669656" id="1039469326" lat="59.9594051" lon="10.6006064" timestamp="2010-12-15T17:35:14Z" uid="11992" user="vibrog" version="1" />
	<node changeset="6597272" id="1029749522" lat="59.9610148" lon="10.544953" timestamp="2010-12-09T17:28:33Z" uid="11992" user="vibrog" version="2" />
	<node changeset="70122828" id="550276227" lat="59.9444278" lon="10.4275639" timestamp="2019-05-10T19:49:54Z" uid="633013" user="Honning" version="2">
		<tag k="name" v="Engebråtan" />
		<tag k="place" v="farm" />
		<tag k="ssr:stedsnr" v="429997" />
	</node>
	<node changeset="6597039" id="1029749544" lat="59.9490192" lon="10.5547481" timestamp="2010-12-09T17:04:56Z" uid="11992" user="vibrog" version="1" />
	<node changeset="6730951" id="1055515462" lat="59.9559353" lon="10.5093284" timestamp="2010-12-21T22:40:09Z" uid="11992" user="vibrog" version="1" />
	<node changeset="70122828" id="2337831751" lat="59.9525083" lon="10.6027972" timestamp="2019-05-10T19:49:55Z" uid="633013" user="Honning" version="2">
		<tag k="name" v="Dæli" />
		<tag k="place" v="farm" />
		<tag k="ssr:stedsnr" v="671985" />
	</node>
	<node changeset="6730951" id="1055515484" lat="59.9482922" lon="10.483755" timestamp="2010-12-21T22:40:10Z" uid="11992" user="vibrog" version="1" />
	<node changeset="15946930" id="2289178715" lat="59.9568182" lon="10.5500976" timestamp="2013-05-02T14:15:25Z" uid="11992" user="vibrog" version="1" />
	<node changeset="14541891" id="2096967487" lat="59.9590975" lon="10.503512" timestamp="2013-01-05T21:05:13Z" uid="11992" user="vibrog" version="1" />
	<node changeset="7511462" id="1195125911" lat="59.9481441" lon="10.3615269" timestamp="2011-03-10T07:45:59Z" uid="11992" user="vibrog" version="1" />
	<node changeset="70122828" id="4331975567" lat="59.9491667" lon="10.4008861" timestamp="2019-05-10T19:49:57Z" uid="633013" user="Honning" version="2">
		<tag k="alt_name" v="Løkken øvre" />
		<tag k="name" v="Øvre Løkken" />
		<tag k="place" v="farm" />
		<tag k="ssr:stedsnr" v="82009" />
	</node>
	<node changeset="14541891" id="2096967491" lat="59.9596352" lon="10.5016134" timestamp="2013-01-05T21:05:13Z" uid="11992" user="vibrog" version="1" />
	<node changeset="70122828" id="3096851354" lat="59.9276583" lon="10.4987583" timestamp="2019-05-10T19:49:55Z" uid="633013" user="Honning" version="2">
		<tag k="alt_name" v="Hammarbakken" />
		<tag k="name" v="Hammerbakken" />
		<tag k="old_name" v="Hamarbakken" />
		<tag k="place" v="neighbourhood" />
		<tag k="ssr:stedsnr" v="368955" />
	</node>
	<node changeset="70122828" id="6465581023" lat="59.8938222" lon="10.5125" timestamp="2019-05-10T19:49:38Z" uid="633013" user="Honning" version="1">
		<tag k="name" v="Øde Hamang" />
		<tag k="place" v="farm" />
		<tag k="ssr:stedsnr" v="751566" />
	</node>
	<node changeset="70122828" id="128703406" lat="59.8803013" lon="10.6077418" timestamp="2019-05-10T19:49:53Z" uid="633013" user="Honning" version="3">
		<tag k="name" v="Snarøya" />
		<tag k="place" v="suburb" />
		<tag k="ssr:stedsnr" v="981122" />
	</node>
	<node changeset="14541891" id="2096967497" lat="59.9602032" lon="10.5029447" timestamp="2013-01-05T21:05:13Z" uid="11992" user="vibrog" version="1" />
	<node changeset="70122828" id="550181823" lat="59.9202056" lon="10.4200306" timestamp="2019-05-10T19:49:53Z" uid="633013" user="Honning" version="3">
		<tag k="abandoned" v="yes" />
		<tag k="name" v="Risfjellkastet" />
		<tag k="place" v="isolated_dwelling" />
		<tag k="ssr:stedsnr" v="125941" />
	</node>
	<node changeset="70122828" id="6465581024" lat="59.9698611" lon="10.4645639" timestamp="2019-05-10T19:49:38Z" uid="633013" user="Honning" version="1">
		<tag k="alt_name" v="Jonsrud, øvre;Jonsrud øvre" />
		<tag k="name" v="Øvre Jonsrud" />
		<tag k="place" v="farm" />
		<tag k="ssr:stedsnr" v="792031" />
	</node>
	<node changeset="63988381" id="6023060430" lat="59.9751921" lon="10.6076163" timestamp="2018-10-29T19:07:23Z" uid="4198735" user="michalzz" version="1" />
	<node changeset="16752347" id="2365723606" lat="59.9351794" lon="10.558507" timestamp="2013-06-29T14:01:35Z" uid="11992" user="vibrog" version="1" />
	<node changeset="16752347" id="2365723607" lat="59.9354335" lon="10.5582103" timestamp="2013-06-29T14:01:35Z" uid="11992" user="vibrog" version="1" />
	<node changeset="70122828" id="3194823640" lat="59.8861472" lon="10.4113694" timestamp="2019-05-10T19:49:55Z" uid="633013" user="Honning" version="2">
		<tag k="historic" v="croft" />
		<tag k="name" v="Tranby" />
		<tag k="place" v="isolated_dwelling" />
		<tag k="ssr:stedsnr" v="933632" />
	</node>
	<node changeset="16752347" id="2365723609" lat="59.9355305" lon="10.5583645" timestamp="2013-06-29T14:01:35Z" uid="11992" user="vibrog" version="1" />
	<node changeset="16752347" id="2365723610" lat="59.9355664" lon="10.5586228" timestamp="2013-06-29T14:01:35Z" uid="11992" user="vibrog" version="1" />
	<node changeset="6730951" id="1055515638" lat="59.9480559" lon="10.4824866" timestamp="2010-12-21T22:40:14Z" uid="11992" user="vibrog" version="1" />
	<node changeset="16475487" id="1137945616" lat="59.9582985" lon="10.6131444" timestamp="2013-06-08T22:51:10Z" uid="11992" user="vibrog" version="3" />
	<node changeset="70122828" id="3549551636" lat="59.9869" lon="10.4652417" timestamp="2019-05-10T19:49:56Z" uid="633013" user="Honning" version="3">
		<tag k="name" v="Jordbærhaugen" />
		<tag k="place" v="farm" />
		<tag k="ssr:stedsnr" v="429087" />
		<tag k="website" v="https://bibliotek.baerum.kommune.no/lokalhistorie/Husmannsplasser/Jordbarhaugen/" />
	</node>
	<node changeset="70122828" id="619367447" lat="59.9699861" lon="10.4217667" timestamp="2019-05-10T19:49:54Z" uid="633013" user="Honning" version="2">
		<tag k="name" v="Rognlia" />
		<tag k="place" v="farm" />
		<tag k="ssr:stedsnr" v="610028" />
	</node>
	<node changeset="70122828" id="127833112" lat="59.9414806" lon="10.5027306" timestamp="2019-05-10T19:49:53Z" uid="633013" user="Honning" version="3">
		<tag k="name" v="Bærums Verk" />
		<tag k="place" v="suburb" />
		<tag k="ssr:stedsnr" v="854972" />
	</node>
	<node changeset="70122828" id="559100968" lat="59.922175" lon="10.5325139" timestamp="2019-05-10T19:49:54Z" uid="633013" user="Honning" version="3">
		<tag k="name" v="Dalbo" />
		<tag k="place" v="farm" />
		<tag k="ssr:stedsnr" v="914906" />
	</node>
	<node changeset="70122828" id="3541861421" lat="59.9866944" lon="10.5181444" timestamp="2019-05-10T19:49:56Z" uid="633013" user="Honning" version="4">
		<tag k="historic" v="shieling" />
		<tag k="historic:operator" v="Muserud;Skollerud" />
		<tag k="name" v="Barlinddalen" />
		<tag k="place" v="locality" />
		<tag k="ssr:stedsnr" v="22933" />
	</node>
	<node changeset="70122828" id="3942097971" lat="59.9429556" lon="10.6043778" timestamp="2019-05-10T19:49:56Z" uid="633013" user="Honning" version="2">
		<tag k="name" v="Østerås" />
		<tag k="place" v="village" />
		<tag k="ssr:stedsnr" v="871903" />
	</node>
	<node changeset="70122828" id="3942097973" lat="59.9604861" lon="10.6245389" timestamp="2019-05-10T19:49:56Z" uid="633013" user="Honning" version="2">
		<tag k="name" v="Fossum" />
		<tag k="place" v="quarter" />
		<tag k="ssr:stedsnr" v="567932" />
	</node>
	<node changeset="70122828" id="3942097974" lat="59.9241194" lon="10.6180722" timestamp="2019-05-10T19:49:56Z" uid="633013" user="Honning" version="2">
		<tag k="name" v="Jar" />
		<tag k="place" v="suburb" />
		<tag k="ssr:stedsnr" v="204911" />
	</node>
	<node changeset="6597039" id="1029749257" lat="59.9605379" lon="10.5454058" timestamp="2010-12-09T17:04:50Z" uid="11992" user="vibrog" version="1" />
	<node changeset="70122828" id="3597268039" lat="59.8911111" lon="10.4644167" timestamp="2019-05-10T19:49:56Z" uid="633013" user="Honning" version="2">
		<tag k="name" v="Bjerke" />
		<tag k="place" v="farm" />
		<tag k="ssr:stedsnr" v="186861" />
	</node>
	<node changeset="70122828" id="3597268040" lat="59.8877167" lon="10.4664667" timestamp="2019-05-10T19:49:56Z" uid="633013" user="Honning" version="2">
		<tag k="name" v="Bjerketun" />
		<tag k="place" v="isolated_dwelling" />
		<tag k="species" v="N50 map" />
		<tag k="ssr:stedsnr" v="793862" />
	</node>
	<node changeset="6669656" id="1039469073" lat="59.9591462" lon="10.6012823" timestamp="2010-12-15T17:34:58Z" uid="11992" user="vibrog" version="1" />
	<node changeset="26535158" id="3165500522" lat="59.960451" lon="10.5480024" timestamp="2014-11-03T20:45:27Z" uid="11992" user="vibrog" version="1" />
	<node changeset="7511462" id="1195125867" lat="59.9475673" lon="10.3618889" timestamp="2011-03-10T07:45:57Z" uid="11992" user="vibrog" version="1" />
	<node changeset="7511462" id="1195125870" lat="59.9467761" lon="10.3613623" timestamp="2011-03-10T07:45:57Z" uid="11992" user="vibrog" version="1" />
	<node changeset="70122828" id="506905714" lat="59.8857557" lon="10.5269704" timestamp="2019-05-10T19:49:53Z" uid="633013" user="Honning" version="3">
		<tag k="alt_name" v="Kjørbo" />
		<tag k="historic" v="farm" />
		<tag k="name" v="Kjørbo" />
		<tag k="place" v="farm" />
		<tag k="ssr:stedsnr" v="549827" />
	</node>
	<node changeset="70122828" id="550276218" lat="59.9293625" lon="10.4413158" timestamp="2019-05-10T19:49:53Z" uid="633013" user="Honning" version="2">
		<tag k="name" v="Smedstad" />
		<tag k="place" v="isolated_dwelling" />
		<tag k="ssr:stedsnr" v="671937" />
	</node>
	<node changeset="7511462" id="1195125885" lat="59.946362" lon="10.3633114" timestamp="2011-03-10T07:45:58Z" uid="11992" user="vibrog" version="1" />
	<node changeset="7511462" id="1195125887" lat="59.9469327" lon="10.360918" timestamp="2011-03-10T07:45:58Z" uid="11992" user="vibrog" version="1" />
	<node changeset="7511462" id="1195125891" lat="59.9470398" lon="10.3636004" timestamp="2011-03-10T07:45:58Z" uid="11992" user="vibrog" version="1" />
	<node changeset="7511462" id="1195125896" lat="59.9475838" lon="10.3613459" timestamp="2011-03-10T07:45:58Z" uid="11992" user="vibrog" version="1" />
	<node changeset="7511462" id="1195125899" lat="59.947114" lon="10.3615598" timestamp="2011-03-10T07:45:58Z" uid="11992" user="vibrog" version="1" />
	<node changeset="7511462" id="1195125901" lat="59.9477239" lon="10.3617408" timestamp="2011-03-10T07:45:58Z" uid="11992" user="vibrog" version="1" />
	<node changeset="70122828" id="1296680078" lat="59.9354583" lon="10.4240639" timestamp="2019-05-10T19:49:55Z" uid="633013" user="Honning" version="2">
		<tag k="name" v="Solstad" />
		<tag k="place" v="farm" />
		<tag k="ssr:stedsnr" v="307960" />
	</node>
	<node changeset="7511462" id="1195125910" lat="59.9463888" lon="10.3616915" timestamp="2011-03-10T07:45:59Z" uid="11992" user="vibrog" version="1" />
	<node changeset="16475487" id="2337674391" lat="59.9580339" lon="10.6124742" timestamp="2013-06-08T22:51:04Z" uid="11992" user="vibrog" version="1" />
	<node changeset="16475487" id="2337674392" lat="59.9580411" lon="10.6127416" timestamp="2013-06-08T22:51:04Z" uid="11992" user="vibrog" version="1" />
	<node changeset="16475487" id="2337674394" lat="59.9580817" lon="10.6117103" timestamp="2013-06-08T22:51:04Z" uid="11992" user="vibrog" version="1" />
	<node changeset="16475487" id="2337674396" lat="59.9583518" lon="10.6118679" timestamp="2013-06-08T22:51:04Z" uid="11992" user="vibrog" version="1" />
	<node changeset="12924143" id="1028378676" lat="59.9346169" lon="10.5565415" timestamp="2012-08-30T22:01:06Z" uid="11992" user="vibrog" version="2" />
	<node changeset="7511462" id="1195125921" lat="59.9475178" lon="10.363551" timestamp="2011-03-10T07:45:59Z" uid="11992" user="vibrog" version="1" />
	<node changeset="7511462" id="1195125926" lat="59.9470563" lon="10.3613459" timestamp="2011-03-10T07:45:59Z" uid="11992" user="vibrog" version="1" />
	<node changeset="7511462" id="1195125934" lat="59.9479958" lon="10.3618231" timestamp="2011-03-10T07:45:59Z" uid="11992" user="vibrog" version="1" />
	<node changeset="7511462" id="1195125938" lat="59.9462745" lon="10.3629439" timestamp="2011-03-10T07:46:00Z" uid="11992" user="vibrog" version="1" />
	<node changeset="7511462" id="1195125939" lat="59.9480782" lon="10.3608851" timestamp="2011-03-10T07:46:00Z" uid="11992" user="vibrog" version="1" />
	<node changeset="16475487" id="2337674424" lat="59.9593746" lon="10.6035917" timestamp="2013-06-08T22:51:04Z" uid="11992" user="vibrog" version="1" />
	<node changeset="7511462" id="1195125951" lat="59.9476827" lon="10.363189" timestamp="2011-03-10T07:46:00Z" uid="11992" user="vibrog" version="1" />
	<node changeset="7511462" id="1195125956" lat="59.9470728" lon="10.3609674" timestamp="2011-03-10T07:46:00Z" uid="11992" user="vibrog" version="1" />
	<node changeset="7511462" id="1195125963" lat="59.9468833" lon="10.3634523" timestamp="2011-03-10T07:46:00Z" uid="11992" user="vibrog" version="1" />
	<node changeset="7511462" id="1195125966" lat="59.9465124" lon="10.3635016" timestamp="2011-03-10T07:46:00Z" uid="11992" user="vibrog" version="1" />
	<node changeset="70122828" id="3613031631" lat="59.9511444" lon="10.4056083" timestamp="2019-05-10T19:49:56Z" uid="633013" user="Honning" version="2">
		<tag k="historic" v="shieling" />
		<tag k="name" v="Sellanrå" />
		<tag k="place" v="farm" />
		<tag k="ssr:stedsnr" v="689007" />
	</node>
	<node changeset="70122828" id="3940664532" lat="59.9083417" lon="10.6015667" timestamp="2019-05-10T19:49:56Z" uid="633013" user="Honning" version="2">
		<tag k="name" v="Stabekk" />
		<tag k="place" v="suburb" />
		<tag k="ssr:stedsnr" v="633987" />
	</node>
	<node changeset="7511462" id="1195125967" lat="59.9478887" lon="10.3608851" timestamp="2011-03-10T07:46:00Z" uid="11992" user="vibrog" version="1" />
	<node changeset="70122828" id="919626973" lat="59.9274361" lon="10.5489972" timestamp="2019-05-10T19:49:54Z" uid="633013" user="Honning" version="2">
		<tag k="alt_name" v="Skotta søndre" />
		<tag k="name" v="Søndre Skotta" />
		<tag k="place" v="farm" />
		<tag k="ssr:stedsnr" v="204990" />
	</node>
	<node changeset="70122828" id="4481733857" lat="59.9441917" lon="10.4305972" timestamp="2019-05-10T19:49:57Z" uid="633013" user="Honning" version="2">
		<tag k="alt_name" v="Aspelund nedre" />
		<tag k="name" v="Nedre Aspelund" />
		<tag k="place" v="farm" />
		<tag k="ssr:stedsnr" v="22021" />
	</node>
	<node changeset="70122828" id="4481733858" lat="59.9460139" lon="10.4310722" timestamp="2019-05-10T19:49:57Z" uid="633013" user="Honning" version="2">
		<tag k="name" v="Aspelund" />
		<tag k="place" v="farm" />
		<tag k="ssr:stedsnr" v="610995" />
	</node>
	<node changeset="70122828" id="6465580761" lat="59.922275" lon="10.5857861" timestamp="2019-05-10T19:49:34Z" uid="633013" user="Honning" version="1">
		<tag k="leisure" v="pitch" />
		<tag k="name" v="Bekkestuabanen" />
		<tag k="ssr:stedsnr" v="628967" />
	</node>
	<node changeset="6730951" id="1055514675" lat="59.948777" lon="10.4827133" timestamp="2010-12-21T22:39:44Z" uid="11992" user="vibrog" version="1" />
	<node changeset="70122828" id="919627018" lat="59.9287056" lon="10.5490684" timestamp="2019-05-10T19:49:55Z" uid="633013" user="Honning" version="2">
		<tag k="name" v="Skotta" />
		<tag k="place" v="hamlet" />
		<tag k="ssr:stedsnr" v="671952" />
	</node>
	<node changeset="6730951" id="1055515934" lat="59.9486021" lon="10.484043" timestamp="2010-12-21T22:40:22Z" uid="11992" user="vibrog" version="1" />
	<node changeset="70122828" id="840429104" lat="59.8940556" lon="10.5844556" timestamp="2019-05-10T19:49:54Z" uid="633013" user="Honning" version="3">
		<tag k="name" v="Sarbuvollen" />
		<tag k="place" v="isolated_dwelling" />
		<tag k="ssr:stedsnr" v="671863" />
	</node>
	<node changeset="6730951" id="1055513906" lat="59.9557972" lon="10.5083939" timestamp="2010-12-21T22:39:10Z" uid="11992" user="vibrog" version="1" />
	<node changeset="16795450" id="500858163" lat="59.8785474" lon="10.4179094" timestamp="2013-07-02T18:09:13Z" uid="11992" user="vibrog" version="2">
		<tag k="barrier" v="gate" />
	</node>
	<node changeset="70122828" id="6465580755" lat="59.9636389" lon="10.4064667" timestamp="2019-05-10T19:49:34Z" uid="633013" user="Honning" version="1">
		<tag k="name" v="Kjaglienga" />
		<tag k="place" v="farm" />
		<tag k="ssr:stedsnr" v="610041" />
	</node>
	<node changeset="6730951" id="1055513919" lat="59.9480682" lon="10.4820086" timestamp="2010-12-21T22:39:11Z" uid="11992" user="vibrog" version="1" />
	<node changeset="70122828" id="610467136" lat="60.0091889" lon="10.4805806" timestamp="2019-05-10T19:49:54Z" uid="633013" user="Honning" version="5">
		<tag k="abandoned" v="yes" />
		<tag k="alt_name" v="Danielsbråtan" />
		<tag k="name" v="Kampen" />
		<tag k="place" v="farm" />
		<tag k="ssr:stedsnr" v="672879" />
		<tag k="website" v="https://bibliotek.baerum.kommune.no/lokalhistorie/Husmannsplasser/Kampen/" />
	</node>
	<node changeset="70122828" id="6465581105" lat="59.9673583" lon="10.54745" timestamp="2019-05-10T19:49:42Z" uid="633013" user="Honning" version="1">
		<tag k="name" v="Brunkollen turisthytte" />
		<tag k="old_name" v="Brunkollhytta;Brunkollen" />
		<tag k="ssr:stedsnr" v="307022" />
		<tag k="tourism" v="chalet" />
	</node>
	<node changeset="14502658" id="2092469576" lat="59.9324183" lon="10.4904257" timestamp="2013-01-02T17:10:49Z" uid="11992" user="vibrog" version="1" />
	<node changeset="14502658" id="2092469577" lat="59.9324302" lon="10.4897675" timestamp="2013-01-02T17:10:49Z" uid="11992" user="vibrog" version="1" />
	<node changeset="14502658" id="2092469578" lat="59.9325995" lon="10.4896548" timestamp="2013-01-02T17:10:49Z" uid="11992" user="vibrog" version="1" />
	<node changeset="14502658" id="2092469579" lat="59.9327214" lon="10.4905859" timestamp="2013-01-02T17:10:49Z" uid="11992" user="vibrog" version="1" />
	<node changeset="14502658" id="2092469580" lat="59.9328432" lon="10.4897379" timestamp="2013-01-02T17:10:49Z" uid="11992" user="vibrog" version="1" />
	<node changeset="14502658" id="2092469581" lat="59.9328729" lon="10.4904139" timestamp="2013-01-02T17:10:49Z" uid="11992" user="vibrog" version="1" />
	<node changeset="14502658" id="2092469582" lat="59.9329204" lon="10.4899751" timestamp="2013-01-02T17:10:49Z" uid="11992" user="vibrog" version="1" />
	<node changeset="6597039" id="1029748965" lat="59.9490707" lon="10.5551549" timestamp="2010-12-09T17:04:43Z" uid="11992" user="vibrog" version="1" />
	<node changeset="70122828" id="4926343689" lat="59.9340717" lon="10.4580385" timestamp="2019-05-10T19:49:57Z" uid="633013" user="Honning" version="2">
		<tag k="alt_name" v="Busop" />
		<tag k="name" v="Tandberg" />
		<tag k="place" v="farm" />
		<tag k="ssr:stedsnr" v="65960;162487" />
	</node>
	<node changeset="71464114" id="31264129" lat="59.8907259" lon="10.5277434" timestamp="2019-06-21T00:14:08Z" uid="6739589" user="Af420" version="11">
		<tag k="name" v="Sandvika" />
		<tag k="name:ps" v="ساندويکا" />
		<tag k="name:ru" v="Сандвика" />
		<tag k="place" v="town" />
		<tag k="population" v="105928" />
		<tag k="population:date" v="2008" />
		<tag k="source" v="earth-info.nga.mil" />
		<tag k="ssr:stedsnr" v="180676" />
		<tag k="wikidata" v="Q651744" />
	</node>
	<node changeset="6730951" id="1055513995" lat="59.9487709" lon="10.4831423" timestamp="2010-12-21T22:39:17Z" uid="11992" user="vibrog" version="1" />
	<node changeset="13450239" id="1957965209" lat="59.9171752" lon="10.5787164" timestamp="2012-10-11T06:23:00Z" uid="11992" user="vibrog" version="1" />
	<node changeset="13450239" id="1957965213" lat="59.9173154" lon="10.5789866" timestamp="2012-10-11T06:23:00Z" uid="11992" user="vibrog" version="1" />
	<node changeset="70122828" id="6465580767" lat="59.9237472" lon="10.4659472" timestamp="2019-05-10T19:49:35Z" uid="633013" user="Honning" version="1">
		<tag k="alt_name" v="Økern vestre" />
		<tag k="name" v="Vestre Økern" />
		<tag k="place" v="farm" />
		<tag k="ssr:stedsnr" v="629080" />
	</node>
	<node changeset="13450239" id="1957965216" lat="59.9174222" lon="10.5792457" timestamp="2012-10-11T06:23:00Z" uid="11992" user="vibrog" version="1" />
	<node changeset="70122828" id="3613023653" lat="59.946725" lon="10.4028139" timestamp="2019-05-10T19:49:56Z" uid="633013" user="Honning" version="2">
		<tag k="name" v="Brenna" />
		<tag k="place" v="farm" />
		<tag k="ssr:stedsnr" v="429996" />
	</node>
	<node changeset="58520958" id="1957965227" lat="59.9177462" lon="10.5776174" timestamp="2018-04-29T08:23:06Z" uid="4999695" user="Da9l" version="2" />
	<node changeset="70122828" id="4959591857" lat="59.8939567" lon="10.4917831" timestamp="2019-05-10T19:49:57Z" uid="633013" user="Honning" version="2">
		<tag k="alt_name" v="Tokerud" />
		<tag k="name" v="Emma Hjorth" />
		<tag k="place" v="quarter" />
		<tag k="ssr:stedsnr" v="987822" />
	</node>
	<node changeset="70122828" id="343836086" lat="59.8971806" lon="10.4779" timestamp="2019-05-10T19:49:53Z" uid="633013" user="Honning" version="2">
		<tag k="name" v="Tanum" />
		<tag k="place" v="farm" />
		<tag k="ssr:stedsnr" v="854887" />
	</node>
	<node changeset="16000324" id="2293829056" lat="59.9465627" lon="10.5696402" timestamp="2013-05-06T17:15:11Z" uid="11992" user="vibrog" version="1" />
	<node changeset="16000324" id="2293829057" lat="59.9466463" lon="10.5702136" timestamp="2013-05-06T17:15:11Z" uid="11992" user="vibrog" version="1" />
	<node changeset="13450239" id="1957965252" lat="59.9179638" lon="10.579767" timestamp="2012-10-11T06:23:02Z" uid="11992" user="vibrog" version="1" />
	<node changeset="16000324" id="2293829062" lat="59.9468477" lon="10.5701345" timestamp="2013-05-06T17:15:11Z" uid="11992" user="vibrog" version="1" />
	<node changeset="6730951" id="1055514059" lat="59.9482093" lon="10.4843433" timestamp="2010-12-21T22:39:20Z" uid="11992" user="vibrog" version="1" />
	<node changeset="13450239" id="1957965260" lat="59.9181671" lon="10.5788261" timestamp="2012-10-11T06:23:02Z" uid="11992" user="vibrog" version="1" />
	<node changeset="16000324" id="2293829069" lat="59.9470653" lon="10.5693556" timestamp="2013-05-06T17:15:11Z" uid="11992" user="vibrog" version="1" />
	<node changeset="13450239" id="1957965262" lat="59.9182551" lon="10.5783439" timestamp="2012-10-11T06:23:02Z" uid="11992" user="vibrog" version="1" />
	<node changeset="16000324" id="2293829072" lat="59.9471724" lon="10.5698606" timestamp="2013-05-06T17:15:11Z" uid="11992" user="vibrog" version="1" />
	<node changeset="13450239" id="1957965266" lat="59.9185301" lon="10.5799377" timestamp="2012-10-11T06:23:02Z" uid="11992" user="vibrog" version="1" />
	<node changeset="13450239" id="1957965267" lat="59.9186245" lon="10.579514" timestamp="2012-10-11T06:23:03Z" uid="11992" user="vibrog" version="1" />
	<node changeset="16514981" id="2340954494" lat="59.952891" lon="10.5777248" timestamp="2013-06-11T19:30:36Z" uid="11992" user="vibrog" version="1" />
	<node changeset="49714732" id="4928358649" lat="59.9363683" lon="10.4637326" timestamp="2017-06-21T09:08:35Z" uid="5735621" user="Ralf_Jeppsson" version="1" />
	<node changeset="49714732" id="4928358650" lat="59.9361324" lon="10.4644407" timestamp="2017-06-21T09:08:35Z" uid="5735621" user="Ralf_Jeppsson" version="1" />
	<node changeset="70122828" id="1510692320" lat="59.8995111" lon="10.6286917" timestamp="2019-05-10T19:49:55Z" uid="633013" user="Honning" version="2">
		<tag k="name" v="Fornebu" />
		<tag k="place" v="suburb" />
		<tag k="ssr:stedsnr" v="695985" />
	</node>
	<node changeset="49714732" id="4928358651" lat="59.9367759" lon="10.4633619" timestamp="2017-06-21T09:08:35Z" uid="5735621" user="Ralf_Jeppsson" version="1" />
	<node changeset="49714732" id="4928358652" lat="59.9366752" lon="10.463362" timestamp="2017-06-21T09:08:35Z" uid="5735621" user="Ralf_Jeppsson" version="1" />
	<node changeset="49714732" id="4928358653" lat="59.9365558" lon="10.4637385" timestamp="2017-06-21T09:08:35Z" uid="5735621" user="Ralf_Jeppsson" version="1" />
	<node changeset="49714732" id="4928358688" lat="59.9250834" lon="10.4657461" timestamp="2017-06-21T09:08:36Z" uid="5735621" user="Ralf_Jeppsson" version="1" />
	<node changeset="70122828" id="4471698938" lat="59.8876056" lon="10.4404" timestamp="2019-05-10T19:49:57Z" uid="633013" user="Honning" version="2">
		<tag k="name" v="Sagbakken" />
		<tag k="place" v="isolated_dwelling" />
		<tag k="ssr:stedsnr" v="811594" />
	</node>
	<node changeset="49714732" id="4928358655" lat="59.9363855" lon="10.4648318" timestamp="2017-06-21T09:08:35Z" uid="5735621" user="Ralf_Jeppsson" version="1" />
	<node changeset="70122828" id="559101436" lat="59.9322667" lon="10.5356278" timestamp="2019-05-10T19:49:54Z" uid="633013" user="Honning" version="2">
		<tag k="name" v="Knabberud" />
		<tag k="place" v="farm" />
		<tag k="ssr:stedsnr" v="793975" />
	</node>
	<node changeset="49714732" id="4928358656" lat="59.9367232" lon="10.4641435" timestamp="2017-06-21T09:08:35Z" uid="5735621" user="Ralf_Jeppsson" version="1" />
	<node changeset="49714732" id="4928358657" lat="59.9368301" lon="10.4636623" timestamp="2017-06-21T09:08:35Z" uid="5735621" user="Ralf_Jeppsson" version="1" />
	<node changeset="49714732" id="4928358658" lat="59.9274907" lon="10.4596798" timestamp="2017-06-21T09:08:35Z" uid="5735621" user="Ralf_Jeppsson" version="1" />
	<node changeset="70122828" id="981638062" lat="59.9592611" lon="10.4083278" timestamp="2019-05-10T19:49:55Z" uid="633013" user="Honning" version="4">
		<tag k="alt_name" v="Kjaglia søndre;Svendseplassen" />
		<tag k="name" v="Søndre Kjaglia" />
		<tag k="place" v="isolated_dwelling" />
		<tag k="ssr:stedsnr" v="429043" />
	</node>
	<node changeset="6730951" id="1055514136" lat="59.9559736" lon="10.5085854" timestamp="2010-12-21T22:39:24Z" uid="11992" user="vibrog" version="1" />
	<node changeset="6603601" id="1030581786" lat="59.9493369" lon="10.5561466" timestamp="2010-12-10T10:12:22Z" uid="11992" user="vibrog" version="1" />
	<node changeset="49714732" id="4928358661" lat="59.9273978" lon="10.459828" timestamp="2017-06-21T09:08:35Z" uid="5735621" user="Ralf_Jeppsson" version="1" />
	<node changeset="49714732" id="4928358662" lat="59.9273275" lon="10.4589087" timestamp="2017-06-21T09:08:35Z" uid="5735621" user="Ralf_Jeppsson" version="1" />
	<node changeset="6603601" id="1030581799" lat="59.9489563" lon="10.5559146" timestamp="2010-12-10T10:12:23Z" uid="11992" user="vibrog" version="1" />
	<node changeset="49714732" id="4928358663" lat="59.9271051" lon="10.4593915" timestamp="2017-06-21T09:08:35Z" uid="5735621" user="Ralf_Jeppsson" version="1" />
	<node changeset="70122828" id="4449531438" lat="59.9667917" lon="10.40395" timestamp="2019-05-10T19:49:57Z" uid="633013" user="Honning" version="2">
		<tag k="alt_name" v="Kjaglia, nordre;Kraglia nordre" />
		<tag k="name" v="Nordre Kjaglia" />
		<tag k="place" v="isolated_dwelling" />
		<tag k="ssr:stedsnr" v="125036" />
	</node>
	<node changeset="70122828" id="364777007" lat="59.8868926" lon="10.4302588" timestamp="2019-05-10T19:49:53Z" uid="633013" user="Honning" version="3">
		<tag k="alt_name" v="Vestmarksætra" />
		<tag k="name" v="Vestmarksetra" />
		<tag k="place" v="farm" />
		<tag k="ssr:stedsnr" v="489848" />
	</node>
	<node changeset="16514981" id="2340954497" lat="59.9531199" lon="10.577067" timestamp="2013-06-11T19:30:36Z" uid="11992" user="vibrog" version="1" />
	<node changeset="49714732" id="4928358664" lat="59.9265621" lon="10.4587343" timestamp="2017-06-21T09:08:35Z" uid="5735621" user="Ralf_Jeppsson" version="1" />
	<node changeset="70122828" id="659941299" lat="59.9588278" lon="10.511125" timestamp="2019-05-10T19:49:54Z" uid="633013" user="Honning" version="3">
		<tag k="historic" v="croft" />
		<tag k="name" v="Helgerud" />
		<tag k="place" v="farm" />
		<tag k="ssr:stedsnr" v="65027" />
	</node>
	<node changeset="49714732" id="4928358665" lat="59.9263632" lon="10.4584876" timestamp="2017-06-21T09:08:35Z" uid="5735621" user="Ralf_Jeppsson" version="1" />
	<node changeset="49714732" id="4928358666" lat="59.9264169" lon="10.4581496" timestamp="2017-06-21T09:08:35Z" uid="5735621" user="Ralf_Jeppsson" version="1" />
	<node changeset="49714732" id="4928358667" lat="59.9263618" lon="10.4571143" timestamp="2017-06-21T09:08:35Z" uid="5735621" user="Ralf_Jeppsson" version="1" />
	<node changeset="49714732" id="4928358668" lat="59.9265552" lon="10.4565798" timestamp="2017-06-21T09:08:35Z" uid="5735621" user="Ralf_Jeppsson" version="1" />
	<node changeset="49714732" id="4928358669" lat="59.9265915" lon="10.4565208" timestamp="2017-06-21T09:08:35Z" uid="5735621" user="Ralf_Jeppsson" version="1" />
	<node changeset="49714732" id="4928358670" lat="59.9272145" lon="10.4572236" timestamp="2017-06-21T09:08:35Z" uid="5735621" user="Ralf_Jeppsson" version="1" />
	<node changeset="70122828" id="6465580705" lat="59.9284639" lon="10.4638972" timestamp="2019-05-10T19:49:31Z" uid="633013" user="Honning" version="1">
		<tag k="name" v="Brekke" />
		<tag k="place" v="farm" />
		<tag k="ssr:stedsnr" v="489930" />
	</node>
	<node changeset="49714732" id="4928358671" lat="59.9271742" lon="10.4558336" timestamp="2017-06-21T09:08:35Z" uid="5735621" user="Ralf_Jeppsson" version="1" />
	<node changeset="70122828" id="6465580986" lat="59.9017917" lon="10.5118944" timestamp="2019-05-10T19:49:36Z" uid="633013" user="Honning" version="1">
		<tag k="name" v="Helgerud barnebolig" />
		<tag k="old_name" v="Helgerud barnehjem" />
		<tag k="place" v="isolated_dwelling" />
		<tag k="ssr:stedsnr" v="689895" />
	</node>
	<node changeset="6730951" id="1055514208" lat="59.9481418" lon="10.4831239" timestamp="2010-12-21T22:39:27Z" uid="11992" user="vibrog" version="1" />
	<node changeset="49714732" id="4928358672" lat="59.926894" lon="10.4560188" timestamp="2017-06-21T09:08:35Z" uid="5735621" user="Ralf_Jeppsson" version="1" />
	<node changeset="49714732" id="4928358673" lat="59.9270145" lon="10.4576244" timestamp="2017-06-21T09:08:35Z" uid="5735621" user="Ralf_Jeppsson" version="1" />
	<node changeset="16752347" id="1029785194" lat="59.9350844" lon="10.5586807" timestamp="2013-06-29T14:01:42Z" uid="11992" user="vibrog" version="2" />
	<node changeset="16514981" id="2340954499" lat="59.95314" lon="10.5776847" timestamp="2013-06-11T19:30:36Z" uid="11992" user="vibrog" version="1" />
	<node changeset="49714732" id="4928358674" lat="59.9272783" lon="10.4567993" timestamp="2017-06-21T09:08:35Z" uid="5735621" user="Ralf_Jeppsson" version="1" />
	<node changeset="49714732" id="4928358675" lat="59.927342" lon="10.4559074" timestamp="2017-06-21T09:08:35Z" uid="5735621" user="Ralf_Jeppsson" version="1" />
	<node changeset="70122828" id="1978461814" lat="59.9027028" lon="10.4841" timestamp="2019-05-10T19:49:55Z" uid="633013" user="Honning" version="2">
		<tag k="name" v="Kirkerud" />
		<tag k="old_name" v="Kjerkerud" />
		<tag k="place" v="farm" />
		<tag k="source" v="knowledge" />
		<tag k="ssr:stedsnr" v="429880" />
	</node>
	<node changeset="70122828" id="3087777400" lat="59.8997806" lon="10.5138417" timestamp="2019-05-10T19:49:55Z" uid="633013" user="Honning" version="2">
		<tag k="name" v="Evje" />
		<tag k="place" v="suburb" />
		<tag k="source" v="bing" />
		<tag k="ssr:stedsnr" v="186885" />
	</node>
	<node changeset="49714732" id="4928358676" lat="59.9266382" lon="10.4646801" timestamp="2017-06-21T09:08:35Z" uid="5735621" user="Ralf_Jeppsson" version="1" />
	<node changeset="6730951" id="1055514234" lat="59.9482063" lon="10.4834548" timestamp="2010-12-21T22:39:28Z" uid="11992" user="vibrog" version="1" />
	<node changeset="49714732" id="4928358677" lat="59.9266718" lon="10.4658039" timestamp="2017-06-21T09:08:35Z" uid="5735621" user="Ralf_Jeppsson" version="1" />
	<node changeset="26535158" id="1029785218" lat="59.9603962" lon="10.5481912" timestamp="2014-11-03T20:45:30Z" uid="11992" user="vibrog" version="2" />
	<node changeset="49714732" id="4928358678" lat="59.9263384" lon="10.4647471" timestamp="2017-06-21T09:08:35Z" uid="5735621" user="Ralf_Jeppsson" version="1" />
	<node changeset="49714732" id="4928358679" lat="59.9264258" lon="10.4655491" timestamp="2017-06-21T09:08:35Z" uid="5735621" user="Ralf_Jeppsson" version="1" />
	<node changeset="49714732" id="4928358680" lat="59.9266916" lon="10.4647332" timestamp="2017-06-21T09:08:35Z" uid="5735621" user="Ralf_Jeppsson" version="1" />
	<node changeset="13064819" id="1909510206" lat="59.9336796" lon="10.5460727" timestamp="2012-09-11T05:20:52Z" uid="11992" user="vibrog" version="1" />
	<node changeset="70122828" id="6465580693" lat="59.9677889" lon="10.6083444" timestamp="2019-05-10T19:49:31Z" uid="633013" user="Honning" version="1">
		<tag k="alt_name" v="Lathus søndre" />
		<tag k="name" v="Søndre Lathus" />
		<tag k="place" v="farm" />
		<tag k="ssr:stedsnr" v="447892" />
	</node>
	<node changeset="70122828" id="6465580694" lat="59.9204694" lon="10.6246972" timestamp="2019-05-10T19:49:31Z" uid="633013" user="Honning" version="1">
		<tag k="amenity" v="nursing_home" />
		<tag k="name" v="Storenga sykehjem" />
		<tag k="ssr:stedsnr" v="447913" />
	</node>
	<node changeset="70122828" id="6465580695" lat="59.9432917" lon="10.5962361" timestamp="2019-05-10T19:49:31Z" uid="633013" user="Honning" version="1">
		<tag k="name" v="Toppås" />
		<tag k="place" v="quarter" />
		<tag k="ssr:stedsnr" v="447923" />
	</node>
	<node changeset="70122828" id="6465580696" lat="59.9261861" lon="10.4946444" timestamp="2019-05-10T19:49:31Z" uid="633013" user="Honning" version="1">
		<tag k="name" v="Spikerbrukfallet" />
		<tag k="place" v="isolated_dwelling" />
		<tag k="ssr:stedsnr" v="447933" />
	</node>
	<node changeset="70122828" id="6465580697" lat="59.9663917" lon="10.4800306" timestamp="2019-05-10T19:49:31Z" uid="633013" user="Honning" version="1">
		<tag k="name" v="Solhaug" />
		<tag k="place" v="farm" />
		<tag k="ssr:stedsnr" v="447955" />
	</node>
	<node changeset="70122828" id="6465580698" lat="59.9216444" lon="10.5838222" timestamp="2019-05-10T19:49:31Z" uid="633013" user="Honning" version="1">
		<tag k="leisure" v="pitch" />
		<tag k="name" v="Nadderudhallen" />
		<tag k="ssr:stedsnr" v="447973" />
	</node>
	<node changeset="70122828" id="6465580700" lat="59.93385" lon="10.5752917" timestamp="2019-05-10T19:49:31Z" uid="633013" user="Honning" version="1">
		<tag k="name" v="Petersborg" />
		<tag k="place" v="farm" />
		<tag k="ssr:stedsnr" v="447988" />
	</node>
	<node changeset="70122828" id="6465580701" lat="59.9267111" lon="10.5358945" timestamp="2019-05-10T19:49:31Z" uid="633013" user="Honning" version="1">
		<tag k="name" v="Rølles" />
		<tag k="place" v="isolated_dwelling" />
		<tag k="ssr:stedsnr" v="447992" />
	</node>
	<node changeset="70122828" id="6465580702" lat="59.9329361" lon="10.5348056" timestamp="2019-05-10T19:49:31Z" uid="633013" user="Honning" version="1">
		<tag k="name" v="Tjuenborn" />
		<tag k="place" v="isolated_dwelling" />
		<tag k="ssr:stedsnr" v="447997" />
	</node>
	<node changeset="70122828" id="6465580703" lat="59.8928417" lon="10.5608444" timestamp="2019-05-10T19:49:31Z" uid="633013" user="Honning" version="1">
		<tag k="amenity" v="nursing_home" />
		<tag k="name" v="Solvik aldershjem" />
		<tag k="ssr:stedsnr" v="448307" />
	</node>
	<node changeset="70122828" id="6465580704" lat="59.9019944" lon="10.5122417" timestamp="2019-05-10T19:49:31Z" uid="633013" user="Honning" version="1">
		<tag k="name" v="Helgerud" />
		<tag k="place" v="farm" />
		<tag k="ssr:stedsnr" v="489880" />
	</node>
	<node changeset="25214315" id="1655127713" lat="59.8786633" lon="10.418471" timestamp="2014-09-03T20:35:51Z" uid="11992" user="vibrog" version="2" />
	<node changeset="70122828" id="6465580706" lat="59.9278139" lon="10.3757583" timestamp="2019-05-10T19:49:32Z" uid="633013" user="Honning" version="1">
		<tag k="name" v="Burås" />
		<tag k="place" v="locality" />
		<tag k="ssr:stedsnr" v="489939" />
	</node>
	<node changeset="70122828" id="6465580707" lat="59.9377" lon="10.444725" timestamp="2019-05-10T19:49:32Z" uid="633013" user="Honning" version="1">
		<tag k="name" v="Isi" />
		<tag k="place" v="farm" />
		<tag k="ssr:stedsnr" v="489957" />
	</node>
	<node changeset="70122828" id="6465580708" lat="59.9332583" lon="10.4429028" timestamp="2019-05-10T19:49:32Z" uid="633013" user="Honning" version="1">
		<tag k="name" v="Bjørum" />
		<tag k="place" v="farm" />
		<tag k="ssr:stedsnr" v="489958" />
	</node>
	<node changeset="26535158" id="1029785253" lat="59.9604493" lon="10.5477963" timestamp="2014-11-03T20:45:30Z" uid="11992" user="vibrog" version="2" />
	<node changeset="70122828" id="6465580710" lat="59.954625" lon="10.611175" timestamp="2019-05-10T19:49:32Z" uid="633013" user="Honning" version="1">
		<tag k="name" v="Listua" />
		<tag k="place" v="farm" />
		<tag k="ssr:stedsnr" v="489986" />
	</node>
	<node changeset="70122828" id="6465580711" lat="59.9514167" lon="10.5165833" timestamp="2019-05-10T19:49:32Z" uid="633013" user="Honning" version="1">
		<tag k="name" v="Grorudenga" />
		<tag k="place" v="farm" />
		<tag k="ssr:stedsnr" v="490989" />
	</node>
	<node changeset="70122828" id="6465580712" lat="59.9055472" lon="10.4795778" timestamp="2019-05-10T19:49:32Z" uid="633013" user="Honning" version="1">
		<tag k="name" v="Åmotenga" />
		<tag k="place" v="quarter" />
		<tag k="ssr:stedsnr" v="507036" />
	</node>
	<node changeset="70122828" id="6465580713" lat="59.9523528" lon="10.5060972" timestamp="2019-05-10T19:49:32Z" uid="633013" user="Honning" version="1">
		<tag k="alt_name" v="Skollerud nordre" />
		<tag k="name" v="Nordre Skollerud" />
		<tag k="place" v="farm" />
		<tag k="ssr:stedsnr" v="507092" />
	</node>
	<node changeset="70122828" id="6465580714" lat="59.94725" lon="10.5137528" timestamp="2019-05-10T19:49:32Z" uid="633013" user="Honning" version="1">
		<tag k="name" v="Sørbråtan" />
		<tag k="place" v="farm" />
		<tag k="ssr:stedsnr" v="507096" />
	</node>
	<node changeset="70122828" id="6465580715" lat="59.9513306" lon="10.477725" timestamp="2019-05-10T19:49:32Z" uid="633013" user="Honning" version="1">
		<tag k="name" v="Goslia" />
		<tag k="place" v="quarter" />
		<tag k="ssr:stedsnr" v="507214" />
	</node>
	<node changeset="70122828" id="6465580716" lat="59.9018333" lon="10.5042639" timestamp="2019-05-10T19:49:32Z" uid="633013" user="Honning" version="1">
		<tag k="name" v="Dønski servicehus" />
		<tag k="place" v="isolated_dwelling" />
		<tag k="ssr:stedsnr" v="507907" />
	</node>
	<node changeset="70122828" id="6465580717" lat="59.9419361" lon="10.6103556" timestamp="2019-05-10T19:49:32Z" uid="633013" user="Honning" version="1">
		<tag k="amenity" v="hospital" />
		<tag k="name" v="Østerås sykehjem" />
		<tag k="ssr:stedsnr" v="507909" />
	</node>
	<node changeset="49714732" id="4928358685" lat="59.9270516" lon="10.4649086" timestamp="2017-06-21T09:08:36Z" uid="5735621" user="Ralf_Jeppsson" version="1" />
	<node changeset="70122828" id="6465580723" lat="59.9207111" lon="10.4387055" timestamp="2019-05-10T19:49:32Z" uid="633013" user="Honning" version="1">
		<tag k="name" v="Kroken" />
		<tag k="place" v="farm" />
		<tag k="ssr:stedsnr" v="508062" />
	</node>
	<node changeset="70122828" id="6465580724" lat="59.9249583" lon="10.484675" timestamp="2019-05-10T19:49:32Z" uid="633013" user="Honning" version="1">
		<tag k="amenity" v="nursing_home" />
		<tag k="name" v="Rykkinn sykehjem" />
		<tag k="ssr:stedsnr" v="508064" />
	</node>
	<node changeset="70122828" id="6465580725" lat="59.868625" lon="10.5808278" timestamp="2019-05-10T19:49:32Z" uid="633013" user="Honning" version="1">
		<tag k="name" v="Oust" />
		<tag k="place" v="farm" />
		<tag k="ssr:stedsnr" v="549810" />
	</node>
	<node changeset="70122828" id="6465580726" lat="59.8862889" lon="10.5138028" timestamp="2019-05-10T19:49:33Z" uid="633013" user="Honning" version="1">
		<tag k="name" v="Jongskollen" />
		<tag k="place" v="quarter" />
		<tag k="ssr:stedsnr" v="549828" />
	</node>
	<node changeset="70122828" id="6465580727" lat="59.8847306" lon="10.4868833" timestamp="2019-05-10T19:49:33Z" uid="633013" user="Honning" version="1">
		<tag k="alt_name" v="Øvre Ås" />
		<tag k="name" v="Ås" />
		<tag k="place" v="farm" />
		<tag k="ssr:stedsnr" v="549830" />
	</node>
	<node changeset="70122828" id="6465580728" lat="59.9531" lon="10.4849861" timestamp="2019-05-10T19:49:33Z" uid="633013" user="Honning" version="1">
		<tag k="name" v="Haug" />
		<tag k="place" v="farm" />
		<tag k="ssr:stedsnr" v="550052" />
	</node>
	<node changeset="70122828" id="6465580729" lat="59.9527278" lon="10.5040095" timestamp="2019-05-10T19:49:33Z" uid="633013" user="Honning" version="1">
		<tag k="name" v="Skollerud" />
		<tag k="place" v="hamlet" />
		<tag k="ssr:stedsnr" v="550054" />
	</node>
	<node changeset="70122828" id="6465580730" lat="59.8941625" lon="10.5038928" timestamp="2019-05-10T19:49:33Z" uid="633013" user="Honning" version="1">
		<tag k="alt_name" v="Bjørnegård" />
		<tag k="name" v="Bjørnegard" />
		<tag k="old_name" v="Bjørnegaard" />
		<tag k="place" v="farm" />
		<tag k="ssr:stedsnr" v="550858" />
	</node>
	<node changeset="49714732" id="4928358687" lat="59.9254611" lon="10.4654161" timestamp="2017-06-21T09:08:36Z" uid="5735621" user="Ralf_Jeppsson" version="1" />
	<node changeset="70122828" id="6465580732" lat="59.9055667" lon="10.5881278" timestamp="2019-05-10T19:49:33Z" uid="633013" user="Honning" version="1">
		<tag k="alt_name" v="Stabekk, store" />
		<tag k="name" v="Store Stabekk" />
		<tag k="place" v="farm" />
		<tag k="ssr:stedsnr" v="550899" />
	</node>
	<node changeset="70122828" id="6465580733" lat="59.9131778" lon="10.5189361" timestamp="2019-05-10T19:49:33Z" uid="633013" user="Honning" version="1">
		<tag k="name" v="Toppås" />
		<tag k="place" v="isolated_dwelling" />
		<tag k="ssr:stedsnr" v="550901" />
	</node>
	<node changeset="70122828" id="6465580734" lat="59.916025" lon="10.4315139" timestamp="2019-05-10T19:49:33Z" uid="633013" user="Honning" version="1">
		<tag k="name" v="Kveisebråtan" />
		<tag k="place" v="isolated_dwelling" />
		<tag k="ssr:stedsnr" v="550939" />
	</node>
	<node changeset="70122828" id="6465580735" lat="59.9322333" lon="10.4291" timestamp="2019-05-10T19:49:33Z" uid="633013" user="Honning" version="1">
		<tag k="name" v="Skuiløkka" />
		<tag k="place" v="isolated_dwelling" />
		<tag k="ssr:stedsnr" v="550946" />
	</node>
	<node changeset="16752347" id="1029785280" lat="59.9351856" lon="10.5587683" timestamp="2013-06-29T14:01:42Z" uid="11992" user="vibrog" version="2" />
	<node changeset="6730951" id="1055514305" lat="59.9486758" lon="10.4813223" timestamp="2010-12-21T22:39:31Z" uid="11992" user="vibrog" version="1" />
	<node changeset="70122828" id="6465580739" lat="59.9588333" lon="10.4745528" timestamp="2019-05-10T19:49:33Z" uid="633013" user="Honning" version="1">
		<tag k="alt_name" v="Trulsrud øvre" />
		<tag k="name" v="Øvre Trulsrud" />
		<tag k="place" v="farm" />
		<tag k="ssr:stedsnr" v="567024" />
	</node>
	<node changeset="70122828" id="6465580740" lat="59.9321139" lon="10.5806306" timestamp="2019-05-10T19:49:33Z" uid="633013" user="Honning" version="1">
		<tag k="alt_name" v="Hosle vestre" />
		<tag k="name" v="Vestre Hosle" />
		<tag k="place" v="isolated_dwelling" />
		<tag k="ssr:stedsnr" v="567913" />
	</node>
	<node changeset="70122828" id="6465580741" lat="59.9294472" lon="10.5492195" timestamp="2019-05-10T19:49:33Z" uid="633013" user="Honning" version="1">
		<tag k="alt_name" v="Skotta nordre" />
		<tag k="name" v="Nordre Skotta" />
		<tag k="place" v="farm" />
		<tag k="ssr:stedsnr" v="567921" />
	</node>
	<node changeset="49714732" id="4928358689" lat="59.9252355" lon="10.4667074" timestamp="2017-06-21T09:08:36Z" uid="5735621" user="Ralf_Jeppsson" version="1" />
	<node changeset="70122828" id="6465580745" lat="59.9338972" lon="10.5616278" timestamp="2019-05-10T19:49:34Z" uid="633013" user="Honning" version="1">
		<tag k="alt_name" v="Øverland østre" />
		<tag k="name" v="Østre Øverland" />
		<tag k="place" v="farm" />
		<tag k="ssr:stedsnr" v="567996" />
	</node>
	<node changeset="70122828" id="6465580746" lat="59.92035" lon="10.4638111" timestamp="2019-05-10T19:49:34Z" uid="633013" user="Honning" version="1">
		<tag k="name" v="Gata" />
		<tag k="place" v="farm" />
		<tag k="ssr:stedsnr" v="568060" />
	</node>
	<node changeset="70122828" id="6465580747" lat="59.9204556" lon="10.4763417" timestamp="2019-05-10T19:49:34Z" uid="633013" user="Honning" version="1">
		<tag k="name" v="Angerst" />
		<tag k="place" v="isolated_dwelling" />
		<tag k="ssr:stedsnr" v="568080" />
	</node>
	<node changeset="70122828" id="6465580748" lat="59.9689056" lon="10.6078833" timestamp="2019-05-10T19:49:34Z" uid="633013" user="Honning" version="1">
		<tag k="alt_name" v="Lathus nordre" />
		<tag k="name" v="Nordre Lathus" />
		<tag k="place" v="farm" />
		<tag k="ssr:stedsnr" v="568113" />
	</node>
	<node changeset="70122828" id="6465581346" lat="59.8810528" lon="10.5034195" timestamp="2019-05-10T19:49:50Z" uid="633013" user="Honning" version="1">
		<tag k="name" v="Hilton" />
		<tag k="place" v="isolated_dwelling" />
		<tag k="ssr:stedsnr" v="205592" />
	</node>
	<node changeset="70122828" id="6465580750" lat="59.8862806" lon="10.4568667" timestamp="2019-05-10T19:49:34Z" uid="633013" user="Honning" version="1">
		<tag k="name" v="Løkka" />
		<tag k="place" v="farm" />
		<tag k="ssr:stedsnr" v="568597" />
	</node>
	<node changeset="70122828" id="6465580753" lat="59.9393083" lon="10.4987417" timestamp="2019-05-10T19:49:34Z" uid="633013" user="Honning" version="1">
		<tag k="name" v="Ullern" />
		<tag k="place" v="isolated_dwelling" />
		<tag k="ssr:stedsnr" v="568944" />
	</node>
	<node changeset="70122828" id="6465580754" lat="59.9343139" lon="10.4969861" timestamp="2019-05-10T19:49:34Z" uid="633013" user="Honning" version="1">
		<tag k="name" v="Sletta" />
		<tag k="place" v="isolated_dwelling" />
		<tag k="ssr:stedsnr" v="568953" />
	</node>
	<node changeset="70122828" id="6465581347" lat="59.9671139" lon="10.4832639" timestamp="2019-05-10T19:49:50Z" uid="633013" user="Honning" version="1">
		<tag k="alt_name" v="Kirkeby nedre" />
		<tag k="name" v="Nedre Kirkeby" />
		<tag k="place" v="farm" />
		<tag k="ssr:stedsnr" v="205965" />
	</node>
	<node changeset="70122828" id="6465580756" lat="59.891475" lon="10.4404111" timestamp="2019-05-10T19:49:34Z" uid="633013" user="Honning" version="1">
		<tag k="name" v="Kattås" />
		<tag k="place" v="isolated_dwelling" />
		<tag k="ssr:stedsnr" v="610889" />
	</node>
	<node changeset="73256074" id="6465580757" lat="59.8983194" lon="10.5121139" timestamp="2019-08-12T06:27:21Z" uid="9577574" user="Hungarian_user" version="2">
		<tag k="amenity" v="hospital" />
		<tag k="healthcare" v="hospital" />
		<tag k="name" v="Bærum sykehus" />
		<tag k="ssr:stedsnr" v="628882" />
	</node>
	<node changeset="70122828" id="6465580758" lat="59.9525194" lon="10.4832972" timestamp="2019-05-10T19:49:34Z" uid="633013" user="Honning" version="1">
		<tag k="alt_name" v="Haug øvre" />
		<tag k="name" v="Øvre Haug" />
		<tag k="place" v="farm" />
		<tag k="ssr:stedsnr" v="628892" />
	</node>
	<node changeset="70122828" id="6465580759" lat="59.9918028" lon="10.5011639" timestamp="2019-05-10T19:49:34Z" uid="633013" user="Honning" version="1">
		<tag k="name" v="Gamlevollen" />
		<tag k="place" v="locality" />
		<tag k="ssr:stedsnr" v="628906" />
	</node>
	<node changeset="70122828" id="6465580760" lat="59.9044167" lon="10.5198111" timestamp="2019-05-10T19:49:34Z" uid="633013" user="Honning" version="1">
		<tag k="building" v="commercial" />
		<tag k="name" v="Samvirkeinstituttet" />
		<tag k="ssr:stedsnr" v="628966" />
	</node>
	<node changeset="49714732" id="4928358692" lat="59.9258762" lon="10.4655487" timestamp="2017-06-21T09:08:36Z" uid="5735621" user="Ralf_Jeppsson" version="1" />
	<node changeset="70122828" id="6465580764" lat="59.9367222" lon="10.5741" timestamp="2019-05-10T19:49:35Z" uid="633013" user="Honning" version="1">
		<tag k="alt_name" v="Haug nordre" />
		<tag k="name" v="Nordre Haug" />
		<tag k="place" v="farm" />
		<tag k="ssr:stedsnr" v="628994" />
	</node>
	<node changeset="70122828" id="6465580765" lat="59.9316611" lon="10.5613167" timestamp="2019-05-10T19:49:35Z" uid="633013" user="Honning" version="1">
		<tag k="alt_name" v="Øverland vestre" />
		<tag k="name" v="Vestre Øverland" />
		<tag k="place" v="farm" />
		<tag k="ssr:stedsnr" v="628997" />
	</node>
	<node changeset="70122828" id="6465580766" lat="59.9221972" lon="10.4495278" timestamp="2019-05-10T19:49:35Z" uid="633013" user="Honning" version="1">
		<tag k="alt_name" v="Sand nedre" />
		<tag k="name" v="Nedre Sand" />
		<tag k="place" v="farm" />
		<tag k="ssr:stedsnr" v="629071" />
	</node>
	<node changeset="49714732" id="4928358693" lat="59.9257694" lon="10.465349" timestamp="2017-06-21T09:08:36Z" uid="5735621" user="Ralf_Jeppsson" version="1" />
	<node changeset="70122828" id="6465580768" lat="59.8804111" lon="10.4201111" timestamp="2019-05-10T19:49:35Z" uid="633013" user="Honning" version="1">
		<tag k="name" v="Nedre Gupu" />
		<tag k="place" v="farm" />
		<tag k="ssr:stedsnr" v="629604" />
	</node>
	<node changeset="70122828" id="6465580769" lat="59.8844583" lon="10.4674167" timestamp="2019-05-10T19:49:35Z" uid="633013" user="Honning" version="1">
		<tag k="name" v="Staverstua" />
		<tag k="place" v="isolated_dwelling" />
		<tag k="ssr:stedsnr" v="629618" />
	</node>
	<node changeset="70122828" id="6465580770" lat="59.9769139" lon="10.476425" timestamp="2019-05-10T19:49:35Z" uid="633013" user="Honning" version="1">
		<tag k="alt_name" v="Vensås øvre" />
		<tag k="name" v="Øvre Vensås" />
		<tag k="place" v="farm" />
		<tag k="ssr:stedsnr" v="629978" />
	</node>
	<node changeset="70122828" id="6465580771" lat="59.8940278" lon="10.5774333" timestamp="2019-05-10T19:49:35Z" uid="633013" user="Honning" version="1">
		<tag k="name" v="Båtstø" />
		<tag k="place" v="isolated_dwelling" />
		<tag k="ssr:stedsnr" v="630249" />
	</node>
	<node changeset="70122828" id="6465580772" lat="59.9688306" lon="10.3677861" timestamp="2019-05-10T19:49:35Z" uid="633013" user="Honning" version="1">
		<tag k="name" v="Mustadkroken" />
		<tag k="ssr:stedsnr" v="631121" />
		<tag k="tourism" v="chalet" />
	</node>
	<node changeset="70122828" id="6465580773" lat="59.9839851" lon="10.4727003" timestamp="2019-05-10T19:49:35Z" uid="633013" user="Honning" version="1">
		<tag k="name" v="Tyttebærhaugen" />
		<tag k="place" v="farm" />
		<tag k="ssr:stedsnr" v="671016" />
	</node>
	<node changeset="70122828" id="6465580774" lat="59.8753667" lon="10.60905" timestamp="2019-05-10T19:49:35Z" uid="633013" user="Honning" version="1">
		<tag k="name" v="Strøm" />
		<tag k="place" v="isolated_dwelling" />
		<tag k="ssr:stedsnr" v="671815" />
	</node>
	<node changeset="70122828" id="6465580775" lat="59.8826139" lon="10.482825" timestamp="2019-05-10T19:49:35Z" uid="633013" user="Honning" version="1">
		<tag k="name" v="Reverud" />
		<tag k="place" v="farm" />
		<tag k="ssr:stedsnr" v="671843" />
	</node>
	<node changeset="70122828" id="6465580776" lat="59.8925679" lon="10.4914137" timestamp="2019-05-10T19:49:35Z" uid="633013" user="Honning" version="1">
		<tag k="name" v="Tokerud" />
		<tag k="place" v="hamlet" />
		<tag k="ssr:stedsnr" v="671867" />
	</node>
	<node changeset="70122828" id="6465580777" lat="59.8973" lon="10.4853361" timestamp="2019-05-10T19:49:35Z" uid="633013" user="Honning" version="1">
		<tag k="name" v="Grini" />
		<tag k="place" v="isolated_dwelling" />
		<tag k="ssr:stedsnr" v="671883" />
	</node>
	<node changeset="70122828" id="6465580778" lat="59.9116861" lon="10.5036167" timestamp="2019-05-10T19:49:35Z" uid="633013" user="Honning" version="1">
		<tag k="alt_name" v="Hauger vestre" />
		<tag k="name" v="Vestre Hauger" />
		<tag k="old_name" v="Hauger, midtre" />
		<tag k="place" v="farm" />
		<tag k="ssr:stedsnr" v="671893" />
	</node>
	<node changeset="70122828" id="6465580779" lat="59.9242139" lon="10.592775" timestamp="2019-05-10T19:49:35Z" uid="633013" user="Honning" version="1">
		<tag k="name" v="Nadderud" />
		<tag k="place" v="farm" />
		<tag k="ssr:stedsnr" v="671948" />
	</node>
	<node changeset="70122828" id="6465580780" lat="59.9017556" lon="10.4394028" timestamp="2019-05-10T19:49:35Z" uid="633013" user="Honning" version="1">
		<tag k="name" v="Søbråten" />
		<tag k="place" v="locality" />
		<tag k="ssr:stedsnr" v="689051" />
	</node>
	<node changeset="70122828" id="6465580781" lat="59.9180278" lon="10.4798444" timestamp="2019-05-10T19:49:35Z" uid="633013" user="Honning" version="1">
		<tag k="name" v="Bakken" />
		<tag k="place" v="farm" />
		<tag k="ssr:stedsnr" v="689058" />
	</node>
	<node changeset="70122828" id="6465580782" lat="59.9157083" lon="10.4542639" timestamp="2019-05-10T19:49:36Z" uid="633013" user="Honning" version="1">
		<tag k="alt_name" v="Horni øvre" />
		<tag k="name" v="Øvre Horni" />
		<tag k="place" v="farm" />
		<tag k="ssr:stedsnr" v="689059" />
	</node>
	<node changeset="70122828" id="6465580783" lat="59.9146028" lon="10.4718278" timestamp="2019-05-10T19:49:36Z" uid="633013" user="Honning" version="1">
		<tag k="name" v="Vefsrud" />
		<tag k="place" v="farm" />
		<tag k="ssr:stedsnr" v="689061" />
	</node>
	<node changeset="70122828" id="6465580784" lat="59.9042167" lon="10.5434556" timestamp="2019-05-10T19:49:36Z" uid="633013" user="Honning" version="1">
		<tag k="name" v="Lillehagen" />
		<tag k="place" v="isolated_dwelling" />
		<tag k="ssr:stedsnr" v="689889" />
	</node>
	<node changeset="16382020" id="1027864311" lat="59.9754236" lon="10.6076467" timestamp="2013-06-01T19:20:08Z" uid="11992" user="vibrog" version="2" />
	<node changeset="13064819" id="1909510216" lat="59.9339743" lon="10.5445268" timestamp="2012-09-11T05:20:52Z" uid="11992" user="vibrog" version="1" />
	<node changeset="16382020" id="1027864319" lat="59.9743004" lon="10.6071105" timestamp="2013-06-01T19:20:08Z" uid="11992" user="vibrog" version="2" />
	<node changeset="16382020" id="1027864321" lat="59.9740003" lon="10.6078085" timestamp="2013-06-01T19:20:08Z" uid="11992" user="vibrog" version="2" />
	<node changeset="6583288" id="1027864322" lat="59.9740002" lon="10.6074502" timestamp="2010-12-08T09:56:05Z" uid="11992" user="vibrog" version="1" />
	<node changeset="6603601" id="1029749035" lat="59.9490593" lon="10.5559753" timestamp="2010-12-10T10:12:32Z" uid="11992" user="vibrog" version="2" />
	<node changeset="6583288" id="1027864326" lat="59.9741156" lon="10.6071084" timestamp="2010-12-08T09:56:06Z" uid="11992" user="vibrog" version="1" />
	<node changeset="16382020" id="1027864329" lat="59.9740309" lon="10.6081194" timestamp="2013-06-01T19:20:08Z" uid="11992" user="vibrog" version="2" />
	<node changeset="16382020" id="1027864335" lat="59.9740916" lon="10.6082376" timestamp="2013-06-01T19:20:08Z" uid="11992" user="vibrog" version="2" />
	<node changeset="16752347" id="2365723608" lat="59.9354843" lon="10.5587505" timestamp="2013-06-29T14:01:35Z" uid="11992" user="vibrog" version="1" />
	<node changeset="16382020" id="1027864338" lat="59.9754422" lon="10.6078346" timestamp="2013-06-01T19:20:08Z" uid="11992" user="vibrog" version="2" />
	<node changeset="6730951" id="1055514387" lat="59.948596" lon="10.4833996" timestamp="2010-12-21T22:39:33Z" uid="11992" user="vibrog" version="1" />
	<node changeset="6597039" id="1029749020" lat="59.949371" lon="10.5542351" timestamp="2010-12-09T17:04:44Z" uid="11992" user="vibrog" version="1" />
	<node changeset="16382020" id="1027864343" lat="59.9753539" lon="10.6078705" timestamp="2013-06-01T19:20:08Z" uid="11992" user="vibrog" version="2" />
	<node changeset="70122828" id="301131555" lat="59.8916306" lon="10.6354111" timestamp="2019-05-10T19:49:53Z" uid="633013" user="Honning" version="2">
		<tag k="name" v="Rolfstangen" />
		<tag k="place" v="hamlet" />
		<tag k="ssr:stedsnr" v="429853" />
	</node>
	<node changeset="16381743" id="2328395568" lat="59.9674379" lon="10.6128685" timestamp="2013-06-01T18:57:03Z" uid="11992" user="vibrog" version="1" />
	<node changeset="16381743" id="2328395570" lat="59.9674896" lon="10.6123379" timestamp="2013-06-01T18:57:03Z" uid="11992" user="vibrog" version="1" />
	<node changeset="13064819" id="1909510218" lat="59.9340499" lon="10.5480031" timestamp="2012-09-11T05:20:52Z" uid="11992" user="vibrog" version="1" />
	<node changeset="14541891" id="2096967483" lat="59.9589688" lon="10.5028237" timestamp="2013-01-05T21:05:13Z" uid="11992" user="vibrog" version="1" />
	<node changeset="14541891" id="2096967484" lat="59.9590332" lon="10.5020824" timestamp="2013-01-05T21:05:13Z" uid="11992" user="vibrog" version="1" />
	<node changeset="16381743" id="2328395581" lat="59.9675484" lon="10.6134598" timestamp="2013-06-01T18:57:03Z" uid="11992" user="vibrog" version="1" />
	<node changeset="14541891" id="2096967486" lat="59.9590634" lon="10.5034061" timestamp="2013-01-05T21:05:13Z" uid="11992" user="vibrog" version="1" />
	<node changeset="70122828" id="6465581365" lat="59.9408722" lon="10.5622028" timestamp="2019-05-10T19:49:51Z" uid="633013" user="Honning" version="1">
		<tag k="name" v="Saghytta" />
		<tag k="place" v="isolated_dwelling" />
		<tag k="ssr:stedsnr" v="264869" />
	</node>
	<node changeset="14541891" id="2096967488" lat="59.959196" lon="10.50358" timestamp="2013-01-05T21:05:13Z" uid="11992" user="vibrog" version="1" />
	<node changeset="14541891" id="2096967489" lat="59.9594648" lon="10.5013411" timestamp="2013-01-05T21:05:13Z" uid="11992" user="vibrog" version="1" />
	<node changeset="14541891" id="2096967490" lat="59.9594724" lon="10.5030506" timestamp="2013-01-05T21:05:13Z" uid="11992" user="vibrog" version="1" />
	<node changeset="16381743" id="2328395587" lat="59.9676358" lon="10.612288" timestamp="2013-06-01T18:57:03Z" uid="11992" user="vibrog" version="1" />
	<node changeset="14541891" id="2096967492" lat="59.9597488" lon="10.5030052" timestamp="2013-01-05T21:05:13Z" uid="11992" user="vibrog" version="1" />
	<node changeset="14541891" id="2096967494" lat="59.9599116" lon="10.5034741" timestamp="2013-01-05T21:05:13Z" uid="11992" user="vibrog" version="1" />
	<node changeset="14541891" id="2096967495" lat="59.9599911" lon="10.5013865" timestamp="2013-01-05T21:05:13Z" uid="11992" user="vibrog" version="1" />
	<node changeset="6669656" id="1039469196" lat="59.9591688" lon="10.6005229" timestamp="2010-12-15T17:35:06Z" uid="11992" user="vibrog" version="1" />
	<node changeset="14541891" id="2096967498" lat="59.9602373" lon="10.5023471" timestamp="2013-01-05T21:05:13Z" uid="11992" user="vibrog" version="1" />
	<node changeset="16381743" id="2328395598" lat="59.9676768" lon="10.613556" timestamp="2013-06-01T18:57:03Z" uid="11992" user="vibrog" version="1" />
	<node changeset="16381743" id="2328395600" lat="59.9676982" lon="10.6125337" timestamp="2013-06-01T18:57:03Z" uid="11992" user="vibrog" version="1" />
	<node changeset="16381743" id="2328395606" lat="59.967773" lon="10.6125373" timestamp="2013-06-01T18:57:03Z" uid="11992" user="vibrog" version="1" />
	<node changeset="16381743" id="2328395608" lat="59.9678711" lon="10.6132496" timestamp="2013-06-01T18:57:03Z" uid="11992" user="vibrog" version="1" />
	<node changeset="49714732" id="4928358682" lat="59.9265534" lon="10.465842" timestamp="2017-06-21T09:08:36Z" uid="5735621" user="Ralf_Jeppsson" version="1" />
	<node changeset="70122828" id="6234312554" lat="59.9130129" lon="10.6365628" timestamp="2019-05-10T19:49:57Z" uid="633013" user="Honning" version="2">
		<tag k="name" v="Lysaker" />
		<tag k="place" v="suburb" />
		<tag k="ssr:stedsnr" v="368909" />
	</node>
	<node changeset="70122828" id="6465581031" lat="59.91435" lon="10.43105" timestamp="2019-05-10T19:49:38Z" uid="633013" user="Honning" version="1">
		<tag k="name" v="Rønningen" />
		<tag k="place" v="farm" />
		<tag k="ssr:stedsnr" v="793897" />
	</node>
	<node changeset="70122828" id="6234312558" lat="59.8809917" lon="10.504875" timestamp="2019-05-10T19:49:57Z" uid="633013" user="Honning" version="2">
		<tag k="name" v="Slependen" />
		<tag k="place" v="suburb" />
		<tag k="ssr:stedsnr" v="693959" />
	</node>
	<node changeset="70122828" id="6465581033" lat="59.9224028" lon="10.470375" timestamp="2019-05-10T19:49:38Z" uid="633013" user="Honning" version="1">
		<tag k="name" v="Økern" />
		<tag k="place" v="farm" />
		<tag k="ssr:stedsnr" v="793953" />
	</node>
	<node changeset="49714732" id="4928358683" lat="59.9268095" lon="10.4657474" timestamp="2017-06-21T09:08:36Z" uid="5735621" user="Ralf_Jeppsson" version="1" />
	<node changeset="13103320" id="1913669951" lat="59.8927473" lon="10.4561173" timestamp="2012-09-14T06:01:22Z" uid="11992" user="vibrog" version="1" />
	<node changeset="70122828" id="6465581034" lat="59.9418528" lon="10.5867639" timestamp="2019-05-10T19:49:38Z" uid="633013" user="Honning" version="1">
		<tag k="name" v="Bråten" />
		<tag k="place" v="farm" />
		<tag k="ssr:stedsnr" v="793987" />
	</node>
	<node changeset="13103320" id="1913669952" lat="59.8927826" lon="10.4559183" timestamp="2012-09-14T06:01:22Z" uid="11992" user="vibrog" version="1" />
	<node changeset="70122828" id="2982911879" lat="59.904275" lon="10.4127528" timestamp="2019-05-10T19:49:55Z" uid="633013" user="Honning" version="4">
		<tag k="historic" v="shieling" />
		<tag k="historic:operator" v="Stovi;Kveise;Skui;Butterud" />
		<tag k="name" v="Stovivollen" />
		<tag k="official_name" v="Stovivollen" />
		<tag k="place" v="isolated_dwelling" />
		<tag k="ssr:stedsnr" v="186882" />
	</node>
	<node changeset="10842687" id="1655127703" lat="59.8786224" lon="10.4174442" timestamp="2012-03-01T21:50:10Z" uid="11992" user="vibrog" version="1" />
	<node changeset="6730951" id="1055514510" lat="59.955617" lon="10.5083632" timestamp="2010-12-21T22:39:38Z" uid="11992" user="vibrog" version="1" />
	<node changeset="12924143" id="1028378512" lat="59.9348601" lon="10.5564162" timestamp="2012-08-30T22:01:06Z" uid="11992" user="vibrog" version="2" />
	<node changeset="49714732" id="4928358684" lat="59.927121" lon="10.4655996" timestamp="2017-06-21T09:08:36Z" uid="5735621" user="Ralf_Jeppsson" version="1" />
	<node changeset="6730951" id="1055514532" lat="59.9482799" lon="10.4836141" timestamp="2010-12-21T22:39:39Z" uid="11992" user="vibrog" version="1" />
	<node changeset="16751952" id="2365665196" lat="59.9518323" lon="10.5777765" timestamp="2013-06-29T13:25:45Z" uid="11992" user="vibrog" version="1" />
	<node changeset="16751952" id="2365665197" lat="59.9518381" lon="10.5780593" timestamp="2013-06-29T13:25:45Z" uid="11992" user="vibrog" version="1" />
	<node changeset="16751952" id="2365665198" lat="59.9518901" lon="10.578192" timestamp="2013-06-29T13:25:46Z" uid="11992" user="vibrog" version="1" />
	<node changeset="70122828" id="325193649" lat="59.9476332" lon="10.3626295" timestamp="2019-05-10T19:49:53Z" uid="633013" user="Honning" version="3" />
	<node changeset="16751952" id="2365665203" lat="59.9519739" lon="10.578498" timestamp="2013-06-29T13:25:46Z" uid="11992" user="vibrog" version="1" />
	<node changeset="16751952" id="2365665205" lat="59.9520115" lon="10.5776726" timestamp="2013-06-29T13:25:46Z" uid="11992" user="vibrog" version="1" />
	<node changeset="16751952" id="2365665207" lat="59.952078" lon="10.5784749" timestamp="2013-06-29T13:25:46Z" uid="11992" user="vibrog" version="1" />
	<node changeset="16751952" id="2365665208" lat="59.9521184" lon="10.5782267" timestamp="2013-06-29T13:25:46Z" uid="11992" user="vibrog" version="1" />
	<node changeset="70122828" id="6465580985" lat="59.9168028" lon="10.5499306" timestamp="2019-05-10T19:49:36Z" uid="633013" user="Honning" version="1">
		<tag k="alt_name" v="Nes søndre" />
		<tag k="name" v="Søndre Nes" />
		<tag k="place" v="farm" />
		<tag k="ssr:stedsnr" v="689891" />
	</node>
	<node changeset="16751952" id="2365665210" lat="59.952208" lon="10.5780362" timestamp="2013-06-29T13:25:46Z" uid="11992" user="vibrog" version="1" />
	<node changeset="16751952" id="2365665211" lat="59.9522109" lon="10.5778919" timestamp="2013-06-29T13:25:46Z" uid="11992" user="vibrog" version="1" />
	<node changeset="73255887" id="6465580988" lat="59.9013111" lon="10.5027861" timestamp="2019-08-12T06:12:14Z" uid="9577574" user="Hungarian_user" version="2">
		<tag k="amenity" v="hospital" />
		<tag k="healthcare" v="hospital" />
		<tag k="name" v="Dønski sykehjem" />
		<tag k="ssr:stedsnr" v="689977" />
	</node>
	<node changeset="70122828" id="6465580989" lat="59.9218139" lon="10.469125" timestamp="2019-05-10T19:49:36Z" uid="633013" user="Honning" version="1">
		<tag k="alt_name" v="Økern søndre" />
		<tag k="name" v="Søndre Økern" />
		<tag k="place" v="farm" />
		<tag k="ssr:stedsnr" v="690055" />
	</node>
	<node changeset="70122828" id="6465580990" lat="59.9653222" lon="10.4799667" timestamp="2019-05-10T19:49:36Z" uid="633013" user="Honning" version="1">
		<tag k="alt_name" v="Kirkeby øvre" />
		<tag k="name" v="Øvre Kirkeby" />
		<tag k="place" v="farm" />
		<tag k="ssr:stedsnr" v="690078" />
	</node>
	<node changeset="70122828" id="6465580991" lat="59.8890083" lon="10.4430861" timestamp="2019-05-10T19:49:36Z" uid="633013" user="Honning" version="1">
		<tag k="name" v="Nordli" />
		<tag k="place" v="isolated_dwelling" />
		<tag k="ssr:stedsnr" v="690651" />
	</node>
	<node changeset="70122828" id="6465580992" lat="59.8910611" lon="10.4773056" timestamp="2019-05-10T19:49:36Z" uid="633013" user="Honning" version="1">
		<tag k="name" v="Søbråtan" />
		<tag k="place" v="farm" />
		<tag k="ssr:stedsnr" v="690657" />
	</node>
	<node changeset="70122828" id="6465580993" lat="59.8892333" lon="10.4777944" timestamp="2019-05-10T19:49:36Z" uid="633013" user="Honning" version="1">
		<tag k="name" v="Hellerud" />
		<tag k="place" v="farm" />
		<tag k="ssr:stedsnr" v="690662" />
	</node>
	<node changeset="70122828" id="6465580994" lat="59.9717361" lon="10.4837778" timestamp="2019-05-10T19:49:36Z" uid="633013" user="Honning" version="1">
		<tag k="name" v="Hagan" />
		<tag k="place" v="isolated_dwelling" />
		<tag k="ssr:stedsnr" v="731019" />
	</node>
	<node changeset="70122828" id="6465580995" lat="59.9712976" lon="10.4595044" timestamp="2019-05-10T19:49:36Z" uid="633013" user="Honning" version="1">
		<tag k="name" v="Trillerud" />
		<tag k="place" v="isolated_dwelling" />
		<tag k="ssr:stedsnr" v="731021" />
	</node>
	<node changeset="70122828" id="6465580996" lat="59.8896806" lon="10.6333167" timestamp="2019-05-10T19:49:36Z" uid="633013" user="Honning" version="1">
		<tag k="name" v="Pælvika" />
		<tag k="place" v="isolated_dwelling" />
		<tag k="ssr:stedsnr" v="732844" />
	</node>
	<node changeset="70122828" id="6465580997" lat="59.9037806" lon="10.6352139" timestamp="2019-05-10T19:49:36Z" uid="633013" user="Honning" version="1">
		<tag k="alt_name" v="Fornebo" />
		<tag k="name" v="Fornebu" />
		<tag k="place" v="farm" />
		<tag k="ssr:stedsnr" v="732860" />
	</node>
	<node changeset="70122828" id="6465580998" lat="59.8976417" lon="10.6044806" timestamp="2019-05-10T19:49:36Z" uid="633013" user="Honning" version="1">
		<tag k="building" v="industrial" />
		<tag k="industrial" v="factory" />
		<tag k="name" v="Oksenøya bruk" />
		<tag k="ssr:stedsnr" v="732863" />
	</node>
	<node changeset="70122828" id="659941319" lat="59.9568028" lon="10.5177083" timestamp="2019-05-10T19:49:54Z" uid="633013" user="Honning" version="4">
		<tag k="name" v="Kleiva" />
		<tag k="place" v="farm" />
		<tag k="ssr:stedsnr" v="368993" />
	</node>
	<node changeset="70122828" id="6465581000" lat="59.9228139" lon="10.4363861" timestamp="2019-05-10T19:49:37Z" uid="633013" user="Honning" version="1">
		<tag k="alt_name" v="Linbråten" />
		<tag k="name" v="Linbråtan" />
		<tag k="place" v="farm" />
		<tag k="ssr:stedsnr" v="732936" />
	</node>
	<node changeset="70122828" id="6465581001" lat="59.930775" lon="10.6185" timestamp="2019-05-10T19:49:37Z" uid="633013" user="Honning" version="1">
		<tag k="name" v="Voll" />
		<tag k="place" v="suburb" />
		<tag k="ssr:stedsnr" v="732948" />
	</node>
	<node changeset="70122828" id="6465581002" lat="59.9361611" lon="10.57305" timestamp="2019-05-10T19:49:37Z" uid="633013" user="Honning" version="1">
		<tag k="name" v="Haug" />
		<tag k="place" v="farm" />
		<tag k="ssr:stedsnr" v="732966" />
	</node>
	<node changeset="6587957" id="1028378571" lat="59.9351845" lon="10.5564293" timestamp="2010-12-08T18:33:50Z" uid="11992" user="vibrog" version="1" />
	<node changeset="70122828" id="6465581004" lat="59.9446389" lon="10.603175" timestamp="2019-05-10T19:49:37Z" uid="633013" user="Honning" version="1">
		<tag k="name" v="Østerås" />
		<tag k="place" v="farm" />
		<tag k="ssr:stedsnr" v="732983" />
	</node>
	<node changeset="70122828" id="6465581005" lat="59.9504" lon="10.6226778" timestamp="2019-05-10T19:49:37Z" uid="633013" user="Honning" version="1">
		<tag k="name" v="Grini" />
		<tag k="place" v="farm" />
		<tag k="ssr:stedsnr" v="732992" />
	</node>
	<node changeset="70122828" id="6465581006" lat="59.92945" lon="10.47225" timestamp="2019-05-10T19:49:37Z" uid="633013" user="Honning" version="1">
		<tag k="name" v="Berger" />
		<tag k="place" v="farm" />
		<tag k="ssr:stedsnr" v="733484" />
	</node>
	<node changeset="70122828" id="6465581007" lat="59.9178806" lon="10.4326528" timestamp="2019-05-10T19:49:37Z" uid="633013" user="Honning" version="1">
		<tag k="name" v="Holmenløkka" />
		<tag k="place" v="farm" />
		<tag k="ssr:stedsnr" v="750038" />
	</node>
	<node changeset="6597039" id="1029748688" lat="59.9600901" lon="10.5472961" timestamp="2010-12-09T17:04:34Z" uid="11992" user="vibrog" version="1" />
	<node changeset="70122828" id="6465581009" lat="59.929" lon="10.4368833" timestamp="2019-05-10T19:49:37Z" uid="633013" user="Honning" version="1">
		<tag k="name" v="Åsen" />
		<tag k="place" v="farm" />
		<tag k="ssr:stedsnr" v="750059" />
	</node>
	<node changeset="49714732" id="4928358686" lat="59.9267795" lon="10.4648297" timestamp="2017-06-21T09:08:36Z" uid="5735621" user="Ralf_Jeppsson" version="1" />
	<node changeset="70122828" id="6465581011" lat="59.9734028" lon="10.4664056" timestamp="2019-05-10T19:49:37Z" uid="633013" user="Honning" version="1">
		<tag k="alt_name" v="Guriby nordre" />
		<tag k="name" v="Nordre Guriby" />
		<tag k="place" v="farm" />
		<tag k="ssr:stedsnr" v="750064" />
	</node>
	<node changeset="70122828" id="6465581012" lat="59.9771083" lon="10.4759222" timestamp="2019-05-10T19:49:37Z" uid="633013" user="Honning" version="1">
		<tag k="alt_name" v="Vensås vestre" />
		<tag k="name" v="Vestre Vensås" />
		<tag k="place" v="farm" />
		<tag k="ssr:stedsnr" v="750066" />
	</node>
	<node changeset="70122828" id="6465581013" lat="59.9800194" lon="10.4539417" timestamp="2019-05-10T19:49:37Z" uid="633013" user="Honning" version="1">
		<tag k="name" v="Nordli" />
		<tag k="place" v="farm" />
		<tag k="ssr:stedsnr" v="750072" />
	</node>
	<node changeset="70122828" id="6465581015" lat="59.9056472" lon="10.634925" timestamp="2019-05-10T19:49:37Z" uid="633013" user="Honning" version="1">
		<tag k="name" v="Polhøgda" />
		<tag k="place" v="isolated_dwelling" />
		<tag k="ssr:stedsnr" v="750078" />
	</node>
	<node changeset="70122828" id="6465581016" lat="59.9534056" lon="10.5016361" timestamp="2019-05-10T19:49:37Z" uid="633013" user="Honning" version="1">
		<tag k="alt_name" v="Skollerud mellom" />
		<tag k="name" v="Mellom-Skollerud" />
		<tag k="place" v="farm" />
		<tag k="ssr:stedsnr" v="750082" />
	</node>
	<node changeset="70122828" id="6465581017" lat="59.93255" lon="10.4298222" timestamp="2019-05-10T19:49:37Z" uid="633013" user="Honning" version="1">
		<tag k="alt_name" v="Jammerdal søndre" />
		<tag k="name" v="Søndre Jammerdal" />
		<tag k="place" v="farm" />
		<tag k="ssr:stedsnr" v="750087" />
	</node>
	<node changeset="70122828" id="6465581018" lat="59.9034" lon="10.5307361" timestamp="2019-05-10T19:49:38Z" uid="633013" user="Honning" version="1">
		<tag k="alt_name" v="Valler aldershjem" />
		<tag k="amenity" v="nursing_home" />
		<tag k="name" v="Valler bo- og behandlingssenter" />
		<tag k="ssr:stedsnr" v="750891" />
	</node>
	<node changeset="70122828" id="6465581019" lat="59.905825" lon="10.5129722" timestamp="2019-05-10T19:49:38Z" uid="633013" user="Honning" version="1">
		<tag k="name" v="Elverksbygningen" />
		<tag k="place" v="quarter" />
		<tag k="ssr:stedsnr" v="750968" />
	</node>
	<node changeset="70122828" id="6465581020" lat="59.9185389" lon="10.6006833" timestamp="2019-05-10T19:49:38Z" uid="633013" user="Honning" version="1">
		<tag k="amenity" v="school" />
		<tag k="name" v="Ringstabekk skole" />
		<tag k="ssr:stedsnr" v="750995" />
	</node>
	<node changeset="70122828" id="6465581021" lat="59.8951056" lon="10.4913389" timestamp="2019-05-10T19:49:38Z" uid="633013" user="Honning" version="1">
		<tag k="amenity" v="nursing_home" />
		<tag k="name" v="Akershus vernepleierskole" />
		<tag k="ssr:stedsnr" v="751558" />
	</node>
	<node changeset="70122828" id="6465581022" lat="59.8956722" lon="10.536625" timestamp="2019-05-10T19:49:38Z" uid="633013" user="Honning" version="1">
		<tag k="name" v="Bakåsen" />
		<tag k="place" v="quarter" />
		<tag k="ssr:stedsnr" v="751563" />
	</node>
	<node changeset="70122828" id="6465580709" lat="59.9443806" lon="10.4942806" timestamp="2019-05-10T19:49:32Z" uid="633013" user="Honning" version="1">
		<tag k="name" v="Grinda" />
		<tag k="place" v="farm" />
		<tag k="ssr:stedsnr" v="489976" />
	</node>
	<node changeset="6597039" id="1029748704" lat="59.9599325" lon="10.5483327" timestamp="2010-12-09T17:04:34Z" uid="11992" user="vibrog" version="1" />
	<node changeset="70122828" id="6465581025" lat="59.9966306" lon="10.5059111" timestamp="2019-05-10T19:49:38Z" uid="633013" user="Honning" version="1">
		<tag k="alt_name" v="Vensåssætra" />
		<tag k="historic" v="shieling" />
		<tag k="name" v="Vensåssetra" />
		<tag k="place" v="locality" />
		<tag k="ssr:stedsnr" v="792087" />
	</node>
	<node changeset="70122828" id="6465581026" lat="59.8799556" lon="10.4651417" timestamp="2019-05-10T19:49:38Z" uid="633013" user="Honning" version="1">
		<tag k="name" v="Furuset" />
		<tag k="place" v="farm" />
		<tag k="ssr:stedsnr" v="792823" />
	</node>
	<node changeset="70122828" id="6465581027" lat="59.8835917" lon="10.4699111" timestamp="2019-05-10T19:49:38Z" uid="633013" user="Honning" version="1">
		<tag k="name" v="Staver" />
		<tag k="place" v="farm" />
		<tag k="ssr:stedsnr" v="792826" />
	</node>
	<node changeset="70122828" id="6465581028" lat="59.9602389" lon="10.489675" timestamp="2019-05-10T19:49:38Z" uid="633013" user="Honning" version="1">
		<tag k="name" v="Hellerud" />
		<tag k="place" v="farm" />
		<tag k="ssr:stedsnr" v="793019" />
	</node>
	<node changeset="70122828" id="6465581029" lat="59.9621361" lon="10.5114333" timestamp="2019-05-10T19:49:38Z" uid="633013" user="Honning" version="1">
		<tag k="name" v="Solli" />
		<tag k="place" v="farm" />
		<tag k="ssr:stedsnr" v="793024" />
	</node>
	<node changeset="70122828" id="6465581030" lat="59.979625" lon="10.4536833" timestamp="2019-05-10T19:49:38Z" uid="633013" user="Honning" version="1">
		<tag k="name" v="Guribyenga" />
		<tag k="place" v="farm" />
		<tag k="ssr:stedsnr" v="793114" />
	</node>
	<node changeset="70122828" id="4849029095" lat="59.9287389" lon="10.4753139" timestamp="2019-05-10T19:49:57Z" uid="633013" user="Honning" version="3">
		<tag k="loc_name" v="Rykkin" />
		<tag k="name" v="Rykkinn" />
		<tag k="place" v="suburb" />
		<tag k="ssr:stedsnr" v="386070" />
	</node>
	<node changeset="70122828" id="6465581032" lat="59.9083472" lon="10.4384861" timestamp="2019-05-10T19:49:38Z" uid="633013" user="Honning" version="1">
		<tag k="name" v="Jordbru" />
		<tag k="place" v="locality" />
		<tag k="ssr:stedsnr" v="793900" />
	</node>
	<node changeset="70122828" id="916387817" lat="59.9322361" lon="10.5618583" timestamp="2019-05-10T19:49:54Z" uid="633013" user="Honning" version="2">
		<tag k="name" v="Øverland" />
		<tag k="place" v="farm" />
		<tag k="ssr:stedsnr" v="4964" />
	</node>
	<node changeset="16475487" id="608495594" lat="59.958649" lon="10.6122944" timestamp="2013-06-08T22:51:10Z" uid="11992" user="vibrog" version="5" />
	<node changeset="70122828" id="6465581035" lat="59.9414111" lon="10.4332528" timestamp="2019-05-10T19:49:38Z" uid="633013" user="Honning" version="1">
		<tag k="name" v="Markebekk" />
		<tag k="place" v="isolated_dwelling" />
		<tag k="ssr:stedsnr" v="793992" />
	</node>
	<node changeset="70122828" id="6465581036" lat="59.9117611" lon="10.4645917" timestamp="2019-05-10T19:49:39Z" uid="633013" user="Honning" version="1">
		<tag k="name" v="Bekkeløkka" />
		<tag k="place" v="farm" />
		<tag k="ssr:stedsnr" v="811061" />
	</node>
	<node changeset="70122828" id="6465581037" lat="59.9104111" lon="10.468725" timestamp="2019-05-10T19:49:39Z" uid="633013" user="Honning" version="1">
		<tag k="name" v="Ringvoll" />
		<tag k="place" v="village" />
		<tag k="ssr:stedsnr" v="811062" />
	</node>
	<node changeset="70216862" id="6465581038" lat="59.9050459" lon="10.604937" timestamp="2019-05-14T05:00:17Z" uid="3497659" user="NKA" version="2">
		<tag k="name" v="Gamle NKI-skolen" />
		<tag k="place" v="locality" />
		<tag k="ssr:stedsnr" v="811105" />
		<tag k="was:amenity" v="school" />
	</node>
	<node changeset="70122828" id="6465581039" lat="59.9474389" lon="10.5142889" timestamp="2019-05-10T19:49:39Z" uid="633013" user="Honning" version="1">
		<tag k="name" v="Grorudbråtan" />
		<tag k="place" v="farm" />
		<tag k="ssr:stedsnr" v="811111" />
	</node>
	<node changeset="70122828" id="6465581040" lat="59.9471" lon="10.5151861" timestamp="2019-05-10T19:49:39Z" uid="633013" user="Honning" version="1">
		<tag k="name" v="Linderud" />
		<tag k="place" v="farm" />
		<tag k="ssr:stedsnr" v="811116" />
	</node>
	<node changeset="70122828" id="6465581041" lat="59.8915417" lon="10.4446833" timestamp="2019-05-10T19:49:39Z" uid="633013" user="Honning" version="1">
		<tag k="name" v="Bakken" />
		<tag k="place" v="isolated_dwelling" />
		<tag k="ssr:stedsnr" v="811596" />
	</node>
	<node changeset="70122828" id="6465581042" lat="59.90045" lon="10.573975" timestamp="2019-05-10T19:49:39Z" uid="633013" user="Honning" version="1">
		<tag k="alt_name" v="Høvik søndre" />
		<tag k="name" v="Søndre Høvik" />
		<tag k="place" v="farm" />
		<tag k="ssr:stedsnr" v="811871" />
	</node>
	<node changeset="70122828" id="6465581043" lat="59.9166" lon="10.593275" timestamp="2019-05-10T19:49:39Z" uid="633013" user="Honning" version="1">
		<tag k="name" v="Ringstabekk" />
		<tag k="place" v="quarter" />
		<tag k="ssr:stedsnr" v="811879" />
	</node>
	<node changeset="70122828" id="6465581044" lat="59.9027833" lon="10.5377083" timestamp="2019-05-10T19:49:39Z" uid="633013" user="Honning" version="1">
		<tag k="name" v="Krabberud" />
		<tag k="place" v="isolated_dwelling" />
		<tag k="ssr:stedsnr" v="811885" />
	</node>
	<node changeset="70122828" id="6465581045" lat="59.9496361" lon="10.6332694" timestamp="2019-05-10T19:49:39Z" uid="633013" user="Honning" version="1">
		<tag k="name" v="Saga I" />
		<tag k="place" v="locality" />
		<tag k="ssr:stedsnr" v="811896" />
	</node>
	<node changeset="70122828" id="6465581046" lat="59.9334139" lon="10.6047528" timestamp="2019-05-10T19:49:39Z" uid="633013" user="Honning" version="1">
		<tag k="leisure" v="pitch" />
		<tag k="name" v="Hagabråten" />
		<tag k="ssr:stedsnr" v="811914" />
	</node>
	<node changeset="70122828" id="6465581047" lat="59.9071972" lon="10.5120222" timestamp="2019-05-10T19:49:39Z" uid="633013" user="Honning" version="1">
		<tag k="alt_name" v="Levre nordre" />
		<tag k="name" v="Nordre Levre" />
		<tag k="place" v="farm" />
		<tag k="ssr:stedsnr" v="811969" />
	</node>
	<node changeset="70122828" id="6465581048" lat="59.9061444" lon="10.5110083" timestamp="2019-05-10T19:49:39Z" uid="633013" user="Honning" version="1">
		<tag k="building" v="civic" />
		<tag k="name" v="Gjettum brannstasjon" />
		<tag k="ssr:stedsnr" v="811971" />
	</node>
	<node changeset="70122828" id="3541590356" lat="60.0107" lon="10.4893639" timestamp="2019-05-10T19:49:56Z" uid="633013" user="Honning" version="4">
		<tag k="historic" v="shieling" />
		<tag k="historic:operator" v="Øvre Jonsrud" />
		<tag k="name" v="Jonsrudkampen" />
		<tag k="place" v="croft" />
		<tag k="ssr:stedsnr" v="794872" />
	</node>
	<node changeset="70122828" id="6465581050" lat="59.9242972" lon="10.5636944" timestamp="2019-05-10T19:49:39Z" uid="633013" user="Honning" version="1">
		<tag k="alt_name" v="Haslum østre" />
		<tag k="name" v="Østre Haslum" />
		<tag k="place" v="farm" />
		<tag k="ssr:stedsnr" v="811987" />
	</node>
	<node changeset="70122828" id="6465581051" lat="59.9383306" lon="10.4278972" timestamp="2019-05-10T19:49:39Z" uid="633013" user="Honning" version="1">
		<tag k="alt_name" v="Bjørumssaga;Bjørum sag" />
		<tag k="building" v="industrial" />
		<tag k="industrial" v="factory" />
		<tag k="name" v="Bjørumsaga" />
		<tag k="ssr:stedsnr" v="830956" />
	</node>
	<node changeset="70122828" id="6465581052" lat="59.9478989" lon="10.5624965" timestamp="2019-05-10T19:49:39Z" uid="633013" user="Honning" version="1">
		<tag k="alt_name" v="Sæteren" />
		<tag k="name" v="Sætra" />
		<tag k="old_name" v="Haugssætheren;Haugsæteren" />
		<tag k="place" v="farm" />
		<tag k="ssr:stedsnr" v="843114;307971" />
		<tag k="tourism" v="chalet" />
	</node>
	<node changeset="70122828" id="6465581053" lat="59.9614639" lon="10.6248305" timestamp="2019-05-10T19:49:39Z" uid="633013" user="Honning" version="1">
		<tag k="name" v="Fossum" />
		<tag k="place" v="farm" />
		<tag k="ssr:stedsnr" v="854041" />
	</node>
	<node changeset="70122828" id="6465581054" lat="59.862925" lon="10.5830389" timestamp="2019-05-10T19:49:39Z" uid="633013" user="Honning" version="1">
		<tag k="name" v="Bjørnen" />
		<tag k="place" v="isolated_dwelling" />
		<tag k="ssr:stedsnr" v="854803" />
	</node>
	<node changeset="70122828" id="6465581055" lat="59.8935329" lon="10.5026002" timestamp="2019-05-10T19:49:40Z" uid="633013" user="Honning" version="1">
		<tag k="name" v="Jong" />
		<tag k="place" v="hamlet" />
		<tag k="ssr:stedsnr" v="854856" />
	</node>
	<way changeset="70122828" id="224927490" timestamp="2019-05-10T19:50:00Z" uid="633013" user="Honning" version="2">
		<tag k="historic" v="croft" />
		<tag k="landuse" v="residential" />
		<tag k="name" v="Malin" />
		<tag k="place" v="farm" />
		<tag k="ssr:stedsnr" v="429048" />
		<nd ref="2337674392" />
		<nd ref="2337674391" />
		<nd ref="2337674394" />
		<nd ref="2337674396" />
		<nd ref="608495594" />
		<nd ref="2003085738" />
		<nd ref="1137945616" />
		<nd ref="2337674392" />
	</way>
	<way changeset="70122828" id="180912243" timestamp="2019-05-10T19:49:59Z" uid="633013" user="Honning" version="4">
		<tag k="landuse" v="farmyard" />
		<tag k="name" v="Ringi" />
		<tag k="place" v="farm" />
		<tag k="ssr:stedsnr" v="4880" />
		<nd ref="1913670005" />
		<nd ref="1913670009" />
		<nd ref="1913670007" />
		<nd ref="1913670010" />
		<nd ref="1913670018" />
		<nd ref="1913670019" />
		<nd ref="1913670011" />
		<nd ref="343454393" />
		<nd ref="1913670004" />
		<nd ref="1913670000" />
		<nd ref="1913669995" />
		<nd ref="1913669981" />
		<nd ref="1913669977" />
		<nd ref="1975538387" />
		<nd ref="1975538392" />
		<nd ref="1913669984" />
		<nd ref="1913669971" />
		<nd ref="1913669953" />
		<nd ref="1913669951" />
		<nd ref="1913669952" />
		<nd ref="1913669973" />
		<nd ref="1913669979" />
		<nd ref="1913669999" />
		<nd ref="1975709856" />
		<nd ref="1913670005" />
	</way>
	<way changeset="70122828" id="220254475" timestamp="2019-05-10T19:49:59Z" uid="633013" user="Honning" version="2">
		<tag k="historic" v="croft" />
		<tag k="landuse" v="residential" />
		<tag k="name" v="Madserud" />
		<tag k="place" v="croft" />
		<tag k="ssr:stedsnr" v="125980" />
		<nd ref="2293829069" />
		<nd ref="2293829072" />
		<nd ref="2293829062" />
		<nd ref="2293829057" />
		<nd ref="2293829056" />
		<nd ref="2293829069" />
	</way>
	<way changeset="70122828" id="199229971" timestamp="2019-05-10T19:49:59Z" uid="633013" user="Honning" version="3">
		<tag k="landuse" v="farmyard" />
		<tag k="name" v="Gommerud" />
		<tag k="place" v="farm" />
		<tag k="ssr:stedsnr" v="368979" />
		<nd ref="2092469580" />
		<nd ref="2092469582" />
		<nd ref="2092469581" />
		<nd ref="2092469579" />
		<nd ref="2092469576" />
		<nd ref="2092469577" />
		<nd ref="2092469578" />
		<nd ref="2092469580" />
	</way>
	<way changeset="70122828" id="88700189" timestamp="2019-05-10T19:49:58Z" uid="633013" user="Honning" version="2">
		<tag k="landuse" v="residential" />
		<tag k="name" v="Muren" />
		<tag k="place" v="farm" />
		<tag k="source" v="Bing" />
		<tag k="ssr:stedsnr" v="550064" />
		<nd ref="1029748778" />
		<nd ref="1029749125" />
		<nd ref="1029748934" />
		<nd ref="1029749426" />
		<nd ref="1029749219" />
		<nd ref="1029749522" />
		<nd ref="1029749457" />
		<nd ref="1029749257" />
		<nd ref="1029749045" />
		<nd ref="1029748837" />
		<nd ref="1029749387" />
		<nd ref="1029749152" />
		<nd ref="1029748778" />
	</way>
	<way changeset="70122828" id="88700196" timestamp="2019-05-10T19:49:58Z" uid="633013" user="Honning" version="3">
		<tag k="landuse" v="residential" />
		<tag k="name" v="Mellom" />
		<tag k="place" v="farm" />
		<tag k="source" v="Bing" />
		<tag k="ssr:stedsnr" v="4992" />
		<nd ref="1029749544" />
		<nd ref="1029749020" />
		<nd ref="1029749517" />
		<nd ref="1029749356" />
		<nd ref="1029749119" />
		<nd ref="1029748932" />
		<nd ref="1029749453" />
		<nd ref="1030581786" />
		<nd ref="1029749235" />
		<nd ref="1029749035" />
		<nd ref="1030581799" />
		<nd ref="1029748827" />
		<nd ref="1029749154" />
		<nd ref="1029748965" />
		<nd ref="1029749544" />
	</way>
	<way changeset="70122828" id="89700136" timestamp="2019-05-10T19:49:58Z" uid="633013" user="Honning" version="3">
		<tag k="historic" v="croft" />
		<tag k="landuse" v="residential" />
		<tag k="name" v="Bakken" />
		<tag k="place" v="farm" />
		<tag k="ssr:stedsnr" v="325857" />
		<nd ref="1039469258" />
		<nd ref="2337674424" />
		<nd ref="1039468947" />
		<nd ref="1039468835" />
		<nd ref="1039469233" />
		<nd ref="1039469124" />
		<nd ref="1039469010" />
		<nd ref="1039468898" />
		<nd ref="1039469294" />
		<nd ref="1039469258" />
	</way>
	<way changeset="70122828" id="89700138" timestamp="2019-05-10T19:49:58Z" uid="633013" user="Honning" version="4">
		<tag k="amenity" v="animal_shelter" />
		<tag k="animal_shelter" v="cat" />
		<tag k="historic" v="croft" />
		<tag k="landuse" v="residential" />
		<tag k="name" v="Dælihuset" />
		<tag k="place" v="farm" />
		<tag k="ssr:stedsnr" v="125994" />
		<nd ref="1039468966" />
		<nd ref="1039469196" />
		<nd ref="1039469227" />
		<nd ref="1039469326" />
		<nd ref="1039468937" />
		<nd ref="1039469073" />
		<nd ref="1039469183" />
		<nd ref="1039468966" />
	</way>
	<way changeset="70122828" id="88700204" timestamp="2019-05-10T19:49:58Z" uid="633013" user="Honning" version="4">
		<tag k="alt_name" v="Nygård" />
		<tag k="landuse" v="farmyard" />
		<tag k="name" v="Nygard" />
		<tag k="place" v="farm" />
		<tag k="source" v="Bing" />
		<tag k="ssr:stedsnr" v="611062" />
		<nd ref="1029749262" />
		<nd ref="1029748688" />
		<nd ref="1029749414" />
		<nd ref="1029749187" />
		<nd ref="1029785253" />
		<nd ref="3165500522" />
		<nd ref="1029785218" />
		<nd ref="1029748819" />
		<nd ref="1029749499" />
		<nd ref="1029749098" />
		<nd ref="1029748704" />
		<nd ref="1029749262" />
	</way>
	<way changeset="70122828" id="224008114" timestamp="2019-05-10T19:49:59Z" uid="633013" user="Honning" version="3">
		<tag k="historic" v="croft" />
		<tag k="landuse" v="residential" />
		<tag k="name" v="Strømstad" />
		<tag k="place" v="farm" />
		<tag k="ssr:stedsnr" v="125047" />
		<nd ref="2328395606" />
		<nd ref="2328395608" />
		<nd ref="2328395598" />
		<nd ref="2328395581" />
		<nd ref="2328395568" />
		<nd ref="2328395570" />
		<nd ref="2328395587" />
		<nd ref="2328395600" />
		<nd ref="2328395606" />
	</way>
	<way changeset="70122828" id="90929779" timestamp="2019-05-10T19:49:58Z" uid="633013" user="Honning" version="4">
		<tag k="alt_name" v="Sleaskjulet;Sledeskuret" />
		<tag k="landuse" v="residential" />
		<tag k="name" v="Sleaskjulet" />
		<tag k="official_name" v="Sledeskuret" />
		<tag k="place" v="farm" />
		<tag k="ssr:stedsnr" v="404044" />
		<nd ref="1055515253" />
		<nd ref="1055514510" />
		<nd ref="1055513906" />
		<nd ref="1055514136" />
		<nd ref="1055515462" />
		<nd ref="1055515253" />
	</way>
	<way changeset="70122828" id="90929845" timestamp="2019-05-10T19:49:58Z" uid="633013" user="Honning" version="2">
		<tag k="landuse" v="residential" />
		<tag k="name" v="Eine" />
		<tag k="place" v="farm" />
		<tag k="source" v="Bing" />
		<tag k="ssr:stedsnr" v="307974" />
		<nd ref="1055515206" />
		<nd ref="1055514208" />
		<nd ref="1055515638" />
		<nd ref="1055513919" />
		<nd ref="1055515064" />
		<nd ref="1055515238" />
		<nd ref="1055514305" />
		<nd ref="1055514675" />
		<nd ref="1055513995" />
		<nd ref="1055514387" />
		<nd ref="1055515934" />
		<nd ref="1055514059" />
		<nd ref="1055515308" />
		<nd ref="1055515484" />
		<nd ref="1055514532" />
		<nd ref="1055514234" />
		<nd ref="1055515206" />
	</way>
	<way changeset="70122828" id="219782586" timestamp="2019-05-10T19:49:59Z" uid="633013" user="Honning" version="3">
		<tag k="alt_name" v="Veimyr" />
		<tag k="landuse" v="farmyard" />
		<tag k="name" v="Vegmyr" />
		<tag k="place" v="croft" />
		<tag k="ssr:stedsnr" v="490991" />
		<nd ref="2289178710" />
		<nd ref="2289178715" />
		<nd ref="2289178699" />
		<nd ref="2289178691" />
		<nd ref="2289178689" />
		<nd ref="2289178710" />
	</way>
	<way changeset="70122828" id="199712576" timestamp="2019-05-10T19:49:59Z" uid="633013" user="Honning" version="2">
		<tag k="landuse" v="farmyard" />
		<tag k="name" v="Burud" />
		<tag k="place" v="farm" />
		<tag k="ssr:stedsnr" v="308028" />
		<nd ref="2096967489" />
		<nd ref="2096967491" />
		<nd ref="2096967495" />
		<nd ref="2096967498" />
		<nd ref="2096967497" />
		<nd ref="2096967494" />
		<nd ref="2096967492" />
		<nd ref="2096967490" />
		<nd ref="2096967488" />
		<nd ref="2096967487" />
		<nd ref="2096967486" />
		<nd ref="2096967483" />
		<nd ref="2096967484" />
		<nd ref="2096967489" />
	</way>
	<way changeset="70122828" id="185233089" timestamp="2019-05-10T19:49:59Z" uid="633013" user="Honning" version="4">
		<tag k="landuse" v="farmyard" />
		<tag k="name" v="Gjønnes" />
		<tag k="place" v="farm" />
		<tag k="ssr:stedsnr" v="550908" />
		<nd ref="1957965260" />
		<nd ref="1957965267" />
		<nd ref="1957965266" />
		<nd ref="1957965252" />
		<nd ref="1957965216" />
		<nd ref="1957965213" />
		<nd ref="1957965209" />
		<nd ref="5585767035" />
		<nd ref="1957965227" />
		<nd ref="1957965254" />
		<nd ref="1957965262" />
		<nd ref="1957965260" />
	</way>
	<way changeset="70122828" id="103499587" timestamp="2019-05-10T19:49:59Z" uid="633013" user="Honning" version="2">
		<tag k="landuse" v="residential" />
		<tag k="name" v="Bråtan" />
		<tag k="place" v="farm" />
		<tag k="source" v="Bing" />
		<tag k="ssr:stedsnr" v="550999" />
		<nd ref="1195125899" />
		<nd ref="1195125896" />
		<nd ref="1195125967" />
		<nd ref="1195125939" />
		<nd ref="1195125911" />
		<nd ref="1195125934" />
		<nd ref="1195125901" />
		<nd ref="1195125867" />
		<nd ref="325193649" />
		<nd ref="1195125951" />
		<nd ref="1195125921" />
		<nd ref="1195125891" />
		<nd ref="1195125963" />
		<nd ref="1195125966" />
		<nd ref="1195125885" />
		<nd ref="1195125938" />
		<nd ref="1195125910" />
		<nd ref="1195125870" />
		<nd ref="1195125887" />
		<nd ref="1195125956" />
		<nd ref="1195125926" />
		<nd ref="1195125899" />
	</way>
	<way changeset="70122828" id="227935048" timestamp="2019-05-10T19:50:00Z" uid="633013" user="Honning" version="2">
		<tag k="historic" v="croft" />
		<tag k="landuse" v="residential" />
		<tag k="name" v="Enga" />
		<tag k="place" v="farm" />
		<tag k="ssr:stedsnr" v="628852" />
		<nd ref="2365665197" />
		<nd ref="2365665196" />
		<nd ref="2365665205" />
		<nd ref="2365665211" />
		<nd ref="2365665210" />
		<nd ref="2365665208" />
		<nd ref="2365665207" />
		<nd ref="2365665203" />
		<nd ref="2365665198" />
		<nd ref="2365665197" />
	</way>
	<way changeset="70122828" id="224010442" timestamp="2019-05-10T19:49:59Z" uid="633013" user="Honning" version="4">
		<tag k="alt_name" v="Kråkabråtan" />
		<tag k="historic" v="croft" />
		<tag k="landuse" v="residential" />
		<tag k="name" v="Kråkebråtan" />
		<tag k="place" v="farm" />
		<tag k="ssr:stedsnr" v="489051" />
		<nd ref="2328410782" />
		<nd ref="2328410784" />
		<nd ref="2328410788" />
		<nd ref="2328410786" />
		<nd ref="2328410787" />
		<nd ref="2328410785" />
		<nd ref="2328410783" />
		<nd ref="2328410782" />
	</way>
	<way changeset="70122828" id="88492108" timestamp="2019-05-10T19:49:58Z" uid="633013" user="Honning" version="5">
		<tag k="historic" v="croft" />
		<tag k="landuse" v="residential" />
		<tag k="name" v="Kråka" />
		<tag k="place" v="farm" />
		<tag k="ssr:stedsnr" v="367038" />
		<nd ref="1027864322" />
		<nd ref="1027864326" />
		<nd ref="1027864319" />
		<nd ref="2328412800" />
		<nd ref="2328412805" />
		<nd ref="2328412808" />
		<nd ref="6023060430" />
		<nd ref="1027864311" />
		<nd ref="1027864338" />
		<nd ref="1027864343" />
		<nd ref="2328412809" />
		<nd ref="2328412807" />
		<nd ref="2328412802" />
		<nd ref="1027864335" />
		<nd ref="1027864329" />
		<nd ref="1027864321" />
		<nd ref="1027864322" />
	</way>
	<way changeset="70122828" id="180526803" timestamp="2019-05-10T19:49:59Z" uid="633013" user="Honning" version="2">
		<tag k="landuse" v="residential" />
		<tag k="name" v="Stein" />
		<tag k="place" v="farm" />
		<tag k="ssr:stedsnr" v="550970" />
		<nd ref="1909510216" />
		<nd ref="1909510228" />
		<nd ref="1909510230" />
		<nd ref="1909510236" />
		<nd ref="1909510238" />
		<nd ref="1909510234" />
		<nd ref="1909510232" />
		<nd ref="1909510225" />
		<nd ref="1909510223" />
		<nd ref="1909510218" />
		<nd ref="1909510220" />
		<nd ref="1909510214" />
		<nd ref="1909510208" />
		<nd ref="1909510206" />
		<nd ref="1909510203" />
		<nd ref="1909510212" />
		<nd ref="1909510210" />
		<nd ref="1909510216" />
	</way>
	<way changeset="70122828" id="44710107" timestamp="2019-05-10T19:49:57Z" uid="633013" user="Honning" version="6">
		<tag k="landuse" v="residential" />
		<tag k="name" v="Lønli" />
		<tag k="place" v="croft" />
		<tag k="ssr:stedsnr" v="750998" />
		<nd ref="567284423" />
		<nd ref="567284424" />
		<nd ref="567284420" />
		<nd ref="1028378676" />
		<nd ref="1890677251" />
		<nd ref="1028378512" />
		<nd ref="567284418" />
		<nd ref="1028378571" />
		<nd ref="567284423" />
	</way>
	<way changeset="70122828" id="225298652" timestamp="2019-05-10T19:50:00Z" uid="633013" user="Honning" version="2">
		<tag k="historic" v="croft" />
		<tag k="landuse" v="residential" />
		<tag k="name" v="Bråtastua" />
		<tag k="place" v="farm" />
		<tag k="ssr:stedsnr" v="325861" />
		<nd ref="2340954489" />
		<nd ref="2340954492" />
		<nd ref="2340954497" />
		<nd ref="2340954499" />
		<nd ref="2340954494" />
		<nd ref="2340954489" />
	</way>
	<way changeset="70122828" id="225298653" timestamp="2019-05-10T19:50:00Z" uid="633013" user="Honning" version="2">
		<tag k="historic" v="croft" />
		<tag k="landuse" v="residential" />
		<tag k="name" v="Haugen" />
		<tag k="place" v="farm" />
		<tag k="ssr:stedsnr" v="854984" />
		<nd ref="2340954561" />
		<nd ref="2340954570" />
		<nd ref="2340954579" />
		<nd ref="2340954572" />
		<nd ref="2340954557" />
		<nd ref="2340954551" />
		<nd ref="2340954547" />
		<nd ref="2340954542" />
		<nd ref="2340954554" />
		<nd ref="2340954561" />
	</way>
	<way changeset="70122828" id="227938784" timestamp="2019-05-10T19:50:00Z" uid="633013" user="Honning" version="2">
		<tag k="landuse" v="residential" />
		<tag k="name" v="Svingen" />
		<tag k="place" v="croft" />
		<tag k="ssr:stedsnr" v="812000" />
		<nd ref="2365723607" />
		<nd ref="2365723609" />
		<nd ref="2365723610" />
		<nd ref="2365723608" />
		<nd ref="1029785280" />
		<nd ref="1029785194" />
		<nd ref="2365723606" />
		<nd ref="2365723607" />
	</way>
	<way changeset="70122828" id="49795054" timestamp="2019-05-10T19:49:57Z" uid="633013" user="Honning" version="6">
		<tag k="landuse" v="farmyard" />
		<tag k="name" v="Gupu" />
		<tag k="place" v="farm" />
		<tag k="source" v="Bing" />
		<tag k="ssr:stedsnr" v="671846" />
		<nd ref="632650157" />
		<nd ref="632650198" />
		<nd ref="632650193" />
		<nd ref="1655127713" />
		<nd ref="632650189" />
		<nd ref="632650183" />
		<nd ref="632650173" />
		<nd ref="500858163" />
		<nd ref="1655127703" />
		<nd ref="632650157" />
	</way>
	<way changeset="70122828" id="502334195" timestamp="2019-05-10T19:50:00Z" uid="633013" user="Honning" version="2">
		<tag k="landuse" v="farmyard" />
		<tag k="name" v="Nordby" />
		<tag k="place" v="farm" />
		<tag k="ssr:stedsnr" v="793965" />
		<nd ref="4928358657" />
		<nd ref="4928358656" />
		<nd ref="4928358655" />
		<nd ref="4928358650" />
		<nd ref="4928358649" />
		<nd ref="4928358654" />
		<nd ref="4928358653" />
		<nd ref="4928358652" />
		<nd ref="4928358651" />
		<nd ref="4928358657" />
	</way>
	<way changeset="70122828" id="502334198" timestamp="2019-05-10T19:50:00Z" uid="633013" user="Honning" version="2">
		<tag k="landuse" v="farmyard" />
		<tag k="name" v="Frogner" />
		<tag k="place" v="farm" />
		<tag k="ssr:stedsnr" v="186952" />
		<nd ref="4928358675" />
		<nd ref="4928358674" />
		<nd ref="4928358670" />
		<nd ref="4928358673" />
		<nd ref="4928358662" />
		<nd ref="4928358659" />
		<nd ref="4928358660" />
		<nd ref="4928358658" />
		<nd ref="4928358661" />
		<nd ref="4928358663" />
		<nd ref="4928358664" />
		<nd ref="4928358665" />
		<nd ref="4928358666" />
		<nd ref="4928358667" />
		<nd ref="4928358668" />
		<nd ref="4928358669" />
		<nd ref="4928358672" />
		<nd ref="4928358671" />
		<nd ref="4928358675" />
	</way>
	<way changeset="70122828" id="502334201" timestamp="2019-05-10T19:50:00Z" uid="633013" user="Honning" version="2">
		<tag k="alt_name" v="Berger nordre" />
		<tag k="landuse" v="farmyard" />
		<tag k="name" v="Nordre Berger" />
		<tag k="place" v="farm" />
		<tag k="ssr:stedsnr" v="508080" />
		<nd ref="4928358686" />
		<nd ref="4928358685" />
		<nd ref="4928358684" />
		<nd ref="4928358683" />
		<nd ref="4928358677" />
		<nd ref="4928358682" />
		<nd ref="4928358681" />
		<nd ref="4928358679" />
		<nd ref="4928358678" />
		<nd ref="4928358676" />
		<nd ref="4928358680" />
		<nd ref="4928358686" />
	</way>
	<way changeset="70122828" id="502334204" timestamp="2019-05-10T19:50:00Z" uid="633013" user="Honning" version="2">
		<tag k="alt_name" v="Berger søndre" />
		<tag k="landuse" v="farmyard" />
		<tag k="name" v="Søndre Berger" />
		<tag k="place" v="farm" />
		<tag k="ssr:stedsnr" v="4956;386072" />
		<nd ref="4928358693" />
		<nd ref="4928358692" />
		<nd ref="4928358691" />
		<nd ref="4928358690" />
		<nd ref="4928358689" />
		<nd ref="4928358688" />
		<nd ref="4928358687" />
		<nd ref="4928358693" />
	</way>
</osm>
