<?xml version="1.0" encoding="UTF-8"?>
<osm generator="osmapis" version="0.6">
	<node id="-672895" lat="67.0608222235" lon="13.8634111224">
		<tag k="name" v="Fugløya" />
		<tag k="ssr:date" v="2016-05-10" />
		<tag k="ssr:gruppe" v="navigasjon" />
		<tag k="ssr:hovedgruppe" v="infrastruktur" />
		<tag k="ssr:stedsnr" v="258235" />
		<tag k="ssr:type" v="fyrlykt" />
	</node>
	<node id="-672213" lat="66.9981400328" lon="14.1564664759">
		<tag k="name" v="Sirivika" />
		<tag k="ssr:date" v="2019-05-30" />
		<tag k="ssr:gruppe" v="veg" />
		<tag k="ssr:hovedgruppe" v="infrastruktur" />
		<tag k="ssr:stedsnr" v="1015230" />
		<tag k="ssr:type" v="adressenavn" />
	</node>
	<node id="-673912" lat="67.058319442" lon="13.618025006">
		<tag k="name" v="Lyngholmen" />
		<tag k="ssr:date" v="2016-05-11" />
		<tag k="ssr:gruppe" v="navigasjon" />
		<tag k="ssr:hovedgruppe" v="infrastruktur" />
		<tag k="ssr:stedsnr" v="744772" />
		<tag k="ssr:type" v="fyrlykt" />
	</node>
	<node id="-673651" lat="67.0782083373" lon="14.3549027815">
		<tag k="name" v="Grimstabben" />
		<tag k="ssr:date" v="2016-05-10" />
		<tag k="ssr:gruppe" v="navigasjon" />
		<tag k="ssr:hovedgruppe" v="infrastruktur" />
		<tag k="ssr:stedsnr" v="649681" />
		<tag k="ssr:type" v="fyrlykt" />
	</node>
	<node id="-672624" lat="66.9710805588" lon="14.1659444485">
		<tag k="name" v="Hopslinja" />
		<tag k="ssr:date" v="2016-05-10" />
		<tag k="ssr:gruppe" v="energi" />
		<tag k="ssr:hovedgruppe" v="infrastruktur" />
		<tag k="ssr:stedsnr" v="146575" />
		<tag k="ssr:type" v="kraftledning" />
	</node>
	<node id="-672061" lat="66.9750444416" lon="14.1461249884">
		<tag k="name" v="Gildeskållinja" />
		<tag k="ssr:date" v="2016-05-10" />
		<tag k="ssr:gruppe" v="energi" />
		<tag k="ssr:hovedgruppe" v="infrastruktur" />
		<tag k="ssr:stedsnr" v="388573" />
		<tag k="ssr:type" v="kraftledning" />
	</node>
	<node id="-673260" lat="66.9626611154" lon="14.1147972122">
		<tag k="name" v="Noviklinja" />
		<tag k="ssr:date" v="2016-05-10" />
		<tag k="ssr:gruppe" v="energi" />
		<tag k="ssr:hovedgruppe" v="infrastruktur" />
		<tag k="ssr:stedsnr" v="510621" />
		<tag k="ssr:type" v="kraftledning" />
	</node>
	<node id="-673259" lat="66.9765305584" lon="14.1576111008">
		<tag k="name" v="Beiarlinja" />
		<tag k="ssr:date" v="2016-05-10" />
		<tag k="ssr:gruppe" v="energi" />
		<tag k="ssr:hovedgruppe" v="infrastruktur" />
		<tag k="ssr:stedsnr" v="510617" />
		<tag k="ssr:type" v="kraftledning" />
	</node>
	<node id="-672060" lat="66.9718416675" lon="14.1341166777">
		<tag k="name" v="Skauvollinja" />
		<tag k="ssr:date" v="2016-05-10" />
		<tag k="ssr:gruppe" v="energi" />
		<tag k="ssr:hovedgruppe" v="infrastruktur" />
		<tag k="ssr:stedsnr" v="388571" />
		<tag k="ssr:type" v="kraftledning" />
	</node>
	<node id="-672195" lat="66.7879814938" lon="14.2124997314">
		<tag k="name" v="Svalvatnet" />
		<tag k="ssr:date" v="2019-05-30" />
		<tag k="ssr:gruppe" v="veg" />
		<tag k="ssr:hovedgruppe" v="infrastruktur" />
		<tag k="ssr:stedsnr" v="1015137" />
		<tag k="ssr:type" v="adressenavn" />
	</node>
	<node id="-672609" lat="67.1739138876" lon="13.7952389002">
		<tag k="name" v="Tangskjær" />
		<tag k="old_name" v="Tangskjeret" />
		<tag k="ssr:date" v="2016-05-10" />
		<tag k="ssr:gruppe" v="navigasjon" />
		<tag k="ssr:hovedgruppe" v="infrastruktur" />
		<tag k="ssr:stedsnr" v="137995" />
		<tag k="ssr:type" v="fyrlykt" />
	</node>
	<node id="-672182" lat="66.8609213044" lon="14.1555314784">
		<tag k="name" v="Fellvatnet" />
		<tag k="ssr:date" v="2019-05-30" />
		<tag k="ssr:gruppe" v="veg" />
		<tag k="ssr:hovedgruppe" v="infrastruktur" />
		<tag k="ssr:stedsnr" v="1015088" />
		<tag k="ssr:type" v="adressenavn" />
	</node>
	<node id="-672222" lat="66.9244851316" lon="14.1402718808">
		<tag k="name" v="Hellarfjellet" />
		<tag k="ssr:date" v="2019-05-30" />
		<tag k="ssr:gruppe" v="veg" />
		<tag k="ssr:hovedgruppe" v="infrastruktur" />
		<tag k="ssr:stedsnr" v="1015499" />
		<tag k="ssr:type" v="adressenavn" />
	</node>
	<node id="-672221" lat="67.1708638056" lon="13.7753476268">
		<tag k="name" v="Mevær" />
		<tag k="ssr:date" v="2019-05-30" />
		<tag k="ssr:gruppe" v="veg" />
		<tag k="ssr:hovedgruppe" v="infrastruktur" />
		<tag k="ssr:stedsnr" v="1015348" />
		<tag k="ssr:type" v="adressenavn" />
	</node>
	<node id="-672732" lat="67.1036138931" lon="13.9953305648">
		<tag k="name" v="Hustadsund" />
		<tag k="ssr:date" v="2016-05-10" />
		<tag k="ssr:gruppe" v="navigasjon" />
		<tag k="ssr:hovedgruppe" v="infrastruktur" />
		<tag k="ssr:stedsnr" v="198125" />
		<tag k="ssr:type" v="fyrlykt" />
	</node>
	<node id="-672219" lat="67.0741424478" lon="13.8557381612">
		<tag k="name" v="Nordfugløy" />
		<tag k="ssr:date" v="2019-05-30" />
		<tag k="ssr:gruppe" v="veg" />
		<tag k="ssr:hovedgruppe" v="infrastruktur" />
		<tag k="ssr:stedsnr" v="1015341" />
		<tag k="ssr:type" v="adressenavn" />
	</node>
	<node id="-672218" lat="67.0057077875" lon="14.178011634">
		<tag k="name" v="Kvarsnes" />
		<tag k="ssr:date" v="2019-05-30" />
		<tag k="ssr:gruppe" v="veg" />
		<tag k="ssr:hovedgruppe" v="infrastruktur" />
		<tag k="ssr:stedsnr" v="1015244" />
		<tag k="ssr:type" v="adressenavn" />
	</node>
	<node id="-672217" lat="67.0471207813" lon="14.148297357">
		<tag k="name" v="Grytvika" />
		<tag k="ssr:date" v="2019-05-30" />
		<tag k="ssr:gruppe" v="veg" />
		<tag k="ssr:hovedgruppe" v="infrastruktur" />
		<tag k="ssr:stedsnr" v="1015240" />
		<tag k="ssr:type" v="adressenavn" />
	</node>
	<node id="-672216" lat="67.1498656648" lon="14.2750801695">
		<tag k="name" v="Telnes" />
		<tag k="ssr:date" v="2019-05-30" />
		<tag k="ssr:gruppe" v="veg" />
		<tag k="ssr:hovedgruppe" v="infrastruktur" />
		<tag k="ssr:stedsnr" v="1015237" />
		<tag k="ssr:type" v="adressenavn" />
	</node>
	<node id="-672215" lat="67.0171552944" lon="14.1660208935">
		<tag k="name" v="Kvarsvika" />
		<tag k="ssr:date" v="2019-05-30" />
		<tag k="ssr:gruppe" v="veg" />
		<tag k="ssr:hovedgruppe" v="infrastruktur" />
		<tag k="ssr:stedsnr" v="1015235" />
		<tag k="ssr:type" v="adressenavn" />
	</node>
	<node id="-672214" lat="67.0315910673" lon="14.154019634">
		<tag k="name" v="Morsdal" />
		<tag k="ssr:date" v="2019-05-30" />
		<tag k="ssr:gruppe" v="veg" />
		<tag k="ssr:hovedgruppe" v="infrastruktur" />
		<tag k="ssr:stedsnr" v="1015233" />
		<tag k="ssr:type" v="adressenavn" />
	</node>
	<node id="-672725" lat="67.0091388894" lon="13.9196027735">
		<tag k="name" v="Stavsundet" />
		<tag k="ssr:date" v="2016-05-10" />
		<tag k="ssr:gruppe" v="navigasjon" />
		<tag k="ssr:hovedgruppe" v="infrastruktur" />
		<tag k="ssr:stedsnr" v="198039" />
		<tag k="ssr:type" v="fyrlykt" />
	</node>
	<node id="-672212" lat="67.0706848831" lon="14.2245636851">
		<tag k="name" v="Framnes" />
		<tag k="ssr:date" v="2019-05-30" />
		<tag k="ssr:gruppe" v="veg" />
		<tag k="ssr:hovedgruppe" v="infrastruktur" />
		<tag k="ssr:stedsnr" v="1015227" />
		<tag k="ssr:type" v="adressenavn" />
	</node>
	<node id="-672211" lat="67.1512793707" lon="14.3295988609">
		<tag k="name" v="Okslia" />
		<tag k="ssr:date" v="2019-05-30" />
		<tag k="ssr:gruppe" v="veg" />
		<tag k="ssr:hovedgruppe" v="infrastruktur" />
		<tag k="ssr:stedsnr" v="1015225" />
		<tag k="ssr:type" v="adressenavn" />
	</node>
	<node id="-672210" lat="67.0627827226" lon="14.2587801115">
		<tag k="name" v="Risnes" />
		<tag k="ssr:date" v="2019-05-30" />
		<tag k="ssr:gruppe" v="veg" />
		<tag k="ssr:hovedgruppe" v="infrastruktur" />
		<tag k="ssr:stedsnr" v="1015204" />
		<tag k="ssr:type" v="adressenavn" />
	</node>
	<node id="-672209" lat="67.1564468912" lon="13.7614416054">
		<tag k="name" v="Tverrøya" />
		<tag k="ssr:date" v="2019-05-30" />
		<tag k="ssr:gruppe" v="veg" />
		<tag k="ssr:hovedgruppe" v="infrastruktur" />
		<tag k="ssr:stedsnr" v="1015199" />
		<tag k="ssr:type" v="adressenavn" />
	</node>
	<node id="-672208" lat="67.0572809593" lon="14.0996946274">
		<tag k="name" v="Odden" />
		<tag k="ssr:date" v="2019-05-30" />
		<tag k="ssr:gruppe" v="veg" />
		<tag k="ssr:hovedgruppe" v="infrastruktur" />
		<tag k="ssr:stedsnr" v="1015198" />
		<tag k="ssr:type" v="adressenavn" />
	</node>
	<node id="-672207" lat="67.021276089" lon="13.9606466349">
		<tag k="name" v="Sør-Sandnes" />
		<tag k="ssr:date" v="2019-05-30" />
		<tag k="ssr:gruppe" v="veg" />
		<tag k="ssr:hovedgruppe" v="infrastruktur" />
		<tag k="ssr:stedsnr" v="1015173" />
		<tag k="ssr:type" v="adressenavn" />
	</node>
	<node id="-672206" lat="67.0227163676" lon="13.933429631">
		<tag k="name" v="Sør-Femris" />
		<tag k="ssr:date" v="2019-05-30" />
		<tag k="ssr:gruppe" v="veg" />
		<tag k="ssr:hovedgruppe" v="infrastruktur" />
		<tag k="ssr:stedsnr" v="1015171" />
		<tag k="ssr:type" v="adressenavn" />
	</node>
	<node id="-672205" lat="67.1735149776" lon="13.7675563366">
		<tag k="name" v="Gjømmerholmen" />
		<tag k="ssr:date" v="2019-05-30" />
		<tag k="ssr:gruppe" v="veg" />
		<tag k="ssr:hovedgruppe" v="infrastruktur" />
		<tag k="ssr:stedsnr" v="1015161" />
		<tag k="ssr:type" v="adressenavn" />
	</node>
	<node id="-672204" lat="67.0564254127" lon="13.9566051475">
		<tag k="name" v="Røssøysundet" />
		<tag k="ssr:date" v="2019-05-30" />
		<tag k="ssr:gruppe" v="veg" />
		<tag k="ssr:hovedgruppe" v="infrastruktur" />
		<tag k="ssr:stedsnr" v="1015159" />
		<tag k="ssr:type" v="adressenavn" />
	</node>
	<node id="-672203" lat="67.1738277468" lon="13.7824652435">
		<tag k="name" v="Kjønnøya" />
		<tag k="ssr:date" v="2019-05-30" />
		<tag k="ssr:gruppe" v="veg" />
		<tag k="ssr:hovedgruppe" v="infrastruktur" />
		<tag k="ssr:stedsnr" v="1015157" />
		<tag k="ssr:type" v="adressenavn" />
	</node>
	<node id="-672202" lat="67.1737084053" lon="13.7789459884">
		<tag k="name" v="Korsholmen" />
		<tag k="ssr:date" v="2019-05-30" />
		<tag k="ssr:gruppe" v="veg" />
		<tag k="ssr:hovedgruppe" v="infrastruktur" />
		<tag k="ssr:stedsnr" v="1015155" />
		<tag k="ssr:type" v="adressenavn" />
	</node>
	<node id="-672201" lat="67.1649989241" lon="13.7936678185">
		<tag k="name" v="Langholmen" />
		<tag k="ssr:date" v="2019-05-30" />
		<tag k="ssr:gruppe" v="veg" />
		<tag k="ssr:hovedgruppe" v="infrastruktur" />
		<tag k="ssr:stedsnr" v="1015153" />
		<tag k="ssr:type" v="adressenavn" />
	</node>
	<node id="-672200" lat="67.1616287227" lon="13.7675676307">
		<tag k="name" v="Sørværet" />
		<tag k="ssr:date" v="2019-05-30" />
		<tag k="ssr:gruppe" v="veg" />
		<tag k="ssr:hovedgruppe" v="infrastruktur" />
		<tag k="ssr:stedsnr" v="1015151" />
		<tag k="ssr:type" v="adressenavn" />
	</node>
	<node id="-672199" lat="67.1698651358" lon="13.7879412617">
		<tag k="name" v="Skora" />
		<tag k="ssr:date" v="2019-05-30" />
		<tag k="ssr:gruppe" v="veg" />
		<tag k="ssr:hovedgruppe" v="infrastruktur" />
		<tag k="ssr:stedsnr" v="1015146" />
		<tag k="ssr:type" v="adressenavn" />
	</node>
	<node id="-672198" lat="67.169213972" lon="13.7603246572">
		<tag k="name" v="Unsøya" />
		<tag k="ssr:date" v="2019-05-30" />
		<tag k="ssr:gruppe" v="veg" />
		<tag k="ssr:hovedgruppe" v="infrastruktur" />
		<tag k="ssr:stedsnr" v="1015143" />
		<tag k="ssr:type" v="adressenavn" />
	</node>
	<node id="-672197" lat="66.8825163701" lon="14.1309969214">
		<tag k="name" v="Storvatnet" />
		<tag k="ssr:date" v="2019-05-30" />
		<tag k="ssr:gruppe" v="veg" />
		<tag k="ssr:hovedgruppe" v="infrastruktur" />
		<tag k="ssr:stedsnr" v="1015141" />
		<tag k="ssr:type" v="adressenavn" />
	</node>
	<node id="-672196" lat="66.9156432221" lon="14.2091195083">
		<tag k="name" v="Sokumvatnet" />
		<tag k="ssr:date" v="2019-05-30" />
		<tag k="ssr:gruppe" v="veg" />
		<tag k="ssr:hovedgruppe" v="infrastruktur" />
		<tag k="ssr:stedsnr" v="1015138" />
		<tag k="ssr:type" v="adressenavn" />
	</node>
	<node id="-674243" lat="66.9665611088" lon="14.1367361136">
		<tag k="name" v="Storvasslinja" />
		<tag k="ssr:date" v="2016-05-11" />
		<tag k="ssr:gruppe" v="energi" />
		<tag k="ssr:hovedgruppe" v="infrastruktur" />
		<tag k="ssr:stedsnr" v="874612" />
		<tag k="ssr:type" v="kraftledning" />
	</node>
	<node id="-672194" lat="67.0470248396" lon="13.645038142">
		<tag k="name" v="Fugløyværet" />
		<tag k="ssr:date" v="2019-05-30" />
		<tag k="ssr:gruppe" v="veg" />
		<tag k="ssr:hovedgruppe" v="infrastruktur" />
		<tag k="ssr:stedsnr" v="1015134" />
		<tag k="ssr:type" v="adressenavn" />
	</node>
	<node id="-672193" lat="66.8627296734" lon="14.0838960964">
		<tag k="name" v="Fagerdalen" />
		<tag k="ssr:date" v="2019-05-30" />
		<tag k="ssr:gruppe" v="veg" />
		<tag k="ssr:hovedgruppe" v="infrastruktur" />
		<tag k="ssr:stedsnr" v="1015124" />
		<tag k="ssr:type" v="adressenavn" />
	</node>
	<node id="-672192" lat="67.1367997677" lon="14.004733589">
		<tag k="name" v="Ilsøya" />
		<tag k="ssr:date" v="2019-05-30" />
		<tag k="ssr:gruppe" v="veg" />
		<tag k="ssr:hovedgruppe" v="infrastruktur" />
		<tag k="ssr:stedsnr" v="1015114" />
		<tag k="ssr:type" v="adressenavn" />
	</node>
	<node id="-672191" lat="67.1345550791" lon="13.9826546037">
		<tag k="name" v="Krokholmen" />
		<tag k="ssr:date" v="2019-05-30" />
		<tag k="ssr:gruppe" v="veg" />
		<tag k="ssr:hovedgruppe" v="infrastruktur" />
		<tag k="ssr:stedsnr" v="1015112" />
		<tag k="ssr:type" v="adressenavn" />
	</node>
	<node id="-672574" lat="66.9782083304" lon="13.7303555514">
		<tag k="name" v="Finneset" />
		<tag k="ssr:date" v="2016-05-10" />
		<tag k="ssr:gruppe" v="navigasjon" />
		<tag k="ssr:hovedgruppe" v="infrastruktur" />
		<tag k="ssr:stedsnr" v="137194" />
		<tag k="ssr:type" v="fyrlykt" />
	</node>
	<node id="-672189" lat="67.0109014889" lon="14.1322743727">
		<tag k="name" v="Klikken" />
		<tag k="ssr:date" v="2019-05-30" />
		<tag k="ssr:gruppe" v="veg" />
		<tag k="ssr:hovedgruppe" v="infrastruktur" />
		<tag k="ssr:stedsnr" v="1015109" />
		<tag k="ssr:type" v="adressenavn" />
	</node>
	<node id="-672188" lat="66.8155679306" lon="14.1631821307">
		<tag k="name" v="Kråvatnet" />
		<tag k="ssr:date" v="2019-05-30" />
		<tag k="ssr:gruppe" v="veg" />
		<tag k="ssr:hovedgruppe" v="infrastruktur" />
		<tag k="ssr:stedsnr" v="1015106" />
		<tag k="ssr:type" v="adressenavn" />
	</node>
	<node id="-672187" lat="66.7837514457" lon="14.1763276776">
		<tag k="name" v="Sandvatnet" />
		<tag k="ssr:date" v="2019-05-30" />
		<tag k="ssr:gruppe" v="veg" />
		<tag k="ssr:hovedgruppe" v="infrastruktur" />
		<tag k="ssr:stedsnr" v="1015104" />
		<tag k="ssr:type" v="adressenavn" />
	</node>
	<node id="-672186" lat="66.8265770053" lon="14.257350357">
		<tag k="name" v="Fiskvatnet" />
		<tag k="ssr:date" v="2019-05-30" />
		<tag k="ssr:gruppe" v="veg" />
		<tag k="ssr:hovedgruppe" v="infrastruktur" />
		<tag k="ssr:stedsnr" v="1015102" />
		<tag k="ssr:type" v="adressenavn" />
	</node>
	<node id="-672185" lat="66.8380941792" lon="14.2466743533">
		<tag k="name" v="Sundvatnet" />
		<tag k="ssr:date" v="2019-05-30" />
		<tag k="ssr:gruppe" v="veg" />
		<tag k="ssr:hovedgruppe" v="infrastruktur" />
		<tag k="ssr:stedsnr" v="1015100" />
		<tag k="ssr:type" v="adressenavn" />
	</node>
	<node id="-673208" lat="67.0565666652" lon="13.9479166661">
		<tag k="name" v="Femrissund" />
		<tag k="ssr:date" v="2016-05-10" />
		<tag k="ssr:gruppe" v="navigasjon" />
		<tag k="ssr:hovedgruppe" v="infrastruktur" />
		<tag k="ssr:stedsnr" v="501216" />
		<tag k="ssr:type" v="fyrlykt" />
	</node>
	<node id="-672183" lat="67.1644630398" lon="13.7435941698">
		<tag k="name" v="Løksøya" />
		<tag k="ssr:date" v="2019-05-30" />
		<tag k="ssr:gruppe" v="veg" />
		<tag k="ssr:hovedgruppe" v="infrastruktur" />
		<tag k="ssr:stedsnr" v="1015096" />
		<tag k="ssr:type" v="adressenavn" />
	</node>
	<node id="-674230" lat="67.1620222202" lon="14.0628416638">
		<tag k="name" v="Mårnesskagen" />
		<tag k="ssr:date" v="2016-05-11" />
		<tag k="ssr:gruppe" v="navigasjon" />
		<tag k="ssr:hovedgruppe" v="infrastruktur" />
		<tag k="ssr:stedsnr" v="866884" />
		<tag k="ssr:type" v="fyrlykt" />
	</node>
	<node id="-672181" lat="66.8244137109" lon="14.1852540692">
		<tag k="name" v="Konradvatnet" />
		<tag k="ssr:date" v="2019-05-30" />
		<tag k="ssr:gruppe" v="veg" />
		<tag k="ssr:hovedgruppe" v="infrastruktur" />
		<tag k="ssr:stedsnr" v="1015084" />
		<tag k="ssr:type" v="adressenavn" />
	</node>
	<node id="-673716" lat="67.0283611133" lon="14.2406611161">
		<tag k="name" v="Holmsundøy" />
		<tag k="old_name" v="Holmsundøya" />
		<tag k="ssr:date" v="2016-05-11" />
		<tag k="ssr:gruppe" v="navigasjon" />
		<tag k="ssr:hovedgruppe" v="infrastruktur" />
		<tag k="ssr:stedsnr" v="683340" />
		<tag k="ssr:type" v="fyrlykt" />
	</node>
	<node id="-672179" lat="67.1231422199" lon="14.1875432416">
		<tag k="name" v="Lauklia" />
		<tag k="ssr:date" v="2019-05-30" />
		<tag k="ssr:gruppe" v="veg" />
		<tag k="ssr:hovedgruppe" v="infrastruktur" />
		<tag k="ssr:stedsnr" v="1015079" />
		<tag k="ssr:type" v="adressenavn" />
	</node>
	<node id="-672178" lat="67.1155533746" lon="14.1841337176">
		<tag k="name" v="Ravikvatnet" />
		<tag k="ssr:date" v="2019-05-30" />
		<tag k="ssr:gruppe" v="veg" />
		<tag k="ssr:hovedgruppe" v="infrastruktur" />
		<tag k="ssr:stedsnr" v="1015077" />
		<tag k="ssr:type" v="adressenavn" />
	</node>
	<node id="-672177" lat="66.9920536376" lon="13.929173282">
		<tag k="name" v="Forsvatnet" />
		<tag k="ssr:date" v="2019-05-30" />
		<tag k="ssr:gruppe" v="veg" />
		<tag k="ssr:hovedgruppe" v="infrastruktur" />
		<tag k="ssr:stedsnr" v="1015060" />
		<tag k="ssr:type" v="adressenavn" />
	</node>
	<node id="-672220" lat="67.0436309023" lon="13.9597890326">
		<tag k="name" v="Nord-Femris" />
		<tag k="ssr:date" v="2019-05-30" />
		<tag k="ssr:gruppe" v="veg" />
		<tag k="ssr:hovedgruppe" v="infrastruktur" />
		<tag k="ssr:stedsnr" v="1015346" />
		<tag k="ssr:type" v="adressenavn" />
	</node>
	<node id="-672037" lat="67.1442583302" lon="14.0018083414">
		<tag k="name" v="Sprengoddflu" />
		<tag k="old_name" v="Sprengoddflua" />
		<tag k="ssr:date" v="2016-05-10" />
		<tag k="ssr:gruppe" v="navigasjon" />
		<tag k="ssr:hovedgruppe" v="infrastruktur" />
		<tag k="ssr:stedsnr" v="380897" />
		<tag k="ssr:type" v="fyrlykt" />
	</node>
	<node id="-674084" lat="67.1706944465" lon="13.7432472282">
		<tag k="name" v="Altersholmen" />
		<tag k="ssr:date" v="2016-05-11" />
		<tag k="ssr:gruppe" v="navigasjon" />
		<tag k="ssr:hovedgruppe" v="infrastruktur" />
		<tag k="ssr:stedsnr" v="805999" />
		<tag k="ssr:type" v="fyrlykt" />
	</node>
	<node id="-674083" lat="67.1864944419" lon="13.808122218">
		<tag k="name" v="Sandholmen" />
		<tag k="ssr:date" v="2016-05-11" />
		<tag k="ssr:gruppe" v="navigasjon" />
		<tag k="ssr:hovedgruppe" v="infrastruktur" />
		<tag k="ssr:stedsnr" v="805985" />
		<tag k="ssr:type" v="fyrlykt" />
	</node>
	<node id="-674465" lat="68.4849327361" lon="16.2297866207">
		<tag k="fixme" v="multiple name tags, choose one and add the other to alt_name" />
		<tag k="name" v="Nord-Noreg;Nord-Norge" />
		<tag k="ssr:date" v="2017-05-18" />
		<tag k="ssr:gruppe" v="administrativeIndelinger" />
		<tag k="ssr:hovedgruppe" v="offentligAdministrasjon" />
		<tag k="ssr:stedsnr" v="976106" />
		<tag k="ssr:type" v="annenAdministrativInndeling" />
	</node>
	<node id="-672180" lat="66.815525496" lon="14.1403216381">
		<tag k="name" v="Gåsvatnan" />
		<tag k="ssr:date" v="2019-05-30" />
		<tag k="ssr:gruppe" v="veg" />
		<tag k="ssr:hovedgruppe" v="infrastruktur" />
		<tag k="ssr:stedsnr" v="1015081" />
		<tag k="ssr:type" v="adressenavn" />
	</node>
	<node id="-672184" lat="67.0140693117" lon="14.1242667207">
		<tag k="name" v="Leirvik" />
		<tag k="ssr:date" v="2019-05-30" />
		<tag k="ssr:gruppe" v="veg" />
		<tag k="ssr:hovedgruppe" v="infrastruktur" />
		<tag k="ssr:stedsnr" v="1015098" />
		<tag k="ssr:type" v="adressenavn" />
	</node>
	<node id="-672402" lat="67.184463892" lon="14.2284749951">
		<tag k="name" v="Oterholmen" />
		<tag k="ssr:date" v="2016-05-10" />
		<tag k="ssr:gruppe" v="navigasjon" />
		<tag k="ssr:hovedgruppe" v="infrastruktur" />
		<tag k="ssr:stedsnr" v="77056" />
		<tag k="ssr:type" v="fyrlykt" />
	</node>
	<node id="-673603" lat="67.0339388902" lon="14.0258166571">
		<tag k="name" v="Gildeskål kommune" />
		<tag k="ssr:date" v="2016-05-10" />
		<tag k="ssr:gruppe" v="administrativeIndelinger" />
		<tag k="ssr:hovedgruppe" v="offentligAdministrasjon" />
		<tag k="ssr:stedsnr" v="632325" />
		<tag k="ssr:type" v="kommune" />
	</node>
	<node id="-671881" lat="67.1259722196" lon="13.9027527661">
		<tag k="name" v="Jonskjærene" />
		<tag k="old_name" v="Jonskjera" />
		<tag k="ssr:date" v="2016-05-10" />
		<tag k="ssr:gruppe" v="navigasjon" />
		<tag k="ssr:hovedgruppe" v="infrastruktur" />
		<tag k="ssr:stedsnr" v="320937" />
		<tag k="ssr:type" v="fyrlykt" />
	</node>
	<node id="-672190" lat="66.9715056712" lon="13.9448074083">
		<tag k="name" v="Grøset" />
		<tag k="ssr:date" v="2019-05-30" />
		<tag k="ssr:gruppe" v="veg" />
		<tag k="ssr:hovedgruppe" v="infrastruktur" />
		<tag k="ssr:stedsnr" v="1015111" />
		<tag k="ssr:type" v="adressenavn" />
	</node>
	<node id="-673929" lat="67.1308500021" lon="13.9763333296">
		<tag k="name" v="Stangholmen SV.pynt" />
		<tag k="old_name" v="Stangholmen" />
		<tag k="ssr:date" v="2016-05-11" />
		<tag k="ssr:gruppe" v="navigasjon" />
		<tag k="ssr:hovedgruppe" v="infrastruktur" />
		<tag k="ssr:stedsnr" v="744930" />
		<tag k="ssr:type" v="fyrlykt" />
	</node>
	<node id="-672260" lat="67.0302249958" lon="14.0178611214">
		<tag k="name" v="Inndyr" />
		<tag k="ssr:date" v="2016-05-10" />
		<tag k="ssr:gruppe" v="navigasjon" />
		<tag k="ssr:hovedgruppe" v="infrastruktur" />
		<tag k="ssr:stedsnr" v="16182" />
		<tag k="ssr:type" v="fyrlykt" />
	</node>
	<node id="-672769" lat="66.9767333351" lon="13.6324166577">
		<tag k="name" v="Digerflesa" />
		<tag k="ssr:date" v="2016-05-10" />
		<tag k="ssr:gruppe" v="navigasjon" />
		<tag k="ssr:hovedgruppe" v="infrastruktur" />
		<tag k="ssr:stedsnr" v="198813" />
		<tag k="ssr:type" v="fyrlykt" />
	</node>
</osm>
