<?xml version="1.0" encoding="UTF-8"?>
<osm generator="osmapis" version="0.6">
	<node id="-405674" lat="59.0908916647" lon="9.78289722792">
		<tag k="fixme" v="consider natural=peak for the most distinct mountains in the district" />
		<tag k="name" v="Tjærehjellen" />
		<tag k="natural" v="hill" />
		<tag k="place" v="locality" />
		<tag k="ssr:stedsnr" v="836030" />
	</node>
	<node id="-404474" lat="59.1197166644" lon="9.67999167177">
		<tag k="name" v="Pasadalen" />
		<tag k="natural" v="valley" />
		<tag k="place" v="locality" />
		<tag k="ssr:stedsnr" v="229054" />
	</node>
	<node id="-405497" lat="59.1163833353" lon="9.67718332863">
		<tag k="fixme" v="consider natural=peak for the most distinct mountains in the district" />
		<tag k="name" v="Rødåsen" />
		<tag k="natural" v="hill" />
		<tag k="place" v="locality" />
		<tag k="ssr:stedsnr" v="593305" />
	</node>
	<node id="-405496" lat="59.1571222234" lon="9.73291388021">
		<tag k="name" v="Ramsdal" />
		<tag k="natural" v="valley" />
		<tag k="place" v="locality" />
		<tag k="ssr:stedsnr" v="593058" />
	</node>
	<node id="-405495" lat="59.0731083303" lon="9.72286944042">
		<tag k="fixme" v="consider natural=peak for the most distinct mountains in the district" />
		<tag k="name" v="Vardåsen" />
		<tag k="natural" v="hill" />
		<tag k="place" v="locality" />
		<tag k="ssr:stedsnr" v="593054" />
	</node>
	<node id="-405494" lat="59.148041666" lon="9.74409999635">
		<tag k="fixme" v="consider natural=peak for the most distinct mountains in the district" />
		<tag k="name" v="Slottet" />
		<tag k="natural" v="hill" />
		<tag k="place" v="locality" />
		<tag k="ssr:stedsnr" v="593051" />
	</node>
	<node id="-405673" lat="59.0797111143" lon="9.78875000135">
		<tag k="fixme" v="consider natural=peak for the most distinct mountains in the district" />
		<tag k="name" v="Linnatangåsen" />
		<tag k="natural" v="hill" />
		<tag k="place" v="locality" />
		<tag k="ssr:stedsnr" v="835785" />
	</node>
	<node id="-405491" lat="59.1157555589" lon="9.82559166692">
		<tag k="fixme" v="consider natural=peak for the most distinct mountains in the district" />
		<tag k="name" v="Sankthansåsen" />
		<tag k="natural" v="hill" />
		<tag k="place" v="locality" />
		<tag k="ssr:stedsnr" v="593018" />
	</node>
	<node id="-405490" lat="59.1816666674" lon="9.84369722071">
		<tag k="fixme" v="consider natural=peak for the most distinct mountains in the district" />
		<tag k="name" v="Grasåsdalen" />
		<tag k="natural" v="hill" />
		<tag k="place" v="locality" />
		<tag k="ssr:stedsnr" v="592978" />
	</node>
	<node id="-405488" lat="59.0401277759" lon="9.7407194514">
		<tag k="fixme" v="consider natural=peak for the most distinct mountains in the district" />
		<tag k="name" v="Tangen" />
		<tag k="natural" v="hill" />
		<tag k="place" v="locality" />
		<tag k="ssr:stedsnr" v="592943" />
	</node>
	<node id="-405487" lat="59.1040972212" lon="9.76594721952">
		<tag k="name" v="Lannerheia" />
		<tag k="natural" v="hill" />
		<tag k="place" v="locality" />
		<tag k="ssr:stedsnr" v="592939" />
	</node>
	<node id="-404456" lat="59.1091138864" lon="9.69319166613">
		<tag k="name" v="Kromsdalen" />
		<tag k="natural" v="valley" />
		<tag k="place" v="locality" />
		<tag k="ssr:stedsnr" v="290987" />
	</node>
	<node id="-404455" lat="59.1424638922" lon="9.70695832695">
		<tag k="fixme" v="consider natural=peak for the most distinct mountains in the district" />
		<tag k="name" v="Omberget" />
		<tag k="natural" v="hill" />
		<tag k="place" v="locality" />
		<tag k="ssr:stedsnr" v="290977" />
	</node>
	<node id="-405477" lat="59.125275" lon="9.72664166006">
		<tag k="fixme" v="consider natural=peak for the most distinct mountains in the district" />
		<tag k="name" v="Sagåsen" />
		<tag k="natural" v="hill" />
		<tag k="place" v="locality" />
		<tag k="ssr:stedsnr" v="592755" />
	</node>
	<node id="-404452" lat="59.1116055548" lon="9.80596667372">
		<tag k="fixme" v="consider natural=peak for the most distinct mountains in the district" />
		<tag k="name" v="Ønnsåsen" />
		<tag k="natural" v="hill" />
		<tag k="place" v="locality" />
		<tag k="ssr:stedsnr" v="290945" />
	</node>
	<node id="-404962" lat="59.130588396" lon="9.69849361906">
		<tag k="fixme" v="consider natural=peak for the most distinct mountains in the district" />
		<tag k="loc_name" v="Årmotåsen" />
		<tag k="name" v="Åmotåsen" />
		<tag k="natural" v="hill" />
		<tag k="place" v="locality" />
		<tag k="ssr:stedsnr" v="984498" />
	</node>
	<node id="-404449" lat="59.1020138907" lon="9.78671111754">
		<tag k="fixme" v="consider natural=peak for the most distinct mountains in the district" />
		<tag k="name" v="Sundsåsblåfjell" />
		<tag k="natural" v="hill" />
		<tag k="place" v="locality" />
		<tag k="ssr:stedsnr" v="290897" />
	</node>
	<node id="-404448" lat="59.0951583355" lon="9.79641666778">
		<tag k="name" v="Sundsåsdalen" />
		<tag k="natural" v="valley" />
		<tag k="place" v="locality" />
		<tag k="ssr:stedsnr" v="290884" />
	</node>
	<node id="-405464" lat="59.1442277805" lon="9.64900832747">
		<tag k="fixme" v="consider natural=peak for the most distinct mountains in the district" />
		<tag k="name" v="Høgås" />
		<tag k="natural" v="hill" />
		<tag k="place" v="locality" />
		<tag k="ssr:stedsnr" v="575297" />
	</node>
	<node id="-405463" lat="59.1372722223" lon="9.61919166562">
		<tag k="fixme" v="consider natural=peak for the most distinct mountains in the district" />
		<tag k="name" v="Skipperåsen" />
		<tag k="natural" v="hill" />
		<tag k="place" v="locality" />
		<tag k="ssr:stedsnr" v="574397" />
	</node>
	<node id="-404814" lat="59.0669694481" lon="9.73345000509">
		<tag k="name" v="Kreppa" />
		<tag k="natural" v="valley" />
		<tag k="place" v="locality" />
		<tag k="ssr:stedsnr" v="714989" />
	</node>
	<node id="-404434" lat="59.0512194471" lon="9.76689722495">
		<tag k="name" v="Linekra" />
		<tag k="natural" v="slope" />
		<tag k="place" v="locality" />
		<tag k="ssr:stedsnr" v="289926" />
	</node>
	<node id="-405457" lat="59.0954027773" lon="9.80020832548">
		<tag k="name" v="Blåfjell" />
		<tag k="natural" v="hill" />
		<tag k="place" v="locality" />
		<tag k="ssr:stedsnr" v="548406" />
	</node>
	<node id="-405456" lat="59.1457638928" lon="9.76631945005">
		<tag k="name" v="Holtedalen" />
		<tag k="natural" v="valley" />
		<tag k="place" v="locality" />
		<tag k="ssr:stedsnr" v="547663" />
	</node>
	<node id="-404431" lat="59.1759305568" lon="9.83919999832">
		<tag k="fixme" v="consider natural=peak for the most distinct mountains in the district" />
		<tag k="name" v="Grasås" />
		<tag k="natural" v="hill" />
		<tag k="place" v="locality" />
		<tag k="ssr:stedsnr" v="289783" />
	</node>
	<node id="-405454" lat="59.1211055545" lon="9.78996111651">
		<tag k="alt_name" v="Hanekneet" />
		<tag k="name" v="Hanakne" />
		<tag k="place" v="locality" />
		<tag k="ssr:stedsnr" v="547634" />
	</node>
	<node id="-404557" lat="59.1351805599" lon="9.80891389063">
		<tag k="fixme" v="consider natural=peak for the most distinct mountains in the district" />
		<tag k="name" v="Brentåsen" />
		<tag k="natural" v="hill" />
		<tag k="place" v="locality" />
		<tag k="ssr:stedsnr" v="471950" />
	</node>
	<node id="-404940" lat="59.0466111149" lon="9.76421666922">
		<tag k="name" v="Løvli" />
		<tag k="natural" v="slope" />
		<tag k="place" v="locality" />
		<tag k="ssr:stedsnr" v="905512" />
	</node>
	<node id="-404937" lat="59.153838889" lon="9.74966388887">
		<tag k="fixme" v="consider natural=peak for the most distinct mountains in the district" />
		<tag k="name" v="Sagåsen" />
		<tag k="natural" v="hill" />
		<tag k="place" v="locality" />
		<tag k="ssr:stedsnr" v="897973" />
	</node>
	<node id="-404422" lat="59.0942444464" lon="9.71573889539">
		<tag k="name" v="Solbakken" />
		<tag k="place" v="locality" />
		<tag k="ssr:stedsnr" v="289054" />
	</node>
	<node id="-404421" lat="59.0581805538" lon="9.76412499405">
		<tag k="name" v="Nepedalen" />
		<tag k="natural" v="hill" />
		<tag k="place" v="locality" />
		<tag k="ssr:stedsnr" v="177521" />
	</node>
	<node id="-404932" lat="59.147166664" lon="9.75257500092">
		<tag k="fixme" v="consider natural=peak for the most distinct mountains in the district" />
		<tag k="name" v="Samskottåsen" />
		<tag k="natural" v="hill" />
		<tag k="place" v="locality" />
		<tag k="ssr:stedsnr" v="897366" />
	</node>
	<node id="-404931" lat="59.1043166637" lon="9.68647777615">
		<tag k="fixme" v="consider natural=peak for the most distinct mountains in the district" />
		<tag k="name" v="Kjoneåsen" />
		<tag k="natural" v="hill" />
		<tag k="place" v="locality" />
		<tag k="ssr:stedsnr" v="897006" />
	</node>
	<node id="-404418" lat="59.0413750028" lon="9.83548333395">
		<tag k="name" v="Linnalia" />
		<tag k="natural" v="slope" />
		<tag k="place" v="locality" />
		<tag k="ssr:stedsnr" v="177312" />
	</node>
	<node id="-404923" lat="59.1143111146" lon="9.73411110831">
		<tag k="fixme" v="consider natural=peak for the most distinct mountains in the district" />
		<tag k="name" v="Bjønnåsen" />
		<tag k="natural" v="hill" />
		<tag k="place" v="locality" />
		<tag k="ssr:stedsnr" v="947032" />
	</node>
	<node id="-405429" lat="59.1488944414" lon="9.77488610658">
		<tag k="name" v="Storåsdalen" />
		<tag k="natural" v="valley" />
		<tag k="place" v="locality" />
		<tag k="ssr:stedsnr" v="532925" />
	</node>
	<node id="-404404" lat="59.07611389" lon="9.74894443778">
		<tag k="fixme" v="consider natural=peak for the most distinct mountains in the district" />
		<tag k="name" v="Kastvegåsen" />
		<tag k="natural" v="hill" />
		<tag k="place" v="locality" />
		<tag k="ssr:stedsnr" v="168007" />
	</node>
	<node id="-404913" lat="59.152388887" lon="9.6532833337">
		<tag k="name" v="Bråten" />
		<tag k="natural" v="slope" />
		<tag k="place" v="locality" />
		<tag k="ssr:stedsnr" v="939380" />
	</node>
	<node id="-404911" lat="59.0922305581" lon="9.72566389722">
		<tag k="fixme" v="consider natural=peak for the most distinct mountains in the district" />
		<tag k="name" v="Røraåsen" />
		<tag k="natural" v="hill" />
		<tag k="place" v="locality" />
		<tag k="ssr:stedsnr" v="836963" />
	</node>
	<node id="-404910" lat="59.1475888886" lon="9.76648332732">
		<tag k="fixme" v="consider natural=peak for the most distinct mountains in the district" />
		<tag k="name" v="Storås" />
		<tag k="natural" v="hill" />
		<tag k="place" v="locality" />
		<tag k="ssr:stedsnr" v="836917" />
	</node>
	<node id="-404909" lat="59.1276138906" lon="9.744966671">
		<tag k="name" v="Piksdalen" />
		<tag k="natural" v="valley" />
		<tag k="place" v="locality" />
		<tag k="ssr:stedsnr" v="836907" />
	</node>
	<node id="-404908" lat="59.0271694469" lon="9.82541667232">
		<tag k="name" v="Håøybratten" />
		<tag k="natural" v="cliff" />
		<tag k="ssr:stedsnr" v="836872" />
	</node>
	<node id="-404602" lat="59.193577779" lon="9.87070278282">
		<tag k="fixme" v="consider natural=peak for the most distinct mountains in the district" />
		<tag k="name" v="Sprenaåsane" />
		<tag k="natural" v="hill" />
		<tag k="place" v="locality" />
		<tag k="ssr:stedsnr" v="487748" />
	</node>
	<node id="-404807" lat="59.0842361119" lon="9.80391111286">
		<tag k="fixme" v="consider natural=peak for the most distinct mountains in the district" />
		<tag k="name" v="Brånaåsen" />
		<tag k="natural" v="hill" />
		<tag k="place" v="locality" />
		<tag k="ssr:stedsnr" v="714956" />
	</node>
	<node id="-404900" lat="59.1420944434" lon="9.76319723086">
		<tag k="fixme" v="consider natural=peak for the most distinct mountains in the district" />
		<tag k="name" v="Brånan" />
		<tag k="natural" v="hill" />
		<tag k="place" v="locality" />
		<tag k="ssr:stedsnr" v="836171" />
	</node>
	<node id="-405407" lat="59.0376777801" lon="9.75133054795">
		<tag k="name" v="Flåtafjellene" />
		<tag k="natural" v="hill" />
		<tag k="place" v="locality" />
		<tag k="ssr:stedsnr" v="531835" />
	</node>
	<node id="-404893" lat="59.1317055578" lon="9.71209999995">
		<tag k="fixme" v="consider natural=peak for the most distinct mountains in the district" />
		<tag k="name" v="Gudsfredåsen" />
		<tag k="natural" v="hill" />
		<tag k="place" v="locality" />
		<tag k="ssr:stedsnr" v="931276" />
	</node>
	<node id="-405404" lat="59.0235750015" lon="9.81728333764">
		<tag k="fixme" v="consider natural=peak for the most distinct mountains in the district" />
		<tag k="name" v="Storefjell" />
		<tag k="natural" v="hill" />
		<tag k="place" v="locality" />
		<tag k="ssr:stedsnr" v="531735" />
	</node>
	<node id="-405658" lat="59.1428611148" lon="9.81119167373">
		<tag k="loc_name" v="Tørkopp" />
		<tag k="name" v="Tørrkopp" />
		<tag k="natural" v="hill" />
		<tag k="place" v="locality" />
		<tag k="ssr:stedsnr" v="790664" />
	</node>
	<node id="-404622" lat="59.0759194414" lon="9.69138889721">
		<tag k="name" v="Vershaugen" />
		<tag k="natural" v="hill" />
		<tag k="place" v="locality" />
		<tag k="ssr:stedsnr" v="411353" />
	</node>
	<node id="-404975" lat="59.0992416671" lon="9.76522777072">
		<tag k="name" v="Omsdalsåsen" />
		<tag k="natural" v="hill" />
		<tag k="place" v="locality" />
		<tag k="ssr:stedsnr" v="2404" />
	</node>
	<node id="-405397" lat="59.1729972195" lon="9.86337499279">
		<tag k="fixme" v="consider natural=peak for the most distinct mountains in the district" />
		<tag k="name" v="Brentås" />
		<tag k="natural" v="hill" />
		<tag k="place" v="locality" />
		<tag k="ssr:stedsnr" v="522002" />
	</node>
	<node id="-404881" lat="59.1377138877" lon="9.78207778397">
		<tag k="fixme" v="consider natural=peak for the most distinct mountains in the district" />
		<tag k="name" v="Spiråsen" />
		<tag k="natural" v="hill" />
		<tag k="place" v="locality" />
		<tag k="ssr:stedsnr" v="776135" />
	</node>
	<node id="-404880" lat="59.0935944406" lon="9.67273888644">
		<tag k="alt_name" v="Brattåsen" />
		<tag k="fixme" v="consider natural=peak for the most distinct mountains in the district" />
		<tag k="name" v="Brattås" />
		<tag k="natural" v="hill" />
		<tag k="place" v="locality" />
		<tag k="ssr:stedsnr" v="775904" />
	</node>
	<node id="-404877" lat="59.0871944449" lon="9.75691666336">
		<tag k="fixme" v="consider natural=peak for the most distinct mountains in the district" />
		<tag k="name" v="Bergimellom" />
		<tag k="natural" v="hill" />
		<tag k="place" v="locality" />
		<tag k="ssr:stedsnr" v="775064" />
	</node>
	<node id="-405387" lat="59.0590805558" lon="9.66360555628">
		<tag k="name" v="Prekestolen" />
		<tag k="natural" v="hill" />
		<tag k="old_name" v="Preikestolen" />
		<tag k="place" v="locality" />
		<tag k="ssr:stedsnr" v="426443" />
	</node>
	<node id="-404362" lat="59.0499777773" lon="9.77185556051">
		<tag k="fixme" v="consider natural=peak for the most distinct mountains in the district" />
		<tag k="name" v="Lufjell" />
		<tag k="natural" v="hill" />
		<tag k="place" v="locality" />
		<tag k="ssr:stedsnr" v="229962" />
	</node>
	<node id="-404361" lat="59.0673527773" lon="9.75742222066">
		<tag k="fixme" v="consider natural=peak for the most distinct mountains in the district" />
		<tag k="name" v="Plasseråsen" />
		<tag k="natural" v="hill" />
		<tag k="place" v="locality" />
		<tag k="ssr:stedsnr" v="229960" />
	</node>
	<node id="-404360" lat="59.1340833301" lon="9.82449444384">
		<tag k="fixme" v="consider natural=peak for the most distinct mountains in the district" />
		<tag k="name" v="Lysemoåsen" />
		<tag k="natural" v="hill" />
		<tag k="place" v="locality" />
		<tag k="ssr:stedsnr" v="229959" />
	</node>
	<node id="-404359" lat="59.1447500027" lon="9.69805555071">
		<tag k="fixme" v="consider natural=peak for the most distinct mountains in the district" />
		<tag k="name" v="Kjerringåsen" />
		<tag k="natural" v="hill" />
		<tag k="place" v="locality" />
		<tag k="ssr:stedsnr" v="229956" />
	</node>
	<node id="-404358" lat="59.1858027789" lon="9.83879444665">
		<tag k="fixme" v="consider natural=peak for the most distinct mountains in the district" />
		<tag k="name" v="Hestås" />
		<tag k="natural" v="hill" />
		<tag k="place" v="locality" />
		<tag k="ssr:stedsnr" v="229955" />
	</node>
	<node id="-404357" lat="59.1481722192" lon="9.75390833513">
		<tag k="name" v="Dalalegda" />
		<tag k="natural" v="valley" />
		<tag k="place" v="locality" />
		<tag k="ssr:stedsnr" v="229901" />
	</node>
	<node id="-404866" lat="59.0445027759" lon="9.83219444958">
		<tag k="fixme" v="consider natural=peak for the most distinct mountains in the district" />
		<tag k="name" v="Strandåsen" />
		<tag k="natural" v="hill" />
		<tag k="place" v="locality" />
		<tag k="ssr:stedsnr" v="912515" />
	</node>
	<node id="-404353" lat="59.0546583372" lon="9.69056111811">
		<tag k="fixme" v="consider natural=peak for the most distinct mountains in the district" />
		<tag k="name" v="Pølseåsen" />
		<tag k="natural" v="hill" />
		<tag k="place" v="locality" />
		<tag k="ssr:stedsnr" v="229837" />
	</node>
	<node id="-404859" lat="59.1471416689" lon="9.7733055473">
		<tag k="fixme" v="consider natural=peak for the most distinct mountains in the district" />
		<tag k="name" v="Storås" />
		<tag k="natural" v="hill" />
		<tag k="place" v="locality" />
		<tag k="ssr:stedsnr" v="912270" />
	</node>
	<node id="-404343" lat="59.1417555539" lon="9.69682500436">
		<tag k="fixme" v="consider natural=peak for the most distinct mountains in the district" />
		<tag k="name" v="Røysåsen" />
		<tag k="natural" v="hill" />
		<tag k="place" v="locality" />
		<tag k="ssr:stedsnr" v="229396" />
	</node>
	<node id="-404847" lat="59.1145027781" lon="9.74179999746">
		<tag k="fixme" v="consider natural=peak for the most distinct mountains in the district" />
		<tag k="name" v="Geitåsen" />
		<tag k="natural" v="hill" />
		<tag k="place" v="locality" />
		<tag k="ssr:stedsnr" v="897998" />
	</node>
	<node id="-405357" lat="59.1344361139" lon="9.81593888027">
		<tag k="fixme" v="consider natural=peak for the most distinct mountains in the district" />
		<tag k="name" v="Korsåsen" />
		<tag k="natural" v="hill" />
		<tag k="place" v="locality" />
		<tag k="ssr:stedsnr" v="411966" />
	</node>
	<node id="-405356" lat="59.1005611149" lon="9.73439444829">
		<tag k="fixme" v="consider natural=peak for the most distinct mountains in the district" />
		<tag k="name" v="Vilskeåsen" />
		<tag k="natural" v="hill" />
		<tag k="place" v="locality" />
		<tag k="ssr:stedsnr" v="411946" />
	</node>
	<node id="-405355" lat="59.1056499995" lon="9.73836111189">
		<tag k="fixme" v="consider natural=peak for the most distinct mountains in the district" />
		<tag k="name" v="Borås" />
		<tag k="natural" v="hill" />
		<tag k="place" v="locality" />
		<tag k="ssr:stedsnr" v="411939" />
	</node>
	<node id="-405352" lat="59.0644583326" lon="9.7575500021">
		<tag k="fixme" v="consider natural=peak for the most distinct mountains in the district" />
		<tag k="name" v="Svarteputt" />
		<tag k="natural" v="hill" />
		<tag k="place" v="locality" />
		<tag k="ssr:stedsnr" v="411916" />
	</node>
	<node id="-404834" lat="59.0804527809" lon="9.66604166671">
		<tag k="name" v="Steinbrekka" />
		<tag k="natural" v="valley" />
		<tag k="place" v="locality" />
		<tag k="ssr:stedsnr" v="897346" />
	</node>
	<node id="-404833" lat="59.1291805558" lon="9.74127777034">
		<tag k="fixme" v="consider natural=peak for the most distinct mountains in the district" />
		<tag k="name" v="Storsteinåsen" />
		<tag k="natural" v="hill" />
		<tag k="place" v="locality" />
		<tag k="ssr:stedsnr" v="897041" />
	</node>
	<node id="-404831" lat="59.1550472208" lon="9.77768333554">
		<tag k="fixme" v="consider natural=peak for the most distinct mountains in the district" />
		<tag k="name" v="Rabbane" />
		<tag k="natural" v="hill" />
		<tag k="place" v="locality" />
		<tag k="ssr:stedsnr" v="897015" />
	</node>
	<node id="-404830" lat="59.1304888889" lon="9.81956665952">
		<tag k="fixme" v="consider natural=peak for the most distinct mountains in the district" />
		<tag k="name" v="Metalen" />
		<tag k="natural" v="hill" />
		<tag k="place" v="locality" />
		<tag k="ssr:stedsnr" v="897011" />
	</node>
	<node id="-404829" lat="59.1773055581" lon="9.75575833201">
		<tag k="fixme" v="consider natural=peak for the most distinct mountains in the district" />
		<tag k="name" v="Tørvåsen" />
		<tag k="natural" v="hill" />
		<tag k="place" v="locality" />
		<tag k="ssr:stedsnr" v="896939" />
	</node>
	<node id="-404828" lat="59.1389361119" lon="9.6282749948">
		<tag k="name" v="Vabakken" />
		<tag k="natural" v="slope" />
		<tag k="place" v="locality" />
		<tag k="ssr:stedsnr" v="896935" />
	</node>
	<node id="-404827" lat="59.1134083298" lon="9.81636388869">
		<tag k="fixme" v="consider natural=peak for the most distinct mountains in the district" />
		<tag k="name" v="Eikåsen" />
		<tag k="natural" v="hill" />
		<tag k="place" v="locality" />
		<tag k="ssr:stedsnr" v="896974" />
	</node>
	<node id="-405331" lat="59.1561194457" lon="9.75571111155">
		<tag k="name" v="Tommesdalen" />
		<tag k="natural" v="valley" />
		<tag k="place" v="locality" />
		<tag k="ssr:stedsnr" v="411225" />
	</node>
	<node id="-405329" lat="59.0869555546" lon="9.73755833881">
		<tag k="fixme" v="consider natural=peak for the most distinct mountains in the district" />
		<tag k="name" v="Tveitåsen" />
		<tag k="natural" v="hill" />
		<tag k="place" v="locality" />
		<tag k="ssr:stedsnr" v="411053" />
	</node>
	<node id="-404816" lat="59.1026138875" lon="9.73178333875">
		<tag k="fixme" v="consider natural=peak for the most distinct mountains in the district" />
		<tag k="loc_name" v="Røtuåsen" />
		<tag k="name" v="Rutuåsen" />
		<tag k="natural" v="hill" />
		<tag k="place" v="locality" />
		<tag k="ssr:stedsnr" v="714995" />
	</node>
	<node id="-405327" lat="59.1495111084" lon="9.79603611821">
		<tag k="fixme" v="consider natural=peak for the most distinct mountains in the district" />
		<tag k="name" v="Rienåsen" />
		<tag k="natural" v="hill" />
		<tag k="place" v="locality" />
		<tag k="ssr:stedsnr" v="411010" />
	</node>
	<node id="-405326" lat="59.143313893" lon="9.77079166276">
		<tag k="fixme" v="consider natural=peak for the most distinct mountains in the district" />
		<tag k="name" v="Røysåsen" />
		<tag k="natural" v="hill" />
		<tag k="place" v="locality" />
		<tag k="ssr:stedsnr" v="411009" />
	</node>
	<node id="-404365" lat="59.1789694452" lon="9.80749999698">
		<tag k="name" v="Oklungen" />
		<tag k="natural" v="valley" />
		<tag k="place" v="locality" />
		<tag k="ssr:stedsnr" v="230586" />
	</node>
	<node id="-404450" lat="59.0929499995" lon="9.77523056075">
		<tag k="fixme" v="consider natural=peak for the most distinct mountains in the district" />
		<tag k="name" v="Bergåsen" />
		<tag k="natural" v="hill" />
		<tag k="place" v="locality" />
		<tag k="ssr:stedsnr" v="290934" />
	</node>
	<node id="-404810" lat="59.0889861125" lon="9.79065555441">
		<tag k="fixme" v="consider natural=peak for the most distinct mountains in the district" />
		<tag k="name" v="Nauserkollen" />
		<tag k="natural" v="hill" />
		<tag k="place" v="locality" />
		<tag k="ssr:stedsnr" v="714968" />
	</node>
	<node id="-404809" lat="59.0814027757" lon="9.77477776944">
		<tag k="fixme" v="consider natural=peak for the most distinct mountains in the district" />
		<tag k="name" v="Leikåsane" />
		<tag k="natural" v="hill" />
		<tag k="place" v="locality" />
		<tag k="ssr:stedsnr" v="714964" />
	</node>
	<node id="-405319" lat="59.1361814744" lon="9.69858301158">
		<tag k="fixme" v="consider natural=peak for the most distinct mountains in the district" />
		<tag k="loc_name" v="Valleråsen" />
		<tag k="name" v="Valleråsane" />
		<tag k="natural" v="hill" />
		<tag k="place" v="locality" />
		<tag k="ssr:stedsnr" v="410721" />
	</node>
	<node id="-404363" lat="59.1212722248" lon="9.78947777068">
		<tag k="fixme" v="consider natural=peak for the most distinct mountains in the district" />
		<tag k="name" v="Heståsen" />
		<tag k="natural" v="hill" />
		<tag k="place" v="locality" />
		<tag k="ssr:stedsnr" v="229967" />
	</node>
	<node id="-405310" lat="59.1804027754" lon="9.79190556033">
		<tag k="name" v="Stjernsås" />
		<tag k="natural" v="hill" />
		<tag k="place" v="locality" />
		<tag k="ssr:stedsnr" v="366568" />
	</node>
	<node id="-405309" lat="59.1564916669" lon="9.75480834033">
		<tag k="fixme" v="consider natural=peak for the most distinct mountains in the district" />
		<tag k="loc_name" v="Busterødåsen" />
		<tag k="name" v="Busteråsen" />
		<tag k="natural" v="hill" />
		<tag k="place" v="locality" />
		<tag k="ssr:stedsnr" v="366542" />
	</node>
	<node id="-405306" lat="59.2030138933" lon="9.80997500155">
		<tag k="loc_name" v="Skolapperen" />
		<tag k="name" v="Skolapparåsen" />
		<tag k="natural" v="hill" />
		<tag k="place" v="locality" />
		<tag k="ssr:stedsnr" v="365712" />
	</node>
	<node id="-404791" lat="59.0780583307" lon="9.7224499997">
		<tag k="fixme" v="consider natural=peak for the most distinct mountains in the district" />
		<tag k="name" v="Laåsen" />
		<tag k="natural" v="hill" />
		<tag k="place" v="locality" />
		<tag k="ssr:stedsnr" v="714011" />
	</node>
	<node id="-404790" lat="59.1119750027" lon="9.71527222592">
		<tag k="fixme" v="consider natural=peak for the most distinct mountains in the district" />
		<tag k="name" v="Herregårdsåsen" />
		<tag k="natural" v="hill" />
		<tag k="place" v="locality" />
		<tag k="ssr:stedsnr" v="714005" />
	</node>
	<node id="-404784" lat="59.1404077529" lon="9.71003065517">
		<tag k="alt_name" v="Lundåsen" />
		<tag k="fixme" v="consider natural=peak for the most distinct mountains in the district" />
		<tag k="name" v="Lundeåsen" />
		<tag k="natural" v="hill" />
		<tag k="place" v="locality" />
		<tag k="ssr:stedsnr" v="668640" />
	</node>
	<node id="-404871" lat="59.129619445" lon="9.76293611768">
		<tag k="fixme" v="consider natural=peak for the most distinct mountains in the district" />
		<tag k="loc_name" v="Himåsane" />
		<tag k="name" v="Himåsen" />
		<tag k="natural" v="hill" />
		<tag k="place" v="locality" />
		<tag k="ssr:stedsnr" v="912596" />
	</node>
	<node id="-404776" lat="59.0647472235" lon="9.80506110265">
		<tag k="fixme" v="consider natural=peak for the most distinct mountains in the district" />
		<tag k="name" v="Rognliknatten" />
		<tag k="natural" v="hill" />
		<tag k="place" v="locality" />
		<tag k="ssr:stedsnr" v="653945" />
	</node>
	<node id="-405724" lat="59.1048027775" lon="9.82796388901">
		<tag k="fixme" v="consider natural=peak for the most distinct mountains in the district" />
		<tag k="name" v="Fritskløvåsen" />
		<tag k="natural" v="hill" />
		<tag k="place" v="locality" />
		<tag k="ssr:stedsnr" v="956746" />
	</node>
	<node id="-404528" lat="59.0541444473" lon="9.80167500311">
		<tag k="fixme" v="consider natural=peak for the most distinct mountains in the district" />
		<tag k="name" v="Tjuveråsen" />
		<tag k="natural" v="hill" />
		<tag k="place" v="locality" />
		<tag k="ssr:stedsnr" v="471101" />
	</node>
	<node id="-405637" lat="59.1528277739" lon="9.73299722789">
		<tag k="name" v="Vassbotnen" />
		<tag k="natural" v="valley" />
		<tag k="place" v="locality" />
		<tag k="ssr:stedsnr" v="775643" />
	</node>
	<node id="-405275" lat="59.0865222231" lon="9.8114333394">
		<tag k="name" v="Kopledalen" />
		<tag k="natural" v="valley" />
		<tag k="place" v="locality" />
		<tag k="ssr:stedsnr" v="351315" />
	</node>
	<node id="-405274" lat="59.1348027756" lon="9.65783610623">
		<tag k="fixme" v="consider natural=peak for the most distinct mountains in the district" />
		<tag k="name" v="Lilleås" />
		<tag k="natural" v="hill" />
		<tag k="place" v="locality" />
		<tag k="ssr:stedsnr" v="350993" />
	</node>
	<node id="-405271" lat="59.0596305571" lon="9.66530833712">
		<tag k="fixme" v="consider natural=peak for the most distinct mountains in the district" />
		<tag k="name" v="Kolbjørn" />
		<tag k="natural" v="hill" />
		<tag k="place" v="locality" />
		<tag k="ssr:stedsnr" v="350952" />
	</node>
	<node id="-405782" lat="59.0579972231" lon="9.80469445098">
		<tag k="name" v="Brennheita" />
		<tag k="natural" v="hill" />
		<tag k="place" v="locality" />
		<tag k="ssr:stedsnr" v="965044" />
	</node>
	<node id="-405269" lat="59.0716444482" lon="9.81549444635">
		<tag k="fixme" v="consider natural=peak for the most distinct mountains in the district" />
		<tag k="name" v="Storås" />
		<tag k="natural" v="hill" />
		<tag k="place" v="locality" />
		<tag k="ssr:stedsnr" v="350897" />
	</node>
	<node id="-405780" lat="59.0925833309" lon="9.65461943952">
		<tag k="fixme" v="consider natural=peak for the most distinct mountains in the district" />
		<tag k="name" v="Brånan" />
		<tag k="natural" v="hill" />
		<tag k="place" v="locality" />
		<tag k="ssr:stedsnr" v="958948" />
	</node>
	<node id="-404755" lat="59.0205527743" lon="9.82764445028">
		<tag k="fixme" v="consider natural=peak for the most distinct mountains in the district" />
		<tag k="name" v="Bratten" />
		<tag k="natural" v="hill" />
		<tag k="place" v="locality" />
		<tag k="ssr:stedsnr" v="729286" />
	</node>
	<node id="-405777" lat="59.1393444446" lon="9.81077777147">
		<tag k="fixme" v="consider natural=peak for the most distinct mountains in the district" />
		<tag k="name" v="Lysmoåsen" />
		<tag k="natural" v="hill" />
		<tag k="place" v="locality" />
		<tag k="ssr:stedsnr" v="958132" />
	</node>
	<node id="-404696" lat="59.1729194419" lon="9.80553610441">
		<tag k="fixme" v="consider natural=peak for the most distinct mountains in the district" />
		<tag k="name" v="Skottåsen" />
		<tag k="natural" v="hill" />
		<tag k="place" v="locality" />
		<tag k="ssr:stedsnr" v="713741" />
	</node>
	<node id="-405773" lat="59.0645861094" lon="9.81515277994">
		<tag k="fixme" v="consider natural=peak for the most distinct mountains in the district" />
		<tag k="name" v="Slottås" />
		<tag k="natural" v="hill" />
		<tag k="place" v="locality" />
		<tag k="ssr:stedsnr" v="957980" />
	</node>
	<node id="-405772" lat="59.0806694436" lon="9.72323889592">
		<tag k="fixme" v="consider natural=peak for the most distinct mountains in the district" />
		<tag k="name" v="Rødåsen" />
		<tag k="natural" v="hill" />
		<tag k="place" v="locality" />
		<tag k="ssr:stedsnr" v="957976" />
	</node>
	<node id="-404354" lat="59.0676888863" lon="9.67875277051">
		<tag k="fixme" v="consider natural=peak for the most distinct mountains in the district" />
		<tag k="name" v="Brentås" />
		<tag k="natural" v="hill" />
		<tag k="place" v="locality" />
		<tag k="ssr:stedsnr" v="229940" />
	</node>
	<node id="-404746" lat="59.1634722233" lon="9.76381110418">
		<tag k="name" v="Siljannibben" />
		<tag k="natural" v="hill" />
		<tag k="place" v="locality" />
		<tag k="ssr:stedsnr" v="608562" />
	</node>
	<node id="-405767" lat="59.1222972216" lon="9.71449166561">
		<tag k="fixme" v="consider natural=peak for the most distinct mountains in the district" />
		<tag k="name" v="Ulverødåsen" />
		<tag k="natural" v="hill" />
		<tag k="place" v="locality" />
		<tag k="ssr:stedsnr" v="957904" />
	</node>
	<node id="-405253" lat="59.1050333319" lon="9.79112777317">
		<tag k="name" v="Askedalen" />
		<tag k="natural" v="valley" />
		<tag k="place" v="locality" />
		<tag k="ssr:stedsnr" v="350884" />
	</node>
	<node id="-405248" lat="59.1261083358" lon="9.71058611295">
		<tag k="fixme" v="consider natural=peak for the most distinct mountains in the district" />
		<tag k="name" v="Våtekleiv" />
		<tag k="natural" v="hill" />
		<tag k="place" v="locality" />
		<tag k="ssr:stedsnr" v="350049" />
	</node>
	<node id="-405034" lat="59.1694694484" lon="9.82015000247">
		<tag k="name" v="Oredalen" />
		<tag k="natural" v="valley" />
		<tag k="place" v="locality" />
		<tag k="ssr:stedsnr" v="47998" />
	</node>
	<node id="-404729" lat="59.1456194428" lon="9.71980277446">
		<tag k="fixme" v="consider natural=peak for the most distinct mountains in the district" />
		<tag k="name" v="Bakkeåsen" />
		<tag k="natural" v="hill" />
		<tag k="place" v="locality" />
		<tag k="ssr:stedsnr" v="715239" />
	</node>
	<node id="-405716" lat="59.0773611149" lon="9.76894723075">
		<tag k="loc_name" v="Gravtjennåsen" />
		<tag k="name" v="Gravtjernåsen" />
		<tag k="natural" v="hill" />
		<tag k="old_name" v="Gravtjørnåsen" />
		<tag k="place" v="locality" />
		<tag k="ssr:stedsnr" v="851391" />
	</node>
	<node id="-404725" lat="59.1019888931" lon="9.77899443838">
		<tag k="name" v="Ramsdokka" />
		<tag k="natural" v="valley" />
		<tag k="place" v="locality" />
		<tag k="ssr:stedsnr" v="714904" />
	</node>
	<node id="-404520" lat="59.1357027762" lon="9.75005278231">
		<tag k="fixme" v="consider natural=peak for the most distinct mountains in the district" />
		<tag k="name" v="Skavråkåsen" />
		<tag k="natural" v="hill" />
		<tag k="place" v="locality" />
		<tag k="ssr:stedsnr" v="290906" />
	</node>
	<node id="-405230" lat="59.0674777754" lon="9.65314722191">
		<tag k="alt_name" v="Kongkleiva" />
		<tag k="name" v="Kongkleiv" />
		<tag k="natural" v="slope" />
		<tag k="place" v="locality" />
		<tag k="ssr:stedsnr" v="305492" />
	</node>
	<node id="-405225" lat="59.0918361082" lon="9.85367222505">
		<tag k="loc_name" v="Presteskjeggåsen" />
		<tag k="name" v="Prestskjeggen" />
		<tag k="natural" v="hill" />
		<tag k="place" v="locality" />
		<tag k="ssr:stedsnr" v="305398" />
	</node>
	<node id="-405734" lat="59.1568666666" lon="9.76642778522">
		<tag k="fixme" v="consider natural=peak for the most distinct mountains in the district" />
		<tag k="name" v="Åsmyråsen" />
		<tag k="natural" v="hill" />
		<tag k="place" v="locality" />
		<tag k="ssr:stedsnr" v="957051" />
	</node>
	<node id="-405732" lat="59.1463416649" lon="9.74920276941">
		<tag k="fixme" v="consider natural=peak for the most distinct mountains in the district" />
		<tag k="name" v="Krokkleivåsen" />
		<tag k="natural" v="hill" />
		<tag k="place" v="locality" />
		<tag k="ssr:stedsnr" v="957005" />
	</node>
	<node id="-405542" lat="59.09098056" lon="9.73403054896">
		<tag k="name" v="Gurpekollen" />
		<tag k="natural" v="hill" />
		<tag k="place" v="locality" />
		<tag k="ssr:stedsnr" v="608444" />
	</node>
	<node id="-405550" lat="59.1608138907" lon="9.72829721508">
		<tag k="fixme" v="consider natural=peak for the most distinct mountains in the district" />
		<tag k="name" v="Ramsåskollen" />
		<tag k="natural" v="hill" />
		<tag k="place" v="locality" />
		<tag k="ssr:stedsnr" v="630927" />
	</node>
	<node id="-404432" lat="59.1450138881" lon="9.80883333623">
		<tag k="fixme" v="consider natural=peak for the most distinct mountains in the district" />
		<tag k="name" v="Kjerråsen" />
		<tag k="natural" v="hill" />
		<tag k="place" v="locality" />
		<tag k="ssr:stedsnr" v="289788" />
	</node>
	<node id="-404700" lat="59.1917722187" lon="9.83225556384">
		<tag k="fixme" v="consider natural=peak for the most distinct mountains in the district" />
		<tag k="name" v="Askedalsås" />
		<tag k="natural" v="hill" />
		<tag k="place" v="locality" />
		<tag k="ssr:stedsnr" v="593918" />
	</node>
	<node id="-405723" lat="59.1148861083" lon="9.7878972229">
		<tag k="fixme" v="consider natural=peak for the most distinct mountains in the district" />
		<tag k="name" v="Reiersås" />
		<tag k="natural" v="hill" />
		<tag k="place" v="locality" />
		<tag k="ssr:stedsnr" v="956743" />
	</node>
	<node id="-404698" lat="59.186391668" lon="9.86292499362">
		<tag k="fixme" v="consider natural=peak for the most distinct mountains in the district" />
		<tag k="loc_name" v="Liljemyr" />
		<tag k="name" v="Lislemyr" />
		<tag k="natural" v="hill" />
		<tag k="place" v="locality" />
		<tag k="ssr:stedsnr" v="713748" />
	</node>
	<node id="-404697" lat="59.0739527821" lon="9.83489721664">
		<tag k="fixme" v="consider natural=peak for the most distinct mountains in the district" />
		<tag k="name" v="Middagskollen" />
		<tag k="natural" v="hill" />
		<tag k="place" v="locality" />
		<tag k="ssr:stedsnr" v="713746" />
	</node>
	<node id="-405208" lat="59.0524166654" lon="9.80940832729">
		<tag k="fixme" v="consider natural=peak for the most distinct mountains in the district" />
		<tag k="name" v="Barlindåsen" />
		<tag k="natural" v="hill" />
		<tag k="place" v="locality" />
		<tag k="ssr:stedsnr" v="184458" />
	</node>
	<node id="-404601" lat="59.2093111092" lon="9.79486943751">
		<tag k="fixme" v="consider natural=peak for the most distinct mountains in the district" />
		<tag k="name" v="Svarteberget" />
		<tag k="natural" v="hill" />
		<tag k="place" v="locality" />
		<tag k="ssr:stedsnr" v="487736" />
	</node>
	<node id="-404692" lat="59.1656166644" lon="9.77776666574">
		<tag k="fixme" v="consider natural=peak for the most distinct mountains in the district" />
		<tag k="name" v="Bjørnemyrholene" />
		<tag k="natural" v="hill" />
		<tag k="place" v="locality" />
		<tag k="ssr:stedsnr" v="704033" />
	</node>
	<node id="-404430" lat="59.1093333374" lon="9.78996944649">
		<tag k="fixme" v="consider natural=peak for the most distinct mountains in the district" />
		<tag k="name" v="Furuås" />
		<tag k="natural" v="hill" />
		<tag k="place" v="locality" />
		<tag k="ssr:stedsnr" v="289780" />
	</node>
	<node id="-405199" lat="59.1245805597" lon="9.66308889155">
		<tag k="name" v="Bjørntvetåsen" />
		<tag k="natural" v="hill" />
		<tag k="old_name" v="Bjørntveitåsen" />
		<tag k="place" v="locality" />
		<tag k="ssr:stedsnr" v="183541" />
	</node>
	<node id="-405195" lat="59.0664416653" lon="9.67068610585">
		<tag k="name" v="Veitåsen" />
		<tag k="natural" v="hill" />
		<tag k="place" v="locality" />
		<tag k="ssr:stedsnr" v="183365" />
	</node>
	<node id="-405706" lat="59.0498000031" lon="9.76880277672">
		<tag k="fixme" v="consider natural=peak for the most distinct mountains in the district" />
		<tag k="name" v="Skipsåsen" />
		<tag k="natural" v="hill" />
		<tag k="place" v="locality" />
		<tag k="ssr:stedsnr" v="837433" />
	</node>
	<node id="-404681" lat="59.0513416631" lon="9.82490000315">
		<tag k="fixme" v="consider natural=peak for the most distinct mountains in the district" />
		<tag k="name" v="Langvasskollen" />
		<tag k="natural" v="hill" />
		<tag k="place" v="locality" />
		<tag k="ssr:stedsnr" v="532973" />
	</node>
	<node id="-404680" lat="59.1743361103" lon="9.82876944844">
		<tag k="fixme" v="consider natural=peak for the most distinct mountains in the district" />
		<tag k="name" v="Hallvorsrønningen" />
		<tag k="natural" v="hill" />
		<tag k="place" v="locality" />
		<tag k="ssr:stedsnr" v="532967" />
	</node>
	<node id="-405703" lat="59.0705416681" lon="9.6533444406">
		<tag k="fixme" v="consider natural=peak for the most distinct mountains in the district" />
		<tag k="name" v="Kongkleivåsen" />
		<tag k="natural" v="hill" />
		<tag k="place" v="locality" />
		<tag k="ssr:stedsnr" v="837362" />
	</node>
	<node id="-405699" lat="59.1371416695" lon="9.7860666657">
		<tag k="fixme" v="consider natural=peak for the most distinct mountains in the district" />
		<tag k="name" v="Sollikollen" />
		<tag k="natural" v="hill" />
		<tag k="place" v="locality" />
		<tag k="ssr:stedsnr" v="836973" />
	</node>
	<node id="-405698" lat="59.156944449" lon="9.79932221546">
		<tag k="fixme" v="consider natural=peak for the most distinct mountains in the district" />
		<tag k="name" v="Fruktåsen" />
		<tag k="natural" v="hill" />
		<tag k="place" v="locality" />
		<tag k="ssr:stedsnr" v="836966" />
	</node>
	<node id="-405183" lat="59.1755861142" lon="9.82449444763">
		<tag k="name" v="Plankelia" />
		<tag k="natural" v="ridge" />
		<tag k="place" v="locality" />
		<tag k="ssr:stedsnr" v="168982" />
	</node>
	<node id="-405694" lat="59.0921249979" lon="9.71257222631">
		<tag k="fixme" v="consider natural=peak for the most distinct mountains in the district" />
		<tag k="name" v="Hamnåsen" />
		<tag k="natural" v="hill" />
		<tag k="place" v="locality" />
		<tag k="ssr:stedsnr" v="836929" />
	</node>
	<node id="-405181" lat="59.0695944434" lon="9.782133337">
		<tag k="fixme" v="consider natural=peak for the most distinct mountains in the district" />
		<tag k="name" v="Korseikåsen" />
		<tag k="natural" v="hill" />
		<tag k="place" v="locality" />
		<tag k="ssr:stedsnr" v="168944" />
	</node>
	<node id="-405180" lat="59.1656111096" lon="9.78021388962">
		<tag k="fixme" v="consider natural=peak for the most distinct mountains in the district" />
		<tag k="name" v="Seteråsen" />
		<tag k="natural" v="hill" />
		<tag k="place" v="locality" />
		<tag k="ssr:stedsnr" v="168936" />
	</node>
	<node id="-404682" lat="59.0193888924" lon="9.82742500289">
		<tag k="fixme" v="consider natural=peak for the most distinct mountains in the district" />
		<tag k="name" v="Håøya" />
		<tag k="natural" v="hill" />
		<tag k="place" v="locality" />
		<tag k="ssr:stedsnr" v="532974" />
	</node>
	<node id="-404663" lat="59.2022499974" lon="9.78201111486">
		<tag k="name" v="Orholtdalen" />
		<tag k="natural" v="valley" />
		<tag k="place" v="locality" />
		<tag k="ssr:stedsnr" v="669692" />
	</node>
	<node id="-404661" lat="59.1354638918" lon="9.76783611012">
		<tag k="fixme" v="consider natural=peak for the most distinct mountains in the district" />
		<tag k="name" v="Fjerdingen" />
		<tag k="natural" v="hill" />
		<tag k="place" v="locality" />
		<tag k="ssr:stedsnr" v="669578" />
	</node>
	<node id="-404679" lat="59.1147333317" lon="9.76066665926">
		<tag k="fixme" v="consider natural=peak for the most distinct mountains in the district" />
		<tag k="name" v="Seterkollen" />
		<tag k="natural" v="hill" />
		<tag k="place" v="locality" />
		<tag k="ssr:stedsnr" v="532958" />
	</node>
	<node id="-404658" lat="59.0805444426" lon="9.7449749965">
		<tag k="fixme" v="consider natural=peak for the most distinct mountains in the district" />
		<tag k="name" v="Skifteåsen" />
		<tag k="natural" v="hill" />
		<tag k="place" v="locality" />
		<tag k="ssr:stedsnr" v="471008" />
	</node>
	<node id="-404657" lat="59.1123388879" lon="9.84740834163">
		<tag k="fixme" v="consider natural=peak for the most distinct mountains in the district" />
		<tag k="name" v="Lamåsen" />
		<tag k="natural" v="hill" />
		<tag k="place" v="locality" />
		<tag k="ssr:stedsnr" v="471005" />
	</node>
	<node id="-404656" lat="59.0848472248" lon="9.77122500546">
		<tag k="fixme" v="consider natural=peak for the most distinct mountains in the district" />
		<tag k="name" v="Gibraltar" />
		<tag k="natural" v="hill" />
		<tag k="place" v="locality" />
		<tag k="ssr:stedsnr" v="471003" />
	</node>
	<node id="-404655" lat="59.0547527775" lon="9.8249972193">
		<tag k="fixme" v="consider natural=peak for the most distinct mountains in the district" />
		<tag k="name" v="Hallingåsen" />
		<tag k="natural" v="hill" />
		<tag k="place" v="locality" />
		<tag k="ssr:stedsnr" v="471002" />
	</node>
	<node id="-405676" lat="59.0748611079" lon="9.68446110413">
		<tag k="name" v="Løkkehaugen" />
		<tag k="natural" v="hill" />
		<tag k="place" v="locality" />
		<tag k="ssr:stedsnr" v="836319" />
	</node>
	<node id="-405675" lat="59.0917749969" lon="9.75391111774">
		<tag k="name" v="Nissedal" />
		<tag k="natural" v="valley" />
		<tag k="place" v="locality" />
		<tag k="ssr:stedsnr" v="836047" />
	</node>
	<node id="-404650" lat="59.0434972212" lon="9.77291388781">
		<tag k="name" v="Bjørsundlandet" />
		<tag k="natural" v="hill" />
		<tag k="place" v="locality" />
		<tag k="ssr:stedsnr" v="662490" />
	</node>
	<node id="-405161" lat="59.1026500015" lon="9.80486666658">
		<tag k="fixme" v="consider natural=peak for the most distinct mountains in the district" />
		<tag k="name" v="Stueåsen" />
		<tag k="natural" v="hill" />
		<tag k="place" v="locality" />
		<tag k="ssr:stedsnr" v="167764" />
	</node>
	<node id="-405160" lat="59.1438277769" lon="9.75523055216">
		<tag k="fixme" v="consider natural=peak for the most distinct mountains in the district" />
		<tag k="name" v="Hestehagåsen" />
		<tag k="natural" v="hill" />
		<tag k="place" v="locality" />
		<tag k="ssr:stedsnr" v="167751" />
	</node>
	<node id="-405514" lat="59.165833333" lon="9.80848332598">
		<tag k="fixme" v="consider natural=peak for the most distinct mountains in the district" />
		<tag k="name" v="Seterskogen" />
		<tag k="natural" v="hill" />
		<tag k="place" v="locality" />
		<tag k="ssr:stedsnr" v="593807" />
	</node>
	<node id="-405158" lat="59.1848250019" lon="9.86881943574">
		<tag k="fixme" v="consider natural=peak for the most distinct mountains in the district" />
		<tag k="loc_name" v="Liljemyrås" />
		<tag k="name" v="Lislemyrås" />
		<tag k="natural" v="hill" />
		<tag k="place" v="locality" />
		<tag k="ssr:stedsnr" v="167744" />
	</node>
	<node id="-404491" lat="59.1112305511" lon="9.77899444845">
		<tag k="alt_name" v="Storberget" />
		<tag k="fixme" v="consider natural=peak for the most distinct mountains in the district" />
		<tag k="name" v="Storeberg" />
		<tag k="natural" v="hill" />
		<tag k="place" v="locality" />
		<tag k="ssr:stedsnr" v="244623" />
	</node>
	<node id="-405156" lat="59.0800722183" lon="9.67018888793">
		<tag k="fixme" v="consider natural=peak for the most distinct mountains in the district" />
		<tag k="loc_name" v="Skavrakåsen" />
		<tag k="name" v="Skavråkåsen" />
		<tag k="natural" v="hill" />
		<tag k="place" v="locality" />
		<tag k="ssr:stedsnr" v="167739" />
	</node>
	<node id="-405154" lat="59.0603444468" lon="9.80126111884">
		<tag k="name" v="Sæterkulten" />
		<tag k="natural" v="hill" />
		<tag k="place" v="locality" />
		<tag k="ssr:stedsnr" v="147030" />
	</node>
	<node id="-405665" lat="59.0686194408" lon="9.78727500465">
		<tag k="fixme" v="consider natural=peak for the most distinct mountains in the district" />
		<tag k="loc_name" v="Bjønnehiåsen" />
		<tag k="name" v="Bjønnhiåsen" />
		<tag k="natural" v="hill" />
		<tag k="place" v="locality" />
		<tag k="ssr:stedsnr" v="814842" />
	</node>
	<node id="-404634" lat="59.1009972254" lon="9.73206388284">
		<tag k="alt_name" v="Holtåsen" />
		<tag k="fixme" v="consider natural=peak for the most distinct mountains in the district" />
		<tag k="name" v="Holtsåsen" />
		<tag k="natural" v="hill" />
		<tag k="place" v="locality" />
		<tag k="ssr:stedsnr" v="427407" />
	</node>
	<node id="-405655" lat="59.1347666707" lon="9.79698610253">
		<tag k="name" v="Hesteknattane" />
		<tag k="natural" v="hill" />
		<tag k="place" v="locality" />
		<tag k="ssr:stedsnr" v="790590" />
	</node>
	<node id="-405647" lat="59.1237916677" lon="9.70552499648">
		<tag k="name" v="Prestemoen" />
		<tag k="place" v="locality" />
		<tag k="ssr:stedsnr" v="776332" />
	</node>
	<node id="-405646" lat="59.104513887" lon="9.65530000015">
		<tag k="alt_name" v="Herøyåsen" />
		<tag k="fixme" v="consider natural=peak for the most distinct mountains in the district" />
		<tag k="name" v="Adrianåsen" />
		<tag k="natural" v="hill" />
		<tag k="place" v="locality" />
		<tag k="ssr:stedsnr" v="776050" />
	</node>
	<node id="-405645" lat="59.1346166625" lon="9.82270555372">
		<tag k="fixme" v="consider natural=peak for the most distinct mountains in the district" />
		<tag k="name" v="Stordalåsen" />
		<tag k="natural" v="hill" />
		<tag k="place" v="locality" />
		<tag k="ssr:stedsnr" v="775992" />
	</node>
	<node id="-405644" lat="59.1750249973" lon="9.75574166605">
		<tag k="fixme" v="consider natural=peak for the most distinct mountains in the district" />
		<tag k="name" v="Hagaåsen" />
		<tag k="natural" v="hill" />
		<tag k="place" v="locality" />
		<tag k="ssr:stedsnr" v="775966" />
	</node>
	<node id="-405640" lat="59.131605558" lon="9.7810305504">
		<tag k="fixme" v="consider natural=peak for the most distinct mountains in the district" />
		<tag k="name" v="Solliåsen" />
		<tag k="natural" v="hill" />
		<tag k="place" v="locality" />
		<tag k="ssr:stedsnr" v="775902" />
	</node>
	<node id="-405639" lat="59.0845083315" lon="9.80616943774">
		<tag k="name" v="Bråtekleiva" />
		<tag k="natural" v="slope" />
		<tag k="place" v="locality" />
		<tag k="ssr:stedsnr" v="775898" />
	</node>
	<node id="-404613" lat="59.0696638844" lon="9.83871667472">
		<tag k="fixme" v="consider natural=peak for the most distinct mountains in the district" />
		<tag k="name" v="Bokås" />
		<tag k="natural" v="hill" />
		<tag k="place" v="locality" />
		<tag k="ssr:stedsnr" v="350926" />
	</node>
	<node id="-404611" lat="59.0982027739" lon="9.66734722059">
		<tag k="fixme" v="consider natural=peak for the most distinct mountains in the district" />
		<tag k="name" v="Hvalsåsen" />
		<tag k="natural" v="hill" />
		<tag k="place" v="locality" />
		<tag k="ssr:stedsnr" v="350921" />
	</node>
	<node id="-404843" lat="59.1311333319" lon="9.79786388188">
		<tag k="fixme" v="consider natural=peak for the most distinct mountains in the district" />
		<tag k="name" v="Vaåsen" />
		<tag k="natural" v="hill" />
		<tag k="place" v="locality" />
		<tag k="ssr:stedsnr" v="897992" />
	</node>
	<node id="-404608" lat="59.1593777785" lon="9.76985832511">
		<tag k="fixme" v="consider natural=peak for the most distinct mountains in the district" />
		<tag k="name" v="Skottmyråsen" />
		<tag k="natural" v="hill" />
		<tag k="place" v="locality" />
		<tag k="ssr:stedsnr" v="350905" />
	</node>
	<node id="-405119" lat="59.1152861118" lon="9.63666110332">
		<tag k="name" v="Løkka" />
		<tag k="place" v="locality" />
		<tag k="ssr:stedsnr" v="109579" />
	</node>
	<node id="-404605" lat="59.0574138899" lon="9.75997500481">
		<tag k="name" v="Nepedalsåsen" />
		<tag k="natural" v="hill" />
		<tag k="place" v="locality" />
		<tag k="ssr:stedsnr" v="350331" />
	</node>
	<node id="-404603" lat="59.045822219" lon="9.83381388561">
		<tag k="fixme" v="consider natural=peak for the most distinct mountains in the district" />
		<tag k="name" v="Sagåsen" />
		<tag k="natural" v="hill" />
		<tag k="place" v="locality" />
		<tag k="ssr:stedsnr" v="350008" />
	</node>
	<node id="-405114" lat="59.1362694461" lon="9.77912778619">
		<tag k="name" v="Langedal" />
		<tag k="natural" v="valley" />
		<tag k="place" v="locality" />
		<tag k="ssr:stedsnr" v="108901" />
	</node>
	<node id="-405113" lat="59.0175138851" lon="9.82412500441">
		<tag k="name" v="Dalen" />
		<tag k="natural" v="valley" />
		<tag k="place" v="locality" />
		<tag k="ssr:stedsnr" v="108899" />
	</node>
	<node id="-405109" lat="59.1014305569" lon="9.81426389091">
		<tag k="fixme" v="consider natural=peak for the most distinct mountains in the district" />
		<tag k="name" v="Sagåsen" />
		<tag k="natural" v="hill" />
		<tag k="place" v="locality" />
		<tag k="ssr:stedsnr" v="108970" />
	</node>
	<node id="-405620" lat="59.1286666642" lon="9.77823888096">
		<tag k="fixme" v="consider natural=peak for the most distinct mountains in the district" />
		<tag k="name" v="Goddokk" />
		<tag k="natural" v="hill" />
		<tag k="place" v="locality" />
		<tag k="ssr:stedsnr" v="775004" />
	</node>
	<node id="-405107" lat="59.0686416655" lon="9.7969888945">
		<tag k="fixme" v="consider natural=peak for the most distinct mountains in the district" />
		<tag k="name" v="Rødskjærkollen" />
		<tag k="natural" v="hill" />
		<tag k="place" v="locality" />
		<tag k="ssr:stedsnr" v="108939" />
	</node>
	<node id="-405104" lat="59.0732000001" lon="9.73555278508">
		<tag k="fixme" v="consider natural=peak for the most distinct mountains in the district" />
		<tag k="name" v="Smedvikåsen" />
		<tag k="natural" v="hill" />
		<tag k="place" v="locality" />
		<tag k="ssr:stedsnr" v="108917" />
	</node>
	<node id="-404453" lat="59.1169722197" lon="9.68639999662">
		<tag k="fixme" v="consider natural=peak for the most distinct mountains in the district" />
		<tag k="name" v="Tveitanåsen" />
		<tag k="natural" v="hill" />
		<tag k="place" v="locality" />
		<tag k="ssr:stedsnr" v="290947" />
	</node>
	<node id="-405612" lat="59.1919722261" lon="9.83478055231">
		<tag k="fixme" v="consider natural=peak for the most distinct mountains in the district" />
		<tag k="name" v="Jakobsholås" />
		<tag k="natural" v="hill" />
		<tag k="place" v="locality" />
		<tag k="ssr:stedsnr" v="774753" />
	</node>
	<node id="-404581" lat="59.1681861105" lon="9.7684111051">
		<tag k="name" v="Brudalskollen" />
		<tag k="natural" v="hill" />
		<tag k="place" v="locality" />
		<tag k="ssr:stedsnr" v="486510" />
	</node>
	<node id="-405179" lat="59.1554583319" lon="9.75678055577">
		<tag k="fixme" v="consider natural=peak for the most distinct mountains in the district" />
		<tag k="name" v="Tommesdalåsen" />
		<tag k="natural" v="hill" />
		<tag k="place" v="locality" />
		<tag k="ssr:stedsnr" v="168918" />
	</node>
	<node id="-405599" lat="59.0660888911" lon="9.73526110413">
		<tag k="fixme" v="consider natural=peak for the most distinct mountains in the district" />
		<tag k="name" v="Baksteberget" />
		<tag k="natural" v="hill" />
		<tag k="place" v="locality" />
		<tag k="ssr:stedsnr" v="653987" />
	</node>
	<node id="-405598" lat="59.0792333306" lon="9.80520832973">
		<tag k="fixme" v="consider natural=peak for the most distinct mountains in the district" />
		<tag k="name" v="Kviåsen" />
		<tag k="natural" v="hill" />
		<tag k="place" v="locality" />
		<tag k="ssr:stedsnr" v="653972" />
	</node>
	<node id="-405597" lat="59.1025472199" lon="9.81965000632">
		<tag k="fixme" v="consider natural=peak for the most distinct mountains in the district" />
		<tag k="name" v="Gaukåsen" />
		<tag k="natural" v="hill" />
		<tag k="place" v="locality" />
		<tag k="ssr:stedsnr" v="653967" />
	</node>
	<node id="-405596" lat="59.096002782" lon="9.73537778556">
		<tag k="fixme" v="consider natural=peak for the most distinct mountains in the district" />
		<tag k="name" v="Nilses åser" />
		<tag k="natural" v="hill" />
		<tag k="place" v="locality" />
		<tag k="ssr:stedsnr" v="653964" />
	</node>
	<node id="-405595" lat="59.1614666658" lon="9.7793138804">
		<tag k="fixme" v="consider natural=peak for the most distinct mountains in the district" />
		<tag k="name" v="Midtmyråsen" />
		<tag k="natural" v="hill" />
		<tag k="place" v="locality" />
		<tag k="ssr:stedsnr" v="653963" />
	</node>
	<node id="-405082" lat="59.052433337" lon="9.73251389171">
		<tag k="fixme" v="consider natural=peak for the most distinct mountains in the district" />
		<tag k="name" v="Smiåsen" />
		<tag k="natural" v="hill" />
		<tag k="place" v="locality" />
		<tag k="ssr:stedsnr" v="108046" />
	</node>
	<node id="-405593" lat="59.1840472231" lon="9.82721944805">
		<tag k="fixme" v="consider natural=peak for the most distinct mountains in the district" />
		<tag k="name" v="Bjørnås" />
		<tag k="natural" v="hill" />
		<tag k="place" v="locality" />
		<tag k="ssr:stedsnr" v="653953" />
	</node>
	<node id="-405079" lat="59.0793388848" lon="9.81864444274">
		<tag k="fixme" v="consider natural=peak for the most distinct mountains in the district" />
		<tag k="name" v="Ospekollen" />
		<tag k="natural" v="hill" />
		<tag k="place" v="locality" />
		<tag k="ssr:stedsnr" v="108015" />
	</node>
	<node id="-405078" lat="59.0565000038" lon="9.72351666666">
		<tag k="fixme" v="consider natural=peak for the most distinct mountains in the district" />
		<tag k="name" v="Kulåsen" />
		<tag k="natural" v="hill" />
		<tag k="place" v="locality" />
		<tag k="ssr:stedsnr" v="108011" />
	</node>
	<node id="-404562" lat="59.1040472247" lon="9.8446888809">
		<tag k="fixme" v="consider natural=peak for the most distinct mountains in the district" />
		<tag k="name" v="Plankåsen" />
		<tag k="natural" v="hill" />
		<tag k="place" v="locality" />
		<tag k="ssr:stedsnr" v="472287" />
	</node>
	<node id="-404560" lat="59.0744861123" lon="9.78721667161">
		<tag k="fixme" v="consider natural=peak for the most distinct mountains in the district" />
		<tag k="name" v="Haugåsen" />
		<tag k="natural" v="hill" />
		<tag k="place" v="locality" />
		<tag k="ssr:stedsnr" v="471967" />
	</node>
	<node id="-404559" lat="59.0890055541" lon="9.77390277806">
		<tag k="fixme" v="consider natural=peak for the most distinct mountains in the district" />
		<tag k="name" v="Rolighetsåsen" />
		<tag k="natural" v="hill" />
		<tag k="place" v="locality" />
		<tag k="ssr:stedsnr" v="471963" />
	</node>
	<node id="-404558" lat="59.1418888853" lon="9.71360556167">
		<tag k="fixme" v="consider natural=peak for the most distinct mountains in the district" />
		<tag k="name" v="Lundekollen" />
		<tag k="natural" v="hill" />
		<tag k="place" v="locality" />
		<tag k="ssr:stedsnr" v="471961" />
	</node>
	<node id="-405069" lat="59.1161666703" lon="9.72386388462">
		<tag k="fixme" v="consider natural=peak for the most distinct mountains in the district" />
		<tag k="name" v="Fjelldalåsen" />
		<tag k="natural" v="hill" />
		<tag k="place" v="locality" />
		<tag k="ssr:stedsnr" v="98001" />
	</node>
	<node id="-404471" lat="59.0642666709" lon="9.78406943894">
		<tag k="fixme" v="consider natural=peak for the most distinct mountains in the district" />
		<tag k="name" v="Orestubben" />
		<tag k="natural" v="hill" />
		<tag k="place" v="locality" />
		<tag k="ssr:stedsnr" v="228762" />
	</node>
	<node id="-404553" lat="59.0925944451" lon="9.78955000788">
		<tag k="name" v="Kokkersvollbakkane" />
		<tag k="natural" v="valley" />
		<tag k="place" v="locality" />
		<tag k="ssr:stedsnr" v="471914" />
	</node>
	<node id="-404522" lat="59.0791250023" lon="9.72280555499">
		<tag k="fixme" v="consider natural=peak for the most distinct mountains in the district" />
		<tag k="name" v="Slottet" />
		<tag k="natural" v="hill" />
		<tag k="place" v="locality" />
		<tag k="ssr:stedsnr" v="290974" />
	</node>
	<node id="-405057" lat="59.0656805586" lon="9.76062778375">
		<tag k="fixme" v="consider natural=peak for the most distinct mountains in the district" />
		<tag k="name" v="Gampedalsåsen" />
		<tag k="natural" v="hill" />
		<tag k="place" v="locality" />
		<tag k="ssr:stedsnr" v="62451" />
	</node>
	<node id="-405056" lat="59.0625805557" lon="9.80246110601">
		<tag k="name" v="Rognlia" />
		<tag k="natural" v="slope" />
		<tag k="place" v="locality" />
		<tag k="ssr:stedsnr" v="62450" />
	</node>
	<node id="-404543" lat="59.0617333305" lon="9.82872222757">
		<tag k="fixme" v="consider natural=peak for the most distinct mountains in the district" />
		<tag k="name" v="Plonkevikåsen" />
		<tag k="natural" v="hill" />
		<tag k="place" v="locality" />
		<tag k="ssr:stedsnr" v="471720" />
	</node>
	<node id="-404405" lat="59.1107499967" lon="9.72863889187">
		<tag k="fixme" v="consider natural=peak for the most distinct mountains in the district" />
		<tag k="name" v="Skotåsen" />
		<tag k="natural" v="hill" />
		<tag k="place" v="locality" />
		<tag k="ssr:stedsnr" v="168016" />
	</node>
	<node id="-404470" lat="59.1062277766" lon="9.7731194461">
		<tag k="fixme" v="consider natural=peak for the most distinct mountains in the district" />
		<tag k="name" v="Kokkersvollpynten" />
		<tag k="natural" v="hill" />
		<tag k="place" v="locality" />
		<tag k="ssr:stedsnr" v="228759" />
	</node>
	<node id="-404490" lat="59.1293138931" lon="9.8202888803">
		<tag k="fixme" v="consider natural=peak for the most distinct mountains in the district" />
		<tag k="name" v="Metalen" />
		<tag k="natural" v="hill" />
		<tag k="place" v="locality" />
		<tag k="ssr:stedsnr" v="244608" />
	</node>
	<node id="-405559" lat="59.1704138921" lon="9.79981110689">
		<tag k="fixme" v="consider natural=peak for the most distinct mountains in the district" />
		<tag k="name" v="Siljanåsen" />
		<tag k="natural" v="hill" />
		<tag k="place" v="locality" />
		<tag k="ssr:stedsnr" v="653012" />
	</node>
	<node id="-405558" lat="59.1072444424" lon="9.8504250013">
		<tag k="fixme" v="consider natural=peak for the most distinct mountains in the district" />
		<tag k="name" v="Korseikåsen" />
		<tag k="natural" v="hill" />
		<tag k="place" v="locality" />
		<tag k="ssr:stedsnr" v="653005" />
	</node>
	<node id="-405557" lat="59.1595805531" lon="9.81753610893">
		<tag k="fixme" v="consider natural=peak for the most distinct mountains in the district" />
		<tag k="name" v="Fårås" />
		<tag k="natural" v="hill" />
		<tag k="place" v="locality" />
		<tag k="ssr:stedsnr" v="653001" />
	</node>
	<node id="-405556" lat="59.0576777785" lon="9.66242777884">
		<tag k="fixme" v="consider natural=peak for the most distinct mountains in the district" />
		<tag k="name" v="Frierflogene" />
		<tag k="natural" v="hill" />
		<tag k="place" v="locality" />
		<tag k="ssr:stedsnr" v="643001" />
	</node>
	<node id="-404777" lat="59.06739167" lon="9.69395556237">
		<tag k="fixme" v="consider natural=peak for the most distinct mountains in the district" />
		<tag k="name" v="Hellås" />
		<tag k="natural" v="hill" />
		<tag k="place" v="locality" />
		<tag k="ssr:stedsnr" v="653948" />
	</node>
	<node id="-404529" lat="59.0394166678" lon="9.7473444477">
		<tag k="name" v="Hegna" />
		<tag k="natural" v="slope" />
		<tag k="place" v="locality" />
		<tag k="ssr:stedsnr" v="471466" />
	</node>
	<node id="-405040" lat="59.136247222" lon="9.67191389335">
		<tag k="name" v="Slettene" />
		<tag k="place" v="locality" />
		<tag k="ssr:stedsnr" v="49553" />
	</node>
	<node id="-404527" lat="59.0516944438" lon="9.69398889099">
		<tag k="fixme" v="consider natural=peak for the most distinct mountains in the district" />
		<tag k="name" v="Torskeberget" />
		<tag k="natural" v="hill" />
		<tag k="place" v="locality" />
		<tag k="ssr:stedsnr" v="471047" />
	</node>
	<node id="-404526" lat="59.0523305566" lon="9.8029916688">
		<tag k="name" v="Askedalen" />
		<tag k="natural" v="valley" />
		<tag k="place" v="locality" />
		<tag k="ssr:stedsnr" v="471043" />
	</node>
	<node id="-404525" lat="59.1421499982" lon="9.76379167239">
		<tag k="name" v="Røysåsane" />
		<tag k="natural" v="hill" />
		<tag k="place" v="locality" />
		<tag k="ssr:stedsnr" v="304625" />
	</node>
	<node id="-405546" lat="59.0559666646" lon="9.67233332577">
		<tag k="alt_name" v="Frierflauene" />
		<tag k="name" v="Frierflauane" />
		<tag k="natural" v="cliff" />
		<tag k="old_name" v="Frierflaua" />
		<tag k="ssr:stedsnr" v="608484" />
	</node>
	<node id="-405511" lat="59.1831611074" lon="9.87980277535">
		<tag k="name" v="Knappen" />
		<tag k="natural" v="hill" />
		<tag k="place" v="locality" />
		<tag k="ssr:stedsnr" v="593642" />
	</node>
	<node id="-405032" lat="59.1156861107" lon="9.70851944356">
		<tag k="fixme" v="consider natural=peak for the most distinct mountains in the district" />
		<tag k="name" v="Preståsen" />
		<tag k="natural" v="hill" />
		<tag k="place" v="locality" />
		<tag k="ssr:stedsnr" v="47977" />
	</node>
	<node id="-405031" lat="59.0475111125" lon="9.77905278639">
		<tag k="fixme" v="consider natural=peak for the most distinct mountains in the district" />
		<tag k="name" v="Kolapramåsen" />
		<tag k="natural" v="hill" />
		<tag k="place" v="locality" />
		<tag k="ssr:stedsnr" v="47962" />
	</node>
	<node id="-405030" lat="59.1922555594" lon="9.87499443982">
		<tag k="fixme" v="consider natural=peak for the most distinct mountains in the district" />
		<tag k="name" v="Sagås" />
		<tag k="natural" v="hill" />
		<tag k="place" v="locality" />
		<tag k="ssr:stedsnr" v="47953" />
	</node>
	<node id="-405029" lat="59.0699416691" lon="9.74772777033">
		<tag k="fixme" v="consider natural=peak for the most distinct mountains in the district" />
		<tag k="name" v="Rambergkollen" />
		<tag k="natural" v="hill" />
		<tag k="place" v="locality" />
		<tag k="ssr:stedsnr" v="47952" />
	</node>
	<node id="-405028" lat="59.1700972184" lon="9.77813056329">
		<tag k="fixme" v="consider natural=peak for the most distinct mountains in the district" />
		<tag k="name" v="Likkisteåsen" />
		<tag k="natural" v="hill" />
		<tag k="place" v="locality" />
		<tag k="ssr:stedsnr" v="47949" />
	</node>
	<node id="-404515" lat="59.1532388881" lon="9.7663833319">
		<tag k="name" v="Oredalen" />
		<tag k="natural" v="valley" />
		<tag k="place" v="locality" />
		<tag k="ssr:stedsnr" v="290223" />
	</node>
	<node id="-404513" lat="59.1347777738" lon="9.70220277391">
		<tag k="name" v="Bjørndalen" />
		<tag k="natural" v="valley" />
		<tag k="place" v="locality" />
		<tag k="ssr:stedsnr" v="289954" />
	</node>
	<node id="-404510" lat="59.0770750025" lon="9.81415833051">
		<tag k="fixme" v="consider natural=peak for the most distinct mountains in the district" />
		<tag k="name" v="Liåsen" />
		<tag k="natural" v="hill" />
		<tag k="place" v="locality" />
		<tag k="ssr:stedsnr" v="290010" />
	</node>
	<node id="-405021" lat="59.1175666681" lon="9.73989165926">
		<tag k="fixme" v="consider natural=peak for the most distinct mountains in the district" />
		<tag k="name" v="Valåsen" />
		<tag k="natural" v="hill" />
		<tag k="place" v="locality" />
		<tag k="ssr:stedsnr" v="47713" />
	</node>
	<node id="-405528" lat="59.0940333347" lon="9.73564999682">
		<tag k="name" v="Oksumdalen" />
		<tag k="natural" v="valley" />
		<tag k="place" v="locality" />
		<tag k="ssr:stedsnr" v="594406" />
	</node>
	<node id="-404503" lat="59.0755138868" lon="9.72013055206">
		<tag k="fixme" v="consider natural=peak for the most distinct mountains in the district" />
		<tag k="name" v="Blåbæråsen" />
		<tag k="natural" v="hill" />
		<tag k="place" v="locality" />
		<tag k="ssr:stedsnr" v="462040" />
	</node>
	<node id="-405522" lat="59.1721333312" lon="9.8745500075">
		<tag k="fixme" v="consider natural=peak for the most distinct mountains in the district" />
		<tag k="name" v="Glæås" />
		<tag k="natural" v="hill" />
		<tag k="place" v="locality" />
		<tag k="ssr:stedsnr" v="593975" />
	</node>
	<node id="-405520" lat="59.0438305549" lon="9.77276388636">
		<tag k="fixme" v="consider natural=peak for the most distinct mountains in the district" />
		<tag k="name" v="Bjørsundåsen" />
		<tag k="natural" v="hill" />
		<tag k="place" v="locality" />
		<tag k="ssr:stedsnr" v="593961" />
	</node>
	<node id="-404607" lat="59.1232027734" lon="9.73903611716">
		<tag k="fixme" v="consider natural=peak for the most distinct mountains in the district" />
		<tag k="name" v="Spiråsen" />
		<tag k="natural" v="hill" />
		<tag k="place" v="locality" />
		<tag k="ssr:stedsnr" v="350902" />
	</node>
	<node id="-405517" lat="59.1313805527" lon="9.74772222204">
		<tag k="fixme" v="consider natural=peak for the most distinct mountains in the district" />
		<tag k="name" v="Skipsåsen" />
		<tag k="natural" v="hill" />
		<tag k="place" v="locality" />
		<tag k="ssr:stedsnr" v="593897" />
	</node>
	<node id="-405516" lat="59.1725111157" lon="9.74928332635">
		<tag k="fixme" v="consider natural=peak for the most distinct mountains in the district" />
		<tag k="name" v="Smøkkerød" />
		<tag k="natural" v="hill" />
		<tag k="place" v="locality" />
		<tag k="ssr:stedsnr" v="593893" />
	</node>
	<node id="-405003" lat="59.1268194415" lon="9.65923889087">
		<tag k="fixme" v="consider natural=peak for the most distinct mountains in the district" />
		<tag k="name" v="Steilås" />
		<tag k="natural" v="hill" />
		<tag k="place" v="locality" />
		<tag k="ssr:stedsnr" v="47048" />
	</node>
	<node id="-405002" lat="59.0945666648" lon="9.80027778177">
		<tag k="fixme" v="consider natural=peak for the most distinct mountains in the district" />
		<tag k="name" v="Sundsåsen" />
		<tag k="natural" v="hill" />
		<tag k="place" v="locality" />
		<tag k="ssr:stedsnr" v="47046" />
	</node>
	<node id="-405001" lat="59.0946583322" lon="9.7472722208">
		<tag k="fixme" v="consider natural=peak for the most distinct mountains in the district" />
		<tag k="name" v="Stueåsen" />
		<tag k="natural" v="hill" />
		<tag k="place" v="locality" />
		<tag k="ssr:stedsnr" v="47045" />
	</node>
	<node id="-405270" lat="59.174191671" lon="9.81478610823">
		<tag k="fixme" v="consider natural=peak for the most distinct mountains in the district" />
		<tag k="name" v="Seterkollen" />
		<tag k="natural" v="hill" />
		<tag k="place" v="locality" />
		<tag k="ssr:stedsnr" v="350944" />
	</node>
	<node id="-404995" lat="59.0982583356" lon="9.68047500123">
		<tag k="fixme" v="consider natural=peak for the most distinct mountains in the district" />
		<tag k="name" v="Skrikaråsen" />
		<tag k="natural" v="hill" />
		<tag k="place" v="locality" />
		<tag k="ssr:stedsnr" v="46775" />
	</node>
</osm>
