<?xml version="1.0" encoding="UTF-8"?>
<osm version="0.6" generator="osmapis">
	<node lat="59.13483888483313" lon="9.710558329476212" id="-24566">
		<tag k="name" v="Hegnamyrene" />
		<tag k="natural" v="wetland" />
		<tag k="ssr:stedsnr" v="229853" />
	</node>
	<node lat="59.141552778514004" lon="9.62456110259651" id="-24587">
		<tag k="name" v="Vrigtekåsa" />
		<tag k="place" v="locality" />
		<tag k="ssr:stedsnr" v="29371" />
	</node>
	<node lat="59.123813885672654" lon="9.766438880801152" id="-24614">
		<tag k="name" v="Tråholtmyra" />
		<tag k="natural" v="wetland" />
		<tag k="ssr:stedsnr" v="62585" />
	</node>
	<node lat="59.16042221893507" lon="9.778522215292984" id="-24721">
		<tag k="name" v="Skottmyrholene" />
		<tag k="natural" v="wetland" />
		<tag k="ssr:stedsnr" v="471938" />
	</node>
	<node lat="59.05659444263077" lon="9.807849997180845" id="-24735">
		<tag k="name" v="Barlindmarka" />
		<tag k="place" v="locality" />
		<tag k="ssr:stedsnr" v="458883" />
	</node>
	<node lat="59.12909721906767" lon="9.772324995242696" id="-24745">
		<tag k="name" v="Storemyr" />
		<tag k="natural" v="wetland" />
		<tag k="ssr:stedsnr" v="290032" />
	</node>
	<node lat="59.10021944322933" lon="9.67335556173879" id="-24759">
		<tag k="loc_name" v="Ørstvetmyra" />
		<tag k="name" v="Ørstveitmyra" />
		<tag k="natural" v="wetland" />
		<tag k="ssr:stedsnr" v="290907" />
	</node>
	<node lat="59.155577775452066" lon="9.727897230798161" id="-24811">
		<tag k="name" v="Feiermyra" />
		<tag k="natural" v="wetland" />
		<tag k="ssr:stedsnr" v="350055" />
	</node>
	<node lat="59.167283329784034" lon="9.80664721696167" id="-24877">
		<tag k="name" v="Humlemyra" />
		<tag k="natural" v="wetland" />
		<tag k="ssr:stedsnr" v="411992" />
	</node>
	<node lat="59.043636112850045" lon="9.804480552713605" id="-24960">
		<tag k="landuse" v="quarry" />
		<tag k="name" v="Auenbrottet" />
		<tag k="ssr:stedsnr" v="532876" />
	</node>
</osm>
