<?xml version="1.0" encoding="UTF-8"?>
<osm version="0.6" generator="osmapis">
	<node lat="59.142919442510596" lon="9.641711112060072" id="-46949">
		<tag k="amenity" v="place_of_worship" />
		<tag k="denomination" v="lutheran" />
		<tag k="name" v="Vestre kirke" />
		<tag k="religion" v="christian" />
		<tag k="ssr:stedsnr" v="454338" />
	</node>
	<node lat="59.13373611222255" lon="9.642894447743608" id="-47182">
		<tag k="amenity" v="community_centre" />
		<tag k="name" v="Øvre Frednes" />
		<tag k="ssr:stedsnr" v="532879" />
	</node>
	<node lat="59.09035522140489" lon="9.792956985611806" id="-47239">
		<tag k="amenity" v="place_of_worship" />
		<tag k="denomination" v="lutheran" />
		<tag k="name" v="Langangen kirke" />
		<tag k="religion" v="christian" />
		<tag k="ssr:stedsnr" v="608449" />
	</node>
	<node lat="59.111327779771216" lon="9.648847224922328" id="-47665">
		<tag k="amenity" v="place_of_worship" />
		<tag k="denomination" v="lutheran" />
		<tag k="name" v="Herøya kirke" />
		<tag k="religion" v="christian" />
		<tag k="ssr:stedsnr" v="123456" />
	</node>
	<node lat="59.0832178973557" lon="9.791300482798924" id="-47762">
		<tag k="name" v="Hause" />
		<tag k="place" v="locality" />
		<tag k="ssr:stedsnr" v="298015" />
	</node>
	<node lat="59.10042500324467" lon="9.69893610295162" id="-47983">
		<tag k="amenity" v="community_centre" />
		<tag k="name" v="Mulevarde" />
		<tag k="ssr:stedsnr" v="594682" />
	</node>
	<node lat="59.11857499847555" lon="9.698874993512698" id="-48002">
		<tag k="amenity" v="place_of_worship" />
		<tag k="denomination" v="lutheran" />
		<tag k="name" v="Eidanger kirke" />
		<tag k="religion" v="christian" />
		<tag k="ssr:stedsnr" v="608632" />
	</node>
	<node lat="59.051772225578574" lon="9.704413890181254" id="-48039">
		<tag k="amenity" v="place_of_worship" />
		<tag k="denomination" v="lutheran" />
		<tag k="name" v="Brevik kirke" />
		<tag k="religion" v="christian" />
		<tag k="ssr:stedsnr" v="654867" />
	</node>
	<node lat="59.14199444807964" lon="9.6331444489651" id="-48217">
		<tag k="cemetery" v="grave" />
		<tag k="name" v="Tørmo" />
		<tag k="place" v="locality" />
		<tag k="ssr:stedsnr" v="878429" />
	</node>
</osm>
