<?xml version="1.0" encoding="UTF-8"?>
<osm version="0.6" generator="osmapis">
	<node lat="59.060247219518956" lon="9.781588880186478" id="-18245">
		<tag k="name" v="Odden" />
		<tag k="natural" v="cape" />
		<tag k="ssr:stedsnr" v="229864" />
	</node>
	<node lat="59.02362500223023" lon="9.769436106013758" id="-18253">
		<tag k="name" v="Siktesøya" />
		<tag k="place" v="island" />
		<tag k="ssr:stedsnr" v="2283" />
	</node>
	<node lat="59.089719446876096" lon="9.712172226220384" id="-18254">
		<tag k="fixme" v="consider seamark:type=rock or natural=shoal" />
		<tag k="name" v="Røraskjæret" />
		<tag k="place" v="islet" />
		<tag k="ssr:stedsnr" v="229916" />
	</node>
	<node lat="59.030633334748536" lon="9.807258341674146" id="-18255">
		<tag k="name" v="Suggesund" />
		<tag k="natural" v="strait" />
		<tag k="ssr:stedsnr" v="229918" />
	</node>
	<node lat="59.091263892325856" lon="9.797077777442817" id="-18260">
		<tag k="name" v="Kjøya" />
		<tag k="natural" v="cape" />
		<tag k="ssr:stedsnr" v="26004" />
	</node>
	<node lat="59.08991111050322" lon="9.640852775723419" id="-18261">
		<tag k="name" v="Nautelandsbåen" />
		<tag k="place" v="locality" />
		<tag k="seamark:type" v="rock" />
		<tag k="ssr:stedsnr" v="26005" />
	</node>
	<node lat="59.064450002883675" lon="9.698274996204375" id="-18262">
		<tag k="name" v="Ørviktangen" />
		<tag k="natural" v="cape" />
		<tag k="ssr:stedsnr" v="26096" />
	</node>
	<node lat="59.02153611078836" lon="9.79859999699571" id="-18264">
		<tag k="bay" v="fjord" />
		<tag k="name" v="Håøyfjorden" />
		<tag k="natural" v="bay" />
		<tag k="ssr:stedsnr" v="27373" />
	</node>
	<node lat="59.03276666312774" lon="9.813563886647943" id="-18277">
		<tag k="name" v="Auensbukta" />
		<tag k="natural" v="bay" />
		<tag k="ssr:stedsnr" v="238360" />
	</node>
	<node lat="59.03360277874286" lon="9.761922230335752" id="-18278">
		<tag k="name" v="Risesundbåane" />
		<tag k="place" v="locality" />
		<tag k="seamark:type" v="rock" />
		<tag k="ssr:stedsnr" v="238365" />
	</node>
	<node lat="59.03276388611469" lon="9.75788055854556" id="-18279">
		<tag k="name" v="Dyreholet" />
		<tag k="natural" v="bay" />
		<tag k="ssr:stedsnr" v="238369" />
	</node>
	<node lat="59.04454444233533" lon="9.777955559429751" id="-18281">
		<tag k="alt_name" v="Kattholmen" />
		<tag k="name" v="Kattholmane" />
		<tag k="place" v="islet" />
		<tag k="ssr:stedsnr" v="47882" />
	</node>
	<node lat="59.055330556767764" lon="9.75222222398722" id="-18282">
		<tag k="name" v="Lortholmen" />
		<tag k="place" v="islet" />
		<tag k="ssr:stedsnr" v="47883" />
	</node>
	<node lat="59.05634722340677" lon="9.777700003740238" id="-18288">
		<tag k="name" v="Holandsodden" />
		<tag k="natural" v="cape" />
		<tag k="ssr:stedsnr" v="56506" />
	</node>
	<node lat="59.011191666553216" lon="9.819672225337872" id="-18289">
		<tag k="name" v="Rislillodden" />
		<tag k="natural" v="cape" />
		<tag k="ssr:stedsnr" v="56278" />
	</node>
	<node lat="59.07387777940352" lon="9.790916672813177" id="-18294">
		<tag k="bay" v="fjord" />
		<tag k="name" v="Langangsfjorden" />
		<tag k="natural" v="bay" />
		<tag k="ssr:stedsnr" v="244417" />
	</node>
	<node lat="59.05465833638807" lon="9.726649997689458" id="-18295">
		<tag k="name" v="Sandøya" />
		<tag k="place" v="island" />
		<tag k="ssr:stedsnr" v="244447" />
	</node>
	<node lat="59.06687499882659" lon="9.644502771106515" id="-18304">
		<tag k="name" v="Kongkleivbåen" />
		<tag k="place" v="locality" />
		<tag k="seamark:type" v="rock" />
		<tag k="ssr:stedsnr" v="87086" />
	</node>
	<node lat="59.08164166771518" lon="9.716297226683153" id="-18313">
		<tag k="name" v="Kråkevika" />
		<tag k="natural" v="bay" />
		<tag k="ssr:stedsnr" v="108387" />
	</node>
	<node lat="59.03437777356142" lon="9.77497222249977" id="-18314">
		<tag k="name" v="Brattholmane" />
		<tag k="place" v="islet" />
		<tag k="ssr:stedsnr" v="108479" />
	</node>
	<node lat="59.035916667434705" lon="9.761050007045522" id="-18325">
		<tag k="name" v="Kalven" />
		<tag k="natural" v="strait" />
		<tag k="ssr:stedsnr" v="123538" />
	</node>
	<node lat="59.05061944088725" lon="9.691788885599925" id="-18331">
		<tag k="name" v="Strømtangen" />
		<tag k="natural" v="cape" />
		<tag k="ssr:stedsnr" v="146038" />
	</node>
	<node lat="59.05623333459539" lon="9.758955559976881" id="-18359">
		<tag k="alt_name" v="Kjelkavik" />
		<tag k="name" v="Kjelkevik" />
		<tag k="natural" v="bay" />
		<tag k="ssr:stedsnr" v="266848" />
	</node>
	<node lat="59.07090000002128" lon="9.691619453024796" id="-18361">
		<tag k="name" v="Ørvika" />
		<tag k="natural" v="bay" />
		<tag k="ssr:stedsnr" v="205842" />
	</node>
	<node lat="59.12084166556097" lon="9.65002221536936" id="-18362">
		<tag k="name" v="Kleivstrand" />
		<tag k="natural" v="beach" />
		<tag k="ssr:stedsnr" v="207253" />
	</node>
	<node lat="59.03670555696771" lon="9.808499999219183" id="-18363">
		<tag k="alt_name" v="Auens hue" />
		<tag k="name" v="Auenshue" />
		<tag k="natural" v="cape" />
		<tag k="ssr:stedsnr" v="207342" />
	</node>
	<node lat="59.05938611009793" lon="9.740158334431124" id="-18364">
		<tag k="name" v="Klokkerholmen" />
		<tag k="place" v="islet" />
		<tag k="ssr:stedsnr" v="207391" />
	</node>
	<node lat="59.04803611506488" lon="9.761702772643297" id="-18365">
		<tag k="name" v="Sildevika" />
		<tag k="natural" v="bay" />
		<tag k="ssr:stedsnr" v="208089" />
	</node>
	<node lat="59.044800002357775" lon="9.734111114963826" id="-18367">
		<tag k="name" v="Kalvehue" />
		<tag k="natural" v="cape" />
		<tag k="ssr:stedsnr" v="269110" />
	</node>
	<node lat="59.04430278207919" lon="9.72986388378915" id="-18368">
		<tag k="name" v="Smakkebåen" />
		<tag k="place" v="locality" />
		<tag k="seamark:type" v="rock" />
		<tag k="ssr:stedsnr" v="269112" />
	</node>
	<node lat="59.04872499804248" lon="9.725913897424594" id="-18382">
		<tag k="name" v="Smørtønna" />
		<tag k="place" v="locality" />
		<tag k="seamark:type" v="rock" />
		<tag k="ssr:stedsnr" v="229996" />
	</node>
	<node lat="59.02973888752623" lon="9.800930561627549" id="-18383">
		<tag k="name" v="Ånestein" />
		<tag k="place" v="islet" />
		<tag k="ssr:stedsnr" v="229883" />
	</node>
	<node lat="59.04048610886029" lon="9.764358327460078" id="-18384">
		<tag k="name" v="Kisteholmen" />
		<tag k="place" v="islet" />
		<tag k="ssr:stedsnr" v="229885" />
	</node>
	<node lat="59.059461107008154" lon="9.77831111512231" id="-18386">
		<tag k="name" v="Gunnersvika" />
		<tag k="natural" v="bay" />
		<tag k="ssr:stedsnr" v="230404" />
	</node>
	<node lat="59.08166388579654" lon="9.70216667415905" id="-18396">
		<tag k="name" v="Midtfjordbåen" />
		<tag k="place" v="locality" />
		<tag k="seamark:type" v="rock" />
		<tag k="ssr:stedsnr" v="451189" />
	</node>
	<node lat="59.03280555113068" lon="9.816161115071887" id="-18397">
		<tag k="name" v="Furuholmen" />
		<tag k="place" v="islet" />
		<tag k="ssr:stedsnr" v="471930" />
	</node>
	<node lat="59.085677777937725" lon="9.717044449760783" id="-18398">
		<tag k="name" v="Rørabukta" />
		<tag k="natural" v="bay" />
		<tag k="ssr:stedsnr" v="471931" />
	</node>
	<node lat="59.09931389014094" lon="9.618383326226644" id="-18405">
		<tag k="alt_name" v="Frierfjorden" />
		<tag k="bay" v="fjord" />
		<tag k="name" v="Frier" />
		<tag k="natural" v="bay" />
		<tag k="ssr:stedsnr" v="244395" />
	</node>
	<node lat="59.04619166578781" lon="9.789041659364084" id="-18406">
		<tag k="alt_name" v="Karisholmen" />
		<tag k="name" v="Karisholmane" />
		<tag k="place" v="islet" />
		<tag k="ssr:stedsnr" v="244506" />
	</node>
	<node lat="59.02693055299413" lon="9.761636113113685" id="-18412">
		<tag k="name" v="Rorholmen" />
		<tag k="place" v="islet" />
		<tag k="ssr:stedsnr" v="267723" />
	</node>
	<node lat="59.013744441981" lon="9.771269438057763" id="-18422">
		<tag k="name" v="Skjulsund" />
		<tag k="natural" v="strait" />
		<tag k="ssr:stedsnr" v="290031" />
	</node>
	<node lat="59.05509722349071" lon="9.756697218398227" id="-18424">
		<tag k="name" v="Grisholmen" />
		<tag k="place" v="islet" />
		<tag k="ssr:stedsnr" v="290034" />
	</node>
	<node lat="59.033144442232754" lon="9.757297223327997" id="-18434">
		<tag k="name" v="Dambukta" />
		<tag k="natural" v="bay" />
		<tag k="ssr:stedsnr" v="290603" />
	</node>
	<node lat="59.05090833660601" lon="9.706472215107746" id="-18441">
		<tag k="name" v="Blokkhustangen" />
		<tag k="natural" v="cape" />
		<tag k="ssr:stedsnr" v="290995" />
	</node>
	<node lat="59.0616305587968" lon="9.693230551574821" id="-18454">
		<tag k="name" v="Dalsbukta" />
		<tag k="natural" v="bay" />
		<tag k="ssr:stedsnr" v="329103" />
	</node>
	<node lat="59.031291670835884" lon="9.811333339570542" id="-18475">
		<tag k="name" v="Kjesund" />
		<tag k="natural" v="strait" />
		<tag k="ssr:stedsnr" v="471993" />
	</node>
	<node lat="59.017338893319746" lon="9.774016658431732" id="-18497">
		<tag k="name" v="Svensvika" />
		<tag k="natural" v="bay" />
		<tag k="ssr:stedsnr" v="350908" />
	</node>
	<node lat="59.02950277935854" lon="9.812686105720658" id="-18498">
		<tag k="name" v="Vervebukta" />
		<tag k="natural" v="bay" />
		<tag k="ssr:stedsnr" v="350920" />
	</node>
	<node lat="59.07862499573481" lon="9.791916658312873" id="-18500">
		<tag k="fixme" v="consider seamark:type=rock or natural=shoal" />
		<tag k="name" v="Kultane" />
		<tag k="place" v="islet" />
		<tag k="ssr:stedsnr" v="350924" />
	</node>
	<node lat="59.07018611327595" lon="9.786891667603518" id="-18510">
		<tag k="name" v="Bjønnhistranda" />
		<tag k="natural" v="beach" />
		<tag k="ssr:stedsnr" v="359005" />
	</node>
	<node lat="59.07915832995336" lon="9.791230557149872" id="-18511">
		<tag k="name" v="Vika" />
		<tag k="natural" v="bay" />
		<tag k="ssr:stedsnr" v="359010" />
	</node>
	<node lat="59.0482111135116" lon="9.787975007337034" id="-18512">
		<tag k="name" v="Hønseholmen" />
		<tag k="place" v="islet" />
		<tag k="ssr:stedsnr" v="359352" />
	</node>
	<node lat="59.02895277741019" lon="9.773633338746553" id="-18513">
		<tag k="name" v="Brønnebukta" />
		<tag k="natural" v="bay" />
		<tag k="ssr:stedsnr" v="359364" />
	</node>
	<node lat="59.046450000295195" lon="9.776344450338229" id="-18530">
		<tag k="name" v="Sildevika" />
		<tag k="natural" v="bay" />
		<tag k="ssr:stedsnr" v="389091" />
	</node>
	<node lat="59.01868611200574" lon="9.817830553784379" id="-18544">
		<tag k="loc_name" v="Jordsbukta" />
		<tag k="name" v="Jordbukta" />
		<tag k="natural" v="bay" />
		<tag k="ssr:stedsnr" v="411650" />
	</node>
	<node lat="59.02521944395649" lon="9.808283332192065" id="-18545">
		<tag k="name" v="Store Vesta" />
		<tag k="natural" v="bay" />
		<tag k="ssr:stedsnr" v="411652" />
	</node>
	<node lat="59.073566667823336" lon="9.737219449031409" id="-18554">
		<tag k="name" v="Smedvika" />
		<tag k="natural" v="bay" />
		<tag k="ssr:stedsnr" v="411990" />
	</node>
	<node lat="59.05229166340465" lon="9.704527776546573" id="-18556">
		<tag k="name" v="Sylterøya" />
		<tag k="place" v="island" />
		<tag k="ssr:stedsnr" v="487469" />
	</node>
	<node lat="59.035916667434705" lon="9.761050007045522" id="-18575">
		<tag k="name" v="Kalven" />
		<tag k="natural" v="strait" />
		<tag k="ssr:stedsnr" v="420343" />
	</node>
	<node lat="59.03070832897633" lon="9.768149996029235" id="-18576">
		<tag k="name" v="Odden" />
		<tag k="natural" v="cape" />
		<tag k="ssr:stedsnr" v="420347" />
	</node>
	<node lat="59.03105278006651" lon="9.76496943955116" id="-18577">
		<tag k="name" v="Risesundodden" />
		<tag k="natural" v="cape" />
		<tag k="ssr:stedsnr" v="420351" />
	</node>
	<node lat="59.05913888455534" lon="9.792566659974737" id="-18581">
		<tag k="name" v="Eggholmane" />
		<tag k="place" v="islet" />
		<tag k="ssr:stedsnr" v="426432" />
	</node>
	<node lat="59.111008331918505" lon="9.712419441529477" id="-18585">
		<tag k="name" v="Herregårdsstranda" />
		<tag k="natural" v="beach" />
		<tag k="ssr:stedsnr" v="426585" />
	</node>
	<node lat="59.09740555824974" lon="9.71721945246423" id="-18587">
		<tag k="alt_name" v="Vissevåg" />
		<tag k="name" v="Vissevåga" />
		<tag k="natural" v="bay" />
		<tag k="ssr:stedsnr" v="427408" />
	</node>
	<node lat="59.03642222120729" lon="9.780230558865245" id="-18588">
		<tag k="name" v="Østre Brattholmen" />
		<tag k="place" v="islet" />
		<tag k="ssr:stedsnr" v="449719" />
	</node>
	<node lat="59.090677781524825" lon="9.712436105575591" id="-18590">
		<tag k="name" v="Røratangen" />
		<tag k="natural" v="cape" />
		<tag k="ssr:stedsnr" v="451017" />
	</node>
	<node lat="59.03943333701738" lon="9.73179999832696" id="-18591">
		<tag k="name" v="Bjørkøybåen" />
		<tag k="place" v="locality" />
		<tag k="seamark:type" v="rock" />
		<tag k="ssr:stedsnr" v="451114" />
	</node>
	<node lat="59.043800003780184" lon="9.838330559437507" id="-18614">
		<tag k="name" v="Stranda" />
		<tag k="natural" v="beach" />
		<tag k="ssr:stedsnr" v="480275" />
	</node>
	<node lat="59.065744442884764" lon="9.733824996146327" id="-18615">
		<tag k="name" v="Bakstebergholmen" />
		<tag k="place" v="islet" />
		<tag k="ssr:stedsnr" v="480462" />
	</node>
	<node lat="59.059697221257196" lon="9.741977773056226" id="-18620">
		<tag k="name" v="Finnsholmane" />
		<tag k="place" v="islet" />
		<tag k="ssr:stedsnr" v="487479" />
	</node>
	<node lat="59.02901666862368" lon="9.764261104508945" id="-18622">
		<tag k="name" v="Risøysundet" />
		<tag k="natural" v="strait" />
		<tag k="ssr:stedsnr" v="509705" />
	</node>
	<node lat="59.04556666819138" lon="9.749324995439732" id="-18633">
		<tag k="fixme" v="consider seamark:type=rock or natural=shoal" />
		<tag k="name" v="Brentaskjæra" />
		<tag k="place" v="islet" />
		<tag k="ssr:stedsnr" v="532570" />
	</node>
	<node lat="59.060919442304595" lon="9.72148055968455" id="-18639">
		<tag k="name" v="Trompetholmen" />
		<tag k="place" v="islet" />
		<tag k="ssr:stedsnr" v="532878" />
	</node>
	<node lat="59.04278889033477" lon="9.7403250044047" id="-18645">
		<tag k="name" v="Kalvsundet" />
		<tag k="natural" v="strait" />
		<tag k="ssr:stedsnr" v="541372" />
	</node>
	<node lat="59.04978888591807" lon="9.777969436780946" id="-18646">
		<tag k="name" v="Linnatangen" />
		<tag k="natural" v="cape" />
		<tag k="ssr:stedsnr" v="541506" />
	</node>
	<node lat="59.05233611180535" lon="9.70461666992285" id="-18651">
		<tag k="name" v="Øya" />
		<tag k="place" v="island" />
		<tag k="ssr:stedsnr" v="693094" />
	</node>
	<node lat="59.055632096783306" lon="9.73953627694717" id="-18653">
		<tag k="name" v="Flyndra" />
		<tag k="natural" v="strait" />
		<tag k="ssr:stedsnr" v="571117" />
	</node>
	<node lat="59.02284444760319" lon="9.758602772213976" id="-18679">
		<tag k="name" v="Vestreholmen" />
		<tag k="place" v="islet" />
		<tag k="ssr:stedsnr" v="593551" />
	</node>
</osm>
