<?xml version="1.0" encoding="UTF-8"?>
<osm version="0.6" generator="osmapis">
	<node lat="59.05541944374405" lon="9.69591111561798" id="-24563">
		<tag k="name" v="Åsen" />
		<tag k="place" v="quarter" />
		<tag k="ssr:stedsnr" v="229835" />
	</node>
	<node lat="59.06721388668902" lon="9.797652785725909" id="-24564">
		<tag k="alt_name" v="Rødskjeret" />
		<tag k="name" v="Rødskjær" />
		<tag k="place" v="isolated_dwelling" />
		<tag k="ssr:stedsnr" v="1408" />
	</node>
	<node lat="59.1114611090443" lon="9.648841659293504" id="-24581">
		<tag k="fixme" v="consider place=suburb, village or hamlet" />
		<tag k="name" v="Herøya" />
		<tag k="place" v="quarter" />
		<tag k="ssr:stedsnr" v="25025" />
	</node>
	<node lat="59.084986110174654" lon="9.720241670157318" id="-24585">
		<tag k="fixme" v="consider place=hamlet" />
		<tag k="name" v="Bergsbygda" />
		<tag k="place" v="village" />
		<tag k="ssr:stedsnr" v="27277" />
	</node>
	<node lat="59.09896111485468" lon="9.720133335881293" id="-24589">
		<tag k="name" v="Vissevåg" />
		<tag k="place" v="farm" />
		<tag k="ssr:stedsnr" v="237052" />
	</node>
	<node lat="59.0752055586315" lon="9.686213881888579" id="-24590">
		<tag k="name" v="Brønnløkka" />
		<tag k="place" v="farm" />
		<tag k="ssr:stedsnr" v="238113" />
	</node>
	<node lat="59.13851944265227" lon="9.649238896710644" id="-24607">
		<tag k="name" v="Meieritorvet" />
		<tag k="place" v="square" />
		<tag k="ssr:stedsnr" v="52982" />
	</node>
	<node lat="59.13125833387723" lon="9.655444447762912" id="-24608">
		<tag k="amenity" v="hospital" />
		<tag k="name" v="Sykehuset" />
		<tag k="ssr:stedsnr" v="53974" />
	</node>
	<node lat="59.17030833477503" lon="9.870355555885938" id="-24612">
		<tag k="name" v="Stranda" />
		<tag k="place" v="farm" />
		<tag k="ssr:stedsnr" v="62508" />
	</node>
	<node lat="59.14050000424884" lon="9.675072215457595" id="-24615">
		<tag k="alt_name" v="Sanda" />
		<tag k="name" v="Sanna" />
		<tag k="place" v="farm" />
		<tag k="ssr:stedsnr" v="62624" />
	</node>
	<node lat="59.052647218196455" lon="9.7715666641088" id="-24618">
		<tag k="fixme" v="consider place=hamlet" />
		<tag k="name" v="Bjønnes" />
		<tag k="place" v="farm" />
		<tag k="ssr:stedsnr" v="244452" />
	</node>
	<node lat="59.055438890840804" lon="9.695930547249167" id="-24621">
		<tag k="name" v="Brevik" />
		<tag k="place" v="town" />
		<tag k="ssr:stedsnr" v="244530" />
	</node>
	<node lat="59.16738333603058" lon="9.855047225373982" id="-24622">
		<tag k="fixme" v="consider place=hamlet" />
		<tag k="name" v="Bakke" />
		<tag k="place" v="farm" />
		<tag k="ssr:stedsnr" v="244545" />
	</node>
	<node lat="59.15346666887836" lon="9.676463883588095" id="-24623">
		<tag k="name" v="Haugen" />
		<tag k="place" v="farm" />
		<tag k="ssr:stedsnr" v="244642" />
	</node>
	<node lat="59.02731388639682" lon="9.810786114029726" id="-24624">
		<tag k="name" v="Håøya" />
		<tag k="place" v="isolated_dwelling" />
		<tag k="ssr:stedsnr" v="245254" />
	</node>
	<node lat="59.1333222203965" lon="9.789527786433757" id="-24631">
		<tag k="name" v="Nedre Solli" />
		<tag k="place" v="farm" />
		<tag k="ssr:stedsnr" v="107918" />
	</node>
	<node lat="59.110336112138526" lon="9.667216668778192" id="-24640">
		<tag k="building" v="commercial" />
		<tag k="name" v="Stridskleivsenteret" />
		<tag k="ssr:stedsnr" v="113527" />
	</node>
	<node lat="59.02915277585209" lon="9.802852785089824" id="-24643">
		<tag k="name" v="Ånesteinsmarka" />
		<tag k="place" v="isolated_dwelling" />
		<tag k="ssr:stedsnr" v="116284" />
	</node>
	<node lat="59.07571944525782" lon="9.653616660006254" id="-24644">
		<tag k="name" v="Hitterød" />
		<tag k="place" v="isolated_dwelling" />
		<tag k="ssr:stedsnr" v="122409" />
	</node>
	<node lat="59.08399444180499" lon="9.72716388143715" id="-24645">
		<tag k="fixme" v="consider place=hamlet" />
		<tag k="name" v="Berg" />
		<tag k="place" v="farm" />
		<tag k="ssr:stedsnr" v="122423" />
	</node>
	<node lat="59.06126111419172" lon="9.824019446370528" id="-24646">
		<tag k="name" v="Lauvvikane" />
		<tag k="place" v="farm" />
		<tag k="ssr:stedsnr" v="123504" />
	</node>
	<node lat="59.16410277700778" lon="9.746108342014079" id="-24648">
		<tag k="fixme" v="consider place=hamlet" />
		<tag k="name" v="Øgården" />
		<tag k="place" v="farm" />
		<tag k="ssr:stedsnr" v="123561" />
	</node>
	<node lat="59.16042222087417" lon="9.80314444938933" id="-24649">
		<tag k="name" v="Berg" />
		<tag k="place" v="farm" />
		<tag k="ssr:stedsnr" v="123566" />
	</node>
	<node lat="59.12081666470783" lon="9.727244435932612" id="-24650">
		<tag k="name" v="Tråholt" />
		<tag k="place" v="farm" />
		<tag k="ssr:stedsnr" v="123634" />
	</node>
	<node lat="59.152252781758165" lon="9.702416669684768" id="-24651">
		<tag k="name" v="Høgset" />
		<tag k="place" v="farm" />
		<tag k="ssr:stedsnr" v="123645" />
	</node>
	<node lat="59.141675002047606" lon="9.729541674562215" id="-24665">
		<tag k="name" v="Ødegården" />
		<tag k="place" v="locality" />
		<tag k="ssr:stedsnr" v="168903" />
	</node>
	<node lat="59.0917194459913" lon="9.791869436357176" id="-24666">
		<tag k="name" v="Kokkersvold" />
		<tag k="place" v="farm" />
		<tag k="ssr:stedsnr" v="168908" />
	</node>
	<node lat="59.14398055406976" lon="9.78867221658058" id="-24667">
		<tag k="name" v="Dalen" />
		<tag k="place" v="farm" />
		<tag k="ssr:stedsnr" v="168911" />
	</node>
	<node lat="59.07903889194098" lon="9.797508332036161" id="-24670">
		<tag k="name" v="Sjørønningen" />
		<tag k="place" v="farm" />
		<tag k="ssr:stedsnr" v="177020" />
	</node>
	<node lat="59.14281388910522" lon="9.686027778185025" id="-24674">
		<tag k="name" v="Søli" />
		<tag k="place" v="farm" />
		<tag k="ssr:stedsnr" v="183602" />
	</node>
	<node lat="59.13936111536595" lon="9.667383328712779" id="-24675">
		<tag k="name" v="Kjølnes" />
		<tag k="place" v="quarter" />
		<tag k="ssr:stedsnr" v="183603" />
	</node>
	<node lat="59.12992499564324" lon="9.675233334205542" id="-24676">
		<tag k="name" v="Myrane" />
		<tag k="place" v="farm" />
		<tag k="ssr:stedsnr" v="183610" />
	</node>
	<node lat="59.087688885948275" lon="9.804602785211996" id="-24677">
		<tag k="fixme" v="consider place=suburb, village or hamlet" />
		<tag k="name" v="Langangen" />
		<tag k="place" v="quarter" />
		<tag k="ssr:stedsnr" v="184444" />
	</node>
	<node lat="59.15995833295371" lon="9.808658337174247" id="-24679">
		<tag k="name" v="Plassen" />
		<tag k="place" v="farm" />
		<tag k="ssr:stedsnr" v="184524" />
	</node>
	<node lat="59.109949996756605" lon="9.719280547724306" id="-24680">
		<tag k="name" v="Hasler" />
		<tag k="place" v="farm" />
		<tag k="ssr:stedsnr" v="266823" />
	</node>
	<node lat="59.117933331417504" lon="9.672463885795347" id="-24682">
		<tag k="name" v="Rød" />
		<tag k="place" v="locality" />
		<tag k="ssr:stedsnr" v="268046" />
	</node>
	<node lat="59.107761914138784" lon="9.699180068913615" id="-24688">
		<tag k="name" v="Øvall" />
		<tag k="place" v="locality" />
		<tag k="ssr:stedsnr" v="269062" />
	</node>
	<node lat="59.13490277460523" lon="9.639280553017956" id="-24710">
		<tag k="name" v="Frednes" />
		<tag k="place" v="suburb" />
		<tag k="ssr:stedsnr" v="231733" />
	</node>
	<node lat="59.05160555151077" lon="9.77466388182293" id="-24715">
		<tag k="name" v="Bjønnesstranda" />
		<tag k="place" v="isolated_dwelling" />
		<tag k="ssr:stedsnr" v="238503" />
	</node>
	<node lat="59.065722223531886" lon="9.750566661450017" id="-24716">
		<tag k="name" v="Solbakken" />
		<tag k="place" v="farm" />
		<tag k="ssr:stedsnr" v="238522" />
	</node>
	<node lat="59.0737055574248" lon="9.727052782047872" id="-24717">
		<tag k="name" v="Ormer" />
		<tag k="place" v="farm" />
		<tag k="ssr:stedsnr" v="451110" />
	</node>
	<node lat="59.08203611062576" lon="9.7991999976278" id="-24723">
		<tag k="fixme" v="consider place=hamlet" />
		<tag k="name" v="Halvarp" />
		<tag k="place" v="farm" />
		<tag k="ssr:stedsnr" v="244428" />
	</node>
	<node lat="59.07762222052277" lon="9.726297219951256" id="-24724">
		<tag k="fixme" v="consider place=hamlet" />
		<tag k="loc_name" v="Leerstang" />
		<tag k="name" v="Lerstang" />
		<tag k="place" v="farm" />
		<tag k="ssr:stedsnr" v="244431" />
	</node>
	<node lat="59.084202781955234" lon="9.718827782094758" id="-24725">
		<tag k="alt_name" v="Rørarød" />
		<tag k="fixme" v="consider place=hamlet" />
		<tag k="name" v="Rød" />
		<tag k="place" v="farm" />
		<tag k="ssr:stedsnr" v="244432" />
	</node>
	<node lat="59.095749996437746" lon="9.693255550830662" id="-24726">
		<tag k="name" v="Tangen" />
		<tag k="place" v="farm" />
		<tag k="ssr:stedsnr" v="244394" />
	</node>
	<node lat="59.1825333319107" lon="9.779811112917686" id="-24730">
		<tag k="name" v="Dreierrønningen" />
		<tag k="place" v="farm" />
		<tag k="ssr:stedsnr" v="244587" />
	</node>
	<node lat="59.180155554985674" lon="9.765827777237412" id="-24731">
		<tag k="name" v="Flata" />
		<tag k="place" v="locality" />
		<tag k="ssr:stedsnr" v="244589" />
	</node>
	<node lat="59.10528611203982" lon="9.8024305493397" id="-24742">
		<tag k="name" v="Vestgård" />
		<tag k="place" v="farm" />
		<tag k="ssr:stedsnr" v="289899" />
	</node>
	<node lat="59.14296388553166" lon="9.672186112876261" id="-24766">
		<tag k="name" v="Sanda" />
		<tag k="place" v="farm" />
		<tag k="ssr:stedsnr" v="291526" />
	</node>
	<node lat="59.12409444365577" lon="9.649227785031256" id="-24768">
		<tag k="name" v="Kikut" />
		<tag k="place" v="isolated_dwelling" />
		<tag k="ssr:stedsnr" v="291683" />
	</node>
	<node lat="59.03590555477545" lon="9.745366670359116" id="-24771">
		<tag k="alt_name" v="Bjerkøya" />
		<tag k="fixme" v="consider place=hamlet" />
		<tag k="name" v="Bjørkøya" />
		<tag k="place" v="farm" />
		<tag k="ssr:stedsnr" v="305516" />
	</node>
	<node lat="59.10774444822431" lon="9.748724994234301" id="-24772">
		<tag k="name" v="Lanner" />
		<tag k="place" v="farm" />
		<tag k="ssr:stedsnr" v="305420" />
	</node>
	<node lat="59.086636108705704" lon="9.789936107344941" id="-24773">
		<tag k="name" v="Tangen" />
		<tag k="place" v="farm" />
		<tag k="ssr:stedsnr" v="305456" />
	</node>
	<node lat="59.050772223680795" lon="9.738680559414084" id="-24774">
		<tag k="name" v="Solvang" />
		<tag k="place" v="farm" />
		<tag k="ssr:stedsnr" v="305461" />
	</node>
	<node lat="59.05306110752807" lon="9.760452782147588" id="-24775">
		<tag k="name" v="Krysstangen" />
		<tag k="place" v="farm" />
		<tag k="ssr:stedsnr" v="305467" />
	</node>
	<node lat="59.15253611187793" lon="9.641725001212277" id="-24777">
		<tag k="leisure" v="pitch" />
		<tag k="name" v="Pors stadion" />
		<tag k="ssr:stedsnr" v="332356" />
	</node>
	<node lat="59.05078333438761" lon="9.738647223660866" id="-24781">
		<tag k="name" v="Jordet" />
		<tag k="place" v="farm" />
		<tag k="ssr:stedsnr" v="471589" />
	</node>
	<node lat="59.11584444532845" lon="9.770313893127836" id="-24796">
		<tag k="historic" v="shieling" />
		<tag k="name" v="Kisteseter" />
		<tag k="place" v="isolated_dwelling" />
		<tag k="ssr:stedsnr" v="471854" />
	</node>
	<node lat="59.09972500449511" lon="9.700408328754301" id="-24801">
		<tag k="fixme" v="consider tourism=alpine_hut or tourism=chalet" />
		<tag k="name" v="Mule Varde" />
		<tag k="ssr:stedsnr" v="344202" />
		<tag k="tourism" v="wilderness_hut" />
	</node>
	<node lat="59.07857777819622" lon="9.660302784060098" id="-24802">
		<tag k="name" v="Husmyra" />
		<tag k="place" v="farm" />
		<tag k="ssr:stedsnr" v="473533" />
	</node>
	<node lat="59.12760555982067" lon="9.610702780434744" id="-24803">
		<tag k="name" v="Knappnæringen" />
		<tag k="place" v="isolated_dwelling" />
		<tag k="ssr:stedsnr" v="473641" />
	</node>
	<node lat="59.13399166277222" lon="9.647458325914448" id="-24804">
		<tag k="fixme" v="consider place=suburb, village or hamlet" />
		<tag k="name" v="Jønnholt" />
		<tag k="place" v="quarter" />
		<tag k="ssr:stedsnr" v="473688" />
	</node>
	<node lat="59.12637221801115" lon="9.64675555506594" id="-24826">
		<tag k="name" v="Rønningen" />
		<tag k="place" v="square" />
		<tag k="ssr:stedsnr" v="350964" />
	</node>
	<node lat="59.09563055814051" lon="9.68331944633815" id="-24837">
		<tag k="amenity" v="school" />
		<tag k="name" v="Brattås skole" />
		<tag k="ssr:stedsnr" v="477301" />
	</node>
	<node lat="59.11019721898927" lon="9.759308338674472" id="-24840">
		<tag k="loc_name" v="Lillegårdseter" />
		<tag k="name" v="Lillegårdssætret" />
		<tag k="old_name" v="Lillegårdsæter" />
		<tag k="place" v="farm" />
		<tag k="ssr:stedsnr" v="365414" />
	</node>
	<node lat="59.10514444289332" lon="9.677555557740757" id="-24841">
		<tag k="name" v="Hovet" />
		<tag k="place" v="farm" />
		<tag k="ssr:stedsnr" v="365419" />
	</node>
	<node lat="59.051172221440424" lon="9.837219446584568" id="-24842">
		<tag k="fixme" v="consider place=hamlet" />
		<tag k="name" v="Saga" />
		<tag k="place" v="farm" />
		<tag k="ssr:stedsnr" v="365456" />
	</node>
	<node lat="59.16622222591758" lon="9.829427781999737" id="-24843">
		<tag k="name" v="Holmen" />
		<tag k="place" v="isolated_dwelling" />
		<tag k="ssr:stedsnr" v="365509" />
	</node>
	<node lat="59.11881666471305" lon="9.721613880321385" id="-24844">
		<tag k="name" v="Slevollen" />
		<tag k="old_name" v="Slevolden" />
		<tag k="place" v="farm" />
		<tag k="ssr:stedsnr" v="365600" />
	</node>
	<node lat="59.11764721974037" lon="9.632827770428271" id="-24845">
		<tag k="fixme" v="multiple name tags, choose one and add the other to alt_name" />
		<tag k="name" v="Herøya;Herøya industripark" />
		<tag k="place" v="quarter" />
		<tag k="ssr:stedsnr" v="365606" />
	</node>
	<node lat="59.15171111535241" lon="9.690511108749657" id="-24846">
		<tag k="name" v="Bjørketvet" />
		<tag k="old_name" v="Bjørketveit" />
		<tag k="place" v="farm" />
		<tag k="ssr:stedsnr" v="366603" />
	</node>
	<node lat="59.1085138909605" lon="9.685880552615474" id="-24848">
		<tag k="name" v="Grønli" />
		<tag k="place" v="farm" />
		<tag k="ssr:stedsnr" v="480086" />
	</node>
	<node lat="59.050713890381864" lon="9.7288666655579" id="-24849">
		<tag k="name" v="Sand" />
		<tag k="place" v="hamlet" />
		<tag k="ssr:stedsnr" v="480426" />
	</node>
	<node lat="59.14653055432111" lon="9.733630561527947" id="-24851">
		<tag k="fixme" v="consider place=hamlet" />
		<tag k="loc_name" v="Bjørkedal" />
		<tag k="name" v="Bjørkedalen" />
		<tag k="place" v="village" />
		<tag k="ssr:stedsnr" v="388857" />
	</node>
	<node lat="59.0692916627106" lon="9.725216666436193" id="-24853">
		<tag k="name" v="Solheim" />
		<tag k="place" v="farm" />
		<tag k="ssr:stedsnr" v="486442" />
	</node>
	<node lat="59.084147220983844" lon="9.742958326984537" id="-24854">
		<tag k="fixme" v="consider place=hamlet" />
		<tag k="name" v="Stamland" />
		<tag k="place" v="farm" />
		<tag k="ssr:stedsnr" v="486445" />
	</node>
	<node lat="59.08134166569638" lon="9.735900000681148" id="-24855">
		<tag k="name" v="Rønningen" />
		<tag k="place" v="farm" />
		<tag k="ssr:stedsnr" v="486447" />
	</node>
	<node lat="59.05471388765311" lon="9.679963881951" id="-24859">
		<tag k="fixme" v="consider place=suburb, village or hamlet" />
		<tag k="name" v="Blekebakken" />
		<tag k="place" v="quarter" />
		<tag k="ssr:stedsnr" v="411038" />
	</node>
	<node lat="59.01175555237885" lon="9.82164166894526" id="-24861">
		<tag k="name" v="Bukkevika" />
		<tag k="place" v="isolated_dwelling" />
		<tag k="ssr:stedsnr" v="487329" />
	</node>
	<node lat="59.0948972262748" lon="9.661922225384941" id="-24868">
		<tag k="name" v="Rød" />
		<tag k="place" v="farm" />
		<tag k="ssr:stedsnr" v="487421" />
	</node>
	<node lat="59.09021388904606" lon="9.718116660096385" id="-24872">
		<tag k="fixme" v="consider place=hamlet" />
		<tag k="name" v="Røra" />
		<tag k="place" v="farm" />
		<tag k="ssr:stedsnr" v="487459" />
	</node>
	<node lat="59.13914722439981" lon="9.795969449806393" id="-24874">
		<tag k="name" v="Øvre Solli" />
		<tag k="place" v="farm" />
		<tag k="ssr:stedsnr" v="411900" />
	</node>
	<node lat="59.10239999875625" lon="9.798505562840628" id="-24875">
		<tag k="fixme" v="consider place=hamlet" />
		<tag k="name" v="Sundsåsen" />
		<tag k="old_name" v="Sundsås" />
		<tag k="place" v="farm" />
		<tag k="ssr:stedsnr" v="487430" />
	</node>
	<node lat="59.0548249985729" lon="9.68781111958046" id="-24879">
		<tag k="building" v="industrial" />
		<tag k="industrial" v="factory" />
		<tag k="name" v="Trosvik" />
		<tag k="ssr:stedsnr" v="487471" />
	</node>
	<node lat="59.059466663835885" lon="9.724083332438203" id="-24880">
		<tag k="fixme" v="consider natural=beach + surface=sand" />
		<tag k="leisure" v="swimming_area" />
		<tag k="name" v="Dikkon" />
		<tag k="place" v="locality" />
		<tag k="ssr:stedsnr" v="487492" />
	</node>
	<node lat="59.061658332146656" lon="9.689774994207932" id="-24881">
		<tag k="building" v="industrial" />
		<tag k="industrial" v="factory" />
		<tag k="loc_name" v="Dalen" />
		<tag k="name" v="Dalen Portland" />
		<tag k="ssr:stedsnr" v="487497" />
	</node>
	<node lat="59.15704999786356" lon="9.742038882307567" id="-24882">
		<tag k="fixme" v="consider place=hamlet" />
		<tag k="name" v="Siljan" />
		<tag k="place" v="farm" />
		<tag k="ssr:stedsnr" v="487566" />
	</node>
	<node lat="59.18990555846399" lon="9.824944452523251" id="-24884">
		<tag k="historic" v="shieling" />
		<tag k="name" v="Tjennane" />
		<tag k="place" v="isolated_dwelling" />
		<tag k="ssr:stedsnr" v="487582" />
	</node>
	<node lat="59.10731944243037" lon="9.647549993919922" id="-24888">
		<tag k="name" v="Granli" />
		<tag k="place" v="isolated_dwelling" />
		<tag k="ssr:stedsnr" v="413644" />
	</node>
	<node lat="59.14342500400081" lon="9.667963893624139" id="-24890">
		<tag k="name" v="Roland" />
		<tag k="place" v="isolated_dwelling" />
		<tag k="ssr:stedsnr" v="413546" />
	</node>
	<node lat="59.09541110750964" lon="9.685811112536857" id="-24891">
		<tag k="building" v="commercial" />
		<tag k="name" v="Skjelsvik senter" />
		<tag k="ssr:stedsnr" v="417309" />
	</node>
	<node lat="59.14063055385262" lon="9.639666663488928" id="-24893">
		<tag k="building" v="industrial" />
		<tag k="industrial" v="factory" />
		<tag k="name" v="Porsgrunn porselenfabrikk" />
		<tag k="ssr:stedsnr" v="417989" />
	</node>
	<node lat="59.09707777413004" lon="9.72114166085501" id="-24894">
		<tag k="name" v="Vågheim" />
		<tag k="place" v="farm" />
		<tag k="ssr:stedsnr" v="420037" />
	</node>
	<node lat="59.11460833663956" lon="9.688536114753168" id="-24895">
		<tag k="name" v="Sølverød" />
		<tag k="place" v="farm" />
		<tag k="ssr:stedsnr" v="420089" />
	</node>
	<node lat="59.03856944411419" lon="9.806436117772142" id="-24896">
		<tag k="name" v="Auenslandet" />
		<tag k="place" v="neighbourhood" />
		<tag k="ssr:stedsnr" v="420339" />
	</node>
	<node lat="59.066930551378746" lon="9.73058888451028" id="-24900">
		<tag k="name" v="Eiklund" />
		<tag k="place" v="isolated_dwelling" />
		<tag k="ssr:stedsnr" v="420494" />
	</node>
	<node lat="59.08169444179688" lon="9.644330555636618" id="-24902">
		<tag k="name" v="Saltbua" />
		<tag k="place" v="farm" />
		<tag k="ssr:stedsnr" v="426410" />
	</node>
	<node lat="59.16822500003328" lon="9.86631388536866" id="-24905">
		<tag k="name" v="Todal" />
		<tag k="place" v="farm" />
		<tag k="ssr:stedsnr" v="426490" />
	</node>
	<node lat="59.145280555506936" lon="9.739861102508069" id="-24906">
		<tag k="fixme" v="consider place=hamlet" />
		<tag k="name" v="Flogstad" />
		<tag k="place" v="farm" />
		<tag k="ssr:stedsnr" v="426608" />
	</node>
	<node lat="59.17592221943218" lon="9.809561103221032" id="-24911">
		<tag k="name" v="Oklungen" />
		<tag k="place" v="hamlet" />
		<tag k="ssr:stedsnr" v="449775" />
	</node>
	<node lat="59.085047218974026" lon="9.720697229407463" id="-24931">
		<tag k="amenity" v="school" />
		<tag k="name" v="Bergsbygda" />
		<tag k="ssr:stedsnr" v="472902" />
	</node>
	<node lat="59.14736389042411" lon="9.638305557753531" id="-24932">
		<tag k="name" v="Steinsrød" />
		<tag k="place" v="isolated_dwelling" />
		<tag k="ssr:stedsnr" v="473463" />
	</node>
	<node lat="59.147858337568096" lon="9.702791674800489" id="-24938">
		<tag k="name" v="Svinholt" />
		<tag k="place" v="farm" />
		<tag k="ssr:stedsnr" v="486627" />
	</node>
	<node lat="59.17363529263106" lon="9.820047623980692" id="-24940">
		<tag k="fixme" v="consider place=hamlet" />
		<tag k="name" v="Ragnhildrød" />
		<tag k="place" v="farm" />
		<tag k="ssr:stedsnr" v="486516" />
	</node>
	<node lat="59.14632222366697" lon="9.636575002092448" id="-24963">
		<tag k="name" v="Klyve" />
		<tag k="place" v="isolated_dwelling" />
		<tag k="ssr:stedsnr" v="534443" />
	</node>
	<node lat="59.08623888551697" lon="9.717841669755996" id="-24965">
		<tag k="name" v="Strandjordet" />
		<tag k="place" v="farm" />
		<tag k="ssr:stedsnr" v="541044" />
	</node>
	<node lat="59.07265277782931" lon="9.68970277076479" id="-24966">
		<tag k="name" v="Eiklund" />
		<tag k="place" v="farm" />
		<tag k="ssr:stedsnr" v="541117" />
	</node>
	<node lat="59.13088888927537" lon="9.732577784772683" id="-24969">
		<tag k="fixme" v="consider place=hamlet" />
		<tag k="name" v="Grønsholt" />
		<tag k="place" v="farm" />
		<tag k="ssr:stedsnr" v="547615" />
	</node>
	<node lat="59.098561109047935" lon="9.686327773704727" id="-24972">
		<tag k="alt_name" v="Ørstvet" />
		<tag k="fixme" v="consider place=hamlet" />
		<tag k="name" v="Ørstveit" />
		<tag k="place" v="farm" />
		<tag k="ssr:stedsnr" v="693014" />
	</node>
	<node lat="59.01310833091006" lon="9.829172217260487" id="-24974">
		<tag k="name" v="Vikane" />
		<tag k="place" v="isolated_dwelling" />
		<tag k="ssr:stedsnr" v="570718" />
	</node>
	<node lat="59.1053416655709" lon="9.721280559241924" id="-24976">
		<tag k="name" v="Døvika" />
		<tag k="place" v="hamlet" />
		<tag k="ssr:stedsnr" v="570856" />
	</node>
	<node lat="59.05686944782531" lon="9.698836116032671" id="-24977">
		<tag k="fixme" v="consider place=suburb, village or hamlet" />
		<tag k="name" v="Setre" />
		<tag k="place" v="quarter" />
		<tag k="ssr:stedsnr" v="572108" />
	</node>
	<node lat="59.07371667045492" lon="9.716725008610812" id="-24978">
		<tag k="name" v="Seivall" />
		<tag k="place" v="isolated_dwelling" />
		<tag k="ssr:stedsnr" v="572119" />
	</node>
	<node lat="59.146108332857864" lon="9.637819443576761" id="-24981">
		<tag k="amenity" v="school" />
		<tag k="name" v="Vestsiden skole" />
		<tag k="ssr:stedsnr" v="575301" />
	</node>
	<node lat="59.049711106998345" lon="9.760722219352248" id="-24982">
		<tag k="fixme" v="consider tourism=alpine_hut or tourism=chalet" />
		<tag k="name" v="Sildevika" />
		<tag k="ssr:stedsnr" v="586995" />
		<tag k="tourism" v="wilderness_hut" />
	</node>
	<node lat="59.150222219790244" lon="9.656313892776062" id="-24991">
		<tag k="name" v="Osebakken" />
		<tag k="place" v="suburb" />
		<tag k="ssr:stedsnr" v="592921" />
	</node>
	<node lat="59.11243888551626" lon="9.705711106044768" id="-24997">
		<tag k="fixme" v="consider place=hamlet" />
		<tag k="name" v="Eidanger prestegård" />
		<tag k="place" v="farm" />
		<tag k="ssr:stedsnr" v="593311" />
	</node>
	<node lat="59.128636114856484" lon="9.677966670659208" id="-25004">
		<tag k="name" v="Spissløkka" />
		<tag k="place" v="isolated_dwelling" />
		<tag k="ssr:stedsnr" v="593801" />
	</node>
	<node lat="59.1397444405991" lon="9.737522226603744" id="-25008">
		<tag k="name" v="Kvestad" />
		<tag k="place" v="farm" />
		<tag k="ssr:stedsnr" v="593969" />
	</node>
	<node lat="59.13880277630342" lon="9.681261110545368" id="-25014">
		<tag k="name" v="Slettene" />
		<tag k="place" v="farm" />
		<tag k="ssr:stedsnr" v="607612" />
	</node>
</osm>
