<?xml version="1.0" encoding="UTF-8"?>
<osm generator="osmapis" version="0.6">
	<node id="-92670" lat="62.2339472191" lon="11.86968055">
		<tag k="name" v="Femundshytta" />
		<tag k="ssr:date" v="2019-05-30" />
		<tag k="ssr:gruppe" v="veg" />
		<tag k="ssr:hovedgruppe" v="infrastruktur" />
		<tag k="ssr:stedsnr" v="484939" />
		<tag k="ssr:type" v="adressenavn" />
	</node>
	<node id="-92411" lat="62.1533499983" lon="11.9005611148">
		<tag k="name" v="Einerveien" />
		<tag k="ssr:date" v="2019-05-30" />
		<tag k="ssr:gruppe" v="veg" />
		<tag k="ssr:hovedgruppe" v="infrastruktur" />
		<tag k="ssr:stedsnr" v="242978" />
		<tag k="ssr:type" v="adressenavn" />
	</node>
	<node id="-92410" lat="62.1640666661" lon="12.2452944355">
		<tag k="name" v="Sylen" />
		<tag k="ssr:date" v="2019-05-30" />
		<tag k="ssr:gruppe" v="veg" />
		<tag k="ssr:hovedgruppe" v="infrastruktur" />
		<tag k="ssr:stedsnr" v="242508" />
		<tag k="ssr:type" v="adressenavn" />
	</node>
	<node id="-92409" lat="61.8111194436" lon="11.9483916581">
		<tag k="name" v="Tiurleken" />
		<tag k="ssr:date" v="2019-05-30" />
		<tag k="ssr:gruppe" v="veg" />
		<tag k="ssr:hovedgruppe" v="infrastruktur" />
		<tag k="ssr:stedsnr" v="242103" />
		<tag k="ssr:type" v="adressenavn" />
	</node>
	<node id="-92022" lat="61.8114611116" lon="11.9504944376">
		<tag k="name" v="Måsåveien" />
		<tag k="ssr:date" v="2019-05-30" />
		<tag k="ssr:gruppe" v="veg" />
		<tag k="ssr:hovedgruppe" v="infrastruktur" />
		<tag k="ssr:stedsnr" v="60129" />
		<tag k="ssr:type" v="adressenavn" />
	</node>
	<node id="-92274" lat="61.7999499988" lon="11.9535277762">
		<tag k="name" v="Øvre Moltrøsta" />
		<tag k="ssr:date" v="2019-05-30" />
		<tag k="ssr:gruppe" v="veg" />
		<tag k="ssr:hovedgruppe" v="infrastruktur" />
		<tag k="ssr:stedsnr" v="181121" />
		<tag k="ssr:type" v="adressenavn" />
	</node>
	<node id="-91631" lat="61.801455556" lon="11.9557611051">
		<tag k="name" v="Skarvfoten" />
		<tag k="ssr:date" v="2019-05-30" />
		<tag k="ssr:gruppe" v="veg" />
		<tag k="ssr:hovedgruppe" v="infrastruktur" />
		<tag k="ssr:stedsnr" v="303115" />
		<tag k="ssr:type" v="adressenavn" />
	</node>
	<node id="-91630" lat="62.0145527735" lon="12.1740250051">
		<tag k="name" v="Gutulivollen" />
		<tag k="ssr:date" v="2019-05-30" />
		<tag k="ssr:gruppe" v="veg" />
		<tag k="ssr:hovedgruppe" v="infrastruktur" />
		<tag k="ssr:stedsnr" v="302554" />
		<tag k="ssr:type" v="adressenavn" />
	</node>
	<node id="-91629" lat="62.2973527751" lon="11.9622611046">
		<tag k="name" v="Haugen" />
		<tag k="ssr:date" v="2019-05-30" />
		<tag k="ssr:gruppe" v="veg" />
		<tag k="ssr:hovedgruppe" v="infrastruktur" />
		<tag k="ssr:stedsnr" v="302552" />
		<tag k="ssr:type" v="adressenavn" />
	</node>
	<node id="-93405" lat="61.810966671" lon="11.9500861164">
		<tag k="name" v="Mårfella" />
		<tag k="ssr:date" v="2019-05-30" />
		<tag k="ssr:gruppe" v="veg" />
		<tag k="ssr:hovedgruppe" v="infrastruktur" />
		<tag k="ssr:stedsnr" v="788128" />
		<tag k="ssr:type" v="adressenavn" />
	</node>
	<node id="-93404" lat="61.7992166668" lon="11.9516722253">
		<tag k="name" v="Moltrøsta" />
		<tag k="ssr:date" v="2019-05-30" />
		<tag k="ssr:gruppe" v="veg" />
		<tag k="ssr:hovedgruppe" v="infrastruktur" />
		<tag k="ssr:stedsnr" v="788122" />
		<tag k="ssr:type" v="adressenavn" />
	</node>
	<node id="-91769" lat="61.9859749959" lon="11.8871138976">
		<tag k="name" v="Veslbuvika" />
		<tag k="ssr:date" v="2019-05-30" />
		<tag k="ssr:gruppe" v="veg" />
		<tag k="ssr:hovedgruppe" v="infrastruktur" />
		<tag k="ssr:stedsnr" v="363503" />
		<tag k="ssr:type" v="adressenavn" />
	</node>
	<node id="-93129" lat="61.6564583307" lon="11.8354305563">
		<tag k="name" v="Kvennbekkveien" />
		<tag k="ssr:date" v="2019-05-30" />
		<tag k="ssr:gruppe" v="veg" />
		<tag k="ssr:hovedgruppe" v="infrastruktur" />
		<tag k="ssr:stedsnr" v="666536" />
		<tag k="ssr:type" v="adressenavn" />
	</node>
	<node id="-91708" lat="61.758938889" lon="11.960266661">
		<tag k="name" v="Engerdal kommune" />
		<tag k="ssr:date" v="2016-05-10" />
		<tag k="ssr:gruppe" v="administrativeIndelinger" />
		<tag k="ssr:hovedgruppe" v="offentligAdministrasjon" />
		<tag k="ssr:stedsnr" v="328330" />
		<tag k="ssr:type" v="kommune" />
	</node>
	<node id="-92980" lat="61.8063027804" lon="11.9580888929">
		<tag k="name" v="Bjønnsrøsta" />
		<tag k="ssr:date" v="2019-05-30" />
		<tag k="ssr:gruppe" v="veg" />
		<tag k="ssr:hovedgruppe" v="infrastruktur" />
		<tag k="ssr:stedsnr" v="606116" />
		<tag k="ssr:type" v="adressenavn" />
	</node>
	<node id="-92979" lat="62.1552750009" lon="11.902127779">
		<tag k="name" v="Hølbekken" />
		<tag k="ssr:date" v="2019-05-30" />
		<tag k="ssr:gruppe" v="veg" />
		<tag k="ssr:hovedgruppe" v="infrastruktur" />
		<tag k="ssr:stedsnr" v="605968" />
		<tag k="ssr:type" v="adressenavn" />
	</node>
	<node id="-92978" lat="61.762716671" lon="11.9783750076">
		<tag k="name" v="Ekornstien" />
		<tag k="ssr:date" v="2019-05-30" />
		<tag k="ssr:gruppe" v="veg" />
		<tag k="ssr:hovedgruppe" v="infrastruktur" />
		<tag k="ssr:stedsnr" v="605934" />
		<tag k="ssr:type" v="adressenavn" />
	</node>
	<node id="-92977" lat="61.6486611142" lon="11.8496944489">
		<tag k="name" v="Mælbekkveien" />
		<tag k="ssr:date" v="2019-05-30" />
		<tag k="ssr:gruppe" v="veg" />
		<tag k="ssr:hovedgruppe" v="infrastruktur" />
		<tag k="ssr:stedsnr" v="605551" />
		<tag k="ssr:type" v="adressenavn" />
	</node>
	<node id="-93277" lat="61.8057527805" lon="11.9581666706">
		<tag k="name" v="Trollholet" />
		<tag k="ssr:date" v="2019-05-30" />
		<tag k="ssr:gruppe" v="veg" />
		<tag k="ssr:hovedgruppe" v="infrastruktur" />
		<tag k="ssr:stedsnr" v="728096" />
		<tag k="ssr:type" v="adressenavn" />
	</node>
	<node id="-93353" lat="61.767030556" lon="11.9736722297">
		<tag k="name" v="Mårtråkket" />
		<tag k="ssr:date" v="2019-05-30" />
		<tag k="ssr:gruppe" v="veg" />
		<tag k="ssr:hovedgruppe" v="infrastruktur" />
		<tag k="ssr:stedsnr" v="767902" />
		<tag k="ssr:type" v="adressenavn" />
	</node>
	<node id="-93223" lat="61.7664277736" lon="11.9733500009">
		<tag k="name" v="Bjønnbuveien" />
		<tag k="ssr:date" v="2019-05-30" />
		<tag k="ssr:gruppe" v="veg" />
		<tag k="ssr:hovedgruppe" v="infrastruktur" />
		<tag k="ssr:stedsnr" v="707895" />
		<tag k="ssr:type" v="adressenavn" />
	</node>
	<node id="-93842" lat="60.5908609473" lon="9.63819281559">
		<tag k="fixme" v="multiple name tags, choose one and add the other to alt_name" />
		<tag k="name" v="Austlandet;Østlandet" />
		<tag k="ssr:date" v="2018-01-09" />
		<tag k="ssr:gruppe" v="administrativeIndelinger" />
		<tag k="ssr:hovedgruppe" v="offentligAdministrasjon" />
		<tag k="ssr:stedsnr" v="974775" />
		<tag k="ssr:type" v="annenAdministrativInndeling" />
	</node>
	<node id="-92812" lat="62.1640999982" lon="11.9317888896">
		<tag k="name" v="Mælen" />
		<tag k="ssr:date" v="2019-05-30" />
		<tag k="ssr:gruppe" v="veg" />
		<tag k="ssr:hovedgruppe" v="infrastruktur" />
		<tag k="ssr:stedsnr" v="545513" />
		<tag k="ssr:type" v="adressenavn" />
	</node>
</osm>
