<?xml version="1.0" encoding="UTF-8"?>
<<<<<<< HEAD
<osm version="0.6" generator="osmapis">
	<node lat="59.67542777694609" lon="10.288902783652341" id="-11103">
		<tag k="highway" v="path" />
		<tag k="name" v="Korsveien" />
		<tag k="ssr:stedsnr" v="40680" />
	</node>
	<node lat="59.73355833083136" lon="10.221411119380797" id="-11114">
		<tag k="man_made" v="quay" />
		<tag k="name" v="Tollbukaia" />
		<tag k="place" v="locality" />
		<tag k="ssr:stedsnr" v="55280" />
	</node>
	<node lat="59.73604722552064" lon="10.230966662555975" id="-11115">
		<tag k="man_made" v="quay" />
		<tag k="name" v="Tronstadkaia" />
		<tag k="place" v="locality" />
		<tag k="ssr:stedsnr" v="55282" />
	</node>
	<node lat="59.757661112677866" lon="10.112847230895143" id="-11184">
		<tag k="bridge" v="yes" />
		<tag k="layer" v="1" />
		<tag k="name" v="Chr. Hornsrud" />
		<tag k="ssr:stedsnr" v="107180" />
	</node>
	<node lat="59.73810833340849" lon="10.201080550477185" id="-11185">
		<tag k="bridge" v="yes" />
		<tag k="layer" v="1" />
		<tag k="name" v="Flisebekken" />
		<tag k="ssr:stedsnr" v="107189" />
	</node>
	<node lat="59.75046388861851" lon="10.211280551065625" id="-11188">
		<tag k="fixme" v="consider highway=path" />
		<tag k="highway" v="track" />
		<tag k="name" v="Skarveien" />
		<tag k="ssr:stedsnr" v="119825" />
	</node>
	<node lat="59.750933329723715" lon="10.207041661848779" id="-11189">
		<tag k="fixme" v="consider highway=path" />
		<tag k="highway" v="track" />
		<tag k="name" v="Overingeniør Walters vei" />
		<tag k="ssr:stedsnr" v="119827" />
	</node>
	<node lat="59.71387222464972" lon="10.233280558471199" id="-11246">
		<tag k="bridge" v="yes" />
		<tag k="layer" v="1" />
		<tag k="name" v="Baserud" />
		<tag k="ssr:stedsnr" v="167211" />
	</node>
	<node lat="59.75095277330293" lon="10.011352781986927" id="-11277">
		<tag k="name" v="Mjøndalen stasjon" />
		<tag k="railway" v="station" />
		<tag k="ssr:stedsnr" v="205788" />
		<tag k="train" v="yes" />
	</node>
	<node lat="59.70919999795042" lon="10.156127784110147" id="-11301">
		<tag k="bridge" v="yes" />
		<tag k="layer" v="1" />
		<tag k="name" v="Jordbrekktråkket" />
		<tag k="ssr:stedsnr" v="228209" />
	</node>
	<node lat="59.58345555955382" lon="10.39139444692724" id="-11302">
		<tag k="bridge" v="yes" />
		<tag k="layer" v="1" />
		<tag k="name" v="Auke" />
		<tag k="ssr:stedsnr" v="228631" />
	</node>
	<node lat="59.68780555911285" lon="10.34887778373299" id="-11303">
		<tag k="bridge" v="yes" />
		<tag k="layer" v="1" />
		<tag k="name" v="Rørvik mur" />
		<tag k="ssr:stedsnr" v="228633" />
	</node>
	<node lat="59.61554722352561" lon="10.405166674418748" id="-11304">
		<tag k="bridge" v="yes" />
		<tag k="layer" v="1" />
		<tag k="name" v="Svelvik syd mur" />
		<tag k="ssr:stedsnr" v="228636" />
	</node>
	<node lat="59.74366388937865" lon="10.11500278660797" id="-11372">
		<tag k="bridge" v="yes" />
		<tag k="layer" v="1" />
		<tag k="name" v="Langum" />
		<tag k="ssr:stedsnr" v="289197" />
	</node>
	<node lat="59.75022221830528" lon="10.20728333164363" id="-11373">
		<tag k="fixme" v="consider highway=path" />
		<tag k="highway" v="track" />
		<tag k="name" v="Wulfsbergchausséen" />
		<tag k="ssr:stedsnr" v="301804" />
	</node>
	<node lat="59.54415278079411" lon="10.376402778467943" id="-11416">
		<tag k="bridge" v="yes" />
		<tag k="layer" v="1" />
		<tag k="name" v="Fabrikkfossen" />
		<tag k="ssr:stedsnr" v="349619" />
	</node>
	<node lat="59.75552777868161" lon="10.208488888862156" id="-11468">
		<tag k="highway" v="path" />
		<tag k="name" v="Oscarstien" />
		<tag k="ssr:stedsnr" v="483835" />
	</node>
	<node lat="59.71213888858869" lon="10.159511104259233" id="-11495">
		<tag k="bridge" v="yes" />
		<tag k="layer" v="1" />
		<tag k="name" v="Verkselva" />
		<tag k="ssr:stedsnr" v="410839" />
	</node>
	<node lat="59.755344443784395" lon="10.025661104205561" id="-11496">
		<tag k="bridge" v="yes" />
		<tag k="layer" v="1" />
		<tag k="name" v="Eiker nedre" />
		<tag k="ssr:stedsnr" v="410895" />
	</node>
	<node lat="59.75213611387182" lon="10.025283325104718" id="-11497">
		<tag k="bridge" v="yes" />
		<tag k="layer" v="1" />
		<tag k="name" v="Mjøndalen VA-kulvert" />
		<tag k="ssr:stedsnr" v="410945" />
	</node>
	<node lat="59.75214722228385" lon="10.023872220767101" id="-11498">
		<tag k="bridge" v="yes" />
		<tag k="layer" v="1" />
		<tag k="name" v="Strandsonen" />
		<tag k="ssr:stedsnr" v="410946" />
	</node>
	<node lat="59.73521944374248" lon="10.232127770821224" id="-11515">
		<tag k="man_made" v="quay" />
		<tag k="name" v="Holmen Øst-kaia" />
		<tag k="place" v="locality" />
		<tag k="ssr:stedsnr" v="419293" />
	</node>
	<node lat="59.742047221406644" lon="10.206705556622405" id="-11603">
		<tag k="man_made" v="quay" />
		<tag k="name" v="Nedre Bragernes kai" />
		<tag k="place" v="locality" />
		<tag k="ssr:stedsnr" v="526918" />
	</node>
	<node lat="59.74293888904921" lon="10.098266664845662" id="-11614">
		<tag k="bridge" v="yes" />
		<tag k="layer" v="1" />
		<tag k="name" v="Narverud" />
		<tag k="ssr:stedsnr" v="532919" />
	</node>
	<node lat="59.7526499979693" lon="10.000227776121584" id="-11615">
		<tag k="bridge" v="yes" />
		<tag k="layer" v="1" />
		<tag k="name" v="Verket" />
		<tag k="ssr:stedsnr" v="532922" />
	</node>
	<node lat="59.74918333770767" lon="9.983419435711545" id="-11616">
		<tag k="bridge" v="yes" />
		<tag k="layer" v="1" />
		<tag k="name" v="Skalpe" />
		<tag k="ssr:stedsnr" v="532926" />
	</node>
	<node lat="59.73236388566649" lon="10.223199993665089" id="-11617">
		<tag k="man_made" v="quay" />
		<tag k="name" v="Krankaia" />
		<tag k="place" v="locality" />
		<tag k="ssr:stedsnr" v="540278" />
	</node>
	<node lat="59.75206111272057" lon="10.198522214308396" id="-11618">
		<tag k="fixme" v="consider highway=path" />
		<tag k="highway" v="track" />
		<tag k="name" v="Thurmanns vei" />
		<tag k="ssr:stedsnr" v="544769" />
	</node>
	<node lat="59.77499722660344" lon="10.073116665670053" id="-11655">
		<tag k="bridge" v="yes" />
		<tag k="layer" v="1" />
		<tag k="name" v="St. Hansbrua" />
		<tag k="ssr:stedsnr" v="568478" />
	</node>
	<node lat="59.543497221580054" lon="10.392002775425716" id="-11683">
		<tag k="man_made" v="quay" />
		<tag k="name" v="Berger brygge" />
		<tag k="place" v="locality" />
		<tag k="ssr:stedsnr" v="695334" />
	</node>
	<node lat="59.558819443203944" lon="10.397427781751425" id="-11686">
		<tag k="man_made" v="quay" />
		<tag k="name" v="Baskomti" />
		<tag k="place" v="locality" />
		<tag k="ssr:stedsnr" v="695361" />
	</node>
	<node lat="59.68184444898853" lon="10.35371943898465" id="-11688">
		<tag k="junction" v="yes" />
		<tag k="name" v="Elvestad" />
		<tag k="place" v="locality" />
		<tag k="ssr:stedsnr" v="695399" />
	</node>
	<node lat="59.70127222087747" lon="10.244472218943073" id="-11707">
		<tag k="bridge" v="yes" />
		<tag k="layer" v="1" />
		<tag k="name" v="Gråterud" />
		<tag k="ssr:stedsnr" v="591202" />
	</node>
	<node lat="59.69411388484069" lon="10.214663884625159" id="-11753">
		<tag k="name" v="Grinda" />
		<tag k="place" v="locality" />
		<tag k="ssr:stedsnr" v="707292" />
	</node>
	<node lat="59.73991666383956" lon="10.146397224084668" id="-11763">
		<tag k="bridge" v="yes" />
		<tag k="layer" v="1" />
		<tag k="name" v="Gosen" />
		<tag k="ssr:stedsnr" v="652185" />
	</node>
	<node lat="59.74427777985192" lon="10.027308338509098" id="-11764">
		<tag k="bridge" v="yes" />
		<tag k="layer" v="1" />
		<tag k="name" v="Mile" />
		<tag k="ssr:stedsnr" v="653936" />
	</node>
	<node lat="59.75469166306668" lon="10.01083333087394" id="-11765">
		<tag k="bridge" v="yes" />
		<tag k="layer" v="1" />
		<tag k="name" v="Eknes" />
		<tag k="ssr:stedsnr" v="653893" />
	</node>
	<node lat="59.73922778087272" lon="10.199280555939836" id="-11830">
		<tag k="bridge" v="yes" />
		<tag k="layer" v="1" />
		<tag k="name" v="Museumsparken" />
		<tag k="ssr:stedsnr" v="713209" />
	</node>
	<node lat="59.76156389027674" lon="10.181772224245828" id="-11841">
		<tag k="highway" v="path" />
		<tag k="name" v="Overlia" />
		<tag k="ssr:stedsnr" v="726780" />
	</node>
	<node lat="59.751213893339234" lon="10.20481110836833" id="-11842">
		<tag k="highway" v="path" />
		<tag k="name" v="Oscarstien" />
		<tag k="ssr:stedsnr" v="726784" />
	</node>
	<node lat="59.75268055931092" lon="10.002469438541636" id="-11869">
		<tag k="bridge" v="yes" />
		<tag k="layer" v="1" />
		<tag k="name" v="Evje" />
		<tag k="ssr:stedsnr" v="228953" />
	</node>
	<node lat="59.770275000982856" lon="10.020024995301872" id="-11877">
		<tag k="highway" v="path" />
		<tag k="name" v="Vrierne" />
		<tag k="ssr:stedsnr" v="750960" />
	</node>
	<node lat="59.71564999802611" lon="10.157899996315034" id="-11898">
=======
<osm generator="osmapis" version="0.6">
	<node id="-222185" lat="59.7643305584" lon="10.1935499973">
		<tag k="name" v="Grinda" />
		<tag k="place" v="locality" />
		<tag k="ssr:stedsnr" v="908838" />
	</node>
	<node id="-222686" lat="59.7438833361" lon="10.2331388973">
		<tag k="alt_name" v="Brakerøya" />
		<tag k="name" v="Brakerøya stasjon" />
		<tag k="railway" v="station" />
		<tag k="ssr:stedsnr" v="367311" />
		<tag k="train" v="yes" />
	</node>
	<node id="-223194" lat="59.73542708" lon="10.2396853245">
		<tag k="landuse" v="harbour" />
		<tag k="name" v="Ballasthavna" />
		<tag k="seamark:type" v="harbour" />
		<tag k="ssr:stedsnr" v="986974" />
	</node>
	<node id="-223188" lat="59.6132646118" lon="10.409530658">
		<tag k="man_made" v="quay" />
		<tag k="name" v="Svelvikkaien" />
		<tag k="place" v="locality" />
		<tag k="ssr:stedsnr" v="985895" />
	</node>
	<node id="-222672" lat="59.746305558" lon="10.0421222261">
>>>>>>> e1d4bc35ff8a6074a6f2e91616a996b547c36f15
		<tag k="bridge" v="yes" />
		<tag k="layer" v="1" />
		<tag k="name" v="Konneruddumpa" />
		<tag k="ssr:stedsnr" v="774217" />
	</node>
<<<<<<< HEAD
	<node lat="59.71798610731571" lon="10.14906666251103" id="-11899">
=======
	<node id="-222671" lat="59.7533277793" lon="10.1453750056">
>>>>>>> e1d4bc35ff8a6074a6f2e91616a996b547c36f15
		<tag k="bridge" v="yes" />
		<tag k="layer" v="1" />
		<tag k="name" v="Konnerudsenteret" />
		<tag k="ssr:stedsnr" v="774219" />
	</node>
<<<<<<< HEAD
	<node lat="59.76433055843976" lon="10.193549997256405" id="-11903">
		<tag k="name" v="Grinda" />
		<tag k="place" v="locality" />
		<tag k="ssr:stedsnr" v="908838" />
	</node>
	<node lat="59.73862499782237" lon="10.17388333718055" id="-11950">
		<tag k="landuse" v="industrial" />
		<tag k="name" v="Sundland trafo" />
		<tag k="power" v="plant" />
		<tag k="ssr:stedsnr" v="831008" />
	</node>
	<node lat="59.69431111241825" lon="10.249002779607201" id="-11953">
=======
	<node id="-221646" lat="59.725169447" lon="10.1279777733">
		<tag k="junction" v="yes" />
		<tag k="name" v="Skalstadkrysset" />
		<tag k="place" v="locality" />
		<tag k="ssr:stedsnr" v="508589" />
	</node>
	<node id="-222667" lat="59.7260138895" lon="10.2320194532">
		<tag k="highway" v="path" />
		<tag k="name" v="Fruestien" />
		<tag k="ssr:stedsnr" v="345070" />
	</node>
	<node id="-223178" lat="59.7307583324" lon="10.2279777808">
		<tag k="man_made" v="quay" />
		<tag k="name" v="Langbrygga" />
		<tag k="place" v="locality" />
		<tag k="ssr:stedsnr" v="965311" />
	</node>
	<node id="-223176" lat="59.7466305536" lon="10.0380833277">
>>>>>>> e1d4bc35ff8a6074a6f2e91616a996b547c36f15
		<tag k="bridge" v="yes" />
		<tag k="layer" v="1" />
		<tag k="name" v="Eik" />
		<tag k="ssr:stedsnr" v="835207" />
	</node>
<<<<<<< HEAD
	<node lat="59.71668264849306" lon="10.221901054461666" id="-11954">
=======
	<node id="-223175" lat="59.7110972222" lon="10.1610694496">
>>>>>>> e1d4bc35ff8a6074a6f2e91616a996b547c36f15
		<tag k="bridge" v="yes" />
		<tag k="layer" v="1" />
		<tag k="name" v="Fjeld" />
		<tag k="ssr:stedsnr" v="835218" />
	</node>
	<node lat="59.748752777520345" lon="10.204027772641815" id="-11958">
		<tag k="highway" v="path" />
		<tag k="name" v="Almbumstien" />
		<tag k="ssr:stedsnr" v="848784" />
	</node>
<<<<<<< HEAD
	<node lat="59.615852774516604" lon="10.41034445109112" id="-12060">
=======
	<node id="-223174" lat="59.6688722189" lon="10.2393111082">
>>>>>>> e1d4bc35ff8a6074a6f2e91616a996b547c36f15
		<tag k="bridge" v="yes" />
		<tag k="layer" v="1" />
		<tag k="name" v="Svelvik ferjekai" />
		<tag k="ssr:stedsnr" v="956627" />
	</node>
<<<<<<< HEAD
	<node lat="59.6688722188882" lon="10.239311108193318" id="-12061">
=======
	<node id="-223173" lat="59.6801194459" lon="10.2490583312">
>>>>>>> e1d4bc35ff8a6074a6f2e91616a996b547c36f15
		<tag k="bridge" v="yes" />
		<tag k="layer" v="1" />
		<tag k="name" v="Unnelsrudlina" />
		<tag k="ssr:stedsnr" v="956839" />
	</node>
<<<<<<< HEAD
	<node lat="59.71109722223407" lon="10.161069449639596" id="-12062">
=======
	<node id="-223172" lat="59.6158527745" lon="10.4103444511">
>>>>>>> e1d4bc35ff8a6074a6f2e91616a996b547c36f15
		<tag k="bridge" v="yes" />
		<tag k="layer" v="1" />
		<tag k="name" v="Sletta" />
		<tag k="ssr:stedsnr" v="956841" />
	</node>
<<<<<<< HEAD
	<node lat="59.730758332427065" lon="10.227977780821059" id="-12063">
		<tag k="man_made" v="quay" />
		<tag k="name" v="Langbrygga" />
		<tag k="place" v="locality" />
		<tag k="ssr:stedsnr" v="965311" />
	</node>
	<node lat="59.735427079952615" lon="10.239685324484515" id="-12074">
		<tag k="landuse" v="harbour" />
		<tag k="name" v="Ballasthavna" />
		<tag k="seamark:type" v="harbour" />
		<tag k="ssr:stedsnr" v="986974" />
	</node>
	<node lat="59.749344444636584" lon="10.06822499913921" id="-12116">
		<tag k="barrier" v="lift_gate" />
		<tag k="name" v="Dalerovergangen" />
		<tag k="place" v="locality" />
		<tag k="ssr:stedsnr" v="22929" />
	</node>
	<node lat="59.72992499649259" lon="10.223294450913956" id="-12125">
=======
	<node id="-222126" lat="59.7518111105" lon="10.0311611091">
>>>>>>> e1d4bc35ff8a6074a6f2e91616a996b547c36f15
		<tag k="bridge" v="yes" />
		<tag k="layer" v="1" />
		<tag k="name" v="Rundtom" />
		<tag k="ssr:stedsnr" v="46849" />
	</node>
<<<<<<< HEAD
	<node lat="59.74158333685285" lon="10.134588880199559" id="-12157">
=======
	<node id="-222123" lat="59.7166826485" lon="10.2219010545">
>>>>>>> e1d4bc35ff8a6074a6f2e91616a996b547c36f15
		<tag k="bridge" v="yes" />
		<tag k="layer" v="1" />
		<tag k="name" v="Kleggen" />
		<tag k="ssr:stedsnr" v="46214" />
	</node>
<<<<<<< HEAD
	<node lat="59.66383610753441" lon="10.379652775047663" id="-12158">
		<tag k="bridge" v="yes" />
		<tag k="layer" v="1" />
		<tag k="name" v="Nordby" />
		<tag k="ssr:stedsnr" v="46616" />
	</node>
	<node lat="59.75516667094739" lon="10.008391669428164" id="-12159">
=======
	<node id="-222122" lat="59.6943111124" lon="10.2490027796">
		<tag k="bridge" v="yes" />
		<tag k="layer" v="1" />
		<tag k="name" v="Eik" />
		<tag k="ssr:stedsnr" v="835207" />
	</node>
	<node id="-221338" lat="59.7509333297" lon="10.2070416618">
		<tag k="fixme" v="consider highway=path" />
		<tag k="highway" v="track" />
		<tag k="name" v="Overingeniør Walters vei" />
		<tag k="ssr:stedsnr" v="119827" />
	</node>
	<node id="-221337" lat="59.7504638886" lon="10.2112805511">
		<tag k="fixme" v="consider highway=path" />
		<tag k="highway" v="track" />
		<tag k="name" v="Skarveien" />
		<tag k="ssr:stedsnr" v="119825" />
	</node>
	<node id="-223120" lat="59.7306500043" lon="10.2326527823">
		<tag k="alt_name" v="Tjørnekrankaia" />
		<tag k="man_made" v="quay" />
		<tag k="name" v="Tjømøkrankaia" />
		<tag k="place" v="locality" />
		<tag k="ssr:stedsnr" v="844269" />
	</node>
	<node id="-223118" lat="59.7426416648" lon="10.1277166727">
>>>>>>> e1d4bc35ff8a6074a6f2e91616a996b547c36f15
		<tag k="bridge" v="yes" />
		<tag k="layer" v="1" />
		<tag k="name" v="Bruveien" />
		<tag k="ssr:stedsnr" v="46911" />
	</node>
<<<<<<< HEAD
	<node lat="59.76034999660843" lon="10.084688886873776" id="-12160">
		<tag k="bridge" v="yes" />
		<tag k="layer" v="1" />
		<tag k="name" v="Ulverud" />
		<tag k="ssr:stedsnr" v="46956" />
	</node>
	<node lat="59.71100278068255" lon="10.174622225137536" id="-12161">
=======
	<node id="-222093" lat="59.6677611151" lon="10.3800944487">
		<tag k="man_made" v="quay" />
		<tag k="name" v="Nordbybrygga" />
		<tag k="place" v="locality" />
		<tag k="ssr:stedsnr" v="817363" />
	</node>
	<node id="-222601" lat="59.752383329" lon="10.2106888898">
>>>>>>> e1d4bc35ff8a6074a6f2e91616a996b547c36f15
		<tag k="highway" v="path" />
		<tag k="name" v="Kjærlighetsstien" />
		<tag k="ssr:stedsnr" v="57299" />
	</node>
<<<<<<< HEAD
	<node lat="59.763130556574" lon="10.180244436477054" id="-12165">
		<tag k="fixme" v="consider highway=path" />
		<tag k="highway" v="track" />
		<tag k="name" v="Thorleif Haugs vei" />
		<tag k="ssr:stedsnr" v="59755" />
	</node>
	<node lat="59.70223888634165" lon="10.257002773170413" id="-12197">
		<tag k="junction" v="yes" />
		<tag k="name" v="Eikhaug" />
		<tag k="place" v="locality" />
		<tag k="ssr:stedsnr" v="100232" />
	</node>
	<node lat="59.740452777209306" lon="10.203250004714366" id="-12206">
		<tag k="alt_name" v="Drammen jernbanestasjon" />
		<tag k="name" v="Drammen stasjon" />
=======
	<node id="-222600" lat="59.7257444407" lon="10.0972305531">
		<tag k="amenity" v="parking" />
		<tag k="name" v="Olsrud parkeringsplass" />
		<tag k="ssr:stedsnr" v="301840" />
	</node>
	<node id="-223107" lat="59.7386249978" lon="10.1738833372">
		<tag k="landuse" v="industrial" />
		<tag k="name" v="Sundland trafo" />
		<tag k="power" v="plant" />
		<tag k="ssr:stedsnr" v="831008" />
	</node>
	<node id="-223125" lat="59.7487527775" lon="10.2040277726">
		<tag k="highway" v="path" />
		<tag k="name" v="Almbumstien" />
		<tag k="ssr:stedsnr" v="848784" />
	</node>
	<node id="-222579" lat="59.7509527733" lon="10.011352782">
		<tag k="name" v="Mjøndalen stasjon" />
>>>>>>> e1d4bc35ff8a6074a6f2e91616a996b547c36f15
		<tag k="railway" v="station" />
		<tag k="ssr:stedsnr" v="102651" />
		<tag k="train" v="yes" />
	</node>
<<<<<<< HEAD
	<node lat="59.68430832993666" lon="10.20676666357986" id="-12216">
=======
	<node id="-221554" lat="59.5441527808" lon="10.3764027785">
>>>>>>> e1d4bc35ff8a6074a6f2e91616a996b547c36f15
		<tag k="bridge" v="yes" />
		<tag k="layer" v="1" />
		<tag k="name" v="Skoger" />
		<tag k="ssr:stedsnr" v="107853" />
	</node>
<<<<<<< HEAD
	<node lat="59.67080277822213" lon="10.111041664425432" id="-12283">
		<tag k="highway" v="path" />
		<tag k="name" v="Gamle Gravdalsvei" />
		<tag k="ssr:stedsnr" v="163687" />
	</node>
	<node lat="59.73134166577421" lon="10.225066666387121" id="-12291">
		<tag k="man_made" v="quay" />
		<tag k="name" v="Myrakaia" />
		<tag k="place" v="locality" />
		<tag k="ssr:stedsnr" v="176265" />
	</node>
	<node lat="59.743805557506704" lon="10.159955558453724" id="-12311">
=======
	<node id="-221546" lat="59.7555277787" lon="10.2084888889">
		<tag k="highway" v="path" />
		<tag k="name" v="Oscarstien" />
		<tag k="ssr:stedsnr" v="483835" />
	</node>
	<node id="-222552" lat="59.7438055575" lon="10.1599555585">
>>>>>>> e1d4bc35ff8a6074a6f2e91616a996b547c36f15
		<tag k="alt_name" v="Gulskogen" />
		<tag k="name" v="Gulskogen stasjon" />
		<tag k="railway" v="station" />
		<tag k="ssr:stedsnr" v="185358" />
		<tag k="train" v="yes" />
	</node>
<<<<<<< HEAD
	<node lat="59.748341666437874" lon="10.00588332964236" id="-12398">
		<tag k="bridge" v="yes" />
		<tag k="layer" v="1" />
		<tag k="name" v="Veia" />
		<tag k="ssr:stedsnr" v="289972" />
	</node>
	<node lat="59.75555000304356" lon="10.032263886845008" id="-12399">
		<tag k="alt_name" v="Steinseth" />
=======
	<node id="-221518" lat="59.7502222183" lon="10.2072833316">
		<tag k="fixme" v="consider highway=path" />
		<tag k="highway" v="track" />
		<tag k="name" v="Wulfsbergchausséen" />
		<tag k="ssr:stedsnr" v="301804" />
	</node>
	<node id="-222022" lat="59.7392277809" lon="10.1992805559">
>>>>>>> e1d4bc35ff8a6074a6f2e91616a996b547c36f15
		<tag k="bridge" v="yes" />
		<tag k="layer" v="1" />
		<tag k="name" v="Steinset" />
		<tag k="ssr:stedsnr" v="289974" />
	</node>
<<<<<<< HEAD
	<node lat="59.752383328979214" lon="10.21068888977389" id="-12404">
		<tag k="highway" v="path" />
		<tag k="name" v="Køpckes vei" />
		<tag k="ssr:stedsnr" v="301801" />
	</node>
	<node lat="59.72574444070473" lon="10.097230553131737" id="-12411">
		<tag k="amenity" v="parking" />
		<tag k="name" v="Olsrud parkeringsplass" />
		<tag k="ssr:stedsnr" v="301840" />
	</node>
	<node lat="59.72601388946691" lon="10.232019453172336" id="-12463">
		<tag k="highway" v="path" />
		<tag k="name" v="Fruestien" />
		<tag k="ssr:stedsnr" v="345070" />
	</node>
	<node lat="59.75332777926622" lon="10.145375005638565" id="-12469">
		<tag k="bridge" v="yes" />
		<tag k="layer" v="1" />
		<tag k="name" v="Vårveien" />
		<tag k="ssr:stedsnr" v="349863" />
	</node>
	<node lat="59.746305557982566" lon="10.04212222609225" id="-12470">
=======
	<node id="-223039" lat="59.7179861073" lon="10.1490666625">
		<tag k="bridge" v="yes" />
		<tag k="layer" v="1" />
		<tag k="name" v="Konnerudsenteret" />
		<tag k="ssr:stedsnr" v="774219" />
	</node>
	<node id="-222526" lat="59.7313416658" lon="10.2250666664">
		<tag k="man_made" v="quay" />
		<tag k="name" v="Myrakaia" />
		<tag k="place" v="locality" />
		<tag k="ssr:stedsnr" v="176265" />
	</node>
	<node id="-221500" lat="59.755550003" lon="10.0322638868">
		<tag k="alt_name" v="Steinseth" />
>>>>>>> e1d4bc35ff8a6074a6f2e91616a996b547c36f15
		<tag k="bridge" v="yes" />
		<tag k="layer" v="1" />
		<tag k="name" v="Rygh" />
		<tag k="ssr:stedsnr" v="349964" />
	</node>
	<node lat="59.74388333613243" lon="10.233138897340607" id="-12488">
		<tag k="alt_name" v="Brakerøya" />
		<tag k="name" v="Brakerøya stasjon" />
		<tag k="railway" v="station" />
		<tag k="ssr:stedsnr" v="367311" />
		<tag k="train" v="yes" />
	</node>
<<<<<<< HEAD
	<node lat="59.737725000317624" lon="10.187736116904224" id="-12536">
=======
	<node id="-221499" lat="59.7483416664" lon="10.0058833296">
>>>>>>> e1d4bc35ff8a6074a6f2e91616a996b547c36f15
		<tag k="bridge" v="yes" />
		<tag k="layer" v="1" />
		<tag k="name" v="Konnerudgata" />
		<tag k="ssr:stedsnr" v="410201" />
	</node>
<<<<<<< HEAD
	<node lat="59.76107222322443" lon="10.144441668759745" id="-12567">
=======
	<node id="-222519" lat="59.6708027782" lon="10.1110416644">
>>>>>>> e1d4bc35ff8a6074a6f2e91616a996b547c36f15
		<tag k="highway" v="path" />
		<tag k="name" v="Ihleløypa" />
		<tag k="ssr:stedsnr" v="447597" />
	</node>
<<<<<<< HEAD
	<node lat="59.725169446980445" lon="10.127977773254901" id="-12578">
		<tag k="junction" v="yes" />
		<tag k="name" v="Skalstadkrysset" />
		<tag k="place" v="locality" />
		<tag k="ssr:stedsnr" v="508589" />
	</node>
	<node lat="59.708638884606295" lon="10.162188886269206" id="-12683">
=======
	<node id="-221998" lat="59.5588194432" lon="10.3974277818">
		<tag k="man_made" v="quay" />
		<tag k="name" v="Baskomti" />
		<tag k="place" v="locality" />
		<tag k="ssr:stedsnr" v="695361" />
	</node>
	<node id="-222997" lat="59.770275001" lon="10.0200249953">
		<tag k="highway" v="path" />
		<tag k="name" v="Vrierne" />
		<tag k="ssr:stedsnr" v="750960" />
	</node>
	<node id="-222993" lat="59.7546916631" lon="10.0108333309">
>>>>>>> e1d4bc35ff8a6074a6f2e91616a996b547c36f15
		<tag k="bridge" v="yes" />
		<tag k="layer" v="1" />
		<tag k="name" v="Dambråten" />
		<tag k="ssr:stedsnr" v="591190" />
	</node>
<<<<<<< HEAD
	<node lat="59.75473332922462" lon="10.135027769411638" id="-12684">
=======
	<node id="-222992" lat="59.6044999964" lon="10.4043888941">
>>>>>>> e1d4bc35ff8a6074a6f2e91616a996b547c36f15
		<tag k="bridge" v="yes" />
		<tag k="layer" v="1" />
		<tag k="name" v="Farmen" />
		<tag k="ssr:stedsnr" v="591199" />
	</node>
<<<<<<< HEAD
	<node lat="59.71371666750643" lon="10.160083330810824" id="-12685">
=======
	<node id="-222991" lat="59.5588444473" lon="10.3884388931">
>>>>>>> e1d4bc35ff8a6074a6f2e91616a996b547c36f15
		<tag k="bridge" v="yes" />
		<tag k="layer" v="1" />
		<tag k="name" v="Svensedammen" />
		<tag k="ssr:stedsnr" v="591829" />
	</node>
	<node lat="59.752805555287146" lon="10.218411102438452" id="-12691">
		<tag k="highway" v="path" />
		<tag k="name" v="Fagerhøyveien" />
		<tag k="ssr:stedsnr" v="604819" />
	</node>
<<<<<<< HEAD
	<node lat="59.544005559517295" lon="10.371994447091113" id="-12758">
=======
	<node id="-222990" lat="59.5440055595" lon="10.3719944471">
>>>>>>> e1d4bc35ff8a6074a6f2e91616a996b547c36f15
		<tag k="bridge" v="yes" />
		<tag k="layer" v="1" />
		<tag k="name" v="Berger" />
		<tag k="ssr:stedsnr" v="652560" />
	</node>
<<<<<<< HEAD
	<node lat="59.55884444730527" lon="10.388438893071216" id="-12759">
=======
	<node id="-222989" lat="59.7399166638" lon="10.1463972241">
>>>>>>> e1d4bc35ff8a6074a6f2e91616a996b547c36f15
		<tag k="bridge" v="yes" />
		<tag k="layer" v="1" />
		<tag k="name" v="Høyen mur" />
		<tag k="ssr:stedsnr" v="652561" />
	</node>
<<<<<<< HEAD
	<node lat="59.60449999644511" lon="10.404388894072572" id="-12760">
=======
	<node id="-221447" lat="59.7526805593" lon="10.0024694385">
>>>>>>> e1d4bc35ff8a6074a6f2e91616a996b547c36f15
		<tag k="bridge" v="yes" />
		<tag k="layer" v="1" />
		<tag k="name" v="Knem" />
		<tag k="ssr:stedsnr" v="652562" />
	</node>
<<<<<<< HEAD
	<node lat="59.740358329383426" lon="10.148502774260947" id="-12771">
		<tag k="fixme" v="consider highway=path" />
		<tag k="highway" v="track" />
		<tag k="name" v="Rødtråkket" />
		<tag k="ssr:stedsnr" v="665857" />
	</node>
	<node lat="59.684213679448014" lon="10.245214419514062" id="-12779">
=======
	<node id="-221446" lat="59.709199998" lon="10.1561277841">
		<tag k="bridge" v="yes" />
		<tag k="layer" v="1" />
		<tag k="name" v="Jordbrekktråkket" />
		<tag k="ssr:stedsnr" v="228209" />
	</node>
	<node id="-222337" lat="59.6754277769" lon="10.2889027837">
		<tag k="highway" v="path" />
		<tag k="name" v="Korsveien" />
		<tag k="ssr:stedsnr" v="40680" />
	</node>
	<node id="-221439" lat="59.7436638894" lon="10.1150027866">
>>>>>>> e1d4bc35ff8a6074a6f2e91616a996b547c36f15
		<tag k="bridge" v="yes" />
		<tag k="layer" v="1" />
		<tag k="name" v="Gundesølina bru" />
		<tag k="ssr:stedsnr" v="713213" />
	</node>
<<<<<<< HEAD
	<node lat="59.75154722381138" lon="10.028222219198975" id="-12780">
=======
	<node id="-221950" lat="59.7442777799" lon="10.0273083385">
>>>>>>> e1d4bc35ff8a6074a6f2e91616a996b547c36f15
		<tag k="bridge" v="yes" />
		<tag k="layer" v="1" />
		<tag k="name" v="Mjøndalslokket bru" />
		<tag k="ssr:stedsnr" v="714944" />
	</node>
<<<<<<< HEAD
	<node lat="59.73310277408414" lon="10.23457499322065" id="-12783">
		<tag k="man_made" v="quay" />
		<tag k="name" v="Risgardkaia" />
		<tag k="place" v="locality" />
		<tag k="ssr:stedsnr" v="722304" />
	</node>
	<node lat="59.73546666351243" lon="10.223863888201132" id="-12784">
		<tag k="man_made" v="quay" />
		<tag k="name" v="Holmen Syd-kaia" />
		<tag k="place" v="locality" />
		<tag k="ssr:stedsnr" v="722306" />
	</node>
	<node lat="59.66776111508261" lon="10.38009444871524" id="-12877">
		<tag k="man_made" v="quay" />
		<tag k="name" v="Nordbybrygga" />
		<tag k="place" v="locality" />
		<tag k="ssr:stedsnr" v="817363" />
	</node>
	<node lat="59.74264166478082" lon="10.127716672687443" id="-12899">
=======
	<node id="-222437" lat="59.6843083299" lon="10.2067666636">
		<tag k="bridge" v="yes" />
		<tag k="layer" v="1" />
		<tag k="name" v="Skoger" />
		<tag k="ssr:stedsnr" v="107853" />
	</node>
	<node id="-222436" lat="59.7381083334" lon="10.2010805505">
>>>>>>> e1d4bc35ff8a6074a6f2e91616a996b547c36f15
		<tag k="bridge" v="yes" />
		<tag k="layer" v="1" />
		<tag k="name" v="Pukerudveien" />
		<tag k="ssr:stedsnr" v="835845" />
	</node>
<<<<<<< HEAD
	<node lat="59.75181111045362" lon="10.031161109063762" id="-12900">
=======
	<node id="-222435" lat="59.7576611127" lon="10.1128472309">
>>>>>>> e1d4bc35ff8a6074a6f2e91616a996b547c36f15
		<tag k="bridge" v="yes" />
		<tag k="layer" v="1" />
		<tag k="name" v="Os" />
		<tag k="ssr:stedsnr" v="835954" />
	</node>
<<<<<<< HEAD
	<node lat="59.73065000428096" lon="10.232652782286499" id="-12902">
		<tag k="alt_name" v="Tjørnekrankaia" />
		<tag k="man_made" v="quay" />
		<tag k="name" v="Tjømøkrankaia" />
		<tag k="place" v="locality" />
		<tag k="ssr:stedsnr" v="844269" />
	</node>
	<node lat="59.68011944585246" lon="10.249058331224756" id="-13001">
=======
	<node id="-222427" lat="59.7404527772" lon="10.2032500047">
		<tag k="alt_name" v="Drammen jernbanestasjon" />
		<tag k="name" v="Drammen stasjon" />
		<tag k="railway" v="station" />
		<tag k="ssr:stedsnr" v="102651" />
		<tag k="train" v="yes" />
	</node>
	<node id="-221393" lat="59.7138722246" lon="10.2332805585">
>>>>>>> e1d4bc35ff8a6074a6f2e91616a996b547c36f15
		<tag k="bridge" v="yes" />
		<tag k="layer" v="1" />
		<tag k="name" v="Sagatun" />
		<tag k="ssr:stedsnr" v="956835" />
	</node>
<<<<<<< HEAD
	<node lat="59.746630553563094" lon="10.038083327679628" id="-13002">
=======
	<node id="-222917" lat="59.7012722209" lon="10.2444722189">
>>>>>>> e1d4bc35ff8a6074a6f2e91616a996b547c36f15
		<tag k="bridge" v="yes" />
		<tag k="layer" v="1" />
		<tag k="name" v="Miletjern" />
		<tag k="ssr:stedsnr" v="957932" />
	</node>
<<<<<<< HEAD
	<node lat="59.75954896941045" lon="9.961703560557305" id="-13008">
		<tag k="name" v="Steinberg stasjon" />
		<tag k="railway" v="station" />
		<tag k="ssr:stedsnr" v="985137" />
		<tag k="train" v="yes" />
	</node>
	<node lat="59.61326461177533" lon="10.409530658029817" id="-13012">
		<tag k="man_made" v="quay" />
		<tag k="name" v="Svelvikkaien" />
		<tag k="place" v="locality" />
		<tag k="ssr:stedsnr" v="985895" />
	</node>
	<node lat="59.717374944295194" lon="10.206566010399095" id="-13141">
		<tag k="layer" v="-1" />
		<tag k="name" v="Drammenstunnelen" />
		<tag k="ssr:stedsnr" v="1076729" />
		<tag k="tunnel" v="yes" />
=======
	<node id="-222916" lat="59.7547333292" lon="10.1350277694">
		<tag k="bridge" v="yes" />
		<tag k="layer" v="1" />
		<tag k="name" v="Farmen" />
		<tag k="ssr:stedsnr" v="591199" />
	</node>
	<node id="-222915" lat="59.7086388846" lon="10.1621888863">
		<tag k="bridge" v="yes" />
		<tag k="layer" v="1" />
		<tag k="name" v="Dambråten" />
		<tag k="ssr:stedsnr" v="591190" />
	</node>
	<node id="-221889" lat="59.7512138933" lon="10.2048111084">
		<tag k="highway" v="path" />
		<tag k="name" v="Oscarstien" />
		<tag k="ssr:stedsnr" v="726784" />
>>>>>>> e1d4bc35ff8a6074a6f2e91616a996b547c36f15
	</node>
	<node id="-221888" lat="59.7615638903" lon="10.1817722242">
		<tag k="highway" v="path" />
		<tag k="name" v="Overlia" />
		<tag k="ssr:stedsnr" v="726780" />
	</node>
	<node id="-221883" lat="59.7354666635" lon="10.2238638882">
		<tag k="man_made" v="quay" />
		<tag k="name" v="Holmen Syd-kaia" />
		<tag k="place" v="locality" />
		<tag k="ssr:stedsnr" v="722306" />
	</node>
	<node id="-221882" lat="59.7331027741" lon="10.2345749932">
		<tag k="man_made" v="quay" />
		<tag k="name" v="Risgardkaia" />
		<tag k="place" v="locality" />
		<tag k="ssr:stedsnr" v="722304" />
	</node>
	<node id="-221867" lat="59.7528055553" lon="10.2184111024">
		<tag k="highway" v="path" />
		<tag k="name" v="Fagerhøyveien" />
		<tag k="ssr:stedsnr" v="604819" />
	</node>
	<node id="-221862" lat="59.7515472238" lon="10.0282222192">
		<tag k="bridge" v="yes" />
		<tag k="layer" v="1" />
		<tag k="name" v="Mjøndalslokket bru" />
		<tag k="ssr:stedsnr" v="714944" />
	</node>
	<node id="-221861" lat="59.6842136794" lon="10.2452144195">
		<tag k="bridge" v="yes" />
		<tag k="layer" v="1" />
		<tag k="name" v="Gundesølina bru" />
		<tag k="ssr:stedsnr" v="713213" />
	</node>
	<node id="-221860" lat="59.7137166675" lon="10.1600833308">
		<tag k="bridge" v="yes" />
		<tag k="layer" v="1" />
		<tag k="name" v="Svensedammen" />
		<tag k="ssr:stedsnr" v="591829" />
	</node>
	<node id="-222364" lat="59.7110027807" lon="10.1746222251">
		<tag k="highway" v="path" />
		<tag k="name" v="Kjærlighetsstien" />
		<tag k="ssr:stedsnr" v="57299" />
	</node>
	<node id="-222363" lat="59.7360472255" lon="10.2309666626">
		<tag k="man_made" v="quay" />
		<tag k="name" v="Tronstadkaia" />
		<tag k="place" v="locality" />
		<tag k="ssr:stedsnr" v="55282" />
	</node>
	<node id="-222362" lat="59.7335583308" lon="10.2214111194">
		<tag k="man_made" v="quay" />
		<tag k="name" v="Tollbukaia" />
		<tag k="place" v="locality" />
		<tag k="ssr:stedsnr" v="55280" />
	</node>
	<node id="-222361" lat="59.7603499966" lon="10.0846888869">
		<tag k="bridge" v="yes" />
		<tag k="layer" v="1" />
		<tag k="name" v="Ulverud" />
		<tag k="ssr:stedsnr" v="46956" />
	</node>
	<node id="-222360" lat="59.7551666709" lon="10.0083916694">
		<tag k="bridge" v="yes" />
		<tag k="layer" v="1" />
		<tag k="name" v="Bruveien" />
		<tag k="ssr:stedsnr" v="46911" />
	</node>
	<node id="-222359" lat="59.7299249965" lon="10.2232944509">
		<tag k="bridge" v="yes" />
		<tag k="layer" v="1" />
		<tag k="name" v="Rundtom" />
		<tag k="ssr:stedsnr" v="46849" />
	</node>
	<node id="-222358" lat="59.6638361075" lon="10.379652775">
		<tag k="bridge" v="yes" />
		<tag k="layer" v="1" />
		<tag k="name" v="Nordby" />
		<tag k="ssr:stedsnr" v="46616" />
	</node>
	<node id="-222357" lat="59.7415833369" lon="10.1345888802">
		<tag k="bridge" v="yes" />
		<tag k="layer" v="1" />
		<tag k="name" v="Kleggen" />
		<tag k="ssr:stedsnr" v="46214" />
	</node>
	<node id="-221324" lat="59.7022388863" lon="10.2570027732">
		<tag k="junction" v="yes" />
		<tag k="name" v="Eikhaug" />
		<tag k="place" v="locality" />
		<tag k="ssr:stedsnr" v="100232" />
	</node>
	<node id="-222851" lat="59.7749972266" lon="10.0731166657">
		<tag k="bridge" v="yes" />
		<tag k="layer" v="1" />
		<tag k="name" v="St. Hansbrua" />
		<tag k="ssr:stedsnr" v="568478" />
	</node>
	<node id="-221825" lat="59.6941138848" lon="10.2146638846">
		<tag k="name" v="Grinda" />
		<tag k="place" v="locality" />
		<tag k="ssr:stedsnr" v="707292" />
	</node>
	<node id="-223038" lat="59.715649998" lon="10.1578999963">
		<tag k="bridge" v="yes" />
		<tag k="layer" v="1" />
		<tag k="name" v="Konneruddumpa" />
		<tag k="ssr:stedsnr" v="774217" />
	</node>
	<node id="-221807" lat="59.681844449" lon="10.353719439">
		<tag k="junction" v="yes" />
		<tag k="name" v="Elvestad" />
		<tag k="place" v="locality" />
		<tag k="ssr:stedsnr" v="695399" />
	</node>
	<node id="-221804" lat="59.5434972216" lon="10.3920027754">
		<tag k="man_made" v="quay" />
		<tag k="name" v="Berger brygge" />
		<tag k="place" v="locality" />
		<tag k="ssr:stedsnr" v="695334" />
	</node>
	<node id="-221457" lat="59.7610722232" lon="10.1444416688">
		<tag k="highway" v="path" />
		<tag k="name" v="Ihleløypa" />
		<tag k="ssr:stedsnr" v="447597" />
	</node>
	<node id="-222810" lat="59.7520611127" lon="10.1985222143">
		<tag k="fixme" v="consider highway=path" />
		<tag k="highway" v="track" />
		<tag k="name" v="Thurmanns vei" />
		<tag k="ssr:stedsnr" v="544769" />
	</node>
	<node id="-222802" lat="59.7323638857" lon="10.2231999937">
		<tag k="man_made" v="quay" />
		<tag k="name" v="Krankaia" />
		<tag k="place" v="locality" />
		<tag k="ssr:stedsnr" v="540278" />
	</node>
	<node id="-221265" lat="59.7631305566" lon="10.1802444365">
		<tag k="fixme" v="consider highway=path" />
		<tag k="highway" v="track" />
		<tag k="name" v="Thorleif Haugs vei" />
		<tag k="ssr:stedsnr" v="59755" />
	</node>
	<node id="-222800" lat="59.7491833377" lon="9.98341943571">
		<tag k="bridge" v="yes" />
		<tag k="layer" v="1" />
		<tag k="name" v="Skalpe" />
		<tag k="ssr:stedsnr" v="532926" />
	</node>
	<node id="-222799" lat="59.752649998" lon="10.0002277761">
		<tag k="bridge" v="yes" />
		<tag k="layer" v="1" />
		<tag k="name" v="Verket" />
		<tag k="ssr:stedsnr" v="532922" />
	</node>
	<node id="-222798" lat="59.742938889" lon="10.0982666648">
		<tag k="bridge" v="yes" />
		<tag k="layer" v="1" />
		<tag k="name" v="Narverud" />
		<tag k="ssr:stedsnr" v="532919" />
	</node>
	<node id="-222788" lat="59.7420472214" lon="10.2067055566">
		<tag k="man_made" v="quay" />
		<tag k="name" v="Nedre Bragernes kai" />
		<tag k="place" v="locality" />
		<tag k="ssr:stedsnr" v="526918" />
	</node>
	<node id="-221250" lat="59.6155472235" lon="10.4051666744">
		<tag k="bridge" v="yes" />
		<tag k="layer" v="1" />
		<tag k="name" v="Svelvik syd mur" />
		<tag k="ssr:stedsnr" v="228636" />
	</node>
	<node id="-221249" lat="59.6878055591" lon="10.3488777837">
		<tag k="bridge" v="yes" />
		<tag k="layer" v="1" />
		<tag k="name" v="Rørvik mur" />
		<tag k="ssr:stedsnr" v="228633" />
	</node>
	<node id="-221248" lat="59.5834555596" lon="10.3913944469">
		<tag k="bridge" v="yes" />
		<tag k="layer" v="1" />
		<tag k="name" v="Auke" />
		<tag k="ssr:stedsnr" v="228631" />
	</node>
	<node id="-221245" lat="59.7493444446" lon="10.0682249991">
		<tag k="barrier" v="lift_gate" />
		<tag k="name" v="Dalerovergangen" />
		<tag k="place" v="locality" />
		<tag k="ssr:stedsnr" v="22929" />
	</node>
	<node id="-223263" lat="59.7173749443" lon="10.2065660104">
		<tag k="layer" v="-1" />
		<tag k="name" v="Drammenstunnelen" />
		<tag k="ssr:stedsnr" v="1076729" />
		<tag k="tunnel" v="yes" />
	</node>
	<node id="-222746" lat="59.7352194437" lon="10.2321277708">
		<tag k="man_made" v="quay" />
		<tag k="name" v="Holmen Øst-kaia" />
		<tag k="place" v="locality" />
		<tag k="ssr:stedsnr" v="419293" />
	</node>
	<node id="-222745" lat="59.7521472223" lon="10.0238722208">
		<tag k="bridge" v="yes" />
		<tag k="layer" v="1" />
		<tag k="name" v="Strandsonen" />
		<tag k="ssr:stedsnr" v="410946" />
	</node>
	<node id="-222744" lat="59.7521361139" lon="10.0252833251">
		<tag k="bridge" v="yes" />
		<tag k="layer" v="1" />
		<tag k="name" v="Mjøndalen VA-kulvert" />
		<tag k="ssr:stedsnr" v="410945" />
	</node>
	<node id="-222743" lat="59.7553444438" lon="10.0256611042">
		<tag k="bridge" v="yes" />
		<tag k="layer" v="1" />
		<tag k="name" v="Eiker nedre" />
		<tag k="ssr:stedsnr" v="410895" />
	</node>
	<node id="-222742" lat="59.7121388886" lon="10.1595111043">
		<tag k="bridge" v="yes" />
		<tag k="layer" v="1" />
		<tag k="name" v="Verkselva" />
		<tag k="ssr:stedsnr" v="410839" />
	</node>
	<node id="-222741" lat="59.7377250003" lon="10.1877361169">
		<tag k="bridge" v="yes" />
		<tag k="layer" v="1" />
		<tag k="name" v="Konnerudgata" />
		<tag k="ssr:stedsnr" v="410201" />
	</node>
	<node id="-221710" lat="59.7403583294" lon="10.1485027743">
		<tag k="fixme" v="consider highway=path" />
		<tag k="highway" v="track" />
		<tag k="name" v="Rødtråkket" />
		<tag k="ssr:stedsnr" v="665857" />
	</node>
	<node id="-222210" lat="59.7595489694" lon="9.96170356056">
		<tag k="name" v="Steinberg stasjon" />
		<tag k="railway" v="station" />
		<tag k="ssr:stedsnr" v="985137" />
		<tag k="train" v="yes" />
	</node>
</osm>
