<?xml version="1.0" encoding="UTF-8"?>
<osm version="0.6" generator="osmapis">
	<node lat="59.63676389068735" lon="10.347577785763097" id="-11941">
		<tag k="alt_name" v="Røde-Kors hytta" />
		<tag k="name" v="Røde kors-hytta" />
		<tag k="place" v="isolated_dwelling" />
		<tag k="ssr:stedsnr" v="3640" />
	</node>
	<node lat="59.72787777790675" lon="10.095838883222392" id="-11943">
		<tag k="name" v="Stubberud" />
		<tag k="place" v="farm" />
		<tag k="ssr:stedsnr" v="22507" />
	</node>
	<node lat="59.72522778081675" lon="10.09389444134995" id="-11944">
		<tag k="name" v="Damstua" />
		<tag k="place" v="farm" />
		<tag k="ssr:stedsnr" v="22510" />
	</node>
	<node lat="59.781430558737824" lon="10.144624995300658" id="-11946">
		<tag k="name" v="Åsro" />
		<tag k="place" v="farm" />
		<tag k="ssr:stedsnr" v="22718" />
	</node>
	<node lat="59.78267500010469" lon="10.143066671718625" id="-11947">
		<tag k="name" v="Furubakken" />
		<tag k="place" v="farm" />
		<tag k="ssr:stedsnr" v="22720" />
	</node>
	<node lat="59.73565277769027" lon="10.02435555066027" id="-11949">
		<tag k="name" v="Pilterud" />
		<tag k="place" v="farm" />
		<tag k="ssr:stedsnr" v="24932" />
	</node>
	<node lat="59.729352773553295" lon="10.224602786411278" id="-11951">
		<tag k="name" v="Rundtom" />
		<tag k="place" v="suburb" />
		<tag k="ssr:stedsnr" v="26411" />
	</node>
	<node lat="59.69779722346766" lon="10.250972214418226" id="-11953">
		<tag k="name" v="Eikbakken" />
		<tag k="place" v="isolated_dwelling" />
		<tag k="ssr:stedsnr" v="39201" />
	</node>
	<node lat="59.69025000395361" lon="10.267177784714603" id="-11954">
		<tag k="name" v="Lindum" />
		<tag k="place" v="farm" />
		<tag k="ssr:stedsnr" v="39203" />
	</node>
	<node lat="59.69801110693928" lon="10.242683341879347" id="-11955">
		<tag k="name" v="Bekkely" />
		<tag k="place" v="isolated_dwelling" />
		<tag k="ssr:stedsnr" v="39210" />
	</node>
	<node lat="59.7010944421821" lon="10.230908327729868" id="-11956">
		<tag k="name" v="Vibo" />
		<tag k="place" v="isolated_dwelling" />
		<tag k="ssr:stedsnr" v="39213" />
	</node>
	<node lat="59.6973388933361" lon="10.168208326336407" id="-11957">
		<tag k="name" v="Solheim" />
		<tag k="place" v="farm" />
		<tag k="ssr:stedsnr" v="40584" />
	</node>
	<node lat="59.68338056006757" lon="10.12829443932727" id="-11958">
		<tag k="name" v="Hemsedal" />
		<tag k="place" v="isolated_dwelling" />
		<tag k="ssr:stedsnr" v="40706" />
	</node>
	<node lat="59.6881666673454" lon="10.12115555335415" id="-11959">
		<tag k="name" v="Åsstuen" />
		<tag k="place" v="isolated_dwelling" />
		<tag k="ssr:stedsnr" v="40723" />
	</node>
	<node lat="59.686075001756265" lon="10.125294437467554" id="-11962">
		<tag k="name" v="Andorsrud" />
		<tag k="place" v="hamlet" />
		<tag k="ssr:stedsnr" v="40685" />
	</node>
	<node lat="59.688113885923734" lon="10.133638881052226" id="-11963">
		<tag k="name" v="Vestre Åserud" />
		<tag k="place" v="farm" />
		<tag k="ssr:stedsnr" v="40687" />
	</node>
	<node lat="59.742963889732536" lon="10.235613880458388" id="-11964">
		<tag k="name" v="Brakerøya" />
		<tag k="place" v="quarter" />
		<tag k="ssr:stedsnr" v="40920" />
	</node>
	<node lat="59.73358055487532" lon="10.20252222552504" id="-11965">
		<tag k="amenity" v="school" />
		<tag k="name" v="Marienlyst ungdomsskole" />
		<tag k="ssr:stedsnr" v="41007" />
	</node>
	<node lat="59.67468611469729" lon="10.25987778523318" id="-11967">
		<tag k="name" v="Berghall" />
		<tag k="place" v="isolated_dwelling" />
		<tag k="ssr:stedsnr" v="42709" />
	</node>
	<node lat="59.70197499560708" lon="10.152822222463247" id="-11968">
		<tag k="name" v="Lorentzplassen" />
		<tag k="place" v="farm" />
		<tag k="ssr:stedsnr" v="239317" />
	</node>
	<node lat="59.70319722109894" lon="10.166741671926637" id="-11970">
		<tag k="name" v="Fjærehytta" />
		<tag k="place" v="isolated_dwelling" />
		<tag k="ssr:stedsnr" v="239319" />
	</node>
	<node lat="59.75097778155501" lon="10.208199997378138" id="-11971">
		<tag k="name" v="Sankevollen" />
		<tag k="place" v="locality" />
		<tag k="ssr:stedsnr" v="239425" />
	</node>
	<node lat="59.54486389121489" lon="10.371805554688175" id="-11975">
		<tag k="name" v="Torbjørnhaugen" />
		<tag k="place" v="quarter" />
		<tag k="ssr:stedsnr" v="240873" />
	</node>
	<node lat="59.69748610861001" lon="10.163647229088683" id="-11977">
		<tag k="name" v="Svingen" />
		<tag k="place" v="hamlet" />
		<tag k="ssr:stedsnr" v="63217" />
	</node>
	<node lat="59.6997570310383" lon="10.23958723549988" id="-11978">
		<tag k="fixme" v="consider place=hamlet" />
		<tag k="name" v="Gunnerud" />
		<tag k="place" v="farm" />
		<tag k="ssr:stedsnr" v="63221" />
	</node>
	<node lat="59.7439471682513" lon="10.002914537032495" id="-11979">
		<tag k="name" v="Vika" />
		<tag k="place" v="hamlet" />
		<tag k="ssr:stedsnr" v="63370" />
	</node>
	<node lat="59.75115555368784" lon="10.137766668106034" id="-11982">
		<tag k="name" v="Myre" />
		<tag k="old_name" v="Myra" />
		<tag k="place" v="farm" />
		<tag k="ssr:stedsnr" v="64078" />
	</node>
	<node lat="59.6748833290401" lon="10.27855833844569" id="-11984">
		<tag k="name" v="Knutestulen" />
		<tag k="place" v="isolated_dwelling" />
		<tag k="ssr:stedsnr" v="64211" />
	</node>
	<node lat="59.7844499985662" lon="10.138124997071209" id="-11989">
		<tag k="name" v="Steinkjerringa" />
		<tag k="place" v="isolated_dwelling" />
		<tag k="ssr:stedsnr" v="65122" />
	</node>
	<node lat="59.75488055165873" lon="10.19287499544908" id="-11993">
		<tag k="leisure" v="pitch" />
		<tag k="name" v="Jøssingkollen" />
		<tag k="ssr:stedsnr" v="241751" />
	</node>
	<node lat="59.73090000176122" lon="10.105230562918917" id="-11996">
		<tag k="name" v="Solbo" />
		<tag k="place" v="farm" />
		<tag k="ssr:stedsnr" v="83503" />
	</node>
	<node lat="59.72628055373265" lon="10.126502785694923" id="-11998">
		<tag k="building" v="industrial" />
		<tag k="industrial" v="factory" />
		<tag k="name" v="TEPA" />
		<tag k="ssr:stedsnr" v="83507" />
	</node>
	<node lat="59.75079444520197" lon="9.974744437259691" id="-11999">
		<tag k="name" v="Nedberg" />
		<tag k="place" v="farm" />
		<tag k="ssr:stedsnr" v="83481" />
	</node>
	<node lat="59.69908888636417" lon="10.150316660167526" id="-12005">
		<tag k="alt_name" v="Halden" />
		<tag k="name" v="Hallen" />
		<tag k="place" v="farm" />
		<tag k="ssr:stedsnr" v="245199" />
	</node>
	<node lat="59.695925002250924" lon="10.165488894688979" id="-12006">
		<tag k="amenity" v="school" />
		<tag k="name" v="Vestbygda skole" />
		<tag k="ssr:stedsnr" v="245200" />
	</node>
	<node lat="59.69655000328623" lon="10.246441667456022" id="-12008">
		<tag k="name" v="Nedre Eik" />
		<tag k="place" v="farm" />
		<tag k="ssr:stedsnr" v="245206" />
	</node>
	<node lat="59.75173740237977" lon="9.985697209163678" id="-12013">
		<tag k="fixme" v="consider place=hamlet" />
		<tag k="name" v="Grav" />
		<tag k="place" v="farm" />
		<tag k="ssr:stedsnr" v="246070" />
	</node>
	<node lat="59.70085955157482" lon="10.286058023157166" id="-12015">
		<tag k="alt_name" v="Gårdbu" />
		<tag k="fixme" v="consider place=hamlet" />
		<tag k="name" v="Gorbu" />
		<tag k="place" v="farm" />
		<tag k="ssr:stedsnr" v="246291" />
	</node>
	<node lat="59.764005554829986" lon="10.022249999051" id="-12016">
		<tag k="name" v="Bjørkedokk" />
		<tag k="place" v="farm" />
		<tag k="ssr:stedsnr" v="246185" />
	</node>
	<node lat="59.76278055306101" lon="10.069600008265821" id="-12017">
		<tag k="name" v="Bjørhus" />
		<tag k="place" v="farm" />
		<tag k="ssr:stedsnr" v="246186" />
	</node>
	<node lat="59.68493934066261" lon="10.338082706728557" id="-12018">
		<tag k="fixme" v="consider place=hamlet" />
		<tag k="name" v="Nøsterud" />
		<tag k="place" v="farm" />
		<tag k="ssr:stedsnr" v="246234" />
	</node>
	<node lat="59.682993124162564" lon="10.191731973731365" id="-12019">
		<tag k="name" v="Holmen" />
		<tag k="place" v="hamlet" />
		<tag k="ssr:stedsnr" v="246243" />
	</node>
	<node lat="59.725035112388284" lon="10.106212566955527" id="-12020">
		<tag k="fixme" v="consider place=hamlet" />
		<tag k="name" v="Grinderud" />
		<tag k="place" v="farm" />
		<tag k="ssr:stedsnr" v="246245" />
	</node>
	<node lat="59.72930555719271" lon="10.031700008194496" id="-12021">
		<tag k="name" v="Haugen" />
		<tag k="place" v="farm" />
		<tag k="ssr:stedsnr" v="246250" />
	</node>
	<node lat="59.56252867745035" lon="10.391604264915072" id="-12023">
		<tag k="alt_name" v="Høyen søndre" />
		<tag k="fixme" v="consider place=hamlet" />
		<tag k="name" v="Søndre Høyen" />
		<tag k="place" v="farm" />
		<tag k="ssr:stedsnr" v="246665" />
	</node>
	<node lat="59.65859992024065" lon="10.370862435111635" id="-12027">
		<tag k="alt_name" v="Furru" />
		<tag k="fixme" v="consider place=hamlet" />
		<tag k="name" v="Furu" />
		<tag k="place" v="farm" />
		<tag k="ssr:stedsnr" v="247859" />
	</node>
	<node lat="59.69150833335121" lon="10.25322499299823" id="-12028">
		<tag k="name" v="Gundstad" />
		<tag k="place" v="isolated_dwelling" />
		<tag k="ssr:stedsnr" v="100266" />
	</node>
	<node lat="59.68815833086423" lon="10.220752768842035" id="-12029">
		<tag k="name" v="Sollia" />
		<tag k="place" v="isolated_dwelling" />
		<tag k="ssr:stedsnr" v="100272" />
	</node>
	<node lat="59.68374722138572" lon="10.209261108531315" id="-12030">
		<tag k="name" v="Holt" />
		<tag k="place" v="farm" />
		<tag k="ssr:stedsnr" v="100273" />
	</node>
	<node lat="59.71523333735601" lon="10.12451389498598" id="-12031">
		<tag k="name" v="Bergheim" />
		<tag k="place" v="isolated_dwelling" />
		<tag k="ssr:stedsnr" v="100320" />
	</node>
	<node lat="59.69586110803863" lon="10.20458056213807" id="-12033">
		<tag k="name" v="Mælen" />
		<tag k="place" v="farm" />
		<tag k="ssr:stedsnr" v="101585" />
	</node>
	<node lat="59.687597220368986" lon="10.123675006608988" id="-12034">
		<tag k="leisure" v="pitch" />
		<tag k="name" v="Andorsrudbakken" />
		<tag k="ssr:stedsnr" v="101666" />
	</node>
	<node lat="59.70695833190156" lon="10.237752773258617" id="-12036">
		<tag k="name" v="Veslehøyda" />
		<tag k="place" v="isolated_dwelling" />
		<tag k="ssr:stedsnr" v="102023" />
	</node>
	<node lat="59.790791663605695" lon="10.15876945274521" id="-12037">
		<tag k="name" v="Fjellheimen" />
		<tag k="place" v="isolated_dwelling" />
		<tag k="ssr:stedsnr" v="102209" />
	</node>
	<node lat="59.76932221822398" lon="10.152524998951208" id="-12038">
		<tag k="name" v="Fjellheim" />
		<tag k="place" v="isolated_dwelling" />
		<tag k="ssr:stedsnr" v="102215" />
	</node>
	<node lat="59.67957500236492" lon="10.064891660234437" id="-12040">
		<tag k="name" v="Rønnebuvillaen" />
		<tag k="place" v="isolated_dwelling" />
		<tag k="ssr:stedsnr" v="103793" />
	</node>
	<node lat="59.74612499777134" lon="10.196619444102874" id="-12041">
		<tag k="leisure" v="park" />
		<tag k="name" v="Parken" />
		<tag k="ssr:stedsnr" v="103825" />
	</node>
	<node lat="59.714816667291565" lon="10.155733338107925" id="-12044">
		<tag k="name" v="Klemmetsrud" />
		<tag k="place" v="farm" />
		<tag k="ssr:stedsnr" v="118406" />
	</node>
	<node lat="59.685855552734616" lon="10.079900005456617" id="-12050">
		<tag k="name" v="Heia" />
		<tag k="place" v="isolated_dwelling" />
		<tag k="ssr:stedsnr" v="124167" />
	</node>
	<node lat="59.69095555533452" lon="10.233816674002155" id="-12051">
		<tag k="name" v="Øvre Gulliksrud" />
		<tag k="place" v="farm" />
		<tag k="ssr:stedsnr" v="124170" />
	</node>
	<node lat="59.69467500259938" lon="10.301438885323442" id="-12053">
		<tag k="alt_name" v="Kollfuru" />
		<tag k="name" v="Kolfuru" />
		<tag k="place" v="farm" />
		<tag k="ssr:stedsnr" v="124183" />
	</node>
	<node lat="59.75315277433482" lon="10.063800001928776" id="-12060">
		<tag k="name" v="Stryken" />
		<tag k="place" v="farm" />
		<tag k="ssr:stedsnr" v="125075" />
	</node>
	<node lat="59.75160000026465" lon="9.960927778550948" id="-12063">
		<tag k="name" v="Nedberg" />
		<tag k="place" v="farm" />
		<tag k="ssr:stedsnr" v="125599" />
	</node>
	<node lat="59.73048888880584" lon="10.150700003442983" id="-12065">
		<tag k="name" v="Lønnerud" />
		<tag k="place" v="isolated_dwelling" />
		<tag k="ssr:stedsnr" v="306240" />
	</node>
	<node lat="59.728604157448984" lon="10.120695507298862" id="-12068">
		<tag k="fixme" v="consider place=hamlet" />
		<tag k="name" v="Eskerud" />
		<tag k="place" v="farm" />
		<tag k="ssr:stedsnr" v="143515" />
	</node>
	<node lat="59.73326666511459" lon="10.1241666586257" id="-12070">
		<tag k="name" v="Helnora" />
		<tag k="place" v="farm" />
		<tag k="ssr:stedsnr" v="143532" />
	</node>
	<node lat="59.72937159749586" lon="10.124806567141619" id="-12071">
		<tag k="fixme" v="consider place=hamlet" />
		<tag k="name" v="Konnerud" />
		<tag k="place" v="farm" />
		<tag k="ssr:stedsnr" v="143538" />
	</node>
	<node lat="59.72494444467169" lon="10.140888894105041" id="-12072">
		<tag k="name" v="Torrudbråten" />
		<tag k="place" v="farm" />
		<tag k="ssr:stedsnr" v="143547" />
	</node>
	<node lat="59.75214444039212" lon="10.12496944680085" id="-12073">
		<tag k="name" v="Berskog" />
		<tag k="place" v="farm" />
		<tag k="ssr:stedsnr" v="143585" />
	</node>
	<node lat="59.75044722353967" lon="10.101816669039625" id="-12074">
		<tag k="name" v="Steinsmyra" />
		<tag k="place" v="farm" />
		<tag k="ssr:stedsnr" v="143596" />
	</node>
	<node lat="59.751644601006035" lon="10.083022162181798" id="-12075">
		<tag k="name" v="Daler" />
		<tag k="place" v="hamlet" />
		<tag k="ssr:stedsnr" v="143903" />
	</node>
	<node lat="59.76962499833003" lon="9.989713896006554" id="-12076">
		<tag k="name" v="Fabrikkroken" />
		<tag k="place" v="farm" />
		<tag k="ssr:stedsnr" v="143906" />
	</node>
	<node lat="59.60215277596395" lon="10.40407499829357" id="-12083">
		<tag k="name" v="Knem" />
		<tag k="place" v="farm" />
		<tag k="ssr:stedsnr" v="149354" />
	</node>
	<node lat="59.654005085164265" lon="10.374450185279862" id="-12086">
		<tag k="alt_name" v="Girud" />
		<tag k="fixme" v="consider place=hamlet" />
		<tag k="name" v="Gjerrud" />
		<tag k="place" v="farm" />
		<tag k="ssr:stedsnr" v="149362" />
	</node>
	<node lat="59.69239166887972" lon="10.15490833023727" id="-12090">
		<tag k="name" v="Søndre Imjelt" />
		<tag k="place" v="farm" />
		<tag k="ssr:stedsnr" v="161549" />
	</node>
	<node lat="59.7331638868822" lon="10.205886106603153" id="-12096">
		<tag k="alt_name" v="Strømsø sykehjem" />
		<tag k="amenity" v="nursing_home" />
		<tag k="name" v="Strømsø bo- og servicesenter" />
		<tag k="ssr:stedsnr" v="162622" />
	</node>
	<node lat="59.80125278220814" lon="10.131186117272925" id="-12098">
		<tag k="name" v="Tjuvtjernsheia" />
		<tag k="place" v="isolated_dwelling" />
		<tag k="ssr:stedsnr" v="163025" />
	</node>
	<node lat="59.66635555889382" lon="10.223244437162002" id="-12101">
		<tag k="name" v="Bekkheim" />
		<tag k="place" v="isolated_dwelling" />
		<tag k="ssr:stedsnr" v="163669" />
	</node>
	<node lat="59.67105000219717" lon="10.239980555803008" id="-12103">
		<tag k="name" v="Nedre Unnelsrud" />
		<tag k="place" v="farm" />
		<tag k="ssr:stedsnr" v="163681" />
	</node>
	<node lat="59.722636113812335" lon="10.153122219194206" id="-12105">
		<tag k="name" v="Fredholt" />
		<tag k="place" v="locality" />
		<tag k="ssr:stedsnr" v="178428" />
	</node>
	<node lat="59.705608331501416" lon="10.238841664465975" id="-12107">
		<tag k="name" v="Åsheim" />
		<tag k="place" v="isolated_dwelling" />
		<tag k="ssr:stedsnr" v="178435" />
	</node>
	<node lat="59.75123055742957" lon="10.128161117124622" id="-12109">
		<tag k="name" v="Berskog" />
		<tag k="place" v="farm" />
		<tag k="ssr:stedsnr" v="180221" />
	</node>
	<node lat="59.55051944499683" lon="10.38924721662036" id="-12111">
		<tag k="name" v="Bergeråsen" />
		<tag k="place" v="quarter" />
		<tag k="ssr:stedsnr" v="180861" />
	</node>
	<node lat="59.682640417984054" lon="10.235035278583068" id="-12114">
		<tag k="fixme" v="consider place=hamlet" />
		<tag k="name" v="Gunnarsrud" />
		<tag k="place" v="farm" />
		<tag k="ssr:stedsnr" v="185231" />
	</node>
	<node lat="59.62937499664729" lon="10.406172227588952" id="-12115">
		<tag k="name" v="Rørvik" />
		<tag k="place" v="isolated_dwelling" />
		<tag k="ssr:stedsnr" v="185639" />
	</node>
	<node lat="59.77642500350816" lon="10.148341668401523" id="-12117">
		<tag k="name" v="Runebo" />
		<tag k="place" v="farm" />
		<tag k="ssr:stedsnr" v="265764" />
	</node>
	<node lat="59.76597562174982" lon="9.969388269895783" id="-12118">
		<tag k="fixme" v="consider place=hamlet" />
		<tag k="name" v="Korshorgen" />
		<tag k="place" v="farm" />
		<tag k="ssr:stedsnr" v="265766" />
	</node>
	<node lat="59.757655553138264" lon="10.11856667428222" id="-12121">
		<tag k="amenity" v="school" />
		<tag k="name" v="Drammen tekniske fagskole" />
		<tag k="ssr:stedsnr" v="265633" />
	</node>
	<node lat="59.735091666858644" lon="10.125888896447709" id="-12122">
		<tag k="name" v="Myra" />
		<tag k="place" v="farm" />
		<tag k="ssr:stedsnr" v="265546" />
	</node>
	<node lat="59.74331388722428" lon="10.086172215743316" id="-12126">
		<tag k="name" v="Brattli" />
		<tag k="place" v="farm" />
		<tag k="ssr:stedsnr" v="204541" />
	</node>
	<node lat="59.727577776750444" lon="10.20081389086336" id="-12128">
		<tag k="name" v="Berskau" />
		<tag k="place" v="quarter" />
		<tag k="ssr:stedsnr" v="204552" />
	</node>
	<node lat="59.729566662669065" lon="10.115950008292627" id="-12130">
		<tag k="name" v="Kikut" />
		<tag k="place" v="farm" />
		<tag k="ssr:stedsnr" v="204457" />
	</node>
	<node lat="59.78246111554974" lon="10.14429721829918" id="-12133">
		<tag k="name" v="Skauro" />
		<tag k="place" v="farm" />
		<tag k="ssr:stedsnr" v="204701" />
	</node>
	<node lat="59.767119441930625" lon="9.97457222394402" id="-12134">
		<tag k="name" v="Sollien" />
		<tag k="place" v="isolated_dwelling" />
		<tag k="ssr:stedsnr" v="205750" />
	</node>
	<node lat="59.68241944299558" lon="10.334675008158742" id="-12138">
		<tag k="name" v="Nøsterud" />
		<tag k="place" v="farm" />
		<tag k="ssr:stedsnr" v="210386" />
	</node>
	<node lat="59.689794442642096" lon="10.226194438622631" id="-12141">
		<tag k="name" v="Ingvaldsåsen" />
		<tag k="place" v="farm" />
		<tag k="ssr:stedsnr" v="222275" />
	</node>
	<node lat="59.68826666526435" lon="10.221502776353523" id="-12142">
		<tag k="name" v="Furulund" />
		<tag k="place" v="isolated_dwelling" />
		<tag k="ssr:stedsnr" v="222287" />
	</node>
	<node lat="59.68844166669933" lon="10.222202779596039" id="-12143">
		<tag k="name" v="Bergtun" />
		<tag k="place" v="isolated_dwelling" />
		<tag k="ssr:stedsnr" v="222288" />
	</node>
	<node lat="59.744450001517166" lon="10.22646943778327" id="-12146">
		<tag k="name" v="Fjellheim" />
		<tag k="place" v="isolated_dwelling" />
		<tag k="ssr:stedsnr" v="222884" />
	</node>
	<node lat="59.74549166688164" lon="10.229391668729674" id="-12147">
		<tag k="amenity" v="school" />
		<tag k="name" v="Fjellheim skole" />
		<tag k="ssr:stedsnr" v="222890" />
	</node>
	<node lat="59.73989444634878" lon="10.202427769347361" id="-12148">
		<tag k="name" v="Strømsø torg" />
		<tag k="place" v="square" />
		<tag k="ssr:stedsnr" v="223629" />
	</node>
	<node lat="59.814200001479236" lon="10.1006361178895" id="-12150">
		<tag k="name" v="Harastua" />
		<tag k="place" v="isolated_dwelling" />
		<tag k="ssr:stedsnr" v="224045" />
	</node>
	<node lat="59.67442222486114" lon="10.175844443664404" id="-12157">
		<tag k="name" v="Kyterud" />
		<tag k="place" v="locality" />
		<tag k="ssr:stedsnr" v="224693" />
	</node>
	<node lat="59.69226388557378" lon="10.310902785408466" id="-12163">
		<tag k="name" v="Lindebukt" />
		<tag k="place" v="isolated_dwelling" />
		<tag k="ssr:stedsnr" v="449657" />
	</node>
	<node lat="59.73191388932638" lon="10.009372219035978" id="-12166">
		<tag k="name" v="Åslund" />
		<tag k="place" v="farm" />
		<tag k="ssr:stedsnr" v="449900" />
	</node>
	<node lat="59.70609722569127" lon="10.23841389549146" id="-12171">
		<tag k="name" v="Holmen" />
		<tag k="place" v="isolated_dwelling" />
		<tag k="ssr:stedsnr" v="239436" />
	</node>
	<node lat="59.70785555632021" lon="10.251916667699279" id="-12172">
		<tag k="name" v="Store Solum" />
		<tag k="place" v="farm" />
		<tag k="ssr:stedsnr" v="239437" />
	</node>
	<node lat="59.68573889238537" lon="10.341733336477303" id="-12173">
		<tag k="name" v="Labråten" />
		<tag k="place" v="quarter" />
		<tag k="ssr:stedsnr" v="240880" />
	</node>
	<node lat="59.743675001298115" lon="10.211158332646823" id="-12177">
		<tag k="name" v="Tinghusplassen" />
		<tag k="place" v="square" />
		<tag k="ssr:stedsnr" v="241821" />
	</node>
	<node lat="59.757469442985354" lon="10.170663881246595" id="-12181">
		<tag k="leisure" v="pitch" />
		<tag k="name" v="Ørenkollen" />
		<tag k="ssr:stedsnr" v="241790" />
	</node>
	<node lat="59.75917777459937" lon="10.184322229469164" id="-12182">
		<tag k="leisure" v="pitch" />
		<tag k="name" v="Sturla" />
		<tag k="ssr:stedsnr" v="241793" />
	</node>
	<node lat="59.676447571002235" lon="10.232180732738126" id="-12191">
		<tag k="name" v="Unnelsrud" />
		<tag k="place" v="hamlet" />
		<tag k="ssr:stedsnr" v="246224" />
	</node>
	<node lat="59.669708337329304" lon="10.21565556370687" id="-12192">
		<tag k="name" v="Valsbekk" />
		<tag k="place" v="farm" />
		<tag k="ssr:stedsnr" v="246229" />
	</node>
	<node lat="59.666811112962264" lon="10.218911108502356" id="-12193">
		<tag k="name" v="Bjørnerud" />
		<tag k="place" v="farm" />
		<tag k="ssr:stedsnr" v="246230" />
	</node>
	<node lat="59.717599995758526" lon="10.015550004172226" id="-12194">
		<tag k="name" v="Bråtaseter" />
		<tag k="place" v="isolated_dwelling" />
		<tag k="ssr:stedsnr" v="246264" />
	</node>
	<node lat="59.72649722023193" lon="10.13979444140593" id="-12195">
		<tag k="name" v="Brekke" />
		<tag k="place" v="farm" />
		<tag k="ssr:stedsnr" v="246283" />
	</node>
	<node lat="59.79228333272443" lon="10.019911105484002" id="-12196">
		<tag k="historic" v="shieling" />
		<tag k="name" v="Eknessetra" />
		<tag k="place" v="isolated_dwelling" />
		<tag k="ssr:stedsnr" v="247132" />
	</node>
	<node lat="59.55724444570977" lon="10.386066675327813" id="-12201">
		<tag k="name" v="Lærum" />
		<tag k="place" v="farm" />
		<tag k="ssr:stedsnr" v="453349" />
	</node>
	<node lat="59.725822220182785" lon="10.106016662039226" id="-12204">
		<tag k="name" v="Ellingsrud" />
		<tag k="place" v="farm" />
		<tag k="ssr:stedsnr" v="265529" />
	</node>
	<node lat="59.75860277435436" lon="9.947872226876505" id="-12205">
		<tag k="alt_name" v="Temtemoen øvre" />
		<tag k="name" v="Øvre Temtemoen" />
		<tag k="place" v="farm" />
		<tag k="ssr:stedsnr" v="265537" />
	</node>
	<node lat="59.76323333501374" lon="10.107033331584567" id="-12207">
		<tag k="name" v="Vinnesbråtan" />
		<tag k="place" v="farm" />
		<tag k="ssr:stedsnr" v="265616" />
	</node>
	<node lat="59.762611111028434" lon="10.124297217460633" id="-12208">
		<tag k="aerialway" v="drag_lift" />
		<tag k="fixme" v="consider the other aerialway types" />
		<tag k="name" v="Drammen turheis" />
		<tag k="ssr:stedsnr" v="265650" />
	</node>
	<node lat="59.71423611089747" lon="10.255266662692486" id="-12212">
		<tag k="name" v="Åskollen" />
		<tag k="place" v="quarter" />
		<tag k="ssr:stedsnr" v="269404" />
	</node>
	<node lat="59.685891669419675" lon="10.334544436469121" id="-12214">
		<tag k="name" v="Bjerkely" />
		<tag k="place" v="farm" />
		<tag k="ssr:stedsnr" v="271422" />
	</node>
	<node lat="59.68848888693969" lon="10.222808337487464" id="-12216">
		<tag k="name" v="Granheim" />
		<tag k="place" v="isolated_dwelling" />
		<tag k="ssr:stedsnr" v="282267" />
	</node>
	<node lat="59.71548888971414" lon="10.135366668954166" id="-12217">
		<tag k="name" v="Fagertun" />
		<tag k="place" v="isolated_dwelling" />
		<tag k="ssr:stedsnr" v="282309" />
	</node>
	<node lat="59.69152221957767" lon="10.14244166197595" id="-12221">
		<tag k="name" v="Skogly" />
		<tag k="place" v="farm" />
		<tag k="ssr:stedsnr" v="283671" />
	</node>
	<node lat="59.73510277334305" lon="10.193130555763068" id="-12224">
		<tag k="amenity" v="school" />
		<tag k="name" v="Danvik skole" />
		<tag k="ssr:stedsnr" v="284010" />
	</node>
	<node lat="59.792433336855" lon="10.154836107865135" id="-12227">
		<tag k="name" v="Leiken" />
		<tag k="place" v="isolated_dwelling" />
		<tag k="ssr:stedsnr" v="284187" />
	</node>
	<node lat="59.73671666728979" lon="10.208219441632105" id="-12228">
		<tag k="amenity" v="school" />
		<tag k="name" v="Drammen videregående skole, Strømsø" />
		<tag k="ssr:stedsnr" v="284594" />
	</node>
	<node lat="59.729283337528365" lon="10.14054722202608" id="-12233">
		<tag k="name" v="Lønnerud" />
		<tag k="place" v="quarter" />
		<tag k="ssr:stedsnr" v="301825" />
	</node>
	<node lat="59.75023333699991" lon="10.20411666774949" id="-12234">
		<tag k="amenity" v="cafe" />
		<tag k="name" v="Åspaviljongen" />
		<tag k="ssr:stedsnr" v="301773" />
	</node>
	<node lat="59.75054721986093" lon="10.176455547526503" id="-12235">
		<tag k="name" v="Hotvet" />
		<tag k="place" v="quarter" />
		<tag k="ssr:stedsnr" v="301774" />
	</node>
	<node lat="59.738627781011694" lon="10.19636945325618" id="-12236">
		<tag k="name" v="Karl Gundersens plass" />
		<tag k="place" v="square" />
		<tag k="ssr:stedsnr" v="301794" />
	</node>
	<node lat="59.67748811253934" lon="10.259057440027016" id="-12239">
		<tag k="fixme" v="consider place=hamlet" />
		<tag k="name" v="Fjøset" />
		<tag k="place" v="farm" />
		<tag k="ssr:stedsnr" v="306209" />
	</node>
	<node lat="59.683445057886324" lon="10.340869954336952" id="-12240">
		<tag k="fixme" v="consider place=hamlet" />
		<tag k="name" v="Helgerud" />
		<tag k="place" v="farm" />
		<tag k="ssr:stedsnr" v="306219" />
	</node>
	<node lat="59.68423141084225" lon="10.168755715884851" id="-12242">
		<tag k="name" v="Borge" />
		<tag k="place" v="hamlet" />
		<tag k="ssr:stedsnr" v="306222" />
	</node>
	<node lat="59.7507472253494" lon="10.02476667047256" id="-12243">
		<tag k="name" v="Mjøndalen" />
		<tag k="place" v="village" />
		<tag k="ssr:stedsnr" v="306356" />
	</node>
	<node lat="59.59001613459866" lon="10.38776221411598" id="-12244">
		<tag k="fixme" v="consider place=hamlet" />
		<tag k="name" v="Myre" />
		<tag k="place" v="farm" />
		<tag k="ssr:stedsnr" v="306711" />
	</node>
	<node lat="59.68977777443019" lon="10.1218472280195" id="-12247">
		<tag k="name" v="Olsrud" />
		<tag k="place" v="isolated_dwelling" />
		<tag k="ssr:stedsnr" v="465680" />
	</node>
	<node lat="59.68360555630097" lon="10.137786106189429" id="-12248">
		<tag k="name" v="Nedre Furuvoll" />
		<tag k="place" v="farm" />
		<tag k="ssr:stedsnr" v="465692" />
	</node>
	<node lat="59.67823889203005" lon="10.264877773451625" id="-12249">
		<tag k="name" v="Skalpe" />
		<tag k="place" v="farm" />
		<tag k="ssr:stedsnr" v="465637" />
	</node>
	<node lat="59.79666111505393" lon="10.110305552936811" id="-12252">
		<tag k="name" v="Tiuren" />
		<tag k="place" v="isolated_dwelling" />
		<tag k="ssr:stedsnr" v="466035" />
	</node>
	<node lat="59.787974996790176" lon="10.167563890206736" id="-12253">
		<tag k="name" v="Fjellstup" />
		<tag k="place" v="isolated_dwelling" />
		<tag k="ssr:stedsnr" v="466138" />
	</node>
	<node lat="59.794466668211264" lon="10.134894446433558" id="-12254">
		<tag k="name" v="Juvstua" />
		<tag k="place" v="isolated_dwelling" />
		<tag k="ssr:stedsnr" v="466191" />
	</node>
	<node lat="59.66646666730402" lon="10.219111113266147" id="-12257">
		<tag k="name" v="Fredenhaug" />
		<tag k="place" v="isolated_dwelling" />
		<tag k="ssr:stedsnr" v="467700" />
	</node>
	<node lat="59.763744444490115" lon="9.96810833541466" id="-12258">
		<tag k="name" v="Holmen" />
		<tag k="place" v="farm" />
		<tag k="ssr:stedsnr" v="326525" />
	</node>
	<node lat="59.747300841553624" lon="9.984042116249702" id="-12261">
		<tag k="fixme" v="consider place=hamlet" />
		<tag k="name" v="Skalpe" />
		<tag k="place" v="farm" />
		<tag k="ssr:stedsnr" v="326804" />
	</node>
	<node lat="59.68090000128394" lon="10.357291668760285" id="-12262">
		<tag k="name" v="Steinbråten" />
		<tag k="place" v="farm" />
		<tag k="ssr:stedsnr" v="327658" />
	</node>
	<node lat="59.68510000160374" lon="10.353758334957574" id="-12266">
		<tag k="name" v="Bakken" />
		<tag k="place" v="isolated_dwelling" />
		<tag k="ssr:stedsnr" v="331365" />
	</node>
	<node lat="59.68380833687006" lon="10.251533338867638" id="-12268">
		<tag k="name" v="Moheim" />
		<tag k="place" v="isolated_dwelling" />
		<tag k="ssr:stedsnr" v="343266" />
	</node>
	<node lat="59.692883336319845" lon="10.151033327476254" id="-12269">
		<tag k="name" v="Imjelt" />
		<tag k="place" v="farm" />
		<tag k="ssr:stedsnr" v="343598" />
	</node>
	<node lat="59.73733055259994" lon="10.19893889355844" id="-12271">
		<tag k="amenity" v="school" />
		<tag k="name" v="Drammen videregående skole" />
		<tag k="ssr:stedsnr" v="344608" />
	</node>
	<node lat="59.676180554969996" lon="10.257641674304177" id="-12273">
		<tag k="name" v="Bakkehaug" />
		<tag k="place" v="farm" />
		<tag k="ssr:stedsnr" v="345716" />
	</node>
	<node lat="59.693726673810104" lon="10.234199245117962" id="-12277">
		<tag k="alt_name" v="Torrud" />
		<tag k="fixme" v="consider place=hamlet" />
		<tag k="name" v="Tolerud" />
		<tag k="place" v="farm" />
		<tag k="ssr:stedsnr" v="366212" />
	</node>
	<node lat="59.72994999738718" lon="9.985566660942265" id="-12278">
		<tag k="name" v="Portåsen" />
		<tag k="place" v="farm" />
		<tag k="ssr:stedsnr" v="367203" />
	</node>
	<node lat="59.72293611071276" lon="10.1998638930996" id="-12281">
		<tag k="leisure" v="pitch" />
		<tag k="name" v="Drafnkollen" />
		<tag k="ssr:stedsnr" v="367228" />
	</node>
	<node lat="59.67218332936133" lon="10.028738895408386" id="-12282">
		<tag k="name" v="Skulkerud" />
		<tag k="place" v="isolated_dwelling" />
		<tag k="ssr:stedsnr" v="367173" />
	</node>
	<node lat="59.61559114886981" lon="10.38679709696609" id="-12287">
		<tag k="fixme" v="consider place=hamlet" />
		<tag k="name" v="Ebbestad" />
		<tag k="place" v="farm" />
		<tag k="ssr:stedsnr" v="367631" />
	</node>
	<node lat="59.60031954261895" lon="10.398343134671554" id="-12288">
		<tag k="name" v="Knem" />
		<tag k="place" v="hamlet" />
		<tag k="ssr:stedsnr" v="367594" />
	</node>
	<node lat="59.70958610701259" lon="10.204097218564929" id="-12295">
		<tag k="name" v="Hellashytta" />
		<tag k="place" v="isolated_dwelling" />
		<tag k="ssr:stedsnr" v="482329" />
	</node>
	<node lat="59.62154722365979" lon="10.392091664007534" id="-12299">
		<tag k="name" v="Mariås" />
		<tag k="place" v="quarter" />
		<tag k="ssr:stedsnr" v="384952" />
	</node>
	<node lat="59.73460277864153" lon="10.094855553881013" id="-12300">
		<tag k="name" v="Toppen" />
		<tag k="place" v="isolated_dwelling" />
		<tag k="ssr:stedsnr" v="386551" />
	</node>
	<node lat="59.72849722029014" lon="10.08528888587628" id="-12302">
		<tag k="name" v="Solhaug" />
		<tag k="place" v="farm" />
		<tag k="ssr:stedsnr" v="386561" />
	</node>
	<node lat="59.75686389112057" lon="9.954108340524133" id="-12303">
		<tag k="alt_name" v="Skistad nedre" />
		<tag k="name" v="Nedre Skistad" />
		<tag k="place" v="farm" />
		<tag k="ssr:stedsnr" v="386498" />
	</node>
	<node lat="59.72675277666113" lon="10.102275005882108" id="-12304">
		<tag k="name" v="Huldrebo" />
		<tag k="place" v="farm" />
		<tag k="ssr:stedsnr" v="386501" />
	</node>
	<node lat="59.74616944334417" lon="10.101830551649519" id="-12305">
		<tag k="name" v="Nygård" />
		<tag k="place" v="farm" />
		<tag k="ssr:stedsnr" v="386598" />
	</node>
	<node lat="59.77177778129223" lon="10.166161110500928" id="-12308">
		<tag k="fixme" v="consider tourism=alpine_hut or tourism=chalet" />
		<tag k="name" v="Landfallhytta" />
		<tag k="ssr:stedsnr" v="387102" />
		<tag k="tourism" v="wilderness_hut" />
	</node>
	<node lat="59.68333611064895" lon="10.003391663895211" id="-12312">
		<tag k="name" v="Langtjernstua" />
		<tag k="place" v="isolated_dwelling" />
		<tag k="ssr:stedsnr" v="391149" />
	</node>
	<node lat="59.745497220237134" lon="10.193661104147527" id="-12321">
		<tag k="name" v="Elveplassen" />
		<tag k="place" v="square" />
		<tag k="ssr:stedsnr" v="483820" />
	</node>
	<node lat="59.74527222533933" lon="10.159488894596233" id="-12322">
		<tag k="amenity" v="school" />
		<tag k="name" v="Rødskog skole" />
		<tag k="ssr:stedsnr" v="483822" />
	</node>
	<node lat="59.54362778099879" lon="10.388538886142188" id="-12324">
		<tag k="name" v="Bryggeåsen" />
		<tag k="place" v="quarter" />
		<tag k="ssr:stedsnr" v="483894" />
	</node>
	<node lat="59.749327776664984" lon="10.21458334086428" id="-12328">
		<tag k="name" v="Frydenberg" />
		<tag k="place" v="quarter" />
		<tag k="ssr:stedsnr" v="483841" />
	</node>
	<node lat="59.69829166637314" lon="10.242461108500661" id="-12330">
		<tag k="name" v="Dalheim" />
		<tag k="place" v="isolated_dwelling" />
		<tag k="ssr:stedsnr" v="403246" />
	</node>
	<node lat="59.68809166823889" lon="10.222172230221396" id="-12332">
		<tag k="name" v="Solglimt" />
		<tag k="place" v="isolated_dwelling" />
		<tag k="ssr:stedsnr" v="403275" />
	</node>
	<node lat="59.683225002482445" lon="10.210397218146722" id="-12333">
		<tag k="name" v="Søndre Sten" />
		<tag k="place" v="farm" />
		<tag k="ssr:stedsnr" v="403278" />
	</node>
	<node lat="59.77245833279397" lon="10.160308332898351" id="-12339">
		<tag k="name" v="Fredheim" />
		<tag k="place" v="isolated_dwelling" />
		<tag k="ssr:stedsnr" v="405190" />
	</node>
	<node lat="59.73545555735827" lon="10.203711119914532" id="-12340">
		<tag k="amenity" v="sports_centre" />
		<tag k="name" v="Drammenshallen" />
		<tag k="ssr:stedsnr" v="406005" />
	</node>
	<node lat="59.708494445651546" lon="10.23653054694271" id="-12342">
		<tag k="name" v="Grønli" />
		<tag k="place" v="isolated_dwelling" />
		<tag k="ssr:stedsnr" v="406045" />
	</node>
	<node lat="59.70980555883046" lon="10.234836116729893" id="-12343">
		<tag k="name" v="Fagerli" />
		<tag k="place" v="isolated_dwelling" />
		<tag k="ssr:stedsnr" v="406051" />
	</node>
	<node lat="59.720744444603625" lon="10.229994449834784" id="-12344">
		<tag k="name" v="Garås" />
		<tag k="place" v="isolated_dwelling" />
		<tag k="ssr:stedsnr" v="406056" />
	</node>
	<node lat="59.67121388831968" lon="10.23673611560343" id="-12348">
		<tag k="name" v="Solheim" />
		<tag k="place" v="isolated_dwelling" />
		<tag k="ssr:stedsnr" v="406690" />
	</node>
	<node lat="59.66776111505989" lon="10.221927785942416" id="-12349">
		<tag k="name" v="Borgenhaug" />
		<tag k="place" v="farm" />
		<tag k="ssr:stedsnr" v="406697" />
	</node>
	<node lat="59.71438055862564" lon="10.140022226155997" id="-12357">
		<tag k="alt_name" v="Veimot" />
		<tag k="name" v="Vegmo" />
		<tag k="place" v="farm" />
		<tag k="ssr:stedsnr" v="549295" />
	</node>
	<node lat="59.68664814069516" lon="10.224834839946046" id="-12360">
		<tag k="fixme" v="consider place=hamlet" />
		<tag k="name" v="Ingulsåsen" />
		<tag k="place" v="farm" />
		<tag k="ssr:stedsnr" v="488171" />
	</node>
	<node lat="59.700850003913196" lon="10.156158338448094" id="-12361">
		<tag k="fixme" v="multiple name tags, choose one and add the other to alt_name" />
		<tag k="name" v="Hallerud;Solvang" />
		<tag k="place" v="farm" />
		<tag k="ssr:stedsnr" v="488175" />
	</node>
	<node lat="59.69759999636944" lon="10.208830560633135" id="-12362">
		<tag k="name" v="Hagan" />
		<tag k="place" v="farm" />
		<tag k="ssr:stedsnr" v="488180" />
	</node>
	<node lat="59.71525000275549" lon="10.06719166112366" id="-12363">
		<tag k="name" v="Riseplassen" />
		<tag k="place" v="locality" />
		<tag k="ssr:stedsnr" v="488258" />
	</node>
	<node lat="59.724199995811865" lon="10.119775005414386" id="-12366">
		<tag k="name" v="Fosserud" />
		<tag k="place" v="farm" />
		<tag k="ssr:stedsnr" v="488215" />
	</node>
	<node lat="59.73055042920393" lon="10.235696096518911" id="-12368">
		<tag k="name" v="Tangen" />
		<tag k="place" v="village" />
		<tag k="ssr:stedsnr" v="488225" />
	</node>
	<node lat="59.73611388609361" lon="10.032458336545142" id="-12370">
		<tag k="name" v="Hestemyra" />
		<tag k="place" v="farm" />
		<tag k="ssr:stedsnr" v="488341" />
	</node>
	<node lat="59.797349999696756" lon="10.042297217671612" id="-12378">
		<tag k="fixme" v="multiple name tags, choose one and add the other to alt_name" />
		<tag k="historic" v="shieling" />
		<tag k="name" v="Smedsetra;Smedvollen" />
		<tag k="place" v="isolated_dwelling" />
		<tag k="ssr:stedsnr" v="489281" />
	</node>
	<node lat="59.74115753362416" lon="9.994868151293097" id="-12379">
		<tag k="fixme" v="consider place=hamlet" />
		<tag k="name" v="Korsgården" />
		<tag k="place" v="farm" />
		<tag k="ssr:stedsnr" v="427383" />
	</node>
	<node lat="59.74873888831258" lon="10.078283340243866" id="-12380">
		<tag k="name" v="Daler" />
		<tag k="place" v="farm" />
		<tag k="ssr:stedsnr" v="427388" />
	</node>
	<node lat="59.75027043653632" lon="10.047810514373246" id="-12382">
		<tag k="name" v="Rygg" />
		<tag k="place" v="hamlet" />
		<tag k="ssr:stedsnr" v="428071" />
	</node>
	<node lat="59.63225677693236" lon="10.395314301555288" id="-12386">
		<tag k="fixme" v="consider place=hamlet" />
		<tag k="name" v="Juve" />
		<tag k="place" v="farm" />
		<tag k="ssr:stedsnr" v="428658" />
	</node>
	<node lat="59.584841957085" lon="10.385485707456741" id="-12389">
		<tag k="fixme" v="consider place=hamlet" />
		<tag k="name" v="Auke" />
		<tag k="place" v="farm" />
		<tag k="ssr:stedsnr" v="428721" />
	</node>
	<node lat="59.7492500018197" lon="10.107238895971845" id="-12392">
		<tag k="name" v="Bråtan" />
		<tag k="place" v="farm" />
		<tag k="ssr:stedsnr" v="447583" />
	</node>
	<node lat="59.745644534085166" lon="10.125839065605337" id="-12395">
		<tag k="name" v="Pukerud" />
		<tag k="place" v="quarter" />
		<tag k="ssr:stedsnr" v="447881" />
	</node>
	<node lat="59.753533335405216" lon="10.118025006898911" id="-12396">
		<tag k="name" v="Haugen" />
		<tag k="place" v="farm" />
		<tag k="ssr:stedsnr" v="447886" />
	</node>
	<node lat="59.756733415428435" lon="10.031461430408427" id="-12398">
		<tag k="name" v="Steinset" />
		<tag k="place" v="quarter" />
		<tag k="ssr:stedsnr" v="671178" />
	</node>
	<node lat="59.65604166722795" lon="10.383761102597735" id="-12402">
		<tag k="name" v="Håkenstad" />
		<tag k="place" v="farm" />
		<tag k="ssr:stedsnr" v="449773" />
	</node>
	<node lat="59.60777853989208" lon="10.394029383440342" id="-12405">
		<tag k="fixme" v="consider place=hamlet" />
		<tag k="name" v="Hellum" />
		<tag k="place" v="farm" />
		<tag k="ssr:stedsnr" v="671643" />
	</node>
	<node lat="59.64497500046242" lon="10.389349998908003" id="-12408">
		<tag k="name" v="Leirvik" />
		<tag k="place" v="farm" />
		<tag k="ssr:stedsnr" v="671839" />
	</node>
	<node lat="59.69903611144028" lon="10.25197777496317" id="-12411">
		<tag k="fixme" v="consider place=suburb, village or hamlet" />
		<tag k="name" v="Eikhaugen" />
		<tag k="place" v="quarter" />
		<tag k="ssr:stedsnr" v="464266" />
	</node>
	<node lat="59.71450832921985" lon="10.147794449658905" id="-12412">
		<tag k="amenity" v="sports_centre" />
		<tag k="name" v="Konnerudhallen" />
		<tag k="ssr:stedsnr" v="464354" />
	</node>
	<node lat="59.71236111139111" lon="10.144094436275873" id="-12413">
		<tag k="leisure" v="pitch" />
		<tag k="name" v="Konnerud stadion" />
		<tag k="ssr:stedsnr" v="464361" />
	</node>
	<node lat="59.700677779274706" lon="10.28566111885435" id="-12414">
		<tag k="name" v="Nygård" />
		<tag k="place" v="farm" />
		<tag k="ssr:stedsnr" v="464369" />
	</node>
	<node lat="59.69891944692259" lon="10.291741664267427" id="-12415">
		<tag k="name" v="Brunsvik" />
		<tag k="place" v="isolated_dwelling" />
		<tag k="ssr:stedsnr" v="464375" />
	</node>
	<node lat="59.68412500348626" lon="10.205297220481636" id="-12416">
		<tag k="name" v="Nordre Sten" />
		<tag k="place" v="farm" />
		<tag k="ssr:stedsnr" v="465579" />
	</node>
	<node lat="59.68249444835323" lon="10.165188886563561" id="-12417">
		<tag k="name" v="Vestre Borge" />
		<tag k="place" v="farm" />
		<tag k="ssr:stedsnr" v="465580" />
	</node>
	<node lat="59.7247347160662" lon="10.18732102754674" id="-12419">
		<tag k="fixme" v="consider tourism=alpine_hut or tourism=chalet" />
		<tag k="name" v="Blektjernstua" />
		<tag k="ssr:stedsnr" v="466008" />
		<tag k="tourism" v="wilderness_hut" />
	</node>
	<node lat="59.72429444725627" lon="10.150158327307624" id="-12420">
		<tag k="amenity" v="nursing_home" />
		<tag k="name" v="Fredholt" />
		<tag k="ssr:stedsnr" v="466022" />
	</node>
	<node lat="59.67726111140538" lon="10.261058340372365" id="-12422">
		<tag k="name" v="Skalpe" />
		<tag k="place" v="farm" />
		<tag k="ssr:stedsnr" v="466769" />
	</node>
	<node lat="59.675916667923545" lon="10.208302771601128" id="-12424">
		<tag k="name" v="Østre Haneval" />
		<tag k="place" v="farm" />
		<tag k="ssr:stedsnr" v="467707" />
	</node>
	<node lat="59.66997499846274" lon="10.22037499397128" id="-12425">
		<tag k="leisure" v="pitch" />
		<tag k="name" v="Skoger golfbane" />
		<tag k="ssr:stedsnr" v="467714" />
	</node>
	<node lat="59.6905249996949" lon="10.337975006223672" id="-12428">
		<tag k="name" v="Støa" />
		<tag k="place" v="farm" />
		<tag k="ssr:stedsnr" v="488184" />
	</node>
	<node lat="59.690802780163565" lon="10.328586115958638" id="-12429">
		<tag k="name" v="Tørkopp" />
		<tag k="place" v="isolated_dwelling" />
		<tag k="ssr:stedsnr" v="488185" />
	</node>
	<node lat="59.787805551528834" lon="10.134224997893336" id="-12433">
		<tag k="fixme" v="consider tourism=alpine_hut or tourism=chalet" />
		<tag k="name" v="Tverken" />
		<tag k="ssr:stedsnr" v="489145" />
		<tag k="tourism" v="wilderness_hut" />
	</node>
	<node lat="59.76453350344715" lon="9.993286294746913" id="-12435">
		<tag k="alt_name" v="Krogstad" />
		<tag k="fixme" v="consider place=hamlet" />
		<tag k="name" v="Krokstad" />
		<tag k="place" v="farm" />
		<tag k="ssr:stedsnr" v="489209" />
	</node>
	<node lat="59.53856388831941" lon="10.382583337925748" id="-12437">
		<tag k="fixme" v="consider place=suburb, village or hamlet" />
		<tag k="name" v="Blindsand" />
		<tag k="place" v="quarter" />
		<tag k="ssr:stedsnr" v="505965" />
	</node>
	<node lat="59.72640833024925" lon="10.085891674579553" id="-12438">
		<tag k="name" v="Rasteplassen" />
		<tag k="place" v="farm" />
		<tag k="ssr:stedsnr" v="508610" />
	</node>
	<node lat="59.761386107616495" lon="10.0963333318194" id="-12439">
		<tag k="name" v="Vinnes" />
		<tag k="place" v="farm" />
		<tag k="ssr:stedsnr" v="508611" />
	</node>
	<node lat="59.75680556005984" lon="10.099433327612426" id="-12440">
		<tag k="name" v="Vinnes gartneri" />
		<tag k="place" v="farm" />
		<tag k="ssr:stedsnr" v="508617" />
	</node>
	<node lat="59.72662222565663" lon="10.113822218077168" id="-12441">
		<tag k="name" v="Fjellhvil" />
		<tag k="place" v="farm" />
		<tag k="ssr:stedsnr" v="508558" />
	</node>
	<node lat="59.83238889182889" lon="10.024913893827101" id="-12445">
		<tag k="name" v="Vranglevollen" />
		<tag k="place" v="locality" />
		<tag k="ssr:stedsnr" v="511596" />
	</node>
	<node lat="59.687466670635025" lon="10.335333327486806" id="-12449">
		<tag k="name" v="Nøsterudbråten" />
		<tag k="place" v="farm" />
		<tag k="ssr:stedsnr" v="513405" />
	</node>
	<node lat="59.69051388586974" lon="10.255816671560392" id="-12455">
		<tag k="name" v="Alfheim" />
		<tag k="place" v="farm" />
		<tag k="ssr:stedsnr" v="525304" />
	</node>
	<node lat="59.70042777812582" lon="10.286255557786715" id="-12456">
		<tag k="name" v="Åsheim" />
		<tag k="place" v="farm" />
		<tag k="ssr:stedsnr" v="525367" />
	</node>
	<node lat="59.70359167055804" lon="10.07756110792766" id="-12458">
		<tag k="name" v="Sagdamstua" />
		<tag k="place" v="isolated_dwelling" />
		<tag k="ssr:stedsnr" v="525373" />
	</node>
	<node lat="59.73132221786648" lon="10.20279721828549" id="-12462">
		<tag k="leisure" v="park" />
		<tag k="name" v="Bikkjestykket" />
		<tag k="ssr:stedsnr" v="527003" />
	</node>
	<node lat="59.732863889652414" lon="10.198386117634492" id="-12463">
		<tag k="amenity" v="school" />
		<tag k="name" v="Danvik folkehøgskole" />
		<tag k="ssr:stedsnr" v="527004" />
	</node>
	<node lat="59.776727773490514" lon="10.157944448311381" id="-12466">
		<tag k="name" v="Klokkerstua" />
		<tag k="place" v="isolated_dwelling" />
		<tag k="ssr:stedsnr" v="527203" />
	</node>
	<node lat="59.67797222493994" lon="10.26165276939117" id="-12470">
		<tag k="name" v="Knatten" />
		<tag k="place" v="isolated_dwelling" />
		<tag k="ssr:stedsnr" v="527745" />
	</node>
	<node lat="59.597480553432916" lon="10.402008336398726" id="-12471">
		<tag k="name" v="Skjønheim" />
		<tag k="place" v="quarter" />
		<tag k="ssr:stedsnr" v="527923" />
	</node>
	<node lat="59.73253333046082" lon="10.144819437826255" id="-12477">
		<tag k="name" v="Hallermoen" />
		<tag k="place" v="quarter" />
		<tag k="ssr:stedsnr" v="544818" />
	</node>
	<node lat="59.6869551506952" lon="10.193344268541793" id="-12484">
		<tag k="fixme" v="consider place=hamlet" />
		<tag k="name" v="Løyse" />
		<tag k="place" v="farm" />
		<tag k="ssr:stedsnr" v="549201" />
	</node>
	<node lat="59.72864167054466" lon="10.103425007807186" id="-12489">
		<tag k="name" v="Holmen" />
		<tag k="place" v="isolated_dwelling" />
		<tag k="ssr:stedsnr" v="549254" />
	</node>
	<node lat="59.67155277591865" lon="10.351461112508247" id="-12491">
		<tag k="name" v="Vestby" />
		<tag k="place" v="farm" />
		<tag k="ssr:stedsnr" v="549851" />
	</node>
	<node lat="59.7871749991994" lon="10.145513880120244" id="-12497">
		<tag k="name" v="Vesleper" />
		<tag k="place" v="farm" />
		<tag k="ssr:stedsnr" v="690760" />
	</node>
	<node lat="59.75265833263587" lon="9.972136113868961" id="-12499">
		<tag k="name" v="Nedberg" />
		<tag k="place" v="farm" />
		<tag k="ssr:stedsnr" v="690547" />
	</node>
	<node lat="59.76634166882986" lon="10.089977784509161" id="-12502">
		<tag k="name" v="Bjørkelund" />
		<tag k="place" v="farm" />
		<tag k="ssr:stedsnr" v="690557" />
	</node>
	<node lat="59.728461112953504" lon="10.11507221995184" id="-12503">
		<tag k="name" v="Eskerud" />
		<tag k="place" v="farm" />
		<tag k="ssr:stedsnr" v="690566" />
	</node>
	<node lat="59.72674167005237" lon="10.098486116221396" id="-12504">
		<tag k="name" v="Hagen" />
		<tag k="place" v="farm" />
		<tag k="ssr:stedsnr" v="690568" />
	</node>
	<node lat="59.75235277648349" lon="10.041850007791448" id="-12505">
		<tag k="alt_name" v="Rygg mellem" />
		<tag k="name" v="Mellom-Rygg" />
		<tag k="place" v="farm" />
		<tag k="ssr:stedsnr" v="690919" />
	</node>
	<node lat="59.74968610880618" lon="10.047536106833498" id="-12506">
		<tag k="alt_name" v="Rygg nedre" />
		<tag k="name" v="Nedre Rygg" />
		<tag k="place" v="farm" />
		<tag k="ssr:stedsnr" v="690920" />
	</node>
	<node lat="59.749361109425" lon="10.21990555210663" id="-12509">
		<tag k="name" v="Strøtvet" />
		<tag k="place" v="quarter" />
		<tag k="ssr:stedsnr" v="691517" />
	</node>
	<node lat="59.73958055832175" lon="10.003222224908669" id="-12510">
		<tag k="leisure" v="pitch" />
		<tag k="name" v="Vikkollen" />
		<tag k="ssr:stedsnr" v="691945" />
	</node>
	<node lat="59.72635000328368" lon="10.13771944462331" id="-12516">
		<tag k="name" v="Tufte" />
		<tag k="place" v="farm" />
		<tag k="ssr:stedsnr" v="568507" />
	</node>
	<node lat="59.7270242593942" lon="10.088538403754518" id="-12517">
		<tag k="fixme" v="consider place=hamlet" />
		<tag k="name" v="Stubberud" />
		<tag k="place" v="farm" />
		<tag k="ssr:stedsnr" v="568554" />
	</node>
	<node lat="59.73323333324875" lon="10.10042777168336" id="-12518">
		<tag k="name" v="Baustrømplassen" />
		<tag k="place" v="isolated_dwelling" />
		<tag k="ssr:stedsnr" v="568557" />
	</node>
	<node lat="59.7263499955453" lon="10.089783336939524" id="-12519">
		<tag k="name" v="Stubberud" />
		<tag k="place" v="farm" />
		<tag k="ssr:stedsnr" v="568558" />
	</node>
	<node lat="59.72646666930091" lon="10.081688882556646" id="-12520">
		<tag k="name" v="Håkagård" />
		<tag k="place" v="farm" />
		<tag k="ssr:stedsnr" v="568559" />
	</node>
	<node lat="59.76630833777244" lon="9.984649993932575" id="-12522">
		<tag k="name" v="Kornløkka" />
		<tag k="place" v="farm" />
		<tag k="ssr:stedsnr" v="568910" />
	</node>
	<node lat="59.61629492191369" lon="10.387488863841885" id="-12525">
		<tag k="alt_name" v="Ebbestad nordre" />
		<tag k="name" v="Nordre Ebbestad" />
		<tag k="place" v="farm" />
		<tag k="ssr:stedsnr" v="570505" />
	</node>
	<node lat="59.707424996178126" lon="10.160524995920136" id="-12529">
		<tag k="name" v="Jordbrekkskogen" />
		<tag k="place" v="quarter" />
		<tag k="ssr:stedsnr" v="572149" />
	</node>
	<node lat="59.68768611260333" lon="10.3286055615304" id="-12545">
		<tag k="name" v="Skogly" />
		<tag k="place" v="farm" />
		<tag k="ssr:stedsnr" v="695389" />
	</node>
	<node lat="59.713663890783195" lon="10.127375003851471" id="-12547">
		<tag k="name" v="Bråten" />
		<tag k="place" v="farm" />
		<tag k="ssr:stedsnr" v="585306" />
	</node>
	<node lat="59.694791664265516" lon="10.299666657894804" id="-12548">
		<tag k="name" v="Veslebakken" />
		<tag k="place" v="isolated_dwelling" />
		<tag k="ssr:stedsnr" v="585324" />
	</node>
	<node lat="59.697258332070454" lon="10.231052779494624" id="-12549">
		<tag k="name" v="Bergheim" />
		<tag k="place" v="isolated_dwelling" />
		<tag k="ssr:stedsnr" v="585241" />
	</node>
	<node lat="59.69066110955452" lon="10.226758331752793" id="-12550">
		<tag k="name" v="Freberg" />
		<tag k="place" v="isolated_dwelling" />
		<tag k="ssr:stedsnr" v="585248" />
	</node>
	<node lat="59.69412777646001" lon="10.213169439426727" id="-12551">
		<tag k="name" v="Lyngstua" />
		<tag k="place" v="isolated_dwelling" />
		<tag k="ssr:stedsnr" v="585251" />
	</node>
	<node lat="59.6867472179507" lon="10.193400001033377" id="-12552">
		<tag k="name" v="Løyse" />
		<tag k="place" v="farm" />
		<tag k="ssr:stedsnr" v="586592" />
	</node>
	<node lat="59.68136944682386" lon="10.193422225241676" id="-12553">
		<tag k="name" v="Søndre Holmen" />
		<tag k="place" v="farm" />
		<tag k="ssr:stedsnr" v="586593" />
	</node>
	<node lat="59.684361106761926" lon="10.18223333343768" id="-12554">
		<tag k="name" v="Søndre Flåtan" />
		<tag k="place" v="farm" />
		<tag k="ssr:stedsnr" v="586594" />
	</node>
	<node lat="59.7182361145051" lon="10.262491669269494" id="-12555">
		<tag k="name" v="Ask" />
		<tag k="place" v="farm" />
		<tag k="ssr:stedsnr" v="586752" />
	</node>
	<node lat="59.744230553978056" lon="10.211427786591885" id="-12556">
		<tag k="building" v="civic" />
		<tag k="name" v="Drammen tinghus" />
		<tag k="ssr:stedsnr" v="586898" />
	</node>
	<node lat="59.734336110589126" lon="10.201427780811573" id="-12557">
		<tag k="leisure" v="pitch" />
		<tag k="name" v="Gressbanen" />
		<tag k="ssr:stedsnr" v="587009" />
	</node>
	<node lat="59.77054721800486" lon="10.167258340679744" id="-12560">
		<tag k="name" v="Brannhytta" />
		<tag k="place" v="isolated_dwelling" />
		<tag k="ssr:stedsnr" v="587205" />
	</node>
	<node lat="59.6766416698595" lon="10.20264722182129" id="-12562">
		<tag k="name" v="Vestre Haneval" />
		<tag k="place" v="farm" />
		<tag k="ssr:stedsnr" v="588710" />
	</node>
	<node lat="59.75012222644758" lon="10.164694450633617" id="-12567">
		<tag k="leisure" v="park" />
		<tag k="name" v="Bacheparken" />
		<tag k="ssr:stedsnr" v="604802" />
	</node>
	<node lat="59.74598055352371" lon="10.159744449575847" id="-12568">
		<tag k="amenity" v="nursing_home" />
		<tag k="name" v="Gulskogen pleiehjem" />
		<tag k="ssr:stedsnr" v="604812" />
	</node>
	<node lat="59.667125004070726" lon="10.099374992330214" id="-12571">
		<tag k="alt_name" v="Saggravdalen" />
		<tag k="name" v="Saggravdal" />
		<tag k="place" v="isolated_dwelling" />
		<tag k="ssr:stedsnr" v="609212" />
	</node>
	<node lat="59.690266668446334" lon="10.142400005405907" id="-12573">
		<tag k="name" v="Gardås" />
		<tag k="place" v="isolated_dwelling" />
		<tag k="ssr:stedsnr" v="609188" />
	</node>
	<node lat="59.68867907416589" lon="10.212264714158662" id="-12574">
		<tag k="alt_name" v="Dæle prestegård" />
		<tag k="fixme" v="consider place=hamlet" />
		<tag k="name" v="Dæle" />
		<tag k="place" v="farm" />
		<tag k="ssr:stedsnr" v="609192" />
	</node>
	<node lat="59.67724874484887" lon="10.171713843030311" id="-12577">
		<tag k="fixme" v="consider place=hamlet" />
		<tag k="name" v="Viulsrud" />
		<tag k="place" v="farm" />
		<tag k="ssr:stedsnr" v="609240" />
	</node>
	<node lat="59.59881388838493" lon="10.405000005793738" id="-12578">
		<tag k="name" v="Homansberget" />
		<tag k="place" v="neighbourhood" />
		<tag k="ssr:stedsnr" v="609587" />
	</node>
	<node lat="59.70716091684179" lon="10.250983723218036" id="-12580">
		<tag k="fixme" v="consider place=hamlet" />
		<tag k="name" v="Store Solum" />
		<tag k="place" v="farm" />
		<tag k="ssr:stedsnr" v="610339" />
	</node>
	<node lat="59.672105559967356" lon="10.376130562383024" id="-12583">
		<tag k="alt_name" v="Kuflekken" />
		<tag k="name" v="Koflekken" />
		<tag k="place" v="isolated_dwelling" />
		<tag k="ssr:stedsnr" v="610882" />
	</node>
	<node lat="59.72620833424867" lon="10.11513889250613" id="-12587">
		<tag k="name" v="Ryddheim" />
		<tag k="place" v="farm" />
		<tag k="ssr:stedsnr" v="629522" />
	</node>
	<node lat="59.72716388806971" lon="10.10959722151497" id="-12588">
		<tag k="name" v="Haugen" />
		<tag k="place" v="farm" />
		<tag k="ssr:stedsnr" v="629523" />
	</node>
	<node lat="59.73202222655907" lon="10.123386112686642" id="-12589">
		<tag k="name" v="Lutevold" />
		<tag k="place" v="farm" />
		<tag k="ssr:stedsnr" v="629544" />
	</node>
	<node lat="59.75459722034917" lon="10.03915833305375" id="-12591">
		<tag k="name" v="Papyrus P M" />
		<tag k="place" v="quarter" />
		<tag k="ssr:stedsnr" v="629913" />
	</node>
	<node lat="59.59550000175606" lon="10.397388888881771" id="-12595">
		<tag k="name" v="Knem" />
		<tag k="place" v="farm" />
		<tag k="ssr:stedsnr" v="634379" />
	</node>
	<node lat="59.71702499596972" lon="10.138405562179713" id="-12596">
		<tag k="amenity" v="nursing_home" />
		<tag k="name" v="Eikholt senter for døvblinde" />
		<tag k="ssr:stedsnr" v="646329" />
	</node>
	<node lat="59.68891944864719" lon="10.251369440181854" id="-12597">
		<tag k="name" v="Nedre Lindum" />
		<tag k="place" v="farm" />
		<tag k="ssr:stedsnr" v="646279" />
	</node>
	<node lat="59.668869446364866" lon="10.212702785975612" id="-12602">
		<tag k="name" v="Hammersborg" />
		<tag k="place" v="farm" />
		<tag k="ssr:stedsnr" v="648698" />
	</node>
	<node lat="59.67249722045103" lon="10.181336103638582" id="-12604">
		<tag k="name" v="Tollersrud" />
		<tag k="place" v="locality" />
		<tag k="ssr:stedsnr" v="648711" />
	</node>
	<node lat="59.668500002881046" lon="10.045936108331588" id="-12606">
		<tag k="name" v="Stallane" />
		<tag k="place" v="locality" />
		<tag k="ssr:stedsnr" v="648787" />
	</node>
	<node lat="59.69131389021652" lon="10.316052780283465" id="-12609">
		<tag k="name" v="Verven" />
		<tag k="place" v="hamlet" />
		<tag k="ssr:stedsnr" v="707283" />
	</node>
	<node lat="59.690899998863564" lon="10.315416661778952" id="-12610">
		<tag k="name" v="Fjellvang" />
		<tag k="place" v="isolated_dwelling" />
		<tag k="ssr:stedsnr" v="707284" />
	</node>
	<node lat="59.69888889199962" lon="10.233458339173076" id="-12612">
		<tag k="name" v="Gunnerud" />
		<tag k="place" v="farm" />
		<tag k="ssr:stedsnr" v="707295" />
	</node>
	<node lat="59.687383330166334" lon="10.256358340837298" id="-12613">
		<tag k="name" v="Lindum" />
		<tag k="place" v="farm" />
		<tag k="ssr:stedsnr" v="707300" />
	</node>
	<node lat="59.711016667320976" lon="10.128994450846784" id="-12614">
		<tag k="alt_name" v="Hassebo" />
		<tag k="name" v="Hasselro" />
		<tag k="place" v="isolated_dwelling" />
		<tag k="ssr:stedsnr" v="707368" />
	</node>
	<node lat="59.69438055534126" lon="10.298497225198608" id="-12616">
		<tag k="name" v="Knatten" />
		<tag k="place" v="isolated_dwelling" />
		<tag k="ssr:stedsnr" v="707383" />
	</node>
	<node lat="59.68607777776204" lon="10.180072216032212" id="-12617">
		<tag k="name" v="Nordre Flåtan" />
		<tag k="place" v="farm" />
		<tag k="ssr:stedsnr" v="707594" />
	</node>
	<node lat="59.684191663810815" lon="10.1343083332849" id="-12619">
		<tag k="name" v="Enga" />
		<tag k="place" v="farm" />
		<tag k="ssr:stedsnr" v="707683" />
	</node>
	<node lat="59.68336389303416" lon="10.146783329309347" id="-12620">
		<tag k="name" v="Labråten" />
		<tag k="place" v="locality" />
		<tag k="ssr:stedsnr" v="707684" />
	</node>
	<node lat="59.74479721819582" lon="10.205522214763501" id="-12624">
		<tag k="amenity" v="townhall" />
		<tag k="name" v="Drammen rådhus" />
		<tag k="ssr:stedsnr" v="708895" />
	</node>
	<node lat="59.77362499942038" lon="10.14832777447244" id="-12627">
		<tag k="name" v="Myrstua" />
		<tag k="place" v="isolated_dwelling" />
		<tag k="ssr:stedsnr" v="709203" />
	</node>
	<node lat="59.691686110219095" lon="10.212775002476286" id="-12635">
		<tag k="alt_name" v="Torbråten" />
		<tag k="name" v="Torbråtan" />
		<tag k="place" v="farm" />
		<tag k="ssr:stedsnr" v="670203" />
	</node>
	<node lat="59.684802777965594" lon="10.253755550615864" id="-12636">
		<tag k="name" v="Fagerheim" />
		<tag k="place" v="farm" />
		<tag k="ssr:stedsnr" v="670205" />
	</node>
	<node lat="59.677941373322696" lon="10.265774144130772" id="-12637">
		<tag k="fixme" v="consider place=hamlet" />
		<tag k="name" v="Skalpe" />
		<tag k="place" v="farm" />
		<tag k="ssr:stedsnr" v="670216" />
	</node>
	<node lat="59.71025822974543" lon="10.234482767272038" id="-12640">
		<tag k="fixme" v="consider place=hamlet" />
		<tag k="name" v="Danserud" />
		<tag k="place" v="farm" />
		<tag k="ssr:stedsnr" v="670278" />
	</node>
	<node lat="59.551321777636424" lon="10.373382228870932" id="-12642">
		<tag k="fixme" v="consider place=hamlet" />
		<tag k="name" v="Brekke" />
		<tag k="place" v="farm" />
		<tag k="ssr:stedsnr" v="670514" />
	</node>
	<node lat="59.75248514841797" lon="9.975232036786071" id="-12643">
		<tag k="alt_name" v="Neberg" />
		<tag k="name" v="Nedberg" />
		<tag k="place" v="hamlet" />
		<tag k="ssr:stedsnr" v="671074" />
	</node>
	<node lat="59.76238611399092" lon="10.129438891357301" id="-12644">
		<tag k="amenity" v="school" />
		<tag k="name" v="Aronsløkka skole" />
		<tag k="ssr:stedsnr" v="671076" />
	</node>
	<node lat="59.670834769336096" lon="10.368758786600416" id="-12647">
		<tag k="name" v="Havnevik" />
		<tag k="place" v="hamlet" />
		<tag k="ssr:stedsnr" v="671865" />
	</node>
	<node lat="59.71787500335964" lon="10.254263893075862" id="-12652">
		<tag k="leisure" v="pitch" />
		<tag k="name" v="Brønnern" />
		<tag k="ssr:stedsnr" v="891077" />
	</node>
	<node lat="59.7929277776369" lon="10.152805560882793" id="-12654">
		<tag k="name" v="Myrglimt" />
		<tag k="place" v="isolated_dwelling" />
		<tag k="ssr:stedsnr" v="891210" />
	</node>
	<node lat="59.777175000304226" lon="10.152938897229951" id="-12655">
		<tag k="name" v="Maristua" />
		<tag k="place" v="isolated_dwelling" />
		<tag k="ssr:stedsnr" v="891227" />
	</node>
	<node lat="59.66562221929397" lon="10.218299993984242" id="-12656">
		<tag k="name" v="Margentun" />
		<tag k="place" v="locality" />
		<tag k="ssr:stedsnr" v="892677" />
	</node>
	<node lat="59.74654444204204" lon="10.204750002681406" id="-12661">
		<tag k="amenity" v="hospital" />
		<tag k="name" v="Drammen Private Sykehus" />
		<tag k="ssr:stedsnr" v="892833" />
	</node>
	<node lat="59.67674444771376" lon="10.230194438840869" id="-12662">
		<tag k="name" v="Søndre Unnelsrud" />
		<tag k="place" v="farm" />
		<tag k="ssr:stedsnr" v="892722" />
	</node>
	<node lat="59.72388610835257" lon="10.136236106286074" id="-12663">
		<tag k="name" v="Enga" />
		<tag k="place" v="farm" />
		<tag k="ssr:stedsnr" v="690583" />
	</node>
	<node lat="59.72836666401931" lon="10.14633888003594" id="-12664">
		<tag k="amenity" v="school" />
		<tag k="name" v="Hallermoen skole" />
		<tag k="ssr:stedsnr" v="690594" />
	</node>
	<node lat="59.76173333641228" lon="10.088513883992439" id="-12665">
		<tag k="name" v="Vøllo" />
		<tag k="place" v="farm" />
		<tag k="ssr:stedsnr" v="690891" />
	</node>
	<node lat="59.76418889015754" lon="10.006905559218211" id="-12667">
		<tag k="name" v="Gosen" />
		<tag k="place" v="farm" />
		<tag k="ssr:stedsnr" v="691980" />
	</node>
	<node lat="59.736238884862345" lon="10.20211389382306" id="-12669">
		<tag k="leisure" v="pitch" />
		<tag k="name" v="Marienlyst" />
		<tag k="ssr:stedsnr" v="694104" />
	</node>
	<node lat="59.80451944729319" lon="9.993925008229429" id="-12671">
		<tag k="historic" v="shieling" />
		<tag k="name" v="Horgenseter" />
		<tag k="place" v="isolated_dwelling" />
		<tag k="ssr:stedsnr" v="694711" />
	</node>
	<node lat="59.68385833010737" lon="10.260488896312575" id="-12675">
		<tag k="name" v="Fagerlund" />
		<tag k="place" v="farm" />
		<tag k="ssr:stedsnr" v="707304" />
	</node>
	<node lat="59.68781666242288" lon="10.221736107747294" id="-12676">
		<tag k="name" v="Berg" />
		<tag k="place" v="isolated_dwelling" />
		<tag k="ssr:stedsnr" v="707309" />
	</node>
	<node lat="59.71469444485469" lon="10.127588881878895" id="-12677">
		<tag k="name" v="Kollerud" />
		<tag k="place" v="farm" />
		<tag k="ssr:stedsnr" v="707358" />
	</node>
	<node lat="59.71643888769851" lon="10.14375278534224" id="-12678">
		<tag k="name" v="Brokvoll" />
		<tag k="place" v="quarter" />
		<tag k="ssr:stedsnr" v="707363" />
	</node>
	<node lat="59.70012222234218" lon="10.156950005452263" id="-12680">
		<tag k="name" v="Høyfoss" />
		<tag k="place" v="farm" />
		<tag k="ssr:stedsnr" v="707576" />
	</node>
	<node lat="59.74061388555187" lon="10.179502773594983" id="-12681">
		<tag k="building" v="industrial" />
		<tag k="industrial" v="factory" />
		<tag k="name" v="NSB jernbaneverksted" />
		<tag k="ssr:stedsnr" v="709007" />
	</node>
	<node lat="59.815088888693055" lon="10.102983327314908" id="-12682">
		<tag k="name" v="Thule" />
		<tag k="place" v="isolated_dwelling" />
		<tag k="ssr:stedsnr" v="709018" />
	</node>
	<node lat="59.735255554147955" lon="10.209838880362375" id="-12684">
		<tag k="alt_name" v="Strømsø ungdomsskole" />
		<tag k="amenity" v="school" />
		<tag k="name" v="Strømsø skole" />
		<tag k="ssr:stedsnr" v="709586" />
	</node>
	<node lat="59.66650000193466" lon="10.222219446770389" id="-12685">
		<tag k="name" v="Nordheim" />
		<tag k="place" v="isolated_dwelling" />
		<tag k="ssr:stedsnr" v="709692" />
	</node>
	<node lat="59.68055833224957" lon="10.229694441782083" id="-12687">
		<tag k="name" v="Nordre Unnelsrud" />
		<tag k="place" v="farm" />
		<tag k="ssr:stedsnr" v="709728" />
	</node>
	<node lat="59.7275944439979" lon="10.248333329828254" id="-12690">
		<tag k="name" v="Merket" />
		<tag k="place" v="square" />
		<tag k="ssr:stedsnr" v="725132" />
	</node>
	<node lat="59.72021111482942" lon="10.133447219109337" id="-12693">
		<tag k="name" v="Damsborg" />
		<tag k="place" v="farm" />
		<tag k="ssr:stedsnr" v="725322" />
	</node>
	<node lat="59.72410277930788" lon="10.08206388378653" id="-12702">
		<tag k="name" v="Bråtan" />
		<tag k="place" v="isolated_dwelling" />
		<tag k="ssr:stedsnr" v="731203" />
	</node>
	<node lat="59.72064293148317" lon="10.050088739270882" id="-12705">
		<tag k="name" v="Viksetra" />
		<tag k="place" v="farm" />
		<tag k="ssr:stedsnr" v="731214" />
	</node>
	<node lat="59.6865277738209" lon="10.24632222269128" id="-12709">
		<tag k="name" v="Nedre Gulliksrud" />
		<tag k="place" v="farm" />
		<tag k="ssr:stedsnr" v="731156" />
	</node>
	<node lat="59.69755555709325" lon="10.294497229819584" id="-12711">
		<tag k="name" v="Grunnvik" />
		<tag k="place" v="farm" />
		<tag k="ssr:stedsnr" v="731168" />
	</node>
	<node lat="59.747351097853745" lon="10.151675319401626" id="-12712">
		<tag k="fixme" v="consider place=hamlet" />
		<tag k="name" v="Rød" />
		<tag k="place" v="farm" />
		<tag k="ssr:stedsnr" v="731316" />
	</node>
	<node lat="59.73309999803226" lon="10.046008331757536" id="-12714">
		<tag k="name" v="Ryggsetra" />
		<tag k="place" v="farm" />
		<tag k="ssr:stedsnr" v="731326" />
	</node>
	<node lat="59.57630277693042" lon="10.386379820837568" id="-12715">
		<tag k="fixme" v="consider place=hamlet" />
		<tag k="name" v="Solberg" />
		<tag k="place" v="farm" />
		<tag k="ssr:stedsnr" v="731719" />
	</node>
	<node lat="59.751012764558695" lon="10.132763009762764" id="-12716">
		<tag k="fixme" v="consider place=hamlet" />
		<tag k="name" v="Berskog" />
		<tag k="place" v="farm" />
		<tag k="ssr:stedsnr" v="732107" />
	</node>
	<node lat="59.78700957159019" lon="10.119389499281409" id="-12717">
		<tag k="alt_name" v="Kjøsterudseter;Kjøsterudsætra" />
		<tag k="historic" v="shieling" />
		<tag k="name" v="Kjøsterudsetra" />
		<tag k="place" v="isolated_dwelling" />
		<tag k="ssr:stedsnr" v="732151" />
	</node>
	<node lat="59.80453888697633" lon="10.098347222277912" id="-12720">
		<tag k="historic" v="shieling" />
		<tag k="name" v="Ragnhildstøl" />
		<tag k="place" v="isolated_dwelling" />
		<tag k="ssr:stedsnr" v="732253" />
	</node>
	<node lat="59.76068677643351" lon="10.011876538485241" id="-12722">
		<tag k="name" v="Eknes" />
		<tag k="place" v="hamlet" />
		<tag k="ssr:stedsnr" v="732201" />
	</node>
	<node lat="59.76005555698091" lon="9.95495278305002" id="-12723">
		<tag k="name" v="Steinberg" />
		<tag k="place" v="village" />
		<tag k="ssr:stedsnr" v="732609" />
	</node>
	<node lat="59.65329285558311" lon="10.383995211390715" id="-12726">
		<tag k="fixme" v="consider place=hamlet" />
		<tag k="name" v="Sønsteby" />
		<tag k="place" v="farm" />
		<tag k="ssr:stedsnr" v="732824" />
	</node>
	<node lat="59.72603055387115" lon="10.126958324436453" id="-12729">
		<tag k="name" v="Myrhagen" />
		<tag k="place" v="farm" />
		<tag k="ssr:stedsnr" v="750509" />
	</node>
	<node lat="59.72346110735809" lon="10.137105557417916" id="-12730">
		<tag k="name" v="Espeset" />
		<tag k="place" v="farm" />
		<tag k="ssr:stedsnr" v="750521" />
	</node>
	<node lat="59.75584444245166" lon="10.120613885966222" id="-12731">
		<tag k="leisure" v="pitch" />
		<tag k="name" v="Berskog idrettsplass" />
		<tag k="ssr:stedsnr" v="750602" />
	</node>
	<node lat="59.765788885771094" lon="10.006386117867859" id="-12734">
		<tag k="name" v="Gosen" />
		<tag k="place" v="farm" />
		<tag k="ssr:stedsnr" v="750903" />
	</node>
	<node lat="59.68681389278858" lon="10.223030551595494" id="-12737">
		<tag k="fixme" v="consider place=hamlet" />
		<tag k="name" v="Skoger" />
		<tag k="place" v="village" />
		<tag k="ssr:stedsnr" v="753807" />
	</node>
	<node lat="59.60493333620427" lon="10.403911112710674" id="-12741">
		<tag k="name" v="Elvernøy" />
		<tag k="place" v="farm" />
		<tag k="ssr:stedsnr" v="756348" />
	</node>
	<node lat="59.604602777863576" lon="10.409519435817826" id="-12742">
		<tag k="name" v="Grunden" />
		<tag k="place" v="quarter" />
		<tag k="ssr:stedsnr" v="756350" />
	</node>
	<node lat="59.59944444338405" lon="10.391166659903913" id="-12744">
		<tag k="name" v="Glena" />
		<tag k="place" v="isolated_dwelling" />
		<tag k="ssr:stedsnr" v="756353" />
	</node>
	<node lat="59.65755277948099" lon="10.376708328544316" id="-12745">
		<tag k="name" v="Øvre Nes" />
		<tag k="place" v="farm" />
		<tag k="ssr:stedsnr" v="756362" />
	</node>
	<node lat="59.71541944197618" lon="10.132022219449844" id="-12746">
		<tag k="name" v="Skogheim" />
		<tag k="place" v="isolated_dwelling" />
		<tag k="ssr:stedsnr" v="768320" />
	</node>
	<node lat="59.69658888495748" lon="10.296894452127606" id="-12747">
		<tag k="name" v="Fjellheim" />
		<tag k="place" v="isolated_dwelling" />
		<tag k="ssr:stedsnr" v="768245" />
	</node>
	<node lat="59.6977888892133" lon="10.250919450602808" id="-12748">
		<tag k="name" v="Eikhaug" />
		<tag k="place" v="isolated_dwelling" />
		<tag k="ssr:stedsnr" v="768251" />
	</node>
	<node lat="59.69570000207102" lon="10.229733328665173" id="-12749">
		<tag k="name" v="Fjellstua" />
		<tag k="place" v="isolated_dwelling" />
		<tag k="ssr:stedsnr" v="768255" />
	</node>
	<node lat="59.683377774056744" lon="10.165575003534602" id="-12750">
		<tag k="name" v="Mellom-Borge" />
		<tag k="place" v="farm" />
		<tag k="ssr:stedsnr" v="768595" />
	</node>
	<node lat="59.691855555883414" lon="10.146486106469583" id="-12752">
		<tag k="name" v="Hagastua" />
		<tag k="place" v="isolated_dwelling" />
		<tag k="ssr:stedsnr" v="768698" />
	</node>
	<node lat="59.78369444155549" lon="10.16135833953229" id="-12753">
		<tag k="name" v="Haugtussa" />
		<tag k="place" v="isolated_dwelling" />
		<tag k="ssr:stedsnr" v="769129" />
	</node>
	<node lat="59.71114999734632" lon="10.150097217098166" id="-12754">
		<tag k="name" v="Vestmannsbråten" />
		<tag k="place" v="farm" />
		<tag k="ssr:stedsnr" v="907295" />
	</node>
	<node lat="59.7606277811292" lon="10.119452778654269" id="-12758">
		<tag k="name" v="Fjellro" />
		<tag k="place" v="isolated_dwelling" />
		<tag k="ssr:stedsnr" v="908828" />
	</node>
	<node lat="59.72230833614497" lon="10.150622214608266" id="-12762">
		<tag k="name" v="Bernås" />
		<tag k="place" v="locality" />
		<tag k="ssr:stedsnr" v="785405" />
	</node>
	<node lat="59.6961233849656" lon="10.15226866525941" id="-12767">
		<tag k="fixme" v="consider place=hamlet" />
		<tag k="name" v="Svarterud" />
		<tag k="place" v="farm" />
		<tag k="ssr:stedsnr" v="791206" />
	</node>
	<node lat="59.682788891232306" lon="10.136441667465057" id="-12768">
		<tag k="name" v="Bråtan" />
		<tag k="place" v="farm" />
		<tag k="ssr:stedsnr" v="792233" />
	</node>
	<node lat="59.73031667047638" lon="10.03653056107183" id="-12769">
		<tag k="name" v="Dammen" />
		<tag k="place" v="farm" />
		<tag k="ssr:stedsnr" v="792352" />
	</node>
	<node lat="59.56554722426367" lon="10.377088887915729" id="-12770">
		<tag k="name" v="Høyensetra" />
		<tag k="place" v="farm" />
		<tag k="ssr:stedsnr" v="792698" />
	</node>
	<node lat="59.553712555487316" lon="10.390041429409662" id="-12772">
		<tag k="fixme" v="consider place=hamlet" />
		<tag k="name" v="Sand" />
		<tag k="place" v="farm" />
		<tag k="ssr:stedsnr" v="913522" />
	</node>
	<node lat="59.694141666393115" lon="10.267022224323274" id="-12773">
		<tag k="fixme" v="consider place=hamlet" />
		<tag k="name" v="Godthåp" />
		<tag k="place" v="farm" />
		<tag k="ssr:stedsnr" v="913199" />
	</node>
	<node lat="59.69715321428199" lon="10.27381954088741" id="-12774">
		<tag k="fixme" v="consider place=hamlet" />
		<tag k="name" v="Øvre Knive" />
		<tag k="place" v="farm" />
		<tag k="ssr:stedsnr" v="913200" />
	</node>
	<node lat="59.71566111003015" lon="9.993750002851042" id="-12777">
		<tag k="historic" v="shieling" />
		<tag k="name" v="Korsgårdsetra" />
		<tag k="place" v="isolated_dwelling" />
		<tag k="ssr:stedsnr" v="913256" />
	</node>
	<node lat="59.73835278101343" lon="10.099133337686151" id="-12778">
		<tag k="landuse" v="winter_sports" />
		<tag k="name" v="Ytterkolløypa" />
		<tag k="piste:type" v="downhill" />
		<tag k="ssr:stedsnr" v="913363" />
	</node>
	<node lat="59.56941162706579" lon="10.391523586478494" id="-12780">
		<tag k="alt_name" v="Høyen nordre" />
		<tag k="fixme" v="consider place=hamlet" />
		<tag k="name" v="Nordre Høyen" />
		<tag k="place" v="farm" />
		<tag k="ssr:stedsnr" v="913700" />
	</node>
	<node lat="59.724836112092646" lon="10.1327944464466" id="-12787">
		<tag k="name" v="Skogvold" />
		<tag k="place" v="isolated_dwelling" />
		<tag k="ssr:stedsnr" v="811511" />
	</node>
	<node lat="59.73050833221814" lon="10.129855560660872" id="-12788">
		<tag k="name" v="Gjermundrød" />
		<tag k="place" v="farm" />
		<tag k="ssr:stedsnr" v="811518" />
	</node>
	<node lat="59.73033055690833" lon="10.125833335435479" id="-12789">
		<tag k="name" v="Lesperud" />
		<tag k="place" v="farm" />
		<tag k="ssr:stedsnr" v="811519" />
	</node>
	<node lat="59.73679166447836" lon="10.012049994884112" id="-12796">
		<tag k="name" v="Lodden-Åsen" />
		<tag k="place" v="farm" />
		<tag k="ssr:stedsnr" v="813919" />
	</node>
	<node lat="59.694641669440955" lon="10.229375006171217" id="-12803">
		<tag k="name" v="Eiketun" />
		<tag k="place" v="isolated_dwelling" />
		<tag k="ssr:stedsnr" v="829272" />
	</node>
	<node lat="59.69723055296767" lon="10.296297227711987" id="-12804">
		<tag k="name" v="Fredbo" />
		<tag k="place" v="isolated_dwelling" />
		<tag k="ssr:stedsnr" v="829362" />
	</node>
	<node lat="59.69522500328188" lon="10.16054999630259" id="-12805">
		<tag k="name" v="Sagbakken" />
		<tag k="place" v="farm" />
		<tag k="ssr:stedsnr" v="829581" />
	</node>
	<node lat="59.80861944570759" lon="10.118208330345428" id="-12809">
		<tag k="name" v="Jutulen" />
		<tag k="place" v="isolated_dwelling" />
		<tag k="ssr:stedsnr" v="831033" />
	</node>
	<node lat="59.74925555492055" lon="10.198227784636703" id="-12810">
		<tag k="amenity" v="hospital" />
		<tag k="name" v="Buskerud sykehus Vestre Viken HF" />
		<tag k="ssr:stedsnr" v="831812" />
	</node>
	<node lat="59.72174722446298" lon="10.13742777784583" id="-12814">
		<tag k="amenity" v="nursing_home" />
		<tag k="name" v="Blenteborg CP-hjem" />
		<tag k="ssr:stedsnr" v="846315" />
	</node>
	<node lat="59.7440611068101" lon="10.219980556035267" id="-12819">
		<tag k="name" v="Brandtenborg" />
		<tag k="place" v="quarter" />
		<tag k="ssr:stedsnr" v="848819" />
	</node>
	<node lat="59.69555555590301" lon="10.199700007220146" id="-12821">
		<tag k="fixme" v="multiple name tags, choose one and add the other to alt_name" />
		<tag k="name" v="Lajordet;Bråtan" />
		<tag k="place" v="farm" />
		<tag k="ssr:stedsnr" v="852214" />
	</node>
	<node lat="59.69717507778674" lon="10.179034528341148" id="-12822">
		<tag k="fixme" v="consider place=hamlet" />
		<tag k="name" v="Øvre Skjeldrum" />
		<tag k="place" v="farm" />
		<tag k="ssr:stedsnr" v="852216" />
	</node>
	<node lat="59.694576367093504" lon="10.205768589402677" id="-12823">
		<tag k="fixme" v="consider place=hamlet" />
		<tag k="name" v="Mælen" />
		<tag k="place" v="farm" />
		<tag k="ssr:stedsnr" v="852218" />
	</node>
	<node lat="59.697091662549234" lon="10.260074993340238" id="-12824">
		<tag k="name" v="Øvre Eik" />
		<tag k="place" v="farm" />
		<tag k="ssr:stedsnr" v="852221" />
	</node>
	<node lat="59.75258543627412" lon="9.991229051638957" id="-12825">
		<tag k="fixme" v="consider place=hamlet" />
		<tag k="name" v="Skramnes" />
		<tag k="place" v="farm" />
		<tag k="ssr:stedsnr" v="853056" />
	</node>
	<node lat="59.72172499610614" lon="10.144461114075096" id="-12837">
		<tag k="name" v="Konnerud" />
		<tag k="place" v="village" />
		<tag k="ssr:stedsnr" v="853274" />
	</node>
	<node lat="59.5543055510387" lon="10.391933340498937" id="-12842">
		<tag k="name" v="Sand" />
		<tag k="place" v="farm" />
		<tag k="ssr:stedsnr" v="878404" />
	</node>
	<node lat="59.59785555980312" lon="10.402483337189798" id="-12844">
		<tag k="name" v="Skjønheim" />
		<tag k="place" v="locality" />
		<tag k="ssr:stedsnr" v="878411" />
	</node>
	<node lat="59.76722499968749" lon="10.077830556534918" id="-12848">
		<tag k="name" v="Solberg Spinderi" />
		<tag k="place" v="quarter" />
		<tag k="ssr:stedsnr" v="933541" />
	</node>
	<node lat="59.725380556392295" lon="10.108147218258825" id="-12849">
		<tag k="name" v="Tolgen" />
		<tag k="place" v="farm" />
		<tag k="ssr:stedsnr" v="933546" />
	</node>
	<node lat="59.72618889206733" lon="10.110355550713898" id="-12850">
		<tag k="name" v="Frydenberg" />
		<tag k="place" v="farm" />
		<tag k="ssr:stedsnr" v="933547" />
	</node>
	<node lat="59.75545832981178" lon="9.962033331679221" id="-12851">
		<tag k="name" v="Smaljordet" />
		<tag k="place" v="farm" />
		<tag k="ssr:stedsnr" v="933557" />
	</node>
	<node lat="59.73122499643729" lon="10.112344441812382" id="-12852">
		<tag k="name" v="Åsli" />
		<tag k="place" v="farm" />
		<tag k="ssr:stedsnr" v="933560" />
	</node>
	<node lat="59.73301111325516" lon="10.121722219266859" id="-12853">
		<tag k="name" v="Steinbakken" />
		<tag k="place" v="farm" />
		<tag k="ssr:stedsnr" v="933578" />
	</node>
	<node lat="59.72532777635805" lon="10.1178916625409" id="-12854">
		<tag k="name" v="Eskerud" />
		<tag k="place" v="farm" />
		<tag k="ssr:stedsnr" v="933580" />
	</node>
	<node lat="59.78171111493967" lon="10.126430559212048" id="-12857">
		<tag k="name" v="Rabben" />
		<tag k="place" v="farm" />
		<tag k="ssr:stedsnr" v="933759" />
	</node>
	<node lat="59.75150591183127" lon="10.069409962453905" id="-12859">
		<tag k="fixme" v="consider place=hamlet" />
		<tag k="name" v="Nordenga" />
		<tag k="place" v="farm" />
		<tag k="ssr:stedsnr" v="933949" />
	</node>
	<node lat="59.7567305591155" lon="10.17670833266042" id="-12864">
		<tag k="name" v="Underlia" />
		<tag k="place" v="quarter" />
		<tag k="ssr:stedsnr" v="934481" />
	</node>
	<node lat="59.755297224333034" lon="10.012530549518344" id="-12865">
		<tag k="building" v="industrial" />
		<tag k="industrial" v="factory" />
		<tag k="name" v="Viking Mjøndalen" />
		<tag k="ssr:stedsnr" v="934994" />
	</node>
	<node lat="59.68373055981567" lon="10.26426666378749" id="-12869">
		<tag k="name" v="Bakke" />
		<tag k="place" v="farm" />
		<tag k="ssr:stedsnr" v="889261" />
	</node>
	<node lat="59.68362221811931" lon="10.230516665759932" id="-12871">
		<tag k="name" v="Moheim" />
		<tag k="place" v="isolated_dwelling" />
		<tag k="ssr:stedsnr" v="889305" />
	</node>
	<node lat="59.697469440171524" lon="10.295897215426239" id="-12873">
		<tag k="name" v="Fjordheim" />
		<tag k="place" v="isolated_dwelling" />
		<tag k="ssr:stedsnr" v="889355" />
	</node>
	<node lat="59.69695555881158" lon="10.297013891222207" id="-12874">
		<tag k="name" v="Fjellstrand" />
		<tag k="place" v="isolated_dwelling" />
		<tag k="ssr:stedsnr" v="889361" />
	</node>
	<node lat="59.69916111128456" lon="10.161147229120841" id="-12878">
		<tag k="name" v="Strømli" />
		<tag k="place" v="isolated_dwelling" />
		<tag k="ssr:stedsnr" v="890606" />
	</node>
	<node lat="59.7414194443636" lon="10.210347219633258" id="-12879">
		<tag k="building" v="industrial" />
		<tag k="industrial" v="factory" />
		<tag k="name" v="Aass bryggeri" />
		<tag k="ssr:stedsnr" v="890915" />
	</node>
	<node lat="59.707427777046995" lon="10.222877779559553" id="-12881">
		<tag k="leisure" v="pitch" />
		<tag k="name" v="Gjerpenkollen" />
		<tag k="ssr:stedsnr" v="891054" />
	</node>
	<node lat="59.70723773750738" lon="10.248988533739547" id="-12882">
		<tag k="name" v="Store Solum" />
		<tag k="place" v="farm" />
		<tag k="ssr:stedsnr" v="891056" />
	</node>
	<node lat="59.70458611372429" lon="10.239708336270047" id="-12885">
		<tag k="name" v="Knausen" />
		<tag k="place" v="isolated_dwelling" />
		<tag k="ssr:stedsnr" v="907404" />
	</node>
	<node lat="59.70634444693372" lon="10.22928888833891" id="-12887">
		<tag k="name" v="Heimen" />
		<tag k="place" v="isolated_dwelling" />
		<tag k="ssr:stedsnr" v="907402" />
	</node>
	<node lat="59.66316388743289" lon="10.378516660199711" id="-12889">
		<tag k="name" v="Sagbukta" />
		<tag k="place" v="quarter" />
		<tag k="ssr:stedsnr" v="908899" />
	</node>
	<node lat="59.679571160050116" lon="10.260845546775831" id="-12890">
		<tag k="fixme" v="consider place=hamlet" />
		<tag k="name" v="Lerpe" />
		<tag k="place" v="farm" />
		<tag k="ssr:stedsnr" v="913205" />
	</node>
	<node lat="59.67235277786118" lon="10.193280553993423" id="-12891">
		<tag k="name" v="Sandbråtan" />
		<tag k="place" v="locality" />
		<tag k="ssr:stedsnr" v="913218" />
	</node>
	<node lat="59.68192500432056" lon="10.153688893421018" id="-12892">
		<tag k="alt_name" v="Borgehagen" />
		<tag k="name" v="Borgehagan" />
		<tag k="place" v="farm" />
		<tag k="ssr:stedsnr" v="913224" />
	</node>
	<node lat="59.70327365198064" lon="10.231853337424015" id="-12893">
		<tag k="fixme" v="consider place=hamlet" />
		<tag k="name" v="Gjerpen" />
		<tag k="place" v="farm" />
		<tag k="ssr:stedsnr" v="913288" />
	</node>
	<node lat="59.699305560056054" lon="10.02946388132034" id="-12898">
		<tag k="name" v="Fjellfritt" />
		<tag k="place" v="isolated_dwelling" />
		<tag k="ssr:stedsnr" v="914306" />
	</node>
	<node lat="59.81880277929736" lon="10.030313889141846" id="-12899">
		<tag k="alt_name" v="Lysåkersætra" />
		<tag k="fixme" v="multiple name tags, choose one and add the other to alt_name" />
		<tag k="historic" v="shieling" />
		<tag k="name" v="Lysakervollen;Lysåkersetra" />
		<tag k="place" v="isolated_dwelling" />
		<tag k="ssr:stedsnr" v="914206" />
	</node>
	<node lat="59.825550001101455" lon="10.087358330016864" id="-12900">
		<tag k="historic" v="shieling" />
		<tag k="name" v="Svarthamnsetra" />
		<tag k="place" v="isolated_dwelling" />
		<tag k="ssr:stedsnr" v="914214" />
	</node>
	<node lat="59.75186944525344" lon="10.142841665220129" id="-12902">
		<tag k="leisure" v="pitch" />
		<tag k="name" v="Åssiden idrettsanlegg" />
		<tag k="ssr:stedsnr" v="933635" />
	</node>
	<node lat="59.74776666897267" lon="9.994477786695514" id="-12905">
		<tag k="name" v="Kjøya" />
		<tag k="place" v="quarter" />
		<tag k="ssr:stedsnr" v="933785" />
	</node>
	<node lat="59.7423361069761" lon="10.007272216034503" id="-12907">
		<tag k="name" v="Søndre Viken" />
		<tag k="place" v="farm" />
		<tag k="ssr:stedsnr" v="934939" />
	</node>
	<node lat="59.69256110949565" lon="10.229208341932214" id="-12913">
		<tag k="name" v="Solhaug" />
		<tag k="place" v="isolated_dwelling" />
		<tag k="ssr:stedsnr" v="950292" />
	</node>
	<node lat="59.68500278030587" lon="10.247955561148713" id="-12914">
		<tag k="name" v="Gunheim" />
		<tag k="place" v="isolated_dwelling" />
		<tag k="ssr:stedsnr" v="950296" />
	</node>
	<node lat="59.707797221428514" lon="10.151349992672925" id="-12922">
		<tag k="name" v="Skogly" />
		<tag k="place" v="locality" />
		<tag k="ssr:stedsnr" v="967293" />
	</node>
	<node lat="59.717994444821315" lon="10.124000004465623" id="-12924">
		<tag k="name" v="Demringen" />
		<tag k="place" v="isolated_dwelling" />
		<tag k="ssr:stedsnr" v="967309" />
	</node>
	<node lat="59.74565833425061" lon="10.156691662980352" id="-12926">
		<tag k="leisure" v="pitch" />
		<tag k="name" v="Gulskogen idrettsanlegg" />
		<tag k="ssr:stedsnr" v="968800" />
	</node>
	<node lat="59.751505556103695" lon="10.210355562848303" id="-12928">
		<tag k="name" v="Høyden" />
		<tag k="place" v="locality" />
		<tag k="ssr:stedsnr" v="969789" />
	</node>
	<node lat="59.756555126378" lon="9.999490747437365" id="-12929">
		<tag k="building" v="commercial" />
		<tag k="name" v="Buskerud storsenter" />
		<tag k="ssr:stedsnr" v="982419" />
	</node>
	<node lat="59.71777778125869" lon="10.086533337918928" id="-12934">
		<tag k="name" v="Kinnerud" />
		<tag k="place" v="farm" />
		<tag k="ssr:stedsnr" v="3271" />
	</node>
	<node lat="59.697322224971686" lon="10.001527777984872" id="-12935">
		<tag k="name" v="Gosen" />
		<tag k="place" v="isolated_dwelling" />
		<tag k="ssr:stedsnr" v="3274" />
	</node>
	<node lat="59.761215722081374" lon="10.089900373482303" id="-12939">
		<tag k="fixme" v="consider place=hamlet" />
		<tag k="name" v="Åserud" />
		<tag k="place" v="farm" />
		<tag k="ssr:stedsnr" v="3064" />
	</node>
	<node lat="59.69448557296403" lon="10.252571104591258" id="-12944">
		<tag k="fixme" v="consider place=hamlet" />
		<tag k="name" v="Eik" />
		<tag k="place" v="farm" />
		<tag k="ssr:stedsnr" v="3184" />
	</node>
	<node lat="59.68795278206144" lon="10.326308338785749" id="-12947">
		<tag k="name" v="Sagkleiva" />
		<tag k="place" v="farm" />
		<tag k="ssr:stedsnr" v="3208" />
	</node>
	<node lat="59.68484999709139" lon="10.321425008241901" id="-12948">
		<tag k="alt_name" v="Bråthen;Dambråten" />
		<tag k="name" v="Dambråtan" />
		<tag k="place" v="farm" />
		<tag k="ssr:stedsnr" v="3210" />
	</node>
	<node lat="59.676841120965165" lon="10.196473621253105" id="-12949">
		<tag k="fixme" v="consider place=hamlet" />
		<tag k="name" v="Vestby" />
		<tag k="place" v="farm" />
		<tag k="ssr:stedsnr" v="3220" />
	</node>
	<node lat="59.738891668167824" lon="10.029858325488464" id="-12956">
		<tag k="name" v="Bålerud" />
		<tag k="place" v="farm" />
		<tag k="ssr:stedsnr" v="3322" />
	</node>
	<node lat="59.73806592419532" lon="10.01496421488909" id="-12957">
		<tag k="name" v="Åsen" />
		<tag k="place" v="hamlet" />
		<tag k="ssr:stedsnr" v="3325" />
	</node>
	<node lat="59.75133839196366" lon="10.098841665480892" id="-12958">
		<tag k="name" v="Narverud" />
		<tag k="place" v="hamlet" />
		<tag k="ssr:stedsnr" v="3326" />
	</node>
	<node lat="59.74193333163445" lon="10.142008341680246" id="-12959">
		<tag k="name" v="Gosen" />
		<tag k="place" v="quarter" />
		<tag k="ssr:stedsnr" v="3330" />
	</node>
	<node lat="59.74356709201316" lon="9.969113774928099" id="-12960">
		<tag k="fixme" v="consider place=hamlet" />
		<tag k="name" v="Nikkelsrud" />
		<tag k="place" v="farm" />
		<tag k="ssr:stedsnr" v="3314" />
	</node>
	<node lat="59.769783930185895" lon="9.965594605066007" id="-12961">
		<tag k="name" v="Temte" />
		<tag k="place" v="hamlet" />
		<tag k="ssr:stedsnr" v="3577" />
	</node>
	<node lat="59.58214017301123" lon="10.387800335290335" id="-12962">
		<tag k="alt_name" v="Kind" />
		<tag k="fixme" v="consider place=hamlet" />
		<tag k="name" v="Kinn" />
		<tag k="place" v="farm" />
		<tag k="ssr:stedsnr" v="3697" />
	</node>
	<node lat="59.76907777820241" lon="9.989511115181315" id="-12967">
		<tag k="name" v="Skogly" />
		<tag k="place" v="farm" />
		<tag k="ssr:stedsnr" v="4184" />
	</node>
	<node lat="59.7296555525985" lon="10.127558336732973" id="-12970">
		<tag k="name" v="Bråten" />
		<tag k="place" v="farm" />
		<tag k="ssr:stedsnr" v="22541" />
	</node>
	<node lat="59.76431110825777" lon="10.092311106979238" id="-12971">
		<tag k="name" v="Myre" />
		<tag k="place" v="farm" />
		<tag k="ssr:stedsnr" v="22574" />
	</node>
	<node lat="59.75972499728203" lon="10.105838882145331" id="-12972">
		<tag k="alt_name" v="Vinnes store" />
		<tag k="name" v="Store Vinnes" />
		<tag k="place" v="farm" />
		<tag k="ssr:stedsnr" v="22577" />
	</node>
	<node lat="59.756641669263914" lon="10.12394722682383" id="-12975">
		<tag k="building" v="commercial" />
		<tag k="name" v="Ligo" />
		<tag k="ssr:stedsnr" v="22599" />
	</node>
	<node lat="59.680263892706" lon="10.357441673247934" id="-12976">
		<tag k="name" v="Sletten" />
		<tag k="place" v="farm" />
		<tag k="ssr:stedsnr" v="28159" />
	</node>
	<node lat="59.68122221868798" lon="10.336958336432215" id="-12979">
		<tag k="name" v="Helgerud" />
		<tag k="place" v="farm" />
		<tag k="ssr:stedsnr" v="28383" />
	</node>
	<node lat="59.691252780061774" lon="10.318522220874168" id="-12980">
		<tag k="name" v="Tørkopp" />
		<tag k="place" v="isolated_dwelling" />
		<tag k="ssr:stedsnr" v="28392" />
	</node>
	<node lat="59.714452781220494" lon="10.130566674447866" id="-12985">
		<tag k="name" v="Dalen" />
		<tag k="place" v="quarter" />
		<tag k="ssr:stedsnr" v="39290" />
	</node>
	<node lat="59.71394999834168" lon="10.141997216233822" id="-12986">
		<tag k="name" v="Sevaldsrud" />
		<tag k="place" v="farm" />
		<tag k="ssr:stedsnr" v="39291" />
	</node>
	<node lat="59.71270555856612" lon="10.129155560926769" id="-12987">
		<tag k="name" v="Kroklia" />
		<tag k="place" v="isolated_dwelling" />
		<tag k="ssr:stedsnr" v="39295" />
	</node>
	<node lat="59.71475277350732" lon="10.087608340945888" id="-12989">
		<tag k="name" v="Harestua" />
		<tag k="place" v="isolated_dwelling" />
		<tag k="ssr:stedsnr" v="39298" />
	</node>
	<node lat="59.694244444488255" lon="10.251549999999412" id="-12991">
		<tag k="name" v="Nedre Eik" />
		<tag k="place" v="farm" />
		<tag k="ssr:stedsnr" v="39223" />
	</node>
	<node lat="59.69311666305172" lon="10.22923054851865" id="-12993">
		<tag k="name" v="Solli" />
		<tag k="place" v="isolated_dwelling" />
		<tag k="ssr:stedsnr" v="39234" />
	</node>
	<node lat="59.692102774309106" lon="10.171136110952194" id="-12995">
		<tag k="name" v="Jordbrekk" />
		<tag k="place" v="farm" />
		<tag k="ssr:stedsnr" v="40596" />
	</node>
	<node lat="59.6874500033942" lon="10.200211105280498" id="-12996">
		<tag k="name" v="Løyse" />
		<tag k="place" v="farm" />
		<tag k="ssr:stedsnr" v="40599" />
	</node>
	<node lat="59.71909444617231" lon="10.256213893461403" id="-12997">
		<tag k="name" v="Kopperud" />
		<tag k="place" v="isolated_dwelling" />
		<tag k="ssr:stedsnr" v="40779" />
	</node>
	<node lat="59.68781388980149" lon="10.134980558548502" id="-12998">
		<tag k="name" v="Vestre Åserud" />
		<tag k="place" v="farm" />
		<tag k="ssr:stedsnr" v="40689" />
	</node>
	<node lat="59.76915555169127" lon="10.181294451296758" id="-13003">
		<tag k="name" v="Furuheim" />
		<tag k="place" v="isolated_dwelling" />
		<tag k="ssr:stedsnr" v="41193" />
	</node>
	<node lat="59.77545833442809" lon="10.165275002653669" id="-13004">
		<tag k="name" v="Granbu" />
		<tag k="place" v="isolated_dwelling" />
		<tag k="ssr:stedsnr" v="41137" />
	</node>
	<node lat="59.78799166715249" lon="10.16585277334429" id="-13005">
		<tag k="name" v="Furuhaug" />
		<tag k="place" v="isolated_dwelling" />
		<tag k="ssr:stedsnr" v="41142" />
	</node>
	<node lat="59.70916388859818" lon="10.227419448042735" id="-13006">
		<tag k="name" v="Lynghaugen" />
		<tag k="place" v="isolated_dwelling" />
		<tag k="ssr:stedsnr" v="41046" />
	</node>
	<node lat="59.676949997051096" lon="10.25891389208469" id="-13010">
		<tag k="name" v="Granli" />
		<tag k="place" v="farm" />
		<tag k="ssr:stedsnr" v="42699" />
	</node>
	<node lat="59.66698611053923" lon="10.217286105340529" id="-13011">
		<tag k="name" v="Nygård" />
		<tag k="place" v="farm" />
		<tag k="ssr:stedsnr" v="42644" />
	</node>
	<node lat="59.66651944242436" lon="10.218333328156277" id="-13012">
		<tag k="name" v="Bjørnerudkroken" />
		<tag k="place" v="hamlet" />
		<tag k="ssr:stedsnr" v="42648" />
	</node>
	<node lat="59.67068888650848" lon="10.2123583324925" id="-13013">
		<tag k="name" v="Gata" />
		<tag k="place" v="isolated_dwelling" />
		<tag k="ssr:stedsnr" v="42655" />
	</node>
	<node lat="59.752188886450384" lon="10.170425005460872" id="-13022">
		<tag k="amenity" v="school" />
		<tag k="name" v="Øren skole" />
		<tag k="ssr:stedsnr" v="59751" />
	</node>
	<node lat="59.74473332961795" lon="10.199755557539403" id="-13024">
		<tag k="name" v="Gamle kirkeplass" />
		<tag k="place" v="square" />
		<tag k="ssr:stedsnr" v="59774" />
	</node>
	<node lat="59.685521615388375" lon="10.268088645183555" id="-13029">
		<tag k="fixme" v="consider place=hamlet" />
		<tag k="name" v="Bakke" />
		<tag k="place" v="farm" />
		<tag k="ssr:stedsnr" v="64230" />
	</node>
	<node lat="59.6796138852338" lon="10.026866672287618" id="-13030">
		<tag k="alt_name" v="Nyseter" />
		<tag k="historic" v="shieling" />
		<tag k="name" v="Nysetra" />
		<tag k="place" v="isolated_dwelling" />
		<tag k="ssr:stedsnr" v="64232" />
	</node>
	<node lat="59.67992461507377" lon="10.202650479155029" id="-13033">
		<tag k="fixme" v="consider place=hamlet" />
		<tag k="name" v="Holt" />
		<tag k="place" v="farm" />
		<tag k="ssr:stedsnr" v="64239" />
	</node>
	<node lat="59.684710465436645" lon="10.209507291906965" id="-13037">
		<tag k="name" v="Stein" />
		<tag k="place" v="hamlet" />
		<tag k="ssr:stedsnr" v="64193" />
	</node>
	<node lat="59.714152781353185" lon="10.146555556707705" id="-13039">
		<tag k="name" v="Torsberg" />
		<tag k="place" v="farm" />
		<tag k="ssr:stedsnr" v="64297" />
	</node>
	<node lat="59.57153719569709" lon="10.385775416713658" id="-13041">
		<tag k="fixme" v="consider place=hamlet" />
		<tag k="name" v="Ådne" />
		<tag k="place" v="farm" />
		<tag k="ssr:stedsnr" v="64728" />
	</node>
	<node lat="59.76341110773475" lon="10.078705548289067" id="-13043">
		<tag k="name" v="Solbergelva" />
		<tag k="place" v="village" />
		<tag k="ssr:stedsnr" v="65170" />
	</node>
	<node lat="59.75343888825015" lon="10.116436109127012" id="-13048">
		<tag k="name" v="Fiskerud" />
		<tag k="place" v="farm" />
		<tag k="ssr:stedsnr" v="83910" />
	</node>
	<node lat="59.6787888858426" lon="10.354544440869608" id="-13051">
		<tag k="name" v="Sletta" />
		<tag k="place" v="farm" />
		<tag k="ssr:stedsnr" v="85655" />
	</node>
	<node lat="59.61887500173032" lon="10.401058336402041" id="-13053">
		<tag k="alt_name" v="Solbakken idr. pl." />
		<tag k="leisure" v="pitch" />
		<tag k="name" v="Solbakken idrettsplass" />
		<tag k="ssr:stedsnr" v="89365" />
	</node>
	<node lat="59.60245277556709" lon="10.39106389655612" id="-13054">
		<tag k="name" v="Knem" />
		<tag k="place" v="farm" />
		<tag k="ssr:stedsnr" v="89382" />
	</node>
	<node lat="59.70054444299594" lon="10.229236114881612" id="-13056">
		<tag k="name" v="Fjellhvil" />
		<tag k="place" v="isolated_dwelling" />
		<tag k="ssr:stedsnr" v="100237" />
	</node>
	<node lat="59.68637777887579" lon="10.222836105895272" id="-13057">
		<tag k="name" v="Ingvaldsåsen" />
		<tag k="place" v="farm" />
		<tag k="ssr:stedsnr" v="100257" />
	</node>
	<node lat="59.71156944674265" lon="10.127447223976345" id="-13058">
		<tag k="name" v="Stormli" />
		<tag k="place" v="isolated_dwelling" />
		<tag k="ssr:stedsnr" v="100329" />
	</node>
	<node lat="59.695513893159216" lon="10.29930278141804" id="-13060">
		<tag k="name" v="Kjærsbråten" />
		<tag k="place" v="isolated_dwelling" />
		<tag k="ssr:stedsnr" v="100341" />
	</node>
	<node lat="59.68785277864995" lon="10.17841111142956" id="-13063">
		<tag k="name" v="Nordre Flåtan" />
		<tag k="place" v="farm" />
		<tag k="ssr:stedsnr" v="101592" />
	</node>
	<node lat="59.71123610851624" lon="10.225769439306855" id="-13065">
		<tag k="name" v="Søndre Fjell platå" />
		<tag k="place" v="quarter" />
		<tag k="ssr:stedsnr" v="102038" />
	</node>
	<node lat="59.70829166703366" lon="10.224808330485288" id="-13066">
		<tag k="name" v="Solgløtt" />
		<tag k="place" v="isolated_dwelling" />
		<tag k="ssr:stedsnr" v="102043" />
	</node>
	<node lat="59.78544721889788" lon="10.164055555242628" id="-13069">
		<tag k="name" v="Lynghaug" />
		<tag k="place" v="isolated_dwelling" />
		<tag k="ssr:stedsnr" v="102143" />
	</node>
	<node lat="59.666194442306946" lon="10.223166673072807" id="-13071">
		<tag k="name" v="Bakken" />
		<tag k="place" v="isolated_dwelling" />
		<tag k="ssr:stedsnr" v="103673" />
	</node>
	<node lat="59.74389722509685" lon="10.204530550520518" id="-13073">
		<tag k="name" v="Bragernes torg" />
		<tag k="place" v="square" />
		<tag k="ssr:stedsnr" v="103819" />
	</node>
	<node lat="59.730502775682645" lon="10.239850000242921" id="-13075">
		<tag k="building" v="industrial" />
		<tag k="industrial" v="factory" />
		<tag k="name" v="Drammen Slip &amp; Verksted" />
		<tag k="ssr:stedsnr" v="118125" />
	</node>
	<node lat="59.71731111022786" lon="10.123019442418906" id="-13079">
		<tag k="name" v="Døleplassen" />
		<tag k="place" v="farm" />
		<tag k="ssr:stedsnr" v="118335" />
	</node>
	<node lat="59.716747218420394" lon="10.125824995435408" id="-13080">
		<tag k="name" v="Hallingrud" />
		<tag k="place" v="isolated_dwelling" />
		<tag k="ssr:stedsnr" v="118337" />
	</node>
	<node lat="59.74263055708914" lon="10.209555554093141" id="-13085">
		<tag k="name" v="Grev Wedelss plass" />
		<tag k="place" v="square" />
		<tag k="ssr:stedsnr" v="119859" />
	</node>
	<node lat="59.73920277437056" lon="10.191444446861832" id="-13089">
		<tag k="name" v="Marcus Thranes plass" />
		<tag k="place" v="square" />
		<tag k="ssr:stedsnr" v="119816" />
	</node>
	<node lat="59.54672984906055" lon="10.37978063113938" id="-13091">
		<tag k="alt_name" v="Berger gård" />
		<tag k="fixme" v="consider place=hamlet" />
		<tag k="name" v="Berger" />
		<tag k="place" v="farm" />
		<tag k="ssr:stedsnr" v="124495" />
	</node>
	<node lat="59.713724999664755" lon="10.125752770153031" id="-13096">
		<tag k="name" v="Kollerud" />
		<tag k="place" v="farm" />
		<tag k="ssr:stedsnr" v="124247" />
	</node>
	<node lat="59.703599997727025" lon="10.258913896035176" id="-13097">
		<tag k="alt_name" v="Loland" />
		<tag k="name" v="Låland" />
		<tag k="place" v="farm" />
		<tag k="ssr:stedsnr" v="124250" />
	</node>
	<node lat="59.74505698196503" lon="9.990720412660588" id="-13098">
		<tag k="fixme" v="consider place=hamlet" />
		<tag k="name" v="Bråtan" />
		<tag k="place" v="farm" />
		<tag k="ssr:stedsnr" v="124297" />
	</node>
	<node lat="59.61607970816434" lon="10.396256111951974" id="-13099">
		<tag k="fixme" v="consider place=hamlet" />
		<tag k="name" v="Sverstad" />
		<tag k="place" v="farm" />
		<tag k="ssr:stedsnr" v="124589" />
	</node>
	<node lat="59.613680553702714" lon="10.408747225753388" id="-13100">
		<tag k="name" v="Svelvik" />
		<tag k="place" v="town" />
		<tag k="ssr:stedsnr" v="124591" />
	</node>
	<node lat="59.75829107984244" lon="10.06295252697505" id="-13103">
		<tag k="alt_name" v="Herstrøm" />
		<tag k="fixme" v="consider place=hamlet" />
		<tag k="name" v="Hærstrøm" />
		<tag k="place" v="farm" />
		<tag k="ssr:stedsnr" v="125202" />
	</node>
	<node lat="59.681516668663654" lon="10.359305558562058" id="-13108">
		<tag k="name" v="Tangen" />
		<tag k="place" v="hamlet" />
		<tag k="ssr:stedsnr" v="141964" />
	</node>
	<node lat="59.65818392525363" lon="10.37622420644603" id="-13109">
		<tag k="name" v="Nes" />
		<tag k="place" v="hamlet" />
		<tag k="ssr:stedsnr" v="141965" />
	</node>
	<node lat="59.76584166495343" lon="10.07747223075201" id="-13111">
		<tag k="name" v="Sagstua" />
		<tag k="place" v="farm" />
		<tag k="ssr:stedsnr" v="143856" />
	</node>
	<node lat="59.737097221458775" lon="10.005036113037988" id="-13117">
		<tag k="name" v="Vikåsen" />
		<tag k="place" v="farm" />
		<tag k="ssr:stedsnr" v="145945" />
	</node>
	<node lat="59.58532222368482" lon="10.390230555631732" id="-13120">
		<tag k="name" v="Myre" />
		<tag k="place" v="farm" />
		<tag k="ssr:stedsnr" v="149334" />
	</node>
	<node lat="59.623586111962304" lon="10.402919448470778" id="-13122">
		<tag k="name" v="Juveåsen" />
		<tag k="place" v="quarter" />
		<tag k="ssr:stedsnr" v="163926" />
	</node>
	<node lat="59.6898722266331" lon="10.27275833008588" id="-13123">
		<tag k="name" v="Østengen" />
		<tag k="place" v="locality" />
		<tag k="ssr:stedsnr" v="161262" />
	</node>
	<node lat="59.69150277529447" lon="10.317908336115648" id="-13124">
		<tag k="name" v="Solstrand" />
		<tag k="place" v="isolated_dwelling" />
		<tag k="ssr:stedsnr" v="161272" />
	</node>
	<node lat="59.697594443158124" lon="10.251480558833604" id="-13125">
		<tag k="name" v="Espebo" />
		<tag k="place" v="isolated_dwelling" />
		<tag k="ssr:stedsnr" v="161275" />
	</node>
	<node lat="59.70196944466296" lon="10.240855562872824" id="-13126">
		<tag k="name" v="Gunnerud" />
		<tag k="place" v="isolated_dwelling" />
		<tag k="ssr:stedsnr" v="161276" />
	</node>
	<node lat="59.701897221102364" lon="10.23349722588636" id="-13127">
		<tag k="name" v="Gjerpen" />
		<tag k="place" v="farm" />
		<tag k="ssr:stedsnr" v="161277" />
	</node>
	<node lat="59.70000555831928" lon="10.253080547876895" id="-13128">
		<tag k="name" v="Eikhagen" />
		<tag k="place" v="isolated_dwelling" />
		<tag k="ssr:stedsnr" v="161278" />
	</node>
	<node lat="59.71002777814637" lon="10.128319441700317" id="-13129">
		<tag k="name" v="Rolighet" />
		<tag k="place" v="isolated_dwelling" />
		<tag k="ssr:stedsnr" v="161347" />
	</node>
	<node lat="59.716811114608575" lon="10.091711112259231" id="-13130">
		<tag k="amenity" v="cafe" />
		<tag k="name" v="Skjoldhytta" />
		<tag k="ssr:stedsnr" v="161349" />
	</node>
	<node lat="59.720569447781195" lon="10.266188882323624" id="-13131">
		<tag k="building" v="industrial" />
		<tag k="industrial" v="factory" />
		<tag k="name" v="Drammen glassverk" />
		<tag k="ssr:stedsnr" v="161706" />
	</node>
	<node lat="59.77111666396496" lon="10.157572220404523" id="-13133">
		<tag k="name" v="Myrhaug" />
		<tag k="place" v="isolated_dwelling" />
		<tag k="ssr:stedsnr" v="163182" />
	</node>
	<node lat="59.70823333407061" lon="10.236697216554692" id="-13134">
		<tag k="name" v="Dalbo" />
		<tag k="place" v="isolated_dwelling" />
		<tag k="ssr:stedsnr" v="163041" />
	</node>
	<node lat="59.77431944314792" lon="10.159036108710648" id="-13136">
		<tag k="name" v="Kveldsro" />
		<tag k="place" v="isolated_dwelling" />
		<tag k="ssr:stedsnr" v="163127" />
	</node>
	<node lat="59.780130551807005" lon="10.164011113026783" id="-13137">
		<tag k="name" v="Granli" />
		<tag k="place" v="isolated_dwelling" />
		<tag k="ssr:stedsnr" v="163129" />
	</node>
	<node lat="59.77569166538613" lon="10.168522226180864" id="-13138">
		<tag k="name" v="Stupet" />
		<tag k="place" v="isolated_dwelling" />
		<tag k="ssr:stedsnr" v="163130" />
	</node>
	<node lat="59.7965416632619" lon="10.120108341362693" id="-13140">
		<tag k="fixme" v="consider tourism=alpine_hut or tourism=chalet" />
		<tag k="name" v="Goliaten" />
		<tag k="ssr:stedsnr" v="163512" />
		<tag k="tourism" v="wilderness_hut" />
	</node>
	<node lat="59.716238887306666" lon="10.124263881897008" id="-13150">
		<tag k="name" v="Gurihaugen" />
		<tag k="place" v="isolated_dwelling" />
		<tag k="ssr:stedsnr" v="178318" />
	</node>
	<node lat="59.72692500154065" lon="10.250566672116074" id="-13151">
		<tag k="building" v="industrial" />
		<tag k="industrial" v="factory" />
		<tag k="name" v="Drammen Jernstøperi" />
		<tag k="ssr:stedsnr" v="179153" />
	</node>
	<node lat="59.759884143757084" lon="9.983010908783205" id="-13154">
		<tag k="alt_name" v="Stenberg" />
		<tag k="fixme" v="consider place=hamlet" />
		<tag k="name" v="Steinberg" />
		<tag k="place" v="farm" />
		<tag k="ssr:stedsnr" v="185161" />
	</node>
	<node lat="59.76523709953835" lon="9.97141969172791" id="-13155">
		<tag k="alt_name" v="Horgen" />
		<tag k="fixme" v="consider place=hamlet" />
		<tag k="name" v="Søndre Horgen" />
		<tag k="place" v="farm" />
		<tag k="ssr:stedsnr" v="185162" />
	</node>
	<node lat="59.687111109624105" lon="10.126138893841649" id="-13157">
		<tag k="name" v="Andorsrud" />
		<tag k="place" v="farm" />
		<tag k="ssr:stedsnr" v="185170" />
	</node>
	<node lat="59.68755805968191" lon="10.135652433353963" id="-13158">
		<tag k="name" v="Åserud" />
		<tag k="place" v="hamlet" />
		<tag k="ssr:stedsnr" v="185171" />
	</node>
	<node lat="59.69264721665349" lon="10.17178796665404" id="-13159">
		<tag k="fixme" v="consider place=hamlet" />
		<tag k="name" v="Jordbrekke" />
		<tag k="place" v="farm" />
		<tag k="ssr:stedsnr" v="185175" />
	</node>
	<node lat="59.71216111416285" lon="10.077674993245815" id="-13162">
		<tag k="name" v="Nikkerud" />
		<tag k="place" v="farm" />
		<tag k="ssr:stedsnr" v="185281" />
	</node>
	<node lat="59.709111112162574" lon="10.146358332386686" id="-13164">
		<tag k="alt_name" v="Svendsrud" />
		<tag k="name" v="Svensrud" />
		<tag k="place" v="farm" />
		<tag k="ssr:stedsnr" v="185293" />
	</node>
	<node lat="59.68249214290924" lon="10.347191371014734" id="-13167">
		<tag k="fixme" v="consider place=hamlet" />
		<tag k="name" v="Stomperud" />
		<tag k="place" v="farm" />
		<tag k="ssr:stedsnr" v="185749" />
	</node>
	<node lat="59.74616666943337" lon="10.040241669000869" id="-13168">
		<tag k="alt_name" v="Rygg lille" />
		<tag k="name" v="Mile" />
		<tag k="place" v="farm" />
		<tag k="ssr:stedsnr" v="185354" />
	</node>
	<node lat="59.77312500419477" lon="10.075024993160083" id="-13173">
		<tag k="name" v="Solbergbråtan" />
		<tag k="place" v="farm" />
		<tag k="ssr:stedsnr" v="186162" />
	</node>
	<node lat="59.73324999577472" lon="10.044066661550891" id="-13175">
		<tag k="name" v="Solsetra" />
		<tag k="place" v="farm" />
		<tag k="ssr:stedsnr" v="202982" />
	</node>
	<node lat="59.73109721893756" lon="10.124572227016573" id="-13176">
		<tag k="name" v="Hornvoll" />
		<tag k="place" v="farm" />
		<tag k="ssr:stedsnr" v="204486" />
	</node>
	<node lat="59.751375004450566" lon="10.094255552312656" id="-13177">
		<tag k="alt_name" v="Narverud mellom" />
		<tag k="name" v="Mellom-Narverud" />
		<tag k="place" v="farm" />
		<tag k="ssr:stedsnr" v="204560" />
	</node>
	<node lat="59.75698888636237" lon="10.131052781018889" id="-13178">
		<tag k="amenity" v="school" />
		<tag k="name" v="Kjøsterud ungdomskole" />
		<tag k="ssr:stedsnr" v="204572" />
	</node>
	<node lat="59.769180556592524" lon="10.148474991197872" id="-13180">
		<tag k="name" v="Åsheim" />
		<tag k="place" v="isolated_dwelling" />
		<tag k="ssr:stedsnr" v="204716" />
	</node>
	<node lat="59.747152122265135" lon="10.111445872583003" id="-13181">
		<tag k="fixme" v="consider place=hamlet" />
		<tag k="name" v="Langum" />
		<tag k="place" v="farm" />
		<tag k="ssr:stedsnr" v="204871" />
	</node>
	<node lat="59.75666666323377" lon="10.05872499422501" id="-13182">
		<tag k="name" v="Herstrøm" />
		<tag k="place" v="farm" />
		<tag k="ssr:stedsnr" v="204883" />
	</node>
	<node lat="59.75534722199522" lon="10.115536105974988" id="-13183">
		<tag k="leisure" v="pitch" />
		<tag k="name" v="Drammen travbane" />
		<tag k="ssr:stedsnr" v="204896" />
	</node>
	<node lat="59.68391944420992" lon="10.357947224370417" id="-13201">
		<tag k="name" v="Tangenhavna" />
		<tag k="place" v="quarter" />
		<tag k="ssr:stedsnr" v="210398" />
	</node>
	<node lat="59.69494444578427" lon="10.268491672500646" id="-13202">
		<tag k="name" v="Nedre Knive" />
		<tag k="place" v="farm" />
		<tag k="ssr:stedsnr" v="222233" />
	</node>
	<node lat="59.695700004223546" lon="10.29865278340262" id="-13203">
		<tag k="name" v="Bergly" />
		<tag k="place" v="isolated_dwelling" />
		<tag k="ssr:stedsnr" v="222245" />
	</node>
	<node lat="59.69157777621981" lon="10.315744437541815" id="-13204">
		<tag k="name" v="Sjølyst" />
		<tag k="place" v="isolated_dwelling" />
		<tag k="ssr:stedsnr" v="222248" />
	</node>
	<node lat="59.69485555200597" lon="10.229666673319246" id="-13205">
		<tag k="name" v="Knatten" />
		<tag k="place" v="isolated_dwelling" />
		<tag k="ssr:stedsnr" v="222259" />
	</node>
	<node lat="59.693941670286605" lon="10.213980550948845" id="-13206">
		<tag k="name" v="Furuli" />
		<tag k="place" v="isolated_dwelling" />
		<tag k="ssr:stedsnr" v="222262" />
	</node>
	<node lat="59.70010278044023" lon="10.26909444034117" id="-13207">
		<tag k="name" v="Knive" />
		<tag k="place" v="quarter" />
		<tag k="ssr:stedsnr" v="222338" />
	</node>
	<node lat="59.68428055492373" lon="10.166297219305862" id="-13208">
		<tag k="name" v="Nordre Borge" />
		<tag k="place" v="farm" />
		<tag k="ssr:stedsnr" v="222544" />
	</node>
	<node lat="59.68886683811735" lon="10.12516328229099" id="-13209">
		<tag k="name" v="Fossen" />
		<tag k="place" v="farm" />
		<tag k="ssr:stedsnr" v="222649" />
	</node>
	<node lat="59.68977014532164" lon="10.124888784152839" id="-13210">
		<tag k="name" v="Syvertsløkka" />
		<tag k="place" v="farm" />
		<tag k="ssr:stedsnr" v="222652" />
	</node>
	<node lat="59.71002500216275" lon="10.227680562101044" id="-13213">
		<tag k="name" v="Gunheim" />
		<tag k="place" v="isolated_dwelling" />
		<tag k="ssr:stedsnr" v="224051" />
	</node>
	<node lat="59.70873333710953" lon="10.228452777420344" id="-13214">
		<tag k="name" v="Knausen" />
		<tag k="place" v="isolated_dwelling" />
		<tag k="ssr:stedsnr" v="224060" />
	</node>
	<node lat="59.71677222119648" lon="10.223466666580281" id="-13216">
		<tag k="name" v="Søndre Fjell" />
		<tag k="place" v="isolated_dwelling" />
		<tag k="ssr:stedsnr" v="224074" />
	</node>
	<node lat="59.78098888990184" lon="10.150130548792001" id="-13218">
		<tag k="name" v="Dalro" />
		<tag k="place" v="isolated_dwelling" />
		<tag k="ssr:stedsnr" v="224157" />
	</node>
	<node lat="59.78738333122218" lon="10.163605552809734" id="-13219">
		<tag k="name" v="Skimthygga" />
		<tag k="place" v="isolated_dwelling" />
		<tag k="ssr:stedsnr" v="224164" />
	</node>
	<node lat="59.675155559353925" lon="10.23008055775035" id="-13223">
		<tag k="name" v="Søndre Unnelsrud" />
		<tag k="place" v="farm" />
		<tag k="ssr:stedsnr" v="224668" />
	</node>
	<node lat="59.6713027774193" lon="10.23974166573599" id="-13224">
		<tag k="name" v="Fagertun" />
		<tag k="place" v="isolated_dwelling" />
		<tag k="ssr:stedsnr" v="224671" />
	</node>
	<node lat="59.66719167070175" lon="10.222244445867188" id="-13225">
		<tag k="name" v="Karlsrud" />
		<tag k="place" v="isolated_dwelling" />
		<tag k="ssr:stedsnr" v="224676" />
	</node>
	<node lat="59.69866110955591" lon="10.229930560674461" id="-13228">
		<tag k="name" v="Gunnerud" />
		<tag k="place" v="farm" />
		<tag k="ssr:stedsnr" v="282245" />
	</node>
	<node lat="59.809230556779916" lon="10.115108332151685" id="-13229">
		<tag k="name" v="Fjellbu" />
		<tag k="place" v="isolated_dwelling" />
		<tag k="ssr:stedsnr" v="282249" />
	</node>
	<node lat="59.6973500013498" lon="10.296122222777495" id="-13231">
		<tag k="name" v="Askheim" />
		<tag k="place" v="isolated_dwelling" />
		<tag k="ssr:stedsnr" v="282337" />
	</node>
	<node lat="59.74079444117319" lon="10.195236113096726" id="-13234">
		<tag k="name" v="Drammen godsterminal" />
		<tag k="place" v="quarter" />
		<tag k="ssr:stedsnr" v="284618" />
	</node>
	<node lat="59.69284444438674" lon="10.170752771999163" id="-13236">
		<tag k="name" v="Jordbrekk" />
		<tag k="place" v="farm" />
		<tag k="ssr:stedsnr" v="283550" />
	</node>
	<node lat="59.68852777495631" lon="10.19435277521425" id="-13237">
		<tag k="name" v="Løyse" />
		<tag k="place" v="farm" />
		<tag k="ssr:stedsnr" v="283552" />
	</node>
	<node lat="59.74139444173232" lon="10.22290833109258" id="-13240">
		<tag k="building" v="commercial" />
		<tag k="name" v="CC Varehus" />
		<tag k="ssr:stedsnr" v="283920" />
	</node>
	<node lat="59.73118055888479" lon="10.181822229392163" id="-13241">
		<tag k="landuse" v="winter_sports" />
		<tag k="name" v="Haukåsløypa" />
		<tag k="piste:type" v="downhill" />
		<tag k="ssr:stedsnr" v="284001" />
	</node>
	<node lat="59.70944722002079" lon="10.226861103178019" id="-13242">
		<tag k="name" v="Myra" />
		<tag k="place" v="isolated_dwelling" />
		<tag k="ssr:stedsnr" v="284032" />
	</node>
	<node lat="59.707580553302876" lon="10.229600004360837" id="-13244">
		<tag k="name" v="Gjerpen" />
		<tag k="place" v="farm" />
		<tag k="ssr:stedsnr" v="284043" />
	</node>
	<node lat="59.71554999972011" lon="10.2313333384018" id="-13246">
		<tag k="name" v="Søndre Fjell" />
		<tag k="place" v="locality" />
		<tag k="ssr:stedsnr" v="284055" />
	</node>
	<node lat="59.777705556013544" lon="10.159063883933154" id="-13248">
		<tag k="name" v="Lyngstua" />
		<tag k="place" v="isolated_dwelling" />
		<tag k="ssr:stedsnr" v="284136" />
	</node>
	<node lat="59.7768944456163" lon="10.163525003143215" id="-13249">
		<tag k="name" v="Furua" />
		<tag k="place" v="isolated_dwelling" />
		<tag k="ssr:stedsnr" v="284139" />
	</node>
	<node lat="59.7849666643604" lon="10.14916389654172" id="-13250">
		<tag k="name" v="Fjellro" />
		<tag k="place" v="isolated_dwelling" />
		<tag k="ssr:stedsnr" v="284147" />
	</node>
	<node lat="59.66591389029598" lon="10.217619452039232" id="-13251">
		<tag k="name" v="Bjørnerud" />
		<tag k="place" v="locality" />
		<tag k="ssr:stedsnr" v="285670" />
	</node>
	<node lat="59.66924167019243" lon="10.088352786650928" id="-13255">
		<tag k="name" v="Gampedalstulen" />
		<tag k="place" v="locality" />
		<tag k="ssr:stedsnr" v="285810" />
	</node>
	<node lat="59.72895000130315" lon="10.22259444559794" id="-13258">
		<tag k="amenity" v="school" />
		<tag k="name" v="Brandengen skole" />
		<tag k="ssr:stedsnr" v="298249" />
	</node>
	<node lat="59.718983335389645" lon="10.143575004594569" id="-13260">
		<tag k="name" v="Gramsborg" />
		<tag k="place" v="quarter" />
		<tag k="ssr:stedsnr" v="300361" />
	</node>
	<node lat="59.71811110716833" lon="10.134336110951292" id="-13261">
		<tag k="amenity" v="nursing_home" />
		<tag k="name" v="Granstad" />
		<tag k="ssr:stedsnr" v="300365" />
	</node>
	<node lat="59.74978611242068" lon="10.225152781941572" id="-13263">
		<tag k="name" v="Toppenhaug" />
		<tag k="place" v="quarter" />
		<tag k="ssr:stedsnr" v="301807" />
	</node>
	<node lat="59.74695278115523" lon="10.222772229278169" id="-13264">
		<tag k="leisure" v="park" />
		<tag k="name" v="Løkkebergparken" />
		<tag k="ssr:stedsnr" v="301810" />
	</node>
	<node lat="59.59492221792736" lon="10.338075003838902" id="-13273">
		<tag k="name" v="Lysverkhytta" />
		<tag k="place" v="isolated_dwelling" />
		<tag k="ssr:stedsnr" v="306034" />
	</node>
	<node lat="59.727475003167505" lon="10.155166663330538" id="-13274">
		<tag k="name" v="Gråbeinsletta" />
		<tag k="place" v="isolated_dwelling" />
		<tag k="ssr:stedsnr" v="306260" />
	</node>
	<node lat="59.69666110665639" lon="10.123672230447337" id="-13277">
		<tag k="alt_name" v="Gundesøhytta" />
		<tag k="name" v="Gunsehytta" />
		<tag k="place" v="isolated_dwelling" />
		<tag k="ssr:stedsnr" v="306198" />
	</node>
	<node lat="59.7152319401068" lon="10.26165781305455" id="-13279">
		<tag k="fixme" v="consider place=hamlet" />
		<tag k="name" v="Nordby" />
		<tag k="place" v="farm" />
		<tag k="ssr:stedsnr" v="306270" />
	</node>
	<node lat="59.71330555395618" lon="10.157475006256526" id="-13280">
		<tag k="name" v="Nordli" />
		<tag k="place" v="farm" />
		<tag k="ssr:stedsnr" v="306277" />
	</node>
	<node lat="59.74616110905029" lon="10.165299994997422" id="-13282">
		<tag k="name" v="Gulskogen" />
		<tag k="old_name" v="Skougen, gule" />
		<tag k="place" v="farm" />
		<tag k="ssr:stedsnr" v="306339" />
	</node>
	<node lat="59.59278333276511" lon="10.393825004811031" id="-13287">
		<tag k="name" v="Knem" />
		<tag k="place" v="farm" />
		<tag k="ssr:stedsnr" v="307639" />
	</node>
	<node lat="59.735672220106686" lon="10.044613886378176" id="-13288">
		<tag k="name" v="Olsesetra" />
		<tag k="place" v="farm" />
		<tag k="ssr:stedsnr" v="326585" />
	</node>
	<node lat="59.72982777486218" lon="10.098897215784989" id="-13289">
		<tag k="name" v="Rolighet" />
		<tag k="place" v="farm" />
		<tag k="ssr:stedsnr" v="326539" />
	</node>
	<node lat="59.758794447471885" lon="9.972066663354576" id="-13290">
		<tag k="amenity" v="school" />
		<tag k="name" v="Steinberg skole" />
		<tag k="ssr:stedsnr" v="326540" />
	</node>
	<node lat="59.72472500002249" lon="10.134588893419748" id="-13291">
		<tag k="name" v="Blåbest" />
		<tag k="place" v="isolated_dwelling" />
		<tag k="ssr:stedsnr" v="326544" />
	</node>
	<node lat="59.75367778214595" lon="10.114255549081108" id="-13295">
		<tag k="name" v="Grønvold" />
		<tag k="place" v="farm" />
		<tag k="ssr:stedsnr" v="326917" />
	</node>
	<node lat="59.65052222400254" lon="10.387613884370001" id="-13297">
		<tag k="name" v="Landet" />
		<tag k="place" v="isolated_dwelling" />
		<tag k="ssr:stedsnr" v="327747" />
	</node>
	<node lat="59.72993215478931" lon="10.205697949301104" id="-13300">
		<tag k="fixme" v="consider place=hamlet" />
		<tag k="name" v="Austad" />
		<tag k="place" v="farm" />
		<tag k="ssr:stedsnr" v="330149" />
	</node>
	<node lat="59.69013610719769" lon="10.334044442997362" id="-13302">
		<tag k="name" v="Bråten" />
		<tag k="place" v="farm" />
		<tag k="ssr:stedsnr" v="331369" />
	</node>
	<node lat="59.59631388890801" lon="10.376327775078291" id="-13304">
		<tag k="name" v="Kirkestuvollen" />
		<tag k="place" v="locality" />
		<tag k="ssr:stedsnr" v="331162" />
	</node>
	<node lat="59.563819446261604" lon="10.400688885481136" id="-13307">
		<tag k="name" v="Krokshaga" />
		<tag k="place" v="farm" />
		<tag k="ssr:stedsnr" v="331347" />
	</node>
	<node lat="59.700597226553555" lon="10.230302776450964" id="-13309">
		<tag k="name" v="Bjerkebo" />
		<tag k="place" v="isolated_dwelling" />
		<tag k="ssr:stedsnr" v="343246" />
	</node>
	<node lat="59.68591111461635" lon="10.26823889313099" id="-13310">
		<tag k="name" v="Bakke" />
		<tag k="place" v="farm" />
		<tag k="ssr:stedsnr" v="343250" />
	</node>
	<node lat="59.71221388761814" lon="10.128677784572737" id="-13312">
		<tag k="name" v="Hallerud" />
		<tag k="place" v="locality" />
		<tag k="ssr:stedsnr" v="343312" />
	</node>
	<node lat="59.70152777379232" lon="10.284022215358753" id="-13313">
		<tag k="name" v="Åsnes" />
		<tag k="place" v="isolated_dwelling" />
		<tag k="ssr:stedsnr" v="343317" />
	</node>
	<node lat="59.696211108136524" lon="10.297819447164777" id="-13314">
		<tag k="name" v="Solhøy" />
		<tag k="place" v="isolated_dwelling" />
		<tag k="ssr:stedsnr" v="343324" />
	</node>
	<node lat="59.69500555892593" lon="10.300722222097075" id="-13315">
		<tag k="name" v="Dano" />
		<tag k="place" v="isolated_dwelling" />
		<tag k="ssr:stedsnr" v="343325" />
	</node>
	<node lat="59.698697219227796" lon="10.158786112336614" id="-13316">
		<tag k="name" v="Fossan" />
		<tag k="place" v="farm" />
		<tag k="ssr:stedsnr" v="343583" />
	</node>
	<node lat="59.742016665329615" lon="10.170141670216942" id="-13318">
		<tag k="building" v="industrial" />
		<tag k="industrial" v="factory" />
		<tag k="name" v="Eidsfoss verk" />
		<tag k="ssr:stedsnr" v="345036" />
	</node>
	<node lat="59.78009444761736" lon="10.168036114002389" id="-13320">
		<tag k="name" v="Blinken" />
		<tag k="place" v="isolated_dwelling" />
		<tag k="ssr:stedsnr" v="345152" />
	</node>
	<node lat="59.74938611416003" lon="10.18970833673398" id="-13326">
		<tag k="amenity" v="school" />
		<tag k="name" v="Børresens skole" />
		<tag k="ssr:stedsnr" v="345836" />
	</node>
	<node lat="59.705730552645754" lon="10.2296583385768" id="-13329">
		<tag k="name" v="Stubbhaugen" />
		<tag k="place" v="isolated_dwelling" />
		<tag k="ssr:stedsnr" v="360401" />
	</node>
	<node lat="59.71671667055016" lon="10.15323889096072" id="-13331">
		<tag k="name" v="Solberg" />
		<tag k="place" v="farm" />
		<tag k="ssr:stedsnr" v="360395" />
	</node>
	<node lat="59.749058332722036" lon="10.165083327139605" id="-13332">
		<tag k="name" v="Fløya" />
		<tag k="place" v="isolated_dwelling" />
		<tag k="ssr:stedsnr" v="362724" />
	</node>
	<node lat="59.676151001490396" lon="10.209600171050266" id="-13338">
		<tag k="name" v="Haneval" />
		<tag k="place" v="hamlet" />
		<tag k="ssr:stedsnr" v="367191" />
	</node>
	<node lat="59.70056389023534" lon="10.194088880860017" id="-13343">
		<tag k="name" v="Moldbakken" />
		<tag k="place" v="locality" />
		<tag k="ssr:stedsnr" v="367251" />
	</node>
	<node lat="59.727002781950425" lon="10.091383330984115" id="-13344">
		<tag k="name" v="Stubberud" />
		<tag k="place" v="farm" />
		<tag k="ssr:stedsnr" v="367199" />
	</node>
	<node lat="59.75455278211292" lon="9.96696388690407" id="-13348">
		<tag k="name" v="Nedberg" />
		<tag k="place" v="farm" />
		<tag k="ssr:stedsnr" v="386477" />
	</node>
	<node lat="59.72527777657349" lon="10.114419439040272" id="-13351">
		<tag k="name" v="Asken" />
		<tag k="place" v="farm" />
		<tag k="ssr:stedsnr" v="386485" />
	</node>
	<node lat="59.75438055788816" lon="10.102919442873777" id="-13355">
		<tag k="name" v="Strandhagen gartneri" />
		<tag k="place" v="farm" />
		<tag k="ssr:stedsnr" v="386571" />
	</node>
	<node lat="59.75294722385027" lon="10.146430562777956" id="-13356">
		<tag k="building" v="industrial" />
		<tag k="name" v="Fina Servicenter" />
		<tag k="ssr:stedsnr" v="386592" />
	</node>
	<node lat="59.744805558114834" lon="10.123855557225326" id="-13358">
		<tag k="name" v="Nordre Pukerud" />
		<tag k="place" v="farm" />
		<tag k="ssr:stedsnr" v="386891" />
	</node>
	<node lat="59.54378332947446" lon="10.369980563827125" id="-13368">
		<tag k="name" v="Berger" />
		<tag k="place" v="farm" />
		<tag k="ssr:stedsnr" v="392029" />
	</node>
	<node lat="59.65391169952743" lon="10.383777517061677" id="-13369">
		<tag k="fixme" v="consider place=hamlet" />
		<tag k="name" v="Engeland" />
		<tag k="place" v="farm" />
		<tag k="ssr:stedsnr" v="392322" />
	</node>
	<node lat="59.57294444671172" lon="10.386966673257342" id="-13373">
		<tag k="name" v="Ådne" />
		<tag k="place" v="farm" />
		<tag k="ssr:stedsnr" v="392363" />
	</node>
	<node lat="59.617238892360085" lon="10.398544448869817" id="-13375">
		<tag k="name" v="Ødegårdsgrenda" />
		<tag k="place" v="quarter" />
		<tag k="ssr:stedsnr" v="392372" />
	</node>
	<node lat="59.61863679678769" lon="10.403810526058892" id="-13376">
		<tag k="name" v="Høyerløkka" />
		<tag k="place" v="farm" />
		<tag k="ssr:stedsnr" v="392374" />
	</node>
	<node lat="59.66453291302931" lon="10.006509789827437" id="-13377">
		<tag k="name" v="Edvardstua" />
		<tag k="place" v="locality" />
		<tag k="ssr:stedsnr" v="403856" />
	</node>
	<node lat="59.68240555750883" lon="10.262227780186755" id="-13380">
		<tag k="name" v="Fagerlund" />
		<tag k="place" v="isolated_dwelling" />
		<tag k="ssr:stedsnr" v="403269" />
	</node>
	<node lat="59.72555555743439" lon="10.237799999667008" id="-13381">
		<tag k="alt_name" v="Ulvekula" />
		<tag k="leisure" v="pitch" />
		<tag k="name" v="Ulvekula idrettsplass" />
		<tag k="ssr:stedsnr" v="403956" />
	</node>
	<node lat="59.69272499569366" lon="10.308788889309172" id="-13383">
		<tag k="name" v="Lyngheim" />
		<tag k="place" v="isolated_dwelling" />
		<tag k="ssr:stedsnr" v="404251" />
	</node>
	<node lat="59.69253055282775" lon="10.31121666870106" id="-13384">
		<tag k="name" v="Fjordvik" />
		<tag k="place" v="isolated_dwelling" />
		<tag k="ssr:stedsnr" v="404253" />
	</node>
	<node lat="59.696416669331846" lon="10.292552784603785" id="-13385">
		<tag k="name" v="Grønlien" />
		<tag k="place" v="isolated_dwelling" />
		<tag k="ssr:stedsnr" v="404256" />
	</node>
	<node lat="59.72077222406472" lon="10.091733329526633" id="-13386">
		<tag k="name" v="Finnbo" />
		<tag k="place" v="isolated_dwelling" />
		<tag k="ssr:stedsnr" v="404338" />
	</node>
	<node lat="59.695969443411435" lon="10.295766674313105" id="-13387">
		<tag k="name" v="Lindhaug" />
		<tag k="place" v="isolated_dwelling" />
		<tag k="ssr:stedsnr" v="404346" />
	</node>
	<node lat="59.753530556574844" lon="9.99558333580797" id="-13389">
		<tag k="building" v="industrial" />
		<tag k="industrial" v="factory" />
		<tag k="name" v="Eker papirfabrikk" />
		<tag k="ssr:stedsnr" v="448791" />
	</node>
	<node lat="59.741158329797614" lon="10.168811103142605" id="-13393">
		<tag k="amenity" v="school" />
		<tag k="name" v="Gulskogen skole" />
		<tag k="ssr:stedsnr" v="406009" />
	</node>
	<node lat="59.702552774741854" lon="10.245694453172652" id="-13404">
		<tag k="name" v="Engene" />
		<tag k="place" v="isolated_dwelling" />
		<tag k="ssr:stedsnr" v="421433" />
	</node>
	<node lat="59.7518499961958" lon="10.185166674617776" id="-13405">
		<tag k="amenity" v="nursing_home" />
		<tag k="name" v="Sanitetsforeningens klinikk" />
		<tag k="ssr:stedsnr" v="423793" />
	</node>
	<node lat="59.690222224121285" lon="10.128650005672178" id="-13409">
		<tag k="name" v="Gloropp" />
		<tag k="place" v="farm" />
		<tag k="ssr:stedsnr" v="428171" />
	</node>
	<node lat="59.69060722041062" lon="10.256469132271807" id="-13410">
		<tag k="fixme" v="consider place=hamlet" />
		<tag k="name" v="Lindum" />
		<tag k="place" v="farm" />
		<tag k="ssr:stedsnr" v="428181" />
	</node>
	<node lat="59.76256831568991" lon="10.058086797888977" id="-13416">
		<tag k="fixme" v="consider place=hamlet" />
		<tag k="name" v="Solberg" />
		<tag k="place" v="farm" />
		<tag k="ssr:stedsnr" v="428159" />
	</node>
	<node lat="59.70933693622102" lon="10.253639050433458" id="-13417">
		<tag k="fixme" v="consider place=hamlet" />
		<tag k="name" v="Nordre Solum" />
		<tag k="place" v="farm" />
		<tag k="ssr:stedsnr" v="428281" />
	</node>
	<node lat="59.709888889007416" lon="10.150463885837302" id="-13418">
		<tag k="name" v="Dambråtan" />
		<tag k="place" v="isolated_dwelling" />
		<tag k="ssr:stedsnr" v="428286" />
	</node>
	<node lat="59.724686107170285" lon="10.058033336384181" id="-13419">
		<tag k="name" v="Dalen" />
		<tag k="place" v="isolated_dwelling" />
		<tag k="ssr:stedsnr" v="428239" />
	</node>
	<node lat="59.73521388474307" lon="10.205980564045598" id="-13420">
		<tag k="name" v="Strømsø" />
		<tag k="place" v="suburb" />
		<tag k="ssr:stedsnr" v="428245" />
	</node>
	<node lat="59.72044453405167" lon="10.212214616371426" id="-13421">
		<tag k="name" v="Galterud" />
		<tag k="place" v="quarter" />
		<tag k="ssr:stedsnr" v="428255" />
	</node>
	<node lat="59.68640555256807" lon="10.352502773635958" id="-13422">
		<tag k="alt_name" v="Syvertsvollen" />
		<tag k="name" v="Syversvollen" />
		<tag k="place" v="isolated_dwelling" />
		<tag k="ssr:stedsnr" v="428755" />
	</node>
	<node lat="59.75816666578216" lon="10.005894441251648" id="-13423">
		<tag k="name" v="Krokstadelva" />
		<tag k="place" v="village" />
		<tag k="ssr:stedsnr" v="429158" />
	</node>
	<node lat="59.72959444236518" lon="10.119269447912721" id="-13424">
		<tag k="name" v="Kalløkka" />
		<tag k="place" v="isolated_dwelling" />
		<tag k="ssr:stedsnr" v="447495" />
	</node>
	<node lat="59.778813889811964" lon="10.036136116540266" id="-13426">
		<tag k="name" v="Vadalstua" />
		<tag k="place" v="isolated_dwelling" />
		<tag k="ssr:stedsnr" v="447460" />
	</node>
	<node lat="59.72405000092056" lon="10.08069166635955" id="-13427">
		<tag k="name" v="Tjernbo" />
		<tag k="place" v="isolated_dwelling" />
		<tag k="ssr:stedsnr" v="447547" />
	</node>
	<node lat="59.72491110727347" lon="10.0808444372854" id="-13428">
		<tag k="name" v="Åsli" />
		<tag k="place" v="farm" />
		<tag k="ssr:stedsnr" v="447549" />
	</node>
	<node lat="59.75643611231456" lon="10.08811111372739" id="-13431">
		<tag k="name" v="Åserud teglverk" />
		<tag k="place" v="quarter" />
		<tag k="ssr:stedsnr" v="447856" />
	</node>
	<node lat="59.612593760440234" lon="10.387210266849912" id="-13432">
		<tag k="fixme" v="consider place=hamlet" />
		<tag k="name" v="Eik" />
		<tag k="place" v="farm" />
		<tag k="ssr:stedsnr" v="670635" />
	</node>
	<node lat="59.654544448861984" lon="10.385969451153898" id="-13433">
		<tag k="fixme" v="consider place=suburb, village or hamlet" />
		<tag k="name" v="Hella" />
		<tag k="place" v="quarter" />
		<tag k="ssr:stedsnr" v="505960" />
	</node>
	<node lat="59.72660833375013" lon="10.103777772075079" id="-13434">
		<tag k="name" v="Skjønhaug" />
		<tag k="place" v="farm" />
		<tag k="ssr:stedsnr" v="508563" />
	</node>
	<node lat="59.73118333373547" lon="10.115605559754867" id="-13435">
		<tag k="name" v="Nedre Kollen" />
		<tag k="place" v="farm" />
		<tag k="ssr:stedsnr" v="508569" />
	</node>
	<node lat="59.7563055542938" lon="10.125683326539383" id="-13438">
		<tag k="building" v="industrial" />
		<tag k="name" v="Åssiden Servicenter" />
		<tag k="ssr:stedsnr" v="508639" />
	</node>
	<node lat="59.76306612411915" lon="9.98352560586172" id="-13441">
		<tag k="fixme" v="consider place=hamlet" />
		<tag k="name" v="Brekke" />
		<tag k="place" v="farm" />
		<tag k="ssr:stedsnr" v="508777" />
	</node>
	<node lat="59.73106666854715" lon="9.984688885918983" id="-13444">
		<tag k="name" v="Sagbråten" />
		<tag k="place" v="farm" />
		<tag k="ssr:stedsnr" v="509984" />
	</node>
	<node lat="59.755247224117205" lon="10.009386107791219" id="-13445">
		<tag k="leisure" v="park" />
		<tag k="name" v="Bjørkelund" />
		<tag k="ssr:stedsnr" v="509990" />
	</node>
	<node lat="59.660113887530365" lon="10.376158331853537" id="-13446">
		<tag k="name" v="Øst-Næss" />
		<tag k="place" v="farm" />
		<tag k="ssr:stedsnr" v="513133" />
	</node>
	<node lat="59.679569448841214" lon="10.361138888290991" id="-13448">
		<tag k="name" v="Skjønvik" />
		<tag k="place" v="farm" />
		<tag k="ssr:stedsnr" v="513151" />
	</node>
	<node lat="59.67541483338948" lon="10.36758348994282" id="-13449">
		<tag k="alt_name" v="Havnevik store" />
		<tag k="fixme" v="consider place=hamlet" />
		<tag k="name" v="Store Havnevik" />
		<tag k="place" v="farm" />
		<tag k="ssr:stedsnr" v="513158" />
	</node>
	<node lat="59.60755525698023" lon="10.397660298140726" id="-13450">
		<tag k="name" v="Tømmerås" />
		<tag k="place" v="hamlet" />
		<tag k="ssr:stedsnr" v="513389" />
	</node>
	<node lat="59.68665555689942" lon="10.349444444073466" id="-13452">
		<tag k="name" v="Grønli" />
		<tag k="place" v="quarter" />
		<tag k="ssr:stedsnr" v="513401" />
	</node>
	<node lat="59.65776944497291" lon="10.071477776724905" id="-13454">
		<tag k="name" v="Vesle Gravdal" />
		<tag k="place" v="locality" />
		<tag k="ssr:stedsnr" v="525842" />
	</node>
	<node lat="59.694266664686694" lon="10.211699993808836" id="-13455">
		<tag k="name" v="Mælen" />
		<tag k="place" v="farm" />
		<tag k="ssr:stedsnr" v="525308" />
	</node>
	<node lat="59.684844441889204" lon="10.249316669130282" id="-13457">
		<tag k="name" v="Solvang" />
		<tag k="place" v="isolated_dwelling" />
		<tag k="ssr:stedsnr" v="525312" />
	</node>
	<node lat="59.697074999148946" lon="10.29678888969444" id="-13459">
		<tag k="name" v="Strandvik" />
		<tag k="place" v="isolated_dwelling" />
		<tag k="ssr:stedsnr" v="525378" />
	</node>
	<node lat="59.69079166296225" lon="10.143713897024277" id="-13460">
		<tag k="name" v="Granhaug" />
		<tag k="place" v="isolated_dwelling" />
		<tag k="ssr:stedsnr" v="525669" />
	</node>
	<node lat="59.6838694463346" lon="10.129927772368173" id="-13461">
		<tag k="name" v="Haveråen" />
		<tag k="place" v="farm" />
		<tag k="ssr:stedsnr" v="525671" />
	</node>
	<node lat="59.712830555414406" lon="10.26029722219785" id="-13464">
		<tag k="amenity" v="school" />
		<tag k="name" v="Åskollen skole" />
		<tag k="ssr:stedsnr" v="527043" />
	</node>
	<node lat="59.70819999645449" lon="10.227686118157452" id="-13465">
		<tag k="name" v="Fredtun" />
		<tag k="place" v="isolated_dwelling" />
		<tag k="ssr:stedsnr" v="527048" />
	</node>
	<node lat="59.793644439978245" lon="10.130322228566747" id="-13468">
		<tag k="name" v="Klunken" />
		<tag k="place" v="isolated_dwelling" />
		<tag k="ssr:stedsnr" v="527191" />
	</node>
	<node lat="59.767919441793914" lon="10.153774999521437" id="-13469">
		<tag k="name" v="Fjelldokka" />
		<tag k="place" v="isolated_dwelling" />
		<tag k="ssr:stedsnr" v="527195" />
	</node>
	<node lat="59.72185000227115" lon="10.133891674193995" id="-13474">
		<tag k="amenity" v="school" />
		<tag k="name" v="Konnerud skole" />
		<tag k="ssr:stedsnr" v="542328" />
	</node>
	<node lat="59.71958333293874" lon="10.137513896675861" id="-13476">
		<tag k="name" v="Jørandsrud" />
		<tag k="place" v="isolated_dwelling" />
		<tag k="ssr:stedsnr" v="542337" />
	</node>
	<node lat="59.692711961655974" lon="10.184011596370514" id="-13480">
		<tag k="fixme" v="consider place=hamlet" />
		<tag k="name" v="Nedre Skjeldrum" />
		<tag k="place" v="farm" />
		<tag k="ssr:stedsnr" v="548217" />
	</node>
	<node lat="59.74796727991031" lon="10.14514535998798" id="-13482">
		<tag k="fixme" v="consider place=hamlet" />
		<tag k="name" v="Lillemoen" />
		<tag k="place" v="farm" />
		<tag k="ssr:stedsnr" v="548386" />
	</node>
	<node lat="59.80625277770277" lon="10.070024995927971" id="-13484">
		<tag k="historic" v="shieling" />
		<tag k="name" v="Solbergsetra" />
		<tag k="place" v="isolated_dwelling" />
		<tag k="ssr:stedsnr" v="549232" />
	</node>
	<node lat="59.679316670369815" lon="10.067813895959361" id="-13487">
		<tag k="name" v="Rønnehue" />
		<tag k="place" v="isolated_dwelling" />
		<tag k="ssr:stedsnr" v="549243" />
	</node>
	<node lat="59.75783980655835" lon="10.09991210138421" id="-13488">
		<tag k="name" v="Vinnes" />
		<tag k="place" v="hamlet" />
		<tag k="ssr:stedsnr" v="549086" />
	</node>
	<node lat="59.731177131038315" lon="10.115370437075816" id="-13489">
		<tag k="name" v="Kollen" />
		<tag k="place" v="farm" />
		<tag k="ssr:stedsnr" v="549266" />
	</node>
	<node lat="59.72152777620315" lon="10.036299995975597" id="-13490">
		<tag k="historic" v="shieling" />
		<tag k="name" v="Kroksetra" />
		<tag k="place" v="isolated_dwelling" />
		<tag k="ssr:stedsnr" v="549270" />
	</node>
	<node lat="59.72190833524692" lon="10.164405561234581" id="-13492">
		<tag k="name" v="Skjerpholt" />
		<tag k="place" v="isolated_dwelling" />
		<tag k="ssr:stedsnr" v="549282" />
	</node>
	<node lat="59.71280277753649" lon="9.980902778068089" id="-13493">
		<tag k="name" v="Dammyr" />
		<tag k="place" v="farm" />
		<tag k="ssr:stedsnr" v="549287" />
	</node>
	<node lat="59.71466944549621" lon="10.157116664734161" id="-13494">
		<tag k="name" v="Skjelsbekk" />
		<tag k="place" v="farm" />
		<tag k="ssr:stedsnr" v="549299" />
	</node>
	<node lat="59.77020277333427" lon="9.994833337699301" id="-13501">
		<tag k="name" v="Hovjordet" />
		<tag k="place" v="quarter" />
		<tag k="ssr:stedsnr" v="566192" />
	</node>
	<node lat="59.72893333437715" lon="10.098663881338712" id="-13502">
		<tag k="name" v="Hygga" />
		<tag k="place" v="farm" />
		<tag k="ssr:stedsnr" v="568494" />
	</node>
	<node lat="59.7608972245835" lon="10.063177783850845" id="-13504">
		<tag k="name" v="Hjelmeng" />
		<tag k="place" v="farm" />
		<tag k="ssr:stedsnr" v="568926" />
	</node>
	<node lat="59.75534313780334" lon="10.018519018228675" id="-13505">
		<tag k="fixme" v="consider place=hamlet" />
		<tag k="name" v="Møllenhof" />
		<tag k="place" v="farm" />
		<tag k="ssr:stedsnr" v="569989" />
	</node>
	<node lat="59.66902499923678" lon="10.366466668366286" id="-13514">
		<tag k="name" v="Havnevik" />
		<tag k="place" v="farm" />
		<tag k="ssr:stedsnr" v="574169" />
	</node>
	<node lat="59.567134948053926" lon="10.393260356006435" id="-13518">
		<tag k="alt_name" v="Høyen mellom" />
		<tag k="fixme" v="consider place=hamlet" />
		<tag k="name" v="Mellom-Høyen" />
		<tag k="place" v="farm" />
		<tag k="ssr:stedsnr" v="574370" />
	</node>
	<node lat="59.59081388701" lon="10.392763882630225" id="-13519">
		<tag k="name" v="Knem" />
		<tag k="place" v="farm" />
		<tag k="ssr:stedsnr" v="574373" />
	</node>
	<node lat="59.68117777995852" lon="10.248558339650872" id="-13524">
		<tag k="name" v="Nedre Gunnarsrud" />
		<tag k="place" v="farm" />
		<tag k="ssr:stedsnr" v="585260" />
	</node>
	<node lat="59.682944444891795" lon="10.2336361095936" id="-13525">
		<tag k="name" v="Søndre Gunnarsrud" />
		<tag k="place" v="farm" />
		<tag k="ssr:stedsnr" v="585262" />
	</node>
	<node lat="59.70009999787539" lon="10.241941670962133" id="-13526">
		<tag k="name" v="Åsly" />
		<tag k="place" v="farm" />
		<tag k="ssr:stedsnr" v="585229" />
	</node>
	<node lat="59.69426666444036" lon="10.206886114414676" id="-13530">
		<tag k="name" v="Mælen" />
		<tag k="place" v="farm" />
		<tag k="ssr:stedsnr" v="586585" />
	</node>
	<node lat="59.69089999623974" lon="10.140680552372663" id="-13531">
		<tag k="name" v="Galås" />
		<tag k="place" v="farm" />
		<tag k="ssr:stedsnr" v="586680" />
	</node>
	<node lat="59.711544447318985" lon="10.233211118543336" id="-13532">
		<tag k="name" v="Orhaug" />
		<tag k="place" v="isolated_dwelling" />
		<tag k="ssr:stedsnr" v="587031" />
	</node>
	<node lat="59.72351110875683" lon="10.257355554078403" id="-13535">
		<tag k="building" v="industrial" />
		<tag k="industrial" v="factory" />
		<tag k="name" v="Nøsted bruk" />
		<tag k="ssr:stedsnr" v="587056" />
	</node>
	<node lat="59.71871388743039" lon="10.137430563624896" id="-13545">
		<tag k="name" v="Gården" />
		<tag k="place" v="isolated_dwelling" />
		<tag k="ssr:stedsnr" v="603328" />
	</node>
	<node lat="59.71531944647029" lon="10.127858333502548" id="-13546">
		<tag k="name" v="Myrstua" />
		<tag k="place" v="isolated_dwelling" />
		<tag k="ssr:stedsnr" v="603332" />
	</node>
	<node lat="59.716952775516944" lon="10.128961109022894" id="-13547">
		<tag k="name" v="Jansholt" />
		<tag k="place" v="isolated_dwelling" />
		<tag k="ssr:stedsnr" v="603334" />
	</node>
	<node lat="59.74559444236839" lon="10.17074722538837" id="-13553">
		<tag k="building" v="industrial" />
		<tag k="industrial" v="factory" />
		<tag k="name" v="Sundland papirfabrikk" />
		<tag k="ssr:stedsnr" v="605700" />
	</node>
	<node lat="59.68435776740453" lon="10.1262777553083" id="-13555">
		<tag k="fixme" v="consider place=hamlet" />
		<tag k="name" v="Furuvoll" />
		<tag k="place" v="farm" />
		<tag k="ssr:stedsnr" v="609230" />
	</node>
	<node lat="59.729255554157945" lon="10.08243611082088" id="-13557">
		<tag k="name" v="Treholt" />
		<tag k="place" v="farm" />
		<tag k="ssr:stedsnr" v="609243" />
	</node>
	<node lat="59.72724444281056" lon="10.236705547449766" id="-13558">
		<tag k="name" v="Sankt Hansberget" />
		<tag k="place" v="quarter" />
		<tag k="ssr:stedsnr" v="609266" />
	</node>
	<node lat="59.73106944163097" lon="9.975358325172017" id="-13560">
		<tag k="name" v="Myra" />
		<tag k="place" v="farm" />
		<tag k="ssr:stedsnr" v="609353" />
	</node>
	<node lat="59.74056111010513" lon="10.031527771394524" id="-13562">
		<tag k="name" v="Bakken" />
		<tag k="place" v="farm" />
		<tag k="ssr:stedsnr" v="609359" />
	</node>
	<node lat="59.7438910297181" lon="10.204482411245758" id="-13564">
		<tag k="name" v="Drammen" />
		<tag k="place" v="town" />
		<tag k="ssr:stedsnr" v="609364" />
	</node>
	<node lat="59.75731944351388" lon="10.158216671726882" id="-13567">
		<tag k="name" v="Bråtan" />
		<tag k="place" v="quarter" />
		<tag k="ssr:stedsnr" v="610072" />
	</node>
	<node lat="59.758047224194435" lon="10.11350278481226" id="-13568">
		<tag k="name" v="Kjøsterud" />
		<tag k="place" v="farm" />
		<tag k="ssr:stedsnr" v="610078" />
	</node>
	<node lat="59.603658330565295" lon="10.332516659158562" id="-13570">
		<tag k="name" v="Sandohytta" />
		<tag k="place" v="isolated_dwelling" />
		<tag k="ssr:stedsnr" v="610119" />
	</node>
	<node lat="59.718662210838644" lon="10.221010546924473" id="-13573">
		<tag k="name" v="Fjell" />
		<tag k="place" v="suburb" />
		<tag k="ssr:stedsnr" v="610324" />
	</node>
	<node lat="59.68665555622435" lon="10.349461105787125" id="-13576">
		<tag k="name" v="Grønlia" />
		<tag k="place" v="quarter" />
		<tag k="ssr:stedsnr" v="626987" />
	</node>
	<node lat="59.75508333577502" lon="10.128669452625216" id="-13577">
		<tag k="building" v="commercial" />
		<tag k="name" v="Campinggården" />
		<tag k="ssr:stedsnr" v="629614" />
	</node>
	<node lat="59.72945555133097" lon="10.087130563943475" id="-13578">
		<tag k="name" v="Endeli" />
		<tag k="place" v="farm" />
		<tag k="ssr:stedsnr" v="629567" />
	</node>
	<node lat="59.74418263219074" lon="10.131132305044506" id="-13580">
		<tag k="fixme" v="consider place=hamlet" />
		<tag k="name" v="Kleggen" />
		<tag k="place" v="farm" />
		<tag k="ssr:stedsnr" v="629576" />
	</node>
	<node lat="59.75340277514022" lon="10.11951389078589" id="-13581">
		<tag k="name" v="Bekkevoll" />
		<tag k="place" v="farm" />
		<tag k="ssr:stedsnr" v="629900" />
	</node>
	<node lat="59.76202222179464" lon="10.077058332243862" id="-13583">
		<tag k="amenity" v="school" />
		<tag k="name" v="Killingrud ungdomsskole" />
		<tag k="ssr:stedsnr" v="629888" />
	</node>
	<node lat="59.74181667051727" lon="10.02874166102803" id="-13585">
		<tag k="name" v="Bakkebruddet" />
		<tag k="place" v="quarter" />
		<tag k="ssr:stedsnr" v="630957" />
	</node>
	<node lat="59.68810555392819" lon="10.345627770662029" id="-13590">
		<tag k="name" v="Nordli" />
		<tag k="place" v="isolated_dwelling" />
		<tag k="ssr:stedsnr" v="634390" />
	</node>
	<node lat="59.686238885865556" lon="10.340975001333447" id="-13591">
		<tag k="name" v="Labråten" />
		<tag k="place" v="farm" />
		<tag k="ssr:stedsnr" v="634395" />
	</node>
	<node lat="59.66053055320111" lon="10.027050002137443" id="-13593">
		<tag k="name" v="Damstua" />
		<tag k="place" v="isolated_dwelling" />
		<tag k="ssr:stedsnr" v="634241" />
	</node>
	<node lat="59.68370833540625" lon="10.233574997280652" id="-13598">
		<tag k="name" v="Nordre Gunnarsrud" />
		<tag k="place" v="farm" />
		<tag k="ssr:stedsnr" v="646300" />
	</node>
	<node lat="59.69793888545695" lon="10.165438891981436" id="-13602">
		<tag k="name" v="Springover" />
		<tag k="place" v="farm" />
		<tag k="ssr:stedsnr" v="646575" />
	</node>
	<node lat="59.69358611201664" lon="10.20586666472153" id="-13603">
		<tag k="name" v="Mælen" />
		<tag k="place" v="farm" />
		<tag k="ssr:stedsnr" v="646579" />
	</node>
	<node lat="59.68463888962825" lon="10.127127777974854" id="-13605">
		<tag k="name" v="Øvre Furuvoll" />
		<tag k="place" v="farm" />
		<tag k="ssr:stedsnr" v="646664" />
	</node>
	<node lat="59.70886389073138" lon="10.235672214845007" id="-13607">
		<tag k="name" v="Nystad" />
		<tag k="place" v="isolated_dwelling" />
		<tag k="ssr:stedsnr" v="648047" />
	</node>
	<node lat="59.71263611415352" lon="10.231758333218107" id="-13608">
		<tag k="name" v="Søndre Fjell" />
		<tag k="place" v="locality" />
		<tag k="ssr:stedsnr" v="648063" />
	</node>
	<node lat="59.71411388878876" lon="10.235883341641367" id="-13609">
		<tag k="name" v="Dalen" />
		<tag k="place" v="farm" />
		<tag k="ssr:stedsnr" v="648067" />
	</node>
	<node lat="59.677002777076716" lon="10.231569443791368" id="-13612">
		<tag k="name" v="Nordre Unnelsrud" />
		<tag k="place" v="farm" />
		<tag k="ssr:stedsnr" v="648732" />
	</node>
	<node lat="59.673969441054524" lon="10.255019438959891" id="-13613">
		<tag k="name" v="Bærheim" />
		<tag k="place" v="farm" />
		<tag k="ssr:stedsnr" v="648733" />
	</node>
	<node lat="59.61503889226177" lon="10.396822230269112" id="-13614">
		<tag k="name" v="Sverstad" />
		<tag k="place" v="quarter" />
		<tag k="ssr:stedsnr" v="648942" />
	</node>
	<node lat="59.76210555267201" lon="10.125102783402644" id="-13620">
		<tag k="name" v="Aronsløkka" />
		<tag k="place" v="quarter" />
		<tag k="ssr:stedsnr" v="658642" />
	</node>
	<node lat="59.72005833165456" lon="10.145886103295616" id="-13621">
		<tag k="name" v="Ekholt" />
		<tag k="place" v="quarter" />
		<tag k="ssr:stedsnr" v="664320" />
	</node>
	<node lat="59.71409999963368" lon="10.149327769289517" id="-13622">
		<tag k="name" v="Pettersvoll" />
		<tag k="place" v="farm" />
		<tag k="ssr:stedsnr" v="664420" />
	</node>
	<node lat="59.74748888905899" lon="10.224161114997951" id="-13625">
		<tag k="leisure" v="pitch" />
		<tag k="name" v="Kjappen" />
		<tag k="ssr:stedsnr" v="665828" />
	</node>
	<node lat="59.744769445464314" lon="10.180788897416315" id="-13627">
		<tag k="building" v="industrial" />
		<tag k="industrial" v="factory" />
		<tag k="name" v="Lycke Konvolutt AS" />
		<tag k="ssr:stedsnr" v="665748" />
	</node>
	<node lat="59.72599142932987" lon="10.134205345227357" id="-13628">
		<tag k="name" v="Gomperud" />
		<tag k="place" v="quarter" />
		<tag k="ssr:stedsnr" v="665849" />
	</node>
	<node lat="59.70542500002518" lon="10.14822499663665" id="-13632">
		<tag k="name" v="Haugen" />
		<tag k="place" v="farm" />
		<tag k="ssr:stedsnr" v="670301" />
	</node>
	<node lat="59.728777777157596" lon="10.229436116964125" id="-13640">
		<tag k="alt_name" v="Kopervik" />
		<tag k="name" v="Kobbervik" />
		<tag k="place" v="locality" />
		<tag k="ssr:stedsnr" v="722288" />
	</node>
	<node lat="59.730819446236715" lon="10.1257305513569" id="-13643">
		<tag k="name" v="Lesperud" />
		<tag k="place" v="quarter" />
		<tag k="ssr:stedsnr" v="726840" />
	</node>
	<node lat="59.73371111224977" lon="10.217433327414804" id="-13644">
		<tag k="name" v="Mads Wiels plass" />
		<tag k="place" v="square" />
		<tag k="ssr:stedsnr" v="726846" />
	</node>
	<node lat="59.69245581664019" lon="10.15173666649618" id="-13648">
		<tag k="name" v="Imjelt" />
		<tag k="place" v="hamlet" />
		<tag k="ssr:stedsnr" v="731153" />
	</node>
	<node lat="59.685100370876455" lon="10.183119737982835" id="-13649">
		<tag k="name" v="Flåtan" />
		<tag k="place" v="hamlet" />
		<tag k="ssr:stedsnr" v="731154" />
	</node>
	<node lat="59.74611907170882" lon="10.139852212204326" id="-13652">
		<tag k="fixme" v="consider place=hamlet" />
		<tag k="name" v="Stormoen" />
		<tag k="place" v="farm" />
		<tag k="ssr:stedsnr" v="731334" />
	</node>
	<node lat="59.72487499846943" lon="10.097230564250374" id="-13655">
		<tag k="name" v="Dalen" />
		<tag k="place" v="farm" />
		<tag k="ssr:stedsnr" v="731197" />
	</node>
	<node lat="59.763966894120436" lon="10.083958956156366" id="-13661">
		<tag k="fixme" v="consider place=hamlet" />
		<tag k="name" v="Ulverud" />
		<tag k="place" v="farm" />
		<tag k="ssr:stedsnr" v="732085" />
	</node>
	<node lat="59.73055833125121" lon="10.106647217715391" id="-13663">
		<tag k="name" v="Fjellheim" />
		<tag k="place" v="farm" />
		<tag k="ssr:stedsnr" v="750492" />
	</node>
	<node lat="59.753741664769265" lon="10.146311107961909" id="-13665">
		<tag k="name" v="Åssiden torg" />
		<tag k="place" v="square" />
		<tag k="ssr:stedsnr" v="750590" />
	</node>
	<node lat="59.75458333315509" lon="10.138280553331127" id="-13666">
		<tag k="name" v="Soltun" />
		<tag k="place" v="farm" />
		<tag k="ssr:stedsnr" v="750592" />
	</node>
	<node lat="59.72563055515268" lon="10.140808336869153" id="-13667">
		<tag k="name" v="Solvang" />
		<tag k="place" v="isolated_dwelling" />
		<tag k="ssr:stedsnr" v="750546" />
	</node>
	<node lat="59.743008332370636" lon="10.041811114199458" id="-13668">
		<tag k="name" v="Franseplassen" />
		<tag k="place" v="farm" />
		<tag k="ssr:stedsnr" v="750556" />
	</node>
	<node lat="59.77468055256179" lon="10.121738886324504" id="-13670">
		<tag k="landuse" v="winter_sports" />
		<tag k="name" v="Aronsløypa" />
		<tag k="piste:type" v="downhill" />
		<tag k="ssr:stedsnr" v="750867" />
	</node>
	<node lat="59.747916668081075" lon="9.99875833953076" id="-13671">
		<tag k="amenity" v="school" />
		<tag k="name" v="Veiavangen skole" />
		<tag k="ssr:stedsnr" v="751793" />
	</node>
	<node lat="59.76248333458739" lon="10.029324997283284" id="-13672">
		<tag k="name" v="Plassen" />
		<tag k="place" v="farm" />
		<tag k="ssr:stedsnr" v="751998" />
	</node>
	<node lat="59.69292500155457" lon="10.215222226105446" id="-13676">
		<tag k="name" v="Bjørnebo" />
		<tag k="place" v="isolated_dwelling" />
		<tag k="ssr:stedsnr" v="768258" />
	</node>
	<node lat="59.699674997232" lon="10.22908054993374" id="-13677">
		<tag k="name" v="Trollhaugen" />
		<tag k="place" v="isolated_dwelling" />
		<tag k="ssr:stedsnr" v="768260" />
	</node>
	<node lat="59.68719166759862" lon="10.225105548079187" id="-13678">
		<tag k="name" v="Ingvaldsåsen" />
		<tag k="place" v="farm" />
		<tag k="ssr:stedsnr" v="768265" />
	</node>
	<node lat="59.78987222086198" lon="10.142863887588499" id="-13679">
		<tag k="name" v="Grottehytta" />
		<tag k="place" v="isolated_dwelling" />
		<tag k="ssr:stedsnr" v="769164" />
	</node>
	<node lat="59.76845277629957" lon="10.155236117736367" id="-13680">
		<tag k="name" v="Fjellhvil" />
		<tag k="place" v="isolated_dwelling" />
		<tag k="ssr:stedsnr" v="769171" />
	</node>
	<node lat="59.77388333486234" lon="10.165627769580517" id="-13682">
		<tag k="name" v="Kikut" />
		<tag k="place" v="isolated_dwelling" />
		<tag k="ssr:stedsnr" v="769181" />
	</node>
	<node lat="59.721066668659404" lon="10.230041662915628" id="-13683">
		<tag k="name" v="Sletheim" />
		<tag k="place" v="isolated_dwelling" />
		<tag k="ssr:stedsnr" v="770055" />
	</node>
	<node lat="59.66554722482716" lon="10.222327773514099" id="-13685">
		<tag k="name" v="Gullaug" />
		<tag k="place" v="isolated_dwelling" />
		<tag k="ssr:stedsnr" v="770671" />
	</node>
	<node lat="59.801291667712185" lon="10.127622229256467" id="-13691">
		<tag k="name" v="Lyngbu" />
		<tag k="place" v="isolated_dwelling" />
		<tag k="ssr:stedsnr" v="770041" />
	</node>
	<node lat="59.67669444816979" lon="10.249866671044309" id="-13692">
		<tag k="name" v="Stillerud" />
		<tag k="place" v="quarter" />
		<tag k="ssr:stedsnr" v="770728" />
	</node>
	<node lat="59.67413333405268" lon="10.25843610532955" id="-13693">
		<tag k="name" v="Kronborg" />
		<tag k="place" v="farm" />
		<tag k="ssr:stedsnr" v="770731" />
	</node>
	<node lat="59.557752778403646" lon="10.393847217385746" id="-13694">
		<tag k="name" v="Kjelleråsen" />
		<tag k="place" v="neighbourhood" />
		<tag k="ssr:stedsnr" v="786874" />
	</node>
	<node lat="59.75538051892737" lon="10.00452383679548" id="-13698">
		<tag k="name" v="Sand" />
		<tag k="place" v="farm" />
		<tag k="ssr:stedsnr" v="792071" />
	</node>
	<node lat="59.74924134624215" lon="9.995350894125878" id="-13699">
		<tag k="fixme" v="consider place=hamlet" />
		<tag k="name" v="Krok" />
		<tag k="place" v="farm" />
		<tag k="ssr:stedsnr" v="792072" />
	</node>
	<node lat="59.75787500430103" lon="10.141736108475067" id="-13701">
		<tag k="name" v="Åssiden" />
		<tag k="place" v="suburb" />
		<tag k="ssr:stedsnr" v="792075" />
	</node>
	<node lat="59.66822499704546" lon="9.999327777639696" id="-13702">
		<tag k="name" v="Edvardstua" />
		<tag k="place" v="isolated_dwelling" />
		<tag k="ssr:stedsnr" v="792141" />
	</node>
	<node lat="59.689269983651826" lon="10.17411890850215" id="-13706">
		<tag k="alt_name" v="Skallstad" />
		<tag k="fixme" v="consider place=hamlet" />
		<tag k="name" v="Skallestad" />
		<tag k="place" v="farm" />
		<tag k="ssr:stedsnr" v="792194" />
	</node>
	<node lat="59.62199444794915" lon="10.377336104706293" id="-13710">
		<tag k="alt_name" v="Eikemo" />
		<tag k="name" v="Eikmo" />
		<tag k="place" v="farm" />
		<tag k="ssr:stedsnr" v="792641" />
	</node>
	<node lat="59.725086114378236" lon="10.117411112969139" id="-13714">
		<tag k="name" v="Hesthagen" />
		<tag k="place" v="farm" />
		<tag k="ssr:stedsnr" v="811523" />
	</node>
	<node lat="59.725786113610816" lon="10.118991669474198" id="-13715">
		<tag k="name" v="Eskerud" />
		<tag k="place" v="farm" />
		<tag k="ssr:stedsnr" v="811526" />
	</node>
	<node lat="59.72528610969754" lon="10.129086102423537" id="-13716">
		<tag k="name" v="Lerkelund" />
		<tag k="place" v="farm" />
		<tag k="ssr:stedsnr" v="811529" />
	</node>
	<node lat="59.547247225672216" lon="10.377649997892009" id="-13723">
		<tag k="fixme" v="consider place=hamlet" />
		<tag k="name" v="Berger" />
		<tag k="place" v="village" />
		<tag k="ssr:stedsnr" v="813727" />
	</node>
	<node lat="59.74352499897557" lon="9.96051944809075" id="-13724">
		<tag k="name" v="Søndre Nedberg" />
		<tag k="place" v="farm" />
		<tag k="ssr:stedsnr" v="814380" />
	</node>
	<node lat="59.67251666576398" lon="10.012602780747587" id="-13727">
		<tag k="name" v="Kittilsbu" />
		<tag k="place" v="isolated_dwelling" />
		<tag k="ssr:stedsnr" v="816256" />
	</node>
	<node lat="59.54334166698136" lon="10.372380547780397" id="-13728">
		<tag k="name" v="Dyrdal" />
		<tag k="place" v="farm" />
		<tag k="ssr:stedsnr" v="817041" />
	</node>
	<node lat="59.68050277459332" lon="10.353813895083617" id="-13733">
		<tag k="name" v="Solstad" />
		<tag k="place" v="farm" />
		<tag k="ssr:stedsnr" v="817166" />
	</node>
	<node lat="59.68034999980666" lon="10.341663893732683" id="-13734">
		<tag k="name" v="Helgerud" />
		<tag k="place" v="farm" />
		<tag k="ssr:stedsnr" v="817167" />
	</node>
	<node lat="59.60423055820411" lon="10.401738884221292" id="-13737">
		<tag k="name" v="Knem" />
		<tag k="place" v="farm" />
		<tag k="ssr:stedsnr" v="817367" />
	</node>
	<node lat="59.69681944178888" lon="10.296227783578068" id="-13739">
		<tag k="name" v="Solheim" />
		<tag k="place" v="isolated_dwelling" />
		<tag k="ssr:stedsnr" v="829252" />
	</node>
	<node lat="59.716825003123716" lon="10.134433327958714" id="-13740">
		<tag k="name" v="Solliberga" />
		<tag k="place" v="farm" />
		<tag k="ssr:stedsnr" v="829348" />
	</node>
	<node lat="59.714541663719196" lon="10.089150007570906" id="-13741">
		<tag k="name" v="Rolfebu" />
		<tag k="place" v="isolated_dwelling" />
		<tag k="ssr:stedsnr" v="829355" />
	</node>
	<node lat="59.68778889133269" lon="10.196599992221943" id="-13743">
		<tag k="name" v="Løyse" />
		<tag k="place" v="farm" />
		<tag k="ssr:stedsnr" v="829591" />
	</node>
	<node lat="59.68370555961541" lon="10.188105553430422" id="-13744">
		<tag k="name" v="Nordre Holmen" />
		<tag k="place" v="farm" />
		<tag k="ssr:stedsnr" v="829593" />
	</node>
	<node lat="59.71327222057646" lon="10.253558330634933" id="-13746">
		<tag k="name" v="Skoger" />
		<tag k="place" v="quarter" />
		<tag k="ssr:stedsnr" v="829736" />
	</node>
	<node lat="59.785680558829334" lon="10.156899991950116" id="-13750">
		<tag k="name" v="Veslemyr" />
		<tag k="place" v="isolated_dwelling" />
		<tag k="ssr:stedsnr" v="831149" />
	</node>
	<node lat="59.56591816862778" lon="10.391540418188145" id="-13751">
		<tag k="name" v="Høyen" />
		<tag k="place" v="hamlet" />
		<tag k="ssr:stedsnr" v="831045" />
	</node>
	<node lat="59.7190027822154" lon="10.22779722697942" id="-13752">
		<tag k="name" v="Solbråten" />
		<tag k="place" v="isolated_dwelling" />
		<tag k="ssr:stedsnr" v="831069" />
	</node>
	<node lat="59.67528888451947" lon="10.206061119158436" id="-13754">
		<tag k="name" v="Nordre Haneval" />
		<tag k="place" v="farm" />
		<tag k="ssr:stedsnr" v="831670" />
	</node>
	<node lat="59.72881944082279" lon="10.214283338600472" id="-13759">
		<tag k="amenity" v="school" />
		<tag k="name" v="Frydenhaug skole" />
		<tag k="ssr:stedsnr" v="844259" />
	</node>
	<node lat="59.704850001948365" lon="10.239186115407662" id="-13761">
		<tag k="name" v="Solheim" />
		<tag k="place" v="isolated_dwelling" />
		<tag k="ssr:stedsnr" v="846421" />
	</node>
	<node lat="59.747269443972485" lon="10.206947215567853" id="-13765">
		<tag k="name" v="Bragernes" />
		<tag k="place" v="suburb" />
		<tag k="ssr:stedsnr" v="852348" />
	</node>
	<node lat="59.747061110036725" lon="10.000127771536302" id="-13766">
		<tag k="name" v="Krok" />
		<tag k="place" v="farm" />
		<tag k="ssr:stedsnr" v="852353" />
	</node>
	<node lat="59.75747777523427" lon="10.082683340808638" id="-13769">
		<tag k="name" v="Killingrud" />
		<tag k="place" v="farm" />
		<tag k="ssr:stedsnr" v="853149" />
	</node>
	<node lat="59.67564999558765" lon="10.03699167417838" id="-13772">
		<tag k="name" v="Plassane" />
		<tag k="place" v="isolated_dwelling" />
		<tag k="ssr:stedsnr" v="853191" />
	</node>
	<node lat="59.707248020319746" lon="10.270993870154602" id="-13774">
		<tag k="fixme" v="consider place=hamlet" />
		<tag k="name" v="Nedre Knive" />
		<tag k="place" v="farm" />
		<tag k="ssr:stedsnr" v="853291" />
	</node>
	<node lat="59.71067500245405" lon="10.034522229579462" id="-13775">
		<tag k="name" v="Kikkut" />
		<tag k="place" v="isolated_dwelling" />
		<tag k="ssr:stedsnr" v="853295" />
	</node>
	<node lat="59.73637499847597" lon="9.99399166841849" id="-13776">
		<tag k="alt_name" v="Pålsåsen" />
		<tag k="name" v="Åsen" />
		<tag k="place" v="farm" />
		<tag k="ssr:stedsnr" v="853358" />
	</node>
	<node lat="59.73752386722794" lon="9.975994108521602" id="-13777">
		<tag k="alt_name" v="Kårvoll" />
		<tag k="name" v="Korvald" />
		<tag k="place" v="hamlet" />
		<tag k="ssr:stedsnr" v="853360" />
	</node>
	<node lat="59.7248361150267" lon="9.992830562064457" id="-13778">
		<tag k="alt_name" v="Hanseseter" />
		<tag k="name" v="Hansaseter" />
		<tag k="place" v="isolated_dwelling" />
		<tag k="ssr:stedsnr" v="853232" />
	</node>
	<node lat="59.73916389275517" lon="10.17199722717857" id="-13779">
		<tag k="name" v="Strømsgodset" />
		<tag k="place" v="suburb" />
		<tag k="ssr:stedsnr" v="853239" />
	</node>
	<node lat="59.712705553548986" lon="10.032038884082217" id="-13780">
		<tag k="name" v="Hellesetra" />
		<tag k="place" v="isolated_dwelling" />
		<tag k="ssr:stedsnr" v="853251" />
	</node>
	<node lat="59.66598707318062" lon="10.3695565717712" id="-13781">
		<tag k="fixme" v="consider place=hamlet" />
		<tag k="name" v="Nordby" />
		<tag k="place" v="farm" />
		<tag k="ssr:stedsnr" v="853867" />
	</node>
	<node lat="59.7759750019578" lon="10.078075006300603" id="-13785">
		<tag k="alt_name" v="Huldreheim" />
		<tag k="name" v="Ulverudplassen" />
		<tag k="place" v="isolated_dwelling" />
		<tag k="ssr:stedsnr" v="854142" />
	</node>
	<node lat="59.725883335461376" lon="10.116597223179948" id="-13790">
		<tag k="name" v="Furuheim" />
		<tag k="place" v="farm" />
		<tag k="ssr:stedsnr" v="872570" />
	</node>
	<node lat="59.723622219888775" lon="10.072949999671867" id="-13791">
		<tag k="name" v="Helgerud" />
		<tag k="place" v="isolated_dwelling" />
		<tag k="ssr:stedsnr" v="872597" />
	</node>
	<node lat="59.725038886163816" lon="10.08441111338971" id="-13792">
		<tag k="name" v="Mostua" />
		<tag k="place" v="farm" />
		<tag k="ssr:stedsnr" v="872605" />
	</node>
	<node lat="59.72623889275116" lon="10.10567777740031" id="-13794">
		<tag k="name" v="Grindheim" />
		<tag k="place" v="farm" />
		<tag k="ssr:stedsnr" v="872550" />
	</node>
	<node lat="59.75171389315458" lon="10.144027783642915" id="-13796">
		<tag k="amenity" v="school" />
		<tag k="name" v="Åssiden skole" />
		<tag k="ssr:stedsnr" v="872652" />
	</node>
	<node lat="59.747658336757574" lon="10.079613886358572" id="-13799">
		<tag k="name" v="Daler" />
		<tag k="place" v="farm" />
		<tag k="ssr:stedsnr" v="872924" />
	</node>
	<node lat="59.77913333704187" lon="10.141063884212029" id="-13800">
		<tag k="name" v="Ballklubbhytta" />
		<tag k="place" v="isolated_dwelling" />
		<tag k="ssr:stedsnr" v="872754" />
	</node>
	<node lat="59.755891666537075" lon="10.111319443129064" id="-13801">
		<tag k="name" v="Kjøsterud" />
		<tag k="place" v="farm" />
		<tag k="ssr:stedsnr" v="872911" />
	</node>
	<node lat="59.743559723388955" lon="10.028615702078955" id="-13806">
		<tag k="alt_name" v="Mjøndalen gård" />
		<tag k="fixme" v="consider place=hamlet" />
		<tag k="name" v="Mjøndalen" />
		<tag k="place" v="farm" />
		<tag k="ssr:stedsnr" v="873971" />
	</node>
	<node lat="59.73128333648064" lon="9.981394448110104" id="-13807">
		<tag k="name" v="Åseplassen" />
		<tag k="place" v="farm" />
		<tag k="ssr:stedsnr" v="873988" />
	</node>
	<node lat="59.65748888822512" lon="10.375938884169988" id="-13808">
		<tag k="fixme" v="consider place=hamlet" />
		<tag k="name" v="Nesbygda" />
		<tag k="place" v="village" />
		<tag k="ssr:stedsnr" v="874828" />
	</node>
	<node lat="59.65648333187601" lon="10.387219436002825" id="-13816">
		<tag k="name" v="Saltbuvollen" />
		<tag k="place" v="isolated_dwelling" />
		<tag k="ssr:stedsnr" v="878328" />
	</node>
	<node lat="59.5483805556989" lon="10.382241675331162" id="-13818">
		<tag k="amenity" v="school" />
		<tag k="name" v="Berger skole" />
		<tag k="ssr:stedsnr" v="878379" />
	</node>
	<node lat="59.56337222173597" lon="10.40166388514888" id="-13819">
		<tag k="name" v="Krok" />
		<tag k="place" v="farm" />
		<tag k="ssr:stedsnr" v="878388" />
	</node>
	<node lat="59.701050001000404" lon="10.241444440736007" id="-13820">
		<tag k="name" v="Bekkevold" />
		<tag k="place" v="isolated_dwelling" />
		<tag k="ssr:stedsnr" v="889273" />
	</node>
	<node lat="59.69517777419607" lon="10.22978610257905" id="-13821">
		<tag k="name" v="Solstad" />
		<tag k="place" v="isolated_dwelling" />
		<tag k="ssr:stedsnr" v="889274" />
	</node>
	<node lat="59.685730552366934" lon="10.223913893744603" id="-13822">
		<tag k="name" v="Smijo" />
		<tag k="place" v="isolated_dwelling" />
		<tag k="ssr:stedsnr" v="889285" />
	</node>
	<node lat="59.69239166975456" lon="10.251908331286957" id="-13823">
		<tag k="name" v="Vestheim" />
		<tag k="place" v="farm" />
		<tag k="ssr:stedsnr" v="889288" />
	</node>
	<node lat="59.694308332082414" lon="10.214277786091953" id="-13824">
		<tag k="name" v="Knausen" />
		<tag k="place" v="isolated_dwelling" />
		<tag k="ssr:stedsnr" v="889290" />
	</node>
	<node lat="59.68513055779384" lon="10.2513361045143" id="-13826">
		<tag k="amenity" v="school" />
		<tag k="name" v="Skoger skole" />
		<tag k="ssr:stedsnr" v="889295" />
	</node>
	<node lat="59.68366944470995" lon="10.22535000208306" id="-13827">
		<tag k="name" v="Eikely" />
		<tag k="place" v="isolated_dwelling" />
		<tag k="ssr:stedsnr" v="889299" />
	</node>
	<node lat="59.83018888830996" lon="10.02631388506601" id="-13828">
		<tag k="name" v="Lysakerstua" />
		<tag k="place" v="isolated_dwelling" />
		<tag k="ssr:stedsnr" v="936517" />
	</node>
	<node lat="59.65697025747788" lon="10.379130850676935" id="-13834">
		<tag k="alt_name" v="Nes nedre" />
		<tag k="fixme" v="consider place=hamlet" />
		<tag k="name" v="Nedre Nes" />
		<tag k="place" v="farm" />
		<tag k="ssr:stedsnr" v="938294" />
	</node>
	<node lat="59.61748055884229" lon="10.380047229953568" id="-13836">
		<tag k="name" v="Eiklund" />
		<tag k="place" v="isolated_dwelling" />
		<tag k="ssr:stedsnr" v="938346" />
	</node>
	<node lat="59.68957499608327" lon="10.268394439148697" id="-13842">
		<tag k="name" v="Lindum" />
		<tag k="place" v="farm" />
		<tag k="ssr:stedsnr" v="950265" />
	</node>
	<node lat="59.68473055611883" lon="10.265066658554021" id="-13844">
		<tag k="name" v="Bakke" />
		<tag k="place" v="farm" />
		<tag k="ssr:stedsnr" v="950273" />
	</node>
	<node lat="59.698772218275415" lon="10.153280563614489" id="-13845">
		<tag k="name" v="Holland" />
		<tag k="place" v="farm" />
		<tag k="ssr:stedsnr" v="950550" />
	</node>
	<node lat="59.69775278107346" lon="10.161986119108205" id="-13846">
		<tag k="name" v="Solbakken" />
		<tag k="place" v="farm" />
		<tag k="ssr:stedsnr" v="950557" />
	</node>
	<node lat="59.696619440088455" lon="10.164222220527463" id="-13847">
		<tag k="name" v="Haugen" />
		<tag k="place" v="isolated_dwelling" />
		<tag k="ssr:stedsnr" v="950561" />
	</node>
	<node lat="59.69062499713281" lon="10.132944447287016" id="-13850">
		<tag k="name" v="Engelkor" />
		<tag k="place" v="farm" />
		<tag k="ssr:stedsnr" v="950653" />
	</node>
	<node lat="59.68342499632588" lon="10.132772213432261" id="-13852">
		<tag k="name" v="Lundeby" />
		<tag k="place" v="farm" />
		<tag k="ssr:stedsnr" v="950666" />
	</node>
	<node lat="59.70607500343861" lon="10.228533327531778" id="-13854">
		<tag k="name" v="Fjelly" />
		<tag k="place" v="isolated_dwelling" />
		<tag k="ssr:stedsnr" v="952024" />
	</node>
	<node lat="59.7184611108295" lon="10.219491662027814" id="-13855">
		<tag k="name" v="Nordre Fjell" />
		<tag k="place" v="farm" />
		<tag k="ssr:stedsnr" v="952076" />
	</node>
	<node lat="59.78383055818249" lon="10.153950007854966" id="-13856">
		<tag k="name" v="Fjellhygga" />
		<tag k="place" v="isolated_dwelling" />
		<tag k="ssr:stedsnr" v="952160" />
	</node>
	<node lat="59.66583055925621" lon="10.22191110803321" id="-13857">
		<tag k="name" v="Hanneborg" />
		<tag k="place" v="isolated_dwelling" />
		<tag k="ssr:stedsnr" v="952669" />
	</node>
	<node lat="59.74740000087526" lon="10.157641673740196" id="-13861">
		<tag k="name" v="Rødskog" />
		<tag k="old_name" v="Skougen, røde" />
		<tag k="place" v="farm" />
		<tag k="ssr:stedsnr" v="962383" />
	</node>
	<node lat="59.7278194441107" lon="10.140424994806473" id="-13862">
		<tag k="name" v="Torrudbråtan" />
		<tag k="place" v="quarter" />
		<tag k="ssr:stedsnr" v="969815" />
	</node>
	<node lat="59.75423687016316" lon="10.19126010703336" id="-13863">
		<tag k="name" v="Hamborgstrømpaviljongen" />
		<tag k="place" v="isolated_dwelling" />
		<tag k="ssr:stedsnr" v="978615" />
	</node>
	<node lat="59.75519559231254" lon="10.002524941926245" id="-13865">
		<tag k="name" v="Sandplassen" />
		<tag k="place" v="farm" />
		<tag k="ssr:stedsnr" v="982416" />
	</node>
	<node lat="59.742608355600154" lon="10.158381712980312" id="-13867">
		<tag k="building" v="commercial" />
		<tag k="name" v="Gulskogen senter" />
		<tag k="ssr:stedsnr" v="985820" />
	</node>
	<node lat="59.74297353411087" lon="10.206781809582196" id="-13868">
		<tag k="building" v="commercial" />
		<tag k="name" v="Magasinet Drammen" />
		<tag k="ssr:stedsnr" v="985822" />
	</node>
	<node lat="59.731674027017036" lon="10.153235121894646" id="-13982">
		<tag k="fixme" v="consider place=hamlet" />
		<tag k="name" v="Neperud" />
		<tag k="place" v="farm" />
		<tag k="ssr:stedsnr" v="1072248" />
	</node>
	<node lat="59.74763577062724" lon="10.158450326104166" id="-13983">
		<tag k="name" v="Skogen" />
		<tag k="place" v="hamlet" />
		<tag k="ssr:stedsnr" v="1072252" />
	</node>
	<node lat="59.733749079005094" lon="10.16151529777152" id="-13984">
		<tag k="fixme" v="consider place=hamlet" />
		<tag k="name" v="Grønvold" />
		<tag k="place" v="farm" />
		<tag k="ssr:stedsnr" v="1072255" />
	</node>
	<node lat="59.74018309802896" lon="10.173770502561998" id="-13985">
		<tag k="fixme" v="consider place=hamlet" />
		<tag k="name" v="Sundland" />
		<tag k="place" v="farm" />
		<tag k="ssr:stedsnr" v="1072256" />
	</node>
	<node lat="59.743828885834844" lon="10.183029321706925" id="-13986">
		<tag k="name" v="Strøm" />
		<tag k="place" v="hamlet" />
		<tag k="ssr:stedsnr" v="1072258" />
	</node>
	<node lat="59.69004152868725" lon="10.234928916910642" id="-13987">
		<tag k="fixme" v="consider place=hamlet" />
		<tag k="name" v="Gulliksrud" />
		<tag k="place" v="farm" />
		<tag k="ssr:stedsnr" v="1072259" />
	</node>
	<node lat="59.678047548304995" lon="10.259550030529738" id="-13988">
		<tag k="name" v="Fredheim" />
		<tag k="place" v="farm" />
		<tag k="ssr:stedsnr" v="1072261" />
	</node>
	<node lat="59.71114025430419" lon="10.269920266164835" id="-13991">
		<tag k="building" v="industrial" />
		<tag k="name" v="Solumstrand renseanlegg" />
		<tag k="ssr:stedsnr" v="1073281" />
	</node>
	<node lat="59.61563664716291" lon="10.386477056364757" id="-13996">
		<tag k="name" v="Søndre Ebbestad" />
		<tag k="place" v="farm" />
		<tag k="ssr:stedsnr" v="1074846" />
	</node>
	<node lat="59.59136827468837" lon="10.409249242230686" id="-13997">
		<tag k="fixme" v="consider place=hamlet" />
		<tag k="name" v="Bokerøya" />
		<tag k="place" v="farm" />
		<tag k="ssr:stedsnr" v="1074964" />
	</node>
	<node lat="59.720642084854205" lon="10.212606269125743" id="-14000">
		<tag k="name" v="Galterud" />
		<tag k="place" v="farm" />
		<tag k="ssr:stedsnr" v="1079032" />
	</node>
	<node lat="59.71783255526729" lon="10.21777276491586" id="-14001">
		<tag k="amenity" v="school" />
		<tag k="name" v="Galterud skole" />
		<tag k="ssr:stedsnr" v="1079033" />
	</node>
	<node lat="59.72225922340673" lon="10.049473854332176" id="-14002">
		<tag k="amenity" v="cafe" />
		<tag k="name" v="MIF-hytta" />
		<tag k="ssr:stedsnr" v="1079216" />
	</node>
</osm>
