<?xml version="1.0" encoding="UTF-8"?>
<osm generator="osmapis" version="0.6">
	<node id="-21571" lat="59.7327777776" lon="10.2337638905">
		<tag k="name" v="Risgarden" />
		<tag k="natural" v="cape" />
		<tag k="ssr:stedsnr" v="3234" />
	</node>
	<node id="-22006" lat="59.5607583301" lon="10.3996611155">
		<tag k="alt_name" v="Krokbukta" />
		<tag k="name" v="Kroksbukta" />
		<tag k="natural" v="bay" />
		<tag k="ssr:stedsnr" v="392090" />
	</node>
	<node id="-21587" lat="59.6774111042" lon="10.3681666794">
		<tag k="name" v="Jordfallbukta" />
		<tag k="natural" v="bay" />
		<tag k="ssr:stedsnr" v="3843" />
	</node>
	<node id="-21994" lat="59.7165916633" lon="10.2662527765">
		<tag k="alt_name" v="Langstranda" />
		<tag k="name" v="Langestrand" />
		<tag k="natural" v="beach" />
		<tag k="place" v="locality" />
		<tag k="ssr:stedsnr" v="388659" />
	</node>
	<node id="-21093" lat="59.592202779" lon="10.4144805565">
		<tag k="alt_name" v="Flyndregrunnen" />
		<tag k="name" v="Store Flyndra" />
		<tag k="place" v="locality" />
		<tag k="seamark:type" v="rock" />
		<tag k="ssr:stedsnr" v="695352" />
	</node>
	<node id="-20947" lat="59.7313583373" lon="10.2482416694">
		<tag k="name" v="Tangenbanken" />
		<tag k="natural" v="shoal" />
		<tag k="place" v="locality" />
		<tag k="ssr:stedsnr" v="510710" />
	</node>
	<node id="-21214" lat="59.5370333347" lon="10.3870111076">
		<tag k="alt_name" v="Blindsand" />
		<tag k="name" v="Blindsandodden" />
		<tag k="natural" v="cape" />
		<tag k="ssr:stedsnr" v="731513" />
	</node>
	<node id="-20827" lat="59.7318666643" lon="10.2361138943">
		<tag k="name" v="Tangenrenna" />
		<tag k="natural" v="strait" />
		<tag k="ssr:stedsnr" v="482140" />
	</node>
	<node id="-21210" lat="59.7216499973" lon="10.265711109">
		<tag k="name" v="Nøstodden" />
		<tag k="natural" v="cape" />
		<tag k="ssr:stedsnr" v="731222" />
	</node>
	<node id="-21332" lat="59.7464333296" lon="10.1755638948">
		<tag k="name" v="Midtgrunnen" />
		<tag k="natural" v="shoal" />
		<tag k="place" v="locality" />
		<tag k="ssr:stedsnr" v="908748" />
	</node>
	<node id="-20819" lat="59.6634749991" lon="10.381861115">
		<tag k="name" v="Sagbukta" />
		<tag k="natural" v="bay" />
		<tag k="ssr:stedsnr" v="307812" />
	</node>
	<node id="-21347" lat="59.5911898725" lon="10.4105827667">
		<tag k="name" v="Bokerøya" />
		<tag k="natural" v="cape" />
		<tag k="ssr:stedsnr" v="913590" />
	</node>
	<node id="-21191" lat="59.6547000012" lon="10.3865055599">
		<tag k="name" v="Hella" />
		<tag k="natural" v="beach" />
		<tag k="place" v="locality" />
		<tag k="ssr:stedsnr" v="634326" />
	</node>
	<node id="-21686" lat="59.5842111077" lon="10.4097805493">
		<tag k="name" v="Hælingleia" />
		<tag k="natural" v="shoal" />
		<tag k="place" v="locality" />
		<tag k="ssr:stedsnr" v="85932" />
	</node>
	<node id="-21570" lat="59.7361694478" lon="10.2279777818">
		<tag k="name" v="Holmen" />
		<tag k="place" v="island" />
		<tag k="ssr:stedsnr" v="3229" />
	</node>
	<node id="-22074" lat="59.7453694406" lon="10.1848500022">
		<tag k="name" v="Gråmerra" />
		<tag k="natural" v="shoal" />
		<tag k="place" v="locality" />
		<tag k="ssr:stedsnr" v="526657" />
	</node>
	<node id="-20767" lat="59.7141021747" lon="10.2705450721">
		<tag k="name" v="Solumsbukta" />
		<tag k="natural" v="bay" />
		<tag k="ssr:stedsnr" v="449658" />
	</node>
	<node id="-21046" lat="59.5330305557" lon="10.3932805501">
		<tag k="name" v="Blindsand" />
		<tag k="natural" v="shoal" />
		<tag k="place" v="locality" />
		<tag k="ssr:stedsnr" v="488519" />
	</node>
	<node id="-21935" lat="59.6892111124" lon="10.347313884">
		<tag k="name" v="Odden" />
		<tag k="natural" v="cape" />
		<tag k="ssr:stedsnr" v="331368" />
	</node>
	<node id="-21932" lat="59.5615999992" lon="10.3973305616">
		<tag k="name" v="Baskomti-havna" />
		<tag k="natural" v="beach" />
		<tag k="place" v="locality" />
		<tag k="ssr:stedsnr" v="331350" />
	</node>
	<node id="-20778" lat="59.59507778" lon="10.4039638963">
		<tag k="name" v="Homannsbergbukta" />
		<tag k="natural" v="bay" />
		<tag k="ssr:stedsnr" v="267767" />
	</node>
	<node id="-22441" lat="59.7124611638" lon="10.2685446794">
		<tag k="alt_name" v="Granaholen" />
		<tag k="name" v="Granahølen" />
		<tag k="natural" v="bay" />
		<tag k="ssr:stedsnr" v="874692" />
	</node>
	<node id="-21415" lat="59.6339500027" lon="10.4033555593">
		<tag k="name" v="Juvestøa" />
		<tag k="natural" v="beach" />
		<tag k="place" v="locality" />
		<tag k="ssr:stedsnr" v="938351" />
	</node>
	<node id="-21285" lat="59.591313885" lon="10.4135138942">
		<tag k="name" v="Vesle Flyndra" />
		<tag k="place" v="sea" />
		<tag k="ssr:stedsnr" v="695354" />
	</node>
	<node id="-20772" lat="59.6149277765" lon="10.4105527699">
		<tag k="fixme" v="consider seamark:type=rock or natural=shoal" />
		<tag k="name" v="Steinrevet" />
		<tag k="place" v="islet" />
		<tag k="ssr:stedsnr" v="451235" />
	</node>
	<node id="-22306" lat="59.6843749965" lon="10.3585222295">
		<tag k="name" v="Tangen" />
		<tag k="natural" v="cape" />
		<tag k="ssr:stedsnr" v="756365" />
	</node>
	<node id="-20769" lat="59.5782166662" lon="10.4010305561">
		<tag k="name" v="Solbergbukta" />
		<tag k="natural" v="bay" />
		<tag k="ssr:stedsnr" v="449927" />
	</node>
	<node id="-21407" lat="59.540308336" lon="10.3854138862">
		<tag k="name" v="Bergerbukta" />
		<tag k="natural" v="bay" />
		<tag k="ssr:stedsnr" v="938077" />
	</node>
	<node id="-21082" lat="59.6252583361" lon="10.4095861117">
		<tag k="name" v="Sleavika" />
		<tag k="natural" v="bay" />
		<tag k="ssr:stedsnr" v="691748" />
	</node>
	<node id="-22552" lat="59.610136108" lon="10.411097222">
		<tag k="name" v="Svelvikstrømmen" />
		<tag k="natural" v="strait" />
		<tag k="ssr:stedsnr" v="328756" />
	</node>
	<node id="-22294" lat="59.6755194447" lon="10.3719916693">
		<tag k="name" v="Sandtangen" />
		<tag k="natural" v="cape" />
		<tag k="ssr:stedsnr" v="752781" />
	</node>
	<node id="-21141" lat="59.7459444455" lon="10.188036115">
		<tag k="alt_name" v="Øvresund" />
		<tag k="name" v="Øvre sund" />
		<tag k="natural" v="strait" />
		<tag k="ssr:stedsnr" v="709840" />
	</node>
	<node id="-22417" lat="59.6896861099" lon="10.345972225">
		<tag k="alt_name" v="Skjæret" />
		<tag k="name" v="Skjeret" />
		<tag k="natural" v="cape" />
		<tag k="ssr:stedsnr" v="852737" />
	</node>
	<node id="-22338" lat="59.666666669" lon="10.3916666621">
		<tag k="bay" v="fjord" />
		<tag k="name" v="Drammensfjorden" />
		<tag k="natural" v="bay" />
		<tag k="ssr:stedsnr" v="792266" />
	</node>
	<node id="-22153" lat="59.6069472209" lon="10.4111583323">
		<tag k="name" v="Batteriøya" />
		<tag k="place" v="island" />
		<tag k="ssr:stedsnr" v="572251" />
	</node>
	<node id="-22150" lat="59.6244694426" lon="10.4111138927">
		<tag k="fixme" v="consider seamark:type=rock or natural=shoal" />
		<tag k="name" v="Blindeskjæra" />
		<tag k="place" v="islet" />
		<tag k="ssr:stedsnr" v="570752" />
	</node>
	<node id="-20610" lat="59.598969445" lon="10.4195944371">
		<tag k="name" v="Vesthaken" />
		<tag k="natural" v="shoal" />
		<tag k="place" v="locality" />
		<tag k="ssr:stedsnr" v="85707" />
	</node>
</osm>
