<?xml version="1.0" encoding="UTF-8"?>
<<<<<<< HEAD
<osm version="0.6" generator="osmapis">
	<node lat="59.783616670701115" lon="10.124980554437919" id="-11090">
		<tag k="name" v="Spirmyr" />
		<tag k="natural" v="wetland" />
		<tag k="ssr:stedsnr" v="22722" />
	</node>
	<node lat="59.70238055499123" lon="10.162697222087852" id="-11111">
		<tag k="name" v="Skallstadskogen" />
		<tag k="place" v="locality" />
		<tag k="ssr:stedsnr" v="239318" />
	</node>
	<node lat="59.75079444881743" lon="10.198850008185232" id="-11136">
		<tag k="name" v="Huldrehagan" />
		<tag k="place" v="locality" />
		<tag k="ssr:stedsnr" v="241754" />
	</node>
	<node lat="59.706075001567456" lon="10.139686115548443" id="-11174">
		<tag k="name" v="Svensrudmoen" />
		<tag k="place" v="locality" />
		<tag k="ssr:stedsnr" v="100327" />
	</node>
	<node lat="59.68171388535085" lon="10.144416665453113" id="-11177">
		<tag k="landuse" v="meadow" />
		<tag k="name" v="Utenga" />
		<tag k="ssr:stedsnr" v="101703" />
	</node>
	<node lat="59.75417222266834" lon="10.182633337757084" id="-11187">
		<tag k="name" v="Neperudjordet" />
		<tag k="place" v="locality" />
		<tag k="ssr:stedsnr" v="119788" />
	</node>
	<node lat="59.65245833199258" lon="10.054480561438504" id="-11191">
		<tag k="alt_name" v="Stakamyr" />
		<tag k="name" v="Stakamyrane" />
		<tag k="natural" v="wetland" />
		<tag k="ssr:stedsnr" v="124113" />
	</node>
	<node lat="59.76682499979076" lon="10.009941669037865" id="-11219">
		<tag k="name" v="Langløkka" />
		<tag k="place" v="locality" />
		<tag k="ssr:stedsnr" v="143913" />
	</node>
	<node lat="59.79725555215151" lon="10.01471110262922" id="-11222">
		<tag k="name" v="Langmyrene" />
		<tag k="natural" v="wetland" />
		<tag k="ssr:stedsnr" v="147711" />
	</node>
	<node lat="59.68678055867173" lon="10.345638894153867" id="-11229">
		<tag k="name" v="Grønlihavna" />
		<tag k="place" v="locality" />
		<tag k="ssr:stedsnr" v="149365" />
	</node>
	<node lat="59.64343333245552" lon="10.071352783190688" id="-11230">
		<tag k="name" v="Videvangsmyr" />
		<tag k="natural" v="wetland" />
		<tag k="ssr:stedsnr" v="149722" />
	</node>
	<node lat="59.68301389053284" lon="10.06800277746902" id="-11234">
		<tag k="name" v="Setermyr" />
		<tag k="natural" v="wetland" />
		<tag k="ssr:stedsnr" v="161617" />
	</node>
	<node lat="59.72590833749862" lon="10.240302776155996" id="-11237">
		<tag k="landuse" v="meadow" />
		<tag k="name" v="Myra" />
		<tag k="ssr:stedsnr" v="161954" />
	</node>
	<node lat="59.70965277342859" lon="10.244108324417589" id="-11250">
		<tag k="name" v="Solumhavna" />
		<tag k="place" v="locality" />
		<tag k="ssr:stedsnr" v="178442" />
	</node>
	<node lat="59.728208332055274" lon="10.077197222101862" id="-11265">
		<tag k="name" v="Treholtmyra" />
		<tag k="natural" v="wetland" />
		<tag k="ssr:stedsnr" v="265583" />
	</node>
	<node lat="59.74208889123657" lon="10.051458333196846" id="-11267">
		<tag k="name" v="Barlindmyra" />
		<tag k="natural" v="wetland" />
		<tag k="ssr:stedsnr" v="204519" />
	</node>
	<node lat="59.78641389229259" lon="10.0235027841518" id="-11274">
		<tag k="name" v="Tømmermyr" />
		<tag k="natural" v="wetland" />
		<tag k="ssr:stedsnr" v="204914" />
	</node>
	<node lat="59.656344441034236" lon="10.363847214548292" id="-11279">
		<tag k="name" v="Bråtaløkka" />
		<tag k="place" v="locality" />
		<tag k="ssr:stedsnr" v="210380" />
	</node>
	<node lat="59.67868611388558" lon="10.08539166511602" id="-11297">
		<tag k="name" v="Gårdbuskogen" />
		<tag k="place" v="locality" />
		<tag k="ssr:stedsnr" v="224796" />
	</node>
	<node lat="59.67869166570541" lon="10.078236110139509" id="-11298">
		<tag k="name" v="Stormyr" />
		<tag k="natural" v="wetland" />
		<tag k="ssr:stedsnr" v="224798" />
	</node>
	<node lat="59.8264388908555" lon="10.021650001821927" id="-11310">
		<tag k="name" v="Okseøye" />
		<tag k="natural" v="wetland" />
		<tag k="ssr:stedsnr" v="450526" />
	</node>
	<node lat="59.70801110955598" lon="10.172774998277854" id="-11312">
=======
<osm generator="osmapis" version="0.6">
	<node id="-221269" lat="59.7080111096" lon="10.1727749983">
>>>>>>> e1d4bc35ff8a6074a6f2e91616a996b547c36f15
		<tag k="name" v="Bymyra" />
		<tag k="natural" v="wetland" />
		<tag k="ssr:stedsnr" v="239312" />
	</node>
<<<<<<< HEAD
	<node lat="59.734711106802635" lon="10.124366664476264" id="-11317">
		<tag k="landuse" v="quarry" />
		<tag k="name" v="Kontaktstollen" />
		<tag k="ssr:stedsnr" v="241814" />
	</node>
	<node lat="59.79821944828767" lon="10.010413891925742" id="-11326">
		<tag k="name" v="Tarmmyr" />
		<tag k="natural" v="wetland" />
		<tag k="ssr:stedsnr" v="451739" />
	</node>
	<node lat="59.65141111143281" lon="10.03396111450877" id="-11352">
		<tag k="name" v="Nedre Briskemyr" />
		<tag k="natural" v="wetland" />
		<tag k="ssr:stedsnr" v="267140" />
	</node>
	<node lat="59.62631110706995" lon="10.357141671557192" id="-11355">
		<tag k="name" v="Øvre Kloppmyr" />
		<tag k="natural" v="wetland" />
		<tag k="ssr:stedsnr" v="271218" />
	</node>
	<node lat="59.77814166251127" lon="10.051816668341557" id="-11401">
		<tag k="name" v="Høymyr" />
		<tag k="natural" v="wetland" />
		<tag k="ssr:stedsnr" v="326527" />
	</node>
	<node lat="59.77029166522117" lon="10.173730548138604" id="-11414">
		<tag k="name" v="Svartormyra" />
		<tag k="natural" v="wetland" />
		<tag k="ssr:stedsnr" v="345206" />
	</node>
	<node lat="59.668188889364586" lon="10.069388896758305" id="-11427">
		<tag k="alt_name" v="Stormyr" />
		<tag k="name" v="Stormyra" />
		<tag k="natural" v="wetland" />
		<tag k="ssr:stedsnr" v="367182" />
	</node>
	<node lat="59.70703888534129" lon="10.17999166326904" id="-11438">
		<tag k="name" v="Sildemyra" />
		<tag k="natural" v="wetland" />
		<tag k="ssr:stedsnr" v="482336" />
	</node>
	<node lat="59.71534444432761" lon="10.16919165928067" id="-11440">
		<tag k="name" v="Vollemyra" />
		<tag k="natural" v="wetland" />
		<tag k="ssr:stedsnr" v="482435" />
	</node>
	<node lat="59.613124998731095" lon="10.341927782144941" id="-11460">
		<tag k="name" v="Petersætra" />
		<tag k="place" v="locality" />
		<tag k="ssr:stedsnr" v="392191" />
	</node>
	<node lat="59.67655555936278" lon="10.094291674048053" id="-11487">
		<tag k="name" v="Faksåsmyrene" />
		<tag k="natural" v="wetland" />
		<tag k="ssr:stedsnr" v="406702" />
	</node>
	<node lat="59.64924167083465" lon="10.034855548181017" id="-11541">
		<tag k="name" v="Øvre Briskemyr" />
		<tag k="natural" v="wetland" />
		<tag k="ssr:stedsnr" v="449176" />
	</node>
	<node lat="59.77924999711323" lon="10.132569450870353" id="-11542">
		<tag k="name" v="Langemyr" />
		<tag k="natural" v="wetland" />
		<tag k="ssr:stedsnr" v="671149" />
	</node>
	<node lat="59.67036666386853" lon="10.0101111040784" id="-11548">
		<tag k="name" v="Ospesnarmyr" />
		<tag k="natural" v="wetland" />
		<tag k="ssr:stedsnr" v="452228" />
	</node>
	<node lat="59.672672221965605" lon="10.045516674328482" id="-11565">
		<tag k="name" v="Haukelimyr" />
		<tag k="natural" v="wetland" />
		<tag k="ssr:stedsnr" v="467817" />
	</node>
	<node lat="59.581252781722704" lon="10.35883610718616" id="-11590">
		<tag k="name" v="Solbergmyrene" />
		<tag k="natural" v="wetland" />
		<tag k="ssr:stedsnr" v="513267" />
	</node>
	<node lat="59.78442777953788" lon="10.005033339964166" id="-11650">
		<tag k="name" v="Rypemyr" />
		<tag k="natural" v="wetland" />
		<tag k="ssr:stedsnr" v="690957" />
	</node>
	<node lat="59.6545166644371" lon="10.325105554302313" id="-11674">
		<tag k="name" v="Kringlemyr" />
=======
	<node id="-222715" lat="59.6131249987" lon="10.3419277821">
		<tag k="name" v="Petersætra" />
>>>>>>> e1d4bc35ff8a6074a6f2e91616a996b547c36f15
		<tag k="place" v="locality" />
		<tag k="ssr:stedsnr" v="574152" />
	</node>
<<<<<<< HEAD
	<node lat="59.67097222415271" lon="10.14992778314462" id="-11747">
		<tag k="name" v="Oremyra" />
=======
	<node id="-222198" lat="59.5688388851" lon="10.3695833377">
		<tag k="name" v="Høiensætermyrene" />
>>>>>>> e1d4bc35ff8a6074a6f2e91616a996b547c36f15
		<tag k="natural" v="wetland" />
		<tag k="ssr:stedsnr" v="648715" />
	</node>
<<<<<<< HEAD
	<node lat="59.71933333052051" lon="10.08843332786847" id="-11757">
		<tag k="name" v="Ellingmyr" />
=======
	<node id="-222696" lat="59.7866472225" lon="10.0780416653">
		<tag k="name" v="Eggebekkmyra" />
>>>>>>> e1d4bc35ff8a6074a6f2e91616a996b547c36f15
		<tag k="natural" v="wetland" />
		<tag k="ssr:stedsnr" v="707372" />
	</node>
<<<<<<< HEAD
	<node lat="59.714133332231995" lon="10.199886118691527" id="-11833">
		<tag k="name" v="Persmyra" />
=======
	<node id="-221670" lat="59.6478527774" lon="10.3610833402">
		<tag k="name" v="Vassmyr" />
>>>>>>> e1d4bc35ff8a6074a6f2e91616a996b547c36f15
		<tag k="natural" v="wetland" />
		<tag k="ssr:stedsnr" v="725405" />
	</node>
<<<<<<< HEAD
	<node lat="59.75060555729866" lon="10.213383336632798" id="-11839">
		<tag k="landuse" v="meadow" />
		<tag k="name" v="Dalejordet" />
		<tag k="ssr:stedsnr" v="726822" />
	</node>
	<node lat="59.7237333354743" lon="10.128500008754425" id="-11870">
		<tag k="name" v="Fredli" />
=======
	<node id="-222203" lat="59.7947166705" lon="10.1507638939">
		<tag k="name" v="Krestoffermyra" />
		<tag k="natural" v="wetland" />
		<tag k="ssr:stedsnr" v="952215" />
	</node>
	<node id="-221664" lat="59.5812527817" lon="10.3588361072">
		<tag k="name" v="Solbergmyrene" />
		<tag k="natural" v="wetland" />
		<tag k="ssr:stedsnr" v="513267" />
	</node>
	<node id="-221662" lat="59.6643305537" lon="10.35706389">
		<tag k="name" v="Bjørkebråtan" />
>>>>>>> e1d4bc35ff8a6074a6f2e91616a996b547c36f15
		<tag k="place" v="locality" />
		<tag k="ssr:stedsnr" v="750508" />
	</node>
	<node lat="59.60371388565902" lon="10.406238895797355" id="-11885">
		<tag k="name" v="Elvestad" />
		<tag k="place" v="locality" />
		<tag k="ssr:stedsnr" v="756351" />
	</node>
<<<<<<< HEAD
	<node lat="59.76170555746715" lon="10.17492499325431" id="-11907">
		<tag k="name" v="Sparavollen" />
		<tag k="place" v="locality" />
		<tag k="ssr:stedsnr" v="787786" />
	</node>
	<node lat="59.69042499922943" lon="10.024391673938993" id="-11918">
		<tag k="name" v="Kloppmyra" />
		<tag k="natural" v="wetland" />
		<tag k="ssr:stedsnr" v="913179" />
	</node>
	<node lat="59.77503888871974" lon="9.975875007704149" id="-11937">
=======
	<node id="-221656" lat="59.7551099316" lon="10.1879194849">
		<tag k="name" v="Hamborgstrømskogen" />
		<tag k="place" v="locality" />
		<tag k="ssr:stedsnr" v="509477" />
	</node>
	<node id="-222160" lat="59.7323777787" lon="10.0873805532">
>>>>>>> e1d4bc35ff8a6074a6f2e91616a996b547c36f15
		<tag k="name" v="Langemyr" />
		<tag k="natural" v="wetland" />
		<tag k="ssr:stedsnr" v="812738" />
	</node>
<<<<<<< HEAD
	<node lat="59.649308330024596" lon="10.084602775451247" id="-11948">
		<tag k="name" v="Helliksmyra" />
=======
	<node id="-221640" lat="59.6765555594" lon="10.094291674">
		<tag k="name" v="Faksåsmyrene" />
>>>>>>> e1d4bc35ff8a6074a6f2e91616a996b547c36f15
		<tag k="natural" v="wetland" />
		<tag k="ssr:stedsnr" v="829862" />
	</node>
<<<<<<< HEAD
	<node lat="59.79658055264487" lon="10.024486116315492" id="-11981">
		<tag k="name" v="Solbergvannsmyra" />
		<tag k="natural" v="wetland" />
		<tag k="ssr:stedsnr" v="876753" />
	</node>
	<node lat="59.62654166619458" lon="10.395997228694199" id="-11985">
		<tag k="name" v="Sverstadstykket" />
=======
	<node id="-221634" lat="59.6952972204" lon="10.2033527846">
		<tag k="name" v="Lajordet" />
>>>>>>> e1d4bc35ff8a6074a6f2e91616a996b547c36f15
		<tag k="place" v="locality" />
		<tag k="ssr:stedsnr" v="878408" />
	</node>
<<<<<<< HEAD
	<node lat="59.769716668690535" lon="10.014316669874113" id="-12003">
		<tag k="name" v="Oremyr" />
=======
	<node id="-223167" lat="59.6864111115" lon="10.1069027829">
		<tag k="name" v="Migemyr" />
>>>>>>> e1d4bc35ff8a6074a6f2e91616a996b547c36f15
		<tag k="natural" v="wetland" />
		<tag k="ssr:stedsnr" v="933974" />
	</node>
<<<<<<< HEAD
	<node lat="59.77325555633295" lon="10.017975007358602" id="-12004">
		<tag k="name" v="Bjørnemyr" />
=======
	<node id="-221626" lat="59.6542249981" lon="10.0712055594">
		<tag k="name" v="Folabakkmyr" />
>>>>>>> e1d4bc35ff8a6074a6f2e91616a996b547c36f15
		<tag k="natural" v="wetland" />
		<tag k="ssr:stedsnr" v="933977" />
	</node>
<<<<<<< HEAD
	<node lat="59.68930833451746" lon="10.281886105027068" id="-12012">
		<tag k="name" v="Piltingsmyr" />
=======
	<node id="-223161" lat="59.6974388887" lon="10.1122249926">
		<tag k="name" v="Stormyra" />
>>>>>>> e1d4bc35ff8a6074a6f2e91616a996b547c36f15
		<tag k="natural" v="wetland" />
		<tag k="ssr:stedsnr" v="889265" />
	</node>
<<<<<<< HEAD
	<node lat="59.67509166444385" lon="10.078191674251205" id="-12026">
		<tag k="name" v="Furumyr" />
=======
	<node id="-222642" lat="59.6809083349" lon="10.0223499982">
		<tag k="name" v="Eftasmyra" />
>>>>>>> e1d4bc35ff8a6074a6f2e91616a996b547c36f15
		<tag k="natural" v="wetland" />
		<tag k="ssr:stedsnr" v="892774" />
	</node>
<<<<<<< HEAD
	<node lat="59.5688388850682" lon="10.369583337669358" id="-12052">
		<tag k="name" v="Høyensetermyrene" />
		<tag k="natural" v="wetland" />
		<tag k="ssr:stedsnr" v="938211" />
	</node>
	<node lat="59.697438888679784" lon="10.112224992555971" id="-12057">
		<tag k="name" v="Stormyra" />
=======
	<node id="-222129" lat="59.6406222222" lon="10.3466111182">
		<tag k="name" v="Bollsteinkulpen" />
		<tag k="natural" v="wetland" />
		<tag k="ssr:stedsnr" v="938358" />
	</node>
	<node id="-223151" lat="59.650522224" lon="10.3876138844">
		<tag k="landuse" v="quarry" />
		<tag k="name" v="Juve" />
		<tag k="ssr:stedsnr" v="873742" />
	</node>
	<node id="-222125" lat="59.6133666712" lon="10.3624555559">
		<tag k="name" v="Breimyr" />
>>>>>>> e1d4bc35ff8a6074a6f2e91616a996b547c36f15
		<tag k="natural" v="wetland" />
		<tag k="ssr:stedsnr" v="950576" />
	</node>
<<<<<<< HEAD
	<node lat="59.79471667053333" lon="10.15076389393341" id="-12059">
		<tag k="name" v="Krestoffermyra" />
=======
	<node id="-222118" lat="59.7913111142" lon="9.99805833302">
		<tag k="name" v="Spærmyr" />
>>>>>>> e1d4bc35ff8a6074a6f2e91616a996b547c36f15
		<tag k="natural" v="wetland" />
		<tag k="ssr:stedsnr" v="952215" />
	</node>
<<<<<<< HEAD
	<node lat="59.78717221797941" lon="10.048288893511183" id="-12111">
		<tag k="name" v="Tarmmyr" />
=======
	<node id="-222629" lat="59.7781416625" lon="10.0518166683">
		<tag k="name" v="Høymyr" />
>>>>>>> e1d4bc35ff8a6074a6f2e91616a996b547c36f15
		<tag k="natural" v="wetland" />
		<tag k="ssr:stedsnr" v="22481" />
	</node>
<<<<<<< HEAD
	<node lat="59.59399444730667" lon="10.342711104077353" id="-12123">
		<tag k="name" v="Blakkemyra" />
=======
	<node id="-222111" lat="59.7732555563" lon="10.0179750074">
		<tag k="name" v="Bjørnemyr" />
>>>>>>> e1d4bc35ff8a6074a6f2e91616a996b547c36f15
		<tag k="natural" v="wetland" />
		<tag k="ssr:stedsnr" v="28261" />
	</node>
<<<<<<< HEAD
	<node lat="59.721550000719134" lon="10.242719451141134" id="-12149">
		<tag k="name" v="Dagslett" />
		<tag k="place" v="locality" />
		<tag k="ssr:stedsnr" v="41050" />
	</node>
	<node lat="59.674613892034" lon="10.086061117982913" id="-12156">
		<tag k="name" v="Fløyelsmyr" />
=======
	<node id="-222110" lat="59.7697166687" lon="10.0143166699">
		<tag k="name" v="Oremyr" />
		<tag k="natural" v="wetland" />
		<tag k="ssr:stedsnr" v="933974" />
	</node>
	<node id="-221593" lat="59.6681888894" lon="10.0693888968">
		<tag k="alt_name" v="Stormyr" />
		<tag k="name" v="Stormyra" />
>>>>>>> e1d4bc35ff8a6074a6f2e91616a996b547c36f15
		<tag k="natural" v="wetland" />
		<tag k="ssr:stedsnr" v="42771" />
	</node>
<<<<<<< HEAD
	<node lat="59.70592500088004" lon="10.126030564021567" id="-12201">
		<tag k="name" v="Delemyr" />
=======
	<node id="-222614" lat="59.7173888922" lon="10.0773972241">
		<tag k="name" v="Kavlemyra" />
>>>>>>> e1d4bc35ff8a6074a6f2e91616a996b547c36f15
		<tag k="natural" v="wetland" />
		<tag k="ssr:stedsnr" v="100335" />
	</node>
<<<<<<< HEAD
	<node lat="59.78126110784405" lon="10.02004443909999" id="-12254">
		<tag k="name" v="Blakkmyr" />
		<tag k="natural" v="wetland" />
		<tag k="ssr:stedsnr" v="143944" />
	</node>
	<node lat="59.78432777749789" lon="9.98599723111777" id="-12257">
		<tag k="name" v="Flårane" />
=======
	<node id="-221588" lat="59.7653666671" lon="10.1831361172">
		<tag k="name" v="Brunesmyra" />
>>>>>>> e1d4bc35ff8a6074a6f2e91616a996b547c36f15
		<tag k="natural" v="wetland" />
		<tag k="ssr:stedsnr" v="143956" />
	</node>
<<<<<<< HEAD
	<node lat="59.78021388519801" lon="10.156674995479014" id="-12281">
=======
	<node id="-222092" lat="59.661816665" lon="10.3504944465">
>>>>>>> e1d4bc35ff8a6074a6f2e91616a996b547c36f15
		<tag k="historic" v="shieling" />
		<tag k="name" v="Myrsetervollen" />
		<tag k="place" v="locality" />
		<tag k="ssr:stedsnr" v="163132" />
	</node>
<<<<<<< HEAD
	<node lat="59.67561666966824" lon="10.137319448226476" id="-12284">
		<tag k="name" v="Stormyra" />
		<tag k="natural" v="wetland" />
		<tag k="ssr:stedsnr" v="163691" />
	</node>
	<node lat="59.67868332909017" lon="10.1400166738765" id="-12285">
		<tag k="name" v="Kjerringmyra" />
		<tag k="natural" v="wetland" />
		<tag k="ssr:stedsnr" v="163692" />
	</node>
	<node lat="59.67984166350369" lon="10.083797216857555" id="-12288">
		<tag k="name" v="Smalmyr" />
=======
	<node id="-222089" lat="59.7968916701" lon="10.0306083269">
		<tag k="name" v="Vesleura" />
		<tag k="natural" v="scree" />
		<tag k="ssr:stedsnr" v="815720" />
	</node>
	<node id="-222593" lat="59.656344441" lon="10.3638472145">
		<tag k="name" v="Bråtaløkka" />
		<tag k="place" v="locality" />
		<tag k="ssr:stedsnr" v="210380" />
	</node>
	<node id="-222079" lat="59.7210888848" lon="10.2466666624">
		<tag k="name" v="Elimyrene" />
>>>>>>> e1d4bc35ff8a6074a6f2e91616a996b547c36f15
		<tag k="natural" v="wetland" />
		<tag k="ssr:stedsnr" v="163701" />
	</node>
<<<<<<< HEAD
	<node lat="59.82414444618193" lon="10.027547218212842" id="-12327">
		<tag k="name" v="Ringmyr" />
=======
	<node id="-223102" lat="59.6876916648" lon="10.0900722155">
		<tag k="name" v="Musemyra" />
>>>>>>> e1d4bc35ff8a6074a6f2e91616a996b547c36f15
		<tag k="natural" v="wetland" />
		<tag k="ssr:stedsnr" v="207479" />
	</node>
	<node lat="59.66261666906393" lon="10.33720277213623" id="-12334">
		<tag k="name" v="Langmyra" />
		<tag k="natural" v="wetland" />
		<tag k="ssr:stedsnr" v="210153" />
	</node>
<<<<<<< HEAD
	<node lat="59.66278610742485" lon="10.350805563722806" id="-12335">
=======
	<node id="-222586" lat="59.6627861074" lon="10.3508055637">
>>>>>>> e1d4bc35ff8a6074a6f2e91616a996b547c36f15
		<tag k="landuse" v="meadow" />
		<tag k="name" v="Sæterenga" />
		<tag k="ssr:stedsnr" v="210154" />
	</node>
<<<<<<< HEAD
	<node lat="59.653366668788536" lon="10.06179166811679" id="-12354">
		<tag k="name" v="Korsmyr" />
=======
	<node id="-222585" lat="59.6626166691" lon="10.3372027721">
		<tag k="name" v="Langmyra" />
>>>>>>> e1d4bc35ff8a6074a6f2e91616a996b547c36f15
		<tag k="natural" v="wetland" />
		<tag k="ssr:stedsnr" v="222845" />
	</node>
<<<<<<< HEAD
	<node lat="59.68037778044348" lon="10.078716670893344" id="-12372">
		<tag k="name" v="Gårbuskogen" />
		<tag k="place" v="locality" />
		<tag k="ssr:stedsnr" v="283618" />
	</node>
	<node lat="59.674905551566766" lon="10.054641659660358" id="-12396">
		<tag k="name" v="Sekkemyr" />
=======
	<node id="-223095" lat="59.722427775" lon="10.0846750038">
		<tag k="name" v="Damstykket" />
		<tag k="place" v="locality" />
		<tag k="ssr:stedsnr" v="829357" />
	</node>
	<node id="-222581" lat="59.8241444462" lon="10.0275472182">
		<tag k="name" v="Ringmyr" />
		<tag k="natural" v="wetland" />
		<tag k="ssr:stedsnr" v="207479" />
	</node>
	<node id="-222577" lat="59.7864138923" lon="10.0235027842">
		<tag k="name" v="Tømmermyr" />
>>>>>>> e1d4bc35ff8a6074a6f2e91616a996b547c36f15
		<tag k="natural" v="wetland" />
		<tag k="ssr:stedsnr" v="285806" />
	</node>
<<<<<<< HEAD
	<node lat="59.70277499655787" lon="10.057555548314339" id="-12423">
		<tag k="name" v="Katthusmyra" />
=======
	<node id="-221551" lat="59.7702916652" lon="10.1737305481">
		<tag k="name" v="Svartormyra" />
>>>>>>> e1d4bc35ff8a6074a6f2e91616a996b547c36f15
		<tag k="natural" v="wetland" />
		<tag k="ssr:stedsnr" v="306305" />
	</node>
<<<<<<< HEAD
	<node lat="59.717388892200205" lon="10.077397224103798" id="-12425">
		<tag k="name" v="Kavlemyra" />
=======
	<node id="-221543" lat="59.7153444443" lon="10.1691916593">
		<tag k="name" v="Vollemyra" />
>>>>>>> e1d4bc35ff8a6074a6f2e91616a996b547c36f15
		<tag k="natural" v="wetland" />
		<tag k="ssr:stedsnr" v="306242" />
	</node>
<<<<<<< HEAD
	<node lat="59.68090833491329" lon="10.022349998191046" id="-12447">
		<tag k="name" v="Eftasmyra" />
=======
	<node id="-223078" lat="59.7750388887" lon="9.9758750077">
		<tag k="name" v="Langemyr" />
>>>>>>> e1d4bc35ff8a6074a6f2e91616a996b547c36f15
		<tag k="natural" v="wetland" />
		<tag k="ssr:stedsnr" v="331147" />
	</node>
<<<<<<< HEAD
	<node lat="59.765366667100245" lon="10.183136117208804" id="-12479">
		<tag k="name" v="Brunesmyra" />
=======
	<node id="-222564" lat="59.7420888912" lon="10.0514583332">
		<tag k="name" v="Barlindmyra" />
>>>>>>> e1d4bc35ff8a6074a6f2e91616a996b547c36f15
		<tag k="natural" v="wetland" />
		<tag k="ssr:stedsnr" v="362815" />
	</node>
<<<<<<< HEAD
	<node lat="59.78664722247759" lon="10.078041665348445" id="-12491">
		<tag k="name" v="Eggebekkmyra" />
=======
	<node id="-222048" lat="59.6904249992" lon="10.0243916739">
		<tag k="name" v="Kloppmyra" />
>>>>>>> e1d4bc35ff8a6074a6f2e91616a996b547c36f15
		<tag k="natural" v="wetland" />
		<tag k="ssr:stedsnr" v="386479" />
	</node>
<<<<<<< HEAD
	<node lat="59.65422499809384" lon="10.07120555938354" id="-12520">
		<tag k="name" v="Folabakkmyr" />
=======
	<node id="-221530" lat="59.7027749966" lon="10.0575555483">
		<tag k="name" v="Katthusmyra" />
>>>>>>> e1d4bc35ff8a6074a6f2e91616a996b547c36f15
		<tag k="natural" v="wetland" />
		<tag k="ssr:stedsnr" v="403859" />
	</node>
<<<<<<< HEAD
	<node lat="59.69529722044849" lon="10.203352784580547" id="-12530">
		<tag k="name" v="Lajordet" />
		<tag k="place" v="locality" />
		<tag k="ssr:stedsnr" v="404563" />
	</node>
	<node lat="59.69579444530895" lon="10.086727773871873" id="-12533">
		<tag k="name" v="Hestmyra" />
		<tag k="natural" v="wetland" />
		<tag k="ssr:stedsnr" v="404634" />
	</node>
	<node lat="59.75510993157846" lon="10.187919484899558" id="-12585">
		<tag k="name" v="Hamborgstrømskogen" />
		<tag k="place" v="locality" />
		<tag k="ssr:stedsnr" v="509477" />
	</node>
	<node lat="59.66433055370435" lon="10.357063889996674" id="-12589">
		<tag k="name" v="Bjørkebråtan" />
=======
	<node id="-222039" lat="59.7237333355" lon="10.1285000088">
		<tag k="name" v="Fredli" />
		<tag k="place" v="locality" />
		<tag k="ssr:stedsnr" v="750508" />
	</node>
	<node id="-221497" lat="59.6749055516" lon="10.0546416597">
		<tag k="name" v="Sekkemyr" />
		<tag k="natural" v="wetland" />
		<tag k="ssr:stedsnr" v="285806" />
	</node>
	<node id="-223058" lat="59.7171750031" lon="10.1705361039">
		<tag k="name" v="Gråstein" />
		<tag k="natural" v="stone" />
		<tag k="ssr:stedsnr" v="792275" />
	</node>
	<node id="-222027" lat="59.7506055573" lon="10.2133833366">
		<tag k="landuse" v="meadow" />
		<tag k="name" v="Dalejordet" />
		<tag k="ssr:stedsnr" v="726822" />
	</node>
	<node id="-222023" lat="59.7141333322" lon="10.1998861187">
		<tag k="name" v="Persmyra" />
		<tag k="natural" v="wetland" />
		<tag k="ssr:stedsnr" v="725405" />
	</node>
	<node id="-223045" lat="59.7617055575" lon="10.1749249933">
		<tag k="name" v="Sparavollen" />
		<tag k="place" v="locality" />
		<tag k="ssr:stedsnr" v="787786" />
	</node>
	<node id="-222019" lat="59.6750916644" lon="10.0781916743">
		<tag k="name" v="Furumyr" />
		<tag k="natural" v="wetland" />
		<tag k="ssr:stedsnr" v="892774" />
	</node>
	<node id="-222530" lat="59.7096527734" lon="10.2441083244">
		<tag k="name" v="Solumhavna" />
>>>>>>> e1d4bc35ff8a6074a6f2e91616a996b547c36f15
		<tag k="place" v="locality" />
		<tag k="ssr:stedsnr" v="513139" />
	</node>
<<<<<<< HEAD
	<node lat="59.64785277741438" lon="10.361083340245715" id="-12593">
		<tag k="name" v="Vassmyr" />
=======
	<node id="-222524" lat="59.6798416635" lon="10.0837972169">
		<tag k="name" v="Smalmyr" />
>>>>>>> e1d4bc35ff8a6074a6f2e91616a996b547c36f15
		<tag k="natural" v="wetland" />
		<tag k="ssr:stedsnr" v="513396" />
	</node>
<<<<<<< HEAD
	<node lat="59.71179444271718" lon="10.1764444522634" id="-12614">
		<tag k="name" v="Haremyra" />
=======
	<node id="-222521" lat="59.6786833291" lon="10.1400166739">
		<tag k="name" v="Kjerringmyra" />
>>>>>>> e1d4bc35ff8a6074a6f2e91616a996b547c36f15
		<tag k="natural" v="wetland" />
		<tag k="ssr:stedsnr" v="542429" />
	</node>
<<<<<<< HEAD
	<node lat="59.702361114065354" lon="10.176986112543522" id="-12615">
		<tag k="name" v="Sagstykket" />
		<tag k="place" v="locality" />
		<tag k="ssr:stedsnr" v="542321" />
	</node>
	<node lat="59.654849997265444" lon="10.097447223973175" id="-12625">
		<tag k="name" v="Løkemyra" />
=======
	<node id="-222520" lat="59.6756166697" lon="10.1373194482">
		<tag k="name" v="Stormyra" />
		<tag k="natural" v="wetland" />
		<tag k="ssr:stedsnr" v="163691" />
	</node>
	<node id="-221493" lat="59.6263111071" lon="10.3571416716">
		<tag k="name" v="Øvre Kloppmyr" />
>>>>>>> e1d4bc35ff8a6074a6f2e91616a996b547c36f15
		<tag k="natural" v="wetland" />
		<tag k="ssr:stedsnr" v="549143" />
	</node>
<<<<<<< HEAD
	<node lat="59.80551389014123" lon="10.031622228515623" id="-12650">
		<tag k="name" v="Storura" />
		<tag k="natural" v="scree" />
		<tag k="ssr:stedsnr" v="572742" />
	</node>
	<node lat="59.62198889148429" lon="10.351147220058909" id="-12654">
		<tag k="name" v="Båsen" />
=======
	<node id="-222515" lat="59.7802138852" lon="10.1566749955">
		<tag k="historic" v="shieling" />
		<tag k="name" v="Myrsetervollen" />
		<tag k="place" v="locality" />
		<tag k="ssr:stedsnr" v="163132" />
	</node>
	<node id="-223016" lat="59.6037138857" lon="10.4062388958">
		<tag k="name" v="Elvestad" />
>>>>>>> e1d4bc35ff8a6074a6f2e91616a996b547c36f15
		<tag k="place" v="locality" />
		<tag k="ssr:stedsnr" v="574207" />
	</node>
<<<<<<< HEAD
	<node lat="59.62480555812376" lon="10.361797226708157" id="-12655">
		<tag k="name" v="Nedre Kloppmyr" />
=======
	<node id="-222503" lat="59.6830138905" lon="10.0680027775">
		<tag k="name" v="Setermyr" />
>>>>>>> e1d4bc35ff8a6074a6f2e91616a996b547c36f15
		<tag k="natural" v="wetland" />
		<tag k="ssr:stedsnr" v="574209" />
	</node>
<<<<<<< HEAD
	<node lat="59.69567777573797" lon="10.188211118954593" id="-12670">
		<tag k="name" v="Krøttermyra" />
=======
	<node id="-221476" lat="59.6492416708" lon="10.0348555482">
		<tag k="name" v="Øvre Briskemyr" />
>>>>>>> e1d4bc35ff8a6074a6f2e91616a996b547c36f15
		<tag k="natural" v="wetland" />
		<tag k="ssr:stedsnr" v="586584" />
	</node>
<<<<<<< HEAD
	<node lat="59.70851388574794" lon="10.215413885021515" id="-12675">
		<tag k="name" v="Postmyrene" />
=======
	<node id="-221980" lat="59.6893083345" lon="10.281886105">
		<tag k="name" v="Piltingsmyr" />
>>>>>>> e1d4bc35ff8a6074a6f2e91616a996b547c36f15
		<tag k="natural" v="wetland" />
		<tag k="ssr:stedsnr" v="587032" />
	</node>
<<<<<<< HEAD
	<node lat="59.56961944770657" lon="10.352674997315416" id="-12730">
		<tag k="name" v="Høgåsemyrene" />
=======
	<node id="-222491" lat="59.7843277775" lon="9.98599723112">
		<tag k="name" v="Flårane" />
>>>>>>> e1d4bc35ff8a6074a6f2e91616a996b547c36f15
		<tag k="natural" v="wetland" />
		<tag k="ssr:stedsnr" v="634224" />
	</node>
<<<<<<< HEAD
	<node lat="59.58683888721489" lon="10.3481583393879" id="-12737">
		<tag k="name" v="Fokslemyra" />
		<tag k="natural" v="wetland" />
		<tag k="ssr:stedsnr" v="634261" />
	</node>
	<node lat="59.71071944228406" lon="10.08017221740423" id="-12742">
		<tag k="landuse" v="quarry" />
		<tag k="name" v="Nikkerudgruvene" />
		<tag k="ssr:stedsnr" v="646348" />
	</node>
	<node lat="59.64770278192054" lon="10.047897218445701" id="-12748">
		<tag k="name" v="Høgmyrene" />
=======
	<node id="-222488" lat="59.7812611078" lon="10.0200444391">
		<tag k="name" v="Blakkmyr" />
		<tag k="natural" v="wetland" />
		<tag k="ssr:stedsnr" v="143944" />
	</node>
	<node id="-222486" lat="59.7668249998" lon="10.009941669">
		<tag k="name" v="Langløkka" />
		<tag k="place" v="locality" />
		<tag k="ssr:stedsnr" v="143913" />
	</node>
	<node id="-221967" lat="59.6265416662" lon="10.3959972287">
		<tag k="name" v="Sverstadstykket" />
		<tag k="place" v="locality" />
		<tag k="ssr:stedsnr" v="878408" />
	</node>
	<node id="-221453" lat="59.7347111068" lon="10.1243666645">
		<tag k="landuse" v="quarry" />
		<tag k="name" v="Kontaktstollen" />
		<tag k="ssr:stedsnr" v="241814" />
	</node>
	<node id="-221451" lat="59.7507944488" lon="10.1988500082">
		<tag k="name" v="Huldrehagan" />
		<tag k="place" v="locality" />
		<tag k="ssr:stedsnr" v="241754" />
	</node>
	<node id="-222982" lat="59.6709722242" lon="10.1499277831">
		<tag k="name" v="Oremyra" />
>>>>>>> e1d4bc35ff8a6074a6f2e91616a996b547c36f15
		<tag k="natural" v="wetland" />
		<tag k="ssr:stedsnr" v="646838" />
	</node>
<<<<<<< HEAD
	<node lat="59.72413055739691" lon="10.230669441301023" id="-12773">
		<tag k="landuse" v="meadow" />
		<tag k="name" v="Gustavs jorde" />
		<tag k="ssr:stedsnr" v="665871" />
	</node>
	<node lat="59.6899611099309" lon="10.037361119623498" id="-12789">
		<tag k="name" v="Løkmyra" />
=======
	<node id="-223105" lat="59.64930833" lon="10.0846027755">
		<tag k="name" v="Helliksmyra" />
		<tag k="natural" v="wetland" />
		<tag k="ssr:stedsnr" v="829862" />
	</node>
	<node id="-221955" lat="59.6963888858" lon="9.99703888739">
		<tag k="name" v="Vintermyrene" />
>>>>>>> e1d4bc35ff8a6074a6f2e91616a996b547c36f15
		<tag k="natural" v="wetland" />
		<tag k="ssr:stedsnr" v="731151" />
	</node>
<<<<<<< HEAD
	<node lat="59.66862222473507" lon="10.170813892178066" id="-12795">
		<tag k="name" v="Fuglemyra" />
=======
	<node id="-222976" lat="59.6477027819" lon="10.0478972184">
		<tag k="name" v="Høgmyrene" />
>>>>>>> e1d4bc35ff8a6074a6f2e91616a996b547c36f15
		<tag k="natural" v="wetland" />
		<tag k="ssr:stedsnr" v="731179" />
	</node>
<<<<<<< HEAD
	<node lat="59.66742777589906" lon="10.15684722974455" id="-12796">
		<tag k="name" v="Vassmyra" />
=======
	<node id="-221951" lat="59.7965805526" lon="10.0244861163">
		<tag k="name" v="Solbergvannsmyra" />
>>>>>>> e1d4bc35ff8a6074a6f2e91616a996b547c36f15
		<tag k="natural" v="wetland" />
		<tag k="ssr:stedsnr" v="731181" />
	</node>
<<<<<<< HEAD
	<node lat="59.73094444478463" lon="10.11422777832529" id="-12806">
		<tag k="name" v="Sørvollen" />
		<tag k="place" v="locality" />
		<tag k="ssr:stedsnr" v="750497" />
	</node>
	<node lat="59.72108888482034" lon="10.24666666241226" id="-12826">
		<tag k="name" v="Elimyrene" />
=======
	<node id="-222970" lat="59.7107194423" lon="10.0801722174">
		<tag k="landuse" v="quarry" />
		<tag k="name" v="Nikkerudgruvene" />
		<tag k="ssr:stedsnr" v="646348" />
	</node>
	<node id="-222960" lat="59.5696194477" lon="10.3526749973">
		<tag k="name" v="Høgåsemyrene" />
>>>>>>> e1d4bc35ff8a6074a6f2e91616a996b547c36f15
		<tag k="natural" v="wetland" />
		<tag k="ssr:stedsnr" v="770059" />
	</node>
<<<<<<< HEAD
	<node lat="59.71717500307024" lon="10.170536103864977" id="-12851">
		<tag k="name" v="Gråstein" />
		<tag k="natural" v="stone" />
		<tag k="ssr:stedsnr" v="792275" />
	</node>
	<node lat="59.796891670122825" lon="10.030608326875841" id="-12868">
		<tag k="name" v="Vesleura" />
		<tag k="natural" v="scree" />
		<tag k="ssr:stedsnr" v="815720" />
	</node>
	<node lat="59.66181666501858" lon="10.350494446539328" id="-12874">
		<tag k="historic" v="shieling" />
		<tag k="name" v="Nordbysætra" />
=======
	<node id="-222443" lat="59.652458332" lon="10.0544805614">
		<tag k="alt_name" v="Stakamyr" />
		<tag k="name" v="Stakamyrane" />
		<tag k="natural" v="wetland" />
		<tag k="ssr:stedsnr" v="124113" />
	</node>
	<node id="-221410" lat="59.6803777804" lon="10.0787166709">
		<tag k="name" v="Gårbuskogen" />
>>>>>>> e1d4bc35ff8a6074a6f2e91616a996b547c36f15
		<tag k="place" v="locality" />
		<tag k="ssr:stedsnr" v="817153" />
	</node>
<<<<<<< HEAD
	<node lat="59.72242777497491" lon="10.08467500383937" id="-12884">
		<tag k="name" v="Damstykket" />
		<tag k="place" v="locality" />
		<tag k="ssr:stedsnr" v="829357" />
	</node>
	<node lat="59.68769166483218" lon="10.090072215539717" id="-12890">
		<tag k="name" v="Musemyra" />
=======
	<node id="-221915" lat="59.6674277759" lon="10.1568472297">
		<tag k="name" v="Vassmyra" />
>>>>>>> e1d4bc35ff8a6074a6f2e91616a996b547c36f15
		<tag k="natural" v="wetland" />
		<tag k="ssr:stedsnr" v="829656" />
	</node>
<<<<<<< HEAD
	<node lat="59.65052222400254" lon="10.387613884370001" id="-12931">
		<tag k="landuse" v="quarry" />
		<tag k="name" v="Juve" />
		<tag k="ssr:stedsnr" v="873742" />
	</node>
	<node lat="59.73237777867383" lon="10.087380553201848" id="-12937">
		<tag k="name" v="Langemyr" />
=======
	<node id="-221914" lat="59.6686222247" lon="10.1708138922">
		<tag k="name" v="Fuglemyra" />
		<tag k="natural" v="wetland" />
		<tag k="ssr:stedsnr" v="731179" />
	</node>
	<node id="-221908" lat="59.6899611099" lon="10.0373611196">
		<tag k="name" v="Løkmyra" />
>>>>>>> e1d4bc35ff8a6074a6f2e91616a996b547c36f15
		<tag k="natural" v="wetland" />
		<tag k="ssr:stedsnr" v="872620" />
	</node>
<<<<<<< HEAD
	<node lat="59.69638888578665" lon="9.99703888739087" id="-12957">
		<tag k="name" v="Vintermyrene" />
		<tag k="natural" v="wetland" />
		<tag k="ssr:stedsnr" v="877145" />
	</node>
	<node lat="59.79131111420812" lon="9.998058333019" id="-12971">
		<tag k="name" v="Spærmyr" />
=======
	<node id="-222418" lat="59.6817138854" lon="10.1444166655">
		<tag k="landuse" v="meadow" />
		<tag k="name" v="Utenga" />
		<tag k="ssr:stedsnr" v="101703" />
	</node>
	<node id="-221905" lat="59.5868388872" lon="10.3481583394">
		<tag k="name" v="Fokslemyra" />
>>>>>>> e1d4bc35ff8a6074a6f2e91616a996b547c36f15
		<tag k="natural" v="wetland" />
		<tag k="ssr:stedsnr" v="937777" />
	</node>
<<<<<<< HEAD
	<node lat="59.61336667117876" lon="10.362455555907724" id="-12975">
		<tag k="name" v="Breimyr" />
=======
	<node id="-222412" lat="59.7059250009" lon="10.126030564">
		<tag k="name" v="Delemyr" />
>>>>>>> e1d4bc35ff8a6074a6f2e91616a996b547c36f15
		<tag k="natural" v="wetland" />
		<tag k="ssr:stedsnr" v="938153" />
	</node>
<<<<<<< HEAD
	<node lat="59.64062222223831" lon="10.346611118181864" id="-12981">
		<tag k="name" v="Bollsteinkulpen" />
		<tag k="natural" v="wetland" />
		<tag k="ssr:stedsnr" v="938358" />
	</node>
	<node lat="59.63890278025967" lon="10.352911102476122" id="-12982">
		<tag k="name" v="Bolesteinkleivene" />
=======
	<node id="-221382" lat="59.7259083375" lon="10.2403027762">
		<tag k="landuse" v="meadow" />
		<tag k="name" v="Myra" />
		<tag k="ssr:stedsnr" v="161954" />
	</node>
	<node id="-221377" lat="59.6434333325" lon="10.0713527832">
		<tag k="name" v="Videvangsmyr" />
		<tag k="natural" v="wetland" />
		<tag k="ssr:stedsnr" v="149722" />
	</node>
	<node id="-221376" lat="59.6867805587" lon="10.3456388942">
		<tag k="name" v="Grønlihavna" />
		<tag k="place" v="locality" />
		<tag k="ssr:stedsnr" v="149365" />
	</node>
	<node id="-221540" lat="59.7070388853" lon="10.1799916633">
		<tag k="name" v="Sildemyra" />
		<tag k="natural" v="wetland" />
		<tag k="ssr:stedsnr" v="482336" />
	</node>
	<node id="-222905" lat="59.7085138857" lon="10.215413885">
		<tag k="name" v="Postmyrene" />
		<tag k="natural" v="wetland" />
		<tag k="ssr:stedsnr" v="587032" />
	</node>
	<node id="-221361" lat="59.6514111114" lon="10.0339611145">
		<tag k="name" v="Nedre Briskemyr" />
		<tag k="natural" v="wetland" />
		<tag k="ssr:stedsnr" v="267140" />
	</node>
	<node id="-222892" lat="59.6956777757" lon="10.188211119">
		<tag k="name" v="Krøttermyra" />
		<tag k="natural" v="wetland" />
		<tag k="ssr:stedsnr" v="586584" />
	</node>
	<node id="-221351" lat="59.7282083321" lon="10.0771972221">
		<tag k="name" v="Treholtmyra" />
		<tag k="natural" v="wetland" />
		<tag k="ssr:stedsnr" v="265583" />
	</node>
	<node id="-221343" lat="59.7541722227" lon="10.1826333378">
		<tag k="name" v="Neperudjordet" />
		<tag k="place" v="locality" />
		<tag k="ssr:stedsnr" v="119788" />
	</node>
	<node id="-222875" lat="59.6248055581" lon="10.3617972267">
		<tag k="name" v="Nedre Kloppmyr" />
		<tag k="natural" v="wetland" />
		<tag k="ssr:stedsnr" v="574209" />
	</node>
	<node id="-222874" lat="59.6219888915" lon="10.3511472201">
		<tag k="name" v="Båsen" />
		<tag k="place" v="locality" />
		<tag k="ssr:stedsnr" v="574207" />
	</node>
	<node id="-222871" lat="59.6545166644" lon="10.3251055543">
		<tag k="name" v="Kringlemyr" />
		<tag k="place" v="locality" />
		<tag k="ssr:stedsnr" v="574152" />
	</node>
	<node id="-222356" lat="59.674613892" lon="10.086061118">
		<tag k="name" v="Fløyelsmyr" />
		<tag k="natural" v="wetland" />
		<tag k="ssr:stedsnr" v="42771" />
	</node>
	<node id="-222867" lat="59.8055138901" lon="10.0316222285">
		<tag k="name" v="Storura" />
		<tag k="natural" v="scree" />
		<tag k="ssr:stedsnr" v="572742" />
	</node>
	<node id="-221326" lat="59.7060750016" lon="10.1396861155">
		<tag k="name" v="Svensrudmoen" />
		<tag k="place" v="locality" />
		<tag k="ssr:stedsnr" v="100327" />
	</node>
	<node id="-222346" lat="59.7215500007" lon="10.2427194511">
		<tag k="name" v="Dagslett" />
		<tag k="place" v="locality" />
		<tag k="ssr:stedsnr" v="41050" />
	</node>
	<node id="-221833" lat="59.7193333305" lon="10.0884333279">
		<tag k="name" v="Ellingmyr" />
		<tag k="natural" v="wetland" />
		<tag k="ssr:stedsnr" v="707372" />
	</node>
	<node id="-222998" lat="59.7309444448" lon="10.1142277783">
		<tag k="name" v="Sørvollen" />
>>>>>>> e1d4bc35ff8a6074a6f2e91616a996b547c36f15
		<tag k="place" v="locality" />
		<tag k="ssr:stedsnr" v="938362" />
	</node>
<<<<<<< HEAD
	<node lat="59.68641111153201" lon="10.106902782875798" id="-12995">
		<tag k="name" v="Migemyr" />
		<tag k="natural" v="wetland" />
		<tag k="ssr:stedsnr" v="950673" />
=======
	<node id="-222322" lat="59.5939944473" lon="10.3427111041">
		<tag k="name" v="Blakkemyra" />
		<tag k="natural" v="wetland" />
		<tag k="ssr:stedsnr" v="28261" />
	</node>
	<node id="-222309" lat="59.787172218" lon="10.0482888935">
		<tag k="name" v="Tarmmyr" />
		<tag k="natural" v="wetland" />
		<tag k="ssr:stedsnr" v="22481" />
	</node>
	<node id="-222819" lat="59.6548499973" lon="10.097447224">
		<tag k="name" v="Løkemyra" />
		<tag k="natural" v="wetland" />
		<tag k="ssr:stedsnr" v="549143" />
	</node>
	<node id="-221792" lat="59.7844277795" lon="10.00503334">
		<tag k="name" v="Rypemyr" />
		<tag k="natural" v="wetland" />
		<tag k="ssr:stedsnr" v="690957" />
	</node>
	<node id="-221271" lat="59.702380555" lon="10.1626972221">
		<tag k="name" v="Skallstadskogen" />
		<tag k="place" v="locality" />
		<tag k="ssr:stedsnr" v="239318" />
	</node>
	<node id="-221369" lat="59.7972555522" lon="10.0147111026">
		<tag k="name" v="Langmyrene" />
		<tag k="natural" v="wetland" />
		<tag k="ssr:stedsnr" v="147711" />
	</node>
	<node id="-222803" lat="59.7023611141" lon="10.1769861125">
		<tag k="name" v="Sagstykket" />
		<tag k="place" v="locality" />
		<tag k="ssr:stedsnr" v="542321" />
	</node>
	<node id="-221244" lat="59.7836166707" lon="10.1249805544">
		<tag k="name" v="Spirmyr" />
		<tag k="natural" v="wetland" />
		<tag k="ssr:stedsnr" v="22722" />
	</node>
	<node id="-221239" lat="59.6786916657" lon="10.0782361101">
		<tag k="name" v="Stormyr" />
		<tag k="natural" v="wetland" />
		<tag k="ssr:stedsnr" v="224798" />
	</node>
	<node id="-221238" lat="59.6786861139" lon="10.0853916651">
		<tag k="name" v="Gårdbuskogen" />
		<tag k="place" v="locality" />
		<tag k="ssr:stedsnr" v="224796" />
	</node>
	<node id="-221743" lat="59.7792499971" lon="10.1325694509">
		<tag k="name" v="Langemyr" />
		<tag k="natural" v="wetland" />
		<tag k="ssr:stedsnr" v="671149" />
	</node>
	<node id="-222130" lat="59.6389027803" lon="10.3529111025">
		<tag k="name" v="Bolesteinkleivene" />
		<tag k="place" v="locality" />
		<tag k="ssr:stedsnr" v="938362" />
	</node>
	<node id="-221733" lat="59.672672222" lon="10.0455166743">
		<tag k="name" v="Haukelimyr" />
		<tag k="natural" v="wetland" />
		<tag k="ssr:stedsnr" v="467817" />
	</node>
	<node id="-221216" lat="59.6533666688" lon="10.0617916681">
		<tag k="name" v="Korsmyr" />
		<tag k="natural" v="wetland" />
		<tag k="ssr:stedsnr" v="222845" />
	</node>
	<node id="-221712" lat="59.7241305574" lon="10.2306694413">
		<tag k="landuse" v="meadow" />
		<tag k="name" v="Gustavs jorde" />
		<tag k="ssr:stedsnr" v="665871" />
	</node>
	<node id="-222732" lat="59.6957944453" lon="10.0867277739">
		<tag k="name" v="Hestmyra" />
		<tag k="natural" v="wetland" />
		<tag k="ssr:stedsnr" v="404634" />
	</node>
	<node id="-222807" lat="59.7117944427" lon="10.1764444523">
		<tag k="name" v="Haremyra" />
		<tag k="natural" v="wetland" />
		<tag k="ssr:stedsnr" v="542429" />
	</node>
	<node id="-221703" lat="59.6703666639" lon="10.0101111041">
		<tag k="name" v="Ospesnarmyr" />
		<tag k="natural" v="wetland" />
		<tag k="ssr:stedsnr" v="452228" />
	</node>
	<node id="-221701" lat="59.7982194483" lon="10.0104138919">
		<tag k="name" v="Tarmmyr" />
		<tag k="natural" v="wetland" />
		<tag k="ssr:stedsnr" v="451739" />
	</node>
	<node id="-221699" lat="59.8264388909" lon="10.0216500018">
		<tag k="name" v="Okseøye" />
		<tag k="natural" v="wetland" />
		<tag k="ssr:stedsnr" v="450526" />
>>>>>>> e1d4bc35ff8a6074a6f2e91616a996b547c36f15
	</node>
</osm>
