<?xml version="1.0" encoding="UTF-8"?>
<osm generator="osmapis" version="0.6">
	<node id="-221696" lat="59.7765166636" lon="10.1199055608">
		<tag k="name" v="Gamledammen" />
		<tag k="natural" v="water" />
		<tag k="ssr:stedsnr" v="447714" />
	</node>
	<node id="-222202" lat="59.7893916639" lon="10.1120250009">
		<tag k="name" v="Lomtjern" />
		<tag k="natural" v="water" />
		<tag k="ssr:stedsnr" v="952211" />
	</node>
	<node id="-221687" lat="59.6120999987" lon="10.3702166624">
		<tag k="name" v="Hellumvannet" />
		<tag k="natural" v="water" />
		<tag k="ssr:stedsnr" v="428604" />
	</node>
	<node id="-221686" lat="59.6737499991" lon="10.0657305585">
		<tag k="name" v="Trytetjernbekken" />
		<tag k="ssr:stedsnr" v="428202" />
		<tag k="waterway" v="stream" />
	</node>
	<node id="-221685" lat="59.6655249989" lon="10.0991250057">
		<tag k="name" v="Gravdalsbekken" />
		<tag k="ssr:stedsnr" v="428127" />
		<tag k="waterway" v="stream" />
	</node>
	<node id="-222196" lat="59.5836083337" lon="10.3839111124">
		<tag k="name" v="Aukebekken" />
		<tag k="ssr:stedsnr" v="938341" />
		<tag k="waterway" v="stream" />
	</node>
	<node id="-221683" lat="59.664313885" lon="10.3039833356">
		<tag k="name" v="Røysjø" />
		<tag k="natural" v="water" />
		<tag k="ssr:stedsnr" v="428116" />
		<tag k="water" v="lake" />
	</node>
	<node id="-222193" lat="59.7250694425" lon="10.0509916692">
		<tag k="name" v="Kariøya" />
		<tag k="place" v="island" />
		<tag k="ssr:stedsnr" v="933608" />
	</node>
	<node id="-222192" lat="59.7264111107" lon="10.0419249946">
		<tag k="name" v="Vinterstøa" />
		<tag k="natural" v="bay" />
		<tag k="ssr:stedsnr" v="933605" />
	</node>
	<node id="-221608" lat="59.7711138914" lon="10.0305083303">
		<tag k="name" v="Svarttjernbekken" />
		<tag k="ssr:stedsnr" v="386963" />
		<tag k="waterway" v="stream" />
	</node>
	<node id="-221673" lat="59.71194722" lon="10.1542833266">
		<tag k="name" v="Svendsedammen" />
		<tag k="natural" v="water" />
		<tag k="ssr:stedsnr" v="421310" />
	</node>
	<node id="-222691" lat="59.7996055598" lon="10.09323056">
		<tag k="name" v="Marivannet" />
		<tag k="natural" v="water" />
		<tag k="ssr:stedsnr" v="368276" />
	</node>
	<node id="-222177" lat="59.7167555517" lon="10.1405111033">
		<tag k="name" v="Hammerdammen" />
		<tag k="natural" v="water" />
		<tag k="ssr:stedsnr" v="950343" />
	</node>
	<node id="-221776" lat="59.7745027794" lon="10.0561305514">
		<tag k="name" v="Tjernsøyet" />
		<tag k="natural" v="water" />
		<tag k="ssr:stedsnr" v="690549" />
	</node>
	<node id="-222683" lat="59.7125459232" lon="10.1220821472">
		<tag k="fixme" v="multiple name tags, choose one and add the other to alt_name" />
		<tag k="name" v="Dalabekken;Kulpebekken" />
		<tag k="ssr:stedsnr" v="367242" />
		<tag k="waterway" v="stream" />
	</node>
	<node id="-222169" lat="59.7611944441" lon="10.0841277776">
		<tag k="name" v="Ulverudbekken" />
		<tag k="ssr:stedsnr" v="872877" />
		<tag k="waterway" v="stream" />
	</node>
	<node id="-222112" lat="59.7553027738" lon="10.0331361097">
		<tag k="alt_name" v="Stensetøya" />
		<tag k="name" v="Steinsetøya" />
		<tag k="place" v="island" />
		<tag k="ssr:stedsnr" v="933998" />
	</node>
	<node id="-222678" lat="59.6419555529" lon="10.036777782">
		<tag k="alt_name" v="Lille Svartetjern" />
		<tag k="name" v="Vesle Svarttjern" />
		<tag k="natural" v="water" />
		<tag k="ssr:stedsnr" v="367142" />
	</node>
	<node id="-222677" lat="59.7503047764" lon="10.117487497">
		<tag k="alt_name" v="Langøya" />
		<tag k="name" v="Langesøya" />
		<tag k="old_name" v="Langøen" />
		<tag k="place" v="island" />
		<tag k="ssr:stedsnr" v="366367" />
	</node>
	<node id="-222164" lat="59.7874749992" lon="10.1383111175">
		<tag k="name" v="Kaffedammen" />
		<tag k="natural" v="water" />
		<tag k="ssr:stedsnr" v="872761" />
	</node>
	<node id="-221650" lat="59.7410583292" lon="10.0788527799">
		<tag k="name" v="Skjellsbekk" />
		<tag k="ssr:stedsnr" v="508618" />
		<tag k="waterway" v="stream" />
	</node>
	<node id="-222668" lat="59.7900555517" lon="10.119474991">
		<tag k="name" v="Setertjern" />
		<tag k="natural" v="water" />
		<tag k="ssr:stedsnr" v="345200" />
	</node>
	<node id="-221907" lat="59.6472388888" lon="10.0679250062">
		<tag k="name" v="Svartevannet" />
		<tag k="natural" v="water" />
		<tag k="ssr:stedsnr" v="731149" />
	</node>
	<node id="-222154" lat="59.6865288658" lon="10.1143361178">
		<tag k="name" v="Løken" />
		<tag k="natural" v="water" />
		<tag k="ssr:stedsnr" v="853165" />
	</node>
	<node id="-221641" lat="59.6648611111" lon="10.1127777799">
		<tag k="name" v="Bergevannsbekken" />
		<tag k="ssr:stedsnr" v="406709" />
		<tag k="waterway" v="stream" />
	</node>
	<node id="-221941" lat="59.83099643" lon="10.0668426272">
		<tag k="alt_name" v="Langvatn" />
		<tag k="name" v="Langvannet" />
		<tag k="natural" v="water" />
		<tag k="ssr:stedsnr" v="733476" />
		<tag k="water" v="lake" />
	</node>
	<node id="-222150" lat="59.7208250012" lon="10.0104250021">
		<tag k="name" v="Grytjerna" />
		<tag k="natural" v="water" />
		<tag k="ssr:stedsnr" v="853259" />
		<tag k="water" v="lake" />
	</node>
	<node id="-222149" lat="59.7160821802" lon="10.0024163511">
		<tag k="name" v="Aurtjern" />
		<tag k="natural" v="water" />
		<tag k="ssr:stedsnr" v="853256" />
	</node>
	<node id="-222148" lat="59.7955111071" lon="10.0889083312">
		<tag k="name" v="Gravningen" />
		<tag k="natural" v="water" />
		<tag k="ssr:stedsnr" v="853218" />
	</node>
	<node id="-223171" lat="59.6611944417" lon="10.1090361066">
		<tag k="name" v="Bomannsdammen" />
		<tag k="ssr:stedsnr" v="952696" />
		<tag k="waterway" v="dam" />
	</node>
	<node id="-222146" lat="59.6831666695" lon="10.0591111031">
		<tag k="name" v="Korsbekken" />
		<tag k="ssr:stedsnr" v="853215" />
		<tag k="waterway" v="stream" />
	</node>
	<node id="-222640" lat="59.8164861132" lon="10.0289722156">
		<tag k="name" v="Temtetangen" />
		<tag k="natural" v="cape" />
		<tag k="ssr:stedsnr" v="329488" />
	</node>
	<node id="-223136" lat="59.8128250017" lon="10.0916500026">
		<tag k="name" v="Vrangen" />
		<tag k="natural" v="water" />
		<tag k="ssr:stedsnr" v="853184" />
		<tag k="water" v="lake" />
	</node>
	<node id="-222141" lat="59.6566027805" lon="10.3207249941">
		<tag k="name" v="Nordbykupa" />
		<tag k="natural" v="water" />
		<tag k="ssr:stedsnr" v="853108" />
	</node>
	<node id="-222650" lat="59.6865111122" lon="10.318472219">
		<tag k="name" v="Tørkoppbekken" />
		<tag k="ssr:stedsnr" v="331372" />
		<tag k="waterway" v="stream" />
	</node>
	<node id="-222646" lat="59.6413333352" lon="10.3377666704">
		<tag k="name" v="Salevannet" />
		<tag k="natural" v="water" />
		<tag k="ssr:stedsnr" v="331361" />
	</node>
	<node id="-221427" lat="59.7904722228" lon="10.1358111043">
		<tag k="name" v="Olletjern" />
		<tag k="natural" v="water" />
		<tag k="ssr:stedsnr" v="284182" />
	</node>
	<node id="-223152" lat="59.7550083366" lon="9.98040555287">
		<tag k="name" v="Kilen" />
		<tag k="ssr:stedsnr" v="873780" />
		<tag k="waterway" v="stream" />
	</node>
	<node id="-222639" lat="59.8234777811" lon="10.0052777742">
		<tag k="name" v="Vesle Øyvann" />
		<tag k="natural" v="water" />
		<tag k="ssr:stedsnr" v="329486" />
	</node>
	<node id="-223150" lat="59.7623194463" lon="10.1349500034">
		<tag k="alt_name" v="Rolighetsbekken" />
		<tag k="name" v="Bera" />
		<tag k="ssr:stedsnr" v="872896" />
		<tag k="waterway" v="stream" />
	</node>
	<node id="-222333" lat="59.650955552" lon="10.0577388939">
		<tag k="name" v="Ormetjern" />
		<tag k="natural" v="water" />
		<tag k="ssr:stedsnr" v="39834" />
	</node>
	<node id="-221612" lat="59.821066668" lon="10.0311222163">
		<tag k="name" v="Kalvetjern" />
		<tag k="natural" v="water" />
		<tag k="ssr:stedsnr" v="389510" />
		<tag k="water" v="pond" />
	</node>
	<node id="-223144" lat="59.8420083312" lon="10.0785805643">
		<tag k="alt_name" v="Haretjern" />
		<tag k="name" v="Haratjern" />
		<tag k="natural" v="water" />
		<tag k="ssr:stedsnr" v="854273" />
	</node>
	<node id="-221607" lat="59.7807472238" lon="9.99860000447">
		<tag k="name" v="Sagelva" />
		<tag k="ssr:stedsnr" v="386960" />
		<tag k="waterway" v="stream" />
	</node>
	<node id="-223142" lat="59.7818472254" lon="10.0940138808">
		<tag k="alt_name" v="Smiabekken;Smibekken" />
		<tag k="name" v="Smiebekken" />
		<tag k="ssr:stedsnr" v="854143" />
		<tag k="waterway" v="stream" />
	</node>
	<node id="-221937" lat="59.8481249993" lon="10.0651250051">
		<tag k="name" v="Briskemyrputten" />
		<tag k="natural" v="water" />
		<tag k="ssr:stedsnr" v="732272" />
	</node>
	<node id="-222534" lat="59.6498750024" lon="10.338963895">
		<tag k="name" v="Nessetervanna" />
		<tag k="natural" v="water" />
		<tag k="ssr:stedsnr" v="185151" />
	</node>
	<node id="-222626" lat="59.8512444423" lon="10.0770638872">
		<tag k="name" v="Gampedalsbekken" />
		<tag k="ssr:stedsnr" v="307299" />
		<tag k="waterway" v="stream" />
	</node>
	<node id="-222625" lat="59.8023749996" lon="9.99547777489">
		<tag k="name" v="Horgensetertjern" />
		<tag k="natural" v="water" />
		<tag k="ssr:stedsnr" v="307266" />
	</node>
	<node id="-222624" lat="59.8204805581" lon="10.0951083423">
		<tag k="name" v="Skorpen" />
		<tag k="natural" v="water" />
		<tag k="ssr:stedsnr" v="307224" />
	</node>
	<node id="-222623" lat="59.7794277776" lon="10.0133472211">
		<tag k="name" v="Lampetjern" />
		<tag k="natural" v="water" />
		<tag k="ssr:stedsnr" v="307166" />
	</node>
	<node id="-222109" lat="59.7683777776" lon="10.0205416731">
		<tag k="name" v="Inntaksdammen" />
		<tag k="natural" v="water" />
		<tag k="ssr:stedsnr" v="933971" />
	</node>
	<node id="-221596" lat="59.8093968229" lon="10.1171849296">
		<tag k="name" v="Vakkertjern" />
		<tag k="natural" v="water" />
		<tag k="ssr:stedsnr" v="368257" />
	</node>
	<node id="-223131" lat="59.6598138897" lon="10.1086194459">
		<tag k="alt_name" v="Bergvannet, store" />
		<tag k="name" v="Store Bergvannet" />
		<tag k="natural" v="water" />
		<tag k="ssr:stedsnr" v="853120" />
		<tag k="water" v="lake" />
	</node>
	<node id="-222447" lat="59.7018555538" lon="10.0868111111">
		<tag k="alt_name" v="Haugsetertjern" />
		<tag k="name" v="Haugsetertjernet" />
		<tag k="natural" v="water" />
		<tag k="ssr:stedsnr" v="124172" />
	</node>
	<node id="-221592" lat="59.6677388904" lon="10.0526000017">
		<tag k="alt_name" v="Raudekken" />
		<tag k="name" v="Raudbekken" />
		<tag k="ssr:stedsnr" v="367179" />
		<tag k="waterway" v="stream" />
	</node>
	<node id="-221591" lat="59.679011114" lon="10.3111083373">
		<tag k="alt_name" v="Mellomdam" />
		<tag k="name" v="Mellomdammen" />
		<tag k="natural" v="water" />
		<tag k="ssr:stedsnr" v="367175" />
	</node>
	<node id="-222610" lat="59.6779293626" lon="10.0308386121">
		<tag k="name" v="Nysetertjern" />
		<tag k="natural" v="water" />
		<tag k="ssr:stedsnr" v="306221" />
	</node>
	<node id="-222606" lat="59.6896916641" lon="10.0107305556">
		<tag k="alt_name" v="Esbergtjern" />
		<tag k="name" v="Espertjern" />
		<tag k="place" v="locality" />
		<tag k="ssr:stedsnr" v="306183" />
	</node>
	<node id="-222605" lat="59.6456500042" lon="10.046638892">
		<tag k="name" v="Stutauet" />
		<tag k="natural" v="water" />
		<tag k="ssr:stedsnr" v="306162" />
		<tag k="water" v="pond" />
	</node>
	<node id="-221580" lat="59.7957083357" lon="10.0436277788">
		<tag k="name" v="Steinarvanna" />
		<tag k="natural" v="water" />
		<tag k="ssr:stedsnr" v="489279" />
		<tag k="water" v="lake" />
	</node>
	<node id="-222603" lat="59.5890694423" lon="10.3350972183">
		<tag k="name" v="Blindevann" />
		<tag k="natural" v="water" />
		<tag k="ssr:stedsnr" v="306019" />
		<tag k="water" v="lake" />
	</node>
	<node id="-221577" lat="59.6187861149" lon="10.3418750081">
		<tag k="name" v="Søndre Svanevannet" />
		<tag k="natural" v="water" />
		<tag k="ssr:stedsnr" v="489131" />
	</node>
	<node id="-221576" lat="59.7580611129" lon="10.2111083329">
		<tag k="alt_name" v="Kloptjern" />
		<tag k="name" v="Klopptjern" />
		<tag k="natural" v="water" />
		<tag k="ssr:stedsnr" v="489096" />
	</node>
	<node id="-222087" lat="59.7695055547" lon="10.0273611069">
		<tag k="name" v="Borgetjern" />
		<tag k="natural" v="water" />
		<tag k="ssr:stedsnr" v="793168" />
	</node>
	<node id="-222086" lat="59.777475002" lon="10.1444611114">
		<tag k="alt_name" v="Myredammen" />
		<tag k="name" v="Myrdammen" />
		<tag k="natural" v="water" />
		<tag k="ssr:stedsnr" v="793153" />
	</node>
	<node id="-222597" lat="59.6285555518" lon="10.3356999959">
		<tag k="name" v="Mellombekken" />
		<tag k="ssr:stedsnr" v="210216" />
		<tag k="waterway" v="stream" />
	</node>
	<node id="-222596" lat="59.6294444479" lon="10.3669388846">
		<tag k="name" v="Fjellbekkrenna" />
		<tag k="ssr:stedsnr" v="210215" />
		<tag k="waterway" v="stream" />
	</node>
	<node id="-222080" lat="59.6468416656" lon="10.3440249963">
		<tag k="name" v="Gampevann" />
		<tag k="natural" v="water" />
		<tag k="ssr:stedsnr" v="914822" />
	</node>
	<node id="-221566" lat="59.7250388847" lon="9.97903610626">
		<tag k="name" v="Veia" />
		<tag k="ssr:stedsnr" v="488221" />
		<tag k="waterway" v="stream" />
	</node>
	<node id="-221564" lat="59.6788666647" lon="10.2214249934">
		<tag k="name" v="Steinsbekken" />
		<tag k="ssr:stedsnr" v="488213" />
		<tag k="waterway" v="stream" />
	</node>
	<node id="-222587" lat="59.6776916638" lon="10.0068333418">
		<tag k="name" v="Langtjern" />
		<tag k="natural" v="water" />
		<tag k="ssr:stedsnr" v="210168" />
	</node>
	<node id="-222072" lat="59.8064222212" lon="10.0765833277">
		<tag k="name" v="Mellomdammen" />
		<tag k="natural" v="water" />
		<tag k="ssr:stedsnr" v="914257" />
		<tag k="water" v="lake" />
	</node>
	<node id="-222583" lat="59.8028194448" lon="10.0178694426">
		<tag k="name" v="Aureputt" />
		<tag k="natural" v="water" />
		<tag k="ssr:stedsnr" v="208735" />
		<tag k="water" v="pond" />
	</node>
	<node id="-222582" lat="59.8053666661" lon="10.0057361065">
		<tag k="name" v="Haraputt" />
		<tag k="natural" v="water" />
		<tag k="ssr:stedsnr" v="208725" />
		<tag k="water" v="pond" />
	</node>
	<node id="-221556" lat="59.6844555547" lon="10.0925249967">
		<tag k="name" v="Majordammen" />
		<tag k="natural" v="water" />
		<tag k="ssr:stedsnr" v="488162" />
	</node>
	<node id="-221555" lat="59.6516250037" lon="10.067550005">
		<tag k="alt_name" v="Kalveputt" />
		<tag k="name" v="Kalveputten" />
		<tag k="place" v="locality" />
		<tag k="ssr:stedsnr" v="488117" />
	</node>
	<node id="-223089" lat="59.687983333" lon="10.3215166618">
		<tag k="name" v="Sankedammen" />
		<tag k="natural" v="water" />
		<tag k="ssr:stedsnr" v="817386" />
	</node>
	<node id="-222062" lat="59.7558766038" lon="10.0719037525">
		<tag k="alt_name" v="Fallaksøya" />
		<tag k="name" v="Fallagsøya" />
		<tag k="natural" v="cape" />
		<tag k="ssr:stedsnr" v="914066" />
	</node>
	<node id="-221614" lat="59.6696388878" lon="9.99845000772">
		<tag k="name" v="Langtjernelva" />
		<tag k="ssr:stedsnr" v="391260" />
		<tag k="waterway" v="stream" />
	</node>
	<node id="-223077" lat="59.744780559" lon="9.97648055696">
		<tag k="name" v="Skalpebekken" />
		<tag k="ssr:stedsnr" v="812546" />
		<tag k="waterway" v="stream" />
	</node>
	<node id="-221954" lat="59.5449444411" lon="10.3698944429">
		<tag k="name" v="Solbergdammen" />
		<tag k="natural" v="water" />
		<tag k="ssr:stedsnr" v="877028" />
	</node>
	<node id="-222561" lat="59.7694027785" lon="10.077905555">
		<tag k="name" v="Karindammen" />
		<tag k="ssr:stedsnr" v="204450" />
		<tag k="waterway" v="dam" />
	</node>
	<node id="-223072" lat="59.7277111102" lon="10.058319436">
		<tag k="name" v="Rørvika" />
		<tag k="natural" v="bay" />
		<tag k="ssr:stedsnr" v="811582" />
	</node>
	<node id="-223071" lat="59.7346527765" lon="10.0726000054">
		<tag k="name" v="Svartkulp" />
		<tag k="natural" v="water" />
		<tag k="ssr:stedsnr" v="811579" />
		<tag k="water" v="pond" />
	</node>
	<node id="-223070" lat="59.7603944423" lon="10.1039499964">
		<tag k="name" v="Vinnesbekken" />
		<tag k="ssr:stedsnr" v="811568" />
		<tag k="waterway" v="stream" />
	</node>
	<node id="-222557" lat="59.6454999977" lon="10.3362166697">
		<tag k="name" v="Salavassbekken" />
		<tag k="ssr:stedsnr" v="186151" />
		<tag k="waterway" v="stream" />
	</node>
	<node id="-222556" lat="59.7784138852" lon="10.0697611097">
		<tag k="name" v="Vasshella" />
		<tag k="natural" v="water" />
		<tag k="ssr:stedsnr" v="186150" />
	</node>
	<node id="-223063" lat="59.7794750035" lon="10.0602249995">
		<tag k="name" v="Høymyrbekken" />
		<tag k="ssr:stedsnr" v="811480" />
		<tag k="waterway" v="stream" />
	</node>
	<node id="-221753" lat="59.7539972249" lon="10.2039861166">
		<tag k="name" v="Flåren" />
		<tag k="natural" v="water" />
		<tag k="ssr:stedsnr" v="483811" />
	</node>
	<node id="-222547" lat="59.7217305525" lon="10.1241388879">
		<tag k="name" v="Stordammen" />
		<tag k="natural" v="water" />
		<tag k="ssr:stedsnr" v="185283" />
		<tag k="water" v="lake" />
	</node>
	<node id="-221519" lat="59.7488805586" lon="10.2136416679">
		<tag k="name" v="Frydenbergdammen" />
		<tag k="ssr:stedsnr" v="301806" />
		<tag k="waterway" v="dam" />
	</node>
	<node id="-222026" lat="59.7565250014" lon="10.2082777783">
		<tag k="name" v="Rytteråsdammen" />
		<tag k="natural" v="water" />
		<tag k="ssr:stedsnr" v="726816" />
	</node>
	<node id="-222537" lat="59.6864305565" lon="10.031183332">
		<tag k="alt_name" v="Åsseterbekken" />
		<tag k="name" v="Åseterbekken" />
		<tag k="ssr:stedsnr" v="185167" />
		<tag k="waterway" v="stream" />
	</node>
	<node id="-223046" lat="59.7921829061" lon="10.1187839483">
		<tag k="name" v="Ytre Langvann" />
		<tag k="natural" v="water" />
		<tag k="ssr:stedsnr" v="787789" />
	</node>
	<node id="-221579" lat="59.7737861145" lon="9.99613333518">
		<tag k="name" v="Årbogen" />
		<tag k="natural" v="water" />
		<tag k="ssr:stedsnr" v="489193" />
	</node>
	<node id="-221442" lat="59.6228416712" lon="10.3630888882">
		<tag k="name" v="Fjellbekk" />
		<tag k="ssr:stedsnr" v="210208" />
		<tag k="waterway" v="stream" />
	</node>
	<node id="-222525" lat="59.7097249995" lon="10.1977027746">
		<tag k="name" v="Rosentjern" />
		<tag k="natural" v="water" />
		<tag k="ssr:stedsnr" v="300349" />
	</node>
	<node id="-222008" lat="59.712647221" lon="10.2274944463">
		<tag k="name" v="Engevannsbekken" />
		<tag k="ssr:stedsnr" v="891040" />
		<tag k="waterway" v="stream" />
	</node>
	<node id="-223031" lat="59.8027305543" lon="10.1317527841">
		<tag k="name" v="Tjuvtjern" />
		<tag k="natural" v="water" />
		<tag k="ssr:stedsnr" v="770036" />
	</node>
	<node id="-223030" lat="59.8087027761" lon="10.1073361024">
		<tag k="name" v="Ormetjern" />
		<tag k="natural" v="water" />
		<tag k="ssr:stedsnr" v="770034" />
	</node>
	<node id="-221902" lat="59.6236666664" lon="10.3401555568">
		<tag k="name" v="Kulpen" />
		<tag k="natural" v="water" />
		<tag k="ssr:stedsnr" v="634175" />
	</node>
	<node id="-221492" lat="59.6808694445" lon="10.0165805643">
		<tag k="name" v="Kroktjern" />
		<tag k="natural" v="water" />
		<tag k="ssr:stedsnr" v="270154" />
	</node>
	<node id="-222003" lat="59.675955552" lon="10.293733329">
		<tag k="name" v="Speiderodden" />
		<tag k="natural" v="cape" />
		<tag k="ssr:stedsnr" v="890695" />
	</node>
	<node id="-222002" lat="59.6864138844" lon="10.1001555594">
		<tag k="name" v="Ormetjern" />
		<tag k="natural" v="water" />
		<tag k="ssr:stedsnr" v="890682" />
	</node>
	<node id="-221999" lat="59.8301388885" lon="10.0733972164">
		<tag k="name" v="Plomasen" />
		<tag k="natural" v="water" />
		<tag k="ssr:stedsnr" v="698515" />
	</node>
	<node id="-221483" lat="59.7618722256" lon="9.99703333948">
		<tag k="name" v="Krokstadbekken" />
		<tag k="ssr:stedsnr" v="449984" />
		<tag k="waterway" v="stream" />
	</node>
	<node id="-221575" lat="59.577083331" lon="10.3632138969">
		<tag k="name" v="Ådnekulpen" />
		<tag k="place" v="locality" />
		<tag k="ssr:stedsnr" v="488727" />
	</node>
	<node id="-222504" lat="59.6932472217" lon="10.1616166661">
		<tag k="name" v="Breihølen" />
		<tag k="place" v="locality" />
		<tag k="ssr:stedsnr" v="161547" />
	</node>
	<node id="-221990" lat="59.7997305588" lon="10.031030551">
		<tag k="name" v="Den brente øya" />
		<tag k="place" v="island" />
		<tag k="ssr:stedsnr" v="694719" />
	</node>
	<node id="-223012" lat="59.6106722188" lon="10.3336611081">
		<tag k="name" v="Purketjern" />
		<tag k="natural" v="water" />
		<tag k="ssr:stedsnr" v="756152" />
	</node>
	<node id="-223011" lat="59.6670000009" lon="10.3070416661">
		<tag k="name" v="Tangøya" />
		<tag k="natural" v="cape" />
		<tag k="ssr:stedsnr" v="756137" />
	</node>
	<node id="-221474" lat="59.7632388927" lon="10.0173750043">
		<tag k="name" v="Møllenhofbekken" />
		<tag k="ssr:stedsnr" v="448989" />
		<tag k="waterway" v="stream" />
	</node>
	<node id="-222107" lat="59.7863083305" lon="10.132574992">
		<tag k="name" v="Skinka" />
		<tag k="natural" v="water" />
		<tag k="ssr:stedsnr" v="933763" />
	</node>
	<node id="-221468" lat="59.6806177947" lon="10.3108515401">
		<tag k="alt_name" v="Nedre dam" />
		<tag k="name" v="Nerdammen" />
		<tag k="natural" v="water" />
		<tag k="ssr:stedsnr" v="246223" />
	</node>
	<node id="-223003" lat="59.7576333371" lon="10.0641083394">
		<tag k="name" v="Bukta" />
		<tag k="natural" v="water" />
		<tag k="ssr:stedsnr" v="750858" />
	</node>
	<node id="-222767" lat="59.55141111" lon="10.3584999922">
		<tag k="name" v="Seterdammen" />
		<tag k="natural" v="water" />
		<tag k="ssr:stedsnr" v="428670" />
	</node>
	<node id="-222487" lat="59.7553916667" lon="10.0386388865">
		<tag k="name" v="Stegla" />
		<tag k="ssr:stedsnr" v="143914" />
		<tag k="waterway" v="rapids" />
	</node>
	<node id="-221461" lat="59.6479916709" lon="10.0901083408">
		<tag k="alt_name" v="Lauvkolltjern" />
		<tag k="name" v="Lauvkolltjernet" />
		<tag k="natural" v="water" />
		<tag k="ssr:stedsnr" v="245171" />
	</node>
	<node id="-221972" lat="59.8142916673" lon="10.007333336">
		<tag k="alt_name" v="Grunnvann" />
		<tag k="name" v="Grunntjern" />
		<tag k="natural" v="water" />
		<tag k="ssr:stedsnr" v="671217" />
	</node>
	<node id="-221971" lat="59.8149166689" lon="10.0157694418">
		<tag k="name" v="Dobletjern" />
		<tag k="natural" v="water" />
		<tag k="ssr:stedsnr" v="671216" />
	</node>
	<node id="-223268" lat="59.8637291419" lon="10.0621514206">
		<tag k="alt_name" v="Glitrevann;Glitrevatnet" />
		<tag k="name" v="Glitre" />
		<tag k="natural" v="water" />
		<tag k="ssr:stedsnr" v="854319" />
		<tag k="water" v="lake" />
	</node>
	<node id="-221655" lat="59.7797333305" lon="10.00196667">
		<tag k="name" v="Lampetjernbekken" />
		<tag k="ssr:stedsnr" v="508971" />
		<tag k="waterway" v="stream" />
	</node>
	<node id="-222471" lat="59.8398206837" lon="10.0509845448">
		<tag k="name" v="Tretjerna" />
		<tag k="natural" v="water" />
		<tag k="ssr:stedsnr" v="125316" />
		<tag k="water" v="lake" />
	</node>
	<node id="-222470" lat="59.80278744" lon="10.0355921332">
		<tag k="alt_name" v="Solbergvann" />
		<tag k="name" v="Solbergvannet" />
		<tag k="natural" v="water" />
		<tag k="ssr:stedsnr" v="125261" />
		<tag k="water" v="lake" />
	</node>
	<node id="-221957" lat="59.6676916665" lon="10.3158416744">
		<tag k="name" v="Søndre Øksnevann" />
		<tag k="natural" v="water" />
		<tag k="ssr:stedsnr" v="878168" />
	</node>
	<node id="-222979" lat="59.6656527743" lon="10.2147694445">
		<tag k="name" v="Hammersborgfossen" />
		<tag k="natural" v="waterfall" />
		<tag k="ssr:stedsnr" v="648693" />
	</node>
	<node id="-222978" lat="59.7886277797" lon="10.1619388859">
		<tag k="name" v="Brokebekk" />
		<tag k="ssr:stedsnr" v="648208" />
		<tag k="waterway" v="stream" />
	</node>
	<node id="-221568" lat="59.7236583375" lon="10.1878833287">
		<tag k="alt_name" v="Blekktjernet;Blektjern" />
		<tag k="name" v="Blekktjern" />
		<tag k="natural" v="water" />
		<tag k="ssr:stedsnr" v="488244" />
	</node>
	<node id="-222974" lat="59.6809472245" lon="10.1552416719">
		<tag k="name" v="Borgedammen" />
		<tag k="natural" v="water" />
		<tag k="ssr:stedsnr" v="646589" />
		<tag k="water" v="lake" />
	</node>
	<node id="-221437" lat="59.674852774" lon="10.1506277763">
		<tag k="name" v="Brattåsbekken" />
		<tag k="ssr:stedsnr" v="285688" />
		<tag k="waterway" v="stream" />
	</node>
	<node id="-222460" lat="59.6152305556" lon="10.3593888901">
		<tag k="name" v="Damvann" />
		<tag k="natural" v="water" />
		<tag k="ssr:stedsnr" v="124595" />
	</node>
	<node id="-221924" lat="59.7094527764" lon="10.1239083362">
		<tag k="name" v="Karusstjern" />
		<tag k="natural" v="water" />
		<tag k="ssr:stedsnr" v="731252" />
	</node>
	<node id="-221652" lat="59.7497416638" lon="10.0036472157">
		<tag k="name" v="Evja" />
		<tag k="ssr:stedsnr" v="508771" />
		<tag k="waterway" v="river" />
	</node>
	<node id="-221993" lat="59.6951555544" lon="10.2973527711">
		<tag k="name" v="Olla" />
		<tag k="natural" v="spring" />
		<tag k="ssr:stedsnr" v="889350" />
	</node>
	<node id="-222451" lat="59.723000003" lon="10.0787500081">
		<tag k="name" v="Ormetjern" />
		<tag k="natural" v="water" />
		<tag k="ssr:stedsnr" v="124206" />
	</node>
	<node id="-222449" lat="59.6781124956" lon="10.2963332729">
		<tag k="alt_name" v="Trestikle;Trestikla" />
		<tag k="name" v="Trestiklevannet" />
		<tag k="natural" v="water" />
		<tag k="ssr:stedsnr" v="124184" />
		<tag k="water" v="lake" />
	</node>
	<node id="-222959" lat="59.6630444456" lon="10.3203583361">
		<tag k="name" v="Blekktjern" />
		<tag k="natural" v="water" />
		<tag k="ssr:stedsnr" v="634143" />
	</node>
	<node id="-222958" lat="59.7280777786" lon="10.0070749953">
		<tag k="name" v="Grytjernbekken" />
		<tag k="ssr:stedsnr" v="630936" />
		<tag k="waterway" v="stream" />
	</node>
	<node id="-221933" lat="59.6421666647" lon="10.3290222234">
		<tag k="name" v="Nordre Svanevannet" />
		<tag k="natural" v="water" />
		<tag k="ssr:stedsnr" v="732180" />
		<tag k="water" v="lake" />
	</node>
	<node id="-222444" lat="59.6690253911" lon="10.3149206575">
		<tag k="name" v="Øksnevanna" />
		<tag k="natural" v="water" />
		<tag k="ssr:stedsnr" v="124132" />
	</node>
	<node id="-221394" lat="59.6819972233" lon="10.3064694357">
		<tag k="name" v="Kulpen" />
		<tag k="natural" v="water" />
		<tag k="ssr:stedsnr" v="282225" />
	</node>
	<node id="-221929" lat="59.6375446605" lon="10.3598909303">
		<tag k="name" v="Løpakupane" />
		<tag k="natural" v="water" />
		<tag k="ssr:stedsnr" v="731824" />
	</node>
	<node id="-221928" lat="59.6315916645" lon="10.350602769">
		<tag k="name" v="Nordre Hellumsetervann" />
		<tag k="natural" v="water" />
		<tag k="ssr:stedsnr" v="731645" />
	</node>
	<node id="-221746" lat="59.8350333353" lon="10.0189750005">
		<tag k="name" v="Vranglebekken" />
		<tag k="ssr:stedsnr" v="671302" />
		<tag k="waterway" v="stream" />
	</node>
	<node id="-221413" lat="59.6826416659" lon="10.1474861079">
		<tag k="name" v="Åserudbekken" />
		<tag k="ssr:stedsnr" v="283691" />
		<tag k="waterway" v="stream" />
	</node>
	<node id="-222948" lat="59.6343361155" lon="10.3704305489">
		<tag k="name" v="Ebbestadvannet" />
		<tag k="natural" v="water" />
		<tag k="ssr:stedsnr" v="610705" />
		<tag k="water" v="lake" />
	</node>
	<node id="-222946" lat="59.7039888906" lon="10.0281277732">
		<tag k="name" v="Leitjernbekken" />
		<tag k="ssr:stedsnr" v="610346" />
		<tag k="waterway" v="stream" />
	</node>
	<node id="-221921" lat="59.7166388899" lon="10.0492999931">
		<tag k="name" v="Bremsetjern" />
		<tag k="natural" v="water" />
		<tag k="ssr:stedsnr" v="731217" />
	</node>
	<node id="-221408" lat="59.6952222239" lon="10.1465305614">
		<tag k="name" v="Sagbakkelva" />
		<tag k="ssr:stedsnr" v="283559" />
		<tag k="waterway" v="stream" />
	</node>
	<node id="-222942" lat="59.8004666712" lon="9.97543332635">
		<tag k="name" v="Sagelva" />
		<tag k="ssr:stedsnr" v="610290" />
		<tag k="waterway" v="stream" />
	</node>
	<node id="-222941" lat="59.8022111119" lon="10.1146222211">
		<tag k="alt_name" v="Tverråsvann" />
		<tag k="loc_name" v="Tverråsvannet" />
		<tag k="name" v="Tverråstjernet" />
		<tag k="natural" v="water" />
		<tag k="ssr:stedsnr" v="610281" />
	</node>
	<node id="-221401" lat="59.6572583296" lon="10.0867222281">
		<tag k="name" v="Løkmyrdammen" />
		<tag k="natural" v="water" />
		<tag k="ssr:stedsnr" v="282840" />
	</node>
	<node id="-221912" lat="59.7008750015" lon="10.1123499949">
		<tag k="name" v="Svarterudbekken" />
		<tag k="ssr:stedsnr" v="731161" />
		<tag k="waterway" v="stream" />
	</node>
	<node id="-222935" lat="59.7476166685" lon="10.1245083259">
		<tag k="name" v="Sølfastøya" />
		<tag k="place" v="island" />
		<tag k="ssr:stedsnr" v="609349" />
	</node>
	<node id="-222934" lat="59.7157027757" lon="10.0871250077">
		<tag k="alt_name" v="Steglevann" />
		<tag k="name" v="Steglevannet" />
		<tag k="natural" v="water" />
		<tag k="ssr:stedsnr" v="609278" />
		<tag k="water" v="lake" />
	</node>
	<node id="-222414" lat="59.6492222256" lon="10.0721277739">
		<tag k="name" v="Svartevannsbekken" />
		<tag k="ssr:stedsnr" v="100829" />
		<tag k="waterway" v="stream" />
	</node>
	<node id="-222930" lat="59.6973192726" lon="10.0278071956">
		<tag k="name" v="Leitjerna" />
		<tag k="natural" v="water" />
		<tag k="ssr:stedsnr" v="609196" />
		<tag k="water" v="lake" />
	</node>
	<node id="-221475" lat="59.830475806" lon="10.0419023013">
		<tag k="name" v="Vrangla" />
		<tag k="natural" v="water" />
		<tag k="ssr:stedsnr" v="247259" />
		<tag k="water" v="lake" />
	</node>
	<node id="-221391" lat="59.6792361076" lon="10.1778249999">
		<tag k="name" v="Gruhølen" />
		<tag k="place" v="locality" />
		<tag k="ssr:stedsnr" v="163674" />
	</node>
	<node id="-222926" lat="59.6490999973" lon="10.0782749915">
		<tag k="name" v="Ormetjern" />
		<tag k="natural" v="water" />
		<tag k="ssr:stedsnr" v="609183" />
	</node>
	<node id="-221901" lat="59.5464222209" lon="10.3675277827">
		<tag k="name" v="Bergerdammen" />
		<tag k="natural" v="water" />
		<tag k="ssr:stedsnr" v="634024" />
	</node>
	<node id="-221900" lat="59.7337999979" lon="10.2233416725">
		<tag k="name" v="Strømsøløpet" />
		<tag k="natural" v="strait" />
		<tag k="ssr:stedsnr" v="632408" />
	</node>
	<node id="-222923" lat="59.7503972186" lon="10.1526916671">
		<tag k="name" v="Musøya" />
		<tag k="natural" v="cape" />
		<tag k="ssr:stedsnr" v="604797" />
	</node>
	<node id="-222071" lat="59.8059499979" lon="10.0143194432">
		<tag k="alt_name" v="Korptjern" />
		<tag k="name" v="Korpetjern" />
		<tag k="natural" v="water" />
		<tag k="ssr:stedsnr" v="914255" />
	</node>
	<node id="-221896" lat="59.7475138894" lon="10.0336305526">
		<tag k="name" v="Øra" />
		<tag k="ssr:stedsnr" v="629760" />
		<tag k="waterway" v="stream" />
	</node>
	<node id="-222404" lat="59.6819361151" lon="10.3527694479">
		<tag k="name" v="Isdammen" />
		<tag k="natural" v="water" />
		<tag k="ssr:stedsnr" v="89410" />
	</node>
	<node id="-222070" lat="59.8109277803" lon="10.0606388902">
		<tag k="name" v="Furtebekken" />
		<tag k="ssr:stedsnr" v="914235" />
		<tag k="waterway" v="stream" />
	</node>
	<node id="-222914" lat="59.6647777791" lon="10.0522833349">
		<tag k="name" v="Trytetjernkulpen" />
		<tag k="natural" v="water" />
		<tag k="ssr:stedsnr" v="588834" />
		<tag k="water" v="pond" />
	</node>
	<node id="-222913" lat="59.66836111" lon="10.0840638881">
		<tag k="name" v="Grodalsbekken" />
		<tag k="ssr:stedsnr" v="588832" />
		<tag k="waterway" v="stream" />
	</node>
	<node id="-223264" lat="59.6701044307" lon="10.2877062403">
		<tag k="name" v="Torjevannet" />
		<tag k="natural" v="water" />
		<tag k="ssr:stedsnr" v="792148" />
	</node>
	<node id="-222398" lat="59.6570833318" lon="10.032122225">
		<tag k="name" v="Svartbekken" />
		<tag k="ssr:stedsnr" v="85140" />
		<tag k="waterway" v="stream" />
	</node>
	<node id="-222397" lat="59.7561166675" lon="10.0609472198">
		<tag k="name" v="Herstrømøya" />
		<tag k="place" v="island" />
		<tag k="ssr:stedsnr" v="83888" />
	</node>
	<node id="-222908" lat="59.7947671138" lon="10.1237877649">
		<tag k="name" v="Det døde hav" />
		<tag k="natural" v="water" />
		<tag k="ssr:stedsnr" v="587194" />
	</node>
	<node id="-222273" lat="59.6897666646" lon="9.99844166893">
		<tag k="name" v="Lauvtjern" />
		<tag k="place" v="locality" />
		<tag k="ssr:stedsnr" v="3167" />
	</node>
	<node id="-221932" lat="59.7844888854" lon="9.99520555677">
		<tag k="name" v="Krokstadelva" />
		<tag k="ssr:stedsnr" v="732152" />
		<tag k="waterway" v="stream" />
	</node>
	<node id="-221880" lat="59.7382305547" lon="10.2308861108">
		<tag k="name" v="Furuholmen" />
		<tag k="natural" v="cape" />
		<tag k="ssr:stedsnr" v="722267" />
	</node>
	<node id="-222389" lat="59.803080554" lon="10.0502555524">
		<tag k="fixme" v="multiple name tags, choose one and add the other to alt_name" />
		<tag k="name" v="Kringla;Kringletjern" />
		<tag k="natural" v="water" />
		<tag k="ssr:stedsnr" v="81196" />
	</node>
	<node id="-221301" lat="59.6601277749" lon="10.0564777849">
		<tag k="name" v="Trytetjern" />
		<tag k="natural" v="water" />
		<tag k="ssr:stedsnr" v="246140" />
	</node>
	<node id="-222387" lat="59.7721014727" lon="10.1814297267">
		<tag k="name" v="Hvalsdammen" />
		<tag k="natural" v="water" />
		<tag k="ssr:stedsnr" v="65160" />
	</node>
	<node id="-221873" lat="59.7349749966" lon="10.0209000058">
		<tag k="name" v="Åsendammen" />
		<tag k="natural" v="water" />
		<tag k="ssr:stedsnr" v="609358" />
	</node>
	<node id="-221360" lat="59.7799472179" lon="10.0077222136">
		<tag k="name" v="Klopptjern" />
		<tag k="natural" v="water" />
		<tag k="ssr:stedsnr" v="265956" />
	</node>
	<node id="-221384" lat="59.6813694428" lon="10.1345305516">
		<tag k="name" v="Løkkafossen" />
		<tag k="ssr:stedsnr" v="161652" />
		<tag k="waterway" v="rapids" />
	</node>
	<node id="-221358" lat="59.7895055588" lon="10.1291333292">
		<tag k="name" v="Tjuvtjernbekken" />
		<tag k="ssr:stedsnr" v="265769" />
		<tag k="waterway" v="stream" />
	</node>
	<node id="-222381" lat="59.6748500007" lon="10.184677778">
		<tag k="name" v="Bremsa" />
		<tag k="ssr:stedsnr" v="64242" />
		<tag k="waterway" v="river" />
	</node>
	<node id="-221868" lat="59.6752152807" lon="10.1068136439">
		<tag k="alt_name" v="Jonsetertjern" />
		<tag k="name" v="Jonsetertjernet" />
		<tag k="natural" v="water" />
		<tag k="ssr:stedsnr" v="609210" />
	</node>
	<node id="-222379" lat="59.6779611104" lon="10.0067000046">
		<tag k="name" v="Langetjern" />
		<tag k="natural" v="water" />
		<tag k="ssr:stedsnr" v="64235" />
	</node>
	<node id="-221352" lat="59.7316250046" lon="10.0624916588">
		<tag k="name" v="Rørvikbekken" />
		<tag k="ssr:stedsnr" v="265609" />
		<tag k="waterway" v="stream" />
	</node>
	<node id="-222374" lat="59.6256111115" lon="10.3364722188">
		<tag k="name" v="Midtre Svanevannet" />
		<tag k="natural" v="water" />
		<tag k="ssr:stedsnr" v="64056" />
		<tag k="water" v="lake" />
	</node>
	<node id="-222371" lat="59.7968499984" lon="10.118075002">
		<tag k="name" v="Goliaten" />
		<tag k="natural" v="water" />
		<tag k="ssr:stedsnr" v="64126" />
	</node>
	<node id="-221346" lat="59.7066899704" lon="10.0738503303">
		<tag k="name" v="Sagdammen" />
		<tag k="natural" v="water" />
		<tag k="ssr:stedsnr" v="124256" />
	</node>
	<node id="-221342" lat="59.7615444426" lon="10.1807944435">
		<tag k="name" v="Halvorsrudbekken" />
		<tag k="ssr:stedsnr" v="119842" />
		<tag k="waterway" v="stream" />
	</node>
	<node id="-221852" lat="59.6767666671" lon="10.2258777721">
		<tag k="name" v="Mælenbekken" />
		<tag k="ssr:stedsnr" v="709731" />
		<tag k="waterway" v="stream" />
	</node>
	<node id="-222873" lat="59.5736388887" lon="10.3502444432">
		<tag k="name" v="Svartekulp" />
		<tag k="natural" v="water" />
		<tag k="ssr:stedsnr" v="574268" />
	</node>
	<node id="-221892" lat="59.7794500039" lon="10.1536944399">
		<tag k="name" v="Myrseterbekken" />
		<tag k="ssr:stedsnr" v="628655" />
		<tag k="waterway" v="stream" />
	</node>
	<node id="-222147" lat="59.7928750012" lon="10.1012777865">
		<tag k="name" v="Stormyrputten" />
		<tag k="natural" v="water" />
		<tag k="ssr:stedsnr" v="853216" />
	</node>
	<node id="-222084" lat="59.8040000042" lon="10.1019833316">
		<tag k="name" v="Toblebekken" />
		<tag k="ssr:stedsnr" v="792230" />
		<tag k="waterway" v="stream" />
	</node>
	<node id="-222317" lat="59.6682944452" lon="10.3218250024">
		<tag k="name" v="Røssetjernet" />
		<tag k="natural" v="water" />
		<tag k="ssr:stedsnr" v="28164" />
	</node>
	<node id="-222401" lat="59.5495138925" lon="10.3663694435">
		<tag k="name" v="Naslebekken" />
		<tag k="ssr:stedsnr" v="89032" />
		<tag k="waterway" v="stream" />
	</node>
	<node id="-221316" lat="59.6594750033" lon="10.3610361053">
		<tag k="name" v="Nordbyelva" />
		<tag k="ssr:stedsnr" v="247803" />
		<tag k="waterway" v="stream" />
	</node>
	<node id="-221313" lat="59.6680999981" lon="10.3455861148">
		<tag k="name" v="Vassåsvannet" />
		<tag k="natural" v="water" />
		<tag k="ssr:stedsnr" v="246845" />
	</node>
	<node id="-222846" lat="59.8395861081" lon="10.0614777737">
		<tag k="name" v="Elgskottjern" />
		<tag k="natural" v="water" />
		<tag k="ssr:stedsnr" v="550285" />
	</node>
	<node id="-222845" lat="59.7717638856" lon="10.04158889">
		<tag k="name" v="Svarttjern" />
		<tag k="natural" v="water" />
		<tag k="ssr:stedsnr" v="550177" />
	</node>
	<node id="-221820" lat="59.6986611153" lon="10.0267027732">
		<tag k="name" v="Nedre Leitjern" />
		<tag k="natural" v="water" />
		<tag k="ssr:stedsnr" v="573139" />
	</node>
	<node id="-222842" lat="59.6284138913" lon="10.3445833287">
		<tag k="name" v="Båsvanna" />
		<tag k="natural" v="water" />
		<tag k="ssr:stedsnr" v="549662" />
	</node>
	<node id="-221631" lat="59.683769441" lon="10.0722722178">
		<tag k="name" v="Rønnebubekken" />
		<tag k="ssr:stedsnr" v="404627" />
		<tag k="waterway" v="stream" />
	</node>
	<node id="-222840" lat="59.7307499961" lon="10.096391672">
		<tag k="name" v="Langmyrdammen" />
		<tag k="natural" v="water" />
		<tag k="ssr:stedsnr" v="549366" />
	</node>
	<node id="-221716" lat="59.665555553" lon="10.0099833365">
		<tag k="name" v="Nyseterbekken" />
		<tag k="ssr:stedsnr" v="670219" />
		<tag k="waterway" v="stream" />
	</node>
	<node id="-222837" lat="59.7016861153" lon="10.2050027765">
		<tag k="fixme" v="multiple name tags, choose one and add the other to alt_name" />
		<tag k="name" v="Mælsbekken;Vadbekken" />
		<tag k="ssr:stedsnr" v="549306" />
		<tag k="waterway" v="stream" />
	</node>
	<node id="-222307" lat="59.7351500043" lon="10.1379250087">
		<tag k="name" v="Vannverksdammen" />
		<tag k="ssr:stedsnr" v="22536" />
		<tag k="waterway" v="dam" />
	</node>
	<node id="-222831" lat="59.7152447798" lon="9.98096317445">
		<tag k="name" v="Dammyrtjern" />
		<tag k="natural" v="water" />
		<tag k="ssr:stedsnr" v="549274" />
	</node>
	<node id="-221373" lat="59.6428888865" lon="10.3430027767">
		<tag k="name" v="Bollsteinvannet" />
		<tag k="natural" v="water" />
		<tag k="ssr:stedsnr" v="149355" />
	</node>
	<node id="-222315" lat="59.8113583362" lon="10.024711116">
		<tag k="name" v="Tunga" />
		<tag k="natural" v="water" />
		<tag k="ssr:stedsnr" v="25479" />
		<tag k="water" v="pond" />
	</node>
	<node id="-222826" lat="59.6797246419" lon="10.0443481868">
		<tag k="name" v="Rønnehutjern" />
		<tag k="natural" v="water" />
		<tag k="ssr:stedsnr" v="549240" />
	</node>
	<node id="-221800" lat="59.6274777803" lon="10.3457916641">
		<tag k="name" v="Søndre Båsvann" />
		<tag k="natural" v="water" />
		<tag k="ssr:stedsnr" v="695195" />
	</node>
	<node id="-222822" lat="59.6586611075" lon="10.0943972208">
		<tag k="name" v="Vesle Bergvannet" />
		<tag k="natural" v="water" />
		<tag k="ssr:stedsnr" v="549159" />
	</node>
	<node id="-222821" lat="59.6614166699" lon="10.0735833265">
		<tag k="alt_name" v="Brilletjerna" />
		<tag k="name" v="Brillene" />
		<tag k="natural" v="water" />
		<tag k="ssr:stedsnr" v="549158" />
		<tag k="water" v="lake" />
	</node>
	<node id="-222820" lat="59.6716780307" lon="10.2819936656">
		<tag k="name" v="Veslevannet" />
		<tag k="natural" v="water" />
		<tag k="ssr:stedsnr" v="549153" />
	</node>
	<node id="-221798" lat="59.8135333362" lon="10.0322749916">
		<tag k="name" v="Fleskehiken" />
		<tag k="natural" v="bay" />
		<tag k="ssr:stedsnr" v="693513" />
	</node>
	<node id="-222306" lat="59.8320527747" lon="10.083016661">
		<tag k="name" v="Auretjern" />
		<tag k="natural" v="water" />
		<tag k="ssr:stedsnr" v="4272" />
	</node>
	<node id="-222816" lat="59.7482083311" lon="10.0407861147">
		<tag k="alt_name" v="Mile" />
		<tag k="name" v="Miletjern" />
		<tag k="natural" v="water" />
		<tag k="ssr:stedsnr" v="548384" />
	</node>
	<node id="-222815" lat="59.740736107" lon="10.2074750059">
		<tag k="name" v="Drammenselva" />
		<tag k="ssr:stedsnr" v="548370" />
		<tag k="waterway" v="river" />
	</node>
	<node id="-222302" lat="59.7867250033" lon="10.0755000019">
		<tag k="alt_name" v="Solbergbekken" />
		<tag k="name" v="Solbergelva" />
		<tag k="ssr:stedsnr" v="4136" />
		<tag k="waterway" v="stream" />
	</node>
	<node id="-221785" lat="59.7494611104" lon="10.1292777801">
		<tag k="name" v="Pålsøya" />
		<tag k="place" v="island" />
		<tag k="ssr:stedsnr" v="690665" />
	</node>
	<node id="-222808" lat="59.7228305527" lon="10.166608339">
		<tag k="name" v="Haddelandsdammen" />
		<tag k="natural" v="water" />
		<tag k="ssr:stedsnr" v="542438" />
	</node>
	<node id="-221690" lat="59.7886999995" lon="10.0844638935">
		<tag k="name" v="Gravningsbekken" />
		<tag k="ssr:stedsnr" v="429127" />
		<tag k="waterway" v="stream" />
	</node>
	<node id="-222805" lat="59.7192055542" lon="10.1335361151">
		<tag k="name" v="Ifferts dam" />
		<tag k="natural" v="water" />
		<tag k="ssr:stedsnr" v="542334" />
	</node>
	<node id="-222290" lat="59.7114305528" lon="10.0996000076">
		<tag k="alt_name" v="Svartkulp" />
		<tag k="name" v="Svartekulpen" />
		<tag k="natural" v="water" />
		<tag k="ssr:stedsnr" v="3288" />
	</node>
	<node id="-222289" lat="59.7007472218" lon="10.0139777707">
		<tag k="name" v="Nebergdammane" />
		<tag k="natural" v="water" />
		<tag k="ssr:stedsnr" v="3280" />
	</node>
	<node id="-222288" lat="59.7034583363" lon="10.0078416676">
		<tag k="name" v="Vesle Kroktjern" />
		<tag k="natural" v="water" />
		<tag k="ssr:stedsnr" v="3279" />
	</node>
	<node id="-221368" lat="59.6561027812" lon="10.0217305483">
		<tag k="name" v="Vesle Gravdalstjern" />
		<tag k="natural" v="water" />
		<tag k="ssr:stedsnr" v="146163" />
	</node>
	<node id="-222285" lat="59.7108888887" lon="10.0162527812">
		<tag k="name" v="Storbekken" />
		<tag k="ssr:stedsnr" v="3260" />
		<tag k="waterway" v="stream" />
	</node>
	<node id="-222284" lat="59.718466114" lon="10.06384318">
		<tag k="name" v="Grunntjern" />
		<tag k="natural" v="water" />
		<tag k="ssr:stedsnr" v="3238" />
	</node>
	<node id="-221257" lat="59.6854777753" lon="10.0894666626">
		<tag k="name" v="Viktangen" />
		<tag k="natural" v="cape" />
		<tag k="ssr:stedsnr" v="40657" />
	</node>
	<node id="-221537" lat="59.6615083367" lon="10.0101055508">
		<tag k="name" v="Gravdalsbekken" />
		<tag k="ssr:stedsnr" v="331242" />
		<tag k="waterway" v="stream" />
	</node>
	<node id="-221764" lat="59.8087105852" lon="10.0746816435">
		<tag k="name" v="Kulpen" />
		<tag k="natural" v="water" />
		<tag k="ssr:stedsnr" v="516530" />
	</node>
	<node id="-222275" lat="59.6920638847" lon="10.1627416594">
		<tag k="name" v="Verkenselva" />
		<tag k="ssr:stedsnr" v="3171" />
		<tag k="waterway" v="stream" />
	</node>
	<node id="-222274" lat="59.6881000023" lon="10.1090138806">
		<tag k="name" v="Andorsrudtjern" />
		<tag k="natural" v="water" />
		<tag k="ssr:stedsnr" v="3170" />
	</node>
	<node id="-221918" lat="59.7272555545" lon="10.0215333377">
		<tag k="alt_name" v="Svarttjern" />
		<tag k="name" v="Svarttjernet" />
		<tag k="natural" v="water" />
		<tag k="ssr:stedsnr" v="731204" />
	</node>
	<node id="-221760" lat="59.8237749955" lon="10.0430500067">
		<tag k="name" v="Ormetjern" />
		<tag k="natural" v="water" />
		<tag k="ssr:stedsnr" v="489226" />
	</node>
	<node id="-222271" lat="59.6537388919" lon="10.0812611189">
		<tag k="alt_name" v="Dammyr" />
		<tag k="name" v="Dammyra" />
		<tag k="natural" v="water" />
		<tag k="ssr:stedsnr" v="3117" />
	</node>
	<node id="-222559" lat="59.8559055561" lon="10.0611333337">
		<tag k="name" v="Bordvika" />
		<tag k="natural" v="bay" />
		<tag k="ssr:stedsnr" v="186266" />
	</node>
	<node id="-222772" lat="59.7050222178" lon="10.0804333335">
		<tag k="name" v="Ristjern" />
		<tag k="natural" v="water" />
		<tag k="ssr:stedsnr" v="525370" />
	</node>
	<node id="-221278" lat="59.8162095793" lon="10.0320485685">
		<tag k="alt_name" v="Ulvannet;Urdvatnet;Ulvann" />
		<tag k="loc_name" v="Urdevannet;Urdvannet" />
		<tag k="name" v="Urdevann" />
		<tag k="natural" v="water" />
		<tag k="old_name" v="Ulvevandet;Ulvandet" />
		<tag k="ssr:stedsnr" v="64209" />
		<tag k="water" v="lake" />
	</node>
	<node id="-222770" lat="59.6514166677" lon="10.3479694486">
		<tag k="name" v="Knektedammen" />
		<tag k="natural" v="water" />
		<tag k="ssr:stedsnr" v="429830" />
	</node>
	<node id="-221745" lat="59.8489388891" lon="10.0825666642">
		<tag k="name" v="Himmerikstjern" />
		<tag k="natural" v="water" />
		<tag k="ssr:stedsnr" v="671260" />
	</node>
	<node id="-221310" lat="59.6049694461" lon="10.3746027824">
		<tag k="name" v="Jordbærtjernet" />
		<tag k="natural" v="water" />
		<tag k="ssr:stedsnr" v="246606" />
	</node>
	<node id="-221761" lat="59.8186111102" lon="10.0155611138">
		<tag k="name" v="Steindammen" />
		<tag k="natural" v="water" />
		<tag k="ssr:stedsnr" v="489248" />
	</node>
	<node id="-221533" lat="59.7252305512" lon="10.0575361171">
		<tag k="name" v="Dalevika" />
		<tag k="natural" v="bay" />
		<tag k="ssr:stedsnr" v="326610" />
	</node>
	<node id="-222382" lat="59.8473555512" lon="10.0635277708">
		<tag k="name" v="Langvassbekken" />
		<tag k="ssr:stedsnr" v="64248" />
		<tag k="waterway" v="stream" />
	</node>
	<node id="-221734" lat="59.6595230178" lon="10.0268793787">
		<tag k="alt_name" v="Gravdalstjerna" />
		<tag k="name" v="Gravdalstjern" />
		<tag k="natural" v="water" />
		<tag k="ssr:stedsnr" v="670125" />
		<tag k="water" v="lake" />
	</node>
	<node id="-223269" lat="59.7999416659" lon="10.1433972211">
		<tag k="alt_name" v="Skimtvannet" />
		<tag k="name" v="Skimten" />
		<tag k="natural" v="water" />
		<tag k="ssr:stedsnr" v="550143" />
	</node>
	<node id="-222756" lat="59.8003249999" lon="10.077855564">
		<tag k="name" v="Nerdammen" />
		<tag k="natural" v="water" />
		<tag k="ssr:stedsnr" v="428214" />
	</node>
	<node id="-223267" lat="59.8229317871" lon="9.99330935574">
		<tag k="alt_name" v="Øyvann;Øyvatnet" />
		<tag k="name" v="Øyvannet" />
		<tag k="natural" v="water" />
		<tag k="ssr:stedsnr" v="724169" />
		<tag k="water" v="lake" />
	</node>
	<node id="-222754" lat="59.8078381507" lon="10.0182516614">
		<tag k="name" v="Lommetjern" />
		<tag k="natural" v="water" />
		<tag k="ssr:stedsnr" v="428208" />
	</node>
	<node id="-221795" lat="59.7311527775" lon="10.0311111122">
		<tag k="name" v="Mjøndalsbekken" />
		<tag k="ssr:stedsnr" v="691919" />
		<tag k="waterway" v="stream" />
	</node>
	<node id="-222128" lat="59.6134113395" lon="10.3857556286">
		<tag k="name" v="Eikdammen" />
		<tag k="natural" v="water" />
		<tag k="ssr:stedsnr" v="938357" />
	</node>
	<node id="-223262" lat="59.6957358359" lon="10.0294469141">
		<tag k="name" v="Øvre Leitjern" />
		<tag k="natural" v="water" />
		<tag k="ssr:stedsnr" v="1076433" />
	</node>
	<node id="-221445" lat="59.688658332" lon="10.0946499925">
		<tag k="name" v="Øvre Andorsrudtjern" />
		<tag k="natural" v="water" />
		<tag k="ssr:stedsnr" v="222657" />
	</node>
	<node id="-221212" lat="59.694830555" lon="10.1533583365">
		<tag k="name" v="Imjeltbekken" />
		<tag k="ssr:stedsnr" v="222529" />
		<tag k="waterway" v="stream" />
	</node>
	<node id="-221615" lat="59.6318999959" lon="10.3410027756">
		<tag k="name" v="Nordre Båsvann" />
		<tag k="natural" v="water" />
		<tag k="ssr:stedsnr" v="392205" />
	</node>
	<node id="-222927" lat="59.6897454657" lon="9.99030521091">
		<tag k="alt_name" v="Ytre Fisketjern" />
		<tag k="name" v="Fisketretjerna" />
		<tag k="natural" v="water" />
		<tag k="ssr:stedsnr" v="609185" />
		<tag k="water" v="lake" />
	</node>
	<node id="-221719" lat="59.7156749963" lon="10.1910805571">
		<tag k="alt_name" v="Austadtjern" />
		<tag k="name" v="Austadtjernet" />
		<tag k="natural" v="water" />
		<tag k="ssr:stedsnr" v="670277" />
	</node>
	<node id="-221718" lat="59.7288750029" lon="10.0488805616">
		<tag k="name" v="Hagatjern" />
		<tag k="natural" v="water" />
		<tag k="ssr:stedsnr" v="670245" />
		<tag k="water" v="lake" />
	</node>
	<node id="-221717" lat="59.6819333326" lon="10.0094333377">
		<tag k="alt_name" v="Lortholtjern" />
		<tag k="name" v="Lorttjern" />
		<tag k="natural" v="water" />
		<tag k="ssr:stedsnr" v="670229" />
	</node>
	<node id="-222740" lat="59.6788111107" lon="10.1293666683">
		<tag k="name" v="Sandvadbekken" />
		<tag k="ssr:stedsnr" v="406700" />
		<tag k="waterway" v="stream" />
	</node>
	<node id="-221870" lat="59.6756916623" lon="10.0336944531">
		<tag k="alt_name" v="Plassantjern" />
		<tag k="name" v="Plassanetjern" />
		<tag k="natural" v="water" />
		<tag k="ssr:stedsnr" v="609221" />
	</node>
	<node id="-222467" lat="59.7696999981" lon="10.1638527736">
		<tag k="name" v="Landfalltjernet" />
		<tag k="natural" v="water" />
		<tag k="ssr:stedsnr" v="125191" />
	</node>
	<node id="-221711" lat="59.7393249998" lon="10.2221555618">
		<tag k="name" v="Bragernesløpet" />
		<tag k="ssr:stedsnr" v="665865" />
		<tag k="waterway" v="river" />
	</node>
	<node id="-221535" lat="59.7820333333" lon="10.1251999962">
		<tag k="name" v="Spirmyrbekken" />
		<tag k="ssr:stedsnr" v="326734" />
		<tag k="waterway" v="stream" />
	</node>
	<node id="-222466" lat="59.7824861129" lon="9.98242777329">
		<tag k="alt_name" v="Balatjern" />
		<tag k="name" v="Ballatjern" />
		<tag k="natural" v="water" />
		<tag k="ssr:stedsnr" v="125161" />
	</node>
</osm>
