<?xml version="1.0" encoding="UTF-8"?>
<osm version="0.6" generator="osmapis">
	<node lat="59.72418889089762" lon="10.23125833700783" id="-24978">
		<tag k="name" v="Knipa" />
		<tag k="place" v="locality" />
		<tag k="ssr:stedsnr" v="59823" />
	</node>
	<node lat="59.74769166449497" lon="10.006358336129514" id="-25030">
		<tag k="alt_name" v="Mjøndalen" />
		<tag k="amenity" v="place_of_worship" />
		<tag k="denomination" v="lutheran" />
		<tag k="name" v="Mjøndalen kirke" />
		<tag k="religion" v="christian" />
		<tag k="ssr:stedsnr" v="94015" />
	</node>
	<node lat="59.741805555502104" lon="10.14513610934009" id="-25181">
		<tag k="name" v="Sauringen" />
		<tag k="place" v="locality" />
		<tag k="ssr:stedsnr" v="241816" />
	</node>
	<node lat="59.68715833464693" lon="10.222202781139115" id="-25193">
		<tag k="alt_name" v="Skoger" />
		<tag k="amenity" v="place_of_worship" />
		<tag k="denomination" v="lutheran" />
		<tag k="name" v="Skoger kirke" />
		<tag k="religion" v="christian" />
		<tag k="ssr:stedsnr" v="246206" />
	</node>
	<node lat="59.71703206509871" lon="10.220203269880752" id="-25207">
		<tag k="alt_name" v="Fjell" />
		<tag k="amenity" v="place_of_worship" />
		<tag k="denomination" v="lutheran" />
		<tag k="name" v="Fjell kirke" />
		<tag k="religion" v="christian" />
		<tag k="ssr:stedsnr" v="263978" />
	</node>
	<node lat="59.6827000006189" lon="10.08768889572323" id="-25255">
		<tag k="name" v="Gårbuslaget" />
		<tag k="place" v="locality" />
		<tag k="ssr:stedsnr" v="465639" />
	</node>
	<node lat="59.795080558180864" lon="10.125008336156348" id="-25261">
		<tag k="name" v="Gamle Klunken" />
		<tag k="place" v="locality" />
		<tag k="ssr:stedsnr" v="466192" />
	</node>
	<node lat="59.71818888903312" lon="10.139902772785858" id="-25303">
		<tag k="name" v="Langeland" />
		<tag k="place" v="locality" />
		<tag k="ssr:stedsnr" v="482343" />
	</node>
	<node lat="59.75313610802676" lon="10.206855558186676" id="-25333">
		<tag k="name" v="Øvre skanse" />
		<tag k="ssr:stedsnr" v="483837" />
		<tag k="tourism" v="attraction" />
	</node>
	<node lat="59.76159166466262" lon="10.193452785797835" id="-25335">
		<tag k="name" v="Juletønna" />
		<tag k="place" v="locality" />
		<tag k="ssr:stedsnr" v="483842" />
	</node>
	<node lat="59.68704722360449" lon="10.115627774669997" id="-25343">
		<tag k="name" v="Andorsborgen" />
		<tag k="ssr:stedsnr" v="404680" />
		<tag k="tourism" v="attraction" />
	</node>
	<node lat="59.7694944443373" lon="10.169572219504538" id="-25344">
		<tag k="name" v="Sandtroa" />
		<tag k="place" v="locality" />
		<tag k="ssr:stedsnr" v="405187" />
	</node>
	<node lat="59.748047225660365" lon="10.202666670362415" id="-25358">
		<tag k="amenity" v="place_of_worship" />
		<tag k="fixme" v="specify religion=*, denomination=*, building=* etc" />
		<tag k="name" v="Drammen krematorium" />
		<tag k="ssr:stedsnr" v="406856" />
	</node>
	<node lat="59.73605278035816" lon="10.208424997523203" id="-25416">
		<tag k="alt_name" v="Strømsø" />
		<tag k="amenity" v="place_of_worship" />
		<tag k="denomination" v="lutheran" />
		<tag k="name" v="Strømsø kirke" />
		<tag k="religion" v="christian" />
		<tag k="ssr:stedsnr" v="458023" />
	</node>
	<node lat="59.73808333741714" lon="10.19727499848985" id="-25427">
		<tag k="name" v="Drammen museum" />
		<tag k="ssr:stedsnr" v="466615" />
		<tag k="tourism" v="museum" />
	</node>
	<node lat="59.756500001057596" lon="10.113325005647857" id="-25449">
		<tag k="amenity" v="community_centre" />
		<tag k="name" v="Travkroa" />
		<tag k="ssr:stedsnr" v="508916" />
	</node>
	<node lat="59.677433335049585" lon="10.208486114690922" id="-25458">
		<tag k="amenity" v="place_of_worship" />
		<tag k="denomination" v="lutheran" />
		<tag k="name" v="Skoger gamle kirke" />
		<tag k="religion" v="christian" />
		<tag k="ssr:stedsnr" v="519006" />
	</node>
	<node lat="59.743286114510546" lon="10.183922220847057" id="-25471">
		<tag k="cemetery" v="grave" />
		<tag k="name" v="Strømsgodset kirkegård" />
		<tag k="place" v="locality" />
		<tag k="ssr:stedsnr" v="527028" />
	</node>
	<node lat="59.762997223677765" lon="10.196938890209141" id="-25484">
		<tag k="name" v="Gråbeinleet" />
		<tag k="place" v="locality" />
		<tag k="ssr:stedsnr" v="544805" />
	</node>
	<node lat="59.61356720676865" lon="10.407928670106793" id="-25496">
		<tag k="alt_name" v="Svelvik" />
		<tag k="amenity" v="place_of_worship" />
		<tag k="denomination" v="lutheran" />
		<tag k="name" v="Svelvik kirke" />
		<tag k="religion" v="christian" />
		<tag k="ssr:stedsnr" v="549635" />
	</node>
	<node lat="59.735019445608316" lon="10.124180549317881" id="-25521">
		<tag k="name" v="Vaskeriet" />
		<tag k="ssr:stedsnr" v="568505" />
		<tag k="tourism" v="attraction" />
	</node>
	<node lat="59.759625001034586" lon="10.042758333485008" id="-25530">
		<tag k="name" v="Batteriet" />
		<tag k="place" v="locality" />
		<tag k="ssr:stedsnr" v="568872" />
	</node>
	<node lat="59.76721944021403" lon="10.150527775871161" id="-25565">
		<tag k="name" v="Grønvold" />
		<tag k="place" v="locality" />
		<tag k="ssr:stedsnr" v="587203" />
	</node>
	<node lat="59.7673472179661" lon="10.159613880118467" id="-25567">
		<tag k="name" v="Lunneplassen" />
		<tag k="place" v="locality" />
		<tag k="ssr:stedsnr" v="587201" />
	</node>
	<node lat="59.74993333554937" lon="10.162352773917286" id="-25592">
		<tag k="amenity" v="place_of_worship" />
		<tag k="denomination" v="lutheran" />
		<tag k="name" v="Landfalløya kapell" />
		<tag k="religion" v="christian" />
		<tag k="ssr:stedsnr" v="701001" />
	</node>
	<node lat="59.73012476285224" lon="10.234641759685873" id="-25593">
		<tag k="alt_name" v="Tangen" />
		<tag k="amenity" v="place_of_worship" />
		<tag k="denomination" v="lutheran" />
		<tag k="name" v="Tangen kirke" />
		<tag k="religion" v="christian" />
		<tag k="ssr:stedsnr" v="701292" />
	</node>
	<node lat="59.7439638393121" lon="10.192576356858885" id="-25607">
		<tag k="amenity" v="community_centre" />
		<tag k="name" v="Union scene" />
		<tag k="ssr:stedsnr" v="648626" />
	</node>
	<node lat="59.71338332961616" lon="10.234238888848308" id="-25633">
		<tag k="name" v="Baserud" />
		<tag k="place" v="locality" />
		<tag k="ssr:stedsnr" v="709070" />
	</node>
	<node lat="59.78651666592996" lon="10.113069439483908" id="-25634">
		<tag k="name" v="Gladbakk" />
		<tag k="place" v="locality" />
		<tag k="ssr:stedsnr" v="709201" />
	</node>
	<node lat="59.74851666310877" lon="10.189516666832276" id="-25639">
		<tag k="name" v="Lagerqvisttomta" />
		<tag k="place" v="locality" />
		<tag k="ssr:stedsnr" v="665804" />
	</node>
	<node lat="59.75394166595526" lon="10.192236117421965" id="-25707">
		<tag k="name" v="Kjerringløkka" />
		<tag k="place" v="locality" />
		<tag k="ssr:stedsnr" v="726777" />
	</node>
	<node lat="59.720624998270154" lon="10.140608335984727" id="-25717">
		<tag k="amenity" v="place_of_worship" />
		<tag k="denomination" v="lutheran" />
		<tag k="name" v="Konnerud gamle kirke" />
		<tag k="old_name" v="Konnerud kirke" />
		<tag k="religion" v="christian" />
		<tag k="ssr:stedsnr" v="731227" />
	</node>
	<node lat="59.54483170985065" lon="10.387949293461093" id="-25795">
		<tag k="alt_name" v="Berger" />
		<tag k="amenity" v="place_of_worship" />
		<tag k="denomination" v="lutheran" />
		<tag k="name" v="Berger kirke" />
		<tag k="religion" v="christian" />
		<tag k="ssr:stedsnr" v="914570" />
	</node>
	<node lat="59.74670833045969" lon="10.206569438315048" id="-25811">
		<tag k="alt_name" v="Bragernes" />
		<tag k="amenity" v="place_of_worship" />
		<tag k="denomination" v="lutheran" />
		<tag k="name" v="Bragernes kirke" />
		<tag k="religion" v="christian" />
		<tag k="ssr:stedsnr" v="822070" />
	</node>
	<node lat="59.71721944295475" lon="10.153166660353136" id="-25812">
		<tag k="alt_name" v="Konnerud;Konnerud nye kirke" />
		<tag k="amenity" v="place_of_worship" />
		<tag k="denomination" v="lutheran" />
		<tag k="name" v="Konnerud kirke" />
		<tag k="religion" v="christian" />
		<tag k="ssr:stedsnr" v="823805" />
	</node>
	<node lat="59.690088893152584" lon="10.34105277875906" id="-25827">
		<tag k="amenity" v="place_of_worship" />
		<tag k="denomination" v="lutheran" />
		<tag k="name" v="Nesbygda" />
		<tag k="religion" v="christian" />
		<tag k="ssr:stedsnr" v="840303" />
	</node>
	<node lat="59.75216667110727" lon="10.200805563200861" id="-25829">
		<tag k="name" v="Nedre skanse" />
		<tag k="ssr:stedsnr" v="848772" />
		<tag k="tourism" v="attraction" />
	</node>
	<node lat="59.749161114093" lon="10.194558329181836" id="-25831">
		<tag k="name" v="Dampsentralen" />
		<tag k="place" v="locality" />
		<tag k="ssr:stedsnr" v="848785" />
	</node>
	<node lat="59.742536114619085" lon="10.18682777012006" id="-25877">
		<tag k="alt_name" v="Strømsgodset" />
		<tag k="amenity" v="place_of_worship" />
		<tag k="denomination" v="lutheran" />
		<tag k="name" v="Strømsgodset kirke" />
		<tag k="religion" v="christian" />
		<tag k="ssr:stedsnr" v="883007" />
	</node>
	<node lat="59.75807222120424" lon="10.194413897348927" id="-25902">
		<tag k="name" v="Waldemar Werrings utsikt" />
		<tag k="ssr:stedsnr" v="908804" />
		<tag k="tourism" v="viewpoint" />
	</node>
	<node lat="59.72543611300335" lon="10.248411116426771" id="-25941">
		<tag k="cemetery" v="grave" />
		<tag k="name" v="Tangen kirkegård" />
		<tag k="place" v="locality" />
		<tag k="ssr:stedsnr" v="969834" />
	</node>
	<node lat="59.69500832980956" lon="10.213166661630428" id="-26004">
		<tag k="name" v="Berget" />
		<tag k="place" v="locality" />
		<tag k="ssr:stedsnr" v="39218" />
	</node>
	<node lat="59.69025000024846" lon="10.12628611339844" id="-26013">
		<tag k="name" v="Nedreløkka" />
		<tag k="place" v="locality" />
		<tag k="ssr:stedsnr" v="40696" />
	</node>
	<node lat="59.769716663251415" lon="10.167638881844875" id="-26016">
		<tag k="name" v="Damfallet" />
		<tag k="place" v="locality" />
		<tag k="ssr:stedsnr" v="41187" />
	</node>
	<node lat="59.78761944379074" lon="10.132797215004336" id="-26060">
		<tag k="amenity" v="place_of_worship" />
		<tag k="denomination" v="lutheran" />
		<tag k="name" v="Tverken sportskapell" />
		<tag k="religion" v="christian" />
		<tag k="ssr:stedsnr" v="83741" />
	</node>
	<node lat="59.72299166834373" lon="10.148191673028494" id="-26095">
		<tag k="name" v="Torrud" />
		<tag k="place" v="locality" />
		<tag k="ssr:stedsnr" v="118327" />
	</node>
	<node lat="59.7278194441107" lon="10.140424994806473" id="-26103">
		<tag k="name" v="Prøyserud" />
		<tag k="place" v="locality" />
		<tag k="ssr:stedsnr" v="119861" />
	</node>
	<node lat="59.724622222129334" lon="10.096269453254722" id="-26104">
		<tag k="amenity" v="community_centre" />
		<tag k="name" v="Villmarkshuset" />
		<tag k="ssr:stedsnr" v="119862" />
	</node>
	<node lat="59.76308611288753" lon="10.125872217635882" id="-26105">
		<tag k="name" v="Aronsløkka" />
		<tag k="place" v="locality" />
		<tag k="ssr:stedsnr" v="119809" />
	</node>
	<node lat="59.754191668678345" lon="10.143161111985714" id="-26127">
		<tag k="alt_name" v="Åssiden" />
		<tag k="amenity" v="place_of_worship" />
		<tag k="denomination" v="lutheran" />
		<tag k="name" v="Åssiden kirke" />
		<tag k="religion" v="christian" />
		<tag k="ssr:stedsnr" v="143624" />
	</node>
	<node lat="59.78291111176019" lon="10.0028305493617" id="-26130">
		<tag k="name" v="Utsikten" />
		<tag k="ssr:stedsnr" v="143947" />
		<tag k="tourism" v="viewpoint" />
	</node>
	<node lat="59.722491668508425" lon="10.24374999440544" id="-26154">
		<tag k="name" v="Rugbråten" />
		<tag k="place" v="locality" />
		<tag k="ssr:stedsnr" v="163047" />
	</node>
	<node lat="59.701236112434735" lon="10.246427774781262" id="-26247">
		<tag k="name" v="Gråterud" />
		<tag k="place" v="locality" />
		<tag k="ssr:stedsnr" v="282239" />
	</node>
	<node lat="59.69493611470553" lon="10.11276388550975" id="-26259">
		<tag k="name" v="Åserudgruva" />
		<tag k="place" v="locality" />
		<tag k="ssr:stedsnr" v="283561" />
	</node>
	<node lat="59.76148055903528" lon="10.166833337521183" id="-26286">
		<tag k="name" v="Langsletta" />
		<tag k="place" v="locality" />
		<tag k="ssr:stedsnr" v="301818" />
	</node>
	<node lat="59.75474721840402" lon="10.195663884619513" id="-26288">
		<tag k="name" v="Brudesløret" />
		<tag k="place" v="locality" />
		<tag k="ssr:stedsnr" v="301769" />
	</node>
	<node lat="59.694566662661984" lon="10.28063054918576" id="-26331">
		<tag k="name" v="Skyteskivene" />
		<tag k="place" v="locality" />
		<tag k="ssr:stedsnr" v="343239" />
	</node>
	<node lat="59.69607222144307" lon="10.243569444540256" id="-26401">
		<tag k="name" v="Korea" />
		<tag k="place" v="locality" />
		<tag k="ssr:stedsnr" v="403245" />
	</node>
	<node lat="59.69593055613355" lon="10.283327780512101" id="-26404">
		<tag k="name" v="Bråten" />
		<tag k="place" v="locality" />
		<tag k="ssr:stedsnr" v="404248" />
	</node>
	<node lat="59.720713890223806" lon="10.132486109943564" id="-26420">
		<tag k="amenity" v="community_centre" />
		<tag k="name" v="Folkets hus" />
		<tag k="ssr:stedsnr" v="421320" />
	</node>
	<node lat="59.71613611041107" lon="10.128152771883794" id="-26421">
		<tag k="name" v="Daløen" />
		<tag k="place" v="locality" />
		<tag k="ssr:stedsnr" v="421331" />
	</node>
	<node lat="59.71587778172909" lon="10.126649993144945" id="-26422">
		<tag k="name" v="Tørkopp" />
		<tag k="place" v="locality" />
		<tag k="ssr:stedsnr" v="421332" />
	</node>
	<node lat="59.684844441889204" lon="10.249316669130282" id="-26481">
		<tag k="amenity" v="place_of_worship" />
		<tag k="fixme" v="specify religion=*, denomination=*, building=* etc" />
		<tag k="name" v="Betania" />
		<tag k="ssr:stedsnr" v="525311" />
	</node>
	<node lat="59.69381666810469" lon="10.242741668675409" id="-26483">
		<tag k="name" v="Trillingen" />
		<tag k="place" v="locality" />
		<tag k="ssr:stedsnr" v="525301" />
	</node>
	<node lat="59.71359722487998" lon="10.252594440888545" id="-26559">
		<tag k="name" v="Solbakken" />
		<tag k="place" v="locality" />
		<tag k="ssr:stedsnr" v="587034" />
	</node>
	<node lat="59.717716667963465" lon="10.249886102287258" id="-26561">
		<tag k="amenity" v="community_centre" />
		<tag k="name" v="Speiderhytta" />
		<tag k="ssr:stedsnr" v="587065" />
	</node>
	<node lat="59.75663611164931" lon="10.195430555156616" id="-26577">
		<tag k="name" v="Hans Hansens utsikt" />
		<tag k="ssr:stedsnr" v="604783" />
		<tag k="tourism" v="viewpoint" />
	</node>
	<node lat="59.76315572112661" lon="10.07853187104884" id="-26623">
		<tag k="alt_name" v="Solberg" />
		<tag k="amenity" v="place_of_worship" />
		<tag k="fixme" v="multiple name tags, choose one and add the other to alt_name; specify religion=*, denomination=*, building=* etc" />
		<tag k="name" v="Solberg kapell;Fredtun" />
		<tag k="ssr:stedsnr" v="640841" />
	</node>
	<node lat="59.70496666425461" lon="10.118233326564978" id="-26625">
		<tag k="name" v="Gampemyrbakk" />
		<tag k="place" v="locality" />
		<tag k="ssr:stedsnr" v="646342" />
	</node>
	<node lat="59.698852779596706" lon="10.171583333411027" id="-26627">
		<tag k="name" v="Bjønnebråtan" />
		<tag k="place" v="locality" />
		<tag k="ssr:stedsnr" v="646567" />
	</node>
	<node lat="59.76074999812246" lon="10.20807222597576" id="-26722">
		<tag k="name" v="Solli" />
		<tag k="place" v="locality" />
		<tag k="ssr:stedsnr" v="787775" />
	</node>
	<node lat="59.7566092925685" lon="10.038265843636518" id="-26732">
		<tag k="alt_name" v="Nedre Eiker" />
		<tag k="amenity" v="place_of_worship" />
		<tag k="denomination" v="lutheran" />
		<tag k="name" v="Nedre Eiker kirke" />
		<tag k="religion" v="christian" />
		<tag k="ssr:stedsnr" v="792180" />
	</node>
	<node lat="59.68785833146726" lon="10.224011108614725" id="-26767">
		<tag k="amenity" v="community_centre" />
		<tag k="name" v="Skogvang" />
		<tag k="ssr:stedsnr" v="829299" />
	</node>
	<node lat="59.69309999655367" lon="10.137538890726214" id="-26774">
		<tag k="name" v="Donken" />
		<tag k="place" v="locality" />
		<tag k="ssr:stedsnr" v="829600" />
	</node>
	<node lat="59.76784722611669" lon="10.171827785144103" id="-26782">
		<tag k="name" v="Ladningen" />
		<tag k="place" v="locality" />
		<tag k="ssr:stedsnr" v="831200" />
	</node>
	<node lat="59.7531027755127" lon="10.201763894449606" id="-26799">
		<tag k="name" v="Spiraltoppen" />
		<tag k="ssr:stedsnr" v="853065" />
		<tag k="tourism" v="viewpoint" />
	</node>
	<node lat="59.75747291491658" lon="10.03787433436979" id="-26893">
		<tag k="amenity" v="place_of_worship" />
		<tag k="fixme" v="specify religion=*, denomination=*, building=* etc" />
		<tag k="name" v="Nedre Eiker kapell" />
		<tag k="ssr:stedsnr" v="981351" />
	</node>
</osm>
