<?xml version="1.0" encoding="UTF-8"?>
<osm generator="osmapis" version="0.6">
	<node id="-26615" lat="59.8001250004" lon="10.1260944365">
		<tag k="fixme" v="consider natural=peak for the most distinct mountains in the district" />
		<tag k="name" v="Tverråsen" />
		<tag k="natural" v="hill" />
		<tag k="place" v="locality" />
		<tag k="ssr:stedsnr" v="610153" />
	</node>
	<node id="-26614" lat="59.6217194421" lon="10.3875416688">
		<tag k="fixme" v="consider natural=peak for the most distinct mountains in the district" />
		<tag k="name" v="Brentås" />
		<tag k="natural" v="hill" />
		<tag k="place" v="locality" />
		<tag k="ssr:stedsnr" v="609624" />
	</node>
	<node id="-26613" lat="59.6179750004" lon="10.3668916714">
		<tag k="fixme" v="consider natural=peak for the most distinct mountains in the district" />
		<tag k="name" v="Stølsåsen" />
		<tag k="natural" v="hill" />
		<tag k="place" v="locality" />
		<tag k="ssr:stedsnr" v="609611" />
	</node>
	<node id="-26611" lat="59.7417749997" lon="10.0556194419">
		<tag k="name" v="Hviteberget" />
		<tag k="natural" v="hill" />
		<tag k="place" v="locality" />
		<tag k="ssr:stedsnr" v="609361" />
	</node>
	<node id="-26595" lat="59.6750722207" lon="10.1696166654">
		<tag k="name" v="Viulsrudlia" />
		<tag k="natural" v="slope" />
		<tag k="place" v="locality" />
		<tag k="ssr:stedsnr" v="588713" />
	</node>
	<node id="-26586" lat="59.6756638918" lon="10.1430916579">
		<tag k="name" v="Almedalsåsen" />
		<tag k="natural" v="hill" />
		<tag k="place" v="locality" />
		<tag k="ssr:stedsnr" v="709696" />
	</node>
	<node id="-26574" lat="59.6706916682" lon="10.2936916673">
		<tag k="name" v="Nordstupet" />
		<tag k="natural" v="hill" />
		<tag k="place" v="locality" />
		<tag k="ssr:stedsnr" v="707662" />
	</node>
	<node id="-26573" lat="59.7000805552" lon="10.100441674">
		<tag k="name" v="Rausinklia" />
		<tag k="natural" v="slope" />
		<tag k="place" v="locality" />
		<tag k="ssr:stedsnr" v="707601" />
	</node>
	<node id="-26555" lat="59.6927694446" lon="10.0214277717">
		<tag k="name" v="Skaråsen" />
		<tag k="natural" v="slope" />
		<tag k="place" v="locality" />
		<tag k="ssr:stedsnr" v="573138" />
	</node>
	<node id="-26554" lat="59.8083527754" lon="9.99525000879">
		<tag k="name" v="Livkleiv" />
		<tag k="natural" v="slope" />
		<tag k="place" v="locality" />
		<tag k="ssr:stedsnr" v="572736" />
	</node>
	<node id="-26552" lat="59.731619444" lon="10.0831888945">
		<tag k="fixme" v="consider natural=peak for the most distinct mountains in the district" />
		<tag k="name" v="Lauparåsen" />
		<tag k="natural" v="hill" />
		<tag k="place" v="locality" />
		<tag k="ssr:stedsnr" v="568577" />
	</node>
	<node id="-26545" lat="59.6050916666" lon="10.3489861181">
		<tag k="fixme" v="consider natural=peak for the most distinct mountains in the district" />
		<tag k="name" v="Gulsåsen" />
		<tag k="natural" v="hill" />
		<tag k="place" v="locality" />
		<tag k="ssr:stedsnr" v="700251" />
	</node>
	<node id="-26544" lat="59.7015055571" lon="9.99388055465">
		<tag k="fixme" v="consider natural=peak for the most distinct mountains in the district" />
		<tag k="name" v="Seteråsen" />
		<tag k="natural" v="hill" />
		<tag k="place" v="locality" />
		<tag k="ssr:stedsnr" v="549024" />
	</node>
	<node id="-26539" lat="59.6416750008" lon="10.392433325">
		<tag k="fixme" v="consider natural=peak for the most distinct mountains in the district" />
		<tag k="name" v="Grineråsen" />
		<tag k="natural" v="hill" />
		<tag k="place" v="locality" />
		<tag k="ssr:stedsnr" v="695315" />
	</node>
	<node id="-26538" lat="59.678702777" lon="10.0194833329">
		<tag k="fixme" v="consider natural=peak for the most distinct mountains in the district" />
		<tag k="name" v="Nyseteråsen" />
		<tag k="natural" v="hill" />
		<tag k="place" v="locality" />
		<tag k="ssr:stedsnr" v="695248" />
	</node>
	<node id="-26537" lat="59.6346916639" lon="10.3774694503">
		<tag k="name" v="Bjønnehølet" />
		<tag k="natural" v="valley" />
		<tag k="place" v="locality" />
		<tag k="ssr:stedsnr" v="695199" />
	</node>
	<node id="-26535" lat="59.6559666689" lon="10.3585166744">
		<tag k="name" v="Mastedalen" />
		<tag k="natural" v="valley" />
		<tag k="place" v="locality" />
		<tag k="ssr:stedsnr" v="695144" />
	</node>
	<node id="-26524" lat="59.7777222202" lon="10.0928861038">
		<tag k="name" v="Ulverudbakk" />
		<tag k="natural" v="slope" />
		<tag k="place" v="locality" />
		<tag k="ssr:stedsnr" v="690767" />
	</node>
	<node id="-26523" lat="59.777697226" lon="10.12382778">
		<tag k="fixme" v="consider natural=peak for the most distinct mountains in the district" />
		<tag k="name" v="Spellverpåsen" />
		<tag k="natural" v="hill" />
		<tag k="place" v="locality" />
		<tag k="ssr:stedsnr" v="690763" />
	</node>
	<node id="-26520" lat="59.7633000035" lon="10.1403749959">
		<tag k="name" v="Ramfløya" />
		<tag k="natural" v="slope" />
		<tag k="place" v="locality" />
		<tag k="ssr:stedsnr" v="690656" />
	</node>
	<node id="-26513" lat="59.7828611095" lon="10.0877500062">
		<tag k="name" v="Midtskogen" />
		<tag k="natural" v="slope" />
		<tag k="place" v="locality" />
		<tag k="ssr:stedsnr" v="690553" />
	</node>
	<node id="-26485" lat="59.6390361115" lon="10.3760666687">
		<tag k="fixme" v="consider natural=peak for the most distinct mountains in the district" />
		<tag k="name" v="Sønstebyåsen" />
		<tag k="natural" v="hill" />
		<tag k="place" v="locality" />
		<tag k="ssr:stedsnr" v="671838" />
	</node>
	<node id="-26483" lat="59.5974944486" lon="10.369272225">
		<tag k="fixme" v="consider natural=peak for the most distinct mountains in the district" />
		<tag k="name" v="Styggås" />
		<tag k="natural" v="hill" />
		<tag k="place" v="locality" />
		<tag k="ssr:stedsnr" v="671636" />
	</node>
	<node id="-26475" lat="59.5507416651" lon="10.3915166612">
		<tag k="fixme" v="consider natural=peak for the most distinct mountains in the district" />
		<tag k="name" v="Bergeråsen" />
		<tag k="natural" v="hill" />
		<tag k="place" v="locality" />
		<tag k="ssr:stedsnr" v="670516" />
	</node>
	<node id="-26472" lat="59.6673388914" lon="10.3275750086">
		<tag k="fixme" v="consider natural=peak for the most distinct mountains in the district" />
		<tag k="name" v="Siriseteråsen" />
		<tag k="natural" v="hill" />
		<tag k="place" v="locality" />
		<tag k="ssr:stedsnr" v="670140" />
	</node>
	<node id="-26471" lat="59.6507111136" lon="10.0221722188">
		<tag k="fixme" v="consider natural=peak for the most distinct mountains in the district" />
		<tag k="name" v="Sandseteråsen" />
		<tag k="natural" v="hill" />
		<tag k="place" v="locality" />
		<tag k="ssr:stedsnr" v="670126" />
	</node>
	<node id="-26465" lat="59.767497218" lon="10.164855563">
		<tag k="fixme" v="consider natural=peak for the most distinct mountains in the district" />
		<tag k="name" v="Landfallåsen" />
		<tag k="natural" v="hill" />
		<tag k="place" v="locality" />
		<tag k="ssr:stedsnr" v="466206" />
	</node>
	<node id="-26457" lat="59.7163388909" lon="10.119891671">
		<tag k="fixme" v="consider natural=peak for the most distinct mountains in the district" />
		<tag k="name" v="Damåsen" />
		<tag k="natural" v="hill" />
		<tag k="place" v="locality" />
		<tag k="ssr:stedsnr" v="670290" />
	</node>
	<node id="-26442" lat="59.7187527753" lon="10.1717111121">
		<tag k="name" v="Solåsen" />
		<tag k="natural" v="ridge" />
		<tag k="place" v="locality" />
		<tag k="ssr:stedsnr" v="664426" />
	</node>
	<node id="-26438" lat="59.8068083354" lon="10.0003972285">
		<tag k="name" v="Huskombusk" />
		<tag k="natural" v="slope" />
		<tag k="place" v="locality" />
		<tag k="ssr:stedsnr" v="451746" />
	</node>
	<node id="-26436" lat="59.8233611112" lon="10.0099333253">
		<tag k="name" v="Helvetesbakk" />
		<tag k="natural" v="slope" />
		<tag k="place" v="locality" />
		<tag k="ssr:stedsnr" v="450528" />
	</node>
	<node id="-26434" lat="59.7773611099" lon="10.0284861071">
		<tag k="fixme" v="consider natural=peak for the most distinct mountains in the district" />
		<tag k="name" v="Bakkeseterfjellet" />
		<tag k="natural" v="hill" />
		<tag k="place" v="locality" />
		<tag k="ssr:stedsnr" v="447904" />
	</node>
	<node id="-26433" lat="59.7684972221" lon="10.0964638865">
		<tag k="name" v="Breihella" />
		<tag k="natural" v="slope" />
		<tag k="place" v="locality" />
		<tag k="ssr:stedsnr" v="447716" />
	</node>
	<node id="-26431" lat="59.7643777792" lon="10.1309388884">
		<tag k="name" v="Roligheten" />
		<tag k="natural" v="ridge" />
		<tag k="place" v="locality" />
		<tag k="ssr:stedsnr" v="447605" />
	</node>
	<node id="-26430" lat="59.7383250009" lon="10.0535138877">
		<tag k="fixme" v="consider natural=peak for the most distinct mountains in the district" />
		<tag k="name" v="Ryggåsen" />
		<tag k="natural" v="hill" />
		<tag k="place" v="locality" />
		<tag k="ssr:stedsnr" v="447528" />
	</node>
	<node id="-26428" lat="59.7291722191" lon="10.1773944441">
		<tag k="fixme" v="consider natural=peak for the most distinct mountains in the district" />
		<tag k="name" v="Strømsåsen" />
		<tag k="natural" v="hill" />
		<tag k="place" v="locality" />
		<tag k="ssr:stedsnr" v="658252" />
	</node>
	<node id="-26420" lat="59.6666833312" lon="10.0279333292">
		<tag k="fixme" v="consider natural=peak for the most distinct mountains in the district" />
		<tag k="name" v="Svarvaråsen" />
		<tag k="natural" v="hill" />
		<tag k="place" v="locality" />
		<tag k="ssr:stedsnr" v="428120" />
	</node>
	<node id="-26418" lat="59.7594472189" lon="10.1714444394">
		<tag k="name" v="Buståsen" />
		<tag k="natural" v="ridge" />
		<tag k="place" v="locality" />
		<tag k="ssr:stedsnr" v="423834" />
	</node>
	<node id="-26416" lat="59.6646083336" lon="10.0893583247">
		<tag k="name" v="Bjørkemyrkippen" />
		<tag k="natural" v="hill" />
		<tag k="place" v="locality" />
		<tag k="ssr:stedsnr" v="423922" />
	</node>
	<node id="-26414" lat="59.7213861096" lon="10.1816194399">
		<tag k="name" v="Rugdefjell" />
		<tag k="natural" v="hill" />
		<tag k="place" v="locality" />
		<tag k="ssr:stedsnr" v="421427" />
	</node>
	<node id="-26413" lat="59.7200638856" lon="10.1947472218">
		<tag k="fixme" v="consider natural=peak for the most distinct mountains in the district" />
		<tag k="name" v="Austadåsen" />
		<tag k="natural" v="hill" />
		<tag k="place" v="locality" />
		<tag k="ssr:stedsnr" v="421426" />
	</node>
	<node id="-26412" lat="59.7140222231" lon="10.1884527732">
		<tag k="name" v="Risdalen" />
		<tag k="natural" v="valley" />
		<tag k="place" v="locality" />
		<tag k="ssr:stedsnr" v="421418" />
	</node>
	<node id="-26410" lat="59.7079583343" lon="10.200641672">
		<tag k="name" v="Hyttehaugene" />
		<tag k="natural" v="hill" />
		<tag k="place" v="locality" />
		<tag k="ssr:stedsnr" v="421312" />
	</node>
	<node id="-26404" lat="59.6243583353" lon="10.4032305573">
		<tag k="fixme" v="consider natural=peak for the most distinct mountains in the district" />
		<tag k="name" v="Juveåsen" />
		<tag k="natural" v="hill" />
		<tag k="place" v="locality" />
		<tag k="ssr:stedsnr" v="513374" />
	</node>
	<node id="-26403" lat="59.6272444458" lon="10.3704555627">
		<tag k="fixme" v="consider natural=peak for the most distinct mountains in the district" />
		<tag k="name" v="Vandsåsen" />
		<tag k="natural" v="hill" />
		<tag k="place" v="locality" />
		<tag k="ssr:stedsnr" v="513195" />
	</node>
	<node id="-26399" lat="59.5858388874" lon="10.3618916596">
		<tag k="name" v="Myrestulen" />
		<tag k="natural" v="slope" />
		<tag k="place" v="locality" />
		<tag k="ssr:stedsnr" v="513265" />
	</node>
	<node id="-26390" lat="59.7822972228" lon="10.0139527814">
		<tag k="name" v="Sandva" />
		<tag k="natural" v="slope" />
		<tag k="place" v="locality" />
		<tag k="ssr:stedsnr" v="508929" />
	</node>
	<node id="-26380" lat="59.6780888868" lon="10.0573694505">
		<tag k="name" v="Rønnebulia" />
		<tag k="natural" v="slope" />
		<tag k="place" v="locality" />
		<tag k="ssr:stedsnr" v="406805" />
	</node>
	<node id="-26378" lat="59.666244446" lon="10.1106583317">
		<tag k="name" v="Tunga" />
		<tag k="natural" v="ridge" />
		<tag k="place" v="locality" />
		<tag k="ssr:stedsnr" v="406711" />
	</node>
	<node id="-26369" lat="59.8536583319" lon="10.0536166633">
		<tag k="fixme" v="consider natural=peak for the most distinct mountains in the district" />
		<tag k="name" v="Kampen" />
		<tag k="natural" v="hill" />
		<tag k="place" v="locality" />
		<tag k="ssr:stedsnr" v="404675" />
	</node>
	<node id="-26368" lat="59.6921305518" lon="10.1038777716">
		<tag k="name" v="Nilsebrenna" />
		<tag k="natural" v="hill" />
		<tag k="place" v="locality" />
		<tag k="ssr:stedsnr" v="404672" />
	</node>
	<node id="-26357" lat="59.6990055568" lon="10.2120499937">
		<tag k="name" v="Bikkjebakkene" />
		<tag k="natural" v="slope" />
		<tag k="place" v="locality" />
		<tag k="ssr:stedsnr" v="403253" />
	</node>
	<node id="-26354" lat="59.5618888906" lon="10.3841194451">
		<tag k="name" v="Merkedalen" />
		<tag k="natural" v="valley" />
		<tag k="place" v="locality" />
		<tag k="ssr:stedsnr" v="392364" />
	</node>
	<node id="-26352" lat="59.665272221" lon="10.3596222183">
		<tag k="name" v="Grønnsletta" />
		<tag k="place" v="locality" />
		<tag k="ssr:stedsnr" v="392173" />
	</node>
	<node id="-26349" lat="59.6704027821" lon="10.0054083256">
		<tag k="fixme" v="consider natural=peak for the most distinct mountains in the district" />
		<tag k="name" v="Langtjernåsen" />
		<tag k="natural" v="hill" />
		<tag k="place" v="locality" />
		<tag k="ssr:stedsnr" v="391252" />
	</node>
	<node id="-26347" lat="59.7378972196" lon="10.0190111033">
		<tag k="fixme" v="consider natural=peak for the most distinct mountains in the district" />
		<tag k="name" v="Midtåsen" />
		<tag k="natural" v="hill" />
		<tag k="place" v="locality" />
		<tag k="ssr:stedsnr" v="388961" />
	</node>
	<node id="-26341" lat="59.7788555562" lon="10.0037083273">
		<tag k="name" v="Mælen" />
		<tag k="natural" v="slope" />
		<tag k="place" v="locality" />
		<tag k="ssr:stedsnr" v="386910" />
	</node>
	<node id="-26340" lat="59.7509472221" lon="10.0531472191">
		<tag k="name" v="Ryggkollen" />
		<tag k="natural" v="ridge" />
		<tag k="place" v="locality" />
		<tag k="ssr:stedsnr" v="386904" />
	</node>
	<node id="-26339" lat="59.7678750014" lon="10.1278138901">
		<tag k="alt_name" v="Seterberget" />
		<tag k="fixme" v="consider natural=peak for the most distinct mountains in the district" />
		<tag k="name" v="Seterberga" />
		<tag k="natural" v="hill" />
		<tag k="place" v="locality" />
		<tag k="ssr:stedsnr" v="386728" />
	</node>
	<node id="-26338" lat="59.7822166634" lon="10.1161972292">
		<tag k="name" v="Skipperdalen" />
		<tag k="natural" v="valley" />
		<tag k="place" v="locality" />
		<tag k="ssr:stedsnr" v="386723" />
	</node>
	<node id="-26337" lat="59.7833916685" lon="10.1306944419">
		<tag k="name" v="Heia" />
		<tag k="natural" v="hill" />
		<tag k="place" v="locality" />
		<tag k="ssr:stedsnr" v="386718" />
	</node>
	<node id="-26336" lat="59.7263805598" lon="10.0799027805">
		<tag k="name" v="Nordhaug" />
		<tag k="natural" v="hill" />
		<tag k="place" v="locality" />
		<tag k="ssr:stedsnr" v="386554" />
	</node>
	<node id="-26333" lat="59.7742888863" lon="10.1543777779">
		<tag k="name" v="Landfallbrenna" />
		<tag k="natural" v="hill" />
		<tag k="place" v="locality" />
		<tag k="ssr:stedsnr" v="368173" />
	</node>
	<node id="-26323" lat="59.756700003" lon="10.1803194483">
		<tag k="name" v="Ingeniørstupet" />
		<tag k="place" v="locality" />
		<tag k="ssr:stedsnr" v="362813" />
	</node>
	<node id="-26321" lat="59.7552916637" lon="10.2155305486">
		<tag k="fixme" v="consider natural=peak for the most distinct mountains in the district" />
		<tag k="name" v="Strøtvetåsen" />
		<tag k="natural" v="hill" />
		<tag k="place" v="locality" />
		<tag k="ssr:stedsnr" v="362808" />
	</node>
	<node id="-26310" lat="59.5660444442" lon="10.4045777795">
		<tag k="fixme" v="consider natural=peak for the most distinct mountains in the district" />
		<tag k="name" v="Krokåsen" />
		<tag k="natural" v="hill" />
		<tag k="place" v="locality" />
		<tag k="ssr:stedsnr" v="488709" />
	</node>
	<node id="-26309" lat="59.5736777817" lon="10.3547388953">
		<tag k="fixme" v="consider natural=peak for the most distinct mountains in the district" />
		<tag k="name" v="Høgåsen" />
		<tag k="natural" v="hill" />
		<tag k="place" v="locality" />
		<tag k="ssr:stedsnr" v="488703" />
	</node>
	<node id="-26308" lat="59.5700000044" lon="10.3736194497">
		<tag k="fixme" v="consider natural=peak for the most distinct mountains in the district" />
		<tag k="name" v="Ådneåsen" />
		<tag k="natural" v="hill" />
		<tag k="place" v="locality" />
		<tag k="ssr:stedsnr" v="488702" />
	</node>
	<node id="-26305" lat="59.7111638896" lon="10.0017027778">
		<tag k="name" v="Ertekollen" />
		<tag k="natural" v="hill" />
		<tag k="place" v="locality" />
		<tag k="ssr:stedsnr" v="488248" />
	</node>
	<node id="-26299" lat="59.6766277767" lon="10.1367138863">
		<tag k="fixme" v="consider natural=peak for the most distinct mountains in the district" />
		<tag k="name" v="Halvorsåsen" />
		<tag k="natural" v="hill" />
		<tag k="place" v="locality" />
		<tag k="ssr:stedsnr" v="488208" />
	</node>
	<node id="-26298" lat="59.6836361098" lon="10.003961116">
		<tag k="alt_name" v="Lortholdalen" />
		<tag k="name" v="Lorttjerndalen" />
		<tag k="natural" v="valley" />
		<tag k="place" v="locality" />
		<tag k="ssr:stedsnr" v="488205" />
	</node>
	<node id="-26268" lat="59.6031548939" lon="10.3651273176">
		<tag k="fixme" v="consider natural=peak for the most distinct mountains in the district" />
		<tag k="name" v="Langmyråsene" />
		<tag k="natural" v="hill" />
		<tag k="place" v="locality" />
		<tag k="ssr:stedsnr" v="476297" />
	</node>
	<node id="-26260" lat="59.7623638915" lon="10.1776527863">
		<tag k="fixme" v="consider natural=peak for the most distinct mountains in the district" />
		<tag k="name" v="Sparavollåsen" />
		<tag k="natural" v="hill" />
		<tag k="place" v="locality" />
		<tag k="ssr:stedsnr" v="301821" />
	</node>
	<node id="-26258" lat="59.7611305588" lon="10.1959111061">
		<tag k="name" v="Risåsknappen" />
		<tag k="natural" v="hill" />
		<tag k="place" v="locality" />
		<tag k="ssr:stedsnr" v="301813" />
	</node>
	<node id="-26243" lat="59.6851555528" lon="10.1035222268">
		<tag k="fixme" v="consider natural=peak for the most distinct mountains in the district" />
		<tag k="name" v="Furuvollbrenna" />
		<tag k="natural" v="hill" />
		<tag k="place" v="locality" />
		<tag k="ssr:stedsnr" v="465648" />
	</node>
	<node id="-26231" lat="59.5616555597" lon="10.3510944375">
		<tag k="name" v="Stemmen" />
		<tag k="natural" v="slope" />
		<tag k="place" v="locality" />
		<tag k="ssr:stedsnr" v="271255" />
	</node>
	<node id="-26230" lat="59.5695972211" lon="10.3556388846">
		<tag k="name" v="Peisestua" />
		<tag k="place" v="locality" />
		<tag k="ssr:stedsnr" v="271254" />
	</node>
	<node id="-26224" lat="59.7513194488" lon="10.0553749965">
		<tag k="name" v="Nerkollen" />
		<tag k="natural" v="ridge" />
		<tag k="place" v="locality" />
		<tag k="ssr:stedsnr" v="265910" />
	</node>
	<node id="-26223" lat="59.6093666703" lon="10.4013222244">
		<tag k="fixme" v="consider natural=peak for the most distinct mountains in the district" />
		<tag k="name" v="Tømmeråsen" />
		<tag k="natural" v="hill" />
		<tag k="place" v="locality" />
		<tag k="ssr:stedsnr" v="453363" />
	</node>
	<node id="-26221" lat="59.6711222245" lon="10.3531555595">
		<tag k="name" v="Sæterdalen" />
		<tag k="natural" v="valley" />
		<tag k="place" v="locality" />
		<tag k="ssr:stedsnr" v="453175" />
	</node>
	<node id="-26203" lat="59.813838891" lon="10.0715888801">
		<tag k="name" v="Kampenhaug" />
		<tag k="natural" v="hill" />
		<tag k="place" v="locality" />
		<tag k="ssr:stedsnr" v="246220" />
	</node>
	<node id="-26200" lat="59.6982611109" lon="10.2748111067">
		<tag k="alt_name" v="Kniveåsen" />
		<tag k="fixme" v="consider natural=peak for the most distinct mountains in the district" />
		<tag k="name" v="Knivåsen" />
		<tag k="natural" v="hill" />
		<tag k="place" v="locality" />
		<tag k="ssr:stedsnr" v="245211" />
	</node>
	<node id="-26198" lat="59.6948555537" lon="10.2203333299">
		<tag k="fixme" v="multiple name tags, choose one and add the other to alt_name; consider natural=peak for the most distinct mountains in the district" />
		<tag k="name" v="Blåbærkollen;Kirkåsen" />
		<tag k="natural" v="hill" />
		<tag k="place" v="locality" />
		<tag k="ssr:stedsnr" v="245204" />
	</node>
	<node id="-26177" lat="59.6272333294" lon="10.3509361171">
		<tag k="fixme" v="consider natural=peak for the most distinct mountains in the district" />
		<tag k="name" v="Sæteråsen" />
		<tag k="natural" v="hill" />
		<tag k="place" v="locality" />
		<tag k="ssr:stedsnr" v="210207" />
	</node>
	<node id="-26176" lat="59.6615194412" lon="10.0641249992">
		<tag k="fixme" v="consider natural=peak for the most distinct mountains in the district" />
		<tag k="name" v="Store-Høgås" />
		<tag k="natural" v="hill" />
		<tag k="place" v="locality" />
		<tag k="ssr:stedsnr" v="345799" />
	</node>
	<node id="-26174" lat="59.6743194459" lon="10.0704611026">
		<tag k="name" v="Rødløshaugene" />
		<tag k="natural" v="hill" />
		<tag k="place" v="locality" />
		<tag k="ssr:stedsnr" v="285800" />
	</node>
	<node id="-26170" lat="59.7654694416" lon="10.1766583379">
		<tag k="name" v="Gampestillingsdalen" />
		<tag k="natural" v="valley" />
		<tag k="place" v="locality" />
		<tag k="ssr:stedsnr" v="180808" />
	</node>
	<node id="-26165" lat="59.7676083342" lon="10.1744555634">
		<tag k="name" v="Stankebakken" />
		<tag k="natural" v="slope" />
		<tag k="place" v="locality" />
		<tag k="ssr:stedsnr" v="284202" />
	</node>
	<node id="-26159" lat="59.7187666675" lon="10.2415499921">
		<tag k="name" v="Veslekollen" />
		<tag k="natural" v="hill" />
		<tag k="place" v="locality" />
		<tag k="ssr:stedsnr" v="284059" />
	</node>
	<node id="-26157" lat="59.7231361071" lon="10.2325527785">
		<tag k="name" v="Dronningsletta" />
		<tag k="place" v="locality" />
		<tag k="ssr:stedsnr" v="284048" />
	</node>
	<node id="-26147" lat="59.6890111123" lon="10.1149111122">
		<tag k="name" v="Fuglebrenna" />
		<tag k="natural" v="hill" />
		<tag k="place" v="locality" />
		<tag k="ssr:stedsnr" v="283669" />
	</node>
	<node id="-26141" lat="59.6858805568" lon="10.1548083274">
		<tag k="fixme" v="consider natural=peak for the most distinct mountains in the district" />
		<tag k="name" v="Borgeåsen" />
		<tag k="natural" v="hill" />
		<tag k="place" v="locality" />
		<tag k="ssr:stedsnr" v="283548" />
	</node>
	<node id="-26125" lat="59.6771805513" lon="10.1545972218">
		<tag k="name" v="Brattåsen" />
		<tag k="natural" v="slope" />
		<tag k="place" v="locality" />
		<tag k="ssr:stedsnr" v="163703" />
	</node>
	<node id="-26123" lat="59.7668555518" lon="10.1712777779">
		<tag k="name" v="Blåsteinbakkene" />
		<tag k="natural" v="slope" />
		<tag k="place" v="locality" />
		<tag k="ssr:stedsnr" v="163174" />
	</node>
	<node id="-26122" lat="59.7686055538" lon="10.1705722214">
		<tag k="fixme" v="consider natural=peak for the most distinct mountains in the district" />
		<tag k="name" v="Høgsten" />
		<tag k="natural" v="hill" />
		<tag k="place" v="locality" />
		<tag k="ssr:stedsnr" v="163173" />
	</node>
	<node id="-26121" lat="59.6872305588" lon="10.1180861034">
		<tag k="name" v="Løkbrenna" />
		<tag k="natural" v="hill" />
		<tag k="place" v="locality" />
		<tag k="ssr:stedsnr" v="161663" />
	</node>
	<node id="-26119" lat="59.7013833359" lon="10.0938388974">
		<tag k="fixme" v="consider natural=peak for the most distinct mountains in the district" />
		<tag k="name" v="Haugseteråsen" />
		<tag k="natural" v="hill" />
		<tag k="place" v="locality" />
		<tag k="ssr:stedsnr" v="161565" />
	</node>
	<node id="-26110" lat="59.640333332" lon="10.3339222255">
		<tag k="fixme" v="consider natural=peak for the most distinct mountains in the district" />
		<tag k="name" v="Svanevannsåsen" />
		<tag k="natural" v="hill" />
		<tag k="place" v="locality" />
		<tag k="ssr:stedsnr" v="149360" />
	</node>
	<node id="-26107" lat="59.6048638861" lon="10.3532083351">
		<tag k="name" v="Sankthanshølet" />
		<tag k="natural" v="valley" />
		<tag k="place" v="locality" />
		<tag k="ssr:stedsnr" v="149158" />
	</node>
	<node id="-26106" lat="59.5502333362" lon="10.36025556">
		<tag k="name" v="Bergersetet" />
		<tag k="natural" v="slope" />
		<tag k="place" v="locality" />
		<tag k="ssr:stedsnr" v="149022" />
	</node>
	<node id="-26101" lat="59.5586027782" lon="10.3851361127">
		<tag k="name" v="Sand" />
		<tag k="natural" v="slope" />
		<tag k="place" v="locality" />
		<tag k="ssr:stedsnr" v="271398" />
	</node>
	<node id="-26100" lat="59.5426611095" lon="10.3885694508">
		<tag k="fixme" v="consider natural=peak for the most distinct mountains in the district" />
		<tag k="name" v="Bryggeåsen" />
		<tag k="natural" v="hill" />
		<tag k="place" v="locality" />
		<tag k="ssr:stedsnr" v="271389" />
	</node>
	<node id="-26099" lat="59.788527776" lon="10.0007916729">
		<tag k="name" v="Steinbergjuvet" />
		<tag k="natural" v="gorge" />
		<tag k="ssr:stedsnr" v="269766" />
	</node>
	<node id="-26098" lat="59.7278194416" lon="9.98407777211">
		<tag k="name" v="Steinkleiv" />
		<tag k="natural" v="valley" />
		<tag k="place" v="locality" />
		<tag k="ssr:stedsnr" v="267986" />
	</node>
	<node id="-26095" lat="59.774394448" lon="10.0988805503">
		<tag k="name" v="Barlinddokkåsen" />
		<tag k="natural" v="slope" />
		<tag k="place" v="locality" />
		<tag k="ssr:stedsnr" v="265777" />
	</node>
	<node id="-26083" lat="59.81134444" lon="10.1124055609">
		<tag k="name" v="Vakkertjernheia" />
		<tag k="natural" v="hill" />
		<tag k="place" v="locality" />
		<tag k="ssr:stedsnr" v="264448" />
	</node>
	<node id="-26081" lat="59.7330555526" lon="10.0757638975">
		<tag k="fixme" v="consider natural=peak for the most distinct mountains in the district" />
		<tag k="name" v="Narverudåsen" />
		<tag k="natural" v="hill" />
		<tag k="place" v="locality" />
		<tag k="ssr:stedsnr" v="124312" />
	</node>
	<node id="-26076" lat="59.7650583312" lon="10.1673500023">
		<tag k="name" v="Gamlebakken" />
		<tag k="natural" v="slope" />
		<tag k="place" v="locality" />
		<tag k="ssr:stedsnr" v="119839" />
	</node>
	<node id="-26075" lat="59.7604388931" lon="10.195938894">
		<tag k="fixme" v="consider natural=peak for the most distinct mountains in the district" />
		<tag k="name" v="Risåsen" />
		<tag k="natural" v="hill" />
		<tag k="place" v="locality" />
		<tag k="ssr:stedsnr" v="119835" />
	</node>
	<node id="-26065" lat="59.7059361081" lon="10.1879527717">
		<tag k="name" v="Suselia" />
		<tag k="natural" v="slope" />
		<tag k="place" v="locality" />
		<tag k="ssr:stedsnr" v="118319" />
	</node>
	<node id="-26057" lat="59.7681666704" lon="10.0278027853">
		<tag k="fixme" v="consider natural=peak for the most distinct mountains in the district" />
		<tag k="name" v="Lemenåsen" />
		<tag k="natural" v="hill" />
		<tag k="place" v="locality" />
		<tag k="ssr:stedsnr" v="83962" />
	</node>
	<node id="-26055" lat="59.73314167" lon="10.0744805523">
		<tag k="name" v="Dalerbrenna" />
		<tag k="natural" v="hill" />
		<tag k="place" v="locality" />
		<tag k="ssr:stedsnr" v="83576" />
	</node>
	<node id="-26054" lat="59.7297722241" lon="10.1169138938">
		<tag k="name" v="Bilitt" />
		<tag k="natural" v="slope" />
		<tag k="place" v="locality" />
		<tag k="ssr:stedsnr" v="83504" />
	</node>
	<node id="-26051" lat="59.790899997" lon="10.0383527689">
		<tag k="fixme" v="consider natural=peak for the most distinct mountains in the district" />
		<tag k="name" v="Lokkeråsen" />
		<tag k="natural" v="hill" />
		<tag k="place" v="locality" />
		<tag k="ssr:stedsnr" v="247133" />
	</node>
	<node id="-26048" lat="59.6429666694" lon="10.3437138855">
		<tag k="fixme" v="consider natural=peak for the most distinct mountains in the district" />
		<tag k="name" v="Bollstein" />
		<tag k="natural" v="hill" />
		<tag k="place" v="locality" />
		<tag k="ssr:stedsnr" v="246814" />
	</node>
	<node id="-26036" lat="59.6267250039" lon="10.3507749993">
		<tag k="fixme" v="consider natural=peak for the most distinct mountains in the district" />
		<tag k="name" v="Seteråsen" />
		<tag k="natural" v="hill" />
		<tag k="place" v="locality" />
		<tag k="ssr:stedsnr" v="246028" />
	</node>
	<node id="-26033" lat="59.6960888897" lon="10.1043749958">
		<tag k="name" v="Hengefossdalen" />
		<tag k="natural" v="valley" />
		<tag k="place" v="locality" />
		<tag k="ssr:stedsnr" v="245196" />
	</node>
	<node id="-26026" lat="59.7648500032" lon="10.1644944374">
		<tag k="name" v="Mysmerkleiva" />
		<tag k="natural" v="slope" />
		<tag k="place" v="locality" />
		<tag k="ssr:stedsnr" v="241785" />
	</node>
	<node id="-26025" lat="59.7077861122" lon="10.193930559">
		<tag k="fixme" v="consider natural=peak for the most distinct mountains in the district" />
		<tag k="name" v="Risdalsåsen" />
		<tag k="natural" v="hill" />
		<tag k="place" v="locality" />
		<tag k="ssr:stedsnr" v="64307" />
	</node>
	<node id="-26024" lat="59.7099999956" lon="10.1091500068">
		<tag k="name" v="Grimsrudbrenna" />
		<tag k="natural" v="hill" />
		<tag k="place" v="locality" />
		<tag k="ssr:stedsnr" v="64305" />
	</node>
	<node id="-26023" lat="59.7042000021" lon="10.2168166623">
		<tag k="fixme" v="consider natural=peak for the most distinct mountains in the district" />
		<tag k="name" v="Gjerpenåsen" />
		<tag k="natural" v="hill" />
		<tag k="place" v="locality" />
		<tag k="ssr:stedsnr" v="64302" />
	</node>
	<node id="-26018" lat="59.7585861135" lon="10.2028861091">
		<tag k="fixme" v="consider natural=peak for the most distinct mountains in the district" />
		<tag k="name" v="Snauåsen" />
		<tag k="natural" v="hill" />
		<tag k="place" v="locality" />
		<tag k="ssr:stedsnr" v="241743" />
	</node>
	<node id="-26017" lat="59.756099997" lon="10.202724995">
		<tag k="name" v="Slettåsen" />
		<tag k="natural" v="ridge" />
		<tag k="place" v="locality" />
		<tag k="ssr:stedsnr" v="241741" />
	</node>
	<node id="-26016" lat="59.6711500041" lon="10.126102782">
		<tag k="fixme" v="consider natural=peak for the most distinct mountains in the district" />
		<tag k="name" v="Slåttsmyråsen" />
		<tag k="natural" v="hill" />
		<tag k="old_name" v="Slåsmyråsen;Slotsmyraas;Sletmyråsen" />
		<tag k="place" v="locality" />
		<tag k="ssr:stedsnr" v="64222" />
	</node>
	<node id="-26004" lat="59.7636444486" lon="10.1708277792">
		<tag k="fixme" v="consider natural=peak for the most distinct mountains in the district" />
		<tag k="name" v="Grubeåsen" />
		<tag k="natural" v="hill" />
		<tag k="place" v="locality" />
		<tag k="ssr:stedsnr" v="59796" />
	</node>
	<node id="-25998" lat="59.7159750032" lon="10.2404694377">
		<tag k="name" v="Leavind" />
		<tag k="natural" v="valley" />
		<tag k="place" v="locality" />
		<tag k="ssr:stedsnr" v="41063" />
	</node>
	<node id="-25997" lat="59.7057361114" lon="10.2788166635">
		<tag k="name" v="Rævaberget" />
		<tag k="natural" v="cliff" />
		<tag k="ssr:stedsnr" v="41056" />
	</node>
	<node id="-25996" lat="59.7212055533" lon="10.2342777775">
		<tag k="name" v="Korpeberget" />
		<tag k="natural" v="hill" />
		<tag k="place" v="locality" />
		<tag k="ssr:stedsnr" v="41052" />
	</node>
	<node id="-25992" lat="59.694280557" lon="10.1161888919">
		<tag k="name" v="Rollesletta" />
		<tag k="place" v="locality" />
		<tag k="ssr:stedsnr" v="40609" />
	</node>
	<node id="-25983" lat="59.6829666664" lon="10.0331888843">
		<tag k="name" v="Baklia" />
		<tag k="natural" v="slope" />
		<tag k="place" v="locality" />
		<tag k="ssr:stedsnr" v="27126" />
	</node>
	<node id="-25973" lat="59.6724805521" lon="10.08123333">
		<tag k="name" v="Ner-Høgåslia" />
		<tag k="natural" v="slope" />
		<tag k="place" v="locality" />
		<tag k="ssr:stedsnr" v="224794" />
	</node>
	<node id="-25971" lat="59.6742250004" lon="10.1269555641">
		<tag k="name" v="Borgelia" />
		<tag k="natural" v="slope" />
		<tag k="place" v="locality" />
		<tag k="ssr:stedsnr" v="224681" />
	</node>
	<node id="-25967" lat="59.7870749959" lon="10.1536361044">
		<tag k="name" v="Rostuleiken" />
		<tag k="natural" v="hill" />
		<tag k="place" v="locality" />
		<tag k="ssr:stedsnr" v="224165" />
	</node>
	<node id="-25964" lat="59.7145527802" lon="10.2417861043">
		<tag k="fixme" v="consider natural=peak for the most distinct mountains in the district" />
		<tag k="name" v="Svenskeåsen" />
		<tag k="natural" v="hill" />
		<tag k="place" v="locality" />
		<tag k="ssr:stedsnr" v="224075" />
	</node>
	<node id="-25962" lat="59.7231749975" lon="10.2379972142">
		<tag k="name" v="Leirbakkene" />
		<tag k="natural" v="slope" />
		<tag k="place" v="locality" />
		<tag k="ssr:stedsnr" v="224072" />
	</node>
	<node id="-25950" lat="59.6827194436" lon="10.0746527768">
		<tag k="name" v="Strilekleiva" />
		<tag k="natural" v="slope" />
		<tag k="place" v="locality" />
		<tag k="ssr:stedsnr" v="222609" />
	</node>
	<node id="-27916" lat="59.7564138901" lon="10.1919694494">
		<tag k="name" v="Leirbakkene" />
		<tag k="natural" v="slope" />
		<tag k="place" v="locality" />
		<tag k="ssr:stedsnr" v="968784" />
	</node>
	<node id="-27902" lat="59.685741671" lon="10.0944500081">
		<tag k="name" v="Grisebakken" />
		<tag k="natural" v="slope" />
		<tag k="place" v="locality" />
		<tag k="ssr:stedsnr" v="950629" />
	</node>
	<node id="-27899" lat="59.6819722217" lon="10.1217833253">
		<tag k="name" v="Skjelsbekkbrenna" />
		<tag k="natural" v="hill" />
		<tag k="place" v="locality" />
		<tag k="ssr:stedsnr" v="950663" />
	</node>
	<node id="-27896" lat="59.6959361072" lon="10.1177888817">
		<tag k="name" v="Siljukollen" />
		<tag k="natural" v="hill" />
		<tag k="place" v="locality" />
		<tag k="ssr:stedsnr" v="950570" />
	</node>
	<node id="-27893" lat="59.8192916643" lon="10.0063999928">
		<tag k="name" v="Øyvannsbrenna" />
		<tag k="natural" v="ridge" />
		<tag k="place" v="locality" />
		<tag k="ssr:stedsnr" v="875488" />
	</node>
	<node id="-27882" lat="59.6703861125" lon="10.1034916637">
		<tag k="fixme" v="consider natural=peak for the most distinct mountains in the district" />
		<tag k="name" v="Åstelja" />
		<tag k="natural" v="hill" />
		<tag k="place" v="locality" />
		<tag k="ssr:stedsnr" v="870974" />
	</node>
	<node id="-27881" lat="59.61345278" lon="10.3494305545">
		<tag k="name" v="Knemsmoen" />
		<tag k="place" v="locality" />
		<tag k="ssr:stedsnr" v="870972" />
	</node>
	<node id="-27879" lat="59.838038891" lon="10.0822583252">
		<tag k="fixme" v="consider natural=peak for the most distinct mountains in the district" />
		<tag k="name" v="Trettekollen" />
		<tag k="natural" v="hill" />
		<tag k="place" v="locality" />
		<tag k="ssr:stedsnr" v="854269" />
	</node>
	<node id="-27869" lat="59.6955527796" lon="10.0075861131">
		<tag k="name" v="Vestknabben" />
		<tag k="natural" v="hill" />
		<tag k="place" v="locality" />
		<tag k="ssr:stedsnr" v="853286" />
	</node>
	<node id="-27864" lat="59.7581750025" lon="10.1650638915">
		<tag k="name" v="Kastanjesletta" />
		<tag k="place" v="locality" />
		<tag k="ssr:stedsnr" v="848800" />
	</node>
	<node id="-27863" lat="59.7639222249" lon="10.1799694449">
		<tag k="name" v="Stiboltlysningen" />
		<tag k="place" v="locality" />
		<tag k="ssr:stedsnr" v="848799" />
	</node>
	<node id="-27852" lat="59.6720333342" lon="10.0886222163">
		<tag k="name" v="Grodalslia" />
		<tag k="natural" v="slope" />
		<tag k="place" v="locality" />
		<tag k="ssr:stedsnr" v="831752" />
	</node>
	<node id="-27851" lat="59.6619472208" lon="10.1037722208">
		<tag k="fixme" v="consider natural=peak for the most distinct mountains in the district" />
		<tag k="name" v="Store Bergevannsbrenna" />
		<tag k="natural" v="hill" />
		<tag k="place" v="locality" />
		<tag k="ssr:stedsnr" v="831675" />
	</node>
	<node id="-27842" lat="59.6490500036" lon="10.062683342">
		<tag k="fixme" v="consider natural=peak for the most distinct mountains in the district" />
		<tag k="name" v="Svartevannsåsen" />
		<tag k="natural" v="hill" />
		<tag k="place" v="locality" />
		<tag k="ssr:stedsnr" v="829863" />
	</node>
	<node id="-27840" lat="59.6553500034" lon="10.0619944361">
		<tag k="fixme" v="consider natural=peak for the most distinct mountains in the district" />
		<tag k="name" v="Bjønnåsen" />
		<tag k="natural" v="hill" />
		<tag k="place" v="locality" />
		<tag k="ssr:stedsnr" v="829858" />
	</node>
	<node id="-27837" lat="59.6904777794" lon="10.0756666674">
		<tag k="name" v="Heiabrenna" />
		<tag k="natural" v="hill" />
		<tag k="place" v="locality" />
		<tag k="ssr:stedsnr" v="829654" />
	</node>
	<node id="-27826" lat="59.6175638924" lon="10.3838888803">
		<tag k="name" v="Klippa" />
		<tag k="natural" v="hill" />
		<tag k="place" v="locality" />
		<tag k="ssr:stedsnr" v="817348" />
	</node>
	<node id="-27824" lat="59.5540722235" lon="10.3711194503">
		<tag k="name" v="Merrapanna" />
		<tag k="natural" v="slope" />
		<tag k="old_name" v="Merrrapanna" />
		<tag k="place" v="locality" />
		<tag k="ssr:stedsnr" v="817226" />
	</node>
	<node id="-27823" lat="59.6222055565" lon="10.3736027755">
		<tag k="name" v="Kalmo" />
		<tag k="place" v="locality" />
		<tag k="ssr:stedsnr" v="817198" />
	</node>
	<node id="-27819" lat="59.8201027752" lon="10.0217833358">
		<tag k="name" v="Kølabonn" />
		<tag k="natural" v="valley" />
		<tag k="place" v="locality" />
		<tag k="ssr:stedsnr" v="814518" />
	</node>
	<node id="-27812" lat="59.7774638876" lon="10.0179277726">
		<tag k="name" v="Migen" />
		<tag k="natural" v="slope" />
		<tag k="place" v="locality" />
		<tag k="ssr:stedsnr" v="811900" />
	</node>
	<node id="-27811" lat="59.7703944414" lon="10.0051416755">
		<tag k="name" v="Steinkleiv" />
		<tag k="natural" v="slope" />
		<tag k="place" v="locality" />
		<tag k="ssr:stedsnr" v="811898" />
	</node>
	<node id="-27810" lat="59.7690861139" lon="10.1119194462">
		<tag k="name" v="Linneberga" />
		<tag k="natural" v="slope" />
		<tag k="place" v="locality" />
		<tag k="ssr:stedsnr" v="811718" />
	</node>
	<node id="-27809" lat="59.760955557" lon="10.1472583395">
		<tag k="name" v="Sletningsdalen" />
		<tag k="natural" v="valley" />
		<tag k="place" v="locality" />
		<tag k="ssr:stedsnr" v="811605" />
	</node>
	<node id="-27798" lat="59.773625" lon="10.0353249925">
		<tag k="fixme" v="consider natural=peak for the most distinct mountains in the district" />
		<tag k="name" v="Svarttjernåsen" />
		<tag k="natural" v="hill" />
		<tag k="place" v="locality" />
		<tag k="ssr:stedsnr" v="811474" />
	</node>
	<node id="-27797" lat="59.6707416656" lon="10.1156277716">
		<tag k="fixme" v="consider natural=peak for the most distinct mountains in the district" />
		<tag k="name" v="Svinkekollen" />
		<tag k="natural" v="hill" />
		<tag k="place" v="locality" />
		<tag k="ssr:stedsnr" v="809979" />
	</node>
	<node id="-27793" lat="59.674352781" lon="10.302491671">
		<tag k="fixme" v="consider natural=peak for the most distinct mountains in the district" />
		<tag k="name" v="Risåsen" />
		<tag k="natural" v="hill" />
		<tag k="place" v="locality" />
		<tag k="ssr:stedsnr" v="792147" />
	</node>
	<node id="-27790" lat="59.7614138879" lon="10.1982499972">
		<tag k="fixme" v="consider natural=peak for the most distinct mountains in the district" />
		<tag k="name" v="Villåsen" />
		<tag k="natural" v="hill" />
		<tag k="place" v="locality" />
		<tag k="ssr:stedsnr" v="792074" />
	</node>
	<node id="-27783" lat="59.695725003" lon="10.0604055578">
		<tag k="name" v="Katthusdalen" />
		<tag k="natural" v="valley" />
		<tag k="place" v="locality" />
		<tag k="ssr:stedsnr" v="791199" />
	</node>
	<node id="-27771" lat="59.6708833336" lon="10.1709999971">
		<tag k="name" v="Hovåsen" />
		<tag k="natural" v="hill" />
		<tag k="place" v="locality" />
		<tag k="ssr:stedsnr" v="770706" />
	</node>
	<node id="-27765" lat="59.7137694414" lon="10.2409916712">
		<tag k="name" v="Singelhøla" />
		<tag k="natural" v="valley" />
		<tag k="place" v="locality" />
		<tag k="ssr:stedsnr" v="770016" />
	</node>
	<node id="-27764" lat="59.7189888844" lon="10.2633194514">
		<tag k="name" v="Åskollen" />
		<tag k="natural" v="hill" />
		<tag k="place" v="locality" />
		<tag k="ssr:stedsnr" v="770014" />
	</node>
	<node id="-27749" lat="59.6171833331" lon="10.4037138931">
		<tag k="name" v="Brenna" />
		<tag k="natural" v="slope" />
		<tag k="place" v="locality" />
		<tag k="ssr:stedsnr" v="756345" />
	</node>
	<node id="-27745" lat="59.6189361075" lon="10.405397216">
		<tag k="name" v="Brennepundet" />
		<tag k="natural" v="hill" />
		<tag k="place" v="locality" />
		<tag k="ssr:stedsnr" v="754247" />
	</node>
	<node id="-27731" lat="59.7773472205" lon="10.0868388873">
		<tag k="fixme" v="consider natural=peak for the most distinct mountains in the district" />
		<tag k="name" v="Tjurueldsåsen" />
		<tag k="natural" v="hill" />
		<tag k="place" v="locality" />
		<tag k="ssr:stedsnr" v="750481" />
	</node>
	<node id="-27730" lat="59.7779944419" lon="10.0771499994">
		<tag k="name" v="Nedre Isberget" />
		<tag k="natural" v="slope" />
		<tag k="place" v="locality" />
		<tag k="ssr:stedsnr" v="750478" />
	</node>
	<node id="-27723" lat="59.6700861085" lon="10.0521638896">
		<tag k="name" v="Terjevollia" />
		<tag k="natural" v="slope" />
		<tag k="place" v="locality" />
		<tag k="ssr:stedsnr" v="648784" />
	</node>
	<node id="-27711" lat="59.6599249965" lon="10.0822138879">
		<tag k="name" v="Løkmyrlia" />
		<tag k="natural" v="slope" />
		<tag k="place" v="locality" />
		<tag k="ssr:stedsnr" v="646831" />
	</node>
	<node id="-27700" lat="59.6113638851" lon="10.380288892">
		<tag k="name" v="Trolldalen" />
		<tag k="natural" v="valley" />
		<tag k="place" v="locality" />
		<tag k="ssr:stedsnr" v="634381" />
	</node>
	<node id="-27698" lat="59.5917166676" lon="10.3869722286">
		<tag k="name" v="Apalbakken" />
		<tag k="natural" v="slope" />
		<tag k="place" v="locality" />
		<tag k="ssr:stedsnr" v="634369" />
	</node>
	<node id="-27691" lat="59.780133334" lon="9.97222221347">
		<tag k="fixme" v="consider natural=peak for the most distinct mountains in the district" />
		<tag k="name" v="Kobberdokkfjellet" />
		<tag k="natural" v="hill" />
		<tag k="place" v="locality" />
		<tag k="ssr:stedsnr" v="629727" />
	</node>
	<node id="-27689" lat="59.7239916662" lon="10.062830554">
		<tag k="name" v="Overdalen" />
		<tag k="natural" v="valley" />
		<tag k="place" v="locality" />
		<tag k="ssr:stedsnr" v="629568" />
	</node>
	<node id="-27683" lat="59.5963833324" lon="10.3850805537">
		<tag k="fixme" v="consider natural=peak for the most distinct mountains in the district" />
		<tag k="name" v="Glenås" />
		<tag k="natural" v="hill" />
		<tag k="place" v="locality" />
		<tag k="ssr:stedsnr" v="610648" />
	</node>
	<node id="-27679" lat="59.7972805569" lon="10.0514361117">
		<tag k="fixme" v="consider natural=peak for the most distinct mountains in the district" />
		<tag k="name" v="Hoggskollen" />
		<tag k="natural" v="hill" />
		<tag k="place" v="locality" />
		<tag k="ssr:stedsnr" v="610291" />
	</node>
	<node id="-27675" lat="59.7696499969" lon="10.0495166738">
		<tag k="fixme" v="consider natural=peak for the most distinct mountains in the district" />
		<tag k="name" v="Solbergfjellet" />
		<tag k="natural" v="hill" />
		<tag k="place" v="locality" />
		<tag k="ssr:stedsnr" v="610197" />
	</node>
	<node id="-27660" lat="59.7629833362" lon="10.1684361132">
		<tag k="name" v="Blåsteinbakkene" />
		<tag k="natural" v="slope" />
		<tag k="place" v="locality" />
		<tag k="ssr:stedsnr" v="604831" />
	</node>
	<node id="-27654" lat="59.7225111146" lon="10.0995250054">
		<tag k="name" v="Grindebrenna" />
		<tag k="natural" v="hill" />
		<tag k="place" v="locality" />
		<tag k="ssr:stedsnr" v="603324" />
	</node>
	<node id="-27648" lat="59.671488888" lon="10.0826222227">
		<tag k="name" v="Ner-Høgås" />
		<tag k="natural" v="hill" />
		<tag k="place" v="locality" />
		<tag k="ssr:stedsnr" v="588817" />
	</node>
	<node id="-27643" lat="59.7945611143" lon="10.1323666717">
		<tag k="name" v="Tverråsjuvet" />
		<tag k="natural" v="gorge" />
		<tag k="ssr:stedsnr" v="587192" />
	</node>
	<node id="-27639" lat="59.7070750013" lon="10.2760250076">
		<tag k="name" v="Gråmerra" />
		<tag k="place" v="locality" />
		<tag k="ssr:stedsnr" v="587011" />
	</node>
	<node id="-27634" lat="59.6815194421" lon="10.055152778">
		<tag k="name" v="Skulkerudbakkene" />
		<tag k="natural" v="slope" />
		<tag k="place" v="locality" />
		<tag k="ssr:stedsnr" v="586637" />
	</node>
	<node id="-27622" lat="59.6877333369" lon="10.3023055494">
		<tag k="name" v="Jon Madsens dal" />
		<tag k="natural" v="valley" />
		<tag k="place" v="locality" />
		<tag k="ssr:stedsnr" v="585225" />
	</node>
	<node id="-27617" lat="59.6505305532" lon="10.3323944356">
		<tag k="fixme" v="consider natural=peak for the most distinct mountains in the district" />
		<tag k="name" v="Kringleåsen" />
		<tag k="natural" v="hill" />
		<tag k="place" v="locality" />
		<tag k="ssr:stedsnr" v="574403" />
	</node>
	<node id="-27616" lat="59.6461583334" lon="10.3281611154">
		<tag k="name" v="Fleskelita" />
		<tag k="natural" v="valley" />
		<tag k="place" v="locality" />
		<tag k="ssr:stedsnr" v="574402" />
	</node>
	<node id="-27613" lat="59.5755916711" lon="10.3458388866">
		<tag k="fixme" v="consider natural=peak for the most distinct mountains in the district" />
		<tag k="name" v="Blindevannsåsen" />
		<tag k="natural" v="hill" />
		<tag k="place" v="locality" />
		<tag k="ssr:stedsnr" v="574279" />
	</node>
	<node id="-27612" lat="59.5895944472" lon="10.3468472259">
		<tag k="fixme" v="consider natural=peak for the most distinct mountains in the district" />
		<tag k="name" v="Blakkemyrkollen" />
		<tag k="natural" v="hill" />
		<tag k="place" v="locality" />
		<tag k="ssr:stedsnr" v="574277" />
	</node>
	<node id="-27606" lat="59.6542444453" lon="10.3380222206">
		<tag k="name" v="Mellomåsen" />
		<tag k="natural" v="hill" />
		<tag k="place" v="locality" />
		<tag k="ssr:stedsnr" v="574149" />
	</node>
	<node id="-27605" lat="59.6569861096" lon="10.3546861178">
		<tag k="name" v="Furrubråtan" />
		<tag k="place" v="locality" />
		<tag k="ssr:stedsnr" v="574148" />
	</node>
	<node id="-27604" lat="59.7170722262" lon="9.97325833863">
		<tag k="name" v="Dammyrhaugene" />
		<tag k="natural" v="hill" />
		<tag k="place" v="locality" />
		<tag k="ssr:stedsnr" v="573171" />
	</node>
	<node id="-27600" lat="59.6763305525" lon="10.3605888834">
		<tag k="name" v="Jordfallet" />
		<tag k="natural" v="slope" />
		<tag k="place" v="locality" />
		<tag k="ssr:stedsnr" v="570769" />
	</node>
	<node id="-27598" lat="59.6500944439" lon="10.031150003">
		<tag k="fixme" v="consider natural=peak for the most distinct mountains in the district" />
		<tag k="name" v="Steingatåsen" />
		<tag k="natural" v="hill" />
		<tag k="place" v="locality" />
		<tag k="ssr:stedsnr" v="570150" />
	</node>
	<node id="-27595" lat="59.7787111112" lon="9.9866722146">
		<tag k="name" v="Tjernsbakk" />
		<tag k="natural" v="slope" />
		<tag k="place" v="locality" />
		<tag k="ssr:stedsnr" v="568911" />
	</node>
	<node id="-27592" lat="59.7241805593" lon="10.0386499977">
		<tag k="name" v="Grisedalen" />
		<tag k="natural" v="valley" />
		<tag k="place" v="locality" />
		<tag k="ssr:stedsnr" v="568550" />
	</node>
	<node id="-27588" lat="59.7699583362" lon="10.0614722166">
		<tag k="name" v="Storlia" />
		<tag k="natural" v="slope" />
		<tag k="place" v="locality" />
		<tag k="ssr:stedsnr" v="568481" />
	</node>
	<node id="-27586" lat="59.7681583293" lon="10.0371472238">
		<tag k="name" v="Ormedalen" />
		<tag k="natural" v="valley" />
		<tag k="place" v="locality" />
		<tag k="ssr:stedsnr" v="568473" />
	</node>
	<node id="-27585" lat="59.7765666703" lon="10.0454722268">
		<tag k="name" v="Høymyrdalen" />
		<tag k="natural" v="valley" />
		<tag k="place" v="locality" />
		<tag k="ssr:stedsnr" v="568472" />
	</node>
	<node id="-27583" lat="59.8009666694" lon="10.0106583334">
		<tag k="fixme" v="consider natural=peak for the most distinct mountains in the district" />
		<tag k="name" v="Høgåsen" />
		<tag k="natural" v="hill" />
		<tag k="place" v="locality" />
		<tag k="ssr:stedsnr" v="550501" />
	</node>
	<node id="-27579" lat="59.5830583326" lon="10.3612944516">
		<tag k="fixme" v="consider natural=peak for the most distinct mountains in the district" />
		<tag k="name" v="Merratoppen" />
		<tag k="natural" v="hill" />
		<tag k="place" v="locality" />
		<tag k="ssr:stedsnr" v="549718" />
	</node>
	<node id="-27575" lat="59.730052782" lon="9.99879999824">
		<tag k="fixme" v="consider natural=peak for the most distinct mountains in the district" />
		<tag k="name" v="Korpåsen" />
		<tag k="natural" v="hill" />
		<tag k="place" v="locality" />
		<tag k="ssr:stedsnr" v="549363" />
	</node>
	<node id="-27574" lat="59.7064666688" lon="10.1808916653">
		<tag k="name" v="Dunkedalen" />
		<tag k="natural" v="valley" />
		<tag k="place" v="locality" />
		<tag k="ssr:stedsnr" v="549310" />
	</node>
	<node id="-27561" lat="59.6864916685" lon="10.2900138974">
		<tag k="fixme" v="consider natural=peak for the most distinct mountains in the district" />
		<tag k="name" v="Vardåsen" />
		<tag k="natural" v="hill" />
		<tag k="place" v="locality" />
		<tag k="ssr:stedsnr" v="549239" />
	</node>
	<node id="-27547" lat="59.7577444474" lon="10.2066305593">
		<tag k="name" v="Rytteråsen" />
		<tag k="natural" v="hill" />
		<tag k="place" v="locality" />
		<tag k="ssr:stedsnr" v="544792" />
	</node>
	<node id="-27545" lat="59.7629111082" lon="10.1836722211">
		<tag k="fixme" v="consider natural=peak for the most distinct mountains in the district" />
		<tag k="name" v="Bringebærkollen" />
		<tag k="natural" v="hill" />
		<tag k="place" v="locality" />
		<tag k="ssr:stedsnr" v="544761" />
	</node>
	<node id="-27531" lat="59.674175004" lon="10.1655388839">
		<tag k="name" v="Hovdalen" />
		<tag k="natural" v="valley" />
		<tag k="place" v="locality" />
		<tag k="ssr:stedsnr" v="527719" />
	</node>
	<node id="-27530" lat="59.6702472205" lon="10.0577083279">
		<tag k="name" v="Terjevollflåa" />
		<tag k="place" v="locality" />
		<tag k="ssr:stedsnr" v="527716" />
	</node>
	<node id="-27529" lat="59.6747694468" lon="10.1449444445">
		<tag k="name" v="Almedalen" />
		<tag k="natural" v="valley" />
		<tag k="place" v="locality" />
		<tag k="ssr:stedsnr" v="527713" />
	</node>
	<node id="-27528" lat="59.6755694401" lon="10.0457666642">
		<tag k="name" v="Askedalen" />
		<tag k="natural" v="valley" />
		<tag k="place" v="locality" />
		<tag k="ssr:stedsnr" v="527797" />
	</node>
	<node id="-27515" lat="59.6801444431" lon="10.2749638829">
		<tag k="name" v="Bakkedalen" />
		<tag k="natural" v="valley" />
		<tag k="place" v="locality" />
		<tag k="ssr:stedsnr" v="525630" />
	</node>
	<node id="-27504" lat="59.5589750039" lon="10.3733999946">
		<tag k="alt_name" v="Høyenåsen;Høienåsen" />
		<tag k="fixme" v="consider natural=peak for the most distinct mountains in the district" />
		<tag k="name" v="Kjelleråsen" />
		<tag k="natural" v="hill" />
		<tag k="place" v="locality" />
		<tag k="ssr:stedsnr" v="428677" />
	</node>
	<node id="-27496" lat="59.6806194449" lon="10.301549996">
		<tag k="fixme" v="consider natural=peak for the most distinct mountains in the district" />
		<tag k="name" v="Finnefjell" />
		<tag k="natural" v="hill" />
		<tag k="place" v="locality" />
		<tag k="ssr:stedsnr" v="428194" />
	</node>
	<node id="-27491" lat="59.8065083343" lon="10.0507638927">
		<tag k="fixme" v="consider natural=peak for the most distinct mountains in the district" />
		<tag k="name" v="Kleiveren" />
		<tag k="natural" v="hill" />
		<tag k="place" v="locality" />
		<tag k="ssr:stedsnr" v="428212" />
	</node>
	<node id="-27471" lat="59.7120194484" lon="10.2512888872">
		<tag k="name" v="Glaneren" />
		<tag k="natural" v="hill" />
		<tag k="place" v="locality" />
		<tag k="ssr:stedsnr" v="406042" />
	</node>
	<node id="-27457" lat="59.6598166694" lon="10.3833861148">
		<tag k="name" v="Rogneberget" />
		<tag k="natural" v="hill" />
		<tag k="place" v="locality" />
		<tag k="ssr:stedsnr" v="392323" />
	</node>
	<node id="-27454" lat="59.6317583343" lon="10.3646138966">
		<tag k="name" v="Steindalen" />
		<tag k="natural" v="valley" />
		<tag k="place" v="locality" />
		<tag k="ssr:stedsnr" v="392214" />
	</node>
	<node id="-27453" lat="59.6246277818" lon="10.3661333388">
		<tag k="fixme" v="consider natural=peak for the most distinct mountains in the district" />
		<tag k="name" v="Fjellbekkhaugen" />
		<tag k="natural" v="hill" />
		<tag k="place" v="locality" />
		<tag k="ssr:stedsnr" v="392213" />
	</node>
	<node id="-27452" lat="59.6062166687" lon="10.37026945">
		<tag k="fixme" v="consider natural=peak for the most distinct mountains in the district" />
		<tag k="name" v="Hellumåsen" />
		<tag k="natural" v="hill" />
		<tag k="place" v="locality" />
		<tag k="ssr:stedsnr" v="392193" />
	</node>
	<node id="-27450" lat="59.6684083345" lon="10.3099611195">
		<tag k="fixme" v="consider natural=peak for the most distinct mountains in the district" />
		<tag k="name" v="Risåsen" />
		<tag k="natural" v="hill" />
		<tag k="place" v="locality" />
		<tag k="ssr:stedsnr" v="392185" />
	</node>
	<node id="-27449" lat="59.6000444416" lon="10.3751138955">
		<tag k="name" v="Plassen" />
		<tag k="place" v="locality" />
		<tag k="ssr:stedsnr" v="392182" />
	</node>
	<node id="-27447" lat="59.6893499972" lon="10.0297555487">
		<tag k="name" v="Kirkebrenna" />
		<tag k="natural" v="ridge" />
		<tag k="place" v="locality" />
		<tag k="ssr:stedsnr" v="391150" />
	</node>
	<node id="-27445" lat="59.8086000001" lon="10.02271945">
		<tag k="fixme" v="consider natural=peak for the most distinct mountains in the district" />
		<tag k="name" v="Lommetjernåsen" />
		<tag k="natural" v="hill" />
		<tag k="place" v="locality" />
		<tag k="ssr:stedsnr" v="390720" />
	</node>
	<node id="-27444" lat="59.8342222186" lon="10.0303861056">
		<tag k="name" v="Solund" />
		<tag k="natural" v="slope" />
		<tag k="place" v="locality" />
		<tag k="ssr:stedsnr" v="389632" />
	</node>
	<node id="-27441" lat="59.7788250037" lon="10.0251083374">
		<tag k="name" v="Hestemyrhullet" />
		<tag k="natural" v="valley" />
		<tag k="place" v="locality" />
		<tag k="ssr:stedsnr" v="386950" />
	</node>
	<node id="-27433" lat="59.7753638847" lon="10.0636305611">
		<tag k="name" v="Kjevlingen" />
		<tag k="natural" v="valley" />
		<tag k="place" v="locality" />
		<tag k="ssr:stedsnr" v="386480" />
	</node>
	<node id="-27428" lat="59.8393666643" lon="10.0306888928">
		<tag k="fixme" v="consider natural=peak for the most distinct mountains in the district" />
		<tag k="name" v="Kampen" />
		<tag k="natural" v="hill" />
		<tag k="place" v="locality" />
		<tag k="ssr:stedsnr" v="368319" />
	</node>
	<node id="-27426" lat="59.5898944483" lon="10.3732611045">
		<tag k="fixme" v="consider natural=peak for the most distinct mountains in the district" />
		<tag k="name" v="Sukkerertkollen" />
		<tag k="natural" v="hill" />
		<tag k="place" v="locality" />
		<tag k="ssr:stedsnr" v="367723" />
	</node>
	<node id="-27421" lat="59.7396499974" lon="10.0572083387">
		<tag k="alt_name" v="Strykenåsen" />
		<tag k="fixme" v="consider natural=peak for the most distinct mountains in the district" />
		<tag k="name" v="Strykåsen" />
		<tag k="natural" v="hill" />
		<tag k="place" v="locality" />
		<tag k="ssr:stedsnr" v="367307" />
	</node>
	<node id="-27418" lat="59.7030500005" lon="10.019177769">
		<tag k="fixme" v="consider natural=peak for the most distinct mountains in the district" />
		<tag k="name" v="Røysåsen" />
		<tag k="natural" v="hill" />
		<tag k="place" v="locality" />
		<tag k="ssr:stedsnr" v="367232" />
	</node>
	<node id="-27416" lat="59.7189944441" lon="10.2458972255">
		<tag k="fixme" v="consider natural=peak for the most distinct mountains in the district" />
		<tag k="name" v="Nordbykollen" />
		<tag k="natural" v="hill" />
		<tag k="place" v="locality" />
		<tag k="ssr:stedsnr" v="367225" />
	</node>
	<node id="-27415" lat="59.718311111" lon="10.044574996">
		<tag k="fixme" v="consider natural=peak for the most distinct mountains in the district" />
		<tag k="name" v="Bremsåsen" />
		<tag k="natural" v="hill" />
		<tag k="place" v="locality" />
		<tag k="ssr:stedsnr" v="367218" />
	</node>
	<node id="-27409" lat="59.7171027811" lon="10.182516665">
		<tag k="fixme" v="consider natural=peak for the most distinct mountains in the district" />
		<tag k="name" v="Svettekollen" />
		<tag k="natural" v="hill" />
		<tag k="place" v="locality" />
		<tag k="ssr:stedsnr" v="360391" />
	</node>
	<node id="-27405" lat="59.6721916632" lon="10.1582444367">
		<tag k="fixme" v="consider natural=peak for the most distinct mountains in the district" />
		<tag k="name" v="Delåsen" />
		<tag k="natural" v="hill" />
		<tag k="place" v="locality" />
		<tag k="ssr:stedsnr" v="345693" />
	</node>
	<node id="-27402" lat="59.7965111068" lon="10.1109777696">
		<tag k="name" v="Tiuren" />
		<tag k="natural" v="hill" />
		<tag k="place" v="locality" />
		<tag k="ssr:stedsnr" v="345041" />
	</node>
	<node id="-27399" lat="59.6704245384" lon="10.2868032516">
		<tag k="name" v="Gampedalen" />
		<tag k="natural" v="valley" />
		<tag k="place" v="locality" />
		<tag k="ssr:stedsnr" v="343697" />
	</node>
	<node id="-27398" lat="59.6775833308" lon="10.2860555574">
		<tag k="fixme" v="consider natural=peak for the most distinct mountains in the district" />
		<tag k="name" v="Skalpeåsen" />
		<tag k="natural" v="hill" />
		<tag k="place" v="locality" />
		<tag k="ssr:stedsnr" v="343670" />
	</node>
	<node id="-27380" lat="59.6331472191" lon="10.3397166684">
		<tag k="fixme" v="consider natural=peak for the most distinct mountains in the district" />
		<tag k="name" v="Svanevannsåsen" />
		<tag k="natural" v="hill" />
		<tag k="place" v="locality" />
		<tag k="ssr:stedsnr" v="331195" />
	</node>
	<node id="-27372" lat="59.722886113" lon="10.0186972233">
		<tag k="name" v="Hansebråten" />
		<tag k="natural" v="hill" />
		<tag k="place" v="locality" />
		<tag k="ssr:stedsnr" v="326970" />
	</node>
	<node id="-27369" lat="59.736988888" lon="10.1239583275">
		<tag k="name" v="Baklia" />
		<tag k="natural" v="slope" />
		<tag k="place" v="locality" />
		<tag k="ssr:stedsnr" v="326552" />
	</node>
	<node id="-27358" lat="59.67393611" lon="10.3467250054">
		<tag k="fixme" v="consider natural=peak for the most distinct mountains in the district" />
		<tag k="name" v="Trondsåsen" />
		<tag k="natural" v="hill" />
		<tag k="place" v="locality" />
		<tag k="ssr:stedsnr" v="306833" />
	</node>
	<node id="-27353" lat="59.7166055583" lon="10.1980499993">
		<tag k="name" v="Austadmarka" />
		<tag k="natural" v="slope" />
		<tag k="place" v="locality" />
		<tag k="ssr:stedsnr" v="306267" />
	</node>
	<node id="-27352" lat="59.705916667" lon="9.99710278121">
		<tag k="name" v="Brillene" />
		<tag k="natural" v="hill" />
		<tag k="place" v="locality" />
		<tag k="ssr:stedsnr" v="306266" />
	</node>
	<node id="-27348" lat="59.7356166707" lon="10.1112805607">
		<tag k="name" v="Satasletta" />
		<tag k="place" v="locality" />
		<tag k="ssr:stedsnr" v="306239" />
	</node>
	<node id="-27334" lat="59.5541944481" lon="10.3571999961">
		<tag k="fixme" v="consider natural=peak for the most distinct mountains in the district" />
		<tag k="name" v="Ravneråsen" />
		<tag k="natural" v="hill" />
		<tag k="place" v="locality" />
		<tag k="ssr:stedsnr" v="210247" />
	</node>
	<node id="-27328" lat="59.6248805537" lon="10.3856694496">
		<tag k="fixme" v="consider natural=peak for the most distinct mountains in the district" />
		<tag k="name" v="Mariås" />
		<tag k="natural" v="hill" />
		<tag k="place" v="locality" />
		<tag k="ssr:stedsnr" v="210367" />
	</node>
	<node id="-27327" lat="59.5554611091" lon="10.3926277842">
		<tag k="name" v="Kjeller" />
		<tag k="natural" v="slope" />
		<tag k="place" v="locality" />
		<tag k="ssr:stedsnr" v="210365" />
	</node>
	<node id="-27325" lat="59.6661888913" lon="10.362047228">
		<tag k="name" v="Flitte" />
		<tag k="natural" v="hill" />
		<tag k="place" v="locality" />
		<tag k="ssr:stedsnr" v="210173" />
	</node>
	<node id="-27324" lat="59.6673666638" lon="10.3517694389">
		<tag k="name" v="Oterdalen" />
		<tag k="natural" v="valley" />
		<tag k="place" v="locality" />
		<tag k="ssr:stedsnr" v="210170" />
	</node>
	<node id="-27320" lat="59.7938083358" lon="10.0098333307">
		<tag k="name" v="Grisedal" />
		<tag k="natural" v="valley" />
		<tag k="place" v="locality" />
		<tag k="ssr:stedsnr" v="208746" />
	</node>
	<node id="-27316" lat="59.7263472184" lon="9.99697500129">
		<tag k="fixme" v="consider natural=peak for the most distinct mountains in the district" />
		<tag k="name" v="Lefsemyråsen" />
		<tag k="natural" v="hill" />
		<tag k="place" v="locality" />
		<tag k="ssr:stedsnr" v="206950" />
	</node>
	<node id="-27312" lat="59.7846583299" lon="10.0128583412">
		<tag k="name" v="Eknesdalen" />
		<tag k="natural" v="valley" />
		<tag k="place" v="locality" />
		<tag k="ssr:stedsnr" v="204910" />
	</node>
	<node id="-27307" lat="59.7709249968" lon="10.1311916752">
		<tag k="name" v="Kolbergdalen" />
		<tag k="natural" v="valley" />
		<tag k="place" v="locality" />
		<tag k="ssr:stedsnr" v="204712" />
	</node>
	<node id="-27302" lat="59.7371361142" lon="10.0685611135">
		<tag k="name" v="Kortspillsletta" />
		<tag k="place" v="locality" />
		<tag k="ssr:stedsnr" v="204544" />
	</node>
	<node id="-27291" lat="59.7861611071" lon="10.0960694391">
		<tag k="fixme" v="consider natural=peak for the most distinct mountains in the district" />
		<tag k="name" v="Gladbakk" />
		<tag k="natural" v="hill" />
		<tag k="place" v="locality" />
		<tag k="ssr:stedsnr" v="186134" />
	</node>
	<node id="-27286" lat="59.7059277772" lon="10.0886305534">
		<tag k="name" v="Øvre Hogstet" />
		<tag k="place" v="locality" />
		<tag k="ssr:stedsnr" v="185299" />
	</node>
	<node id="-27285" lat="59.7025638864" lon="10.0696666716">
		<tag k="fixme" v="consider natural=peak for the most distinct mountains in the district" />
		<tag k="name" v="Brentåsen" />
		<tag k="natural" v="hill" />
		<tag k="place" v="locality" />
		<tag k="ssr:stedsnr" v="185296" />
	</node>
	<node id="-27281" lat="59.7113305552" lon="10.0592305633">
		<tag k="fixme" v="consider natural=peak for the most distinct mountains in the district" />
		<tag k="name" v="Lauvåsen" />
		<tag k="natural" v="hill" />
		<tag k="place" v="locality" />
		<tag k="ssr:stedsnr" v="185251" />
	</node>
	<node id="-27280" lat="59.7327055514" lon="10.1134416623">
		<tag k="fixme" v="multiple name tags, choose one and add the other to alt_name; consider natural=peak for the most distinct mountains in the district" />
		<tag k="name" v="Gruvåsen;Konnerudkollen" />
		<tag k="natural" v="hill" />
		<tag k="place" v="locality" />
		<tag k="ssr:stedsnr" v="185248" />
	</node>
	<node id="-27278" lat="59.678174997" lon="10.0950527756">
		<tag k="fixme" v="consider natural=peak for the most distinct mountains in the district" />
		<tag k="name" v="Faksåsen" />
		<tag k="natural" v="hill" />
		<tag k="place" v="locality" />
		<tag k="ssr:stedsnr" v="185230" />
	</node>
	<node id="-27277" lat="59.6931472237" lon="10.1152972162">
		<tag k="name" v="Brannbukken" />
		<tag k="natural" v="hill" />
		<tag k="place" v="locality" />
		<tag k="ssr:stedsnr" v="185181" />
	</node>
	<node id="-27269" lat="59.7278055578" lon="10.1685055567">
		<tag k="name" v="Almedalsletta" />
		<tag k="place" v="locality" />
		<tag k="ssr:stedsnr" v="180841" />
	</node>
	<node id="-27264" lat="59.7205166659" lon="10.17522223">
		<tag k="fixme" v="consider natural=peak for the most distinct mountains in the district" />
		<tag k="name" v="Grubemyråsen" />
		<tag k="natural" v="hill" />
		<tag k="place" v="locality" />
		<tag k="ssr:stedsnr" v="178431" />
	</node>
	<node id="-27259" lat="59.6784250032" lon="10.1093055478">
		<tag k="name" v="Gravdalsbånnane" />
		<tag k="place" v="locality" />
		<tag k="ssr:stedsnr" v="163699" />
	</node>
	<node id="-27258" lat="59.6767222216" lon="10.1258500036">
		<tag k="fixme" v="consider natural=peak for the most distinct mountains in the district" />
		<tag k="name" v="Sagåsen" />
		<tag k="natural" v="hill" />
		<tag k="place" v="locality" />
		<tag k="ssr:stedsnr" v="163696" />
	</node>
	<node id="-27253" lat="59.6725472252" lon="10.0510527755">
		<tag k="fixme" v="consider natural=peak for the most distinct mountains in the district" />
		<tag k="name" v="Rønnehuåsen" />
		<tag k="natural" v="hill" />
		<tag k="place" v="locality" />
		<tag k="ssr:stedsnr" v="163797" />
	</node>
	<node id="-27242" lat="59.6434638911" lon="10.0456722162">
		<tag k="fixme" v="consider natural=peak for the most distinct mountains in the district" />
		<tag k="loc_name" v="Annevasshøgda" />
		<tag k="name" v="Annevannshøgda" />
		<tag k="natural" v="hill" />
		<tag k="place" v="locality" />
		<tag k="ssr:stedsnr" v="161840" />
	</node>
	<node id="-27233" lat="59.6235416668" lon="10.4000749963">
		<tag k="name" v="Ormedalen" />
		<tag k="natural" v="valley" />
		<tag k="place" v="locality" />
		<tag k="ssr:stedsnr" v="149340" />
	</node>
	<node id="-27231" lat="59.6635944406" lon="10.3572555492">
		<tag k="name" v="Kudalen" />
		<tag k="natural" v="valley" />
		<tag k="place" v="locality" />
		<tag k="ssr:stedsnr" v="149128" />
	</node>
	<node id="-27230" lat="59.6631000005" lon="10.0308833411">
		<tag k="name" v="Juvet" />
		<tag k="natural" v="valley" />
		<tag k="place" v="locality" />
		<tag k="ssr:stedsnr" v="148242" />
	</node>
	<node id="-27228" lat="59.7330888869" lon="10.0077222269">
		<tag k="name" v="Korpen" />
		<tag k="natural" v="hill" />
		<tag k="place" v="locality" />
		<tag k="ssr:stedsnr" v="143961" />
	</node>
	<node id="-27226" lat="59.7863861111" lon="9.9797249956">
		<tag k="fixme" v="consider natural=peak for the most distinct mountains in the district" />
		<tag k="name" v="Balatjernsåsen" />
		<tag k="natural" v="hill" />
		<tag k="place" v="locality" />
		<tag k="ssr:stedsnr" v="143955" />
	</node>
	<node id="-27214" lat="59.7272972261" lon="10.1313722152">
		<tag k="name" v="Gomperudhøgda" />
		<tag k="natural" v="hill" />
		<tag k="place" v="locality" />
		<tag k="ssr:stedsnr" v="143527" />
	</node>
	<node id="-27212" lat="59.7829388888" lon="10.0783527781">
		<tag k="name" v="Øvre Isberget" />
		<tag k="natural" v="slope" />
		<tag k="place" v="locality" />
		<tag k="ssr:stedsnr" v="143498" />
	</node>
	<node id="-27211" lat="59.780358331" lon="10.0522527732">
		<tag k="name" v="Aslakkane" />
		<tag k="natural" v="slope" />
		<tag k="place" v="locality" />
		<tag k="ssr:stedsnr" v="143496" />
	</node>
	<node id="-27205" lat="59.8228277776" lon="10.0558472256">
		<tag k="fixme" v="consider natural=peak for the most distinct mountains in the district" />
		<tag k="name" v="Rognkleivåsen" />
		<tag k="natural" v="hill" />
		<tag k="place" v="locality" />
		<tag k="ssr:stedsnr" v="125224" />
	</node>
	<node id="-27201" lat="59.7768999976" lon="10.0146222307">
		<tag k="fixme" v="multiple name tags, choose one and add the other to alt_name" />
		<tag k="name" v="Hestholfjellet;Stutdalsfjellet" />
		<tag k="natural" v="hill" />
		<tag k="place" v="locality" />
		<tag k="ssr:stedsnr" v="125160" />
	</node>
	<node id="-27200" lat="59.7561999988" lon="10.205675007">
		<tag k="name" v="Varden" />
		<tag k="natural" v="hill" />
		<tag k="place" v="locality" />
		<tag k="ssr:stedsnr" v="125087" />
	</node>
	<node id="-27198" lat="59.5576916655" lon="10.3942500008">
		<tag k="fixme" v="consider natural=peak for the most distinct mountains in the district" />
		<tag k="name" v="Kjelleråsen" />
		<tag k="natural" v="hill" />
		<tag k="place" v="locality" />
		<tag k="ssr:stedsnr" v="124637" />
	</node>
	<node id="-27189" lat="59.7130166678" lon="10.1697083295">
		<tag k="fixme" v="consider natural=peak for the most distinct mountains in the district" />
		<tag k="name" v="Hyllåsen" />
		<tag k="natural" v="hill" />
		<tag k="place" v="locality" />
		<tag k="ssr:stedsnr" v="124245" />
	</node>
	<node id="-27188" lat="59.7184250018" lon="10.2329249941">
		<tag k="alt_name" v="Kopervikdalen" />
		<tag k="name" v="Kobbervikdalen" />
		<tag k="natural" v="valley" />
		<tag k="place" v="locality" />
		<tag k="ssr:stedsnr" v="124224" />
	</node>
	<node id="-27186" lat="59.6657499967" lon="10.0349972189">
		<tag k="fixme" v="consider natural=peak for the most distinct mountains in the district" />
		<tag k="name" v="Finntomtåsen" />
		<tag k="natural" v="hill" />
		<tag k="place" v="locality" />
		<tag k="ssr:stedsnr" v="124186" />
	</node>
	<node id="-27167" lat="59.6615277741" lon="10.09390834">
		<tag k="fixme" v="consider natural=peak for the most distinct mountains in the district" />
		<tag k="name" v="Vesle Bergevannsbrenna" />
		<tag k="natural" v="hill" />
		<tag k="place" v="locality" />
		<tag k="ssr:stedsnr" v="103698" />
	</node>
	<node id="-27166" lat="59.6716916693" lon="10.0973638835">
		<tag k="name" v="Bjønnkløfta" />
		<tag k="natural" v="gorge" />
		<tag k="ssr:stedsnr" v="103686" />
	</node>
	<node id="-27136" lat="59.6740944428" lon="10.0090222281">
		<tag k="name" v="Kittilsdalen" />
		<tag k="natural" v="valley" />
		<tag k="place" v="locality" />
		<tag k="ssr:stedsnr" v="88199" />
	</node>
	<node id="-27132" lat="59.7488583322" lon="10.0546194485">
		<tag k="name" v="Øverkollen" />
		<tag k="natural" v="ridge" />
		<tag k="place" v="locality" />
		<tag k="ssr:stedsnr" v="83921" />
	</node>
	<node id="-27131" lat="59.7743194438" lon="10.1127138926">
		<tag k="name" v="Hestliåsen" />
		<tag k="natural" v="slope" />
		<tag k="place" v="locality" />
		<tag k="ssr:stedsnr" v="83744" />
	</node>
	<node id="-27127" lat="59.78665278" lon="10.0567083419">
		<tag k="fixme" v="consider natural=peak for the most distinct mountains in the district" />
		<tag k="name" v="Hoggsfjell" />
		<tag k="natural" v="hill" />
		<tag k="place" v="locality" />
		<tag k="ssr:stedsnr" v="83484" />
	</node>
	<node id="-27122" lat="59.7792305601" lon="10.0422833282">
		<tag k="fixme" v="consider natural=peak for the most distinct mountains in the district" />
		<tag k="name" v="Solbergvarden" />
		<tag k="natural" v="hill" />
		<tag k="place" v="locality" />
		<tag k="ssr:stedsnr" v="65149" />
	</node>
	<node id="-27121" lat="59.6276638855" lon="10.3814194361">
		<tag k="fixme" v="consider natural=peak for the most distinct mountains in the district" />
		<tag k="name" v="Ebbestadkollen" />
		<tag k="natural" v="hill" />
		<tag k="place" v="locality" />
		<tag k="ssr:stedsnr" v="64683" />
	</node>
	<node id="-27119" lat="59.7220750022" lon="10.0264416674">
		<tag k="fixme" v="consider natural=peak for the most distinct mountains in the district" />
		<tag k="name" v="Malmmyråsen" />
		<tag k="natural" v="hill" />
		<tag k="place" v="locality" />
		<tag k="ssr:stedsnr" v="64272" />
	</node>
	<node id="-27114" lat="59.6859138908" lon="10.0219499975">
		<tag k="fixme" v="consider natural=peak for the most distinct mountains in the district" />
		<tag k="name" v="Bråtaåsen" />
		<tag k="natural" v="hill" />
		<tag k="place" v="locality" />
		<tag k="ssr:stedsnr" v="64234" />
	</node>
	<node id="-27108" lat="59.6610972239" lon="10.0476222196">
		<tag k="fixme" v="consider natural=peak for the most distinct mountains in the district" />
		<tag k="name" v="Trytetjernåsen" />
		<tag k="natural" v="hill" />
		<tag k="place" v="locality" />
		<tag k="ssr:stedsnr" v="64137" />
	</node>
	<node id="-27103" lat="59.6968944404" lon="10.0892694511">
		<tag k="fixme" v="consider natural=peak for the most distinct mountains in the district" />
		<tag k="name" v="Hestmyrbrenna" />
		<tag k="natural" v="hill" />
		<tag k="place" v="locality" />
		<tag k="ssr:stedsnr" v="63207" />
	</node>
	<node id="-27102" lat="59.7607194428" lon="10.1847888862">
		<tag k="name" v="Kudalen" />
		<tag k="natural" v="valley" />
		<tag k="place" v="locality" />
		<tag k="ssr:stedsnr" v="59732" />
	</node>
	<node id="-27101" lat="59.7574611148" lon="10.1915611162">
		<tag k="name" v="Raubakkene" />
		<tag k="natural" v="slope" />
		<tag k="place" v="locality" />
		<tag k="ssr:stedsnr" v="59731" />
	</node>
	<node id="-27078" lat="59.6885666632" lon="10.1174555541">
		<tag k="name" v="Åsstubånnane" />
		<tag k="natural" v="ridge" />
		<tag k="place" v="locality" />
		<tag k="ssr:stedsnr" v="40700" />
	</node>
	<node id="-27067" lat="59.7122888928" lon="10.1169138978">
		<tag k="name" v="Kolleruddalen" />
		<tag k="natural" v="valley" />
		<tag k="place" v="locality" />
		<tag k="ssr:stedsnr" v="39296" />
	</node>
	<node id="-27063" lat="59.6854722232" lon="10.2976361191">
		<tag k="name" v="Bjønnehølet" />
		<tag k="natural" v="valley" />
		<tag k="place" v="locality" />
		<tag k="ssr:stedsnr" v="39198" />
	</node>
	<node id="-27057" lat="59.6289499961" lon="10.3712750004">
		<tag k="name" v="Vadsåsen" />
		<tag k="natural" v="slope" />
		<tag k="place" v="locality" />
		<tag k="ssr:stedsnr" v="28210" />
	</node>
	<node id="-27054" lat="59.6650999959" lon="10.3779555529">
		<tag k="name" v="Haugen" />
		<tag k="natural" v="hill" />
		<tag k="place" v="locality" />
		<tag k="ssr:stedsnr" v="28363" />
	</node>
	<node id="-27046" lat="59.7676138862" lon="10.1399305632">
		<tag k="fixme" v="consider natural=peak for the most distinct mountains in the district" />
		<tag k="name" v="Kaståsen" />
		<tag k="natural" v="hill" />
		<tag k="place" v="locality" />
		<tag k="ssr:stedsnr" v="22734" />
	</node>
	<node id="-27040" lat="59.7806805565" lon="9.99176111515">
		<tag k="name" v="Krokstadkollen" />
		<tag k="natural" v="hill" />
		<tag k="place" v="locality" />
		<tag k="ssr:stedsnr" v="4158" />
	</node>
	<node id="-27039" lat="59.7770000043" lon="10.1322805507">
		<tag k="name" v="Klemmehøgda" />
		<tag k="natural" v="hill" />
		<tag k="place" v="locality" />
		<tag k="ssr:stedsnr" v="4153" />
	</node>
	<node id="-27037" lat="59.7863999973" lon="10.1552250064">
		<tag k="name" v="Pintleiken" />
		<tag k="natural" v="hill" />
		<tag k="place" v="locality" />
		<tag k="ssr:stedsnr" v="4130" />
	</node>
	<node id="-27014" lat="59.6717527744" lon="10.0934888833">
		<tag k="name" v="Grodalen" />
		<tag k="natural" v="valley" />
		<tag k="place" v="locality" />
		<tag k="ssr:stedsnr" v="3200" />
	</node>
	<node id="-27013" lat="59.8091999993" lon="10.1048749928">
		<tag k="name" v="Måneskinsheia" />
		<tag k="natural" v="hill" />
		<tag k="place" v="locality" />
		<tag k="ssr:stedsnr" v="3191" />
	</node>
	<node id="-27008" lat="59.6625749999" lon="10.3326361193">
		<tag k="name" v="Nordbykollen" />
		<tag k="natural" v="hill" />
		<tag k="place" v="locality" />
		<tag k="ssr:stedsnr" v="3119" />
	</node>
	<node id="-27006" lat="59.7556749994" lon="10.2046500071">
		<tag k="fixme" v="consider natural=peak for the most distinct mountains in the district" />
		<tag k="name" v="Bragernesåsen" />
		<tag k="natural" v="hill" />
		<tag k="place" v="locality" />
		<tag k="ssr:stedsnr" v="3078" />
	</node>
	<node id="-26936" lat="59.5928194471" lon="10.3673138951">
		<tag k="name" v="Sagdalen" />
		<tag k="natural" v="valley" />
		<tag k="place" v="locality" />
		<tag k="ssr:stedsnr" v="938238" />
	</node>
	<node id="-26935" lat="59.6720805556" lon="10.0233861036">
		<tag k="fixme" v="consider natural=peak for the most distinct mountains in the district" />
		<tag k="name" v="Saltåsen" />
		<tag k="natural" v="hill" />
		<tag k="place" v="locality" />
		<tag k="ssr:stedsnr" v="938222" />
	</node>
	<node id="-26924" lat="59.784622226" lon="10.082658333">
		<tag k="name" v="Gravningsjota" />
		<tag k="natural" v="slope" />
		<tag k="place" v="locality" />
		<tag k="ssr:stedsnr" v="933540" />
	</node>
	<node id="-26923" lat="59.7731888901" lon="10.0593527704">
		<tag k="fixme" v="consider natural=peak for the most distinct mountains in the district" />
		<tag k="name" v="Knabben" />
		<tag k="natural" v="hill" />
		<tag k="place" v="locality" />
		<tag k="ssr:stedsnr" v="933537" />
	</node>
	<node id="-26904" lat="59.7743638883" lon="9.98705556261">
		<tag k="name" v="Steinsbrøtt" />
		<tag k="natural" v="slope" />
		<tag k="place" v="locality" />
		<tag k="ssr:stedsnr" v="872929" />
	</node>
	<node id="-26901" lat="59.7795916667" lon="10.119983342">
		<tag k="fixme" v="consider natural=peak for the most distinct mountains in the district" />
		<tag k="name" v="Gamledamåsen" />
		<tag k="natural" v="hill" />
		<tag k="place" v="locality" />
		<tag k="ssr:stedsnr" v="872766" />
	</node>
	<node id="-26897" lat="59.7769916641" lon="10.0383638836">
		<tag k="name" v="Vadalen" />
		<tag k="natural" v="valley" />
		<tag k="place" v="locality" />
		<tag k="ssr:stedsnr" v="872529" />
	</node>
	<node id="-26894" lat="59.7686249968" lon="10.1163499918">
		<tag k="alt_name" v="Kjøsterudjuvet" />
		<tag k="name" v="Kjøsterudgjuvet" />
		<tag k="natural" v="gorge" />
		<tag k="ssr:stedsnr" v="854168" />
	</node>
	<node id="-26888" lat="59.725188885" lon="10.1763944427">
		<tag k="alt_name" v="Haukåsen" />
		<tag k="fixme" v="consider natural=peak for the most distinct mountains in the district" />
		<tag k="name" v="Haukås" />
		<tag k="natural" v="hill" />
		<tag k="place" v="locality" />
		<tag k="ssr:stedsnr" v="853267" />
	</node>
	<node id="-26887" lat="59.7223527787" lon="10.1843555608">
		<tag k="alt_name" v="Kølabotn" />
		<tag k="name" v="Kølabånn" />
		<tag k="natural" v="valley" />
		<tag k="place" v="locality" />
		<tag k="ssr:stedsnr" v="853266" />
	</node>
	<node id="-26881" lat="59.8009194488" lon="10.1493666666">
		<tag k="name" v="Skimtheia" />
		<tag k="natural" v="hill" />
		<tag k="place" v="locality" />
		<tag k="ssr:stedsnr" v="853211" />
	</node>
	<node id="-26878" lat="59.662638893" lon="10.0352750013">
		<tag k="alt_name" v="Store Gravdalen" />
		<tag k="name" v="Store Gravdal" />
		<tag k="natural" v="valley" />
		<tag k="place" v="locality" />
		<tag k="ssr:stedsnr" v="853112" />
	</node>
	<node id="-26860" lat="59.6666916628" lon="10.3442999979">
		<tag k="fixme" v="consider natural=peak for the most distinct mountains in the district" />
		<tag k="name" v="Vassåsen" />
		<tag k="natural" v="hill" />
		<tag k="place" v="locality" />
		<tag k="ssr:stedsnr" v="938133" />
	</node>
	<node id="-26857" lat="59.6628111068" lon="10.3427638871">
		<tag k="name" v="Bjørnebakken" />
		<tag k="natural" v="slope" />
		<tag k="place" v="locality" />
		<tag k="ssr:stedsnr" v="938118" />
	</node>
	<node id="-26856" lat="59.6537388918" lon="10.3349222307">
		<tag k="name" v="Merrapanna" />
		<tag k="natural" v="slope" />
		<tag k="place" v="locality" />
		<tag k="ssr:stedsnr" v="938114" />
	</node>
	<node id="-26852" lat="59.6851527802" lon="10.2146944385">
		<tag k="name" v="Steinsdalen" />
		<tag k="natural" v="valley" />
		<tag k="place" v="locality" />
		<tag k="ssr:stedsnr" v="829306" />
	</node>
	<node id="-26841" lat="59.7288527781" lon="10.0730777771">
		<tag k="name" v="Glettaberget" />
		<tag k="natural" v="hill" />
		<tag k="place" v="locality" />
		<tag k="ssr:stedsnr" v="933602" />
	</node>
	<node id="-26840" lat="59.7261055514" lon="10.0771805532">
		<tag k="fixme" v="consider natural=peak for the most distinct mountains in the district" />
		<tag k="name" v="Helgerudåsen" />
		<tag k="natural" v="hill" />
		<tag k="place" v="locality" />
		<tag k="ssr:stedsnr" v="933601" />
	</node>
	<node id="-26832" lat="59.6501833299" lon="10.3471749965">
		<tag k="name" v="Knektedammslia" />
		<tag k="natural" v="slope" />
		<tag k="place" v="locality" />
		<tag k="ssr:stedsnr" v="817375" />
	</node>
	<node id="-26830" lat="59.6117749988" lon="10.4030027762">
		<tag k="name" v="Skredderdalen" />
		<tag k="natural" v="valley" />
		<tag k="place" v="locality" />
		<tag k="ssr:stedsnr" v="817364" />
	</node>
	<node id="-26826" lat="59.7892722184" lon="10.0309777732">
		<tag k="fixme" v="consider natural=peak for the most distinct mountains in the district" />
		<tag k="name" v="Kollevollåsene" />
		<tag k="natural" v="hill" />
		<tag k="place" v="locality" />
		<tag k="ssr:stedsnr" v="815724" />
	</node>
	<node id="-26824" lat="59.7821250008" lon="10.0286472268">
		<tag k="name" v="Sleppinga" />
		<tag k="natural" v="slope" />
		<tag k="place" v="locality" />
		<tag k="ssr:stedsnr" v="811911" />
	</node>
	<node id="-26817" lat="59.79718333" lon="10.0202194406">
		<tag k="fixme" v="consider natural=peak for the most distinct mountains in the district" />
		<tag k="name" v="Seteråsen" />
		<tag k="natural" v="hill" />
		<tag k="place" v="locality" />
		<tag k="ssr:stedsnr" v="915499" />
	</node>
	<node id="-26810" lat="59.6883611083" lon="10.0979805629">
		<tag k="fixme" v="consider natural=peak for the most distinct mountains in the district" />
		<tag k="name" v="Andorsrudbrenna" />
		<tag k="natural" v="hill" />
		<tag k="place" v="locality" />
		<tag k="ssr:stedsnr" v="768716" />
	</node>
	<node id="-26799" lat="59.7657086885" lon="10.1775242348">
		<tag k="fixme" v="multiple name tags, choose one and add the other to alt_name; consider natural=peak for the most distinct mountains in the district" />
		<tag k="name" v="Buståsen;Kristianåsen" />
		<tag k="natural" v="hill" />
		<tag k="place" v="locality" />
		<tag k="ssr:stedsnr" v="914186" />
	</node>
	<node id="-26793" lat="59.7099027813" lon="10.2138972268">
		<tag k="name" v="Skolterudsletta" />
		<tag k="place" v="locality" />
		<tag k="ssr:stedsnr" v="913290" />
	</node>
	<node id="-26783" lat="59.6446222267" lon="10.0736666622">
		<tag k="fixme" v="consider natural=peak for the most distinct mountains in the district" />
		<tag k="name" v="Vidvangsåsen" />
		<tag k="natural" v="hill" />
		<tag k="place" v="locality" />
		<tag k="ssr:stedsnr" v="913178" />
	</node>
	<node id="-26781" lat="59.7247694467" lon="10.2306583419">
		<tag k="name" v="Dyranbakken" />
		<tag k="natural" v="slope" />
		<tag k="place" v="locality" />
		<tag k="ssr:stedsnr" v="908875" />
	</node>
	<node id="-26766" lat="59.7373361138" lon="10.0696750053">
		<tag k="fixme" v="consider natural=peak for the most distinct mountains in the district" />
		<tag k="name" v="Daleråsen" />
		<tag k="natural" v="hill" />
		<tag k="place" v="locality" />
		<tag k="ssr:stedsnr" v="731324" />
	</node>
	<node id="-26761" lat="59.7557944475" lon="10.2127194404">
		<tag k="fixme" v="consider natural=peak for the most distinct mountains in the district" />
		<tag k="name" v="Mellomåsen" />
		<tag k="natural" v="hill" />
		<tag k="place" v="locality" />
		<tag k="ssr:stedsnr" v="726815" />
	</node>
	<node id="-26757" lat="59.6655666641" lon="10.0680333365">
		<tag k="name" v="Stormyrdalen" />
		<tag k="natural" v="valley" />
		<tag k="place" v="locality" />
		<tag k="ssr:stedsnr" v="892798" />
	</node>
	<node id="-26756" lat="59.6682333373" lon="10.0756999994">
		<tag k="name" v="Gampedalen" />
		<tag k="natural" v="valley" />
		<tag k="place" v="locality" />
		<tag k="ssr:stedsnr" v="892797" />
	</node>
	<node id="-26753" lat="59.671413888" lon="10.1088416718">
		<tag k="name" v="Grindhøgda" />
		<tag k="natural" v="hill" />
		<tag k="place" v="locality" />
		<tag k="ssr:stedsnr" v="892690" />
	</node>
	<node id="-26752" lat="59.6719527794" lon="10.1363444356">
		<tag k="fixme" v="consider natural=peak for the most distinct mountains in the district" />
		<tag k="name" v="Gampemyråsen" />
		<tag k="natural" v="hill" />
		<tag k="place" v="locality" />
		<tag k="ssr:stedsnr" v="892687" />
	</node>
	<node id="-26750" lat="59.7193805577" lon="10.2563111024">
		<tag k="name" v="Kusletta" />
		<tag k="place" v="locality" />
		<tag k="ssr:stedsnr" v="891083" />
	</node>
	<node id="-26748" lat="59.7233611143" lon="10.2484944365">
		<tag k="name" v="Veslesletta" />
		<tag k="place" v="locality" />
		<tag k="ssr:stedsnr" v="891066" />
	</node>
	<node id="-26745" lat="59.7134722193" lon="10.2619916741">
		<tag k="name" v="Hestesletta" />
		<tag k="place" v="locality" />
		<tag k="ssr:stedsnr" v="891048" />
	</node>
	<node id="-26741" lat="59.854888892" lon="10.0704361156">
		<tag k="fixme" v="consider natural=peak for the most distinct mountains in the district" />
		<tag k="name" v="Glitreåsen" />
		<tag k="natural" v="hill" />
		<tag k="place" v="locality" />
		<tag k="ssr:stedsnr" v="890714" />
	</node>
	<node id="-26740" lat="59.6915138883" lon="10.0971055533">
		<tag k="name" v="Andorsrudlia" />
		<tag k="natural" v="slope" />
		<tag k="place" v="locality" />
		<tag k="ssr:stedsnr" v="890707" />
	</node>
	<node id="-26736" lat="59.6978388912" lon="10.1532472239">
		<tag k="name" v="Brennerisletta" />
		<tag k="place" v="locality" />
		<tag k="ssr:stedsnr" v="890604" />
	</node>
	<node id="-26732" lat="59.5819999986" lon="10.3749638931">
		<tag k="fixme" v="consider natural=peak for the most distinct mountains in the district" />
		<tag k="name" v="Svarvarstolen" />
		<tag k="natural" v="hill" />
		<tag k="place" v="locality" />
		<tag k="ssr:stedsnr" v="695255" />
	</node>
	<node id="-26728" lat="59.6775166705" lon="10.3659611074">
		<tag k="name" v="Almeløkka" />
		<tag k="place" v="locality" />
		<tag k="ssr:stedsnr" v="695158" />
	</node>
	<node id="-26724" lat="59.8006055576" lon="10.0002277779">
		<tag k="fixme" v="consider natural=peak for the most distinct mountains in the district" />
		<tag k="name" v="Horgenseteråsen" />
		<tag k="natural" v="hill" />
		<tag k="place" v="locality" />
		<tag k="ssr:stedsnr" v="694709" />
	</node>
	<node id="-26714" lat="59.6862444415" lon="10.3046999999">
		<tag k="fixme" v="consider natural=peak for the most distinct mountains in the district" />
		<tag k="name" v="Lindebuktkollen" />
		<tag k="natural" v="hill" />
		<tag k="place" v="locality" />
		<tag k="ssr:stedsnr" v="889258" />
	</node>
	<node id="-26701" lat="59.5561083364" lon="10.3917444517">
		<tag k="name" v="Sandbakken" />
		<tag k="natural" v="slope" />
		<tag k="place" v="locality" />
		<tag k="ssr:stedsnr" v="878402" />
	</node>
	<node id="-26696" lat="59.7065166707" lon="10.1942805511">
		<tag k="name" v="Mørkedalen" />
		<tag k="natural" v="valley" />
		<tag k="place" v="locality" />
		<tag k="ssr:stedsnr" v="664313" />
	</node>
	<node id="-26695" lat="59.7057388899" lon="10.175005556">
		<tag k="name" v="Møkkahaugen" />
		<tag k="natural" v="hill" />
		<tag k="place" v="locality" />
		<tag k="ssr:stedsnr" v="664310" />
	</node>
	<node id="-26694" lat="59.6768500021" lon="10.3133305563">
		<tag k="fixme" v="consider natural=peak for the most distinct mountains in the district" />
		<tag k="name" v="Hansåsen" />
		<tag k="natural" v="hill" />
		<tag k="place" v="locality" />
		<tag k="ssr:stedsnr" v="878180" />
	</node>
	<node id="-26692" lat="59.6223194409" lon="10.3720527752">
		<tag k="name" v="Kalmokleivene" />
		<tag k="natural" v="slope" />
		<tag k="place" v="locality" />
		<tag k="ssr:stedsnr" v="877196" />
	</node>
	<node id="-26689" lat="59.5455805565" lon="10.3722333274">
		<tag k="fixme" v="consider natural=peak for the most distinct mountains in the district" />
		<tag k="name" v="Torbjørnhaugen" />
		<tag k="natural" v="hill" />
		<tag k="place" v="locality" />
		<tag k="ssr:stedsnr" v="877027" />
	</node>
	<node id="-26688" lat="59.794211109" lon="10.0330305492">
		<tag k="name" v="Vadalen" />
		<tag k="natural" v="valley" />
		<tag k="place" v="locality" />
		<tag k="ssr:stedsnr" v="876754" />
	</node>
	<node id="-26683" lat="59.6768222203" lon="10.1182888863">
		<tag k="name" v="Hesteveltene" />
		<tag k="place" v="locality" />
		<tag k="ssr:stedsnr" v="648704" />
	</node>
	<node id="-26682" lat="59.7191472196" lon="10.2327277732">
		<tag k="name" v="Olamannshaug" />
		<tag k="natural" v="hill" />
		<tag k="place" v="locality" />
		<tag k="ssr:stedsnr" v="648071" />
	</node>
	<node id="-26675" lat="59.6536555519" lon="10.3439055551">
		<tag k="alt_name" v="Kjæregravåsen" />
		<tag k="fixme" v="consider natural=peak for the most distinct mountains in the district" />
		<tag k="name" v="Tjæregravåsen" />
		<tag k="natural" v="hill" />
		<tag k="place" v="locality" />
		<tag k="ssr:stedsnr" v="732822" />
	</node>
	<node id="-26674" lat="59.6643500044" lon="10.354349992">
		<tag k="fixme" v="consider natural=peak for the most distinct mountains in the district" />
		<tag k="name" v="Seteråsen" />
		<tag k="natural" v="hill" />
		<tag k="place" v="locality" />
		<tag k="ssr:stedsnr" v="732814" />
	</node>
	<node id="-26671" lat="59.8306444483" lon="10.0110611059">
		<tag k="fixme" v="consider natural=peak for the most distinct mountains in the district" />
		<tag k="name" v="Kattåsen" />
		<tag k="natural" v="hill" />
		<tag k="place" v="locality" />
		<tag k="ssr:stedsnr" v="732210" />
	</node>
	<node id="-26663" lat="59.6241611119" lon="10.3459166601">
		<tag k="fixme" v="consider natural=peak for the most distinct mountains in the district" />
		<tag k="name" v="Stegaåsen" />
		<tag k="natural" v="hill" />
		<tag k="place" v="locality" />
		<tag k="ssr:stedsnr" v="731635" />
	</node>
	<node id="-26661" lat="59.7073749986" lon="10.0494888857">
		<tag k="fixme" v="consider natural=peak for the most distinct mountains in the district" />
		<tag k="name" v="Steinbakkåsen" />
		<tag k="natural" v="hill" />
		<tag k="place" v="locality" />
		<tag k="ssr:stedsnr" v="731258" />
	</node>
	<node id="-26655" lat="59.7319694467" lon="10.1638861057">
		<tag k="alt_name" v="Gamlebakken" />
		<tag k="name" v="Gamlebakkane" />
		<tag k="natural" v="slope" />
		<tag k="place" v="locality" />
		<tag k="ssr:stedsnr" v="731211" />
	</node>
	<node id="-26640" lat="59.667649996" lon="10.0039222208">
		<tag k="fixme" v="consider natural=peak for the most distinct mountains in the district" />
		<tag k="name" v="Steinbruåsen" />
		<tag k="natural" v="hill" />
		<tag k="place" v="locality" />
		<tag k="ssr:stedsnr" v="634257" />
	</node>
	<node id="-26634" lat="59.7258694463" lon="10.0273555579">
		<tag k="name" v="Brattbakk" />
		<tag k="natural" v="slope" />
		<tag k="place" v="locality" />
		<tag k="ssr:stedsnr" v="630955" />
	</node>
</osm>
