<?xml version="1.0" encoding="UTF-8"?>
<osm version="0.6" generator="osmapis">
	<node lat="59.976866937689394" lon="5.428761998223439" id="-29269">
		<tag k="fixme" v="consider place=hamlet" />
		<tag k="name" v="Li" />
		<tag k="place" v="farm" />
		<tag k="ssr:stedsnr" v="4172" />
	</node>
	<node lat="59.991988464471454" lon="5.596284905786642" id="-29270">
		<tag k="fixme" v="consider place=hamlet" />
		<tag k="name" v="Brekke" />
		<tag k="place" v="farm" />
		<tag k="ssr:stedsnr" v="4663" />
	</node>
	<node lat="60.01632736470132" lon="5.352775961948257" id="-29271">
		<tag k="name" v="Flygansvær" />
		<tag k="place" v="hamlet" />
		<tag k="ssr:stedsnr" v="5222" />
	</node>
	<node lat="60.016758738197694" lon="5.536142097382696" id="-29275">
		<tag k="alt_name" v="Håeim" />
		<tag k="fixme" v="consider place=hamlet" />
		<tag k="name" v="Håheim" />
		<tag k="place" v="farm" />
		<tag k="ssr:stedsnr" v="5604" />
	</node>
	<node lat="60.01690296711954" lon="5.550847912896018" id="-29276">
		<tag k="fixme" v="consider place=hamlet" />
		<tag k="name" v="Dalen" />
		<tag k="place" v="farm" />
		<tag k="ssr:stedsnr" v="5607" />
	</node>
	<node lat="60.0073361109868" lon="5.475355554657953" id="-29283">
		<tag k="name" v="Hårstøa" />
		<tag k="place" v="farm" />
		<tag k="ssr:stedsnr" v="236365" />
	</node>
	<node lat="59.98723333158758" lon="5.431555558375445" id="-29300">
		<tag k="name" v="Askvollen" />
		<tag k="place" v="farm" />
		<tag k="ssr:stedsnr" v="37910" />
	</node>
	<node lat="60.07586388998896" lon="5.395547228205421" id="-29301">
		<tag k="name" v="Olderhaugen" />
		<tag k="place" v="farm" />
		<tag k="ssr:stedsnr" v="37919" />
	</node>
	<node lat="59.97082222267895" lon="5.633063895125914" id="-29302">
		<tag k="name" v="Tveita" />
		<tag k="place" v="farm" />
		<tag k="ssr:stedsnr" v="37968" />
	</node>
	<node lat="59.922297218445784" lon="5.601500005531927" id="-29303">
		<tag k="name" v="Plasset" />
		<tag k="place" v="farm" />
		<tag k="ssr:stedsnr" v="37972" />
	</node>
	<node lat="59.95479444154476" lon="5.600833331081039" id="-29304">
		<tag k="historic" v="shieling" />
		<tag k="name" v="Storasæternova" />
		<tag k="place" v="isolated_dwelling" />
		<tag k="ssr:stedsnr" v="37977" />
	</node>
	<node lat="59.99433888984237" lon="5.6861250016688425" id="-29305">
		<tag k="alt_name" v="Myklebost" />
		<tag k="name" v="Myklebust" />
		<tag k="place" v="farm" />
		<tag k="ssr:stedsnr" v="37980" />
	</node>
	<node lat="59.967012861380184" lon="5.43684881024131" id="-29315">
		<tag k="alt_name" v="Hellesvik" />
		<tag k="fixme" v="consider place=hamlet" />
		<tag k="name" v="Hillesvik" />
		<tag k="place" v="farm" />
		<tag k="ssr:stedsnr" v="64167" />
	</node>
	<node lat="60.018123265929844" lon="5.482807016118704" id="-29324">
		<tag k="name" v="Heie" />
		<tag k="place" v="hamlet" />
		<tag k="ssr:stedsnr" v="65613" />
	</node>
	<node lat="60.020562744183614" lon="5.474179600551401" id="-29327">
		<tag k="fixme" v="consider place=hamlet" />
		<tag k="name" v="Økland" />
		<tag k="place" v="farm" />
		<tag k="ssr:stedsnr" v="65630" />
	</node>
	<node lat="60.01458332916871" lon="5.690202771267222" id="-29328">
		<tag k="alt_name" v="Høgastøl" />
		<tag k="name" v="Høgestøl" />
		<tag k="place" v="farm" />
		<tag k="ssr:stedsnr" v="65635" />
	</node>
	<node lat="59.994712220309175" lon="5.685773009279335" id="-29330">
		<tag k="fixme" v="consider place=hamlet" />
		<tag k="name" v="Li" />
		<tag k="place" v="farm" />
		<tag k="ssr:stedsnr" v="65638" />
	</node>
	<node lat="59.98975126420011" lon="5.597117557184239" id="-29332">
		<tag k="fixme" v="consider place=hamlet" />
		<tag k="name" v="Kletta" />
		<tag k="place" v="farm" />
		<tag k="ssr:stedsnr" v="65643" />
	</node>
	<node lat="60.011628155905356" lon="5.505193264701578" id="-29335">
		<tag k="fixme" v="consider place=hamlet" />
		<tag k="name" v="Reisa" />
		<tag k="place" v="farm" />
		<tag k="ssr:stedsnr" v="65650" />
	</node>
	<node lat="60.0571805572618" lon="5.361958341319643" id="-29336">
		<tag k="name" v="Gjøvåg" />
		<tag k="place" v="hamlet" />
		<tag k="ssr:stedsnr" v="85303" />
	</node>
	<node lat="59.97393055394028" lon="5.65175555976978" id="-29341">
		<tag k="name" v="Teigen" />
		<tag k="place" v="locality" />
		<tag k="ssr:stedsnr" v="246592" />
	</node>
	<node lat="59.953851557724064" lon="5.560998264281469" id="-29342">
		<tag k="fixme" v="consider place=hamlet" />
		<tag k="name" v="Koste" />
		<tag k="place" v="farm" />
		<tag k="ssr:stedsnr" v="246610" />
	</node>
	<node lat="59.912350922526535" lon="5.686513896462158" id="-29343">
		<tag k="fixme" v="consider place=hamlet" />
		<tag k="name" v="Seløya" />
		<tag k="place" v="farm" />
		<tag k="ssr:stedsnr" v="246669" />
	</node>
	<node lat="60.06205157563069" lon="5.411926624847365" id="-29345">
		<tag k="name" v="Hope" />
		<tag k="place" v="hamlet" />
		<tag k="ssr:stedsnr" v="247155" />
	</node>
	<node lat="60.045088461610554" lon="5.579569749743661" id="-29354">
		<tag k="fixme" v="consider place=hamlet" />
		<tag k="name" v="Valla" />
		<tag k="place" v="farm" />
		<tag k="ssr:stedsnr" v="247356" />
	</node>
	<node lat="60.02387067013538" lon="5.513820371824056" id="-29356">
		<tag k="fixme" v="consider place=hamlet" />
		<tag k="name" v="Hollekje" />
		<tag k="place" v="farm" />
		<tag k="ssr:stedsnr" v="247628" />
	</node>
	<node lat="59.94302422859492" lon="5.478788162042319" id="-29357">
		<tag k="alt_name" v="Neset" />
		<tag k="fixme" v="consider place=hamlet" />
		<tag k="name" v="Nese" />
		<tag k="place" v="farm" />
		<tag k="ssr:stedsnr" v="247630" />
	</node>
	<node lat="59.985002782258356" lon="5.673033335592254" id="-29359">
		<tag k="alt_name" v="Våge, øvre;Våge" />
		<tag k="name" v="Øvre Våge" />
		<tag k="place" v="farm" />
		<tag k="ssr:stedsnr" v="247638" />
	</node>
	<node lat="59.99123201314968" lon="5.602459944482326" id="-29360">
		<tag k="fixme" v="consider place=hamlet" />
		<tag k="name" v="Solheim" />
		<tag k="place" v="farm" />
		<tag k="ssr:stedsnr" v="247641" />
	</node>
	<node lat="59.998091666786465" lon="5.696805551385205" id="-29361">
		<tag k="name" v="Kvalvågen" />
		<tag k="place" v="farm" />
		<tag k="ssr:stedsnr" v="247648" />
	</node>
	<node lat="59.92603201219059" lon="5.600967794120343" id="-29366">
		<tag k="fixme" v="consider place=hamlet" />
		<tag k="name" v="Skata" />
		<tag k="place" v="farm" />
		<tag k="ssr:stedsnr" v="247731" />
	</node>
	<node lat="59.969313885969044" lon="5.497516662182056" id="-29397">
		<tag k="name" v="Kyrhagen" />
		<tag k="place" v="farm" />
		<tag k="ssr:stedsnr" v="98904" />
	</node>
	<node lat="60.02227499642319" lon="5.642138883402953" id="-29398">
		<tag k="name" v="Ådnastigen" />
		<tag k="place" v="farm" />
		<tag k="ssr:stedsnr" v="98967" />
	</node>
	<node lat="59.953891666598835" lon="5.633758326567867" id="-29399">
		<tag k="name" v="Solhaug" />
		<tag k="place" v="farm" />
		<tag k="ssr:stedsnr" v="98973" />
	</node>
	<node lat="59.98987222202003" lon="5.673272218603206" id="-29400">
		<tag k="name" v="Øvrevåge" />
		<tag k="place" v="farm" />
		<tag k="ssr:stedsnr" v="98982" />
	</node>
	<node lat="60.051067102303065" lon="5.5391007948598245" id="-29407">
		<tag k="fixme" v="consider place=hamlet" />
		<tag k="name" v="Tysnes" />
		<tag k="place" v="farm" />
		<tag k="ssr:stedsnr" v="248270" />
	</node>
	<node lat="59.906490293002626" lon="5.600223543117528" id="-29412">
		<tag k="fixme" v="consider place=hamlet" />
		<tag k="name" v="Hetleli" />
		<tag k="place" v="farm" />
		<tag k="ssr:stedsnr" v="124646" />
	</node>
	<node lat="59.892722676766745" lon="5.545647431165828" id="-29414">
		<tag k="fixme" v="consider place=hamlet" />
		<tag k="name" v="Hodnaneset" />
		<tag k="old_name" v="Hodnanes;Hornanes" />
		<tag k="place" v="farm" />
		<tag k="ssr:stedsnr" v="125300" />
	</node>
	<node lat="60.066247220560534" lon="5.431427775555857" id="-29421">
		<tag k="name" v="Liland" />
		<tag k="place" v="farm" />
		<tag k="ssr:stedsnr" v="126166" />
	</node>
	<node lat="60.01687420028852" lon="5.379582169397499" id="-29423">
		<tag k="alt_name" v="Smidjevoll" />
		<tag k="fixme" v="consider place=hamlet" />
		<tag k="name" v="Smievoll" />
		<tag k="place" v="farm" />
		<tag k="ssr:stedsnr" v="126208" />
	</node>
	<node lat="60.05731666840002" lon="5.701755551696105" id="-29424">
		<tag k="alt_name" v="Fagervik" />
		<tag k="name" v="Einingevik" />
		<tag k="place" v="farm" />
		<tag k="ssr:stedsnr" v="126357" />
	</node>
	<node lat="60.00774429745871" lon="5.513735759613163" id="-29429">
		<tag k="fixme" v="consider place=hamlet" />
		<tag k="name" v="Rolse" />
		<tag k="place" v="farm" />
		<tag k="ssr:stedsnr" v="126652" />
	</node>
	<node lat="59.969585476796134" lon="5.473298175967881" id="-29431">
		<tag k="name" v="Drange" />
		<tag k="place" v="hamlet" />
		<tag k="ssr:stedsnr" v="145715" />
	</node>
	<node lat="59.9262916689536" lon="5.602102779117733" id="-29443">
		<tag k="name" v="Skato" />
		<tag k="place" v="farm" />
		<tag k="ssr:stedsnr" v="158971" />
	</node>
	<node lat="60.06948408839604" lon="5.563844979138194" id="-29445">
		<tag k="name" v="Hamnen" />
		<tag k="place" v="farm" />
		<tag k="ssr:stedsnr" v="159263" />
	</node>
	<node lat="59.99735555985539" lon="5.494469448364032" id="-29458">
		<tag k="name" v="Uggdalseidet" />
		<tag k="place" v="hamlet" />
		<tag k="ssr:stedsnr" v="186631" />
	</node>
	<node lat="59.933959411228905" lon="5.523850089393258" id="-29464">
		<tag k="fixme" v="consider place=hamlet" />
		<tag k="name" v="Økland" />
		<tag k="old_name" v="Okland" />
		<tag k="place" v="farm" />
		<tag k="ssr:stedsnr" v="186750" />
	</node>
	<node lat="60.0051325639609" lon="5.501638411143098" id="-29465">
		<tag k="fixme" v="consider place=hamlet" />
		<tag k="name" v="To" />
		<tag k="place" v="farm" />
		<tag k="ssr:stedsnr" v="187632" />
	</node>
	<node lat="60.00401652189757" lon="5.69246222251742" id="-29466">
		<tag k="fixme" v="consider place=hamlet" />
		<tag k="name" v="Tveit" />
		<tag k="place" v="farm" />
		<tag k="ssr:stedsnr" v="187672" />
	</node>
	<node lat="60.025669448320905" lon="5.706802784014088" id="-29472">
		<tag k="name" v="Nordvik" />
		<tag k="place" v="farm" />
		<tag k="ssr:stedsnr" v="268348" />
	</node>
	<node lat="59.92474722532545" lon="5.522102785268979" id="-29478">
		<tag k="historic" v="shieling" />
		<tag k="name" v="Nordstølen" />
		<tag k="place" v="isolated_dwelling" />
		<tag k="ssr:stedsnr" v="268771" />
	</node>
	<node lat="59.91448610811249" lon="5.575136109835196" id="-29492">
		<tag k="building" v="commercial" />
		<tag k="name" v="Ytrasætra" />
		<tag k="ssr:stedsnr" v="219924" />
	</node>
	<node lat="60.01581389063114" lon="5.694630561146745" id="-29493">
		<tag k="name" v="Indra Hovland" />
		<tag k="place" v="farm" />
		<tag k="ssr:stedsnr" v="219984" />
	</node>
	<node lat="59.92201111527716" lon="5.714472223948839" id="-29494">
		<tag k="name" v="Ånuglo" />
		<tag k="place" v="farm" />
		<tag k="ssr:stedsnr" v="219997" />
	</node>
	<node lat="60.04968888569061" lon="5.51485554904598" id="-29503">
		<tag k="fixme" v="consider place=hamlet" />
		<tag k="name" v="Ytre Ve" />
		<tag k="place" v="farm" />
		<tag k="ssr:stedsnr" v="220290" />
	</node>
	<node lat="60.04333234433017" lon="5.42482323153998" id="-29527">
		<tag k="name" v="Bruntveit" />
		<tag k="place" v="hamlet" />
		<tag k="ssr:stedsnr" v="247131" />
	</node>
	<node lat="60.04600000095427" lon="5.701502770032583" id="-29529">
		<tag k="name" v="Kroken" />
		<tag k="place" v="farm" />
		<tag k="ssr:stedsnr" v="247291" />
	</node>
	<node lat="59.988917251135845" lon="5.466219223010347" id="-29530">
		<tag k="name" v="Beltestad" />
		<tag k="place" v="hamlet" />
		<tag k="ssr:stedsnr" v="247556" />
	</node>
	<node lat="60.07335274208058" lon="5.36182296643919" id="-29534">
		<tag k="fixme" v="consider place=hamlet" />
		<tag k="name" v="Kaldafoss" />
		<tag k="place" v="farm" />
		<tag k="ssr:stedsnr" v="247908" />
	</node>
	<node lat="60.05291217877378" lon="5.630906573426862" id="-29536">
		<tag k="fixme" v="consider place=hamlet" />
		<tag k="name" v="Grimsland" />
		<tag k="place" v="farm" />
		<tag k="ssr:stedsnr" v="248326" />
	</node>
	<node lat="60.05179721873864" lon="5.556036104612293" id="-29539">
		<tag k="name" v="Setravik" />
		<tag k="place" v="farm" />
		<tag k="ssr:stedsnr" v="268108" />
	</node>
	<node lat="59.915502775735305" lon="5.57804166895466" id="-29563">
		<tag k="historic" v="shieling" />
		<tag k="name" v="Indra Sætra" />
		<tag k="place" v="isolated_dwelling" />
		<tag k="ssr:stedsnr" v="280915" />
	</node>
	<node lat="60.01200555324312" lon="5.504869452242126" id="-29564">
		<tag k="name" v="Reiso" />
		<tag k="place" v="farm" />
		<tag k="ssr:stedsnr" v="280930" />
	</node>
	<node lat="60.01020277795572" lon="5.510563882514679" id="-29565">
		<tag k="name" v="Horshammaren" />
		<tag k="place" v="farm" />
		<tag k="ssr:stedsnr" v="280934" />
	</node>
	<node lat="59.89888333449719" lon="5.64148333800722" id="-29566">
		<tag k="name" v="Knappen" />
		<tag k="place" v="isolated_dwelling" />
		<tag k="ssr:stedsnr" v="280967" />
	</node>
	<node lat="60.00695833393823" lon="5.693258327004219" id="-29567">
		<tag k="name" v="Tveit" />
		<tag k="place" v="farm" />
		<tag k="ssr:stedsnr" v="280973" />
	</node>
	<node lat="60.06094110962638" lon="5.409863084802897" id="-29575">
		<tag k="alt_name" v="Nedre Hope" />
		<tag k="fixme" v="consider place=hamlet" />
		<tag k="name" v="Nedra Hope" />
		<tag k="place" v="farm" />
		<tag k="ssr:stedsnr" v="462189" />
	</node>
	<node lat="60.05236388557984" lon="5.511299991411123" id="-29621">
		<tag k="name" v="Myra" />
		<tag k="place" v="farm" />
		<tag k="ssr:stedsnr" v="462939" />
	</node>
	<node lat="59.978330551921445" lon="5.399755559093381" id="-29622">
		<tag k="name" v="Landråa" />
		<tag k="place" v="farm" />
		<tag k="ssr:stedsnr" v="462895" />
	</node>
	<node lat="60.058766664497654" lon="5.640888880412465" id="-29644">
		<tag k="name" v="Haugen" />
		<tag k="place" v="farm" />
		<tag k="ssr:stedsnr" v="308313" />
	</node>
	<node lat="60.02881666847287" lon="5.597474998362124" id="-29649">
		<tag k="historic" v="shieling" />
		<tag k="name" v="Prestesætra" />
		<tag k="place" v="isolated_dwelling" />
		<tag k="ssr:stedsnr" v="308618" />
	</node>
	<node lat="60.01965833640924" lon="5.4737000056857195" id="-29658">
		<tag k="name" v="Setehaugen" />
		<tag k="place" v="farm" />
		<tag k="ssr:stedsnr" v="340903" />
	</node>
	<node lat="59.9268638861693" lon="5.612855558099088" id="-29659">
		<tag k="name" v="Skogland" />
		<tag k="place" v="farm" />
		<tag k="ssr:stedsnr" v="340958" />
	</node>
	<node lat="60.07308055263331" lon="5.354377780354697" id="-29664">
		<tag k="name" v="Skaget" />
		<tag k="place" v="farm" />
		<tag k="ssr:stedsnr" v="340893" />
	</node>
	<node lat="60.02106944735996" lon="5.557225007175239" id="-29687">
		<tag k="name" v="Buldo" />
		<tag k="place" v="isolated_dwelling" />
		<tag k="ssr:stedsnr" v="368667" />
	</node>
	<node lat="60.05110715388085" lon="5.501841568916296" id="-29692">
		<tag k="alt_name" v="Tegland" />
		<tag k="fixme" v="consider place=hamlet" />
		<tag k="name" v="Teigland" />
		<tag k="place" v="farm" />
		<tag k="ssr:stedsnr" v="481296" />
	</node>
	<node lat="60.021116712454294" lon="5.4010282062013735" id="-29693">
		<tag k="fixme" v="consider place=hamlet" />
		<tag k="name" v="Åse" />
		<tag k="place" v="farm" />
		<tag k="ssr:stedsnr" v="388339" />
	</node>
	<node lat="60.0599694415698" lon="5.642388895733019" id="-29694">
		<tag k="loc_name" v="Lunde" />
		<tag k="name" v="Lundegrend" />
		<tag k="place" v="hamlet" />
		<tag k="ssr:stedsnr" v="388754" />
	</node>
	<node lat="60.0202361077042" lon="5.704394436641454" id="-29704">
		<tag k="name" v="Nymark" />
		<tag k="place" v="farm" />
		<tag k="ssr:stedsnr" v="401235" />
	</node>
	<node lat="60.00171944222768" lon="5.667541675277315" id="-29721">
		<tag k="historic" v="shieling" />
		<tag k="name" v="Svodstølen" />
		<tag k="place" v="isolated_dwelling" />
		<tag k="ssr:stedsnr" v="401984" />
	</node>
	<node lat="60.07532221919036" lon="5.675369451233009" id="-29722">
		<tag k="name" v="Nygård" />
		<tag k="place" v="farm" />
		<tag k="ssr:stedsnr" v="401993" />
	</node>
	<node lat="60.07423333158473" lon="5.664566663400297" id="-29723">
		<tag k="name" v="Småget" />
		<tag k="place" v="farm" />
		<tag k="ssr:stedsnr" v="401995" />
	</node>
	<node lat="59.93346666284765" lon="5.581438892948522" id="-29724">
		<tag k="historic" v="shieling" />
		<tag k="name" v="Gamlaselet" />
		<tag k="place" v="isolated_dwelling" />
		<tag k="ssr:stedsnr" v="401888" />
	</node>
	<node lat="60.03988055895507" lon="5.524866667910606" id="-29729">
		<tag k="name" v="Vågsmarka" />
		<tag k="place" v="quarter" />
		<tag k="ssr:stedsnr" v="403424" />
	</node>
	<node lat="59.97114465534006" lon="5.464603506710241" id="-29731">
		<tag k="name" v="Kleppa" />
		<tag k="place" v="hamlet" />
		<tag k="ssr:stedsnr" v="489200" />
	</node>
	<node lat="59.94565435916093" lon="5.5138303141095655" id="-29733">
		<tag k="fixme" v="consider place=hamlet" />
		<tag k="name" v="Flatråker" />
		<tag k="place" v="farm" />
		<tag k="ssr:stedsnr" v="421744" />
	</node>
	<node lat="59.95627777725006" lon="5.63045833983205" id="-29738">
		<tag k="name" v="Liland" />
		<tag k="place" v="farm" />
		<tag k="ssr:stedsnr" v="489689" />
	</node>
	<node lat="59.991921290506596" lon="5.678619975535569" id="-29740">
		<tag k="alt_name" v="Meland" />
		<tag k="fixme" v="consider place=hamlet" />
		<tag k="name" v="Mæland" />
		<tag k="place" v="farm" />
		<tag k="ssr:stedsnr" v="489692" />
	</node>
	<node lat="59.99178476796308" lon="5.683254612295005" id="-29741">
		<tag k="fixme" v="consider place=hamlet" />
		<tag k="name" v="Årbakka" />
		<tag k="place" v="farm" />
		<tag k="ssr:stedsnr" v="489701" />
	</node>
	<node lat="59.961319076454174" lon="5.483568800388166" id="-29755">
		<tag k="alt_name" v="Leitesvik" />
		<tag k="name" v="Leitesvika" />
		<tag k="place" v="farm" />
		<tag k="ssr:stedsnr" v="428603" />
	</node>
	<node lat="59.91950468929837" lon="5.646903299680125" id="-29771">
		<tag k="fixme" v="consider place=hamlet" />
		<tag k="name" v="Espevik" />
		<tag k="place" v="farm" />
		<tag k="ssr:stedsnr" v="429673" />
	</node>
	<node lat="60.0620831828583" lon="5.595944271100361" id="-29778">
		<tag k="fixme" v="consider place=hamlet" />
		<tag k="loc_name" v="Skipavika" />
		<tag k="name" v="Skiparvik" />
		<tag k="place" v="farm" />
		<tag k="ssr:stedsnr" v="430248" />
	</node>
	<node lat="60.05396666589707" lon="5.5418944519598545" id="-29794">
		<tag k="name" v="Kyrkjestølen" />
		<tag k="place" v="farm" />
		<tag k="ssr:stedsnr" v="672251" />
	</node>
	<node lat="60.041611758969445" lon="5.548189586008824" id="-29796">
		<tag k="alt_name" v="Gjersvik" />
		<tag k="name" v="Gjerdsvik" />
		<tag k="place" v="hamlet" />
		<tag k="ssr:stedsnr" v="672339" />
	</node>
	<node lat="60.018123103428714" lon="5.699738545453252" id="-29798">
		<tag k="fixme" v="consider place=hamlet" />
		<tag k="name" v="Nymark" />
		<tag k="place" v="farm" />
		<tag k="ssr:stedsnr" v="672660" />
	</node>
	<node lat="60.038851778310516" lon="5.5160073251145265" id="-29799">
		<tag k="name" v="Dalland" />
		<tag k="place" v="hamlet" />
		<tag k="ssr:stedsnr" v="672344" />
	</node>
	<node lat="59.949257722976846" lon="5.624777326328801" id="-29831">
		<tag k="fixme" v="consider place=hamlet" />
		<tag k="name" v="Onarheim" />
		<tag k="place" v="farm" />
		<tag k="ssr:stedsnr" v="462974" />
	</node>
	<node lat="59.976818217201505" lon="5.401262423366792" id="-29836">
		<tag k="alt_name" v="Landrøy" />
		<tag k="fixme" v="consider place=hamlet" />
		<tag k="name" v="Landrøyo" />
		<tag k="place" v="farm" />
		<tag k="ssr:stedsnr" v="489188" />
	</node>
	<node lat="59.9751916696148" lon="5.653863880175205" id="-29865">
		<tag k="name" v="Teigen" />
		<tag k="place" v="farm" />
		<tag k="ssr:stedsnr" v="522968" />
	</node>
	<node lat="60.062952780246825" lon="5.411188891041951" id="-29883">
		<tag k="fixme" v="consider place=hamlet" />
		<tag k="name" v="Øvra Hope" />
		<tag k="place" v="farm" />
		<tag k="ssr:stedsnr" v="523909" />
	</node>
	<node lat="59.977921752427264" lon="5.567377698344067" id="-29884">
		<tag k="fixme" v="consider place=hamlet" />
		<tag k="name" v="Vermedal" />
		<tag k="place" v="farm" />
		<tag k="ssr:stedsnr" v="523922" />
	</node>
	<node lat="59.96845555793815" lon="5.587733330141755" id="-29885">
		<tag k="historic" v="shieling" />
		<tag k="name" v="Saraselet" />
		<tag k="place" v="isolated_dwelling" />
		<tag k="ssr:stedsnr" v="523924" />
	</node>
	<node lat="60.029034982468296" lon="5.434689635531255" id="-29891">
		<tag k="name" v="Gjelland" />
		<tag k="place" v="hamlet" />
		<tag k="ssr:stedsnr" v="550244" />
	</node>
	<node lat="59.941819448505576" lon="5.622041672272547" id="-29906">
		<tag k="alt_name" v="Dørsvika" />
		<tag k="name" v="Dørsvik" />
		<tag k="place" v="farm" />
		<tag k="ssr:stedsnr" v="693154" />
	</node>
	<node lat="60.05130000364104" lon="5.500058337266339" id="-29915">
		<tag k="name" v="Ytre Teigland" />
		<tag k="place" v="farm" />
		<tag k="ssr:stedsnr" v="583213" />
	</node>
	<node lat="60.03681944374044" lon="5.6203111201585845" id="-29924">
		<tag k="name" v="Storåkerhølen" />
		<tag k="place" v="farm" />
		<tag k="ssr:stedsnr" v="583198" />
	</node>
	<node lat="60.07155277507859" lon="5.6702000090741365" id="-29925">
		<tag k="name" v="Dalen" />
		<tag k="place" v="farm" />
		<tag k="ssr:stedsnr" v="583199" />
	</node>
	<node lat="60.05377778063241" lon="5.613630548636755" id="-29944">
		<tag k="name" v="Lønshaugen" />
		<tag k="place" v="farm" />
		<tag k="ssr:stedsnr" v="583989" />
	</node>
	<node lat="59.98740555659641" lon="5.676622229811956" id="-29945">
		<tag k="name" v="Midtvåge" />
		<tag k="place" v="farm" />
		<tag k="ssr:stedsnr" v="583990" />
	</node>
	<node lat="59.97842427909332" lon="5.411461680786204" id="-29952">
		<tag k="fixme" v="consider place=hamlet" />
		<tag k="name" v="Håland" />
		<tag k="place" v="farm" />
		<tag k="ssr:stedsnr" v="610194" />
	</node>
	<node lat="59.97672106185148" lon="5.420147418105891" id="-29953">
		<tag k="name" v="Amland" />
		<tag k="place" v="hamlet" />
		<tag k="ssr:stedsnr" v="610196" />
	</node>
	<node lat="59.984087584017075" lon="5.671980472830873" id="-29955">
		<tag k="alt_name" v="Våge, nedre" />
		<tag k="name" v="Nedre Våge" />
		<tag k="place" v="farm" />
		<tag k="ssr:stedsnr" v="610710" />
	</node>
	<node lat="60.04840258125345" lon="5.627378775432879" id="-29961">
		<tag k="fixme" v="consider place=hamlet" />
		<tag k="name" v="Belt" />
		<tag k="place" v="farm" />
		<tag k="ssr:stedsnr" v="611384" />
	</node>
	<node lat="60.02223055347886" lon="5.644188884462426" id="-29962">
		<tag k="name" v="Ådnastegen" />
		<tag k="place" v="isolated_dwelling" />
		<tag k="ssr:stedsnr" v="611688" />
	</node>
	<node lat="60.045741664062255" lon="5.560411106333013" id="-29974">
		<tag k="name" v="Sæberg" />
		<tag k="place" v="farm" />
		<tag k="ssr:stedsnr" v="637078" />
	</node>
	<node lat="60.014583334366826" lon="5.350666668821023" id="-29978">
		<tag k="name" v="Øvra Flygansvær" />
		<tag k="place" v="farm" />
		<tag k="ssr:stedsnr" v="705244" />
	</node>
	<node lat="60.010736112187416" lon="5.694336114882491" id="-29982">
		<tag k="name" v="Sande" />
		<tag k="place" v="farm" />
		<tag k="ssr:stedsnr" v="705275" />
	</node>
	<node lat="60.05209444284951" lon="5.625299999048168" id="-29983">
		<tag k="name" v="Nedra Humlevika" />
		<tag k="place" v="farm" />
		<tag k="ssr:stedsnr" v="705277" />
	</node>
	<node lat="59.96860277385482" lon="5.631880560611112" id="-30002">
		<tag k="name" v="Korsadal" />
		<tag k="place" v="farm" />
		<tag k="ssr:stedsnr" v="705977" />
	</node>
	<node lat="60.061736109050265" lon="5.660177776092567" id="-30003">
		<tag k="name" v="Gripne" />
		<tag k="place" v="farm" />
		<tag k="ssr:stedsnr" v="705997" />
	</node>
	<node lat="59.950663893435554" lon="5.6220083404397165" id="-30008">
		<tag k="name" v="Krabbakleiva" />
		<tag k="place" v="farm" />
		<tag k="ssr:stedsnr" v="643975" />
	</node>
	<node lat="60.046524998468186" lon="5.700741657906443" id="-30014">
		<tag k="name" v="Kroken" />
		<tag k="place" v="farm" />
		<tag k="ssr:stedsnr" v="644228" />
	</node>
	<node lat="59.992041666573755" lon="5.687077784788751" id="-30034">
		<tag k="name" v="Årbakkahagen" />
		<tag k="place" v="quarter" />
		<tag k="ssr:stedsnr" v="707442" />
	</node>
	<node lat="59.97011807179164" lon="5.637375266012295" id="-30038">
		<tag k="fixme" v="consider place=hamlet" />
		<tag k="name" v="Berge" />
		<tag k="place" v="farm" />
		<tag k="ssr:stedsnr" v="671627" />
	</node>
	<node lat="59.99369999743112" lon="5.601425002393159" id="-30041">
		<tag k="fixme" v="consider place=hamlet" />
		<tag k="name" v="Skjolda" />
		<tag k="place" v="farm" />
		<tag k="ssr:stedsnr" v="671671" />
	</node>
	<node lat="59.90734677678702" lon="5.581415413353941" id="-30043">
		<tag k="fixme" v="consider place=hamlet" />
		<tag k="name" v="Skjelevika" />
		<tag k="old_name" v="Skjeljavik" />
		<tag k="place" v="farm" />
		<tag k="ssr:stedsnr" v="671709" />
	</node>
	<node lat="59.90319721960719" lon="5.535183336107976" id="-30044">
		<tag k="alt_name" v="Skår" />
		<tag k="name" v="Skor" />
		<tag k="place" v="farm" />
		<tag k="ssr:stedsnr" v="671719" />
	</node>
	<node lat="60.022341000536585" lon="5.4237854956340135" id="-30046">
		<tag k="name" v="Brattetveit" />
		<tag k="place" v="hamlet" />
		<tag k="ssr:stedsnr" v="672213" />
	</node>
	<node lat="60.06390691764461" lon="5.415257850981764" id="-30048">
		<tag k="name" v="Nordbø" />
		<tag k="place" v="farm" />
		<tag k="ssr:stedsnr" v="672166" />
	</node>
	<node lat="60.056227775047724" lon="5.606583326256356" id="-30049">
		<tag k="name" v="Galanten" />
		<tag k="place" v="farm" />
		<tag k="ssr:stedsnr" v="672307" />
	</node>
	<node lat="60.068718340002874" lon="5.652036381682101" id="-30051">
		<tag k="fixme" v="consider place=hamlet" />
		<tag k="name" v="Kattanes" />
		<tag k="place" v="farm" />
		<tag k="ssr:stedsnr" v="672264" />
	</node>
	<node lat="59.93070277970123" lon="5.605266666886106" id="-30055">
		<tag k="fixme" v="consider place=hamlet" />
		<tag k="name" v="Flakka" />
		<tag k="place" v="farm" />
		<tag k="ssr:stedsnr" v="692776" />
	</node>
	<node lat="60.01226388744199" lon="5.513211103121717" id="-30056">
		<tag k="historic" v="shieling" />
		<tag k="name" v="Sørstølen" />
		<tag k="place" v="isolated_dwelling" />
		<tag k="ssr:stedsnr" v="947926" />
	</node>
	<node lat="60.05872500066953" lon="5.3680666591273765" id="-30081">
		<tag k="historic" v="shieling" />
		<tag k="name" v="Sauastølen" />
		<tag k="place" v="isolated_dwelling" />
		<tag k="ssr:stedsnr" v="705910" />
	</node>
	<node lat="60.052933333207505" lon="5.50953610255259" id="-30082">
		<tag k="name" v="Sundet" />
		<tag k="place" v="farm" />
		<tag k="ssr:stedsnr" v="705940" />
	</node>
	<node lat="59.9260249998186" lon="5.63741667034218" id="-30084">
		<tag k="name" v="Nyborg" />
		<tag k="place" v="neighbourhood" />
		<tag k="ssr:stedsnr" v="707416" />
	</node>
	<node lat="59.902772223850185" lon="5.628783336572367" id="-30085">
		<tag k="name" v="Heii" />
		<tag k="place" v="farm" />
		<tag k="ssr:stedsnr" v="712442" />
	</node>
	<node lat="59.98331497566176" lon="5.494757545730946" id="-30090">
		<tag k="alt_name" v="Søreide" />
		<tag k="fixme" v="consider place=hamlet" />
		<tag k="name" v="Søreid" />
		<tag k="place" v="farm" />
		<tag k="ssr:stedsnr" v="732615" />
	</node>
	<node lat="59.97088610979898" lon="5.475216664845098" id="-30094">
		<tag k="alt_name" v="Drange, øvre;Drangje" />
		<tag k="name" v="Øvre Drange" />
		<tag k="place" v="farm" />
		<tag k="ssr:stedsnr" v="732657" />
	</node>
	<node lat="59.90876944597077" lon="5.586783328905326" id="-30095">
		<tag k="alt_name" v="Gongstø" />
		<tag k="name" v="Gangstø" />
		<tag k="place" v="farm" />
		<tag k="ssr:stedsnr" v="732715" />
	</node>
	<node lat="60.04517778136422" lon="5.521041674330315" id="-30117">
		<tag k="fixme" v="consider place=hamlet" />
		<tag k="name" v="Våge" />
		<tag k="place" v="farm" />
		<tag k="ssr:stedsnr" v="765962" />
	</node>
	<node lat="60.04762221981744" lon="5.669741665886653" id="-30118">
		<tag k="historic" v="shieling" />
		<tag k="name" v="Gripnestølen" />
		<tag k="place" v="isolated_dwelling" />
		<tag k="ssr:stedsnr" v="765999" />
	</node>
	<node lat="59.98417500184529" lon="5.397983327852716" id="-30119">
		<tag k="name" v="Vesle Nausthaugen" />
		<tag k="place" v="farm" />
		<tag k="ssr:stedsnr" v="765891" />
	</node>
	<node lat="60.06208333640307" lon="5.405613890298374" id="-30120">
		<tag k="historic" v="shieling" />
		<tag k="name" v="Hopsstølen" />
		<tag k="place" v="isolated_dwelling" />
		<tag k="ssr:stedsnr" v="765892" />
	</node>
	<node lat="60.02854212758325" lon="5.413413612987138" id="-30121">
		<tag k="alt_name" v="Dalsgård" />
		<tag k="fixme" v="consider place=hamlet" />
		<tag k="loc_name" v="Dalsgard" />
		<tag k="name" v="Dalen" />
		<tag k="place" v="farm" />
		<tag k="ssr:stedsnr" v="765893" />
	</node>
	<node lat="59.99533611420717" lon="5.496924996874806" id="-30129">
		<tag k="name" v="Jensvoll" />
		<tag k="place" v="quarter" />
		<tag k="ssr:stedsnr" v="767447" />
	</node>
	<node lat="59.9908609043594" lon="5.454185072817474" id="-30135">
		<tag k="fixme" v="consider place=hamlet" />
		<tag k="name" v="Hovdanes" />
		<tag k="place" v="farm" />
		<tag k="ssr:stedsnr" v="793126" />
	</node>
	<node lat="60.04530278016839" lon="5.623552772860945" id="-30144">
		<tag k="name" v="Hagen" />
		<tag k="place" v="farm" />
		<tag k="ssr:stedsnr" v="793384" />
	</node>
	<node lat="60.00971111078612" lon="5.693363893238398" id="-30149">
		<tag k="name" v="Sande" />
		<tag k="place" v="farm" />
		<tag k="ssr:stedsnr" v="793678" />
	</node>
	<node lat="59.98822560175127" lon="5.5914498033313755" id="-30150">
		<tag k="fixme" v="consider place=hamlet" />
		<tag k="name" v="Singelstad" />
		<tag k="place" v="farm" />
		<tag k="ssr:stedsnr" v="793679" />
	</node>
	<node lat="59.98805216154105" lon="5.586619334949279" id="-30151">
		<tag k="fixme" v="consider place=hamlet" />
		<tag k="name" v="Singelsæter" />
		<tag k="place" v="farm" />
		<tag k="ssr:stedsnr" v="793682" />
	</node>
	<node lat="59.92161948559423" lon="5.714605670266462" id="-30153">
		<tag k="fixme" v="consider place=hamlet" />
		<tag k="name" v="Ånuglo" />
		<tag k="place" v="farm" />
		<tag k="ssr:stedsnr" v="793716" />
	</node>
	<node lat="60.07694334030938" lon="5.384038141051546" id="-30155">
		<tag k="fixme" v="consider place=hamlet" />
		<tag k="name" v="Eldholm" />
		<tag k="place" v="farm" />
		<tag k="ssr:stedsnr" v="793919" />
	</node>
	<node lat="59.98817343615264" lon="5.435653877568824" id="-30158">
		<tag k="fixme" v="consider place=hamlet" />
		<tag k="name" v="Færavåg" />
		<tag k="place" v="farm" />
		<tag k="ssr:stedsnr" v="914148" />
	</node>
	<node lat="59.97832294092912" lon="5.417265193054051" id="-30159">
		<tag k="fixme" v="consider place=hamlet" />
		<tag k="name" v="Tveit" />
		<tag k="place" v="farm" />
		<tag k="ssr:stedsnr" v="914168" />
	</node>
	<node lat="59.996547219122526" lon="5.4969222230169" id="-30161">
		<tag k="name" v="Fosse" />
		<tag k="place" v="farm" />
		<tag k="ssr:stedsnr" v="914591" />
	</node>
	<node lat="59.96817778085297" lon="5.476472230527529" id="-30162">
		<tag k="alt_name" v="Drange, nedre" />
		<tag k="name" v="Nedre Drange" />
		<tag k="place" v="farm" />
		<tag k="ssr:stedsnr" v="914651" />
	</node>
	<node lat="59.95870000286596" lon="5.63316944506307" id="-30164">
		<tag k="name" v="Norddal" />
		<tag k="place" v="farm" />
		<tag k="ssr:stedsnr" v="914677" />
	</node>
	<node lat="59.98038077906618" lon="5.597580443263935" id="-30166">
		<tag k="fixme" v="consider place=hamlet" />
		<tag k="name" v="Skartveit" />
		<tag k="place" v="farm" />
		<tag k="ssr:stedsnr" v="914692" />
	</node>
	<node lat="59.902685119330854" lon="5.652727565234028" id="-30170">
		<tag k="fixme" v="consider place=hamlet" />
		<tag k="name" v="Flornes" />
		<tag k="place" v="farm" />
		<tag k="ssr:stedsnr" v="914732" />
	</node>
	<node lat="60.05135555357437" lon="5.54998055805267" id="-30175">
		<tag k="alt_name" v="Instebøen" />
		<tag k="name" v="Instebø" />
		<tag k="place" v="farm" />
		<tag k="ssr:stedsnr" v="915329" />
	</node>
	<node lat="60.04713005138247" lon="5.591703295988226" id="-30177">
		<tag k="fixme" v="consider place=hamlet" />
		<tag k="name" v="Heggland" />
		<tag k="place" v="farm" />
		<tag k="ssr:stedsnr" v="915346" />
	</node>
	<node lat="60.027838163655005" lon="5.379133681990951" id="-30179">
		<tag k="alt_name" v="Frøkedal" />
		<tag k="fixme" v="consider place=hamlet" />
		<tag k="name" v="Frøkjedal" />
		<tag k="place" v="farm" />
		<tag k="ssr:stedsnr" v="915229" />
	</node>
	<node lat="60.06208894520845" lon="5.642479408877052" id="-30184">
		<tag k="name" v="Lunde" />
		<tag k="place" v="hamlet" />
		<tag k="ssr:stedsnr" v="915244" />
	</node>
	<node lat="60.06360147587434" lon="5.653268766405922" id="-30185">
		<tag k="fixme" v="consider place=hamlet" />
		<tag k="name" v="Økland" />
		<tag k="place" v="farm" />
		<tag k="ssr:stedsnr" v="915246" />
	</node>
	<node lat="60.01019006402912" lon="5.495783197541482" id="-30191">
		<tag k="fixme" v="consider place=hamlet" />
		<tag k="name" v="Myklestad" />
		<tag k="place" v="farm" />
		<tag k="ssr:stedsnr" v="915650" />
	</node>
	<node lat="59.96006666269828" lon="5.550205555625978" id="-30203">
		<tag k="name" v="Medvatne" />
		<tag k="place" v="farm" />
		<tag k="ssr:stedsnr" v="826935" />
	</node>
	<node lat="59.993196594739054" lon="5.54291206194863" id="-30204">
		<tag k="fixme" v="consider place=hamlet" />
		<tag k="name" v="Gjellefall" />
		<tag k="place" v="farm" />
		<tag k="ssr:stedsnr" v="826952" />
	</node>
	<node lat="60.001405559153795" lon="5.707711103565774" id="-30206">
		<tag k="name" v="Biskopshamn" />
		<tag k="place" v="farm" />
		<tag k="ssr:stedsnr" v="826881" />
	</node>
	<node lat="60.05658055310433" lon="5.358019441052045" id="-30207">
		<tag k="alt_name" v="Nedigard" />
		<tag k="name" v="Nigard" />
		<tag k="place" v="farm" />
		<tag k="ssr:stedsnr" v="826893" />
	</node>
	<node lat="60.019236114214216" lon="5.402302778244988" id="-30212">
		<tag k="name" v="Øvra Haukafær" />
		<tag k="place" v="farm" />
		<tag k="ssr:stedsnr" v="827270" />
	</node>
	<node lat="59.875481978828915" lon="5.61951806194701" id="-30223">
		<tag k="name" v="Laukhammar" />
		<tag k="place" v="hamlet" />
		<tag k="ssr:stedsnr" v="853224" />
	</node>
	<node lat="59.96157909313744" lon="5.513222279097249" id="-30226">
		<tag k="fixme" v="consider place=hamlet" />
		<tag k="name" v="Epland" />
		<tag k="place" v="farm" />
		<tag k="ssr:stedsnr" v="853616" />
	</node>
	<node lat="60.04349166270875" lon="5.522744436498862" id="-30232">
		<tag k="name" v="Våge" />
		<tag k="place" v="village" />
		<tag k="ssr:stedsnr" v="854354" />
	</node>
	<node lat="60.03532232027198" lon="5.471220068602836" id="-30233">
		<tag k="fixme" v="consider place=hamlet" />
		<tag k="name" v="Siglevik" />
		<tag k="place" v="farm" />
		<tag k="ssr:stedsnr" v="854293" />
	</node>
	<node lat="59.93960277537283" lon="5.618091660686063" id="-30235">
		<tag k="name" v="Øyjorda" />
		<tag k="place" v="farm" />
		<tag k="ssr:stedsnr" v="854711" />
	</node>
	<node lat="60.06971389275159" lon="5.667708335665594" id="-30246">
		<tag k="name" v="Dalheim" />
		<tag k="place" v="farm" />
		<tag k="ssr:stedsnr" v="887211" />
	</node>
	<node lat="60.06956944031167" lon="5.657744443243077" id="-30270">
		<tag k="name" v="Sjøli" />
		<tag k="place" v="farm" />
		<tag k="ssr:stedsnr" v="887995" />
	</node>
	<node lat="60.01622013502697" lon="5.529193403324022" id="-30286">
		<tag k="fixme" v="consider place=hamlet" />
		<tag k="name" v="Borga" />
		<tag k="place" v="farm" />
		<tag k="ssr:stedsnr" v="915607" />
	</node>
	<node lat="60.05610555992412" lon="5.632063889815737" id="-30294">
		<tag k="name" v="Myre" />
		<tag k="place" v="farm" />
		<tag k="ssr:stedsnr" v="947985" />
	</node>
	<node lat="59.977188887694396" lon="5.409358330122875" id="-30313">
		<tag k="fixme" v="consider place=hamlet" />
		<tag k="name" v="Hålandsneset" />
		<tag k="place" v="village" />
		<tag k="ssr:stedsnr" v="969884" />
	</node>
	<node lat="59.94907890665181" lon="5.486357947244442" id="-30314">
		<tag k="fixme" v="consider place=hamlet" />
		<tag k="name" v="Klubben" />
		<tag k="place" v="farm" />
		<tag k="ssr:stedsnr" v="990393" />
	</node>
	<node lat="59.99802443955545" lon="5.430865483926952" id="-30315">
		<tag k="fixme" v="consider place=hamlet" />
		<tag k="name" v="Håneset" />
		<tag k="place" v="farm" />
		<tag k="ssr:stedsnr" v="990394" />
	</node>
	<node lat="60.00114864726959" lon="5.414126559452268" id="-30316">
		<tag k="fixme" v="consider place=hamlet" />
		<tag k="name" v="Kubbervik" />
		<tag k="place" v="farm" />
		<tag k="ssr:stedsnr" v="990403" />
	</node>
	<node lat="60.06935893581332" lon="5.431602301329484" id="-30317">
		<tag k="fixme" v="consider place=hamlet" />
		<tag k="name" v="Vernøya" />
		<tag k="place" v="farm" />
		<tag k="ssr:stedsnr" v="990404" />
	</node>
	<node lat="60.07079023016239" lon="5.565045097246557" id="-30318">
		<tag k="name" v="Godøya" />
		<tag k="place" v="hamlet" />
		<tag k="ssr:stedsnr" v="990406" />
	</node>
	<node lat="60.06584421319018" lon="5.624114058504245" id="-30319">
		<tag k="fixme" v="consider place=hamlet" />
		<tag k="name" v="Hommervik" />
		<tag k="place" v="farm" />
		<tag k="ssr:stedsnr" v="990407" />
	</node>
	<node lat="60.0731791703898" lon="5.697597797058794" id="-30320">
		<tag k="fixme" v="consider place=hamlet" />
		<tag k="name" v="Korsnes" />
		<tag k="place" v="farm" />
		<tag k="ssr:stedsnr" v="990408" />
	</node>
	<node lat="59.986917119077496" lon="5.67634710247181" id="-30321">
		<tag k="name" v="Våge" />
		<tag k="place" v="hamlet" />
		<tag k="ssr:stedsnr" v="990409" />
	</node>
	<node lat="59.962491413938366" lon="5.647457336503784" id="-30322">
		<tag k="fixme" v="consider place=hamlet" />
		<tag k="name" v="Vattarøya" />
		<tag k="place" v="farm" />
		<tag k="ssr:stedsnr" v="990411" />
	</node>
	<node lat="59.97412649896281" lon="5.632292687590521" id="-30323">
		<tag k="fixme" v="consider place=hamlet" />
		<tag k="name" v="Medalen" />
		<tag k="place" v="farm" />
		<tag k="ssr:stedsnr" v="990412" />
	</node>
	<node lat="59.954047501959984" lon="5.638241047169629" id="-30324">
		<tag k="fixme" v="consider place=hamlet" />
		<tag k="name" v="Kvitevollsnes" />
		<tag k="place" v="farm" />
		<tag k="ssr:stedsnr" v="990415" />
	</node>
	<node lat="59.96476442650698" lon="5.53809309019425" id="-30328">
		<tag k="fixme" v="consider place=hamlet" />
		<tag k="name" v="Nordbustad" />
		<tag k="place" v="farm" />
		<tag k="ssr:stedsnr" v="3591" />
	</node>
	<node lat="60.074678435023614" lon="5.671156731874687" id="-30335">
		<tag k="fixme" v="consider place=hamlet" />
		<tag k="name" v="Malkenes" />
		<tag k="place" v="farm" />
		<tag k="ssr:stedsnr" v="4294" />
	</node>
	<node lat="59.98777189154718" lon="5.498858599136513" id="-30340">
		<tag k="name" v="Støle" />
		<tag k="place" v="hamlet" />
		<tag k="ssr:stedsnr" v="4580" />
	</node>
	<node lat="59.919336109591605" lon="5.617327776633007" id="-30341">
		<tag k="name" v="Skjelland" />
		<tag k="place" v="farm" />
		<tag k="ssr:stedsnr" v="4695" />
	</node>
	<node lat="59.940808332042124" lon="5.48658055510404" id="-30344">
		<tag k="name" v="Neshamn" />
		<tag k="place" v="farm" />
		<tag k="ssr:stedsnr" v="4642" />
	</node>
	<node lat="59.926280551833536" lon="5.642205564598945" id="-30347">
		<tag k="name" v="Nyborg" />
		<tag k="place" v="farm" />
		<tag k="ssr:stedsnr" v="4761" />
	</node>
	<node lat="60.0199521727842" lon="5.391684592045229" id="-30350">
		<tag k="name" v="Haukafær" />
		<tag k="place" v="hamlet" />
		<tag k="ssr:stedsnr" v="5235" />
	</node>
	<node lat="60.06217222254446" lon="5.422988888266541" id="-30354">
		<tag k="name" v="Sagvågen" />
		<tag k="place" v="farm" />
		<tag k="ssr:stedsnr" v="24350" />
	</node>
	<node lat="59.9670726679091" lon="5.471162983060084" id="-30358">
		<tag k="fixme" v="consider place=hamlet" />
		<tag k="name" v="Leitet" />
		<tag k="place" v="farm" />
		<tag k="ssr:stedsnr" v="25755" />
	</node>
	<node lat="60.06176110950129" lon="5.640358329194474" id="-30359">
		<tag k="name" v="Nedra Lunde" />
		<tag k="place" v="farm" />
		<tag k="ssr:stedsnr" v="31066" />
	</node>
	<node lat="60.05680555906937" lon="5.353836111987434" id="-30371">
		<tag k="alt_name" v="Nedigardssjøen" />
		<tag k="name" v="Nigardssjøen" />
		<tag k="place" v="farm" />
		<tag k="ssr:stedsnr" v="37231" />
	</node>
	<node lat="59.96548888915809" lon="5.636077774981493" id="-30372">
		<tag k="name" v="Nedsthus" />
		<tag k="place" v="farm" />
		<tag k="ssr:stedsnr" v="37234" />
	</node>
	<node lat="60.07645832917923" lon="5.384163884195393" id="-30400">
		<tag k="name" v="Spannsteigen" />
		<tag k="place" v="farm" />
		<tag k="ssr:stedsnr" v="37920" />
	</node>
	<node lat="60.07489722531022" lon="5.676211108765029" id="-30401">
		<tag k="name" v="Skogstad" />
		<tag k="place" v="farm" />
		<tag k="ssr:stedsnr" v="37995" />
	</node>
	<node lat="60.06266944184151" lon="5.651724995405948" id="-30402">
		<tag k="name" v="Økland" />
		<tag k="place" v="farm" />
		<tag k="ssr:stedsnr" v="37998" />
	</node>
	<node lat="60.059794447818746" lon="5.649669436716887" id="-30409">
		<tag k="name" v="Kattaland" />
		<tag k="place" v="quarter" />
		<tag k="ssr:stedsnr" v="39389" />
	</node>
	<node lat="60.06201944615461" lon="5.558980553291151" id="-30410">
		<tag k="name" v="Gåsavika" />
		<tag k="place" v="neighbourhood" />
		<tag k="ssr:stedsnr" v="39397" />
	</node>
	<node lat="59.89428333633315" lon="5.567861103065491" id="-30417">
		<tag k="name" v="Bakkane" />
		<tag k="place" v="farm" />
		<tag k="ssr:stedsnr" v="64287" />
	</node>
	<node lat="59.95529440856573" lon="5.606778154830405" id="-30419">
		<tag k="fixme" v="consider place=hamlet" />
		<tag k="name" v="Storsætre" />
		<tag k="place" v="farm" />
		<tag k="ssr:stedsnr" v="64657" />
	</node>
	<node lat="59.945675003616756" lon="5.473880553361017" id="-30424">
		<tag k="name" v="Øvrebø" />
		<tag k="place" v="farm" />
		<tag k="ssr:stedsnr" v="64650" />
	</node>
	<node lat="59.9470222187848" lon="5.628030549988612" id="-30426">
		<tag k="fixme" v="consider place=hamlet" />
		<tag k="name" v="Onarheim" />
		<tag k="place" v="village" />
		<tag k="ssr:stedsnr" v="65721" />
	</node>
	<node lat="60.04039292352956" lon="5.679031138917137" id="-30431">
		<tag k="alt_name" v="Vevatn" />
		<tag k="fixme" v="consider place=hamlet" />
		<tag k="name" v="Vevatna" />
		<tag k="place" v="farm" />
		<tag k="ssr:stedsnr" v="65323" />
	</node>
	<node lat="60.066838885734555" lon="5.562966660927284" id="-30433">
		<tag k="name" v="Godøysund Fjordhotell" />
		<tag k="ssr:stedsnr" v="65272" />
		<tag k="tourism" v="hotel" />
	</node>
	<node lat="60.041804459702234" lon="5.533657152940945" id="-30435">
		<tag k="name" v="Gjerstad" />
		<tag k="place" v="hamlet" />
		<tag k="ssr:stedsnr" v="65359" />
	</node>
	<node lat="60.05136071925457" lon="5.62229023156003" id="-30440">
		<tag k="name" v="Humlevik" />
		<tag k="place" v="hamlet" />
		<tag k="ssr:stedsnr" v="66338" />
	</node>
	<node lat="59.9424999976893" lon="5.622330559339048" id="-30442">
		<tag k="name" v="Storhaugen" />
		<tag k="place" v="farm" />
		<tag k="ssr:stedsnr" v="86131" />
	</node>
	<node lat="59.92809444134324" lon="5.635022226216218" id="-30444">
		<tag k="name" v="Dragvik" />
		<tag k="place" v="farm" />
		<tag k="ssr:stedsnr" v="86347" />
	</node>
	<node lat="59.933258330247995" lon="5.60503888322982" id="-30448">
		<tag k="name" v="Hagane" />
		<tag k="place" v="farm" />
		<tag k="ssr:stedsnr" v="86785" />
	</node>
	<node lat="59.93377500349336" lon="5.526297220638589" id="-30449">
		<tag k="name" v="Øyjord" />
		<tag k="place" v="isolated_dwelling" />
		<tag k="ssr:stedsnr" v="86799" />
	</node>
	<node lat="59.990597219757234" lon="5.454783335683289" id="-30450">
		<tag k="name" v="Hovden" />
		<tag k="place" v="farm" />
		<tag k="ssr:stedsnr" v="87561" />
	</node>
	<node lat="60.06273889197438" lon="5.642841666794159" id="-30451">
		<tag k="name" v="Øvra Lunde" />
		<tag k="place" v="farm" />
		<tag k="ssr:stedsnr" v="91056" />
	</node>
	<node lat="60.070938888089565" lon="5.65732221571456" id="-30454">
		<tag k="name" v="Hagen" />
		<tag k="place" v="farm" />
		<tag k="ssr:stedsnr" v="98188" />
	</node>
	<node lat="60.02188333318284" lon="5.423900005391083" id="-30488">
		<tag k="name" v="Stora Brottetveit" />
		<tag k="place" v="farm" />
		<tag k="ssr:stedsnr" v="98889" />
	</node>
	<node lat="59.9915333339076" lon="5.595424994765119" id="-30489">
		<tag k="name" v="Brekke" />
		<tag k="place" v="farm" />
		<tag k="ssr:stedsnr" v="98986" />
	</node>
	<node lat="60.053313891927324" lon="5.504147215585124" id="-30490">
		<tag k="name" v="Spannsstigen" />
		<tag k="place" v="farm" />
		<tag k="ssr:stedsnr" v="98931" />
	</node>
</osm>
