<?xml version="1.0" encoding="UTF-8"?>
<osm version="0.6" generator="osmapis">
	<node lat="59.97207221868801" lon="5.633099994239785" id="-69049">
		<tag k="name" v="Medalen" />
		<tag k="natural" v="valley" />
		<tag k="place" v="locality" />
		<tag k="ssr:stedsnr" v="3580" />
	</node>
	<node lat="60.0321166646605" lon="5.410072216880195" id="-69052">
		<tag k="fixme" v="consider natural=peak for the most distinct mountains in the district" />
		<tag k="name" v="Dalstuva" />
		<tag k="natural" v="hill" />
		<tag k="place" v="locality" />
		<tag k="ssr:stedsnr" v="4249" />
	</node>
	<node lat="59.97536111090673" lon="5.4482138916147465" id="-69056">
		<tag k="name" v="Kyrnahaug" />
		<tag k="natural" v="hill" />
		<tag k="place" v="locality" />
		<tag k="ssr:stedsnr" v="4169" />
	</node>
	<node lat="60.02304999635498" lon="5.6916888851767125" id="-69065">
		<tag k="name" v="Vardhaug" />
		<tag k="natural" v="hill" />
		<tag k="place" v="locality" />
		<tag k="ssr:stedsnr" v="5655" />
	</node>
	<node lat="60.01607499888994" lon="5.596574997948241" id="-69066">
		<tag k="fixme" v="consider natural=peak for the most distinct mountains in the district" />
		<tag k="name" v="Tuvefjellet" />
		<tag k="natural" v="hill" />
		<tag k="place" v="locality" />
		<tag k="ssr:stedsnr" v="5663" />
	</node>
	<node lat="59.9162055512761" lon="5.57200833629337" id="-69070">
		<tag k="name" v="Karsteinsheia" />
		<tag k="natural" v="hill" />
		<tag k="place" v="locality" />
		<tag k="ssr:stedsnr" v="219133" />
	</node>
	<node lat="60.06954941655099" lon="5.640110475129631" id="-69071">
		<tag k="alt_name" v="Lundekammen" />
		<tag k="name" v="Lundakamben" />
		<tag k="natural" v="ridge" />
		<tag k="place" v="locality" />
		<tag k="ssr:stedsnr" v="219234" />
	</node>
	<node lat="60.01773333684935" lon="5.693752779913238" id="-69074">
		<tag k="name" v="Kamben" />
		<tag k="place" v="locality" />
		<tag k="ssr:stedsnr" v="219272" />
	</node>
	<node lat="60.04662777879889" lon="5.65393055326468" id="-69075">
		<tag k="name" v="Kuberget" />
		<tag k="natural" v="hill" />
		<tag k="place" v="locality" />
		<tag k="ssr:stedsnr" v="219468" />
	</node>
	<node lat="60.073633330874245" lon="5.686766671499813" id="-69077">
		<tag k="name" v="Brekkene" />
		<tag k="natural" v="slope" />
		<tag k="place" v="locality" />
		<tag k="ssr:stedsnr" v="219487" />
	</node>
	<node lat="60.04441666829913" lon="5.634838880415991" id="-69081">
		<tag k="name" v="Kråkeskardet" />
		<tag k="natural" v="hill" />
		<tag k="place" v="locality" />
		<tag k="ssr:stedsnr" v="219475" />
	</node>
	<node lat="60.0510583307017" lon="5.676641659576795" id="-69082">
		<tag k="name" v="Teigen" />
		<tag k="place" v="locality" />
		<tag k="ssr:stedsnr" v="219511" />
	</node>
	<node lat="59.91170833352449" lon="5.532225005060894" id="-69089">
		<tag k="name" v="Rindane" />
		<tag k="natural" v="ridge" />
		<tag k="place" v="locality" />
		<tag k="ssr:stedsnr" v="219774" />
	</node>
	<node lat="59.97824166546958" lon="5.448691669865806" id="-69092">
		<tag k="name" v="Stormyrhaugen" />
		<tag k="natural" v="hill" />
		<tag k="place" v="locality" />
		<tag k="ssr:stedsnr" v="219828" />
	</node>
	<node lat="59.926952777068166" lon="5.573308336075481" id="-69100">
		<tag k="fixme" v="consider natural=peak for the most distinct mountains in the district" />
		<tag k="name" v="Nuten" />
		<tag k="natural" v="hill" />
		<tag k="place" v="locality" />
		<tag k="ssr:stedsnr" v="220220" />
	</node>
	<node lat="60.051222224102126" lon="5.405413891489937" id="-69102">
		<tag k="name" v="Skrudalen" />
		<tag k="natural" v="valley" />
		<tag k="place" v="locality" />
		<tag k="ssr:stedsnr" v="220252" />
	</node>
	<node lat="60.03425000313728" lon="5.375113894155608" id="-69104">
		<tag k="name" v="Rindane" />
		<tag k="natural" v="ridge" />
		<tag k="place" v="locality" />
		<tag k="ssr:stedsnr" v="220262" />
	</node>
	<node lat="60.01225277680309" lon="5.63529445240922" id="-69105">
		<tag k="name" v="Grovasshaugen" />
		<tag k="natural" v="hill" />
		<tag k="place" v="locality" />
		<tag k="ssr:stedsnr" v="220330" />
	</node>
	<node lat="60.02528055227763" lon="5.5098666712812685" id="-69106">
		<tag k="name" v="Hollekjeleitet" />
		<tag k="natural" v="slope" />
		<tag k="place" v="locality" />
		<tag k="ssr:stedsnr" v="220364" />
	</node>
	<node lat="59.99608610748153" lon="5.5614888959337705" id="-69107">
		<tag k="name" v="Jamnarhaug" />
		<tag k="natural" v="hill" />
		<tag k="place" v="locality" />
		<tag k="ssr:stedsnr" v="220372" />
	</node>
	<node lat="60.00054167058617" lon="5.55645556365515" id="-69108">
		<tag k="name" v="Geithaugen" />
		<tag k="natural" v="hill" />
		<tag k="place" v="locality" />
		<tag k="ssr:stedsnr" v="220375" />
	</node>
	<node lat="59.99057777489602" lon="5.49461110947359" id="-69109">
		<tag k="fixme" v="consider natural=peak for the most distinct mountains in the district" />
		<tag k="name" v="Vindåsen" />
		<tag k="natural" v="hill" />
		<tag k="place" v="locality" />
		<tag k="ssr:stedsnr" v="220378" />
	</node>
	<node lat="60.02143055340071" lon="5.539649994948909" id="-69110">
		<tag k="name" v="Lomsdalen" />
		<tag k="natural" v="valley" />
		<tag k="place" v="locality" />
		<tag k="ssr:stedsnr" v="220381" />
	</node>
	<node lat="59.99893611484749" lon="5.627905547997124" id="-69122">
		<tag k="name" v="Utførehaugane" />
		<tag k="natural" v="hill" />
		<tag k="place" v="locality" />
		<tag k="ssr:stedsnr" v="37268" />
	</node>
	<node lat="59.89953611026757" lon="5.5473027718875185" id="-69123">
		<tag k="fixme" v="consider natural=peak for the most distinct mountains in the district" />
		<tag k="name" v="Varden" />
		<tag k="natural" v="hill" />
		<tag k="place" v="locality" />
		<tag k="ssr:stedsnr" v="37167" />
	</node>
	<node lat="59.97185833737929" lon="5.571911108305629" id="-69125">
		<tag k="name" v="Avhovda" />
		<tag k="natural" v="hill" />
		<tag k="place" v="locality" />
		<tag k="ssr:stedsnr" v="37173" />
	</node>
	<node lat="60.00553333680857" lon="5.544869436894192" id="-69127">
		<tag k="fixme" v="consider natural=peak for the most distinct mountains in the district" />
		<tag k="name" v="Kjakmann" />
		<tag k="natural" v="hill" />
		<tag k="place" v="locality" />
		<tag k="ssr:stedsnr" v="37321" />
	</node>
	<node lat="59.88841944395673" lon="5.624452785612444" id="-69134">
		<tag k="name" v="Uskeberget" />
		<tag k="natural" v="hill" />
		<tag k="place" v="locality" />
		<tag k="ssr:stedsnr" v="37764" />
	</node>
	<node lat="60.07956110891735" lon="5.380197218652292" id="-69136">
		<tag k="name" v="Tjørehaugen" />
		<tag k="natural" v="hill" />
		<tag k="place" v="locality" />
		<tag k="ssr:stedsnr" v="37811" />
	</node>
	<node lat="59.94857221818135" lon="5.475124994695959" id="-69137">
		<tag k="name" v="Rinda" />
		<tag k="natural" v="ridge" />
		<tag k="place" v="locality" />
		<tag k="ssr:stedsnr" v="38201" />
	</node>
	<node lat="59.954513891656745" lon="5.465041675226202" id="-69138">
		<tag k="name" v="Dalane" />
		<tag k="natural" v="valley" />
		<tag k="place" v="locality" />
		<tag k="ssr:stedsnr" v="38206" />
	</node>
	<node lat="59.9838472187304" lon="5.452313891433126" id="-69139">
		<tag k="name" v="Sauahaugane" />
		<tag k="natural" v="hill" />
		<tag k="place" v="locality" />
		<tag k="ssr:stedsnr" v="38214" />
	</node>
	<node lat="60.05069722390922" lon="5.360041668051727" id="-69140">
		<tag k="name" v="Fjellhaugane" />
		<tag k="natural" v="hill" />
		<tag k="place" v="locality" />
		<tag k="ssr:stedsnr" v="38276" />
	</node>
	<node lat="60.017558334038206" lon="5.368288891167861" id="-69149">
		<tag k="alt_name" v="Orefjellet" />
		<tag k="fixme" v="consider natural=peak for the most distinct mountains in the district" />
		<tag k="name" v="Søra Orefjellet" />
		<tag k="natural" v="hill" />
		<tag k="place" v="locality" />
		<tag k="ssr:stedsnr" v="65224" />
	</node>
	<node lat="60.03530833565585" lon="5.6591749970126966" id="-69151">
		<tag k="name" v="Bandavollane" />
		<tag k="natural" v="hill" />
		<tag k="place" v="locality" />
		<tag k="ssr:stedsnr" v="65308" />
	</node>
	<node lat="60.020136110179244" lon="5.540799996368969" id="-69155">
		<tag k="fixme" v="consider natural=peak for the most distinct mountains in the district" />
		<tag k="name" v="Kyråsen" />
		<tag k="natural" v="hill" />
		<tag k="place" v="locality" />
		<tag k="ssr:stedsnr" v="65609" />
	</node>
	<node lat="60.01930555411665" lon="5.497038890958549" id="-69158">
		<tag k="name" v="Dormålshaugen" />
		<tag k="natural" v="hill" />
		<tag k="place" v="locality" />
		<tag k="ssr:stedsnr" v="65624" />
	</node>
	<node lat="60.00224166373304" lon="5.515500007647617" id="-69159">
		<tag k="fixme" v="consider natural=peak for the most distinct mountains in the district" />
		<tag k="name" v="Kjeldaråsen" />
		<tag k="natural" v="hill" />
		<tag k="place" v="locality" />
		<tag k="ssr:stedsnr" v="65645" />
	</node>
	<node lat="59.95516944239352" lon="5.475363884331099" id="-69160">
		<tag k="fixme" v="consider natural=peak for the most distinct mountains in the district" />
		<tag k="name" v="Hovåsen" />
		<tag k="natural" v="hill" />
		<tag k="place" v="locality" />
		<tag k="ssr:stedsnr" v="65555" />
	</node>
	<node lat="59.90760000195747" lon="5.539519449226777" id="-69161">
		<tag k="fixme" v="consider natural=peak for the most distinct mountains in the district" />
		<tag k="name" v="Kusåta" />
		<tag k="natural" v="hill" />
		<tag k="place" v="locality" />
		<tag k="ssr:stedsnr" v="65703" />
	</node>
	<node lat="59.97831110716904" lon="5.516524998266297" id="-69168">
		<tag k="name" v="Gatehaugen" />
		<tag k="natural" v="hill" />
		<tag k="place" v="locality" />
		<tag k="ssr:stedsnr" v="97118" />
	</node>
	<node lat="59.97921666851592" lon="5.500686106460499" id="-69169">
		<tag k="name" v="Sjøbuddalen" />
		<tag k="natural" v="valley" />
		<tag k="place" v="locality" />
		<tag k="ssr:stedsnr" v="97125" />
	</node>
	<node lat="59.97330555520056" lon="5.545416663582641" id="-69170">
		<tag k="name" v="Hetlelihaugen" />
		<tag k="natural" v="hill" />
		<tag k="place" v="locality" />
		<tag k="ssr:stedsnr" v="97126" />
	</node>
	<node lat="59.99197222277184" lon="5.670516661271848" id="-69172">
		<tag k="name" v="Stallen" />
		<tag k="place" v="locality" />
		<tag k="ssr:stedsnr" v="98210" />
	</node>
	<node lat="59.999663888304546" lon="5.671749992612337" id="-69173">
		<tag k="name" v="Tunga" />
		<tag k="place" v="locality" />
		<tag k="ssr:stedsnr" v="98218" />
	</node>
	<node lat="59.95714999621249" lon="5.629852774681404" id="-69174">
		<tag k="name" v="Stigen" />
		<tag k="natural" v="hill" />
		<tag k="place" v="locality" />
		<tag k="ssr:stedsnr" v="98262" />
	</node>
	<node lat="59.93729444529712" lon="5.599908334944396" id="-69175">
		<tag k="name" v="Stemmedalen" />
		<tag k="natural" v="valley" />
		<tag k="place" v="locality" />
		<tag k="ssr:stedsnr" v="98265" />
	</node>
	<node lat="60.04670833344933" lon="5.68090832916199" id="-69184">
		<tag k="fixme" v="consider natural=peak for the most distinct mountains in the district" />
		<tag k="name" v="Kanniken" />
		<tag k="natural" v="hill" />
		<tag k="place" v="locality" />
		<tag k="ssr:stedsnr" v="98504" />
	</node>
	<node lat="60.01141110794071" lon="5.350730548202532" id="-69185">
		<tag k="name" v="Trædshaugen" />
		<tag k="natural" v="hill" />
		<tag k="place" v="locality" />
		<tag k="ssr:stedsnr" v="98507" />
	</node>
	<node lat="59.929005558477115" lon="5.718466665245688" id="-69186">
		<tag k="name" v="Ånuglehovda" />
		<tag k="natural" v="hill" />
		<tag k="place" v="locality" />
		<tag k="ssr:stedsnr" v="98511" />
	</node>
	<node lat="60.04426944127091" lon="5.686480551019184" id="-69187">
		<tag k="name" v="Leitet" />
		<tag k="natural" v="slope" />
		<tag k="place" v="locality" />
		<tag k="ssr:stedsnr" v="98515" />
	</node>
	<node lat="60.04955555382542" lon="5.652305555949723" id="-69188">
		<tag k="name" v="Kuberget" />
		<tag k="natural" v="hill" />
		<tag k="place" v="locality" />
		<tag k="ssr:stedsnr" v="98522" />
	</node>
	<node lat="59.96228888754474" lon="5.476430557089393" id="-69198">
		<tag k="fixme" v="consider natural=peak for the most distinct mountains in the district" />
		<tag k="name" v="Åsen" />
		<tag k="natural" v="hill" />
		<tag k="place" v="locality" />
		<tag k="ssr:stedsnr" v="98812" />
	</node>
	<node lat="60.04852777512055" lon="5.639747215830018" id="-69199">
		<tag k="name" v="Svillarhaugen" />
		<tag k="natural" v="hill" />
		<tag k="place" v="locality" />
		<tag k="ssr:stedsnr" v="98825" />
	</node>
	<node lat="60.03512500232515" lon="5.466338890577727" id="-69203">
		<tag k="name" v="Medhaugen" />
		<tag k="natural" v="hill" />
		<tag k="place" v="locality" />
		<tag k="ssr:stedsnr" v="99161" />
	</node>
	<node lat="59.92518888586502" lon="5.533250008449988" id="-69204">
		<tag k="name" v="Sandgotehaugen" />
		<tag k="natural" v="hill" />
		<tag k="place" v="locality" />
		<tag k="ssr:stedsnr" v="99180" />
	</node>
	<node lat="59.986133335293935" lon="5.400388881095907" id="-69205">
		<tag k="name" v="Store Nausthaugen" />
		<tag k="natural" v="hill" />
		<tag k="place" v="locality" />
		<tag k="ssr:stedsnr" v="99202" />
	</node>
	<node lat="60.02187777474461" lon="5.4713916716059545" id="-69206">
		<tag k="name" v="Storehaugen" />
		<tag k="natural" v="hill" />
		<tag k="place" v="locality" />
		<tag k="ssr:stedsnr" v="99205" />
	</node>
	<node lat="60.01342499852615" lon="5.474575005672727" id="-69207">
		<tag k="fixme" v="consider natural=peak for the most distinct mountains in the district" />
		<tag k="name" v="Høgåsen" />
		<tag k="natural" v="hill" />
		<tag k="place" v="locality" />
		<tag k="ssr:stedsnr" v="99206" />
	</node>
	<node lat="60.062380556494986" lon="5.380999991103107" id="-69208">
		<tag k="name" v="Botnen" />
		<tag k="natural" v="valley" />
		<tag k="place" v="locality" />
		<tag k="ssr:stedsnr" v="99218" />
	</node>
	<node lat="59.97226944889673" lon="5.52199167144721" id="-69213">
		<tag k="name" v="Høgåsen" />
		<tag k="natural" v="slope" />
		<tag k="place" v="locality" />
		<tag k="ssr:stedsnr" v="124558" />
	</node>
	<node lat="59.930258332371594" lon="5.5484388890783425" id="-69219">
		<tag k="name" v="Rongedalen" />
		<tag k="natural" v="valley" />
		<tag k="place" v="locality" />
		<tag k="ssr:stedsnr" v="125751" />
	</node>
	<node lat="60.0377388848315" lon="5.690380548443259" id="-69224">
		<tag k="fixme" v="consider natural=peak for the most distinct mountains in the district" />
		<tag k="name" v="Tuvefjellet" />
		<tag k="natural" v="hill" />
		<tag k="place" v="locality" />
		<tag k="ssr:stedsnr" v="126341" />
	</node>
	<node lat="60.004219443829875" lon="5.586738889973054" id="-69229">
		<tag k="fixme" v="consider natural=peak for the most distinct mountains in the district" />
		<tag k="name" v="Støna" />
		<tag k="natural" v="hill" />
		<tag k="place" v="locality" />
		<tag k="ssr:stedsnr" v="126644" />
	</node>
	<node lat="60.00907499981335" lon="5.582863886422223" id="-69230">
		<tag k="fixme" v="consider natural=peak for the most distinct mountains in the district" />
		<tag k="name" v="Børåsen" />
		<tag k="natural" v="hill" />
		<tag k="place" v="locality" />
		<tag k="ssr:stedsnr" v="126646" />
	</node>
	<node lat="60.03001944269004" lon="5.465616670028474" id="-69247">
		<tag k="name" v="Seiahella" />
		<tag k="natural" v="hill" />
		<tag k="place" v="locality" />
		<tag k="ssr:stedsnr" v="158804" />
	</node>
	<node lat="60.03957499646251" lon="5.620722217868497" id="-69248">
		<tag k="name" v="Skardhaugen" />
		<tag k="natural" v="hill" />
		<tag k="place" v="locality" />
		<tag k="ssr:stedsnr" v="158845" />
	</node>
	<node lat="59.94104444681813" lon="5.477344445900321" id="-69251">
		<tag k="fixme" v="consider natural=peak for the most distinct mountains in the district" />
		<tag k="name" v="Varden" />
		<tag k="natural" v="hill" />
		<tag k="place" v="locality" />
		<tag k="ssr:stedsnr" v="159205" />
	</node>
	<node lat="59.97395277410056" lon="5.493213892815683" id="-69252">
		<tag k="name" v="Håviskelandslia" />
		<tag k="natural" v="slope" />
		<tag k="place" v="locality" />
		<tag k="ssr:stedsnr" v="159246" />
	</node>
	<node lat="59.977730553568996" lon="5.6512500090572075" id="-69254">
		<tag k="name" v="Grasslettebakkane" />
		<tag k="natural" v="slope" />
		<tag k="place" v="locality" />
		<tag k="ssr:stedsnr" v="159298" />
	</node>
	<node lat="59.96488055288403" lon="5.5529444428168775" id="-69257">
		<tag k="name" v="Trolldalen" />
		<tag k="natural" v="valley" />
		<tag k="place" v="locality" />
		<tag k="ssr:stedsnr" v="159157" />
	</node>
	<node lat="59.92106389268681" lon="5.55594444914749" id="-69258">
		<tag k="fixme" v="consider natural=peak for the most distinct mountains in the district" />
		<tag k="name" v="Sætrakulten" />
		<tag k="natural" v="hill" />
		<tag k="place" v="locality" />
		<tag k="ssr:stedsnr" v="159196" />
	</node>
	<node lat="59.94415277835275" lon="5.612911119234727" id="-69259">
		<tag k="fixme" v="consider natural=peak for the most distinct mountains in the district" />
		<tag k="name" v="Elsåkerbruna" />
		<tag k="natural" v="hill" />
		<tag k="place" v="locality" />
		<tag k="ssr:stedsnr" v="159304" />
	</node>
	<node lat="60.01091110810018" lon="5.535641660934365" id="-69260">
		<tag k="name" v="Bjørnadalen" />
		<tag k="natural" v="valley" />
		<tag k="place" v="locality" />
		<tag k="ssr:stedsnr" v="159347" />
	</node>
	<node lat="60.01281389302435" lon="5.519625007724314" id="-69261">
		<tag k="fixme" v="consider natural=peak for the most distinct mountains in the district" />
		<tag k="name" v="Notta" />
		<tag k="natural" v="hill" />
		<tag k="place" v="locality" />
		<tag k="ssr:stedsnr" v="159363" />
	</node>
	<node lat="60.02302222184094" lon="5.353466666718222" id="-69262">
		<tag k="name" v="Geitshovda" />
		<tag k="natural" v="hill" />
		<tag k="place" v="locality" />
		<tag k="ssr:stedsnr" v="159528" />
	</node>
	<node lat="59.922577777482594" lon="5.718711108888041" id="-69263">
		<tag k="name" v="Storhaug" />
		<tag k="natural" v="hill" />
		<tag k="place" v="locality" />
		<tag k="ssr:stedsnr" v="159529" />
	</node>
	<node lat="60.03491111120459" lon="5.653341659207751" id="-69264">
		<tag k="name" v="Ugleskardet" />
		<tag k="natural" v="hill" />
		<tag k="place" v="locality" />
		<tag k="ssr:stedsnr" v="159536" />
	</node>
	<node lat="60.06496388615898" lon="5.689102782959738" id="-69265">
		<tag k="name" v="Esjedalen" />
		<tag k="natural" v="valley" />
		<tag k="place" v="locality" />
		<tag k="ssr:stedsnr" v="159544" />
	</node>
	<node lat="59.876783334722255" lon="5.607283325850637" id="-69270">
		<tag k="name" v="Siglingeberget" />
		<tag k="natural" v="hill" />
		<tag k="place" v="locality" />
		<tag k="ssr:stedsnr" v="246247" />
	</node>
	<node lat="59.878911113222365" lon="5.605475002608089" id="-69271">
		<tag k="name" v="Laukhammarsåta" />
		<tag k="natural" v="hill" />
		<tag k="place" v="locality" />
		<tag k="ssr:stedsnr" v="246257" />
	</node>
	<node lat="59.953388885675054" lon="5.460913893414713" id="-69273">
		<tag k="name" v="Brundalen" />
		<tag k="natural" v="valley" />
		<tag k="place" v="locality" />
		<tag k="ssr:stedsnr" v="246771" />
	</node>
	<node lat="59.980511107073646" lon="5.413316674477148" id="-69275">
		<tag k="name" v="Beitehaugane" />
		<tag k="natural" v="hill" />
		<tag k="place" v="locality" />
		<tag k="ssr:stedsnr" v="247146" />
	</node>
	<node lat="60.029911112655064" lon="5.389888881396082" id="-69279">
		<tag k="fixme" v="consider natural=peak for the most distinct mountains in the district" />
		<tag k="name" v="Hovdakampane" />
		<tag k="natural" v="hill" />
		<tag k="place" v="locality" />
		<tag k="ssr:stedsnr" v="247239" />
	</node>
	<node lat="60.0196111104366" lon="5.416997215819923" id="-69280">
		<tag k="name" v="Stølshaugen" />
		<tag k="natural" v="hill" />
		<tag k="place" v="locality" />
		<tag k="ssr:stedsnr" v="247220" />
	</node>
	<node lat="60.04922500359046" lon="5.6799249908456835" id="-69282">
		<tag k="name" v="Kannikenuten" />
		<tag k="natural" v="hill" />
		<tag k="place" v="locality" />
		<tag k="ssr:stedsnr" v="247296" />
	</node>
	<node lat="60.0454027789918" lon="5.683558340013273" id="-69283">
		<tag k="name" v="Skardet" />
		<tag k="natural" v="valley" />
		<tag k="place" v="locality" />
		<tag k="ssr:stedsnr" v="247298" />
	</node>
	<node lat="60.0254305527571" lon="5.473600008718677" id="-69284">
		<tag k="name" v="Tjuvdalshaugen" />
		<tag k="natural" v="hill" />
		<tag k="place" v="locality" />
		<tag k="ssr:stedsnr" v="247631" />
	</node>
	<node lat="60.02402500215874" lon="5.623177782701994" id="-69289">
		<tag k="fixme" v="consider natural=peak for the most distinct mountains in the district" />
		<tag k="name" v="Vetlesåta" />
		<tag k="natural" v="hill" />
		<tag k="place" v="locality" />
		<tag k="ssr:stedsnr" v="247663" />
	</node>
	<node lat="60.0187888850637" lon="5.6062583257780085" id="-69290">
		<tag k="name" v="Malkenesdalen" />
		<tag k="natural" v="valley" />
		<tag k="place" v="locality" />
		<tag k="ssr:stedsnr" v="247664" />
	</node>
	<node lat="60.033816666773866" lon="5.502024998590652" id="-69295">
		<tag k="name" v="Varden" />
		<tag k="natural" v="hill" />
		<tag k="place" v="locality" />
		<tag k="ssr:stedsnr" v="186330" />
	</node>
	<node lat="59.90374060712094" lon="5.5508753697348645" id="-69301">
		<tag k="alt_name" v="Skorsåta;Skårafjellet;Skorafjellet" />
		<tag k="fixme" v="consider natural=peak for the most distinct mountains in the district" />
		<tag k="name" v="Skorssåta" />
		<tag k="natural" v="hill" />
		<tag k="place" v="locality" />
		<tag k="ssr:stedsnr" v="186731" />
	</node>
	<node lat="60.002241670276014" lon="5.614991668510507" id="-69309">
		<tag k="fixme" v="consider natural=peak for the most distinct mountains in the district" />
		<tag k="name" v="Dyråsen" />
		<tag k="natural" v="hill" />
		<tag k="place" v="locality" />
		<tag k="ssr:stedsnr" v="188669" />
	</node>
	<node lat="60.05061111284697" lon="5.657047217355226" id="-69314">
		<tag k="name" v="Flogeberg" />
		<tag k="natural" v="hill" />
		<tag k="place" v="locality" />
		<tag k="ssr:stedsnr" v="219240" />
	</node>
	<node lat="59.995155554954486" lon="5.63689721400398" id="-69315">
		<tag k="name" v="Bjørnshikollen" />
		<tag k="natural" v="hill" />
		<tag k="place" v="locality" />
		<tag k="ssr:stedsnr" v="219244" />
	</node>
	<node lat="59.97725555839086" lon="5.635538892191965" id="-69316">
		<tag k="name" v="Middalen" />
		<tag k="natural" v="valley" />
		<tag k="place" v="locality" />
		<tag k="ssr:stedsnr" v="219285" />
	</node>
	<node lat="59.9251250013413" lon="5.627583327146327" id="-69317">
		<tag k="name" v="Heiane" />
		<tag k="natural" v="hill" />
		<tag k="place" v="locality" />
		<tag k="ssr:stedsnr" v="219293" />
	</node>
	<node lat="59.8847361139991" lon="5.598722230416143" id="-69318">
		<tag k="name" v="Sæterdalen" />
		<tag k="natural" v="valley" />
		<tag k="place" v="locality" />
		<tag k="ssr:stedsnr" v="219305" />
	</node>
	<node lat="59.88373055971454" lon="5.621913896818654" id="-69319">
		<tag k="name" v="Furehaugen" />
		<tag k="natural" v="hill" />
		<tag k="place" v="locality" />
		<tag k="ssr:stedsnr" v="219308" />
	</node>
	<node lat="60.06376944336544" lon="5.65809722624738" id="-69321">
		<tag k="name" v="Lerkahaugen" />
		<tag k="natural" v="hill" />
		<tag k="place" v="locality" />
		<tag k="ssr:stedsnr" v="219498" />
	</node>
	<node lat="60.04798055477198" lon="5.64810278530051" id="-69323">
		<tag k="name" v="Veslehovda" />
		<tag k="natural" v="hill" />
		<tag k="place" v="locality" />
		<tag k="ssr:stedsnr" v="219838" />
	</node>
	<node lat="60.01180277846331" lon="5.697805551877024" id="-69324">
		<tag k="name" v="Sagtufta" />
		<tag k="place" v="locality" />
		<tag k="ssr:stedsnr" v="219843" />
	</node>
	<node lat="60.077197222877246" lon="5.4373555606135575" id="-69326">
		<tag k="fixme" v="consider natural=peak for the most distinct mountains in the district" />
		<tag k="name" v="Tonesåsen" />
		<tag k="natural" v="hill" />
		<tag k="place" v="locality" />
		<tag k="ssr:stedsnr" v="220202" />
	</node>
	<node lat="59.918194448275436" lon="5.528852783826876" id="-69327">
		<tag k="name" v="Lunda" />
		<tag k="natural" v="slope" />
		<tag k="place" v="locality" />
		<tag k="ssr:stedsnr" v="220210" />
	</node>
	<node lat="59.951849996049695" lon="5.467691671732578" id="-69329">
		<tag k="name" v="Furåsskinet" />
		<tag k="natural" v="hill" />
		<tag k="place" v="locality" />
		<tag k="ssr:stedsnr" v="220235" />
	</node>
	<node lat="59.952072224894614" lon="5.582194437965048" id="-69330">
		<tag k="name" v="Moshaug" />
		<tag k="natural" v="hill" />
		<tag k="place" v="locality" />
		<tag k="ssr:stedsnr" v="220413" />
	</node>
	<node lat="59.94849721929359" lon="5.560394437751598" id="-69331">
		<tag k="name" v="Furelaven" />
		<tag k="natural" v="hill" />
		<tag k="place" v="locality" />
		<tag k="ssr:stedsnr" v="220414" />
	</node>
	<node lat="59.957605558563266" lon="5.577880561952962" id="-69332">
		<tag k="name" v="Ljosolderhaugane" />
		<tag k="natural" v="hill" />
		<tag k="place" v="locality" />
		<tag k="ssr:stedsnr" v="220417" />
	</node>
	<node lat="59.946413887974636" lon="5.620611119860566" id="-69333">
		<tag k="name" v="Storhaug" />
		<tag k="natural" v="hill" />
		<tag k="place" v="locality" />
		<tag k="ssr:stedsnr" v="220340" />
	</node>
	<node lat="60.01307499701314" lon="5.500866667689038" id="-69334">
		<tag k="name" v="Vassheia" />
		<tag k="natural" v="hill" />
		<tag k="place" v="locality" />
		<tag k="ssr:stedsnr" v="220391" />
	</node>
	<node lat="60.01069999640582" lon="5.527419446516226" id="-69335">
		<tag k="fixme" v="consider natural=peak for the most distinct mountains in the district" />
		<tag k="name" v="Hellandskollen" />
		<tag k="natural" v="hill" />
		<tag k="place" v="locality" />
		<tag k="ssr:stedsnr" v="220393" />
	</node>
	<node lat="60.02348888841121" lon="5.491086111389668" id="-69336">
		<tag k="name" v="Håvardheia" />
		<tag k="natural" v="hill" />
		<tag k="place" v="locality" />
		<tag k="ssr:stedsnr" v="220400" />
	</node>
	<node lat="59.95878611547132" lon="5.501930557894865" id="-69368">
		<tag k="name" v="Båtstødhaugen" />
		<tag k="natural" v="hill" />
		<tag k="place" v="locality" />
		<tag k="ssr:stedsnr" v="280112" />
	</node>
	<node lat="59.96466389260409" lon="5.579236103274225" id="-69369">
		<tag k="name" v="Kudalen" />
		<tag k="natural" v="valley" />
		<tag k="place" v="locality" />
		<tag k="ssr:stedsnr" v="280114" />
	</node>
	<node lat="60.00885832897825" lon="5.50162222104578" id="-69371">
		<tag k="name" v="Londo" />
		<tag k="natural" v="valley" />
		<tag k="place" v="locality" />
		<tag k="ssr:stedsnr" v="280144" />
	</node>
	<node lat="60.058922225317886" lon="5.645191658067574" id="-69372">
		<tag k="name" v="Svidhaugen" />
		<tag k="natural" v="hill" />
		<tag k="place" v="locality" />
		<tag k="ssr:stedsnr" v="280182" />
	</node>
	<node lat="60.04730555647052" lon="5.612444452953521" id="-69373">
		<tag k="fixme" v="consider natural=peak for the most distinct mountains in the district" />
		<tag k="name" v="Humleviksnutane" />
		<tag k="natural" v="hill" />
		<tag k="place" v="locality" />
		<tag k="ssr:stedsnr" v="280186" />
	</node>
	<node lat="59.987466662841136" lon="5.634319451445437" id="-69374">
		<tag k="fixme" v="consider natural=peak for the most distinct mountains in the district" />
		<tag k="name" v="Geitanipa" />
		<tag k="natural" v="hill" />
		<tag k="place" v="locality" />
		<tag k="ssr:stedsnr" v="280194" />
	</node>
	<node lat="59.989925002984805" lon="5.631299991603949" id="-69375">
		<tag k="name" v="Illskardet" />
		<tag k="natural" v="valley" />
		<tag k="place" v="locality" />
		<tag k="ssr:stedsnr" v="280201" />
	</node>
	<node lat="60.010902777335886" lon="5.488802785543809" id="-69376">
		<tag k="fixme" v="consider natural=peak for the most distinct mountains in the district" />
		<tag k="name" v="Vindåsen" />
		<tag k="natural" v="hill" />
		<tag k="place" v="locality" />
		<tag k="ssr:stedsnr" v="280311" />
	</node>
	<node lat="59.88236944444797" lon="5.596436109449806" id="-69377">
		<tag k="fixme" v="consider natural=peak for the most distinct mountains in the district" />
		<tag k="name" v="Paddeborga" />
		<tag k="natural" v="hill" />
		<tag k="place" v="locality" />
		<tag k="ssr:stedsnr" v="280247" />
	</node>
	<node lat="59.998355558885905" lon="5.487983339289243" id="-69378">
		<tag k="name" v="Svida" />
		<tag k="natural" v="hill" />
		<tag k="place" v="locality" />
		<tag k="ssr:stedsnr" v="280290" />
	</node>
	<node lat="60.010883329097325" lon="5.481713888232646" id="-69379">
		<tag k="name" v="Naustdalen" />
		<tag k="natural" v="valley" />
		<tag k="place" v="locality" />
		<tag k="ssr:stedsnr" v="280301" />
	</node>
	<node lat="59.96312778138714" lon="5.531694452868757" id="-69388">
		<tag k="name" v="Mjølkevikhaugen" />
		<tag k="natural" v="hill" />
		<tag k="place" v="locality" />
		<tag k="ssr:stedsnr" v="280811" />
	</node>
	<node lat="60.05018055805169" lon="5.698383328058465" id="-69389">
		<tag k="name" v="Kalvatrædhaugen" />
		<tag k="natural" v="hill" />
		<tag k="place" v="locality" />
		<tag k="ssr:stedsnr" v="280825" />
	</node>
	<node lat="60.049344448775116" lon="5.586799994779997" id="-69390">
		<tag k="name" v="Storebotnen" />
		<tag k="natural" v="valley" />
		<tag k="place" v="locality" />
		<tag k="ssr:stedsnr" v="280829" />
	</node>
	<node lat="60.05626388787994" lon="5.548969446972172" id="-69408">
		<tag k="fixme" v="consider natural=peak for the most distinct mountains in the district" />
		<tag k="name" v="Grønåsen" />
		<tag k="natural" v="hill" />
		<tag k="place" v="locality" />
		<tag k="ssr:stedsnr" v="308319" />
	</node>
	<node lat="60.014394441965464" lon="5.671605548897496" id="-69411">
		<tag k="alt_name" v="Sandløypeskardet" />
		<tag k="loc_name" v="Sandlaupeskaret" />
		<tag k="name" v="Sandlopeskardet" />
		<tag k="natural" v="valley" />
		<tag k="place" v="locality" />
		<tag k="ssr:stedsnr" v="308652" />
	</node>
	<node lat="59.91154166967385" lon="5.5694805546252395" id="-69414">
		<tag k="name" v="Nordavindskultane" />
		<tag k="natural" v="hill" />
		<tag k="place" v="locality" />
		<tag k="ssr:stedsnr" v="461130" />
	</node>
	<node lat="59.97765277348899" lon="5.5784722167021386" id="-69415">
		<tag k="name" v="Liabruna" />
		<tag k="natural" v="hill" />
		<tag k="place" v="locality" />
		<tag k="ssr:stedsnr" v="461139" />
	</node>
	<node lat="59.9720666707001" lon="5.54244166497393" id="-69416">
		<tag k="name" v="Hetlelia" />
		<tag k="natural" v="slope" />
		<tag k="place" v="locality" />
		<tag k="ssr:stedsnr" v="461145" />
	</node>
	<node lat="60.029511107452336" lon="5.653119437474809" id="-69420">
		<tag k="name" v="Øvrebotnen" />
		<tag k="natural" v="valley" />
		<tag k="place" v="locality" />
		<tag k="ssr:stedsnr" v="340463" />
	</node>
	<node lat="60.04971110942141" lon="5.702388890625605" id="-69422">
		<tag k="name" v="Veslehaugen" />
		<tag k="natural" v="hill" />
		<tag k="place" v="locality" />
		<tag k="ssr:stedsnr" v="340805" />
	</node>
	<node lat="60.05046111209778" lon="5.640452775610087" id="-69423">
		<tag k="fixme" v="consider natural=peak for the most distinct mountains in the district" />
		<tag k="name" v="Åsane" />
		<tag k="natural" v="hill" />
		<tag k="place" v="locality" />
		<tag k="ssr:stedsnr" v="340807" />
	</node>
	<node lat="59.99534444421597" lon="5.426652773140743" id="-69427">
		<tag k="name" v="Sædalen" />
		<tag k="natural" v="valley" />
		<tag k="place" v="locality" />
		<tag k="ssr:stedsnr" v="341204" />
	</node>
	<node lat="59.984677775399604" lon="5.625774993843629" id="-69430">
		<tag k="fixme" v="consider natural=peak for the most distinct mountains in the district" />
		<tag k="name" v="Nipen" />
		<tag k="natural" v="hill" />
		<tag k="place" v="locality" />
		<tag k="ssr:stedsnr" v="341275" />
	</node>
	<node lat="59.9612361146492" lon="5.609380547583463" id="-69431">
		<tag k="fixme" v="consider natural=peak for the most distinct mountains in the district" />
		<tag k="name" v="Vassåsen" />
		<tag k="natural" v="hill" />
		<tag k="place" v="locality" />
		<tag k="ssr:stedsnr" v="341323" />
	</node>
	<node lat="59.97905832999044" lon="5.616527779674519" id="-69432">
		<tag k="name" v="Botnahaugen" />
		<tag k="natural" v="hill" />
		<tag k="place" v="locality" />
		<tag k="ssr:stedsnr" v="341325" />
	</node>
	<node lat="60.05136944143151" lon="5.358291658166178" id="-69440">
		<tag k="name" v="Beitehola" />
		<tag k="natural" v="valley" />
		<tag k="place" v="locality" />
		<tag k="ssr:stedsnr" v="462192" />
	</node>
	<node lat="59.98916944628405" lon="5.666347229226286" id="-69441">
		<tag k="fixme" v="consider natural=peak for the most distinct mountains in the district" />
		<tag k="name" v="Ospelundsfjellet" />
		<tag k="natural" v="hill" />
		<tag k="place" v="locality" />
		<tag k="ssr:stedsnr" v="462197" />
	</node>
	<node lat="60.0469083362447" lon="5.597855552097078" id="-69442">
		<tag k="name" v="Ramsen" />
		<tag k="natural" v="ridge" />
		<tag k="place" v="locality" />
		<tag k="ssr:stedsnr" v="462198" />
	</node>
	<node lat="59.99066389140028" lon="5.60020555912907" id="-69443">
		<tag k="fixme" v="consider natural=peak for the most distinct mountains in the district" />
		<tag k="name" v="Åsen" />
		<tag k="natural" v="hill" />
		<tag k="place" v="locality" />
		<tag k="ssr:stedsnr" v="462201" />
	</node>
	<node lat="59.95558055707161" lon="5.487238895301243" id="-69444">
		<tag k="fixme" v="consider natural=peak for the most distinct mountains in the district" />
		<tag k="name" v="Vindåsen" />
		<tag k="natural" v="hill" />
		<tag k="place" v="locality" />
		<tag k="ssr:stedsnr" v="462129" />
	</node>
	<node lat="59.98070555425366" lon="5.664652774987953" id="-69453">
		<tag k="name" v="Sørevikhaugen" />
		<tag k="natural" v="hill" />
		<tag k="place" v="locality" />
		<tag k="ssr:stedsnr" v="462239" />
	</node>
	<node lat="59.95850277449693" lon="5.633761111468312" id="-69454">
		<tag k="name" v="Norddal" />
		<tag k="natural" v="valley" />
		<tag k="place" v="locality" />
		<tag k="ssr:stedsnr" v="462247" />
	</node>
	<node lat="59.963927778807644" lon="5.596730557513115" id="-69455">
		<tag k="name" v="Grønepallen" />
		<tag k="place" v="locality" />
		<tag k="ssr:stedsnr" v="462257" />
	</node>
	<node lat="59.97423055764313" lon="5.615091674549434" id="-69456">
		<tag k="fixme" v="consider natural=peak for the most distinct mountains in the district" />
		<tag k="name" v="Åsane" />
		<tag k="natural" v="hill" />
		<tag k="place" v="locality" />
		<tag k="ssr:stedsnr" v="462264" />
	</node>
	<node lat="60.01528888490088" lon="5.4903416745230444" id="-69457">
		<tag k="name" v="Askilshaug" />
		<tag k="natural" v="hill" />
		<tag k="place" v="locality" />
		<tag k="ssr:stedsnr" v="462332" />
	</node>
	<node lat="60.019997219385075" lon="5.503680561809374" id="-69458">
		<tag k="fixme" v="consider natural=peak for the most distinct mountains in the district" />
		<tag k="name" v="Kyråsen" />
		<tag k="natural" v="hill" />
		<tag k="place" v="locality" />
		<tag k="ssr:stedsnr" v="462334" />
	</node>
	<node lat="59.99730277824018" lon="5.488797225281463" id="-69459">
		<tag k="name" v="Eidadalen" />
		<tag k="natural" v="valley" />
		<tag k="place" v="locality" />
		<tag k="ssr:stedsnr" v="462295" />
	</node>
	<node lat="59.94659722547152" lon="5.583780562038027" id="-69460">
		<tag k="name" v="Sæterdalen" />
		<tag k="natural" v="valley" />
		<tag k="place" v="locality" />
		<tag k="ssr:stedsnr" v="462340" />
	</node>
	<node lat="59.95603889242989" lon="5.573905563712263" id="-69461">
		<tag k="name" v="Svidhaugen" />
		<tag k="natural" v="hill" />
		<tag k="place" v="locality" />
		<tag k="ssr:stedsnr" v="462351" />
	</node>
	<node lat="60.04873333519117" lon="5.6657000085688765" id="-69469">
		<tag k="name" v="Øklandslia" />
		<tag k="natural" v="slope" />
		<tag k="place" v="locality" />
		<tag k="ssr:stedsnr" v="462494" />
	</node>
	<node lat="59.968411113501084" lon="5.619655555153298" id="-69478">
		<tag k="fixme" v="consider natural=peak for the most distinct mountains in the district" />
		<tag k="name" v="Eikåsen" />
		<tag k="natural" v="hill" />
		<tag k="place" v="locality" />
		<tag k="ssr:stedsnr" v="462830" />
	</node>
	<node lat="60.0567555523706" lon="5.368844439290714" id="-69482">
		<tag k="name" v="Aksla" />
		<tag k="natural" v="ridge" />
		<tag k="place" v="locality" />
		<tag k="ssr:stedsnr" v="463190" />
	</node>
	<node lat="60.026961112655094" lon="5.382877770224744" id="-69483">
		<tag k="name" v="Skardhaugen" />
		<tag k="natural" v="hill" />
		<tag k="place" v="locality" />
		<tag k="ssr:stedsnr" v="463194" />
	</node>
	<node lat="60.044341665434715" lon="5.432244444250478" id="-69484">
		<tag k="fixme" v="consider natural=peak for the most distinct mountains in the district" />
		<tag k="name" v="Raftåsen" />
		<tag k="natural" v="hill" />
		<tag k="place" v="locality" />
		<tag k="ssr:stedsnr" v="463132" />
	</node>
	<node lat="60.07262165867815" lon="5.3963271638036066" id="-69485">
		<tag k="name" v="Nordre Trædshaugen" />
		<tag k="natural" v="hill" />
		<tag k="place" v="locality" />
		<tag k="ssr:stedsnr" v="463144" />
	</node>
	<node lat="60.08168611183395" lon="5.36394999373576" id="-69486">
		<tag k="name" v="Sædalen" />
		<tag k="natural" v="valley" />
		<tag k="place" v="locality" />
		<tag k="ssr:stedsnr" v="463147" />
	</node>
	<node lat="59.956366669914146" lon="5.470019450028032" id="-69487">
		<tag k="name" v="Tverrdalen" />
		<tag k="natural" v="valley" />
		<tag k="place" v="locality" />
		<tag k="ssr:stedsnr" v="463161" />
	</node>
	<node lat="59.97965277538508" lon="5.462083328355278" id="-69491">
		<tag k="name" v="Kvernadalen" />
		<tag k="natural" v="valley" />
		<tag k="place" v="locality" />
		<tag k="ssr:stedsnr" v="368187" />
	</node>
	<node lat="59.97968055735304" lon="5.39936388506356" id="-69492">
		<tag k="name" v="Kjerringhaugen" />
		<tag k="natural" v="hill" />
		<tag k="place" v="locality" />
		<tag k="ssr:stedsnr" v="368195" />
	</node>
	<node lat="60.025438887172086" lon="5.547374996231576" id="-69498">
		<tag k="fixme" v="consider natural=peak for the most distinct mountains in the district" />
		<tag k="name" v="Ilefjellet" />
		<tag k="natural" v="hill" />
		<tag k="place" v="locality" />
		<tag k="ssr:stedsnr" v="368691" />
	</node>
	<node lat="59.91321388789435" lon="5.544444445778459" id="-69508">
		<tag k="name" v="Vasslia" />
		<tag k="natural" v="slope" />
		<tag k="place" v="locality" />
		<tag k="ssr:stedsnr" v="401142" />
	</node>
	<node lat="59.976422220191296" lon="5.48482777011778" id="-69511">
		<tag k="fixme" v="consider natural=peak for the most distinct mountains in the district" />
		<tag k="name" v="Åsane" />
		<tag k="natural" v="hill" />
		<tag k="place" v="locality" />
		<tag k="ssr:stedsnr" v="401146" />
	</node>
	<node lat="59.90724999935235" lon="5.568597214154248" id="-69512">
		<tag k="name" v="Erikjuvet" />
		<tag k="natural" v="gorge" />
		<tag k="ssr:stedsnr" v="401148" />
	</node>
	<node lat="59.97251388555429" lon="5.515758325672738" id="-69513">
		<tag k="fixme" v="consider natural=peak for the most distinct mountains in the district" />
		<tag k="name" v="Troåsen" />
		<tag k="natural" v="hill" />
		<tag k="place" v="locality" />
		<tag k="ssr:stedsnr" v="401150" />
	</node>
	<node lat="59.98167777982361" lon="5.577738891987084" id="-69514">
		<tag k="name" v="Søre Kløvhaug" />
		<tag k="natural" v="hill" />
		<tag k="place" v="locality" />
		<tag k="ssr:stedsnr" v="401154" />
	</node>
	<node lat="60.002158329388784" lon="5.57565277493243" id="-69515">
		<tag k="name" v="Kinningehovda" />
		<tag k="natural" v="hill" />
		<tag k="place" v="locality" />
		<tag k="ssr:stedsnr" v="401305" />
	</node>
	<node lat="59.99438333108386" lon="5.4919972205415695" id="-69516">
		<tag k="name" v="Uførehaugen" />
		<tag k="natural" v="hill" />
		<tag k="place" v="locality" />
		<tag k="ssr:stedsnr" v="401309" />
	</node>
	<node lat="59.94451944687019" lon="5.586127780674027" id="-69517">
		<tag k="name" v="Bortnarinda" />
		<tag k="natural" v="ridge" />
		<tag k="place" v="locality" />
		<tag k="ssr:stedsnr" v="401342" />
	</node>
	<node lat="59.945058336465266" lon="5.5916583391744155" id="-69518">
		<tag k="fixme" v="consider natural=peak for the most distinct mountains in the district" />
		<tag k="name" v="Vassåsen" />
		<tag k="natural" v="hill" />
		<tag k="place" v="locality" />
		<tag k="ssr:stedsnr" v="401344" />
	</node>
	<node lat="59.950855552584464" lon="5.558197224344859" id="-69519">
		<tag k="name" v="Middagshaugen" />
		<tag k="natural" v="hill" />
		<tag k="place" v="locality" />
		<tag k="ssr:stedsnr" v="401350" />
	</node>
	<node lat="59.99641666504874" lon="5.6045777692497225" id="-69523">
		<tag k="name" v="Martehaug" />
		<tag k="natural" v="hill" />
		<tag k="place" v="locality" />
		<tag k="ssr:stedsnr" v="401247" />
	</node>
	<node lat="60.00979166250675" lon="5.65624445351101" id="-69524">
		<tag k="name" v="Etlånde" />
		<tag k="place" v="locality" />
		<tag k="ssr:stedsnr" v="401251" />
	</node>
	<node lat="59.98601666316398" lon="5.581113891934603" id="-69525">
		<tag k="name" v="Vasslia" />
		<tag k="natural" v="slope" />
		<tag k="place" v="locality" />
		<tag k="ssr:stedsnr" v="401290" />
	</node>
	<node lat="60.022316671282404" lon="5.622608338662832" id="-69536">
		<tag k="name" v="Veslasåta" />
		<tag k="natural" v="hill" />
		<tag k="place" v="locality" />
		<tag k="ssr:stedsnr" v="401791" />
	</node>
	<node lat="60.028138885162065" lon="5.402522216427162" id="-69542">
		<tag k="name" v="Slettaskardet" />
		<tag k="natural" v="hill" />
		<tag k="place" v="locality" />
		<tag k="ssr:stedsnr" v="402148" />
	</node>
	<node lat="60.0287583326481" lon="5.397305564147707" id="-69543">
		<tag k="name" v="Botnane" />
		<tag k="natural" v="valley" />
		<tag k="place" v="locality" />
		<tag k="ssr:stedsnr" v="402149" />
	</node>
	<node lat="60.0366472204224" lon="5.417674997113906" id="-69544">
		<tag k="name" v="Smådalen" />
		<tag k="natural" v="valley" />
		<tag k="place" v="locality" />
		<tag k="ssr:stedsnr" v="402150" />
	</node>
	<node lat="59.90711944836681" lon="5.539250003062525" id="-69545">
		<tag k="fixme" v="consider natural=peak for the most distinct mountains in the district" />
		<tag k="name" v="Skorsnipa" />
		<tag k="natural" v="hill" />
		<tag k="place" v="locality" />
		<tag k="ssr:stedsnr" v="402189" />
	</node>
	<node lat="60.01482499643517" lon="5.677450007420003" id="-69559">
		<tag k="fixme" v="consider natural=peak for the most distinct mountains in the district" />
		<tag k="name" v="Hovlandsnuten" />
		<tag k="natural" v="hill" />
		<tag k="place" v="locality" />
		<tag k="ssr:stedsnr" v="429666" />
	</node>
	<node lat="59.9235500028065" lon="5.682636110945285" id="-69561">
		<tag k="name" v="Storhaugen" />
		<tag k="natural" v="hill" />
		<tag k="place" v="locality" />
		<tag k="ssr:stedsnr" v="429683" />
	</node>
	<node lat="60.01150277342023" lon="5.413566669347803" id="-69564">
		<tag k="fixme" v="consider natural=peak for the most distinct mountains in the district" />
		<tag k="name" v="Kjøkkelåsen" />
		<tag k="natural" v="hill" />
		<tag k="place" v="locality" />
		<tag k="ssr:stedsnr" v="430213" />
	</node>
	<node lat="60.063891664396344" lon="5.671127778636081" id="-69565">
		<tag k="name" v="Storhaug" />
		<tag k="natural" v="hill" />
		<tag k="place" v="locality" />
		<tag k="ssr:stedsnr" v="430262" />
	</node>
	<node lat="59.99338332964185" lon="5.664588895415976" id="-69571">
		<tag k="name" v="Øvrevågsbrekka" />
		<tag k="natural" v="slope" />
		<tag k="place" v="locality" />
		<tag k="ssr:stedsnr" v="462210" />
	</node>
	<node lat="59.98873055665063" lon="5.628886118957144" id="-69572">
		<tag k="name" v="Gjeldskardsrindane" />
		<tag k="natural" v="ridge" />
		<tag k="place" v="locality" />
		<tag k="ssr:stedsnr" v="462214" />
	</node>
	<node lat="59.99316388983377" lon="5.604686111449715" id="-69573">
		<tag k="name" v="Skifteshaug" />
		<tag k="natural" v="hill" />
		<tag k="place" v="locality" />
		<tag k="ssr:stedsnr" v="462215" />
	</node>
	<node lat="60.01667222038589" lon="5.686352774758349" id="-69574">
		<tag k="name" v="Galtakleivhaugen" />
		<tag k="natural" v="hill" />
		<tag k="place" v="locality" />
		<tag k="ssr:stedsnr" v="462218" />
	</node>
	<node lat="59.963213892275235" lon="5.582758329905027" id="-69579">
		<tag k="name" v="Terhovda" />
		<tag k="natural" v="hill" />
		<tag k="place" v="locality" />
		<tag k="ssr:stedsnr" v="462126" />
	</node>
	<node lat="60.02617500171164" lon="5.359480552461616" id="-69580">
		<tag k="name" v="Sæterskardet" />
		<tag k="natural" v="hill" />
		<tag k="place" v="locality" />
		<tag k="ssr:stedsnr" v="462188" />
	</node>
	<node lat="59.99548055901101" lon="5.556413893204129" id="-69581">
		<tag k="name" v="Kulthaug" />
		<tag k="natural" v="hill" />
		<tag k="place" v="locality" />
		<tag k="ssr:stedsnr" v="462304" />
	</node>
	<node lat="59.98813611312456" lon="5.50329722570469" id="-69582">
		<tag k="fixme" v="consider natural=peak for the most distinct mountains in the district" />
		<tag k="name" v="Grønåsen" />
		<tag k="natural" v="hill" />
		<tag k="place" v="locality" />
		<tag k="ssr:stedsnr" v="462307" />
	</node>
	<node lat="60.03443888984747" lon="5.543186109349459" id="-69583">
		<tag k="name" v="Kleiva" />
		<tag k="natural" v="ridge" />
		<tag k="place" v="locality" />
		<tag k="ssr:stedsnr" v="462268" />
	</node>
	<node lat="60.03564999592751" lon="5.595138885196057" id="-69589">
		<tag k="name" v="Sætralia" />
		<tag k="natural" v="slope" />
		<tag k="place" v="locality" />
		<tag k="ssr:stedsnr" v="462482" />
	</node>
	<node lat="60.07245277786452" lon="5.672852774123135" id="-69590">
		<tag k="name" v="Dalen" />
		<tag k="natural" v="valley" />
		<tag k="place" v="locality" />
		<tag k="ssr:stedsnr" v="462488" />
	</node>
	<node lat="60.07380833169534" lon="5.660877771897238" id="-69591">
		<tag k="name" v="Raudeberga" />
		<tag k="natural" v="hill" />
		<tag k="place" v="locality" />
		<tag k="ssr:stedsnr" v="462491" />
	</node>
	<node lat="60.03956110755967" lon="5.611613889576899" id="-69594">
		<tag k="name" v="Bjørndalen" />
		<tag k="natural" v="valley" />
		<tag k="place" v="locality" />
		<tag k="ssr:stedsnr" v="462505" />
	</node>
	<node lat="60.0644888920939" lon="5.370152779723176" id="-69603">
		<tag k="name" v="Rishaugane" />
		<tag k="natural" v="hill" />
		<tag k="place" v="locality" />
		<tag k="ssr:stedsnr" v="463174" />
	</node>
	<node lat="59.98494166838014" lon="5.647575003723718" id="-69610">
		<tag k="alt_name" v="Skardsnipa" />
		<tag k="fixme" v="consider natural=peak for the most distinct mountains in the district" />
		<tag k="name" v="Skardnipa" />
		<tag k="natural" v="hill" />
		<tag k="place" v="locality" />
		<tag k="ssr:stedsnr" v="489708" />
	</node>
	<node lat="60.05710277742695" lon="5.3975777785606045" id="-69617">
		<tag k="fixme" v="consider natural=peak for the most distinct mountains in the district" />
		<tag k="name" v="Bjørnakletten" />
		<tag k="natural" v="hill" />
		<tag k="place" v="locality" />
		<tag k="ssr:stedsnr" v="490159" />
	</node>
	<node lat="60.001324998937115" lon="5.682394451139166" id="-69620">
		<tag k="name" v="Gjøfjell" />
		<tag k="natural" v="hill" />
		<tag k="place" v="locality" />
		<tag k="ssr:stedsnr" v="490704" />
	</node>
	<node lat="60.00410555892112" lon="5.678419442405247" id="-69621">
		<tag k="name" v="Sjonarhaug" />
		<tag k="natural" v="hill" />
		<tag k="place" v="locality" />
		<tag k="ssr:stedsnr" v="490710" />
	</node>
	<node lat="60.07979166332627" lon="5.380852771920551" id="-69622">
		<tag k="name" v="Stabbehaugen" />
		<tag k="natural" v="hill" />
		<tag k="place" v="locality" />
		<tag k="ssr:stedsnr" v="490903" />
	</node>
	<node lat="60.0222166630944" lon="5.634836119970953" id="-69624">
		<tag k="name" v="Dalen" />
		<tag k="natural" v="valley" />
		<tag k="place" v="locality" />
		<tag k="ssr:stedsnr" v="490641" />
	</node>
	<node lat="60.02329999728432" lon="5.501161103288784" id="-69625">
		<tag k="fixme" v="consider natural=peak for the most distinct mountains in the district" />
		<tag k="name" v="Smørkollen" />
		<tag k="natural" v="hill" />
		<tag k="place" v="locality" />
		<tag k="ssr:stedsnr" v="490655" />
	</node>
	<node lat="60.00676666982725" lon="5.608155547399388" id="-69646">
		<tag k="name" v="Skjoldeliane" />
		<tag k="natural" v="slope" />
		<tag k="place" v="locality" />
		<tag k="ssr:stedsnr" v="672637" />
	</node>
	<node lat="60.01621944372762" lon="5.511155554437031" id="-69650">
		<tag k="name" v="Horga" />
		<tag k="natural" v="hill" />
		<tag k="place" v="locality" />
		<tag k="ssr:stedsnr" v="672601" />
	</node>
	<node lat="60.01979166667442" lon="5.3479861063913035" id="-69657">
		<tag k="name" v="Ramnagjo" />
		<tag k="natural" v="hill" />
		<tag k="place" v="locality" />
		<tag k="ssr:stedsnr" v="522822" />
	</node>
	<node lat="60.01243888483748" lon="5.412925005793366" id="-69664">
		<tag k="name" v="Sevdalen" />
		<tag k="natural" v="valley" />
		<tag k="place" v="locality" />
		<tag k="ssr:stedsnr" v="523217" />
	</node>
	<node lat="59.95004999834576" lon="5.585152770654462" id="-69666">
		<tag k="fixme" v="consider natural=peak for the most distinct mountains in the district" />
		<tag k="name" v="Bruna" />
		<tag k="natural" v="hill" />
		<tag k="place" v="locality" />
		<tag k="ssr:stedsnr" v="523416" />
	</node>
	<node lat="59.94321944601799" lon="5.522702785429501" id="-69667">
		<tag k="name" v="Vassnaustedalen" />
		<tag k="natural" v="valley" />
		<tag k="place" v="locality" />
		<tag k="ssr:stedsnr" v="523431" />
	</node>
	<node lat="59.959036109993875" lon="5.553822218879758" id="-69668">
		<tag k="name" v="Brakahaugen" />
		<tag k="natural" v="hill" />
		<tag k="place" v="locality" />
		<tag k="ssr:stedsnr" v="523432" />
	</node>
	<node lat="60.030719443074915" lon="5.6227972200841085" id="-69669">
		<tag k="name" v="Buskardet" />
		<tag k="natural" v="valley" />
		<tag k="place" v="locality" />
		<tag k="ssr:stedsnr" v="523555" />
	</node>
	<node lat="60.02623889320532" lon="5.580549994275723" id="-69683">
		<tag k="fixme" v="consider natural=peak for the most distinct mountains in the district" />
		<tag k="name" v="Svartevassfjellet" />
		<tag k="natural" v="hill" />
		<tag k="place" v="locality" />
		<tag k="ssr:stedsnr" v="550314" />
	</node>
	<node lat="60.05115555321018" lon="5.6650250066052275" id="-69690">
		<tag k="fixme" v="consider natural=peak for the most distinct mountains in the district" />
		<tag k="name" v="Aråsen" />
		<tag k="natural" v="hill" />
		<tag k="place" v="locality" />
		<tag k="ssr:stedsnr" v="551334" />
	</node>
	<node lat="60.032141670156925" lon="5.354744452080692" id="-69698">
		<tag k="fixme" v="consider natural=peak for the most distinct mountains in the district" />
		<tag k="name" v="Matdalsfjellet" />
		<tag k="natural" v="hill" />
		<tag k="place" v="locality" />
		<tag k="ssr:stedsnr" v="583206" />
	</node>
	<node lat="59.972738892358514" lon="5.4051722158142415" id="-69699">
		<tag k="name" v="Laberget" />
		<tag k="natural" v="hill" />
		<tag k="place" v="locality" />
		<tag k="ssr:stedsnr" v="583209" />
	</node>
	<node lat="59.99250278025162" lon="5.558025006701096" id="-69703">
		<tag k="fixme" v="consider natural=peak for the most distinct mountains in the district" />
		<tag k="name" v="Øyjordsfjellet" />
		<tag k="natural" v="hill" />
		<tag k="place" v="locality" />
		<tag k="ssr:stedsnr" v="583303" />
	</node>
	<node lat="59.94489166278102" lon="5.59338610737018" id="-69704">
		<tag k="fixme" v="consider natural=peak for the most distinct mountains in the district" />
		<tag k="name" v="Stemmevassåsen" />
		<tag k="natural" v="hill" />
		<tag k="place" v="locality" />
		<tag k="ssr:stedsnr" v="583356" />
	</node>
	<node lat="59.949774996245154" lon="5.581277779757407" id="-69705">
		<tag k="name" v="Gaupefella" />
		<tag k="place" v="locality" />
		<tag k="ssr:stedsnr" v="583361" />
	</node>
	<node lat="59.95623611393546" lon="5.567958327071463" id="-69706">
		<tag k="name" v="Stølshaugen" />
		<tag k="natural" v="hill" />
		<tag k="place" v="locality" />
		<tag k="ssr:stedsnr" v="583367" />
	</node>
	<node lat="59.95304444308742" lon="5.5431861096438375" id="-69707">
		<tag k="name" v="Liane" />
		<tag k="natural" v="slope" />
		<tag k="place" v="locality" />
		<tag k="ssr:stedsnr" v="583369" />
	</node>
	<node lat="60.01799166600665" lon="5.674091667387999" id="-69711">
		<tag k="name" v="Nordre Dyrshillar" />
		<tag k="natural" v="ridge" />
		<tag k="place" v="locality" />
		<tag k="ssr:stedsnr" v="583249" />
	</node>
	<node lat="60.02042500166512" lon="5.695233340011877" id="-69712">
		<tag k="name" v="Lambskora" />
		<tag k="place" v="locality" />
		<tag k="ssr:stedsnr" v="583252" />
	</node>
	<node lat="60.01641111153018" lon="5.632269444930933" id="-69713">
		<tag k="name" v="Lonene" />
		<tag k="natural" v="gorge" />
		<tag k="ssr:stedsnr" v="583261" />
	</node>
	<node lat="59.98148888779808" lon="5.518319437930332" id="-69719">
		<tag k="name" v="Storhaug" />
		<tag k="natural" v="hill" />
		<tag k="place" v="locality" />
		<tag k="ssr:stedsnr" v="583808" />
	</node>
	<node lat="59.95513332902373" lon="5.562841660943194" id="-69720">
		<tag k="name" v="Einsletta" />
		<tag k="place" v="locality" />
		<tag k="ssr:stedsnr" v="583813" />
	</node>
	<node lat="60.05631944574735" lon="5.652072220565141" id="-69721">
		<tag k="name" v="Vassbakken" />
		<tag k="natural" v="slope" />
		<tag k="place" v="locality" />
		<tag k="ssr:stedsnr" v="583824" />
	</node>
	<node lat="59.993966667601946" lon="5.364644447416862" id="-69724">
		<tag k="name" v="Bårdhaugen" />
		<tag k="natural" v="hill" />
		<tag k="place" v="locality" />
		<tag k="ssr:stedsnr" v="584208" />
	</node>
	<node lat="60.062733329652175" lon="5.377258326996523" id="-69725">
		<tag k="fixme" v="consider natural=peak for the most distinct mountains in the district" />
		<tag k="name" v="Veslekolåsen" />
		<tag k="natural" v="hill" />
		<tag k="place" v="locality" />
		<tag k="ssr:stedsnr" v="584226" />
	</node>
	<node lat="60.024775001774046" lon="5.4251277744508775" id="-69726">
		<tag k="fixme" v="consider natural=peak for the most distinct mountains in the district" />
		<tag k="name" v="Storåsen" />
		<tag k="natural" v="hill" />
		<tag k="place" v="locality" />
		<tag k="ssr:stedsnr" v="584154" />
	</node>
	<node lat="59.953652780327005" lon="5.456219441255916" id="-69727">
		<tag k="name" v="Skavhella" />
		<tag k="natural" v="hill" />
		<tag k="place" v="locality" />
		<tag k="ssr:stedsnr" v="584198" />
	</node>
	<node lat="59.89276944088696" lon="5.606866672772381" id="-69735">
		<tag k="name" v="Bjørkedalsrindane" />
		<tag k="natural" v="hill" />
		<tag k="place" v="locality" />
		<tag k="ssr:stedsnr" v="610307" />
	</node>
	<node lat="60.062302778765606" lon="5.365705557563089" id="-69766">
		<tag k="name" v="Heia" />
		<tag k="natural" v="hill" />
		<tag k="place" v="locality" />
		<tag k="ssr:stedsnr" v="644117" />
	</node>
	<node lat="59.96335277879943" lon="5.554305561747812" id="-69768">
		<tag k="fixme" v="consider natural=peak for the most distinct mountains in the district" />
		<tag k="name" v="Furåsen" />
		<tag k="natural" v="hill" />
		<tag k="place" v="locality" />
		<tag k="ssr:stedsnr" v="644132" />
	</node>
	<node lat="59.979997218354455" lon="5.546319435939836" id="-69770">
		<tag k="name" v="Langalia" />
		<tag k="natural" v="slope" />
		<tag k="place" v="locality" />
		<tag k="ssr:stedsnr" v="644140" />
	</node>
	<node lat="60.025391666345115" lon="5.416952784515546" id="-69771">
		<tag k="name" v="Vasshaugane" />
		<tag k="natural" v="hill" />
		<tag k="place" v="locality" />
		<tag k="ssr:stedsnr" v="644143" />
	</node>
	<node lat="60.031483333394974" lon="5.42079444975987" id="-69772">
		<tag k="fixme" v="consider natural=peak for the most distinct mountains in the district" />
		<tag k="name" v="Snauafjellet" />
		<tag k="natural" v="hill" />
		<tag k="place" v="locality" />
		<tag k="ssr:stedsnr" v="644152" />
	</node>
	<node lat="60.015855557848305" lon="5.561716658005041" id="-69775">
		<tag k="name" v="Kinningekleiva" />
		<tag k="natural" v="hill" />
		<tag k="place" v="locality" />
		<tag k="ssr:stedsnr" v="644209" />
	</node>
	<node lat="60.045983331506136" lon="5.6469444457745785" id="-69776">
		<tag k="name" v="Esjedalane" />
		<tag k="natural" v="valley" />
		<tag k="place" v="locality" />
		<tag k="ssr:stedsnr" v="644538" />
	</node>
	<node lat="60.050108334449355" lon="5.680016666062219" id="-69777">
		<tag k="name" v="Kanniken" />
		<tag k="place" v="locality" />
		<tag k="ssr:stedsnr" v="644542" />
	</node>
	<node lat="60.00464444198059" lon="5.568225008704832" id="-69778">
		<tag k="name" v="Jonsstilledalen" />
		<tag k="natural" v="valley" />
		<tag k="place" v="locality" />
		<tag k="ssr:stedsnr" v="644335" />
	</node>
	<node lat="59.97261667050526" lon="5.435077783617611" id="-69793">
		<tag k="fixme" v="consider natural=peak for the most distinct mountains in the district" />
		<tag k="name" v="Liafjellet" />
		<tag k="natural" v="hill" />
		<tag k="place" v="locality" />
		<tag k="ssr:stedsnr" v="671180" />
	</node>
	<node lat="60.059919447484404" lon="5.372011103505487" id="-69802">
		<tag k="name" v="Haukhammaren" />
		<tag k="natural" v="hill" />
		<tag k="place" v="locality" />
		<tag k="ssr:stedsnr" v="672142" />
	</node>
	<node lat="60.05465277448887" lon="5.3904555480962735" id="-69803">
		<tag k="name" v="Rennedalen" />
		<tag k="natural" v="valley" />
		<tag k="place" v="locality" />
		<tag k="ssr:stedsnr" v="672144" />
	</node>
	<node lat="60.043349998091614" lon="5.643211105817705" id="-69806">
		<tag k="name" v="Hovda" />
		<tag k="natural" v="hill" />
		<tag k="place" v="locality" />
		<tag k="ssr:stedsnr" v="672285" />
	</node>
	<node lat="60.03009444436879" lon="5.474900006133627" id="-69807">
		<tag k="fixme" v="consider natural=peak for the most distinct mountains in the district" />
		<tag k="name" v="Skotåsen" />
		<tag k="natural" v="hill" />
		<tag k="place" v="locality" />
		<tag k="ssr:stedsnr" v="672288" />
	</node>
	<node lat="60.02267500159801" lon="5.529902771155888" id="-69810">
		<tag k="name" v="Nålarhaugen" />
		<tag k="natural" v="hill" />
		<tag k="place" v="locality" />
		<tag k="ssr:stedsnr" v="672621" />
	</node>
	<node lat="59.96840555289222" lon="5.545494444031278" id="-69816">
		<tag k="name" v="Hellehaugen" />
		<tag k="natural" v="hill" />
		<tag k="place" v="locality" />
		<tag k="ssr:stedsnr" v="886127" />
	</node>
	<node lat="59.96926449571708" lon="5.536447717763869" id="-69817">
		<tag k="fixme" v="consider natural=peak for the most distinct mountains in the district" />
		<tag k="name" v="Husafjellet" />
		<tag k="natural" v="hill" />
		<tag k="place" v="locality" />
		<tag k="ssr:stedsnr" v="886128" />
	</node>
	<node lat="59.90933333712121" lon="5.57335832866984" id="-69818">
		<tag k="name" v="Brunene" />
		<tag k="natural" v="hill" />
		<tag k="place" v="locality" />
		<tag k="ssr:stedsnr" v="704130" />
	</node>
	<node lat="59.97243888489043" lon="5.529994441558907" id="-69819">
		<tag k="name" v="Apaldhaugen" />
		<tag k="natural" v="hill" />
		<tag k="place" v="locality" />
		<tag k="ssr:stedsnr" v="704133" />
	</node>
	<node lat="60.019872220807954" lon="5.5495972299114" id="-69821">
		<tag k="name" v="Hesten" />
		<tag k="natural" v="ridge" />
		<tag k="place" v="locality" />
		<tag k="ssr:stedsnr" v="704805" />
	</node>
	<node lat="59.955552776626" lon="5.47357500351232" id="-69822">
		<tag k="name" v="Lyhaug" />
		<tag k="natural" v="hill" />
		<tag k="place" v="locality" />
		<tag k="ssr:stedsnr" v="705211" />
	</node>
	<node lat="59.95804444707168" lon="5.471099998885545" id="-69823">
		<tag k="name" v="Skotlia" />
		<tag k="natural" v="slope" />
		<tag k="place" v="locality" />
		<tag k="ssr:stedsnr" v="705212" />
	</node>
	<node lat="59.991261111990454" lon="5.378480547854114" id="-69824">
		<tag k="name" v="Grønehaugen" />
		<tag k="natural" v="hill" />
		<tag k="place" v="locality" />
		<tag k="ssr:stedsnr" v="705216" />
	</node>
	<node lat="60.07458055691223" lon="5.428074999352236" id="-69826">
		<tag k="name" v="Humlehaugen" />
		<tag k="natural" v="hill" />
		<tag k="place" v="locality" />
		<tag k="ssr:stedsnr" v="705192" />
	</node>
	<node lat="60.07899166622688" lon="5.431155552317511" id="-69828">
		<tag k="fixme" v="consider natural=peak for the most distinct mountains in the district" />
		<tag k="name" v="Rindåsen" />
		<tag k="natural" v="hill" />
		<tag k="place" v="locality" />
		<tag k="ssr:stedsnr" v="705194" />
	</node>
	<node lat="60.020644443349525" lon="5.663991668992936" id="-69830">
		<tag k="name" v="Vasstølsflaten" />
		<tag k="place" v="locality" />
		<tag k="ssr:stedsnr" v="705310" />
	</node>
	<node lat="59.936575000241675" lon="5.605977780726461" id="-69831">
		<tag k="name" v="Veslekamben" />
		<tag k="natural" v="ridge" />
		<tag k="place" v="locality" />
		<tag k="ssr:stedsnr" v="705335" />
	</node>
	<node lat="60.01857499996321" lon="5.488583326213205" id="-69832">
		<tag k="fixme" v="consider natural=peak for the most distinct mountains in the district" />
		<tag k="name" v="Eikås" />
		<tag k="natural" v="hill" />
		<tag k="place" v="locality" />
		<tag k="ssr:stedsnr" v="705387" />
	</node>
	<node lat="59.9887472240911" lon="5.467694435282022" id="-69845">
		<tag k="name" v="Lyberget" />
		<tag k="natural" v="hill" />
		<tag k="place" v="locality" />
		<tag k="ssr:stedsnr" v="887219" />
	</node>
	<node lat="60.02870555232513" lon="5.443963896995797" id="-69852">
		<tag k="name" v="Gjellandshella" />
		<tag k="natural" v="hill" />
		<tag k="place" v="locality" />
		<tag k="ssr:stedsnr" v="887169" />
	</node>
	<node lat="60.07091111243335" lon="5.399486101984415" id="-69855">
		<tag k="name" v="Søre Trædshaugen" />
		<tag k="natural" v="hill" />
		<tag k="place" v="locality" />
		<tag k="ssr:stedsnr" v="887174" />
	</node>
	<node lat="60.07457221972935" lon="5.680922227803532" id="-69856">
		<tag k="name" v="Slokjeldehalla" />
		<tag k="natural" v="slope" />
		<tag k="place" v="locality" />
		<tag k="ssr:stedsnr" v="887197" />
	</node>
	<node lat="59.99351667060623" lon="5.594238884215588" id="-69857">
		<tag k="name" v="Brekkestorhaug" />
		<tag k="natural" v="hill" />
		<tag k="place" v="locality" />
		<tag k="ssr:stedsnr" v="887266" />
	</node>
	<node lat="60.048102781303925" lon="5.635752770150776" id="-69858">
		<tag k="name" v="Smalakleivhaugen" />
		<tag k="natural" v="hill" />
		<tag k="place" v="locality" />
		<tag k="ssr:stedsnr" v="887239" />
	</node>
	<node lat="60.002372221437135" lon="5.658927782023181" id="-69859">
		<tag k="name" v="Gjengskøytet" />
		<tag k="place" v="locality" />
		<tag k="ssr:stedsnr" v="887245" />
	</node>
	<node lat="59.90562222527455" lon="5.5996472170688385" id="-69860">
		<tag k="name" v="Hetlelia" />
		<tag k="natural" v="slope" />
		<tag k="place" v="locality" />
		<tag k="ssr:stedsnr" v="887296" />
	</node>
	<node lat="60.02106944886398" lon="5.533044451965679" id="-69861">
		<tag k="name" v="Fuglarhaug" />
		<tag k="natural" v="hill" />
		<tag k="place" v="locality" />
		<tag k="ssr:stedsnr" v="887356" />
	</node>
	<node lat="60.0177500000778" lon="5.546322217855257" id="-69862">
		<tag k="name" v="Torkjelshaug" />
		<tag k="natural" v="hill" />
		<tag k="place" v="locality" />
		<tag k="ssr:stedsnr" v="887328" />
	</node>
	<node lat="60.01935277577392" lon="5.563286108098534" id="-69863">
		<tag k="name" v="Tverrlia" />
		<tag k="natural" v="slope" />
		<tag k="place" v="locality" />
		<tag k="ssr:stedsnr" v="887330" />
	</node>
	<node lat="60.00736944400823" lon="5.565980549350837" id="-69864">
		<tag k="name" v="Øykjastigane" />
		<tag k="natural" v="slope" />
		<tag k="place" v="locality" />
		<tag k="ssr:stedsnr" v="887333" />
	</node>
	<node lat="60.042608334976435" lon="5.355916664236253" id="-69878">
		<tag k="name" v="Ingebriktshella" />
		<tag k="natural" v="hill" />
		<tag k="place" v="locality" />
		<tag k="ssr:stedsnr" v="887810" />
	</node>
	<node lat="60.051553376263236" lon="5.4270961173139565" id="-69879">
		<tag k="fixme" v="consider natural=peak for the most distinct mountains in the district" />
		<tag k="name" v="Skoråsen" />
		<tag k="natural" v="hill" />
		<tag k="place" v="locality" />
		<tag k="ssr:stedsnr" v="887817" />
	</node>
	<node lat="59.955433331804045" lon="5.454030561251125" id="-69880">
		<tag k="name" v="Svartaberget" />
		<tag k="natural" v="hill" />
		<tag k="place" v="locality" />
		<tag k="ssr:stedsnr" v="887818" />
	</node>
	<node lat="59.97040555241461" lon="5.616449997457031" id="-69881">
		<tag k="fixme" v="consider natural=peak for the most distinct mountains in the district" />
		<tag k="name" v="Kaldåsen" />
		<tag k="natural" v="hill" />
		<tag k="place" v="locality" />
		<tag k="ssr:stedsnr" v="887830" />
	</node>
	<node lat="59.94251832051884" lon="5.622144639756225" id="-69882">
		<tag k="name" v="Stølshaug" />
		<tag k="natural" v="hill" />
		<tag k="place" v="locality" />
		<tag k="ssr:stedsnr" v="887831" />
	</node>
	<node lat="59.9496361103792" lon="5.476824996948974" id="-69888">
		<tag k="fixme" v="consider natural=peak for the most distinct mountains in the district" />
		<tag k="name" v="Havåsen" />
		<tag k="natural" v="hill" />
		<tag k="place" v="locality" />
		<tag k="ssr:stedsnr" v="888159" />
	</node>
	<node lat="60.06028610666615" lon="5.35926943803328" id="-69891">
		<tag k="name" v="Skarvet" />
		<tag k="natural" v="hill" />
		<tag k="place" v="locality" />
		<tag k="ssr:stedsnr" v="888208" />
	</node>
	<node lat="60.04893333200211" lon="5.696427782620849" id="-69894">
		<tag k="alt_name" v="Nonshaug" />
		<tag k="name" v="Nonhaug" />
		<tag k="natural" v="hill" />
		<tag k="place" v="locality" />
		<tag k="ssr:stedsnr" v="732328" />
	</node>
	<node lat="59.97609354912851" lon="5.533930053923354" id="-69898">
		<tag k="fixme" v="consider natural=peak for the most distinct mountains in the district" />
		<tag k="name" v="Slettafjellet" />
		<tag k="natural" v="hill" />
		<tag k="place" v="locality" />
		<tag k="ssr:stedsnr" v="732655" />
	</node>
	<node lat="60.026633334279616" lon="5.614650004629133" id="-69908">
		<tag k="fixme" v="consider natural=peak for the most distinct mountains in the district" />
		<tag k="name" v="Tysnessåta" />
		<tag k="natural" v="hill" />
		<tag k="place" v="locality" />
		<tag k="ssr:stedsnr" v="733614" />
	</node>
	<node lat="60.07246666730758" lon="5.38512777346242" id="-69909">
		<tag k="name" v="Rindalskulten" />
		<tag k="natural" v="hill" />
		<tag k="place" v="locality" />
		<tag k="ssr:stedsnr" v="733905" />
	</node>
	<node lat="59.96971111469565" lon="5.541647226248627" id="-69913">
		<tag k="name" v="Eikehaugen" />
		<tag k="natural" v="hill" />
		<tag k="place" v="locality" />
		<tag k="ssr:stedsnr" v="765148" />
	</node>
	<node lat="59.94759444247036" lon="5.54790555284753" id="-69917">
		<tag k="name" v="Geithaug" />
		<tag k="natural" v="hill" />
		<tag k="place" v="locality" />
		<tag k="ssr:stedsnr" v="765347" />
	</node>
	<node lat="59.9481666682322" lon="5.587361111247314" id="-69918">
		<tag k="name" v="Revabølet" />
		<tag k="natural" v="valley" />
		<tag k="place" v="locality" />
		<tag k="ssr:stedsnr" v="765348" />
	</node>
	<node lat="59.95499166394246" lon="5.569388890736795" id="-69919">
		<tag k="name" v="Seljehaugen" />
		<tag k="natural" v="hill" />
		<tag k="place" v="locality" />
		<tag k="ssr:stedsnr" v="765356" />
	</node>
	<node lat="59.89714722409722" lon="5.591011106629979" id="-69930">
		<tag k="fixme" v="consider natural=peak for the most distinct mountains in the district" />
		<tag k="name" v="Hedda" />
		<tag k="natural" v="hill" />
		<tag k="place" v="locality" />
		<tag k="ssr:stedsnr" v="765751" />
	</node>
	<node lat="60.03152778120131" lon="5.365941671790353" id="-69932">
		<tag k="fixme" v="consider natural=peak for the most distinct mountains in the district" />
		<tag k="name" v="Mjellsfjellskulten" />
		<tag k="natural" v="hill" />
		<tag k="place" v="locality" />
		<tag k="ssr:stedsnr" v="765813" />
	</node>
	<node lat="60.04949999696433" lon="5.5416888853644615" id="-69933">
		<tag k="name" v="Kjerringedalen" />
		<tag k="natural" v="valley" />
		<tag k="place" v="locality" />
		<tag k="ssr:stedsnr" v="765821" />
	</node>
	<node lat="59.99879722237504" lon="5.491297228099314" id="-69934">
		<tag k="name" v="Sauabakkane" />
		<tag k="natural" v="slope" />
		<tag k="place" v="locality" />
		<tag k="ssr:stedsnr" v="765824" />
	</node>
	<node lat="60.05549167057466" lon="5.410605556417138" id="-69940">
		<tag k="name" v="Gathaugen" />
		<tag k="natural" v="hill" />
		<tag k="place" v="locality" />
		<tag k="ssr:stedsnr" v="766211" />
	</node>
	<node lat="59.973797217879714" lon="5.4592972142259875" id="-69941">
		<tag k="name" v="Lyningshaug" />
		<tag k="natural" v="hill" />
		<tag k="place" v="locality" />
		<tag k="ssr:stedsnr" v="766242" />
	</node>
	<node lat="59.97235833673015" lon="5.572705554181144" id="-69947">
		<tag k="fixme" v="consider natural=peak for the most distinct mountains in the district" />
		<tag k="name" v="Hovda" />
		<tag k="natural" v="hill" />
		<tag k="place" v="locality" />
		<tag k="ssr:stedsnr" v="792610" />
	</node>
	<node lat="60.02015000050838" lon="5.5276916662284465" id="-69956">
		<tag k="name" v="Hovda" />
		<tag k="natural" v="hill" />
		<tag k="place" v="locality" />
		<tag k="ssr:stedsnr" v="793659" />
	</node>
	<node lat="60.06045832962056" lon="5.677155549077986" id="-69960">
		<tag k="name" v="Gjersdalen" />
		<tag k="natural" v="valley" />
		<tag k="place" v="locality" />
		<tag k="ssr:stedsnr" v="794321" />
	</node>
	<node lat="60.055711107516885" lon="5.670641663016053" id="-69961">
		<tag k="name" v="Gripneskardet" />
		<tag k="natural" v="valley" />
		<tag k="place" v="locality" />
		<tag k="ssr:stedsnr" v="794322" />
	</node>
	<node lat="60.051855559061984" lon="5.599394452158485" id="-69962">
		<tag k="fixme" v="consider natural=peak for the most distinct mountains in the district" />
		<tag k="name" v="Stølsåsen" />
		<tag k="natural" v="hill" />
		<tag k="place" v="locality" />
		<tag k="ssr:stedsnr" v="794326" />
	</node>
	<node lat="59.97178611109198" lon="5.487288884551292" id="-69966">
		<tag k="name" v="Håvadalen" />
		<tag k="natural" v="valley" />
		<tag k="place" v="locality" />
		<tag k="ssr:stedsnr" v="826159" />
	</node>
	<node lat="59.971874998447845" lon="5.586869440106986" id="-69967">
		<tag k="name" v="Furehaugen" />
		<tag k="natural" v="hill" />
		<tag k="place" v="locality" />
		<tag k="ssr:stedsnr" v="826167" />
	</node>
	<node lat="60.01364444097876" lon="5.592950000326974" id="-69968">
		<tag k="name" v="Skreia" />
		<tag k="natural" v="cliff" />
		<tag k="ssr:stedsnr" v="826290" />
	</node>
	<node lat="60.01612499957488" lon="5.520005547958132" id="-69974">
		<tag k="name" v="Storhaug" />
		<tag k="natural" v="hill" />
		<tag k="place" v="locality" />
		<tag k="ssr:stedsnr" v="826358" />
	</node>
	<node lat="60.03683333033705" lon="5.6444138925776945" id="-69975">
		<tag k="name" v="Sanddalshaugen" />
		<tag k="natural" v="hill" />
		<tag k="place" v="locality" />
		<tag k="ssr:stedsnr" v="826505" />
	</node>
	<node lat="60.057730553731616" lon="5.684102777322654" id="-69976">
		<tag k="fixme" v="consider natural=peak for the most distinct mountains in the district" />
		<tag k="name" v="Varden" />
		<tag k="natural" v="hill" />
		<tag k="place" v="locality" />
		<tag k="ssr:stedsnr" v="826508" />
	</node>
	<node lat="59.958180557518695" lon="5.561680553875979" id="-69978">
		<tag k="name" v="Brundalen" />
		<tag k="natural" v="valley" />
		<tag k="place" v="locality" />
		<tag k="ssr:stedsnr" v="826803" />
	</node>
	<node lat="59.94658889153215" lon="5.467327777478928" id="-69985">
		<tag k="name" v="Sandvikehaugen" />
		<tag k="natural" v="hill" />
		<tag k="place" v="locality" />
		<tag k="ssr:stedsnr" v="827211" />
	</node>
	<node lat="59.95929444765183" lon="5.4770583269601305" id="-69986">
		<tag k="fixme" v="consider natural=peak for the most distinct mountains in the district" />
		<tag k="name" v="Leiteåsen" />
		<tag k="natural" v="hill" />
		<tag k="place" v="locality" />
		<tag k="ssr:stedsnr" v="827216" />
	</node>
	<node lat="59.93665555398384" lon="5.539263884513197" id="-69988">
		<tag k="fixme" v="consider natural=peak for the most distinct mountains in the district" />
		<tag k="name" v="Svartavassåsen" />
		<tag k="natural" v="hill" />
		<tag k="place" v="locality" />
		<tag k="ssr:stedsnr" v="827186" />
	</node>
	<node lat="59.97384167119923" lon="5.4689638904151545" id="-69990">
		<tag k="name" v="Skinet" />
		<tag k="natural" v="hill" />
		<tag k="place" v="locality" />
		<tag k="ssr:stedsnr" v="827279" />
	</node>
	<node lat="60.023619447168805" lon="5.392174993450842" id="-70007">
		<tag k="name" v="Ådnanuten" />
		<tag k="natural" v="hill" />
		<tag k="place" v="locality" />
		<tag k="ssr:stedsnr" v="854212" />
	</node>
	<node lat="60.02891666854026" lon="5.503258336066725" id="-70009">
		<tag k="name" v="Orrhaug" />
		<tag k="natural" v="hill" />
		<tag k="place" v="locality" />
		<tag k="ssr:stedsnr" v="854621" />
	</node>
	<node lat="60.00976666529793" lon="5.6584111140283415" id="-70010">
		<tag k="fixme" v="consider natural=peak for the most distinct mountains in the district" />
		<tag k="name" v="Etlådnefjellet" />
		<tag k="natural" v="hill" />
		<tag k="place" v="locality" />
		<tag k="ssr:stedsnr" v="854627" />
	</node>
	<node lat="60.01080833107135" lon="5.557680550092132" id="-70012">
		<tag k="name" v="Beinhaug" />
		<tag k="natural" v="hill" />
		<tag k="place" v="locality" />
		<tag k="ssr:stedsnr" v="854632" />
	</node>
	<node lat="60.0136277776841" lon="5.359244442468051" id="-70021">
		<tag k="fixme" v="consider natural=peak for the most distinct mountains in the district" />
		<tag k="name" v="Åsen" />
		<tag k="natural" v="hill" />
		<tag k="place" v="locality" />
		<tag k="ssr:stedsnr" v="855612" />
	</node>
	<node lat="59.98382777781833" lon="5.626777773580837" id="-70030">
		<tag k="fixme" v="consider natural=peak for the most distinct mountains in the district" />
		<tag k="name" v="Nipa" />
		<tag k="natural" v="hill" />
		<tag k="place" v="locality" />
		<tag k="ssr:stedsnr" v="914697" />
	</node>
	<node lat="60.03087499897115" lon="5.374838888567131" id="-70036">
		<tag k="alt_name" v="Flygansværbotnen" />
		<tag k="name" v="Flygansværbotn" />
		<tag k="natural" v="valley" />
		<tag k="place" v="locality" />
		<tag k="ssr:stedsnr" v="915222" />
	</node>
	<node lat="60.033308337141854" lon="5.422930561898341" id="-70037">
		<tag k="fixme" v="consider natural=peak for the most distinct mountains in the district" />
		<tag k="name" v="Dalsnuken" />
		<tag k="natural" v="hill" />
		<tag k="place" v="locality" />
		<tag k="ssr:stedsnr" v="915227" />
	</node>
	<node lat="60.06047499630902" lon="5.573697223052438" id="-70039">
		<tag k="fixme" v="consider natural=peak for the most distinct mountains in the district" />
		<tag k="name" v="Dyråsen" />
		<tag k="natural" v="hill" />
		<tag k="place" v="locality" />
		<tag k="ssr:stedsnr" v="915235" />
	</node>
	<node lat="60.06473055642726" lon="5.681291661444353" id="-70045">
		<tag k="fixme" v="consider natural=peak for the most distinct mountains in the district" />
		<tag k="name" v="Bjørnåsen" />
		<tag k="natural" v="hill" />
		<tag k="place" v="locality" />
		<tag k="ssr:stedsnr" v="915247" />
	</node>
	<node lat="60.0512583313813" lon="5.685180551998308" id="-70048">
		<tag k="name" v="Sundesåta" />
		<tag k="natural" v="hill" />
		<tag k="place" v="locality" />
		<tag k="ssr:stedsnr" v="915334" />
	</node>
	<node lat="60.00526666315415" lon="5.569922215849062" id="-70052">
		<tag k="fixme" v="consider natural=peak for the most distinct mountains in the district" />
		<tag k="name" v="Kinningen" />
		<tag k="natural" v="hill" />
		<tag k="place" v="locality" />
		<tag k="ssr:stedsnr" v="915641" />
	</node>
	<node lat="59.97840833679055" lon="5.520972227593378" id="-70058">
		<tag k="fixme" v="consider natural=peak for the most distinct mountains in the district" />
		<tag k="name" v="Rongåsen" />
		<tag k="natural" v="hill" />
		<tag k="place" v="locality" />
		<tag k="ssr:stedsnr" v="886110" />
	</node>
	<node lat="60.00082500260757" lon="5.694458329111209" id="-70063">
		<tag k="name" v="Ølfarhaug" />
		<tag k="natural" v="hill" />
		<tag k="place" v="locality" />
		<tag k="ssr:stedsnr" v="887250" />
	</node>
	<node lat="59.98574722488868" lon="5.60612500441499" id="-70065">
		<tag k="name" v="Storevollen" />
		<tag k="place" v="locality" />
		<tag k="ssr:stedsnr" v="887261" />
	</node>
	<node lat="60.06556389286866" lon="5.381888893611305" id="-70066">
		<tag k="fixme" v="consider natural=peak for the most distinct mountains in the district" />
		<tag k="name" v="Storekolåsen" />
		<tag k="natural" v="hill" />
		<tag k="place" v="locality" />
		<tag k="ssr:stedsnr" v="887198" />
	</node>
	<node lat="60.02622499782547" lon="5.556755561534223" id="-70067">
		<tag k="fixme" v="consider natural=peak for the most distinct mountains in the district" />
		<tag k="name" v="Guletoppen" />
		<tag k="natural" v="hill" />
		<tag k="place" v="locality" />
		<tag k="ssr:stedsnr" v="887304" />
	</node>
	<node lat="60.0303638856695" lon="5.581113881832819" id="-70068">
		<tag k="fixme" v="consider natural=peak for the most distinct mountains in the district" />
		<tag k="name" v="Svartavassfjellet" />
		<tag k="natural" v="hill" />
		<tag k="place" v="locality" />
		<tag k="ssr:stedsnr" v="887306" />
	</node>
	<node lat="60.04919999975456" lon="5.495452774994848" id="-70069">
		<tag k="name" v="Stella" />
		<tag k="natural" v="hill" />
		<tag k="place" v="locality" />
		<tag k="ssr:stedsnr" v="887312" />
	</node>
	<node lat="60.07366923044474" lon="5.660970831268297" id="-70070">
		<tag k="name" v="Berga" />
		<tag k="natural" v="hill" />
		<tag k="place" v="locality" />
		<tag k="ssr:stedsnr" v="887513" />
	</node>
	<node lat="60.053447223579376" lon="5.69546111226621" id="-70071">
		<tag k="name" v="Kjeringeberget" />
		<tag k="natural" v="hill" />
		<tag k="place" v="locality" />
		<tag k="ssr:stedsnr" v="887518" />
	</node>
	<node lat="60.03253611507125" lon="5.5992138948196635" id="-70072">
		<tag k="name" v="Fosshaugen" />
		<tag k="natural" v="hill" />
		<tag k="place" v="locality" />
		<tag k="ssr:stedsnr" v="887521" />
	</node>
	<node lat="59.93816666333044" lon="5.606519443449294" id="-70076">
		<tag k="name" v="Storekamben" />
		<tag k="natural" v="ridge" />
		<tag k="place" v="locality" />
		<tag k="ssr:stedsnr" v="887753" />
	</node>
	<node lat="59.9998027813326" lon="5.549294438280854" id="-70083">
		<tag k="name" v="Uggdalsvarden" />
		<tag k="natural" v="hill" />
		<tag k="place" v="locality" />
		<tag k="ssr:stedsnr" v="914587" />
	</node>
	<node lat="60.035233330906195" lon="5.557938895689975" id="-70090">
		<tag k="name" v="Tverrfjellet" />
		<tag k="natural" v="hill" />
		<tag k="place" v="locality" />
		<tag k="ssr:stedsnr" v="915314" />
	</node>
	<node lat="60.07099999575124" lon="5.695119436374053" id="-70091">
		<tag k="name" v="Korsneshaugane" />
		<tag k="natural" v="hill" />
		<tag k="place" v="locality" />
		<tag k="ssr:stedsnr" v="915284" />
	</node>
	<node lat="60.01710000119908" lon="5.6167194406062375" id="-70095">
		<tag k="fixme" v="consider natural=peak for the most distinct mountains in the district" />
		<tag k="name" v="Såtefjellet" />
		<tag k="natural" v="hill" />
		<tag k="place" v="locality" />
		<tag k="ssr:stedsnr" v="915670" />
	</node>
	<node lat="59.98165277714271" lon="5.563900007174036" id="-70101">
		<tag k="name" v="Bruna" />
		<tag k="natural" v="hill" />
		<tag k="place" v="locality" />
		<tag k="ssr:stedsnr" v="947137" />
	</node>
	<node lat="60.078536113968134" lon="5.356555563473175" id="-70105">
		<tag k="name" v="Gadden" />
		<tag k="natural" v="hill" />
		<tag k="place" v="locality" />
		<tag k="ssr:stedsnr" v="947806" />
	</node>
	<node lat="60.015427777716184" lon="5.347588889478627" id="-70106">
		<tag k="name" v="Hella" />
		<tag k="natural" v="hill" />
		<tag k="place" v="locality" />
		<tag k="ssr:stedsnr" v="947836" />
	</node>
	<node lat="59.95911944344787" lon="5.470844447882216" id="-70111">
		<tag k="alt_name" v="Bleika" />
		<tag k="name" v="Bleikja" />
		<tag k="natural" v="hill" />
		<tag k="place" v="locality" />
		<tag k="ssr:stedsnr" v="948206" />
	</node>
	<node lat="59.98987777508479" lon="5.63921110624691" id="-70112">
		<tag k="name" v="Langedalen" />
		<tag k="natural" v="valley" />
		<tag k="place" v="locality" />
		<tag k="ssr:stedsnr" v="948294" />
	</node>
	<node lat="60.07516111299281" lon="5.39103056042714" id="-70113">
		<tag k="name" v="Kvernadalen" />
		<tag k="natural" v="valley" />
		<tag k="place" v="locality" />
		<tag k="ssr:stedsnr" v="948185" />
	</node>
	<node lat="59.9323694428139" lon="5.545780553444264" id="-70115">
		<tag k="name" v="Juvaskotet" />
		<tag k="natural" v="valley" />
		<tag k="place" v="locality" />
		<tag k="ssr:stedsnr" v="948195" />
	</node>
	<node lat="60.04948888448477" lon="5.48494165880045" id="-70117">
		<tag k="name" v="Øykjaskora" />
		<tag k="natural" v="hill" />
		<tag k="place" v="locality" />
		<tag k="ssr:stedsnr" v="948330" />
	</node>
	<node lat="59.950950002183035" lon="5.577844442251423" id="-70118">
		<tag k="name" v="Stengehaug" />
		<tag k="natural" v="hill" />
		<tag k="place" v="locality" />
		<tag k="ssr:stedsnr" v="948388" />
	</node>
	<node lat="59.95909444499673" lon="5.522594436126" id="-70119">
		<tag k="name" v="Trangasmoget" />
		<tag k="natural" v="valley" />
		<tag k="place" v="locality" />
		<tag k="ssr:stedsnr" v="948399" />
	</node>
	<node lat="59.95064166606301" lon="5.584733332470572" id="-70138">
		<tag k="fixme" v="consider natural=peak for the most distinct mountains in the district" />
		<tag k="name" v="Hellandsåsen" />
		<tag k="natural" v="hill" />
		<tag k="place" v="locality" />
		<tag k="ssr:stedsnr" v="3599" />
	</node>
	<node lat="60.028780552908295" lon="5.642750006263071" id="-70143">
		<tag k="fixme" v="consider natural=peak for the most distinct mountains in the district" />
		<tag k="loc_name" v="Vekhamrane" />
		<tag k="name" v="Veghamrane" />
		<tag k="natural" v="hill" />
		<tag k="place" v="locality" />
		<tag k="ssr:stedsnr" v="4638" />
	</node>
	<node lat="60.040275002447515" lon="5.586355546747461" id="-70149">
		<tag k="name" v="Sveo" />
		<tag k="natural" v="hill" />
		<tag k="place" v="locality" />
		<tag k="ssr:stedsnr" v="4354" />
	</node>
	<node lat="60.02211944546563" lon="5.3640000022759216" id="-70157">
		<tag k="fixme" v="consider natural=peak for the most distinct mountains in the district" />
		<tag k="name" v="Vardafjellet" />
		<tag k="natural" v="hill" />
		<tag k="place" v="locality" />
		<tag k="ssr:stedsnr" v="5233" />
	</node>
	<node lat="60.05378333407324" lon="5.702075004895844" id="-70159">
		<tag k="name" v="Slottet" />
		<tag k="natural" v="hill" />
		<tag k="place" v="locality" />
		<tag k="ssr:stedsnr" v="5341" />
	</node>
	<node lat="59.975658330646574" lon="5.619724992543248" id="-70167">
		<tag k="name" v="Løkabotnen" />
		<tag k="natural" v="valley" />
		<tag k="place" v="locality" />
		<tag k="ssr:stedsnr" v="37290" />
	</node>
	<node lat="60.05664721826339" lon="5.657738889653537" id="-70168">
		<tag k="name" v="Svidene" />
		<tag k="place" v="locality" />
		<tag k="ssr:stedsnr" v="37532" />
	</node>
	<node lat="60.050111111394756" lon="5.658799999262962" id="-70169">
		<tag k="name" v="Kattalandsto" />
		<tag k="place" v="locality" />
		<tag k="ssr:stedsnr" v="37533" />
	</node>
	<node lat="59.94493333797201" lon="5.579775008431087" id="-70174">
		<tag k="fixme" v="consider natural=peak for the most distinct mountains in the district" />
		<tag k="name" v="Gildbakkåsen" />
		<tag k="natural" v="hill" />
		<tag k="place" v="locality" />
		<tag k="ssr:stedsnr" v="37369" />
	</node>
	<node lat="59.95269166492516" lon="5.555883341744909" id="-70175">
		<tag k="name" v="Båtastødhaugen" />
		<tag k="natural" v="hill" />
		<tag k="place" v="locality" />
		<tag k="ssr:stedsnr" v="37382" />
	</node>
	<node lat="60.009163892752625" lon="5.563513886554364" id="-70180">
		<tag k="name" v="Støhaug" />
		<tag k="natural" v="hill" />
		<tag k="place" v="locality" />
		<tag k="ssr:stedsnr" v="37327" />
	</node>
	<node lat="60.01811944565843" lon="5.506255559951582" id="-70181">
		<tag k="name" v="Eredalen" />
		<tag k="natural" v="valley" />
		<tag k="place" v="locality" />
		<tag k="ssr:stedsnr" v="37331" />
	</node>
	<node lat="60.009411112076535" lon="5.485336117791186" id="-70182">
		<tag k="name" v="Lotteriet" />
		<tag k="place" v="locality" />
		<tag k="ssr:stedsnr" v="37337" />
	</node>
	<node lat="59.94952777907767" lon="5.562686102186732" id="-70202">
		<tag k="name" v="Ingjelshaugen" />
		<tag k="natural" v="hill" />
		<tag k="place" v="locality" />
		<tag k="ssr:stedsnr" v="37816" />
	</node>
	<node lat="59.94869166340722" lon="5.54907221550968" id="-70203">
		<tag k="name" v="Iselvebotnen" />
		<tag k="natural" v="valley" />
		<tag k="place" v="locality" />
		<tag k="ssr:stedsnr" v="37819" />
	</node>
	<node lat="60.008705554039636" lon="5.595113883275722" id="-70204">
		<tag k="name" v="Vindskardet" />
		<tag k="natural" v="hill" />
		<tag k="place" v="locality" />
		<tag k="ssr:stedsnr" v="37838" />
	</node>
	<node lat="60.019605552223126" lon="5.496491673833567" id="-70205">
		<tag k="name" v="Daurmålshaug" />
		<tag k="natural" v="hill" />
		<tag k="place" v="locality" />
		<tag k="ssr:stedsnr" v="37848" />
	</node>
	<node lat="60.02486944766906" lon="5.436822213237466" id="-70216">
		<tag k="name" v="Brakahaugen" />
		<tag k="natural" v="hill" />
		<tag k="place" v="locality" />
		<tag k="ssr:stedsnr" v="38161" />
	</node>
	<node lat="60.07143889314402" lon="5.377427772074564" id="-70217">
		<tag k="name" v="Furedalen" />
		<tag k="natural" v="valley" />
		<tag k="place" v="locality" />
		<tag k="ssr:stedsnr" v="38173" />
	</node>
	<node lat="59.92456667030161" lon="5.5305138800421245" id="-70218">
		<tag k="fixme" v="consider natural=peak for the most distinct mountains in the district" />
		<tag k="name" v="Almen" />
		<tag k="natural" v="hill" />
		<tag k="place" v="locality" />
		<tag k="ssr:stedsnr" v="38184" />
	</node>
	<node lat="60.03296944388955" lon="5.405122219972553" id="-70219">
		<tag k="name" v="Brakatuva" />
		<tag k="natural" v="hill" />
		<tag k="place" v="locality" />
		<tag k="ssr:stedsnr" v="38246" />
	</node>
	<node lat="60.035200002676" lon="5.374980559376671" id="-70220">
		<tag k="name" v="Austrebotnen" />
		<tag k="natural" v="valley" />
		<tag k="place" v="locality" />
		<tag k="ssr:stedsnr" v="38247" />
	</node>
	<node lat="60.03756111240544" lon="5.415336112206764" id="-70221">
		<tag k="fixme" v="consider natural=peak for the most distinct mountains in the district" />
		<tag k="name" v="Midtfjellet" />
		<tag k="natural" v="hill" />
		<tag k="place" v="locality" />
		<tag k="ssr:stedsnr" v="38249" />
	</node>
	<node lat="59.982616662324965" lon="5.4536249998697786" id="-70242">
		<tag k="name" v="Heiadalen" />
		<tag k="natural" v="valley" />
		<tag k="place" v="locality" />
		<tag k="ssr:stedsnr" v="65159" />
	</node>
	<node lat="60.03696388915324" lon="5.501383337927127" id="-70245">
		<tag k="alt_name" v="Vestrefjellet" />
		<tag k="fixme" v="consider natural=peak for the most distinct mountains in the district" />
		<tag k="name" v="Dallandsfjellet" />
		<tag k="natural" v="hill" />
		<tag k="place" v="locality" />
		<tag k="ssr:stedsnr" v="65339" />
	</node>
	<node lat="59.9906083298169" lon="5.521122223247154" id="-70246">
		<tag k="alt_name" v="Stølafjellet" />
		<tag k="fixme" v="consider natural=peak for the most distinct mountains in the district" />
		<tag k="name" v="Stølefjellet" />
		<tag k="natural" v="hill" />
		<tag k="place" v="locality" />
		<tag k="ssr:stedsnr" v="65567" />
	</node>
	<node lat="60.00805555895055" lon="5.595066658521335" id="-70251">
		<tag k="alt_name" v="Vindskardskollen" />
		<tag k="name" v="Vindskardkollen" />
		<tag k="natural" v="hill" />
		<tag k="place" v="locality" />
		<tag k="ssr:stedsnr" v="65639" />
	</node>
	<node lat="59.927641663013375" lon="5.578702778849755" id="-70253">
		<tag k="fixme" v="consider natural=peak for the most distinct mountains in the district" />
		<tag k="name" v="Rundekultane" />
		<tag k="natural" v="hill" />
		<tag k="place" v="locality" />
		<tag k="ssr:stedsnr" v="65742" />
	</node>
	<node lat="59.96404166431431" lon="5.591927772048889" id="-70271">
		<tag k="name" v="Drosdalen" />
		<tag k="natural" v="valley" />
		<tag k="place" v="locality" />
		<tag k="ssr:stedsnr" v="98141" />
	</node>
	<node lat="60.073675002454074" lon="5.378202780233052" id="-70274">
		<tag k="name" v="Leiteshaugen" />
		<tag k="natural" v="hill" />
		<tag k="place" v="locality" />
		<tag k="ssr:stedsnr" v="98154" />
	</node>
	<node lat="59.99643611248043" lon="5.598397223990801" id="-70275">
		<tag k="name" v="Rygg" />
		<tag k="natural" v="ridge" />
		<tag k="place" v="locality" />
		<tag k="ssr:stedsnr" v="98232" />
	</node>
	<node lat="60.02176666491305" lon="5.705108325939003" id="-70276">
		<tag k="name" v="Forvad" />
		<tag k="place" v="locality" />
		<tag k="ssr:stedsnr" v="98241" />
	</node>
	<node lat="59.991136115114244" lon="5.6446222200836385" id="-70277">
		<tag k="name" v="Langedalsheia" />
		<tag k="natural" v="hill" />
		<tag k="place" v="locality" />
		<tag k="ssr:stedsnr" v="98249" />
	</node>
	<node lat="60.00666098213903" lon="5.638624510673661" id="-70278">
		<tag k="name" v="Søre Grovassdalen" />
		<tag k="natural" v="valley" />
		<tag k="place" v="locality" />
		<tag k="ssr:stedsnr" v="98252" />
	</node>
	<node lat="60.02011944359111" lon="5.569608326194757" id="-70279">
		<tag k="name" v="Vasshaug" />
		<tag k="natural" v="hill" />
		<tag k="place" v="locality" />
		<tag k="ssr:stedsnr" v="98320" />
	</node>
	<node lat="60.02459999834178" lon="5.546124999327437" id="-70280">
		<tag k="name" v="Sauavollen" />
		<tag k="place" v="locality" />
		<tag k="ssr:stedsnr" v="98322" />
	</node>
	<node lat="60.02196111267616" lon="5.483769447072021" id="-70281">
		<tag k="fixme" v="consider natural=peak for the most distinct mountains in the district" />
		<tag k="name" v="Vindåsen" />
		<tag k="natural" v="hill" />
		<tag k="place" v="locality" />
		<tag k="ssr:stedsnr" v="98348" />
	</node>
	<node lat="59.94896666312592" lon="5.586644436341065" id="-70282">
		<tag k="name" v="Brundalshaugen" />
		<tag k="natural" v="hill" />
		<tag k="place" v="locality" />
		<tag k="ssr:stedsnr" v="98353" />
	</node>
	<node lat="59.982683335995254" lon="5.484841669527703" id="-70284">
		<tag k="name" v="Bratta" />
		<tag k="natural" v="slope" />
		<tag k="place" v="locality" />
		<tag k="ssr:stedsnr" v="98195" />
	</node>
	<node lat="60.07669722065056" lon="5.359158326721432" id="-70285">
		<tag k="name" v="Krokhaugen" />
		<tag k="natural" v="hill" />
		<tag k="place" v="locality" />
		<tag k="ssr:stedsnr" v="98198" />
	</node>
	<node lat="59.97971666376506" lon="5.404691665928298" id="-70286">
		<tag k="name" v="Sanddalen" />
		<tag k="natural" v="valley" />
		<tag k="place" v="locality" />
		<tag k="ssr:stedsnr" v="98199" />
	</node>
	<node lat="59.922561109771856" lon="5.6309555513495715" id="-70292">
		<tag k="name" v="Øykjadalen" />
		<tag k="natural" v="valley" />
		<tag k="place" v="locality" />
		<tag k="ssr:stedsnr" v="98266" />
	</node>
	<node lat="59.93523333059998" lon="5.594861113759367" id="-70293">
		<tag k="fixme" v="consider natural=peak for the most distinct mountains in the district" />
		<tag k="name" v="Vimpen" />
		<tag k="natural" v="hill" />
		<tag k="place" v="locality" />
		<tag k="ssr:stedsnr" v="98280" />
	</node>
	<node lat="59.98431110794331" lon="5.489530549141969" id="-70294">
		<tag k="name" v="Håvardheia" />
		<tag k="natural" v="hill" />
		<tag k="place" v="locality" />
		<tag k="ssr:stedsnr" v="98301" />
	</node>
	<node lat="60.04656388463044" lon="5.644291658805144" id="-70296">
		<tag k="name" v="Rindane" />
		<tag k="natural" v="ridge" />
		<tag k="place" v="locality" />
		<tag k="ssr:stedsnr" v="98530" />
	</node>
	<node lat="59.97896388522212" lon="5.6457611055356915" id="-70312">
		<tag k="name" v="Blåberget" />
		<tag k="natural" v="hill" />
		<tag k="place" v="locality" />
		<tag k="ssr:stedsnr" v="124614" />
	</node>
	<node lat="60.02839166892751" lon="5.355211110116383" id="-70316">
		<tag k="fixme" v="consider natural=peak for the most distinct mountains in the district" />
		<tag k="name" v="Ersvikfjellet" />
		<tag k="natural" v="hill" />
		<tag k="place" v="locality" />
		<tag k="ssr:stedsnr" v="125271" />
	</node>
	<node lat="60.04680277791909" lon="5.646777769773587" id="-70318">
		<tag k="name" v="Midthovda" />
		<tag k="natural" v="hill" />
		<tag k="place" v="locality" />
		<tag k="ssr:stedsnr" v="125339" />
	</node>
	<node lat="60.03560850175846" lon="5.646448656871123" id="-70326">
		<tag k="alt_name" v="Sanddalsbotnen" />
		<tag k="name" v="Sanddalsbotn" />
		<tag k="natural" v="valley" />
		<tag k="place" v="locality" />
		<tag k="ssr:stedsnr" v="126328" />
	</node>
	<node lat="60.02798610930796" lon="5.656427785591235" id="-70335">
		<tag k="name" v="Bjørkhovda" />
		<tag k="natural" v="hill" />
		<tag k="place" v="locality" />
		<tag k="ssr:stedsnr" v="126627" />
	</node>
	<node lat="59.970252774702104" lon="5.488386104488004" id="-70339">
		<tag k="fixme" v="consider natural=peak for the most distinct mountains in the district" />
		<tag k="name" v="Vindåsen" />
		<tag k="natural" v="hill" />
		<tag k="place" v="locality" />
		<tag k="ssr:stedsnr" v="158166" />
	</node>
	<node lat="59.972191668162225" lon="5.402166660876991" id="-70344">
		<tag k="name" v="Hundsryggen" />
		<tag k="natural" v="ridge" />
		<tag k="place" v="locality" />
		<tag k="ssr:stedsnr" v="158812" />
	</node>
	<node lat="60.03596111445749" lon="5.385919443822767" id="-70345">
		<tag k="name" v="Augustdalen" />
		<tag k="natural" v="valley" />
		<tag k="place" v="locality" />
		<tag k="ssr:stedsnr" v="158816" />
	</node>
	<node lat="59.90168610977178" lon="5.630102779062357" id="-70346">
		<tag k="name" v="Skarvaberget" />
		<tag k="natural" v="hill" />
		<tag k="place" v="locality" />
		<tag k="ssr:stedsnr" v="158776" />
	</node>
	<node lat="60.025366663574076" lon="5.375888896574465" id="-70349">
		<tag k="name" v="Furehaugen" />
		<tag k="natural" v="hill" />
		<tag k="place" v="locality" />
		<tag k="ssr:stedsnr" v="159227" />
	</node>
	<node lat="60.03418610716275" lon="5.391705559689275" id="-70351">
		<tag k="name" v="Bjørkehaugane" />
		<tag k="natural" v="hill" />
		<tag k="place" v="locality" />
		<tag k="ssr:stedsnr" v="159234" />
	</node>
	<node lat="59.87594722475712" lon="5.604830546805834" id="-70352">
		<tag k="name" v="Brattalia" />
		<tag k="natural" v="slope" />
		<tag k="place" v="locality" />
		<tag k="ssr:stedsnr" v="159326" />
	</node>
	<node lat="60.046315643699536" lon="5.498778357188422" id="-70353">
		<tag k="alt_name" v="Teglandsnuten" />
		<tag k="fixme" v="consider natural=peak for the most distinct mountains in the district" />
		<tag k="name" v="Teiglandsnuten" />
		<tag k="natural" v="hill" />
		<tag k="place" v="locality" />
		<tag k="ssr:stedsnr" v="159330" />
	</node>
	<node lat="59.99445832927517" lon="5.562116671261243" id="-70354">
		<tag k="name" v="Håkoleita" />
		<tag k="natural" v="slope" />
		<tag k="place" v="locality" />
		<tag k="ssr:stedsnr" v="159335" />
	</node>
	<node lat="60.08101272138877" lon="5.385548807409569" id="-70357">
		<tag k="name" v="Stordalen" />
		<tag k="natural" v="valley" />
		<tag k="place" v="locality" />
		<tag k="ssr:stedsnr" v="159174" />
	</node>
	<node lat="60.08106666954187" lon="5.376019449580421" id="-70358">
		<tag k="name" v="Lauvdalen" />
		<tag k="natural" v="valley" />
		<tag k="place" v="locality" />
		<tag k="ssr:stedsnr" v="159181" />
	</node>
	<node lat="60.08042499784246" lon="5.427502770259032" id="-70359">
		<tag k="name" v="Skinahaugen" />
		<tag k="natural" v="hill" />
		<tag k="place" v="locality" />
		<tag k="ssr:stedsnr" v="159184" />
	</node>
	<node lat="59.93145833589749" lon="5.582836110827451" id="-70360">
		<tag k="name" v="Øykjadalen" />
		<tag k="natural" v="valley" />
		<tag k="place" v="locality" />
		<tag k="ssr:stedsnr" v="159191" />
	</node>
	<node lat="59.93618080767634" lon="5.589641543545921" id="-70362">
		<tag k="name" v="Veslebotnen" />
		<tag k="natural" v="valley" />
		<tag k="place" v="locality" />
		<tag k="ssr:stedsnr" v="159193" />
	</node>
	<node lat="59.994141668887565" lon="5.668388896978135" id="-70364">
		<tag k="name" v="Svarteberg" />
		<tag k="natural" v="hill" />
		<tag k="place" v="locality" />
		<tag k="ssr:stedsnr" v="159275" />
	</node>
	<node lat="59.98607221840505" lon="5.615422214252479" id="-70365">
		<tag k="name" v="Bruna" />
		<tag k="natural" v="hill" />
		<tag k="place" v="locality" />
		<tag k="ssr:stedsnr" v="159279" />
	</node>
	<node lat="59.99338251718943" lon="5.6200977072151055" id="-70366">
		<tag k="name" v="Lambstjørnhaugen" />
		<tag k="natural" v="hill" />
		<tag k="place" v="locality" />
		<tag k="ssr:stedsnr" v="159280" />
	</node>
	<node lat="59.98352221798573" lon="5.614827778663891" id="-70367">
		<tag k="name" v="Gjerdslia" />
		<tag k="natural" v="slope" />
		<tag k="place" v="locality" />
		<tag k="ssr:stedsnr" v="159283" />
	</node>
	<node lat="60.01753055509388" lon="5.499225002895344" id="-70368">
		<tag k="name" v="Langedalen" />
		<tag k="natural" v="valley" />
		<tag k="place" v="locality" />
		<tag k="ssr:stedsnr" v="159371" />
	</node>
	<node lat="60.019797218003326" lon="5.52704722460805" id="-70369">
		<tag k="fixme" v="consider natural=peak for the most distinct mountains in the district" />
		<tag k="name" v="Hovda" />
		<tag k="natural" v="hill" />
		<tag k="place" v="locality" />
		<tag k="ssr:stedsnr" v="159381" />
	</node>
	<node lat="59.992011108207095" lon="5.689377785499264" id="-70384">
		<tag k="name" v="Årbakkahagen" />
		<tag k="natural" v="slope" />
		<tag k="place" v="locality" />
		<tag k="ssr:stedsnr" v="160391" />
	</node>
	<node lat="59.96784444781721" lon="5.456066672358817" id="-70388">
		<tag k="alt_name" v="Kleppafjellet" />
		<tag k="name" v="Kleppavarden" />
		<tag k="natural" v="hill" />
		<tag k="place" v="locality" />
		<tag k="ssr:stedsnr" v="185153" />
	</node>
	<node lat="59.994988888842784" lon="5.572425008209563" id="-70402">
		<tag k="fixme" v="consider natural=peak for the most distinct mountains in the district" />
		<tag k="name" v="Singelstadfjellet" />
		<tag k="natural" v="hill" />
		<tag k="place" v="locality" />
		<tag k="ssr:stedsnr" v="186630" />
	</node>
	<node lat="59.97014166825742" lon="5.5599138956098395" id="-70426">
		<tag k="name" v="Korsdalen" />
		<tag k="natural" v="valley" />
		<tag k="place" v="locality" />
		<tag k="ssr:stedsnr" v="279141" />
	</node>
	<node lat="59.97046944480017" lon="5.5230388866481785" id="-70427">
		<tag k="name" v="Eskedalen" />
		<tag k="natural" v="valley" />
		<tag k="place" v="locality" />
		<tag k="ssr:stedsnr" v="279125" />
	</node>
	<node lat="60.044938886030494" lon="5.613452784419939" id="-70429">
		<tag k="name" v="Hillaren" />
		<tag k="natural" v="hill" />
		<tag k="place" v="locality" />
		<tag k="ssr:stedsnr" v="280534" />
	</node>
	<node lat="60.018330551959295" lon="5.510986109354921" id="-70433">
		<tag k="fixme" v="consider natural=peak for the most distinct mountains in the district" />
		<tag k="name" v="Slåttåsen" />
		<tag k="natural" v="hill" />
		<tag k="place" v="locality" />
		<tag k="ssr:stedsnr" v="280318" />
	</node>
	<node lat="60.065686108584245" lon="5.676197222608057" id="-70435">
		<tag k="name" v="Bjørnalia" />
		<tag k="natural" v="slope" />
		<tag k="place" v="locality" />
		<tag k="ssr:stedsnr" v="280519" />
	</node>
	<node lat="60.05233333003191" lon="5.664000007565062" id="-70436">
		<tag k="name" v="Hedna" />
		<tag k="place" v="locality" />
		<tag k="ssr:stedsnr" v="280521" />
	</node>
	<node lat="60.049041667656994" lon="5.4994472266509336" id="-70438">
		<tag k="name" v="Vigrane" />
		<tag k="natural" v="hill" />
		<tag k="place" v="locality" />
		<tag k="ssr:stedsnr" v="280267" />
	</node>
	<node lat="59.98536111505094" lon="5.56609722797366" id="-70439">
		<tag k="fixme" v="consider natural=peak for the most distinct mountains in the district" />
		<tag k="name" v="Rusta" />
		<tag k="natural" v="hill" />
		<tag k="place" v="locality" />
		<tag k="ssr:stedsnr" v="280275" />
	</node>
	<node lat="59.98413055515319" lon="5.575455553373353" id="-70440">
		<tag k="name" v="Nordre Kløvhaug" />
		<tag k="natural" v="hill" />
		<tag k="place" v="locality" />
		<tag k="ssr:stedsnr" v="280277" />
	</node>
	<node lat="59.952575000621316" lon="5.5772888897651915" id="-70441">
		<tag k="name" v="Storhaug" />
		<tag k="natural" v="hill" />
		<tag k="place" v="locality" />
		<tag k="ssr:stedsnr" v="280353" />
	</node>
	<node lat="59.91886944384392" lon="5.584913881146316" id="-70454">
		<tag k="name" v="Heiakulten" />
		<tag k="natural" v="hill" />
		<tag k="place" v="locality" />
		<tag k="ssr:stedsnr" v="280762" />
	</node>
	<node lat="60.031616666245824" lon="5.39997221677122" id="-70462">
		<tag k="name" v="Grønebotnen" />
		<tag k="natural" v="valley" />
		<tag k="place" v="locality" />
		<tag k="ssr:stedsnr" v="281149" />
	</node>
	<node lat="60.03076944011795" lon="5.428244439021361" id="-70463">
		<tag k="name" v="Luradalen" />
		<tag k="natural" v="valley" />
		<tag k="place" v="locality" />
		<tag k="ssr:stedsnr" v="281150" />
	</node>
	<node lat="60.03957500337484" lon="5.421361112560883" id="-70464">
		<tag k="name" v="Brunene" />
		<tag k="natural" v="hill" />
		<tag k="place" v="locality" />
		<tag k="ssr:stedsnr" v="281156" />
	</node>
	<node lat="60.017449997365446" lon="5.475480548297945" id="-70465">
		<tag k="name" v="Nausthaugen" />
		<tag k="natural" v="hill" />
		<tag k="place" v="locality" />
		<tag k="ssr:stedsnr" v="281216" />
	</node>
	<node lat="60.02202222096718" lon="5.411033335086414" id="-70466">
		<tag k="name" v="Siredalen" />
		<tag k="natural" v="valley" />
		<tag k="place" v="locality" />
		<tag k="ssr:stedsnr" v="281218" />
	</node>
	<node lat="59.973227780022384" lon="5.457477779580595" id="-70467">
		<tag k="name" v="Kvitakleppa" />
		<tag k="natural" v="hill" />
		<tag k="place" v="locality" />
		<tag k="ssr:stedsnr" v="281273" />
	</node>
	<node lat="59.97275555491181" lon="5.454069436816964" id="-70468">
		<tag k="name" v="Tjørnahaug" />
		<tag k="natural" v="hill" />
		<tag k="place" v="locality" />
		<tag k="ssr:stedsnr" v="281275" />
	</node>
	<node lat="59.91961944181174" lon="5.641411107015889" id="-70480">
		<tag k="name" v="Barmehovda" />
		<tag k="natural" v="hill" />
		<tag k="place" v="locality" />
		<tag k="ssr:stedsnr" v="307701" />
	</node>
	<node lat="60.067830555523706" lon="5.679866661628999" id="-70486">
		<tag k="fixme" v="consider natural=peak for the most distinct mountains in the district" />
		<tag k="name" v="Steinåsen" />
		<tag k="natural" v="hill" />
		<tag k="place" v="locality" />
		<tag k="ssr:stedsnr" v="308238" />
	</node>
	<node lat="59.98108055945823" lon="5.523872215998962" id="-70494">
		<tag k="name" v="Djupedalen" />
		<tag k="natural" v="valley" />
		<tag k="place" v="locality" />
		<tag k="ssr:stedsnr" v="340142" />
	</node>
	<node lat="59.973858332741244" lon="5.548961108274899" id="-70495">
		<tag k="name" v="Storhaug" />
		<tag k="natural" v="hill" />
		<tag k="place" v="locality" />
		<tag k="ssr:stedsnr" v="340146" />
	</node>
	<node lat="60.05525277536644" lon="5.680488886405858" id="-70501">
		<tag k="name" v="Brunene" />
		<tag k="place" v="locality" />
		<tag k="ssr:stedsnr" v="340486" />
	</node>
	<node lat="60.05441666751517" lon="5.6901499910593865" id="-70502">
		<tag k="name" v="Sætrebotnen" />
		<tag k="natural" v="valley" />
		<tag k="place" v="locality" />
		<tag k="ssr:stedsnr" v="340487" />
	</node>
	<node lat="60.05805833345093" lon="5.691791669839861" id="-70503">
		<tag k="name" v="Hatlekult" />
		<tag k="place" v="locality" />
		<tag k="ssr:stedsnr" v="340498" />
	</node>
	<node lat="60.04896388844045" lon="5.357886112808956" id="-70510">
		<tag k="fixme" v="consider natural=peak for the most distinct mountains in the district" />
		<tag k="name" v="Trædet" />
		<tag k="natural" v="hill" />
		<tag k="place" v="locality" />
		<tag k="ssr:stedsnr" v="340795" />
	</node>
	<node lat="60.03878333287455" lon="5.492438883989862" id="-70511">
		<tag k="name" v="Furehaugen" />
		<tag k="natural" v="hill" />
		<tag k="place" v="locality" />
		<tag k="ssr:stedsnr" v="340813" />
	</node>
	<node lat="59.997399996387635" lon="5.586822215088587" id="-70512">
		<tag k="name" v="Storhaug" />
		<tag k="natural" v="hill" />
		<tag k="place" v="locality" />
		<tag k="ssr:stedsnr" v="340818" />
	</node>
	<node lat="59.989069446313096" lon="5.612233327059136" id="-70513">
		<tag k="name" v="Hovda" />
		<tag k="place" v="locality" />
		<tag k="ssr:stedsnr" v="341291" />
	</node>
	<node lat="60.024038889994905" lon="5.698011102759738" id="-70514">
		<tag k="name" v="Stemmedalen" />
		<tag k="natural" v="valley" />
		<tag k="place" v="locality" />
		<tag k="ssr:stedsnr" v="341297" />
	</node>
	<node lat="60.028316668514826" lon="5.421755555466539" id="-70525">
		<tag k="name" v="Djupedalen" />
		<tag k="natural" v="valley" />
		<tag k="place" v="locality" />
		<tag k="ssr:stedsnr" v="341160" />
	</node>
	<node lat="60.073997225615656" lon="5.374630552329041" id="-70526">
		<tag k="name" v="Eldholmshaugen" />
		<tag k="natural" v="hill" />
		<tag k="place" v="locality" />
		<tag k="ssr:stedsnr" v="341165" />
	</node>
	<node lat="59.92616111183649" lon="5.528119435597457" id="-70530">
		<tag k="name" v="Djupekoppen" />
		<tag k="natural" v="valley" />
		<tag k="place" v="locality" />
		<tag k="ssr:stedsnr" v="341178" />
	</node>
	<node lat="59.92895833036194" lon="5.527975007716638" id="-70531">
		<tag k="name" v="Årvikesåta" />
		<tag k="natural" v="hill" />
		<tag k="place" v="locality" />
		<tag k="ssr:stedsnr" v="341180" />
	</node>
	<node lat="59.88925555224847" lon="5.587016664148313" id="-70532">
		<tag k="name" v="Storhaugen" />
		<tag k="natural" v="hill" />
		<tag k="place" v="locality" />
		<tag k="ssr:stedsnr" v="341181" />
	</node>
	<node lat="60.029216662677086" lon="5.426025004960447" id="-70534">
		<tag k="fixme" v="consider natural=peak for the most distinct mountains in the district" />
		<tag k="name" v="Gjellandsnuken" />
		<tag k="natural" v="hill" />
		<tag k="place" v="locality" />
		<tag k="ssr:stedsnr" v="341151" />
	</node>
	<node lat="59.94875277743845" lon="5.580175005023282" id="-70537">
		<tag k="name" v="Skifteshaug" />
		<tag k="natural" v="hill" />
		<tag k="place" v="locality" />
		<tag k="ssr:stedsnr" v="341396" />
	</node>
	<node lat="60.017463892344935" lon="5.658244437343456" id="-70561">
		<tag k="alt_name" v="Sandløypefjellet" />
		<tag k="name" v="Sandlopefjellet" />
		<tag k="natural" v="hill" />
		<tag k="place" v="locality" />
		<tag k="ssr:stedsnr" v="368722" />
	</node>
	<node lat="59.96991388856773" lon="5.566222225792462" id="-70572">
		<tag k="name" v="Sæterdalen" />
		<tag k="natural" v="valley" />
		<tag k="place" v="locality" />
		<tag k="ssr:stedsnr" v="401165" />
	</node>
	<node lat="60.007499998143594" lon="5.673758339136472" id="-70573">
		<tag k="name" v="Svinadalen" />
		<tag k="natural" v="valley" />
		<tag k="place" v="locality" />
		<tag k="ssr:stedsnr" v="401208" />
	</node>
	<node lat="59.942277781201206" lon="5.507869450705112" id="-70575">
		<tag k="name" v="Notabakken" />
		<tag k="natural" v="slope" />
		<tag k="place" v="locality" />
		<tag k="ssr:stedsnr" v="401365" />
	</node>
	<node lat="59.984799999433754" lon="5.559205552219617" id="-70582">
		<tag k="name" v="Kjosen" />
		<tag k="natural" v="valley" />
		<tag k="place" v="locality" />
		<tag k="ssr:stedsnr" v="401231" />
	</node>
	<node lat="59.99888333074" lon="5.5155027826115335" id="-70584">
		<tag k="fixme" v="consider natural=peak for the most distinct mountains in the district" />
		<tag k="name" v="Tokollen" />
		<tag k="natural" v="hill" />
		<tag k="place" v="locality" />
		<tag k="ssr:stedsnr" v="401311" />
	</node>
	<node lat="59.98681388959686" lon="5.525950007187961" id="-70585">
		<tag k="name" v="Furhovda" />
		<tag k="natural" v="hill" />
		<tag k="place" v="locality" />
		<tag k="ssr:stedsnr" v="401312" />
	</node>
	<node lat="60.00873611568538" lon="5.48799166999285" id="-70586">
		<tag k="name" v="Likhellene" />
		<tag k="place" v="locality" />
		<tag k="ssr:stedsnr" v="401330" />
	</node>
	<node lat="60.045577778341574" lon="5.692052773123301" id="-70595">
		<tag k="name" v="Kolabotnen" />
		<tag k="natural" v="valley" />
		<tag k="place" v="locality" />
		<tag k="ssr:stedsnr" v="401493" />
	</node>
	<node lat="60.036252781818874" lon="5.600086106038543" id="-70596">
		<tag k="name" v="Pershaug" />
		<tag k="natural" v="hill" />
		<tag k="place" v="locality" />
		<tag k="ssr:stedsnr" v="401499" />
	</node>
	<node lat="59.967347222787964" lon="5.524055548577088" id="-70602">
		<tag k="name" v="Gjerdehaugen" />
		<tag k="natural" v="hill" />
		<tag k="place" v="locality" />
		<tag k="ssr:stedsnr" v="401777" />
	</node>
	<node lat="60.07022777762179" lon="5.403802783906094" id="-70607">
		<tag k="name" v="Haslelia" />
		<tag k="natural" v="slope" />
		<tag k="place" v="locality" />
		<tag k="ssr:stedsnr" v="402167" />
	</node>
	<node lat="59.976572223047114" lon="5.449019443846565" id="-70609">
		<tag k="fixme" v="consider natural=peak for the most distinct mountains in the district" />
		<tag k="name" v="Tømmeråsen" />
		<tag k="natural" v="hill" />
		<tag k="place" v="locality" />
		<tag k="ssr:stedsnr" v="402264" />
	</node>
	<node lat="60.057863885907516" lon="5.380047214383484" id="-70610">
		<tag k="name" v="Bjørndalen" />
		<tag k="natural" v="valley" />
		<tag k="place" v="locality" />
		<tag k="ssr:stedsnr" v="402223" />
	</node>
	<node lat="60.02844167106677" lon="5.4009027787862385" id="-70611">
		<tag k="name" v="Torehaugen" />
		<tag k="natural" v="hill" />
		<tag k="place" v="locality" />
		<tag k="ssr:stedsnr" v="402230" />
	</node>
	<node lat="59.93794430379921" lon="5.577425913162258" id="-70612">
		<tag k="fixme" v="consider natural=peak for the most distinct mountains in the district" />
		<tag k="name" v="Bleikåsen" />
		<tag k="natural" v="hill" />
		<tag k="place" v="locality" />
		<tag k="ssr:stedsnr" v="402183" />
	</node>
	<node lat="60.052047224884966" lon="5.373772215475689" id="-70625">
		<tag k="fixme" v="consider natural=peak for the most distinct mountains in the district" />
		<tag k="name" v="Gjøvågsfjellet" />
		<tag k="natural" v="hill" />
		<tag k="place" v="locality" />
		<tag k="ssr:stedsnr" v="429137" />
	</node>
	<node lat="60.037521208190114" lon="5.642468684020208" id="-70628">
		<tag k="name" v="Sanddalen" />
		<tag k="natural" v="valley" />
		<tag k="place" v="locality" />
		<tag k="ssr:stedsnr" v="429298" />
	</node>
	<node lat="59.99613888854008" lon="5.534197217672182" id="-70630">
		<tag k="name" v="Uggdalsdalen" />
		<tag k="natural" v="valley" />
		<tag k="place" v="locality" />
		<tag k="ssr:stedsnr" v="429558" />
	</node>
	<node lat="59.99480555772454" lon="5.63364165929268" id="-70633">
		<tag k="name" v="Dalsæterlia" />
		<tag k="natural" v="slope" />
		<tag k="place" v="locality" />
		<tag k="ssr:stedsnr" v="429633" />
	</node>
	<node lat="60.05561944565119" lon="5.370955549320477" id="-70640">
		<tag k="name" v="Gjøvågsvarden" />
		<tag k="natural" v="hill" />
		<tag k="place" v="locality" />
		<tag k="ssr:stedsnr" v="430150" />
	</node>
	<node lat="60.05744999664986" lon="5.684091675311023" id="-70641">
		<tag k="alt_name" v="Gjerdsdalsvarden" />
		<tag k="name" v="Varden" />
		<tag k="natural" v="hill" />
		<tag k="place" v="locality" />
		<tag k="ssr:stedsnr" v="430348" />
	</node>
	<node lat="60.05518889351315" lon="5.422088897282024" id="-70644">
		<tag k="fixme" v="consider natural=peak for the most distinct mountains in the district" />
		<tag k="name" v="Lauvåsen" />
		<tag k="natural" v="hill" />
		<tag k="place" v="locality" />
		<tag k="ssr:stedsnr" v="489169" />
	</node>
	<node lat="59.96590277737736" lon="5.515005552682876" id="-70652">
		<tag k="alt_name" v="Meieråsen" />
		<tag k="fixme" v="consider natural=peak for the most distinct mountains in the district" />
		<tag k="name" v="Meierås" />
		<tag k="natural" v="hill" />
		<tag k="place" v="locality" />
		<tag k="ssr:stedsnr" v="489669" />
	</node>
	<node lat="59.96058332918504" lon="5.6273666732393375" id="-70654">
		<tag k="name" v="Nesthushaugen" />
		<tag k="natural" v="hill" />
		<tag k="place" v="locality" />
		<tag k="ssr:stedsnr" v="489681" />
	</node>
	<node lat="60.06351666383777" lon="5.391263896981227" id="-70658">
		<tag k="alt_name" v="Orefjellet" />
		<tag k="fixme" v="consider natural=peak for the most distinct mountains in the district" />
		<tag k="name" v="Nordra Orefjellet" />
		<tag k="natural" v="hill" />
		<tag k="place" v="locality" />
		<tag k="ssr:stedsnr" v="490172" />
	</node>
	<node lat="60.01309444689698" lon="5.480838892406811" id="-70667">
		<tag k="fixme" v="consider natural=peak for the most distinct mountains in the district" />
		<tag k="name" v="Tømmeråsen" />
		<tag k="natural" v="hill" />
		<tag k="place" v="locality" />
		<tag k="ssr:stedsnr" v="490621" />
	</node>
	<node lat="59.90260278061748" lon="5.557405548025256" id="-70680">
		<tag k="name" v="Sviddalen" />
		<tag k="natural" v="valley" />
		<tag k="place" v="locality" />
		<tag k="ssr:stedsnr" v="522135" />
	</node>
	<node lat="59.90596666886704" lon="5.574627783967442" id="-70681">
		<tag k="name" v="Storhaug" />
		<tag k="natural" v="hill" />
		<tag k="place" v="locality" />
		<tag k="ssr:stedsnr" v="522136" />
	</node>
	<node lat="59.97701666447131" lon="5.527530560440178" id="-70682">
		<tag k="name" v="Maurhaugane" />
		<tag k="natural" v="hill" />
		<tag k="place" v="locality" />
		<tag k="ssr:stedsnr" v="522142" />
	</node>
	<node lat="59.98112222508934" lon="5.5839805537309655" id="-70683">
		<tag k="name" v="Vasshovda" />
		<tag k="natural" v="hill" />
		<tag k="place" v="locality" />
		<tag k="ssr:stedsnr" v="522145" />
	</node>
	<node lat="59.978094444726864" lon="5.542663895873283" id="-70684">
		<tag k="name" v="Langalihaugen" />
		<tag k="natural" v="hill" />
		<tag k="place" v="locality" />
		<tag k="ssr:stedsnr" v="522148" />
	</node>
	<node lat="59.9664027772048" lon="5.586983334353232" id="-70685">
		<tag k="name" v="Lynarhaug" />
		<tag k="natural" v="hill" />
		<tag k="place" v="locality" />
		<tag k="ssr:stedsnr" v="522152" />
	</node>
	<node lat="59.979363891436385" lon="5.451774992489926" id="-70687">
		<tag k="name" v="Sanddalen" />
		<tag k="natural" v="valley" />
		<tag k="place" v="locality" />
		<tag k="ssr:stedsnr" v="522247" />
	</node>
	<node lat="59.93619166817673" lon="5.569641672814765" id="-70688">
		<tag k="name" v="Ospåskamben" />
		<tag k="natural" v="ridge" />
		<tag k="place" v="locality" />
		<tag k="ssr:stedsnr" v="522736" />
	</node>
	<node lat="59.96434722336567" lon="5.56051944876383" id="-70696">
		<tag k="name" v="Lyningshaug" />
		<tag k="natural" v="hill" />
		<tag k="place" v="locality" />
		<tag k="ssr:stedsnr" v="523154" />
	</node>
	<node lat="60.05934999768063" lon="5.42018055359729" id="-70697">
		<tag k="name" v="Sagdalen" />
		<tag k="natural" v="valley" />
		<tag k="place" v="locality" />
		<tag k="ssr:stedsnr" v="523220" />
	</node>
	<node lat="60.052941668102385" lon="5.3964111131136745" id="-70698">
		<tag k="name" v="Brakadalen" />
		<tag k="natural" v="valley" />
		<tag k="place" v="locality" />
		<tag k="ssr:stedsnr" v="523222" />
	</node>
	<node lat="60.0627944466464" lon="5.402344437380365" id="-70699">
		<tag k="name" v="Geitakletten" />
		<tag k="natural" v="hill" />
		<tag k="place" v="locality" />
		<tag k="ssr:stedsnr" v="523226" />
	</node>
	<node lat="59.98990555997373" lon="5.414638893022143" id="-70700">
		<tag k="name" v="Tjuvaskotet" />
		<tag k="natural" v="slope" />
		<tag k="place" v="locality" />
		<tag k="ssr:stedsnr" v="523241" />
	</node>
	<node lat="60.05254722246457" lon="5.636125003971511" id="-70703">
		<tag k="name" v="Høgehaugen" />
		<tag k="natural" v="hill" />
		<tag k="place" v="locality" />
		<tag k="ssr:stedsnr" v="523266" />
	</node>
	<node lat="60.00524444238875" lon="5.509175005359833" id="-70704">
		<tag k="name" v="Nonshaug" />
		<tag k="natural" v="hill" />
		<tag k="place" v="locality" />
		<tag k="ssr:stedsnr" v="523377" />
	</node>
	<node lat="59.9294999970926" lon="5.579750006218782" id="-70705">
		<tag k="fixme" v="consider natural=peak for the most distinct mountains in the district" />
		<tag k="name" v="Runda-kultane" />
		<tag k="natural" v="hill" />
		<tag k="place" v="locality" />
		<tag k="ssr:stedsnr" v="523196" />
	</node>
	<node lat="59.99881388930012" lon="5.645466661692503" id="-70707">
		<tag k="name" v="Vågssæterhøgda" />
		<tag k="natural" v="hill" />
		<tag k="place" v="locality" />
		<tag k="ssr:stedsnr" v="523294" />
	</node>
	<node lat="60.01800833126799" lon="5.666827776421396" id="-70708">
		<tag k="loc_name" v="Sandlaupedalen" />
		<tag k="name" v="Sandløypedalen" />
		<tag k="natural" v="valley" />
		<tag k="place" v="locality" />
		<tag k="ssr:stedsnr" v="523301" />
	</node>
	<node lat="60.017305557009216" lon="5.677380552287015" id="-70709">
		<tag k="name" v="Søre Dyrshillar" />
		<tag k="natural" v="ridge" />
		<tag k="place" v="locality" />
		<tag k="ssr:stedsnr" v="523303" />
	</node>
	<node lat="60.04227221879615" lon="5.54426389188067" id="-70710">
		<tag k="name" v="Risdalen" />
		<tag k="natural" v="valley" />
		<tag k="place" v="locality" />
		<tag k="ssr:stedsnr" v="523343" />
	</node>
	<node lat="59.995855556393394" lon="5.580875004936549" id="-70711">
		<tag k="fixme" v="consider natural=peak for the most distinct mountains in the district" />
		<tag k="name" v="Singelstadfjellet" />
		<tag k="natural" v="hill" />
		<tag k="place" v="locality" />
		<tag k="ssr:stedsnr" v="523350" />
	</node>
	<node lat="60.03479167088551" lon="5.38182500585586" id="-70713">
		<tag k="name" v="Kultane" />
		<tag k="natural" v="hill" />
		<tag k="place" v="locality" />
		<tag k="ssr:stedsnr" v="523163" />
	</node>
	<node lat="60.01515555222547" lon="5.526230555339545" id="-70718">
		<tag k="name" v="Kyrkjeleitet" />
		<tag k="natural" v="slope" />
		<tag k="place" v="locality" />
		<tag k="ssr:stedsnr" v="523389" />
	</node>
	<node lat="60.019275003428234" lon="5.487883330404526" id="-70719">
		<tag k="fixme" v="consider natural=peak for the most distinct mountains in the district" />
		<tag k="name" v="Ramnakulten" />
		<tag k="natural" v="hill" />
		<tag k="place" v="locality" />
		<tag k="ssr:stedsnr" v="523397" />
	</node>
	<node lat="60.05981666369026" lon="5.659636118126939" id="-70720">
		<tag k="name" v="Kolabakken" />
		<tag k="natural" v="slope" />
		<tag k="place" v="locality" />
		<tag k="ssr:stedsnr" v="523570" />
	</node>
	<node lat="60.04062222304272" lon="5.5257583350266595" id="-70725">
		<tag k="name" v="Vågsmarka" />
		<tag k="natural" v="slope" />
		<tag k="place" v="locality" />
		<tag k="ssr:stedsnr" v="525446" />
	</node>
	<node lat="60.03551388657004" lon="5.381444446928331" id="-70730">
		<tag k="name" v="Angersdalen" />
		<tag k="natural" v="valley" />
		<tag k="place" v="locality" />
		<tag k="ssr:stedsnr" v="550148" />
	</node>
	<node lat="60.033533336570606" lon="5.692938890360175" id="-70737">
		<tag k="fixme" v="consider natural=peak for the most distinct mountains in the district" />
		<tag k="name" v="Kyrkjefjellet" />
		<tag k="natural" v="hill" />
		<tag k="place" v="locality" />
		<tag k="ssr:stedsnr" v="550622" />
	</node>
	<node lat="60.0266249979389" lon="5.556177771175454" id="-70740">
		<tag k="fixme" v="consider natural=peak for the most distinct mountains in the district" />
		<tag k="name" v="Guletoppen" />
		<tag k="natural" v="hill" />
		<tag k="place" v="locality" />
		<tag k="ssr:stedsnr" v="550627" />
	</node>
	<node lat="60.01176944236174" lon="5.6108027726955285" id="-70742">
		<tag k="name" v="Malkeneshaugen" />
		<tag k="natural" v="hill" />
		<tag k="place" v="locality" />
		<tag k="ssr:stedsnr" v="550636" />
	</node>
	<node lat="60.04626944884204" lon="5.489994443410056" id="-70746">
		<tag k="name" v="Blåbærdalen" />
		<tag k="natural" v="valley" />
		<tag k="place" v="locality" />
		<tag k="ssr:stedsnr" v="551287" />
	</node>
	<node lat="59.88240555804292" lon="5.596983333110584" id="-70752">
		<tag k="name" v="Paddebørjo" />
		<tag k="natural" v="hill" />
		<tag k="place" v="locality" />
		<tag k="ssr:stedsnr" v="571140" />
	</node>
	<node lat="59.977408330721175" lon="5.548597227713035" id="-70756">
		<tag k="name" v="Hesthaug" />
		<tag k="natural" v="hill" />
		<tag k="place" v="locality" />
		<tag k="ssr:stedsnr" v="582134" />
	</node>
	<node lat="59.9698111085655" lon="5.56319721983208" id="-70757">
		<tag k="fixme" v="consider natural=peak for the most distinct mountains in the district" />
		<tag k="name" v="Langåsen" />
		<tag k="natural" v="hill" />
		<tag k="place" v="locality" />
		<tag k="ssr:stedsnr" v="582146" />
	</node>
	<node lat="59.977611112011864" lon="5.643805552931784" id="-70760">
		<tag k="name" v="Heia" />
		<tag k="natural" v="hill" />
		<tag k="place" v="locality" />
		<tag k="ssr:stedsnr" v="583267" />
	</node>
	<node lat="59.961841665150445" lon="5.635594441606611" id="-70761">
		<tag k="name" v="Nedsthuslia" />
		<tag k="natural" v="slope" />
		<tag k="place" v="locality" />
		<tag k="ssr:stedsnr" v="583269" />
	</node>
	<node lat="59.93803610860506" lon="5.628780564441782" id="-70762">
		<tag k="name" v="Furehaugen" />
		<tag k="natural" v="hill" />
		<tag k="place" v="locality" />
		<tag k="ssr:stedsnr" v="583279" />
	</node>
	<node lat="59.87978611164683" lon="5.616455546925669" id="-70763">
		<tag k="name" v="Brunene" />
		<tag k="natural" v="hill" />
		<tag k="place" v="locality" />
		<tag k="ssr:stedsnr" v="583288" />
	</node>
	<node lat="59.98861944751171" lon="5.485133326458387" id="-70765">
		<tag k="name" v="Storaberget" />
		<tag k="natural" v="hill" />
		<tag k="place" v="locality" />
		<tag k="ssr:stedsnr" v="583315" />
	</node>
	<node lat="60.010724996379615" lon="5.568025000738707" id="-70766">
		<tag k="fixme" v="consider natural=peak for the most distinct mountains in the district" />
		<tag k="name" v="Kinningefjell" />
		<tag k="natural" v="hill" />
		<tag k="place" v="locality" />
		<tag k="ssr:stedsnr" v="583320" />
	</node>
	<node lat="60.0088277769116" lon="5.5881750036012665" id="-70767">
		<tag k="name" v="Bjørnastølssmoget" />
		<tag k="natural" v="valley" />
		<tag k="place" v="locality" />
		<tag k="ssr:stedsnr" v="583326" />
	</node>
	<node lat="60.02220555864044" lon="5.529352782134484" id="-70768">
		<tag k="name" v="Nålarhaug" />
		<tag k="natural" v="hill" />
		<tag k="place" v="locality" />
		<tag k="ssr:stedsnr" v="583346" />
	</node>
	<node lat="59.963544444570395" lon="5.546136107937089" id="-70774">
		<tag k="fixme" v="consider natural=peak for the most distinct mountains in the district" />
		<tag k="name" v="Lauvåsen" />
		<tag k="natural" v="hill" />
		<tag k="place" v="locality" />
		<tag k="ssr:stedsnr" v="583140" />
	</node>
	<node lat="59.95895277773919" lon="5.493358338832994" id="-70775">
		<tag k="name" v="Gjelten" />
		<tag k="natural" v="valley" />
		<tag k="place" v="locality" />
		<tag k="ssr:stedsnr" v="583144" />
	</node>
	<node lat="59.99273333087434" lon="5.689513897747188" id="-70776">
		<tag k="name" v="Heia" />
		<tag k="natural" v="hill" />
		<tag k="place" v="locality" />
		<tag k="ssr:stedsnr" v="583219" />
	</node>
	<node lat="59.99806944762065" lon="5.618624994662265" id="-70777">
		<tag k="fixme" v="consider natural=peak for the most distinct mountains in the district" />
		<tag k="name" v="Hauvåsen" />
		<tag k="natural" v="hill" />
		<tag k="place" v="locality" />
		<tag k="ssr:stedsnr" v="583239" />
	</node>
	<node lat="59.996441662964344" lon="5.6079305639930475" id="-70778">
		<tag k="name" v="Kulthaug" />
		<tag k="natural" v="hill" />
		<tag k="place" v="locality" />
		<tag k="ssr:stedsnr" v="583245" />
	</node>
	<node lat="60.01968055371802" lon="5.690763889447507" id="-70779">
		<tag k="name" v="Kolhaug" />
		<tag k="natural" v="hill" />
		<tag k="place" v="locality" />
		<tag k="ssr:stedsnr" v="583246" />
	</node>
	<node lat="60.04123333013983" lon="5.512627775541934" id="-70788">
		<tag k="name" v="Småhaugane" />
		<tag k="natural" v="hill" />
		<tag k="place" v="locality" />
		<tag k="ssr:stedsnr" v="583838" />
	</node>
	<node lat="60.00192222288437" lon="5.552041664143225" id="-70789">
		<tag k="name" v="Nydalen" />
		<tag k="natural" v="valley" />
		<tag k="place" v="locality" />
		<tag k="ssr:stedsnr" v="583841" />
	</node>
	<node lat="59.89362777568475" lon="5.5810055471298785" id="-70800">
		<tag k="name" v="Berget" />
		<tag k="natural" v="hill" />
		<tag k="place" v="locality" />
		<tag k="ssr:stedsnr" v="584168" />
	</node>
	<node lat="59.929666668219646" lon="5.569008334627173" id="-70801">
		<tag k="name" v="Grasbotnen" />
		<tag k="natural" v="valley" />
		<tag k="place" v="locality" />
		<tag k="ssr:stedsnr" v="584180" />
	</node>
	<node lat="59.91588333356007" lon="5.560691665343951" id="-70802">
		<tag k="alt_name" v="Fornessåta" />
		<tag k="fixme" v="consider natural=peak for the most distinct mountains in the district" />
		<tag k="name" v="Tornessåta" />
		<tag k="natural" v="hill" />
		<tag k="place" v="locality" />
		<tag k="ssr:stedsnr" v="584190" />
	</node>
	<node lat="59.95566944606609" lon="5.62704444621034" id="-70823">
		<tag k="alt_name" v="Valberg" />
		<tag k="name" v="Valberget" />
		<tag k="natural" v="hill" />
		<tag k="place" v="locality" />
		<tag k="ssr:stedsnr" v="610677" />
	</node>
	<node lat="60.03511388770622" lon="5.362302780235722" id="-70826">
		<tag k="fixme" v="consider natural=peak for the most distinct mountains in the district" />
		<tag k="name" v="Mjellsfjellet" />
		<tag k="natural" v="hill" />
		<tag k="place" v="locality" />
		<tag k="ssr:stedsnr" v="611124" />
	</node>
	<node lat="60.034136109386274" lon="5.591841673246499" id="-70828">
		<tag k="name" v="Stølshaugen" />
		<tag k="natural" v="hill" />
		<tag k="place" v="locality" />
		<tag k="ssr:stedsnr" v="611333" />
	</node>
	<node lat="59.96604166353403" lon="5.5191027857245585" id="-70835">
		<tag k="name" v="Stuthaugen" />
		<tag k="natural" v="hill" />
		<tag k="place" v="locality" />
		<tag k="ssr:stedsnr" v="643152" />
	</node>
	<node lat="59.980841667884604" lon="5.539308338536844" id="-70836">
		<tag k="name" v="Ferhovda" />
		<tag k="natural" v="hill" />
		<tag k="place" v="locality" />
		<tag k="ssr:stedsnr" v="643155" />
	</node>
	<node lat="59.962274999732564" lon="5.490244445550617" id="-70837">
		<tag k="name" v="Hovda" />
		<tag k="natural" v="hill" />
		<tag k="place" v="locality" />
		<tag k="ssr:stedsnr" v="643156" />
	</node>
	<node lat="59.96730277807937" lon="5.557719442940042" id="-70838">
		<tag k="name" v="Sverrehaugen" />
		<tag k="natural" v="hill" />
		<tag k="place" v="locality" />
		<tag k="ssr:stedsnr" v="643163" />
	</node>
	<node lat="59.92245000331045" lon="5.613761106068585" id="-70845">
		<tag k="name" v="Limbudalen" />
		<tag k="natural" v="valley" />
		<tag k="place" v="locality" />
		<tag k="ssr:stedsnr" v="643757" />
	</node>
	<node lat="59.98901388925104" lon="5.61598332522483" id="-70850">
		<tag k="name" v="Hovdabotnen" />
		<tag k="natural" v="valley" />
		<tag k="place" v="locality" />
		<tag k="ssr:stedsnr" v="643813" />
	</node>
	<node lat="59.98790833001276" lon="5.438711115284024" id="-70862">
		<tag k="name" v="Naustberget" />
		<tag k="natural" v="hill" />
		<tag k="place" v="locality" />
		<tag k="ssr:stedsnr" v="644195" />
	</node>
	<node lat="59.98313333304815" lon="5.442341663397954" id="-70863">
		<tag k="fixme" v="consider natural=peak for the most distinct mountains in the district" />
		<tag k="name" v="Sperråsen" />
		<tag k="natural" v="hill" />
		<tag k="place" v="locality" />
		<tag k="ssr:stedsnr" v="644198" />
	</node>
	<node lat="60.0185138865804" lon="5.472774994998597" id="-70864">
		<tag k="name" v="Bukkahaugen" />
		<tag k="natural" v="hill" />
		<tag k="place" v="locality" />
		<tag k="ssr:stedsnr" v="644201" />
	</node>
	<node lat="60.02774722258158" lon="5.37349722365745" id="-70865">
		<tag k="name" v="Kallhaugen" />
		<tag k="natural" v="hill" />
		<tag k="place" v="locality" />
		<tag k="ssr:stedsnr" v="644219" />
	</node>
	<node lat="60.047655555606234" lon="5.509680561190456" id="-70867">
		<tag k="name" v="Korsfjorden" />
		<tag k="place" v="locality" />
		<tag k="ssr:stedsnr" v="644254" />
	</node>
	<node lat="60.06198055739864" lon="5.645000006955325" id="-70868">
		<tag k="name" v="Vardhaugen" />
		<tag k="natural" v="hill" />
		<tag k="place" v="locality" />
		<tag k="ssr:stedsnr" v="644259" />
	</node>
	<node lat="59.983324999632266" lon="5.601999998094111" id="-70869">
		<tag k="fixme" v="consider natural=peak for the most distinct mountains in the district" />
		<tag k="name" v="Lyngåsen" />
		<tag k="natural" v="hill" />
		<tag k="place" v="locality" />
		<tag k="ssr:stedsnr" v="644266" />
	</node>
	<node lat="59.99051666976827" lon="5.65413610394647" id="-70870">
		<tag k="name" v="Galten" />
		<tag k="natural" v="hill" />
		<tag k="place" v="locality" />
		<tag k="ssr:stedsnr" v="644270" />
	</node>
	<node lat="60.01618333278755" lon="5.50179721413557" id="-70871">
		<tag k="name" v="Tindakleiva" />
		<tag k="natural" v="ridge" />
		<tag k="place" v="locality" />
		<tag k="ssr:stedsnr" v="644355" />
	</node>
	<node lat="59.95006388842502" lon="5.590524993948131" id="-70872">
		<tag k="name" v="Djupedalen" />
		<tag k="natural" v="valley" />
		<tag k="place" v="locality" />
		<tag k="ssr:stedsnr" v="644359" />
	</node>
	<node lat="59.946191669856226" lon="5.574861105570959" id="-70873">
		<tag k="fixme" v="consider natural=peak for the most distinct mountains in the district" />
		<tag k="name" v="Skarvåsen" />
		<tag k="natural" v="hill" />
		<tag k="place" v="locality" />
		<tag k="ssr:stedsnr" v="644370" />
	</node>
	<node lat="59.94622778152408" lon="5.569416670667965" id="-70874">
		<tag k="name" v="Moldbrekka" />
		<tag k="natural" v="slope" />
		<tag k="place" v="locality" />
		<tag k="ssr:stedsnr" v="644373" />
	</node>
	<node lat="60.009022495275424" lon="5.642369836233296" id="-70877">
		<tag k="name" v="Nordre Grovassdalen" />
		<tag k="natural" v="valley" />
		<tag k="place" v="locality" />
		<tag k="ssr:stedsnr" v="644283" />
	</node>
	<node lat="59.880961106664415" lon="5.622636106801961" id="-70878">
		<tag k="name" v="Håberget" />
		<tag k="natural" v="hill" />
		<tag k="place" v="locality" />
		<tag k="ssr:stedsnr" v="644302" />
	</node>
	<node lat="60.05184721859249" lon="5.499094438079256" id="-70879">
		<tag k="name" v="Hesten" />
		<tag k="natural" v="ridge" />
		<tag k="place" v="locality" />
		<tag k="ssr:stedsnr" v="644318" />
	</node>
	<node lat="59.99989444568391" lon="5.568397213294191" id="-70880">
		<tag k="fixme" v="consider natural=peak for the most distinct mountains in the district" />
		<tag k="name" v="Singelstadfjellet" />
		<tag k="natural" v="hill" />
		<tag k="place" v="locality" />
		<tag k="ssr:stedsnr" v="644328" />
	</node>
	<node lat="59.95400833002434" lon="5.575794450126792" id="-70881">
		<tag k="fixme" v="consider natural=peak for the most distinct mountains in the district" />
		<tag k="name" v="Furåsen" />
		<tag k="natural" v="hill" />
		<tag k="place" v="locality" />
		<tag k="ssr:stedsnr" v="644380" />
	</node>
	<node lat="59.967427781299115" lon="5.515161108124298" id="-70893">
		<tag k="name" v="Holskardet" />
		<tag k="natural" v="hill" />
		<tag k="place" v="locality" />
		<tag k="ssr:stedsnr" v="704139" />
	</node>
	<node lat="59.97496666856824" lon="5.553166669324351" id="-70894">
		<tag k="name" v="Geithaug" />
		<tag k="natural" v="hill" />
		<tag k="place" v="locality" />
		<tag k="ssr:stedsnr" v="704142" />
	</node>
	<node lat="60.000452778632116" lon="5.479741660923882" id="-70895">
		<tag k="name" v="Kjevikehaugen" />
		<tag k="natural" v="hill" />
		<tag k="place" v="locality" />
		<tag k="ssr:stedsnr" v="705368" />
	</node>
	<node lat="60.02497499898408" lon="5.4326361152829" id="-70899">
		<tag k="name" v="Blokkebærhaugen" />
		<tag k="natural" v="hill" />
		<tag k="place" v="locality" />
		<tag k="ssr:stedsnr" v="705165" />
	</node>
	<node lat="60.081613887554326" lon="5.390788889081264" id="-70900">
		<tag k="name" v="Benddalen" />
		<tag k="natural" v="valley" />
		<tag k="place" v="locality" />
		<tag k="ssr:stedsnr" v="705173" />
	</node>
	<node lat="60.07554166525691" lon="5.382744443348926" id="-70901">
		<tag k="name" v="Buhaugen" />
		<tag k="natural" v="hill" />
		<tag k="place" v="locality" />
		<tag k="ssr:stedsnr" v="705176" />
	</node>
	<node lat="60.07538610935638" lon="5.391261113147164" id="-70902">
		<tag k="name" v="Kvernahaugen" />
		<tag k="natural" v="hill" />
		<tag k="place" v="locality" />
		<tag k="ssr:stedsnr" v="705178" />
	</node>
	<node lat="60.06783139126965" lon="5.619524879888487" id="-70907">
		<tag k="name" v="Gygrareva" />
		<tag k="natural" v="valley" />
		<tag k="place" v="locality" />
		<tag k="ssr:stedsnr" v="705158" />
	</node>
	<node lat="60.06786389319429" lon="5.356877781941915" id="-70910">
		<tag k="name" v="Vikadalen" />
		<tag k="natural" v="valley" />
		<tag k="place" v="locality" />
		<tag k="ssr:stedsnr" v="705262" />
	</node>
	<node lat="59.96623333149153" lon="5.467236107245075" id="-70911">
		<tag k="name" v="Leitesliane" />
		<tag k="natural" v="slope" />
		<tag k="place" v="locality" />
		<tag k="ssr:stedsnr" v="705271" />
	</node>
	<node lat="59.94249444052299" lon="5.578244446765149" id="-70918">
		<tag k="name" v="Vesle Djupedalen" />
		<tag k="natural" v="valley" />
		<tag k="place" v="locality" />
		<tag k="ssr:stedsnr" v="705399" />
	</node>
	<node lat="60.042094448092755" lon="5.388683328185678" id="-70934">
		<tag k="name" v="Skiftesrinda" />
		<tag k="natural" v="hill" />
		<tag k="place" v="locality" />
		<tag k="ssr:stedsnr" v="732153" />
	</node>
	<node lat="60.03859722673539" lon="5.41179445243692" id="-70935">
		<tag k="name" v="Sauahaugen" />
		<tag k="natural" v="hill" />
		<tag k="place" v="locality" />
		<tag k="ssr:stedsnr" v="732154" />
	</node>
	<node lat="59.926766663536846" lon="5.591433334198531" id="-70941">
		<tag k="fixme" v="consider natural=peak for the most distinct mountains in the district" />
		<tag k="name" v="Øykjafjellet" />
		<tag k="natural" v="hill" />
		<tag k="place" v="locality" />
		<tag k="ssr:stedsnr" v="732745" />
	</node>
	<node lat="59.95139444435026" lon="5.604077772547736" id="-70942">
		<tag k="fixme" v="consider natural=peak for the most distinct mountains in the district" />
		<tag k="name" v="Storsæterfjellet" />
		<tag k="natural" v="hill" />
		<tag k="place" v="locality" />
		<tag k="ssr:stedsnr" v="732685" />
	</node>
	<node lat="60.06520555663698" lon="5.356738888020642" id="-70948">
		<tag k="name" v="Håkre" />
		<tag k="natural" v="hill" />
		<tag k="place" v="locality" />
		<tag k="ssr:stedsnr" v="733175" />
	</node>
	<node lat="60.02587500226585" lon="5.487938885527278" id="-70949">
		<tag k="fixme" v="consider natural=peak for the most distinct mountains in the district" />
		<tag k="name" v="Bjørkåsen" />
		<tag k="natural" v="hill" />
		<tag k="place" v="locality" />
		<tag k="ssr:stedsnr" v="733624" />
	</node>
	<node lat="60.05586110972381" lon="5.68196666672601" id="-70953">
		<tag k="name" v="Bruna" />
		<tag k="natural" v="hill" />
		<tag k="place" v="locality" />
		<tag k="ssr:stedsnr" v="733339" />
	</node>
	<node lat="60.02006388965519" lon="5.685505562348605" id="-70955">
		<tag k="name" v="Storhaug" />
		<tag k="natural" v="hill" />
		<tag k="place" v="locality" />
		<tag k="ssr:stedsnr" v="733656" />
	</node>
	<node lat="59.988708334160364" lon="5.659699998408001" id="-70963">
		<tag k="fixme" v="consider natural=peak for the most distinct mountains in the district" />
		<tag k="name" v="Varden" />
		<tag k="natural" v="hill" />
		<tag k="place" v="locality" />
		<tag k="ssr:stedsnr" v="765241" />
	</node>
	<node lat="60.00337499849124" lon="5.623138893296064" id="-70964">
		<tag k="name" v="Dyrshaug" />
		<tag k="natural" v="hill" />
		<tag k="place" v="locality" />
		<tag k="ssr:stedsnr" v="765242" />
	</node>
	<node lat="60.059766666985745" lon="5.558497221682598" id="-70968">
		<tag k="fixme" v="consider natural=peak for the most distinct mountains in the district" />
		<tag k="name" v="Leirvikåsen" />
		<tag k="natural" v="hill" />
		<tag k="place" v="locality" />
		<tag k="ssr:stedsnr" v="765299" />
	</node>
	<node lat="60.00649722191861" lon="5.479983335443825" id="-70969">
		<tag k="name" v="Torehaugane" />
		<tag k="natural" v="hill" />
		<tag k="place" v="locality" />
		<tag k="ssr:stedsnr" v="765316" />
	</node>
	<node lat="60.01082222542403" lon="5.532391675165322" id="-70970">
		<tag k="name" v="Falkaberg" />
		<tag k="natural" v="hill" />
		<tag k="place" v="locality" />
		<tag k="ssr:stedsnr" v="765318" />
	</node>
	<node lat="60.01745833295737" lon="5.492252783290959" id="-70971">
		<tag k="name" v="Geitshovda" />
		<tag k="natural" v="hill" />
		<tag k="place" v="locality" />
		<tag k="ssr:stedsnr" v="765325" />
	</node>
	<node lat="59.94368333045459" lon="5.571819441850106" id="-70972">
		<tag k="name" v="Kopardalen" />
		<tag k="natural" v="valley" />
		<tag k="place" v="locality" />
		<tag k="ssr:stedsnr" v="765336" />
	</node>
	<node lat="59.94121111381445" lon="5.578947220071892" id="-70973">
		<tag k="fixme" v="consider natural=peak for the most distinct mountains in the district" />
		<tag k="name" v="Ramsdalsåsen" />
		<tag k="natural" v="hill" />
		<tag k="place" v="locality" />
		<tag k="ssr:stedsnr" v="765341" />
	</node>
	<node lat="60.00998055099104" lon="5.647413881640448" id="-70975">
		<tag k="name" v="Grobrekka" />
		<tag k="natural" v="slope" />
		<tag k="place" v="locality" />
		<tag k="ssr:stedsnr" v="765270" />
	</node>
	<node lat="59.9577888878842" lon="5.61453889444193" id="-70976">
		<tag k="name" v="Stemmehaugen" />
		<tag k="natural" v="hill" />
		<tag k="place" v="locality" />
		<tag k="ssr:stedsnr" v="765272" />
	</node>
	<node lat="59.96959444838934" lon="5.612694446539246" id="-70977">
		<tag k="name" v="Angelsbrekka" />
		<tag k="natural" v="slope" />
		<tag k="place" v="locality" />
		<tag k="ssr:stedsnr" v="765275" />
	</node>
	<node lat="59.96893611220259" lon="5.59836944723047" id="-70978">
		<tag k="name" v="Oshaugen" />
		<tag k="natural" v="hill" />
		<tag k="place" v="locality" />
		<tag k="ssr:stedsnr" v="765281" />
	</node>
	<node lat="60.04498889059299" lon="5.633561106836509" id="-70980">
		<tag k="name" v="Kråkeskardshaugen" />
		<tag k="natural" v="hill" />
		<tag k="place" v="locality" />
		<tag k="ssr:stedsnr" v="765466" />
	</node>
	<node lat="60.080019444092265" lon="5.6701305475542485" id="-70981">
		<tag k="name" v="Hestaskotet" />
		<tag k="natural" v="hill" />
		<tag k="place" v="locality" />
		<tag k="ssr:stedsnr" v="765471" />
	</node>
	<node lat="59.97311111047153" lon="5.510499995524416" id="-70987">
		<tag k="name" v="Furehaugen" />
		<tag k="natural" v="hill" />
		<tag k="place" v="locality" />
		<tag k="ssr:stedsnr" v="765799" />
	</node>
	<node lat="59.962858334191466" lon="5.540994451713963" id="-70988">
		<tag k="name" v="Tonehaugen" />
		<tag k="natural" v="hill" />
		<tag k="place" v="locality" />
		<tag k="ssr:stedsnr" v="765801" />
	</node>
	<node lat="59.97561944667404" lon="5.464452773847369" id="-70995">
		<tag k="name" v="Kvernahaugen" />
		<tag k="natural" v="hill" />
		<tag k="place" v="locality" />
		<tag k="ssr:stedsnr" v="766240" />
	</node>
	<node lat="59.93827222600569" lon="5.58463333230952" id="-70998">
		<tag k="name" v="Ramsdalen" />
		<tag k="natural" v="valley" />
		<tag k="place" v="locality" />
		<tag k="ssr:stedsnr" v="766172" />
	</node>
	<node lat="59.91596944369032" lon="5.529272216274582" id="-70999">
		<tag k="name" v="Korsvikedalen" />
		<tag k="natural" v="valley" />
		<tag k="place" v="locality" />
		<tag k="ssr:stedsnr" v="766177" />
	</node>
	<node lat="59.917165357700576" lon="5.576019959825387" id="-71000">
		<tag k="fixme" v="consider natural=peak for the most distinct mountains in the district" />
		<tag k="name" v="Øykjafjellsnova" />
		<tag k="natural" v="hill" />
		<tag k="place" v="locality" />
		<tag k="ssr:stedsnr" v="766182" />
	</node>
	<node lat="59.95830000384414" lon="5.46189443804079" id="-71001">
		<tag k="name" v="Dyrsholene" />
		<tag k="natural" v="valley" />
		<tag k="place" v="locality" />
		<tag k="ssr:stedsnr" v="766190" />
	</node>
	<node lat="59.98231111222839" lon="5.5391583257271835" id="-71010">
		<tag k="name" v="Forhovda" />
		<tag k="natural" v="hill" />
		<tag k="place" v="locality" />
		<tag k="ssr:stedsnr" v="792652" />
	</node>
	<node lat="60.04092500219093" lon="5.600913884041627" id="-71011">
		<tag k="fixme" v="consider natural=peak for the most distinct mountains in the district" />
		<tag k="name" v="Humlevikfjellet" />
		<tag k="natural" v="hill" />
		<tag k="place" v="locality" />
		<tag k="ssr:stedsnr" v="793382" />
	</node>
	<node lat="60.03782499625803" lon="5.546008337658591" id="-71018">
		<tag k="fixme" v="consider natural=peak for the most distinct mountains in the district" />
		<tag k="name" v="Ramnanuten" />
		<tag k="natural" v="hill" />
		<tag k="place" v="locality" />
		<tag k="ssr:stedsnr" v="793344" />
	</node>
	<node lat="60.02906944018484" lon="5.526447223889845" id="-71019">
		<tag k="fixme" v="consider natural=peak for the most distinct mountains in the district" />
		<tag k="name" v="Vågsåsen" />
		<tag k="natural" v="hill" />
		<tag k="place" v="locality" />
		<tag k="ssr:stedsnr" v="793345" />
	</node>
	<node lat="60.04179721830849" lon="5.470449999052838" id="-71024">
		<tag k="alt_name" v="Grøteidfjellet" />
		<tag k="name" v="Grøteidsklubben" />
		<tag k="natural" v="hill" />
		<tag k="place" v="locality" />
		<tag k="ssr:stedsnr" v="793374" />
	</node>
	<node lat="60.011383334608546" lon="5.538502782200619" id="-71028">
		<tag k="fixme" v="consider natural=peak for the most distinct mountains in the district" />
		<tag k="name" v="Revskollen" />
		<tag k="natural" v="hill" />
		<tag k="place" v="locality" />
		<tag k="ssr:stedsnr" v="793689" />
	</node>
	<node lat="60.031874996971915" lon="5.653805548361659" id="-71030">
		<tag k="name" v="Selhovda" />
		<tag k="natural" v="hill" />
		<tag k="place" v="locality" />
		<tag k="ssr:stedsnr" v="793668" />
	</node>
	<node lat="59.95819166745869" lon="5.606030555962334" id="-71041">
		<tag k="name" v="Pallen" />
		<tag k="place" v="locality" />
		<tag k="ssr:stedsnr" v="826302" />
	</node>
	<node lat="59.95277500209266" lon="5.622050002701694" id="-71042">
		<tag k="name" v="Rabbakleiva" />
		<tag k="natural" v="slope" />
		<tag k="place" v="locality" />
		<tag k="ssr:stedsnr" v="826308" />
	</node>
	<node lat="59.901638889461" lon="5.617786115816817" id="-71043">
		<tag k="fixme" v="consider natural=peak for the most distinct mountains in the district" />
		<tag k="name" v="Bjørkedalsnutane" />
		<tag k="natural" v="hill" />
		<tag k="place" v="locality" />
		<tag k="ssr:stedsnr" v="826311" />
	</node>
	<node lat="59.998797220269296" lon="5.572941664186158" id="-71044">
		<tag k="name" v="Langedalen" />
		<tag k="natural" v="valley" />
		<tag k="place" v="locality" />
		<tag k="ssr:stedsnr" v="826333" />
	</node>
	<node lat="59.983841671157336" lon="5.5072416725768445" id="-71045">
		<tag k="name" v="Skukkane" />
		<tag k="natural" v="hill" />
		<tag k="place" v="locality" />
		<tag k="ssr:stedsnr" v="826338" />
	</node>
	<node lat="60.04431110783963" lon="5.646688881825309" id="-71054">
		<tag k="name" v="Tverrinda" />
		<tag k="natural" v="ridge" />
		<tag k="place" v="locality" />
		<tag k="ssr:stedsnr" v="826485" />
	</node>
	<node lat="60.07109444643083" lon="5.429555555174961" id="-71063">
		<tag k="name" v="Storhaugen" />
		<tag k="natural" v="hill" />
		<tag k="place" v="locality" />
		<tag k="ssr:stedsnr" v="826797" />
	</node>
	<node lat="59.91124722372199" lon="5.566888889605965" id="-71072">
		<tag k="fixme" v="consider natural=peak for the most distinct mountains in the district" />
		<tag k="name" v="Salsborg" />
		<tag k="natural" v="hill" />
		<tag k="place" v="locality" />
		<tag k="ssr:stedsnr" v="827200" />
	</node>
	<node lat="59.977336110369166" lon="5.466600004761326" id="-71073">
		<tag k="name" v="Skukken" />
		<tag k="place" v="locality" />
		<tag k="ssr:stedsnr" v="827284" />
	</node>
	<node lat="59.97401111162745" lon="5.465683338400027" id="-71074">
		<tag k="name" v="Stølshaugen" />
		<tag k="natural" v="hill" />
		<tag k="place" v="locality" />
		<tag k="ssr:stedsnr" v="827285" />
	</node>
	<node lat="60.04360277757614" lon="5.375416671155433" id="-71075">
		<tag k="fixme" v="consider natural=peak for the most distinct mountains in the district" />
		<tag k="name" v="Roalden" />
		<tag k="natural" v="hill" />
		<tag k="place" v="locality" />
		<tag k="ssr:stedsnr" v="827239" />
	</node>
	<node lat="59.94265277968446" lon="5.616250000466374" id="-71076">
		<tag k="name" v="Elsåkerbrunene" />
		<tag k="natural" v="hill" />
		<tag k="place" v="locality" />
		<tag k="ssr:stedsnr" v="827255" />
	</node>
	<node lat="59.9534333326429" lon="5.582775008838338" id="-71078">
		<tag k="name" v="Kyrkjekleiva" />
		<tag k="natural" v="slope" />
		<tag k="place" v="locality" />
		<tag k="ssr:stedsnr" v="827397" />
	</node>
	<node lat="59.89076388551323" lon="5.609200004678263" id="-71093">
		<tag k="name" v="Kongshaug" />
		<tag k="natural" v="hill" />
		<tag k="place" v="locality" />
		<tag k="ssr:stedsnr" v="853249" />
	</node>
	<node lat="60.00596944065806" lon="5.488005553435059" id="-71103">
		<tag k="name" v="Seiaberget" />
		<tag k="natural" v="hill" />
		<tag k="place" v="locality" />
		<tag k="ssr:stedsnr" v="854639" />
	</node>
	<node lat="59.98413333144425" lon="5.379583325105882" id="-71113">
		<tag k="name" v="Høga skotet" />
		<tag k="natural" v="cliff" />
		<tag k="ssr:stedsnr" v="937665" />
	</node>
	<node lat="59.91534166629477" lon="5.564452773109013" id="-71114">
		<tag k="fixme" v="consider natural=peak for the most distinct mountains in the district" />
		<tag k="name" v="Såtefjellet" />
		<tag k="natural" v="hill" />
		<tag k="place" v="locality" />
		<tag k="ssr:stedsnr" v="947125" />
	</node>
	<node lat="59.89625832951037" lon="5.5427111077493105" id="-71115">
		<tag k="name" v="Skardkulten" />
		<tag k="natural" v="hill" />
		<tag k="place" v="locality" />
		<tag k="ssr:stedsnr" v="947127" />
	</node>
	<node lat="59.9721805590948" lon="5.559358337031961" id="-71116">
		<tag k="name" v="Brekkehaugen" />
		<tag k="natural" v="hill" />
		<tag k="place" v="locality" />
		<tag k="ssr:stedsnr" v="947143" />
	</node>
	<node lat="59.969722219118204" lon="5.585080556042981" id="-71117">
		<tag k="name" v="Gulbrandshaugen" />
		<tag k="natural" v="hill" />
		<tag k="place" v="locality" />
		<tag k="ssr:stedsnr" v="947147" />
	</node>
	<node lat="60.001333336839735" lon="5.60318055694134" id="-71118">
		<tag k="name" v="Tømberhaugen" />
		<tag k="natural" v="hill" />
		<tag k="place" v="locality" />
		<tag k="ssr:stedsnr" v="947817" />
	</node>
	<node lat="60.01551111257883" lon="5.701591658429498" id="-71119">
		<tag k="name" v="Bagdalen" />
		<tag k="natural" v="valley" />
		<tag k="place" v="locality" />
		<tag k="ssr:stedsnr" v="947819" />
	</node>
	<node lat="60.05848055670033" lon="5.39112499591346" id="-71136">
		<tag k="name" v="Gjøvågsdalen" />
		<tag k="natural" v="valley" />
		<tag k="place" v="locality" />
		<tag k="ssr:stedsnr" v="948220" />
	</node>
	<node lat="59.90893610876652" lon="5.656661113268687" id="-71137">
		<tag k="fixme" v="consider natural=peak for the most distinct mountains in the district" />
		<tag k="name" v="Revhusåsen" />
		<tag k="natural" v="hill" />
		<tag k="place" v="locality" />
		<tag k="ssr:stedsnr" v="948320" />
	</node>
	<node lat="59.99511111171559" lon="5.675444442667958" id="-71138">
		<tag k="fixme" v="consider natural=peak for the most distinct mountains in the district" />
		<tag k="name" v="Skoltane" />
		<tag k="natural" v="hill" />
		<tag k="place" v="locality" />
		<tag k="ssr:stedsnr" v="948247" />
	</node>
	<node lat="59.992588892453476" lon="5.692724992033598" id="-71142">
		<tag k="name" v="Eikehaugen" />
		<tag k="natural" v="hill" />
		<tag k="place" v="locality" />
		<tag k="ssr:stedsnr" v="948265" />
	</node>
	<node lat="59.9998194423058" lon="5.6743333377977185" id="-71143">
		<tag k="name" v="Liabrekka" />
		<tag k="natural" v="slope" />
		<tag k="place" v="locality" />
		<tag k="ssr:stedsnr" v="948266" />
	</node>
	<node lat="60.04693888667046" lon="5.60427778517614" id="-71144">
		<tag k="name" v="Furekamben" />
		<tag k="natural" v="ridge" />
		<tag k="place" v="locality" />
		<tag k="ssr:stedsnr" v="948269" />
	</node>
	<node lat="60.000222223355834" lon="5.655647229567595" id="-71145">
		<tag k="name" v="Ormaheia" />
		<tag k="natural" v="hill" />
		<tag k="place" v="locality" />
		<tag k="ssr:stedsnr" v="948276" />
	</node>
	<node lat="59.999875003082416" lon="5.676941672058609" id="-71146">
		<tag k="name" v="Hanarhaug" />
		<tag k="natural" v="hill" />
		<tag k="place" v="locality" />
		<tag k="ssr:stedsnr" v="948278" />
	</node>
	<node lat="60.05551110788248" lon="5.664858325974991" id="-71147">
		<tag k="name" v="Gjoskardet" />
		<tag k="natural" v="valley" />
		<tag k="place" v="locality" />
		<tag k="ssr:stedsnr" v="948563" />
	</node>
	<node lat="60.04020000287546" lon="5.6373305536030065" id="-71148">
		<tag k="name" v="Mørkebrotet" />
		<tag k="natural" v="hill" />
		<tag k="place" v="locality" />
		<tag k="ssr:stedsnr" v="948567" />
	</node>
	<node lat="60.03897500309339" lon="5.623261105286674" id="-71149">
		<tag k="name" v="Elvahaugen" />
		<tag k="natural" v="hill" />
		<tag k="place" v="locality" />
		<tag k="ssr:stedsnr" v="948571" />
	</node>
	<node lat="60.01044721789057" lon="5.51881944621314" id="-71154">
		<tag k="fixme" v="consider natural=peak for the most distinct mountains in the district" />
		<tag k="name" v="Smørkollen" />
		<tag k="natural" v="hill" />
		<tag k="place" v="locality" />
		<tag k="ssr:stedsnr" v="948357" />
	</node>
	<node lat="60.06857922194464" lon="5.555899976209665" id="-71182">
		<tag k="name" v="Tufte" />
		<tag k="natural" v="hill" />
		<tag k="place" v="locality" />
		<tag k="ssr:stedsnr" v="990970" />
	</node>
</osm>
