<?xml version="1.0" encoding="UTF-8"?>
<osm version="0.6" generator="osmapis">
	<node lat="59.99279444687273" lon="5.4444611179091575" id="-31475">
		<tag k="name" v="Fureholmen" />
		<tag k="place" v="islet" />
		<tag k="ssr:stedsnr" v="4121" />
	</node>
	<node lat="60.06873055472727" lon="5.3564749913164285" id="-31480">
		<tag k="alt_name" v="Kvernavika" />
		<tag k="name" v="Rasmusvika" />
		<tag k="natural" v="bay" />
		<tag k="ssr:stedsnr" v="5179" />
	</node>
	<node lat="60.06209166428535" lon="5.632694446638957" id="-31481">
		<tag k="alt_name" v="Lundavågen" />
		<tag k="name" v="Lundevågen" />
		<tag k="natural" v="bay" />
		<tag k="ssr:stedsnr" v="5260" />
	</node>
	<node lat="60.08736666524551" lon="5.506869448909998" id="-31482">
		<tag k="name" v="Hjeltaflua" />
		<tag k="natural" v="shoal" />
		<tag k="place" v="locality" />
		<tag k="ssr:stedsnr" v="5419" />
	</node>
	<node lat="60.082416664859885" lon="5.435919449277265" id="-31488">
		<tag k="alt_name" v="Russøy;Russøya" />
		<tag k="name" v="Rusøya" />
		<tag k="place" v="islet" />
		<tag k="ssr:stedsnr" v="5903" />
	</node>
	<node lat="59.92304444762983" lon="5.729572217587785" id="-31489">
		<tag k="name" v="Nevraneset" />
		<tag k="natural" v="cape" />
		<tag k="ssr:stedsnr" v="24303" />
	</node>
	<node lat="59.99903333427585" lon="5.705686108220716" id="-31490">
		<tag k="name" v="Ølfersundet" />
		<tag k="natural" v="strait" />
		<tag k="ssr:stedsnr" v="25298" />
	</node>
	<node lat="59.931211107216185" lon="5.517369449388711" id="-31499">
		<tag k="alt_name" v="Årvikneset" />
		<tag k="name" v="Årvikeneset" />
		<tag k="natural" v="cape" />
		<tag k="ssr:stedsnr" v="37663" />
	</node>
	<node lat="59.92006388801427" lon="5.699172216480539" id="-31500">
		<tag k="name" v="Breidneset" />
		<tag k="natural" v="cape" />
		<tag k="ssr:stedsnr" v="37807" />
	</node>
	<node lat="60.079268902736196" lon="5.681823717336426" id="-31504">
		<tag k="loc_name" v="Søra Rabbalsvika" />
		<tag k="name" v="Søra Rabbasvik" />
		<tag k="natural" v="bay" />
		<tag k="ssr:stedsnr" v="37559" />
	</node>
	<node lat="59.9721805532622" lon="5.65677500485838" id="-31506">
		<tag k="fixme" v="consider seamark:type=rock or natural=shoal" />
		<tag k="name" v="Kvannrotskjera" />
		<tag k="place" v="islet" />
		<tag k="ssr:stedsnr" v="37762" />
	</node>
	<node lat="60.05461944812256" lon="5.506447217529749" id="-31518">
		<tag k="name" v="Vesleholmen" />
		<tag k="place" v="islet" />
		<tag k="ssr:stedsnr" v="38695" />
	</node>
	<node lat="60.05176111112653" lon="5.4922750079389075" id="-31519">
		<tag k="name" v="Steinaneset" />
		<tag k="natural" v="cape" />
		<tag k="ssr:stedsnr" v="38699" />
	</node>
	<node lat="59.92501111378738" lon="5.611411108499058" id="-31520">
		<tag k="name" v="Lykkeneset" />
		<tag k="natural" v="cape" />
		<tag k="ssr:stedsnr" v="38818" />
	</node>
	<node lat="59.97745277906347" lon="5.39122499792759" id="-31521">
		<tag k="name" v="Gangstøneset" />
		<tag k="natural" v="cape" />
		<tag k="ssr:stedsnr" v="38862" />
	</node>
	<node lat="59.965405558880235" lon="5.434674994428427" id="-31524">
		<tag k="alt_name" v="Naustvik" />
		<tag k="name" v="Naustvika" />
		<tag k="natural" v="bay" />
		<tag k="ssr:stedsnr" v="64168" />
	</node>
	<node lat="59.89411111487793" lon="5.642361116334827" id="-31525">
		<tag k="name" v="Gåsholmane" />
		<tag k="place" v="islet" />
		<tag k="ssr:stedsnr" v="64266" />
	</node>
	<node lat="60.0720611116709" lon="5.523525005220482" id="-31527">
		<tag k="name" v="Vesøyane" />
		<tag k="place" v="island" />
		<tag k="ssr:stedsnr" v="65264" />
	</node>
	<node lat="60.077958330631475" lon="5.415555556870817" id="-31528">
		<tag k="alt_name" v="Hopneset" />
		<tag k="name" v="Hopsneset" />
		<tag k="natural" v="cape" />
		<tag k="ssr:stedsnr" v="65180" />
	</node>
	<node lat="60.04925833348416" lon="5.702438888350917" id="-31545">
		<tag k="name" v="Veslehaugneset" />
		<tag k="natural" v="cape" />
		<tag k="ssr:stedsnr" v="86361" />
	</node>
	<node lat="59.9256305600313" lon="5.517694447860868" id="-31546">
		<tag k="name" v="Ytra Sponhamar" />
		<tag k="natural" v="cape" />
		<tag k="ssr:stedsnr" v="86776" />
	</node>
	<node lat="60.064572219263184" lon="5.441697220389348" id="-31555">
		<tag k="alt_name" v="Vernøyneset" />
		<tag k="name" v="Vernaneset" />
		<tag k="natural" v="cape" />
		<tag k="ssr:stedsnr" v="247167" />
	</node>
	<node lat="60.062052774161096" lon="5.357822221040008" id="-31556">
		<tag k="name" v="Håkrevika" />
		<tag k="natural" v="bay" />
		<tag k="ssr:stedsnr" v="247175" />
	</node>
	<node lat="60.059463890285656" lon="5.699941663722962" id="-31561">
		<tag k="name" v="Djupevika" />
		<tag k="natural" v="bay" />
		<tag k="ssr:stedsnr" v="248334" />
	</node>
	<node lat="59.89055277404604" lon="5.599616664607219" id="-31563">
		<tag k="name" v="Skorpo" />
		<tag k="place" v="island" />
		<tag k="ssr:stedsnr" v="247543" />
	</node>
	<node lat="59.92886666451511" lon="5.614238881974519" id="-31575">
		<tag k="name" v="Straumen" />
		<tag k="natural" v="bay" />
		<tag k="ssr:stedsnr" v="97727" />
	</node>
	<node lat="60.06211388457152" lon="5.423541663815583" id="-31579">
		<tag k="name" v="Sagvågen" />
		<tag k="natural" v="bay" />
		<tag k="ssr:stedsnr" v="98175" />
	</node>
	<node lat="60.047361113669716" lon="5.438927784766798" id="-31583">
		<tag k="name" v="Snurpehola" />
		<tag k="natural" v="bay" />
		<tag k="ssr:stedsnr" v="98415" />
	</node>
	<node lat="60.033760076602704" lon="5.442021785442515" id="-31584">
		<tag k="name" v="Hardingakrokvika" />
		<tag k="natural" v="bay" />
		<tag k="ssr:stedsnr" v="98420" />
	</node>
	<node lat="60.00794721885521" lon="5.41557500200594" id="-31585">
		<tag k="name" v="Kostavika" />
		<tag k="natural" v="bay" />
		<tag k="ssr:stedsnr" v="98470" />
	</node>
	<node lat="59.96858889096804" lon="5.421794452379071" id="-31586">
		<tag k="name" v="Djupavika" />
		<tag k="natural" v="bay" />
		<tag k="ssr:stedsnr" v="98477" />
	</node>
	<node lat="60.02416389249052" lon="5.442330553794912" id="-31601">
		<tag k="name" v="Sætresjøen" />
		<tag k="natural" v="bay" />
		<tag k="ssr:stedsnr" v="98863" />
	</node>
	<node lat="59.912944443135935" lon="5.525594452219101" id="-31604">
		<tag k="name" v="Skoldebua" />
		<tag k="natural" v="cape" />
		<tag k="ssr:stedsnr" v="98778" />
	</node>
	<node lat="59.9050388907373" lon="5.669972225474862" id="-31621">
		<tag k="name" v="Frueøyneset" />
		<tag k="natural" v="cape" />
		<tag k="ssr:stedsnr" v="124666" />
	</node>
	<node lat="59.87013889242077" lon="5.628444439730873" id="-31623">
		<tag k="name" v="Flatøya" />
		<tag k="place" v="islet" />
		<tag k="ssr:stedsnr" v="125325" />
	</node>
	<node lat="59.92780000160752" lon="5.6736888910323495" id="-31626">
		<tag k="alt_name" v="Svidholmen" />
		<tag k="name" v="Sveholmen" />
		<tag k="place" v="islet" />
		<tag k="ssr:stedsnr" v="125755" />
	</node>
	<node lat="59.970402776624915" lon="5.657580557607047" id="-31628">
		<tag k="name" v="Bålholmen" />
		<tag k="place" v="islet" />
		<tag k="ssr:stedsnr" v="125658" />
	</node>
	<node lat="60.01386944426172" lon="5.375572224133807" id="-31630">
		<tag k="name" v="Flygansværvågen" />
		<tag k="natural" v="bay" />
		<tag k="ssr:stedsnr" v="126206" />
	</node>
	<node lat="60.01589722615419" lon="5.381886101782853" id="-31638">
		<tag k="name" v="Pollen" />
		<tag k="natural" v="bay" />
		<tag k="ssr:stedsnr" v="144489" />
	</node>
	<node lat="59.92500000240997" lon="5.649372213531546" id="-31640">
		<tag k="name" v="Knappen" />
		<tag k="natural" v="cape" />
		<tag k="ssr:stedsnr" v="146112" />
	</node>
	<node lat="60.07156666252843" lon="5.451411115751911" id="-31641">
		<tag k="name" v="Midtflua" />
		<tag k="natural" v="shoal" />
		<tag k="place" v="locality" />
		<tag k="ssr:stedsnr" v="146303" />
	</node>
	<node lat="60.06129999735381" lon="5.435491673543525" id="-31643">
		<tag k="name" v="Kyrkjeholmsvika" />
		<tag k="natural" v="bay" />
		<tag k="ssr:stedsnr" v="158409" />
	</node>
	<node lat="59.995744444775276" lon="5.451636113325748" id="-31644">
		<tag k="name" v="Ospevika" />
		<tag k="natural" v="bay" />
		<tag k="ssr:stedsnr" v="158421" />
	</node>
	<node lat="59.92910000426407" lon="5.632880549583316" id="-31645">
		<tag k="name" v="Storevågen" />
		<tag k="natural" v="bay" />
		<tag k="ssr:stedsnr" v="158713" />
	</node>
	<node lat="60.00991944701904" lon="5.421297215200206" id="-31646">
		<tag k="name" v="Kjøkkelneset" />
		<tag k="natural" v="cape" />
		<tag k="ssr:stedsnr" v="158449" />
	</node>
	<node lat="60.017980558040136" lon="5.465769445885875" id="-31647">
		<tag k="name" v="Vardaneset" />
		<tag k="natural" v="cape" />
		<tag k="ssr:stedsnr" v="158453" />
	</node>
	<node lat="59.90031111055984" lon="5.534019451851814" id="-31648">
		<tag k="name" v="Slettasandvika" />
		<tag k="natural" v="bay" />
		<tag k="ssr:stedsnr" v="158664" />
	</node>
	<node lat="60.056227779912476" lon="5.625102782584661" id="-31652">
		<tag k="fixme" v="consider seamark:type=rock or natural=shoal" />
		<tag k="name" v="Grimslandsskjeret" />
		<tag k="place" v="islet" />
		<tag k="ssr:stedsnr" v="159148" />
	</node>
	<node lat="60.079563892251535" lon="5.586919437026644" id="-31658">
		<tag k="name" v="Rumpetangen" />
		<tag k="natural" v="cape" />
		<tag k="ssr:stedsnr" v="159722" />
	</node>
	<node lat="59.91116388703588" lon="5.620972225521478" id="-31659">
		<tag k="fixme" v="consider seamark:type=rock or natural=shoal" />
		<tag k="name" v="Småskjeret" />
		<tag k="place" v="islet" />
		<tag k="ssr:stedsnr" v="165476" />
	</node>
	<node lat="60.07686870269033" lon="5.59315713038611" id="-31661">
		<tag k="alt_name" v="Skatatangen" />
		<tag k="name" v="Skatetangen" />
		<tag k="place" v="island" />
		<tag k="ssr:stedsnr" v="186287" />
	</node>
	<node lat="59.997455557436936" lon="5.439477785426802" id="-31662">
		<tag k="name" v="Laukholmen" />
		<tag k="place" v="islet" />
		<tag k="ssr:stedsnr" v="186126" />
	</node>
	<node lat="60.073998739253625" lon="5.697323914745536" id="-31663">
		<tag k="alt_name" v="Krossnes" />
		<tag k="name" v="Korsneset" />
		<tag k="natural" v="cape" />
		<tag k="ssr:stedsnr" v="186309" />
	</node>
	<node lat="59.96309714812697" lon="5.50253603345509" id="-31668">
		<tag k="name" v="Søreidsvågen" />
		<tag k="natural" v="bay" />
		<tag k="ssr:stedsnr" v="186675" />
	</node>
	<node lat="59.94999062456939" lon="5.491727149833864" id="-31669">
		<tag k="alt_name" v="Knappen;Klubben" />
		<tag k="name" v="Ytra Knappen" />
		<tag k="natural" v="cape" />
		<tag k="ssr:stedsnr" v="186679" />
	</node>
	<node lat="59.93428055905096" lon="5.5013111135470565" id="-31671">
		<tag k="name" v="Storholmen" />
		<tag k="place" v="islet" />
		<tag k="ssr:stedsnr" v="186749" />
	</node>
	<node lat="60.05230000331194" lon="5.484397215857971" id="-31677">
		<tag k="name" v="Vedanesflua" />
		<tag k="natural" v="shoal" />
		<tag k="place" v="locality" />
		<tag k="ssr:stedsnr" v="267019" />
	</node>
	<node lat="59.997661418642835" lon="5.459803187896659" id="-31679">
		<tag k="name" v="Beltestadknappen" />
		<tag k="natural" v="cape" />
		<tag k="ssr:stedsnr" v="268029" />
	</node>
	<node lat="60.05557500197098" lon="5.354944441848363" id="-31681">
		<tag k="name" v="Klubben" />
		<tag k="natural" v="cape" />
		<tag k="ssr:stedsnr" v="206358" />
	</node>
	<node lat="60.00162222501254" lon="5.478816660916261" id="-31682">
		<tag k="name" v="Dunshilleren" />
		<tag k="natural" v="cape" />
		<tag k="ssr:stedsnr" v="207015" />
	</node>
	<node lat="59.87803888684624" lon="5.598413894218889" id="-31683">
		<tag k="name" v="Skipavik" />
		<tag k="natural" v="bay" />
		<tag k="ssr:stedsnr" v="207131" />
	</node>
	<node lat="60.00313611454393" lon="5.433769447338267" id="-31684">
		<tag k="name" v="Frukla" />
		<tag k="place" v="islet" />
		<tag k="ssr:stedsnr" v="207256" />
	</node>
	<node lat="59.9443138901963" lon="5.4938777855261085" id="-31685">
		<tag k="name" v="Osen" />
		<tag k="natural" v="bay" />
		<tag k="ssr:stedsnr" v="268760" />
	</node>
	<node lat="59.99523462737351" lon="5.430669402495167" id="-31692">
		<tag k="name" v="Kinningevika" />
		<tag k="natural" v="bay" />
		<tag k="ssr:stedsnr" v="219408" />
	</node>
	<node lat="59.99410000205528" lon="5.44943054968819" id="-31693">
		<tag k="name" v="Hestvika" />
		<tag k="natural" v="bay" />
		<tag k="ssr:stedsnr" v="219412" />
	</node>
	<node lat="59.98795395752093" lon="5.443482889348273" id="-31694">
		<tag k="name" v="Skotahola" />
		<tag k="natural" v="bay" />
		<tag k="ssr:stedsnr" v="219416" />
	</node>
	<node lat="59.90271389282822" lon="5.664325007090429" id="-31697">
		<tag k="alt_name" v="Skollbuneset" />
		<tag k="name" v="Skollebuneset" />
		<tag k="natural" v="cape" />
		<tag k="ssr:stedsnr" v="219763" />
	</node>
	<node lat="59.923166666484676" lon="5.518736104360988" id="-31699">
		<tag k="name" v="Anderssjøen" />
		<tag k="natural" v="bay" />
		<tag k="ssr:stedsnr" v="219677" />
	</node>
	<node lat="59.961497219334156" lon="5.639436103340444" id="-31717">
		<tag k="name" v="Basthammervik" />
		<tag k="natural" v="bay" />
		<tag k="ssr:stedsnr" v="220804" />
	</node>
	<node lat="59.95120277943163" lon="5.6340250006954165" id="-31718">
		<tag k="name" v="Tjørebrædneset" />
		<tag k="natural" v="cape" />
		<tag k="ssr:stedsnr" v="220814" />
	</node>
	<node lat="59.93340277722084" lon="5.71703610387837" id="-31719">
		<tag k="name" v="Djupavika" />
		<tag k="natural" v="bay" />
		<tag k="ssr:stedsnr" v="220580" />
	</node>
	<node lat="59.94231944265446" lon="5.487424991803385" id="-31720">
		<tag k="name" v="Løvika" />
		<tag k="natural" v="bay" />
		<tag k="ssr:stedsnr" v="220703" />
	</node>
	<node lat="59.88853858695181" lon="5.560370436340474" id="-31721">
		<tag k="name" v="Storevågsneset" />
		<tag k="natural" v="cape" />
		<tag k="ssr:stedsnr" v="220709" />
	</node>
	<node lat="60.042783332916386" lon="5.540983339375259" id="-31722">
		<tag k="name" v="Kalvatrædneset" />
		<tag k="natural" v="cape" />
		<tag k="ssr:stedsnr" v="220727" />
	</node>
	<node lat="60.05871111053979" lon="5.608658331932226" id="-31723">
		<tag k="name" v="Galanteholmen" />
		<tag k="place" v="islet" />
		<tag k="ssr:stedsnr" v="220780" />
	</node>
	<node lat="60.06608610792048" lon="5.658130547376415" id="-31724">
		<tag k="name" v="Kattalandsstøda" />
		<tag k="natural" v="cape" />
		<tag k="ssr:stedsnr" v="220793" />
	</node>
	<node lat="59.880755558487145" lon="5.59186110784526" id="-31725">
		<tag k="name" v="Skolten" />
		<tag k="natural" v="shoal" />
		<tag k="place" v="locality" />
		<tag k="ssr:stedsnr" v="450127" />
	</node>
	<node lat="59.95839166254816" lon="5.447402774299578" id="-31726">
		<tag k="name" v="Hestabyneset" />
		<tag k="natural" v="cape" />
		<tag k="ssr:stedsnr" v="450757" />
	</node>
	<node lat="60.032550001857715" lon="5.346308341206198" id="-31731">
		<tag k="name" v="Djupvika" />
		<tag k="natural" v="bay" />
		<tag k="ssr:stedsnr" v="247123" />
	</node>
	<node lat="59.99131111165742" lon="5.412172230766885" id="-31732">
		<tag k="name" v="Bjørnavågen" />
		<tag k="natural" v="bay" />
		<tag k="ssr:stedsnr" v="247124" />
	</node>
	<node lat="60.03842777600082" lon="5.392852777265199" id="-31734">
		<tag k="name" v="Reksteren" />
		<tag k="place" v="island" />
		<tag k="ssr:stedsnr" v="247128" />
	</node>
	<node lat="60.07202777945998" lon="5.646336114231712" id="-31736">
		<tag k="alt_name" v="Koløyhamnen" />
		<tag k="name" v="Koløyhamn" />
		<tag k="natural" v="bay" />
		<tag k="ssr:stedsnr" v="247277" />
	</node>
	<node lat="59.924130552973125" lon="5.726347220276274" id="-31741">
		<tag k="name" v="Vedavika" />
		<tag k="natural" v="bay" />
		<tag k="ssr:stedsnr" v="247672" />
	</node>
	<node lat="60.07608888802157" lon="5.412233324810154" id="-31743">
		<tag k="alt_name" v="Kvernavika" />
		<tag k="name" v="Kvernvika" />
		<tag k="natural" v="bay" />
		<tag k="ssr:stedsnr" v="247912" />
	</node>
	<node lat="60.08486944114661" lon="5.519875006429493" id="-31745">
		<tag k="name" v="Fluøyane" />
		<tag k="place" v="island" />
		<tag k="ssr:stedsnr" v="248425" />
	</node>
	<node lat="59.986649995561685" lon="5.473466661096239" id="-31746">
		<tag k="alt_name" v="Mjølkevika" />
		<tag k="name" v="Mjelkevika" />
		<tag k="natural" v="bay" />
		<tag k="ssr:stedsnr" v="267337" />
	</node>
	<node lat="60.0510888906352" lon="5.555802784240374" id="-31752">
		<tag k="name" v="Sætravika" />
		<tag k="natural" v="bay" />
		<tag k="ssr:stedsnr" v="280117" />
	</node>
	<node lat="59.97741389020762" lon="5.671988885101902" id="-31753">
		<tag k="name" v="Tangen" />
		<tag k="natural" v="cape" />
		<tag k="ssr:stedsnr" v="280121" />
	</node>
	<node lat="59.9638321793521" lon="5.5071239003138235" id="-31754">
		<tag k="name" v="Eplandsvika" />
		<tag k="natural" v="bay" />
		<tag k="ssr:stedsnr" v="280126" />
	</node>
	<node lat="60.05741388977626" lon="5.431849998738084" id="-31769">
		<tag k="name" v="Lindeneset" />
		<tag k="natural" v="cape" />
		<tag k="ssr:stedsnr" v="280873" />
	</node>
	<node lat="59.98709999664036" lon="5.374686114603384" id="-31770">
		<tag k="name" v="Sørboneset" />
		<tag k="natural" v="cape" />
		<tag k="ssr:stedsnr" v="280880" />
	</node>
	<node lat="59.87632777636818" lon="5.600580561883027" id="-31778">
		<tag k="name" v="Kjeringreva" />
		<tag k="natural" v="cape" />
		<tag k="ssr:stedsnr" v="281815" />
	</node>
	<node lat="60.06560643277718" lon="5.664360763228463" id="-31790">
		<tag k="name" v="Gripnesholmen" />
		<tag k="place" v="islet" />
		<tag k="ssr:stedsnr" v="462121" />
	</node>
	<node lat="60.066691664281855" lon="5.66639721892424" id="-31791">
		<tag k="name" v="Slettavika" />
		<tag k="natural" v="bay" />
		<tag k="ssr:stedsnr" v="462122" />
	</node>
	<node lat="60.046583334604385" lon="5.560963893935368" id="-31794">
		<tag k="name" v="Seljavikneset" />
		<tag k="natural" v="cape" />
		<tag k="ssr:stedsnr" v="462132" />
	</node>
	<node lat="60.073127776060296" lon="5.55899722594278" id="-31796">
		<tag k="name" v="Kuholmen" />
		<tag k="place" v="islet" />
		<tag k="ssr:stedsnr" v="462144" />
	</node>
	<node lat="60.06991666582507" lon="5.427705563546595" id="-31797">
		<tag k="name" v="Andholmen" />
		<tag k="place" v="islet" />
		<tag k="ssr:stedsnr" v="462151" />
	</node>
	<node lat="60.051761110986305" lon="5.4881638849453385" id="-31798">
		<tag k="name" v="Slettevika" />
		<tag k="natural" v="bay" />
		<tag k="ssr:stedsnr" v="462153" />
	</node>
	<node lat="60.05420000183618" lon="5.512161110371447" id="-31799">
		<tag k="name" v="Refsneset" />
		<tag k="natural" v="cape" />
		<tag k="ssr:stedsnr" v="462154" />
	</node>
	<node lat="59.98877222368411" lon="5.390316664291929" id="-31809">
		<tag k="name" v="Bua-" />
		<tag k="natural" v="bay" />
		<tag k="ssr:stedsnr" v="462423" />
	</node>
	<node lat="59.985891663371106" lon="5.39558055511899" id="-31810">
		<tag k="name" v="Rasmusholmen" />
		<tag k="place" v="islet" />
		<tag k="ssr:stedsnr" v="462430" />
	</node>
	<node lat="60.07864722081593" lon="5.437563894914259" id="-31811">
		<tag k="name" v="Klumpen" />
		<tag k="natural" v="cape" />
		<tag k="ssr:stedsnr" v="462374" />
	</node>
	<node lat="60.07496388631061" lon="5.433672220441405" id="-31812">
		<tag k="fixme" v="consider seamark:type=rock or natural=shoal" />
		<tag k="name" v="Kuvågsskjeret" />
		<tag k="place" v="islet" />
		<tag k="ssr:stedsnr" v="462379" />
	</node>
	<node lat="60.04960277730055" lon="5.439894451625275" id="-31813">
		<tag k="name" v="Raftaneset" />
		<tag k="natural" v="cape" />
		<tag k="ssr:stedsnr" v="462395" />
	</node>
	<node lat="60.06728332898005" lon="5.560622218264765" id="-31824">
		<tag k="name" v="Olderholmen" />
		<tag k="place" v="islet" />
		<tag k="ssr:stedsnr" v="462678" />
	</node>
	<node lat="59.927075003380764" lon="5.688369438749122" id="-31825">
		<tag k="name" v="Storavika" />
		<tag k="natural" v="bay" />
		<tag k="ssr:stedsnr" v="462685" />
	</node>
	<node lat="59.92442221917778" lon="5.702111114548638" id="-31826">
		<tag k="name" v="Straumaneset" />
		<tag k="natural" v="cape" />
		<tag k="ssr:stedsnr" v="462688" />
	</node>
	<node lat="59.907405768979395" lon="5.673868805961432" id="-31827">
		<tag k="name" v="Nilsholmen" />
		<tag k="place" v="islet" />
		<tag k="ssr:stedsnr" v="462699" />
	</node>
	<node lat="60.05888888718505" lon="5.3569222203230815" id="-31828">
		<tag k="name" v="Vågsneset" />
		<tag k="natural" v="cape" />
		<tag k="ssr:stedsnr" v="462851" />
	</node>
	<node lat="60.07484166982182" lon="5.43108889016782" id="-31837">
		<tag k="name" v="Liljevågen" />
		<tag k="natural" v="bay" />
		<tag k="ssr:stedsnr" v="463625" />
	</node>
	<node lat="60.0432194445487" lon="5.5249777842408365" id="-31838">
		<tag k="name" v="Vågsneset" />
		<tag k="natural" v="cape" />
		<tag k="ssr:stedsnr" v="463637" />
	</node>
	<node lat="59.99494722061569" lon="5.469566660715515" id="-31840">
		<tag k="name" v="Kattholmen" />
		<tag k="place" v="islet" />
		<tag k="ssr:stedsnr" v="307606" />
	</node>
	<node lat="59.953986115154116" lon="5.493355551594904" id="-31841">
		<tag k="alt_name" v="Knatten" />
		<tag k="name" v="Indra Knappen" />
		<tag k="natural" v="cape" />
		<tag k="ssr:stedsnr" v="307658" />
	</node>
	<node lat="59.94013055951016" lon="5.485380547382933" id="-31842">
		<tag k="alt_name" v="Nesøy" />
		<tag k="name" v="Nesøya" />
		<tag k="place" v="island" />
		<tag k="ssr:stedsnr" v="307663" />
	</node>
	<node lat="59.9142638867133" lon="5.6750805593467115" id="-31843">
		<tag k="name" v="Flatøya" />
		<tag k="place" v="islet" />
		<tag k="ssr:stedsnr" v="307714" />
	</node>
	<node lat="59.90880833440975" lon="5.635452783561886" id="-31844">
		<tag k="name" v="Sydnes" />
		<tag k="natural" v="cape" />
		<tag k="ssr:stedsnr" v="307715" />
	</node>
	<node lat="59.8989361078032" lon="5.625469437841603" id="-31845">
		<tag k="name" v="Skorpevågen" />
		<tag k="natural" v="bay" />
		<tag k="ssr:stedsnr" v="307720" />
	</node>
	<node lat="59.90708055447324" lon="5.678894440236203" id="-31846">
		<tag k="name" v="Hestholmen" />
		<tag k="place" v="islet" />
		<tag k="ssr:stedsnr" v="307724" />
	</node>
	<node lat="60.02366666400609" lon="5.449944439346873" id="-31848">
		<tag k="bay" v="fjord" />
		<tag k="name" v="Søreidsvika" />
		<tag k="natural" v="bay" />
		<tag k="ssr:stedsnr" v="308211" />
	</node>
	<node lat="60.07571111130684" lon="5.44009999781308" id="-31850">
		<tag k="name" v="Toneset" />
		<tag k="natural" v="cape" />
		<tag k="ssr:stedsnr" v="308160" />
	</node>
	<node lat="60.03896667038413" lon="5.704305546249414" id="-31851">
		<tag k="name" v="Børevika" />
		<tag k="natural" v="bay" />
		<tag k="ssr:stedsnr" v="308312" />
	</node>
	<node lat="60.04518634175951" lon="5.564201399406263" id="-31855">
		<tag k="name" v="Kvernavika" />
		<tag k="natural" v="bay" />
		<tag k="ssr:stedsnr" v="308344" />
	</node>
	<node lat="59.97242500463808" lon="5.403688896704043" id="-31858">
		<tag k="name" v="Rimsaks" />
		<tag k="natural" v="cape" />
		<tag k="ssr:stedsnr" v="328218" />
	</node>
	<node lat="59.894155551835674" lon="5.537127786667472" id="-31859">
		<tag k="name" v="Grovaneset" />
		<tag k="natural" v="cape" />
		<tag k="ssr:stedsnr" v="328764" />
	</node>
	<node lat="60.016883337904176" lon="5.4666888967982485" id="-31863">
		<tag k="name" v="Grunnasundsholmen" />
		<tag k="place" v="islet" />
		<tag k="ssr:stedsnr" v="340444" />
	</node>
	<node lat="60.01906389174856" lon="5.465958335158298" id="-31864">
		<tag k="name" v="Hamnen" />
		<tag k="natural" v="bay" />
		<tag k="ssr:stedsnr" v="340449" />
	</node>
	<node lat="59.99964167103577" lon="5.479102779074188" id="-31886">
		<tag k="name" v="Kjevika" />
		<tag k="natural" v="bay" />
		<tag k="ssr:stedsnr" v="341709" />
	</node>
	<node lat="59.90917221825717" lon="5.623983339515319" id="-31887">
		<tag k="name" v="Tåneset" />
		<tag k="natural" v="cape" />
		<tag k="ssr:stedsnr" v="347475" />
	</node>
	<node lat="59.953075602636474" lon="5.637884971550549" id="-31889">
		<tag k="alt_name" v="Kvitavollneset" />
		<tag k="name" v="Kvitevollsnes" />
		<tag k="natural" v="cape" />
		<tag k="ssr:stedsnr" v="367628" />
	</node>
	<node lat="59.919891668048336" lon="5.707005555873584" id="-31894">
		<tag k="alt_name" v="Ånuglosundet" />
		<tag k="name" v="Ånuglesundet" />
		<tag k="natural" v="strait" />
		<tag k="ssr:stedsnr" v="368731" />
	</node>
	<node lat="60.05783055621691" lon="5.619019448300656" id="-31898">
		<tag k="name" v="Ospholmen" />
		<tag k="place" v="islet" />
		<tag k="ssr:stedsnr" v="369320" />
	</node>
	<node lat="60.061738889108206" lon="5.554252773140513" id="-31903">
		<tag k="fixme" v="consider seamark:type=rock or natural=shoal" />
		<tag k="name" v="Leirvikeskjeret" />
		<tag k="place" v="islet" />
		<tag k="ssr:stedsnr" v="401185" />
	</node>
	<node lat="59.989436201079734" lon="5.447782704207215" id="-31914">
		<tag k="name" v="Trondaneset" />
		<tag k="natural" v="cape" />
		<tag k="ssr:stedsnr" v="401434" />
	</node>
	<node lat="60.07852500288756" lon="5.410977770570124" id="-31915">
		<tag k="fixme" v="consider seamark:type=rock or natural=shoal" />
		<tag k="name" v="Tretteskjeret" />
		<tag k="place" v="islet" />
		<tag k="ssr:stedsnr" v="401377" />
	</node>
	<node lat="60.08427777784015" lon="5.381016658743507" id="-31916">
		<tag k="name" v="Tømmervika" />
		<tag k="natural" v="bay" />
		<tag k="ssr:stedsnr" v="401380" />
	</node>
	<node lat="60.011286109945786" lon="5.37751110942227" id="-31920">
		<tag k="name" v="Bleika" />
		<tag k="place" v="islet" />
		<tag k="ssr:stedsnr" v="401477" />
	</node>
	<node lat="60.00925833689006" lon="5.377099996411533" id="-31921">
		<tag k="name" v="Tøavika" />
		<tag k="natural" v="bay" />
		<tag k="ssr:stedsnr" v="401482" />
	</node>
	<node lat="59.95760277653826" lon="5.503188887645192" id="-31925">
		<tag k="name" v="Tveitevika" />
		<tag k="natural" v="bay" />
		<tag k="ssr:stedsnr" v="401628" />
	</node>
	<node lat="60.07115277393862" lon="5.427975009398203" id="-31926">
		<tag k="name" v="Nordvågen" />
		<tag k="natural" v="bay" />
		<tag k="ssr:stedsnr" v="401632" />
	</node>
	<node lat="60.07666389041659" lon="5.424547216015308" id="-31933">
		<tag k="name" v="Fatavika" />
		<tag k="natural" v="bay" />
		<tag k="ssr:stedsnr" v="402178" />
	</node>
	<node lat="59.91577222603953" lon="5.6515916690418475" id="-31938">
		<tag k="name" v="Djupevåg" />
		<tag k="natural" v="bay" />
		<tag k="ssr:stedsnr" v="408517" />
	</node>
	<node lat="59.87226989487825" lon="5.6246706026472975" id="-31942">
		<tag k="alt_name" v="Kulholmen" />
		<tag k="name" v="Kubbholmen" />
		<tag k="place" v="islet" />
		<tag k="ssr:stedsnr" v="489284" />
	</node>
	<node lat="60.075677773528696" lon="5.57357499188163" id="-31944">
		<tag k="name" v="Straumen" />
		<tag k="natural" v="bay" />
		<tag k="ssr:stedsnr" v="489485" />
	</node>
	<node lat="60.078858336970946" lon="5.688055547892378" id="-31945">
		<tag k="name" v="Jektaneset" />
		<tag k="natural" v="cape" />
		<tag k="ssr:stedsnr" v="489478" />
	</node>
	<node lat="59.96294722587401" lon="5.648491670352151" id="-31951">
		<tag k="name" v="Vattarøya" />
		<tag k="place" v="island" />
		<tag k="ssr:stedsnr" v="489679" />
	</node>
	<node lat="59.934963888653776" lon="5.700977781079579" id="-31953">
		<tag k="name" v="Teistholmen" />
		<tag k="place" v="islet" />
		<tag k="ssr:stedsnr" v="489751" />
	</node>
	<node lat="59.912924997425264" lon="5.6161555517597765" id="-31954">
		<tag k="name" v="Skorpesundet" />
		<tag k="natural" v="strait" />
		<tag k="ssr:stedsnr" v="489729" />
	</node>
	<node lat="59.91808888917075" lon="5.715399999096004" id="-31955">
		<tag k="name" v="Skipavågen" />
		<tag k="natural" v="bay" />
		<tag k="ssr:stedsnr" v="489733" />
	</node>
	<node lat="60.07279722399116" lon="5.426350006496699" id="-31959">
		<tag k="alt_name" v="Hopesundet;Hopsundet" />
		<tag k="name" v="Hopssundet" />
		<tag k="natural" v="strait" />
		<tag k="ssr:stedsnr" v="490175" />
	</node>
	<node lat="60.072125003176566" lon="5.63672500329949" id="-31960">
		<tag k="name" v="Koløya" />
		<tag k="place" v="islet" />
		<tag k="ssr:stedsnr" v="490275" />
	</node>
	<node lat="60.02392500147138" lon="5.70718610219462" id="-31961">
		<tag k="name" v="Tittelivika" />
		<tag k="natural" v="bay" />
		<tag k="ssr:stedsnr" v="490681" />
	</node>
	<node lat="59.907816669498594" lon="5.624799997929273" id="-31964">
		<tag k="alt_name" v="Gullholmen" />
		<tag k="name" v="Gulholmen" />
		<tag k="place" v="islet" />
		<tag k="ssr:stedsnr" v="428684" />
	</node>
	<node lat="60.002499998276875" lon="5.696649994578704" id="-31968">
		<tag k="name" v="Gardvika" />
		<tag k="natural" v="bay" />
		<tag k="ssr:stedsnr" v="490712" />
	</node>
	<node lat="60.04414166361293" lon="5.441955560793292" id="-31970">
		<tag k="alt_name" v="Raftholmen" />
		<tag k="name" v="Raftaholmen" />
		<tag k="place" v="islet" />
		<tag k="ssr:stedsnr" v="429131" />
	</node>
	<node lat="60.08057781145832" lon="5.429077958613225" id="-31972">
		<tag k="name" v="Enes" />
		<tag k="natural" v="cape" />
		<tag k="ssr:stedsnr" v="429173" />
	</node>
	<node lat="60.06810555845537" lon="5.513313885064931" id="-31973">
		<tag k="alt_name" v="Rundaskjeret" />
		<tag k="fixme" v="consider seamark:type=rock or natural=shoal" />
		<tag k="name" v="Rundeskjeret" />
		<tag k="place" v="islet" />
		<tag k="ssr:stedsnr" v="429260" />
	</node>
	<node lat="60.06856944675271" lon="5.567050003660405" id="-31974">
		<tag k="name" v="Godøysundet" />
		<tag k="natural" v="strait" />
		<tag k="ssr:stedsnr" v="429261" />
	</node>
	<node lat="60.07743888535359" lon="5.620713882788188" id="-31975">
		<tag k="alt_name" v="Bakkholmane" />
		<tag k="name" v="Bakkaholmane" />
		<tag k="place" v="islet" />
		<tag k="ssr:stedsnr" v="429445" />
	</node>
	<node lat="60.08226388575115" lon="5.42080832922844" id="-31980">
		<tag k="alt_name" v="Lambøya" />
		<tag k="name" v="Lamøya" />
		<tag k="place" v="islet" />
		<tag k="ssr:stedsnr" v="429921" />
	</node>
	<node lat="60.08229166531553" lon="5.45926944117539" id="-31981">
		<tag k="name" v="Instøy" />
		<tag k="place" v="islet" />
		<tag k="ssr:stedsnr" v="429925" />
	</node>
	<node lat="60.05501944243302" lon="5.447994443356365" id="-31988">
		<tag k="name" v="Djupestallen" />
		<tag k="natural" v="shoal" />
		<tag k="place" v="locality" />
		<tag k="ssr:stedsnr" v="449177" />
	</node>
	<node lat="59.99160833360107" lon="5.375230562107783" id="-31989">
		<tag k="alt_name" v="Bårdsund" />
		<tag k="name" v="Bårdsundet" />
		<tag k="natural" v="strait" />
		<tag k="ssr:stedsnr" v="671136" />
	</node>
	<node lat="59.89042897525439" lon="5.547605681487638" id="-31991">
		<tag k="fixme" v="multiple name tags, choose one and add the other to alt_name" />
		<tag k="name" v="Hodnanesvika;Stornesvika" />
		<tag k="natural" v="bay" />
		<tag k="ssr:stedsnr" v="671278" />
	</node>
	<node lat="59.89359999543578" lon="5.570527769590902" id="-31993">
		<tag k="name" v="Bakkaholmen" />
		<tag k="place" v="islet" />
		<tag k="ssr:stedsnr" v="450773" />
	</node>
	<node lat="59.88846944530094" lon="5.580250008591638" id="-31994">
		<tag k="name" v="Varmehola" />
		<tag k="natural" v="bay" />
		<tag k="ssr:stedsnr" v="450783" />
	</node>
	<node lat="59.92178333150925" lon="5.6017722266730665" id="-31997">
		<tag k="name" v="Skateneset" />
		<tag k="natural" v="cape" />
		<tag k="ssr:stedsnr" v="671742" />
	</node>
	<node lat="60.064075003216" lon="5.551299997714961" id="-32000">
		<tag k="name" v="Maurholmen" />
		<tag k="place" v="islet" />
		<tag k="ssr:stedsnr" v="672228" />
	</node>
	<node lat="60.060733336535016" lon="5.553266665326703" id="-32001">
		<tag k="name" v="Tytebærholmen" />
		<tag k="place" v="islet" />
		<tag k="ssr:stedsnr" v="672230" />
	</node>
	<node lat="60.01181545313441" lon="5.350430698232233" id="-32005">
		<tag k="name" v="Gardsenden" />
		<tag k="natural" v="cape" />
		<tag k="ssr:stedsnr" v="672200" />
	</node>
	<node lat="59.91188055246782" lon="5.701069436005187" id="-32008">
		<tag k="name" v="Flatøya" />
		<tag k="place" v="islet" />
		<tag k="ssr:stedsnr" v="672532" />
	</node>
	<node lat="60.01608023359415" lon="5.473397890286641" id="-32010">
		<tag k="name" v="Vollavika" />
		<tag k="natural" v="bay" />
		<tag k="ssr:stedsnr" v="672606" />
	</node>
	<node lat="60.09892777456759" lon="5.385069442727308" id="-32014">
		<tag k="bay" v="fjord" />
		<tag k="name" v="Bjørnafjorden" />
		<tag k="natural" v="bay" />
		<tag k="ssr:stedsnr" v="672894" />
	</node>
	<node lat="59.94118055932705" lon="5.50947778318526" id="-32022">
		<tag k="name" v="Sagneset" />
		<tag k="natural" v="cape" />
		<tag k="ssr:stedsnr" v="462157" />
	</node>
	<node lat="59.947838827189244" lon="5.50779590544978" id="-32023">
		<tag k="name" v="Trædsvika" />
		<tag k="natural" v="bay" />
		<tag k="ssr:stedsnr" v="462160" />
	</node>
	<node lat="60.02510277354319" lon="5.4422750074821895" id="-32025">
		<tag k="name" v="Sætrasjøen" />
		<tag k="natural" v="bay" />
		<tag k="ssr:stedsnr" v="462362" />
	</node>
	<node lat="59.99100277666509" lon="5.4426277708188335" id="-32026">
		<tag k="name" v="Vesle Fureholmen" />
		<tag k="place" v="islet" />
		<tag k="ssr:stedsnr" v="462412" />
	</node>
	<node lat="60.011247218497736" lon="5.374511108465027" id="-32027">
		<tag k="name" v="Ervika" />
		<tag k="natural" v="bay" />
		<tag k="ssr:stedsnr" v="462469" />
	</node>
	<node lat="60.0099083377509" lon="5.376327774604103" id="-32028">
		<tag k="name" v="Breidvika" />
		<tag k="natural" v="bay" />
		<tag k="ssr:stedsnr" v="462471" />
	</node>
	<node lat="60.006336112427554" lon="5.378872216995502" id="-32029">
		<tag k="name" v="Sponavika" />
		<tag k="natural" v="bay" />
		<tag k="ssr:stedsnr" v="462473" />
	</node>
	<node lat="59.9380493313613" lon="5.636931195626276" id="-32033">
		<tag k="name" v="Alsakerneset" />
		<tag k="natural" v="cape" />
		<tag k="ssr:stedsnr" v="462707" />
	</node>
	<node lat="60.05245277886219" lon="5.704813881260589" id="-32034">
		<tag k="name" v="Veslatorva" />
		<tag k="natural" v="cape" />
		<tag k="ssr:stedsnr" v="462718" />
	</node>
	<node lat="60.05454444273312" lon="5.704858333419475" id="-32035">
		<tag k="name" v="Storatorva" />
		<tag k="natural" v="cape" />
		<tag k="ssr:stedsnr" v="462720" />
	</node>
	<node lat="59.9797555578401" lon="5.667841667669269" id="-32036">
		<tag k="name" v="Melkevika" />
		<tag k="natural" v="bay" />
		<tag k="ssr:stedsnr" v="462723" />
	</node>
	<node lat="59.89074166802573" lon="5.545072229620561" id="-32037">
		<tag k="name" v="Ekreneset" />
		<tag k="natural" v="cape" />
		<tag k="ssr:stedsnr" v="462746" />
	</node>
	<node lat="59.99531110738531" lon="5.380794440278858" id="-32038">
		<tag k="name" v="Hamnavikneset" />
		<tag k="natural" v="cape" />
		<tag k="ssr:stedsnr" v="462856" />
	</node>
	<node lat="59.98698611156593" lon="5.479811117060107" id="-32041">
		<tag k="name" v="Tjøreneset" />
		<tag k="natural" v="cape" />
		<tag k="ssr:stedsnr" v="463619" />
	</node>
	<node lat="59.99730555337844" lon="5.38651667191086" id="-32043">
		<tag k="name" v="Klinkholmen" />
		<tag k="place" v="islet" />
		<tag k="ssr:stedsnr" v="489143" />
	</node>
	<node lat="59.8290138873439" lon="5.54604167228596" id="-32045">
		<tag k="bay" v="fjord" />
		<tag k="name" v="Langenuen" />
		<tag k="natural" v="bay" />
		<tag k="ssr:stedsnr" v="489190" />
	</node>
	<node lat="59.90693055782813" lon="5.686477781268019" id="-32047">
		<tag k="alt_name" v="Seløytangen" />
		<tag k="name" v="Seløytunga" />
		<tag k="natural" v="cape" />
		<tag k="ssr:stedsnr" v="489739" />
	</node>
	<node lat="60.012594445164005" lon="5.4312944456999075" id="-32049">
		<tag k="name" v="Hovaneset" />
		<tag k="natural" v="cape" />
		<tag k="ssr:stedsnr" v="490203" />
	</node>
	<node lat="60.01450432548457" lon="5.400082912109865" id="-32050">
		<tag k="name" v="Haukafærvågen" />
		<tag k="natural" v="bay" />
		<tag k="ssr:stedsnr" v="490206" />
	</node>
	<node lat="60.008149997476046" lon="5.35973888135999" id="-32051">
		<tag k="name" v="Smørkjellaren" />
		<tag k="natural" v="bay" />
		<tag k="ssr:stedsnr" v="490209" />
	</node>
	<node lat="60.02346388759424" lon="5.463847223746897" id="-32052">
		<tag k="name" v="Øklandsklubben" />
		<tag k="natural" v="cape" />
		<tag k="ssr:stedsnr" v="490215" />
	</node>
	<node lat="60.02941388893984" lon="5.341500005908613" id="-32053">
		<tag k="name" v="Ersvika" />
		<tag k="natural" v="bay" />
		<tag k="ssr:stedsnr" v="490234" />
	</node>
	<node lat="60.058874583730145" lon="5.522031561176771" id="-32054">
		<tag k="alt_name" v="Helgasteinen" />
		<tag k="name" v="Helgestein" />
		<tag k="place" v="islet" />
		<tag k="ssr:stedsnr" v="490239" />
	</node>
	<node lat="60.00316666962394" lon="5.379563892533669" id="-32055">
		<tag k="name" v="Selvågen" />
		<tag k="natural" v="bay" />
		<tag k="ssr:stedsnr" v="490200" />
	</node>
	<node lat="60.074984210330314" lon="5.579960658685701" id="-32061">
		<tag k="name" v="Selvågen" />
		<tag k="natural" v="bay" />
		<tag k="ssr:stedsnr" v="491610" />
	</node>
	<node lat="60.01427885130002" lon="5.396659406980025" id="-32063">
		<tag k="name" v="Åsvågen" />
		<tag k="natural" v="bay" />
		<tag k="ssr:stedsnr" v="509419" />
	</node>
	<node lat="60.04965000237605" lon="5.481083326427738" id="-32064">
		<tag k="name" v="Indra Onglavågen" />
		<tag k="natural" v="bay" />
		<tag k="ssr:stedsnr" v="510072" />
	</node>
	<node lat="60.004827775041555" lon="5.694861116182861" id="-32065">
		<tag k="name" v="Tveitvika" />
		<tag k="natural" v="bay" />
		<tag k="ssr:stedsnr" v="511355" />
	</node>
	<node lat="59.997190657603106" lon="5.4556216763039185" id="-32067">
		<tag k="name" v="Vestre Knappsvågen" />
		<tag k="natural" v="bay" />
		<tag k="ssr:stedsnr" v="522411" />
	</node>
	<node lat="60.0680194430872" lon="5.434872228968294" id="-32068">
		<tag k="name" v="Slåttevika" />
		<tag k="natural" v="bay" />
		<tag k="ssr:stedsnr" v="522631" />
	</node>
	<node lat="60.056030753916325" lon="5.355214726537482" id="-32071">
		<tag k="name" v="Søra Vika" />
		<tag k="natural" v="bay" />
		<tag k="ssr:stedsnr" v="522818" />
	</node>
	<node lat="60.04530277914734" lon="5.527905546703397" id="-32075">
		<tag k="name" v="Vågsholmen" />
		<tag k="place" v="islet" />
		<tag k="ssr:stedsnr" v="523169" />
	</node>
	<node lat="60.06847500065726" lon="5.574049992029468" id="-32076">
		<tag k="name" v="Margreteneset" />
		<tag k="natural" v="cape" />
		<tag k="ssr:stedsnr" v="523170" />
	</node>
	<node lat="59.97248611430657" lon="5.501288896408708" id="-32077">
		<tag k="name" v="Holmavika" />
		<tag k="natural" v="bay" />
		<tag k="ssr:stedsnr" v="523181" />
	</node>
	<node lat="60.0779309449696" lon="5.688221571124309" id="-32090">
		<tag k="name" v="Engjarvikneset" />
		<tag k="natural" v="cape" />
		<tag k="ssr:stedsnr" v="523612" />
	</node>
	<node lat="60.01941388963554" lon="5.430038882862813" id="-32094">
		<tag k="name" v="Notaholmen" />
		<tag k="place" v="islet" />
		<tag k="ssr:stedsnr" v="523869" />
	</node>
	<node lat="60.07907777541119" lon="5.423158341873999" id="-32095">
		<tag k="fixme" v="consider seamark:type=rock or natural=shoal" />
		<tag k="name" v="Grautaviksskjeret" />
		<tag k="place" v="islet" />
		<tag k="ssr:stedsnr" v="523874" />
	</node>
	<node lat="59.910861113309494" lon="5.667027785273096" id="-32096">
		<tag k="fixme" v="consider seamark:type=rock or natural=shoal" />
		<tag k="name" v="Svarteskjeret" />
		<tag k="place" v="islet" />
		<tag k="ssr:stedsnr" v="530508" />
	</node>
	<node lat="59.875144442426695" lon="5.626719436732599" id="-32098">
		<tag k="name" v="Langøya" />
		<tag k="place" v="islet" />
		<tag k="ssr:stedsnr" v="549251" />
	</node>
	<node lat="60.06336944384182" lon="5.562866666890265" id="-32100">
		<tag k="name" v="Gåsavika" />
		<tag k="natural" v="bay" />
		<tag k="ssr:stedsnr" v="550251" />
	</node>
	<node lat="60.06366388625538" lon="5.607436107962604" id="-32101">
		<tag k="alt_name" v="Svidneset" />
		<tag k="name" v="Sveneset" />
		<tag k="natural" v="cape" />
		<tag k="ssr:stedsnr" v="550252" />
	</node>
	<node lat="59.90666944486058" lon="5.590311118592022" id="-32104">
		<tag k="name" v="Skjeleviksundet" />
		<tag k="natural" v="strait" />
		<tag k="old_name" v="Skjeljaviksundet" />
		<tag k="ssr:stedsnr" v="550693" />
	</node>
	<node lat="59.93894444664652" lon="5.6221888932951325" id="-32105">
		<tag k="name" v="Elsåkervågen" />
		<tag k="natural" v="bay" />
		<tag k="ssr:stedsnr" v="550715" />
	</node>
	<node lat="60.05241388893589" lon="5.489502776161795" id="-32106">
		<tag k="name" v="Gardvika" />
		<tag k="natural" v="bay" />
		<tag k="ssr:stedsnr" v="551292" />
	</node>
	<node lat="60.00668333066422" lon="5.36417222162654" id="-32107">
		<tag k="name" v="Tjørnavika" />
		<tag k="natural" v="bay" />
		<tag k="ssr:stedsnr" v="691468" />
	</node>
	<node lat="60.06184722302775" lon="5.449255560974681" id="-32108">
		<tag k="name" v="Vernaflua" />
		<tag k="natural" v="shoal" />
		<tag k="place" v="locality" />
		<tag k="ssr:stedsnr" v="692286" />
	</node>
	<node lat="59.98837500024617" lon="5.483222214553464" id="-32109">
		<tag k="name" v="Steinavika" />
		<tag k="natural" v="bay" />
		<tag k="ssr:stedsnr" v="692352" />
	</node>
	<node lat="59.91900833614085" lon="5.668591662521119" id="-32110">
		<tag k="name" v="Steinavika" />
		<tag k="natural" v="bay" />
		<tag k="ssr:stedsnr" v="693381" />
	</node>
	<node lat="59.94734766892041" lon="5.466568582857912" id="-32111">
		<tag k="name" v="Sætravikneset" />
		<tag k="natural" v="cape" />
		<tag k="ssr:stedsnr" v="692756" />
	</node>
	<node lat="59.91571388994617" lon="5.59561110965826" id="-32112">
		<tag k="name" v="Trongsundet" />
		<tag k="natural" v="strait" />
		<tag k="ssr:stedsnr" v="692760" />
	</node>
	<node lat="59.88817777700879" lon="5.549786103175888" id="-32113">
		<tag k="name" v="Storneset" />
		<tag k="natural" v="cape" />
		<tag k="ssr:stedsnr" v="692764" />
	</node>
	<node lat="60.06583666987161" lon="5.421152330994312" id="-32115">
		<tag k="name" v="Hamravika" />
		<tag k="natural" v="bay" />
		<tag k="ssr:stedsnr" v="570314" />
	</node>
	<node lat="60.02996388520908" lon="5.340830558903678" id="-32116">
		<tag k="name" v="Ersvikklubben" />
		<tag k="natural" v="cape" />
		<tag k="ssr:stedsnr" v="570323" />
	</node>
	<node lat="60.031227774706146" lon="5.709138887134012" id="-32118">
		<tag k="name" v="Saltkjelen" />
		<tag k="natural" v="bay" />
		<tag k="ssr:stedsnr" v="571155" />
	</node>
	<node lat="59.9505416671622" lon="5.505780547068215" id="-32119">
		<tag k="name" v="Sponhamar" />
		<tag k="natural" v="cape" />
		<tag k="ssr:stedsnr" v="693766" />
	</node>
	<node lat="60.06155555615918" lon="5.43889444661022" id="-32139">
		<tag k="name" v="Midtneset" />
		<tag k="natural" v="cape" />
		<tag k="ssr:stedsnr" v="583397" />
	</node>
	<node lat="59.97613611499387" lon="5.498530546402466" id="-32142">
		<tag k="name" v="Vedaneset" />
		<tag k="natural" v="cape" />
		<tag k="ssr:stedsnr" v="583617" />
	</node>
	<node lat="59.88978888909212" lon="5.563877771543708" id="-32143">
		<tag k="name" v="Litlevågen" />
		<tag k="natural" v="bay" />
		<tag k="ssr:stedsnr" v="583639" />
	</node>
	<node lat="59.905647225738406" lon="5.580038897060315" id="-32144">
		<tag k="name" v="Skjelevika" />
		<tag k="natural" v="bay" />
		<tag k="old_name" v="Skjeljavika" />
		<tag k="ssr:stedsnr" v="583647" />
	</node>
	<node lat="59.97989166968684" lon="5.671222219284409" id="-32145">
		<tag k="name" v="Nedrevågen" />
		<tag k="natural" v="bay" />
		<tag k="ssr:stedsnr" v="583739" />
	</node>
	<node lat="60.0733333326926" lon="5.354499999197568" id="-32148">
		<tag k="name" v="Skageneset" />
		<tag k="natural" v="cape" />
		<tag k="ssr:stedsnr" v="583845" />
	</node>
	<node lat="60.00669722301129" lon="5.434963890689677" id="-32150">
		<tag k="name" v="Brunøyholmen" />
		<tag k="place" v="islet" />
		<tag k="ssr:stedsnr" v="583850" />
	</node>
	<node lat="60.01362221904605" lon="5.467761115046019" id="-32151">
		<tag k="name" v="Heianeset" />
		<tag k="natural" v="cape" />
		<tag k="ssr:stedsnr" v="583859" />
	</node>
	<node lat="59.92762499719682" lon="5.612308338630472" id="-32157">
		<tag k="name" v="Fureneset" />
		<tag k="natural" v="cape" />
		<tag k="ssr:stedsnr" v="584791" />
	</node>
	<node lat="59.91965555278002" lon="5.674255555616062" id="-32164">
		<tag k="name" v="Seløysundet" />
		<tag k="natural" v="strait" />
		<tag k="ssr:stedsnr" v="610711" />
	</node>
	<node lat="59.91222067230063" lon="5.646992781314849" id="-32165">
		<tag k="alt_name" v="Espevika, s" />
		<tag k="name" v="Søra Espevika" />
		<tag k="natural" v="bay" />
		<tag k="ssr:stedsnr" v="610728" />
	</node>
	<node lat="60.004241666452124" lon="5.367275002387168" id="-32166">
		<tag k="name" v="Grasvika" />
		<tag k="natural" v="bay" />
		<tag k="ssr:stedsnr" v="611204" />
	</node>
	<node lat="60.06885555731578" lon="5.610125002527256" id="-32167">
		<tag k="name" v="Øskja" />
		<tag k="place" v="islet" />
		<tag k="ssr:stedsnr" v="611287" />
	</node>
	<node lat="60.07502499992705" lon="5.645852785902824" id="-32168">
		<tag k="name" v="Kattaneset" />
		<tag k="natural" v="cape" />
		<tag k="ssr:stedsnr" v="611292" />
	</node>
	<node lat="60.055486113332606" lon="5.613888884739096" id="-32176">
		<tag k="name" v="Timbervika" />
		<tag k="natural" v="bay" />
		<tag k="ssr:stedsnr" v="631093" />
	</node>
	<node lat="59.97803888752688" lon="5.389699999625451" id="-32177">
		<tag k="name" v="Gangstøa" />
		<tag k="natural" v="bay" />
		<tag k="ssr:stedsnr" v="705530" />
	</node>
	<node lat="60.07401944344625" lon="5.583377779572097" id="-32181">
		<tag k="name" v="Øyatangen" />
		<tag k="natural" v="cape" />
		<tag k="ssr:stedsnr" v="705183" />
	</node>
	<node lat="60.0083722230612" lon="5.706483324993775" id="-32184">
		<tag k="name" v="Alholmen" />
		<tag k="place" v="islet" />
		<tag k="ssr:stedsnr" v="705154" />
	</node>
	<node lat="60.069508336319856" lon="5.663444447261262" id="-32185">
		<tag k="fixme" v="consider seamark:type=rock or natural=shoal" />
		<tag k="name" v="Storaskjeret" />
		<tag k="place" v="islet" />
		<tag k="ssr:stedsnr" v="705155" />
	</node>
	<node lat="60.06876360103893" lon="5.566391579205961" id="-32194">
		<tag k="name" v="Hamnaholmen" />
		<tag k="place" v="islet" />
		<tag k="ssr:stedsnr" v="705189" />
	</node>
	<node lat="59.96090833706079" lon="5.506161102218076" id="-32196">
		<tag k="name" v="Tveitaneset" />
		<tag k="natural" v="cape" />
		<tag k="ssr:stedsnr" v="705193" />
	</node>
	<node lat="60.081369448378474" lon="5.434813893834977" id="-32198">
		<tag k="name" v="Nyhamnen" />
		<tag k="natural" v="bay" />
		<tag k="ssr:stedsnr" v="705197" />
	</node>
	<node lat="59.99738055498303" lon="5.432877770083489" id="-32199">
		<tag k="name" v="Søra Hånesvika" />
		<tag k="natural" v="bay" />
		<tag k="ssr:stedsnr" v="705478" />
	</node>
	<node lat="59.995058337792386" lon="5.41196945187309" id="-32200">
		<tag k="name" v="Bekkjarvika" />
		<tag k="natural" v="bay" />
		<tag k="ssr:stedsnr" v="705501" />
	</node>
	<node lat="59.92089999998157" lon="5.720163880474129" id="-32203">
		<tag k="name" v="Eidet" />
		<tag k="place" v="locality" />
		<tag k="ssr:stedsnr" v="705596" />
	</node>
	<node lat="60.07556666641735" lon="5.654069439312764" id="-32204">
		<tag k="name" v="Pålsvika" />
		<tag k="natural" v="bay" />
		<tag k="ssr:stedsnr" v="705605" />
	</node>
	<node lat="60.05263055648439" lon="5.519852778874665" id="-32205">
		<tag k="fixme" v="consider seamark:type=rock or natural=shoal" />
		<tag k="name" v="Horso" />
		<tag k="place" v="islet" />
		<tag k="ssr:stedsnr" v="705740" />
	</node>
	<node lat="60.068827774592044" lon="5.577877783205035" id="-32206">
		<tag k="name" v="Mjelkevika" />
		<tag k="natural" v="bay" />
		<tag k="ssr:stedsnr" v="705767" />
	</node>
	<node lat="59.98499722049027" lon="5.682666660933416" id="-32207">
		<tag k="name" v="Korsaneset" />
		<tag k="natural" v="cape" />
		<tag k="ssr:stedsnr" v="705782" />
	</node>
	<node lat="60.017574995854474" lon="5.469894445751274" id="-32208">
		<tag k="name" v="Ramnavika" />
		<tag k="natural" v="bay" />
		<tag k="ssr:stedsnr" v="705871" />
	</node>
	<node lat="60.012283333839115" lon="5.396188894602068" id="-32209">
		<tag k="name" v="Vågsholmen" />
		<tag k="place" v="islet" />
		<tag k="ssr:stedsnr" v="705875" />
	</node>
	<node lat="60.06541775816739" lon="5.427442348913592" id="-32212">
		<tag k="alt_name" v="Træsnes" />
		<tag k="name" v="Trædsneset" />
		<tag k="natural" v="cape" />
		<tag k="ssr:stedsnr" v="705882" />
	</node>
	<node lat="60.06724167013518" lon="5.43556388722999" id="-32213">
		<tag k="name" v="Søra Slåttavika" />
		<tag k="natural" v="bay" />
		<tag k="ssr:stedsnr" v="643379" />
	</node>
	<node lat="59.93096111240953" lon="5.711180551328455" id="-32214">
		<tag k="name" v="Svinaneset" />
		<tag k="natural" v="cape" />
		<tag k="ssr:stedsnr" v="643781" />
	</node>
	<node lat="59.918125000849926" lon="5.719683325387817" id="-32215">
		<tag k="name" v="Langaneset" />
		<tag k="natural" v="cape" />
		<tag k="ssr:stedsnr" v="643784" />
	</node>
	<node lat="59.953972219694094" lon="5.503575002319735" id="-32217">
		<tag k="name" v="Skotvika" />
		<tag k="natural" v="bay" />
		<tag k="ssr:stedsnr" v="643628" />
	</node>
	<node lat="60.063702777428816" lon="5.572769437798372" id="-32218">
		<tag k="name" v="Påskeholmen" />
		<tag k="place" v="islet" />
		<tag k="ssr:stedsnr" v="643676" />
	</node>
	<node lat="59.90850833337009" lon="5.6240000063791715" id="-32219">
		<tag k="name" v="Straumsneset" />
		<tag k="natural" v="cape" />
		<tag k="ssr:stedsnr" v="643683" />
	</node>
	<node lat="59.91481944413773" lon="5.686027783153784" id="-32220">
		<tag k="name" v="Seløyvika" />
		<tag k="natural" v="bay" />
		<tag k="ssr:stedsnr" v="643688" />
	</node>
	<node lat="60.07032499993049" lon="5.662102783764124" id="-32226">
		<tag k="name" v="Synningeneset" />
		<tag k="natural" v="cape" />
		<tag k="ssr:stedsnr" v="644134" />
	</node>
	<node lat="59.99137222036973" lon="5.409991665897372" id="-32231">
		<tag k="name" v="Mørkevågen" />
		<tag k="natural" v="bay" />
		<tag k="ssr:stedsnr" v="644440" />
	</node>
	<node lat="60.07512500153762" lon="5.656608328887352" id="-32234">
		<tag k="name" v="Steinevika" />
		<tag k="natural" v="bay" />
		<tag k="ssr:stedsnr" v="644575" />
	</node>
	<node lat="60.04916111102152" lon="5.480616671560029" id="-32235">
		<tag k="name" v="Indre Andlavågen" />
		<tag k="natural" v="bay" />
		<tag k="ssr:stedsnr" v="644711" />
	</node>
	<node lat="60.05145832992815" lon="5.51917500288416" id="-32236">
		<tag k="name" v="Torskanes" />
		<tag k="natural" v="cape" />
		<tag k="ssr:stedsnr" v="644714" />
	</node>
	<node lat="60.012533333915265" lon="5.401080559637645" id="-32237">
		<tag k="name" v="Mjølkevika" />
		<tag k="natural" v="bay" />
		<tag k="ssr:stedsnr" v="644873" />
	</node>
	<node lat="60.00321111197656" lon="5.412938895525591" id="-32238">
		<tag k="name" v="Trædsholmen" />
		<tag k="place" v="islet" />
		<tag k="ssr:stedsnr" v="644874" />
	</node>
	<node lat="60.01346388958384" lon="5.383202782635928" id="-32239">
		<tag k="name" v="Staurvika" />
		<tag k="natural" v="bay" />
		<tag k="ssr:stedsnr" v="644880" />
	</node>
	<node lat="60.07703888571345" lon="5.41273054949164" id="-32240">
		<tag k="name" v="Kvernavikholmen" />
		<tag k="place" v="islet" />
		<tag k="ssr:stedsnr" v="644884" />
	</node>
	<node lat="59.98727726030761" lon="5.441315837698022" id="-32241">
		<tag k="name" v="Notholmen" />
		<tag k="place" v="islet" />
		<tag k="ssr:stedsnr" v="644889" />
	</node>
	<node lat="59.867263884810896" lon="5.6233027777940965" id="-32245">
		<tag k="name" v="Kråka" />
		<tag k="place" v="islet" />
		<tag k="ssr:stedsnr" v="671310" />
	</node>
	<node lat="59.974967981184804" lon="5.660888129920895" id="-32247">
		<tag k="fixme" v="multiple name tags, choose one and add the other to alt_name" />
		<tag k="name" v="Langholmen;Nedrevågsholmen;Midtvågeholmen" />
		<tag k="place" v="islet" />
		<tag k="ssr:stedsnr" v="671628" />
	</node>
	<node lat="59.98648333235061" lon="5.6833638921695355" id="-32250">
		<tag k="name" v="Årbakkavika" />
		<tag k="natural" v="bay" />
		<tag k="ssr:stedsnr" v="671689" />
	</node>
	<node lat="59.90070833040014" lon="5.628616670547973" id="-32253">
		<tag k="name" v="Skorpeneset" />
		<tag k="natural" v="cape" />
		<tag k="ssr:stedsnr" v="671721" />
	</node>
	<node lat="60.06908889208739" lon="5.584547229823683" id="-32258">
		<tag k="alt_name" v="Godøya, vle;Godøya, vetle;Vesla Godøya" />
		<tag k="name" v="Vetla Godøya" />
		<tag k="place" v="island" />
		<tag k="ssr:stedsnr" v="672261" />
	</node>
	<node lat="60.06042558362964" lon="5.436917545305843" id="-32260">
		<tag k="name" v="Kyrkjeholmen" />
		<tag k="place" v="islet" />
		<tag k="ssr:stedsnr" v="692090" />
	</node>
	<node lat="60.05944722048799" lon="5.554052773062141" id="-32261">
		<tag k="name" v="Leirvika" />
		<tag k="natural" v="bay" />
		<tag k="ssr:stedsnr" v="692094" />
	</node>
	<node lat="59.91116944660815" lon="5.677377786501916" id="-32262">
		<tag k="fixme" v="consider seamark:type=rock or natural=shoal" />
		<tag k="name" v="Skarvaskjeret" />
		<tag k="place" v="islet" />
		<tag k="ssr:stedsnr" v="894527" />
	</node>
	<node lat="59.90109444866902" lon="5.654580562114089" id="-32265">
		<tag k="name" v="Håvågen" />
		<tag k="natural" v="bay" />
		<tag k="ssr:stedsnr" v="704723" />
	</node>
	<node lat="60.04382777652729" lon="5.5489638866369715" id="-32268">
		<tag k="name" v="Veslevågen" />
		<tag k="natural" v="bay" />
		<tag k="ssr:stedsnr" v="705159" />
	</node>
	<node lat="60.080902775370866" lon="5.400247217640333" id="-32274">
		<tag k="name" v="Eldholmsvågen" />
		<tag k="natural" v="bay" />
		<tag k="ssr:stedsnr" v="705443" />
	</node>
	<node lat="60.08075833210839" lon="5.447224996333239" id="-32275">
		<tag k="name" v="Litlavernøya" />
		<tag k="place" v="island" />
		<tag k="ssr:stedsnr" v="705450" />
	</node>
	<node lat="59.99360278105562" lon="5.38853610732531" id="-32279">
		<tag k="name" v="Grunnasundet" />
		<tag k="natural" v="strait" />
		<tag k="ssr:stedsnr" v="705511" />
	</node>
	<node lat="60.02017777599683" lon="5.4611861069212955" id="-32280">
		<tag k="name" v="Sandvika" />
		<tag k="natural" v="bay" />
		<tag k="ssr:stedsnr" v="705518" />
	</node>
	<node lat="60.021722226539964" lon="5.4429277736784005" id="-32281">
		<tag k="name" v="Furenestangen" />
		<tag k="natural" v="cape" />
		<tag k="ssr:stedsnr" v="705519" />
	</node>
	<node lat="59.91683055302494" lon="5.524236116072882" id="-32285">
		<tag k="name" v="Korsvikneset" />
		<tag k="natural" v="cape" />
		<tag k="ssr:stedsnr" v="705816" />
	</node>
	<node lat="59.92925277449896" lon="5.714286114034655" id="-32286">
		<tag k="name" v="Bekkjarvika" />
		<tag k="natural" v="bay" />
		<tag k="ssr:stedsnr" v="705830" />
	</node>
	<node lat="59.92046111564118" lon="5.605166673660319" id="-32287">
		<tag k="name" v="Nestangen" />
		<tag k="natural" v="cape" />
		<tag k="ssr:stedsnr" v="705834" />
	</node>
	<node lat="59.935477773623724" lon="5.519549994517664" id="-32288">
		<tag k="name" v="Hamnen" />
		<tag k="natural" v="bay" />
		<tag k="ssr:stedsnr" v="705726" />
	</node>
	<node lat="59.9453222183246" lon="5.4681138979384185" id="-32291">
		<tag k="name" v="Sandvika" />
		<tag k="natural" v="bay" />
		<tag k="ssr:stedsnr" v="705858" />
	</node>
	<node lat="59.91563888993474" lon="5.6657444449441545" id="-32294">
		<tag k="name" v="Skiftesvik" />
		<tag k="natural" v="bay" />
		<tag k="ssr:stedsnr" v="712467" />
	</node>
	<node lat="59.991949998682024" lon="5.474766663846566" id="-32297">
		<tag k="alt_name" v="Søreidsvågen, nordre" />
		<tag k="name" v="Nordre Søreidsvågen" />
		<tag k="natural" v="bay" />
		<tag k="ssr:stedsnr" v="732613" />
	</node>
	<node lat="59.985197222584354" lon="5.67969167055963" id="-32299">
		<tag k="alt_name" v="Korsvika" />
		<tag k="name" v="Krossavika" />
		<tag k="natural" v="bay" />
		<tag k="ssr:stedsnr" v="732698" />
	</node>
	<node lat="59.979391665985474" lon="5.6715027689014335" id="-32300">
		<tag k="alt_name" v="Vågen, nordre" />
		<tag k="name" v="Nordre Vågen" />
		<tag k="natural" v="bay" />
		<tag k="ssr:stedsnr" v="732699" />
	</node>
	<node lat="60.012097220916246" lon="5.424222217318825" id="-32304">
		<tag k="name" v="Svinevågen" />
		<tag k="natural" v="bay" />
		<tag k="ssr:stedsnr" v="733207" />
	</node>
	<node lat="60.00669721792208" lon="5.43901666726999" id="-32305">
		<tag k="alt_name" v="Stora Brunøy;Brunøya, store" />
		<tag k="name" v="Stora Brunøya" />
		<tag k="place" v="islet" />
		<tag k="ssr:stedsnr" v="733202" />
	</node>
	<node lat="59.99249752671264" lon="5.432141636991124" id="-32311">
		<tag k="name" v="Vesla Mjølkevika" />
		<tag k="natural" v="bay" />
		<tag k="ssr:stedsnr" v="765409" />
	</node>
	<node lat="59.99168055531764" lon="5.373452786313388" id="-32312">
		<tag k="name" v="Sundatåa" />
		<tag k="natural" v="cape" />
		<tag k="ssr:stedsnr" v="765425" />
	</node>
	<node lat="59.99814444395054" lon="5.394297227818381" id="-32313">
		<tag k="name" v="Lassavågen" />
		<tag k="natural" v="bay" />
		<tag k="ssr:stedsnr" v="765427" />
	</node>
	<node lat="60.06788333364563" lon="5.423730549365486" id="-32314">
		<tag k="name" v="Storholmen" />
		<tag k="place" v="islet" />
		<tag k="ssr:stedsnr" v="765194" />
	</node>
	<node lat="59.92456944091311" lon="5.600674993511255" id="-32319">
		<tag k="name" v="Pollen" />
		<tag k="natural" v="bay" />
		<tag k="ssr:stedsnr" v="765715" />
	</node>
	<node lat="60.057344443408795" lon="5.703272221332274" id="-32320">
		<tag k="alt_name" v="Einingavik;Fagervika" />
		<tag k="name" v="Einingevika" />
		<tag k="natural" v="bay" />
		<tag k="ssr:stedsnr" v="765732" />
	</node>
	<node lat="59.94830278061295" lon="5.629905555284852" id="-32321">
		<tag k="name" v="Kyrkjevika" />
		<tag k="natural" v="bay" />
		<tag k="ssr:stedsnr" v="765749" />
	</node>
	<node lat="59.92678611157793" lon="5.6439166743891755" id="-32324">
		<tag k="name" v="Grøneviksholmen" />
		<tag k="place" v="islet" />
		<tag k="ssr:stedsnr" v="765791" />
	</node>
	<node lat="59.87137500107897" lon="5.624752778758113" id="-32332">
		<tag k="fixme" v="consider seamark:type=rock or natural=shoal" />
		<tag k="name" v="Klungerskjeret" />
		<tag k="place" v="islet" />
		<tag k="ssr:stedsnr" v="766740" />
	</node>
	<node lat="59.87461944395533" lon="5.621008337707122" id="-32333">
		<tag k="name" v="Limbuneset" />
		<tag k="natural" v="cape" />
		<tag k="ssr:stedsnr" v="766742" />
	</node>
	<node lat="60.07512622682705" lon="5.586934138322545" id="-32334">
		<tag k="name" v="Klubben" />
		<tag k="natural" v="cape" />
		<tag k="ssr:stedsnr" v="766697" />
	</node>
	<node lat="60.05308333297527" lon="5.515263886105637" id="-32335">
		<tag k="name" v="Notaneset" />
		<tag k="natural" v="cape" />
		<tag k="ssr:stedsnr" v="766702" />
	</node>
	<node lat="60.038477777656254" lon="5.3501194496330005" id="-32336">
		<tag k="name" v="Slåttevika" />
		<tag k="natural" v="bay" />
		<tag k="ssr:stedsnr" v="766842" />
	</node>
	<node lat="59.8776666301759" lon="5.625324540705251" id="-32340">
		<tag k="alt_name" v="Bleika" />
		<tag k="name" v="Bleikjo" />
		<tag k="place" v="islet" />
		<tag k="ssr:stedsnr" v="792241" />
	</node>
	<node lat="59.99833888484081" lon="5.427000004101396" id="-32344">
		<tag k="name" v="Håneset" />
		<tag k="natural" v="cape" />
		<tag k="ssr:stedsnr" v="793131" />
	</node>
	<node lat="59.99814166713199" lon="5.375713892392572" id="-32345">
		<tag k="name" v="Mjelkevika" />
		<tag k="natural" v="bay" />
		<tag k="ssr:stedsnr" v="793139" />
	</node>
	<node lat="59.989574996119835" lon="5.392905547228635" id="-32346">
		<tag k="name" v="Landrøyvågen" />
		<tag k="natural" v="bay" />
		<tag k="ssr:stedsnr" v="793142" />
	</node>
	<node lat="60.07173055824878" lon="5.638616673986728" id="-32348">
		<tag k="name" v="Koløysundet" />
		<tag k="natural" v="strait" />
		<tag k="ssr:stedsnr" v="793307" />
	</node>
	<node lat="60.07289444636587" lon="5.616936104984372" id="-32349">
		<tag k="name" v="Kjeholmen" />
		<tag k="place" v="islet" />
		<tag k="ssr:stedsnr" v="793309" />
	</node>
	<node lat="60.073858335318235" lon="5.50236389738811" id="-32353">
		<tag k="name" v="Lyngøyskaget" />
		<tag k="natural" v="shoal" />
		<tag k="place" v="locality" />
		<tag k="ssr:stedsnr" v="793292" />
	</node>
	<node lat="60.07385555578784" lon="5.529899998057448" id="-32354">
		<tag k="fixme" v="consider seamark:type=rock or natural=shoal" />
		<tag k="name" v="Terneskjeret" />
		<tag k="place" v="islet" />
		<tag k="ssr:stedsnr" v="793296" />
	</node>
	<node lat="59.94999999761597" lon="5.708333330211666" id="-32355">
		<tag k="bay" v="fjord" />
		<tag k="name" v="Hardangerfjorden" />
		<tag k="natural" v="bay" />
		<tag k="ssr:stedsnr" v="793474" />
	</node>
	<node lat="60.03428864426837" lon="5.434107688411124" id="-32364">
		<tag k="name" v="Stokksvågen" />
		<tag k="natural" v="bay" />
		<tag k="ssr:stedsnr" v="794604" />
	</node>
	<node lat="59.998536113107455" lon="5.447683337468458" id="-32365">
		<tag k="name" v="Brattholmen" />
		<tag k="place" v="islet" />
		<tag k="ssr:stedsnr" v="914142" />
	</node>
	<node lat="59.95725243962651" lon="5.696777553878351" id="-32371">
		<tag k="alt_name" v="Onareimsfjorden" />
		<tag k="bay" v="fjord" />
		<tag k="name" v="Onarheimsfjorden" />
		<tag k="natural" v="bay" />
		<tag k="ssr:stedsnr" v="914675" />
	</node>
	<node lat="59.902374996967474" lon="5.661294445710814" id="-32377">
		<tag k="name" v="Skallebuvika" />
		<tag k="natural" v="bay" />
		<tag k="ssr:stedsnr" v="914730" />
	</node>
	<node lat="59.93257777605973" lon="5.50349722379858" id="-32379">
		<tag k="name" v="Flatholmen" />
		<tag k="place" v="islet" />
		<tag k="ssr:stedsnr" v="914738" />
	</node>
	<node lat="59.92790833352525" lon="5.643650002039791" id="-32381">
		<tag k="fixme" v="multiple name tags, choose one and add the other to alt_name" />
		<tag k="name" v="Blekavågen;Vikane" />
		<tag k="natural" v="bay" />
		<tag k="ssr:stedsnr" v="914747" />
	</node>
	<node lat="59.929413892792624" lon="5.714386117562231" id="-32382">
		<tag k="alt_name" v="Bekkjavik" />
		<tag k="name" v="Bekkjarvik" />
		<tag k="natural" v="bay" />
		<tag k="ssr:stedsnr" v="914751" />
	</node>
	<node lat="60.06462777986984" lon="5.584091674340166" id="-32389">
		<tag k="alt_name" v="Godøy, vle;Godøy, vetle" />
		<tag k="name" v="Vetle Godøy" />
		<tag k="place" v="islet" />
		<tag k="ssr:stedsnr" v="915236" />
	</node>
	<node lat="60.066225000884295" lon="5.624883329055889" id="-32390">
		<tag k="name" v="Flatøya" />
		<tag k="place" v="island" />
		<tag k="ssr:stedsnr" v="915240" />
	</node>
	<node lat="60.06688889284283" lon="5.633319444364536" id="-32391">
		<tag k="name" v="Korssundet" />
		<tag k="natural" v="strait" />
		<tag k="ssr:stedsnr" v="915243" />
	</node>
	<node lat="60.04717500296896" lon="5.526269444857501" id="-32395">
		<tag k="name" v="Tysnesvika" />
		<tag k="natural" v="bay" />
		<tag k="ssr:stedsnr" v="915266" />
	</node>
	<node lat="60.00551944744834" lon="5.711175005132244" id="-32401">
		<tag k="fixme" v="multiple name tags, choose one and add the other to alt_name" />
		<tag k="name" v="Plassholmen;Sauholmen" />
		<tag k="place" v="islet" />
		<tag k="ssr:stedsnr" v="915690" />
	</node>
	<node lat="60.00178888618457" lon="5.711436117057438" id="-32402">
		<tag k="name" v="Sandsøya" />
		<tag k="place" v="island" />
		<tag k="ssr:stedsnr" v="915694" />
	</node>
	<node lat="59.98747707026598" lon="5.481794594977557" id="-32403">
		<tag k="name" v="Kastevika" />
		<tag k="natural" v="bay" />
		<tag k="ssr:stedsnr" v="813331" />
	</node>
	<node lat="60.079583329079675" lon="5.355619446624538" id="-32404">
		<tag k="name" v="Neset" />
		<tag k="natural" v="cape" />
		<tag k="ssr:stedsnr" v="813337" />
	</node>
	<node lat="59.99759444030911" lon="5.4247277808046395" id="-32406">
		<tag k="name" v="Storestraumen" />
		<tag k="natural" v="strait" />
		<tag k="ssr:stedsnr" v="826404" />
	</node>
	<node lat="59.99041666221357" lon="5.448747214858416" id="-32407">
		<tag k="name" v="Hovdanesvågen" />
		<tag k="natural" v="bay" />
		<tag k="ssr:stedsnr" v="826405" />
	</node>
	<node lat="60.06525555894831" lon="5.421633336765291" id="-32408">
		<tag k="name" v="Bøneset" />
		<tag k="natural" v="cape" />
		<tag k="ssr:stedsnr" v="826406" />
	</node>
	<node lat="60.05352499948648" lon="5.434066667618533" id="-32409">
		<tag k="name" v="Skoraneset" />
		<tag k="natural" v="cape" />
		<tag k="ssr:stedsnr" v="826409" />
	</node>
	<node lat="60.04410277881612" lon="5.438313893032795" id="-32410">
		<tag k="name" v="Laksavågen" />
		<tag k="natural" v="bay" />
		<tag k="ssr:stedsnr" v="826415" />
	</node>
	<node lat="60.0032638644692" lon="5.43389495101001" id="-32419">
		<tag k="name" v="Trettholmen" />
		<tag k="place" v="islet" />
		<tag k="ssr:stedsnr" v="827263" />
	</node>
	<node lat="59.91325277581941" lon="5.7152527753354585" id="-32424">
		<tag k="name" v="Lyngneset" />
		<tag k="natural" v="cape" />
		<tag k="ssr:stedsnr" v="827568" />
	</node>
	<node lat="59.872061110522544" lon="5.624672230372571" id="-32425">
		<tag k="name" v="Klubbholmen" />
		<tag k="place" v="islet" />
		<tag k="ssr:stedsnr" v="827767" />
	</node>
	<node lat="60.0093527780815" lon="5.471288891969198" id="-32427">
		<tag k="alt_name" v="Hånes" />
		<tag k="name" v="Håneset" />
		<tag k="natural" v="cape" />
		<tag k="ssr:stedsnr" v="827875" />
	</node>
	<node lat="59.88413888664575" lon="5.585877778170661" id="-32432">
		<tag k="name" v="Paddeborgsvika" />
		<tag k="natural" v="bay" />
		<tag k="ssr:stedsnr" v="853255" />
	</node>
	<node lat="60.02743333047339" lon="5.4663861160146245" id="-32436">
		<tag k="alt_name" v="Børsvika" />
		<tag k="name" v="Bårevika" />
		<tag k="natural" v="bay" />
		<tag k="ssr:stedsnr" v="854207" />
	</node>
	<node lat="60.0456833350545" lon="5.544938882890975" id="-32439">
		<tag k="alt_name" v="Gjersvika" />
		<tag k="name" v="Gjerdsvika" />
		<tag k="natural" v="bay" />
		<tag k="ssr:stedsnr" v="854349" />
	</node>
	<node lat="59.920233333342644" lon="5.694047223308009" id="-32444">
		<tag k="name" v="Midtøysundet" />
		<tag k="natural" v="strait" />
		<tag k="ssr:stedsnr" v="854721" />
	</node>
	<node lat="59.929333334419724" lon="5.700749999909467" id="-32445">
		<tag k="alt_name" v="Urdholmen" />
		<tag k="name" v="Urholmen" />
		<tag k="place" v="islet" />
		<tag k="ssr:stedsnr" v="854725" />
	</node>
	<node lat="60.053905555725855" lon="5.510858339809847" id="-32447">
		<tag k="name" v="Storeholmen" />
		<tag k="place" v="islet" />
		<tag k="ssr:stedsnr" v="855291" />
	</node>
	<node lat="60.055063885735905" lon="5.617649991721807" id="-32449">
		<tag k="name" v="Neset" />
		<tag k="natural" v="cape" />
		<tag k="ssr:stedsnr" v="855600" />
	</node>
	<node lat="59.938988893410745" lon="5.6250194456411755" id="-32451">
		<tag k="name" v="Tømmervika" />
		<tag k="natural" v="bay" />
		<tag k="ssr:stedsnr" v="886725" />
	</node>
	<node lat="59.922625003510234" lon="5.652052772780551" id="-32452">
		<tag k="name" v="Klenevågsvågen" />
		<tag k="natural" v="bay" />
		<tag k="ssr:stedsnr" v="886701" />
	</node>
	<node lat="60.045330557183604" lon="5.557027769869925" id="-32453">
		<tag k="name" v="Jektavika" />
		<tag k="natural" v="bay" />
		<tag k="ssr:stedsnr" v="887162" />
	</node>
	<node lat="59.99032777450066" lon="5.388030561260305" id="-32468">
		<tag k="name" v="Skipavika" />
		<tag k="natural" v="bay" />
		<tag k="ssr:stedsnr" v="887446" />
	</node>
	<node lat="59.99436388840894" lon="5.382094447308045" id="-32469">
		<tag k="name" v="Hamnavika" />
		<tag k="natural" v="bay" />
		<tag k="ssr:stedsnr" v="887451" />
	</node>
	<node lat="60.05969166302125" lon="5.356733340166405" id="-32477">
		<tag k="name" v="Hundavika" />
		<tag k="natural" v="bay" />
		<tag k="ssr:stedsnr" v="887850" />
	</node>
	<node lat="59.86964166380139" lon="5.625536103392743" id="-32481">
		<tag k="fixme" v="consider seamark:type=rock or natural=shoal" />
		<tag k="name" v="Flataskjeret" />
		<tag k="place" v="islet" />
		<tag k="ssr:stedsnr" v="888756" />
	</node>
	<node lat="59.98632903035404" lon="5.477000223440562" id="-32482">
		<tag k="name" v="Langedalsvika" />
		<tag k="natural" v="bay" />
		<tag k="ssr:stedsnr" v="935377" />
	</node>
	<node lat="59.879016670367896" lon="5.667877774572582" id="-32484">
		<tag k="bay" v="fjord" />
		<tag k="name" v="Husnesfjorden" />
		<tag k="natural" v="bay" />
		<tag k="ssr:stedsnr" v="914275" />
	</node>
	<node lat="59.92423161288637" lon="5.654808528766165" id="-32485">
		<tag k="alt_name" v="Espevika, nordre" />
		<tag k="name" v="Nordra Espevika" />
		<tag k="natural" v="bay" />
		<tag k="ssr:stedsnr" v="914706" />
	</node>
	<node lat="60.00558888484978" lon="5.402502775641097" id="-32486">
		<tag k="alt_name" v="Marøya, store" />
		<tag k="name" v="Stora Marøya" />
		<tag k="place" v="islet" />
		<tag k="ssr:stedsnr" v="915187" />
	</node>
	<node lat="60.019311113388525" lon="5.463105547626934" id="-32487">
		<tag k="name" v="Fortøya" />
		<tag k="place" v="islet" />
		<tag k="ssr:stedsnr" v="915193" />
	</node>
	<node lat="60.059688890914515" lon="5.502930555233724" id="-32491">
		<tag k="alt_name" v="Teglandsflua" />
		<tag k="name" v="Teiglandsflua" />
		<tag k="natural" v="shoal" />
		<tag k="place" v="locality" />
		<tag k="ssr:stedsnr" v="915291" />
	</node>
	<node lat="60.086583337099896" lon="5.532033329009086" id="-32492">
		<tag k="fixme" v="consider seamark:type=rock or natural=shoal" />
		<tag k="name" v="Fluøyskjeret" />
		<tag k="place" v="islet" />
		<tag k="ssr:stedsnr" v="915416" />
	</node>
	<node lat="60.09449166782029" lon="5.558141657988546" id="-32493">
		<tag k="name" v="Seiafluene" />
		<tag k="natural" v="shoal" />
		<tag k="place" v="locality" />
		<tag k="ssr:stedsnr" v="915417" />
	</node>
	<node lat="60.0566861136579" lon="5.446486112181124" id="-32495">
		<tag k="name" v="Skorastallen" />
		<tag k="natural" v="shoal" />
		<tag k="place" v="locality" />
		<tag k="ssr:stedsnr" v="935317" />
	</node>
	<node lat="59.99022500103465" lon="5.468763883812311" id="-32496">
		<tag k="name" v="Beltestadvågen" />
		<tag k="natural" v="bay" />
		<tag k="ssr:stedsnr" v="936114" />
	</node>
	<node lat="59.90978055283928" lon="5.525611115958903" id="-32499">
		<tag k="name" v="Fløytet" />
		<tag k="natural" v="bay" />
		<tag k="ssr:stedsnr" v="947634" />
	</node>
	<node lat="60.06488611018053" lon="5.572313881379155" id="-32500">
		<tag k="name" v="Gardavika" />
		<tag k="natural" v="bay" />
		<tag k="ssr:stedsnr" v="947637" />
	</node>
	<node lat="60.07603055143852" lon="5.573424992256256" id="-32505">
		<tag k="name" v="Larsaholmen" />
		<tag k="place" v="islet" />
		<tag k="ssr:stedsnr" v="948178" />
	</node>
	<node lat="60.01865833317219" lon="5.441083328299574" id="-32510">
		<tag k="name" v="Lambavikane" />
		<tag k="natural" v="bay" />
		<tag k="ssr:stedsnr" v="948519" />
	</node>
	<node lat="60.014308334984484" lon="5.401527784666947" id="-32511">
		<tag k="name" v="Mjåvågen" />
		<tag k="natural" v="bay" />
		<tag k="ssr:stedsnr" v="948534" />
	</node>
	<node lat="59.998819445451055" lon="5.415811118238614" id="-32514">
		<tag k="name" v="Veslestraumen" />
		<tag k="natural" v="strait" />
		<tag k="ssr:stedsnr" v="948479" />
	</node>
	<node lat="59.92101388781277" lon="5.723094436273477" id="-32516">
		<tag k="fixme" v="consider seamark:type=rock or natural=shoal" />
		<tag k="name" v="Eidaskjera" />
		<tag k="place" v="islet" />
		<tag k="ssr:stedsnr" v="948596" />
	</node>
	<node lat="59.9744833327619" lon="5.661069438728996" id="-32517">
		<tag k="name" v="Midtvågeholmen" />
		<tag k="place" v="islet" />
		<tag k="ssr:stedsnr" v="948809" />
	</node>
	<node lat="60.01606388501879" lon="5.703330560569367" id="-32518">
		<tag k="name" v="Glasvik" />
		<tag k="natural" v="bay" />
		<tag k="ssr:stedsnr" v="948820" />
	</node>
	<node lat="59.93014166949663" lon="5.608963880368823" id="-32519">
		<tag k="name" v="Stakaneset" />
		<tag k="natural" v="cape" />
		<tag k="ssr:stedsnr" v="948837" />
	</node>
	<node lat="59.929627778566456" lon="5.609591666104909" id="-32520">
		<tag k="name" v="Flakkaholmen" />
		<tag k="place" v="islet" />
		<tag k="ssr:stedsnr" v="948838" />
	</node>
	<node lat="60.0373838269679" lon="5.437265972592843" id="-32533">
		<tag k="name" v="Bruntveitbukta" />
		<tag k="natural" v="bay" />
		<tag k="ssr:stedsnr" v="990949" />
	</node>
	<node lat="59.98753333579434" lon="5.689358329959547" id="-32538">
		<tag k="name" v="Årbakkaholmen" />
		<tag k="place" v="islet" />
		<tag k="ssr:stedsnr" v="3649" />
	</node>
	<node lat="60.06918055974977" lon="5.5305527826089484" id="-32539">
		<tag k="fixme" v="consider seamark:type=rock or natural=shoal" />
		<tag k="name" v="Flataskjeret" />
		<tag k="place" v="islet" />
		<tag k="ssr:stedsnr" v="4276" />
	</node>
	<node lat="60.06967777623262" lon="5.550552778475166" id="-32540">
		<tag k="name" v="Lindholmen" />
		<tag k="place" v="islet" />
		<tag k="ssr:stedsnr" v="4277" />
	</node>
	<node lat="60.066802781922455" lon="5.548911109155123" id="-32541">
		<tag k="alt_name" v="Bleika" />
		<tag k="fixme" v="consider seamark:type=rock or natural=shoal" />
		<tag k="name" v="Bleikja" />
		<tag k="place" v="islet" />
		<tag k="ssr:stedsnr" v="4278" />
	</node>
	<node lat="60.07055555976378" lon="5.573944440273069" id="-32542">
		<tag k="alt_name" v="Godøya, store;Store Godøya;Godøy, store" />
		<tag k="name" v="Stora Godøya" />
		<tag k="place" v="island" />
		<tag k="ssr:stedsnr" v="4284" />
	</node>
	<node lat="59.92141388856193" lon="5.682402780452546" id="-32550">
		<tag k="name" v="Seløya" />
		<tag k="place" v="island" />
		<tag k="ssr:stedsnr" v="4700" />
	</node>
	<node lat="60.06731457768699" lon="5.6619528199579285" id="-32556">
		<tag k="name" v="Gripnesvågen" />
		<tag k="natural" v="bay" />
		<tag k="old_name" v="Grippesvågen" />
		<tag k="ssr:stedsnr" v="5262" />
	</node>
	<node lat="60.05885555893748" lon="5.358463884668351" id="-32563">
		<tag k="name" v="Vågen" />
		<tag k="natural" v="bay" />
		<tag k="ssr:stedsnr" v="24358" />
	</node>
	<node lat="60.0485388912174" lon="5.437638886066614" id="-32564">
		<tag k="name" v="Holmasundet" />
		<tag k="natural" v="strait" />
		<tag k="ssr:stedsnr" v="25067" />
	</node>
	<node lat="59.97186111283812" lon="5.406475007592485" id="-32565">
		<tag k="name" v="Hålandsstøa" />
		<tag k="natural" v="bay" />
		<tag k="ssr:stedsnr" v="25164" />
	</node>
	<node lat="60.00215833397401" lon="5.425747222925812" id="-32569">
		<tag k="name" v="Tjuvholmen" />
		<tag k="place" v="islet" />
		<tag k="ssr:stedsnr" v="37431" />
	</node>
	<node lat="59.9995749992615" lon="5.378863882253478" id="-32570">
		<tag k="name" v="Instebøvika" />
		<tag k="natural" v="bay" />
		<tag k="ssr:stedsnr" v="37448" />
	</node>
	<node lat="60.000905558250686" lon="5.415672224962699" id="-32571">
		<tag k="name" v="Kubbervik" />
		<tag k="natural" v="bay" />
		<tag k="ssr:stedsnr" v="37456" />
	</node>
	<node lat="60.076236113706514" lon="5.519163889886904" id="-32572">
		<tag k="fixme" v="consider seamark:type=rock or natural=shoal" />
		<tag k="name" v="Gullstoveskjeret" />
		<tag k="place" v="islet" />
		<tag k="ssr:stedsnr" v="37180" />
	</node>
	<node lat="60.04481666806899" lon="5.541052784862179" id="-32573">
		<tag k="name" v="Hønsaholmen" />
		<tag k="place" v="islet" />
		<tag k="ssr:stedsnr" v="37183" />
	</node>
	<node lat="59.97210833013003" lon="5.501447217984344" id="-32574">
		<tag k="name" v="Holmen" />
		<tag k="place" v="islet" />
		<tag k="ssr:stedsnr" v="37189" />
	</node>
	<node lat="59.987833393877" lon="5.482562411115831" id="-32575">
		<tag k="name" v="Svinaneset" />
		<tag k="natural" v="cape" />
		<tag k="ssr:stedsnr" v="37198" />
	</node>
	<node lat="60.082194441281736" lon="5.424641664201885" id="-32578">
		<tag k="name" v="Klungerholmen" />
		<tag k="place" v="islet" />
		<tag k="ssr:stedsnr" v="37395" />
	</node>
	<node lat="59.997919446268895" lon="5.388494443922594" id="-32585">
		<tag k="name" v="Årabladsundet" />
		<tag k="natural" v="strait" />
		<tag k="ssr:stedsnr" v="37460" />
	</node>
	<node lat="60.01337579484112" lon="5.401563214051469" id="-32586">
		<tag k="name" v="Mjåneset" />
		<tag k="natural" v="cape" />
		<tag k="ssr:stedsnr" v="37472" />
	</node>
	<node lat="60.00471666617726" lon="5.4123861154008" id="-32587">
		<tag k="name" v="Seiaholmane" />
		<tag k="place" v="islet" />
		<tag k="ssr:stedsnr" v="37475" />
	</node>
	<node lat="60.00428333755917" lon="5.378466661715155" id="-32588">
		<tag k="name" v="Bjørnavika" />
		<tag k="natural" v="bay" />
		<tag k="ssr:stedsnr" v="37491" />
	</node>
	<node lat="60.06328611462945" lon="5.547152779927104" id="-32590">
		<tag k="name" v="Verdens Ende" />
		<tag k="natural" v="cape" />
		<tag k="ssr:stedsnr" v="37687" />
	</node>
	<node lat="59.89911667027701" lon="5.5360583404397365" id="-32591">
		<tag k="name" v="Slåtteskorneset" />
		<tag k="natural" v="cape" />
		<tag k="ssr:stedsnr" v="37793" />
	</node>
	<node lat="59.99517500158733" lon="5.449824994301858" id="-32592">
		<tag k="fixme" v="consider seamark:type=rock or natural=shoal" />
		<tag k="name" v="Måsaskjeret" />
		<tag k="place" v="islet" />
		<tag k="ssr:stedsnr" v="37883" />
	</node>
	<node lat="59.99153610811578" lon="5.443563889884384" id="-32593">
		<tag k="name" v="Fureholmssundet" />
		<tag k="natural" v="strait" />
		<tag k="ssr:stedsnr" v="37884" />
	</node>
	<node lat="59.90397499834687" lon="5.731177774841075" id="-32597">
		<tag k="bay" v="fjord" />
		<tag k="name" v="Hardangerfjorden" />
		<tag k="natural" v="bay" />
		<tag k="ssr:stedsnr" v="37548" />
	</node>
	<node lat="60.06909444169043" lon="5.434130563325104" id="-32601">
		<tag k="name" v="Naustvika" />
		<tag k="natural" v="bay" />
		<tag k="ssr:stedsnr" v="37654" />
	</node>
	<node lat="60.05105277372462" lon="5.70341389114576" id="-32602">
		<tag k="name" v="Sundavika" />
		<tag k="natural" v="bay" />
		<tag k="ssr:stedsnr" v="37740" />
	</node>
	<node lat="60.05783611440834" lon="5.631961114488478" id="-32603">
		<tag k="name" v="Apalvika" />
		<tag k="natural" v="bay" />
		<tag k="ssr:stedsnr" v="37741" />
	</node>
	<node lat="60.023263888268794" lon="5.706927778920896" id="-32604">
		<tag k="name" v="Titlevika" />
		<tag k="natural" v="bay" />
		<tag k="ssr:stedsnr" v="37753" />
	</node>
	<node lat="59.95228055726243" lon="5.635438880481628" id="-32605">
		<tag k="name" v="Nesjavika" />
		<tag k="natural" v="bay" />
		<tag k="ssr:stedsnr" v="37757" />
	</node>
	<node lat="60.04366944557019" lon="5.546136108529844" id="-32619">
		<tag k="name" v="Lisbetneset" />
		<tag k="natural" v="cape" />
		<tag k="ssr:stedsnr" v="38674" />
	</node>
	<node lat="60.01894999649878" lon="5.432022219067802" id="-32620">
		<tag k="name" v="Tjøreholmen" />
		<tag k="place" v="islet" />
		<tag k="ssr:stedsnr" v="38882" />
	</node>
	<node lat="59.87679721785804" lon="5.6224388865445265" id="-32621">
		<tag k="name" v="Langøyhamnen" />
		<tag k="natural" v="strait" />
		<tag k="ssr:stedsnr" v="38737" />
	</node>
	<node lat="59.87308210342594" lon="5.614642984209372" id="-32623">
		<tag k="name" v="Lyngneset" />
		<tag k="natural" v="cape" />
		<tag k="ssr:stedsnr" v="64246" />
	</node>
	<node lat="59.89282777978497" lon="5.578172227290256" id="-32624">
		<tag k="alt_name" v="Annarøya;Andarøya" />
		<tag k="name" v="Anderøy" />
		<tag k="place" v="islet" />
		<tag k="ssr:stedsnr" v="64285" />
	</node>
	<node lat="59.97138610890193" lon="5.654811104956288" id="-32630">
		<tag k="alt_name" v="Ingjelsholmen" />
		<tag k="name" v="Ingelsholmen" />
		<tag k="place" v="islet" />
		<tag k="ssr:stedsnr" v="64632" />
	</node>
	<node lat="59.92791110903202" lon="5.635219447421943" id="-32636">
		<tag k="name" v="Dragvika" />
		<tag k="natural" v="bay" />
		<tag k="ssr:stedsnr" v="65744" />
	</node>
	<node lat="60.048105552566" lon="5.357580555108411" id="-32637">
		<tag k="name" v="Uførene" />
		<tag k="natural" v="cape" />
		<tag k="ssr:stedsnr" v="65139" />
	</node>
	<node lat="60.061478043995734" lon="5.598322411763607" id="-32638">
		<tag k="loc_name" v="Skipavika" />
		<tag k="name" v="Skiparvika" />
		<tag k="natural" v="bay" />
		<tag k="ssr:stedsnr" v="65243" />
	</node>
	<node lat="59.97347777481446" lon="5.399302769213442" id="-32640">
		<tag k="name" v="Jarnetevika" />
		<tag k="natural" v="bay" />
		<tag k="ssr:stedsnr" v="65167" />
	</node>
	<node lat="60.07537678467275" lon="5.692173726732357" id="-32642">
		<tag k="alt_name" v="Solsvik" />
		<tag k="name" v="Solsvika" />
		<tag k="natural" v="bay" />
		<tag k="ssr:stedsnr" v="65285" />
	</node>
	<node lat="60.079816669308066" lon="5.40382222453114" id="-32647">
		<tag k="alt_name" v="Eldsholmsholmen" />
		<tag k="name" v="Storholmen" />
		<tag k="place" v="islet" />
		<tag k="ssr:stedsnr" v="65933" />
	</node>
	<node lat="60.075699996559706" lon="5.434274999295858" id="-32651">
		<tag k="name" v="Kuvågen" />
		<tag k="natural" v="bay" />
		<tag k="ssr:stedsnr" v="86113" />
	</node>
	<node lat="60.0684055546703" lon="5.538838893013526" id="-32653">
		<tag k="name" v="Storeflu" />
		<tag k="natural" v="shoal" />
		<tag k="place" v="locality" />
		<tag k="ssr:stedsnr" v="86352" />
	</node>
	<node lat="60.01752222420723" lon="5.472097215600995" id="-32654">
		<tag k="name" v="Øklandsvika" />
		<tag k="natural" v="bay" />
		<tag k="ssr:stedsnr" v="86459" />
	</node>
	<node lat="59.91141944864752" lon="5.594961111774311" id="-32655">
		<tag k="alt_name" v="Fløytet" />
		<tag k="name" v="Fløyter" />
		<tag k="natural" v="cape" />
		<tag k="ssr:stedsnr" v="86781" />
	</node>
	<node lat="59.94640833284368" lon="5.486375002135774" id="-32660">
		<tag k="name" v="Trædsneset" />
		<tag k="natural" v="cape" />
		<tag k="ssr:stedsnr" v="99662" />
	</node>
	<node lat="59.99796389212351" lon="5.702416669644471" id="-32663">
		<tag k="name" v="Klubbavika" />
		<tag k="natural" v="bay" />
		<tag k="ssr:stedsnr" v="98136" />
	</node>
	<node lat="60.006666669801376" lon="5.70533889563777" id="-32664">
		<tag k="name" v="Langholmen" />
		<tag k="place" v="islet" />
		<tag k="ssr:stedsnr" v="98138" />
	</node>
	<node lat="60.04431666258695" lon="5.54369445138181" id="-32666">
		<tag k="name" v="Storeholmen" />
		<tag k="place" v="islet" />
		<tag k="ssr:stedsnr" v="98143" />
	</node>
	<node lat="60.05044444044814" lon="5.561913893327726" id="-32667">
		<tag k="name" v="Terneneset" />
		<tag k="natural" v="cape" />
		<tag k="ssr:stedsnr" v="98148" />
	</node>
	<node lat="60.07031111142669" lon="5.424569446375789" id="-32674">
		<tag k="name" v="Sundaneset" />
		<tag k="natural" v="cape" />
		<tag k="ssr:stedsnr" v="98392" />
	</node>
	<node lat="59.99555427351333" lon="5.461045002009722" id="-32683">
		<tag k="name" v="Austre Knappsvågen" />
		<tag k="natural" v="bay" />
		<tag k="ssr:stedsnr" v="98438" />
	</node>
	<node lat="59.99030009365477" lon="5.446487075810993" id="-32684">
		<tag k="name" v="Nesjatangen" />
		<tag k="natural" v="cape" />
		<tag k="ssr:stedsnr" v="98448" />
	</node>
	<node lat="60.00229721818643" lon="5.4011944532972205" id="-32685">
		<tag k="name" v="Viereneset" />
		<tag k="natural" v="cape" />
		<tag k="ssr:stedsnr" v="98450" />
	</node>
	<node lat="59.993427779304604" lon="5.393058337539426" id="-32686">
		<tag k="name" v="Trumbevågen" />
		<tag k="natural" v="bay" />
		<tag k="ssr:stedsnr" v="98454" />
	</node>
	<node lat="59.95635000241897" lon="5.495955552635137" id="-32691">
		<tag k="name" v="Grønevika" />
		<tag k="natural" v="bay" />
		<tag k="ssr:stedsnr" v="98635" />
	</node>
	<node lat="59.984383335832895" lon="5.679011103011202" id="-32692">
		<tag k="name" v="Korsasjøen" />
		<tag k="natural" v="bay" />
		<tag k="ssr:stedsnr" v="98735" />
	</node>
	<node lat="59.97870555538414" lon="5.6757277854976085" id="-32693">
		<tag k="name" v="Klubben" />
		<tag k="natural" v="cape" />
		<tag k="ssr:stedsnr" v="98742" />
	</node>
	<node lat="59.93234166529274" lon="5.697016665418863" id="-32694">
		<tag k="name" v="Gulholmen" />
		<tag k="place" v="islet" />
		<tag k="ssr:stedsnr" v="98798" />
	</node>
	<node lat="59.922158995061174" lon="5.657693841441652" id="-32695">
		<tag k="name" v="Storevågen" />
		<tag k="natural" v="bay" />
		<tag k="ssr:stedsnr" v="98800" />
	</node>
	<node lat="60.07182222154256" lon="5.584216665758956" id="-32699">
		<tag k="name" v="Erleholmen" />
		<tag k="place" v="islet" />
		<tag k="ssr:stedsnr" v="99745" />
	</node>
	<node lat="60.073641664904684" lon="5.423733328539369" id="-32700">
		<tag k="name" v="Slepet" />
		<tag k="natural" v="bay" />
		<tag k="ssr:stedsnr" v="99674" />
	</node>
	<node lat="60.077585487274625" lon="5.58323070008339" id="-32701">
		<tag k="name" v="Geitanesholmen" />
		<tag k="place" v="islet" />
		<tag k="ssr:stedsnr" v="99699" />
	</node>
	<node lat="60.07897777810125" lon="5.559077782760467" id="-32703">
		<tag k="name" v="Godøyskautet" />
		<tag k="natural" v="cape" />
		<tag k="ssr:stedsnr" v="125485" />
	</node>
	<node lat="60.05011944028395" lon="5.436675002707481" id="-32704">
		<tag k="alt_name" v="Skåraholmen" />
		<tag k="name" v="Skoraholmen" />
		<tag k="place" v="islet" />
		<tag k="ssr:stedsnr" v="125149" />
	</node>
</osm>
