<?xml version="1.0" encoding="UTF-8"?>
<<<<<<< HEAD
<osm version="0.6" generator="osmapis">
	<node lat="60.040431661088604" lon="5.5311909687848315" id="-31943">
		<tag k="alt_name" v="Tysnes" />
=======
<osm generator="osmapis" version="0.6">
	<node id="-608318" lat="60.0679694483" lon="5.5618777862">
		<tag k="name" v="Hamna" />
		<tag k="place" v="locality" />
		<tag k="ssr:stedsnr" v="550278" />
	</node>
	<node id="-607950" lat="60.0398472233" lon="5.43332222648">
		<tag k="alt_name" v="Reksteren" />
		<tag k="amenity" v="place_of_worship" />
		<tag k="denomination" v="lutheran" />
		<tag k="name" v="Reksteren kyrkje" />
		<tag k="religion" v="christian" />
		<tag k="ssr:stedsnr" v="186136" />
	</node>
	<node id="-607059" lat="60.0404833363" lon="5.53083610792">
		<tag k="alt_name" v="Tysnes" />
		<tag k="amenity" v="place_of_worship" />
		<tag k="denomination" v="lutheran" />
		<tag k="name" v="Tysnes kyrkje" />
		<tag k="religion" v="christian" />
		<tag k="ssr:stedsnr" v="489381" />
	</node>
	<node id="-608130" lat="59.9467555596" lon="5.62716111894">
		<tag k="alt_name" v="Onarheim" />
		<tag k="amenity" v="place_of_worship" />
		<tag k="denomination" v="lutheran" />
		<tag k="name" v="Onarheim kyrkje" />
		<tag k="religion" v="christian" />
		<tag k="ssr:stedsnr" v="368760" />
	</node>
	<node id="-608027" lat="60.0086611146" lon="5.49795278191">
		<tag k="alt_name" v="Uggdal" />
>>>>>>> e1d4bc35ff8a6074a6f2e91616a996b547c36f15
		<tag k="amenity" v="place_of_worship" />
		<tag k="denomination" v="lutheran" />
		<tag k="name" v="Uggdal kyrkje" />
		<tag k="religion" v="christian" />
		<tag k="ssr:stedsnr" v="308637" />
	</node>
</osm>
