<?xml version="1.0" encoding="UTF-8"?>
<<<<<<< HEAD
<osm version="0.6" generator="osmapis">
	<node lat="59.95329655760129" lon="5.524652779554869" id="-31471">
		<tag k="alt_name" v="Torsteinvatnet" />
		<tag k="name" v="Torsteinstjørna" />
		<tag k="natural" v="water" />
		<tag k="ssr:stedsnr" v="3603" />
	</node>
	<node lat="59.96631654857477" lon="5.608780761126895" id="-31472">
		<tag k="name" v="Onarheimsvatnet" />
		<tag k="natural" v="water" />
		<tag k="ssr:stedsnr" v="3609" />
		<tag k="water" v="lake" />
	</node>
	<node lat="59.98364540757528" lon="5.6102948141242495" id="-31473">
		<tag k="alt_name" v="Gjersvatnet" />
		<tag k="name" v="Gjerdsvatnet" />
		<tag k="natural" v="water" />
		<tag k="ssr:stedsnr" v="3630" />
	</node>
	<node lat="59.98137606146994" lon="5.490817934589987" id="-31474">
		<tag k="name" v="Søreidstjørna" />
		<tag k="natural" v="water" />
		<tag k="ssr:stedsnr" v="3638" />
	</node>
	<node lat="60.018400002973266" lon="5.575338154250721" id="-31486">
		<tag k="name" v="Huldastølsvatnet" />
		<tag k="natural" v="water" />
		<tag k="ssr:stedsnr" v="5665" />
	</node>
	<node lat="59.94278945560686" lon="5.535587157468538" id="-31494">
		<tag k="name" v="Flatråkervatnet" />
=======
<osm generator="osmapis" version="0.6">
	<node id="-607488" lat="59.9857861074" lon="5.40474445249">
		<tag k="name" v="Sagvatnet" />
		<tag k="natural" v="water" />
		<tag k="ssr:stedsnr" v="793155" />
	</node>
	<node id="-606712" lat="59.9840294587" lon="5.5551582806">
		<tag k="name" v="Øyjordsvatnet" />
>>>>>>> e1d4bc35ff8a6074a6f2e91616a996b547c36f15
		<tag k="natural" v="water" />
		<tag k="ssr:stedsnr" v="37168" />
		<tag k="water" v="lake" />
	</node>
<<<<<<< HEAD
	<node lat="60.05491111173611" lon="5.583805547343572" id="-31497">
=======
	<node id="-606711" lat="60.0549111117" lon="5.58380554734">
>>>>>>> e1d4bc35ff8a6074a6f2e91616a996b547c36f15
		<tag k="name" v="Furuneset" />
		<tag k="natural" v="cape" />
		<tag k="ssr:stedsnr" v="37603" />
	</node>
<<<<<<< HEAD
	<node lat="59.984029458664494" lon="5.555158280596963" id="-31498">
		<tag k="name" v="Øyjordsvatnet" />
		<tag k="natural" v="water" />
		<tag k="ssr:stedsnr" v="37605" />
		<tag k="water" v="lake" />
	</node>
	<node lat="59.95132499827892" lon="5.555152779149759" id="-31505">
=======
	<node id="-607217" lat="59.944630553" lon="5.55431389118">
		<tag k="name" v="Sætravika" />
		<tag k="natural" v="bay" />
		<tag k="ssr:stedsnr" v="705145" />
	</node>
	<node id="-608749" lat="60.0584179495" lon="5.56226659773">
		<tag k="alt_name" v="Leirvikevatnet" />
		<tag k="name" v="Leirvikvatnet" />
		<tag k="natural" v="water" />
		<tag k="ssr:stedsnr" v="855338" />
	</node>
	<node id="-607719" lat="59.8847709252" lon="5.60152383354">
		<tag k="name" v="Sæterdalsvatnet" />
		<tag k="natural" v="water" />
		<tag k="ssr:stedsnr" v="37595" />
		<tag k="water" v="lake" />
	</node>
	<node id="-608742" lat="59.9357638799" lon="5.58290293247">
		<tag k="fixme" v="multiple name tags, choose one and add the other to alt_name" />
		<tag k="name" v="Bleikåsvatnet;Ramsdalsvatnet" />
		<tag k="natural" v="water" />
		<tag k="ssr:stedsnr" v="854710" />
	</node>
	<node id="-607717" lat="60.0387083358" lon="5.36971665767">
		<tag k="name" v="Fuglavasselva" />
		<tag k="ssr:stedsnr" v="37628" />
		<tag k="waterway" v="river" />
	</node>
	<node id="-607716" lat="59.9601249962" lon="5.57806666162">
		<tag k="name" v="Indrelvane" />
		<tag k="ssr:stedsnr" v="37626" />
		<tag k="waterway" v="river" />
	</node>
	<node id="-607714" lat="60.053383531" lon="5.39348915554">
		<tag k="name" v="Skardstjørna" />
		<tag k="natural" v="water" />
		<tag k="ssr:stedsnr" v="37536" />
	</node>
	<node id="-608735" lat="60.0403138932" lon="5.66202499278">
		<tag k="name" v="Botnen" />
		<tag k="natural" v="bay" />
		<tag k="ssr:stedsnr" v="854292" />
	</node>
	<node id="-607709" lat="59.9513249983" lon="5.55515277915">
>>>>>>> e1d4bc35ff8a6074a6f2e91616a996b547c36f15
		<tag k="name" v="Båtastøda" />
		<tag k="natural" v="beach" />
		<tag k="ssr:stedsnr" v="37566" />
	</node>
<<<<<<< HEAD
	<node lat="60.02886111057955" lon="5.6686055618882" id="-31533">
		<tag k="name" v="Tverrelva" />
		<tag k="ssr:stedsnr" v="65620" />
		<tag k="waterway" v="stream" />
	</node>
	<node lat="59.988397006373965" lon="5.636308994174758" id="-31537">
		<tag k="alt_name" v="Langedalsvatnet" />
		<tag k="name" v="Jøtulsvatnet" />
		<tag k="natural" v="water" />
		<tag k="ssr:stedsnr" v="65637" />
	</node>
	<node lat="60.002002647194594" lon="5.493960337893684" id="-31542">
		<tag k="name" v="Kyrkjevatnet" />
=======
	<node id="-608730" lat="59.8970000038" lon="5.55237776916">
		<tag k="name" v="Hodnaneselva" />
		<tag k="ssr:stedsnr" v="853703" />
		<tag k="waterway" v="stream" />
	</node>
	<node id="-608729" lat="59.8989194419" lon="5.61496945044">
		<tag k="name" v="Aravatnet" />
		<tag k="natural" v="water" />
		<tag k="ssr:stedsnr" v="853701" />
	</node>
	<node id="-607192" lat="60.0749250008" lon="5.35857777943">
		<tag k="name" v="Kaldafossen" />
		<tag k="natural" v="waterfall" />
		<tag k="ssr:stedsnr" v="523218" />
	</node>
	<node id="-608726" lat="59.8809331594" lon="5.6155404115">
		<tag k="name" v="Stemmevatnet" />
		<tag k="natural" v="water" />
		<tag k="ssr:stedsnr" v="853237" />
	</node>
	<node id="-606969" lat="59.9778638861" lon="5.52737499981">
		<tag k="name" v="Elvakroken" />
		<tag k="ssr:stedsnr" v="462119" />
		<tag k="waterway" v="river" />
	</node>
	<node id="-607697" lat="59.9427894556" lon="5.53558715747">
		<tag k="name" v="Flatråkervatnet" />
		<tag k="natural" v="water" />
		<tag k="ssr:stedsnr" v="37168" />
		<tag k="water" v="lake" />
	</node>
	<node id="-607179" lat="60.0397500014" lon="5.57889999167">
		<tag k="name" v="Vallaelva" />
		<tag k="ssr:stedsnr" v="672336" />
		<tag k="waterway" v="stream" />
	</node>
	<node id="-608247" lat="60.0676277793" lon="5.41372777459">
		<tag k="name" v="Storavatnet" />
		<tag k="natural" v="water" />
		<tag k="ssr:stedsnr" v="430167" />
	</node>
	<node id="-606663" lat="59.9962333315" lon="5.38947222834">
		<tag k="name" v="Kobbeidosen" />
		<tag k="natural" v="bay" />
		<tag k="ssr:stedsnr" v="220154" />
	</node>
	<node id="-606662" lat="59.9653305537" lon="5.6040472191">
		<tag k="name" v="Kaldjosen" />
		<tag k="natural" v="bay" />
		<tag k="ssr:stedsnr" v="220152" />
	</node>
	<node id="-608708" lat="60.0532689773" lon="5.42297608549">
		<tag k="name" v="Skoratjørna" />
		<tag k="natural" v="water" />
		<tag k="ssr:stedsnr" v="827553" />
	</node>
	<node id="-607682" lat="60.018400003" lon="5.57533815425">
		<tag k="name" v="Huldastølsvatnet" />
		<tag k="natural" v="water" />
		<tag k="ssr:stedsnr" v="5665" />
	</node>
	<node id="-607679" lat="60.0063500031" lon="5.62503333058">
		<tag k="name" v="Grovasselva" />
		<tag k="ssr:stedsnr" v="5637" />
		<tag k="waterway" v="stream" />
	</node>
	<node id="-608188" lat="60.0480250007" lon="5.66047222338">
		<tag k="name" v="Mjånes" />
		<tag k="natural" v="cape" />
		<tag k="ssr:stedsnr" v="401609" />
	</node>
	<node id="-608187" lat="60.0788727551" lon="5.39577888057">
		<tag k="name" v="Dalselva" />
		<tag k="ssr:stedsnr" v="401603" />
		<tag k="waterway" v="river" />
	</node>
	<node id="-608186" lat="59.9455277779" lon="5.55880555348">
		<tag k="name" v="Nilsavika" />
		<tag k="natural" v="bay" />
		<tag k="ssr:stedsnr" v="401583" />
	</node>
	<node id="-608185" lat="60.0357963417" lon="5.48728232952">
		<tag k="alt_name" v="Teglandsvatnet" />
		<tag k="name" v="Teiglandstjørna" />
		<tag k="natural" v="water" />
		<tag k="ssr:stedsnr" v="401563" />
	</node>
	<node id="-608184" lat="59.9094025142" lon="5.60345338445">
		<tag k="name" v="Hegratjørna" />
		<tag k="natural" v="water" />
		<tag k="ssr:stedsnr" v="401554" />
	</node>
	<node id="-606647" lat="59.9153508335" lon="5.60875873891">
		<tag k="name" v="Klevavatnet" />
		<tag k="natural" v="water" />
		<tag k="ssr:stedsnr" v="219579" />
		<tag k="water" v="lake" />
	</node>
	<node id="-608182" lat="59.9650722208" lon="5.5270694456">
		<tag k="name" v="Hegraneset" />
		<tag k="natural" v="cape" />
		<tag k="ssr:stedsnr" v="401528" />
	</node>
	<node id="-608181" lat="60.0555439997" lon="5.4153982145">
		<tag k="name" v="Stemmevatnet" />
>>>>>>> e1d4bc35ff8a6074a6f2e91616a996b547c36f15
		<tag k="natural" v="water" />
		<tag k="ssr:stedsnr" v="65649" />
		<tag k="water" v="lake" />
	</node>
<<<<<<< HEAD
	<node lat="59.97944174638808" lon="5.431571629515932" id="-31554">
		<tag k="name" v="Liatjørna" />
		<tag k="natural" v="water" />
		<tag k="ssr:stedsnr" v="247165" />
	</node>
	<node lat="59.932372542028986" lon="5.616629860119782" id="-31573">
		<tag k="alt_name" v="Langedalstjørna" />
		<tag k="name" v="Langelandstjørna" />
		<tag k="natural" v="water" />
		<tag k="ssr:stedsnr" v="247717" />
	</node>
	<node lat="60.06637500350749" lon="5.651972215562396" id="-31578">
		<tag k="name" v="Leirebekken" />
		<tag k="ssr:stedsnr" v="98131" />
		<tag k="waterway" v="stream" />
	</node>
	<node lat="60.02247500400333" lon="5.6973277738088495" id="-31587">
		<tag k="name" v="Hovlandselva" />
		<tag k="ssr:stedsnr" v="98607" />
		<tag k="waterway" v="river" />
	</node>
	<node lat="59.98829722359683" lon="5.566863891045532" id="-31588">
		<tag k="name" v="Verma" />
		<tag k="ssr:stedsnr" v="98609" />
		<tag k="waterway" v="stream" />
	</node>
	<node lat="59.946650956412824" lon="5.552162938755827" id="-31594">
		<tag k="name" v="Iselveholmen" />
=======
	<node id="-607646" lat="59.9663165486" lon="5.60878076113">
		<tag k="name" v="Onarheimsvatnet" />
		<tag k="natural" v="water" />
		<tag k="ssr:stedsnr" v="3609" />
		<tag k="water" v="lake" />
	</node>
	<node id="-607153" lat="59.9800073832" lon="5.4381421719">
		<tag k="alt_name" v="Sætretjørna" />
		<tag k="name" v="Sætratjørna" />
		<tag k="natural" v="water" />
		<tag k="ssr:stedsnr" v="671164" />
	</node>
	<node id="-607152" lat="59.9844752979" lon="5.42470941215">
		<tag k="name" v="Langavatnet" />
		<tag k="natural" v="water" />
		<tag k="ssr:stedsnr" v="671146" />
	</node>
	<node id="-608328" lat="59.9173431277" lon="5.66211486997">
		<tag k="name" v="Skiftesvatnet" />
		<tag k="natural" v="water" />
		<tag k="ssr:stedsnr" v="550669" />
	</node>
	<node id="-607645" lat="59.9532965576" lon="5.52465277955">
		<tag k="alt_name" v="Torsteinvatnet" />
		<tag k="name" v="Torsteinstjørna" />
		<tag k="natural" v="water" />
		<tag k="ssr:stedsnr" v="3603" />
	</node>
	<node id="-607659" lat="60.0412475831" lon="5.63659428204">
		<tag k="name" v="Sanddalselva" />
		<tag k="ssr:stedsnr" v="4310" />
		<tag k="waterway" v="stream" />
	</node>
	<node id="-608183" lat="59.9101393624" lon="5.55070216973">
		<tag k="name" v="Tornesvatna" />
		<tag k="natural" v="water" />
		<tag k="ssr:stedsnr" v="401541" />
		<tag k="water" v="lake" />
	</node>
	<node id="-607815" lat="59.9580244617" lon="5.47713025992">
		<tag k="name" v="Kongsviktjørna" />
		<tag k="natural" v="water" />
		<tag k="ssr:stedsnr" v="98544" />
	</node>
	<node id="-607876" lat="60.0206638871" lon="5.56098054724">
		<tag k="name" v="Dalselva" />
		<tag k="ssr:stedsnr" v="126635" />
		<tag k="waterway" v="stream" />
	</node>
	<node id="-608675" lat="60.0379583343" lon="5.57780554977">
		<tag k="name" v="Djuvaelva" />
		<tag k="ssr:stedsnr" v="826596" />
		<tag k="waterway" v="river" />
	</node>
	<node id="-608674" lat="59.9417527752" lon="5.5486666624">
		<tag k="name" v="Aurevika" />
		<tag k="natural" v="bay" />
		<tag k="ssr:stedsnr" v="826584" />
	</node>
	<node id="-608673" lat="60.0593111414" lon="5.56980529468">
		<tag k="name" v="Iglatjørna" />
		<tag k="natural" v="water" />
		<tag k="ssr:stedsnr" v="826573" />
	</node>
	<node id="-608672" lat="60.0772878752" lon="5.42937019123">
		<tag k="name" v="Straumtjørna" />
		<tag k="natural" v="water" />
		<tag k="ssr:stedsnr" v="826560" />
	</node>
	<node id="-608671" lat="59.9051875592" lon="5.54785990738">
		<tag k="name" v="Nordstatjørna" />
		<tag k="natural" v="water" />
		<tag k="ssr:stedsnr" v="826556" />
	</node>
	<node id="-608670" lat="59.9731402745" lon="5.4844775837">
		<tag k="name" v="Hundatjørna" />
		<tag k="natural" v="water" />
		<tag k="ssr:stedsnr" v="826552" />
	</node>
	<node id="-608669" lat="59.9469472228" lon="5.55751666811">
		<tag k="name" v="Skotholmen" />
		<tag k="place" v="islet" />
		<tag k="ssr:stedsnr" v="826539" />
	</node>
	<node id="-607132" lat="60.022049401" lon="5.37623654648">
		<tag k="alt_name" v="Frøkedalsvatnet" />
		<tag k="name" v="Frøkjedalsvatnet" />
		<tag k="natural" v="water" />
		<tag k="ssr:stedsnr" v="429220" />
	</node>
	<node id="-607642" lat="59.9744278674" lon="5.6188716229">
		<tag k="name" v="Lauvåsvatnet" />
		<tag k="natural" v="water" />
		<tag k="ssr:stedsnr" v="3584" />
	</node>
	<node id="-607128" lat="60.0412166647" lon="5.37539443757">
		<tag k="name" v="Lonene" />
		<tag k="place" v="locality" />
		<tag k="ssr:stedsnr" v="429126" />
	</node>
	<node id="-607639" lat="59.996744447" lon="5.62963333468">
		<tag k="name" v="Tverrelva" />
		<tag k="ssr:stedsnr" v="948917" />
		<tag k="waterway" v="river" />
	</node>
	<node id="-608146" lat="60.0618546555" lon="5.3926822834">
		<tag k="name" v="Orefjellstjørna" />
		<tag k="natural" v="water" />
		<tag k="ssr:stedsnr" v="401145" />
	</node>
	<node id="-608145" lat="59.9556250003" lon="5.55079999848">
		<tag k="name" v="Kosteneset" />
		<tag k="natural" v="cape" />
		<tag k="ssr:stedsnr" v="401143" />
	</node>
	<node id="-607631" lat="59.9655527762" lon="5.6137388925">
		<tag k="name" v="Eikåseelva" />
		<tag k="ssr:stedsnr" v="948675" />
		<tag k="waterway" v="river" />
	</node>
	<node id="-607630" lat="59.9863888908" lon="5.55269166935">
		<tag k="name" v="Småholmen" />
>>>>>>> e1d4bc35ff8a6074a6f2e91616a996b547c36f15
		<tag k="place" v="islet" />
		<tag k="ssr:stedsnr" v="98561" />
	</node>
<<<<<<< HEAD
	<node lat="59.96280528558611" lon="5.569416279699472" id="-31595">
		<tag k="alt_name" v="Stølsætervatnet" />
		<tag k="name" v="Skyldsetevatnet" />
=======
	<node id="-608141" lat="60.051225695" lon="5.56954084429">
		<tag k="name" v="Kvernavatnet" />
>>>>>>> e1d4bc35ff8a6074a6f2e91616a996b547c36f15
		<tag k="natural" v="water" />
		<tag k="ssr:stedsnr" v="98568" />
		<tag k="water" v="lake" />
	</node>
<<<<<<< HEAD
	<node lat="59.91288997407006" lon="5.541813167799197" id="-31596">
		<tag k="name" v="Korsviketjørna" />
		<tag k="natural" v="water" />
		<tag k="ssr:stedsnr" v="98570" />
	</node>
	<node lat="60.03459710419571" lon="5.363882131808805" id="-31597">
		<tag k="name" v="Svartavatnet" />
=======
	<node id="-607628" lat="59.9708467934" lon="5.55613421295">
		<tag k="name" v="Korsdalstjørna" />
		<tag k="natural" v="water" />
		<tag k="ssr:stedsnr" v="948623" />
	</node>
	<node id="-607627" lat="59.9617472223" lon="5.56773054855">
		<tag k="name" v="Krokaneset" />
		<tag k="natural" v="cape" />
		<tag k="ssr:stedsnr" v="948619" />
	</node>
	<node id="-608134" lat="60.0659040906" lon="5.36511738587">
		<tag k="name" v="Kaldafosstjørna" />
>>>>>>> e1d4bc35ff8a6074a6f2e91616a996b547c36f15
		<tag k="natural" v="water" />
		<tag k="ssr:stedsnr" v="98573" />
		<tag k="water" v="lake" />
	</node>
<<<<<<< HEAD
	<node lat="59.989558336332095" lon="5.594194448186672" id="-31602">
		<tag k="name" v="Singelstadelva" />
		<tag k="ssr:stedsnr" v="98879" />
		<tag k="waterway" v="river" />
	</node>
	<node lat="60.06014722384772" lon="5.636213879768466" id="-31603">
		<tag k="name" v="Lundeelva" />
		<tag k="ssr:stedsnr" v="98884" />
		<tag k="waterway" v="river" />
	</node>
	<node lat="59.927649577132996" lon="5.538394595387584" id="-31624">
		<tag k="name" v="Paddetjørna" />
		<tag k="natural" v="water" />
		<tag k="ssr:stedsnr" v="125750" />
	</node>
	<node lat="59.9620397902349" lon="5.5209613132590585" id="-31627">
		<tag k="name" v="Stemmetjørna" />
=======
	<node id="-608577" lat="59.9925861068" lon="5.66729166014">
		<tag k="name" v="Øvrevågselva" />
		<tag k="ssr:stedsnr" v="765861" />
		<tag k="waterway" v="river" />
	</node>
	<node id="-607107" lat="59.9515416662" lon="5.55038333074">
		<tag k="name" v="Vinterstøda" />
		<tag k="natural" v="beach" />
		<tag k="ssr:stedsnr" v="401228" />
	</node>
	<node id="-608128" lat="59.9414411328" lon="5.58550564136">
		<tag k="name" v="Paddetjørna" />
		<tag k="natural" v="water" />
		<tag k="ssr:stedsnr" v="368752" />
	</node>
	<node id="-608637" lat="60.0012719587" lon="5.57126748434">
		<tag k="name" v="Langedalsvatnet" />
		<tag k="natural" v="water" />
		<tag k="ssr:stedsnr" v="793728" />
	</node>
	<node id="-607100" lat="60.0495052744" lon="5.42080223883">
		<tag k="name" v="Storavatnet" />
>>>>>>> e1d4bc35ff8a6074a6f2e91616a996b547c36f15
		<tag k="natural" v="water" />
		<tag k="ssr:stedsnr" v="125648" />
	</node>
<<<<<<< HEAD
	<node lat="60.013592493500155" lon="5.489545168721672" id="-31633">
		<tag k="name" v="Kinna" />
=======
	<node id="-608123" lat="60.030707091" lon="5.56639892759">
		<tag k="name" v="Botnatjørna" />
>>>>>>> e1d4bc35ff8a6074a6f2e91616a996b547c36f15
		<tag k="natural" v="water" />
		<tag k="ssr:stedsnr" v="126611" />
	</node>
<<<<<<< HEAD
	<node lat="60.014544446296256" lon="5.522588880649481" id="-31634">
		<tag k="alt_name" v="Reiselva" />
		<tag k="name" v="Reiseelva" />
		<tag k="ssr:stedsnr" v="126612" />
		<tag k="waterway" v="stream" />
	</node>
	<node lat="59.993038886718416" lon="5.454396840243471" id="-31660">
		<tag k="name" v="Beltestadtjørna" />
=======
	<node id="-607098" lat="60.0442416694" lon="5.66385555665">
		<tag k="name" v="Fureneset" />
		<tag k="natural" v="cape" />
		<tag k="ssr:stedsnr" v="491629" />
	</node>
	<node id="-608117" lat="60.0349194412" lon="5.6283333252">
		<tag k="name" v="Myrdalsvatnet" />
>>>>>>> e1d4bc35ff8a6074a6f2e91616a996b547c36f15
		<tag k="natural" v="water" />
		<tag k="ssr:stedsnr" v="186120" />
	</node>
<<<<<<< HEAD
	<node lat="59.99782622101919" lon="5.555239900959481" id="-31664">
		<tag k="name" v="Nyavatnet" />
=======
	<node id="-608628" lat="60.033485234" lon="5.52995969272">
		<tag k="name" v="Vågstjørna" />
>>>>>>> e1d4bc35ff8a6074a6f2e91616a996b547c36f15
		<tag k="natural" v="water" />
		<tag k="ssr:stedsnr" v="186629" />
	</node>
<<<<<<< HEAD
	<node lat="60.00000009617176" lon="5.62213803603977" id="-31667">
		<tag k="alt_name" v="Dalssætervatnet" />
		<tag k="name" v="Dalsætervatnet" />
=======
	<node id="-608114" lat="59.9898447246" lon="5.40483947063">
		<tag k="name" v="Midtvatnet" />
>>>>>>> e1d4bc35ff8a6074a6f2e91616a996b547c36f15
		<tag k="natural" v="water" />
		<tag k="ssr:stedsnr" v="186634" />
	</node>
<<<<<<< HEAD
	<node lat="59.944853572369" lon="5.608805738263464" id="-31670">
		<tag k="alt_name" v="Elsåkervatnet" />
		<tag k="name" v="Elsåkertjørna" />
=======
	<node id="-607089" lat="60.0292420855" lon="5.68226274139">
		<tag k="alt_name" v="Vetlebøletjørna" />
		<tag k="name" v="Veslebølstjørna" />
>>>>>>> e1d4bc35ff8a6074a6f2e91616a996b547c36f15
		<tag k="natural" v="water" />
		<tag k="ssr:stedsnr" v="186747" />
	</node>
<<<<<<< HEAD
	<node lat="60.01692354015755" lon="5.570986221509734" id="-31675">
		<tag k="name" v="Ljosavatnet" />
		<tag k="natural" v="water" />
		<tag k="ssr:stedsnr" v="187578" />
		<tag k="water" v="lake" />
	</node>
	<node lat="59.915350833463386" lon="5.608758738906138" id="-31696">
		<tag k="name" v="Klevavatnet" />
=======
	<node id="-608112" lat="59.9761944444" lon="5.47079444478">
		<tag k="alt_name" v="Drangsvatnet" />
		<tag k="name" v="Drangstjørna" />
		<tag k="natural" v="water" />
		<tag k="ssr:stedsnr" v="367658" />
	</node>
	<node id="-607087" lat="60.0118944423" lon="5.54907500899">
		<tag k="name" v="Tverrbekken" />
		<tag k="ssr:stedsnr" v="490614" />
		<tag k="waterway" v="stream" />
	</node>
	<node id="-608109" lat="59.956301096" lon="5.5324537151">
		<tag k="name" v="Breidavatnet" />
		<tag k="natural" v="water" />
		<tag k="ssr:stedsnr" v="367617" />
		<tag k="water" v="lake" />
	</node>
	<node id="-607595" lat="60.0263302113" lon="5.5311939205">
		<tag k="name" v="Anderslandstjørna" />
>>>>>>> e1d4bc35ff8a6074a6f2e91616a996b547c36f15
		<tag k="natural" v="water" />
		<tag k="ssr:stedsnr" v="219579" />
		<tag k="water" v="lake" />
	</node>
<<<<<<< HEAD
	<node lat="59.93486389091237" lon="5.588399992357481" id="-31715">
		<tag k="name" v="Mjåsund" />
		<tag k="natural" v="strait" />
		<tag k="ssr:stedsnr" v="220610" />
	</node>
	<node lat="60.04267777682785" lon="5.372869443187763" id="-31716">
		<tag k="name" v="Lonabrekka" />
		<tag k="natural" v="shoal" />
		<tag k="ssr:stedsnr" v="220622" />
	</node>
	<node lat="60.04066111121084" lon="5.36046944223964" id="-31733">
		<tag k="name" v="Skotelva" />
		<tag k="ssr:stedsnr" v="247127" />
		<tag k="waterway" v="stream" />
	</node>
	<node lat="59.996438884488605" lon="5.493399993817289" id="-31765">
		<tag k="name" v="Eidaelv" />
		<tag k="ssr:stedsnr" v="280609" />
		<tag k="waterway" v="river" />
	</node>
	<node lat="60.048141664382804" lon="5.421866674495702" id="-31788">
		<tag k="name" v="Båtavika" />
		<tag k="natural" v="bay" />
		<tag k="ssr:stedsnr" v="462117" />
	</node>
	<node lat="59.977863886078715" lon="5.527374999808553" id="-31789">
		<tag k="name" v="Elvakroken" />
		<tag k="ssr:stedsnr" v="462119" />
		<tag k="waterway" v="river" />
	</node>
	<node lat="59.92259890069241" lon="5.648071988229742" id="-31818">
		<tag k="alt_name" v="Espeviktjørna" />
		<tag k="loc_name" v="Østerspollen" />
		<tag k="name" v="Øysterpollen" />
=======
	<node id="-607075" lat="60.0562500411" lon="5.40657485076">
		<tag k="alt_name" v="Skrudalsvatnet" />
		<tag k="name" v="Skruvdalsvatnet" />
		<tag k="natural" v="water" />
		<tag k="ssr:stedsnr" v="490158" />
	</node>
	<node id="-607073" lat="59.9412885314" lon="5.59645971257">
		<tag k="name" v="Stemmevatnet" />
		<tag k="natural" v="water" />
		<tag k="ssr:stedsnr" v="489744" />
	</node>
	<node id="-608096" lat="59.9485638923" lon="5.62314721938">
		<tag k="name" v="Onareimselva" />
		<tag k="ssr:stedsnr" v="341672" />
		<tag k="waterway" v="river" />
	</node>
	<node id="-608095" lat="59.9844527797" lon="5.59065278555">
		<tag k="name" v="Klubben" />
		<tag k="natural" v="cape" />
		<tag k="ssr:stedsnr" v="341656" />
	</node>
	<node id="-608094" lat="60.0543333308" lon="5.58171944119">
		<tag k="name" v="Danielsholmen" />
		<tag k="place" v="islet" />
		<tag k="ssr:stedsnr" v="341652" />
	</node>
	<node id="-608093" lat="60.0712194086" lon="5.38171510366">
		<tag k="name" v="Furedalsvatnet" />
>>>>>>> e1d4bc35ff8a6074a6f2e91616a996b547c36f15
		<tag k="natural" v="water" />
		<tag k="ssr:stedsnr" v="462574" />
	</node>
<<<<<<< HEAD
	<node lat="59.95930718705544" lon="5.5789112712250954" id="-31819">
		<tag k="name" v="Elvetjørna" />
		<tag k="natural" v="water" />
		<tag k="ssr:stedsnr" v="462537" />
	</node>
	<node lat="59.95750162526252" lon="5.5384973354153555" id="-31820">
		<tag k="name" v="Barnatjørna" />
=======
	<node id="-608092" lat="59.9631778295" lon="5.49166274836">
		<tag k="name" v="Mylneviktjørna" />
		<tag k="natural" v="water" />
		<tag k="ssr:stedsnr" v="341633" />
	</node>
	<node id="-608091" lat="59.9373682947" lon="5.57585528301">
		<tag k="name" v="Skiftesvika" />
		<tag k="natural" v="bay" />
		<tag k="ssr:stedsnr" v="341624" />
	</node>
	<node id="-608090" lat="59.9686328922" lon="5.5567121468">
		<tag k="name" v="Medvatnetjørna" />
>>>>>>> e1d4bc35ff8a6074a6f2e91616a996b547c36f15
		<tag k="natural" v="water" />
		<tag k="ssr:stedsnr" v="462539" />
	</node>
<<<<<<< HEAD
	<node lat="59.944088887682014" lon="5.5431194388532425" id="-31821">
		<tag k="name" v="Bratteid" />
		<tag k="place" v="locality" />
		<tag k="ssr:stedsnr" v="462542" />
	</node>
	<node lat="59.94942617037069" lon="5.538371490512011" id="-31822">
		<tag k="name" v="Gjeldnetetjørna" />
		<tag k="natural" v="water" />
		<tag k="ssr:stedsnr" v="462546" />
	</node>
	<node lat="60.07070808603419" lon="5.39480724058339" id="-31849">
		<tag k="alt_name" v="Sørevatnet" />
		<tag k="name" v="Søravatnet" />
		<tag k="natural" v="water" />
		<tag k="ssr:stedsnr" v="308154" />
	</node>
	<node lat="60.05301666324048" lon="5.582433325676934" id="-31853">
		<tag k="name" v="Hegglandsvatnet" />
=======
	<node id="-608089" lat="59.9461555591" lon="5.55504166636">
		<tag k="name" v="Langaneset" />
		<tag k="natural" v="cape" />
		<tag k="ssr:stedsnr" v="341609" />
	</node>
	<node id="-608087" lat="60.0471182394" lon="5.41908518303">
		<tag k="name" v="Bruntveittjørna" />
		<tag k="natural" v="water" />
		<tag k="ssr:stedsnr" v="341574" />
	</node>
	<node id="-608078" lat="60.031749996" lon="5.67827777191">
		<tag k="name" v="Løken" />
		<tag k="ssr:stedsnr" v="341258" />
		<tag k="waterway" v="river" />
	</node>
	<node id="-607629" lat="59.9963165178" lon="5.55926244733">
		<tag k="name" v="Håkovatnet" />
>>>>>>> e1d4bc35ff8a6074a6f2e91616a996b547c36f15
		<tag k="natural" v="water" />
		<tag k="ssr:stedsnr" v="308316" />
		<tag k="water" v="lake" />
	</node>
<<<<<<< HEAD
	<node lat="60.01609184037011" lon="5.483316515437146" id="-31856">
		<tag k="name" v="Storavatnet" />
		<tag k="natural" v="water" />
		<tag k="ssr:stedsnr" v="308602" />
	</node>
	<node lat="59.954783337121484" lon="5.546827773381416" id="-31873">
=======
	<node id="-607202" lat="59.9282668276" lon="5.53571205614">
		<tag k="name" v="Årviketjørna" />
		<tag k="natural" v="water" />
		<tag k="ssr:stedsnr" v="523649" />
	</node>
	<node id="-608578" lat="60.0566138886" lon="5.64314722362">
		<tag k="name" v="Bakkelva" />
		<tag k="ssr:stedsnr" v="765869" />
		<tag k="waterway" v="river" />
	</node>
	<node id="-608065" lat="59.9547833371" lon="5.54682777338">
>>>>>>> e1d4bc35ff8a6074a6f2e91616a996b547c36f15
		<tag k="name" v="Kosteklubben" />
		<tag k="natural" v="cape" />
		<tag k="ssr:stedsnr" v="341109" />
	</node>
<<<<<<< HEAD
	<node lat="60.03174999600602" lon="5.6782777719118345" id="-31878">
		<tag k="name" v="Løken" />
		<tag k="ssr:stedsnr" v="341258" />
		<tag k="waterway" v="river" />
	</node>
	<node lat="59.946155559064835" lon="5.555041666361805" id="-31879">
		<tag k="name" v="Langaneset" />
		<tag k="natural" v="cape" />
		<tag k="ssr:stedsnr" v="341609" />
	</node>
	<node lat="59.96863289215415" lon="5.5567121468036795" id="-31880">
		<tag k="name" v="Medvatnetjørna" />
=======
	<node id="-607551" lat="59.9729887272" lon="5.61536558085">
		<tag k="name" v="Åsatjørna" />
		<tag k="natural" v="water" />
		<tag k="ssr:stedsnr" v="948639" />
	</node>
	<node id="-607550" lat="59.9115931455" lon="5.54300929859">
		<tag k="name" v="Iglestigtjørna" />
>>>>>>> e1d4bc35ff8a6074a6f2e91616a996b547c36f15
		<tag k="natural" v="water" />
		<tag k="ssr:stedsnr" v="341619" />
	</node>
<<<<<<< HEAD
	<node lat="59.93736829469773" lon="5.575855283013527" id="-31881">
		<tag k="name" v="Skiftesvika" />
		<tag k="natural" v="bay" />
		<tag k="ssr:stedsnr" v="341624" />
	</node>
	<node lat="60.07121940861468" lon="5.381715103659073" id="-31882">
		<tag k="name" v="Furedalsvatnet" />
=======
	<node id="-608572" lat="60.0416361069" lon="5.67046110527">
		<tag k="name" v="Vesla Fureneset" />
		<tag k="natural" v="cape" />
		<tag k="ssr:stedsnr" v="765586" />
	</node>
	<node id="-607547" lat="59.9856278839" lon="5.42979628471">
		<tag k="name" v="Stølstjørna" />
>>>>>>> e1d4bc35ff8a6074a6f2e91616a996b547c36f15
		<tag k="natural" v="water" />
		<tag k="ssr:stedsnr" v="341642" />
		<tag k="water" v="lake" />
	</node>
<<<<<<< HEAD
	<node lat="60.05433333076206" lon="5.581719441186588" id="-31883">
		<tag k="name" v="Danielsholmen" />
		<tag k="place" v="islet" />
		<tag k="ssr:stedsnr" v="341652" />
	</node>
	<node lat="59.98445277968259" lon="5.590652785551051" id="-31884">
		<tag k="name" v="Klubben" />
		<tag k="natural" v="cape" />
		<tag k="ssr:stedsnr" v="341656" />
	</node>
	<node lat="59.956301096019295" lon="5.532453715101305" id="-31888">
		<tag k="name" v="Breidavatnet" />
=======
	<node id="-608570" lat="59.9484583958" lon="5.61631323025">
		<tag k="name" v="Tverrelva" />
		<tag k="ssr:stedsnr" v="765566" />
		<tag k="waterway" v="river" />
	</node>
	<node id="-608569" lat="59.9945386115" lon="5.51544711113">
		<tag k="name" v="Vesla Lauga" />
		<tag k="natural" v="water" />
		<tag k="ssr:stedsnr" v="765558" />
		<tag k="water" v="pond" />
	</node>
	<node id="-608568" lat="60.0549412345" lon="5.55839532943">
		<tag k="name" v="Leirviktjørna" />
>>>>>>> e1d4bc35ff8a6074a6f2e91616a996b547c36f15
		<tag k="natural" v="water" />
		<tag k="ssr:stedsnr" v="367617" />
		<tag k="water" v="lake" />
	</node>
<<<<<<< HEAD
	<node lat="59.98984472460566" lon="5.404839470631754" id="-31890">
		<tag k="name" v="Midtvatnet" />
		<tag k="natural" v="water" />
		<tag k="ssr:stedsnr" v="368177" />
	</node>
	<node lat="60.03070709096327" lon="5.5663989275873" id="-31896">
		<tag k="name" v="Botnatjørna" />
		<tag k="natural" v="water" />
		<tag k="ssr:stedsnr" v="368683" />
	</node>
	<node lat="60.05122569504154" lon="5.569540844291539" id="-31899">
		<tag k="name" v="Kvernavatnet" />
=======
	<node id="-606857" lat="59.8768527776" lon="5.61258332615">
		<tag k="name" v="Laukhammarelva" />
		<tag k="ssr:stedsnr" v="159661" />
		<tag k="waterway" v="river" />
	</node>
	<node id="-607139" lat="59.9209343142" lon="5.57165772484">
		<tag k="alt_name" v="Kastavatnet" />
		<tag k="name" v="Karsteinsvatnet" />
		<tag k="natural" v="water" />
		<tag k="ssr:stedsnr" v="429738" />
	</node>
	<node id="-608561" lat="59.9067626109" lon="5.56021864123">
		<tag k="name" v="Hodnanesvatnet" />
>>>>>>> e1d4bc35ff8a6074a6f2e91616a996b547c36f15
		<tag k="natural" v="water" />
		<tag k="ssr:stedsnr" v="369321" />
	</node>
<<<<<<< HEAD
	<node lat="59.95154166615561" lon="5.550383330736233" id="-31910">
		<tag k="name" v="Vinterstøda" />
		<tag k="natural" v="beach" />
		<tag k="ssr:stedsnr" v="401228" />
	</node>
	<node lat="60.05554399973201" lon="5.415398214496383" id="-31917">
		<tag k="name" v="Stemmevatnet" />
=======
	<node id="-607024" lat="60.0374640295" lon="5.39712326012">
		<tag k="name" v="Søra Tjørna" />
>>>>>>> e1d4bc35ff8a6074a6f2e91616a996b547c36f15
		<tag k="natural" v="water" />
		<tag k="ssr:stedsnr" v="401507" />
		<tag k="water" v="lake" />
	</node>
	<node lat="59.96507222075411" lon="5.527069445598779" id="-31918">
		<tag k="name" v="Hegraneset" />
		<tag k="natural" v="cape" />
		<tag k="ssr:stedsnr" v="401528" />
	</node>
<<<<<<< HEAD
	<node lat="59.94552777794642" lon="5.558805553483643" id="-31919">
		<tag k="name" v="Nilsavika" />
=======
	<node id="-607535" lat="59.9679249985" lon="5.60336388116">
		<tag k="name" v="Storosen" />
>>>>>>> e1d4bc35ff8a6074a6f2e91616a996b547c36f15
		<tag k="natural" v="bay" />
		<tag k="ssr:stedsnr" v="401583" />
	</node>
<<<<<<< HEAD
	<node lat="60.07887275510687" lon="5.395778880568311" id="-31923">
		<tag k="name" v="Dalselva" />
		<tag k="ssr:stedsnr" v="401603" />
		<tag k="waterway" v="river" />
	</node>
	<node lat="60.04802500068188" lon="5.6604722233804425" id="-31924">
		<tag k="name" v="Mjånes" />
		<tag k="natural" v="cape" />
		<tag k="ssr:stedsnr" v="401609" />
	</node>
	<node lat="60.05625004112961" lon="5.406574850756598" id="-31956">
		<tag k="alt_name" v="Skrudalsvatnet" />
		<tag k="name" v="Skruvdalsvatnet" />
=======
	<node id="-608571" lat="59.9388361116" lon="5.57573055621">
		<tag k="name" v="Bleikåselva" />
		<tag k="ssr:stedsnr" v="765582" />
		<tag k="waterway" v="river" />
	</node>
	<node id="-607021" lat="59.9575016253" lon="5.53849733542">
		<tag k="name" v="Barnatjørna" />
>>>>>>> e1d4bc35ff8a6074a6f2e91616a996b547c36f15
		<tag k="natural" v="water" />
		<tag k="ssr:stedsnr" v="490158" />
	</node>
<<<<<<< HEAD
	<node lat="60.02128438798482" lon="5.6017085039157655" id="-31962">
		<tag k="alt_name" v="Støvatnet, nordre;Nordre Støvatnet" />
		<tag k="name" v="Nordsta Stødvatnet" />
=======
	<node id="-607020" lat="59.9593071871" lon="5.57891127123">
		<tag k="name" v="Elvetjørna" />
>>>>>>> e1d4bc35ff8a6074a6f2e91616a996b547c36f15
		<tag k="natural" v="water" />
		<tag k="ssr:stedsnr" v="490685" />
	</node>
<<<<<<< HEAD
	<node lat="60.041216664667886" lon="5.375394437569836" id="-31969">
		<tag k="name" v="Lonene" />
		<tag k="place" v="locality" />
		<tag k="ssr:stedsnr" v="429126" />
	</node>
	<node lat="60.013528608286265" lon="5.5041217584560815" id="-31977">
		<tag k="name" v="Reisetjørna" />
=======
	<node id="-607026" lat="60.0032698666" lon="5.64160485682">
		<tag k="name" v="Trylletjørna" />
		<tag k="natural" v="water" />
		<tag k="ssr:stedsnr" v="462615" />
	</node>
	<node id="-606940" lat="60.0426777768" lon="5.37286944319">
		<tag k="name" v="Lonabrekka" />
		<tag k="natural" v="shoal" />
		<tag k="place" v="locality" />
		<tag k="ssr:stedsnr" v="220622" />
	</node>
	<node id="-607025" lat="59.9225989007" lon="5.64807198823">
		<tag k="alt_name" v="Espeviktjørna" />
		<tag k="loc_name" v="Østerspollen" />
		<tag k="name" v="Øysterpollen" />
		<tag k="natural" v="water" />
		<tag k="ssr:stedsnr" v="462574" />
	</node>
	<node id="-606939" lat="59.9348638909" lon="5.58839999236">
		<tag k="name" v="Mjåsund" />
		<tag k="natural" v="strait" />
		<tag k="ssr:stedsnr" v="220610" />
	</node>
	<node id="-607519" lat="60.0167027762" lon="5.60482500273">
		<tag k="alt_name" v="Støvatnet, s;Støvatnet, søre;Søre Støvatnet" />
		<tag k="name" v="Synsta Stødvatnet" />
>>>>>>> e1d4bc35ff8a6074a6f2e91616a996b547c36f15
		<tag k="natural" v="water" />
		<tag k="ssr:stedsnr" v="429610" />
	</node>
<<<<<<< HEAD
	<node lat="60.067627779346466" lon="5.41372777458858" id="-31984">
		<tag k="name" v="Storavatnet" />
		<tag k="natural" v="water" />
		<tag k="ssr:stedsnr" v="430167" />
	</node>
	<node lat="59.98447529792945" lon="5.424709412153125" id="-31990">
		<tag k="name" v="Langavatnet" />
=======
	<node id="-608030" lat="60.0709669914" lon="5.41814194028">
		<tag k="name" v="Tuftavatnet" />
		<tag k="natural" v="water" />
		<tag k="ssr:stedsnr" v="308914" />
	</node>
	<node id="-608029" lat="60.0014999965" lon="5.60524999423">
		<tag k="alt_name" v="Dalssæterelva" />
		<tag k="name" v="Dalsæterelva" />
		<tag k="ssr:stedsnr" v="308672" />
		<tag k="waterway" v="stream" />
	</node>
	<node id="-608026" lat="60.0160918404" lon="5.48331651544">
		<tag k="name" v="Storavatnet" />
>>>>>>> e1d4bc35ff8a6074a6f2e91616a996b547c36f15
		<tag k="natural" v="water" />
		<tag k="ssr:stedsnr" v="671146" />
	</node>
<<<<<<< HEAD
	<node lat="59.98000738322507" lon="5.43814217189707" id="-31992">
		<tag k="alt_name" v="Sætretjørna" />
		<tag k="name" v="Sætratjørna" />
=======
	<node id="-607023" lat="59.9494261704" lon="5.53837149051">
		<tag k="name" v="Gjeldnetetjørna" />
		<tag k="natural" v="water" />
		<tag k="ssr:stedsnr" v="462546" />
	</node>
	<node id="-608023" lat="60.0530166632" lon="5.58243332568">
		<tag k="name" v="Hegglandsvatnet" />
>>>>>>> e1d4bc35ff8a6074a6f2e91616a996b547c36f15
		<tag k="natural" v="water" />
		<tag k="ssr:stedsnr" v="671164" />
	</node>
<<<<<<< HEAD
	<node lat="60.03975000138363" lon="5.578899991667186" id="-32003">
		<tag k="name" v="Vallaelva" />
		<tag k="ssr:stedsnr" v="672336" />
		<tag k="waterway" v="stream" />
	</node>
	<node lat="60.01015555737749" lon="5.63728332803766" id="-32012">
		<tag k="name" v="Grovatnet" />
=======
	<node id="-607510" lat="59.9743775058" lon="5.41683542763">
		<tag k="name" v="Tveitevatnet" />
>>>>>>> e1d4bc35ff8a6074a6f2e91616a996b547c36f15
		<tag k="natural" v="water" />
		<tag k="ssr:stedsnr" v="672633" />
	</node>
<<<<<<< HEAD
	<node lat="60.00326986659699" lon="5.641604856817785" id="-32031">
		<tag k="name" v="Trylletjørna" />
		<tag k="natural" v="water" />
		<tag k="ssr:stedsnr" v="462615" />
	</node>
	<node lat="60.037464029513096" lon="5.397123260118759" id="-32032">
		<tag k="name" v="Søra Tjørna" />
		<tag k="natural" v="water" />
		<tag k="ssr:stedsnr" v="462561" />
	</node>
	<node lat="59.9412885314361" lon="5.596459712573826" id="-32048">
		<tag k="name" v="Stemmevatnet" />
=======
	<node id="-606937" lat="60.0505194459" lon="5.41482776968">
		<tag k="name" v="Mjåsundet" />
		<tag k="natural" v="strait" />
		<tag k="ssr:stedsnr" v="220563" />
	</node>
	<node id="-607022" lat="59.9440888877" lon="5.54311943885">
		<tag k="name" v="Bratteid" />
		<tag k="natural" v="strait" />
		<tag k="ssr:stedsnr" v="462542" />
	</node>
	<node id="-607503" lat="60.029844827" lon="5.4352685234">
		<tag k="name" v="Gjellandstjørna" />
>>>>>>> e1d4bc35ff8a6074a6f2e91616a996b547c36f15
		<tag k="natural" v="water" />
		<tag k="ssr:stedsnr" v="489744" />
	</node>
<<<<<<< HEAD
	<node lat="60.011894442309654" lon="5.5490750089937775" id="-32056">
		<tag k="name" v="Tverrbekken" />
		<tag k="ssr:stedsnr" v="490614" />
		<tag k="waterway" v="stream" />
	</node>
	<node lat="60.02924208546265" lon="5.68226274139114" id="-32058">
		<tag k="alt_name" v="Vetlebøletjørna" />
		<tag k="name" v="Veslebølstjørna" />
=======
	<node id="-608525" lat="60.0020861078" lon="5.65042221456">
		<tag k="name" v="Vesle Kortenstjørna" />
>>>>>>> e1d4bc35ff8a6074a6f2e91616a996b547c36f15
		<tag k="natural" v="water" />
		<tag k="ssr:stedsnr" v="490636" />
	</node>
<<<<<<< HEAD
	<node lat="60.0442416694403" lon="5.66385555664848" id="-32062">
		<tag k="name" v="Fureneset" />
		<tag k="natural" v="cape" />
		<tag k="ssr:stedsnr" v="491629" />
	</node>
	<node lat="60.074925000792874" lon="5.358577779427319" id="-32079">
		<tag k="name" v="Kaldafossen" />
		<tag k="natural" v="waterfall" />
		<tag k="ssr:stedsnr" v="523218" />
	</node>
	<node lat="60.03346111133022" lon="5.549230563388761" id="-32103">
		<tag k="name" v="Skardstjørna" />
=======
	<node id="-608012" lat="60.070708086" lon="5.39480724058">
		<tag k="alt_name" v="Sørevatnet" />
		<tag k="name" v="Søravatnet" />
		<tag k="natural" v="water" />
		<tag k="ssr:stedsnr" v="308154" />
	</node>
	<node id="-608523" lat="60.0219783651" lon="5.53778039289">
		<tag k="name" v="Lomstjørna" />
>>>>>>> e1d4bc35ff8a6074a6f2e91616a996b547c36f15
		<tag k="natural" v="water" />
		<tag k="ssr:stedsnr" v="550320" />
	</node>
<<<<<<< HEAD
	<node lat="60.00152010339496" lon="5.646774678132804" id="-32140">
		<tag k="name" v="Store Kortensvatnet" />
		<tag k="natural" v="water" />
		<tag k="ssr:stedsnr" v="583608" />
		<tag k="water" v="lake" />
	</node>
	<node lat="60.0206350689817" lon="5.651453274476795" id="-32141">
		<tag k="name" v="Heiavatnet" />
=======
	<node id="-608522" lat="59.9845972211" lon="5.55481389129">
		<tag k="name" v="Storholmen" />
		<tag k="place" v="islet" />
		<tag k="ssr:stedsnr" v="644633" />
	</node>
	<node id="-608521" lat="59.9149509299" lon="5.60128239981">
		<tag k="name" v="Mækjingvatnet" />
>>>>>>> e1d4bc35ff8a6074a6f2e91616a996b547c36f15
		<tag k="natural" v="water" />
		<tag k="ssr:stedsnr" v="583610" />
		<tag k="water" v="lake" />
	</node>
<<<<<<< HEAD
	<node lat="59.993165638342774" lon="5.510616851358007" id="-32162">
		<tag k="alt_name" v="Stora Lauga" />
		<tag k="name" v="Laugo" />
=======
	<node id="-608520" lat="59.911314421" lon="5.60702228988">
		<tag k="name" v="Hetlelitjørna" />
>>>>>>> e1d4bc35ff8a6074a6f2e91616a996b547c36f15
		<tag k="natural" v="water" />
		<tag k="ssr:stedsnr" v="610613" />
	</node>
<<<<<<< HEAD
	<node lat="60.00214166621612" lon="5.59709166014067" id="-32171">
		<tag k="name" v="Gjermevatnet" />
=======
	<node id="-608519" lat="59.9267520151" lon="5.5832376612">
		<tag k="name" v="Lomatjørna" />
>>>>>>> e1d4bc35ff8a6074a6f2e91616a996b547c36f15
		<tag k="natural" v="water" />
		<tag k="ssr:stedsnr" v="611707" />
	</node>
<<<<<<< HEAD
	<node lat="59.9446305529698" lon="5.554313891176017" id="-32183">
		<tag k="name" v="Sætravika" />
		<tag k="natural" v="bay" />
		<tag k="ssr:stedsnr" v="705145" />
	</node>
	<node lat="59.97635278211534" lon="5.615200002105307" id="-32189">
		<tag k="name" v="Øvste Vassenden" />
		<tag k="natural" v="bay" />
		<tag k="ssr:stedsnr" v="705274" />
	</node>
	<node lat="60.057977760847436" lon="5.386030610027649" id="-32201">
		<tag k="name" v="Gjøvågstjørna" />
=======
	<node id="-608000" lat="59.995188886" lon="5.59535278462">
		<tag k="alt_name" v="Brekkelva" />
		<tag k="name" v="Brekkeelva" />
		<tag k="ssr:stedsnr" v="307596" />
		<tag k="waterway" v="stream" />
	</node>
	<node id="-607486" lat="59.9718491622" lon="5.60051160443">
		<tag k="name" v="Evjepytten" />
>>>>>>> e1d4bc35ff8a6074a6f2e91616a996b547c36f15
		<tag k="natural" v="water" />
		<tag k="ssr:stedsnr" v="705580" />
	</node>
	<node lat="60.049041664411504" lon="5.58206388485205" id="-32202">
		<tag k="name" v="Vassneset" />
		<tag k="natural" v="cape" />
		<tag k="ssr:stedsnr" v="705653" />
	</node>
<<<<<<< HEAD
	<node lat="59.91131442097286" lon="5.607022289879772" id="-32232">
		<tag k="name" v="Hetlelitjørna" />
=======
	<node id="-607996" lat="59.9948892467" lon="5.4092543558">
		<tag k="name" v="Prestkonevatnet" />
>>>>>>> e1d4bc35ff8a6074a6f2e91616a996b547c36f15
		<tag k="natural" v="water" />
		<tag k="ssr:stedsnr" v="644616" />
	</node>
<<<<<<< HEAD
	<node lat="59.99282499912696" lon="5.649827773410876" id="-32248">
		<tag k="alt_name" v="Krokilsvatnet" />
		<tag k="name" v="Krokelsvatnet" />
=======
	<node id="-607481" lat="60.0144305515" lon="5.58020833987">
		<tag k="alt_name" v="Gjerstadstølsvatnet" />
		<tag k="name" v="Bjørnastølsvatnet" />
>>>>>>> e1d4bc35ff8a6074a6f2e91616a996b547c36f15
		<tag k="natural" v="water" />
		<tag k="ssr:stedsnr" v="671668" />
	</node>
<<<<<<< HEAD
	<node lat="59.96423611108486" lon="5.530716670552288" id="-32282">
		<tag k="name" v="Mjølkevika" />
=======
	<node id="-606968" lat="60.0481416644" lon="5.4218666745">
		<tag k="name" v="Båtavika" />
>>>>>>> e1d4bc35ff8a6074a6f2e91616a996b547c36f15
		<tag k="natural" v="bay" />
		<tag k="ssr:stedsnr" v="705624" />
	</node>
<<<<<<< HEAD
	<node lat="60.021838892857076" lon="5.5687611137218465" id="-32283">
		<tag k="name" v="Tverrelva" />
		<tag k="ssr:stedsnr" v="705673" />
		<tag k="waterway" v="river" />
	</node>
	<node lat="59.973044442733524" lon="5.523386116735262" id="-32284">
		<tag k="name" v="Kleivadalsbekken" />
		<tag k="ssr:stedsnr" v="705676" />
		<tag k="waterway" v="stream" />
	</node>
	<node lat="60.03189999673171" lon="5.600586110219126" id="-32306">
		<tag k="name" v="Grindelva" />
		<tag k="ssr:stedsnr" v="733310" />
		<tag k="waterway" v="stream" />
	</node>
	<node lat="59.971849162197124" lon="5.60051160443399" id="-32341">
		<tag k="name" v="Evjepytten" />
=======
	<node id="-606962" lat="60.051505166" lon="5.41228049158">
		<tag k="name" v="Botnavatnet" />
		<tag k="natural" v="water" />
		<tag k="ssr:stedsnr" v="280538" />
		<tag k="water" v="lake" />
	</node>
	<node id="-607979" lat="60.0217253638" lon="5.66673660531">
		<tag k="alt_name" v="Vasstølstjørna" />
		<tag k="name" v="Vasstøltjørna" />
		<tag k="natural" v="water" />
		<tag k="ssr:stedsnr" v="187645" />
	</node>
	<node id="-607977" lat="60.0087769218" lon="5.5454881325">
		<tag k="name" v="Skardtjørna" />
>>>>>>> e1d4bc35ff8a6074a6f2e91616a996b547c36f15
		<tag k="natural" v="water" />
		<tag k="ssr:stedsnr" v="792609" />
	</node>
<<<<<<< HEAD
	<node lat="59.985786107356695" lon="5.404744452487974" id="-32347">
		<tag k="name" v="Sagvatnet" />
		<tag k="natural" v="water" />
		<tag k="ssr:stedsnr" v="793155" />
	</node>
	<node lat="60.00127195867837" lon="5.571267484339851" id="-32362">
		<tag k="name" v="Langedalsvatnet" />
=======
	<node id="-607976" lat="60.0169235402" lon="5.57098622151">
		<tag k="name" v="Ljosavatnet" />
		<tag k="natural" v="water" />
		<tag k="ssr:stedsnr" v="187578" />
		<tag k="water" v="lake" />
	</node>
	<node id="-607648" lat="59.9813760615" lon="5.49081793459">
		<tag k="name" v="Søreidstjørna" />
		<tag k="natural" v="water" />
		<tag k="ssr:stedsnr" v="3638" />
	</node>
	<node id="-607462" lat="59.9262749959" lon="5.55739166678">
		<tag k="name" v="Rongedalselva" />
		<tag k="ssr:stedsnr" v="914745" />
		<tag k="waterway" v="stream" />
	</node>
	<node id="-607185" lat="60.0101555574" lon="5.63728332804">
		<tag k="name" v="Grovatnet" />
>>>>>>> e1d4bc35ff8a6074a6f2e91616a996b547c36f15
		<tag k="natural" v="water" />
		<tag k="ssr:stedsnr" v="672633" />
	</node>
<<<<<<< HEAD
	<node lat="59.995170973656634" lon="5.622097091507189" id="-32373">
=======
	<node id="-607456" lat="59.9769717278" lon="5.59465294301">
		<tag k="alt_name" v="Skardtveitvatnet" />
		<tag k="name" v="Skartveitvatnet" />
		<tag k="natural" v="water" />
		<tag k="ssr:stedsnr" v="914693" />
	</node>
	<node id="-607454" lat="59.9951709737" lon="5.62209709151">
>>>>>>> e1d4bc35ff8a6074a6f2e91616a996b547c36f15
		<tag k="alt_name" v="Lomtjørna" />
		<tag k="name" v="Lambstjørna" />
		<tag k="natural" v="water" />
		<tag k="ssr:stedsnr" v="914679" />
	</node>
<<<<<<< HEAD
	<node lat="59.976971727771286" lon="5.594652943009876" id="-32375">
		<tag k="alt_name" v="Skardtveitvatnet" />
		<tag k="name" v="Skartveitvatnet" />
		<tag k="natural" v="water" />
		<tag k="ssr:stedsnr" v="914693" />
	</node>
	<node lat="59.926274995910894" lon="5.557391666781419" id="-32380">
		<tag k="name" v="Rongedalselva" />
		<tag k="ssr:stedsnr" v="914745" />
		<tag k="waterway" v="stream" />
	</node>
	<node lat="60.02633021130837" lon="5.531193920495353" id="-32396">
		<tag k="name" v="Anderslandstjørna" />
=======
	<node id="-607964" lat="60.0000000962" lon="5.62213803604">
		<tag k="alt_name" v="Dalssætervatnet" />
		<tag k="name" v="Dalsætervatnet" />
		<tag k="natural" v="water" />
		<tag k="ssr:stedsnr" v="186634" />
	</node>
	<node id="-608524" lat="59.9744722242" lon="5.53388610817">
		<tag k="name" v="Løkene" />
		<tag k="ssr:stedsnr" v="644652" />
		<tag k="waterway" v="stream" />
	</node>
	<node id="-607961" lat="59.997826221" lon="5.55523990096">
		<tag k="name" v="Nyavatnet" />
		<tag k="natural" v="water" />
		<tag k="ssr:stedsnr" v="186629" />
	</node>
	<node id="-606936" lat="60.0639968697" lon="5.37362096845">
		<tag k="name" v="Fiskatjørna" />
>>>>>>> e1d4bc35ff8a6074a6f2e91616a996b547c36f15
		<tag k="natural" v="water" />
		<tag k="ssr:stedsnr" v="915630" />
	</node>
<<<<<<< HEAD
	<node lat="60.0144305514776" lon="5.580208339868423" id="-32398">
		<tag k="alt_name" v="Gjerstadstølsvatnet" />
		<tag k="name" v="Bjørnastølsvatnet" />
=======
	<node id="-607136" lat="59.9951646563" lon="5.65497278575">
		<tag k="name" v="Huldravatnet" />
		<tag k="natural" v="water" />
		<tag k="ssr:stedsnr" v="429637" />
	</node>
	<node id="-607958" lat="60.0356512346" lon="5.56420170697">
		<tag k="alt_name" v="Melkeholtjørna" />
		<tag k="name" v="Mjelkeholstjørna" />
>>>>>>> e1d4bc35ff8a6074a6f2e91616a996b547c36f15
		<tag k="natural" v="water" />
		<tag k="ssr:stedsnr" v="915643" />
	</node>
<<<<<<< HEAD
	<node lat="60.029844827036506" lon="5.43526852339978" id="-32426">
		<tag k="name" v="Gjellandstjørna" />
		<tag k="natural" v="water" />
		<tag k="ssr:stedsnr" v="827615" />
	</node>
	<node lat="59.89700000378892" lon="5.552377769164278" id="-32433">
		<tag k="name" v="Hodnaneselva" />
		<tag k="ssr:stedsnr" v="853703" />
		<tag k="waterway" v="stream" />
	</node>
	<node lat="59.89891944189358" lon="5.61496945043806" id="-32435">
		<tag k="name" v="Aravatnet" />
		<tag k="natural" v="water" />
		<tag k="ssr:stedsnr" v="853701" />
	</node>
	<node lat="59.97437750584622" lon="5.41683542762673" id="-32437">
		<tag k="name" v="Tveitevatnet" />
=======
	<node id="-607954" lat="59.8878583293" lon="5.61641666736">
		<tag k="name" v="Skiftesbekken" />
		<tag k="ssr:stedsnr" v="186270" />
		<tag k="waterway" v="stream" />
	</node>
	<node id="-606926" lat="59.9930388867" lon="5.45439684024">
		<tag k="name" v="Beltestadtjørna" />
		<tag k="natural" v="water" />
		<tag k="ssr:stedsnr" v="186120" />
	</node>
	<node id="-607949" lat="60.036243638" lon="5.37100209885">
		<tag k="alt_name" v="Fuglevatnet" />
		<tag k="name" v="Fuglavatnet" />
		<tag k="natural" v="water" />
		<tag k="ssr:stedsnr" v="186133" />
	</node>
	<node id="-607647" lat="59.9836454076" lon="5.61029481412">
		<tag k="alt_name" v="Gjersvatnet" />
		<tag k="name" v="Gjerdsvatnet" />
		<tag k="natural" v="water" />
		<tag k="ssr:stedsnr" v="3630" />
	</node>
	<node id="-608455" lat="60.0775466198" lon="5.39042400902">
		<tag k="alt_name" v="Nedrevatnet" />
		<tag k="name" v="Nedravatnet" />
>>>>>>> e1d4bc35ff8a6074a6f2e91616a996b547c36f15
		<tag k="natural" v="water" />
		<tag k="ssr:stedsnr" v="854160" />
	</node>
<<<<<<< HEAD
	<node lat="60.03300000080697" lon="5.658775004421288" id="-32438">
		<tag k="name" v="Svartavatnet" />
		<tag k="natural" v="water" />
		<tag k="ssr:stedsnr" v="854307" />
	</node>
	<node lat="59.93576387988686" lon="5.582902932469262" id="-32442">
		<tag k="fixme" v="multiple name tags, choose one and add the other to alt_name" />
		<tag k="name" v="Ramsdalsvatnet;Bleikåsvatnet" />
		<tag k="natural" v="water" />
		<tag k="ssr:stedsnr" v="854710" />
	</node>
	<node lat="60.05841794949431" lon="5.562266597732453" id="-32446">
		<tag k="alt_name" v="Leirvikevatnet" />
		<tag k="name" v="Leirvikvatnet" />
		<tag k="natural" v="water" />
		<tag k="ssr:stedsnr" v="855338" />
	</node>
	<node lat="59.95384765781991" lon="5.551053396354964" id="-32466">
		<tag k="name" v="Kostetjørna" />
=======
	<node id="-608454" lat="60.0021416662" lon="5.59709166014">
		<tag k="name" v="Gjermevatnet" />
		<tag k="natural" v="water" />
		<tag k="ssr:stedsnr" v="611707" />
	</node>
	<node id="-608451" lat="59.9218250013" lon="5.57794166178">
		<tag k="name" v="Svartavatnet" />
		<tag k="natural" v="water" />
		<tag k="ssr:stedsnr" v="611570" />
	</node>
	<node id="-607133" lat="60.0135286083" lon="5.50412175846">
		<tag k="name" v="Reisetjørna" />
		<tag k="natural" v="water" />
		<tag k="ssr:stedsnr" v="429610" />
	</node>
	<node id="-607093" lat="60.021284388" lon="5.60170850392">
		<tag k="alt_name" v="Støvatnet, nordre;Nordre Støvatnet" />
		<tag k="name" v="Nordsta Stødvatnet" />
>>>>>>> e1d4bc35ff8a6074a6f2e91616a996b547c36f15
		<tag k="natural" v="water" />
		<tag k="ssr:stedsnr" v="887546" />
	</node>
<<<<<<< HEAD
	<node lat="59.945674998562104" lon="5.5616638942639955" id="-32470">
		<tag k="name" v="Djupevika" />
		<tag k="natural" v="bay" />
		<tag k="ssr:stedsnr" v="887606" />
	</node>
	<node lat="60.03906389139009" lon="5.3946500085344375" id="-32471">
		<tag k="name" v="Svartehalen" />
		<tag k="ssr:stedsnr" v="887617" />
		<tag k="waterway" v="stream" />
	</node>
	<node lat="59.98562788393001" lon="5.429796284709938" id="-32515">
		<tag k="name" v="Stølstjørna" />
		<tag k="natural" v="water" />
		<tag k="ssr:stedsnr" v="948579" />
	</node>
	<node lat="59.97442786737076" lon="5.618871622898384" id="-32535">
		<tag k="name" v="Lauvåsvatnet" />
=======
	<node id="-607931" lat="59.9821701718" lon="5.60731481392">
		<tag k="name" v="Haugatjørna" />
		<tag k="natural" v="water" />
		<tag k="ssr:stedsnr" v="159682" />
	</node>
	<node id="-607930" lat="60.0337326577" lon="5.35165342019">
		<tag k="name" v="Matdalstjørna" />
		<tag k="natural" v="water" />
		<tag k="ssr:stedsnr" v="159569" />
	</node>
	<node id="-608436" lat="59.9848076767" lon="5.5859600464">
		<tag k="name" v="Singelstadvatnet" />
		<tag k="natural" v="water" />
		<tag k="ssr:stedsnr" v="610681" />
		<tag k="water" v="lake" />
	</node>
	<node id="-607518" lat="59.9989611119" lon="5.67203055501">
		<tag k="name" v="Liaelva" />
		<tag k="ssr:stedsnr" v="854573" />
		<tag k="waterway" v="stream" />
	</node>
	<node id="-608434" lat="59.9531502297" lon="5.53181192806">
		<tag k="name" v="Iglatjørna" />
		<tag k="natural" v="water" />
		<tag k="ssr:stedsnr" v="610669" />
	</node>
	<node id="-608430" lat="59.958736613" lon="5.5446643125">
		<tag k="name" v="Nordbustadvatnet" />
		<tag k="natural" v="water" />
		<tag k="ssr:stedsnr" v="610655" />
		<tag k="water" v="lake" />
	</node>
	<node id="-608428" lat="59.9760876821" lon="5.58837241598">
		<tag k="name" v="Trolltjørna" />
>>>>>>> e1d4bc35ff8a6074a6f2e91616a996b547c36f15
		<tag k="natural" v="water" />
		<tag k="ssr:stedsnr" v="3584" />
	</node>
<<<<<<< HEAD
	<node lat="60.04124758313016" lon="5.63659428204364" id="-32544">
		<tag k="name" v="Sanddalselva" />
		<tag k="ssr:stedsnr" v="4310" />
		<tag k="waterway" v="stream" />
	</node>
	<node lat="59.92559444704499" lon="5.5698722223289145" id="-32554">
		<tag k="name" v="Kuvatnet" />
		<tag k="natural" v="water" />
		<tag k="ssr:stedsnr" v="4756" />
	</node>
	<node lat="60.00635000312204" lon="5.625033330582626" id="-32560">
		<tag k="name" v="Grovasselva" />
		<tag k="ssr:stedsnr" v="5637" />
		<tag k="waterway" v="stream" />
	</node>
	<node lat="59.884770925185684" lon="5.601523833541158" id="-32589">
		<tag k="name" v="Sæterdalsvatnet" />
		<tag k="natural" v="water" />
		<tag k="ssr:stedsnr" v="37595" />
		<tag k="water" v="lake" />
	</node>
	<node lat="60.05338353098959" lon="5.3934891555369475" id="-32596">
		<tag k="name" v="Skardstjørna" />
		<tag k="natural" v="water" />
		<tag k="ssr:stedsnr" v="37536" />
	</node>
	<node lat="59.96012499620258" lon="5.578066661616106" id="-32598">
		<tag k="name" v="Indrelvane" />
		<tag k="ssr:stedsnr" v="37626" />
		<tag k="waterway" v="river" />
	</node>
	<node lat="60.03870833582636" lon="5.369716657667525" id="-32599">
		<tag k="name" v="Fuglavasselva" />
		<tag k="ssr:stedsnr" v="37628" />
		<tag k="waterway" v="river" />
	</node>
	<node lat="59.98500277377078" lon="5.657022231032115" id="-32628">
		<tag k="name" v="Sørelva" />
		<tag k="ssr:stedsnr" v="64671" />
		<tag k="waterway" v="stream" />
	</node>
	<node lat="59.97680479785792" lon="5.55846146436778" id="-32629">
		<tag k="name" v="Vermedalsvatnet" />
		<tag k="natural" v="water" />
		<tag k="ssr:stedsnr" v="64679" />
		<tag k="water" v="lake" />
	</node>
	<node lat="59.95548004923899" lon="5.583790717450863" id="-32631">
		<tag k="name" v="Djupedalsvatnet" />
		<tag k="natural" v="water" />
		<tag k="ssr:stedsnr" v="64636" />
	</node>
	<node lat="60.05408566830362" lon="5.564758728250455" id="-32649">
		<tag k="alt_name" v="Rustadtjørna" />
		<tag k="name" v="Rustavatnet" />
		<tag k="natural" v="water" />
		<tag k="ssr:stedsnr" v="66341" />
	</node>
	<node lat="60.00412592623253" lon="5.48267186746979" id="-32675">
		<tag k="name" v="Ullstjørna" />
=======
	<node id="-606891" lat="60.0531416645" lon="5.6503916618">
		<tag k="name" v="Sandvik" />
		<tag k="natural" v="bay" />
		<tag k="ssr:stedsnr" v="280622" />
	</node>
	<node id="-606890" lat="60.0530888849" lon="5.65563612044">
		<tag k="name" v="Tovik" />
		<tag k="natural" v="bay" />
		<tag k="ssr:stedsnr" v="280621" />
	</node>
	<node id="-606889" lat="59.9964388845" lon="5.49339999382">
		<tag k="name" v="Eidaelv" />
		<tag k="ssr:stedsnr" v="280609" />
		<tag k="waterway" v="river" />
	</node>
	<node id="-606888" lat="59.9825805568" lon="5.58219444581">
		<tag k="name" v="Bruravika" />
		<tag k="natural" v="bay" />
		<tag k="ssr:stedsnr" v="280594" />
	</node>
	<node id="-607857" lat="59.9276495771" lon="5.53839459539">
		<tag k="name" v="Paddetjørna" />
		<tag k="natural" v="water" />
		<tag k="ssr:stedsnr" v="125750" />
	</node>
	<node id="-607816" lat="60.0219625362" lon="5.41732209198">
		<tag k="name" v="Brottetveittjørna" />
		<tag k="natural" v="water" />
		<tag k="ssr:stedsnr" v="98546" />
	</node>
	<node id="-607134" lat="60.0291111067" lon="5.62504444167">
		<tag k="name" v="Steinelva" />
		<tag k="ssr:stedsnr" v="429626" />
		<tag k="waterway" v="stream" />
	</node>
	<node id="-607939" lat="60.0519655843" lon="5.56840410832">
		<tag k="name" v="Vassneset" />
		<tag k="natural" v="cape" />
		<tag k="ssr:stedsnr" v="159637" />
	</node>
	<node id="-607376" lat="59.9538476578" lon="5.55105339635">
		<tag k="name" v="Kostetjørna" />
		<tag k="natural" v="water" />
		<tag k="ssr:stedsnr" v="887546" />
	</node>
	<node id="-607256" lat="59.9730444427" lon="5.52338611674">
		<tag k="name" v="Kleivadalsbekken" />
		<tag k="ssr:stedsnr" v="705676" />
		<tag k="waterway" v="stream" />
	</node>
	<node id="-606858" lat="59.9495638922" lon="5.55018610229">
		<tag k="name" v="Iselva" />
		<tag k="ssr:stedsnr" v="159669" />
		<tag k="waterway" v="river" />
	</node>
	<node id="-607511" lat="60.0330000008" lon="5.65877500442">
		<tag k="name" v="Svartavatnet" />
		<tag k="natural" v="water" />
		<tag k="ssr:stedsnr" v="854307" />
	</node>
	<node id="-606856" lat="60.0141166653" lon="5.4932861073">
		<tag k="name" v="Refsneset" />
		<tag k="natural" v="cape" />
		<tag k="ssr:stedsnr" v="159655" />
	</node>
	<node id="-608391" lat="60.020635069" lon="5.65145327448">
		<tag k="name" v="Heiavatnet" />
		<tag k="natural" v="water" />
		<tag k="ssr:stedsnr" v="583610" />
		<tag k="water" v="lake" />
	</node>
	<node id="-608390" lat="60.0015201034" lon="5.64677467813">
		<tag k="name" v="Store Kortensvatnet" />
		<tag k="natural" v="water" />
		<tag k="ssr:stedsnr" v="583608" />
		<tag k="water" v="lake" />
	</node>
	<node id="-608389" lat="60.0247510372" lon="5.47650598561">
		<tag k="name" v="Øklandstjørna" />
		<tag k="natural" v="water" />
		<tag k="ssr:stedsnr" v="583568" />
	</node>
	<node id="-608388" lat="59.9040143398" lon="5.55023997862">
		<tag k="name" v="Geitatjørna" />
		<tag k="natural" v="water" />
		<tag k="ssr:stedsnr" v="583565" />
	</node>
	<node id="-607874" lat="60.0145444463" lon="5.52258888065">
		<tag k="alt_name" v="Reiselva" />
		<tag k="name" v="Reiseelva" />
		<tag k="ssr:stedsnr" v="126612" />
		<tag k="waterway" v="stream" />
	</node>
	<node id="-607873" lat="60.0135924935" lon="5.48954516872">
		<tag k="name" v="Kinna" />
		<tag k="natural" v="water" />
		<tag k="ssr:stedsnr" v="126611" />
	</node>
	<node id="-607869" lat="60.0366250007" lon="5.57796667248">
		<tag k="name" v="Gjuaelva" />
		<tag k="ssr:stedsnr" v="126333" />
		<tag k="waterway" v="stream" />
	</node>
	<node id="-608380" lat="60.0498472181" lon="5.41358334232">
		<tag k="name" v="Vassneset" />
		<tag k="natural" v="cape" />
		<tag k="ssr:stedsnr" v="583522" />
	</node>
	<node id="-607353" lat="59.9788028218" lon="5.40342070616">
		<tag k="name" v="Sanddalstjørna" />
>>>>>>> e1d4bc35ff8a6074a6f2e91616a996b547c36f15
		<tag k="natural" v="water" />
		<tag k="ssr:stedsnr" v="98598" />
	</node>
<<<<<<< HEAD
	<node lat="59.95802446172762" lon="5.477130259922" id="-32688">
		<tag k="name" v="Kongsviktjørna" />
		<tag k="natural" v="water" />
		<tag k="ssr:stedsnr" v="98544" />
	</node>
	<node lat="60.0219625362132" lon="5.4173220919786695" id="-32689">
		<tag k="name" v="Brottetveittjørna" />
=======
	<node id="-607968" lat="59.9448535724" lon="5.60880573826">
		<tag k="alt_name" v="Elsåkervatnet" />
		<tag k="name" v="Elsåkertjørna" />
		<tag k="natural" v="water" />
		<tag k="ssr:stedsnr" v="186747" />
	</node>
	<node id="-607856" lat="59.9392520954" lon="5.55952808001">
		<tag k="name" v="Gåsavatnet" />
>>>>>>> e1d4bc35ff8a6074a6f2e91616a996b547c36f15
		<tag k="natural" v="water" />
		<tag k="ssr:stedsnr" v="98546" />
	</node>
<<<<<<< HEAD
	<node lat="60.03213888452629" lon="5.392713891405185" id="-32690">
		<tag k="name" v="Tverrbekken" />
		<tag k="ssr:stedsnr" v="98619" />
		<tag k="waterway" v="stream" />
	</node>
=======
	<node id="-607343" lat="60.0067555559" lon="5.68446944535">
		<tag k="name" v="Tveitelva" />
		<tag k="ssr:stedsnr" v="733628" />
		<tag k="waterway" v="stream" />
	</node>
	<node id="-607853" lat="59.9620397902" lon="5.52096131326">
		<tag k="name" v="Stemmetjørna" />
		<tag k="natural" v="water" />
		<tag k="ssr:stedsnr" v="125648" />
	</node>
	<node id="-607339" lat="60.0276384817" lon="5.58404001237">
		<tag k="name" v="Svartavatnet" />
		<tag k="natural" v="water" />
		<tag k="ssr:stedsnr" v="733610" />
	</node>
	<node id="-607336" lat="60.0571111291" lon="5.6388316716">
		<tag k="name" v="Fiskevatnet" />
		<tag k="natural" v="water" />
		<tag k="ssr:stedsnr" v="733326" />
	</node>
	<node id="-607335" lat="60.0318999967" lon="5.60058611022">
		<tag k="name" v="Grindelva" />
		<tag k="ssr:stedsnr" v="733310" />
		<tag k="waterway" v="stream" />
	</node>
	<node id="-606822" lat="59.9128899741" lon="5.5418131678">
		<tag k="name" v="Korsviketjørna" />
		<tag k="natural" v="water" />
		<tag k="ssr:stedsnr" v="98570" />
	</node>
	<node id="-606821" lat="59.9628052856" lon="5.5694162797">
		<tag k="alt_name" v="Stølsætervatnet" />
		<tag k="name" v="Skyldsetevatnet" />
		<tag k="natural" v="water" />
		<tag k="ssr:stedsnr" v="98568" />
		<tag k="water" v="lake" />
	</node>
	<node id="-606820" lat="59.9466509564" lon="5.55216293876">
		<tag k="name" v="Iselveholmen" />
		<tag k="place" v="islet" />
		<tag k="ssr:stedsnr" v="98561" />
	</node>
	<node id="-606819" lat="59.9882972236" lon="5.56686389105">
		<tag k="name" v="Verma" />
		<tag k="ssr:stedsnr" v="98609" />
		<tag k="waterway" v="stream" />
	</node>
	<node id="-606818" lat="60.022475004" lon="5.69732777381">
		<tag k="name" v="Hovlandselva" />
		<tag k="ssr:stedsnr" v="98607" />
		<tag k="waterway" v="river" />
	</node>
	<node id="-608353" lat="60.0482833296" lon="5.56774722156">
		<tag k="name" v="Gjersvikeidet" />
		<tag k="natural" v="strait" />
		<tag k="ssr:stedsnr" v="583132" />
	</node>
	<node id="-608352" lat="59.9673916677" lon="5.52897500747">
		<tag k="name" v="Botnavika" />
		<tag k="natural" v="bay" />
		<tag k="ssr:stedsnr" v="583126" />
	</node>
	<node id="-608351" lat="60.0421298319" lon="5.43242543723">
		<tag k="name" v="Smogatjørna" />
		<tag k="natural" v="water" />
		<tag k="ssr:stedsnr" v="583125" />
	</node>
	<node id="-607325" lat="59.9344037118" lon="5.54100361063">
		<tag k="name" v="Svartavatnet" />
		<tag k="natural" v="water" />
		<tag k="ssr:stedsnr" v="732735" />
	</node>
	<node id="-607826" lat="60.0601472238" lon="5.63621387977">
		<tag k="name" v="Lundeelva" />
		<tag k="ssr:stedsnr" v="98884" />
		<tag k="waterway" v="river" />
	</node>
	<node id="-607825" lat="59.9895583363" lon="5.59419444819">
		<tag k="name" v="Singelstadelva" />
		<tag k="ssr:stedsnr" v="98879" />
		<tag k="waterway" v="river" />
	</node>
	<node id="-607311" lat="60.0460926004" lon="5.66413345507">
		<tag k="alt_name" v="Vevatnevatnet" />
		<tag k="name" v="Vevatnet" />
		<tag k="natural" v="water" />
		<tag k="ssr:stedsnr" v="732323" />
		<tag k="water" v="lake" />
	</node>
	<node id="-607821" lat="60.0041259262" lon="5.48267186747">
		<tag k="name" v="Ullstjørna" />
		<tag k="natural" v="water" />
		<tag k="ssr:stedsnr" v="98598" />
	</node>
	<node id="-608354" lat="59.9871854726" lon="5.65622296503">
		<tag k="name" v="Skoravatnet" />
		<tag k="natural" v="water" />
		<tag k="ssr:stedsnr" v="583133" />
		<tag k="water" v="lake" />
	</node>
	<node id="-607817" lat="60.0321388845" lon="5.39271389141">
		<tag k="name" v="Tverrbekken" />
		<tag k="ssr:stedsnr" v="98619" />
		<tag k="waterway" v="stream" />
	</node>
	<node id="-607304" lat="60.0579805538" lon="5.37243888715">
		<tag k="name" v="Daleelva" />
		<tag k="ssr:stedsnr" v="611153" />
		<tag k="waterway" v="stream" />
	</node>
	<node id="-606791" lat="59.932372542" lon="5.61662986012">
		<tag k="alt_name" v="Langedalstjørna" />
		<tag k="name" v="Langelandstjørna" />
		<tag k="natural" v="water" />
		<tag k="ssr:stedsnr" v="247717" />
	</node>
	<node id="-607814" lat="60.0345971042" lon="5.36388213181">
		<tag k="name" v="Svartavatnet" />
		<tag k="natural" v="water" />
		<tag k="ssr:stedsnr" v="98573" />
		<tag k="water" v="lake" />
	</node>
	<node id="-607301" lat="59.9931656383" lon="5.51061685136">
		<tag k="alt_name" v="Stora Lauga" />
		<tag k="name" v="Laugo" />
		<tag k="natural" v="water" />
		<tag k="ssr:stedsnr" v="610613" />
	</node>
	<node id="-607364" lat="59.9885246743" lon="5.54606874919">
		<tag k="name" v="Sekkvatnet" />
		<tag k="natural" v="water" />
		<tag k="ssr:stedsnr" v="887590" />
		<tag k="water" v="lake" />
	</node>
	<node id="-607158" lat="59.9928249991" lon="5.64982777341">
		<tag k="alt_name" v="Krokilsvatnet" />
		<tag k="name" v="Krokelsvatnet" />
		<tag k="natural" v="water" />
		<tag k="ssr:stedsnr" v="671668" />
	</node>
	<node id="-608322" lat="60.0253648865" lon="5.59203858085">
		<tag k="name" v="Fiskevatnet" />
		<tag k="natural" v="water" />
		<tag k="ssr:stedsnr" v="550624" />
	</node>
	<node id="-608320" lat="60.0334611113" lon="5.54923056339">
		<tag k="name" v="Skardstjørna" />
		<tag k="natural" v="water" />
		<tag k="ssr:stedsnr" v="550320" />
	</node>
	<node id="-607669" lat="59.925594447" lon="5.56987222233">
		<tag k="name" v="Kuvatnet" />
		<tag k="natural" v="water" />
		<tag k="ssr:stedsnr" v="4756" />
	</node>
	<node id="-607514" lat="59.945608958" lon="5.5515957117">
		<tag k="name" v="Midtvatnet" />
		<tag k="natural" v="water" />
		<tag k="ssr:stedsnr" v="854618" />
		<tag k="water" v="lake" />
	</node>
	<node id="-607754" lat="59.9554800492" lon="5.58379071745">
		<tag k="name" v="Djupedalsvatnet" />
		<tag k="natural" v="water" />
		<tag k="ssr:stedsnr" v="64636" />
	</node>
	<node id="-608312" lat="59.9855118713" lon="5.39203225825">
		<tag k="alt_name" v="Budviktjørna" />
		<tag k="name" v="Buavågtjørna" />
		<tag k="natural" v="water" />
		<tag k="ssr:stedsnr" v="550160" />
	</node>
	<node id="-607412" lat="60.0233475476" lon="5.40672634589">
		<tag k="alt_name" v="Åsavatnet;Dalsvatnet" />
		<tag k="name" v="Åsevatnet" />
		<tag k="natural" v="water" />
		<tag k="ssr:stedsnr" v="733219" />
		<tag k="water" v="lake" />
	</node>
	<node id="-606774" lat="59.9794417464" lon="5.43157162952">
		<tag k="name" v="Liatjørna" />
		<tag k="natural" v="water" />
		<tag k="ssr:stedsnr" v="247165" />
	</node>
	<node id="-607582" lat="60.0390638914" lon="5.39465000853">
		<tag k="name" v="Svartehalen" />
		<tag k="ssr:stedsnr" v="887617" />
		<tag k="waterway" v="stream" />
	</node>
	<node id="-606769" lat="60.0406611112" lon="5.36046944224">
		<tag k="name" v="Skotelva" />
		<tag k="ssr:stedsnr" v="247127" />
		<tag k="waterway" v="stream" />
	</node>
	<node id="-607581" lat="59.9456749986" lon="5.56166389426">
		<tag k="name" v="Djupevika" />
		<tag k="natural" v="bay" />
		<tag k="ssr:stedsnr" v="887606" />
	</node>
	<node id="-607787" lat="60.0663750035" lon="5.65197221556">
		<tag k="name" v="Leirebekken" />
		<tag k="ssr:stedsnr" v="98131" />
		<tag k="waterway" v="stream" />
	</node>
	<node id="-608307" lat="59.892327782" lon="5.59671665804">
		<tag k="name" v="Svartavatnet" />
		<tag k="natural" v="water" />
		<tag k="ssr:stedsnr" v="549269" />
	</node>
	<node id="-606756" lat="59.9883970064" lon="5.63630899417">
		<tag k="alt_name" v="Langedalsvatnet" />
		<tag k="name" v="Jøtulsvatnet" />
		<tag k="natural" v="water" />
		<tag k="ssr:stedsnr" v="65637" />
	</node>
	<node id="-606752" lat="60.0288611106" lon="5.66860556189">
		<tag k="name" v="Tverrelva" />
		<tag k="ssr:stedsnr" v="65620" />
		<tag k="waterway" v="stream" />
	</node>
	<node id="-607880" lat="60.0011340696" lon="5.50076265722">
		<tag k="name" v="Totjørna" />
		<tag k="natural" v="water" />
		<tag k="ssr:stedsnr" v="126681" />
	</node>
	<node id="-607774" lat="60.0540856683" lon="5.56475872825">
		<tag k="alt_name" v="Rustadtjørna" />
		<tag k="name" v="Rustavatnet" />
		<tag k="natural" v="water" />
		<tag k="ssr:stedsnr" v="66341" />
	</node>
	<node id="-607768" lat="60.0020026472" lon="5.49396033789">
		<tag k="name" v="Kyrkjevatnet" />
		<tag k="natural" v="water" />
		<tag k="ssr:stedsnr" v="65649" />
		<tag k="water" v="lake" />
	</node>
	<node id="-607255" lat="60.0218388929" lon="5.56876111372">
		<tag k="name" v="Tverrelva" />
		<tag k="ssr:stedsnr" v="705673" />
		<tag k="waterway" v="river" />
	</node>
	<node id="-607254" lat="60.0490416644" lon="5.58206388485">
		<tag k="name" v="Vassneset" />
		<tag k="natural" v="cape" />
		<tag k="ssr:stedsnr" v="705653" />
	</node>
	<node id="-607253" lat="59.9642361111" lon="5.53071667055">
		<tag k="name" v="Mjølkevika" />
		<tag k="natural" v="bay" />
		<tag k="ssr:stedsnr" v="705624" />
	</node>
	<node id="-607250" lat="60.0579777608" lon="5.38603061003">
		<tag k="name" v="Gjøvågstjørna" />
		<tag k="natural" v="water" />
		<tag k="ssr:stedsnr" v="705580" />
	</node>
	<node id="-608273" lat="59.9581361126" lon="5.55004444954">
		<tag k="name" v="Kolleberget" />
		<tag k="natural" v="cape" />
		<tag k="ssr:stedsnr" v="523135" />
	</node>
	<node id="-607758" lat="59.9768047979" lon="5.55846146437">
		<tag k="name" v="Vermedalsvatnet" />
		<tag k="natural" v="water" />
		<tag k="ssr:stedsnr" v="64679" />
		<tag k="water" v="lake" />
	</node>
	<node id="-607757" lat="59.9850027738" lon="5.65702223103">
		<tag k="name" v="Sørelva" />
		<tag k="ssr:stedsnr" v="64671" />
		<tag k="waterway" v="stream" />
	</node>
	<node id="-608778" lat="59.9962630167" lon="5.65763111576">
		<tag k="name" v="Huldrastølsvatnet" />
		<tag k="natural" v="water" />
		<tag k="ssr:stedsnr" v="991032" />
	</node>
	<node id="-608199" lat="60.0519416663" lon="5.62391944493">
		<tag k="name" v="Humlevikelva" />
		<tag k="ssr:stedsnr" v="401855" />
		<tag k="waterway" v="river" />
	</node>
	<node id="-607238" lat="59.9763527821" lon="5.61520000211">
		<tag k="name" v="Øvste Vassenden" />
		<tag k="natural" v="bay" />
		<tag k="ssr:stedsnr" v="705274" />
	</node>
>>>>>>> e1d4bc35ff8a6074a6f2e91616a996b547c36f15
</osm>
