<?xml version="1.0" encoding="UTF-8"?>
<osm version="0.6" generator="osmapis">
	<node lat="60.01555768461893" lon="5.5851942909763315" id="-34778">
		<tag k="historic" v="shieling" />
		<tag k="name" v="Gjerstadstølen" />
		<tag k="place" v="locality" />
		<tag k="ssr:stedsnr" v="5666" />
	</node>
	<node lat="60.032288886152486" lon="5.514955553489327" id="-34821">
		<tag k="name" v="Dallandsmyra" />
		<tag k="natural" v="wetland" />
		<tag k="ssr:stedsnr" v="65312" />
	</node>
	<node lat="60.0803888892452" lon="5.36699444772696" id="-34889">
		<tag k="name" v="Vestre Klovsteinen" />
		<tag k="natural" v="stone" />
		<tag k="ssr:stedsnr" v="98804" />
	</node>
	<node lat="60.07981389311295" lon="5.3691222171020145" id="-35086">
		<tag k="name" v="Austre Klovsteinen" />
		<tag k="natural" v="stone" />
		<tag k="ssr:stedsnr" v="462141" />
	</node>
	<node lat="59.94617778199374" lon="5.564008324611961" id="-35114">
		<tag k="historic" v="shieling" />
		<tag k="name" v="Borkasætret" />
		<tag k="place" v="locality" />
		<tag k="ssr:stedsnr" v="462754" />
	</node>
	<node lat="59.97145555607067" lon="5.481261111326645" id="-35156">
		<tag k="historic" v="shieling" />
		<tag k="name" v="Stølane" />
		<tag k="place" v="locality" />
		<tag k="ssr:stedsnr" v="340758" />
	</node>
	<node lat="59.98147777408084" lon="5.534458335268727" id="-35241">
		<tag k="name" v="Forhovdamyra" />
		<tag k="natural" v="wetland" />
		<tag k="ssr:stedsnr" v="489711" />
	</node>
	<node lat="59.97981388610001" lon="5.443572229694671" id="-35361">
		<tag k="historic" v="shieling" />
		<tag k="name" v="Trædet" />
		<tag k="place" v="locality" />
		<tag k="ssr:stedsnr" v="522747" />
	</node>
	<node lat="59.90711111176823" lon="5.591411109270895" id="-35411">
		<tag k="name" v="Vollen" />
		<tag k="place" v="locality" />
		<tag k="ssr:stedsnr" v="571758" />
	</node>
	<node lat="60.039100002425656" lon="5.3966111195159545" id="-35546">
		<tag k="name" v="Bruntveitmyra" />
		<tag k="natural" v="wetland" />
		<tag k="ssr:stedsnr" v="672127" />
	</node>
	<node lat="60.04456110932059" lon="5.3562305583197" id="-35614">
		<tag k="name" v="Tosteinen" />
		<tag k="natural" v="stone" />
		<tag k="ssr:stedsnr" v="765804" />
	</node>
	<node lat="60.02746388582267" lon="5.489136107830135" id="-35844">
		<tag k="name" v="Breidmyra" />
		<tag k="natural" v="wetland" />
		<tag k="ssr:stedsnr" v="4654" />
	</node>
	<node lat="60.02648333068487" lon="5.421947217892135" id="-36326">
		<tag k="historic" v="shieling" />
		<tag k="name" v="Djupedalsstølen" />
		<tag k="place" v="locality" />
		<tag k="ssr:stedsnr" v="401739" />
	</node>
	<node lat="60.06807222529015" lon="5.665458337415511" id="-36391">
		<tag k="name" v="Lyrasteinen" />
		<tag k="natural" v="stone" />
		<tag k="ssr:stedsnr" v="522798" />
	</node>
	<node lat="59.98256388941656" lon="5.517033338026631" id="-36409">
		<tag k="name" v="Skutestein" />
		<tag k="natural" v="stone" />
		<tag k="ssr:stedsnr" v="523352" />
	</node>
	<node lat="60.01165833127" lon="5.645458329367082" id="-36441">
		<tag k="historic" v="shieling" />
		<tag k="name" v="Grostølen" />
		<tag k="place" v="locality" />
		<tag k="ssr:stedsnr" v="550634" />
	</node>
	<node lat="59.94902500049577" lon="5.5280944507650975" id="-36549">
		<tag k="historic" v="shieling" />
		<tag k="name" v="Karistølen" />
		<tag k="place" v="locality" />
		<tag k="ssr:stedsnr" v="643766" />
	</node>
	<node lat="60.07946111382578" lon="5.398099994166512" id="-36674">
		<tag k="name" v="Blåsteinen" />
		<tag k="natural" v="stone" />
		<tag k="ssr:stedsnr" v="766156" />
	</node>
	<node lat="59.9799527781934" lon="5.411852786426772" id="-36742">
		<tag k="historic" v="shieling" />
		<tag k="name" v="Stølane" />
		<tag k="place" v="locality" />
		<tag k="ssr:stedsnr" v="826765" />
	</node>
	<node lat="59.95386944362334" lon="5.625602786087625" id="-36744">
		<tag k="historic" v="shieling" />
		<tag k="name" v="Nakkastølen" />
		<tag k="place" v="locality" />
		<tag k="ssr:stedsnr" v="826767" />
	</node>
	<node lat="60.02662222279319" lon="5.390686114979672" id="-36820">
		<tag k="historic" v="shieling" />
		<tag k="name" v="Sætret" />
		<tag k="place" v="locality" />
		<tag k="ssr:stedsnr" v="887758" />
	</node>
	<node lat="59.92999444367663" lon="5.548102772570669" id="-36846">
		<tag k="historic" v="shieling" />
		<tag k="name" v="Dyrstølen" />
		<tag k="place" v="locality" />
		<tag k="ssr:stedsnr" v="947745" />
	</node>
	<node lat="60.04138333104992" lon="5.563780563907807" id="-36847">
		<tag k="historic" v="shieling" />
		<tag k="name" v="Øykjastølen" />
		<tag k="place" v="locality" />
		<tag k="ssr:stedsnr" v="947754" />
	</node>
	<node lat="59.94428611486118" lon="5.584069442138608" id="-36848">
		<tag k="historic" v="shieling" />
		<tag k="name" v="Hellandssætret" />
		<tag k="place" v="locality" />
		<tag k="ssr:stedsnr" v="947756" />
	</node>
</osm>
