<?xml version="1.0" encoding="UTF-8"?>
<osm generator="osmapis" version="0.6">
	<node id="-607744" lat="59.949286113" lon="5.55101666425">
		<tag k="bridge" v="yes" />
		<tag k="layer" v="1" />
		<tag k="name" v="Iselv" />
		<tag k="ssr:stedsnr" v="46831" />
	</node>
	<node id="-608755" lat="59.9561861088" lon="5.61809722047">
		<tag k="bridge" v="yes" />
		<tag k="layer" v="1" />
		<tag k="name" v="Onarheimsvatn" />
		<tag k="ssr:stedsnr" v="956827" />
	</node>
	<node id="-606704" lat="60.0065277762" lon="5.49981944055">
		<tag k="bridge" v="yes" />
		<tag k="layer" v="1" />
		<tag k="name" v="Tho" />
		<tag k="ssr:stedsnr" v="228849" />
	</node>
	<node id="-608107" lat="59.979886111" lon="5.49738333557">
		<tag k="bridge" v="yes" />
		<tag k="layer" v="1" />
		<tag k="name" v="Søreide" />
		<tag k="ssr:stedsnr" v="349852" />
	</node>
	<node id="-607209" lat="60.0466444465" lon="5.52411388266">
		<tag k="amenity" v="ferry_terminal" />
		<tag k="name" v="Våge ferjekai" />
		<tag k="ssr:stedsnr" v="532827" />
	</node>
	<node id="-607047" lat="60.0594611069" lon="5.63737776997">
		<tag k="bridge" v="yes" />
		<tag k="layer" v="1" />
		<tag k="name" v="Bakke" />
		<tag k="ssr:stedsnr" v="470814" />
	</node>
	<node id="-608228" lat="59.9697591734" lon="5.4195557811">
		<tag k="man_made" v="quay" />
		<tag k="name" v="Amlandstøa" />
		<tag k="place" v="locality" />
		<tag k="ssr:stedsnr" v="428158" />
	</node>
	<node id="-607587" lat="60.0143749957" lon="5.69506110781">
		<tag k="bridge" v="yes" />
		<tag k="layer" v="1" />
		<tag k="name" v="Hovland" />
		<tag k="ssr:stedsnr" v="896855" />
	</node>
	<node id="-608606" lat="60.0060166647" lon="5.5240722183">
		<tag k="bridge" v="yes" />
		<tag k="layer" v="1" />
		<tag k="name" v="Utlevoll" />
		<tag k="ssr:stedsnr" v="774839" />
	</node>
	<node id="-607837" lat="59.9924527793" lon="5.68181666558">
		<tag k="bridge" v="yes" />
		<tag k="layer" v="1" />
		<tag k="name" v="Li" />
		<tag k="ssr:stedsnr" v="107833" />
	</node>
	<node id="-607836" lat="59.9955000025" lon="5.49337222726">
		<tag k="layer" v="-1" />
		<tag k="name" v="Uggdalseidet II" />
		<tag k="ssr:stedsnr" v="105679" />
		<tag k="tunnel" v="yes" />
	</node>
	<node id="-608720" lat="60.0331083339" lon="5.67592499391">
		<tag k="bridge" v="yes" />
		<tag k="layer" v="1" />
		<tag k="name" v="Tverrelv" />
		<tag k="ssr:stedsnr" v="835832" />
	</node>
	<node id="-608719" lat="59.9938666701" lon="5.49218332584">
		<tag k="layer" v="-1" />
		<tag k="name" v="Uggdalseidet I" />
		<tag k="ssr:stedsnr" v="833689" />
		<tag k="tunnel" v="yes" />
	</node>
	<node id="-608460" lat="59.935961113" lon="5.52228888071">
		<tag k="landuse" v="harbour" />
		<tag k="name" v="Øklandshamn" />
		<tag k="seamark:type" v="harbour" />
		<tag k="ssr:stedsnr" v="631802" />
	</node>
	<node id="-608546" lat="59.9462027802" lon="5.62663610304">
		<tag k="bridge" v="yes" />
		<tag k="layer" v="1" />
		<tag k="name" v="Onarheim" />
		<tag k="ssr:stedsnr" v="652800" />
	</node>
	<node id="-607944" lat="60.0563166685" lon="5.65082499869">
		<tag k="bridge" v="yes" />
		<tag k="layer" v="1" />
		<tag k="name" v="Lunde" />
		<tag k="ssr:stedsnr" v="167833" />
	</node>
	<node id="-607943" lat="59.96189167" lon="5.51145556142">
		<tag k="bridge" v="yes" />
		<tag k="layer" v="1" />
		<tag k="name" v="Epland" />
		<tag k="ssr:stedsnr" v="167830" />
	</node>
	<node id="-607297" lat="59.9659027736" lon="5.64219166935">
		<tag k="bridge" v="yes" />
		<tag k="layer" v="1" />
		<tag k="name" v="Vattedal" />
		<tag k="ssr:stedsnr" v="713835" />
	</node>
	<node id="-607296" lat="59.9705194445" lon="5.52781388346">
		<tag k="bridge" v="yes" />
		<tag k="layer" v="1" />
		<tag k="name" v="Botnen" />
		<tag k="ssr:stedsnr" v="713829" />
	</node>
	<node id="-606651" lat="60.025199999" lon="5.55452499444">
		<tag k="ford" v="yes" />
		<tag k="name" v="Halvgjenget" />
		<tag k="place" v="locality" />
		<tag k="ssr:stedsnr" v="219776" />
	</node>
	<node id="-607407" lat="59.9880861118" lon="5.46528611157">
		<tag k="bridge" v="yes" />
		<tag k="layer" v="1" />
		<tag k="name" v="Beltestad" />
		<tag k="ssr:stedsnr" v="896851" />
	</node>
	<node id="-607531" lat="59.9674222235" lon="5.43475278448">
		<tag k="ford" v="yes" />
		<tag k="name" v="Geilane" />
		<tag k="place" v="locality" />
		<tag k="ssr:stedsnr" v="947737" />
	</node>
	<node id="-608681" lat="59.9814481277" lon="5.67034154123">
		<tag k="man_made" v="quay" />
		<tag k="name" v="Fantaskjersbryggja" />
		<tag k="place" v="locality" />
		<tag k="ssr:stedsnr" v="826766" />
	</node>
	<node id="-607528" lat="59.8896316045" lon="5.55804107027">
		<tag k="alt_name" v="Hodnanes Fk" />
		<tag k="amenity" v="ferry_terminal" />
		<tag k="name" v="Hodnanes ferjekai" />
		<tag k="ssr:stedsnr" v="947783" />
	</node>
	<node id="-608419" lat="59.9528472236" lon="5.55951111675">
		<tag k="bridge" v="yes" />
		<tag k="layer" v="1" />
		<tag k="name" v="Kåstad" />
		<tag k="ssr:stedsnr" v="592873" />
	</node>
	<node id="-608418" lat="60.0585305531" lon="5.35978611726">
		<tag k="bridge" v="yes" />
		<tag k="layer" v="1" />
		<tag k="name" v="Gjøvåg" />
		<tag k="ssr:stedsnr" v="592872" />
	</node>
	<node id="-608545" lat="60.04960833" lon="5.70179722312">
		<tag k="bridge" v="yes" />
		<tag k="layer" v="1" />
		<tag k="name" v="Lukksund" />
		<tag k="ssr:stedsnr" v="652798" />
	</node>
</osm>
