<?xml version="1.0" encoding="UTF-8"?>
<osm generator="osmapis" version="0.6">
	<node id="-24159" lat="59.9116896876" lon="10.7581882267">
		<tag k="name" v="Viken fylke" />
		<tag k="ssr:date" v="2020-01-13" />
		<tag k="ssr:gruppe" v="administrativeIndelinger" />
		<tag k="ssr:hovedgruppe" v="offentligAdministrasjon" />
		<tag k="ssr:stedsnr" v="1074403" />
		<tag k="ssr:type" v="fylke" />
	</node>
	<node id="-24158" lat="59.2504242722" lon="11.7038734646">
		<tag k="name" v="Rishaugen" />
		<tag k="ssr:date" v="2019-12-27" />
		<tag k="ssr:gruppe" v="veg" />
		<tag k="ssr:hovedgruppe" v="infrastruktur" />
		<tag k="ssr:stedsnr" v="1061797" />
		<tag k="ssr:type" v="adressenavn" />
	</node>
	<node id="-24049" lat="59.221977777" lon="11.6958138875">
		<tag k="alt_name" v="Aremark" />
		<tag k="name" v="Aremark kommune" />
		<tag k="ssr:date" v="2019-12-27" />
		<tag k="ssr:gruppe" v="administrativeIndelinger" />
		<tag k="ssr:hovedgruppe" v="offentligAdministrasjon" />
		<tag k="ssr:stedsnr" v="813206" />
		<tag k="ssr:type" v="kommune" />
	</node>
	<node id="-24169" lat="59.2461299709" lon="11.6624716374">
		<tag k="name" v="Bjørnmyra" />
		<tag k="ssr:date" v="2020-06-02" />
		<tag k="ssr:gruppe" v="veg" />
		<tag k="ssr:hovedgruppe" v="infrastruktur" />
		<tag k="ssr:stedsnr" v="1077110" />
		<tag k="ssr:type" v="adressenavn" />
	</node>
	<node id="-24162" lat="59.2447983587" lon="11.6616837225">
		<tag k="name" v="Nordre Tangenåsen" />
		<tag k="ssr:date" v="2020-05-12" />
		<tag k="ssr:gruppe" v="veg" />
		<tag k="ssr:hovedgruppe" v="infrastruktur" />
		<tag k="ssr:stedsnr" v="1076883" />
		<tag k="ssr:type" v="adressenavn" />
	</node>
	<node id="-24161" lat="59.243536022" lon="11.6619009781">
		<tag k="name" v="Søndre Tangenåsen" />
		<tag k="ssr:date" v="2020-04-30" />
		<tag k="ssr:gruppe" v="veg" />
		<tag k="ssr:hovedgruppe" v="infrastruktur" />
		<tag k="ssr:stedsnr" v="1076715" />
		<tag k="ssr:type" v="adressenavn" />
	</node>
</osm>
