<?xml version="1.0" encoding="UTF-8"?>
<<<<<<< HEAD
<osm version="0.6" generator="osmapis">
	<node lat="58.467730551669966" lon="5.942438888094487" id="-216">
		<tag k="name" v="Håhellerholmen lanterne" />
		<tag k="ssr:date" v="2016-05-10" />
=======
<osm generator="osmapis" version="0.6">
	<node id="-5248" lat="58.3743972241" lon="6.04268054933">
		<tag k="name" v="Svåholman lanterne" />
		<tag k="ssr:date" v="2016-05-10" />
		<tag k="ssr:gruppe" v="navigasjon" />
		<tag k="ssr:hovedgruppe" v="infrastruktur" />
		<tag k="ssr:stedsnr" v="100200" />
		<tag k="ssr:type" v="lanterne" />
	</node>
	<node id="-4343" lat="58.4613388915" lon="5.89902221977">
		<tag k="alt_name" v="Grunnsundholmen" />
		<tag k="name" v="Grunnsundholmen lykt" />
		<tag k="ssr:date" v="2016-05-10" />
		<tag k="ssr:gruppe" v="navigasjon" />
		<tag k="ssr:hovedgruppe" v="infrastruktur" />
		<tag k="ssr:stedsnr" v="465860" />
		<tag k="ssr:type" v="fyrlykt" />
	</node>
	<node id="-4157" lat="58.4194944467" lon="5.98990833905">
		<tag k="alt_name" v="Vibberodden" />
		<tag k="name" v="Vibberodden fyr" />
		<tag k="ssr:date" v="2016-05-10" />
		<tag k="ssr:gruppe" v="navigasjon" />
		<tag k="ssr:hovedgruppe" v="infrastruktur" />
		<tag k="ssr:stedsnr" v="485747" />
		<tag k="ssr:type" v="fyrlykt" />
	</node>
	<node id="-4967" lat="58.4523472203" lon="6.00316666774">
		<tag k="alt_name" v="Eigersund" />
		<tag k="name" v="Eigersund kommune" />
		<tag k="ssr:date" v="2017-04-03" />
		<tag k="ssr:gruppe" v="administrativeIndelinger" />
		<tag k="ssr:hovedgruppe" v="offentligAdministrasjon" />
		<tag k="ssr:stedsnr" v="873527" />
		<tag k="ssr:type" v="kommune" />
	</node>
	<node id="-5607" lat="58.4618111082" lon="5.96866110749">
		<tag k="name" v="Terrakottaveien" />
		<tag k="ssr:date" v="2019-05-30" />
		<tag k="ssr:gruppe" v="veg" />
		<tag k="ssr:hovedgruppe" v="infrastruktur" />
		<tag k="ssr:stedsnr" v="360074" />
		<tag k="ssr:type" v="adressenavn" />
	</node>
	<node id="-3940" lat="58.4669555563" lon="5.96584999758">
		<tag k="name" v="Egerøy nø pynt" />
		<tag k="ssr:date" v="2016-05-10" />
		<tag k="ssr:gruppe" v="navigasjon" />
		<tag k="ssr:hovedgruppe" v="infrastruktur" />
		<tag k="ssr:stedsnr" v="284874" />
		<tag k="ssr:type" v="lanterne" />
	</node>
	<node id="-3939" lat="58.4694833303" lon="5.95719166669">
		<tag k="name" v="Napperen" />
		<tag k="ssr:date" v="2016-05-10" />
		<tag k="ssr:gruppe" v="navigasjon" />
		<tag k="ssr:hovedgruppe" v="infrastruktur" />
		<tag k="ssr:stedsnr" v="284873" />
		<tag k="ssr:type" v="lanterne" />
	</node>
	<node id="-5856" lat="58.4545944435" lon="5.88999444662">
		<tag k="name" v="Ruskodden" />
		<tag k="ssr:date" v="2016-05-10" />
		<tag k="ssr:gruppe" v="navigasjon" />
		<tag k="ssr:hovedgruppe" v="infrastruktur" />
		<tag k="ssr:stedsnr" v="546856" />
		<tag k="ssr:type" v="fyrlykt" />
	</node>
	<node id="-4573" lat="58.4686055554" lon="5.94757778082">
		<tag k="name" v="Skogabergholmen lanterne" />
		<tag k="ssr:date" v="2016-05-11" />
>>>>>>> e1d4bc35ff8a6074a6f2e91616a996b547c36f15
		<tag k="ssr:gruppe" v="navigasjon" />
		<tag k="ssr:hovedgruppe" v="infrastruktur" />
		<tag k="ssr:stedsnr" v="162862" />
		<tag k="ssr:type" v="lanterne" />
	</node>
<<<<<<< HEAD
	<node lat="58.360836109899026" lon="6.104333334921391" id="-387">
		<tag k="name" v="Stolen" />
		<tag k="ssr:date" v="2016-05-10" />
		<tag k="ssr:gruppe" v="detaljISjø" />
		<tag k="ssr:hovedgruppe" v="sjø" />
		<tag k="ssr:stedsnr" v="283180" />
		<tag k="ssr:type" v="sjødetalj" />
	</node>
	<node lat="58.419676542846965" lon="5.990244095187937" id="-528">
		<tag k="alt_name" v="Vibberodden" />
		<tag k="name" v="Vibberodden fyr" />
		<tag k="ssr:date" v="2020-09-03" />
		<tag k="ssr:gruppe" v="navigasjon" />
=======
	<node id="-6479" lat="69.6388889725" lon="30.5666644427">
		<tag k="fixme" v="multiple name tags, choose one and add the other to alt_name" />
		<tag k="loc_name:se" v="Norgga gonagasriika" />
		<tag k="loc_name:sma" v="Nöörjen gånkarïjhke" />
		<tag k="loc_name:smj" v="Vuona gånågisrijkka" />
		<tag k="name" v="Noreg;Norge" />
		<tag k="name:en" v="Norway" />
		<tag k="name:no" v="Noreg;Norge" />
		<tag k="ssr:date" v="2020-06-04" />
		<tag k="ssr:gruppe" v="administrativeIndelinger" />
		<tag k="ssr:hovedgruppe" v="offentligAdministrasjon" />
		<tag k="ssr:stedsnr" v="26330" />
		<tag k="ssr:type" v="nasjon" />
	</node>
	<node id="-5026" lat="58.4608921974" lon="5.97669795499">
		<tag k="name" v="Eigerøy bru" />
		<tag k="ssr:date" v="2017-11-10" />
		<tag k="ssr:gruppe" v="navigasjon" />
		<tag k="ssr:hovedgruppe" v="infrastruktur" />
		<tag k="ssr:stedsnr" v="980100" />
		<tag k="ssr:type" v="fyrlykt" />
	</node>
	<node id="-6345" lat="58.4231750029" lon="6.00191110975">
		<tag k="name" v="Mikkelsknutveien" />
		<tag k="ssr:date" v="2019-05-30" />
		<tag k="ssr:gruppe" v="veg" />
		<tag k="ssr:hovedgruppe" v="infrastruktur" />
		<tag k="ssr:stedsnr" v="849126" />
		<tag k="ssr:type" v="adressenavn" />
	</node>
	<node id="-6471" lat="58.4578293248" lon="6.01568593957">
		<tag k="name" v="Kalhammerveien" />
		<tag k="ssr:date" v="2019-05-30" />
		<tag k="ssr:gruppe" v="veg" />
		<tag k="ssr:hovedgruppe" v="infrastruktur" />
		<tag k="ssr:stedsnr" v="1025580" />
		<tag k="ssr:type" v="adressenavn" />
	</node>
	<node id="-6470" lat="58.4354312486" lon="5.89536030542">
		<tag k="name" v="Strusvågen" />
		<tag k="ssr:date" v="2019-05-30" />
		<tag k="ssr:gruppe" v="veg" />
		<tag k="ssr:hovedgruppe" v="infrastruktur" />
		<tag k="ssr:stedsnr" v="1025319" />
		<tag k="ssr:type" v="adressenavn" />
	</node>
	<node id="-6469" lat="58.4685128985" lon="5.89215702101">
		<tag k="name" v="Æsan" />
		<tag k="ssr:date" v="2019-05-30" />
		<tag k="ssr:gruppe" v="veg" />
		<tag k="ssr:hovedgruppe" v="infrastruktur" />
		<tag k="ssr:stedsnr" v="1025316" />
		<tag k="ssr:type" v="adressenavn" />
	</node>
	<node id="-6468" lat="58.4667858697" lon="5.99108445429">
		<tag k="name" v="Kjeøy" />
		<tag k="ssr:date" v="2019-05-30" />
		<tag k="ssr:gruppe" v="veg" />
		<tag k="ssr:hovedgruppe" v="infrastruktur" />
		<tag k="ssr:stedsnr" v="1025312" />
		<tag k="ssr:type" v="adressenavn" />
	</node>
	<node id="-6467" lat="58.4479761844" lon="6.00271702706">
		<tag k="name" v="Anna Bugges vei" />
		<tag k="ssr:date" v="2019-05-30" />
		<tag k="ssr:gruppe" v="veg" />
		<tag k="ssr:hovedgruppe" v="infrastruktur" />
		<tag k="ssr:stedsnr" v="1025268" />
		<tag k="ssr:type" v="adressenavn" />
	</node>
	<node id="-6466" lat="58.4634095093" lon="5.97590894368">
		<tag k="name" v="Asperøy" />
		<tag k="ssr:date" v="2019-05-30" />
		<tag k="ssr:gruppe" v="veg" />
		<tag k="ssr:hovedgruppe" v="infrastruktur" />
		<tag k="ssr:stedsnr" v="1025055" />
		<tag k="ssr:type" v="adressenavn" />
	</node>
	<node id="-6465" lat="58.4609685958" lon="5.90037162441">
		<tag k="name" v="Grunnesundsholmen" />
		<tag k="ssr:date" v="2019-05-30" />
		<tag k="ssr:gruppe" v="veg" />
		<tag k="ssr:hovedgruppe" v="infrastruktur" />
		<tag k="ssr:stedsnr" v="1025047" />
		<tag k="ssr:type" v="adressenavn" />
	</node>
	<node id="-6464" lat="58.4680634478" lon="5.94266802994">
		<tag k="name" v="Torsøy" />
		<tag k="ssr:date" v="2019-05-30" />
		<tag k="ssr:gruppe" v="veg" />
>>>>>>> e1d4bc35ff8a6074a6f2e91616a996b547c36f15
		<tag k="ssr:hovedgruppe" v="infrastruktur" />
		<tag k="ssr:stedsnr" v="485747" />
		<tag k="ssr:type" v="fyrlykt" />
	</node>
<<<<<<< HEAD
	<node lat="58.458355552955005" lon="5.980699999035997" id="-535">
		<tag k="alt_name" v="Langholmen" />
		<tag k="name" v="Langholmen lykt" />
		<tag k="ssr:date" v="2016-05-10" />
		<tag k="ssr:gruppe" v="navigasjon" />
=======
	<node id="-6463" lat="58.4652380025" lon="5.93412519358">
		<tag k="name" v="Myklebuststronde" />
		<tag k="ssr:date" v="2019-05-30" />
		<tag k="ssr:gruppe" v="veg" />
>>>>>>> e1d4bc35ff8a6074a6f2e91616a996b547c36f15
		<tag k="ssr:hovedgruppe" v="infrastruktur" />
		<tag k="ssr:stedsnr" v="485846" />
		<tag k="ssr:type" v="fyrlykt" />
	</node>
<<<<<<< HEAD
	<node lat="58.423516670010635" lon="6.004605558429504" id="-581">
		<tag k="name" v="Persknutveien" />
=======
	<node id="-6462" lat="58.4766519964" lon="5.95599392604">
		<tag k="name" v="Fossholmen" />
>>>>>>> e1d4bc35ff8a6074a6f2e91616a996b547c36f15
		<tag k="ssr:date" v="2019-05-30" />
		<tag k="ssr:gruppe" v="veg" />
		<tag k="ssr:hovedgruppe" v="infrastruktur" />
		<tag k="ssr:stedsnr" v="424108" />
		<tag k="ssr:type" v="adressenavn" />
	</node>
<<<<<<< HEAD
	<node lat="58.4613388915271" lon="5.899022219769121" id="-637">
		<tag k="alt_name" v="Grunnsundholmen" />
		<tag k="name" v="Grunnsundholmen lykt" />
		<tag k="ssr:date" v="2016-05-10" />
		<tag k="ssr:gruppe" v="navigasjon" />
=======
	<node id="-6461" lat="58.4208481188" lon="6.01385612587">
		<tag k="name" v="Hestnesholman" />
		<tag k="ssr:date" v="2019-05-30" />
		<tag k="ssr:gruppe" v="veg" />
>>>>>>> e1d4bc35ff8a6074a6f2e91616a996b547c36f15
		<tag k="ssr:hovedgruppe" v="infrastruktur" />
		<tag k="ssr:stedsnr" v="465860" />
		<tag k="ssr:type" v="fyrlykt" />
	</node>
<<<<<<< HEAD
	<node lat="58.9647333357896" lon="5.731188892301877" id="-694">
		<tag k="alt_name" v="Rogaland" />
		<tag k="name" v="Rogaland fylke" />
		<tag k="ssr:date" v="2021-02-03" />
		<tag k="ssr:gruppe" v="administrativeIndelinger" />
		<tag k="ssr:hovedgruppe" v="offentligAdministrasjon" />
		<tag k="ssr:stedsnr" v="511115" />
		<tag k="ssr:type" v="fylke" />
	</node>
	<node lat="58.46585206751379" lon="5.927512307666318" id="-738">
=======
	<node id="-6460" lat="58.4510079364" lon="6.00384540997">
		<tag k="name" v="Børildsbakken" />
		<tag k="ssr:date" v="2019-05-30" />
		<tag k="ssr:gruppe" v="veg" />
		<tag k="ssr:hovedgruppe" v="infrastruktur" />
		<tag k="ssr:stedsnr" v="1024123" />
		<tag k="ssr:type" v="adressenavn" />
	</node>
	<node id="-5819" lat="58.4662166696" lon="5.92738889582">
>>>>>>> e1d4bc35ff8a6074a6f2e91616a996b547c36f15
		<tag k="name" v="Krågeskjer lanterne" />
		<tag k="ssr:date" v="2021-06-18" />
		<tag k="ssr:gruppe" v="navigasjon" />
		<tag k="ssr:hovedgruppe" v="infrastruktur" />
		<tag k="ssr:stedsnr" v="546602" />
		<tag k="ssr:type" v="lanterne" />
	</node>
<<<<<<< HEAD
	<node lat="58.40662784270379" lon="5.9858222503669065" id="-860">
		<tag k="name" v="Skarvøya lykt" />
		<tag k="ssr:date" v="2021-06-08" />
		<tag k="ssr:gruppe" v="navigasjon" />
=======
	<node id="-4280" lat="58.42351667" lon="6.00460555843">
		<tag k="name" v="Persknutveien" />
		<tag k="ssr:date" v="2019-05-30" />
		<tag k="ssr:gruppe" v="veg" />
>>>>>>> e1d4bc35ff8a6074a6f2e91616a996b547c36f15
		<tag k="ssr:hovedgruppe" v="infrastruktur" />
		<tag k="ssr:stedsnr" v="606757" />
		<tag k="ssr:type" v="fyrlykt" />
	</node>
<<<<<<< HEAD
	<node lat="58.46860555541431" lon="5.947577780815285" id="-936">
		<tag k="name" v="Skogabergholmen lanterne" />
		<tag k="ssr:date" v="2016-05-11" />
=======
	<node id="-5296" lat="58.4605971494" lon="5.97785852898">
		<tag k="alt_name" v="Nysundets ø side" />
		<tag k="name" v="Øystra Nysundet lanterne" />
		<tag k="ssr:date" v="2016-11-29" />
>>>>>>> e1d4bc35ff8a6074a6f2e91616a996b547c36f15
		<tag k="ssr:gruppe" v="navigasjon" />
		<tag k="ssr:hovedgruppe" v="infrastruktur" />
		<tag k="ssr:stedsnr" v="708837" />
		<tag k="ssr:type" v="lanterne" />
	</node>
<<<<<<< HEAD
	<node lat="58.43080456887748" lon="5.867692203000107" id="-1040">
		<tag k="alt_name" v="Eigerøy" />
		<tag k="name" v="Eigerøy fyr" />
		<tag k="old_name" v="Egerøy" />
		<tag k="ssr:date" v="2020-09-01" />
		<tag k="ssr:gruppe" v="navigasjon" />
		<tag k="ssr:hovedgruppe" v="infrastruktur" />
		<tag k="ssr:stedsnr" v="728809" />
		<tag k="ssr:type" v="fyrstasjon" />
	</node>
	<node lat="58.42317500288531" lon="6.001911109751012" id="-1217">
		<tag k="name" v="Mikkelsknutveien" />
=======
	<node id="-6445" lat="58.4658395288" lon="5.95932588659">
		<tag k="name" v="Napparveien" />
>>>>>>> e1d4bc35ff8a6074a6f2e91616a996b547c36f15
		<tag k="ssr:date" v="2019-05-30" />
		<tag k="ssr:gruppe" v="veg" />
		<tag k="ssr:hovedgruppe" v="infrastruktur" />
		<tag k="ssr:stedsnr" v="849126" />
		<tag k="ssr:type" v="adressenavn" />
	</node>
<<<<<<< HEAD
	<node lat="58.432491746904915" lon="5.990558836334937" id="-1347">
=======
	<node id="-6444" lat="58.4324917469" lon="5.99055883633">
>>>>>>> e1d4bc35ff8a6074a6f2e91616a996b547c36f15
		<tag k="name" v="Sprengsodden lanterne" />
		<tag k="ssr:date" v="2016-12-29" />
		<tag k="ssr:gruppe" v="navigasjon" />
		<tag k="ssr:hovedgruppe" v="infrastruktur" />
		<tag k="ssr:stedsnr" v="973629" />
		<tag k="ssr:type" v="lanterne" />
	</node>
<<<<<<< HEAD
	<node lat="58.46100457639086" lon="5.977063155169017" id="-1353">
		<tag k="name" v="Eigerøy bru" />
		<tag k="ssr:date" v="2017-11-10" />
=======
	<node id="-4807" lat="58.4306472262" lon="5.86729721728">
		<tag k="alt_name" v="Eigerøy" />
		<tag k="name" v="Eigerøy fyr" />
		<tag k="old_name" v="Egerøy" />
		<tag k="ssr:date" v="2016-05-11" />
		<tag k="ssr:gruppe" v="navigasjon" />
		<tag k="ssr:hovedgruppe" v="infrastruktur" />
		<tag k="ssr:stedsnr" v="728809" />
		<tag k="ssr:type" v="fyrstasjon" />
	</node>
	<node id="-6178" lat="58.4602004764" lon="5.97766712915">
		<tag k="alt_name" v="Nysundets v side" />
		<tag k="name" v="Vestra Nysundet lanterne" />
		<tag k="ssr:date" v="2016-11-29" />
>>>>>>> e1d4bc35ff8a6074a6f2e91616a996b547c36f15
		<tag k="ssr:gruppe" v="navigasjon" />
		<tag k="ssr:hovedgruppe" v="infrastruktur" />
		<tag k="ssr:stedsnr" v="980096" />
		<tag k="ssr:type" v="fyrlykt" />
	</node>
<<<<<<< HEAD
	<node lat="58.46098588156046" lon="5.976935059404309" id="-1354">
		<tag k="name" v="Eigerøy bru" />
		<tag k="ssr:date" v="2017-11-10" />
		<tag k="ssr:gruppe" v="navigasjon" />
		<tag k="ssr:hovedgruppe" v="infrastruktur" />
		<tag k="ssr:stedsnr" v="980097" />
		<tag k="ssr:type" v="fyrlykt" />
	</node>
	<node lat="58.46092524090181" lon="5.976859030976184" id="-1355">
=======
	<node id="-5025" lat="58.4609252409" lon="5.97685903098">
>>>>>>> e1d4bc35ff8a6074a6f2e91616a996b547c36f15
		<tag k="name" v="Eigerøy bru" />
		<tag k="ssr:date" v="2017-11-10" />
		<tag k="ssr:gruppe" v="navigasjon" />
		<tag k="ssr:hovedgruppe" v="infrastruktur" />
		<tag k="ssr:stedsnr" v="980099" />
		<tag k="ssr:type" v="fyrlykt" />
	</node>
<<<<<<< HEAD
	<node lat="58.4608921974112" lon="5.97669795499428" id="-1356">
=======
	<node id="-5024" lat="58.4609858816" lon="5.9769350594">
>>>>>>> e1d4bc35ff8a6074a6f2e91616a996b547c36f15
		<tag k="name" v="Eigerøy bru" />
		<tag k="ssr:date" v="2017-11-10" />
		<tag k="ssr:gruppe" v="navigasjon" />
		<tag k="ssr:hovedgruppe" v="infrastruktur" />
		<tag k="ssr:stedsnr" v="980100" />
		<tag k="ssr:type" v="fyrlykt" />
	</node>
<<<<<<< HEAD
	<node lat="58.37439722413051" lon="6.04268054932701" id="-1527">
		<tag k="name" v="Svåholman lanterne" />
		<tag k="ssr:date" v="2021-06-08" />
=======
	<node id="-5023" lat="58.4610045764" lon="5.97706315517">
		<tag k="name" v="Eigerøy bru" />
		<tag k="ssr:date" v="2017-11-10" />
>>>>>>> e1d4bc35ff8a6074a6f2e91616a996b547c36f15
		<tag k="ssr:gruppe" v="navigasjon" />
		<tag k="ssr:hovedgruppe" v="infrastruktur" />
		<tag k="ssr:stedsnr" v="100200" />
		<tag k="ssr:type" v="lanterne" />
	</node>
<<<<<<< HEAD
	<node lat="58.460597149367715" lon="5.977858528980463" id="-1559">
		<tag k="alt_name" v="Nysundets ø side" />
		<tag k="name" v="Øystra Nysundet lanterne" />
		<tag k="ssr:date" v="2016-11-29" />
		<tag k="ssr:gruppe" v="navigasjon" />
		<tag k="ssr:hovedgruppe" v="infrastruktur" />
		<tag k="ssr:stedsnr" v="118889" />
		<tag k="ssr:type" v="lanterne" />
	</node>
	<node lat="58.469483330346954" lon="5.957191666686395" id="-1781">
		<tag k="name" v="Napperen" />
=======
	<node id="-5401" lat="58.4677305517" lon="5.94243888809">
		<tag k="name" v="Håhellerholmen lanterne" />
>>>>>>> e1d4bc35ff8a6074a6f2e91616a996b547c36f15
		<tag k="ssr:date" v="2016-05-10" />
		<tag k="ssr:gruppe" v="navigasjon" />
		<tag k="ssr:hovedgruppe" v="infrastruktur" />
		<tag k="ssr:stedsnr" v="284873" />
		<tag k="ssr:type" v="lanterne" />
	</node>
<<<<<<< HEAD
	<node lat="58.4669555562576" lon="5.965849997583192" id="-1782">
		<tag k="name" v="Egerøy nø pynt" />
		<tag k="ssr:date" v="2016-05-10" />
		<tag k="ssr:gruppe" v="navigasjon" />
		<tag k="ssr:hovedgruppe" v="infrastruktur" />
		<tag k="ssr:stedsnr" v="284874" />
		<tag k="ssr:type" v="lanterne" />
	</node>
	<node lat="58.43513233816537" lon="5.988139336505843" id="-1797">
=======
	<node id="-4164" lat="58.458355553" lon="5.98069999904">
		<tag k="alt_name" v="Langholmen" />
		<tag k="name" v="Langholmen lykt" />
		<tag k="ssr:date" v="2016-05-10" />
		<tag k="ssr:gruppe" v="navigasjon" />
		<tag k="ssr:hovedgruppe" v="infrastruktur" />
		<tag k="ssr:stedsnr" v="485846" />
		<tag k="ssr:type" v="fyrlykt" />
	</node>
	<node id="-4117" lat="58.4351323382" lon="5.98813933651">
>>>>>>> e1d4bc35ff8a6074a6f2e91616a996b547c36f15
		<tag k="loc_name" v="Fuglodden" />
		<tag k="name" v="Fuglodden lykt" />
		<tag k="ssr:date" v="2021-06-08" />
		<tag k="ssr:gruppe" v="navigasjon" />
		<tag k="ssr:hovedgruppe" v="infrastruktur" />
		<tag k="ssr:stedsnr" v="304836" />
		<tag k="ssr:type" v="fyrlykt" />
	</node>
<<<<<<< HEAD
	<node lat="58.46181110819793" lon="5.968661107487632" id="-1889">
		<tag k="name" v="Terrakottaveien" />
		<tag k="ssr:date" v="2019-05-30" />
		<tag k="ssr:gruppe" v="veg" />
		<tag k="ssr:hovedgruppe" v="infrastruktur" />
		<tag k="ssr:stedsnr" v="360074" />
		<tag k="ssr:type" v="adressenavn" />
	</node>
	<node lat="58.45459322551401" lon="5.88999647468127" id="-2163">
		<tag k="name" v="Ruskodden" />
		<tag k="ssr:date" v="2021-06-08" />
		<tag k="ssr:gruppe" v="navigasjon" />
		<tag k="ssr:hovedgruppe" v="infrastruktur" />
		<tag k="ssr:stedsnr" v="546856" />
		<tag k="ssr:type" v="fyrlykt" />
	</node>
	<node lat="58.46020047635495" lon="5.9776671291526995" id="-2512">
		<tag k="alt_name" v="Nysundets v side" />
		<tag k="name" v="Vestra Nysundet lanterne" />
		<tag k="ssr:date" v="2016-11-29" />
		<tag k="ssr:gruppe" v="navigasjon" />
		<tag k="ssr:hovedgruppe" v="infrastruktur" />
		<tag k="ssr:stedsnr" v="785897" />
		<tag k="ssr:type" v="lanterne" />
	</node>
	<node lat="58.45234722030816" lon="6.00316666774003" id="-2691">
		<tag k="alt_name" v="Eigersund" />
		<tag k="name" v="Eigersund kommune" />
		<tag k="ssr:date" v="2017-04-03" />
		<tag k="ssr:gruppe" v="administrativeIndelinger" />
		<tag k="ssr:hovedgruppe" v="offentligAdministrasjon" />
		<tag k="ssr:stedsnr" v="873527" />
		<tag k="ssr:type" v="kommune" />
	</node>
	<node lat="58.46583952877793" lon="5.959325886594139" id="-2769">
		<tag k="name" v="Napparveien" />
		<tag k="ssr:date" v="2019-05-30" />
		<tag k="ssr:gruppe" v="veg" />
=======
	<node id="-4617" lat="58.4066278427" lon="5.98582225037">
		<tag k="name" v="Skarvøya lykt" />
		<tag k="ssr:date" v="2017-08-10" />
		<tag k="ssr:gruppe" v="navigasjon" />
>>>>>>> e1d4bc35ff8a6074a6f2e91616a996b547c36f15
		<tag k="ssr:hovedgruppe" v="infrastruktur" />
		<tag k="ssr:stedsnr" v="974475" />
		<tag k="ssr:type" v="adressenavn" />
	</node>
<<<<<<< HEAD
	<node lat="58.45100793636853" lon="6.003845409971903" id="-2780">
		<tag k="name" v="Børildsbakken" />
		<tag k="ssr:date" v="2019-05-30" />
		<tag k="ssr:gruppe" v="veg" />
		<tag k="ssr:hovedgruppe" v="infrastruktur" />
		<tag k="ssr:stedsnr" v="1024123" />
		<tag k="ssr:type" v="adressenavn" />
	</node>
	<node lat="58.42084811875401" lon="6.013856125874835" id="-2781">
		<tag k="name" v="Hestnesholman" />
		<tag k="ssr:date" v="2019-05-30" />
		<tag k="ssr:gruppe" v="veg" />
		<tag k="ssr:hovedgruppe" v="infrastruktur" />
		<tag k="ssr:stedsnr" v="1025022" />
		<tag k="ssr:type" v="adressenavn" />
	</node>
	<node lat="58.476651996433944" lon="5.9559939260430435" id="-2782">
		<tag k="name" v="Fossholmen" />
		<tag k="ssr:date" v="2019-05-30" />
		<tag k="ssr:gruppe" v="veg" />
		<tag k="ssr:hovedgruppe" v="infrastruktur" />
		<tag k="ssr:stedsnr" v="1025026" />
		<tag k="ssr:type" v="adressenavn" />
	</node>
	<node lat="58.46523800247027" lon="5.934125193584353" id="-2783">
		<tag k="name" v="Myklebuststronde" />
		<tag k="ssr:date" v="2019-05-30" />
		<tag k="ssr:gruppe" v="veg" />
		<tag k="ssr:hovedgruppe" v="infrastruktur" />
		<tag k="ssr:stedsnr" v="1025040" />
		<tag k="ssr:type" v="adressenavn" />
	</node>
	<node lat="58.46806344776156" lon="5.942668029943954" id="-2784">
		<tag k="name" v="Torsøy" />
		<tag k="ssr:date" v="2019-05-30" />
		<tag k="ssr:gruppe" v="veg" />
		<tag k="ssr:hovedgruppe" v="infrastruktur" />
		<tag k="ssr:stedsnr" v="1025045" />
		<tag k="ssr:type" v="adressenavn" />
	</node>
	<node lat="58.4609685958461" lon="5.900371624411789" id="-2785">
		<tag k="name" v="Grunnesundsholmen" />
		<tag k="ssr:date" v="2019-05-30" />
		<tag k="ssr:gruppe" v="veg" />
		<tag k="ssr:hovedgruppe" v="infrastruktur" />
		<tag k="ssr:stedsnr" v="1025047" />
		<tag k="ssr:type" v="adressenavn" />
	</node>
	<node lat="58.46340950930428" lon="5.975908943681223" id="-2786">
		<tag k="name" v="Asperøy" />
		<tag k="ssr:date" v="2019-05-30" />
		<tag k="ssr:gruppe" v="veg" />
		<tag k="ssr:hovedgruppe" v="infrastruktur" />
		<tag k="ssr:stedsnr" v="1025055" />
		<tag k="ssr:type" v="adressenavn" />
	</node>
	<node lat="58.447976184434935" lon="6.002717027058764" id="-2787">
		<tag k="name" v="Anna Bugges vei" />
		<tag k="ssr:date" v="2019-05-30" />
		<tag k="ssr:gruppe" v="veg" />
		<tag k="ssr:hovedgruppe" v="infrastruktur" />
		<tag k="ssr:stedsnr" v="1025268" />
		<tag k="ssr:type" v="adressenavn" />
	</node>
	<node lat="58.46678586965774" lon="5.991084454289326" id="-2788">
		<tag k="name" v="Kjeøy" />
		<tag k="ssr:date" v="2019-05-30" />
		<tag k="ssr:gruppe" v="veg" />
		<tag k="ssr:hovedgruppe" v="infrastruktur" />
		<tag k="ssr:stedsnr" v="1025312" />
		<tag k="ssr:type" v="adressenavn" />
	</node>
	<node lat="58.46851289848555" lon="5.892157021012749" id="-2789">
		<tag k="name" v="Æsan" />
		<tag k="ssr:date" v="2019-05-30" />
		<tag k="ssr:gruppe" v="veg" />
		<tag k="ssr:hovedgruppe" v="infrastruktur" />
		<tag k="ssr:stedsnr" v="1025316" />
		<tag k="ssr:type" v="adressenavn" />
	</node>
	<node lat="58.43543124863905" lon="5.895360305418897" id="-2790">
		<tag k="name" v="Strusvågen" />
		<tag k="ssr:date" v="2019-05-30" />
		<tag k="ssr:gruppe" v="veg" />
		<tag k="ssr:hovedgruppe" v="infrastruktur" />
		<tag k="ssr:stedsnr" v="1025319" />
		<tag k="ssr:type" v="adressenavn" />
	</node>
	<node lat="58.45782932483751" lon="6.015685939568212" id="-2791">
		<tag k="name" v="Kalhammerveien" />
		<tag k="ssr:date" v="2019-05-30" />
		<tag k="ssr:gruppe" v="veg" />
		<tag k="ssr:hovedgruppe" v="infrastruktur" />
		<tag k="ssr:stedsnr" v="1025580" />
		<tag k="ssr:type" v="adressenavn" />
	</node>
	<node lat="58.43136221348838" lon="6.001917661470686" id="-2800">
		<tag k="name" v="Øvre Myllarsmarka" />
		<tag k="ssr:date" v="2020-12-21" />
		<tag k="ssr:gruppe" v="veg" />
		<tag k="ssr:hovedgruppe" v="infrastruktur" />
		<tag k="ssr:stedsnr" v="1079438" />
		<tag k="ssr:type" v="adressenavn" />
	</node>
	<node lat="58.42084364436344" lon="6.020939917154795" id="-2801">
		<tag k="name" v="Støen" />
		<tag k="ssr:date" v="2021-09-30" />
		<tag k="ssr:gruppe" v="veg" />
		<tag k="ssr:hovedgruppe" v="infrastruktur" />
		<tag k="ssr:stedsnr" v="1082481" />
		<tag k="ssr:type" v="adressenavn" />
	</node>
=======
>>>>>>> e1d4bc35ff8a6074a6f2e91616a996b547c36f15
</osm>
