<?xml version="1.0" encoding="UTF-8"?>
<osm version="0.6" generator="osmapis">
	<node lat="69.00117034484109" lon="23.059286090786934" id="-108089">
		<tag k="name" v="Riebanluodda" />
		<tag k="name:se" v="Riebanluodda" />
		<tag k="ssr:date" v="2019-12-27" />
		<tag k="ssr:gruppe" v="veg" />
		<tag k="ssr:hovedgruppe" v="infrastruktur" />
		<tag k="ssr:stedsnr" v="1054987" />
		<tag k="ssr:type" v="adressenavn" />
	</node>
	<node lat="69.00095505007799" lon="23.060854183462737" id="-108090">
		<tag k="name" v="Gartnetmaras" />
		<tag k="name:se" v="Gartnetmaras" />
		<tag k="ssr:date" v="2019-12-27" />
		<tag k="ssr:gruppe" v="veg" />
		<tag k="ssr:hovedgruppe" v="infrastruktur" />
		<tag k="ssr:stedsnr" v="1054988" />
		<tag k="ssr:type" v="adressenavn" />
	</node>
	<node lat="68.99974492805472" lon="23.062995011488113" id="-108091">
		<tag k="name" v="Gartnetnjunni" />
		<tag k="name:se" v="Gartnetnjunni" />
		<tag k="ssr:date" v="2019-12-27" />
		<tag k="ssr:gruppe" v="veg" />
		<tag k="ssr:hovedgruppe" v="infrastruktur" />
		<tag k="ssr:stedsnr" v="1054989" />
		<tag k="ssr:type" v="adressenavn" />
	</node>
	<node lat="69.00577581294138" lon="23.042247029913494" id="-108116">
		<tag k="name" v="Nilutluodda" />
		<tag k="name:se" v="Nilutluodda" />
		<tag k="ssr:date" v="2019-12-27" />
		<tag k="ssr:gruppe" v="veg" />
		<tag k="ssr:hovedgruppe" v="infrastruktur" />
		<tag k="ssr:stedsnr" v="1055043" />
		<tag k="ssr:type" v="adressenavn" />
	</node>
	<node lat="68.99679097453081" lon="23.035439012056433" id="-108117">
		<tag k="name" v="Suomaluodda" />
		<tag k="name:se" v="Suomaluodda" />
		<tag k="ssr:date" v="2019-12-27" />
		<tag k="ssr:gruppe" v="veg" />
		<tag k="ssr:hovedgruppe" v="infrastruktur" />
		<tag k="ssr:stedsnr" v="1055044" />
		<tag k="ssr:type" v="adressenavn" />
	</node>
	<node lat="69.02078642125632" lon="23.046735862900565" id="-108122">
		<tag k="name" v="Fievroluodda" />
		<tag k="name:se" v="Fievroluodda" />
		<tag k="ssr:date" v="2019-12-27" />
		<tag k="ssr:gruppe" v="veg" />
		<tag k="ssr:hovedgruppe" v="infrastruktur" />
		<tag k="ssr:stedsnr" v="1055017" />
		<tag k="ssr:type" v="adressenavn" />
	</node>
	<node lat="69.02824926514593" lon="23.059483798052028" id="-108128">
		<tag k="name" v="Beazejeaggi" />
		<tag k="name:se" v="Beazejeaggi" />
		<tag k="ssr:date" v="2019-12-27" />
		<tag k="ssr:gruppe" v="veg" />
		<tag k="ssr:hovedgruppe" v="infrastruktur" />
		<tag k="ssr:stedsnr" v="1055023" />
		<tag k="ssr:type" v="adressenavn" />
	</node>
	<node lat="69.01116515084718" lon="23.040809328308892" id="-108144">
		<tag k="name" v="Bredbuktnesveien" />
		<tag k="ssr:date" v="2019-12-27" />
		<tag k="ssr:gruppe" v="veg" />
		<tag k="ssr:hovedgruppe" v="infrastruktur" />
		<tag k="ssr:stedsnr" v="1055055" />
		<tag k="ssr:type" v="adressenavn" />
	</node>
	<node lat="69.00044484792761" lon="23.020983168025836" id="-108164">
		<tag k="name" v="Buletjávri" />
		<tag k="name:se" v="Buletjávri" />
		<tag k="ssr:date" v="2021-05-03" />
		<tag k="ssr:gruppe" v="veg" />
		<tag k="ssr:hovedgruppe" v="infrastruktur" />
		<tag k="ssr:stedsnr" v="1081123" />
		<tag k="ssr:type" v="adressenavn" />
	</node>
	<node lat="68.98715605607465" lon="23.0512962409024" id="-108165">
		<tag k="name" v="Suohpatluohkká" />
		<tag k="name:se" v="Suohpatluohkká" />
		<tag k="ssr:date" v="2021-05-03" />
		<tag k="ssr:gruppe" v="veg" />
		<tag k="ssr:hovedgruppe" v="infrastruktur" />
		<tag k="ssr:stedsnr" v="1081122" />
		<tag k="ssr:type" v="adressenavn" />
	</node>
	<node lat="68.98857266368451" lon="23.034594108654215" id="-108166">
		<tag k="name" v="Jávrrašmohkki" />
		<tag k="name:se" v="Jávrrašmohkki" />
		<tag k="ssr:date" v="2021-05-03" />
		<tag k="ssr:gruppe" v="veg" />
		<tag k="ssr:hovedgruppe" v="infrastruktur" />
		<tag k="ssr:stedsnr" v="1081124" />
		<tag k="ssr:type" v="adressenavn" />
	</node>
	<node lat="69.47686128187149" lon="24.191459256648166" id="-108167">
		<tag k="name" v="Rágesluoppal" />
		<tag k="name:se" v="Rágesluoppal" />
		<tag k="ssr:date" v="2021-05-11" />
		<tag k="ssr:gruppe" v="veg" />
		<tag k="ssr:hovedgruppe" v="infrastruktur" />
		<tag k="ssr:stedsnr" v="1081235" />
		<tag k="ssr:type" v="adressenavn" />
	</node>
	<node lat="69.3372891987864" lon="23.9736365843812" id="-108169">
		<tag k="name" v="Gárggoluoppal" />
		<tag k="name:se" v="Gárggoluoppal" />
		<tag k="ssr:date" v="2021-05-20" />
		<tag k="ssr:gruppe" v="veg" />
		<tag k="ssr:hovedgruppe" v="infrastruktur" />
		<tag k="ssr:stedsnr" v="1081304" />
		<tag k="ssr:type" v="adressenavn" />
	</node>
	<node lat="68.86942748506264" lon="23.151005424960545" id="-108170">
		<tag k="name" v="Siebe" />
		<tag k="name:se" v="Siebe" />
		<tag k="ssr:date" v="2021-05-20" />
		<tag k="ssr:gruppe" v="veg" />
		<tag k="ssr:hovedgruppe" v="infrastruktur" />
		<tag k="ssr:stedsnr" v="1081305" />
		<tag k="ssr:type" v="adressenavn" />
	</node>
	<node lat="69.17851521933626" lon="23.4794684373568" id="-108174">
		<tag k="name" v="Čohkadievvá" />
		<tag k="name:se" v="Čohkadievvá" />
		<tag k="ssr:date" v="2021-07-07" />
		<tag k="ssr:gruppe" v="veg" />
		<tag k="ssr:hovedgruppe" v="infrastruktur" />
		<tag k="ssr:stedsnr" v="1081781" />
		<tag k="ssr:type" v="adressenavn" />
	</node>
	<node lat="69.11572853263556" lon="23.24353086064132" id="-108175">
		<tag k="name" v="Skuvlavuohppeluodda" />
		<tag k="name:se" v="Skuvlavuohppeluodda" />
		<tag k="ssr:date" v="2021-09-20" />
		<tag k="ssr:gruppe" v="veg" />
		<tag k="ssr:hovedgruppe" v="infrastruktur" />
		<tag k="ssr:stedsnr" v="1082391" />
		<tag k="ssr:type" v="adressenavn" />
	</node>
	<node lat="69.14844429814879" lon="23.398686527565452" id="-108176">
		<tag k="name" v="Guhkesluokta" />
		<tag k="name:se" v="Guhkesluokta" />
		<tag k="ssr:date" v="2021-11-01" />
		<tag k="ssr:gruppe" v="veg" />
		<tag k="ssr:hovedgruppe" v="infrastruktur" />
		<tag k="ssr:stedsnr" v="1082774" />
		<tag k="ssr:type" v="adressenavn" />
	</node>
	<node lat="69.03851833762961" lon="22.93935928475839" id="-108177">
		<tag k="name" v="Soahtefielbmá" />
		<tag k="name:se" v="Soahtefielbmá" />
		<tag k="ssr:date" v="2021-11-03" />
		<tag k="ssr:gruppe" v="veg" />
		<tag k="ssr:hovedgruppe" v="infrastruktur" />
		<tag k="ssr:stedsnr" v="1082794" />
		<tag k="ssr:type" v="adressenavn" />
	</node>
	<node lat="69.44402207616338" lon="23.667644360198935" id="-108178">
		<tag k="name" v="Vuolle-Máze" />
		<tag k="name:se" v="Vuolle-Máze" />
		<tag k="ssr:date" v="2021-11-09" />
		<tag k="ssr:gruppe" v="veg" />
		<tag k="ssr:hovedgruppe" v="infrastruktur" />
		<tag k="ssr:stedsnr" v="1082851" />
		<tag k="ssr:type" v="adressenavn" />
	</node>
</osm>
