<?xml version="1.0" encoding="UTF-8"?>
<osm generator="osmapis" version="0.6">
	<node id="-518240" lat="61.0224671863" lon="8.04520760536">
		<tag k="name" v="Breistølen" />
		<tag k="ssr:date" v="2019-05-31" />
		<tag k="ssr:gruppe" v="veg" />
		<tag k="ssr:hovedgruppe" v="infrastruktur" />
		<tag k="ssr:stedsnr" v="1052369" />
		<tag k="ssr:type" v="adressenavn" />
	</node>
	<node id="-518239" lat="61.0090452425" lon="8.11515433655">
		<tag k="name" v="Osen" />
		<tag k="ssr:date" v="2019-05-31" />
		<tag k="ssr:gruppe" v="veg" />
		<tag k="ssr:hovedgruppe" v="infrastruktur" />
		<tag k="ssr:stedsnr" v="1052367" />
		<tag k="ssr:type" v="adressenavn" />
	</node>
	<node id="-519925" lat="60.8816104596" lon="6.30047518531">
		<tag k="name" v="Vestlandet" />
		<tag k="ssr:date" v="2019-01-06" />
		<tag k="ssr:gruppe" v="administrativeIndelinger" />
		<tag k="ssr:hovedgruppe" v="offentligAdministrasjon" />
		<tag k="ssr:stedsnr" v="974777" />
		<tag k="ssr:type" v="annenAdministrativInndeling" />
	</node>
	<node id="-518876" lat="61.1468749978" lon="7.37394443784">
		<tag k="alt_name" v="Fodnes" />
		<tag k="name" v="Fodnes lykt" />
		<tag k="ssr:date" v="2016-05-10" />
		<tag k="ssr:gruppe" v="navigasjon" />
		<tag k="ssr:hovedgruppe" v="infrastruktur" />
		<tag k="ssr:stedsnr" v="479816" />
		<tag k="ssr:type" v="fyrlykt" />
	</node>
	<node id="-518875" lat="61.1119527769" lon="7.42786665836">
		<tag k="name" v="Tronenes" />
		<tag k="ssr:date" v="2016-05-10" />
		<tag k="ssr:gruppe" v="navigasjon" />
		<tag k="ssr:hovedgruppe" v="infrastruktur" />
		<tag k="ssr:stedsnr" v="479814" />
		<tag k="ssr:type" v="lanterne" />
	</node>
	<node id="-518773" lat="61.1174388861" lon="7.16819166707">
		<tag k="name" v="Frønningen" />
		<tag k="ssr:date" v="2016-05-10" />
		<tag k="ssr:gruppe" v="administrativeIndelinger" />
		<tag k="ssr:hovedgruppe" v="offentligAdministrasjon" />
		<tag k="ssr:stedsnr" v="209570" />
		<tag k="ssr:type" v="poststed" />
	</node>
	<node id="-518256" lat="61.0984222266" lon="7.48100000528">
		<tag k="name" v="Lærdal kommune" />
		<tag k="ssr:date" v="2016-05-10" />
		<tag k="ssr:gruppe" v="administrativeIndelinger" />
		<tag k="ssr:hovedgruppe" v="offentligAdministrasjon" />
		<tag k="ssr:stedsnr" v="388034" />
		<tag k="ssr:type" v="kommune" />
	</node>
	<node id="-518251" lat="61.1651776132" lon="8.01732882851">
		<tag k="name" v="Sluten" />
		<tag k="ssr:date" v="2019-05-31" />
		<tag k="ssr:gruppe" v="veg" />
		<tag k="ssr:hovedgruppe" v="infrastruktur" />
		<tag k="ssr:stedsnr" v="1052392" />
		<tag k="ssr:type" v="adressenavn" />
	</node>
	<node id="-518250" lat="61.1596852563" lon="8.02986353059">
		<tag k="name" v="Buhaugane" />
		<tag k="ssr:date" v="2019-05-31" />
		<tag k="ssr:gruppe" v="veg" />
		<tag k="ssr:hovedgruppe" v="infrastruktur" />
		<tag k="ssr:stedsnr" v="1052391" />
		<tag k="ssr:type" v="adressenavn" />
	</node>
	<node id="-518249" lat="61.1770513126" lon="8.07006403979">
		<tag k="name" v="Grønestølslii" />
		<tag k="ssr:date" v="2019-05-31" />
		<tag k="ssr:gruppe" v="veg" />
		<tag k="ssr:hovedgruppe" v="infrastruktur" />
		<tag k="ssr:stedsnr" v="1052390" />
		<tag k="ssr:type" v="adressenavn" />
	</node>
	<node id="-518248" lat="61.1725763113" lon="8.05911534254">
		<tag k="name" v="Fillestølsgrendi" />
		<tag k="ssr:date" v="2019-05-31" />
		<tag k="ssr:gruppe" v="veg" />
		<tag k="ssr:hovedgruppe" v="infrastruktur" />
		<tag k="ssr:stedsnr" v="1052388" />
		<tag k="ssr:type" v="adressenavn" />
	</node>
	<node id="-518247" lat="61.024605972" lon="8.0327377035">
		<tag k="name" v="Stardalen" />
		<tag k="ssr:date" v="2019-05-31" />
		<tag k="ssr:gruppe" v="veg" />
		<tag k="ssr:hovedgruppe" v="infrastruktur" />
		<tag k="ssr:stedsnr" v="1052385" />
		<tag k="ssr:type" v="adressenavn" />
	</node>
	<node id="-518246" lat="61.1654433007" lon="8.05156205797">
		<tag k="name" v="Fillestølen" />
		<tag k="ssr:date" v="2019-05-31" />
		<tag k="ssr:gruppe" v="veg" />
		<tag k="ssr:hovedgruppe" v="infrastruktur" />
		<tag k="ssr:stedsnr" v="1052384" />
		<tag k="ssr:type" v="adressenavn" />
	</node>
	<node id="-518245" lat="61.1084584452" lon="8.03821853471">
		<tag k="name" v="Gramstølen" />
		<tag k="ssr:date" v="2019-05-31" />
		<tag k="ssr:gruppe" v="veg" />
		<tag k="ssr:hovedgruppe" v="infrastruktur" />
		<tag k="ssr:stedsnr" v="1052375" />
		<tag k="ssr:type" v="adressenavn" />
	</node>
	<node id="-518244" lat="61.1096442533" lon="8.03578898367">
		<tag k="name" v="Smeddalsvegen" />
		<tag k="ssr:date" v="2019-05-31" />
		<tag k="ssr:gruppe" v="veg" />
		<tag k="ssr:hovedgruppe" v="infrastruktur" />
		<tag k="ssr:stedsnr" v="1052374" />
		<tag k="ssr:type" v="adressenavn" />
	</node>
	<node id="-518243" lat="61.1085139145" lon="8.04198513455">
		<tag k="name" v="Orrehaugen" />
		<tag k="ssr:date" v="2019-05-31" />
		<tag k="ssr:gruppe" v="veg" />
		<tag k="ssr:hovedgruppe" v="infrastruktur" />
		<tag k="ssr:stedsnr" v="1052373" />
		<tag k="ssr:type" v="adressenavn" />
	</node>
	<node id="-518242" lat="61.1075283036" lon="8.03999079264">
		<tag k="name" v="Oddestubben" />
		<tag k="ssr:date" v="2019-05-31" />
		<tag k="ssr:gruppe" v="veg" />
		<tag k="ssr:hovedgruppe" v="infrastruktur" />
		<tag k="ssr:stedsnr" v="1052372" />
		<tag k="ssr:type" v="adressenavn" />
	</node>
	<node id="-518241" lat="61.0110444075" lon="8.10923523435">
		<tag k="name" v="Glitreøyni" />
		<tag k="ssr:date" v="2019-05-31" />
		<tag k="ssr:gruppe" v="veg" />
		<tag k="ssr:hovedgruppe" v="infrastruktur" />
		<tag k="ssr:stedsnr" v="1052371" />
		<tag k="ssr:type" v="adressenavn" />
	</node>
</osm>
