<?xml version="1.0" encoding="UTF-8"?>
<<<<<<< HEAD
<osm version="0.6" generator="osmapis">
	<node lat="58.325949906539876" lon="6.259039074401404" id="-546">
		<tag k="alt_name" v="Alterodden" />
		<tag k="name" v="Alterodden lykt" />
		<tag k="ssr:date" v="2020-09-03" />
		<tag k="ssr:gruppe" v="navigasjon" />
		<tag k="ssr:hovedgruppe" v="infrastruktur" />
		<tag k="ssr:stedsnr" v="485201" />
		<tag k="ssr:type" v="fyrlykt" />
	</node>
	<node lat="58.30500000038706" lon="6.316666662587696" id="-616">
		<tag k="name" v="Dyngjadjupet" />
		<tag k="ssr:date" v="2021-06-08" />
		<tag k="ssr:gruppe" v="sjøbunn" />
		<tag k="ssr:hovedgruppe" v="sjø" />
		<tag k="ssr:stedsnr" v="506408" />
		<tag k="ssr:type" v="renneKløftISjø" />
	</node>
	<node lat="58.9647333357896" lon="5.731188892301877" id="-620">
		<tag k="alt_name" v="Rogaland" />
		<tag k="name" v="Rogaland fylke" />
		<tag k="ssr:date" v="2021-02-03" />
		<tag k="ssr:gruppe" v="administrativeIndelinger" />
		<tag k="ssr:hovedgruppe" v="offentligAdministrasjon" />
		<tag k="ssr:stedsnr" v="511115" />
		<tag k="ssr:type" v="fylke" />
	</node>
	<node lat="58.24464721963203" lon="6.332988886175292" id="-1652">
		<tag k="name" v="Siragrunnen" />
		<tag k="ssr:date" v="2021-06-08" />
		<tag k="ssr:gruppe" v="sjøbunn" />
		<tag k="ssr:hovedgruppe" v="sjø" />
		<tag k="ssr:stedsnr" v="364061" />
		<tag k="ssr:type" v="bankeISjø" />
	</node>
	<node lat="58.310365901467684" lon="6.323195584716649" id="-1744">
=======
<osm generator="osmapis" version="0.6">
	<node id="-15037" lat="58.3107500007" lon="6.32336389494">
>>>>>>> e1d4bc35ff8a6074a6f2e91616a996b547c36f15
		<tag k="name" v="Vestre Kvalen" />
		<tag k="ssr:date" v="2021-06-08" />
		<tag k="ssr:gruppe" v="navigasjon" />
		<tag k="ssr:hovedgruppe" v="infrastruktur" />
		<tag k="ssr:stedsnr" v="425223" />
		<tag k="ssr:type" v="fyrlykt" />
	</node>
<<<<<<< HEAD
	<node lat="58.32288954666278" lon="6.257483799721238" id="-1837">
		<tag k="name" v="Litle Prestskjeret fyr" />
		<tag k="ssr:date" v="2021-06-08" />
		<tag k="ssr:gruppe" v="navigasjon" />
=======
	<node id="-15558" lat="69.6388889725" lon="30.5666644427">
		<tag k="fixme" v="multiple name tags, choose one and add the other to alt_name" />
		<tag k="loc_name:se" v="Norgga gonagasriika" />
		<tag k="loc_name:sma" v="Nöörjen gånkarïjhke" />
		<tag k="loc_name:smj" v="Vuona gånågisrijkka" />
		<tag k="name" v="Noreg;Norge" />
		<tag k="name:en" v="Norway" />
		<tag k="name:no" v="Noreg;Norge" />
		<tag k="ssr:date" v="2020-06-04" />
		<tag k="ssr:gruppe" v="administrativeIndelinger" />
		<tag k="ssr:hovedgruppe" v="offentligAdministrasjon" />
		<tag k="ssr:stedsnr" v="26330" />
		<tag k="ssr:type" v="nasjon" />
	</node>
	<node id="-15557" lat="58.2924013882" lon="6.33606950119">
		<tag k="name" v="Reg" />
		<tag k="ssr:date" v="2019-12-13" />
		<tag k="ssr:gruppe" v="veg" />
>>>>>>> e1d4bc35ff8a6074a6f2e91616a996b547c36f15
		<tag k="ssr:hovedgruppe" v="infrastruktur" />
		<tag k="ssr:stedsnr" v="546213" />
		<tag k="ssr:type" v="fyrstasjon" />
	</node>
<<<<<<< HEAD
	<node lat="58.31047222652104" lon="6.328272225340173" id="-1924">
		<tag k="alt_name" v="Østre Kvalen" />
		<tag k="name" v="Austre Kvalen lykt" />
		<tag k="ssr:date" v="2016-05-10" />
		<tag k="ssr:gruppe" v="navigasjon" />
		<tag k="ssr:hovedgruppe" v="infrastruktur" />
		<tag k="ssr:stedsnr" v="631428" />
		<tag k="ssr:type" v="fyrlykt" />
	</node>
	<node lat="58.34256111350796" lon="6.294266665389751" id="-2138">
		<tag k="alt_name" v="Sokndal" />
		<tag k="name" v="Sokndal kommune" />
		<tag k="ssr:date" v="2017-03-31" />
		<tag k="ssr:gruppe" v="administrativeIndelinger" />
		<tag k="ssr:hovedgruppe" v="offentligAdministrasjon" />
		<tag k="ssr:stedsnr" v="812600" />
		<tag k="ssr:type" v="kommune" />
	</node>
	<node lat="58.27799721905929" lon="6.337766666116995" id="-2215">
		<tag k="name" v="Straumen" />
		<tag k="ssr:date" v="2021-06-08" />
		<tag k="ssr:gruppe" v="sjøbunn" />
		<tag k="ssr:hovedgruppe" v="sjø" />
		<tag k="ssr:stedsnr" v="847390" />
		<tag k="ssr:type" v="renneKløftISjø" />
	</node>
	<node lat="58.33377274043178" lon="6.257549465512389" id="-2357">
		<tag k="alt_name" v="Lammenessteinen" />
		<tag k="name" v="Lammenessteinen lanterne" />
		<tag k="ssr:date" v="2020-09-17" />
		<tag k="ssr:gruppe" v="navigasjon" />
		<tag k="ssr:hovedgruppe" v="infrastruktur" />
		<tag k="ssr:stedsnr" v="976965" />
		<tag k="ssr:type" v="lanterne" />
	</node>
	<node lat="58.32619986118184" lon="6.257653535475244" id="-2358">
		<tag k="alt_name" v="Teineberget" />
		<tag k="name" v="Teineberget lanterne" />
		<tag k="ssr:date" v="2020-09-17" />
		<tag k="ssr:gruppe" v="navigasjon" />
		<tag k="ssr:hovedgruppe" v="infrastruktur" />
		<tag k="ssr:stedsnr" v="976972" />
		<tag k="ssr:type" v="lanterne" />
	</node>
	<node lat="58.34296319341141" lon="6.395749961755858" id="-2360">
		<tag k="name" v="Kroheiveien" />
		<tag k="ssr:date" v="2019-05-30" />
=======
	<node id="-15556" lat="58.2836443208" lon="6.40085967765">
		<tag k="name" v="Løyning" />
		<tag k="ssr:date" v="2019-12-13" />
>>>>>>> e1d4bc35ff8a6074a6f2e91616a996b547c36f15
		<tag k="ssr:gruppe" v="veg" />
		<tag k="ssr:hovedgruppe" v="infrastruktur" />
		<tag k="ssr:stedsnr" v="987453" />
		<tag k="ssr:type" v="adressenavn" />
	</node>
<<<<<<< HEAD
	<node lat="58.3552626026341" lon="6.3697307770190195" id="-2361">
		<tag k="name" v="Aurslandsveien" />
		<tag k="ssr:date" v="2019-05-30" />
=======
	<node id="-15555" lat="58.359139336" lon="6.45886015918">
		<tag k="name" v="Steinsland" />
		<tag k="ssr:date" v="2019-12-13" />
>>>>>>> e1d4bc35ff8a6074a6f2e91616a996b547c36f15
		<tag k="ssr:gruppe" v="veg" />
		<tag k="ssr:hovedgruppe" v="infrastruktur" />
		<tag k="ssr:stedsnr" v="987479" />
		<tag k="ssr:type" v="adressenavn" />
	</node>
<<<<<<< HEAD
	<node lat="58.29349043440785" lon="6.4435176999012995" id="-2362">
		<tag k="name" v="Åna Siraveien" />
		<tag k="ssr:date" v="2019-05-30" />
=======
	<node id="-15554" lat="58.2795188674" lon="6.38671329639">
		<tag k="name" v="Sanden" />
		<tag k="ssr:date" v="2019-12-13" />
>>>>>>> e1d4bc35ff8a6074a6f2e91616a996b547c36f15
		<tag k="ssr:gruppe" v="veg" />
		<tag k="ssr:hovedgruppe" v="infrastruktur" />
		<tag k="ssr:stedsnr" v="1025425" />
		<tag k="ssr:type" v="adressenavn" />
	</node>
<<<<<<< HEAD
	<node lat="58.41800925268962" lon="6.3854834179583" id="-2364">
		<tag k="name" v="Kondalsheia" />
=======
	<node id="-15553" lat="58.3851835047" lon="6.3889581392">
		<tag k="name" v="Store Eigeli" />
>>>>>>> e1d4bc35ff8a6074a6f2e91616a996b547c36f15
		<tag k="ssr:date" v="2019-12-13" />
		<tag k="ssr:gruppe" v="veg" />
		<tag k="ssr:hovedgruppe" v="infrastruktur" />
		<tag k="ssr:stedsnr" v="1074280" />
		<tag k="ssr:type" v="adressenavn" />
	</node>
<<<<<<< HEAD
	<node lat="58.41449133584289" lon="6.333395289174112" id="-2365">
		<tag k="name" v="Elgjestraum" />
=======
	<node id="-15552" lat="58.4129590083" lon="6.27426250249">
		<tag k="name" v="Skognes" />
>>>>>>> e1d4bc35ff8a6074a6f2e91616a996b547c36f15
		<tag k="ssr:date" v="2019-12-13" />
		<tag k="ssr:gruppe" v="veg" />
		<tag k="ssr:hovedgruppe" v="infrastruktur" />
		<tag k="ssr:stedsnr" v="1074281" />
		<tag k="ssr:type" v="adressenavn" />
	</node>
<<<<<<< HEAD
	<node lat="58.27847362821839" lon="6.39096962315467" id="-2366">
		<tag k="name" v="Ålvatnet" />
=======
	<node id="-15551" lat="58.3377599134" lon="6.18735758395">
		<tag k="name" v="Botnen" />
>>>>>>> e1d4bc35ff8a6074a6f2e91616a996b547c36f15
		<tag k="ssr:date" v="2019-12-13" />
		<tag k="ssr:gruppe" v="veg" />
		<tag k="ssr:hovedgruppe" v="infrastruktur" />
		<tag k="ssr:stedsnr" v="1074284" />
		<tag k="ssr:type" v="adressenavn" />
	</node>
<<<<<<< HEAD
	<node lat="58.30578697994778" lon="6.459957440489403" id="-2367">
		<tag k="name" v="Eigeli" />
=======
	<node id="-15550" lat="58.3894654085" lon="6.23676866892">
		<tag k="name" v="Lundan" />
>>>>>>> e1d4bc35ff8a6074a6f2e91616a996b547c36f15
		<tag k="ssr:date" v="2019-12-13" />
		<tag k="ssr:gruppe" v="veg" />
		<tag k="ssr:hovedgruppe" v="infrastruktur" />
		<tag k="ssr:stedsnr" v="1074290" />
		<tag k="ssr:type" v="adressenavn" />
	</node>
<<<<<<< HEAD
	<node lat="58.334590013691454" lon="6.396708028713292" id="-2368">
		<tag k="name" v="Tellenes" />
=======
	<node id="-15549" lat="58.3691885863" lon="6.30399556433">
		<tag k="name" v="Nedre Steinberg" />
>>>>>>> e1d4bc35ff8a6074a6f2e91616a996b547c36f15
		<tag k="ssr:date" v="2019-12-13" />
		<tag k="ssr:gruppe" v="veg" />
		<tag k="ssr:hovedgruppe" v="infrastruktur" />
		<tag k="ssr:stedsnr" v="1074295" />
		<tag k="ssr:type" v="adressenavn" />
	</node>
<<<<<<< HEAD
	<node lat="58.35302102485921" lon="6.434137625278588" id="-2369">
		<tag k="name" v="Helleheia" />
=======
	<node id="-15548" lat="58.3720168888" lon="6.29324362078">
		<tag k="name" v="Legen" />
>>>>>>> e1d4bc35ff8a6074a6f2e91616a996b547c36f15
		<tag k="ssr:date" v="2019-12-13" />
		<tag k="ssr:gruppe" v="veg" />
		<tag k="ssr:hovedgruppe" v="infrastruktur" />
		<tag k="ssr:stedsnr" v="1074310" />
		<tag k="ssr:type" v="adressenavn" />
	</node>
<<<<<<< HEAD
	<node lat="58.314084548538524" lon="6.450671035960511" id="-2370">
		<tag k="name" v="Eigeland" />
=======
	<node id="-15547" lat="58.3301884075" lon="6.24450870039">
		<tag k="name" v="Nordfjord" />
>>>>>>> e1d4bc35ff8a6074a6f2e91616a996b547c36f15
		<tag k="ssr:date" v="2019-12-13" />
		<tag k="ssr:gruppe" v="veg" />
		<tag k="ssr:hovedgruppe" v="infrastruktur" />
		<tag k="ssr:stedsnr" v="1074312" />
		<tag k="ssr:type" v="adressenavn" />
	</node>
<<<<<<< HEAD
	<node lat="58.33053893667482" lon="6.468857866072452" id="-2371">
		<tag k="name" v="Langkorsheia" />
=======
	<node id="-15546" lat="58.3224521305" lon="6.30996461267">
		<tag k="name" v="Knubedal" />
>>>>>>> e1d4bc35ff8a6074a6f2e91616a996b547c36f15
		<tag k="ssr:date" v="2019-12-13" />
		<tag k="ssr:gruppe" v="veg" />
		<tag k="ssr:hovedgruppe" v="infrastruktur" />
		<tag k="ssr:stedsnr" v="1074313" />
		<tag k="ssr:type" v="adressenavn" />
	</node>
<<<<<<< HEAD
	<node lat="58.28518545187166" lon="6.422380564918809" id="-2372">
=======
	<node id="-15545" lat="58.2851854519" lon="6.42238056492">
>>>>>>> e1d4bc35ff8a6074a6f2e91616a996b547c36f15
		<tag k="name" v="Åna" />
		<tag k="ssr:date" v="2019-12-13" />
		<tag k="ssr:gruppe" v="veg" />
		<tag k="ssr:hovedgruppe" v="infrastruktur" />
		<tag k="ssr:stedsnr" v="1074316" />
		<tag k="ssr:type" v="adressenavn" />
	</node>
<<<<<<< HEAD
	<node lat="58.322452130548065" lon="6.309964612671248" id="-2373">
		<tag k="name" v="Knubedal" />
=======
	<node id="-15544" lat="58.3305389367" lon="6.46885786607">
		<tag k="name" v="Langkorsheia" />
>>>>>>> e1d4bc35ff8a6074a6f2e91616a996b547c36f15
		<tag k="ssr:date" v="2019-12-13" />
		<tag k="ssr:gruppe" v="veg" />
		<tag k="ssr:hovedgruppe" v="infrastruktur" />
		<tag k="ssr:stedsnr" v="1074317" />
		<tag k="ssr:type" v="adressenavn" />
	</node>
<<<<<<< HEAD
	<node lat="58.3301884075251" lon="6.2445087003879856" id="-2374">
		<tag k="name" v="Nordfjord" />
=======
	<node id="-15543" lat="58.3140845485" lon="6.45067103596">
		<tag k="name" v="Eigeland" />
>>>>>>> e1d4bc35ff8a6074a6f2e91616a996b547c36f15
		<tag k="ssr:date" v="2019-12-13" />
		<tag k="ssr:gruppe" v="veg" />
		<tag k="ssr:hovedgruppe" v="infrastruktur" />
		<tag k="ssr:stedsnr" v="1074321" />
		<tag k="ssr:type" v="adressenavn" />
	</node>
<<<<<<< HEAD
	<node lat="58.3720168888203" lon="6.293243620777311" id="-2375">
		<tag k="name" v="Legen" />
=======
	<node id="-15542" lat="58.3530210249" lon="6.43413762528">
		<tag k="name" v="Helleheia" />
>>>>>>> e1d4bc35ff8a6074a6f2e91616a996b547c36f15
		<tag k="ssr:date" v="2019-12-13" />
		<tag k="ssr:gruppe" v="veg" />
		<tag k="ssr:hovedgruppe" v="infrastruktur" />
		<tag k="ssr:stedsnr" v="1074325" />
		<tag k="ssr:type" v="adressenavn" />
	</node>
<<<<<<< HEAD
	<node lat="58.36918858625742" lon="6.303995564333478" id="-2376">
		<tag k="name" v="Nedre Steinberg" />
=======
	<node id="-15541" lat="58.3345900137" lon="6.39670802871">
		<tag k="name" v="Tellenes" />
>>>>>>> e1d4bc35ff8a6074a6f2e91616a996b547c36f15
		<tag k="ssr:date" v="2019-12-13" />
		<tag k="ssr:gruppe" v="veg" />
		<tag k="ssr:hovedgruppe" v="infrastruktur" />
		<tag k="ssr:stedsnr" v="1074322" />
		<tag k="ssr:type" v="adressenavn" />
	</node>
<<<<<<< HEAD
	<node lat="58.38946540847518" lon="6.236768668916458" id="-2377">
		<tag k="name" v="Lundan" />
=======
	<node id="-15540" lat="58.3057869799" lon="6.45995744049">
		<tag k="name" v="Eigeli" />
>>>>>>> e1d4bc35ff8a6074a6f2e91616a996b547c36f15
		<tag k="ssr:date" v="2019-12-13" />
		<tag k="ssr:gruppe" v="veg" />
		<tag k="ssr:hovedgruppe" v="infrastruktur" />
		<tag k="ssr:stedsnr" v="1074323" />
		<tag k="ssr:type" v="adressenavn" />
	</node>
<<<<<<< HEAD
	<node lat="58.337759913408924" lon="6.187357583951361" id="-2378">
		<tag k="name" v="Botnen" />
=======
	<node id="-15539" lat="58.2784736282" lon="6.39096962315">
		<tag k="name" v="Ålvatnet" />
>>>>>>> e1d4bc35ff8a6074a6f2e91616a996b547c36f15
		<tag k="ssr:date" v="2019-12-13" />
		<tag k="ssr:gruppe" v="veg" />
		<tag k="ssr:hovedgruppe" v="infrastruktur" />
		<tag k="ssr:stedsnr" v="1074324" />
		<tag k="ssr:type" v="adressenavn" />
	</node>
<<<<<<< HEAD
	<node lat="58.41295900832277" lon="6.274262502493809" id="-2379">
		<tag k="name" v="Skognes" />
=======
	<node id="-15538" lat="58.4144913358" lon="6.33339528917">
		<tag k="name" v="Elgjestraum" />
>>>>>>> e1d4bc35ff8a6074a6f2e91616a996b547c36f15
		<tag k="ssr:date" v="2019-12-13" />
		<tag k="ssr:gruppe" v="veg" />
		<tag k="ssr:hovedgruppe" v="infrastruktur" />
		<tag k="ssr:stedsnr" v="1074326" />
		<tag k="ssr:type" v="adressenavn" />
	</node>
<<<<<<< HEAD
	<node lat="58.38518350467477" lon="6.3889581391961245" id="-2380">
		<tag k="name" v="Store Eigeli" />
=======
	<node id="-15537" lat="58.4180092527" lon="6.38548341796">
		<tag k="name" v="Kondalsheia" />
>>>>>>> e1d4bc35ff8a6074a6f2e91616a996b547c36f15
		<tag k="ssr:date" v="2019-12-13" />
		<tag k="ssr:gruppe" v="veg" />
		<tag k="ssr:hovedgruppe" v="infrastruktur" />
		<tag k="ssr:stedsnr" v="1074330" />
		<tag k="ssr:type" v="adressenavn" />
	</node>
<<<<<<< HEAD
	<node lat="58.27951886740782" lon="6.386713296387977" id="-2381">
		<tag k="name" v="Sanden" />
		<tag k="ssr:date" v="2019-12-13" />
=======
	<node id="-15535" lat="58.2934904344" lon="6.4435176999">
		<tag k="name" v="Åna Siraveien" />
		<tag k="ssr:date" v="2019-05-30" />
>>>>>>> e1d4bc35ff8a6074a6f2e91616a996b547c36f15
		<tag k="ssr:gruppe" v="veg" />
		<tag k="ssr:hovedgruppe" v="infrastruktur" />
		<tag k="ssr:stedsnr" v="1074333" />
		<tag k="ssr:type" v="adressenavn" />
	</node>
<<<<<<< HEAD
	<node lat="58.35913933599117" lon="6.458860159176058" id="-2382">
		<tag k="name" v="Steinsland" />
		<tag k="ssr:date" v="2019-12-13" />
=======
	<node id="-13866" lat="58.322891664" lon="6.25747777702">
		<tag k="name" v="Litle Prestskjeret fyr" />
		<tag k="ssr:date" v="2016-05-10" />
		<tag k="ssr:gruppe" v="navigasjon" />
		<tag k="ssr:hovedgruppe" v="infrastruktur" />
		<tag k="ssr:stedsnr" v="546213" />
		<tag k="ssr:type" v="fyrstasjon" />
	</node>
	<node id="-15529" lat="58.3552626026" lon="6.36973077702">
		<tag k="name" v="Aurslandsveien" />
		<tag k="ssr:date" v="2019-05-30" />
>>>>>>> e1d4bc35ff8a6074a6f2e91616a996b547c36f15
		<tag k="ssr:gruppe" v="veg" />
		<tag k="ssr:hovedgruppe" v="infrastruktur" />
		<tag k="ssr:stedsnr" v="1074331" />
		<tag k="ssr:type" v="adressenavn" />
	</node>
<<<<<<< HEAD
	<node lat="58.28364432084437" lon="6.400859677653643" id="-2383">
		<tag k="name" v="Løyning" />
		<tag k="ssr:date" v="2019-12-13" />
=======
	<node id="-15528" lat="58.3429631934" lon="6.39574996176">
		<tag k="name" v="Kroheiveien" />
		<tag k="ssr:date" v="2019-05-30" />
>>>>>>> e1d4bc35ff8a6074a6f2e91616a996b547c36f15
		<tag k="ssr:gruppe" v="veg" />
		<tag k="ssr:hovedgruppe" v="infrastruktur" />
		<tag k="ssr:stedsnr" v="1074332" />
		<tag k="ssr:type" v="adressenavn" />
	</node>
<<<<<<< HEAD
	<node lat="58.292401388165764" lon="6.336069501194996" id="-2384">
		<tag k="name" v="Reg" />
		<tag k="ssr:date" v="2019-12-13" />
		<tag k="ssr:gruppe" v="veg" />
=======
	<node id="-13600" lat="58.3259861105" lon="6.25920000175">
		<tag k="alt_name" v="Alterodden" />
		<tag k="name" v="Alterodden lykt" />
		<tag k="ssr:date" v="2016-05-10" />
		<tag k="ssr:gruppe" v="navigasjon" />
		<tag k="ssr:hovedgruppe" v="infrastruktur" />
		<tag k="ssr:stedsnr" v="485201" />
		<tag k="ssr:type" v="fyrlykt" />
	</node>
	<node id="-15389" lat="58.3425611135" lon="6.29426666539">
		<tag k="alt_name" v="Sokndal" />
		<tag k="name" v="Sokndal kommune" />
		<tag k="ssr:date" v="2017-03-31" />
		<tag k="ssr:gruppe" v="administrativeIndelinger" />
		<tag k="ssr:hovedgruppe" v="offentligAdministrasjon" />
		<tag k="ssr:stedsnr" v="812600" />
		<tag k="ssr:type" v="kommune" />
	</node>
	<node id="-13969" lat="58.3104722265" lon="6.32827222534">
		<tag k="alt_name" v="Østre Kvalen" />
		<tag k="name" v="Austre Kvalen lykt" />
		<tag k="ssr:date" v="2016-05-10" />
		<tag k="ssr:gruppe" v="navigasjon" />
>>>>>>> e1d4bc35ff8a6074a6f2e91616a996b547c36f15
		<tag k="ssr:hovedgruppe" v="infrastruktur" />
		<tag k="ssr:stedsnr" v="1074334" />
		<tag k="ssr:type" v="adressenavn" />
	</node>
</osm>
