<?xml version="1.0" encoding="UTF-8"?>
<osm version="0.6" generator="osmapis">
	<node id="281225556" lat="70.6352868" lon="29.7213503" version="7" timestamp="2022-07-10T17:27:47Z" changeset="123441136" uid="3497659" user="NKA">
		<tag k="loc_name:se" v="Báhcavuonna" />
		<tag k="name" v="Båtsfjord" />
		<tag k="name:no" v="Båtsfjord" />
		<tag k="place" v="village" />
		<tag k="population" v="2178" />
		<tag k="population:date" v="2021-01-01" />
		<tag k="ref:ssb_tettsted" v="8671" />
		<tag k="source:population" v="SSB - befolkning i tettstedet" />
		<tag k="ssr:stedsnr" v="384452" />
	</node>
	<node id="1346547920" lat="70.5402016" lon="30.6162576" version="3" timestamp="2022-07-10T17:27:47Z" changeset="123441136" uid="3497659" user="NKA">
		<tag k="alt_name:no" v="Havningberg" />
		<tag k="loc_name:se" v="Hámbiergi;Hámmanbirgi" />
		<tag k="name" v="Hamningberg" />
		<tag k="name:no" v="Hamningberg" />
		<tag k="place" v="village" />
		<tag k="ssr:stedsnr" v="687053" />
	</node>
	<node id="2354298500" lat="70.682639" lon="29.797869" version="2" timestamp="2018-05-02T17:03:52Z" changeset="58620907" uid="3497659" user="NKA">
		<tag k="name" v="Russekeila" />
		<tag k="name:no" v="Russekeila" />
		<tag k="natural" v="bay" />
		<tag k="source" v="Kartverket" />
		<tag k="ssr:stedsnr" v="263523" />
	</node>
	<node id="6399504155" lat="70.7076428" lon="30.0318968" version="2" timestamp="2022-07-10T17:27:47Z" changeset="123441136" uid="3497659" user="NKA">
		<tag k="name" v="Makkaur" />
		<tag k="place" v="locality" />
		<tag k="ssr:stedsnr" v="262032" />
	</node>
	<node id="9879333327" lat="70.5388671" lon="30.0306992" version="1" timestamp="2022-07-10T17:27:47Z" changeset="123441136" uid="3497659" user="NKA">
		<tag k="alt_name" v="Sommerseth" />
		<tag k="name" v="Sommarsete" />
		<tag k="place" v="isolated_dwelling" />
		<tag k="ssr:stedsnr" v="141053" />
	</node>
	<node id="9879333328" lat="70.6368503" lon="29.7395609" version="1" timestamp="2022-07-10T17:27:47Z" changeset="123441136" uid="3497659" user="NKA">
		<tag k="name" v="Hamnneset" />
		<tag k="place" v="neighbourhood" />
		<tag k="ssr:stedsnr" v="273389" />
	</node>
	<node id="9879333329" lat="70.5340133" lon="30.0032157" version="1" timestamp="2022-07-10T17:27:47Z" changeset="123441136" uid="3497659" user="NKA">
		<tag k="alt_name" v="Vesterelv" />
		<tag k="name" v="Vesterelva" />
		<tag k="place" v="hamlet" />
		<tag k="ssr:stedsnr" v="989591" />
	</node>
	<node id="9879333330" lat="70.6274213" lon="29.7614413" version="1" timestamp="2022-07-10T17:27:47Z" changeset="123441136" uid="3497659" user="NKA">
		<tag k="name" v="Eikebergvika" />
		<tag k="old_name" v="Egebergvik" />
		<tag k="place" v="locality" />
		<tag k="ssr:stedsnr" v="1072604" />
	</node>
	<node id="9879333331" lat="70.5228421" lon="30.0554151" version="1" timestamp="2022-07-10T17:27:47Z" changeset="123441136" uid="3497659" user="NKA">
		<tag k="name" v="Jonjok - Jonnejohka" />
		<tag k="name:no" v="Jonjok" />
		<tag k="name:se" v="Jonnejohka" />
		<tag k="old_name:se" v="Jånnejåkka" />
		<tag k="place" v="locality" />
		<tag k="ssr:stedsnr" v="748021" />
	</node>
	<node id="9879333332" lat="70.5053477" lon="30.120036" version="1" timestamp="2022-07-10T17:27:47Z" changeset="123441136" uid="3497659" user="NKA">
		<tag k="alt_name:no" v="Austerelv" />
		<tag k="name" v="Austerelva - Uhc-Oardu" />
		<tag k="name:no" v="Austerelva" />
		<tag k="name:se" v="Uhc-Oardu" />
		<tag k="old_name:se" v="Ucc-Oardo" />
		<tag k="place" v="locality" />
		<tag k="ssr:stedsnr" v="263003" />
	</node>
	<node id="9879333333" lat="70.3447004" lon="29.9169017" version="1" timestamp="2022-07-10T17:27:47Z" changeset="123441136" uid="3497659" user="NKA">
		<tag k="name" v="Bjørneskarhytta - Guovžagurbarta" />
		<tag k="name:no" v="Bjørneskarhytta" />
		<tag k="name:se" v="Guovžagurbarta" />
		<tag k="place" v="isolated_dwelling" />
		<tag k="ssr:stedsnr" v="809913" />
	</node>
	<node id="9879333334" lat="70.6254111" lon="29.747349" version="1" timestamp="2022-07-10T17:27:47Z" changeset="123441136" uid="3497659" user="NKA">
		<tag k="name" v="Eikebergvannet" />
		<tag k="place" v="farm" />
		<tag k="ssr:stedsnr" v="1072602" />
	</node>
	<node id="9879333335" lat="70.5123309" lon="29.587297" version="1" timestamp="2022-07-10T17:27:47Z" changeset="123441136" uid="3497659" user="NKA">
		<tag k="name" v="Laksnes" />
		<tag k="place" v="isolated_dwelling" />
		<tag k="ssr:stedsnr" v="383470" />
	</node>
	<node id="9879333336" lat="70.6435841" lon="29.7407537" version="1" timestamp="2022-07-10T17:27:47Z" changeset="123441136" uid="3497659" user="NKA">
		<tag k="name" v="Nordskogen" />
		<tag k="place" v="neighbourhood" />
		<tag k="ssr:stedsnr" v="939777" />
	</node>
	<node id="9879333337" lat="70.6186586" lon="29.6983254" version="1" timestamp="2022-07-10T17:27:47Z" changeset="123441136" uid="3497659" user="NKA">
		<tag k="name" v="Solheim" />
		<tag k="place" v="locality" />
		<tag k="ssr:stedsnr" v="941342" />
	</node>
	<node id="9879333338" lat="70.6340587" lon="29.8094678" version="1" timestamp="2022-07-10T17:27:47Z" changeset="123441136" uid="3497659" user="NKA">
		<tag k="name" v="Skovik" />
		<tag k="place" v="isolated_dwelling" />
		<tag k="ssr:stedsnr" v="86518" />
	</node>
	<node id="9879333339" lat="70.4542673" lon="30.4459608" version="1" timestamp="2022-07-10T17:27:47Z" changeset="123441136" uid="3497659" user="NKA">
		<tag k="name" v="Telegrafhytta" />
		<tag k="place" v="isolated_dwelling" />
		<tag k="ssr:stedsnr" v="202892" />
	</node>
	<node id="9879333340" lat="70.5020007" lon="30.5682626" version="1" timestamp="2022-07-10T17:27:47Z" changeset="123441136" uid="3497659" user="NKA">
		<tag k="alt_name" v="Sandfjorden" />
		<tag k="name" v="Sandfjord" />
		<tag k="place" v="locality" />
		<tag k="ssr:stedsnr" v="626012" />
	</node>
	<node id="9879333341" lat="70.6539282" lon="30.1122555" version="1" timestamp="2022-07-10T17:27:47Z" changeset="123441136" uid="3497659" user="NKA">
		<tag k="name" v="Kålfjord" />
		<tag k="place" v="isolated_dwelling" />
		<tag k="ssr:stedsnr" v="511509" />
	</node>
	<node id="9879333342" lat="70.6225334" lon="29.6934624" version="1" timestamp="2022-07-10T17:27:47Z" changeset="123441136" uid="3497659" user="NKA">
		<tag k="name" v="Håpet" />
		<tag k="place" v="neighbourhood" />
		<tag k="ssr:stedsnr" v="334299" />
	</node>
	<node id="9879333343" lat="70.5721644" lon="30.2421412" version="1" timestamp="2022-07-10T17:27:47Z" changeset="123441136" uid="3497659" user="NKA">
		<tag k="name" v="Ytre Syltefjord" />
		<tag k="old_name" v="Syltefjord, ytre" />
		<tag k="place" v="locality" />
		<tag k="ssr:stedsnr" v="748037" />
	</node>
	<node id="9879333344" lat="70.6977754" lon="30.0923004" version="1" timestamp="2022-07-10T17:27:47Z" changeset="123441136" uid="3497659" user="NKA">
		<tag k="name" v="Molvik" />
		<tag k="place" v="locality" />
		<tag k="ssr:stedsnr" v="389538" />
	</node>
	<node id="9879333345" lat="70.6153809" lon="29.6871895" version="1" timestamp="2022-07-10T17:27:47Z" changeset="123441136" uid="3497659" user="NKA">
		<tag k="name" v="Spira" />
		<tag k="place" v="locality" />
		<tag k="ssr:stedsnr" v="516127" />
	</node>
	<node id="9879333346" lat="70.5328755" lon="30.0673482" version="1" timestamp="2022-07-10T17:27:47Z" changeset="123441136" uid="3497659" user="NKA">
		<tag k="name" v="Hamna" />
		<tag k="place" v="locality" />
		<tag k="ssr:stedsnr" v="941486" />
	</node>
	<node id="9879333347" lat="70.6311654" lon="29.7152586" version="1" timestamp="2022-07-10T17:27:47Z" changeset="123441136" uid="3497659" user="NKA">
		<tag k="name" v="Foma" />
		<tag k="place" v="neighbourhood" />
		<tag k="ssr:stedsnr" v="213329" />
	</node>
	<node id="9879333348" lat="70.618739" lon="29.6872953" version="1" timestamp="2022-07-10T17:27:47Z" changeset="123441136" uid="3497659" user="NKA">
		<tag k="name" v="Strømsnes" />
		<tag k="place" v="neighbourhood" />
		<tag k="ssr:stedsnr" v="394312" />
	</node>
	<node id="9879333349" lat="70.5024231" lon="29.3513258" version="1" timestamp="2022-07-10T17:27:47Z" changeset="123441136" uid="3497659" user="NKA">
		<tag k="name" v="Delinga" />
		<tag k="place" v="isolated_dwelling" />
		<tag k="ssr:stedsnr" v="809521" />
	</node>
	<node id="9879333350" lat="70.5337672" lon="30.0904977" version="1" timestamp="2022-07-10T17:27:47Z" changeset="123441136" uid="3497659" user="NKA">
		<tag k="name" v="Hamna" />
		<tag k="place" v="locality" />
		<tag k="ssr:stedsnr" v="687044" />
	</node>
	<node id="9879333351" lat="70.3220643" lon="30.0646041" version="1" timestamp="2022-07-10T17:27:47Z" changeset="123441136" uid="3497659" user="NKA">
		<tag k="name" v="Hubehytta" />
		<tag k="place" v="isolated_dwelling" />
		<tag k="ssr:stedsnr" v="930922" />
	</node>
	<node id="9879333352" lat="70.5506943" lon="30.0783446" version="1" timestamp="2022-07-10T17:27:47Z" changeset="123441136" uid="3497659" user="NKA">
		<tag k="name" v="Nordfjord" />
		<tag k="place" v="locality" />
		<tag k="ssr:stedsnr" v="81060" />
	</node>
</osm>
