<?xml version="1.0" encoding="UTF-8"?>
<osm version="0.6" generator="osmapis">
	<node lat="60.96844722133027" lon="10.67740277980054" id="-23792">
		<tag k="fixme" v="consider place=hamlet" />
		<tag k="loc_name" v="Ring" />
		<tag k="place" v="village" />
		<tag k="ssr:date" v="2019-12-27" />
		<tag k="ssr:gruppe" v="bebyggelsesområder" />
		<tag k="ssr:hovedgruppe" v="bebyggelse" />
		<tag k="ssr:stedsnr" v="229661" />
		<tag k="ssr:type" v="bygdelagBygd" />
	</node>
	<node lat="60.89402499930288" lon="10.826344444504294" id="-23861">
		<tag k="amenity" v="school" />
		<tag k="old_name" v="Solheim Skole" />
		<tag k="ssr:date" v="2019-12-27" />
		<tag k="ssr:gruppe" v="institusjoner" />
		<tag k="ssr:hovedgruppe" v="bebyggelse" />
		<tag k="ssr:stedsnr" v="237756" />
		<tag k="ssr:type" v="skole" />
	</node>
	<node lat="61.222602780043125" lon="10.893944441365132" id="-23994">
		<tag k="loc_name" v="Skvalderhalla" />
		<tag k="natural" v="slope" />
		<tag k="place" v="locality" />
		<tag k="ssr:date" v="2019-12-27" />
		<tag k="ssr:gruppe" v="skråninger" />
		<tag k="ssr:hovedgruppe" v="terreng" />
		<tag k="ssr:stedsnr" v="120383" />
		<tag k="ssr:type" v="li" />
	</node>
	<node lat="60.8687833333878" lon="10.960055551173717" id="-24139">
		<tag k="old_name" v="Nyhus" />
		<tag k="place" v="farm" />
		<tag k="ssr:date" v="2019-12-27" />
		<tag k="ssr:gruppe" v="gardsbebyggelse" />
		<tag k="ssr:hovedgruppe" v="bebyggelse" />
		<tag k="ssr:stedsnr" v="191323" />
		<tag k="ssr:type" v="bruk" />
	</node>
	<node lat="60.872494446129366" lon="10.779758338869096" id="-24247">
		<tag k="amenity" v="nursing_home" />
		<tag k="old_name" v="Ringsaker Ungdomshjem" />
		<tag k="ssr:date" v="2019-12-27" />
		<tag k="ssr:gruppe" v="institusjoner" />
		<tag k="ssr:hovedgruppe" v="bebyggelse" />
		<tag k="ssr:stedsnr" v="465137" />
		<tag k="ssr:type" v="helseinstitusjon" />
	</node>
	<node lat="61.11039999982585" lon="10.623899990883775" id="-24264">
		<tag k="old_name" v="Rudshytta" />
		<tag k="place" v="isolated_dwelling" />
		<tag k="ssr:date" v="2019-12-27" />
		<tag k="ssr:gruppe" v="bolighus" />
		<tag k="ssr:hovedgruppe" v="bebyggelse" />
		<tag k="ssr:stedsnr" v="311827" />
		<tag k="ssr:type" v="fritidsbolig" />
	</node>
	<node lat="60.8190305544256" lon="10.903616670996165" id="-24368">
		<tag k="amenity" v="school" />
		<tag k="old_name" v="Hagelund skole" />
		<tag k="ssr:date" v="2019-12-27" />
		<tag k="ssr:gruppe" v="institusjoner" />
		<tag k="ssr:hovedgruppe" v="bebyggelse" />
		<tag k="ssr:stedsnr" v="482900" />
		<tag k="ssr:type" v="skole" />
	</node>
	<node lat="61.15529444390373" lon="10.916430556413527" id="-24373">
		<tag k="historic" v="shieling" />
		<tag k="old_name" v="Åkersæter" />
		<tag k="place" v="isolated_dwelling" />
		<tag k="ssr:date" v="2019-12-27" />
		<tag k="ssr:gruppe" v="gardsbebyggelse" />
		<tag k="ssr:hovedgruppe" v="bebyggelse" />
		<tag k="ssr:stedsnr" v="484107" />
		<tag k="ssr:type" v="seterStøl" />
	</node>
	<node lat="61.04602221893426" lon="10.801911116562191" id="-24518">
		<tag k="building" v="industrial" />
		<tag k="old_name" v="Bøvra sag" />
		<tag k="ssr:date" v="2019-12-27" />
		<tag k="ssr:gruppe" v="næring" />
		<tag k="ssr:hovedgruppe" v="bebyggelse" />
		<tag k="ssr:stedsnr" v="465664" />
		<tag k="ssr:type" v="annenIndustri-OgLagerbygning" />
	</node>
	<node lat="61.241138889895986" lon="10.925919447534293" id="-24648">
		<tag k="loc_name" v="Kvanndalen" />
		<tag k="natural" v="valley" />
		<tag k="place" v="locality" />
		<tag k="ssr:date" v="2019-12-27" />
		<tag k="ssr:gruppe" v="senkninger" />
		<tag k="ssr:hovedgruppe" v="terreng" />
		<tag k="ssr:stedsnr" v="544405" />
		<tag k="ssr:type" v="dal" />
	</node>
	<node lat="60.817908333102714" lon="10.749827770049071" id="-24914">
		<tag k="old_name" v="Nedre Hobrenna" />
		<tag k="place" v="farm" />
		<tag k="ssr:date" v="2019-12-27" />
		<tag k="ssr:gruppe" v="gardsbebyggelse" />
		<tag k="ssr:hovedgruppe" v="bebyggelse" />
		<tag k="ssr:stedsnr" v="707220" />
		<tag k="ssr:type" v="bruk" />
	</node>
	<node lat="60.90417777856567" lon="10.952283340731007" id="-25050">
		<tag k="old_name" v="Minka" />
		<tag k="place" v="locality" />
		<tag k="ssr:date" v="2019-12-27" />
		<tag k="ssr:gruppe" v="bolighus" />
		<tag k="ssr:hovedgruppe" v="bebyggelse" />
		<tag k="ssr:stedsnr" v="798246" />
		<tag k="ssr:type" v="gammelBosettingsplass" />
	</node>
	<node lat="60.74219721878042" lon="10.980466658919863" id="-25197">
		<tag k="amenity" v="school" />
		<tag k="old_name" v="Helgøya skole" />
		<tag k="ssr:date" v="2019-12-27" />
		<tag k="ssr:gruppe" v="institusjoner" />
		<tag k="ssr:hovedgruppe" v="bebyggelse" />
		<tag k="ssr:stedsnr" v="904500" />
		<tag k="ssr:type" v="skole" />
	</node>
	<node lat="60.883580555068214" lon="10.947424996466781" id="-25239">
		<tag k="old_name" v="Buttekvern" />
		<tag k="place" v="farm" />
		<tag k="ssr:date" v="2019-12-27" />
		<tag k="ssr:gruppe" v="gardsbebyggelse" />
		<tag k="ssr:hovedgruppe" v="bebyggelse" />
		<tag k="ssr:stedsnr" v="919298" />
		<tag k="ssr:type" v="bruk" />
	</node>
	<node lat="60.78178055899601" lon="10.938869445511667" id="-25276">
		<tag k="amenity" v="school" />
		<tag k="old_name" v="Årengen skole" />
		<tag k="ssr:date" v="2019-12-27" />
		<tag k="ssr:gruppe" v="institusjoner" />
		<tag k="ssr:hovedgruppe" v="bebyggelse" />
		<tag k="ssr:stedsnr" v="967808" />
		<tag k="ssr:type" v="skole" />
	</node>
	<node lat="60.79424444068687" lon="10.757986109652045" id="-25483">
		<tag k="amenity" v="school" />
		<tag k="old_name" v="Dæli skole" />
		<tag k="ssr:date" v="2019-12-27" />
		<tag k="ssr:gruppe" v="institusjoner" />
		<tag k="ssr:hovedgruppe" v="bebyggelse" />
		<tag k="ssr:stedsnr" v="116047" />
		<tag k="ssr:type" v="skole" />
	</node>
	<node lat="61.10145277353004" lon="10.715483339687406" id="-25626">
		<tag k="amenity" v="nursing_home" />
		<tag k="old_name" v="Mesnalien Kursted" />
		<tag k="ssr:date" v="2019-12-27" />
		<tag k="ssr:gruppe" v="institusjoner" />
		<tag k="ssr:hovedgruppe" v="bebyggelse" />
		<tag k="ssr:stedsnr" v="188781" />
		<tag k="ssr:type" v="helseinstitusjon" />
	</node>
	<node lat="60.926966670346694" lon="10.808477768763838" id="-25730">
		<tag k="loc_name" v="Snekkerstua" />
		<tag k="place" v="locality" />
		<tag k="ssr:date" v="2020-04-24" />
		<tag k="ssr:gruppe" v="bolighus" />
		<tag k="ssr:hovedgruppe" v="bebyggelse" />
		<tag k="ssr:stedsnr" v="282164" />
		<tag k="ssr:type" v="gammelBosettingsplass" />
	</node>
	<node lat="60.8408805534823" lon="11.055641668180872" id="-25808">
		<tag k="old_name" v="Halsetbakken" />
		<tag k="place" v="locality" />
		<tag k="ssr:date" v="2019-12-27" />
		<tag k="ssr:gruppe" v="bolighus" />
		<tag k="ssr:hovedgruppe" v="bebyggelse" />
		<tag k="ssr:stedsnr" v="312391" />
		<tag k="ssr:type" v="gammelBosettingsplass" />
	</node>
	<node lat="60.75411830192708" lon="10.951425487341021" id="-25813">
		<tag k="amenity" v="nursing_home" />
		<tag k="old_name" v="Toftes Gave" />
		<tag k="ssr:date" v="2020-01-27" />
		<tag k="ssr:gruppe" v="institusjoner" />
		<tag k="ssr:hovedgruppe" v="bebyggelse" />
		<tag k="ssr:stedsnr" v="312509" />
		<tag k="ssr:type" v="helseinstitusjon" />
	</node>
	<node lat="61.23477777569148" lon="10.907030553520308" id="-26050">
		<tag k="loc_name" v="Tua;Tjuven;Kjellerdalstua" />
		<tag k="natural" v="hill" />
		<tag k="old_name" v="Tatromskampen" />
		<tag k="place" v="locality" />
		<tag k="ssr:date" v="2020-03-18" />
		<tag k="ssr:gruppe" v="høyder" />
		<tag k="ssr:hovedgruppe" v="terreng" />
		<tag k="ssr:stedsnr" v="433693" />
		<tag k="ssr:type" v="haug" />
	</node>
	<node lat="61.242730559382295" lon="10.971847221248263" id="-26127">
		<tag k="loc_name" v="Skjenahauga" />
		<tag k="natural" v="hill" />
		<tag k="place" v="locality" />
		<tag k="ssr:date" v="2019-12-27" />
		<tag k="ssr:gruppe" v="høyder" />
		<tag k="ssr:hovedgruppe" v="terreng" />
		<tag k="ssr:stedsnr" v="544399" />
		<tag k="ssr:type" v="haug" />
	</node>
</osm>
