<?xml version="1.0" encoding="UTF-8"?>
<osm version="0.6" generator="osmapis">
	<node lat="60.94256111243341" lon="11.000766666829199" id="-19356">
		<tag k="name" v="Mælumsgutua" />
		<tag k="ssr:date" v="2019-12-27" />
		<tag k="ssr:gruppe" v="veg" />
		<tag k="ssr:hovedgruppe" v="infrastruktur" />
		<tag k="ssr:stedsnr" v="32324" />
		<tag k="ssr:type" v="adressenavn" />
	</node>
	<node lat="60.94524722248598" lon="10.71611666701139" id="-19420">
		<tag k="name" v="Nedre Fjølstadvegen" />
		<tag k="ssr:date" v="2019-12-27" />
		<tag k="ssr:gruppe" v="veg" />
		<tag k="ssr:hovedgruppe" v="infrastruktur" />
		<tag k="ssr:stedsnr" v="242253" />
		<tag k="ssr:type" v="adressenavn" />
	</node>
	<node lat="60.94392777977487" lon="10.718813888267968" id="-19421">
		<tag k="name" v="Østre Fjølstadvegen" />
		<tag k="ssr:date" v="2020-05-28" />
		<tag k="ssr:gruppe" v="veg" />
		<tag k="ssr:hovedgruppe" v="infrastruktur" />
		<tag k="ssr:stedsnr" v="242254" />
		<tag k="ssr:type" v="adressenavn" />
	</node>
	<node lat="61.02686111331528" lon="10.934469448350713" id="-19623">
		<tag k="name" v="Lauvåsvegen" />
		<tag k="ssr:date" v="2019-12-27" />
		<tag k="ssr:gruppe" v="veg" />
		<tag k="ssr:hovedgruppe" v="infrastruktur" />
		<tag k="ssr:stedsnr" v="176814" />
		<tag k="ssr:type" v="vegstrekning" />
	</node>
	<node lat="60.86474722302689" lon="11.0509194439288" id="-19763">
		<tag k="name" v="Søndre Røset" />
		<tag k="ssr:date" v="2019-12-27" />
		<tag k="ssr:gruppe" v="veg" />
		<tag k="ssr:hovedgruppe" v="infrastruktur" />
		<tag k="ssr:stedsnr" v="303938" />
		<tag k="ssr:type" v="adressetilleggsnavn" />
	</node>
	<node lat="61.03208611205168" lon="10.496483333727792" id="-19838">
		<tag k="name" v="Kvitsandtunet" />
		<tag k="ssr:date" v="2019-12-27" />
		<tag k="ssr:gruppe" v="veg" />
		<tag k="ssr:hovedgruppe" v="infrastruktur" />
		<tag k="ssr:stedsnr" v="363246" />
		<tag k="ssr:type" v="adressenavn" />
	</node>
	<node lat="61.00859166637331" lon="10.921722226276" id="-19911">
		<tag k="name" v="Leikholsvegen" />
		<tag k="ssr:date" v="2019-12-27" />
		<tag k="ssr:gruppe" v="veg" />
		<tag k="ssr:hovedgruppe" v="infrastruktur" />
		<tag k="ssr:stedsnr" v="406355" />
		<tag k="ssr:type" v="vegstrekning" />
	</node>
	<node lat="61.01173889120869" lon="10.928730560034932" id="-20044">
		<tag k="name" v="Bakåsvegen" />
		<tag k="ssr:date" v="2019-12-27" />
		<tag k="ssr:gruppe" v="veg" />
		<tag k="ssr:hovedgruppe" v="infrastruktur" />
		<tag k="ssr:stedsnr" v="466371" />
		<tag k="ssr:type" v="vegstrekning" />
	</node>
	<node lat="60.94503611162944" lon="10.715163886908133" id="-20102">
		<tag k="name" v="Kroksgardvegen" />
		<tag k="ssr:date" v="2019-12-27" />
		<tag k="ssr:gruppe" v="veg" />
		<tag k="ssr:hovedgruppe" v="infrastruktur" />
		<tag k="ssr:stedsnr" v="484260" />
		<tag k="ssr:type" v="adressenavn" />
	</node>
	<node lat="60.94569166237113" lon="10.712227782165034" id="-20103">
		<tag k="name" v="Kroksgardlia" />
		<tag k="ssr:date" v="2019-12-27" />
		<tag k="ssr:gruppe" v="veg" />
		<tag k="ssr:hovedgruppe" v="infrastruktur" />
		<tag k="ssr:stedsnr" v="484262" />
		<tag k="ssr:type" v="adressenavn" />
	</node>
	<node lat="61.11856388713913" lon="10.854869450593167" id="-20529">
		<tag k="name" v="Skogvegen" />
		<tag k="ssr:date" v="2019-12-27" />
		<tag k="ssr:gruppe" v="veg" />
		<tag k="ssr:hovedgruppe" v="infrastruktur" />
		<tag k="ssr:stedsnr" v="909432" />
		<tag k="ssr:type" v="vegstrekning" />
	</node>
	<node lat="60.899733335431506" lon="10.946702777299832" id="-20659">
		<tag k="name" v="Dalbylia" />
		<tag k="ssr:date" v="2019-12-27" />
		<tag k="ssr:gruppe" v="veg" />
		<tag k="ssr:hovedgruppe" v="infrastruktur" />
		<tag k="ssr:stedsnr" v="849284" />
		<tag k="ssr:type" v="adressenavn" />
	</node>
	<node lat="61.0268194464516" lon="10.744391661614694" id="-20866">
		<tag k="name" v="Hellerudvegen" />
		<tag k="ssr:date" v="2019-12-27" />
		<tag k="ssr:gruppe" v="veg" />
		<tag k="ssr:hovedgruppe" v="infrastruktur" />
		<tag k="ssr:stedsnr" v="38043" />
		<tag k="ssr:type" v="adressenavn" />
	</node>
	<node lat="60.955694443896846" lon="10.986061119048676" id="-20912">
		<tag k="name" v="Falkendal" />
		<tag k="ssr:date" v="2019-12-27" />
		<tag k="ssr:gruppe" v="veg" />
		<tag k="ssr:hovedgruppe" v="infrastruktur" />
		<tag k="ssr:stedsnr" v="60181" />
		<tag k="ssr:type" v="adressetilleggsnavn" />
	</node>
	<node lat="61.07559999895185" lon="10.594922214725788" id="-20972">
		<tag k="name" v="Bekkedalsgutua" />
		<tag k="ssr:date" v="2019-12-27" />
		<tag k="ssr:gruppe" v="veg" />
		<tag k="ssr:hovedgruppe" v="infrastruktur" />
		<tag k="ssr:stedsnr" v="99034" />
		<tag k="ssr:type" v="adressenavn" />
	</node>
	<node lat="61.05082777940606" lon="10.736447225986753" id="-20973">
		<tag k="name" v="Onsumvegen" />
		<tag k="ssr:date" v="2019-12-27" />
		<tag k="ssr:gruppe" v="veg" />
		<tag k="ssr:hovedgruppe" v="infrastruktur" />
		<tag k="ssr:stedsnr" v="99043" />
		<tag k="ssr:type" v="adressenavn" />
	</node>
	<node lat="60.88215555310206" lon="10.950300008150093" id="-21075">
		<tag k="name" v="Ringsaker kommune" />
		<tag k="ssr:date" v="2019-12-27" />
		<tag k="ssr:gruppe" v="administrativeIndelinger" />
		<tag k="ssr:hovedgruppe" v="offentligAdministrasjon" />
		<tag k="ssr:stedsnr" v="146295" />
		<tag k="ssr:type" v="kommune" />
	</node>
	<node lat="61.36167933241026" lon="10.846250955027797" id="-21081">
		<tag k="name" v="Birkebeinervegen" />
		<tag k="ssr:date" v="2021-09-29" />
		<tag k="ssr:gruppe" v="veg" />
		<tag k="ssr:hovedgruppe" v="infrastruktur" />
		<tag k="ssr:stedsnr" v="160732" />
		<tag k="ssr:type" v="vegstrekning" />
	</node>
	<node lat="61.12036944167702" lon="10.86272499935138" id="-21651">
		<tag k="name" v="Lyngvegen" />
		<tag k="old_name" v="Lygnvegen" />
		<tag k="ssr:date" v="2019-12-27" />
		<tag k="ssr:gruppe" v="veg" />
		<tag k="ssr:hovedgruppe" v="infrastruktur" />
		<tag k="ssr:stedsnr" v="544436" />
		<tag k="ssr:type" v="vegstrekning" />
	</node>
	<node lat="61.02734444226532" lon="10.868308339566338" id="-21708">
		<tag k="name" v="Fellesvegen" />
		<tag k="ssr:date" v="2019-12-27" />
		<tag k="ssr:gruppe" v="veg" />
		<tag k="ssr:hovedgruppe" v="infrastruktur" />
		<tag k="ssr:stedsnr" v="585351" />
		<tag k="ssr:type" v="vegstrekning" />
	</node>
</osm>
