<?xml version="1.0" encoding="UTF-8"?>
<osm version="0.6" generator="osmapis">
	<node lat="63.28171389103822" lon="11.922966672877363" id="-87220">
		<tag k="name" v="Lisenåa" />
		<tag k="ssr:stedsnr" v="230381" />
		<tag k="waterway" v="stream" />
	</node>
	<node lat="63.360111108023936" lon="11.720488894963504" id="-87221">
		<tag k="name" v="Knolldammen" />
		<tag k="ssr:stedsnr" v="230556" />
		<tag k="waterway" v="dam" />
	</node>
	<node lat="63.570436109161236" lon="11.994863891200433" id="-87223">
		<tag k="name" v="Finnøyin" />
		<tag k="place" v="islet" />
		<tag k="ssr:stedsnr" v="231309" />
	</node>
	<node lat="63.475786111995525" lon="11.756124996369278" id="-87225">
		<tag k="name" v="Bukkbekken" />
		<tag k="ssr:stedsnr" v="231427" />
		<tag k="waterway" v="stream" />
	</node>
	<node lat="63.54675277961124" lon="11.915397229801721" id="-87226">
		<tag k="name" v="Svinsundbekken" />
		<tag k="ssr:stedsnr" v="231557" />
		<tag k="waterway" v="stream" />
	</node>
	<node lat="63.2593361147722" lon="11.66239443683811" id="-87235">
		<tag k="name" v="Pliehkiejavrieh" />
		<tag k="name:no" v="Lødøljsjøan" />
		<tag k="name:sma" v="Pliehkiejavrieh" />
		<tag k="natural" v="water" />
		<tag k="ssr:stedsnr" v="13104" />
		<tag k="water" v="lake" />
	</node>
	<node lat="63.404077773456194" lon="12.065466663268607" id="-87268">
		<tag k="name" v="Smaltjønna" />
		<tag k="natural" v="water" />
		<tag k="ssr:stedsnr" v="28812" />
	</node>
	<node lat="63.256638887023115" lon="11.819297228704407" id="-87283">
		<tag k="name" v="Damtjønnbekken" />
		<tag k="ssr:stedsnr" v="47380" />
		<tag k="waterway" v="stream" />
	</node>
	<node lat="63.3674250042494" lon="11.964183336625137" id="-87285">
		<tag k="name" v="Kongshaugbekken" />
		<tag k="ssr:stedsnr" v="47401" />
		<tag k="waterway" v="stream" />
	</node>
	<node lat="63.55035555831957" lon="11.910394453986777" id="-87308">
		<tag k="name" v="Svinsundvika" />
		<tag k="natural" v="bay" />
		<tag k="ssr:stedsnr" v="74364" />
	</node>
	<node lat="63.3868305561045" lon="11.958180559868383" id="-87346">
		<tag k="name" v="Finnkoibekken" />
		<tag k="ssr:stedsnr" v="108004" />
		<tag k="waterway" v="stream" />
	</node>
	<node lat="63.296833335181056" lon="11.960624993209679" id="-87348">
		<tag k="name" v="Ner-Langtjønna" />
		<tag k="natural" v="water" />
		<tag k="ssr:stedsnr" v="108275" />
	</node>
	<node lat="63.38010833512899" lon="11.921855562064508" id="-87349">
		<tag k="name" v="Bjønntjønnbekken" />
		<tag k="ssr:stedsnr" v="108423" />
		<tag k="waterway" v="stream" />
	</node>
	<node lat="63.35353502524209" lon="11.699863127710309" id="-87350">
		<tag k="name" v="Lusbekken" />
		<tag k="ssr:stedsnr" v="108607" />
		<tag k="waterway" v="stream" />
	</node>
	<node lat="63.5571499979035" lon="11.693574991635911" id="-87362">
		<tag k="name" v="Finnholtjønna" />
		<tag k="natural" v="water" />
		<tag k="ssr:stedsnr" v="134507" />
	</node>
	<node lat="63.589469442754265" lon="11.833199996847952" id="-87364">
		<tag k="name" v="Guddingsvika" />
		<tag k="natural" v="bay" />
		<tag k="ssr:stedsnr" v="135325" />
	</node>
	<node lat="63.23573333173181" lon="11.832480546816782" id="-87383">
		<tag k="name" v="Storbekken" />
		<tag k="ssr:stedsnr" v="255384" />
		<tag k="waterway" v="stream" />
	</node>
	<node lat="63.44934166300786" lon="11.641836101292114" id="-87385">
		<tag k="name" v="Vollåa" />
		<tag k="ssr:stedsnr" v="255460" />
		<tag k="waterway" v="stream" />
	</node>
	<node lat="63.52101388716949" lon="11.961974990850132" id="-87395">
		<tag k="name" v="Kjølhaugåa" />
		<tag k="ssr:stedsnr" v="256142" />
		<tag k="waterway" v="stream" />
	</node>
	<node lat="63.5709749999019" lon="11.916602769146747" id="-87405">
		<tag k="name" v="Kråka" />
		<tag k="ssr:stedsnr" v="256342" />
		<tag k="waterway" v="stream" />
	</node>
	<node lat="63.560065632159485" lon="11.853273062575786" id="-87407">
		<tag k="name" v="Feren" />
		<tag k="natural" v="water" />
		<tag k="ssr:stedsnr" v="256346" />
		<tag k="water" v="lake" />
	</node>
	<node lat="63.42344444438819" lon="12.057491671595226" id="-87464">
		<tag k="name" v="Mildridtjønna" />
		<tag k="natural" v="water" />
		<tag k="ssr:stedsnr" v="210802" />
	</node>
	<node lat="63.52290833262623" lon="11.87181943936542" id="-87465">
		<tag k="name" v="Bubekken" />
		<tag k="ssr:stedsnr" v="219027" />
		<tag k="waterway" v="stream" />
	</node>
	<node lat="63.450724998955344" lon="11.571738887894973" id="-87466">
		<tag k="name" v="Langnesbekken" />
		<tag k="ssr:stedsnr" v="271195" />
		<tag k="waterway" v="stream" />
	</node>
	<node lat="63.385302776158824" lon="11.935494440996132" id="-87467">
		<tag k="name" v="Bjønntjønna" />
		<tag k="natural" v="water" />
		<tag k="ssr:stedsnr" v="229008" />
	</node>
	<node lat="63.362063892727136" lon="11.913269449769794" id="-87469">
		<tag k="name" v="Svartskarbekken" />
		<tag k="ssr:stedsnr" v="229404" />
		<tag k="waterway" v="stream" />
	</node>
	<node lat="63.57151944035341" lon="11.994111105277835" id="-87474">
		<tag k="name" v="Finnbekken" />
		<tag k="ssr:stedsnr" v="231302" />
		<tag k="waterway" v="stream" />
	</node>
	<node lat="63.47756944176099" lon="11.869519440470073" id="-87476">
		<tag k="name" v="Oksauget" />
		<tag k="natural" v="water" />
		<tag k="ssr:stedsnr" v="231482" />
	</node>
	<node lat="63.450127778563655" lon="11.995588895474429" id="-87480">
		<tag k="name" v="Storflobekken" />
		<tag k="ssr:stedsnr" v="231793" />
		<tag k="waterway" v="stream" />
	</node>
	<node lat="63.34332222238041" lon="11.773811108852938" id="-87481">
		<tag k="name" v="Langsundbekken" />
		<tag k="ssr:stedsnr" v="232817" />
		<tag k="waterway" v="stream" />
	</node>
	<node lat="63.46350555821212" lon="11.579816674264764" id="-87487">
		<tag k="name" v="Bekken" />
		<tag k="ssr:stedsnr" v="453250" />
		<tag k="waterway" v="stream" />
	</node>
	<node lat="63.262805558360874" lon="11.874322217864322" id="-87531">
		<tag k="name" v="Røstbekken" />
		<tag k="ssr:stedsnr" v="289512" />
		<tag k="waterway" v="stream" />
	</node>
	<node lat="63.37996666287718" lon="11.912769440448894" id="-87534">
		<tag k="name" v="Elgfossen" />
		<tag k="natural" v="waterfall" />
		<tag k="ssr:stedsnr" v="290378" />
	</node>
	<node lat="63.3508333366544" lon="11.840866673324548" id="-87536">
		<tag k="name" v="Sneidambekken" />
		<tag k="ssr:stedsnr" v="290396" />
		<tag k="waterway" v="stream" />
	</node>
	<node lat="63.28981111401889" lon="11.907513883910125" id="-87541">
		<tag k="name" v="Trøbekken" />
		<tag k="ssr:stedsnr" v="291426" />
		<tag k="waterway" v="stream" />
	</node>
	<node lat="63.53225833244435" lon="11.920699999439472" id="-87544">
		<tag k="name" v="Kjølbekken" />
		<tag k="ssr:stedsnr" v="292430" />
		<tag k="waterway" v="stream" />
	</node>
	<node lat="63.37567499979595" lon="12.009275003238137" id="-87552">
		<tag k="name" v="Storkjerringåa" />
		<tag k="ssr:stedsnr" v="316206" />
		<tag k="waterway" v="stream" />
	</node>
	<node lat="63.463583329709074" lon="11.826497229954963" id="-87578">
		<tag k="name" v="Storbekken" />
		<tag k="ssr:stedsnr" v="469453" />
		<tag k="waterway" v="stream" />
	</node>
	<node lat="63.26215555667043" lon="11.806422214517491" id="-87583">
		<tag k="name" v="Tjurubekken" />
		<tag k="ssr:stedsnr" v="472341" />
		<tag k="waterway" v="stream" />
	</node>
	<node lat="63.26151944306686" lon="11.793413885200643" id="-87584">
		<tag k="name" v="Vedrybekken" />
		<tag k="ssr:stedsnr" v="472342" />
		<tag k="waterway" v="stream" />
	</node>
	<node lat="63.28127222137382" lon="11.784102782049226" id="-87585">
		<tag k="name" v="Slåttmyrbekken" />
		<tag k="ssr:stedsnr" v="472345" />
		<tag k="waterway" v="stream" />
	</node>
	<node lat="63.390308329482956" lon="11.878491674324001" id="-87586">
		<tag k="name" v="Nyvollbekken" />
		<tag k="ssr:stedsnr" v="472394" />
		<tag k="waterway" v="stream" />
	</node>
	<node lat="63.416224997669275" lon="11.807855552730544" id="-87588">
		<tag k="name" v="Ner-Lomtjønna" />
		<tag k="natural" v="water" />
		<tag k="ssr:stedsnr" v="472437" />
	</node>
	<node lat="63.41915278165926" lon="11.627069453145909" id="-87597">
		<tag k="name" v="Ratbekken" />
		<tag k="ssr:stedsnr" v="473301" />
		<tag k="waterway" v="stream" />
	</node>
	<node lat="63.47377500171783" lon="11.820597220421607" id="-87599">
		<tag k="name" v="Storbekken" />
		<tag k="ssr:stedsnr" v="473448" />
		<tag k="waterway" v="stream" />
	</node>
	<node lat="63.50380833379979" lon="11.863044441661083" id="-87601">
		<tag k="name" v="Kusandbekken" />
		<tag k="ssr:stedsnr" v="473455" />
		<tag k="waterway" v="stream" />
	</node>
	<node lat="63.378247221771225" lon="12.027480560461667" id="-87602">
		<tag k="name" v="Fløytjønna" />
		<tag k="natural" v="water" />
		<tag k="ssr:stedsnr" v="350002" />
	</node>
	<node lat="63.543486113914504" lon="11.87479722167097" id="-87603">
		<tag k="name" v="Båtstøholmen" />
		<tag k="place" v="islet" />
		<tag k="ssr:stedsnr" v="474046" />
	</node>
	<node lat="63.32897461697679" lon="11.631661804393678" id="-87604">
		<tag k="name" v="Bjønnholbekken" />
		<tag k="ssr:stedsnr" v="351609" />
		<tag k="waterway" v="stream" />
	</node>
	<node lat="63.559680556626304" lon="11.945547219282512" id="-87606">
		<tag k="name" v="Nøstervika" />
		<tag k="natural" v="bay" />
		<tag k="ssr:stedsnr" v="474259" />
	</node>
	<node lat="63.55634444681909" lon="11.973238895705318" id="-87608">
		<tag k="name" v="Mettibekken" />
		<tag k="ssr:stedsnr" v="474266" />
		<tag k="waterway" v="stream" />
	</node>
	<node lat="63.56846944359631" lon="11.904400001636457" id="-87613">
		<tag k="name" v="Bubekken" />
		<tag k="ssr:stedsnr" v="474373" />
		<tag k="waterway" v="stream" />
	</node>
	<node lat="63.44077500314568" lon="11.912669448650897" id="-87614">
		<tag k="name" v="Rørvika" />
		<tag k="natural" v="bay" />
		<tag k="ssr:stedsnr" v="353769" />
	</node>
	<node lat="63.490050003703196" lon="11.939613891187792" id="-87644">
		<tag k="name" v="Stormyrvika" />
		<tag k="natural" v="bay" />
		<tag k="ssr:stedsnr" v="391812" />
	</node>
	<node lat="63.54460277703871" lon="11.873341676609469" id="-87652">
		<tag k="name" v="Langsåoset" />
		<tag k="natural" v="bay" />
		<tag k="ssr:stedsnr" v="412043" />
	</node>
	<node lat="63.53762500146582" lon="11.913297224343525" id="-87654">
		<tag k="name" v="Lomtjønna" />
		<tag k="natural" v="water" />
		<tag k="ssr:stedsnr" v="412401" />
	</node>
	<node lat="63.30308611265008" lon="11.63940556187568" id="-87666">
		<tag k="name" v="Gåselva" />
		<tag k="ssr:stedsnr" v="438056" />
		<tag k="waterway" v="river" />
	</node>
	<node lat="63.54781389032047" lon="11.969427780864901" id="-87669">
		<tag k="name" v="Storbekken" />
		<tag k="ssr:stedsnr" v="438362" />
		<tag k="waterway" v="stream" />
	</node>
	<node lat="63.33042777793424" lon="11.648405560368705" id="-87671">
		<tag k="alt_name" v="Lysbekken" />
		<tag k="name" v="Strupbekken" />
		<tag k="ssr:stedsnr" v="438406" />
		<tag k="waterway" v="stream" />
	</node>
	<node lat="63.520583333202985" lon="11.67716944393433" id="-87672">
		<tag k="name" v="Limsteinbekken" />
		<tag k="ssr:stedsnr" v="438469" />
		<tag k="waterway" v="stream" />
	</node>
	<node lat="63.37042222529856" lon="12.019808323717596" id="-87695">
		<tag k="name" v="Vatnstasjonsbekken" />
		<tag k="ssr:stedsnr" v="472003" />
		<tag k="waterway" v="stream" />
	</node>
	<node lat="63.29453888656272" lon="11.897858325734195" id="-87702">
		<tag k="name" v="Kvennhusfossen" />
		<tag k="natural" v="waterfall" />
		<tag k="ssr:stedsnr" v="473421" />
	</node>
	<node lat="63.2061861145321" lon="11.988136117879789" id="-87710">
		<tag k="name" v="Rangla" />
		<tag k="ssr:stedsnr" v="679360" />
		<tag k="waterway" v="river" />
	</node>
	<node lat="63.44356944104698" lon="11.675730563787692" id="-87723">
		<tag k="name" v="Nesholmen" />
		<tag k="place" v="islet" />
		<tag k="ssr:stedsnr" v="680546" />
	</node>
	<node lat="63.203397220039015" lon="11.210372221432085" id="-87727">
		<tag k="name" v="Rotla" />
		<tag k="ssr:stedsnr" v="497095" />
		<tag k="waterway" v="river" />
	</node>
	<node lat="63.455186113371106" lon="12.186738890018972" id="-87730">
		<tag k="name" v="Svenskvika" />
		<tag k="natural" v="bay" />
		<tag k="ssr:stedsnr" v="498017" />
	</node>
	<node lat="63.58244999968278" lon="11.845402780320427" id="-87747">
		<tag k="name" v="Blankberget" />
		<tag k="natural" v="cape" />
		<tag k="ssr:stedsnr" v="681337" />
	</node>
	<node lat="63.595688886891324" lon="12.017627767513556" id="-87748">
		<tag k="name" v="Fremre Sulsjøen" />
		<tag k="natural" v="water" />
		<tag k="old_name" v="Sulsjøan, fremre" />
		<tag k="ssr:stedsnr" v="499257" />
		<tag k="water" v="lake" />
	</node>
	<node lat="63.54472499642582" lon="11.816433326548662" id="-87751">
		<tag k="name" v="Larsvollbekken" />
		<tag k="ssr:stedsnr" v="499305" />
		<tag k="waterway" v="stream" />
	</node>
	<node lat="63.56914166918441" lon="11.867688890067798" id="-87752">
		<tag k="name" v="Oksen" />
		<tag k="natural" v="cape" />
		<tag k="ssr:stedsnr" v="499308" />
	</node>
	<node lat="63.46496111154982" lon="11.860002782608719" id="-87774">
		<tag k="name" v="Midtitjønna" />
		<tag k="natural" v="water" />
		<tag k="ssr:stedsnr" v="529412" />
	</node>
	<node lat="63.36946667068133" lon="11.927969443622763" id="-87775">
		<tag k="name" v="Tågdalsbekken" />
		<tag k="ssr:stedsnr" v="532393" />
		<tag k="waterway" v="stream" />
	</node>
	<node lat="63.50498611325354" lon="11.861636116366963" id="-87779">
		<tag k="name" v="Kusand" />
		<tag k="natural" v="beach" />
		<tag k="ssr:stedsnr" v="534431" />
	</node>
	<node lat="63.48376389162421" lon="11.778208338966346" id="-87781">
		<tag k="name" v="Osbekken" />
		<tag k="ssr:stedsnr" v="534379" />
		<tag k="waterway" v="stream" />
	</node>
	<node lat="63.55389722567437" lon="11.95957222700815" id="-87783">
		<tag k="name" v="Storbekken" />
		<tag k="ssr:stedsnr" v="535268" />
		<tag k="waterway" v="stream" />
	</node>
	<node lat="63.59381944813111" lon="11.729125010309424" id="-87810">
		<tag k="name" v="Oset" />
		<tag k="natural" v="bay" />
		<tag k="ssr:stedsnr" v="559340" />
	</node>
	<node lat="63.53917778102717" lon="11.840813896501121" id="-87813">
		<tag k="name" v="Spakvika" />
		<tag k="natural" v="bay" />
		<tag k="ssr:stedsnr" v="559347" />
	</node>
	<node lat="63.45158333685496" lon="11.607666664687079" id="-87847">
		<tag k="name" v="Brentbekken" />
		<tag k="ssr:stedsnr" v="574248" />
		<tag k="waterway" v="stream" />
	</node>
	<node lat="63.38810833567479" lon="11.937933334384724" id="-87853">
		<tag k="name" v="Bjønntjønnbekken" />
		<tag k="ssr:stedsnr" v="593003" />
		<tag k="waterway" v="stream" />
	</node>
	<node lat="63.303900329317834" lon="11.747421364022612" id="-87855">
		<tag k="name" v="Starrmyrbekken" />
		<tag k="ssr:stedsnr" v="593607" />
		<tag k="waterway" v="stream" />
	</node>
	<node lat="63.316287855526305" lon="11.75017753399145" id="-87856">
		<tag k="name" v="Lusbekken" />
		<tag k="ssr:stedsnr" v="593608" />
		<tag k="waterway" v="stream" />
	</node>
	<node lat="63.31505570736744" lon="11.797388578792745" id="-87857">
		<tag k="name" v="Nyseterbekken" />
		<tag k="ssr:stedsnr" v="593611" />
		<tag k="waterway" v="stream" />
	</node>
	<node lat="63.35505431903242" lon="11.75100031338401" id="-87859">
		<tag k="name" v="Ingridbekken" />
		<tag k="ssr:stedsnr" v="593562" />
		<tag k="waterway" v="stream" />
	</node>
	<node lat="63.40873888846691" lon="11.910941675083535" id="-87875">
		<tag k="name" v="Grønbekken" />
		<tag k="ssr:stedsnr" v="620043" />
		<tag k="waterway" v="stream" />
	</node>
	<node lat="63.521005557407335" lon="11.821580563544002" id="-87902">
		<tag k="name" v="Djuphølbekken" />
		<tag k="ssr:stedsnr" v="704029" />
		<tag k="waterway" v="stream" />
	</node>
	<node lat="63.44989444178973" lon="11.751538886324992" id="-87903">
		<tag k="name" v="Brentmyrbekken" />
		<tag k="ssr:stedsnr" v="704383" />
		<tag k="waterway" v="stream" />
	</node>
	<node lat="63.45095833598916" lon="11.999441673672989" id="-87905">
		<tag k="name" v="Storflovika" />
		<tag k="natural" v="bay" />
		<tag k="ssr:stedsnr" v="634808" />
	</node>
	<node lat="63.48034166245408" lon="11.787980563545961" id="-87909">
		<tag k="name" v="Oset" />
		<tag k="natural" v="bay" />
		<tag k="ssr:stedsnr" v="655409" />
	</node>
	<node lat="63.52013055689128" lon="11.687966663124662" id="-87929">
		<tag k="name" v="Bubekken" />
		<tag k="ssr:stedsnr" v="681475" />
		<tag k="waterway" v="stream" />
	</node>
	<node lat="63.45858333197569" lon="11.867750002740515" id="-87950">
		<tag k="name" v="Rundtjønna" />
		<tag k="natural" v="water" />
		<tag k="ssr:stedsnr" v="894476" />
	</node>
	<node lat="63.383283332980305" lon="11.901016672958745" id="-87951">
		<tag k="name" v="Grønbergdammen" />
		<tag k="natural" v="water" />
		<tag k="ssr:stedsnr" v="695766" />
		<tag k="water" v="lake" />
	</node>
	<node lat="63.42956110856265" lon="11.977049991465867" id="-87952">
		<tag k="name" v="Støyt-Langtjønna" />
		<tag k="natural" v="water" />
		<tag k="ssr:stedsnr" v="695780" />
	</node>
	<node lat="63.45359722405026" lon="11.540427785743576" id="-87953">
		<tag k="name" v="Lunkholmbekken" />
		<tag k="ssr:stedsnr" v="696169" />
		<tag k="waterway" v="stream" />
	</node>
	<node lat="63.362636111984166" lon="11.946469435711434" id="-87955">
		<tag k="name" v="Svartskara" />
		<tag k="natural" v="waterfall" />
		<tag k="ssr:stedsnr" v="897385" />
	</node>
	<node lat="63.354524998168735" lon="11.622099994012249" id="-87956">
		<tag k="name" v="Styggskara" />
		<tag k="ssr:stedsnr" v="897540" />
		<tag k="waterway" v="stream" />
	</node>
	<node lat="63.33387250829732" lon="11.619197211449222" id="-87957">
		<tag k="name" v="Styggskora" />
		<tag k="ssr:stedsnr" v="897579" />
		<tag k="waterway" v="stream" />
	</node>
	<node lat="63.30190833033163" lon="11.872074995285505" id="-87964">
		<tag k="name" v="Vildrastjønna" />
		<tag k="natural" v="water" />
		<tag k="ssr:stedsnr" v="715423" />
	</node>
	<node lat="63.38507499814852" lon="11.886499994057907" id="-87966">
		<tag k="name" v="Helvetet" />
		<tag k="natural" v="waterfall" />
		<tag k="ssr:stedsnr" v="715432" />
	</node>
	<node lat="63.39699999573396" lon="11.917958337696867" id="-87967">
		<tag k="name" v="Torkildsbekken" />
		<tag k="ssr:stedsnr" v="715436" />
		<tag k="waterway" v="stream" />
	</node>
	<node lat="63.29140277951282" lon="11.74358889481585" id="-87972">
		<tag k="name" v="Finntjønna" />
		<tag k="natural" v="water" />
		<tag k="ssr:stedsnr" v="715393" />
		<tag k="water" v="pond" />
	</node>
	<node lat="63.45785000419489" lon="11.95999999185711" id="-87974">
		<tag k="name" v="Nord-Midtsundodden" />
		<tag k="natural" v="cape" />
		<tag k="ssr:stedsnr" v="717770" />
	</node>
	<node lat="63.44606110675276" lon="11.94233332883236" id="-87975">
		<tag k="name" v="Nysetervika" />
		<tag k="place" v="islet" />
		<tag k="ssr:stedsnr" v="717771" />
	</node>
	<node lat="63.48099166524012" lon="11.758977777249848" id="-87979">
		<tag k="name" v="Godalsbekken" />
		<tag k="ssr:stedsnr" v="899398" />
		<tag k="waterway" v="stream" />
	</node>
	<node lat="63.462027780430155" lon="11.600227784876243" id="-88021">
		<tag k="name" v="Haugbekken" />
		<tag k="ssr:stedsnr" v="756154" />
		<tag k="waterway" v="stream" />
	</node>
	<node lat="63.356119448190256" lon="11.967491662927284" id="-88029">
		<tag k="name" v="Skillerdalsbekken" />
		<tag k="ssr:stedsnr" v="775362" />
		<tag k="waterway" v="stream" />
	</node>
	<node lat="63.418769446516144" lon="11.815461115449278" id="-88031">
		<tag k="name" v="Øver-Lomtjønna" />
		<tag k="natural" v="water" />
		<tag k="ssr:stedsnr" v="776418" />
	</node>
	<node lat="63.55109721866309" lon="11.926555556229907" id="-88032">
		<tag k="name" v="Fremre Vargmyrodden" />
		<tag k="natural" v="cape" />
		<tag k="ssr:stedsnr" v="777509" />
	</node>
	<node lat="63.564113886722254" lon="11.966252770478121" id="-88033">
		<tag k="name" v="Bjørgholet" />
		<tag k="place" v="locality" />
		<tag k="ssr:stedsnr" v="778251" />
	</node>
	<node lat="63.56227777786921" lon="11.964733339929778" id="-88034">
		<tag k="name" v="Kvernfossen" />
		<tag k="natural" v="waterfall" />
		<tag k="ssr:stedsnr" v="778253" />
	</node>
	<node lat="63.44039444115795" lon="11.581100003039717" id="-88044">
		<tag k="name" v="Bitbekken" />
		<tag k="ssr:stedsnr" v="802514" />
		<tag k="waterway" v="stream" />
	</node>
	<node lat="63.56957499884802" lon="11.992133329974141" id="-88045">
		<tag k="alt_name" v="Kjølåa" />
		<tag k="name" v="Kjølhaugåa" />
		<tag k="ssr:stedsnr" v="803380" />
		<tag k="waterway" v="river" />
	</node>
	<node lat="63.29966666318507" lon="11.792419439293715" id="-88093">
		<tag k="name" v="Majorsbekken" />
		<tag k="ssr:stedsnr" v="836330" />
		<tag k="waterway" v="stream" />
	</node>
	<node lat="63.331602777334616" lon="11.908833340162415" id="-88094">
		<tag k="name" v="Rundtjønna" />
		<tag k="natural" v="water" />
		<tag k="ssr:stedsnr" v="836227" />
	</node>
	<node lat="63.54997500043995" lon="11.923499990486809" id="-88100">
		<tag k="name" v="Kuøra" />
		<tag k="natural" v="beach" />
		<tag k="ssr:stedsnr" v="838533" />
	</node>
	<node lat="63.46489722114432" lon="11.89853610376268" id="-88112">
		<tag k="name" v="Vassmustunga" />
		<tag k="natural" v="cape" />
		<tag k="ssr:stedsnr" v="863111" />
	</node>
	<node lat="63.455444448503435" lon="12.021088881285003" id="-88146">
		<tag k="name" v="Vester-Kaukodden" />
		<tag k="natural" v="cape" />
		<tag k="ssr:stedsnr" v="896265" />
	</node>
	<node lat="63.29449167051355" lon="11.973802769739917" id="-88148">
		<tag k="name" v="Øver-Langtjønna" />
		<tag k="natural" v="water" />
		<tag k="ssr:stedsnr" v="896276" />
	</node>
	<node lat="63.54250833778379" lon="11.864433328800056" id="-88154">
		<tag k="name" v="Koiøra" />
		<tag k="natural" v="shoal" />
		<tag k="place" v="locality" />
		<tag k="ssr:stedsnr" v="899055" />
	</node>
	<node lat="63.28455278040104" lon="11.921369434958843" id="-88198">
		<tag k="name" v="Stokkflobekken" />
		<tag k="ssr:stedsnr" v="958416" />
		<tag k="waterway" v="stream" />
	</node>
	<node lat="63.411041663897755" lon="11.807538885527574" id="-88200">
		<tag k="name" v="Lomtjønnbekken" />
		<tag k="ssr:stedsnr" v="958486" />
		<tag k="waterway" v="stream" />
	</node>
	<node lat="63.54975832988894" lon="11.923116673174027" id="-88204">
		<tag k="name" v="Kuodden" />
		<tag k="natural" v="cape" />
		<tag k="ssr:stedsnr" v="960508" />
	</node>
	<node lat="63.46191388544158" lon="12.159619451568492" id="-88214">
		<tag k="name" v="Hallsjøen" />
		<tag k="name:no" v="Hallsjøen" />
		<tag k="name:sma" v="Lihpiejaevrie" />
		<tag k="natural" v="water" />
		<tag k="ssr:stedsnr" v="13129" />
		<tag k="water" v="lake" />
	</node>
	<node lat="63.580888887767784" lon="11.723208337209103" id="-88222">
		<tag k="name" v="Skravla" />
		<tag k="ssr:stedsnr" v="13380" />
		<tag k="waterway" v="stream" />
	</node>
	<node lat="63.57216088356162" lon="11.885914179450973" id="-88232">
		<tag k="name" v="Inndalsbekken" />
		<tag k="ssr:stedsnr" v="14294" />
		<tag k="waterway" v="stream" />
	</node>
	<node lat="63.356552777888865" lon="11.850380549680075" id="-88265">
		<tag k="name" v="Veltvollbekken" />
		<tag k="ssr:stedsnr" v="47430" />
		<tag k="waterway" v="stream" />
	</node>
	<node lat="63.38986110850149" lon="11.871591676019454" id="-88268">
		<tag k="name" v="Bjørholsbekken" />
		<tag k="ssr:stedsnr" v="48381" />
		<tag k="waterway" v="stream" />
	</node>
	<node lat="63.319158637187435" lon="11.614631612945487" id="-88274">
		<tag k="name" v="Tjurubekken" />
		<tag k="ssr:stedsnr" v="48589" />
		<tag k="waterway" v="stream" />
	</node>
	<node lat="63.54963611126545" lon="11.82848056527867" id="-88277">
		<tag k="name" v="Småøran" />
		<tag k="natural" v="shoal" />
		<tag k="place" v="locality" />
		<tag k="ssr:stedsnr" v="49052" />
	</node>
	<node lat="63.50566389153498" lon="11.85116666653644" id="-88283">
		<tag k="name" v="Svartvika" />
		<tag k="natural" v="bay" />
		<tag k="ssr:stedsnr" v="49456" />
	</node>
	<node lat="63.55110555428778" lon="11.896530556470069" id="-88284">
		<tag k="name" v="Ingebrigtsodden" />
		<tag k="natural" v="cape" />
		<tag k="ssr:stedsnr" v="49507" />
	</node>
	<node lat="63.55192500345436" lon="11.931755556919386" id="-88285">
		<tag k="name" v="Vargmyrodden" />
		<tag k="natural" v="cape" />
		<tag k="ssr:stedsnr" v="49530" />
	</node>
	<node lat="63.33321944884405" lon="11.883447223590327" id="-88314">
		<tag k="name" v="Ytter-Ståløybekken" />
		<tag k="ssr:stedsnr" v="74200" />
		<tag k="waterway" v="stream" />
	</node>
	<node lat="63.37622777653776" lon="11.670077778495976" id="-88316">
		<tag k="name" v="Storbekken" />
		<tag k="ssr:stedsnr" v="74385" />
		<tag k="waterway" v="stream" />
	</node>
	<node lat="63.46933055296532" lon="11.976183337846827" id="-88325">
		<tag k="name" v="Svarttjønnbekken" />
		<tag k="ssr:stedsnr" v="229273" />
		<tag k="waterway" v="stream" />
	</node>
	<node lat="63.26817499774802" lon="11.789997230371462" id="-88326">
		<tag k="name" v="Steinmyrbekken" />
		<tag k="ssr:stedsnr" v="229368" />
		<tag k="waterway" v="stream" />
	</node>
	<node lat="63.51858333495069" lon="11.854550002390955" id="-88353">
		<tag k="name" v="Krabbtjønnbekken" />
		<tag k="ssr:stedsnr" v="97001" />
		<tag k="waterway" v="stream" />
	</node>
	<node lat="63.393925004466226" lon="11.510441667176059" id="-88358">
		<tag k="name" v="Rundtjønnin" />
		<tag k="natural" v="water" />
		<tag k="ssr:stedsnr" v="108571" />
	</node>
	<node lat="63.35186666314035" lon="11.983688895574756" id="-88360">
		<tag k="name" v="Hansbubekken" />
		<tag k="ssr:stedsnr" v="108430" />
		<tag k="waterway" v="stream" />
	</node>
	<node lat="63.39304722132539" lon="11.921616671009508" id="-88368">
		<tag k="name" v="Brattåsbekken" />
		<tag k="ssr:stedsnr" v="109418" />
		<tag k="waterway" v="stream" />
	</node>
	<node lat="63.54010277578842" lon="11.859963887361332" id="-88369">
		<tag k="name" v="Bakkøra" />
		<tag k="natural" v="shoal" />
		<tag k="place" v="locality" />
		<tag k="ssr:stedsnr" v="110038" />
	</node>
	<node lat="63.54115278065451" lon="11.857752783600898" id="-88370">
		<tag k="name" v="Persøra" />
		<tag k="natural" v="shoal" />
		<tag k="place" v="locality" />
		<tag k="ssr:stedsnr" v="110043" />
	</node>
	<node lat="63.59236666553077" lon="12.135411120062106" id="-88383">
		<tag k="name" v="Reinstangen" />
		<tag k="natural" v="cape" />
		<tag k="ssr:stedsnr" v="120156" />
	</node>
	<node lat="63.478741667110306" lon="12.053713883364841" id="-88392">
		<tag k="name" v="Nordelva" />
		<tag k="ssr:stedsnr" v="134124" />
		<tag k="waterway" v="river" />
	</node>
	<node lat="63.3648805559635" lon="11.74642499024151" id="-88397">
		<tag k="name" v="Svartvatna" />
		<tag k="natural" v="water" />
		<tag k="ssr:stedsnr" v="134224" />
	</node>
	<node lat="63.46637777901989" lon="11.554333327575538" id="-88411">
		<tag k="name" v="Trobekken" />
		<tag k="ssr:stedsnr" v="134349" />
		<tag k="waterway" v="stream" />
	</node>
	<node lat="63.553691663344644" lon="11.90655555814392" id="-88417">
		<tag k="name" v="Storåsodden" />
		<tag k="natural" v="cape" />
		<tag k="ssr:stedsnr" v="135350" />
	</node>
	<node lat="63.532008332628315" lon="11.816891670861423" id="-88449">
		<tag k="name" v="Hansvollbekken" />
		<tag k="ssr:stedsnr" v="158046" />
		<tag k="waterway" v="stream" />
	</node>
	<node lat="63.42340833135277" lon="11.62247777422011" id="-88451">
		<tag k="name" v="Styggdalstjønna" />
		<tag k="natural" v="water" />
		<tag k="ssr:stedsnr" v="169268" />
	</node>
	<node lat="63.320569444227644" lon="11.92338610423881" id="-88458">
		<tag k="name" v="Svekkusbekken" />
		<tag k="ssr:stedsnr" v="169390" />
		<tag k="waterway" v="stream" />
	</node>
	<node lat="63.46781111427367" lon="12.00692776916934" id="-88459">
		<tag k="name" v="Steinkleivvika" />
		<tag k="natural" v="bay" />
		<tag k="ssr:stedsnr" v="169244" />
	</node>
	<node lat="63.54004721943745" lon="11.930233342602053" id="-88461">
		<tag k="name" v="Tjønnvolltjønna" />
		<tag k="natural" v="water" />
		<tag k="ssr:stedsnr" v="169441" />
	</node>
	<node lat="63.38603055770197" lon="11.50226388854745" id="-88464">
		<tag k="name" v="Bubekken" />
		<tag k="ssr:stedsnr" v="169546" />
		<tag k="waterway" v="stream" />
	</node>
	<node lat="63.45604722386544" lon="11.963069445725411" id="-88466">
		<tag k="name" v="Midtsundskjæret" />
		<tag k="place" v="islet" />
		<tag k="ssr:stedsnr" v="170778" />
	</node>
	<node lat="63.192577780682896" lon="11.745191668642962" id="-88475">
		<tag k="name" v="Finnkoisjøen" />
		<tag k="natural" v="water" />
		<tag k="ssr:stedsnr" v="194179" />
		<tag k="water" v="lake" />
	</node>
	<node lat="63.49671944226611" lon="11.928258326146358" id="-88488">
		<tag k="name" v="Kaukodden" />
		<tag k="natural" v="cape" />
		<tag k="ssr:stedsnr" v="195122" />
	</node>
	<node lat="63.191738886569965" lon="11.672047215394326" id="-88494">
		<tag k="name" v="Ramskardbekken" />
		<tag k="ssr:stedsnr" v="195228" />
		<tag k="waterway" v="stream" />
	</node>
	<node lat="63.36902499736441" lon="12.091786120623935" id="-88541">
		<tag k="name" v="Stavtjønna" />
		<tag k="natural" v="water" />
		<tag k="ssr:stedsnr" v="210792" />
	</node>
	<node lat="63.4949000029245" lon="11.911958329213112" id="-88542">
		<tag k="name" v="Fossbekken" />
		<tag k="ssr:stedsnr" v="210796" />
		<tag k="waterway" v="stream" />
	</node>
	<node lat="63.48745000207908" lon="12.04811665762228" id="-88543">
		<tag k="name" v="Storbekken" />
		<tag k="ssr:stedsnr" v="210804" />
		<tag k="waterway" v="stream" />
	</node>
	<node lat="63.457411113929254" lon="11.827602775882768" id="-88553">
		<tag k="name" v="Fildalsbekken" />
		<tag k="ssr:stedsnr" v="287465" />
		<tag k="waterway" v="stream" />
	</node>
	<node lat="63.259730557454674" lon="11.795997219806253" id="-88555">
		<tag k="name" v="Midtiøybekken" />
		<tag k="ssr:stedsnr" v="290355" />
		<tag k="waterway" v="stream" />
	</node>
	<node lat="63.33034488196363" lon="11.625972789873273" id="-88556">
		<tag k="name" v="Bubekken" />
		<tag k="ssr:stedsnr" v="290559" />
		<tag k="waterway" v="stream" />
	</node>
	<node lat="63.27982500408666" lon="11.904175006870659" id="-88561">
		<tag k="name" v="Vakkerlibekken" />
		<tag k="ssr:stedsnr" v="291421" />
		<tag k="waterway" v="stream" />
	</node>
	<node lat="63.54655833660429" lon="11.883744453918789" id="-88565">
		<tag k="name" v="Kusin" />
		<tag k="natural" v="beach" />
		<tag k="ssr:stedsnr" v="292456" />
	</node>
	<node lat="63.45246944891446" lon="11.968208328448199" id="-88567">
		<tag k="name" v="Midtsundholmen" />
		<tag k="place" v="islet" />
		<tag k="ssr:stedsnr" v="292755" />
	</node>
	<node lat="63.435283333123685" lon="11.910600006550244" id="-88569">
		<tag k="name" v="Oset" />
		<tag k="natural" v="bay" />
		<tag k="ssr:stedsnr" v="293790" />
	</node>
	<node lat="63.302036111963886" lon="11.576611109039717" id="-88572">
		<tag k="name" v="Tverrelva" />
		<tag k="ssr:stedsnr" v="316079" />
		<tag k="waterway" v="stream" />
	</node>
	<node lat="63.32790832992305" lon="11.798144442574667" id="-88578">
		<tag k="name" v="Meåsbekken" />
		<tag k="ssr:stedsnr" v="316229" />
		<tag k="waterway" v="stream" />
	</node>
	<node lat="63.465647221337484" lon="12.046922223594445" id="-88587">
		<tag k="alt_name" v="Naustadodden" />
		<tag k="name" v="Kreklingodden" />
		<tag k="natural" v="cape" />
		<tag k="ssr:stedsnr" v="317094" />
	</node>
	<node lat="63.46262500195708" lon="11.970525003476412" id="-88588">
		<tag k="name" v="Svartbekkvika" />
		<tag k="natural" v="bay" />
		<tag k="ssr:stedsnr" v="317098" />
	</node>
	<node lat="63.59270278095248" lon="12.125641660455006" id="-88591">
		<tag k="name" v="Storsjøen" />
		<tag k="natural" v="water" />
		<tag k="ssr:stedsnr" v="317313" />
		<tag k="water" v="lake" />
	</node>
	<node lat="63.56171388779615" lon="11.96263611409272" id="-88593">
		<tag k="name" v="Sulåa" />
		<tag k="ssr:stedsnr" v="317335" />
		<tag k="waterway" v="river" />
	</node>
	<node lat="63.41311944340996" lon="12.098102785604098" id="-88625">
		<tag k="name" v="Hårråtjønna" />
		<tag k="natural" v="water" />
		<tag k="ssr:stedsnr" v="331785" />
	</node>
	<node lat="63.38384999546584" lon="12.093025009413628" id="-88626">
		<tag k="name" v="Skillertjønna" />
		<tag k="natural" v="water" />
		<tag k="ssr:stedsnr" v="331793" />
	</node>
	<node lat="63.42202499891815" lon="11.866072227848901" id="-88638">
		<tag k="name" v="Storåsbekken" />
		<tag k="ssr:stedsnr" v="351421" />
		<tag k="waterway" v="stream" />
	</node>
	<node lat="63.55213611423349" lon="11.934616657860245" id="-88645">
		<tag k="name" v="Østre Vargmyrodden" />
		<tag k="natural" v="cape" />
		<tag k="ssr:stedsnr" v="352494" />
	</node>
	<node lat="63.45275277433264" lon="11.971469443158954" id="-88646">
		<tag k="name" v="Sør-Midtsundodden" />
		<tag k="natural" v="cape" />
		<tag k="ssr:stedsnr" v="352736" />
	</node>
	<node lat="63.37874166837961" lon="11.504247214865762" id="-88650">
		<tag k="name" v="Tørrfuruoddbekken" />
		<tag k="ssr:stedsnr" v="353650" />
		<tag k="waterway" v="stream" />
	</node>
	<node lat="63.608425002028845" lon="11.789808326078159" id="-88673">
		<tag k="name" v="Minsåsbekken" />
		<tag k="ssr:stedsnr" v="377359" />
		<tag k="waterway" v="stream" />
	</node>
	<node lat="63.540880555599784" lon="11.85144722141275" id="-88710">
		<tag k="name" v="Nøstervika" />
		<tag k="natural" v="bay" />
		<tag k="ssr:stedsnr" v="401017" />
	</node>
	<node lat="63.36453055864826" lon="12.03696944595223" id="-88713">
		<tag k="name" v="Storbekken" />
		<tag k="ssr:stedsnr" v="411026" />
		<tag k="waterway" v="stream" />
	</node>
	<node lat="63.37025555383316" lon="11.99344999458475" id="-88714">
		<tag k="name" v="Ivarsbekken" />
		<tag k="ssr:stedsnr" v="411381" />
		<tag k="waterway" v="stream" />
	</node>
	<node lat="63.411008336944874" lon="11.823733341790563" id="-88717">
		<tag k="name" v="Skarbekken" />
		<tag k="ssr:stedsnr" v="412423" />
		<tag k="waterway" v="stream" />
	</node>
	<node lat="63.47907222303112" lon="11.794141657279738" id="-88729">
		<tag k="name" v="Skalbekken" />
		<tag k="ssr:stedsnr" v="413453" />
		<tag k="waterway" v="stream" />
	</node>
	<node lat="63.24615000164379" lon="11.81901667209991" id="-88734">
		<tag k="name" v="Hårråa" />
		<tag k="ssr:stedsnr" v="437398" />
		<tag k="waterway" v="river" />
	</node>
	<node lat="63.36256666758477" lon="12.012900006981" id="-88735">
		<tag k="name" v="Skurdalsåa" />
		<tag k="ssr:stedsnr" v="437218" />
		<tag k="waterway" v="stream" />
	</node>
	<node lat="63.244233333252254" lon="11.571858325345119" id="-88737">
		<tag k="name" v="Bjørnlibekken" />
		<tag k="ssr:stedsnr" v="437231" />
		<tag k="waterway" v="stream" />
	</node>
	<node lat="63.235305558928324" lon="11.610475002150647" id="-88738">
		<tag k="name" v="Sauåa" />
		<tag k="ssr:stedsnr" v="437236" />
		<tag k="waterway" v="stream" />
	</node>
	<node lat="63.45381610641027" lon="11.950103159406178" id="-88744">
		<tag k="name" v="Fjergen" />
		<tag k="natural" v="water" />
		<tag k="ssr:stedsnr" v="438106" />
		<tag k="water" v="lake" />
	</node>
	<node lat="63.48420277370851" lon="11.751208341755552" id="-88753">
		<tag k="name" v="Lauvlihaugbekken" />
		<tag k="ssr:stedsnr" v="438082" />
		<tag k="waterway" v="stream" />
	</node>
	<node lat="63.334749999901675" lon="11.754061110032064" id="-88756">
		<tag k="name" v="Vatnelva" />
		<tag k="ssr:stedsnr" v="438197" />
		<tag k="waterway" v="river" />
	</node>
	<node lat="63.61893610977709" lon="11.836841660464477" id="-88760">
		<tag k="name" v="Guddingselva" />
		<tag k="ssr:stedsnr" v="438327" />
		<tag k="waterway" v="stream" />
	</node>
	<node lat="63.22081944347052" lon="11.746336110435749" id="-88790">
		<tag k="name" v="Djupdalsbekken" />
		<tag k="ssr:stedsnr" v="497382" />
		<tag k="waterway" v="stream" />
	</node>
	<node lat="63.58122500069513" lon="11.856769445265012" id="-88808">
		<tag k="name" v="Steinsvika" />
		<tag k="natural" v="bay" />
		<tag k="ssr:stedsnr" v="499277" />
	</node>
	<node lat="63.342650001275416" lon="11.897941665989917" id="-88834">
		<tag k="name" v="Gruvtjønna" />
		<tag k="natural" v="water" />
		<tag k="ssr:stedsnr" v="513787" />
	</node>
	<node lat="63.438719448036984" lon="11.964777785387353" id="-88835">
		<tag k="name" v="Støyttjønna" />
		<tag k="natural" v="water" />
		<tag k="ssr:stedsnr" v="513800" />
	</node>
	<node lat="63.45157778075455" lon="12.053030561225244" id="-88845">
		<tag k="name" v="Storbekken" />
		<tag k="ssr:stedsnr" v="533258" />
		<tag k="waterway" v="stream" />
	</node>
	<node lat="63.37434699995627" lon="11.771544485922163" id="-88848">
		<tag k="name" v="Røsåsbekken" />
		<tag k="ssr:stedsnr" v="533627" />
		<tag k="waterway" v="stream" />
	</node>
	<node lat="63.313972222516924" lon="11.925944451313656" id="-88850">
		<tag k="name" v="Djupbekken" />
		<tag k="ssr:stedsnr" v="533397" />
		<tag k="waterway" v="stream" />
	</node>
	<node lat="63.352183331317384" lon="11.829730561355044" id="-88851">
		<tag k="name" v="Sneidammen" />
		<tag k="natural" v="water" />
		<tag k="ssr:stedsnr" v="533432" />
		<tag k="water" v="lake" />
	</node>
	<node lat="63.367936110244216" lon="11.506749999918007" id="-88852">
		<tag k="name" v="Storåsvika" />
		<tag k="natural" v="bay" />
		<tag k="ssr:stedsnr" v="533554" />
	</node>
	<node lat="63.55287499930204" lon="11.90057777101758" id="-88854">
		<tag k="name" v="Ingebrigtsøra" />
		<tag k="natural" v="shoal" />
		<tag k="place" v="locality" />
		<tag k="ssr:stedsnr" v="534476" />
	</node>
	<node lat="63.26676944695881" lon="11.851116659341999" id="-88857">
		<tag k="name" v="Storbekken" />
		<tag k="ssr:stedsnr" v="558183" />
		<tag k="waterway" v="stream" />
	</node>
	<node lat="63.398999999551414" lon="11.980225001373421" id="-88865">
		<tag k="name" v="Flobekken" />
		<tag k="ssr:stedsnr" v="559068" />
		<tag k="waterway" v="stream" />
	</node>
	<node lat="63.53216666853195" lon="11.904163888386693" id="-88867">
		<tag k="name" v="Langsåa" />
		<tag k="ssr:stedsnr" v="559184" />
		<tag k="waterway" v="river" />
	</node>
	<node lat="63.51271388834651" lon="11.86236944634589" id="-88899">
		<tag k="name" v="Svamptjønna" />
		<tag k="natural" v="water" />
		<tag k="ssr:stedsnr" v="583026" />
	</node>
	<node lat="63.35063889243624" lon="12.077488879429056" id="-88905">
		<tag k="name" v="Skartjønna" />
		<tag k="natural" v="water" />
		<tag k="ssr:stedsnr" v="593028" />
	</node>
	<node lat="63.50879721899859" lon="11.860569442298234" id="-88910">
		<tag k="name" v="Oset" />
		<tag k="natural" v="bay" />
		<tag k="ssr:stedsnr" v="595424" />
	</node>
	<node lat="63.280397223075745" lon="11.89349722841759" id="-88913">
		<tag k="name" v="Toppøybekken" />
		<tag k="ssr:stedsnr" v="594393" />
		<tag k="waterway" v="stream" />
	</node>
	<node lat="63.277924997681296" lon="11.771255551858696" id="-88928">
		<tag k="name" v="Svartåa" />
		<tag k="ssr:stedsnr" v="620226" />
		<tag k="waterway" v="stream" />
	</node>
	<node lat="63.48383888489581" lon="11.926905552672094" id="-88932">
		<tag k="name" v="Langen" />
		<tag k="natural" v="water" />
		<tag k="ssr:stedsnr" v="620093" />
		<tag k="water" v="lake" />
	</node>
	<node lat="63.59842499690478" lon="11.754275002453355" id="-88934">
		<tag k="name" v="Trysilodden" />
		<tag k="natural" v="cape" />
		<tag k="ssr:stedsnr" v="620336" />
	</node>
	<node lat="63.460036114723735" lon="11.544361119711844" id="-88968">
		<tag k="name" v="Trobekkneset" />
		<tag k="natural" v="cape" />
		<tag k="ssr:stedsnr" v="634167" />
	</node>
	<node lat="63.33207777760455" lon="11.915522225493389" id="-88975">
		<tag k="name" v="Midtitjønna" />
		<tag k="natural" v="water" />
		<tag k="ssr:stedsnr" v="653253" />
	</node>
	<node lat="63.34576137740989" lon="11.6989229026698" id="-88979">
		<tag k="name" v="Bjørknesvollbekken" />
		<tag k="ssr:stedsnr" v="654591" />
		<tag k="waterway" v="stream" />
	</node>
	<node lat="63.339428624362085" lon="11.626979970102159" id="-88981">
		<tag k="name" v="Samsikabekken" />
		<tag k="ssr:stedsnr" v="654624" />
		<tag k="waterway" v="stream" />
	</node>
	<node lat="63.320271370770406" lon="11.637013517291578" id="-88982">
		<tag k="name" v="Laråslibekken" />
		<tag k="ssr:stedsnr" v="654630" />
		<tag k="waterway" v="stream" />
	</node>
	<node lat="63.468672217928244" lon="11.793550009334496" id="-88985">
		<tag k="name" v="Summulgråbekken" />
		<tag k="ssr:stedsnr" v="655378" />
		<tag k="waterway" v="stream" />
	</node>
	<node lat="63.5622500007725" lon="11.922341665825646" id="-88988">
		<tag k="name" v="Åmotvika" />
		<tag k="natural" v="bay" />
		<tag k="ssr:stedsnr" v="656352" />
	</node>
	<node lat="63.472741662691895" lon="12.0582083323929" id="-89000">
		<tag k="name" v="Markøybekken" />
		<tag k="ssr:stedsnr" v="715289" />
		<tag k="waterway" v="stream" />
	</node>
	<node lat="63.47499166339479" lon="12.046772222925979" id="-89001">
		<tag k="name" v="Nordelvoset" />
		<tag k="natural" v="bay" />
		<tag k="ssr:stedsnr" v="715291" />
	</node>
	<node lat="63.46844166767951" lon="11.633261114421456" id="-89002">
		<tag k="name" v="Damtjønna" />
		<tag k="natural" v="water" />
		<tag k="ssr:stedsnr" v="715318" />
	</node>
	<node lat="63.420086107668716" lon="11.851536109621852" id="-89006">
		<tag k="name" v="Skarbekken" />
		<tag k="ssr:stedsnr" v="715465" />
		<tag k="waterway" v="stream" />
	</node>
	<node lat="63.37968055391633" lon="11.50841111242763" id="-89008">
		<tag k="name" v="Svahyllbekken nordre" />
		<tag k="ssr:stedsnr" v="715558" />
		<tag k="waterway" v="stream" />
	</node>
	<node lat="63.334749999901675" lon="11.754061110032064" id="-89011">
		<tag k="name" v="Kjerringåsbekken" />
		<tag k="ssr:stedsnr" v="715646" />
		<tag k="waterway" v="stream" />
	</node>
	<node lat="63.54393333758852" lon="11.857369454327202" id="-89013">
		<tag k="name" v="Storøra" />
		<tag k="natural" v="shoal" />
		<tag k="place" v="locality" />
		<tag k="ssr:stedsnr" v="717021" />
	</node>
	<node lat="63.276494447870405" lon="11.682208327400016" id="-89032">
		<tag k="name" v="Gåsbekken" />
		<tag k="ssr:stedsnr" v="741123" />
		<tag k="waterway" v="stream" />
	</node>
	<node lat="63.29730832996142" lon="11.972744451378768" id="-89040">
		<tag k="name" v="Hansbekken" />
		<tag k="ssr:stedsnr" v="741272" />
		<tag k="waterway" v="stream" />
	</node>
	<node lat="63.39016666664459" lon="11.523180558394735" id="-89046">
		<tag k="name" v="Bithammerbekken" />
		<tag k="ssr:stedsnr" v="741467" />
		<tag k="waterway" v="stream" />
	</node>
	<node lat="63.37436110842159" lon="11.89522499637313" id="-89072">
		<tag k="name" v="Fjellåsbekken" />
		<tag k="ssr:stedsnr" v="775373" />
		<tag k="waterway" v="stream" />
	</node>
	<node lat="63.266538891359986" lon="11.798738898655694" id="-89074">
		<tag k="name" v="Gilsådammen" />
		<tag k="natural" v="water" />
		<tag k="ssr:stedsnr" v="775329" />
		<tag k="water" v="lake" />
	</node>
	<node lat="63.42178888473974" lon="11.658033334851206" id="-89077">
		<tag k="name" v="Nesvollbekken" />
		<tag k="ssr:stedsnr" v="776258" />
		<tag k="waterway" v="stream" />
	</node>
	<node lat="63.29796920490697" lon="11.75196473819877" id="-89082">
		<tag k="name" v="Murrukvisttjønnin" />
		<tag k="natural" v="water" />
		<tag k="ssr:stedsnr" v="776597" />
	</node>
	<node lat="63.476327773718246" lon="11.840852768400188" id="-89085">
		<tag k="name" v="Utstuggutjønna" />
		<tag k="natural" v="water" />
		<tag k="ssr:stedsnr" v="777415" />
	</node>
	<node lat="63.45877222618198" lon="11.93850278027116" id="-89091">
		<tag k="name" v="Gåsholmen" />
		<tag k="natural" v="shoal" />
		<tag k="place" v="locality" />
		<tag k="ssr:stedsnr" v="778756" />
	</node>
	<node lat="63.43779999617951" lon="11.914169450777072" id="-89093">
		<tag k="name" v="Sagvika" />
		<tag k="natural" v="bay" />
		<tag k="ssr:stedsnr" v="778760" />
	</node>
	<node lat="63.248766667945084" lon="11.605533334497503" id="-89096">
		<tag k="name" v="Skardbekken" />
		<tag k="ssr:stedsnr" v="801199" />
		<tag k="waterway" v="stream" />
	</node>
	<node lat="63.223250001880395" lon="11.731577775283975" id="-89097">
		<tag k="name" v="Storbekken" />
		<tag k="ssr:stedsnr" v="801591" />
		<tag k="waterway" v="stream" />
	</node>
	<node lat="63.53420555765096" lon="11.835963879088073" id="-89111">
		<tag k="name" v="Fersbekken" />
		<tag k="ssr:stedsnr" v="803135" />
		<tag k="waterway" v="stream" />
	</node>
	<node lat="63.343602775546465" lon="11.837169451287926" id="-89148">
		<tag k="name" v="Tjønnfloen" />
		<tag k="natural" v="water" />
		<tag k="ssr:stedsnr" v="836384" />
		<tag k="water" v="pond" />
	</node>
	<node lat="63.423980553549775" lon="11.646547226742271" id="-89151">
		<tag k="name" v="Kvennbekken" />
		<tag k="ssr:stedsnr" v="837291" />
		<tag k="waterway" v="stream" />
	</node>
	<node lat="63.37218055901421" lon="11.9202055601277" id="-89154">
		<tag k="name" v="Kvartsbrottbekken" />
		<tag k="ssr:stedsnr" v="836370" />
		<tag k="waterway" v="stream" />
	</node>
	<node lat="63.468211115198464" lon="12.008116662797933" id="-89156">
		<tag k="name" v="Steinkleivodden" />
		<tag k="natural" v="cape" />
		<tag k="ssr:stedsnr" v="837261" />
	</node>
	<node lat="63.55255555838492" lon="11.82973612143506" id="-89161">
		<tag k="name" v="Belingøra" />
		<tag k="natural" v="shoal" />
		<tag k="place" v="locality" />
		<tag k="ssr:stedsnr" v="838057" />
	</node>
	<node lat="63.573274998031565" lon="12.002538886644729" id="-89165">
		<tag k="name" v="Innerøyin" />
		<tag k="place" v="islet" />
		<tag k="ssr:stedsnr" v="839274" />
	</node>
	<node lat="63.13498611500115" lon="11.728891661736242" id="-89179">
		<tag k="alt_name" v="Lødøja" />
		<tag k="name" v="Lødølja" />
		<tag k="ssr:stedsnr" v="862276" />
		<tag k="waterway" v="river" />
	</node>
	<node lat="63.486430557541055" lon="11.94207500519445" id="-89185">
		<tag k="name" v="Ørbekkvika" />
		<tag k="natural" v="bay" />
		<tag k="ssr:stedsnr" v="863095" />
	</node>
	<node lat="63.419527777268215" lon="11.90592499165557" id="-89188">
		<tag k="name" v="Nydammen" />
		<tag k="natural" v="water" />
		<tag k="ssr:stedsnr" v="863016" />
	</node>
	<node lat="63.25750832895504" lon="11.88692500104293" id="-89239">
		<tag k="name" v="Røsthaugtjønna" />
		<tag k="natural" v="water" />
		<tag k="ssr:stedsnr" v="877793" />
	</node>
	<node lat="63.42193055690049" lon="12.107233335772404" id="-89243">
		<tag k="name" v="Kjerringtjønna" />
		<tag k="natural" v="water" />
		<tag k="ssr:stedsnr" v="938795" />
	</node>
	<node lat="63.51635277877833" lon="11.85460832683918" id="-89246">
		<tag k="name" v="Krabbtjønna" />
		<tag k="natural" v="water" />
		<tag k="ssr:stedsnr" v="947025" />
	</node>
	<node lat="63.30634836876131" lon="11.79169371512659" id="-89252">
		<tag k="name" v="Hellåsbubekken" />
		<tag k="ssr:stedsnr" v="958659" />
		<tag k="waterway" v="stream" />
	</node>
	<node lat="63.33480386507141" lon="11.767765383909842" id="-89253">
		<tag k="name" v="Tolåsbekken" />
		<tag k="ssr:stedsnr" v="958675" />
		<tag k="waterway" v="stream" />
	</node>
	<node lat="63.46873333727729" lon="12.05094722568515" id="-89254">
		<tag k="name" v="Sørelvoset" />
		<tag k="natural" v="bay" />
		<tag k="ssr:stedsnr" v="958282" />
	</node>
	<node lat="63.30001666920213" lon="11.912461105782722" id="-89255">
		<tag k="name" v="Køydalbekken" />
		<tag k="ssr:stedsnr" v="958389" />
		<tag k="waterway" v="stream" />
	</node>
	<node lat="63.40036110982916" lon="11.871252774507637" id="-89256">
		<tag k="name" v="Spennmyrbekken" />
		<tag k="ssr:stedsnr" v="958427" />
		<tag k="waterway" v="stream" />
	</node>
	<node lat="63.3554527745222" lon="11.507488880877954" id="-89261">
		<tag k="name" v="Svahyllbekken østre" />
		<tag k="ssr:stedsnr" v="958571" />
		<tag k="waterway" v="stream" />
	</node>
	<node lat="63.49766111017878" lon="11.821205561312173" id="-89263">
		<tag k="name" v="Bubekken" />
		<tag k="ssr:stedsnr" v="959381" />
		<tag k="waterway" v="stream" />
	</node>
</osm>
