<?xml version="1.0" encoding="UTF-8"?>
<osm version="0.6" generator="osmapis">
	<node lat="63.53996944202388" lon="11.91693889222849" id="-87227">
		<tag k="landuse" v="meadow" />
		<tag k="name" v="Høgkjerringkjølen" />
		<tag k="ssr:stedsnr" v="231561" />
	</node>
	<node lat="63.53647222635797" lon="11.85104444619682" id="-87271">
		<tag k="name" v="Lomtjønnfloen" />
		<tag k="natural" v="wetland" />
		<tag k="ssr:stedsnr" v="37015" />
	</node>
	<node lat="63.55006389159757" lon="11.935772218861183" id="-87287">
		<tag k="name" v="Heimvegfloan" />
		<tag k="natural" v="wetland" />
		<tag k="ssr:stedsnr" v="48423" />
	</node>
	<node lat="63.44580833481919" lon="11.88003888407997" id="-87302">
		<tag k="historic" v="shieling" />
		<tag k="name" v="Vikvollen" />
		<tag k="place" v="locality" />
		<tag k="ssr:stedsnr" v="74011" />
	</node>
	<node lat="63.39264444022492" lon="11.88124721584089" id="-87353">
		<tag k="historic" v="shieling" />
		<tag k="name" v="Nyvollen" />
		<tag k="place" v="locality" />
		<tag k="ssr:stedsnr" v="109391" />
	</node>
	<node lat="63.5485499966418" lon="11.918441669268226" id="-87356">
		<tag k="landuse" v="meadow" />
		<tag k="name" v="Jobåtstøen" />
		<tag k="ssr:stedsnr" v="110521" />
	</node>
	<node lat="63.435255551286446" lon="11.694808342329717" id="-87376">
		<tag k="name" v="Kalvtrøa" />
		<tag k="place" v="locality" />
		<tag k="ssr:stedsnr" v="143203" />
	</node>
	<node lat="63.323721225458996" lon="11.65043492168184" id="-87412">
		<tag k="name" v="Luddumyra" />
		<tag k="natural" v="wetland" />
		<tag k="ssr:stedsnr" v="169618" />
	</node>
	<node lat="63.33956263615131" lon="11.7161270377888" id="-87413">
		<tag k="name" v="Skogslåtten" />
		<tag k="natural" v="wetland" />
		<tag k="ssr:stedsnr" v="169576" />
	</node>
	<node lat="63.56865277665753" lon="11.902908338608908" id="-87414">
		<tag k="name" v="Veitmyra" />
		<tag k="natural" v="wetland" />
		<tag k="ssr:stedsnr" v="171355" />
	</node>
	<node lat="63.54416666305786" lon="11.917227778777526" id="-87415">
		<tag k="name" v="Brattsfengern" />
		<tag k="natural" v="wetland" />
		<tag k="ssr:stedsnr" v="171511" />
	</node>
	<node lat="63.421333336551314" lon="11.698088880708866" id="-87445">
		<tag k="name" v="Sarakjølen" />
		<tag k="natural" v="wetland" />
		<tag k="ssr:stedsnr" v="195498" />
	</node>
	<node lat="63.538219446141774" lon="11.910680552862049" id="-87471">
		<tag k="name" v="Lomtjønnfloen" />
		<tag k="natural" v="wetland" />
		<tag k="ssr:stedsnr" v="230421" />
	</node>
	<node lat="63.56857500398519" lon="11.990638889773058" id="-87477">
		<tag k="name" v="Spennet" />
		<tag k="natural" v="wetland" />
		<tag k="ssr:stedsnr" v="231381" />
	</node>
	<node lat="63.571027781964524" lon="11.943677779497856" id="-87478">
		<tag k="name" v="Storhållåmyra" />
		<tag k="natural" v="wetland" />
		<tag k="ssr:stedsnr" v="231383" />
	</node>
	<node lat="63.545394445966295" lon="11.882197213031736" id="-87479">
		<tag k="landuse" v="meadow" />
		<tag k="name" v="Kuslandet" />
		<tag k="ssr:stedsnr" v="231525" />
	</node>
	<node lat="63.37003055503784" lon="12.04273889544331" id="-87533">
		<tag k="name" v="Storbekkøyan" />
		<tag k="natural" v="wetland" />
		<tag k="ssr:stedsnr" v="290028" />
	</node>
	<node lat="63.37178333490403" lon="11.990161114133892" id="-87535">
		<tag k="name" v="Storkjerringmyra" />
		<tag k="natural" v="wetland" />
		<tag k="ssr:stedsnr" v="290379" />
	</node>
	<node lat="63.3967250032486" lon="11.922708329195292" id="-87587">
		<tag k="name" v="Torkildskjølen" />
		<tag k="natural" v="wetland" />
		<tag k="ssr:stedsnr" v="472430" />
	</node>
	<node lat="63.34056619425662" lon="11.79549825953568" id="-87591">
		<tag k="name" v="Storfloen" />
		<tag k="natural" v="wetland" />
		<tag k="ssr:stedsnr" v="472585" />
	</node>
	<node lat="63.464024999045904" lon="11.772602769559981" id="-87693">
		<tag k="name" v="Summulgråmyra" />
		<tag k="natural" v="wetland" />
		<tag k="ssr:stedsnr" v="461407" />
	</node>
	<node lat="63.32555096817638" lon="11.63225048346112" id="-87697">
		<tag k="name" v="Slåttmyra" />
		<tag k="natural" v="wetland" />
		<tag k="ssr:stedsnr" v="472618" />
	</node>
	<node lat="63.347761391200066" lon="11.726116639422589" id="-87698">
		<tag k="name" v="Vatnfloan" />
		<tag k="natural" v="wetland" />
		<tag k="ssr:stedsnr" v="472567" />
	</node>
	<node lat="63.350112494424124" lon="11.682587464349977" id="-87699">
		<tag k="name" v="Bjønnfloen" />
		<tag k="natural" v="wetland" />
		<tag k="ssr:stedsnr" v="472568" />
	</node>
	<node lat="63.276958332003574" lon="11.867294449979292" id="-87703">
		<tag k="name" v="Langmyrskogan" />
		<tag k="place" v="locality" />
		<tag k="ssr:stedsnr" v="473425" />
	</node>
	<node lat="63.54719444630292" lon="11.920255553248936" id="-87704">
		<tag k="name" v="Fremre Vargmyran" />
		<tag k="natural" v="wetland" />
		<tag k="ssr:stedsnr" v="473464" />
	</node>
	<node lat="63.2165333339165" lon="11.774652779013714" id="-87798">
		<tag k="landuse" v="quarry" />
		<tag k="name" v="Gilså Gruve" />
		<tag k="ssr:stedsnr" v="558398" />
	</node>
	<node lat="63.534449995520156" lon="11.873144445782865" id="-87849">
		<tag k="name" v="Bjørnmyra" />
		<tag k="natural" v="wetland" />
		<tag k="ssr:stedsnr" v="582015" />
	</node>
	<node lat="63.3400928723348" lon="11.780271421210415" id="-87860">
		<tag k="name" v="Langsundet" />
		<tag k="natural" v="wetland" />
		<tag k="ssr:stedsnr" v="593563" />
	</node>
	<node lat="63.47650278156856" lon="11.78348889727814" id="-87861">
		<tag k="name" v="Stormyrgrøbba" />
		<tag k="natural" v="wetland" />
		<tag k="ssr:stedsnr" v="595418" />
	</node>
	<node lat="63.32968279795399" lon="11.63713489304212" id="-87908">
		<tag k="name" v="Svarttjønnfloen" />
		<tag k="natural" v="wetland" />
		<tag k="ssr:stedsnr" v="654609" />
	</node>
	<node lat="63.338033334697705" lon="11.640394435144467" id="-87959">
		<tag k="name" v="Blestermyra" />
		<tag k="natural" v="wetland" />
		<tag k="ssr:stedsnr" v="897588" />
	</node>
	<node lat="63.28081388469892" lon="11.867766665091029" id="-87961">
		<tag k="name" v="Svartdalsøya" />
		<tag k="natural" v="wetland" />
		<tag k="ssr:stedsnr" v="898387" />
	</node>
	<node lat="63.40630277505452" lon="11.877733339689884" id="-87962">
		<tag k="name" v="Myrlaket" />
		<tag k="natural" v="wetland" />
		<tag k="ssr:stedsnr" v="898440" />
	</node>
	<node lat="63.2887916701856" lon="11.891783343234362" id="-87963">
		<tag k="name" v="Hopmyra" />
		<tag k="natural" v="wetland" />
		<tag k="ssr:stedsnr" v="715407" />
	</node>
	<node lat="63.36644722125932" lon="11.966158328559672" id="-87965">
		<tag k="name" v="Skomakerfloan" />
		<tag k="natural" v="wetland" />
		<tag k="ssr:stedsnr" v="715429" />
	</node>
	<node lat="63.28980000208481" lon="11.78621111500535" id="-87971">
		<tag k="name" v="Gilsåfloan" />
		<tag k="natural" v="wetland" />
		<tag k="ssr:stedsnr" v="715392" />
	</node>
	<node lat="63.57464166223999" lon="11.892816667471687" id="-87977">
		<tag k="historic" v="shieling" />
		<tag k="name" v="Inndalsvollen" />
		<tag k="place" v="locality" />
		<tag k="ssr:stedsnr" v="899349" />
	</node>
	<node lat="63.40446944002957" lon="11.789711115504824" id="-88015">
		<tag k="name" v="Kjellmyra" />
		<tag k="natural" v="wetland" />
		<tag k="ssr:stedsnr" v="750231" />
	</node>
	<node lat="63.44861111512664" lon="11.591838883446814" id="-88024">
		<tag k="name" v="Bitmelan" />
		<tag k="place" v="locality" />
		<tag k="ssr:stedsnr" v="756218" />
	</node>
	<node lat="63.37228888552542" lon="12.01459443436468" id="-88027">
		<tag k="name" v="Dansmyran" />
		<tag k="natural" v="wetland" />
		<tag k="ssr:stedsnr" v="775005" />
	</node>
	<node lat="63.42233333763454" lon="11.85438888122183" id="-88030">
		<tag k="name" v="Klengeråsmyra" />
		<tag k="natural" v="wetland" />
		<tag k="ssr:stedsnr" v="776415" />
	</node>
	<node lat="63.27401388762926" lon="11.8798694465562" id="-88096">
		<tag k="name" v="Storkjølen" />
		<tag k="natural" v="wetland" />
		<tag k="ssr:stedsnr" v="837390" />
	</node>
	<node lat="63.54044444783153" lon="11.900599999436837" id="-88097">
		<tag k="name" v="Blåsteinmyra" />
		<tag k="natural" v="wetland" />
		<tag k="ssr:stedsnr" v="837434" />
	</node>
	<node lat="63.57082777496725" lon="11.980394439889468" id="-88101">
		<tag k="historic" v="shieling" />
		<tag k="name" v="Hammervollen" />
		<tag k="place" v="locality" />
		<tag k="ssr:stedsnr" v="839281" />
	</node>
	<node lat="63.5373472257833" lon="11.84086666442662" id="-88144">
		<tag k="name" v="Fersmyra" />
		<tag k="natural" v="wetland" />
		<tag k="ssr:stedsnr" v="886022" />
	</node>
	<node lat="63.32247778076463" lon="11.872736120358276" id="-88147">
		<tag k="name" v="Tjønnfloen" />
		<tag k="natural" v="wetland" />
		<tag k="ssr:stedsnr" v="896268" />
	</node>
	<node lat="63.53822777734272" lon="11.88938611039307" id="-88151">
		<tag k="name" v="Småmyran" />
		<tag k="natural" v="wetland" />
		<tag k="ssr:stedsnr" v="898431" />
	</node>
	<node lat="63.55819166927384" lon="11.975950004227483" id="-88156">
		<tag k="name" v="Dansmyra" />
		<tag k="natural" v="wetland" />
		<tag k="ssr:stedsnr" v="899359" />
	</node>
	<node lat="63.572397217739514" lon="11.953913895319905" id="-88157">
		<tag k="name" v="Selbustrupen" />
		<tag k="natural" v="wetland" />
		<tag k="ssr:stedsnr" v="899365" />
	</node>
	<node lat="63.57390277853017" lon="11.943691662945108" id="-88158">
		<tag k="name" v="Bjørgmyra" />
		<tag k="natural" v="wetland" />
		<tag k="ssr:stedsnr" v="899366" />
	</node>
	<node lat="63.511538887099185" lon="11.818311104447861" id="-88195">
		<tag k="name" v="Skillerbekkjølen" />
		<tag k="natural" v="wetland" />
		<tag k="ssr:stedsnr" v="947033" />
	</node>
	<node lat="63.34269166969198" lon="11.965891659745282" id="-88196">
		<tag k="name" v="Seterfloan" />
		<tag k="natural" v="wetland" />
		<tag k="ssr:stedsnr" v="957412" />
	</node>
	<node lat="63.41018610669416" lon="11.810430555029235" id="-88199">
		<tag k="historic" v="shieling" />
		<tag k="name" v="Nustadvollen" />
		<tag k="place" v="locality" />
		<tag k="ssr:stedsnr" v="958485" />
	</node>
	<node lat="63.494819440739185" lon="11.820522212433671" id="-88201">
		<tag k="name" v="Hårråmyra" />
		<tag k="natural" v="wetland" />
		<tag k="ssr:stedsnr" v="959387" />
	</node>
	<node lat="63.56457777914956" lon="11.970755554353634" id="-88202">
		<tag k="name" v="Fuglmyra" />
		<tag k="natural" v="wetland" />
		<tag k="ssr:stedsnr" v="960337" />
	</node>
	<node lat="63.563858333832535" lon="11.975616656781463" id="-88203">
		<tag k="name" v="Slættmyran" />
		<tag k="natural" v="wetland" />
		<tag k="ssr:stedsnr" v="960338" />
	</node>
	<node lat="63.35925277873148" lon="11.948483335965609" id="-88209">
		<tag k="name" v="Nysetermyran" />
		<tag k="natural" v="wetland" />
		<tag k="ssr:stedsnr" v="229022" />
	</node>
	<node lat="63.375122219919554" lon="11.96241666425373" id="-88264">
		<tag k="name" v="Jofloan" />
		<tag k="natural" v="wetland" />
		<tag k="ssr:stedsnr" v="47396" />
	</node>
	<node lat="63.28369166733104" lon="11.92127499973516" id="-88267">
		<tag k="name" v="Stokkfloen" />
		<tag k="natural" v="wetland" />
		<tag k="ssr:stedsnr" v="48371" />
	</node>
	<node lat="63.28414722246589" lon="11.874913883715275" id="-88273">
		<tag k="name" v="Slettmyra" />
		<tag k="natural" v="wetland" />
		<tag k="ssr:stedsnr" v="48364" />
	</node>
	<node lat="63.48103055742247" lon="11.764022215387577" id="-88282">
		<tag k="name" v="Brattslættet" />
		<tag k="natural" v="wetland" />
		<tag k="ssr:stedsnr" v="49433" />
	</node>
	<node lat="63.56905832964703" lon="11.894888887614023" id="-88287">
		<tag k="name" v="Langmyra" />
		<tag k="natural" v="wetland" />
		<tag k="ssr:stedsnr" v="50336" />
	</node>
	<node lat="63.56654722561047" lon="11.942730555338708" id="-88289">
		<tag k="name" v="Torpstengern" />
		<tag k="natural" v="wetland" />
		<tag k="ssr:stedsnr" v="50352" />
	</node>
	<node lat="63.449441666921174" lon="11.775455564274463" id="-88356">
		<tag k="name" v="Høgmyra" />
		<tag k="natural" v="wetland" />
		<tag k="ssr:stedsnr" v="105436" />
	</node>
	<node lat="63.36140277776867" lon="12.034688894200444" id="-88357">
		<tag k="name" v="Mangåsmyra" />
		<tag k="natural" v="wetland" />
		<tag k="ssr:stedsnr" v="108029" />
	</node>
	<node lat="63.5704249996325" lon="11.9720888847276" id="-88376">
		<tag k="historic" v="shieling" />
		<tag k="name" v="Movollen" />
		<tag k="place" v="locality" />
		<tag k="ssr:stedsnr" v="110263" />
	</node>
	<node lat="63.56440832972385" lon="11.913719452975045" id="-88377">
		<tag k="name" v="Kråkmyra" />
		<tag k="natural" v="wetland" />
		<tag k="ssr:stedsnr" v="110353" />
	</node>
	<node lat="63.4654277792701" lon="11.65420277236489" id="-88452">
		<tag k="name" v="Åkrokan" />
		<tag k="natural" v="wetland" />
		<tag k="ssr:stedsnr" v="169276" />
	</node>
	<node lat="63.41630277914512" lon="11.858155550249034" id="-88460">
		<tag k="name" v="Malmsundet" />
		<tag k="natural" v="wetland" />
		<tag k="ssr:stedsnr" v="169433" />
	</node>
	<node lat="63.326830798646164" lon="11.74051267897142" id="-88465">
		<tag k="name" v="Gudåmyra" />
		<tag k="natural" v="wetland" />
		<tag k="ssr:stedsnr" v="169623" />
	</node>
	<node lat="63.56665833720864" lon="11.96303333168635" id="-88467">
		<tag k="name" v="Bakfloan" />
		<tag k="natural" v="wetland" />
		<tag k="ssr:stedsnr" v="171338" />
	</node>
	<node lat="63.534944444648644" lon="11.84066945381665" id="-88544">
		<tag k="landuse" v="meadow" />
		<tag k="name" v="Blæstra" />
		<tag k="ssr:stedsnr" v="219016" />
	</node>
	<node lat="63.54862222549942" lon="11.927691675427212" id="-88560">
		<tag k="name" v="Gjertrudslættet" />
		<tag k="natural" v="wetland" />
		<tag k="ssr:stedsnr" v="291472" />
	</node>
	<node lat="63.569836109086715" lon="11.9843805591036" id="-88562">
		<tag k="name" v="Storfloen" />
		<tag k="natural" v="wetland" />
		<tag k="ssr:stedsnr" v="292331" />
	</node>
	<node lat="63.572897224523565" lon="11.977144437900566" id="-88563">
		<tag k="name" v="Førstmyra" />
		<tag k="natural" v="wetland" />
		<tag k="ssr:stedsnr" v="292333" />
	</node>
	<node lat="63.57203610863486" lon="11.943538893092928" id="-88564">
		<tag k="name" v="Rundmyra" />
		<tag k="natural" v="wetland" />
		<tag k="ssr:stedsnr" v="292336" />
	</node>
	<node lat="63.53826944826768" lon="11.857686119821611" id="-88628">
		<tag k="name" v="Slåttmyra" />
		<tag k="natural" v="wetland" />
		<tag k="ssr:stedsnr" v="340021" />
	</node>
	<node lat="63.53972222439849" lon="11.81610277681" id="-88629">
		<tag k="name" v="Larsvollryan" />
		<tag k="natural" v="wetland" />
		<tag k="ssr:stedsnr" v="340028" />
	</node>
	<node lat="63.30811111411354" lon="11.949238893049301" id="-88636">
		<tag k="name" v="Storholet" />
		<tag k="natural" v="wetland" />
		<tag k="ssr:stedsnr" v="350246" />
	</node>
	<node lat="63.54637500033981" lon="11.892022225227223" id="-88643">
		<tag k="landuse" v="meadow" />
		<tag k="name" v="Ner-brann" />
		<tag k="ssr:stedsnr" v="352469" />
	</node>
	<node lat="63.54223888609365" lon="11.892611118832317" id="-88644">
		<tag k="landuse" v="meadow" />
		<tag k="name" v="Øver-brann" />
		<tag k="ssr:stedsnr" v="352474" />
	</node>
	<node lat="63.55608055736105" lon="11.961711113005084" id="-88649">
		<tag k="name" v="Sommerfjøsmyra" />
		<tag k="natural" v="wetland" />
		<tag k="ssr:stedsnr" v="353366" />
	</node>
	<node lat="63.511613888111256" lon="11.86125278441003" id="-88712">
		<tag k="name" v="Svampan" />
		<tag k="natural" v="wetland" />
		<tag k="ssr:stedsnr" v="401023" />
	</node>
	<node lat="63.46562499892547" lon="12.049672213587389" id="-88719">
		<tag k="name" v="Sørmyra" />
		<tag k="natural" v="wetland" />
		<tag k="ssr:stedsnr" v="412231" />
	</node>
	<node lat="63.36413097683779" lon="11.770836240894335" id="-88720">
		<tag k="name" v="Skytterfloen" />
		<tag k="natural" v="wetland" />
		<tag k="ssr:stedsnr" v="412559" />
	</node>
	<node lat="63.31854086767099" lon="11.741416358219517" id="-88722">
		<tag k="name" v="Gammelvollmyran" />
		<tag k="natural" v="wetland" />
		<tag k="ssr:stedsnr" v="412571" />
	</node>
	<node lat="63.56984166784325" lon="11.918625005447923" id="-88838">
		<tag k="name" v="Småslætta" />
		<tag k="natural" v="wetland" />
		<tag k="ssr:stedsnr" v="522028" />
	</node>
	<node lat="63.52660000292872" lon="11.854708342259197" id="-88840">
		<tag k="name" v="Kvitrya" />
		<tag k="natural" v="wetland" />
		<tag k="ssr:stedsnr" v="522035" />
	</node>
	<node lat="63.54954999955255" lon="11.89613055610929" id="-88855">
		<tag k="name" v="Sunnan" />
		<tag k="natural" v="wetland" />
		<tag k="ssr:stedsnr" v="534477" />
	</node>
	<node lat="63.335237503270974" lon="11.653504027853694" id="-88906">
		<tag k="name" v="Slåttfloen" />
		<tag k="natural" v="wetland" />
		<tag k="ssr:stedsnr" v="593572" />
	</node>
	<node lat="63.573119448775444" lon="11.967736104706095" id="-88916">
		<tag k="name" v="Brattstonga" />
		<tag k="natural" v="wetland" />
		<tag k="ssr:stedsnr" v="595325" />
	</node>
	<node lat="63.54073610861299" lon="11.920197221930929" id="-88917">
		<tag k="name" v="Storfloen" />
		<tag k="natural" v="wetland" />
		<tag k="ssr:stedsnr" v="595485" />
	</node>
	<node lat="63.54131388844487" lon="11.888208335063522" id="-88984">
		<tag k="name" v="Røllaugmyra" />
		<tag k="natural" v="wetland" />
		<tag k="ssr:stedsnr" v="655424" />
	</node>
	<node lat="63.54466111205528" lon="11.929902777603374" id="-88986">
		<tag k="name" v="Eviemyran" />
		<tag k="natural" v="wetland" />
		<tag k="ssr:stedsnr" v="655452" />
	</node>
	<node lat="63.57191110964445" lon="11.965736106296337" id="-88989">
		<tag k="name" v="Movollmyra" />
		<tag k="natural" v="wetland" />
		<tag k="ssr:stedsnr" v="656359" />
	</node>
	<node lat="63.36128611312335" lon="11.999130559181214" id="-89003">
		<tag k="name" v="Krigsmyran" />
		<tag k="natural" v="wetland" />
		<tag k="ssr:stedsnr" v="715029" />
	</node>
	<node lat="63.346301031734335" lon="11.687995489172502" id="-89010">
		<tag k="name" v="Simlefloan" />
		<tag k="natural" v="wetland" />
		<tag k="ssr:stedsnr" v="715592" />
	</node>
	<node lat="63.468816663632325" lon="11.760755557844002" id="-89012">
		<tag k="name" v="Tjurrubumyran" />
		<tag k="natural" v="wetland" />
		<tag k="ssr:stedsnr" v="716413" />
	</node>
	<node lat="63.566005557655274" lon="11.912974992374327" id="-89016">
		<tag k="name" v="Langmyra" />
		<tag k="natural" v="wetland" />
		<tag k="ssr:stedsnr" v="717349" />
	</node>
	<node lat="63.55416944470798" lon="11.907091660950147" id="-89017">
		<tag k="name" v="Storsteinan" />
		<tag k="natural" v="stone" />
		<tag k="ssr:stedsnr" v="717359" />
	</node>
	<node lat="63.53454166933193" lon="11.840588888795086" id="-89068">
		<tag k="landuse" v="meadow" />
		<tag k="name" v="Tømmeråssvingen" />
		<tag k="ssr:stedsnr" v="765028" />
	</node>
	<node lat="63.34118610717788" lon="11.973813895579356" id="-89075">
		<tag k="name" v="Ørrsteinen" />
		<tag k="natural" v="stone" />
		<tag k="ssr:stedsnr" v="775390" />
	</node>
	<node lat="63.57352778132311" lon="11.8910305609705" id="-89086">
		<tag k="name" v="Inndalsmyra" />
		<tag k="natural" v="wetland" />
		<tag k="ssr:stedsnr" v="778337" />
	</node>
	<node lat="63.570444446088395" lon="11.903997230910267" id="-89087">
		<tag k="historic" v="shieling" />
		<tag k="name" v="Follovollen" />
		<tag k="place" v="locality" />
		<tag k="ssr:stedsnr" v="778338" />
	</node>
	<node lat="63.52423333018767" lon="11.835075004407207" id="-89143">
		<tag k="name" v="Skogmyran" />
		<tag k="natural" v="wetland" />
		<tag k="ssr:stedsnr" v="826040" />
	</node>
	<node lat="63.554300000146455" lon="11.95959165921995" id="-89167">
		<tag k="name" v="Kjerringmyra" />
		<tag k="natural" v="wetland" />
		<tag k="ssr:stedsnr" v="839359" />
	</node>
	<node lat="63.56857222629186" lon="11.963533332608208" id="-89168">
		<tag k="name" v="Hølstrin" />
		<tag k="natural" v="wetland" />
		<tag k="ssr:stedsnr" v="839365" />
	</node>
	<node lat="63.548738892916724" lon="11.930341677078511" id="-89259">
		<tag k="name" v="Østre Vargmyra" />
		<tag k="natural" v="wetland" />
		<tag k="old_name" v="Øster Vargmyra" />
		<tag k="ssr:stedsnr" v="958482" />
	</node>
	<node lat="63.551747217678006" lon="11.937880563339805" id="-89264">
		<tag k="name" v="Trøbakkstein" />
		<tag k="natural" v="stone" />
		<tag k="ssr:stedsnr" v="959463" />
	</node>
	<node lat="63.55256389078173" lon="11.90298055482835" id="-89265">
		<tag k="name" v="Kvartssteinan" />
		<tag k="natural" v="stone" />
		<tag k="ssr:stedsnr" v="959469" />
	</node>
</osm>
