<?xml version="1.0" encoding="UTF-8"?>
<osm version="0.6" generator="osmapis">
	<node lat="63.45999722277592" lon="11.657355545989795" id="-87216">
		<tag k="name" v="Jembekksliskaret" />
		<tag k="natural" v="valley" />
		<tag k="place" v="locality" />
		<tag k="ssr:stedsnr" v="230284" />
	</node>
	<node lat="63.454030553148435" lon="11.616683325081755" id="-87217">
		<tag k="name" v="Haugaksla" />
		<tag k="place" v="locality" />
		<tag k="ssr:stedsnr" v="230285" />
	</node>
	<node lat="63.42274999683924" lon="11.620033328658122" id="-87219">
		<tag k="name" v="Styggdalen" />
		<tag k="natural" v="valley" />
		<tag k="place" v="locality" />
		<tag k="ssr:stedsnr" v="230276" />
	</node>
	<node lat="63.358426132397305" lon="11.678493493048597" id="-87222">
		<tag k="name" v="Raukjølen" />
		<tag k="natural" v="hill" />
		<tag k="place" v="locality" />
		<tag k="ssr:stedsnr" v="230575" />
	</node>
	<node lat="63.56624167013124" lon="11.985797222030634" id="-87224">
		<tag k="name" v="Nærøyhaugen" />
		<tag k="natural" v="hill" />
		<tag k="place" v="locality" />
		<tag k="ssr:stedsnr" v="231314" />
	</node>
	<node lat="63.35712499743924" lon="12.082505559562284" id="-87233">
		<tag k="name" v="Skurdalsporten" />
		<tag k="natural" v="valley" />
		<tag k="place" v="locality" />
		<tag k="ssr:stedsnr" v="13212" />
	</node>
	<node lat="63.54318611256497" lon="11.645791670419102" id="-87243">
		<tag k="name" v="Grønvollhøgda" />
		<tag k="natural" v="hill" />
		<tag k="place" v="locality" />
		<tag k="ssr:stedsnr" v="13510" />
	</node>
	<node lat="63.31875277479911" lon="12.013175000033826" id="-87266">
		<tag k="alt_name" v="Steinfjellet" />
		<tag k="fixme" v="consider natural=peak for the most distinct mountains in the district" />
		<tag k="name" v="Gierkeske" />
		<tag k="natural" v="hill" />
		<tag k="place" v="locality" />
		<tag k="ssr:stedsnr" v="24179" />
	</node>
	<node lat="63.45223333766525" lon="11.589244440189795" id="-87267">
		<tag k="name" v="Huva" />
		<tag k="natural" v="hill" />
		<tag k="place" v="locality" />
		<tag k="ssr:stedsnr" v="28181" />
	</node>
	<node lat="63.51951110815557" lon="11.824408327921736" id="-87269">
		<tag k="fixme" v="consider natural=peak for the most distinct mountains in the district" />
		<tag k="name" v="Tjurrubuåsen" />
		<tag k="natural" v="hill" />
		<tag k="place" v="locality" />
		<tag k="ssr:stedsnr" v="36030" />
	</node>
	<node lat="63.36808611537807" lon="12.049247231301006" id="-87280">
		<tag k="name" v="Skurdalsåskildra" />
		<tag k="natural" v="slope" />
		<tag k="place" v="locality" />
		<tag k="ssr:stedsnr" v="47023" />
	</node>
	<node lat="63.26195000399644" lon="11.83547223237201" id="-87282">
		<tag k="name" v="Gilsåvola" />
		<tag k="natural" v="hill" />
		<tag k="place" v="locality" />
		<tag k="ssr:stedsnr" v="47377" />
	</node>
	<node lat="63.262174999326035" lon="11.781152782580348" id="-87284">
		<tag k="name" v="Vedrya" />
		<tag k="natural" v="slope" />
		<tag k="place" v="locality" />
		<tag k="ssr:stedsnr" v="47382" />
	</node>
	<node lat="63.45685277693655" lon="11.621363889295964" id="-87286">
		<tag k="name" v="Vollvollen" />
		<tag k="place" v="locality" />
		<tag k="ssr:stedsnr" v="48273" />
	</node>
	<node lat="63.31215832962181" lon="11.743308339843384" id="-87295">
		<tag k="name" v="Kollen" />
		<tag k="natural" v="hill" />
		<tag k="place" v="locality" />
		<tag k="ssr:stedsnr" v="60322" />
	</node>
	<node lat="63.418441662505806" lon="12.075361117786478" id="-87303">
		<tag k="fixme" v="consider natural=peak for the most distinct mountains in the district" />
		<tag k="name" v="Larsklumpen" />
		<tag k="natural" v="hill" />
		<tag k="place" v="locality" />
		<tag k="ssr:stedsnr" v="74026" />
	</node>
	<node lat="63.39611666328188" lon="11.611505554642273" id="-87306">
		<tag k="fixme" v="consider natural=peak for the most distinct mountains in the district" />
		<tag k="name" v="Fonnfjellet - Gåeblie" />
		<tag k="name:no" v="Fonnfjellet" />
		<tag k="name:sma" v="Gåeblie" />
		<tag k="natural" v="hill" />
		<tag k="place" v="locality" />
		<tag k="ssr:stedsnr" v="74401" />
	</node>
	<node lat="63.27536110892821" lon="11.899269440667892" id="-87352">
		<tag k="name" v="Vakkerlia" />
		<tag k="natural" v="slope" />
		<tag k="place" v="locality" />
		<tag k="ssr:stedsnr" v="109384" />
	</node>
	<node lat="63.42235833603926" lon="11.808488879527065" id="-87354">
		<tag k="name" v="Grøbbjørga" />
		<tag k="place" v="locality" />
		<tag k="ssr:stedsnr" v="109422" />
	</node>
	<node lat="63.410791669955024" lon="11.816919451131655" id="-87355">
		<tag k="name" v="Heståsen" />
		<tag k="natural" v="hill" />
		<tag k="place" v="locality" />
		<tag k="ssr:stedsnr" v="109424" />
	</node>
	<node lat="63.59773889319527" lon="11.884227770865682" id="-87366">
		<tag k="name" v="Steinsdalen" />
		<tag k="natural" v="valley" />
		<tag k="place" v="locality" />
		<tag k="ssr:stedsnr" v="135331" />
	</node>
	<node lat="63.26391111560461" lon="11.55082499756513" id="-87368">
		<tag k="fixme" v="consider natural=peak for the most distinct mountains in the district" />
		<tag k="name" v="Nautfjellet" />
		<tag k="name:no" v="Nautfjellet" />
		<tag k="name:sma" v="Gaavtjejahke" />
		<tag k="natural" v="hill" />
		<tag k="place" v="locality" />
		<tag k="ssr:stedsnr" v="141090" />
	</node>
	<node lat="63.46091666324722" lon="11.585255553607556" id="-87398">
		<tag k="name" v="Kvelvhåmmåren" />
		<tag k="natural" v="hill" />
		<tag k="place" v="locality" />
		<tag k="ssr:stedsnr" v="149156" />
	</node>
	<node lat="63.45639166806989" lon="11.600194440527032" id="-87399">
		<tag k="name" v="Rundhaugen" />
		<tag k="natural" v="hill" />
		<tag k="place" v="locality" />
		<tag k="ssr:stedsnr" v="149208" />
	</node>
	<node lat="63.545816670129476" lon="11.739574995987073" id="-87404">
		<tag k="fixme" v="consider natural=peak for the most distinct mountains in the district" />
		<tag k="name" v="Grønlifjellet" />
		<tag k="natural" v="hill" />
		<tag k="place" v="locality" />
		<tag k="ssr:stedsnr" v="256336" />
	</node>
	<node lat="65.11002777597567" lon="13.085422216082504" id="-87447">
		<tag k="fixme" v="consider natural=peak for the most distinct mountains in the district" />
		<tag k="name" v="Kløftfjellet - Sloeptjenguevtele" />
		<tag k="name:no" v="Kløftfjellet" />
		<tag k="name:sma" v="Sloeptjenguevtele" />
		<tag k="natural" v="hill" />
		<tag k="place" v="locality" />
		<tag k="ssr:stedsnr" v="196523" />
	</node>
	<node lat="63.41453611492785" lon="11.842147226726924" id="-87470">
		<tag k="name" v="Hallan" />
		<tag k="natural" v="slope" />
		<tag k="place" v="locality" />
		<tag k="ssr:stedsnr" v="230416" />
	</node>
	<node lat="63.41705555823505" lon="11.817916664787003" id="-87472">
		<tag k="name" v="Grauttvurubakken" />
		<tag k="natural" v="hill" />
		<tag k="place" v="locality" />
		<tag k="ssr:stedsnr" v="230445" />
	</node>
	<node lat="63.394825000953794" lon="11.719230546881457" id="-87483">
		<tag k="name" v="Torsbjørkdalen" />
		<tag k="natural" v="valley" />
		<tag k="place" v="locality" />
		<tag k="ssr:stedsnr" v="452783" />
	</node>
	<node lat="63.380144445238784" lon="12.04760000977572" id="-87484">
		<tag k="name" v="Flætan" />
		<tag k="place" v="locality" />
		<tag k="ssr:stedsnr" v="452792" />
	</node>
	<node lat="63.45417778143232" lon="11.531744435024658" id="-87485">
		<tag k="name" v="Hylla" />
		<tag k="natural" v="ridge" />
		<tag k="place" v="locality" />
		<tag k="ssr:stedsnr" v="453196" />
	</node>
	<node lat="63.4580750002787" lon="11.57117499005819" id="-87486">
		<tag k="name" v="Vargmyrhaugen" />
		<tag k="natural" v="hill" />
		<tag k="place" v="locality" />
		<tag k="ssr:stedsnr" v="453200" />
	</node>
	<node lat="63.270508334180505" lon="11.683783325827923" id="-87494">
		<tag k="fixme" v="consider natural=peak for the most distinct mountains in the district" />
		<tag k="name" v="Gavtje" />
		<tag k="natural" v="hill" />
		<tag k="place" v="locality" />
		<tag k="ssr:stedsnr" v="256073" />
	</node>
	<node lat="63.427549998590294" lon="11.68591110803147" id="-87500">
		<tag k="name" v="Moahaugen" />
		<tag k="natural" v="hill" />
		<tag k="place" v="locality" />
		<tag k="ssr:stedsnr" v="256462" />
	</node>
	<node lat="63.39193888969741" lon="11.941113885909887" id="-87532">
		<tag k="name" v="Finndalen" />
		<tag k="natural" v="valley" />
		<tag k="place" v="locality" />
		<tag k="ssr:stedsnr" v="290002" />
	</node>
	<node lat="63.35434721982582" lon="11.491377774723642" id="-87538">
		<tag k="name" v="Skrøydalen" />
		<tag k="natural" v="valley" />
		<tag k="place" v="locality" />
		<tag k="ssr:stedsnr" v="290492" />
	</node>
	<node lat="63.45447777443628" lon="11.673755550651483" id="-87539">
		<tag k="name" v="Storskaret" />
		<tag k="natural" v="valley" />
		<tag k="place" v="locality" />
		<tag k="ssr:stedsnr" v="291307" />
	</node>
	<node lat="63.5648555596092" lon="11.963005548603775" id="-87543">
		<tag k="name" v="Kjørarstrupen" />
		<tag k="natural" v="hill" />
		<tag k="place" v="locality" />
		<tag k="ssr:stedsnr" v="292232" />
	</node>
	<node lat="63.46136944745887" lon="11.533572225526234" id="-87545">
		<tag k="name" v="Hovstadmoen" />
		<tag k="place" v="locality" />
		<tag k="ssr:stedsnr" v="293733" />
	</node>
	<node lat="63.18741666596907" lon="11.739958339500722" id="-87549">
		<tag k="fixme" v="consider natural=peak for the most distinct mountains in the district" />
		<tag k="name" v="Storberget" />
		<tag k="natural" v="hill" />
		<tag k="place" v="locality" />
		<tag k="ssr:stedsnr" v="315368" />
	</node>
	<node lat="63.4800638914407" lon="12.002488886204974" id="-87554">
		<tag k="fixme" v="consider natural=peak for the most distinct mountains in the district" />
		<tag k="name" v="Steinkleivfjellet" />
		<tag k="natural" v="hill" />
		<tag k="place" v="locality" />
		<tag k="ssr:stedsnr" v="317102" />
	</node>
	<node lat="63.46353888653731" lon="11.795569452074064" id="-87577">
		<tag k="fixme" v="consider natural=peak for the most distinct mountains in the district" />
		<tag k="name" v="Gammelseteråsen" />
		<tag k="natural" v="hill" />
		<tag k="place" v="locality" />
		<tag k="ssr:stedsnr" v="469451" />
	</node>
	<node lat="63.387830559149535" lon="11.509213880295583" id="-87589">
		<tag k="name" v="Glåplia" />
		<tag k="natural" v="slope" />
		<tag k="place" v="locality" />
		<tag k="ssr:stedsnr" v="472527" />
	</node>
	<node lat="63.37004999942569" lon="11.508747218489743" id="-87590">
		<tag k="fixme" v="consider natural=peak for the most distinct mountains in the district" />
		<tag k="name" v="Storåsen" />
		<tag k="natural" v="hill" />
		<tag k="place" v="locality" />
		<tag k="ssr:stedsnr" v="472540" />
	</node>
	<node lat="63.4785277784375" lon="11.789250003362849" id="-87600">
		<tag k="name" v="Osbakken" />
		<tag k="natural" v="slope" />
		<tag k="place" v="locality" />
		<tag k="ssr:stedsnr" v="473452" />
	</node>
	<node lat="63.564752782107774" lon="11.941355547087024" id="-87607">
		<tag k="fixme" v="consider natural=peak for the most distinct mountains in the district" />
		<tag k="name" v="Torpåsen" />
		<tag k="natural" v="hill" />
		<tag k="place" v="locality" />
		<tag k="ssr:stedsnr" v="474261" />
	</node>
	<node lat="63.481288888750626" lon="11.775777780042956" id="-87609">
		<tag k="name" v="Osberget" />
		<tag k="natural" v="hill" />
		<tag k="place" v="locality" />
		<tag k="ssr:stedsnr" v="352368" />
	</node>
	<node lat="63.56516666635833" lon="11.914925006652947" id="-87612">
		<tag k="name" v="Kråkmyrhaugen" />
		<tag k="natural" v="hill" />
		<tag k="place" v="locality" />
		<tag k="ssr:stedsnr" v="474336" />
	</node>
	<node lat="63.347694444087374" lon="11.912666658700397" id="-87621">
		<tag k="fixme" v="consider natural=peak for the most distinct mountains in the district" />
		<tag k="name" v="Fjelldalshøgda" />
		<tag k="natural" v="hill" />
		<tag k="place" v="locality" />
		<tag k="ssr:stedsnr" v="376194" />
	</node>
	<node lat="63.406841668630975" lon="12.000416672157678" id="-87643">
		<tag k="name" v="Støttingdalen" />
		<tag k="natural" v="valley" />
		<tag k="place" v="locality" />
		<tag k="ssr:stedsnr" v="391802" />
	</node>
	<node lat="63.46853889020696" lon="11.584322221071842" id="-87648">
		<tag k="name" v="Gammelseterhaugen" />
		<tag k="natural" v="hill" />
		<tag k="place" v="locality" />
		<tag k="ssr:stedsnr" v="392190" />
	</node>
	<node lat="63.46338333173029" lon="11.573175008362812" id="-87649">
		<tag k="name" v="Lauvhaugan" />
		<tag k="natural" v="hill" />
		<tag k="place" v="locality" />
		<tag k="ssr:stedsnr" v="392238" />
	</node>
	<node lat="63.370327775577124" lon="11.854261113565716" id="-87659">
		<tag k="fixme" v="consider natural=peak for the most distinct mountains in the district" />
		<tag k="name" v="Sneiåsen" />
		<tag k="natural" v="hill" />
		<tag k="place" v="locality" />
		<tag k="ssr:stedsnr" v="437065" />
	</node>
	<node lat="63.37694999958955" lon="11.852277783114918" id="-87660">
		<tag k="fixme" v="consider natural=peak for the most distinct mountains in the district" />
		<tag k="name" v="Navelshaugen" />
		<tag k="natural" v="hill" />
		<tag k="place" v="locality" />
		<tag k="ssr:stedsnr" v="437067" />
	</node>
	<node lat="63.22470555125653" lon="12.014305562860603" id="-87661">
		<tag k="fixme" v="consider natural=peak for the most distinct mountains in the district" />
		<tag k="name" v="Enlivola" />
		<tag k="name:no" v="Enlivola" />
		<tag k="name:sma" v="Ajnenvaartoe" />
		<tag k="natural" v="hill" />
		<tag k="place" v="locality" />
		<tag k="ssr:stedsnr" v="437419" />
	</node>
	<node lat="63.35107499632805" lon="11.569766668760685" id="-87662">
		<tag k="alt_name" v="Brattbringen" />
		<tag k="fixme" v="consider natural=peak for the most distinct mountains in the district" />
		<tag k="name" v="Braremielke" />
		<tag k="natural" v="hill" />
		<tag k="place" v="locality" />
		<tag k="ssr:stedsnr" v="437458" />
	</node>
	<node lat="63.44641944667216" lon="11.849700004529018" id="-87664">
		<tag k="fixme" v="consider natural=peak for the most distinct mountains in the district" />
		<tag k="name" v="Storhaugen" />
		<tag k="natural" v="hill" />
		<tag k="place" v="locality" />
		<tag k="ssr:stedsnr" v="438009" />
	</node>
	<node lat="63.60503333626261" lon="11.761211102422035" id="-87668">
		<tag k="fixme" v="consider natural=peak for the most distinct mountains in the district" />
		<tag k="name" v="Minsåsgubben" />
		<tag k="natural" v="hill" />
		<tag k="place" v="locality" />
		<tag k="ssr:stedsnr" v="438352" />
	</node>
	<node lat="63.36819166263502" lon="11.615169441636345" id="-87670">
		<tag k="alt_name" v="Mannfjellet" />
		<tag k="fixme" v="consider natural=peak for the most distinct mountains in the district" />
		<tag k="name" v="Kraviesgeælta" />
		<tag k="natural" v="hill" />
		<tag k="place" v="locality" />
		<tag k="ssr:stedsnr" v="438376" />
	</node>
	<node lat="63.29970555223871" lon="11.938730545760983" id="-87694">
		<tag k="name" v="Graslihammeren" />
		<tag k="place" v="locality" />
		<tag k="ssr:stedsnr" v="471264" />
	</node>
	<node lat="63.357883672322494" lon="11.750406985749468" id="-87700">
		<tag k="name" v="Sagskjerpet" />
		<tag k="place" v="locality" />
		<tag k="ssr:stedsnr" v="472577" />
	</node>
	<node lat="63.30848333142978" lon="11.928908329560896" id="-87701">
		<tag k="name" v="Fallet" />
		<tag k="natural" v="valley" />
		<tag k="place" v="locality" />
		<tag k="ssr:stedsnr" v="473412" />
	</node>
	<node lat="63.365313886614416" lon="11.485513894725816" id="-87705">
		<tag k="fixme" v="consider natural=peak for the most distinct mountains in the district" />
		<tag k="name" v="Langåsen" />
		<tag k="natural" v="hill" />
		<tag k="place" v="locality" />
		<tag k="ssr:stedsnr" v="474660" />
	</node>
	<node lat="63.23546111005039" lon="11.843030563331522" id="-87709">
		<tag k="name" v="Hårrådalen" />
		<tag k="natural" v="valley" />
		<tag k="place" v="locality" />
		<tag k="ssr:stedsnr" v="679348" />
	</node>
	<node lat="63.43253055282885" lon="12.01830833903985" id="-87711">
		<tag k="fixme" v="consider natural=peak for the most distinct mountains in the district" />
		<tag k="name" v="Nonsklumpen" />
		<tag k="natural" v="hill" />
		<tag k="place" v="locality" />
		<tag k="ssr:stedsnr" v="680029" />
	</node>
	<node lat="63.230033336098245" lon="11.669952780884241" id="-87716">
		<tag k="fixme" v="consider natural=peak for the most distinct mountains in the district" />
		<tag k="name" v="Djuphøllia" />
		<tag k="name:no" v="Djuphøllia" />
		<tag k="name:sma" v="Gaavtjetsegkie" />
		<tag k="natural" v="hill" />
		<tag k="place" v="locality" />
		<tag k="ssr:stedsnr" v="680235" />
	</node>
	<node lat="63.415752776666565" lon="12.120655551824198" id="-87724">
		<tag k="fixme" v="consider natural=peak for the most distinct mountains in the district" />
		<tag k="name" v="Huva" />
		<tag k="natural" v="hill" />
		<tag k="place" v="locality" />
		<tag k="ssr:stedsnr" v="681043" />
	</node>
	<node lat="63.43065701819495" lon="12.112410833914932" id="-87728">
		<tag k="fixme" v="consider natural=peak for the most distinct mountains in the district" />
		<tag k="name" v="Kjerringfjellet" />
		<tag k="name:no" v="Kjerringfjellet" />
		<tag k="name:sma" v="Stievhkevaerie" />
		<tag k="natural" v="hill" />
		<tag k="place" v="locality" />
		<tag k="ssr:stedsnr" v="498006" />
	</node>
	<node lat="63.34479722599219" lon="11.907991660371795" id="-87737">
		<tag k="fixme" v="consider natural=peak for the most distinct mountains in the district" />
		<tag k="name" v="Midtkveldsklumpan" />
		<tag k="natural" v="hill" />
		<tag k="place" v="locality" />
		<tag k="ssr:stedsnr" v="498247" />
	</node>
	<node lat="63.547694444325465" lon="12.003852780512014" id="-87750">
		<tag k="alt_name" v="Eviekvelvet" />
		<tag k="fixme" v="consider natural=peak for the most distinct mountains in the district" />
		<tag k="name" v="Evjekvelvet" />
		<tag k="natural" v="hill" />
		<tag k="place" v="locality" />
		<tag k="ssr:stedsnr" v="499301" />
	</node>
	<node lat="63.358973289798165" lon="11.69345509292434" id="-87777">
		<tag k="name" v="Svartåsvollkjølen" />
		<tag k="natural" v="hill" />
		<tag k="place" v="locality" />
		<tag k="ssr:stedsnr" v="533613" />
	</node>
	<node lat="63.48489444273832" lon="11.765680553980717" id="-87780">
		<tag k="name" v="Tjønnlia" />
		<tag k="natural" v="slope" />
		<tag k="place" v="locality" />
		<tag k="ssr:stedsnr" v="534375" />
	</node>
	<node lat="63.56326944830022" lon="11.958025008499002" id="-87784">
		<tag k="name" v="Jakobstonga" />
		<tag k="natural" v="hill" />
		<tag k="place" v="locality" />
		<tag k="ssr:stedsnr" v="535274" />
	</node>
	<node lat="63.56680555540131" lon="11.9733250099941" id="-87785">
		<tag k="name" v="Kløftan" />
		<tag k="natural" v="hill" />
		<tag k="place" v="locality" />
		<tag k="ssr:stedsnr" v="535275" />
	</node>
	<node lat="63.56709999949293" lon="11.981677781037664" id="-87786">
		<tag k="name" v="Appelsinbakken" />
		<tag k="natural" v="slope" />
		<tag k="place" v="locality" />
		<tag k="ssr:stedsnr" v="535278" />
	</node>
	<node lat="63.20678611550936" lon="11.72504999806564" id="-87799">
		<tag k="fixme" v="consider natural=peak for the most distinct mountains in the district" />
		<tag k="name" v="Vola" />
		<tag k="name:no" v="Vola" />
		<tag k="name:sma" v="Gaasevaaretje" />
		<tag k="natural" v="hill" />
		<tag k="place" v="locality" />
		<tag k="ssr:stedsnr" v="558412" />
	</node>
	<node lat="63.364023445636775" lon="11.899366014948255" id="-87848">
		<tag k="alt_name" v="Dalvolafjellet" />
		<tag k="fixme" v="consider natural=peak for the most distinct mountains in the district" />
		<tag k="name" v="Dalavolfjellet" />
		<tag k="natural" v="hill" />
		<tag k="place" v="locality" />
		<tag k="ssr:stedsnr" v="694430" />
	</node>
	<node lat="63.45948333758976" lon="11.555836111574937" id="-87850">
		<tag k="name" v="Svartberga" />
		<tag k="natural" v="hill" />
		<tag k="place" v="locality" />
		<tag k="ssr:stedsnr" v="696233" />
	</node>
	<node lat="63.35181944484661" lon="11.537594450327267" id="-87854">
		<tag k="fixme" v="consider natural=peak for the most distinct mountains in the district" />
		<tag k="name" v="Brattbinggruva" />
		<tag k="natural" v="hill" />
		<tag k="place" v="locality" />
		<tag k="ssr:stedsnr" v="593514" />
	</node>
	<node lat="63.34658623530165" lon="11.714947693705122" id="-87858">
		<tag k="name" v="Grythaugen" />
		<tag k="natural" v="hill" />
		<tag k="place" v="locality" />
		<tag k="ssr:stedsnr" v="593554" />
	</node>
	<node lat="63.42535278201292" lon="12.048011115381415" id="-87869">
		<tag k="fixme" v="consider natural=peak for the most distinct mountains in the district" />
		<tag k="name" v="Mildridklumpen" />
		<tag k="natural" v="hill" />
		<tag k="place" v="locality" />
		<tag k="ssr:stedsnr" v="620014" />
	</node>
	<node lat="63.520147223247356" lon="11.862933335622683" id="-87901">
		<tag k="fixme" v="consider natural=peak for the most distinct mountains in the district" />
		<tag k="name" v="Tovåsen" />
		<tag k="natural" v="hill" />
		<tag k="place" v="locality" />
		<tag k="ssr:stedsnr" v="704026" />
	</node>
	<node lat="63.467002778169075" lon="11.629625006832017" id="-87906">
		<tag k="name" v="Damtjønnhøgda" />
		<tag k="natural" v="hill" />
		<tag k="place" v="locality" />
		<tag k="ssr:stedsnr" v="654302" />
	</node>
	<node lat="63.36659444283346" lon="12.008824990639582" id="-87916">
		<tag k="name" v="Krigshaugen" />
		<tag k="natural" v="hill" />
		<tag k="place" v="locality" />
		<tag k="ssr:stedsnr" v="680205" />
	</node>
	<node lat="63.33120140558115" lon="11.786043269800269" id="-87958">
		<tag k="fixme" v="consider natural=peak for the most distinct mountains in the district" />
		<tag k="name" v="Tolåsen" />
		<tag k="natural" v="hill" />
		<tag k="place" v="locality" />
		<tag k="ssr:stedsnr" v="897580" />
	</node>
	<node lat="63.570108332735046" lon="11.958755557033545" id="-87976">
		<tag k="name" v="Pallan" />
		<tag k="place" v="locality" />
		<tag k="ssr:stedsnr" v="899251" />
	</node>
	<node lat="63.497650000279876" lon="11.83724445433315" id="-87978">
		<tag k="fixme" v="consider natural=peak for the most distinct mountains in the district" />
		<tag k="name" v="Hårråmyråsan" />
		<tag k="natural" v="hill" />
		<tag k="place" v="locality" />
		<tag k="ssr:stedsnr" v="899424" />
	</node>
	<node lat="63.255269445819955" lon="11.582386111205738" id="-87990">
		<tag k="fixme" v="multiple name tags, choose one and add the other to alt_name" />
		<tag k="name" v="Veælmabeæla;Bjørnlia" />
		<tag k="natural" v="slope" />
		<tag k="place" v="locality" />
		<tag k="ssr:stedsnr" v="741111" />
	</node>
	<node lat="63.4859166636206" lon="12.158011110411122" id="-87991">
		<tag k="fixme" v="consider natural=peak for the most distinct mountains in the district" />
		<tag k="name" v="Hallsjøfjellet - Stoer-Skrohte" />
		<tag k="name:no" v="Hallsjøfjellet" />
		<tag k="name:sma" v="Stoer-Skrohte" />
		<tag k="natural" v="hill" />
		<tag k="place" v="locality" />
		<tag k="ssr:stedsnr" v="741135" />
	</node>
	<node lat="63.34124999961491" lon="11.466152780187814" id="-87995">
		<tag k="alt_name" v="Rensdalen" />
		<tag k="name" v="Sarvavajja" />
		<tag k="natural" v="valley" />
		<tag k="place" v="locality" />
		<tag k="ssr:stedsnr" v="741483" />
	</node>
	<node lat="63.326533331775146" lon="11.540166673869937" id="-87996">
		<tag k="fixme" v="multiple name tags, choose one and add the other to alt_name; consider natural=peak for the most distinct mountains in the district" />
		<tag k="name" v="Beælkese;Vålåkleppen" />
		<tag k="natural" v="hill" />
		<tag k="place" v="locality" />
		<tag k="ssr:stedsnr" v="741489" />
	</node>
	<node lat="63.36127222068767" lon="11.945330553593873" id="-88028">
		<tag k="name" v="Skjeftåsbråttet" />
		<tag k="natural" v="valley" />
		<tag k="place" v="locality" />
		<tag k="ssr:stedsnr" v="775361" />
	</node>
	<node lat="63.59155277351486" lon="11.744011101663096" id="-88042">
		<tag k="fixme" v="consider natural=peak for the most distinct mountains in the district" />
		<tag k="name" v="Bullen" />
		<tag k="natural" v="hill" />
		<tag k="place" v="locality" />
		<tag k="ssr:stedsnr" v="802407" />
	</node>
	<node lat="63.46771111571923" lon="11.53726110480216" id="-88065">
		<tag k="name" v="Fagerlia" />
		<tag k="place" v="locality" />
		<tag k="ssr:stedsnr" v="817181" />
	</node>
	<node lat="63.458519440751516" lon="11.55795278375142" id="-88066">
		<tag k="name" v="Nessiegga" />
		<tag k="natural" v="hill" />
		<tag k="place" v="locality" />
		<tag k="ssr:stedsnr" v="817188" />
	</node>
	<node lat="63.22886388913283" lon="11.750869444187986" id="-88067">
		<tag k="fixme" v="consider natural=peak for the most distinct mountains in the district" />
		<tag k="name" v="Gilsåfjellet - Govke" />
		<tag k="name:no" v="Gilsåfjellet" />
		<tag k="name:sma" v="Govke" />
		<tag k="natural" v="hill" />
		<tag k="place" v="locality" />
		<tag k="ssr:stedsnr" v="922362" />
	</node>
	<node lat="63.240502779468315" lon="11.982300009390228" id="-88068">
		<tag k="fixme" v="consider natural=peak for the most distinct mountains in the district" />
		<tag k="name" v="Storrundhaugen" />
		<tag k="natural" v="hill" />
		<tag k="place" v="locality" />
		<tag k="ssr:stedsnr" v="922367" />
	</node>
	<node lat="63.461794445833824" lon="11.753491661656028" id="-88077">
		<tag k="name" v="Funnlia" />
		<tag k="natural" v="slope" />
		<tag k="place" v="locality" />
		<tag k="ssr:stedsnr" v="833432" />
	</node>
	<node lat="63.480469443296734" lon="11.851424993057712" id="-88091">
		<tag k="alt_name" v="Langvasshøgda" />
		<tag k="name" v="Langvasshaugan" />
		<tag k="natural" v="hill" />
		<tag k="place" v="locality" />
		<tag k="ssr:stedsnr" v="924098" />
	</node>
	<node lat="63.48585833078121" lon="11.955291671028547" id="-88108">
		<tag k="fixme" v="consider natural=peak for the most distinct mountains in the district" />
		<tag k="name" v="Blomlia" />
		<tag k="natural" v="hill" />
		<tag k="place" v="locality" />
		<tag k="ssr:stedsnr" v="863096" />
	</node>
	<node lat="63.495399996024915" lon="12.171863894906528" id="-88111">
		<tag k="name" v="Dåammalåetie" />
		<tag k="natural" v="slope" />
		<tag k="place" v="locality" />
		<tag k="ssr:stedsnr" v="863103" />
	</node>
	<node lat="63.45456389349613" lon="11.847380551412067" id="-88145">
		<tag k="name" v="Fildalen" />
		<tag k="natural" v="valley" />
		<tag k="place" v="locality" />
		<tag k="ssr:stedsnr" v="894469" />
	</node>
	<node lat="63.383619447438676" lon="11.937183336287935" id="-88149">
		<tag k="name" v="Bjønntjønnholet" />
		<tag k="natural" v="valley" />
		<tag k="place" v="locality" />
		<tag k="ssr:stedsnr" v="897009" />
	</node>
	<node lat="63.57267777609081" lon="11.983005554707775" id="-88155">
		<tag k="name" v="Fredagskjølen" />
		<tag k="natural" v="hill" />
		<tag k="place" v="locality" />
		<tag k="ssr:stedsnr" v="899268" />
	</node>
	<node lat="63.45130000065967" lon="11.590958330096983" id="-88193">
		<tag k="name" v="Steintrødalen" />
		<tag k="natural" v="valley" />
		<tag k="place" v="locality" />
		<tag k="ssr:stedsnr" v="939235" />
	</node>
	<node lat="63.541850374195086" lon="11.904509905250237" id="-88206">
		<tag k="name" v="Fersdalen" />
		<tag k="natural" v="valley" />
		<tag k="place" v="locality" />
		<tag k="ssr:stedsnr" v="972507" />
	</node>
	<node lat="63.28846111023406" lon="11.952874994721714" id="-88217">
		<tag k="name" v="Sandrya" />
		<tag k="natural" v="ridge" />
		<tag k="place" v="locality" />
		<tag k="ssr:stedsnr" v="13250" />
	</node>
	<node lat="63.45257499950858" lon="11.535627777242956" id="-88224">
		<tag k="name" v="Storberget" />
		<tag k="natural" v="hill" />
		<tag k="place" v="locality" />
		<tag k="ssr:stedsnr" v="13485" />
	</node>
	<node lat="63.51827500320991" lon="11.846911114294022" id="-88230">
		<tag k="name" v="Kartberget" />
		<tag k="natural" v="hill" />
		<tag k="place" v="locality" />
		<tag k="ssr:stedsnr" v="14130" />
	</node>
	<node lat="63.512283329741116" lon="12.16521111256226" id="-88231">
		<tag k="fixme" v="consider natural=peak for the most distinct mountains in the district" />
		<tag k="name" v="Liafjellet" />
		<tag k="name:no" v="Liafjellet" />
		<tag k="name:sma" v="Skråahte" />
		<tag k="natural" v="hill" />
		<tag k="place" v="locality" />
		<tag k="ssr:stedsnr" v="14132" />
	</node>
	<node lat="63.373261108600644" lon="12.05816389735333" id="-88263">
		<tag k="name" v="Skillerfjellet" />
		<tag k="natural" v="hill" />
		<tag k="place" v="locality" />
		<tag k="ssr:stedsnr" v="47027" />
	</node>
	<node lat="63.36270277929684" lon="11.510386104408822" id="-88266">
		<tag k="fixme" v="consider natural=peak for the most distinct mountains in the district" />
		<tag k="name" v="Buåsen" />
		<tag k="natural" v="hill" />
		<tag k="place" v="locality" />
		<tag k="ssr:stedsnr" v="47562" />
	</node>
	<node lat="63.421961115006994" lon="11.832283337958255" id="-88269">
		<tag k="name" v="Geitberget" />
		<tag k="natural" v="hill" />
		<tag k="place" v="locality" />
		<tag k="ssr:stedsnr" v="48400" />
	</node>
	<node lat="63.32253063132457" lon="11.611860180687547" id="-88275">
		<tag k="name" v="Bakkebråttet" />
		<tag k="natural" v="slope" />
		<tag k="place" v="locality" />
		<tag k="ssr:stedsnr" v="48554" />
	</node>
	<node lat="63.37604287814088" lon="11.755055614772836" id="-88276">
		<tag k="name" v="Langkjølen" />
		<tag k="natural" v="hill" />
		<tag k="place" v="locality" />
		<tag k="ssr:stedsnr" v="48563" />
	</node>
	<node lat="63.5723055528937" lon="11.922930565237511" id="-88279">
		<tag k="name" v="Kråklia" />
		<tag k="natural" v="slope" />
		<tag k="place" v="locality" />
		<tag k="ssr:stedsnr" v="49397" />
	</node>
	<node lat="63.504091666629044" lon="11.847472230249256" id="-88280">
		<tag k="name" v="Knabban" />
		<tag k="natural" v="ridge" />
		<tag k="place" v="locality" />
		<tag k="ssr:stedsnr" v="49473" />
	</node>
	<node lat="63.4870194420161" lon="11.772436115317216" id="-88281">
		<tag k="name" v="Bjørnhaugen" />
		<tag k="natural" v="hill" />
		<tag k="place" v="locality" />
		<tag k="ssr:stedsnr" v="49425" />
	</node>
	<node lat="63.572011109015655" lon="11.960466663313198" id="-88286">
		<tag k="fixme" v="consider natural=peak for the most distinct mountains in the district" />
		<tag k="name" v="Sjeftåsen" />
		<tag k="natural" v="hill" />
		<tag k="place" v="locality" />
		<tag k="ssr:stedsnr" v="50261" />
	</node>
	<node lat="63.57138889064965" lon="11.91816110632328" id="-88288">
		<tag k="name" v="Småslætthaugen" />
		<tag k="natural" v="hill" />
		<tag k="place" v="locality" />
		<tag k="ssr:stedsnr" v="50339" />
	</node>
	<node lat="63.369308328853926" lon="11.941322224722265" id="-88292">
		<tag k="name" v="Teveldalen" />
		<tag k="natural" v="valley" />
		<tag k="place" v="locality" />
		<tag k="ssr:stedsnr" v="73054" />
	</node>
	<node lat="63.20606110826271" lon="11.65669999104821" id="-88298">
		<tag k="fixme" v="consider natural=peak for the most distinct mountains in the district" />
		<tag k="name" v="Ramfjellet" />
		<tag k="name:no" v="Ramfjellet" />
		<tag k="name:sma" v="Raamma" />
		<tag k="natural" v="hill" />
		<tag k="place" v="locality" />
		<tag k="ssr:stedsnr" v="73194" />
	</node>
	<node lat="63.2379722204099" lon="11.592788888885215" id="-88299">
		<tag k="name" v="Knollen" />
		<tag k="natural" v="hill" />
		<tag k="place" v="locality" />
		<tag k="ssr:stedsnr" v="73206" />
	</node>
	<node lat="63.597650002182824" lon="11.843291663752153" id="-88319">
		<tag k="name" v="Guddingsdalen" />
		<tag k="natural" v="valley" />
		<tag k="place" v="locality" />
		<tag k="ssr:stedsnr" v="74351" />
	</node>
	<node lat="63.26337221868305" lon="11.857494454034764" id="-88327">
		<tag k="name" v="Rognåsen" />
		<tag k="natural" v="hill" />
		<tag k="place" v="locality" />
		<tag k="ssr:stedsnr" v="229374" />
	</node>
	<node lat="63.393413885690634" lon="12.065611112719724" id="-88352">
		<tag k="name" v="Slægda" />
		<tag k="natural" v="valley" />
		<tag k="place" v="locality" />
		<tag k="ssr:stedsnr" v="88746" />
	</node>
	<node lat="63.458883331625174" lon="11.640616662483136" id="-88365">
		<tag k="name" v="Vollvollhøgda" />
		<tag k="natural" v="hill" />
		<tag k="place" v="locality" />
		<tag k="ssr:stedsnr" v="109292" />
	</node>
	<node lat="63.455275002467516" lon="12.03942776932523" id="-88367">
		<tag k="name" v="Storberget" />
		<tag k="natural" v="hill" />
		<tag k="place" v="locality" />
		<tag k="ssr:stedsnr" v="109248" />
	</node>
	<node lat="63.47459722257114" lon="11.77394445237276" id="-88373">
		<tag k="name" v="Hallan" />
		<tag k="natural" v="slope" />
		<tag k="place" v="locality" />
		<tag k="ssr:stedsnr" v="110390" />
	</node>
	<node lat="63.4731277772488" lon="11.750486110579098" id="-88374">
		<tag k="fixme" v="consider natural=peak for the most distinct mountains in the district" />
		<tag k="name" v="Tømmeråsen" />
		<tag k="natural" v="hill" />
		<tag k="place" v="locality" />
		<tag k="ssr:stedsnr" v="110393" />
	</node>
	<node lat="63.55366111475259" lon="11.947058331279973" id="-88375">
		<tag k="name" v="Mildridslættet" />
		<tag k="place" v="locality" />
		<tag k="ssr:stedsnr" v="110251" />
	</node>
	<node lat="63.47235833248928" lon="11.844958339046118" id="-88378">
		<tag k="name" v="Utstugguberget" />
		<tag k="natural" v="hill" />
		<tag k="place" v="locality" />
		<tag k="ssr:stedsnr" v="110450" />
	</node>
	<node lat="63.19122500096107" lon="11.703738884245883" id="-88384">
		<tag k="fixme" v="consider natural=peak for the most distinct mountains in the district" />
		<tag k="name" v="Tofjellet" />
		<tag k="name:no" v="Tofjellet" />
		<tag k="name:sma" v="Gööktetjahke" />
		<tag k="natural" v="hill" />
		<tag k="place" v="locality" />
		<tag k="ssr:stedsnr" v="133221" />
	</node>
	<node lat="63.25375000312971" lon="11.681150007808956" id="-88393">
		<tag k="fixme" v="consider natural=peak for the most distinct mountains in the district" />
		<tag k="name" v="Revhiknipen" />
		<tag k="natural" v="hill" />
		<tag k="place" v="locality" />
		<tag k="ssr:stedsnr" v="134126" />
	</node>
	<node lat="63.491836112293875" lon="12.012991673442142" id="-88394">
		<tag k="fixme" v="consider natural=peak for the most distinct mountains in the district" />
		<tag k="name" v="Halsfjellet" />
		<tag k="name:no" v="Halsfjellet" />
		<tag k="name:sma" v="Årjelvaerie" />
		<tag k="natural" v="hill" />
		<tag k="place" v="locality" />
		<tag k="ssr:stedsnr" v="134133" />
	</node>
	<node lat="63.49713611058267" lon="11.725783326612147" id="-88395">
		<tag k="fixme" v="consider natural=peak for the most distinct mountains in the district" />
		<tag k="name" v="Storåsen" />
		<tag k="natural" v="hill" />
		<tag k="place" v="locality" />
		<tag k="ssr:stedsnr" v="134135" />
	</node>
	<node lat="63.39631111370172" lon="12.086491666828731" id="-88400">
		<tag k="fixme" v="consider natural=peak for the most distinct mountains in the district" />
		<tag k="name" v="Storbekkfjellet" />
		<tag k="natural" v="hill" />
		<tag k="place" v="locality" />
		<tag k="ssr:stedsnr" v="134083" />
	</node>
	<node lat="63.32076389159971" lon="11.579886114804767" id="-88414">
		<tag k="name" v="Kudalen" />
		<tag k="natural" v="valley" />
		<tag k="place" v="locality" />
		<tag k="ssr:stedsnr" v="134465" />
	</node>
	<node lat="63.45799166931176" lon="11.62588888396527" id="-88456">
		<tag k="fixme" v="consider natural=peak for the most distinct mountains in the district" />
		<tag k="name" v="Rundåsen" />
		<tag k="natural" v="hill" />
		<tag k="place" v="locality" />
		<tag k="ssr:stedsnr" v="169284" />
	</node>
	<node lat="63.28620000036819" lon="11.87172778035628" id="-88457">
		<tag k="name" v="Svartdalstrøa" />
		<tag k="natural" v="slope" />
		<tag k="place" v="locality" />
		<tag k="ssr:stedsnr" v="169383" />
	</node>
	<node lat="63.37224722361922" lon="11.515702780776149" id="-88462">
		<tag k="name" v="Storskørven" />
		<tag k="natural" v="hill" />
		<tag k="place" v="locality" />
		<tag k="ssr:stedsnr" v="169556" />
	</node>
	<node lat="63.319984989426295" lon="11.65354708262585" id="-88463">
		<tag k="name" v="Rognlia" />
		<tag k="natural" v="slope" />
		<tag k="place" v="locality" />
		<tag k="ssr:stedsnr" v="169601" />
	</node>
	<node lat="63.57157500396363" lon="11.97718889709274" id="-88469">
		<tag k="fixme" v="consider natural=peak for the most distinct mountains in the district" />
		<tag k="name" v="Movollåsen" />
		<tag k="natural" v="hill" />
		<tag k="place" v="locality" />
		<tag k="ssr:stedsnr" v="171246" />
	</node>
	<node lat="63.22448888561473" lon="11.822202784864523" id="-88477">
		<tag k="fixme" v="consider natural=peak for the most distinct mountains in the district" />
		<tag k="name" v="Bjørneggfjellet" />
		<tag k="name:no" v="Bjørneggfjellet" />
		<tag k="name:sma" v="Biernietjahke" />
		<tag k="natural" v="hill" />
		<tag k="place" v="locality" />
		<tag k="ssr:stedsnr" v="194346" />
	</node>
	<node lat="63.37688333039376" lon="12.086505563448126" id="-88481">
		<tag k="fixme" v="consider natural=peak for the most distinct mountains in the district" />
		<tag k="name" v="Skillerfjellet" />
		<tag k="natural" v="hill" />
		<tag k="place" v="locality" />
		<tag k="ssr:stedsnr" v="195048" />
	</node>
	<node lat="63.468049999316115" lon="11.923416664754026" id="-88489">
		<tag k="name" v="Tørrfuruhaugen" />
		<tag k="natural" v="hill" />
		<tag k="place" v="locality" />
		<tag k="ssr:stedsnr" v="195131" />
	</node>
	<node lat="63.36202499897994" lon="11.820627774067475" id="-88493">
		<tag k="name" v="Dalådalen" />
		<tag k="natural" v="valley" />
		<tag k="place" v="locality" />
		<tag k="ssr:stedsnr" v="195217" />
	</node>
	<node lat="63.31803333028053" lon="11.75662221588988" id="-88495">
		<tag k="name" v="Knollen" />
		<tag k="natural" v="hill" />
		<tag k="place" v="locality" />
		<tag k="ssr:stedsnr" v="195237" />
	</node>
	<node lat="63.51469721894324" lon="11.700305551156243" id="-88501">
		<tag k="fixme" v="consider natural=peak for the most distinct mountains in the district" />
		<tag k="name" v="Risnan" />
		<tag k="natural" v="hill" />
		<tag k="place" v="locality" />
		<tag k="ssr:stedsnr" v="195525" />
	</node>
	<node lat="63.25557777838528" lon="11.854919435970743" id="-88554">
		<tag k="name" v="Storbekkdalen" />
		<tag k="natural" v="valley" />
		<tag k="place" v="locality" />
		<tag k="ssr:stedsnr" v="290351" />
	</node>
	<node lat="63.399052774792274" lon="11.908538881303228" id="-88557">
		<tag k="name" v="Grønbekkdalen" />
		<tag k="natural" v="valley" />
		<tag k="place" v="locality" />
		<tag k="ssr:stedsnr" v="291464" />
	</node>
	<node lat="63.392263887414316" lon="11.927305553682938" id="-88558">
		<tag k="name" v="Brattåsen" />
		<tag k="natural" v="slope" />
		<tag k="place" v="locality" />
		<tag k="ssr:stedsnr" v="291465" />
	</node>
	<node lat="63.50664999843981" lon="11.628900007609642" id="-88580">
		<tag k="fixme" v="consider natural=peak for the most distinct mountains in the district" />
		<tag k="name" v="Blåstøyten" />
		<tag k="natural" v="hill" />
		<tag k="place" v="locality" />
		<tag k="ssr:stedsnr" v="316286" />
	</node>
	<node lat="63.48178333041955" lon="12.077011110232036" id="-88589">
		<tag k="name" v="Knollen" />
		<tag k="natural" v="hill" />
		<tag k="place" v="locality" />
		<tag k="ssr:stedsnr" v="317101" />
	</node>
	<node lat="63.53434999898883" lon="11.782949995265323" id="-88592">
		<tag k="fixme" v="consider natural=peak for the most distinct mountains in the district" />
		<tag k="name" v="Høgkjølfjellet" />
		<tag k="natural" v="hill" />
		<tag k="place" v="locality" />
		<tag k="ssr:stedsnr" v="317325" />
	</node>
	<node lat="63.45617777494415" lon="11.611677771652577" id="-88627">
		<tag k="fixme" v="consider natural=peak for the most distinct mountains in the district" />
		<tag k="name" v="Gaddåsen" />
		<tag k="natural" v="hill" />
		<tag k="place" v="locality" />
		<tag k="ssr:stedsnr" v="332217" />
	</node>
	<node lat="63.5135222219138" lon="11.872727781023636" id="-88630">
		<tag k="name" v="Fjøslian" />
		<tag k="natural" v="slope" />
		<tag k="place" v="locality" />
		<tag k="ssr:stedsnr" v="340034" />
	</node>
	<node lat="63.45627777415577" lon="11.752008324901645" id="-88632">
		<tag k="name" v="Seterkjølen" />
		<tag k="natural" v="ridge" />
		<tag k="place" v="locality" />
		<tag k="ssr:stedsnr" v="347428" />
	</node>
	<node lat="63.33843333477991" lon="12.06147778625896" id="-88634">
		<tag k="name" v="Svarthaugen" />
		<tag k="natural" v="hill" />
		<tag k="place" v="locality" />
		<tag k="ssr:stedsnr" v="350019" />
	</node>
	<node lat="63.34787500280571" lon="11.649097224516836" id="-88640">
		<tag k="name" v="Høykjølen" />
		<tag k="natural" v="hill" />
		<tag k="place" v="locality" />
		<tag k="ssr:stedsnr" v="351537" />
	</node>
	<node lat="63.357650004336406" lon="11.671469435349545" id="-88641">
		<tag k="name" v="Raukjølen" />
		<tag k="natural" v="hill" />
		<tag k="place" v="locality" />
		<tag k="ssr:stedsnr" v="351539" />
	</node>
	<node lat="63.3211877952448" lon="11.76627237714536" id="-88642">
		<tag k="fixme" v="consider natural=peak for the most distinct mountains in the district" />
		<tag k="name" v="Tronmyråsen" />
		<tag k="natural" v="hill" />
		<tag k="place" v="locality" />
		<tag k="ssr:stedsnr" v="351599" />
	</node>
	<node lat="63.57219999750913" lon="11.958269440659642" id="-88647">
		<tag k="name" v="Kattugellia" />
		<tag k="natural" v="slope" />
		<tag k="place" v="locality" />
		<tag k="ssr:stedsnr" v="353291" />
	</node>
	<node lat="63.57018055906854" lon="11.927588893083625" id="-88648">
		<tag k="name" v="Vakkerhamna" />
		<tag k="natural" v="slope" />
		<tag k="place" v="locality" />
		<tag k="ssr:stedsnr" v="353361" />
	</node>
	<node lat="63.35918888919752" lon="11.584911108273086" id="-88656">
		<tag k="fixme" v="consider natural=peak for the most distinct mountains in the district" />
		<tag k="name" v="Sonlifjellet" />
		<tag k="natural" v="hill" />
		<tag k="place" v="locality" />
		<tag k="ssr:stedsnr" v="376435" />
	</node>
	<node lat="63.316836109013096" lon="11.561680551830696" id="-88657">
		<tag k="fixme" v="consider natural=peak for the most distinct mountains in the district" />
		<tag k="name" v="Langhalla" />
		<tag k="natural" v="hill" />
		<tag k="place" v="locality" />
		<tag k="ssr:stedsnr" v="377071" />
	</node>
	<node lat="63.25345555699162" lon="11.845761106649011" id="-88669">
		<tag k="alt_name" v="Svienskitjåalhte" />
		<tag k="name" v="Gilsåvola" />
		<tag k="natural" v="ridge" />
		<tag k="place" v="locality" />
		<tag k="ssr:stedsnr" v="377217" />
	</node>
	<node lat="63.58847777464732" lon="11.894944434932576" id="-88671">
		<tag k="name" v="Brødlaushaugen" />
		<tag k="natural" v="hill" />
		<tag k="place" v="locality" />
		<tag k="ssr:stedsnr" v="377350" />
	</node>
	<node lat="63.60337777708987" lon="11.76742500260042" id="-88672">
		<tag k="fixme" v="consider natural=peak for the most distinct mountains in the district" />
		<tag k="name" v="Minsåsen" />
		<tag k="natural" v="hill" />
		<tag k="place" v="locality" />
		<tag k="ssr:stedsnr" v="377353" />
	</node>
	<node lat="63.41037777889938" lon="11.884083331191848" id="-88715">
		<tag k="name" v="Tårnbakken" />
		<tag k="natural" v="slope" />
		<tag k="place" v="locality" />
		<tag k="ssr:stedsnr" v="412418" />
	</node>
	<node lat="63.41376111378186" lon="11.908024991067908" id="-88716">
		<tag k="name" v="Brennhaugan" />
		<tag k="natural" v="hill" />
		<tag k="place" v="locality" />
		<tag k="ssr:stedsnr" v="412419" />
	</node>
	<node lat="63.412808332886584" lon="11.824341659433976" id="-88718">
		<tag k="name" v="Statsåsen" />
		<tag k="natural" v="hill" />
		<tag k="place" v="locality" />
		<tag k="ssr:stedsnr" v="412428" />
	</node>
	<node lat="63.352115241857945" lon="11.799099354131569" id="-88721">
		<tag k="name" v="Eggkjølen" />
		<tag k="natural" v="hill" />
		<tag k="place" v="locality" />
		<tag k="ssr:stedsnr" v="412563" />
	</node>
	<node lat="63.313902866366355" lon="11.769319387915303" id="-88723">
		<tag k="fixme" v="consider natural=peak for the most distinct mountains in the district" />
		<tag k="name" v="Høgåsen" />
		<tag k="natural" v="hill" />
		<tag k="place" v="locality" />
		<tag k="ssr:stedsnr" v="412574" />
	</node>
	<node lat="63.309995531235195" lon="11.793477365539236" id="-88724">
		<tag k="fixme" v="consider natural=peak for the most distinct mountains in the district" />
		<tag k="name" v="Kjelåsen" />
		<tag k="natural" v="hill" />
		<tag k="place" v="locality" />
		<tag k="ssr:stedsnr" v="412576" />
	</node>
	<node lat="63.481502781575266" lon="11.837630546480057" id="-88728">
		<tag k="name" v="Langvasslia" />
		<tag k="natural" v="slope" />
		<tag k="place" v="locality" />
		<tag k="ssr:stedsnr" v="413451" />
	</node>
	<node lat="63.40504444203201" lon="11.933927781775278" id="-88742">
		<tag k="fixme" v="consider natural=peak for the most distinct mountains in the district" />
		<tag k="name" v="Grønbekklia" />
		<tag k="natural" v="hill" />
		<tag k="place" v="locality" />
		<tag k="ssr:stedsnr" v="438036" />
	</node>
	<node lat="63.50258333337053" lon="11.885355557408095" id="-88750">
		<tag k="fixme" v="consider natural=peak for the most distinct mountains in the district" />
		<tag k="name" v="Lauvlia" />
		<tag k="natural" v="hill" />
		<tag k="place" v="locality" />
		<tag k="ssr:stedsnr" v="438144" />
	</node>
	<node lat="63.55634444255427" lon="12.088961111896703" id="-88761">
		<tag k="fixme" v="consider natural=peak for the most distinct mountains in the district" />
		<tag k="name" v="Kjølhaugan" />
		<tag k="natural" v="hill" />
		<tag k="place" v="locality" />
		<tag k="ssr:stedsnr" v="438338" />
	</node>
	<node lat="63.477469443629" lon="11.973791671903012" id="-88797">
		<tag k="name" v="Langslia" />
		<tag k="natural" v="hill" />
		<tag k="place" v="locality" />
		<tag k="ssr:stedsnr" v="498130" />
	</node>
	<node lat="63.33484166781542" lon="11.58006666484743" id="-88803">
		<tag k="fixme" v="consider natural=peak for the most distinct mountains in the district" />
		<tag k="name" v="Stordalsfjellet" />
		<tag k="natural" v="hill" />
		<tag k="place" v="locality" />
		<tag k="ssr:stedsnr" v="498483" />
	</node>
	<node lat="63.37899391377155" lon="11.520318065807011" id="-88833">
		<tag k="fixme" v="consider natural=peak for the most distinct mountains in the district" />
		<tag k="name" v="Kvilåsen" />
		<tag k="natural" v="hill" />
		<tag k="place" v="locality" />
		<tag k="ssr:stedsnr" v="513104" />
	</node>
	<node lat="63.45045555147516" lon="11.561066661875476" id="-88836">
		<tag k="name" v="Langneshaugen" />
		<tag k="natural" v="hill" />
		<tag k="place" v="locality" />
		<tag k="ssr:stedsnr" v="514187" />
	</node>
	<node lat="63.54216944321982" lon="11.821741665555042" id="-88837">
		<tag k="fixme" v="consider natural=peak for the most distinct mountains in the district" />
		<tag k="name" v="Larsvollåsen" />
		<tag k="natural" v="hill" />
		<tag k="place" v="locality" />
		<tag k="ssr:stedsnr" v="522024" />
	</node>
	<node lat="63.5268444487648" lon="11.868958332815017" id="-88839">
		<tag k="name" v="Rogndalen" />
		<tag k="natural" v="valley" />
		<tag k="place" v="locality" />
		<tag k="ssr:stedsnr" v="522031" />
	</node>
	<node lat="63.4545861136901" lon="11.62662500240135" id="-88847">
		<tag k="name" v="Storberget" />
		<tag k="natural" v="hill" />
		<tag k="place" v="locality" />
		<tag k="ssr:stedsnr" v="533298" />
	</node>
	<node lat="63.30003333206087" lon="11.925463894811397" id="-88849">
		<tag k="fixme" v="consider natural=peak for the most distinct mountains in the district" />
		<tag k="name" v="Hemmingbjørga" />
		<tag k="natural" v="hill" />
		<tag k="place" v="locality" />
		<tag k="ssr:stedsnr" v="533374" />
	</node>
	<node lat="63.42540277390339" lon="11.884583336127072" id="-88861">
		<tag k="fixme" v="consider natural=peak for the most distinct mountains in the district" />
		<tag k="name" v="Kjerringåsen" />
		<tag k="natural" v="hill" />
		<tag k="place" v="locality" />
		<tag k="ssr:stedsnr" v="559022" />
	</node>
	<node lat="63.527349997968855" lon="11.774174994129282" id="-88862">
		<tag k="fixme" v="consider natural=peak for the most distinct mountains in the district" />
		<tag k="name" v="Kammen" />
		<tag k="natural" v="hill" />
		<tag k="place" v="locality" />
		<tag k="ssr:stedsnr" v="559132" />
	</node>
	<node lat="63.27367499563265" lon="11.742549995867224" id="-88864">
		<tag k="fixme" v="consider natural=peak for the most distinct mountains in the district" />
		<tag k="name" v="Klumpen" />
		<tag k="natural" v="hill" />
		<tag k="place" v="locality" />
		<tag k="ssr:stedsnr" v="559219" />
	</node>
	<node lat="63.30621944430528" lon="11.592977782747985" id="-88866">
		<tag k="name" v="Neslia" />
		<tag k="natural" v="slope" />
		<tag k="place" v="locality" />
		<tag k="ssr:stedsnr" v="559069" />
	</node>
	<node lat="63.47485000172102" lon="11.677427775328429" id="-88868">
		<tag k="fixme" v="consider natural=peak for the most distinct mountains in the district" />
		<tag k="name" v="Gærhkoevarie" />
		<tag k="name:no" v="Kjørkbyfjellet" />
		<tag k="name:sma" v="Gærhkoevarie" />
		<tag k="natural" v="hill" />
		<tag k="place" v="locality" />
		<tag k="ssr:stedsnr" v="559305" />
	</node>
	<node lat="63.5323805535693" lon="11.648413897230522" id="-88871">
		<tag k="name" v="Velta" />
		<tag k="natural" v="valley" />
		<tag k="place" v="locality" />
		<tag k="ssr:stedsnr" v="559475" />
	</node>
	<node lat="63.40496666503473" lon="11.949449996470236" id="-88898">
		<tag k="name" v="Svarthaugen" />
		<tag k="natural" v="hill" />
		<tag k="place" v="locality" />
		<tag k="ssr:stedsnr" v="573765" />
	</node>
	<node lat="63.29872499573811" lon="11.951433333770172" id="-88904">
		<tag k="name" v="Andersdalen" />
		<tag k="natural" v="valley" />
		<tag k="place" v="locality" />
		<tag k="ssr:stedsnr" v="592293" />
	</node>
	<node lat="63.34568610666378" lon="11.630711118500777" id="-88907">
		<tag k="loc_name" v="Skorbekkberget" />
		<tag k="name" v="Skarbekkberget" />
		<tag k="natural" v="hill" />
		<tag k="place" v="locality" />
		<tag k="ssr:stedsnr" v="593524" />
	</node>
	<node lat="63.34161667064047" lon="11.64424167675469" id="-88908">
		<tag k="name" v="Storskarmoen" />
		<tag k="place" v="locality" />
		<tag k="ssr:stedsnr" v="593530" />
	</node>
	<node lat="63.306630553036946" lon="11.767033331817334" id="-88909">
		<tag k="name" v="Nyseterrya" />
		<tag k="place" v="locality" />
		<tag k="ssr:stedsnr" v="593579" />
	</node>
	<node lat="63.47588333243094" lon="11.852438894987262" id="-88911">
		<tag k="name" v="Utstuggudalen" />
		<tag k="natural" v="valley" />
		<tag k="place" v="locality" />
		<tag k="ssr:stedsnr" v="595428" />
	</node>
	<node lat="63.55521388536282" lon="11.992519440326008" id="-88915">
		<tag k="fixme" v="consider natural=peak for the most distinct mountains in the district" />
		<tag k="name" v="Tremerråsen" />
		<tag k="natural" v="hill" />
		<tag k="place" v="locality" />
		<tag k="ssr:stedsnr" v="595244" />
	</node>
	<node lat="63.365227781223204" lon="11.766747219429092" id="-88922">
		<tag k="alt_name" v="Røssåsen" />
		<tag k="fixme" v="consider natural=peak for the most distinct mountains in the district" />
		<tag k="name" v="Røsåsen" />
		<tag k="natural" v="hill" />
		<tag k="place" v="locality" />
		<tag k="ssr:stedsnr" v="619220" />
	</node>
	<node lat="63.570324996626375" lon="11.766408340023808" id="-88933">
		<tag k="fixme" v="consider natural=peak for the most distinct mountains in the district" />
		<tag k="name" v="Gammelvollåsen" />
		<tag k="natural" v="hill" />
		<tag k="place" v="locality" />
		<tag k="ssr:stedsnr" v="620331" />
	</node>
	<node lat="63.46185833186279" lon="11.539119452565567" id="-88937">
		<tag k="name" v="Hårkallen" />
		<tag k="place" v="locality" />
		<tag k="ssr:stedsnr" v="635151" />
	</node>
	<node lat="63.48448055425418" lon="11.820566661825495" id="-88967">
		<tag k="fixme" v="consider natural=peak for the most distinct mountains in the district" />
		<tag k="name" v="Tippen" />
		<tag k="natural" v="hill" />
		<tag k="place" v="locality" />
		<tag k="ssr:stedsnr" v="631750" />
	</node>
	<node lat="63.45048333385812" lon="11.744344449796115" id="-88973">
		<tag k="name" v="Brentkjølen" />
		<tag k="natural" v="ridge" />
		<tag k="place" v="locality" />
		<tag k="ssr:stedsnr" v="651431" />
	</node>
	<node lat="63.377516667937186" lon="11.986994437082716" id="-88977">
		<tag k="name" v="Jamtdalshøgda" />
		<tag k="natural" v="hill" />
		<tag k="place" v="locality" />
		<tag k="ssr:stedsnr" v="654423" />
	</node>
	<node lat="63.33995262629473" lon="11.692112663321144" id="-88978">
		<tag k="fixme" v="consider natural=peak for the most distinct mountains in the district" />
		<tag k="name" v="Storåsen" />
		<tag k="natural" v="hill" />
		<tag k="place" v="locality" />
		<tag k="ssr:stedsnr" v="654589" />
	</node>
	<node lat="63.38258055413116" lon="11.54300555753755" id="-88983">
		<tag k="name" v="Heimbekk-kvelvet" />
		<tag k="natural" v="hill" />
		<tag k="place" v="locality" />
		<tag k="ssr:stedsnr" v="654550" />
	</node>
	<node lat="63.56175833176776" lon="11.94068333199377" id="-88987">
		<tag k="name" v="Torpberget" />
		<tag k="natural" v="hill" />
		<tag k="place" v="locality" />
		<tag k="ssr:stedsnr" v="656349" />
	</node>
	<node lat="63.57325833089922" lon="11.946566657104563" id="-88990">
		<tag k="name" v="Vakkerdalen" />
		<tag k="natural" v="valley" />
		<tag k="place" v="locality" />
		<tag k="ssr:stedsnr" v="656245" />
	</node>
	<node lat="63.56842777778479" lon="11.986047216968622" id="-88991">
		<tag k="name" v="Finnlegdin" />
		<tag k="natural" v="hill" />
		<tag k="place" v="locality" />
		<tag k="ssr:stedsnr" v="656254" />
	</node>
	<node lat="63.55357221762294" lon="11.982961120657357" id="-88992">
		<tag k="name" v="Bjørkslættet" />
		<tag k="place" v="locality" />
		<tag k="ssr:stedsnr" v="656260" />
	</node>
	<node lat="63.48928055929994" lon="11.765622231287137" id="-88993">
		<tag k="name" v="Gammelvollkjølen" />
		<tag k="natural" v="ridge" />
		<tag k="place" v="locality" />
		<tag k="ssr:stedsnr" v="656376" />
	</node>
	<node lat="63.53670555283235" lon="11.887802769794444" id="-88994">
		<tag k="name" v="Sagsletta" />
		<tag k="place" v="locality" />
		<tag k="ssr:stedsnr" v="656461" />
	</node>
	<node lat="63.347377774141044" lon="11.980836117105785" id="-89005">
		<tag k="name" v="Halla" />
		<tag k="natural" v="slope" />
		<tag k="place" v="locality" />
		<tag k="ssr:stedsnr" v="715459" />
	</node>
	<node lat="63.360583330279184" lon="11.547333342470205" id="-89007">
		<tag k="fixme" v="consider natural=peak for the most distinct mountains in the district" />
		<tag k="name" v="Storsteinan" />
		<tag k="natural" v="hill" />
		<tag k="place" v="locality" />
		<tag k="ssr:stedsnr" v="715557" />
	</node>
	<node lat="63.56869999916761" lon="11.95159721541234" id="-89015">
		<tag k="fixme" v="consider natural=peak for the most distinct mountains in the district" />
		<tag k="name" v="Kolhaugåsen" />
		<tag k="natural" v="hill" />
		<tag k="place" v="locality" />
		<tag k="ssr:stedsnr" v="717270" />
	</node>
	<node lat="63.257861110523805" lon="11.606672227696777" id="-89022">
		<tag k="fixme" v="consider natural=peak for the most distinct mountains in the district" />
		<tag k="name" v="Grønfjellet" />
		<tag k="natural" v="hill" />
		<tag k="place" v="locality" />
		<tag k="ssr:stedsnr" v="740195" />
	</node>
	<node lat="63.27616389185323" lon="11.661952770870512" id="-89031">
		<tag k="fixme" v="consider natural=peak for the most distinct mountains in the district" />
		<tag k="name" v="Høglia" />
		<tag k="natural" v="hill" />
		<tag k="place" v="locality" />
		<tag k="ssr:stedsnr" v="741119" />
	</node>
	<node lat="63.34153023834661" lon="11.730909076336536" id="-89036">
		<tag k="alt_name" v="Målåsbjørga" />
		<tag k="name" v="Mårråsbjørga" />
		<tag k="natural" v="slope" />
		<tag k="place" v="locality" />
		<tag k="ssr:stedsnr" v="741248" />
	</node>
	<node lat="63.31215832962181" lon="11.743308339843384" id="-89039">
		<tag k="fixme" v="consider natural=peak for the most distinct mountains in the district" />
		<tag k="name" v="Husmannsberget" />
		<tag k="natural" v="hill" />
		<tag k="place" v="locality" />
		<tag k="ssr:stedsnr" v="741261" />
	</node>
	<node lat="63.476775002152515" lon="11.554899994280156" id="-89043">
		<tag k="fixme" v="consider natural=peak for the most distinct mountains in the district" />
		<tag k="name" v="Fagerlifjellet" />
		<tag k="natural" v="hill" />
		<tag k="place" v="locality" />
		<tag k="ssr:stedsnr" v="741363" />
	</node>
	<node lat="63.30346389314989" lon="11.94608888569703" id="-89073">
		<tag k="name" v="Graslia" />
		<tag k="natural" v="slope" />
		<tag k="place" v="locality" />
		<tag k="ssr:stedsnr" v="775248" />
	</node>
	<node lat="63.323476088953015" lon="11.63898790175575" id="-89080">
		<tag k="fixme" v="consider natural=peak for the most distinct mountains in the district" />
		<tag k="name" v="Nessiåsan" />
		<tag k="natural" v="hill" />
		<tag k="place" v="locality" />
		<tag k="ssr:stedsnr" v="776577" />
	</node>
	<node lat="63.308322854481304" lon="11.746284681116222" id="-89081">
		<tag k="name" v="Midtiberget" />
		<tag k="natural" v="hill" />
		<tag k="place" v="locality" />
		<tag k="ssr:stedsnr" v="776594" />
	</node>
	<node lat="63.47279444440981" lon="11.79405278671477" id="-89083">
		<tag k="name" v="Osryan" />
		<tag k="natural" v="ridge" />
		<tag k="place" v="locality" />
		<tag k="ssr:stedsnr" v="777376" />
	</node>
	<node lat="63.53803611226364" lon="11.915613890739158" id="-89089">
		<tag k="fixme" v="consider natural=peak for the most distinct mountains in the district" />
		<tag k="name" v="Fuglåsen" />
		<tag k="natural" v="hill" />
		<tag k="place" v="locality" />
		<tag k="ssr:stedsnr" v="778456" />
	</node>
	<node lat="63.36923055838204" lon="11.888830561785772" id="-89140">
		<tag k="fixme" v="consider natural=peak for the most distinct mountains in the district" />
		<tag k="name" v="Fjellåsen" />
		<tag k="natural" v="hill" />
		<tag k="place" v="locality" />
		<tag k="ssr:stedsnr" v="817801" />
	</node>
	<node lat="63.53689444759848" lon="11.827336113929785" id="-89142">
		<tag k="fixme" v="consider natural=peak for the most distinct mountains in the district" />
		<tag k="name" v="Fersåsen" />
		<tag k="natural" v="hill" />
		<tag k="place" v="locality" />
		<tag k="ssr:stedsnr" v="826026" />
	</node>
	<node lat="63.37344444181507" lon="11.972680547147105" id="-89153">
		<tag k="name" v="Kongshaugen" />
		<tag k="natural" v="hill" />
		<tag k="place" v="locality" />
		<tag k="ssr:stedsnr" v="836357" />
	</node>
	<node lat="63.27774722268181" lon="11.915408325244558" id="-89155">
		<tag k="name" v="Elvdalen" />
		<tag k="natural" v="valley" />
		<tag k="place" v="locality" />
		<tag k="ssr:stedsnr" v="837401" />
	</node>
	<node lat="63.37071876735275" lon="11.767194264777164" id="-89159">
		<tag k="name" v="Rundhaugen" />
		<tag k="natural" v="hill" />
		<tag k="place" v="locality" />
		<tag k="ssr:stedsnr" v="837614" />
	</node>
	<node lat="63.331546396049625" lon="11.64032880721245" id="-89160">
		<tag k="name" v="Ekornsletta" />
		<tag k="place" v="locality" />
		<tag k="ssr:stedsnr" v="837617" />
	</node>
	<node lat="63.57277777998897" lon="11.905827786869088" id="-89166">
		<tag k="fixme" v="consider natural=peak for the most distinct mountains in the district" />
		<tag k="name" v="Solliåsen" />
		<tag k="natural" v="hill" />
		<tag k="place" v="locality" />
		<tag k="ssr:stedsnr" v="839357" />
	</node>
	<node lat="63.4940999990956" lon="11.859963884769728" id="-89169">
		<tag k="name" v="Lauvlia" />
		<tag k="natural" v="slope" />
		<tag k="place" v="locality" />
		<tag k="ssr:stedsnr" v="839436" />
	</node>
	<node lat="63.534933330888364" lon="11.892794451185498" id="-89170">
		<tag k="name" v="Sagbakken" />
		<tag k="natural" v="slope" />
		<tag k="place" v="locality" />
		<tag k="ssr:stedsnr" v="839464" />
	</node>
	<node lat="63.2920111070294" lon="11.592616669620636" id="-89184">
		<tag k="name" v="Måsflohalla" />
		<tag k="natural" v="hill" />
		<tag k="place" v="locality" />
		<tag k="ssr:stedsnr" v="863072" />
	</node>
	<node lat="63.430580552322084" lon="11.892925002211586" id="-89190">
		<tag k="fixme" v="consider natural=peak for the most distinct mountains in the district" />
		<tag k="name" v="Rya" />
		<tag k="natural" v="hill" />
		<tag k="place" v="locality" />
		<tag k="ssr:stedsnr" v="863032" />
	</node>
	<node lat="63.380391663071066" lon="11.66255833929539" id="-89201">
		<tag k="fixme" v="consider natural=peak for the most distinct mountains in the district" />
		<tag k="name" v="Storbekknollen" />
		<tag k="natural" v="hill" />
		<tag k="place" v="locality" />
		<tag k="ssr:stedsnr" v="863376" />
	</node>
	<node lat="63.376611110824406" lon="11.545952769360957" id="-89202">
		<tag k="fixme" v="consider natural=peak for the most distinct mountains in the district" />
		<tag k="name" v="Storfjellet" />
		<tag k="natural" v="hill" />
		<tag k="place" v="locality" />
		<tag k="ssr:stedsnr" v="863386" />
	</node>
	<node lat="63.25752777501544" lon="11.895872227373975" id="-89241">
		<tag k="name" v="Røsthaugan" />
		<tag k="natural" v="hill" />
		<tag k="place" v="locality" />
		<tag k="ssr:stedsnr" v="938770" />
	</node>
	<node lat="63.49053611007513" lon="11.907008326356014" id="-89242">
		<tag k="name" v="Storhaugen" />
		<tag k="natural" v="hill" />
		<tag k="place" v="locality" />
		<tag k="ssr:stedsnr" v="938790" />
	</node>
	<node lat="63.46676944091712" lon="11.559077774425054" id="-89245">
		<tag k="name" v="Reinåhuva" />
		<tag k="natural" v="hill" />
		<tag k="place" v="locality" />
		<tag k="ssr:stedsnr" v="939167" />
	</node>
	<node lat="63.415372225763015" lon="11.831508327812823" id="-89257">
		<tag k="name" v="Statsåsgrubba" />
		<tag k="place" v="locality" />
		<tag k="ssr:stedsnr" v="958450" />
	</node>
	<node lat="63.3916500018076" lon="11.506658333602038" id="-89260">
		<tag k="fixme" v="consider natural=peak for the most distinct mountains in the district" />
		<tag k="name" v="Gammelbufjellet" />
		<tag k="natural" v="hill" />
		<tag k="place" v="locality" />
		<tag k="ssr:stedsnr" v="958568" />
	</node>
	<node lat="63.46999999559901" lon="11.761772222294088" id="-89262">
		<tag k="name" v="Bakgreihalla" />
		<tag k="natural" v="slope" />
		<tag k="place" v="locality" />
		<tag k="ssr:stedsnr" v="959351" />
	</node>
	<node lat="63.551013890241414" lon="11.905080554296024" id="-89266">
		<tag k="name" v="Åkran" />
		<tag k="place" v="locality" />
		<tag k="ssr:stedsnr" v="959471" />
	</node>
	<node lat="63.44940555733201" lon="11.976655563306815" id="-89267">
		<tag k="name" v="Bjørnholet" />
		<tag k="place" v="locality" />
		<tag k="ssr:stedsnr" v="959751" />
	</node>
</osm>
