<?xml version="1.0" encoding="UTF-8"?>
<osm generator="osmapis" version="0.6">
	<node id="-763881" lat="63.4308973681" lon="11.7561450443">
		<tag k="name" v="Meråkertrøa" />
		<tag k="place" v="farm" />
		<tag k="ssr:stedsnr" v="987432" />
	</node>
	<node id="-763880" lat="63.3975471188" lon="11.7937705087">
		<tag k="name" v="Nytrø" />
		<tag k="place" v="farm" />
		<tag k="ssr:stedsnr" v="983743" />
	</node>
	<node id="-763878" lat="63.4404863929" lon="11.6844745479">
		<tag k="name" v="Krogstadnes" />
		<tag k="place" v="farm" />
		<tag k="ssr:stedsnr" v="980578" />
	</node>
	<node id="-763876" lat="63.4440536487" lon="11.6406515256">
		<tag k="name" v="Tunelhaugen" />
		<tag k="place" v="farm" />
		<tag k="ssr:stedsnr" v="979917" />
	</node>
	<node id="-763875" lat="63.336006169" lon="12.0336922074">
		<tag k="fixme" v="consider place=hamlet" />
		<tag k="name" v="Teveldalen" />
		<tag k="place" v="farm" />
		<tag k="ssr:stedsnr" v="976240" />
	</node>
	<node id="-763874" lat="63.4429525637" lon="11.6625392778">
		<tag k="fixme" v="consider place=hamlet" />
		<tag k="name" v="Brenna" />
		<tag k="place" v="farm" />
		<tag k="ssr:stedsnr" v="976236" />
	</node>
	<node id="-763873" lat="63.4166397546" lon="11.7427550766">
		<tag k="alt_name" v="Nustad Mellom" />
		<tag k="name" v="Fossmoen" />
		<tag k="place" v="farm" />
		<tag k="ssr:stedsnr" v="975644" />
	</node>
	<node id="-763872" lat="63.4167462174" lon="11.7443959862">
		<tag k="name" v="Nustad" />
		<tag k="place" v="hamlet" />
		<tag k="ssr:stedsnr" v="975643" />
	</node>
	<node id="-763847" lat="63.4131750032" lon="11.7338361065">
		<tag k="amenity" v="school" />
		<tag k="name" v="Meråker skole" />
		<tag k="ssr:stedsnr" v="952181" />
	</node>
	<node id="-763844" lat="63.3997527812" lon="11.7904888807">
		<tag k="name" v="Løkka" />
		<tag k="place" v="farm" />
		<tag k="ssr:stedsnr" v="872782" />
	</node>
	<node id="-763842" lat="63.4376611095" lon="11.719244446">
		<tag k="name" v="Bergplassen" />
		<tag k="place" v="locality" />
		<tag k="ssr:stedsnr" v="872249" />
	</node>
	<node id="-763841" lat="63.4320138901" lon="11.7207777763">
		<tag k="name" v="Framigard Funnaunet" />
		<tag k="place" v="farm" />
		<tag k="ssr:stedsnr" v="872148" />
	</node>
	<node id="-763840" lat="63.432902778" lon="11.7106638911">
		<tag k="name" v="Knoppan" />
		<tag k="place" v="farm" />
		<tag k="ssr:stedsnr" v="872146" />
	</node>
	<node id="-763839" lat="63.4336194478" lon="11.7109444467">
		<tag k="name" v="Litjmoen" />
		<tag k="place" v="farm" />
		<tag k="ssr:stedsnr" v="872145" />
	</node>
	<node id="-763836" lat="63.4011250015" lon="11.7282750018">
		<tag k="name" v="Tronsetneset" />
		<tag k="place" v="farm" />
		<tag k="ssr:stedsnr" v="872034" />
	</node>
	<node id="-763832" lat="63.4477972221" lon="11.6848444432">
		<tag k="historic" v="shieling" />
		<tag k="name" v="Hallvardvollen" />
		<tag k="place" v="locality" />
		<tag k="ssr:stedsnr" v="871501" />
	</node>
	<node id="-763820" lat="63.4347688747" lon="11.7132449817">
		<tag k="alt_name" v="Klokhaugen" />
		<tag k="fixme" v="consider place=hamlet" />
		<tag k="name" v="Klokkhaugen" />
		<tag k="place" v="farm" />
		<tag k="ssr:stedsnr" v="863504" />
	</node>
	<node id="-763819" lat="63.4374055521" lon="11.6936277731">
		<tag k="name" v="Svebakken" />
		<tag k="place" v="farm" />
		<tag k="ssr:stedsnr" v="863502" />
	</node>
	<node id="-763818" lat="63.4241388878" lon="11.7165583402">
		<tag k="name" v="Aspåsen" />
		<tag k="place" v="farm" />
		<tag k="ssr:stedsnr" v="863485" />
	</node>
	<node id="-763817" lat="63.4414138879" lon="11.6584388808">
		<tag k="name" v="Asphaugen" />
		<tag k="place" v="farm" />
		<tag k="ssr:stedsnr" v="863460" />
	</node>
	<node id="-763814" lat="63.569999999" lon="11.8729361039">
		<tag k="name" v="Oksvollen" />
		<tag k="place" v="locality" />
		<tag k="ssr:stedsnr" v="863365" />
	</node>
	<node id="-763811" lat="63.4563995989" lon="11.5721107337">
		<tag k="fixme" v="consider place=hamlet" />
		<tag k="name" v="Reinåa" />
		<tag k="place" v="farm" />
		<tag k="ssr:stedsnr" v="863270" />
	</node>
	<node id="-763810" lat="63.2897555565" lon="11.8996888959">
		<tag k="alt_name" v="Kluksdal, midtre;Midtigarden;Kluksdal, Mellom" />
		<tag k="fixme" v="multiple name tags, choose one and add the other to alt_name" />
		<tag k="name" v="Kluksdal;Midtre Kluksdal" />
		<tag k="place" v="farm" />
		<tag k="ssr:stedsnr" v="863227" />
	</node>
	<node id="-763809" lat="63.301105556" lon="11.8283249962">
		<tag k="name" v="Elva" />
		<tag k="place" v="farm" />
		<tag k="ssr:stedsnr" v="863222" />
	</node>
	<node id="-763807" lat="63.5106749988" lon="11.9327249985">
		<tag k="name" v="Storlagvollen" />
		<tag k="place" v="isolated_dwelling" />
		<tag k="ssr:stedsnr" v="863147" />
	</node>
	<node id="-763806" lat="63.5191777779" lon="11.7709277739">
		<tag k="name" v="Kamvollen" />
		<tag k="place" v="isolated_dwelling" />
		<tag k="ssr:stedsnr" v="863142" />
	</node>
	<node id="-763800" lat="63.4089166765" lon="11.7178822943">
		<tag k="fixme" v="consider place=hamlet" />
		<tag k="name" v="Graftås" />
		<tag k="place" v="farm" />
		<tag k="ssr:stedsnr" v="863052" />
	</node>
	<node id="-763798" lat="63.4022777821" lon="11.739650002">
		<tag k="name" v="Svedjan" />
		<tag k="place" v="farm" />
		<tag k="ssr:stedsnr" v="863041" />
	</node>
	<node id="-763797" lat="63.3991583351" lon="11.8146027868">
		<tag k="name" v="Hammerskallen" />
		<tag k="place" v="isolated_dwelling" />
		<tag k="ssr:stedsnr" v="863036" />
	</node>
	<node id="-763794" lat="63.4296444407" lon="11.7573416704">
		<tag k="name" v="Austigard Mårråk" />
		<tag k="place" v="farm" />
		<tag k="ssr:stedsnr" v="863029" />
	</node>
	<node id="-763791" lat="63.4265305546" lon="11.7350666763">
		<tag k="name" v="Sjursneset" />
		<tag k="place" v="farm" />
		<tag k="ssr:stedsnr" v="863009" />
	</node>
	<node id="-763790" lat="63.4276638878" lon="11.7732305637">
		<tag k="name" v="Skogly" />
		<tag k="place" v="farm" />
		<tag k="ssr:stedsnr" v="863005" />
	</node>
	<node id="-763786" lat="63.4458750013" lon="11.6167361203">
		<tag k="name" v="Vollmoan" />
		<tag k="place" v="farm" />
		<tag k="ssr:stedsnr" v="862458" />
	</node>
	<node id="-763784" lat="63.3479694441" lon="11.6449833425">
		<tag k="historic" v="shieling" />
		<tag k="name" v="Storskardvollen" />
		<tag k="place" v="locality" />
		<tag k="ssr:stedsnr" v="862427" />
	</node>
	<node id="-763778" lat="63.3713916695" lon="11.8135861037">
		<tag k="name" v="Øyan" />
		<tag k="place" v="farm" />
		<tag k="ssr:stedsnr" v="862055" />
	</node>
	<node id="-763754" lat="63.2873444482" lon="11.8211222262">
		<tag k="name" v="Volvollen nordre" />
		<tag k="place" v="isolated_dwelling" />
		<tag k="ssr:stedsnr" v="836325" />
	</node>
	<node id="-763749" lat="63.4430611112" lon="11.6989416589">
		<tag k="name" v="Nordistu Litjkrokstad" />
		<tag k="place" v="farm" />
		<tag k="ssr:stedsnr" v="830069" />
	</node>
	<node id="-763726" lat="63.4223999984" lon="11.7431861107">
		<tag k="name" v="Flotten" />
		<tag k="place" v="farm" />
		<tag k="ssr:stedsnr" v="811240" />
	</node>
	<node id="-763722" lat="63.4381584139" lon="11.7064011016">
		<tag k="fixme" v="multiple name tags, choose one and add the other to alt_name; consider place=hamlet" />
		<tag k="name" v="Negarden;Nyhus" />
		<tag k="place" v="farm" />
		<tag k="ssr:stedsnr" v="811226" />
	</node>
	<node id="-763715" lat="63.4321805564" lon="11.7238416712">
		<tag k="name" v="Austigard Funnaunet" />
		<tag k="place" v="farm" />
		<tag k="ssr:stedsnr" v="811145" />
	</node>
	<node id="-763714" lat="63.2974055529" lon="11.8296694406">
		<tag k="building" v="industrial" />
		<tag k="industrial" v="factory" />
		<tag k="name" v="Stordalssaga" />
		<tag k="ssr:stedsnr" v="811138" />
	</node>
	<node id="-763695" lat="63.4432999986" lon="11.647883326">
		<tag k="name" v="Kjørkbyen" />
		<tag k="place" v="hamlet" />
		<tag k="ssr:stedsnr" v="802531" />
	</node>
	<node id="-763694" lat="63.4462833339" lon="11.6951055608">
		<tag k="name" v="Bjørga" />
		<tag k="place" v="farm" />
		<tag k="ssr:stedsnr" v="802529" />
	</node>
	<node id="-763693" lat="63.446663893" lon="11.6881750102">
		<tag k="name" v="Strisvea" />
		<tag k="place" v="farm" />
		<tag k="ssr:stedsnr" v="802526" />
	</node>
	<node id="-763691" lat="63.3384944444" lon="12.0345499904">
		<tag k="name" v="Flaten" />
		<tag k="place" v="farm" />
		<tag k="ssr:stedsnr" v="802235" />
	</node>
	<node id="-763689" lat="63.4699388878" lon="11.7570083302">
		<tag k="name" v="Storbekkvollen" />
		<tag k="place" v="isolated_dwelling" />
		<tag k="ssr:stedsnr" v="802151" />
	</node>
	<node id="-763687" lat="63.2956916666" lon="11.5539138937">
		<tag k="building" v="industrial" />
		<tag k="industrial" v="factory" />
		<tag k="name" v="Kongsgruva" />
		<tag k="ssr:stedsnr" v="802097" />
	</node>
	<node id="-763684" lat="63.4064000019" lon="11.740800007">
		<tag k="name" v="Fossen" />
		<tag k="place" v="farm" />
		<tag k="ssr:stedsnr" v="802071" />
	</node>
	<node id="-763683" lat="63.4048805523" lon="11.7845888911">
		<tag k="name" v="Sjursa" />
		<tag k="place" v="farm" />
		<tag k="ssr:stedsnr" v="802057" />
	</node>
	<node id="-763682" lat="63.4263750015" lon="11.7526777702">
		<tag k="name" v="Bortstu Mårråk" />
		<tag k="place" v="farm" />
		<tag k="ssr:stedsnr" v="802047" />
	</node>
	<node id="-763681" lat="63.4312083327" lon="11.7369194501">
		<tag k="name" v="Hegnes" />
		<tag k="place" v="farm" />
		<tag k="ssr:stedsnr" v="802009" />
	</node>
	<node id="-763652" lat="63.4139722227" lon="11.7302861117">
		<tag k="amenity" v="school" />
		<tag k="name" v="Meråker videregående skole" />
		<tag k="ssr:stedsnr" v="770144" />
	</node>
	<node id="-763651" lat="63.5544907362" lon="11.9523078426">
		<tag k="name" v="Sulåmo" />
		<tag k="old_name" v="Sulåmoen" />
		<tag k="place" v="farm" />
		<tag k="ssr:stedsnr" v="766739" />
	</node>
	<node id="-763648" lat="63.3758027776" lon="11.7668416669">
		<tag k="alt_name" v="Røsåsvollen" />
		<tag k="historic" v="shieling" />
		<tag k="name" v="Røssåsvollen" />
		<tag k="place" v="locality" />
		<tag k="ssr:stedsnr" v="756798" />
	</node>
	<node id="-763642" lat="63.4063555596" lon="11.7813249983">
		<tag k="name" v="Plassen" />
		<tag k="place" v="locality" />
		<tag k="ssr:stedsnr" v="750678" />
	</node>
	<node id="-763641" lat="63.4213472238" lon="11.7485000046">
		<tag k="name" v="Sandstad" />
		<tag k="place" v="isolated_dwelling" />
		<tag k="ssr:stedsnr" v="750664" />
	</node>
	<node id="-763629" lat="63.4142694459" lon="11.7346166732">
		<tag k="name" v="Lauvlimoen" />
		<tag k="place" v="farm" />
		<tag k="ssr:stedsnr" v="750032" />
	</node>
	<node id="-763628" lat="63.4056194444" lon="11.724847214">
		<tag k="name" v="Saksvollen" />
		<tag k="place" v="farm" />
		<tag k="ssr:stedsnr" v="750027" />
	</node>
	<node id="-763625" lat="63.3979833319" lon="11.6811249988">
		<tag k="historic" v="shieling" />
		<tag k="name" v="Ospåsvollen" />
		<tag k="place" v="locality" />
		<tag k="ssr:stedsnr" v="750020" />
	</node>
	<node id="-763623" lat="63.3483500015" lon="11.644716661">
		<tag k="historic" v="shieling" />
		<tag k="name" v="Litjskorvollen" />
		<tag k="place" v="locality" />
		<tag k="ssr:stedsnr" v="749150" />
	</node>
	<node id="-763617" lat="63.5570888878" lon="11.9493666595">
		<tag k="name" v="Nøstmo" />
		<tag k="place" v="farm" />
		<tag k="ssr:stedsnr" v="742341" />
	</node>
	<node id="-763616" lat="63.5316916626" lon="11.8282055549">
		<tag k="historic" v="shieling" />
		<tag k="name" v="Hansvollen" />
		<tag k="place" v="locality" />
		<tag k="ssr:stedsnr" v="742336" />
	</node>
	<node id="-763612" lat="63.3913775641" lon="11.7126570676">
		<tag k="fixme" v="consider place=hamlet" />
		<tag k="name" v="Bølet" />
		<tag k="old_name" v="Gravåsen" />
		<tag k="place" v="farm" />
		<tag k="ssr:stedsnr" v="741472" />
	</node>
	<node id="-763606" lat="63.2859777807" lon="11.9043361031">
		<tag k="alt_name" v="Holmen;Kluksdal, Søndre;Kluksdal, øvre" />
		<tag k="fixme" v="multiple name tags, choose one and add the other to alt_name" />
		<tag k="name" v="Søndre Kluksdal;Øvre Kluksdal" />
		<tag k="place" v="farm" />
		<tag k="ssr:stedsnr" v="741280" />
	</node>
	<node id="-763602" lat="63.4016388897" lon="11.799402776">
		<tag k="name" v="Løvås" />
		<tag k="place" v="farm" />
		<tag k="ssr:stedsnr" v="741046" />
	</node>
	<node id="-763601" lat="63.4230749957" lon="11.7659138905">
		<tag k="name" v="Trønnes" />
		<tag k="place" v="farm" />
		<tag k="ssr:stedsnr" v="741039" />
	</node>
	<node id="-763600" lat="63.4170594303" lon="11.7324626611">
		<tag k="fixme" v="consider place=hamlet" />
		<tag k="name" v="Lauvlia" />
		<tag k="place" v="farm" />
		<tag k="ssr:stedsnr" v="741036" />
	</node>
	<node id="-763598" lat="63.4382720998" lon="11.7795956827">
		<tag k="name" v="Lunvollen" />
		<tag k="place" v="locality" />
		<tag k="ssr:stedsnr" v="741018" />
	</node>
	<node id="-763597" lat="63.4322297139" lon="11.7710063594">
		<tag k="loc_name" v="Rabben" />
		<tag k="name" v="Jemtåsen" />
		<tag k="place" v="farm" />
		<tag k="ssr:stedsnr" v="741016" />
	</node>
	<node id="-763596" lat="63.4410888895" lon="11.7394055519">
		<tag k="name" v="Hestesundbakken" />
		<tag k="place" v="farm" />
		<tag k="ssr:stedsnr" v="741014" />
	</node>
	<node id="-763583" lat="63.3368899106" lon="11.6381648253">
		<tag k="historic" v="shieling" />
		<tag k="name" v="Tjønnfloen" />
		<tag k="place" v="locality" />
		<tag k="ssr:stedsnr" v="654599" />
	</node>
	<node id="-763573" lat="63.4121527754" lon="11.7268694414">
		<tag k="leisure" v="pitch" />
		<tag k="name" v="Vardetun" />
		<tag k="ssr:stedsnr" v="629001" />
	</node>
	<node id="-763570" lat="63.3927583305" lon="11.8475222315">
		<tag k="name" v="Kopperå" />
		<tag k="place" v="village" />
		<tag k="ssr:stedsnr" v="628744" />
	</node>
	<node id="-763568" lat="63.4255916706" lon="11.7479027865">
		<tag k="name" v="Knippet" />
		<tag k="place" v="farm" />
		<tag k="ssr:stedsnr" v="628737" />
	</node>
	<node id="-763567" lat="63.4028527744" lon="11.7576861063">
		<tag k="name" v="Svartåsen" />
		<tag k="place" v="farm" />
		<tag k="ssr:stedsnr" v="628735" />
	</node>
	<node id="-763566" lat="63.4249083331" lon="11.7596444415">
		<tag k="name" v="Åsvang" />
		<tag k="place" v="farm" />
		<tag k="ssr:stedsnr" v="628249" />
	</node>
	<node id="-763560" lat="63.4417749973" lon="11.6891027809">
		<tag k="name" v="Litjevja" />
		<tag k="place" v="farm" />
		<tag k="ssr:stedsnr" v="628235" />
	</node>
	<node id="-763557" lat="63.4390249969" lon="11.656047221">
		<tag k="name" v="Utistu Øya" />
		<tag k="place" v="farm" />
		<tag k="ssr:stedsnr" v="628193" />
	</node>
	<node id="-763551" lat="63.421066666" lon="11.7257083366">
		<tag k="name" v="Yttervollan" />
		<tag k="place" v="farm" />
		<tag k="ssr:stedsnr" v="628045" />
	</node>
	<node id="-763550" lat="63.404607555" lon="11.7427610294">
		<tag k="fixme" v="consider place=hamlet" />
		<tag k="name" v="Fossen" />
		<tag k="place" v="farm" />
		<tag k="ssr:stedsnr" v="628042" />
	</node>
	<node id="-763539" lat="63.3828277769" lon="11.4981055579">
		<tag k="historic" v="shieling" />
		<tag k="name" v="Gudåsetran" />
		<tag k="place" v="locality" />
		<tag k="ssr:stedsnr" v="620351" />
	</node>
	<node id="-763535" lat="63.5193222249" lon="11.8746388918">
		<tag k="historic" v="shieling" />
		<tag k="name" v="Litjfunnsjøvollen" />
		<tag k="place" v="locality" />
		<tag k="ssr:stedsnr" v="620138" />
	</node>
	<node id="-763532" lat="63.4101111071" lon="11.7362888962">
		<tag k="name" v="Egglia" />
		<tag k="place" v="farm" />
		<tag k="ssr:stedsnr" v="620046" />
	</node>
	<node id="-763530" lat="63.4022194416" lon="11.7290861047">
		<tag k="name" v="Tømmeråsmoan" />
		<tag k="place" v="farm" />
		<tag k="ssr:stedsnr" v="620037" />
	</node>
	<node id="-763529" lat="63.3943888845" lon="11.8419166655">
		<tag k="building" v="industrial" />
		<tag k="industrial" v="factory" />
		<tag k="name" v="Elkem Meraker" />
		<tag k="old_name" v="Meraker smelteverk" />
		<tag k="ssr:stedsnr" v="620028" />
	</node>
	<node id="-763528" lat="63.402763887" lon="11.8830888821">
		<tag k="name" v="Brennmyr" />
		<tag k="place" v="farm" />
		<tag k="ssr:stedsnr" v="620026" />
	</node>
	<node id="-763523" lat="63.4408666683" lon="11.7256055526">
		<tag k="name" v="Haukbergmoen" />
		<tag k="place" v="farm" />
		<tag k="ssr:stedsnr" v="620010" />
	</node>
	<node id="-763521" lat="63.4323660539" lon="11.7307815453">
		<tag k="fixme" v="consider place=hamlet" />
		<tag k="name" v="Trøa" />
		<tag k="place" v="farm" />
		<tag k="ssr:stedsnr" v="620005" />
	</node>
	<node id="-763520" lat="63.5405388853" lon="11.8830166732">
		<tag k="name" v="Langsåbakken" />
		<tag k="place" v="farm" />
		<tag k="ssr:stedsnr" v="620345" />
	</node>
	<node id="-763517" lat="63.2990249961" lon="11.8904361135">
		<tag k="name" v="Storøya" />
		<tag k="place" v="farm" />
		<tag k="ssr:stedsnr" v="619256" />
	</node>
	<node id="-763516" lat="63.2967249967" lon="11.7412888964">
		<tag k="historic" v="shieling" />
		<tag k="name" v="Murrukvistvollen" />
		<tag k="place" v="locality" />
		<tag k="ssr:stedsnr" v="619255" />
	</node>
	<node id="-763511" lat="63.3225249977" lon="11.8370555518">
		<tag k="name" v="Ståløya" />
		<tag k="place" v="farm" />
		<tag k="ssr:stedsnr" v="619245" />
	</node>
	<node id="-763471" lat="63.4432916622" lon="11.6632527831">
		<tag k="fixme" v="multiple name tags, choose one and add the other to alt_name" />
		<tag k="name" v="Brenna;Bortistu" />
		<tag k="place" v="farm" />
		<tag k="ssr:stedsnr" v="568236" />
	</node>
	<node id="-763470" lat="63.4439722194" lon="11.6609388986">
		<tag k="name" v="Øytrøa" />
		<tag k="place" v="farm" />
		<tag k="ssr:stedsnr" v="568235" />
	</node>
	<node id="-763469" lat="63.4376805571" lon="11.7018277833">
		<tag k="name" v="Molde" />
		<tag k="place" v="farm" />
		<tag k="ssr:stedsnr" v="568232" />
	</node>
	<node id="-763467" lat="63.4390011432" lon="11.6660173872">
		<tag k="fixme" v="consider place=hamlet" />
		<tag k="name" v="Utpåmoen" />
		<tag k="place" v="farm" />
		<tag k="ssr:stedsnr" v="568206" />
	</node>
	<node id="-763460" lat="63.3940111109" lon="11.7145999987">
		<tag k="name" v="Steinhaugen" />
		<tag k="place" v="farm" />
		<tag k="ssr:stedsnr" v="568044" />
	</node>
	<node id="-763449" lat="63.3886638919" lon="11.7923500018">
		<tag k="name" v="Bessen" />
		<tag k="place" v="farm" />
		<tag k="ssr:stedsnr" v="566373" />
	</node>
	<node id="-763446" lat="63.276419443" lon="11.5799166585">
		<tag k="historic" v="shieling" />
		<tag k="name" v="Bindstikkvollen" />
		<tag k="place" v="locality" />
		<tag k="ssr:stedsnr" v="566143" />
	</node>
	<node id="-763443" lat="63.4317014308" lon="11.7047765949">
		<tag k="fixme" v="consider place=hamlet" />
		<tag k="name" v="Pålsneset" />
		<tag k="place" v="farm" />
		<tag k="ssr:stedsnr" v="559466" />
	</node>
	<node id="-763442" lat="63.54150278" lon="11.8664416763">
		<tag k="name" v="Mårråkstuggu" />
		<tag k="place" v="isolated_dwelling" />
		<tag k="ssr:stedsnr" v="559349" />
	</node>
	<node id="-763440" lat="63.5376138873" lon="11.9406722277">
		<tag k="historic" v="shieling" />
		<tag k="name" v="Tjønnvollen" />
		<tag k="place" v="locality" />
		<tag k="ssr:stedsnr" v="559344" />
	</node>
	<node id="-763436" lat="63.5185444473" lon="11.8094055485">
		<tag k="name" v="Nordasjøvollan" />
		<tag k="place" v="isolated_dwelling" />
		<tag k="ssr:stedsnr" v="559133" />
	</node>
	<node id="-763430" lat="63.3998083351" lon="11.7401249969">
		<tag k="name" v="Tyholt" />
		<tag k="place" v="farm" />
		<tag k="ssr:stedsnr" v="559044" />
	</node>
	<node id="-763429" lat="63.3996416635" lon="11.7835555629">
		<tag k="name" v="Flåmoan" />
		<tag k="place" v="farm" />
		<tag k="ssr:stedsnr" v="559042" />
	</node>
	<node id="-763428" lat="63.431030558" lon="11.761244437">
		<tag k="name" v="Skogheim" />
		<tag k="place" v="farm" />
		<tag k="ssr:stedsnr" v="559001" />
	</node>
	<node id="-763410" lat="63.3288507414" lon="11.7466350533">
		<tag k="historic" v="shieling" />
		<tag k="name" v="Tovmovollen" />
		<tag k="place" v="locality" />
		<tag k="ssr:stedsnr" v="533668" />
	</node>
	<node id="-763391" lat="63.4409944449" lon="11.7166111185">
		<tag k="name" v="Nyhustrøa" />
		<tag k="place" v="farm" />
		<tag k="ssr:stedsnr" v="438478" />
	</node>
	<node id="-763379" lat="63.5087444467" lon="11.9475888918">
		<tag k="alt_name" v="Haukåsvollen" />
		<tag k="name" v="Markavollen" />
		<tag k="place" v="isolated_dwelling" />
		<tag k="ssr:stedsnr" v="438143" />
	</node>
	<node id="-763377" lat="63.5217388861" lon="11.9647249901">
		<tag k="name" v="Kjølhaugvollen" />
		<tag k="place" v="locality" />
		<tag k="ssr:stedsnr" v="438133" />
	</node>
	<node id="-763376" lat="63.4667250031" lon="11.7235500002">
		<tag k="historic" v="shieling" />
		<tag k="name" v="Litjkrokstadvollen" />
		<tag k="place" v="locality" />
		<tag k="ssr:stedsnr" v="438116" />
	</node>
	<node id="-763372" lat="63.485619444" lon="11.9180805511">
		<tag k="historic" v="shieling" />
		<tag k="name" v="Mårråkvollen" />
		<tag k="place" v="locality" />
		<tag k="ssr:stedsnr" v="438080" />
	</node>
	<node id="-763371" lat="63.3156777811" lon="11.6176166712">
		<tag k="historic" v="shieling" />
		<tag k="name" v="Utisetervollen" />
		<tag k="place" v="locality" />
		<tag k="ssr:stedsnr" v="438064" />
	</node>
	<node id="-763369" lat="63.4088388972" lon="11.7402486232">
		<tag k="fixme" v="consider place=hamlet" />
		<tag k="name" v="Tømmeråsen" />
		<tag k="place" v="farm" />
		<tag k="ssr:stedsnr" v="438039" />
	</node>
	<node id="-763367" lat="63.4025833363" lon="11.8738555613">
		<tag k="name" v="Fjellset" />
		<tag k="place" v="farm" />
		<tag k="ssr:stedsnr" v="438026" />
	</node>
	<node id="-763365" lat="63.4205916669" lon="11.7605805643">
		<tag k="name" v="Øverlia" />
		<tag k="place" v="farm" />
		<tag k="ssr:stedsnr" v="438017" />
	</node>
	<node id="-763364" lat="63.4385805561" lon="11.7309416605">
		<tag k="name" v="Skavmoan" />
		<tag k="place" v="farm" />
		<tag k="ssr:stedsnr" v="438011" />
	</node>
	<node id="-763362" lat="63.4451833302" lon="11.7083416584">
		<tag k="name" v="Grangjardsmoen" />
		<tag k="place" v="farm" />
		<tag k="ssr:stedsnr" v="437463" />
	</node>
	<node id="-763356" lat="63.3590527801" lon="12.0097361205">
		<tag k="name" v="Skurdalsvollen" />
		<tag k="place" v="farm" />
		<tag k="ssr:stedsnr" v="437220" />
	</node>
	<node id="-763352" lat="63.3968277764" lon="11.8341027814">
		<tag k="name" v="Kopperå skog" />
		<tag k="place" v="locality" />
		<tag k="ssr:stedsnr" v="421655" />
	</node>
	<node id="-763325" lat="63.2923000037" lon="11.7643638873">
		<tag k="historic" v="shieling" />
		<tag k="name" v="Ryvollen" />
		<tag k="place" v="locality" />
		<tag k="ssr:stedsnr" v="391795" />
	</node>
	<node id="-763324" lat="63.2746630679" lon="11.8047062542">
		<tag k="alt_name" v="Bjønneggen" />
		<tag k="fixme" v="consider place=hamlet" />
		<tag k="name" v="Bjørneggen" />
		<tag k="place" v="farm" />
		<tag k="ssr:stedsnr" v="391793" />
	</node>
	<node id="-763323" lat="63.283269445" lon="11.8206305648">
		<tag k="name" v="Volbakken" />
		<tag k="place" v="isolated_dwelling" />
		<tag k="ssr:stedsnr" v="391791" />
	</node>
	<node id="-763318" lat="63.4016722219" lon="11.7927444479">
		<tag k="name" v="Skogli" />
		<tag k="place" v="farm" />
		<tag k="ssr:stedsnr" v="386787" />
	</node>
	<node id="-763304" lat="63.3154777773" lon="11.8429722195">
		<tag k="name" v="Larsstuggu" />
		<tag k="place" v="isolated_dwelling" />
		<tag k="ssr:stedsnr" v="386188" />
	</node>
	<node id="-763301" lat="63.303724996" lon="11.8500944506">
		<tag k="name" v="Lars-Olsatrøa" />
		<tag k="place" v="locality" />
		<tag k="ssr:stedsnr" v="386182" />
	</node>
	<node id="-763293" lat="63.4054222209" lon="11.7812527824">
		<tag k="name" v="Storhaugen" />
		<tag k="place" v="farm" />
		<tag k="ssr:stedsnr" v="384378" />
	</node>
	<node id="-763290" lat="63.2881972204" lon="11.901213884">
		<tag k="alt_name" v="Kluksdal, Østre;Østpåmoen" />
		<tag k="name" v="Østre Kluksdal" />
		<tag k="place" v="farm" />
		<tag k="ssr:stedsnr" v="384364" />
	</node>
	<node id="-763288" lat="63.5819611156" lon="11.8571749917">
		<tag k="historic" v="shieling" />
		<tag k="name" v="Skansan" />
		<tag k="place" v="locality" />
		<tag k="ssr:stedsnr" v="377885" />
	</node>
	<node id="-763287" lat="63.4348123992" lon="11.6865054052">
		<tag k="fixme" v="consider place=hamlet" />
		<tag k="name" v="Moen" />
		<tag k="place" v="farm" />
		<tag k="ssr:stedsnr" v="377460" />
	</node>
	<node id="-763286" lat="63.4391952066" lon="11.6536480332">
		<tag k="name" v="Øya" />
		<tag k="place" v="hamlet" />
		<tag k="ssr:stedsnr" v="377440" />
	</node>
	<node id="-763281" lat="63.3052250007" lon="11.8995694491">
		<tag k="name" v="Tjønnmoen" />
		<tag k="place" v="farm" />
		<tag k="ssr:stedsnr" v="377197" />
	</node>
	<node id="-763277" lat="63.4821305522" lon="11.7832527854">
		<tag k="historic" v="shieling" />
		<tag k="name" v="Osvollen" />
		<tag k="place" v="locality" />
		<tag k="ssr:stedsnr" v="377112" />
	</node>
	<node id="-763273" lat="63.3988870182" lon="11.7269322808">
		<tag k="fixme" v="consider place=hamlet" />
		<tag k="name" v="Tronset" />
		<tag k="place" v="farm" />
		<tag k="ssr:stedsnr" v="377042" />
	</node>
	<node id="-763272" lat="63.386666671" lon="11.7941944531">
		<tag k="name" v="Persmoan" />
		<tag k="place" v="farm" />
		<tag k="ssr:stedsnr" v="376061" />
	</node>
	<node id="-763240" lat="63.2732277738" lon="11.805688895">
		<tag k="fixme" v="consider tourism=alpine_hut or tourism=chalet" />
		<tag k="name" v="Bjørneggen" />
		<tag k="ssr:stedsnr" v="328476" />
		<tag k="tourism" v="wilderness_hut" />
	</node>
	<node id="-763237" lat="63.4256166633" lon="11.7435222227">
		<tag k="name" v="Rullmyra" />
		<tag k="place" v="farm" />
		<tag k="ssr:stedsnr" v="325740" />
	</node>
	<node id="-763232" lat="63.4036083288" lon="11.7713361187">
		<tag k="name" v="Ringen" />
		<tag k="place" v="farm" />
		<tag k="ssr:stedsnr" v="325285" />
	</node>
	<node id="-763231" lat="63.4117055532" lon="11.7659444356">
		<tag k="name" v="Henrikplassen" />
		<tag k="place" v="locality" />
		<tag k="ssr:stedsnr" v="325276" />
	</node>
	<node id="-763228" lat="63.4384249997" lon="11.6822222267">
		<tag k="name" v="Systu Krokstad" />
		<tag k="place" v="farm" />
		<tag k="ssr:stedsnr" v="325249" />
	</node>
	<node id="-763226" lat="63.4378333358" lon="11.6988750092">
		<tag k="name" v="Marken" />
		<tag k="place" v="farm" />
		<tag k="ssr:stedsnr" v="325245" />
	</node>
	<node id="-763225" lat="63.4444472246" lon="11.6910666738">
		<tag k="name" v="Evvibakkan" />
		<tag k="place" v="farm" />
		<tag k="ssr:stedsnr" v="325244" />
	</node>
	<node id="-763221" lat="63.2995777797" lon="11.8428194408">
		<tag k="name" v="Stordalsskola" />
		<tag k="place" v="farm" />
		<tag k="ssr:stedsnr" v="325193" />
	</node>
	<node id="-763220" lat="63.3135666692" lon="11.8457305614">
		<tag k="name" v="Nilsan" />
		<tag k="place" v="farm" />
		<tag k="ssr:stedsnr" v="325187" />
	</node>
	<node id="-763213" lat="63.334519442" lon="11.8313333368">
		<tag k="name" v="Holmstuggu" />
		<tag k="place" v="isolated_dwelling" />
		<tag k="ssr:stedsnr" v="325141" />
	</node>
	<node id="-763197" lat="63.348063886" lon="11.8428166595">
		<tag k="name" v="Plassvollen" />
		<tag k="place" v="isolated_dwelling" />
		<tag k="ssr:stedsnr" v="324368" />
	</node>
	<node id="-763196" lat="63.2888805578" lon="11.9016972155">
		<tag k="name" v="Kluksdalen" />
		<tag k="place" v="hamlet" />
		<tag k="ssr:stedsnr" v="324357" />
	</node>
	<node id="-763186" lat="63.3998500029" lon="11.7713444509">
		<tag k="name" v="Setran" />
		<tag k="place" v="farm" />
		<tag k="ssr:stedsnr" v="317033" />
	</node>
	<node id="-763185" lat="63.4130027776" lon="11.7099805637">
		<tag k="name" v="Brua" />
		<tag k="place" v="farm" />
		<tag k="ssr:stedsnr" v="316542" />
	</node>
	<node id="-763182" lat="63.3019083355" lon="11.8321194545">
		<tag k="name" v="Steinmoen" />
		<tag k="place" v="farm" />
		<tag k="ssr:stedsnr" v="316236" />
	</node>
	<node id="-763179" lat="63.3797138859" lon="11.7090277836">
		<tag k="name" v="Revhaugen" />
		<tag k="place" v="farm" />
		<tag k="ssr:stedsnr" v="316443" />
	</node>
	<node id="-763177" lat="63.495394442" lon="11.7796000086">
		<tag k="historic" v="shieling" />
		<tag k="name" v="Holmvollen" />
		<tag k="place" v="locality" />
		<tag k="ssr:stedsnr" v="316099" />
	</node>
	<node id="-763165" lat="63.3983111126" lon="11.7768999929">
		<tag k="name" v="Nesheim" />
		<tag k="place" v="farm" />
		<tag k="ssr:stedsnr" v="204775" />
	</node>
	<node id="-763158" lat="63.4425861081" lon="11.772647227">
		<tag k="name" v="Lyngås" />
		<tag k="place" v="isolated_dwelling" />
		<tag k="ssr:stedsnr" v="204229" />
	</node>
	<node id="-763150" lat="63.4440392651" lon="11.6506739053">
		<tag k="fixme" v="consider place=hamlet" />
		<tag k="name" v="Kjørkbyen" />
		<tag k="place" v="farm" />
		<tag k="ssr:stedsnr" v="204150" />
	</node>
	<node id="-763148" lat="63.3142555519" lon="11.8452555606">
		<tag k="name" v="Mikkelan" />
		<tag k="place" v="farm" />
		<tag k="ssr:stedsnr" v="204136" />
	</node>
	<node id="-763143" lat="63.3954972256" lon="11.7404194509">
		<tag k="name" v="Krokplassen" />
		<tag k="place" v="locality" />
		<tag k="ssr:stedsnr" v="204025" />
	</node>
	<node id="-763139" lat="63.2727222265" lon="11.8044250086">
		<tag k="name" v="Åsen" />
		<tag k="place" v="hamlet" />
		<tag k="ssr:stedsnr" v="203369" />
	</node>
	<node id="-763131" lat="63.3629638851" lon="11.9707444511">
		<tag k="name" v="Tovmovollen" />
		<tag k="place" v="isolated_dwelling" />
		<tag k="ssr:stedsnr" v="202365" />
	</node>
	<node id="-763129" lat="63.5620805524" lon="11.9112638911">
		<tag k="name" v="Litjvollen" />
		<tag k="place" v="farm" />
		<tag k="ssr:stedsnr" v="196328" />
	</node>
	<node id="-763126" lat="63.4445194458" lon="11.6391583334">
		<tag k="name" v="Andershaugen" />
		<tag k="place" v="farm" />
		<tag k="ssr:stedsnr" v="195494" />
	</node>
	<node id="-763125" lat="63.4395027815" lon="11.6168333238">
		<tag k="name" v="Kvelvet" />
		<tag k="place" v="farm" />
		<tag k="ssr:stedsnr" v="195481" />
	</node>
	<node id="-763124" lat="63.4422416634" lon="11.5391638813">
		<tag k="historic" v="shieling" />
		<tag k="name" v="Langnesvollen" />
		<tag k="place" v="locality" />
		<tag k="ssr:stedsnr" v="195473" />
	</node>
	<node id="-763120" lat="63.3271111099" lon="11.6743944437">
		<tag k="historic" v="shieling" />
		<tag k="name" v="Movollen" />
		<tag k="place" v="locality" />
		<tag k="ssr:stedsnr" v="195442" />
	</node>
	<node id="-763118" lat="63.4391805535" lon="11.6566249976">
		<tag k="name" v="Nesivollan" />
		<tag k="place" v="farm" />
		<tag k="ssr:stedsnr" v="195516" />
	</node>
	<node id="-763115" lat="63.3064138912" lon="11.7250194461">
		<tag k="historic" v="shieling" />
		<tag k="name" v="Saupøyvollen" />
		<tag k="place" v="locality" />
		<tag k="ssr:stedsnr" v="195250" />
	</node>
	<node id="-763112" lat="63.3937250024" lon="11.9072194495">
		<tag k="historic" v="shieling" />
		<tag k="name" v="Brentåsvollen" />
		<tag k="place" v="locality" />
		<tag k="ssr:stedsnr" v="195061" />
	</node>
	<node id="-763110" lat="63.4055472194" lon="11.7247888895">
		<tag k="name" v="Saksvoll" />
		<tag k="place" v="farm" />
		<tag k="ssr:stedsnr" v="195039" />
	</node>
	<node id="-763105" lat="63.4971777813" lon="11.9566500078">
		<tag k="historic" v="shieling" />
		<tag k="name" v="Funnaunvollen" />
		<tag k="place" v="locality" />
		<tag k="ssr:stedsnr" v="195120" />
	</node>
	<node id="-763076" lat="63.4535611069" lon="12.0505138923">
		<tag k="historic" v="shieling" />
		<tag k="name" v="Myggvollen" />
		<tag k="place" v="locality" />
		<tag k="ssr:stedsnr" v="169232" />
	</node>
	<node id="-763069" lat="63.3930361142" lon="11.7847166734">
		<tag k="name" v="Stuggubakk" />
		<tag k="place" v="farm" />
		<tag k="ssr:stedsnr" v="143782" />
	</node>
	<node id="-763063" lat="63.4147444453" lon="11.7430194497">
		<tag k="name" v="Søgard Nustad" />
		<tag k="place" v="farm" />
		<tag k="ssr:stedsnr" v="143678" />
	</node>
	<node id="-763059" lat="63.3917333313" lon="11.844897229">
		<tag k="name" v="Myra" />
		<tag k="place" v="quarter" />
		<tag k="ssr:stedsnr" v="143234" />
	</node>
	<node id="-763058" lat="63.4450083336" lon="11.6692666733">
		<tag k="name" v="Brennhaugen" />
		<tag k="place" v="farm" />
		<tag k="ssr:stedsnr" v="143205" />
	</node>
	<node id="-763057" lat="63.4401277786" lon="11.6936472265">
		<tag k="name" v="Krokstadholm" />
		<tag k="place" v="farm" />
		<tag k="ssr:stedsnr" v="143204" />
	</node>
	<node id="-763051" lat="63.4459666622" lon="11.6396472265">
		<tag k="name" v="Påltrøa" />
		<tag k="place" v="locality" />
		<tag k="ssr:stedsnr" v="143170" />
	</node>
	<node id="-763050" lat="63.4393805574" lon="11.6576861067">
		<tag k="name" v="Østistu Øya" />
		<tag k="place" v="farm" />
		<tag k="ssr:stedsnr" v="143164" />
	</node>
	<node id="-763039" lat="63.3576833338" lon="11.5057277843">
		<tag k="historic" v="shieling" />
		<tag k="name" v="Østervollan" />
		<tag k="place" v="locality" />
		<tag k="ssr:stedsnr" v="142408" />
	</node>
	<node id="-763025" lat="63.5916500047" lon="11.8595916581">
		<tag k="name" v="Steinsvollen" />
		<tag k="place" v="locality" />
		<tag k="ssr:stedsnr" v="135326" />
	</node>
	<node id="-763021" lat="63.4539138909" lon="11.5884027746">
		<tag k="name" v="Utimoan" />
		<tag k="place" v="farm" />
		<tag k="ssr:stedsnr" v="134338" />
	</node>
	<node id="-763018" lat="63.4425146582" lon="11.6616545121">
		<tag k="fixme" v="multiple name tags, choose one and add the other to alt_name" />
		<tag k="name" v="Brenna;Framistu" />
		<tag k="place" v="farm" />
		<tag k="ssr:stedsnr" v="134496" />
	</node>
	<node id="-763016" lat="63.3247805557" lon="11.6980305519">
		<tag k="historic" v="shieling" />
		<tag k="name" v="Øvervollen" />
		<tag k="place" v="locality" />
		<tag k="ssr:stedsnr" v="134464" />
	</node>
	<node id="-763015" lat="63.2738944408" lon="11.8485333357">
		<tag k="historic" v="shieling" />
		<tag k="name" v="Volvollen" />
		<tag k="place" v="locality" />
		<tag k="ssr:stedsnr" v="134277" />
	</node>
	<node id="-763012" lat="63.2968416657" lon="11.8368027869">
		<tag k="name" v="Boset" />
		<tag k="place" v="farm" />
		<tag k="ssr:stedsnr" v="134261" />
	</node>
	<node id="-763007" lat="63.4014444464" lon="11.8852416717">
		<tag k="alt_name" v="Bjørkli" />
		<tag k="name" v="Bjørklia" />
		<tag k="place" v="farm" />
		<tag k="ssr:stedsnr" v="134079" />
	</node>
	<node id="-763006" lat="63.3949516848" lon="11.7836001064">
		<tag k="fixme" v="consider place=hamlet" />
		<tag k="name" v="Dalåmoen" />
		<tag k="place" v="farm" />
		<tag k="ssr:stedsnr" v="134076" />
	</node>
	<node id="-762999" lat="63.4275255523" lon="11.7522007436">
		<tag k="fixme" v="consider place=hamlet" />
		<tag k="name" v="Mårråk" />
		<tag k="place" v="farm" />
		<tag k="ssr:stedsnr" v="120473" />
	</node>
	<node id="-762978" lat="63.3471776584" lon="11.7886836429">
		<tag k="historic" v="shieling" />
		<tag k="name" v="Geitsundvollen" />
		<tag k="place" v="locality" />
		<tag k="ssr:stedsnr" v="108600" />
	</node>
	<node id="-762970" lat="63.4699444476" lon="12.0513555617">
		<tag k="historic" v="shieling" />
		<tag k="name" v="Sørvollan" />
		<tag k="place" v="locality" />
		<tag k="ssr:stedsnr" v="108266" />
	</node>
	<node id="-762963" lat="63.2534916638" lon="11.88847499">
		<tag k="historic" v="shieling" />
		<tag k="name" v="Klukvollen" />
		<tag k="place" v="locality" />
		<tag k="ssr:stedsnr" v="88743" />
	</node>
	<node id="-762954" lat="63.441022219" lon="11.6298583395">
		<tag k="name" v="Melplassen" />
		<tag k="place" v="locality" />
		<tag k="ssr:stedsnr" v="83199" />
	</node>
	<node id="-762951" lat="63.4441555569" lon="11.6748500072">
		<tag k="name" v="Leiret" />
		<tag k="place" v="farm" />
		<tag k="ssr:stedsnr" v="83184" />
	</node>
	<node id="-762950" lat="63.4422472264" lon="11.6439444437">
		<tag k="name" v="Søgard Vollen" />
		<tag k="place" v="farm" />
		<tag k="ssr:stedsnr" v="83180" />
	</node>
	<node id="-762944" lat="63.4203472199" lon="11.7532805478">
		<tag k="name" v="Tømmermoen" />
		<tag k="place" v="quarter" />
		<tag k="ssr:stedsnr" v="83250" />
	</node>
	<node id="-762941" lat="63.4319666658" lon="11.6995166696">
		<tag k="name" v="Størset" />
		<tag k="place" v="farm" />
		<tag k="ssr:stedsnr" v="83231" />
	</node>
	<node id="-762940" lat="63.4445833364" lon="11.6959138908">
		<tag k="name" v="Krokstadmoen" />
		<tag k="place" v="farm" />
		<tag k="ssr:stedsnr" v="83227" />
	</node>
	<node id="-762931" lat="63.3128611107" lon="11.8580444449">
		<tag k="leisure" v="pitch" />
		<tag k="name" v="Vollmoen" />
		<tag k="ssr:stedsnr" v="83124" />
	</node>
	<node id="-762920" lat="63.3405166642" lon="11.6376527839">
		<tag k="historic" v="shieling" />
		<tag k="name" v="Storskorvollan" />
		<tag k="place" v="locality" />
		<tag k="ssr:stedsnr" v="81435" />
	</node>
	<node id="-762919" lat="63.4423697242" lon="11.6850665472">
		<tag k="fixme" v="consider place=hamlet" />
		<tag k="name" v="Evja" />
		<tag k="place" v="farm" />
		<tag k="ssr:stedsnr" v="74490" />
	</node>
	<node id="-762918" lat="63.4087138923" lon="11.7086166591">
		<tag k="name" v="Skallan" />
		<tag k="place" v="farm" />
		<tag k="ssr:stedsnr" v="74481" />
	</node>
	<node id="-762915" lat="63.5469916654" lon="11.8271250009">
		<tag k="historic" v="shieling" />
		<tag k="name" v="Larsvollen" />
		<tag k="place" v="locality" />
		<tag k="ssr:stedsnr" v="74361" />
	</node>
	<node id="-762913" lat="63.5894611093" lon="11.8276916576">
		<tag k="name" v="Guddingsvollen" />
		<tag k="place" v="isolated_dwelling" />
		<tag k="ssr:stedsnr" v="74349" />
	</node>
	<node id="-762910" lat="63.2916194445" lon="11.8978222165">
		<tag k="alt_name" v="Framimoen;Kluksdal, Nordre;Kluksdal, nedre" />
		<tag k="fixme" v="multiple name tags, choose one and add the other to alt_name" />
		<tag k="name" v="Nedre Kluksdal;Nordre Kluksdal" />
		<tag k="place" v="farm" />
		<tag k="ssr:stedsnr" v="74226" />
	</node>
	<node id="-762909" lat="63.2901166703" lon="11.8039000017">
		<tag k="name" v="Hyttmoen" />
		<tag k="place" v="farm" />
		<tag k="ssr:stedsnr" v="74225" />
	</node>
	<node id="-762907" lat="63.3002500033" lon="11.8975499935">
		<tag k="alt_name" v="Køydal" />
		<tag k="name" v="Koidalen" />
		<tag k="place" v="farm" />
		<tag k="ssr:stedsnr" v="74216" />
	</node>
	<node id="-762904" lat="63.3349305523" lon="12.0367805645">
		<tag k="name" v="Teveltunet Fjellstue" />
		<tag k="old_name" v="Teveldal;Teveldalen;Teveltunet" />
		<tag k="ssr:stedsnr" v="74193" />
		<tag k="tourism" v="hotel" />
	</node>
	<node id="-762902" lat="63.5123361076" lon="11.9415638921">
		<tag k="name" v="Pålsnesvollen" />
		<tag k="place" v="isolated_dwelling" />
		<tag k="ssr:stedsnr" v="74141" />
	</node>
	<node id="-762900" lat="63.4585498406" lon="11.7600526826">
		<tag k="historic" v="shieling" />
		<tag k="name" v="Funnaunvollen" />
		<tag k="place" v="locality" />
		<tag k="ssr:stedsnr" v="74114" />
	</node>
	<node id="-762898" lat="63.4459833327" lon="11.5936027827">
		<tag k="name" v="Bithåmmåren" />
		<tag k="place" v="farm" />
		<tag k="ssr:stedsnr" v="73481" />
	</node>
	<node id="-762896" lat="63.347219444" lon="11.68118055">
		<tag k="historic" v="shieling" />
		<tag k="name" v="Graftåsvollen" />
		<tag k="place" v="locality" />
		<tag k="ssr:stedsnr" v="73445" />
	</node>
	<node id="-762890" lat="63.3922250011" lon="11.8015250059">
		<tag k="name" v="Skomakermoen" />
		<tag k="place" v="farm" />
		<tag k="ssr:stedsnr" v="73061" />
	</node>
	<node id="-762889" lat="63.3851972182" lon="11.7967111047">
		<tag k="name" v="Jonsmoan" />
		<tag k="place" v="farm" />
		<tag k="ssr:stedsnr" v="73059" />
	</node>
	<node id="-762862" lat="63.4710500034" lon="12.0492666641">
		<tag k="historic" v="shieling" />
		<tag k="name" v="Flaamo" />
		<tag k="place" v="locality" />
		<tag k="ssr:stedsnr" v="48239" />
	</node>
	<node id="-762830" lat="63.4125416706" lon="11.7488944425">
		<tag k="name" v="Lundbakken" />
		<tag k="place" v="farm" />
		<tag k="ssr:stedsnr" v="22244" />
	</node>
	<node id="-762829" lat="63.412469443" lon="11.7439083408">
		<tag k="name" v="Tollmoen" />
		<tag k="place" v="farm" />
		<tag k="ssr:stedsnr" v="22237" />
	</node>
	<node id="-762809" lat="63.538269446" lon="11.8682499976">
		<tag k="historic" v="shieling" />
		<tag k="name" v="Mårråkvollen" />
		<tag k="place" v="locality" />
		<tag k="ssr:stedsnr" v="14125" />
	</node>
	<node id="-762808" lat="63.4268537883" lon="11.7103514988">
		<tag k="fixme" v="consider place=hamlet" />
		<tag k="name" v="Stormoen" />
		<tag k="place" v="farm" />
		<tag k="ssr:stedsnr" v="13497" />
	</node>
	<node id="-762807" lat="63.449511115" lon="11.5972388931">
		<tag k="name" v="Nygjardet" />
		<tag k="place" v="farm" />
		<tag k="ssr:stedsnr" v="13487" />
	</node>
	<node id="-762804" lat="63.3520305585" lon="11.6706694483">
		<tag k="name" v="Mannseterbakken" />
		<tag k="place" v="farm" />
		<tag k="ssr:stedsnr" v="13466" />
	</node>
	<node id="-762797" lat="63.2723083345" lon="11.8035472185">
		<tag k="name" v="Rotvoll" />
		<tag k="place" v="farm" />
		<tag k="ssr:stedsnr" v="13252" />
	</node>
	<node id="-762790" lat="63.4653527762" lon="11.5889388861">
		<tag k="historic" v="shieling" />
		<tag k="name" v="Reinåvollen" />
		<tag k="place" v="locality" />
		<tag k="ssr:stedsnr" v="13328" />
	</node>
	<node id="-762788" lat="63.3877166668" lon="11.7187083244">
		<tag k="name" v="Sagmoen" />
		<tag k="place" v="isolated_dwelling" />
		<tag k="ssr:stedsnr" v="13070" />
	</node>
	<node id="-762784" lat="63.4292111139" lon="11.7660611091">
		<tag k="name" v="Haugen" />
		<tag k="place" v="farm" />
		<tag k="ssr:stedsnr" v="13004" />
	</node>
	<node id="-762769" lat="63.4436222242" lon="11.6753694525">
		<tag k="name" v="Holman" />
		<tag k="place" v="farm" />
		<tag k="ssr:stedsnr" v="932206" />
	</node>
	<node id="-762744" lat="63.4222388915" lon="11.764094447">
		<tag k="name" v="Øveråsan" />
		<tag k="place" v="farm" />
		<tag k="ssr:stedsnr" v="872703" />
	</node>
	<node id="-762733" lat="63.4624361095" lon="12.0588888986">
		<tag k="fixme" v="consider tourism=alpine_hut or tourism=chalet" />
		<tag k="name" v="Angeltjønnhytta" />
		<tag k="ssr:stedsnr" v="938797" />
		<tag k="tourism" v="wilderness_hut" />
	</node>
	<node id="-762728" lat="63.3487583317" lon="11.6661638808">
		<tag k="historic" v="shieling" />
		<tag k="name" v="Utpåmovollen" />
		<tag k="place" v="locality" />
		<tag k="ssr:stedsnr" v="837561" />
	</node>
	<node id="-762720" lat="63.3888250007" lon="11.8054749998">
		<tag k="name" v="Skogtun" />
		<tag k="place" v="farm" />
		<tag k="ssr:stedsnr" v="932756" />
	</node>
	<node id="-762710" lat="63.4398305537" lon="11.6521388923">
		<tag k="name" v="Nistu Øya" />
		<tag k="place" v="farm" />
		<tag k="ssr:stedsnr" v="932200" />
	</node>
	<node id="-762707" lat="63.3126305559" lon="11.8487861078">
		<tag k="name" v="Klemmetan" />
		<tag k="place" v="farm" />
		<tag k="ssr:stedsnr" v="932188" />
	</node>
	<node id="-762697" lat="63.4238416644" lon="11.7174583358">
		<tag k="name" v="Solemsåsen" />
		<tag k="place" v="farm" />
		<tag k="ssr:stedsnr" v="931255" />
	</node>
	<node id="-762696" lat="63.3391611072" lon="11.6355055643">
		<tag k="historic" v="shieling" />
		<tag k="name" v="Samsikavollen" />
		<tag k="place" v="locality" />
		<tag k="ssr:stedsnr" v="931154" />
	</node>
	<node id="-762692" lat="63.4147083342" lon="11.7423527691">
		<tag k="name" v="Nustad" />
		<tag k="place" v="farm" />
		<tag k="ssr:stedsnr" v="811051" />
	</node>
	<node id="-762690" lat="63.3940166684" lon="11.6876055635">
		<tag k="historic" v="shieling" />
		<tag k="name" v="Lauvlivollen" />
		<tag k="place" v="locality" />
		<tag k="ssr:stedsnr" v="811036" />
	</node>
	<node id="-762688" lat="63.5927888861" lon="11.7540111122">
		<tag k="name" v="Bullvollen" />
		<tag k="place" v="isolated_dwelling" />
		<tag k="ssr:stedsnr" v="802408" />
	</node>
	<node id="-762686" lat="63.4540555579" lon="11.5717416749">
		<tag k="fixme" v="consider place=hamlet" />
		<tag k="name" v="Langneset" />
		<tag k="place" v="farm" />
		<tag k="ssr:stedsnr" v="802318" />
	</node>
	<node id="-762684" lat="63.3009333374" lon="11.850127779">
		<tag k="name" v="Gillan" />
		<tag k="place" v="farm" />
		<tag k="ssr:stedsnr" v="802248" />
	</node>
	<node id="-762683" lat="63.3142777785" lon="11.8446749958">
		<tag k="name" v="Stordalsvollen" />
		<tag k="place" v="farm" />
		<tag k="ssr:stedsnr" v="802245" />
	</node>
	<node id="-762680" lat="63.5632944448" lon="11.9297027736">
		<tag k="name" v="Åmo" />
		<tag k="place" v="farm" />
		<tag k="ssr:stedsnr" v="924335" />
	</node>
	<node id="-762679" lat="63.5514249983" lon="11.9531305574">
		<tag k="historic" v="shieling" />
		<tag k="name" v="Østervollen" />
		<tag k="place" v="locality" />
		<tag k="ssr:stedsnr" v="924333" />
	</node>
	<node id="-762678" lat="63.5397500005" lon="11.878183328">
		<tag k="name" v="Langsåvollen" />
		<tag k="place" v="farm" />
		<tag k="ssr:stedsnr" v="924328" />
	</node>
	<node id="-762677" lat="63.5940416643" lon="11.7871805462">
		<tag k="name" v="Sunnbyvollen" />
		<tag k="place" v="isolated_dwelling" />
		<tag k="ssr:stedsnr" v="924318" />
	</node>
	<node id="-762672" lat="63.4088138896" lon="11.7681444403">
		<tag k="name" v="Brenntrøan" />
		<tag k="place" v="farm" />
		<tag k="ssr:stedsnr" v="924033" />
	</node>
	<node id="-762670" lat="63.4022166655" lon="11.777141666">
		<tag k="name" v="Risvoll" />
		<tag k="place" v="farm" />
		<tag k="ssr:stedsnr" v="924024" />
	</node>
	<node id="-762666" lat="63.399711111" lon="11.7141194429">
		<tag k="name" v="Blæstervollen" />
		<tag k="place" v="farm" />
		<tag k="ssr:stedsnr" v="923427" />
	</node>
	<node id="-762664" lat="63.3833361253" lon="11.7146664959">
		<tag k="name" v="Saga" />
		<tag k="place" v="farm" />
		<tag k="ssr:stedsnr" v="923420" />
	</node>
	<node id="-762662" lat="63.2990944442" lon="11.844052786">
		<tag k="name" v="Myreng" />
		<tag k="place" v="farm" />
		<tag k="ssr:stedsnr" v="923253" />
	</node>
	<node id="-762661" lat="63.3157277769" lon="11.8494472159">
		<tag k="name" v="Steinøya" />
		<tag k="place" v="farm" />
		<tag k="ssr:stedsnr" v="923243" />
	</node>
	<node id="-762656" lat="63.3939100548" lon="11.79102215">
		<tag k="fixme" v="consider place=hamlet" />
		<tag k="name" v="Landet" />
		<tag k="place" v="farm" />
		<tag k="ssr:stedsnr" v="923075" />
	</node>
	<node id="-762654" lat="63.4256777744" lon="11.7513444383">
		<tag k="name" v="Myra" />
		<tag k="place" v="farm" />
		<tag k="ssr:stedsnr" v="923002" />
	</node>
	<node id="-762639" lat="63.4374944453" lon="11.6839944433">
		<tag k="name" v="Reinan" />
		<tag k="place" v="farm" />
		<tag k="ssr:stedsnr" v="750108" />
	</node>
	<node id="-762638" lat="63.4521611128" lon="11.6920499999">
		<tag k="historic" v="shieling" />
		<tag k="name" v="Litjsetervollan" />
		<tag k="place" v="locality" />
		<tag k="ssr:stedsnr" v="749264" />
	</node>
	<node id="-762634" lat="63.4437231634" lon="11.6973148761">
		<tag k="fixme" v="consider place=hamlet" />
		<tag k="name" v="Litjkrokstad" />
		<tag k="place" v="farm" />
		<tag k="ssr:stedsnr" v="741567" />
	</node>
	<node id="-762633" lat="63.4393527603" lon="11.6719527391">
		<tag k="fixme" v="consider place=hamlet" />
		<tag k="name" v="Neset" />
		<tag k="place" v="farm" />
		<tag k="ssr:stedsnr" v="741564" />
	</node>
	<node id="-762632" lat="63.4021472216" lon="11.7167611056">
		<tag k="name" v="Myran" />
		<tag k="place" v="farm" />
		<tag k="ssr:stedsnr" v="741457" />
	</node>
	<node id="-762631" lat="63.3734611079" lon="11.7030555478">
		<tag k="name" v="Brennmoen" />
		<tag k="place" v="farm" />
		<tag k="ssr:stedsnr" v="741453" />
	</node>
	<node id="-762623" lat="63.4335861095" lon="11.7480361115">
		<tag k="name" v="Kvernmoen" />
		<tag k="place" v="farm" />
		<tag k="ssr:stedsnr" v="741012" />
	</node>
	<node id="-762621" lat="63.4243957972" lon="11.7200272164">
		<tag k="fixme" v="consider place=hamlet" />
		<tag k="name" v="Ospåsen" />
		<tag k="place" v="farm" />
		<tag k="ssr:stedsnr" v="741003" />
	</node>
	<node id="-762618" lat="63.4564027751" lon="11.5730749973">
		<tag k="fixme" v="consider tourism=alpine_hut or tourism=chalet" />
		<tag k="name" v="Renaa Gård" />
		<tag k="ssr:stedsnr" v="903151" />
		<tag k="tourism" v="wilderness_hut" />
	</node>
	<node id="-762569" lat="63.4004410297" lon="11.7633920232">
		<tag k="fixme" v="consider place=hamlet" />
		<tag k="name" v="Egga" />
		<tag k="place" v="farm" />
		<tag k="ssr:stedsnr" v="681057" />
	</node>
	<node id="-762564" lat="63.4321888864" lon="11.6973222128">
		<tag k="name" v="Nessan" />
		<tag k="place" v="farm" />
		<tag k="ssr:stedsnr" v="680517" />
	</node>
	<node id="-762563" lat="63.4466027778" lon="11.6919027704">
		<tag k="name" v="Berget" />
		<tag k="place" v="farm" />
		<tag k="ssr:stedsnr" v="680511" />
	</node>
	<node id="-762554" lat="63.4661222207" lon="11.6070333432">
		<tag k="historic" v="shieling" />
		<tag k="name" v="Haugvollen" />
		<tag k="place" v="locality" />
		<tag k="ssr:stedsnr" v="878187" />
	</node>
	<node id="-762545" lat="63.4235611155" lon="11.7617305485">
		<tag k="name" v="Åsan" />
		<tag k="place" v="farm" />
		<tag k="ssr:stedsnr" v="634807" />
	</node>
	<node id="-762543" lat="63.4012000029" lon="11.8468972217">
		<tag k="name" v="Kopperå skog" />
		<tag k="place" v="locality" />
		<tag k="ssr:stedsnr" v="299684" />
	</node>
	<node id="-762542" lat="63.4207583311" lon="11.7388888971">
		<tag k="name" v="Nygården" />
		<tag k="place" v="quarter" />
		<tag k="ssr:stedsnr" v="629062" />
	</node>
	<node id="-762538" lat="63.4116305533" lon="11.7487277828">
		<tag k="name" v="Rønningan" />
		<tag k="place" v="farm" />
		<tag k="ssr:stedsnr" v="628668" />
	</node>
	<node id="-762529" lat="63.2880499984" lon="11.7964416682">
		<tag k="name" v="Gilså" />
		<tag k="place" v="farm" />
		<tag k="ssr:stedsnr" v="627376" />
	</node>
	<node id="-762528" lat="63.348691663" lon="11.6543750065">
		<tag k="historic" v="shieling" />
		<tag k="name" v="Høykjølvollen" />
		<tag k="place" v="locality" />
		<tag k="ssr:stedsnr" v="627159" />
	</node>
	<node id="-762522" lat="63.373266664" lon="11.9490777805">
		<tag k="name" v="Tovmodalen" />
		<tag k="place" v="farm" />
		<tag k="ssr:stedsnr" v="619216" />
	</node>
	<node id="-762508" lat="63.3838472191" lon="11.9587527862">
		<tag k="historic" v="shieling" />
		<tag k="name" v="Litjkjerringvollen" />
		<tag k="place" v="locality" />
		<tag k="ssr:stedsnr" v="715001" />
	</node>
	<node id="-762507" lat="63.4524777738" lon="11.8038555559">
		<tag k="historic" v="shieling" />
		<tag k="name" v="Sjursneslitlvollen" />
		<tag k="place" v="locality" />
		<tag k="ssr:stedsnr" v="590425" />
	</node>
	<node id="-762499" lat="63.4140611141" lon="11.7429777862">
		<tag k="name" v="Meråker" />
		<tag k="place" v="village" />
		<tag k="ssr:stedsnr" v="559020" />
	</node>
	<node id="-762498" lat="63.4334750029" lon="11.7328888881">
		<tag k="name" v="Stubban" />
		<tag k="place" v="farm" />
		<tag k="ssr:stedsnr" v="559009" />
	</node>
	<node id="-762490" lat="63.3898416658" lon="11.801438895">
		<tag k="leisure" v="pitch" />
		<tag k="name" v="Dalheim" />
		<tag k="ssr:stedsnr" v="690826" />
	</node>
	<node id="-762487" lat="63.4289027796" lon="11.8040111071">
		<tag k="historic" v="shieling" />
		<tag k="name" v="Korsåsvollen" />
		<tag k="place" v="locality" />
		<tag k="ssr:stedsnr" v="690785" />
	</node>
	<node id="-762481" lat="63.4229333289" lon="11.7491000079">
		<tag k="name" v="Mehaugan" />
		<tag k="place" v="farm" />
		<tag k="ssr:stedsnr" v="690298" />
	</node>
	<node id="-762474" lat="63.4355444468" lon="11.7422472304">
		<tag k="name" v="Kvernmoen" />
		<tag k="place" v="farm" />
		<tag k="ssr:stedsnr" v="690268" />
	</node>
	<node id="-762473" lat="63.4368749964" lon="11.7036027817">
		<tag k="name" v="Smedmoen" />
		<tag k="place" v="farm" />
		<tag k="ssr:stedsnr" v="690263" />
	</node>
	<node id="-762468" lat="63.3153333359" lon="11.8357416627">
		<tag k="name" v="Gilsåbrakka" />
		<tag k="place" v="isolated_dwelling" />
		<tag k="ssr:stedsnr" v="690209" />
	</node>
	<node id="-762460" lat="63.4066277785" lon="11.7371000077">
		<tag k="name" v="Fossgrubba" />
		<tag k="place" v="quarter" />
		<tag k="ssr:stedsnr" v="690040" />
	</node>
	<node id="-762459" lat="63.4470916638" lon="11.5972972276">
		<tag k="name" v="Haugtrøa" />
		<tag k="place" v="locality" />
		<tag k="ssr:stedsnr" v="690032" />
	</node>
	<node id="-762456" lat="63.3695333304" lon="11.7247722276">
		<tag k="historic" v="shieling" />
		<tag k="name" v="Sagvollen" />
		<tag k="place" v="locality" />
		<tag k="ssr:stedsnr" v="690005" />
	</node>
	<node id="-762446" lat="63.4240472181" lon="11.7378194353">
		<tag k="name" v="Grubba" />
		<tag k="place" v="farm" />
		<tag k="ssr:stedsnr" v="688386" />
	</node>
	<node id="-762434" lat="63.4380388933" lon="11.7627750054">
		<tag k="name" v="Jakophytta" />
		<tag k="place" v="locality" />
		<tag k="ssr:stedsnr" v="507263" />
	</node>
	<node id="-762425" lat="63.4397583352" lon="11.6347250057">
		<tag k="leisure" v="pitch" />
		<tag k="name" v="Kastet" />
		<tag k="ssr:stedsnr" v="506257" />
	</node>
	<node id="-762423" lat="63.5294055571" lon="11.7166083404">
		<tag k="alt_name" v="Øyvollen, østre" />
		<tag k="historic" v="shieling" />
		<tag k="name" v="Østre Øyvollen" />
		<tag k="place" v="locality" />
		<tag k="ssr:stedsnr" v="681479" />
	</node>
	<node id="-762415" lat="63.4125795669" lon="11.7175825093">
		<tag k="fixme" v="consider place=hamlet" />
		<tag k="name" v="Kvernmoan" />
		<tag k="place" v="farm" />
		<tag k="ssr:stedsnr" v="681045" />
	</node>
	<node id="-762411" lat="63.4425666634" lon="11.6095972141">
		<tag k="name" v="Gudåmoen" />
		<tag k="place" v="farm" />
		<tag k="ssr:stedsnr" v="498503" />
	</node>
	<node id="-762402" lat="63.4355611099" lon="11.6770694431">
		<tag k="name" v="Flåan" />
		<tag k="place" v="isolated_dwelling" />
		<tag k="ssr:stedsnr" v="680545" />
	</node>
	<node id="-762400" lat="63.4436122322" lon="11.6016431933">
		<tag k="fixme" v="consider place=hamlet" />
		<tag k="name" v="Bitneset" />
		<tag k="place" v="farm" />
		<tag k="ssr:stedsnr" v="680494" />
	</node>
	<node id="-762394" lat="63.4235855349" lon="11.7282870706">
		<tag k="fixme" v="consider place=hamlet" />
		<tag k="name" v="Bakken" />
		<tag k="place" v="farm" />
		<tag k="ssr:stedsnr" v="680031" />
	</node>
	<node id="-762390" lat="63.3934944465" lon="11.8548055624">
		<tag k="name" v="Kopperå skog" />
		<tag k="place" v="locality" />
		<tag k="ssr:stedsnr" v="481661" />
	</node>
	<node id="-762383" lat="63.4434416686" lon="11.6133305621">
		<tag k="name" v="Høgmoen" />
		<tag k="place" v="farm" />
		<tag k="ssr:stedsnr" v="448020" />
	</node>
	<node id="-762378" lat="63.4048305564" lon="11.7430722287">
		<tag k="name" v="Fossen" />
		<tag k="place" v="isolated_dwelling" />
		<tag k="ssr:stedsnr" v="447235" />
	</node>
	<node id="-762375" lat="63.4389083328" lon="11.6810777758">
		<tag k="name" v="Nordistu Krokstad" />
		<tag k="place" v="farm" />
		<tag k="ssr:stedsnr" v="447202" />
	</node>
	<node id="-762370" lat="63.4591722181" lon="11.7377305615">
		<tag k="historic" v="shieling" />
		<tag k="name" v="Åsvollen" />
		<tag k="place" v="locality" />
		<tag k="ssr:stedsnr" v="446515" />
	</node>
	<node id="-762349" lat="63.4403722225" lon="11.579833342">
		<tag k="historic" v="shieling" />
		<tag k="name" v="Krengelåsvollen" />
		<tag k="place" v="locality" />
		<tag k="ssr:stedsnr" v="508025" />
	</node>
	<node id="-762347" lat="63.3371388847" lon="12.034969444">
		<tag k="name" v="Teveldalen" />
		<tag k="place" v="hamlet" />
		<tag k="ssr:stedsnr" v="507849" />
	</node>
	<node id="-762345" lat="63.3959555522" lon="11.7789527863">
		<tag k="name" v="Kleiva" />
		<tag k="place" v="farm" />
		<tag k="ssr:stedsnr" v="507773" />
	</node>
	<node id="-762344" lat="63.4010222235" lon="11.8061944519">
		<tag k="name" v="Hamran" />
		<tag k="place" v="hamlet" />
		<tag k="ssr:stedsnr" v="507768" />
	</node>
	<node id="-762343" lat="63.4234416654" lon="11.7618194411">
		<tag k="name" v="Neråsan" />
		<tag k="place" v="farm" />
		<tag k="ssr:stedsnr" v="507693" />
	</node>
	<node id="-762342" lat="63.4177194473" lon="11.7437388905">
		<tag k="name" v="Nustad" />
		<tag k="place" v="farm" />
		<tag k="ssr:stedsnr" v="507241" />
	</node>
	<node id="-762341" lat="63.4410666633" lon="11.716938887">
		<tag k="name" v="Negardstrøan" />
		<tag k="place" v="locality" />
		<tag k="ssr:stedsnr" v="507208" />
	</node>
	<node id="-762338" lat="63.4418777796" lon="11.6275916597">
		<tag k="name" v="Simahaugen" />
		<tag k="place" v="locality" />
		<tag k="ssr:stedsnr" v="507197" />
	</node>
	<node id="-762337" lat="63.4399861111" lon="11.6511111192">
		<tag k="name" v="Oppistu Øya" />
		<tag k="place" v="farm" />
		<tag k="ssr:stedsnr" v="507190" />
	</node>
	<node id="-762336" lat="63.4430302619" lon="11.6200103825">
		<tag k="fixme" v="consider place=hamlet" />
		<tag k="name" v="Gudåa" />
		<tag k="place" v="farm" />
		<tag k="ssr:stedsnr" v="507184" />
	</node>
	<node id="-762335" lat="63.3635222235" lon="11.83022501">
		<tag k="historic" v="shieling" />
		<tag k="name" v="Veltvollen" />
		<tag k="place" v="locality" />
		<tag k="ssr:stedsnr" v="507168" />
	</node>
	<node id="-762331" lat="63.4372111121" lon="11.7305194378">
		<tag k="name" v="Li" />
		<tag k="place" v="farm" />
		<tag k="ssr:stedsnr" v="507132" />
	</node>
	<node id="-762329" lat="63.4191027816" lon="11.7275083263">
		<tag k="name" v="Østervollan" />
		<tag k="place" v="farm" />
		<tag k="ssr:stedsnr" v="507038" />
	</node>
	<node id="-762327" lat="63.3913083299" lon="11.7152027818">
		<tag k="name" v="Bones" />
		<tag k="place" v="farm" />
		<tag k="ssr:stedsnr" v="507027" />
	</node>
	<node id="-762315" lat="63.4408861086" lon="11.7386861083">
		<tag k="name" v="Sunbakken" />
		<tag k="place" v="farm" />
		<tag k="ssr:stedsnr" v="386153" />
	</node>
	<node id="-762298" lat="63.2997500029" lon="11.8320861058">
		<tag k="name" v="Gilset" />
		<tag k="place" v="farm" />
		<tag k="ssr:stedsnr" v="377206" />
	</node>
	<node id="-762296" lat="63.3004722203" lon="11.8471305615">
		<tag k="name" v="Gjemse" />
		<tag k="place" v="farm" />
		<tag k="ssr:stedsnr" v="377202" />
	</node>
	<node id="-762293" lat="63.4421777573" lon="11.70668359">
		<tag k="fixme" v="consider place=hamlet" />
		<tag k="name" v="Aunet" />
		<tag k="place" v="farm" />
		<tag k="ssr:stedsnr" v="498540" />
	</node>
	<node id="-762291" lat="63.3748305535" lon="11.7061277677">
		<tag k="name" v="Solbakken" />
		<tag k="place" v="farm" />
		<tag k="ssr:stedsnr" v="498451" />
	</node>
	<node id="-762290" lat="63.3732083297" lon="11.7012833409">
		<tag k="name" v="Brennan" />
		<tag k="place" v="farm" />
		<tag k="ssr:stedsnr" v="498449" />
	</node>
	<node id="-762288" lat="63.3225666653" lon="11.6100166704">
		<tag k="historic" v="shieling" />
		<tag k="name" v="Revhaugvollen" />
		<tag k="place" v="locality" />
		<tag k="ssr:stedsnr" v="376429" />
	</node>
	<node id="-762285" lat="63.3435750008" lon="11.8198805492">
		<tag k="historic" v="shieling" />
		<tag k="name" v="Nyvollen" />
		<tag k="place" v="locality" />
		<tag k="ssr:stedsnr" v="498244" />
	</node>
	<node id="-762283" lat="63.3676749966" lon="11.9934861156">
		<tag k="name" v="Ivarsmyra" />
		<tag k="place" v="farm" />
		<tag k="ssr:stedsnr" v="498226" />
	</node>
	<node id="-762280" lat="63.4710472193" lon="12.0460527771">
		<tag k="historic" v="shieling" />
		<tag k="name" v="Østervollen" />
		<tag k="place" v="locality" />
		<tag k="ssr:stedsnr" v="498127" />
	</node>
	<node id="-762278" lat="63.3981277813" lon="11.7228500071">
		<tag k="name" v="Bakneset" />
		<tag k="place" v="farm" />
		<tag k="ssr:stedsnr" v="498047" />
	</node>
	<node id="-762277" lat="63.4027083327" lon="11.7912055456">
		<tag k="name" v="Hamran" />
		<tag k="place" v="farm" />
		<tag k="ssr:stedsnr" v="498043" />
	</node>
	<node id="-762275" lat="63.4267972195" lon="11.7499499987">
		<tag k="name" v="Mårråkgjardet" />
		<tag k="place" v="farm" />
		<tag k="ssr:stedsnr" v="498033" />
	</node>
	<node id="-762267" lat="63.3642583311" lon="12.0225277856">
		<tag k="name" v="Lauvfall" />
		<tag k="place" v="farm" />
		<tag k="ssr:stedsnr" v="350021" />
	</node>
	<node id="-762264" lat="63.5200749997" lon="12.0948111161">
		<tag k="fixme" v="consider tourism=alpine_hut or tourism=chalet" />
		<tag k="name" v="Koltjønndalshytta" />
		<tag k="ssr:stedsnr" v="327832" />
		<tag k="tourism" v="wilderness_hut" />
	</node>
	<node id="-762248" lat="63.5541333371" lon="11.9511166617">
		<tag k="name" v="Kjeilmoen" />
		<tag k="place" v="farm" />
		<tag k="ssr:stedsnr" v="474258" />
	</node>
	<node id="-762243" lat="63.3962888855" lon="11.7169305551">
		<tag k="name" v="Tangen" />
		<tag k="place" v="farm" />
		<tag k="ssr:stedsnr" v="316466" />
	</node>
	<node id="-762241" lat="63.3553222225" lon="11.776686103">
		<tag k="historic" v="shieling" />
		<tag k="name" v="Brenthaugvollen" />
		<tag k="place" v="locality" />
		<tag k="ssr:stedsnr" v="316218" />
	</node>
	<node id="-762238" lat="63.3877444451" lon="11.9071111121">
		<tag k="name" v="Grønberg" />
		<tag k="place" v="farm" />
		<tag k="ssr:stedsnr" v="316065" />
	</node>
	<node id="-762207" lat="63.4435388889" lon="11.6454333329">
		<tag k="fixme" v="multiple name tags, choose one and add the other to alt_name" />
		<tag k="name" v="Nordre Vollen;Nordigard" />
		<tag k="place" v="farm" />
		<tag k="ssr:stedsnr" v="299213" />
	</node>
	<node id="-762195" lat="63.5572666676" lon="11.94948611">
		<tag k="name" v="Kuøra" />
		<tag k="place" v="farm" />
		<tag k="ssr:stedsnr" v="462029" />
	</node>
	<node id="-762193" lat="63.4425900992" lon="11.6444398081">
		<tag k="fixme" v="consider place=hamlet" />
		<tag k="name" v="Vollen" />
		<tag k="place" v="farm" />
		<tag k="ssr:stedsnr" v="256408" />
	</node>
	<node id="-762189" lat="63.3133499989" lon="11.6161666628">
		<tag k="name" v="Utisætervollen" />
		<tag k="place" v="locality" />
		<tag k="ssr:stedsnr" v="256068" />
	</node>
	<node id="-762186" lat="63.4322166682" lon="11.7415638819">
		<tag k="name" v="Sjulhaugan" />
		<tag k="place" v="farm" />
		<tag k="ssr:stedsnr" v="256003" />
	</node>
	<node id="-762178" lat="63.5422416664" lon="11.9413111122">
		<tag k="fixme" v="consider tourism=alpine_hut or tourism=chalet" />
		<tag k="name" v="Ferslia" />
		<tag k="ssr:stedsnr" v="449479" />
		<tag k="tourism" v="wilderness_hut" />
	</node>
	<node id="-762177" lat="63.4447611106" lon="11.6070249927">
		<tag k="name" v="Hauggjardet" />
		<tag k="place" v="farm" />
		<tag k="ssr:stedsnr" v="448110" />
	</node>
	<node id="-762173" lat="63.4004307864" lon="11.7671208279">
		<tag k="fixme" v="consider place=hamlet" />
		<tag k="name" v="Setran" />
		<tag k="place" v="farm" />
		<tag k="ssr:stedsnr" v="447772" />
	</node>
	<node id="-762168" lat="63.4064361081" lon="11.7594055608">
		<tag k="name" v="Østre Brenna" />
		<tag k="place" v="farm" />
		<tag k="ssr:stedsnr" v="447665" />
	</node>
	<node id="-762159" lat="63.3897388891" lon="11.711869453">
		<tag k="name" v="Rønningan" />
		<tag k="place" v="farm" />
		<tag k="ssr:stedsnr" v="447047" />
	</node>
	<node id="-762142" lat="63.327569444" lon="11.6217583367">
		<tag k="historic" v="shieling" />
		<tag k="name" v="Skakkelvollen" />
		<tag k="place" v="locality" />
		<tag k="ssr:stedsnr" v="230607" />
	</node>
	<node id="-762125" lat="63.3775444402" lon="11.7055083354">
		<tag k="name" v="Bjørnåsen" />
		<tag k="place" v="farm" />
		<tag k="ssr:stedsnr" v="195410" />
	</node>
	<node id="-762120" lat="63.3640861143" lon="11.8266527727">
		<tag k="historic" v="shieling" />
		<tag k="name" v="Øyvollen" />
		<tag k="place" v="locality" />
		<tag k="ssr:stedsnr" v="195209" />
	</node>
	<node id="-762119" lat="63.4379111071" lon="11.7440694403">
		<tag k="name" v="Funnli" />
		<tag k="place" v="farm" />
		<tag k="ssr:stedsnr" v="195012" />
	</node>
	<node id="-762109" lat="63.3326427796" lon="11.7786653865">
		<tag k="historic" v="shieling" />
		<tag k="name" v="Pevollen" />
		<tag k="place" v="locality" />
		<tag k="ssr:stedsnr" v="290598" />
	</node>
	<node id="-762094" lat="63.3862611108" lon="11.7141166586">
		<tag k="name" v="Bjørknes" />
		<tag k="place" v="farm" />
		<tag k="ssr:stedsnr" v="134433" />
	</node>
	<node id="-762093" lat="63.4389182685" lon="11.6846962583">
		<tag k="name" v="Krokstad" />
		<tag k="place" v="hamlet" />
		<tag k="ssr:stedsnr" v="134530" />
	</node>
	<node id="-762092" lat="63.4473234893" lon="11.600708885">
		<tag k="fixme" v="consider place=hamlet" />
		<tag k="name" v="Haugen" />
		<tag k="place" v="farm" />
		<tag k="ssr:stedsnr" v="134508" />
	</node>
	<node id="-762083" lat="63.4215555558" lon="11.9318194529">
		<tag k="name" v="Grønbekkvollen" />
		<tag k="place" v="isolated_dwelling" />
		<tag k="ssr:stedsnr" v="134030" />
	</node>
	<node id="-762082" lat="63.4360638892" lon="11.7346944407">
		<tag k="name" v="Trøbakkan" />
		<tag k="place" v="farm" />
		<tag k="ssr:stedsnr" v="134025" />
	</node>
	<node id="-762067" lat="63.4080944401" lon="11.7548888911">
		<tag k="name" v="Bortstu Brenna" />
		<tag k="place" v="farm" />
		<tag k="ssr:stedsnr" v="265281" />
	</node>
	<node id="-762066" lat="63.4095388864" lon="11.7540944452">
		<tag k="name" v="Nordigard Brenna" />
		<tag k="place" v="farm" />
		<tag k="ssr:stedsnr" v="265280" />
	</node>
	<node id="-762063" lat="63.4384888922" lon="11.6914444491">
		<tag k="name" v="Litjsvea" />
		<tag k="place" v="farm" />
		<tag k="ssr:stedsnr" v="265245" />
	</node>
	<node id="-762058" lat="63.4380194437" lon="11.6727250004">
		<tag k="name" v="Myrmoen" />
		<tag k="place" v="farm" />
		<tag k="ssr:stedsnr" v="265204" />
	</node>
	<node id="-762057" lat="63.4451861086" lon="11.6710861063">
		<tag k="name" v="Langsvehaugen" />
		<tag k="place" v="farm" />
		<tag k="ssr:stedsnr" v="265201" />
	</node>
	<node id="-762037" lat="63.425455559" lon="11.7050388907">
		<tag k="name" v="Solemen" />
		<tag k="place" v="farm" />
		<tag k="ssr:stedsnr" v="265001" />
	</node>
	<node id="-762029" lat="63.432436003" lon="11.7225923">
		<tag k="fixme" v="consider place=hamlet" />
		<tag k="name" v="Funnaunet" />
		<tag k="place" v="farm" />
		<tag k="ssr:stedsnr" v="263399" />
	</node>
	<node id="-762026" lat="63.4238777779" lon="11.7154527797">
		<tag k="name" v="Ospåsen" />
		<tag k="place" v="farm" />
		<tag k="ssr:stedsnr" v="263272" />
	</node>
	<node id="-762019" lat="63.370813889" lon="11.6666555501">
		<tag k="historic" v="shieling" />
		<tag k="name" v="Haustvollen" />
		<tag k="place" v="locality" />
		<tag k="ssr:stedsnr" v="256390" />
	</node>
	<node id="-762018" lat="63.4291524153" lon="11.7029785958">
		<tag k="fixme" v="consider place=hamlet" />
		<tag k="name" v="Brattmoen" />
		<tag k="place" v="farm" />
		<tag k="ssr:stedsnr" v="256428" />
	</node>
	<node id="-762016" lat="63.5619333351" lon="11.9312750095">
		<tag k="name" v="Åbakk" />
		<tag k="place" v="farm" />
		<tag k="ssr:stedsnr" v="256345" />
	</node>
	<node id="-762012" lat="63.2951305599" lon="11.8305499971">
		<tag k="name" v="Litjelva" />
		<tag k="old_name" v="Litlelva" />
		<tag k="place" v="farm" />
		<tag k="ssr:stedsnr" v="256232" />
	</node>
	<node id="-762011" lat="63.3139138912" lon="11.7944694516">
		<tag k="historic" v="shieling" />
		<tag k="name" v="Nysetervollen" />
		<tag k="place" v="locality" />
		<tag k="ssr:stedsnr" v="256218" />
	</node>
	<node id="-762010" lat="63.3260722242" lon="11.7929749979">
		<tag k="historic" v="shieling" />
		<tag k="name" v="Veråsvollan" />
		<tag k="place" v="locality" />
		<tag k="ssr:stedsnr" v="256209" />
	</node>
	<node id="-762005" lat="63.4088069698" lon="11.7542119464">
		<tag k="name" v="Brenna" />
		<tag k="place" v="hamlet" />
		<tag k="ssr:stedsnr" v="256050" />
	</node>
	<node id="-762003" lat="63.4622583317" lon="11.8341333381">
		<tag k="historic" v="shieling" />
		<tag k="name" v="Litjådalsvollen" />
		<tag k="place" v="locality" />
		<tag k="ssr:stedsnr" v="256099" />
	</node>
	<node id="-761999" lat="63.4208816628" lon="11.7261253086">
		<tag k="fixme" v="consider place=hamlet" />
		<tag k="name" v="Vollan" />
		<tag k="place" v="farm" />
		<tag k="ssr:stedsnr" v="256038" />
	</node>
	<node id="-761998" lat="63.4358772076" lon="11.9165496244">
		<tag k="name" v="Damvokterbolig" />
		<tag k="place" v="farm" />
		<tag k="ssr:stedsnr" v="256036" />
	</node>
	<node id="-761997" lat="63.4178166663" lon="11.7555750082">
		<tag k="name" v="Stortrøa" />
		<tag k="place" v="farm" />
		<tag k="ssr:stedsnr" v="256033" />
	</node>
	<node id="-761995" lat="63.3426972196" lon="11.6619305527">
		<tag k="fixme" v="multiple name tags, choose one and add the other to alt_name" />
		<tag k="historic" v="shieling" />
		<tag k="name" v="Bjørkslettvollen;Nesvollen" />
		<tag k="place" v="locality" />
		<tag k="ssr:stedsnr" v="255401" />
	</node>
	<node id="-761989" lat="63.4014749985" lon="11.7986083271">
		<tag k="name" v="Vollheim" />
		<tag k="place" v="farm" />
		<tag k="ssr:stedsnr" v="83803" />
	</node>
	<node id="-761983" lat="63.3884388851" lon="11.8113722223">
		<tag k="name" v="Svingen" />
		<tag k="place" v="isolated_dwelling" />
		<tag k="ssr:stedsnr" v="83269" />
	</node>
	<node id="-761982" lat="63.4131999959" lon="11.7545027803">
		<tag k="name" v="Pynten" />
		<tag k="place" v="farm" />
		<tag k="ssr:stedsnr" v="83261" />
	</node>
	<node id="-761979" lat="63.313172219" lon="11.847113891">
		<tag k="name" v="Stokke" />
		<tag k="place" v="farm" />
		<tag k="ssr:stedsnr" v="83160" />
	</node>
	<node id="-761977" lat="63.4416555597" lon="11.612408339">
		<tag k="name" v="Nysvea" />
		<tag k="place" v="farm" />
		<tag k="ssr:stedsnr" v="83018" />
	</node>
	<node id="-761974" lat="63.418113888" lon="11.7221749969">
		<tag k="name" v="Åsen" />
		<tag k="place" v="farm" />
		<tag k="ssr:stedsnr" v="83002" />
	</node>
	<node id="-761972" lat="63.2279611128" lon="11.8566277726">
		<tag k="historic" v="shieling" />
		<tag k="name" v="Gammelfinnvollen" />
		<tag k="place" v="locality" />
		<tag k="ssr:stedsnr" v="74426" />
	</node>
	<node id="-761968" lat="63.4269805569" lon="11.7714416718">
		<tag k="name" v="Haug" />
		<tag k="place" v="farm" />
		<tag k="ssr:stedsnr" v="74003" />
	</node>
	<node id="-761960" lat="63.4570083328" lon="11.9124416586">
		<tag k="historic" v="shieling" />
		<tag k="name" v="Oddvollen" />
		<tag k="place" v="locality" />
		<tag k="ssr:stedsnr" v="232855" />
	</node>
	<node id="-761951" lat="63.3214036896" lon="11.6239379833">
		<tag k="historic" v="shieling" />
		<tag k="name" v="Laråslia" />
		<tag k="place" v="locality" />
		<tag k="ssr:stedsnr" v="230580" />
	</node>
	<node id="-761942" lat="63.312899997" lon="11.9813250057">
		<tag k="historic" v="shieling" />
		<tag k="name" v="Stokkvollen" />
		<tag k="place" v="locality" />
		<tag k="ssr:stedsnr" v="229281" />
	</node>
	<node id="-761939" lat="63.3625666638" lon="11.6893861093">
		<tag k="historic" v="shieling" />
		<tag k="name" v="Svartåsvollen" />
		<tag k="place" v="locality" />
		<tag k="ssr:stedsnr" v="23007" />
	</node>
	<node id="-761933" lat="63.2960500027" lon="11.8414444402">
		<tag k="name" v="Plassen" />
		<tag k="place" v="locality" />
		<tag k="ssr:stedsnr" v="22117" />
	</node>
	<node id="-761921" lat="63.2803527795" lon="11.6895166601">
		<tag k="historic" v="shieling" />
		<tag k="name" v="Gåsvollen" />
		<tag k="place" v="locality" />
		<tag k="ssr:stedsnr" v="13116" />
	</node>
	<node id="-761918" lat="63.5275194467" lon="11.6933749956">
		<tag k="alt_name" v="Øyvollen, yt" />
		<tag k="historic" v="shieling" />
		<tag k="name" v="Ytre Øyvollen" />
		<tag k="place" v="locality" />
		<tag k="ssr:stedsnr" v="13516" />
	</node>
</osm>
