<?xml version="1.0" encoding="UTF-8"?>
<<<<<<< HEAD
<osm version="0.6" generator="osmapis">
	<node lat="63.443919442922656" lon="11.618069438557965" id="-33196">
		<tag k="name" v="Gudå stasjon" />
		<tag k="old_name" v="Guda" />
		<tag k="railway" v="station" />
		<tag k="ssr:stedsnr" v="13478" />
		<tag k="train" v="yes" />
	</node>
	<node lat="63.396227775408626" lon="11.797855561182786" id="-33213">
=======
<osm generator="osmapis" version="0.6">
	<node id="-762048" lat="63.2983194415" lon="11.8393888944">
		<tag k="highway" v="path" />
		<tag k="name" v="Borckrevinkvegen" />
		<tag k="ssr:stedsnr" v="265134" />
	</node>
	<node id="-763640" lat="63.4422527813" lon="11.7691805534">
		<tag k="bridge" v="yes" />
		<tag k="layer" v="1" />
		<tag k="name" v="Gammellitlåbrua" />
		<tag k="ssr:stedsnr" v="750241" />
	</node>
	<node id="-762836" lat="63.4329249996" lon="11.6018333303">
		<tag k="highway" v="path" />
		<tag k="name" v="Steinvegen" />
		<tag k="ssr:stedsnr" v="23021" />
	</node>
	<node id="-763636" lat="63.4367972263" lon="11.616258325">
		<tag k="bridge" v="yes" />
		<tag k="layer" v="1" />
		<tag k="name" v="Kubrua" />
		<tag k="ssr:stedsnr" v="750168" />
	</node>
	<node id="-762346" lat="63.3903333319" lon="11.7821055537">
		<tag k="highway" v="path" />
		<tag k="name" v="Skogsledvegen" />
		<tag k="ssr:stedsnr" v="507800" />
	</node>
	<node id="-762722" lat="63.4186138891" lon="11.682769442">
		<tag k="highway" v="path" />
		<tag k="name" v="Nessivegen" />
		<tag k="ssr:stedsnr" v="933063" />
	</node>
	<node id="-763486" lat="63.371713885" lon="11.8123166598">
		<tag k="aeroway" v="airstrip" />
		<tag k="name" v="Meråker flyplass, Øyan" />
		<tag k="ssr:stedsnr" v="587519" />
	</node>
	<node id="-762844" lat="63.3962277754" lon="11.7978555612">
>>>>>>> e1d4bc35ff8a6074a6f2e91616a996b547c36f15
		<tag k="landuse" v="industrial" />
		<tag k="name" v="Turifossen" />
		<tag k="power" v="plant" />
		<tag k="ssr:stedsnr" v="22789" />
	</node>
<<<<<<< HEAD
	<node lat="63.38909166846595" lon="11.754927783579562" id="-33255">
=======
	<node id="-763738" lat="63.4187666686" lon="11.6889638905">
>>>>>>> e1d4bc35ff8a6074a6f2e91616a996b547c36f15
		<tag k="highway" v="path" />
		<tag k="name" v="Baskhaugen" />
		<tag k="ssr:stedsnr" v="81392" />
	</node>
<<<<<<< HEAD
	<node lat="63.369891665841635" lon="12.002011117509317" id="-33356">
		<tag k="ford" v="yes" />
		<tag k="name" v="Jemtvadet" />
		<tag k="place" v="locality" />
		<tag k="ssr:stedsnr" v="263373" />
	</node>
	<node lat="63.408038887508404" lon="11.795399992106988" id="-33364">
		<tag k="highway" v="path" />
		<tag k="name" v="Steinvegen" />
		<tag k="ssr:stedsnr" v="265261" />
	</node>
	<node lat="63.298319441475904" lon="11.839388894443244" id="-33369">
		<tag k="highway" v="path" />
		<tag k="name" v="Borckrevinkvegen" />
		<tag k="ssr:stedsnr" v="265134" />
	</node>
	<node lat="63.38700833291753" lon="11.83459166617288" id="-33379">
=======
	<node id="-762068" lat="63.3870083329" lon="11.8345916662">
>>>>>>> e1d4bc35ff8a6074a6f2e91616a996b547c36f15
		<tag k="highway" v="path" />
		<tag k="name" v="Stor-Martinvegen" />
		<tag k="ssr:stedsnr" v="265282" />
	</node>
<<<<<<< HEAD
	<node lat="63.46047499909827" lon="11.724897226612333" id="-33763">
		<tag k="ford" v="yes" />
		<tag k="name" v="Skreddarvadet" />
		<tag k="place" v="locality" />
		<tag k="ssr:stedsnr" v="567509" />
	</node>
	<node lat="63.38003055905681" lon="11.700169443129314" id="-33764">
=======
	<node id="-762834" lat="63.4416388919" lon="11.7450444373">
>>>>>>> e1d4bc35ff8a6074a6f2e91616a996b547c36f15
		<tag k="highway" v="path" />
		<tag k="name" v="Haustvollvegen" />
		<tag k="ssr:stedsnr" v="568014" />
	</node>
	<node lat="63.371713885029145" lon="11.81231665983628" id="-33774">
		<tag k="aeroway" v="airstrip" />
		<tag k="name" v="Meråker flyplass, Øyan" />
		<tag k="ssr:stedsnr" v="587519" />
	</node>
<<<<<<< HEAD
	<node lat="63.40033888614767" lon="11.929569453415525" id="-33958">
=======
	<node id="-762065" lat="63.4080388875" lon="11.7953999921">
>>>>>>> e1d4bc35ff8a6074a6f2e91616a996b547c36f15
		<tag k="highway" v="path" />
		<tag k="name" v="Jemtvegen" />
		<tag k="ssr:stedsnr" v="809392" />
	</node>
<<<<<<< HEAD
	<node lat="63.4228517854728" lon="11.760160971742009" id="-33983">
		<tag k="name" v="Meråker stasjon" />
=======
	<node id="-763593" lat="63.3920217488" lon="11.8484590022">
		<tag k="name" v="Kopperå stasjon" />
>>>>>>> e1d4bc35ff8a6074a6f2e91616a996b547c36f15
		<tag k="railway" v="station" />
		<tag k="ssr:stedsnr" v="923024" />
		<tag k="train" v="yes" />
	</node>
<<<<<<< HEAD
	<node lat="63.41861388905644" lon="11.682769441959127" id="-34097">
		<tag k="highway" v="path" />
		<tag k="name" v="Nessivegen" />
		<tag k="ssr:stedsnr" v="933063" />
	</node>
	<node lat="63.302847220663544" lon="11.821044452862413" id="-34148">
=======
	<node id="-763463" lat="63.3060527785" lon="11.8450027791">
		<tag k="junction" v="yes" />
		<tag k="name" v="Steinmokorsen" />
		<tag k="place" v="locality" />
		<tag k="ssr:stedsnr" v="568133" />
	</node>
	<node id="-762438" lat="63.4222083307" lon="11.7115027774">
		<tag k="highway" v="path" />
		<tag k="name" v="Solemsvegen" />
		<tag k="ssr:stedsnr" v="508061" />
	</node>
	<node id="-762821" lat="63.3028472207" lon="11.8210444529">
>>>>>>> e1d4bc35ff8a6074a6f2e91616a996b547c36f15
		<tag k="highway" v="path" />
		<tag k="name" v="Plassveien" />
		<tag k="ssr:stedsnr" v="22160" />
	</node>
<<<<<<< HEAD
	<node lat="63.44163889193375" lon="11.745044437265484" id="-34154">
=======
	<node id="-762947" lat="63.4274611105" lon="11.6059333395">
>>>>>>> e1d4bc35ff8a6074a6f2e91616a996b547c36f15
		<tag k="highway" v="path" />
		<tag k="name" v="Magnusvegen" />
		<tag k="ssr:stedsnr" v="22264" />
	</node>
<<<<<<< HEAD
	<node lat="63.43292499961635" lon="11.601833330325793" id="-34162">
		<tag k="highway" v="path" />
		<tag k="name" v="Steinvegen" />
		<tag k="ssr:stedsnr" v="23021" />
	</node>
	<node lat="63.427461110488736" lon="11.605933339479407" id="-34228">
		<tag k="highway" v="path" />
		<tag k="name" v="Setervegen" />
		<tag k="ssr:stedsnr" v="83090" />
	</node>
	<node lat="63.44246666249386" lon="11.730622227853194" id="-34230">
=======
	<node id="-763457" lat="63.3800305591" lon="11.7001694431">
		<tag k="highway" v="path" />
		<tag k="name" v="Haustvollvegen" />
		<tag k="ssr:stedsnr" v="568014" />
	</node>
	<node id="-763456" lat="63.4604749991" lon="11.7248972266">
		<tag k="ford" v="yes" />
		<tag k="name" v="Skreddarvadet" />
		<tag k="place" v="locality" />
		<tag k="ssr:stedsnr" v="567509" />
	</node>
	<node id="-762939" lat="63.4424666625" lon="11.7306222279">
>>>>>>> e1d4bc35ff8a6074a6f2e91616a996b547c36f15
		<tag k="highway" v="path" />
		<tag k="name" v="Steinvegen" />
		<tag k="ssr:stedsnr" v="83217" />
	</node>
<<<<<<< HEAD
	<node lat="63.593427778956915" lon="11.729255546675462" id="-34314">
=======
	<node id="-762805" lat="63.4439194429" lon="11.6180694386">
		<tag k="name" v="Gudå stasjon" />
		<tag k="old_name" v="Guda" />
		<tag k="railway" v="station" />
		<tag k="ssr:stedsnr" v="13478" />
		<tag k="train" v="yes" />
	</node>
	<node id="-763700" lat="63.4003388861" lon="11.9295694534">
		<tag k="highway" v="path" />
		<tag k="name" v="Jemtvegen" />
		<tag k="ssr:stedsnr" v="809392" />
	</node>
	<node id="-763209" lat="63.4176305526" lon="11.6822944359">
		<tag k="highway" v="path" />
		<tag k="name" v="Storsvingen" />
		<tag k="ssr:stedsnr" v="325037" />
	</node>
	<node id="-763826" lat="63.4641444403" lon="11.7232888974">
		<tag k="highway" v="path" />
		<tag k="name" v="Kleiva" />
		<tag k="ssr:stedsnr" v="870400" />
	</node>
	<node id="-762926" lat="63.3890916685" lon="11.7549277836">
		<tag k="highway" v="path" />
		<tag k="name" v="Baskhaugen" />
		<tag k="ssr:stedsnr" v="81392" />
	</node>
	<node id="-762027" lat="63.3698916658" lon="12.0020111175">
>>>>>>> e1d4bc35ff8a6074a6f2e91616a996b547c36f15
		<tag k="ford" v="yes" />
		<tag k="name" v="Rivadet" />
		<tag k="place" v="locality" />
		<tag k="ssr:stedsnr" v="141874" />
	</node>
	<node lat="63.41763055260727" lon="11.6822944359181" id="-34490">
		<tag k="highway" v="path" />
		<tag k="name" v="Storsvingen" />
		<tag k="ssr:stedsnr" v="325037" />
	</node>
<<<<<<< HEAD
	<node lat="63.43658611204222" lon="11.660502771139692" id="-34644">
=======
	<node id="-762150" lat="63.436586112" lon="11.6605027711">
>>>>>>> e1d4bc35ff8a6074a6f2e91616a996b547c36f15
		<tag k="highway" v="path" />
		<tag k="name" v="Øykleiva" />
		<tag k="ssr:stedsnr" v="445243" />
	</node>
<<<<<<< HEAD
	<node lat="63.39033333190635" lon="11.782105553747678" id="-34709">
		<tag k="highway" v="path" />
		<tag k="name" v="Skogsledvegen" />
		<tag k="ssr:stedsnr" v="507800" />
	</node>
	<node lat="63.422208330658556" lon="11.711502777441657" id="-34712">
		<tag k="highway" v="path" />
		<tag k="name" v="Solemsvegen" />
		<tag k="ssr:stedsnr" v="508061" />
	</node>
	<node lat="63.30605277846546" lon="11.845002779115195" id="-34763">
		<tag k="junction" v="yes" />
		<tag k="name" v="Steinmokorsen" />
=======
	<node id="-762655" lat="63.4228517855" lon="11.7601609717">
		<tag k="name" v="Meråker stasjon" />
		<tag k="railway" v="station" />
		<tag k="ssr:stedsnr" v="923024" />
		<tag k="train" v="yes" />
	</node>
	<node id="-763032" lat="63.593427779" lon="11.7292555467">
		<tag k="ford" v="yes" />
		<tag k="name" v="Rivadet" />
>>>>>>> e1d4bc35ff8a6074a6f2e91616a996b547c36f15
		<tag k="place" v="locality" />
		<tag k="ssr:stedsnr" v="568133" />
	</node>
<<<<<<< HEAD
	<node lat="63.35606526717577" lon="11.68851059882205" id="-34879">
=======
	<node id="-762515" lat="63.3560652672" lon="11.6885105988">
>>>>>>> e1d4bc35ff8a6074a6f2e91616a996b547c36f15
		<tag k="ford" v="yes" />
		<tag k="name" v="Svartåsvadet" />
		<tag k="place" v="locality" />
		<tag k="ssr:stedsnr" v="715588" />
	</node>
<<<<<<< HEAD
	<node lat="63.392021748815786" lon="11.848459002249868" id="-34901">
		<tag k="name" v="Kopperå stasjon" />
		<tag k="railway" v="station" />
		<tag k="ssr:stedsnr" v="741077" />
		<tag k="train" v="yes" />
	</node>
	<node lat="63.43679722629204" lon="11.616258325003688" id="-34925">
		<tag k="bridge" v="yes" />
		<tag k="layer" v="1" />
		<tag k="name" v="Kubrua" />
		<tag k="ssr:stedsnr" v="750168" />
	</node>
	<node lat="63.44225278131497" lon="11.76918055339403" id="-34931">
		<tag k="bridge" v="yes" />
		<tag k="layer" v="1" />
		<tag k="name" v="Gammellitlåbrua" />
		<tag k="ssr:stedsnr" v="750241" />
	</node>
	<node lat="63.41876666855774" lon="11.688963890458206" id="-35005">
		<tag k="highway" v="path" />
		<tag k="name" v="Gruvvegen" />
		<tag k="ssr:stedsnr" v="812055" />
	</node>
	<node lat="63.46414444030713" lon="11.723288897433395" id="-35074">
		<tag k="highway" v="path" />
		<tag k="name" v="Kleiva" />
		<tag k="ssr:stedsnr" v="870400" />
	</node>
=======
>>>>>>> e1d4bc35ff8a6074a6f2e91616a996b547c36f15
</osm>
