<?xml version="1.0" encoding="UTF-8"?>
<osm generator="osmapis" version="0.6">
	<node id="-891132" lat="63.4107031451" lon="12.1400670497">
		<tag k="historic" v="boundary_stone" />
		<tag k="man_made" v="cairn" />
		<tag k="name" v="Rensrøysa" />
		<tag k="old_name" v="Reens Røset;Rennsaa Røset" />
		<tag k="place" v="locality" />
		<tag k="ssr:stedsnr" v="534144" />
	</node>
	<node id="-891850" lat="63.3720916707" lon="11.6871638863">
		<tag k="name" v="Torsbjørka Allmenning" />
		<tag k="place" v="locality" />
		<tag k="ssr:stedsnr" v="448004" />
	</node>
	<node id="-890908" lat="63.2969888854" lon="11.8561305505">
		<tag k="name" v="Stordalen allmenning" />
		<tag k="place" v="locality" />
		<tag k="ssr:stedsnr" v="690207" />
	</node>
	<node id="-891828" lat="63.3036304363" lon="12.0179258911">
		<tag k="historic" v="boundary_stone" />
		<tag k="man_made" v="cairn" />
		<tag k="name" v="Litjklukrøysa" />
		<tag k="place" v="locality" />
		<tag k="ssr:stedsnr" v="110101" />
	</node>
	<node id="-891121" lat="63.389841664" lon="11.4958472207">
		<tag k="name" v="Sonvadsfoss Statsalmmening" />
		<tag k="place" v="locality" />
		<tag k="ssr:stedsnr" v="412505" />
	</node>
	<node id="-890927" lat="63.5939500041" lon="12.1497444492">
		<tag k="historic" v="boundary_stone" />
		<tag k="man_made" v="cairn" />
		<tag k="name" v="Storsjøsundsrøysa" />
		<tag k="old_name" v="Storsiøsunds Røset" />
		<tag k="place" v="locality" />
		<tag k="ssr:stedsnr" v="838206" />
	</node>
	<node id="-891373" lat="63.2146083367" lon="12.0241222292">
		<tag k="historic" v="boundary_stone" />
		<tag k="man_made" v="cairn" />
		<tag k="name" v="Bekkrøysa" />
		<tag k="old_name" v="Bek Røset" />
		<tag k="place" v="locality" />
		<tag k="ssr:stedsnr" v="49144" />
	</node>
	<node id="-890572" lat="63.4785922119" lon="12.2128763843">
		<tag k="historic" v="boundary_stone" />
		<tag k="man_made" v="cairn" />
		<tag k="name" v="Hallsjørøysa" />
		<tag k="old_name" v="Halsjørøysa;Halsiørue Røset" />
		<tag k="place" v="locality" />
		<tag k="ssr:stedsnr" v="838179" />
	</node>
	<node id="-890443" lat="63.3162611097" lon="12.0338305626">
		<tag k="historic" v="boundary_stone" />
		<tag k="man_made" v="cairn" />
		<tag k="name" v="Teveldalsrøysa" />
		<tag k="old_name" v="Tvedalsrøysa;Teveldals Røset" />
		<tag k="place" v="locality" />
		<tag k="ssr:stedsnr" v="838143" />
	</node>
	<node id="-891338" lat="63.5339222235" lon="12.1823888842">
		<tag k="historic" v="boundary_stone" />
		<tag k="man_made" v="cairn" />
		<tag k="name" v="Rendalsrøysa" />
		<tag k="old_name" v="Kendals Røset?" />
		<tag k="place" v="locality" />
		<tag k="ssr:stedsnr" v="899169" />
	</node>
	<node id="-890569" lat="63.5632083296" lon="11.7903611208">
		<tag k="fixme" v="consider boundary=protected_area and relevant protect_class if not nature reserve" />
		<tag k="leisure" v="nature_reserve" />
		<tag k="name" v="Feren naturreservat" />
		<tag k="ssr:stedsnr" v="282228" />
	</node>
	<node id="-891277" lat="63.4502194416" lon="11.5662111083">
		<tag k="name" v="Nedre Allmenning" />
		<tag k="place" v="locality" />
		<tag k="ssr:stedsnr" v="756209" />
	</node>
	<node id="-890225" lat="63.269224997" lon="11.9745805639">
		<tag k="historic" v="boundary_stone" />
		<tag k="man_made" v="cairn" />
		<tag k="name" v="Storklukrøysa" />
		<tag k="place" v="locality" />
		<tag k="ssr:stedsnr" v="413121" />
	</node>
	<node id="-890755" lat="63.3555777748" lon="12.0840833306">
		<tag k="historic" v="boundary_stone" />
		<tag k="man_made" v="cairn" />
		<tag k="name" v="Skurdalsrøysa" />
		<tag k="place" v="locality" />
		<tag k="ssr:stedsnr" v="838183" />
	</node>
	<node id="-891041" lat="63.2585138882" lon="11.8736583415">
		<tag k="name" v="Stordal allmenning" />
		<tag k="place" v="locality" />
		<tag k="ssr:stedsnr" v="107505" />
	</node>
</osm>
