<?xml version="1.0" encoding="UTF-8"?>
<osm generator="osmapis" version="0.6">
	<node id="-287743" lat="58.6423888898" lon="9.15165278522">
		<tag k="name" v="Lyngør" />
		<tag k="ssr:date" v="2016-05-10" />
		<tag k="ssr:gruppe" v="navigasjon" />
		<tag k="ssr:hovedgruppe" v="infrastruktur" />
		<tag k="ssr:stedsnr" v="449061" />
		<tag k="ssr:type" v="fyrlykt" />
	</node>
	<node id="-288717" lat="58.5815472203" lon="9.02796388163">
		<tag k="name" v="Havefjorden" />
		<tag k="old_name" v="Havefjord" />
		<tag k="ssr:date" v="2016-05-11" />
		<tag k="ssr:gruppe" v="navigasjon" />
		<tag k="ssr:hovedgruppe" v="infrastruktur" />
		<tag k="ssr:stedsnr" v="813544" />
		<tag k="ssr:type" v="fyrlykt" />
	</node>
	<node id="-286603" lat="58.6380333343" lon="9.1088305558">
		<tag k="name" v="Tøkersfjell" />
		<tag k="ssr:date" v="2016-05-10" />
		<tag k="ssr:gruppe" v="navigasjon" />
		<tag k="ssr:hovedgruppe" v="infrastruktur" />
		<tag k="ssr:stedsnr" v="301948" />
		<tag k="ssr:type" v="fyrlykt" />
	</node>
	<node id="-287065" lat="58.5839388861" lon="8.9885638834">
		<tag k="name" v="Gråviktangen" />
		<tag k="ssr:date" v="2016-05-10" />
		<tag k="ssr:gruppe" v="navigasjon" />
		<tag k="ssr:hovedgruppe" v="infrastruktur" />
		<tag k="ssr:stedsnr" v="24574" />
		<tag k="ssr:type" v="fyrlykt" />
	</node>
	<node id="-287064" lat="58.6033333307" lon="9.05000000654">
		<tag k="name" v="Gjesøyskjær" />
		<tag k="old_name" v="Jesøyskjær" />
		<tag k="ssr:date" v="2016-05-10" />
		<tag k="ssr:gruppe" v="navigasjon" />
		<tag k="ssr:hovedgruppe" v="infrastruktur" />
		<tag k="ssr:stedsnr" v="24571" />
		<tag k="ssr:type" v="fyrlykt" />
	</node>
	<node id="-287063" lat="58.6261555588" lon="8.92635277829">
		<tag k="name" v="Tvedestrand kommune" />
		<tag k="ssr:date" v="2016-05-10" />
		<tag k="ssr:gruppe" v="administrativeIndelinger" />
		<tag k="ssr:hovedgruppe" v="offentligAdministrasjon" />
		<tag k="ssr:stedsnr" v="24064" />
		<tag k="ssr:type" v="kommune" />
	</node>
	<node id="-287374" lat="58.6200333334" lon="9.06934722169">
		<tag k="name" v="Ruholmen" />
		<tag k="ssr:date" v="2016-05-10" />
		<tag k="ssr:gruppe" v="navigasjon" />
		<tag k="ssr:hovedgruppe" v="infrastruktur" />
		<tag k="ssr:stedsnr" v="145559" />
		<tag k="ssr:type" v="fyrlykt" />
	</node>
	<node id="-287536" lat="58.6086277804" lon="8.94733611402">
		<tag k="name" v="Råkenestangen" />
		<tag k="ssr:date" v="2016-05-10" />
		<tag k="ssr:gruppe" v="navigasjon" />
		<tag k="ssr:hovedgruppe" v="infrastruktur" />
		<tag k="ssr:stedsnr" v="206540" />
		<tag k="ssr:type" v="fyrlykt" />
	</node>
	<node id="-286887" lat="58.6349173369" lon="9.12709425144">
		<tag k="name" v="Holmen" />
		<tag k="ssr:date" v="2019-05-31" />
		<tag k="ssr:gruppe" v="veg" />
		<tag k="ssr:hovedgruppe" v="infrastruktur" />
		<tag k="ssr:stedsnr" v="1054473" />
		<tag k="ssr:type" v="adressenavn" />
	</node>
	<node id="-286886" lat="58.6336602328" lon="9.12683133779">
		<tag k="name" v="Bommen" />
		<tag k="ssr:date" v="2019-05-31" />
		<tag k="ssr:gruppe" v="veg" />
		<tag k="ssr:hovedgruppe" v="infrastruktur" />
		<tag k="ssr:stedsnr" v="1054471" />
		<tag k="ssr:type" v="adressenavn" />
	</node>
	<node id="-286885" lat="58.6359952091" lon="9.12696037225">
		<tag k="name" v="Lille Svalsund" />
		<tag k="ssr:date" v="2019-05-31" />
		<tag k="ssr:gruppe" v="veg" />
		<tag k="ssr:hovedgruppe" v="infrastruktur" />
		<tag k="ssr:stedsnr" v="1054470" />
		<tag k="ssr:type" v="adressenavn" />
	</node>
	<node id="-286884" lat="58.6360197681" lon="9.12935464367">
		<tag k="name" v="Grimmeren" />
		<tag k="ssr:date" v="2019-05-31" />
		<tag k="ssr:gruppe" v="veg" />
		<tag k="ssr:hovedgruppe" v="infrastruktur" />
		<tag k="ssr:stedsnr" v="1054468" />
		<tag k="ssr:type" v="adressenavn" />
	</node>
	<node id="-286883" lat="58.6345382831" lon="9.12984176177">
		<tag k="name" v="Odden" />
		<tag k="ssr:date" v="2019-05-31" />
		<tag k="ssr:gruppe" v="veg" />
		<tag k="ssr:hovedgruppe" v="infrastruktur" />
		<tag k="ssr:stedsnr" v="1054466" />
		<tag k="ssr:type" v="adressenavn" />
	</node>
	<node id="-286882" lat="58.6303823374" lon="9.12659557753">
		<tag k="name" v="Vardevik" />
		<tag k="ssr:date" v="2019-05-31" />
		<tag k="ssr:gruppe" v="veg" />
		<tag k="ssr:hovedgruppe" v="infrastruktur" />
		<tag k="ssr:stedsnr" v="1054464" />
		<tag k="ssr:type" v="adressenavn" />
	</node>
	<node id="-286881" lat="58.6323661541" lon="9.13638515471">
		<tag k="name" v="Sandbukta" />
		<tag k="ssr:date" v="2019-05-31" />
		<tag k="ssr:gruppe" v="veg" />
		<tag k="ssr:hovedgruppe" v="infrastruktur" />
		<tag k="ssr:stedsnr" v="1054462" />
		<tag k="ssr:type" v="adressenavn" />
	</node>
	<node id="-286880" lat="58.6315492742" lon="9.12721979583">
		<tag k="name" v="Lyngørsida" />
		<tag k="ssr:date" v="2019-05-31" />
		<tag k="ssr:gruppe" v="veg" />
		<tag k="ssr:hovedgruppe" v="infrastruktur" />
		<tag k="ssr:stedsnr" v="1054460" />
		<tag k="ssr:type" v="adressenavn" />
	</node>
	<node id="-286879" lat="58.6342857242" lon="9.13863168948">
		<tag k="name" v="Ytre Lyngørsida" />
		<tag k="ssr:date" v="2019-05-31" />
		<tag k="ssr:gruppe" v="veg" />
		<tag k="ssr:hovedgruppe" v="infrastruktur" />
		<tag k="ssr:stedsnr" v="1054458" />
		<tag k="ssr:type" v="adressenavn" />
	</node>
	<node id="-286878" lat="58.6358198051" lon="9.14821444509">
		<tag k="name" v="Lyngør fyr" />
		<tag k="ssr:date" v="2019-05-31" />
		<tag k="ssr:gruppe" v="veg" />
		<tag k="ssr:hovedgruppe" v="infrastruktur" />
		<tag k="ssr:stedsnr" v="1054455" />
		<tag k="ssr:type" v="adressenavn" />
	</node>
	<node id="-286877" lat="58.6532416545" lon="9.1332440381">
		<tag k="name" v="Østre Bergøya" />
		<tag k="ssr:date" v="2019-05-31" />
		<tag k="ssr:gruppe" v="veg" />
		<tag k="ssr:hovedgruppe" v="infrastruktur" />
		<tag k="ssr:stedsnr" v="1054454" />
		<tag k="ssr:type" v="adressenavn" />
	</node>
	<node id="-286876" lat="58.6546019192" lon="9.13786779724">
		<tag k="name" v="Taterholmen" />
		<tag k="ssr:date" v="2019-05-31" />
		<tag k="ssr:gruppe" v="veg" />
		<tag k="ssr:hovedgruppe" v="infrastruktur" />
		<tag k="ssr:stedsnr" v="1054452" />
		<tag k="ssr:type" v="adressenavn" />
	</node>
	<node id="-286875" lat="58.6400355179" lon="9.11882699133">
		<tag k="name" v="Brenningsholmen" />
		<tag k="ssr:date" v="2019-05-31" />
		<tag k="ssr:gruppe" v="veg" />
		<tag k="ssr:hovedgruppe" v="infrastruktur" />
		<tag k="ssr:stedsnr" v="1054451" />
		<tag k="ssr:type" v="adressenavn" />
	</node>
	<node id="-286874" lat="58.6408189229" lon="9.11659190503">
		<tag k="name" v="Hellersøya" />
		<tag k="ssr:date" v="2019-05-31" />
		<tag k="ssr:gruppe" v="veg" />
		<tag k="ssr:hovedgruppe" v="infrastruktur" />
		<tag k="ssr:stedsnr" v="1054450" />
		<tag k="ssr:type" v="adressenavn" />
	</node>
	<node id="-286873" lat="58.636761108" lon="9.10417488082">
		<tag k="name" v="Østre Skibvika" />
		<tag k="ssr:date" v="2019-05-31" />
		<tag k="ssr:gruppe" v="veg" />
		<tag k="ssr:hovedgruppe" v="infrastruktur" />
		<tag k="ssr:stedsnr" v="1054449" />
		<tag k="ssr:type" v="adressenavn" />
	</node>
	<node id="-286872" lat="58.6310654393" lon="9.08151114595">
		<tag k="name" v="Skibvikstien" />
		<tag k="ssr:date" v="2019-05-31" />
		<tag k="ssr:gruppe" v="veg" />
		<tag k="ssr:hovedgruppe" v="infrastruktur" />
		<tag k="ssr:stedsnr" v="1054448" />
		<tag k="ssr:type" v="adressenavn" />
	</node>
	<node id="-286871" lat="58.6253879536" lon="9.06848029368">
		<tag k="name" v="Sandsstien" />
		<tag k="ssr:date" v="2019-05-31" />
		<tag k="ssr:gruppe" v="veg" />
		<tag k="ssr:hovedgruppe" v="infrastruktur" />
		<tag k="ssr:stedsnr" v="1054447" />
		<tag k="ssr:type" v="adressenavn" />
	</node>
	<node id="-286870" lat="58.6225482757" lon="9.07147061667">
		<tag k="name" v="Engholmen" />
		<tag k="ssr:date" v="2019-05-31" />
		<tag k="ssr:gruppe" v="veg" />
		<tag k="ssr:hovedgruppe" v="infrastruktur" />
		<tag k="ssr:stedsnr" v="1054446" />
		<tag k="ssr:type" v="adressenavn" />
	</node>
	<node id="-286869" lat="58.5857899623" lon="8.99380813404">
		<tag k="name" v="Falkøya" />
		<tag k="ssr:date" v="2019-05-31" />
		<tag k="ssr:gruppe" v="veg" />
		<tag k="ssr:hovedgruppe" v="infrastruktur" />
		<tag k="ssr:stedsnr" v="1054445" />
		<tag k="ssr:type" v="adressenavn" />
	</node>
	<node id="-286868" lat="58.5829338994" lon="8.99317230405">
		<tag k="name" v="Bukkholmen" />
		<tag k="ssr:date" v="2019-05-31" />
		<tag k="ssr:gruppe" v="veg" />
		<tag k="ssr:hovedgruppe" v="infrastruktur" />
		<tag k="ssr:stedsnr" v="1054444" />
		<tag k="ssr:type" v="adressenavn" />
	</node>
	<node id="-286867" lat="58.6434456393" lon="8.77187728199">
		<tag k="name" v="Bøylestadveien" />
		<tag k="ssr:date" v="2019-05-31" />
		<tag k="ssr:gruppe" v="veg" />
		<tag k="ssr:hovedgruppe" v="infrastruktur" />
		<tag k="ssr:stedsnr" v="1054427" />
		<tag k="ssr:type" v="adressenavn" />
	</node>
	<node id="-286866" lat="58.6478356411" lon="8.77137309274">
		<tag k="name" v="Lillsteveien" />
		<tag k="ssr:date" v="2019-05-31" />
		<tag k="ssr:gruppe" v="veg" />
		<tag k="ssr:hovedgruppe" v="infrastruktur" />
		<tag k="ssr:stedsnr" v="1054426" />
		<tag k="ssr:type" v="adressenavn" />
	</node>
	<node id="-286865" lat="58.6203033036" lon="8.92750097123">
		<tag k="name" v="Høyheia terrasse" />
		<tag k="ssr:date" v="2019-05-31" />
		<tag k="ssr:gruppe" v="veg" />
		<tag k="ssr:hovedgruppe" v="infrastruktur" />
		<tag k="ssr:stedsnr" v="1054415" />
		<tag k="ssr:type" v="adressenavn" />
	</node>
	<node id="-286864" lat="58.6222396619" lon="8.91711650625">
		<tag k="name" v="Ospelia" />
		<tag k="ssr:date" v="2019-05-31" />
		<tag k="ssr:gruppe" v="veg" />
		<tag k="ssr:hovedgruppe" v="infrastruktur" />
		<tag k="ssr:stedsnr" v="1054414" />
		<tag k="ssr:type" v="adressenavn" />
	</node>
	<node id="-286863" lat="58.6199318881" lon="8.92354713227">
		<tag k="name" v="Bydalen" />
		<tag k="ssr:date" v="2019-05-31" />
		<tag k="ssr:gruppe" v="veg" />
		<tag k="ssr:hovedgruppe" v="infrastruktur" />
		<tag k="ssr:stedsnr" v="1054411" />
		<tag k="ssr:type" v="adressenavn" />
	</node>
	<node id="-286862" lat="58.5779840819" lon="9.01855426723">
		<tag k="name" v="Brennvika" />
		<tag k="ssr:date" v="2019-05-31" />
		<tag k="ssr:gruppe" v="veg" />
		<tag k="ssr:hovedgruppe" v="infrastruktur" />
		<tag k="ssr:stedsnr" v="1054409" />
		<tag k="ssr:type" v="adressenavn" />
	</node>
	<node id="-286861" lat="58.5943923736" lon="9.02119514266">
		<tag k="name" v="Store Bjørnskil" />
		<tag k="ssr:date" v="2019-05-31" />
		<tag k="ssr:gruppe" v="veg" />
		<tag k="ssr:hovedgruppe" v="infrastruktur" />
		<tag k="ssr:stedsnr" v="1054408" />
		<tag k="ssr:type" v="adressenavn" />
	</node>
	<node id="-286860" lat="58.5960168286" lon="9.02726936577">
		<tag k="name" v="Lille Bjørnskil" />
		<tag k="ssr:date" v="2019-05-31" />
		<tag k="ssr:gruppe" v="veg" />
		<tag k="ssr:hovedgruppe" v="infrastruktur" />
		<tag k="ssr:stedsnr" v="1054407" />
		<tag k="ssr:type" v="adressenavn" />
	</node>
	<node id="-286859" lat="58.5941652856" lon="9.03327202996">
		<tag k="name" v="Ospevika" />
		<tag k="ssr:date" v="2019-05-31" />
		<tag k="ssr:gruppe" v="veg" />
		<tag k="ssr:hovedgruppe" v="infrastruktur" />
		<tag k="ssr:stedsnr" v="1054406" />
		<tag k="ssr:type" v="adressenavn" />
	</node>
	<node id="-286858" lat="58.5771438739" lon="9.04022001163">
		<tag k="name" v="Fugløya" />
		<tag k="ssr:date" v="2019-05-31" />
		<tag k="ssr:gruppe" v="veg" />
		<tag k="ssr:hovedgruppe" v="infrastruktur" />
		<tag k="ssr:stedsnr" v="1054396" />
		<tag k="ssr:type" v="adressenavn" />
	</node>
	<node id="-286857" lat="58.6079269563" lon="9.02175406797">
		<tag k="name" v="Gjesøya" />
		<tag k="ssr:date" v="2019-05-31" />
		<tag k="ssr:gruppe" v="veg" />
		<tag k="ssr:hovedgruppe" v="infrastruktur" />
		<tag k="ssr:stedsnr" v="1054393" />
		<tag k="ssr:type" v="adressenavn" />
	</node>
	<node id="-286856" lat="58.6059070669" lon="9.01571227743">
		<tag k="name" v="Gjesøysund" />
		<tag k="ssr:date" v="2019-05-31" />
		<tag k="ssr:gruppe" v="veg" />
		<tag k="ssr:hovedgruppe" v="infrastruktur" />
		<tag k="ssr:stedsnr" v="1054392" />
		<tag k="ssr:type" v="adressenavn" />
	</node>
	<node id="-286855" lat="58.6111620141" lon="8.99829600345">
		<tag k="name" v="Ulevågholmene" />
		<tag k="ssr:date" v="2019-05-31" />
		<tag k="ssr:gruppe" v="veg" />
		<tag k="ssr:hovedgruppe" v="infrastruktur" />
		<tag k="ssr:stedsnr" v="1054391" />
		<tag k="ssr:type" v="adressenavn" />
	</node>
	<node id="-286854" lat="58.5777967708" lon="9.00336863902">
		<tag k="name" v="Storkilveien" />
		<tag k="ssr:date" v="2019-05-31" />
		<tag k="ssr:gruppe" v="veg" />
		<tag k="ssr:hovedgruppe" v="infrastruktur" />
		<tag k="ssr:stedsnr" v="1054538" />
		<tag k="ssr:type" v="adressenavn" />
	</node>
	<node id="-286853" lat="58.5809769078" lon="8.93344657118">
		<tag k="name" v="Hantho-Tangen" />
		<tag k="ssr:date" v="2019-05-31" />
		<tag k="ssr:gruppe" v="veg" />
		<tag k="ssr:hovedgruppe" v="infrastruktur" />
		<tag k="ssr:stedsnr" v="1054530" />
		<tag k="ssr:type" v="adressenavn" />
	</node>
	<node id="-286852" lat="58.5845655043" lon="8.92630216031">
		<tag k="name" v="Kvastadlia" />
		<tag k="ssr:date" v="2019-05-31" />
		<tag k="ssr:gruppe" v="veg" />
		<tag k="ssr:hovedgruppe" v="infrastruktur" />
		<tag k="ssr:stedsnr" v="1054529" />
		<tag k="ssr:type" v="adressenavn" />
	</node>
	<node id="-286851" lat="58.6023741587" lon="8.94164845161">
		<tag k="name" v="Verven" />
		<tag k="ssr:date" v="2019-05-31" />
		<tag k="ssr:gruppe" v="veg" />
		<tag k="ssr:hovedgruppe" v="infrastruktur" />
		<tag k="ssr:stedsnr" v="1054525" />
		<tag k="ssr:type" v="adressenavn" />
	</node>
	<node id="-286850" lat="58.6121890772" lon="9.07816238746">
		<tag k="name" v="Myrbukta" />
		<tag k="ssr:date" v="2019-05-31" />
		<tag k="ssr:gruppe" v="veg" />
		<tag k="ssr:hovedgruppe" v="infrastruktur" />
		<tag k="ssr:stedsnr" v="1054357" />
		<tag k="ssr:type" v="adressenavn" />
	</node>
	<node id="-286849" lat="58.6170479569" lon="9.07806994383">
		<tag k="name" v="Heller" />
		<tag k="ssr:date" v="2019-05-31" />
		<tag k="ssr:gruppe" v="veg" />
		<tag k="ssr:hovedgruppe" v="infrastruktur" />
		<tag k="ssr:stedsnr" v="1054355" />
		<tag k="ssr:type" v="adressenavn" />
	</node>
	<node id="-286848" lat="58.6198477086" lon="9.09373619276">
		<tag k="name" v="Østegården" />
		<tag k="ssr:date" v="2019-05-31" />
		<tag k="ssr:gruppe" v="veg" />
		<tag k="ssr:hovedgruppe" v="infrastruktur" />
		<tag k="ssr:stedsnr" v="1054353" />
		<tag k="ssr:type" v="adressenavn" />
	</node>
	<node id="-286847" lat="58.6241563156" lon="9.10925125674">
		<tag k="name" v="Vakil" />
		<tag k="ssr:date" v="2019-05-31" />
		<tag k="ssr:gruppe" v="veg" />
		<tag k="ssr:hovedgruppe" v="infrastruktur" />
		<tag k="ssr:stedsnr" v="1054351" />
		<tag k="ssr:type" v="adressenavn" />
	</node>
	<node id="-286846" lat="58.6277447448" lon="9.11391192698">
		<tag k="name" v="Øytangen" />
		<tag k="ssr:date" v="2019-05-31" />
		<tag k="ssr:gruppe" v="veg" />
		<tag k="ssr:hovedgruppe" v="infrastruktur" />
		<tag k="ssr:stedsnr" v="1054349" />
		<tag k="ssr:type" v="adressenavn" />
	</node>
	<node id="-286845" lat="58.6233184555" lon="9.08936176498">
		<tag k="name" v="Østre Løktene" />
		<tag k="ssr:date" v="2019-05-31" />
		<tag k="ssr:gruppe" v="veg" />
		<tag k="ssr:hovedgruppe" v="infrastruktur" />
		<tag k="ssr:stedsnr" v="1054347" />
		<tag k="ssr:type" v="adressenavn" />
	</node>
	<node id="-286844" lat="58.6194117984" lon="9.07506238879">
		<tag k="name" v="Vestre Løktene" />
		<tag k="ssr:date" v="2019-05-31" />
		<tag k="ssr:gruppe" v="veg" />
		<tag k="ssr:hovedgruppe" v="infrastruktur" />
		<tag k="ssr:stedsnr" v="1054345" />
		<tag k="ssr:type" v="adressenavn" />
	</node>
	<node id="-286843" lat="58.5996835274" lon="9.01163155841">
		<tag k="name" v="Tåkenes" />
		<tag k="ssr:date" v="2019-05-31" />
		<tag k="ssr:gruppe" v="veg" />
		<tag k="ssr:hovedgruppe" v="infrastruktur" />
		<tag k="ssr:stedsnr" v="1054343" />
		<tag k="ssr:type" v="adressenavn" />
	</node>
	<node id="-286842" lat="58.593924953" lon="8.9765170585">
		<tag k="name" v="Saltnes" />
		<tag k="ssr:date" v="2019-05-31" />
		<tag k="ssr:gruppe" v="veg" />
		<tag k="ssr:hovedgruppe" v="infrastruktur" />
		<tag k="ssr:stedsnr" v="1054341" />
		<tag k="ssr:type" v="adressenavn" />
	</node>
	<node id="-286841" lat="58.5979568421" lon="8.97307151592">
		<tag k="name" v="Nesland" />
		<tag k="ssr:date" v="2019-05-31" />
		<tag k="ssr:gruppe" v="veg" />
		<tag k="ssr:hovedgruppe" v="infrastruktur" />
		<tag k="ssr:stedsnr" v="1054339" />
		<tag k="ssr:type" v="adressenavn" />
	</node>
	<node id="-286840" lat="58.6265255067" lon="9.05625657096">
		<tag k="name" v="Dypvågtoppen" />
		<tag k="ssr:date" v="2019-05-31" />
		<tag k="ssr:gruppe" v="veg" />
		<tag k="ssr:hovedgruppe" v="infrastruktur" />
		<tag k="ssr:stedsnr" v="1054338" />
		<tag k="ssr:type" v="adressenavn" />
	</node>
	<node id="-286839" lat="58.6296990508" lon="9.11691305796">
		<tag k="name" v="Steinsøykilen" />
		<tag k="ssr:date" v="2019-05-31" />
		<tag k="ssr:gruppe" v="veg" />
		<tag k="ssr:hovedgruppe" v="infrastruktur" />
		<tag k="ssr:stedsnr" v="1054326" />
		<tag k="ssr:type" v="adressenavn" />
	</node>
	<node id="-286838" lat="58.6346968347" lon="9.11315949381">
		<tag k="name" v="Indre Steinsøya" />
		<tag k="ssr:date" v="2019-05-31" />
		<tag k="ssr:gruppe" v="veg" />
		<tag k="ssr:hovedgruppe" v="infrastruktur" />
		<tag k="ssr:stedsnr" v="1054324" />
		<tag k="ssr:type" v="adressenavn" />
	</node>
	<node id="-286837" lat="58.6323786331" lon="9.12405386367">
		<tag k="name" v="Ytre Steinsøya" />
		<tag k="ssr:date" v="2019-05-31" />
		<tag k="ssr:gruppe" v="veg" />
		<tag k="ssr:hovedgruppe" v="infrastruktur" />
		<tag k="ssr:stedsnr" v="1054322" />
		<tag k="ssr:type" v="adressenavn" />
	</node>
	<node id="-286836" lat="58.6346450579" lon="9.12072051005">
		<tag k="name" v="Store Svalsund" />
		<tag k="ssr:date" v="2019-05-31" />
		<tag k="ssr:gruppe" v="veg" />
		<tag k="ssr:hovedgruppe" v="infrastruktur" />
		<tag k="ssr:stedsnr" v="1054320" />
		<tag k="ssr:type" v="adressenavn" />
	</node>
	<node id="-286835" lat="58.6345870094" lon="9.1250778872">
		<tag k="name" v="Skoleveien" />
		<tag k="ssr:date" v="2019-05-31" />
		<tag k="ssr:gruppe" v="veg" />
		<tag k="ssr:hovedgruppe" v="infrastruktur" />
		<tag k="ssr:stedsnr" v="1054318" />
		<tag k="ssr:type" v="adressenavn" />
	</node>
	<node id="-286834" lat="58.6339303778" lon="9.12610893822">
		<tag k="name" v="Holmbakken" />
		<tag k="ssr:date" v="2019-05-31" />
		<tag k="ssr:gruppe" v="veg" />
		<tag k="ssr:hovedgruppe" v="infrastruktur" />
		<tag k="ssr:stedsnr" v="1054316" />
		<tag k="ssr:type" v="adressenavn" />
	</node>
	<node id="-286833" lat="58.617821907" lon="9.03270918519">
		<tag k="name" v="Halsen" />
		<tag k="ssr:date" v="2019-05-31" />
		<tag k="ssr:gruppe" v="veg" />
		<tag k="ssr:hovedgruppe" v="infrastruktur" />
		<tag k="ssr:stedsnr" v="1054388" />
		<tag k="ssr:type" v="adressenavn" />
	</node>
	<node id="-286832" lat="58.6332632928" lon="9.09801586729">
		<tag k="name" v="Skibvika" />
		<tag k="ssr:date" v="2019-05-31" />
		<tag k="ssr:gruppe" v="veg" />
		<tag k="ssr:hovedgruppe" v="infrastruktur" />
		<tag k="ssr:stedsnr" v="1054387" />
		<tag k="ssr:type" v="adressenavn" />
	</node>
	<node id="-286831" lat="58.5977637178" lon="8.95655609904">
		<tag k="name" v="Furøya" />
		<tag k="ssr:date" v="2019-05-31" />
		<tag k="ssr:gruppe" v="veg" />
		<tag k="ssr:hovedgruppe" v="infrastruktur" />
		<tag k="ssr:stedsnr" v="1054386" />
		<tag k="ssr:type" v="adressenavn" />
	</node>
	<node id="-286830" lat="58.5778732594" lon="9.03358329011">
		<tag k="name" v="Nyhavn" />
		<tag k="ssr:date" v="2019-05-31" />
		<tag k="ssr:gruppe" v="veg" />
		<tag k="ssr:hovedgruppe" v="infrastruktur" />
		<tag k="ssr:stedsnr" v="1054382" />
		<tag k="ssr:type" v="adressenavn" />
	</node>
	<node id="-286829" lat="58.5804941824" lon="9.03922642663">
		<tag k="name" v="Slåttvika" />
		<tag k="ssr:date" v="2019-05-31" />
		<tag k="ssr:gruppe" v="veg" />
		<tag k="ssr:hovedgruppe" v="infrastruktur" />
		<tag k="ssr:stedsnr" v="1054381" />
		<tag k="ssr:type" v="adressenavn" />
	</node>
	<node id="-286828" lat="58.5826194018" lon="9.04894571644">
		<tag k="name" v="Dalsland" />
		<tag k="ssr:date" v="2019-05-31" />
		<tag k="ssr:gruppe" v="veg" />
		<tag k="ssr:hovedgruppe" v="infrastruktur" />
		<tag k="ssr:stedsnr" v="1054380" />
		<tag k="ssr:type" v="adressenavn" />
	</node>
	<node id="-286827" lat="58.5852245373" lon="9.04740141175">
		<tag k="name" v="Saulekilen" />
		<tag k="ssr:date" v="2019-05-31" />
		<tag k="ssr:gruppe" v="veg" />
		<tag k="ssr:hovedgruppe" v="infrastruktur" />
		<tag k="ssr:stedsnr" v="1054379" />
		<tag k="ssr:type" v="adressenavn" />
	</node>
	<node id="-286826" lat="58.583124808" lon="9.04199829964">
		<tag k="name" v="Kilen" />
		<tag k="ssr:date" v="2019-05-31" />
		<tag k="ssr:gruppe" v="veg" />
		<tag k="ssr:hovedgruppe" v="infrastruktur" />
		<tag k="ssr:stedsnr" v="1054378" />
		<tag k="ssr:type" v="adressenavn" />
	</node>
	<node id="-286825" lat="58.593256304" lon="9.03987723163">
		<tag k="name" v="Valsgårdstangen" />
		<tag k="ssr:date" v="2019-05-31" />
		<tag k="ssr:gruppe" v="veg" />
		<tag k="ssr:hovedgruppe" v="infrastruktur" />
		<tag k="ssr:stedsnr" v="1054377" />
		<tag k="ssr:type" v="adressenavn" />
	</node>
	<node id="-286824" lat="58.5973234456" lon="9.0440111297">
		<tag k="name" v="Barlindtangen" />
		<tag k="ssr:date" v="2019-05-31" />
		<tag k="ssr:gruppe" v="veg" />
		<tag k="ssr:hovedgruppe" v="infrastruktur" />
		<tag k="ssr:stedsnr" v="1054376" />
		<tag k="ssr:type" v="adressenavn" />
	</node>
	<node id="-286823" lat="58.5982107544" lon="9.04907072783">
		<tag k="name" v="Bekkvika" />
		<tag k="ssr:date" v="2019-05-31" />
		<tag k="ssr:gruppe" v="veg" />
		<tag k="ssr:hovedgruppe" v="infrastruktur" />
		<tag k="ssr:stedsnr" v="1054375" />
		<tag k="ssr:type" v="adressenavn" />
	</node>
	<node id="-286822" lat="58.5973655655" lon="9.05151269856">
		<tag k="name" v="Kjæret" />
		<tag k="ssr:date" v="2019-05-31" />
		<tag k="ssr:gruppe" v="veg" />
		<tag k="ssr:hovedgruppe" v="infrastruktur" />
		<tag k="ssr:stedsnr" v="1054373" />
		<tag k="ssr:type" v="adressenavn" />
	</node>
	<node id="-286821" lat="58.5968420639" lon="9.05761972373">
		<tag k="name" v="Sandøykilen" />
		<tag k="ssr:date" v="2019-05-31" />
		<tag k="ssr:gruppe" v="veg" />
		<tag k="ssr:hovedgruppe" v="infrastruktur" />
		<tag k="ssr:stedsnr" v="1054371" />
		<tag k="ssr:type" v="adressenavn" />
	</node>
	<node id="-286820" lat="58.6075945996" lon="9.05288735772">
		<tag k="name" v="Bastholmene" />
		<tag k="ssr:date" v="2019-05-31" />
		<tag k="ssr:gruppe" v="veg" />
		<tag k="ssr:hovedgruppe" v="infrastruktur" />
		<tag k="ssr:stedsnr" v="1054369" />
		<tag k="ssr:type" v="adressenavn" />
	</node>
	<node id="-286819" lat="58.6072227904" lon="9.06097556895">
		<tag k="name" v="Lamholmen" />
		<tag k="ssr:date" v="2019-05-31" />
		<tag k="ssr:gruppe" v="veg" />
		<tag k="ssr:hovedgruppe" v="infrastruktur" />
		<tag k="ssr:stedsnr" v="1054367" />
		<tag k="ssr:type" v="adressenavn" />
	</node>
	<node id="-286818" lat="58.6117599301" lon="9.05742050481">
		<tag k="name" v="Vestegården" />
		<tag k="ssr:date" v="2019-05-31" />
		<tag k="ssr:gruppe" v="veg" />
		<tag k="ssr:hovedgruppe" v="infrastruktur" />
		<tag k="ssr:stedsnr" v="1054365" />
		<tag k="ssr:type" v="adressenavn" />
	</node>
	<node id="-288865" lat="58.6399999994" lon="9.11986110269">
		<tag k="name" v="Brenningsholmen" />
		<tag k="ssr:date" v="2016-05-11" />
		<tag k="ssr:gruppe" v="navigasjon" />
		<tag k="ssr:hovedgruppe" v="infrastruktur" />
		<tag k="ssr:stedsnr" v="874091" />
		<tag k="ssr:type" v="fyrlykt" />
	</node>
	<node id="-288864" lat="58.5944638859" lon="8.94966110416">
		<tag k="name" v="Furøysund" />
		<tag k="ssr:date" v="2016-05-11" />
		<tag k="ssr:gruppe" v="navigasjon" />
		<tag k="ssr:hovedgruppe" v="infrastruktur" />
		<tag k="ssr:stedsnr" v="874090" />
		<tag k="ssr:type" v="fyrlykt" />
	</node>
	<node id="-288863" lat="58.6046194404" lon="8.9665277801">
		<tag k="name" v="Sagesund" />
		<tag k="ssr:date" v="2016-05-11" />
		<tag k="ssr:gruppe" v="navigasjon" />
		<tag k="ssr:hovedgruppe" v="infrastruktur" />
		<tag k="ssr:stedsnr" v="874083" />
		<tag k="ssr:type" v="fyrlykt" />
	</node>
	<node id="-286801" lat="58.6357472195" lon="9.14830000028">
		<tag k="name" v="Lyngør" />
		<tag k="old_name" v="Lyngør fyr" />
		<tag k="ssr:date" v="2016-05-10" />
		<tag k="ssr:gruppe" v="navigasjon" />
		<tag k="ssr:hovedgruppe" v="infrastruktur" />
		<tag k="ssr:stedsnr" v="365385" />
		<tag k="ssr:type" v="fyrstasjon" />
	</node>
	<node id="-286817" lat="58.6129077919" lon="9.0611748097">
		<tag k="name" v="Oksvika" />
		<tag k="ssr:date" v="2019-05-31" />
		<tag k="ssr:gruppe" v="veg" />
		<tag k="ssr:hovedgruppe" v="infrastruktur" />
		<tag k="ssr:stedsnr" v="1054363" />
		<tag k="ssr:type" v="adressenavn" />
	</node>
	<node id="-286816" lat="58.6107404551" lon="9.0669370051">
		<tag k="name" v="Kibbevik" />
		<tag k="ssr:date" v="2019-05-31" />
		<tag k="ssr:gruppe" v="veg" />
		<tag k="ssr:hovedgruppe" v="infrastruktur" />
		<tag k="ssr:stedsnr" v="1054361" />
		<tag k="ssr:type" v="adressenavn" />
	</node>
	<node id="-286815" lat="58.6153244509" lon="9.07660289933">
		<tag k="name" v="Skolebukta" />
		<tag k="ssr:date" v="2019-05-31" />
		<tag k="ssr:gruppe" v="veg" />
		<tag k="ssr:hovedgruppe" v="infrastruktur" />
		<tag k="ssr:stedsnr" v="1054359" />
		<tag k="ssr:type" v="adressenavn" />
	</node>
	<node id="-286735" lat="58.6232666635" lon="8.93026666354">
		<tag k="name" v="Vesterkleiv" />
		<tag k="ssr:date" v="2016-05-10" />
		<tag k="ssr:gruppe" v="veg" />
		<tag k="ssr:hovedgruppe" v="infrastruktur" />
		<tag k="ssr:stedsnr" v="333640" />
		<tag k="ssr:type" v="vegstrekning" />
	</node>
</osm>
