<?xml version="1.0" encoding="UTF-8"?>
<osm version="0.6" generator="osmapis">
	<node lat="61.87725063613439" lon="9.098010878498151" id="-41475">
		<tag k="name" v="Skogbygdsvegen" />
		<tag k="ssr:date" v="2019-12-27" />
		<tag k="ssr:gruppe" v="veg" />
		<tag k="ssr:hovedgruppe" v="infrastruktur" />
		<tag k="ssr:stedsnr" v="708071" />
		<tag k="ssr:type" v="adressenavn" />
	</node>
	<node lat="61.872640928927574" lon="9.091467770565322" id="-41828">
		<tag k="name" v="Kjøpangervegen" />
		<tag k="ssr:date" v="2019-12-27" />
		<tag k="ssr:gruppe" v="veg" />
		<tag k="ssr:hovedgruppe" v="infrastruktur" />
		<tag k="ssr:stedsnr" v="989519" />
		<tag k="ssr:type" v="adressenavn" />
	</node>
	<node lat="61.87504371373906" lon="9.09675121238621" id="-41831">
		<tag k="name" v="Halland" />
		<tag k="ssr:date" v="2019-12-27" />
		<tag k="ssr:gruppe" v="veg" />
		<tag k="ssr:hovedgruppe" v="infrastruktur" />
		<tag k="ssr:stedsnr" v="989522" />
		<tag k="ssr:type" v="adressenavn" />
	</node>
	<node lat="61.870715570223844" lon="9.098712083732732" id="-41832">
		<tag k="name" v="Brumovegen" />
		<tag k="ssr:date" v="2019-12-27" />
		<tag k="ssr:gruppe" v="veg" />
		<tag k="ssr:hovedgruppe" v="infrastruktur" />
		<tag k="ssr:stedsnr" v="989523" />
		<tag k="ssr:type" v="adressenavn" />
	</node>
	<node lat="61.87741215369032" lon="9.09912783720543" id="-41834">
		<tag k="name" v="Vollvegen" />
		<tag k="ssr:date" v="2019-12-27" />
		<tag k="ssr:gruppe" v="veg" />
		<tag k="ssr:hovedgruppe" v="infrastruktur" />
		<tag k="ssr:stedsnr" v="989525" />
		<tag k="ssr:type" v="adressenavn" />
	</node>
	<node lat="61.876726476107685" lon="9.125096487812637" id="-41835">
		<tag k="name" v="Sveaholvegen" />
		<tag k="ssr:date" v="2019-12-27" />
		<tag k="ssr:gruppe" v="veg" />
		<tag k="ssr:hovedgruppe" v="infrastruktur" />
		<tag k="ssr:stedsnr" v="989526" />
		<tag k="ssr:type" v="adressenavn" />
	</node>
	<node lat="61.87956093681748" lon="9.118381386295994" id="-41838">
		<tag k="name" v="Skjellbergvegen" />
		<tag k="ssr:date" v="2019-12-27" />
		<tag k="ssr:gruppe" v="veg" />
		<tag k="ssr:hovedgruppe" v="infrastruktur" />
		<tag k="ssr:stedsnr" v="989529" />
		<tag k="ssr:type" v="adressenavn" />
	</node>
	<node lat="61.87670985981444" lon="9.102831776557508" id="-41842">
		<tag k="name" v="Øyastubben" />
		<tag k="ssr:date" v="2019-12-27" />
		<tag k="ssr:gruppe" v="veg" />
		<tag k="ssr:hovedgruppe" v="infrastruktur" />
		<tag k="ssr:stedsnr" v="989533" />
		<tag k="ssr:type" v="adressenavn" />
	</node>
	<node lat="61.87709300068603" lon="9.12499360562501" id="-41845">
		<tag k="name" v="Krokjordet" />
		<tag k="ssr:date" v="2019-12-27" />
		<tag k="ssr:gruppe" v="veg" />
		<tag k="ssr:hovedgruppe" v="infrastruktur" />
		<tag k="ssr:stedsnr" v="989536" />
		<tag k="ssr:type" v="adressenavn" />
	</node>
	<node lat="61.81629539709097" lon="9.275571233555551" id="-41847">
		<tag k="name" v="Kolbottvegen" />
		<tag k="ssr:date" v="2019-12-27" />
		<tag k="ssr:gruppe" v="veg" />
		<tag k="ssr:hovedgruppe" v="infrastruktur" />
		<tag k="ssr:stedsnr" v="989538" />
		<tag k="ssr:type" v="adressenavn" />
	</node>
	<node lat="61.68420927699946" lon="9.062103649291354" id="-41851">
		<tag k="name" v="Sallivegen" />
		<tag k="ssr:date" v="2019-12-27" />
		<tag k="ssr:gruppe" v="veg" />
		<tag k="ssr:hovedgruppe" v="infrastruktur" />
		<tag k="ssr:stedsnr" v="989906" />
		<tag k="ssr:type" v="adressenavn" />
	</node>
	<node lat="61.677737646462155" lon="9.074394189779534" id="-41852">
		<tag k="name" v="Sjolivegen" />
		<tag k="ssr:date" v="2019-12-27" />
		<tag k="ssr:gruppe" v="veg" />
		<tag k="ssr:hovedgruppe" v="infrastruktur" />
		<tag k="ssr:stedsnr" v="989907" />
		<tag k="ssr:type" v="adressenavn" />
	</node>
	<node lat="61.551112124232475" lon="8.921769448087232" id="-41855">
		<tag k="name" v="Griningsdalsvegen" />
		<tag k="ssr:date" v="2019-12-27" />
		<tag k="ssr:gruppe" v="veg" />
		<tag k="ssr:hovedgruppe" v="infrastruktur" />
		<tag k="ssr:stedsnr" v="989910" />
		<tag k="ssr:type" v="adressenavn" />
	</node>
	<node lat="61.48937556368326" lon="8.839598656548766" id="-41856">
		<tag k="name" v="Gjendevegen" />
		<tag k="ssr:date" v="2019-12-27" />
		<tag k="ssr:gruppe" v="veg" />
		<tag k="ssr:hovedgruppe" v="infrastruktur" />
		<tag k="ssr:stedsnr" v="989911" />
		<tag k="ssr:type" v="adressenavn" />
	</node>
	<node lat="61.47763416960876" lon="8.8240516458922" id="-41861">
		<tag k="name" v="Leirungsvegen" />
		<tag k="ssr:date" v="2019-12-27" />
		<tag k="ssr:gruppe" v="veg" />
		<tag k="ssr:hovedgruppe" v="infrastruktur" />
		<tag k="ssr:stedsnr" v="989916" />
		<tag k="ssr:type" v="adressenavn" />
	</node>
	<node lat="61.762644029539146" lon="9.088557556664526" id="-41862">
		<tag k="name" v="Trollhøvegen" />
		<tag k="ssr:date" v="2019-12-27" />
		<tag k="ssr:gruppe" v="veg" />
		<tag k="ssr:hovedgruppe" v="infrastruktur" />
		<tag k="ssr:stedsnr" v="989917" />
		<tag k="ssr:type" v="adressenavn" />
	</node>
	<node lat="61.87779615058183" lon="9.085622734386774" id="-41863">
		<tag k="name" v="Hølvegen" />
		<tag k="ssr:date" v="2019-12-27" />
		<tag k="ssr:gruppe" v="veg" />
		<tag k="ssr:hovedgruppe" v="infrastruktur" />
		<tag k="ssr:stedsnr" v="989918" />
		<tag k="ssr:type" v="adressenavn" />
	</node>
	<node lat="61.879951241084214" lon="9.122298326455004" id="-41864">
		<tag k="name" v="Holvegen" />
		<tag k="ssr:date" v="2019-12-27" />
		<tag k="ssr:gruppe" v="veg" />
		<tag k="ssr:hovedgruppe" v="infrastruktur" />
		<tag k="ssr:stedsnr" v="989919" />
		<tag k="ssr:type" v="adressenavn" />
	</node>
	<node lat="61.55032133750248" lon="9.19536457993889" id="-41865">
		<tag k="name" v="Nysetervegen" />
		<tag k="ssr:date" v="2019-12-27" />
		<tag k="ssr:gruppe" v="veg" />
		<tag k="ssr:hovedgruppe" v="infrastruktur" />
		<tag k="ssr:stedsnr" v="990012" />
		<tag k="ssr:type" v="adressenavn" />
	</node>
	<node lat="61.75466195904392" lon="9.074680904543172" id="-41869">
		<tag k="name" v="Sandnessætre" />
		<tag k="ssr:date" v="2019-12-27" />
		<tag k="ssr:gruppe" v="veg" />
		<tag k="ssr:hovedgruppe" v="infrastruktur" />
		<tag k="ssr:stedsnr" v="990016" />
		<tag k="ssr:type" v="adressenavn" />
	</node>
	<node lat="61.87564166556698" lon="9.095722230195026" id="-42330">
		<tag k="name" v="Vågå kommune" />
		<tag k="ssr:date" v="2019-12-27" />
		<tag k="ssr:gruppe" v="administrativeIndelinger" />
		<tag k="ssr:hovedgruppe" v="offentligAdministrasjon" />
		<tag k="ssr:stedsnr" v="388021" />
		<tag k="ssr:type" v="kommune" />
	</node>
	<node lat="61.87943972616057" lon="9.101828095794438" id="-42857">
		<tag k="name" v="Haugøyvegen" />
		<tag k="ssr:date" v="2019-12-27" />
		<tag k="ssr:gruppe" v="veg" />
		<tag k="ssr:hovedgruppe" v="infrastruktur" />
		<tag k="ssr:stedsnr" v="989504" />
		<tag k="ssr:type" v="adressenavn" />
	</node>
	<node lat="61.87665050547216" lon="9.104571109048253" id="-42859">
		<tag k="name" v="Nuggevegen" />
		<tag k="ssr:date" v="2019-12-27" />
		<tag k="ssr:gruppe" v="veg" />
		<tag k="ssr:hovedgruppe" v="infrastruktur" />
		<tag k="ssr:stedsnr" v="989506" />
		<tag k="ssr:type" v="adressenavn" />
	</node>
	<node lat="61.876674138486905" lon="9.103696897524797" id="-42860">
		<tag k="name" v="Øyavegen" />
		<tag k="ssr:date" v="2019-12-27" />
		<tag k="ssr:gruppe" v="veg" />
		<tag k="ssr:hovedgruppe" v="infrastruktur" />
		<tag k="ssr:stedsnr" v="989507" />
		<tag k="ssr:type" v="adressenavn" />
	</node>
	<node lat="61.87758481675743" lon="9.093225902940175" id="-42866">
		<tag k="name" v="Jutulvegen" />
		<tag k="ssr:date" v="2019-12-27" />
		<tag k="ssr:gruppe" v="veg" />
		<tag k="ssr:hovedgruppe" v="infrastruktur" />
		<tag k="ssr:stedsnr" v="989513" />
		<tag k="ssr:type" v="adressenavn" />
	</node>
	<node lat="61.87898931163519" lon="9.085349845708842" id="-42868">
		<tag k="name" v="Søre Langskåre" />
		<tag k="ssr:date" v="2019-12-27" />
		<tag k="ssr:gruppe" v="veg" />
		<tag k="ssr:hovedgruppe" v="infrastruktur" />
		<tag k="ssr:stedsnr" v="989515" />
		<tag k="ssr:type" v="adressenavn" />
	</node>
	<node lat="61.873141543249005" lon="9.091510198913507" id="-42869">
		<tag k="name" v="Grindstugulego" />
		<tag k="ssr:date" v="2019-12-27" />
		<tag k="ssr:gruppe" v="veg" />
		<tag k="ssr:hovedgruppe" v="infrastruktur" />
		<tag k="ssr:stedsnr" v="989516" />
		<tag k="ssr:type" v="adressenavn" />
	</node>
	<node lat="61.79031421267869" lon="9.368665321114483" id="-42877">
		<tag k="name" v="Ottadalsvegen" />
		<tag k="ssr:date" v="2019-12-27" />
		<tag k="ssr:gruppe" v="veg" />
		<tag k="ssr:hovedgruppe" v="infrastruktur" />
		<tag k="ssr:stedsnr" v="989547" />
		<tag k="ssr:type" v="adressenavn" />
	</node>
	<node lat="61.48937556368326" lon="8.839598656548766" id="-42879">
		<tag k="name" v="Sjodalsvegen" />
		<tag k="ssr:date" v="2019-12-27" />
		<tag k="ssr:gruppe" v="veg" />
		<tag k="ssr:hovedgruppe" v="infrastruktur" />
		<tag k="ssr:stedsnr" v="989549" />
		<tag k="ssr:type" v="adressenavn" />
	</node>
	<node lat="61.73181449704209" lon="9.114132981897528" id="-42881">
		<tag k="name" v="Heidalsvegen" />
		<tag k="ssr:date" v="2019-12-27" />
		<tag k="ssr:gruppe" v="veg" />
		<tag k="ssr:hovedgruppe" v="infrastruktur" />
		<tag k="ssr:stedsnr" v="989551" />
		<tag k="ssr:type" v="adressenavn" />
	</node>
	<node lat="61.818290196341536" lon="9.269586756412473" id="-42882">
		<tag k="name" v="Sjårdalsvegen" />
		<tag k="ssr:date" v="2019-12-27" />
		<tag k="ssr:gruppe" v="veg" />
		<tag k="ssr:hovedgruppe" v="infrastruktur" />
		<tag k="ssr:stedsnr" v="989552" />
		<tag k="ssr:type" v="adressenavn" />
	</node>
	<node lat="61.83070947926421" lon="9.39338783230049" id="-42884">
		<tag k="name" v="Sagdalsvegen" />
		<tag k="ssr:date" v="2019-12-27" />
		<tag k="ssr:gruppe" v="veg" />
		<tag k="ssr:hovedgruppe" v="infrastruktur" />
		<tag k="ssr:stedsnr" v="989554" />
		<tag k="ssr:type" v="adressenavn" />
	</node>
	<node lat="61.91352151775089" lon="8.991183170701413" id="-42885">
		<tag k="name" v="Skårvangsvegen" />
		<tag k="ssr:date" v="2019-12-27" />
		<tag k="ssr:gruppe" v="veg" />
		<tag k="ssr:hovedgruppe" v="infrastruktur" />
		<tag k="ssr:stedsnr" v="989555" />
		<tag k="ssr:type" v="adressenavn" />
	</node>
	<node lat="61.89263233840477" lon="9.045965612152877" id="-42886">
		<tag k="name" v="Slådalsvegen" />
		<tag k="ssr:date" v="2019-12-27" />
		<tag k="ssr:gruppe" v="veg" />
		<tag k="ssr:hovedgruppe" v="infrastruktur" />
		<tag k="ssr:stedsnr" v="989556" />
		<tag k="ssr:type" v="adressenavn" />
	</node>
	<node lat="61.91352151775089" lon="8.991183170701413" id="-42887">
		<tag k="name" v="Botnevegen" />
		<tag k="ssr:date" v="2019-12-27" />
		<tag k="ssr:gruppe" v="veg" />
		<tag k="ssr:hovedgruppe" v="infrastruktur" />
		<tag k="ssr:stedsnr" v="989557" />
		<tag k="ssr:type" v="adressenavn" />
	</node>
	<node lat="61.92359459641053" lon="8.976896460698752" id="-42888">
		<tag k="name" v="Skjervesida" />
		<tag k="ssr:date" v="2019-12-27" />
		<tag k="ssr:gruppe" v="veg" />
		<tag k="ssr:hovedgruppe" v="infrastruktur" />
		<tag k="ssr:stedsnr" v="989558" />
		<tag k="ssr:type" v="adressenavn" />
	</node>
	<node lat="61.87657927315464" lon="9.13642615386264" id="-42891">
		<tag k="name" v="Steindalsvegen" />
		<tag k="ssr:date" v="2019-12-27" />
		<tag k="ssr:gruppe" v="veg" />
		<tag k="ssr:hovedgruppe" v="infrastruktur" />
		<tag k="ssr:stedsnr" v="989561" />
		<tag k="ssr:type" v="adressenavn" />
	</node>
	<node lat="61.84889672429539" lon="8.96769407309876" id="-42893">
		<tag k="name" v="Tessanden" />
		<tag k="ssr:date" v="2019-12-27" />
		<tag k="ssr:gruppe" v="veg" />
		<tag k="ssr:hovedgruppe" v="infrastruktur" />
		<tag k="ssr:stedsnr" v="989563" />
		<tag k="ssr:type" v="adressenavn" />
	</node>
	<node lat="61.84837384837844" lon="8.96729141179164" id="-42895">
		<tag k="name" v="Neslykkjevegen" />
		<tag k="ssr:date" v="2019-12-27" />
		<tag k="ssr:gruppe" v="veg" />
		<tag k="ssr:hovedgruppe" v="infrastruktur" />
		<tag k="ssr:stedsnr" v="989824" />
		<tag k="ssr:type" v="adressenavn" />
	</node>
	<node lat="61.92420337327965" lon="8.995493888982942" id="-42896">
		<tag k="name" v="Brennslettvegen" />
		<tag k="ssr:date" v="2019-12-27" />
		<tag k="ssr:gruppe" v="veg" />
		<tag k="ssr:hovedgruppe" v="infrastruktur" />
		<tag k="ssr:stedsnr" v="989825" />
		<tag k="ssr:type" v="adressenavn" />
	</node>
	<node lat="61.861646587057635" lon="8.97478817918891" id="-42897">
		<tag k="name" v="Midtlivegen" />
		<tag k="ssr:date" v="2019-12-27" />
		<tag k="ssr:gruppe" v="veg" />
		<tag k="ssr:hovedgruppe" v="infrastruktur" />
		<tag k="ssr:stedsnr" v="989826" />
		<tag k="ssr:type" v="adressenavn" />
	</node>
	<node lat="61.86632652937551" lon="9.160320902310168" id="-42898">
		<tag k="name" v="Kleppevegen" />
		<tag k="ssr:date" v="2019-12-27" />
		<tag k="ssr:gruppe" v="veg" />
		<tag k="ssr:hovedgruppe" v="infrastruktur" />
		<tag k="ssr:stedsnr" v="989827" />
		<tag k="ssr:type" v="adressenavn" />
	</node>
	<node lat="61.864706048774266" lon="9.1509592019474" id="-42899">
		<tag k="name" v="Kleppelivegen" />
		<tag k="ssr:date" v="2019-12-27" />
		<tag k="ssr:gruppe" v="veg" />
		<tag k="ssr:hovedgruppe" v="infrastruktur" />
		<tag k="ssr:stedsnr" v="989828" />
		<tag k="ssr:type" v="adressenavn" />
	</node>
	<node lat="61.884257213063535" lon="9.078817891930338" id="-42900">
		<tag k="name" v="Sætavegen" />
		<tag k="ssr:date" v="2019-12-27" />
		<tag k="ssr:gruppe" v="veg" />
		<tag k="ssr:hovedgruppe" v="infrastruktur" />
		<tag k="ssr:stedsnr" v="989829" />
		<tag k="ssr:type" v="adressenavn" />
	</node>
	<node lat="61.93042082627177" lon="8.940395670521285" id="-42901">
		<tag k="name" v="Finndalsvegen" />
		<tag k="ssr:date" v="2019-12-27" />
		<tag k="ssr:gruppe" v="veg" />
		<tag k="ssr:hovedgruppe" v="infrastruktur" />
		<tag k="ssr:stedsnr" v="989830" />
		<tag k="ssr:type" v="adressenavn" />
	</node>
	<node lat="61.862702148448676" lon="8.97776656605951" id="-42903">
		<tag k="name" v="Nistingvegen" />
		<tag k="ssr:date" v="2019-12-27" />
		<tag k="ssr:gruppe" v="veg" />
		<tag k="ssr:hovedgruppe" v="infrastruktur" />
		<tag k="ssr:stedsnr" v="989832" />
		<tag k="ssr:type" v="adressenavn" />
	</node>
	<node lat="61.82906031930514" lon="8.963328773068616" id="-42904">
		<tag k="name" v="Gjæsingvegen" />
		<tag k="ssr:date" v="2019-12-27" />
		<tag k="ssr:gruppe" v="veg" />
		<tag k="ssr:hovedgruppe" v="infrastruktur" />
		<tag k="ssr:stedsnr" v="989833" />
		<tag k="ssr:type" v="adressenavn" />
	</node>
	<node lat="61.826581171876384" lon="8.966548908354183" id="-42905">
		<tag k="name" v="Tessvegen" />
		<tag k="ssr:date" v="2019-12-27" />
		<tag k="ssr:gruppe" v="veg" />
		<tag k="ssr:hovedgruppe" v="infrastruktur" />
		<tag k="ssr:stedsnr" v="989834" />
		<tag k="ssr:type" v="adressenavn" />
	</node>
	<node lat="61.818385577877926" lon="8.904155850711565" id="-42906">
		<tag k="name" v="Kleppdalsvegen" />
		<tag k="ssr:date" v="2019-12-27" />
		<tag k="ssr:gruppe" v="veg" />
		<tag k="ssr:hovedgruppe" v="infrastruktur" />
		<tag k="ssr:stedsnr" v="989835" />
		<tag k="ssr:type" v="adressenavn" />
	</node>
	<node lat="61.82620995308207" lon="8.88355491625575" id="-42907">
		<tag k="name" v="Krosstjønnvegen" />
		<tag k="ssr:date" v="2019-12-27" />
		<tag k="ssr:gruppe" v="veg" />
		<tag k="ssr:hovedgruppe" v="infrastruktur" />
		<tag k="ssr:stedsnr" v="989836" />
		<tag k="ssr:type" v="adressenavn" />
	</node>
	<node lat="61.82635133275666" lon="8.87856915854948" id="-42908">
		<tag k="name" v="Svarttjønnvegen" />
		<tag k="ssr:date" v="2019-12-27" />
		<tag k="ssr:gruppe" v="veg" />
		<tag k="ssr:hovedgruppe" v="infrastruktur" />
		<tag k="ssr:stedsnr" v="989837" />
		<tag k="ssr:type" v="adressenavn" />
	</node>
	<node lat="61.81394071469294" lon="8.941822473134698" id="-42909">
		<tag k="name" v="Tessosvegen" />
		<tag k="ssr:date" v="2019-12-27" />
		<tag k="ssr:gruppe" v="veg" />
		<tag k="ssr:hovedgruppe" v="infrastruktur" />
		<tag k="ssr:stedsnr" v="989838" />
		<tag k="ssr:type" v="adressenavn" />
	</node>
	<node lat="61.814684806961814" lon="8.940116068962004" id="-42910">
		<tag k="name" v="Uksfossvegen" />
		<tag k="ssr:date" v="2019-12-27" />
		<tag k="ssr:gruppe" v="veg" />
		<tag k="ssr:hovedgruppe" v="infrastruktur" />
		<tag k="ssr:stedsnr" v="989839" />
		<tag k="ssr:type" v="adressenavn" />
	</node>
	<node lat="61.862433995048235" lon="9.082206213315594" id="-42911">
		<tag k="name" v="Klonesbakken" />
		<tag k="ssr:date" v="2019-12-27" />
		<tag k="ssr:gruppe" v="veg" />
		<tag k="ssr:hovedgruppe" v="infrastruktur" />
		<tag k="ssr:stedsnr" v="989840" />
		<tag k="ssr:type" v="adressenavn" />
	</node>
	<node lat="61.82072393286289" lon="9.118562094599783" id="-42915">
		<tag k="name" v="Bringsvegen" />
		<tag k="ssr:date" v="2019-12-27" />
		<tag k="ssr:gruppe" v="veg" />
		<tag k="ssr:hovedgruppe" v="infrastruktur" />
		<tag k="ssr:stedsnr" v="989844" />
		<tag k="ssr:type" v="adressenavn" />
	</node>
	<node lat="61.795194465304746" lon="9.208219858677225" id="-42916">
		<tag k="name" v="Brennstadvegen" />
		<tag k="ssr:date" v="2019-12-27" />
		<tag k="ssr:gruppe" v="veg" />
		<tag k="ssr:hovedgruppe" v="infrastruktur" />
		<tag k="ssr:stedsnr" v="989845" />
		<tag k="ssr:type" v="adressenavn" />
	</node>
	<node lat="61.795752140455846" lon="9.211856772257711" id="-42917">
		<tag k="name" v="Stutarhaugen" />
		<tag k="ssr:date" v="2019-12-27" />
		<tag k="ssr:gruppe" v="veg" />
		<tag k="ssr:hovedgruppe" v="infrastruktur" />
		<tag k="ssr:stedsnr" v="989846" />
		<tag k="ssr:type" v="adressenavn" />
	</node>
	<node lat="61.788297266891966" lon="9.173923672082223" id="-42918">
		<tag k="name" v="Øversætervegen" />
		<tag k="ssr:date" v="2019-12-27" />
		<tag k="ssr:gruppe" v="veg" />
		<tag k="ssr:hovedgruppe" v="infrastruktur" />
		<tag k="ssr:stedsnr" v="989847" />
		<tag k="ssr:type" v="adressenavn" />
	</node>
	<node lat="61.78336595836113" lon="9.079005137288727" id="-42919">
		<tag k="name" v="Tuvstulvegen" />
		<tag k="ssr:date" v="2019-12-27" />
		<tag k="ssr:gruppe" v="veg" />
		<tag k="ssr:hovedgruppe" v="infrastruktur" />
		<tag k="ssr:stedsnr" v="989848" />
		<tag k="ssr:type" v="adressenavn" />
	</node>
	<node lat="61.76121919163319" lon="9.091239915035871" id="-42920">
		<tag k="name" v="Lemonsjøvegen" />
		<tag k="ssr:date" v="2019-12-27" />
		<tag k="ssr:gruppe" v="veg" />
		<tag k="ssr:hovedgruppe" v="infrastruktur" />
		<tag k="ssr:stedsnr" v="989900" />
		<tag k="ssr:type" v="adressenavn" />
	</node>
	<node lat="61.76111610487444" lon="9.087229826058161" id="-42921">
		<tag k="name" v="Gråhøvegen" />
		<tag k="ssr:date" v="2019-12-27" />
		<tag k="ssr:gruppe" v="veg" />
		<tag k="ssr:hovedgruppe" v="infrastruktur" />
		<tag k="ssr:stedsnr" v="989901" />
		<tag k="ssr:type" v="adressenavn" />
	</node>
	<node lat="61.75985596052049" lon="9.084683156132934" id="-42922">
		<tag k="name" v="Blæsterhaugen" />
		<tag k="ssr:date" v="2019-12-27" />
		<tag k="ssr:gruppe" v="veg" />
		<tag k="ssr:hovedgruppe" v="infrastruktur" />
		<tag k="ssr:stedsnr" v="989902" />
		<tag k="ssr:type" v="adressenavn" />
	</node>
	<node lat="61.75650118568659" lon="9.070711295149213" id="-42923">
		<tag k="name" v="Lemonsjøsida" />
		<tag k="ssr:date" v="2019-12-27" />
		<tag k="ssr:gruppe" v="veg" />
		<tag k="ssr:hovedgruppe" v="infrastruktur" />
		<tag k="ssr:stedsnr" v="989903" />
		<tag k="ssr:type" v="adressenavn" />
	</node>
	<node lat="61.75536078477487" lon="9.076810569313267" id="-42924">
		<tag k="name" v="Blæstervegen" />
		<tag k="ssr:date" v="2019-12-27" />
		<tag k="ssr:gruppe" v="veg" />
		<tag k="ssr:hovedgruppe" v="infrastruktur" />
		<tag k="ssr:stedsnr" v="989904" />
		<tag k="ssr:type" v="adressenavn" />
	</node>
	<node lat="61.70286132703723" lon="9.058556286182469" id="-42925">
		<tag k="name" v="Hovdasmovegen" />
		<tag k="ssr:date" v="2019-12-27" />
		<tag k="ssr:gruppe" v="veg" />
		<tag k="ssr:hovedgruppe" v="infrastruktur" />
		<tag k="ssr:stedsnr" v="989905" />
		<tag k="ssr:type" v="adressenavn" />
	</node>
	<node lat="61.872114986259405" lon="9.074339280334339" id="-42927">
		<tag k="name" v="Kvarbergsåsen" />
		<tag k="ssr:date" v="2019-12-27" />
		<tag k="ssr:gruppe" v="veg" />
		<tag k="ssr:hovedgruppe" v="infrastruktur" />
		<tag k="ssr:stedsnr" v="990002" />
		<tag k="ssr:type" v="adressenavn" />
	</node>
	<node lat="61.87946048452815" lon="9.085463111166337" id="-42928">
		<tag k="name" v="Blessomvollen" />
		<tag k="ssr:date" v="2019-12-27" />
		<tag k="ssr:gruppe" v="veg" />
		<tag k="ssr:hovedgruppe" v="infrastruktur" />
		<tag k="ssr:stedsnr" v="990003" />
		<tag k="ssr:type" v="adressenavn" />
	</node>
	<node lat="61.753112348052824" lon="9.08431719222945" id="-42930">
		<tag k="name" v="Nedre Trollhøsida" />
		<tag k="ssr:date" v="2019-12-27" />
		<tag k="ssr:gruppe" v="veg" />
		<tag k="ssr:hovedgruppe" v="infrastruktur" />
		<tag k="ssr:stedsnr" v="990005" />
		<tag k="ssr:type" v="adressenavn" />
	</node>
	<node lat="61.75058689841454" lon="9.088968942297862" id="-42931">
		<tag k="name" v="Nedre Rindhovdsida" />
		<tag k="ssr:date" v="2019-12-27" />
		<tag k="ssr:gruppe" v="veg" />
		<tag k="ssr:hovedgruppe" v="infrastruktur" />
		<tag k="ssr:stedsnr" v="990006" />
		<tag k="ssr:type" v="adressenavn" />
	</node>
	<node lat="61.88066090003949" lon="9.11368904314773" id="-42932">
		<tag k="name" v="Berget" />
		<tag k="ssr:date" v="2019-12-27" />
		<tag k="ssr:gruppe" v="veg" />
		<tag k="ssr:hovedgruppe" v="infrastruktur" />
		<tag k="ssr:stedsnr" v="990007" />
		<tag k="ssr:type" v="adressenavn" />
	</node>
	<node lat="61.567955044109034" lon="8.935403300115118" id="-42935">
		<tag k="name" v="Sjosida" />
		<tag k="ssr:date" v="2019-12-27" />
		<tag k="ssr:gruppe" v="veg" />
		<tag k="ssr:hovedgruppe" v="infrastruktur" />
		<tag k="ssr:stedsnr" v="990010" />
		<tag k="ssr:type" v="adressenavn" />
	</node>
</osm>
