<?xml version="1.0" encoding="UTF-8"?>
<osm version="0.6" generator="osmapis">
	<node lat="58.37912778123856" lon="8.740950000678922" id="-38868">
		<tag k="name" v="Spærholmene" />
		<tag k="place" v="islet" />
		<tag k="ssr:stedsnr" v="518" />
	</node>
	<node lat="58.383727776507016" lon="8.725455550687878" id="-38869">
		<tag k="name" v="Gråholmen" />
		<tag k="place" v="islet" />
		<tag k="ssr:stedsnr" v="519" />
	</node>
	<node lat="58.37330277608325" lon="8.758616662165215" id="-38871">
		<tag k="fixme" v="consider seamark:type=rock or natural=shoal" />
		<tag k="name" v="Fiskeskjer" />
		<tag k="place" v="islet" />
		<tag k="ssr:stedsnr" v="522" />
	</node>
	<node lat="58.32828296782573" lon="8.586814666312769" id="-38877">
		<tag k="alt_name" v="Vessøy;Vesøy" />
		<tag k="name" v="Nypholmen" />
		<tag k="place" v="islet" />
		<tag k="ssr:stedsnr" v="996" />
	</node>
	<node lat="58.29907778128999" lon="8.517552784353013" id="-38882">
		<tag k="name" v="Sørvika" />
		<tag k="natural" v="bay" />
		<tag k="ssr:stedsnr" v="230371" />
	</node>
	<node lat="58.281397222485516" lon="8.570666670452395" id="-38891">
		<tag k="name" v="Sloa" />
		<tag k="natural" v="shoal" />
		<tag k="place" v="locality" />
		<tag k="ssr:stedsnr" v="26610" />
	</node>
	<node lat="58.31627777333234" lon="8.602727781721363" id="-38892">
		<tag k="fixme" v="consider seamark:type=rock or natural=shoal" />
		<tag k="name" v="Saleskjær" />
		<tag k="place" v="islet" />
		<tag k="ssr:stedsnr" v="27670" />
	</node>
	<node lat="58.30071388598417" lon="8.632930548254166" id="-38893">
		<tag k="name" v="Steinen" />
		<tag k="natural" v="shoal" />
		<tag k="place" v="locality" />
		<tag k="ssr:stedsnr" v="27719" />
	</node>
	<node lat="58.34041666759604" lon="8.635750002114278" id="-38902">
		<tag k="name" v="Gullodden" />
		<tag k="natural" v="cape" />
		<tag k="ssr:stedsnr" v="30502" />
	</node>
	<node lat="58.35294444064561" lon="8.656055563120606" id="-38904">
		<tag k="name" v="Moyodden" />
		<tag k="natural" v="cape" />
		<tag k="ssr:stedsnr" v="30469" />
	</node>
	<node lat="58.3026444412721" lon="8.574999994097263" id="-38967">
		<tag k="name" v="Indreholmen" />
		<tag k="place" v="islet" />
		<tag k="ssr:stedsnr" v="55602" />
	</node>
	<node lat="58.37393611182877" lon="8.69997222547437" id="-39016">
		<tag k="name" v="Randviga" />
		<tag k="natural" v="bay" />
		<tag k="ssr:stedsnr" v="61497" />
	</node>
	<node lat="58.30447222431044" lon="8.578458341508155" id="-39020">
		<tag k="name" v="Risholmen" />
		<tag k="place" v="islet" />
		<tag k="ssr:stedsnr" v="61934" />
	</node>
	<node lat="58.35081388982703" lon="8.65260554709652" id="-39021">
		<tag k="name" v="Fugleviga" />
		<tag k="natural" v="bay" />
		<tag k="ssr:stedsnr" v="61975" />
	</node>
	<node lat="58.25853055209641" lon="8.508455554625899" id="-39103">
		<tag k="name" v="Sundholmen" />
		<tag k="place" v="islet" />
		<tag k="ssr:stedsnr" v="83980" />
	</node>
	<node lat="58.253766666118445" lon="8.540911106178992" id="-39104">
		<tag k="name" v="Kristtjern" />
		<tag k="natural" v="shoal" />
		<tag k="place" v="locality" />
		<tag k="ssr:stedsnr" v="83984" />
	</node>
	<node lat="58.25803610722516" lon="8.470358338286871" id="-39105">
		<tag k="name" v="Nordmannsviga" />
		<tag k="natural" v="bay" />
		<tag k="ssr:stedsnr" v="83985" />
	</node>
	<node lat="58.33970277469577" lon="8.709913887646923" id="-39107">
		<tag k="name" v="Kjerkegrunnen" />
		<tag k="natural" v="shoal" />
		<tag k="place" v="locality" />
		<tag k="ssr:stedsnr" v="87726" />
	</node>
	<node lat="58.25408333163975" lon="8.460750006801833" id="-39108">
		<tag k="name" v="Storesand" />
		<tag k="natural" v="beach" />
		<tag k="ssr:stedsnr" v="90435" />
	</node>
	<node lat="58.35499999649052" lon="8.663944436000593" id="-39110">
		<tag k="name" v="Grønnvigodden" />
		<tag k="natural" v="cape" />
		<tag k="ssr:stedsnr" v="90449" />
	</node>
	<node lat="58.24922222368854" lon="8.511055549651266" id="-39114">
		<tag k="name" v="Merrefua" />
		<tag k="natural" v="bay" />
		<tag k="ssr:stedsnr" v="90373" />
	</node>
	<node lat="58.247694448410684" lon="8.496888893666949" id="-39115">
		<tag k="name" v="Lyngholmene" />
		<tag k="place" v="islet" />
		<tag k="ssr:stedsnr" v="90375" />
	</node>
	<node lat="58.263136109865556" lon="8.539255548484777" id="-39160">
		<tag k="fixme" v="consider seamark:type=rock or natural=shoal" />
		<tag k="name" v="Svartskjær" />
		<tag k="place" v="islet" />
		<tag k="ssr:stedsnr" v="115272" />
	</node>
	<node lat="58.30711666433412" lon="8.602505551779462" id="-39161">
		<tag k="alt_name" v="Klåholmen" />
		<tag k="loc_name" v="Klauholmen" />
		<tag k="name" v="Klovholmen" />
		<tag k="place" v="islet" />
		<tag k="ssr:stedsnr" v="115405" />
	</node>
	<node lat="58.35423055816968" lon="8.65333888036286" id="-39186">
		<tag k="name" v="Moysanden" />
		<tag k="natural" v="bay" />
		<tag k="ssr:stedsnr" v="121514" />
	</node>
	<node lat="58.33998055357289" lon="8.654827783817732" id="-39203">
		<tag k="name" v="Kvaløya" />
		<tag k="place" v="island" />
		<tag k="ssr:stedsnr" v="121984" />
	</node>
	<node lat="58.300494448096245" lon="8.60447221495866" id="-39208">
		<tag k="name" v="Skifjellgrunnen" />
		<tag k="natural" v="shoal" />
		<tag k="place" v="locality" />
		<tag k="ssr:stedsnr" v="148716" />
	</node>
	<node lat="58.25994444400573" lon="8.501416670527632" id="-39209">
		<tag k="name" v="Stoveodden" />
		<tag k="natural" v="cape" />
		<tag k="ssr:stedsnr" v="151107" />
	</node>
	<node lat="58.31894444397593" lon="8.577333326348905" id="-39214">
		<tag k="fixme" v="consider seamark:type=rock or natural=shoal" />
		<tag k="name" v="Lille Porterskjæret" />
		<tag k="place" v="islet" />
		<tag k="ssr:stedsnr" v="151357" />
	</node>
	<node lat="58.32028055662878" lon="8.581377777841185" id="-39215">
		<tag k="name" v="Halvorsholmen" />
		<tag k="place" v="islet" />
		<tag k="ssr:stedsnr" v="151362" />
	</node>
	<node lat="58.25299999617861" lon="8.523555547780429" id="-39216">
		<tag k="name" v="Kråkenes" />
		<tag k="natural" v="cape" />
		<tag k="ssr:stedsnr" v="151405" />
	</node>
	<node lat="58.27944444718247" lon="8.502305548620702" id="-39217">
		<tag k="name" v="Bufjorden" />
		<tag k="natural" v="bay" />
		<tag k="ssr:stedsnr" v="151406" />
	</node>
	<node lat="58.33830833185153" lon="8.632044447421258" id="-39218">
		<tag k="name" v="Vaholmen" />
		<tag k="place" v="islet" />
		<tag k="ssr:stedsnr" v="151503" />
	</node>
	<node lat="58.36188889243205" lon="8.673666671951237" id="-39222">
		<tag k="name" v="Ørnåsbukta" />
		<tag k="natural" v="bay" />
		<tag k="ssr:stedsnr" v="151463" />
	</node>
	<node lat="58.285474996252574" lon="8.581636116904262" id="-39257">
		<tag k="fixme" v="consider seamark:type=rock or natural=shoal" />
		<tag k="name" v="Håbåskjær" />
		<tag k="place" v="islet" />
		<tag k="ssr:stedsnr" v="176323" />
	</node>
	<node lat="58.3709093156492" lon="8.749914517791924" id="-39292">
		<tag k="name" v="Skåla" />
		<tag k="place" v="islet" />
		<tag k="ssr:stedsnr" v="182513" />
	</node>
	<node lat="58.299641663488714" lon="8.548352778765645" id="-39300">
		<tag k="alt_name" v="Saltøy" />
		<tag k="name" v="Saltøya" />
		<tag k="place" v="islet" />
		<tag k="ssr:stedsnr" v="182932" />
	</node>
	<node lat="58.24111388523754" lon="8.494183330061706" id="-39302">
		<tag k="fixme" v="consider seamark:type=rock or natural=shoal" />
		<tag k="name" v="Svartskjær" />
		<tag k="place" v="islet" />
		<tag k="ssr:stedsnr" v="262266" />
	</node>
	<node lat="58.39051666708522" lon="8.724019445169777" id="-39303">
		<tag k="name" v="Hasseltangen" />
		<tag k="natural" v="cape" />
		<tag k="ssr:stedsnr" v="263048" />
	</node>
	<node lat="58.26273333690472" lon="8.438738892234612" id="-39304">
		<tag k="name" v="Narrholmsundet" />
		<tag k="natural" v="strait" />
		<tag k="ssr:stedsnr" v="265781" />
	</node>
	<node lat="58.382719439980576" lon="8.763463881877666" id="-39306">
		<tag k="name" v="Løvebåene" />
		<tag k="place" v="locality" />
		<tag k="seamark:type" v="rock" />
		<tag k="ssr:stedsnr" v="209683" />
	</node>
	<node lat="58.30575000237198" lon="8.570166667746216" id="-39307">
		<tag k="name" v="Karsholmen" />
		<tag k="place" v="islet" />
		<tag k="ssr:stedsnr" v="212330" />
	</node>
	<node lat="58.31263888784985" lon="8.598194444637564" id="-39308">
		<tag k="fixme" v="consider seamark:type=rock or natural=shoal" />
		<tag k="name" v="Sugga" />
		<tag k="place" v="islet" />
		<tag k="ssr:stedsnr" v="212333" />
	</node>
	<node lat="58.316249996384734" lon="8.58139167492282" id="-39309">
		<tag k="name" v="Lille Tvillingholmen" />
		<tag k="place" v="islet" />
		<tag k="ssr:stedsnr" v="212087" />
	</node>
	<node lat="58.26236110992738" lon="8.469527771084637" id="-39312">
		<tag k="name" v="Sønningdalsund" />
		<tag k="natural" v="strait" />
		<tag k="ssr:stedsnr" v="212404" />
	</node>
	<node lat="58.24533611170293" lon="8.461808336496551" id="-39313">
		<tag k="fixme" v="consider seamark:type=rock or natural=shoal" />
		<tag k="name" v="Vaskjær" />
		<tag k="place" v="islet" />
		<tag k="ssr:stedsnr" v="212412" />
	</node>
	<node lat="58.24486110788425" lon="8.491527780132266" id="-39314">
		<tag k="name" v="Malmen" />
		<tag k="place" v="island" />
		<tag k="ssr:stedsnr" v="212414" />
	</node>
	<node lat="58.314936115433625" lon="8.673880555925994" id="-39321">
		<tag k="name" v="Vestre Sloa" />
		<tag k="natural" v="shoal" />
		<tag k="place" v="locality" />
		<tag k="ssr:stedsnr" v="269698" />
	</node>
	<node lat="58.336372222717785" lon="8.659030562942451" id="-39322">
		<tag k="name" v="Varviga" />
		<tag k="natural" v="bay" />
		<tag k="ssr:stedsnr" v="212474" />
	</node>
	<node lat="58.311463892536565" lon="8.577300000883625" id="-39323">
		<tag k="fixme" v="consider seamark:type=rock or natural=shoal" />
		<tag k="name" v="Kråga" />
		<tag k="place" v="islet" />
		<tag k="ssr:stedsnr" v="269658" />
	</node>
	<node lat="58.33267777411717" lon="8.68980555768507" id="-39325">
		<tag k="name" v="Urebåen" />
		<tag k="place" v="locality" />
		<tag k="seamark:type" v="rock" />
		<tag k="ssr:stedsnr" v="269660" />
	</node>
	<node lat="58.342274996528246" lon="8.653627773374897" id="-39398">
		<tag k="name" v="Håneset" />
		<tag k="natural" v="cape" />
		<tag k="ssr:stedsnr" v="451700" />
	</node>
	<node lat="58.34819999739511" lon="8.652577770225067" id="-39399">
		<tag k="name" v="Lille Danmark" />
		<tag k="place" v="islet" />
		<tag k="ssr:stedsnr" v="451742" />
	</node>
	<node lat="58.262861112764334" lon="8.527722224892186" id="-39401">
		<tag k="name" v="Indre Mågholmen" />
		<tag k="place" v="islet" />
		<tag k="ssr:stedsnr" v="451821" />
	</node>
	<node lat="58.288449999179356" lon="8.546122225119294" id="-39406">
		<tag k="alt_name" v="Bjorøy" />
		<tag k="name" v="Bjorøya" />
		<tag k="place" v="island" />
		<tag k="ssr:stedsnr" v="243939" />
	</node>
	<node lat="58.34828333123346" lon="8.732002769480172" id="-39407">
		<tag k="name" v="Rovelbåene" />
		<tag k="place" v="locality" />
		<tag k="seamark:type" v="rock" />
		<tag k="ssr:stedsnr" v="243981" />
	</node>
	<node lat="58.248194445047915" lon="8.465777774661973" id="-39416">
		<tag k="name" v="Håholla" />
		<tag k="natural" v="bay" />
		<tag k="ssr:stedsnr" v="454429" />
	</node>
	<node lat="58.26172222117126" lon="8.515000002254258" id="-39417">
		<tag k="name" v="Meggersvik" />
		<tag k="natural" v="bay" />
		<tag k="ssr:stedsnr" v="455120" />
	</node>
	<node lat="58.33075000046109" lon="8.587166668946933" id="-39423">
		<tag k="fixme" v="consider seamark:type=rock or natural=shoal" />
		<tag k="name" v="Måkeskjær" />
		<tag k="place" v="islet" />
		<tag k="ssr:stedsnr" v="455293" />
	</node>
	<node lat="58.39480555822912" lon="8.720277783455602" id="-39426">
		<tag k="name" v="Lille Terneholmen" />
		<tag k="place" v="islet" />
		<tag k="ssr:stedsnr" v="455430" />
	</node>
	<node lat="58.3533611123067" lon="8.60375000339013" id="-39427">
		<tag k="name" v="Torasholla" />
		<tag k="natural" v="bay" />
		<tag k="ssr:stedsnr" v="455434" />
	</node>
	<node lat="58.360138890342796" lon="8.701055552229203" id="-39430">
		<tag k="fixme" v="consider seamark:type=rock or natural=shoal" />
		<tag k="name" v="Torskungene" />
		<tag k="place" v="islet" />
		<tag k="ssr:stedsnr" v="455451" />
	</node>
	<node lat="58.34252777581615" lon="8.63730555609023" id="-39431">
		<tag k="name" v="Sandum" />
		<tag k="natural" v="beach" />
		<tag k="ssr:stedsnr" v="455452" />
	</node>
	<node lat="58.27733333501656" lon="8.49272221451686" id="-39433">
		<tag k="name" v="Ørevika" />
		<tag k="natural" v="bay" />
		<tag k="ssr:stedsnr" v="455391" />
	</node>
	<node lat="58.25488889218454" lon="8.469222229018515" id="-39435">
		<tag k="name" v="Lille Bjørkøy" />
		<tag k="place" v="islet" />
		<tag k="ssr:stedsnr" v="455408" />
	</node>
	<node lat="58.241602774013415" lon="8.475474999282648" id="-39439">
		<tag k="name" v="Rivingbåene" />
		<tag k="place" v="locality" />
		<tag k="seamark:type" v="rock" />
		<tag k="ssr:stedsnr" v="265892" />
	</node>
	<node lat="58.36352222028874" lon="8.73898054908825" id="-39440">
		<tag k="name" v="Brambåen" />
		<tag k="place" v="locality" />
		<tag k="seamark:type" v="rock" />
		<tag k="ssr:stedsnr" v="269675" />
	</node>
	<node lat="58.299333332260076" lon="8.624158325580524" id="-39441">
		<tag k="name" v="Sandsloa" />
		<tag k="natural" v="shoal" />
		<tag k="place" v="locality" />
		<tag k="ssr:stedsnr" v="269821" />
	</node>
	<node lat="58.3275416658282" lon="8.645183340427547" id="-39443">
		<tag k="name" v="Teinegrunnen" />
		<tag k="natural" v="shoal" />
		<tag k="place" v="locality" />
		<tag k="ssr:stedsnr" v="269828" />
	</node>
	<node lat="58.30436944281668" lon="8.61437777044766" id="-39445">
		<tag k="name" v="Teinegrunnen" />
		<tag k="natural" v="shoal" />
		<tag k="place" v="locality" />
		<tag k="ssr:stedsnr" v="269714" />
	</node>
	<node lat="58.32947222450677" lon="8.60063888487558" id="-39450">
		<tag k="name" v="Karvebukta" />
		<tag k="natural" v="bay" />
		<tag k="ssr:stedsnr" v="272309" />
	</node>
	<node lat="58.3319999983725" lon="8.605138888924204" id="-39452">
		<tag k="fixme" v="consider seamark:type=rock or natural=shoal" />
		<tag k="name" v="Juska" />
		<tag k="place" v="islet" />
		<tag k="ssr:stedsnr" v="272477" />
	</node>
	<node lat="58.32795035885542" lon="8.6035914969392" id="-39453">
		<tag k="name" v="Dynamittbukta" />
		<tag k="natural" v="bay" />
		<tag k="ssr:stedsnr" v="272478" />
	</node>
	<node lat="58.326047226193204" lon="8.604391674468195" id="-39454">
		<tag k="name" v="Kalven" />
		<tag k="natural" v="strait" />
		<tag k="ssr:stedsnr" v="272480" />
	</node>
	<node lat="58.25622222296901" lon="8.47900000313618" id="-39460">
		<tag k="fixme" v="consider seamark:type=rock or natural=shoal" />
		<tag k="name" v="Søstrene" />
		<tag k="place" v="islet" />
		<tag k="ssr:stedsnr" v="273423" />
	</node>
	<node lat="58.25333333238355" lon="8.533222217755668" id="-39461">
		<tag k="name" v="Såda" />
		<tag k="place" v="islet" />
		<tag k="ssr:stedsnr" v="273425" />
	</node>
	<node lat="58.29881666443857" lon="8.526419450115387" id="-39473">
		<tag k="name" v="Skottevika" />
		<tag k="natural" v="bay" />
		<tag k="ssr:stedsnr" v="291402" />
	</node>
	<node lat="58.283416666340806" lon="8.511444443090584" id="-39475">
		<tag k="name" v="Movika" />
		<tag k="natural" v="bay" />
		<tag k="ssr:stedsnr" v="291477" />
	</node>
	<node lat="58.301986112973594" lon="8.590294445734573" id="-39496">
		<tag k="name" v="Håøysundet" />
		<tag k="natural" v="strait" />
		<tag k="ssr:stedsnr" v="298625" />
	</node>
	<node lat="58.33721666736175" lon="8.655691664655041" id="-39497">
		<tag k="name" v="Sundet" />
		<tag k="natural" v="strait" />
		<tag k="ssr:stedsnr" v="299582" />
	</node>
	<node lat="58.35684722032979" lon="8.69789722782163" id="-39519">
		<tag k="alt_name" v="Torsk" />
		<tag k="name" v="Torsken" />
		<tag k="place" v="islet" />
		<tag k="ssr:stedsnr" v="303520" />
	</node>
	<node lat="58.255044445598344" lon="8.529758328627702" id="-39534">
		<tag k="alt_name" v="Grønningene" />
		<tag k="name" v="Grønningen" />
		<tag k="place" v="islet" />
		<tag k="ssr:stedsnr" v="303917" />
	</node>
	<node lat="58.24981944108438" lon="8.525780552716578" id="-39535">
		<tag k="name" v="Kalvøyene" />
		<tag k="place" v="islet" />
		<tag k="ssr:stedsnr" v="303920" />
	</node>
	<node lat="58.30018865967243" lon="8.558834947485932" id="-39538">
		<tag k="fixme" v="consider seamark:type=rock or natural=shoal" />
		<tag k="name" v="Morvigskjær" />
		<tag k="place" v="islet" />
		<tag k="ssr:stedsnr" v="303947" />
	</node>
	<node lat="58.255300001545145" lon="8.438363895186187" id="-39546">
		<tag k="name" v="Midtsundholmen" />
		<tag k="place" v="islet" />
		<tag k="ssr:stedsnr" v="325833" />
	</node>
	<node lat="58.24030277709381" lon="8.50966110950627" id="-39547">
		<tag k="name" v="Grunnhausen" />
		<tag k="natural" v="shoal" />
		<tag k="place" v="locality" />
		<tag k="ssr:stedsnr" v="325871" />
	</node>
	<node lat="58.341077778366056" lon="8.62386666886547" id="-39554">
		<tag k="name" v="Barselkilen" />
		<tag k="natural" v="bay" />
		<tag k="ssr:stedsnr" v="333504" />
	</node>
	<node lat="58.324880555757524" lon="8.610944438530096" id="-39555">
		<tag k="name" v="Lille Hampholmen" />
		<tag k="place" v="islet" />
		<tag k="ssr:stedsnr" v="333512" />
	</node>
	<node lat="58.25144444665575" lon="8.455833340105306" id="-39558">
		<tag k="name" v="Krærholla" />
		<tag k="natural" v="bay" />
		<tag k="ssr:stedsnr" v="333449" />
	</node>
	<node lat="58.314194443107965" lon="8.60372222901718" id="-39560">
		<tag k="loc_name" v="Østre  Bratthauet" />
		<tag k="name" v="Østre Brattholmen" />
		<tag k="place" v="islet" />
		<tag k="ssr:stedsnr" v="333499" />
	</node>
	<node lat="58.28796111554303" lon="8.536886106998505" id="-39578">
		<tag k="fixme" v="consider seamark:type=rock or natural=shoal" />
		<tag k="name" v="Flatskjær" />
		<tag k="place" v="islet" />
		<tag k="ssr:stedsnr" v="351453" />
	</node>
	<node lat="58.30114166336611" lon="8.5764166627602" id="-39600">
		<tag k="name" v="Ytreholmen" />
		<tag k="place" v="islet" />
		<tag k="ssr:stedsnr" v="358650" />
	</node>
	<node lat="58.35223611173227" lon="8.609858334516765" id="-39655">
		<tag k="name" v="Vikkilen" />
		<tag k="natural" v="bay" />
		<tag k="ssr:stedsnr" v="364516" />
	</node>
	<node lat="58.35793888774941" lon="8.678030551060909" id="-39659">
		<tag k="alt_name" v="Stangholmene" />
		<tag k="name" v="Stangholmen" />
		<tag k="place" v="islet" />
		<tag k="ssr:stedsnr" v="364525" />
	</node>
	<node lat="58.306568000526866" lon="8.601389159891845" id="-39666">
		<tag k="name" v="Klovholmgabet" />
		<tag k="natural" v="strait" />
		<tag k="ssr:stedsnr" v="479316" />
	</node>
	<node lat="58.343094444317224" lon="8.728522224138148" id="-39668">
		<tag k="name" v="Sandoddryggene" />
		<tag k="natural" v="shoal" />
		<tag k="place" v="locality" />
		<tag k="ssr:stedsnr" v="481478" />
	</node>
	<node lat="58.30796944124864" lon="8.658433338780572" id="-39669">
		<tag k="fixme" v="consider seamark:type=rock or natural=shoal" />
		<tag k="name" v="Hesnesbregen" />
		<tag k="place" v="islet" />
		<tag k="ssr:stedsnr" v="481355" />
	</node>
	<node lat="58.315163886721784" lon="8.61091389429026" id="-39671">
		<tag k="name" v="Lille Skoholmen" />
		<tag k="place" v="islet" />
		<tag k="ssr:stedsnr" v="390607" />
	</node>
	<node lat="58.28840833648929" lon="8.53718888558973" id="-39672">
		<tag k="fixme" v="consider seamark:type=rock or natural=shoal" />
		<tag k="name" v="Skarveskjær" />
		<tag k="place" v="islet" />
		<tag k="ssr:stedsnr" v="390610" />
	</node>
	<node lat="58.261205551958376" lon="8.467480548410244" id="-39673">
		<tag k="name" v="Eidekilen" />
		<tag k="natural" v="bay" />
		<tag k="ssr:stedsnr" v="390611" />
	</node>
	<node lat="58.3371833348344" lon="8.72373611028436" id="-39674">
		<tag k="name" v="Moyhausene" />
		<tag k="natural" v="shoal" />
		<tag k="place" v="locality" />
		<tag k="ssr:stedsnr" v="390706" />
	</node>
	<node lat="58.28008610889178" lon="8.581152773871032" id="-39675">
		<tag k="name" v="Klemet" />
		<tag k="natural" v="shoal" />
		<tag k="place" v="locality" />
		<tag k="ssr:stedsnr" v="390794" />
	</node>
	<node lat="58.320963885037315" lon="8.64390000582318" id="-39676">
		<tag k="name" v="Indre Rossegrunnen" />
		<tag k="natural" v="shoal" />
		<tag k="place" v="locality" />
		<tag k="ssr:stedsnr" v="390801" />
	</node>
	<node lat="58.340927778029155" lon="8.600572224108717" id="-39677">
		<tag k="name" v="Biodden" />
		<tag k="natural" v="cape" />
		<tag k="ssr:stedsnr" v="390804" />
	</node>
	<node lat="58.26460833599679" lon="8.519130563716963" id="-39678">
		<tag k="name" v="Kalvehagneset" />
		<tag k="natural" v="cape" />
		<tag k="ssr:stedsnr" v="394030" />
	</node>
	<node lat="58.25811110814065" lon="8.47358332791769" id="-39679">
		<tag k="name" v="Nordmannsviga" />
		<tag k="natural" v="bay" />
		<tag k="ssr:stedsnr" v="394105" />
	</node>
	<node lat="58.34536110757781" lon="8.6014444369079" id="-39680">
		<tag k="name" v="Kjellviga" />
		<tag k="natural" v="bay" />
		<tag k="ssr:stedsnr" v="394311" />
	</node>
	<node lat="58.30455556000913" lon="8.601805557540553" id="-39682">
		<tag k="loc_name" v="Båtholmen" />
		<tag k="name" v="Håkallen" />
		<tag k="place" v="islet" />
		<tag k="ssr:stedsnr" v="394329" />
	</node>
	<node lat="58.33205555300273" lon="8.59363889078437" id="-39687">
		<tag k="name" v="Vessøyneset" />
		<tag k="natural" v="cape" />
		<tag k="ssr:stedsnr" v="394301" />
	</node>
	<node lat="58.274472222063984" lon="8.447611105907713" id="-39688">
		<tag k="name" v="Lindtveitstrand" />
		<tag k="natural" v="beach" />
		<tag k="ssr:stedsnr" v="394409" />
	</node>
	<node lat="58.24119444339047" lon="8.492805557140223" id="-39689">
		<tag k="fixme" v="consider seamark:type=rock or natural=shoal" />
		<tag k="name" v="Vestre Svarteskjæra" />
		<tag k="place" v="islet" />
		<tag k="ssr:stedsnr" v="394422" />
	</node>
	<node lat="58.241972222884506" lon="8.49708332606284" id="-39690">
		<tag k="fixme" v="consider seamark:type=rock or natural=shoal" />
		<tag k="name" v="Svarteskjærbåen" />
		<tag k="place" v="islet" />
		<tag k="ssr:stedsnr" v="394393" />
	</node>
	<node lat="58.335083333915186" lon="8.607111112977558" id="-39691">
		<tag k="name" v="Breivig" />
		<tag k="natural" v="bay" />
		<tag k="ssr:stedsnr" v="394507" />
	</node>
	<node lat="58.339377774346396" lon="8.638044444847997" id="-39692">
		<tag k="name" v="Tristeinsholmen" />
		<tag k="place" v="islet" />
		<tag k="ssr:stedsnr" v="394509" />
	</node>
	<node lat="58.25086111303704" lon="8.459194437915583" id="-39694">
		<tag k="name" v="Breivig" />
		<tag k="natural" v="bay" />
		<tag k="ssr:stedsnr" v="394429" />
	</node>
	<node lat="58.34788888457169" lon="8.650555552411038" id="-39696">
		<tag k="name" v="Aslaksteinen" />
		<tag k="natural" v="bay" />
		<tag k="ssr:stedsnr" v="394482" />
	</node>
	<node lat="58.366638885837475" lon="8.693305550050718" id="-39697">
		<tag k="fixme" v="consider seamark:type=rock or natural=shoal" />
		<tag k="name" v="Kattskjær" />
		<tag k="place" v="islet" />
		<tag k="ssr:stedsnr" v="394484" />
	</node>
	<node lat="58.39013611501116" lon="8.727255552264042" id="-39841">
		<tag k="name" v="Kringlene" />
		<tag k="place" v="islet" />
		<tag k="ssr:stedsnr" v="425516" />
	</node>
	<node lat="58.272391669430824" lon="8.427655562074133" id="-39845">
		<tag k="bay" v="fjord" />
		<tag k="name" v="Kaldvellfjorden" />
		<tag k="natural" v="bay" />
		<tag k="ssr:stedsnr" v="425744" />
	</node>
	<node lat="58.26015833078321" lon="8.487177775512816" id="-39849">
		<tag k="name" v="Kjelnes" />
		<tag k="natural" v="cape" />
		<tag k="ssr:stedsnr" v="425951" />
	</node>
	<node lat="58.2630972198937" lon="8.537149999039201" id="-39850">
		<tag k="alt_name" v="Svarteskjæra;Svartskjer" />
		<tag k="fixme" v="consider seamark:type=rock or natural=shoal" />
		<tag k="name" v="Svartskjær" />
		<tag k="place" v="islet" />
		<tag k="ssr:stedsnr" v="425953" />
	</node>
	<node lat="58.26141666478547" lon="8.491055554973753" id="-39852">
		<tag k="name" v="Hestevik" />
		<tag k="natural" v="bay" />
		<tag k="ssr:stedsnr" v="272395" />
	</node>
	<node lat="58.26386110939285" lon="8.442305551785084" id="-39853">
		<tag k="name" v="Linnvika" />
		<tag k="natural" v="bay" />
		<tag k="ssr:stedsnr" v="272400" />
	</node>
	<node lat="58.30922222342776" lon="8.602555555592163" id="-39855">
		<tag k="loc_name" v="Vragebåene" />
		<tag k="name" v="Bådholmen" />
		<tag k="place" v="islet" />
		<tag k="ssr:stedsnr" v="455323" />
	</node>
	<node lat="58.35563888527053" lon="8.662666664431931" id="-39859">
		<tag k="name" v="Grønnviga" />
		<tag k="natural" v="bay" />
		<tag k="ssr:stedsnr" v="455419" />
	</node>
	<node lat="58.33427777554863" lon="8.665055561099011" id="-39862">
		<tag k="name" v="Tønneholmen" />
		<tag k="place" v="islet" />
		<tag k="ssr:stedsnr" v="455458" />
	</node>
	<node lat="58.33911111256468" lon="8.613472215976815" id="-39864">
		<tag k="name" v="Rodviga" />
		<tag k="natural" v="bay" />
		<tag k="ssr:stedsnr" v="455474" />
	</node>
	<node lat="58.33713889098147" lon="8.628263893071763" id="-39865">
		<tag k="name" v="Mollen" />
		<tag k="natural" v="shoal" />
		<tag k="place" v="locality" />
		<tag k="ssr:stedsnr" v="455479" />
	</node>
	<node lat="58.37204167077569" lon="8.69674167404071" id="-39866">
		<tag k="name" v="Rødsund" />
		<tag k="natural" v="strait" />
		<tag k="ssr:stedsnr" v="455717" />
	</node>
	<node lat="58.34148055531131" lon="8.651722214663888" id="-39895">
		<tag k="name" v="Kvaløyhaue" />
		<tag k="natural" v="cape" />
		<tag k="ssr:stedsnr" v="480723" />
	</node>
	<node lat="58.24815278077508" lon="8.517250005517809" id="-39910">
		<tag k="name" v="Drevholmen" />
		<tag k="place" v="islet" />
		<tag k="ssr:stedsnr" v="485218" />
	</node>
	<node lat="58.38894167100459" lon="8.737349997731393" id="-39935">
		<tag k="alt_name" v="Svarteskjæra" />
		<tag k="fixme" v="consider seamark:type=rock or natural=shoal" />
		<tag k="name" v="Svartskjera" />
		<tag k="place" v="islet" />
		<tag k="ssr:stedsnr" v="485486" />
	</node>
	<node lat="58.23988611434553" lon="8.518675000237405" id="-39946">
		<tag k="name" v="Nilsesgrunnen" />
		<tag k="natural" v="shoal" />
		<tag k="place" v="locality" />
		<tag k="ssr:stedsnr" v="507895" />
	</node>
	<node lat="58.3168333354755" lon="8.580611109723684" id="-39947">
		<tag k="fixme" v="consider seamark:type=rock or natural=shoal" />
		<tag k="name" v="Tvillingholmskjæret" />
		<tag k="place" v="islet" />
		<tag k="ssr:stedsnr" v="272337" />
	</node>
	<node lat="58.29630832955272" lon="8.554827776068178" id="-39951">
		<tag k="fixme" v="consider seamark:type=rock or natural=shoal" />
		<tag k="name" v="Bjorøy Svartskjær" />
		<tag k="place" v="islet" />
		<tag k="ssr:stedsnr" v="512676" />
	</node>
	<node lat="58.329600002707714" lon="8.64884999569085" id="-39952">
		<tag k="name" v="Jonsgrunnen" />
		<tag k="natural" v="shoal" />
		<tag k="place" v="locality" />
		<tag k="ssr:stedsnr" v="512717" />
	</node>
	<node lat="58.28248610805775" lon="8.601486117102398" id="-39953">
		<tag k="name" v="Skårhogg" />
		<tag k="natural" v="shoal" />
		<tag k="place" v="locality" />
		<tag k="ssr:stedsnr" v="512719" />
	</node>
	<node lat="58.33206110899013" lon="8.639333337929614" id="-39955">
		<tag k="fixme" v="consider seamark:type=rock or natural=shoal" />
		<tag k="name" v="Soba" />
		<tag k="place" v="islet" />
		<tag k="ssr:stedsnr" v="512724" />
	</node>
	<node lat="58.26138889334744" lon="8.499722217549387" id="-39956">
		<tag k="name" v="Bojervik" />
		<tag k="natural" v="bay" />
		<tag k="ssr:stedsnr" v="515122" />
	</node>
	<node lat="58.27488889013504" lon="8.533277785933105" id="-39957">
		<tag k="name" v="Røodden" />
		<tag k="natural" v="cape" />
		<tag k="ssr:stedsnr" v="515123" />
	</node>
	<node lat="58.292388891314715" lon="8.553805557284441" id="-39964">
		<tag k="name" v="Indre Halsebukt" />
		<tag k="natural" v="bay" />
		<tag k="ssr:stedsnr" v="515370" />
	</node>
	<node lat="58.2603333366643" lon="8.45211111305907" id="-39966">
		<tag k="name" v="Breivik" />
		<tag k="natural" v="bay" />
		<tag k="ssr:stedsnr" v="515422" />
	</node>
	<node lat="58.33209444658857" lon="8.611122226605957" id="-39967">
		<tag k="name" v="Marivollbukta" />
		<tag k="natural" v="bay" />
		<tag k="ssr:stedsnr" v="515497" />
	</node>
	<node lat="58.327552773598036" lon="8.60888333623537" id="-39994">
		<tag k="name" v="Flatholmen" />
		<tag k="place" v="islet" />
		<tag k="ssr:stedsnr" v="541612" />
	</node>
</osm>
