<?xml version="1.0" encoding="UTF-8"?>
<osm version="0.6" generator="osmapis">
	<node lat="58.31583333644789" lon="8.435241668264458" id="-32043">
		<tag k="name" v="Trappane" />
		<tag k="natural" v="valley" />
		<tag k="place" v="locality" />
		<tag k="ssr:stedsnr" v="229653" />
	</node>
	<node lat="58.31669444313167" lon="8.438552776633824" id="-32053">
		<tag k="name" v="Rondeheia" />
		<tag k="natural" v="hill" />
		<tag k="place" v="locality" />
		<tag k="ssr:stedsnr" v="229659" />
	</node>
	<node lat="58.31039722135002" lon="8.543558326044439" id="-32059">
		<tag k="fixme" v="consider natural=peak for the most distinct mountains in the district" />
		<tag k="name" v="Husefjell" />
		<tag k="natural" v="hill" />
		<tag k="place" v="locality" />
		<tag k="ssr:stedsnr" v="230291" />
	</node>
	<node lat="58.3202027788707" lon="8.535172224358515" id="-32060">
		<tag k="name" v="Tjuespranget" />
		<tag k="place" v="locality" />
		<tag k="ssr:stedsnr" v="230295" />
	</node>
	<node lat="58.281886107862384" lon="8.507383329647906" id="-32064">
		<tag k="name" v="Lauvstø" />
		<tag k="natural" v="slope" />
		<tag k="place" v="locality" />
		<tag k="ssr:stedsnr" v="230449" />
	</node>
	<node lat="58.36280555510149" lon="8.38803333855063" id="-32066">
		<tag k="name" v="Bufjell" />
		<tag k="natural" v="ridge" />
		<tag k="place" v="locality" />
		<tag k="ssr:stedsnr" v="230475" />
	</node>
	<node lat="58.33290555930145" lon="8.490058337685827" id="-32070">
		<tag k="name" v="Grøvene" />
		<tag k="natural" v="valley" />
		<tag k="place" v="locality" />
		<tag k="ssr:stedsnr" v="230820" />
	</node>
	<node lat="58.474144444037506" lon="8.450655550403534" id="-32075">
		<tag k="fixme" v="consider natural=peak for the most distinct mountains in the district" />
		<tag k="name" v="Kyrfjellet" />
		<tag k="natural" v="hill" />
		<tag k="place" v="locality" />
		<tag k="ssr:stedsnr" v="235241" />
	</node>
	<node lat="58.39108333079406" lon="8.570861119129695" id="-32078">
		<tag k="name" v="Sugga" />
		<tag k="place" v="locality" />
		<tag k="ssr:stedsnr" v="30280" />
	</node>
	<node lat="58.38144444819951" lon="8.571611108032101" id="-32082">
		<tag k="fixme" v="consider natural=peak for the most distinct mountains in the district" />
		<tag k="name" v="Grandkongen" />
		<tag k="natural" v="hill" />
		<tag k="place" v="locality" />
		<tag k="ssr:stedsnr" v="30318" />
	</node>
	<node lat="58.4272444450793" lon="8.42912778191778" id="-32088">
		<tag k="name" v="Kvernevollheia" />
		<tag k="natural" v="hill" />
		<tag k="place" v="locality" />
		<tag k="ssr:stedsnr" v="235318" />
	</node>
	<node lat="58.38125833776776" lon="8.469566672116725" id="-32090">
		<tag k="name" v="Trettedalen" />
		<tag k="natural" v="valley" />
		<tag k="place" v="locality" />
		<tag k="ssr:stedsnr" v="235123" />
	</node>
	<node lat="58.42421389162479" lon="8.402802776915902" id="-32092">
		<tag k="name" v="Saubekkdalen" />
		<tag k="natural" v="valley" />
		<tag k="place" v="locality" />
		<tag k="ssr:stedsnr" v="235320" />
	</node>
	<node lat="58.43826389100264" lon="8.457627777694377" id="-32094">
		<tag k="name" v="Bjorhogga" />
		<tag k="natural" v="hill" />
		<tag k="place" v="locality" />
		<tag k="ssr:stedsnr" v="235504" />
	</node>
	<node lat="58.440861113565" lon="8.39066944824664" id="-32095">
		<tag k="name" v="Venebekkfjella" />
		<tag k="natural" v="cliff" />
		<tag k="ssr:stedsnr" v="235473" />
	</node>
	<node lat="58.41980833588701" lon="8.492619437102416" id="-32096">
		<tag k="name" v="Østre Ustadheia" />
		<tag k="natural" v="hill" />
		<tag k="place" v="locality" />
		<tag k="ssr:stedsnr" v="235666" />
	</node>
	<node lat="58.40407778094583" lon="8.457713881035016" id="-32100">
		<tag k="fixme" v="consider natural=peak for the most distinct mountains in the district" />
		<tag k="name" v="Gunnarshei" />
		<tag k="natural" v="hill" />
		<tag k="place" v="locality" />
		<tag k="ssr:stedsnr" v="235843" />
	</node>
	<node lat="58.4076361081595" lon="8.481088891330156" id="-32101">
		<tag k="name" v="Styggedal" />
		<tag k="natural" v="valley" />
		<tag k="place" v="locality" />
		<tag k="ssr:stedsnr" v="235856" />
	</node>
	<node lat="58.4078388921935" lon="8.363741662190966" id="-32103">
		<tag k="name" v="Lillerisdal" />
		<tag k="natural" v="valley" />
		<tag k="place" v="locality" />
		<tag k="ssr:stedsnr" v="235964" />
	</node>
	<node lat="58.33683611052825" lon="8.426802774128516" id="-32110">
		<tag k="name" v="Fjøsene" />
		<tag k="place" v="locality" />
		<tag k="ssr:stedsnr" v="47782" />
	</node>
	<node lat="58.309366669966664" lon="8.507577780384144" id="-32112">
		<tag k="name" v="Hanetodalen" />
		<tag k="natural" v="valley" />
		<tag k="place" v="locality" />
		<tag k="ssr:stedsnr" v="48269" />
	</node>
	<node lat="58.305602774492456" lon="8.499138880846488" id="-32113">
		<tag k="name" v="Nyhaven" />
		<tag k="natural" v="valley" />
		<tag k="place" v="locality" />
		<tag k="ssr:stedsnr" v="48274" />
	</node>
	<node lat="58.32188888491892" lon="8.535741661573317" id="-32114">
		<tag k="name" v="Furreheia" />
		<tag k="natural" v="hill" />
		<tag k="place" v="locality" />
		<tag k="ssr:stedsnr" v="48276" />
	</node>
	<node lat="58.318347220509395" lon="8.495511104062457" id="-32117">
		<tag k="name" v="Fløyheia" />
		<tag k="natural" v="hill" />
		<tag k="place" v="locality" />
		<tag k="ssr:stedsnr" v="48415" />
	</node>
	<node lat="58.386027780803246" lon="8.445336107164618" id="-32121">
		<tag k="name" v="Bjørkkjerrskotet" />
		<tag k="natural" v="cliff" />
		<tag k="ssr:stedsnr" v="53121" />
	</node>
	<node lat="58.47591666702089" lon="8.442622230061536" id="-32123">
		<tag k="name" v="Svåene" />
		<tag k="natural" v="cliff" />
		<tag k="ssr:stedsnr" v="53001" />
	</node>
	<node lat="58.47685833062668" lon="8.444044442292554" id="-32124">
		<tag k="name" v="Toredalsfjellet" />
		<tag k="natural" v="cliff" />
		<tag k="ssr:stedsnr" v="53006" />
	</node>
	<node lat="58.46670832984894" lon="8.485049995104735" id="-32125">
		<tag k="name" v="Lislevassheia" />
		<tag k="natural" v="hill" />
		<tag k="place" v="locality" />
		<tag k="ssr:stedsnr" v="53221" />
	</node>
	<node lat="58.45442499719071" lon="8.397436111627174" id="-32126">
		<tag k="name" v="Trettehei" />
		<tag k="natural" v="hill" />
		<tag k="place" v="locality" />
		<tag k="ssr:stedsnr" v="53224" />
	</node>
	<node lat="58.471719442258625" lon="8.452880557485141" id="-32127">
		<tag k="fixme" v="consider natural=peak for the most distinct mountains in the district" />
		<tag k="name" v="Bjorhoggknatten" />
		<tag k="natural" v="hill" />
		<tag k="place" v="locality" />
		<tag k="ssr:stedsnr" v="53228" />
	</node>
	<node lat="58.43419166698964" lon="8.513563884889479" id="-32129">
		<tag k="name" v="Smieheia" />
		<tag k="natural" v="hill" />
		<tag k="place" v="locality" />
		<tag k="ssr:stedsnr" v="53382" />
	</node>
	<node lat="58.43529722104091" lon="8.492066659638393" id="-32130">
		<tag k="name" v="Liene" />
		<tag k="natural" v="slope" />
		<tag k="place" v="locality" />
		<tag k="ssr:stedsnr" v="53501" />
	</node>
	<node lat="58.434911108587364" lon="8.478611108924397" id="-32131">
		<tag k="name" v="Skrubbedalen" />
		<tag k="natural" v="valley" />
		<tag k="place" v="locality" />
		<tag k="ssr:stedsnr" v="53509" />
	</node>
	<node lat="58.42256389199167" lon="8.523619445655859" id="-32134">
		<tag k="name" v="Busseldalen" />
		<tag k="natural" v="valley" />
		<tag k="place" v="locality" />
		<tag k="ssr:stedsnr" v="53514" />
	</node>
	<node lat="58.42138611269845" lon="8.39114722444597" id="-32138">
		<tag k="name" v="Karishei" />
		<tag k="natural" v="hill" />
		<tag k="place" v="locality" />
		<tag k="ssr:stedsnr" v="53709" />
	</node>
	<node lat="58.40624722046225" lon="8.447644445075037" id="-32143">
		<tag k="name" v="Sauetjennheia" />
		<tag k="natural" v="hill" />
		<tag k="place" v="locality" />
		<tag k="ssr:stedsnr" v="53909" />
	</node>
	<node lat="58.40521666975245" lon="8.402161106418259" id="-32144">
		<tag k="fixme" v="consider natural=peak for the most distinct mountains in the district" />
		<tag k="name" v="Skredderberget" />
		<tag k="natural" v="hill" />
		<tag k="place" v="locality" />
		<tag k="ssr:stedsnr" v="53915" />
	</node>
	<node lat="58.37894166869807" lon="8.579913885967162" id="-32273">
		<tag k="fixme" v="consider natural=peak for the most distinct mountains in the district" />
		<tag k="name" v="Fjæreheia" />
		<tag k="natural" v="hill" />
		<tag k="place" v="locality" />
		<tag k="ssr:stedsnr" v="243552" />
	</node>
	<node lat="58.39058610906979" lon="8.480719437015702" id="-32274">
		<tag k="alt_name" v="Terjesheia" />
		<tag k="fixme" v="consider natural=peak for the most distinct mountains in the district" />
		<tag k="name" v="Terjeshei" />
		<tag k="natural" v="hill" />
		<tag k="place" v="locality" />
		<tag k="ssr:stedsnr" v="243558" />
	</node>
	<node lat="58.46364444589133" lon="8.406861109104454" id="-32277">
		<tag k="alt_name" v="Dørfjell" />
		<tag k="fixme" v="consider natural=peak for the most distinct mountains in the district" />
		<tag k="name" v="Dørefjell" />
		<tag k="natural" v="hill" />
		<tag k="place" v="locality" />
		<tag k="ssr:stedsnr" v="243469" />
	</node>
	<node lat="58.397074999018855" lon="8.39837778623844" id="-32279">
		<tag k="alt_name" v="Storrheia" />
		<tag k="fixme" v="consider natural=peak for the most distinct mountains in the district" />
		<tag k="name" v="Storrhei" />
		<tag k="natural" v="hill" />
		<tag k="place" v="locality" />
		<tag k="ssr:stedsnr" v="243866" />
	</node>
	<node lat="58.3733888899187" lon="8.632358331787916" id="-32299">
		<tag k="fixme" v="consider natural=peak for the most distinct mountains in the district" />
		<tag k="name" v="Ravnåsen" />
		<tag k="natural" v="hill" />
		<tag k="place" v="locality" />
		<tag k="ssr:stedsnr" v="90685" />
	</node>
	<node lat="58.38689444567939" lon="8.617066672240604" id="-32300">
		<tag k="fixme" v="consider natural=peak for the most distinct mountains in the district" />
		<tag k="name" v="Bjørnåsen" />
		<tag k="natural" v="hill" />
		<tag k="place" v="locality" />
		<tag k="ssr:stedsnr" v="90687" />
	</node>
	<node lat="58.303752779926015" lon="8.48025277495486" id="-32306">
		<tag k="name" v="Blaudmyrdalen" />
		<tag k="natural" v="valley" />
		<tag k="place" v="locality" />
		<tag k="ssr:stedsnr" v="108319" />
	</node>
	<node lat="58.34678888481757" lon="8.541141661453478" id="-32307">
		<tag k="name" v="Gjærbrønnen" />
		<tag k="natural" v="hill" />
		<tag k="place" v="locality" />
		<tag k="ssr:stedsnr" v="108326" />
	</node>
	<node lat="58.34902500006787" lon="8.496800001721226" id="-32308">
		<tag k="name" v="Blåbæråsen" />
		<tag k="natural" v="hill" />
		<tag k="place" v="locality" />
		<tag k="ssr:stedsnr" v="108330" />
	</node>
	<node lat="58.336463885187634" lon="8.43656666931806" id="-32309">
		<tag k="name" v="Suggebakke" />
		<tag k="natural" v="slope" />
		<tag k="place" v="locality" />
		<tag k="ssr:stedsnr" v="108774" />
	</node>
	<node lat="58.36105832942055" lon="8.42930554841412" id="-32311">
		<tag k="name" v="Massbekkheia" />
		<tag k="natural" v="hill" />
		<tag k="place" v="locality" />
		<tag k="ssr:stedsnr" v="109471" />
	</node>
	<node lat="58.33392777901187" lon="8.491819442986301" id="-32315">
		<tag k="name" v="Husefjell" />
		<tag k="natural" v="cliff" />
		<tag k="ssr:stedsnr" v="109812" />
	</node>
	<node lat="58.45912777682426" lon="8.488780564099295" id="-32317">
		<tag k="name" v="Vigelandsdalen" />
		<tag k="natural" v="valley" />
		<tag k="place" v="locality" />
		<tag k="ssr:stedsnr" v="113124" />
	</node>
	<node lat="58.47051666739755" lon="8.454283336718234" id="-32318">
		<tag k="fixme" v="consider natural=peak for the most distinct mountains in the district" />
		<tag k="name" v="Bukkeknollen" />
		<tag k="natural" v="hill" />
		<tag k="place" v="locality" />
		<tag k="ssr:stedsnr" v="113220" />
	</node>
	<node lat="58.45921110720117" lon="8.403588880677018" id="-32319">
		<tag k="name" v="Dørefjell-lia" />
		<tag k="natural" v="slope" />
		<tag k="place" v="locality" />
		<tag k="ssr:stedsnr" v="113230" />
	</node>
	<node lat="58.46393610792203" lon="8.427730556559249" id="-32321">
		<tag k="name" v="Kollåsen" />
		<tag k="natural" v="hill" />
		<tag k="place" v="locality" />
		<tag k="ssr:stedsnr" v="113239" />
	</node>
	<node lat="58.42843611041655" lon="8.513083332736016" id="-32322">
		<tag k="name" v="Båsen" />
		<tag k="natural" v="valley" />
		<tag k="place" v="locality" />
		<tag k="ssr:stedsnr" v="113519" />
	</node>
	<node lat="58.431158335719125" lon="8.491780557993623" id="-32323">
		<tag k="name" v="Holla" />
		<tag k="natural" v="valley" />
		<tag k="place" v="locality" />
		<tag k="ssr:stedsnr" v="113653" />
	</node>
	<node lat="58.4118444421632" lon="8.437286104235564" id="-32324">
		<tag k="name" v="Knabedalen" />
		<tag k="natural" v="valley" />
		<tag k="place" v="locality" />
		<tag k="ssr:stedsnr" v="113668" />
	</node>
	<node lat="58.37407778155639" lon="8.423049994271185" id="-32326">
		<tag k="fixme" v="consider natural=peak for the most distinct mountains in the district" />
		<tag k="name" v="Askedalsåsen" />
		<tag k="natural" v="hill" />
		<tag k="place" v="locality" />
		<tag k="ssr:stedsnr" v="114043" />
	</node>
	<node lat="58.433802776475645" lon="8.383786117019685" id="-32329">
		<tag k="name" v="Lille Kvennhei" />
		<tag k="natural" v="hill" />
		<tag k="place" v="locality" />
		<tag k="ssr:stedsnr" v="114074" />
	</node>
	<node lat="58.386877780459955" lon="8.347411110027403" id="-32331">
		<tag k="fixme" v="consider natural=peak for the most distinct mountains in the district" />
		<tag k="name" v="Midtheia" />
		<tag k="natural" v="hill" />
		<tag k="place" v="locality" />
		<tag k="ssr:stedsnr" v="114117" />
	</node>
	<node lat="58.385152776539165" lon="8.337397230104456" id="-32332">
		<tag k="name" v="Engeheia" />
		<tag k="natural" v="hill" />
		<tag k="place" v="locality" />
		<tag k="ssr:stedsnr" v="114121" />
	</node>
	<node lat="58.46348889135103" lon="8.46538888391566" id="-32333">
		<tag k="name" v="Hunsdalsliene" />
		<tag k="natural" v="slope" />
		<tag k="place" v="locality" />
		<tag k="ssr:stedsnr" v="114167" />
	</node>
	<node lat="58.46956666311114" lon="8.446672219815758" id="-32335">
		<tag k="name" v="Hunsdalsfjellet" />
		<tag k="natural" v="hill" />
		<tag k="place" v="locality" />
		<tag k="ssr:stedsnr" v="114204" />
	</node>
	<node lat="58.470461113476226" lon="8.469261110929995" id="-32336">
		<tag k="name" v="Byttingsdal" />
		<tag k="natural" v="valley" />
		<tag k="place" v="locality" />
		<tag k="ssr:stedsnr" v="114209" />
	</node>
	<node lat="58.42308055310212" lon="8.461516660113064" id="-32337">
		<tag k="name" v="Grunnevassheia" />
		<tag k="natural" v="hill" />
		<tag k="place" v="locality" />
		<tag k="ssr:stedsnr" v="114612" />
	</node>
	<node lat="58.40361111148961" lon="8.495530563235642" id="-32338">
		<tag k="fixme" v="consider natural=peak for the most distinct mountains in the district" />
		<tag k="name" v="Myråsen" />
		<tag k="natural" v="hill" />
		<tag k="place" v="locality" />
		<tag k="ssr:stedsnr" v="114809" />
	</node>
	<node lat="58.40870555349594" lon="8.519802781440001" id="-32339">
		<tag k="fixme" v="consider natural=peak for the most distinct mountains in the district" />
		<tag k="name" v="Pikeheia" />
		<tag k="natural" v="hill" />
		<tag k="place" v="locality" />
		<tag k="ssr:stedsnr" v="114815" />
	</node>
	<node lat="58.39956110733083" lon="8.404383330754845" id="-32340">
		<tag k="name" v="Bjønneheia" />
		<tag k="natural" v="hill" />
		<tag k="place" v="locality" />
		<tag k="ssr:stedsnr" v="114823" />
	</node>
	<node lat="58.418324999428236" lon="8.506791665954783" id="-32375">
		<tag k="fixme" v="consider natural=peak for the most distinct mountains in the district" />
		<tag k="name" v="Voreheia" />
		<tag k="natural" v="hill" />
		<tag k="place" v="locality" />
		<tag k="ssr:stedsnr" v="121615" />
	</node>
	<node lat="58.34924999842063" lon="8.55955555605601" id="-32392">
		<tag k="name" v="Gullsmedkleiva" />
		<tag k="natural" v="slope" />
		<tag k="place" v="locality" />
		<tag k="ssr:stedsnr" v="151304" />
	</node>
	<node lat="58.364444444251376" lon="8.571555560835671" id="-32393">
		<tag k="fixme" v="consider natural=peak for the most distinct mountains in the district" />
		<tag k="name" v="Bukkeåsen" />
		<tag k="natural" v="hill" />
		<tag k="place" v="locality" />
		<tag k="ssr:stedsnr" v="151306" />
	</node>
	<node lat="58.330250000032585" lon="8.575638894579283" id="-32394">
		<tag k="fixme" v="consider natural=peak for the most distinct mountains in the district" />
		<tag k="name" v="Groosåsen" />
		<tag k="natural" v="hill" />
		<tag k="place" v="locality" />
		<tag k="ssr:stedsnr" v="151319" />
	</node>
	<node lat="58.3716138888443" lon="8.611225003914997" id="-32401">
		<tag k="fixme" v="consider natural=peak for the most distinct mountains in the district" />
		<tag k="name" v="Tingfjell" />
		<tag k="natural" v="hill" />
		<tag k="place" v="locality" />
		<tag k="ssr:stedsnr" v="151716" />
	</node>
	<node lat="58.33181110724779" lon="8.475597224991365" id="-32408">
		<tag k="name" v="Krømpeheia" />
		<tag k="natural" v="hill" />
		<tag k="place" v="locality" />
		<tag k="ssr:stedsnr" v="169810" />
	</node>
	<node lat="58.3441249985615" lon="8.469549991987142" id="-32409">
		<tag k="name" v="Leigen" />
		<tag k="place" v="locality" />
		<tag k="ssr:stedsnr" v="169827" />
	</node>
	<node lat="58.339530557516554" lon="8.489599997022205" id="-32411">
		<tag k="name" v="Sjåhei" />
		<tag k="natural" v="hill" />
		<tag k="place" v="locality" />
		<tag k="ssr:stedsnr" v="169830" />
	</node>
	<node lat="58.36434444887264" lon="8.538227784978293" id="-32414">
		<tag k="name" v="Kråkehei" />
		<tag k="natural" v="hill" />
		<tag k="place" v="locality" />
		<tag k="ssr:stedsnr" v="170361" />
	</node>
	<node lat="58.32250555507755" lon="8.513508334507392" id="-32415">
		<tag k="fixme" v="consider natural=peak for the most distinct mountains in the district" />
		<tag k="name" v="Andåsen" />
		<tag k="natural" v="hill" />
		<tag k="place" v="locality" />
		<tag k="ssr:stedsnr" v="170473" />
	</node>
	<node lat="58.35617777392224" lon="8.358583338779763" id="-32416">
		<tag k="name" v="Husefjell" />
		<tag k="natural" v="cliff" />
		<tag k="ssr:stedsnr" v="170973" />
	</node>
	<node lat="58.459800004311255" lon="8.420855550334823" id="-32417">
		<tag k="name" v="Ruhaven" />
		<tag k="natural" v="slope" />
		<tag k="place" v="locality" />
		<tag k="ssr:stedsnr" v="173224" />
	</node>
	<node lat="58.45725277464325" lon="8.485572224342349" id="-32425">
		<tag k="name" v="Knaben" />
		<tag k="natural" v="hill" />
		<tag k="place" v="locality" />
		<tag k="ssr:stedsnr" v="174145" />
	</node>
	<node lat="58.380238886474714" lon="8.361008330376329" id="-32426">
		<tag k="name" v="Styggedal" />
		<tag k="natural" v="valley" />
		<tag k="place" v="locality" />
		<tag k="ssr:stedsnr" v="174206" />
	</node>
	<node lat="58.459747223856986" lon="8.409858328143468" id="-32428">
		<tag k="name" v="Lauvåsheia" />
		<tag k="natural" v="hill" />
		<tag k="place" v="locality" />
		<tag k="ssr:stedsnr" v="174258" />
	</node>
	<node lat="58.44391666836856" lon="8.46556943593413" id="-32430">
		<tag k="name" v="Honskjelheia" />
		<tag k="natural" v="hill" />
		<tag k="place" v="locality" />
		<tag k="ssr:stedsnr" v="174521" />
	</node>
	<node lat="58.42658610905465" lon="8.454627779049835" id="-32431">
		<tag k="name" v="Bordalen" />
		<tag k="natural" v="valley" />
		<tag k="place" v="locality" />
		<tag k="ssr:stedsnr" v="174702" />
	</node>
	<node lat="58.40320555612799" lon="8.37559722992781" id="-32437">
		<tag k="fixme" v="consider natural=peak for the most distinct mountains in the district" />
		<tag k="name" v="Stemtjennåsen" />
		<tag k="natural" v="hill" />
		<tag k="place" v="locality" />
		<tag k="ssr:stedsnr" v="174964" />
	</node>
	<node lat="58.409663892698056" lon="8.48034166185227" id="-32476">
		<tag k="fixme" v="consider natural=peak for the most distinct mountains in the district" />
		<tag k="name" v="Vardeheia" />
		<tag k="natural" v="hill" />
		<tag k="place" v="locality" />
		<tag k="ssr:stedsnr" v="182560" />
	</node>
	<node lat="58.2882249965605" lon="8.470441674437042" id="-32482">
		<tag k="alt_name" v="Pendalen" />
		<tag k="name" v="Penndalen" />
		<tag k="natural" v="valley" />
		<tag k="place" v="locality" />
		<tag k="ssr:stedsnr" v="182935" />
	</node>
	<node lat="58.367305553545584" lon="8.590694439257648" id="-32492">
		<tag k="fixme" v="consider natural=peak for the most distinct mountains in the district" />
		<tag k="name" v="Kirkeåsen" />
		<tag k="natural" v="hill" />
		<tag k="place" v="locality" />
		<tag k="ssr:stedsnr" v="212290" />
	</node>
	<node lat="58.38639047193897" lon="8.610125883496355" id="-32498">
		<tag k="name" v="Hasseldalen" />
		<tag k="natural" v="valley" />
		<tag k="place" v="locality" />
		<tag k="ssr:stedsnr" v="212726" />
	</node>
	<node lat="58.381955554078594" lon="8.616469450831126" id="-32501">
		<tag k="fixme" v="consider natural=peak for the most distinct mountains in the district" />
		<tag k="name" v="Storåsen" />
		<tag k="natural" v="hill" />
		<tag k="place" v="locality" />
		<tag k="ssr:stedsnr" v="212730" />
	</node>
	<node lat="58.380486112746055" lon="8.69661943805583" id="-32505">
		<tag k="fixme" v="consider natural=peak for the most distinct mountains in the district" />
		<tag k="name" v="Store Randvigberget" />
		<tag k="natural" v="hill" />
		<tag k="place" v="locality" />
		<tag k="ssr:stedsnr" v="269659" />
	</node>
	<node lat="58.38847222086729" lon="8.623419442839301" id="-32507">
		<tag k="name" v="Ravnefjell" />
		<tag k="natural" v="hill" />
		<tag k="place" v="locality" />
		<tag k="ssr:stedsnr" v="272645" />
	</node>
	<node lat="58.38689722418548" lon="8.630313890694662" id="-32508">
		<tag k="fixme" v="consider natural=peak for the most distinct mountains in the district" />
		<tag k="name" v="Oglefjell" />
		<tag k="natural" v="hill" />
		<tag k="place" v="locality" />
		<tag k="ssr:stedsnr" v="272647" />
	</node>
	<node lat="58.306805557818144" lon="8.48909443652966" id="-32510">
		<tag k="fixme" v="consider natural=peak for the most distinct mountains in the district" />
		<tag k="name" v="Inntjorknatten" />
		<tag k="natural" v="hill" />
		<tag k="place" v="locality" />
		<tag k="ssr:stedsnr" v="229636" />
	</node>
	<node lat="58.35564444883976" lon="8.429300003547516" id="-32512">
		<tag k="name" v="Solborgsete" />
		<tag k="natural" v="hill" />
		<tag k="place" v="locality" />
		<tag k="ssr:stedsnr" v="230513" />
	</node>
	<node lat="58.353508329977736" lon="8.426494443319982" id="-32513">
		<tag k="name" v="Grindeskotet" />
		<tag k="natural" v="valley" />
		<tag k="place" v="locality" />
		<tag k="ssr:stedsnr" v="230516" />
	</node>
	<node lat="58.32386388502933" lon="8.527899995924471" id="-32514">
		<tag k="name" v="Haueheia" />
		<tag k="natural" v="hill" />
		<tag k="place" v="locality" />
		<tag k="ssr:stedsnr" v="230415" />
	</node>
	<node lat="58.36477777463574" lon="8.417486110322201" id="-32515">
		<tag k="name" v="Myransplass" />
		<tag k="natural" v="valley" />
		<tag k="place" v="locality" />
		<tag k="ssr:stedsnr" v="230479" />
	</node>
	<node lat="58.36612499560994" lon="8.416583333596833" id="-32516">
		<tag k="name" v="Igletjennheia" />
		<tag k="natural" v="hill" />
		<tag k="place" v="locality" />
		<tag k="ssr:stedsnr" v="230490" />
	</node>
	<node lat="58.33753610912007" lon="8.45034444647922" id="-32521">
		<tag k="name" v="Brenneknatten" />
		<tag k="natural" v="hill" />
		<tag k="place" v="locality" />
		<tag k="ssr:stedsnr" v="230793" />
	</node>
	<node lat="58.35499444879406" lon="8.364205562143148" id="-32523">
		<tag k="name" v="Austerfjell" />
		<tag k="natural" v="hill" />
		<tag k="place" v="locality" />
		<tag k="ssr:stedsnr" v="230984" />
	</node>
	<node lat="58.36085555152525" lon="8.365430563802887" id="-32524">
		<tag k="name" v="Fisketjenndalen" />
		<tag k="natural" v="valley" />
		<tag k="place" v="locality" />
		<tag k="ssr:stedsnr" v="231000" />
	</node>
	<node lat="58.46184722442744" lon="8.417055563182542" id="-32525">
		<tag k="name" v="Skimmyrkollen" />
		<tag k="natural" v="ridge" />
		<tag k="place" v="locality" />
		<tag k="ssr:stedsnr" v="234231" />
	</node>
	<node lat="58.36864166708243" lon="8.471963887981849" id="-32527">
		<tag k="name" v="Melkerånnen" />
		<tag k="natural" v="cliff" />
		<tag k="ssr:stedsnr" v="235111" />
	</node>
	<node lat="58.37711666584841" lon="8.389741660055813" id="-32529">
		<tag k="name" v="Gusdaldalen" />
		<tag k="natural" v="valley" />
		<tag k="place" v="locality" />
		<tag k="ssr:stedsnr" v="235092" />
	</node>
	<node lat="58.45748611134123" lon="8.460819448980358" id="-32532">
		<tag k="name" v="Lillemyrheia" />
		<tag k="natural" v="hill" />
		<tag k="place" v="locality" />
		<tag k="ssr:stedsnr" v="235199" />
	</node>
	<node lat="58.42421666492667" lon="8.388938891613213" id="-32533">
		<tag k="name" v="Sauekjerrheia" />
		<tag k="natural" v="hill" />
		<tag k="place" v="locality" />
		<tag k="ssr:stedsnr" v="235309" />
	</node>
	<node lat="58.43953889084648" lon="8.496341659594993" id="-32534">
		<tag k="name" v="Sjuershol" />
		<tag k="natural" v="valley" />
		<tag k="place" v="locality" />
		<tag k="ssr:stedsnr" v="235382" />
	</node>
	<node lat="58.471805552403076" lon="8.440730558406019" id="-32537">
		<tag k="name" v="Forrekollen" />
		<tag k="natural" v="hill" />
		<tag k="place" v="locality" />
		<tag k="ssr:stedsnr" v="235245" />
	</node>
	<node lat="58.41610000110416" lon="8.383105556026203" id="-32538">
		<tag k="fixme" v="consider natural=peak for the most distinct mountains in the district" />
		<tag k="name" v="Gryteknollen" />
		<tag k="natural" v="hill" />
		<tag k="place" v="locality" />
		<tag k="ssr:stedsnr" v="235272" />
	</node>
	<node lat="58.40920833729415" lon="8.351680552490633" id="-32539">
		<tag k="name" v="Norendalen" />
		<tag k="natural" v="valley" />
		<tag k="place" v="locality" />
		<tag k="ssr:stedsnr" v="235275" />
	</node>
	<node lat="58.43396944250092" lon="8.419769439706345" id="-32541">
		<tag k="name" v="Langedal" />
		<tag k="natural" v="valley" />
		<tag k="place" v="locality" />
		<tag k="ssr:stedsnr" v="235479" />
	</node>
	<node lat="58.44208332949836" lon="8.480152772422631" id="-32542">
		<tag k="name" v="Svartefjell" />
		<tag k="natural" v="cliff" />
		<tag k="ssr:stedsnr" v="235488" />
	</node>
	<node lat="58.4026166694872" lon="8.545350005631397" id="-32545">
		<tag k="name" v="Bysåsen" />
		<tag k="natural" v="hill" />
		<tag k="place" v="locality" />
		<tag k="ssr:stedsnr" v="235828" />
	</node>
	<node lat="58.431225000679675" lon="8.411363894644078" id="-32572">
		<tag k="fixme" v="consider natural=peak for the most distinct mountains in the district" />
		<tag k="name" v="Verdalsheia" />
		<tag k="natural" v="hill" />
		<tag k="place" v="locality" />
		<tag k="ssr:stedsnr" v="242382" />
	</node>
	<node lat="58.37721110826338" lon="8.669083324925731" id="-32581">
		<tag k="fixme" v="consider natural=peak for the most distinct mountains in the district" />
		<tag k="name" v="Lauvåsen" />
		<tag k="natural" v="hill" />
		<tag k="place" v="locality" />
		<tag k="ssr:stedsnr" v="451750" />
	</node>
	<node lat="58.35286111136768" lon="8.590555563749792" id="-32590">
		<tag k="fixme" v="consider natural=peak for the most distinct mountains in the district" />
		<tag k="name" v="Bieheia" />
		<tag k="natural" v="hill" />
		<tag k="place" v="locality" />
		<tag k="ssr:stedsnr" v="455267" />
	</node>
	<node lat="58.361194448098374" lon="8.580611118678299" id="-32591">
		<tag k="name" v="Skjevestadhola" />
		<tag k="natural" v="valley" />
		<tag k="place" v="locality" />
		<tag k="ssr:stedsnr" v="455268" />
	</node>
	<node lat="58.35213888941446" lon="8.568611115973034" id="-32592">
		<tag k="fixme" v="consider natural=peak for the most distinct mountains in the district" />
		<tag k="name" v="Solbergåsen" />
		<tag k="natural" v="hill" />
		<tag k="place" v="locality" />
		<tag k="ssr:stedsnr" v="455272" />
	</node>
	<node lat="58.3685555541207" lon="8.572666669329323" id="-32593">
		<tag k="name" v="Deidalen" />
		<tag k="natural" v="valley" />
		<tag k="place" v="locality" />
		<tag k="ssr:stedsnr" v="455278" />
	</node>
	<node lat="58.400416663214386" lon="8.626422223925196" id="-32601">
		<tag k="name" v="Askedalen" />
		<tag k="natural" v="valley" />
		<tag k="place" v="locality" />
		<tag k="ssr:stedsnr" v="455352" />
	</node>
	<node lat="58.34447222643387" lon="8.59086111350401" id="-32605">
		<tag k="fixme" v="consider natural=peak for the most distinct mountains in the district" />
		<tag k="name" v="Møllerheia" />
		<tag k="natural" v="hill" />
		<tag k="place" v="locality" />
		<tag k="ssr:stedsnr" v="455298" />
	</node>
	<node lat="58.33872221906752" lon="8.607777769527988" id="-32606">
		<tag k="name" v="Varden" />
		<tag k="natural" v="hill" />
		<tag k="place" v="locality" />
		<tag k="ssr:stedsnr" v="455299" />
	</node>
	<node lat="58.35480555808339" lon="8.623611104301295" id="-32609">
		<tag k="name" v="Stordal" />
		<tag k="natural" v="valley" />
		<tag k="place" v="locality" />
		<tag k="ssr:stedsnr" v="455438" />
	</node>
	<node lat="58.35774999995244" lon="8.651694440852355" id="-32610">
		<tag k="fixme" v="consider natural=peak for the most distinct mountains in the district" />
		<tag k="name" v="Grefstadheia" />
		<tag k="natural" v="hill" />
		<tag k="place" v="locality" />
		<tag k="ssr:stedsnr" v="455441" />
	</node>
	<node lat="58.25544444293257" lon="8.452694441988717" id="-32615">
		<tag k="fixme" v="consider natural=peak for the most distinct mountains in the district" />
		<tag k="name" v="Lavheia" />
		<tag k="natural" v="hill" />
		<tag k="place" v="locality" />
		<tag k="ssr:stedsnr" v="455393" />
	</node>
	<node lat="58.26608333154113" lon="8.502777772372951" id="-32628">
		<tag k="name" v="Ramshaug" />
		<tag k="natural" v="hill" />
		<tag k="place" v="locality" />
		<tag k="ssr:stedsnr" v="272115" />
	</node>
	<node lat="58.35170000157314" lon="8.546455559456133" id="-32629">
		<tag k="name" v="Klomra" />
		<tag k="natural" v="valley" />
		<tag k="place" v="locality" />
		<tag k="ssr:stedsnr" v="272281" />
	</node>
	<node lat="58.37735833645197" lon="8.632608329742657" id="-32636">
		<tag k="name" v="Bringsværtoppen" />
		<tag k="natural" v="slope" />
		<tag k="place" v="locality" />
		<tag k="ssr:stedsnr" v="272675" />
	</node>
	<node lat="58.38575000419849" lon="8.59369444541596" id="-32639">
		<tag k="fixme" v="consider natural=peak for the most distinct mountains in the district" />
		<tag k="name" v="Kvernåsen" />
		<tag k="natural" v="hill" />
		<tag k="place" v="locality" />
		<tag k="ssr:stedsnr" v="273305" />
	</node>
	<node lat="58.382944446922544" lon="8.590805548610685" id="-32640">
		<tag k="name" v="Fjære Grandal" />
		<tag k="natural" v="valley" />
		<tag k="place" v="locality" />
		<tag k="ssr:stedsnr" v="273307" />
	</node>
	<node lat="58.35091666638858" lon="8.416775002070077" id="-32648">
		<tag k="name" v="Stemfjell-lia" />
		<tag k="place" v="locality" />
		<tag k="ssr:stedsnr" v="290486" />
	</node>
	<node lat="58.323763889760116" lon="8.537849998005745" id="-32649">
		<tag k="name" v="Gullsmedheia" />
		<tag k="natural" v="hill" />
		<tag k="place" v="locality" />
		<tag k="ssr:stedsnr" v="291319" />
	</node>
	<node lat="58.3127722218341" lon="8.539833325367516" id="-32650">
		<tag k="fixme" v="consider natural=peak for the most distinct mountains in the district" />
		<tag k="name" v="Kjersåsen" />
		<tag k="natural" v="hill" />
		<tag k="place" v="locality" />
		<tag k="ssr:stedsnr" v="291326" />
	</node>
	<node lat="58.30722500013214" lon="8.522511119304824" id="-32652">
		<tag k="name" v="Askedalen" />
		<tag k="natural" v="valley" />
		<tag k="place" v="locality" />
		<tag k="ssr:stedsnr" v="291288" />
	</node>
	<node lat="58.35416110893373" lon="8.344836108605762" id="-32658">
		<tag k="name" v="Lilleås" />
		<tag k="natural" v="ridge" />
		<tag k="place" v="locality" />
		<tag k="ssr:stedsnr" v="291980" />
	</node>
	<node lat="58.357447226653164" lon="8.375066669307344" id="-32659">
		<tag k="name" v="Vevgongdalen" />
		<tag k="natural" v="valley" />
		<tag k="place" v="locality" />
		<tag k="ssr:stedsnr" v="291989" />
	</node>
	<node lat="58.48297777508105" lon="8.445727775340725" id="-32660">
		<tag k="name" v="Ronsekjerråsen" />
		<tag k="natural" v="hill" />
		<tag k="place" v="locality" />
		<tag k="ssr:stedsnr" v="295013" />
	</node>
	<node lat="58.462769446930196" lon="8.479933333641906" id="-32661">
		<tag k="name" v="Høybakke" />
		<tag k="natural" v="ridge" />
		<tag k="place" v="locality" />
		<tag k="ssr:stedsnr" v="295132" />
	</node>
	<node lat="58.46094999651913" lon="8.446794438578202" id="-32662">
		<tag k="name" v="Storemyrheia" />
		<tag k="natural" v="hill" />
		<tag k="place" v="locality" />
		<tag k="ssr:stedsnr" v="295180" />
	</node>
	<node lat="58.45773611171625" lon="8.475088890555488" id="-32663">
		<tag k="name" v="Heibrotet" />
		<tag k="natural" v="slope" />
		<tag k="place" v="locality" />
		<tag k="ssr:stedsnr" v="295197" />
	</node>
	<node lat="58.37607777992107" lon="8.521630547797802" id="-32664">
		<tag k="fixme" v="consider natural=peak for the most distinct mountains in the district" />
		<tag k="name" v="Bjønnstiheia" />
		<tag k="natural" v="hill" />
		<tag k="place" v="locality" />
		<tag k="ssr:stedsnr" v="295394" />
	</node>
	<node lat="58.43155277537936" lon="8.521172224974721" id="-32665">
		<tag k="name" v="Ruhaven" />
		<tag k="natural" v="slope" />
		<tag k="place" v="locality" />
		<tag k="ssr:stedsnr" v="295523" />
	</node>
	<node lat="58.429305554609776" lon="8.458211107938032" id="-32667">
		<tag k="name" v="Grunnevasslia" />
		<tag k="natural" v="slope" />
		<tag k="place" v="locality" />
		<tag k="ssr:stedsnr" v="295682" />
	</node>
	<node lat="58.37038333426491" lon="8.374277774408082" id="-32668">
		<tag k="name" v="Pinnevedheia" />
		<tag k="natural" v="hill" />
		<tag k="place" v="locality" />
		<tag k="ssr:stedsnr" v="296176" />
	</node>
	<node lat="58.38921944030445" lon="8.389433333065433" id="-32669">
		<tag k="name" v="Stivassheia" />
		<tag k="natural" v="hill" />
		<tag k="place" v="locality" />
		<tag k="ssr:stedsnr" v="296802" />
	</node>
	<node lat="58.40820833074502" lon="8.470124993797391" id="-32671">
		<tag k="fixme" v="consider natural=peak for the most distinct mountains in the district" />
		<tag k="name" v="Småbakkheia" />
		<tag k="natural" v="hill" />
		<tag k="place" v="locality" />
		<tag k="ssr:stedsnr" v="296809" />
	</node>
	<node lat="58.39839999907582" lon="8.415633325625434" id="-32673">
		<tag k="name" v="Blagredalen" />
		<tag k="natural" v="valley" />
		<tag k="place" v="locality" />
		<tag k="ssr:stedsnr" v="296841" />
	</node>
	<node lat="58.396363885368224" lon="8.443797221325028" id="-32674">
		<tag k="name" v="Risbrunheia" />
		<tag k="natural" v="hill" />
		<tag k="place" v="locality" />
		<tag k="ssr:stedsnr" v="296777" />
	</node>
	<node lat="58.43677222444429" lon="8.476150002787547" id="-32714">
		<tag k="fixme" v="consider natural=peak for the most distinct mountains in the district" />
		<tag k="name" v="Knaben" />
		<tag k="natural" v="hill" />
		<tag k="place" v="locality" />
		<tag k="ssr:stedsnr" v="303896" />
	</node>
	<node lat="58.3781944485221" lon="8.569666675141027" id="-32732">
		<tag k="name" v="Gjømleheia" />
		<tag k="natural" v="hill" />
		<tag k="place" v="locality" />
		<tag k="ssr:stedsnr" v="333347" />
	</node>
	<node lat="58.40145277334727" lon="8.625027771759767" id="-32737">
		<tag k="fixme" v="consider natural=peak for the most distinct mountains in the district" />
		<tag k="name" v="Askedalsåsen" />
		<tag k="natural" v="hill" />
		<tag k="place" v="locality" />
		<tag k="ssr:stedsnr" v="333406" />
	</node>
	<node lat="58.37704167071149" lon="8.619308327594085" id="-32742">
		<tag k="name" v="Smiheia" />
		<tag k="natural" v="hill" />
		<tag k="place" v="locality" />
		<tag k="ssr:stedsnr" v="333702" />
	</node>
	<node lat="58.372752775447395" lon="8.64951111616812" id="-32743">
		<tag k="fixme" v="consider natural=peak for the most distinct mountains in the district" />
		<tag k="name" v="Moåsen" />
		<tag k="natural" v="hill" />
		<tag k="place" v="locality" />
		<tag k="ssr:stedsnr" v="333698" />
	</node>
	<node lat="58.289319444891476" lon="8.475424993631904" id="-32744">
		<tag k="fixme" v="consider natural=peak for the most distinct mountains in the district" />
		<tag k="name" v="Penndalshei" />
		<tag k="natural" v="hill" />
		<tag k="place" v="locality" />
		<tag k="ssr:stedsnr" v="472388" />
	</node>
	<node lat="58.36065555336182" lon="8.423666662976423" id="-32745">
		<tag k="name" v="Kastedalen" />
		<tag k="natural" v="valley" />
		<tag k="place" v="locality" />
		<tag k="ssr:stedsnr" v="472491" />
	</node>
	<node lat="58.342038884780365" lon="8.392316674867821" id="-32748">
		<tag k="name" v="Bjønnehaue" />
		<tag k="natural" v="hill" />
		<tag k="place" v="locality" />
		<tag k="ssr:stedsnr" v="472844" />
	</node>
	<node lat="58.3597972215829" lon="8.379097227106598" id="-32752">
		<tag k="name" v="Tjovebakken" />
		<tag k="natural" v="hill" />
		<tag k="place" v="locality" />
		<tag k="ssr:stedsnr" v="473983" />
	</node>
	<node lat="58.35829721822025" lon="8.370438882108482" id="-32753">
		<tag k="fixme" v="consider natural=peak for the most distinct mountains in the district" />
		<tag k="name" v="Grasåsen" />
		<tag k="natural" v="hill" />
		<tag k="place" v="locality" />
		<tag k="ssr:stedsnr" v="473985" />
	</node>
	<node lat="58.324663893358604" lon="8.541811115067" id="-32754">
		<tag k="name" v="Kvennhusdalen" />
		<tag k="natural" v="valley" />
		<tag k="place" v="locality" />
		<tag k="ssr:stedsnr" v="473923" />
	</node>
	<node lat="58.36003611025885" lon="8.51137223001667" id="-32757">
		<tag k="name" v="Bjønnehaugen" />
		<tag k="natural" v="hill" />
		<tag k="place" v="locality" />
		<tag k="ssr:stedsnr" v="351359" />
	</node>
	<node lat="58.34312222176162" lon="8.508988884912494" id="-32762">
		<tag k="name" v="Kjerkeheia" />
		<tag k="natural" v="hill" />
		<tag k="place" v="locality" />
		<tag k="ssr:stedsnr" v="351868" />
	</node>
	<node lat="58.38583333161915" lon="8.472091672980225" id="-32766">
		<tag k="name" v="Toringsdal" />
		<tag k="natural" v="valley" />
		<tag k="place" v="locality" />
		<tag k="ssr:stedsnr" v="356109" />
	</node>
	<node lat="58.47248888571718" lon="8.436636112618526" id="-32769">
		<tag k="name" v="Storrhei" />
		<tag k="natural" v="hill" />
		<tag k="place" v="locality" />
		<tag k="ssr:stedsnr" v="356210" />
	</node>
	<node lat="58.47590555575797" lon="8.501750002338332" id="-32770">
		<tag k="fixme" v="consider natural=peak for the most distinct mountains in the district" />
		<tag k="name" v="Lampåsen" />
		<tag k="natural" v="hill" />
		<tag k="place" v="locality" />
		<tag k="ssr:stedsnr" v="356214" />
	</node>
	<node lat="58.46711944820432" lon="8.411183341527373" id="-32771">
		<tag k="name" v="Trolldalen" />
		<tag k="natural" v="valley" />
		<tag k="place" v="locality" />
		<tag k="ssr:stedsnr" v="356216" />
	</node>
	<node lat="58.43315000102999" lon="8.430658325774788" id="-32772">
		<tag k="name" v="Loneholla" />
		<tag k="natural" v="valley" />
		<tag k="place" v="locality" />
		<tag k="ssr:stedsnr" v="356446" />
	</node>
	<node lat="58.42005833241425" lon="8.505197226629173" id="-32774">
		<tag k="name" v="Tønnesølliene" />
		<tag k="natural" v="slope" />
		<tag k="place" v="locality" />
		<tag k="ssr:stedsnr" v="356512" />
	</node>
	<node lat="58.40761110747115" lon="8.499819447395252" id="-32775">
		<tag k="name" v="Tønnesølliene" />
		<tag k="natural" v="slope" />
		<tag k="place" v="locality" />
		<tag k="ssr:stedsnr" v="356816" />
	</node>
	<node lat="58.40220833557831" lon="8.443294441653514" id="-32776">
		<tag k="name" v="Martinshei" />
		<tag k="natural" v="hill" />
		<tag k="place" v="locality" />
		<tag k="ssr:stedsnr" v="356799" />
	</node>
	<node lat="58.40964444159573" lon="8.3795472179145" id="-32778">
		<tag k="name" v="Timmerheia" />
		<tag k="natural" v="hill" />
		<tag k="place" v="locality" />
		<tag k="ssr:stedsnr" v="356952" />
	</node>
	<node lat="58.446666668490394" lon="8.418908341764796" id="-32783">
		<tag k="name" v="Lia" />
		<tag k="natural" v="slope" />
		<tag k="place" v="locality" />
		<tag k="ssr:stedsnr" v="477040" />
	</node>
	<node lat="58.45075000064721" lon="8.418947229631513" id="-32785">
		<tag k="name" v="Eikhaugen" />
		<tag k="natural" v="hill" />
		<tag k="place" v="locality" />
		<tag k="ssr:stedsnr" v="477043" />
	</node>
	<node lat="58.436541662728075" lon="8.39803055171155" id="-32786">
		<tag k="name" v="Geiteråsen" />
		<tag k="natural" v="hill" />
		<tag k="place" v="locality" />
		<tag k="ssr:stedsnr" v="477047" />
	</node>
	<node lat="58.37646111114218" lon="8.410969447420117" id="-32787">
		<tag k="fixme" v="consider natural=peak for the most distinct mountains in the district" />
		<tag k="name" v="Slettehei" />
		<tag k="natural" v="hill" />
		<tag k="place" v="locality" />
		<tag k="ssr:stedsnr" v="477049" />
	</node>
	<node lat="58.37683889320068" lon="8.377983335853513" id="-32788">
		<tag k="name" v="Stemyrheia" />
		<tag k="natural" v="hill" />
		<tag k="place" v="locality" />
		<tag k="ssr:stedsnr" v="477146" />
	</node>
	<node lat="58.47166944498716" lon="8.462786105289037" id="-32789">
		<tag k="name" v="Timreoddliene" />
		<tag k="natural" v="slope" />
		<tag k="place" v="locality" />
		<tag k="ssr:stedsnr" v="477228" />
	</node>
	<node lat="58.386422225634625" lon="8.425574999562373" id="-32790">
		<tag k="name" v="Valborglandsdalen" />
		<tag k="natural" v="valley" />
		<tag k="place" v="locality" />
		<tag k="ssr:stedsnr" v="477231" />
	</node>
	<node lat="58.469783337451176" lon="8.464630556259289" id="-32791">
		<tag k="name" v="Storehei" />
		<tag k="natural" v="hill" />
		<tag k="place" v="locality" />
		<tag k="ssr:stedsnr" v="477234" />
	</node>
	<node lat="58.47794166909733" lon="8.481961114112597" id="-32793">
		<tag k="name" v="Åreheia" />
		<tag k="natural" v="hill" />
		<tag k="place" v="locality" />
		<tag k="ssr:stedsnr" v="477064" />
	</node>
	<node lat="58.45467499688862" lon="8.443563887275712" id="-32794">
		<tag k="fixme" v="consider natural=peak for the most distinct mountains in the district" />
		<tag k="name" v="Storemyråsen" />
		<tag k="natural" v="hill" />
		<tag k="place" v="locality" />
		<tag k="ssr:stedsnr" v="477089" />
	</node>
	<node lat="58.457875003381815" lon="8.433958329185238" id="-32797">
		<tag k="fixme" v="consider natural=peak for the most distinct mountains in the district" />
		<tag k="name" v="Kringleåsen" />
		<tag k="natural" v="hill" />
		<tag k="place" v="locality" />
		<tag k="ssr:stedsnr" v="477249" />
	</node>
	<node lat="58.37892222482318" lon="8.53056389716768" id="-32798">
		<tag k="fixme" v="consider natural=peak for the most distinct mountains in the district" />
		<tag k="name" v="Suggeliheia" />
		<tag k="natural" v="hill" />
		<tag k="place" v="locality" />
		<tag k="ssr:stedsnr" v="477391" />
	</node>
	<node lat="58.37352500356869" lon="8.516750003162924" id="-32799">
		<tag k="name" v="Borjeråsen" />
		<tag k="natural" v="hill" />
		<tag k="place" v="locality" />
		<tag k="ssr:stedsnr" v="477398" />
	</node>
	<node lat="58.43773611231908" lon="8.471838896278692" id="-32800">
		<tag k="name" v="Grunnevassheia" />
		<tag k="natural" v="hill" />
		<tag k="place" v="locality" />
		<tag k="ssr:stedsnr" v="477466" />
	</node>
	<node lat="58.43978888844863" lon="8.475011105838364" id="-32801">
		<tag k="name" v="Ommundsli" />
		<tag k="natural" v="slope" />
		<tag k="place" v="locality" />
		<tag k="ssr:stedsnr" v="477472" />
	</node>
	<node lat="58.44792777725997" lon="8.468933330026582" id="-32802">
		<tag k="name" v="Ramsedalen" />
		<tag k="natural" v="valley" />
		<tag k="place" v="locality" />
		<tag k="ssr:stedsnr" v="477474" />
	</node>
	<node lat="58.448455552517935" lon="8.45651944344695" id="-32804">
		<tag k="name" v="Trolldalen" />
		<tag k="natural" v="valley" />
		<tag k="place" v="locality" />
		<tag k="ssr:stedsnr" v="477445" />
	</node>
	<node lat="58.39644722619366" lon="8.471961105709914" id="-32830">
		<tag k="name" v="Holdalsheia" />
		<tag k="natural" v="hill" />
		<tag k="place" v="locality" />
		<tag k="ssr:stedsnr" v="477884" />
	</node>
	<node lat="58.40323333393728" lon="8.337216660706302" id="-32832">
		<tag k="name" v="Hesteheidalen" />
		<tag k="natural" v="valley" />
		<tag k="place" v="locality" />
		<tag k="ssr:stedsnr" v="477984" />
	</node>
	<node lat="58.36209166815455" lon="8.629044445254138" id="-32835">
		<tag k="alt_name" v="Viteflaten" />
		<tag k="fixme" v="consider natural=peak for the most distinct mountains in the district" />
		<tag k="name" v="Viddeflaten" />
		<tag k="natural" v="hill" />
		<tag k="place" v="locality" />
		<tag k="ssr:stedsnr" v="364509" />
	</node>
	<node lat="58.45478333005047" lon="8.460591668637932" id="-32842">
		<tag k="fixme" v="consider natural=peak for the most distinct mountains in the district" />
		<tag k="name" v="Stormyrheia" />
		<tag k="natural" v="hill" />
		<tag k="place" v="locality" />
		<tag k="ssr:stedsnr" v="364498" />
	</node>
	<node lat="58.41371944494013" lon="8.456708334302801" id="-32844">
		<tag k="name" v="Knabevassdalen" />
		<tag k="natural" v="valley" />
		<tag k="place" v="locality" />
		<tag k="ssr:stedsnr" v="478593" />
	</node>
	<node lat="58.416830553594856" lon="8.450777784908292" id="-32845">
		<tag k="fixme" v="consider natural=peak for the most distinct mountains in the district" />
		<tag k="name" v="Stenuleknatten" />
		<tag k="natural" v="hill" />
		<tag k="place" v="locality" />
		<tag k="ssr:stedsnr" v="478599" />
	</node>
	<node lat="58.328583334830775" lon="8.560111114306332" id="-32862">
		<tag k="fixme" v="consider natural=peak for the most distinct mountains in the district" />
		<tag k="name" v="Ribbås" />
		<tag k="natural" v="hill" />
		<tag k="place" v="locality" />
		<tag k="ssr:stedsnr" v="394320" />
	</node>
	<node lat="58.38683333349195" lon="8.568944438315643" id="-32866">
		<tag k="fixme" v="consider natural=peak for the most distinct mountains in the district" />
		<tag k="name" v="Finnskot" />
		<tag k="natural" v="hill" />
		<tag k="place" v="locality" />
		<tag k="ssr:stedsnr" v="394296" />
	</node>
	<node lat="58.38079444883746" lon="8.655247225962608" id="-32874">
		<tag k="fixme" v="consider natural=peak for the most distinct mountains in the district" />
		<tag k="name" v="Skudeheia" />
		<tag k="natural" v="hill" />
		<tag k="place" v="locality" />
		<tag k="ssr:stedsnr" v="394712" />
	</node>
	<node lat="58.364388885612414" lon="8.659944442529948" id="-32876">
		<tag k="name" v="Tverrgarden" />
		<tag k="natural" v="valley" />
		<tag k="place" v="locality" />
		<tag k="ssr:stedsnr" v="394480" />
	</node>
	<node lat="58.359950000133956" lon="8.442527779558967" id="-32944">
		<tag k="name" v="Massbekkheia" />
		<tag k="natural" v="hill" />
		<tag k="place" v="locality" />
		<tag k="ssr:stedsnr" v="412240" />
	</node>
	<node lat="58.357019442999665" lon="8.527330563434262" id="-32945">
		<tag k="name" v="Ravneknuten" />
		<tag k="natural" v="hill" />
		<tag k="place" v="locality" />
		<tag k="ssr:stedsnr" v="412299" />
	</node>
	<node lat="58.33453332993162" lon="8.410138880553076" id="-32946">
		<tag k="fixme" v="consider natural=peak for the most distinct mountains in the district" />
		<tag k="name" v="Langmyråsen" />
		<tag k="natural" v="hill" />
		<tag k="place" v="locality" />
		<tag k="ssr:stedsnr" v="412710" />
	</node>
	<node lat="58.35260833053888" lon="8.37807499485273" id="-32949">
		<tag k="name" v="Skrubbedalen" />
		<tag k="natural" v="valley" />
		<tag k="place" v="locality" />
		<tag k="ssr:stedsnr" v="412991" />
	</node>
	<node lat="58.36374722064201" lon="8.364644437514743" id="-32950">
		<tag k="fixme" v="consider natural=peak for the most distinct mountains in the district" />
		<tag k="name" v="Lille Timmerås" />
		<tag k="natural" v="hill" />
		<tag k="place" v="locality" />
		<tag k="ssr:stedsnr" v="412993" />
	</node>
	<node lat="58.479872222837145" lon="8.451025003524085" id="-32951">
		<tag k="fixme" v="consider natural=peak for the most distinct mountains in the district" />
		<tag k="name" v="Ormåsen" />
		<tag k="natural" v="hill" />
		<tag k="place" v="locality" />
		<tag k="ssr:stedsnr" v="417005" />
	</node>
	<node lat="58.47076389262402" lon="8.415622228932689" id="-32955">
		<tag k="name" v="Kloveskora" />
		<tag k="natural" v="valley" />
		<tag k="place" v="locality" />
		<tag k="ssr:stedsnr" v="417209" />
	</node>
	<node lat="58.47770833545484" lon="8.502733337381954" id="-32957">
		<tag k="name" v="Rindene" />
		<tag k="natural" v="ridge" />
		<tag k="place" v="locality" />
		<tag k="ssr:stedsnr" v="417216" />
	</node>
	<node lat="58.41083611395577" lon="8.371044436819142" id="-32960">
		<tag k="name" v="Volleheiene" />
		<tag k="natural" v="hill" />
		<tag k="place" v="locality" />
		<tag k="ssr:stedsnr" v="417292" />
	</node>
	<node lat="58.451183335800074" lon="8.486308341341838" id="-32961">
		<tag k="name" v="Storrhogget" />
		<tag k="natural" v="hill" />
		<tag k="place" v="locality" />
		<tag k="ssr:stedsnr" v="417503" />
	</node>
	<node lat="58.44281944804864" lon="8.450583330735213" id="-32962">
		<tag k="name" v="Fugleleikheia" />
		<tag k="natural" v="hill" />
		<tag k="place" v="locality" />
		<tag k="ssr:stedsnr" v="417505" />
	</node>
	<node lat="58.372708336916" lon="8.376991671395253" id="-32963">
		<tag k="fixme" v="consider natural=peak for the most distinct mountains in the district" />
		<tag k="name" v="Gaukefjell" />
		<tag k="natural" v="hill" />
		<tag k="place" v="locality" />
		<tag k="ssr:stedsnr" v="417136" />
	</node>
	<node lat="58.429597220525096" lon="8.356383335858986" id="-32966">
		<tag k="name" v="Bergene" />
		<tag k="natural" v="hill" />
		<tag k="place" v="locality" />
		<tag k="ssr:stedsnr" v="417406" />
	</node>
	<node lat="58.38144722483205" lon="8.51322222056314" id="-32967">
		<tag k="fixme" v="consider natural=peak for the most distinct mountains in the district" />
		<tag k="name" v="Store Resneshei" />
		<tag k="natural" v="hill" />
		<tag k="place" v="locality" />
		<tag k="ssr:stedsnr" v="417408" />
	</node>
	<node lat="58.44052222476762" lon="8.46653611261869" id="-32969">
		<tag k="name" v="Bjortjønnåsen" />
		<tag k="natural" v="hill" />
		<tag k="place" v="locality" />
		<tag k="ssr:stedsnr" v="417493" />
	</node>
	<node lat="58.420936115555385" lon="8.473919447105677" id="-32971">
		<tag k="name" v="Daleheia" />
		<tag k="natural" v="hill" />
		<tag k="place" v="locality" />
		<tag k="ssr:stedsnr" v="417644" />
	</node>
	<node lat="58.396130551715395" lon="8.515841667918064" id="-32972">
		<tag k="fixme" v="consider natural=peak for the most distinct mountains in the district" />
		<tag k="name" v="Løåsen" />
		<tag k="natural" v="hill" />
		<tag k="place" v="locality" />
		<tag k="ssr:stedsnr" v="417785" />
	</node>
	<node lat="58.4009611154921" lon="8.533611115135171" id="-32974">
		<tag k="name" v="Mårdalen" />
		<tag k="natural" v="valley" />
		<tag k="place" v="locality" />
		<tag k="ssr:stedsnr" v="417790" />
	</node>
	<node lat="58.39545000337335" lon="8.387247229161483" id="-32978">
		<tag k="name" v="Rønningknollen" />
		<tag k="natural" v="hill" />
		<tag k="place" v="locality" />
		<tag k="ssr:stedsnr" v="417847" />
	</node>
	<node lat="58.40827222126752" lon="8.347697229432548" id="-32979">
		<tag k="name" v="Raunedalen" />
		<tag k="natural" v="valley" />
		<tag k="place" v="locality" />
		<tag k="ssr:stedsnr" v="417999" />
	</node>
	<node lat="58.31916666236077" lon="8.567722215730655" id="-33037">
		<tag k="fixme" v="consider natural=peak for the most distinct mountains in the district" />
		<tag k="name" v="Revheia" />
		<tag k="natural" v="hill" />
		<tag k="place" v="locality" />
		<tag k="ssr:stedsnr" v="455333" />
	</node>
	<node lat="58.3536944457168" lon="8.391311108539622" id="-33049">
		<tag k="name" v="Grindheia" />
		<tag k="natural" v="hill" />
		<tag k="place" v="locality" />
		<tag k="ssr:stedsnr" v="472513" />
	</node>
	<node lat="58.32615833346417" lon="8.392930549321262" id="-33050">
		<tag k="name" v="Vassdalen" />
		<tag k="natural" v="valley" />
		<tag k="place" v="locality" />
		<tag k="ssr:stedsnr" v="472758" />
	</node>
	<node lat="58.352249997479014" lon="8.54611666080635" id="-33051">
		<tag k="name" v="Bratteberg" />
		<tag k="natural" v="cliff" />
		<tag k="ssr:stedsnr" v="473361" />
	</node>
	<node lat="58.35215555382288" lon="8.358075001725117" id="-33052">
		<tag k="fixme" v="consider natural=peak for the most distinct mountains in the district" />
		<tag k="name" v="Rånåsen" />
		<tag k="natural" v="hill" />
		<tag k="place" v="locality" />
		<tag k="ssr:stedsnr" v="473970" />
	</node>
	<node lat="58.37545277991507" lon="8.445405562176042" id="-33055">
		<tag k="name" v="Kjennerheia" />
		<tag k="natural" v="hill" />
		<tag k="place" v="locality" />
		<tag k="ssr:stedsnr" v="477108" />
	</node>
	<node lat="58.37480832974538" lon="8.336880552986084" id="-33057">
		<tag k="name" v="Tjærebrandheia" />
		<tag k="natural" v="hill" />
		<tag k="place" v="locality" />
		<tag k="ssr:stedsnr" v="477178" />
	</node>
	<node lat="58.4761583302175" lon="8.49914722937359" id="-33060">
		<tag k="name" v="Hemningstveit" />
		<tag k="natural" v="valley" />
		<tag k="place" v="locality" />
		<tag k="ssr:stedsnr" v="477212" />
	</node>
	<node lat="58.465527776839714" lon="8.415722218475766" id="-33061">
		<tag k="name" v="Langeli" />
		<tag k="natural" v="slope" />
		<tag k="place" v="locality" />
		<tag k="ssr:stedsnr" v="477214" />
	</node>
	<node lat="58.4192027779689" lon="8.367088889128823" id="-33064">
		<tag k="name" v="Skuggedal" />
		<tag k="natural" v="valley" />
		<tag k="place" v="locality" />
		<tag k="ssr:stedsnr" v="477268" />
	</node>
	<node lat="58.36993889252483" lon="8.520497218228568" id="-33067">
		<tag k="name" v="Storås" />
		<tag k="natural" v="hill" />
		<tag k="place" v="locality" />
		<tag k="ssr:stedsnr" v="477410" />
	</node>
	<node lat="58.4176250009766" lon="8.52474722202887" id="-33070">
		<tag k="name" v="Onskjerrdalen" />
		<tag k="natural" v="valley" />
		<tag k="place" v="locality" />
		<tag k="ssr:stedsnr" v="477558" />
	</node>
	<node lat="58.42853333574611" lon="8.514366673038444" id="-33071">
		<tag k="name" v="Åsen" />
		<tag k="natural" v="hill" />
		<tag k="place" v="locality" />
		<tag k="ssr:stedsnr" v="477571" />
	</node>
	<node lat="58.43741389026929" lon="8.49301389287602" id="-33073">
		<tag k="fixme" v="consider natural=peak for the most distinct mountains in the district" />
		<tag k="name" v="Liodden" />
		<tag k="natural" v="hill" />
		<tag k="place" v="locality" />
		<tag k="ssr:stedsnr" v="477465" />
	</node>
	<node lat="58.41905000061506" lon="8.418097222011898" id="-33075">
		<tag k="name" v="Stallelandsheia" />
		<tag k="natural" v="hill" />
		<tag k="place" v="locality" />
		<tag k="ssr:stedsnr" v="478703" />
	</node>
	<node lat="58.466080557201984" lon="8.436797224223223" id="-33107">
		<tag k="name" v="Klamreheia" />
		<tag k="natural" v="hill" />
		<tag k="place" v="locality" />
		<tag k="ssr:stedsnr" v="485422" />
	</node>
	<node lat="58.452880559498006" lon="8.399216661871733" id="-33108">
		<tag k="alt_name" v="Ribåsheia" />
		<tag k="fixme" v="consider natural=peak for the most distinct mountains in the district" />
		<tag k="name" v="Ribåshei" />
		<tag k="natural" v="hill" />
		<tag k="place" v="locality" />
		<tag k="ssr:stedsnr" v="485427" />
	</node>
	<node lat="58.36074166458623" lon="8.577050006990566" id="-33113">
		<tag k="alt_name" v="Trollahei" />
		<tag k="fixme" v="consider natural=peak for the most distinct mountains in the district" />
		<tag k="name" v="Trollaheia" />
		<tag k="natural" v="hill" />
		<tag k="place" v="locality" />
		<tag k="ssr:stedsnr" v="485476" />
	</node>
	<node lat="58.27207778053973" lon="8.52301388138928" id="-33135">
		<tag k="fixme" v="consider natural=peak for the most distinct mountains in the district" />
		<tag k="name" v="Skifjell" />
		<tag k="natural" v="hill" />
		<tag k="place" v="locality" />
		<tag k="ssr:stedsnr" v="512721" />
	</node>
	<node lat="58.32580555584543" lon="8.602666668077239" id="-33141">
		<tag k="name" v="Broddene" />
		<tag k="place" v="locality" />
		<tag k="ssr:stedsnr" v="515318" />
	</node>
	<node lat="58.39330833065962" lon="8.638566672761131" id="-33143">
		<tag k="fixme" v="consider natural=peak for the most distinct mountains in the district" />
		<tag k="name" v="Storeheia" />
		<tag k="natural" v="hill" />
		<tag k="place" v="locality" />
		<tag k="ssr:stedsnr" v="515365" />
	</node>
	<node lat="58.37244166937296" lon="8.678202781317552" id="-33144">
		<tag k="fixme" v="consider natural=peak for the most distinct mountains in the district" />
		<tag k="name" v="Heia" />
		<tag k="natural" v="hill" />
		<tag k="place" v="locality" />
		<tag k="ssr:stedsnr" v="515367" />
	</node>
	<node lat="58.303105553790104" lon="8.448322222755555" id="-33152">
		<tag k="name" v="Hjelmen" />
		<tag k="natural" v="valley" />
		<tag k="place" v="locality" />
		<tag k="ssr:stedsnr" v="533336" />
	</node>
	<node lat="58.30838055767008" lon="8.505611113779903" id="-33153">
		<tag k="name" v="Midtdalen" />
		<tag k="natural" v="valley" />
		<tag k="place" v="locality" />
		<tag k="ssr:stedsnr" v="534274" />
	</node>
	<node lat="58.35591666930645" lon="8.527208338633203" id="-33154">
		<tag k="name" v="Berseldalen" />
		<tag k="natural" v="valley" />
		<tag k="place" v="locality" />
		<tag k="ssr:stedsnr" v="534326" />
	</node>
	<node lat="58.33231944879929" lon="8.530597228040033" id="-33157">
		<tag k="name" v="Gangdalen" />
		<tag k="natural" v="valley" />
		<tag k="place" v="locality" />
		<tag k="ssr:stedsnr" v="534919" />
	</node>
	<node lat="58.385916663218616" lon="8.455816671307776" id="-33163">
		<tag k="name" v="Vesterhei" />
		<tag k="natural" v="hill" />
		<tag k="place" v="locality" />
		<tag k="ssr:stedsnr" v="538123" />
	</node>
	<node lat="58.47012778006408" lon="8.472497226290299" id="-33165">
		<tag k="name" v="Gjeiningheia" />
		<tag k="natural" v="hill" />
		<tag k="place" v="locality" />
		<tag k="ssr:stedsnr" v="538218" />
	</node>
	<node lat="58.41881944063172" lon="8.383188885970517" id="-33166">
		<tag k="name" v="Gryte" />
		<tag k="natural" v="valley" />
		<tag k="place" v="locality" />
		<tag k="ssr:stedsnr" v="538270" />
	</node>
	<node lat="58.44631666497216" lon="8.442300000582213" id="-33167">
		<tag k="name" v="Vardedalen" />
		<tag k="natural" v="valley" />
		<tag k="place" v="locality" />
		<tag k="ssr:stedsnr" v="538465" />
	</node>
	<node lat="58.44117499639704" lon="8.523744447645079" id="-33169">
		<tag k="name" v="Stornesheia" />
		<tag k="natural" v="hill" />
		<tag k="place" v="locality" />
		<tag k="ssr:stedsnr" v="538377" />
	</node>
	<node lat="58.4246833375312" lon="8.4551361131619" id="-33171">
		<tag k="name" v="Grastjennheia" />
		<tag k="natural" v="hill" />
		<tag k="place" v="locality" />
		<tag k="ssr:stedsnr" v="538678" />
	</node>
	<node lat="58.389288886523005" lon="8.498361114414982" id="-33173">
		<tag k="fixme" v="consider natural=peak for the most distinct mountains in the district" />
		<tag k="name" v="Sløråsen" />
		<tag k="natural" v="hill" />
		<tag k="place" v="locality" />
		<tag k="ssr:stedsnr" v="538778" />
	</node>
	<node lat="58.38316666934779" lon="8.471827777652596" id="-33218">
		<tag k="fixme" v="consider natural=peak for the most distinct mountains in the district" />
		<tag k="name" v="Illværsheia" />
		<tag k="natural" v="hill" />
		<tag k="place" v="locality" />
		<tag k="ssr:stedsnr" v="546498" />
	</node>
	<node lat="58.41954166945606" lon="8.46383888160933" id="-33220">
		<tag k="fixme" v="consider natural=peak for the most distinct mountains in the district" />
		<tag k="name" v="Hardebergknuten" />
		<tag k="natural" v="hill" />
		<tag k="place" v="locality" />
		<tag k="ssr:stedsnr" v="546378" />
	</node>
	<node lat="58.39859999943043" lon="8.631616669220818" id="-33222">
		<tag k="fixme" v="consider natural=peak for the most distinct mountains in the district" />
		<tag k="name" v="Lundeheia" />
		<tag k="natural" v="hill" />
		<tag k="place" v="locality" />
		<tag k="ssr:stedsnr" v="546512" />
	</node>
	<node lat="58.36302777857455" lon="8.661888880725499" id="-33228">
		<tag k="name" v="Strandlia" />
		<tag k="natural" v="slope" />
		<tag k="place" v="locality" />
		<tag k="ssr:stedsnr" v="272440" />
	</node>
	<node lat="58.39495833178606" lon="8.610005550850516" id="-33244">
		<tag k="fixme" v="consider natural=peak for the most distinct mountains in the district" />
		<tag k="name" v="Branthei" />
		<tag k="natural" v="hill" />
		<tag k="place" v="locality" />
		<tag k="ssr:stedsnr" v="575347" />
	</node>
	<node lat="58.39935833464595" lon="8.61109167479403" id="-33245">
		<tag k="fixme" v="consider natural=peak for the most distinct mountains in the district" />
		<tag k="name" v="Patjennåsen" />
		<tag k="natural" v="hill" />
		<tag k="place" v="locality" />
		<tag k="ssr:stedsnr" v="575349" />
	</node>
	<node lat="58.34024999820023" lon="8.59080555797974" id="-33246">
		<tag k="name" v="Varden" />
		<tag k="natural" v="hill" />
		<tag k="place" v="locality" />
		<tag k="ssr:stedsnr" v="575399" />
	</node>
	<node lat="58.333277774315484" lon="8.551111107274439" id="-33251">
		<tag k="fixme" v="consider natural=peak for the most distinct mountains in the district" />
		<tag k="name" v="Ruhavheia" />
		<tag k="natural" v="hill" />
		<tag k="place" v="locality" />
		<tag k="ssr:stedsnr" v="576326" />
	</node>
	<node lat="58.33165277955959" lon="8.37184999956821" id="-33263">
		<tag k="fixme" v="consider natural=peak for the most distinct mountains in the district" />
		<tag k="name" v="Rolvsåsen" />
		<tag k="natural" v="hill" />
		<tag k="place" v="locality" />
		<tag k="ssr:stedsnr" v="580854" />
	</node>
	<node lat="58.39461111331714" lon="8.597694448103187" id="-33269">
		<tag k="fixme" v="consider natural=peak for the most distinct mountains in the district" />
		<tag k="name" v="Gundershei" />
		<tag k="natural" v="hill" />
		<tag k="place" v="locality" />
		<tag k="ssr:stedsnr" v="697294" />
	</node>
	<node lat="58.26541666771437" lon="8.45633334143552" id="-33273">
		<tag k="name" v="Brunefjell" />
		<tag k="natural" v="hill" />
		<tag k="place" v="locality" />
		<tag k="ssr:stedsnr" v="697411" />
	</node>
	<node lat="58.27758333180869" lon="8.481416669976735" id="-33276">
		<tag k="fixme" v="consider natural=peak for the most distinct mountains in the district" />
		<tag k="name" v="Haugefjell" />
		<tag k="natural" v="hill" />
		<tag k="place" v="locality" />
		<tag k="ssr:stedsnr" v="697424" />
	</node>
	<node lat="58.34983332919246" lon="8.390080561114287" id="-33283">
		<tag k="name" v="Bjønnoksenheia" />
		<tag k="natural" v="hill" />
		<tag k="place" v="locality" />
		<tag k="ssr:stedsnr" v="593509" />
	</node>
	<node lat="58.35100833607391" lon="8.411208337016479" id="-33284">
		<tag k="name" v="Brannen" />
		<tag k="natural" v="hill" />
		<tag k="place" v="locality" />
		<tag k="ssr:stedsnr" v="593511" />
	</node>
	<node lat="58.33412222054995" lon="8.435777774321176" id="-33286">
		<tag k="name" v="Bokskjerrheia" />
		<tag k="natural" v="hill" />
		<tag k="place" v="locality" />
		<tag k="ssr:stedsnr" v="593721" />
	</node>
	<node lat="58.313272218706615" lon="8.497883337737274" id="-33292">
		<tag k="name" v="Koksnesheia" />
		<tag k="natural" v="hill" />
		<tag k="place" v="locality" />
		<tag k="ssr:stedsnr" v="594301" />
	</node>
	<node lat="58.3468916627131" lon="8.489927769928991" id="-33293">
		<tag k="name" v="Bronheiene" />
		<tag k="natural" v="hill" />
		<tag k="place" v="locality" />
		<tag k="ssr:stedsnr" v="594362" />
	</node>
	<node lat="58.337641669012456" lon="8.431736111400262" id="-33294">
		<tag k="name" v="Nærbø kleiver" />
		<tag k="natural" v="slope" />
		<tag k="place" v="locality" />
		<tag k="ssr:stedsnr" v="594752" />
	</node>
	<node lat="58.362013890066336" lon="8.3693416633144" id="-33298">
		<tag k="fixme" v="consider natural=peak for the most distinct mountains in the district" />
		<tag k="name" v="Store Timmerås" />
		<tag k="natural" v="hill" />
		<tag k="old_name" v="Støre Timmerås" />
		<tag k="place" v="locality" />
		<tag k="ssr:stedsnr" v="595000" />
	</node>
	<node lat="58.450577775353" lon="8.426977769913199" id="-33299">
		<tag k="name" v="Raunedalen" />
		<tag k="natural" v="valley" />
		<tag k="place" v="locality" />
		<tag k="ssr:stedsnr" v="598039" />
	</node>
	<node lat="58.47297777790408" lon="8.503180552925176" id="-33300">
		<tag k="name" v="Bordalen" />
		<tag k="natural" v="valley" />
		<tag k="place" v="locality" />
		<tag k="ssr:stedsnr" v="598073" />
	</node>
	<node lat="58.451780557138406" lon="8.452327779269595" id="-33301">
		<tag k="name" v="Persbudalen" />
		<tag k="natural" v="valley" />
		<tag k="place" v="locality" />
		<tag k="ssr:stedsnr" v="598103" />
	</node>
	<node lat="58.435016666237054" lon="8.377691665698478" id="-33302">
		<tag k="name" v="Barlinddalen" />
		<tag k="natural" v="valley" />
		<tag k="place" v="locality" />
		<tag k="ssr:stedsnr" v="598105" />
	</node>
	<node lat="58.37385278095263" lon="8.447247228796076" id="-33304">
		<tag k="name" v="Såvaldsdalen" />
		<tag k="natural" v="valley" />
		<tag k="place" v="locality" />
		<tag k="ssr:stedsnr" v="598111" />
	</node>
	<node lat="58.46396388677171" lon="8.49307777193779" id="-33307">
		<tag k="fixme" v="consider natural=peak for the most distinct mountains in the district" />
		<tag k="name" v="Smedvassåsen" />
		<tag k="natural" v="hill" />
		<tag k="place" v="locality" />
		<tag k="ssr:stedsnr" v="598155" />
	</node>
	<node lat="58.47363888975443" lon="8.483663888603761" id="-33308">
		<tag k="name" v="Stokkåsen" />
		<tag k="natural" v="hill" />
		<tag k="place" v="locality" />
		<tag k="ssr:stedsnr" v="598159" />
	</node>
	<node lat="58.422458337640485" lon="8.346463895941005" id="-33309">
		<tag k="name" v="Metveitheia" />
		<tag k="natural" v="hill" />
		<tag k="place" v="locality" />
		<tag k="ssr:stedsnr" v="598268" />
	</node>
	<node lat="58.449227781681756" lon="8.470066673632443" id="-33310">
		<tag k="name" v="Ramsedalsheia" />
		<tag k="natural" v="hill" />
		<tag k="place" v="locality" />
		<tag k="ssr:stedsnr" v="598450" />
	</node>
	<node lat="58.3806249994542" lon="8.509544437973133" id="-33311">
		<tag k="name" v="Borddalen" />
		<tag k="natural" v="valley" />
		<tag k="place" v="locality" />
		<tag k="ssr:stedsnr" v="598358" />
	</node>
	<node lat="58.42818333350721" lon="8.482922223521667" id="-33313">
		<tag k="name" v="Bleikhei" />
		<tag k="natural" v="hill" />
		<tag k="place" v="locality" />
		<tag k="ssr:stedsnr" v="598669" />
	</node>
	<node lat="58.391150000068976" lon="8.47242777241914" id="-33314">
		<tag k="name" v="Storbrondalen" />
		<tag k="natural" v="valley" />
		<tag k="place" v="locality" />
		<tag k="ssr:stedsnr" v="598811" />
	</node>
	<node lat="58.40164722153482" lon="8.344897225497231" id="-33315">
		<tag k="name" v="Åsen" />
		<tag k="natural" v="hill" />
		<tag k="place" v="locality" />
		<tag k="ssr:stedsnr" v="598960" />
	</node>
	<node lat="58.37814444677487" lon="8.351797221459046" id="-33319">
		<tag k="name" v="Mellomheia" />
		<tag k="natural" v="hill" />
		<tag k="place" v="locality" />
		<tag k="ssr:stedsnr" v="599157" />
	</node>
	<node lat="58.37532500147155" lon="8.346383337470282" id="-33320">
		<tag k="name" v="Tomtjennlia" />
		<tag k="natural" v="slope" />
		<tag k="place" v="locality" />
		<tag k="ssr:stedsnr" v="599165" />
	</node>
	<node lat="58.37327777628386" lon="8.348847217668666" id="-33321">
		<tag k="name" v="Storrheia" />
		<tag k="natural" v="hill" />
		<tag k="place" v="locality" />
		<tag k="ssr:stedsnr" v="599168" />
	</node>
	<node lat="58.395986114728906" lon="8.497986118118435" id="-33322">
		<tag k="fixme" v="consider natural=peak for the most distinct mountains in the district" />
		<tag k="name" v="Bjønneråsen" />
		<tag k="natural" v="hill" />
		<tag k="place" v="locality" />
		<tag k="ssr:stedsnr" v="599752" />
	</node>
	<node lat="58.400769448497094" lon="8.499677782948108" id="-33323">
		<tag k="name" v="Urdalsåsen" />
		<tag k="natural" v="hill" />
		<tag k="place" v="locality" />
		<tag k="ssr:stedsnr" v="599757" />
	</node>
	<node lat="58.4063638918578" lon="8.501063890344552" id="-33324">
		<tag k="fixme" v="consider natural=peak for the most distinct mountains in the district" />
		<tag k="name" v="Savåsen" />
		<tag k="natural" v="hill" />
		<tag k="place" v="locality" />
		<tag k="ssr:stedsnr" v="599810" />
	</node>
	<node lat="58.408266664664815" lon="8.510411103576793" id="-33325">
		<tag k="fixme" v="consider natural=peak for the most distinct mountains in the district" />
		<tag k="name" v="Einstabknoll" />
		<tag k="natural" v="hill" />
		<tag k="place" v="locality" />
		<tag k="ssr:stedsnr" v="599811" />
	</node>
	<node lat="58.404619445322275" lon="8.538072228750934" id="-33326">
		<tag k="name" v="Skåddeliene" />
		<tag k="natural" v="slope" />
		<tag k="place" v="locality" />
		<tag k="ssr:stedsnr" v="599813" />
	</node>
	<node lat="58.35897777753702" lon="8.665547219404743" id="-33329">
		<tag k="fixme" v="consider natural=peak for the most distinct mountains in the district" />
		<tag k="name" v="Grefstadkollen" />
		<tag k="natural" v="hill" />
		<tag k="old_name" v="Grevstadkollen" />
		<tag k="place" v="locality" />
		<tag k="ssr:stedsnr" v="602459" />
	</node>
	<node lat="58.33793611400929" lon="8.365991660951332" id="-33375">
		<tag k="name" v="Lindvannsheia" />
		<tag k="natural" v="hill" />
		<tag k="place" v="locality" />
		<tag k="ssr:stedsnr" v="702855" />
	</node>
	<node lat="58.27005555986355" lon="8.506888890562093" id="-33379">
		<tag k="name" v="Jordvarden" />
		<tag k="place" v="locality" />
		<tag k="ssr:stedsnr" v="636111" />
	</node>
	<node lat="58.272083331846105" lon="8.515027769576506" id="-33380">
		<tag k="fixme" v="consider natural=peak for the most distinct mountains in the district" />
		<tag k="name" v="Avindshei" />
		<tag k="natural" v="hill" />
		<tag k="place" v="locality" />
		<tag k="ssr:stedsnr" v="636114" />
	</node>
	<node lat="58.40306944108406" lon="8.614330563816967" id="-33385">
		<tag k="fixme" v="consider natural=peak for the most distinct mountains in the district" />
		<tag k="name" v="Ramsåsen" />
		<tag k="natural" v="hill" />
		<tag k="place" v="locality" />
		<tag k="ssr:stedsnr" v="636378" />
	</node>
	<node lat="58.39338888599148" lon="8.594250007232256" id="-33390">
		<tag k="name" v="Kniben" />
		<tag k="natural" v="hill" />
		<tag k="place" v="locality" />
		<tag k="ssr:stedsnr" v="636281" />
	</node>
	<node lat="58.401444441196475" lon="8.600055550921873" id="-33391">
		<tag k="name" v="Klova" />
		<tag k="natural" v="valley" />
		<tag k="place" v="locality" />
		<tag k="ssr:stedsnr" v="636285" />
	</node>
	<node lat="58.40255555956336" lon="8.592833329473416" id="-33392">
		<tag k="fixme" v="consider natural=peak for the most distinct mountains in the district" />
		<tag k="name" v="Bjørkås" />
		<tag k="natural" v="hill" />
		<tag k="place" v="locality" />
		<tag k="ssr:stedsnr" v="636287" />
	</node>
	<node lat="58.36547222392376" lon="8.64250000193802" id="-33396">
		<tag k="name" v="Bjørkedalen" />
		<tag k="natural" v="valley" />
		<tag k="place" v="locality" />
		<tag k="ssr:stedsnr" v="636493" />
	</node>
	<node lat="58.38274166951318" lon="8.629466667852538" id="-33397">
		<tag k="name" v="Knardalen" />
		<tag k="natural" v="valley" />
		<tag k="place" v="locality" />
		<tag k="ssr:stedsnr" v="636730" />
	</node>
	<node lat="58.376452777827836" lon="8.635558325339977" id="-33398">
		<tag k="fixme" v="consider natural=peak for the most distinct mountains in the district" />
		<tag k="name" v="Kleppåsen" />
		<tag k="natural" v="hill" />
		<tag k="place" v="locality" />
		<tag k="ssr:stedsnr" v="636734" />
	</node>
	<node lat="58.282019444256804" lon="8.48815555466949" id="-33401">
		<tag k="name" v="Ormåsen" />
		<tag k="natural" v="ridge" />
		<tag k="place" v="locality" />
		<tag k="ssr:stedsnr" v="654403" />
	</node>
	<node lat="58.304438886119634" lon="8.474266664324734" id="-33403">
		<tag k="name" v="Bjelkeheia" />
		<tag k="natural" v="ridge" />
		<tag k="place" v="locality" />
		<tag k="ssr:stedsnr" v="654325" />
	</node>
	<node lat="58.328691669754285" lon="8.429199998826121" id="-33404">
		<tag k="name" v="Ringknuten" />
		<tag k="natural" v="hill" />
		<tag k="place" v="locality" />
		<tag k="ssr:stedsnr" v="654791" />
	</node>
	<node lat="58.31012222001836" lon="8.497736115930094" id="-33406">
		<tag k="name" v="Tredalingen" />
		<tag k="natural" v="valley" />
		<tag k="place" v="locality" />
		<tag k="ssr:stedsnr" v="655289" />
	</node>
	<node lat="58.36060555765304" lon="8.394080551673225" id="-33407">
		<tag k="fixme" v="consider natural=peak for the most distinct mountains in the district" />
		<tag k="name" v="Bjørnsteinåsen" />
		<tag k="natural" v="hill" />
		<tag k="place" v="locality" />
		<tag k="ssr:stedsnr" v="655490" />
	</node>
	<node lat="58.36136944572128" lon="8.39028611035296" id="-33408">
		<tag k="name" v="Åsesnyta" />
		<tag k="natural" v="ridge" />
		<tag k="place" v="locality" />
		<tag k="ssr:stedsnr" v="655491" />
	</node>
	<node lat="58.36574166528126" lon="8.385622216298682" id="-33409">
		<tag k="name" v="Oseodden" />
		<tag k="natural" v="hill" />
		<tag k="place" v="locality" />
		<tag k="ssr:stedsnr" v="655497" />
	</node>
	<node lat="58.35951666616877" lon="8.36268054789764" id="-33411">
		<tag k="name" v="Småbakkene" />
		<tag k="natural" v="hill" />
		<tag k="place" v="locality" />
		<tag k="ssr:stedsnr" v="655998" />
	</node>
	<node lat="58.449047220059974" lon="8.414183337735409" id="-33414">
		<tag k="name" v="Brombakken" />
		<tag k="natural" v="hill" />
		<tag k="place" v="locality" />
		<tag k="ssr:stedsnr" v="659044" />
	</node>
	<node lat="58.48258888604029" lon="8.487116659344272" id="-33415">
		<tag k="name" v="Bårdsheia" />
		<tag k="natural" v="hill" />
		<tag k="place" v="locality" />
		<tag k="ssr:stedsnr" v="659082" />
	</node>
	<node lat="58.47343055843477" lon="8.498350005402685" id="-33416">
		<tag k="fixme" v="consider natural=peak for the most distinct mountains in the district" />
		<tag k="name" v="Lisleås" />
		<tag k="natural" v="hill" />
		<tag k="place" v="locality" />
		<tag k="ssr:stedsnr" v="659098" />
	</node>
	<node lat="58.45706666959128" lon="8.469519442877962" id="-33418">
		<tag k="name" v="Kleggedalen" />
		<tag k="natural" v="valley" />
		<tag k="place" v="locality" />
		<tag k="ssr:stedsnr" v="659207" />
	</node>
	<node lat="58.4685750030845" lon="8.456180555277012" id="-33419">
		<tag k="fixme" v="consider natural=peak for the most distinct mountains in the district" />
		<tag k="name" v="Forreåsen" />
		<tag k="natural" v="hill" />
		<tag k="place" v="locality" />
		<tag k="ssr:stedsnr" v="659239" />
	</node>
	<node lat="58.37423610676332" lon="8.392527784915313" id="-33420">
		<tag k="name" v="Gusdalfjell" />
		<tag k="natural" v="ridge" />
		<tag k="place" v="locality" />
		<tag k="ssr:stedsnr" v="659108" />
	</node>
	<node lat="58.4561666634303" lon="8.486680558305046" id="-33421">
		<tag k="name" v="Hørtedalen" />
		<tag k="natural" v="valley" />
		<tag k="place" v="locality" />
		<tag k="ssr:stedsnr" v="659143" />
	</node>
	<node lat="58.39364444863991" lon="8.455761116465409" id="-33425">
		<tag k="name" v="Sveveheia" />
		<tag k="natural" v="hill" />
		<tag k="place" v="locality" />
		<tag k="ssr:stedsnr" v="659804" />
	</node>
	<node lat="58.39071944157461" lon="8.375347217242743" id="-33428">
		<tag k="name" v="Brusledalen" />
		<tag k="natural" v="valley" />
		<tag k="place" v="locality" />
		<tag k="ssr:stedsnr" v="659933" />
	</node>
	<node lat="58.35388889096899" lon="8.585666662958596" id="-33502">
		<tag k="name" v="Frivolldalen" />
		<tag k="natural" v="valley" />
		<tag k="place" v="locality" />
		<tag k="ssr:stedsnr" v="697310" />
	</node>
	<node lat="58.38880555681479" lon="8.607436118195684" id="-33503">
		<tag k="fixme" v="consider natural=peak for the most distinct mountains in the district" />
		<tag k="name" v="Tvitjennheia" />
		<tag k="natural" v="hill" />
		<tag k="place" v="locality" />
		<tag k="ssr:stedsnr" v="697369" />
	</node>
	<node lat="58.267999997325745" lon="8.473083339705482" id="-33506">
		<tag k="fixme" v="consider natural=peak for the most distinct mountains in the district" />
		<tag k="name" v="Kvennhushei" />
		<tag k="natural" v="hill" />
		<tag k="place" v="locality" />
		<tag k="ssr:stedsnr" v="697404" />
	</node>
	<node lat="58.36497221858732" lon="8.660694446341502" id="-33508">
		<tag k="fixme" v="consider natural=peak for the most distinct mountains in the district" />
		<tag k="name" v="Badstudalheia" />
		<tag k="natural" v="hill" />
		<tag k="place" v="locality" />
		<tag k="ssr:stedsnr" v="697469" />
	</node>
	<node lat="58.365611112730406" lon="8.610138895049795" id="-33510">
		<tag k="fixme" v="consider natural=peak for the most distinct mountains in the district" />
		<tag k="name" v="Sæveliheia" />
		<tag k="natural" v="hill" />
		<tag k="place" v="locality" />
		<tag k="ssr:stedsnr" v="697480" />
	</node>
	<node lat="58.40704999859297" lon="8.65981667259866" id="-33515">
		<tag k="name" v="Urdalen" />
		<tag k="natural" v="valley" />
		<tag k="place" v="locality" />
		<tag k="ssr:stedsnr" v="697728" />
	</node>
	<node lat="58.25708333098734" lon="8.450166668389107" id="-33518">
		<tag k="name" v="Buheia" />
		<tag k="natural" v="hill" />
		<tag k="place" v="locality" />
		<tag k="ssr:stedsnr" v="698385" />
	</node>
	<node lat="58.357130554457406" lon="8.45654722026209" id="-33521">
		<tag k="name" v="Lundemoen" />
		<tag k="place" v="locality" />
		<tag k="ssr:stedsnr" v="898248" />
	</node>
	<node lat="58.30692499932041" lon="8.54831943835854" id="-33522">
		<tag k="name" v="Bratthei" />
		<tag k="natural" v="hill" />
		<tag k="place" v="locality" />
		<tag k="ssr:stedsnr" v="898249" />
	</node>
	<node lat="58.3471916622405" lon="8.460333330412231" id="-33523">
		<tag k="name" v="Kjæreheia" />
		<tag k="natural" v="hill" />
		<tag k="place" v="locality" />
		<tag k="ssr:stedsnr" v="898252" />
	</node>
	<node lat="58.283427778186535" lon="8.488874997898272" id="-33525">
		<tag k="name" v="Skrubbeholla" />
		<tag k="natural" v="valley" />
		<tag k="place" v="locality" />
		<tag k="ssr:stedsnr" v="897376" />
	</node>
	<node lat="58.31714166939155" lon="8.415330557080418" id="-33526">
		<tag k="fixme" v="consider natural=peak for the most distinct mountains in the district" />
		<tag k="name" v="Ytre Slettåsen" />
		<tag k="natural" v="hill" />
		<tag k="place" v="locality" />
		<tag k="ssr:stedsnr" v="897595" />
	</node>
	<node lat="58.3252749996778" lon="8.416550003907318" id="-33527">
		<tag k="name" v="Opsaldalen" />
		<tag k="natural" v="valley" />
		<tag k="place" v="locality" />
		<tag k="ssr:stedsnr" v="897599" />
	</node>
	<node lat="58.30874166665292" lon="8.503138884011923" id="-33530">
		<tag k="name" v="Midtdalsheia" />
		<tag k="natural" v="hill" />
		<tag k="place" v="locality" />
		<tag k="ssr:stedsnr" v="898291" />
	</node>
	<node lat="58.35966388818301" lon="8.53943611516982" id="-33531">
		<tag k="name" v="Bustadheia" />
		<tag k="natural" v="ridge" />
		<tag k="place" v="locality" />
		<tag k="ssr:stedsnr" v="898344" />
	</node>
	<node lat="58.33098055573172" lon="8.379547229836485" id="-33535">
		<tag k="name" v="Stiåsen" />
		<tag k="natural" v="ridge" />
		<tag k="place" v="locality" />
		<tag k="ssr:stedsnr" v="898850" />
	</node>
	<node lat="58.341833329754685" lon="8.405327783645523" id="-33538">
		<tag k="name" v="Stømnedalen" />
		<tag k="natural" v="valley" />
		<tag k="place" v="locality" />
		<tag k="ssr:stedsnr" v="715773" />
	</node>
	<node lat="58.34357499725185" lon="8.403127783966534" id="-33539">
		<tag k="name" v="Skoddeheia" />
		<tag k="natural" v="hill" />
		<tag k="place" v="locality" />
		<tag k="ssr:stedsnr" v="715775" />
	</node>
	<node lat="58.32425000185313" lon="8.527236116144357" id="-33541">
		<tag k="name" v="Hauefjell" />
		<tag k="natural" v="cliff" />
		<tag k="ssr:stedsnr" v="898916" />
	</node>
	<node lat="58.338466668397814" lon="8.485891659188468" id="-33543">
		<tag k="name" v="Kylldalen" />
		<tag k="natural" v="valley" />
		<tag k="place" v="locality" />
		<tag k="ssr:stedsnr" v="716833" />
	</node>
	<node lat="58.47617778178059" lon="8.474894437382941" id="-33545">
		<tag k="name" v="Rautelia" />
		<tag k="natural" v="slope" />
		<tag k="place" v="locality" />
		<tag k="ssr:stedsnr" v="720072" />
	</node>
	<node lat="58.38143333368708" lon="8.414458327287965" id="-33547">
		<tag k="name" v="Lille Værdal" />
		<tag k="natural" v="valley" />
		<tag k="place" v="locality" />
		<tag k="ssr:stedsnr" v="720229" />
	</node>
	<node lat="58.4561583375526" lon="8.40146110594085" id="-33548">
		<tag k="name" v="Stiedalen" />
		<tag k="natural" v="valley" />
		<tag k="place" v="locality" />
		<tag k="ssr:stedsnr" v="720237" />
	</node>
	<node lat="58.377197221246796" lon="8.335288881095424" id="-33550">
		<tag k="name" v="Kvihusfjellet" />
		<tag k="natural" v="hill" />
		<tag k="place" v="locality" />
		<tag k="ssr:stedsnr" v="720177" />
	</node>
	<node lat="58.369299995533865" lon="8.347141658874618" id="-33551">
		<tag k="name" v="Kjerrgårdsdalen" />
		<tag k="natural" v="valley" />
		<tag k="place" v="locality" />
		<tag k="ssr:stedsnr" v="720188" />
	</node>
	<node lat="58.406363889600634" lon="8.361211108585016" id="-33553">
		<tag k="name" v="Kolbonnen" />
		<tag k="natural" v="valley" />
		<tag k="place" v="locality" />
		<tag k="ssr:stedsnr" v="903946" />
	</node>
	<node lat="58.45037777805509" lon="8.470841667084292" id="-33554">
		<tag k="name" v="Øygardsdalen" />
		<tag k="natural" v="valley" />
		<tag k="place" v="locality" />
		<tag k="ssr:stedsnr" v="720469" />
	</node>
	<node lat="58.39022500293225" lon="8.341425006105187" id="-33557">
		<tag k="name" v="Storemyrdalen" />
		<tag k="natural" v="valley" />
		<tag k="place" v="locality" />
		<tag k="ssr:stedsnr" v="720969" />
	</node>
	<node lat="58.40416388487216" lon="8.357552782592611" id="-33559">
		<tag k="name" v="Risdalen" />
		<tag k="natural" v="valley" />
		<tag k="place" v="locality" />
		<tag k="ssr:stedsnr" v="720989" />
	</node>
	<node lat="58.34766111415497" lon="8.431800006893821" id="-33573">
		<tag k="fixme" v="consider natural=peak for the most distinct mountains in the district" />
		<tag k="name" v="Einerfjellet" />
		<tag k="natural" v="hill" />
		<tag k="old_name" v="Einarfjell;Einerfjell" />
		<tag k="place" v="locality" />
		<tag k="ssr:stedsnr" v="728226" />
	</node>
	<node lat="58.390394440677134" lon="8.459602778022973" id="-33576">
		<tag k="fixme" v="consider natural=peak for the most distinct mountains in the district" />
		<tag k="name" v="Husefjell" />
		<tag k="natural" v="hill" />
		<tag k="place" v="locality" />
		<tag k="ssr:stedsnr" v="728288" />
	</node>
	<node lat="58.369674998125795" lon="8.388988896668927" id="-33622">
		<tag k="fixme" v="consider natural=peak for the most distinct mountains in the district" />
		<tag k="name" v="Breimyråsen" />
		<tag k="natural" v="hill" />
		<tag k="place" v="locality" />
		<tag k="ssr:stedsnr" v="902086" />
	</node>
	<node lat="58.44146944611007" lon="8.401372229203881" id="-33624">
		<tag k="name" v="Melkerånsheia" />
		<tag k="natural" v="hill" />
		<tag k="place" v="locality" />
		<tag k="ssr:stedsnr" v="902038" />
	</node>
	<node lat="58.437894443431986" lon="8.41730832673214" id="-33625">
		<tag k="name" v="Langemyrheia" />
		<tag k="natural" v="hill" />
		<tag k="place" v="locality" />
		<tag k="ssr:stedsnr" v="902042" />
	</node>
	<node lat="58.374027776644574" lon="8.399244446668549" id="-33626">
		<tag k="name" v="Svartefjell" />
		<tag k="natural" v="ridge" />
		<tag k="place" v="locality" />
		<tag k="ssr:stedsnr" v="902093" />
	</node>
	<node lat="58.46259722521338" lon="8.454250004995735" id="-33627">
		<tag k="name" v="Skoddalen" />
		<tag k="natural" v="valley" />
		<tag k="place" v="locality" />
		<tag k="ssr:stedsnr" v="902179" />
	</node>
	<node lat="58.46006111410478" lon="8.46263888661983" id="-33628">
		<tag k="name" v="Trantelia" />
		<tag k="natural" v="slope" />
		<tag k="place" v="locality" />
		<tag k="ssr:stedsnr" v="902194" />
	</node>
	<node lat="58.410969443093194" lon="8.36136110565424" id="-33630">
		<tag k="name" v="Terjarsdal" />
		<tag k="natural" v="valley" />
		<tag k="place" v="locality" />
		<tag k="ssr:stedsnr" v="902288" />
	</node>
	<node lat="58.415719447552014" lon="8.525647216485288" id="-33636">
		<tag k="name" v="Lefsehaugen" />
		<tag k="natural" v="hill" />
		<tag k="place" v="locality" />
		<tag k="ssr:stedsnr" v="902564" />
	</node>
	<node lat="58.405183330591655" lon="8.469194452066803" id="-33639">
		<tag k="name" v="Holdalen" />
		<tag k="natural" v="valley" />
		<tag k="place" v="locality" />
		<tag k="ssr:stedsnr" v="902855" />
	</node>
	<node lat="58.402286109755735" lon="8.464877774837" id="-33640">
		<tag k="name" v="Furtedalen" />
		<tag k="natural" v="valley" />
		<tag k="place" v="locality" />
		<tag k="ssr:stedsnr" v="902857" />
	</node>
	<node lat="58.393383329564244" lon="8.48765278465869" id="-33641">
		<tag k="name" v="Holdalen" />
		<tag k="natural" v="valley" />
		<tag k="place" v="locality" />
		<tag k="ssr:stedsnr" v="902866" />
	</node>
	<node lat="58.40256388657295" lon="8.478063883271481" id="-33642">
		<tag k="name" v="Paradisdalen" />
		<tag k="natural" v="valley" />
		<tag k="place" v="locality" />
		<tag k="ssr:stedsnr" v="902868" />
	</node>
	<node lat="58.38709999622903" lon="8.399844437913012" id="-33644">
		<tag k="name" v="Styggedal" />
		<tag k="natural" v="valley" />
		<tag k="place" v="locality" />
		<tag k="ssr:stedsnr" v="903231" />
	</node>
	<node lat="58.396577780966865" lon="8.541902770860052" id="-33646">
		<tag k="name" v="Kvenneheia" />
		<tag k="natural" v="hill" />
		<tag k="place" v="locality" />
		<tag k="ssr:stedsnr" v="903796" />
	</node>
	<node lat="58.3443055577613" lon="8.624361112127659" id="-33653">
		<tag k="name" v="Dalen" />
		<tag k="natural" v="valley" />
		<tag k="place" v="locality" />
		<tag k="ssr:stedsnr" v="758297" />
	</node>
	<node lat="58.384083337108585" lon="8.571916666222716" id="-33666">
		<tag k="name" v="Bustrandliene" />
		<tag k="natural" v="slope" />
		<tag k="place" v="locality" />
		<tag k="ssr:stedsnr" v="758346" />
	</node>
	<node lat="58.372772226017624" lon="8.606497226682619" id="-33668">
		<tag k="fixme" v="consider natural=peak for the most distinct mountains in the district" />
		<tag k="name" v="Bjørnåsen" />
		<tag k="natural" v="hill" />
		<tag k="place" v="locality" />
		<tag k="ssr:stedsnr" v="758721" />
	</node>
	<node lat="58.320697224595015" lon="8.413336108160234" id="-33673">
		<tag k="fixme" v="consider natural=peak for the most distinct mountains in the district" />
		<tag k="name" v="Indre Slettåsen" />
		<tag k="natural" v="hill" />
		<tag k="place" v="locality" />
		<tag k="ssr:stedsnr" v="775608" />
	</node>
	<node lat="58.308919447257395" lon="8.437363883527397" id="-33674">
		<tag k="name" v="Rånnen" />
		<tag k="natural" v="ridge" />
		<tag k="place" v="locality" />
		<tag k="ssr:stedsnr" v="775612" />
	</node>
	<node lat="58.35720833203431" lon="8.41785555025444" id="-33675">
		<tag k="name" v="Lusedalen" />
		<tag k="natural" v="valley" />
		<tag k="place" v="locality" />
		<tag k="ssr:stedsnr" v="776511" />
	</node>
	<node lat="58.317524998009524" lon="8.528000003249998" id="-33676">
		<tag k="fixme" v="consider natural=peak for the most distinct mountains in the district" />
		<tag k="name" v="Tjoresteinen" />
		<tag k="natural" v="hill" />
		<tag k="place" v="locality" />
		<tag k="ssr:stedsnr" v="776422" />
	</node>
	<node lat="58.33501667088336" lon="8.417649995052102" id="-33678">
		<tag k="name" v="Bleibekk-kleiver" />
		<tag k="natural" v="slope" />
		<tag k="place" v="locality" />
		<tag k="ssr:stedsnr" v="776763" />
	</node>
	<node lat="58.415905553523" lon="8.52125000462938" id="-33705">
		<tag k="name" v="Surtebuåsen" />
		<tag k="natural" v="hill" />
		<tag k="place" v="locality" />
		<tag k="ssr:stedsnr" v="781505" />
	</node>
	<node lat="58.417838891583564" lon="8.415719444864996" id="-33706">
		<tag k="name" v="Yttertjenndalen" />
		<tag k="natural" v="valley" />
		<tag k="place" v="locality" />
		<tag k="ssr:stedsnr" v="781712" />
	</node>
	<node lat="58.36887778222385" lon="8.453938894744281" id="-33817">
		<tag k="fixme" v="consider natural=peak for the most distinct mountains in the district" />
		<tag k="name" v="Rossefjellet" />
		<tag k="natural" v="hill" />
		<tag k="place" v="locality" />
		<tag k="ssr:stedsnr" v="789369" />
	</node>
	<node lat="58.36871110991606" lon="8.668036112891933" id="-33829">
		<tag k="name" v="Kattopsa" />
		<tag k="natural" v="cliff" />
		<tag k="ssr:stedsnr" v="815599" />
	</node>
	<node lat="58.35013888535935" lon="8.580138892887595" id="-33838">
		<tag k="name" v="Dybedal" />
		<tag k="natural" v="valley" />
		<tag k="place" v="locality" />
		<tag k="ssr:stedsnr" v="819309" />
	</node>
	<node lat="58.36647222615231" lon="8.57861111319433" id="-33841">
		<tag k="fixme" v="consider natural=peak for the most distinct mountains in the district" />
		<tag k="name" v="Brenneåsen" />
		<tag k="natural" v="hill" />
		<tag k="place" v="locality" />
		<tag k="ssr:stedsnr" v="819317" />
	</node>
	<node lat="58.34063055689707" lon="8.433072227459641" id="-33859">
		<tag k="name" v="Lysebrunfallet" />
		<tag k="natural" v="cliff" />
		<tag k="ssr:stedsnr" v="836781" />
	</node>
	<node lat="58.359638892618705" lon="8.434086108499793" id="-33861">
		<tag k="name" v="Hetta" />
		<tag k="place" v="locality" />
		<tag k="ssr:stedsnr" v="837514" />
	</node>
	<node lat="58.461711106900225" lon="8.502544451842004" id="-33865">
		<tag k="name" v="Enggrova" />
		<tag k="natural" v="valley" />
		<tag k="place" v="locality" />
		<tag k="ssr:stedsnr" v="841117" />
	</node>
	<node lat="58.37662222324111" lon="8.47451111008984" id="-33869">
		<tag k="name" v="Bjørkosmoen" />
		<tag k="place" v="locality" />
		<tag k="ssr:stedsnr" v="842104" />
	</node>
	<node lat="58.45543889118065" lon="8.4849833256986" id="-33870">
		<tag k="name" v="Lusebakken" />
		<tag k="natural" v="slope" />
		<tag k="place" v="locality" />
		<tag k="ssr:stedsnr" v="842129" />
	</node>
	<node lat="58.37221110949236" lon="8.358008330604015" id="-33872">
		<tag k="fixme" v="consider natural=peak for the most distinct mountains in the district" />
		<tag k="name" v="Rundåsen" />
		<tag k="natural" v="hill" />
		<tag k="place" v="locality" />
		<tag k="ssr:stedsnr" v="842174" />
	</node>
	<node lat="58.44533333186529" lon="8.504733332458274" id="-33874">
		<tag k="name" v="Kattugledalen" />
		<tag k="natural" v="valley" />
		<tag k="place" v="locality" />
		<tag k="ssr:stedsnr" v="842314" />
	</node>
	<node lat="58.37541110795892" lon="8.394952783762427" id="-33875">
		<tag k="name" v="Gusdalhei" />
		<tag k="natural" v="hill" />
		<tag k="place" v="locality" />
		<tag k="ssr:stedsnr" v="842083" />
	</node>
	<node lat="58.38053889321092" lon="8.38832222036865" id="-33876">
		<tag k="name" v="Granemyrfjell" />
		<tag k="natural" v="cliff" />
		<tag k="ssr:stedsnr" v="842209" />
	</node>
	<node lat="58.415288890719566" lon="8.366405560632852" id="-33878">
		<tag k="name" v="Midtstedalen" />
		<tag k="natural" v="valley" />
		<tag k="place" v="locality" />
		<tag k="ssr:stedsnr" v="842232" />
	</node>
	<node lat="58.42987222187624" lon="8.437652772914314" id="-33879">
		<tag k="name" v="Marishei" />
		<tag k="natural" v="hill" />
		<tag k="place" v="locality" />
		<tag k="ssr:stedsnr" v="842274" />
	</node>
	<node lat="58.43047778127253" lon="8.415677784240893" id="-33880">
		<tag k="name" v="Stabbedalen" />
		<tag k="natural" v="valley" />
		<tag k="place" v="locality" />
		<tag k="ssr:stedsnr" v="842276" />
	</node>
	<node lat="58.430211112174895" lon="8.51670000289233" id="-33882">
		<tag k="name" v="Ravnefjellet" />
		<tag k="natural" v="cliff" />
		<tag k="ssr:stedsnr" v="842514" />
	</node>
	<node lat="58.39384999890729" lon="8.332033336866521" id="-33890">
		<tag k="name" v="Sagelia" />
		<tag k="natural" v="slope" />
		<tag k="place" v="locality" />
		<tag k="ssr:stedsnr" v="842976" />
	</node>
	<node lat="58.4223833335704" lon="8.44058611463035" id="-33949">
		<tag k="alt_name" v="Klunkeheia" />
		<tag k="fixme" v="consider natural=peak for the most distinct mountains in the district" />
		<tag k="name" v="Klonkeheia" />
		<tag k="natural" v="hill" />
		<tag k="place" v="locality" />
		<tag k="ssr:stedsnr" v="850411" />
	</node>
	<node lat="58.39120555991655" lon="8.656552780481254" id="-33961">
		<tag k="fixme" v="consider natural=peak for the most distinct mountains in the district" />
		<tag k="name" v="Tysåsen" />
		<tag k="natural" v="hill" />
		<tag k="place" v="locality" />
		<tag k="ssr:stedsnr" v="876673" />
	</node>
	<node lat="58.25538432125295" lon="8.511905335799065" id="-33965">
		<tag k="fixme" v="consider natural=peak for the most distinct mountains in the district" />
		<tag k="name" v="Kryglevarde" />
		<tag k="natural" v="hill" />
		<tag k="place" v="locality" />
		<tag k="ssr:stedsnr" v="932979" />
	</node>
	<node lat="58.380194441883305" lon="8.600388895368148" id="-33966">
		<tag k="fixme" v="consider natural=peak for the most distinct mountains in the district" />
		<tag k="name" v="Bringsværdheia" />
		<tag k="natural" v="hill" />
		<tag k="place" v="locality" />
		<tag k="ssr:stedsnr" v="879306" />
	</node>
	<node lat="58.39672777711" lon="8.629577774358554" id="-33972">
		<tag k="fixme" v="consider natural=peak for the most distinct mountains in the district" />
		<tag k="name" v="Solås" />
		<tag k="natural" v="hill" />
		<tag k="place" v="locality" />
		<tag k="ssr:stedsnr" v="879370" />
	</node>
	<node lat="58.394102778200896" lon="8.622241667899283" id="-33981">
		<tag k="fixme" v="consider natural=peak for the most distinct mountains in the district" />
		<tag k="name" v="Haugeheia" />
		<tag k="natural" v="hill" />
		<tag k="place" v="locality" />
		<tag k="ssr:stedsnr" v="879725" />
	</node>
	<node lat="58.35540000440752" lon="8.398177770944482" id="-33989">
		<tag k="name" v="Tjørndybleåsen" />
		<tag k="natural" v="ridge" />
		<tag k="place" v="locality" />
		<tag k="ssr:stedsnr" v="897519" />
	</node>
	<node lat="58.363630556606736" lon="8.515483340641088" id="-33991">
		<tag k="name" v="Heieknollen" />
		<tag k="natural" v="ridge" />
		<tag k="place" v="locality" />
		<tag k="ssr:stedsnr" v="898363" />
	</node>
	<node lat="58.349933335483506" lon="8.521788890840194" id="-33992">
		<tag k="name" v="Bakken" />
		<tag k="natural" v="hill" />
		<tag k="place" v="locality" />
		<tag k="ssr:stedsnr" v="898319" />
	</node>
	<node lat="58.33927777590339" lon="8.425763880554403" id="-33995">
		<tag k="name" v="Lyngheia" />
		<tag k="natural" v="hill" />
		<tag k="place" v="locality" />
		<tag k="ssr:stedsnr" v="898769" />
	</node>
	<node lat="58.4566666701689" lon="8.50126110834214" id="-33997">
		<tag k="name" v="Havekollen" />
		<tag k="natural" v="hill" />
		<tag k="place" v="locality" />
		<tag k="ssr:stedsnr" v="902112" />
	</node>
	<node lat="58.44040277822105" lon="8.378580563143533" id="-33998">
		<tag k="name" v="Heitjønndalen" />
		<tag k="natural" v="valley" />
		<tag k="place" v="locality" />
		<tag k="ssr:stedsnr" v="902118" />
	</node>
	<node lat="58.46049444628709" lon="8.473297223941083" id="-34001">
		<tag k="name" v="Hønsåsen" />
		<tag k="natural" v="hill" />
		<tag k="place" v="locality" />
		<tag k="ssr:stedsnr" v="902200" />
	</node>
	<node lat="58.44091667013466" lon="8.48097222156384" id="-34006">
		<tag k="name" v="Hellelandsdalen" />
		<tag k="natural" v="valley" />
		<tag k="place" v="locality" />
		<tag k="ssr:stedsnr" v="902488" />
	</node>
	<node lat="58.402022224257244" lon="8.506900005804951" id="-34008">
		<tag k="name" v="Kvennehei" />
		<tag k="natural" v="hill" />
		<tag k="place" v="locality" />
		<tag k="ssr:stedsnr" v="902783" />
	</node>
	<node lat="58.39113611545928" lon="8.54360555051283" id="-34009">
		<tag k="name" v="Saveheia" />
		<tag k="natural" v="hill" />
		<tag k="place" v="locality" />
		<tag k="ssr:stedsnr" v="902790" />
	</node>
	<node lat="58.39821111276254" lon="8.447013892422037" id="-34011">
		<tag k="name" v="Risbrundalen" />
		<tag k="natural" v="valley" />
		<tag k="place" v="locality" />
		<tag k="ssr:stedsnr" v="902816" />
	</node>
	<node lat="58.397038884959045" lon="8.43507777294286" id="-34012">
		<tag k="fixme" v="consider natural=peak for the most distinct mountains in the district" />
		<tag k="name" v="Slettepall" />
		<tag k="natural" v="hill" />
		<tag k="place" v="locality" />
		<tag k="ssr:stedsnr" v="902920" />
	</node>
	<node lat="58.400836112417615" lon="8.372091662350174" id="-34014">
		<tag k="name" v="Hestebeita" />
		<tag k="natural" v="slope" />
		<tag k="place" v="locality" />
		<tag k="ssr:stedsnr" v="902961" />
	</node>
	<node lat="58.3800499970058" lon="8.414338891806734" id="-34017">
		<tag k="name" v="Kråkeberghei" />
		<tag k="natural" v="hill" />
		<tag k="place" v="locality" />
		<tag k="ssr:stedsnr" v="903202" />
	</node>
	<node lat="58.37343055973608" lon="8.427013883912716" id="-34018">
		<tag k="name" v="Styggedalen" />
		<tag k="natural" v="valley" />
		<tag k="place" v="locality" />
		<tag k="ssr:stedsnr" v="903050" />
	</node>
	<node lat="58.38222499740488" lon="8.38644165902746" id="-34020">
		<tag k="fixme" v="consider natural=peak for the most distinct mountains in the district" />
		<tag k="name" v="Stivasshei" />
		<tag k="natural" v="hill" />
		<tag k="place" v="locality" />
		<tag k="ssr:stedsnr" v="903213" />
	</node>
	<node lat="58.40826944124664" lon="8.386577772586614" id="-34022">
		<tag k="name" v="Rigehalspall" />
		<tag k="natural" v="ridge" />
		<tag k="place" v="locality" />
		<tag k="ssr:stedsnr" v="903921" />
	</node>
	<node lat="58.45352222238552" lon="8.429688897072902" id="-34065">
		<tag k="fixme" v="consider natural=peak for the most distinct mountains in the district" />
		<tag k="name" v="Sjåheia" />
		<tag k="natural" v="hill" />
		<tag k="place" v="locality" />
		<tag k="ssr:stedsnr" v="910499" />
	</node>
	<node lat="58.446191670155166" lon="8.503916662609337" id="-34066">
		<tag k="fixme" v="multiple name tags, choose one and add the other to alt_name; consider natural=peak for the most distinct mountains in the district" />
		<tag k="name" v="Gråskollheia;Kattuglefjellet" />
		<tag k="natural" v="hill" />
		<tag k="place" v="locality" />
		<tag k="ssr:stedsnr" v="910612" />
	</node>
	<node lat="58.362730553545866" lon="8.642163880859107" id="-34078">
		<tag k="fixme" v="consider natural=peak for the most distinct mountains in the district" />
		<tag k="name" v="Verås" />
		<tag k="natural" v="hill" />
		<tag k="place" v="locality" />
		<tag k="ssr:stedsnr" v="937837" />
	</node>
	<node lat="58.30465833051325" lon="8.538025007796522" id="-34082">
		<tag k="fixme" v="consider natural=peak for the most distinct mountains in the district" />
		<tag k="name" v="Brunåsen" />
		<tag k="natural" v="hill" />
		<tag k="place" v="locality" />
		<tag k="ssr:stedsnr" v="957250" />
	</node>
	<node lat="58.315958337640545" lon="8.470491667973523" id="-34084">
		<tag k="name" v="Rynningen" />
		<tag k="natural" v="valley" />
		<tag k="place" v="locality" />
		<tag k="ssr:stedsnr" v="958336" />
	</node>
	<node lat="58.33380833743235" lon="8.39093332528754" id="-34086">
		<tag k="name" v="Linddalsheia" />
		<tag k="natural" v="hill" />
		<tag k="place" v="locality" />
		<tag k="ssr:stedsnr" v="958787" />
	</node>
	<node lat="58.33019722517355" lon="8.392777772020352" id="-34088">
		<tag k="name" v="Heimfusåsen" />
		<tag k="natural" v="ridge" />
		<tag k="place" v="locality" />
		<tag k="ssr:stedsnr" v="958795" />
	</node>
	<node lat="58.33776111196389" lon="8.424172214500528" id="-34089">
		<tag k="name" v="Springkleiv" />
		<tag k="natural" v="slope" />
		<tag k="place" v="locality" />
		<tag k="ssr:stedsnr" v="958797" />
	</node>
	<node lat="58.294174999948254" lon="8.461608330031828" id="-34090">
		<tag k="fixme" v="consider natural=peak for the most distinct mountains in the district" />
		<tag k="name" v="Lille Røvarden" />
		<tag k="natural" v="hill" />
		<tag k="place" v="locality" />
		<tag k="ssr:stedsnr" v="958657" />
	</node>
	<node lat="58.346858329461334" lon="8.477255558593907" id="-34091">
		<tag k="fixme" v="consider natural=peak for the most distinct mountains in the district" />
		<tag k="name" v="Visåsen" />
		<tag k="natural" v="hill" />
		<tag k="place" v="locality" />
		<tag k="ssr:stedsnr" v="958846" />
	</node>
	<node lat="58.34853610909931" lon="8.528119442436406" id="-34092">
		<tag k="name" v="Vikmarken" />
		<tag k="natural" v="slope" />
		<tag k="place" v="locality" />
		<tag k="ssr:stedsnr" v="959304" />
	</node>
	<node lat="58.352702773568005" lon="8.489977777328662" id="-34093">
		<tag k="fixme" v="consider natural=peak for the most distinct mountains in the district" />
		<tag k="name" v="Grasåsen" />
		<tag k="natural" v="hill" />
		<tag k="place" v="locality" />
		<tag k="ssr:stedsnr" v="959221" />
	</node>
	<node lat="58.36431666646435" lon="8.34687500066911" id="-34096">
		<tag k="fixme" v="consider natural=peak for the most distinct mountains in the district" />
		<tag k="name" v="Stemåsen" />
		<tag k="natural" v="hill" />
		<tag k="place" v="locality" />
		<tag k="ssr:stedsnr" v="959931" />
	</node>
	<node lat="58.4809777754902" lon="8.450925002070715" id="-34097">
		<tag k="name" v="Bårreiåsen" />
		<tag k="natural" v="ridge" />
		<tag k="place" v="locality" />
		<tag k="ssr:stedsnr" v="963007" />
	</node>
	<node lat="58.469986106807454" lon="8.433855562896605" id="-34099">
		<tag k="name" v="Bakhei" />
		<tag k="natural" v="hill" />
		<tag k="place" v="locality" />
		<tag k="ssr:stedsnr" v="963216" />
	</node>
	<node lat="58.418616668257876" lon="8.349411105462098" id="-34101">
		<tag k="name" v="Kingredalen" />
		<tag k="natural" v="valley" />
		<tag k="place" v="locality" />
		<tag k="ssr:stedsnr" v="963294" />
	</node>
	<node lat="58.384611107223634" lon="8.516688896165018" id="-34102">
		<tag k="name" v="Lille Resneshei" />
		<tag k="natural" v="hill" />
		<tag k="place" v="locality" />
		<tag k="ssr:stedsnr" v="963414" />
	</node>
	<node lat="58.409808334999845" lon="8.429327781999211" id="-34103">
		<tag k="alt_name" v="Storemyrheia" />
		<tag k="name" v="Stormyrheia" />
		<tag k="natural" v="hill" />
		<tag k="place" v="locality" />
		<tag k="ssr:stedsnr" v="963708" />
	</node>
	<node lat="58.435691662605315" lon="8.426430554535534" id="-34104">
		<tag k="name" v="Vårupsheia" />
		<tag k="natural" v="hill" />
		<tag k="place" v="locality" />
		<tag k="ssr:stedsnr" v="963494" />
	</node>
	<node lat="58.41275277670023" lon="8.465791658947929" id="-34106">
		<tag k="name" v="Austegard" />
		<tag k="natural" v="valley" />
		<tag k="place" v="locality" />
		<tag k="ssr:stedsnr" v="963639" />
	</node>
	<node lat="58.42522499788364" lon="8.44577777705828" id="-34107">
		<tag k="name" v="Midtvassåsen" />
		<tag k="natural" v="hill" />
		<tag k="place" v="locality" />
		<tag k="ssr:stedsnr" v="963702" />
	</node>
	<node lat="58.45173055191067" lon="8.385352777727363" id="-34180">
		<tag k="fixme" v="consider natural=peak for the most distinct mountains in the district" />
		<tag k="name" v="Elgåsen" />
		<tag k="natural" v="hill" />
		<tag k="place" v="locality" />
		<tag k="ssr:stedsnr" v="488" />
	</node>
	<node lat="58.360472218700785" lon="8.62238889744083" id="-34207">
		<tag k="name" v="Onsbergkleiva" />
		<tag k="natural" v="slope" />
		<tag k="place" v="locality" />
		<tag k="ssr:stedsnr" v="30459" />
	</node>
	<node lat="58.32686111439051" lon="8.57122222204775" id="-34209">
		<tag k="fixme" v="consider natural=peak for the most distinct mountains in the district" />
		<tag k="name" v="Kibbåsen" />
		<tag k="natural" v="hill" />
		<tag k="place" v="locality" />
		<tag k="ssr:stedsnr" v="30345" />
	</node>
	<node lat="58.36613888798035" lon="8.628611109151194" id="-34222">
		<tag k="fixme" v="consider natural=peak for the most distinct mountains in the district" />
		<tag k="name" v="Vikshei" />
		<tag k="natural" v="hill" />
		<tag k="place" v="locality" />
		<tag k="ssr:stedsnr" v="30490" />
	</node>
	<node lat="58.40262222054714" lon="8.656447216398082" id="-34228">
		<tag k="fixme" v="consider natural=peak for the most distinct mountains in the district" />
		<tag k="name" v="Åsene" />
		<tag k="natural" v="hill" />
		<tag k="place" v="locality" />
		<tag k="ssr:stedsnr" v="30745" />
	</node>
	<node lat="58.323191667987025" lon="8.488288891099405" id="-34233">
		<tag k="name" v="Reddalskollen" />
		<tag k="natural" v="hill" />
		<tag k="place" v="locality" />
		<tag k="ssr:stedsnr" v="47330" />
	</node>
	<node lat="58.324225003900544" lon="8.413424995919783" id="-34236">
		<tag k="fixme" v="consider natural=peak for the most distinct mountains in the district" />
		<tag k="name" v="Slettåsen" />
		<tag k="natural" v="hill" />
		<tag k="place" v="locality" />
		<tag k="ssr:stedsnr" v="47639" />
	</node>
	<node lat="58.31797777586994" lon="8.438075002037174" id="-34238">
		<tag k="name" v="Tørrfjell" />
		<tag k="natural" v="hill" />
		<tag k="place" v="locality" />
		<tag k="ssr:stedsnr" v="48228" />
	</node>
	<node lat="58.35271111468247" lon="8.444922219642276" id="-34240">
		<tag k="name" v="Klamreheia" />
		<tag k="natural" v="hill" />
		<tag k="place" v="locality" />
		<tag k="ssr:stedsnr" v="48237" />
	</node>
	<node lat="58.30840277595294" lon="8.5205388940295" id="-34244">
		<tag k="name" v="Sjømoen" />
		<tag k="place" v="locality" />
		<tag k="ssr:stedsnr" v="48256" />
	</node>
	<node lat="58.35733889281108" lon="8.524530553991834" id="-34252">
		<tag k="name" v="Imenesskaret" />
		<tag k="natural" v="valley" />
		<tag k="place" v="locality" />
		<tag k="ssr:stedsnr" v="229323" />
	</node>
	<node lat="58.350827779570665" lon="8.37438611811523" id="-34255">
		<tag k="fixme" v="consider natural=peak for the most distinct mountains in the district" />
		<tag k="name" v="Kjerkeheia" />
		<tag k="natural" v="hill" />
		<tag k="place" v="locality" />
		<tag k="ssr:stedsnr" v="48986" />
	</node>
	<node lat="58.44368055600601" lon="8.38657777137068" id="-34257">
		<tag k="name" v="Stieheia" />
		<tag k="natural" v="hill" />
		<tag k="place" v="locality" />
		<tag k="ssr:stedsnr" v="52105" />
	</node>
	<node lat="58.37621944579657" lon="8.402388886141999" id="-34258">
		<tag k="name" v="Lille Gusdalhei" />
		<tag k="natural" v="hill" />
		<tag k="place" v="locality" />
		<tag k="ssr:stedsnr" v="53038" />
	</node>
	<node lat="58.38552499930754" lon="8.356730551321487" id="-34261">
		<tag k="fixme" v="consider natural=peak for the most distinct mountains in the district" />
		<tag k="name" v="Pråmåsen" />
		<tag k="natural" v="hill" />
		<tag k="place" v="locality" />
		<tag k="ssr:stedsnr" v="53162" />
	</node>
	<node lat="58.386072218064065" lon="8.510111113590577" id="-34263">
		<tag k="name" v="Omdalsknuten" />
		<tag k="natural" v="hill" />
		<tag k="place" v="locality" />
		<tag k="ssr:stedsnr" v="53100" />
	</node>
	<node lat="58.46288055639855" lon="8.458997214020707" id="-34264">
		<tag k="name" v="Hyåsen" />
		<tag k="natural" v="hill" />
		<tag k="place" v="locality" />
		<tag k="ssr:stedsnr" v="53185" />
	</node>
	<node lat="58.36889722554495" lon="8.352319444087113" id="-34265">
		<tag k="name" v="Brødene" />
		<tag k="natural" v="slope" />
		<tag k="place" v="locality" />
		<tag k="ssr:stedsnr" v="53187" />
	</node>
	<node lat="58.45858055760488" lon="8.462877782171725" id="-34268">
		<tag k="name" v="Høge Heibråtet" />
		<tag k="natural" v="slope" />
		<tag k="place" v="locality" />
		<tag k="ssr:stedsnr" v="53199" />
	</node>
	<node lat="58.42848055627901" lon="8.394194446746207" id="-34269">
		<tag k="name" v="Katterås" />
		<tag k="natural" v="hill" />
		<tag k="place" v="locality" />
		<tag k="ssr:stedsnr" v="53289" />
	</node>
	<node lat="58.422069447446226" lon="8.434116673039613" id="-34270">
		<tag k="name" v="Kilandsdalen" />
		<tag k="natural" v="valley" />
		<tag k="place" v="locality" />
		<tag k="ssr:stedsnr" v="53299" />
	</node>
	<node lat="58.42750833211917" lon="8.508030551930826" id="-34273">
		<tag k="name" v="Tverrdalen" />
		<tag k="natural" v="valley" />
		<tag k="place" v="locality" />
		<tag k="ssr:stedsnr" v="53554" />
	</node>
	<node lat="58.41594167044445" lon="8.478186118286526" id="-34274">
		<tag k="name" v="Ustaddalen" />
		<tag k="natural" v="valley" />
		<tag k="place" v="locality" />
		<tag k="ssr:stedsnr" v="53623" />
	</node>
	<node lat="58.4062416642501" lon="8.45684721719798" id="-34275">
		<tag k="name" v="Kvernhusdalen" />
		<tag k="natural" v="valley" />
		<tag k="place" v="locality" />
		<tag k="ssr:stedsnr" v="53853" />
	</node>
	<node lat="58.39136666635479" lon="8.431394438262478" id="-34276">
		<tag k="name" v="Krokehei" />
		<tag k="natural" v="hill" />
		<tag k="place" v="locality" />
		<tag k="ssr:stedsnr" v="53854" />
	</node>
	<node lat="58.35647777371301" lon="8.493747213865714" id="-34313">
		<tag k="fixme" v="consider natural=peak for the most distinct mountains in the district" />
		<tag k="name" v="Mauråsen" />
		<tag k="natural" v="hill" />
		<tag k="place" v="locality" />
		<tag k="ssr:stedsnr" v="60480" />
	</node>
	<node lat="58.39922499597589" lon="8.601619440687175" id="-34337">
		<tag k="fixme" v="consider natural=peak for the most distinct mountains in the district" />
		<tag k="name" v="Ulvekula" />
		<tag k="natural" v="hill" />
		<tag k="place" v="locality" />
		<tag k="ssr:stedsnr" v="61518" />
	</node>
	<node lat="58.32279722350185" lon="8.48653055213564" id="-34344">
		<tag k="name" v="Hassel-lia" />
		<tag k="natural" v="slope" />
		<tag k="place" v="locality" />
		<tag k="ssr:stedsnr" v="229352" />
	</node>
	<node lat="58.279177779154004" lon="8.496674995122689" id="-34347">
		<tag k="fixme" v="consider natural=peak for the most distinct mountains in the district" />
		<tag k="name" v="Amtedalsknullen" />
		<tag k="natural" v="hill" />
		<tag k="place" v="locality" />
		<tag k="ssr:stedsnr" v="87631" />
	</node>
	<node lat="58.26321388573448" lon="8.475733331738903" id="-34348">
		<tag k="fixme" v="consider natural=peak for the most distinct mountains in the district" />
		<tag k="name" v="Kastellet" />
		<tag k="natural" v="hill" />
		<tag k="place" v="locality" />
		<tag k="ssr:stedsnr" v="87634" />
	</node>
	<node lat="58.33141666641009" lon="8.582972229942808" id="-34353">
		<tag k="fixme" v="consider natural=peak for the most distinct mountains in the district" />
		<tag k="name" v="Jonåsen" />
		<tag k="natural" v="hill" />
		<tag k="place" v="locality" />
		<tag k="ssr:stedsnr" v="90297" />
	</node>
	<node lat="58.39161110803983" lon="8.599805559215492" id="-34358">
		<tag k="fixme" v="consider natural=peak for the most distinct mountains in the district" />
		<tag k="name" v="Skoddeheia" />
		<tag k="natural" v="hill" />
		<tag k="place" v="locality" />
		<tag k="ssr:stedsnr" v="90243" />
	</node>
	<node lat="58.39911111075227" lon="8.584833338010778" id="-34360">
		<tag k="fixme" v="consider natural=peak for the most distinct mountains in the district" />
		<tag k="name" v="Langås" />
		<tag k="natural" v="hill" />
		<tag k="place" v="locality" />
		<tag k="ssr:stedsnr" v="90249" />
	</node>
	<node lat="58.4053611129962" lon="8.601194449890878" id="-34361">
		<tag k="fixme" v="consider natural=peak for the most distinct mountains in the district" />
		<tag k="name" v="Borgåsen" />
		<tag k="natural" v="hill" />
		<tag k="place" v="locality" />
		<tag k="ssr:stedsnr" v="90254" />
	</node>
	<node lat="58.40364722041102" lon="8.61811666356092" id="-34364">
		<tag k="name" v="Stueheia" />
		<tag k="natural" v="hill" />
		<tag k="place" v="locality" />
		<tag k="ssr:stedsnr" v="90357" />
	</node>
	<node lat="58.38300277851266" lon="8.623605561606183" id="-34367">
		<tag k="fixme" v="consider natural=peak for the most distinct mountains in the district" />
		<tag k="name" v="Bjørkåsen" />
		<tag k="natural" v="hill" />
		<tag k="place" v="locality" />
		<tag k="ssr:stedsnr" v="90697" />
	</node>
	<node lat="58.37466666387697" lon="8.597444441404189" id="-34369">
		<tag k="fixme" v="consider natural=peak for the most distinct mountains in the district" />
		<tag k="name" v="Holleheiene" />
		<tag k="natural" v="hill" />
		<tag k="place" v="locality" />
		<tag k="ssr:stedsnr" v="91313" />
	</node>
	<node lat="58.38497222375518" lon="8.579666673435751" id="-34370">
		<tag k="fixme" v="consider natural=peak for the most distinct mountains in the district" />
		<tag k="name" v="Seljepallen" />
		<tag k="natural" v="hill" />
		<tag k="place" v="locality" />
		<tag k="ssr:stedsnr" v="91326" />
	</node>
	<node lat="58.32036389120508" lon="8.412619441377934" id="-34375">
		<tag k="name" v="Halvorsmyrdalen" />
		<tag k="natural" v="valley" />
		<tag k="place" v="locality" />
		<tag k="ssr:stedsnr" v="108636" />
	</node>
	<node lat="58.31615000432171" lon="8.42758056384452" id="-34377">
		<tag k="name" v="Skovfjell" />
		<tag k="natural" v="hill" />
		<tag k="place" v="locality" />
		<tag k="ssr:stedsnr" v="108647" />
	</node>
	<node lat="58.350847225420424" lon="8.371552771963477" id="-34379">
		<tag k="name" v="Stormedalen" />
		<tag k="natural" v="valley" />
		<tag k="place" v="locality" />
		<tag k="ssr:stedsnr" v="109989" />
	</node>
	<node lat="58.323127780575746" lon="8.528102773968298" id="-34380">
		<tag k="name" v="Haueheidalen" />
		<tag k="natural" v="valley" />
		<tag k="place" v="locality" />
		<tag k="ssr:stedsnr" v="109412" />
	</node>
	<node lat="58.35688888485415" lon="8.335883329833742" id="-34383">
		<tag k="name" v="Bærheia" />
		<tag k="natural" v="hill" />
		<tag k="place" v="locality" />
		<tag k="ssr:stedsnr" v="109455" />
	</node>
	<node lat="58.32911944616597" lon="8.412183338733616" id="-34385">
		<tag k="name" v="Ramselia" />
		<tag k="natural" v="slope" />
		<tag k="place" v="locality" />
		<tag k="ssr:stedsnr" v="109716" />
	</node>
	<node lat="58.34306944834841" lon="8.414430554883038" id="-34387">
		<tag k="name" v="Svåene" />
		<tag k="natural" v="hill" />
		<tag k="place" v="locality" />
		<tag k="ssr:stedsnr" v="109741" />
	</node>
	<node lat="58.35951111376154" lon="8.337227779762424" id="-34389">
		<tag k="name" v="Hundlandsåsen" />
		<tag k="natural" v="hill" />
		<tag k="place" v="locality" />
		<tag k="ssr:stedsnr" v="109948" />
	</node>
	<node lat="58.4734555560457" lon="8.499772223039095" id="-34392">
		<tag k="name" v="Traudalen" />
		<tag k="natural" v="valley" />
		<tag k="place" v="locality" />
		<tag k="ssr:stedsnr" v="113077" />
	</node>
	<node lat="58.42895000051364" lon="8.479125000141448" id="-34395">
		<tag k="name" v="Fosseliene" />
		<tag k="natural" v="slope" />
		<tag k="place" v="locality" />
		<tag k="ssr:stedsnr" v="113654" />
	</node>
	<node lat="58.41947777494647" lon="8.512913882797292" id="-34396">
		<tag k="name" v="Eikedalen" />
		<tag k="natural" v="valley" />
		<tag k="place" v="locality" />
		<tag k="ssr:stedsnr" v="113472" />
	</node>
	<node lat="58.476375003383865" lon="8.444558325269742" id="-34399">
		<tag k="name" v="Toredalen" />
		<tag k="natural" v="valley" />
		<tag k="place" v="locality" />
		<tag k="ssr:stedsnr" v="114001" />
	</node>
	<node lat="58.41529722009004" lon="8.461808338075162" id="-34401">
		<tag k="name" v="Olavsdal" />
		<tag k="natural" v="valley" />
		<tag k="place" v="locality" />
		<tag k="ssr:stedsnr" v="114631" />
	</node>
	<node lat="58.38908889321498" lon="8.518722215950591" id="-34402">
		<tag k="name" v="Tangen" />
		<tag k="place" v="locality" />
		<tag k="ssr:stedsnr" v="114771" />
	</node>
	<node lat="58.443030558799755" lon="8.50983055640817" id="-34403">
		<tag k="name" v="Sandnesåsen" />
		<tag k="natural" v="hill" />
		<tag k="place" v="locality" />
		<tag k="ssr:stedsnr" v="114375" />
	</node>
	<node lat="58.43501388459223" lon="8.50848332610194" id="-34404">
		<tag k="fixme" v="consider natural=peak for the most distinct mountains in the district" />
		<tag k="name" v="Badstukjerrheia" />
		<tag k="natural" v="hill" />
		<tag k="place" v="locality" />
		<tag k="ssr:stedsnr" v="114381" />
	</node>
	<node lat="58.45096667043736" lon="8.460958329529724" id="-34407">
		<tag k="name" v="Brågåndalen" />
		<tag k="natural" v="valley" />
		<tag k="place" v="locality" />
		<tag k="ssr:stedsnr" v="114465" />
	</node>
	<node lat="58.40668055585513" lon="8.458986114708496" id="-34412">
		<tag k="fixme" v="consider natural=peak for the most distinct mountains in the district" />
		<tag k="name" v="Sageheia" />
		<tag k="natural" v="hill" />
		<tag k="place" v="locality" />
		<tag k="ssr:stedsnr" v="114831" />
	</node>
	<node lat="58.39767777616573" lon="8.46876666268258" id="-34413">
		<tag k="name" v="Barlinddalen" />
		<tag k="natural" v="valley" />
		<tag k="place" v="locality" />
		<tag k="ssr:stedsnr" v="114842" />
	</node>
	<node lat="58.39975555446522" lon="8.415891674947266" id="-34416">
		<tag k="fixme" v="consider natural=peak for the most distinct mountains in the district" />
		<tag k="name" v="Stovelandsknatten" />
		<tag k="natural" v="hill" />
		<tag k="place" v="locality" />
		<tag k="ssr:stedsnr" v="114855" />
	</node>
	<node lat="58.398477775600426" lon="8.431436114346429" id="-34417">
		<tag k="name" v="Høyhei" />
		<tag k="natural" v="hill" />
		<tag k="place" v="locality" />
		<tag k="ssr:stedsnr" v="114861" />
	</node>
	<node lat="58.368188890249044" lon="8.421147217466782" id="-34452">
		<tag k="fixme" v="consider natural=peak for the most distinct mountains in the district" />
		<tag k="name" v="Høytveit" />
		<tag k="natural" v="hill" />
		<tag k="place" v="locality" />
		<tag k="ssr:stedsnr" v="121344" />
	</node>
	<node lat="58.3643333349548" lon="8.376533326863614" id="-34453">
		<tag k="fixme" v="consider natural=peak for the most distinct mountains in the district" />
		<tag k="name" v="Galtåsen" />
		<tag k="natural" v="hill" />
		<tag k="place" v="locality" />
		<tag k="ssr:stedsnr" v="121354" />
	</node>
	<node lat="58.252055553447846" lon="8.451611109752529" id="-34490">
		<tag k="name" v="Kringsholla" />
		<tag k="natural" v="valley" />
		<tag k="place" v="locality" />
		<tag k="ssr:stedsnr" v="151436" />
	</node>
	<node lat="58.38277500317133" lon="8.669755563363777" id="-34491">
		<tag k="name" v="Skarkeflu" />
		<tag k="natural" v="hill" />
		<tag k="place" v="locality" />
		<tag k="ssr:stedsnr" v="151735" />
	</node>
	<node lat="58.377641663850326" lon="8.700680547139092" id="-34492">
		<tag k="fixme" v="consider natural=peak for the most distinct mountains in the district" />
		<tag k="name" v="Geiteryggen" />
		<tag k="natural" v="hill" />
		<tag k="place" v="locality" />
		<tag k="ssr:stedsnr" v="151740" />
	</node>
	<node lat="58.417722223330465" lon="8.599888885648543" id="-34497">
		<tag k="fixme" v="consider natural=peak for the most distinct mountains in the district" />
		<tag k="name" v="Lindefjell" />
		<tag k="natural" v="hill" />
		<tag k="place" v="locality" />
		<tag k="ssr:stedsnr" v="151280" />
	</node>
	<node lat="58.34122221854794" lon="8.677000008292053" id="-34507">
		<tag k="fixme" v="consider natural=peak for the most distinct mountains in the district" />
		<tag k="name" v="Ankerfjellet" />
		<tag k="natural" v="hill" />
		<tag k="place" v="locality" />
		<tag k="ssr:stedsnr" v="151496" />
	</node>
	<node lat="58.39101111533142" lon="8.681494442044444" id="-34509">
		<tag k="fixme" v="consider natural=peak for the most distinct mountains in the district" />
		<tag k="name" v="Lindheia" />
		<tag k="natural" v="hill" />
		<tag k="place" v="locality" />
		<tag k="ssr:stedsnr" v="151763" />
	</node>
	<node lat="58.28772778110293" lon="8.463008328720472" id="-34513">
		<tag k="name" v="Eikedalen" />
		<tag k="natural" v="valley" />
		<tag k="place" v="locality" />
		<tag k="ssr:stedsnr" v="169400" />
	</node>
	<node lat="58.33477499786091" lon="8.406655551487011" id="-34515">
		<tag k="name" v="Styggedal" />
		<tag k="natural" v="valley" />
		<tag k="place" v="locality" />
		<tag k="ssr:stedsnr" v="169758" />
	</node>
	<node lat="58.33714444725526" lon="8.408211107331928" id="-34516">
		<tag k="name" v="Geiteryggen" />
		<tag k="natural" v="ridge" />
		<tag k="old_name" v="Greiteryggen" />
		<tag k="place" v="locality" />
		<tag k="ssr:stedsnr" v="169763" />
	</node>
	<node lat="58.34351388505183" lon="8.513327782358582" id="-34518">
		<tag k="name" v="Vom-fjell" />
		<tag k="natural" v="cliff" />
		<tag k="ssr:stedsnr" v="169856" />
	</node>
	<node lat="58.32428888458306" lon="8.441686114895198" id="-34520">
		<tag k="name" v="Karlsholla" />
		<tag k="natural" v="valley" />
		<tag k="place" v="locality" />
		<tag k="ssr:stedsnr" v="170277" />
	</node>
	<node lat="58.35093611069449" lon="8.437200002763532" id="-34523">
		<tag k="fixme" v="consider natural=peak for the most distinct mountains in the district" />
		<tag k="name" v="Forkjærte båten" />
		<tag k="natural" v="hill" />
		<tag k="place" v="locality" />
		<tag k="ssr:stedsnr" v="170290" />
	</node>
	<node lat="58.3512472191562" lon="8.47725000206802" id="-34524">
		<tag k="fixme" v="consider natural=peak for the most distinct mountains in the district" />
		<tag k="name" v="Helleråsen" />
		<tag k="natural" v="hill" />
		<tag k="place" v="locality" />
		<tag k="ssr:stedsnr" v="170293" />
	</node>
	<node lat="58.35988888813033" lon="8.392899993949838" id="-34525">
		<tag k="name" v="Grindalen" />
		<tag k="natural" v="valley" />
		<tag k="place" v="locality" />
		<tag k="ssr:stedsnr" v="170508" />
	</node>
	<node lat="58.34699444584586" lon="8.378622218728902" id="-34527">
		<tag k="name" v="Nygrenda" />
		<tag k="natural" v="valley" />
		<tag k="place" v="locality" />
		<tag k="ssr:stedsnr" v="170514" />
	</node>
	<node lat="58.36398055673404" lon="8.40175277021926" id="-34528">
		<tag k="name" v="Ålekjærskotet" />
		<tag k="natural" v="valley" />
		<tag k="place" v="locality" />
		<tag k="ssr:stedsnr" v="170521" />
	</node>
	<node lat="58.36177221859859" lon="8.409455560939765" id="-34529">
		<tag k="name" v="Torshei" />
		<tag k="natural" v="hill" />
		<tag k="place" v="locality" />
		<tag k="ssr:stedsnr" v="170522" />
	</node>
	<node lat="58.355444441011194" lon="8.370199996459249" id="-34531">
		<tag k="name" v="Grindalsdalen" />
		<tag k="natural" v="valley" />
		<tag k="place" v="locality" />
		<tag k="ssr:stedsnr" v="170993" />
	</node>
	<node lat="58.37706944194781" lon="8.411858340664596" id="-34533">
		<tag k="name" v="Skovedalen" />
		<tag k="natural" v="valley" />
		<tag k="place" v="locality" />
		<tag k="ssr:stedsnr" v="174053" />
	</node>
	<node lat="58.483763887034776" lon="8.49826111540365" id="-34535">
		<tag k="name" v="Stuteheia" />
		<tag k="natural" v="hill" />
		<tag k="place" v="locality" />
		<tag k="ssr:stedsnr" v="174246" />
	</node>
	<node lat="58.47021389274866" lon="8.476886105180643" id="-34536">
		<tag k="name" v="Ommundsli" />
		<tag k="natural" v="slope" />
		<tag k="place" v="locality" />
		<tag k="ssr:stedsnr" v="174250" />
	</node>
	<node lat="58.420183329176155" lon="8.370338895897467" id="-34538">
		<tag k="name" v="Liene" />
		<tag k="natural" v="hill" />
		<tag k="place" v="locality" />
		<tag k="ssr:stedsnr" v="174296" />
	</node>
	<node lat="58.408180558845196" lon="8.514277779441935" id="-34545">
		<tag k="name" v="Skrelle" />
		<tag k="natural" v="cliff" />
		<tag k="ssr:stedsnr" v="174980" />
	</node>
	<node lat="58.443049998248206" lon="8.391286114928121" id="-34548">
		<tag k="name" v="Almedalen" />
		<tag k="natural" v="valley" />
		<tag k="place" v="locality" />
		<tag k="ssr:stedsnr" v="174489" />
	</node>
	<node lat="58.42028610880057" lon="8.48071111632887" id="-34550">
		<tag k="name" v="Lille Ustadheia" />
		<tag k="natural" v="hill" />
		<tag k="place" v="locality" />
		<tag k="ssr:stedsnr" v="174629" />
	</node>
	<node lat="58.38810000159276" lon="8.430961116627897" id="-34553">
		<tag k="name" v="Austerdalen" />
		<tag k="natural" v="valley" />
		<tag k="place" v="locality" />
		<tag k="ssr:stedsnr" v="174857" />
	</node>
	<node lat="58.40844444324169" lon="8.422433330478603" id="-34554">
		<tag k="name" v="Langemyrheia" />
		<tag k="natural" v="hill" />
		<tag k="place" v="locality" />
		<tag k="ssr:stedsnr" v="174896" />
	</node>
	<node lat="58.41501110965967" lon="8.443400002186754" id="-34557">
		<tag k="name" v="Mellom vatna" />
		<tag k="natural" v="hill" />
		<tag k="place" v="locality" />
		<tag k="ssr:stedsnr" v="175580" />
	</node>
	<node lat="58.35053055601327" lon="8.441383325755996" id="-34605">
		<tag k="fixme" v="consider natural=peak for the most distinct mountains in the district" />
		<tag k="loc_name" v="Båden" />
		<tag k="name" v="Båten" />
		<tag k="natural" v="hill" />
		<tag k="place" v="locality" />
		<tag k="ssr:stedsnr" v="182354" />
	</node>
	<node lat="58.42299444198827" lon="8.597449997278892" id="-34608">
		<tag k="fixme" v="consider natural=peak for the most distinct mountains in the district" />
		<tag k="name" v="Sundsåsen" />
		<tag k="natural" v="hill" />
		<tag k="place" v="locality" />
		<tag k="ssr:stedsnr" v="182584" />
	</node>
	<node lat="58.414222222690185" lon="8.591305559598396" id="-34630">
		<tag k="fixme" v="consider natural=peak for the most distinct mountains in the district" />
		<tag k="name" v="Kollåsen" />
		<tag k="natural" v="hill" />
		<tag k="place" v="locality" />
		<tag k="ssr:stedsnr" v="212258" />
	</node>
	<node lat="58.253111108951096" lon="8.458333330098176" id="-34642">
		<tag k="fixme" v="consider natural=peak for the most distinct mountains in the district" />
		<tag k="name" v="Bruneheia" />
		<tag k="natural" v="hill" />
		<tag k="place" v="locality" />
		<tag k="ssr:stedsnr" v="212432" />
	</node>
	<node lat="58.41644444654639" lon="8.591416659624171" id="-34655">
		<tag k="name" v="Møstedalen" />
		<tag k="natural" v="valley" />
		<tag k="place" v="locality" />
		<tag k="ssr:stedsnr" v="273258" />
	</node>
	<node lat="58.32708332986004" lon="8.557805560694403" id="-34657">
		<tag k="fixme" v="consider natural=peak for the most distinct mountains in the district" />
		<tag k="name" v="Lille Skibberfjell" />
		<tag k="natural" v="hill" />
		<tag k="place" v="locality" />
		<tag k="ssr:stedsnr" v="273331" />
	</node>
	<node lat="58.39406389126342" lon="8.618686103226946" id="-34660">
		<tag k="name" v="Skillarmoen" />
		<tag k="place" v="locality" />
		<tag k="ssr:stedsnr" v="273367" />
	</node>
	<node lat="58.33939166841332" lon="8.375808331123045" id="-34661">
		<tag k="name" v="Jordås" />
		<tag k="natural" v="ridge" />
		<tag k="place" v="locality" />
		<tag k="ssr:stedsnr" v="277862" />
	</node>
	<node lat="58.32068055939065" lon="8.436869449451647" id="-34664">
		<tag k="name" v="Savedalen" />
		<tag k="natural" v="valley" />
		<tag k="place" v="locality" />
		<tag k="ssr:stedsnr" v="291262" />
	</node>
	<node lat="58.355505551644065" lon="8.485802779919881" id="-34665">
		<tag k="fixme" v="consider natural=peak for the most distinct mountains in the district" />
		<tag k="name" v="Klemmeråsen" />
		<tag k="natural" v="hill" />
		<tag k="place" v="locality" />
		<tag k="ssr:stedsnr" v="291263" />
	</node>
	<node lat="58.34776388571604" lon="8.446230552353972" id="-34666">
		<tag k="name" v="Høymoen" />
		<tag k="place" v="locality" />
		<tag k="ssr:stedsnr" v="291273" />
	</node>
	<node lat="58.36053055427772" lon="8.535083337378973" id="-34667">
		<tag k="name" v="Østre Svåene" />
		<tag k="natural" v="valley" />
		<tag k="place" v="locality" />
		<tag k="ssr:stedsnr" v="291365" />
	</node>
	<node lat="58.291533335845564" lon="8.501549996396612" id="-34672">
		<tag k="name" v="Rappestad" />
		<tag k="natural" v="valley" />
		<tag k="place" v="locality" />
		<tag k="ssr:stedsnr" v="291493" />
	</node>
	<node lat="58.285019445109796" lon="8.507922222285458" id="-34673">
		<tag k="name" v="Klauheia" />
		<tag k="natural" v="hill" />
		<tag k="place" v="locality" />
		<tag k="ssr:stedsnr" v="291494" />
	</node>
	<node lat="58.33189166914838" lon="8.442311112362312" id="-34675">
		<tag k="fixme" v="consider natural=peak for the most distinct mountains in the district" />
		<tag k="name" v="Kattåsen" />
		<tag k="natural" v="hill" />
		<tag k="place" v="locality" />
		<tag k="ssr:stedsnr" v="291826" />
	</node>
	<node lat="58.336177777578655" lon="8.470180562405364" id="-34677">
		<tag k="name" v="Jåvoldheia" />
		<tag k="natural" v="hill" />
		<tag k="place" v="locality" />
		<tag k="ssr:stedsnr" v="291824" />
	</node>
	<node lat="58.36593611471882" lon="8.35598055663073" id="-34681">
		<tag k="name" v="Rokketjennheia" />
		<tag k="natural" v="hill" />
		<tag k="place" v="locality" />
		<tag k="ssr:stedsnr" v="291992" />
	</node>
	<node lat="58.35901111196814" lon="8.349169448261126" id="-34682">
		<tag k="name" v="Lauvåsen" />
		<tag k="natural" v="hill" />
		<tag k="place" v="locality" />
		<tag k="ssr:stedsnr" v="291993" />
	</node>
	<node lat="58.32558333136927" lon="8.457183328614112" id="-34684">
		<tag k="name" v="Kastleberget" />
		<tag k="natural" v="hill" />
		<tag k="place" v="locality" />
		<tag k="ssr:stedsnr" v="291832" />
	</node>
	<node lat="58.34072778122449" lon="8.475005550679564" id="-34685">
		<tag k="name" v="Slettåsen" />
		<tag k="natural" v="hill" />
		<tag k="place" v="locality" />
		<tag k="ssr:stedsnr" v="291841" />
	</node>
	<node lat="58.36315833704676" lon="8.347216658604912" id="-34687">
		<tag k="fixme" v="consider natural=peak for the most distinct mountains in the district" />
		<tag k="name" v="Gaukefjellheia" />
		<tag k="natural" v="hill" />
		<tag k="place" v="locality" />
		<tag k="ssr:stedsnr" v="291937" />
	</node>
	<node lat="58.3514694468687" lon="8.34408888858954" id="-34688">
		<tag k="fixme" v="consider natural=peak for the most distinct mountains in the district" />
		<tag k="name" v="Pråmåsen" />
		<tag k="natural" v="hill" />
		<tag k="place" v="locality" />
		<tag k="ssr:stedsnr" v="291964" />
	</node>
	<node lat="58.35441666553633" lon="8.332163893420685" id="-34689">
		<tag k="name" v="Vinslandsheia" />
		<tag k="natural" v="hill" />
		<tag k="place" v="locality" />
		<tag k="ssr:stedsnr" v="291966" />
	</node>
	<node lat="58.38019722001317" lon="8.469069451301843" id="-34690">
		<tag k="name" v="Knipeheia" />
		<tag k="natural" v="hill" />
		<tag k="place" v="locality" />
		<tag k="ssr:stedsnr" v="295106" />
	</node>
	<node lat="58.38824444872045" lon="8.44643333239375" id="-34691">
		<tag k="fixme" v="consider natural=peak for the most distinct mountains in the district" />
		<tag k="name" v="Heståsen" />
		<tag k="natural" v="hill" />
		<tag k="place" v="locality" />
		<tag k="ssr:stedsnr" v="295116" />
	</node>
	<node lat="58.450761113627465" lon="8.406049994526283" id="-34692">
		<tag k="name" v="Holbekkheia" />
		<tag k="natural" v="hill" />
		<tag k="place" v="locality" />
		<tag k="ssr:stedsnr" v="295064" />
	</node>
	<node lat="58.468786114804054" lon="8.477155557688203" id="-34694">
		<tag k="name" v="Svådeheia" />
		<tag k="natural" v="hill" />
		<tag k="place" v="locality" />
		<tag k="ssr:stedsnr" v="295236" />
	</node>
	<node lat="58.4632916641755" lon="8.420516668173859" id="-34696">
		<tag k="name" v="Dalene" />
		<tag k="natural" v="valley" />
		<tag k="place" v="locality" />
		<tag k="ssr:stedsnr" v="295249" />
	</node>
	<node lat="58.4551833294338" lon="8.430411104283161" id="-34697">
		<tag k="name" v="Sjåknaben" />
		<tag k="natural" v="ridge" />
		<tag k="place" v="locality" />
		<tag k="ssr:stedsnr" v="295251" />
	</node>
	<node lat="58.46347221985764" lon="8.414436102602695" id="-34698">
		<tag k="name" v="Harekollen" />
		<tag k="natural" v="ridge" />
		<tag k="place" v="locality" />
		<tag k="ssr:stedsnr" v="295254" />
	</node>
	<node lat="58.44603610755892" lon="8.4490138829851" id="-34700">
		<tag k="name" v="Kjerringdalen" />
		<tag k="natural" v="valley" />
		<tag k="place" v="locality" />
		<tag k="ssr:stedsnr" v="295443" />
	</node>
	<node lat="58.43608889316569" lon="8.421655558308949" id="-34702">
		<tag k="name" v="Breieli" />
		<tag k="natural" v="slope" />
		<tag k="place" v="locality" />
		<tag k="ssr:stedsnr" v="295455" />
	</node>
	<node lat="58.4248583376049" lon="8.412044436422837" id="-34703">
		<tag k="name" v="Berggrovdalen" />
		<tag k="natural" v="valley" />
		<tag k="place" v="locality" />
		<tag k="ssr:stedsnr" v="295305" />
	</node>
	<node lat="58.40991389201739" lon="8.455827782671244" id="-34704">
		<tag k="name" v="Knabevassheia" />
		<tag k="natural" v="hill" />
		<tag k="place" v="locality" />
		<tag k="ssr:stedsnr" v="296553" />
	</node>
	<node lat="58.42185000008677" lon="8.445686111852057" id="-34705">
		<tag k="name" v="Osulvs bro" />
		<tag k="place" v="locality" />
		<tag k="ssr:stedsnr" v="296560" />
	</node>
	<node lat="58.40396388668949" lon="8.428397227997374" id="-34706">
		<tag k="fixme" v="consider natural=peak for the most distinct mountains in the district" />
		<tag k="name" v="Timmerkollen" />
		<tag k="natural" v="hill" />
		<tag k="place" v="locality" />
		<tag k="ssr:stedsnr" v="295891" />
	</node>
	<node lat="58.38036110709346" lon="8.425994436461362" id="-34710">
		<tag k="name" v="Ålkjærheia" />
		<tag k="natural" v="hill" />
		<tag k="place" v="locality" />
		<tag k="ssr:stedsnr" v="296196" />
	</node>
	<node lat="58.36876944510626" lon="8.343519452732195" id="-34711">
		<tag k="name" v="Horveheia" />
		<tag k="natural" v="hill" />
		<tag k="place" v="locality" />
		<tag k="ssr:stedsnr" v="296135" />
	</node>
	<node lat="58.3795444460523" lon="8.344941673306854" id="-34712">
		<tag k="name" v="Skrellefjellet" />
		<tag k="natural" v="hill" />
		<tag k="place" v="locality" />
		<tag k="ssr:stedsnr" v="296160" />
	</node>
	<node lat="58.40115833326452" lon="8.461575005766193" id="-34717">
		<tag k="name" v="Larseshei" />
		<tag k="natural" v="hill" />
		<tag k="place" v="locality" />
		<tag k="ssr:stedsnr" v="296768" />
	</node>
	<node lat="58.401491663473415" lon="8.471238894204394" id="-34718">
		<tag k="name" v="Lydarknatten" />
		<tag k="natural" v="hill" />
		<tag k="place" v="locality" />
		<tag k="ssr:stedsnr" v="296769" />
	</node>
	<node lat="58.33389166791465" lon="8.423144445607425" id="-34741">
		<tag k="fixme" v="consider natural=peak for the most distinct mountains in the district" />
		<tag k="name" v="Sjåsåsen" />
		<tag k="natural" v="hill" />
		<tag k="place" v="locality" />
		<tag k="ssr:stedsnr" v="303258" />
	</node>
	<node lat="58.423963892939966" lon="8.406069448475797" id="-34746">
		<tag k="alt_name" v="Sletteheia" />
		<tag k="fixme" v="consider natural=peak for the most distinct mountains in the district" />
		<tag k="name" v="Slettehei" />
		<tag k="natural" v="hill" />
		<tag k="place" v="locality" />
		<tag k="ssr:stedsnr" v="303383" />
	</node>
	<node lat="58.45413611369707" lon="8.482352785581986" id="-34761">
		<tag k="fixme" v="consider natural=peak for the most distinct mountains in the district" />
		<tag k="name" v="Selbuheia" />
		<tag k="natural" v="hill" />
		<tag k="place" v="locality" />
		<tag k="ssr:stedsnr" v="303643" />
	</node>
	<node lat="58.35690833510054" lon="8.527458331847036" id="-34785">
		<tag k="fixme" v="consider natural=peak for the most distinct mountains in the district" />
		<tag k="name" v="Imenessadelen" />
		<tag k="natural" v="hill" />
		<tag k="place" v="locality" />
		<tag k="ssr:stedsnr" v="330686" />
	</node>
	<node lat="58.389555552675795" lon="8.5890833310461" id="-34789">
		<tag k="name" v="Steindalen" />
		<tag k="natural" v="valley" />
		<tag k="place" v="locality" />
		<tag k="ssr:stedsnr" v="333306" />
	</node>
	<node lat="58.36450000360538" lon="8.589611108691281" id="-34790">
		<tag k="name" v="Kokkeråsen" />
		<tag k="natural" v="hill" />
		<tag k="place" v="locality" />
		<tag k="ssr:stedsnr" v="333321" />
	</node>
	<node lat="58.38763888888247" lon="8.588611116902404" id="-34793">
		<tag k="fixme" v="consider natural=peak for the most distinct mountains in the district" />
		<tag k="name" v="Grandalsåsen" />
		<tag k="natural" v="hill" />
		<tag k="place" v="locality" />
		<tag k="ssr:stedsnr" v="333342" />
	</node>
	<node lat="58.378388893068845" lon="8.589333338214583" id="-34794">
		<tag k="fixme" v="consider natural=peak for the most distinct mountains in the district" />
		<tag k="name" v="Lauvknollen" />
		<tag k="natural" v="hill" />
		<tag k="place" v="locality" />
		<tag k="ssr:stedsnr" v="333343" />
	</node>
	<node lat="58.27049999673921" lon="8.459305563948167" id="-34795">
		<tag k="name" v="Dyrevarden" />
		<tag k="natural" v="hill" />
		<tag k="place" v="locality" />
		<tag k="ssr:stedsnr" v="333426" />
	</node>
	<node lat="58.38056944469708" lon="8.660047224981941" id="-34804">
		<tag k="fixme" v="consider natural=peak for the most distinct mountains in the district" />
		<tag k="name" v="Tjennheia" />
		<tag k="natural" v="hill" />
		<tag k="place" v="locality" />
		<tag k="ssr:stedsnr" v="333715" />
	</node>
	<node lat="58.293047222558286" lon="8.482936113722143" id="-34811">
		<tag k="fixme" v="consider natural=peak for the most distinct mountains in the district" />
		<tag k="name" v="Krossvollhei" />
		<tag k="natural" v="hill" />
		<tag k="place" v="locality" />
		<tag k="ssr:stedsnr" v="350356" />
	</node>
	<node lat="58.35780555746477" lon="8.516111106721175" id="-34812">
		<tag k="fixme" v="consider natural=peak for the most distinct mountains in the district" />
		<tag k="name" v="Tjennåsen" />
		<tag k="natural" v="hill" />
		<tag k="place" v="locality" />
		<tag k="ssr:stedsnr" v="350284" />
	</node>
	<node lat="58.364305551505595" lon="8.391005558914268" id="-34816">
		<tag k="name" v="Hansesknuten" />
		<tag k="natural" v="hill" />
		<tag k="place" v="locality" />
		<tag k="ssr:stedsnr" v="351495" />
	</node>
	<node lat="58.309008335883924" lon="8.532447219533775" id="-34819">
		<tag k="name" v="Dammen" />
		<tag k="place" v="locality" />
		<tag k="ssr:stedsnr" v="351301" />
	</node>
	<node lat="58.32300833223663" lon="8.537127770980158" id="-34820">
		<tag k="name" v="Ågredalen" />
		<tag k="natural" v="valley" />
		<tag k="place" v="locality" />
		<tag k="ssr:stedsnr" v="351429" />
	</node>
	<node lat="58.3169888922691" lon="8.508644446162114" id="-34821">
		<tag k="name" v="Hestehaven" />
		<tag k="natural" v="hill" />
		<tag k="place" v="locality" />
		<tag k="ssr:stedsnr" v="351447" />
	</node>
	<node lat="58.35363055621356" lon="8.385794439356463" id="-34822">
		<tag k="name" v="Fattigmannsheia" />
		<tag k="natural" v="hill" />
		<tag k="place" v="locality" />
		<tag k="ssr:stedsnr" v="351533" />
	</node>
	<node lat="58.33646666305146" lon="8.451077775543467" id="-34823">
		<tag k="fixme" v="consider natural=peak for the most distinct mountains in the district" />
		<tag k="name" v="Landåsen" />
		<tag k="natural" v="hill" />
		<tag k="place" v="locality" />
		<tag k="ssr:stedsnr" v="351823" />
	</node>
	<node lat="58.33425555529069" lon="8.397677775770147" id="-34824">
		<tag k="name" v="Brattsberg" />
		<tag k="natural" v="cliff" />
		<tag k="ssr:stedsnr" v="351761" />
	</node>
	<node lat="58.34145833757374" lon="8.428361114138053" id="-34825">
		<tag k="name" v="Urdalen" />
		<tag k="natural" v="valley" />
		<tag k="place" v="locality" />
		<tag k="ssr:stedsnr" v="351765" />
	</node>
	<node lat="58.344983330106366" lon="8.441633332150145" id="-34826">
		<tag k="name" v="Lillehei" />
		<tag k="natural" v="hill" />
		<tag k="place" v="locality" />
		<tag k="ssr:stedsnr" v="351794" />
	</node>
	<node lat="58.356427775161364" lon="8.449199992823724" id="-34828">
		<tag k="name" v="Indre Rodalshei" />
		<tag k="natural" v="hill" />
		<tag k="place" v="locality" />
		<tag k="ssr:stedsnr" v="352237" />
	</node>
	<node lat="58.363741665121225" lon="8.453450005360875" id="-34829">
		<tag k="name" v="Bjønneskotet" />
		<tag k="natural" v="valley" />
		<tag k="place" v="locality" />
		<tag k="ssr:stedsnr" v="352248" />
	</node>
	<node lat="58.360677780676475" lon="8.383522213664405" id="-34833">
		<tag k="fixme" v="consider natural=peak for the most distinct mountains in the district" />
		<tag k="name" v="Smellåsen" />
		<tag k="natural" v="hill" />
		<tag k="place" v="locality" />
		<tag k="ssr:stedsnr" v="352986" />
	</node>
	<node lat="58.35691666877501" lon="8.369499994550774" id="-34834">
		<tag k="fixme" v="consider natural=peak for the most distinct mountains in the district" />
		<tag k="name" v="Fureheia" />
		<tag k="natural" v="hill" />
		<tag k="place" v="locality" />
		<tag k="ssr:stedsnr" v="352991" />
	</node>
	<node lat="58.46619999575644" lon="8.500125007890123" id="-34836">
		<tag k="name" v="Snarbakheia" />
		<tag k="natural" v="hill" />
		<tag k="place" v="locality" />
		<tag k="ssr:stedsnr" v="355125" />
	</node>
	<node lat="58.383297220762216" lon="8.344836106106644" id="-34837">
		<tag k="name" v="Tjenneheia" />
		<tag k="natural" v="ridge" />
		<tag k="place" v="locality" />
		<tag k="ssr:stedsnr" v="356155" />
	</node>
	<node lat="58.37720833509698" lon="8.43604166773503" id="-34839">
		<tag k="name" v="Brannsteindalen" />
		<tag k="natural" v="valley" />
		<tag k="place" v="locality" />
		<tag k="ssr:stedsnr" v="356060" />
	</node>
	<node lat="58.446238891315936" lon="8.43776389387191" id="-34840">
		<tag k="name" v="Vardeheia" />
		<tag k="natural" v="hill" />
		<tag k="place" v="locality" />
		<tag k="ssr:stedsnr" v="356031" />
	</node>
	<node lat="58.43887500124307" lon="8.372297228602012" id="-34842">
		<tag k="name" v="Heitjønnheia" />
		<tag k="natural" v="hill" />
		<tag k="place" v="locality" />
		<tag k="ssr:stedsnr" v="356131" />
	</node>
	<node lat="58.43694444718099" lon="8.364680563490207" id="-34845">
		<tag k="name" v="Storrhei" />
		<tag k="natural" v="hill" />
		<tag k="place" v="locality" />
		<tag k="ssr:stedsnr" v="356098" />
	</node>
	<node lat="58.435347218963535" lon="8.365058330110218" id="-34846">
		<tag k="name" v="Urdalen" />
		<tag k="natural" v="valley" />
		<tag k="place" v="locality" />
		<tag k="ssr:stedsnr" v="356099" />
	</node>
	<node lat="58.43933055900596" lon="8.4983638884811" id="-34848">
		<tag k="name" v="Urdalsfjellet" />
		<tag k="natural" v="hill" />
		<tag k="place" v="locality" />
		<tag k="ssr:stedsnr" v="356366" />
	</node>
	<node lat="58.445050002737815" lon="8.490177776907432" id="-34850">
		<tag k="name" v="Bjørndalen" />
		<tag k="natural" v="valley" />
		<tag k="place" v="locality" />
		<tag k="ssr:stedsnr" v="356452" />
	</node>
	<node lat="58.44516944716821" lon="8.471513881545514" id="-34851">
		<tag k="name" v="Hesteknatten" />
		<tag k="natural" v="hill" />
		<tag k="place" v="locality" />
		<tag k="ssr:stedsnr" v="356464" />
	</node>
	<node lat="58.41675555449108" lon="8.547536109440822" id="-34852">
		<tag k="name" v="Røynekleiv" />
		<tag k="natural" v="slope" />
		<tag k="place" v="locality" />
		<tag k="ssr:stedsnr" v="356535" />
	</node>
	<node lat="58.41933333169904" lon="8.467977784467191" id="-34853">
		<tag k="name" v="Hovet" />
		<tag k="natural" v="slope" />
		<tag k="place" v="locality" />
		<tag k="ssr:stedsnr" v="356611" />
	</node>
	<node lat="58.41579444457291" lon="8.482052770782564" id="-34854">
		<tag k="name" v="Store Ustadheia" />
		<tag k="natural" v="hill" />
		<tag k="place" v="locality" />
		<tag k="ssr:stedsnr" v="356617" />
	</node>
	<node lat="58.39035000000985" lon="8.441530551660733" id="-34858">
		<tag k="fixme" v="consider natural=peak for the most distinct mountains in the district" />
		<tag k="name" v="Vardeheia" />
		<tag k="natural" v="hill" />
		<tag k="place" v="locality" />
		<tag k="ssr:stedsnr" v="356835" />
	</node>
	<node lat="58.398188886594355" lon="8.377513886017507" id="-34859">
		<tag k="name" v="Djupedalen" />
		<tag k="natural" v="valley" />
		<tag k="place" v="locality" />
		<tag k="ssr:stedsnr" v="356944" />
	</node>
	<node lat="58.393766662709304" lon="8.423822225050683" id="-34860">
		<tag k="name" v="Tjuvheia" />
		<tag k="natural" v="hill" />
		<tag k="place" v="locality" />
		<tag k="ssr:stedsnr" v="356852" />
	</node>
	<node lat="58.40879999792416" lon="8.389983328263325" id="-34861">
		<tag k="name" v="Bjortjenndalen" />
		<tag k="natural" v="valley" />
		<tag k="place" v="locality" />
		<tag k="ssr:stedsnr" v="356887" />
	</node>
	<node lat="58.401544447412064" lon="8.414594440081949" id="-34862">
		<tag k="name" v="Badstuheia" />
		<tag k="natural" v="hill" />
		<tag k="place" v="locality" />
		<tag k="ssr:stedsnr" v="356895" />
	</node>
	<node lat="58.41146666505278" lon="8.531036113158828" id="-34864">
		<tag k="fixme" v="consider natural=peak for the most distinct mountains in the district" />
		<tag k="name" v="Orrefjella" />
		<tag k="natural" v="hill" />
		<tag k="place" v="locality" />
		<tag k="ssr:stedsnr" v="356978" />
	</node>
	<node lat="58.34360000262844" lon="8.365338885248045" id="-34929">
		<tag k="fixme" v="consider natural=peak for the most distinct mountains in the district" />
		<tag k="name" v="Jordåsen" />
		<tag k="natural" v="hill" />
		<tag k="place" v="locality" />
		<tag k="ssr:stedsnr" v="364385" />
	</node>
	<node lat="58.39173055655002" lon="8.355436103242397" id="-34930">
		<tag k="fixme" v="consider natural=peak for the most distinct mountains in the district" />
		<tag k="name" v="Solliheia" />
		<tag k="natural" v="hill" />
		<tag k="place" v="locality" />
		<tag k="ssr:stedsnr" v="364326" />
	</node>
	<node lat="58.40818055763104" lon="8.335961118975117" id="-34932">
		<tag k="fixme" v="consider natural=peak for the most distinct mountains in the district" />
		<tag k="name" v="Risdalsheia" />
		<tag k="natural" v="hill" />
		<tag k="place" v="locality" />
		<tag k="ssr:stedsnr" v="364442" />
	</node>
	<node lat="58.4062666642975" lon="8.417452778045254" id="-34942">
		<tag k="alt_name" v="Hestheia;Hesteheia" />
		<tag k="fixme" v="consider natural=peak for the most distinct mountains in the district" />
		<tag k="name" v="Hestehei" />
		<tag k="natural" v="hill" />
		<tag k="place" v="locality" />
		<tag k="ssr:stedsnr" v="364895" />
	</node>
	<node lat="58.40238888781587" lon="8.601083334543002" id="-34949">
		<tag k="fixme" v="consider natural=peak for the most distinct mountains in the district" />
		<tag k="name" v="Skiffelåsen" />
		<tag k="natural" v="hill" />
		<tag k="place" v="locality" />
		<tag k="ssr:stedsnr" v="394271" />
	</node>
	<node lat="58.406277778284085" lon="8.582694442562671" id="-34950">
		<tag k="fixme" v="consider natural=peak for the most distinct mountains in the district" />
		<tag k="name" v="Husfjell" />
		<tag k="natural" v="hill" />
		<tag k="place" v="locality" />
		<tag k="ssr:stedsnr" v="394276" />
	</node>
	<node lat="58.36144444850142" lon="8.576500001260131" id="-34954">
		<tag k="fixme" v="consider natural=peak for the most distinct mountains in the district" />
		<tag k="name" v="Bråstadheia" />
		<tag k="natural" v="hill" />
		<tag k="place" v="locality" />
		<tag k="ssr:stedsnr" v="394288" />
	</node>
	<node lat="58.3775472215629" lon="8.69538055401319" id="-34957">
		<tag k="name" v="Randvighallen" />
		<tag k="natural" v="slope" />
		<tag k="place" v="locality" />
		<tag k="ssr:stedsnr" v="394721" />
	</node>
	<node lat="58.380641662928035" lon="8.696569436748721" id="-34958">
		<tag k="fixme" v="consider natural=peak for the most distinct mountains in the district" />
		<tag k="name" v="Trollfjell" />
		<tag k="natural" v="hill" />
		<tag k="place" v="locality" />
		<tag k="ssr:stedsnr" v="394723" />
	</node>
	<node lat="58.40728888612212" lon="8.615077782623663" id="-34960">
		<tag k="fixme" v="consider natural=peak for the most distinct mountains in the district" />
		<tag k="name" v="Kvernåsen" />
		<tag k="natural" v="hill" />
		<tag k="place" v="locality" />
		<tag k="ssr:stedsnr" v="394362" />
	</node>
	<node lat="58.39834166621338" lon="8.61652500770617" id="-34963">
		<tag k="name" v="Lammerdalen" />
		<tag k="natural" v="valley" />
		<tag k="place" v="locality" />
		<tag k="ssr:stedsnr" v="394377" />
	</node>
	<node lat="58.34547221847809" lon="8.586194451781216" id="-34967">
		<tag k="name" v="Fløyheia" />
		<tag k="natural" v="ridge" />
		<tag k="place" v="locality" />
		<tag k="ssr:stedsnr" v="394447" />
	</node>
	<node lat="58.36613888701541" lon="8.66102777383768" id="-34968">
		<tag k="name" v="Badstudalen" />
		<tag k="natural" v="valley" />
		<tag k="place" v="locality" />
		<tag k="ssr:stedsnr" v="394457" />
	</node>
	<node lat="58.361361115601554" lon="8.633305559974842" id="-34970">
		<tag k="fixme" v="consider natural=peak for the most distinct mountains in the district" />
		<tag k="name" v="Steinulvsheia" />
		<tag k="natural" v="hill" />
		<tag k="place" v="locality" />
		<tag k="ssr:stedsnr" v="394468" />
	</node>
	<node lat="58.35430555882048" lon="8.638777775311796" id="-34971">
		<tag k="fixme" v="consider natural=peak for the most distinct mountains in the district" />
		<tag k="name" v="Åsen" />
		<tag k="natural" v="hill" />
		<tag k="place" v="locality" />
		<tag k="ssr:stedsnr" v="394470" />
	</node>
	<node lat="58.35080555662821" lon="8.631805552797953" id="-34973">
		<tag k="fixme" v="consider natural=peak for the most distinct mountains in the district" />
		<tag k="name" v="Gullefjell" />
		<tag k="natural" v="hill" />
		<tag k="place" v="locality" />
		<tag k="ssr:stedsnr" v="394477" />
	</node>
	<node lat="58.28702777722556" lon="8.446333331614127" id="-34983">
		<tag k="name" v="Pengeskrinsheia" />
		<tag k="natural" v="hill" />
		<tag k="place" v="locality" />
		<tag k="ssr:stedsnr" v="411375" />
	</node>
	<node lat="58.30006944507184" lon="8.482527774772542" id="-34984">
		<tag k="name" v="Inntjore knatten" />
		<tag k="natural" v="ridge" />
		<tag k="place" v="locality" />
		<tag k="ssr:stedsnr" v="411382" />
	</node>
	<node lat="58.35496111017376" lon="8.523497225894268" id="-34985">
		<tag k="name" v="Store Imås" />
		<tag k="natural" v="hill" />
		<tag k="place" v="locality" />
		<tag k="ssr:stedsnr" v="411308" />
	</node>
	<node lat="58.340316666223345" lon="8.432730553753618" id="-34987">
		<tag k="name" v="Kjerka" />
		<tag k="natural" v="valley" />
		<tag k="place" v="locality" />
		<tag k="ssr:stedsnr" v="411774" />
	</node>
	<node lat="58.31969166843957" lon="8.408986106879247" id="-34989">
		<tag k="fixme" v="consider natural=peak for the most distinct mountains in the district" />
		<tag k="name" v="Hisåsen" />
		<tag k="natural" v="hill" />
		<tag k="place" v="locality" />
		<tag k="ssr:stedsnr" v="411627" />
	</node>
	<node lat="58.352361113409046" lon="8.527500000278105" id="-34990">
		<tag k="fixme" v="consider natural=peak for the most distinct mountains in the district" />
		<tag k="name" v="Lille Imås" />
		<tag k="natural" v="hill" />
		<tag k="place" v="locality" />
		<tag k="ssr:stedsnr" v="412325" />
	</node>
	<node lat="58.366469440469004" lon="8.38861388225398" id="-34995">
		<tag k="name" v="Iletjennknuten" />
		<tag k="natural" v="hill" />
		<tag k="place" v="locality" />
		<tag k="ssr:stedsnr" v="412461" />
	</node>
	<node lat="58.359805556461836" lon="8.405302781706999" id="-34996">
		<tag k="name" v="Kragen" />
		<tag k="place" v="locality" />
		<tag k="ssr:stedsnr" v="412463" />
	</node>
	<node lat="58.337402778368144" lon="8.425522225259426" id="-34997">
		<tag k="name" v="Kvilebakke" />
		<tag k="natural" v="slope" />
		<tag k="place" v="locality" />
		<tag k="ssr:stedsnr" v="412725" />
	</node>
	<node lat="58.33959722147764" lon="8.45994443741956" id="-34998">
		<tag k="name" v="Snøhommerknatten" />
		<tag k="natural" v="hill" />
		<tag k="place" v="locality" />
		<tag k="ssr:stedsnr" v="412753" />
	</node>
	<node lat="58.36096110912752" lon="8.351936105882197" id="-35001">
		<tag k="fixme" v="consider natural=peak for the most distinct mountains in the district" />
		<tag k="name" v="Hundlandsfjella" />
		<tag k="natural" v="hill" />
		<tag k="place" v="locality" />
		<tag k="ssr:stedsnr" v="412935" />
	</node>
	<node lat="58.35502499653486" lon="8.350061104284764" id="-35003">
		<tag k="name" v="Åreknullen" />
		<tag k="natural" v="hill" />
		<tag k="place" v="locality" />
		<tag k="ssr:stedsnr" v="412980" />
	</node>
	<node lat="58.3574277786964" lon="8.386613896608296" id="-35004">
		<tag k="fixme" v="consider natural=peak for the most distinct mountains in the district" />
		<tag k="name" v="Grindåsen" />
		<tag k="natural" v="hill" />
		<tag k="place" v="locality" />
		<tag k="ssr:stedsnr" v="412985" />
	</node>
	<node lat="58.447316670485186" lon="8.379247228600008" id="-35005">
		<tag k="name" v="Torneknapen" />
		<tag k="natural" v="hill" />
		<tag k="place" v="locality" />
		<tag k="ssr:stedsnr" v="416122" />
	</node>
	<node lat="58.41896666880386" lon="8.43014444689611" id="-35006">
		<tag k="name" v="Sandtjennheia" />
		<tag k="natural" v="hill" />
		<tag k="place" v="locality" />
		<tag k="ssr:stedsnr" v="417333" />
	</node>
	<node lat="58.379866666959686" lon="8.530822226223258" id="-35008">
		<tag k="name" v="Lieheia" />
		<tag k="natural" v="hill" />
		<tag k="place" v="locality" />
		<tag k="ssr:stedsnr" v="417424" />
	</node>
	<node lat="58.37330000327959" lon="8.524508327244742" id="-35009">
		<tag k="name" v="Simonshei" />
		<tag k="natural" v="hill" />
		<tag k="place" v="locality" />
		<tag k="ssr:stedsnr" v="417428" />
	</node>
	<node lat="58.37479999714628" lon="8.408711105651038" id="-35012">
		<tag k="name" v="Svåane" />
		<tag k="natural" v="slope" />
		<tag k="place" v="locality" />
		<tag k="ssr:stedsnr" v="417044" />
	</node>
	<node lat="58.45723888769664" lon="8.45316111330365" id="-35017">
		<tag k="name" v="Midtheia" />
		<tag k="natural" v="hill" />
		<tag k="place" v="locality" />
		<tag k="ssr:stedsnr" v="417169" />
	</node>
	<node lat="58.37971666360288" lon="8.35513054794571" id="-35019">
		<tag k="name" v="Krossvardheia" />
		<tag k="natural" v="hill" />
		<tag k="place" v="locality" />
		<tag k="ssr:stedsnr" v="417184" />
	</node>
	<node lat="58.45126944199884" lon="8.501208333532276" id="-35021">
		<tag k="fixme" v="consider natural=peak for the most distinct mountains in the district" />
		<tag k="name" v="Vannekjerråsen" />
		<tag k="natural" v="hill" />
		<tag k="place" v="locality" />
		<tag k="ssr:stedsnr" v="417360" />
	</node>
	<node lat="58.45244166425446" lon="8.507413880898573" id="-35023">
		<tag k="fixme" v="consider natural=peak for the most distinct mountains in the district" />
		<tag k="name" v="Helgesmyrknatten" />
		<tag k="natural" v="hill" />
		<tag k="place" v="locality" />
		<tag k="ssr:stedsnr" v="417368" />
	</node>
	<node lat="58.44575277893125" lon="8.459063887553981" id="-35026">
		<tag k="name" v="Torundshei" />
		<tag k="natural" v="hill" />
		<tag k="place" v="locality" />
		<tag k="ssr:stedsnr" v="417476" />
	</node>
	<node lat="58.43219166721914" lon="8.489422218847984" id="-35028">
		<tag k="fixme" v="consider natural=peak for the most distinct mountains in the district" />
		<tag k="name" v="Tverrhei" />
		<tag k="natural" v="hill" />
		<tag k="place" v="locality" />
		<tag k="ssr:stedsnr" v="417524" />
	</node>
	<node lat="58.413650002245866" lon="8.47017221691799" id="-35029">
		<tag k="name" v="Tjærehei" />
		<tag k="natural" v="hill" />
		<tag k="place" v="locality" />
		<tag k="ssr:stedsnr" v="417626" />
	</node>
	<node lat="58.3998694436245" lon="8.493552785113021" id="-35032">
		<tag k="name" v="Ingeborgsli" />
		<tag k="natural" v="slope" />
		<tag k="place" v="locality" />
		<tag k="ssr:stedsnr" v="417858" />
	</node>
	<node lat="58.4181916633315" lon="8.533049995909785" id="-35069">
		<tag k="fixme" v="consider natural=peak for the most distinct mountains in the district" />
		<tag k="name" v="Joknåsen" />
		<tag k="natural" v="hill" />
		<tag k="place" v="locality" />
		<tag k="ssr:stedsnr" v="425566" />
	</node>
	<node lat="58.40705555631839" lon="8.59163888680974" id="-35101">
		<tag k="fixme" v="consider natural=peak for the most distinct mountains in the district" />
		<tag k="name" v="Skonkeheia" />
		<tag k="natural" v="hill" />
		<tag k="place" v="locality" />
		<tag k="ssr:stedsnr" v="515281" />
	</node>
	<node lat="58.35105555429026" lon="8.602777771973082" id="-35103">
		<tag k="fixme" v="consider natural=peak for the most distinct mountains in the district" />
		<tag k="name" v="Storåsen" />
		<tag k="natural" v="hill" />
		<tag k="place" v="locality" />
		<tag k="ssr:stedsnr" v="515294" />
	</node>
	<node lat="58.39701666856628" lon="8.619713895811374" id="-35105">
		<tag k="fixme" v="consider natural=peak for the most distinct mountains in the district" />
		<tag k="name" v="Stemtjennheia" />
		<tag k="natural" v="hill" />
		<tag k="place" v="locality" />
		<tag k="ssr:stedsnr" v="515388" />
	</node>
	<node lat="58.35594444147762" lon="8.625944437312407" id="-35108">
		<tag k="name" v="Bjørkeris" />
		<tag k="natural" v="slope" />
		<tag k="place" v="locality" />
		<tag k="ssr:stedsnr" v="515465" />
	</node>
	<node lat="58.35980555245937" lon="8.665500000111898" id="-35112">
		<tag k="fixme" v="consider natural=peak for the most distinct mountains in the district" />
		<tag k="name" v="Brennåsflaten" />
		<tag k="natural" v="hill" />
		<tag k="place" v="locality" />
		<tag k="ssr:stedsnr" v="515457" />
	</node>
	<node lat="58.28273055592205" lon="8.484255559662218" id="-35117">
		<tag k="name" v="Tverrdalen" />
		<tag k="natural" v="valley" />
		<tag k="place" v="locality" />
		<tag k="ssr:stedsnr" v="533393" />
	</node>
	<node lat="58.28476388879156" lon="8.4645361078343" id="-35118">
		<tag k="name" v="Harfjell" />
		<tag k="natural" v="hill" />
		<tag k="place" v="locality" />
		<tag k="ssr:stedsnr" v="533399" />
	</node>
	<node lat="58.28958888684518" lon="8.441905562810037" id="-35120">
		<tag k="name" v="Linnekleiv" />
		<tag k="natural" v="slope" />
		<tag k="place" v="locality" />
		<tag k="ssr:stedsnr" v="533408" />
	</node>
	<node lat="58.352444442922625" lon="8.441027781178832" id="-35124">
		<tag k="name" v="Rossdalen" />
		<tag k="natural" v="valley" />
		<tag k="place" v="locality" />
		<tag k="ssr:stedsnr" v="533547" />
	</node>
	<node lat="58.3585527742654" lon="8.42880832713891" id="-35125">
		<tag k="name" v="Urdalen" />
		<tag k="natural" v="valley" />
		<tag k="place" v="locality" />
		<tag k="ssr:stedsnr" v="533548" />
	</node>
	<node lat="58.31178611205995" lon="8.434297218404359" id="-35126">
		<tag k="name" v="Rundeheia" />
		<tag k="natural" v="hill" />
		<tag k="place" v="locality" />
		<tag k="ssr:stedsnr" v="533656" />
	</node>
	<node lat="58.32129999914404" lon="8.436424998295157" id="-35128">
		<tag k="name" v="Stemheia" />
		<tag k="natural" v="hill" />
		<tag k="place" v="locality" />
		<tag k="ssr:stedsnr" v="533660" />
	</node>
	<node lat="58.323577778206435" lon="8.52559444598429" id="-35136">
		<tag k="name" v="Ågreheia" />
		<tag k="natural" v="slope" />
		<tag k="place" v="locality" />
		<tag k="ssr:stedsnr" v="534457" />
	</node>
	<node lat="58.36069722205192" lon="8.386305553937222" id="-35138">
		<tag k="fixme" v="consider natural=peak for the most distinct mountains in the district" />
		<tag k="name" v="Langåsen" />
		<tag k="natural" v="hill" />
		<tag k="place" v="locality" />
		<tag k="ssr:stedsnr" v="534513" />
	</node>
	<node lat="58.33831388529319" lon="8.48261389037291" id="-35139">
		<tag k="name" v="Storefladehei" />
		<tag k="natural" v="hill" />
		<tag k="place" v="locality" />
		<tag k="ssr:stedsnr" v="534845" />
	</node>
	<node lat="58.367061108671805" lon="8.338397224258097" id="-35140">
		<tag k="name" v="Skudefjell" />
		<tag k="natural" v="hill" />
		<tag k="place" v="locality" />
		<tag k="ssr:stedsnr" v="534952" />
	</node>
	<node lat="58.3624777765821" lon="8.354069449328081" id="-35141">
		<tag k="name" v="Hellestokkheia" />
		<tag k="natural" v="hill" />
		<tag k="place" v="locality" />
		<tag k="ssr:stedsnr" v="534994" />
	</node>
	<node lat="58.44602777959178" lon="8.477561114270975" id="-35142">
		<tag k="fixme" v="consider natural=peak for the most distinct mountains in the district" />
		<tag k="name" v="Skrubbeknatten" />
		<tag k="natural" v="hill" />
		<tag k="place" v="locality" />
		<tag k="ssr:stedsnr" v="538485" />
	</node>
	<node lat="58.38459444562887" lon="8.363963880717" id="-35145">
		<tag k="name" v="Dolholttjenndalen" />
		<tag k="natural" v="valley" />
		<tag k="place" v="locality" />
		<tag k="ssr:stedsnr" v="538159" />
	</node>
	<node lat="58.47275277358542" lon="8.450225000992914" id="-35149">
		<tag k="name" v="Djupedal" />
		<tag k="natural" v="valley" />
		<tag k="place" v="locality" />
		<tag k="ssr:stedsnr" v="538235" />
	</node>
	<node lat="58.45874444038602" lon="8.438174998087694" id="-35150">
		<tag k="fixme" v="consider natural=peak for the most distinct mountains in the district" />
		<tag k="name" v="Timmeråsen" />
		<tag k="natural" v="hill" />
		<tag k="place" v="locality" />
		<tag k="ssr:stedsnr" v="538240" />
	</node>
	<node lat="58.43984444272161" lon="8.506752776470796" id="-35153">
		<tag k="name" v="Furråsen" />
		<tag k="natural" v="ridge" />
		<tag k="place" v="locality" />
		<tag k="ssr:stedsnr" v="538394" />
	</node>
	<node lat="58.39185555858147" lon="8.442541664078949" id="-35156">
		<tag k="name" v="Holtjenndalen" />
		<tag k="natural" v="valley" />
		<tag k="place" v="locality" />
		<tag k="ssr:stedsnr" v="538840" />
	</node>
	<node lat="58.39700277986653" lon="8.483283337505343" id="-35157">
		<tag k="name" v="Kjellerdalen" />
		<tag k="natural" v="valley" />
		<tag k="place" v="locality" />
		<tag k="ssr:stedsnr" v="538847" />
	</node>
	<node lat="58.403700004440516" lon="8.389572223429841" id="-35158">
		<tag k="name" v="Øyeheia" />
		<tag k="natural" v="hill" />
		<tag k="place" v="locality" />
		<tag k="ssr:stedsnr" v="538952" />
	</node>
	<node lat="58.39996388911784" lon="8.333202771786311" id="-35160">
		<tag k="name" v="Rondetjennheia" />
		<tag k="natural" v="hill" />
		<tag k="place" v="locality" />
		<tag k="ssr:stedsnr" v="538969" />
	</node>
	<node lat="58.26491666283299" lon="8.44038889242036" id="-35240">
		<tag k="name" v="Ramsdal" />
		<tag k="natural" v="valley" />
		<tag k="place" v="locality" />
		<tag k="ssr:stedsnr" v="575090" />
	</node>
	<node lat="58.396880557219525" lon="8.686125005268284" id="-35259">
		<tag k="name" v="Gitdalen" />
		<tag k="natural" v="valley" />
		<tag k="place" v="locality" />
		<tag k="ssr:stedsnr" v="576775" />
	</node>
	<node lat="58.355922222423814" lon="8.511630558884859" id="-35262">
		<tag k="name" v="Rånnelia" />
		<tag k="natural" v="slope" />
		<tag k="place" v="locality" />
		<tag k="ssr:stedsnr" v="593291" />
	</node>
	<node lat="58.33573332975466" lon="8.421474998914867" id="-35264">
		<tag k="name" v="Gommestol" />
		<tag k="place" v="locality" />
		<tag k="ssr:stedsnr" v="593726" />
	</node>
	<node lat="58.36436944633334" lon="8.386836105087603" id="-35272">
		<tag k="name" v="Osedalen" />
		<tag k="natural" v="valley" />
		<tag k="place" v="locality" />
		<tag k="ssr:stedsnr" v="594491" />
	</node>
	<node lat="58.348252778016125" lon="8.378638886077589" id="-35273">
		<tag k="name" v="Halseheia" />
		<tag k="natural" v="hill" />
		<tag k="place" v="locality" />
		<tag k="ssr:stedsnr" v="594495" />
	</node>
	<node lat="58.36218889282473" lon="8.346330562892499" id="-35275">
		<tag k="fixme" v="consider natural=peak for the most distinct mountains in the district" />
		<tag k="name" v="Plasseheia" />
		<tag k="natural" v="hill" />
		<tag k="place" v="locality" />
		<tag k="ssr:stedsnr" v="594937" />
	</node>
	<node lat="58.455027776453136" lon="8.40264443937487" id="-35277">
		<tag k="fixme" v="consider natural=peak for the most distinct mountains in the district" />
		<tag k="name" v="Ribbåsen" />
		<tag k="natural" v="hill" />
		<tag k="place" v="locality" />
		<tag k="ssr:stedsnr" v="598229" />
	</node>
	<node lat="58.416719444687544" lon="8.43405833563434" id="-35281">
		<tag k="name" v="Søyletjenndalen" />
		<tag k="natural" v="valley" />
		<tag k="place" v="locality" />
		<tag k="ssr:stedsnr" v="598296" />
	</node>
	<node lat="58.43546110814126" lon="8.487513893356343" id="-35287">
		<tag k="name" v="Trolldalen" />
		<tag k="natural" v="valley" />
		<tag k="place" v="locality" />
		<tag k="ssr:stedsnr" v="598473" />
	</node>
	<node lat="58.41258055968843" lon="8.484727773164154" id="-35288">
		<tag k="name" v="Skiftenes edellauvskogreservat" />
		<tag k="natural" v="slope" />
		<tag k="place" v="locality" />
		<tag k="ssr:stedsnr" v="598591" />
	</node>
	<node lat="58.400761109963405" lon="8.448558341796492" id="-35289">
		<tag k="name" v="Øygardsheia" />
		<tag k="natural" v="hill" />
		<tag k="place" v="locality" />
		<tag k="ssr:stedsnr" v="598781" />
	</node>
	<node lat="58.40103055315993" lon="8.445463896912385" id="-35290">
		<tag k="name" v="Ormetjønndalen" />
		<tag k="natural" v="valley" />
		<tag k="place" v="locality" />
		<tag k="ssr:stedsnr" v="598790" />
	</node>
	<node lat="58.37988333077591" lon="8.38169166483543" id="-35292">
		<tag k="name" v="Granemyrheia" />
		<tag k="natural" v="hill" />
		<tag k="place" v="locality" />
		<tag k="ssr:stedsnr" v="599122" />
	</node>
	<node lat="58.417408333067215" lon="8.45931666917797" id="-35295">
		<tag k="name" v="Asbjørnshei" />
		<tag k="natural" v="hill" />
		<tag k="place" v="locality" />
		<tag k="ssr:stedsnr" v="599621" />
	</node>
	<node lat="58.38834722535782" lon="8.524838894752214" id="-35297">
		<tag k="name" v="Reveheia" />
		<tag k="natural" v="hill" />
		<tag k="place" v="locality" />
		<tag k="ssr:stedsnr" v="599765" />
	</node>
	<node lat="58.389799997514224" lon="8.356386116314864" id="-35298">
		<tag k="name" v="Styggedalen" />
		<tag k="natural" v="valley" />
		<tag k="place" v="locality" />
		<tag k="ssr:stedsnr" v="599920" />
	</node>
	<node lat="58.409677778684845" lon="8.358077785393986" id="-35299">
		<tag k="name" v="Himmelriksheia" />
		<tag k="natural" v="hill" />
		<tag k="place" v="locality" />
		<tag k="ssr:stedsnr" v="599988" />
	</node>
</osm>
