<?xml version="1.0" encoding="UTF-8"?>
<osm version="0.6" generator="osmapis">
	<node lat="58.39379721813121" lon="8.706705547224885" id="-54648">
		<tag k="name" v="Gokast" />
		<tag k="place" v="locality" />
		<tag k="ssr:stedsnr" v="394751" />
	</node>
	<node lat="58.35755555363194" lon="8.664416667706172" id="-54786">
		<tag k="name" v="Hvilefjell" />
		<tag k="place" v="locality" />
		<tag k="ssr:stedsnr" v="455421" />
	</node>
	<node lat="58.34320833528055" lon="8.595163882865661" id="-55082">
		<tag k="amenity" v="place_of_worship" />
		<tag k="denomination" v="lutheran" />
		<tag k="name" v="Grimstad kirke" />
		<tag k="religion" v="christian" />
		<tag k="ssr:stedsnr" v="566617" />
	</node>
	<node lat="58.35705277447284" lon="8.454600005406533" id="-55119">
		<tag k="name" v="Lundesag" />
		<tag k="place" v="locality" />
		<tag k="ssr:stedsnr" v="594262" />
	</node>
	<node lat="58.2699500028423" lon="8.478102785776992" id="-55194">
		<tag k="amenity" v="place_of_worship" />
		<tag k="denomination" v="lutheran" />
		<tag k="name" v="Eide kirke" />
		<tag k="religion" v="christian" />
		<tag k="ssr:stedsnr" v="606964" />
	</node>
	<node lat="58.34160376054538" lon="8.52234822750445" id="-55660">
		<tag k="amenity" v="place_of_worship" />
		<tag k="denomination" v="lutheran" />
		<tag k="name" v="Landvik kirke" />
		<tag k="religion" v="christian" />
		<tag k="ssr:stedsnr" v="910530" />
	</node>
	<node lat="58.36615555605202" lon="8.594713890655417" id="-55763">
		<tag k="alt_name" v="Fjære" />
		<tag k="amenity" v="place_of_worship" />
		<tag k="denomination" v="lutheran" />
		<tag k="name" v="Fjære kirke" />
		<tag k="religion" v="christian" />
		<tag k="ssr:stedsnr" v="850533" />
	</node>
	<node lat="58.386797223799654" lon="8.6530333268853" id="-56219">
		<tag k="name" v="Hauene" />
		<tag k="place" v="locality" />
		<tag k="ssr:stedsnr" v="90692" />
	</node>
	<node lat="58.406249997084274" lon="8.603111112744994" id="-57388">
		<tag k="name" v="Bjørka" />
		<tag k="place" v="locality" />
		<tag k="ssr:stedsnr" v="636289" />
	</node>
	<node lat="58.260972219784335" lon="8.449527773757492" id="-57643">
		<tag k="name" v="Båsen" />
		<tag k="place" v="locality" />
		<tag k="ssr:stedsnr" v="758451" />
	</node>
	<node lat="58.36161111175462" lon="8.610861112702757" id="-57837">
		<tag k="name" v="Fidja" />
		<tag k="place" v="locality" />
		<tag k="ssr:stedsnr" v="819476" />
	</node>
	<node lat="58.29230555794892" lon="8.55188888858313" id="-58020">
		<tag k="name" v="Kryssen" />
		<tag k="place" v="locality" />
		<tag k="ssr:stedsnr" v="879359" />
	</node>
</osm>
