<?xml version="1.0" encoding="UTF-8"?>
<<<<<<< HEAD
<osm version="0.6" generator="osmapis">
	<node lat="58.358949997975884" lon="8.478091671321973" id="-20944">
		<tag k="name" v="Lyngholmen" />
		<tag k="place" v="islet" />
		<tag k="ssr:stedsnr" v="521" />
	</node>
	<node lat="58.41875833510203" lon="8.432658328060763" id="-20948">
		<tag k="name" v="Sandtjenn" />
		<tag k="natural" v="water" />
		<tag k="ssr:stedsnr" v="421" />
	</node>
	<node lat="58.474188892596445" lon="8.477052769576243" id="-20949">
		<tag k="name" v="Snøløsvann" />
=======
<osm generator="osmapis" version="0.6">
	<node id="-485375" lat="58.4223194424" lon="8.60364721534">
		<tag k="name" v="Tangestrømmen" />
		<tag k="ssr:stedsnr" v="29829" />
		<tag k="waterway" v="rapids" />
	</node>
	<node id="-485365" lat="58.3425250023" lon="8.72920555819">
		<tag k="name" v="Sandoddryggene" />
		<tag k="place" v="locality" />
		<tag k="ssr:stedsnr" v="982" />
	</node>
	<node id="-485032" lat="58.4023055525" lon="8.57838888681">
		<tag k="name" v="Store Bjørnvik" />
		<tag k="natural" v="bay" />
		<tag k="ssr:stedsnr" v="758315" />
	</node>
	<node id="-485358" lat="58.2988444432" lon="8.47890555444">
		<tag k="fixme" v="multiple name tags, choose one and add the other to alt_name" />
		<tag k="name" v="Inntjore Kroktjenn;Kverntjern" />
		<tag k="natural" v="water" />
		<tag k="ssr:stedsnr" v="951" />
	</node>
	<node id="-485356" lat="58.400549996" lon="8.5947083364">
		<tag k="alt_name" v="Bjortjenn" />
		<tag k="name" v="Bjortjern" />
		<tag k="natural" v="water" />
		<tag k="ssr:stedsnr" v="539" />
	</node>
	<node id="-485353" lat="58.358949998" lon="8.47809167132">
		<tag k="name" v="Lyngholmen" />
		<tag k="place" v="islet" />
		<tag k="ssr:stedsnr" v="521" />
	</node>
	<node id="-487078" lat="58.3780055587" lon="8.42091943746">
		<tag k="name" v="Lommetveittjenn" />
		<tag k="natural" v="water" />
		<tag k="ssr:stedsnr" v="789351" />
	</node>
	<node id="-485345" lat="58.3397000008" lon="8.33836665879">
		<tag k="name" v="Stigselva" />
		<tag k="ssr:stedsnr" v="278" />
		<tag k="waterway" v="river" />
	</node>
	<node id="-485029" lat="58.3960277778" lon="8.57986110474">
		<tag k="name" v="Ronsebakktjenn" />
		<tag k="natural" v="water" />
		<tag k="ssr:stedsnr" v="758309" />
	</node>
	<node id="-487376" lat="58.3965638894" lon="8.50385555512">
		<tag k="name" v="Urdalstjenn" />
		<tag k="natural" v="water" />
		<tag k="ssr:stedsnr" v="963777" />
	</node>
	<node id="-487375" lat="58.3916111069" lon="8.50281389341">
		<tag k="name" v="Støletjenn" />
		<tag k="natural" v="water" />
		<tag k="ssr:stedsnr" v="963775" />
	</node>
	<node id="-487368" lat="58.3788416662" lon="8.53970555857">
		<tag k="name" v="Liekilen" />
		<tag k="natural" v="water" />
		<tag k="ssr:stedsnr" v="963422" />
	</node>
	<node id="-487366" lat="58.4702194473" lon="8.48231666197">
		<tag k="name" v="Ommundstjønn" />
		<tag k="natural" v="water" />
		<tag k="ssr:stedsnr" v="963243" />
	</node>
	<node id="-487365" lat="58.3775444424" lon="8.36022500763">
		<tag k="name" v="Stemtjenn" />
		<tag k="natural" v="water" />
		<tag k="ssr:stedsnr" v="963201" />
	</node>
	<node id="-487359" lat="58.4253361092" lon="8.37721666153">
		<tag k="name" v="Lille Rosevatn" />
		<tag k="natural" v="water" />
		<tag k="ssr:stedsnr" v="963279" />
	</node>
	<node id="-487357" lat="58.437958331" lon="8.41265277388">
		<tag k="name" v="Kringletjønn" />
		<tag k="natural" v="water" />
		<tag k="ssr:stedsnr" v="963043" />
	</node>
	<node id="-487355" lat="58.3662444443" lon="8.37581667232">
		<tag k="name" v="Osevatnet" />
		<tag k="natural" v="water" />
		<tag k="ssr:stedsnr" v="959998" />
		<tag k="water" v="lake" />
	</node>
	<node id="-487354" lat="58.3521555515" lon="8.33184166195">
		<tag k="name" v="Byttingsholmen" />
		<tag k="place" v="islet" />
		<tag k="ssr:stedsnr" v="959971" />
	</node>
	<node id="-487349" lat="58.2860555512" lon="8.50153332912">
		<tag k="name" v="Vågsholttjenna" />
		<tag k="natural" v="water" />
		<tag k="ssr:stedsnr" v="959449" />
	</node>
	<node id="-487342" lat="58.3556638908" lon="8.49109721616">
		<tag k="name" v="Nordstrand" />
		<tag k="natural" v="beach" />
		<tag k="ssr:stedsnr" v="959223" />
	</node>
	<node id="-485281" lat="58.3879611123" lon="8.33275833012">
		<tag k="name" v="Steinsvann" />
		<tag k="natural" v="water" />
		<tag k="ssr:stedsnr" v="963977" />
		<tag k="water" v="lake" />
	</node>
	<node id="-485276" lat="58.4174916626" lon="8.3912666635">
		<tag k="name" v="Volletjenn" />
		<tag k="natural" v="water" />
		<tag k="ssr:stedsnr" v="963717" />
	</node>
	<node id="-485273" lat="58.4544527744" lon="8.4343138839">
		<tag k="name" v="Søyletjønn" />
		<tag k="natural" v="water" />
		<tag k="ssr:stedsnr" v="963262" />
	</node>
	<node id="-485266" lat="58.3544472203" lon="8.51517777197">
		<tag k="name" v="Store Luetjenn" />
		<tag k="natural" v="water" />
		<tag k="ssr:stedsnr" v="957308" />
	</node>
	<node id="-484675" lat="58.3645833313" lon="8.64941667411">
		<tag k="name" v="Grefstadbekken" />
		<tag k="ssr:stedsnr" v="636455" />
		<tag k="waterway" v="stream" />
	</node>
	<node id="-487312" lat="58.4040694404" lon="8.55049166074">
		<tag k="name" v="Salvestjern" />
		<tag k="natural" v="water" />
		<tag k="ssr:stedsnr" v="850566" />
	</node>
	<node id="-487311" lat="58.409677775" lon="8.49809722666">
		<tag k="name" v="Stemvannet" />
		<tag k="natural" v="water" />
		<tag k="ssr:stedsnr" v="850556" />
		<tag k="water" v="lake" />
	</node>
	<node id="-487304" lat="58.4298027779" lon="8.45136389621">
		<tag k="name" v="Midtvannet" />
		<tag k="natural" v="water" />
		<tag k="ssr:stedsnr" v="850440" />
		<tag k="water" v="lake" />
	</node>
	<node id="-487300" lat="58.4468777789" lon="8.43118055129">
		<tag k="name" v="Kvernevannet" />
		<tag k="natural" v="water" />
		<tag k="ssr:stedsnr" v="850397" />
	</node>
	<node id="-485249" lat="58.4120750012" lon="8.33672500098">
		<tag k="name" v="Moltetjenn" />
		<tag k="natural" v="water" />
		<tag k="ssr:stedsnr" v="910408" />
	</node>
	<node id="-485241" lat="58.4123694454" lon="8.4461833263">
		<tag k="name" v="Nedre Knabevann" />
		<tag k="natural" v="water" />
		<tag k="ssr:stedsnr" v="903566" />
		<tag k="water" v="lake" />
	</node>
	<node id="-485237" lat="58.3757694446" lon="8.37347222062">
		<tag k="name" v="Søyletjenn" />
		<tag k="natural" v="water" />
		<tag k="ssr:stedsnr" v="903160" />
	</node>
	<node id="-485235" lat="58.3999361093" lon="8.36679166397">
		<tag k="name" v="Blektjenn" />
		<tag k="natural" v="water" />
		<tag k="ssr:stedsnr" v="902959" />
	</node>
	<node id="-485233" lat="58.3961194428" lon="8.42276388972">
		<tag k="name" v="Hølen" />
		<tag k="natural" v="water" />
		<tag k="ssr:stedsnr" v="902876" />
	</node>
	<node id="-485220" lat="58.4872472186" lon="8.49781111538">
		<tag k="name" v="Nordbekk" />
		<tag k="ssr:stedsnr" v="902053" />
		<tag k="waterway" v="stream" />
	</node>
	<node id="-485218" lat="58.3287944482" lon="8.42011945284">
		<tag k="name" v="Lonene" />
		<tag k="natural" v="water" />
		<tag k="ssr:stedsnr" v="898760" />
		<tag k="water" v="lake" />
	</node>
	<node id="-485215" lat="58.3195805596" lon="8.42741388148">
		<tag k="name" v="Madlausbekken" />
		<tag k="ssr:stedsnr" v="897606" />
		<tag k="waterway" v="stream" />
	</node>
	<node id="-484320" lat="58.4359305598" lon="8.43694444259">
		<tag k="name" v="Lonebulona" />
		<tag k="natural" v="water" />
		<tag k="ssr:stedsnr" v="477459" />
		<tag k="water" v="lake" />
	</node>
	<node id="-485203" lat="58.3443666632" lon="8.38598332842">
		<tag k="name" v="Jordåstjenn" />
		<tag k="natural" v="water" />
		<tag k="ssr:stedsnr" v="945850" />
	</node>
	<node id="-487234" lat="58.429311107" lon="8.37415277199">
		<tag k="name" v="Rosevannet" />
		<tag k="natural" v="water" />
		<tag k="ssr:stedsnr" v="849417" />
		<tag k="water" v="lake" />
	</node>
	<node id="-487231" lat="58.3543750001" lon="8.39870832623">
		<tag k="name" v="Langetjenn" />
		<tag k="natural" v="water" />
		<tag k="ssr:stedsnr" v="849378" />
	</node>
	<node id="-485165" lat="58.4027777765" lon="8.58594443858">
		<tag k="name" v="Sesstjenn" />
		<tag k="natural" v="water" />
		<tag k="ssr:stedsnr" v="940289" />
	</node>
	<node id="-485161" lat="58.4153611082" lon="8.55136110787">
		<tag k="name" v="Askedalsholmen" />
		<tag k="place" v="islet" />
		<tag k="ssr:stedsnr" v="940265" />
	</node>
	<node id="-485153" lat="58.3879916688" lon="8.50192777942">
		<tag k="name" v="Vestermotjenn" />
		<tag k="natural" v="water" />
		<tag k="ssr:stedsnr" v="842760" />
	</node>
	<node id="-485151" lat="58.4218777757" lon="8.41454165842">
		<tag k="name" v="Hestehagodden" />
		<tag k="natural" v="cape" />
		<tag k="ssr:stedsnr" v="842710" />
	</node>
	<node id="-485150" lat="58.3883999992" lon="8.41114721921">
		<tag k="name" v="Valborglandstjenn" />
		<tag k="natural" v="water" />
		<tag k="ssr:stedsnr" v="842823" />
	</node>
	<node id="-485148" lat="58.4140055586" lon="8.47546111372">
		<tag k="name" v="Ustadtjenn" />
		<tag k="natural" v="water" />
		<tag k="ssr:stedsnr" v="842606" />
	</node>
	<node id="-485139" lat="58.3825388899" lon="8.39753610832">
		<tag k="name" v="Ingridstjenn" />
		<tag k="natural" v="water" />
		<tag k="ssr:stedsnr" v="842221" />
	</node>
	<node id="-484312" lat="58.4181444408" lon="8.37359167085">
		<tag k="name" v="Midtstetjenn" />
		<tag k="natural" v="water" />
		<tag k="ssr:stedsnr" v="477264" />
		<tag k="water" v="lake" />
	</node>
	<node id="-485132" lat="58.4364277782" lon="8.49118056185">
		<tag k="name" v="Litjønn" />
		<tag k="natural" v="water" />
		<tag k="ssr:stedsnr" v="963499" />
	</node>
	<node id="-485130" lat="58.3520777743" lon="8.53914722426">
		<tag k="name" v="Roresanden" />
		<tag k="natural" v="beach" />
		<tag k="ssr:stedsnr" v="838363" />
	</node>
	<node id="-487176" lat="58.4417111092" lon="8.44176388168">
		<tag k="name" v="Vardetjenn" />
		<tag k="natural" v="water" />
		<tag k="ssr:stedsnr" v="842474" />
	</node>
	<node id="-487172" lat="58.4386722259" lon="8.52222778576">
		<tag k="name" v="Futjennkilen" />
		<tag k="natural" v="bay" />
		<tag k="ssr:stedsnr" v="842329" />
	</node>
	<node id="-487171" lat="58.3832277802" lon="8.36177499501">
		<tag k="name" v="Dolholttjenn" />
		<tag k="natural" v="water" />
		<tag k="ssr:stedsnr" v="842145" />
	</node>
	<node id="-487163" lat="58.4745388933" lon="8.47946667444">
		<tag k="name" v="Falkholmen" />
		<tag k="place" v="islet" />
		<tag k="ssr:stedsnr" v="842199" />
	</node>
	<node id="-485114" lat="58.3686111153" lon="8.60939444786">
		<tag k="name" v="Sævelibekken" />
		<tag k="ssr:stedsnr" v="819755" />
		<tag k="waterway" v="stream" />
	</node>
	<node id="-487158" lat="58.4484277814" lon="8.38308333828">
		<tag k="fixme" v="multiple name tags, choose one and add the other to alt_name" />
		<tag k="name" v="Heievatn;Igelandsheivatn" />
>>>>>>> e1d4bc35ff8a6074a6f2e91616a996b547c36f15
		<tag k="natural" v="water" />
		<tag k="ssr:stedsnr" v="841123" />
		<tag k="water" v="lake" />
	</node>
<<<<<<< HEAD
	<node lat="58.32230000013207" lon="8.448508326448815" id="-20954">
		<tag k="name" v="Sagelebukta" />
		<tag k="natural" v="bay" />
		<tag k="ssr:stedsnr" v="230247" />
	</node>
	<node lat="58.33633888572346" lon="8.39468889364232" id="-20961">
		<tag k="name" v="Lille Linddalstjenn" />
		<tag k="natural" v="water" />
		<tag k="ssr:stedsnr" v="230724" />
	</node>
	<node lat="58.32825833698164" lon="8.506616672983764" id="-20964">
		<tag k="name" v="Havsøya" />
=======
	<node id="-485105" lat="58.3566666658" lon="8.56258333217">
		<tag k="name" v="Rosholttjenn" />
		<tag k="natural" v="water" />
		<tag k="old_name" v="Rosholtjenn" />
		<tag k="ssr:stedsnr" v="819314" />
	</node>
	<node id="-487148" lat="58.360725001" lon="8.45088056352">
		<tag k="name" v="Pramstø" />
		<tag k="natural" v="bay" />
		<tag k="ssr:stedsnr" v="838299" />
	</node>
	<node id="-487146" lat="58.3262333372" lon="8.46745832698">
		<tag k="name" v="Mågeskjær" />
		<tag k="place" v="islet" />
		<tag k="ssr:stedsnr" v="837826" />
	</node>
	<node id="-487144" lat="58.3360500035" lon="8.40554721796">
		<tag k="name" v="Styggedalstjenn" />
		<tag k="natural" v="water" />
		<tag k="ssr:stedsnr" v="837764" />
	</node>
	<node id="-487141" lat="58.315322225" lon="8.50587499565">
		<tag k="name" v="Sandvika" />
		<tag k="natural" v="bay" />
		<tag k="ssr:stedsnr" v="837287" />
	</node>
	<node id="-487139" lat="58.3234388847" lon="8.4359861099">
		<tag k="name" v="Kvennebekken" />
		<tag k="ssr:stedsnr" v="836634" />
		<tag k="waterway" v="stream" />
	</node>
	<node id="-485089" lat="58.3839777759" lon="8.38735000604">
		<tag k="name" v="Stivann" />
		<tag k="natural" v="water" />
		<tag k="ssr:stedsnr" v="789353" />
	</node>
	<node id="-485072" lat="58.4226499996" lon="8.36256943593">
		<tag k="name" v="Tingletjenn" />
		<tag k="natural" v="water" />
		<tag k="ssr:stedsnr" v="788374" />
	</node>
	<node id="-487117" lat="58.3572777786" lon="8.6389722233">
		<tag k="name" v="Rennebekken" />
		<tag k="ssr:stedsnr" v="819481" />
		<tag k="waterway" v="stream" />
	</node>
	<node id="-487112" lat="58.3872499957" lon="8.5758888863">
		<tag k="name" v="Bjortjenn" />
		<tag k="natural" v="water" />
		<tag k="ssr:stedsnr" v="819330" />
	</node>
	<node id="-487108" lat="58.3932805556" lon="8.61454165893">
		<tag k="name" v="Håbbestad Patjenn" />
		<tag k="natural" v="water" />
		<tag k="ssr:stedsnr" v="819382" />
	</node>
	<node id="-485054" lat="58.4174500025" lon="8.49148332619">
		<tag k="name" v="Lille Ustadtjenn" />
		<tag k="natural" v="water" />
		<tag k="ssr:stedsnr" v="781608" />
	</node>
	<node id="-483957" lat="58.3991388895" lon="8.47243055167">
		<tag k="name" v="Barlindtjenn" />
		<tag k="natural" v="water" />
		<tag k="ssr:stedsnr" v="477888" />
	</node>
	<node id="-485049" lat="58.3669388915" lon="8.53674999806">
		<tag k="name" v="Østreplass" />
		<tag k="natural" v="strait" />
		<tag k="ssr:stedsnr" v="776318" />
	</node>
	<node id="-485047" lat="58.3031333293" lon="8.45238888796">
		<tag k="alt_name" v="Tyssekiltjenn, vestre" />
		<tag k="fixme" v="multiple name tags, choose one and add the other to alt_name" />
		<tag k="name" v="Vestertjenn;Vestre Tyssekiltjenn" />
		<tag k="natural" v="water" />
		<tag k="ssr:stedsnr" v="768278" />
	</node>
	<node id="-487087" lat="58.3601249989" lon="8.51945277402">
		<tag k="alt_name" v="Imenestjernet" />
		<tag k="name" v="Imenestjenna" />
		<tag k="natural" v="water" />
		<tag k="ssr:stedsnr" v="789530" />
	</node>
	<node id="-487085" lat="58.3693777738" lon="8.53155000521">
		<tag k="name" v="Imeneskilen" />
		<tag k="natural" v="bay" />
		<tag k="ssr:stedsnr" v="789523" />
	</node>
	<node id="-485035" lat="58.3759166675" lon="8.58605555917">
		<tag k="name" v="Tvitjennene" />
		<tag k="natural" v="water" />
		<tag k="ssr:stedsnr" v="758335" />
	</node>
	<node id="-487082" lat="58.374030552" lon="8.50432778619">
		<tag k="name" v="Syndlesøya" />
		<tag k="place" v="island" />
		<tag k="ssr:stedsnr" v="789514" />
	</node>
	<node id="-487081" lat="58.4503972225" lon="8.43124443978">
		<tag k="name" v="Sauetjenn" />
		<tag k="natural" v="water" />
		<tag k="ssr:stedsnr" v="789489" />
	</node>
	<node id="-487080" lat="58.398516664" lon="8.32191665984">
		<tag k="name" v="Langvannet" />
		<tag k="natural" v="water" />
		<tag k="ssr:stedsnr" v="789429" />
		<tag k="water" v="lake" />
	</node>
	<node id="-487079" lat="58.4895222228" lon="8.49274166227">
		<tag k="alt_name" v="Gangvasstjern" />
		<tag k="name" v="Gangvasstjønn" />
		<tag k="natural" v="water" />
		<tag k="ssr:stedsnr" v="789702" />
	</node>
	<node id="-485030" lat="58.3982500025" lon="8.5750555537">
		<tag k="name" v="Byttingsvika" />
		<tag k="natural" v="bay" />
		<tag k="ssr:stedsnr" v="758311" />
	</node>
	<node id="-487077" lat="58.4032722185" lon="8.45234166717">
		<tag k="name" v="Ormetjenn" />
		<tag k="natural" v="water" />
		<tag k="ssr:stedsnr" v="789331" />
	</node>
	<node id="-487076" lat="58.3080194483" lon="8.46078333081">
		<tag k="alt_name" v="Tysskiltjenn, østre;Tyssekiltjenn østre" />
		<tag k="name" v="Østre Tyssekiltjenn" />
		<tag k="natural" v="water" />
		<tag k="ssr:stedsnr" v="789309" />
	</node>
	<node id="-485027" lat="58.4673999998" lon="8.46843055922">
		<tag k="name" v="Hunsdalsvann" />
		<tag k="natural" v="water" />
		<tag k="ssr:stedsnr" v="911657" />
		<tag k="water" v="lake" />
	</node>
	<node id="-485026" lat="58.4462138859" lon="8.45221667465">
		<tag k="name" v="Bjørnetjenn" />
		<tag k="natural" v="water" />
		<tag k="ssr:stedsnr" v="911404" />
	</node>
	<node id="-485025" lat="58.3634250016" lon="8.42257777031">
		<tag k="name" v="Myranstjenn" />
		<tag k="natural" v="water" />
		<tag k="ssr:stedsnr" v="911367" />
	</node>
	<node id="-483610" lat="58.3665333361" lon="8.39300556376">
		<tag k="name" v="Iletjenn" />
		<tag k="natural" v="water" />
		<tag k="ssr:stedsnr" v="170511" />
	</node>
	<node id="-486679" lat="58.3527083348" lon="8.48097776933">
		<tag k="name" v="Ranneiskil" />
		<tag k="natural" v="bay" />
		<tag k="ssr:stedsnr" v="594259" />
	</node>
	<node id="-484994" lat="58.4778111126" lon="8.49736944334">
		<tag k="name" v="Hemningtveitvann" />
		<tag k="natural" v="water" />
		<tag k="old_name" v="Hemningtveitvatn;Hemningstveitvatn" />
		<tag k="ssr:stedsnr" v="910667" />
		<tag k="water" v="lake" />
	</node>
	<node id="-487039" lat="58.4655083341" lon="8.42942777532">
		<tag k="alt_name" v="Åstjønn" />
		<tag k="name" v="Åstjenn" />
		<tag k="natural" v="water" />
		<tag k="old_name" v="Åstjern" />
		<tag k="ssr:stedsnr" v="788467" />
	</node>
	<node id="-484987" lat="58.417041668" lon="8.55437778166">
		<tag k="name" v="Røynevannet" />
		<tag k="natural" v="water" />
		<tag k="ssr:stedsnr" v="910594" />
		<tag k="water" v="lake" />
	</node>
	<node id="-487021" lat="58.3525277751" lon="8.34595000478">
		<tag k="name" v="Beislandsvannet" />
		<tag k="natural" v="water" />
		<tag k="ssr:stedsnr" v="788343" />
		<tag k="water" v="lake" />
	</node>
	<node id="-484963" lat="58.4737472244" lon="8.45543610835">
		<tag k="name" v="Snøløsvannet" />
		<tag k="natural" v="water" />
		<tag k="ssr:stedsnr" v="910463" />
		<tag k="water" v="lake" />
	</node>
	<node id="-486984" lat="58.3918388855" lon="8.37055834135">
		<tag k="name" v="Holmvasstjenn" />
		<tag k="natural" v="water" />
		<tag k="ssr:stedsnr" v="781937" />
	</node>
	<node id="-486981" lat="58.3902749982" lon="8.4186527746">
		<tag k="name" v="Austertjenn" />
		<tag k="natural" v="water" />
		<tag k="ssr:stedsnr" v="781842" />
	</node>
	<node id="-486977" lat="58.3836027758" lon="8.32442500275">
		<tag k="name" v="Hansesoddane" />
		<tag k="natural" v="cape" />
		<tag k="ssr:stedsnr" v="781796" />
	</node>
	<node id="-486970" lat="58.4312472192" lon="8.4814249923">
		<tag k="name" v="Fossetjenn" />
		<tag k="natural" v="water" />
		<tag k="ssr:stedsnr" v="781683" />
	</node>
	<node id="-486966" lat="58.4386472267" lon="8.46261111955">
		<tag k="name" v="Bjortjønn" />
		<tag k="natural" v="water" />
		<tag k="ssr:stedsnr" v="781479" />
	</node>
	<node id="-484917" lat="58.4052611132" lon="8.36755833545">
		<tag k="name" v="Lille Kalvetjenn" />
		<tag k="natural" v="water" />
		<tag k="ssr:stedsnr" v="903939" />
	</node>
	<node id="-486962" lat="58.3796222208" lon="8.50419166986">
		<tag k="name" v="Øynesund" />
		<tag k="natural" v="strait" />
		<tag k="ssr:stedsnr" v="781401" />
	</node>
	<node id="-486960" lat="58.4329583331" lon="8.49632221998">
		<tag k="name" v="Synninga" />
		<tag k="natural" v="cape" />
		<tag k="ssr:stedsnr" v="781361" />
	</node>
	<node id="-486955" lat="58.4683138915" lon="8.40470555243">
		<tag k="name" v="Storevatn" />
		<tag k="natural" v="water" />
		<tag k="ssr:stedsnr" v="781214" />
		<tag k="water" v="lake" />
	</node>
	<node id="-484905" lat="58.4301361076" lon="8.51962778523">
		<tag k="name" v="Bjorhuslitjenn" />
		<tag k="natural" v="water" />
		<tag k="ssr:stedsnr" v="902550" />
	</node>
	<node id="-484904" lat="58.4328527752" lon="8.4567972239">
		<tag k="name" v="Grastjenn" />
		<tag k="natural" v="water" />
		<tag k="ssr:stedsnr" v="902533" />
	</node>
	<node id="-484903" lat="58.3735416701" lon="8.54072777025">
		<tag k="name" v="Sandvika" />
		<tag k="natural" v="bay" />
		<tag k="ssr:stedsnr" v="902413" />
	</node>
	<node id="-486950" lat="58.4726500037" lon="8.48681388755">
		<tag k="name" v="Møra" />
		<tag k="natural" v="bay" />
		<tag k="ssr:stedsnr" v="781161" />
	</node>
	<node id="-486948" lat="58.471863892" lon="8.49248332593">
		<tag k="name" v="Badstutjønn" />
		<tag k="natural" v="water" />
		<tag k="ssr:stedsnr" v="781155" />
	</node>
	<node id="-484899" lat="58.4142916653" lon="8.36021388899">
		<tag k="name" v="Kingredalstjønn" />
		<tag k="natural" v="water" />
		<tag k="ssr:stedsnr" v="902291" />
	</node>
	<node id="-486944" lat="58.3829527788" lon="8.48594722346">
		<tag k="name" v="Lensmannsneset" />
		<tag k="natural" v="cape" />
		<tag k="ssr:stedsnr" v="781113" />
	</node>
	<node id="-484891" lat="58.4428916671" lon="8.43356389246">
		<tag k="name" v="Dabelstjønn" />
		<tag k="natural" v="water" />
		<tag k="ssr:stedsnr" v="902035" />
	</node>
	<node id="-484890" lat="58.4406888847" lon="8.43811389668">
		<tag k="name" v="Spangreitjønn" />
		<tag k="natural" v="water" />
		<tag k="ssr:stedsnr" v="902031" />
	</node>
	<node id="-486927" lat="58.3498472264" lon="8.35293611382">
		<tag k="name" v="Surtetjenn" />
		<tag k="natural" v="water" />
		<tag k="ssr:stedsnr" v="776975" />
	</node>
	<node id="-486918" lat="58.362602778" lon="8.50281945266">
		<tag k="name" v="Brattholmen" />
		<tag k="place" v="islet" />
		<tag k="ssr:stedsnr" v="776342" />
	</node>
	<node id="-484853" lat="58.3675166647" lon="8.50992777812">
		<tag k="name" v="Halmstad" />
		<tag k="natural" v="cape" />
		<tag k="ssr:stedsnr" v="898351" />
	</node>
	<node id="-486896" lat="58.4078222215" lon="8.61718610876">
		<tag k="name" v="Kjellerfoss" />
		<tag k="natural" v="waterfall" />
		<tag k="ssr:stedsnr" v="758404" />
	</node>
	<node id="-484847" lat="58.3526416686" lon="8.47209722286">
		<tag k="name" v="Bærholmen" />
		<tag k="natural" v="cape" />
		<tag k="ssr:stedsnr" v="898243" />
	</node>
	<node id="-484841" lat="58.3232000043" lon="8.4768055507">
		<tag k="name" v="Kjenningøya" />
>>>>>>> e1d4bc35ff8a6074a6f2e91616a996b547c36f15
		<tag k="place" v="island" />
		<tag k="ssr:stedsnr" v="230919" />
	</node>
<<<<<<< HEAD
	<node lat="58.486236114293334" lon="8.495527773239536" id="-20969">
		<tag k="name" v="Svartekil" />
		<tag k="natural" v="bay" />
		<tag k="ssr:stedsnr" v="235066" />
	</node>
	<node lat="58.38938889242314" lon="8.577222216857319" id="-20970">
		<tag k="name" v="Sveltumtjenn" />
=======
	<node id="-484836" lat="58.4069694467" lon="8.37756389181">
		<tag k="name" v="Stemtjenn" />
		<tag k="natural" v="water" />
		<tag k="ssr:stedsnr" v="720966" />
		<tag k="water" v="lake" />
	</node>
	<node id="-484834" lat="58.3999888854" lon="8.46139999696">
		<tag k="name" v="Larsestjenn" />
>>>>>>> e1d4bc35ff8a6074a6f2e91616a996b547c36f15
		<tag k="natural" v="water" />
		<tag k="ssr:stedsnr" v="30276" />
	</node>
<<<<<<< HEAD
	<node lat="58.39155555629822" lon="8.572666666158078" id="-20972">
		<tag k="name" v="Bjelkebukt" />
=======
	<node id="-484832" lat="58.3718777781" lon="8.52945833434">
		<tag k="name" v="Buvika" />
>>>>>>> e1d4bc35ff8a6074a6f2e91616a996b547c36f15
		<tag k="natural" v="bay" />
		<tag k="ssr:stedsnr" v="30282" />
	</node>
<<<<<<< HEAD
	<node lat="58.465152774925045" lon="8.47385556248694" id="-20974">
		<tag k="name" v="Blomreismyrodden" />
=======
	<node id="-484831" lat="58.3720722192" lon="8.54037778006">
		<tag k="name" v="Sandvikholmen" />
>>>>>>> e1d4bc35ff8a6074a6f2e91616a996b547c36f15
		<tag k="natural" v="cape" />
		<tag k="ssr:stedsnr" v="235143" />
	</node>
<<<<<<< HEAD
	<node lat="58.47059167080703" lon="8.48989166263938" id="-20979">
		<tag k="name" v="Bærelineset" />
		<tag k="natural" v="cape" />
		<tag k="ssr:stedsnr" v="235171" />
	</node>
	<node lat="58.36814722028377" lon="8.367819438838648" id="-20980">
		<tag k="name" v="Nesa" />
=======
	<node id="-484830" lat="58.4503222261" lon="8.43619166062">
		<tag k="name" v="Middagstjønn" />
		<tag k="natural" v="water" />
		<tag k="ssr:stedsnr" v="720034" />
	</node>
	<node id="-486877" lat="58.3200944443" lon="8.50797222898">
		<tag k="name" v="Småholmane" />
>>>>>>> e1d4bc35ff8a6074a6f2e91616a996b547c36f15
		<tag k="natural" v="cape" />
		<tag k="ssr:stedsnr" v="235223" />
	</node>
<<<<<<< HEAD
	<node lat="58.368241667253415" lon="8.502344437075475" id="-20986">
		<tag k="name" v="Lille Øykall" />
		<tag k="natural" v="cape" />
		<tag k="ssr:stedsnr" v="235417" />
	</node>
	<node lat="58.39412222134312" lon="8.431705553833945" id="-20995">
		<tag k="name" v="Kleivtjenn" />
		<tag k="natural" v="water" />
		<tag k="ssr:stedsnr" v="235871" />
	</node>
	<node lat="58.3965916703695" lon="8.339808336357532" id="-20998">
		<tag k="name" v="Risdaltjenn" />
		<tag k="natural" v="water" />
		<tag k="ssr:stedsnr" v="235973" />
		<tag k="water" v="lake" />
	</node>
	<node lat="58.395691880761774" lon="8.351582738462671" id="-20999">
		<tag k="name" v="Tvillingtjennene" />
		<tag k="natural" v="water" />
		<tag k="ssr:stedsnr" v="235975" />
		<tag k="water" v="lake" />
	</node>
	<node lat="58.34171944066108" lon="8.637763890098027" id="-21001">
		<tag k="name" v="Saulebukta" />
=======
	<node id="-486873" lat="58.3598138925" lon="8.48610556211">
		<tag k="name" v="Koglesund" />
		<tag k="natural" v="strait" />
		<tag k="ssr:stedsnr" v="655275" />
	</node>
	<node id="-486869" lat="58.3209333311" lon="8.48259999966">
		<tag k="name" v="Tvieidtjenn" />
		<tag k="natural" v="water" />
		<tag k="ssr:stedsnr" v="654355" />
	</node>
	<node id="-486868" lat="58.3226138872" lon="8.45168333907">
		<tag k="name" v="Holmeodden" />
		<tag k="natural" v="cape" />
		<tag k="ssr:stedsnr" v="654353" />
	</node>
	<node id="-486867" lat="58.3033805584" lon="8.45383333655">
		<tag k="name" v="Fiskesåda" />
		<tag k="natural" v="cape" />
		<tag k="ssr:stedsnr" v="654328" />
	</node>
	<node id="-484812" lat="58.3234861101" lon="8.45148055433">
		<tag k="name" v="Holmebukta" />
>>>>>>> e1d4bc35ff8a6074a6f2e91616a996b547c36f15
		<tag k="natural" v="bay" />
		<tag k="ssr:stedsnr" v="237445" />
	</node>
	<node lat="58.35128610819132" lon="8.485294446772379" id="-21004">
		<tag k="name" v="Bjortjenn" />
		<tag k="natural" v="water" />
		<tag k="ssr:stedsnr" v="48334" />
	</node>
<<<<<<< HEAD
	<node lat="58.32233333345419" lon="8.495094440849904" id="-21009">
		<tag k="name" v="Inntjorkilen" />
=======
	<node id="-486853" lat="58.3759722184" lon="8.70107500151">
		<tag k="name" v="Dyviga" />
>>>>>>> e1d4bc35ff8a6074a6f2e91616a996b547c36f15
		<tag k="natural" v="bay" />
		<tag k="ssr:stedsnr" v="48414" />
	</node>
<<<<<<< HEAD
	<node lat="58.37278611030503" lon="8.477511108798437" id="-21013">
		<tag k="name" v="Heirenes" />
=======
	<node id="-486852" lat="58.3760222208" lon="8.69847776929">
		<tag k="name" v="Vaodden" />
>>>>>>> e1d4bc35ff8a6074a6f2e91616a996b547c36f15
		<tag k="natural" v="cape" />
		<tag k="ssr:stedsnr" v="53110" />
	</node>
<<<<<<< HEAD
	<node lat="58.41682222322991" lon="8.500413893843724" id="-21028">
		<tag k="name" v="Søylesundet" />
		<tag k="natural" v="strait" />
		<tag k="ssr:stedsnr" v="53520" />
	</node>
	<node lat="58.411538891693304" lon="8.40031665991163" id="-21034">
		<tag k="name" v="Øyna" />
		<tag k="place" v="islet" />
		<tag k="ssr:stedsnr" v="53714" />
	</node>
	<node lat="58.39837499563827" lon="8.496833328879934" id="-21035">
		<tag k="name" v="Urdalstjenn" />
		<tag k="natural" v="water" />
		<tag k="ssr:stedsnr" v="53776" />
	</node>
	<node lat="58.39076389333727" lon="8.321522226707332" id="-21038">
		<tag k="name" v="Fleketjenn" />
=======
	<node id="-484777" lat="58.3816388925" lon="8.71308333262">
		<tag k="name" v="Kvennebekken" />
		<tag k="ssr:stedsnr" v="880451" />
		<tag k="waterway" v="stream" />
	</node>
	<node id="-484775" lat="58.42308611" lon="8.5899916666">
		<tag k="name" v="Bjorsund" />
		<tag k="natural" v="strait" />
		<tag k="ssr:stedsnr" v="879822" />
	</node>
	<node id="-484773" lat="58.377261109" lon="8.70920555165">
		<tag k="name" v="Kudabben" />
>>>>>>> e1d4bc35ff8a6074a6f2e91616a996b547c36f15
		<tag k="natural" v="water" />
		<tag k="ssr:stedsnr" v="53967" />
	</node>
<<<<<<< HEAD
	<node lat="58.46408333329431" lon="8.440958330233858" id="-21088">
		<tag k="name" v="Kollandsvannet" />
=======
	<node id="-486820" lat="58.4366277817" lon="8.49891944016">
		<tag k="name" v="Tønnesølvannet" />
>>>>>>> e1d4bc35ff8a6074a6f2e91616a996b547c36f15
		<tag k="natural" v="water" />
		<tag k="ssr:stedsnr" v="61473" />
		<tag k="water" v="lake" />
	</node>
<<<<<<< HEAD
	<node lat="58.460161115621105" lon="8.496938895873775" id="-21091">
		<tag k="name" v="Smedvann" />
=======
	<node id="-484768" lat="58.3827249968" lon="8.61840555236">
		<tag k="name" v="Mørkvegbekken" />
		<tag k="ssr:stedsnr" v="879678" />
		<tag k="waterway" v="stream" />
	</node>
	<node id="-486640" lat="58.379522226" lon="8.61221388361">
		<tag k="name" v="Tuetjenn" />
		<tag k="natural" v="water" />
		<tag k="ssr:stedsnr" v="575678" />
		<tag k="water" v="pond" />
	</node>
	<node id="-484760" lat="58.4068527795" lon="8.62261944714">
		<tag k="name" v="Neset" />
		<tag k="natural" v="cape" />
		<tag k="ssr:stedsnr" v="879375" />
	</node>
	<node id="-484753" lat="58.3287222248" lon="8.57733333416">
		<tag k="name" v="Groosedammen" />
>>>>>>> e1d4bc35ff8a6074a6f2e91616a996b547c36f15
		<tag k="natural" v="water" />
		<tag k="ssr:stedsnr" v="61622" />
	</node>
<<<<<<< HEAD
	<node lat="58.3920722203925" lon="8.555672226464502" id="-21096">
		<tag k="name" v="Stemvannet" />
=======
	<node id="-484751" lat="58.3745277736" lon="8.60336110727">
		<tag k="name" v="Holltretjennene" />
>>>>>>> e1d4bc35ff8a6074a6f2e91616a996b547c36f15
		<tag k="natural" v="water" />
		<tag k="ssr:stedsnr" v="61895" />
		<tag k="water" v="lake" />
	</node>
<<<<<<< HEAD
	<node lat="58.334263885728895" lon="8.375458340138" id="-21162">
		<tag k="name" v="Lindvannet" />
=======
	<node id="-486775" lat="58.3770722193" lon="8.51436944415">
		<tag k="name" v="Syndle" />
>>>>>>> e1d4bc35ff8a6074a6f2e91616a996b547c36f15
		<tag k="natural" v="water" />
		<tag k="ssr:stedsnr" v="243247" />
		<tag k="water" v="lake" />
	</node>
<<<<<<< HEAD
	<node lat="58.393061113035586" lon="8.435908325366112" id="-21163">
		<tag k="name" v="Holetjenn" />
=======
	<node id="-486771" lat="58.45563333" lon="8.44893889235">
		<tag k="name" v="Bjortjenn" />
>>>>>>> e1d4bc35ff8a6074a6f2e91616a996b547c36f15
		<tag k="natural" v="water" />
		<tag k="ssr:stedsnr" v="243314" />
	</node>
<<<<<<< HEAD
	<node lat="58.36675555402492" lon="8.393124992328476" id="-21164">
		<tag k="name" v="Iletjønn" />
		<tag k="natural" v="water" />
		<tag k="ssr:stedsnr" v="243353" />
	</node>
	<node lat="58.3813638896633" lon="8.597033332306385" id="-21165">
		<tag k="alt_name" v="Steintjenn" />
		<tag k="name" v="Steinstjern" />
=======
	<node id="-484712" lat="58.4177861087" lon="8.43662778242">
		<tag k="name" v="Søyletjenn" />
>>>>>>> e1d4bc35ff8a6074a6f2e91616a996b547c36f15
		<tag k="natural" v="water" />
		<tag k="ssr:stedsnr" v="243551" />
	</node>
<<<<<<< HEAD
	<node lat="58.39093333686677" lon="8.69604444301048" id="-21194">
		<tag k="name" v="Allemannsbekken" />
		<tag k="ssr:stedsnr" v="90719" />
		<tag k="waterway" v="stream" />
	</node>
	<node lat="58.41319444381082" lon="8.588694437555143" id="-21196">
		<tag k="name" v="Haslevika" />
		<tag k="natural" v="bay" />
		<tag k="ssr:stedsnr" v="91270" />
	</node>
	<node lat="58.47593055745624" lon="8.469597221712357" id="-21218">
		<tag k="name" v="Rautelitangen" />
		<tag k="natural" v="cape" />
		<tag k="ssr:stedsnr" v="114002" />
	</node>
	<node lat="58.452127778908775" lon="8.39373610324617" id="-21220">
		<tag k="name" v="Kjerrbærstjønn" />
=======
	<node id="-483897" lat="58.4016444476" lon="8.5407111118">
		<tag k="alt_name" v="Åbåltjern" />
		<tag k="name" v="Åbåltjenn" />
		<tag k="natural" v="water" />
		<tag k="ssr:stedsnr" v="303554" />
	</node>
	<node id="-486736" lat="58.4073833368" lon="8.53040555119">
		<tag k="name" v="Tvitjennene" />
		<tag k="natural" v="water" />
		<tag k="ssr:stedsnr" v="599814" />
	</node>
	<node id="-484686" lat="58.3584805528" lon="8.53157500332">
		<tag k="name" v="Igletjenn" />
		<tag k="natural" v="water" />
		<tag k="ssr:stedsnr" v="655323" />
	</node>
	<node id="-484685" lat="58.2926249985" lon="8.45633610669">
		<tag k="name" v="Bånetjenn" />
		<tag k="natural" v="water" />
		<tag k="ssr:stedsnr" v="654409" />
	</node>
	<node id="-486732" lat="58.4118444462" lon="8.45716666518">
		<tag k="name" v="Knabetjenn" />
>>>>>>> e1d4bc35ff8a6074a6f2e91616a996b547c36f15
		<tag k="natural" v="water" />
		<tag k="ssr:stedsnr" v="114047" />
	</node>
<<<<<<< HEAD
	<node lat="58.41442222212041" lon="8.529800001263927" id="-21223">
		<tag k="name" v="Langemyrtjenn" />
=======
	<node id="-486730" lat="58.3777861088" lon="8.32843333785">
		<tag k="name" v="Ålekjerrvannet" />
>>>>>>> e1d4bc35ff8a6074a6f2e91616a996b547c36f15
		<tag k="natural" v="water" />
		<tag k="ssr:stedsnr" v="113979" />
	</node>
<<<<<<< HEAD
	<node lat="58.39390555358087" lon="8.320233331933593" id="-21244">
		<tag k="name" v="Svartetjenn" />
		<tag k="natural" v="water" />
		<tag k="ssr:stedsnr" v="121322" />
	</node>
	<node lat="58.42102778058625" lon="8.37963055792312" id="-21254">
		<tag k="name" v="Krosshøl" />
		<tag k="natural" v="water" />
		<tag k="ssr:stedsnr" v="121407" />
	</node>
	<node lat="58.387722219580276" lon="8.635602770376497" id="-21293">
		<tag k="name" v="Bjørnetrøbekken" />
		<tag k="ssr:stedsnr" v="151702" />
		<tag k="waterway" v="stream" />
	</node>
	<node lat="58.367074997421376" lon="8.418463892828154" id="-21300">
		<tag k="name" v="Høytveittjenn" />
=======
	<node id="-486724" lat="58.3888444484" lon="8.32595277832">
		<tag k="name" v="Bjelletjenn" />
		<tag k="natural" v="water" />
		<tag k="ssr:stedsnr" v="598947" />
	</node>
	<node id="-486723" lat="58.4047722215" lon="8.34886388271">
		<tag k="name" v="Lille Sandtjenn" />
		<tag k="natural" v="water" />
		<tag k="ssr:stedsnr" v="598992" />
	</node>
	<node id="-484671" lat="58.3641944479" lon="8.57499999929">
		<tag k="name" v="Bukketjenn" />
		<tag k="natural" v="water" />
		<tag k="ssr:stedsnr" v="636311" />
	</node>
	<node id="-486717" lat="58.3690111078" lon="8.54549167383">
		<tag k="name" v="Mjølpund" />
		<tag k="place" v="islet" />
		<tag k="ssr:stedsnr" v="598390" />
	</node>
	<node id="-486715" lat="58.4437555582" lon="8.52019167316">
		<tag k="name" v="Ålesåt" />
		<tag k="natural" v="shoal" />
		<tag k="place" v="locality" />
		<tag k="ssr:stedsnr" v="598329" />
	</node>
	<node id="-484657" lat="58.3297416698" lon="8.51420000822">
		<tag k="name" v="Landvikvannet" />
>>>>>>> e1d4bc35ff8a6074a6f2e91616a996b547c36f15
		<tag k="natural" v="water" />
		<tag k="ssr:stedsnr" v="169523" />
	</node>
<<<<<<< HEAD
	<node lat="58.33640833107589" lon="8.516988897112082" id="-21305">
		<tag k="name" v="Landvikstranda" />
		<tag k="natural" v="beach" />
		<tag k="ssr:stedsnr" v="169909" />
	</node>
	<node lat="58.31665277416791" lon="8.44943888827201" id="-21306">
		<tag k="name" v="Tjørrnes" />
		<tag k="natural" v="cape" />
		<tag k="ssr:stedsnr" v="170274" />
	</node>
	<node lat="58.38651666507999" lon="8.485308334608396" id="-21315">
		<tag k="name" v="Grøsletjenn" />
=======
	<node id="-486703" lat="58.3683638848" lon="8.49537221583">
		<tag k="name" v="Store Øykall" />
		<tag k="natural" v="cape" />
		<tag k="ssr:stedsnr" v="598107" />
	</node>
	<node id="-486694" lat="58.3253388932" lon="8.51686388283">
		<tag k="name" v="Ågreneset" />
		<tag k="natural" v="cape" />
		<tag k="ssr:stedsnr" v="594901" />
	</node>
	<node id="-486692" lat="58.3305222232" lon="8.37391667347">
		<tag k="name" v="Lindvannstemmen" />
		<tag k="place" v="locality" />
		<tag k="ssr:stedsnr" v="594844" />
	</node>
	<node id="-484631" lat="58.4027000023" lon="8.48950832645">
		<tag k="name" v="Holvannet" />
		<tag k="natural" v="water" />
		<tag k="ssr:stedsnr" v="728545" />
		<tag k="water" v="lake" />
	</node>
	<node id="-486678" lat="58.3309555517" lon="8.43087500296">
		<tag k="name" v="Øygardstjennene" />
		<tag k="natural" v="water" />
		<tag k="ssr:stedsnr" v="593728" />
	</node>
	<node id="-486675" lat="58.3097638865" lon="8.43821945162">
		<tag k="name" v="Lauvviga" />
>>>>>>> e1d4bc35ff8a6074a6f2e91616a996b547c36f15
		<tag k="natural" v="bay" />
		<tag k="ssr:stedsnr" v="174128" />
	</node>
<<<<<<< HEAD
	<node lat="58.43851666928664" lon="8.366991673353207" id="-21317">
		<tag k="name" v="Paddetjønn" />
=======
	<node id="-484624" lat="58.3659833319" lon="8.55140278086">
		<tag k="name" v="Rore" />
>>>>>>> e1d4bc35ff8a6074a6f2e91616a996b547c36f15
		<tag k="natural" v="water" />
		<tag k="ssr:stedsnr" v="174143" />
	</node>
<<<<<<< HEAD
	<node lat="58.40696110784337" lon="8.38750278198927" id="-21328">
		<tag k="name" v="Bjortjenn" />
=======
	<node id="-486671" lat="58.2954388867" lon="8.47987222897">
		<tag k="name" v="Bånetjenn" />
>>>>>>> e1d4bc35ff8a6074a6f2e91616a996b547c36f15
		<tag k="natural" v="water" />
		<tag k="ssr:stedsnr" v="174908" />
	</node>
<<<<<<< HEAD
	<node lat="58.401583330342035" lon="8.433594436981485" id="-21329">
		<tag k="name" v="Ellingstjenn" />
=======
	<node id="-486670" lat="58.2993444407" lon="8.49153055061">
		<tag k="name" v="Langtjenn" />
>>>>>>> e1d4bc35ff8a6074a6f2e91616a996b547c36f15
		<tag k="natural" v="water" />
		<tag k="ssr:stedsnr" v="174917" />
	</node>
<<<<<<< HEAD
	<node lat="58.406644440863815" lon="8.333499999938503" id="-21364">
		<tag k="alt_name" v="Venetjern" />
		<tag k="name" v="Venetjenn" />
=======
	<node id="-486669" lat="58.2933611101" lon="8.47156388944">
		<tag k="name" v="Omre Kroktjenn" />
>>>>>>> e1d4bc35ff8a6074a6f2e91616a996b547c36f15
		<tag k="natural" v="water" />
		<tag k="ssr:stedsnr" v="182419" />
	</node>
<<<<<<< HEAD
	<node lat="58.40453888995241" lon="8.344569441189117" id="-21365">
		<tag k="name" v="Sandtjenn" />
=======
	<node id="-484611" lat="58.417888887" lon="8.44255278328">
		<tag k="name" v="Knabevanna" />
>>>>>>> e1d4bc35ff8a6074a6f2e91616a996b547c36f15
		<tag k="natural" v="water" />
		<tag k="ssr:stedsnr" v="182420" />
	</node>
<<<<<<< HEAD
	<node lat="58.433416670624396" lon="8.710941663560412" id="-21370">
		<tag k="name" v="Nidelva" />
		<tag k="ssr:stedsnr" v="182644" />
		<tag k="waterway" v="river" />
	</node>
	<node lat="58.400861114470445" lon="8.577083332766906" id="-21384">
		<tag k="name" v="Lille Bjørnvik" />
		<tag k="natural" v="bay" />
		<tag k="ssr:stedsnr" v="212276" />
	</node>
	<node lat="58.378247221234" lon="8.627502778190868" id="-21393">
		<tag k="name" v="Bringsværbekken" />
		<tag k="ssr:stedsnr" v="212728" />
		<tag k="waterway" v="stream" />
	</node>
	<node lat="58.328613888796525" lon="8.462533340850804" id="-21410">
		<tag k="name" v="Alsøya" />
=======
	<node id="-486656" lat="58.3962944485" lon="8.61697221856">
		<tag k="name" v="Stemtjenn" />
		<tag k="natural" v="water" />
		<tag k="ssr:stedsnr" v="576386" />
	</node>
	<node id="-484605" lat="58.3615361135" lon="8.4022194439">
		<tag k="alt_name" v="Nedre Rosstjenn;Rossvann, nedre" />
		<tag k="fixme" v="multiple name tags, choose one and add the other to alt_name" />
		<tag k="name" v="Nedre Rossvann;Nedre Rossetjenn" />
		<tag k="natural" v="water" />
		<tag k="ssr:stedsnr" v="728314" />
	</node>
	<node id="-484602" lat="58.3695111124" lon="8.36458889449">
		<tag k="name" v="Austlandsvannet" />
		<tag k="natural" v="water" />
		<tag k="ssr:stedsnr" v="728298" />
	</node>
	<node id="-486646" lat="58.393083336" lon="8.57230555189">
		<tag k="name" v="Tauleneset" />
>>>>>>> e1d4bc35ff8a6074a6f2e91616a996b547c36f15
		<tag k="natural" v="cape" />
		<tag k="ssr:stedsnr" v="230803" />
	</node>
<<<<<<< HEAD
	<node lat="58.3261250030569" lon="8.478433339308573" id="-21411">
		<tag k="name" v="Hesthommer" />
		<tag k="natural" v="cape" />
		<tag k="ssr:stedsnr" v="230808" />
	</node>
	<node lat="58.331597223470126" lon="8.37490555064561" id="-21412">
		<tag k="name" v="Osuldlon" />
=======
	<node id="-486645" lat="58.3906388914" lon="8.56744444308">
		<tag k="name" v="Finnskotneset" />
		<tag k="natural" v="cape" />
		<tag k="ssr:stedsnr" v="576244" />
	</node>
	<node id="-486644" lat="58.417819447" lon="8.54692222832">
		<tag k="name" v="Askedalsbekken" />
		<tag k="ssr:stedsnr" v="575901" />
		<tag k="waterway" v="stream" />
	</node>
	<node id="-484595" lat="58.3206305526" lon="8.45351110884">
		<tag k="name" v="Reddalsvannet" />
>>>>>>> e1d4bc35ff8a6074a6f2e91616a996b547c36f15
		<tag k="natural" v="water" />
		<tag k="ssr:stedsnr" v="230841" />
		<tag k="water" v="lake" />
	</node>
<<<<<<< HEAD
	<node lat="58.38639444467239" lon="8.501016673685452" id="-21419">
		<tag k="name" v="Smalsund" />
		<tag k="natural" v="strait" />
		<tag k="ssr:stedsnr" v="235106" />
	</node>
	<node lat="58.37217222435804" lon="8.546633328262056" id="-21429">
		<tag k="name" v="Storenesodden" />
		<tag k="natural" v="cape" />
		<tag k="ssr:stedsnr" v="235399" />
	</node>
	<node lat="58.430102779551945" lon="8.524900007592658" id="-21436">
		<tag k="name" v="Monevatn" />
=======
	<node id="-486642" lat="58.3859611154" lon="8.67094444837">
		<tag k="name" v="Skarsdalsbekken" />
		<tag k="ssr:stedsnr" v="575699" />
		<tag k="waterway" v="stream" />
	</node>
	<node id="-484592" lat="58.3313972212" lon="8.41459166905">
		<tag k="name" v="Kvennsevannet" />
		<tag k="natural" v="water" />
		<tag k="ssr:stedsnr" v="728238" />
	</node>
	<node id="-484591" lat="58.4383749984" lon="8.38777499408">
		<tag k="name" v="Stemtjenn" />
>>>>>>> e1d4bc35ff8a6074a6f2e91616a996b547c36f15
		<tag k="natural" v="water" />
		<tag k="ssr:stedsnr" v="235557" />
	</node>
<<<<<<< HEAD
	<node lat="58.449347224277965" lon="8.482397217660472" id="-21477">
		<tag k="name" v="Kvernvannet" />
=======
	<node id="-486951" lat="58.378658331" lon="8.33221111947">
		<tag k="name" v="Ålkjærvannet" />
		<tag k="natural" v="water" />
		<tag k="ssr:stedsnr" v="781164" />
		<tag k="water" v="lake" />
	</node>
	<node id="-484581" lat="58.3384027777" lon="8.40845000604">
		<tag k="name" v="Nerebøtjenn" />
>>>>>>> e1d4bc35ff8a6074a6f2e91616a996b547c36f15
		<tag k="natural" v="water" />
		<tag k="ssr:stedsnr" v="243611" />
		<tag k="water" v="lake" />
	</node>
<<<<<<< HEAD
	<node lat="58.388388887646805" lon="8.598777770328073" id="-21496">
		<tag k="name" v="Skrubbedalstjenn" />
=======
	<node id="-486628" lat="58.2755555576" lon="8.46422221845">
		<tag k="name" v="Bergtjønn" />
>>>>>>> e1d4bc35ff8a6074a6f2e91616a996b547c36f15
		<tag k="natural" v="water" />
		<tag k="ssr:stedsnr" v="455283" />
	</node>
<<<<<<< HEAD
	<node lat="58.375308329999065" lon="8.642933327768437" id="-21510">
		<tag k="name" v="Kleppebekken" />
		<tag k="ssr:stedsnr" v="455693" />
		<tag k="waterway" v="stream" />
	</node>
	<node lat="58.3623583330315" lon="8.483652772904332" id="-21546">
		<tag k="name" v="Kjeholmen" />
		<tag k="place" v="islet" />
		<tag k="ssr:stedsnr" v="291289" />
	</node>
	<node lat="58.4134694487407" lon="8.389177777728674" id="-21559">
		<tag k="name" v="Metveitkilen" />
		<tag k="natural" v="bay" />
		<tag k="ssr:stedsnr" v="295702" />
	</node>
	<node lat="58.40933055487555" lon="8.454577772789778" id="-21565">
		<tag k="name" v="Knabevassbekken" />
		<tag k="ssr:stedsnr" v="296814" />
		<tag k="waterway" v="stream" />
	</node>
	<node lat="58.40164444759061" lon="8.540711111799284" id="-21599">
		<tag k="alt_name" v="Åbåltjern" />
		<tag k="name" v="Åbåltjenn" />
=======
	<node id="-486609" lat="58.2954555575" lon="8.47518889207">
		<tag k="alt_name" v="Kroktjønn" />
		<tag k="fixme" v="multiple name tags, choose one and add the other to alt_name" />
		<tag k="name" v="Gullknapptjenn;Kroktjern" />
		<tag k="natural" v="water" />
		<tag k="ssr:stedsnr" v="546935" />
	</node>
	<node id="-484560" lat="58.4197861131" lon="8.42138333863">
		<tag k="name" v="Skarkeholtjenn" />
		<tag k="natural" v="water" />
		<tag k="ssr:stedsnr" v="721666" />
	</node>
	<node id="-486607" lat="58.4151722185" lon="8.49852778108">
		<tag k="name" v="Midtvann" />
		<tag k="natural" v="water" />
		<tag k="ssr:stedsnr" v="546545" />
	</node>
	<node id="-486605" lat="58.3825750042" lon="8.63565000107">
		<tag k="name" v="Temse" />
>>>>>>> e1d4bc35ff8a6074a6f2e91616a996b547c36f15
		<tag k="natural" v="water" />
		<tag k="ssr:stedsnr" v="303554" />
	</node>
<<<<<<< HEAD
	<node lat="58.408172226127554" lon="8.618041668730855" id="-21626">
		<tag k="name" v="Smedholmen" />
		<tag k="place" v="islet" />
		<tag k="ssr:stedsnr" v="333397" />
	</node>
	<node lat="58.243611112271374" lon="8.519999995498598" id="-21631">
		<tag k="name" v="Høye Vassfloss" />
		<tag k="place" v="islet" />
		<tag k="ssr:stedsnr" v="333416" />
	</node>
	<node lat="58.34199444514291" lon="8.386530555431063" id="-21640">
		<tag k="name" v="Store Linddalstjenn" />
=======
	<node id="-484556" lat="58.3983694421" lon="8.48159445138">
		<tag k="name" v="Granebekk" />
		<tag k="ssr:stedsnr" v="720875" />
		<tag k="waterway" v="stream" />
	</node>
	<node id="-486604" lat="58.3794444432" lon="8.54649443894">
		<tag k="alt_name" v="Lilleneset" />
		<tag k="name" v="Lillenes" />
		<tag k="natural" v="cape" />
		<tag k="ssr:stedsnr" v="546501" />
	</node>
	<node id="-486596" lat="58.4366972201" lon="8.43293888559">
		<tag k="name" v="Fosstjenn" />
		<tag k="natural" v="water" />
		<tag k="ssr:stedsnr" v="546368" />
	</node>
	<node id="-486595" lat="58.3782333313" lon="8.34749166922">
		<tag k="name" v="Røynelandsvannet" />
>>>>>>> e1d4bc35ff8a6074a6f2e91616a996b547c36f15
		<tag k="natural" v="water" />
		<tag k="ssr:stedsnr" v="472843" />
	</node>
<<<<<<< HEAD
	<node lat="58.33075277687563" lon="8.459636117313849" id="-21643">
		<tag k="name" v="Åna" />
		<tag k="ssr:stedsnr" v="473800" />
		<tag k="waterway" v="river" />
	</node>
	<node lat="58.32744444154567" lon="8.46761666303655" id="-21644">
		<tag k="name" v="Terkelsholmen" />
		<tag k="place" v="islet" />
		<tag k="ssr:stedsnr" v="473838" />
	</node>
	<node lat="58.31230000291253" lon="8.535138883361006" id="-21649">
		<tag k="name" v="Strålesund" />
=======
	<node id="-484544" lat="58.4786722258" lon="8.4993083355">
		<tag k="name" v="Tjærodden" />
		<tag k="natural" v="cape" />
		<tag k="ssr:stedsnr" v="720225" />
	</node>
	<node id="-484540" lat="58.3842361139" lon="8.49560833092">
		<tag k="name" v="Kjeøya" />
		<tag k="place" v="island" />
		<tag k="ssr:stedsnr" v="720125" />
	</node>
	<node id="-484539" lat="58.3855361145" lon="8.49834721743">
		<tag k="name" v="Kjeøysund" />
>>>>>>> e1d4bc35ff8a6074a6f2e91616a996b547c36f15
		<tag k="natural" v="strait" />
		<tag k="ssr:stedsnr" v="351307" />
	</node>
<<<<<<< HEAD
	<node lat="58.3272861138539" lon="8.488813889467735" id="-21653">
		<tag k="name" v="Ingeborgsholmen" />
		<tag k="place" v="islet" />
		<tag k="ssr:stedsnr" v="351857" />
	</node>
	<node lat="58.32876389049883" lon="8.493050000359807" id="-21654">
		<tag k="name" v="Dalholtbekken" />
		<tag k="ssr:stedsnr" v="351860" />
		<tag k="waterway" v="stream" />
	</node>
	<node lat="58.37153611281299" lon="8.528002769807559" id="-21666">
		<tag k="name" v="Iversnes" />
		<tag k="natural" v="cape" />
		<tag k="ssr:stedsnr" v="356401" />
	</node>
	<node lat="58.40837777534328" lon="8.370413894504352" id="-21672">
		<tag k="name" v="Store Kalvetjenn" />
=======
	<node id="-484536" lat="58.3716388904" lon="8.36537222268">
		<tag k="name" v="Burodden" />
		<tag k="natural" v="cape" />
		<tag k="ssr:stedsnr" v="720190" />
	</node>
	<node id="-484522" lat="58.4079805561" lon="8.52590834162">
		<tag k="alt_name" v="Lomtjern" />
		<tag k="name" v="Lomtjenn" />
		<tag k="natural" v="water" />
		<tag k="ssr:stedsnr" v="606554" />
	</node>
	<node id="-486938" lat="58.4419722232" lon="8.40960832929">
		<tag k="name" v="Vestertjønn" />
		<tag k="natural" v="water" />
		<tag k="ssr:stedsnr" v="781044" />
	</node>
	<node id="-484497" lat="58.4219138882" lon="8.46086389215">
		<tag k="name" v="Tvitjennene" />
>>>>>>> e1d4bc35ff8a6074a6f2e91616a996b547c36f15
		<tag k="natural" v="water" />
		<tag k="ssr:stedsnr" v="356955" />
	</node>
<<<<<<< HEAD
	<node lat="58.43836389070405" lon="8.435577786242744" id="-21675">
		<tag k="name" v="Storsteintjønn" />
=======
	<node id="-484495" lat="58.3821166698" lon="8.4077583365">
		<tag k="name" v="Gusdalslonene" />
>>>>>>> e1d4bc35ff8a6074a6f2e91616a996b547c36f15
		<tag k="natural" v="water" />
		<tag k="ssr:stedsnr" v="477034" />
	</node>
<<<<<<< HEAD
	<node lat="58.45136389012493" lon="8.411977774609733" id="-21677">
		<tag k="name" v="Sandene" />
		<tag k="natural" v="beach" />
		<tag k="ssr:stedsnr" v="477041" />
	</node>
	<node lat="58.47823888597257" lon="8.477830551034415" id="-21685">
		<tag k="name" v="Sjuershol" />
		<tag k="natural" v="bay" />
		<tag k="ssr:stedsnr" v="477063" />
	</node>
	<node lat="58.43926389016092" lon="8.513052785115697" id="-21688">
		<tag k="name" v="Saulebukta" />
=======
	<node id="-484494" lat="58.3739861139" lon="8.43386665901">
		<tag k="name" v="Kringletjenn" />
		<tag k="natural" v="water" />
		<tag k="ssr:stedsnr" v="599035" />
	</node>
	<node id="-484490" lat="58.3621999961" lon="8.50960277294">
		<tag k="name" v="Verkilen" />
>>>>>>> e1d4bc35ff8a6074a6f2e91616a996b547c36f15
		<tag k="natural" v="bay" />
		<tag k="ssr:stedsnr" v="477361" />
	</node>
<<<<<<< HEAD
	<node lat="58.396869442379995" lon="8.495988883141683" id="-21722">
		<tag k="name" v="Tvitjenn" />
		<tag k="natural" v="water" />
		<tag k="ssr:stedsnr" v="477796" />
	</node>
	<node lat="58.39913888950997" lon="8.472430551672478" id="-21724">
		<tag k="name" v="Barlindtjenn" />
		<tag k="natural" v="water" />
		<tag k="ssr:stedsnr" v="477888" />
	</node>
	<node lat="58.43366388630578" lon="8.450086105060102" id="-21726">
		<tag k="name" v="Flekevannet" />
=======
	<node id="-484482" lat="58.3504638903" lon="8.51200277738">
		<tag k="name" v="Lille Luetjenn" />
		<tag k="natural" v="water" />
		<tag k="ssr:stedsnr" v="715349" />
	</node>
	<node id="-484471" lat="58.4041111151" lon="8.58069443901">
		<tag k="name" v="Lindvika" />
		<tag k="natural" v="bay" />
		<tag k="ssr:stedsnr" v="576263" />
	</node>
	<node id="-484470" lat="58.4023611138" lon="8.59677776988">
		<tag k="name" v="Kvernbekken" />
		<tag k="ssr:stedsnr" v="576257" />
		<tag k="waterway" v="stream" />
	</node>
	<node id="-484469" lat="58.3392777758" lon="8.581638885">
		<tag k="name" v="Vossbekken" />
		<tag k="ssr:stedsnr" v="576323" />
		<tag k="waterway" v="stream" />
	</node>
	<node id="-486508" lat="58.4141777816" lon="8.49713610469">
		<tag k="name" v="Teinlaget" />
		<tag k="natural" v="strait" />
		<tag k="ssr:stedsnr" v="538982" />
	</node>
	<node id="-484459" lat="58.3802416663" lon="8.61223611896">
		<tag k="name" v="Brennteigbekken" />
		<tag k="ssr:stedsnr" v="697696" />
		<tag k="waterway" v="stream" />
	</node>
	<node id="-486503" lat="58.368780559" lon="8.54385000647">
		<tag k="name" v="Saltpund" />
		<tag k="place" v="islet" />
		<tag k="ssr:stedsnr" v="538432" />
	</node>
	<node id="-486502" lat="58.4124499983" lon="8.41937500798">
		<tag k="name" v="Tvitjennene" />
>>>>>>> e1d4bc35ff8a6074a6f2e91616a996b547c36f15
		<tag k="natural" v="water" />
		<tag k="ssr:stedsnr" v="364413" />
		<tag k="water" v="lake" />
	</node>
<<<<<<< HEAD
	<node lat="58.422183329448174" lon="8.48841667427992" id="-21736">
		<tag k="name" v="Ustadvann" />
=======
	<node id="-486499" lat="58.4313722247" lon="8.43003889066">
		<tag k="name" v="Lonebulona" />
>>>>>>> e1d4bc35ff8a6074a6f2e91616a996b547c36f15
		<tag k="natural" v="water" />
		<tag k="ssr:stedsnr" v="364610" />
		<tag k="water" v="lake" />
	</node>
<<<<<<< HEAD
	<node lat="58.41681666325159" lon="8.408975001429335" id="-21739">
		<tag k="name" v="Tyttebærholmen" />
		<tag k="place" v="islet" />
		<tag k="ssr:stedsnr" v="478693" />
	</node>
	<node lat="58.3715277767695" lon="8.578777780066273" id="-21757">
		<tag k="name" v="Orrtjenn" />
		<tag k="natural" v="water" />
		<tag k="ssr:stedsnr" v="394291" />
	</node>
	<node lat="58.32933332919262" lon="8.5744166647765" id="-21760">
		<tag k="name" v="Støyterbekken" />
		<tag k="ssr:stedsnr" v="394299" />
		<tag k="waterway" v="stream" />
	</node>
	<node lat="58.388319446334286" lon="8.360661109606747" id="-21786">
		<tag k="name" v="Holmevannet" />
		<tag k="natural" v="water" />
		<tag k="ssr:stedsnr" v="485263" />
	</node>
	<node lat="58.3804472266502" lon="8.457188896017222" id="-21788">
		<tag k="name" v="Bjørkoselva" />
		<tag k="ssr:stedsnr" v="485274" />
		<tag k="waterway" v="river" />
	</node>
	<node lat="58.32275555135956" lon="8.522177779757376" id="-21840">
		<tag k="name" v="Munken" />
		<tag k="natural" v="cape" />
		<tag k="ssr:stedsnr" v="412405" />
	</node>
	<node lat="58.47501110907615" lon="8.507813882549307" id="-21847">
		<tag k="name" v="Rindetjønn" />
=======
	<node id="-486495" lat="58.4698638923" lon="8.50198888233">
		<tag k="name" v="Trytetjønn" />
		<tag k="natural" v="water" />
		<tag k="ssr:stedsnr" v="538120" />
	</node>
	<node id="-486494" lat="58.3858861147" lon="8.40622222451">
		<tag k="name" v="Lundetjenn" />
		<tag k="natural" v="water" />
		<tag k="ssr:stedsnr" v="538241" />
	</node>
	<node id="-486492" lat="58.3344249964" lon="8.49762500692">
		<tag k="name" v="Dolholtbekken" />
		<tag k="ssr:stedsnr" v="534913" />
		<tag k="waterway" v="stream" />
	</node>
	<node id="-484432" lat="58.4153499975" lon="8.55122499999">
		<tag k="name" v="Askedalsholmen" />
		<tag k="place" v="islet" />
		<tag k="ssr:stedsnr" v="538979" />
	</node>
	<node id="-484430" lat="58.4131833314" lon="8.54690277164">
		<tag k="name" v="Loppebekk" />
		<tag k="ssr:stedsnr" v="538976" />
		<tag k="waterway" v="stream" />
	</node>
	<node id="-486476" lat="58.3226972207" lon="8.42637777473">
		<tag k="name" v="Talebu" />
		<tag k="natural" v="bay" />
		<tag k="ssr:stedsnr" v="533663" />
	</node>
	<node id="-484425" lat="58.4331249962" lon="8.52186389419">
		<tag k="name" v="Haugebohølen" />
		<tag k="place" v="locality" />
		<tag k="ssr:stedsnr" v="538399" />
	</node>
	<node id="-486469" lat="58.3145055529" lon="8.45323889264">
		<tag k="name" v="Sandvika" />
		<tag k="natural" v="bay" />
		<tag k="ssr:stedsnr" v="533334" />
	</node>
	<node id="-484416" lat="58.4675361088" lon="8.48165833284">
		<tag k="name" v="Lisletjønn" />
>>>>>>> e1d4bc35ff8a6074a6f2e91616a996b547c36f15
		<tag k="natural" v="water" />
		<tag k="ssr:stedsnr" v="417206" />
	</node>
<<<<<<< HEAD
	<node lat="58.47139166777128" lon="8.408836109005556" id="-21849">
		<tag k="name" v="Auretjønn" />
		<tag k="natural" v="water" />
		<tag k="ssr:stedsnr" v="417214" />
	</node>
	<node lat="58.43280555389428" lon="8.497280556377165" id="-21858">
		<tag k="name" v="Galten" />
		<tag k="place" v="islet" />
		<tag k="ssr:stedsnr" v="417396" />
	</node>
	<node lat="58.41914999951358" lon="8.443577785690447" id="-21863">
		<tag k="name" v="Øvre Knabevann" />
		<tag k="natural" v="water" />
		<tag k="ssr:stedsnr" v="417635" />
		<tag k="water" v="lake" />
	</node>
	<node lat="58.42447778086731" lon="8.348361103359208" id="-21913">
=======
	<node id="-484412" lat="58.3600500044" lon="8.37491388348">
		<tag k="name" v="Fisketjenn" />
		<tag k="natural" v="water" />
		<tag k="ssr:stedsnr" v="534985" />
	</node>
	<node id="-484410" lat="58.3360194443" lon="8.46556944589">
		<tag k="name" v="Jåvoldbekken" />
		<tag k="ssr:stedsnr" v="534813" />
		<tag k="waterway" v="stream" />
	</node>
	<node id="-484407" lat="58.3595527743" lon="8.49956388224">
		<tag k="name" v="Oksefoten" />
		<tag k="place" v="islet" />
		<tag k="ssr:stedsnr" v="534353" />
	</node>
	<node id="-486449" lat="58.4200027805" lon="8.51796388529">
		<tag k="alt_name" v="Igletjern" />
		<tag k="name" v="Igletjenn" />
		<tag k="natural" v="water" />
		<tag k="ssr:stedsnr" v="425568" />
	</node>
	<node id="-484398" lat="58.3705833303" lon="8.5993611127">
		<tag k="name" v="Holletjenn" />
		<tag k="natural" v="water" />
		<tag k="ssr:stedsnr" v="515308" />
	</node>
	<node id="-484397" lat="58.3564444405" lon="8.56841665828">
		<tag k="name" v="Sannerbekken" />
		<tag k="ssr:stedsnr" v="515303" />
		<tag k="waterway" v="stream" />
	</node>
	<node id="-486442" lat="58.4244777809" lon="8.34836110336">
>>>>>>> e1d4bc35ff8a6074a6f2e91616a996b547c36f15
		<tag k="name" v="Lomstjenn" />
		<tag k="natural" v="water" />
		<tag k="ssr:stedsnr" v="425394" />
	</node>
<<<<<<< HEAD
	<node lat="58.367833330043766" lon="8.440316673145784" id="-21914">
		<tag k="alt_name" v="Savalstjenn" />
		<tag k="name" v="Såvaldstjenn" />
=======
	<node id="-486439" lat="58.3248333343" lon="8.42724999883">
		<tag k="alt_name" v="Stemvann" />
		<tag k="name" v="Stemvannet" />
>>>>>>> e1d4bc35ff8a6074a6f2e91616a996b547c36f15
		<tag k="natural" v="water" />
		<tag k="ssr:stedsnr" v="425351" />
	</node>
<<<<<<< HEAD
	<node lat="58.40924497653732" lon="8.60550291522941" id="-21931">
		<tag k="name" v="Storestrøm" />
		<tag k="natural" v="strait" />
		<tag k="ssr:stedsnr" v="455346" />
	</node>
	<node lat="58.39116572263475" lon="8.610310462074356" id="-21932">
		<tag k="name" v="Tvitjennene" />
		<tag k="natural" v="water" />
		<tag k="ssr:stedsnr" v="455347" />
		<tag k="water" v="lake" />
	</node>
	<node lat="58.433974998051134" lon="8.381202771228956" id="-21947">
		<tag k="name" v="Barlindtjønn" />
=======
	<node id="-484369" lat="58.410566664" lon="8.51885277006">
		<tag k="alt_name" v="Andtjern" />
		<tag k="name" v="Andetjenn" />
		<tag k="natural" v="water" />
		<tag k="ssr:stedsnr" v="485509" />
	</node>
	<node id="-484352" lat="58.4268361075" lon="8.39801110748">
		<tag k="name" v="Kjerringtjenn" />
>>>>>>> e1d4bc35ff8a6074a6f2e91616a996b547c36f15
		<tag k="natural" v="water" />
		<tag k="ssr:stedsnr" v="477102" />
	</node>
<<<<<<< HEAD
	<node lat="58.465441666739835" lon="8.495755562454502" id="-21949">
		<tag k="name" v="Myrtjønn" />
=======
	<node id="-484331" lat="58.3968694424" lon="8.49598888314">
		<tag k="name" v="Tvitjenn" />
>>>>>>> e1d4bc35ff8a6074a6f2e91616a996b547c36f15
		<tag k="natural" v="water" />
		<tag k="ssr:stedsnr" v="477117" />
	</node>
<<<<<<< HEAD
	<node lat="58.47217221873304" lon="8.411938882386359" id="-21955">
		<tag k="name" v="Trytetjønn" />
		<tag k="natural" v="water" />
		<tag k="ssr:stedsnr" v="477217" />
	</node>
	<node lat="58.4181444408359" lon="8.37359167085225" id="-21956">
		<tag k="name" v="Midtstetjenn" />
		<tag k="natural" v="water" />
		<tag k="ssr:stedsnr" v="477264" />
		<tag k="water" v="lake" />
	</node>
	<node lat="58.36826666990229" lon="8.53822500502227" id="-21961">
=======
	<node id="-486368" lat="58.4160555541" lon="8.38793056274">
		<tag k="name" v="Juten" />
		<tag k="natural" v="cape" />
		<tag k="ssr:stedsnr" v="417734" />
	</node>
	<node id="-484319" lat="58.3682666699" lon="8.53822500502">
>>>>>>> e1d4bc35ff8a6074a6f2e91616a996b547c36f15
		<tag k="name" v="Plassetangen" />
		<tag k="natural" v="cape" />
		<tag k="ssr:stedsnr" v="477411" />
	</node>
<<<<<<< HEAD
	<node lat="58.43593055976343" lon="8.436944442587112" id="-21965">
		<tag k="name" v="Lonebulona" />
=======
	<node id="-484316" lat="58.4654416667" lon="8.49575556245">
		<tag k="name" v="Myrtjønn" />
>>>>>>> e1d4bc35ff8a6074a6f2e91616a996b547c36f15
		<tag k="natural" v="water" />
		<tag k="ssr:stedsnr" v="477459" />
		<tag k="water" v="lake" />
	</node>
<<<<<<< HEAD
	<node lat="58.42683610754006" lon="8.398011107475288" id="-21987">
		<tag k="name" v="Kjerringtjenn" />
=======
	<node id="-486363" lat="58.3730166707" lon="8.51268055382">
		<tag k="name" v="Jettebrona" />
		<tag k="natural" v="cape" />
		<tag k="ssr:stedsnr" v="417431" />
	</node>
	<node id="-484314" lat="58.4339749981" lon="8.38120277123">
		<tag k="name" v="Barlindtjønn" />
>>>>>>> e1d4bc35ff8a6074a6f2e91616a996b547c36f15
		<tag k="natural" v="water" />
		<tag k="ssr:stedsnr" v="485329" />
	</node>
<<<<<<< HEAD
	<node lat="58.410821300963846" lon="8.51893150035798" id="-21989">
		<tag k="alt_name" v="Andtjern" />
		<tag k="name" v="Andetjenn" />
		<tag k="natural" v="water" />
		<tag k="ssr:stedsnr" v="485509" />
	</node>
	<node lat="58.40065555652679" lon="8.608297224165128" id="-22022">
		<tag k="name" v="Patjenn" />
		<tag k="natural" v="water" />
		<tag k="ssr:stedsnr" v="272367" />
	</node>
	<node lat="58.35644444050987" lon="8.568416658276623" id="-22032">
		<tag k="name" v="Sannerbekken" />
		<tag k="ssr:stedsnr" v="515303" />
		<tag k="waterway" v="stream" />
	</node>
	<node lat="58.37058333030021" lon="8.599361112697999" id="-22033">
		<tag k="name" v="Holletjenn" />
		<tag k="natural" v="water" />
		<tag k="ssr:stedsnr" v="515308" />
	</node>
	<node lat="58.314505552928004" lon="8.453238892637454" id="-22044">
		<tag k="name" v="Sandvika" />
=======
	<node id="-486360" lat="58.4328055539" lon="8.49728055638">
		<tag k="name" v="Galten" />
		<tag k="place" v="islet" />
		<tag k="ssr:stedsnr" v="417396" />
	</node>
	<node id="-484311" lat="58.4721722187" lon="8.41193888239">
		<tag k="name" v="Trytetjønn" />
		<tag k="natural" v="water" />
		<tag k="ssr:stedsnr" v="477217" />
	</node>
	<node id="-486358" lat="58.4436027759" lon="8.51918055354">
		<tag k="name" v="Jomfruland" />
		<tag k="place" v="islet" />
		<tag k="ssr:stedsnr" v="417380" />
	</node>
	<node id="-486356" lat="58.4450166665" lon="8.5170111187">
		<tag k="name" v="Sandnes" />
		<tag k="natural" v="cape" />
		<tag k="ssr:stedsnr" v="417366" />
	</node>
	<node id="-484307" lat="58.478238886" lon="8.47783055103">
		<tag k="name" v="Sjuershol" />
>>>>>>> e1d4bc35ff8a6074a6f2e91616a996b547c36f15
		<tag k="natural" v="bay" />
		<tag k="ssr:stedsnr" v="533334" />
	</node>
<<<<<<< HEAD
	<node lat="58.33601944425399" lon="8.46556944588663" id="-22048">
		<tag k="name" v="Jåvoldbekken" />
		<tag k="ssr:stedsnr" v="534813" />
		<tag k="waterway" v="stream" />
	</node>
	<node lat="58.36005000438615" lon="8.374913883481758" id="-22051">
		<tag k="name" v="Fisketjenn" />
		<tag k="natural" v="water" />
		<tag k="ssr:stedsnr" v="534985" />
	</node>
	<node lat="58.46986389231655" lon="8.501988882327394" id="-22055">
		<tag k="name" v="Trytetjønn" />
		<tag k="natural" v="water" />
		<tag k="ssr:stedsnr" v="538120" />
	</node>
	<node lat="58.431372224732954" lon="8.430038890664784" id="-22061">
		<tag k="name" v="Lonebulona" />
=======
	<node id="-486353" lat="58.3885166709" lon="8.51853054722">
		<tag k="name" v="Gangdalstjenn" />
		<tag k="natural" v="water" />
		<tag k="ssr:stedsnr" v="417413" />
	</node>
	<node id="-486348" lat="58.371258329" lon="8.35339444633">
		<tag k="name" v="Fisketjenn" />
		<tag k="natural" v="water" />
		<tag k="ssr:stedsnr" v="417177" />
	</node>
	<node id="-486343" lat="58.4298722229" lon="8.37567500214">
		<tag k="name" v="Storøya" />
		<tag k="place" v="island" />
		<tag k="ssr:stedsnr" v="417269" />
	</node>
	<node id="-486342" lat="58.4758055536" lon="8.49215277021">
		<tag k="name" v="Kvennåna" />
		<tag k="ssr:stedsnr" v="417064" />
		<tag k="waterway" v="river" />
	</node>
	<node id="-486335" lat="58.3540416661" lon="8.35976389418">
		<tag k="name" v="Beislandstjenn" />
>>>>>>> e1d4bc35ff8a6074a6f2e91616a996b547c36f15
		<tag k="natural" v="water" />
		<tag k="ssr:stedsnr" v="538304" />
		<tag k="water" v="lake" />
	</node>
<<<<<<< HEAD
	<node lat="58.378233331290815" lon="8.347491669221744" id="-22107">
		<tag k="name" v="Røynelandsvannet" />
		<tag k="natural" v="water" />
		<tag k="ssr:stedsnr" v="546312" />
	</node>
	<node lat="58.38257500416795" lon="8.635650001073138" id="-22114">
		<tag k="name" v="Temse" />
		<tag k="natural" v="water" />
		<tag k="ssr:stedsnr" v="546504" />
		<tag k="water" v="lake" />
	</node>
	<node lat="58.27555555755174" lon="8.464222218446722" id="-22135">
		<tag k="name" v="Bergtjønn" />
		<tag k="natural" v="water" />
		<tag k="ssr:stedsnr" v="575403" />
	</node>
	<node lat="58.38596111543135" lon="8.670944448374428" id="-22140">
		<tag k="name" v="Skarsdalsbekken" />
		<tag k="ssr:stedsnr" v="575699" />
		<tag k="waterway" v="stream" />
	</node>
	<node lat="58.4178194469701" lon="8.546922228322243" id="-22142">
		<tag k="name" v="Askedalsbekken" />
		<tag k="ssr:stedsnr" v="575901" />
		<tag k="waterway" v="stream" />
	</node>
	<node lat="58.339277775763854" lon="8.5816388849971" id="-22143">
		<tag k="name" v="Vossbekken" />
		<tag k="ssr:stedsnr" v="576323" />
		<tag k="waterway" v="stream" />
	</node>
	<node lat="58.39063889137805" lon="8.56744444307603" id="-22148">
		<tag k="name" v="Finnskotneset" />
		<tag k="natural" v="cape" />
		<tag k="ssr:stedsnr" v="576244" />
	</node>
	<node lat="58.39308333601924" lon="8.572305551885195" id="-22149">
		<tag k="name" v="Tauleneset" />
		<tag k="natural" v="cape" />
		<tag k="ssr:stedsnr" v="576245" />
	</node>
	<node lat="58.40236111382506" lon="8.596777769883303" id="-22150">
		<tag k="name" v="Kvernbekken" />
		<tag k="ssr:stedsnr" v="576257" />
		<tag k="waterway" v="stream" />
	</node>
	<node lat="58.29336111010453" lon="8.471563889440427" id="-22174">
		<tag k="name" v="Omre Kroktjenn" />
		<tag k="natural" v="water" />
		<tag k="ssr:stedsnr" v="593370" />
	</node>
	<node lat="58.299344440663624" lon="8.491530550610928" id="-22175">
		<tag k="name" v="Langtjenn" />
		<tag k="natural" v="water" />
		<tag k="ssr:stedsnr" v="593374" />
	</node>
	<node lat="58.38024166631857" lon="8.612236118959967" id="-22180">
		<tag k="name" v="Brennteigbekken" />
		<tag k="ssr:stedsnr" v="697696" />
		<tag k="waterway" v="stream" />
	</node>
	<node lat="58.352708334790684" lon="8.480977769328078" id="-22182">
		<tag k="name" v="Ranneiskil" />
		<tag k="natural" v="bay" />
		<tag k="ssr:stedsnr" v="594259" />
	</node>
	<node lat="58.3253388931992" lon="8.516863882826444" id="-22190">
		<tag k="name" v="Ågreneset" />
		<tag k="natural" v="cape" />
		<tag k="ssr:stedsnr" v="594901" />
	</node>
	<node lat="58.36836388477174" lon="8.49537221583181" id="-22196">
		<tag k="name" v="Store Øykall" />
		<tag k="natural" v="cape" />
		<tag k="ssr:stedsnr" v="598107" />
	</node>
	<node lat="58.38211666978515" lon="8.407758336501166" id="-22210">
		<tag k="name" v="Gusdalslonene" />
		<tag k="natural" v="water" />
		<tag k="ssr:stedsnr" v="599206" />
		<tag k="water" v="lake" />
	</node>
	<node lat="58.40738333684396" lon="8.53040555118621" id="-22220">
		<tag k="name" v="Tvitjennene" />
=======
	<node id="-486333" lat="58.3291416654" lon="8.52037777003">
		<tag k="name" v="Røodd" />
		<tag k="natural" v="cape" />
		<tag k="ssr:stedsnr" v="412891" />
	</node>
	<node id="-483607" lat="58.3364083311" lon="8.51698889711">
		<tag k="name" v="Landvikstranda" />
		<tag k="natural" v="beach" />
		<tag k="ssr:stedsnr" v="169909" />
	</node>
	<node id="-486322" lat="58.3227555514" lon="8.52217777976">
		<tag k="name" v="Munken" />
		<tag k="natural" v="cape" />
		<tag k="ssr:stedsnr" v="412405" />
	</node>
	<node id="-483827" lat="58.37530833" lon="8.64293332777">
		<tag k="name" v="Kleppebekken" />
		<tag k="ssr:stedsnr" v="455693" />
		<tag k="waterway" v="stream" />
	</node>
	<node id="-486304" lat="58.388716663" lon="8.67566111146">
		<tag k="name" v="Kvernhusdalsbekken" />
		<tag k="ssr:stedsnr" v="394738" />
		<tag k="waterway" v="stream" />
	</node>
	<node id="-486299" lat="58.3768444419" lon="8.69648611131">
		<tag k="name" v="Lillesand" />
		<tag k="natural" v="beach" />
		<tag k="ssr:stedsnr" v="394718" />
	</node>
	<node id="-486292" lat="58.3613611116" lon="8.66311111203">
		<tag k="name" v="Grefstadbekken" />
		<tag k="ssr:stedsnr" v="394474" />
		<tag k="waterway" v="stream" />
	</node>
	<node id="-486270" lat="58.3293333292" lon="8.57441666478">
		<tag k="name" v="Støyterbekken" />
		<tag k="ssr:stedsnr" v="394299" />
		<tag k="waterway" v="stream" />
	</node>
	<node id="-486267" lat="58.3715277768" lon="8.57877778007">
		<tag k="name" v="Orrtjenn" />
		<tag k="natural" v="water" />
		<tag k="ssr:stedsnr" v="394291" />
	</node>
	<node id="-486265" lat="58.4019722217" lon="8.57686110931">
		<tag k="name" v="Gunnarsholmen" />
		<tag k="place" v="islet" />
		<tag k="ssr:stedsnr" v="394279" />
	</node>
	<node id="-484214" lat="58.4687861103" lon="8.4889777751">
		<tag k="alt_name" v="Bærlivannet" />
		<tag k="name" v="Bærelivannet" />
		<tag k="natural" v="water" />
		<tag k="ssr:stedsnr" v="664642" />
	</node>
	<node id="-484206" lat="58.390677781" lon="8.60886666515">
		<tag k="name" v="Tvitjennene" />
		<tag k="natural" v="water" />
		<tag k="ssr:stedsnr" v="455347" />
	</node>
	<node id="-484205" lat="58.4092449765" lon="8.60550291523">
		<tag k="name" v="Storestrøm" />
		<tag k="natural" v="strait" />
		<tag k="ssr:stedsnr" v="455346" />
	</node>
	<node id="-486250" lat="58.4221833294" lon="8.48841667428">
		<tag k="name" v="Ustadvann" />
>>>>>>> e1d4bc35ff8a6074a6f2e91616a996b547c36f15
		<tag k="natural" v="water" />
		<tag k="ssr:stedsnr" v="599814" />
		<tag k="water" v="lake" />
	</node>
<<<<<<< HEAD
	<node lat="58.29262499850162" lon="8.456336106693525" id="-22295">
		<tag k="name" v="Bånetjenn" />
=======
	<node id="-484193" lat="58.3960222209" lon="8.50754722731">
		<tag k="name" v="Slorpe" />
>>>>>>> e1d4bc35ff8a6074a6f2e91616a996b547c36f15
		<tag k="natural" v="water" />
		<tag k="ssr:stedsnr" v="654409" />
	</node>
<<<<<<< HEAD
	<node lat="58.442399998565726" lon="8.425222217949216" id="-22306">
		<tag k="name" v="Heibrotstjønn" />
=======
	<node id="-484192" lat="58.4158444418" lon="8.419977777">
		<tag k="name" v="Yttertjenn" />
>>>>>>> e1d4bc35ff8a6074a6f2e91616a996b547c36f15
		<tag k="natural" v="water" />
		<tag k="ssr:stedsnr" v="659043" />
	</node>
<<<<<<< HEAD
	<node lat="58.4237638888035" lon="8.500077773547755" id="-22322">
=======
	<node id="-484191" lat="58.4237638888" lon="8.50007777355">
>>>>>>> e1d4bc35ff8a6074a6f2e91616a996b547c36f15
		<tag k="name" v="Åsesto" />
		<tag k="natural" v="cape" />
		<tag k="ssr:stedsnr" v="659986" />
	</node>
<<<<<<< HEAD
	<node lat="58.46878611030049" lon="8.488977775096775" id="-22325">
		<tag k="alt_name" v="Bærlivannet" />
		<tag k="name" v="Bærelivannet" />
=======
	<node id="-484190" lat="58.3937138927" lon="8.31301944208">
		<tag k="name" v="Febutjenn" />
>>>>>>> e1d4bc35ff8a6074a6f2e91616a996b547c36f15
		<tag k="natural" v="water" />
		<tag k="ssr:stedsnr" v="664642" />
	</node>
<<<<<<< HEAD
	<node lat="58.40735555838921" lon="8.612408333676855" id="-22397">
		<tag k="name" v="Hestholmen" />
		<tag k="place" v="islet" />
		<tag k="ssr:stedsnr" v="697380" />
	</node>
	<node lat="58.35264166864171" lon="8.472097222856236" id="-22413">
		<tag k="name" v="Bærholmen" />
		<tag k="natural" v="cape" />
		<tag k="ssr:stedsnr" v="898243" />
	</node>
	<node lat="58.323200004271605" lon="8.476805550704029" id="-22417">
		<tag k="name" v="Kjenningøya" />
		<tag k="place" v="island" />
		<tag k="ssr:stedsnr" v="897335" />
	</node>
	<node lat="58.36751666466907" lon="8.509927778121602" id="-22425">
		<tag k="name" v="Halmstad" />
		<tag k="natural" v="cape" />
		<tag k="ssr:stedsnr" v="898351" />
	</node>
	<node lat="58.35046389034147" lon="8.512002777384673" id="-22429">
		<tag k="name" v="Lille Luetjenn" />
=======
	<node id="-486237" lat="58.4085833316" lon="8.40279443749">
		<tag k="name" v="Kilandsvannet" />
		<tag k="natural" v="water" />
		<tag k="ssr:stedsnr" v="364422" />
		<tag k="water" v="lake" />
	</node>
	<node id="-486236" lat="58.4336638863" lon="8.45008610506">
		<tag k="name" v="Flekevannet" />
		<tag k="natural" v="water" />
		<tag k="ssr:stedsnr" v="364413" />
		<tag k="water" v="lake" />
	</node>
	<node id="-484180" lat="58.3844444443" lon="8.34526111143">
		<tag k="name" v="Nordtjenn" />
		<tag k="natural" v="water" />
		<tag k="ssr:stedsnr" v="659162" />
	</node>
	<node id="-484176" lat="58.4280194477" lon="8.3567444504">
		<tag k="name" v="Svartetjenn" />
		<tag k="natural" v="water" />
		<tag k="ssr:stedsnr" v="659370" />
	</node>
	<node id="-484171" lat="58.4423999986" lon="8.42522221795">
		<tag k="name" v="Heibrotstjønn" />
>>>>>>> e1d4bc35ff8a6074a6f2e91616a996b547c36f15
		<tag k="natural" v="water" />
		<tag k="ssr:stedsnr" v="715349" />
	</node>
<<<<<<< HEAD
	<node lat="58.33568055212246" lon="8.417480553173593" id="-22433">
		<tag k="name" v="Bleibekk" />
		<tag k="ssr:stedsnr" v="715780" />
		<tag k="waterway" v="stream" />
	</node>
	<node lat="58.36219999612349" lon="8.509602772940045" id="-22435">
		<tag k="name" v="Verkilen" />
		<tag k="natural" v="bay" />
		<tag k="ssr:stedsnr" v="716376" />
	</node>
	<node lat="58.478672225773984" lon="8.499308335503851" id="-22439">
		<tag k="name" v="Tjærodden" />
		<tag k="natural" v="cape" />
		<tag k="ssr:stedsnr" v="720225" />
	</node>
	<node lat="58.38423611387879" lon="8.49560833091702" id="-22442">
		<tag k="name" v="Kjeøya" />
		<tag k="place" v="island" />
		<tag k="ssr:stedsnr" v="720125" />
	</node>
	<node lat="58.37163889041922" lon="8.365372222682419" id="-22445">
		<tag k="name" v="Burodden" />
		<tag k="natural" v="cape" />
		<tag k="ssr:stedsnr" v="720190" />
	</node>
	<node lat="58.39836944207189" lon="8.481594451379896" id="-22448">
		<tag k="name" v="Granebekk" />
		<tag k="ssr:stedsnr" v="720875" />
		<tag k="waterway" v="stream" />
	</node>
	<node lat="58.39580277539264" lon="8.426986108269217" id="-22449">
		<tag k="name" v="Kyrkjetjenn" />
=======
	<node id="-484160" lat="58.4367111156" lon="8.40444999402">
		<tag k="name" v="Hålandsbekken" />
		<tag k="ssr:stedsnr" v="659057" />
		<tag k="waterway" v="stream" />
	</node>
	<node id="-484152" lat="58.36783333" lon="8.44031667315">
		<tag k="alt_name" v="Savalstjenn" />
		<tag k="name" v="Såvaldstjenn" />
>>>>>>> e1d4bc35ff8a6074a6f2e91616a996b547c36f15
		<tag k="natural" v="water" />
		<tag k="ssr:stedsnr" v="720876" />
	</node>
<<<<<<< HEAD
	<node lat="58.40929999943966" lon="8.326211116894646" id="-22471">
		<tag k="name" v="Røyrtjønn" />
=======
	<node id="-484557" lat="58.3958027754" lon="8.42698610827">
		<tag k="name" v="Kyrkjetjenn" />
		<tag k="natural" v="water" />
		<tag k="ssr:stedsnr" v="720876" />
	</node>
	<node id="-483802" lat="58.3883888876" lon="8.59877777033">
		<tag k="name" v="Skrubbedalstjenn" />
		<tag k="natural" v="water" />
		<tag k="ssr:stedsnr" v="455283" />
	</node>
	<node id="-486168" lat="58.393252775" lon="8.34762777703">
		<tag k="name" v="Langetjenn" />
>>>>>>> e1d4bc35ff8a6074a6f2e91616a996b547c36f15
		<tag k="natural" v="water" />
		<tag k="ssr:stedsnr" v="728406" />
	</node>
<<<<<<< HEAD
	<node lat="58.36153611348072" lon="8.402219443901696" id="-22475">
		<tag k="alt_name" v="Nedre Rosstjenn;Rossvann, nedre" />
		<tag k="fixme" v="multiple name tags, choose one and add the other to alt_name" />
		<tag k="name" v="Nedre Rossvann;Nedre Rossetjenn" />
=======
	<node id="-486167" lat="58.4083777753" lon="8.3704138945">
		<tag k="name" v="Store Kalvetjenn" />
>>>>>>> e1d4bc35ff8a6074a6f2e91616a996b547c36f15
		<tag k="natural" v="water" />
		<tag k="ssr:stedsnr" v="728314" />
	</node>
<<<<<<< HEAD
	<node lat="58.43837499842176" lon="8.387774994076533" id="-22478">
		<tag k="name" v="Stemtjenn" />
=======
	<node id="-484110" lat="58.3654999985" lon="8.58669443621">
		<tag k="name" v="Skytebanetjenn" />
>>>>>>> e1d4bc35ff8a6074a6f2e91616a996b547c36f15
		<tag k="natural" v="water" />
		<tag k="ssr:stedsnr" v="728374" />
	</node>
<<<<<<< HEAD
	<node lat="58.417888886967" lon="8.44255278327647" id="-22480">
		<tag k="name" v="Knabevanna" />
=======
	<node id="-484108" lat="58.4051805532" lon="8.40621388484">
		<tag k="name" v="Vamyrkilen" />
>>>>>>> e1d4bc35ff8a6074a6f2e91616a996b547c36f15
		<tag k="natural" v="water" />
		<tag k="ssr:stedsnr" v="728383" />
		<tag k="water" v="lake" />
	</node>
<<<<<<< HEAD
	<node lat="58.36598333191291" lon="8.551402780863267" id="-22487">
		<tag k="name" v="Rore" />
=======
	<node id="-484107" lat="58.402572218" lon="8.42649721857">
		<tag k="name" v="Strandtjenn" />
>>>>>>> e1d4bc35ff8a6074a6f2e91616a996b547c36f15
		<tag k="natural" v="water" />
		<tag k="ssr:stedsnr" v="728522" />
		<tag k="water" v="lake" />
	</node>
<<<<<<< HEAD
	<node lat="58.32974166976724" lon="8.514200008224428" id="-22505">
		<tag k="name" v="Landvikvannet" />
=======
	<node id="-484105" lat="58.4191499995" lon="8.44357778569">
		<tag k="name" v="Øvre Knabevann" />
>>>>>>> e1d4bc35ff8a6074a6f2e91616a996b547c36f15
		<tag k="natural" v="water" />
		<tag k="ssr:stedsnr" v="728975" />
		<tag k="water" v="lake" />
	</node>
<<<<<<< HEAD
	<node lat="58.4406888847217" lon="8.438113896681187" id="-22513">
		<tag k="name" v="Spangreitjønn" />
		<tag k="natural" v="water" />
		<tag k="ssr:stedsnr" v="902031" />
	</node>
	<node lat="58.48724721862211" lon="8.497811115381257" id="-22514">
		<tag k="name" v="Nordbekk" />
		<tag k="ssr:stedsnr" v="902053" />
		<tag k="waterway" v="stream" />
	</node>
	<node lat="58.44289166708993" lon="8.43356389245738" id="-22516">
		<tag k="name" v="Dabelstjønn" />
=======
	<node id="-486146" lat="58.3715361128" lon="8.52800276981">
		<tag k="name" v="Iversnes" />
		<tag k="natural" v="cape" />
		<tag k="ssr:stedsnr" v="356401" />
	</node>
	<node id="-486145" lat="58.3833555588" lon="8.53199999306">
		<tag k="name" v="Bruholmen" />
		<tag k="place" v="islet" />
		<tag k="ssr:stedsnr" v="356388" />
	</node>
	<node id="-484096" lat="58.4713916678" lon="8.40883610901">
		<tag k="name" v="Auretjønn" />
>>>>>>> e1d4bc35ff8a6074a6f2e91616a996b547c36f15
		<tag k="natural" v="water" />
		<tag k="ssr:stedsnr" v="902035" />
	</node>
<<<<<<< HEAD
	<node lat="58.414291665266305" lon="8.360213888989346" id="-22524">
		<tag k="name" v="Kingredalstjønn" />
=======
	<node id="-484094" lat="58.4750111091" lon="8.50781388255">
		<tag k="name" v="Rindetjønn" />
>>>>>>> e1d4bc35ff8a6074a6f2e91616a996b547c36f15
		<tag k="natural" v="water" />
		<tag k="ssr:stedsnr" v="902291" />
	</node>
<<<<<<< HEAD
	<node lat="58.43285277522224" lon="8.456797223895256" id="-22526">
		<tag k="name" v="Grastjenn" />
=======
	<node id="-484820" lat="58.3247611114" lon="8.49081944743">
		<tag k="name" v="Reddalskanalen" />
		<tag k="natural" v="strait" />
		<tag k="ssr:stedsnr" v="716319" />
	</node>
	<node id="-486134" lat="58.464238886" lon="8.48399722647">
		<tag k="name" v="Lislevatn" />
>>>>>>> e1d4bc35ff8a6074a6f2e91616a996b547c36f15
		<tag k="natural" v="water" />
		<tag k="ssr:stedsnr" v="902533" />
	</node>
<<<<<<< HEAD
	<node lat="58.43013610759962" lon="8.519627785234873" id="-22527">
		<tag k="name" v="Bjorhuslitjenn" />
		<tag k="natural" v="water" />
		<tag k="ssr:stedsnr" v="902550" />
	</node>
	<node lat="58.39611944275739" lon="8.422763889721876" id="-22536">
		<tag k="name" v="Hølen" />
=======
	<node id="-484083" lat="58.3090055521" lon="8.52843889493">
		<tag k="name" v="Skarbekk" />
		<tag k="ssr:stedsnr" v="412253" />
		<tag k="waterway" v="stream" />
	</node>
	<node id="-484819" lat="58.3356805521" lon="8.41748055317">
		<tag k="name" v="Bleibekk" />
		<tag k="ssr:stedsnr" v="715780" />
		<tag k="waterway" v="stream" />
	</node>
	<node id="-486125" lat="58.3654361147" lon="8.36658889021">
		<tag k="name" v="Snelletjenn" />
>>>>>>> e1d4bc35ff8a6074a6f2e91616a996b547c36f15
		<tag k="natural" v="water" />
		<tag k="ssr:stedsnr" v="902876" />
	</node>
<<<<<<< HEAD
	<node lat="58.40526111317422" lon="8.367558335448495" id="-22540">
		<tag k="name" v="Lille Kalvetjenn" />
		<tag k="natural" v="water" />
		<tag k="ssr:stedsnr" v="903939" />
	</node>
	<node lat="58.407822221518224" lon="8.617186108757133" id="-22548">
		<tag k="name" v="Kjellerfoss" />
		<tag k="natural" v="waterfall" />
		<tag k="ssr:stedsnr" v="758404" />
	</node>
	<node lat="58.39602777781272" lon="8.579861104738058" id="-22554">
		<tag k="name" v="Ronsebakktjenn" />
		<tag k="natural" v="water" />
		<tag k="ssr:stedsnr" v="758309" />
	</node>
	<node lat="58.39825000253787" lon="8.575055553701194" id="-22555">
		<tag k="name" v="Byttingsvika" />
		<tag k="natural" v="bay" />
		<tag k="ssr:stedsnr" v="758311" />
	</node>
	<node lat="58.40230555253699" lon="8.578388886808161" id="-22557">
		<tag k="name" v="Store Bjørnvik" />
		<tag k="natural" v="bay" />
		<tag k="ssr:stedsnr" v="758315" />
	</node>
	<node lat="58.355583330959064" lon="8.557722214827056" id="-22558">
		<tag k="name" v="Lille Rosholttjenn" />
=======
	<node id="-484074" lat="58.4055527782" lon="8.6105333399">
		<tag k="name" v="Tangen" />
		<tag k="natural" v="cape" />
		<tag k="ssr:stedsnr" v="394367" />
	</node>
	<node id="-486120" lat="58.3287638905" lon="8.49305000036">
		<tag k="name" v="Dalholtbekken" />
		<tag k="ssr:stedsnr" v="351860" />
		<tag k="waterway" v="stream" />
	</node>
	<node id="-486119" lat="58.3272861139" lon="8.48881388947">
		<tag k="name" v="Ingeborgsholmen" />
		<tag k="place" v="islet" />
		<tag k="ssr:stedsnr" v="351857" />
	</node>
	<node id="-485841" lat="58.3524638852" lon="8.4699777814">
		<tag k="name" v="Mellvika" />
		<tag k="natural" v="bay" />
		<tag k="ssr:stedsnr" v="170283" />
	</node>
	<node id="-486109" lat="58.350972225" lon="8.36292777515">
		<tag k="name" v="Ålekjærtjenn" />
>>>>>>> e1d4bc35ff8a6074a6f2e91616a996b547c36f15
		<tag k="natural" v="water" />
		<tag k="old_name" v="Lille Rosholtjenn" />
		<tag k="ssr:stedsnr" v="758328" />
	</node>
<<<<<<< HEAD
	<node lat="58.471863891969704" lon="8.492483325927024" id="-22588">
		<tag k="name" v="Badstutjønn" />
		<tag k="natural" v="water" />
		<tag k="ssr:stedsnr" v="781155" />
	</node>
	<node lat="58.47265000374436" lon="8.486813887554641" id="-22590">
		<tag k="name" v="Møra" />
		<tag k="natural" v="bay" />
		<tag k="ssr:stedsnr" v="781161" />
	</node>
	<node lat="58.37865833097635" lon="8.33221111946948" id="-22591">
		<tag k="name" v="Ålkjærvannet" />
		<tag k="natural" v="water" />
		<tag k="ssr:stedsnr" v="781164" />
		<tag k="water" v="lake" />
	</node>
	<node lat="58.43295833306626" lon="8.49632221998349" id="-22593">
		<tag k="name" v="Synninga" />
		<tag k="natural" v="cape" />
		<tag k="ssr:stedsnr" v="781361" />
	</node>
	<node lat="58.46831389145935" lon="8.404705552432961" id="-22594">
		<tag k="name" v="Storevatn" />
=======
	<node id="-486106" lat="58.3666555582" lon="8.54108889417">
		<tag k="name" v="Oddeholmen" />
		<tag k="place" v="islet" />
		<tag k="ssr:stedsnr" v="351339" />
	</node>
	<node id="-486103" lat="58.3169916681" lon="8.53678055683">
		<tag k="name" v="Dannevika" />
		<tag k="natural" v="bay" />
		<tag k="ssr:stedsnr" v="351294" />
	</node>
	<node id="-486096" lat="58.3123000029" lon="8.53513888336">
		<tag k="name" v="Strålesund" />
		<tag k="natural" v="strait" />
		<tag k="ssr:stedsnr" v="351307" />
	</node>
	<node id="-486085" lat="58.4081722261" lon="8.61804166873">
		<tag k="name" v="Smedholmen" />
		<tag k="place" v="islet" />
		<tag k="ssr:stedsnr" v="333397" />
	</node>
	<node id="-486060" lat="58.3674750015" lon="8.40392222279">
		<tag k="alt_name" v="Rossvann, øvre" />
		<tag k="fixme" v="multiple name tags, choose one and add the other to alt_name" />
		<tag k="name" v="Øvre Rossetjenn;Øvre Rossvann" />
>>>>>>> e1d4bc35ff8a6074a6f2e91616a996b547c36f15
		<tag k="natural" v="water" />
		<tag k="ssr:stedsnr" v="781214" />
		<tag k="water" v="lake" />
	</node>
<<<<<<< HEAD
	<node lat="58.37962222078042" lon="8.50419166985794" id="-22597">
		<tag k="name" v="Øynesund" />
		<tag k="natural" v="strait" />
		<tag k="ssr:stedsnr" v="781401" />
	</node>
	<node lat="58.417450002452206" lon="8.491483326185504" id="-22604">
		<tag k="name" v="Lille Ustadtjenn" />
=======
	<node id="-483998" lat="58.3804472267" lon="8.45718889602">
		<tag k="name" v="Bjørkoselva" />
		<tag k="ssr:stedsnr" v="485274" />
		<tag k="waterway" v="river" />
	</node>
	<node id="-483996" lat="58.3883194463" lon="8.36066110961">
		<tag k="name" v="Holmevannet" />
>>>>>>> e1d4bc35ff8a6074a6f2e91616a996b547c36f15
		<tag k="natural" v="water" />
		<tag k="ssr:stedsnr" v="781608" />
	</node>
<<<<<<< HEAD
	<node lat="58.47374722444774" lon="8.455436108349756" id="-22627">
		<tag k="name" v="Snøløsvannet" />
=======
	<node id="-486041" lat="58.4558111156" lon="8.518280551">
		<tag k="name" v="Vigelandsvannet" />
>>>>>>> e1d4bc35ff8a6074a6f2e91616a996b547c36f15
		<tag k="natural" v="water" />
		<tag k="ssr:stedsnr" v="910463" />
		<tag k="water" v="lake" />
	</node>
<<<<<<< HEAD
	<node lat="58.477811112635145" lon="8.497369443335666" id="-22635">
		<tag k="name" v="Hemningtveitvann" />
		<tag k="natural" v="water" />
		<tag k="old_name" v="Hemningtveitvatn;Hemningstveitvatn" />
		<tag k="ssr:stedsnr" v="910667" />
		<tag k="water" v="lake" />
	</node>
	<node lat="58.446213885916194" lon="8.45221667464877" id="-22703">
		<tag k="name" v="Bjørnetjenn" />
		<tag k="natural" v="water" />
		<tag k="ssr:stedsnr" v="911404" />
	</node>
	<node lat="58.30801944830036" lon="8.460783330805025" id="-22706">
		<tag k="alt_name" v="Tysskiltjenn, østre;Tyssekiltjenn østre" />
		<tag k="name" v="Østre Tyssekiltjenn" />
		<tag k="natural" v="water" />
		<tag k="ssr:stedsnr" v="789309" />
	</node>
	<node lat="58.3780055587094" lon="8.420919437458588" id="-22707">
		<tag k="name" v="Lommetveittjenn" />
=======
	<node id="-483971" lat="58.2436111123" lon="8.5199999955">
		<tag k="name" v="Høye Vassfloss" />
		<tag k="place" v="islet" />
		<tag k="ssr:stedsnr" v="333416" />
	</node>
	<node id="-483962" lat="58.4168166633" lon="8.40897500143">
		<tag k="name" v="Tyttebærholmen" />
		<tag k="place" v="islet" />
		<tag k="ssr:stedsnr" v="478693" />
	</node>
	<node id="-486005" lat="58.3767861093" lon="8.70904721751">
		<tag k="name" v="Iversdabben" />
>>>>>>> e1d4bc35ff8a6074a6f2e91616a996b547c36f15
		<tag k="natural" v="water" />
		<tag k="ssr:stedsnr" v="789351" />
	</node>
<<<<<<< HEAD
	<node lat="58.383977775920606" lon="8.387350006035277" id="-22708">
		<tag k="name" v="Stivann" />
		<tag k="natural" v="water" />
		<tag k="ssr:stedsnr" v="789353" />
	</node>
	<node lat="58.37403055195079" lon="8.504327786192075" id="-22712">
		<tag k="name" v="Syndlesøya" />
		<tag k="place" v="island" />
		<tag k="ssr:stedsnr" v="789514" />
	</node>
	<node lat="58.36937777379501" lon="8.531550005209215" id="-22715">
		<tag k="name" v="Imeneskilen" />
=======
	<node id="-486002" lat="58.4066638926" lon="8.62797221859">
		<tag k="name" v="Lundeøya" />
		<tag k="place" v="islet" />
		<tag k="ssr:stedsnr" v="212376" />
	</node>
	<node id="-483950" lat="58.4392638902" lon="8.51305278512">
		<tag k="name" v="Saulebukta" />
>>>>>>> e1d4bc35ff8a6074a6f2e91616a996b547c36f15
		<tag k="natural" v="bay" />
		<tag k="ssr:stedsnr" v="789523" />
	</node>
<<<<<<< HEAD
	<node lat="58.398516664014814" lon="8.321916659838816" id="-22717">
		<tag k="name" v="Langvannet" />
		<tag k="natural" v="water" />
		<tag k="ssr:stedsnr" v="789429" />
		<tag k="water" v="lake" />
	</node>
	<node lat="58.48952222280145" lon="8.492741662266592" id="-22718">
		<tag k="alt_name" v="Gangvasstjern" />
		<tag k="name" v="Gangvasstjønn" />
		<tag k="natural" v="water" />
		<tag k="ssr:stedsnr" v="789702" />
	</node>
	<node lat="58.35666666578236" lon="8.5625833321736" id="-22733">
		<tag k="name" v="Rosholttjenn" />
		<tag k="natural" v="water" />
		<tag k="old_name" v="Rosholtjenn" />
		<tag k="ssr:stedsnr" v="819314" />
	</node>
	<node lat="58.39328055564416" lon="8.614541658926287" id="-22738">
		<tag k="name" v="Håbbestad Patjenn" />
=======
	<node id="-485993" lat="58.4008611145" lon="8.57708333277">
		<tag k="name" v="Lille Bjørnvik" />
		<tag k="natural" v="bay" />
		<tag k="ssr:stedsnr" v="212276" />
	</node>
	<node id="-485992" lat="58.3921944417" lon="8.58288888395">
		<tag k="name" v="Taulekilen" />
		<tag k="natural" v="bay" />
		<tag k="ssr:stedsnr" v="212268" />
	</node>
	<node id="-483936" lat="58.4513638901" lon="8.41197777461">
		<tag k="name" v="Sandene" />
		<tag k="natural" v="beach" />
		<tag k="ssr:stedsnr" v="477041" />
	</node>
	<node id="-483934" lat="58.4383638907" lon="8.43557778624">
		<tag k="name" v="Storsteintjønn" />
>>>>>>> e1d4bc35ff8a6074a6f2e91616a996b547c36f15
		<tag k="natural" v="water" />
		<tag k="ssr:stedsnr" v="819382" />
	</node>
<<<<<<< HEAD
	<node lat="58.357277778567784" lon="8.638972223301929" id="-22745">
		<tag k="name" v="Rennebekken" />
		<tag k="ssr:stedsnr" v="819481" />
		<tag k="waterway" v="stream" />
	</node>
	<node lat="58.32343888473145" lon="8.435986109895202" id="-22751">
		<tag k="name" v="Kvennebekken" />
		<tag k="ssr:stedsnr" v="836634" />
		<tag k="waterway" v="stream" />
	</node>
	<node lat="58.32623333718651" lon="8.467458326978289" id="-22756">
		<tag k="name" v="Mågeskjær" />
		<tag k="place" v="islet" />
		<tag k="ssr:stedsnr" v="837826" />
	</node>
	<node lat="58.448427781437466" lon="8.38308333828307" id="-22760">
		<tag k="fixme" v="multiple name tags, choose one and add the other to alt_name" />
		<tag k="name" v="Igelandsheivatn;Heievatn" />
=======
	<node id="-487183" lat="58.4068444486" lon="8.43505554983">
		<tag k="name" v="Sauetjenn" />
		<tag k="natural" v="water" />
		<tag k="ssr:stedsnr" v="842895" />
	</node>
	<node id="-483928" lat="58.3274444415" lon="8.46761666304">
		<tag k="name" v="Terkelsholmen" />
		<tag k="place" v="islet" />
		<tag k="ssr:stedsnr" v="473838" />
	</node>
	<node id="-483927" lat="58.3307527769" lon="8.45963611731">
		<tag k="name" v="Åna" />
		<tag k="ssr:stedsnr" v="473800" />
		<tag k="waterway" v="river" />
	</node>
	<node id="-483923" lat="58.3419944451" lon="8.38653055543">
		<tag k="name" v="Store Linddalstjenn" />
>>>>>>> e1d4bc35ff8a6074a6f2e91616a996b547c36f15
		<tag k="natural" v="water" />
		<tag k="ssr:stedsnr" v="841123" />
		<tag k="water" v="lake" />
	</node>
<<<<<<< HEAD
	<node lat="58.42187777565056" lon="8.414541658422156" id="-22777">
		<tag k="name" v="Hestehagodden" />
		<tag k="natural" v="cape" />
		<tag k="ssr:stedsnr" v="842710" />
	</node>
	<node lat="58.44171110915855" lon="8.441763881678327" id="-22778">
		<tag k="name" v="Vardetjenn" />
=======
	<node id="-485961" lat="58.4334166706" lon="8.71094166356">
		<tag k="name" v="Nidelva" />
		<tag k="ssr:stedsnr" v="182644" />
		<tag k="waterway" v="river" />
	</node>
	<node id="-485960" lat="58.40453889" lon="8.34456944119">
		<tag k="name" v="Sandtjenn" />
>>>>>>> e1d4bc35ff8a6074a6f2e91616a996b547c36f15
		<tag k="natural" v="water" />
		<tag k="ssr:stedsnr" v="842474" />
	</node>
<<<<<<< HEAD
	<node lat="58.414005558578" lon="8.475461113716774" id="-22779">
		<tag k="name" v="Ustadtjenn" />
=======
	<node id="-485959" lat="58.4066444409" lon="8.33349999994">
		<tag k="alt_name" v="Venetjern" />
		<tag k="name" v="Venetjenn" />
>>>>>>> e1d4bc35ff8a6074a6f2e91616a996b547c36f15
		<tag k="natural" v="water" />
		<tag k="ssr:stedsnr" v="842606" />
	</node>
<<<<<<< HEAD
	<node lat="58.406844448649764" lon="8.435055549828288" id="-22780">
		<tag k="name" v="Sauetjenn" />
		<tag k="natural" v="water" />
		<tag k="ssr:stedsnr" v="842895" />
	</node>
	<node lat="58.42931110701437" lon="8.374152771990772" id="-22810">
		<tag k="name" v="Rosevannet" />
		<tag k="natural" v="water" />
		<tag k="ssr:stedsnr" v="849417" />
		<tag k="water" v="lake" />
	</node>
	<node lat="58.354375000104646" lon="8.398708326225753" id="-22813">
		<tag k="name" v="Langetjenn" />
=======
	<node id="-484447" lat="58.4073555584" lon="8.61240833368">
		<tag k="name" v="Hestholmen" />
		<tag k="place" v="islet" />
		<tag k="ssr:stedsnr" v="697380" />
	</node>
	<node id="-483416" lat="58.3941222213" lon="8.43170555383">
		<tag k="name" v="Kleivtjenn" />
		<tag k="natural" v="water" />
		<tag k="ssr:stedsnr" v="235871" />
	</node>
	<node id="-483852" lat="58.3224333301" lon="8.52185277676">
		<tag k="name" v="Ågresundet" />
		<tag k="natural" v="strait" />
		<tag k="ssr:stedsnr" v="291466" />
	</node>
	<node id="-483851" lat="58.3180027767" lon="8.50794721998">
		<tag k="name" v="Borvika" />
		<tag k="natural" v="bay" />
		<tag k="ssr:stedsnr" v="291463" />
	</node>
	<node id="-483850" lat="58.3535305543" lon="8.49565278075">
		<tag k="name" v="Holbekktjenn" />
		<tag k="natural" v="bay" />
		<tag k="ssr:stedsnr" v="290316" />
	</node>
	<node id="-485891" lat="58.4223916708" lon="8.49738611375">
		<tag k="name" v="Tønnesøløyna" />
		<tag k="natural" v="cape" />
		<tag k="ssr:stedsnr" v="174988" />
	</node>
	<node id="-485887" lat="58.4015833303" lon="8.43359443698">
		<tag k="name" v="Ellingstjenn" />
>>>>>>> e1d4bc35ff8a6074a6f2e91616a996b547c36f15
		<tag k="natural" v="water" />
		<tag k="ssr:stedsnr" v="849378" />
	</node>
<<<<<<< HEAD
	<node lat="58.446877778944476" lon="8.431180551294243" id="-22841">
		<tag k="name" v="Kvernevannet" />
=======
	<node id="-485886" lat="58.4069611078" lon="8.38750278199">
		<tag k="name" v="Bjortjenn" />
>>>>>>> e1d4bc35ff8a6074a6f2e91616a996b547c36f15
		<tag k="natural" v="water" />
		<tag k="ssr:stedsnr" v="850397" />
	</node>
<<<<<<< HEAD
	<node lat="58.32872222480418" lon="8.57733333416465" id="-22860">
		<tag k="name" v="Groosedammen" />
=======
	<node id="-485881" lat="58.4015555579" lon="8.39129999274">
		<tag k="name" v="Øyesund" />
>>>>>>> e1d4bc35ff8a6074a6f2e91616a996b547c36f15
		<tag k="natural" v="water" />
		<tag k="old_name" v="Goosedammen" />
		<tag k="ssr:stedsnr" v="879310" />
		<tag k="water" v="pond" />
	</node>
<<<<<<< HEAD
	<node lat="58.374527773584774" lon="8.603361107269" id="-22867">
		<tag k="name" v="Holltretjennene" />
=======
	<node id="-485880" lat="58.391119444" lon="8.44650834074">
		<tag k="name" v="Stemtjenn" />
>>>>>>> e1d4bc35ff8a6074a6f2e91616a996b547c36f15
		<tag k="natural" v="water" />
		<tag k="ssr:stedsnr" v="879300" />
		<tag k="water" v="lake" />
	</node>
<<<<<<< HEAD
	<node lat="58.37726110900695" lon="8.709205551647862" id="-22873">
		<tag k="name" v="Kudabben" />
=======
	<node id="-485875" lat="58.4335805553" lon="8.39476111334">
		<tag k="name" v="Havetjønn" />
>>>>>>> e1d4bc35ff8a6074a6f2e91616a996b547c36f15
		<tag k="natural" v="water" />
		<tag k="ssr:stedsnr" v="879714" />
		<tag k="water" v="pond" />
	</node>
<<<<<<< HEAD
	<node lat="58.423086110023114" lon="8.589991666598166" id="-22875">
		<tag k="name" v="Bjorsund" />
		<tag k="natural" v="strait" />
		<tag k="ssr:stedsnr" v="879822" />
	</node>
	<node lat="58.3816388924526" lon="8.713083332619311" id="-22876">
		<tag k="name" v="Kvennebekken" />
		<tag k="ssr:stedsnr" v="880451" />
		<tag k="waterway" v="stream" />
	</node>
	<node lat="58.319580559562965" lon="8.42741388148403" id="-22883">
		<tag k="name" v="Madlausbekken" />
		<tag k="ssr:stedsnr" v="897606" />
		<tag k="waterway" v="stream" />
	</node>
	<node lat="58.32879444821556" lon="8.420119452836525" id="-22887">
		<tag k="name" v="Lonene" />
=======
	<node id="-485873" lat="58.4475694486" lon="8.44966666414">
		<tag k="name" v="Kjerringdalstjønn" />
		<tag k="natural" v="water" />
		<tag k="ssr:stedsnr" v="174481" />
	</node>
	<node id="-485872" lat="58.4515250009" lon="8.44032222193">
		<tag k="name" v="Tjærebergstjønn" />
>>>>>>> e1d4bc35ff8a6074a6f2e91616a996b547c36f15
		<tag k="natural" v="water" />
		<tag k="ssr:stedsnr" v="898760" />
		<tag k="water" v="lake" />
	</node>
<<<<<<< HEAD
	<node lat="58.3735416701153" lon="8.540727770248076" id="-22897">
		<tag k="name" v="Sandvika" />
		<tag k="natural" v="bay" />
		<tag k="ssr:stedsnr" v="902413" />
	</node>
	<node lat="58.399936109334384" lon="8.366791663968355" id="-22906">
		<tag k="name" v="Blektjenn" />
=======
	<node id="-485870" lat="58.4365388907" lon="8.51982221879">
		<tag k="name" v="Torsteinsholmen" />
		<tag k="place" v="islet" />
		<tag k="ssr:stedsnr" v="174393" />
	</node>
	<node id="-485867" lat="58.387163893" lon="8.39745277927">
		<tag k="name" v="Smålitjenn" />
>>>>>>> e1d4bc35ff8a6074a6f2e91616a996b547c36f15
		<tag k="natural" v="water" />
		<tag k="ssr:stedsnr" v="902959" />
	</node>
<<<<<<< HEAD
	<node lat="58.37576944462088" lon="8.37347222061803" id="-22908">
		<tag k="name" v="Søyletjenn" />
=======
	<node id="-485861" lat="58.373299999" lon="8.37328333902">
		<tag k="name" v="Granetjenn" />
>>>>>>> e1d4bc35ff8a6074a6f2e91616a996b547c36f15
		<tag k="natural" v="water" />
		<tag k="ssr:stedsnr" v="903160" />
	</node>
<<<<<<< HEAD
	<node lat="58.41236944538124" lon="8.44618332629658" id="-22914">
		<tag k="name" v="Nedre Knabevann" />
=======
	<node id="-485860" lat="58.383950003" lon="8.34404722252">
		<tag k="name" v="Mellemtjenn" />
>>>>>>> e1d4bc35ff8a6074a6f2e91616a996b547c36f15
		<tag k="natural" v="water" />
		<tag k="ssr:stedsnr" v="903566" />
		<tag k="water" v="lake" />
	</node>
<<<<<<< HEAD
	<node lat="58.41207500119056" lon="8.336725000975992" id="-22939">
		<tag k="name" v="Moltetjenn" />
=======
	<node id="-485858" lat="58.4385166693" lon="8.36699167335">
		<tag k="name" v="Paddetjønn" />
>>>>>>> e1d4bc35ff8a6074a6f2e91616a996b547c36f15
		<tag k="natural" v="water" />
		<tag k="ssr:stedsnr" v="910408" />
	</node>
<<<<<<< HEAD
	<node lat="58.41704166797403" lon="8.554377781655992" id="-22956">
		<tag k="name" v="Røynevannet" />
		<tag k="natural" v="water" />
		<tag k="ssr:stedsnr" v="910594" />
		<tag k="water" v="lake" />
	</node>
	<node lat="58.36342500160871" lon="8.422577770310866" id="-22967">
		<tag k="name" v="Myranstjenn" />
=======
	<node id="-485856" lat="58.3865166651" lon="8.48530833461">
		<tag k="name" v="Grøsletjenn" />
		<tag k="natural" v="bay" />
		<tag k="ssr:stedsnr" v="174128" />
	</node>
	<node id="-485850" lat="58.4399888928" lon="8.39505278123">
		<tag k="name" v="Bakringtjønnene" />
>>>>>>> e1d4bc35ff8a6074a6f2e91616a996b547c36f15
		<tag k="natural" v="water" />
		<tag k="ssr:stedsnr" v="911367" />
	</node>
<<<<<<< HEAD
	<node lat="58.46739999977402" lon="8.468430559217108" id="-22969">
		<tag k="name" v="Hunsdalsvann" />
		<tag k="natural" v="water" />
		<tag k="ssr:stedsnr" v="911657" />
		<tag k="water" v="lake" />
	</node>
	<node lat="58.354447220331025" lon="8.515177771971855" id="-22976">
		<tag k="name" v="Store Luetjenn" />
		<tag k="natural" v="water" />
		<tag k="ssr:stedsnr" v="957308" />
	</node>
	<node lat="58.35566389077858" lon="8.491097216161304" id="-22987">
		<tag k="name" v="Nordstrand" />
		<tag k="natural" v="beach" />
		<tag k="ssr:stedsnr" v="959223" />
	</node>
	<node lat="58.377544442444155" lon="8.360225007630216" id="-22991">
		<tag k="name" v="Stemtjenn" />
=======
	<node id="-484682" lat="58.3786750035" lon="8.66018611385">
		<tag k="name" v="Huselandstjenn" />
		<tag k="natural" v="water" />
		<tag k="ssr:stedsnr" v="636759" />
	</node>
	<node id="-485839" lat="58.3166527742" lon="8.44943888827">
		<tag k="name" v="Tjørrnes" />
		<tag k="natural" v="cape" />
		<tag k="ssr:stedsnr" v="170274" />
	</node>
	<node id="-483785" lat="58.366755554" lon="8.39312499233">
		<tag k="name" v="Iletjønn" />
>>>>>>> e1d4bc35ff8a6074a6f2e91616a996b547c36f15
		<tag k="natural" v="water" />
		<tag k="ssr:stedsnr" v="963201" />
	</node>
<<<<<<< HEAD
	<node lat="58.4702194473098" lon="8.482316661974167" id="-22993">
		<tag k="name" v="Ommundstjønn" />
		<tag k="natural" v="water" />
		<tag k="ssr:stedsnr" v="963243" />
	</node>
	<node lat="58.43642777820426" lon="8.491180561850108" id="-22998">
		<tag k="name" v="Litjønn" />
		<tag k="natural" v="water" />
		<tag k="ssr:stedsnr" v="963499" />
	</node>
	<node lat="58.339700000831876" lon="8.338366658786072" id="-23069">
		<tag k="name" v="Stigselva" />
		<tag k="ssr:stedsnr" v="278" />
		<tag k="waterway" v="river" />
	</node>
	<node lat="58.43030833330681" lon="8.462611116564663" id="-23071">
		<tag k="name" v="Grunnevannet" />
		<tag k="natural" v="water" />
		<tag k="ssr:stedsnr" v="426" />
	</node>
	<node lat="58.40054999603445" lon="8.594708336397705" id="-23075">
		<tag k="alt_name" v="Bjortjenn" />
		<tag k="name" v="Bjortjern" />
		<tag k="natural" v="water" />
		<tag k="ssr:stedsnr" v="539" />
	</node>
	<node lat="58.298844443241066" lon="8.47890555444044" id="-23077">
		<tag k="fixme" v="multiple name tags, choose one and add the other to alt_name" />
		<tag k="name" v="Kverntjern;Inntjore Kroktjenn" />
		<tag k="natural" v="water" />
		<tag k="ssr:stedsnr" v="951" />
	</node>
	<node lat="58.342525002276645" lon="8.729205558187527" id="-23084">
		<tag k="name" v="Sandoddryggene" />
		<tag k="place" v="locality" />
		<tag k="ssr:stedsnr" v="982" />
	</node>
	<node lat="58.42231944237343" lon="8.603647215335126" id="-23093">
		<tag k="name" v="Tangestrømmen" />
		<tag k="ssr:stedsnr" v="29829" />
		<tag k="waterway" v="rapids" />
	</node>
	<node lat="58.40604166822021" lon="8.619550002042638" id="-23106">
		<tag k="name" v="Rekevika" />
		<tag k="natural" v="bay" />
		<tag k="ssr:stedsnr" v="30369" />
	</node>
	<node lat="58.403277779970196" lon="8.645497228942231" id="-23120">
		<tag k="name" v="Kvikshaughølen" />
		<tag k="place" v="locality" />
		<tag k="ssr:stedsnr" v="30744" />
	</node>
	<node lat="58.320825000374164" lon="8.45680000438238" id="-23127">
		<tag k="name" v="Lyngholmen" />
		<tag k="place" v="islet" />
		<tag k="ssr:stedsnr" v="47348" />
	</node>
	<node lat="58.32204444773985" lon="8.473302776432645" id="-23128">
		<tag k="name" v="Bjønnen" />
=======
	<node id="-483784" lat="58.4493472243" lon="8.48239721766">
		<tag k="name" v="Kvernvannet" />
		<tag k="natural" v="water" />
		<tag k="ssr:stedsnr" v="243611" />
		<tag k="water" v="lake" />
	</node>
	<node id="-484428" lat="58.4089083368" lon="8.3848500014">
		<tag k="name" v="Svartetjenn" />
		<tag k="natural" v="water" />
		<tag k="ssr:stedsnr" v="538954" />
	</node>
	<node id="-485826" lat="58.3670749974" lon="8.41846389283">
		<tag k="name" v="Høytveittjenn" />
		<tag k="natural" v="water" />
		<tag k="ssr:stedsnr" v="169523" />
	</node>
	<node id="-485821" lat="58.3693722213" lon="8.6816972295">
		<tag k="name" v="Lille Moviga" />
		<tag k="natural" v="bay" />
		<tag k="ssr:stedsnr" v="151745" />
	</node>
	<node id="-485815" lat="58.3877222196" lon="8.63560277038">
		<tag k="name" v="Bjørnetrøbekken" />
		<tag k="ssr:stedsnr" v="151702" />
		<tag k="waterway" v="stream" />
	</node>
	<node id="-483749" lat="58.3681472203" lon="8.36781943884">
		<tag k="name" v="Nesa" />
		<tag k="natural" v="cape" />
		<tag k="ssr:stedsnr" v="235223" />
	</node>
	<node id="-483746" lat="58.328258337" lon="8.50661667298">
		<tag k="name" v="Havsøya" />
		<tag k="place" v="island" />
		<tag k="ssr:stedsnr" v="230919" />
	</node>
	<node id="-483745" lat="58.3286138888" lon="8.46253334085">
		<tag k="name" v="Alsøya" />
		<tag k="natural" v="cape" />
		<tag k="ssr:stedsnr" v="230803" />
	</node>
	<node id="-483735" lat="58.3782472212" lon="8.62750277819">
		<tag k="name" v="Bringsværbekken" />
		<tag k="ssr:stedsnr" v="212728" />
		<tag k="waterway" v="stream" />
	</node>
	<node id="-483720" lat="58.4093305549" lon="8.45457777279">
		<tag k="name" v="Knabevassbekken" />
		<tag k="ssr:stedsnr" v="296814" />
		<tag k="waterway" v="stream" />
	</node>
	<node id="-483716" lat="58.3954555523" lon="8.54369444523">
		<tag k="name" v="Stemvannet" />
		<tag k="natural" v="water" />
		<tag k="ssr:stedsnr" v="296801" />
		<tag k="water" v="lake" />
	</node>
	<node id="-483710" lat="58.4224916622" lon="8.38789444663">
		<tag k="name" v="Svartetjenn" />
		<tag k="natural" v="water" />
		<tag k="ssr:stedsnr" v="296669" />
	</node>
	<node id="-483709" lat="58.4231916692" lon="8.45840277514">
		<tag k="name" v="Grastjenn" />
		<tag k="natural" v="water" />
		<tag k="ssr:stedsnr" v="296581" />
	</node>
	<node id="-485756" lat="58.3646805585" lon="8.49679721897">
		<tag k="name" v="Flatholmen" />
>>>>>>> e1d4bc35ff8a6074a6f2e91616a996b547c36f15
		<tag k="place" v="islet" />
		<tag k="ssr:stedsnr" v="47349" />
	</node>
	<node lat="58.320927777463666" lon="8.528861103857874" id="-23130">
		<tag k="name" v="Flødvika" />
		<tag k="natural" v="bay" />
		<tag k="ssr:stedsnr" v="48397" />
	</node>
<<<<<<< HEAD
	<node lat="58.350836107899994" lon="8.473202776501722" id="-23134">
		<tag k="name" v="Svennevika" />
		<tag k="natural" v="bay" />
		<tag k="ssr:stedsnr" v="48240" />
	</node>
	<node lat="58.36181388650172" lon="8.465047217976837" id="-23135">
		<tag k="name" v="Lundesanden" />
		<tag k="natural" v="beach" />
		<tag k="ssr:stedsnr" v="48246" />
	</node>
	<node lat="58.34845833647767" lon="8.382088887531475" id="-23143">
		<tag k="name" v="Stormedalstjenn" />
=======
	<node id="-483702" lat="58.382299998" lon="8.34326389623">
		<tag k="name" v="Sørtjenn" />
>>>>>>> e1d4bc35ff8a6074a6f2e91616a996b547c36f15
		<tag k="natural" v="water" />
		<tag k="ssr:stedsnr" v="48466" />
	</node>
<<<<<<< HEAD
	<node lat="58.34536111088587" lon="8.407430549211334" id="-23147">
		<tag k="name" v="Stomnetjenn" />
=======
	<node id="-483390" lat="58.4705916708" lon="8.48989166264">
		<tag k="name" v="Bærelineset" />
		<tag k="natural" v="cape" />
		<tag k="ssr:stedsnr" v="235171" />
	</node>
	<node id="-485746" lat="58.4486638858" lon="8.411380554">
		<tag k="name" v="Sandvannet" />
>>>>>>> e1d4bc35ff8a6074a6f2e91616a996b547c36f15
		<tag k="natural" v="water" />
		<tag k="ssr:stedsnr" v="48756" />
	</node>
<<<<<<< HEAD
	<node lat="58.36597777410564" lon="8.34897500519598" id="-23149">
		<tag k="name" v="Fillingtveittjenn" />
		<tag k="natural" v="water" />
		<tag k="ssr:stedsnr" v="48944" />
	</node>
	<node lat="58.44426388867975" lon="8.398563883206533" id="-23153">
		<tag k="name" v="Stemtjønn" />
=======
	<node id="-483697" lat="58.4134694487" lon="8.38917777773">
		<tag k="name" v="Metveitkilen" />
		<tag k="natural" v="bay" />
		<tag k="ssr:stedsnr" v="295702" />
	</node>
	<node id="-485743" lat="58.4210277806" lon="8.37963055792">
		<tag k="name" v="Krosshøl" />
>>>>>>> e1d4bc35ff8a6074a6f2e91616a996b547c36f15
		<tag k="natural" v="water" />
		<tag k="ssr:stedsnr" v="53046" />
	</node>
<<<<<<< HEAD
	<node lat="58.438352778780974" lon="8.364458334086525" id="-23155">
		<tag k="name" v="Djupetjønn" />
		<tag k="natural" v="water" />
		<tag k="ssr:stedsnr" v="53096" />
	</node>
	<node lat="58.37820277577717" lon="8.375366669809429" id="-23159">
=======
	<node id="-483690" lat="58.4475138855" lon="8.51551388047">
		<tag k="name" v="Sandøyren" />
		<tag k="natural" v="cape" />
		<tag k="ssr:stedsnr" v="295342" />
	</node>
	<node id="-485733" lat="58.3939055536" lon="8.32023333193">
>>>>>>> e1d4bc35ff8a6074a6f2e91616a996b547c36f15
		<tag k="name" v="Svartetjenn" />
		<tag k="natural" v="water" />
		<tag k="ssr:stedsnr" v="53193" />
	</node>
<<<<<<< HEAD
	<node lat="58.437683335938345" lon="8.523833331956546" id="-23165">
		<tag k="name" v="Futjenn" />
		<tag k="natural" v="water" />
		<tag k="ssr:stedsnr" v="53364" />
	</node>
	<node lat="58.36176944741534" lon="8.448405563847965" id="-23231">
		<tag k="name" v="Lundetjenn" />
=======
	<node id="-484069" lat="58.4106388884" lon="8.6005555521">
		<tag k="name" v="Furunes" />
		<tag k="natural" v="cape" />
		<tag k="ssr:stedsnr" v="394255" />
	</node>
	<node id="-483673" lat="58.3646250042" lon="8.35668056004">
		<tag k="name" v="Rokketjenn" />
>>>>>>> e1d4bc35ff8a6074a6f2e91616a996b547c36f15
		<tag k="natural" v="water" />
		<tag k="ssr:stedsnr" v="61349" />
	</node>
<<<<<<< HEAD
	<node lat="58.41222222548368" lon="8.538344442106181" id="-23234">
		<tag k="name" v="Grunnvannet" />
		<tag k="natural" v="water" />
		<tag k="ssr:stedsnr" v="61555" />
	</node>
	<node lat="58.4048939625569" lon="8.644733516932579" id="-23261">
		<tag k="name" v="Kalvehagfossen" />
		<tag k="natural" v="waterfall" />
		<tag k="ssr:stedsnr" v="90711" />
	</node>
	<node lat="58.3519666685698" lon="8.415527776127163" id="-23274">
		<tag k="name" v="Stemtjenn" />
		<tag k="natural" v="water" />
		<tag k="ssr:stedsnr" v="109500" />
	</node>
	<node lat="58.33681111285788" lon="8.415330554686104" id="-23277">
		<tag k="name" v="Stemmen" />
		<tag k="place" v="locality" />
		<tag k="ssr:stedsnr" v="109714" />
	</node>
	<node lat="58.3398472221504" lon="8.419002779085297" id="-23279">
		<tag k="name" v="Lauvstadtjenn" />
=======
	<node id="-483665" lat="58.3252500005" lon="8.44100554936">
		<tag k="name" v="Kvennebekken" />
		<tag k="ssr:stedsnr" v="291829" />
		<tag k="waterway" v="stream" />
	</node>
	<node id="-483653" lat="58.362358333" lon="8.4836527729">
		<tag k="name" v="Kjeholmen" />
		<tag k="place" v="islet" />
		<tag k="ssr:stedsnr" v="291289" />
	</node>
	<node id="-483379" lat="58.4862361143" lon="8.49552777324">
		<tag k="name" v="Svartekil" />
		<tag k="natural" v="bay" />
		<tag k="ssr:stedsnr" v="235066" />
	</node>
	<node id="-485675" lat="58.4351666636" lon="8.49833332778">
		<tag k="name" v="Kalvodden" />
		<tag k="natural" v="cape" />
		<tag k="ssr:stedsnr" v="114383" />
	</node>
	<node id="-485664" lat="58.4640277768" lon="8.47716110669">
		<tag k="name" v="Hunsdalstjønn" />
>>>>>>> e1d4bc35ff8a6074a6f2e91616a996b547c36f15
		<tag k="natural" v="water" />
		<tag k="ssr:stedsnr" v="109739" />
	</node>
<<<<<<< HEAD
	<node lat="58.362500003315226" lon="8.336388892570357" id="-23281">
		<tag k="name" v="Hundlandsvatn" />
=======
	<node id="-485658" lat="58.4144222221" lon="8.52980000126">
		<tag k="name" v="Langemyrtjenn" />
>>>>>>> e1d4bc35ff8a6074a6f2e91616a996b547c36f15
		<tag k="natural" v="water" />
		<tag k="ssr:stedsnr" v="109944" />
		<tag k="water" v="lake" />
	</node>
	<node lat="58.41843611087638" lon="8.545077781652704" id="-23286">
		<tag k="name" v="Askedalsbekken" />
		<tag k="ssr:stedsnr" v="113489" />
		<tag k="waterway" v="stream" />
	</node>
<<<<<<< HEAD
	<node lat="58.36987500160178" lon="8.42309722980593" id="-23290">
=======
	<node id="-485657" lat="58.3698750016" lon="8.42309722981">
>>>>>>> e1d4bc35ff8a6074a6f2e91616a996b547c36f15
		<tag k="name" v="Havåstjenn" />
		<tag k="natural" v="water" />
		<tag k="ssr:stedsnr" v="114065" />
	</node>
<<<<<<< HEAD
	<node lat="58.464027776813964" lon="8.477161106691376" id="-23291">
		<tag k="name" v="Hunsdalstjønn" />
		<tag k="natural" v="water" />
		<tag k="ssr:stedsnr" v="114157" />
	</node>
	<node lat="58.43516666362884" lon="8.498333327778228" id="-23298">
		<tag k="name" v="Kalvodden" />
		<tag k="natural" v="cape" />
		<tag k="ssr:stedsnr" v="114383" />
=======
	<node id="-485655" lat="58.4521277789" lon="8.39373610325">
		<tag k="name" v="Kjerrbærstjønn" />
		<tag k="natural" v="water" />
		<tag k="ssr:stedsnr" v="114047" />
	</node>
	<node id="-483605" lat="58.3196361137" lon="8.48793889073">
		<tag k="name" v="Tangen" />
		<tag k="natural" v="cape" />
		<tag k="ssr:stedsnr" v="169324" />
	</node>
	<node id="-485650" lat="58.4184361109" lon="8.54507778165">
		<tag k="name" v="Askedalsbekken" />
		<tag k="ssr:stedsnr" v="113489" />
		<tag k="waterway" v="stream" />
>>>>>>> e1d4bc35ff8a6074a6f2e91616a996b547c36f15
	</node>
	<node id="-485640" lat="58.3398472222" lon="8.41900277909">
		<tag k="name" v="Lauvstadtjenn" />
		<tag k="natural" v="water" />
		<tag k="ssr:stedsnr" v="109739" />
	</node>
	<node id="-485639" lat="58.3519666686" lon="8.41552777613">
		<tag k="name" v="Stemtjenn" />
		<tag k="natural" v="water" />
		<tag k="ssr:stedsnr" v="109500" />
	</node>
	<node id="-483577" lat="58.4006555565" lon="8.60829722417">
		<tag k="name" v="Patjenn" />
		<tag k="natural" v="water" />
		<tag k="ssr:stedsnr" v="272367" />
	</node>
	<node id="-485618" lat="58.4131944438" lon="8.58869443756">
		<tag k="name" v="Haslevika" />
		<tag k="natural" v="bay" />
		<tag k="ssr:stedsnr" v="91270" />
	</node>
	<node id="-485616" lat="58.3909333369" lon="8.69604444301">
		<tag k="name" v="Allemannsbekken" />
		<tag k="ssr:stedsnr" v="90719" />
		<tag k="waterway" v="stream" />
	</node>
	<node id="-483366" lat="58.3363388857" lon="8.39468889364">
		<tag k="name" v="Lille Linddalstjenn" />
		<tag k="natural" v="water" />
		<tag k="ssr:stedsnr" v="230724" />
	</node>
	<node id="-483549" lat="58.4759305575" lon="8.46959722171">
		<tag k="name" v="Rautelitangen" />
		<tag k="natural" v="cape" />
		<tag k="ssr:stedsnr" v="114002" />
	</node>
	<node id="-483544" lat="58.3625000033" lon="8.33638889257">
		<tag k="name" v="Hundlandsvatn" />
		<tag k="natural" v="water" />
		<tag k="ssr:stedsnr" v="109944" />
		<tag k="water" v="lake" />
	</node>
	<node id="-483539" lat="58.3368111129" lon="8.41533055469">
		<tag k="name" v="Stemmen" />
		<tag k="place" v="locality" />
		<tag k="ssr:stedsnr" v="109714" />
	</node>
	<node id="-485033" lat="58.355583331" lon="8.55772221483">
		<tag k="name" v="Lille Rosholttjenn" />
		<tag k="natural" v="water" />
		<tag k="old_name" v="Lille Rosholtjenn" />
		<tag k="ssr:stedsnr" v="758328" />
	</node>
	<node id="-483531" lat="58.3813638897" lon="8.59703333231">
		<tag k="alt_name" v="Steintjenn" />
		<tag k="name" v="Steinstjern" />
		<tag k="natural" v="water" />
		<tag k="ssr:stedsnr" v="243551" />
	</node>
	<node id="-483528" lat="58.393061113" lon="8.43590832537">
		<tag k="name" v="Holetjenn" />
		<tag k="natural" v="water" />
		<tag k="ssr:stedsnr" v="243314" />
	</node>
	<node id="-483527" lat="58.3342638857" lon="8.37545834014">
		<tag k="name" v="Lindvannet" />
		<tag k="natural" v="water" />
		<tag k="ssr:stedsnr" v="243247" />
		<tag k="water" v="lake" />
	</node>
	<node id="-485567" lat="58.3920722204" lon="8.55567222646">
		<tag k="name" v="Stemvannet" />
		<tag k="natural" v="water" />
		<tag k="ssr:stedsnr" v="61895" />
		<tag k="water" v="lake" />
	</node>
	<node id="-485566" lat="58.4601611156" lon="8.49693889587">
		<tag k="name" v="Smedvann" />
		<tag k="natural" v="water" />
		<tag k="ssr:stedsnr" v="61622" />
	</node>
	<node id="-485565" lat="58.4122222255" lon="8.53834444211">
		<tag k="name" v="Grunnvannet" />
		<tag k="natural" v="water" />
		<tag k="ssr:stedsnr" v="61555" />
	</node>
	<node id="-485556" lat="58.4640833333" lon="8.44095833023">
		<tag k="name" v="Kollandsvannet" />
		<tag k="natural" v="water" />
		<tag k="ssr:stedsnr" v="61473" />
		<tag k="water" v="lake" />
	</node>
	<node id="-485554" lat="58.3617694474" lon="8.44840556385">
		<tag k="name" v="Lundetjenn" />
		<tag k="natural" v="water" />
		<tag k="ssr:stedsnr" v="61349" />
	</node>
	<node id="-483447" lat="58.3417194407" lon="8.6377638901">
		<tag k="name" v="Saulebukta" />
		<tag k="natural" v="bay" />
		<tag k="ssr:stedsnr" v="237445" />
	</node>
	<node id="-483436" lat="58.4168222232" lon="8.50041389384">
		<tag k="name" v="Søylesundet" />
		<tag k="natural" v="strait" />
		<tag k="ssr:stedsnr" v="53520" />
	</node>
	<node id="-487530" lat="58.4048939626" lon="8.64473351693">
		<tag k="name" v="Kalvehagfossen" />
		<tag k="natural" v="waterfall" />
		<tag k="ssr:stedsnr" v="90711" />
	</node>
	<node id="-483430" lat="58.4376833359" lon="8.52383333196">
		<tag k="name" v="Futjenn" />
		<tag k="natural" v="water" />
		<tag k="ssr:stedsnr" v="53364" />
	</node>
	<node id="-483425" lat="58.3727861103" lon="8.4775111088">
		<tag k="name" v="Heirenes" />
		<tag k="natural" v="cape" />
		<tag k="ssr:stedsnr" v="53110" />
	</node>
	<node id="-483421" lat="58.4089833351" lon="8.32708055922">
		<tag k="name" v="Rørtjenn" />
		<tag k="natural" v="water" />
		<tag k="ssr:stedsnr" v="235981" />
	</node>
	<node id="-483420" lat="58.3960999956" lon="8.35092500094">
		<tag k="name" v="Tvillingtjennene" />
		<tag k="natural" v="water" />
		<tag k="ssr:stedsnr" v="235975" />
	</node>
	<node id="-483419" lat="58.3965916704" lon="8.33980833636">
		<tag k="name" v="Risdaltjenn" />
		<tag k="natural" v="water" />
		<tag k="ssr:stedsnr" v="235973" />
		<tag k="water" v="lake" />
	</node>
	<node id="-485465" lat="58.3907638933" lon="8.32152222671">
		<tag k="name" v="Fleketjenn" />
		<tag k="natural" v="water" />
		<tag k="ssr:stedsnr" v="53967" />
	</node>
	<node id="-485464" lat="58.3983749956" lon="8.49683332888">
		<tag k="name" v="Urdalstjenn" />
		<tag k="natural" v="water" />
		<tag k="ssr:stedsnr" v="53776" />
	</node>
	<node id="-485463" lat="58.4115388917" lon="8.40031665991">
		<tag k="name" v="Øyna" />
		<tag k="place" v="islet" />
		<tag k="ssr:stedsnr" v="53714" />
	</node>
	<node id="-483407" lat="58.4301027796" lon="8.52490000759">
		<tag k="name" v="Monevatn" />
		<tag k="natural" v="water" />
		<tag k="ssr:stedsnr" v="235557" />
	</node>
	<node id="-485451" lat="58.3782027758" lon="8.37536666981">
		<tag k="name" v="Svartetjenn" />
		<tag k="natural" v="water" />
		<tag k="ssr:stedsnr" v="53193" />
	</node>
	<node id="-483402" lat="58.3682416673" lon="8.50234443708">
		<tag k="name" v="Lille Øykall" />
		<tag k="natural" v="cape" />
		<tag k="ssr:stedsnr" v="235417" />
	</node>
	<node id="-483401" lat="58.3721722244" lon="8.54663332826">
		<tag k="name" v="Storenesodden" />
		<tag k="natural" v="cape" />
		<tag k="ssr:stedsnr" v="235399" />
	</node>
	<node id="-485447" lat="58.4383527788" lon="8.36445833409">
		<tag k="name" v="Djupetjønn" />
		<tag k="natural" v="water" />
		<tag k="ssr:stedsnr" v="53096" />
	</node>
	<node id="-485446" lat="58.4442638887" lon="8.39856388321">
		<tag k="name" v="Stemtjønn" />
		<tag k="natural" v="water" />
		<tag k="ssr:stedsnr" v="53046" />
	</node>
	<node id="-485441" lat="58.3659777741" lon="8.3489750052">
		<tag k="name" v="Fillingtveittjenn" />
		<tag k="natural" v="water" />
		<tag k="ssr:stedsnr" v="48944" />
	</node>
	<node id="-485438" lat="58.3453611109" lon="8.40743054921">
		<tag k="name" v="Stomnetjenn" />
		<tag k="natural" v="water" />
		<tag k="ssr:stedsnr" v="48756" />
	</node>
	<node id="-485437" lat="58.3484583365" lon="8.38208888753">
		<tag k="name" v="Stormedalstjenn" />
		<tag k="natural" v="water" />
		<tag k="ssr:stedsnr" v="48466" />
	</node>
	<node id="-483388" lat="58.4651527749" lon="8.47385556249">
		<tag k="name" v="Blomreismyrodden" />
		<tag k="natural" v="cape" />
		<tag k="ssr:stedsnr" v="235143" />
	</node>
	<node id="-483382" lat="58.3863944447" lon="8.50101667369">
		<tag k="name" v="Smalsund" />
		<tag k="natural" v="strait" />
		<tag k="ssr:stedsnr" v="235106" />
	</node>
	<node id="-485429" lat="58.3223333335" lon="8.49509444085">
		<tag k="name" v="Inntjorkilen" />
		<tag k="natural" v="bay" />
		<tag k="ssr:stedsnr" v="48414" />
	</node>
	<node id="-485428" lat="58.3209277775" lon="8.52886110386">
		<tag k="name" v="Flødvika" />
		<tag k="natural" v="bay" />
		<tag k="ssr:stedsnr" v="48397" />
	</node>
	<node id="-485427" lat="58.3512861082" lon="8.48529444677">
		<tag k="name" v="Bjortjenn" />
		<tag k="natural" v="water" />
		<tag k="ssr:stedsnr" v="48334" />
	</node>
	<node id="-483374" lat="58.3315972235" lon="8.37490555065">
		<tag k="name" v="Osuldlon" />
		<tag k="natural" v="water" />
		<tag k="ssr:stedsnr" v="230841" />
		<tag k="water" v="lake" />
	</node>
	<node id="-485421" lat="58.3618138865" lon="8.46504721798">
		<tag k="name" v="Lundesanden" />
		<tag k="natural" v="beach" />
		<tag k="ssr:stedsnr" v="48246" />
	</node>
	<node id="-485420" lat="58.3508361079" lon="8.4732027765">
		<tag k="name" v="Svennevika" />
		<tag k="natural" v="bay" />
		<tag k="ssr:stedsnr" v="48240" />
	</node>
	<node id="-483371" lat="58.3261250031" lon="8.47843333931">
		<tag k="name" v="Hesthommer" />
		<tag k="natural" v="cape" />
		<tag k="ssr:stedsnr" v="230808" />
	</node>
	<node id="-485414" lat="58.3220444477" lon="8.47330277643">
		<tag k="name" v="Bjønnen" />
		<tag k="place" v="islet" />
		<tag k="ssr:stedsnr" v="47349" />
	</node>
	<node id="-485413" lat="58.3208250004" lon="8.45680000438">
		<tag k="name" v="Lyngholmen" />
		<tag k="place" v="islet" />
		<tag k="ssr:stedsnr" v="47348" />
	</node>
	<node id="-483360" lat="58.3223000001" lon="8.44850832645">
		<tag k="name" v="Sagelebukta" />
		<tag k="natural" v="bay" />
		<tag k="ssr:stedsnr" v="230247" />
	</node>
	<node id="-483349" lat="58.40327778" lon="8.64549722894">
		<tag k="name" v="Kvikshaughølen" />
		<tag k="place" v="locality" />
		<tag k="ssr:stedsnr" v="30744" />
	</node>
	<node id="-485388" lat="58.4060416682" lon="8.61955000204">
		<tag k="name" v="Rekevika" />
		<tag k="natural" v="bay" />
		<tag k="ssr:stedsnr" v="30369" />
	</node>
	<node id="-483339" lat="58.4303083333" lon="8.46261111656">
		<tag k="name" v="Grunnevannet" />
		<tag k="natural" v="water" />
		<tag k="ssr:stedsnr" v="426" />
	</node>
	<node id="-483338" lat="58.4187583351" lon="8.43265832806">
		<tag k="name" v="Sandtjenn" />
		<tag k="natural" v="water" />
		<tag k="ssr:stedsnr" v="421" />
	</node>
	<node id="-483337" lat="58.4741888926" lon="8.47705276958">
		<tag k="name" v="Snøløsvann" />
		<tag k="natural" v="water" />
		<tag k="ssr:stedsnr" v="651" />
		<tag k="water" v="lake" />
	</node>
	<node id="-485380" lat="58.3915555563" lon="8.57266666616">
		<tag k="name" v="Bjelkebukt" />
		<tag k="natural" v="bay" />
		<tag k="ssr:stedsnr" v="30282" />
	</node>
	<node id="-485378" lat="58.3893888924" lon="8.57722221686">
		<tag k="name" v="Sveltumtjenn" />
		<tag k="natural" v="water" />
		<tag k="ssr:stedsnr" v="30276" />
	</node>
</osm>
