<?xml version="1.0" encoding="UTF-8"?>
<osm version="0.6" generator="osmapis">
	<node lat="58.335691662380846" lon="8.406316672399289" id="-27297">
		<tag k="name" v="Langemyr" />
		<tag k="natural" v="wetland" />
		<tag k="ssr:stedsnr" v="230722" />
	</node>
	<node lat="58.34721944662656" lon="8.471708327585306" id="-27299">
		<tag k="name" v="Møretrømoen" />
		<tag k="place" v="locality" />
		<tag k="ssr:stedsnr" v="230816" />
	</node>
	<node lat="58.46280278066816" lon="8.484902782462829" id="-27310">
		<tag k="name" v="Liemyra" />
		<tag k="natural" v="wetland" />
		<tag k="ssr:stedsnr" v="235141" />
	</node>
	<node lat="58.38831388701438" lon="8.34295000548176" id="-27314">
		<tag k="name" v="Storemyr" />
		<tag k="natural" v="wetland" />
		<tag k="ssr:stedsnr" v="235158" />
	</node>
	<node lat="58.374088891817195" lon="8.440941665978045" id="-27319">
		<tag k="name" v="Storemyr" />
		<tag k="natural" v="wetland" />
		<tag k="ssr:stedsnr" v="235118" />
	</node>
	<node lat="58.382174996745526" lon="8.464269448087864" id="-27321">
		<tag k="name" v="Trettedalsmyra" />
		<tag k="natural" v="wetland" />
		<tag k="ssr:stedsnr" v="235124" />
	</node>
	<node lat="58.42692222349156" lon="8.465033337821652" id="-27327">
		<tag k="name" v="Tverrmyr" />
		<tag k="natural" v="wetland" />
		<tag k="ssr:stedsnr" v="235711" />
	</node>
	<node lat="58.4121444420495" lon="8.423719437226087" id="-27328">
		<tag k="name" v="Langemyr" />
		<tag k="natural" v="wetland" />
		<tag k="ssr:stedsnr" v="235716" />
	</node>
	<node lat="58.40981389133196" lon="8.474133341606358" id="-27329">
		<tag k="name" v="Myrene" />
		<tag k="natural" v="wetland" />
		<tag k="ssr:stedsnr" v="235839" />
	</node>
	<node lat="58.392294447362225" lon="8.330974992774523" id="-27334">
		<tag k="name" v="Breimyr" />
		<tag k="natural" v="wetland" />
		<tag k="ssr:stedsnr" v="235967" />
	</node>
	<node lat="58.341258336994244" lon="8.376644446632763" id="-27337">
		<tag k="name" v="Byttingsmyr" />
		<tag k="natural" v="wetland" />
		<tag k="ssr:stedsnr" v="34829" />
	</node>
	<node lat="58.32367777915868" lon="8.548463893937267" id="-27345">
		<tag k="name" v="Fossbø" />
		<tag k="place" v="locality" />
		<tag k="ssr:stedsnr" v="48277" />
	</node>
	<node lat="58.3206222264967" lon="8.511558337747333" id="-27348">
		<tag k="name" v="Kalveskogen" />
		<tag k="place" v="locality" />
		<tag k="ssr:stedsnr" v="48419" />
	</node>
	<node lat="58.463611107175346" lon="8.432355563077873" id="-27349">
		<tag k="name" v="Langemyr" />
		<tag k="natural" v="wetland" />
		<tag k="ssr:stedsnr" v="52226" />
	</node>
	<node lat="58.38221666645061" lon="8.369844449789012" id="-27358">
		<tag k="name" v="Dyblemyr" />
		<tag k="natural" v="wetland" />
		<tag k="ssr:stedsnr" v="53168" />
	</node>
	<node lat="58.43387499829658" lon="8.486688891061359" id="-27362">
		<tag k="name" v="Tverrheimyrene" />
		<tag k="natural" v="wetland" />
		<tag k="ssr:stedsnr" v="53511" />
	</node>
	<node lat="58.43580832995754" lon="8.467075003909343" id="-27363">
		<tag k="name" v="Strandemyr" />
		<tag k="natural" v="wetland" />
		<tag k="ssr:stedsnr" v="53512" />
	</node>
	<node lat="58.41435277749041" lon="8.35434444400014" id="-27366">
		<tag k="name" v="Langemyr" />
		<tag k="natural" v="wetland" />
		<tag k="ssr:stedsnr" v="53275" />
	</node>
	<node lat="58.43043333398945" lon="8.446555554622279" id="-27367">
		<tag k="name" v="Holemyr" />
		<tag k="natural" v="wetland" />
		<tag k="ssr:stedsnr" v="53706" />
	</node>
	<node lat="58.423505558727506" lon="8.396366671503085" id="-27369">
		<tag k="name" v="Flatmyr" />
		<tag k="natural" v="wetland" />
		<tag k="ssr:stedsnr" v="53710" />
	</node>
	<node lat="58.41054722400309" lon="8.418108339557508" id="-27370">
		<tag k="name" v="Dublemyr" />
		<tag k="natural" v="wetland" />
		<tag k="ssr:stedsnr" v="53712" />
	</node>
	<node lat="58.39564444134857" lon="8.311972223933694" id="-27376">
		<tag k="name" v="Røysemyr" />
		<tag k="natural" v="wetland" />
		<tag k="ssr:stedsnr" v="53971" />
	</node>
	<node lat="58.39589166235495" lon="8.34278611138267" id="-27377">
		<tag k="name" v="Risdalmyra" />
		<tag k="natural" v="wetland" />
		<tag k="ssr:stedsnr" v="53977" />
	</node>
	<node lat="58.362722226688625" lon="8.668083341082292" id="-27520">
		<tag k="name" v="Edens have" />
		<tag k="place" v="locality" />
		<tag k="ssr:stedsnr" v="90440" />
	</node>
	<node lat="58.398286107726186" lon="8.622286107453423" id="-27523">
		<tag k="name" v="Tøramyra" />
		<tag k="natural" v="wetland" />
		<tag k="ssr:stedsnr" v="90367" />
	</node>
	<node lat="58.38459722189474" lon="8.615444446429246" id="-27528">
		<tag k="name" v="Havemyr" />
		<tag k="natural" v="wetland" />
		<tag k="ssr:stedsnr" v="90674" />
	</node>
	<node lat="58.393972222700214" lon="8.678747215174443" id="-27532">
		<tag k="name" v="Karten" />
		<tag k="place" v="locality" />
		<tag k="ssr:stedsnr" v="90726" />
	</node>
	<node lat="58.31239167069128" lon="8.507383335045244" id="-27540">
		<tag k="name" v="Vollene" />
		<tag k="place" v="locality" />
		<tag k="ssr:stedsnr" v="109275" />
	</node>
	<node lat="58.33512222368053" lon="8.499744446467089" id="-27543">
		<tag k="name" v="Dolholtmoen" />
		<tag k="place" v="locality" />
		<tag k="ssr:stedsnr" v="109907" />
	</node>
</osm>
