<?xml version="1.0" encoding="UTF-8"?>
<osm generator="osmapis" version="0.6">
	<node id="-191488" lat="68.6957027762" lon="14.8687666601">
		<tag k="name" v="Pålelva" />
		<tag k="ssr:stedsnr" v="601629" />
		<tag k="waterway" v="stream" />
	</node>
	<node id="-192488" lat="68.8924500018" lon="15.9237277799">
		<tag k="name" v="Skjellbekkvatnet" />
		<tag k="natural" v="water" />
		<tag k="ssr:stedsnr" v="200466" />
	</node>
	<node id="-192482" lat="68.7703861107" lon="15.0995083401">
		<tag k="alt_name" v="Setervatnet" />
		<tag k="name" v="Sætervatnet" />
		<tag k="natural" v="water" />
		<tag k="ssr:stedsnr" v="200328" />
	</node>
	<node id="-192481" lat="68.9091694422" lon="15.9001444372">
		<tag k="name" v="Sandneselva" />
		<tag k="ssr:stedsnr" v="200454" />
		<tag k="waterway" v="river" />
	</node>
	<node id="-192480" lat="68.9227277803" lon="15.9021916662">
		<tag k="alt_name" v="Skredfjellbekken, s;Sørste Skredfjellbekken" />
		<tag k="name" v="Søre Skredfjellbekken" />
		<tag k="ssr:stedsnr" v="200443" />
		<tag k="waterway" v="stream" />
	</node>
	<node id="-192478" lat="68.7429444424" lon="15.6803250073">
		<tag k="fixme" v="multiple name tags, choose one and add the other to alt_name" />
		<tag k="name" v="Bykvannto;Bykvanntovatnet" />
		<tag k="natural" v="water" />
		<tag k="ssr:stedsnr" v="200437" />
	</node>
	<node id="-192477" lat="68.7592277806" lon="15.5213611227">
		<tag k="alt_name" v="Lilandvatnet" />
		<tag k="name" v="Lilandsvatnet" />
		<tag k="natural" v="water" />
		<tag k="ssr:stedsnr" v="200432" />
	</node>
	<node id="-192473" lat="68.8025611065" lon="15.8705000095">
		<tag k="name" v="Myrlandselva" />
		<tag k="ssr:stedsnr" v="200100" />
		<tag k="waterway" v="stream" />
	</node>
	<node id="-192469" lat="68.7660638873" lon="16.0024138808">
		<tag k="alt_name" v="Groftebekken" />
		<tag k="name" v="Grottebekken" />
		<tag k="ssr:stedsnr" v="200149" />
		<tag k="waterway" v="stream" />
	</node>
	<node id="-191480" lat="68.7131499999" lon="14.9735888913">
		<tag k="name" v="Eidet" />
		<tag k="natural" v="strait" />
		<tag k="ssr:stedsnr" v="709672" />
	</node>
	<node id="-192461" lat="68.6727277802" lon="15.2840000098">
		<tag k="name" v="Tortenlivatnan" />
		<tag k="natural" v="water" />
		<tag k="ssr:stedsnr" v="199194" />
		<tag k="water" v="lake" />
	</node>
	<node id="-190795" lat="68.621911107" lon="15.6030611032">
		<tag k="name" v="Innergårdselva" />
		<tag k="ssr:stedsnr" v="279679" />
		<tag k="waterway" v="stream" />
	</node>
	<node id="-192445" lat="68.591230558" lon="15.4902361138">
		<tag k="name" v="Storvatnet" />
		<tag k="natural" v="water" />
		<tag k="ssr:stedsnr" v="199060" />
		<tag k="water" v="lake" />
	</node>
	<node id="-192437" lat="68.7193305578" lon="14.9813111015">
		<tag k="name" v="Tyvhaugelva" />
		<tag k="ssr:stedsnr" v="180875" />
		<tag k="waterway" v="stream" />
	</node>
	<node id="-192434" lat="68.7189444451" lon="14.9177861031">
		<tag k="name" v="3.Vatnet" />
		<tag k="natural" v="water" />
		<tag k="ssr:stedsnr" v="180700" />
	</node>
	<node id="-192423" lat="68.7786749999" lon="15.4943833449">
		<tag k="name" v="Halvgåttmiddagsbekken" />
		<tag k="ssr:stedsnr" v="177104" />
		<tag k="waterway" v="stream" />
	</node>
	<node id="-192420" lat="68.8121972199" lon="15.5559722301">
		<tag k="name" v="Langisen" />
		<tag k="natural" v="water" />
		<tag k="ssr:stedsnr" v="177096" />
	</node>
	<node id="-192416" lat="68.7204138888" lon="15.6362555638">
		<tag k="name" v="Reindalselva" />
		<tag k="ssr:stedsnr" v="177001" />
		<tag k="waterway" v="stream" />
	</node>
	<node id="-192412" lat="68.6658000028" lon="15.5583722198">
		<tag k="name" v="Andreasbekken" />
		<tag k="ssr:stedsnr" v="176762" />
		<tag k="waterway" v="stream" />
	</node>
	<node id="-192411" lat="68.7183527737" lon="14.8141000055">
		<tag k="name" v="Holmen" />
		<tag k="place" v="islet" />
		<tag k="ssr:stedsnr" v="176598" />
	</node>
	<node id="-192410" lat="68.8032416701" lon="15.8331750111">
		<tag k="name" v="Kjerkegårdselva" />
		<tag k="ssr:stedsnr" v="176357" />
		<tag k="waterway" v="stream" />
	</node>
	<node id="-192404" lat="68.6818694453" lon="14.8089555593">
		<tag k="name" v="Gresskarvatnet" />
		<tag k="natural" v="water" />
		<tag k="ssr:stedsnr" v="163722" />
	</node>
	<node id="-192400" lat="68.6777194467" lon="14.8449194505">
		<tag k="name" v="Selvbota" />
		<tag k="ssr:stedsnr" v="163642" />
		<tag k="waterway" v="stream" />
	</node>
	<node id="-192389" lat="68.7217805571" lon="15.1695611129">
		<tag k="name" v="Skinnforsen" />
		<tag k="natural" v="waterfall" />
		<tag k="ssr:stedsnr" v="157865" />
	</node>
	<node id="-192383" lat="68.7442194445" lon="15.5603305608">
		<tag k="name" v="Storelva" />
		<tag k="ssr:stedsnr" v="157724" />
		<tag k="waterway" v="stream" />
	</node>
	<node id="-192378" lat="68.7468416671" lon="15.6289527712">
		<tag k="name" v="Hesbekkan" />
		<tag k="ssr:stedsnr" v="157674" />
		<tag k="waterway" v="stream" />
	</node>
	<node id="-192376" lat="68.6232722258" lon="15.6218611191">
		<tag k="name" v="Kubekken" />
		<tag k="ssr:stedsnr" v="157662" />
		<tag k="waterway" v="stream" />
	</node>
	<node id="-192369" lat="68.6226444444" lon="15.6290222124">
		<tag k="name" v="Labekken" />
		<tag k="ssr:stedsnr" v="157604" />
		<tag k="waterway" v="stream" />
	</node>
	<node id="-192357" lat="68.6790277761" lon="15.4975749972">
		<tag k="name" v="Andkroken" />
		<tag k="natural" v="water" />
		<tag k="ssr:stedsnr" v="157523" />
		<tag k="water" v="lake" />
	</node>
	<node id="-192349" lat="68.6738527743" lon="15.0733860997">
		<tag k="name" v="Innerholmen" />
		<tag k="place" v="islet" />
		<tag k="ssr:stedsnr" v="157283" />
	</node>
	<node id="-192335" lat="68.7034694432" lon="15.3149583391">
		<tag k="alt_name" v="Ronnabekken" />
		<tag k="name" v="Rånabekken" />
		<tag k="ssr:stedsnr" v="139814" />
		<tag k="waterway" v="stream" />
	</node>
	<node id="-192332" lat="68.7310694418" lon="15.3372111083">
		<tag k="name" v="Sandstrandelva" />
		<tag k="ssr:stedsnr" v="139794" />
		<tag k="waterway" v="stream" />
	</node>
	<node id="-192331" lat="68.7362222224" lon="15.3772416546">
		<tag k="fixme" v="multiple name tags, choose one and add the other to alt_name" />
		<tag k="name" v="Skiftbekken;Skjellbekken" />
		<tag k="ssr:stedsnr" v="139791" />
		<tag k="waterway" v="stream" />
	</node>
	<node id="-192330" lat="68.7494166696" lon="15.2029194389">
		<tag k="name" v="Kalvvatnet" />
		<tag k="natural" v="water" />
		<tag k="ssr:stedsnr" v="139766" />
	</node>
	<node id="-191116" lat="68.9385833318" lon="15.881919452">
		<tag k="name" v="Rødhammartjønnen" />
		<tag k="natural" v="water" />
		<tag k="ssr:stedsnr" v="482680" />
		<tag k="water" v="lake" />
	</node>
	<node id="-192326" lat="68.8924000017" lon="15.9538111019">
		<tag k="name" v="Oterbekken" />
		<tag k="ssr:stedsnr" v="139485" />
		<tag k="waterway" v="stream" />
	</node>
	<node id="-192316" lat="68.7685749997" lon="15.2613694372">
		<tag k="alt_name" v="Slettåstjørna" />
		<tag k="name" v="Slettåstjønna" />
		<tag k="natural" v="water" />
		<tag k="ssr:stedsnr" v="139427" />
	</node>
	<node id="-192310" lat="68.5959499957" lon="15.3968611191">
		<tag k="name" v="Langvågen" />
		<tag k="natural" v="bay" />
		<tag k="ssr:stedsnr" v="139210" />
	</node>
	<node id="-192309" lat="68.7660833326" lon="15.9349638761">
		<tag k="name" v="Holandsbekken" />
		<tag k="ssr:stedsnr" v="139161" />
		<tag k="waterway" v="stream" />
	</node>
	<node id="-192308" lat="68.6988916701" lon="15.2917333285">
		<tag k="alt_name" v="Blåhammardalsvatnet" />
		<tag k="name" v="Blåhammarvatnet" />
		<tag k="natural" v="water" />
		<tag k="ssr:stedsnr" v="139156" />
	</node>
	<node id="-192306" lat="68.6965000005" lon="15.5847444462">
		<tag k="name" v="Osvollvatnet" />
		<tag k="natural" v="water" />
		<tag k="ssr:stedsnr" v="139153" />
		<tag k="water" v="lake" />
	</node>
	<node id="-192305" lat="68.6865194465" lon="15.5267249891">
		<tag k="name" v="Osvollelva" />
		<tag k="ssr:stedsnr" v="139150" />
		<tag k="waterway" v="river" />
	</node>
	<node id="-192303" lat="68.8028527809" lon="15.8358638891">
		<tag k="name" v="Kjerkegårdsvatnet" />
		<tag k="natural" v="water" />
		<tag k="ssr:stedsnr" v="139108" />
	</node>
	<node id="-192297" lat="68.7186777811" lon="15.3700805473">
		<tag k="name" v="Ånstadvatnet" />
		<tag k="natural" v="water" />
		<tag k="ssr:stedsnr" v="138856" />
	</node>
	<node id="-192291" lat="68.7244111109" lon="15.6723749896">
		<tag k="name" v="Polljordelva" />
		<tag k="ssr:stedsnr" v="138460" />
		<tag k="waterway" v="stream" />
	</node>
	<node id="-192285" lat="68.7646694416" lon="15.0960138794">
		<tag k="alt_name" v="Seterelva" />
		<tag k="name" v="Sæterelva" />
		<tag k="ssr:stedsnr" v="138360" />
		<tag k="waterway" v="stream" />
	</node>
	<node id="-192282" lat="68.785891668" lon="15.5222555664">
		<tag k="alt_name" v="Skjåhågvatnet" />
		<tag k="name" v="Skjåhaugvatnet" />
		<tag k="natural" v="water" />
		<tag k="ssr:stedsnr" v="138339" />
	</node>
	<node id="-192281" lat="68.648061108" lon="15.7502416717">
		<tag k="name" v="Urddalsvatnet" />
		<tag k="natural" v="water" />
		<tag k="ssr:stedsnr" v="138337" />
	</node>
	<node id="-192274" lat="68.5513805557" lon="15.4278583299">
		<tag k="alt_name" v="Fjerdvasselva" />
		<tag k="name" v="Fjerdevasselva" />
		<tag k="ssr:stedsnr" v="138109" />
		<tag k="waterway" v="stream" />
	</node>
	<node id="-192273" lat="68.5779666711" lon="15.5624861051">
		<tag k="name" v="Rundvatnan" />
		<tag k="natural" v="water" />
		<tag k="ssr:stedsnr" v="138095" />
	</node>
	<node id="-190765" lat="68.6528555524" lon="15.161794443">
		<tag k="alt_name" v="Vesterliskardelva" />
		<tag k="name" v="Vesterliskarelva" />
		<tag k="ssr:stedsnr" v="138214" />
		<tag k="waterway" v="stream" />
	</node>
	<node id="-192264" lat="68.6131805522" lon="15.4920666594">
		<tag k="alt_name" v="Stidelvvatnet, nedre" />
		<tag k="fixme" v="multiple name tags, choose one and add the other to alt_name" />
		<tag k="name" v="Nedre Strielvvatn;Nedre Stidelvvatnet" />
		<tag k="natural" v="water" />
		<tag k="ssr:stedsnr" v="138020" />
		<tag k="water" v="lake" />
	</node>
	<node id="-192262" lat="68.6507277791" lon="15.5357222245">
		<tag k="name" v="Galtvatnet" />
		<tag k="natural" v="water" />
		<tag k="ssr:stedsnr" v="138274" />
	</node>
	<node id="-192261" lat="68.6304333298" lon="15.1767611154">
		<tag k="alt_name" v="Skydalselva" />
		<tag k="name" v="Sydalselva" />
		<tag k="ssr:stedsnr" v="138257" />
		<tag k="waterway" v="stream" />
	</node>
	<node id="-192259" lat="68.734488887" lon="15.2976083271">
		<tag k="name" v="Tverrelva" />
		<tag k="ssr:stedsnr" v="120869" />
		<tag k="waterway" v="stream" />
	</node>
	<node id="-192251" lat="68.567852781" lon="15.35229722">
		<tag k="name" v="Jensbekken" />
		<tag k="ssr:stedsnr" v="120112" />
		<tag k="waterway" v="stream" />
	</node>
	<node id="-192249" lat="68.8727861088" lon="15.8570972244">
		<tag k="name" v="Bjørnfossvatnan" />
		<tag k="natural" v="water" />
		<tag k="ssr:stedsnr" v="119699" />
		<tag k="water" v="lake" />
	</node>
	<node id="-192245" lat="68.7648972236" lon="15.9235083215">
		<tag k="name" v="Enstadbekken" />
		<tag k="ssr:stedsnr" v="119317" />
		<tag k="waterway" v="stream" />
	</node>
	<node id="-192236" lat="68.6948611128" lon="14.8382916598">
		<tag k="name" v="Lomvatnet" />
		<tag k="natural" v="water" />
		<tag k="ssr:stedsnr" v="116662" />
	</node>
	<node id="-192230" lat="68.6622027783" lon="15.5584527688">
		<tag k="name" v="Dauelva" />
		<tag k="natural" v="bay" />
		<tag k="ssr:stedsnr" v="116767" />
	</node>
	<node id="-192229" lat="68.6614222246" lon="15.5689194458">
		<tag k="name" v="Nordkleivelva" />
		<tag k="ssr:stedsnr" v="116754" />
		<tag k="waterway" v="stream" />
	</node>
	<node id="-191099" lat="68.7149194423" lon="14.9779333424">
		<tag k="name" v="Rabbelva" />
		<tag k="ssr:stedsnr" v="302855" />
		<tag k="waterway" v="stream" />
	</node>
	<node id="-192223" lat="68.7691305573" lon="15.5277527879">
		<tag k="name" v="Flatberget" />
		<tag k="place" v="islet" />
		<tag k="ssr:stedsnr" v="116123" />
	</node>
	<node id="-192195" lat="68.688052778" lon="15.4776388768">
		<tag k="name" v="Klemmingsbekken" />
		<tag k="ssr:stedsnr" v="97543" />
		<tag k="waterway" v="stream" />
	</node>
	<node id="-192194" lat="68.6716805572" lon="15.4903472119">
		<tag k="name" v="Klemningan" />
		<tag k="natural" v="water" />
		<tag k="ssr:stedsnr" v="97500" />
		<tag k="water" v="lake" />
	</node>
	<node id="-192192" lat="68.7194027785" lon="15.4437638778">
		<tag k="name" v="Storvikbekken" />
		<tag k="ssr:stedsnr" v="97486" />
		<tag k="waterway" v="stream" />
	</node>
	<node id="-192182" lat="68.6942222179" lon="15.1399666646">
		<tag k="name" v="Sørbogelva" />
		<tag k="ssr:stedsnr" v="96628" />
		<tag k="waterway" v="stream" />
	</node>
	<node id="-192168" lat="68.7379166687" lon="15.3562166624">
		<tag k="alt_name" v="Novatjørna" />
		<tag k="name" v="Novatjønna" />
		<tag k="natural" v="water" />
		<tag k="ssr:stedsnr" v="79779" />
	</node>
	<node id="-192164" lat="68.7301083369" lon="15.2942138985">
		<tag k="name" v="Storvatnet" />
		<tag k="natural" v="water" />
		<tag k="ssr:stedsnr" v="79734" />
	</node>
	<node id="-192152" lat="68.8593194443" lon="15.8527500023">
		<tag k="name" v="Storvatnet" />
		<tag k="natural" v="water" />
		<tag k="ssr:stedsnr" v="79046" />
	</node>
	<node id="-192151" lat="68.8668111092" lon="15.8845083271">
		<tag k="name" v="Tverrelva" />
		<tag k="ssr:stedsnr" v="79043" />
		<tag k="waterway" v="stream" />
	</node>
	<node id="-192145" lat="68.6912277755" lon="15.6231305547">
		<tag k="name" v="Trolldalsvatnet" />
		<tag k="natural" v="water" />
		<tag k="ssr:stedsnr" v="78485" />
	</node>
	<node id="-192139" lat="68.9274249955" lon="15.8630805649">
		<tag k="name" v="Båtvatnet" />
		<tag k="natural" v="water" />
		<tag k="ssr:stedsnr" v="78435" />
	</node>
	<node id="-192138" lat="68.9258277758" lon="15.897958328">
		<tag k="alt_name" v="Skredfjellbekken, nordre;Nordste Skredfjellbekken" />
		<tag k="name" v="Nordre Skredfjellbekken" />
		<tag k="ssr:stedsnr" v="78433" />
		<tag k="waterway" v="stream" />
	</node>
	<node id="-192134" lat="68.7766361158" lon="15.0463861057">
		<tag k="fixme" v="multiple name tags, choose one and add the other to alt_name" />
		<tag k="name" v="Sortelva;Strompelva" />
		<tag k="ssr:stedsnr" v="78367" />
		<tag k="waterway" v="stream" />
	</node>
	<node id="-192129" lat="68.7721083354" lon="15.5246055584">
		<tag k="alt_name" v="Breidneset" />
		<tag k="name" v="Breineset" />
		<tag k="natural" v="cape" />
		<tag k="ssr:stedsnr" v="78306" />
	</node>
	<node id="-192126" lat="68.6770944408" lon="15.1521444524">
		<tag k="name" v="Laelva" />
		<tag k="ssr:stedsnr" v="78194" />
		<tag k="waterway" v="stream" />
	</node>
	<node id="-192120" lat="68.6813472184" lon="15.2151944352">
		<tag k="name" v="Valfjordelva" />
		<tag k="ssr:stedsnr" v="78136" />
		<tag k="waterway" v="stream" />
	</node>
	<node id="-192118" lat="68.6891472263" lon="15.3560555614">
		<tag k="alt_name" v="Saubekktjørna" />
		<tag k="name" v="Saubekktjønna" />
		<tag k="natural" v="water" />
		<tag k="ssr:stedsnr" v="78132" />
	</node>
	<node id="-192115" lat="68.5805277818" lon="15.4142305607">
		<tag k="name" v="Svartdalselva" />
		<tag k="ssr:stedsnr" v="78084" />
		<tag k="waterway" v="stream" />
	</node>
	<node id="-192097" lat="68.6830944459" lon="15.1417083358">
		<tag k="name" v="Tverrelva" />
		<tag k="ssr:stedsnr" v="59641" />
		<tag k="waterway" v="stream" />
	</node>
	<node id="-192092" lat="68.6957333294" lon="15.7272777854">
		<tag k="name" v="Jobekken" />
		<tag k="ssr:stedsnr" v="59043" />
		<tag k="waterway" v="stream" />
	</node>
	<node id="-192089" lat="68.7028305588" lon="15.5955194397">
		<tag k="name" v="Sandbekken" />
		<tag k="ssr:stedsnr" v="57860" />
		<tag k="waterway" v="stream" />
	</node>
	<node id="-192073" lat="68.8962000028" lon="15.9315249952">
		<tag k="name" v="Skjellbekken" />
		<tag k="ssr:stedsnr" v="56613" />
		<tag k="waterway" v="stream" />
	</node>
	<node id="-192068" lat="68.7073722233" lon="15.4943611131">
		<tag k="name" v="Litlevatnet" />
		<tag k="natural" v="water" />
		<tag k="ssr:stedsnr" v="55728" />
	</node>
	<node id="-192052" lat="68.7228972249" lon="15.5388583262">
		<tag k="name" v="Gårdselva" />
		<tag k="ssr:stedsnr" v="41236" />
		<tag k="waterway" v="stream" />
	</node>
	<node id="-192039" lat="68.7483305565" lon="15.6350972311">
		<tag k="name" v="Heselva" />
		<tag k="ssr:stedsnr" v="36652" />
		<tag k="waterway" v="stream" />
	</node>
	<node id="-192038" lat="68.7476805521" lon="15.6652611073">
		<tag k="name" v="Tverrelva" />
		<tag k="ssr:stedsnr" v="36648" />
		<tag k="waterway" v="stream" />
	</node>
	<node id="-192035" lat="68.6126472194" lon="15.4645166688">
		<tag k="name" v="Strielva" />
		<tag k="ssr:stedsnr" v="36553" />
		<tag k="waterway" v="river" />
	</node>
	<node id="-191406" lat="68.7961444414" lon="15.5248249891">
		<tag k="name" v="Litleelva" />
		<tag k="ssr:stedsnr" v="527219" />
		<tag k="waterway" v="stream" />
	</node>
	<node id="-190722" lat="68.9013749959" lon="15.8654972207">
		<tag k="alt_name" v="Kvalskardvatnet" />
		<tag k="name" v="Kvalskarvatnet" />
		<tag k="natural" v="water" />
		<tag k="ssr:stedsnr" v="260477" />
	</node>
	<node id="-192006" lat="68.751802778" lon="15.2039583298">
		<tag k="name" v="Småvatnan" />
		<tag k="natural" v="water" />
		<tag k="ssr:stedsnr" v="34081" />
		<tag k="water" v="lake" />
	</node>
	<node id="-191999" lat="68.7383527816" lon="15.192147223">
		<tag k="name" v="Hornvatnet" />
		<tag k="natural" v="water" />
		<tag k="ssr:stedsnr" v="18759" />
		<tag k="water" v="lake" />
	</node>
	<node id="-191994" lat="68.7494555588" lon="15.2551111073">
		<tag k="fixme" v="multiple name tags, choose one and add the other to alt_name" />
		<tag k="name" v="Gorrtjønna;Lomtjørna" />
		<tag k="natural" v="water" />
		<tag k="ssr:stedsnr" v="18733" />
	</node>
	<node id="-190719" lat="68.7596055585" lon="15.2395527665">
		<tag k="name" v="Vikelva" />
		<tag k="ssr:stedsnr" v="260452" />
		<tag k="waterway" v="stream" />
	</node>
	<node id="-191979" lat="68.7607833306" lon="15.6177611049">
		<tag k="fixme" v="multiple name tags, choose one and add the other to alt_name" />
		<tag k="name" v="Gårdsdalsvatnet;Gårdsvatnet" />
		<tag k="natural" v="water" />
		<tag k="ssr:stedsnr" v="18376" />
	</node>
	<node id="-191970" lat="68.698536113" lon="15.2452805436">
		<tag k="alt_name" v="Skyggevatnet" />
		<tag k="name" v="Skuggevatnet" />
		<tag k="natural" v="water" />
		<tag k="ssr:stedsnr" v="18146" />
	</node>
	<node id="-190715" lat="68.7815527799" lon="15.2240361137">
		<tag k="name" v="Mellaelva" />
		<tag k="ssr:stedsnr" v="260372" />
		<tag k="waterway" v="stream" />
	</node>
	<node id="-191964" lat="68.6441722263" lon="15.5534333396">
		<tag k="name" v="Rødfjelldalsbekken" />
		<tag k="ssr:stedsnr" v="17287" />
		<tag k="waterway" v="stream" />
	</node>
	<node id="-191961" lat="68.661011107" lon="15.4761999994">
		<tag k="alt_name" v="Stortjørna" />
		<tag k="name" v="Stortjønna" />
		<tag k="natural" v="water" />
		<tag k="ssr:stedsnr" v="17239" />
	</node>
	<node id="-191960" lat="68.6839055526" lon="15.7484416727">
		<tag k="fixme" v="multiple name tags, choose one and add the other to alt_name" />
		<tag k="name" v="Sørdalselva;Sørfjordelva" />
		<tag k="ssr:stedsnr" v="17232" />
		<tag k="waterway" v="river" />
	</node>
	<node id="-191957" lat="68.674466663" lon="15.0716999868">
		<tag k="alt_name" v="Gårdsvatnet, in" />
		<tag k="fixme" v="multiple name tags, choose one and add the other to alt_name" />
		<tag k="name" v="Gårdsvatnet;Indre Gårdsvatnet" />
		<tag k="natural" v="water" />
		<tag k="ssr:stedsnr" v="17218" />
	</node>
	<node id="-191952" lat="68.6684638879" lon="15.2847833347">
		<tag k="name" v="Storelva" />
		<tag k="ssr:stedsnr" v="17182" />
		<tag k="waterway" v="stream" />
	</node>
	<node id="-191949" lat="68.6815444427" lon="15.1629416672">
		<tag k="name" v="Lahaugelva" />
		<tag k="ssr:stedsnr" v="17158" />
		<tag k="waterway" v="river" />
	</node>
	<node id="-191947" lat="68.6839944434" lon="15.1488388972">
		<tag k="name" v="Ladalselva" />
		<tag k="ssr:stedsnr" v="17151" />
		<tag k="waterway" v="stream" />
	</node>
	<node id="-191946" lat="68.6874666688" lon="15.199622214">
		<tag k="name" v="Slåttbekken" />
		<tag k="ssr:stedsnr" v="17148" />
		<tag k="waterway" v="stream" />
	</node>
	<node id="-191945" lat="68.715472224" lon="15.7617416735">
		<tag k="name" v="Ævatnet" />
		<tag k="natural" v="water" />
		<tag k="ssr:stedsnr" v="17493" />
	</node>
	<node id="-191928" lat="68.7001277813" lon="15.7127916679">
		<tag k="name" v="Finnesbekken" />
		<tag k="ssr:stedsnr" v="969070" />
		<tag k="waterway" v="stream" />
	</node>
	<node id="-191927" lat="68.6795638914" lon="15.7612583424">
		<tag k="name" v="Kristofferneset" />
		<tag k="natural" v="cape" />
		<tag k="ssr:stedsnr" v="969063" />
	</node>
	<node id="-191925" lat="68.7885638927" lon="15.2842138909">
		<tag k="name" v="Middagselva" />
		<tag k="ssr:stedsnr" v="967569" />
		<tag k="waterway" v="stream" />
	</node>
	<node id="-193438" lat="68.6112194462" lon="15.6534277698">
		<tag k="name" v="Botnelvvatnet" />
		<tag k="natural" v="water" />
		<tag k="ssr:stedsnr" v="807354" />
	</node>
	<node id="-191921" lat="68.7558972235" lon="15.476775004">
		<tag k="name" v="Maurnesbekken" />
		<tag k="ssr:stedsnr" v="966819" />
		<tag k="waterway" v="stream" />
	</node>
	<node id="-191917" lat="68.7817333298" lon="15.5120805542">
		<tag k="name" v="Elvkjeften" />
		<tag k="natural" v="bay" />
		<tag k="ssr:stedsnr" v="966113" />
	</node>
	<node id="-191911" lat="68.5916888917" lon="15.4734055553">
		<tag k="name" v="Vassbukta" />
		<tag k="natural" v="bay" />
		<tag k="ssr:stedsnr" v="965767" />
	</node>
	<node id="-191893" lat="68.6923333321" lon="15.1489916638">
		<tag k="name" v="Litleelva" />
		<tag k="ssr:stedsnr" v="928824" />
		<tag k="waterway" v="stream" />
	</node>
	<node id="-191891" lat="68.7057722231" lon="15.4575111209">
		<tag k="name" v="Strandelva" />
		<tag k="ssr:stedsnr" v="928817" />
		<tag k="waterway" v="stream" />
	</node>
	<node id="-191383" lat="68.7112916638" lon="15.482263891">
		<tag k="name" v="Kringelelva" />
		<tag k="ssr:stedsnr" v="685810" />
		<tag k="waterway" v="stream" />
	</node>
	<node id="-191879" lat="68.8060527803" lon="15.268624996">
		<tag k="name" v="Vollelva" />
		<tag k="ssr:stedsnr" v="928307" />
		<tag k="waterway" v="stream" />
	</node>
	<node id="-191877" lat="68.7819277806" lon="15.87132778">
		<tag k="name" v="Skognesbekken" />
		<tag k="ssr:stedsnr" v="908322" />
		<tag k="waterway" v="stream" />
	</node>
	<node id="-191871" lat="68.7772527815" lon="15.4865305655">
		<tag k="name" v="Reinsneselva" />
		<tag k="ssr:stedsnr" v="905107" />
		<tag k="waterway" v="stream" />
	</node>
	<node id="-191850" lat="68.7956805575" lon="15.5149777871">
		<tag k="alt_name" v="Rogsøyeidet" />
		<tag k="name" v="Roksøyeidet" />
		<tag k="natural" v="strait" />
		<tag k="ssr:stedsnr" v="868353" />
	</node>
	<node id="-191849" lat="68.7114916698" lon="15.4433361045">
		<tag k="name" v="Skarsteinbekken" />
		<tag k="ssr:stedsnr" v="948000" />
		<tag k="waterway" v="stream" />
	</node>
	<node id="-191846" lat="68.6842722189" lon="15.5160027747">
		<tag k="name" v="Gammellahøljet" />
		<tag k="natural" v="water" />
		<tag k="ssr:stedsnr" v="947530" />
		<tag k="water" v="lake" />
	</node>
	<node id="-191841" lat="68.5854944405" lon="15.429538884">
		<tag k="name" v="Eidelva" />
		<tag k="ssr:stedsnr" v="867111" />
		<tag k="waterway" v="river" />
	</node>
	<node id="-191839" lat="68.5708805544" lon="15.4605333207">
		<tag k="name" v="Helganeset" />
		<tag k="natural" v="cape" />
		<tag k="ssr:stedsnr" v="867107" />
	</node>
	<node id="-191813" lat="68.7114138903" lon="15.3355777668">
		<tag k="name" v="Heimsteblåsterbekken" />
		<tag k="ssr:stedsnr" v="945538" />
		<tag k="waterway" v="stream" />
	</node>
	<node id="-191804" lat="68.6943166681" lon="15.4557888965">
		<tag k="name" v="Breibekken" />
		<tag k="ssr:stedsnr" v="825126" />
		<tag k="waterway" v="stream" />
	</node>
	<node id="-191795" lat="68.7321611068" lon="15.1507138857">
		<tag k="alt_name" v="Aurtjørna" />
		<tag k="name" v="Aurtjønna" />
		<tag k="natural" v="water" />
		<tag k="ssr:stedsnr" v="928736" />
	</node>
	<node id="-191793" lat="68.7078666627" lon="15.3419444538">
		<tag k="name" v="Storvatnet" />
		<tag k="natural" v="water" />
		<tag k="ssr:stedsnr" v="928864" />
		<tag k="water" v="lake" />
	</node>
	<node id="-191790" lat="68.7081472254" lon="15.1908499927">
		<tag k="name" v="Durmålsbekken" />
		<tag k="ssr:stedsnr" v="928851" />
		<tag k="waterway" v="stream" />
	</node>
	<node id="-191780" lat="68.7679472221" lon="15.0762527745">
		<tag k="name" v="Selnesvatnet" />
		<tag k="natural" v="water" />
		<tag k="ssr:stedsnr" v="928299" />
		<tag k="water" v="lake" />
	</node>
	<node id="-191778" lat="68.7833555547" lon="15.0621749899">
		<tag k="name" v="Slåttelva" />
		<tag k="ssr:stedsnr" v="928284" />
		<tag k="waterway" v="stream" />
	</node>
	<node id="-191776" lat="68.7121944475" lon="14.9042416563">
		<tag k="name" v="Trolldalsvatnet" />
		<tag k="natural" v="water" />
		<tag k="ssr:stedsnr" v="928269" />
	</node>
	<node id="-191771" lat="68.574541663" lon="15.4568055419">
		<tag k="name" v="Slåttneset" />
		<tag k="natural" v="cape" />
		<tag k="ssr:stedsnr" v="928183" />
	</node>
	<node id="-191770" lat="68.7742805519" lon="15.9635999877">
		<tag k="alt_name" v="Heivatnet" />
		<tag k="name" v="Heiavatnet" />
		<tag k="natural" v="water" />
		<tag k="ssr:stedsnr" v="928170" />
	</node>
	<node id="-191767" lat="68.7723055575" lon="16.0042305499">
		<tag k="name" v="Elvan" />
		<tag k="ssr:stedsnr" v="928142" />
		<tag k="waterway" v="stream" />
	</node>
	<node id="-191764" lat="68.6866666652" lon="15.0635805499">
		<tag k="alt_name" v="Molvikelva" />
		<tag k="name" v="Moldvikelva" />
		<tag k="ssr:stedsnr" v="928125" />
		<tag k="waterway" v="stream" />
	</node>
	<node id="-191762" lat="68.6873750008" lon="15.2583722299">
		<tag k="name" v="Keipvatnet" />
		<tag k="natural" v="water" />
		<tag k="ssr:stedsnr" v="928120" />
	</node>
	<node id="-191363" lat="68.7400833365" lon="15.8331138853">
		<tag k="alt_name" v="Lebikelva" />
		<tag k="name" v="Lebbikelva" />
		<tag k="ssr:stedsnr" v="685425" />
		<tag k="waterway" v="stream" />
	</node>
	<node id="-191760" lat="68.7952138882" lon="15.6484277868">
		<tag k="alt_name" v="Fuglevatnet, store;Storfuglvatnet" />
		<tag k="name" v="Store Fuglevatnet" />
		<tag k="natural" v="water" />
		<tag k="ssr:stedsnr" v="928092" />
	</node>
	<node id="-191757" lat="68.7931305579" lon="15.5128638791">
		<tag k="name" v="Åsvatnet" />
		<tag k="natural" v="water" />
		<tag k="ssr:stedsnr" v="806362" />
	</node>
	<node id="-191755" lat="68.6706138909" lon="15.2081444569">
		<tag k="name" v="Småvatnan" />
		<tag k="natural" v="water" />
		<tag k="ssr:stedsnr" v="806166" />
		<tag k="water" v="lake" />
	</node>
	<node id="-191752" lat="68.6479388903" lon="15.2270249923">
		<tag k="name" v="Holandsvatnet" />
		<tag k="natural" v="water" />
		<tag k="ssr:stedsnr" v="806205" />
	</node>
	<node id="-191360" lat="68.76190833" lon="15.1635083333">
		<tag k="fixme" v="multiple name tags, choose one and add the other to alt_name" />
		<tag k="name" v="Akselvatnet;Bekkevatnet" />
		<tag k="natural" v="water" />
		<tag k="ssr:stedsnr" v="685401" />
	</node>
	<node id="-191741" lat="68.6640972196" lon="15.2873666576">
		<tag k="alt_name" v="Storhågvatnet" />
		<tag k="name" v="Storhaugvatnet" />
		<tag k="natural" v="water" />
		<tag k="ssr:stedsnr" v="927171" />
	</node>
	<node id="-191740" lat="68.6640611102" lon="15.3297222189">
		<tag k="name" v="Skiftbekken" />
		<tag k="ssr:stedsnr" v="927169" />
		<tag k="waterway" v="stream" />
	</node>
	<node id="-191731" lat="68.7380444426" lon="14.9565610984">
		<tag k="name" v="Innerelva" />
		<tag k="ssr:stedsnr" v="787807" />
		<tag k="waterway" v="stream" />
	</node>
	<node id="-191721" lat="68.6884861125" lon="15.3652499945">
		<tag k="name" v="Saubekken" />
		<tag k="ssr:stedsnr" v="764703" />
		<tag k="waterway" v="stream" />
	</node>
	<node id="-191718" lat="68.7100055581" lon="15.3249166577">
		<tag k="name" v="Vesterblåsterbekken" />
		<tag k="ssr:stedsnr" v="763607" />
		<tag k="waterway" v="stream" />
	</node>
	<node id="-191014" lat="68.7793694427" lon="15.6449944403">
		<tag k="name" v="Kjelen" />
		<tag k="natural" v="water" />
		<tag k="ssr:stedsnr" v="260117" />
	</node>
	<node id="-191354" lat="68.635191669" lon="15.652455558">
		<tag k="name" v="Botnvatnet" />
		<tag k="natural" v="water" />
		<tag k="ssr:stedsnr" v="685304" />
	</node>
	<node id="-191705" lat="68.5684249972" lon="15.3612833344">
		<tag k="name" v="Laskallelva" />
		<tag k="ssr:stedsnr" v="909119" />
		<tag k="waterway" v="stream" />
	</node>
	<node id="-191700" lat="68.7098805558" lon="15.7592555533">
		<tag k="name" v="Evatnet" />
		<tag k="natural" v="water" />
		<tag k="ssr:stedsnr" v="908088" />
	</node>
	<node id="-191351" lat="68.8424777805" lon="15.3354805525">
		<tag k="name" v="Tinddalselva" />
		<tag k="ssr:stedsnr" v="685286" />
		<tag k="waterway" v="stream" />
	</node>
	<node id="-191688" lat="68.7816833289" lon="15.9958138908">
		<tag k="name" v="Kråkvikbekken" />
		<tag k="ssr:stedsnr" v="907515" />
		<tag k="waterway" v="stream" />
	</node>
	<node id="-190668" lat="68.6871972231" lon="15.4612249975">
		<tag k="name" v="Rumpetrolltjønna" />
		<tag k="natural" v="water" />
		<tag k="ssr:stedsnr" v="97171" />
	</node>
	<node id="-191674" lat="68.7578416638" lon="15.9506722132">
		<tag k="name" v="Gunnesdalelva" />
		<tag k="ssr:stedsnr" v="746159" />
		<tag k="waterway" v="stream" />
	</node>
	<node id="-191673" lat="68.8094249983" lon="15.6975305537">
		<tag k="name" v="Forfjordelva" />
		<tag k="ssr:stedsnr" v="746118" />
		<tag k="waterway" v="river" />
	</node>
	<node id="-191669" lat="68.6559277737" lon="15.0454222282">
		<tag k="name" v="Langvatnet" />
		<tag k="natural" v="water" />
		<tag k="ssr:stedsnr" v="745256" />
		<tag k="water" v="lake" />
	</node>
	<node id="-191668" lat="68.6516638929" lon="15.6010722222">
		<tag k="name" v="Storstilla" />
		<tag k="natural" v="water" />
		<tag k="ssr:stedsnr" v="745253" />
		<tag k="water" v="lake" />
	</node>
	<node id="-191667" lat="68.6776694413" lon="15.2294777649">
		<tag k="name" v="Valfjordvatnet" />
		<tag k="natural" v="water" />
		<tag k="ssr:stedsnr" v="745220" />
		<tag k="water" v="lake" />
	</node>
	<node id="-191666" lat="68.6744083326" lon="15.3312805517">
		<tag k="name" v="Elveneselva" />
		<tag k="ssr:stedsnr" v="745214" />
		<tag k="waterway" v="river" />
	</node>
	<node id="-191661" lat="68.7519972218" lon="15.493177771">
		<tag k="name" v="Hågelva" />
		<tag k="ssr:stedsnr" v="905796" />
		<tag k="waterway" v="stream" />
	</node>
	<node id="-191657" lat="68.8186750023" lon="15.5522666692">
		<tag k="name" v="Botn" />
		<tag k="natural" v="bay" />
		<tag k="ssr:stedsnr" v="905099" />
	</node>
	<node id="-191651" lat="68.5649888894" lon="15.3621333276">
		<tag k="name" v="Labukta" />
		<tag k="natural" v="bay" />
		<tag k="ssr:stedsnr" v="727003" />
	</node>
	<node id="-191645" lat="68.8487250036" lon="15.9100861092">
		<tag k="name" v="Finntjeld" />
		<tag k="natural" v="spring" />
		<tag k="ssr:stedsnr" v="726358" />
	</node>
	<node id="-191644" lat="68.6932722209" lon="15.6939805455">
		<tag k="name" v="Merraflesbekken" />
		<tag k="ssr:stedsnr" v="726048" />
		<tag k="waterway" v="stream" />
	</node>
	<node id="-191641" lat="68.581174996" lon="15.4485972109">
		<tag k="name" v="Skredbukta" />
		<tag k="natural" v="bay" />
		<tag k="ssr:stedsnr" v="725557" />
	</node>
	<node id="-191341" lat="68.7513861114" lon="15.9423861142">
		<tag k="alt_name" v="Litjevatnet" />
		<tag k="name" v="Litlevatnet" />
		<tag k="natural" v="water" />
		<tag k="ssr:stedsnr" v="685161" />
	</node>
	<node id="-193654" lat="68.7752694467" lon="15.8311639005">
		<tag k="name" v="Skjellbekken" />
		<tag k="ssr:stedsnr" v="969338" />
		<tag k="waterway" v="stream" />
	</node>
	<node id="-191603" lat="68.6502749982" lon="15.227372227">
		<tag k="name" v="Rakelva" />
		<tag k="ssr:stedsnr" v="885848" />
		<tag k="waterway" v="stream" />
	</node>
	<node id="-191594" lat="68.7665499996" lon="15.1528694501">
		<tag k="name" v="Litlestraumvatnet" />
		<tag k="natural" v="water" />
		<tag k="ssr:stedsnr" v="885438" />
	</node>
	<node id="-191590" lat="68.7687000011" lon="15.223486101">
		<tag k="name" v="Elvekroken" />
		<tag k="ssr:stedsnr" v="885195" />
		<tag k="waterway" v="stream" />
	</node>
	<node id="-191586" lat="68.7288527801" lon="15.0420638986">
		<tag k="alt_name" v="Gryttingstjernet" />
		<tag k="name" v="Gryttingvatnet" />
		<tag k="natural" v="water" />
		<tag k="ssr:stedsnr" v="685726" />
		<tag k="water" v="lake" />
	</node>
	<node id="-191584" lat="68.8077722233" lon="15.6870166703">
		<tag k="name" v="Tverrelva" />
		<tag k="ssr:stedsnr" v="685103" />
		<tag k="waterway" v="stream" />
	</node>
	<node id="-193628" lat="68.6829388904" lon="14.8022416583">
		<tag k="name" v="Hallardalselva" />
		<tag k="ssr:stedsnr" v="952714" />
		<tag k="waterway" v="stream" />
	</node>
	<node id="-191576" lat="68.5658055516" lon="15.347975008">
		<tag k="name" v="Vasstofta" />
		<tag k="natural" v="bay" />
		<tag k="ssr:stedsnr" v="666004" />
	</node>
	<node id="-193620" lat="68.7955305547" lon="15.2576972306">
		<tag k="name" v="Knoppvatnet" />
		<tag k="natural" v="water" />
		<tag k="ssr:stedsnr" v="950585" />
	</node>
	<node id="-193619" lat="68.5977944449" lon="15.6594527828">
		<tag k="name" v="Tverrelvvatnan" />
		<tag k="natural" v="water" />
		<tag k="ssr:stedsnr" v="868776" />
		<tag k="water" v="lake" />
	</node>
	<node id="-193614" lat="68.7015361066" lon="15.6075305661">
		<tag k="name" v="Dalelva" />
		<tag k="ssr:stedsnr" v="868193" />
		<tag k="waterway" v="river" />
	</node>
	<node id="-193613" lat="68.7640361128" lon="15.8114972297">
		<tag k="name" v="Holmelva" />
		<tag k="ssr:stedsnr" v="868164" />
		<tag k="waterway" v="stream" />
	</node>
	<node id="-193612" lat="68.774191665" lon="15.9883500038">
		<tag k="name" v="Kråkvikvatnet" />
		<tag k="natural" v="water" />
		<tag k="ssr:stedsnr" v="868146" />
	</node>
	<node id="-191562" lat="68.7083222184" lon="15.4863555573">
		<tag k="name" v="Kringelvatnet" />
		<tag k="natural" v="water" />
		<tag k="ssr:stedsnr" v="661733" />
	</node>
	<node id="-191561" lat="68.7313999978" lon="15.3675249928">
		<tag k="alt_name" v="Novatjørna" />
		<tag k="name" v="Novatjønna" />
		<tag k="natural" v="water" />
		<tag k="ssr:stedsnr" v="876223" />
	</node>
	<node id="-193608" lat="68.5543555587" lon="15.4179416596">
		<tag k="alt_name" v="Fiskfjordvatnet, tredje;Tredje Fiskefjordvatn" />
		<tag k="name" v="Tredje Fiskfjordvatnet" />
		<tag k="natural" v="water" />
		<tag k="ssr:stedsnr" v="868114" />
	</node>
	<node id="-193601" lat="68.7102249979" lon="15.3880055479">
		<tag k="alt_name" v="Grevtjørna" />
		<tag k="name" v="Grevtjønna" />
		<tag k="natural" v="water" />
		<tag k="ssr:stedsnr" v="867890" />
	</node>
	<node id="-191551" lat="68.557324998" lon="15.4109111097">
		<tag k="name" v="Trivasseidet" />
		<tag k="natural" v="strait" />
		<tag k="ssr:stedsnr" v="727121" />
	</node>
	<node id="-193596" lat="68.7042388905" lon="15.3696194454">
		<tag k="name" v="Litlevatnet" />
		<tag k="natural" v="water" />
		<tag k="ssr:stedsnr" v="867849" />
	</node>
	<node id="-191542" lat="68.6663638853" lon="15.0545333444">
		<tag k="name" v="Langvasselva" />
		<tag k="ssr:stedsnr" v="726774" />
		<tag k="waterway" v="stream" />
	</node>
	<node id="-190643" lat="68.7175888875" lon="14.9342333271">
		<tag k="name" v="1.Vatnet" />
		<tag k="natural" v="water" />
		<tag k="ssr:stedsnr" v="241691" />
	</node>
	<node id="-193584" lat="68.6996805547" lon="14.8640083452">
		<tag k="name" v="Skolpvatnet" />
		<tag k="natural" v="water" />
		<tag k="ssr:stedsnr" v="867690" />
	</node>
	<node id="-191325" lat="68.6646249984" lon="15.2744388996">
		<tag k="name" v="Tverrheivatnet" />
		<tag k="natural" v="water" />
		<tag k="ssr:stedsnr" v="684162" />
	</node>
	<node id="-191532" lat="68.8240722255" lon="15.3551416608">
		<tag k="name" v="Svarttjønna" />
		<tag k="natural" v="water" />
		<tag k="ssr:stedsnr" v="725822" />
	</node>
	<node id="-193577" lat="68.7364750005" lon="15.6940138956">
		<tag k="name" v="Bekken" />
		<tag k="ssr:stedsnr" v="867462" />
		<tag k="waterway" v="stream" />
	</node>
	<node id="-191526" lat="68.9477527807" lon="15.9037888971">
		<tag k="name" v="Buelva" />
		<tag k="ssr:stedsnr" v="725652" />
		<tag k="waterway" v="stream" />
	</node>
	<node id="-193571" lat="68.7932833332" lon="15.5928805613">
		<tag k="alt_name" v="Rogsøyvatnet, nedre" />
		<tag k="fixme" v="multiple name tags, choose one and add the other to alt_name" />
		<tag k="name" v="Storvatnet;Nedre Rogsøyvatnet" />
		<tag k="natural" v="water" />
		<tag k="ssr:stedsnr" v="867385" />
		<tag k="water" v="lake" />
	</node>
	<node id="-191522" lat="68.6902472204" lon="15.3936277647">
		<tag k="name" v="Skjellbekken" />
		<tag k="ssr:stedsnr" v="723719" />
		<tag k="waterway" v="stream" />
	</node>
	<node id="-191521" lat="68.7065916707" lon="14.8585861022">
		<tag k="name" v="Dalelva" />
		<tag k="ssr:stedsnr" v="723648" />
		<tag k="waterway" v="stream" />
	</node>
	<node id="-191520" lat="68.7100277788" lon="14.8588111061">
		<tag k="name" v="Tverrelva" />
		<tag k="ssr:stedsnr" v="723647" />
		<tag k="waterway" v="stream" />
	</node>
	<node id="-190981" lat="68.6599138892" lon="15.2974555433">
		<tag k="name" v="Bøelva" />
		<tag k="ssr:stedsnr" v="443205" />
		<tag k="waterway" v="river" />
	</node>
	<node id="-191516" lat="68.6966472229" lon="14.8492527686">
		<tag k="name" v="Oterelva" />
		<tag k="ssr:stedsnr" v="723638" />
		<tag k="waterway" v="stream" />
	</node>
	<node id="-191322" lat="68.587038888" lon="15.6028222282">
		<tag k="alt_name" v="Vangpollvatnet, øvre;Øvre Vangpollvatn" />
		<tag k="name" v="Øvre Vangpollvatnet" />
		<tag k="natural" v="water" />
		<tag k="ssr:stedsnr" v="684082" />
		<tag k="water" v="lake" />
	</node>
	<node id="-191513" lat="68.7639166657" lon="15.5431388797">
		<tag k="name" v="Bukta" />
		<tag k="natural" v="bay" />
		<tag k="ssr:stedsnr" v="723115" />
	</node>
	<node id="-191512" lat="68.776797226" lon="15.5162999937">
		<tag k="name" v="Fiskarsteinen" />
		<tag k="place" v="islet" />
		<tag k="ssr:stedsnr" v="723114" />
	</node>
	<node id="-193559" lat="68.6437138856" lon="15.0380888844">
		<tag k="alt_name" v="Øvertjørna" />
		<tag k="name" v="Øvertjønna" />
		<tag k="natural" v="water" />
		<tag k="ssr:stedsnr" v="867291" />
	</node>
	<node id="-193369" lat="68.5761499973" lon="15.4558305465">
		<tag k="name" v="Hoppebukta" />
		<tag k="natural" v="bay" />
		<tag k="ssr:stedsnr" v="785590" />
	</node>
	<node id="-191507" lat="68.705047219" lon="15.6200499985">
		<tag k="name" v="Svarttjønna" />
		<tag k="natural" v="water" />
		<tag k="ssr:stedsnr" v="723068" />
	</node>
	<node id="-191503" lat="68.6582472192" lon="15.1091472099">
		<tag k="name" v="Dalbotnelva" />
		<tag k="ssr:stedsnr" v="605764" />
		<tag k="waterway" v="stream" />
	</node>
	<node id="-193550" lat="68.5792694453" lon="15.4501777752">
		<tag k="name" v="Gjetarneset" />
		<tag k="natural" v="cape" />
		<tag k="ssr:stedsnr" v="867085" />
	</node>
	<node id="-193549" lat="68.7826361117" lon="15.8595444563">
		<tag k="name" v="Nordelva" />
		<tag k="ssr:stedsnr" v="867084" />
		<tag k="waterway" v="stream" />
	</node>
	<node id="-193548" lat="68.5998083377" lon="15.482366666">
		<tag k="name" v="Litlevatnet" />
		<tag k="natural" v="water" />
		<tag k="ssr:stedsnr" v="867071" />
	</node>
	<node id="-193547" lat="68.5928111064" lon="15.4151944545">
		<tag k="alt_name" v="Blokkvatnet, nedre" />
		<tag k="fixme" v="multiple name tags, choose one and add the other to alt_name" />
		<tag k="name" v="Nervatnet;Nedre Blokkvatnet" />
		<tag k="natural" v="water" />
		<tag k="ssr:stedsnr" v="867056" />
		<tag k="water" v="lake" />
	</node>
	<node id="-191495" lat="68.7431388874" lon="15.7491666638">
		<tag k="name" v="Atterbekken" />
		<tag k="ssr:stedsnr" v="604028" />
		<tag k="waterway" v="stream" />
	</node>
	<node id="-193541" lat="68.548213893" lon="15.5903416774">
		<tag k="name" v="Småvatnan" />
		<tag k="natural" v="water" />
		<tag k="ssr:stedsnr" v="867122" />
		<tag k="water" v="lake" />
	</node>
	<node id="-193028" lat="68.7271944408" lon="15.3370027824">
		<tag k="alt_name" v="Botntjørna" />
		<tag k="name" v="Botntjønna" />
		<tag k="natural" v="water" />
		<tag k="ssr:stedsnr" v="564758" />
	</node>
	<node id="-193538" lat="68.6702444425" lon="15.3038972297">
		<tag k="name" v="Bjørnlielva" />
		<tag k="ssr:stedsnr" v="866140" />
		<tag k="waterway" v="stream" />
	</node>
	<node id="-193537" lat="68.6665888869" lon="15.2271472152">
		<tag k="name" v="Revneset" />
		<tag k="natural" v="cape" />
		<tag k="ssr:stedsnr" v="848998" />
	</node>
	<node id="-193536" lat="68.7154750042" lon="14.9389555642">
		<tag k="name" v="Straumelva" />
		<tag k="ssr:stedsnr" v="848702" />
		<tag k="waterway" v="stream" />
	</node>
	<node id="-191487" lat="68.7365750009" lon="15.7628583377">
		<tag k="name" v="Laksholla" />
		<tag k="natural" v="water" />
		<tag k="ssr:stedsnr" v="601014" />
		<tag k="water" v="lake" />
	</node>
	<node id="-191485" lat="68.661597222" lon="15.5546944392">
		<tag k="name" v="Akselstilla" />
		<tag k="natural" v="water" />
		<tag k="ssr:stedsnr" v="600762" />
		<tag k="water" v="lake" />
	</node>
	<node id="-191484" lat="68.6683416696" lon="15.5522277678">
		<tag k="name" v="Geitseterbekken" />
		<tag k="ssr:stedsnr" v="600755" />
		<tag k="waterway" v="stream" />
	</node>
	<node id="-193528" lat="68.744413889" lon="15.7047888796">
		<tag k="name" v="Forfjorddalselva" />
		<tag k="ssr:stedsnr" v="848031" />
		<tag k="waterway" v="stream" />
	</node>
	<node id="-191475" lat="68.6236972221" lon="15.6021250099">
		<tag k="name" v="Mølnbekken" />
		<tag k="ssr:stedsnr" v="582678" />
		<tag k="waterway" v="stream" />
	</node>
	<node id="-191473" lat="68.7476222204" lon="15.6806138967">
		<tag k="name" v="Bykvanntoelva" />
		<tag k="ssr:stedsnr" v="582709" />
		<tag k="waterway" v="stream" />
	</node>
	<node id="-191472" lat="68.6626749978" lon="15.4775861022">
		<tag k="name" v="Storbekken" />
		<tag k="ssr:stedsnr" v="582504" />
		<tag k="waterway" v="stream" />
	</node>
	<node id="-193518" lat="68.7810277788" lon="15.0556305596">
		<tag k="name" v="Svanelva" />
		<tag k="ssr:stedsnr" v="845987" />
		<tag k="waterway" v="stream" />
	</node>
	<node id="-191469" lat="68.7891750037" lon="15.6081777753">
		<tag k="name" v="Mellavatnet" />
		<tag k="natural" v="water" />
		<tag k="ssr:stedsnr" v="709204" />
	</node>
	<node id="-193516" lat="68.7570277823" lon="15.1240500001">
		<tag k="name" v="Stortjønna" />
		<tag k="natural" v="water" />
		<tag k="ssr:stedsnr" v="845965" />
	</node>
	<node id="-193506" lat="68.7389027748" lon="15.7456638795">
		<tag k="name" v="Buksebekken" />
		<tag k="ssr:stedsnr" v="845008" />
		<tag k="waterway" v="stream" />
	</node>
	<node id="-191440" lat="68.6763777779" lon="15.0704194359">
		<tag k="name" v="Gåsneset" />
		<tag k="natural" v="cape" />
		<tag k="ssr:stedsnr" v="703351" />
	</node>
	<node id="-191437" lat="68.6728194407" lon="15.2867444514">
		<tag k="name" v="Tortenlivatnet sør" />
		<tag k="natural" v="water" />
		<tag k="ssr:stedsnr" v="703579" />
	</node>
	<node id="-191436" lat="68.7743638891" lon="15.4839444354">
		<tag k="alt_name" v="Tjørna" />
		<tag k="name" v="Tjønna" />
		<tag k="place" v="locality" />
		<tag k="ssr:stedsnr" v="563330" />
	</node>
	<node id="-191434" lat="68.7617444405" lon="15.1478972152">
		<tag k="name" v="Kalvvatnet" />
		<tag k="natural" v="water" />
		<tag k="ssr:stedsnr" v="563324" />
	</node>
	<node id="-193481" lat="68.6236249964" lon="15.5169138755">
		<tag k="name" v="Middagsbogelva" />
		<tag k="ssr:stedsnr" v="825573" />
		<tag k="waterway" v="stream" />
	</node>
	<node id="-193479" lat="68.7335027741" lon="15.3834194431">
		<tag k="name" v="Storlibekken" />
		<tag k="ssr:stedsnr" v="825569" />
		<tag k="waterway" v="stream" />
	</node>
	<node id="-191429" lat="68.771741664" lon="15.1508583261">
		<tag k="name" v="Gjerdhaugvatnet" />
		<tag k="natural" v="water" />
		<tag k="ssr:stedsnr" v="563306" />
	</node>
	<node id="-191428" lat="68.7805222229" lon="15.4939805459">
		<tag k="alt_name" v="Lomtjørna" />
		<tag k="name" v="Lomtjønna" />
		<tag k="natural" v="water" />
		<tag k="ssr:stedsnr" v="563304" />
	</node>
	<node id="-193474" lat="68.6505083368" lon="15.6070555546">
		<tag k="name" v="Gudbranshøljet" />
		<tag k="natural" v="water" />
		<tag k="ssr:stedsnr" v="825518" />
		<tag k="water" v="lake" />
	</node>
	<node id="-193472" lat="68.6824638855" lon="15.5120472092">
		<tag k="name" v="Smånessan" />
		<tag k="natural" v="cape" />
		<tag k="ssr:stedsnr" v="825485" />
	</node>
	<node id="-191423" lat="68.5575472245" lon="15.4112833253">
		<tag k="name" v="Trivasselva" />
		<tag k="ssr:stedsnr" v="544109" />
		<tag k="waterway" v="stream" />
	</node>
	<node id="-193468" lat="68.6571472246" lon="15.5050138865">
		<tag k="name" v="Hesttunga" />
		<tag k="natural" v="cape" />
		<tag k="ssr:stedsnr" v="825450" />
	</node>
	<node id="-191418" lat="68.9242777772" lon="15.8593444531">
		<tag k="name" v="Slettheivassbekken" />
		<tag k="ssr:stedsnr" v="543649" />
		<tag k="waterway" v="stream" />
	</node>
	<node id="-191411" lat="68.8885861089" lon="15.9558610985">
		<tag k="name" v="Hermannsbekken" />
		<tag k="ssr:stedsnr" v="541570" />
		<tag k="waterway" v="stream" />
	</node>
	<node id="-193458" lat="68.7604499959" lon="15.0824583263">
		<tag k="name" v="Selneselva" />
		<tag k="ssr:stedsnr" v="824438" />
		<tag k="waterway" v="stream" />
	</node>
	<node id="-191409" lat="68.8817305526" lon="15.9387250015">
		<tag k="name" v="Storvikbekken" />
		<tag k="ssr:stedsnr" v="541563" />
		<tag k="waterway" v="stream" />
	</node>
	<node id="-193456" lat="68.7734111077" lon="15.2707749977">
		<tag k="name" v="Brattelva" />
		<tag k="ssr:stedsnr" v="824223" />
		<tag k="waterway" v="stream" />
	</node>
	<node id="-193454" lat="68.6759055566" lon="15.0658027679">
		<tag k="name" v="Straumfjordelva" />
		<tag k="ssr:stedsnr" v="817898" />
		<tag k="waterway" v="river" />
	</node>
	<node id="-193453" lat="68.6927499976" lon="15.1741472108">
		<tag k="name" v="Storholmen" />
		<tag k="place" v="islet" />
		<tag k="ssr:stedsnr" v="807823" />
	</node>
	<node id="-193452" lat="68.7060333305" lon="15.3605444375">
		<tag k="name" v="Evatnet" />
		<tag k="natural" v="water" />
		<tag k="ssr:stedsnr" v="807820" />
	</node>
	<node id="-193441" lat="68.7802611097" lon="15.2794055503">
		<tag k="name" v="Storelva" />
		<tag k="ssr:stedsnr" v="807668" />
		<tag k="waterway" v="stream" />
	</node>
	<node id="-191390" lat="68.6904249998" lon="15.1348388884">
		<tag k="name" v="Kalvevatnet" />
		<tag k="natural" v="water" />
		<tag k="ssr:stedsnr" v="685830" />
	</node>
	<node id="-191389" lat="68.7024222211" lon="15.3872777672">
		<tag k="name" v="Litlevasselva" />
		<tag k="ssr:stedsnr" v="685829" />
		<tag k="waterway" v="stream" />
	</node>
	<node id="-193431" lat="68.915755558" lon="15.8591722294">
		<tag k="name" v="Slettemyrvatnan" />
		<tag k="natural" v="water" />
		<tag k="ssr:stedsnr" v="807432" />
		<tag k="water" v="lake" />
	</node>
	<node id="-191380" lat="68.7405722218" lon="15.2394916625">
		<tag k="alt_name" v="Rødlitjørna" />
		<tag k="name" v="Rødlitjønna" />
		<tag k="natural" v="water" />
		<tag k="ssr:stedsnr" v="685802" />
	</node>
	<node id="-191379" lat="68.7403638903" lon="15.28691945">
		<tag k="name" v="Jennestadelva" />
		<tag k="ssr:stedsnr" v="685799" />
		<tag k="waterway" v="river" />
	</node>
	<node id="-191373" lat="68.6968527756" lon="15.7236888885">
		<tag k="alt_name" v="Gardselva" />
		<tag k="name" v="Gårdselva" />
		<tag k="ssr:stedsnr" v="685473" />
		<tag k="waterway" v="stream" />
	</node>
	<node id="-191372" lat="68.7017972216" lon="15.7753388761">
		<tag k="alt_name" v="Gardsvatnet" />
		<tag k="name" v="Gårdsvatnet" />
		<tag k="natural" v="water" />
		<tag k="ssr:stedsnr" v="685471" />
	</node>
	<node id="-193418" lat="68.9375499988" lon="15.8683611091">
		<tag k="name" v="Kråvatnet" />
		<tag k="natural" v="water" />
		<tag k="ssr:stedsnr" v="806478" />
	</node>
	<node id="-193417" lat="68.9465583357" lon="15.8852555628">
		<tag k="name" v="Trolldalsvatnet" />
		<tag k="natural" v="water" />
		<tag k="ssr:stedsnr" v="806473" />
	</node>
	<node id="-191367" lat="68.7157361119" lon="15.7734777772">
		<tag k="alt_name" v="Tennevatnet" />
		<tag k="name" v="Tennvatnet" />
		<tag k="natural" v="water" />
		<tag k="ssr:stedsnr" v="685452" />
	</node>
	<node id="-191364" lat="68.878605557" lon="15.9095472158">
		<tag k="alt_name" v="Litjeidet" />
		<tag k="name" v="Litleidet" />
		<tag k="natural" v="strait" />
		<tag k="ssr:stedsnr" v="685438" />
	</node>
	<node id="-193411" lat="68.7804111105" lon="15.0890750113">
		<tag k="alt_name" v="Ranbergbekken" />
		<tag k="name" v="Reinbergbekken" />
		<tag k="ssr:stedsnr" v="806322" />
		<tag k="waterway" v="stream" />
	</node>
	<node id="-193408" lat="68.8014416647" lon="15.8755861054">
		<tag k="alt_name" v="Litjelva" />
		<tag k="name" v="Litleelva" />
		<tag k="ssr:stedsnr" v="806295" />
		<tag k="waterway" v="stream" />
	</node>
	<node id="-193407" lat="68.8072583364" lon="15.2978388892">
		<tag k="fixme" v="multiple name tags, choose one and add the other to alt_name" />
		<tag k="name" v="Trolldalsvatnet;Trollvatnet" />
		<tag k="natural" v="water" />
		<tag k="ssr:stedsnr" v="806287" />
	</node>
	<node id="-193406" lat="68.8193944433" lon="15.3168499918">
		<tag k="name" v="Djupdalsvatnet" />
		<tag k="natural" v="water" />
		<tag k="ssr:stedsnr" v="806279" />
	</node>
	<node id="-191356" lat="68.7761388935" lon="15.6147277669">
		<tag k="alt_name" v="Rogsøyvatnet, øvre;Øvre Roksøyvatnet" />
		<tag k="fixme" v="multiple name tags, choose one and add the other to alt_name" />
		<tag k="name" v="Roksøyvatnet;Øvre Rogsøyvatnet" />
		<tag k="natural" v="water" />
		<tag k="ssr:stedsnr" v="685317" />
		<tag k="water" v="lake" />
	</node>
	<node id="-190954" lat="68.7263111094" lon="15.7632472218">
		<tag k="name" v="Trettelva" />
		<tag k="ssr:stedsnr" v="442467" />
		<tag k="waterway" v="stream" />
	</node>
	<node id="-193402" lat="68.8184055553" lon="15.5473722202">
		<tag k="alt_name" v="Stortjørna" />
		<tag k="name" v="Stortjønna" />
		<tag k="natural" v="water" />
		<tag k="ssr:stedsnr" v="806271" />
	</node>
	<node id="-191353" lat="68.8278027754" lon="15.346766661">
		<tag k="name" v="Storvatnet" />
		<tag k="natural" v="water" />
		<tag k="ssr:stedsnr" v="685298" />
		<tag k="water" v="lake" />
	</node>
	<node id="-193399" lat="68.6417722202" lon="15.1893527874">
		<tag k="alt_name" v="Risevatnet" />
		<tag k="name" v="Risvatnet" />
		<tag k="natural" v="water" />
		<tag k="ssr:stedsnr" v="806247" />
		<tag k="water" v="lake" />
	</node>
	<node id="-193396" lat="68.752108332" lon="15.7094833312">
		<tag k="name" v="Forfjorddalsvatnet" />
		<tag k="natural" v="water" />
		<tag k="ssr:stedsnr" v="806140" />
	</node>
	<node id="-193395" lat="68.6827305578" lon="15.1885666693">
		<tag k="name" v="Litlebekken" />
		<tag k="ssr:stedsnr" v="806125" />
		<tag k="waterway" v="stream" />
	</node>
	<node id="-193389" lat="68.5706083304" lon="15.4424999919">
		<tag k="name" v="Brursløret" />
		<tag k="ssr:stedsnr" v="806074" />
		<tag k="waterway" v="stream" />
	</node>
	<node id="-191340" lat="68.6931833316" lon="15.2785888892">
		<tag k="name" v="Middagsvatnet" />
		<tag k="natural" v="water" />
		<tag k="ssr:stedsnr" v="685156" />
	</node>
	<node id="-191338" lat="68.6921249994" lon="15.5816194438">
		<tag k="name" v="Storkvanntobekken" />
		<tag k="ssr:stedsnr" v="685145" />
		<tag k="waterway" v="stream" />
	</node>
	<node id="-191336" lat="68.8218333303" lon="15.8885944535">
		<tag k="name" v="Frøyselva" />
		<tag k="ssr:stedsnr" v="685101" />
		<tag k="waterway" v="stream" />
	</node>
	<node id="-191331" lat="68.8716666664" lon="15.8617555514">
		<tag k="name" v="Bjørnforsvatnet" />
		<tag k="natural" v="water" />
		<tag k="ssr:stedsnr" v="685062" />
	</node>
	<node id="-193374" lat="68.6004750008" lon="15.3879027859">
		<tag k="name" v="Dragarhølla" />
		<tag k="natural" v="bay" />
		<tag k="ssr:stedsnr" v="786549" />
	</node>
	<node id="-193373" lat="68.7016083354" lon="15.6004861097">
		<tag k="name" v="Kåsbekken" />
		<tag k="ssr:stedsnr" v="785871" />
		<tag k="waterway" v="stream" />
	</node>
	<node id="-193370" lat="68.8018611113" lon="15.311866674">
		<tag k="name" v="Rollabekken" />
		<tag k="ssr:stedsnr" v="785642" />
		<tag k="waterway" v="stream" />
	</node>
	<node id="-191321" lat="68.6097916677" lon="15.5259027676">
		<tag k="name" v="Tredjevatnet" />
		<tag k="natural" v="water" />
		<tag k="ssr:stedsnr" v="684050" />
	</node>
	<node id="-191318" lat="68.9367194414" lon="15.8747388903">
		<tag k="name" v="Tverrelva" />
		<tag k="ssr:stedsnr" v="503463" />
		<tag k="waterway" v="stream" />
	</node>
	<node id="-191315" lat="68.7742361083" lon="15.2215138793">
		<tag k="alt_name" v="Vikdalenvatnet;Vikvatnet" />
		<tag k="name" v="Vikdalsvatnet" />
		<tag k="natural" v="water" />
		<tag k="ssr:stedsnr" v="503314" />
	</node>
	<node id="-191312" lat="68.576713886" lon="15.5174500034">
		<tag k="name" v="Beibarnsvatnan" />
		<tag k="natural" v="water" />
		<tag k="ssr:stedsnr" v="502060" />
	</node>
	<node id="-191310" lat="68.7349166685" lon="15.0391361039">
		<tag k="name" v="Gryttingselva" />
		<tag k="ssr:stedsnr" v="484853" />
		<tag k="waterway" v="stream" />
	</node>
	<node id="-193357" lat="68.6373666652" lon="15.6539722092">
		<tag k="name" v="Sørdalselva" />
		<tag k="ssr:stedsnr" v="784057" />
		<tag k="waterway" v="stream" />
	</node>
	<node id="-193351" lat="68.6879250016" lon="15.3854250042">
		<tag k="name" v="Skjellgrøfta" />
		<tag k="ssr:stedsnr" v="783727" />
		<tag k="waterway" v="stream" />
	</node>
	<node id="-191301" lat="68.7476083351" lon="15.5158861184">
		<tag k="name" v="Lægdbekken" />
		<tag k="ssr:stedsnr" v="480809" />
		<tag k="waterway" v="stream" />
	</node>
	<node id="-191299" lat="68.5889222194" lon="15.4385138822">
		<tag k="name" v="Tjota" />
		<tag k="natural" v="bay" />
		<tag k="ssr:stedsnr" v="480568" />
	</node>
	<node id="-191290" lat="68.7396083353" lon="15.063311122">
		<tag k="name" v="Tusstjønna" />
		<tag k="natural" v="water" />
		<tag k="ssr:stedsnr" v="666785" />
	</node>
	<node id="-193336" lat="68.6797166662" lon="14.8436249891">
		<tag k="name" v="Jakobvikvatnet" />
		<tag k="natural" v="water" />
		<tag k="ssr:stedsnr" v="770626" />
	</node>
	<node id="-191287" lat="68.5653555574" lon="15.3573833255">
		<tag k="name" v="Laneset" />
		<tag k="natural" v="cape" />
		<tag k="ssr:stedsnr" v="666002" />
	</node>
	<node id="-191285" lat="68.7216194412" lon="14.9822722241">
		<tag k="name" v="Innerjordelva" />
		<tag k="ssr:stedsnr" v="665899" />
		<tag k="waterway" v="stream" />
	</node>
	<node id="-191282" lat="68.7511666649" lon="15.0411916631">
		<tag k="name" v="Rekelva" />
		<tag k="ssr:stedsnr" v="665882" />
		<tag k="waterway" v="stream" />
	</node>
	<node id="-193321" lat="68.8295249983" lon="15.2839194432">
		<tag k="name" v="Middagsdalvatnet" />
		<tag k="natural" v="water" />
		<tag k="ssr:stedsnr" v="768588" />
	</node>
	<node id="-191264" lat="68.5923500025" lon="15.4210277682">
		<tag k="name" v="Innerklubbukta" />
		<tag k="natural" v="bay" />
		<tag k="ssr:stedsnr" v="662573" />
	</node>
	<node id="-193311" lat="68.7433944445" lon="15.5926999959">
		<tag k="name" v="Sommerelva" />
		<tag k="ssr:stedsnr" v="764732" />
		<tag k="waterway" v="stream" />
	</node>
	<node id="-191260" lat="68.7697444452" lon="15.4750583455">
		<tag k="name" v="Litlehalsbekken" />
		<tag k="ssr:stedsnr" v="662102" />
		<tag k="waterway" v="stream" />
	</node>
	<node id="-193302" lat="68.639680554" lon="15.2334944417">
		<tag k="name" v="Laukhammarbekken" />
		<tag k="ssr:stedsnr" v="763737" />
		<tag k="waterway" v="stream" />
	</node>
	<node id="-193301" lat="68.7079861105" lon="15.3669055464">
		<tag k="name" v="Evasselva" />
		<tag k="ssr:stedsnr" v="763648" />
		<tag k="waterway" v="stream" />
	</node>
	<node id="-191250" lat="68.8046333336" lon="15.8600222211">
		<tag k="name" v="Nærstadbekken" />
		<tag k="ssr:stedsnr" v="423413" />
		<tag k="waterway" v="stream" />
	</node>
	<node id="-191249" lat="68.5612333298" lon="15.3641583327">
		<tag k="name" v="Forsen" />
		<tag k="natural" v="waterfall" />
		<tag k="ssr:stedsnr" v="423010" />
	</node>
	<node id="-191247" lat="68.8060194459" lon="15.3459555549">
		<tag k="name" v="Bogelva" />
		<tag k="ssr:stedsnr" v="422849" />
		<tag k="waterway" v="stream" />
	</node>
	<node id="-193293" lat="68.7116805585" lon="15.3944722222">
		<tag k="name" v="Selneselva" />
		<tag k="ssr:stedsnr" v="746837" />
		<tag k="waterway" v="river" />
	</node>
	<node id="-193286" lat="68.7481888933" lon="15.7842944462">
		<tag k="alt_name" v="Litjelva" />
		<tag k="name" v="Litleelva" />
		<tag k="ssr:stedsnr" v="746424" />
		<tag k="waterway" v="stream" />
	</node>
	<node id="-193282" lat="68.6171888878" lon="15.639030545">
		<tag k="name" v="Botnelva" />
		<tag k="ssr:stedsnr" v="746350" />
		<tag k="waterway" v="stream" />
	</node>
	<node id="-193279" lat="68.8046333356" lon="15.2970111056">
		<tag k="name" v="Trollelva" />
		<tag k="ssr:stedsnr" v="746339" />
		<tag k="waterway" v="stream" />
	</node>
	<node id="-191228" lat="68.6961777761" lon="15.6113916776">
		<tag k="name" v="Trolldalselva" />
		<tag k="ssr:stedsnr" v="503802" />
		<tag k="waterway" v="stream" />
	</node>
	<node id="-191226" lat="68.7054944416" lon="15.3051277661">
		<tag k="name" v="Sortlandseidet" />
		<tag k="natural" v="strait" />
		<tag k="ssr:stedsnr" v="503787" />
	</node>
	<node id="-191225" lat="68.699861114" lon="15.1404111192">
		<tag k="name" v="Sørbogvatnet" />
		<tag k="natural" v="water" />
		<tag k="ssr:stedsnr" v="503785" />
	</node>
	<node id="-193272" lat="68.788725003" lon="15.8413750023">
		<tag k="name" v="Nordheivatnet" />
		<tag k="natural" v="water" />
		<tag k="ssr:stedsnr" v="746099" />
	</node>
	<node id="-191222" lat="68.7471305548" lon="15.2679388934">
		<tag k="fixme" v="multiple name tags, choose one and add the other to alt_name" />
		<tag k="name" v="Gorrtjørna;Lomtjønna" />
		<tag k="natural" v="water" />
		<tag k="ssr:stedsnr" v="503748" />
	</node>
	<node id="-191220" lat="68.7486777806" lon="15.1847638787">
		<tag k="name" v="Trollvatnet" />
		<tag k="natural" v="water" />
		<tag k="ssr:stedsnr" v="503743" />
		<tag k="water" v="lake" />
	</node>
	<node id="-193267" lat="68.7217472236" lon="15.7487694494">
		<tag k="name" v="Reingjerdbekken" />
		<tag k="ssr:stedsnr" v="745451" />
		<tag k="waterway" v="stream" />
	</node>
	<node id="-193265" lat="68.6510027798" lon="15.7318083456">
		<tag k="name" v="Sørdalsvatnet" />
		<tag k="natural" v="water" />
		<tag k="ssr:stedsnr" v="745341" />
	</node>
	<node id="-193264" lat="68.6476722255" lon="15.6301277775">
		<tag k="name" v="Holbekken" />
		<tag k="ssr:stedsnr" v="745339" />
		<tag k="waterway" v="stream" />
	</node>
	<node id="-193260" lat="68.7040722191" lon="14.8591694416">
		<tag k="name" v="Laksvatnet" />
		<tag k="natural" v="water" />
		<tag k="ssr:stedsnr" v="745331" />
	</node>
	<node id="-193259" lat="68.821719442" lon="15.3341694381">
		<tag k="name" v="Djupdalselva" />
		<tag k="ssr:stedsnr" v="745323" />
		<tag k="waterway" v="stream" />
	</node>
	<node id="-193256" lat="68.8144944464" lon="15.5528305669">
		<tag k="name" v="Heimeråa" />
		<tag k="ssr:stedsnr" v="745283" />
		<tag k="waterway" v="stream" />
	</node>
	<node id="-191207" lat="68.7674444444" lon="15.2776611107">
		<tag k="alt_name" v="Lomstjørna" />
		<tag k="name" v="Lomstjønna" />
		<tag k="natural" v="water" />
		<tag k="ssr:stedsnr" v="503395" />
	</node>
	<node id="-193254" lat="68.7978833347" lon="15.261761103">
		<tag k="name" v="Gåsfjordvatnet" />
		<tag k="natural" v="water" />
		<tag k="ssr:stedsnr" v="745388" />
	</node>
	<node id="-193245" lat="68.6136777745" lon="15.5651833262">
		<tag k="name" v="Vangpollelva" />
		<tag k="ssr:stedsnr" v="745076" />
		<tag k="waterway" v="stream" />
	</node>
	<node id="-193241" lat="68.7131944444" lon="14.9666055585">
		<tag k="name" v="Lomstjernet" />
		<tag k="natural" v="water" />
		<tag k="ssr:stedsnr" v="648684" />
	</node>
	<node id="-191190" lat="68.8263138864" lon="15.3642083343">
		<tag k="name" v="Storelva" />
		<tag k="ssr:stedsnr" v="503282" />
		<tag k="waterway" v="stream" />
	</node>
	<node id="-193228" lat="68.6498250013" lon="15.2632611007">
		<tag k="name" v="Skjellbekken" />
		<tag k="ssr:stedsnr" v="642731" />
		<tag k="waterway" v="stream" />
	</node>
	<node id="-191176" lat="68.651377776" lon="15.0913583344">
		<tag k="name" v="Sørdalsvatnet" />
		<tag k="natural" v="water" />
		<tag k="ssr:stedsnr" v="502173" />
	</node>
	<node id="-191172" lat="68.5892416647" lon="15.3966444317">
		<tag k="alt_name" v="Mølldalselva" />
		<tag k="name" v="Mølndalselva" />
		<tag k="ssr:stedsnr" v="502077" />
		<tag k="waterway" v="stream" />
	</node>
	<node id="-193219" lat="68.6665916707" lon="15.2286972219">
		<tag k="name" v="Revneset" />
		<tag k="natural" v="cape" />
		<tag k="ssr:stedsnr" v="642527" />
	</node>
	<node id="-193211" lat="68.75153889" lon="15.2737472202">
		<tag k="name" v="Finnbekken" />
		<tag k="ssr:stedsnr" v="641046" />
		<tag k="waterway" v="stream" />
	</node>
	<node id="-191162" lat="68.5656944433" lon="15.3508416773">
		<tag k="name" v="Hundkjerka" />
		<tag k="natural" v="cape" />
		<tag k="ssr:stedsnr" v="362004" />
	</node>
	<node id="-193209" lat="68.7072472264" lon="15.2375305654">
		<tag k="name" v="Holmstadelva" />
		<tag k="ssr:stedsnr" v="624850" />
		<tag k="waterway" v="river" />
	</node>
	<node id="-193207" lat="68.7473138909" lon="15.234025009">
		<tag k="name" v="Rødlibekken" />
		<tag k="ssr:stedsnr" v="624786" />
		<tag k="waterway" v="stream" />
	</node>
	<node id="-193201" lat="68.7330166667" lon="15.3043972138">
		<tag k="name" v="Litlevatnet" />
		<tag k="natural" v="water" />
		<tag k="ssr:stedsnr" v="624768" />
	</node>
	<node id="-191151" lat="68.5957055581" lon="15.4020138962">
		<tag k="name" v="Langvågneset" />
		<tag k="natural" v="cape" />
		<tag k="ssr:stedsnr" v="358554" />
	</node>
	<node id="-191150" lat="68.5986861143" lon="15.3974000068">
		<tag k="name" v="Linavasken" />
		<tag k="natural" v="bay" />
		<tag k="ssr:stedsnr" v="358553" />
	</node>
	<node id="-191148" lat="68.6871944435" lon="14.8060750115">
		<tag k="name" v="Kvithaugvatnet" />
		<tag k="natural" v="water" />
		<tag k="ssr:stedsnr" v="345702" />
	</node>
	<node id="-193193" lat="68.7257250045" lon="15.7254638779">
		<tag k="name" v="Polljordbekken" />
		<tag k="ssr:stedsnr" v="624474" />
		<tag k="waterway" v="stream" />
	</node>
	<node id="-191136" lat="68.6692361112" lon="15.1800000106">
		<tag k="name" v="Kakkelbekken" />
		<tag k="ssr:stedsnr" v="484986" />
		<tag k="waterway" v="stream" />
	</node>
	<node id="-193179" lat="68.7669527761" lon="15.4623805666">
		<tag k="alt_name" v="Tjørnan" />
		<tag k="name" v="Tjønnen" />
		<tag k="natural" v="water" />
		<tag k="ssr:stedsnr" v="624418" />
		<tag k="water" v="lake" />
	</node>
	<node id="-191123" lat="68.7059583307" lon="15.7039972288">
		<tag k="name" v="Skålgropa" />
		<tag k="ssr:stedsnr" v="483091" />
		<tag k="waterway" v="stream" />
	</node>
	<node id="-193169" lat="68.7817722237" lon="15.1657083276">
		<tag k="name" v="Storvatnet" />
		<tag k="natural" v="water" />
		<tag k="ssr:stedsnr" v="624336" />
	</node>
	<node id="-191119" lat="68.9259805572" lon="15.8592111079">
		<tag k="name" v="Flathella" />
		<tag k="natural" v="cape" />
		<tag k="ssr:stedsnr" v="482646" />
	</node>
	<node id="-193166" lat="68.7173944455" lon="14.9224333346">
		<tag k="name" v="Straumdalsvatnan" />
		<tag k="natural" v="water" />
		<tag k="ssr:stedsnr" v="624300" />
		<tag k="water" v="lake" />
	</node>
	<node id="-193164" lat="68.8361527813" lon="15.3467722107">
		<tag k="name" v="Harhalsvatnet" />
		<tag k="natural" v="water" />
		<tag k="ssr:stedsnr" v="624294" />
	</node>
	<node id="-193160" lat="68.6645527735" lon="15.587969445">
		<tag k="name" v="Norddalselva" />
		<tag k="ssr:stedsnr" v="624228" />
		<tag k="waterway" v="river" />
	</node>
	<node id="-191106" lat="68.80545833" lon="15.8163805615">
		<tag k="name" v="Svolværvatnet" />
		<tag k="natural" v="water" />
		<tag k="ssr:stedsnr" v="480370" />
	</node>
	<node id="-193153" lat="68.7718888906" lon="15.8310861201">
		<tag k="name" v="Innerelva" />
		<tag k="ssr:stedsnr" v="624198" />
		<tag k="waterway" v="stream" />
	</node>
	<node id="-191104" lat="68.7380194458" lon="15.77061667">
		<tag k="name" v="Lanesbekken" />
		<tag k="ssr:stedsnr" v="480022" />
		<tag k="waterway" v="stream" />
	</node>
	<node id="-191101" lat="68.6545444411" lon="15.734724996">
		<tag k="name" v="Tverrelva" />
		<tag k="ssr:stedsnr" v="476843" />
		<tag k="waterway" v="stream" />
	</node>
	<node id="-193148" lat="68.6910833348" lon="15.3681194363">
		<tag k="name" v="Prestelva" />
		<tag k="ssr:stedsnr" v="624159" />
		<tag k="waterway" v="stream" />
	</node>
	<node id="-193147" lat="68.6727861137" lon="15.0521333303">
		<tag k="alt_name" v="Gårdsvatnet, yt" />
		<tag k="fixme" v="multiple name tags, choose one and add the other to alt_name" />
		<tag k="name" v="Gårdsvatnet;Ytterfjordvatnet;Ytre Gårdsvatnet" />
		<tag k="natural" v="water" />
		<tag k="ssr:stedsnr" v="624151" />
	</node>
	<node id="-191095" lat="68.5593749986" lon="15.3697166564">
		<tag k="name" v="Storhaugneset" />
		<tag k="natural" v="cape" />
		<tag k="ssr:stedsnr" v="302007" />
	</node>
	<node id="-191092" lat="68.6978999986" lon="15.5754444402">
		<tag k="name" v="Vassbekken" />
		<tag k="ssr:stedsnr" v="300871" />
		<tag k="waterway" v="stream" />
	</node>
	<node id="-193137" lat="68.5603055562" lon="15.4612722277">
		<tag k="alt_name" v="Blokkvatnet, m;Mellom Blokkvatn" />
		<tag k="fixme" v="multiple name tags, choose one and add the other to alt_name" />
		<tag k="name" v="Innervatnet;Mellom Blokkvatnet" />
		<tag k="natural" v="water" />
		<tag k="ssr:stedsnr" v="624089" />
		<tag k="water" v="lake" />
	</node>
	<node id="-193136" lat="68.8570749979" lon="15.9201666535">
		<tag k="name" v="Stokkeskogbekken" />
		<tag k="ssr:stedsnr" v="624048" />
		<tag k="waterway" v="stream" />
	</node>
	<node id="-193132" lat="68.6486416704" lon="15.2522916648">
		<tag k="alt_name" v="Tjønnvollbekken" />
		<tag k="name" v="Tjørnvollelva" />
		<tag k="ssr:stedsnr" v="623214" />
		<tag k="waterway" v="stream" />
	</node>
	<node id="-191083" lat="68.7101027761" lon="14.9816638834">
		<tag k="name" v="Stielva" />
		<tag k="ssr:stedsnr" v="467672" />
		<tag k="waterway" v="stream" />
	</node>
	<node id="-193130" lat="68.6717027746" lon="15.2718666621">
		<tag k="name" v="Stampvatnan" />
		<tag k="natural" v="water" />
		<tag k="ssr:stedsnr" v="623196" />
		<tag k="water" v="lake" />
	</node>
	<node id="-191075" lat="68.793936108" lon="15.5674305479">
		<tag k="name" v="Storbekken" />
		<tag k="ssr:stedsnr" v="466201" />
		<tag k="waterway" v="stream" />
	</node>
	<node id="-191073" lat="68.8444861106" lon="15.2927027832">
		<tag k="name" v="Trillarbekken" />
		<tag k="ssr:stedsnr" v="465581" />
		<tag k="waterway" v="stream" />
	</node>
	<node id="-191071" lat="68.7132638915" lon="15.4505527682">
		<tag k="name" v="Hestlandstjønna" />
		<tag k="natural" v="water" />
		<tag k="ssr:stedsnr" v="461997" />
	</node>
	<node id="-193118" lat="68.7168944449" lon="14.9238666565">
		<tag k="name" v="2.Vatnet" />
		<tag k="natural" v="water" />
		<tag k="ssr:stedsnr" v="604725" />
	</node>
	<node id="-193117" lat="68.719524996" lon="14.89672501">
		<tag k="name" v="6.Vatnet" />
		<tag k="natural" v="water" />
		<tag k="ssr:stedsnr" v="604724" />
	</node>
	<node id="-193113" lat="68.8165249995" lon="15.7785944349">
		<tag k="name" v="Lysmyrelva" />
		<tag k="ssr:stedsnr" v="604282" />
		<tag k="waterway" v="stream" />
	</node>
	<node id="-193111" lat="68.7016222179" lon="15.5793944543">
		<tag k="name" v="Skredbekken" />
		<tag k="ssr:stedsnr" v="603854" />
		<tag k="waterway" v="stream" />
	</node>
	<node id="-193110" lat="68.6928055566" lon="15.7216833243">
		<tag k="name" v="Tømmerneset" />
		<tag k="natural" v="cape" />
		<tag k="ssr:stedsnr" v="604046" />
	</node>
	<node id="-191054" lat="68.6760750021" lon="15.5006166768">
		<tag k="name" v="Lomtjønna" />
		<tag k="natural" v="water" />
		<tag k="ssr:stedsnr" v="461561" />
	</node>
	<node id="-191245" lat="68.7447194434" lon="15.9409416778">
		<tag k="name" v="Skjelltindbukta" />
		<tag k="natural" v="bay" />
		<tag k="ssr:stedsnr" v="422729" />
	</node>
	<node id="-193097" lat="68.6001083346" lon="15.3913111103">
		<tag k="name" v="Holla" />
		<tag k="natural" v="bay" />
		<tag k="ssr:stedsnr" v="601527" />
	</node>
	<node id="-193095" lat="68.7037638874" lon="14.8643527675">
		<tag k="name" v="Heselva" />
		<tag k="ssr:stedsnr" v="601642" />
		<tag k="waterway" v="stream" />
	</node>
	<node id="-191044" lat="68.7530222182" lon="15.5995333345">
		<tag k="name" v="Gårdselva" />
		<tag k="ssr:stedsnr" v="460731" />
		<tag k="waterway" v="stream" />
	</node>
	<node id="-193088" lat="68.6865972201" lon="14.9058250066">
		<tag k="name" v="Livatnelva" />
		<tag k="ssr:stedsnr" v="588631" />
		<tag k="waterway" v="stream" />
	</node>
	<node id="-191039" lat="68.6877500011" lon="15.1769111022">
		<tag k="name" v="Storforsen" />
		<tag k="natural" v="waterfall" />
		<tag k="ssr:stedsnr" v="460635" />
	</node>
	<node id="-193085" lat="68.7002055529" lon="14.9257750097">
		<tag k="name" v="Mølnhuselva" />
		<tag k="ssr:stedsnr" v="588755" />
		<tag k="waterway" v="stream" />
	</node>
	<node id="-191035" lat="68.6629527752" lon="15.287402782">
		<tag k="name" v="Smørøyet" />
		<tag k="natural" v="water" />
		<tag k="ssr:stedsnr" v="460594" />
		<tag k="water" v="pond" />
	</node>
	<node id="-193076" lat="68.6442888883" lon="15.0402805635">
		<tag k="name" v="Elvneset" />
		<tag k="natural" v="cape" />
		<tag k="ssr:stedsnr" v="586971" />
	</node>
	<node id="-193075" lat="68.8379305524" lon="15.2881972089">
		<tag k="name" v="Oterbekken" />
		<tag k="ssr:stedsnr" v="586597" />
		<tag k="waterway" v="stream" />
	</node>
	<node id="-191021" lat="68.7556611104" lon="15.2315861198">
		<tag k="name" v="Vikeidet" />
		<tag k="natural" v="strait" />
		<tag k="ssr:stedsnr" v="459120" />
	</node>
	<node id="-191020" lat="68.7428111117" lon="15.214449997">
		<tag k="name" v="Litlehornvatnet" />
		<tag k="natural" v="water" />
		<tag k="ssr:stedsnr" v="277060" />
	</node>
	<node id="-193064" lat="68.6367972217" lon="15.5821166692">
		<tag k="name" v="Glibergbekken" />
		<tag k="ssr:stedsnr" v="582571" />
		<tag k="waterway" v="stream" />
	</node>
	<node id="-191015" lat="68.5818527788" lon="15.3796083304">
		<tag k="name" v="Mølnvatnan" />
		<tag k="natural" v="water" />
		<tag k="ssr:stedsnr" v="260120" />
	</node>
	<node id="-193062" lat="68.697236113" lon="15.3491666705">
		<tag k="name" v="Presttjønna" />
		<tag k="natural" v="water" />
		<tag k="ssr:stedsnr" v="582732" />
	</node>
	<node id="-191012" lat="68.5742388926" lon="15.5409611182">
		<tag k="name" v="Humpvatnan" />
		<tag k="natural" v="water" />
		<tag k="ssr:stedsnr" v="260103" />
	</node>
	<node id="-193058" lat="68.678858334" lon="15.4901916673">
		<tag k="name" v="Krokbekkhøljet" />
		<tag k="natural" v="water" />
		<tag k="ssr:stedsnr" v="582540" />
		<tag k="water" v="lake" />
	</node>
	<node id="-193056" lat="68.6588527788" lon="15.5152472176">
		<tag k="name" v="Storhøljet" />
		<tag k="natural" v="water" />
		<tag k="ssr:stedsnr" v="582488" />
		<tag k="water" v="lake" />
	</node>
	<node id="-191005" lat="68.6584638852" lon="15.051805566">
		<tag k="name" v="Elvneset" />
		<tag k="natural" v="cape" />
		<tag k="ssr:stedsnr" v="241761" />
	</node>
	<node id="-193050" lat="68.7571972263" lon="15.1472722212">
		<tag k="name" v="Lakselva" />
		<tag k="ssr:stedsnr" v="581860" />
		<tag k="waterway" v="stream" />
	</node>
	<node id="-191000" lat="68.7270694458" lon="15.6246388818">
		<tag k="name" v="Simajordbekken" />
		<tag k="ssr:stedsnr" v="238007" />
		<tag k="waterway" v="stream" />
	</node>
	<node id="-190999" lat="68.703883332" lon="15.3807166731">
		<tag k="alt_name" v="Lomtjørna" />
		<tag k="name" v="Lomtjønna" />
		<tag k="natural" v="water" />
		<tag k="ssr:stedsnr" v="443813" />
	</node>
	<node id="-190989" lat="68.7375611078" lon="15.7488555649">
		<tag k="name" v="Lakselva" />
		<tag k="ssr:stedsnr" v="443457" />
		<tag k="waterway" v="stream" />
	</node>
	<node id="-191234" lat="68.7108583336" lon="15.3605472178">
		<tag k="fixme" v="multiple name tags, choose one and add the other to alt_name" />
		<tag k="name" v="Klubbelva;Storvasselva" />
		<tag k="ssr:stedsnr" v="503824" />
		<tag k="waterway" v="stream" />
	</node>
	<node id="-193030" lat="68.7406999992" lon="15.2482416667">
		<tag k="name" v="Lamarkvatnet" />
		<tag k="natural" v="water" />
		<tag k="ssr:stedsnr" v="564802" />
	</node>
	<node id="-193029" lat="68.7385361122" lon="15.1533777851">
		<tag k="name" v="Langvatnet" />
		<tag k="natural" v="water" />
		<tag k="ssr:stedsnr" v="564796" />
	</node>
	<node id="-190980" lat="68.5567027782" lon="15.3810944387">
		<tag k="name" v="Storneset" />
		<tag k="natural" v="cape" />
		<tag k="ssr:stedsnr" v="443203" />
	</node>
	<node id="-190976" lat="68.8621777781" lon="15.8694361226">
		<tag k="alt_name" v="Litjevatnet" />
		<tag k="name" v="Litlevatnet" />
		<tag k="natural" v="water" />
		<tag k="ssr:stedsnr" v="443046" />
	</node>
	<node id="-193019" lat="68.6924777794" lon="15.3536666776">
		<tag k="name" v="Prestvatnet" />
		<tag k="natural" v="water" />
		<tag k="ssr:stedsnr" v="564148" />
	</node>
	<node id="-190970" lat="68.7082638898" lon="15.5286638848">
		<tag k="name" v="Svartdalsvatnet" />
		<tag k="natural" v="water" />
		<tag k="ssr:stedsnr" v="442843" />
	</node>
	<node id="-190969" lat="68.7090722222" lon="15.4684500097">
		<tag k="alt_name" v="Stortjørna" />
		<tag k="name" v="Stortjønna" />
		<tag k="natural" v="water" />
		<tag k="ssr:stedsnr" v="442842" />
	</node>
	<node id="-193015" lat="68.7179305552" lon="15.3795722234">
		<tag k="name" v="Ånstadelva" />
		<tag k="ssr:stedsnr" v="563861" />
		<tag k="waterway" v="stream" />
	</node>
	<node id="-193014" lat="68.7031805594" lon="15.1982833336">
		<tag k="name" v="Durmålsvatnet" />
		<tag k="natural" v="water" />
		<tag k="ssr:stedsnr" v="563839" />
	</node>
	<node id="-193013" lat="68.7142888868" lon="15.5064249872">
		<tag k="fixme" v="multiple name tags, choose one and add the other to alt_name" />
		<tag k="name" v="Kvalsaukelva;Svartdalselva" />
		<tag k="ssr:stedsnr" v="563834" />
		<tag k="waterway" v="stream" />
	</node>
	<node id="-190957" lat="68.9314305548" lon="15.8831027715">
		<tag k="name" v="Mølnelva" />
		<tag k="ssr:stedsnr" v="442506" />
		<tag k="waterway" v="stream" />
	</node>
	<node id="-193002" lat="68.689419448" lon="14.8989111223">
		<tag k="alt_name" v="Livatn" />
		<tag k="name" v="Livatnet" />
		<tag k="natural" v="water" />
		<tag k="ssr:stedsnr" v="563648" />
	</node>
	<node id="-190951" lat="68.7689888893" lon="15.2358611149">
		<tag k="alt_name" v="Bufjelltjørna" />
		<tag k="name" v="Bufjelltjønna" />
		<tag k="natural" v="water" />
		<tag k="ssr:stedsnr" v="442412" />
	</node>
	<node id="-190950" lat="68.7638472189" lon="15.5303222236">
		<tag k="name" v="Lilandselva" />
		<tag k="ssr:stedsnr" v="442410" />
		<tag k="waterway" v="stream" />
	</node>
	<node id="-190946" lat="68.7663249972" lon="15.1604472283">
		<tag k="fixme" v="multiple name tags, choose one and add the other to alt_name" />
		<tag k="name" v="Storstraumvatnet;Straumvatnet" />
		<tag k="natural" v="water" />
		<tag k="ssr:stedsnr" v="442353" />
	</node>
	<node id="-190945" lat="68.7727888888" lon="15.5306361109">
		<tag k="name" v="Reinsnesvatnet" />
		<tag k="natural" v="water" />
		<tag k="ssr:stedsnr" v="442352" />
		<tag k="water" v="lake" />
	</node>
	<node id="-190942" lat="68.6476999978" lon="15.6851027818">
		<tag k="name" v="Småvatnan" />
		<tag k="natural" v="water" />
		<tag k="ssr:stedsnr" v="442339" />
	</node>
	<node id="-192988" lat="68.8409694444" lon="15.3503722106">
		<tag k="name" v="Harhalselva" />
		<tag k="ssr:stedsnr" v="563283" />
		<tag k="waterway" v="stream" />
	</node>
	<node id="-192986" lat="68.6631888918" lon="15.8177222251">
		<tag k="alt_name" v="Gombogelva" />
		<tag k="name" v="Gambogelva" />
		<tag k="ssr:stedsnr" v="563273" />
		<tag k="waterway" v="stream" />
	</node>
	<node id="-192985" lat="68.8201361102" lon="15.3603749909">
		<tag k="name" v="Litlevatnet" />
		<tag k="natural" v="water" />
		<tag k="ssr:stedsnr" v="563261" />
	</node>
	<node id="-190935" lat="68.7264916676" lon="14.950111106">
		<tag k="name" v="Bukkespelvatnet" />
		<tag k="natural" v="water" />
		<tag k="ssr:stedsnr" v="442297" />
	</node>
	<node id="-192978" lat="68.6830583309" lon="15.1365999973">
		<tag k="name" v="Vassdalsvatnet" />
		<tag k="natural" v="water" />
		<tag k="ssr:stedsnr" v="563149" />
	</node>
	<node id="-192976" lat="68.6878805548" lon="15.5254138929">
		<tag k="name" v="Storneset" />
		<tag k="natural" v="cape" />
		<tag k="ssr:stedsnr" v="563130" />
	</node>
	<node id="-190926" lat="68.6747361081" lon="15.2091694368">
		<tag k="name" v="Kvanntobekken" />
		<tag k="ssr:stedsnr" v="442215" />
		<tag k="waterway" v="stream" />
	</node>
	<node id="-192971" lat="68.7797472256" lon="15.9772083353">
		<tag k="name" v="Kråkvikelva" />
		<tag k="ssr:stedsnr" v="563073" />
		<tag k="waterway" v="stream" />
	</node>
	<node id="-190922" lat="68.7553722223" lon="15.8693000041">
		<tag k="name" v="Bjørnråelva" />
		<tag k="ssr:stedsnr" v="442169" />
		<tag k="waterway" v="stream" />
	</node>
	<node id="-192960" lat="68.6771305601" lon="15.2178666606">
		<tag k="name" v="Oshaugelva" />
		<tag k="ssr:stedsnr" v="562163" />
		<tag k="waterway" v="stream" />
	</node>
	<node id="-190879" lat="68.7393916623" lon="15.7487944485">
		<tag k="name" v="Atterbekken" />
		<tag k="ssr:stedsnr" v="298021" />
		<tag k="waterway" v="stream" />
	</node>
	<node id="-192950" lat="68.8053638901" lon="15.8558611004">
		<tag k="name" v="Øvstadbekken" />
		<tag k="ssr:stedsnr" v="544365" />
		<tag k="waterway" v="stream" />
	</node>
	<node id="-190900" lat="68.6750388919" lon="15.0711194503">
		<tag k="name" v="Heimerholmen" />
		<tag k="place" v="islet" />
		<tag k="ssr:stedsnr" v="218308" />
	</node>
	<node id="-192941" lat="68.9346027787" lon="15.9041222268">
		<tag k="name" v="Høgfossen" />
		<tag k="natural" v="waterfall" />
		<tag k="ssr:stedsnr" v="543659" />
	</node>
	<node id="-192936" lat="68.694844444" lon="15.5621000011">
		<tag k="name" v="Stormyrlahøljet" />
		<tag k="natural" v="water" />
		<tag k="ssr:stedsnr" v="541796" />
		<tag k="water" v="lake" />
	</node>
	<node id="-192928" lat="68.6997027757" lon="14.868202773">
		<tag k="name" v="Vattendalselva" />
		<tag k="ssr:stedsnr" v="541673" />
		<tag k="waterway" v="stream" />
	</node>
	<node id="-192927" lat="68.8185000032" lon="15.5430611197">
		<tag k="name" v="Valen" />
		<tag k="natural" v="bay" />
		<tag k="ssr:stedsnr" v="541092" />
	</node>
	<node id="-190877" lat="68.6570055538" lon="15.5721222201">
		<tag k="name" v="Galtbekken" />
		<tag k="ssr:stedsnr" v="297741" />
		<tag k="waterway" v="stream" />
	</node>
	<node id="-192924" lat="68.7013305587" lon="15.6749361191">
		<tag k="name" v="Skjellbekkan" />
		<tag k="ssr:stedsnr" v="541059" />
		<tag k="waterway" v="stream" />
	</node>
	<node id="-190874" lat="68.7438972224" lon="15.1822583237">
		<tag k="alt_name" v="Rundtjørna" />
		<tag k="name" v="Rundtjønna" />
		<tag k="natural" v="water" />
		<tag k="ssr:stedsnr" v="200763" />
	</node>
	<node id="-192920" lat="68.670758335" lon="15.5934777855">
		<tag k="name" v="Tverrelva" />
		<tag k="ssr:stedsnr" v="540748" />
		<tag k="waterway" v="stream" />
	</node>
	<node id="-190868" lat="68.6635138902" lon="15.107327774">
		<tag k="name" v="Trollvatnet" />
		<tag k="natural" v="water" />
		<tag k="ssr:stedsnr" v="200202" />
		<tag k="water" v="lake" />
	</node>
	<node id="-190867" lat="68.8373888933" lon="15.8967361122">
		<tag k="name" v="Forelva" />
		<tag k="ssr:stedsnr" v="200006" />
		<tag k="waterway" v="stream" />
	</node>
	<node id="-190864" lat="68.6626611118" lon="15.5475305554">
		<tag k="alt_name:no" v="Kjerringnesvatnet" />
		<tag k="name" v="Kjerringnesdalsvatnet - Gernášjávri" />
		<tag k="name:no" v="Kjerringnesdalsvatnet" />
		<tag k="name:se" v="Gernášjávri" />
		<tag k="natural" v="water" />
		<tag k="ssr:stedsnr" v="199231" />
		<tag k="water" v="lake" />
	</node>
	<node id="-192911" lat="68.6758583343" lon="14.8128500088">
		<tag k="name" v="Skjellelva" />
		<tag k="ssr:stedsnr" v="527653" />
		<tag k="waterway" v="stream" />
	</node>
	<node id="-190862" lat="68.6534833342" lon="15.0484305434">
		<tag k="name" v="Elveneset" />
		<tag k="natural" v="cape" />
		<tag k="ssr:stedsnr" v="199212" />
	</node>
	<node id="-190859" lat="68.594425002" lon="15.575797224">
		<tag k="name" v="Rundvatnet" />
		<tag k="natural" v="water" />
		<tag k="ssr:stedsnr" v="199108" />
	</node>
	<node id="-190857" lat="68.5668083372" lon="15.5470944386">
		<tag k="alt_name" v="Isvatnet, indre" />
		<tag k="name" v="Indre Isvatnet" />
		<tag k="natural" v="water" />
		<tag k="ssr:stedsnr" v="199105" />
		<tag k="water" v="lake" />
	</node>
	<node id="-192899" lat="68.8113805521" lon="15.5040888762">
		<tag k="name" v="Litlestamnesbekken" />
		<tag k="ssr:stedsnr" v="521849" />
		<tag k="waterway" v="stream" />
	</node>
	<node id="-191211" lat="68.7387083297" lon="15.9317666551">
		<tag k="name" v="Storvatnet" />
		<tag k="natural" v="water" />
		<tag k="ssr:stedsnr" v="503433" />
		<tag k="water" v="lake" />
	</node>
	<node id="-190846" lat="68.6792083335" lon="14.8092000024">
		<tag k="name" v="Hamnelva" />
		<tag k="ssr:stedsnr" v="285636" />
		<tag k="waterway" v="stream" />
	</node>
	<node id="-190842" lat="68.6807972198" lon="15.7484833249">
		<tag k="name" v="Bjørndalsbekken" />
		<tag k="ssr:stedsnr" v="180054" />
		<tag k="waterway" v="stream" />
	</node>
	<node id="-190839" lat="68.7040638855" lon="15.5870083231">
		<tag k="name" v="Storelva" />
		<tag k="ssr:stedsnr" v="179865" />
		<tag k="waterway" v="stream" />
	</node>
	<node id="-190838" lat="68.7514027797" lon="15.9520305444">
		<tag k="name" v="Skjelltindbekken" />
		<tag k="ssr:stedsnr" v="179709" />
		<tag k="waterway" v="stream" />
	</node>
	<node id="-190833" lat="68.585011114" lon="15.4290138791">
		<tag k="name" v="Eidet" />
		<tag k="natural" v="strait" />
		<tag k="ssr:stedsnr" v="179611" />
	</node>
	<node id="-190832" lat="68.5824555516" lon="15.4421194505">
		<tag k="name" v="Vassbukta" />
		<tag k="natural" v="bay" />
		<tag k="ssr:stedsnr" v="179605" />
	</node>
	<node id="-192878" lat="68.6532444408" lon="15.3155888825">
		<tag k="name" v="Litleelva" />
		<tag k="ssr:stedsnr" v="521434" />
		<tag k="waterway" v="stream" />
	</node>
	<node id="-190825" lat="68.6881111073" lon="15.3936138926">
		<tag k="name" v="Mortenbekken" />
		<tag k="ssr:stedsnr" v="177756" />
		<tag k="waterway" v="stream" />
	</node>
	<node id="-192871" lat="68.7376361097" lon="14.9739805671">
		<tag k="name" v="Storråna" />
		<tag k="ssr:stedsnr" v="423872" />
		<tag k="waterway" v="stream" />
	</node>
	<node id="-192870" lat="68.7343416636" lon="14.9650416633">
		<tag k="name" v="Gamelva" />
		<tag k="ssr:stedsnr" v="423866" />
		<tag k="waterway" v="stream" />
	</node>
	<node id="-190821" lat="68.5919611133" lon="15.4079361119">
		<tag k="name" v="Mølldalsneset" />
		<tag k="natural" v="cape" />
		<tag k="ssr:stedsnr" v="177573" />
	</node>
	<node id="-192864" lat="68.6853750045" lon="15.7370749919">
		<tag k="name" v="Mariholman" />
		<tag k="natural" v="cape" />
		<tag k="ssr:stedsnr" v="423065" />
	</node>
	<node id="-192863" lat="68.6868861084" lon="15.7280027721">
		<tag k="name" v="Kvanntobekken" />
		<tag k="ssr:stedsnr" v="423052" />
		<tag k="waterway" v="stream" />
	</node>
	<node id="-192860" lat="68.8366472237" lon="15.3797416664">
		<tag k="name" v="Gardselva" />
		<tag k="ssr:stedsnr" v="422685" />
		<tag k="waterway" v="stream" />
	</node>
	<node id="-192859" lat="68.9262138903" lon="15.8644527803">
		<tag k="name" v="Karlneset" />
		<tag k="natural" v="cape" />
		<tag k="ssr:stedsnr" v="422677" />
	</node>
	<node id="-190809" lat="68.7508249983" lon="15.8846249954">
		<tag k="name" v="Blåbekken" />
		<tag k="ssr:stedsnr" v="162414" />
		<tag k="waterway" v="stream" />
	</node>
	<node id="-190807" lat="68.7973888859" lon="15.2682472224">
		<tag k="name" v="Vasselva" />
		<tag k="ssr:stedsnr" v="161573" />
		<tag k="waterway" v="stream" />
	</node>
	<node id="-192847" lat="68.7409638851" lon="15.1472638866">
		<tag k="name" v="Mølnelva" />
		<tag k="ssr:stedsnr" v="420964" />
		<tag k="waterway" v="stream" />
	</node>
	<node id="-190797" lat="68.7421999965" lon="15.6699611008">
		<tag k="name" v="Eidbuktelva" />
		<tag k="ssr:stedsnr" v="279700" />
		<tag k="waterway" v="stream" />
	</node>
	<node id="-192843" lat="68.7004666691" lon="14.8590944401">
		<tag k="name" v="Straumelva" />
		<tag k="natural" v="strait" />
		<tag k="ssr:stedsnr" v="420675" />
	</node>
	<node id="-192841" lat="68.7675472203" lon="15.5988027758">
		<tag k="name" v="Urtindvatnet" />
		<tag k="natural" v="water" />
		<tag k="ssr:stedsnr" v="420110" />
	</node>
	<node id="-192840" lat="68.7751972239" lon="15.5466083408">
		<tag k="name" v="Sandbekken" />
		<tag k="ssr:stedsnr" v="420099" />
		<tag k="waterway" v="stream" />
	</node>
	<node id="-192838" lat="68.8068694461" lon="15.8268416649">
		<tag k="name" v="Labekken" />
		<tag k="ssr:stedsnr" v="419334" />
		<tag k="waterway" v="stream" />
	</node>
	<node id="-192836" lat="68.7095027781" lon="14.9189083243">
		<tag k="name" v="Trolldalselva" />
		<tag k="ssr:stedsnr" v="406693" />
		<tag k="waterway" v="stream" />
	</node>
	<node id="-190786" lat="68.6992416667" lon="15.1429527672">
		<tag k="name" v="Sørbogelva" />
		<tag k="ssr:stedsnr" v="278657" />
		<tag k="waterway" v="stream" />
	</node>
	<node id="-192831" lat="68.7024749958" lon="14.8792388958">
		<tag k="name" v="Vatndalsvatnet" />
		<tag k="natural" v="water" />
		<tag k="ssr:stedsnr" v="406732" />
	</node>
	<node id="-190780" lat="68.6724305586" lon="15.2808611196">
		<tag k="name" v="Tortenlivatnet nord" />
		<tag k="natural" v="water" />
		<tag k="ssr:stedsnr" v="278591" />
	</node>
	<node id="-190777" lat="68.7601833313" lon="15.1565305586">
		<tag k="name" v="Laksvatnet" />
		<tag k="natural" v="water" />
		<tag k="ssr:stedsnr" v="278488" />
	</node>
	<node id="-190773" lat="68.798733334" lon="15.2397444397">
		<tag k="alt_name" v="Skardelva" />
		<tag k="name" v="Skarelva" />
		<tag k="ssr:stedsnr" v="139352" />
		<tag k="waterway" v="stream" />
	</node>
	<node id="-190771" lat="68.6736222248" lon="15.5161361112">
		<tag k="name" v="Tverrelva" />
		<tag k="ssr:stedsnr" v="138195" />
		<tag k="waterway" v="stream" />
	</node>
	<node id="-190769" lat="68.6677138921" lon="15.2239305487">
		<tag k="name" v="Oshaugvatnet" />
		<tag k="natural" v="water" />
		<tag k="ssr:stedsnr" v="138186" />
		<tag k="water" v="lake" />
	</node>
	<node id="-190768" lat="68.664330554" lon="15.2511861183">
		<tag k="name" v="Knurrvatnet" />
		<tag k="natural" v="water" />
		<tag k="ssr:stedsnr" v="138184" />
	</node>
	<node id="-191197" lat="68.6709277776" lon="15.0820111188">
		<tag k="name" v="Trollvasselva" />
		<tag k="ssr:stedsnr" v="503169" />
		<tag k="waterway" v="river" />
	</node>
	<node id="-192812" lat="68.7507166674" lon="15.5851555621">
		<tag k="name" v="Kutjønna" />
		<tag k="natural" v="water" />
		<tag k="ssr:stedsnr" v="400718" />
	</node>
	<node id="-192811" lat="68.7005361143" lon="15.3821361007">
		<tag k="name" v="Olakilda" />
		<tag k="natural" v="spring" />
		<tag k="ssr:stedsnr" v="400717" />
	</node>
	<node id="-190761" lat="68.9161166692" lon="15.858777774">
		<tag k="name" v="Slettheivatnet" />
		<tag k="natural" v="water" />
		<tag k="ssr:stedsnr" v="118629" />
	</node>
	<node id="-190760" lat="68.8016833319" lon="15.330077785">
		<tag k="name" v="Gåsbølelva" />
		<tag k="ssr:stedsnr" v="118628" />
		<tag k="waterway" v="stream" />
	</node>
	<node id="-192807" lat="68.6263222187" lon="15.5923611182">
		<tag k="name" v="Skolebekken" />
		<tag k="ssr:stedsnr" v="400646" />
		<tag k="waterway" v="stream" />
	</node>
	<node id="-190756" lat="68.7571305545" lon="15.5327472276">
		<tag k="name" v="Svartdalsbekken" />
		<tag k="ssr:stedsnr" v="261439" />
		<tag k="waterway" v="stream" />
	</node>
	<node id="-192802" lat="68.6817000009" lon="15.4759444473">
		<tag k="name" v="Jordbekken" />
		<tag k="ssr:stedsnr" v="400554" />
		<tag k="waterway" v="stream" />
	</node>
	<node id="-190751" lat="68.8501472198" lon="15.3538194321">
		<tag k="fixme" v="multiple name tags, choose one and add the other to alt_name" />
		<tag k="name" v="Grunnfjord;Straumvatnet" />
		<tag k="natural" v="water" />
		<tag k="ssr:stedsnr" v="261291" />
		<tag k="water" v="lake" />
	</node>
	<node id="-192797" lat="68.695341665" lon="15.5334222258">
		<tag k="name" v="Nylabekken" />
		<tag k="ssr:stedsnr" v="400510" />
		<tag k="waterway" v="stream" />
	</node>
	<node id="-190743" lat="68.8695111141" lon="15.8700222325">
		<tag k="alt_name" v="Bjørnforsen" />
		<tag k="name" v="Bjørnfossen" />
		<tag k="natural" v="waterfall" />
		<tag k="ssr:stedsnr" v="261054" />
	</node>
	<node id="-190738" lat="68.724847223" lon="15.3898666732">
		<tag k="name" v="Toftelva" />
		<tag k="ssr:stedsnr" v="260874" />
		<tag k="waterway" v="stream" />
	</node>
	<node id="-190734" lat="68.7230527812" lon="15.1749277665">
		<tag k="name" v="Nøkkelva" />
		<tag k="ssr:stedsnr" v="260817" />
		<tag k="waterway" v="river" />
	</node>
	<node id="-190733" lat="68.7296666638" lon="15.5929944502">
		<tag k="fixme" v="multiple name tags, choose one and add the other to alt_name" />
		<tag k="name" v="Mølndalselva;Mølnelva" />
		<tag k="ssr:stedsnr" v="260807" />
		<tag k="waterway" v="stream" />
	</node>
	<node id="-190726" lat="68.881791663" lon="15.8973916643">
		<tag k="name" v="Storeidet" />
		<tag k="natural" v="strait" />
		<tag k="ssr:stedsnr" v="260496" />
	</node>
	<node id="-190725" lat="68.7317361114" lon="15.8520250111">
		<tag k="alt_name" v="Lebikvatnet" />
		<tag k="name" v="Lebbikvatnet" />
		<tag k="natural" v="water" />
		<tag k="ssr:stedsnr" v="260494" />
	</node>
	<node id="-192772" lat="68.7417027813" lon="15.2738805589">
		<tag k="alt_name" v="Godlitjørna" />
		<tag k="name" v="Golitjønna" />
		<tag k="natural" v="water" />
		<tag k="ssr:stedsnr" v="382786" />
	</node>
	<node id="-192770" lat="68.7479055547" lon="15.5329138824">
		<tag k="name" v="Leirbogelva" />
		<tag k="ssr:stedsnr" v="382780" />
		<tag k="waterway" v="stream" />
	</node>
	<node id="-190721" lat="68.7411472193" lon="15.7132833434">
		<tag k="alt_name" v="Eidesvatnan" />
		<tag k="name" v="Eidevatnan" />
		<tag k="natural" v="water" />
		<tag k="ssr:stedsnr" v="260475" />
		<tag k="water" v="lake" />
	</node>
	<node id="-190720" lat="68.7536722228" lon="15.1581805628">
		<tag k="alt_name" v="Grindbogelva" />
		<tag k="name" v="Grimsbogelva" />
		<tag k="ssr:stedsnr" v="260453" />
		<tag k="waterway" v="stream" />
	</node>
	<node id="-192767" lat="68.8828916629" lon="15.9179055594">
		<tag k="name" v="Storvikvatnet" />
		<tag k="natural" v="water" />
		<tag k="ssr:stedsnr" v="382460" />
	</node>
	<node id="-192763" lat="68.7479305518" lon="15.8686388868">
		<tag k="name" v="Heivatnet" />
		<tag k="natural" v="water" />
		<tag k="ssr:stedsnr" v="382428" />
	</node>
	<node id="-190711" lat="68.7725888851" lon="15.108916666">
		<tag k="alt_name" v="Seterdalselva" />
		<tag k="name" v="Sæterdalselva" />
		<tag k="ssr:stedsnr" v="260363" />
		<tag k="waterway" v="stream" />
	</node>
	<node id="-190708" lat="68.6451972216" lon="15.6413944401">
		<tag k="alt_name" v="Hallbekken" />
		<tag k="name" v="Halbekken" />
		<tag k="ssr:stedsnr" v="260354" />
		<tag k="waterway" v="stream" />
	</node>
	<node id="-190707" lat="68.9038222183" lon="15.8710000031">
		<tag k="name" v="Tverrelva" />
		<tag k="ssr:stedsnr" v="260353" />
		<tag k="waterway" v="stream" />
	</node>
	<node id="-192749" lat="68.8624027807" lon="15.9070666655">
		<tag k="name" v="Storelva" />
		<tag k="ssr:stedsnr" v="382046" />
		<tag k="waterway" v="stream" />
	</node>
	<node id="-190700" lat="68.6806305512" lon="15.6951388953">
		<tag k="fixme" v="multiple name tags, choose one and add the other to alt_name" />
		<tag k="name" v="Kjerringnesdalselva;Kjerringneselva;Litlkjerringnesdalselva" />
		<tag k="ssr:stedsnr" v="260309" />
		<tag k="waterway" v="stream" />
	</node>
	<node id="-190694" lat="68.6833361118" lon="15.1295083339">
		<tag k="name" v="Skeivatnet" />
		<tag k="natural" v="water" />
		<tag k="ssr:stedsnr" v="260182" />
	</node>
	<node id="-190691" lat="68.6857333302" lon="15.2341916618">
		<tag k="name" v="Keipelva" />
		<tag k="ssr:stedsnr" v="260173" />
		<tag k="waterway" v="stream" />
	</node>
	<node id="-190688" lat="68.5734472249" lon="15.4975722264">
		<tag k="name" v="Kamvatnet" />
		<tag k="natural" v="water" />
		<tag k="ssr:stedsnr" v="260099" />
	</node>
	<node id="-192735" lat="68.7287333304" lon="15.7771638888">
		<tag k="fixme" v="multiple name tags, choose one and add the other to alt_name" />
		<tag k="name" v="Ommundbekken;Åmundbekken" />
		<tag k="ssr:stedsnr" v="381461" />
		<tag k="waterway" v="stream" />
	</node>
	<node id="-190686" lat="68.6057333354" lon="15.412902772">
		<tag k="name" v="Sennvatnet" />
		<tag k="natural" v="water" />
		<tag k="ssr:stedsnr" v="260094" />
	</node>
	<node id="-190682" lat="68.840116663" lon="15.8996277799">
		<tag k="name" v="Krokbekken" />
		<tag k="ssr:stedsnr" v="260035" />
		<tag k="waterway" v="stream" />
	</node>
	<node id="-190681" lat="68.6348277791" lon="15.5882111041">
		<tag k="name" v="Skjellbekken" />
		<tag k="ssr:stedsnr" v="260034" />
		<tag k="waterway" v="stream" />
	</node>
	<node id="-192728" lat="68.8172500018" lon="15.5608833311">
		<tag k="name" v="Nordåa" />
		<tag k="ssr:stedsnr" v="381284" />
		<tag k="waterway" v="stream" />
	</node>
	<node id="-192720" lat="68.6463138929" lon="15.0381694525">
		<tag k="name" v="Straumfjordneset" />
		<tag k="natural" v="cape" />
		<tag k="ssr:stedsnr" v="381219" />
	</node>
	<node id="-192716" lat="68.6736500031" lon="15.5056277732">
		<tag k="name" v="Lomtjørna" />
		<tag k="natural" v="water" />
		<tag k="ssr:stedsnr" v="381186" />
	</node>
	<node id="-190664" lat="68.6896055557" lon="15.1803194544">
		<tag k="name" v="Lyderhølja" />
		<tag k="natural" v="water" />
		<tag k="ssr:stedsnr" v="96560" />
		<tag k="water" v="lake" />
	</node>
	<node id="-190663" lat="68.6884277737" lon="15.1784111029">
		<tag k="name" v="Langstilla" />
		<tag k="natural" v="water" />
		<tag k="ssr:stedsnr" v="96559" />
		<tag k="water" v="lake" />
	</node>
	<node id="-190662" lat="68.6602611093" lon="15.2901555559">
		<tag k="name" v="Stokklibekken" />
		<tag k="ssr:stedsnr" v="96556" />
		<tag k="waterway" v="stream" />
	</node>
	<node id="-192704" lat="68.7961722218" lon="15.6629000114">
		<tag k="alt_name" v="Fuglevatnet, litle;Litlefuglvatnet" />
		<tag k="name" v="Litle Fuglevatnet" />
		<tag k="natural" v="water" />
		<tag k="ssr:stedsnr" v="381109" />
	</node>
	<node id="-192703" lat="68.5676055595" lon="15.5275666796">
		<tag k="alt_name" v="Isvatnet, ytre" />
		<tag k="name" v="Ytre Isvatnet" />
		<tag k="natural" v="water" />
		<tag k="ssr:stedsnr" v="381100" />
		<tag k="water" v="lake" />
	</node>
	<node id="-190653" lat="68.7686666642" lon="16.0066888962">
		<tag k="fixme" v="multiple name tags, choose one and add the other to alt_name" />
		<tag k="name" v="Pessebekken;Pissaren" />
		<tag k="ssr:stedsnr" v="79165" />
		<tag k="waterway" v="stream" />
	</node>
	<node id="-192699" lat="68.5763527818" lon="15.5928500018">
		<tag k="name" v="Breidtindvatnet" />
		<tag k="natural" v="water" />
		<tag k="ssr:stedsnr" v="381087" />
	</node>
	<node id="-192697" lat="68.5765333302" lon="15.4066833323">
		<tag k="name" v="Svartdalsvatnet" />
		<tag k="natural" v="water" />
		<tag k="ssr:stedsnr" v="381081" />
	</node>
	<node id="-192696" lat="68.5963333363" lon="15.464908325">
		<tag k="name" v="Hallskogvatnet" />
		<tag k="natural" v="water" />
		<tag k="ssr:stedsnr" v="381058" />
	</node>
	<node id="-192695" lat="68.6041361143" lon="15.5699805487">
		<tag k="alt_name" v="Vangpollvatnet, nedre;Nedre Vangpollvatn" />
		<tag k="name" v="Nedre Vangpollvatnet" />
		<tag k="natural" v="water" />
		<tag k="ssr:stedsnr" v="381052" />
	</node>
	<node id="-192691" lat="68.6103055526" lon="15.4101083347">
		<tag k="alt_name" v="Hesttjørna" />
		<tag k="name" v="Hesttjønna" />
		<tag k="natural" v="water" />
		<tag k="ssr:stedsnr" v="381012" />
	</node>
	<node id="-190640" lat="68.7744861122" lon="15.8259361029">
		<tag k="name" v="Tverrbekken" />
		<tag k="ssr:stedsnr" v="241331" />
		<tag k="waterway" v="stream" />
	</node>
	<node id="-192685" lat="68.7750694449" lon="15.8551666673">
		<tag k="name" v="Innerbekken" />
		<tag k="ssr:stedsnr" v="362378" />
		<tag k="waterway" v="stream" />
	</node>
	<node id="-192683" lat="68.7574527761" lon="15.7183111005">
		<tag k="name" v="Spruten" />
		<tag k="ssr:stedsnr" v="362039" />
		<tag k="waterway" v="stream" />
	</node>
	<node id="-192677" lat="68.7115555525" lon="14.8244972104">
		<tag k="name" v="Stielva" />
		<tag k="ssr:stedsnr" v="359629" />
		<tag k="waterway" v="stream" />
	</node>
	<node id="-192674" lat="68.77921111" lon="15.527619454">
		<tag k="name" v="Bekkan" />
		<tag k="ssr:stedsnr" v="359100" />
		<tag k="waterway" v="stream" />
	</node>
	<node id="-192670" lat="68.718305555" lon="14.8140999895">
		<tag k="name" v="Holmen" />
		<tag k="place" v="islet" />
		<tag k="ssr:stedsnr" v="356256" />
	</node>
	<node id="-192661" lat="68.5690166646" lon="15.3435360981">
		<tag k="name" v="Fiskfjordelva" />
		<tag k="ssr:stedsnr" v="344735" />
		<tag k="waterway" v="stream" />
	</node>
	<node id="-192659" lat="68.7999527743" lon="15.5596805655">
		<tag k="name" v="Roksøyelva" />
		<tag k="ssr:stedsnr" v="344200" />
		<tag k="waterway" v="river" />
	</node>
	<node id="-192658" lat="68.7703527775" lon="15.5268638915">
		<tag k="name" v="Lamholmen" />
		<tag k="place" v="islet" />
		<tag k="ssr:stedsnr" v="344181" />
	</node>
	<node id="-191171" lat="68.6097083354" lon="15.5043250073">
		<tag k="alt_name" v="Stidelvvatnet, øvre" />
		<tag k="fixme" v="multiple name tags, choose one and add the other to alt_name" />
		<tag k="name" v="Øvre Strielvvatn;Øvre Stidelvvatnet" />
		<tag k="natural" v="water" />
		<tag k="ssr:stedsnr" v="502014" />
		<tag k="water" v="lake" />
	</node>
	<node id="-190607" lat="68.8038805518" lon="15.6779000096">
		<tag k="name" v="Litlefjelltjønna" />
		<tag k="natural" v="water" />
		<tag k="ssr:stedsnr" v="56008" />
	</node>
	<node id="-190605" lat="68.6915055535" lon="14.9296000051">
		<tag k="name" v="Lomtjernet" />
		<tag k="natural" v="water" />
		<tag k="ssr:stedsnr" v="42602" />
	</node>
	<node id="-192646" lat="68.647386115" lon="15.1894194431">
		<tag k="name" v="Nordskarelva" />
		<tag k="ssr:stedsnr" v="339855" />
		<tag k="waterway" v="stream" />
	</node>
	<node id="-192644" lat="68.8116861135" lon="15.4899916575">
		<tag k="name" v="Kleivbekken" />
		<tag k="ssr:stedsnr" v="339832" />
		<tag k="waterway" v="stream" />
	</node>
	<node id="-192638" lat="68.7552361112" lon="15.5542333265">
		<tag k="name" v="Urtindvatnet" />
		<tag k="natural" v="water" />
		<tag k="ssr:stedsnr" v="339684" />
	</node>
	<node id="-193557" lat="68.6393194467" lon="15.6105722303">
		<tag k="name" v="Olderskogvatnet" />
		<tag k="natural" v="water" />
		<tag k="ssr:stedsnr" v="867265" />
	</node>
	<node id="-190588" lat="68.9260972226" lon="15.8560249962">
		<tag k="alt_name" v="Halsevatnan" />
		<tag k="name" v="Halsevatnet" />
		<tag k="natural" v="water" />
		<tag k="ssr:stedsnr" v="18401" />
	</node>
	<node id="-190586" lat="68.5603722226" lon="15.3853250006">
		<tag k="name" v="Gambukta" />
		<tag k="natural" v="strait" />
		<tag k="ssr:stedsnr" v="18115" />
	</node>
	<node id="-190585" lat="68.5549361087" lon="15.377511102">
		<tag k="alt_name" v="Fiskfjordvatnet, andre;Andre Fiskfjordvatnet" />
		<tag k="fixme" v="multiple name tags, choose one and add the other to alt_name" />
		<tag k="name" v="Fiskfjordvatnet;Andre Fiskefjordvatn" />
		<tag k="natural" v="water" />
		<tag k="ssr:stedsnr" v="18114" />
		<tag k="water" v="lake" />
	</node>
	<node id="-190580" lat="68.5427027746" lon="15.4411472136">
		<tag k="alt_name" v="Fiskfjordvatnet, fjerde" />
		<tag k="name" v="Fjerde Fiskfjordvatnet" />
		<tag k="natural" v="water" />
		<tag k="ssr:stedsnr" v="17416" />
		<tag k="water" v="lake" />
	</node>
	<node id="-190578" lat="68.6796472254" lon="15.3391944474">
		<tag k="name" v="Bukkholbekken" />
		<tag k="ssr:stedsnr" v="17204" />
		<tag k="waterway" v="stream" />
	</node>
	<node id="-192620" lat="68.7712333378" lon="15.2947611029">
		<tag k="name" v="Litleelva" />
		<tag k="ssr:stedsnr" v="338155" />
		<tag k="waterway" v="stream" />
	</node>
	<node id="-190571" lat="68.723824996" lon="15.4739833382">
		<tag k="name" v="Elvkroken" />
		<tag k="natural" v="bay" />
		<tag k="ssr:stedsnr" v="223245" />
	</node>
	<node id="-190569" lat="68.7867749994" lon="15.6119750083">
		<tag k="name" v="Litlevatnet" />
		<tag k="natural" v="water" />
		<tag k="ssr:stedsnr" v="223192" />
	</node>
	<node id="-192614" lat="68.7202805578" lon="15.4776138876">
		<tag k="name" v="Gårdselva" />
		<tag k="ssr:stedsnr" v="321835" />
		<tag k="waterway" v="stream" />
	</node>
	<node id="-190822" lat="68.5949972191" lon="15.4206611112">
		<tag k="name" v="Ytterklubbukta" />
		<tag k="natural" v="bay" />
		<tag k="ssr:stedsnr" v="177575" />
	</node>
	<node id="-192609" lat="68.7084972181" lon="15.4867222229">
		<tag k="name" v="Kringelvatnan" />
		<tag k="natural" v="water" />
		<tag k="ssr:stedsnr" v="321805" />
		<tag k="water" v="lake" />
	</node>
	<node id="-192608" lat="68.7342888901" lon="15.2406583435">
		<tag k="name" v="Kovvatnet" />
		<tag k="natural" v="water" />
		<tag k="ssr:stedsnr" v="321790" />
	</node>
	<node id="-192603" lat="68.74951944" lon="15.0304333426">
		<tag k="alt_name" v="Rekvatnet, yt;Rekvatnet, ytre;Ytterrekvatnet" />
		<tag k="name" v="Ytre Rekvatnet" />
		<tag k="natural" v="water" />
		<tag k="ssr:stedsnr" v="321765" />
	</node>
	<node id="-190553" lat="68.6562611136" lon="15.4986694367">
		<tag k="name" v="Kjerringneselva - Gernášjohka" />
		<tag k="name:no" v="Kjerringneselva" />
		<tag k="name:se" v="Gernášjohka" />
		<tag k="ssr:stedsnr" v="218493" />
		<tag k="waterway" v="river" />
	</node>
	<node id="-192599" lat="68.729958335" lon="15.5246361109">
		<tag k="name" v="Holmvatnet" />
		<tag k="natural" v="water" />
		<tag k="ssr:stedsnr" v="321750" />
	</node>
	<node id="-191502" lat="68.5635805534" lon="15.3663527878">
		<tag k="name" v="Skarbukta" />
		<tag k="natural" v="bay" />
		<tag k="ssr:stedsnr" v="605006" />
	</node>
	<node id="-190544" lat="68.67704722" lon="15.2131611134">
		<tag k="name" v="Bekkan" />
		<tag k="ssr:stedsnr" v="217594" />
		<tag k="waterway" v="stream" />
	</node>
	<node id="-192591" lat="68.7596722238" lon="14.9998749932">
		<tag k="fixme" v="multiple name tags, choose one and add the other to alt_name" />
		<tag k="name" v="Rekdalselva;Rekelva" />
		<tag k="ssr:stedsnr" v="321555" />
		<tag k="waterway" v="river" />
	</node>
	<node id="-191501" lat="68.5644555575" lon="15.3677666575">
		<tag k="name" v="Skarelva" />
		<tag k="ssr:stedsnr" v="605005" />
		<tag k="waterway" v="stream" />
	</node>
	<node id="-192588" lat="68.7303861099" lon="15.750416655">
		<tag k="name" v="Tverrelva" />
		<tag k="ssr:stedsnr" v="321433" />
		<tag k="waterway" v="stream" />
	</node>
	<node id="-192587" lat="68.7315916685" lon="15.8160722304">
		<tag k="name" v="Fjordjordelva" />
		<tag k="ssr:stedsnr" v="321431" />
		<tag k="waterway" v="stream" />
	</node>
	<node id="-192586" lat="68.7371416648" lon="15.7253166739">
		<tag k="name" v="Hognfjordeidet - Onafierdáidi" />
		<tag k="name:no" v="Hognfjordeidet" />
		<tag k="name:se" v="Onafierdáidi" />
		<tag k="natural" v="strait" />
		<tag k="ssr:stedsnr" v="321421" />
	</node>
	<node id="-192583" lat="68.7556138899" lon="15.1714694433">
		<tag k="alt_name" v="Svanevatnet" />
		<tag k="name" v="Svanvatnet" />
		<tag k="natural" v="water" />
		<tag k="ssr:stedsnr" v="321407" />
	</node>
	<node id="-192566" lat="68.8097750022" lon="15.3342388966">
		<tag k="name" v="Gårdsvatnet" />
		<tag k="natural" v="water" />
		<tag k="ssr:stedsnr" v="321251" />
	</node>
	<node id="-192564" lat="68.8073611115" lon="15.4961861012">
		<tag k="name" v="Heivatnet" />
		<tag k="natural" v="water" />
		<tag k="ssr:stedsnr" v="321245" />
	</node>
	<node id="-192560" lat="68.5572416656" lon="15.5598916708">
		<tag k="alt_name" v="Blokkvatnet, øvre" />
		<tag k="fixme" v="multiple name tags, choose one and add the other to alt_name" />
		<tag k="name" v="Trivatnet;Øvre Blokkvatnet" />
		<tag k="natural" v="water" />
		<tag k="ssr:stedsnr" v="321113" />
		<tag k="water" v="lake" />
	</node>
	<node id="-192559" lat="68.8233277788" lon="15.8472999916">
		<tag k="name" v="Frøysvatnet" />
		<tag k="natural" v="water" />
		<tag k="ssr:stedsnr" v="321109" />
	</node>
	<node id="-190812" lat="68.6895916633" lon="14.8069888963">
		<tag k="name" v="Djupdalselva" />
		<tag k="ssr:stedsnr" v="163720" />
		<tag k="waterway" v="stream" />
	</node>
	<node id="-192547" lat="68.6564083296" lon="15.5889916762">
		<tag k="name" v="Sørkleivelva" />
		<tag k="ssr:stedsnr" v="320215" />
		<tag k="waterway" v="river" />
	</node>
	<node id="-192544" lat="68.6465499968" lon="15.2356555594">
		<tag k="name" v="Holandselva" />
		<tag k="ssr:stedsnr" v="320204" />
		<tag k="waterway" v="river" />
	</node>
	<node id="-192543" lat="68.651619448" lon="15.2548249971">
		<tag k="alt_name" v="Kleivaelva" />
		<tag k="name" v="Kleivelva" />
		<tag k="ssr:stedsnr" v="320202" />
		<tag k="waterway" v="stream" />
	</node>
	<node id="-192542" lat="68.6523666642" lon="15.194736111">
		<tag k="name" v="Bjørneelva" />
		<tag k="ssr:stedsnr" v="320201" />
		<tag k="waterway" v="stream" />
	</node>
	<node id="-192538" lat="68.5901583355" lon="15.5330972227">
		<tag k="name" v="Langvatnet" />
		<tag k="natural" v="water" />
		<tag k="ssr:stedsnr" v="320074" />
	</node>
	<node id="-192536" lat="68.6084166661" lon="15.4123638831">
		<tag k="name" v="Teinvatnet" />
		<tag k="natural" v="water" />
		<tag k="ssr:stedsnr" v="320055" />
	</node>
	<node id="-192535" lat="68.612688885" lon="15.5329472229">
		<tag k="name" v="Tjørna" />
		<tag k="natural" v="water" />
		<tag k="ssr:stedsnr" v="320052" />
	</node>
	<node id="-192533" lat="68.5997916646" lon="15.3954305472">
		<tag k="name" v="Steinsundet" />
		<tag k="natural" v="strait" />
		<tag k="ssr:stedsnr" v="320044" />
	</node>
	<node id="-192531" lat="68.5970305526" lon="15.5266055604">
		<tag k="fixme" v="multiple name tags, choose one and add the other to alt_name" />
		<tag k="name" v="Fuglbergvatnet;Ånevatnet" />
		<tag k="natural" v="water" />
		<tag k="ssr:stedsnr" v="320039" />
	</node>
	<node id="-192530" lat="68.6090749974" lon="15.407313887">
		<tag k="alt_name" v="Lomtjørna" />
		<tag k="name" v="Lomtjønna" />
		<tag k="natural" v="water" />
		<tag k="ssr:stedsnr" v="320014" />
	</node>
	<node id="-192525" lat="68.7183722206" lon="14.9845694393">
		<tag k="name" v="Heimerjordelva" />
		<tag k="ssr:stedsnr" v="302848" />
		<tag k="waterway" v="stream" />
	</node>
	<node id="-192519" lat="68.7204305525" lon="14.9123499887">
		<tag k="name" v="4.Vatnet" />
		<tag k="natural" v="water" />
		<tag k="ssr:stedsnr" v="301694" />
	</node>
	<node id="-192518" lat="68.8678416712" lon="15.9248638821">
		<tag k="name" v="Litjelva" />
		<tag k="ssr:stedsnr" v="301685" />
		<tag k="waterway" v="stream" />
	</node>
	<node id="-192515" lat="68.7656416669" lon="15.7943833247">
		<tag k="name" v="Røyrtinddalsvatnet" />
		<tag k="natural" v="water" />
		<tag k="ssr:stedsnr" v="301326" />
	</node>
</osm>
