<?xml version="1.0" encoding="UTF-8"?>
<osm version="0.6" generator="osmapis">
	<node lat="68.64335555666125" lon="15.043230552504447" id="-11560">
		<tag k="highway" v="path" />
		<tag k="name" v="Reinstien" />
		<tag k="ssr:stedsnr" v="161960" />
	</node>
	<node lat="68.78007777377766" lon="15.493327773459523" id="-11620">
		<tag k="highway" v="path" />
		<tag k="name" v="Buvegen" />
		<tag k="ssr:stedsnr" v="177105" />
	</node>
	<node lat="68.70533333633512" lon="15.388152769861815" id="-11684">
		<tag k="highway" v="path" />
		<tag k="name" v="Lysverkvegen" />
		<tag k="ssr:stedsnr" v="218708" />
	</node>
	<node lat="68.6212194416235" lon="15.611088888885746" id="-12027">
		<tag k="highway" v="path" />
		<tag k="name" v="Durmålsvegen" />
		<tag k="ssr:stedsnr" v="461702" />
	</node>
	<node lat="68.69930000354334" lon="15.356274994759593" id="-12090">
		<tag k="highway" v="path" />
		<tag k="name" v="Heivegen" />
		<tag k="ssr:stedsnr" v="521709" />
	</node>
	<node lat="68.69001388951315" lon="14.864116657443109" id="-12137">
		<tag k="highway" v="path" />
		<tag k="name" v="Stien" />
		<tag k="ssr:stedsnr" v="527739" />
	</node>
	<node lat="68.81088055737028" lon="15.480399996074897" id="-12191">
		<tag k="highway" v="path" />
		<tag k="name" v="Heivegen" />
		<tag k="ssr:stedsnr" v="582855" />
	</node>
	<node lat="68.72331944721292" lon="15.361638881780962" id="-12194">
		<tag k="highway" v="path" />
		<tag k="name" v="Mellabuvegen" />
		<tag k="ssr:stedsnr" v="582953" />
	</node>
	<node lat="68.73892221899585" lon="15.05139722246782" id="-12219">
		<tag k="highway" v="path" />
		<tag k="name" v="Valsnesvegen" />
		<tag k="ssr:stedsnr" v="605808" />
	</node>
	<node lat="68.7230888876608" lon="14.980269446714063" id="-12409">
		<tag k="highway" v="path" />
		<tag k="name" v="Mellomstien" />
		<tag k="ssr:stedsnr" v="726888" />
	</node>
	<node lat="68.72271110991545" lon="15.360838877967392" id="-12459">
		<tag k="highway" v="path" />
		<tag k="name" v="Nybuvegen" />
		<tag k="ssr:stedsnr" v="764955" />
	</node>
	<node lat="68.78884722307899" lon="15.977630560839984" id="-12498">
		<tag k="highway" v="path" />
		<tag k="name" v="Steinveien" />
		<tag k="ssr:stedsnr" v="786553" />
	</node>
	<node lat="68.71719721855268" lon="14.979880563873316" id="-12650">
		<tag k="highway" v="path" />
		<tag k="name" v="Heimerstien" />
		<tag k="ssr:stedsnr" v="909872" />
	</node>
	<node lat="68.73573055120953" lon="15.78659723202046" id="-12694">
		<tag k="fixme" v="verify maritime location" />
		<tag k="mooring" v="yes" />
		<tag k="name" v="Paulsenstøa" />
		<tag k="place" v="locality" />
		<tag k="ssr:stedsnr" v="951409" />
	</node>
	<node lat="68.7443583299732" lon="15.28138334428384" id="-12777">
		<tag k="fixme" v="consider highway=path" />
		<tag k="highway" v="track" />
		<tag k="name" v="Lamarkvegen" />
		<tag k="ssr:stedsnr" v="35072" />
	</node>
	<node lat="68.62346388658466" lon="15.617425001230535" id="-12900">
		<tag k="highway" v="path" />
		<tag k="name" v="Skogvegen" />
		<tag k="ssr:stedsnr" v="97693" />
	</node>
	<node lat="68.6756666688283" lon="15.075183332587157" id="-12903">
		<tag k="highway" v="path" />
		<tag k="name" v="Urvegen" />
		<tag k="ssr:stedsnr" v="96336" />
	</node>
	<node lat="68.63100833100141" lon="15.593147209951793" id="-12924">
		<tag k="highway" v="path" />
		<tag k="name" v="Tverrvegen" />
		<tag k="ssr:stedsnr" v="97643" />
	</node>
	<node lat="68.7055638874592" lon="14.973424995490104" id="-12939">
		<tag k="name" v="Leia" />
		<tag k="place" v="locality" />
		<tag k="ssr:stedsnr" v="103658" />
	</node>
	<node lat="68.80176666424926" lon="15.880530551390613" id="-13079">
		<tag k="highway" v="path" />
		<tag k="name" v="Steinveien" />
		<tag k="ssr:stedsnr" v="180388" />
	</node>
	<node lat="68.65058055720273" lon="15.190602779411696" id="-13206">
		<tag k="ford" v="yes" />
		<tag k="name" v="Vadet" />
		<tag k="place" v="locality" />
		<tag k="ssr:stedsnr" v="278885" />
	</node>
	<node lat="68.60256944436419" lon="15.473288893323433" id="-13390">
		<tag k="landuse" v="industrial" />
		<tag k="name" v="Djupfjord kraftverk" />
		<tag k="power" v="plant" />
		<tag k="ssr:stedsnr" v="358775" />
	</node>
	<node lat="68.77233888993068" lon="15.48617499233554" id="-13394">
		<tag k="highway" v="path" />
		<tag k="name" v="Lågfjellvegen" />
		<tag k="ssr:stedsnr" v="359101" />
	</node>
	<node lat="68.66657777604871" lon="15.295147219235282" id="-13492">
		<tag k="fixme" v="consider highway=path" />
		<tag k="highway" v="track" />
		<tag k="name" v="Nyvegen" />
		<tag k="ssr:stedsnr" v="399566" />
	</node>
	<node lat="68.75769444787882" lon="15.865999998776909" id="-13513">
		<tag k="highway" v="path" />
		<tag k="name" v="Dannelveien" />
		<tag k="ssr:stedsnr" v="405430" />
	</node>
	<node lat="68.74601666303658" lon="15.52699445456791" id="-13537">
		<tag k="highway" v="path" />
		<tag k="name" v="Skogsvei" />
		<tag k="ssr:stedsnr" v="420821" />
	</node>
	<node lat="68.72447221937227" lon="15.368200007364186" id="-13702">
		<tag k="highway" v="path" />
		<tag k="name" v="Storbuvegen" />
		<tag k="ssr:stedsnr" v="521951" />
	</node>
	<node lat="68.63240556026372" lon="15.16864166111881" id="-13846">
		<tag k="ford" v="yes" />
		<tag k="name" v="Vadet" />
		<tag k="place" v="locality" />
		<tag k="ssr:stedsnr" v="581971" />
	</node>
	<node lat="68.68268333378826" lon="14.882869437669942" id="-13862">
		<tag k="highway" v="path" />
		<tag k="name" v="Melfjordvegen" />
		<tag k="ssr:stedsnr" v="588679" />
	</node>
	<node lat="68.73179722044026" lon="14.974383332914648" id="-13904">
		<tag k="highway" v="path" />
		<tag k="name" v="Innerstien" />
		<tag k="ssr:stedsnr" v="605849" />
	</node>
	<node lat="68.75346944897106" lon="15.497086103014942" id="-14020">
		<tag k="highway" v="path" />
		<tag k="name" v="Heivegen" />
		<tag k="ssr:stedsnr" v="723763" />
	</node>
	<node lat="68.7978055542949" lon="15.345802777899536" id="-14142">
		<tag k="highway" v="path" />
		<tag k="name" v="Sandvegen" />
		<tag k="ssr:stedsnr" v="785645" />
	</node>
	<node lat="68.61161388688413" lon="15.581713881516324" id="-14384">
		<tag k="landuse" v="industrial" />
		<tag k="name" v="Vangpollen kraftstasjon" />
		<tag k="power" v="plant" />
		<tag k="ssr:stedsnr" v="886684" />
	</node>
	<node lat="68.6424333298173" lon="15.51960000046995" id="-14396">
		<tag k="man_made" v="quay" />
		<tag k="name" v="Trones" />
		<tag k="place" v="locality" />
		<tag k="ssr:stedsnr" v="946453" />
	</node>
</osm>
