<?xml version="1.0" encoding="UTF-8"?>
<osm version="0.6" generator="osmapis">
	<node lat="68.64391666474422" lon="15.242974998929382" id="-11629">
		<tag k="name" v="Tortenmyra" />
		<tag k="natural" v="wetland" />
		<tag k="ssr:stedsnr" v="35761" />
	</node>
	<node lat="68.78565278007194" lon="15.481663878200276" id="-11644">
		<tag k="name" v="Steinkrysset" />
		<tag k="natural" v="scree" />
		<tag k="ssr:stedsnr" v="41206" />
	</node>
	<node lat="68.86335000357204" lon="15.917419450444855" id="-11664">
		<tag k="name" v="Penteslåtta" />
		<tag k="natural" v="wetland" />
		<tag k="ssr:stedsnr" v="239666" />
	</node>
	<node lat="68.91472777393078" lon="15.905752780973351" id="-11667">
		<tag k="name" v="Matmorskogen" />
		<tag k="place" v="locality" />
		<tag k="ssr:stedsnr" v="239720" />
	</node>
	<node lat="68.95953333425051" lon="15.901227782291807" id="-11668">
		<tag k="name" v="Seljeskogen" />
		<tag k="place" v="locality" />
		<tag k="ssr:stedsnr" v="239735" />
	</node>
	<node lat="68.94373610970425" lon="15.911880561134954" id="-11679">
		<tag k="name" v="Gammesteinen" />
		<tag k="natural" v="stone" />
		<tag k="ssr:stedsnr" v="57680" />
	</node>
	<node lat="68.94030555571548" lon="15.911063886238214" id="-11680">
		<tag k="name" v="Skanken" />
		<tag k="place" v="locality" />
		<tag k="ssr:stedsnr" v="57683" />
	</node>
	<node lat="68.69394166305172" lon="15.470933342841588" id="-11712">
		<tag k="name" v="Rødmyra" />
		<tag k="natural" v="wetland" />
		<tag k="ssr:stedsnr" v="79155" />
	</node>
	<node lat="68.58873333411563" lon="15.435466661797667" id="-11763">
		<tag k="name" v="Øra" />
		<tag k="place" v="locality" />
		<tag k="ssr:stedsnr" v="138094" />
	</node>
	<node lat="68.70639444155913" lon="15.285180559146424" id="-11787">
		<tag k="name" v="Holmstadmyran" />
		<tag k="natural" v="wetland" />
		<tag k="ssr:stedsnr" v="139804" />
	</node>
	<node lat="68.68702222144738" lon="15.219047221671893" id="-11795">
		<tag k="name" v="Keipstad" />
		<tag k="place" v="locality" />
		<tag k="ssr:stedsnr" v="156602" />
	</node>
	<node lat="68.68696944493061" lon="15.496216664170985" id="-11800">
		<tag k="name" v="Vedhoggan" />
		<tag k="place" v="locality" />
		<tag k="ssr:stedsnr" v="157504" />
	</node>
	<node lat="68.68571110772126" lon="15.144486115938994" id="-11904">
		<tag k="alt_name" v="Stormyran" />
		<tag k="name" v="Stormyra" />
		<tag k="natural" v="wetland" />
		<tag k="ssr:stedsnr" v="199162" />
	</node>
	<node lat="68.67244999860523" lon="15.270661106520002" id="-11930">
		<tag k="name" v="Stampvassmyran" />
		<tag k="natural" v="wetland" />
		<tag k="ssr:stedsnr" v="217524" />
	</node>
	<node lat="68.62296110960338" lon="15.645055546481288" id="-11941">
		<tag k="name" v="Lomtjønnmyra" />
		<tag k="natural" v="wetland" />
		<tag k="ssr:stedsnr" v="218610" />
	</node>
	<node lat="68.93663610900057" lon="15.906002773883515" id="-11974">
		<tag k="name" v="Øverlandet" />
		<tag k="place" v="locality" />
		<tag k="ssr:stedsnr" v="239709" />
	</node>
	<node lat="68.81066667099225" lon="15.876594435764614" id="-11978">
		<tag k="name" v="Trekantigura" />
		<tag k="natural" v="scree" />
		<tag k="ssr:stedsnr" v="241689" />
	</node>
	<node lat="68.7117750001031" lon="15.360527770733457" id="-12026">
		<tag k="name" v="Tisterbergmyran" />
		<tag k="natural" v="wetland" />
		<tag k="ssr:stedsnr" v="278625" />
	</node>
	<node lat="68.88881944826285" lon="15.952711122808937" id="-12076">
		<tag k="name" v="Hermannskogen" />
		<tag k="place" v="locality" />
		<tag k="ssr:stedsnr" v="298523" />
	</node>
	<node lat="68.93864166262624" lon="15.900275000979715" id="-12080">
		<tag k="name" v="Blåura" />
		<tag k="natural" v="scree" />
		<tag k="ssr:stedsnr" v="300705" />
	</node>
	<node lat="68.75199444572263" lon="15.942336121791257" id="-12082">
		<tag k="name" v="Kjerkegårdsmyra" />
		<tag k="natural" v="wetland" />
		<tag k="ssr:stedsnr" v="300724" />
	</node>
	<node lat="68.93343055856963" lon="15.903227778658797" id="-12084">
		<tag k="name" v="Gammeltorvhågsteinen" />
		<tag k="natural" v="stone" />
		<tag k="ssr:stedsnr" v="300672" />
	</node>
	<node lat="68.77165556002235" lon="15.836424992329373" id="-12089">
		<tag k="name" v="Skaftesteinmyran" />
		<tag k="natural" v="wetland" />
		<tag k="ssr:stedsnr" v="301325" />
	</node>
	<node lat="68.56544166680419" lon="15.359983321756992" id="-12094">
		<tag k="name" v="Rundmyra" />
		<tag k="natural" v="wetland" />
		<tag k="ssr:stedsnr" v="302002" />
	</node>
	<node lat="68.73405555224768" lon="15.028733337185734" id="-12097">
		<tag k="name" v="Gryttingsura" />
		<tag k="natural" v="scree" />
		<tag k="ssr:stedsnr" v="302822" />
	</node>
	<node lat="68.79206666275346" lon="15.560325003644987" id="-12101">
		<tag k="name" v="Litleura" />
		<tag k="natural" v="scree" />
		<tag k="ssr:stedsnr" v="466205" />
	</node>
	<node lat="68.6958083289148" lon="15.558394449274843" id="-12115">
		<tag k="name" v="Stormyra" />
		<tag k="natural" v="wetland" />
		<tag k="ssr:stedsnr" v="321133" />
	</node>
	<node lat="68.74606111058905" lon="15.148755551220164" id="-12138">
		<tag k="name" v="Langskogan" />
		<tag k="place" v="locality" />
		<tag k="ssr:stedsnr" v="337122" />
	</node>
	<node lat="68.71961110829724" lon="15.53727221082156" id="-12145">
		<tag k="name" v="Bjørnsteinan" />
		<tag k="natural" v="stone" />
		<tag k="ssr:stedsnr" v="344245" />
	</node>
	<node lat="68.6012972207424" lon="15.400688899209173" id="-12177">
		<tag k="name" v="Randimyra" />
		<tag k="natural" v="wetland" />
		<tag k="ssr:stedsnr" v="480550" />
	</node>
	<node lat="68.76614444160046" lon="15.965427774378378" id="-12205">
		<tag k="name" v="Kjerringsteinen" />
		<tag k="natural" v="stone" />
		<tag k="ssr:stedsnr" v="482561" />
	</node>
	<node lat="68.77743333749527" lon="15.948413893365684" id="-12206">
		<tag k="name" v="Langura" />
		<tag k="natural" v="scree" />
		<tag k="ssr:stedsnr" v="482564" />
	</node>
	<node lat="68.80948055950714" lon="15.869902781037522" id="-12219">
		<tag k="name" v="Breiura" />
		<tag k="natural" v="scree" />
		<tag k="ssr:stedsnr" v="483723" />
	</node>
	<node lat="68.73241666653665" lon="14.939155554391107" id="-12220">
		<tag k="name" v="Stormyra" />
		<tag k="natural" v="wetland" />
		<tag k="ssr:stedsnr" v="483731" />
	</node>
	<node lat="68.67365832949582" lon="15.215238896376789" id="-12225">
		<tag k="name" v="Sjuanteigen" />
		<tag k="place" v="locality" />
		<tag k="ssr:stedsnr" v="399607" />
	</node>
	<node lat="68.78622777596118" lon="15.591899994495094" id="-12245">
		<tag k="name" v="Svartskogen" />
		<tag k="place" v="locality" />
		<tag k="ssr:stedsnr" v="405181" />
	</node>
	<node lat="68.77356944703992" lon="15.634702767567077" id="-12252">
		<tag k="name" v="Storura" />
		<tag k="natural" v="scree" />
		<tag k="ssr:stedsnr" v="420542" />
	</node>
	<node lat="68.80920278109086" lon="15.873486102720328" id="-12263">
		<tag k="name" v="Litjura" />
		<tag k="natural" v="scree" />
		<tag k="ssr:stedsnr" v="423720" />
	</node>
	<node lat="68.6797999956087" lon="15.513713894226875" id="-12265">
		<tag k="name" v="Oppslåttmyra" />
		<tag k="natural" v="wetland" />
		<tag k="ssr:stedsnr" v="442203" />
	</node>
	<node lat="68.6710916688111" lon="15.34672778287408" id="-12304">
		<tag k="name" v="Skogneset" />
		<tag k="place" v="locality" />
		<tag k="ssr:stedsnr" v="461427" />
	</node>
	<node lat="68.73345278047198" lon="15.728483343112586" id="-12320">
		<tag k="name" v="Austermarka" />
		<tag k="place" v="locality" />
		<tag k="ssr:stedsnr" v="480004" />
	</node>
	<node lat="68.6012944405528" lon="15.356900006571546" id="-12327">
		<tag k="name" v="Stormyra" />
		<tag k="natural" v="wetland" />
		<tag k="ssr:stedsnr" v="482604" />
	</node>
	<node lat="68.67016389288324" lon="15.086494448708864" id="-12331">
		<tag k="name" v="Småjorden" />
		<tag k="natural" v="wetland" />
		<tag k="ssr:stedsnr" v="484760" />
	</node>
	<node lat="68.80553611178856" lon="15.844513878219797" id="-12374">
		<tag k="name" v="Stormyra" />
		<tag k="natural" v="wetland" />
		<tag k="ssr:stedsnr" v="685091" />
	</node>
	<node lat="68.68084444155487" lon="15.363133333942608" id="-12380">
		<tag k="name" v="Lysmyra" />
		<tag k="natural" v="wetland" />
		<tag k="ssr:stedsnr" v="521712" />
	</node>
	<node lat="68.61508889255694" lon="15.61391945389316" id="-12386">
		<tag k="name" v="Jektsteinen" />
		<tag k="natural" v="stone" />
		<tag k="ssr:stedsnr" v="521678" />
	</node>
	<node lat="68.75446666526626" lon="15.946497222848452" id="-12390">
		<tag k="name" v="Rundemyra" />
		<tag k="natural" v="wetland" />
		<tag k="ssr:stedsnr" v="685162" />
	</node>
	<node lat="68.95878610893625" lon="15.903641675067666" id="-12408">
		<tag k="alt_name" v="Skovikmyra" />
		<tag k="name" v="Skavikmyra" />
		<tag k="natural" v="wetland" />
		<tag k="ssr:stedsnr" v="685440" />
	</node>
	<node lat="68.83029166510097" lon="15.264277768722422" id="-12417">
		<tag k="name" v="Klefterteinan" />
		<tag k="natural" v="stone" />
		<tag k="ssr:stedsnr" v="526615" />
	</node>
	<node lat="68.80149166481476" lon="15.840816676452109" id="-12440">
		<tag k="name" v="Kjerkegårdsura" />
		<tag k="natural" v="scree" />
		<tag k="ssr:stedsnr" v="540365" />
	</node>
	<node lat="68.56161944095618" lon="15.388436101490933" id="-12457">
		<tag k="name" v="Daljorda" />
		<tag k="place" v="locality" />
		<tag k="ssr:stedsnr" v="544008" />
	</node>
	<node lat="68.72989444476931" lon="15.039372212806159" id="-12461">
		<tag k="name" v="Bogsteinen" />
		<tag k="natural" v="stone" />
		<tag k="ssr:stedsnr" v="544767" />
	</node>
	<node lat="68.7645027802082" lon="15.96389721406719" id="-12507">
		<tag k="name" v="Blåura" />
		<tag k="natural" v="scree" />
		<tag k="ssr:stedsnr" v="603551" />
	</node>
	<node lat="68.77109444808002" lon="15.927230551112872" id="-12513">
		<tag k="name" v="Sandmelen" />
		<tag k="place" v="locality" />
		<tag k="ssr:stedsnr" v="604305" />
	</node>
	<node lat="68.8099305544689" lon="15.873216665217148" id="-12514">
		<tag k="name" v="Langura" />
		<tag k="natural" v="scree" />
		<tag k="ssr:stedsnr" v="604717" />
	</node>
	<node lat="68.80774444310816" lon="15.818497230483912" id="-12529">
		<tag k="alt_name" v="Einarsmyra" />
		<tag k="name" v="Einarmyra" />
		<tag k="natural" v="wetland" />
		<tag k="ssr:stedsnr" v="624116" />
	</node>
	<node lat="68.77129722412184" lon="15.49637499167551" id="-12536">
		<tag k="name" v="Lågfjellmyra" />
		<tag k="natural" v="wetland" />
		<tag k="ssr:stedsnr" v="624357" />
	</node>
	<node lat="68.91186111486239" lon="15.899855550431589" id="-12539">
		<tag k="name" v="Finngammskogen" />
		<tag k="place" v="locality" />
		<tag k="ssr:stedsnr" v="624457" />
	</node>
	<node lat="68.8971472195607" lon="15.946747220673073" id="-12542">
		<tag k="name" v="Båtvikmyra" />
		<tag k="natural" v="wetland" />
		<tag k="ssr:stedsnr" v="624469" />
	</node>
	<node lat="68.64290833698622" lon="15.204494452694115" id="-12560">
		<tag k="name" v="Seterbekken" />
		<tag k="natural" v="wetland" />
		<tag k="ssr:stedsnr" v="703883" />
	</node>
	<node lat="68.64499166707083" lon="15.184925010971902" id="-12561">
		<tag k="name" v="Jorden" />
		<tag k="place" v="locality" />
		<tag k="ssr:stedsnr" v="703886" />
	</node>
	<node lat="68.682277778184" lon="15.486183335888567" id="-12572">
		<tag k="name" v="Småskogen" />
		<tag k="place" v="locality" />
		<tag k="ssr:stedsnr" v="704502" />
	</node>
	<node lat="68.6564055517091" lon="15.294122229167128" id="-12582">
		<tag k="name" v="Øverskogan" />
		<tag k="place" v="locality" />
		<tag k="ssr:stedsnr" v="642541" />
	</node>
	<node lat="68.86756388918901" lon="15.91316945001099" id="-12605">
		<tag k="name" v="Tindemyra" />
		<tag k="natural" v="wetland" />
		<tag k="ssr:stedsnr" v="664644" />
	</node>
	<node lat="68.77219999634305" lon="15.834861108516568" id="-12609">
		<tag k="name" v="Skaftesteinen" />
		<tag k="natural" v="stone" />
		<tag k="ssr:stedsnr" v="665392" />
	</node>
	<node lat="68.79314166431803" lon="15.552300003398726" id="-12623">
		<tag k="name" v="Storura" />
		<tag k="natural" v="scree" />
		<tag k="ssr:stedsnr" v="891225" />
	</node>
	<node lat="68.78766388855932" lon="15.478016664784104" id="-12626">
		<tag k="name" v="Tommålsteinen" />
		<tag k="natural" v="stone" />
		<tag k="ssr:stedsnr" v="891239" />
	</node>
	<node lat="68.62569722208681" lon="15.49731666425896" id="-12680">
		<tag k="name" v="Ura" />
		<tag k="natural" v="scree" />
		<tag k="ssr:stedsnr" v="703621" />
	</node>
	<node lat="68.69250000418462" lon="15.367933324711679" id="-12684">
		<tag k="name" v="Prestvadhøggan" />
		<tag k="place" v="locality" />
		<tag k="ssr:stedsnr" v="703714" />
	</node>
	<node lat="68.74553055384791" lon="15.564033339965112" id="-12685">
		<tag k="name" v="Storelvhola" />
		<tag k="natural" v="wetland" />
		<tag k="ssr:stedsnr" v="703716" />
	</node>
	<node lat="68.6339444417721" lon="15.19596944847292" id="-12686">
		<tag k="name" v="Slettmarka" />
		<tag k="place" v="locality" />
		<tag k="ssr:stedsnr" v="703860" />
	</node>
	<node lat="68.80873333183666" lon="15.888019440685317" id="-12715">
		<tag k="name" v="Skavsteinen" />
		<tag k="natural" v="stone" />
		<tag k="ssr:stedsnr" v="726709" />
	</node>
	<node lat="68.59563611224182" lon="15.495241670738455" id="-12748">
		<tag k="name" v="Ånessteinen" />
		<tag k="natural" v="stone" />
		<tag k="ssr:stedsnr" v="904764" />
	</node>
	<node lat="68.64914722192077" lon="15.256225009830887" id="-12769">
		<tag k="name" v="Mortenskogen" />
		<tag k="place" v="locality" />
		<tag k="ssr:stedsnr" v="763744" />
	</node>
	<node lat="68.75651666527126" lon="15.60852777300051" id="-12773">
		<tag k="name" v="Damman" />
		<tag k="natural" v="wetland" />
		<tag k="ssr:stedsnr" v="764704" />
	</node>
	<node lat="68.72150555429182" lon="15.482624993539321" id="-12780">
		<tag k="name" v="Gammeldammen" />
		<tag k="natural" v="wetland" />
		<tag k="ssr:stedsnr" v="769220" />
	</node>
	<node lat="68.72314167126332" lon="15.481597214786225" id="-12781">
		<tag k="name" v="Sofusdammen" />
		<tag k="natural" v="wetland" />
		<tag k="ssr:stedsnr" v="769222" />
	</node>
	<node lat="68.739133336531" lon="15.839900011513716" id="-12784">
		<tag k="name" v="Laslåtta" />
		<tag k="place" v="locality" />
		<tag k="ssr:stedsnr" v="769412" />
	</node>
	<node lat="68.80720833394744" lon="15.827722217694829" id="-12795">
		<tag k="name" v="Laskogen" />
		<tag k="place" v="locality" />
		<tag k="ssr:stedsnr" v="908292" />
	</node>
	<node lat="68.82596388762313" lon="15.899625002143082" id="-12796">
		<tag k="name" v="Kvalbakmyra" />
		<tag k="natural" v="wetland" />
		<tag k="ssr:stedsnr" v="908710" />
	</node>
	<node lat="68.6718055553351" lon="15.216433326846527" id="-12801">
		<tag k="name" v="Sjuanteigen" />
		<tag k="place" v="locality" />
		<tag k="ssr:stedsnr" v="909986" />
	</node>
	<node lat="68.72658333317456" lon="15.632033337855514" id="-12808">
		<tag k="name" v="Simajorda" />
		<tag k="place" v="locality" />
		<tag k="ssr:stedsnr" v="784008" />
	</node>
	<node lat="68.78761667106181" lon="15.883041667163486" id="-12822">
		<tag k="name" v="Kvitsteinan" />
		<tag k="natural" v="stone" />
		<tag k="ssr:stedsnr" v="787396" />
	</node>
	<node lat="68.79808055895595" lon="15.23123888429248" id="-12848">
		<tag k="name" v="Finnkjerka" />
		<tag k="natural" v="stone" />
		<tag k="ssr:stedsnr" v="829619" />
	</node>
	<node lat="68.80565277650021" lon="15.835472228170273" id="-12857">
		<tag k="name" v="Langrumpskogen" />
		<tag k="place" v="locality" />
		<tag k="ssr:stedsnr" v="844317" />
	</node>
	<node lat="68.7021111098539" lon="14.850547230742341" id="-12864">
		<tag k="name" v="Gamskarmyra" />
		<tag k="natural" v="wetland" />
		<tag k="ssr:stedsnr" v="845705" />
	</node>
	<node lat="68.58045833358442" lon="15.416241673959968" id="-12866">
		<tag k="name" v="Vasstindura" />
		<tag k="natural" v="scree" />
		<tag k="ssr:stedsnr" v="847628" />
	</node>
	<node lat="68.94965833574105" lon="15.885902771918524" id="-12867">
		<tag k="name" v="Trolldalsura" />
		<tag k="natural" v="scree" />
		<tag k="ssr:stedsnr" v="847705" />
	</node>
	<node lat="68.90716944281138" lon="15.923469435008498" id="-12868">
		<tag k="name" v="Skogslåtta" />
		<tag k="place" v="locality" />
		<tag k="ssr:stedsnr" v="847721" />
	</node>
	<node lat="68.60132222684692" lon="15.45376388611485" id="-12871">
		<tag k="name" v="Hallskogen" />
		<tag k="place" v="locality" />
		<tag k="ssr:stedsnr" v="927062" />
	</node>
	<node lat="68.68880277310446" lon="15.166325006266543" id="-12887">
		<tag k="name" v="Lahaugmyran" />
		<tag k="natural" v="wetland" />
		<tag k="ssr:stedsnr" v="928123" />
	</node>
	<node lat="68.86045278179954" lon="15.91948611192481" id="-12923">
		<tag k="name" v="Høgmyra" />
		<tag k="natural" v="wetland" />
		<tag k="ssr:stedsnr" v="868037" />
	</node>
	<node lat="68.68440833507005" lon="15.342899998241723" id="-12939">
		<tag k="name" v="Steinfloget" />
		<tag k="place" v="locality" />
		<tag k="ssr:stedsnr" v="886714" />
	</node>
	<node lat="68.67973055409418" lon="15.351108324123503" id="-12940">
		<tag k="name" v="Storvedhøggan" />
		<tag k="place" v="locality" />
		<tag k="ssr:stedsnr" v="886716" />
	</node>
	<node lat="68.80123333104454" lon="15.849605546754852" id="-12952">
		<tag k="name" v="Øvste Slåtten" />
		<tag k="place" v="locality" />
		<tag k="ssr:stedsnr" v="905325" />
	</node>
	<node lat="68.86577499664966" lon="15.903427768041409" id="-12963">
		<tag k="name" v="Rekkhollskogen" />
		<tag k="place" v="locality" />
		<tag k="ssr:stedsnr" v="907615" />
	</node>
	<node lat="68.79999722280748" lon="15.30068888682823" id="-12964">
		<tag k="name" v="Tjønnsteinen" />
		<tag k="natural" v="stone" />
		<tag k="ssr:stedsnr" v="907618" />
	</node>
	<node lat="68.9374222197039" lon="15.901744450961822" id="-12965">
		<tag k="name" v="Småskogan" />
		<tag k="place" v="locality" />
		<tag k="ssr:stedsnr" v="907654" />
	</node>
	<node lat="68.822163892356" lon="15.568647228998122" id="-13030">
		<tag k="name" v="Kjerringa" />
		<tag k="natural" v="stone" />
		<tag k="ssr:stedsnr" v="966103" />
	</node>
	<node lat="68.81685278249218" lon="15.895808328039289" id="-13042">
		<tag k="name" v="Norste Steinan" />
		<tag k="natural" v="stone" />
		<tag k="ssr:stedsnr" v="969687" />
	</node>
	<node lat="68.73423611349078" lon="14.970922224785879" id="-13043">
		<tag k="name" v="Martinusslåtta" />
		<tag k="place" v="locality" />
		<tag k="ssr:stedsnr" v="969847" />
	</node>
	<node lat="68.70742777493777" lon="15.39548332059373" id="-13100">
		<tag k="alt_name" v="Selnesmyran" />
		<tag k="name" v="Selnesmyra" />
		<tag k="natural" v="wetland" />
		<tag k="ssr:stedsnr" v="18838" />
	</node>
	<node lat="68.7093527815754" lon="15.093797221825207" id="-13108">
		<tag k="name" v="Eskjelsteinen" />
		<tag k="natural" v="stone" />
		<tag k="ssr:stedsnr" v="35672" />
	</node>
	<node lat="68.71078611486091" lon="15.446911110993488" id="-13119">
		<tag k="name" v="Slåttskogen" />
		<tag k="place" v="locality" />
		<tag k="ssr:stedsnr" v="36988" />
	</node>
	<node lat="68.60664722618007" lon="15.434686105962678" id="-13141">
		<tag k="name" v="Storjorda" />
		<tag k="place" v="locality" />
		<tag k="ssr:stedsnr" v="55506" />
	</node>
	<node lat="68.77409166507906" lon="15.488094446390381" id="-13144">
		<tag k="name" v="Storsteinan" />
		<tag k="natural" v="stone" />
		<tag k="ssr:stedsnr" v="56090" />
	</node>
	<node lat="68.8573250032093" lon="15.925444451061693" id="-13150">
		<tag k="name" v="Stokkeskogen" />
		<tag k="place" v="locality" />
		<tag k="ssr:stedsnr" v="57625" />
	</node>
	<node lat="68.85322777466652" lon="15.918316674841458" id="-13151">
		<tag k="name" v="Lappeskogen" />
		<tag k="place" v="locality" />
		<tag k="ssr:stedsnr" v="57630" />
	</node>
	<node lat="68.8680222242975" lon="15.89785277030828" id="-13154">
		<tag k="name" v="Ladalsura" />
		<tag k="natural" v="scree" />
		<tag k="ssr:stedsnr" v="57655" />
	</node>
	<node lat="68.96769722120762" lon="15.852122214162867" id="-13155">
		<tag k="name" v="Sterkesteinen" />
		<tag k="natural" v="stone" />
		<tag k="ssr:stedsnr" v="57698" />
	</node>
	<node lat="68.81897500376527" lon="15.891305547684102" id="-13159">
		<tag k="name" v="Prestebærskogan" />
		<tag k="place" v="locality" />
		<tag k="ssr:stedsnr" v="59668" />
	</node>
	<node lat="68.77129166694543" lon="15.819013892461658" id="-13163">
		<tag k="name" v="Manesteinan" />
		<tag k="natural" v="stone" />
		<tag k="ssr:stedsnr" v="59337" />
	</node>
	<node lat="68.72673889280458" lon="14.978119439811708" id="-13168">
		<tag k="name" v="Petterslåtten" />
		<tag k="place" v="locality" />
		<tag k="ssr:stedsnr" v="59831" />
	</node>
	<node lat="68.68321388850336" lon="15.370258337455418" id="-13180">
		<tag k="name" v="Stormyra" />
		<tag k="natural" v="wetland" />
		<tag k="ssr:stedsnr" v="78134" />
	</node>
	<node lat="68.69664999968859" lon="14.823627778792133" id="-13200">
		<tag k="alt_name" v="Lysskogen, ytste;Ytre Lysskogan" />
		<tag k="name" v="Ytste Lysskogen" />
		<tag k="place" v="locality" />
		<tag k="ssr:stedsnr" v="78664" />
	</node>
	<node lat="68.79896944387045" lon="15.479572232653794" id="-13215">
		<tag k="fixme" v="multiple name tags, choose one and add the other to alt_name" />
		<tag k="name" v="Slåttengmyran;Stottingmyra" />
		<tag k="natural" v="wetland" />
		<tag k="ssr:stedsnr" v="79335" />
	</node>
	<node lat="68.64895277646323" lon="15.230669437094546" id="-13246">
		<tag k="name" v="Dalmyra" />
		<tag k="natural" v="wetland" />
		<tag k="ssr:stedsnr" v="96741" />
	</node>
	<node lat="68.69682499834396" lon="15.386258324944029" id="-13262">
		<tag k="name" v="Oppslåttmyran" />
		<tag k="natural" v="wetland" />
		<tag k="ssr:stedsnr" v="97988" />
	</node>
	<node lat="68.71505000337432" lon="15.500894448870328" id="-13279">
		<tag k="name" v="Bærholtet" />
		<tag k="place" v="locality" />
		<tag k="ssr:stedsnr" v="116797" />
	</node>
	<node lat="68.59833611080252" lon="15.422344447036272" id="-13283">
		<tag k="name" v="Uran" />
		<tag k="natural" v="scree" />
		<tag k="ssr:stedsnr" v="116543" />
	</node>
	<node lat="68.77387777455097" lon="15.842497218460556" id="-13294">
		<tag k="name" v="Hestesteinen" />
		<tag k="natural" v="stone" />
		<tag k="ssr:stedsnr" v="119351" />
	</node>
	<node lat="68.74278333244332" lon="15.151999996125264" id="-13365">
		<tag k="name" v="Langskogenden" />
		<tag k="place" v="locality" />
		<tag k="ssr:stedsnr" v="155120" />
	</node>
	<node lat="68.70473889278956" lon="15.138577773640554" id="-13372">
		<tag k="name" v="Bøkkertplassen" />
		<tag k="place" v="locality" />
		<tag k="ssr:stedsnr" v="156615" />
	</node>
	<node lat="68.78179444559412" lon="15.853791659944296" id="-13415">
		<tag k="name" v="Storura" />
		<tag k="natural" v="scree" />
		<tag k="ssr:stedsnr" v="180295" />
	</node>
	<node lat="68.81106389084133" lon="15.562736106316844" id="-13429">
		<tag k="name" v="Ållisteinan" />
		<tag k="natural" v="stone" />
		<tag k="ssr:stedsnr" v="177097" />
	</node>
	<node lat="68.74911111241403" lon="15.842625006964282" id="-13432">
		<tag k="name" v="Massjorda" />
		<tag k="place" v="locality" />
		<tag k="ssr:stedsnr" v="177477" />
	</node>
	<node lat="68.81370555411092" lon="15.885491676798637" id="-13445">
		<tag k="name" v="Einarskogen" />
		<tag k="place" v="locality" />
		<tag k="ssr:stedsnr" v="180683" />
	</node>
	<node lat="68.96231388656578" lon="15.883891669435231" id="-13471">
		<tag k="alt_name" v="Skatturda" />
		<tag k="name" v="Skattura" />
		<tag k="natural" v="scree" />
		<tag k="ssr:stedsnr" v="199401" />
	</node>
	<node lat="68.74561389207186" lon="15.286186104365514" id="-13513">
		<tag k="name" v="Beita" />
		<tag k="place" v="locality" />
		<tag k="ssr:stedsnr" v="217069" />
	</node>
	<node lat="68.71363888575812" lon="15.49428054358561" id="-13522">
		<tag k="name" v="Slettmyran" />
		<tag k="natural" v="wetland" />
		<tag k="ssr:stedsnr" v="218560" />
	</node>
	<node lat="68.77003889164537" lon="15.069950009715548" id="-13551">
		<tag k="name" v="Kavåsmyra" />
		<tag k="natural" v="wetland" />
		<tag k="ssr:stedsnr" v="278541" />
	</node>
	<node lat="68.63823888773382" lon="15.230847212635695" id="-13560">
		<tag k="name" v="Kolbeinsteinen" />
		<tag k="natural" v="stone" />
		<tag k="ssr:stedsnr" v="278762" />
	</node>
	<node lat="68.63635833413753" lon="15.245866671112879" id="-13561">
		<tag k="name" v="Mikkelskogen" />
		<tag k="natural" v="wetland" />
		<tag k="ssr:stedsnr" v="278763" />
	</node>
	<node lat="68.68886389001229" lon="15.515202781985705" id="-13565">
		<tag k="name" v="Gammellamyra" />
		<tag k="natural" v="wetland" />
		<tag k="ssr:stedsnr" v="279543" />
	</node>
	<node lat="68.70057222203414" lon="15.47559722343174" id="-13593">
		<tag k="name" v="Nikolinamyra" />
		<tag k="natural" v="wetland" />
		<tag k="ssr:stedsnr" v="298752" />
	</node>
	<node lat="68.78278055993925" lon="15.958049994277234" id="-13597">
		<tag k="name" v="Gråsteinen" />
		<tag k="natural" v="stone" />
		<tag k="ssr:stedsnr" v="300560" />
	</node>
	<node lat="68.81930000218166" lon="15.854116658266728" id="-13607">
		<tag k="name" v="Enga" />
		<tag k="place" v="locality" />
		<tag k="ssr:stedsnr" v="301681" />
	</node>
	<node lat="68.70410555549115" lon="15.316102768591632" id="-13709">
		<tag k="name" v="Storkvannto" />
		<tag k="place" v="locality" />
		<tag k="ssr:stedsnr" v="339560" />
	</node>
	<node lat="68.72555000068436" lon="15.403783343185198" id="-13710">
		<tag k="name" v="Oksjorda" />
		<tag k="place" v="locality" />
		<tag k="ssr:stedsnr" v="339563" />
	</node>
	<node lat="68.72594722452382" lon="15.478941676428384" id="-13733">
		<tag k="name" v="Gammelsteinan" />
		<tag k="natural" v="stone" />
		<tag k="ssr:stedsnr" v="344239" />
	</node>
	<node lat="68.75558055798871" lon="15.826027770655271" id="-13750">
		<tag k="name" v="Sommelsteinan" />
		<tag k="natural" v="stone" />
		<tag k="ssr:stedsnr" v="359477" />
	</node>
	<node lat="68.75257499856471" lon="15.490116667229767" id="-13752">
		<tag k="name" v="Lysmyra" />
		<tag k="natural" v="wetland" />
		<tag k="ssr:stedsnr" v="359789" />
	</node>
	<node lat="68.78055833113049" lon="15.987344441094928" id="-13775">
		<tag k="name" v="Larsmyra" />
		<tag k="natural" v="wetland" />
		<tag k="ssr:stedsnr" v="381085" />
	</node>
	<node lat="68.81814999762624" lon="15.776272217771519" id="-13792">
		<tag k="name" v="Lysmyran" />
		<tag k="natural" v="wetland" />
		<tag k="ssr:stedsnr" v="381140" />
	</node>
	<node lat="68.68223611122043" lon="15.195930547971205" id="-13793">
		<tag k="name" v="Reingjerdmyran" />
		<tag k="natural" v="wetland" />
		<tag k="ssr:stedsnr" v="381147" />
	</node>
	<node lat="68.73558610967378" lon="15.334733330746321" id="-13834">
		<tag k="alt_name" v="Sandstrandmyran" />
		<tag k="name" v="Sandstrandmyra" />
		<tag k="natural" v="wetland" />
		<tag k="ssr:stedsnr" v="382791" />
	</node>
	<node lat="68.66316388762027" lon="15.30413054990572" id="-13855">
		<tag k="name" v="Fagerbakkskogan" />
		<tag k="place" v="locality" />
		<tag k="ssr:stedsnr" v="399557" />
	</node>
	<node lat="68.65092499796216" lon="15.231383322608965" id="-13859">
		<tag k="name" v="Vasshaugmyra" />
		<tag k="natural" v="wetland" />
		<tag k="ssr:stedsnr" v="399739" />
	</node>
	<node lat="68.64504166370185" lon="15.224241670315005" id="-13860">
		<tag k="name" v="Lysmyra" />
		<tag k="natural" v="wetland" />
		<tag k="ssr:stedsnr" v="399852" />
	</node>
	<node lat="68.72453333251626" lon="15.403333324592394" id="-13862">
		<tag k="name" v="Klokkarjorda" />
		<tag k="place" v="locality" />
		<tag k="ssr:stedsnr" v="400595" />
	</node>
	<node lat="68.68257222524166" lon="15.484811100893438" id="-13863">
		<tag k="name" v="Storsteinen" />
		<tag k="natural" v="stone" />
		<tag k="ssr:stedsnr" v="400540" />
	</node>
	<node lat="68.64868055975363" lon="15.04809166682245" id="-13875">
		<tag k="name" v="Gloppura" />
		<tag k="natural" v="scree" />
		<tag k="ssr:stedsnr" v="404543" />
	</node>
	<node lat="68.78382499639444" lon="15.985411107917049" id="-13904">
		<tag k="name" v="Langmyra" />
		<tag k="natural" v="wetland" />
		<tag k="ssr:stedsnr" v="422576" />
	</node>
	<node lat="68.92571389113978" lon="15.912458328372951" id="-13906">
		<tag k="name" v="Skreddarstøa" />
		<tag k="place" v="locality" />
		<tag k="ssr:stedsnr" v="422667" />
	</node>
	<node lat="68.79713888991647" lon="15.87677777938955" id="-13918">
		<tag k="name" v="Hankelmyra" />
		<tag k="natural" v="wetland" />
		<tag k="ssr:stedsnr" v="423423" />
	</node>
	<node lat="68.84934166412364" lon="15.905441672459153" id="-13928">
		<tag k="alt_name" v="Rødmyra" />
		<tag k="name" v="Raudmyra" />
		<tag k="natural" v="wetland" />
		<tag k="ssr:stedsnr" v="442027" />
	</node>
	<node lat="68.8443416648699" lon="15.901213875858804" id="-13929">
		<tag k="name" v="Lågebærmyra" />
		<tag k="natural" v="wetland" />
		<tag k="ssr:stedsnr" v="442028" />
	</node>
	<node lat="68.68255277533146" lon="15.486011121504886" id="-13935">
		<tag k="name" v="Stormyra" />
		<tag k="natural" v="wetland" />
		<tag k="ssr:stedsnr" v="442138" />
	</node>
	<node lat="68.75414999682268" lon="15.855724996978363" id="-13948">
		<tag k="name" v="Storsteinmyra" />
		<tag k="natural" v="wetland" />
		<tag k="ssr:stedsnr" v="442168" />
	</node>
	<node lat="68.96323333238573" lon="15.900352784302601" id="-13960">
		<tag k="name" v="Brørmyra" />
		<tag k="natural" v="wetland" />
		<tag k="ssr:stedsnr" v="442473" />
	</node>
	<node lat="68.76698055879079" lon="15.827538891455935" id="-13969">
		<tag k="name" v="Smørkoppmyran" />
		<tag k="natural" v="wetland" />
		<tag k="ssr:stedsnr" v="443181" />
	</node>
	<node lat="68.76230833356" lon="15.942797213397215" id="-14004">
		<tag k="name" v="Hansemyra" />
		<tag k="natural" v="wetland" />
		<tag k="ssr:stedsnr" v="503153" />
	</node>
	<node lat="68.9545777768178" lon="15.907013895050893" id="-14022">
		<tag k="name" v="Høgmyra" />
		<tag k="natural" v="wetland" />
		<tag k="ssr:stedsnr" v="503453" />
	</node>
	<node lat="68.71342499824576" lon="15.383538885795495" id="-14048">
		<tag k="name" v="Nordskogen" />
		<tag k="place" v="locality" />
		<tag k="ssr:stedsnr" v="522884" />
	</node>
	<node lat="68.85449444384037" lon="15.313897225800593" id="-14052">
		<tag k="name" v="Storura" />
		<tag k="natural" v="scree" />
		<tag k="ssr:stedsnr" v="521453" />
	</node>
	<node lat="68.66219166764463" lon="15.276227766479451" id="-14055">
		<tag k="name" v="Langmyra" />
		<tag k="natural" v="wetland" />
		<tag k="ssr:stedsnr" v="521534" />
	</node>
	<node lat="68.74005833561442" lon="15.589213879453661" id="-14062">
		<tag k="name" v="Kjerksteinen" />
		<tag k="natural" v="stone" />
		<tag k="ssr:stedsnr" v="521731" />
	</node>
	<node lat="68.68790555447866" lon="15.37771389228845" id="-14068">
		<tag k="name" v="Lamarkmyra" />
		<tag k="natural" v="wetland" />
		<tag k="ssr:stedsnr" v="521704" />
	</node>
	<node lat="68.6842083334933" lon="15.504005556256068" id="-14075">
		<tag k="name" v="Langmyra" />
		<tag k="natural" v="wetland" />
		<tag k="ssr:stedsnr" v="522541" />
	</node>
	<node lat="68.6738694429408" lon="15.610758322319635" id="-14080">
		<tag k="name" v="Storsteinan" />
		<tag k="natural" v="stone" />
		<tag k="ssr:stedsnr" v="540750" />
	</node>
	<node lat="68.66148055416802" lon="15.773425007201785" id="-14085">
		<tag k="name" v="Storskogen" />
		<tag k="place" v="locality" />
		<tag k="ssr:stedsnr" v="541087" />
	</node>
	<node lat="68.79277500120571" lon="15.271163892896674" id="-14094">
		<tag k="name" v="Slåtten" />
		<tag k="place" v="locality" />
		<tag k="ssr:stedsnr" v="543596" />
	</node>
	<node lat="68.93956111070595" lon="15.898888889152802" id="-14095">
		<tag k="name" v="Ytterslåtta" />
		<tag k="place" v="locality" />
		<tag k="ssr:stedsnr" v="543693" />
	</node>
	<node lat="68.91905277842974" lon="15.908544449785763" id="-14096">
		<tag k="name" v="Føllskogen" />
		<tag k="place" v="locality" />
		<tag k="ssr:stedsnr" v="543700" />
	</node>
	<node lat="68.86661667044707" lon="15.895433337670926" id="-14099">
		<tag k="name" v="Slåtta" />
		<tag k="natural" v="wetland" />
		<tag k="ssr:stedsnr" v="543645" />
	</node>
	<node lat="68.93084721961206" lon="15.912122220020853" id="-14101">
		<tag k="name" v="Hunderauva" />
		<tag k="place" v="locality" />
		<tag k="ssr:stedsnr" v="543650" />
	</node>
	<node lat="68.6662111140651" lon="15.219730547026133" id="-14110">
		<tag k="name" v="Bromteigen" />
		<tag k="place" v="locality" />
		<tag k="ssr:stedsnr" v="544996" />
	</node>
	<node lat="68.96768889326407" lon="15.878513888835073" id="-14112">
		<tag k="name" v="Tjukkeskogen" />
		<tag k="place" v="locality" />
		<tag k="ssr:stedsnr" v="563374" />
	</node>
	<node lat="68.7208472218327" lon="15.663724992729655" id="-14163">
		<tag k="name" v="Polljorda" />
		<tag k="place" v="locality" />
		<tag k="ssr:stedsnr" v="563443" />
	</node>
	<node lat="68.7427666686219" lon="15.277397226074998" id="-14208">
		<tag k="name" v="Golimyra" />
		<tag k="natural" v="wetland" />
		<tag k="ssr:stedsnr" v="581085" />
	</node>
	<node lat="68.74272777623572" lon="15.354155566393388" id="-14220">
		<tag k="name" v="Langåsen" />
		<tag k="place" v="locality" />
		<tag k="ssr:stedsnr" v="582481" />
	</node>
	<node lat="68.7559138886486" lon="15.510324997728087" id="-14259">
		<tag k="name" v="Heimyra" />
		<tag k="natural" v="wetland" />
		<tag k="ssr:stedsnr" v="601784" />
	</node>
	<node lat="68.73198055414638" lon="15.045033332269318" id="-14280">
		<tag k="name" v="Værhaugmyran" />
		<tag k="natural" v="wetland" />
		<tag k="ssr:stedsnr" v="605740" />
	</node>
	<node lat="68.71997777441764" lon="14.981136117993657" id="-14283">
		<tag k="name" v="Jordene" />
		<tag k="place" v="locality" />
		<tag k="ssr:stedsnr" v="605883" />
	</node>
	<node lat="68.66932777764796" lon="15.217888897371452" id="-14285">
		<tag k="name" v="Kråteigen" />
		<tag k="place" v="locality" />
		<tag k="ssr:stedsnr" v="605981" />
	</node>
	<node lat="68.67524722617401" lon="15.244152789668592" id="-14289">
		<tag k="alt_name" v="Stampmyra" />
		<tag k="name" v="Stampmyran" />
		<tag k="natural" v="wetland" />
		<tag k="ssr:stedsnr" v="623198" />
	</node>
	<node lat="68.75419722051902" lon="15.949675006154825" id="-14299">
		<tag k="name" v="Skjelltindmyra" />
		<tag k="natural" v="wetland" />
		<tag k="ssr:stedsnr" v="624179" />
	</node>
	<node lat="68.70763333410001" lon="14.829091657602975" id="-14312">
		<tag k="alt_name" v="Lysskogen, in;Indre Lysskogan" />
		<tag k="name" v="Indre Lysskogen" />
		<tag k="place" v="locality" />
		<tag k="ssr:stedsnr" v="624296" />
	</node>
	<node lat="68.62052222201123" lon="15.615108330879814" id="-14354">
		<tag k="name" v="Melkarsteinen" />
		<tag k="place" v="locality" />
		<tag k="ssr:stedsnr" v="642670" />
	</node>
	<node lat="68.71298055852046" lon="15.450941661305922" id="-14359">
		<tag k="name" v="Hestlandsteinen" />
		<tag k="natural" v="stone" />
		<tag k="ssr:stedsnr" v="643999" />
	</node>
	<node lat="68.79946111151567" lon="15.56427778714202" id="-14364">
		<tag k="name" v="Slåtten" />
		<tag k="natural" v="wetland" />
		<tag k="ssr:stedsnr" v="648219" />
	</node>
	<node lat="68.84511666676705" lon="15.908969449056123" id="-14383">
		<tag k="name" v="Stormyra" />
		<tag k="natural" v="wetland" />
		<tag k="ssr:stedsnr" v="665372" />
	</node>
	<node lat="68.78781944293151" lon="15.295844445096236" id="-14384">
		<tag k="name" v="Breiura" />
		<tag k="natural" v="scree" />
		<tag k="ssr:stedsnr" v="664576" />
	</node>
	<node lat="68.85124166442951" lon="15.907802779268009" id="-14385">
		<tag k="name" v="Mosesteinmyra" />
		<tag k="natural" v="wetland" />
		<tag k="ssr:stedsnr" v="664647" />
	</node>
	<node lat="68.56607499833274" lon="15.356586118014613" id="-14393">
		<tag k="name" v="Brennsteinen" />
		<tag k="natural" v="stone" />
		<tag k="ssr:stedsnr" v="666001" />
	</node>
	<node lat="68.60055278046289" lon="15.411161115036416" id="-14398">
		<tag k="name" v="Trollbusteinen" />
		<tag k="natural" v="stone" />
		<tag k="ssr:stedsnr" v="723533" />
	</node>
	<node lat="68.60047222599877" lon="15.396744445050691" id="-14400">
		<tag k="name" v="Sjokoladesteinen" />
		<tag k="natural" v="stone" />
		<tag k="ssr:stedsnr" v="723546" />
	</node>
	<node lat="68.73265278083792" lon="15.142763878883361" id="-14405">
		<tag k="name" v="Rypkjerran" />
		<tag k="place" v="locality" />
		<tag k="ssr:stedsnr" v="723960" />
	</node>
	<node lat="68.9339750035963" lon="15.88165832878184" id="-14408">
		<tag k="name" v="Bjørnsteinan" />
		<tag k="natural" v="stone" />
		<tag k="ssr:stedsnr" v="725627" />
	</node>
	<node lat="68.9170305527995" lon="15.90604445495122" id="-14412">
		<tag k="name" v="Kråkskogen" />
		<tag k="place" v="locality" />
		<tag k="ssr:stedsnr" v="725666" />
	</node>
	<node lat="68.7343277779831" lon="15.019616661665278" id="-14419">
		<tag k="name" v="Valnesmyrene" />
		<tag k="natural" v="wetland" />
		<tag k="ssr:stedsnr" v="726861" />
	</node>
	<node lat="68.80698055623137" lon="15.554180554087642" id="-14465">
		<tag k="alt_name" v="Rogsøymyran" />
		<tag k="name" v="Roksøymyran" />
		<tag k="natural" v="wetland" />
		<tag k="ssr:stedsnr" v="746345" />
	</node>
	<node lat="68.71245278118505" lon="15.448677786304977" id="-14474">
		<tag k="name" v="Strandmyran" />
		<tag k="natural" v="wetland" />
		<tag k="ssr:stedsnr" v="746833" />
	</node>
	<node lat="68.74605833404351" lon="15.692758336446996" id="-14498">
		<tag k="name" v="Bjørnmyra" />
		<tag k="natural" v="wetland" />
		<tag k="ssr:stedsnr" v="764687" />
	</node>
	<node lat="68.7188194428117" lon="15.158924996974024" id="-14500">
		<tag k="name" v="Kildmyra" />
		<tag k="natural" v="wetland" />
		<tag k="ssr:stedsnr" v="764884" />
	</node>
	<node lat="68.64541666239036" lon="15.04205555920618" id="-14505">
		<tag k="name" v="Heimerslåtten" />
		<tag k="place" v="locality" />
		<tag k="ssr:stedsnr" v="768549" />
	</node>
	<node lat="68.79788888483967" lon="15.23252499599149" id="-14509">
		<tag k="name" v="Masstusteinen" />
		<tag k="natural" v="stone" />
		<tag k="ssr:stedsnr" v="768614" />
	</node>
	<node lat="68.71074721952309" lon="14.842297226264709" id="-14519">
		<tag k="name" v="Stormyra" />
		<tag k="natural" v="wetland" />
		<tag k="ssr:stedsnr" v="784681" />
	</node>
	<node lat="68.7328222242732" lon="15.649258331249285" id="-14526">
		<tag k="name" v="Durmålsnesjorda" />
		<tag k="place" v="locality" />
		<tag k="ssr:stedsnr" v="784002" />
	</node>
	<node lat="68.82901666800873" lon="15.891958326492919" id="-14539">
		<tag k="name" v="Skredmyran" />
		<tag k="natural" v="wetland" />
		<tag k="ssr:stedsnr" v="787333" />
	</node>
	<node lat="68.73305555162376" lon="15.610872211632215" id="-14587">
		<tag k="alt_name" v="Urda" />
		<tag k="name" v="Ura" />
		<tag k="natural" v="scree" />
		<tag k="ssr:stedsnr" v="806788" />
	</node>
	<node lat="68.709186111699" lon="15.383674995916861" id="-14639">
		<tag k="name" v="Grevan" />
		<tag k="place" v="locality" />
		<tag k="ssr:stedsnr" v="824636" />
	</node>
	<node lat="68.60328055843142" lon="15.391808344481476" id="-14659">
		<tag k="name" v="Brennsteinen" />
		<tag k="natural" v="stone" />
		<tag k="ssr:stedsnr" v="844547" />
	</node>
	<node lat="68.92399444458837" lon="15.913633327305686" id="-14670">
		<tag k="name" v="Popsteinmola" />
		<tag k="place" v="locality" />
		<tag k="ssr:stedsnr" v="847679" />
	</node>
	<node lat="68.84337500265308" lon="15.341522234405083" id="-14671">
		<tag k="name" v="Holmyran" />
		<tag k="natural" v="wetland" />
		<tag k="ssr:stedsnr" v="847690" />
	</node>
	<node lat="68.76215833559688" lon="15.956744448162151" id="-14675">
		<tag k="name" v="Godfarslåtta" />
		<tag k="place" v="locality" />
		<tag k="ssr:stedsnr" v="847762" />
	</node>
	<node lat="68.7868666644419" lon="15.2968972092468" id="-14695">
		<tag k="name" v="Småskogan" />
		<tag k="place" v="locality" />
		<tag k="ssr:stedsnr" v="867345" />
	</node>
	<node lat="68.71901111541086" lon="15.49093611338836" id="-14748">
		<tag k="name" v="Kringelmyran" />
		<tag k="natural" v="wetland" />
		<tag k="ssr:stedsnr" v="867871" />
	</node>
	<node lat="68.73386111202173" lon="15.182891662942227" id="-14764">
		<tag k="name" v="Hornmyran" />
		<tag k="natural" v="wetland" />
		<tag k="ssr:stedsnr" v="868715" />
	</node>
	<node lat="68.68355555145568" lon="15.156969453064278" id="-14791">
		<tag k="name" v="Heimersetra" />
		<tag k="place" v="locality" />
		<tag k="ssr:stedsnr" v="885593" />
	</node>
	<node lat="68.7461166678685" lon="15.629044449711545" id="-14795">
		<tag k="name" v="Bjørnsteinen" />
		<tag k="natural" v="stone" />
		<tag k="ssr:stedsnr" v="885693" />
	</node>
	<node lat="68.63172777848449" lon="15.18330277898193" id="-14814">
		<tag k="name" v="Hattmyra" />
		<tag k="natural" v="wetland" />
		<tag k="ssr:stedsnr" v="945971" />
	</node>
	<node lat="68.73557500042061" lon="15.61496665911579" id="-14827">
		<tag k="name" v="Kristen-Johansasteinen" />
		<tag k="natural" v="stone" />
		<tag k="ssr:stedsnr" v="946743" />
	</node>
	<node lat="68.89322777381146" lon="15.950188880814789" id="-14855">
		<tag k="name" v="Liksteinen" />
		<tag k="natural" v="stone" />
		<tag k="ssr:stedsnr" v="966618" />
	</node>
	<node lat="68.95617777349189" lon="15.906405557176848" id="-14866">
		<tag k="name" v="Buskogen" />
		<tag k="place" v="locality" />
		<tag k="ssr:stedsnr" v="967645" />
	</node>
</osm>
