<?xml version="1.0" encoding="UTF-8"?>
<osm generator="osmapis" version="0.6">
	<node id="-24571" lat="68.8521722185" lon="15.8684472123">
		<tag k="fixme" v="consider natural=peak for the most distinct mountains in the district" />
		<tag k="name" v="Sultinden" />
		<tag k="natural" v="hill" />
		<tag k="place" v="locality" />
		<tag k="ssr:stedsnr" v="928040" />
	</node>
	<node id="-24570" lat="68.839386113" lon="15.8343860989">
		<tag k="fixme" v="consider natural=peak for the most distinct mountains in the district" />
		<tag k="name" v="Andersbetinden" />
		<tag k="natural" v="hill" />
		<tag k="place" v="locality" />
		<tag k="ssr:stedsnr" v="928027" />
	</node>
	<node id="-24566" lat="68.664116664" lon="15.2472222114">
		<tag k="alt_name" v="Kleivskaret" />
		<tag k="name" v="Kleivskardet" />
		<tag k="natural" v="valley" />
		<tag k="place" v="locality" />
		<tag k="ssr:stedsnr" v="806162" />
	</node>
	<node id="-24563" lat="68.7269055553" lon="15.7679527738">
		<tag k="name" v="Trettelvdalen" />
		<tag k="natural" v="valley" />
		<tag k="place" v="locality" />
		<tag k="ssr:stedsnr" v="927468" />
	</node>
	<node id="-24562" lat="68.6370833305" lon="15.1765416655">
		<tag k="fixme" v="consider natural=peak for the most distinct mountains in the district" />
		<tag k="name" v="Rishatten" />
		<tag k="natural" v="hill" />
		<tag k="place" v="locality" />
		<tag k="ssr:stedsnr" v="927250" />
	</node>
	<node id="-24561" lat="68.6410222226" lon="15.5959222188">
		<tag k="name" v="Olderskogskardet" />
		<tag k="natural" v="valley" />
		<tag k="place" v="locality" />
		<tag k="ssr:stedsnr" v="927241" />
	</node>
	<node id="-24558" lat="68.6447805572" lon="15.1928055607">
		<tag k="name" v="Tverrbakkan" />
		<tag k="natural" v="slope" />
		<tag k="place" v="locality" />
		<tag k="ssr:stedsnr" v="927209" />
	</node>
	<node id="-24555" lat="68.6533722219" lon="15.2619944374">
		<tag k="name" v="Utberget" />
		<tag k="natural" v="hill" />
		<tag k="place" v="locality" />
		<tag k="ssr:stedsnr" v="927198" />
	</node>
	<node id="-24554" lat="68.6712111109" lon="15.2027555521">
		<tag k="name" v="Småvassdalen" />
		<tag k="natural" v="valley" />
		<tag k="place" v="locality" />
		<tag k="ssr:stedsnr" v="927178" />
	</node>
	<node id="-24547" lat="68.6234166711" lon="15.5515722128">
		<tag k="name" v="Dalbergan" />
		<tag k="natural" v="hill" />
		<tag k="place" v="locality" />
		<tag k="ssr:stedsnr" v="927028" />
	</node>
	<node id="-24545" lat="68.770463893" lon="15.0502833418">
		<tag k="name" v="Ole-Jensahammaren" />
		<tag k="natural" v="hill" />
		<tag k="place" v="locality" />
		<tag k="ssr:stedsnr" v="787988" />
	</node>
	<node id="-24544" lat="68.6683250032" lon="15.1783916724">
		<tag k="name" v="Joberget" />
		<tag k="natural" v="hill" />
		<tag k="place" v="locality" />
		<tag k="ssr:stedsnr" v="787983" />
	</node>
	<node id="-24542" lat="68.7264111117" lon="15.0435416767">
		<tag k="name" v="Haugen" />
		<tag k="natural" v="hill" />
		<tag k="place" v="locality" />
		<tag k="ssr:stedsnr" v="787754" />
	</node>
	<node id="-24540" lat="68.7629583338" lon="15.9464861091">
		<tag k="name" v="Storelvdalen" />
		<tag k="natural" v="valley" />
		<tag k="place" v="locality" />
		<tag k="ssr:stedsnr" v="786767" />
	</node>
	<node id="-24539" lat="68.790016667" lon="15.9551416625">
		<tag k="name" v="Kvalvikberget" />
		<tag k="natural" v="hill" />
		<tag k="place" v="locality" />
		<tag k="ssr:stedsnr" v="786554" />
	</node>
	<node id="-24537" lat="68.6509194491" lon="15.7238527684">
		<tag k="name" v="Sørdalsbotn" />
		<tag k="natural" v="valley" />
		<tag k="place" v="locality" />
		<tag k="ssr:stedsnr" v="780840" />
	</node>
	<node id="-24536" lat="68.7181805584" lon="15.2675416735">
		<tag k="name" v="Aspa" />
		<tag k="natural" v="slope" />
		<tag k="place" v="locality" />
		<tag k="ssr:stedsnr" v="768111" />
	</node>
	<node id="-24532" lat="68.6499722182" lon="15.1906999968">
		<tag k="name" v="Nordskaret" />
		<tag k="natural" v="valley" />
		<tag k="place" v="locality" />
		<tag k="ssr:stedsnr" v="763857" />
	</node>
	<node id="-24531" lat="68.6358750015" lon="15.1970305512">
		<tag k="name" v="Støyten" />
		<tag k="place" v="locality" />
		<tag k="ssr:stedsnr" v="763836" />
	</node>
	<node id="-24529" lat="68.7098583331" lon="15.3293444524">
		<tag k="name" v="Storvassberget" />
		<tag k="natural" v="hill" />
		<tag k="place" v="locality" />
		<tag k="ssr:stedsnr" v="763605" />
	</node>
	<node id="-24528" lat="68.7143138904" lon="15.3574166749">
		<tag k="name" v="Skaperdalen" />
		<tag k="natural" v="valley" />
		<tag k="place" v="locality" />
		<tag k="ssr:stedsnr" v="763603" />
	</node>
	<node id="-24527" lat="68.7388611069" lon="15.2683388914">
		<tag k="name" v="Golia" />
		<tag k="natural" v="slope" />
		<tag k="place" v="locality" />
		<tag k="ssr:stedsnr" v="763075" />
	</node>
	<node id="-24526" lat="68.7489499963" lon="15.1507527718">
		<tag k="name" v="Karihaugen" />
		<tag k="natural" v="hill" />
		<tag k="place" v="locality" />
		<tag k="ssr:stedsnr" v="763068" />
	</node>
	<node id="-24525" lat="68.7494805593" lon="15.2807194557">
		<tag k="name" v="Busthaugen" />
		<tag k="natural" v="hill" />
		<tag k="place" v="locality" />
		<tag k="ssr:stedsnr" v="763065" />
	</node>
	<node id="-24516" lat="68.8111472251" lon="15.8824388944">
		<tag k="name" v="Verslet" />
		<tag k="natural" v="hill" />
		<tag k="place" v="locality" />
		<tag k="ssr:stedsnr" v="908726" />
	</node>
	<node id="-24511" lat="68.7404166675" lon="15.7398555449">
		<tag k="name" v="Eidesbakkan" />
		<tag k="natural" v="slope" />
		<tag k="place" v="locality" />
		<tag k="ssr:stedsnr" v="908059" />
	</node>
	<node id="-24510" lat="68.6954222202" lon="15.6838610991">
		<tag k="fixme" v="consider natural=peak for the most distinct mountains in the district" />
		<tag k="name" v="Åsen" />
		<tag k="natural" v="hill" />
		<tag k="place" v="locality" />
		<tag k="ssr:stedsnr" v="908056" />
	</node>
	<node id="-24504" lat="68.8549111132" lon="15.9207472214">
		<tag k="name" v="Skjurbuskhågen" />
		<tag k="natural" v="hill" />
		<tag k="place" v="locality" />
		<tag k="ssr:stedsnr" v="907610" />
	</node>
	<node id="-24502" lat="68.7882416646" lon="15.2734611016">
		<tag k="name" v="Grisgjerdet" />
		<tag k="natural" v="hill" />
		<tag k="place" v="locality" />
		<tag k="ssr:stedsnr" v="907555" />
	</node>
	<node id="-24501" lat="68.7860916657" lon="15.2828694562">
		<tag k="name" v="Hølen" />
		<tag k="natural" v="valley" />
		<tag k="place" v="locality" />
		<tag k="ssr:stedsnr" v="907553" />
	</node>
	<node id="-24499" lat="68.7785861134" lon="15.9808694551">
		<tag k="name" v="Trolldalen" />
		<tag k="natural" v="valley" />
		<tag k="place" v="locality" />
		<tag k="ssr:stedsnr" v="907513" />
	</node>
	<node id="-24498" lat="68.7697055542" lon="15.9493472264">
		<tag k="name" v="Kollholla" />
		<tag k="natural" v="valley" />
		<tag k="place" v="locality" />
		<tag k="ssr:stedsnr" v="907512" />
	</node>
	<node id="-24497" lat="68.78294167" lon="15.9450333407">
		<tag k="name" v="Storsletta" />
		<tag k="place" v="locality" />
		<tag k="ssr:stedsnr" v="907480" />
	</node>
	<node id="-24496" lat="68.7181138857" lon="15.6116361097">
		<tag k="name" v="Reindalsskardet" />
		<tag k="natural" v="valley" />
		<tag k="place" v="locality" />
		<tag k="ssr:stedsnr" v="746827" />
	</node>
	<node id="-24495" lat="68.7809611071" lon="15.2666472192">
		<tag k="fixme" v="consider natural=peak for the most distinct mountains in the district" />
		<tag k="name" v="Steinheia" />
		<tag k="natural" v="hill" />
		<tag k="place" v="locality" />
		<tag k="ssr:stedsnr" v="746657" />
	</node>
	<node id="-24494" lat="68.7261111124" lon="15.3266138955">
		<tag k="name" v="Trollbotn" />
		<tag k="natural" v="valley" />
		<tag k="place" v="locality" />
		<tag k="ssr:stedsnr" v="746711" />
	</node>
	<node id="-24493" lat="68.7315388916" lon="15.286402781">
		<tag k="name" v="Gaphaugen" />
		<tag k="natural" v="hill" />
		<tag k="place" v="locality" />
		<tag k="ssr:stedsnr" v="746707" />
	</node>
	<node id="-24490" lat="68.8972750012" lon="15.8951555599">
		<tag k="name" v="Sandnesdalen" />
		<tag k="natural" v="valley" />
		<tag k="place" v="locality" />
		<tag k="ssr:stedsnr" v="746453" />
	</node>
	<node id="-24488" lat="68.8679444425" lon="15.842058336">
		<tag k="alt_name" v="Littje-Slemtinden" />
		<tag k="fixme" v="consider natural=peak for the most distinct mountains in the district" />
		<tag k="name" v="Litleslemtinden" />
		<tag k="natural" v="hill" />
		<tag k="place" v="locality" />
		<tag k="ssr:stedsnr" v="746055" />
	</node>
	<node id="-24487" lat="68.8741027775" lon="15.878977769">
		<tag k="fixme" v="consider natural=peak for the most distinct mountains in the district" />
		<tag k="name" v="Storslemtinden" />
		<tag k="natural" v="hill" />
		<tag k="place" v="locality" />
		<tag k="ssr:stedsnr" v="746054" />
	</node>
	<node id="-24483" lat="68.6882750009" lon="14.8441555561">
		<tag k="name" v="Høystakkdalen" />
		<tag k="natural" v="valley" />
		<tag k="place" v="locality" />
		<tag k="ssr:stedsnr" v="745656" />
	</node>
	<node id="-24476" lat="68.8529583298" lon="15.8511638963">
		<tag k="fixme" v="consider natural=peak for the most distinct mountains in the district" />
		<tag k="name" v="Småtindan" />
		<tag k="natural" v="hill" />
		<tag k="place" v="locality" />
		<tag k="ssr:stedsnr" v="745056" />
	</node>
	<node id="-24474" lat="68.6994277815" lon="14.8613944574">
		<tag k="name" v="Brennhaugen" />
		<tag k="natural" v="hill" />
		<tag k="place" v="locality" />
		<tag k="ssr:stedsnr" v="905675" />
	</node>
	<node id="-24472" lat="68.6882472222" lon="15.6308166725">
		<tag k="name" v="Trolldalen" />
		<tag k="natural" v="valley" />
		<tag k="place" v="locality" />
		<tag k="ssr:stedsnr" v="905792" />
	</node>
	<node id="-24470" lat="68.8100388859" lon="15.5494472097">
		<tag k="name" v="Storraet" />
		<tag k="natural" v="hill" />
		<tag k="place" v="locality" />
		<tag k="ssr:stedsnr" v="905102" />
	</node>
	<node id="-24468" lat="68.8101055519" lon="15.5426805538">
		<tag k="name" v="Tjønnesraet" />
		<tag k="natural" v="hill" />
		<tag k="place" v="locality" />
		<tag k="ssr:stedsnr" v="905098" />
	</node>
	<node id="-24467" lat="68.6758083302" lon="15.7768277858">
		<tag k="name" v="Storlia" />
		<tag k="natural" v="slope" />
		<tag k="place" v="locality" />
		<tag k="ssr:stedsnr" v="905088" />
	</node>
	<node id="-24466" lat="68.7056111151" lon="15.4858638952">
		<tag k="name" v="Strandaksla" />
		<tag k="place" v="locality" />
		<tag k="ssr:stedsnr" v="904798" />
	</node>
	<node id="-24465" lat="68.7305083319" lon="15.0538249965">
		<tag k="name" v="Anderberg" />
		<tag k="natural" v="hill" />
		<tag k="place" v="locality" />
		<tag k="ssr:stedsnr" v="906980" />
	</node>
	<node id="-24464" lat="68.7393944405" lon="15.1377666744">
		<tag k="name" v="Småvikerhaugen" />
		<tag k="natural" v="hill" />
		<tag k="place" v="locality" />
		<tag k="ssr:stedsnr" v="906979" />
	</node>
	<node id="-24462" lat="68.7375333321" lon="14.9605138896">
		<tag k="name" v="Storslåttdalen" />
		<tag k="natural" v="valley" />
		<tag k="place" v="locality" />
		<tag k="ssr:stedsnr" v="726845" />
	</node>
	<node id="-24461" lat="68.8094444457" lon="15.8609527798">
		<tag k="name" v="Skreda" />
		<tag k="natural" v="slope" />
		<tag k="place" v="locality" />
		<tag k="ssr:stedsnr" v="726711" />
	</node>
	<node id="-24460" lat="68.816272218" lon="15.8783027806">
		<tag k="name" v="Aksla" />
		<tag k="place" v="locality" />
		<tag k="ssr:stedsnr" v="726710" />
	</node>
	<node id="-24458" lat="68.7790138896" lon="15.8501194418">
		<tag k="name" v="Rumpelia" />
		<tag k="natural" v="slope" />
		<tag k="place" v="locality" />
		<tag k="ssr:stedsnr" v="726359" />
	</node>
	<node id="-24450" lat="68.7603166678" lon="15.8828499916">
		<tag k="name" v="Mælia" />
		<tag k="natural" v="slope" />
		<tag k="place" v="locality" />
		<tag k="ssr:stedsnr" v="709404" />
	</node>
	<node id="-24449" lat="68.713436115" lon="14.9142777763">
		<tag k="fixme" v="consider natural=peak for the most distinct mountains in the district" />
		<tag k="name" v="Ørnåsen" />
		<tag k="natural" v="hill" />
		<tag k="place" v="locality" />
		<tag k="ssr:stedsnr" v="892685" />
	</node>
	<node id="-24448" lat="68.7111055524" lon="14.968630552">
		<tag k="name" v="Stuhaugen" />
		<tag k="natural" v="hill" />
		<tag k="place" v="locality" />
		<tag k="ssr:stedsnr" v="892666" />
	</node>
	<node id="-24447" lat="68.7123333364" lon="14.9684583247">
		<tag k="name" v="Grindvollhaugen" />
		<tag k="natural" v="hill" />
		<tag k="place" v="locality" />
		<tag k="ssr:stedsnr" v="892665" />
	</node>
	<node id="-24445" lat="68.706508336" lon="14.9891194393">
		<tag k="name" v="Kildhammaren" />
		<tag k="natural" v="hill" />
		<tag k="place" v="locality" />
		<tag k="ssr:stedsnr" v="892638" />
	</node>
	<node id="-24444" lat="68.6741055585" lon="14.8180888813">
		<tag k="fixme" v="consider natural=peak for the most distinct mountains in the district" />
		<tag k="name" v="Durmålstuva" />
		<tag k="natural" v="hill" />
		<tag k="place" v="locality" />
		<tag k="ssr:stedsnr" v="892630" />
	</node>
	<node id="-24443" lat="68.6770500036" lon="14.8123972353">
		<tag k="name" v="Dalen" />
		<tag k="natural" v="valley" />
		<tag k="place" v="locality" />
		<tag k="ssr:stedsnr" v="892626" />
	</node>
	<node id="-24435" lat="68.7118222257" lon="15.1567277709">
		<tag k="name" v="Storhaugen" />
		<tag k="natural" v="hill" />
		<tag k="place" v="locality" />
		<tag k="ssr:stedsnr" v="703630" />
	</node>
	<node id="-24430" lat="68.8003722257" lon="15.2651611016">
		<tag k="name" v="Heimerfjorden" />
		<tag k="place" v="locality" />
		<tag k="ssr:stedsnr" v="890643" />
	</node>
	<node id="-24429" lat="68.8014388908" lon="15.2536749976">
		<tag k="name" v="Raet" />
		<tag k="natural" v="ridge" />
		<tag k="place" v="locality" />
		<tag k="ssr:stedsnr" v="890641" />
	</node>
	<node id="-24428" lat="68.8285194439" lon="15.2626194512">
		<tag k="name" v="Elensletta" />
		<tag k="place" v="locality" />
		<tag k="ssr:stedsnr" v="890618" />
	</node>
	<node id="-24427" lat="68.8218888857" lon="15.2812916688">
		<tag k="name" v="Feskfatheia" />
		<tag k="natural" v="hill" />
		<tag k="place" v="locality" />
		<tag k="ssr:stedsnr" v="890594" />
	</node>
	<node id="-24425" lat="68.740452778" lon="15.1609055601">
		<tag k="name" v="Langvassbakkan" />
		<tag k="natural" v="slope" />
		<tag k="place" v="locality" />
		<tag k="ssr:stedsnr" v="702119" />
	</node>
	<node id="-24417" lat="68.6394305522" lon="15.484633344">
		<tag k="name" v="Hestdalen" />
		<tag k="natural" v="valley" />
		<tag k="place" v="locality" />
		<tag k="ssr:stedsnr" v="886476" />
	</node>
	<node id="-24416" lat="68.6394694482" lon="15.1834250046">
		<tag k="name" v="Skredalen" />
		<tag k="natural" v="valley" />
		<tag k="place" v="locality" />
		<tag k="ssr:stedsnr" v="885952" />
	</node>
	<node id="-24412" lat="68.7120194425" lon="15.3774888869">
		<tag k="name" v="Munningsletta" />
		<tag k="place" v="locality" />
		<tag k="ssr:stedsnr" v="885586" />
	</node>
	<node id="-24408" lat="68.6636166655" lon="15.2789805512">
		<tag k="name" v="Tverrheia" />
		<tag k="natural" v="hill" />
		<tag k="place" v="locality" />
		<tag k="ssr:stedsnr" v="885543" />
	</node>
	<node id="-24407" lat="68.661686115" lon="15.3023166575">
		<tag k="name" v="Fagerbakken" />
		<tag k="natural" v="slope" />
		<tag k="place" v="locality" />
		<tag k="ssr:stedsnr" v="885533" />
	</node>
	<node id="-24404" lat="68.6728666633" lon="15.3407916583">
		<tag k="name" v="Storanhaugen" />
		<tag k="natural" v="hill" />
		<tag k="place" v="locality" />
		<tag k="ssr:stedsnr" v="885432" />
	</node>
	<node id="-24403" lat="68.6867277813" lon="15.053950007">
		<tag k="name" v="Molvikberget" />
		<tag k="natural" v="hill" />
		<tag k="place" v="locality" />
		<tag k="ssr:stedsnr" v="885332" />
	</node>
	<node id="-24401" lat="68.7700305563" lon="15.2596138896">
		<tag k="name" v="Slettåsen" />
		<tag k="natural" v="hill" />
		<tag k="place" v="locality" />
		<tag k="ssr:stedsnr" v="885193" />
	</node>
	<node id="-24400" lat="68.7347250031" lon="15.3630305466">
		<tag k="name" v="Ramnflåget" />
		<tag k="natural" v="hill" />
		<tag k="place" v="locality" />
		<tag k="ssr:stedsnr" v="685744" />
	</node>
	<node id="-24394" lat="68.6546472226" lon="15.1753416642">
		<tag k="fixme" v="consider natural=peak for the most distinct mountains in the district" />
		<tag k="name" v="Lemtinden" />
		<tag k="natural" v="hill" />
		<tag k="place" v="locality" />
		<tag k="ssr:stedsnr" v="684221" />
	</node>
	<node id="-24393" lat="68.6552388891" lon="15.1102611057">
		<tag k="name" v="Norddalen" />
		<tag k="natural" v="valley" />
		<tag k="place" v="locality" />
		<tag k="ssr:stedsnr" v="684218" />
	</node>
	<node id="-24389" lat="68.6123583356" lon="15.4180611228">
		<tag k="name" v="Forrahaugen" />
		<tag k="natural" v="hill" />
		<tag k="place" v="locality" />
		<tag k="ssr:stedsnr" v="684010" />
	</node>
	<node id="-24387" lat="68.6623027823" lon="15.0514694427">
		<tag k="name" v="Berget" />
		<tag k="natural" v="hill" />
		<tag k="place" v="locality" />
		<tag k="ssr:stedsnr" v="665808" />
	</node>
	<node id="-24386" lat="68.940066671" lon="15.898561108">
		<tag k="name" v="Rønna" />
		<tag k="natural" v="slope" />
		<tag k="place" v="locality" />
		<tag k="ssr:stedsnr" v="664692" />
	</node>
	<node id="-24385" lat="68.9235361136" lon="15.8619055569">
		<tag k="name" v="Slettheibakkan" />
		<tag k="natural" v="slope" />
		<tag k="place" v="locality" />
		<tag k="ssr:stedsnr" v="664654" />
	</node>
	<node id="-24384" lat="68.7606777753" lon="15.943866677">
		<tag k="name" v="Gunnesdalen" />
		<tag k="natural" v="valley" />
		<tag k="place" v="locality" />
		<tag k="ssr:stedsnr" v="664753" />
	</node>
	<node id="-24383" lat="68.7142472229" lon="14.8553805641">
		<tag k="name" v="Skjellaksla" />
		<tag k="place" v="locality" />
		<tag k="ssr:stedsnr" v="662686" />
	</node>
	<node id="-24382" lat="68.6975111091" lon="14.8342249962">
		<tag k="name" v="Gamskaret" />
		<tag k="natural" v="valley" />
		<tag k="place" v="locality" />
		<tag k="ssr:stedsnr" v="662679" />
	</node>
	<node id="-24381" lat="68.7086777813" lon="14.8658527844">
		<tag k="name" v="Breilemman" />
		<tag k="natural" v="slope" />
		<tag k="place" v="locality" />
		<tag k="ssr:stedsnr" v="662678" />
	</node>
	<node id="-24380" lat="68.7008722185" lon="14.8613361132">
		<tag k="name" v="Vasshaugen" />
		<tag k="natural" v="hill" />
		<tag k="place" v="locality" />
		<tag k="ssr:stedsnr" v="662676" />
	</node>
	<node id="-24379" lat="68.7048916626" lon="14.8636805507">
		<tag k="name" v="Oksbåsen" />
		<tag k="natural" v="slope" />
		<tag k="place" v="locality" />
		<tag k="ssr:stedsnr" v="662674" />
	</node>
	<node id="-24378" lat="68.6972916709" lon="14.8591888961">
		<tag k="name" v="Notkastvollen" />
		<tag k="place" v="locality" />
		<tag k="ssr:stedsnr" v="662667" />
	</node>
	<node id="-24376" lat="68.6691444448" lon="15.7783472193">
		<tag k="name" v="Storlihaugen" />
		<tag k="natural" v="hill" />
		<tag k="place" v="locality" />
		<tag k="ssr:stedsnr" v="662079" />
	</node>
	<node id="-24375" lat="68.7683277752" lon="15.4645361057">
		<tag k="name" v="Tjønnbergan" />
		<tag k="natural" v="hill" />
		<tag k="place" v="locality" />
		<tag k="ssr:stedsnr" v="662109" />
	</node>
	<node id="-24370" lat="68.7257611126" lon="15.4743222103">
		<tag k="name" v="Lægdabakken" />
		<tag k="natural" v="slope" />
		<tag k="place" v="locality" />
		<tag k="ssr:stedsnr" v="648281" />
	</node>
	<node id="-24369" lat="68.7199222202" lon="15.4628249878">
		<tag k="name" v="Kringelskåret" />
		<tag k="natural" v="valley" />
		<tag k="place" v="locality" />
		<tag k="ssr:stedsnr" v="648274" />
	</node>
	<node id="-24368" lat="68.6386222223" lon="15.1971416776">
		<tag k="name" v="Vassraet" />
		<tag k="place" v="locality" />
		<tag k="ssr:stedsnr" v="642827" />
	</node>
	<node id="-24367" lat="68.6376166673" lon="15.2115083435">
		<tag k="name" v="Storeaspen" />
		<tag k="natural" v="hill" />
		<tag k="place" v="locality" />
		<tag k="ssr:stedsnr" v="642824" />
	</node>
	<node id="-24365" lat="68.7552166696" lon="15.0756694355">
		<tag k="name" v="Fagerlinberget" />
		<tag k="natural" v="hill" />
		<tag k="place" v="locality" />
		<tag k="ssr:stedsnr" v="727805" />
	</node>
	<node id="-24364" lat="68.5682611088" lon="15.3664305566">
		<tag k="name" v="Jørgenbergan" />
		<tag k="natural" v="hill" />
		<tag k="place" v="locality" />
		<tag k="ssr:stedsnr" v="727128" />
	</node>
	<node id="-24361" lat="68.7206944481" lon="14.9824694404">
		<tag k="name" v="Tyvhaugen" />
		<tag k="natural" v="hill" />
		<tag k="place" v="locality" />
		<tag k="ssr:stedsnr" v="726892" />
	</node>
	<node id="-24359" lat="68.7170333349" lon="15.0305361093">
		<tag k="name" v="Storhaugen" />
		<tag k="natural" v="hill" />
		<tag k="place" v="locality" />
		<tag k="ssr:stedsnr" v="726877" />
	</node>
	<node id="-24358" lat="68.7431888866" lon="15.0089472254">
		<tag k="name" v="Ytre Rekdalen" />
		<tag k="natural" v="valley" />
		<tag k="place" v="locality" />
		<tag k="ssr:stedsnr" v="726866" />
	</node>
	<node id="-24357" lat="68.7321999974" lon="14.9713444522">
		<tag k="name" v="Rørbakken" />
		<tag k="natural" v="slope" />
		<tag k="place" v="locality" />
		<tag k="ssr:stedsnr" v="726864" />
	</node>
	<node id="-24349" lat="68.792186108" lon="15.887533337">
		<tag k="name" v="Laberget" />
		<tag k="natural" v="hill" />
		<tag k="place" v="locality" />
		<tag k="ssr:stedsnr" v="726412" />
	</node>
	<node id="-24348" lat="68.7181027792" lon="15.7658555626">
		<tag k="name" v="Tenneskaret" />
		<tag k="natural" v="valley" />
		<tag k="place" v="locality" />
		<tag k="ssr:stedsnr" v="726066" />
	</node>
	<node id="-24347" lat="68.7524861115" lon="15.9475749931">
		<tag k="name" v="Skjelltindbakkan" />
		<tag k="natural" v="slope" />
		<tag k="place" v="locality" />
		<tag k="ssr:stedsnr" v="725721" />
	</node>
	<node id="-24346" lat="68.7468944468" lon="15.9564111028">
		<tag k="name" v="Skjelltindkråa" />
		<tag k="natural" v="slope" />
		<tag k="place" v="locality" />
		<tag k="ssr:stedsnr" v="725691" />
	</node>
	<node id="-24345" lat="68.8179055518" lon="15.36188889">
		<tag k="fixme" v="consider natural=peak for the most distinct mountains in the district" />
		<tag k="name" v="Finnboghøgda" />
		<tag k="natural" v="hill" />
		<tag k="place" v="locality" />
		<tag k="ssr:stedsnr" v="725827" />
	</node>
	<node id="-24343" lat="68.8078527789" lon="15.3404055455">
		<tag k="name" v="Gårdsdalen" />
		<tag k="natural" v="valley" />
		<tag k="place" v="locality" />
		<tag k="ssr:stedsnr" v="725813" />
	</node>
	<node id="-24342" lat="68.786147218" lon="15.222027774">
		<tag k="name" v="Finnskaret" />
		<tag k="natural" v="valley" />
		<tag k="place" v="locality" />
		<tag k="ssr:stedsnr" v="725550" />
	</node>
	<node id="-24341" lat="68.7731750004" lon="15.9384305577">
		<tag k="name" v="Steinveisletta" />
		<tag k="place" v="locality" />
		<tag k="ssr:stedsnr" v="725499" />
	</node>
	<node id="-24337" lat="68.7279944439" lon="15.0615000045">
		<tag k="name" v="Brattberget" />
		<tag k="natural" v="hill" />
		<tag k="place" v="locality" />
		<tag k="ssr:stedsnr" v="723952" />
	</node>
	<node id="-24327" lat="68.7126361083" lon="14.8211305661">
		<tag k="name" v="Indre Stiberg" />
		<tag k="natural" v="hill" />
		<tag k="place" v="locality" />
		<tag k="ssr:stedsnr" v="723596" />
	</node>
	<node id="-24326" lat="68.7502305569" lon="15.8468694557">
		<tag k="name" v="Gjotbakkan" />
		<tag k="natural" v="slope" />
		<tag k="place" v="locality" />
		<tag k="ssr:stedsnr" v="723453" />
	</node>
	<node id="-24323" lat="68.8111888885" lon="15.5761527788">
		<tag k="name" v="Ållia" />
		<tag k="natural" v="slope" />
		<tag k="place" v="locality" />
		<tag k="ssr:stedsnr" v="723080" />
	</node>
	<node id="-24322" lat="68.7137222215" lon="15.5014472341">
		<tag k="name" v="Dalføttan" />
		<tag k="natural" v="slope" />
		<tag k="place" v="locality" />
		<tag k="ssr:stedsnr" v="722825" />
	</node>
	<node id="-24321" lat="68.7048055563" lon="15.4822083384">
		<tag k="name" v="Kringelaksla" />
		<tag k="place" v="locality" />
		<tag k="ssr:stedsnr" v="722814" />
	</node>
	<node id="-24320" lat="68.700933335" lon="15.6598527806">
		<tag k="name" v="Kvalsaukskreda" />
		<tag k="natural" v="slope" />
		<tag k="place" v="locality" />
		<tag k="ssr:stedsnr" v="723071" />
	</node>
	<node id="-24312" lat="68.7941277771" lon="15.8675916698">
		<tag k="name" v="Jenselia" />
		<tag k="natural" v="slope" />
		<tag k="place" v="locality" />
		<tag k="ssr:stedsnr" v="604394" />
	</node>
	<node id="-24311" lat="68.8073750031" lon="15.8765388859">
		<tag k="name" v="Storraet" />
		<tag k="natural" v="ridge" />
		<tag k="place" v="locality" />
		<tag k="ssr:stedsnr" v="604389" />
	</node>
	<node id="-24306" lat="68.7998138921" lon="15.3550277874">
		<tag k="name" v="Brekka" />
		<tag k="natural" v="slope" />
		<tag k="place" v="locality" />
		<tag k="ssr:stedsnr" v="603641" />
	</node>
	<node id="-24305" lat="68.9335750013" lon="15.8684805658">
		<tag k="name" v="Akslen" />
		<tag k="natural" v="ridge" />
		<tag k="place" v="locality" />
		<tag k="ssr:stedsnr" v="603628" />
	</node>
	<node id="-24301" lat="68.768872223" lon="15.0279361135">
		<tag k="name" v="Tofthågen" />
		<tag k="natural" v="hill" />
		<tag k="place" v="locality" />
		<tag k="ssr:stedsnr" v="602155" />
	</node>
	<node id="-24294" lat="68.7208277746" lon="15.4872027644">
		<tag k="name" v="Øverhågen" />
		<tag k="natural" v="hill" />
		<tag k="place" v="locality" />
		<tag k="ssr:stedsnr" v="587258" />
	</node>
	<node id="-24290" lat="68.6861666686" lon="14.8759000041">
		<tag k="name" v="Yttergårdsaksla" />
		<tag k="natural" v="ridge" />
		<tag k="place" v="locality" />
		<tag k="ssr:stedsnr" v="709630" />
	</node>
	<node id="-24275" lat="68.7490777755" lon="15.6576222311">
		<tag k="name" v="Aksla" />
		<tag k="natural" v="ridge" />
		<tag k="place" v="locality" />
		<tag k="ssr:stedsnr" v="704662" />
	</node>
	<node id="-24273" lat="68.6769972181" lon="15.4754027711">
		<tag k="name" v="Smiberget" />
		<tag k="natural" v="hill" />
		<tag k="place" v="locality" />
		<tag k="ssr:stedsnr" v="704511" />
	</node>
	<node id="-24268" lat="68.64686389" lon="15.1883027766">
		<tag k="name" v="Nordskarhågan" />
		<tag k="natural" v="hill" />
		<tag k="place" v="locality" />
		<tag k="ssr:stedsnr" v="703889" />
	</node>
	<node id="-24265" lat="68.7284333362" lon="15.1580333305">
		<tag k="name" v="Moshaugen" />
		<tag k="natural" v="hill" />
		<tag k="place" v="locality" />
		<tag k="ssr:stedsnr" v="703876" />
	</node>
	<node id="-24263" lat="68.8144138876" lon="15.4761861068">
		<tag k="name" v="Sletta" />
		<tag k="place" v="locality" />
		<tag k="ssr:stedsnr" v="703862" />
	</node>
	<node id="-24261" lat="68.647605554" lon="15.2599527729">
		<tag k="name" v="Tøbakkan" />
		<tag k="natural" v="slope" />
		<tag k="place" v="locality" />
		<tag k="ssr:stedsnr" v="703770" />
	</node>
	<node id="-24256" lat="68.6787277822" lon="15.3305527712">
		<tag k="name" v="Galtneset" />
		<tag k="natural" v="ridge" />
		<tag k="place" v="locality" />
		<tag k="ssr:stedsnr" v="703708" />
	</node>
	<node id="-24254" lat="68.6782333375" lon="15.0686666688">
		<tag k="name" v="Bjørnskarberget" />
		<tag k="natural" v="hill" />
		<tag k="place" v="locality" />
		<tag k="ssr:stedsnr" v="703363" />
	</node>
	<node id="-24253" lat="68.672683336" lon="15.0579583459">
		<tag k="name" v="Notskarhaugen" />
		<tag k="natural" v="hill" />
		<tag k="place" v="locality" />
		<tag k="ssr:stedsnr" v="703358" />
	</node>
	<node id="-24245" lat="68.7631361113" lon="15.131599988">
		<tag k="name" v="Hestlabakken" />
		<tag k="natural" v="hill" />
		<tag k="place" v="locality" />
		<tag k="ssr:stedsnr" v="563322" />
	</node>
	<node id="-24244" lat="68.7752972245" lon="15.5689388894">
		<tag k="name" v="Småtindan" />
		<tag k="natural" v="hill" />
		<tag k="place" v="locality" />
		<tag k="ssr:stedsnr" v="563320" />
	</node>
	<node id="-24243" lat="68.7844305583" lon="15.2239916794">
		<tag k="name" v="Ryphaugen" />
		<tag k="natural" v="hill" />
		<tag k="place" v="locality" />
		<tag k="ssr:stedsnr" v="563317" />
	</node>
	<node id="-24242" lat="68.7856305578" lon="15.2898972204">
		<tag k="fixme" v="consider natural=peak for the most distinct mountains in the district" />
		<tag k="name" v="Nordheia" />
		<tag k="natural" v="hill" />
		<tag k="place" v="locality" />
		<tag k="ssr:stedsnr" v="563314" />
	</node>
	<node id="-24238" lat="68.7125" lon="15.1028972131">
		<tag k="name" v="Brennhaugen" />
		<tag k="natural" v="hill" />
		<tag k="place" v="locality" />
		<tag k="ssr:stedsnr" v="702614" />
	</node>
	<node id="-24236" lat="68.7824194487" lon="15.850644437">
		<tag k="name" v="Fjellenden" />
		<tag k="place" v="locality" />
		<tag k="ssr:stedsnr" v="544404" />
	</node>
	<node id="-24234" lat="68.691797223" lon="15.6841916765">
		<tag k="name" v="Merraflesdalen" />
		<tag k="natural" v="valley" />
		<tag k="place" v="locality" />
		<tag k="ssr:stedsnr" v="544046" />
	</node>
	<node id="-24228" lat="68.7914555571" lon="15.9720500001">
		<tag k="name" v="Nerstehaugen" />
		<tag k="natural" v="hill" />
		<tag k="place" v="locality" />
		<tag k="ssr:stedsnr" v="543515" />
	</node>
	<node id="-24227" lat="68.7403361097" lon="15.5295972289">
		<tag k="name" v="Lapphågen" />
		<tag k="natural" v="hill" />
		<tag k="place" v="locality" />
		<tag k="ssr:stedsnr" v="541816" />
	</node>
	<node id="-24226" lat="68.7458722195" lon="15.5125222223">
		<tag k="name" v="Litlehågen" />
		<tag k="natural" v="hill" />
		<tag k="place" v="locality" />
		<tag k="ssr:stedsnr" v="541811" />
	</node>
	<node id="-24224" lat="68.7446944399" lon="15.5093944495">
		<tag k="name" v="Lilandshøgda" />
		<tag k="natural" v="hill" />
		<tag k="place" v="locality" />
		<tag k="ssr:stedsnr" v="541807" />
	</node>
	<node id="-24220" lat="68.6061472235" lon="15.4080222142">
		<tag k="name" v="Bærrabben" />
		<tag k="natural" v="hill" />
		<tag k="place" v="locality" />
		<tag k="ssr:stedsnr" v="541561" />
	</node>
	<node id="-24219" lat="68.7563527753" lon="15.8596916645">
		<tag k="name" v="Nordavindsholla" />
		<tag k="natural" v="valley" />
		<tag k="place" v="locality" />
		<tag k="ssr:stedsnr" v="527409" />
	</node>
	<node id="-24217" lat="68.6404916688" lon="15.237566664">
		<tag k="fixme" v="consider natural=peak for the most distinct mountains in the district" />
		<tag k="name" v="Meåsen" />
		<tag k="natural" v="hill" />
		<tag k="place" v="locality" />
		<tag k="ssr:stedsnr" v="521747" />
	</node>
	<node id="-24209" lat="68.6837249979" lon="15.3485416757">
		<tag k="name" v="Rundhumpen" />
		<tag k="natural" v="hill" />
		<tag k="place" v="locality" />
		<tag k="ssr:stedsnr" v="521702" />
	</node>
	<node id="-24207" lat="68.7140194469" lon="15.3735972124">
		<tag k="name" v="Karrhaugen" />
		<tag k="natural" v="hill" />
		<tag k="place" v="locality" />
		<tag k="ssr:stedsnr" v="685872" />
	</node>
	<node id="-24206" lat="68.7222638925" lon="15.2770499933">
		<tag k="name" v="Jokvannto" />
		<tag k="natural" v="slope" />
		<tag k="place" v="locality" />
		<tag k="ssr:stedsnr" v="685849" />
	</node>
	<node id="-24205" lat="68.7070194448" lon="15.6029083221">
		<tag k="name" v="Utberget" />
		<tag k="natural" v="hill" />
		<tag k="place" v="locality" />
		<tag k="ssr:stedsnr" v="685838" />
	</node>
	<node id="-24204" lat="68.698758338" lon="15.5471694349">
		<tag k="name" v="Bjørnlia" />
		<tag k="natural" v="slope" />
		<tag k="place" v="locality" />
		<tag k="ssr:stedsnr" v="685836" />
	</node>
	<node id="-24203" lat="68.6971895598" lon="15.1533700541">
		<tag k="alt_name:no" v="Lahaug" />
		<tag k="name" v="Lahaugen - Láđđodievvá" />
		<tag k="name:no" v="Lahaugen" />
		<tag k="name:se" v="Láđđodievvá" />
		<tag k="natural" v="hill" />
		<tag k="place" v="locality" />
		<tag k="ssr:stedsnr" v="685832" />
	</node>
	<node id="-24200" lat="68.7076972232" lon="15.4746722136">
		<tag k="name" v="Hjalmarbakken" />
		<tag k="natural" v="slope" />
		<tag k="place" v="locality" />
		<tag k="ssr:stedsnr" v="685825" />
	</node>
	<node id="-24199" lat="68.6978472215" lon="15.4714583352">
		<tag k="name" v="Brannknausan" />
		<tag k="natural" v="hill" />
		<tag k="place" v="locality" />
		<tag k="ssr:stedsnr" v="685824" />
	</node>
	<node id="-24194" lat="68.7029527744" lon="15.0991694497">
		<tag k="name" v="Tipphaugen" />
		<tag k="natural" v="hill" />
		<tag k="place" v="locality" />
		<tag k="ssr:stedsnr" v="685808" />
	</node>
	<node id="-24193" lat="68.7394305548" lon="15.3068416566">
		<tag k="name" v="Tretthola" />
		<tag k="natural" v="valley" />
		<tag k="place" v="locality" />
		<tag k="ssr:stedsnr" v="685806" />
	</node>
	<node id="-24189" lat="68.7501222231" lon="15.5820361183">
		<tag k="fixme" v="consider natural=peak for the most distinct mountains in the district" />
		<tag k="name" v="Ørnheia" />
		<tag k="natural" v="hill" />
		<tag k="place" v="locality" />
		<tag k="ssr:stedsnr" v="685790" />
	</node>
	<node id="-24182" lat="68.6975694489" lon="15.6436444397">
		<tag k="fixme" v="consider natural=peak for the most distinct mountains in the district" />
		<tag k="name" v="Trolldalstinden" />
		<tag k="natural" v="hill" />
		<tag k="place" v="locality" />
		<tag k="ssr:stedsnr" v="685465" />
	</node>
	<node id="-24181" lat="68.6946666709" lon="15.7603805556">
		<tag k="fixme" v="consider natural=peak for the most distinct mountains in the district" />
		<tag k="name" v="Lamarktinden" />
		<tag k="natural" v="hill" />
		<tag k="place" v="locality" />
		<tag k="ssr:stedsnr" v="685462" />
	</node>
	<node id="-24180" lat="68.942049997" lon="15.8930305443">
		<tag k="fixme" v="consider natural=peak for the most distinct mountains in the district" />
		<tag k="name" v="Tinden" />
		<tag k="natural" v="hill" />
		<tag k="place" v="locality" />
		<tag k="ssr:stedsnr" v="685461" />
	</node>
	<node id="-24177" lat="68.8789722196" lon="15.9198083442">
		<tag k="fixme" v="consider natural=peak for the most distinct mountains in the district" />
		<tag k="name" v="Gårdsfjellet" />
		<tag k="natural" v="hill" />
		<tag k="place" v="locality" />
		<tag k="ssr:stedsnr" v="685439" />
	</node>
	<node id="-24171" lat="68.6141361089" lon="15.6624111155">
		<tag k="fixme" v="consider natural=peak for the most distinct mountains in the district" />
		<tag k="name" v="Sørheia" />
		<tag k="natural" v="hill" />
		<tag k="place" v="locality" />
		<tag k="ssr:stedsnr" v="685338" />
	</node>
	<node id="-24170" lat="68.6363888867" lon="15.6741638848">
		<tag k="fixme" v="multiple name tags, choose one and add the other to alt_name; consider natural=peak for the most distinct mountains in the district" />
		<tag k="name" v="Stortinden;Sætertinden" />
		<tag k="natural" v="hill" />
		<tag k="ssr:stedsnr" v="685323" />
	</node>
	<node id="-24169" lat="68.7695416649" lon="15.2952805511">
		<tag k="name" v="Ryphaugen" />
		<tag k="natural" v="hill" />
		<tag k="place" v="locality" />
		<tag k="ssr:stedsnr" v="685322" />
	</node>
	<node id="-24167" lat="68.7711750004" lon="15.5859222206">
		<tag k="fixme" v="consider natural=peak for the most distinct mountains in the district" />
		<tag k="name" v="Durmålstuva" />
		<tag k="natural" v="hill" />
		<tag k="place" v="locality" />
		<tag k="ssr:stedsnr" v="685315" />
	</node>
	<node id="-24162" lat="68.7251833341" lon="14.9990555631">
		<tag k="fixme" v="consider natural=peak for the most distinct mountains in the district" />
		<tag k="name" v="Strandfjellet" />
		<tag k="natural" v="hill" />
		<tag k="place" v="locality" />
		<tag k="ssr:stedsnr" v="685278" />
	</node>
	<node id="-24161" lat="68.7196611151" lon="14.8381861164">
		<tag k="fixme" v="consider natural=peak for the most distinct mountains in the district" />
		<tag k="name" v="Tverrfjellan" />
		<tag k="natural" v="hill" />
		<tag k="place" v="locality" />
		<tag k="ssr:stedsnr" v="685267" />
	</node>
	<node id="-24160" lat="68.6763333319" lon="15.6378694415">
		<tag k="name" v="Norddalen" />
		<tag k="natural" v="valley" />
		<tag k="place" v="locality" />
		<tag k="ssr:stedsnr" v="685256" />
	</node>
	<node id="-24156" lat="68.6692194419" lon="15.1063194505">
		<tag k="name" v="Kvanndalen" />
		<tag k="natural" v="valley" />
		<tag k="place" v="locality" />
		<tag k="ssr:stedsnr" v="685196" />
	</node>
	<node id="-24151" lat="68.7537000039" lon="15.7799139012">
		<tag k="alt_name" v="Litjelvheia" />
		<tag k="fixme" v="consider natural=peak for the most distinct mountains in the district" />
		<tag k="name" v="Litlelvheia" />
		<tag k="natural" v="hill" />
		<tag k="place" v="locality" />
		<tag k="ssr:stedsnr" v="685147" />
	</node>
	<node id="-24149" lat="68.7576916656" lon="15.6879749873">
		<tag k="fixme" v="consider natural=peak for the most distinct mountains in the district" />
		<tag k="name" v="Bykvanntotinden" />
		<tag k="natural" v="hill" />
		<tag k="place" v="locality" />
		<tag k="ssr:stedsnr" v="685144" />
	</node>
	<node id="-24146" lat="68.7871194443" lon="15.8769277844">
		<tag k="alt_name" v="Myrsletten" />
		<tag k="name" v="Myrslettene" />
		<tag k="place" v="locality" />
		<tag k="ssr:stedsnr" v="685082" />
	</node>
	<node id="-24144" lat="68.7809777792" lon="15.7756027783">
		<tag k="name" v="Istindan" />
		<tag k="natural" v="hill" />
		<tag k="place" v="locality" />
		<tag k="ssr:stedsnr" v="685080" />
	</node>
	<node id="-24142" lat="68.7520083348" lon="15.8694388876">
		<tag k="name" v="Småbergan" />
		<tag k="natural" v="hill" />
		<tag k="place" v="locality" />
		<tag k="ssr:stedsnr" v="685141" />
	</node>
	<node id="-24141" lat="68.6874083337" lon="15.1524055554">
		<tag k="name" v="Storberget" />
		<tag k="natural" v="hill" />
		<tag k="place" v="locality" />
		<tag k="ssr:stedsnr" v="685130" />
	</node>
	<node id="-24138" lat="68.6718861092" lon="15.2407610992">
		<tag k="fixme" v="consider natural=peak for the most distinct mountains in the district" />
		<tag k="name" v="Knurren" />
		<tag k="natural" v="hill" />
		<tag k="place" v="locality" />
		<tag k="ssr:stedsnr" v="684167" />
	</node>
	<node id="-24136" lat="68.6477472269" lon="15.5747388814">
		<tag k="fixme" v="consider natural=peak for the most distinct mountains in the district" />
		<tag k="name" v="Frakkmannen" />
		<tag k="natural" v="hill" />
		<tag k="place" v="locality" />
		<tag k="ssr:stedsnr" v="684253" />
	</node>
	<node id="-24131" lat="68.7763888904" lon="15.0146027876">
		<tag k="fixme" v="consider natural=peak for the most distinct mountains in the district" />
		<tag k="name" v="Nipa" />
		<tag k="natural" v="hill" />
		<tag k="place" v="locality" />
		<tag k="ssr:stedsnr" v="503480" />
	</node>
	<node id="-24128" lat="68.8072444481" lon="15.2440833308">
		<tag k="alt_name" v="Kobbskardet" />
		<tag k="name" v="Kobbskaret" />
		<tag k="natural" v="valley" />
		<tag k="place" v="locality" />
		<tag k="ssr:stedsnr" v="503255" />
	</node>
	<node id="-24126" lat="68.7572277752" lon="15.7388305543">
		<tag k="name" v="Sprutdalen" />
		<tag k="natural" v="valley" />
		<tag k="place" v="locality" />
		<tag k="ssr:stedsnr" v="503131" />
	</node>
	<node id="-24125" lat="68.7600138913" lon="15.6375916766">
		<tag k="fixme" v="consider natural=peak for the most distinct mountains in the district" />
		<tag k="name" v="Amarkus" />
		<tag k="natural" v="hill" />
		<tag k="place" v="locality" />
		<tag k="ssr:stedsnr" v="503130" />
	</node>
	<node id="-24123" lat="68.7148472196" lon="14.9770944518">
		<tag k="name" v="Rabban" />
		<tag k="natural" v="hill" />
		<tag k="place" v="locality" />
		<tag k="ssr:stedsnr" v="484861" />
	</node>
	<node id="-24121" lat="68.7794027763" lon="15.8422861203">
		<tag k="name" v="Bukkholla" />
		<tag k="natural" v="valley" />
		<tag k="place" v="locality" />
		<tag k="ssr:stedsnr" v="483356" />
	</node>
	<node id="-24117" lat="68.5689666675" lon="15.4488444547">
		<tag k="name" v="Brattberget" />
		<tag k="natural" v="hill" />
		<tag k="place" v="locality" />
		<tag k="ssr:stedsnr" v="482607" />
	</node>
	<node id="-24115" lat="68.5971138886" lon="15.3626777712">
		<tag k="name" v="Skaret" />
		<tag k="natural" v="valley" />
		<tag k="place" v="locality" />
		<tag k="ssr:stedsnr" v="482603" />
	</node>
	<node id="-24114" lat="68.6839416662" lon="15.5479166768">
		<tag k="name" v="Nylaaksla" />
		<tag k="place" v="locality" />
		<tag k="ssr:stedsnr" v="480797" />
	</node>
	<node id="-24112" lat="68.7469166635" lon="15.5143944498">
		<tag k="name" v="Durmålshågen" />
		<tag k="natural" v="hill" />
		<tag k="place" v="locality" />
		<tag k="ssr:stedsnr" v="480807" />
	</node>
	<node id="-24110" lat="68.6079027774" lon="15.4019111116">
		<tag k="name" v="Stokkvikhalsen" />
		<tag k="natural" v="valley" />
		<tag k="place" v="locality" />
		<tag k="ssr:stedsnr" v="480561" />
	</node>
	<node id="-24108" lat="68.7273555512" lon="15.7563666729">
		<tag k="name" v="Nils-Andersahågen" />
		<tag k="natural" v="hill" />
		<tag k="place" v="locality" />
		<tag k="ssr:stedsnr" v="480010" />
	</node>
	<node id="-24100" lat="68.56297222" lon="15.400694437">
		<tag k="name" v="Syrgrashola" />
		<tag k="natural" v="valley" />
		<tag k="place" v="locality" />
		<tag k="ssr:stedsnr" v="666132" />
	</node>
	<node id="-24096" lat="68.7214861128" lon="15.0001222127">
		<tag k="fixme" v="consider natural=peak for the most distinct mountains in the district" />
		<tag k="name" v="Stortinden" />
		<tag k="natural" v="hill" />
		<tag k="place" v="locality" />
		<tag k="ssr:stedsnr" v="665895" />
	</node>
	<node id="-24095" lat="68.7358027791" lon="14.9630138853">
		<tag k="fixme" v="consider natural=peak for the most distinct mountains in the district" />
		<tag k="name" v="Alteret" />
		<tag k="natural" v="hill" />
		<tag k="place" v="locality" />
		<tag k="ssr:stedsnr" v="665884" />
	</node>
	<node id="-24093" lat="68.7268749962" lon="15.0117055529">
		<tag k="name" v="Gryttingsdalen" />
		<tag k="natural" v="valley" />
		<tag k="place" v="locality" />
		<tag k="ssr:stedsnr" v="665876" />
	</node>
	<node id="-24092" lat="68.8254777803" lon="15.8639055551">
		<tag k="name" v="Kuhollaksla" />
		<tag k="place" v="locality" />
		<tag k="ssr:stedsnr" v="665729" />
	</node>
	<node id="-24091" lat="68.797761109" lon="15.8728138773">
		<tag k="name" v="Neset" />
		<tag k="natural" v="slope" />
		<tag k="place" v="locality" />
		<tag k="ssr:stedsnr" v="665439" />
	</node>
	<node id="-24090" lat="68.7660055597" lon="15.8398249903">
		<tag k="name" v="Bikkjeberget" />
		<tag k="natural" v="hill" />
		<tag k="place" v="locality" />
		<tag k="ssr:stedsnr" v="665398" />
	</node>
	<node id="-24087" lat="68.9190749999" lon="15.8822111001">
		<tag k="name" v="Skredfjelldalen" />
		<tag k="natural" v="valley" />
		<tag k="place" v="locality" />
		<tag k="ssr:stedsnr" v="664651" />
	</node>
	<node id="-24082" lat="68.7631611089" lon="15.9820972196">
		<tag k="name" v="Litjeskaret" />
		<tag k="natural" v="valley" />
		<tag k="place" v="locality" />
		<tag k="ssr:stedsnr" v="664765" />
	</node>
	<node id="-24081" lat="68.7593833292" lon="15.9572444509">
		<tag k="name" v="Storskarbakkan" />
		<tag k="natural" v="slope" />
		<tag k="place" v="locality" />
		<tag k="ssr:stedsnr" v="664757" />
	</node>
	<node id="-24073" lat="68.7090888922" lon="15.5194361157">
		<tag k="fixme" v="consider natural=peak for the most distinct mountains in the district" />
		<tag k="name" v="Vester Svartdalsåsen" />
		<tag k="natural" v="hill" />
		<tag k="place" v="locality" />
		<tag k="ssr:stedsnr" v="661789" />
	</node>
	<node id="-24071" lat="68.7820388921" lon="15.4909194571">
		<tag k="name" v="Sandhågen" />
		<tag k="natural" v="hill" />
		<tag k="place" v="locality" />
		<tag k="ssr:stedsnr" v="662098" />
	</node>
	<node id="-24068" lat="68.6868222236" lon="15.0757444419">
		<tag k="fixme" v="consider natural=peak for the most distinct mountains in the district" />
		<tag k="name" v="Moldviktinden" />
		<tag k="natural" v="hill" />
		<tag k="place" v="locality" />
		<tag k="ssr:stedsnr" v="443141" />
	</node>
	<node id="-24063" lat="68.8037000045" lon="15.8831333312">
		<tag k="name" v="Dalveisbakkan" />
		<tag k="natural" v="slope" />
		<tag k="place" v="locality" />
		<tag k="ssr:stedsnr" v="423415" />
	</node>
	<node id="-24060" lat="68.5627027799" lon="15.3736222311">
		<tag k="name" v="Skaret" />
		<tag k="natural" v="valley" />
		<tag k="place" v="locality" />
		<tag k="ssr:stedsnr" v="423009" />
	</node>
	<node id="-24058" lat="68.8020138897" lon="15.2763083316">
		<tag k="name" v="Tunga" />
		<tag k="natural" v="valley" />
		<tag k="place" v="locality" />
		<tag k="ssr:stedsnr" v="422610" />
	</node>
	<node id="-24055" lat="68.747583335" lon="15.8508500108">
		<tag k="name" v="Slogelia" />
		<tag k="natural" v="slope" />
		<tag k="place" v="locality" />
		<tag k="ssr:stedsnr" v="420503" />
	</node>
	<node id="-24054" lat="68.7641277818" lon="15.4661305687">
		<tag k="name" v="Nonshågen" />
		<tag k="natural" v="hill" />
		<tag k="place" v="locality" />
		<tag k="ssr:stedsnr" v="420102" />
	</node>
	<node id="-24053" lat="68.7370916629" lon="15.7493083247">
		<tag k="name" v="Finnjonsagrava" />
		<tag k="natural" v="valley" />
		<tag k="place" v="locality" />
		<tag k="ssr:stedsnr" v="420012" />
	</node>
	<node id="-24052" lat="68.724577773" lon="15.6755666759">
		<tag k="name" v="Polljorddalen" />
		<tag k="natural" v="valley" />
		<tag k="place" v="locality" />
		<tag k="ssr:stedsnr" v="420005" />
	</node>
	<node id="-24051" lat="68.7392583319" lon="15.3708416683">
		<tag k="fixme" v="consider natural=peak for the most distinct mountains in the district" />
		<tag k="name" v="Bygdåsen" />
		<tag k="natural" v="hill" />
		<tag k="place" v="locality" />
		<tag k="ssr:stedsnr" v="511215" />
	</node>
	<node id="-24050" lat="68.6909250017" lon="14.8695611161">
		<tag k="name" v="Leirbogaksla" />
		<tag k="natural" v="ridge" />
		<tag k="place" v="locality" />
		<tag k="ssr:stedsnr" v="406723" />
	</node>
	<node id="-24039" lat="68.7041750002" lon="15.5331916595">
		<tag k="name" v="Strandstigen" />
		<tag k="natural" v="slope" />
		<tag k="place" v="locality" />
		<tag k="ssr:stedsnr" v="503799" />
	</node>
	<node id="-24035" lat="68.743091671" lon="15.2523444334">
		<tag k="name" v="Lamarkhaugen" />
		<tag k="natural" v="hill" />
		<tag k="place" v="locality" />
		<tag k="ssr:stedsnr" v="503749" />
	</node>
	<node id="-24033" lat="68.7451888859" lon="15.2882360979">
		<tag k="name" v="Storhaugen" />
		<tag k="natural" v="hill" />
		<tag k="place" v="locality" />
		<tag k="ssr:stedsnr" v="503747" />
	</node>
	<node id="-24027" lat="68.6903305516" lon="14.8116694362">
		<tag k="name" v="Djupdalen" />
		<tag k="natural" v="valley" />
		<tag k="place" v="locality" />
		<tag k="ssr:stedsnr" v="503624" />
	</node>
	<node id="-24022" lat="68.7544444428" lon="15.527411107">
		<tag k="fixme" v="consider natural=peak for the most distinct mountains in the district" />
		<tag k="name" v="Steinheia" />
		<tag k="natural" v="hill" />
		<tag k="place" v="locality" />
		<tag k="ssr:stedsnr" v="503419" />
	</node>
	<node id="-24018" lat="68.7197416628" lon="15.2292194426">
		<tag k="fixme" v="consider natural=peak for the most distinct mountains in the district" />
		<tag k="name" v="Nova" />
		<tag k="natural" v="hill" />
		<tag k="place" v="locality" />
		<tag k="ssr:stedsnr" v="386111" />
	</node>
	<node id="-24017" lat="68.7918194471" lon="15.231644449">
		<tag k="fixme" v="consider natural=peak for the most distinct mountains in the district" />
		<tag k="name" v="Vikheia" />
		<tag k="natural" v="hill" />
		<tag k="place" v="locality" />
		<tag k="ssr:stedsnr" v="503340" />
	</node>
	<node id="-24016" lat="68.8156277746" lon="15.3162111173">
		<tag k="fixme" v="consider natural=peak for the most distinct mountains in the district" />
		<tag k="name" v="Tverrfjellet" />
		<tag k="natural" v="hill" />
		<tag k="place" v="locality" />
		<tag k="ssr:stedsnr" v="503250" />
	</node>
	<node id="-24015" lat="68.72278056" lon="14.8821611091">
		<tag k="name" v="Kobbskardet" />
		<tag k="natural" v="valley" />
		<tag k="place" v="locality" />
		<tag k="ssr:stedsnr" v="503246" />
	</node>
	<node id="-24008" lat="68.6743111155" lon="15.1195444406">
		<tag k="fixme" v="consider natural=peak for the most distinct mountains in the district" />
		<tag k="name" v="Stortinden" />
		<tag k="natural" v="hill" />
		<tag k="place" v="locality" />
		<tag k="ssr:stedsnr" v="503167" />
	</node>
	<node id="-24005" lat="68.6950999982" lon="15.3159083209">
		<tag k="alt_name" v="Ronna" />
		<tag k="name" v="Råna" />
		<tag k="natural" v="hill" />
		<tag k="place" v="locality" />
		<tag k="ssr:stedsnr" v="503142" />
	</node>
	<node id="-24004" lat="68.6467611104" lon="15.7633527787">
		<tag k="fixme" v="consider natural=peak for the most distinct mountains in the district" />
		<tag k="name" v="Pøylfjellet" />
		<tag k="natural" v="hill" />
		<tag k="place" v="locality" />
		<tag k="ssr:stedsnr" v="503292" />
	</node>
	<node id="-24001" lat="68.8434833369" lon="15.3261555648">
		<tag k="name" v="Tinddalen" />
		<tag k="natural" v="valley" />
		<tag k="place" v="locality" />
		<tag k="ssr:stedsnr" v="503271" />
	</node>
	<node id="-23999" lat="68.8504083317" lon="15.8768222216">
		<tag k="alt_name" v="Kåpusdalen" />
		<tag k="name" v="Kåppusdalen" />
		<tag k="natural" v="valley" />
		<tag k="place" v="locality" />
		<tag k="ssr:stedsnr" v="503040" />
	</node>
	<node id="-23997" lat="68.8006194467" lon="15.640322222">
		<tag k="fixme" v="consider natural=peak for the most distinct mountains in the district" />
		<tag k="name" v="Knausen" />
		<tag k="natural" v="hill" />
		<tag k="place" v="locality" />
		<tag k="ssr:stedsnr" v="503095" />
	</node>
	<node id="-23992" lat="68.6987611141" lon="15.3681472247">
		<tag k="name" v="Ramnberget" />
		<tag k="natural" v="hill" />
		<tag k="place" v="locality" />
		<tag k="ssr:stedsnr" v="382813" />
	</node>
	<node id="-23990" lat="68.6539972203" lon="15.5436555459">
		<tag k="fixme" v="consider natural=peak for the most distinct mountains in the district" />
		<tag k="name" v="Galten" />
		<tag k="natural" v="hill" />
		<tag k="place" v="locality" />
		<tag k="ssr:stedsnr" v="502189" />
	</node>
	<node id="-23982" lat="68.6227277799" lon="15.6103583237">
		<tag k="name" v="Holen" />
		<tag k="natural" v="hill" />
		<tag k="place" v="locality" />
		<tag k="ssr:stedsnr" v="502007" />
	</node>
	<node id="-23981" lat="68.7811138927" lon="15.0843000041">
		<tag k="name" v="Johan-Hansahågen" />
		<tag k="natural" v="hill" />
		<tag k="place" v="locality" />
		<tag k="ssr:stedsnr" v="362987" />
	</node>
	<node id="-23980" lat="68.7377694446" lon="15.0624916738">
		<tag k="name" v="Lian" />
		<tag k="natural" v="slope" />
		<tag k="place" v="locality" />
		<tag k="ssr:stedsnr" v="362818" />
	</node>
	<node id="-23979" lat="68.8177999966" lon="15.8744194327">
		<tag k="name" v="Bjørnholla" />
		<tag k="natural" v="valley" />
		<tag k="place" v="locality" />
		<tag k="ssr:stedsnr" v="362710" />
	</node>
	<node id="-23977" lat="68.6847222214" lon="15.7650083243">
		<tag k="fixme" v="consider natural=peak for the most distinct mountains in the district" />
		<tag k="name" v="Lamarkfjellet" />
		<tag k="natural" v="hill" />
		<tag k="place" v="locality" />
		<tag k="ssr:stedsnr" v="362058" />
	</node>
	<node id="-23975" lat="68.5616888918" lon="15.3815722151">
		<tag k="name" v="Olahellaren" />
		<tag k="place" v="locality" />
		<tag k="ssr:stedsnr" v="362007" />
	</node>
	<node id="-23973" lat="68.7526833351" lon="15.9379138841">
		<tag k="name" v="Kjerka" />
		<tag k="natural" v="hill" />
		<tag k="place" v="locality" />
		<tag k="ssr:stedsnr" v="361768" />
	</node>
	<node id="-23972" lat="68.8140666657" lon="15.3534194358">
		<tag k="name" v="Bukkelægda" />
		<tag k="natural" v="slope" />
		<tag k="place" v="locality" />
		<tag k="ssr:stedsnr" v="361859" />
	</node>
	<node id="-23967" lat="68.6987527771" lon="14.8478333356">
		<tag k="fixme" v="consider natural=peak for the most distinct mountains in the district" />
		<tag k="name" v="Nattmålstuva" />
		<tag k="natural" v="hill" />
		<tag k="place" v="locality" />
		<tag k="ssr:stedsnr" v="359665" />
	</node>
	<node id="-23964" lat="68.7242055549" lon="15.6582916709">
		<tag k="name" v="Grøppern" />
		<tag k="natural" v="slope" />
		<tag k="place" v="locality" />
		<tag k="ssr:stedsnr" v="359003" />
	</node>
	<node id="-23961" lat="68.6993972228" lon="14.9064861214">
		<tag k="name" v="Mølnhusdalen" />
		<tag k="natural" v="valley" />
		<tag k="place" v="locality" />
		<tag k="ssr:stedsnr" v="345715" />
	</node>
	<node id="-23957" lat="68.7123194445" lon="14.979463895">
		<tag k="name" v="Karenhumpan" />
		<tag k="natural" v="hill" />
		<tag k="place" v="locality" />
		<tag k="ssr:stedsnr" v="345664" />
	</node>
	<node id="-23953" lat="68.6873999979" lon="14.914205563">
		<tag k="fixme" v="consider natural=peak for the most distinct mountains in the district" />
		<tag k="name" v="Storkråka" />
		<tag k="natural" v="hill" />
		<tag k="place" v="locality" />
		<tag k="ssr:stedsnr" v="345617" />
	</node>
	<node id="-23947" lat="68.6695111132" lon="15.0953833251">
		<tag k="name" v="Sokkarstorhaugen" />
		<tag k="natural" v="hill" />
		<tag k="place" v="locality" />
		<tag k="ssr:stedsnr" v="484769" />
	</node>
	<node id="-23941" lat="68.8236416627" lon="15.8755416564">
		<tag k="name" v="Tægan" />
		<tag k="natural" v="hill" />
		<tag k="place" v="locality" />
		<tag k="ssr:stedsnr" v="483717" />
	</node>
	<node id="-23937" lat="68.6209055603" lon="15.6051583236">
		<tag k="name" v="Kleivskarbergan" />
		<tag k="natural" v="hill" />
		<tag k="place" v="locality" />
		<tag k="ssr:stedsnr" v="339631" />
	</node>
	<node id="-23936" lat="68.6199277764" lon="15.6075749957">
		<tag k="name" v="Kleivskaret" />
		<tag k="natural" v="slope" />
		<tag k="place" v="locality" />
		<tag k="ssr:stedsnr" v="339628" />
	</node>
	<node id="-23933" lat="68.8045611075" lon="15.348633338">
		<tag k="name" v="Gropa" />
		<tag k="natural" v="valley" />
		<tag k="place" v="locality" />
		<tag k="ssr:stedsnr" v="482832" />
	</node>
	<node id="-23932" lat="68.741202773" lon="15.2805250101">
		<tag k="name" v="Vedhøggan" />
		<tag k="natural" v="slope" />
		<tag k="place" v="locality" />
		<tag k="ssr:stedsnr" v="338065" />
	</node>
	<node id="-23930" lat="68.7566972217" lon="15.935683341">
		<tag k="fixme" v="consider natural=peak for the most distinct mountains in the district" />
		<tag k="name" v="Mosen" />
		<tag k="natural" v="hill" />
		<tag k="place" v="locality" />
		<tag k="ssr:stedsnr" v="482740" />
	</node>
	<node id="-23929" lat="68.8951361129" lon="15.8645833324">
		<tag k="name" v="Holla" />
		<tag k="natural" v="valley" />
		<tag k="place" v="locality" />
		<tag k="ssr:stedsnr" v="482697" />
	</node>
	<node id="-23926" lat="68.7971999972" lon="15.9584749905">
		<tag k="name" v="Tomas-Jonsahallaren" />
		<tag k="natural" v="hill" />
		<tag k="place" v="locality" />
		<tag k="ssr:stedsnr" v="482534" />
	</node>
	<node id="-23923" lat="68.7288274436" lon="15.0509395044">
		<tag k="name" v="Storandberget" />
		<tag k="natural" v="hill" />
		<tag k="place" v="locality" />
		<tag k="ssr:stedsnr" v="480983" />
	</node>
	<node id="-23922" lat="68.6979833322" lon="14.8305722232">
		<tag k="fixme" v="consider natural=peak for the most distinct mountains in the district" />
		<tag k="name" v="Finnpertuva" />
		<tag k="natural" v="hill" />
		<tag k="place" v="locality" />
		<tag k="ssr:stedsnr" v="480668" />
	</node>
	<node id="-23921" lat="68.7228055512" lon="14.8468305548">
		<tag k="name" v="Koppskaret" />
		<tag k="natural" v="valley" />
		<tag k="place" v="locality" />
		<tag k="ssr:stedsnr" v="480644" />
	</node>
	<node id="-23920" lat="68.6007083335" lon="15.4025694527">
		<tag k="name" v="Geitberget" />
		<tag k="natural" v="hill" />
		<tag k="place" v="locality" />
		<tag k="ssr:stedsnr" v="480551" />
	</node>
	<node id="-23915" lat="68.6968638854" lon="15.475683342">
		<tag k="name" v="Rundhågen" />
		<tag k="natural" v="hill" />
		<tag k="place" v="locality" />
		<tag k="ssr:stedsnr" v="479793" />
	</node>
	<node id="-23914" lat="68.6815611095" lon="15.3211138857">
		<tag k="name" v="Elvenesdalen" />
		<tag k="natural" v="valley" />
		<tag k="place" v="locality" />
		<tag k="ssr:stedsnr" v="327807" />
	</node>
	<node id="-23910" lat="68.6695194469" lon="15.0995972349">
		<tag k="name" v="Sollidikan" />
		<tag k="natural" v="slope" />
		<tag k="place" v="locality" />
		<tag k="ssr:stedsnr" v="302763" />
	</node>
	<node id="-23909" lat="68.6684416655" lon="15.1016861069">
		<tag k="fixme" v="consider natural=peak for the most distinct mountains in the district" />
		<tag k="name" v="Trollvasshaugen" />
		<tag k="natural" v="hill" />
		<tag k="place" v="locality" />
		<tag k="ssr:stedsnr" v="302762" />
	</node>
	<node id="-23908" lat="68.7510999964" lon="15.0058583321">
		<tag k="fixme" v="consider natural=peak for the most distinct mountains in the district" />
		<tag k="name" v="Likkjreka" />
		<tag k="natural" v="hill" />
		<tag k="place" v="locality" />
		<tag k="ssr:stedsnr" v="302804" />
	</node>
	<node id="-23905" lat="68.7967916698" lon="15.8726777768">
		<tag k="name" v="Storstøa" />
		<tag k="natural" v="slope" />
		<tag k="place" v="locality" />
		<tag k="ssr:stedsnr" v="301373" />
	</node>
	<node id="-23903" lat="68.8148111135" lon="15.3619611113">
		<tag k="name" v="Storhaugen" />
		<tag k="natural" v="hill" />
		<tag k="place" v="locality" />
		<tag k="ssr:stedsnr" v="300860" />
	</node>
	<node id="-23900" lat="68.7752194454" lon="15.9435166728">
		<tag k="name" v="Storlia" />
		<tag k="natural" v="slope" />
		<tag k="place" v="locality" />
		<tag k="ssr:stedsnr" v="300524" />
	</node>
	<node id="-23899" lat="68.573138889" lon="15.4449527851">
		<tag k="name" v="Musbakkan" />
		<tag k="natural" v="slope" />
		<tag k="place" v="locality" />
		<tag k="ssr:stedsnr" v="300616" />
	</node>
	<node id="-23896" lat="68.7045166684" lon="14.9860361075">
		<tag k="name" v="Stuhaugen" />
		<tag k="natural" v="hill" />
		<tag k="place" v="locality" />
		<tag k="ssr:stedsnr" v="467681" />
	</node>
	<node id="-23892" lat="68.7038527776" lon="14.9901555531">
		<tag k="name" v="Holla" />
		<tag k="natural" v="valley" />
		<tag k="place" v="locality" />
		<tag k="ssr:stedsnr" v="467840" />
	</node>
	<node id="-23886" lat="68.797355559" lon="15.2490222252">
		<tag k="name" v="Knoppan" />
		<tag k="natural" v="hill" />
		<tag k="place" v="locality" />
		<tag k="ssr:stedsnr" v="465601" />
	</node>
	<node id="-23884" lat="68.756061107" lon="15.8554027814">
		<tag k="name" v="Haubakkan" />
		<tag k="natural" v="slope" />
		<tag k="place" v="locality" />
		<tag k="ssr:stedsnr" v="284409" />
	</node>
	<node id="-23881" lat="68.7147861078" lon="15.3863333421">
		<tag k="name" v="Munningsletta" />
		<tag k="place" v="locality" />
		<tag k="ssr:stedsnr" v="461893" />
	</node>
	<node id="-23880" lat="68.7208583313" lon="15.5544111048">
		<tag k="name" v="Langlia" />
		<tag k="natural" v="slope" />
		<tag k="place" v="locality" />
		<tag k="ssr:stedsnr" v="461753" />
	</node>
	<node id="-23879" lat="68.7248611077" lon="15.5674805525">
		<tag k="fixme" v="consider natural=peak for the most distinct mountains in the district" />
		<tag k="name" v="Mortenåsen" />
		<tag k="natural" v="hill" />
		<tag k="place" v="locality" />
		<tag k="ssr:stedsnr" v="461746" />
	</node>
	<node id="-23878" lat="68.7018361134" lon="15.3531166644">
		<tag k="fixme" v="consider natural=peak for the most distinct mountains in the district" />
		<tag k="name" v="Litlevassheia" />
		<tag k="natural" v="hill" />
		<tag k="place" v="locality" />
		<tag k="ssr:stedsnr" v="461720" />
	</node>
	<node id="-23877" lat="68.6841500022" lon="15.3323194451">
		<tag k="name" v="Vardhumpen" />
		<tag k="natural" v="hill" />
		<tag k="place" v="locality" />
		<tag k="ssr:stedsnr" v="461715" />
	</node>
	<node id="-23876" lat="68.6812305513" lon="15.3308722221">
		<tag k="name" v="Ramnlia" />
		<tag k="natural" v="slope" />
		<tag k="place" v="locality" />
		<tag k="ssr:stedsnr" v="461713" />
	</node>
	<node id="-23869" lat="68.6402194485" lon="15.5747583244">
		<tag k="name" v="Koppen" />
		<tag k="place" v="locality" />
		<tag k="ssr:stedsnr" v="461599" />
	</node>
	<node id="-23867" lat="68.6928027786" lon="15.4794833414">
		<tag k="name" v="Skreda" />
		<tag k="natural" v="hill" />
		<tag k="place" v="locality" />
		<tag k="ssr:stedsnr" v="461569" />
	</node>
	<node id="-23865" lat="68.8527416655" lon="15.3396055641">
		<tag k="name" v="Svartdalen" />
		<tag k="natural" v="valley" />
		<tag k="place" v="locality" />
		<tag k="ssr:stedsnr" v="461460" />
	</node>
	<node id="-23864" lat="68.8571527765" lon="15.3400694561">
		<tag k="name" v="Bonhammaren" />
		<tag k="natural" v="hill" />
		<tag k="place" v="locality" />
		<tag k="ssr:stedsnr" v="461457" />
	</node>
	<node id="-23861" lat="68.6354972184" lon="15.1809250081">
		<tag k="name" v="Røssvaet" />
		<tag k="natural" v="hill" />
		<tag k="place" v="locality" />
		<tag k="ssr:stedsnr" v="460968" />
	</node>
	<node id="-23860" lat="68.7298527777" lon="15.1973166747">
		<tag k="fixme" v="consider natural=peak for the most distinct mountains in the district" />
		<tag k="name" v="Svartåsen" />
		<tag k="natural" v="hill" />
		<tag k="place" v="locality" />
		<tag k="ssr:stedsnr" v="460896" />
	</node>
	<node id="-23854" lat="68.7015277819" lon="15.0822888957">
		<tag k="name" v="Olahaugen" />
		<tag k="natural" v="hill" />
		<tag k="place" v="locality" />
		<tag k="ssr:stedsnr" v="460662" />
	</node>
	<node id="-23853" lat="68.7020277794" lon="15.1496194509">
		<tag k="name" v="Kjellarhaugen" />
		<tag k="natural" v="hill" />
		<tag k="place" v="locality" />
		<tag k="ssr:stedsnr" v="460659" />
	</node>
	<node id="-23852" lat="68.7094611096" lon="15.1696694485">
		<tag k="alt_name" v="Hestholhompen" />
		<tag k="name" v="Hestholhumpen" />
		<tag k="natural" v="hill" />
		<tag k="place" v="locality" />
		<tag k="ssr:stedsnr" v="460646" />
	</node>
	<node id="-23850" lat="68.7119555598" lon="15.3406972186">
		<tag k="name" v="Nerhaugan" />
		<tag k="natural" v="hill" />
		<tag k="place" v="locality" />
		<tag k="ssr:stedsnr" v="460630" />
	</node>
	<node id="-23849" lat="68.7075833325" lon="15.3245444371">
		<tag k="name" v="Storvasshøgda" />
		<tag k="natural" v="valley" />
		<tag k="place" v="locality" />
		<tag k="ssr:stedsnr" v="460621" />
	</node>
	<node id="-23848" lat="68.657966665" lon="15.2798805439">
		<tag k="name" v="Tverråbakkan" />
		<tag k="natural" v="slope" />
		<tag k="place" v="locality" />
		<tag k="ssr:stedsnr" v="460597" />
	</node>
	<node id="-23846" lat="68.6783583322" lon="15.0660222139">
		<tag k="name" v="Storhaugen" />
		<tag k="natural" v="hill" />
		<tag k="place" v="locality" />
		<tag k="ssr:stedsnr" v="460369" />
	</node>
	<node id="-23843" lat="68.7482749964" lon="15.2850333293">
		<tag k="name" v="Litlhaugen" />
		<tag k="natural" v="hill" />
		<tag k="place" v="locality" />
		<tag k="ssr:stedsnr" v="460082" />
	</node>
	<node id="-23838" lat="68.7192138865" lon="15.3881111149">
		<tag k="name" v="Rishaugen" />
		<tag k="natural" v="hill" />
		<tag k="place" v="locality" />
		<tag k="ssr:stedsnr" v="279606" />
	</node>
	<node id="-23836" lat="68.694866667" lon="15.1835916551">
		<tag k="name" v="Siverthaugen" />
		<tag k="natural" v="hill" />
		<tag k="place" v="locality" />
		<tag k="ssr:stedsnr" v="278646" />
	</node>
	<node id="-23835" lat="68.7119222256" lon="15.1736749919">
		<tag k="fixme" v="consider natural=peak for the most distinct mountains in the district" />
		<tag k="name" v="Åsen" />
		<tag k="natural" v="hill" />
		<tag k="place" v="locality" />
		<tag k="ssr:stedsnr" v="278645" />
	</node>
	<node id="-23830" lat="68.7274333295" lon="15.212255546">
		<tag k="fixme" v="consider natural=peak for the most distinct mountains in the district" />
		<tag k="name" v="Langåsen" />
		<tag k="natural" v="hill" />
		<tag k="place" v="locality" />
		<tag k="ssr:stedsnr" v="261208" />
	</node>
	<node id="-23829" lat="68.7144777814" lon="14.9989694554">
		<tag k="fixme" v="consider natural=peak for the most distinct mountains in the district" />
		<tag k="name" v="Veten" />
		<tag k="natural" v="hill" />
		<tag k="place" v="locality" />
		<tag k="ssr:stedsnr" v="261316" />
	</node>
	<node id="-23828" lat="68.7106749964" lon="14.883324988">
		<tag k="fixme" v="consider natural=peak for the most distinct mountains in the district" />
		<tag k="name" v="Lakstinden" />
		<tag k="natural" v="hill" />
		<tag k="place" v="locality" />
		<tag k="ssr:stedsnr" v="261310" />
	</node>
	<node id="-23825" lat="68.7846722255" lon="15.6377444448">
		<tag k="fixme" v="consider natural=peak for the most distinct mountains in the district" />
		<tag k="name" v="Fuglan" />
		<tag k="natural" v="hill" />
		<tag k="place" v="locality" />
		<tag k="ssr:stedsnr" v="260114" />
	</node>
	<node id="-23822" lat="68.672374998" lon="15.1899527718">
		<tag k="fixme" v="consider natural=peak for the most distinct mountains in the district" />
		<tag k="name" v="Måstinden" />
		<tag k="natural" v="hill" />
		<tag k="place" v="locality" />
		<tag k="ssr:stedsnr" v="260220" />
	</node>
	<node id="-23820" lat="68.6806527773" lon="15.2574749989">
		<tag k="name" v="Humpan" />
		<tag k="natural" v="hill" />
		<tag k="place" v="locality" />
		<tag k="ssr:stedsnr" v="259163" />
	</node>
	<node id="-23819" lat="68.6662249997" lon="15.1283500023">
		<tag k="name" v="Straumfjordskaret" />
		<tag k="natural" v="valley" />
		<tag k="place" v="locality" />
		<tag k="ssr:stedsnr" v="453879" />
	</node>
	<node id="-23818" lat="68.8127583361" lon="15.8829972235">
		<tag k="name" v="Mannsletta" />
		<tag k="place" v="locality" />
		<tag k="ssr:stedsnr" v="241672" />
	</node>
	<node id="-23816" lat="68.8160916643" lon="15.8267138937">
		<tag k="name" v="Blankebergan" />
		<tag k="natural" v="hill" />
		<tag k="place" v="locality" />
		<tag k="ssr:stedsnr" v="241271" />
	</node>
	<node id="-23815" lat="68.8120277744" lon="15.8193222107">
		<tag k="alt_name" v="Lasshompen" />
		<tag k="name" v="Lasshumpen" />
		<tag k="natural" v="hill" />
		<tag k="place" v="locality" />
		<tag k="ssr:stedsnr" v="241269" />
	</node>
	<node id="-23813" lat="68.8006555542" lon="15.6540111067">
		<tag k="fixme" v="consider natural=peak for the most distinct mountains in the district" />
		<tag k="name" v="Litlefjellet" />
		<tag k="natural" v="hill" />
		<tag k="place" v="locality" />
		<tag k="ssr:stedsnr" v="238009" />
	</node>
	<node id="-23810" lat="68.728830551" lon="15.3901083436">
		<tag k="fixme" v="consider natural=peak for the most distinct mountains in the district" />
		<tag k="name" v="Bygdåsen" />
		<tag k="natural" v="hill" />
		<tag k="place" v="locality" />
		<tag k="ssr:stedsnr" v="443784" />
	</node>
	<node id="-23809" lat="68.7392416643" lon="15.207252788">
		<tag k="fixme" v="consider natural=peak for the most distinct mountains in the district" />
		<tag k="name" v="Hornet" />
		<tag k="natural" v="hill" />
		<tag k="place" v="locality" />
		<tag k="ssr:stedsnr" v="443781" />
	</node>
	<node id="-23808" lat="68.7317888915" lon="15.2653111059">
		<tag k="fixme" v="consider natural=peak for the most distinct mountains in the district" />
		<tag k="name" v="Tverrfjellet" />
		<tag k="natural" v="hill" />
		<tag k="place" v="locality" />
		<tag k="ssr:stedsnr" v="443726" />
	</node>
	<node id="-23807" lat="68.7337472204" lon="15.2121666758">
		<tag k="name" v="Djupdalen" />
		<tag k="natural" v="valley" />
		<tag k="place" v="locality" />
		<tag k="ssr:stedsnr" v="443721" />
	</node>
	<node id="-23800" lat="68.7567499992" lon="15.4754833317">
		<tag k="name" v="Maurnesdalen" />
		<tag k="natural" v="valley" />
		<tag k="place" v="locality" />
		<tag k="ssr:stedsnr" v="443447" />
	</node>
	<node id="-23798" lat="68.744344448" lon="15.8736888879">
		<tag k="name" v="Heidalen" />
		<tag k="natural" v="valley" />
		<tag k="place" v="locality" />
		<tag k="ssr:stedsnr" v="443444" />
	</node>
	<node id="-23797" lat="68.756586113" lon="15.5653166675">
		<tag k="alt_name" v="Urdtinden" />
		<tag k="fixme" v="consider natural=peak for the most distinct mountains in the district" />
		<tag k="name" v="Urtinden" />
		<tag k="natural" v="hill" />
		<tag k="ssr:stedsnr" v="443443" />
	</node>
	<node id="-23789" lat="68.7642222221" lon="15.8869888849">
		<tag k="name" v="Mosekulen" />
		<tag k="natural" v="hill" />
		<tag k="place" v="locality" />
		<tag k="ssr:stedsnr" v="443166" />
	</node>
	<node id="-23787" lat="68.8616999954" lon="15.912505565">
		<tag k="name" v="Rabben" />
		<tag k="natural" v="hill" />
		<tag k="place" v="locality" />
		<tag k="ssr:stedsnr" v="443042" />
	</node>
	<node id="-23786" lat="68.7149888902" lon="15.2497749992">
		<tag k="name" v="Holmstaddalen" />
		<tag k="natural" v="valley" />
		<tag k="place" v="locality" />
		<tag k="ssr:stedsnr" v="442892" />
	</node>
	<node id="-23783" lat="68.7215222231" lon="15.4610333306">
		<tag k="alt_name" v="Nerhågen" />
		<tag k="name" v="Nerhaugen" />
		<tag k="natural" v="hill" />
		<tag k="place" v="locality" />
		<tag k="ssr:stedsnr" v="442882" />
	</node>
	<node id="-23779" lat="68.7724138901" lon="15.5064472217">
		<tag k="fixme" v="consider natural=peak for the most distinct mountains in the district" />
		<tag k="name" v="Risaksla" />
		<tag k="natural" v="hill" />
		<tag k="place" v="locality" />
		<tag k="ssr:stedsnr" v="442746" />
	</node>
	<node id="-23777" lat="68.7042666668" lon="14.9057749878">
		<tag k="alt_name" v="Breidtinden" />
		<tag k="fixme" v="consider natural=peak for the most distinct mountains in the district" />
		<tag k="name" v="Breitinden" />
		<tag k="natural" v="hill" />
		<tag k="place" v="locality" />
		<tag k="ssr:stedsnr" v="442692" />
	</node>
	<node id="-23775" lat="68.6963027806" lon="14.9269222326">
		<tag k="fixme" v="consider natural=peak for the most distinct mountains in the district" />
		<tag k="name" v="Gangarhaugen" />
		<tag k="natural" v="hill" />
		<tag k="place" v="locality" />
		<tag k="ssr:stedsnr" v="442663" />
	</node>
	<node id="-23771" lat="68.6770833327" lon="14.8192972246">
		<tag k="name" v="Einhammaren" />
		<tag k="natural" v="hill" />
		<tag k="place" v="locality" />
		<tag k="ssr:stedsnr" v="224617" />
	</node>
	<node id="-23770" lat="68.6885305551" lon="14.9120805488">
		<tag k="name" v="Finnskaret" />
		<tag k="natural" v="valley" />
		<tag k="place" v="locality" />
		<tag k="ssr:stedsnr" v="224607" />
	</node>
	<node id="-23765" lat="68.714886115" lon="15.7032166735">
		<tag k="fixme" v="consider natural=peak for the most distinct mountains in the district" />
		<tag k="name" v="Skredtinden" />
		<tag k="natural" v="hill" />
		<tag k="place" v="locality" />
		<tag k="ssr:stedsnr" v="442461" />
	</node>
	<node id="-23764" lat="68.7671333376" lon="15.2540027756">
		<tag k="fixme" v="consider natural=peak for the most distinct mountains in the district" />
		<tag k="name" v="Bjørnåsen" />
		<tag k="natural" v="hill" />
		<tag k="place" v="locality" />
		<tag k="ssr:stedsnr" v="442416" />
	</node>
	<node id="-23760" lat="68.7980416679" lon="15.4964000119">
		<tag k="fixme" v="consider natural=peak for the most distinct mountains in the district" />
		<tag k="name" v="Åsen" />
		<tag k="natural" v="hill" />
		<tag k="place" v="locality" />
		<tag k="ssr:stedsnr" v="442374" />
	</node>
	<node id="-23756" lat="68.7831166641" lon="15.1300361062">
		<tag k="fixme" v="consider natural=peak for the most distinct mountains in the district" />
		<tag k="name" v="Grønlidalsheia" />
		<tag k="natural" v="hill" />
		<tag k="place" v="locality" />
		<tag k="ssr:stedsnr" v="442346" />
	</node>
	<node id="-23755" lat="68.7759833338" lon="15.0783805541">
		<tag k="alt_name" v="Gamhaugan" />
		<tag k="name" v="Gamhaugen" />
		<tag k="natural" v="hill" />
		<tag k="place" v="locality" />
		<tag k="ssr:stedsnr" v="442345" />
	</node>
	<node id="-23752" lat="68.7534055587" lon="15.6616027695">
		<tag k="name" v="Bjørndalen" />
		<tag k="natural" v="valley" />
		<tag k="place" v="locality" />
		<tag k="ssr:stedsnr" v="442325" />
	</node>
	<node id="-23750" lat="68.7157805548" lon="14.8499305657">
		<tag k="name" v="Melfjorddalen" />
		<tag k="natural" v="valley" />
		<tag k="place" v="locality" />
		<tag k="ssr:stedsnr" v="442312" />
	</node>
	<node id="-23742" lat="68.6444361078" lon="15.5872361053">
		<tag k="fixme" v="consider natural=peak for the most distinct mountains in the district" />
		<tag k="name" v="Vardtinden" />
		<tag k="natural" v="hill" />
		<tag k="place" v="locality" />
		<tag k="ssr:stedsnr" v="442269" />
	</node>
	<node id="-23741" lat="68.6706555589" lon="15.5221805554">
		<tag k="fixme" v="consider natural=peak for the most distinct mountains in the district" />
		<tag k="name" v="Kollen" />
		<tag k="natural" v="hill" />
		<tag k="place" v="locality" />
		<tag k="ssr:stedsnr" v="442255" />
	</node>
	<node id="-23740" lat="68.6030138914" lon="15.6293888861">
		<tag k="fixme" v="consider natural=peak for the most distinct mountains in the district" />
		<tag k="name" v="Stortinden" />
		<tag k="natural" v="hill" />
		<tag k="place" v="locality" />
		<tag k="ssr:stedsnr" v="442231" />
	</node>
	<node id="-23736" lat="68.7748611073" lon="15.8192416581">
		<tag k="name" v="Nerdalen" />
		<tag k="natural" v="valley" />
		<tag k="place" v="locality" />
		<tag k="ssr:stedsnr" v="442207" />
	</node>
	<node id="-23732" lat="68.687824998" lon="15.3739583426">
		<tag k="name" v="Prestdalen" />
		<tag k="natural" v="valley" />
		<tag k="place" v="locality" />
		<tag k="ssr:stedsnr" v="442147" />
	</node>
	<node id="-23729" lat="68.8195388895" lon="15.8749000008">
		<tag k="name" v="Frøysdalen" />
		<tag k="natural" v="valley" />
		<tag k="place" v="locality" />
		<tag k="ssr:stedsnr" v="442130" />
	</node>
	<node id="-23728" lat="68.5778472247" lon="15.3685861101">
		<tag k="fixme" v="consider natural=peak for the most distinct mountains in the district" />
		<tag k="name" v="Fuglen" />
		<tag k="natural" v="hill" />
		<tag k="place" v="locality" />
		<tag k="ssr:stedsnr" v="442112" />
	</node>
	<node id="-23725" lat="68.6030638876" lon="15.4771999942">
		<tag k="fixme" v="multiple name tags, choose one and add the other to alt_name" />
		<tag k="name" v="Botn;Djupfjordbotn" />
		<tag k="natural" v="valley" />
		<tag k="place" v="locality" />
		<tag k="ssr:stedsnr" v="442071" />
	</node>
	<node id="-23724" lat="68.5973250006" lon="15.4761027746">
		<tag k="name" v="Storvasshøgda" />
		<tag k="natural" v="hill" />
		<tag k="place" v="locality" />
		<tag k="ssr:stedsnr" v="442056" />
	</node>
	<node id="-23723" lat="68.592152776" lon="15.4997083261">
		<tag k="alt_name" v="Fugleberget" />
		<tag k="name" v="Fuglberget" />
		<tag k="natural" v="hill" />
		<tag k="place" v="locality" />
		<tag k="ssr:stedsnr" v="442054" />
	</node>
	<node id="-23719" lat="68.6188944475" lon="15.6323777795">
		<tag k="name" v="Skogrøstan" />
		<tag k="natural" v="slope" />
		<tag k="place" v="locality" />
		<tag k="ssr:stedsnr" v="218744" />
	</node>
	<node id="-23718" lat="68.6171944403" lon="15.6352499922">
		<tag k="name" v="Botnelvkrokan" />
		<tag k="natural" v="valley" />
		<tag k="place" v="locality" />
		<tag k="ssr:stedsnr" v="218742" />
	</node>
	<node id="-23716" lat="68.7036611119" lon="15.3766972098">
		<tag k="name" v="Lomtjønnåsen" />
		<tag k="natural" v="hill" />
		<tag k="place" v="locality" />
		<tag k="ssr:stedsnr" v="218704" />
	</node>
	<node id="-23715" lat="68.6962638932" lon="15.3647194479">
		<tag k="fixme" v="consider natural=peak for the most distinct mountains in the district" />
		<tag k="name" v="Koven" />
		<tag k="natural" v="hill" />
		<tag k="place" v="locality" />
		<tag k="ssr:stedsnr" v="218702" />
	</node>
	<node id="-23714" lat="68.6937777743" lon="15.5141138993">
		<tag k="name" v="Kolbrekkgropa" />
		<tag k="natural" v="valley" />
		<tag k="place" v="locality" />
		<tag k="ssr:stedsnr" v="218504" />
	</node>
	<node id="-23713" lat="68.6736805582" lon="15.0580500101">
		<tag k="name" v="Notskaret" />
		<tag k="natural" v="valley" />
		<tag k="place" v="locality" />
		<tag k="ssr:stedsnr" v="218310" />
	</node>
	<node id="-23711" lat="68.6341722199" lon="15.1927555441">
		<tag k="name" v="Skyålidalen" />
		<tag k="natural" v="valley" />
		<tag k="place" v="locality" />
		<tag k="ssr:stedsnr" v="217829" />
	</node>
	<node id="-23709" lat="68.6421666666" lon="15.2391166675">
		<tag k="name" v="Einhaugen" />
		<tag k="natural" v="hill" />
		<tag k="place" v="locality" />
		<tag k="ssr:stedsnr" v="217710" />
	</node>
	<node id="-23708" lat="68.6525611119" lon="15.2708416597">
		<tag k="name" v="Bågen" />
		<tag k="natural" v="slope" />
		<tag k="place" v="locality" />
		<tag k="ssr:stedsnr" v="217536" />
	</node>
	<node id="-23701" lat="68.7056027772" lon="14.865452785">
		<tag k="name" v="Lakslia" />
		<tag k="natural" v="slope" />
		<tag k="place" v="locality" />
		<tag k="ssr:stedsnr" v="298633" />
	</node>
	<node id="-23697" lat="68.8862805509" lon="15.9527000089">
		<tag k="name" v="Trongsmågan" />
		<tag k="natural" v="valley" />
		<tag k="place" v="locality" />
		<tag k="ssr:stedsnr" v="298518" />
	</node>
	<node id="-23695" lat="68.7626444422" lon="15.5617111082">
		<tag k="fixme" v="consider natural=peak for the most distinct mountains in the district" />
		<tag k="name" v="Litletuva" />
		<tag k="natural" v="hill" />
		<tag k="place" v="locality" />
		<tag k="ssr:stedsnr" v="298139" />
	</node>
	<node id="-23694" lat="68.777719444" lon="15.5083250108">
		<tag k="name" v="Skinnstakkskaret" />
		<tag k="natural" v="valley" />
		<tag k="place" v="locality" />
		<tag k="ssr:stedsnr" v="298129" />
	</node>
	<node id="-23693" lat="68.7732361074" lon="15.4769138828">
		<tag k="name" v="Nordkleiva" />
		<tag k="natural" v="slope" />
		<tag k="place" v="locality" />
		<tag k="ssr:stedsnr" v="298125" />
	</node>
	<node id="-23692" lat="68.6335499987" lon="15.655138892">
		<tag k="name" v="Langvassdalsskaret" />
		<tag k="natural" v="valley" />
		<tag k="place" v="locality" />
		<tag k="ssr:stedsnr" v="298069" />
	</node>
	<node id="-23690" lat="68.6689388912" lon="15.6200833452">
		<tag k="name" v="Rødskreda" />
		<tag k="natural" v="slope" />
		<tag k="place" v="locality" />
		<tag k="ssr:stedsnr" v="297765" />
	</node>
	<node id="-23685" lat="68.744977776" lon="15.1960444374">
		<tag k="fixme" v="consider natural=peak for the most distinct mountains in the district" />
		<tag k="name" v="Smååsen" />
		<tag k="natural" v="hill" />
		<tag k="place" v="locality" />
		<tag k="ssr:stedsnr" v="200762" />
	</node>
	<node id="-23684" lat="68.7479388904" lon="15.2487666546">
		<tag k="alt_name" v="Lomshaugan" />
		<tag k="name" v="Lomshaugen" />
		<tag k="natural" v="hill" />
		<tag k="place" v="locality" />
		<tag k="ssr:stedsnr" v="200758" />
	</node>
	<node id="-23682" lat="68.746600001" lon="15.8984999876">
		<tag k="alt_name" v="Bjørneråfjellet;Bjønnråfjellet" />
		<tag k="fixme" v="consider natural=peak for the most distinct mountains in the district" />
		<tag k="name" v="Bjørnråfjellet" />
		<tag k="natural" v="hill" />
		<tag k="place" v="locality" />
		<tag k="ssr:stedsnr" v="200425" />
	</node>
	<node id="-23678" lat="68.650347219" lon="15.7506111182">
		<tag k="name" v="Urddalen" />
		<tag k="natural" v="valley" />
		<tag k="place" v="locality" />
		<tag k="ssr:stedsnr" v="199313" />
	</node>
	<node id="-23675" lat="68.6582722224" lon="15.2716527883">
		<tag k="name" v="Kleivdalen" />
		<tag k="natural" v="valley" />
		<tag k="place" v="locality" />
		<tag k="ssr:stedsnr" v="199219" />
	</node>
	<node id="-23672" lat="68.5806027772" lon="15.3503888959">
		<tag k="fixme" v="consider natural=peak for the most distinct mountains in the district" />
		<tag k="name" v="Rødsandheia" />
		<tag k="natural" v="hill" />
		<tag k="place" v="locality" />
		<tag k="ssr:stedsnr" v="199110" />
	</node>
	<node id="-23670" lat="68.5980138869" lon="15.6034777889">
		<tag k="name" v="Gryta" />
		<tag k="natural" v="valley" />
		<tag k="place" v="locality" />
		<tag k="ssr:stedsnr" v="199107" />
	</node>
	<node id="-23667" lat="68.6720249954" lon="14.8107638968">
		<tag k="name" v="Niphaugen" />
		<tag k="natural" v="hill" />
		<tag k="place" v="locality" />
		<tag k="ssr:stedsnr" v="285685" />
	</node>
	<node id="-23666" lat="68.6727194451" lon="14.8149694395">
		<tag k="fixme" v="consider natural=peak for the most distinct mountains in the district" />
		<tag k="name" v="Ørntuva" />
		<tag k="natural" v="hill" />
		<tag k="place" v="locality" />
		<tag k="ssr:stedsnr" v="285683" />
	</node>
	<node id="-23662" lat="68.7065083324" lon="14.9964972195">
		<tag k="name" v="Slåttlidalen" />
		<tag k="natural" v="valley" />
		<tag k="place" v="locality" />
		<tag k="ssr:stedsnr" v="285649" />
	</node>
	<node id="-23661" lat="68.7100305517" lon="14.9790722137">
		<tag k="name" v="Stihaugen" />
		<tag k="natural" v="hill" />
		<tag k="place" v="locality" />
		<tag k="ssr:stedsnr" v="285647" />
	</node>
	<node id="-23660" lat="68.6805777803" lon="14.8508888789">
		<tag k="name" v="Jakobvikberget" />
		<tag k="natural" v="hill" />
		<tag k="place" v="locality" />
		<tag k="ssr:stedsnr" v="285643" />
	</node>
	<node id="-23659" lat="68.674027774" lon="14.8130388999">
		<tag k="name" v="Bønnbakkan" />
		<tag k="natural" v="slope" />
		<tag k="place" v="locality" />
		<tag k="ssr:stedsnr" v="285638" />
	</node>
	<node id="-23653" lat="68.7615083317" lon="15.7177250042">
		<tag k="fixme" v="consider natural=peak for the most distinct mountains in the district" />
		<tag k="name" v="Høgda" />
		<tag k="natural" v="hill" />
		<tag k="place" v="locality" />
		<tag k="ssr:stedsnr" v="180026" />
	</node>
	<node id="-23652" lat="68.70018611" lon="15.5944138932">
		<tag k="name" v="Skreddarparten" />
		<tag k="natural" v="slope" />
		<tag k="place" v="locality" />
		<tag k="ssr:stedsnr" v="179878" />
	</node>
	<node id="-23649" lat="68.9669777784" lon="15.8596583331">
		<tag k="name" v="Knebakkan" />
		<tag k="natural" v="slope" />
		<tag k="place" v="locality" />
		<tag k="ssr:stedsnr" v="179705" />
	</node>
	<node id="-23648" lat="68.9354249965" lon="15.9061277739">
		<tag k="name" v="Elvesletta" />
		<tag k="place" v="locality" />
		<tag k="ssr:stedsnr" v="179659" />
	</node>
	<node id="-23647" lat="68.9313166671" lon="15.9048111071">
		<tag k="name" v="Vedberget" />
		<tag k="natural" v="hill" />
		<tag k="place" v="locality" />
		<tag k="ssr:stedsnr" v="179657" />
	</node>
	<node id="-23643" lat="68.5984750031" lon="15.3589166771">
		<tag k="name" v="Storhamnhaugen" />
		<tag k="natural" v="hill" />
		<tag k="place" v="locality" />
		<tag k="ssr:stedsnr" v="179603" />
	</node>
	<node id="-23641" lat="68.7334083305" lon="15.1413110984">
		<tag k="name" v="Rypkjerrhaugen" />
		<tag k="natural" v="hill" />
		<tag k="place" v="locality" />
		<tag k="ssr:stedsnr" v="177973" />
	</node>
	<node id="-23635" lat="68.7531972185" lon="15.4997138802">
		<tag k="name" v="Lægda" />
		<tag k="natural" v="slope" />
		<tag k="place" v="locality" />
		<tag k="ssr:stedsnr" v="177812" />
	</node>
	<node id="-23632" lat="68.6080000034" lon="15.4248583393">
		<tag k="name" v="Øverforrahaugen" />
		<tag k="natural" v="hill" />
		<tag k="place" v="locality" />
		<tag k="ssr:stedsnr" v="177570" />
	</node>
	<node id="-23630" lat="68.7456083361" lon="15.8509472301">
		<tag k="name" v="Knorren" />
		<tag k="natural" v="slope" />
		<tag k="place" v="locality" />
		<tag k="ssr:stedsnr" v="177475" />
	</node>
	<node id="-23629" lat="68.742283334" lon="15.848619436">
		<tag k="fixme" v="consider natural=peak for the most distinct mountains in the district" />
		<tag k="name" v="Nakkekollen" />
		<tag k="natural" v="hill" />
		<tag k="place" v="locality" />
		<tag k="ssr:stedsnr" v="177461" />
	</node>
	<node id="-23628" lat="68.7434722226" lon="15.8442416667">
		<tag k="name" v="Nakken" />
		<tag k="natural" v="ridge" />
		<tag k="place" v="locality" />
		<tag k="ssr:stedsnr" v="177459" />
	</node>
	<node id="-23627" lat="68.8003916624" lon="15.5426666665">
		<tag k="name" v="Humpan" />
		<tag k="natural" v="hill" />
		<tag k="place" v="locality" />
		<tag k="ssr:stedsnr" v="284203" />
	</node>
	<node id="-23626" lat="68.7120750023" lon="14.9708750031">
		<tag k="name" v="Langskaret" />
		<tag k="natural" v="valley" />
		<tag k="place" v="locality" />
		<tag k="ssr:stedsnr" v="163667" />
	</node>
	<node id="-23623" lat="68.6897472241" lon="14.8183055574">
		<tag k="name" v="Djupdalskaret" />
		<tag k="natural" v="valley" />
		<tag k="place" v="locality" />
		<tag k="ssr:stedsnr" v="163714" />
	</node>
	<node id="-23622" lat="68.7597222225" lon="15.8866111085">
		<tag k="name" v="Mælitunga" />
		<tag k="natural" v="slope" />
		<tag k="place" v="locality" />
		<tag k="ssr:stedsnr" v="162416" />
	</node>
	<node id="-23618" lat="68.8111222255" lon="15.4969416679">
		<tag k="name" v="Kleivan" />
		<tag k="natural" v="slope" />
		<tag k="place" v="locality" />
		<tag k="ssr:stedsnr" v="279852" />
	</node>
	<node id="-23616" lat="68.7644666687" lon="15.0573694337">
		<tag k="name" v="Rikardhaugen" />
		<tag k="natural" v="hill" />
		<tag k="place" v="locality" />
		<tag k="ssr:stedsnr" v="279554" />
	</node>
	<node id="-23613" lat="68.6842083365" lon="15.4962916694">
		<tag k="name" v="Torvsjåbakken" />
		<tag k="natural" v="slope" />
		<tag k="place" v="locality" />
		<tag k="ssr:stedsnr" v="279538" />
	</node>
	<node id="-23612" lat="68.6619500038" lon="15.4785694414">
		<tag k="name" v="Kjellarbakken" />
		<tag k="natural" v="hill" />
		<tag k="place" v="locality" />
		<tag k="ssr:stedsnr" v="279512" />
	</node>
	<node id="-23610" lat="68.7303638872" lon="15.5901722335">
		<tag k="name" v="Mølnåsen" />
		<tag k="natural" v="slope" />
		<tag k="place" v="locality" />
		<tag k="ssr:stedsnr" v="158763" />
	</node>
	<node id="-23608" lat="68.7499500025" lon="15.6728000113">
		<tag k="name" v="Bykvannto" />
		<tag k="natural" v="slope" />
		<tag k="place" v="locality" />
		<tag k="ssr:stedsnr" v="279698" />
	</node>
	<node id="-23606" lat="68.6225305555" lon="15.6161027759">
		<tag k="name" v="Smålia" />
		<tag k="natural" v="slope" />
		<tag k="place" v="locality" />
		<tag k="ssr:stedsnr" v="279673" />
	</node>
	<node id="-23605" lat="68.6278416674" lon="15.5675194518">
		<tag k="name" v="Hella" />
		<tag k="natural" v="hill" />
		<tag k="place" v="locality" />
		<tag k="ssr:stedsnr" v="279666" />
	</node>
	<node id="-23603" lat="68.6395999995" lon="15.2090722269">
		<tag k="name" v="Lian" />
		<tag k="natural" v="slope" />
		<tag k="place" v="locality" />
		<tag k="ssr:stedsnr" v="278858" />
	</node>
	<node id="-23600" lat="68.7529777758" lon="15.579583338">
		<tag k="name" v="Trollberget" />
		<tag k="natural" v="hill" />
		<tag k="place" v="locality" />
		<tag k="ssr:stedsnr" v="278718" />
	</node>
	<node id="-23597" lat="68.7035416669" lon="15.1322555507">
		<tag k="name" v="Petterlelhaugen" />
		<tag k="natural" v="hill" />
		<tag k="place" v="locality" />
		<tag k="ssr:stedsnr" v="278656" />
	</node>
	<node id="-23595" lat="68.6883972218" lon="15.1860305658">
		<tag k="name" v="Litlhaugen" />
		<tag k="natural" v="hill" />
		<tag k="place" v="locality" />
		<tag k="ssr:stedsnr" v="278601" />
	</node>
	<node id="-23594" lat="68.6527277822" lon="15.3062722241">
		<tag k="name" v="Bakkan" />
		<tag k="natural" v="slope" />
		<tag k="place" v="locality" />
		<tag k="ssr:stedsnr" v="278600" />
	</node>
	<node id="-23593" lat="68.6608416684" lon="15.2964916614">
		<tag k="name" v="Godvetterhola" />
		<tag k="natural" v="valley" />
		<tag k="place" v="locality" />
		<tag k="ssr:stedsnr" v="278598" />
	</node>
	<node id="-23591" lat="68.6698694445" lon="15.3011444549">
		<tag k="name" v="Bjørnlia" />
		<tag k="natural" v="slope" />
		<tag k="place" v="locality" />
		<tag k="ssr:stedsnr" v="278590" />
	</node>
	<node id="-23584" lat="68.7664138859" lon="15.7958972319">
		<tag k="name" v="Vassmuren" />
		<tag k="natural" v="valley" />
		<tag k="place" v="locality" />
		<tag k="ssr:stedsnr" v="138200" />
	</node>
	<node id="-23582" lat="68.6694055582" lon="15.1347972138">
		<tag k="alt_name" v="Skata, litle" />
		<tag k="fixme" v="consider natural=peak for the most distinct mountains in the district" />
		<tag k="name" v="Litle Skata" />
		<tag k="natural" v="hill" />
		<tag k="place" v="locality" />
		<tag k="ssr:stedsnr" v="138190" />
	</node>
	<node id="-23579" lat="68.6839166709" lon="15.2809361127">
		<tag k="fixme" v="consider natural=peak for the most distinct mountains in the district" />
		<tag k="name" v="Bøblåheia" />
		<tag k="natural" v="hill" />
		<tag k="place" v="locality" />
		<tag k="ssr:stedsnr" v="138153" />
	</node>
	<node id="-23578" lat="68.6515833308" lon="15.1756083357">
		<tag k="fixme" v="consider natural=peak for the most distinct mountains in the district" />
		<tag k="name" v="Slåttliknulteren" />
		<tag k="natural" v="hill" />
		<tag k="place" v="locality" />
		<tag k="ssr:stedsnr" v="138216" />
	</node>
	<node id="-23576" lat="68.6608555539" lon="15.6374694418">
		<tag k="fixme" v="consider natural=peak for the most distinct mountains in the district" />
		<tag k="name" v="Nordheia" />
		<tag k="natural" v="hill" />
		<tag k="place" v="locality" />
		<tag k="ssr:stedsnr" v="138213" />
	</node>
	<node id="-23574" lat="68.9244944436" lon="15.8852444437">
		<tag k="name" v="Mikkel-Torsahågen" />
		<tag k="natural" v="hill" />
		<tag k="place" v="locality" />
		<tag k="ssr:stedsnr" v="118630" />
	</node>
	<node id="-23570" lat="68.6994138881" lon="15.5673388893">
		<tag k="name" v="Osvolldalen" />
		<tag k="natural" v="valley" />
		<tag k="place" v="locality" />
		<tag k="ssr:stedsnr" v="261810" />
	</node>
	<node id="-23564" lat="68.8134194409" lon="15.5793333273">
		<tag k="fixme" v="consider natural=peak for the most distinct mountains in the district" />
		<tag k="name" v="Øverlemmen" />
		<tag k="natural" v="hill" />
		<tag k="place" v="locality" />
		<tag k="ssr:stedsnr" v="261363" />
	</node>
	<node id="-23562" lat="68.8076194438" lon="15.3524250039">
		<tag k="name" v="Purkhaugen" />
		<tag k="natural" v="hill" />
		<tag k="place" v="locality" />
		<tag k="ssr:stedsnr" v="261263" />
	</node>
	<node id="-23557" lat="68.7934027813" lon="15.6777194368">
		<tag k="fixme" v="consider natural=peak for the most distinct mountains in the district" />
		<tag k="name" v="Litlefjellet" />
		<tag k="natural" v="hill" />
		<tag k="place" v="locality" />
		<tag k="ssr:stedsnr" v="261092" />
	</node>
	<node id="-23554" lat="68.7155222256" lon="15.3602277895">
		<tag k="fixme" v="consider natural=peak for the most distinct mountains in the district" />
		<tag k="name" v="Vassklubben" />
		<tag k="natural" v="hill" />
		<tag k="place" v="locality" />
		<tag k="ssr:stedsnr" v="260912" />
	</node>
	<node id="-23553" lat="68.7109777753" lon="15.1691555446">
		<tag k="fixme" v="consider natural=peak for the most distinct mountains in the district" />
		<tag k="name" v="Durmålskollen" />
		<tag k="natural" v="hill" />
		<tag k="place" v="locality" />
		<tag k="ssr:stedsnr" v="260901" />
	</node>
	<node id="-23551" lat="68.7163277776" lon="15.1992888966">
		<tag k="name" v="Nova" />
		<tag k="natural" v="hill" />
		<tag k="place" v="locality" />
		<tag k="ssr:stedsnr" v="260884" />
	</node>
	<node id="-23549" lat="68.7060777779" lon="15.1547333449">
		<tag k="fixme" v="consider natural=peak for the most distinct mountains in the district" />
		<tag k="name" v="Valfjordkollen" />
		<tag k="natural" v="hill" />
		<tag k="place" v="locality" />
		<tag k="ssr:stedsnr" v="260858" />
	</node>
	<node id="-23547" lat="68.7466527752" lon="15.2817722306">
		<tag k="name" v="Larshaugen" />
		<tag k="natural" v="hill" />
		<tag k="place" v="locality" />
		<tag k="ssr:stedsnr" v="260827" />
	</node>
	<node id="-23536" lat="68.7251638853" lon="15.8017611126">
		<tag k="fixme" v="consider natural=peak for the most distinct mountains in the district" />
		<tag k="name" v="Olnilsatinden" />
		<tag k="natural" v="hill" />
		<tag k="place" v="locality" />
		<tag k="ssr:stedsnr" v="260489" />
	</node>
	<node id="-23535" lat="68.7280666644" lon="15.8232555542">
		<tag k="name" v="Olnilsadalen" />
		<tag k="natural" v="valley" />
		<tag k="place" v="locality" />
		<tag k="ssr:stedsnr" v="260487" />
	</node>
	<node id="-23530" lat="68.7664083348" lon="15.2646583307">
		<tag k="fixme" v="consider natural=peak for the most distinct mountains in the district" />
		<tag k="name" v="Vedåsen" />
		<tag k="natural" v="hill" />
		<tag k="place" v="locality" />
		<tag k="ssr:stedsnr" v="260442" />
	</node>
	<node id="-23529" lat="68.7907555555" lon="15.126072221">
		<tag k="alt_name" v="Sandskardet" />
		<tag k="name" v="Sandskaret" />
		<tag k="natural" v="valley" />
		<tag k="place" v="locality" />
		<tag k="ssr:stedsnr" v="260411" />
	</node>
	<node id="-23526" lat="68.7715527766" lon="15.0382833448">
		<tag k="name" v="Likulen" />
		<tag k="natural" v="hill" />
		<tag k="place" v="locality" />
		<tag k="ssr:stedsnr" v="260366" />
	</node>
	<node id="-23525" lat="68.7759555525" lon="15.0961916766">
		<tag k="name" v="Storgamhaugen" />
		<tag k="natural" v="hill" />
		<tag k="place" v="locality" />
		<tag k="ssr:stedsnr" v="260365" />
	</node>
	<node id="-23524" lat="68.7797250005" lon="15.1122694431">
		<tag k="name" v="Svartberget" />
		<tag k="natural" v="hill" />
		<tag k="place" v="locality" />
		<tag k="ssr:stedsnr" v="260364" />
	</node>
	<node id="-23518" lat="68.7027194406" lon="14.840033338">
		<tag k="fixme" v="multiple name tags, choose one and add the other to alt_name; consider natural=peak for the most distinct mountains in the district" />
		<tag k="name" v="Finnpertuva;Ørntuva" />
		<tag k="natural" v="hill" />
		<tag k="place" v="locality" />
		<tag k="ssr:stedsnr" v="260352" />
	</node>
	<node id="-23517" lat="68.7170000002" lon="14.8809055458">
		<tag k="fixme" v="consider natural=peak for the most distinct mountains in the district" />
		<tag k="name" v="Melfjordtinden" />
		<tag k="natural" v="hill" />
		<tag k="place" v="locality" />
		<tag k="ssr:stedsnr" v="260340" />
	</node>
	<node id="-23515" lat="68.8122805529" lon="15.3224499977">
		<tag k="name" v="Bjørnhola" />
		<tag k="natural" v="valley" />
		<tag k="place" v="locality" />
		<tag k="ssr:stedsnr" v="260320" />
	</node>
	<node id="-23514" lat="68.8238527769" lon="15.3438027873">
		<tag k="name" v="Koven" />
		<tag k="natural" v="hill" />
		<tag k="place" v="locality" />
		<tag k="ssr:stedsnr" v="260315" />
	</node>
	<node id="-23513" lat="68.8232138881" lon="15.5581583411">
		<tag k="name" v="Stornestuva" />
		<tag k="natural" v="hill" />
		<tag k="place" v="locality" />
		<tag k="ssr:stedsnr" v="260311" />
	</node>
	<node id="-23509" lat="68.680638893" lon="15.6459138787">
		<tag k="fixme" v="consider natural=peak for the most distinct mountains in the district" />
		<tag k="name" v="Tverrfjellet" />
		<tag k="natural" v="hill" />
		<tag k="place" v="locality" />
		<tag k="ssr:stedsnr" v="260252" />
	</node>
	<node id="-23508" lat="68.7568916673" lon="15.7937249917">
		<tag k="fixme" v="consider natural=peak for the most distinct mountains in the district" />
		<tag k="name" v="Røyrtinden" />
		<tag k="natural" v="hill" />
		<tag k="place" v="locality" />
		<tag k="ssr:stedsnr" v="260188" />
	</node>
	<node id="-23504" lat="68.6851305547" lon="15.1800777819">
		<tag k="name" v="Vollhaugen" />
		<tag k="natural" v="hill" />
		<tag k="place" v="locality" />
		<tag k="ssr:stedsnr" v="260176" />
	</node>
	<node id="-23502" lat="68.6838555558" lon="15.3551083356">
		<tag k="name" v="Tverrfjellet" />
		<tag k="natural" v="slope" />
		<tag k="place" v="locality" />
		<tag k="ssr:stedsnr" v="260165" />
	</node>
	<node id="-23501" lat="68.5677638857" lon="15.594858335">
		<tag k="loc_name" v="Løbergsskardet" />
		<tag k="name" v="Løbergdalsskardet" />
		<tag k="natural" v="valley" />
		<tag k="place" v="locality" />
		<tag k="ssr:stedsnr" v="260151" />
	</node>
	<node id="-23499" lat="68.5763499986" lon="15.4412138901">
		<tag k="fixme" v="consider natural=peak for the most distinct mountains in the district" />
		<tag k="name" v="Klubben" />
		<tag k="natural" v="hill" />
		<tag k="place" v="locality" />
		<tag k="ssr:stedsnr" v="260096" />
	</node>
	<node id="-23497" lat="68.598919449" lon="15.4329388867">
		<tag k="fixme" v="consider natural=peak for the most distinct mountains in the district" />
		<tag k="name" v="Steinheia" />
		<tag k="natural" v="hill" />
		<tag k="place" v="locality" />
		<tag k="ssr:stedsnr" v="260072" />
	</node>
	<node id="-23490" lat="68.6702194432" lon="15.2807888763">
		<tag k="fixme" v="consider natural=peak for the most distinct mountains in the district" />
		<tag k="name" v="Tverrfjellet" />
		<tag k="natural" v="hill" />
		<tag k="place" v="locality" />
		<tag k="ssr:stedsnr" v="259151" />
	</node>
	<node id="-23489" lat="68.6656416701" lon="15.3086138991">
		<tag k="fixme" v="multiple name tags, choose one and add the other to alt_name" />
		<tag k="name" v="Litlesteinbakkan;Steigbakkan" />
		<tag k="natural" v="slope" />
		<tag k="place" v="locality" />
		<tag k="ssr:stedsnr" v="259147" />
	</node>
	<node id="-23486" lat="68.7085138866" lon="15.3788361117">
		<tag k="name" v="Grevhaugen" />
		<tag k="natural" v="hill" />
		<tag k="place" v="locality" />
		<tag k="ssr:stedsnr" v="97721" />
	</node>
	<node id="-23485" lat="68.6875416675" lon="15.3629222241">
		<tag k="name" v="Holmen" />
		<tag k="natural" v="slope" />
		<tag k="place" v="locality" />
		<tag k="ssr:stedsnr" v="97712" />
	</node>
	<node id="-23483" lat="68.6874583309" lon="15.5365138846">
		<tag k="name" v="Nylabakken" />
		<tag k="natural" v="slope" />
		<tag k="place" v="locality" />
		<tag k="ssr:stedsnr" v="97520" />
	</node>
	<node id="-23479" lat="68.6411555546" lon="15.19958333">
		<tag k="name" v="Bringebærhola" />
		<tag k="natural" v="slope" />
		<tag k="place" v="locality" />
		<tag k="ssr:stedsnr" v="96863" />
	</node>
	<node id="-23478" lat="68.6227749971" lon="15.6320888781">
		<tag k="name" v="Holen" />
		<tag k="natural" v="hill" />
		<tag k="place" v="locality" />
		<tag k="ssr:stedsnr" v="96624" />
	</node>
	<node id="-23477" lat="68.6219805555" lon="15.6469777795">
		<tag k="name" v="Finnskarhågen" />
		<tag k="natural" v="hill" />
		<tag k="place" v="locality" />
		<tag k="ssr:stedsnr" v="96622" />
	</node>
	<node id="-23473" lat="68.6524444454" lon="15.2799805464">
		<tag k="name" v="Tyttebærhågen" />
		<tag k="natural" v="hill" />
		<tag k="place" v="locality" />
		<tag k="ssr:stedsnr" v="96554" />
	</node>
	<node id="-23471" lat="68.7513416633" lon="15.6119888964">
		<tag k="name" v="Grønnlia" />
		<tag k="natural" v="slope" />
		<tag k="place" v="locality" />
		<tag k="ssr:stedsnr" v="96702" />
	</node>
	<node id="-23470" lat="68.7794555555" lon="15.2736527776">
		<tag k="name" v="Kvanntolægda" />
		<tag k="natural" v="slope" />
		<tag k="place" v="locality" />
		<tag k="ssr:stedsnr" v="96210" />
	</node>
	<node id="-23469" lat="68.7752027768" lon="15.2400055511">
		<tag k="name" v="Geitdalen" />
		<tag k="natural" v="valley" />
		<tag k="place" v="locality" />
		<tag k="ssr:stedsnr" v="96209" />
	</node>
	<node id="-23466" lat="68.7594194471" lon="15.978536102">
		<tag k="fixme" v="consider natural=peak for the most distinct mountains in the district" />
		<tag k="name" v="Kråkviktinden" />
		<tag k="natural" v="hill" />
		<tag k="place" v="locality" />
		<tag k="ssr:stedsnr" v="79166" />
	</node>
	<node id="-23458" lat="68.6703805562" lon="15.583836123">
		<tag k="name" v="Heia" />
		<tag k="natural" v="hill" />
		<tag k="place" v="locality" />
		<tag k="ssr:stedsnr" v="78240" />
	</node>
	<node id="-23457" lat="68.6508555536" lon="15.2416833251">
		<tag k="alt_name" v="Mundhaugen" />
		<tag k="name" v="Munnhaugen" />
		<tag k="natural" v="hill" />
		<tag k="place" v="locality" />
		<tag k="ssr:stedsnr" v="78227" />
	</node>
	<node id="-23456" lat="68.7398361084" lon="15.0547111052">
		<tag k="fixme" v="consider natural=peak for the most distinct mountains in the district" />
		<tag k="name" v="Tussen" />
		<tag k="natural" v="hill" />
		<tag k="place" v="locality" />
		<tag k="ssr:stedsnr" v="241787" />
	</node>
	<node id="-23453" lat="68.8763888923" lon="15.8946361027">
		<tag k="name" v="Øverdalen" />
		<tag k="natural" v="valley" />
		<tag k="place" v="locality" />
		<tag k="ssr:stedsnr" v="241682" />
	</node>
	<node id="-23451" lat="68.575908335" lon="15.3371888975">
		<tag k="name" v="Kuskrea" />
		<tag k="natural" v="slope" />
		<tag k="place" v="locality" />
		<tag k="ssr:stedsnr" v="241107" />
	</node>
	<node id="-23446" lat="68.9407722186" lon="15.9094388932">
		<tag k="name" v="Kleivsletta" />
		<tag k="place" v="locality" />
		<tag k="ssr:stedsnr" v="239717" />
	</node>
	<node id="-23444" lat="68.9503805556" lon="15.8673444383">
		<tag k="fixme" v="consider natural=peak for the most distinct mountains in the district" />
		<tag k="name" v="Tretindan" />
		<tag k="natural" v="hill" />
		<tag k="place" v="locality" />
		<tag k="ssr:stedsnr" v="239701" />
	</node>
	<node id="-23443" lat="68.9327972211" lon="15.9025277675">
		<tag k="name" v="Gammeltorvhågan" />
		<tag k="natural" v="hill" />
		<tag k="place" v="locality" />
		<tag k="ssr:stedsnr" v="239673" />
	</node>
	<node id="-23441" lat="68.9352333328" lon="15.8615888831">
		<tag k="fixme" v="consider natural=peak for the most distinct mountains in the district" />
		<tag k="name" v="Breiramnen" />
		<tag k="natural" v="hill" />
		<tag k="place" v="locality" />
		<tag k="ssr:stedsnr" v="239661" />
	</node>
	<node id="-23439" lat="68.7727305512" lon="15.2076638911">
		<tag k="fixme" v="consider natural=peak for the most distinct mountains in the district" />
		<tag k="name" v="Nattmålstuva" />
		<tag k="natural" v="hill" />
		<tag k="place" v="locality" />
		<tag k="ssr:stedsnr" v="239618" />
	</node>
	<node id="-23438" lat="68.5953527745" lon="15.3469083237">
		<tag k="name" v="Rødbergan" />
		<tag k="natural" v="hill" />
		<tag k="place" v="locality" />
		<tag k="ssr:stedsnr" v="239610" />
	</node>
	<node id="-23436" lat="68.7816527805" lon="15.2478805677">
		<tag k="name" v="Sørheia" />
		<tag k="natural" v="hill" />
		<tag k="place" v="locality" />
		<tag k="ssr:stedsnr" v="239592" />
	</node>
	<node id="-23435" lat="68.781338891" lon="16.0011722293">
		<tag k="name" v="Kråkvikskaret" />
		<tag k="natural" v="valley" />
		<tag k="place" v="locality" />
		<tag k="ssr:stedsnr" v="239568" />
	</node>
	<node id="-23433" lat="68.7748277805" lon="15.9365694465">
		<tag k="name" v="Middagsdalen" />
		<tag k="natural" v="valley" />
		<tag k="place" v="locality" />
		<tag k="ssr:stedsnr" v="239502" />
	</node>
	<node id="-23431" lat="68.774016663" lon="15.0479638829">
		<tag k="name" v="Seljerånna" />
		<tag k="natural" v="slope" />
		<tag k="place" v="locality" />
		<tag k="ssr:stedsnr" v="239165" />
	</node>
	<node id="-23430" lat="68.7285888888" lon="15.052980546">
		<tag k="name" v="Litjandberget" />
		<tag k="natural" v="hill" />
		<tag k="place" v="locality" />
		<tag k="ssr:stedsnr" v="238969" />
	</node>
	<node id="-23429" lat="68.7293944449" lon="15.0611333294">
		<tag k="name" v="Brygghaugen" />
		<tag k="natural" v="hill" />
		<tag k="place" v="locality" />
		<tag k="ssr:stedsnr" v="238963" />
	</node>
	<node id="-23428" lat="68.7501499992" lon="15.5330805513">
		<tag k="fixme" v="consider natural=peak for the most distinct mountains in the district" />
		<tag k="name" v="Skarvheia" />
		<tag k="natural" v="hill" />
		<tag k="place" v="locality" />
		<tag k="ssr:stedsnr" v="238809" />
	</node>
	<node id="-23425" lat="68.6977416695" lon="14.8706055626">
		<tag k="name" v="Pålhaugen" />
		<tag k="natural" v="hill" />
		<tag k="place" v="locality" />
		<tag k="ssr:stedsnr" v="238657" />
	</node>
	<node id="-23422" lat="68.7499083292" lon="15.5085888884">
		<tag k="name" v="Bjørnberget" />
		<tag k="natural" v="hill" />
		<tag k="place" v="locality" />
		<tag k="ssr:stedsnr" v="56801" />
	</node>
	<node id="-23421" lat="68.7073944437" lon="15.5031194472">
		<tag k="name" v="Skrammelhola" />
		<tag k="natural" v="valley" />
		<tag k="place" v="locality" />
		<tag k="ssr:stedsnr" v="237793" />
	</node>
	<node id="-23407" lat="68.7488944444" lon="15.2266000119">
		<tag k="alt_name" v="Storhaugen, nedre" />
		<tag k="name" v="Nedre Storhaugen" />
		<tag k="natural" v="hill" />
		<tag k="place" v="locality" />
		<tag k="ssr:stedsnr" v="18727" />
	</node>
	<node id="-23406" lat="68.7119666665" lon="14.9720611211">
		<tag k="name" v="Rundhaugen" />
		<tag k="natural" v="hill" />
		<tag k="place" v="locality" />
		<tag k="ssr:stedsnr" v="224652" />
	</node>
	<node id="-23404" lat="68.707705557" lon="14.9643916792">
		<tag k="name" v="Klubba" />
		<tag k="natural" v="hill" />
		<tag k="place" v="locality" />
		<tag k="ssr:stedsnr" v="224644" />
	</node>
	<node id="-23402" lat="68.7105416624" lon="14.9807499969">
		<tag k="name" v="Stihola" />
		<tag k="natural" v="valley" />
		<tag k="place" v="locality" />
		<tag k="ssr:stedsnr" v="224628" />
	</node>
	<node id="-23399" lat="68.7437194417" lon="14.9994805485">
		<tag k="fixme" v="consider natural=peak for the most distinct mountains in the district" />
		<tag k="loc_name:se" v="Goaivu" />
		<tag k="name" v="Reka - Goivo" />
		<tag k="name:no" v="Reka" />
		<tag k="name:se" v="Goivo" />
		<tag k="natural" v="hill" />
		<tag k="place" v="locality" />
		<tag k="ssr:stedsnr" v="18320" />
	</node>
	<node id="-23391" lat="68.6726361149" lon="15.1709611016">
		<tag k="alt_name" v="Urdhaugen" />
		<tag k="name" v="Urhaugen" />
		<tag k="natural" v="hill" />
		<tag k="place" v="locality" />
		<tag k="ssr:stedsnr" v="17210" />
	</node>
	<node id="-23389" lat="68.673802782" lon="15.3093666572">
		<tag k="name" v="Bjørnliheia" />
		<tag k="natural" v="slope" />
		<tag k="place" v="locality" />
		<tag k="ssr:stedsnr" v="17203" />
	</node>
	<node id="-23386" lat="68.8128111082" lon="15.3486388985">
		<tag k="name" v="Storknollen" />
		<tag k="natural" v="hill" />
		<tag k="place" v="locality" />
		<tag k="ssr:stedsnr" v="17313" />
	</node>
	<node id="-23385" lat="68.7583222218" lon="15.8818805646">
		<tag k="name" v="Rødlia" />
		<tag k="natural" v="slope" />
		<tag k="place" v="locality" />
		<tag k="ssr:stedsnr" v="223431" />
	</node>
	<node id="-23384" lat="68.7376944425" lon="15.8531416636">
		<tag k="name" v="Lekterhågen" />
		<tag k="natural" v="hill" />
		<tag k="place" v="locality" />
		<tag k="ssr:stedsnr" v="223424" />
	</node>
	<node id="-23382" lat="68.7225249994" lon="15.4865972234">
		<tag k="name" v="Nerhågen" />
		<tag k="natural" v="hill" />
		<tag k="place" v="locality" />
		<tag k="ssr:stedsnr" v="223231" />
	</node>
	<node id="-23375" lat="68.7233499968" lon="15.3375611223">
		<tag k="name" v="Tindholsnaget" />
		<tag k="natural" v="hill" />
		<tag k="place" v="locality" />
		<tag k="ssr:stedsnr" v="218943" />
	</node>
	<node id="-23374" lat="68.7207777796" lon="15.1654166617">
		<tag k="name" v="Gaphaugen" />
		<tag k="natural" v="hill" />
		<tag k="place" v="locality" />
		<tag k="ssr:stedsnr" v="218883" />
	</node>
	<node id="-23369" lat="68.6188250045" lon="15.6054249901">
		<tag k="name" v="Hella" />
		<tag k="natural" v="hill" />
		<tag k="place" v="locality" />
		<tag k="ssr:stedsnr" v="218638" />
	</node>
	<node id="-23368" lat="68.6223000004" lon="15.6057666642">
		<tag k="name" v="Sauholbergan" />
		<tag k="natural" v="hill" />
		<tag k="place" v="locality" />
		<tag k="ssr:stedsnr" v="218634" />
	</node>
	<node id="-23364" lat="68.6655055597" lon="15.4771861023">
		<tag k="name" v="Høgda" />
		<tag k="natural" v="hill" />
		<tag k="place" v="locality" />
		<tag k="ssr:stedsnr" v="218490" />
	</node>
	<node id="-23359" lat="68.6442527765" lon="15.2324694462">
		<tag k="name" v="Laukhamran" />
		<tag k="natural" v="hill" />
		<tag k="place" v="locality" />
		<tag k="ssr:stedsnr" v="217727" />
	</node>
	<node id="-23358" lat="68.6324416692" lon="15.2443333295">
		<tag k="name" v="Berget" />
		<tag k="natural" v="hill" />
		<tag k="place" v="locality" />
		<tag k="ssr:stedsnr" v="217718" />
	</node>
	<node id="-25146" lat="68.7055388865" lon="15.5556333302">
		<tag k="name" v="Bjørndalen" />
		<tag k="natural" v="valley" />
		<tag k="place" v="locality" />
		<tag k="ssr:stedsnr" v="139795" />
	</node>
	<node id="-25137" lat="68.7371527771" lon="15.8984250101">
		<tag k="name" v="Vesterdalen" />
		<tag k="natural" v="valley" />
		<tag k="place" v="locality" />
		<tag k="ssr:stedsnr" v="139470" />
	</node>
	<node id="-25136" lat="68.753947223" lon="15.7404527711">
		<tag k="fixme" v="consider natural=peak for the most distinct mountains in the district" />
		<tag k="name" v="Eidesfjellet" />
		<tag k="natural" v="hill" />
		<tag k="place" v="locality" />
		<tag k="ssr:stedsnr" v="139457" />
	</node>
	<node id="-25133" lat="68.753566665" lon="15.5895666669">
		<tag k="name" v="Gårdsdalen" />
		<tag k="natural" v="valley" />
		<tag k="place" v="locality" />
		<tag k="ssr:stedsnr" v="139451" />
	</node>
	<node id="-25128" lat="68.7651194401" lon="15.5101916706">
		<tag k="name" v="Litlheia" />
		<tag k="natural" v="hill" />
		<tag k="place" v="locality" />
		<tag k="ssr:stedsnr" v="139422" />
	</node>
	<node id="-25126" lat="68.658133333" lon="15.6691499987">
		<tag k="fixme" v="consider natural=peak for the most distinct mountains in the district" />
		<tag k="name" v="Sæterdalstindan" />
		<tag k="natural" v="hill" />
		<tag k="place" v="locality" />
		<tag k="ssr:stedsnr" v="139301" />
	</node>
	<node id="-25125" lat="68.6864055553" lon="15.6637166608">
		<tag k="fixme" v="consider natural=peak for the most distinct mountains in the district" />
		<tag k="name" v="Meraftatinden" />
		<tag k="natural" v="hill" />
		<tag k="place" v="locality" />
		<tag k="ssr:stedsnr" v="139250" />
	</node>
	<node id="-25117" lat="68.561344443" lon="15.3715388925">
		<tag k="name" v="Storhaugen" />
		<tag k="natural" v="hill" />
		<tag k="place" v="locality" />
		<tag k="ssr:stedsnr" v="139137" />
	</node>
	<node id="-25115" lat="68.7970611123" lon="15.8207777659">
		<tag k="fixme" v="consider natural=peak for the most distinct mountains in the district" />
		<tag k="name" v="Kjerkegårdsheia" />
		<tag k="natural" v="hill" />
		<tag k="place" v="locality" />
		<tag k="ssr:stedsnr" v="139105" />
	</node>
	<node id="-25114" lat="68.7879611097" lon="15.9961444381">
		<tag k="name" v="Merrvikholten" />
		<tag k="natural" v="hill" />
		<tag k="place" v="locality" />
		<tag k="ssr:stedsnr" v="139090" />
	</node>
	<node id="-25112" lat="68.716380555" lon="15.5484583383">
		<tag k="name" v="Middagsdalen" />
		<tag k="natural" v="valley" />
		<tag k="place" v="locality" />
		<tag k="ssr:stedsnr" v="138862" />
	</node>
	<node id="-25111" lat="68.7181694405" lon="15.5626805625">
		<tag k="fixme" v="consider natural=peak for the most distinct mountains in the district" />
		<tag k="name" v="Middagstinden" />
		<tag k="natural" v="hill" />
		<tag k="place" v="locality" />
		<tag k="ssr:stedsnr" v="138861" />
	</node>
	<node id="-25105" lat="68.7116555563" lon="15.647211101">
		<tag k="fixme" v="multiple name tags, choose one and add the other to alt_name" />
		<tag k="name" v="Osvollskardet;Skaret" />
		<tag k="natural" v="valley" />
		<tag k="place" v="locality" />
		<tag k="ssr:stedsnr" v="138467" />
	</node>
	<node id="-25103" lat="68.7186527773" lon="15.7633555638">
		<tag k="fixme" v="consider natural=peak for the most distinct mountains in the district" />
		<tag k="name" v="Tennefjellet" />
		<tag k="natural" v="hill" />
		<tag k="place" v="locality" />
		<tag k="ssr:stedsnr" v="138457" />
	</node>
	<node id="-25102" lat="68.7183055537" lon="15.6244416606">
		<tag k="name" v="Reindalen" />
		<tag k="natural" v="valley" />
		<tag k="place" v="locality" />
		<tag k="ssr:stedsnr" v="138452" />
	</node>
	<node id="-25101" lat="68.7309111075" lon="15.6832166703">
		<tag k="fixme" v="consider natural=peak for the most distinct mountains in the district" />
		<tag k="name" v="Polljordtinden" />
		<tag k="natural" v="hill" />
		<tag k="place" v="locality" />
		<tag k="ssr:stedsnr" v="138441" />
	</node>
	<node id="-25100" lat="68.7657166648" lon="15.1813861069">
		<tag k="name" v="Skogfjellet" />
		<tag k="natural" v="hill" />
		<tag k="place" v="locality" />
		<tag k="ssr:stedsnr" v="138417" />
	</node>
	<node id="-25099" lat="68.7447333362" lon="14.9713250035">
		<tag k="name" v="Rekskardet" />
		<tag k="natural" v="valley" />
		<tag k="place" v="locality" />
		<tag k="ssr:stedsnr" v="138369" />
	</node>
	<node id="-25092" lat="68.8338750025" lon="15.2815388778">
		<tag k="name" v="Middagsdalen" />
		<tag k="natural" v="valley" />
		<tag k="place" v="locality" />
		<tag k="ssr:stedsnr" v="138312" />
	</node>
	<node id="-25091" lat="68.6934694419" lon="14.8942055458">
		<tag k="alt_name" v="Solumstinden" />
		<tag k="fixme" v="consider natural=peak for the most distinct mountains in the district" />
		<tag k="name" v="Solumtinden" />
		<tag k="natural" v="hill" />
		<tag k="place" v="locality" />
		<tag k="ssr:stedsnr" v="138690" />
	</node>
	<node id="-25088" lat="68.5447944471" lon="15.4523083331">
		<tag k="fixme" v="consider natural=peak for the most distinct mountains in the district" />
		<tag k="name" v="Grøntinden" />
		<tag k="natural" v="hill" />
		<tag k="place" v="locality" />
		<tag k="ssr:stedsnr" v="138111" />
	</node>
	<node id="-25084" lat="68.7796499991" lon="15.9641555434">
		<tag k="name" v="Durmålsålen" />
		<tag k="natural" v="valley" />
		<tag k="place" v="locality" />
		<tag k="ssr:stedsnr" v="138078" />
	</node>
	<node id="-25083" lat="68.5729249999" lon="15.4192527837">
		<tag k="fixme" v="consider natural=peak for the most distinct mountains in the district" />
		<tag k="name" v="Vasstinden" />
		<tag k="natural" v="hill" />
		<tag k="place" v="locality" />
		<tag k="ssr:stedsnr" v="138076" />
	</node>
	<node id="-25081" lat="68.593908334" lon="15.3884777741">
		<tag k="name" v="Bjørnholhaugen" />
		<tag k="natural" v="hill" />
		<tag k="place" v="locality" />
		<tag k="ssr:stedsnr" v="138057" />
	</node>
	<node id="-25078" lat="68.8358611121" lon="15.8588972315">
		<tag k="fixme" v="consider natural=peak for the most distinct mountains in the district" />
		<tag k="name" v="Båtfjellet" />
		<tag k="natural" v="hill" />
		<tag k="place" v="locality" />
		<tag k="ssr:stedsnr" v="138024" />
	</node>
	<node id="-25070" lat="68.7379111077" lon="14.9655305612">
		<tag k="name" v="Heggen" />
		<tag k="natural" v="slope" />
		<tag k="place" v="locality" />
		<tag k="ssr:stedsnr" v="120848" />
	</node>
	<node id="-25069" lat="68.7385222256" lon="15.0632083312">
		<tag k="name" v="Litletussen" />
		<tag k="natural" v="hill" />
		<tag k="place" v="locality" />
		<tag k="ssr:stedsnr" v="120800" />
	</node>
	<node id="-25067" lat="68.6678055579" lon="15.0617027845">
		<tag k="name" v="Høgskaret" />
		<tag k="natural" v="valley" />
		<tag k="place" v="locality" />
		<tag k="ssr:stedsnr" v="120766" />
	</node>
	<node id="-25066" lat="68.6568944448" lon="15.053722221">
		<tag k="name" v="Langvassdalen" />
		<tag k="natural" v="valley" />
		<tag k="place" v="locality" />
		<tag k="ssr:stedsnr" v="120763" />
	</node>
	<node id="-25065" lat="68.5800000023" lon="15.3271416649">
		<tag k="name" v="Einsletta" />
		<tag k="place" v="locality" />
		<tag k="ssr:stedsnr" v="120116" />
	</node>
	<node id="-25063" lat="68.5722972212" lon="15.3536416558">
		<tag k="name" v="Slåttligropa" />
		<tag k="natural" v="valley" />
		<tag k="place" v="locality" />
		<tag k="ssr:stedsnr" v="120109" />
	</node>
	<node id="-25061" lat="68.793341665" lon="15.8672638964">
		<tag k="name" v="Lorenslia" />
		<tag k="natural" v="slope" />
		<tag k="place" v="locality" />
		<tag k="ssr:stedsnr" v="119409" />
	</node>
	<node id="-25059" lat="68.7735055532" lon="15.8487444468">
		<tag k="name" v="Hamran" />
		<tag k="natural" v="hill" />
		<tag k="place" v="locality" />
		<tag k="ssr:stedsnr" v="119350" />
	</node>
	<node id="-25057" lat="68.7982388879" lon="15.8616083207">
		<tag k="name" v="Steinlia" />
		<tag k="natural" v="slope" />
		<tag k="place" v="locality" />
		<tag k="ssr:stedsnr" v="119393" />
	</node>
	<node id="-25056" lat="68.8113305563" lon="15.3500555609">
		<tag k="fixme" v="consider natural=peak for the most distinct mountains in the district" />
		<tag k="name" v="Litleknollen" />
		<tag k="natural" v="hill" />
		<tag k="place" v="locality" />
		<tag k="ssr:stedsnr" v="118827" />
	</node>
	<node id="-25054" lat="68.5820583335" lon="15.4151916576">
		<tag k="name" v="Svartdalshumpen" />
		<tag k="natural" v="hill" />
		<tag k="place" v="locality" />
		<tag k="ssr:stedsnr" v="118579" />
	</node>
	<node id="-25052" lat="68.7312444477" lon="15.0539249924">
		<tag k="name" v="Nordre Andberg" />
		<tag k="natural" v="hill" />
		<tag k="place" v="locality" />
		<tag k="ssr:stedsnr" v="117974" />
	</node>
	<node id="-25051" lat="68.7548027761" lon="15.0811083375">
		<tag k="name" v="Ekteskapsberget" />
		<tag k="natural" v="hill" />
		<tag k="place" v="locality" />
		<tag k="ssr:stedsnr" v="117965" />
	</node>
	<node id="-25050" lat="68.744413891" lon="15.1392805556">
		<tag k="name" v="Skjånestuva" />
		<tag k="natural" v="hill" />
		<tag k="place" v="locality" />
		<tag k="ssr:stedsnr" v="117960" />
	</node>
	<node id="-25048" lat="68.7450722267" lon="15.5220472207">
		<tag k="name" v="Rishågen" />
		<tag k="natural" v="hill" />
		<tag k="place" v="locality" />
		<tag k="ssr:stedsnr" v="116801" />
	</node>
	<node id="-25047" lat="68.7126333345" lon="15.4881333415">
		<tag k="name" v="Rishågen" />
		<tag k="natural" v="hill" />
		<tag k="place" v="locality" />
		<tag k="ssr:stedsnr" v="116798" />
	</node>
	<node id="-25045" lat="68.7557027749" lon="15.5242027786">
		<tag k="name" v="Svartdalen" />
		<tag k="natural" v="valley" />
		<tag k="place" v="locality" />
		<tag k="ssr:stedsnr" v="116788" />
	</node>
	<node id="-25044" lat="68.7504499955" lon="15.5174416766">
		<tag k="name" v="Lægdknollen" />
		<tag k="natural" v="hill" />
		<tag k="place" v="locality" />
		<tag k="ssr:stedsnr" v="116786" />
	</node>
	<node id="-25040" lat="68.6012500007" lon="15.4048888991">
		<tag k="name" v="Vedhøggan" />
		<tag k="natural" v="slope" />
		<tag k="place" v="locality" />
		<tag k="ssr:stedsnr" v="116538" />
	</node>
	<node id="-25039" lat="68.7198749967" lon="14.8140361142">
		<tag k="name" v="Holmtelgen" />
		<tag k="natural" v="slope" />
		<tag k="place" v="locality" />
		<tag k="ssr:stedsnr" v="116628" />
	</node>
	<node id="-25037" lat="68.6450222226" lon="15.6592888788">
		<tag k="name" v="Hallbekkeskaret" />
		<tag k="natural" v="valley" />
		<tag k="place" v="locality" />
		<tag k="ssr:stedsnr" v="116075" />
	</node>
	<node id="-25035" lat="68.7688694424" lon="15.4697944356">
		<tag k="name" v="Skjeringa" />
		<tag k="natural" v="valley" />
		<tag k="place" v="locality" />
		<tag k="ssr:stedsnr" v="116119" />
	</node>
	<node id="-25034" lat="68.7297750015" lon="14.8199305494">
		<tag k="fixme" v="consider natural=peak for the most distinct mountains in the district" />
		<tag k="name" v="Steinkjeraksla" />
		<tag k="natural" v="hill" />
		<tag k="place" v="locality" />
		<tag k="ssr:stedsnr" v="113252" />
	</node>
	<node id="-25033" lat="68.7033333309" lon="14.9899083208">
		<tag k="name" v="Hollahaugene" />
		<tag k="natural" v="hill" />
		<tag k="place" v="locality" />
		<tag k="ssr:stedsnr" v="103815" />
	</node>
	<node id="-25032" lat="68.7007888884" lon="14.8945916778">
		<tag k="name" v="Kvalkjeften" />
		<tag k="natural" v="valley" />
		<tag k="place" v="locality" />
		<tag k="ssr:stedsnr" v="103718" />
	</node>
	<node id="-25031" lat="68.7081222225" lon="14.9461055591">
		<tag k="name" v="Storhaugen" />
		<tag k="natural" v="hill" />
		<tag k="place" v="locality" />
		<tag k="ssr:stedsnr" v="103716" />
	</node>
	<node id="-25030" lat="68.6926305533" lon="14.850833326">
		<tag k="name" v="Borterland" />
		<tag k="place" v="locality" />
		<tag k="ssr:stedsnr" v="103711" />
	</node>
	<node id="-25029" lat="68.681111107" lon="14.8045000063">
		<tag k="name" v="Gresskarhaugene" />
		<tag k="natural" v="hill" />
		<tag k="place" v="locality" />
		<tag k="ssr:stedsnr" v="103704" />
	</node>
	<node id="-25027" lat="68.7429805553" lon="15.0311166674">
		<tag k="fixme" v="consider natural=peak for the most distinct mountains in the district" />
		<tag k="name" v="Kvalbogfjellet" />
		<tag k="natural" v="hill" />
		<tag k="place" v="locality" />
		<tag k="ssr:stedsnr" v="103683" />
	</node>
	<node id="-25026" lat="68.7118861136" lon="14.9145055539">
		<tag k="fixme" v="consider natural=peak for the most distinct mountains in the district" />
		<tag k="name" v="Straumdalsåsen" />
		<tag k="natural" v="hill" />
		<tag k="place" v="locality" />
		<tag k="ssr:stedsnr" v="103681" />
	</node>
	<node id="-25024" lat="68.7052611099" lon="14.9826305588">
		<tag k="name" v="Fjøshaugen" />
		<tag k="natural" v="hill" />
		<tag k="place" v="locality" />
		<tag k="ssr:stedsnr" v="103662" />
	</node>
	<node id="-25021" lat="68.6856694429" lon="14.9142361182">
		<tag k="fixme" v="consider natural=peak for the most distinct mountains in the district" />
		<tag k="name" v="Kvitåsen" />
		<tag k="natural" v="hill" />
		<tag k="place" v="locality" />
		<tag k="ssr:stedsnr" v="103640" />
	</node>
	<node id="-25020" lat="68.6892861128" lon="14.9152083366">
		<tag k="fixme" v="consider natural=peak for the most distinct mountains in the district" />
		<tag k="name" v="Litjekråka" />
		<tag k="natural" v="hill" />
		<tag k="place" v="locality" />
		<tag k="ssr:stedsnr" v="103634" />
	</node>
	<node id="-25018" lat="68.8005888912" lon="15.2580277758">
		<tag k="name" v="Innerfjorden" />
		<tag k="place" v="locality" />
		<tag k="ssr:stedsnr" v="101611" />
	</node>
	<node id="-25017" lat="68.7006305581" lon="15.4547444466">
		<tag k="name" v="Nordberget" />
		<tag k="natural" v="hill" />
		<tag k="place" v="locality" />
		<tag k="ssr:stedsnr" v="97996" />
	</node>
	<node id="-25015" lat="68.701211115" lon="15.3965222318">
		<tag k="name" v="Skyttarbanehaugen" />
		<tag k="natural" v="hill" />
		<tag k="place" v="locality" />
		<tag k="ssr:stedsnr" v="97977" />
	</node>
	<node id="-25009" lat="68.6956694473" lon="15.4715833236">
		<tag k="name" v="Sletta" />
		<tag k="natural" v="slope" />
		<tag k="place" v="locality" />
		<tag k="ssr:stedsnr" v="97545" />
	</node>
	<node id="-25006" lat="68.6733277798" lon="15.5288944386">
		<tag k="name" v="Plata" />
		<tag k="natural" v="slope" />
		<tag k="place" v="locality" />
		<tag k="ssr:stedsnr" v="97495" />
	</node>
	<node id="-25004" lat="68.7218805561" lon="15.4574472113">
		<tag k="name" v="Nersthågen" />
		<tag k="natural" v="hill" />
		<tag k="place" v="locality" />
		<tag k="ssr:stedsnr" v="97484" />
	</node>
	<node id="-24999" lat="68.6420555538" lon="15.2460888989">
		<tag k="name" v="Hamran" />
		<tag k="natural" v="hill" />
		<tag k="place" v="locality" />
		<tag k="ssr:stedsnr" v="96734" />
	</node>
	<node id="-24998" lat="68.6764722239" lon="15.3177250058">
		<tag k="name" v="Buslia" />
		<tag k="natural" v="slope" />
		<tag k="place" v="locality" />
		<tag k="ssr:stedsnr" v="96720" />
	</node>
	<node id="-24996" lat="68.7089944484" lon="15.1006611123">
		<tag k="name" v="Sjøhaugen" />
		<tag k="natural" v="hill" />
		<tag k="place" v="locality" />
		<tag k="ssr:stedsnr" v="96633" />
	</node>
	<node id="-24994" lat="68.6708861154" lon="15.2889027806">
		<tag k="name" v="Tortenlia" />
		<tag k="natural" v="slope" />
		<tag k="place" v="locality" />
		<tag k="ssr:stedsnr" v="96551" />
	</node>
	<node id="-24992" lat="68.6746805543" lon="15.0535083255">
		<tag k="name" v="Storhaugen" />
		<tag k="natural" v="hill" />
		<tag k="place" v="locality" />
		<tag k="ssr:stedsnr" v="96337" />
	</node>
	<node id="-24990" lat="68.6710166628" lon="15.0606333401">
		<tag k="name" v="Kariberget" />
		<tag k="natural" v="hill" />
		<tag k="place" v="locality" />
		<tag k="ssr:stedsnr" v="96335" />
	</node>
	<node id="-24989" lat="68.6847611149" lon="15.1389555486">
		<tag k="name" v="Kuaksla" />
		<tag k="place" v="locality" />
		<tag k="ssr:stedsnr" v="96332" />
	</node>
	<node id="-24988" lat="68.7144888906" lon="15.3770000069">
		<tag k="name" v="Ånstadlia" />
		<tag k="natural" v="slope" />
		<tag k="place" v="locality" />
		<tag k="ssr:stedsnr" v="96591" />
	</node>
	<node id="-24987" lat="68.7338000021" lon="15.3937972156">
		<tag k="name" v="Storhalsen" />
		<tag k="natural" v="slope" />
		<tag k="place" v="locality" />
		<tag k="ssr:stedsnr" v="96586" />
	</node>
	<node id="-24986" lat="68.7446527805" lon="15.2347500042">
		<tag k="name" v="Glitterbergåsen" />
		<tag k="natural" v="hill" />
		<tag k="place" v="locality" />
		<tag k="ssr:stedsnr" v="96099" />
	</node>
	<node id="-24985" lat="68.7416777809" lon="15.1798888841">
		<tag k="name" v="Græva" />
		<tag k="natural" v="valley" />
		<tag k="place" v="locality" />
		<tag k="ssr:stedsnr" v="95092" />
	</node>
	<node id="-24982" lat="68.6986000011" lon="15.218591665">
		<tag k="fixme" v="consider natural=peak for the most distinct mountains in the district" />
		<tag k="name" v="Durmålskollen" />
		<tag k="natural" v="hill" />
		<tag k="place" v="locality" />
		<tag k="ssr:stedsnr" v="79801" />
	</node>
	<node id="-24975" lat="68.7543972184" lon="15.0215638851">
		<tag k="fixme" v="consider natural=peak for the most distinct mountains in the district" />
		<tag k="name" v="Straumaksla" />
		<tag k="natural" v="hill" />
		<tag k="place" v="locality" />
		<tag k="ssr:stedsnr" v="79562" />
	</node>
	<node id="-24967" lat="68.6847972263" lon="15.1147972223">
		<tag k="fixme" v="consider natural=peak for the most distinct mountains in the district" />
		<tag k="name" v="Mikkeltinden" />
		<tag k="natural" v="hill" />
		<tag k="place" v="locality" />
		<tag k="ssr:stedsnr" v="79150" />
	</node>
	<node id="-24966" lat="68.788025001" lon="15.8143777815">
		<tag k="alt_name" v="Bjørnskardet" />
		<tag k="name" v="Bjørnskaret" />
		<tag k="natural" v="valley" />
		<tag k="place" v="locality" />
		<tag k="ssr:stedsnr" v="79107" />
	</node>
	<node id="-24956" lat="68.7318916683" lon="15.9119166574">
		<tag k="fixme" v="consider natural=peak for the most distinct mountains in the district" />
		<tag k="name" v="Attertverrfjellet" />
		<tag k="natural" v="hill" />
		<tag k="place" v="locality" />
		<tag k="ssr:stedsnr" v="78461" />
	</node>
	<node id="-24955" lat="68.7266694437" lon="15.8899305645">
		<tag k="alt_name" v="Breidtinden" />
		<tag k="fixme" v="consider natural=peak for the most distinct mountains in the district" />
		<tag k="name" v="Breitinden" />
		<tag k="natural" v="hill" />
		<tag k="place" v="locality" />
		<tag k="ssr:stedsnr" v="78460" />
	</node>
	<node id="-24954" lat="68.7169750016" lon="15.7244083269">
		<tag k="name" v="Godfjorddalen" />
		<tag k="natural" v="valley" />
		<tag k="place" v="locality" />
		<tag k="ssr:stedsnr" v="78455" />
	</node>
	<node id="-24953" lat="68.8993499981" lon="15.9212027668">
		<tag k="fixme" v="consider natural=peak for the most distinct mountains in the district" />
		<tag k="name" v="Sandnestinden" />
		<tag k="natural" v="hill" />
		<tag k="place" v="locality" />
		<tag k="ssr:stedsnr" v="78453" />
	</node>
	<node id="-24948" lat="68.769172226" lon="15.2521194492">
		<tag k="fixme" v="consider natural=peak for the most distinct mountains in the district" />
		<tag k="name" v="Buåsen" />
		<tag k="natural" v="hill" />
		<tag k="place" v="locality" />
		<tag k="ssr:stedsnr" v="78407" />
	</node>
	<node id="-24946" lat="68.787455555" lon="15.5154083403">
		<tag k="alt_name" v="Skjåhågen" />
		<tag k="name" v="Skjåhaugen" />
		<tag k="natural" v="hill" />
		<tag k="place" v="locality" />
		<tag k="ssr:stedsnr" v="78362" />
	</node>
	<node id="-24944" lat="68.7785472221" lon="15.5071305633">
		<tag k="alt_name" v="Vasshågen" />
		<tag k="name" v="Vasshaugen" />
		<tag k="natural" v="hill" />
		<tag k="place" v="locality" />
		<tag k="ssr:stedsnr" v="78312" />
	</node>
	<node id="-24941" lat="68.6793722267" lon="15.0959611104">
		<tag k="name" v="Lahaugdalen" />
		<tag k="natural" v="valley" />
		<tag k="place" v="locality" />
		<tag k="ssr:stedsnr" v="78198" />
	</node>
	<node id="-24940" lat="68.6798250009" lon="15.1232527745">
		<tag k="fixme" v="consider natural=peak for the most distinct mountains in the district" />
		<tag k="name" v="Ladalshalsen" />
		<tag k="natural" v="hill" />
		<tag k="place" v="locality" />
		<tag k="ssr:stedsnr" v="78196" />
	</node>
	<node id="-24938" lat="68.7669083371" lon="15.6357249896">
		<tag k="name" v="Muran" />
		<tag k="natural" v="hill" />
		<tag k="place" v="locality" />
		<tag k="ssr:stedsnr" v="78191" />
	</node>
	<node id="-24937" lat="68.6720333323" lon="15.0732499909">
		<tag k="name" v="Vasshaugen" />
		<tag k="natural" v="hill" />
		<tag k="place" v="locality" />
		<tag k="ssr:stedsnr" v="78177" />
	</node>
	<node id="-24936" lat="68.6641194458" lon="15.2369333378">
		<tag k="name" v="Reinsletta" />
		<tag k="place" v="locality" />
		<tag k="ssr:stedsnr" v="78167" />
	</node>
	<node id="-24935" lat="68.6697361104" lon="15.3090972205">
		<tag k="fixme" v="consider natural=peak for the most distinct mountains in the district" />
		<tag k="name" v="Svekollen" />
		<tag k="natural" v="hill" />
		<tag k="place" v="locality" />
		<tag k="ssr:stedsnr" v="78161" />
	</node>
	<node id="-24934" lat="68.6880638931" lon="15.3298888793">
		<tag k="fixme" v="consider natural=peak for the most distinct mountains in the district" />
		<tag k="name" v="Steiroblåheia" />
		<tag k="natural" v="hill" />
		<tag k="place" v="locality" />
		<tag k="ssr:stedsnr" v="78140" />
	</node>
	<node id="-24930" lat="68.6871861141" lon="15.6089694393">
		<tag k="fixme" v="consider natural=peak for the most distinct mountains in the district" />
		<tag k="name" v="Tårnet" />
		<tag k="natural" v="hill" />
		<tag k="place" v="locality" />
		<tag k="ssr:stedsnr" v="78129" />
	</node>
	<node id="-24927" lat="68.5661777774" lon="15.4880250097">
		<tag k="fixme" v="consider natural=peak for the most distinct mountains in the district" />
		<tag k="name" v="Kammen" />
		<tag k="natural" v="hill" />
		<tag k="place" v="locality" />
		<tag k="ssr:stedsnr" v="78078" />
	</node>
	<node id="-24926" lat="68.7854611104" lon="15.8416472256">
		<tag k="alt_name" v="Litjetinden" />
		<tag k="name" v="Litletinden" />
		<tag k="natural" v="hill" />
		<tag k="place" v="locality" />
		<tag k="ssr:stedsnr" v="78069" />
	</node>
	<node id="-24924" lat="68.6021527746" lon="15.4212361147">
		<tag k="alt_name" v="Bjørnskardet, yt" />
		<tag k="name" v="Ytre Bjørnskaret" />
		<tag k="natural" v="valley" />
		<tag k="place" v="locality" />
		<tag k="ssr:stedsnr" v="78062" />
	</node>
	<node id="-24923" lat="68.8539000038" lon="15.8850083226">
		<tag k="fixme" v="consider natural=peak for the most distinct mountains in the district" />
		<tag k="name" v="Finnhamnfjellet" />
		<tag k="natural" v="hill" />
		<tag k="place" v="locality" />
		<tag k="ssr:stedsnr" v="78037" />
	</node>
	<node id="-24922" lat="68.5912277768" lon="15.3452888981">
		<tag k="name" v="Gårdsdalen" />
		<tag k="natural" v="valley" />
		<tag k="place" v="locality" />
		<tag k="ssr:stedsnr" v="78031" />
	</node>
	<node id="-24921" lat="68.6201111087" lon="15.5104333412">
		<tag k="fixme" v="consider natural=peak for the most distinct mountains in the district" />
		<tag k="name" v="Middagsbogtinden" />
		<tag k="natural" v="hill" />
		<tag k="place" v="locality" />
		<tag k="ssr:stedsnr" v="78028" />
	</node>
	<node id="-24917" lat="68.5807027779" lon="15.3968305533">
		<tag k="fixme" v="consider natural=peak for the most distinct mountains in the district" />
		<tag k="name" v="Middagstinden" />
		<tag k="natural" v="hill" />
		<tag k="place" v="locality" />
		<tag k="ssr:stedsnr" v="78091" />
	</node>
	<node id="-24914" lat="68.7291555549" lon="15.0471027655">
		<tag k="name" v="Storhaugan" />
		<tag k="natural" v="hill" />
		<tag k="place" v="locality" />
		<tag k="ssr:stedsnr" v="59746" />
	</node>
	<node id="-24913" lat="68.7160888893" lon="14.9296472176">
		<tag k="name" v="Straumdalshaugen" />
		<tag k="natural" v="hill" />
		<tag k="place" v="locality" />
		<tag k="ssr:stedsnr" v="59679" />
	</node>
	<node id="-24912" lat="68.812286112" lon="15.8669861047">
		<tag k="name" v="Rødskreda" />
		<tag k="natural" v="slope" />
		<tag k="place" v="locality" />
		<tag k="ssr:stedsnr" v="59674" />
	</node>
	<node id="-24909" lat="68.8054750006" lon="15.8693499926">
		<tag k="name" v="Storhågen" />
		<tag k="natural" v="hill" />
		<tag k="place" v="locality" />
		<tag k="ssr:stedsnr" v="59376" />
	</node>
	<node id="-24908" lat="68.7806388918" lon="15.8619916697">
		<tag k="name" v="Norste Kalvegardshågen" />
		<tag k="natural" v="hill" />
		<tag k="place" v="locality" />
		<tag k="ssr:stedsnr" v="59357" />
	</node>
	<node id="-24906" lat="68.7668055565" lon="15.8890944361">
		<tag k="name" v="Mynnarsletta" />
		<tag k="place" v="locality" />
		<tag k="ssr:stedsnr" v="59298" />
	</node>
	<node id="-24904" lat="68.6964694489" lon="15.7418055526">
		<tag k="name" v="Tinnhågen" />
		<tag k="natural" v="hill" />
		<tag k="place" v="locality" />
		<tag k="ssr:stedsnr" v="59042" />
	</node>
	<node id="-24903" lat="68.7731055562" lon="15.9350860986">
		<tag k="name" v="Raan" />
		<tag k="natural" v="ridge" />
		<tag k="place" v="locality" />
		<tag k="ssr:stedsnr" v="58583" />
	</node>
	<node id="-24896" lat="68.8209138875" lon="15.3102722314">
		<tag k="name" v="Djupdalsholen" />
		<tag k="natural" v="valley" />
		<tag k="place" v="locality" />
		<tag k="ssr:stedsnr" v="57653" />
	</node>
	<node id="-24892" lat="68.7850611113" lon="15.2421972176">
		<tag k="name" v="Dalkråa" />
		<tag k="natural" v="valley" />
		<tag k="place" v="locality" />
		<tag k="ssr:stedsnr" v="57564" />
	</node>
	<node id="-24890" lat="68.7409777795" lon="15.1413333264">
		<tag k="name" v="Gjerdhaugen" />
		<tag k="natural" v="hill" />
		<tag k="place" v="locality" />
		<tag k="ssr:stedsnr" v="56976" />
	</node>
	<node id="-24883" lat="68.766602776" lon="15.4846666568">
		<tag k="name" v="Svellingshola" />
		<tag k="natural" v="valley" />
		<tag k="place" v="locality" />
		<tag k="ssr:stedsnr" v="56102" />
	</node>
	<node id="-24880" lat="68.6616888872" lon="15.5977527652">
		<tag k="name" v="Aksla" />
		<tag k="place" v="locality" />
		<tag k="ssr:stedsnr" v="55723" />
	</node>
	<node id="-24879" lat="68.6908777821" lon="15.4599194488">
		<tag k="fixme" v="consider natural=peak for the most distinct mountains in the district" />
		<tag k="name" v="Tausaneshøgda" />
		<tag k="natural" v="hill" />
		<tag k="place" v="locality" />
		<tag k="ssr:stedsnr" v="55701" />
	</node>
	<node id="-24876" lat="68.7005083299" lon="14.9947944548">
		<tag k="name" v="Finnebakken" />
		<tag k="natural" v="slope" />
		<tag k="place" v="locality" />
		<tag k="ssr:stedsnr" v="42793" />
	</node>
	<node id="-24875" lat="68.6985722263" lon="14.8911472329">
		<tag k="name" v="Ørnheia" />
		<tag k="natural" v="hill" />
		<tag k="place" v="locality" />
		<tag k="ssr:stedsnr" v="42694" />
	</node>
	<node id="-24874" lat="68.6728666686" lon="14.8176805638">
		<tag k="name" v="Skaret" />
		<tag k="natural" v="valley" />
		<tag k="place" v="locality" />
		<tag k="ssr:stedsnr" v="42671" />
	</node>
	<node id="-24873" lat="68.6682888906" lon="14.8213861142">
		<tag k="name" v="Svaberget" />
		<tag k="natural" v="hill" />
		<tag k="place" v="locality" />
		<tag k="ssr:stedsnr" v="42667" />
	</node>
	<node id="-24868" lat="68.7068305542" lon="14.9927944326">
		<tag k="fixme" v="consider natural=peak for the most distinct mountains in the district" />
		<tag k="name" v="Memorskollen" />
		<tag k="natural" v="hill" />
		<tag k="place" v="locality" />
		<tag k="ssr:stedsnr" v="42616" />
	</node>
	<node id="-24867" lat="68.6757333375" lon="14.8304694447">
		<tag k="fixme" v="consider natural=peak for the most distinct mountains in the district" />
		<tag k="name" v="Slottfjellet" />
		<tag k="natural" v="hill" />
		<tag k="place" v="locality" />
		<tag k="ssr:stedsnr" v="42611" />
	</node>
	<node id="-24863" lat="68.7943194449" lon="15.4707027747">
		<tag k="name" v="Skjellberget" />
		<tag k="natural" v="hill" />
		<tag k="place" v="locality" />
		<tag k="ssr:stedsnr" v="41203" />
	</node>
	<node id="-24862" lat="68.8008833365" lon="15.2926722243">
		<tag k="name" v="Heimerhågen" />
		<tag k="natural" v="hill" />
		<tag k="place" v="locality" />
		<tag k="ssr:stedsnr" v="40614" />
	</node>
	<node id="-24854" lat="68.6766444444" lon="15.3402083279">
		<tag k="name" v="Nova" />
		<tag k="natural" v="ridge" />
		<tag k="place" v="locality" />
		<tag k="ssr:stedsnr" v="36662" />
	</node>
	<node id="-24850" lat="68.6125527778" lon="15.6068638917">
		<tag k="name" v="Grønen" />
		<tag k="place" v="locality" />
		<tag k="ssr:stedsnr" v="36641" />
	</node>
	<node id="-24846" lat="68.6352833314" lon="15.5859166638">
		<tag k="name" v="Rabban" />
		<tag k="natural" v="slope" />
		<tag k="place" v="locality" />
		<tag k="ssr:stedsnr" v="36525" />
	</node>
	<node id="-24844" lat="68.6871333327" lon="15.4900694474">
		<tag k="name" v="Hola" />
		<tag k="natural" v="valley" />
		<tag k="place" v="locality" />
		<tag k="ssr:stedsnr" v="36465" />
	</node>
	<node id="-24841" lat="68.6728888923" lon="15.3296055618">
		<tag k="name" v="Seljehågen" />
		<tag k="natural" v="hill" />
		<tag k="place" v="locality" />
		<tag k="ssr:stedsnr" v="36398" />
	</node>
	<node id="-24839" lat="68.8717027761" lon="15.3379555586">
		<tag k="name" v="Øyhumpan" />
		<tag k="natural" v="hill" />
		<tag k="place" v="locality" />
		<tag k="ssr:stedsnr" v="36053" />
	</node>
	<node id="-24836" lat="68.6500166686" lon="15.2338638962">
		<tag k="fixme" v="consider natural=peak for the most distinct mountains in the district" />
		<tag k="name" v="Vasshaugan" />
		<tag k="natural" v="hill" />
		<tag k="place" v="locality" />
		<tag k="ssr:stedsnr" v="35757" />
	</node>
	<node id="-24834" lat="68.6949416643" lon="15.0707305609">
		<tag k="name" v="Otervikhaugen" />
		<tag k="natural" v="hill" />
		<tag k="place" v="locality" />
		<tag k="ssr:stedsnr" v="35679" />
	</node>
	<node id="-24832" lat="68.7071916637" lon="15.089552768">
		<tag k="name" v="Holmvikhaugen" />
		<tag k="natural" v="hill" />
		<tag k="place" v="locality" />
		<tag k="ssr:stedsnr" v="35674" />
	</node>
	<node id="-24830" lat="68.698605557" lon="15.0800805513">
		<tag k="name" v="Middagshaugen" />
		<tag k="natural" v="hill" />
		<tag k="place" v="locality" />
		<tag k="ssr:stedsnr" v="35670" />
	</node>
	<node id="-24829" lat="68.7089722183" lon="15.3648638819">
		<tag k="name" v="Klubban" />
		<tag k="natural" v="slope" />
		<tag k="place" v="locality" />
		<tag k="ssr:stedsnr" v="35639" />
	</node>
	<node id="-24828" lat="68.6676166644" lon="15.278052779">
		<tag k="name" v="Litleskarhøljet" />
		<tag k="place" v="locality" />
		<tag k="ssr:stedsnr" v="35601" />
	</node>
	<node id="-24827" lat="68.6687166626" lon="15.2977527739">
		<tag k="name" v="Bjørnlisletta" />
		<tag k="place" v="locality" />
		<tag k="ssr:stedsnr" v="35599" />
	</node>
	<node id="-24826" lat="68.6625083337" lon="15.2897000038">
		<tag k="name" v="Storhaugen" />
		<tag k="natural" v="hill" />
		<tag k="place" v="locality" />
		<tag k="ssr:stedsnr" v="35598" />
	</node>
	<node id="-24825" lat="68.6807027793" lon="15.2384694445">
		<tag k="name" v="Humpan" />
		<tag k="natural" v="hill" />
		<tag k="place" v="locality" />
		<tag k="ssr:stedsnr" v="35585" />
	</node>
	<node id="-24824" lat="68.7674138903" lon="15.2730666563">
		<tag k="name" v="Lomstjønnhaugen" />
		<tag k="natural" v="hill" />
		<tag k="place" v="locality" />
		<tag k="ssr:stedsnr" v="35219" />
	</node>
	<node id="-24823" lat="68.7780999974" lon="15.2764972218">
		<tag k="name" v="Kvanntoknoppen" />
		<tag k="natural" v="hill" />
		<tag k="place" v="locality" />
		<tag k="ssr:stedsnr" v="35217" />
	</node>
	<node id="-24822" lat="68.7703583351" lon="15.2874499974">
		<tag k="name" v="Asphaugen" />
		<tag k="natural" v="hill" />
		<tag k="place" v="locality" />
		<tag k="ssr:stedsnr" v="35216" />
	</node>
	<node id="-24821" lat="68.7671500006" lon="15.2353305475">
		<tag k="name" v="Lahaugan" />
		<tag k="natural" v="hill" />
		<tag k="place" v="locality" />
		<tag k="ssr:stedsnr" v="35211" />
	</node>
	<node id="-24815" lat="68.6950555581" lon="15.2348916656">
		<tag k="fixme" v="consider natural=peak for the most distinct mountains in the district" />
		<tag k="name" v="Valfjordheia" />
		<tag k="natural" v="hill" />
		<tag k="place" v="locality" />
		<tag k="ssr:stedsnr" v="18799" />
	</node>
	<node id="-24814" lat="68.7020833346" lon="15.5151027758">
		<tag k="fixme" v="consider natural=peak for the most distinct mountains in the district" />
		<tag k="name" v="Strandheia" />
		<tag k="natural" v="hill" />
		<tag k="place" v="locality" />
		<tag k="ssr:stedsnr" v="18793" />
	</node>
	<node id="-24813" lat="68.7042472222" lon="15.1833666562">
		<tag k="name" v="Vasshaugen" />
		<tag k="natural" v="hill" />
		<tag k="place" v="locality" />
		<tag k="ssr:stedsnr" v="18781" />
	</node>
	<node id="-24810" lat="68.7498472191" lon="15.5267055603">
		<tag k="alt_name" v="Steinhågen" />
		<tag k="name" v="Steinhaugen" />
		<tag k="natural" v="hill" />
		<tag k="place" v="locality" />
		<tag k="ssr:stedsnr" v="18748" />
	</node>
	<node id="-24801" lat="68.7351416679" lon="15.884063885">
		<tag k="fixme" v="consider natural=peak for the most distinct mountains in the district" />
		<tag k="name" v="Svarttinden" />
		<tag k="natural" v="hill" />
		<tag k="place" v="locality" />
		<tag k="ssr:stedsnr" v="18418" />
	</node>
	<node id="-24798" lat="68.7726333319" lon="15.2030472232">
		<tag k="fixme" v="consider natural=peak for the most distinct mountains in the district" />
		<tag k="name" v="Vikaksla" />
		<tag k="natural" v="hill" />
		<tag k="place" v="locality" />
		<tag k="ssr:stedsnr" v="18300" />
	</node>
	<node id="-24796" lat="68.849177781" lon="15.2933833256">
		<tag k="name" v="Kåshalsen" />
		<tag k="natural" v="hill" />
		<tag k="place" v="locality" />
		<tag k="ssr:stedsnr" v="18270" />
	</node>
	<node id="-24794" lat="68.6753472182" lon="15.7955583315">
		<tag k="name" v="Storliskardet" />
		<tag k="natural" v="valley" />
		<tag k="place" v="locality" />
		<tag k="ssr:stedsnr" v="18234" />
	</node>
	<node id="-24793" lat="68.7626916656" lon="15.5765166634">
		<tag k="fixme" v="consider natural=peak for the most distinct mountains in the district" />
		<tag k="name" v="Hognfjordtinden" />
		<tag k="natural" v="hill" />
		<tag k="place" v="locality" />
		<tag k="ssr:stedsnr" v="18377" />
	</node>
	<node id="-24791" lat="68.7675083292" lon="15.4977000095">
		<tag k="fixme" v="consider natural=peak for the most distinct mountains in the district" />
		<tag k="name" v="Tverrfjellet" />
		<tag k="natural" v="hill" />
		<tag k="place" v="locality" />
		<tag k="ssr:stedsnr" v="18362" />
	</node>
	<node id="-24790" lat="68.7980333355" lon="15.6227916609">
		<tag k="fixme" v="consider natural=peak for the most distinct mountains in the district" />
		<tag k="name" v="Middagstiden" />
		<tag k="natural" v="hill" />
		<tag k="place" v="locality" />
		<tag k="ssr:stedsnr" v="18096" />
	</node>
	<node id="-24789" lat="68.7905416712" lon="15.8568749912">
		<tag k="name" v="Nordheia" />
		<tag k="natural" v="hill" />
		<tag k="place" v="locality" />
		<tag k="ssr:stedsnr" v="18093" />
	</node>
	<node id="-24788" lat="68.7895888923" lon="15.9814777791">
		<tag k="alt_name" v="Bjørnskardet" />
		<tag k="name" v="Bjørnskaret" />
		<tag k="natural" v="valley" />
		<tag k="place" v="locality" />
		<tag k="ssr:stedsnr" v="18083" />
	</node>
	<node id="-24787" lat="68.7129805551" lon="15.541083325">
		<tag k="fixme" v="consider natural=peak for the most distinct mountains in the district" />
		<tag k="name" v="Svartdalstinden" />
		<tag k="natural" v="hill" />
		<tag k="place" v="locality" />
		<tag k="ssr:stedsnr" v="18777" />
	</node>
	<node id="-24786" lat="68.6812138897" lon="15.5868388851">
		<tag k="fixme" v="consider natural=peak for the most distinct mountains in the district" />
		<tag k="name" v="Middagstinden" />
		<tag k="natural" v="hill" />
		<tag k="place" v="locality" />
		<tag k="ssr:stedsnr" v="18197" />
	</node>
	<node id="-24784" lat="68.7103972252" lon="15.8607222343">
		<tag k="fixme" v="consider natural=peak for the most distinct mountains in the district" />
		<tag k="name" v="Tverrfjellet" />
		<tag k="natural" v="hill" />
		<tag k="place" v="locality" />
		<tag k="ssr:stedsnr" v="18183" />
	</node>
	<node id="-24781" lat="68.7193083343" lon="15.3264777726">
		<tag k="fixme" v="consider natural=peak for the most distinct mountains in the district" />
		<tag k="name" v="Tinden" />
		<tag k="natural" v="hill" />
		<tag k="place" v="locality" />
		<tag k="ssr:stedsnr" v="17860" />
	</node>
	<node id="-24778" lat="68.8160166625" lon="15.5750638843">
		<tag k="name" v="Nerlemmen" />
		<tag k="natural" v="hill" />
		<tag k="place" v="locality" />
		<tag k="ssr:stedsnr" v="17297" />
	</node>
	<node id="-24775" lat="68.652813888" lon="15.5891916605">
		<tag k="name" v="Sørkleivdalen" />
		<tag k="natural" v="valley" />
		<tag k="place" v="locality" />
		<tag k="ssr:stedsnr" v="17248" />
	</node>
	<node id="-24769" lat="68.7708111104" lon="15.9540722138">
		<tag k="alt_name" v="Grønnebakkan" />
		<tag k="name" v="Grønbakkan" />
		<tag k="natural" v="slope" />
		<tag k="place" v="locality" />
		<tag k="ssr:stedsnr" v="17216" />
	</node>
	<node id="-24768" lat="68.6760833352" lon="15.0989722283">
		<tag k="fixme" v="consider natural=peak for the most distinct mountains in the district" />
		<tag k="name" v="Ramntinden" />
		<tag k="natural" v="hill" />
		<tag k="place" v="locality" />
		<tag k="ssr:stedsnr" v="17214" />
	</node>
	<node id="-24766" lat="68.6701361114" lon="15.2561083255">
		<tag k="fixme" v="consider natural=peak for the most distinct mountains in the district" />
		<tag k="name" v="Bøknurren" />
		<tag k="natural" v="hill" />
		<tag k="place" v="locality" />
		<tag k="ssr:stedsnr" v="17188" />
	</node>
	<node id="-24761" lat="68.6858750039" lon="15.1905555668">
		<tag k="name" v="Kakhaugen" />
		<tag k="natural" v="hill" />
		<tag k="place" v="locality" />
		<tag k="ssr:stedsnr" v="17156" />
	</node>
	<node id="-24757" lat="68.7092249982" lon="15.7845361218">
		<tag k="fixme" v="consider natural=peak for the most distinct mountains in the district" />
		<tag k="name" v="Tverrfjellet" />
		<tag k="natural" v="hill" />
		<tag k="place" v="locality" />
		<tag k="ssr:stedsnr" v="17483" />
	</node>
	<node id="-24756" lat="68.7966972251" lon="15.4761555662">
		<tag k="alt_name" v="Ramnflaughågan" />
		<tag k="name" v="Ramnflåghaugen" />
		<tag k="natural" v="hill" />
		<tag k="place" v="locality" />
		<tag k="ssr:stedsnr" v="17393" />
	</node>
	<node id="-24755" lat="68.6348666667" lon="15.6229722338">
		<tag k="fixme" v="consider natural=peak for the most distinct mountains in the district" />
		<tag k="name" v="Gårdsdalstindan" />
		<tag k="natural" v="hill" />
		<tag k="place" v="locality" />
		<tag k="ssr:stedsnr" v="17357" />
	</node>
	<node id="-24753" lat="68.5951833362" lon="15.4281027715">
		<tag k="name" v="Moan" />
		<tag k="place" v="locality" />
		<tag k="ssr:stedsnr" v="17052" />
	</node>
	<node id="-24751" lat="68.6188416703" lon="15.4668833339">
		<tag k="fixme" v="consider natural=peak for the most distinct mountains in the district" />
		<tag k="name" v="Brokløystinden" />
		<tag k="natural" v="hill" />
		<tag k="place" v="locality" />
		<tag k="ssr:stedsnr" v="17033" />
	</node>
	<node id="-24750" lat="68.7721611149" lon="15.2932583456">
		<tag k="name" v="Tjukkåsen" />
		<tag k="natural" v="hill" />
		<tag k="place" v="locality" />
		<tag k="ssr:stedsnr" v="217193" />
	</node>
	<node id="-24749" lat="68.7657194474" lon="15.2758111085">
		<tag k="name" v="Antonhaugen" />
		<tag k="natural" v="hill" />
		<tag k="place" v="locality" />
		<tag k="ssr:stedsnr" v="217183" />
	</node>
	<node id="-24746" lat="68.7253194404" lon="15.0370694422">
		<tag k="name" v="Gangarhaugen" />
		<tag k="natural" v="hill" />
		<tag k="place" v="locality" />
		<tag k="ssr:stedsnr" v="969756" />
	</node>
	<node id="-24745" lat="68.7788833356" lon="15.8255805632">
		<tag k="name" v="Nerdalslian" />
		<tag k="natural" v="slope" />
		<tag k="place" v="locality" />
		<tag k="ssr:stedsnr" v="969421" />
	</node>
	<node id="-24743" lat="68.5727583288" lon="15.338663897">
		<tag k="name" v="Joberget" />
		<tag k="natural" v="hill" />
		<tag k="place" v="locality" />
		<tag k="ssr:stedsnr" v="969114" />
	</node>
	<node id="-24739" lat="68.5651694416" lon="15.3651527777">
		<tag k="name" v="Labakkan" />
		<tag k="natural" v="slope" />
		<tag k="place" v="locality" />
		<tag k="ssr:stedsnr" v="969004" />
	</node>
	<node id="-24735" lat="68.8590083363" lon="15.9260860993">
		<tag k="name" v="Litjesletta" />
		<tag k="place" v="locality" />
		<tag k="ssr:stedsnr" v="967611" />
	</node>
	<node id="-24734" lat="68.7509583342" lon="15.5012194397">
		<tag k="name" v="Saubakken" />
		<tag k="natural" v="slope" />
		<tag k="place" v="locality" />
		<tag k="ssr:stedsnr" v="966824" />
	</node>
	<node id="-24732" lat="68.7556916708" lon="15.4884694523">
		<tag k="name" v="Laukhammaren" />
		<tag k="natural" v="hill" />
		<tag k="place" v="locality" />
		<tag k="ssr:stedsnr" v="966818" />
	</node>
	<node id="-24731" lat="68.6951" lon="15.5979861138">
		<tag k="name" v="Tårnfoten" />
		<tag k="place" v="locality" />
		<tag k="ssr:stedsnr" v="966813" />
	</node>
	<node id="-24730" lat="68.7138444435" lon="14.8364500043">
		<tag k="fixme" v="consider natural=peak for the most distinct mountains in the district" />
		<tag k="name" v="Tverrfjellet" />
		<tag k="natural" v="hill" />
		<tag k="place" v="locality" />
		<tag k="ssr:stedsnr" v="966680" />
	</node>
	<node id="-24728" lat="68.8087750019" lon="15.5408889005">
		<tag k="name" v="Flathågen" />
		<tag k="natural" v="hill" />
		<tag k="place" v="locality" />
		<tag k="ssr:stedsnr" v="966108" />
	</node>
	<node id="-24726" lat="68.710075004" lon="15.5305611084">
		<tag k="name" v="Ytste Svartdalsberget" />
		<tag k="natural" v="hill" />
		<tag k="place" v="locality" />
		<tag k="ssr:stedsnr" v="965807" />
	</node>
	<node id="-24725" lat="68.7135305596" lon="15.5276305589">
		<tag k="name" v="Inste Svartdalsberget" />
		<tag k="natural" v="hill" />
		<tag k="place" v="locality" />
		<tag k="ssr:stedsnr" v="965805" />
	</node>
	<node id="-24724" lat="68.7365861085" lon="15.7662666602">
		<tag k="name" v="Frokostsletta" />
		<tag k="place" v="locality" />
		<tag k="ssr:stedsnr" v="966016" />
	</node>
	<node id="-24722" lat="68.6012694434" lon="15.3967333403">
		<tag k="name" v="Storhaugen" />
		<tag k="natural" v="hill" />
		<tag k="place" v="locality" />
		<tag k="ssr:stedsnr" v="965559" />
	</node>
	<node id="-24721" lat="68.603963891" lon="15.3953333374">
		<tag k="name" v="Katthaugen" />
		<tag k="natural" v="hill" />
		<tag k="place" v="locality" />
		<tag k="ssr:stedsnr" v="965555" />
	</node>
	<node id="-24720" lat="68.6748388855" lon="15.7844138797">
		<tag k="name" v="Atterslåtten" />
		<tag k="natural" v="slope" />
		<tag k="place" v="locality" />
		<tag k="ssr:stedsnr" v="962153" />
	</node>
	<node id="-24719" lat="68.7521444487" lon="15.8638805464">
		<tag k="name" v="Veggen" />
		<tag k="natural" v="slope" />
		<tag k="place" v="locality" />
		<tag k="ssr:stedsnr" v="951421" />
	</node>
	<node id="-24718" lat="68.7599027778" lon="15.8724444506">
		<tag k="name" v="Gammelnausthågen" />
		<tag k="natural" v="hill" />
		<tag k="place" v="locality" />
		<tag k="ssr:stedsnr" v="951417" />
	</node>
	<node id="-24714" lat="68.6604944481" lon="15.5033055621">
		<tag k="name" v="Langbakken" />
		<tag k="natural" v="slope" />
		<tag k="place" v="locality" />
		<tag k="ssr:stedsnr" v="947517" />
	</node>
	<node id="-24711" lat="68.6398361114" lon="15.2429527752">
		<tag k="name" v="Åsen" />
		<tag k="natural" v="hill" />
		<tag k="place" v="locality" />
		<tag k="ssr:stedsnr" v="946727" />
	</node>
	<node id="-24710" lat="68.8140972264" lon="15.4733027744">
		<tag k="name" v="Hågan" />
		<tag k="natural" v="hill" />
		<tag k="place" v="locality" />
		<tag k="ssr:stedsnr" v="946846" />
	</node>
	<node id="-24709" lat="68.6367194429" lon="15.216127787">
		<tag k="name" v="Litleaspen" />
		<tag k="natural" v="hill" />
		<tag k="place" v="locality" />
		<tag k="ssr:stedsnr" v="946841" />
	</node>
	<node id="-24708" lat="68.7661250009" lon="15.0407722161">
		<tag k="name" v="Langhaugen" />
		<tag k="natural" v="hill" />
		<tag k="place" v="locality" />
		<tag k="ssr:stedsnr" v="928517" />
	</node>
	<node id="-24707" lat="68.7204027733" lon="15.3354944466">
		<tag k="name" v="Tindhola" />
		<tag k="natural" v="valley" />
		<tag k="place" v="locality" />
		<tag k="ssr:stedsnr" v="928835" />
	</node>
	<node id="-24704" lat="68.698752776" lon="15.3238472113">
		<tag k="fixme" v="consider natural=peak for the most distinct mountains in the district" />
		<tag k="name" v="Storkvanntoheia" />
		<tag k="natural" v="hill" />
		<tag k="place" v="locality" />
		<tag k="ssr:stedsnr" v="928822" />
	</node>
	<node id="-24702" lat="68.7134250025" lon="15.5184222184">
		<tag k="name" v="Svartdalen" />
		<tag k="natural" v="valley" />
		<tag k="place" v="locality" />
		<tag k="ssr:stedsnr" v="928807" />
	</node>
	<node id="-24700" lat="68.9013499996" lon="15.9195694383">
		<tag k="name" v="Tiggarlappen" />
		<tag k="natural" v="ridge" />
		<tag k="place" v="locality" />
		<tag k="ssr:stedsnr" v="928425" />
	</node>
	<node id="-24697" lat="68.7374388858" lon="15.9628000041">
		<tag k="fixme" v="consider natural=peak for the most distinct mountains in the district" />
		<tag k="name" v="Skjelltindan" />
		<tag k="natural" v="hill" />
		<tag k="place" v="locality" />
		<tag k="ssr:stedsnr" v="928421" />
	</node>
	<node id="-24695" lat="68.7602583351" lon="15.5354833435">
		<tag k="alt_name" v="Storhågen" />
		<tag k="name" v="Storhaugen" />
		<tag k="natural" v="hill" />
		<tag k="place" v="locality" />
		<tag k="ssr:stedsnr" v="928411" />
	</node>
	<node id="-24694" lat="68.7877722233" lon="15.5505388904">
		<tag k="fixme" v="consider natural=peak for the most distinct mountains in the district" />
		<tag k="name" v="Fjellsenden" />
		<tag k="natural" v="hill" />
		<tag k="place" v="locality" />
		<tag k="ssr:stedsnr" v="928338" />
	</node>
	<node id="-24693" lat="68.8006138867" lon="15.1997722238">
		<tag k="alt_name" v="Gåsbølskardet" />
		<tag k="name" v="Gåsbølskaret" />
		<tag k="natural" v="valley" />
		<tag k="place" v="locality" />
		<tag k="ssr:stedsnr" v="928328" />
	</node>
	<node id="-24687" lat="68.5911027805" lon="15.4419222245">
		<tag k="fixme" v="consider natural=peak for the most distinct mountains in the district" />
		<tag k="name" v="Mellaslottfjellet" />
		<tag k="natural" v="hill" />
		<tag k="place" v="locality" />
		<tag k="ssr:stedsnr" v="905573" />
	</node>
	<node id="-24685" lat="68.8941388872" lon="15.9377083258">
		<tag k="name" v="Kollskoghamran" />
		<tag k="natural" v="hill" />
		<tag k="place" v="locality" />
		<tag k="ssr:stedsnr" v="905608" />
	</node>
	<node id="-24681" lat="68.8098666627" lon="15.5743583439">
		<tag k="fixme" v="consider natural=peak for the most distinct mountains in the district" />
		<tag k="name" v="Ålkollen" />
		<tag k="natural" v="hill" />
		<tag k="place" v="locality" />
		<tag k="ssr:stedsnr" v="905077" />
	</node>
	<node id="-24680" lat="68.7067722259" lon="15.6386305464">
		<tag k="name" v="Slåttlia" />
		<tag k="natural" v="slope" />
		<tag k="place" v="locality" />
		<tag k="ssr:stedsnr" v="905072" />
	</node>
	<node id="-24677" lat="68.7999555521" lon="15.536461115">
		<tag k="name" v="Litleelvbakkan" />
		<tag k="natural" v="slope" />
		<tag k="place" v="locality" />
		<tag k="ssr:stedsnr" v="891230" />
	</node>
	<node id="-24674" lat="68.7890388864" lon="15.5484833307">
		<tag k="fixme" v="consider natural=peak for the most distinct mountains in the district" />
		<tag k="name" v="Middagstinden" />
		<tag k="natural" v="hill" />
		<tag k="place" v="locality" />
		<tag k="ssr:stedsnr" v="891221" />
	</node>
	<node id="-24673" lat="68.7221499955" lon="15.5521861209">
		<tag k="name" v="Lia" />
		<tag k="natural" v="slope" />
		<tag k="place" v="locality" />
		<tag k="ssr:stedsnr" v="886757" />
	</node>
	<node id="-24670" lat="68.7501944419" lon="15.627652789">
		<tag k="name" v="Hesa" />
		<tag k="natural" v="slope" />
		<tag k="place" v="locality" />
		<tag k="ssr:stedsnr" v="886708" />
	</node>
	<node id="-24669" lat="68.6383083361" lon="15.5841416783">
		<tag k="name" v="Bjørnhaugen" />
		<tag k="natural" v="hill" />
		<tag k="place" v="locality" />
		<tag k="ssr:stedsnr" v="886566" />
	</node>
	<node id="-24668" lat="68.6248444468" lon="15.6101694476">
		<tag k="name" v="Mosterhola" />
		<tag k="natural" v="valley" />
		<tag k="place" v="locality" />
		<tag k="ssr:stedsnr" v="886664" />
	</node>
	<node id="-24667" lat="68.6332305579" lon="15.1687999912">
		<tag k="name" v="Litlehatten" />
		<tag k="natural" v="hill" />
		<tag k="place" v="locality" />
		<tag k="ssr:stedsnr" v="885959" />
	</node>
	<node id="-24666" lat="68.6356583349" lon="15.1870111006">
		<tag k="fixme" v="consider natural=peak for the most distinct mountains in the district" />
		<tag k="name" v="Hestlikolla" />
		<tag k="natural" v="hill" />
		<tag k="place" v="locality" />
		<tag k="ssr:stedsnr" v="885954" />
	</node>
	<node id="-24665" lat="68.7476305594" lon="15.5884000001">
		<tag k="name" v="Litleknollen" />
		<tag k="natural" v="hill" />
		<tag k="place" v="locality" />
		<tag k="ssr:stedsnr" v="885708" />
	</node>
	<node id="-24664" lat="68.7094250005" lon="15.1132611059">
		<tag k="name" v="Storhaugen" />
		<tag k="natural" v="hill" />
		<tag k="place" v="locality" />
		<tag k="ssr:stedsnr" v="885610" />
	</node>
	<node id="-24663" lat="68.7075750034" lon="15.1139750092">
		<tag k="name" v="Røllikhaugen" />
		<tag k="natural" v="hill" />
		<tag k="place" v="locality" />
		<tag k="ssr:stedsnr" v="885608" />
	</node>
	<node id="-24659" lat="68.7189472207" lon="15.5450000061">
		<tag k="fixme" v="consider natural=peak for the most distinct mountains in the district" />
		<tag k="name" v="Middagsåsen" />
		<tag k="natural" v="hill" />
		<tag k="place" v="locality" />
		<tag k="ssr:stedsnr" v="947720" />
	</node>
	<node id="-24656" lat="68.7694416681" lon="15.813897226">
		<tag k="name" v="Smørkoppen" />
		<tag k="natural" v="hill" />
		<tag k="place" v="locality" />
		<tag k="ssr:stedsnr" v="867203" />
	</node>
	<node id="-24655" lat="68.5839916636" lon="15.4719333274">
		<tag k="fixme" v="consider natural=peak for the most distinct mountains in the district" />
		<tag k="name" v="Kløfttinden" />
		<tag k="natural" v="hill" />
		<tag k="place" v="locality" />
		<tag k="ssr:stedsnr" v="867114" />
	</node>
	<node id="-24654" lat="68.5810138878" lon="15.5861611031">
		<tag k="fixme" v="consider natural=peak for the most distinct mountains in the district" />
		<tag k="name" v="Breidtinden" />
		<tag k="natural" v="hill" />
		<tag k="place" v="locality" />
		<tag k="ssr:stedsnr" v="867113" />
	</node>
	<node id="-24652" lat="68.5893277787" lon="15.4775277765">
		<tag k="alt_name" v="Skredhågen" />
		<tag k="name" v="Skredhaugen" />
		<tag k="natural" v="hill" />
		<tag k="place" v="locality" />
		<tag k="ssr:stedsnr" v="867110" />
	</node>
	<node id="-24649" lat="68.7347749963" lon="15.6148888763">
		<tag k="name" v="Petter-Raffelsalia" />
		<tag k="natural" v="slope" />
		<tag k="place" v="locality" />
		<tag k="ssr:stedsnr" v="946741" />
	</node>
	<node id="-24648" lat="68.7499333316" lon="15.5990444537">
		<tag k="name" v="Storberget" />
		<tag k="natural" v="hill" />
		<tag k="place" v="locality" />
		<tag k="ssr:stedsnr" v="946687" />
	</node>
	<node id="-24647" lat="68.6826999992" lon="15.3385833417">
		<tag k="name" v="Bukkhola" />
		<tag k="natural" v="slope" />
		<tag k="place" v="locality" />
		<tag k="ssr:stedsnr" v="946676" />
	</node>
	<node id="-24640" lat="68.6359055531" lon="15.5827333212">
		<tag k="name" v="Gliberget" />
		<tag k="natural" v="hill" />
		<tag k="place" v="locality" />
		<tag k="ssr:stedsnr" v="946540" />
	</node>
	<node id="-24638" lat="68.6614777756" lon="15.2840361006">
		<tag k="name" v="Stokklidalen" />
		<tag k="natural" v="valley" />
		<tag k="place" v="locality" />
		<tag k="ssr:stedsnr" v="946520" />
	</node>
	<node id="-24633" lat="68.8655527795" lon="15.3271777732">
		<tag k="name" v="Rypstrandhaugen" />
		<tag k="natural" v="hill" />
		<tag k="place" v="locality" />
		<tag k="ssr:stedsnr" v="946428" />
	</node>
	<node id="-24631" lat="68.6835194451" lon="15.1393999982">
		<tag k="name" v="Vassdalen" />
		<tag k="natural" v="valley" />
		<tag k="place" v="locality" />
		<tag k="ssr:stedsnr" v="946276" />
	</node>
	<node id="-24626" lat="68.7121805599" lon="15.3516388804">
		<tag k="name" v="Tisterberget" />
		<tag k="natural" v="hill" />
		<tag k="place" v="locality" />
		<tag k="ssr:stedsnr" v="945541" />
	</node>
	<node id="-24624" lat="68.7157166651" lon="15.3667972222">
		<tag k="fixme" v="consider natural=peak for the most distinct mountains in the district" />
		<tag k="name" v="Heia" />
		<tag k="natural" v="hill" />
		<tag k="place" v="locality" />
		<tag k="ssr:stedsnr" v="945531" />
	</node>
	<node id="-24623" lat="68.7452416663" lon="15.1919972185">
		<tag k="name" v="Seterskaret" />
		<tag k="natural" v="valley" />
		<tag k="place" v="locality" />
		<tag k="ssr:stedsnr" v="945060" />
	</node>
	<node id="-24620" lat="68.7137444475" lon="15.4680972351">
		<tag k="fixme" v="consider natural=peak for the most distinct mountains in the district" />
		<tag k="name" v="Storkringlhågen" />
		<tag k="natural" v="hill" />
		<tag k="place" v="locality" />
		<tag k="ssr:stedsnr" v="844804" />
	</node>
	<node id="-24618" lat="68.649555558" lon="15.1768999882">
		<tag k="name" v="Slåttlia" />
		<tag k="natural" v="slope" />
		<tag k="place" v="locality" />
		<tag k="ssr:stedsnr" v="946865" />
	</node>
	<node id="-24614" lat="68.7550250032" lon="15.2491388852">
		<tag k="name" v="Pilatus" />
		<tag k="natural" v="hill" />
		<tag k="place" v="locality" />
		<tag k="ssr:stedsnr" v="823070" />
	</node>
	<node id="-24613" lat="68.7383361118" lon="15.2327611124">
		<tag k="fixme" v="consider natural=peak for the most distinct mountains in the district" />
		<tag k="name" v="Rødliheia" />
		<tag k="natural" v="hill" />
		<tag k="place" v="locality" />
		<tag k="ssr:stedsnr" v="928792" />
	</node>
	<node id="-24606" lat="68.7082249971" lon="15.3082805425">
		<tag k="alt_name" v="Sletten" />
		<tag k="name" v="Slettene" />
		<tag k="natural" v="slope" />
		<tag k="place" v="locality" />
		<tag k="ssr:stedsnr" v="928866" />
	</node>
	<node id="-24600" lat="68.7176583314" lon="15.465936107">
		<tag k="alt_name" v="Øverhågen" />
		<tag k="name" v="Øverhaugen" />
		<tag k="natural" v="hill" />
		<tag k="place" v="locality" />
		<tag k="ssr:stedsnr" v="928844" />
	</node>
	<node id="-24596" lat="68.6976138915" lon="15.7887110995">
		<tag k="fixme" v="consider natural=peak for the most distinct mountains in the district" />
		<tag k="name" v="Rundfjellet" />
		<tag k="natural" v="hill" />
		<tag k="place" v="locality" />
		<tag k="ssr:stedsnr" v="928451" />
	</node>
	<node id="-24595" lat="68.7475527803" lon="15.933669441">
		<tag k="fixme" v="consider natural=peak for the most distinct mountains in the district" />
		<tag k="name" v="Tverrfjellet" />
		<tag k="natural" v="hill" />
		<tag k="place" v="locality" />
		<tag k="ssr:stedsnr" v="928400" />
	</node>
	<node id="-24589" lat="68.7819916642" lon="15.1150777797">
		<tag k="alt_name" v="Reinsberget" />
		<tag k="name" v="Reinberget" />
		<tag k="natural" v="hill" />
		<tag k="place" v="locality" />
		<tag k="ssr:stedsnr" v="928282" />
	</node>
	<node id="-24586" lat="68.8108555563" lon="15.4850361064">
		<tag k="name" v="Høgfjellet" />
		<tag k="natural" v="hill" />
		<tag k="place" v="locality" />
		<tag k="ssr:stedsnr" v="928234" />
	</node>
	<node id="-24585" lat="68.6901472219" lon="15.7391555472">
		<tag k="name" v="Sørfjorddalen" />
		<tag k="natural" v="valley" />
		<tag k="place" v="locality" />
		<tag k="ssr:stedsnr" v="928221" />
	</node>
	<node id="-24581" lat="68.6803999953" lon="15.18285001">
		<tag k="fixme" v="consider natural=peak for the most distinct mountains in the district" />
		<tag k="name" v="Munkhaugaksla" />
		<tag k="natural" v="hill" />
		<tag k="place" v="locality" />
		<tag k="ssr:stedsnr" v="928163" />
	</node>
	<node id="-24580" lat="68.7772694423" lon="15.8456222311">
		<tag k="name" v="Storlia" />
		<tag k="natural" v="slope" />
		<tag k="place" v="locality" />
		<tag k="ssr:stedsnr" v="928154" />
	</node>
	<node id="-24578" lat="68.8087944421" lon="15.8168249901">
		<tag k="name" v="Myrlandsdalen" />
		<tag k="natural" v="valley" />
		<tag k="place" v="locality" />
		<tag k="ssr:stedsnr" v="807115" />
	</node>
	<node id="-24577" lat="68.797794442" lon="15.775138882">
		<tag k="fixme" v="consider natural=peak for the most distinct mountains in the district" />
		<tag k="name" v="Skardtindan" />
		<tag k="natural" v="hill" />
		<tag k="place" v="locality" />
		<tag k="ssr:stedsnr" v="807104" />
	</node>
</osm>
