<?xml version="1.0" encoding="UTF-8"?>
<osm generator="osmapis" version="0.6">
	<node id="-719360" lat="68.6601888858" lon="15.3185861016">
		<tag k="name" v="Røa" />
		<tag k="place" v="farm" />
		<tag k="ssr:stedsnr" v="806211" />
	</node>
	<node id="-719357" lat="68.6463444445" lon="15.2752722119">
		<tag k="name" v="Holand" />
		<tag k="place" v="isolated_dwelling" />
		<tag k="ssr:stedsnr" v="806182" />
	</node>
	<node id="-719355" lat="68.6766833317" lon="15.3745861011">
		<tag k="name" v="Nordnes" />
		<tag k="place" v="farm" />
		<tag k="ssr:stedsnr" v="806172" />
	</node>
	<node id="-718841" lat="68.7756249993" lon="15.2989250047">
		<tag k="name" v="Åsen" />
		<tag k="place" v="farm" />
		<tag k="ssr:stedsnr" v="624349" />
	</node>
	<node id="-718328" lat="68.6756194472" lon="15.4746777731">
		<tag k="name" v="Ånes" />
		<tag k="place" v="farm" />
		<tag k="ssr:stedsnr" v="461572" />
	</node>
	<node id="-717300" lat="68.6437277792" lon="15.5115694487">
		<tag k="name" v="Sigerfjord" />
		<tag k="place" v="village" />
		<tag k="ssr:stedsnr" v="17281" />
	</node>
	<node id="-716787" lat="68.6004083298" lon="15.381025002">
		<tag k="building" v="industrial" />
		<tag k="name" v="Blokken skipsverft" />
		<tag k="ssr:stedsnr" v="300531" />
	</node>
	<node id="-718322" lat="68.6552749955" lon="15.3323333386">
		<tag k="name" v="Bønes" />
		<tag k="place" v="farm" />
		<tag k="ssr:stedsnr" v="461424" />
	</node>
	<node id="-716785" lat="68.7394805555" lon="15.5572555617">
		<tag k="name" v="Jettaskogan" />
		<tag k="place" v="farm" />
		<tag k="ssr:stedsnr" v="298758" />
	</node>
	<node id="-716783" lat="68.6889500017" lon="15.4142666661">
		<tag k="building" v="industrial" />
		<tag k="industrial" v="factory" />
		<tag k="name" v="Nord-Norges Salgslag" />
		<tag k="ssr:stedsnr" v="298705" />
	</node>
	<node id="-716782" lat="68.6915416665" lon="15.4033166622">
		<tag k="name" v="Kjempenhøy" />
		<tag k="place" v="quarter" />
		<tag k="ssr:stedsnr" v="298702" />
	</node>
	<node id="-717804" lat="68.622258331" lon="15.6362222335">
		<tag k="name" v="Moan" />
		<tag k="place" v="isolated_dwelling" />
		<tag k="ssr:stedsnr" v="158748" />
	</node>
	<node id="-716882" lat="68.7585527809" lon="15.1154583434">
		<tag k="fixme" v="consider place=hamlet" />
		<tag k="loc_name:se" v="Froská" />
		<tag k="name" v="Frøskeland" />
		<tag k="name:no" v="Frøskeland" />
		<tag k="place" v="village" />
		<tag k="ssr:stedsnr" v="321396" />
	</node>
	<node id="-717798" lat="68.6341751636" lon="15.2160827519">
		<tag k="fixme" v="consider place=hamlet" />
		<tag k="name" v="Store Rise" />
		<tag k="place" v="farm" />
		<tag k="ssr:stedsnr" v="157851" />
	</node>
	<node id="-718821" lat="68.6973444444" lon="15.3513277852">
		<tag k="name" v="Turlagsstua" />
		<tag k="old_name" v="Kovstua" />
		<tag k="place" v="isolated_dwelling" />
		<tag k="ssr:stedsnr" v="624178" />
	</node>
	<node id="-719412" lat="68.7041444425" lon="15.2617750084">
		<tag k="name" v="Solvang" />
		<tag k="place" v="farm" />
		<tag k="ssr:stedsnr" v="807808" />
	</node>
	<node id="-717478" lat="68.8063694415" lon="15.8885944326">
		<tag k="name" v="Myrland" />
		<tag k="place" v="farm" />
		<tag k="ssr:stedsnr" v="78100" />
	</node>
	<node id="-717794" lat="68.6319222266" lon="15.2414944502">
		<tag k="name" v="Latofta" />
		<tag k="place" v="locality" />
		<tag k="ssr:stedsnr" v="157726" />
	</node>
	<node id="-719841" lat="68.6592819898" lon="15.3135576542">
		<tag k="name" v="Øverbø" />
		<tag k="place" v="farm" />
		<tag k="ssr:stedsnr" v="980644" />
	</node>
	<node id="-718304" lat="68.7538527809" lon="15.2681888781">
		<tag k="name" v="Vikosen" />
		<tag k="place" v="farm" />
		<tag k="ssr:stedsnr" v="460078" />
	</node>
	<node id="-719839" lat="68.6565952838" lon="15.3235664018">
		<tag k="name" v="Nordbø" />
		<tag k="place" v="farm" />
		<tag k="ssr:stedsnr" v="980642" />
	</node>
	<node id="-719838" lat="68.8156739589" lon="15.5422389431">
		<tag k="name" v="Roksøy" />
		<tag k="place" v="farm" />
		<tag k="ssr:stedsnr" v="980581" />
	</node>
	<node id="-717277" lat="68.6262055528" lon="15.4541916729">
		<tag k="name" v="Ytterbrokløysa" />
		<tag k="place" v="farm" />
		<tag k="ssr:stedsnr" v="17037" />
	</node>
	<node id="-718300" lat="68.564027782" lon="15.5755555591">
		<tag k="fixme" v="consider tourism=alpine_hut or tourism=chalet" />
		<tag k="name" v="Snytindhytta" />
		<tag k="ssr:stedsnr" v="448647" />
		<tag k="tourism" v="wilderness_hut" />
	</node>
	<node id="-719835" lat="68.6335329506" lon="15.207184624">
		<tag k="name" v="Lille Rise" />
		<tag k="place" v="farm" />
		<tag k="ssr:stedsnr" v="979840" />
	</node>
	<node id="-717792" lat="68.7440861107" lon="15.5987888987">
		<tag k="name" v="Mølla" />
		<tag k="place" v="isolated_dwelling" />
		<tag k="ssr:stedsnr" v="157696" />
	</node>
	<node id="-717784" lat="68.6322000005" lon="15.5848666787">
		<tag k="name" v="Åkenes" />
		<tag k="place" v="isolated_dwelling" />
		<tag k="ssr:stedsnr" v="157644" />
	</node>
	<node id="-718804" lat="68.6645861091" lon="15.5676972094">
		<tag k="name" v="Kleiva" />
		<tag k="place" v="isolated_dwelling" />
		<tag k="ssr:stedsnr" v="623222" />
	</node>
	<node id="-718291" lat="68.7375055558" lon="15.8060833224">
		<tag k="fixme" v="consider place=hamlet" />
		<tag k="name" v="Fjordjorda" />
		<tag k="place" v="farm" />
		<tag k="ssr:stedsnr" v="443461" />
	</node>
	<node id="-716912" lat="68.7066583339" lon="15.1847611234">
		<tag k="name" v="Fjellbu" />
		<tag k="place" v="farm" />
		<tag k="ssr:stedsnr" v="321811" />
	</node>
	<node id="-719825" lat="68.7702833347" lon="15.8401833449">
		<tag k="name" v="Molund" />
		<tag k="place" v="farm" />
		<tag k="ssr:stedsnr" v="969348" />
	</node>
	<node id="-718799" lat="68.6720888926" lon="15.3683249932">
		<tag k="name" v="Jektnes" />
		<tag k="place" v="farm" />
		<tag k="ssr:stedsnr" v="623177" />
	</node>
	<node id="-718413" lat="68.6515750041" lon="15.6168277693">
		<tag k="name" v="Slåtten" />
		<tag k="place" v="farm" />
		<tag k="ssr:stedsnr" v="502239" />
	</node>
	<node id="-719308" lat="68.8168888916" lon="15.5358305486">
		<tag k="name" v="Haugan" />
		<tag k="place" v="farm" />
		<tag k="ssr:stedsnr" v="784105" />
	</node>
	<node id="-717979" lat="68.5971916683" lon="15.3546722327">
		<tag k="name" v="Djupvika" />
		<tag k="place" v="isolated_dwelling" />
		<tag k="ssr:stedsnr" v="218354" />
	</node>
	<node id="-716876" lat="68.7989805535" lon="15.2664083235">
		<tag k="name" v="Vollen" />
		<tag k="place" v="isolated_dwelling" />
		<tag k="ssr:stedsnr" v="321316" />
	</node>
	<node id="-718753" lat="68.6961611105" lon="15.4072222162">
		<tag k="amenity" v="sports_centre" />
		<tag k="name" v="Sortlandhallen" />
		<tag k="ssr:stedsnr" v="601691" />
	</node>
	<node id="-719299" lat="68.6961777815" lon="15.4114888999">
		<tag k="amenity" v="townhall" />
		<tag k="name" v="Sortland rådhus" />
		<tag k="ssr:stedsnr" v="783697" />
	</node>
	<node id="-717250" lat="68.7659204794" lon="15.0485260634">
		<tag k="name" v="Brenna" />
		<tag k="place" v="farm" />
		<tag k="ssr:stedsnr" v="989670" />
	</node>
	<node id="-718273" lat="68.7102194476" lon="15.4094527676">
		<tag k="name" v="Selnes" />
		<tag k="place" v="farm" />
		<tag k="ssr:stedsnr" v="442889" />
	</node>
	<node id="-718272" lat="68.7095944456" lon="15.1443166563">
		<tag k="name" v="Nygård" />
		<tag k="place" v="farm" />
		<tag k="ssr:stedsnr" v="442886" />
	</node>
	<node id="-719807" lat="68.8006444485" lon="15.3556833438">
		<tag k="name" v="Bjørkly" />
		<tag k="place" v="farm" />
		<tag k="ssr:stedsnr" v="967619" />
	</node>
	<node id="-716734" lat="68.7670333302" lon="15.0531999992">
		<tag k="name" v="Vollen" />
		<tag k="place" v="farm" />
		<tag k="ssr:stedsnr" v="279551" />
	</node>
	<node id="-718473" lat="68.7582999995" lon="15.1390944323">
		<tag k="name" v="Vangen" />
		<tag k="place" v="farm" />
		<tag k="ssr:stedsnr" v="520415" />
	</node>
	<node id="-718666" lat="68.6958944426" lon="15.1783166716">
		<tag k="alt_name" v="Oshaug" />
		<tag k="name" v="Oshaugen" />
		<tag k="place" v="farm" />
		<tag k="ssr:stedsnr" v="564836" />
	</node>
	<node id="-718778" lat="68.8080750025" lon="15.8904222286">
		<tag k="fixme" v="consider place=hamlet" />
		<tag k="name" v="Myrland" />
		<tag k="place" v="village" />
		<tag k="ssr:stedsnr" v="604375" />
	</node>
	<node id="-718777" lat="68.7755944453" lon="15.8540722182">
		<tag k="name" v="Solheim" />
		<tag k="place" v="farm" />
		<tag k="ssr:stedsnr" v="604361" />
	</node>
	<node id="-717237" lat="68.6933666654" lon="14.9202972199">
		<tag k="name" v="Øvergården" />
		<tag k="place" v="isolated_dwelling" />
		<tag k="ssr:stedsnr" v="892616" />
	</node>
	<node id="-717726" lat="68.755919443" lon="15.0861083354">
		<tag k="name" v="Selnesbukt" />
		<tag k="place" v="farm" />
		<tag k="ssr:stedsnr" v="139430" />
	</node>
	<node id="-717338" lat="68.7431305568" lon="15.6607638948">
		<tag k="alt_name" v="Eidbukta" />
		<tag k="fixme" v="consider place=hamlet" />
		<tag k="name" v="Eidebukta" />
		<tag k="place" v="village" />
		<tag k="ssr:stedsnr" v="18396" />
	</node>
	<node id="-717742" lat="68.6963472198" lon="15.1416222297">
		<tag k="name" v="Sørbogen" />
		<tag k="place" v="farm" />
		<tag k="ssr:stedsnr" v="139819" />
	</node>
	<node id="-718253" lat="68.7622138926" lon="15.2882888794">
		<tag k="fixme" v="consider place=hamlet" />
		<tag k="name" v="Vik" />
		<tag k="place" v="village" />
		<tag k="ssr:stedsnr" v="442409" />
	</node>
	<node id="-719275" lat="68.7226749969" lon="15.5351249965">
		<tag k="name" v="Gårdsgrunnen" />
		<tag k="place" v="farm" />
		<tag k="ssr:stedsnr" v="769227" />
	</node>
	<node id="-718762" lat="68.6788277815" lon="15.390247212">
		<tag k="name" v="Myrland" />
		<tag k="place" v="farm" />
		<tag k="ssr:stedsnr" v="603610" />
	</node>
	<node id="-717221" lat="68.6967555534" lon="15.4061222166">
		<tag k="amenity" v="school" />
		<tag k="name" v="Sortland barneskole" />
		<tag k="ssr:stedsnr" v="886890" />
	</node>
	<node id="-717894" lat="68.5984472196" lon="15.3910611193">
		<tag k="name" v="Nygård" />
		<tag k="place" v="isolated_dwelling" />
		<tag k="ssr:stedsnr" v="199068" />
	</node>
	<node id="-717730" lat="68.7511472264" lon="15.145772219">
		<tag k="name" v="Stranda" />
		<tag k="place" v="hamlet" />
		<tag k="ssr:stedsnr" v="139454" />
	</node>
	<node id="-719265" lat="68.7014222186" lon="15.4043166758">
		<tag k="name" v="Kjerkåsen" />
		<tag k="place" v="quarter" />
		<tag k="ssr:stedsnr" v="764986" />
	</node>
	<node id="-717728" lat="68.7567083366" lon="15.2622416621">
		<tag k="name" v="Bruland" />
		<tag k="place" v="farm" />
		<tag k="ssr:stedsnr" v="139442" />
	</node>
	<node id="-719262" lat="68.7304500007" lon="15.1561972313">
		<tag k="name" v="Brekka" />
		<tag k="place" v="farm" />
		<tag k="ssr:stedsnr" v="764887" />
	</node>
	<node id="-717125" lat="68.7743611144" lon="15.2963944532">
		<tag k="name" v="Storelv-Fredheim" />
		<tag k="place" v="farm" />
		<tag k="ssr:stedsnr" v="399226" />
	</node>
	<node id="-717723" lat="68.7535638891" lon="15.4690138881">
		<tag k="fixme" v="consider place=hamlet" />
		<tag k="name" v="Maurnes" />
		<tag k="place" v="village" />
		<tag k="ssr:stedsnr" v="139388" />
	</node>
	<node id="-718234" lat="68.8160032539" lon="15.6054269058">
		<tag k="alt_name" v="Vibukta" />
		<tag k="name" v="Vidbukta" />
		<tag k="place" v="farm" />
		<tag k="ssr:stedsnr" v="442296" />
	</node>
	<node id="-718233" lat="68.653238885" lon="15.5049444454">
		<tag k="name" v="Nerdalen" />
		<tag k="place" v="farm" />
		<tag k="ssr:stedsnr" v="442287" />
	</node>
	<node id="-717380" lat="68.6444277789" lon="15.5055777658">
		<tag k="name" v="Ramnkloa" />
		<tag k="place" v="farm" />
		<tag k="ssr:stedsnr" v="36444" />
	</node>
	<node id="-719253" lat="68.6207277801" lon="15.636477768">
		<tag k="name" v="Sommarhågen" />
		<tag k="place" v="isolated_dwelling" />
		<tag k="ssr:stedsnr" v="764627" />
	</node>
	<node id="-719252" lat="68.7249916678" lon="15.3943138886">
		<tag k="name" v="Øvertoften" />
		<tag k="place" v="farm" />
		<tag k="ssr:stedsnr" v="764583" />
	</node>
	<node id="-718227" lat="68.6479805563" lon="15.2901111206">
		<tag k="name" v="Kleiva" />
		<tag k="place" v="farm" />
		<tag k="ssr:stedsnr" v="442222" />
	</node>
	<node id="-718737" lat="68.7766333325" lon="15.8595083221">
		<tag k="fixme" v="consider place=hamlet" />
		<tag k="name" v="Reinstad" />
		<tag k="place" v="village" />
		<tag k="ssr:stedsnr" v="604407" />
	</node>
	<node id="-719757" lat="68.6850833363" lon="15.3963722284">
		<tag k="alt_name" v="Strandskogen" />
		<tag k="name" v="Strandskog" />
		<tag k="place" v="quarter" />
		<tag k="ssr:stedsnr" v="947511" />
	</node>
	<node id="-719755" lat="68.7205694416" lon="15.3780944453">
		<tag k="name" v="Rya" />
		<tag k="place" v="farm" />
		<tag k="ssr:stedsnr" v="946953" />
	</node>
	<node id="-717193" lat="68.6547138934" lon="15.3134916649">
		<tag k="name" v="Tofta" />
		<tag k="place" v="farm" />
		<tag k="ssr:stedsnr" v="885434" />
	</node>
	<node id="-717703" lat="68.7178944417" lon="15.1745694554">
		<tag k="name" v="Rabben" />
		<tag k="place" v="farm" />
		<tag k="ssr:stedsnr" v="138788" />
	</node>
	<node id="-717702" lat="68.7297611107" lon="15.4024249994">
		<tag k="name" v="Vollen" />
		<tag k="place" v="farm" />
		<tag k="ssr:stedsnr" v="138776" />
	</node>
	<node id="-719236" lat="68.7583416682" lon="15.1299888915">
		<tag k="name" v="Nergarden" />
		<tag k="place" v="farm" />
		<tag k="ssr:stedsnr" v="763450" />
	</node>
	<node id="-719235" lat="68.7600305521" lon="15.2161972288">
		<tag k="name" v="Lamarka" />
		<tag k="place" v="farm" />
		<tag k="ssr:stedsnr" v="763446" />
	</node>
	<node id="-718719" lat="68.6908194399" lon="15.4058166762">
		<tag k="name" v="Lykketreff" />
		<tag k="place" v="isolated_dwelling" />
		<tag k="ssr:stedsnr" v="583527" />
	</node>
	<node id="-719230" lat="68.7464083337" lon="15.1900555627">
		<tag k="name" v="Setra" />
		<tag k="place" v="isolated_dwelling" />
		<tag k="ssr:stedsnr" v="762074" />
	</node>
	<node id="-718741" lat="68.738761112" lon="15.6988527728">
		<tag k="name" v="Lappjorda" />
		<tag k="place" v="farm" />
		<tag k="ssr:stedsnr" v="601002" />
	</node>
	<node id="-718716" lat="68.6978555518" lon="15.4069083425">
		<tag k="amenity" v="school" />
		<tag k="name" v="Sortland ungdomsskole" />
		<tag k="ssr:stedsnr" v="582887" />
	</node>
	<node id="-719739" lat="68.6928916638" lon="15.1833972161">
		<tag k="name" v="Oshaug" />
		<tag k="place" v="farm" />
		<tag k="ssr:stedsnr" v="946523" />
	</node>
	<node id="-719737" lat="68.6422555549" lon="15.5293361067">
		<tag k="name" v="Haugen" />
		<tag k="place" v="quarter" />
		<tag k="ssr:stedsnr" v="946455" />
	</node>
	<node id="-719224" lat="68.704316664" lon="15.1547972103">
		<tag k="name" v="Valfjord" />
		<tag k="place" v="farm" />
		<tag k="ssr:stedsnr" v="746781" />
	</node>
	<node id="-719735" lat="68.6508916637" lon="15.5053999869">
		<tag k="name" v="Rishaugen" />
		<tag k="place" v="farm" />
		<tag k="ssr:stedsnr" v="946451" />
	</node>
	<node id="-717173" lat="68.6923749961" lon="14.9264916744">
		<tag k="name" v="Øvrenesene" />
		<tag k="place" v="isolated_dwelling" />
		<tag k="ssr:stedsnr" v="406635" />
	</node>
	<node id="-719732" lat="68.6533783546" lon="15.3112220112">
		<tag k="fixme" v="consider place=hamlet" />
		<tag k="name" v="Bø" />
		<tag k="place" v="farm" />
		<tag k="ssr:stedsnr" v="946398" />
	</node>
	<node id="-719837" lat="68.816686712" lon="15.536373503">
		<tag k="name" v="Roksøy" />
		<tag k="place" v="farm" />
		<tag k="ssr:stedsnr" v="980580" />
	</node>
	<node id="-717681" lat="68.629886114" lon="15.5516639012">
		<tag k="fixme" v="consider place=hamlet" />
		<tag k="name" v="Spjutvik" />
		<tag k="place" v="village" />
		<tag k="ssr:stedsnr" v="138245" />
	</node>
	<node id="-719727" lat="68.680566663" lon="15.0663722135">
		<tag k="name" v="Straumfjord" />
		<tag k="place" v="hamlet" />
		<tag k="ssr:stedsnr" v="945574" />
	</node>
	<node id="-717677" lat="68.6524277748" lon="15.4972416703">
		<tag k="name" v="Dalsand" />
		<tag k="place" v="farm" />
		<tag k="ssr:stedsnr" v="138211" />
	</node>
	<node id="-719211" lat="68.7505527775" lon="15.2863500105">
		<tag k="alt_name" v="Breidvika" />
		<tag k="name" v="Breivik" />
		<tag k="place" v="farm" />
		<tag k="ssr:stedsnr" v="746365" />
	</node>
	<node id="-717162" lat="68.6907861098" lon="15.3891722155">
		<tag k="name" v="Lamarka" />
		<tag k="place" v="quarter" />
		<tag k="ssr:stedsnr" v="401514" />
	</node>
	<node id="-719720" lat="68.7108694442" lon="15.1063694354">
		<tag k="name" v="Sildpollen" />
		<tag k="place" v="farm" />
		<tag k="ssr:stedsnr" v="928855" />
	</node>
	<node id="-719206" lat="68.7663305536" lon="15.0633638964">
		<tag k="name" v="Åsheim" />
		<tag k="place" v="farm" />
		<tag k="ssr:stedsnr" v="746314" />
	</node>
	<node id="-718490" lat="68.6221583359" lon="15.6274777849">
		<tag k="name" v="Labakkan" />
		<tag k="place" v="isolated_dwelling" />
		<tag k="ssr:stedsnr" v="521633" />
	</node>
	<node id="-718691" lat="68.7264999986" lon="15.1478833418">
		<tag k="name" v="Høgbakken" />
		<tag k="place" v="farm" />
		<tag k="ssr:stedsnr" v="581878" />
	</node>
	<node id="-719714" lat="68.6939388879" lon="15.0637500093">
		<tag k="name" v="Avhaldet" />
		<tag k="place" v="farm" />
		<tag k="ssr:stedsnr" v="928829" />
	</node>
	<node id="-718907" lat="68.679261112" lon="15.4802861087">
		<tag k="name" v="Slettmarka" />
		<tag k="place" v="farm" />
		<tag k="ssr:stedsnr" v="643535" />
	</node>
	<node id="-718173" lat="68.7641083339" lon="15.043738897">
		<tag k="name" v="Valjorda" />
		<tag k="place" v="farm" />
		<tag k="ssr:stedsnr" v="421132" />
	</node>
	<node id="-719708" lat="68.7390361147" lon="15.0796666558">
		<tag k="name" v="Valsnes" />
		<tag k="place" v="farm" />
		<tag k="ssr:stedsnr" v="928788" />
	</node>
	<node id="-719707" lat="68.746944441" lon="15.1491499962">
		<tag k="name" v="Langskogen" />
		<tag k="place" v="farm" />
		<tag k="ssr:stedsnr" v="928768" />
	</node>
	<node id="-719194" lat="68.7204555508" lon="15.1524888988">
		<tag k="name" v="Sørstranda" />
		<tag k="place" v="farm" />
		<tag k="ssr:stedsnr" v="745818" />
	</node>
	<node id="-719705" lat="68.7243933139" lon="15.0359381118">
		<tag k="fixme" v="consider place=hamlet" />
		<tag k="loc_name:se" v="Grivttegak" />
		<tag k="name" v="Grytting" />
		<tag k="name:no" v="Grytting" />
		<tag k="place" v="farm" />
		<tag k="ssr:stedsnr" v="928757" />
	</node>
	<node id="-717141" lat="68.7223638908" lon="15.4482611065">
		<tag k="name" v="Stihaugen" />
		<tag k="place" v="farm" />
		<tag k="ssr:stedsnr" v="400491" />
	</node>
	<node id="-718675" lat="68.7580805552" lon="15.1359944531">
		<tag k="name" v="Vollan" />
		<tag k="place" v="farm" />
		<tag k="ssr:stedsnr" v="581461" />
	</node>
	<node id="-717138" lat="68.837913889" lon="15.905669453">
		<tag k="name" v="Myrvoll" />
		<tag k="place" v="locality" />
		<tag k="ssr:stedsnr" v="399906" />
	</node>
	<node id="-718673" lat="68.6628833346" lon="15.3231111127">
		<tag k="name" v="Skiftbakken" />
		<tag k="place" v="farm" />
		<tag k="ssr:stedsnr" v="581439" />
	</node>
	<node id="-719184" lat="68.8399750021" lon="15.3839194326">
		<tag k="name" v="Stranda" />
		<tag k="place" v="farm" />
		<tag k="ssr:stedsnr" v="745338" />
	</node>
	<node id="-718669" lat="68.6788305515" lon="15.0674111152">
		<tag k="name" v="Straumfjorden" />
		<tag k="place" v="farm" />
		<tag k="ssr:stedsnr" v="574905" />
	</node>
	<node id="-717131" lat="68.6773027751" lon="15.1568388765">
		<tag k="name" v="Innersetra" />
		<tag k="place" v="isolated_dwelling" />
		<tag k="ssr:stedsnr" v="399577" />
	</node>
	<node id="-719690" lat="68.7604222213" lon="15.0600861122">
		<tag k="alt_name" v="Toften" />
		<tag k="name" v="Tofta" />
		<tag k="place" v="farm" />
		<tag k="ssr:stedsnr" v="928387" />
	</node>
	<node id="-717127" lat="68.7642472243" lon="15.1401611171">
		<tag k="name" v="Bakketun" />
		<tag k="place" v="farm" />
		<tag k="ssr:stedsnr" v="399458" />
	</node>
	<node id="-718150" lat="68.7406611149" lon="15.5618499929">
		<tag k="name" v="Jettasbogen" />
		<tag k="place" v="farm" />
		<tag k="ssr:stedsnr" v="261726" />
	</node>
	<node id="-717637" lat="68.6823805586" lon="15.3897166681">
		<tag k="name" v="Prestgården" />
		<tag k="place" v="farm" />
		<tag k="ssr:stedsnr" v="118595" />
	</node>
	<node id="-719684" lat="68.7675027753" lon="15.0208333241">
		<tag k="name" v="Bjørndalen" />
		<tag k="place" v="farm" />
		<tag k="ssr:stedsnr" v="928290" />
	</node>
	<node id="-718658" lat="68.8034083323" lon="15.3637583229">
		<tag k="name" v="Nevernes" />
		<tag k="place" v="farm" />
		<tag k="ssr:stedsnr" v="564340" />
	</node>
	<node id="-717121" lat="68.7567861096" lon="15.2549694428">
		<tag k="amenity" v="school" />
		<tag k="name" v="Maskinførerskolen" />
		<tag k="ssr:stedsnr" v="398071" />
	</node>
	<node id="-719840" lat="68.6591771551" lon="15.3147534343">
		<tag k="name" v="Bø øvre" />
		<tag k="place" v="farm" />
		<tag k="ssr:stedsnr" v="980643" />
	</node>
	<node id="-718142" lat="68.8120527768" lon="15.4704083228">
		<tag k="name" v="Stamnes" />
		<tag k="place" v="farm" />
		<tag k="ssr:stedsnr" v="261261" />
	</node>
	<node id="-717117" lat="68.6994388915" lon="15.0789611217">
		<tag k="name" v="Sildvika" />
		<tag k="place" v="farm" />
		<tag k="ssr:stedsnr" v="382797" />
	</node>
	<node id="-718139" lat="68.6827333297" lon="15.0623305434">
		<tag k="alt_name" v="Straumfjord, indre" />
		<tag k="name" v="Indre Straumfjord" />
		<tag k="place" v="farm" />
		<tag k="ssr:stedsnr" v="261138" />
	</node>
	<node id="-718138" lat="68.798386114" lon="15.8854500084">
		<tag k="name" v="Bakkemo" />
		<tag k="place" v="farm" />
		<tag k="ssr:stedsnr" v="261101" />
	</node>
	<node id="-718136" lat="68.7890194426" lon="15.9522277859">
		<tag k="alt_name" v="Røykenes;Røkenes" />
		<tag k="name" v="Røyknes" />
		<tag k="place" v="farm" />
		<tag k="ssr:stedsnr" v="261076" />
	</node>
	<node id="-718647" lat="68.7431166696" lon="15.370041665">
		<tag k="name" v="Jektbogen" />
		<tag k="place" v="farm" />
		<tag k="ssr:stedsnr" v="563815" />
	</node>
	<node id="-719669" lat="68.6820166673" lon="15.3880583382">
		<tag k="fixme" v="consider place=suburb, village or hamlet" />
		<tag k="name" v="Nord-Steiro" />
		<tag k="place" v="quarter" />
		<tag k="ssr:stedsnr" v="928115" />
	</node>
	<node id="-718132" lat="68.7130638934" lon="15.2321777676">
		<tag k="name" v="Skoglund" />
		<tag k="place" v="farm" />
		<tag k="ssr:stedsnr" v="260898" />
	</node>
	<node id="-717618" lat="68.671613885" lon="15.7738750061">
		<tag k="name" v="Sørdalsbua" />
		<tag k="place" v="locality" />
		<tag k="ssr:stedsnr" v="116099" />
	</node>
	<node id="-717104" lat="68.7560472266" lon="15.0816333278">
		<tag k="name" v="Solstrand" />
		<tag k="place" v="farm" />
		<tag k="ssr:stedsnr" v="382415" />
	</node>
	<node id="-718301" lat="68.7048777739" lon="15.7522972125">
		<tag k="fixme" v="consider tourism=alpine_hut or tourism=chalet" />
		<tag k="name" v="Ingemannhytta" />
		<tag k="ssr:stedsnr" v="449142" />
		<tag k="tourism" v="wilderness_hut" />
	</node>
	<node id="-717095" lat="68.8711083374" lon="15.9359388778">
		<tag k="name" v="Finnsæter" />
		<tag k="place" v="farm" />
		<tag k="ssr:stedsnr" v="382056" />
	</node>
	<node id="-719141" lat="68.8146194443" lon="15.8957194377">
		<tag k="name" v="Nordheim" />
		<tag k="place" v="farm" />
		<tag k="ssr:stedsnr" v="726696" />
	</node>
	<node id="-719652" lat="68.5997833295" lon="15.3881500073">
		<tag k="name" v="Blokken" />
		<tag k="place" v="village" />
		<tag k="ssr:stedsnr" v="927066" />
	</node>
	<node id="-716934" lat="68.6919749995" lon="15.0588694354">
		<tag k="name" v="Skjeringberget" />
		<tag k="place" v="farm" />
		<tag k="ssr:stedsnr" v="339321" />
	</node>
	<node id="-718626" lat="68.7631972212" lon="15.0592722338">
		<tag k="name" v="Åsli" />
		<tag k="place" v="farm" />
		<tag k="ssr:stedsnr" v="563326" />
	</node>
	<node id="-717275" lat="68.9388500023" lon="15.9082111185">
		<tag k="name" v="Kinn" />
		<tag k="place" v="farm" />
		<tag k="ssr:stedsnr" v="18449" />
	</node>
	<node id="-717087" lat="68.7177444402" lon="15.1895027742">
		<tag k="name" v="Fagereng" />
		<tag k="place" v="farm" />
		<tag k="ssr:stedsnr" v="381819" />
	</node>
	<node id="-717086" lat="68.7254777741" lon="15.1639083253">
		<tag k="alt_name" v="Raen" />
		<tag k="name" v="Raene" />
		<tag k="place" v="farm" />
		<tag k="ssr:stedsnr" v="381815" />
	</node>
	<node id="-718107" lat="68.6969333299" lon="15.7171805528">
		<tag k="name" v="Sørfjorden" />
		<tag k="place" v="farm" />
		<tag k="ssr:stedsnr" v="260509" />
	</node>
	<node id="-718106" lat="68.6331444405" lon="15.209638891">
		<tag k="fixme" v="consider place=hamlet" />
		<tag k="name" v="Rise" />
		<tag k="place" v="village" />
		<tag k="ssr:stedsnr" v="260284" />
	</node>
	<node id="-718105" lat="68.6398972243" lon="15.5590527876">
		<tag k="name" v="Øverland" />
		<tag k="place" v="isolated_dwelling" />
		<tag k="ssr:stedsnr" v="260282" />
	</node>
	<node id="-719640" lat="68.7635805572" lon="15.8295416714">
		<tag k="name" v="Haugly" />
		<tag k="place" v="farm" />
		<tag k="ssr:stedsnr" v="908363" />
	</node>
	<node id="-718468" lat="68.7155666674" lon="15.4067000071">
		<tag k="name" v="Nertofta" />
		<tag k="place" v="farm" />
		<tag k="ssr:stedsnr" v="503823" />
	</node>
	<node id="-717590" lat="68.6295611138" lon="15.589124989">
		<tag k="name" v="Stiberget" />
		<tag k="place" v="farm" />
		<tag k="ssr:stedsnr" v="97673" />
	</node>
	<node id="-718101" lat="68.7755111147" lon="15.8563222278">
		<tag k="name" v="Reinstad" />
		<tag k="place" v="farm" />
		<tag k="ssr:stedsnr" v="260213" />
	</node>
	<node id="-718612" lat="68.6570250002" lon="15.5973861125">
		<tag k="name" v="Dalheim" />
		<tag k="place" v="farm" />
		<tag k="ssr:stedsnr" v="563253" />
	</node>
	<node id="-717587" lat="68.6238333325" lon="15.5931694421">
		<tag k="name" v="Kleiva" />
		<tag k="place" v="isolated_dwelling" />
		<tag k="ssr:stedsnr" v="97647" />
	</node>
	<node id="-719633" lat="68.7221833311" lon="15.4021416702">
		<tag k="name" v="Nertoften" />
		<tag k="place" v="farm" />
		<tag k="ssr:stedsnr" v="907954" />
	</node>
	<node id="-719632" lat="68.8108083364" lon="15.3586972345">
		<tag k="name" v="Litlejorda" />
		<tag k="place" v="isolated_dwelling" />
		<tag k="ssr:stedsnr" v="907800" />
	</node>
	<node id="-718605" lat="68.7559416702" lon="15.8219611049">
		<tag k="name" v="Søreng" />
		<tag k="place" v="farm" />
		<tag k="ssr:stedsnr" v="563142" />
	</node>
	<node id="-717068" lat="68.6568611112" lon="15.512352774">
		<tag k="name" v="Langbakken" />
		<tag k="place" v="farm" />
		<tag k="ssr:stedsnr" v="381240" />
	</node>
	<node id="-718978" lat="68.6662972189" lon="15.5492194435">
		<tag k="alt_name" v="Geitsætra" />
		<tag k="name" v="Geitsetra" />
		<tag k="place" v="isolated_dwelling" />
		<tag k="ssr:stedsnr" v="684210" />
	</node>
	<node id="-717576" lat="68.6477055587" lon="15.5030861009">
		<tag k="name" v="Heimgard" />
		<tag k="place" v="farm" />
		<tag k="ssr:stedsnr" v="97479" />
	</node>
	<node id="-717575" lat="68.6418583366" lon="15.2666333297">
		<tag k="fixme" v="consider place=hamlet" />
		<tag k="name" v="Tjønnvoll" />
		<tag k="place" v="village" />
		<tag k="ssr:stedsnr" v="97402" />
	</node>
	<node id="-718977" lat="68.6633388852" lon="15.4818583304">
		<tag k="name" v="Fredheim" />
		<tag k="place" v="farm" />
		<tag k="ssr:stedsnr" v="684208" />
	</node>
	<node id="-717854" lat="68.7492194455" lon="15.4946499903">
		<tag k="name" v="Hågen" />
		<tag k="place" v="farm" />
		<tag k="ssr:stedsnr" v="177818" />
	</node>
	<node id="-718591" lat="68.6580111136" lon="15.3413305632">
		<tag k="alt_name" v="Haldtstranda" />
		<tag k="name" v="Haldstranda" />
		<tag k="place" v="hamlet" />
		<tag k="ssr:stedsnr" v="562179" />
	</node>
	<node id="-718589" lat="68.6539277813" lon="15.3260416561">
		<tag k="name" v="Bøstranda" />
		<tag k="place" v="farm" />
		<tag k="ssr:stedsnr" v="562173" />
	</node>
	<node id="-716864" lat="68.7651000001" lon="15.8807138808">
		<tag k="name" v="Bjørnrå" />
		<tag k="old_name" v="Bjørnerå" />
		<tag k="place" v="farm" />
		<tag k="ssr:stedsnr" v="321170" />
	</node>
	<node id="-717064" lat="68.6493138893" lon="15.2770694551">
		<tag k="amenity" v="school" />
		<tag k="name" v="Kleiva Landbruksskole" />
		<tag k="ssr:stedsnr" v="381204" />
	</node>
	<node id="-718074" lat="68.837438889" lon="15.3783388786">
		<tag k="name" v="Bremnes" />
		<tag k="place" v="farm" />
		<tag k="ssr:stedsnr" v="260355" />
	</node>
	<node id="-719095" lat="68.6919249963" lon="14.9200305551">
		<tag k="name" v="Nergården" />
		<tag k="place" v="isolated_dwelling" />
		<tag k="ssr:stedsnr" v="709631" />
	</node>
	<node id="-718582" lat="68.7338583365" lon="14.9634111104">
		<tag k="name" v="Sætra" />
		<tag k="place" v="isolated_dwelling" />
		<tag k="ssr:stedsnr" v="544847" />
	</node>
	<node id="-717045" lat="68.5695972209" lon="15.3447472252">
		<tag k="name" v="Fiskfjord" />
		<tag k="place" v="farm" />
		<tag k="ssr:stedsnr" v="381093" />
	</node>
	<node id="-719090" lat="68.7009944445" lon="15.4469277717">
		<tag k="name" v="Kjellarbakken" />
		<tag k="place" v="isolated_dwelling" />
		<tag k="ssr:stedsnr" v="704997" />
	</node>
	<node id="-718065" lat="68.6654861143" lon="15.4761222336">
		<tag k="loc_name:se" v="Gernášši" />
		<tag k="name" v="Kjerringnes" />
		<tag k="name:no" v="Kjerringnes" />
		<tag k="place" v="hamlet" />
		<tag k="ssr:stedsnr" v="259190" />
	</node>
	<node id="-718466" lat="68.7130861148" lon="15.2191944494">
		<tag k="name" v="Lundgård" />
		<tag k="place" v="farm" />
		<tag k="ssr:stedsnr" v="503814" />
	</node>
	<node id="-718125" lat="68.8653611122" lon="15.3301638987">
		<tag k="alt_name" v="Rypstrand" />
		<tag k="name" v="Rypstranda" />
		<tag k="place" v="farm" />
		<tag k="ssr:stedsnr" v="260785" />
	</node>
	<node id="-719592" lat="68.7103888857" lon="14.9727527854">
		<tag k="name" v="Sølferstranda" />
		<tag k="place" v="farm" />
		<tag k="ssr:stedsnr" v="868294" />
	</node>
	<node id="-717542" lat="68.7037555594" lon="15.1296666619">
		<tag k="name" v="Straumnes" />
		<tag k="place" v="farm" />
		<tag k="ssr:stedsnr" v="79805" />
	</node>
	<node id="-717538" lat="68.744536116" lon="15.5629944354">
		<tag k="name" v="Myra" />
		<tag k="place" v="farm" />
		<tag k="ssr:stedsnr" v="79766" />
	</node>
	<node id="-717537" lat="68.7457111123" lon="15.5050250065">
		<tag k="fixme" v="consider place=hamlet" />
		<tag k="loc_name:se" v="Lidaláddi" />
		<tag k="name" v="Liland" />
		<tag k="name:no" v="Liland" />
		<tag k="place" v="village" />
		<tag k="ssr:stedsnr" v="79762" />
	</node>
	<node id="-719583" lat="68.7959944483" lon="15.8863722161">
		<tag k="name" v="Nordlund" />
		<tag k="place" v="farm" />
		<tag k="ssr:stedsnr" v="868089" />
	</node>
	<node id="-717532" lat="68.7541805574" lon="15.2083249975">
		<tag k="name" v="Høystakktjørna" />
		<tag k="place" v="farm" />
		<tag k="ssr:stedsnr" v="79400" />
	</node>
	<node id="-717529" lat="68.7990944436" lon="15.319408345">
		<tag k="name" v="Gåsbøl" />
		<tag k="place" v="farm" />
		<tag k="ssr:stedsnr" v="79333" />
	</node>
	<node id="-717528" lat="68.8430388899" lon="15.3884416698">
		<tag k="alt_name" v="Nordstrand" />
		<tag k="name" v="Nordstranda" />
		<tag k="place" v="farm" />
		<tag k="ssr:stedsnr" v="79276" />
	</node>
	<node id="-717604" lat="68.711500002" lon="14.960511122">
		<tag k="name" v="Valen" />
		<tag k="place" v="isolated_dwelling" />
		<tag k="ssr:stedsnr" v="103666" />
	</node>
	<node id="-717012" lat="68.7516083367" lon="15.1371000052">
		<tag k="name" v="Stranda" />
		<tag k="place" v="farm" />
		<tag k="ssr:stedsnr" v="359967" />
	</node>
	<node id="-719570" lat="68.7054194463" lon="15.2508305519">
		<tag k="name" v="Valstad" />
		<tag k="place" v="farm" />
		<tag k="ssr:stedsnr" v="867838" />
	</node>
	<node id="-719566" lat="68.747858334" lon="15.1599055606">
		<tag k="name" v="Solbakken" />
		<tag k="place" v="farm" />
		<tag k="ssr:stedsnr" v="867802" />
	</node>
	<node id="-718029" lat="68.7536500029" lon="15.4717472115">
		<tag k="amenity" v="school" />
		<tag k="name" v="Maurnes skole" />
		<tag k="ssr:stedsnr" v="238799" />
	</node>
	<node id="-717516" lat="68.7187916685" lon="15.4031638881">
		<tag k="name" v="Tofta" />
		<tag k="place" v="farm" />
		<tag k="ssr:stedsnr" v="78883" />
	</node>
	<node id="-716748" lat="68.6968166685" lon="15.4104638955">
		<tag k="amenity" v="school" />
		<tag k="name" v="Sortland videregående skole" />
		<tag k="ssr:stedsnr" v="279981" />
	</node>
	<node id="-718881" lat="68.6794888863" lon="15.0683666724">
		<tag k="name" v="Straumfjorden" />
		<tag k="place" v="farm" />
		<tag k="ssr:stedsnr" v="634903" />
	</node>
	<node id="-716918" lat="68.7144666636" lon="15.1523472251">
		<tag k="fixme" v="consider place=hamlet" />
		<tag k="name" v="Kjerringvik" />
		<tag k="place" v="village" />
		<tag k="ssr:stedsnr" v="321843" />
	</node>
	<node id="-717050" lat="68.8032083296" lon="15.8272500065">
		<tag k="name" v="Kjerkegården" />
		<tag k="place" v="locality" />
		<tag k="ssr:stedsnr" v="381111" />
	</node>
	<node id="-719040" lat="68.7080111089" lon="15.2197083277">
		<tag k="name" v="Engan" />
		<tag k="place" v="farm" />
		<tag k="ssr:stedsnr" v="685815" />
	</node>
	<node id="-718465" lat="68.7226277797" lon="15.4030388815">
		<tag k="name" v="Sel" />
		<tag k="place" v="farm" />
		<tag k="ssr:stedsnr" v="503813" />
	</node>
	<node id="-716917" lat="68.7260333302" lon="15.4766111188">
		<tag k="name" v="Kringlen" />
		<tag k="place" v="farm" />
		<tag k="ssr:stedsnr" v="321837" />
	</node>
	<node id="-717500" lat="68.7612333376" lon="15.0683055567">
		<tag k="alt_name" v="Sletten" />
		<tag k="name" v="Slettene" />
		<tag k="place" v="farm" />
		<tag k="ssr:stedsnr" v="78331" />
	</node>
	<node id="-719580" lat="68.794433333" lon="15.8868805521">
		<tag k="name" v="Lunde" />
		<tag k="place" v="farm" />
		<tag k="ssr:stedsnr" v="868067" />
	</node>
	<node id="-719034" lat="68.740716669" lon="15.1378500006">
		<tag k="name" v="Altona" />
		<tag k="place" v="farm" />
		<tag k="ssr:stedsnr" v="685794" />
	</node>
	<node id="-717496" lat="68.6618361102" lon="15.575077788">
		<tag k="name" v="Sætra" />
		<tag k="place" v="isolated_dwelling" />
		<tag k="ssr:stedsnr" v="78276" />
	</node>
	<node id="-717684" lat="68.6513888866" lon="15.5020083306">
		<tag k="name" v="Lundgård" />
		<tag k="place" v="isolated_dwelling" />
		<tag k="ssr:stedsnr" v="138279" />
	</node>
	<node id="-717494" lat="68.6278833374" lon="15.47212777">
		<tag k="name" v="Innerbrokløysa" />
		<tag k="place" v="locality" />
		<tag k="ssr:stedsnr" v="78252" />
	</node>
	<node id="-718003" lat="68.6969749965" lon="15.4165583434">
		<tag k="alt_name" v="Vesterålsens hermetikkfabrikk" />
		<tag k="building" v="industrial" />
		<tag k="industrial" v="factory" />
		<tag k="name" v="Vesteraalens" />
		<tag k="ssr:stedsnr" v="218986" />
	</node>
	<node id="-718002" lat="68.7041055529" lon="15.4106111117">
		<tag k="name" v="Brekka" />
		<tag k="place" v="farm" />
		<tag k="ssr:stedsnr" v="218978" />
	</node>
	<node id="-717939" lat="68.7647249963" lon="15.0646138856">
		<tag k="name" v="Åsgård" />
		<tag k="place" v="farm" />
		<tag k="ssr:stedsnr" v="200339" />
	</node>
	<node id="-717341" lat="68.7329222228" lon="15.0714694516">
		<tag k="name" v="Ranheim" />
		<tag k="place" v="farm" />
		<tag k="ssr:stedsnr" v="18687" />
	</node>
	<node id="-719529" lat="68.6560555551" lon="15.3193500086">
		<tag k="name" v="Bø" />
		<tag k="place" v="hamlet" />
		<tag k="ssr:stedsnr" v="867219" />
	</node>
	<node id="-719015" lat="68.740374997" lon="15.6816166686">
		<tag k="name" v="Godfjordeidet" />
		<tag k="place" v="farm" />
		<tag k="ssr:stedsnr" v="685423" />
	</node>
	<node id="-719014" lat="68.7583583359" lon="15.4685722327">
		<tag k="name" v="Kleiva" />
		<tag k="place" v="farm" />
		<tag k="ssr:stedsnr" v="685412" />
	</node>
	<node id="-716913" lat="68.6972277756" lon="15.4494944524">
		<tag k="fixme" v="consider place=hamlet" />
		<tag k="name" v="Strand" />
		<tag k="place" v="village" />
		<tag k="ssr:stedsnr" v="321812" />
	</node>
	<node id="-716964" lat="68.6887499985" lon="15.3965333355">
		<tag k="alt_name" v="Nattland" />
		<tag k="name" v="Natland" />
		<tag k="place" v="quarter" />
		<tag k="ssr:stedsnr" v="340510" />
	</node>
	<node id="-716963" lat="68.6987666707" lon="15.3909388799">
		<tag k="name" v="Vestmarka" />
		<tag k="place" v="quarter" />
		<tag k="ssr:stedsnr" v="339975" />
	</node>
	<node id="-717187" lat="68.6865944404" lon="15.3852972203">
		<tag k="name" v="Sørli" />
		<tag k="place" v="farm" />
		<tag k="ssr:stedsnr" v="476374" />
	</node>
	<node id="-717339" lat="68.6753083301" lon="14.8122138759">
		<tag k="alt_name" v="Hellfjord" />
		<tag k="name" v="Hellfjorden" />
		<tag k="place" v="farm" />
		<tag k="ssr:stedsnr" v="18594" />
	</node>
	<node id="-716960" lat="68.747044445" lon="15.3234749986">
		<tag k="name" v="Sandstrandhøgda" />
		<tag k="place" v="hamlet" />
		<tag k="ssr:stedsnr" v="339956" />
	</node>
	<node id="-716959" lat="68.7201277757" lon="15.3798527829">
		<tag k="name" v="Rabben" />
		<tag k="place" v="farm" />
		<tag k="ssr:stedsnr" v="339943" />
	</node>
	<node id="-717952" lat="68.7078500031" lon="15.1971861184">
		<tag k="name" v="Brunstad" />
		<tag k="place" v="farm" />
		<tag k="ssr:stedsnr" v="200802" />
	</node>
	<node id="-717981" lat="68.7434972234" lon="15.3668777843">
		<tag k="name" v="Sjøhaugen" />
		<tag k="place" v="farm" />
		<tag k="ssr:stedsnr" v="218477" />
	</node>
	<node id="-717468" lat="68.6312557366" lon="15.586336484">
		<tag k="alt_name:no" v="Olderskog" />
		<tag k="loc_name:se" v="Oldurak" />
		<tag k="name" v="Olderskogan" />
		<tag k="name:no" v="Olderskogan" />
		<tag k="place" v="hamlet" />
		<tag k="ssr:stedsnr" v="78018" />
	</node>
	<node id="-718874" lat="68.7267722222" lon="15.4026194348">
		<tag k="name" v="Bygd" />
		<tag k="place" v="farm" />
		<tag k="ssr:stedsnr" v="624775" />
	</node>
	<node id="-717466" lat="68.7318999966" lon="14.9568944509">
		<tag k="name" v="Solumsetra" />
		<tag k="place" v="locality" />
		<tag k="ssr:stedsnr" v="59839" />
	</node>
	<node id="-719513" lat="68.6195666709" lon="15.6061388851">
		<tag k="fixme" v="consider place=hamlet" />
		<tag k="loc_name:se" v="Riddarseahtta" />
		<tag k="name" v="Riddarset" />
		<tag k="name:no" v="Riddarset" />
		<tag k="place" v="farm" />
		<tag k="ssr:stedsnr" v="867035" />
	</node>
	<node id="-718487" lat="68.7220083321" lon="15.3908111058">
		<tag k="name" v="Småbakkan" />
		<tag k="place" v="farm" />
		<tag k="ssr:stedsnr" v="521590" />
	</node>
	<node id="-718998" lat="68.6982000013" lon="15.4138194564">
		<tag k="loc_name:se" v="Suortá" />
		<tag k="name" v="Sortland" />
		<tag k="name:no" v="Sortland" />
		<tag k="place" v="town" />
		<tag k="ssr:stedsnr" v="685163" />
	</node>
	<node id="-717593" lat="68.7206472207" lon="15.3807055668">
		<tag k="name" v="Kornbakk" />
		<tag k="place" v="farm" />
		<tag k="ssr:stedsnr" v="97957" />
	</node>
	<node id="-716736" lat="68.7201694438" lon="15.4080055505">
		<tag k="fixme" v="consider place=hamlet" />
		<tag k="name" v="Ånstadsjøen" />
		<tag k="place" v="village" />
		<tag k="ssr:stedsnr" v="279604" />
	</node>
	<node id="-718284" lat="68.7575166626" lon="15.1792527816">
		<tag k="name" v="Lyngmo" />
		<tag k="place" v="farm" />
		<tag k="ssr:stedsnr" v="443441" />
	</node>
	<node id="-716945" lat="68.6273527816" lon="15.5911472351">
		<tag k="name" v="Breines" />
		<tag k="place" v="farm" />
		<tag k="ssr:stedsnr" v="339638" />
	</node>
	<node id="-718872" lat="68.7323472255" lon="15.4007416732">
		<tag k="name" v="Bygdnes" />
		<tag k="place" v="farm" />
		<tag k="ssr:stedsnr" v="624772" />
	</node>
	<node id="-717966" lat="68.7587500025" lon="15.1176416608">
		<tag k="name" v="Øvergarden" />
		<tag k="place" v="farm" />
		<tag k="ssr:stedsnr" v="217421" />
	</node>
	<node id="-719501" lat="68.7998138872" lon="15.8865972183">
		<tag k="name" v="Berg" />
		<tag k="place" v="farm" />
		<tag k="ssr:stedsnr" v="848403" />
	</node>
	<node id="-717962" lat="68.7563333363" lon="15.1944916779">
		<tag k="name" v="Myrstad" />
		<tag k="place" v="farm" />
		<tag k="ssr:stedsnr" v="216096" />
	</node>
	<node id="-718985" lat="68.7885833306" lon="15.8821138826">
		<tag k="name" v="Skoglund" />
		<tag k="place" v="farm" />
		<tag k="ssr:stedsnr" v="685081" />
	</node>
	<node id="-717959" lat="68.7495111084" lon="15.3029999931">
		<tag k="fixme" v="consider place=hamlet" />
		<tag k="name" v="Jennestad" />
		<tag k="place" v="farm" />
		<tag k="ssr:stedsnr" v="200768" />
	</node>
	<node id="-718982" lat="68.6402166656" lon="15.5413972194">
		<tag k="name" v="Hagen" />
		<tag k="place" v="isolated_dwelling" />
		<tag k="ssr:stedsnr" v="684250" />
	</node>
	<node id="-719492" lat="68.7639999984" lon="15.1426194473">
		<tag k="name" v="Bakketun" />
		<tag k="place" v="farm" />
		<tag k="ssr:stedsnr" v="847638" />
	</node>
	<node id="-716931" lat="68.6488222265" lon="15.2944166728">
		<tag k="name" v="Bøstranda" />
		<tag k="place" v="farm" />
		<tag k="ssr:stedsnr" v="338693" />
	</node>
	<node id="-717954" lat="68.7094333295" lon="15.2019388831">
		<tag k="name" v="Bruholt" />
		<tag k="place" v="farm" />
		<tag k="ssr:stedsnr" v="200848" />
	</node>
	<node id="-717953" lat="68.7167555596" lon="15.3875777816">
		<tag k="name" v="Martahaugen" />
		<tag k="place" v="farm" />
		<tag k="ssr:stedsnr" v="200842" />
	</node>
	<node id="-718464" lat="68.7218472239" lon="15.5265249897">
		<tag k="name" v="Kvalsaukan" />
		<tag k="place" v="farm" />
		<tag k="ssr:stedsnr" v="503809" />
	</node>
	<node id="-718975" lat="68.677183332" lon="15.4762972144">
		<tag k="fixme" v="consider place=hamlet" />
		<tag k="name" v="Osvoll" />
		<tag k="place" v="village" />
		<tag k="ssr:stedsnr" v="684176" />
	</node>
	<node id="-719381" lat="68.7042361149" lon="15.6952638975">
		<tag k="name" v="Skåla" />
		<tag k="place" v="isolated_dwelling" />
		<tag k="ssr:stedsnr" v="806480" />
	</node>
	<node id="-718459" lat="68.7436888897" lon="15.5997777701">
		<tag k="fixme" v="consider place=hamlet" />
		<tag k="loc_name:se" v="Onavierda" />
		<tag k="name" v="Hognfjord" />
		<tag k="name:no" v="Hognfjord" />
		<tag k="place" v="village" />
		<tag k="ssr:stedsnr" v="503754" />
	</node>
	<node id="-717934" lat="68.7579611153" lon="15.1409499948">
		<tag k="name" v="Strand" />
		<tag k="place" v="farm" />
		<tag k="ssr:stedsnr" v="200426" />
	</node>
	<node id="-717942" lat="68.8003527772" lon="15.3603694349">
		<tag k="name" v="Gropa" />
		<tag k="place" v="farm" />
		<tag k="ssr:stedsnr" v="200352" />
	</node>
	<node id="-717429" lat="68.7302777774" lon="15.7647916573">
		<tag k="name" v="Adskillgamman" />
		<tag k="place" v="locality" />
		<tag k="ssr:stedsnr" v="56013" />
	</node>
	<node id="-718451" lat="68.7338777817" lon="15.136680563">
		<tag k="name" v="Kvassneset" />
		<tag k="place" v="farm" />
		<tag k="ssr:stedsnr" v="503709" />
	</node>
	<node id="-718099" lat="68.758488887" lon="15.8684055518">
		<tag k="name" v="Solbakken" />
		<tag k="place" v="farm" />
		<tag k="ssr:stedsnr" v="260183" />
	</node>
	<node id="-718448" lat="68.6974916623" lon="14.8632083344">
		<tag k="alt_name" v="Melfjorden, in;Indre Melfjord" />
		<tag k="name" v="Indre Melfjorden" />
		<tag k="place" v="farm" />
		<tag k="ssr:stedsnr" v="503622" />
	</node>
	<node id="-718446" lat="68.6832305562" lon="14.8717999994">
		<tag k="fixme" v="multiple name tags, choose one and add the other to alt_name" />
		<tag k="name" v="Melfjorden;Ytre Melfjorden" />
		<tag k="place" v="farm" />
		<tag k="ssr:stedsnr" v="503609" />
	</node>
	<node id="-717932" lat="68.7589250014" lon="15.0792222316">
		<tag k="name" v="Selnes" />
		<tag k="place" v="farm" />
		<tag k="ssr:stedsnr" v="200417" />
	</node>
	<node id="-716906" lat="68.7486944475" lon="15.3174027806">
		<tag k="name" v="Holten" />
		<tag k="place" v="farm" />
		<tag k="ssr:stedsnr" v="321773" />
	</node>
	<node id="-716903" lat="68.749794443" lon="15.1388916563">
		<tag k="name" v="Stranda" />
		<tag k="place" v="farm" />
		<tag k="ssr:stedsnr" v="321761" />
	</node>
	<node id="-718440" lat="68.7611916688" lon="15.0942749978">
		<tag k="name" v="Rabben" />
		<tag k="place" v="farm" />
		<tag k="ssr:stedsnr" v="503397" />
	</node>
	<node id="-719548" lat="68.6212861099" lon="15.6227499927">
		<tag k="name" v="Austpollen" />
		<tag k="place" v="isolated_dwelling" />
		<tag k="ssr:stedsnr" v="867363" />
	</node>
	<node id="-716902" lat="68.722269442" lon="15.1473166619">
		<tag k="name" v="Holmstad" />
		<tag k="place" v="village" />
		<tag k="ssr:stedsnr" v="321757" />
	</node>
	<node id="-717970" lat="68.6810777765" lon="15.1973833414">
		<tag k="barrier" v="fence" />
		<tag k="name" v="Reingjerdet" />
		<tag k="ssr:stedsnr" v="217599" />
	</node>
	<node id="-717251" lat="68.758978396" lon="15.1118215507">
		<tag k="fixme" v="consider place=hamlet" />
		<tag k="loc_name:se" v="Froská" />
		<tag k="name" v="Frøskeland" />
		<tag k="name:no" v="Frøskeland" />
		<tag k="place" v="farm" />
		<tag k="ssr:stedsnr" v="989671" />
	</node>
	<node id="-719547" lat="68.7781333353" lon="15.4863777724">
		<tag k="name" v="Reinsnes" />
		<tag k="place" v="farm" />
		<tag k="ssr:stedsnr" v="867360" />
	</node>
	<node id="-717285" lat="68.6638305574" lon="15.3550861183">
		<tag k="name" v="Elvenes" />
		<tag k="place" v="farm" />
		<tag k="ssr:stedsnr" v="17179" />
	</node>
	<node id="-718942" lat="68.7682166664" lon="15.0270194539">
		<tag k="name" v="Toften" />
		<tag k="place" v="farm" />
		<tag k="ssr:stedsnr" v="663156" />
	</node>
	<node id="-718939" lat="68.6929250015" lon="15.4101722238">
		<tag k="name" v="Parken" />
		<tag k="ssr:stedsnr" v="662739" />
		<tag k="tourism" v="theme_park" />
	</node>
	<node id="-718426" lat="68.8074972237" lon="15.4701138835">
		<tag k="name" v="Vollen" />
		<tag k="place" v="farm" />
		<tag k="ssr:stedsnr" v="503237" />
	</node>
	<node id="-717913" lat="68.8151118207" lon="15.5394992174">
		<tag k="alt_name" v="Rogsøy" />
		<tag k="fixme" v="consider place=hamlet" />
		<tag k="name" v="Roksøy" />
		<tag k="place" v="farm" />
		<tag k="ssr:stedsnr" v="199284" />
	</node>
	<node id="-717400" lat="68.7206083293" lon="15.3765361062">
		<tag k="name" v="Høgbakkan" />
		<tag k="place" v="farm" />
		<tag k="ssr:stedsnr" v="36949" />
	</node>
	<node id="-717387" lat="68.7477916688" lon="15.3164999969">
		<tag k="name" v="Bakkan" />
		<tag k="place" v="isolated_dwelling" />
		<tag k="ssr:stedsnr" v="36631" />
	</node>
	<node id="-716884" lat="68.7527944455" lon="15.1902194394">
		<tag k="name" v="Vasshaugen" />
		<tag k="place" v="farm" />
		<tag k="ssr:stedsnr" v="321404" />
	</node>
	<node id="-718930" lat="68.6004333312" lon="15.3939694411">
		<tag k="name" v="Teingården" />
		<tag k="place" v="farm" />
		<tag k="ssr:stedsnr" v="662559" />
	</node>
	<node id="-716899" lat="68.7284972257" lon="15.0596499914">
		<tag k="alt_name" v="Hokkabogen" />
		<tag k="name" v="Håkabogen" />
		<tag k="place" v="farm" />
		<tag k="ssr:stedsnr" v="321724" />
	</node>
	<node id="-717902" lat="68.7695500001" lon="15.8940055434">
		<tag k="name" v="Hamran" />
		<tag k="place" v="locality" />
		<tag k="ssr:stedsnr" v="199190" />
	</node>
	<node id="-717901" lat="68.6695694438" lon="15.3624360999">
		<tag k="fixme" v="multiple name tags, choose one and add the other to alt_name; consider place=hamlet" />
		<tag k="name" v="Steiro;Sør-Steiro" />
		<tag k="place" v="village" />
		<tag k="ssr:stedsnr" v="199178" />
	</node>
	<node id="-718412" lat="68.64141667" lon="15.0398083317">
		<tag k="name" v="Innerslåtten" />
		<tag k="place" v="locality" />
		<tag k="ssr:stedsnr" v="502236" />
	</node>
	<node id="-718411" lat="68.6424583339" lon="15.2686444392">
		<tag k="fixme" v="consider place=hamlet" />
		<tag k="name" v="Holand" />
		<tag k="place" v="village" />
		<tag k="ssr:stedsnr" v="502228" />
	</node>
	<node id="-719434" lat="68.5985138869" lon="15.3857333397">
		<tag k="name" v="Berg" />
		<tag k="place" v="isolated_dwelling" />
		<tag k="ssr:stedsnr" v="825332" />
	</node>
	<node id="-718409" lat="68.6621638858" lon="15.5260916607">
		<tag k="name" v="Moen" />
		<tag k="place" v="farm" />
		<tag k="ssr:stedsnr" v="502195" />
	</node>
	<node id="-719430" lat="68.6328805553" lon="15.1970833434">
		<tag k="name" v="Nevhågraen" />
		<tag k="place" v="farm" />
		<tag k="ssr:stedsnr" v="824852" />
	</node>
	<node id="-717381" lat="68.6622305585" lon="15.4876611205">
		<tag k="name" v="Vintersteinen" />
		<tag k="place" v="farm" />
		<tag k="ssr:stedsnr" v="36455" />
	</node>
	<node id="-718916" lat="68.6742111075" lon="14.8349888811">
		<tag k="name" v="Jakobvik" />
		<tag k="place" v="locality" />
		<tag k="ssr:stedsnr" v="648666" />
	</node>
	<node id="-717378" lat="68.8383972183" lon="15.3836916721">
		<tag k="fixme" v="consider place=hamlet" />
		<tag k="name" v="Bremnes" />
		<tag k="place" v="village" />
		<tag k="ssr:stedsnr" v="36278" />
	</node>
	<node id="-717889" lat="68.6162833314" lon="15.4265638891">
		<tag k="name" v="Djupfjord" />
		<tag k="place" v="farm" />
		<tag k="ssr:stedsnr" v="199020" />
	</node>
	<node id="-717376" lat="68.630376511" lon="15.2064878321">
		<tag k="fixme" v="consider place=hamlet" />
		<tag k="loc_name" v="Litlerise" />
		<tag k="name" v="Lille Rise" />
		<tag k="place" v="farm" />
		<tag k="ssr:stedsnr" v="35862" />
	</node>
	<node id="-719419" lat="68.7575138902" lon="15.2720027728">
		<tag k="name" v="Sør-Vik" />
		<tag k="place" v="farm" />
		<tag k="ssr:stedsnr" v="824081" />
	</node>
	<node id="-716857" lat="68.7775416654" lon="15.9403222179">
		<tag k="name" v="Gunnesdal" />
		<tag k="place" v="farm" />
		<tag k="ssr:stedsnr" v="321047" />
	</node>
	<node id="-717731" lat="68.7422055537" lon="15.7345027794">
		<tag k="name" v="Eidesbakken" />
		<tag k="place" v="isolated_dwelling" />
		<tag k="ssr:stedsnr" v="139455" />
	</node>
	<node id="-716853" lat="68.6407000027" lon="15.2728916789">
		<tag k="alt_name" v="Tjørnvollen" />
		<tag k="name" v="Tjønnvollen" />
		<tag k="place" v="locality" />
		<tag k="ssr:stedsnr" v="320255" />
	</node>
	<node id="-718900" lat="68.6456777756" lon="15.257016667">
		<tag k="name" v="Lyngåsen" />
		<tag k="place" v="isolated_dwelling" />
		<tag k="ssr:stedsnr" v="642738" />
	</node>
	<node id="-719193" lat="68.692588886" lon="14.9235555603">
		<tag k="name" v="Solum" />
		<tag k="place" v="farm" />
		<tag k="ssr:stedsnr" v="745693" />
	</node>
	<node id="-716979" lat="68.6907888922" lon="14.9286166627">
		<tag k="name" v="Nedrenesene" />
		<tag k="place" v="isolated_dwelling" />
		<tag k="ssr:stedsnr" v="345618" />
	</node>
	<node id="-719407" lat="68.7431388894" lon="15.3421611186">
		<tag k="name" v="Sandstrand" />
		<tag k="place" v="farm" />
		<tag k="ssr:stedsnr" v="807775" />
	</node>
	<node id="-716846" lat="68.6573444467" lon="15.4914722168">
		<tag k="alt_name" v="Elvebakken" />
		<tag k="name" v="Elvbakken" />
		<tag k="place" v="farm" />
		<tag k="ssr:stedsnr" v="320212" />
	</node>
	<node id="-719429" lat="68.6443583354" lon="15.2737944482">
		<tag k="amenity" v="school" />
		<tag k="name" v="Holand skole" />
		<tag k="ssr:stedsnr" v="824753" />
	</node>
	<node id="-719404" lat="68.8653750031" lon="15.3418000129">
		<tag k="name" v="Holm" />
		<tag k="place" v="farm" />
		<tag k="ssr:stedsnr" v="807713" />
	</node>
	<node id="-717898" lat="68.7852305554" lon="15.8765583278">
		<tag k="name" v="Finneset" />
		<tag k="place" v="farm" />
		<tag k="ssr:stedsnr" v="199090" />
	</node>
	<node id="-717864" lat="68.5871388894" lon="15.4318055462">
		<tag k="name" v="Elvsletta" />
		<tag k="place" v="isolated_dwelling" />
		<tag k="ssr:stedsnr" v="179613" />
	</node>
	<node id="-718884" lat="68.7108916637" lon="15.3540222261">
		<tag k="name" v="Heimerhøgda" />
		<tag k="place" v="isolated_dwelling" />
		<tag k="ssr:stedsnr" v="641539" />
	</node>
	<node id="-718883" lat="68.7584527766" lon="15.1234999919">
		<tag k="name" v="Mellomgarden" />
		<tag k="place" v="farm" />
		<tag k="ssr:stedsnr" v="641367" />
	</node>
	<node id="-719393" lat="68.7520638915" lon="15.8965944456">
		<tag k="fixme" v="consider place=hamlet" />
		<tag k="name" v="Inner-Bjørnrå" />
		<tag k="place" v="farm" />
		<tag k="ssr:stedsnr" v="807179" />
	</node>
	<node id="-719390" lat="68.7865083305" lon="15.9503611122">
		<tag k="name" v="Mehus" />
		<tag k="place" v="farm" />
		<tag k="ssr:stedsnr" v="807091" />
	</node>
	<node id="-719047" lat="68.6970361139" lon="15.1563249914">
		<tag k="alt_name" v="Lahaug" />
		<tag k="name" v="Lahaugen" />
		<tag k="place" v="farm" />
		<tag k="ssr:stedsnr" v="685832" />
	</node>
	<node id="-719387" lat="68.7086111127" lon="15.2166555678">
		<tag k="name" v="Vangen" />
		<tag k="place" v="farm" />
		<tag k="ssr:stedsnr" v="806884" />
	</node>
	<node id="-719386" lat="68.7102888892" lon="15.2555444543">
		<tag k="name" v="Vikstad" />
		<tag k="place" v="farm" />
		<tag k="ssr:stedsnr" v="806882" />
	</node>
	<node id="-719384" lat="68.7215444436" lon="15.3914388896">
		<tag k="name" v="Ånstad" />
		<tag k="place" v="farm" />
		<tag k="ssr:stedsnr" v="806863" />
	</node>
	<node id="-717316" lat="68.721119443" lon="15.3728138773">
		<tag k="alt_name" v="Fagerbakkan" />
		<tag k="name" v="Fagerbakken" />
		<tag k="place" v="farm" />
		<tag k="ssr:stedsnr" v="17857" />
	</node>
	<node id="-718869" lat="68.728805554" lon="15.1422250097">
		<tag k="name" v="Myra" />
		<tag k="place" v="farm" />
		<tag k="ssr:stedsnr" v="624754" />
	</node>
	<node id="-716930" lat="68.7091527742" lon="15.3741055583">
		<tag k="name" v="Fjellheim" />
		<tag k="place" v="isolated_dwelling" />
		<tag k="ssr:stedsnr" v="338585" />
	</node>
	<node id="-717330" lat="68.8076055561" lon="15.3633305591">
		<tag k="name" v="Bogen" />
		<tag k="place" v="farm" />
		<tag k="ssr:stedsnr" v="18245" />
	</node>
	<node id="-717504" lat="68.7632388917" lon="15.2677138784">
		<tag k="name" v="Relten" />
		<tag k="place" v="locality" />
		<tag k="ssr:stedsnr" v="78410" />
	</node>
	<node id="-719372" lat="68.7690000001" lon="15.0561916603">
		<tag k="name" v="Grønjorda" />
		<tag k="place" v="farm" />
		<tag k="ssr:stedsnr" v="806328" />
	</node>
	<node id="-719370" lat="68.6511250005" lon="15.6216166743">
		<tag k="name" v="Guttormslåtta" />
		<tag k="place" v="farm" />
		<tag k="ssr:stedsnr" v="806313" />
	</node>
	<node id="-716852" lat="68.6324416695" lon="15.5644499964">
		<tag k="name" v="Husvik" />
		<tag k="place" v="quarter" />
		<tag k="ssr:stedsnr" v="320232" />
	</node>
	<node id="-718854" lat="68.7479944411" lon="15.8097666632">
		<tag k="name" v="Reinstad" />
		<tag k="place" v="isolated_dwelling" />
		<tag k="ssr:stedsnr" v="624443" />
	</node>
	<node id="-719514" lat="68.5921249979" lon="15.3194861136">
		<tag k="name" v="Rødsand" />
		<tag k="place" v="farm" />
		<tag k="ssr:stedsnr" v="867044" />
	</node>
	<node id="-718852" lat="68.7584527759" lon="15.227602786">
		<tag k="name" v="Vikeidet" />
		<tag k="place" v="farm" />
		<tag k="ssr:stedsnr" v="624439" />
	</node>
	<node id="-718796" lat="68.6126027752" lon="15.5857972156">
		<tag k="name" v="Vangpollen" />
		<tag k="old_name" v="Vangspollen" />
		<tag k="place" v="isolated_dwelling" />
		<tag k="ssr:stedsnr" v="623063" />
	</node>
	<node id="-718266" lat="68.7069833328" lon="14.9844555653">
		<tag k="name" v="Daljorda" />
		<tag k="place" v="farm" />
		<tag k="ssr:stedsnr" v="442698" />
	</node>
</osm>
