<?xml version="1.0" encoding="UTF-8"?>
<osm generator="osmapis" version="0.6">
	<node id="-718491" lat="68.6234249964" lon="15.2435749865">
		<tag k="name" v="Riserevet" />
		<tag k="natural" v="shoal" />
		<tag k="place" v="locality" />
		<tag k="ssr:stedsnr" v="947395" />
	</node>
	<node id="-716786" lat="68.6987694431" lon="15.7113694479">
		<tag k="name" v="Finneset" />
		<tag k="natural" v="cape" />
		<tag k="ssr:stedsnr" v="241045" />
	</node>
	<node id="-716785" lat="68.7569083311" lon="16.0050194506">
		<tag k="name" v="Mulvika" />
		<tag k="natural" v="bay" />
		<tag k="ssr:stedsnr" v="239744" />
	</node>
	<node id="-716776" lat="68.8557416641" lon="15.9248305593">
		<tag k="name" v="Kvitsanden" />
		<tag k="natural" v="beach" />
		<tag k="place" v="locality" />
		<tag k="ssr:stedsnr" v="239659" />
	</node>
	<node id="-716773" lat="68.794897221" lon="15.2676722122">
		<tag k="name" v="Kolvika" />
		<tag k="natural" v="bay" />
		<tag k="ssr:stedsnr" v="239597" />
	</node>
	<node id="-716770" lat="68.5979777743" lon="15.3816222193">
		<tag k="name" v="Makkbukta" />
		<tag k="natural" v="bay" />
		<tag k="ssr:stedsnr" v="239516" />
	</node>
	<node id="-715771" lat="68.7299222207" lon="14.9713222122">
		<tag k="name" v="Innerstraumen" />
		<tag k="natural" v="strait" />
		<tag k="ssr:stedsnr" v="362854" />
	</node>
	<node id="-716453" lat="68.8098972226" lon="15.3643805586">
		<tag k="name" v="Bogen" />
		<tag k="natural" v="bay" />
		<tag k="ssr:stedsnr" v="139272" />
	</node>
	<node id="-716764" lat="68.7535000032" lon="15.4660388812">
		<tag k="name" v="Maurnesbukta" />
		<tag k="natural" v="bay" />
		<tag k="ssr:stedsnr" v="238800" />
	</node>
	<node id="-716762" lat="68.8720444481" lon="15.9432388944">
		<tag k="name" v="Finnegruneset" />
		<tag k="natural" v="cape" />
		<tag k="ssr:stedsnr" v="238579" />
	</node>
	<node id="-716760" lat="68.7759194459" lon="15.479397217">
		<tag k="name" v="Elvneset" />
		<tag k="natural" v="cape" />
		<tag k="ssr:stedsnr" v="238102" />
	</node>
	<node id="-716759" lat="68.7370194477" lon="15.7697916695">
		<tag k="name" v="Laneset" />
		<tag k="natural" v="cape" />
		<tag k="ssr:stedsnr" v="238015" />
	</node>
	<node id="-716755" lat="68.7105555551" lon="14.9502472186">
		<tag k="name" v="Straumtjønna" />
		<tag k="natural" v="bay" />
		<tag k="ssr:stedsnr" v="224728" />
	</node>
	<node id="-716754" lat="68.6891333363" lon="14.8614333424">
		<tag k="name" v="Stiøya" />
		<tag k="natural" v="cape" />
		<tag k="ssr:stedsnr" v="224718" />
	</node>
	<node id="-716753" lat="68.6831361157" lon="14.7950916598">
		<tag k="name" v="Kristenvika" />
		<tag k="natural" v="bay" />
		<tag k="ssr:stedsnr" v="224716" />
	</node>
	<node id="-716752" lat="68.668002776" lon="14.8140249949">
		<tag k="name" v="Langosen" />
		<tag k="natural" v="bay" />
		<tag k="ssr:stedsnr" v="224679" />
	</node>
	<node id="-716750" lat="68.7055083352" lon="14.9667388774">
		<tag k="name" v="Teistøyvalen" />
		<tag k="natural" v="strait" />
		<tag k="ssr:stedsnr" v="224650" />
	</node>
	<node id="-716748" lat="68.7126194456" lon="14.9584361074">
		<tag k="name" v="Gravervalen" />
		<tag k="natural" v="strait" />
		<tag k="ssr:stedsnr" v="224641" />
	</node>
	<node id="-716746" lat="68.6761916707" lon="14.841752781">
		<tag k="name" v="Nilsodden" />
		<tag k="natural" v="cape" />
		<tag k="ssr:stedsnr" v="224619" />
	</node>
	<node id="-716738" lat="68.6306222238" lon="15.5420750027">
		<tag k="name" v="Spjutvika" />
		<tag k="natural" v="bay" />
		<tag k="ssr:stedsnr" v="219461" />
	</node>
	<node id="-716734" lat="68.752949999" lon="15.3541944393">
		<tag k="fixme" v="multiple name tags, choose one and add the other to alt_name" />
		<tag k="name" v="Nordre Sandstrandgrunnen;Sandstrandgrunnen" />
		<tag k="natural" v="shoal" />
		<tag k="place" v="locality" />
		<tag k="ssr:stedsnr" v="218962" />
	</node>
	<node id="-716726" lat="68.697811111" lon="14.9558000076">
		<tag k="alt_name" v="Strandskjeret" />
		<tag k="fixme" v="consider seamark:type=rock or natural=shoal" />
		<tag k="name" v="Strandskjæret" />
		<tag k="place" v="islet" />
		<tag k="ssr:stedsnr" v="218695" />
	</node>
	<node id="-716725" lat="68.7448749978" lon="15.6371194479">
		<tag k="name" v="Steinneset" />
		<tag k="natural" v="cape" />
		<tag k="ssr:stedsnr" v="218689" />
	</node>
	<node id="-716721" lat="68.62708333" lon="15.5162833322">
		<tag k="name" v="Middagsbogen" />
		<tag k="natural" v="bay" />
		<tag k="ssr:stedsnr" v="218590" />
	</node>
	<node id="-716720" lat="68.6293694438" lon="15.5306000048">
		<tag k="name" v="Nesan" />
		<tag k="natural" v="cape" />
		<tag k="ssr:stedsnr" v="218583" />
	</node>
	<node id="-716714" lat="68.865641665" lon="15.3327944366">
		<tag k="name" v="Osen" />
		<tag k="natural" v="bay" />
		<tag k="ssr:stedsnr" v="218461" />
	</node>
	<node id="-716712" lat="68.6002555532" lon="15.369283343">
		<tag k="fixme" v="multiple name tags, choose one and add the other to alt_name" />
		<tag k="name" v="Skarvholmen;Skarvklubben" />
		<tag k="natural" v="cape" />
		<tag k="ssr:stedsnr" v="218353" />
	</node>
	<node id="-715761" lat="68.6960500034" lon="15.7010694357">
		<tag k="name" v="Storneset" />
		<tag k="natural" v="cape" />
		<tag k="ssr:stedsnr" v="362052" />
	</node>
	<node id="-716705" lat="68.7117055532" lon="15.100738894">
		<tag k="name" v="Mella pollneset" />
		<tag k="natural" v="cape" />
		<tag k="ssr:stedsnr" v="217625" />
	</node>
	<node id="-716689" lat="68.7097277752" lon="15.0972333302">
		<tag k="name" v="Gregusvika" />
		<tag k="natural" v="bay" />
		<tag k="ssr:stedsnr" v="200850" />
	</node>
	<node id="-716684" lat="68.6751138919" lon="14.8393694515">
		<tag k="fixme" v="multiple name tags, choose one and add the other to alt_name" />
		<tag k="name" v="Jakobvika;Leira" />
		<tag k="natural" v="bay" />
		<tag k="ssr:stedsnr" v="200639" />
	</node>
	<node id="-716683" lat="68.8868166648" lon="15.9578000083">
		<tag k="alt_name" v="Storskavvika" />
		<tag k="name" v="Storskavika" />
		<tag k="natural" v="bay" />
		<tag k="ssr:stedsnr" v="200473" />
	</node>
	<node id="-716681" lat="68.9008277792" lon="15.9449638932">
		<tag k="name" v="Reinstadvika" />
		<tag k="natural" v="bay" />
		<tag k="ssr:stedsnr" v="200461" />
	</node>
	<node id="-716678" lat="68.7543777823" lon="15.4626416649">
		<tag k="alt_name" v="Maurneset" />
		<tag k="name" v="Maurnesodden" />
		<tag k="natural" v="cape" />
		<tag k="ssr:stedsnr" v="200439" />
	</node>
	<node id="-716677" lat="68.9463722251" lon="15.9154055617">
		<tag k="alt_name" v="Håmannskjeret" />
		<tag k="fixme" v="consider seamark:type=rock or natural=shoal" />
		<tag k="name" v="Håmannskjæret" />
		<tag k="place" v="islet" />
		<tag k="ssr:stedsnr" v="200507" />
	</node>
	<node id="-716675" lat="68.8050555589" lon="15.3780777877">
		<tag k="fixme" v="consider seamark:type=rock or natural=shoal" />
		<tag k="name" v="Kobbsteinen" />
		<tag k="place" v="islet" />
		<tag k="ssr:stedsnr" v="200350" />
	</node>
	<node id="-716664" lat="68.792866664" lon="15.9776361065">
		<tag k="name" v="Kvalvika" />
		<tag k="natural" v="bay" />
		<tag k="ssr:stedsnr" v="200086" />
	</node>
	<node id="-716658" lat="68.6100277824" lon="15.4555361061">
		<tag k="bay" v="fjord" />
		<tag k="loc_name:se" v="Dihpavierda" />
		<tag k="name" v="Djupfjorden" />
		<tag k="name:no" v="Djupfjorden" />
		<tag k="natural" v="bay" />
		<tag k="ssr:stedsnr" v="200196" />
	</node>
	<node id="-716657" lat="68.6109499989" lon="15.4392638791">
		<tag k="alt_name" v="Breidneset" />
		<tag k="name" v="Breineset" />
		<tag k="natural" v="cape" />
		<tag k="ssr:stedsnr" v="200186" />
	</node>
	<node id="-715752" lat="68.6029722262" lon="15.3617888868">
		<tag k="fixme" v="consider seamark:type=rock or natural=shoal" />
		<tag k="name" v="Blokkskjeret" />
		<tag k="place" v="islet" />
		<tag k="ssr:stedsnr" v="361559" />
	</node>
	<node id="-716654" lat="68.9581472201" lon="15.9123499994">
		<tag k="alt_name" v="Skavvika" />
		<tag k="name" v="Skavika" />
		<tag k="natural" v="bay" />
		<tag k="ssr:stedsnr" v="199453" />
	</node>
	<node id="-715751" lat="68.7604749966" lon="15.037374996">
		<tag k="fixme" v="consider seamark:type=rock or natural=shoal" />
		<tag k="name" v="Straumskjeret" />
		<tag k="place" v="islet" />
		<tag k="ssr:stedsnr" v="360126" />
	</node>
	<node id="-716648" lat="68.8134055514" lon="15.4673638982">
		<tag k="name" v="Osen" />
		<tag k="natural" v="bay" />
		<tag k="ssr:stedsnr" v="199286" />
	</node>
	<node id="-716433" lat="68.6968750044" lon="14.9424333334">
		<tag k="alt_name" v="Kalvøya, store;Storkalvøy" />
		<tag k="name" v="Store Kalvøya" />
		<tag k="place" v="islet" />
		<tag k="ssr:stedsnr" v="138688" />
	</node>
	<node id="-716643" lat="68.6387833358" lon="15.5504194344">
		<tag k="fixme" v="consider seamark:type=rock or natural=shoal" />
		<tag k="name" v="Småskjeran" />
		<tag k="place" v="islet" />
		<tag k="ssr:stedsnr" v="199252" />
	</node>
	<node id="-716642" lat="68.6354027777" lon="15.2596444498">
		<tag k="name" v="Holandsneset" />
		<tag k="natural" v="cape" />
		<tag k="ssr:stedsnr" v="199243" />
	</node>
	<node id="-716432" lat="68.7032583335" lon="14.9774000037">
		<tag k="alt_name" v="Daljordneset" />
		<tag k="name" v="Daljordodden" />
		<tag k="natural" v="cape" />
		<tag k="ssr:stedsnr" v="138706" />
	</node>
	<node id="-716638" lat="68.6423111071" lon="15.3629138843">
		<tag k="name" v="Børevan" />
		<tag k="natural" v="shoal" />
		<tag k="place" v="locality" />
		<tag k="ssr:stedsnr" v="199206" />
	</node>
	<node id="-716431" lat="68.6818472189" lon="14.9126249881">
		<tag k="alt_name" v="Solumsholmen" />
		<tag k="name" v="Solumholmen" />
		<tag k="place" v="islet" />
		<tag k="ssr:stedsnr" v="138648" />
	</node>
	<node id="-716631" lat="68.7809694413" lon="15.9399472292">
		<tag k="name" v="Vardberget" />
		<tag k="natural" v="cape" />
		<tag k="ssr:stedsnr" v="199091" />
	</node>
	<node id="-716630" lat="68.6056361098" lon="15.4439499991">
		<tag k="name" v="Storjordbukta" />
		<tag k="natural" v="bay" />
		<tag k="ssr:stedsnr" v="199082" />
	</node>
	<node id="-716629" lat="68.6163972218" lon="15.5801944519">
		<tag k="name" v="Vangpollen" />
		<tag k="natural" v="bay" />
		<tag k="ssr:stedsnr" v="199076" />
	</node>
	<node id="-716625" lat="68.6222694486" lon="15.431347215">
		<tag k="name" v="Storsteinneset" />
		<tag k="natural" v="cape" />
		<tag k="ssr:stedsnr" v="199041" />
	</node>
	<node id="-716624" lat="68.61696111" lon="15.6084750054">
		<tag k="name" v="Austpollen" />
		<tag k="natural" v="bay" />
		<tag k="ssr:stedsnr" v="199038" />
	</node>
	<node id="-716622" lat="68.6147444485" lon="15.4284777749">
		<tag k="name" v="Langvågen" />
		<tag k="natural" v="bay" />
		<tag k="ssr:stedsnr" v="199008" />
	</node>
	<node id="-716615" lat="68.7329249987" lon="14.9628444533">
		<tag k="name" v="Trangstraumen" />
		<tag k="natural" v="strait" />
		<tag k="ssr:stedsnr" v="180844" />
	</node>
	<node id="-716611" lat="68.7849916639" lon="15.8789250103">
		<tag k="name" v="Finneset" />
		<tag k="natural" v="cape" />
		<tag k="ssr:stedsnr" v="180403" />
	</node>
	<node id="-716607" lat="68.6948194423" lon="15.7057916695">
		<tag k="name" v="Kobbsteinneset" />
		<tag k="natural" v="cape" />
		<tag k="ssr:stedsnr" v="180043" />
	</node>
	<node id="-716606" lat="68.6927638919" lon="15.7187222159">
		<tag k="name" v="Holman" />
		<tag k="place" v="islet" />
		<tag k="ssr:stedsnr" v="180041" />
	</node>
	<node id="-715743" lat="68.8738749955" lon="15.94458334">
		<tag k="name" v="Bukhallarvika" />
		<tag k="natural" v="bay" />
		<tag k="ssr:stedsnr" v="359561" />
	</node>
	<node id="-716591" lat="68.7324194478" lon="15.0722083406">
		<tag k="name" v="Valsnes" />
		<tag k="natural" v="cape" />
		<tag k="ssr:stedsnr" v="177971" />
	</node>
	<node id="-716590" lat="68.756466669" lon="15.0669694408">
		<tag k="name" v="Storvika" />
		<tag k="natural" v="bay" />
		<tag k="ssr:stedsnr" v="177965" />
	</node>
	<node id="-716589" lat="68.7549999983" lon="15.0778944395">
		<tag k="name" v="Simonbukta" />
		<tag k="natural" v="bay" />
		<tag k="ssr:stedsnr" v="177964" />
	</node>
	<node id="-716568" lat="68.8199833357" lon="15.5389555514">
		<tag k="name" v="Holmvalen" />
		<tag k="natural" v="strait" />
		<tag k="ssr:stedsnr" v="177089" />
	</node>
	<node id="-716560" lat="68.7312083344" lon="15.5252250089">
		<tag k="name" v="Holmen" />
		<tag k="natural" v="cape" />
		<tag k="ssr:stedsnr" v="174167" />
	</node>
	<node id="-716558" lat="68.6996472241" lon="14.9479999892">
		<tag k="name" v="Kalvøysundet" />
		<tag k="natural" v="strait" />
		<tag k="ssr:stedsnr" v="163748" />
	</node>
	<node id="-716557" lat="68.7022111127" lon="14.9458722175">
		<tag k="name" v="Flatholmen" />
		<tag k="place" v="islet" />
		<tag k="ssr:stedsnr" v="163744" />
	</node>
	<node id="-716550" lat="68.7024527802" lon="14.9775250116">
		<tag k="name" v="Saubukta" />
		<tag k="natural" v="bay" />
		<tag k="ssr:stedsnr" v="163653" />
	</node>
	<node id="-716549" lat="68.7092694407" lon="15.0178916702">
		<tag k="name" v="Slåttvika" />
		<tag k="natural" v="bay" />
		<tag k="ssr:stedsnr" v="163649" />
	</node>
	<node id="-716548" lat="68.7057805548" lon="14.976855546">
		<tag k="name" v="Holmen" />
		<tag k="place" v="islet" />
		<tag k="ssr:stedsnr" v="163646" />
	</node>
	<node id="-716546" lat="68.8345333365" lon="15.2761166553">
		<tag k="name" v="Svaneset" />
		<tag k="natural" v="cape" />
		<tag k="ssr:stedsnr" v="162633" />
	</node>
	<node id="-716535" lat="68.7536083342" lon="15.3299444365">
		<tag k="name" v="Vikøygrunnen" />
		<tag k="natural" v="shoal" />
		<tag k="place" v="locality" />
		<tag k="ssr:stedsnr" v="157958" />
	</node>
	<node id="-716528" lat="68.7426555555" lon="15.0678166752">
		<tag k="fixme" v="multiple name tags, choose one and add the other to alt_name" />
		<tag k="name" v="Skagneset;Ytre Skagneset" />
		<tag k="natural" v="cape" />
		<tag k="ssr:stedsnr" v="157727" />
	</node>
	<node id="-716524" lat="68.6919527763" lon="14.8571027714">
		<tag k="name" v="Risholmen" />
		<tag k="place" v="islet" />
		<tag k="ssr:stedsnr" v="157686" />
	</node>
	<node id="-716523" lat="68.6813249978" lon="14.8904194513">
		<tag k="fixme" v="multiple name tags, choose one and add the other to alt_name" />
		<tag k="name" v="Langosbukta;Langosen" />
		<tag k="natural" v="bay" />
		<tag k="ssr:stedsnr" v="157683" />
	</node>
	<node id="-716045" lat="68.7037194472" lon="14.9435750061">
		<tag k="fixme" v="multiple name tags, choose one and add the other to alt_name" />
		<tag k="name" v="Geitholmen;Oterstokken" />
		<tag k="place" v="islet" />
		<tag k="ssr:stedsnr" v="17721" />
	</node>
	<node id="-716520" lat="68.6164583349" lon="15.6229333433">
		<tag k="name" v="Elvenesan" />
		<tag k="natural" v="cape" />
		<tag k="ssr:stedsnr" v="157663" />
	</node>
	<node id="-715729" lat="68.7032638876" lon="14.9287500047">
		<tag k="name" v="Kobbukta" />
		<tag k="natural" v="bay" />
		<tag k="ssr:stedsnr" v="345733" />
	</node>
	<node id="-716516" lat="68.6316027779" lon="15.5820000013">
		<tag k="fixme" v="consider seamark:type=rock or natural=shoal" />
		<tag k="name" v="Åkenesskjeret" />
		<tag k="place" v="islet" />
		<tag k="ssr:stedsnr" v="157643" />
	</node>
	<node id="-718558" lat="68.8431305581" lon="15.9099055462">
		<tag k="fixme" v="consider seamark:type=rock or natural=shoal" />
		<tag k="name" v="Kvalbaken" />
		<tag k="place" v="islet" />
		<tag k="ssr:stedsnr" v="969319" />
	</node>
	<node id="-718557" lat="68.7752527786" lon="15.8615611103">
		<tag k="name" v="Sandenen" />
		<tag k="natural" v="cape" />
		<tag k="ssr:stedsnr" v="969298" />
	</node>
	<node id="-716508" lat="68.6996638895" lon="15.174788889">
		<tag k="name" v="Vedneset" />
		<tag k="natural" v="cape" />
		<tag k="ssr:stedsnr" v="157590" />
	</node>
	<node id="-716507" lat="68.7385916703" lon="15.4922611035">
		<tag k="name" v="Søre Lilandsgrunnen" />
		<tag k="natural" v="shoal" />
		<tag k="place" v="locality" />
		<tag k="ssr:stedsnr" v="157571" />
	</node>
	<node id="-716506" lat="68.6195277808" lon="15.4128416669">
		<tag k="name" v="Mellomneset" />
		<tag k="natural" v="cape" />
		<tag k="ssr:stedsnr" v="157560" />
	</node>
	<node id="-718553" lat="68.5710750031" lon="15.3367722158">
		<tag k="name" v="Olderbukta" />
		<tag k="natural" v="bay" />
		<tag k="ssr:stedsnr" v="969110" />
	</node>
	<node id="-716504" lat="68.7448333365" lon="15.1206194517">
		<tag k="fixme" v="consider seamark:type=rock or natural=shoal" />
		<tag k="name" v="Storskjeret" />
		<tag k="place" v="islet" />
		<tag k="ssr:stedsnr" v="157545" />
	</node>
	<node id="-716502" lat="68.6403305561" lon="15.5515333375">
		<tag k="name" v="Skredbukta" />
		<tag k="natural" v="bay" />
		<tag k="ssr:stedsnr" v="157544" />
	</node>
	<node id="-716501" lat="68.7343777743" lon="15.4029277828">
		<tag k="name" v="Steinen" />
		<tag k="place" v="locality" />
		<tag k="seamark:type" v="rock" />
		<tag k="ssr:stedsnr" v="157538" />
	</node>
	<node id="-716500" lat="68.7496138854" lon="15.35111389">
		<tag k="name" v="Søre Sandstrandgrunnen" />
		<tag k="natural" v="shoal" />
		<tag k="place" v="locality" />
		<tag k="ssr:stedsnr" v="157530" />
	</node>
	<node id="-718545" lat="68.8259611073" lon="15.3738527674">
		<tag k="name" v="Elvestrand" />
		<tag k="natural" v="beach" />
		<tag k="place" v="locality" />
		<tag k="ssr:stedsnr" v="967630" />
	</node>
	<node id="-718543" lat="68.8050861115" lon="15.3634388808">
		<tag k="name" v="Nævernes" />
		<tag k="natural" v="cape" />
		<tag k="ssr:stedsnr" v="967625" />
	</node>
	<node id="-716494" lat="68.6797194459" lon="15.0642833291">
		<tag k="name" v="Kjosen" />
		<tag k="natural" v="bay" />
		<tag k="ssr:stedsnr" v="157290" />
	</node>
	<node id="-718538" lat="68.774622221" lon="16.0085416564">
		<tag k="fixme" v="consider seamark:type=rock or natural=shoal" />
		<tag k="name" v="Ausskjæret" />
		<tag k="place" v="islet" />
		<tag k="ssr:stedsnr" v="967529" />
	</node>
	<node id="-716489" lat="68.7118222194" lon="15.1094166696">
		<tag k="name" v="Polltaska" />
		<tag k="natural" v="cape" />
		<tag k="ssr:stedsnr" v="156624" />
	</node>
	<node id="-718526" lat="68.7352111088" lon="15.6463861181">
		<tag k="name" v="Finneset" />
		<tag k="natural" v="cape" />
		<tag k="ssr:stedsnr" v="966001" />
	</node>
	<node id="-716476" lat="68.6913611092" lon="15.0548638834">
		<tag k="alt_name" v="Skjeringbergodden" />
		<tag k="name" v="Skjerdingbergsodden" />
		<tag k="natural" v="cape" />
		<tag k="ssr:stedsnr" v="139823" />
	</node>
	<node id="-718521" lat="68.7004694431" lon="15.4170944495">
		<tag k="name" v="Grushola" />
		<tag k="natural" v="bay" />
		<tag k="ssr:stedsnr" v="965695" />
	</node>
	<node id="-716471" lat="68.7469888918" lon="15.0634555686">
		<tag k="fixme" v="consider seamark:type=rock or natural=shoal" />
		<tag k="name" v="Kvalbaken" />
		<tag k="place" v="islet" />
		<tag k="ssr:stedsnr" v="139759" />
	</node>
	<node id="-716470" lat="68.8000999993" lon="15.472583324">
		<tag k="name" v="Langosen" />
		<tag k="natural" v="bay" />
		<tag k="ssr:stedsnr" v="139664" />
	</node>
	<node id="-716469" lat="68.8808694403" lon="15.9500055658">
		<tag k="name" v="Storvika" />
		<tag k="natural" v="bay" />
		<tag k="ssr:stedsnr" v="139491" />
	</node>
	<node id="-718515" lat="68.8713416705" lon="15.9403027803">
		<tag k="name" v="Finnegrua" />
		<tag k="natural" v="cape" />
		<tag k="ssr:stedsnr" v="961394" />
	</node>
	<node id="-718514" lat="68.700305554" lon="14.9320638995">
		<tag k="name" v="Mølnhusbukta" />
		<tag k="natural" v="bay" />
		<tag k="ssr:stedsnr" v="952734" />
	</node>
	<node id="-718513" lat="68.6967361128" lon="14.9341222302">
		<tag k="name" v="Kvalvika" />
		<tag k="natural" v="bay" />
		<tag k="ssr:stedsnr" v="952731" />
	</node>
	<node id="-718509" lat="68.7130777741" lon="14.9343694438">
		<tag k="name" v="Straumhaugbukta" />
		<tag k="natural" v="bay" />
		<tag k="ssr:stedsnr" v="952678" />
	</node>
	<node id="-716460" lat="68.7566444488" lon="15.1077749985">
		<tag k="name" v="Torneset" />
		<tag k="natural" v="cape" />
		<tag k="ssr:stedsnr" v="139433" />
	</node>
	<node id="-718506" lat="68.6785027755" lon="14.7965860984">
		<tag k="name" v="Brønnøybukt" />
		<tag k="natural" v="bay" />
		<tag k="ssr:stedsnr" v="952615" />
	</node>
	<node id="-718505" lat="68.6805944419" lon="14.8736388821">
		<tag k="name" v="Kirkevika" />
		<tag k="natural" v="bay" />
		<tag k="ssr:stedsnr" v="952608" />
	</node>
	<node id="-716060" lat="68.5847416669" lon="15.3120944437">
		<tag k="name" v="Finneset" />
		<tag k="natural" v="cape" />
		<tag k="ssr:stedsnr" v="18188" />
	</node>
	<node id="-718502" lat="68.7408999996" lon="15.7878694418">
		<tag k="name" v="Tømmervika" />
		<tag k="natural" v="bay" />
		<tag k="ssr:stedsnr" v="951411" />
	</node>
	<node id="-718501" lat="68.7362249967" lon="15.7920027697">
		<tag k="name" v="Herreneset" />
		<tag k="natural" v="cape" />
		<tag k="ssr:stedsnr" v="951408" />
	</node>
	<node id="-718499" lat="68.6749694436" lon="15.0357277756">
		<tag k="name" v="Notholmen" />
		<tag k="place" v="islet" />
		<tag k="ssr:stedsnr" v="950958" />
	</node>
	<node id="-718496" lat="68.7089055577" lon="15.4376805455">
		<tag k="name" v="Storneset" />
		<tag k="natural" v="cape" />
		<tag k="ssr:stedsnr" v="947992" />
	</node>
	<node id="-716443" lat="68.6911666711" lon="15.4558083229">
		<tag k="name" v="Tausaneset" />
		<tag k="natural" v="cape" />
		<tag k="ssr:stedsnr" v="139154" />
	</node>
	<node id="-718481" lat="68.7356055534" lon="15.0861277732">
		<tag k="name" v="Naustnesgrunnen" />
		<tag k="natural" v="shoal" />
		<tag k="place" v="locality" />
		<tag k="ssr:stedsnr" v="946672" />
	</node>
	<node id="-718480" lat="68.7424944413" lon="15.6509444485">
		<tag k="name" v="Løksterneset" />
		<tag k="natural" v="cape" />
		<tag k="ssr:stedsnr" v="946666" />
	</node>
	<node id="-718479" lat="68.7138805511" lon="15.1495333397">
		<tag k="name" v="Kjerringvika" />
		<tag k="natural" v="bay" />
		<tag k="ssr:stedsnr" v="946590" />
	</node>
	<node id="-718478" lat="68.6241416675" lon="15.430824997">
		<tag k="name" v="Børsbukta" />
		<tag k="natural" v="bay" />
		<tag k="ssr:stedsnr" v="946562" />
	</node>
	<node id="-718477" lat="68.6349555512" lon="15.5598694551">
		<tag k="name" v="Hundholmen" />
		<tag k="place" v="islet" />
		<tag k="ssr:stedsnr" v="946553" />
	</node>
	<node id="-718476" lat="68.6161750016" lon="15.431513878">
		<tag k="name" v="Skjåneset" />
		<tag k="natural" v="cape" />
		<tag k="ssr:stedsnr" v="946550" />
	</node>
	<node id="-715714" lat="68.7587527776" lon="15.8609472311">
		<tag k="name" v="Kari-Larste" />
		<tag k="natural" v="beach" />
		<tag k="place" v="locality" />
		<tag k="ssr:stedsnr" v="344433" />
	</node>
	<node id="-716451" lat="68.688044442" lon="14.8582111193">
		<tag k="bay" v="fjord" />
		<tag k="loc_name:se" v="Mádavierda" />
		<tag k="name" v="Melfjorden" />
		<tag k="name:no" v="Melfjorden" />
		<tag k="natural" v="bay" />
		<tag k="ssr:stedsnr" v="139228" />
	</node>
	<node id="-716423" lat="68.7792611068" lon="15.4574611158">
		<tag k="name" v="Reinsnesøya" />
		<tag k="place" v="island" />
		<tag k="ssr:stedsnr" v="138344" />
	</node>
	<node id="-716422" lat="68.7841833304" lon="15.484799992">
		<tag k="alt_name" v="Vikosen" />
		<tag k="name" v="Vika" />
		<tag k="natural" v="bay" />
		<tag k="ssr:stedsnr" v="138340" />
	</node>
	<node id="-715713" lat="68.7313305594" lon="15.532013879">
		<tag k="name" v="Dreppelneset" />
		<tag k="natural" v="cape" />
		<tag k="ssr:stedsnr" v="344248" />
	</node>
	<node id="-716419" lat="68.8401611143" lon="15.3998083297">
		<tag k="name" v="Bremnesøya" />
		<tag k="place" v="island" />
		<tag k="ssr:stedsnr" v="138336" />
	</node>
	<node id="-718464" lat="68.8663583346" lon="15.9318111221">
		<tag k="name" v="Langnesbukta" />
		<tag k="natural" v="bay" />
		<tag k="ssr:stedsnr" v="945923" />
	</node>
	<node id="-718463" lat="68.6995277807" lon="15.1455694452">
		<tag k="name" v="Borgarneset" />
		<tag k="natural" v="cape" />
		<tag k="ssr:stedsnr" v="945580" />
	</node>
	<node id="-718454" lat="68.7136861097" lon="15.1359472104">
		<tag k="fixme" v="consider seamark:type=rock or natural=shoal" />
		<tag k="name" v="Kjerringvikskjeret" />
		<tag k="place" v="islet" />
		<tag k="ssr:stedsnr" v="928852" />
	</node>
	<node id="-716393" lat="68.5973972259" lon="15.3506722257">
		<tag k="name" v="Djupvika" />
		<tag k="natural" v="bay" />
		<tag k="ssr:stedsnr" v="138044" />
	</node>
	<node id="-718452" lat="68.7232138864" lon="15.4418666744">
		<tag k="fixme" v="consider seamark:type=rock or natural=shoal" />
		<tag k="name" v="Storvikskjeret" />
		<tag k="place" v="islet" />
		<tag k="ssr:stedsnr" v="928846" />
	</node>
	<node id="-716403" lat="68.6859138898" lon="15.4618638927">
		<tag k="name" v="Ålgårdsneset" />
		<tag k="natural" v="cape" />
		<tag k="ssr:stedsnr" v="138143" />
	</node>
	<node id="-716396" lat="68.6036388872" lon="15.3685527887">
		<tag k="alt_name" v="Kleksøya" />
		<tag k="fixme" v="multiple name tags, choose one and add the other to alt_name" />
		<tag k="name" v="Klikkøya;Kliksøyra" />
		<tag k="place" v="islet" />
		<tag k="ssr:stedsnr" v="138071" />
	</node>
	<node id="-716394" lat="68.5994500016" lon="15.3511472286">
		<tag k="fixme" v="consider seamark:type=rock or natural=shoal" />
		<tag k="name" v="Djupvikskjeret" />
		<tag k="place" v="islet" />
		<tag k="ssr:stedsnr" v="138048" />
	</node>
	<node id="-718441" lat="68.7238000025" lon="15.0479527813">
		<tag k="fixme" v="consider seamark:type=rock or natural=shoal" />
		<tag k="name" v="Kvalbaken" />
		<tag k="place" v="islet" />
		<tag k="ssr:stedsnr" v="928760" />
	</node>
	<node id="-718437" lat="68.8242583357" lon="15.5596722299">
		<tag k="name" v="Storneset" />
		<tag k="natural" v="cape" />
		<tag k="ssr:stedsnr" v="928652" />
	</node>
	<node id="-718436" lat="68.8175249963" lon="15.473077778">
		<tag k="name" v="Nordneset" />
		<tag k="natural" v="cape" />
		<tag k="ssr:stedsnr" v="928650" />
	</node>
	<node id="-718435" lat="68.7053388927" lon="14.9686638799">
		<tag k="name" v="Teistøya" />
		<tag k="place" v="islet" />
		<tag k="ssr:stedsnr" v="928639" />
	</node>
	<node id="-716386" lat="68.7547722252" lon="15.0642194496">
		<tag k="fixme" v="consider seamark:type=rock or natural=shoal" />
		<tag k="name" v="Langskjeret" />
		<tag k="place" v="islet" />
		<tag k="ssr:stedsnr" v="120788" />
	</node>
	<node id="-718432" lat="68.891169447" lon="15.9574166653">
		<tag k="name" v="Jaktsvika" />
		<tag k="natural" v="bay" />
		<tag k="ssr:stedsnr" v="928426" />
	</node>
	<node id="-718431" lat="68.8969694481" lon="15.9547777897">
		<tag k="name" v="Klubbeneset" />
		<tag k="natural" v="cape" />
		<tag k="ssr:stedsnr" v="928423" />
	</node>
	<node id="-718430" lat="68.8999833357" lon="15.948288887">
		<tag k="name" v="Trettevika" />
		<tag k="natural" v="bay" />
		<tag k="ssr:stedsnr" v="928424" />
	</node>
	<node id="-716389" lat="68.7153750024" lon="14.9673166565">
		<tag k="name" v="Pettertorvodden" />
		<tag k="natural" v="cape" />
		<tag k="ssr:stedsnr" v="120865" />
	</node>
	<node id="-718426" lat="68.75355833" lon="15.0510360979">
		<tag k="name" v="Storøya" />
		<tag k="place" v="islet" />
		<tag k="ssr:stedsnr" v="928389" />
	</node>
	<node id="-718423" lat="68.8010055516" lon="15.4699777719">
		<tag k="name" v="Langosneset" />
		<tag k="natural" v="cape" />
		<tag k="ssr:stedsnr" v="928313" />
	</node>
	<node id="-718421" lat="68.7777722196" lon="15.3111722195">
		<tag k="name" v="Fagerneset" />
		<tag k="natural" v="cape" />
		<tag k="ssr:stedsnr" v="928304" />
	</node>
	<node id="-716368" lat="68.592755554" lon="15.3274749876">
		<tag k="name" v="Gullkista" />
		<tag k="natural" v="beach" />
		<tag k="place" v="locality" />
		<tag k="ssr:stedsnr" v="118571" />
	</node>
	<node id="-718413" lat="68.6233972193" lon="15.568230549">
		<tag k="name" v="Storneset" />
		<tag k="natural" v="cape" />
		<tag k="ssr:stedsnr" v="928187" />
	</node>
	<node id="-718398" lat="68.6275972215" lon="15.5177833351">
		<tag k="name" v="Middagsbogholmen" />
		<tag k="natural" v="cape" />
		<tag k="ssr:stedsnr" v="927236" />
	</node>
	<node id="-718397" lat="68.6291749997" lon="15.4411638945">
		<tag k="name" v="Brokløysholmen" />
		<tag k="place" v="islet" />
		<tag k="ssr:stedsnr" v="927226" />
	</node>
	<node id="-718395" lat="68.6454499969" lon="15.498250005">
		<tag k="fixme" v="consider seamark:type=rock or natural=shoal" />
		<tag k="name" v="Bjørnskjeret" />
		<tag k="place" v="islet" />
		<tag k="ssr:stedsnr" v="927205" />
	</node>
	<node id="-718394" lat="68.650830557" lon="15.3637361049">
		<tag k="name" v="Skanken" />
		<tag k="natural" v="shoal" />
		<tag k="place" v="locality" />
		<tag k="ssr:stedsnr" v="927200" />
	</node>
	<node id="-718389" lat="68.7590999964" lon="15.8253666528">
		<tag k="name" v="Holmebukta" />
		<tag k="natural" v="bay" />
		<tag k="ssr:stedsnr" v="927152" />
	</node>
	<node id="-718388" lat="68.5740916637" lon="15.3364500069">
		<tag k="name" v="Bergebukta" />
		<tag k="natural" v="bay" />
		<tag k="ssr:stedsnr" v="927100" />
	</node>
	<node id="-718384" lat="68.6156666707" lon="15.4073111178">
		<tag k="name" v="Amundvika" />
		<tag k="natural" v="bay" />
		<tag k="ssr:stedsnr" v="927016" />
	</node>
	<node id="-716334" lat="68.690722223" lon="14.9220833424">
		<tag k="name" v="Solumsvågen" />
		<tag k="natural" v="bay" />
		<tag k="ssr:stedsnr" v="103645" />
	</node>
	<node id="-718429" lat="68.7374777745" lon="15.8044027776">
		<tag k="name" v="Langneset" />
		<tag k="natural" v="cape" />
		<tag k="ssr:stedsnr" v="928419" />
	</node>
	<node id="-718380" lat="68.729552782" lon="14.9681361133">
		<tag k="name" v="Innerodden" />
		<tag k="natural" v="cape" />
		<tag k="ssr:stedsnr" v="909854" />
	</node>
	<node id="-718379" lat="68.5826638854" lon="15.3180749972">
		<tag k="name" v="Smånesan" />
		<tag k="natural" v="cape" />
		<tag k="ssr:stedsnr" v="909126" />
	</node>
	<node id="-716330" lat="68.7222638911" lon="15.1252888801">
		<tag k="name" v="Sørskallen" />
		<tag k="natural" v="shoal" />
		<tag k="place" v="locality" />
		<tag k="ssr:stedsnr" v="98552" />
	</node>
	<node id="-716325" lat="68.8107555539" lon="15.5224222307">
		<tag k="name" v="Gamsteinneset" />
		<tag k="natural" v="cape" />
		<tag k="ssr:stedsnr" v="97843" />
	</node>
	<node id="-716318" lat="68.6101722256" lon="15.3982250002">
		<tag k="name" v="Kolvika" />
		<tag k="natural" v="bay" />
		<tag k="ssr:stedsnr" v="97601" />
	</node>
	<node id="-718362" lat="68.6764972219" lon="15.3866583306">
		<tag k="name" v="Nordnes" />
		<tag k="natural" v="cape" />
		<tag k="ssr:stedsnr" v="907587" />
	</node>
	<node id="-716306" lat="68.9058555552" lon="15.9341972225">
		<tag k="fixme" v="consider seamark:type=rock or natural=shoal" />
		<tag k="name" v="Sandnesskjæret" />
		<tag k="place" v="islet" />
		<tag k="ssr:stedsnr" v="96908" />
	</node>
	<node id="-717151" lat="68.80403333" lon="15.8930861091">
		<tag k="name" v="Galten" />
		<tag k="natural" v="shoal" />
		<tag k="place" v="locality" />
		<tag k="ssr:stedsnr" v="503100" />
	</node>
	<node id="-718351" lat="68.7168694412" lon="15.439619452">
		<tag k="name" v="Laneset" />
		<tag k="natural" v="cape" />
		<tag k="ssr:stedsnr" v="905729" />
	</node>
	<node id="-716302" lat="68.6767888847" lon="14.8587749987">
		<tag k="fixme" v="consider seamark:type=rock or natural=shoal" />
		<tag k="name" v="Kvalbaken" />
		<tag k="place" v="islet" />
		<tag k="ssr:stedsnr" v="96692" />
	</node>
	<node id="-716301" lat="68.704911114" lon="14.9237111087">
		<tag k="name" v="Trolldalsbukta" />
		<tag k="natural" v="bay" />
		<tag k="ssr:stedsnr" v="96690" />
	</node>
	<node id="-718346" lat="68.7598500036" lon="15.8240833456">
		<tag k="name" v="Holmen" />
		<tag k="natural" v="cape" />
		<tag k="ssr:stedsnr" v="905464" />
	</node>
	<node id="-718344" lat="68.8096861113" lon="15.5394500096">
		<tag k="name" v="Tjønneset" />
		<tag k="natural" v="cape" />
		<tag k="ssr:stedsnr" v="905106" />
	</node>
	<node id="-716289" lat="68.6544083336" lon="15.3318749893">
		<tag k="name" v="Bøneset" />
		<tag k="natural" v="cape" />
		<tag k="ssr:stedsnr" v="96431" />
	</node>
	<node id="-716287" lat="68.7390250006" lon="15.5794638886">
		<tag k="name" v="Litleneset" />
		<tag k="natural" v="cape" />
		<tag k="ssr:stedsnr" v="96718" />
	</node>
	<node id="-718334" lat="68.7203944439" lon="15.040688879">
		<tag k="fixme" v="consider seamark:type=rock or natural=shoal" />
		<tag k="name" v="Ytterholmen" />
		<tag k="place" v="islet" />
		<tag k="ssr:stedsnr" v="909737" />
	</node>
	<node id="-716276" lat="68.6967500017" lon="15.0703777827">
		<tag k="name" v="Grunnvika" />
		<tag k="natural" v="bay" />
		<tag k="ssr:stedsnr" v="79828" />
	</node>
	<node id="-718322" lat="68.6842222182" lon="15.0509527739">
		<tag k="name" v="Innerneset" />
		<tag k="natural" v="cape" />
		<tag k="ssr:stedsnr" v="868135" />
	</node>
	<node id="-718321" lat="68.6803222259" lon="15.0472222252">
		<tag k="bay" v="fjord" />
		<tag k="name" v="Straumfjorden" />
		<tag k="natural" v="bay" />
		<tag k="ssr:stedsnr" v="868132" />
	</node>
	<node id="-716272" lat="68.7368527736" lon="15.0854916698">
		<tag k="name" v="Naustneset" />
		<tag k="natural" v="cape" />
		<tag k="ssr:stedsnr" v="79773" />
	</node>
	<node id="-718317" lat="68.7911166704" lon="15.9933611147">
		<tag k="name" v="Nordavindshamn" />
		<tag k="natural" v="bay" />
		<tag k="ssr:stedsnr" v="868075" />
	</node>
	<node id="-716268" lat="68.7288194442" lon="15.1374277737">
		<tag k="name" v="Fuglvika" />
		<tag k="natural" v="bay" />
		<tag k="ssr:stedsnr" v="79726" />
	</node>
	<node id="-716266" lat="68.756297225" lon="15.4630777892">
		<tag k="name" v="Kleivbukta" />
		<tag k="natural" v="bay" />
		<tag k="ssr:stedsnr" v="79402" />
	</node>
	<node id="-716264" lat="68.7540527765" lon="15.0900583402">
		<tag k="name" v="Selneset" />
		<tag k="natural" v="cape" />
		<tag k="ssr:stedsnr" v="79391" />
	</node>
	<node id="-716260" lat="68.8471000005" lon="15.4016972316">
		<tag k="alt_name" v="Brattholmen" />
		<tag k="fixme" v="consider seamark:type=rock or natural=shoal" />
		<tag k="name" v="Brattholman" />
		<tag k="place" v="islet" />
		<tag k="ssr:stedsnr" v="79272" />
	</node>
	<node id="-716259" lat="68.7653611089" lon="15.837969446">
		<tag k="name" v="Tenneset" />
		<tag k="natural" v="cape" />
		<tag k="ssr:stedsnr" v="79180" />
	</node>
	<node id="-716258" lat="68.7674694415" lon="15.8853111063">
		<tag k="name" v="Skogneset" />
		<tag k="natural" v="cape" />
		<tag k="ssr:stedsnr" v="79168" />
	</node>
	<node id="-718303" lat="68.74647222" lon="15.3813444396">
		<tag k="name" v="Verholmen" />
		<tag k="place" v="islet" />
		<tag k="ssr:stedsnr" v="867817" />
	</node>
	<node id="-716254" lat="68.6916583369" lon="15.4528833324">
		<tag k="alt_name" v="Tausanesbukta" />
		<tag k="name" v="Tausabukta" />
		<tag k="natural" v="bay" />
		<tag k="ssr:stedsnr" v="79153" />
	</node>
	<node id="-718300" lat="68.7272083344" lon="15.5216222235">
		<tag k="alt_name" v="Kvalsaukholman" />
		<tag k="name" v="Kvalsaukholmen" />
		<tag k="place" v="islet" />
		<tag k="ssr:stedsnr" v="867789" />
	</node>
	<node id="-718298" lat="68.7028166662" lon="14.9330666755">
		<tag k="name" v="Kobbuktneset" />
		<tag k="natural" v="cape" />
		<tag k="ssr:stedsnr" v="867691" />
	</node>
	<node id="-718297" lat="68.7046472181" lon="14.9615361054">
		<tag k="alt_name" v="Brandøya" />
		<tag k="name" v="Brannøya" />
		<tag k="place" v="islet" />
		<tag k="ssr:stedsnr" v="867692" />
	</node>
	<node id="-716248" lat="68.7258583291" lon="15.1406694405">
		<tag k="name" v="Nordnesbukta" />
		<tag k="natural" v="bay" />
		<tag k="ssr:stedsnr" v="78778" />
	</node>
	<node id="-718295" lat="68.69237778" lon="14.9329277661">
		<tag k="name" v="Hamnneset" />
		<tag k="natural" v="cape" />
		<tag k="ssr:stedsnr" v="867666" />
	</node>
	<node id="-718294" lat="68.6801694474" lon="14.8930361161">
		<tag k="name" v="Langnesodden" />
		<tag k="natural" v="cape" />
		<tag k="ssr:stedsnr" v="867635" />
	</node>
	<node id="-718293" lat="68.6797277805" lon="14.9060361084">
		<tag k="name" v="Solumskallen" />
		<tag k="natural" v="shoal" />
		<tag k="place" v="locality" />
		<tag k="ssr:stedsnr" v="867636" />
	</node>
	<node id="-716243" lat="68.9624361092" lon="15.9087083263">
		<tag k="name" v="Ostevika" />
		<tag k="natural" v="bay" />
		<tag k="ssr:stedsnr" v="78464" />
	</node>
	<node id="-718289" lat="68.7614555529" lon="15.3359388824">
		<tag k="name" v="Vikøya" />
		<tag k="place" v="island" />
		<tag k="ssr:stedsnr" v="867439" />
	</node>
	<node id="-718288" lat="68.7582222252" lon="15.3897388941">
		<tag k="alt_name" v="Nordre Verholmgrunnen" />
		<tag k="name" v="Verholmgrunnen" />
		<tag k="natural" v="shoal" />
		<tag k="place" v="locality" />
		<tag k="ssr:stedsnr" v="867437" />
	</node>
	<node id="-718287" lat="68.7348611154" lon="15.6249055546">
		<tag k="name" v="Simaneset" />
		<tag k="natural" v="cape" />
		<tag k="ssr:stedsnr" v="867436" />
	</node>
	<node id="-718286" lat="68.9684583367" lon="15.8572944437">
		<tag k="alt_name" v="Kinnesstrand" />
		<tag k="name" v="Kinnstranda" />
		<tag k="natural" v="beach" />
		<tag k="place" v="locality" />
		<tag k="ssr:stedsnr" v="867411" />
	</node>
	<node id="-716231" lat="68.7540666705" lon="15.1109027892">
		<tag k="name" v="Storøya" />
		<tag k="place" v="islet" />
		<tag k="ssr:stedsnr" v="78308" />
	</node>
	<node id="-716228" lat="68.8047194465" lon="15.4171888779">
		<tag k="bay" v="fjord" />
		<tag k="name" v="Sortlandsundet" />
		<tag k="natural" v="bay" />
		<tag k="ssr:stedsnr" v="78270" />
	</node>
	<node id="-718275" lat="68.7839416644" lon="16.000519437">
		<tag k="name" v="Kråkvika" />
		<tag k="natural" v="bay" />
		<tag k="ssr:stedsnr" v="867326" />
	</node>
	<node id="-716226" lat="68.6302583338" lon="15.2254749899">
		<tag k="name" v="Risneset" />
		<tag k="natural" v="cape" />
		<tag k="ssr:stedsnr" v="78251" />
	</node>
	<node id="-718272" lat="68.818413885" lon="15.6094277818">
		<tag k="name" v="Vidbukta" />
		<tag k="natural" v="bay" />
		<tag k="ssr:stedsnr" v="867293" />
	</node>
	<node id="-718268" lat="68.6376361073" lon="15.5108555508">
		<tag k="bay" v="fjord" />
		<tag k="name" v="Sigerfjorden" />
		<tag k="natural" v="bay" />
		<tag k="ssr:stedsnr" v="867264" />
	</node>
	<node id="-718267" lat="68.630441665" lon="15.222133325">
		<tag k="alt_name" v="Risebukta" />
		<tag k="name" v="Risbukta" />
		<tag k="natural" v="bay" />
		<tag k="ssr:stedsnr" v="867259" />
	</node>
	<node id="-718265" lat="68.6477833319" lon="15.4873333369">
		<tag k="name" v="Dalflaget" />
		<tag k="natural" v="strait" />
		<tag k="ssr:stedsnr" v="867225" />
	</node>
	<node id="-716206" lat="68.6029694481" lon="15.3584972203">
		<tag k="name" v="Blokkneset" />
		<tag k="natural" v="cape" />
		<tag k="ssr:stedsnr" v="78067" />
	</node>
	<node id="-716200" lat="68.6114861103" lon="15.3961805568">
		<tag k="alt_name" v="Kolvikodden" />
		<tag k="name" v="Kollvikodden" />
		<tag k="natural" v="cape" />
		<tag k="ssr:stedsnr" v="78013" />
	</node>
	<node id="-718247" lat="68.6195611139" lon="15.5805972194">
		<tag k="name" v="Vangpollholmen" />
		<tag k="place" v="islet" />
		<tag k="ssr:stedsnr" v="867031" />
	</node>
	<node id="-716197" lat="68.7282611143" lon="15.0383333219">
		<tag k="name" v="Melkarneset" />
		<tag k="natural" v="cape" />
		<tag k="ssr:stedsnr" v="59748" />
	</node>
	<node id="-718238" lat="68.8488444491" lon="15.9162749929">
		<tag k="fixme" v="consider seamark:type=rock or natural=shoal" />
		<tag k="name" v="Brørn" />
		<tag k="place" v="islet" />
		<tag k="ssr:stedsnr" v="848346" />
	</node>
	<node id="-716183" lat="68.820502775" lon="15.3675111137">
		<tag k="name" v="Finnbogen" />
		<tag k="natural" v="bay" />
		<tag k="ssr:stedsnr" v="57853" />
	</node>
	<node id="-716176" lat="68.8447249992" lon="15.3928138795">
		<tag k="name" v="Kvanskjelbogen" />
		<tag k="natural" v="bay" />
		<tag k="ssr:stedsnr" v="57650" />
	</node>
	<node id="-718221" lat="68.7279861129" lon="15.0587833349">
		<tag k="name" v="Hokkabogodden" />
		<tag k="natural" v="cape" />
		<tag k="ssr:stedsnr" v="845970" />
	</node>
	<node id="-716171" lat="68.7255111092" lon="15.0569500051">
		<tag k="fixme" v="consider seamark:type=rock or natural=shoal" />
		<tag k="name" v="Kvalbaken" />
		<tag k="place" v="islet" />
		<tag k="ssr:stedsnr" v="56973" />
	</node>
	<node id="-716170" lat="68.7426944451" lon="15.136205556">
		<tag k="name" v="Kjennstrandbukta" />
		<tag k="natural" v="bay" />
		<tag k="ssr:stedsnr" v="56964" />
	</node>
	<node id="-718216" lat="68.7503416684" lon="15.8406444494">
		<tag k="name" v="Litjekvitneset" />
		<tag k="natural" v="cape" />
		<tag k="ssr:stedsnr" v="845486" />
	</node>
	<node id="-716167" lat="68.7444138931" lon="15.7958277796">
		<tag k="name" v="Kvalneset" />
		<tag k="natural" v="cape" />
		<tag k="ssr:stedsnr" v="56481" />
	</node>
	<node id="-718214" lat="68.7652333324" lon="15.4614527667">
		<tag k="name" v="Kleivneset" />
		<tag k="natural" v="cape" />
		<tag k="ssr:stedsnr" v="845127" />
	</node>
	<node id="-718212" lat="68.8150111156" lon="15.5347666562">
		<tag k="name" v="Oppsåta" />
		<tag k="natural" v="bay" />
		<tag k="ssr:stedsnr" v="845108" />
	</node>
	<node id="-718207" lat="68.6054833294" lon="15.460258339">
		<tag k="name" v="Kobbukta" />
		<tag k="natural" v="bay" />
		<tag k="ssr:stedsnr" v="844529" />
	</node>
	<node id="-718205" lat="68.8703972265" lon="15.9369777829">
		<tag k="name" v="Skallen" />
		<tag k="natural" v="cape" />
		<tag k="ssr:stedsnr" v="840376" />
	</node>
	<node id="-716156" lat="68.6064222241" lon="15.3949083285">
		<tag k="name" v="Stokkvika" />
		<tag k="natural" v="bay" />
		<tag k="ssr:stedsnr" v="55502" />
	</node>
	<node id="-718203" lat="68.6798444422" lon="14.7934944402">
		<tag k="name" v="Brønnøya" />
		<tag k="place" v="islet" />
		<tag k="ssr:stedsnr" v="831598" />
	</node>
	<node id="-718199" lat="68.6743416705" lon="15.0406055456">
		<tag k="name" v="Øya" />
		<tag k="place" v="islet" />
		<tag k="ssr:stedsnr" v="829968" />
	</node>
	<node id="-716150" lat="68.7141305572" lon="14.9414249978">
		<tag k="name" v="Straumelvbukta" />
		<tag k="natural" v="bay" />
		<tag k="ssr:stedsnr" v="42660" />
	</node>
	<node id="-716149" lat="68.7072944458" lon="14.9668860992">
		<tag k="name" v="Klubbodden" />
		<tag k="natural" v="cape" />
		<tag k="ssr:stedsnr" v="42632" />
	</node>
	<node id="-716148" lat="68.6810583323" lon="14.8953972185">
		<tag k="name" v="Langosoddene" />
		<tag k="natural" v="cape" />
		<tag k="ssr:stedsnr" v="42630" />
	</node>
	<node id="-716147" lat="68.7029694483" lon="14.9570972171">
		<tag k="name" v="Høgholmen" />
		<tag k="place" v="islet" />
		<tag k="ssr:stedsnr" v="42625" />
	</node>
	<node id="-718194" lat="68.68127222" lon="14.8681611086">
		<tag k="name" v="Skarvbukta" />
		<tag k="natural" v="bay" />
		<tag k="ssr:stedsnr" v="831616" />
	</node>
	<node id="-716144" lat="68.6763305514" lon="14.8025222237">
		<tag k="name" v="Hellfjordhamn" />
		<tag k="natural" v="bay" />
		<tag k="ssr:stedsnr" v="42607" />
	</node>
	<node id="-718191" lat="68.8203833323" lon="15.4742555456">
		<tag k="name" v="Stamnesgrunnen" />
		<tag k="natural" v="shoal" />
		<tag k="place" v="locality" />
		<tag k="ssr:stedsnr" v="827319" />
	</node>
	<node id="-718190" lat="68.6907500014" lon="15.0521749917">
		<tag k="name" v="Moldvikneset" />
		<tag k="natural" v="cape" />
		<tag k="ssr:stedsnr" v="826526" />
	</node>
	<node id="-716349" lat="68.7357750009" lon="15.7712305495">
		<tag k="name" v="Åmundbekkneset" />
		<tag k="natural" v="cape" />
		<tag k="ssr:stedsnr" v="116009" />
	</node>
	<node id="-718188" lat="68.7693972189" lon="15.3046416745">
		<tag k="name" v="Litlholmen" />
		<tag k="place" v="islet" />
		<tag k="ssr:stedsnr" v="825967" />
	</node>
	<node id="-718187" lat="68.8142694425" lon="15.4675916768">
		<tag k="fixme" v="consider seamark:type=rock or natural=shoal" />
		<tag k="name" v="Litleskjeret" />
		<tag k="place" v="islet" />
		<tag k="ssr:stedsnr" v="825842" />
	</node>
	<node id="-718186" lat="68.6188972181" lon="15.5703805592">
		<tag k="name" v="Osen" />
		<tag k="natural" v="bay" />
		<tag k="ssr:stedsnr" v="825652" />
	</node>
	<node id="-716137" lat="68.6770305515" lon="15.0433222215">
		<tag k="name" v="Ytternesan" />
		<tag k="natural" v="cape" />
		<tag k="ssr:stedsnr" v="40969" />
	</node>
	<node id="-716135" lat="68.8316472233" lon="15.2606694353">
		<tag k="name" v="Kobbsteingrunnen" />
		<tag k="natural" v="shoal" />
		<tag k="place" v="locality" />
		<tag k="ssr:stedsnr" v="38322" />
	</node>
	<node id="-716132" lat="68.8158333339" lon="15.4723999973">
		<tag k="name" v="Halsen" />
		<tag k="place" v="locality" />
		<tag k="ssr:stedsnr" v="36868" />
	</node>
	<node id="-718179" lat="68.6272083311" lon="15.4516444415">
		<tag k="fixme" v="multiple name tags, choose one and add the other to alt_name" />
		<tag k="name" v="Ytre Brokløyshamn;Ytterhamn" />
		<tag k="natural" v="bay" />
		<tag k="ssr:stedsnr" v="825551" />
	</node>
	<node id="-716130" lat="68.733158334" lon="15.5992722232">
		<tag k="name" v="Kalvvikneset" />
		<tag k="natural" v="cape" />
		<tag k="ssr:stedsnr" v="36746" />
	</node>
	<node id="-716347" lat="68.8655416712" lon="15.9288944401">
		<tag k="name" v="Langnessanden" />
		<tag k="natural" v="beach" />
		<tag k="place" v="locality" />
		<tag k="ssr:stedsnr" v="112406" />
	</node>
	<node id="-718176" lat="68.6351916625" lon="15.5524055514">
		<tag k="name" v="Halvkannflua" />
		<tag k="natural" v="shoal" />
		<tag k="place" v="locality" />
		<tag k="ssr:stedsnr" v="825530" />
	</node>
	<node id="-716127" lat="68.7459472253" lon="15.6135333371">
		<tag k="name" v="Måshella" />
		<tag k="natural" v="cape" />
		<tag k="ssr:stedsnr" v="36720" />
	</node>
	<node id="-716126" lat="68.6862555523" lon="14.8629805451">
		<tag k="name" v="Ungsmaløya" />
		<tag k="place" v="islet" />
		<tag k="ssr:stedsnr" v="36668" />
	</node>
	<node id="-716124" lat="68.6892388932" lon="14.9347611116">
		<tag k="name" v="Kjønnskallen" />
		<tag k="natural" v="shoal" />
		<tag k="place" v="locality" />
		<tag k="ssr:stedsnr" v="36660" />
	</node>
	<node id="-716346" lat="68.8662277763" lon="15.9353666595">
		<tag k="fixme" v="consider seamark:type=rock or natural=shoal" />
		<tag k="name" v="Storskjæret" />
		<tag k="place" v="islet" />
		<tag k="ssr:stedsnr" v="112403" />
	</node>
	<node id="-716004" lat="68.7420777818" lon="15.6570416572">
		<tag k="alt_name" v="Eidbukta" />
		<tag k="name" v="Eidebukta" />
		<tag k="natural" v="bay" />
		<tag k="ssr:stedsnr" v="18406" />
	</node>
	<node id="-716118" lat="68.7344222254" lon="15.3995694427">
		<tag k="name" v="Bygdnesøyra" />
		<tag k="natural" v="beach" />
		<tag k="place" v="locality" />
		<tag k="ssr:stedsnr" v="36535" />
	</node>
	<node id="-716116" lat="68.7561638929" lon="15.3950861068">
		<tag k="name" v="Søre Verholmgrunnen" />
		<tag k="natural" v="shoal" />
		<tag k="place" v="locality" />
		<tag k="ssr:stedsnr" v="36524" />
	</node>
	<node id="-718163" lat="68.6980999998" lon="15.0712444553">
		<tag k="name" v="Litlevika" />
		<tag k="natural" v="bay" />
		<tag k="ssr:stedsnr" v="824642" />
	</node>
	<node id="-718161" lat="68.7011749972" lon="15.0786638758">
		<tag k="name" v="Nordodden" />
		<tag k="natural" v="cape" />
		<tag k="ssr:stedsnr" v="824628" />
	</node>
	<node id="-716104" lat="68.712680557" lon="15.1005638965">
		<tag k="alt_name" v="Pollneset" />
		<tag k="name" v="Pollnesodden" />
		<tag k="natural" v="cape" />
		<tag k="ssr:stedsnr" v="35675" />
	</node>
	<node id="-718146" lat="68.7374555576" lon="15.3883111126">
		<tag k="alt_name" v="Ramnflaugbukta" />
		<tag k="name" v="Ramnflågbukta" />
		<tag k="natural" v="bay" />
		<tag k="ssr:stedsnr" v="807793" />
	</node>
	<node id="-718143" lat="68.7395916698" lon="15.0811777746">
		<tag k="alt_name" v="Valsnesodden" />
		<tag k="name" v="Valneset" />
		<tag k="natural" v="cape" />
		<tag k="ssr:stedsnr" v="807781" />
	</node>
	<node id="-718141" lat="68.7500861127" lon="15.0555777887">
		<tag k="name" v="Kjeøya" />
		<tag k="place" v="islet" />
		<tag k="ssr:stedsnr" v="807759" />
	</node>
	<node id="-718140" lat="68.7379666656" lon="15.5116194527">
		<tag k="name" v="Leirbogneset" />
		<tag k="natural" v="cape" />
		<tag k="ssr:stedsnr" v="807720" />
	</node>
	<node id="-718138" lat="68.8604277768" lon="15.3200694553">
		<tag k="alt_name" v="Breidskjeret" />
		<tag k="fixme" v="consider seamark:type=rock or natural=shoal" />
		<tag k="name" v="Breiskjeret" />
		<tag k="place" v="islet" />
		<tag k="ssr:stedsnr" v="807710" />
	</node>
	<node id="-716340" lat="68.6674805522" lon="14.8120333235">
		<tag k="name" v="Litjeklubben" />
		<tag k="natural" v="cape" />
		<tag k="ssr:stedsnr" v="103689" />
	</node>
	<node id="-716086" lat="68.7243999983" lon="15.5479833291">
		<tag k="name" v="Kobbeneset" />
		<tag k="natural" v="cape" />
		<tag k="ssr:stedsnr" v="18819" />
	</node>
	<node id="-718133" lat="68.7557750046" lon="15.2956166604">
		<tag k="name" v="Vikbotn" />
		<tag k="natural" v="bay" />
		<tag k="ssr:stedsnr" v="807413" />
	</node>
	<node id="-718129" lat="68.712016666" lon="14.9556222102">
		<tag k="alt_name" v="Vedhøggarøya" />
		<tag k="name" v="Vedhoggarøya" />
		<tag k="place" v="island" />
		<tag k="ssr:stedsnr" v="807293" />
	</node>
	<node id="-716080" lat="68.7390361128" lon="15.1256555664">
		<tag k="alt_name" v="Småskjeret" />
		<tag k="fixme" v="consider seamark:type=rock or natural=shoal" />
		<tag k="name" v="Småskjeran" />
		<tag k="place" v="islet" />
		<tag k="ssr:stedsnr" v="18750" />
	</node>
	<node id="-716078" lat="68.7478222241" lon="15.3232722294">
		<tag k="name" v="Jennestadosen" />
		<tag k="natural" v="bay" />
		<tag k="ssr:stedsnr" v="18743" />
	</node>
	<node id="-716077" lat="68.7468250015" lon="15.4954888877">
		<tag k="alt_name" v="Lilandsbukta" />
		<tag k="name" v="Lilandbukta" />
		<tag k="natural" v="bay" />
		<tag k="ssr:stedsnr" v="18735" />
	</node>
	<node id="-716073" lat="68.7378361142" lon="15.5157527723">
		<tag k="name" v="Leirbogen" />
		<tag k="natural" v="bay" />
		<tag k="ssr:stedsnr" v="18680" />
	</node>
	<node id="-718117" lat="68.7065861126" lon="14.9688610997">
		<tag k="fixme" v="multiple name tags, choose one and add the other to alt_name" />
		<tag k="name" v="Gårdsøya;Klubba" />
		<tag k="place" v="islet" />
		<tag k="ssr:stedsnr" v="806699" />
	</node>
	<node id="-718114" lat="68.9421611072" lon="15.9112916529">
		<tag k="name" v="Kleivneset" />
		<tag k="natural" v="cape" />
		<tag k="ssr:stedsnr" v="806472" />
	</node>
	<node id="-716065" lat="68.7645416652" lon="15.0257277665">
		<tag k="bay" v="fjord" />
		<tag k="name" v="Bjørndalsfjorden" />
		<tag k="natural" v="bay" />
		<tag k="ssr:stedsnr" v="18291" />
	</node>
	<node id="-718112" lat="68.9550750013" lon="15.9130972218">
		<tag k="name" v="Bustøa" />
		<tag k="natural" v="cape" />
		<tag k="ssr:stedsnr" v="806464" />
	</node>
	<node id="-718110" lat="68.9645583335" lon="15.9090722147">
		<tag k="alt_name" v="Brørn" />
		<tag k="name" v="Brøran" />
		<tag k="natural" v="shoal" />
		<tag k="place" v="locality" />
		<tag k="ssr:stedsnr" v="806454" />
	</node>
	<node id="-718108" lat="68.788816671" lon="15.4694722249">
		<tag k="name" v="Litlereinsneset" />
		<tag k="natural" v="cape" />
		<tag k="ssr:stedsnr" v="806360" />
	</node>
	<node id="-716166" lat="68.6960722263" lon="14.859516663">
		<tag k="name" v="Gamneset" />
		<tag k="natural" v="cape" />
		<tag k="ssr:stedsnr" v="56657" />
	</node>
	<node id="-716057" lat="68.6808277757" lon="15.0378055563">
		<tag k="name" v="Ytterneset" />
		<tag k="natural" v="cape" />
		<tag k="ssr:stedsnr" v="18143" />
	</node>
	<node id="-718099" lat="68.8223111099" lon="15.5516861216">
		<tag k="name" v="Stornesbukta" />
		<tag k="natural" v="bay" />
		<tag k="ssr:stedsnr" v="806273" />
	</node>
	<node id="-716048" lat="68.7255555544" lon="15.5596416697">
		<tag k="fixme" v="multiple name tags, choose one and add the other to alt_name" />
		<tag k="name" v="Mortenjordneset;Mortenneset" />
		<tag k="natural" v="cape" />
		<tag k="ssr:stedsnr" v="17803" />
	</node>
	<node id="-716047" lat="68.7264916693" lon="15.4768444391">
		<tag k="name" v="Skjåneset" />
		<tag k="natural" v="cape" />
		<tag k="ssr:stedsnr" v="17801" />
	</node>
	<node id="-716046" lat="68.7014305554" lon="15.0079194492">
		<tag k="alt_name" v="Kjølldragøya" />
		<tag k="fixme" v="multiple name tags, choose one and add the other to alt_name" />
		<tag k="name" v="Kjøldraget;Kjøldragøya" />
		<tag k="place" v="islet" />
		<tag k="ssr:stedsnr" v="17726" />
	</node>
	<node id="-718093" lat="68.649100001" lon="15.4667222228">
		<tag k="name" v="Kjerringnesøya" />
		<tag k="place" v="island" />
		<tag k="ssr:stedsnr" v="806187" />
	</node>
	<node id="-716044" lat="68.951872222" lon="15.9133638922">
		<tag k="fixme" v="multiple name tags, choose one and add the other to alt_name" />
		<tag k="name" v="Melvika;Molvika" />
		<tag k="natural" v="bay" />
		<tag k="ssr:stedsnr" v="17494" />
	</node>
	<node id="-716332" lat="68.7245638845" lon="15.4699972315">
		<tag k="name" v="Osen" />
		<tag k="natural" v="bay" />
		<tag k="ssr:stedsnr" v="102293" />
	</node>
	<node id="-716038" lat="68.8422138848" lon="15.4081138971">
		<tag k="fixme" v="consider seamark:type=rock or natural=shoal" />
		<tag k="name" v="Litlesandvær" />
		<tag k="place" v="islet" />
		<tag k="ssr:stedsnr" v="17350" />
	</node>
	<node id="-716037" lat="68.8297638912" lon="15.513586103">
		<tag k="fixme" v="consider seamark:type=rock or natural=shoal" />
		<tag k="name" v="Øykalven" />
		<tag k="place" v="islet" />
		<tag k="ssr:stedsnr" v="17338" />
	</node>
	<node id="-718083" lat="68.6787833356" lon="15.0352416633">
		<tag k="name" v="Gjerdholmen" />
		<tag k="place" v="islet" />
		<tag k="ssr:stedsnr" v="806113" />
	</node>
	<node id="-718078" lat="68.6147055572" lon="15.2220166648">
		<tag k="name" v="Matskallen" />
		<tag k="natural" v="shoal" />
		<tag k="place" v="locality" />
		<tag k="ssr:stedsnr" v="806019" />
	</node>
	<node id="-716029" lat="68.6526249992" lon="15.4842388932">
		<tag k="alt_name" v="Daløra" />
		<tag k="fixme" v="consider seamark:type=rock or natural=shoal" />
		<tag k="name" v="Daløyra" />
		<tag k="place" v="islet" />
		<tag k="ssr:stedsnr" v="17226" />
	</node>
	<node id="-716028" lat="68.6473555525" lon="15.2987638915">
		<tag k="name" v="Rognan" />
		<tag k="natural" v="cape" />
		<tag k="ssr:stedsnr" v="17225" />
	</node>
	<node id="-718071" lat="68.7341250025" lon="15.0484972194">
		<tag k="name" v="Vestpollen" />
		<tag k="natural" v="bay" />
		<tag k="ssr:stedsnr" v="787753" />
	</node>
	<node id="-716021" lat="68.7713277818" lon="15.8443555594">
		<tag k="name" v="Kvitsandneset" />
		<tag k="natural" v="cape" />
		<tag k="ssr:stedsnr" v="17198" />
	</node>
	<node id="-716017" lat="68.6693416626" lon="15.377641674">
		<tag k="name" v="Jektneset" />
		<tag k="natural" v="cape" />
		<tag k="ssr:stedsnr" v="17178" />
	</node>
	<node id="-718062" lat="68.9391277803" lon="15.9117638859">
		<tag k="fixme" v="consider seamark:type=rock or natural=shoal" />
		<tag k="name" v="Latteinen" />
		<tag k="place" v="islet" />
		<tag k="ssr:stedsnr" v="786733" />
	</node>
	<node id="-716012" lat="68.7824861123" lon="16.0027583217">
		<tag k="name" v="Seglneset" />
		<tag k="natural" v="cape" />
		<tag k="ssr:stedsnr" v="17082" />
	</node>
	<node id="-718059" lat="68.6023888925" lon="15.3814027694">
		<tag k="name" v="Finnstøa" />
		<tag k="natural" v="bay" />
		<tag k="ssr:stedsnr" v="786550" />
	</node>
	<node id="-718056" lat="68.9326888879" lon="15.9113749909">
		<tag k="fixme" v="consider seamark:type=rock or natural=shoal" />
		<tag k="name" v="Benkestokkan" />
		<tag k="place" v="islet" />
		<tag k="ssr:stedsnr" v="785648" />
	</node>
	<node id="-716007" lat="68.8980583315" lon="15.9524361043">
		<tag k="fixme" v="multiple name tags, choose one and add the other to alt_name" />
		<tag k="name" v="Båtvika;Sørste Båtvika" />
		<tag k="natural" v="bay" />
		<tag k="ssr:stedsnr" v="18421" />
	</node>
	<node id="-716005" lat="68.90491944" lon="15.9331361214">
		<tag k="name" v="Sandneset" />
		<tag k="natural" v="cape" />
		<tag k="ssr:stedsnr" v="18416" />
	</node>
	<node id="-718052" lat="68.6006638915" lon="15.3501833422">
		<tag k="name" v="Heraforliset" />
		<tag k="natural" v="shoal" />
		<tag k="place" v="locality" />
		<tag k="ssr:stedsnr" v="785588" />
	</node>
	<node id="-718373" lat="68.772033333" lon="15.9078916775">
		<tag k="fixme" v="consider seamark:type=rock or natural=shoal" />
		<tag k="name" v="Hyssteinen" />
		<tag k="place" v="islet" />
		<tag k="ssr:stedsnr" v="908319" />
	</node>
	<node id="-715979" lat="68.7069083318" lon="14.9666888982">
		<tag k="name" v="Klubbsundet" />
		<tag k="natural" v="strait" />
		<tag k="ssr:stedsnr" v="892663" />
	</node>
	<node id="-718025" lat="68.699836113" lon="14.9954111236">
		<tag k="name" v="Grønnbukta" />
		<tag k="natural" v="bay" />
		<tag k="ssr:stedsnr" v="770809" />
	</node>
	<node id="-718024" lat="68.709288893" lon="14.9508666778">
		<tag k="name" v="Småstraumen" />
		<tag k="natural" v="strait" />
		<tag k="ssr:stedsnr" v="770730" />
	</node>
	<node id="-718022" lat="68.6714972237" lon="14.804141664">
		<tag k="name" v="Litjeholmen" />
		<tag k="place" v="islet" />
		<tag k="ssr:stedsnr" v="770697" />
	</node>
	<node id="-715973" lat="68.7378972209" lon="15.77795277">
		<tag k="name" v="Grunnvågneset" />
		<tag k="natural" v="cape" />
		<tag k="ssr:stedsnr" v="891432" />
	</node>
	<node id="-718020" lat="68.7048972256" lon="14.9548722217">
		<tag k="name" v="Jensvalen" />
		<tag k="natural" v="strait" />
		<tag k="ssr:stedsnr" v="770651" />
	</node>
	<node id="-718019" lat="68.702527779" lon="14.954113898">
		<tag k="name" v="Enokvalen" />
		<tag k="natural" v="strait" />
		<tag k="ssr:stedsnr" v="770650" />
	</node>
	<node id="-718018" lat="68.7064000007" lon="14.9810499927">
		<tag k="name" v="Gammelgårdsbukta" />
		<tag k="natural" v="bay" />
		<tag k="ssr:stedsnr" v="770641" />
	</node>
	<node id="-718017" lat="68.7079333309" lon="14.9808249878">
		<tag k="name" v="Vedbukta" />
		<tag k="natural" v="bay" />
		<tag k="ssr:stedsnr" v="770633" />
	</node>
	<node id="-715966" lat="68.6766000041" lon="15.0489138952">
		<tag k="name" v="Litjnesbukta" />
		<tag k="natural" v="bay" />
		<tag k="ssr:stedsnr" v="890973" />
	</node>
	<node id="-715961" lat="68.816922219" lon="15.5074110994">
		<tag k="name" v="Litle Stamneshella" />
		<tag k="natural" v="shoal" />
		<tag k="place" v="locality" />
		<tag k="ssr:stedsnr" v="887285" />
	</node>
	<node id="-715960" lat="68.7183027787" lon="15.1425472282">
		<tag k="name" v="Elveskallen" />
		<tag k="natural" v="shoal" />
		<tag k="place" v="locality" />
		<tag k="ssr:stedsnr" v="887540" />
	</node>
	<node id="-718003" lat="68.8270944434" lon="15.2605444483">
		<tag k="name" v="Båtneset" />
		<tag k="natural" v="cape" />
		<tag k="ssr:stedsnr" v="768585" />
	</node>
	<node id="-715954" lat="68.6159527782" lon="15.6191527878">
		<tag k="name" v="Klemningan" />
		<tag k="natural" v="cape" />
		<tag k="ssr:stedsnr" v="886693" />
	</node>
	<node id="-715953" lat="68.6171277799" lon="15.5980027734">
		<tag k="name" v="Melkarvika" />
		<tag k="natural" v="bay" />
		<tag k="ssr:stedsnr" v="886690" />
	</node>
	<node id="-715950" lat="68.7767361156" lon="15.4788222118">
		<tag k="name" v="Åneset" />
		<tag k="natural" v="cape" />
		<tag k="ssr:stedsnr" v="886601" />
	</node>
	<node id="-715943" lat="68.6447277745" lon="15.2824055541">
		<tag k="name" v="Kleivbukta" />
		<tag k="natural" v="bay" />
		<tag k="ssr:stedsnr" v="885718" />
	</node>
	<node id="-715940" lat="68.6961944443" lon="15.0692777736">
		<tag k="name" v="Otervika" />
		<tag k="natural" v="bay" />
		<tag k="ssr:stedsnr" v="885633" />
	</node>
	<node id="-715974" lat="68.7399416623" lon="15.7857083383">
		<tag k="name" v="Gammeneset" />
		<tag k="natural" v="cape" />
		<tag k="ssr:stedsnr" v="891431" />
	</node>
	<node id="-717986" lat="68.7396666666" lon="15.1078916655">
		<tag k="name" v="Storskjerskallen" />
		<tag k="natural" v="shoal" />
		<tag k="place" v="locality" />
		<tag k="ssr:stedsnr" v="764569" />
	</node>
	<node id="-717984" lat="68.605494441" lon="15.3691749903">
		<tag k="name" v="Skallen" />
		<tag k="natural" v="shoal" />
		<tag k="place" v="locality" />
		<tag k="ssr:stedsnr" v="764371" />
	</node>
	<node id="-716314" lat="68.660861114" lon="15.471841655">
		<tag k="name" v="Sukkertoppen" />
		<tag k="natural" v="cape" />
		<tag k="ssr:stedsnr" v="97509" />
	</node>
	<node id="-717976" lat="68.7073694426" lon="15.125047213">
		<tag k="name" v="Sildpollneset" />
		<tag k="natural" v="cape" />
		<tag k="ssr:stedsnr" v="763635" />
	</node>
	<node id="-715972" lat="68.7249027813" lon="15.5367583341">
		<tag k="name" v="Øra" />
		<tag k="place" v="islet" />
		<tag k="ssr:stedsnr" v="891273" />
	</node>
	<node id="-715924" lat="68.7393333318" lon="15.9419277827">
		<tag k="name" v="Skredneset" />
		<tag k="natural" v="cape" />
		<tag k="ssr:stedsnr" v="475482" />
	</node>
	<node id="-715923" lat="68.7012166674" lon="14.9846305503">
		<tag k="name" v="Storbukta" />
		<tag k="natural" v="bay" />
		<tag k="ssr:stedsnr" v="406831" />
	</node>
	<node id="-715921" lat="68.7094777781" lon="14.9452138895">
		<tag k="name" v="Dragarvalen" />
		<tag k="natural" v="strait" />
		<tag k="ssr:stedsnr" v="406736" />
	</node>
	<node id="-715919" lat="68.7050638924" lon="14.9447805492">
		<tag k="name" v="Hestholmen" />
		<tag k="place" v="islet" />
		<tag k="ssr:stedsnr" v="406730" />
	</node>
	<node id="-715916" lat="68.6685555601" lon="14.811408324">
		<tag k="name" v="Flyndervika" />
		<tag k="natural" v="bay" />
		<tag k="ssr:stedsnr" v="406698" />
	</node>
	<node id="-715914" lat="68.6831777799" lon="14.9155749993">
		<tag k="name" v="Landholman" />
		<tag k="place" v="islet" />
		<tag k="ssr:stedsnr" v="406667" />
	</node>
	<node id="-715913" lat="68.6750527751" lon="14.8071166682">
		<tag k="name" v="Litjhamn" />
		<tag k="natural" v="bay" />
		<tag k="ssr:stedsnr" v="406641" />
	</node>
	<node id="-717960" lat="68.7014166649" lon="15.160966666">
		<tag k="bay" v="fjord" />
		<tag k="loc_name:se" v="Vállavierda" />
		<tag k="name" v="Valfjorden" />
		<tag k="name:no" v="Valfjorden" />
		<tag k="natural" v="bay" />
		<tag k="ssr:stedsnr" v="746783" />
	</node>
	<node id="-715969" lat="68.8016055602" lon="15.5365749905">
		<tag k="name" v="Litleøya" />
		<tag k="natural" v="cape" />
		<tag k="ssr:stedsnr" v="891229" />
	</node>
	<node id="-717953" lat="68.6779888845" lon="14.8572638958">
		<tag k="name" v="Trolløya" />
		<tag k="place" v="islet" />
		<tag k="ssr:stedsnr" v="746613" />
	</node>
	<node id="-717952" lat="68.6643138885" lon="14.8934805572">
		<tag k="bay" v="fjord" />
		<tag k="loc_name:se" v="Nuorrevuotna" />
		<tag k="name" v="Eidsfjorden" />
		<tag k="name:no" v="Eidsfjorden" />
		<tag k="natural" v="bay" />
		<tag k="ssr:stedsnr" v="746604" />
	</node>
	<node id="-717949" lat="68.7438166641" lon="15.83614723">
		<tag k="name" v="Vedneset" />
		<tag k="natural" v="cape" />
		<tag k="ssr:stedsnr" v="746419" />
	</node>
	<node id="-717948" lat="68.7531666669" lon="15.1438972158">
		<tag k="alt_name" v="Grindbogen" />
		<tag k="name" v="Grimsbogen" />
		<tag k="natural" v="bay" />
		<tag k="ssr:stedsnr" v="746418" />
	</node>
	<node id="-717947" lat="68.7588138927" lon="15.0690361127">
		<tag k="fixme" v="multiple name tags, choose one and add the other to alt_name" />
		<tag k="name" v="Ostervikbukta;Storvika;Storvikbukta" />
		<tag k="natural" v="bay" />
		<tag k="ssr:stedsnr" v="746409" />
	</node>
	<node id="-715898" lat="68.8136666691" lon="15.5065499947">
		<tag k="name" v="Litlestamnesstranda" />
		<tag k="natural" v="beach" />
		<tag k="place" v="locality" />
		<tag k="ssr:stedsnr" v="400861" />
	</node>
	<node id="-715897" lat="68.7249499993" lon="15.5512777858">
		<tag k="name" v="Kobbsteinneset" />
		<tag k="natural" v="cape" />
		<tag k="ssr:stedsnr" v="400746" />
	</node>
	<node id="-715893" lat="68.6152805565" lon="15.5735166701">
		<tag k="name" v="Mølnbukta" />
		<tag k="natural" v="bay" />
		<tag k="ssr:stedsnr" v="400673" />
	</node>
	<node id="-717939" lat="68.7615972212" lon="15.8278333404">
		<tag k="name" v="Vedneset" />
		<tag k="natural" v="cape" />
		<tag k="ssr:stedsnr" v="746280" />
	</node>
	<node id="-715890" lat="68.750158332" lon="15.4835972246">
		<tag k="alt_name" v="Medneset" />
		<tag k="name" v="Meneset" />
		<tag k="natural" v="cape" />
		<tag k="ssr:stedsnr" v="400611" />
	</node>
	<node id="-717937" lat="68.735127778" lon="14.9492277888">
		<tag k="fixme" v="multiple name tags, choose one and add the other to alt_name" />
		<tag k="name" v="Innerhola;Olderfjordbotnen" />
		<tag k="natural" v="bay" />
		<tag k="ssr:stedsnr" v="746240" />
	</node>
	<node id="-715888" lat="68.6219083359" lon="15.4328888924">
		<tag k="name" v="Erlandbukta" />
		<tag k="natural" v="bay" />
		<tag k="ssr:stedsnr" v="400602" />
	</node>
	<node id="-717934" lat="68.6873416696" lon="15.0530361072">
		<tag k="alt_name" v="Molvika" />
		<tag k="name" v="Moldvika" />
		<tag k="natural" v="bay" />
		<tag k="ssr:stedsnr" v="746144" />
	</node>
	<node id="-715880" lat="68.6388305566" lon="15.5433083379">
		<tag k="name" v="Haugnesan" />
		<tag k="natural" v="cape" />
		<tag k="ssr:stedsnr" v="400494" />
	</node>
	<node id="-717927" lat="68.6939750039" lon="14.9313027706">
		<tag k="alt_name" v="Solumhamna" />
		<tag k="name" v="Solumhamnen" />
		<tag k="natural" v="bay" />
		<tag k="ssr:stedsnr" v="745661" />
	</node>
	<node id="-715878" lat="68.8684805604" lon="15.3503833237">
		<tag k="name" v="Bekkenesgrunnen" />
		<tag k="natural" v="shoal" />
		<tag k="place" v="locality" />
		<tag k="ssr:stedsnr" v="400299" />
	</node>
	<node id="-717925" lat="68.6851888877" lon="14.9188972136">
		<tag k="alt_name" v="Ytterodden" />
		<tag k="fixme" v="multiple name tags, choose one and add the other to alt_name" />
		<tag k="name" v="Solumodden;Ytrodden" />
		<tag k="natural" v="cape" />
		<tag k="ssr:stedsnr" v="745643" />
	</node>
	<node id="-717924" lat="68.7928888913" lon="15.304086117">
		<tag k="bay" v="fjord" />
		<tag k="name" v="Gåsfjorden" />
		<tag k="natural" v="bay" />
		<tag k="ssr:stedsnr" v="745391" />
	</node>
	<node id="-715875" lat="68.8695444411" lon="15.9346305542">
		<tag k="name" v="Finnsætervågen" />
		<tag k="natural" v="bay" />
		<tag k="ssr:stedsnr" v="399902" />
	</node>
	<node id="-715872" lat="68.6370666649" lon="15.2633750033">
		<tag k="name" v="Holandsbukta" />
		<tag k="natural" v="bay" />
		<tag k="ssr:stedsnr" v="399735" />
	</node>
	<node id="-717913" lat="68.8148027803" lon="15.5088000115">
		<tag k="alt_name" v="Litlestamnes" />
		<tag k="name" v="Litlestamneset" />
		<tag k="natural" v="cape" />
		<tag k="ssr:stedsnr" v="745287" />
	</node>
	<node id="-715864" lat="68.6769194447" lon="15.063280558">
		<tag k="name" v="Elvneset" />
		<tag k="natural" v="cape" />
		<tag k="ssr:stedsnr" v="399353" />
	</node>
	<node id="-717911" lat="68.6272027789" lon="15.4350138911">
		<tag k="alt_name" v="Urdkattskjeret" />
		<tag k="fixme" v="consider seamark:type=rock or natural=shoal" />
		<tag k="name" v="Urkattskjeret" />
		<tag k="place" v="islet" />
		<tag k="ssr:stedsnr" v="745258" />
	</node>
	<node id="-717906" lat="68.6486944423" lon="15.4753805588">
		<tag k="name" v="Bollholmen" />
		<tag k="place" v="islet" />
		<tag k="ssr:stedsnr" v="745234" />
	</node>
	<node id="-715619" lat="68.7521833374" lon="15.1354722298">
		<tag k="name" v="Odden" />
		<tag k="natural" v="cape" />
		<tag k="ssr:stedsnr" v="321395" />
	</node>
	<node id="-717903" lat="68.675419448" lon="15.4744361083">
		<tag k="name" v="Åneset" />
		<tag k="natural" v="cape" />
		<tag k="ssr:stedsnr" v="745211" />
	</node>
	<node id="-715854" lat="68.7031611074" lon="15.0798805622">
		<tag k="name" v="Sjøvika" />
		<tag k="natural" v="bay" />
		<tag k="ssr:stedsnr" v="382796" />
	</node>
	<node id="-718349" lat="68.8990722203" lon="15.9507888804">
		<tag k="name" v="Nordste Båtvika" />
		<tag k="natural" v="bay" />
		<tag k="ssr:stedsnr" v="905609" />
	</node>
	<node id="-717898" lat="68.6183583295" lon="15.4080722183">
		<tag k="alt_name" v="Furhaugneset" />
		<tag k="name" v="Forraneset" />
		<tag k="natural" v="cape" />
		<tag k="ssr:stedsnr" v="745042" />
	</node>
	<node id="-717897" lat="68.6238666691" lon="15.591180547">
		<tag k="name" v="Kleivodden" />
		<tag k="natural" v="cape" />
		<tag k="ssr:stedsnr" v="745032" />
	</node>
	<node id="-715848" lat="68.6652833362" lon="14.8139250091">
		<tag k="fixme" v="multiple name tags, choose one and add the other to alt_name" />
		<tag k="name" v="Hellfjordklubben;Klubben" />
		<tag k="natural" v="cape" />
		<tag k="ssr:stedsnr" v="382702" />
	</node>
	<node id="-715846" lat="68.8835166705" lon="15.9531055506">
		<tag k="alt_name" v="Leskavvika" />
		<tag k="name" v="Leskavika" />
		<tag k="natural" v="bay" />
		<tag k="ssr:stedsnr" v="382459" />
	</node>
	<node id="-715845" lat="68.741052774" lon="15.8216833396">
		<tag k="name" v="Steinneset" />
		<tag k="natural" v="cape" />
		<tag k="ssr:stedsnr" v="382448" />
	</node>
	<node id="-717891" lat="68.5846027787" lon="15.313072213">
		<tag k="name" v="Finneset" />
		<tag k="natural" v="cape" />
		<tag k="ssr:stedsnr" v="727118" />
	</node>
	<node id="-715839" lat="68.7243305556" lon="15.53335833">
		<tag k="name" v="Skjåneset" />
		<tag k="natural" v="cape" />
		<tag k="ssr:stedsnr" v="382209" />
	</node>
	<node id="-715835" lat="68.7905277739" lon="15.9958388794">
		<tag k="name" v="Merrvika" />
		<tag k="natural" v="bay" />
		<tag k="ssr:stedsnr" v="382097" />
	</node>
	<node id="-717882" lat="68.7241527804" lon="15.0411166703">
		<tag k="name" v="Gamneset" />
		<tag k="natural" v="cape" />
		<tag k="ssr:stedsnr" v="726782" />
	</node>
	<node id="-717880" lat="68.7220166696" lon="15.0425444455">
		<tag k="fixme" v="consider seamark:type=rock or natural=shoal" />
		<tag k="name" v="Innerholmen" />
		<tag k="place" v="islet" />
		<tag k="ssr:stedsnr" v="726771" />
	</node>
	<node id="-715829" lat="68.7082638863" lon="15.1356666667">
		<tag k="name" v="Holmen" />
		<tag k="natural" v="cape" />
		<tag k="ssr:stedsnr" v="381885" />
	</node>
	<node id="-715823" lat="68.7205027801" lon="15.0406833319">
		<tag k="name" v="Gryttingsholman" />
		<tag k="place" v="islet" />
		<tag k="ssr:stedsnr" v="381808" />
	</node>
	<node id="-717869" lat="68.7204777769" lon="15.6642555659">
		<tag k="name" v="Polljordneset" />
		<tag k="natural" v="cape" />
		<tag k="ssr:stedsnr" v="726030" />
	</node>
	<node id="-715820" lat="68.7067500038" lon="14.9500138963">
		<tag k="name" v="Storøya" />
		<tag k="place" v="island" />
		<tag k="ssr:stedsnr" v="381702" />
	</node>
	<node id="-715819" lat="68.6760638865" lon="14.797349994">
		<tag k="alt_name" v="Gunnarnes" />
		<tag k="name" v="Gunnarneset" />
		<tag k="natural" v="cape" />
		<tag k="ssr:stedsnr" v="381650" />
	</node>
	<node id="-715818" lat="68.9373722265" lon="15.9109444498">
		<tag k="name" v="Dyna" />
		<tag k="natural" v="shoal" />
		<tag k="place" v="locality" />
		<tag k="ssr:stedsnr" v="381498" />
	</node>
	<node id="-715817" lat="68.9568833323" lon="15.9152944384">
		<tag k="alt_name" v="Buskjeran" />
		<tag k="fixme" v="consider seamark:type=rock or natural=shoal" />
		<tag k="name" v="Buskjæran" />
		<tag k="place" v="islet" />
		<tag k="ssr:stedsnr" v="381481" />
	</node>
	<node id="-715813" lat="68.7723805514" lon="15.3028916591">
		<tag k="fixme" v="consider seamark:type=rock or natural=shoal" />
		<tag k="name" v="Storholmen" />
		<tag k="place" v="islet" />
		<tag k="ssr:stedsnr" v="381344" />
	</node>
	<node id="-715812" lat="68.7595333307" lon="15.0386583421">
		<tag k="name" v="Straumen" />
		<tag k="natural" v="strait" />
		<tag k="ssr:stedsnr" v="381319" />
	</node>
	<node id="-717857" lat="68.7975138935" lon="15.9555638778">
		<tag k="name" v="Ostefarga" />
		<tag k="natural" v="beach" />
		<tag k="place" v="locality" />
		<tag k="ssr:stedsnr" v="725476" />
	</node>
	<node id="-715808" lat="68.8208555576" lon="15.58419167">
		<tag k="alt_name" v="Skytterneset;Skyttarneset" />
		<tag k="name" v="Skyttarnesan" />
		<tag k="natural" v="cape" />
		<tag k="ssr:stedsnr" v="381283" />
	</node>
	<node id="-715807" lat="68.6290555542" lon="15.4623027688">
		<tag k="alt_name" v="Innerhamnen" />
		<tag k="name" v="Innerhamn" />
		<tag k="natural" v="bay" />
		<tag k="ssr:stedsnr" v="381260" />
	</node>
	<node id="-717847" lat="68.7482722239" lon="15.1375972125">
		<tag k="name" v="Løknesodden" />
		<tag k="natural" v="cape" />
		<tag k="ssr:stedsnr" v="723946" />
	</node>
	<node id="-717846" lat="68.7441194422" lon="15.1363861173">
		<tag k="fixme" v="consider seamark:type=rock or natural=shoal" />
		<tag k="name" v="Jektskjeret" />
		<tag k="place" v="islet" />
		<tag k="ssr:stedsnr" v="723938" />
	</node>
	<node id="-717844" lat="68.9042055518" lon="15.9435888973">
		<tag k="fixme" v="consider seamark:type=rock or natural=shoal" />
		<tag k="name" v="Gammeskjæret" />
		<tag k="place" v="islet" />
		<tag k="ssr:stedsnr" v="723534" />
	</node>
	<node id="-715790" lat="68.8103250035" lon="15.893736118">
		<tag k="name" v="Myrlandsneset" />
		<tag k="natural" v="cape" />
		<tag k="ssr:stedsnr" v="381125" />
	</node>
	<node id="-717835" lat="68.7416444427" lon="15.9340666593">
		<tag k="name" v="Tangen" />
		<tag k="natural" v="cape" />
		<tag k="ssr:stedsnr" v="718499" />
	</node>
	<node id="-717834" lat="68.6846972232" lon="14.8676500026">
		<tag k="name" v="Altersholmen" />
		<tag k="natural" v="cape" />
		<tag k="ssr:stedsnr" v="709716" />
	</node>
	<node id="-717833" lat="68.6886444424" lon="14.7956583216">
		<tag k="name" v="Reinøya" />
		<tag k="place" v="islet" />
		<tag k="ssr:stedsnr" v="709709" />
	</node>
	<node id="-717828" lat="68.737866666" lon="15.7762694454">
		<tag k="name" v="Grunnvågan" />
		<tag k="natural" v="bay" />
		<tag k="ssr:stedsnr" v="709401" />
	</node>
	<node id="-715777" lat="68.8540916647" lon="15.9216083285">
		<tag k="name" v="Lappeskogneset" />
		<tag k="natural" v="cape" />
		<tag k="ssr:stedsnr" v="381051" />
	</node>
	<node id="-715776" lat="68.5927722253" lon="15.3128194441">
		<tag k="alt_name" v="Rødsandfluen" />
		<tag k="fixme" v="consider seamark:type=rock or natural=shoal" />
		<tag k="name" v="Rødsandfluene" />
		<tag k="place" v="islet" />
		<tag k="ssr:stedsnr" v="381049" />
	</node>
	<node id="-717823" lat="68.6201583352" lon="15.6003111001">
		<tag k="name" v="Leira" />
		<tag k="natural" v="bay" />
		<tag k="ssr:stedsnr" v="704624" />
	</node>
	<node id="-718416" lat="68.8261027786" lon="15.5240194449">
		<tag k="alt_name" v="Rogsøya" />
		<tag k="name" v="Roksøya" />
		<tag k="place" v="island" />
		<tag k="ssr:stedsnr" v="928267" />
	</node>
	<node id="-717820" lat="68.6867777805" lon="15.4187361027">
		<tag k="alt_name" v="Natsteinøyra" />
		<tag k="name" v="Naksteinøra" />
		<tag k="natural" v="shoal" />
		<tag k="place" v="locality" />
		<tag k="ssr:stedsnr" v="704470" />
	</node>
	<node id="-717819" lat="68.8549833305" lon="15.3531277778">
		<tag k="name" v="Straumen" />
		<tag k="natural" v="strait" />
		<tag k="ssr:stedsnr" v="704416" />
	</node>
	<node id="-717818" lat="68.620647222" lon="15.4277777887">
		<tag k="name" v="Storgrunnen" />
		<tag k="natural" v="shoal" />
		<tag k="place" v="locality" />
		<tag k="ssr:stedsnr" v="704366" />
	</node>
	<node id="-715769" lat="68.7269861108" lon="15.0392944346">
		<tag k="name" v="Buneset" />
		<tag k="natural" v="cape" />
		<tag k="ssr:stedsnr" v="362782" />
	</node>
	<node id="-717813" lat="68.8103499975" lon="15.462066657">
		<tag k="name" v="Molfjæra" />
		<tag k="natural" v="beach" />
		<tag k="place" v="locality" />
		<tag k="ssr:stedsnr" v="703865" />
	</node>
	<node id="-715763" lat="68.7813833327" lon="15.8729638848">
		<tag k="name" v="Skogneset" />
		<tag k="natural" v="cape" />
		<tag k="ssr:stedsnr" v="362318" />
	</node>
	<node id="-717809" lat="68.7421250031" lon="15.5979138945">
		<tag k="name" v="Åkerneset" />
		<tag k="natural" v="cape" />
		<tag k="ssr:stedsnr" v="703749" />
	</node>
	<node id="-717808" lat="68.739305557" lon="15.5834500019">
		<tag k="name" v="Einbærneset" />
		<tag k="natural" v="cape" />
		<tag k="ssr:stedsnr" v="703735" />
	</node>
	<node id="-717804" lat="68.7658999987" lon="15.305374996">
		<tag k="name" v="Vikøyra" />
		<tag k="natural" v="shoal" />
		<tag k="place" v="locality" />
		<tag k="ssr:stedsnr" v="703680" />
	</node>
	<node id="-717803" lat="68.746561108" lon="15.0545555544">
		<tag k="name" v="Kvalbogholmen" />
		<tag k="place" v="islet" />
		<tag k="ssr:stedsnr" v="703635" />
	</node>
	<node id="-715753" lat="68.603036109" lon="15.3776305618">
		<tag k="name" v="Stornaustodden" />
		<tag k="natural" v="cape" />
		<tag k="ssr:stedsnr" v="361560" />
	</node>
	<node id="-717800" lat="68.6212916675" lon="15.4342305494">
		<tag k="name" v="Notberget" />
		<tag k="natural" v="cape" />
		<tag k="ssr:stedsnr" v="703615" />
	</node>
	<node id="-717799" lat="68.7953361069" lon="15.4536555594">
		<tag k="name" v="Reinsnesgrunnen" />
		<tag k="natural" v="shoal" />
		<tag k="place" v="locality" />
		<tag k="ssr:stedsnr" v="703604" />
	</node>
	<node id="-717798" lat="68.866824999" lon="15.3238388836">
		<tag k="name" v="Finnskjerstranda" />
		<tag k="natural" v="beach" />
		<tag k="place" v="locality" />
		<tag k="ssr:stedsnr" v="703494" />
	</node>
	<node id="-715749" lat="68.7445499995" lon="15.1384888987">
		<tag k="name" v="Skjånesodden" />
		<tag k="natural" v="cape" />
		<tag k="ssr:stedsnr" v="359964" />
	</node>
	<node id="-717794" lat="68.8901416686" lon="15.9567249911">
		<tag k="alt_name" v="Jaktsvikneset" />
		<tag k="name" v="Jaktvikneset" />
		<tag k="natural" v="cape" />
		<tag k="ssr:stedsnr" v="702913" />
	</node>
	<node id="-717793" lat="68.682047218" lon="15.4702527766">
		<tag k="name" v="Skjellneset" />
		<tag k="natural" v="cape" />
		<tag k="ssr:stedsnr" v="703587" />
	</node>
	<node id="-715744" lat="68.8729944476" lon="15.94484444">
		<tag k="name" v="Sylvika" />
		<tag k="natural" v="bay" />
		<tag k="ssr:stedsnr" v="359562" />
	</node>
	<node id="-717791" lat="68.7207694437" lon="15.4429833252">
		<tag k="name" v="Storvika" />
		<tag k="natural" v="bay" />
		<tag k="ssr:stedsnr" v="703524" />
	</node>
	<node id="-717789" lat="68.7003305538" lon="15.0776722162">
		<tag k="name" v="Sildvika" />
		<tag k="natural" v="bay" />
		<tag k="ssr:stedsnr" v="702607" />
	</node>
	<node id="-717787" lat="68.6264500019" lon="15.2094916555">
		<tag k="fixme" v="consider seamark:type=rock or natural=shoal" />
		<tag k="name" v="Kobbsteinan" />
		<tag k="place" v="islet" />
		<tag k="ssr:stedsnr" v="701784" />
	</node>
	<node id="-715737" lat="68.605497223" lon="15.4720749988">
		<tag k="name" v="Djupfjordbotn" />
		<tag k="natural" v="bay" />
		<tag k="ssr:stedsnr" v="358776" />
	</node>
	<node id="-715732" lat="68.862149996" lon="15.9294472162">
		<tag k="name" v="Langnesmola" />
		<tag k="natural" v="beach" />
		<tag k="place" v="locality" />
		<tag k="ssr:stedsnr" v="354394" />
	</node>
	<node id="-715731" lat="68.7022666631" lon="15.0045888782">
		<tag k="name" v="Kjølldragbukta" />
		<tag k="natural" v="bay" />
		<tag k="ssr:stedsnr" v="345813" />
	</node>
	<node id="-715730" lat="68.7010472223" lon="15.0022444498">
		<tag k="name" v="Valen" />
		<tag k="natural" v="strait" />
		<tag k="ssr:stedsnr" v="345811" />
	</node>
	<node id="-717777" lat="68.7051888869" lon="15.4409916561">
		<tag k="name" v="Kolvika" />
		<tag k="natural" v="bay" />
		<tag k="ssr:stedsnr" v="685822" />
	</node>
	<node id="-717776" lat="68.7042527774" lon="15.1487750089">
		<tag k="name" v="Straumen" />
		<tag k="natural" v="strait" />
		<tag k="ssr:stedsnr" v="685819" />
	</node>
	<node id="-715726" lat="68.6664694439" lon="14.80758333">
		<tag k="fixme" v="consider seamark:type=rock or natural=shoal" />
		<tag k="name" v="Skarvskjæret" />
		<tag k="place" v="islet" />
		<tag k="ssr:stedsnr" v="345686" />
	</node>
	<node id="-715725" lat="68.7103333346" lon="14.934180551">
		<tag k="fixme" v="consider seamark:type=rock or natural=shoal" />
		<tag k="name" v="Kjeholmene" />
		<tag k="place" v="islet" />
		<tag k="ssr:stedsnr" v="345679" />
	</node>
	<node id="-715723" lat="68.7087388891" lon="14.9668333225">
		<tag k="name" v="Fredrikbukta" />
		<tag k="natural" v="bay" />
		<tag k="ssr:stedsnr" v="345658" />
	</node>
	<node id="-715722" lat="68.7043861098" lon="14.958427781">
		<tag k="name" v="Brannøysundet" />
		<tag k="natural" v="strait" />
		<tag k="ssr:stedsnr" v="345651" />
	</node>
	<node id="-715720" lat="68.7065138911" lon="14.9709083242">
		<tag k="name" v="Gårdsøyholmen" />
		<tag k="place" v="islet" />
		<tag k="ssr:stedsnr" v="345632" />
	</node>
	<node id="-717767" lat="68.7398555555" lon="15.0720583293">
		<tag k="alt_name" v="Valsnesvågen, indre;Indre Valsnesbukta" />
		<tag k="name" v="Indre Valsnesvågen" />
		<tag k="natural" v="bay" />
		<tag k="ssr:stedsnr" v="685786" />
	</node>
	<node id="-717766" lat="68.7340500031" lon="15.4013916781">
		<tag k="name" v="Bygdneset" />
		<tag k="natural" v="cape" />
		<tag k="ssr:stedsnr" v="685747" />
	</node>
	<node id="-717763" lat="68.7337388902" lon="15.5704805519">
		<tag k="bay" v="fjord" />
		<tag k="loc_name:se" v="Onavierda" />
		<tag k="name" v="Hognfjorden" />
		<tag k="name:no" v="Hognfjorden" />
		<tag k="natural" v="bay" />
		<tag k="ssr:stedsnr" v="685727" />
	</node>
	<node id="-717762" lat="68.8757999996" lon="15.3603583244">
		<tag k="fixme" v="consider seamark:type=rock or natural=shoal" />
		<tag k="name" v="Trollskjeret" />
		<tag k="place" v="islet" />
		<tag k="ssr:stedsnr" v="685716" />
	</node>
	<node id="-717761" lat="68.707269441" lon="15.0177416702">
		<tag k="name" v="Trolløya" />
		<tag k="place" v="islet" />
		<tag k="ssr:stedsnr" v="685665" />
	</node>
	<node id="-715711" lat="68.7234638884" lon="15.5298083271">
		<tag k="name" v="Ytterbukta" />
		<tag k="natural" v="bay" />
		<tag k="ssr:stedsnr" v="344243" />
	</node>
	<node id="-715707" lat="68.8378472211" lon="15.2846722106">
		<tag k="name" v="Mortenhella" />
		<tag k="natural" v="cape" />
		<tag k="ssr:stedsnr" v="343608" />
	</node>
	<node id="-715704" lat="68.7411638915" lon="15.657911115">
		<tag k="name" v="Matøra" />
		<tag k="natural" v="beach" />
		<tag k="place" v="locality" />
		<tag k="ssr:stedsnr" v="340678" />
	</node>
	<node id="-715703" lat="68.7696999987" lon="15.8928250038">
		<tag k="name" v="Hammarneset" />
		<tag k="natural" v="cape" />
		<tag k="ssr:stedsnr" v="340651" />
	</node>
	<node id="-715593" lat="68.8513166653" lon="15.9169472331">
		<tag k="name" v="Finnhamnberget" />
		<tag k="natural" v="cape" />
		<tag k="ssr:stedsnr" v="321024" />
	</node>
	<node id="-715700" lat="68.7647416656" lon="15.303263898">
		<tag k="name" v="Kolbeinøra" />
		<tag k="natural" v="beach" />
		<tag k="place" v="locality" />
		<tag k="ssr:stedsnr" v="339967" />
	</node>
	<node id="-715695" lat="68.807852781" lon="15.4635416778">
		<tag k="name" v="Kjerkstøa" />
		<tag k="natural" v="beach" />
		<tag k="place" v="locality" />
		<tag k="ssr:stedsnr" v="339836" />
	</node>
	<node id="-717742" lat="68.844463889" lon="15.4121777785">
		<tag k="fixme" v="consider seamark:type=rock or natural=shoal" />
		<tag k="name" v="Storsandvær" />
		<tag k="place" v="islet" />
		<tag k="ssr:stedsnr" v="685291" />
	</node>
	<node id="-715692" lat="68.8083805583" lon="15.524625004">
		<tag k="name" v="Hamn" />
		<tag k="natural" v="bay" />
		<tag k="ssr:stedsnr" v="339830" />
	</node>
	<node id="-715691" lat="68.6436583297" lon="15.2785194341">
		<tag k="fixme" v="consider seamark:type=rock or natural=shoal" />
		<tag k="name" v="Holmen" />
		<tag k="place" v="islet" />
		<tag k="ssr:stedsnr" v="339738" />
	</node>
	<node id="-715690" lat="68.6193694441" lon="15.6286166669">
		<tag k="name" v="Austpolleira" />
		<tag k="natural" v="beach" />
		<tag k="place" v="locality" />
		<tag k="ssr:stedsnr" v="339736" />
	</node>
	<node id="-717737" lat="68.8189388906" lon="15.5345638849">
		<tag k="name" v="Holmen" />
		<tag k="place" v="islet" />
		<tag k="ssr:stedsnr" v="685251" />
	</node>
	<node id="-717736" lat="68.6140527774" lon="15.4394000053">
		<tag k="name" v="Langneset" />
		<tag k="natural" v="cape" />
		<tag k="ssr:stedsnr" v="685202" />
	</node>
	<node id="-717735" lat="68.6315833375" lon="15.5504361048">
		<tag k="name" v="Skjåneset" />
		<tag k="natural" v="cape" />
		<tag k="ssr:stedsnr" v="685199" />
	</node>
	<node id="-715686" lat="68.7455000002" lon="15.632836101">
		<tag k="name" v="Steinnesbukta" />
		<tag k="natural" v="bay" />
		<tag k="ssr:stedsnr" v="339665" />
	</node>
	<node id="-715685" lat="68.7566972227" lon="15.2862805472">
		<tag k="name" v="Vikholmen" />
		<tag k="place" v="islet" />
		<tag k="ssr:stedsnr" v="339644" />
	</node>
	<node id="-715684" lat="68.6270777818" lon="15.5845250108">
		<tag k="fixme" v="consider seamark:type=rock or natural=shoal" />
		<tag k="name" v="Kleivskjeret" />
		<tag k="place" v="islet" />
		<tag k="ssr:stedsnr" v="339640" />
	</node>
	<node id="-715677" lat="68.6762555572" lon="15.4758444476">
		<tag k="name" v="Elvneset" />
		<tag k="natural" v="cape" />
		<tag k="ssr:stedsnr" v="339530" />
	</node>
	<node id="-715674" lat="68.7410361113" lon="15.434900002">
		<tag k="name" v="Fiskholmen" />
		<tag k="place" v="islet" />
		<tag k="ssr:stedsnr" v="339463" />
	</node>
	<node id="-715673" lat="68.6501249969" lon="15.3117222089">
		<tag k="name" v="Elveneset" />
		<tag k="natural" v="cape" />
		<tag k="ssr:stedsnr" v="339424" />
	</node>
	<node id="-715670" lat="68.868405552" lon="15.3371861056">
		<tag k="name" v="Valen" />
		<tag k="place" v="locality" />
		<tag k="ssr:stedsnr" v="339001" />
	</node>
	<node id="-717716" lat="68.6340361098" lon="15.2495194562">
		<tag k="fixme" v="multiple name tags, choose one and add the other to alt_name" />
		<tag k="name" v="Holandsstranda;Stranda" />
		<tag k="natural" v="beach" />
		<tag k="place" v="locality" />
		<tag k="ssr:stedsnr" v="684227" />
	</node>
	<node id="-717711" lat="68.6553027801" lon="15.4812472263">
		<tag k="fixme" v="consider seamark:type=rock or natural=shoal" />
		<tag k="name" v="Elvskjeret" />
		<tag k="place" v="islet" />
		<tag k="ssr:stedsnr" v="684206" />
	</node>
	<node id="-717709" lat="68.6735027735" lon="15.3821472206">
		<tag k="name" v="Nordneset" />
		<tag k="natural" v="cape" />
		<tag k="ssr:stedsnr" v="684173" />
	</node>
	<node id="-715642" lat="68.7438638917" lon="15.0507416589">
		<tag k="alt_name" v="Kvalbogen" />
		<tag k="fixme" v="multiple name tags, choose one and add the other to alt_name" />
		<tag k="name" v="Indre Kvalbaken;Kvalbaken" />
		<tag k="natural" v="bay" />
		<tag k="ssr:stedsnr" v="321763" />
	</node>
	<node id="-715636" lat="68.7355305527" lon="15.3934111168">
		<tag k="name" v="Storlibukta" />
		<tag k="natural" v="bay" />
		<tag k="ssr:stedsnr" v="321719" />
	</node>
	<node id="-715634" lat="68.7979611074" lon="15.2813361205">
		<tag k="name" v="Storneset" />
		<tag k="natural" v="cape" />
		<tag k="ssr:stedsnr" v="321658" />
	</node>
	<node id="-715633" lat="68.7909305571" lon="15.2899416684">
		<tag k="name" v="Holmen" />
		<tag k="natural" v="cape" />
		<tag k="ssr:stedsnr" v="321657" />
	</node>
	<node id="-715631" lat="68.9320666665" lon="15.9875583206">
		<tag k="name" v="Våtræva" />
		<tag k="natural" v="shoal" />
		<tag k="place" v="locality" />
		<tag k="ssr:stedsnr" v="321461" />
	</node>
	<node id="-717678" lat="68.776661112" lon="16.0077944344">
		<tag k="name" v="Kista" />
		<tag k="natural" v="cape" />
		<tag k="ssr:stedsnr" v="664530" />
	</node>
	<node id="-717676" lat="68.7501666644" lon="15.1236416661">
		<tag k="name" v="Litleskjergrunnen" />
		<tag k="natural" v="shoal" />
		<tag k="place" v="locality" />
		<tag k="ssr:stedsnr" v="662960" />
	</node>
	<node id="-717675" lat="68.7418444472" lon="15.1357305508">
		<tag k="name" v="Lorentsodden" />
		<tag k="natural" v="cape" />
		<tag k="ssr:stedsnr" v="662958" />
	</node>
	<node id="-715625" lat="68.7313916641" lon="15.6484499952">
		<tag k="alt_name" v="Småstranden" />
		<tag k="name" v="Småstranda" />
		<tag k="natural" v="beach" />
		<tag k="place" v="locality" />
		<tag k="ssr:stedsnr" v="321418" />
	</node>
	<node id="-715624" lat="68.8158055556" lon="15.9121333315">
		<tag k="bay" v="fjord" />
		<tag k="name" v="Godfjorden" />
		<tag k="natural" v="bay" />
		<tag k="ssr:stedsnr" v="321410" />
	</node>
	<node id="-715621" lat="68.7553055531" lon="15.2692749992">
		<tag k="name" v="Vikosen" />
		<tag k="natural" v="bay" />
		<tag k="ssr:stedsnr" v="321402" />
	</node>
	<node id="-717667" lat="68.7137611092" lon="14.8143583406">
		<tag k="name" v="Stibukta" />
		<tag k="natural" v="bay" />
		<tag k="ssr:stedsnr" v="662638" />
	</node>
	<node id="-715613" lat="68.7779361124" lon="15.3152222251">
		<tag k="fixme" v="consider seamark:type=rock or natural=shoal" />
		<tag k="name" v="Fagernesskjeret" />
		<tag k="place" v="islet" />
		<tag k="ssr:stedsnr" v="321313" />
	</node>
	<node id="-717660" lat="68.6321166682" lon="15.5678861071">
		<tag k="name" v="Husvikhamn" />
		<tag k="natural" v="bay" />
		<tag k="ssr:stedsnr" v="661839" />
	</node>
	<node id="-717656" lat="68.7016388851" lon="14.945530552">
		<tag k="name" v="Småholman" />
		<tag k="place" v="islet" />
		<tag k="ssr:stedsnr" v="648739" />
	</node>
	<node id="-717655" lat="68.6850249962" lon="14.8514027843">
		<tag k="name" v="Indre Mastervik" />
		<tag k="natural" v="bay" />
		<tag k="ssr:stedsnr" v="648722" />
	</node>
	<node id="-717654" lat="68.6709416632" lon="14.8300611056">
		<tag k="name" v="Drangelen" />
		<tag k="natural" v="cape" />
		<tag k="ssr:stedsnr" v="648702" />
	</node>
	<node id="-715605" lat="68.8083722185" lon="15.3859083383">
		<tag k="alt_name" v="Hudrøyta" />
		<tag k="fixme" v="consider seamark:type=rock or natural=shoal" />
		<tag k="name" v="Hurøyta" />
		<tag k="place" v="islet" />
		<tag k="ssr:stedsnr" v="321249" />
	</node>
	<node id="-717650" lat="68.6903666656" lon="14.926472216">
		<tag k="name" v="Nesodden" />
		<tag k="natural" v="cape" />
		<tag k="ssr:stedsnr" v="648653" />
	</node>
	<node id="-717648" lat="68.7350027771" lon="15.7793583239">
		<tag k="name" v="Lasteneset" />
		<tag k="natural" v="cape" />
		<tag k="ssr:stedsnr" v="648406" />
	</node>
	<node id="-718306" lat="68.6978194464" lon="15.1469583342">
		<tag k="name" v="Sørbogen" />
		<tag k="natural" v="bay" />
		<tag k="ssr:stedsnr" v="867839" />
	</node>
	<node id="-717641" lat="68.6687833313" lon="15.4724722102">
		<tag k="name" v="Øra" />
		<tag k="natural" v="beach" />
		<tag k="place" v="locality" />
		<tag k="ssr:stedsnr" v="643503" />
	</node>
	<node id="-715589" lat="68.6313472196" lon="15.5697611019">
		<tag k="name" v="Husvikneset" />
		<tag k="natural" v="cape" />
		<tag k="ssr:stedsnr" v="320231" />
	</node>
	<node id="-715587" lat="68.6311194475" lon="15.4597361002">
		<tag k="name" v="Brokløysklubben" />
		<tag k="natural" v="cape" />
		<tag k="ssr:stedsnr" v="320228" />
	</node>
	<node id="-717629" lat="68.6175222232" lon="15.4287722179">
		<tag k="name" v="Skjelbukta" />
		<tag k="natural" v="bay" />
		<tag k="ssr:stedsnr" v="642591" />
	</node>
	<node id="-717623" lat="68.7274527805" lon="15.4508722254">
		<tag k="name" v="Langnesklubben" />
		<tag k="natural" v="cape" />
		<tag k="ssr:stedsnr" v="642480" />
	</node>
	<node id="-717622" lat="68.6634999961" lon="15.3629611023">
		<tag k="name" v="Avløysa" />
		<tag k="natural" v="bay" />
		<tag k="ssr:stedsnr" v="642425" />
	</node>
	<node id="-717620" lat="68.6792805549" lon="15.064219453">
		<tag k="name" v="Kattholmen" />
		<tag k="place" v="islet" />
		<tag k="ssr:stedsnr" v="642290" />
	</node>
	<node id="-717611" lat="68.7297138891" lon="15.5841527893">
		<tag k="fixme" v="multiple name tags, choose one and add the other to alt_name" />
		<tag k="name" v="Mølnbukta;Mølnåsbukta" />
		<tag k="natural" v="bay" />
		<tag k="ssr:stedsnr" v="624780" />
	</node>
	<node id="-717610" lat="68.7337083317" lon="15.6029194379">
		<tag k="name" v="Kalvvika" />
		<tag k="natural" v="bay" />
		<tag k="ssr:stedsnr" v="624778" />
	</node>
	<node id="-717603" lat="68.7358472189" lon="15.5475722171">
		<tag k="name" v="Gjerdnesan" />
		<tag k="natural" v="cape" />
		<tag k="ssr:stedsnr" v="624748" />
	</node>
	<node id="-717602" lat="68.8528083291" lon="15.3842888892">
		<tag k="alt_name" v="Bremnesskaga" />
		<tag k="name" v="Bremnesskagen" />
		<tag k="natural" v="cape" />
		<tag k="ssr:stedsnr" v="624724" />
	</node>
	<node id="-717601" lat="68.8511083338" lon="15.3994805652">
		<tag k="fixme" v="consider seamark:type=rock or natural=shoal" />
		<tag k="name" v="Barden" />
		<tag k="place" v="islet" />
		<tag k="ssr:stedsnr" v="624718" />
	</node>
	<node id="-717595" lat="68.9072055537" lon="15.9300444345">
		<tag k="alt_name" v="Sandnesbukta" />
		<tag k="name" v="Sandnesbogen" />
		<tag k="natural" v="bay" />
		<tag k="ssr:stedsnr" v="624460" />
	</node>
	<node id="-717588" lat="68.7525361101" lon="15.0536805528">
		<tag k="alt_name" v="Kalvholmen" />
		<tag k="name" v="Kalveholmen" />
		<tag k="place" v="islet" />
		<tag k="ssr:stedsnr" v="624441" />
	</node>
	<node id="-717586" lat="68.7390166701" lon="15.6479555576">
		<tag k="alt_name" v="Eidbuktneset" />
		<tag k="name" v="Eidebuktneset" />
		<tag k="natural" v="cape" />
		<tag k="ssr:stedsnr" v="624436" />
	</node>
	<node id="-717585" lat="68.7583638884" lon="15.0949972254">
		<tag k="name" v="Leirbogen" />
		<tag k="natural" v="bay" />
		<tag k="ssr:stedsnr" v="624432" />
	</node>
	<node id="-717583" lat="68.9646833344" lon="15.9009388969">
		<tag k="name" v="Kinneset" />
		<tag k="natural" v="cape" />
		<tag k="ssr:stedsnr" v="624399" />
	</node>
	<node id="-717582" lat="68.7915638928" lon="15.2762777881">
		<tag k="alt_name" v="Litleholmen" />
		<tag k="name" v="Litlholmen" />
		<tag k="natural" v="cape" />
		<tag k="ssr:stedsnr" v="624375" />
	</node>
	<node id="-717579" lat="68.7725416667" lon="15.4649694386">
		<tag k="alt_name" v="Litleøya" />
		<tag k="name" v="Litløya" />
		<tag k="natural" v="cape" />
		<tag k="ssr:stedsnr" v="624356" />
	</node>
	<node id="-716247" lat="68.7258083351" lon="15.4686555547">
		<tag k="alt_name" v="Kringlbukta" />
		<tag k="name" v="Kringelbukta" />
		<tag k="natural" v="bay" />
		<tag k="ssr:stedsnr" v="78771" />
	</node>
	<node id="-715526" lat="68.7662472269" lon="16.0063583285">
		<tag k="name" v="Groften" />
		<tag k="natural" v="cape" />
		<tag k="ssr:stedsnr" v="300552" />
	</node>
	<node id="-717573" lat="68.8288388866" lon="15.3782666557">
		<tag k="name" v="Rypneset" />
		<tag k="natural" v="cape" />
		<tag k="ssr:stedsnr" v="624314" />
	</node>
	<node id="-715518" lat="68.7143861153" lon="14.8132666631">
		<tag k="name" v="Elvneset" />
		<tag k="natural" v="cape" />
		<tag k="ssr:stedsnr" v="298600" />
	</node>
	<node id="-716245" lat="68.6882249995" lon="14.9216805535">
		<tag k="name" v="Solumbukta" />
		<tag k="natural" v="bay" />
		<tag k="ssr:stedsnr" v="78629" />
	</node>
	<node id="-717564" lat="68.5984527812" lon="15.3730861019">
		<tag k="name" v="Innerhamn" />
		<tag k="natural" v="bay" />
		<tag k="ssr:stedsnr" v="624224" />
	</node>
	<node id="-715514" lat="68.7419722188" lon="15.828044447">
		<tag k="name" v="Lebikelvneset" />
		<tag k="natural" v="cape" />
		<tag k="ssr:stedsnr" v="298417" />
	</node>
	<node id="-715506" lat="68.7033972188" lon="14.9493750113">
		<tag k="name" v="Skittentjønna" />
		<tag k="natural" v="bay" />
		<tag k="ssr:stedsnr" v="285728" />
	</node>
	<node id="-715505" lat="68.6882333322" lon="14.7977083275">
		<tag k="name" v="Reinøystraumen" />
		<tag k="natural" v="strait" />
		<tag k="ssr:stedsnr" v="285697" />
	</node>
	<node id="-717551" lat="68.677727775" lon="15.0555694349">
		<tag k="alt_name" v="Litjneset" />
		<tag k="name" v="Litleneset" />
		<tag k="natural" v="cape" />
		<tag k="ssr:stedsnr" v="624149" />
	</node>
	<node id="-717550" lat="68.6826111113" lon="15.4690888857">
		<tag k="name" v="Bogen" />
		<tag k="natural" v="bay" />
		<tag k="ssr:stedsnr" v="624148" />
	</node>
	<node id="-715901" lat="68.8492527732" lon="15.2883555657">
		<tag k="name" v="Måsingsundet" />
		<tag k="natural" v="strait" />
		<tag k="ssr:stedsnr" v="402269" />
	</node>
	<node id="-715500" lat="68.7130805598" lon="15.0270749951">
		<tag k="name" v="Indre Kunesbukt" />
		<tag k="natural" v="bay" />
		<tag k="ssr:stedsnr" v="285657" />
	</node>
	<node id="-717544" lat="68.7961722211" lon="15.9547638774">
		<tag k="name" v="Kvitberget" />
		<tag k="natural" v="cape" />
		<tag k="ssr:stedsnr" v="624095" />
	</node>
	<node id="-715494" lat="68.6802916682" lon="14.7938611118">
		<tag k="name" v="Brønnøysundet" />
		<tag k="natural" v="strait" />
		<tag k="ssr:stedsnr" v="285635" />
	</node>
	<node id="-715493" lat="68.6792333362" lon="14.8744833317">
		<tag k="name" v="Kollvikneset" />
		<tag k="natural" v="cape" />
		<tag k="ssr:stedsnr" v="285632" />
	</node>
	<node id="-715491" lat="68.7342944469" lon="15.5373555663">
		<tag k="name" v="Dreplan" />
		<tag k="natural" v="cape" />
		<tag k="ssr:stedsnr" v="284262" />
	</node>
	<node id="-715899" lat="68.8156583333" lon="15.4705027863">
		<tag k="name" v="Osen" />
		<tag k="natural" v="bay" />
		<tag k="ssr:stedsnr" v="400868" />
	</node>
	<node id="-715488" lat="68.696827774" lon="15.0617333216">
		<tag k="name" v="Grunnvikskallan" />
		<tag k="natural" v="shoal" />
		<tag k="place" v="locality" />
		<tag k="ssr:stedsnr" v="280556" />
	</node>
	<node id="-717533" lat="68.665313891" lon="15.4674972276">
		<tag k="loc_name:se" v="Gernášši" />
		<tag k="name" v="Kjerringneset" />
		<tag k="name:no" v="Kjerringneset" />
		<tag k="natural" v="cape" />
		<tag k="ssr:stedsnr" v="623175" />
	</node>
	<node id="-717532" lat="68.6651777756" lon="15.3709694462">
		<tag k="name" v="Sørneset" />
		<tag k="natural" v="cape" />
		<tag k="ssr:stedsnr" v="623174" />
	</node>
	<node id="-715483" lat="68.7437861094" lon="15.0653499955">
		<tag k="name" v="Ytre Kvalbaken" />
		<tag k="natural" v="bay" />
		<tag k="ssr:stedsnr" v="279706" />
	</node>
	<node id="-715477" lat="68.6126111078" lon="15.4393861139">
		<tag k="name" v="Langnesbukta" />
		<tag k="natural" v="bay" />
		<tag k="ssr:stedsnr" v="279622" />
	</node>
	<node id="-717524" lat="68.7270833375" lon="15.0445055458">
		<tag k="name" v="Straumen" />
		<tag k="natural" v="strait" />
		<tag k="ssr:stedsnr" v="605745" />
	</node>
	<node id="-716238" lat="68.7608694408" lon="15.043138879">
		<tag k="name" v="Rekøya" />
		<tag k="place" v="island" />
		<tag k="ssr:stedsnr" v="78417" />
	</node>
	<node id="-715463" lat="68.7462083318" lon="15.6259499971">
		<tag k="name" v="Flathella" />
		<tag k="natural" v="cape" />
		<tag k="ssr:stedsnr" v="278707" />
	</node>
	<node id="-715460" lat="68.7049944433" lon="15.1194111098">
		<tag k="name" v="Hundneset" />
		<tag k="natural" v="cape" />
		<tag k="ssr:stedsnr" v="278654" />
	</node>
	<node id="-715449" lat="68.6807250021" lon="15.0628222335">
		<tag k="name" v="Naustholmen" />
		<tag k="place" v="islet" />
		<tag k="ssr:stedsnr" v="278354" />
	</node>
	<node id="-717494" lat="68.7272666634" lon="15.1391972253">
		<tag k="name" v="Sjåborneset" />
		<tag k="natural" v="cape" />
		<tag k="ssr:stedsnr" v="602976" />
	</node>
	<node id="-717493" lat="68.7374027807" lon="15.1367166613">
		<tag k="name" v="Kvasenesbukta" />
		<tag k="natural" v="bay" />
		<tag k="ssr:stedsnr" v="602967" />
	</node>
	<node id="-715889" lat="68.6215888876" lon="15.437380545">
		<tag k="name" v="Einhaugbukta" />
		<tag k="natural" v="bay" />
		<tag k="ssr:stedsnr" v="400606" />
	</node>
	<node id="-717469" lat="68.7096888914" lon="14.9745805641">
		<tag k="name" v="Karenbukta" />
		<tag k="natural" v="bay" />
		<tag k="ssr:stedsnr" v="588685" />
	</node>
	<node id="-717462" lat="68.7255166692" lon="15.4628388796">
		<tag k="name" v="Storabukta" />
		<tag k="natural" v="bay" />
		<tag k="ssr:stedsnr" v="587270" />
	</node>
	<node id="-717460" lat="68.7242972246" lon="15.538102772">
		<tag k="name" v="Innerbukta" />
		<tag k="natural" v="bay" />
		<tag k="ssr:stedsnr" v="587241" />
	</node>
	<node id="-717458" lat="68.7792694458" lon="15.4745916605">
		<tag k="fixme" v="consider seamark:type=rock or natural=shoal" />
		<tag k="name" v="Skjeret" />
		<tag k="place" v="islet" />
		<tag k="ssr:stedsnr" v="587202" />
	</node>
	<node id="-717455" lat="68.7245055564" lon="15.126661122">
		<tag k="name" v="Blåskallen" />
		<tag k="natural" v="shoal" />
		<tag k="place" v="locality" />
		<tag k="ssr:stedsnr" v="583536" />
	</node>
	<node id="-717449" lat="68.8129916668" lon="15.4896361065">
		<tag k="name" v="Kleivbukta" />
		<tag k="natural" v="bay" />
		<tag k="ssr:stedsnr" v="582852" />
	</node>
	<node id="-717448" lat="68.8121361075" lon="15.5199305573">
		<tag k="name" v="Huarneset" />
		<tag k="natural" v="cape" />
		<tag k="ssr:stedsnr" v="582853" />
	</node>
	<node id="-717443" lat="68.7436805544" lon="15.0586749905">
		<tag k="alt_name" v="Indre Skogneset" />
		<tag k="name" v="Indre Skagneset" />
		<tag k="natural" v="cape" />
		<tag k="ssr:stedsnr" v="582716" />
	</node>
	<node id="-717438" lat="68.7305138865" lon="15.5863222195">
		<tag k="name" v="Mølnneset" />
		<tag k="natural" v="cape" />
		<tag k="ssr:stedsnr" v="582635" />
	</node>
	<node id="-717437" lat="68.7041444458" lon="15.6955250046">
		<tag k="alt_name" v="Skålodden" />
		<tag k="name" v="Skålneset" />
		<tag k="natural" v="cape" />
		<tag k="ssr:stedsnr" v="582632" />
	</node>
	<node id="-715939" lat="68.6982638866" lon="15.0723888856">
		<tag k="name" v="Bukkeberget" />
		<tag k="natural" v="cape" />
		<tag k="ssr:stedsnr" v="885630" />
	</node>
	<node id="-717429" lat="68.638783334" lon="15.5340305574">
		<tag k="fixme" v="consider seamark:type=rock or natural=shoal" />
		<tag k="name" v="Haugskjeret" />
		<tag k="place" v="islet" />
		<tag k="ssr:stedsnr" v="582441" />
	</node>
	<node id="-717422" lat="68.7376611109" lon="15.5563722245">
		<tag k="name" v="Tarvneset" />
		<tag k="natural" v="cape" />
		<tag k="ssr:stedsnr" v="581741" />
	</node>
	<node id="-717421" lat="68.6340805514" lon="15.2560166753">
		<tag k="name" v="Laneset" />
		<tag k="natural" v="cape" />
		<tag k="ssr:stedsnr" v="581737" />
	</node>
	<node id="-717420" lat="68.7347749982" lon="15.0818527721">
		<tag k="name" v="Buberggrunnen" />
		<tag k="natural" v="shoal" />
		<tag k="place" v="locality" />
		<tag k="ssr:stedsnr" v="581692" />
	</node>
	<node id="-717419" lat="68.6972388904" lon="15.0697111159">
		<tag k="name" v="Grunnvikodden" />
		<tag k="natural" v="cape" />
		<tag k="ssr:stedsnr" v="581660" />
	</node>
	<node id="-717643" lat="68.922058332" lon="15.9151972146">
		<tag k="fixme" v="consider seamark:type=rock or natural=shoal" />
		<tag k="name" v="Svartskjeran" />
		<tag k="place" v="islet" />
		<tag k="ssr:stedsnr" v="643940" />
	</node>
	<node id="-717406" lat="68.7534777745" lon="15.2776860987">
		<tag k="name" v="Klubben" />
		<tag k="natural" v="cape" />
		<tag k="ssr:stedsnr" v="581075" />
	</node>
	<node id="-715877" lat="68.863247227" lon="15.9300916611">
		<tag k="name" v="Langneset" />
		<tag k="natural" v="cape" />
		<tag k="ssr:stedsnr" v="399907" />
	</node>
	<node id="-717397" lat="68.7510888929" lon="15.1257472119">
		<tag k="fixme" v="consider seamark:type=rock or natural=shoal" />
		<tag k="name" v="Litleskjeret" />
		<tag k="place" v="islet" />
		<tag k="ssr:stedsnr" v="564448" />
	</node>
	<node id="-717396" lat="68.9796111141" lon="15.9124722105">
		<tag k="alt_name" v="Breiflesa" />
		<tag k="name" v="Breidflesa" />
		<tag k="natural" v="shoal" />
		<tag k="place" v="locality" />
		<tag k="ssr:stedsnr" v="564389" />
	</node>
	<node id="-717380" lat="68.7249166649" lon="15.1396527783">
		<tag k="fixme" v="consider seamark:type=rock or natural=shoal" />
		<tag k="name" v="Draget" />
		<tag k="place" v="islet" />
		<tag k="ssr:stedsnr" v="563800" />
	</node>
	<node id="-717379" lat="68.7334305525" lon="15.5229250101">
		<tag k="name" v="Finnbogen" />
		<tag k="natural" v="bay" />
		<tag k="ssr:stedsnr" v="563792" />
	</node>
	<node id="-717378" lat="68.8130805531" lon="15.4617527709">
		<tag k="name" v="Sørneset" />
		<tag k="natural" v="cape" />
		<tag k="ssr:stedsnr" v="563720" />
	</node>
	<node id="-717377" lat="68.8141666659" lon="15.5377472276">
		<tag k="name" v="Osen" />
		<tag k="natural" v="bay" />
		<tag k="ssr:stedsnr" v="563719" />
	</node>
	<node id="-717376" lat="68.8127666624" lon="15.5383583312">
		<tag k="name" v="Skjåneset" />
		<tag k="natural" v="cape" />
		<tag k="ssr:stedsnr" v="563718" />
	</node>
	<node id="-717373" lat="68.6886722216" lon="14.9289916548">
		<tag k="fixme" v="multiple name tags, choose one and add the other to alt_name" />
		<tag k="name" v="Gårdsøya;Solumøya" />
		<tag k="place" v="islet" />
		<tag k="ssr:stedsnr" v="563651" />
	</node>
	<node id="-717368" lat="68.895913888" lon="15.9559027866">
		<tag k="name" v="Gnistervika" />
		<tag k="natural" v="bay" />
		<tag k="ssr:stedsnr" v="563436" />
	</node>
	<node id="-717365" lat="68.7703138867" lon="15.3419138959">
		<tag k="alt_name" v="Sandøyra" />
		<tag k="name" v="Sandøya" />
		<tag k="place" v="islet" />
		<tag k="ssr:stedsnr" v="563387" />
	</node>
	<node id="-717353" lat="68.7574194448" lon="15.0541750095">
		<tag k="name" v="Langneset" />
		<tag k="natural" v="cape" />
		<tag k="ssr:stedsnr" v="563299" />
	</node>
	<node id="-717352" lat="68.8230999969" lon="15.5755444353">
		<tag k="alt_name" v="Svenskeneset" />
		<tag k="name" v="Svenskneset" />
		<tag k="natural" v="cape" />
		<tag k="ssr:stedsnr" v="563293" />
	</node>
	<node id="-717345" lat="68.6363083381" lon="15.5496916586">
		<tag k="name" v="Ørnholmen" />
		<tag k="place" v="islet" />
		<tag k="ssr:stedsnr" v="563235" />
	</node>
	<node id="-717344" lat="68.628094444" lon="15.4489055659">
		<tag k="name" v="Langnesodden" />
		<tag k="natural" v="cape" />
		<tag k="ssr:stedsnr" v="563225" />
	</node>
	<node id="-717343" lat="68.6756361109" lon="15.0675500076">
		<tag k="name" v="Gåsneset" />
		<tag k="natural" v="cape" />
		<tag k="ssr:stedsnr" v="563186" />
	</node>
	<node id="-717337" lat="68.7967444465" lon="15.9567944468">
		<tag k="alt_name" v="Røykeneset;Røkeneset" />
		<tag k="name" v="Røykneset" />
		<tag k="natural" v="cape" />
		<tag k="ssr:stedsnr" v="563103" />
	</node>
	<node id="-717332" lat="68.6027416705" lon="15.3764000067">
		<tag k="name" v="Gårdsøya" />
		<tag k="place" v="islet" />
		<tag k="ssr:stedsnr" v="563063" />
	</node>
	<node id="-717330" lat="68.594455552" lon="15.3381555645">
		<tag k="name" v="Rødbergbukta" />
		<tag k="natural" v="bay" />
		<tag k="ssr:stedsnr" v="563023" />
	</node>
	<node id="-717316" lat="68.7208083333" lon="14.9587916658">
		<tag k="name" v="Straumøybukta" />
		<tag k="natural" v="bay" />
		<tag k="ssr:stedsnr" v="544842" />
	</node>
	<node id="-717306" lat="68.6934611146" lon="15.7092750001">
		<tag k="name" v="Laksnesan" />
		<tag k="natural" v="cape" />
		<tag k="ssr:stedsnr" v="544044" />
	</node>
	<node id="-717302" lat="68.8064805602" lon="15.3737722122">
		<tag k="name" v="Kvitsandstranda" />
		<tag k="natural" v="beach" />
		<tag k="place" v="locality" />
		<tag k="ssr:stedsnr" v="543819" />
	</node>
	<node id="-715517" lat="68.6080305579" lon="15.3976888857">
		<tag k="name" v="Otergrenna" />
		<tag k="natural" v="cape" />
		<tag k="ssr:stedsnr" v="298533" />
	</node>
	<node id="-717291" lat="68.7338555583" lon="15.130888888">
		<tag k="name" v="Kvassneset" />
		<tag k="natural" v="cape" />
		<tag k="ssr:stedsnr" v="541971" />
	</node>
	<node id="-717288" lat="68.7407694461" lon="15.4913361044">
		<tag k="name" v="Lilandsgrunnen" />
		<tag k="natural" v="shoal" />
		<tag k="place" v="locality" />
		<tag k="ssr:stedsnr" v="541810" />
	</node>
	<node id="-715821" lat="68.7280611136" lon="15.4567333247">
		<tag k="name" v="Kringelneset" />
		<tag k="natural" v="cape" />
		<tag k="ssr:stedsnr" v="381800" />
	</node>
	<node id="-717279" lat="68.6065083291" lon="15.4531805537">
		<tag k="name" v="Snolkneset" />
		<tag k="natural" v="cape" />
		<tag k="ssr:stedsnr" v="541567" />
	</node>
	<node id="-717271" lat="68.7004444462" lon="15.6859138997">
		<tag k="name" v="Vedneset" />
		<tag k="natural" v="cape" />
		<tag k="ssr:stedsnr" v="541061" />
	</node>
	<node id="-717262" lat="68.6833083317" lon="14.8684472103">
		<tag k="name" v="Kurvvika" />
		<tag k="natural" v="bay" />
		<tag k="ssr:stedsnr" v="527737" />
	</node>
	<node id="-717261" lat="68.7087888891" lon="14.9578749946">
		<tag k="name" v="Valbukta" />
		<tag k="natural" v="bay" />
		<tag k="ssr:stedsnr" v="527677" />
	</node>
	<node id="-717260" lat="68.6795666642" lon="14.8768472304">
		<tag k="name" v="Kollvika" />
		<tag k="natural" v="bay" />
		<tag k="ssr:stedsnr" v="527675" />
	</node>
	<node id="-717253" lat="68.7249972267" lon="15.4724027714">
		<tag k="name" v="Holmen" />
		<tag k="natural" v="cape" />
		<tag k="ssr:stedsnr" v="526224" />
	</node>
	<node id="-717249" lat="68.7747611113" lon="15.3026250121">
		<tag k="name" v="Ankenodden" />
		<tag k="natural" v="cape" />
		<tag k="ssr:stedsnr" v="521967" />
	</node>
	<node id="-715850" lat="68.7372055583" lon="15.0792166713">
		<tag k="alt_name" v="Valsnesvågen, ytre;Ytre Valsnesbukta" />
		<tag k="name" v="Ytre Valsnesvågen" />
		<tag k="natural" v="bay" />
		<tag k="ssr:stedsnr" v="382783" />
	</node>
	<node id="-717241" lat="68.7383416699" lon="15.569030548">
		<tag k="name" v="Sildneset" />
		<tag k="natural" v="cape" />
		<tag k="ssr:stedsnr" v="521746" />
	</node>
	<node id="-717239" lat="68.792374999" lon="15.4706361079">
		<tag k="name" v="Skjellbergstranda" />
		<tag k="natural" v="beach" />
		<tag k="place" v="locality" />
		<tag k="ssr:stedsnr" v="521743" />
	</node>
	<node id="-717237" lat="68.7446500044" lon="15.6032527774">
		<tag k="name" v="Bukta" />
		<tag k="natural" v="bay" />
		<tag k="ssr:stedsnr" v="521715" />
	</node>
	<node id="-717230" lat="68.7941944454" lon="15.31582223">
		<tag k="name" v="Mellomøyra" />
		<tag k="natural" v="shoal" />
		<tag k="place" v="locality" />
		<tag k="ssr:stedsnr" v="521682" />
	</node>
	<node id="-717224" lat="68.7441861074" lon="15.4802722166">
		<tag k="name" v="Nordre Lilandsgrunnen" />
		<tag k="natural" v="shoal" />
		<tag k="place" v="locality" />
		<tag k="ssr:stedsnr" v="521615" />
	</node>
	<node id="-717215" lat="68.7423777816" lon="15.3790638925">
		<tag k="name" v="Kattskogbukta" />
		<tag k="natural" v="bay" />
		<tag k="ssr:stedsnr" v="521472" />
	</node>
	<node id="-715502" lat="68.6649833337" lon="14.8177916684">
		<tag k="fixme" v="consider seamark:type=rock or natural=shoal" />
		<tag k="name" v="Klubbskjæret" />
		<tag k="place" v="islet" />
		<tag k="ssr:stedsnr" v="285680" />
	</node>
	<node id="-717202" lat="68.7131472268" lon="15.4106916573">
		<tag k="name" v="Gambukta" />
		<tag k="natural" v="bay" />
		<tag k="ssr:stedsnr" v="503821" />
	</node>
	<node id="-715501" lat="68.6673055553" lon="14.8090777758">
		<tag k="name" v="Flyndervikholmen" />
		<tag k="place" v="islet" />
		<tag k="ssr:stedsnr" v="285679" />
	</node>
	<node id="-717189" lat="68.7185583345" lon="15.1481305497">
		<tag k="fixme" v="consider seamark:type=rock or natural=shoal" />
		<tag k="name" v="Elvskjeran" />
		<tag k="place" v="islet" />
		<tag k="ssr:stedsnr" v="503736" />
	</node>
	<node id="-717187" lat="68.7345750018" lon="15.5192138771">
		<tag k="name" v="Finneset" />
		<tag k="natural" v="cape" />
		<tag k="ssr:stedsnr" v="503727" />
	</node>
	<node id="-717185" lat="68.8498472207" lon="15.3002472168">
		<tag k="name" v="Kåsbukta" />
		<tag k="natural" v="bay" />
		<tag k="ssr:stedsnr" v="503677" />
	</node>
	<node id="-717182" lat="68.6997083363" lon="14.988727785">
		<tag k="fixme" v="multiple name tags, choose one and add the other to alt_name" />
		<tag k="name" v="Kråkungberget;Kråkungodden" />
		<tag k="natural" v="cape" />
		<tag k="ssr:stedsnr" v="503610" />
	</node>
	<node id="-717176" lat="68.7468944423" lon="15.8116638758">
		<tag k="fixme" v="multiple name tags, choose one and add the other to alt_name" />
		<tag k="name" v="Kvitneset;Reinstadkvitneset" />
		<tag k="natural" v="cape" />
		<tag k="ssr:stedsnr" v="503416" />
	</node>
	<node id="-717170" lat="68.7150027803" lon="14.9537083301">
		<tag k="alt_name" v="Ytterstraumen" />
		<tag k="fixme" v="multiple name tags, choose one and add the other to alt_name" />
		<tag k="name" v="Straumen;Ytrestraumen" />
		<tag k="natural" v="strait" />
		<tag k="ssr:stedsnr" v="503286" />
	</node>
	<node id="-717167" lat="68.813399996" lon="15.656669449">
		<tag k="name" v="Vedneset" />
		<tag k="natural" v="cape" />
		<tag k="ssr:stedsnr" v="503266" />
	</node>
	<node id="-717163" lat="68.8091638867" lon="15.3727777869">
		<tag k="name" v="Bogneset" />
		<tag k="natural" v="cape" />
		<tag k="ssr:stedsnr" v="503245" />
	</node>
	<node id="-717160" lat="68.815827781" lon="15.476588881">
		<tag k="name" v="Nordbukta" />
		<tag k="natural" v="bay" />
		<tag k="ssr:stedsnr" v="503226" />
	</node>
	<node id="-717159" lat="68.70279444" lon="14.9402222264">
		<tag k="bay" v="fjord" />
		<tag k="loc_name:se" v="Sulfierda" />
		<tag k="name" v="Olderfjorden" />
		<tag k="name:no" v="Olderfjorden" />
		<tag k="natural" v="bay" />
		<tag k="ssr:stedsnr" v="503201" />
	</node>
	<node id="-718224" lat="68.6031750001" lon="15.3709527893">
		<tag k="name" v="Øysundet" />
		<tag k="natural" v="strait" />
		<tag k="ssr:stedsnr" v="847536" />
	</node>
	<node id="-715834" lat="68.7918944422" lon="15.9905222126">
		<tag k="name" v="Bergeneset" />
		<tag k="natural" v="cape" />
		<tag k="ssr:stedsnr" v="382095" />
	</node>
	<node id="-717145" lat="68.6358416704" lon="15.574272224">
		<tag k="alt_name" v="Tennskjeret" />
		<tag k="fixme" v="consider seamark:type=rock or natural=shoal" />
		<tag k="name" v="Teinskjeret" />
		<tag k="place" v="islet" />
		<tag k="ssr:stedsnr" v="502214" />
	</node>
	<node id="-717142" lat="68.65819444" lon="15.479905559">
		<tag k="fixme" v="consider seamark:type=rock or natural=shoal" />
		<tag k="name" v="Skjeret" />
		<tag k="place" v="islet" />
		<tag k="ssr:stedsnr" v="502187" />
	</node>
	<node id="-717140" lat="68.648483332" lon="15.3778749976">
		<tag k="name" v="Lysrevet" />
		<tag k="natural" v="shoal" />
		<tag k="place" v="locality" />
		<tag k="ssr:stedsnr" v="502170" />
	</node>
	<node id="-717137" lat="68.6202722241" lon="15.4190416715">
		<tag k="alt_name" v="Molvikneset" />
		<tag k="name" v="Moldvikneset" />
		<tag k="natural" v="cape" />
		<tag k="ssr:stedsnr" v="502032" />
	</node>
	<node id="-717136" lat="68.6247361093" lon="15.4292888773">
		<tag k="name" v="Børsneset" />
		<tag k="natural" v="cape" />
		<tag k="ssr:stedsnr" v="502031" />
	</node>
	<node id="-715832" lat="68.8731749996" lon="15.9512333273">
		<tag k="name" v="Skankan" />
		<tag k="natural" v="shoal" />
		<tag k="place" v="locality" />
		<tag k="ssr:stedsnr" v="382054" />
	</node>
	<node id="-716173" lat="68.7332333305" lon="15.0582277773">
		<tag k="name" v="Silholmen" />
		<tag k="place" v="islet" />
		<tag k="ssr:stedsnr" v="56979" />
	</node>
	<node id="-715489" lat="68.6801083303" lon="15.0451027883">
		<tag k="name" v="Tennskjerflua" />
		<tag k="place" v="locality" />
		<tag k="seamark:type" v="rock" />
		<tag k="ssr:stedsnr" v="280558" />
	</node>
	<node id="-717123" lat="68.8199194489" lon="15.3676999899">
		<tag k="name" v="Finnbogklubben" />
		<tag k="natural" v="cape" />
		<tag k="ssr:stedsnr" v="482834" />
	</node>
	<node id="-717114" lat="68.7798555534" lon="16.008977779">
		<tag k="fixme" v="consider seamark:type=rock or natural=shoal" />
		<tag k="name" v="Klakkhamnskjæret" />
		<tag k="place" v="islet" />
		<tag k="ssr:stedsnr" v="482566" />
	</node>
	<node id="-717111" lat="68.7948583333" lon="15.9521305671">
		<tag k="name" v="Litjevika" />
		<tag k="natural" v="bay" />
		<tag k="ssr:stedsnr" v="482537" />
	</node>
	<node id="-717109" lat="68.6013444406" lon="15.3637527818">
		<tag k="name" v="Ytterhamn" />
		<tag k="natural" v="bay" />
		<tag k="ssr:stedsnr" v="482530" />
	</node>
	<node id="-716168" lat="68.8800916686" lon="15.9493750074">
		<tag k="name" v="Storvikneset" />
		<tag k="natural" v="cape" />
		<tag k="ssr:stedsnr" v="56563" />
	</node>
	<node id="-717097" lat="68.7536805579" lon="15.8436388964">
		<tag k="name" v="Øyra" />
		<tag k="natural" v="bay" />
		<tag k="ssr:stedsnr" v="480452" />
	</node>
	<node id="-715484" lat="68.7117333329" lon="15.0268527821">
		<tag k="name" v="Kuneset" />
		<tag k="natural" v="cape" />
		<tag k="ssr:stedsnr" v="279777" />
	</node>
	<node id="-717094" lat="68.7026861115" lon="15.0072527792">
		<tag k="name" v="Tovhatten" />
		<tag k="place" v="islet" />
		<tag k="ssr:stedsnr" v="467836" />
	</node>
	<node id="-717093" lat="68.6940194466" lon="14.9309249925">
		<tag k="name" v="Hamn" />
		<tag k="natural" v="bay" />
		<tag k="ssr:stedsnr" v="467756" />
	</node>
	<node id="-717092" lat="68.6916611149" lon="14.8614916709">
		<tag k="fixme" v="consider seamark:type=rock or natural=shoal" />
		<tag k="name" v="Tennskjæret" />
		<tag k="place" v="islet" />
		<tag k="ssr:stedsnr" v="467744" />
	</node>
	<node id="-717091" lat="68.6907638905" lon="14.8505999899">
		<tag k="name" v="Høystakkbukta" />
		<tag k="natural" v="bay" />
		<tag k="ssr:stedsnr" v="467743" />
	</node>
	<node id="-717090" lat="68.7088916677" lon="14.9722861202">
		<tag k="name" v="Strandvågen" />
		<tag k="natural" v="bay" />
		<tag k="ssr:stedsnr" v="467694" />
	</node>
	<node id="-717089" lat="68.7116972247" lon="15.0294944391">
		<tag k="name" v="Kua" />
		<tag k="natural" v="shoal" />
		<tag k="place" v="locality" />
		<tag k="ssr:stedsnr" v="467683" />
	</node>
	<node id="-717086" lat="68.707233331" lon="14.9801861017">
		<tag k="name" v="Gammelnaustodden" />
		<tag k="natural" v="cape" />
		<tag k="ssr:stedsnr" v="467668" />
	</node>
	<node id="-717085" lat="68.6826666626" lon="14.8505805666">
		<tag k="name" v="Ytre Mastervik" />
		<tag k="natural" v="bay" />
		<tag k="ssr:stedsnr" v="467667" />
	</node>
	<node id="-717084" lat="68.6708222179" lon="14.8093944413">
		<tag k="name" v="Niphaugvika" />
		<tag k="natural" v="bay" />
		<tag k="ssr:stedsnr" v="466746" />
	</node>
	<node id="-717079" lat="68.9557833299" lon="15.9148999896">
		<tag k="name" v="Bua" />
		<tag k="natural" v="bay" />
		<tag k="ssr:stedsnr" v="462928" />
	</node>
	<node id="-717070" lat="68.6123138852" lon="15.5806166672">
		<tag k="name" v="Bergbukta" />
		<tag k="natural" v="bay" />
		<tag k="ssr:stedsnr" v="461696" />
	</node>
	<node id="-717069" lat="68.6192944422" lon="15.5999444371">
		<tag k="name" v="Flua" />
		<tag k="natural" v="shoal" />
		<tag k="place" v="locality" />
		<tag k="ssr:stedsnr" v="461690" />
	</node>
	<node id="-717068" lat="68.7388555573" lon="15.7818416686">
		<tag k="name" v="Durmålsneset" />
		<tag k="natural" v="cape" />
		<tag k="ssr:stedsnr" v="461680" />
	</node>
	<node id="-717067" lat="68.7260694486" lon="15.5191277795">
		<tag k="name" v="Holmsteinen" />
		<tag k="place" v="locality" />
		<tag k="seamark:type" v="rock" />
		<tag k="ssr:stedsnr" v="461631" />
	</node>
	<node id="-717066" lat="68.6198444458" lon="15.4234861013">
		<tag k="name" v="Molvika" />
		<tag k="natural" v="bay" />
		<tag k="ssr:stedsnr" v="461625" />
	</node>
	<node id="-717065" lat="68.6363888884" lon="15.5758916685">
		<tag k="name" v="Tennskjerodden" />
		<tag k="natural" v="cape" />
		<tag k="ssr:stedsnr" v="461605" />
	</node>
	<node id="-717054" lat="68.6387527755" lon="15.2699194356">
		<tag k="name" v="Kleivan" />
		<tag k="natural" v="cape" />
		<tag k="ssr:stedsnr" v="460765" />
	</node>
	<node id="-717053" lat="68.7411555531" lon="15.5953000028">
		<tag k="name" v="Sommarsetneset" />
		<tag k="natural" v="cape" />
		<tag k="ssr:stedsnr" v="460750" />
	</node>
	<node id="-717052" lat="68.7395722192" lon="15.5879055546">
		<tag k="name" v="Storsteinneset" />
		<tag k="natural" v="cape" />
		<tag k="ssr:stedsnr" v="460738" />
	</node>
	<node id="-717050" lat="68.6995416653" lon="15.0761333387">
		<tag k="name" v="Sørodden" />
		<tag k="natural" v="cape" />
		<tag k="ssr:stedsnr" v="460665" />
	</node>
	<node id="-715476" lat="68.6140944456" lon="15.4323638802">
		<tag k="name" v="Melkarvika" />
		<tag k="natural" v="bay" />
		<tag k="ssr:stedsnr" v="279618" />
	</node>
	<node id="-718381" lat="68.7174999986" lon="14.9634388884">
		<tag k="name" v="Mellomstraumen" />
		<tag k="natural" v="strait" />
		<tag k="ssr:stedsnr" v="909858" />
	</node>
	<node id="-717029" lat="68.7348694422" lon="15.0561722263">
		<tag k="alt_name" v="Hokkabogen" />
		<tag k="name" v="Håkabogen" />
		<tag k="natural" v="bay" />
		<tag k="ssr:stedsnr" v="443716" />
	</node>
	<node id="-717028" lat="68.7293722227" lon="15.069036102">
		<tag k="name" v="Valholman" />
		<tag k="place" v="islet" />
		<tag k="ssr:stedsnr" v="443714" />
	</node>
	<node id="-717025" lat="68.7356694428" lon="15.7861527768">
		<tag k="name" v="Buneset" />
		<tag k="natural" v="cape" />
		<tag k="ssr:stedsnr" v="443458" />
	</node>
	<node id="-717022" lat="68.7471999994" lon="15.8395861023">
		<tag k="name" v="Olderbukta" />
		<tag k="natural" v="bay" />
		<tag k="ssr:stedsnr" v="443446" />
	</node>
	<node id="-717018" lat="68.7159638908" lon="14.9733750038">
		<tag k="name" v="Osen" />
		<tag k="natural" v="bay" />
		<tag k="ssr:stedsnr" v="443315" />
	</node>
	<node id="-717015" lat="68.7150111093" lon="15.665499998">
		<tag k="bay" v="fjord" />
		<tag k="name" v="Sørfjorden" />
		<tag k="natural" v="bay" />
		<tag k="ssr:stedsnr" v="443198" />
	</node>
	<node id="-717003" lat="68.8704833309" lon="15.3378388859">
		<tag k="fixme" v="multiple name tags, choose one and add the other to alt_name" />
		<tag k="name" v="Halmøya;Holmsøya" />
		<tag k="place" v="island" />
		<tag k="ssr:stedsnr" v="442780" />
	</node>
	<node id="-716999" lat="68.6985972265" lon="14.9449444356">
		<tag k="alt_name" v="Kalvøya, l;Litjkalvøy" />
		<tag k="name" v="Litle Kalvøya" />
		<tag k="place" v="islet" />
		<tag k="ssr:stedsnr" v="442685" />
	</node>
	<node id="-716997" lat="68.6864999991" lon="14.8680833332">
		<tag k="alt_name" v="Leirbugen" />
		<tag k="name" v="Leirbogen" />
		<tag k="natural" v="bay" />
		<tag k="ssr:stedsnr" v="442656" />
	</node>
	<node id="-716996" lat="68.6758388866" lon="14.8478416632">
		<tag k="alt_name" v="Jakobvika" />
		<tag k="name" v="Jakobvikøya" />
		<tag k="place" v="islet" />
		<tag k="ssr:stedsnr" v="442639" />
	</node>
	<node id="-716994" lat="68.7105111152" lon="15.6825194392">
		<tag k="name" v="Skredneset" />
		<tag k="natural" v="cape" />
		<tag k="ssr:stedsnr" v="442475" />
	</node>
	<node id="-716985" lat="68.7737555566" lon="15.3017722254">
		<tag k="name" v="Storelvbukta" />
		<tag k="natural" v="bay" />
		<tag k="ssr:stedsnr" v="442356" />
	</node>
	<node id="-716979" lat="68.8183666666" lon="15.6186222321">
		<tag k="name" v="Finneset" />
		<tag k="natural" v="cape" />
		<tag k="ssr:stedsnr" v="442338" />
	</node>
	<node id="-716977" lat="68.7521055579" lon="15.8411805483">
		<tag k="fixme" v="multiple name tags, choose one and add the other to alt_name" />
		<tag k="name" v="Bjørnråkvitneset;Kvitneset" />
		<tag k="natural" v="cape" />
		<tag k="ssr:stedsnr" v="442324" />
	</node>
	<node id="-716973" lat="68.822449998" lon="15.5359888787">
		<tag k="name" v="Øysundet" />
		<tag k="natural" v="strait" />
		<tag k="ssr:stedsnr" v="442306" />
	</node>
	<node id="-716972" lat="68.8192611102" lon="15.5400777687">
		<tag k="alt_name" v="Attertjørna" />
		<tag k="name" v="Attertjønna" />
		<tag k="natural" v="bay" />
		<tag k="ssr:stedsnr" v="442299" />
	</node>
	<node id="-716967" lat="68.6398111129" lon="15.5469388782">
		<tag k="name" v="Valen" />
		<tag k="natural" v="bay" />
		<tag k="ssr:stedsnr" v="442282" />
	</node>
	<node id="-716966" lat="68.6391305534" lon="15.4899111219">
		<tag k="alt_name" v="Åsarøya" />
		<tag k="name" v="Åserøya" />
		<tag k="place" v="island" />
		<tag k="ssr:stedsnr" v="442280" />
	</node>
	<node id="-716128" lat="68.7386555544" lon="15.5735083268">
		<tag k="name" v="Veringneset" />
		<tag k="natural" v="cape" />
		<tag k="ssr:stedsnr" v="36724" />
	</node>
	<node id="-717901" lat="68.7532944429" lon="15.8220611192">
		<tag k="name" v="Orneset" />
		<tag k="natural" v="cape" />
		<tag k="ssr:stedsnr" v="745175" />
	</node>
	<node id="-716960" lat="68.6719527747" lon="15.470150003">
		<tag k="name" v="Ånesbukta" />
		<tag k="natural" v="bay" />
		<tag k="ssr:stedsnr" v="442209" />
	</node>
	<node id="-716953" lat="68.8253527763" lon="15.9031722304">
		<tag k="name" v="Kvalbaken" />
		<tag k="natural" v="shoal" />
		<tag k="place" v="locality" />
		<tag k="ssr:stedsnr" v="442135" />
	</node>
	<node id="-716950" lat="68.6068944422" lon="15.3881361225">
		<tag k="name" v="Litleøya" />
		<tag k="place" v="islet" />
		<tag k="ssr:stedsnr" v="442083" />
	</node>
	<node id="-716949" lat="68.6046972212" lon="15.4686916746">
		<tag k="name" v="Kobbukta" />
		<tag k="natural" v="bay" />
		<tag k="ssr:stedsnr" v="442074" />
	</node>
	<node id="-716142" lat="68.721658332" lon="15.5129750081">
		<tag k="name" v="Langøra" />
		<tag k="natural" v="beach" />
		<tag k="place" v="locality" />
		<tag k="ssr:stedsnr" v="41239" />
	</node>
	<node id="-716943" lat="68.6080138911" lon="15.4499194457">
		<tag k="name" v="Holmen" />
		<tag k="place" v="islet" />
		<tag k="ssr:stedsnr" v="442012" />
	</node>
	<node id="-716942" lat="68.7275555575" lon="15.5210277766">
		<tag k="name" v="Omfløholmen" />
		<tag k="place" v="islet" />
		<tag k="ssr:stedsnr" v="480198" />
	</node>
	<node id="-715718" lat="68.6749916661" lon="14.7999222155">
		<tag k="name" v="Brannholmen" />
		<tag k="place" v="islet" />
		<tag k="ssr:stedsnr" v="345625" />
	</node>
	<node id="-716938" lat="68.7184944481" lon="14.9572388799">
		<tag k="name" v="Straumøyvalen" />
		<tag k="natural" v="strait" />
		<tag k="ssr:stedsnr" v="423863" />
	</node>
	<node id="-716937" lat="68.7562305604" lon="15.0721861019">
		<tag k="name" v="Hestneset" />
		<tag k="natural" v="cape" />
		<tag k="ssr:stedsnr" v="423831" />
	</node>
	<node id="-716140" lat="68.7580805509" lon="15.8604750095">
		<tag k="name" v="Elveneset" />
		<tag k="natural" v="cape" />
		<tag k="ssr:stedsnr" v="41418" />
	</node>
	<node id="-716907" lat="68.7630861139" lon="15.0402222322">
		<tag k="name" v="Brennavalen" />
		<tag k="place" v="locality" />
		<tag k="ssr:stedsnr" v="421130" />
	</node>
	<node id="-716906" lat="68.7464694458" lon="15.1384027851">
		<tag k="name" v="Strandbukta" />
		<tag k="natural" v="bay" />
		<tag k="ssr:stedsnr" v="420970" />
	</node>
	<node id="-716903" lat="68.6969750025" lon="14.8567972275">
		<tag k="name" v="Straumen" />
		<tag k="natural" v="bay" />
		<tag k="ssr:stedsnr" v="420678" />
	</node>
	<node id="-716901" lat="68.8831444483" lon="15.953908343">
		<tag k="fixme" v="consider seamark:type=rock or natural=shoal" />
		<tag k="name" v="Merra" />
		<tag k="place" v="islet" />
		<tag k="ssr:stedsnr" v="420586" />
	</node>
	<node id="-715853" lat="68.7060277748" lon="15.0848499924">
		<tag k="alt_name" v="Sildvikholman" />
		<tag k="name" v="Sildvikholmen" />
		<tag k="place" v="islet" />
		<tag k="ssr:stedsnr" v="382794" />
	</node>
	<node id="-716898" lat="68.7777805586" lon="15.4612194559">
		<tag k="name" v="Sørøya" />
		<tag k="natural" v="cape" />
		<tag k="ssr:stedsnr" v="420120" />
	</node>
	<node id="-716883" lat="68.9755861088" lon="15.8870194377">
		<tag k="name" v="Sandnesflesa" />
		<tag k="natural" v="shoal" />
		<tag k="place" v="locality" />
		<tag k="ssr:stedsnr" v="261391" />
	</node>
	<node id="-716131" lat="68.7205138863" lon="14.9645694446">
		<tag k="name" v="Straumøya" />
		<tag k="place" v="island" />
		<tag k="ssr:stedsnr" v="36754" />
	</node>
	<node id="-716876" lat="68.8112027806" lon="15.5303361194">
		<tag k="alt_name" v="Rogsøyfjorden" />
		<tag k="name" v="Roksøyfjorden" />
		<tag k="natural" v="bay" />
		<tag k="ssr:stedsnr" v="261258" />
	</node>
	<node id="-716129" lat="68.7385666648" lon="15.5632610995">
		<tag k="name" v="Storelvneset" />
		<tag k="natural" v="cape" />
		<tag k="ssr:stedsnr" v="36726" />
	</node>
	<node id="-716863" lat="68.7057777745" lon="15.1164361062">
		<tag k="name" v="Pollbukta" />
		<tag k="natural" v="bay" />
		<tag k="ssr:stedsnr" v="260851" />
	</node>
	<node id="-716859" lat="68.7013472184" lon="14.9615166666">
		<tag k="name" v="Rørøya" />
		<tag k="place" v="islet" />
		<tag k="ssr:stedsnr" v="260714" />
	</node>
	<node id="-716858" lat="68.7013972207" lon="14.9538916678">
		<tag k="name" v="Enokøya" />
		<tag k="place" v="islet" />
		<tag k="ssr:stedsnr" v="260713" />
	</node>
	<node id="-716857" lat="68.6820666627" lon="14.9037500101">
		<tag k="fixme" v="multiple name tags, choose one and add the other to alt_name" />
		<tag k="name" v="Solumskallvika;Solumvika" />
		<tag k="natural" v="bay" />
		<tag k="ssr:stedsnr" v="260659" />
	</node>
	<node id="-716855" lat="68.7318666682" lon="15.4525138887">
		<tag k="fixme" v="consider seamark:type=rock or natural=shoal" />
		<tag k="name" v="Kringelskjeret" />
		<tag k="place" v="islet" />
		<tag k="ssr:stedsnr" v="260803" />
	</node>
	<node id="-716467" lat="68.9023416705" lon="15.9481638949">
		<tag k="alt_name" v="Presteskjeret;Prestskjeran" />
		<tag k="fixme" v="consider seamark:type=rock or natural=shoal" />
		<tag k="name" v="Presteskjæret" />
		<tag k="place" v="islet" />
		<tag k="ssr:stedsnr" v="139474" />
	</node>
	<node id="-716844" lat="68.7993416631" lon="15.3053111012">
		<tag k="name" v="Bukkedalsvatnet" />
		<tag k="natural" v="bay" />
		<tag k="ssr:stedsnr" v="260396" />
	</node>
	<node id="-716843" lat="68.9354333323" lon="15.9855166737">
		<tag k="name" v="Kinnholmen" />
		<tag k="place" v="islet" />
		<tag k="ssr:stedsnr" v="260522" />
	</node>
	<node id="-716838" lat="68.77260556" lon="15.9164777792">
		<tag k="name" v="Gunnesdalbukta" />
		<tag k="natural" v="bay" />
		<tag k="ssr:stedsnr" v="260227" />
	</node>
	<node id="-718171" lat="68.8671055532" lon="15.3317472163">
		<tag k="name" v="Rypstrandodden" />
		<tag k="natural" v="cape" />
		<tag k="ssr:stedsnr" v="825413" />
	</node>
	<node id="-716832" lat="68.7543416683" lon="15.8495000038">
		<tag k="name" v="Seljeneset" />
		<tag k="natural" v="cape" />
		<tag k="ssr:stedsnr" v="260179" />
	</node>
	<node id="-716819" lat="68.6191722247" lon="15.4313194417">
		<tag k="name" v="Straumneset" />
		<tag k="natural" v="cape" />
		<tag k="ssr:stedsnr" v="260048" />
	</node>
	<node id="-716818" lat="68.6182444405" lon="15.5883305433">
		<tag k="name" v="Vangpollneset" />
		<tag k="natural" v="cape" />
		<tag k="ssr:stedsnr" v="260043" />
	</node>
	<node id="-716810" lat="68.8337249975" lon="15.5711027684">
		<tag k="bay" v="fjord" />
		<tag k="name" v="Forfjorden" />
		<tag k="natural" v="bay" />
		<tag k="ssr:stedsnr" v="260356" />
	</node>
	<node id="-716804" lat="68.783880554" lon="15.8771222122">
		<tag k="name" v="Grasneset" />
		<tag k="natural" v="cape" />
		<tag k="ssr:stedsnr" v="260338" />
	</node>
</osm>
