<?xml version="1.0" encoding="UTF-8"?>
<osm generator="osmapis" version="0.6">
	<node id="-884672" lat="64.1609845187" lon="11.2777130419">
		<tag k="name" v="Nordaunet" />
		<tag k="ssr:date" v="2018-01-09" />
		<tag k="ssr:gruppe" v="veg" />
		<tag k="ssr:hovedgruppe" v="infrastruktur" />
		<tag k="ssr:stedsnr" v="980931" />
		<tag k="ssr:type" v="adressetilleggsnavn" />
	</node>
	<node id="-884671" lat="64.1678001554" lon="11.2842397386">
		<tag k="name" v="Morkamoen" />
		<tag k="ssr:date" v="2018-01-09" />
		<tag k="ssr:gruppe" v="veg" />
		<tag k="ssr:hovedgruppe" v="infrastruktur" />
		<tag k="ssr:stedsnr" v="980930" />
		<tag k="ssr:type" v="adressetilleggsnavn" />
	</node>
	<node id="-885834" lat="64.2234833332" lon="11.2216972318">
		<tag k="name" v="Namdalseid kommune" />
		<tag k="ssr:date" v="2018-01-09" />
		<tag k="ssr:gruppe" v="administrativeIndelinger" />
		<tag k="ssr:hovedgruppe" v="offentligAdministrasjon" />
		<tag k="ssr:stedsnr" v="208188" />
		<tag k="ssr:type" v="kommune" />
	</node>
	<node id="-886133" lat="64.4801363274" lon="11.1838887524">
		<tag k="name" v="Bekkavika" />
		<tag k="ssr:date" v="2019-05-30" />
		<tag k="ssr:gruppe" v="veg" />
		<tag k="ssr:hovedgruppe" v="infrastruktur" />
		<tag k="ssr:stedsnr" v="986902" />
		<tag k="ssr:type" v="adressenavn" />
	</node>
	<node id="-886132" lat="64.3738852419" lon="11.1961839506">
		<tag k="name" v="Altvatnet" />
		<tag k="ssr:date" v="2019-05-30" />
		<tag k="ssr:gruppe" v="veg" />
		<tag k="ssr:hovedgruppe" v="infrastruktur" />
		<tag k="ssr:stedsnr" v="986901" />
		<tag k="ssr:type" v="adressenavn" />
	</node>
	<node id="-886131" lat="64.316955074" lon="11.2712805983">
		<tag k="name" v="Rødhammarvatnet" />
		<tag k="ssr:date" v="2019-05-30" />
		<tag k="ssr:gruppe" v="veg" />
		<tag k="ssr:hovedgruppe" v="infrastruktur" />
		<tag k="ssr:stedsnr" v="986900" />
		<tag k="ssr:type" v="adressenavn" />
	</node>
	<node id="-886130" lat="64.1653964424" lon="11.2170067247">
		<tag k="name" v="Eldfjellet" />
		<tag k="ssr:date" v="2019-05-30" />
		<tag k="ssr:gruppe" v="veg" />
		<tag k="ssr:hovedgruppe" v="infrastruktur" />
		<tag k="ssr:stedsnr" v="986899" />
		<tag k="ssr:type" v="adressenavn" />
	</node>
	<node id="-886129" lat="64.1975226919" lon="11.2105668357">
		<tag k="name" v="Skjerpmovegen" />
		<tag k="ssr:date" v="2019-05-30" />
		<tag k="ssr:gruppe" v="veg" />
		<tag k="ssr:hovedgruppe" v="infrastruktur" />
		<tag k="ssr:stedsnr" v="986898" />
		<tag k="ssr:type" v="adressenavn" />
	</node>
	<node id="-886128" lat="64.2529829989" lon="11.1764469746">
		<tag k="name" v="Fosslivegen" />
		<tag k="ssr:date" v="2019-05-30" />
		<tag k="ssr:gruppe" v="veg" />
		<tag k="ssr:hovedgruppe" v="infrastruktur" />
		<tag k="ssr:stedsnr" v="986897" />
		<tag k="ssr:type" v="adressenavn" />
	</node>
	<node id="-886126" lat="64.4237303355" lon="11.1889049785">
		<tag k="name" v="Aunvegen" />
		<tag k="ssr:date" v="2019-05-30" />
		<tag k="ssr:gruppe" v="veg" />
		<tag k="ssr:hovedgruppe" v="infrastruktur" />
		<tag k="ssr:stedsnr" v="984270" />
		<tag k="ssr:type" v="adressenavn" />
	</node>
	<node id="-886125" lat="64.2421255215" lon="11.3490808459">
		<tag k="name" v="Trebostad" />
		<tag k="ssr:date" v="2018-01-11" />
		<tag k="ssr:gruppe" v="veg" />
		<tag k="ssr:hovedgruppe" v="infrastruktur" />
		<tag k="ssr:stedsnr" v="981295" />
		<tag k="ssr:type" v="adressetilleggsnavn" />
	</node>
	<node id="-886124" lat="64.2519937132" lon="11.3301772003">
		<tag k="name" v="Lingsbrenna" />
		<tag k="ssr:date" v="2018-01-11" />
		<tag k="ssr:gruppe" v="veg" />
		<tag k="ssr:hovedgruppe" v="infrastruktur" />
		<tag k="ssr:stedsnr" v="981294" />
		<tag k="ssr:type" v="adressetilleggsnavn" />
	</node>
	<node id="-886123" lat="64.2042505626" lon="11.2350353014">
		<tag k="name" v="Åsen" />
		<tag k="ssr:date" v="2018-01-11" />
		<tag k="ssr:gruppe" v="veg" />
		<tag k="ssr:hovedgruppe" v="infrastruktur" />
		<tag k="ssr:stedsnr" v="981292" />
		<tag k="ssr:type" v="adressetilleggsnavn" />
	</node>
	<node id="-886122" lat="64.1945867249" lon="11.2610411789">
		<tag k="name" v="Hallåsmoen" />
		<tag k="ssr:date" v="2018-01-11" />
		<tag k="ssr:gruppe" v="veg" />
		<tag k="ssr:hovedgruppe" v="infrastruktur" />
		<tag k="ssr:stedsnr" v="981291" />
		<tag k="ssr:type" v="adressetilleggsnavn" />
	</node>
	<node id="-886121" lat="64.1954756844" lon="11.2532352547">
		<tag k="name" v="Helbostad" />
		<tag k="ssr:date" v="2018-01-11" />
		<tag k="ssr:gruppe" v="veg" />
		<tag k="ssr:hovedgruppe" v="infrastruktur" />
		<tag k="ssr:stedsnr" v="981290" />
		<tag k="ssr:type" v="adressetilleggsnavn" />
	</node>
	<node id="-886120" lat="64.1970136292" lon="11.2455414491">
		<tag k="name" v="Helbostad" />
		<tag k="ssr:date" v="2018-01-11" />
		<tag k="ssr:gruppe" v="veg" />
		<tag k="ssr:hovedgruppe" v="infrastruktur" />
		<tag k="ssr:stedsnr" v="981289" />
		<tag k="ssr:type" v="adressetilleggsnavn" />
	</node>
	<node id="-886119" lat="64.1968568286" lon="11.2517472445">
		<tag k="name" v="Helbostad" />
		<tag k="ssr:date" v="2018-01-11" />
		<tag k="ssr:gruppe" v="veg" />
		<tag k="ssr:hovedgruppe" v="infrastruktur" />
		<tag k="ssr:stedsnr" v="981288" />
		<tag k="ssr:type" v="adressetilleggsnavn" />
	</node>
	<node id="-886118" lat="64.2270950004" lon="11.2418759127">
		<tag k="name" v="Hundset" />
		<tag k="ssr:date" v="2018-01-11" />
		<tag k="ssr:gruppe" v="veg" />
		<tag k="ssr:hovedgruppe" v="infrastruktur" />
		<tag k="ssr:stedsnr" v="981287" />
		<tag k="ssr:type" v="adressetilleggsnavn" />
	</node>
	<node id="-886117" lat="64.244186336" lon="11.2488932518">
		<tag k="name" v="Dalheim" />
		<tag k="ssr:date" v="2018-01-11" />
		<tag k="ssr:gruppe" v="veg" />
		<tag k="ssr:hovedgruppe" v="infrastruktur" />
		<tag k="ssr:stedsnr" v="981286" />
		<tag k="ssr:type" v="adressetilleggsnavn" />
	</node>
	<node id="-886116" lat="64.2454577236" lon="11.2372170063">
		<tag k="name" v="Brørsbakken" />
		<tag k="ssr:date" v="2018-01-11" />
		<tag k="ssr:gruppe" v="veg" />
		<tag k="ssr:hovedgruppe" v="infrastruktur" />
		<tag k="ssr:stedsnr" v="981285" />
		<tag k="ssr:type" v="adressetilleggsnavn" />
	</node>
	<node id="-886115" lat="64.2414867251" lon="11.2392340946">
		<tag k="name" v="Brørs" />
		<tag k="ssr:date" v="2018-01-11" />
		<tag k="ssr:gruppe" v="veg" />
		<tag k="ssr:hovedgruppe" v="infrastruktur" />
		<tag k="ssr:stedsnr" v="981284" />
		<tag k="ssr:type" v="adressetilleggsnavn" />
	</node>
	<node id="-886114" lat="64.2546394455" lon="11.3232472917">
		<tag k="name" v="Moen" />
		<tag k="ssr:date" v="2018-01-11" />
		<tag k="ssr:gruppe" v="veg" />
		<tag k="ssr:hovedgruppe" v="infrastruktur" />
		<tag k="ssr:stedsnr" v="981282" />
		<tag k="ssr:type" v="adressetilleggsnavn" />
	</node>
	<node id="-886113" lat="64.2508074097" lon="11.2513905024">
		<tag k="name" v="Limo" />
		<tag k="ssr:date" v="2018-01-11" />
		<tag k="ssr:gruppe" v="veg" />
		<tag k="ssr:hovedgruppe" v="infrastruktur" />
		<tag k="ssr:stedsnr" v="981280" />
		<tag k="ssr:type" v="adressetilleggsnavn" />
	</node>
	<node id="-886112" lat="64.2545773368" lon="11.2689636926">
		<tag k="name" v="Kaldal" />
		<tag k="ssr:date" v="2018-01-11" />
		<tag k="ssr:gruppe" v="veg" />
		<tag k="ssr:hovedgruppe" v="infrastruktur" />
		<tag k="ssr:stedsnr" v="981279" />
		<tag k="ssr:type" v="adressetilleggsnavn" />
	</node>
	<node id="-886111" lat="64.2997671313" lon="11.2085919632">
		<tag k="name" v="Lonmoen" />
		<tag k="ssr:date" v="2018-01-11" />
		<tag k="ssr:gruppe" v="veg" />
		<tag k="ssr:hovedgruppe" v="infrastruktur" />
		<tag k="ssr:stedsnr" v="981278" />
		<tag k="ssr:type" v="adressetilleggsnavn" />
	</node>
	<node id="-886110" lat="64.3031279973" lon="11.2186337484">
		<tag k="name" v="Brattlia" />
		<tag k="ssr:date" v="2018-01-11" />
		<tag k="ssr:gruppe" v="veg" />
		<tag k="ssr:hovedgruppe" v="infrastruktur" />
		<tag k="ssr:stedsnr" v="981277" />
		<tag k="ssr:type" v="adressetilleggsnavn" />
	</node>
	<node id="-886109" lat="64.2548299975" lon="11.2309960764">
		<tag k="name" v="Bergheim" />
		<tag k="ssr:date" v="2018-01-11" />
		<tag k="ssr:gruppe" v="veg" />
		<tag k="ssr:hovedgruppe" v="infrastruktur" />
		<tag k="ssr:stedsnr" v="981276" />
		<tag k="ssr:type" v="adressetilleggsnavn" />
	</node>
	<node id="-886108" lat="64.2982561951" lon="11.2073051243">
		<tag k="name" v="Sand" />
		<tag k="ssr:date" v="2018-01-11" />
		<tag k="ssr:gruppe" v="veg" />
		<tag k="ssr:hovedgruppe" v="infrastruktur" />
		<tag k="ssr:stedsnr" v="981275" />
		<tag k="ssr:type" v="adressetilleggsnavn" />
	</node>
	<node id="-886107" lat="64.2518910547" lon="11.1076700122">
		<tag k="name" v="Stormoen" />
		<tag k="ssr:date" v="2018-01-11" />
		<tag k="ssr:gruppe" v="veg" />
		<tag k="ssr:hovedgruppe" v="infrastruktur" />
		<tag k="ssr:stedsnr" v="981274" />
		<tag k="ssr:type" v="adressetilleggsnavn" />
	</node>
	<node id="-886106" lat="64.2555964052" lon="11.1857957689">
		<tag k="name" v="Brumoen" />
		<tag k="ssr:date" v="2018-01-11" />
		<tag k="ssr:gruppe" v="veg" />
		<tag k="ssr:hovedgruppe" v="infrastruktur" />
		<tag k="ssr:stedsnr" v="981273" />
		<tag k="ssr:type" v="adressetilleggsnavn" />
	</node>
	<node id="-886105" lat="64.2303316605" lon="11.2037216028">
		<tag k="name" v="Bonhaug" />
		<tag k="ssr:date" v="2018-01-11" />
		<tag k="ssr:gruppe" v="veg" />
		<tag k="ssr:hovedgruppe" v="infrastruktur" />
		<tag k="ssr:stedsnr" v="981272" />
		<tag k="ssr:type" v="adressetilleggsnavn" />
	</node>
	<node id="-886103" lat="64.235426735" lon="11.2101203666">
		<tag k="name" v="Brekka" />
		<tag k="ssr:date" v="2018-01-11" />
		<tag k="ssr:gruppe" v="veg" />
		<tag k="ssr:hovedgruppe" v="infrastruktur" />
		<tag k="ssr:stedsnr" v="981270" />
		<tag k="ssr:type" v="adressetilleggsnavn" />
	</node>
	<node id="-886102" lat="64.231436268" lon="11.20062414">
		<tag k="name" v="Bjørg" />
		<tag k="ssr:date" v="2018-11-19" />
		<tag k="ssr:gruppe" v="veg" />
		<tag k="ssr:hovedgruppe" v="infrastruktur" />
		<tag k="ssr:stedsnr" v="981269" />
		<tag k="ssr:type" v="adressetilleggsnavn" />
	</node>
	<node id="-886101" lat="64.2253209672" lon="11.2273456222">
		<tag k="name" v="Holia" />
		<tag k="ssr:date" v="2018-01-11" />
		<tag k="ssr:gruppe" v="veg" />
		<tag k="ssr:hovedgruppe" v="infrastruktur" />
		<tag k="ssr:stedsnr" v="981268" />
		<tag k="ssr:type" v="adressetilleggsnavn" />
	</node>
	<node id="-886100" lat="64.1759979949" lon="11.2282206278">
		<tag k="name" v="Elda" />
		<tag k="ssr:date" v="2018-01-11" />
		<tag k="ssr:gruppe" v="veg" />
		<tag k="ssr:hovedgruppe" v="infrastruktur" />
		<tag k="ssr:stedsnr" v="981267" />
		<tag k="ssr:type" v="adressetilleggsnavn" />
	</node>
	<node id="-886099" lat="64.0144468016" lon="11.4818866293">
		<tag k="fixme" v="multiple name tags, choose one and add the other to alt_name" />
		<tag k="name" v="Trøndelag fylke - Trööndelage;Trööndelagen fylhke" />
		<tag k="name:no" v="Trøndelag fylke" />
		<tag k="name:sma" v="Trööndelage;Trööndelagen fylhke" />
		<tag k="ssr:date" v="2019-11-14" />
		<tag k="ssr:gruppe" v="administrativeIndelinger" />
		<tag k="ssr:hovedgruppe" v="offentligAdministrasjon" />
		<tag k="ssr:stedsnr" v="980645" />
		<tag k="ssr:type" v="fylke" />
	</node>
	<node id="-885052" lat="64.2533773479" lon="11.1194640216">
		<tag k="name" v="Myrmoen" />
		<tag k="ssr:date" v="2018-01-09" />
		<tag k="ssr:gruppe" v="veg" />
		<tag k="ssr:hovedgruppe" v="infrastruktur" />
		<tag k="ssr:stedsnr" v="980193" />
		<tag k="ssr:type" v="adressetilleggsnavn" />
	</node>
	<node id="-885038" lat="64.2836426067" lon="11.1872644819">
		<tag k="name" v="Mastermelen" />
		<tag k="ssr:date" v="2018-01-09" />
		<tag k="ssr:gruppe" v="veg" />
		<tag k="ssr:hovedgruppe" v="infrastruktur" />
		<tag k="ssr:stedsnr" v="980190" />
		<tag k="ssr:type" v="adressetilleggsnavn" />
	</node>
	<node id="-885028" lat="64.1912734303" lon="11.2572571795">
		<tag k="name" v="Hallåsen" />
		<tag k="ssr:date" v="2018-01-09" />
		<tag k="ssr:gruppe" v="veg" />
		<tag k="ssr:hovedgruppe" v="infrastruktur" />
		<tag k="ssr:stedsnr" v="980189" />
		<tag k="ssr:type" v="adressetilleggsnavn" />
	</node>
	<node id="-884489" lat="64.164877807" lon="11.2755543273">
		<tag k="name" v="Søndre Mork" />
		<tag k="ssr:date" v="2018-01-09" />
		<tag k="ssr:gruppe" v="veg" />
		<tag k="ssr:hovedgruppe" v="infrastruktur" />
		<tag k="ssr:stedsnr" v="980929" />
		<tag k="ssr:type" v="adressetilleggsnavn" />
	</node>
	<node id="-885947" lat="64.1681795004" lon="11.2695763292">
		<tag k="name" v="Mork" />
		<tag k="ssr:date" v="2018-01-09" />
		<tag k="ssr:gruppe" v="veg" />
		<tag k="ssr:hovedgruppe" v="infrastruktur" />
		<tag k="ssr:stedsnr" v="980856" />
		<tag k="ssr:type" v="adressetilleggsnavn" />
	</node>
	<node id="-885945" lat="64.1782620236" lon="11.2388823377">
		<tag k="name" v="Grøtmo" />
		<tag k="ssr:date" v="2018-01-09" />
		<tag k="ssr:gruppe" v="veg" />
		<tag k="ssr:hovedgruppe" v="infrastruktur" />
		<tag k="ssr:stedsnr" v="980857" />
		<tag k="ssr:type" v="adressetilleggsnavn" />
	</node>
	<node id="-884912" lat="64.142753164" lon="11.2202700616">
		<tag k="name" v="Eldkleiva" />
		<tag k="ssr:date" v="2018-01-11" />
		<tag k="ssr:gruppe" v="veg" />
		<tag k="ssr:hovedgruppe" v="infrastruktur" />
		<tag k="ssr:stedsnr" v="924746" />
		<tag k="ssr:type" v="adressetilleggsnavn" />
	</node>
	<node id="-885905" lat="64.1648452779" lon="11.2774251176">
		<tag k="name" v="Nordtrøa" />
		<tag k="ssr:date" v="2018-01-09" />
		<tag k="ssr:gruppe" v="veg" />
		<tag k="ssr:hovedgruppe" v="infrastruktur" />
		<tag k="ssr:stedsnr" v="980854" />
		<tag k="ssr:type" v="adressetilleggsnavn" />
	</node>
	<node id="-884303" lat="64.2232303981" lon="10.937269335">
		<tag k="name" v="Lissbjørkvatnet" />
		<tag k="ssr:date" v="2019-05-30" />
		<tag k="ssr:gruppe" v="veg" />
		<tag k="ssr:hovedgruppe" v="infrastruktur" />
		<tag k="ssr:stedsnr" v="1036719" />
		<tag k="ssr:type" v="adressenavn" />
	</node>
	<node id="-884302" lat="64.2565437137" lon="10.9282264075">
		<tag k="name" v="Lissolvatnet" />
		<tag k="ssr:date" v="2019-05-30" />
		<tag k="ssr:gruppe" v="veg" />
		<tag k="ssr:hovedgruppe" v="infrastruktur" />
		<tag k="ssr:stedsnr" v="1036718" />
		<tag k="ssr:type" v="adressenavn" />
	</node>
	<node id="-884301" lat="64.2342474269" lon="10.9158334604">
		<tag k="name" v="Meungan" />
		<tag k="ssr:date" v="2019-05-30" />
		<tag k="ssr:gruppe" v="veg" />
		<tag k="ssr:hovedgruppe" v="infrastruktur" />
		<tag k="ssr:stedsnr" v="1036717" />
		<tag k="ssr:type" v="adressenavn" />
	</node>
	<node id="-884300" lat="64.2322417062" lon="11.006716414">
		<tag k="name" v="Lissøyungen" />
		<tag k="ssr:date" v="2019-05-30" />
		<tag k="ssr:gruppe" v="veg" />
		<tag k="ssr:hovedgruppe" v="infrastruktur" />
		<tag k="ssr:stedsnr" v="1036716" />
		<tag k="ssr:type" v="adressenavn" />
	</node>
	<node id="-884299" lat="64.2727275707" lon="11.2893832903">
		<tag k="name" v="Kaldalvatnet" />
		<tag k="ssr:date" v="2019-05-30" />
		<tag k="ssr:gruppe" v="veg" />
		<tag k="ssr:hovedgruppe" v="infrastruktur" />
		<tag k="ssr:stedsnr" v="1036715" />
		<tag k="ssr:type" v="adressenavn" />
	</node>
	<node id="-884298" lat="64.2310042663" lon="11.5221131908">
		<tag k="name" v="Svartesetran" />
		<tag k="ssr:date" v="2019-05-30" />
		<tag k="ssr:gruppe" v="veg" />
		<tag k="ssr:hovedgruppe" v="infrastruktur" />
		<tag k="ssr:stedsnr" v="1036714" />
		<tag k="ssr:type" v="adressenavn" />
	</node>
	<node id="-884297" lat="64.2624625929" lon="11.2377869293">
		<tag k="name" v="Kringen" />
		<tag k="ssr:date" v="2019-05-30" />
		<tag k="ssr:gruppe" v="veg" />
		<tag k="ssr:hovedgruppe" v="infrastruktur" />
		<tag k="ssr:stedsnr" v="1036713" />
		<tag k="ssr:type" v="adressenavn" />
	</node>
	<node id="-884296" lat="64.27793027" lon="11.2542457313">
		<tag k="name" v="Burstjønna" />
		<tag k="ssr:date" v="2019-05-30" />
		<tag k="ssr:gruppe" v="veg" />
		<tag k="ssr:hovedgruppe" v="infrastruktur" />
		<tag k="ssr:stedsnr" v="1036712" />
		<tag k="ssr:type" v="adressenavn" />
	</node>
	<node id="-884295" lat="64.2423582852" lon="10.9477131955">
		<tag k="name" v="Meungsetran" />
		<tag k="ssr:date" v="2019-05-30" />
		<tag k="ssr:gruppe" v="veg" />
		<tag k="ssr:hovedgruppe" v="infrastruktur" />
		<tag k="ssr:stedsnr" v="1036711" />
		<tag k="ssr:type" v="adressenavn" />
	</node>
	<node id="-884294" lat="64.1565006348" lon="11.0728395649">
		<tag k="name" v="Holvasslisetran" />
		<tag k="ssr:date" v="2019-05-30" />
		<tag k="ssr:gruppe" v="veg" />
		<tag k="ssr:hovedgruppe" v="infrastruktur" />
		<tag k="ssr:stedsnr" v="1036710" />
		<tag k="ssr:type" v="adressenavn" />
	</node>
	<node id="-884293" lat="64.1442716254" lon="11.1216193553">
		<tag k="name" v="Settersetran" />
		<tag k="ssr:date" v="2019-05-30" />
		<tag k="ssr:gruppe" v="veg" />
		<tag k="ssr:hovedgruppe" v="infrastruktur" />
		<tag k="ssr:stedsnr" v="1036709" />
		<tag k="ssr:type" v="adressenavn" />
	</node>
	<node id="-884292" lat="64.1690213662" lon="10.8685012111">
		<tag k="name" v="Finnvollen" />
		<tag k="ssr:date" v="2019-05-30" />
		<tag k="ssr:gruppe" v="veg" />
		<tag k="ssr:hovedgruppe" v="infrastruktur" />
		<tag k="ssr:stedsnr" v="1036708" />
		<tag k="ssr:type" v="adressenavn" />
	</node>
	<node id="-884291" lat="64.1322887651" lon="10.8265320284">
		<tag k="name" v="Stornesvatnet" />
		<tag k="ssr:date" v="2019-05-30" />
		<tag k="ssr:gruppe" v="veg" />
		<tag k="ssr:hovedgruppe" v="infrastruktur" />
		<tag k="ssr:stedsnr" v="1036707" />
		<tag k="ssr:type" v="adressenavn" />
	</node>
	<node id="-884290" lat="64.1955423891" lon="11.0049358074">
		<tag k="name" v="Trollbotn" />
		<tag k="ssr:date" v="2019-05-30" />
		<tag k="ssr:gruppe" v="veg" />
		<tag k="ssr:hovedgruppe" v="infrastruktur" />
		<tag k="ssr:stedsnr" v="1036706" />
		<tag k="ssr:type" v="adressenavn" />
	</node>
	<node id="-884289" lat="64.1895963207" lon="10.9954266761">
		<tag k="name" v="Finnvollvatnet" />
		<tag k="ssr:date" v="2019-05-30" />
		<tag k="ssr:gruppe" v="veg" />
		<tag k="ssr:hovedgruppe" v="infrastruktur" />
		<tag k="ssr:stedsnr" v="1036705" />
		<tag k="ssr:type" v="adressenavn" />
	</node>
	<node id="-884288" lat="64.2419154389" lon="11.0826277099">
		<tag k="name" v="Øyensholmen" />
		<tag k="ssr:date" v="2019-05-30" />
		<tag k="ssr:gruppe" v="veg" />
		<tag k="ssr:hovedgruppe" v="infrastruktur" />
		<tag k="ssr:stedsnr" v="1036704" />
		<tag k="ssr:type" v="adressenavn" />
	</node>
	<node id="-884287" lat="64.2061985174" lon="11.0811302964">
		<tag k="name" v="Heggdalslisetran" />
		<tag k="ssr:date" v="2019-05-30" />
		<tag k="ssr:gruppe" v="veg" />
		<tag k="ssr:hovedgruppe" v="infrastruktur" />
		<tag k="ssr:stedsnr" v="1036703" />
		<tag k="ssr:type" v="adressenavn" />
	</node>
	<node id="-884286" lat="64.2374752667" lon="11.0139030883">
		<tag k="name" v="Storblåvatnet" />
		<tag k="ssr:date" v="2019-05-30" />
		<tag k="ssr:gruppe" v="veg" />
		<tag k="ssr:hovedgruppe" v="infrastruktur" />
		<tag k="ssr:stedsnr" v="1036702" />
		<tag k="ssr:type" v="adressenavn" />
	</node>
	<node id="-884285" lat="64.2577823038" lon="11.0632300385">
		<tag k="name" v="Granmyrhaugen" />
		<tag k="ssr:date" v="2019-05-30" />
		<tag k="ssr:gruppe" v="veg" />
		<tag k="ssr:hovedgruppe" v="infrastruktur" />
		<tag k="ssr:stedsnr" v="1036701" />
		<tag k="ssr:type" v="adressenavn" />
	</node>
	<node id="-884284" lat="64.2378462971" lon="11.0530414387">
		<tag k="name" v="Øyungen" />
		<tag k="ssr:date" v="2019-05-30" />
		<tag k="ssr:gruppe" v="veg" />
		<tag k="ssr:hovedgruppe" v="infrastruktur" />
		<tag k="ssr:stedsnr" v="1036700" />
		<tag k="ssr:type" v="adressenavn" />
	</node>
	<node id="-884283" lat="64.2418299491" lon="11.045002241">
		<tag k="name" v="Lissblåvatnet" />
		<tag k="ssr:date" v="2019-05-30" />
		<tag k="ssr:gruppe" v="veg" />
		<tag k="ssr:hovedgruppe" v="infrastruktur" />
		<tag k="ssr:stedsnr" v="1036699" />
		<tag k="ssr:type" v="adressenavn" />
	</node>
	<node id="-884282" lat="64.2971667238" lon="11.0090889959">
		<tag k="name" v="Tverrlisetran" />
		<tag k="ssr:date" v="2019-05-30" />
		<tag k="ssr:gruppe" v="veg" />
		<tag k="ssr:hovedgruppe" v="infrastruktur" />
		<tag k="ssr:stedsnr" v="1036698" />
		<tag k="ssr:type" v="adressenavn" />
	</node>
	<node id="-884281" lat="64.2760810701" lon="10.9766096598">
		<tag k="name" v="Bjørfarvatnet" />
		<tag k="ssr:date" v="2019-05-30" />
		<tag k="ssr:gruppe" v="veg" />
		<tag k="ssr:hovedgruppe" v="infrastruktur" />
		<tag k="ssr:stedsnr" v="1036697" />
		<tag k="ssr:type" v="adressenavn" />
	</node>
	<node id="-884280" lat="64.3040278777" lon="11.1473158878">
		<tag k="name" v="Mølnåvatna" />
		<tag k="ssr:date" v="2019-05-30" />
		<tag k="ssr:gruppe" v="veg" />
		<tag k="ssr:hovedgruppe" v="infrastruktur" />
		<tag k="ssr:stedsnr" v="1036696" />
		<tag k="ssr:type" v="adressenavn" />
	</node>
	<node id="-884279" lat="64.2877739496" lon="11.0484990074">
		<tag k="name" v="Sørsandvatnet" />
		<tag k="ssr:date" v="2019-05-30" />
		<tag k="ssr:gruppe" v="veg" />
		<tag k="ssr:hovedgruppe" v="infrastruktur" />
		<tag k="ssr:stedsnr" v="1036695" />
		<tag k="ssr:type" v="adressenavn" />
	</node>
	<node id="-884278" lat="64.3874328333" lon="11.3091877107">
		<tag k="name" v="Korsneset" />
		<tag k="ssr:date" v="2019-05-30" />
		<tag k="ssr:gruppe" v="veg" />
		<tag k="ssr:hovedgruppe" v="infrastruktur" />
		<tag k="ssr:stedsnr" v="1036650" />
		<tag k="ssr:type" v="adressenavn" />
	</node>
	<node id="-884277" lat="64.3221498035" lon="11.0820442734">
		<tag k="name" v="Nordsandvatnet" />
		<tag k="ssr:date" v="2019-05-30" />
		<tag k="ssr:gruppe" v="veg" />
		<tag k="ssr:hovedgruppe" v="infrastruktur" />
		<tag k="ssr:stedsnr" v="1036649" />
		<tag k="ssr:type" v="adressenavn" />
	</node>
	<node id="-884276" lat="64.3097892856" lon="11.0607725796">
		<tag k="name" v="Midtsandvatnet" />
		<tag k="ssr:date" v="2019-05-30" />
		<tag k="ssr:gruppe" v="veg" />
		<tag k="ssr:hovedgruppe" v="infrastruktur" />
		<tag k="ssr:stedsnr" v="1036648" />
		<tag k="ssr:type" v="adressenavn" />
	</node>
	<node id="-884275" lat="64.336224116" lon="11.1512927922">
		<tag k="name" v="Kallhammarvatna" />
		<tag k="ssr:date" v="2019-05-30" />
		<tag k="ssr:gruppe" v="veg" />
		<tag k="ssr:hovedgruppe" v="infrastruktur" />
		<tag k="ssr:stedsnr" v="1036647" />
		<tag k="ssr:type" v="adressenavn" />
	</node>
	<node id="-884274" lat="64.3468815576" lon="11.2028486278">
		<tag k="name" v="Munkhammarvatnet" />
		<tag k="ssr:date" v="2019-05-30" />
		<tag k="ssr:gruppe" v="veg" />
		<tag k="ssr:hovedgruppe" v="infrastruktur" />
		<tag k="ssr:stedsnr" v="1036646" />
		<tag k="ssr:type" v="adressenavn" />
	</node>
	<node id="-884273" lat="64.3807081429" lon="11.1031442412">
		<tag k="name" v="Gravhaugvatnet" />
		<tag k="ssr:date" v="2019-05-30" />
		<tag k="ssr:gruppe" v="veg" />
		<tag k="ssr:hovedgruppe" v="infrastruktur" />
		<tag k="ssr:stedsnr" v="1036644" />
		<tag k="ssr:type" v="adressenavn" />
	</node>
	<node id="-884272" lat="64.445438698" lon="11.3226735969">
		<tag k="name" v="Skjerpøya" />
		<tag k="ssr:date" v="2019-05-30" />
		<tag k="ssr:gruppe" v="veg" />
		<tag k="ssr:hovedgruppe" v="infrastruktur" />
		<tag k="ssr:stedsnr" v="1036643" />
		<tag k="ssr:type" v="adressenavn" />
	</node>
	<node id="-884271" lat="64.4136383779" lon="11.2438514789">
		<tag k="name" v="Hemnafjellet" />
		<tag k="ssr:date" v="2019-05-30" />
		<tag k="ssr:gruppe" v="veg" />
		<tag k="ssr:hovedgruppe" v="infrastruktur" />
		<tag k="ssr:stedsnr" v="1036642" />
		<tag k="ssr:type" v="adressenavn" />
	</node>
	<node id="-884270" lat="64.4273589945" lon="11.0347026003">
		<tag k="name" v="Gårdsetervatnet" />
		<tag k="ssr:date" v="2019-05-30" />
		<tag k="ssr:gruppe" v="veg" />
		<tag k="ssr:hovedgruppe" v="infrastruktur" />
		<tag k="ssr:stedsnr" v="1036641" />
		<tag k="ssr:type" v="adressenavn" />
	</node>
	<node id="-884269" lat="64.4568107155" lon="11.2789944518">
		<tag k="name" v="Sundsøya" />
		<tag k="ssr:date" v="2019-05-30" />
		<tag k="ssr:gruppe" v="veg" />
		<tag k="ssr:hovedgruppe" v="infrastruktur" />
		<tag k="ssr:stedsnr" v="1036640" />
		<tag k="ssr:type" v="adressenavn" />
	</node>
	<node id="-884268" lat="64.456140154" lon="11.0585695741">
		<tag k="name" v="Svarttjønna" />
		<tag k="ssr:date" v="2019-05-30" />
		<tag k="ssr:gruppe" v="veg" />
		<tag k="ssr:hovedgruppe" v="infrastruktur" />
		<tag k="ssr:stedsnr" v="1036639" />
		<tag k="ssr:type" v="adressenavn" />
	</node>
	<node id="-884267" lat="64.4354239096" lon="11.0743199821">
		<tag k="name" v="Tøttdalssetran" />
		<tag k="ssr:date" v="2019-05-30" />
		<tag k="ssr:gruppe" v="veg" />
		<tag k="ssr:hovedgruppe" v="infrastruktur" />
		<tag k="ssr:stedsnr" v="1036638" />
		<tag k="ssr:type" v="adressenavn" />
	</node>
	<node id="-884266" lat="64.4630467864" lon="11.1767225345">
		<tag k="name" v="Storbakksetran" />
		<tag k="ssr:date" v="2019-05-30" />
		<tag k="ssr:gruppe" v="veg" />
		<tag k="ssr:hovedgruppe" v="infrastruktur" />
		<tag k="ssr:stedsnr" v="1036637" />
		<tag k="ssr:type" v="adressenavn" />
	</node>
	<node id="-884265" lat="64.4860476819" lon="11.0848754046">
		<tag k="name" v="Nordledangssetran" />
		<tag k="ssr:date" v="2019-05-30" />
		<tag k="ssr:gruppe" v="veg" />
		<tag k="ssr:hovedgruppe" v="infrastruktur" />
		<tag k="ssr:stedsnr" v="1036636" />
		<tag k="ssr:type" v="adressenavn" />
	</node>
	<node id="-884264" lat="64.4859851345" lon="11.1778807155">
		<tag k="name" v="Hjartvika" />
		<tag k="ssr:date" v="2019-05-30" />
		<tag k="ssr:gruppe" v="veg" />
		<tag k="ssr:hovedgruppe" v="infrastruktur" />
		<tag k="ssr:stedsnr" v="1036635" />
		<tag k="ssr:type" v="adressenavn" />
	</node>
	<node id="-884263" lat="64.4986392417" lon="11.0413131029">
		<tag k="name" v="Grønlitjønna" />
		<tag k="ssr:date" v="2019-05-30" />
		<tag k="ssr:gruppe" v="veg" />
		<tag k="ssr:hovedgruppe" v="infrastruktur" />
		<tag k="ssr:stedsnr" v="1036634" />
		<tag k="ssr:type" v="adressenavn" />
	</node>
	<node id="-884262" lat="64.4920932295" lon="11.090357918">
		<tag k="name" v="Sparlivatnet" />
		<tag k="ssr:date" v="2019-05-30" />
		<tag k="ssr:gruppe" v="veg" />
		<tag k="ssr:hovedgruppe" v="infrastruktur" />
		<tag k="ssr:stedsnr" v="1036633" />
		<tag k="ssr:type" v="adressenavn" />
	</node>
	<node id="-884261" lat="64.5071721031" lon="11.0399941589">
		<tag k="name" v="Nordvatnet" />
		<tag k="ssr:date" v="2019-05-30" />
		<tag k="ssr:gruppe" v="veg" />
		<tag k="ssr:hovedgruppe" v="infrastruktur" />
		<tag k="ssr:stedsnr" v="1036632" />
		<tag k="ssr:type" v="adressenavn" />
	</node>
</osm>
