<?xml version="1.0" encoding="UTF-8"?>
<osm version="0.6" generator="osmapis">
	<node id="282675220" lat="64.4650283" lon="12.3133557" version="6" timestamp="2022-06-16T10:52:37Z" changeset="122458227" uid="3497659" user="NKA">
		<tag k="name" v="Grong" />
		<tag k="place" v="village" />
		<tag k="population" v="1089" />
		<tag k="population:date" v="2021-01-01" />
		<tag k="ref:ssb_tettsted" v="7142" />
		<tag k="source:population" v="SSB - befolkning i tettstedet" />
		<tag k="ssr:stedsnr" v="75584" />
	</node>
	<node id="736841463" lat="64.5608833" lon="12.4918601" version="2" timestamp="2022-06-16T10:52:37Z" changeset="122458227" uid="3497659" user="NKA">
		<tag k="name" v="Harran" />
		<tag k="place" v="village" />
		<tag k="ssr:stedsnr" v="439756" />
	</node>
	<node id="1064132838" lat="64.4673641" lon="12.2185755" version="4" timestamp="2022-06-16T10:52:37Z" changeset="122458227" uid="3497659" user="NKA">
		<tag k="alt_name" v="Bergsmo" />
		<tag k="name" v="Bergsmoen" />
		<tag k="place" v="village" />
		<tag k="population" v="228" />
		<tag k="population:date" v="2020-01-01" />
		<tag k="ref:ssb_tettsted" v="7141" />
		<tag k="source:population" v="SSB - befolkning i tettstedet" />
		<tag k="ssr:stedsnr" v="559691" />
	</node>
	<node id="1721802890" lat="64.3953916" lon="12.3205031" version="3" timestamp="2022-06-16T10:52:37Z" changeset="122458227" uid="3497659" user="NKA">
		<tag k="name" v="Bjørgan" />
		<tag k="place" v="village" />
		<tag k="ssr:stedsnr" v="870611" />
	</node>
	<node id="1721802892" lat="64.5332548" lon="12.3942463" version="2" timestamp="2022-06-16T10:52:37Z" changeset="122458227" uid="3497659" user="NKA">
		<tag k="name" v="Gartland" />
		<tag k="place" v="quarter" />
		<tag k="ssr:stedsnr" v="439644" />
	</node>
	<node id="2354934501" lat="64.487161" lon="12.20125" version="2" timestamp="2018-05-02T17:04:06Z" changeset="58620907" uid="3497659" user="NKA">
		<tag k="name" v="Liaberget" />
		<tag k="natural" v="peak" />
		<tag k="source" v="Kartverket" />
		<tag k="ssr:stedsnr" v="317692" />
	</node>
	<node id="5158861851" lat="64.4587834" lon="12.3337083" version="2" timestamp="2022-06-16T10:52:37Z" changeset="122458227" uid="3497659" user="NKA">
		<tag k="name" v="Rønningen" />
		<tag k="place" v="neighbourhood" />
		<tag k="ssr:stedsnr" v="29355" />
	</node>
	<node id="5158861852" lat="64.4617417" lon="12.3319417" version="2" timestamp="2022-06-16T10:52:37Z" changeset="122458227" uid="3497659" user="NKA">
		<tag k="name" v="Hallgotto" />
		<tag k="place" v="neighbourhood" />
		<tag k="ssr:stedsnr" v="89413" />
	</node>
	<node id="9822336910" lat="64.4634639" lon="12.3772443" version="1" timestamp="2022-06-16T10:52:37Z" changeset="122458227" uid="3497659" user="NKA">
		<tag k="name" v="Storlisetran" />
		<tag k="place" v="locality" />
		<tag k="ssr:stedsnr" v="620538" />
	</node>
	<node id="9822336911" lat="64.4626528" lon="12.3535778" version="1" timestamp="2022-06-16T10:52:37Z" changeset="122458227" uid="3497659" user="NKA">
		<tag k="alt_name" v="Heimsætran" />
		<tag k="historic" v="shieling" />
		<tag k="name" v="Medjåsætran" />
		<tag k="place" v="isolated_dwelling" />
		<tag k="ssr:stedsnr" v="620537" />
	</node>
	<node id="9822336912" lat="64.4421102" lon="12.3276268" version="1" timestamp="2022-06-16T10:52:37Z" changeset="122458227" uid="3497659" user="NKA">
		<tag k="name" v="Homo" />
		<tag k="place" v="hamlet" />
		<tag k="ssr:stedsnr" v="620475" />
	</node>
	<node id="9822336913" lat="64.5019111" lon="12.2394057" version="1" timestamp="2022-06-16T10:52:37Z" changeset="122458227" uid="3497659" user="NKA">
		<tag k="name" v="Sklettsetran" />
		<tag k="place" v="isolated_dwelling" />
		<tag k="ssr:stedsnr" v="257673" />
	</node>
	<node id="9822336914" lat="64.4590861" lon="12.2803055" version="1" timestamp="2022-06-16T10:52:37Z" changeset="122458227" uid="3497659" user="NKA">
		<tag k="name" v="Dun" />
		<tag k="place" v="hamlet" />
		<tag k="ssr:stedsnr" v="499471" />
	</node>
	<node id="9822336915" lat="64.4038361" lon="12.30975" version="1" timestamp="2022-06-16T10:52:37Z" changeset="122458227" uid="3497659" user="NKA">
		<tag k="historic" v="shieling" />
		<tag k="name" v="Lynumsetran" />
		<tag k="place" v="neighbourhood" />
		<tag k="ssr:stedsnr" v="513194" />
	</node>
	<node id="9822336916" lat="64.4518019" lon="12.2964077" version="1" timestamp="2022-06-16T10:52:37Z" changeset="122458227" uid="3497659" user="NKA">
		<tag k="name" v="Solheim" />
		<tag k="place" v="farm" />
		<tag k="ssr:stedsnr" v="378586" />
	</node>
	<node id="9822385117" lat="64.4559194" lon="12.6557833" version="1" timestamp="2022-06-16T10:52:37Z" changeset="122458227" uid="3497659" user="NKA">
		<tag k="name" v="Ivermoen" />
		<tag k="place" v="isolated_dwelling" />
		<tag k="ssr:stedsnr" v="776852" />
	</node>
	<node id="9822385118" lat="64.5083806" lon="12.2446139" version="1" timestamp="2022-06-16T10:52:37Z" changeset="122458227" uid="3497659" user="NKA">
		<tag k="historic" v="shieling" />
		<tag k="name" v="Sklettsetran" />
		<tag k="place" v="isolated_dwelling" />
		<tag k="ssr:stedsnr" v="136643" />
	</node>
	<node id="9822385119" lat="64.4725889" lon="12.3035124" version="1" timestamp="2022-06-16T10:52:37Z" changeset="122458227" uid="3497659" user="NKA">
		<tag k="name" v="Leksås" />
		<tag k="place" v="hamlet" />
		<tag k="ssr:stedsnr" v="210389" />
	</node>
	<node id="9822385120" lat="64.58055" lon="12.6735452" version="1" timestamp="2022-06-16T10:52:37Z" changeset="122458227" uid="3497659" user="NKA">
		<tag k="historic" v="shieling" />
		<tag k="name" v="Solessetran" />
		<tag k="place" v="isolated_dwelling" />
		<tag k="ssr:stedsnr" v="682755" />
	</node>
	<node id="9822385121" lat="64.482291" lon="12.1651471" version="1" timestamp="2022-06-16T10:52:37Z" changeset="122458227" uid="3497659" user="NKA">
		<tag k="name" v="Holo" />
		<tag k="place" v="hamlet" />
		<tag k="ssr:stedsnr" v="134795" />
	</node>
	<node id="9822385122" lat="64.5184811" lon="12.3733109" version="1" timestamp="2022-06-16T10:52:37Z" changeset="122458227" uid="3497659" user="NKA">
		<tag k="alt_name" v="Åsen" />
		<tag k="name" v="Gartlandsåsen" />
		<tag k="place" v="farm" />
		<tag k="ssr:stedsnr" v="197672" />
	</node>
	<node id="9822385123" lat="64.5196527" lon="12.244264" version="1" timestamp="2022-06-16T10:52:37Z" changeset="122458227" uid="3497659" user="NKA">
		<tag k="historic" v="shieling" />
		<tag k="name" v="Fjellbroddlisetran" />
		<tag k="place" v="isolated_dwelling" />
		<tag k="ssr:stedsnr" v="15693" />
	</node>
	<node id="9822385124" lat="64.4714139" lon="12.939614" version="1" timestamp="2022-06-16T10:52:37Z" changeset="122458227" uid="3497659" user="NKA">
		<tag k="name" v="Nysetran" />
		<tag k="place" v="locality" />
		<tag k="ssr:stedsnr" v="438316" />
	</node>
	<node id="9822385125" lat="64.6908928" lon="12.7304094" version="1" timestamp="2022-06-16T10:52:37Z" changeset="122458227" uid="3497659" user="NKA">
		<tag k="name" v="Åssveet" />
		<tag k="place" v="farm" />
		<tag k="ssr:stedsnr" v="925390" />
	</node>
	<node id="9822385126" lat="64.40905" lon="12.310261" version="1" timestamp="2022-06-16T10:52:37Z" changeset="122458227" uid="3497659" user="NKA">
		<tag k="historic" v="shieling" />
		<tag k="name" v="Saulisetran" />
		<tag k="place" v="neighbourhood" />
		<tag k="ssr:stedsnr" v="149149" />
	</node>
	<node id="9822385127" lat="64.6291837" lon="12.5995849" version="1" timestamp="2022-06-16T10:52:37Z" changeset="122458227" uid="3497659" user="NKA">
		<tag k="name" v="Skogan" />
		<tag k="place" v="farm" />
		<tag k="ssr:stedsnr" v="696763" />
	</node>
	<node id="9822385128" lat="64.6554428" lon="12.6498798" version="1" timestamp="2022-06-16T10:52:37Z" changeset="122458227" uid="3497659" user="NKA">
		<tag k="name" v="Nyheim" />
		<tag k="place" v="farm" />
		<tag k="ssr:stedsnr" v="682662" />
	</node>
	<node id="9822385129" lat="64.469275" lon="12.8911639" version="1" timestamp="2022-06-16T10:52:37Z" changeset="122458227" uid="3497659" user="NKA">
		<tag k="name" v="Bergmoen" />
		<tag k="place" v="locality" />
		<tag k="ssr:stedsnr" v="715931" />
	</node>
	<node id="9822385130" lat="64.6615247" lon="12.6335157" version="1" timestamp="2022-06-16T10:52:37Z" changeset="122458227" uid="3497659" user="NKA">
		<tag k="name" v="Bergenget" />
		<tag k="place" v="farm" />
		<tag k="ssr:stedsnr" v="682665" />
	</node>
	<node id="9822385131" lat="64.4525591" lon="12.2259985" version="1" timestamp="2022-06-16T10:52:37Z" changeset="122458227" uid="3497659" user="NKA">
		<tag k="alt_name" v="Sem vestre" />
		<tag k="name" v="Vestre Sem" />
		<tag k="place" v="farm" />
		<tag k="ssr:stedsnr" v="149102" />
	</node>
	<node id="9822385132" lat="64.4664459" lon="12.1558787" version="1" timestamp="2022-06-16T10:52:37Z" changeset="122458227" uid="3497659" user="NKA">
		<tag k="name" v="Valdskrå" />
		<tag k="place" v="hamlet" />
		<tag k="ssr:stedsnr" v="574019" />
	</node>
	<node id="9822385133" lat="64.540249" lon="12.7133304" version="1" timestamp="2022-06-16T10:52:37Z" changeset="122458227" uid="3497659" user="NKA">
		<tag k="alt_name" v="Libergsetran" />
		<tag k="historic" v="shieling" />
		<tag k="name" v="Solessetran" />
		<tag k="place" v="isolated_dwelling" />
		<tag k="ssr:stedsnr" v="439653" />
	</node>
	<node id="9822385134" lat="64.5571111" lon="12.6965249" version="1" timestamp="2022-06-16T10:52:37Z" changeset="122458227" uid="3497659" user="NKA">
		<tag k="name" v="Tobisensetran" />
		<tag k="place" v="locality" />
		<tag k="ssr:stedsnr" v="621761" />
	</node>
	<node id="9822385135" lat="64.4518611" lon="12.3444694" version="1" timestamp="2022-06-16T10:52:37Z" changeset="122458227" uid="3497659" user="NKA">
		<tag k="name" v="Tømmerås" />
		<tag k="place" v="farm" />
		<tag k="ssr:stedsnr" v="634361" />
	</node>
	<node id="9822385136" lat="64.5233861" lon="12.6614138" version="1" timestamp="2022-06-16T10:52:37Z" changeset="122458227" uid="3497659" user="NKA">
		<tag k="alt_name" v="Brusvassetran" />
		<tag k="name" v="Nessetran" />
		<tag k="place" v="locality" />
		<tag k="ssr:stedsnr" v="925683" />
	</node>
	<node id="9822385137" lat="64.6557692" lon="12.6497931" version="1" timestamp="2022-06-16T10:52:37Z" changeset="122458227" uid="3497659" user="NKA">
		<tag k="name" v="Åsvang" />
		<tag k="place" v="farm" />
		<tag k="ssr:stedsnr" v="318625" />
	</node>
	<node id="9822385138" lat="64.5678555" lon="12.7410721" version="1" timestamp="2022-06-16T10:52:37Z" changeset="122458227" uid="3497659" user="NKA">
		<tag k="alt_name" v="Rognbusetran" />
		<tag k="historic" v="shieling" />
		<tag k="name" v="Nysetran" />
		<tag k="place" v="isolated_dwelling" />
		<tag k="ssr:stedsnr" v="803291" />
	</node>
	<node id="9822385139" lat="64.4454984" lon="12.3419301" version="1" timestamp="2022-06-16T10:52:37Z" changeset="122458227" uid="3497659" user="NKA">
		<tag k="name" v="Jerpen" />
		<tag k="place" v="farm" />
		<tag k="ssr:stedsnr" v="89345" />
	</node>
	<node id="9822385140" lat="64.4002518" lon="12.3139462" version="1" timestamp="2022-06-16T10:52:37Z" changeset="122458227" uid="3497659" user="NKA">
		<tag k="historic" v="shieling" />
		<tag k="name" v="Homonessetran" />
		<tag k="place" v="neighbourhood" />
		<tag k="ssr:stedsnr" v="89184" />
	</node>
	<node id="9822385141" lat="64.6583445" lon="12.7588056" version="1" timestamp="2022-06-16T10:52:37Z" changeset="122458227" uid="3497659" user="NKA">
		<tag k="name" v="Selliås" />
		<tag k="place" v="farm" />
		<tag k="ssr:stedsnr" v="804411" />
	</node>
	<node id="9822385142" lat="64.50015" lon="12.7427611" version="1" timestamp="2022-06-16T10:52:37Z" changeset="122458227" uid="3497659" user="NKA">
		<tag k="historic" v="shieling" />
		<tag k="name" v="Brennmoen" />
		<tag k="place" v="isolated_dwelling" />
		<tag k="ssr:stedsnr" v="499283" />
	</node>
	<node id="9822385143" lat="64.6138361" lon="12.649939" version="1" timestamp="2022-06-16T10:52:37Z" changeset="122458227" uid="3497659" user="NKA">
		<tag k="name" v="Fjerdingsetran" />
		<tag k="place" v="locality" />
		<tag k="ssr:stedsnr" v="196516" />
	</node>
	<node id="9822385144" lat="64.6144722" lon="12.5924154" version="1" timestamp="2022-06-16T10:52:37Z" changeset="122458227" uid="3497659" user="NKA">
		<tag k="name" v="Fjerdingmoen" />
		<tag k="place" v="farm" />
		<tag k="ssr:stedsnr" v="499490" />
	</node>
	<node id="9822385145" lat="64.5282806" lon="12.3800084" version="1" timestamp="2022-06-16T10:52:37Z" changeset="122458227" uid="3497659" user="NKA">
		<tag k="name" v="Elvheim" />
		<tag k="place" v="locality" />
		<tag k="ssr:stedsnr" v="939296" />
	</node>
	<node id="9822385146" lat="64.6666064" lon="12.6485449" version="1" timestamp="2022-06-16T10:52:37Z" changeset="122458227" uid="3497659" user="NKA">
		<tag k="name" v="Setervollen" />
		<tag k="place" v="locality" />
		<tag k="ssr:stedsnr" v="864618" />
	</node>
	<node id="9822385147" lat="64.5621694" lon="12.496812" version="1" timestamp="2022-06-16T10:52:37Z" changeset="122458227" uid="3497659" user="NKA">
		<tag k="name" v="Moa" />
		<tag k="place" v="neighbourhood" />
		<tag k="ssr:stedsnr" v="925791" />
	</node>
	<node id="9822385148" lat="64.5685241" lon="12.5198988" version="1" timestamp="2022-06-16T10:52:37Z" changeset="122458227" uid="3497659" user="NKA">
		<tag k="name" v="Nes" />
		<tag k="place" v="farm" />
		<tag k="ssr:stedsnr" v="332650" />
	</node>
	<node id="9822385149" lat="64.5617584" lon="12.3704027" version="1" timestamp="2022-06-16T10:52:37Z" changeset="122458227" uid="3497659" user="NKA">
		<tag k="historic" v="shieling" />
		<tag k="name" v="Gartlandsetran" />
		<tag k="place" v="isolated_dwelling" />
		<tag k="ssr:stedsnr" v="925735" />
	</node>
	<node id="9822385150" lat="64.6683109" lon="12.6792183" version="1" timestamp="2022-06-16T10:52:37Z" changeset="122458227" uid="3497659" user="NKA">
		<tag k="name" v="Bekkheim" />
		<tag k="place" v="farm" />
		<tag k="ssr:stedsnr" v="621619" />
	</node>
	<node id="9822385151" lat="64.472074" lon="12.1958122" version="1" timestamp="2022-06-16T10:52:37Z" changeset="122458227" uid="3497659" user="NKA">
		<tag k="name" v="Solhaug" />
		<tag k="place" v="farm" />
		<tag k="ssr:stedsnr" v="756016" />
	</node>
	<node id="9822385152" lat="64.6672733" lon="12.6745361" version="1" timestamp="2022-06-16T10:52:37Z" changeset="122458227" uid="3497659" user="NKA">
		<tag k="name" v="Seterhaugen" />
		<tag k="place" v="farm" />
		<tag k="ssr:stedsnr" v="621620" />
	</node>
	<node id="9822385153" lat="64.4593556" lon="12.7859749" version="1" timestamp="2022-06-16T10:52:37Z" changeset="122458227" uid="3497659" user="NKA">
		<tag k="name" v="New York" />
		<tag k="place" v="locality" />
		<tag k="ssr:stedsnr" v="196290" />
	</node>
	<node id="9822385154" lat="64.4513686" lon="12.2786135" version="1" timestamp="2022-06-16T10:52:37Z" changeset="122458227" uid="3497659" user="NKA">
		<tag k="name" v="Kvitemsmoen" />
		<tag k="place" v="farm" />
		<tag k="ssr:stedsnr" v="803559" />
	</node>
	<node id="9822385155" lat="64.4681294" lon="12.1670271" version="1" timestamp="2022-06-16T10:52:37Z" changeset="122458227" uid="3497659" user="NKA">
		<tag k="name" v="Vie" />
		<tag k="place" v="hamlet" />
		<tag k="ssr:stedsnr" v="742681" />
	</node>
	<node id="9822385156" lat="64.5254501" lon="12.4022357" version="1" timestamp="2022-06-16T10:52:37Z" changeset="122458227" uid="3497659" user="NKA">
		<tag k="name" v="Gartlandsneset" />
		<tag k="place" v="farm" />
		<tag k="ssr:stedsnr" v="818297" />
	</node>
	<node id="9822385157" lat="64.682988" lon="12.7307873" version="1" timestamp="2022-06-16T10:52:37Z" changeset="122458227" uid="3497659" user="NKA">
		<tag k="name" v="Granmo" />
		<tag k="place" v="farm" />
		<tag k="ssr:stedsnr" v="803355" />
	</node>
	<node id="9822385158" lat="64.3780445" lon="12.3197195" version="1" timestamp="2022-06-16T10:52:37Z" changeset="122458227" uid="3497659" user="NKA">
		<tag k="historic" v="shieling" />
		<tag k="name" v="Biskoplisetran" />
		<tag k="place" v="isolated_dwelling" />
		<tag k="ssr:stedsnr" v="514199" />
	</node>
	<node id="9822385159" lat="64.3610125" lon="12.3075721" version="1" timestamp="2022-06-16T10:52:37Z" changeset="122458227" uid="3497659" user="NKA">
		<tag k="historic" v="shieling" />
		<tag k="name" v="Heggessetran" />
		<tag k="place" v="isolated_dwelling" />
		<tag k="ssr:stedsnr" v="75475" />
	</node>
	<node id="9822385160" lat="64.5513861" lon="12.3670778" version="1" timestamp="2022-06-16T10:52:37Z" changeset="122458227" uid="3497659" user="NKA">
		<tag k="historic" v="shieling" />
		<tag k="name" v="Vollasetran" />
		<tag k="place" v="isolated_dwelling" />
		<tag k="ssr:stedsnr" v="756314" />
	</node>
	<node id="9822385161" lat="64.4578467" lon="12.682915" version="1" timestamp="2022-06-16T10:52:37Z" changeset="122458227" uid="3497659" user="NKA">
		<tag k="name" v="Nyneset" />
		<tag k="place" v="farm" />
		<tag k="ssr:stedsnr" v="256448" />
	</node>
	<node id="9822385162" lat="64.5117555" lon="12.3677667" version="1" timestamp="2022-06-16T10:52:37Z" changeset="122458227" uid="3497659" user="NKA">
		<tag k="name" v="Sellerneset" />
		<tag k="place" v="farm" />
		<tag k="ssr:stedsnr" v="743645" />
	</node>
	<node id="9822385163" lat="64.533541" lon="12.3882604" version="1" timestamp="2022-06-16T10:52:37Z" changeset="122458227" uid="3497659" user="NKA">
		<tag k="alt_name" v="Gartland" />
		<tag k="name" v="Hansmoen" />
		<tag k="place" v="farm" />
		<tag k="ssr:stedsnr" v="682704" />
	</node>
	<node id="9822385164" lat="64.5607" lon="12.4801082" version="1" timestamp="2022-06-16T10:52:37Z" changeset="122458227" uid="3497659" user="NKA">
		<tag k="name" v="Kvernmoen" />
		<tag k="place" v="farm" />
		<tag k="ssr:stedsnr" v="682799" />
	</node>
	<node id="9822385165" lat="64.6609767" lon="12.6462568" version="1" timestamp="2022-06-16T10:52:37Z" changeset="122458227" uid="3497659" user="NKA">
		<tag k="name" v="Åsmulen" />
		<tag k="place" v="hamlet" />
		<tag k="ssr:stedsnr" v="803586" />
	</node>
	<node id="9822385166" lat="64.4684078" lon="12.1018659" version="1" timestamp="2022-06-16T10:52:37Z" changeset="122458227" uid="3497659" user="NKA">
		<tag k="name" v="Veiem" />
		<tag k="place" v="farm" />
		<tag k="ssr:stedsnr" v="681790" />
	</node>
	<node id="9822385167" lat="64.4793527" lon="13.0303333" version="1" timestamp="2022-06-16T10:52:37Z" changeset="122458227" uid="3497659" user="NKA">
		<tag k="name" v="Sibirien" />
		<tag k="place" v="locality" />
		<tag k="ssr:stedsnr" v="924293" />
	</node>
	<node id="9822385168" lat="64.5012361" lon="12.5864667" version="1" timestamp="2022-06-16T10:52:37Z" changeset="122458227" uid="3497659" user="NKA">
		<tag k="name" v="Elstadsetran" />
		<tag k="place" v="isolated_dwelling" />
		<tag k="ssr:stedsnr" v="803691" />
	</node>
	<node id="9822385169" lat="64.343475" lon="12.232125" version="1" timestamp="2022-06-16T10:52:37Z" changeset="122458227" uid="3497659" user="NKA">
		<tag k="alt_name" v="Rostensetren;Rostasætran" />
		<tag k="historic" v="shieling" />
		<tag k="name" v="Rostasetran" />
		<tag k="place" v="isolated_dwelling" />
		<tag k="ssr:stedsnr" v="196387" />
	</node>
	<node id="9822385170" lat="64.474575" lon="12.1609695" version="1" timestamp="2022-06-16T10:52:37Z" changeset="122458227" uid="3497659" user="NKA">
		<tag k="name" v="Vie" />
		<tag k="place" v="farm" />
		<tag k="ssr:stedsnr" v="377773" />
	</node>
	<node id="9822385171" lat="64.5346944" lon="12.2882834" version="1" timestamp="2022-06-16T10:52:37Z" changeset="122458227" uid="3497659" user="NKA">
		<tag k="historic" v="shieling" />
		<tag k="name" v="Finnhaugsetran" />
		<tag k="place" v="isolated_dwelling" />
		<tag k="ssr:stedsnr" v="439727" />
	</node>
	<node id="9822385172" lat="64.620975" lon="12.6014861" version="1" timestamp="2022-06-16T10:52:37Z" changeset="122458227" uid="3497659" user="NKA">
		<tag k="name" v="Fjerdingen" />
		<tag k="place" v="hamlet" />
		<tag k="ssr:stedsnr" v="379481" />
	</node>
	<node id="9822385173" lat="64.5174611" lon="12.4146164" version="1" timestamp="2022-06-16T10:52:37Z" changeset="122458227" uid="3497659" user="NKA">
		<tag k="name" v="Rossetmo" />
		<tag k="place" v="farm" />
		<tag k="ssr:stedsnr" v="93243" />
	</node>
	<node id="9822385174" lat="64.5937306" lon="12.455375" version="1" timestamp="2022-06-16T10:52:37Z" changeset="122458227" uid="3497659" user="NKA">
		<tag k="alt_name" v="Fiskemssetran" />
		<tag k="historic" v="shieling" />
		<tag k="name" v="Øystre Fiskemssetran" />
		<tag k="place" v="isolated_dwelling" />
		<tag k="ssr:stedsnr" v="500774" />
	</node>
	<node id="9822385175" lat="64.4708883" lon="12.1449022" version="1" timestamp="2022-06-16T10:52:37Z" changeset="122458227" uid="3497659" user="NKA">
		<tag k="name" v="Øyem" />
		<tag k="place" v="hamlet" />
		<tag k="ssr:stedsnr" v="681808" />
	</node>
	<node id="9822385176" lat="64.471545" lon="12.147651" version="1" timestamp="2022-06-16T10:52:37Z" changeset="122458227" uid="3497659" user="NKA">
		<tag k="name" v="Østre Øyem" />
		<tag k="place" v="farm" />
		<tag k="ssr:stedsnr" v="667714" />
	</node>
	<node id="9822385177" lat="64.5002139" lon="12.1421667" version="1" timestamp="2022-06-16T10:52:37Z" changeset="122458227" uid="3497659" user="NKA">
		<tag k="name" v="Skarplassan" />
		<tag k="place" v="locality" />
		<tag k="ssr:stedsnr" v="89097" />
	</node>
	<node id="9822385178" lat="64.464829" lon="12.1703399" version="1" timestamp="2022-06-16T10:52:37Z" changeset="122458227" uid="3497659" user="NKA">
		<tag k="name" v="Austtun" />
		<tag k="place" v="farm" />
		<tag k="ssr:stedsnr" v="196666" />
	</node>
	<node id="9822385179" lat="64.4009416" lon="12.313411" version="1" timestamp="2022-06-16T10:52:37Z" changeset="122458227" uid="3497659" user="NKA">
		<tag k="historic" v="shieling" />
		<tag k="name" v="Homosetran" />
		<tag k="place" v="neighbourhood" />
		<tag k="ssr:stedsnr" v="756156" />
	</node>
	<node id="9822385180" lat="64.5587143" lon="12.4891196" version="1" timestamp="2022-06-16T10:52:37Z" changeset="122458227" uid="3497659" user="NKA">
		<tag k="name" v="Fiskem" />
		<tag k="place" v="farm" />
		<tag k="ssr:stedsnr" v="817653" />
	</node>
	<node id="9822385181" lat="64.405475" lon="12.434975" version="1" timestamp="2022-06-16T10:52:37Z" changeset="122458227" uid="3497659" user="NKA">
		<tag k="name" v="Bergssetran" />
		<tag k="place" v="locality" />
		<tag k="ssr:stedsnr" v="378488" />
	</node>
	<node id="9822385182" lat="64.5591944" lon="12.4924277" version="1" timestamp="2022-06-16T10:52:37Z" changeset="122458227" uid="3497659" user="NKA">
		<tag k="name" v="Elvebakken" />
		<tag k="place" v="farm" />
		<tag k="ssr:stedsnr" v="378761" />
	</node>
	<node id="9822385183" lat="64.4005617" lon="12.3575647" version="1" timestamp="2022-06-16T10:52:37Z" changeset="122458227" uid="3497659" user="NKA">
		<tag k="name" v="Tufte" />
		<tag k="place" v="farm" />
		<tag k="ssr:stedsnr" v="472459" />
	</node>
	<node id="9822385184" lat="64.4221055" lon="12.3415972" version="1" timestamp="2022-06-16T10:52:37Z" changeset="122458227" uid="3497659" user="NKA">
		<tag k="name" v="Langeggen" />
		<tag k="place" v="locality" />
		<tag k="ssr:stedsnr" v="696367" />
	</node>
	<node id="9822385185" lat="64.5491639" lon="12.348825" version="1" timestamp="2022-06-16T10:52:37Z" changeset="122458227" uid="3497659" user="NKA">
		<tag k="historic" v="shieling" />
		<tag k="name" v="Severinsetran" />
		<tag k="place" v="isolated_dwelling" />
		<tag k="ssr:stedsnr" v="229642" />
	</node>
	<node id="9822385186" lat="64.5845472" lon="12.437686" version="1" timestamp="2022-06-16T10:52:37Z" changeset="122458227" uid="3497659" user="NKA">
		<tag k="historic" v="shieling" />
		<tag k="name" v="Vestre Fiskemssetran" />
		<tag k="place" v="isolated_dwelling" />
		<tag k="ssr:stedsnr" v="257591" />
	</node>
	<node id="9822385187" lat="64.4541" lon="12.2969028" version="1" timestamp="2022-06-16T10:52:37Z" changeset="122458227" uid="3497659" user="NKA">
		<tag k="name" v="Fossenget" />
		<tag k="place" v="locality" />
		<tag k="ssr:stedsnr" v="135540" />
	</node>
	<node id="9822385188" lat="64.4279058" lon="12.334332" version="1" timestamp="2022-06-16T10:52:37Z" changeset="122458227" uid="3497659" user="NKA">
		<tag k="name" v="Persmoen" />
		<tag k="place" v="farm" />
		<tag k="ssr:stedsnr" v="560485" />
	</node>
	<node id="9822385189" lat="64.4209945" lon="12.2906277" version="1" timestamp="2022-06-16T10:52:37Z" changeset="122458227" uid="3497659" user="NKA">
		<tag k="historic" v="shieling" />
		<tag k="name" v="Eriksetran" />
		<tag k="place" v="isolated_dwelling" />
		<tag k="ssr:stedsnr" v="28385" />
	</node>
	<node id="9822385190" lat="64.4066723" lon="12.3304167" version="1" timestamp="2022-06-16T10:52:37Z" changeset="122458227" uid="3497659" user="NKA">
		<tag k="historic" v="shieling" />
		<tag k="name" v="Bjørgsetran" />
		<tag k="place" v="isolated_dwelling" />
		<tag k="ssr:stedsnr" v="28175" />
	</node>
	<node id="9822385191" lat="64.5727389" lon="12.4279861" version="1" timestamp="2022-06-16T10:52:37Z" changeset="122458227" uid="3497659" user="NKA">
		<tag k="historic" v="shieling" />
		<tag k="name" v="Skattrudsetran" />
		<tag k="place" v="isolated_dwelling" />
		<tag k="ssr:stedsnr" v="135692" />
	</node>
	<node id="9822385192" lat="64.3602083" lon="12.3064056" version="1" timestamp="2022-06-16T10:52:37Z" changeset="122458227" uid="3497659" user="NKA">
		<tag k="historic" v="shieling" />
		<tag k="name" v="Kvitessetran" />
		<tag k="place" v="isolated_dwelling" />
		<tag k="ssr:stedsnr" v="135442" />
	</node>
	<node id="9822385193" lat="64.4598134" lon="12.2035635" version="1" timestamp="2022-06-16T10:52:37Z" changeset="122458227" uid="3497659" user="NKA">
		<tag k="name" v="Dal" />
		<tag k="place" v="farm" />
		<tag k="ssr:stedsnr" v="196681" />
	</node>
	<node id="9822385194" lat="64.4266778" lon="12.1312612" version="1" timestamp="2022-06-16T10:52:37Z" changeset="122458227" uid="3497659" user="NKA">
		<tag k="historic" v="shieling" />
		<tag k="name" v="Småsetran" />
		<tag k="place" v="isolated_dwelling" />
		<tag k="ssr:stedsnr" v="924612" />
	</node>
	<node id="9822385195" lat="64.3680666" lon="12.3166499" version="1" timestamp="2022-06-16T10:52:37Z" changeset="122458227" uid="3497659" user="NKA">
		<tag k="historic" v="shieling" />
		<tag k="name" v="Heggemssetran" />
		<tag k="place" v="isolated_dwelling" />
		<tag k="ssr:stedsnr" v="776009" />
	</node>
	<node id="9822385196" lat="64.5833055" lon="12.562736" version="1" timestamp="2022-06-16T10:52:37Z" changeset="122458227" uid="3497659" user="NKA">
		<tag k="name" v="Lauvbota" />
		<tag k="place" v="farm" />
		<tag k="ssr:stedsnr" v="197730" />
	</node>
	<node id="9822385197" lat="64.4656778" lon="12.818525" version="1" timestamp="2022-06-16T10:52:37Z" changeset="122458227" uid="3497659" user="NKA">
		<tag k="name" v="Gammel Hansmoen" />
		<tag k="place" v="locality" />
		<tag k="ssr:stedsnr" v="716614" />
	</node>
	<node id="9822385198" lat="64.4657139" lon="12.9333973" version="1" timestamp="2022-06-16T10:52:37Z" changeset="122458227" uid="3497659" user="NKA">
		<tag k="name" v="Fjellheim" />
		<tag k="place" v="isolated_dwelling" />
		<tag k="ssr:stedsnr" v="716928" />
	</node>
	<node id="9822385199" lat="64.5264127" lon="12.4198159" version="1" timestamp="2022-06-16T10:52:37Z" changeset="122458227" uid="3497659" user="NKA">
		<tag k="name" v="Elstadneset" />
		<tag k="place" v="farm" />
		<tag k="ssr:stedsnr" v="864689" />
	</node>
	<node id="9822385200" lat="64.4002639" lon="12.3912112" version="1" timestamp="2022-06-16T10:52:37Z" changeset="122458227" uid="3497659" user="NKA">
		<tag k="name" v="Tullusplassen" />
		<tag k="place" v="locality" />
		<tag k="ssr:stedsnr" v="75487" />
	</node>
	<node id="9822385201" lat="64.5229639" lon="12.4146612" version="1" timestamp="2022-06-16T10:52:37Z" changeset="122458227" uid="3497659" user="NKA">
		<tag k="name" v="Rossetnes" />
		<tag k="place" v="farm" />
		<tag k="ssr:stedsnr" v="15671" />
	</node>
	<node id="9822385202" lat="64.4592278" lon="12.5262499" version="1" timestamp="2022-06-16T10:52:37Z" changeset="122458227" uid="3497659" user="NKA">
		<tag k="name" v="Sandnessætran" />
		<tag k="place" v="isolated_dwelling" />
		<tag k="ssr:stedsnr" v="924460" />
	</node>
	<node id="9822385203" lat="64.4388166" lon="12.4980231" version="1" timestamp="2022-06-16T10:52:37Z" changeset="122458227" uid="3497659" user="NKA">
		<tag k="name" v="Sandnes" />
		<tag k="place" v="hamlet" />
		<tag k="ssr:stedsnr" v="196440" />
	</node>
	<node id="9822385204" lat="64.4500101" lon="12.5886449" version="1" timestamp="2022-06-16T10:52:37Z" changeset="122458227" uid="3497659" user="NKA">
		<tag k="name" v="Elvestad" />
		<tag k="place" v="farm" />
		<tag k="ssr:stedsnr" v="317442" />
	</node>
	<node id="9822385205" lat="64.45085" lon="12.574325" version="1" timestamp="2022-06-16T10:52:37Z" changeset="122458227" uid="3497659" user="NKA">
		<tag k="alt_name" v="Godejord" />
		<tag k="name" v="Godejorda" />
		<tag k="place" v="farm" />
		<tag k="ssr:stedsnr" v="499416" />
	</node>
	<node id="9822385206" lat="64.453411" lon="12.6362592" version="1" timestamp="2022-06-16T10:52:37Z" changeset="122458227" uid="3497659" user="NKA">
		<tag k="name" v="Brenna" />
		<tag k="place" v="farm" />
		<tag k="ssr:stedsnr" v="741590" />
	</node>
	<node id="9822385207" lat="64.4206161" lon="12.4622697" version="1" timestamp="2022-06-16T10:52:37Z" changeset="122458227" uid="3497659" user="NKA">
		<tag k="name" v="Trangen" />
		<tag k="place" v="farm" />
		<tag k="ssr:stedsnr" v="654332" />
	</node>
	<node id="9822385208" lat="64.5201111" lon="12.3512806" version="1" timestamp="2022-06-16T10:52:37Z" changeset="122458227" uid="3497659" user="NKA">
		<tag k="historic" v="shieling" />
		<tag k="name" v="Heimsetran" />
		<tag k="place" v="isolated_dwelling" />
		<tag k="ssr:stedsnr" v="621672" />
	</node>
	<node id="9822385209" lat="64.5405806" lon="12.4838805" version="1" timestamp="2022-06-16T10:52:37Z" changeset="122458227" uid="3497659" user="NKA">
		<tag k="name" v="Gregoriusplassen" />
		<tag k="place" v="locality" />
		<tag k="ssr:stedsnr" v="634749" />
	</node>
	<node id="9822385210" lat="64.4567444" lon="12.6673805" version="1" timestamp="2022-06-16T10:52:37Z" changeset="122458227" uid="3497659" user="NKA">
		<tag k="name" v="Solberg" />
		<tag k="place" v="isolated_dwelling" />
		<tag k="ssr:stedsnr" v="776864" />
	</node>
	<node id="9822385211" lat="64.5149027" lon="12.4235" version="1" timestamp="2022-06-16T10:52:37Z" changeset="122458227" uid="3497659" user="NKA">
		<tag k="name" v="Rosset" />
		<tag k="place" v="hamlet" />
		<tag k="ssr:stedsnr" v="500704" />
	</node>
	<node id="9822385212" lat="64.4698611" lon="12.8307222" version="1" timestamp="2022-06-16T10:52:37Z" changeset="122458227" uid="3497659" user="NKA">
		<tag k="name" v="Berg" />
		<tag k="place" v="hamlet" />
		<tag k="ssr:stedsnr" v="742305" />
	</node>
	<node id="9822385213" lat="64.5550041" lon="12.4695621" version="1" timestamp="2022-06-16T10:52:37Z" changeset="122458227" uid="3497659" user="NKA">
		<tag k="name" v="Fiskem" />
		<tag k="place" v="hamlet" />
		<tag k="ssr:stedsnr" v="500791" />
	</node>
	<node id="9822385214" lat="64.4708843" lon="12.2011448" version="1" timestamp="2022-06-16T10:52:37Z" changeset="122458227" uid="3497659" user="NKA">
		<tag k="name" v="Nesmoen" />
		<tag k="place" v="farm" />
		<tag k="ssr:stedsnr" v="14649" />
	</node>
	<node id="9822385215" lat="64.440175" lon="12.3312611" version="1" timestamp="2022-06-16T10:52:37Z" changeset="122458227" uid="3497659" user="NKA">
		<tag k="name" v="Homoneset" />
		<tag k="place" v="farm" />
		<tag k="ssr:stedsnr" v="803483" />
	</node>
	<node id="9822385216" lat="64.6003111" lon="12.5449611" version="1" timestamp="2022-06-16T10:52:37Z" changeset="122458227" uid="3497659" user="NKA">
		<tag k="name" v="Byasetran" />
		<tag k="place" v="locality" />
		<tag k="ssr:stedsnr" v="439508" />
	</node>
	<node id="9822385217" lat="64.4670722" lon="12.3028778" version="1" timestamp="2022-06-16T10:52:37Z" changeset="122458227" uid="3497659" user="NKA">
		<tag k="name" v="Tinghaugen" />
		<tag k="place" v="farm" />
		<tag k="ssr:stedsnr" v="135534" />
	</node>
	<node id="9822385218" lat="64.4828343" lon="12.4358094" version="1" timestamp="2022-06-16T10:52:37Z" changeset="122458227" uid="3497659" user="NKA">
		<tag k="alt_name" v="Isaksetran" />
		<tag k="name" v="Øvre Rossetsetran" />
		<tag k="place" v="locality" />
		<tag k="ssr:stedsnr" v="620524" />
	</node>
	<node id="9822385219" lat="64.466403" lon="12.2364119" version="1" timestamp="2022-06-16T10:52:37Z" changeset="122458227" uid="3497659" user="NKA">
		<tag k="name" v="Grong næringspark" />
		<tag k="place" v="neighbourhood" />
		<tag k="ssr:stedsnr" v="1080063" />
	</node>
	<node id="9822385220" lat="64.6481567" lon="12.6017847" version="1" timestamp="2022-06-16T10:52:37Z" changeset="122458227" uid="3497659" user="NKA">
		<tag k="name" v="Folmer" />
		<tag k="place" v="farm" />
		<tag k="ssr:stedsnr" v="121584" />
	</node>
	<node id="9822385221" lat="64.5895071" lon="12.5611271" version="1" timestamp="2022-06-16T10:52:37Z" changeset="122458227" uid="3497659" user="NKA">
		<tag k="alt_name" v="Øvermo;Overmo" />
		<tag k="name" v="Øvermoen" />
		<tag k="place" v="farm" />
		<tag k="ssr:stedsnr" v="439532" />
	</node>
	<node id="9822385222" lat="64.5237528" lon="12.434289" version="1" timestamp="2022-06-16T10:52:37Z" changeset="122458227" uid="3497659" user="NKA">
		<tag k="name" v="Elstad" />
		<tag k="place" v="hamlet" />
		<tag k="ssr:stedsnr" v="864687" />
	</node>
	<node id="9822385223" lat="64.6558833" lon="12.5214917" version="1" timestamp="2022-06-16T10:52:37Z" changeset="122458227" uid="3497659" user="NKA">
		<tag k="historic" v="shieling" />
		<tag k="name" v="Aunsetran" />
		<tag k="place" v="isolated_dwelling" />
		<tag k="ssr:stedsnr" v="864664" />
	</node>
	<node id="9822385224" lat="64.56475" lon="12.658614" version="1" timestamp="2022-06-16T10:52:37Z" changeset="122458227" uid="3497659" user="NKA">
		<tag k="name" v="Solessetran" />
		<tag k="place" v="isolated_dwelling" />
		<tag k="ssr:stedsnr" v="197767" />
	</node>
	<node id="9822385225" lat="64.4900889" lon="12.4687472" version="1" timestamp="2022-06-16T10:52:37Z" changeset="122458227" uid="3497659" user="NKA">
		<tag k="alt_name" v="Mørkvedsetran" />
		<tag k="name" v="Rossetsetran" />
		<tag k="place" v="isolated_dwelling" />
		<tag k="ssr:stedsnr" v="863530" />
	</node>
	<node id="9822385226" lat="64.4700806" lon="12.96715" version="1" timestamp="2022-06-16T10:52:37Z" changeset="122458227" uid="3497659" user="NKA">
		<tag k="name" v="Storholmen" />
		<tag k="place" v="isolated_dwelling" />
		<tag k="ssr:stedsnr" v="716911" />
	</node>
	<node id="9822385227" lat="64.5726914" lon="12.5887877" version="1" timestamp="2022-06-16T10:52:37Z" changeset="122458227" uid="3497659" user="NKA">
		<tag k="name" v="Solbakken" />
		<tag k="place" v="farm" />
		<tag k="ssr:stedsnr" v="196667" />
	</node>
	<node id="9822385228" lat="64.5869357" lon="12.5647019" version="1" timestamp="2022-06-16T10:52:37Z" changeset="122458227" uid="3497659" user="NKA">
		<tag k="name" v="Haugen" />
		<tag k="place" v="farm" />
		<tag k="ssr:stedsnr" v="714460" />
	</node>
	<node id="9822385229" lat="64.5203056" lon="12.414889" version="1" timestamp="2022-06-16T10:52:37Z" changeset="122458227" uid="3497659" user="NKA">
		<tag k="name" v="Ellingmoen" />
		<tag k="place" v="locality" />
		<tag k="ssr:stedsnr" v="275264" />
	</node>
	<node id="9822385230" lat="64.5702444" lon="12.3656583" version="1" timestamp="2022-06-16T10:52:37Z" changeset="122458227" uid="3497659" user="NKA">
		<tag k="historic" v="shieling" />
		<tag k="name" v="Sveingardssetran" />
		<tag k="place" v="isolated_dwelling" />
		<tag k="ssr:stedsnr" v="803703" />
	</node>
	<node id="9822385231" lat="64.4663666" lon="12.9226834" version="1" timestamp="2022-06-16T10:52:37Z" changeset="122458227" uid="3497659" user="NKA">
		<tag k="name" v="Mortenslund" />
		<tag k="place" v="hamlet" />
		<tag k="ssr:stedsnr" v="317296" />
	</node>
	<node id="9822385232" lat="64.5553945" lon="12.483111" version="1" timestamp="2022-06-16T10:52:37Z" changeset="122458227" uid="3497659" user="NKA">
		<tag k="name" v="Sagmoen" />
		<tag k="place" v="hamlet" />
		<tag k="ssr:stedsnr" v="803739" />
	</node>
	<node id="9822385233" lat="64.5787111" lon="12.5354639" version="1" timestamp="2022-06-16T10:52:37Z" changeset="122458227" uid="3497659" user="NKA">
		<tag k="name" v="Bya" />
		<tag k="place" v="hamlet" />
		<tag k="ssr:stedsnr" v="682757" />
	</node>
	<node id="9822385234" lat="64.5866167" lon="12.5152056" version="1" timestamp="2022-06-16T10:52:37Z" changeset="122458227" uid="3497659" user="NKA">
		<tag k="name" v="Moen" />
		<tag k="place" v="hamlet" />
		<tag k="ssr:stedsnr" v="682758" />
	</node>
	<node id="9822385235" lat="64.4913306" lon="12.4114223" version="1" timestamp="2022-06-16T10:52:37Z" changeset="122458227" uid="3497659" user="NKA">
		<tag k="alt_name" v="Grongsetran" />
		<tag k="historic" v="shieling" />
		<tag k="name" v="Rossetsetran" />
		<tag k="place" v="isolated_dwelling" />
		<tag k="ssr:stedsnr" v="863532" />
	</node>
	<node id="9822385236" lat="64.6216242" lon="12.6027231" version="1" timestamp="2022-06-16T10:52:37Z" changeset="122458227" uid="3497659" user="NKA">
		<tag k="alt_name" v="Fjerdingen" />
		<tag k="name" v="Østre Fjerdingen" />
		<tag k="place" v="farm" />
		<tag k="ssr:stedsnr" v="411511" />
	</node>
	<node id="9822385237" lat="64.6180667" lon="12.5027138" version="1" timestamp="2022-06-16T10:52:37Z" changeset="122458227" uid="3497659" user="NKA">
		<tag k="historic" v="shieling" />
		<tag k="name" v="Mosetran" />
		<tag k="place" v="isolated_dwelling" />
		<tag k="ssr:stedsnr" v="500588" />
	</node>
	<node id="9822385238" lat="64.3706939" lon="12.338236" version="1" timestamp="2022-06-16T10:52:37Z" changeset="122458227" uid="3497659" user="NKA">
		<tag k="historic" v="shieling" />
		<tag k="name" v="Verkessetran" />
		<tag k="place" v="isolated_dwelling" />
		<tag k="ssr:stedsnr" v="898006" />
	</node>
	<node id="9822385239" lat="64.469782" lon="12.2678237" version="1" timestamp="2022-06-16T10:52:37Z" changeset="122458227" uid="3497659" user="NKA">
		<tag k="name" v="Speikan" />
		<tag k="place" v="farm" />
		<tag k="ssr:stedsnr" v="574010" />
	</node>
	<node id="9822385240" lat="64.4296666" lon="12.335589" version="1" timestamp="2022-06-16T10:52:37Z" changeset="122458227" uid="3497659" user="NKA">
		<tag k="name" v="Formo" />
		<tag k="place" v="hamlet" />
		<tag k="ssr:stedsnr" v="803487" />
	</node>
	<node id="9822385241" lat="64.5632627" lon="12.5146183" version="1" timestamp="2022-06-16T10:52:37Z" changeset="122458227" uid="3497659" user="NKA">
		<tag k="name" v="Siggerudmoen" />
		<tag k="place" v="locality" />
		<tag k="ssr:stedsnr" v="439758" />
	</node>
	<node id="9822385242" lat="64.5463306" lon="12.6293751" version="1" timestamp="2022-06-16T10:52:37Z" changeset="122458227" uid="3497659" user="NKA">
		<tag k="alt_name" v="Ingebriktsetran" />
		<tag k="historic" v="shieling" />
		<tag k="name" v="Nessetran" />
		<tag k="place" v="isolated_dwelling" />
		<tag k="ssr:stedsnr" v="378754" />
	</node>
	<node id="9822385243" lat="64.4515" lon="12.6175001" version="1" timestamp="2022-06-16T10:52:37Z" changeset="122458227" uid="3497659" user="NKA">
		<tag k="name" v="Stormoen" />
		<tag k="place" v="farm" />
		<tag k="ssr:stedsnr" v="620479" />
	</node>
	<node id="9822385244" lat="64.5767805" lon="12.5171528" version="1" timestamp="2022-06-16T10:52:37Z" changeset="122458227" uid="3497659" user="NKA">
		<tag k="name" v="Åsheim" />
		<tag k="place" v="farm" />
		<tag k="ssr:stedsnr" v="135690" />
	</node>
	<node id="9822385245" lat="64.5504044" lon="12.4806769" version="1" timestamp="2022-06-16T10:52:37Z" changeset="122458227" uid="3497659" user="NKA">
		<tag k="name" v="Sagmohaugen" />
		<tag k="place" v="farm" />
		<tag k="ssr:stedsnr" v="28676" />
	</node>
	<node id="9822385246" lat="64.5781472" lon="12.5213418" version="1" timestamp="2022-06-16T10:52:37Z" changeset="122458227" uid="3497659" user="NKA">
		<tag k="alt_name" v="Rønningen" />
		<tag k="name" v="Moarønningen" />
		<tag k="place" v="farm" />
		<tag k="ssr:stedsnr" v="257752" />
	</node>
	<node id="9822385247" lat="64.573925" lon="12.5178916" version="1" timestamp="2022-06-16T10:52:37Z" changeset="122458227" uid="3497659" user="NKA">
		<tag k="alt_name" v="Rønningen" />
		<tag k="name" v="Rønningmo" />
		<tag k="place" v="farm" />
		<tag k="ssr:stedsnr" v="75742" />
	</node>
	<node id="9822385248" lat="64.4870973" lon="12.3324472" version="1" timestamp="2022-06-16T10:52:37Z" changeset="122458227" uid="3497659" user="NKA">
		<tag k="name" v="Fossland" />
		<tag k="place" v="hamlet" />
		<tag k="ssr:stedsnr" v="681515" />
	</node>
	<node id="9822385249" lat="64.571085" lon="12.5302723" version="1" timestamp="2022-06-16T10:52:37Z" changeset="122458227" uid="3497659" user="NKA">
		<tag k="name" v="Søre Nes" />
		<tag k="place" v="farm" />
		<tag k="ssr:stedsnr" v="925743" />
	</node>
	<node id="9822385250" lat="64.3694223" lon="12.3616749" version="1" timestamp="2022-06-16T10:52:37Z" changeset="122458227" uid="3497659" user="NKA">
		<tag k="name" v="Lauvlimosetran" />
		<tag k="place" v="isolated_dwelling" />
		<tag k="ssr:stedsnr" v="594041" />
	</node>
	<node id="9822385251" lat="64.6722931" lon="12.670666" version="1" timestamp="2022-06-16T10:52:37Z" changeset="122458227" uid="3497659" user="NKA">
		<tag k="name" v="Fossem" />
		<tag k="place" v="locality" />
		<tag k="ssr:stedsnr" v="135558" />
	</node>
	<node id="9822385252" lat="64.4547889" lon="12.3762833" version="1" timestamp="2022-06-16T10:52:37Z" changeset="122458227" uid="3497659" user="NKA">
		<tag k="alt_name" v="Tømmeråssætran" />
		<tag k="name" v="Tømmeråssetran" />
		<tag k="place" v="isolated_dwelling" />
		<tag k="ssr:stedsnr" v="317511" />
	</node>
	<node id="9822385253" lat="64.5835764" lon="12.5574628" version="1" timestamp="2022-06-16T10:52:37Z" changeset="122458227" uid="3497659" user="NKA">
		<tag k="name" v="Solem" />
		<tag k="place" v="hamlet" />
		<tag k="ssr:stedsnr" v="136725" />
	</node>
	<node id="9822385254" lat="64.4558639" lon="12.2710556" version="1" timestamp="2022-06-16T10:52:37Z" changeset="122458227" uid="3497659" user="NKA">
		<tag k="alt_name" v="Kvittem" />
		<tag k="name" v="Kvitem" />
		<tag k="place" v="farm" />
		<tag k="ssr:stedsnr" v="317504" />
	</node>
	<node id="9822385255" lat="64.5024111" lon="12.3037805" version="1" timestamp="2022-06-16T10:52:37Z" changeset="122458227" uid="3497659" user="NKA">
		<tag k="historic" v="shieling" />
		<tag k="name" v="Dalsetran" />
		<tag k="place" v="isolated_dwelling" />
		<tag k="ssr:stedsnr" v="621726" />
	</node>
	<node id="9822385256" lat="64.4059806" lon="12.4152444" version="1" timestamp="2022-06-16T10:52:37Z" changeset="122458227" uid="3497659" user="NKA">
		<tag k="name" v="Ekkersetran" />
		<tag k="place" v="farm" />
		<tag k="ssr:stedsnr" v="317409" />
	</node>
	<node id="9822385257" lat="64.5957972" lon="12.520014" version="1" timestamp="2022-06-16T10:52:37Z" changeset="122458227" uid="3497659" user="NKA">
		<tag k="historic" v="shieling" />
		<tag k="name" v="Moasetran" />
		<tag k="place" v="isolated_dwelling" />
		<tag k="ssr:stedsnr" v="514657" />
	</node>
	<node id="9822385258" lat="64.4439" lon="12.3396501" version="1" timestamp="2022-06-16T10:52:37Z" changeset="122458227" uid="3497659" user="NKA">
		<tag k="name" v="Ekker" />
		<tag k="place" v="hamlet" />
		<tag k="ssr:stedsnr" v="377486" />
	</node>
	<node id="9822385259" lat="64.4602335" lon="12.3038459" version="1" timestamp="2022-06-16T10:52:37Z" changeset="122458227" uid="3497659" user="NKA">
		<tag k="name" v="Langnes" />
		<tag k="place" v="farm" />
		<tag k="ssr:stedsnr" v="620536" />
	</node>
	<node id="9822385260" lat="64.493099" lon="12.6224736" version="1" timestamp="2022-06-16T10:52:37Z" changeset="122458227" uid="3497659" user="NKA">
		<tag k="name" v="Kristenplassen" />
		<tag k="place" v="isolated_dwelling" />
		<tag k="ssr:stedsnr" v="776982" />
	</node>
	<node id="9822385261" lat="64.4000243" lon="12.344523" version="1" timestamp="2022-06-16T10:52:37Z" changeset="122458227" uid="3497659" user="NKA">
		<tag k="name" v="Formofoss" />
		<tag k="place" v="quarter" />
		<tag k="ssr:stedsnr" v="620442" />
	</node>
	<node id="9822385262" lat="64.52615" lon="12.6708667" version="1" timestamp="2022-06-16T10:52:37Z" changeset="122458227" uid="3497659" user="NKA">
		<tag k="name" v="Matisensetran" />
		<tag k="place" v="locality" />
		<tag k="ssr:stedsnr" v="776520" />
	</node>
	<node id="9822385263" lat="64.612153" lon="12.5069903" version="1" timestamp="2022-06-16T10:52:37Z" changeset="122458227" uid="3497659" user="NKA">
		<tag k="alt_name" v="Krokvassenget" />
		<tag k="name" v="Krokvassheimen" />
		<tag k="place" v="locality" />
		<tag k="ssr:stedsnr" v="864594" />
	</node>
	<node id="9822385264" lat="64.5768695" lon="12.3869167" version="1" timestamp="2022-06-16T10:52:37Z" changeset="122458227" uid="3497659" user="NKA">
		<tag k="name" v="Aurstadsetran" />
		<tag k="place" v="locality" />
		<tag k="ssr:stedsnr" v="500773" />
	</node>
	<node id="9822385265" lat="64.5684778" lon="12.5111832" version="1" timestamp="2022-06-16T10:52:37Z" changeset="122458227" uid="3497659" user="NKA">
		<tag k="alt_name" v="Myrvold" />
		<tag k="name" v="Myrvoll" />
		<tag k="place" v="farm" />
		<tag k="ssr:stedsnr" v="634732" />
	</node>
	<node id="9822385266" lat="64.5146445" lon="12.5208083" version="1" timestamp="2022-06-16T10:52:37Z" changeset="122458227" uid="3497659" user="NKA">
		<tag k="name" v="Finnmyrsetran" />
		<tag k="place" v="isolated_dwelling" />
		<tag k="ssr:stedsnr" v="499624" />
	</node>
	<node id="9822385267" lat="64.5744472" lon="12.5314612" version="1" timestamp="2022-06-16T10:52:37Z" changeset="122458227" uid="3497659" user="NKA">
		<tag k="name" v="Nordre Nes" />
		<tag k="place" v="farm" />
		<tag k="ssr:stedsnr" v="560691" />
	</node>
	<node id="9822385268" lat="64.5348666" lon="12.4098527" version="1" timestamp="2022-06-16T10:52:37Z" changeset="122458227" uid="3497659" user="NKA">
		<tag k="name" v="Aurstad" />
		<tag k="place" v="farm" />
		<tag k="ssr:stedsnr" v="560647" />
	</node>
	<node id="9822385269" lat="64.5098028" lon="12.370564" version="1" timestamp="2022-06-16T10:52:37Z" changeset="122458227" uid="3497659" user="NKA">
		<tag k="name" v="Rossetsetran" />
		<tag k="place" v="isolated_dwelling" />
		<tag k="ssr:stedsnr" v="257680" />
	</node>
	<node id="9822385270" lat="64.4557834" lon="12.5467083" version="1" timestamp="2022-06-16T10:52:37Z" changeset="122458227" uid="3497659" user="NKA">
		<tag k="name" v="Sandnessætran" />
		<tag k="place" v="locality" />
		<tag k="ssr:stedsnr" v="378517" />
	</node>
	<node id="9822385271" lat="64.4320907" lon="12.4820638" version="1" timestamp="2022-06-16T10:52:37Z" changeset="122458227" uid="3497659" user="NKA">
		<tag k="name" v="Trangen" />
		<tag k="place" v="farm" />
		<tag k="ssr:stedsnr" v="378507" />
	</node>
	<node id="9822385272" lat="64.6432825" lon="12.6075845" version="1" timestamp="2022-06-16T10:52:37Z" changeset="122458227" uid="3497659" user="NKA">
		<tag k="name" v="Fjerdingøya" />
		<tag k="place" v="farm" />
		<tag k="ssr:stedsnr" v="621649" />
	</node>
	<node id="9822385273" lat="64.5717553" lon="12.5797173" version="1" timestamp="2022-06-16T10:52:37Z" changeset="122458227" uid="3497659" user="NKA">
		<tag k="name" v="Solemsmoen" />
		<tag k="place" v="farm" />
		<tag k="ssr:stedsnr" v="621738" />
	</node>
	<node id="9822385274" lat="64.6174099" lon="12.5814373" version="1" timestamp="2022-06-16T10:52:37Z" changeset="122458227" uid="3497659" user="NKA">
		<tag k="name" v="Nymoen" />
		<tag k="place" v="farm" />
		<tag k="ssr:stedsnr" v="621559" />
	</node>
	<node id="9822385275" lat="64.4481998" lon="12.3301999" version="1" timestamp="2022-06-16T10:52:37Z" changeset="122458227" uid="3497659" user="NKA">
		<tag k="name" v="Fossem" />
		<tag k="place" v="farm" />
		<tag k="ssr:stedsnr" v="924463" />
	</node>
	<node id="9822385276" lat="64.5388889" lon="12.4634584" version="1" timestamp="2022-06-16T10:52:37Z" changeset="122458227" uid="3497659" user="NKA">
		<tag k="historic" v="shieling" />
		<tag k="name" v="Haustsetervollen" />
		<tag k="place" v="isolated_dwelling" />
		<tag k="ssr:stedsnr" v="332706" />
	</node>
	<node id="9822385277" lat="64.5087593" lon="12.3535091" version="1" timestamp="2022-06-16T10:52:37Z" changeset="122458227" uid="3497659" user="NKA">
		<tag k="alt_name" v="Spennmyra" />
		<tag k="name" v="Myra" />
		<tag k="place" v="farm" />
		<tag k="ssr:stedsnr" v="621670" />
	</node>
	<node id="9822385278" lat="64.5844361" lon="12.4369556" version="1" timestamp="2022-06-16T10:52:37Z" changeset="122458227" uid="3497659" user="NKA">
		<tag k="historic" v="shieling" />
		<tag k="name" v="Storengsetran" />
		<tag k="place" v="isolated_dwelling" />
		<tag k="ssr:stedsnr" v="533885" />
	</node>
	<node id="9822385279" lat="64.5725139" lon="12.5126111" version="1" timestamp="2022-06-16T10:52:37Z" changeset="122458227" uid="3497659" user="NKA">
		<tag k="name" v="Bruheim" />
		<tag k="place" v="farm" />
		<tag k="ssr:stedsnr" v="318710" />
	</node>
	<node id="9822385280" lat="64.5191639" lon="12.2821584" version="1" timestamp="2022-06-16T10:52:37Z" changeset="122458227" uid="3497659" user="NKA">
		<tag k="historic" v="shieling" />
		<tag k="name" v="Austtundalssetran" />
		<tag k="place" v="isolated_dwelling" />
		<tag k="ssr:stedsnr" v="378663" />
	</node>
	<node id="9822385281" lat="64.4734417" lon="12.6905555" version="1" timestamp="2022-06-16T10:52:37Z" changeset="122458227" uid="3497659" user="NKA">
		<tag k="name" v="Storlisetran" />
		<tag k="place" v="locality" />
		<tag k="ssr:stedsnr" v="75593" />
	</node>
	<node id="9822385282" lat="64.5583833" lon="12.3484223" version="1" timestamp="2022-06-16T10:52:37Z" changeset="122458227" uid="3497659" user="NKA">
		<tag k="historic" v="shieling" />
		<tag k="name" v="Gammelsetran" />
		<tag k="place" v="isolated_dwelling" />
		<tag k="ssr:stedsnr" v="29308" />
	</node>
	<node id="9822385283" lat="64.4502519" lon="12.2883639" version="1" timestamp="2022-06-16T10:52:37Z" changeset="122458227" uid="3497659" user="NKA">
		<tag k="name" v="Rosten" />
		<tag k="place" v="hamlet" />
		<tag k="ssr:stedsnr" v="332357" />
	</node>
	<node id="9822385284" lat="64.4678639" lon="12.2723028" version="1" timestamp="2022-06-16T10:52:37Z" changeset="122458227" uid="3497659" user="NKA">
		<tag k="name" v="Allmannmoen" />
		<tag k="place" v="farm" />
		<tag k="ssr:stedsnr" v="742513" />
	</node>
	<node id="9822385285" lat="64.528425" lon="12.7215556" version="1" timestamp="2022-06-16T10:52:37Z" changeset="122458227" uid="3497659" user="NKA">
		<tag k="name" v="Tiern" />
		<tag k="place" v="isolated_dwelling" />
		<tag k="ssr:stedsnr" v="864321" />
	</node>
	<node id="9822385286" lat="64.4860417" lon="12.6385167" version="1" timestamp="2022-06-16T10:52:37Z" changeset="122458227" uid="3497659" user="NKA">
		<tag k="alt_name" v="Bengtsplassen" />
		<tag k="name" v="Møkkelvassåsen" />
		<tag k="place" v="locality" />
		<tag k="ssr:stedsnr" v="14477" />
	</node>
	<node id="9822385287" lat="64.446125" lon="12.3276806" version="1" timestamp="2022-06-16T10:52:37Z" changeset="122458227" uid="3497659" user="NKA">
		<tag k="name" v="Rolandsgjelet" />
		<tag k="place" v="farm" />
		<tag k="ssr:stedsnr" v="28342" />
	</node>
	<node id="9822385288" lat="64.5400305" lon="12.3173501" version="1" timestamp="2022-06-16T10:52:37Z" changeset="122458227" uid="3497659" user="NKA">
		<tag k="historic" v="shieling" />
		<tag k="name" v="Nordsetran" />
		<tag k="place" v="isolated_dwelling" />
		<tag k="ssr:stedsnr" v="75770" />
	</node>
	<node id="9822385289" lat="64.5773612" lon="12.4422722" version="1" timestamp="2022-06-16T10:52:37Z" changeset="122458227" uid="3497659" user="NKA">
		<tag k="name" v="Gammelsetermoen" />
		<tag k="place" v="isolated_dwelling" />
		<tag k="ssr:stedsnr" v="351858" />
	</node>
	<node id="9822385290" lat="64.6900444" lon="12.5559888" version="1" timestamp="2022-06-16T10:52:37Z" changeset="122458227" uid="3497659" user="NKA">
		<tag k="name" v="Flakksetran" />
		<tag k="place" v="locality" />
		<tag k="ssr:stedsnr" v="682640" />
	</node>
	<node id="9822385291" lat="64.4497" lon="12.2890084" version="1" timestamp="2022-06-16T10:52:37Z" changeset="122458227" uid="3497659" user="NKA">
		<tag k="name" v="Skogly" />
		<tag k="place" v="farm" />
		<tag k="ssr:stedsnr" v="14484" />
	</node>
	<node id="9822385292" lat="64.5381611" lon="12.5598055" version="1" timestamp="2022-06-16T10:52:37Z" changeset="122458227" uid="3497659" user="NKA">
		<tag k="historic" v="shieling" />
		<tag k="name" v="Sagmosetran" />
		<tag k="place" v="isolated_dwelling" />
		<tag k="ssr:stedsnr" v="500721" />
	</node>
	<node id="9822385293" lat="64.5933019" lon="12.5584521" version="1" timestamp="2022-06-16T10:52:37Z" changeset="122458227" uid="3497659" user="NKA">
		<tag k="alt_name" v="Skavmo;Skamoen" />
		<tag k="name" v="Skavmoen" />
		<tag k="place" v="farm" />
		<tag k="ssr:stedsnr" v="682600" />
	</node>
	<node id="9822385294" lat="64.5735472" lon="12.366086" version="1" timestamp="2022-06-16T10:52:37Z" changeset="122458227" uid="3497659" user="NKA">
		<tag k="name" v="Helmersetran" />
		<tag k="place" v="locality" />
		<tag k="ssr:stedsnr" v="925749" />
	</node>
	<node id="9822385295" lat="64.4623889" lon="12.2116528" version="1" timestamp="2022-06-16T10:52:37Z" changeset="122458227" uid="3497659" user="NKA">
		<tag k="name" v="Berge" />
		<tag k="place" v="hamlet" />
		<tag k="ssr:stedsnr" v="559701" />
	</node>
	<node id="9822385296" lat="64.5706851" lon="12.5780306" version="1" timestamp="2022-06-16T10:52:37Z" changeset="122458227" uid="3497659" user="NKA">
		<tag k="name" v="Myrvang" />
		<tag k="place" v="farm" />
		<tag k="ssr:stedsnr" v="378716" />
	</node>
	<node id="9822385297" lat="64.4744022" lon="12.2060805" version="1" timestamp="2022-06-16T10:52:37Z" changeset="122458227" uid="3497659" user="NKA">
		<tag k="name" v="Sklett" />
		<tag k="place" v="hamlet" />
		<tag k="ssr:stedsnr" v="271021" />
	</node>
	<node id="9822385298" lat="64.5472195" lon="12.2749833" version="1" timestamp="2022-06-16T10:52:37Z" changeset="122458227" uid="3497659" user="NKA">
		<tag k="historic" v="shieling" />
		<tag k="name" v="Væremssetran" />
		<tag k="place" v="isolated_dwelling" />
		<tag k="ssr:stedsnr" v="271250" />
	</node>
	<node id="9822385299" lat="64.5813139" lon="12.564461" version="1" timestamp="2022-06-16T10:52:37Z" changeset="122458227" uid="3497659" user="NKA">
		<tag k="name" v="Skogvoll" />
		<tag k="place" v="farm" />
		<tag k="ssr:stedsnr" v="257745" />
	</node>
	<node id="9822385300" lat="64.4383159" lon="12.1906227" version="1" timestamp="2022-06-16T10:52:37Z" changeset="122458227" uid="3497659" user="NKA">
		<tag k="name" v="Jøresnessetran" />
		<tag k="place" v="locality" />
		<tag k="ssr:stedsnr" v="196723" />
	</node>
	<node id="9822385301" lat="64.4585427" lon="12.1867613" version="1" timestamp="2022-06-16T10:52:37Z" changeset="122458227" uid="3497659" user="NKA">
		<tag k="name" v="Jørem" />
		<tag k="place" v="hamlet" />
		<tag k="ssr:stedsnr" v="150427" />
	</node>
	<node id="9822385302" lat="64.5788111" lon="12.554286" version="1" timestamp="2022-06-16T10:52:37Z" changeset="122458227" uid="3497659" user="NKA">
		<tag k="name" v="Myran" />
		<tag k="place" v="farm" />
		<tag k="ssr:stedsnr" v="75753" />
	</node>
	<node id="9822385303" lat="64.4563197" lon="12.2011382" version="1" timestamp="2022-06-16T10:52:37Z" changeset="122458227" uid="3497659" user="NKA">
		<tag k="name" v="Lonbakkan" />
		<tag k="place" v="farm" />
		<tag k="ssr:stedsnr" v="75750" />
	</node>
	<node id="9822385304" lat="64.6217953" lon="12.5846949" version="1" timestamp="2022-06-16T10:52:37Z" changeset="122458227" uid="3497659" user="NKA">
		<tag k="name" v="Aunet" />
		<tag k="place" v="hamlet" />
		<tag k="ssr:stedsnr" v="15539" />
	</node>
	<node id="9822385305" lat="64.4799378" lon="12.1372237" version="1" timestamp="2022-06-16T10:52:37Z" changeset="122458227" uid="3497659" user="NKA">
		<tag k="name" v="Brauta" />
		<tag k="place" v="farm" />
		<tag k="ssr:stedsnr" v="446049" />
	</node>
	<node id="9822385306" lat="64.4717197" lon="12.1422071" version="1" timestamp="2022-06-16T10:52:37Z" changeset="122458227" uid="3497659" user="NKA">
		<tag k="name" v="Vestre Øyem" />
		<tag k="place" v="farm" />
		<tag k="ssr:stedsnr" v="60762" />
	</node>
	<node id="9822385307" lat="64.468125" lon="12.0977666" version="1" timestamp="2022-06-16T10:52:37Z" changeset="122458227" uid="3497659" user="NKA">
		<tag k="name" v="Veiemsmoen" />
		<tag k="place" v="farm" />
		<tag k="ssr:stedsnr" v="924770" />
	</node>
	<node id="9822385308" lat="64.4792916" lon="12.0884333" version="1" timestamp="2022-06-16T10:52:37Z" changeset="122458227" uid="3497659" user="NKA">
		<tag k="historic" v="shieling" />
		<tag k="name" v="Veiessetran" />
		<tag k="place" v="isolated_dwelling" />
		<tag k="ssr:stedsnr" v="803807" />
	</node>
	<node id="9822385309" lat="64.4807278" lon="12.182214" version="1" timestamp="2022-06-16T10:52:37Z" changeset="122458227" uid="3497659" user="NKA">
		<tag k="name" v="Solvang" />
		<tag k="place" v="farm" />
		<tag k="ssr:stedsnr" v="742779" />
	</node>
	<node id="9822385310" lat="64.4846722" lon="12.1126" version="1" timestamp="2022-06-16T10:52:37Z" changeset="122458227" uid="3497659" user="NKA">
		<tag k="historic" v="shieling" />
		<tag k="name" v="Samuelsetran" />
		<tag k="place" v="isolated_dwelling" />
		<tag k="ssr:stedsnr" v="331065" />
	</node>
	<node id="9822385311" lat="64.492546" lon="12.2630778" version="1" timestamp="2022-06-16T10:52:37Z" changeset="122458227" uid="3497659" user="NKA">
		<tag k="historic" v="shieling" />
		<tag k="name" v="Bergsmosetran" />
		<tag k="place" v="isolated_dwelling" />
		<tag k="ssr:stedsnr" v="696036" />
	</node>
	<node id="9822385312" lat="64.4512677" lon="12.2898939" version="1" timestamp="2022-06-16T10:52:37Z" changeset="122458227" uid="3497659" user="NKA">
		<tag k="name" v="Rostamoen" />
		<tag k="place" v="farm" />
		<tag k="ssr:stedsnr" v="681551" />
	</node>
	<node id="9822385313" lat="64.4813273" lon="12.1764532" version="1" timestamp="2022-06-16T10:52:37Z" changeset="122458227" uid="3497659" user="NKA">
		<tag k="alt_name" v="Holo" />
		<tag k="name" v="Holomo" />
		<tag k="place" v="farm" />
		<tag k="ssr:stedsnr" v="559747" />
	</node>
	<node id="9822385314" lat="64.4721341" lon="12.1585777" version="1" timestamp="2022-06-16T10:52:37Z" changeset="122458227" uid="3497659" user="NKA">
		<tag k="name" v="Leir" />
		<tag k="place" v="hamlet" />
		<tag k="ssr:stedsnr" v="939023" />
	</node>
	<node id="9822385315" lat="64.4917271" lon="12.342232" version="1" timestamp="2022-06-16T10:52:37Z" changeset="122458227" uid="3497659" user="NKA">
		<tag k="name" v="Fosslandsnesa" />
		<tag k="place" v="farm" />
		<tag k="ssr:stedsnr" v="559518" />
	</node>
	<node id="9822385316" lat="64.4667139" lon="12.3133306" version="1" timestamp="2022-06-16T10:52:37Z" changeset="122458227" uid="3497659" user="NKA">
		<tag k="name" v="Grovin" />
		<tag k="place" v="neighbourhood" />
		<tag k="ssr:stedsnr" v="393378" />
	</node>
	<node id="9822385317" lat="64.4712042" lon="12.2077488" version="1" timestamp="2022-06-16T10:52:37Z" changeset="122458227" uid="3497659" user="NKA">
		<tag k="name" v="Sklettneset" />
		<tag k="place" v="farm" />
		<tag k="ssr:stedsnr" v="499638" />
	</node>
	<node id="9822385318" lat="64.4691325" lon="12.1305233" version="1" timestamp="2022-06-16T10:52:37Z" changeset="122458227" uid="3497659" user="NKA">
		<tag k="name" v="Bjørka" />
		<tag k="place" v="farm" />
		<tag k="ssr:stedsnr" v="863762" />
	</node>
	<node id="9822385319" lat="64.4554107" lon="12.2237017" version="1" timestamp="2022-06-16T10:52:37Z" changeset="122458227" uid="3497659" user="NKA">
		<tag k="name" v="Væremsneset" />
		<tag k="place" v="farm" />
		<tag k="ssr:stedsnr" v="378599" />
	</node>
	<node id="9822385320" lat="64.4564944" lon="12.2062361" version="1" timestamp="2022-06-16T10:52:37Z" changeset="122458227" uid="3497659" user="NKA">
		<tag k="name" v="Rønningen" />
		<tag k="place" v="farm" />
		<tag k="ssr:stedsnr" v="378728" />
	</node>
	<node id="9822385321" lat="64.4639722" lon="12.1201888" version="1" timestamp="2022-06-16T10:52:37Z" changeset="122458227" uid="3497659" user="NKA">
		<tag k="name" v="Bjørkamoen" />
		<tag k="place" v="locality" />
		<tag k="ssr:stedsnr" v="325025" />
	</node>
	<node id="9822385322" lat="64.4567584" lon="12.3368863" version="1" timestamp="2022-06-16T10:52:37Z" changeset="122458227" uid="3497659" user="NKA">
		<tag k="name" v="Åkvisla" />
		<tag k="place" v="neighbourhood" />
		<tag k="ssr:stedsnr" v="272346" />
	</node>
	<node id="9822385323" lat="64.46495" lon="12.8252918" version="1" timestamp="2022-06-16T10:52:37Z" changeset="122458227" uid="3497659" user="NKA">
		<tag k="name" v="Hansmoen" />
		<tag k="place" v="locality" />
		<tag k="ssr:stedsnr" v="317297" />
	</node>
	<node id="9822385324" lat="64.4744917" lon="12.1871944" version="1" timestamp="2022-06-16T10:52:37Z" changeset="122458227" uid="3497659" user="NKA">
		<tag k="name" v="Føynem" />
		<tag k="place" v="hamlet" />
		<tag k="ssr:stedsnr" v="256750" />
	</node>
	<node id="9822385325" lat="64.4780048" lon="12.3280294" version="1" timestamp="2022-06-16T10:52:37Z" changeset="122458227" uid="3497659" user="NKA">
		<tag k="name" v="Nygård" />
		<tag k="place" v="farm" />
		<tag k="ssr:stedsnr" v="878423" />
	</node>
	<node id="9822385326" lat="64.4535031" lon="12.2359865" version="1" timestamp="2022-06-16T10:52:37Z" changeset="122458227" uid="3497659" user="NKA">
		<tag k="name" v="Sem" />
		<tag k="place" v="hamlet" />
		<tag k="ssr:stedsnr" v="864592" />
	</node>
	<node id="9822385327" lat="64.4615722" lon="12.7614612" version="1" timestamp="2022-06-16T10:52:37Z" changeset="122458227" uid="3497659" user="NKA">
		<tag k="name" v="Mikalplassen" />
		<tag k="place" v="isolated_dwelling" />
		<tag k="ssr:stedsnr" v="48536" />
	</node>
	<node id="9822385328" lat="64.4668694" lon="12.1381056" version="1" timestamp="2022-06-16T10:52:37Z" changeset="122458227" uid="3497659" user="NKA">
		<tag k="name" v="Øyesmoen" />
		<tag k="place" v="farm" />
		<tag k="ssr:stedsnr" v="620761" />
	</node>
	<node id="9822385329" lat="64.4834278" lon="12.1493612" version="1" timestamp="2022-06-16T10:52:37Z" changeset="122458227" uid="3497659" user="NKA">
		<tag k="name" v="Holand" />
		<tag k="place" v="locality" />
		<tag k="ssr:stedsnr" v="271087" />
	</node>
	<node id="9822385330" lat="64.480473" lon="12.1535001" version="1" timestamp="2022-06-16T10:52:37Z" changeset="122458227" uid="3497659" user="NKA">
		<tag k="name" v="Holandsøya" />
		<tag k="place" v="farm" />
		<tag k="ssr:stedsnr" v="74777" />
	</node>
	<node id="9822385331" lat="64.50135" lon="12.261489" version="1" timestamp="2022-06-16T10:52:37Z" changeset="122458227" uid="3497659" user="NKA">
		<tag k="name" v="Nyhagan" />
		<tag k="place" v="isolated_dwelling" />
		<tag k="ssr:stedsnr" v="560678" />
	</node>
	<node id="9822385332" lat="64.4659685" lon="12.2471714" version="1" timestamp="2022-06-16T10:52:37Z" changeset="122458227" uid="3497659" user="NKA">
		<tag k="name" v="Moum" />
		<tag k="place" v="farm" />
		<tag k="ssr:stedsnr" v="499480" />
	</node>
	<node id="9822385333" lat="64.456043" lon="12.3395561" version="1" timestamp="2022-06-16T10:52:37Z" changeset="122458227" uid="3497659" user="NKA">
		<tag k="alt_name" v="Larsmoen" />
		<tag k="name" v="Moen" />
		<tag k="place" v="farm" />
		<tag k="ssr:stedsnr" v="454342" />
	</node>
	<node id="9822385334" lat="64.4781713" lon="12.3222236" version="1" timestamp="2022-06-16T10:52:37Z" changeset="122458227" uid="3497659" user="NKA">
		<tag k="name" v="Berge" />
		<tag k="place" v="farm" />
		<tag k="ssr:stedsnr" v="803552" />
	</node>
	<node id="9822385335" lat="64.5327944" lon="12.656289" version="1" timestamp="2022-06-16T10:52:37Z" changeset="122458227" uid="3497659" user="NKA">
		<tag k="historic" v="shieling" />
		<tag k="name" v="Danielsetran" />
		<tag k="place" v="isolated_dwelling" />
		<tag k="ssr:stedsnr" v="804672" />
	</node>
	<node id="9822385336" lat="64.4345194" lon="12.4421888" version="1" timestamp="2022-06-16T10:52:37Z" changeset="122458227" uid="3497659" user="NKA">
		<tag k="name" v="Ånessetran" />
		<tag k="place" v="isolated_dwelling" />
		<tag k="ssr:stedsnr" v="803485" />
	</node>
	<node id="9822385337" lat="64.4565305" lon="12.2570916" version="1" timestamp="2022-06-16T10:52:37Z" changeset="122458227" uid="3497659" user="NKA">
		<tag k="name" v="Heggem" />
		<tag k="place" v="farm" />
		<tag k="ssr:stedsnr" v="75563" />
	</node>
	<node id="9822385338" lat="64.4643586" lon="12.3111141" version="1" timestamp="2022-06-16T10:52:37Z" changeset="122458227" uid="3497659" user="NKA">
		<tag k="name" v="Medjå" />
		<tag k="place" v="quarter" />
		<tag k="ssr:stedsnr" v="453390" />
	</node>
	<node id="9822385339" lat="64.4533777" lon="12.2097" version="1" timestamp="2022-06-16T10:52:37Z" changeset="122458227" uid="3497659" user="NKA">
		<tag k="name" v="Værem" />
		<tag k="place" v="hamlet" />
		<tag k="ssr:stedsnr" v="742713" />
	</node>
	<node id="9822385340" lat="64.5385167" lon="12.7615972" version="1" timestamp="2022-06-16T10:52:37Z" changeset="122458227" uid="3497659" user="NKA">
		<tag k="historic" v="shieling" />
		<tag k="name" v="Solemsmosetran" />
		<tag k="place" v="isolated_dwelling" />
		<tag k="ssr:stedsnr" v="682334" />
	</node>
	<node id="9822385341" lat="64.4491611" lon="12.2820806" version="1" timestamp="2022-06-16T10:52:37Z" changeset="122458227" uid="3497659" user="NKA">
		<tag k="alt_name" v="Rydningen" />
		<tag k="name" v="Rønningen" />
		<tag k="place" v="farm" />
		<tag k="ssr:stedsnr" v="681480" />
	</node>
	<node id="9822385342" lat="64.5698417" lon="12.7196916" version="1" timestamp="2022-06-16T10:52:37Z" changeset="122458227" uid="3497659" user="NKA">
		<tag k="name" v="Solemssetran" />
		<tag k="place" v="isolated_dwelling" />
		<tag k="ssr:stedsnr" v="499218" />
	</node>
	<node id="5197144184" lat="64.4618292" lon="12.1618806" version="2" timestamp="2022-01-24T21:00:15Z" changeset="116559033" uid="3497659" user="NKA" />
	<node id="5197144185" lat="64.4618381" lon="12.1622978" version="2" timestamp="2022-01-24T21:00:15Z" changeset="116559033" uid="3497659" user="NKA" />
	<node id="5197142319" lat="64.4759017" lon="12.1587187" version="1" timestamp="2017-10-28T23:33:18Z" changeset="53329889" uid="2114448" user="FredrikLindseth_import" />
	<node id="5197142320" lat="64.4758201" lon="12.1584691" version="1" timestamp="2017-10-28T23:33:18Z" changeset="53329889" uid="2114448" user="FredrikLindseth_import" />
	<node id="5197147982" lat="64.3717052" lon="12.3369129" version="2" timestamp="2022-01-24T21:00:15Z" changeset="116559033" uid="3497659" user="NKA" />
	<node id="5197148010" lat="64.3722074" lon="12.3369011" version="2" timestamp="2022-01-24T21:00:15Z" changeset="116559033" uid="3497659" user="NKA" />
	<node id="5197148834" lat="64.3907078" lon="12.3507219" version="1" timestamp="2017-10-28T23:35:01Z" changeset="53329936" uid="2114448" user="FredrikLindseth_import" />
	<node id="295208445" lat="64.3930603" lon="12.3528718" version="7" timestamp="2017-10-28T23:38:46Z" changeset="53329991" uid="2114448" user="FredrikLindseth_import" />
	<node id="2354946361" lat="64.3895527" lon="12.3698792" version="3" timestamp="2019-02-02T23:46:09Z" changeset="66867342" uid="3296383" user="Reitstoen_import" />
	<node id="2354946362" lat="64.3894185" lon="12.3709087" version="3" timestamp="2019-02-02T23:46:09Z" changeset="66867342" uid="3296383" user="Reitstoen_import" />
	<node id="2354946363" lat="64.3886334" lon="12.3706936" version="3" timestamp="2019-02-02T23:46:09Z" changeset="66867342" uid="3296383" user="Reitstoen_import" />
	<node id="2354947439" lat="64.3891682" lon="12.3699783" version="2" timestamp="2019-02-02T23:46:09Z" changeset="66867342" uid="3296383" user="Reitstoen_import" />
	<node id="2354947441" lat="64.3888612" lon="12.371377" version="2" timestamp="2019-02-02T23:46:09Z" changeset="66867342" uid="3296383" user="Reitstoen_import" />
	<node id="2354947443" lat="64.3896649" lon="12.3701382" version="2" timestamp="2019-02-02T23:46:09Z" changeset="66867342" uid="3296383" user="Reitstoen_import" />
	<node id="6254674473" lat="64.3891485" lon="12.3713698" version="1" timestamp="2019-02-02T23:43:17Z" changeset="66867306" uid="3296383" user="Reitstoen_import" />
	<node id="6254674475" lat="64.3896164" lon="12.3704333" version="1" timestamp="2019-02-02T23:43:17Z" changeset="66867306" uid="3296383" user="Reitstoen_import" />
	<node id="6254676297" lat="64.3888594" lon="12.3702777" version="1" timestamp="2019-02-02T23:43:44Z" changeset="66867342" uid="3296383" user="Reitstoen_import" />
	<node id="6254676298" lat="64.3886758" lon="12.3710627" version="1" timestamp="2019-02-02T23:43:44Z" changeset="66867342" uid="3296383" user="Reitstoen_import" />
	<node id="503672222" lat="64.4616698" lon="12.1659783" version="4" timestamp="2022-01-24T21:00:15Z" changeset="116559033" uid="3497659" user="NKA" />
	<node id="5197144144" lat="64.4617232" lon="12.1664099" version="2" timestamp="2019-06-23T14:44:06Z" changeset="71533775" uid="32112" user="SverigeFan" />
	<node id="5197145736" lat="64.4613826" lon="12.1635888" version="2" timestamp="2019-06-23T14:44:06Z" changeset="71533775" uid="32112" user="SverigeFan" />
	<node id="5197145737" lat="64.4614414" lon="12.1640763" version="2" timestamp="2022-01-24T21:00:15Z" changeset="116559033" uid="3497659" user="NKA" />
	<node id="1317459831" lat="64.4482231" lon="12.2977441" version="6" timestamp="2022-01-24T21:00:15Z" changeset="116559033" uid="3497659" user="NKA" />
	<node id="5197142020" lat="64.4482283" lon="12.2987226" version="2" timestamp="2022-01-24T21:00:15Z" changeset="116559033" uid="3497659" user="NKA" />
	<node id="60212334" lat="64.4026698" lon="12.3256653" version="4" timestamp="2017-10-28T23:38:43Z" changeset="53329991" uid="2114448" user="FredrikLindseth_import" />
	<node id="2081562002" lat="64.4029065" lon="12.3255868" version="2" timestamp="2022-01-24T21:00:15Z" changeset="116559033" uid="3497659" user="NKA" />
	<node id="2081562005" lat="64.4030988" lon="12.3255332" version="3" timestamp="2022-01-24T21:00:15Z" changeset="116559033" uid="3497659" user="NKA" />
	<node id="60212358" lat="64.4598396" lon="12.2932967" version="5" timestamp="2017-10-28T23:38:43Z" changeset="53329991" uid="2114448" user="FredrikLindseth_import" />
	<node id="503668856" lat="64.4604747" lon="12.2903341" version="5" timestamp="2022-01-24T21:00:15Z" changeset="116559033" uid="3497659" user="NKA" />
	<node id="2081562072" lat="64.4600171" lon="12.2932947" version="3" timestamp="2017-10-28T23:39:22Z" changeset="53329991" uid="2114448" user="FredrikLindseth_import" />
	<node id="2081562077" lat="64.4606589" lon="12.2933844" version="3" timestamp="2017-10-28T23:39:22Z" changeset="53329991" uid="2114448" user="FredrikLindseth_import" />
	<node id="2081562092" lat="64.4613109" lon="12.293615" version="2" timestamp="2013-07-13T14:02:54Z" changeset="16937311" uid="32112" user="SverigeFan" />
	<node id="2081562093" lat="64.4614715" lon="12.2937113" version="2" timestamp="2013-07-13T14:02:54Z" changeset="16937311" uid="32112" user="SverigeFan" />
	<node id="2383270186" lat="64.4603905" lon="12.2933381" version="2" timestamp="2017-10-28T23:39:32Z" changeset="53329991" uid="2114448" user="FredrikLindseth_import" />
	<node id="5197145739" lat="64.4595998" lon="12.2933551" version="1" timestamp="2017-10-28T23:34:20Z" changeset="53329936" uid="2114448" user="FredrikLindseth_import" />
	<node id="5197145740" lat="64.4594338" lon="12.2933871" version="1" timestamp="2017-10-28T23:34:20Z" changeset="53329936" uid="2114448" user="FredrikLindseth_import" />
	<node id="5197145742" lat="64.4599736" lon="12.2900633" version="1" timestamp="2017-10-28T23:34:20Z" changeset="53329936" uid="2114448" user="FredrikLindseth_import" />
	<node id="5197145743" lat="64.4591914" lon="12.2934605" version="1" timestamp="2017-10-28T23:34:20Z" changeset="53329936" uid="2114448" user="FredrikLindseth_import" />
	<node id="5197145951" lat="64.4595984" lon="12.2932762" version="1" timestamp="2017-10-28T23:34:22Z" changeset="53329936" uid="2114448" user="FredrikLindseth_import" />
	<node id="5197145952" lat="64.4596856" lon="12.2933081" version="1" timestamp="2017-10-28T23:34:22Z" changeset="53329936" uid="2114448" user="FredrikLindseth_import" />
	<node id="5197146011" lat="64.4591855" lon="12.2933677" version="1" timestamp="2017-10-28T23:34:23Z" changeset="53329936" uid="2114448" user="FredrikLindseth_import" />
	<node id="60212361" lat="64.4638684" lon="12.2964234" version="3" timestamp="2017-10-28T23:38:43Z" changeset="53329991" uid="2114448" user="FredrikLindseth_import" />
	<node id="1928615898" lat="64.4625726" lon="12.2945966" version="2" timestamp="2017-10-28T23:39:19Z" changeset="53329991" uid="2114448" user="FredrikLindseth_import" />
	<node id="1928615899" lat="64.4630792" lon="12.2951911" version="2" timestamp="2017-10-28T23:39:19Z" changeset="53329991" uid="2114448" user="FredrikLindseth_import" />
	<node id="1928615900" lat="64.4636469" lon="12.2960363" version="2" timestamp="2017-10-28T23:39:19Z" changeset="53329991" uid="2114448" user="FredrikLindseth_import" />
	<node id="5197145287" lat="64.4639916" lon="12.2966595" version="1" timestamp="2017-10-28T23:34:09Z" changeset="53329936" uid="2114448" user="FredrikLindseth_import" />
	<node id="5197145288" lat="64.463349" lon="12.2955681" version="1" timestamp="2017-10-28T23:34:09Z" changeset="53329936" uid="2114448" user="FredrikLindseth_import" />
	<node id="5197145289" lat="64.4628547" lon="12.2949118" version="1" timestamp="2017-10-28T23:34:09Z" changeset="53329936" uid="2114448" user="FredrikLindseth_import" />
	<node id="5197145290" lat="64.4626807" lon="12.2947129" version="1" timestamp="2017-10-28T23:34:09Z" changeset="53329936" uid="2114448" user="FredrikLindseth_import" />
	<node id="5197141364" lat="64.4663254" lon="12.3041598" version="1" timestamp="2017-10-28T23:33:05Z" changeset="53329889" uid="2114448" user="FredrikLindseth_import" />
	<node id="5197141365" lat="64.4662722" lon="12.3039129" version="1" timestamp="2017-10-28T23:33:05Z" changeset="53329889" uid="2114448" user="FredrikLindseth_import" />
	<node id="5197145921" lat="64.4665917" lon="12.310937" version="2" timestamp="2018-07-22T13:57:27Z" changeset="60953035" uid="32112" user="SverigeFan" />
	<node id="5197146822" lat="64.4671676" lon="12.3101211" version="1" timestamp="2017-10-28T23:34:29Z" changeset="53329936" uid="2114448" user="FredrikLindseth_import" />
	<node id="5158862872" lat="64.4566102" lon="12.3376931" version="2" timestamp="2017-10-28T23:40:23Z" changeset="53329991" uid="2114448" user="FredrikLindseth_import" />
	<node id="5197099903" lat="64.4565685" lon="12.3377255" version="1" timestamp="2017-10-28T23:31:20Z" changeset="53329889" uid="2114448" user="FredrikLindseth_import" />
	<node id="5197135569" lat="64.4566769" lon="12.3376199" version="1" timestamp="2017-10-28T23:31:22Z" changeset="53329889" uid="2114448" user="FredrikLindseth_import" />
	<node id="5197149080" lat="64.4130724" lon="12.4393529" version="1" timestamp="2017-10-28T23:35:06Z" changeset="53329936" uid="2114448" user="FredrikLindseth_import" />
	<node id="5197153828" lat="64.4131663" lon="12.4395341" version="1" timestamp="2017-10-28T23:36:30Z" changeset="53329936" uid="2114448" user="FredrikLindseth_import" />
	<node id="5197153578" lat="64.4312029" lon="12.4819536" version="1" timestamp="2017-10-28T23:36:36Z" changeset="53329936" uid="2114448" user="FredrikLindseth_import" />
	<node id="5197153752" lat="64.4311679" lon="12.4819163" version="1" timestamp="2017-10-28T23:36:29Z" changeset="53329936" uid="2114448" user="FredrikLindseth_import" />
	<node id="60213259" lat="64.5257997" lon="12.3850197" version="6" timestamp="2013-07-13T13:38:02Z" changeset="16937074" uid="32112" user="SverigeFan" />
	<node id="2383247607" lat="64.5260813" lon="12.3854843" version="2" timestamp="2022-01-24T21:00:15Z" changeset="116559033" uid="3497659" user="NKA" />
	<node id="9445777807" lat="64.525971" lon="12.3852825" version="1" timestamp="2022-01-24T21:00:15Z" changeset="116559033" uid="3497659" user="NKA" />
	<node id="9445777808" lat="64.5258609" lon="12.3851028" version="1" timestamp="2022-01-24T21:00:15Z" changeset="116559033" uid="3497659" user="NKA" />
	<node id="9445777809" lat="64.5259044" lon="12.3851725" version="1" timestamp="2022-01-24T21:00:15Z" changeset="116559033" uid="3497659" user="NKA" />
	<node id="9445777810" lat="64.5260235" lon="12.3853757" version="1" timestamp="2022-01-24T21:00:15Z" changeset="116559033" uid="3497659" user="NKA" />
	<node id="5197137579" lat="64.5228053" lon="12.4120307" version="1" timestamp="2017-10-28T23:31:55Z" changeset="53329889" uid="2114448" user="FredrikLindseth_import" />
	<node id="5197137580" lat="64.5237094" lon="12.4095185" version="1" timestamp="2017-10-28T23:31:55Z" changeset="53329889" uid="2114448" user="FredrikLindseth_import" />
	<node id="5197137152" lat="64.5241266" lon="12.4181086" version="1" timestamp="2017-10-28T23:31:57Z" changeset="53329889" uid="2114448" user="FredrikLindseth_import" />
	<node id="5197137153" lat="64.5238818" lon="12.4176646" version="1" timestamp="2017-10-28T23:31:57Z" changeset="53329889" uid="2114448" user="FredrikLindseth_import" />
	<node id="2081562252" lat="64.5343331" lon="12.3929325" version="3" timestamp="2018-07-22T15:06:11Z" changeset="60954436" uid="32112" user="SverigeFan" />
	<node id="2081562255" lat="64.5344356" lon="12.3928802" version="3" timestamp="2018-07-22T15:06:11Z" changeset="60954436" uid="32112" user="SverigeFan" />
	<node id="8832466543" lat="64.52564" lon="12.4285183" version="1" timestamp="2021-06-14T14:14:39Z" changeset="106342275" uid="3497659" user="NKA" />
	<node id="8832466544" lat="64.5255758" lon="12.4285147" version="1" timestamp="2021-06-14T14:14:39Z" changeset="106342275" uid="3497659" user="NKA" />
	<node id="8832466545" lat="64.5255752" lon="12.4285757" version="1" timestamp="2021-06-14T14:14:39Z" changeset="106342275" uid="3497659" user="NKA" />
	<node id="8832466546" lat="64.5255327" lon="12.4285733" version="1" timestamp="2021-06-14T14:14:39Z" changeset="106342275" uid="3497659" user="NKA" />
	<node id="8832466547" lat="64.5255333" lon="12.428512" version="1" timestamp="2021-06-14T14:14:39Z" changeset="106342275" uid="3497659" user="NKA" />
	<node id="8832466548" lat="64.525516" lon="12.428511" version="1" timestamp="2021-06-14T14:14:39Z" changeset="106342275" uid="3497659" user="NKA" />
	<node id="8832466549" lat="64.525518" lon="12.4283139" version="1" timestamp="2021-06-14T14:14:39Z" changeset="106342275" uid="3497659" user="NKA" />
	<node id="8832466550" lat="64.5255209" lon="12.4283141" version="1" timestamp="2021-06-14T14:14:39Z" changeset="106342275" uid="3497659" user="NKA" />
	<node id="8832466551" lat="64.5255211" lon="12.4282983" version="1" timestamp="2021-06-14T14:14:39Z" changeset="106342275" uid="3497659" user="NKA" />
	<node id="8832466552" lat="64.5255456" lon="12.4282997" version="1" timestamp="2021-06-14T14:14:39Z" changeset="106342275" uid="3497659" user="NKA" />
	<node id="8832466553" lat="64.5255454" lon="12.4283159" version="1" timestamp="2021-06-14T14:14:39Z" changeset="106342275" uid="3497659" user="NKA" />
	<node id="8832466554" lat="64.525642" lon="12.4283212" version="1" timestamp="2021-06-14T14:14:39Z" changeset="106342275" uid="3497659" user="NKA" />
	<node id="8832465419" lat="64.5519557" lon="12.4641921" version="1" timestamp="2021-06-14T14:14:39Z" changeset="106342275" uid="3497659" user="NKA" />
	<node id="8832465420" lat="64.5520353" lon="12.4636618" version="1" timestamp="2021-06-14T14:14:39Z" changeset="106342275" uid="3497659" user="NKA" />
	<node id="8832465421" lat="64.5519987" lon="12.4636322" version="1" timestamp="2021-06-14T14:14:39Z" changeset="106342275" uid="3497659" user="NKA" />
	<node id="8832465422" lat="64.5520292" lon="12.4634293" version="1" timestamp="2021-06-14T14:14:39Z" changeset="106342275" uid="3497659" user="NKA" />
	<node id="8832465423" lat="64.5521001" lon="12.4634869" version="1" timestamp="2021-06-14T14:14:39Z" changeset="106342275" uid="3497659" user="NKA" />
	<node id="8832465424" lat="64.5520939" lon="12.4635279" version="1" timestamp="2021-06-14T14:14:39Z" changeset="106342275" uid="3497659" user="NKA" />
	<node id="8832465425" lat="64.5521898" lon="12.4636058" version="1" timestamp="2021-06-14T14:14:39Z" changeset="106342275" uid="3497659" user="NKA" />
	<node id="8832465426" lat="64.5521792" lon="12.4636761" version="1" timestamp="2021-06-14T14:14:39Z" changeset="106342275" uid="3497659" user="NKA" />
	<node id="8832465427" lat="64.552205" lon="12.4636971" version="1" timestamp="2021-06-14T14:14:39Z" changeset="106342275" uid="3497659" user="NKA" />
	<node id="8832465428" lat="64.552181" lon="12.4638572" version="1" timestamp="2021-06-14T14:14:39Z" changeset="106342275" uid="3497659" user="NKA" />
	<node id="8832465429" lat="64.552151" lon="12.4638329" version="1" timestamp="2021-06-14T14:14:39Z" changeset="106342275" uid="3497659" user="NKA" />
	<node id="8832465430" lat="64.552153" lon="12.4638199" version="1" timestamp="2021-06-14T14:14:39Z" changeset="106342275" uid="3497659" user="NKA" />
	<node id="8832465431" lat="64.55212" lon="12.4637931" version="1" timestamp="2021-06-14T14:14:39Z" changeset="106342275" uid="3497659" user="NKA" />
	<node id="8832465432" lat="64.552098" lon="12.4639397" version="1" timestamp="2021-06-14T14:14:39Z" changeset="106342275" uid="3497659" user="NKA" />
	<node id="8832465433" lat="64.5521112" lon="12.4639505" version="1" timestamp="2021-06-14T14:14:39Z" changeset="106342275" uid="3497659" user="NKA" />
	<node id="8832465434" lat="64.5520777" lon="12.4641739" version="1" timestamp="2021-06-14T14:14:39Z" changeset="106342275" uid="3497659" user="NKA" />
	<node id="8832465435" lat="64.5520901" lon="12.4641839" version="1" timestamp="2021-06-14T14:14:39Z" changeset="106342275" uid="3497659" user="NKA" />
	<node id="8832465436" lat="64.552082" lon="12.4642379" version="1" timestamp="2021-06-14T14:14:39Z" changeset="106342275" uid="3497659" user="NKA" />
	<node id="8832465437" lat="64.5520699" lon="12.464228" version="1" timestamp="2021-06-14T14:14:39Z" changeset="106342275" uid="3497659" user="NKA" />
	<node id="8832465438" lat="64.5520691" lon="12.464233" version="1" timestamp="2021-06-14T14:14:39Z" changeset="106342275" uid="3497659" user="NKA" />
	<node id="8832465439" lat="64.5520779" lon="12.4642401" version="1" timestamp="2021-06-14T14:14:39Z" changeset="106342275" uid="3497659" user="NKA" />
	<node id="8832465440" lat="64.5520711" lon="12.4642858" version="1" timestamp="2021-06-14T14:14:39Z" changeset="106342275" uid="3497659" user="NKA" />
	<node id="4006336872" lat="64.5592555" lon="12.4817935" version="3" timestamp="2022-01-24T21:00:15Z" changeset="116559033" uid="3497659" user="NKA" />
	<node id="5777190846" lat="64.5592225" lon="12.4813565" version="1" timestamp="2018-07-22T15:05:56Z" changeset="60954436" uid="32112" user="SverigeFan" />
	<node id="5777190847" lat="64.5591387" lon="12.481242" version="2" timestamp="2022-01-24T21:00:15Z" changeset="116559033" uid="3497659" user="NKA" />
	<node id="5777190848" lat="64.5591752" lon="12.4816892" version="2" timestamp="2022-01-24T21:00:15Z" changeset="116559033" uid="3497659" user="NKA" />
	<node id="1661458268" lat="64.5735253" lon="12.5221531" version="5" timestamp="2017-10-28T23:39:19Z" changeset="53329991" uid="2114448" user="FredrikLindseth_import" />
	<node id="1661458276" lat="64.5731375" lon="12.5182048" version="6" timestamp="2017-10-28T23:39:19Z" changeset="53329991" uid="2114448" user="FredrikLindseth_import" />
	<node id="2932938021" lat="64.5733632" lon="12.5199195" version="5" timestamp="2017-10-28T23:39:49Z" changeset="53329991" uid="2114448" user="FredrikLindseth_import" />
	<node id="3090598134" lat="64.5732305" lon="12.518829" version="3" timestamp="2017-10-28T23:39:49Z" changeset="53329991" uid="2114448" user="FredrikLindseth_import" />
	<node id="3090598135" lat="64.5734978" lon="12.5215898" version="2" timestamp="2017-10-28T23:39:49Z" changeset="53329991" uid="2114448" user="FredrikLindseth_import" />
	<node id="4006016167" lat="64.5734616" lon="12.5210296" version="2" timestamp="2017-10-28T23:40:06Z" changeset="53329991" uid="2114448" user="FredrikLindseth_import" />
	<node id="5197141007" lat="64.5734168" lon="12.5204724" version="1" timestamp="2017-10-28T23:32:58Z" changeset="53329889" uid="2114448" user="FredrikLindseth_import" />
	<node id="5197141008" lat="64.5733011" lon="12.5193714" version="1" timestamp="2017-10-28T23:32:58Z" changeset="53329889" uid="2114448" user="FredrikLindseth_import" />
	<node id="5197141254" lat="64.5735426" lon="12.5226728" version="1" timestamp="2017-10-28T23:33:02Z" changeset="53329889" uid="2114448" user="FredrikLindseth_import" />
	<node id="5197149424" lat="64.4576501" lon="12.700368" version="2" timestamp="2018-04-11T09:28:12Z" changeset="57997445" uid="2337920" user="JensKveli" />
	<node id="5197149425" lat="64.4576595" lon="12.7017113" version="1" timestamp="2017-10-28T23:35:13Z" changeset="53329936" uid="2114448" user="FredrikLindseth_import" />
	<node id="5197149210" lat="64.467455" lon="12.8711619" version="1" timestamp="2017-10-28T23:35:09Z" changeset="53329936" uid="2114448" user="FredrikLindseth_import" />
	<node id="2383508234" lat="64.4674577" lon="12.8713168" version="2" timestamp="2017-10-28T23:39:49Z" changeset="53329991" uid="2114448" user="FredrikLindseth_import" />
	<node id="5197149211" lat="64.4674571" lon="12.8715071" version="1" timestamp="2017-10-28T23:35:09Z" changeset="53329936" uid="2114448" user="FredrikLindseth_import" />
	<node id="2383508152" lat="64.4659992" lon="12.9348676" version="2" timestamp="2017-10-28T23:39:49Z" changeset="53329991" uid="2114448" user="FredrikLindseth_import" />
	<node id="5197149078" lat="64.4660054" lon="12.9349847" version="1" timestamp="2017-10-28T23:35:06Z" changeset="53329936" uid="2114448" user="FredrikLindseth_import" />
	<node id="5197149079" lat="64.4659938" lon="12.9346872" version="1" timestamp="2017-10-28T23:35:06Z" changeset="53329936" uid="2114448" user="FredrikLindseth_import" />
	<node id="2383508270" lat="64.467764" lon="12.9598325" version="4" timestamp="2022-01-24T21:00:15Z" changeset="116559033" uid="3497659" user="NKA" />
	<node id="5197153579" lat="64.4676517" lon="12.9594954" version="1" timestamp="2017-10-28T23:36:36Z" changeset="53329936" uid="2114448" user="FredrikLindseth_import" />
	<node id="5197141351" lat="64.6116942" lon="12.5849806" version="1" timestamp="2017-10-28T23:33:04Z" changeset="53329889" uid="2114448" user="FredrikLindseth_import" />
	<node id="5197141353" lat="64.6111049" lon="12.5853694" version="1" timestamp="2017-10-28T23:33:04Z" changeset="53329889" uid="2114448" user="FredrikLindseth_import" />
	<node id="5197136600" lat="64.6173834" lon="12.5992115" version="1" timestamp="2017-10-28T23:32:17Z" changeset="53329889" uid="2114448" user="FredrikLindseth_import" />
	<node id="5197136602" lat="64.617075" lon="12.5987451" version="1" timestamp="2017-10-28T23:32:17Z" changeset="53329889" uid="2114448" user="FredrikLindseth_import" />
	<node id="8272158385" lat="64.636179" lon="12.617982" version="1" timestamp="2020-12-29T21:38:29Z" changeset="96625728" uid="3497659" user="NKA" />
	<node id="8272158386" lat="64.636535" lon="12.618873" version="1" timestamp="2020-12-29T21:38:29Z" changeset="96625728" uid="3497659" user="NKA" />
	<node id="310694846" lat="64.6929847" lon="12.7318015" version="6" timestamp="2018-07-10T07:10:44Z" changeset="60562439" uid="8524080" user="ENTUR Bjørn Lie Rapp" />
	<node id="5197139448" lat="64.6924717" lon="12.7323464" version="2" timestamp="2018-07-10T07:12:11Z" changeset="60562439" uid="8524080" user="ENTUR Bjørn Lie Rapp" />
	<node id="4005894986" lat="64.6929878" lon="12.7582658" version="3" timestamp="2018-07-10T07:12:05Z" changeset="60562439" uid="8524080" user="ENTUR Bjørn Lie Rapp" />
	<node id="5197138835" lat="64.6928333" lon="12.7579267" version="2" timestamp="2018-07-10T07:12:11Z" changeset="60562439" uid="8524080" user="ENTUR Bjørn Lie Rapp" />
	<node id="5197140660" lat="64.6893231" lon="12.7964468" version="1" timestamp="2017-10-28T23:32:51Z" changeset="53329889" uid="2114448" user="FredrikLindseth_import" />
	<node id="5750987463" lat="64.6893656" lon="12.7968528" version="2" timestamp="2022-01-24T21:00:15Z" changeset="116559033" uid="3497659" user="NKA" />
	<way id="79058448" version="7" timestamp="2022-01-24T21:00:15Z" changeset="116559033" uid="3497659" user="NKA">
		<tag k="bridge" v="yes" />
		<tag k="bridge:structure" v="truss" />
		<tag k="highway" v="secondary" />
		<tag k="layer" v="1" />
		<tag k="maxspeed" v="50" />
		<tag k="name" v="Medjåbrua" />
		<tag k="ref" v="7030" />
		<tag k="ssr:stedsnr" v="352904" />
		<nd ref="5197145921" />
		<nd ref="5197146822" />
	</way>
	<way id="182499735" version="4" timestamp="2022-01-24T21:00:15Z" changeset="116559033" uid="3497659" user="NKA">
		<tag k="bridge" v="yes" />
		<tag k="highway" v="trunk" />
		<tag k="lanes" v="2" />
		<tag k="layer" v="1" />
		<tag k="lit" v="yes" />
		<tag k="maxspeed" v="70" />
		<tag k="name" v="Tinghaugbrua" />
		<tag k="ref" v="E 6" />
		<tag k="sidewalk" v="none" />
		<tag k="source:maxspeed" v="sign" />
		<tag k="ssr:stedsnr" v="716169" />
		<tag k="surface" v="asphalt" />
		<tag k="width" v="7" />
		<nd ref="5197141365" />
		<nd ref="5197141364" />
	</way>
	<way id="182499738" version="4" timestamp="2022-01-24T21:00:15Z" changeset="116559033" uid="3497659" user="NKA">
		<tag k="bridge" v="yes" />
		<tag k="bridge:structure" v="beam" />
		<tag k="highway" v="trunk" />
		<tag k="lanes" v="2" />
		<tag k="layer" v="1" />
		<tag k="lit" v="yes" />
		<tag k="maxspeed" v="80" />
		<tag k="name" v="Grongbrua" />
		<tag k="ref" v="E 6" />
		<tag k="sidewalk" v="none" />
		<tag k="source:maxspeed" v="sign" />
		<tag k="ssr:stedsnr" v="170149" />
		<tag k="surface" v="asphalt" />
		<tag k="width" v="7" />
		<nd ref="1928615898" />
		<nd ref="5197145290" />
		<nd ref="5197145289" />
		<nd ref="1928615899" />
		<nd ref="5197145288" />
		<nd ref="1928615900" />
		<nd ref="60212361" />
		<nd ref="5197145287" />
	</way>
	<way id="197961263" version="3" timestamp="2022-01-24T21:00:15Z" changeset="116559033" uid="3497659" user="NKA">
		<tag k="bridge" v="yes" />
		<tag k="highway" v="trunk" />
		<tag k="lanes" v="2" />
		<tag k="layer" v="1" />
		<tag k="lit" v="yes" />
		<tag k="maxspeed" v="70" />
		<tag k="name" v="Sundspetbrua" />
		<tag k="ref" v="E 6" />
		<tag k="sidewalk" v="none" />
		<tag k="source:maxspeed" v="sign" />
		<tag k="ssr:stedsnr" v="594147" />
		<tag k="surface" v="asphalt" />
		<tag k="width" v="7" />
		<nd ref="2081562092" />
		<nd ref="2081562093" />
	</way>
	<way id="197961266" version="5" timestamp="2022-01-24T21:00:15Z" changeset="116559033" uid="3497659" user="NKA">
		<tag k="bridge" v="yes" />
		<tag k="highway" v="trunk" />
		<tag k="lanes" v="2" />
		<tag k="layer" v="1" />
		<tag k="lit" v="no" />
		<tag k="maxspeed" v="80" />
		<tag k="name" v="Bjørgelvbrua" />
		<tag k="ref" v="E 6" />
		<tag k="sidewalk" v="none" />
		<tag k="source:maxspeed" v="NO:rural" />
		<tag k="ssr:stedsnr" v="413148" />
		<tag k="surface" v="asphalt" />
		<tag k="width" v="7" />
		<nd ref="60212334" />
		<nd ref="2081562002" />
		<nd ref="2081562005" />
	</way>
	<way id="197961268" version="5" timestamp="2022-01-24T21:00:15Z" changeset="116559033" uid="3497659" user="NKA">
		<tag k="bridge" v="yes" />
		<tag k="highway" v="trunk" />
		<tag k="lanes" v="2" />
		<tag k="layer" v="1" />
		<tag k="lit" v="yes" />
		<tag k="maxspeed" v="80" />
		<tag k="name" v="Langnesbrua" />
		<tag k="ref" v="E 6" />
		<tag k="sidewalk" v="none" />
		<tag k="source:maxspeed" v="sign" />
		<tag k="ssr:stedsnr" v="898145" />
		<tag k="surface" v="asphalt" />
		<tag k="width" v="7" />
		<nd ref="5197145952" />
		<nd ref="60212358" />
		<nd ref="2081562072" />
		<nd ref="2383270186" />
		<nd ref="2081562077" />
	</way>
	<way id="197961312" version="6" timestamp="2022-01-24T21:00:15Z" changeset="116559033" uid="3497659" user="NKA">
		<tag k="bridge" v="yes" />
		<tag k="bridge:structure" v="truss" />
		<tag k="highway" v="secondary" />
		<tag k="layer" v="1" />
		<tag k="maxspeed" v="60" />
		<tag k="name" v="Dunabrua" />
		<tag k="ref" v="7032" />
		<tag k="ssr:stedsnr" v="413924" />
		<nd ref="503668856" />
		<nd ref="5197145742" />
	</way>
	<way id="197961313" version="4" timestamp="2022-01-24T21:00:15Z" changeset="116559033" uid="3497659" user="NKA">
		<tag k="bridge" v="yes" />
		<tag k="bridge:structure" v="beam" />
		<tag k="highway" v="primary" />
		<tag k="layer" v="1" />
		<tag k="maxspeed" v="80" />
		<tag k="name" v="Sanddølbrua" />
		<tag k="ref" v="74" />
		<tag k="ssr:stedsnr" v="49885" />
		<nd ref="5197148834" />
		<nd ref="295208445" />
	</way>
	<way id="197961316" version="3" timestamp="2022-06-12T12:49:14Z" changeset="122279480" uid="420980" user="NorNorth">
		<tag k="bridge" v="yes" />
		<tag k="highway" v="primary" />
		<tag k="layer" v="1" />
		<tag k="maxspeed" v="60" />
		<tag k="name" v="Gartlandsbrua" />
		<tag k="ref" v="775" />
		<tag k="ssr:stedsnr" v="594889" />
		<nd ref="2081562252" />
		<nd ref="2081562255" />
	</way>
	<way id="198691929" version="6" timestamp="2022-01-24T21:00:15Z" changeset="116559033" uid="3497659" user="NKA">
		<tag k="bridge" v="yes" />
		<tag k="bridge:structure" v="suspension" />
		<tag k="highway" v="secondary" />
		<tag k="layer" v="1" />
		<tag k="maxheight" v="4.4" />
		<tag k="maxspeed" v="80" />
		<tag k="maxweight" v="8" />
		<tag k="name" v="Skottleikbrua" />
		<tag k="ref" v="7034" />
		<tag k="ssr:stedsnr" v="655906" />
		<nd ref="5197144144" />
		<nd ref="503672222" />
		<nd ref="5197145737" />
		<nd ref="5197145736" />
	</way>
	<way id="198691984" version="4" timestamp="2022-01-24T21:00:15Z" changeset="116559033" uid="3497659" user="NKA">
		<tag k="bridge" v="yes" />
		<tag k="highway" v="secondary" />
		<tag k="layer" v="1" />
		<tag k="maxspeed" v="80" />
		<tag k="name" v="Litlbrua" />
		<tag k="ref" v="7034" />
		<tag k="ssr:stedsnr" v="594900" />
		<nd ref="5197144185" />
		<nd ref="5197144184" />
	</way>
	<way id="226740299" version="5" timestamp="2019-02-03T19:32:58Z" changeset="66884565" uid="3296383" user="Reitstoen_import">
		<tag k="name" v="Homoholmen" />
		<tag k="natural" v="wood" />
		<tag k="place" v="islet" />
		<tag k="source" v="Kartverket N50" />
		<tag k="source:date" v="1973-01-01" />
		<tag k="ssr:stedsnr" v="838489" />
		<nd ref="6254674473" />
		<nd ref="2354946362" />
		<nd ref="6254674475" />
		<nd ref="2354947443" />
		<nd ref="2354946361" />
		<nd ref="2354947439" />
		<nd ref="6254676297" />
		<nd ref="2354946363" />
		<nd ref="6254676298" />
		<nd ref="2354947441" />
		<nd ref="6254674473" />
	</way>
	<way id="229775003" version="3" timestamp="2022-01-24T21:00:15Z" changeset="116559033" uid="3497659" user="NKA">
		<tag k="bridge" v="yes" />
		<tag k="highway" v="trunk" />
		<tag k="lanes" v="2" />
		<tag k="layer" v="1" />
		<tag k="lit" v="yes" />
		<tag k="maxspeed" v="80" />
		<tag k="name" v="Sagdalsbrua" />
		<tag k="ref" v="E 6" />
		<tag k="sidewalk" v="none" />
		<tag k="source:maxspeed" v="NO:rural" />
		<tag k="ssr:stedsnr" v="291160" />
		<tag k="surface" v="asphalt" />
		<tag k="width" v="7.5" />
		<nd ref="60213259" />
		<nd ref="9445777808" />
		<nd ref="9445777809" />
		<nd ref="9445777807" />
		<nd ref="9445777810" />
		<nd ref="2383247607" />
	</way>
	<way id="229790966" version="4" timestamp="2022-01-24T21:00:15Z" changeset="116559033" uid="3497659" user="NKA">
		<tag k="bridge" v="yes" />
		<tag k="highway" v="secondary" />
		<tag k="layer" v="1" />
		<tag k="maxspeed" v="50" />
		<tag k="name" v="Elstadelvbrua" />
		<tag k="ref" v="7036" />
		<tag k="ssr:stedsnr" v="352900" />
		<nd ref="5197137153" />
		<nd ref="5197137152" />
	</way>
	<way id="229790968" version="4" timestamp="2022-01-24T21:00:15Z" changeset="116559033" uid="3497659" user="NKA">
		<tag k="bridge" v="yes" />
		<tag k="bridge:structure" v="beam" />
		<tag k="highway" v="secondary" />
		<tag k="layer" v="1" />
		<tag k="maxspeed" v="50" />
		<tag k="name" v="Rossetnesbrua" />
		<tag k="ref" v="7036" />
		<tag k="ssr:stedsnr" v="291911" />
		<nd ref="5197137580" />
		<nd ref="5197137579" />
	</way>
	<way id="229806976" version="3" timestamp="2022-01-24T21:00:15Z" changeset="116559033" uid="3497659" user="NKA">
		<tag k="bridge" v="yes" />
		<tag k="highway" v="primary" />
		<tag k="layer" v="1" />
		<tag k="maxspeed" v="80" />
		<tag k="name" v="Mortenslundbrua" />
		<tag k="ref" v="74" />
		<tag k="ssr:stedsnr" v="413908" />
		<nd ref="5197149079" />
		<nd ref="2383508152" />
		<nd ref="5197149078" />
	</way>
	<way id="229806978" version="3" timestamp="2022-01-24T21:00:15Z" changeset="116559033" uid="3497659" user="NKA">
		<tag k="bridge" v="yes" />
		<tag k="highway" v="primary" />
		<tag k="layer" v="1" />
		<tag k="maxspeed" v="80" />
		<tag k="name" v="Tverrelvbrua" />
		<tag k="ref" v="74" />
		<tag k="ssr:stedsnr" v="49890" />
		<nd ref="5197149210" />
		<nd ref="2383508234" />
		<nd ref="5197149211" />
	</way>
	<way id="229806979" version="8" timestamp="2022-01-24T21:00:15Z" changeset="116559033" uid="3497659" user="NKA">
		<tag k="bridge" v="yes" />
		<tag k="highway" v="primary" />
		<tag k="layer" v="1" />
		<tag k="maxspeed" v="80" />
		<tag k="name" v="Nynesbrua" />
		<tag k="ref" v="74" />
		<tag k="ssr:stedsnr" v="959889" />
		<nd ref="5197149424" />
		<nd ref="5197149425" />
	</way>
	<way id="229806980" version="3" timestamp="2022-01-24T21:00:15Z" changeset="116559033" uid="3497659" user="NKA">
		<tag k="bridge" v="yes" />
		<tag k="highway" v="primary" />
		<tag k="layer" v="1" />
		<tag k="maxspeed" v="80" />
		<tag k="name" v="Finnkrulielvbrua" />
		<tag k="ref" v="74" />
		<tag k="ssr:stedsnr" v="109888" />
		<nd ref="5197153579" />
		<nd ref="2383508270" />
	</way>
	<way id="289750995" version="5" timestamp="2022-01-24T21:00:15Z" changeset="116559033" uid="3497659" user="NKA">
		<tag k="bridge" v="yes" />
		<tag k="bridge:structure" v="beam" />
		<tag k="highway" v="trunk" />
		<tag k="lanes" v="2" />
		<tag k="layer" v="1" />
		<tag k="lit" v="yes" />
		<tag k="maxspeed" v="80" />
		<tag k="name" v="Nesbrua" />
		<tag k="ref" v="E 6" />
		<tag k="sidewalk" v="none" />
		<tag k="source:maxspeed" v="NO:rural" />
		<tag k="ssr:stedsnr" v="413881" />
		<tag k="surface" v="asphalt" />
		<tag k="width" v="7.5" />
		<nd ref="1661458276" />
		<nd ref="3090598134" />
		<nd ref="5197141008" />
		<nd ref="2932938021" />
		<nd ref="5197141007" />
		<nd ref="4006016167" />
		<nd ref="3090598135" />
		<nd ref="1661458268" />
		<nd ref="5197141254" />
	</way>
	<way id="358849351" version="8" timestamp="2022-01-24T21:00:15Z" changeset="116559033" uid="3497659" user="NKA">
		<tag k="bridge" v="yes" />
		<tag k="highway" v="trunk" />
		<tag k="lanes" v="2" />
		<tag k="layer" v="1" />
		<tag k="lit" v="no" />
		<tag k="maxspeed" v="80" />
		<tag k="name" v="Raudhyllbrua" />
		<tag k="ref" v="E 6" />
		<tag k="sidewalk" v="none" />
		<tag k="ssr:stedsnr" v="655141" />
		<tag k="surface" v="asphalt" />
		<tag k="width" v="7.5" />
		<nd ref="5197147982" />
		<nd ref="5197148010" />
	</way>
	<way id="397814695" version="3" timestamp="2022-01-24T21:00:15Z" changeset="116559033" uid="3497659" user="NKA">
		<tag k="bridge" v="yes" />
		<tag k="highway" v="trunk" />
		<tag k="lanes" v="2" />
		<tag k="layer" v="1" />
		<tag k="lit" v="no" />
		<tag k="maxspeed" v="80" />
		<tag k="name" v="Litlfjerdingelvbrua" />
		<tag k="ref" v="E 6" />
		<tag k="sidewalk" v="none" />
		<tag k="source:maxspeed" v="NO:rural" />
		<tag k="ssr:stedsnr" v="655869" />
		<tag k="surface" v="asphalt" />
		<tag k="width" v="7.5" />
		<nd ref="5197136602" />
		<nd ref="5197136600" />
	</way>
	<way id="531438619" version="4" timestamp="2022-01-24T21:00:15Z" changeset="116559033" uid="3497659" user="NKA">
		<tag k="bridge" v="yes" />
		<tag k="highway" v="secondary" />
		<tag k="layer" v="1" />
		<tag k="maxspeed" v="50" />
		<tag k="name" v="Litlåbrua" />
		<tag k="ref" v="7030" />
		<tag k="ssr:stedsnr" v="170926" />
		<nd ref="5197099903" />
		<nd ref="5158862872" />
		<nd ref="5197135569" />
	</way>
	<way id="536511100" version="3" timestamp="2022-01-24T21:00:15Z" changeset="116559033" uid="3497659" user="NKA">
		<tag k="bridge" v="yes" />
		<tag k="highway" v="trunk" />
		<tag k="layer" v="1" />
		<tag k="maxspeed" v="80" />
		<tag k="name" v="Grøndalselvbrua" />
		<tag k="ref" v="E 6" />
		<tag k="ssr:stedsnr" v="777877" />
		<nd ref="5197138835" />
		<nd ref="4005894986" />
	</way>
	<way id="536511135" version="3" timestamp="2022-01-24T21:00:15Z" changeset="116559033" uid="3497659" user="NKA">
		<tag k="bridge" v="yes" />
		<tag k="highway" v="primary" />
		<tag k="layer" v="1" />
		<tag k="maxheight" v="4.0" />
		<tag k="maxspeed" v="80" />
		<tag k="name" v="Lassemobrua" />
		<tag k="ref" v="764" />
		<tag k="ssr:stedsnr" v="716885" />
		<nd ref="5197139448" />
		<nd ref="310694846" />
	</way>
	<way id="536511242" version="3" timestamp="2022-01-24T21:00:15Z" changeset="116559033" uid="3497659" user="NKA">
		<tag k="bridge" v="yes" />
		<tag k="highway" v="secondary" />
		<tag k="layer" v="1" />
		<tag k="maxspeed" v="50" />
		<tag k="name" v="Aunfossbrua" />
		<tag k="ref" v="7038" />
		<tag k="ssr:stedsnr" v="594899" />
		<nd ref="5197141353" />
		<nd ref="5197141351" />
	</way>
	<way id="536511317" version="3" timestamp="2022-01-24T21:00:15Z" changeset="116559033" uid="3497659" user="NKA">
		<tag k="bridge" v="yes" />
		<tag k="highway" v="service" />
		<tag k="layer" v="1" />
		<tag k="name" v="Leirbrua" />
		<tag k="ssr:stedsnr" v="352897" />
		<tag k="wikidata" v="Q19379165" />
		<tag k="wikipedia" v="no:Leir bru" />
		<nd ref="5197142320" />
		<nd ref="5197142319" />
	</way>
	<way id="536511633" version="3" timestamp="2022-01-24T21:00:15Z" changeset="116559033" uid="3497659" user="NKA">
		<tag k="bridge" v="yes" />
		<tag k="highway" v="trunk" />
		<tag k="layer" v="1" />
		<tag k="maxspeed" v="80" />
		<tag k="name" v="Langnesbrua" />
		<tag k="oneway" v="yes" />
		<tag k="ref" v="E 6" />
		<tag k="ssr:stedsnr" v="898145" />
		<nd ref="5197145743" />
		<nd ref="5197145740" />
		<nd ref="5197145739" />
		<nd ref="5197145952" />
	</way>
	<way id="536511654" version="3" timestamp="2022-01-24T21:00:15Z" changeset="116559033" uid="3497659" user="NKA">
		<tag k="bridge" v="yes" />
		<tag k="highway" v="trunk" />
		<tag k="layer" v="1" />
		<tag k="maxspeed" v="80" />
		<tag k="name" v="Langnesbrua" />
		<tag k="oneway" v="yes" />
		<tag k="ref" v="E 6" />
		<tag k="ssr:stedsnr" v="898145" />
		<nd ref="5197145952" />
		<nd ref="5197145951" />
		<nd ref="5197146011" />
	</way>
	<way id="536511947" version="2" timestamp="2022-01-24T21:00:15Z" changeset="116559033" uid="3497659" user="NKA">
		<tag k="bridge" v="yes" />
		<tag k="highway" v="primary" />
		<tag k="layer" v="1" />
		<tag k="maxspeed" v="80" />
		<tag k="name" v="Litlåbrua" />
		<tag k="ref" v="74" />
		<tag k="ssr:stedsnr" v="170908" />
		<nd ref="5197149080" />
		<nd ref="5197153828" />
	</way>
	<way id="536511952" version="3" timestamp="2022-01-24T21:00:15Z" changeset="116559033" uid="3497659" user="NKA">
		<tag k="bridge" v="yes" />
		<tag k="highway" v="primary" />
		<tag k="layer" v="1" />
		<tag k="maxspeed" v="80" />
		<tag k="name" v="Trongbrua" />
		<tag k="ref" v="74" />
		<tag k="ssr:stedsnr" v="959886" />
		<nd ref="5197153752" />
		<nd ref="5197153578" />
	</way>
	<way id="606603520" version="2" timestamp="2022-01-24T21:00:15Z" changeset="116559033" uid="3497659" user="NKA">
		<tag k="bridge" v="yes" />
		<tag k="highway" v="primary" />
		<tag k="layer" v="1" />
		<tag k="maxspeed" v="80" />
		<tag k="name" v="Finnfossbrua" />
		<tag k="ref" v="764" />
		<tag k="ssr:stedsnr" v="743391" />
		<nd ref="5197140660" />
		<nd ref="5750987463" />
	</way>
	<way id="609979967" version="2" timestamp="2022-01-24T21:00:15Z" changeset="116559033" uid="3497659" user="NKA">
		<tag k="bridge" v="yes" />
		<tag k="highway" v="cycleway" />
		<tag k="layer" v="1" />
		<tag k="name" v="Fiskemselvgangbrua" />
		<tag k="ssr:stedsnr" v="109860" />
		<tag k="surface" v="asphalt" />
		<nd ref="5777190846" />
		<nd ref="4006336872" />
	</way>
	<way id="609979972" version="2" timestamp="2022-01-24T21:00:15Z" changeset="116559033" uid="3497659" user="NKA">
		<tag k="bridge" v="yes" />
		<tag k="highway" v="trunk" />
		<tag k="lanes" v="2" />
		<tag k="layer" v="1" />
		<tag k="lit" v="yes" />
		<tag k="maxspeed" v="50" />
		<tag k="name" v="Fiskemselvbrua" />
		<tag k="ref" v="E 6" />
		<tag k="sidewalk" v="none" />
		<tag k="source:maxspeed" v="sign" />
		<tag k="ssr:stedsnr" v="777851" />
		<tag k="surface" v="asphalt" />
		<tag k="width" v="7" />
		<nd ref="5777190847" />
		<nd ref="5777190848" />
	</way>
	<way id="870437477" version="6" timestamp="2022-01-24T21:00:15Z" changeset="116559033" uid="3497659" user="NKA">
		<tag k="bridge" v="yes" />
		<tag k="highway" v="trunk" />
		<tag k="layer" v="1" />
		<tag k="maxspeed" v="80" />
		<tag k="name" v="Fjerdingelvbrua" />
		<tag k="ref" v="E 6" />
		<tag k="ssr:stedsnr" v="838896" />
		<tag k="surface" v="asphalt" />
		<nd ref="8272158385" />
		<nd ref="8272158386" />
	</way>
	<way id="954302104" version="2" timestamp="2022-01-18T07:49:55Z" changeset="116285062" uid="3497659" user="NKA">
		<tag k="building" v="civic" />
		<tag k="name" v="Harran samfunnshus" />
		<tag k="ref:bygningsnr" v="186498011" />
		<tag k="ssr:stedsnr" v="1080051" />
		<nd ref="8832465440" />
		<nd ref="8832465439" />
		<nd ref="8832465438" />
		<nd ref="8832465437" />
		<nd ref="8832465436" />
		<nd ref="8832465435" />
		<nd ref="8832465434" />
		<nd ref="8832465433" />
		<nd ref="8832465432" />
		<nd ref="8832465431" />
		<nd ref="8832465430" />
		<nd ref="8832465429" />
		<nd ref="8832465428" />
		<nd ref="8832465427" />
		<nd ref="8832465426" />
		<nd ref="8832465425" />
		<nd ref="8832465424" />
		<nd ref="8832465423" />
		<nd ref="8832465422" />
		<nd ref="8832465421" />
		<nd ref="8832465420" />
		<nd ref="8832465419" />
		<nd ref="8832465440" />
	</way>
	<way id="954302268" version="2" timestamp="2022-01-18T07:49:55Z" changeset="116285062" uid="3497659" user="NKA">
		<tag k="building" v="civic" />
		<tag k="name" v="Haugen grendehus" />
		<tag k="ref:bygningsnr" v="186495977" />
		<tag k="ssr:stedsnr" v="1080050" />
		<nd ref="8832466554" />
		<nd ref="8832466553" />
		<nd ref="8832466552" />
		<nd ref="8832466551" />
		<nd ref="8832466550" />
		<nd ref="8832466549" />
		<nd ref="8832466548" />
		<nd ref="8832466547" />
		<nd ref="8832466546" />
		<nd ref="8832466545" />
		<nd ref="8832466544" />
		<nd ref="8832466543" />
		<nd ref="8832466554" />
	</way>
	<way id="1024350739" version="1" timestamp="2022-01-24T21:00:15Z" changeset="116559033" uid="3497659" user="NKA">
		<tag k="bridge" v="yes" />
		<tag k="highway" v="unclassified" />
		<tag k="layer" v="1" />
		<tag k="name" v="Rostabrua" />
		<tag k="ssr:stedsnr" v="170146" />
		<nd ref="1317459831" />
		<nd ref="5197142020" />
	</way>
</osm>
