<?xml version="1.0" encoding="UTF-8"?>
<osm generator="osmapis" version="0.6">
	<node id="-22781" lat="58.9003000014" lon="5.57847499507">
		<tag k="name" v="Vestre stranda" />
		<tag k="place" v="locality" />
		<tag k="ssr:stedsnr" v="630713" />
	</node>
	<node id="-22823" lat="58.9290027819" lon="5.58790000673">
		<tag k="man_made" v="quay" />
		<tag k="name" v="Norscobasen" />
		<tag k="place" v="locality" />
		<tag k="ssr:stedsnr" v="813319" />
	</node>
	<node id="-23013" lat="58.92315556" lon="5.60595834102">
		<tag k="bridge" v="yes" />
		<tag k="layer" v="1" />
		<tag k="name" v="Hammaren" />
		<tag k="ssr:stedsnr" v="350628" />
	</node>
	<node id="-23012" lat="58.9435138878" lon="5.58248333084">
		<tag k="bridge" v="yes" />
		<tag k="layer" v="1" />
		<tag k="name" v="Notvegen" />
		<tag k="ssr:stedsnr" v="350625" />
	</node>
	<node id="-23011" lat="58.8321388849" lon="5.59728333143">
		<tag k="bridge" v="yes" />
		<tag k="layer" v="1" />
		<tag k="name" v="Dysjaland" />
		<tag k="ssr:stedsnr" v="350592" />
	</node>
	<node id="-23009" lat="58.9358493899" lon="5.60473908515">
		<tag k="junction" v="yes" />
		<tag k="name" v="Hagakrossen" />
		<tag k="place" v="locality" />
		<tag k="ssr:stedsnr" v="342249" />
	</node>
	<node id="-23135" lat="58.9356305586" lon="5.60475833836">
		<tag k="bridge" v="yes" />
		<tag k="layer" v="1" />
		<tag k="name" v="Haga" />
		<tag k="ssr:stedsnr" v="775636" />
	</node>
	<node id="-23134" lat="58.872963888" lon="5.65556945092">
		<tag k="bridge" v="yes" />
		<tag k="layer" v="1" />
		<tag k="name" v="Stangelandsbakken" />
		<tag k="ssr:stedsnr" v="775623" />
	</node>
	<node id="-23133" lat="58.8920750032" lon="5.64476111747">
		<tag k="bridge" v="yes" />
		<tag k="layer" v="1" />
		<tag k="name" v="Araberg" />
		<tag k="ssr:stedsnr" v="775584" />
	</node>
	<node id="-22748" lat="58.9326255001" lon="5.57619752762">
		<tag k="landuse" v="harbour" />
		<tag k="name" v="Vestre Hamna" />
		<tag k="seamark:type" v="harbour" />
		<tag k="ssr:stedsnr" v="688928" />
	</node>
	<node id="-23001" lat="58.8596694451" lon="5.66764166518">
		<tag k="name" v="Skas/Heigre-kanalen" />
		<tag k="ssr:stedsnr" v="327278" />
		<tag k="waterway" v="canal" />
	</node>
	<node id="-22615" lat="58.895569448" lon="5.58441110533">
		<tag k="name" v="Søre stranda" />
		<tag k="place" v="locality" />
		<tag k="ssr:stedsnr" v="266746" />
	</node>
	<node id="-22603" lat="58.9340708304" lon="5.58077552597">
		<tag k="landuse" v="harbour" />
		<tag k="name" v="Austre Hamna" />
		<tag k="seamark:type" v="harbour" />
		<tag k="ssr:stedsnr" v="263924" />
	</node>
	<node id="-23113" lat="58.9336455313" lon="5.57708859092">
		<tag k="man_made" v="quay" />
		<tag k="name" v="Olsabryggja" />
		<tag k="place" v="locality" />
		<tag k="ssr:stedsnr" v="748932" />
	</node>
	<node id="-22855" lat="58.9303361099" lon="5.68828333992">
		<tag k="bridge" v="yes" />
		<tag k="layer" v="1" />
		<tag k="name" v="Granneskrossen" />
		<tag k="ssr:stedsnr" v="896717" />
	</node>
	<node id="-22854" lat="58.8972000002" lon="5.65593888358">
		<tag k="bridge" v="yes" />
		<tag k="layer" v="1" />
		<tag k="name" v="Sande" />
		<tag k="ssr:stedsnr" v="896712" />
	</node>
	<node id="-22587" lat="58.9390055545" lon="5.57414166482">
		<tag k="bridge" v="yes" />
		<tag k="layer" v="1" />
		<tag k="name" v="Tananger" />
		<tag k="ssr:stedsnr" v="229651" />
	</node>
	<node id="-22840" lat="58.8832162557" lon="5.62475187783">
		<tag k="aeroway" v="aerodrome" />
		<tag k="alt_name" v="Sola" />
		<tag k="name" v="Stavanger lufthavn, Sola" />
		<tag k="old_name" v="Stavanger Lufthavn/Sola;Stavanger lufthavn" />
		<tag k="ssr:stedsnr" v="851961" />
	</node>
	<node id="-22967" lat="58.8997694403" lon="5.65550833756">
		<tag k="name" v="Forus-kanalen" />
		<tag k="ssr:stedsnr" v="206235" />
		<tag k="waterway" v="canal" />
	</node>
	<node id="-23087" lat="58.9043527786" lon="5.66352778276">
		<tag k="bridge" v="yes" />
		<tag k="layer" v="1" />
		<tag k="name" v="Røyneberg" />
		<tag k="ssr:stedsnr" v="592701" />
	</node>
	<node id="-23086" lat="58.8997166663" lon="5.61417499816">
		<tag k="bridge" v="yes" />
		<tag k="layer" v="1" />
		<tag k="name" v="Sola" />
		<tag k="ssr:stedsnr" v="592699" />
	</node>
	<node id="-23085" lat="58.8804499961" lon="5.60310278198">
		<tag k="bridge" v="yes" />
		<tag k="layer" v="1" />
		<tag k="name" v="Solasanden" />
		<tag k="ssr:stedsnr" v="592697" />
	</node>
	<node id="-22952" lat="58.9314777739" lon="5.69653889088">
		<tag k="bridge" v="yes" />
		<tag k="layer" v="1" />
		<tag k="name" v="Radiovegen" />
		<tag k="ssr:stedsnr" v="168644" />
	</node>
	<node id="-22951" lat="58.8659472241" lon="5.63425277058">
		<tag k="bridge" v="yes" />
		<tag k="layer" v="1" />
		<tag k="name" v="Stangeland" />
		<tag k="ssr:stedsnr" v="168641" />
	</node>
	<node id="-22789" lat="58.943797225" lon="5.59569721591">
		<tag k="bridge" v="yes" />
		<tag k="layer" v="1" />
		<tag k="name" v="Mæland" />
		<tag k="ssr:stedsnr" v="653676" />
	</node>
	<node id="-23196" lat="58.8920666671" lon="5.63042778163">
		<tag k="bridge" v="yes" />
		<tag k="layer" v="1" />
		<tag k="name" v="Sømmevegen" />
		<tag k="ssr:stedsnr" v="957632" />
	</node>
	<node id="-23195" lat="58.895691666" lon="5.6405638867">
		<tag k="bridge" v="yes" />
		<tag k="layer" v="1" />
		<tag k="name" v="Sømmevågen" />
		<tag k="ssr:stedsnr" v="957631" />
	</node>
	<node id="-22681" lat="58.8241333359" lon="5.58870000661">
		<tag k="bridge" v="yes" />
		<tag k="layer" v="1" />
		<tag k="name" v="Hagane" />
		<tag k="ssr:stedsnr" v="471663" />
	</node>
	<node id="-22674" lat="58.8991055513" lon="5.65926110938">
		<tag k="bridge" v="yes" />
		<tag k="layer" v="1" />
		<tag k="name" v="Joa" />
		<tag k="ssr:stedsnr" v="289717" />
	</node>
	<node id="-22673" lat="58.8727388885" lon="5.65583888347">
		<tag k="bridge" v="yes" />
		<tag k="layer" v="1" />
		<tag k="name" v="Stangeland" />
		<tag k="ssr:stedsnr" v="289712" />
	</node>
	<node id="-22672" lat="58.894894445" lon="5.63138611501">
		<tag k="bridge" v="yes" />
		<tag k="layer" v="1" />
		<tag k="name" v="Sømme" />
		<tag k="ssr:stedsnr" v="289709" />
	</node>
	<node id="-22926" lat="58.8700847043" lon="5.56674496374">
		<tag k="alt_name" v="Ølbør hamn" />
		<tag k="landuse" v="harbour" />
		<tag k="name" v="Ølbørhamna" />
		<tag k="seamark:type" v="harbour" />
		<tag k="ssr:stedsnr" v="122932" />
	</node>
	<node id="-23053" lat="58.8993500029" lon="5.65973610665">
		<tag k="bridge" v="yes" />
		<tag k="layer" v="1" />
		<tag k="name" v="Joa kanalbru" />
		<tag k="ssr:stedsnr" v="532645" />
	</node>
	<node id="-23052" lat="58.8866694432" lon="5.62261388861">
		<tag k="bridge" v="yes" />
		<tag k="layer" v="1" />
		<tag k="name" v="Utsola" />
		<tag k="ssr:stedsnr" v="532638" />
	</node>
	<node id="-22794" lat="58.9328800136" lon="5.58052946276">
		<tag k="man_made" v="quay" />
		<tag k="name" v="Melingsbryggja" />
		<tag k="place" v="locality" />
		<tag k="ssr:stedsnr" v="972945" />
	</node>
	<node id="-23175" lat="58.935597219" lon="5.60219722309">
		<tag k="bridge" v="yes" />
		<tag k="layer" v="1" />
		<tag k="name" v="Haga" />
		<tag k="ssr:stedsnr" v="836636" />
	</node>
	<node id="-23174" lat="58.9534083324" lon="5.60672221547">
		<tag k="bridge" v="yes" />
		<tag k="layer" v="1" />
		<tag k="name" v="Jåsund" />
		<tag k="ssr:stedsnr" v="836635" />
	</node>
	<node id="-23045" lat="58.83971944" lon="5.59798332954">
		<tag k="bridge" v="yes" />
		<tag k="layer" v="1" />
		<tag k="name" v="Dammen" />
		<tag k="ssr:stedsnr" v="411608" />
	</node>
	<node id="-22788" lat="58.8861722187" lon="5.64462499531">
		<tag k="bridge" v="yes" />
		<tag k="layer" v="1" />
		<tag k="name" v="Solakrossen" />
		<tag k="ssr:stedsnr" v="653672" />
	</node>
</osm>
