<?xml version="1.0" encoding="UTF-8"?>
<<<<<<< HEAD
<osm version="0.6" generator="osmapis">
	<node lat="58.88332222280709" lon="5.661250002089144" id="-7">
		<tag k="name" v="Uthaug" />
=======
<osm generator="osmapis" version="0.6">
	<node id="-24569" lat="58.8513472235" lon="5.54711666902">
		<tag k="fixme" v="consider natural=peak for the most distinct mountains in the district" />
		<tag k="name" v="Idlestolen" />
		<tag k="natural" v="hill" />
		<tag k="place" v="locality" />
		<tag k="ssr:stedsnr" v="630711" />
	</node>
	<node id="-24568" lat="58.8520750021" lon="5.5508527747">
		<tag k="fixme" v="consider natural=peak for the most distinct mountains in the district" />
		<tag k="name" v="Håfjellet" />
		<tag k="natural" v="hill" />
		<tag k="place" v="locality" />
		<tag k="ssr:stedsnr" v="630710" />
	</node>
	<node id="-24565" lat="58.901513888" lon="5.66988888743">
		<tag k="fixme" v="consider natural=peak for the most distinct mountains in the district" />
		<tag k="name" v="Åsberget" />
		<tag k="natural" v="hill" />
		<tag k="place" v="locality" />
		<tag k="ssr:stedsnr" v="630261" />
	</node>
	<node id="-24561" lat="58.9204583365" lon="5.67258333037">
		<tag k="name" v="Stølsberget" />
		<tag k="natural" v="hill" />
		<tag k="place" v="locality" />
		<tag k="ssr:stedsnr" v="630172" />
	</node>
	<node id="-24914" lat="58.8302083334" lon="5.59606943712">
		<tag k="name" v="Valhaug" />
		<tag k="natural" v="hill" />
		<tag k="place" v="locality" />
		<tag k="ssr:stedsnr" v="752376" />
	</node>
	<node id="-24552" lat="58.9145861135" lon="5.6020638812">
		<tag k="name" v="Orshaug" />
		<tag k="natural" v="hill" />
		<tag k="place" v="locality" />
		<tag k="ssr:stedsnr" v="691768" />
	</node>
	<node id="-24551" lat="58.8855583302" lon="5.60388888704">
		<tag k="fixme" v="consider natural=peak for the most distinct mountains in the district" />
		<tag k="name" v="Båtaberget" />
		<tag k="natural" v="hill" />
		<tag k="place" v="locality" />
		<tag k="ssr:stedsnr" v="691739" />
	</node>
	<node id="-24548" lat="58.937091665" lon="5.5965499938">
		<tag k="fixme" v="consider natural=peak for the most distinct mountains in the district" />
		<tag k="name" v="Bestefarstolen" />
		<tag k="natural" v="hill" />
		<tag k="place" v="locality" />
		<tag k="ssr:stedsnr" v="691388" />
	</node>
	<node id="-24545" lat="58.8992888921" lon="5.67547777349">
		<tag k="fixme" v="consider natural=peak for the most distinct mountains in the district" />
		<tag k="name" v="Blåberget" />
		<tag k="natural" v="hill" />
		<tag k="place" v="locality" />
		<tag k="ssr:stedsnr" v="691296" />
	</node>
	<node id="-24544" lat="58.8847888927" lon="5.61666945121">
		<tag k="fixme" v="consider natural=peak for the most distinct mountains in the district" />
		<tag k="name" v="Vaulaberget" />
		<tag k="natural" v="hill" />
		<tag k="place" v="locality" />
		<tag k="ssr:stedsnr" v="691283" />
	</node>
	<node id="-24543" lat="58.9180416656" lon="5.66552500427">
		<tag k="name" v="Hanaberget" />
		<tag k="natural" v="hill" />
		<tag k="place" v="locality" />
		<tag k="ssr:stedsnr" v="691215" />
	</node>
	<node id="-24539" lat="58.8457555566" lon="5.58184722973">
		<tag k="fixme" v="consider natural=peak for the most distinct mountains in the district" />
		<tag k="name" v="Træeberget" />
		<tag k="natural" v="hill" />
		<tag k="place" v="locality" />
		<tag k="ssr:stedsnr" v="691094" />
	</node>
	<node id="-24911" lat="58.8538527797" lon="5.56870277931">
		<tag k="fixme" v="consider natural=peak for the most distinct mountains in the district" />
		<tag k="name" v="Revanuten" />
		<tag k="natural" v="hill" />
		<tag k="place" v="locality" />
		<tag k="ssr:stedsnr" v="752356" />
	</node>
	<node id="-24530" lat="61.2177777797" lon="6.59979722139">
		<tag k="alt_name" v="Alskori" />
		<tag k="name" v="Almskori" />
		<tag k="place" v="locality" />
		<tag k="ssr:stedsnr" v="677966" />
	</node>
	<node id="-24524" lat="58.8560666677" lon="5.55852778098">
		<tag k="name" v="Vigdelsveten" />
		<tag k="natural" v="hill" />
		<tag k="place" v="locality" />
		<tag k="ssr:stedsnr" v="668990" />
	</node>
	<node id="-24502" lat="58.900183337" lon="5.66001944156">
		<tag k="fixme" v="consider natural=peak for the most distinct mountains in the district" />
		<tag k="name" v="Ospeberget" />
		<tag k="natural" v="hill" />
		<tag k="place" v="locality" />
		<tag k="ssr:stedsnr" v="509232" />
	</node>
	<node id="-24501" lat="58.9054805539" lon="5.66630555411">
		<tag k="name" v="Myklaberget" />
		<tag k="natural" v="hill" />
		<tag k="place" v="locality" />
		<tag k="ssr:stedsnr" v="509163" />
	</node>
	<node id="-24497" lat="58.9397388926" lon="5.57937222189">
		<tag k="fixme" v="consider natural=peak for the most distinct mountains in the district" />
		<tag k="name" v="Nonsteinen" />
		<tag k="natural" v="hill" />
		<tag k="place" v="locality" />
		<tag k="ssr:stedsnr" v="509339" />
	</node>
	<node id="-24496" lat="58.9340111134" lon="5.61066111708">
		<tag k="name" v="Berget" />
		<tag k="natural" v="hill" />
		<tag k="place" v="locality" />
		<tag k="ssr:stedsnr" v="509329" />
	</node>
	<node id="-24494" lat="58.8481111071" lon="5.56873611915">
		<tag k="fixme" v="consider natural=peak for the most distinct mountains in the district" />
		<tag k="name" v="Hagafjell" />
		<tag k="natural" v="hill" />
		<tag k="place" v="locality" />
		<tag k="ssr:stedsnr" v="509069" />
	</node>
	<node id="-24481" lat="58.8811061347" lon="5.66684222445">
		<tag k="fixme" v="consider natural=peak for the most distinct mountains in the district" />
		<tag k="name" v="Varaberget" />
		<tag k="natural" v="hill" />
		<tag k="place" v="locality" />
		<tag k="ssr:stedsnr" v="387361" />
	</node>
	<node id="-24471" lat="58.8784972194" lon="5.67783888269">
		<tag k="fixme" v="consider natural=peak for the most distinct mountains in the district" />
		<tag k="name" v="Bæreimsfjellet" />
		<tag k="natural" v="hill" />
		<tag k="place" v="locality" />
		<tag k="ssr:stedsnr" v="327317" />
	</node>
	<node id="-24978" lat="58.8228027769" lon="5.57849444448">
		<tag k="name" v="Ølstekula" />
		<tag k="natural" v="hill" />
		<tag k="place" v="locality" />
		<tag k="ssr:stedsnr" v="873393" />
	</node>
	<node id="-24977" lat="58.917719441" lon="5.5238166591">
		<tag k="fixme" v="consider natural=peak for the most distinct mountains in the district" />
		<tag k="name" v="Haukaberget" />
		<tag k="natural" v="hill" />
		<tag k="place" v="locality" />
		<tag k="ssr:stedsnr" v="873385" />
	</node>
	<node id="-24975" lat="58.9414583348" lon="5.57811389409">
		<tag k="alt_name" v="Storevarden" />
		<tag k="fixme" v="consider natural=peak for the most distinct mountains in the district" />
		<tag k="name" v="Tanangerhaug" />
		<tag k="natural" v="hill" />
		<tag k="place" v="locality" />
		<tag k="ssr:stedsnr" v="873371" />
	</node>
	<node id="-24972" lat="58.8507666655" lon="5.6329027755">
		<tag k="name" v="Høgholen" />
		<tag k="natural" v="hill" />
		<tag k="place" v="locality" />
		<tag k="ssr:stedsnr" v="873286" />
	</node>
	<node id="-24969" lat="58.8504694409" lon="5.59647222586">
		<tag k="fixme" v="consider natural=peak for the most distinct mountains in the district" />
		<tag k="name" v="Gjøsteinen" />
		<tag k="natural" v="hill" />
		<tag k="place" v="locality" />
		<tag k="ssr:stedsnr" v="873081" />
	</node>
	<node id="-24454" lat="58.9125638901" lon="5.61747499882">
		<tag k="fixme" v="consider natural=peak for the most distinct mountains in the district" />
		<tag k="name" v="Gjeringsberget" />
		<tag k="natural" v="hill" />
		<tag k="place" v="locality" />
		<tag k="ssr:stedsnr" v="449284" />
	</node>
	<node id="-24446" lat="58.9445472226" lon="5.57565833432">
		<tag k="name" v="Varden" />
		<tag k="natural" v="hill" />
		<tag k="place" v="locality" />
		<tag k="ssr:stedsnr" v="449345" />
	</node>
	<node id="-24445" lat="58.9475777792" lon="5.57004167307">
		<tag k="fixme" v="consider natural=peak for the most distinct mountains in the district" />
		<tag k="name" v="Koppmannen" />
		<tag k="natural" v="hill" />
		<tag k="place" v="locality" />
		<tag k="ssr:stedsnr" v="449343" />
	</node>
	<node id="-24443" lat="58.934322226" lon="5.6144833281">
		<tag k="name" v="Stølsberget" />
		<tag k="natural" v="hill" />
		<tag k="place" v="locality" />
		<tag k="ssr:stedsnr" v="449330" />
	</node>
	<node id="-24951" lat="58.9348055572" lon="5.69081111479">
		<tag k="name" v="Renneberget" />
		<tag k="natural" v="hill" />
		<tag k="place" v="locality" />
		<tag k="ssr:stedsnr" v="813300" />
	</node>
	<node id="-24437" lat="58.8516305522" lon="5.557305557">
		<tag k="fixme" v="consider natural=peak for the most distinct mountains in the district" />
		<tag k="name" v="Pigjen" />
		<tag k="natural" v="hill" />
		<tag k="place" v="locality" />
		<tag k="ssr:stedsnr" v="449063" />
	</node>
	<node id="-24436" lat="58.8647333339" lon="5.60900555291">
		<tag k="name" v="Ulvsberget" />
		<tag k="natural" v="hill" />
		<tag k="place" v="locality" />
		<tag k="ssr:stedsnr" v="449258" />
	</node>
	<node id="-24947" lat="58.8862555518" lon="5.68109722046">
		<tag k="fixme" v="consider natural=peak for the most distinct mountains in the district" />
		<tag k="name" v="Kjerrberget" />
		<tag k="natural" v="hill" />
		<tag k="place" v="locality" />
		<tag k="ssr:stedsnr" v="813220" />
	</node>
	<node id="-24434" lat="58.884791671" lon="5.68806111733">
		<tag k="name" v="Nattskrinet" />
		<tag k="natural" v="hill" />
		<tag k="place" v="locality" />
		<tag k="ssr:stedsnr" v="449249" />
	</node>
	<node id="-24433" lat="58.8900611074" lon="5.65094167296">
		<tag k="fixme" v="consider natural=peak for the most distinct mountains in the district" />
		<tag k="name" v="Torvberget" />
		<tag k="natural" v="hill" />
		<tag k="place" v="locality" />
		<tag k="ssr:stedsnr" v="449247" />
	</node>
	<node id="-24432" lat="58.8920416672" lon="5.65748333274">
		<tag k="fixme" v="consider natural=peak for the most distinct mountains in the district" />
		<tag k="name" v="Storaberget" />
		<tag k="natural" v="hill" />
		<tag k="place" v="locality" />
		<tag k="ssr:stedsnr" v="449245" />
	</node>
	<node id="-24938" lat="58.8517555592" lon="5.56763055506">
		<tag k="fixme" v="consider natural=peak for the most distinct mountains in the district" />
		<tag k="name" v="Varafjell" />
		<tag k="natural" v="hill" />
		<tag k="place" v="locality" />
		<tag k="ssr:stedsnr" v="812067" />
	</node>
	<node id="-24375" lat="58.8833222228" lon="5.66125000209">
		<tag k="name" v="Uthaug" />
		<tag k="natural" v="hill" />
		<tag k="place" v="locality" />
		<tag k="ssr:stedsnr" v="24302" />
	</node>
	<node id="-24409" lat="58.9229111121" lon="5.59711111241">
		<tag k="fixme" v="consider natural=peak for the most distinct mountains in the district" />
		<tag k="name" v="Hamraberget" />
		<tag k="natural" v="hill" />
		<tag k="place" v="locality" />
		<tag k="ssr:stedsnr" v="145771" />
	</node>
	<node id="-24405" lat="58.9120611126" lon="5.6071249916">
		<tag k="name" v="Hundaberget" />
>>>>>>> e1d4bc35ff8a6074a6f2e91616a996b547c36f15
		<tag k="natural" v="hill" />
		<tag k="place" v="locality" />
		<tag k="ssr:stedsnr" v="24302" />
	</node>
<<<<<<< HEAD
	<node lat="58.88483611321674" lon="5.673613891634614" id="-10">
=======
	<node id="-24915" lat="58.8625638933" lon="5.55989445188">
>>>>>>> e1d4bc35ff8a6074a6f2e91616a996b547c36f15
		<tag k="fixme" v="consider natural=peak for the most distinct mountains in the district" />
		<tag k="name" v="Litlaberget" />
		<tag k="natural" v="hill" />
		<tag k="place" v="locality" />
		<tag k="ssr:stedsnr" v="24233" />
	</node>
<<<<<<< HEAD
	<node lat="58.87690833133044" lon="5.596280561413534" id="-13">
		<tag k="fixme" v="consider natural=peak for the most distinct mountains in the district" />
		<tag k="name" v="Bereimsberget" />
		<tag k="natural" v="hill" />
		<tag k="place" v="locality" />
		<tag k="ssr:stedsnr" v="24390" />
	</node>
	<node lat="58.85509166959305" lon="5.567683337400467" id="-29">
		<tag k="fixme" v="consider natural=peak for the most distinct mountains in the district" />
		<tag k="name" v="Nilsaberget" />
=======
	<node id="-24402" lat="58.8349944407" lon="5.56788611835">
		<tag k="name" v="Følhusholen" />
		<tag k="natural" v="hill" />
		<tag k="place" v="locality" />
		<tag k="ssr:stedsnr" v="266383" />
	</node>
	<node id="-24912" lat="58.8718972204" lon="5.58664443669">
		<tag k="name" v="Havholen" />
>>>>>>> e1d4bc35ff8a6074a6f2e91616a996b547c36f15
		<tag k="natural" v="hill" />
		<tag k="place" v="locality" />
		<tag k="ssr:stedsnr" v="84403" />
	</node>
<<<<<<< HEAD
	<node lat="58.94989721913366" lon="5.581650006463508" id="-31">
		<tag k="fixme" v="consider natural=peak for the most distinct mountains in the district" />
		<tag k="name" v="Torvberget" />
		<tag k="natural" v="hill" />
		<tag k="place" v="locality" />
		<tag k="ssr:stedsnr" v="84499" />
	</node>
	<node lat="58.90493333332412" lon="5.6435416612326375" id="-32">
		<tag k="fixme" v="consider natural=peak for the most distinct mountains in the district" />
		<tag k="name" v="Duberg" />
		<tag k="natural" v="hill" />
		<tag k="place" v="locality" />
		<tag k="ssr:stedsnr" v="85194" />
	</node>
	<node lat="58.895761114072506" lon="5.668844446718729" id="-33">
		<tag k="fixme" v="consider natural=peak for the most distinct mountains in the district" />
		<tag k="name" v="Åsnuten" />
=======
	<node id="-24399" lat="58.929930556" lon="5.63019999845">
		<tag k="name" v="Nordøyna" />
		<tag k="natural" v="hill" />
		<tag k="place" v="locality" />
		<tag k="ssr:stedsnr" v="266338" />
	</node>
	<node id="-24910" lat="58.9282750028" lon="5.63371944087">
		<tag k="name" v="Midøyna" />
		<tag k="natural" v="hill" />
		<tag k="place" v="locality" />
		<tag k="ssr:stedsnr" v="752302" />
	</node>
	<node id="-24397" lat="58.9021194407" lon="5.69098888712">
		<tag k="name" v="Grytnes" />
		<tag k="place" v="locality" />
		<tag k="ssr:stedsnr" v="266277" />
	</node>
	<node id="-24396" lat="58.8895833296" lon="5.68695277851">
		<tag k="name" v="Tangen" />
>>>>>>> e1d4bc35ff8a6074a6f2e91616a996b547c36f15
		<tag k="natural" v="hill" />
		<tag k="place" v="locality" />
		<tag k="ssr:stedsnr" v="85209" />
	</node>
<<<<<<< HEAD
	<node lat="58.8392055580835" lon="5.587952784875321" id="-51">
		<tag k="name" v="Kråkhaug" />
=======
	<node id="-24906" lat="58.9089833373" lon="5.67420556307">
		<tag k="name" v="Svinaberget" />
>>>>>>> e1d4bc35ff8a6074a6f2e91616a996b547c36f15
		<tag k="natural" v="hill" />
		<tag k="place" v="locality" />
		<tag k="ssr:stedsnr" v="145398" />
	</node>
<<<<<<< HEAD
	<node lat="58.92291111206704" lon="5.597111112414135" id="-52">
=======
	<node id="-24905" lat="58.8497222258" lon="5.57389444949">
>>>>>>> e1d4bc35ff8a6074a6f2e91616a996b547c36f15
		<tag k="fixme" v="consider natural=peak for the most distinct mountains in the district" />
		<tag k="name" v="Hamraberget" />
		<tag k="natural" v="hill" />
		<tag k="place" v="locality" />
		<tag k="ssr:stedsnr" v="145771" />
	</node>
<<<<<<< HEAD
	<node lat="58.88958332958398" lon="5.686952778509304" id="-60">
		<tag k="name" v="Tangen" />
=======
	<node id="-24386" lat="58.8957611141" lon="5.66884444672">
		<tag k="fixme" v="consider natural=peak for the most distinct mountains in the district" />
		<tag k="name" v="Åsnuten" />
>>>>>>> e1d4bc35ff8a6074a6f2e91616a996b547c36f15
		<tag k="natural" v="hill" />
		<tag k="place" v="locality" />
		<tag k="ssr:stedsnr" v="266273" />
	</node>
<<<<<<< HEAD
	<node lat="58.902119440725286" lon="5.690988887122729" id="-61">
		<tag k="name" v="Grytnes" />
		<tag k="place" v="locality" />
		<tag k="ssr:stedsnr" v="266277" />
	</node>
	<node lat="58.86473333389296" lon="5.609005552912421" id="-84">
		<tag k="name" v="Ulvsberget" />
=======
	<node id="-24383" lat="58.8550916696" lon="5.5676833374">
		<tag k="fixme" v="consider natural=peak for the most distinct mountains in the district" />
		<tag k="name" v="Nilsaberget" />
>>>>>>> e1d4bc35ff8a6074a6f2e91616a996b547c36f15
		<tag k="natural" v="hill" />
		<tag k="place" v="locality" />
		<tag k="ssr:stedsnr" v="449258" />
	</node>
<<<<<<< HEAD
	<node lat="58.93432222601056" lon="5.6144833281000235" id="-86">
		<tag k="name" v="Stølsberget" />
		<tag k="natural" v="hill" />
		<tag k="place" v="locality" />
		<tag k="ssr:stedsnr" v="449330" />
	</node>
	<node lat="58.91256389011996" lon="5.617474998822862" id="-87">
=======
	<node id="-24891" lat="58.8736823429" lon="5.5715684902">
>>>>>>> e1d4bc35ff8a6074a6f2e91616a996b547c36f15
		<tag k="fixme" v="consider natural=peak for the most distinct mountains in the district" />
		<tag k="name" v="Gjeringsberget" />
		<tag k="natural" v="hill" />
		<tag k="place" v="locality" />
		<tag k="ssr:stedsnr" v="449284" />
	</node>
<<<<<<< HEAD
	<node lat="58.94757777924116" lon="5.570041673070247" id="-89">
=======
	<node id="-24890" lat="58.8747348593" lon="5.57384337975">
>>>>>>> e1d4bc35ff8a6074a6f2e91616a996b547c36f15
		<tag k="fixme" v="consider natural=peak for the most distinct mountains in the district" />
		<tag k="name" v="Koppmannen" />
		<tag k="natural" v="hill" />
		<tag k="place" v="locality" />
		<tag k="ssr:stedsnr" v="449343" />
	</node>
<<<<<<< HEAD
	<node lat="58.944547222619455" lon="5.575658334323692" id="-90">
		<tag k="name" v="Varden" />
=======
	<node id="-24888" lat="58.828205557" lon="5.56516110976">
		<tag k="name" v="Stavholane" />
>>>>>>> e1d4bc35ff8a6074a6f2e91616a996b547c36f15
		<tag k="natural" v="hill" />
		<tag k="place" v="locality" />
		<tag k="ssr:stedsnr" v="449345" />
	</node>
<<<<<<< HEAD
	<node lat="58.92993055600713" lon="5.630199998449265" id="-99">
		<tag k="name" v="Nordøyna" />
=======
	<node id="-24887" lat="58.9031944417" lon="5.62487222951">
		<tag k="fixme" v="consider natural=peak for the most distinct mountains in the district" />
		<tag k="name" v="Leirberg" />
>>>>>>> e1d4bc35ff8a6074a6f2e91616a996b547c36f15
		<tag k="natural" v="hill" />
		<tag k="place" v="locality" />
		<tag k="ssr:stedsnr" v="266338" />
	</node>
<<<<<<< HEAD
	<node lat="58.83499444065936" lon="5.567886118349944" id="-100">
		<tag k="name" v="Følhusholen" />
=======
	<node id="-24373" lat="58.8848361132" lon="5.67361389163">
		<tag k="fixme" v="consider natural=peak for the most distinct mountains in the district" />
		<tag k="name" v="Litlaberget" />
>>>>>>> e1d4bc35ff8a6074a6f2e91616a996b547c36f15
		<tag k="natural" v="hill" />
		<tag k="place" v="locality" />
		<tag k="ssr:stedsnr" v="266383" />
	</node>
<<<<<<< HEAD
	<node lat="58.912061112568324" lon="5.607124991604127" id="-101">
		<tag k="name" v="Hundaberget" />
		<tag k="natural" v="hill" />
		<tag k="place" v="locality" />
		<tag k="ssr:stedsnr" v="266784" />
	</node>
	<node lat="58.87849721936569" lon="5.677838882686594" id="-117">
=======
	<node id="-24869" lat="58.9097166689" lon="5.60411111286">
>>>>>>> e1d4bc35ff8a6074a6f2e91616a996b547c36f15
		<tag k="fixme" v="consider natural=peak for the most distinct mountains in the district" />
		<tag k="name" v="Bæreimsfjellet" />
		<tag k="natural" v="hill" />
		<tag k="place" v="locality" />
		<tag k="ssr:stedsnr" v="327317" />
	</node>
<<<<<<< HEAD
	<node lat="58.84372778063432" lon="5.5951027817655845" id="-118">
		<tag k="name" v="Høgeholen" />
=======
	<node id="-24864" lat="58.8702138897" lon="5.58229722542">
		<tag k="name" v="Haugarhaug" />
>>>>>>> e1d4bc35ff8a6074a6f2e91616a996b547c36f15
		<tag k="natural" v="hill" />
		<tag k="place" v="locality" />
		<tag k="ssr:stedsnr" v="327079" />
	</node>
<<<<<<< HEAD
	<node lat="58.847916666151484" lon="5.627466658964154" id="-131">
		<tag k="name" v="Følingsholen" />
		<tag k="place" v="locality" />
		<tag k="ssr:stedsnr" v="387310" />
	</node>
	<node lat="58.89662499630627" lon="5.673833341277537" id="-133">
		<tag k="fixme" v="consider natural=peak for the most distinct mountains in the district" />
		<tag k="name" v="Eikeberget" />
=======
	<node id="-24862" lat="58.8555277755" lon="5.58852778488">
		<tag k="name" v="Revaberget" />
>>>>>>> e1d4bc35ff8a6074a6f2e91616a996b547c36f15
		<tag k="natural" v="hill" />
		<tag k="place" v="locality" />
		<tag k="ssr:stedsnr" v="387297" />
	</node>
<<<<<<< HEAD
	<node lat="58.8597861101368" lon="5.57118333806547" id="-136">
=======
	<node id="-24857" lat="58.9044194448" lon="5.67146667046">
>>>>>>> e1d4bc35ff8a6074a6f2e91616a996b547c36f15
		<tag k="fixme" v="consider natural=peak for the most distinct mountains in the district" />
		<tag k="name" v="Svartaberg" />
		<tag k="natural" v="hill" />
		<tag k="place" v="locality" />
		<tag k="ssr:stedsnr" v="387420" />
	</node>
<<<<<<< HEAD
	<node lat="58.89204166718149" lon="5.657483332740816" id="-158">
=======
	<node id="-24856" lat="58.8967111138" lon="5.64477778222">
>>>>>>> e1d4bc35ff8a6074a6f2e91616a996b547c36f15
		<tag k="fixme" v="consider natural=peak for the most distinct mountains in the district" />
		<tag k="name" v="Storaberget" />
		<tag k="natural" v="hill" />
		<tag k="place" v="locality" />
		<tag k="ssr:stedsnr" v="449245" />
	</node>
<<<<<<< HEAD
	<node lat="58.890061107400804" lon="5.650941672961391" id="-159">
=======
	<node id="-24855" lat="58.8872500042" lon="5.6096250071">
>>>>>>> e1d4bc35ff8a6074a6f2e91616a996b547c36f15
		<tag k="fixme" v="consider natural=peak for the most distinct mountains in the district" />
		<tag k="name" v="Torvberget" />
		<tag k="natural" v="hill" />
		<tag k="place" v="locality" />
		<tag k="ssr:stedsnr" v="449247" />
	</node>
<<<<<<< HEAD
	<node lat="58.88479167098731" lon="5.688061117332643" id="-160">
		<tag k="name" v="Nattskrinet" />
=======
	<node id="-24854" lat="58.8971638866" lon="5.62802778654">
		<tag k="name" v="Halmhaugane" />
>>>>>>> e1d4bc35ff8a6074a6f2e91616a996b547c36f15
		<tag k="natural" v="hill" />
		<tag k="place" v="locality" />
		<tag k="ssr:stedsnr" v="449249" />
	</node>
<<<<<<< HEAD
	<node lat="58.91337777731659" lon="5.609430549650117" id="-183">
=======
	<node id="-24847" lat="58.9133777773" lon="5.60943054965">
>>>>>>> e1d4bc35ff8a6074a6f2e91616a996b547c36f15
		<tag k="alt_name" v="Vardåsen, s;s. Varåsen" />
		<tag k="fixme" v="consider natural=peak for the most distinct mountains in the district" />
		<tag k="name" v="Søre Vardåsen" />
		<tag k="natural" v="hill" />
		<tag k="place" v="locality" />
		<tag k="ssr:stedsnr" v="546031" />
	</node>
<<<<<<< HEAD
	<node lat="58.91458611354158" lon="5.60206388119836" id="-186">
		<tag k="name" v="Orshaug" />
		<tag k="natural" v="hill" />
=======
	<node id="-24831" lat="58.8361805515" lon="5.59591388415">
		<tag k="name" v="Bulega" />
		<tag k="natural" v="valley" />
>>>>>>> e1d4bc35ff8a6074a6f2e91616a996b547c36f15
		<tag k="place" v="locality" />
		<tag k="ssr:stedsnr" v="691768" />
	</node>
<<<<<<< HEAD
	<node lat="58.845755556555375" lon="5.5818472297314266" id="-187">
=======
	<node id="-24828" lat="58.8597861101" lon="5.57118333807">
>>>>>>> e1d4bc35ff8a6074a6f2e91616a996b547c36f15
		<tag k="fixme" v="consider natural=peak for the most distinct mountains in the district" />
		<tag k="name" v="Træeberget" />
		<tag k="natural" v="hill" />
		<tag k="place" v="locality" />
<<<<<<< HEAD
		<tag k="ssr:stedsnr" v="691094" />
	</node>
	<node lat="58.897163886557244" lon="5.628027786541036" id="-191">
		<tag k="name" v="Halmhaugane" />
=======
		<tag k="ssr:stedsnr" v="387420" />
	</node>
	<node id="-24822" lat="58.8479166662" lon="5.62746665896">
		<tag k="name" v="Følingsholen" />
		<tag k="place" v="locality" />
		<tag k="ssr:stedsnr" v="387310" />
	</node>
	<node id="-24821" lat="58.8966249963" lon="5.67383334128">
		<tag k="fixme" v="consider natural=peak for the most distinct mountains in the district" />
		<tag k="name" v="Eikeberget" />
>>>>>>> e1d4bc35ff8a6074a6f2e91616a996b547c36f15
		<tag k="natural" v="hill" />
		<tag k="place" v="locality" />
		<tag k="ssr:stedsnr" v="569256" />
	</node>
<<<<<<< HEAD
	<node lat="58.8872500041633" lon="5.609625007103106" id="-192">
=======
	<node id="-24818" lat="58.850147224" lon="5.57018055769">
>>>>>>> e1d4bc35ff8a6074a6f2e91616a996b547c36f15
		<tag k="fixme" v="consider natural=peak for the most distinct mountains in the district" />
		<tag k="name" v="Småberga" />
		<tag k="natural" v="hill" />
		<tag k="place" v="locality" />
		<tag k="ssr:stedsnr" v="569258" />
	</node>
<<<<<<< HEAD
	<node lat="58.89671111383887" lon="5.644777782216354" id="-193">
		<tag k="fixme" v="consider natural=peak for the most distinct mountains in the district" />
		<tag k="name" v="Skiljaberget" />
=======
	<node id="-24810" lat="58.8484444474" lon="5.58418333687">
		<tag k="name" v="Eikeberget" />
>>>>>>> e1d4bc35ff8a6074a6f2e91616a996b547c36f15
		<tag k="natural" v="hill" />
		<tag k="place" v="locality" />
		<tag k="ssr:stedsnr" v="569263" />
	</node>
<<<<<<< HEAD
	<node lat="58.90441944479433" lon="5.671466670460765" id="-194">
=======
	<node id="-24795" lat="58.8575750012" lon="5.59171111911">
>>>>>>> e1d4bc35ff8a6074a6f2e91616a996b547c36f15
		<tag k="fixme" v="consider natural=peak for the most distinct mountains in the district" />
		<tag k="name" v="Gåseberget" />
		<tag k="natural" v="hill" />
		<tag k="place" v="locality" />
		<tag k="ssr:stedsnr" v="569276" />
	</node>
<<<<<<< HEAD
	<node lat="58.90319444167445" lon="5.624872229505948" id="-202">
		<tag k="fixme" v="consider natural=peak for the most distinct mountains in the district" />
		<tag k="name" v="Leirberg" />
=======
	<node id="-24794" lat="58.8598858083" lon="5.60236338004">
		<tag k="name" v="Einhaug" />
>>>>>>> e1d4bc35ff8a6074a6f2e91616a996b547c36f15
		<tag k="natural" v="hill" />
		<tag k="place" v="locality" />
		<tag k="ssr:stedsnr" v="630243" />
	</node>
<<<<<<< HEAD
	<node lat="58.85207500212773" lon="5.550852774702277" id="-208">
		<tag k="fixme" v="consider natural=peak for the most distinct mountains in the district" />
		<tag k="name" v="Håfjellet" />
=======
	<node id="-24788" lat="58.9014083365" lon="5.64485276954">
		<tag k="name" v="Kråkebakkane" />
>>>>>>> e1d4bc35ff8a6074a6f2e91616a996b547c36f15
		<tag k="natural" v="hill" />
		<tag k="place" v="locality" />
		<tag k="ssr:stedsnr" v="630710" />
	</node>
<<<<<<< HEAD
	<node lat="58.85134722346894" lon="5.547116669017014" id="-209">
		<tag k="fixme" v="consider natural=peak for the most distinct mountains in the district" />
		<tag k="name" v="Idlestolen" />
=======
	<node id="-24786" lat="58.8437277806" lon="5.59510278177">
		<tag k="name" v="Høgeholen" />
>>>>>>> e1d4bc35ff8a6074a6f2e91616a996b547c36f15
		<tag k="natural" v="hill" />
		<tag k="place" v="locality" />
		<tag k="ssr:stedsnr" v="630711" />
	</node>
<<<<<<< HEAD
	<node lat="58.91804166559763" lon="5.665525004265012" id="-219">
		<tag k="name" v="Hanaberget" />
=======
	<node id="-24778" lat="58.8501062829" lon="5.56704456738">
		<tag k="alt_name" v="Hedlestøveten" />
		<tag k="name" v="Hellestøveten" />
>>>>>>> e1d4bc35ff8a6074a6f2e91616a996b547c36f15
		<tag k="natural" v="hill" />
		<tag k="place" v="locality" />
		<tag k="ssr:stedsnr" v="691215" />
	</node>
<<<<<<< HEAD
	<node lat="58.88478889274011" lon="5.616669451213434" id="-220">
=======
	<node id="-24768" lat="58.868025003" lon="5.57141111895">
>>>>>>> e1d4bc35ff8a6074a6f2e91616a996b547c36f15
		<tag k="fixme" v="consider natural=peak for the most distinct mountains in the district" />
		<tag k="name" v="Vaulaberget" />
		<tag k="natural" v="hill" />
		<tag k="place" v="locality" />
		<tag k="ssr:stedsnr" v="691283" />
	</node>
<<<<<<< HEAD
	<node lat="58.89928889206315" lon="5.675477773488408" id="-221">
		<tag k="fixme" v="consider natural=peak for the most distinct mountains in the district" />
		<tag k="name" v="Blåberget" />
=======
	<node id="-24949" lat="58.8828361089" lon="5.66458889579">
		<tag k="name" v="Nonsberget" />
		<tag k="natural" v="hill" />
		<tag k="place" v="locality" />
		<tag k="ssr:stedsnr" v="813277" />
	</node>
	<node id="-24761" lat="58.9354000033" lon="5.6265027688">
		<tag k="name" v="Hansaberget" />
>>>>>>> e1d4bc35ff8a6074a6f2e91616a996b547c36f15
		<tag k="natural" v="hill" />
		<tag k="place" v="locality" />
		<tag k="ssr:stedsnr" v="691296" />
	</node>
<<<<<<< HEAD
	<node lat="58.937091665034984" lon="5.596549993795629" id="-224">
		<tag k="fixme" v="consider natural=peak for the most distinct mountains in the district" />
		<tag k="name" v="Bestefarstolen" />
=======
	<node id="-24760" lat="58.9384250001" lon="5.62438889178">
		<tag k="name" v="Grøthaug" />
>>>>>>> e1d4bc35ff8a6074a6f2e91616a996b547c36f15
		<tag k="natural" v="hill" />
		<tag k="place" v="locality" />
		<tag k="ssr:stedsnr" v="691388" />
	</node>
<<<<<<< HEAD
	<node lat="58.88555833023635" lon="5.60388888703836" id="-226">
=======
	<node id="-24948" lat="58.8457944408" lon="5.62208611209">
		<tag k="name" v="Langholen" />
		<tag k="place" v="locality" />
		<tag k="ssr:stedsnr" v="813245" />
	</node>
	<node id="-24758" lat="58.9041222185" lon="5.65156111523">
>>>>>>> e1d4bc35ff8a6074a6f2e91616a996b547c36f15
		<tag k="fixme" v="consider natural=peak for the most distinct mountains in the district" />
		<tag k="name" v="Båtaberget" />
		<tag k="natural" v="hill" />
		<tag k="place" v="locality" />
		<tag k="ssr:stedsnr" v="691739" />
	</node>
<<<<<<< HEAD
	<node lat="58.849722225758924" lon="5.573894449486796" id="-236">
=======
	<node id="-24757" lat="58.9019055523" lon="5.66013611003">
>>>>>>> e1d4bc35ff8a6074a6f2e91616a996b547c36f15
		<tag k="fixme" v="consider natural=peak for the most distinct mountains in the district" />
		<tag k="name" v="Trallrudla" />
		<tag k="natural" v="hill" />
		<tag k="place" v="locality" />
		<tag k="ssr:stedsnr" v="752057" />
	</node>
<<<<<<< HEAD
	<node lat="58.90041388809503" lon="5.629591673756653" id="-237">
		<tag k="name" v="Prestaberget" />
=======
	<node id="-24946" lat="58.9182500014" lon="5.67742222902">
		<tag k="name" v="Fredberget" />
		<tag k="natural" v="hill" />
		<tag k="place" v="locality" />
		<tag k="ssr:stedsnr" v="813128" />
	</node>
	<node id="-24745" lat="58.9164388916" lon="5.60869443704">
		<tag k="alt_name" v="Vardåsen, nordre;n. Varåsen" />
		<tag k="fixme" v="consider natural=peak for the most distinct mountains in the district" />
		<tag k="name" v="Nordre Vardåsen" />
>>>>>>> e1d4bc35ff8a6074a6f2e91616a996b547c36f15
		<tag k="natural" v="hill" />
		<tag k="place" v="locality" />
		<tag k="ssr:stedsnr" v="752216" />
	</node>
<<<<<<< HEAD
	<node lat="58.85385277974815" lon="5.5687027793076105" id="-239">
=======
	<node id="-24735" lat="58.8533416655" lon="5.55122222205">
>>>>>>> e1d4bc35ff8a6074a6f2e91616a996b547c36f15
		<tag k="fixme" v="consider natural=peak for the most distinct mountains in the district" />
		<tag k="name" v="Revanuten" />
		<tag k="natural" v="hill" />
		<tag k="place" v="locality" />
		<tag k="ssr:stedsnr" v="752356" />
	</node>
<<<<<<< HEAD
	<node lat="58.87189722040867" lon="5.5866444366872114" id="-240">
		<tag k="name" v="Havholen" />
=======
	<node id="-24733" lat="58.8392055581" lon="5.58795278488">
		<tag k="name" v="Kråkhaug" />
>>>>>>> e1d4bc35ff8a6074a6f2e91616a996b547c36f15
		<tag k="natural" v="hill" />
		<tag k="place" v="locality" />
		<tag k="ssr:stedsnr" v="752374" />
	</node>
<<<<<<< HEAD
	<node lat="58.83020833342774" lon="5.5960694371177855" id="-242">
		<tag k="name" v="Valhaug" />
		<tag k="natural" v="hill" />
		<tag k="place" v="locality" />
		<tag k="ssr:stedsnr" v="752376" />
	</node>
	<node lat="58.861268187926726" lon="5.6064095714366" id="-255">
		<tag k="alt_name" v="Regehaugen" />
		<tag k="name" v="Rægehaugen" />
=======
	<node id="-24728" lat="58.9040666665" lon="5.6896361157">
		<tag k="fixme" v="consider natural=peak for the most distinct mountains in the district" />
		<tag k="name" v="Kidlingberget" />
>>>>>>> e1d4bc35ff8a6074a6f2e91616a996b547c36f15
		<tag k="natural" v="hill" />
		<tag k="old_name" v="Rekehaugen" />
		<tag k="place" v="locality" />
		<tag k="ssr:stedsnr" v="911987" />
	</node>
<<<<<<< HEAD
	<node lat="58.918250001428845" lon="5.677422229018262" id="-259">
		<tag k="name" v="Fredberget" />
=======
	<node id="-24727" lat="58.8908138894" lon="5.67273889454">
		<tag k="name" v="Jamnholen" />
>>>>>>> e1d4bc35ff8a6074a6f2e91616a996b547c36f15
		<tag k="natural" v="hill" />
		<tag k="place" v="locality" />
		<tag k="ssr:stedsnr" v="813128" />
	</node>
<<<<<<< HEAD
	<node lat="58.88283610885901" lon="5.664588895790595" id="-262">
		<tag k="name" v="Nonsberget" />
=======
	<node id="-24723" lat="58.8407138929" lon="5.57596111684">
		<tag k="fixme" v="consider natural=peak for the most distinct mountains in the district" />
		<tag k="name" v="Hanaberget" />
>>>>>>> e1d4bc35ff8a6074a6f2e91616a996b547c36f15
		<tag k="natural" v="hill" />
		<tag k="place" v="locality" />
		<tag k="ssr:stedsnr" v="813277" />
	</node>
<<<<<<< HEAD
	<node lat="58.91529166520629" lon="5.517377773691146" id="-275">
		<tag k="name" v="Grønevollen" />
=======
	<node id="-24720" lat="58.8424416704" lon="5.5758861162">
		<tag k="alt_name" v="Tormovarden" />
		<tag k="name" v="Tormodvarden" />
		<tag k="natural" v="hill" />
		<tag k="old_name" v="Turrmovarden" />
>>>>>>> e1d4bc35ff8a6074a6f2e91616a996b547c36f15
		<tag k="place" v="locality" />
		<tag k="ssr:stedsnr" v="934324" />
	</node>
<<<<<<< HEAD
	<node lat="58.86208333162387" lon="5.57317777828356" id="-279">
		<tag k="name" v="Kolleberget" />
=======
	<node id="-24703" lat="58.8861722238" lon="5.68105833456">
		<tag k="name" v="Kjerrberg" />
>>>>>>> e1d4bc35ff8a6074a6f2e91616a996b547c36f15
		<tag k="natural" v="hill" />
		<tag k="place" v="locality" />
		<tag k="ssr:stedsnr" v="934376" />
	</node>
<<<<<<< HEAD
	<node lat="58.86528888910309" lon="5.560480551701152" id="-280">
		<tag k="name" v="Starebakkane" />
=======
	<node id="-24696" lat="58.8877111152" lon="5.61479722752">
		<tag k="name" v="Espeberga" />
>>>>>>> e1d4bc35ff8a6074a6f2e91616a996b547c36f15
		<tag k="natural" v="hill" />
		<tag k="place" v="locality" />
		<tag k="ssr:stedsnr" v="934379" />
	</node>
<<<<<<< HEAD
	<node lat="58.85576111124499" lon="5.640494449823963" id="-281">
		<tag k="name" v="Malmeimshaugen" />
=======
	<node id="-24695" lat="58.9049333333" lon="5.64354166123">
		<tag k="fixme" v="consider natural=peak for the most distinct mountains in the district" />
		<tag k="name" v="Duberg" />
>>>>>>> e1d4bc35ff8a6074a6f2e91616a996b547c36f15
		<tag k="natural" v="hill" />
		<tag k="place" v="locality" />
		<tag k="ssr:stedsnr" v="934253" />
	</node>
<<<<<<< HEAD
	<node lat="58.90643889024588" lon="5.577400004470155" id="-284">
=======
	<node id="-24692" lat="58.9498972191" lon="5.58165000646">
>>>>>>> e1d4bc35ff8a6074a6f2e91616a996b547c36f15
		<tag k="fixme" v="consider natural=peak for the most distinct mountains in the district" />
		<tag k="name" v="Ådnaberget" />
		<tag k="natural" v="hill" />
		<tag k="place" v="locality" />
		<tag k="ssr:stedsnr" v="934753" />
	</node>
<<<<<<< HEAD
	<node lat="58.92352500141504" lon="5.6179611039488275" id="-286">
		<tag k="name" v="Ørnaberget" />
=======
	<node id="-24676" lat="58.9096500032" lon="5.61865556064">
		<tag k="fixme" v="consider natural=peak for the most distinct mountains in the district" />
		<tag k="name" v="Manshammar" />
>>>>>>> e1d4bc35ff8a6074a6f2e91616a996b547c36f15
		<tag k="natural" v="hill" />
		<tag k="place" v="locality" />
		<tag k="ssr:stedsnr" v="911021" />
	</node>
<<<<<<< HEAD
	<node lat="58.92929144955826" lon="5.614599449515259" id="-290">
		<tag k="name" v="Store Snøde" />
=======
	<node id="-24675" lat="58.8769083313" lon="5.59628056141">
		<tag k="fixme" v="consider natural=peak for the most distinct mountains in the district" />
		<tag k="name" v="Bereimsberget" />
>>>>>>> e1d4bc35ff8a6074a6f2e91616a996b547c36f15
		<tag k="natural" v="hill" />
		<tag k="place" v="locality" />
		<tag k="ssr:stedsnr" v="911066" />
	</node>
<<<<<<< HEAD
	<node lat="58.909650003238326" lon="5.618655560642827" id="-316">
=======
	<node id="-24672" lat="58.8279138867" lon="5.57703611837">
>>>>>>> e1d4bc35ff8a6074a6f2e91616a996b547c36f15
		<tag k="fixme" v="consider natural=peak for the most distinct mountains in the district" />
		<tag k="name" v="Manshammar" />
		<tag k="natural" v="hill" />
		<tag k="place" v="locality" />
		<tag k="ssr:stedsnr" v="24268" />
	</node>
<<<<<<< HEAD
	<node lat="58.827050004386805" lon="5.577708334457658" id="-322">
=======
	<node id="-24671" lat="58.8270500044" lon="5.57770833446">
>>>>>>> e1d4bc35ff8a6074a6f2e91616a996b547c36f15
		<tag k="fixme" v="consider natural=peak for the most distinct mountains in the district" />
		<tag k="name" v="Kjellehaugen" />
		<tag k="natural" v="hill" />
		<tag k="place" v="locality" />
		<tag k="ssr:stedsnr" v="24363" />
	</node>
<<<<<<< HEAD
	<node lat="58.8279138866906" lon="5.577036118372851" id="-323">
=======
	<node id="-24649" lat="58.9064388902" lon="5.57740000447">
>>>>>>> e1d4bc35ff8a6074a6f2e91616a996b547c36f15
		<tag k="fixme" v="consider natural=peak for the most distinct mountains in the district" />
		<tag k="name" v="Bybergsnuten" />
		<tag k="natural" v="hill" />
		<tag k="place" v="locality" />
<<<<<<< HEAD
		<tag k="ssr:stedsnr" v="24369" />
	</node>
	<node lat="58.887711115177794" lon="5.614797227520792" id="-343">
		<tag k="name" v="Espeberga" />
=======
		<tag k="ssr:stedsnr" v="934753" />
	</node>
	<node id="-24648" lat="58.9152916652" lon="5.51737777369">
		<tag k="name" v="Grønevollen" />
		<tag k="place" v="locality" />
		<tag k="ssr:stedsnr" v="934324" />
	</node>
	<node id="-24639" lat="58.9168749967" lon="5.61545555423">
		<tag k="name" v="Ritleberget" />
>>>>>>> e1d4bc35ff8a6074a6f2e91616a996b547c36f15
		<tag k="natural" v="hill" />
		<tag k="place" v="locality" />
		<tag k="ssr:stedsnr" v="85199" />
	</node>
<<<<<<< HEAD
	<node lat="58.88617222381972" lon="5.681058334562801" id="-346">
		<tag k="name" v="Kjerrberg" />
=======
	<node id="-24630" lat="58.918288892" lon="5.5917055611">
		<tag k="name" v="Tjoraberg" />
>>>>>>> e1d4bc35ff8a6074a6f2e91616a996b547c36f15
		<tag k="natural" v="hill" />
		<tag k="place" v="locality" />
		<tag k="ssr:stedsnr" v="99348" />
	</node>
<<<<<<< HEAD
	<node lat="58.84244167035479" lon="5.575886116199399" id="-352">
		<tag k="alt_name" v="Tormovarden" />
		<tag k="name" v="Tormodvarden" />
=======
	<node id="-24622" lat="58.8652888891" lon="5.5604805517">
		<tag k="name" v="Starebakkane" />
>>>>>>> e1d4bc35ff8a6074a6f2e91616a996b547c36f15
		<tag k="natural" v="hill" />
		<tag k="old_name" v="Turrmovarden" />
		<tag k="place" v="locality" />
		<tag k="ssr:stedsnr" v="122985" />
	</node>
<<<<<<< HEAD
	<node lat="58.84071389289159" lon="5.57596111683768" id="-359">
		<tag k="fixme" v="consider natural=peak for the most distinct mountains in the district" />
		<tag k="name" v="Hanaberget" />
=======
	<node id="-24621" lat="58.8620833316" lon="5.57317777828">
		<tag k="name" v="Kolleberget" />
>>>>>>> e1d4bc35ff8a6074a6f2e91616a996b547c36f15
		<tag k="natural" v="hill" />
		<tag k="place" v="locality" />
		<tag k="ssr:stedsnr" v="145070" />
	</node>
<<<<<<< HEAD
	<node lat="58.85334166552461" lon="5.551222222047303" id="-360">
		<tag k="fixme" v="consider natural=peak for the most distinct mountains in the district" />
		<tag k="name" v="Fårleberget" />
=======
	<node id="-24616" lat="58.8557611112" lon="5.64049444982">
		<tag k="name" v="Malmeimshaugen" />
>>>>>>> e1d4bc35ff8a6074a6f2e91616a996b547c36f15
		<tag k="natural" v="hill" />
		<tag k="place" v="locality" />
		<tag k="ssr:stedsnr" v="145741" />
	</node>
<<<<<<< HEAD
	<node lat="58.890813889401834" lon="5.672738894543763" id="-364">
		<tag k="name" v="Jamnholen" />
=======
	<node id="-24605" lat="58.8612681879" lon="5.60640957144">
		<tag k="alt_name" v="Regehaugen" />
		<tag k="name" v="Rægehaugen" />
>>>>>>> e1d4bc35ff8a6074a6f2e91616a996b547c36f15
		<tag k="natural" v="hill" />
		<tag k="place" v="locality" />
		<tag k="ssr:stedsnr" v="145242" />
	</node>
<<<<<<< HEAD
	<node lat="58.90406666650879" lon="5.689636115703477" id="-365">
		<tag k="fixme" v="consider natural=peak for the most distinct mountains in the district" />
		<tag k="name" v="Kidlingberget" />
=======
	<node id="-24599" lat="58.9292914496" lon="5.61459944952">
		<tag k="name" v="Store Snøde" />
>>>>>>> e1d4bc35ff8a6074a6f2e91616a996b547c36f15
		<tag k="natural" v="hill" />
		<tag k="place" v="locality" />
		<tag k="ssr:stedsnr" v="145246" />
	</node>
<<<<<<< HEAD
	<node lat="58.91643889156838" lon="5.608694437043709" id="-378">
		<tag k="alt_name" v="Vardåsen, nordre;n. Varåsen" />
		<tag k="fixme" v="consider natural=peak for the most distinct mountains in the district" />
		<tag k="name" v="Nordre Vardåsen" />
=======
	<node id="-24595" lat="58.9235250014" lon="5.61796110395">
		<tag k="name" v="Ørnaberget" />
>>>>>>> e1d4bc35ff8a6074a6f2e91616a996b547c36f15
		<tag k="natural" v="hill" />
		<tag k="place" v="locality" />
		<tag k="ssr:stedsnr" v="182015" />
	</node>
<<<<<<< HEAD
	<node lat="58.90190555228148" lon="5.66013611002544" id="-390">
		<tag k="fixme" v="consider natural=peak for the most distinct mountains in the district" />
		<tag k="name" v="Smalaberget" />
		<tag k="natural" v="hill" />
		<tag k="place" v="locality" />
		<tag k="ssr:stedsnr" v="206236" />
	</node>
	<node lat="58.90412221847478" lon="5.651561115225052" id="-391">
		<tag k="fixme" v="consider natural=peak for the most distinct mountains in the district" />
		<tag k="name" v="Joabakken" />
=======
	<node id="-24590" lat="58.9004138881" lon="5.62959167376">
		<tag k="name" v="Prestaberget" />
>>>>>>> e1d4bc35ff8a6074a6f2e91616a996b547c36f15
		<tag k="natural" v="hill" />
		<tag k="place" v="locality" />
		<tag k="ssr:stedsnr" v="206237" />
	</node>
<<<<<<< HEAD
	<node lat="58.938425000132554" lon="5.624388891782462" id="-393">
		<tag k="name" v="Grøthaug" />
		<tag k="natural" v="hill" />
		<tag k="place" v="locality" />
		<tag k="ssr:stedsnr" v="206324" />
	</node>
	<node lat="58.93540000330031" lon="5.626502768795898" id="-394">
		<tag k="name" v="Hansaberget" />
		<tag k="natural" v="hill" />
		<tag k="place" v="locality" />
		<tag k="ssr:stedsnr" v="206325" />
	</node>
	<node lat="58.86802500304246" lon="5.571411118949865" id="-396">
		<tag k="fixme" v="consider natural=peak for the most distinct mountains in the district" />
		<tag k="name" v="Mælen" />
		<tag k="natural" v="hill" />
		<tag k="place" v="locality" />
		<tag k="ssr:stedsnr" v="206376" />
	</node>
	<node lat="58.850106282899276" lon="5.567044567376375" id="-410">
		<tag k="alt_name" v="Hedlestøveten" />
		<tag k="name" v="Hellestøveten" />
		<tag k="natural" v="hill" />
		<tag k="place" v="locality" />
		<tag k="ssr:stedsnr" v="304977" />
	</node>
	<node lat="58.90140833647531" lon="5.644852769535482" id="-413">
		<tag k="name" v="Kråkebakkane" />
		<tag k="natural" v="hill" />
		<tag k="place" v="locality" />
		<tag k="ssr:stedsnr" v="327241" />
	</node>
	<node lat="58.85988580825236" lon="5.602363380042883" id="-420">
		<tag k="name" v="Einhaug" />
		<tag k="natural" v="hill" />
		<tag k="place" v="locality" />
		<tag k="ssr:stedsnr" v="327381" />
	</node>
	<node lat="58.85757500122184" lon="5.591711119113833" id="-421">
		<tag k="fixme" v="consider natural=peak for the most distinct mountains in the district" />
		<tag k="name" v="Klippen" />
		<tag k="natural" v="hill" />
		<tag k="place" v="locality" />
		<tag k="ssr:stedsnr" v="327382" />
	</node>
	<node lat="58.84844444739509" lon="5.5841833368662135" id="-432">
		<tag k="name" v="Eikeberget" />
		<tag k="natural" v="hill" />
		<tag k="place" v="locality" />
		<tag k="ssr:stedsnr" v="364985" />
	</node>
	<node lat="58.836180551548004" lon="5.595913884148472" id="-439">
		<tag k="name" v="Bulega" />
		<tag k="natural" v="valley" />
		<tag k="place" v="locality" />
		<tag k="ssr:stedsnr" v="387437" />
	</node>
	<node lat="58.850147224005525" lon="5.570180557686291" id="-440">
		<tag k="fixme" v="consider natural=peak for the most distinct mountains in the district" />
		<tag k="name" v="Kodleberget" />
		<tag k="natural" v="hill" />
		<tag k="place" v="locality" />
		<tag k="ssr:stedsnr" v="387084" />
	</node>
	<node lat="58.8811061346788" lon="5.666842224447468" id="-444">
		<tag k="fixme" v="consider natural=peak for the most distinct mountains in the district" />
		<tag k="name" v="Varaberget" />
		<tag k="natural" v="hill" />
		<tag k="place" v="locality" />
		<tag k="ssr:stedsnr" v="387361" />
	</node>
	<node lat="58.85163055220484" lon="5.557305557002523" id="-452">
		<tag k="fixme" v="consider natural=peak for the most distinct mountains in the district" />
		<tag k="name" v="Pigjen" />
		<tag k="natural" v="hill" />
		<tag k="place" v="locality" />
		<tag k="ssr:stedsnr" v="449063" />
	</node>
	<node lat="58.84811110708181" lon="5.5687361191493405" id="-462">
		<tag k="fixme" v="consider natural=peak for the most distinct mountains in the district" />
		<tag k="name" v="Hagafjell" />
		<tag k="natural" v="hill" />
		<tag k="place" v="locality" />
		<tag k="ssr:stedsnr" v="509069" />
	</node>
	<node lat="58.900183336977705" lon="5.660019441564356" id="-464">
		<tag k="fixme" v="consider natural=peak for the most distinct mountains in the district" />
		<tag k="name" v="Ospeberget" />
		<tag k="natural" v="hill" />
		<tag k="place" v="locality" />
		<tag k="ssr:stedsnr" v="509232" />
	</node>
	<node lat="58.93401111340342" lon="5.610661117083983" id="-465">
		<tag k="name" v="Berget" />
		<tag k="natural" v="hill" />
		<tag k="place" v="locality" />
		<tag k="ssr:stedsnr" v="509329" />
	</node>
	<node lat="58.939738892574255" lon="5.5793722218866035" id="-466">
		<tag k="fixme" v="consider natural=peak for the most distinct mountains in the district" />
		<tag k="name" v="Nonsteinen" />
		<tag k="natural" v="hill" />
		<tag k="place" v="locality" />
		<tag k="ssr:stedsnr" v="509339" />
	</node>
	<node lat="58.905480553940905" lon="5.666305554107514" id="-468">
		<tag k="name" v="Myklaberget" />
		<tag k="natural" v="hill" />
		<tag k="place" v="locality" />
		<tag k="ssr:stedsnr" v="509163" />
	</node>
	<node lat="58.85552777549008" lon="5.588527784879114" id="-490">
		<tag k="name" v="Revaberget" />
		<tag k="natural" v="hill" />
		<tag k="place" v="locality" />
		<tag k="ssr:stedsnr" v="569391" />
	</node>
	<node lat="58.87021388972777" lon="5.582297225416058" id="-492">
		<tag k="name" v="Haugarhaug" />
		<tag k="natural" v="hill" />
		<tag k="place" v="locality" />
		<tag k="ssr:stedsnr" v="569399" />
	</node>
	<node lat="58.909716668942515" lon="5.604111112864228" id="-495">
		<tag k="fixme" v="consider natural=peak for the most distinct mountains in the district" />
		<tag k="name" v="Kongshaug" />
		<tag k="natural" v="hill" />
		<tag k="place" v="locality" />
		<tag k="ssr:stedsnr" v="569749" />
	</node>
	<node lat="58.90151388803378" lon="5.669888887433537" id="-507">
		<tag k="fixme" v="consider natural=peak for the most distinct mountains in the district" />
		<tag k="name" v="Åsberget" />
		<tag k="natural" v="hill" />
		<tag k="place" v="locality" />
		<tag k="ssr:stedsnr" v="630261" />
	</node>
	<node lat="58.92045833649283" lon="5.672583330372437" id="-509">
		<tag k="name" v="Stølsberget" />
		<tag k="natural" v="hill" />
		<tag k="place" v="locality" />
		<tag k="ssr:stedsnr" v="630172" />
	</node>
	<node lat="58.828205556980485" lon="5.56516110976491" id="-516">
		<tag k="name" v="Stavholane" />
		<tag k="natural" v="hill" />
		<tag k="place" v="locality" />
		<tag k="ssr:stedsnr" v="630368" />
	</node>
	<node lat="58.87473485925636" lon="5.573843379746758" id="-518">
		<tag k="fixme" v="consider natural=peak for the most distinct mountains in the district" />
		<tag k="name" v="Store Trælen" />
		<tag k="natural" v="hill" />
		<tag k="place" v="locality" />
		<tag k="ssr:stedsnr" v="630382" />
	</node>
	<node lat="58.87368234289887" lon="5.571568490199318" id="-519">
		<tag k="fixme" v="consider natural=peak for the most distinct mountains in the district" />
		<tag k="name" v="Litle Trælen" />
		<tag k="natural" v="hill" />
		<tag k="place" v="locality" />
		<tag k="ssr:stedsnr" v="630385" />
	</node>
	<node lat="58.856066667699196" lon="5.558527780981349" id="-532">
		<tag k="name" v="Vigdelsveten" />
		<tag k="natural" v="hill" />
		<tag k="place" v="locality" />
		<tag k="ssr:stedsnr" v="668990" />
	</node>
	<node lat="58.90898333732437" lon="5.674205563073922" id="-544">
		<tag k="name" v="Svinaberget" />
		<tag k="natural" v="hill" />
		<tag k="place" v="locality" />
		<tag k="ssr:stedsnr" v="752156" />
	</node>
	<node lat="58.928275002835655" lon="5.633719440866564" id="-551">
		<tag k="name" v="Midøyna" />
		<tag k="natural" v="hill" />
		<tag k="place" v="locality" />
		<tag k="ssr:stedsnr" v="752302" />
	</node>
	<node lat="58.86256389329949" lon="5.55989445187673" id="-552">
		<tag k="fixme" v="consider natural=peak for the most distinct mountains in the district" />
		<tag k="name" v="Rundeholane" />
		<tag k="natural" v="hill" />
		<tag k="place" v="locality" />
		<tag k="ssr:stedsnr" v="752385" />
	</node>
	<node lat="58.8517555592256" lon="5.567630555061368" id="-569">
		<tag k="fixme" v="consider natural=peak for the most distinct mountains in the district" />
		<tag k="name" v="Varafjell" />
		<tag k="natural" v="hill" />
		<tag k="place" v="locality" />
		<tag k="ssr:stedsnr" v="812067" />
	</node>
	<node lat="58.88625555181639" lon="5.681097220456155" id="-575">
		<tag k="fixme" v="consider natural=peak for the most distinct mountains in the district" />
		<tag k="name" v="Kjerrberget" />
		<tag k="natural" v="hill" />
		<tag k="place" v="locality" />
		<tag k="ssr:stedsnr" v="813220" />
	</node>
	<node lat="58.845794440837516" lon="5.622086112092331" id="-576">
		<tag k="name" v="Langholen" />
		<tag k="place" v="locality" />
		<tag k="ssr:stedsnr" v="813245" />
	</node>
	<node lat="58.934805557225445" lon="5.690811114792584" id="-578">
		<tag k="name" v="Renneberget" />
		<tag k="natural" v="hill" />
		<tag k="place" v="locality" />
		<tag k="ssr:stedsnr" v="813300" />
	</node>
	<node lat="58.850469440883224" lon="5.5964722258623505" id="-600">
		<tag k="fixme" v="consider natural=peak for the most distinct mountains in the district" />
		<tag k="name" v="Gjøsteinen" />
		<tag k="natural" v="hill" />
		<tag k="place" v="locality" />
		<tag k="ssr:stedsnr" v="873081" />
	</node>
	<node lat="58.850766665486404" lon="5.632902775503735" id="-603">
		<tag k="name" v="Høgholen" />
		<tag k="natural" v="hill" />
		<tag k="place" v="locality" />
		<tag k="ssr:stedsnr" v="873286" />
	</node>
	<node lat="58.91687499665988" lon="5.615455554225253" id="-607">
		<tag k="name" v="Ritleberget" />
		<tag k="natural" v="hill" />
		<tag k="place" v="locality" />
		<tag k="ssr:stedsnr" v="873305" />
	</node>
	<node lat="58.941458334817675" lon="5.578113894086275" id="-608">
		<tag k="alt_name" v="Storevarden" />
		<tag k="fixme" v="consider natural=peak for the most distinct mountains in the district" />
		<tag k="name" v="Tanangerhaug" />
		<tag k="natural" v="hill" />
		<tag k="place" v="locality" />
		<tag k="ssr:stedsnr" v="873371" />
	</node>
	<node lat="58.91771944099182" lon="5.52381665909987" id="-610">
		<tag k="fixme" v="consider natural=peak for the most distinct mountains in the district" />
		<tag k="name" v="Haukaberget" />
		<tag k="natural" v="hill" />
		<tag k="place" v="locality" />
		<tag k="ssr:stedsnr" v="873385" />
	</node>
	<node lat="58.82280277688126" lon="5.578494444481265" id="-611">
		<tag k="name" v="Ølstekula" />
		<tag k="natural" v="hill" />
		<tag k="place" v="locality" />
		<tag k="ssr:stedsnr" v="873393" />
	</node>
	<node lat="58.91828889197035" lon="5.591705561100802" id="-622">
		<tag k="name" v="Tjoraberg" />
		<tag k="natural" v="hill" />
		<tag k="place" v="locality" />
		<tag k="ssr:stedsnr" v="949601" />
	</node>
=======
>>>>>>> e1d4bc35ff8a6074a6f2e91616a996b547c36f15
</osm>
