<?xml version="1.0" encoding="UTF-8"?>
<osm generator="osmapis" version="0.6">
	<node id="-23040" lat="58.8560055512" lon="5.58134721519">
		<tag k="name" v="Austbø" />
		<tag k="place" v="farm" />
		<tag k="ssr:stedsnr" v="387422" />
	</node>
	<node id="-23037" lat="58.8297593818" lon="5.57617593842">
		<tag k="name" v="Havtun gard" />
		<tag k="place" v="farm" />
		<tag k="ssr:stedsnr" v="387415" />
	</node>
	<node id="-23034" lat="58.8591805562" lon="5.62579165846">
		<tag k="name" v="Holareim" />
		<tag k="place" v="farm" />
		<tag k="ssr:stedsnr" v="387314" />
	</node>
	<node id="-23031" lat="58.8911527767" lon="5.69045555919">
		<tag k="name" v="Skadberg bruk" />
		<tag k="place" v="farm" />
		<tag k="ssr:stedsnr" v="387288" />
	</node>
	<node id="-23030" lat="58.8934444406" lon="5.61678333695">
		<tag k="name" v="Einarsminne" />
		<tag k="place" v="farm" />
		<tag k="ssr:stedsnr" v="387282" />
	</node>
	<node id="-23027" lat="58.8715749979" lon="5.58617221536">
		<tag k="name" v="Trælen" />
		<tag k="place" v="farm" />
		<tag k="ssr:stedsnr" v="365957" />
	</node>
	<node id="-23025" lat="58.8166888928" lon="5.58639166152">
		<tag k="name" v="Timpelen" />
		<tag k="place" v="farm" />
		<tag k="ssr:stedsnr" v="365902" />
	</node>
	<node id="-23022" lat="58.9508805585" lon="5.59849999818">
		<tag k="name" v="Jåsund" />
		<tag k="place" v="farm" />
		<tag k="ssr:stedsnr" v="365039" />
	</node>
	<node id="-23018" lat="58.9126999997" lon="5.66427500349">
		<tag k="name" v="Strandvik" />
		<tag k="place" v="farm" />
		<tag k="ssr:stedsnr" v="364015" />
	</node>
	<node id="-23017" lat="58.9096696423" lon="5.65613264127">
		<tag k="fixme" v="consider place=hamlet" />
		<tag k="name" v="Sørnes" />
		<tag k="old_name" v="Saurnes" />
		<tag k="place" v="farm" />
		<tag k="ssr:stedsnr" v="364014" />
	</node>
	<node id="-23016" lat="58.9278888859" lon="5.60915278066">
		<tag k="name" v="Urda" />
		<tag k="place" v="farm" />
		<tag k="ssr:stedsnr" v="364012" />
	</node>
	<node id="-23004" lat="58.8599777736" lon="5.56712777499">
		<tag k="name" v="Lønning" />
		<tag k="place" v="farm" />
		<tag k="ssr:stedsnr" v="327376" />
	</node>
	<node id="-22988" lat="58.9109470827" lon="5.61310914126">
		<tag k="fixme" v="consider place=hamlet" />
		<tag k="name" v="Hogstad" />
		<tag k="place" v="farm" />
		<tag k="ssr:stedsnr" v="304028" />
	</node>
	<node id="-22982" lat="58.9105694456" lon="5.5988250019">
		<tag k="name" v="Teigen" />
		<tag k="place" v="farm" />
		<tag k="ssr:stedsnr" v="206777" />
	</node>
	<node id="-22970" lat="58.8921027777" lon="5.67116944792">
		<tag k="name" v="Åsen" />
		<tag k="place" v="farm" />
		<tag k="ssr:stedsnr" v="206251" />
	</node>
	<node id="-22965" lat="58.8630911469" lon="5.56936964502">
		<tag k="alt_name" v="Ølberg" />
		<tag k="fixme" v="consider place=hamlet" />
		<tag k="name" v="Ølbør" />
		<tag k="place" v="farm" />
		<tag k="ssr:stedsnr" v="183998" />
	</node>
	<node id="-22964" lat="58.8698666661" lon="5.61653611658">
		<tag k="alt_name" v="Sola" />
		<tag k="name" v="Solamarka" />
		<tag k="old_name" v="Solamarkja" />
		<tag k="place" v="farm" />
		<tag k="ssr:stedsnr" v="183996" />
	</node>
	<node id="-22962" lat="58.8292511233" lon="5.57928611107">
		<tag k="fixme" v="consider place=hamlet" />
		<tag k="name" v="Byberg" />
		<tag k="place" v="farm" />
		<tag k="ssr:stedsnr" v="183901" />
	</node>
	<node id="-22960" lat="58.8621013832" lon="5.59788331122">
		<tag k="alt_name" v="Klingseim" />
		<tag k="fixme" v="consider place=hamlet" />
		<tag k="name" v="Klingshei" />
		<tag k="place" v="farm" />
		<tag k="ssr:stedsnr" v="182987" />
	</node>
	<node id="-22958" lat="58.8920833353" lon="5.65665832946">
		<tag k="name" v="Sande" />
		<tag k="place" v="farm" />
		<tag k="ssr:stedsnr" v="182950" />
	</node>
	<node id="-22634" lat="58.9270000015" lon="5.6907750052">
		<tag k="name" v="Grannes" />
		<tag k="place" v="farm" />
		<tag k="ssr:stedsnr" v="243010" />
	</node>
	<node id="-22937" lat="58.8875277746" lon="5.62158054797">
		<tag k="fixme" v="consider place=hamlet" />
		<tag k="name" v="Utsola" />
		<tag k="place" v="farm" />
		<tag k="ssr:stedsnr" v="145238" />
	</node>
	<node id="-22928" lat="58.8901722242" lon="5.68618333515">
		<tag k="name" v="Bjergsted" />
		<tag k="place" v="farm" />
		<tag k="ssr:stedsnr" v="122948" />
	</node>
	<node id="-22927" lat="58.8738190454" lon="5.66013839697">
		<tag k="name" v="Stangaland" />
		<tag k="place" v="hamlet" />
		<tag k="ssr:stedsnr" v="122939" />
	</node>
	<node id="-22923" lat="58.900875001" lon="5.58716943829">
		<tag k="fixme" v="consider place=hamlet" />
		<tag k="name" v="Kolnes" />
		<tag k="place" v="village" />
		<tag k="ssr:stedsnr" v="122032" />
	</node>
	<node id="-22921" lat="58.9059116806" lon="5.67854747808">
		<tag k="fixme" v="consider place=hamlet" />
		<tag k="name" v="Røyneberg" />
		<tag k="place" v="farm" />
		<tag k="ssr:stedsnr" v="122024" />
	</node>
	<node id="-22920" lat="58.9145916637" lon="5.59980555327">
		<tag k="alt_name" v="Tjora" />
		<tag k="name" v="Nord-Tjora" />
		<tag k="place" v="farm" />
		<tag k="ssr:stedsnr" v="121028" />
	</node>
	<node id="-22905" lat="58.9239507285" lon="5.6092007275">
		<tag k="fixme" v="consider place=hamlet" />
		<tag k="name" v="Litle Risa" />
		<tag k="place" v="farm" />
		<tag k="ssr:stedsnr" v="85236" />
	</node>
	<node id="-22900" lat="58.8648194406" lon="5.60174722583">
		<tag k="name" v="Auglend" />
		<tag k="old_name" v="Auklend" />
		<tag k="place" v="farm" />
		<tag k="ssr:stedsnr" v="62997" />
	</node>
	<node id="-22899" lat="58.8877074713" lon="5.65940240671">
		<tag k="fixme" v="consider place=hamlet" />
		<tag k="name" v="Sande" />
		<tag k="place" v="farm" />
		<tag k="ssr:stedsnr" v="62944" />
	</node>
	<node id="-22897" lat="58.856490083" lon="5.55422457201">
		<tag k="fixme" v="consider place=hamlet" />
		<tag k="name" v="Vigdel" />
		<tag k="place" v="farm" />
		<tag k="ssr:stedsnr" v="61985" />
	</node>
	<node id="-22896" lat="58.8902054835" lon="5.61253449452">
		<tag k="alt_name" v="Kjørkje-Sola;Sola (Kjørkje-Sola);Sola (Kyrkje-Sola)" />
		<tag k="fixme" v="multiple name tags, choose one and add the other to alt_name; consider place=hamlet" />
		<tag k="name" v="Sola;Kyrkje-Sola" />
		<tag k="place" v="farm" />
		<tag k="ssr:stedsnr" v="61954" />
	</node>
	<node id="-22893" lat="58.9067405143" lon="5.58390529268">
		<tag k="alt_name" v="Nord Kolnes" />
		<tag k="fixme" v="consider place=hamlet" />
		<tag k="name" v="Nord-Kolnes" />
		<tag k="place" v="farm" />
		<tag k="ssr:stedsnr" v="61018" />
	</node>
	<node id="-22876" lat="58.9205070961" lon="5.61579613596">
		<tag k="fixme" v="consider place=hamlet" />
		<tag k="name" v="Store Risa" />
		<tag k="place" v="farm" />
		<tag k="ssr:stedsnr" v="24320" />
	</node>
	<node id="-22873" lat="58.8153416673" lon="5.58740555353">
		<tag k="name" v="Langholen" />
		<tag k="place" v="farm" />
		<tag k="ssr:stedsnr" v="1878" />
	</node>
	<node id="-22872" lat="58.8532833319" lon="5.59738055477">
		<tag k="name" v="Tippen" />
		<tag k="place" v="farm" />
		<tag k="ssr:stedsnr" v="991" />
	</node>
	<node id="-22861" lat="58.8512000013" lon="5.57640000154">
		<tag k="name" v="Hålandsmarka" />
		<tag k="place" v="quarter" />
		<tag k="ssr:stedsnr" v="936316" />
	</node>
	<node id="-22851" lat="58.8849888858" lon="5.60476388298">
		<tag k="name" v="Sola Strandhotell" />
		<tag k="ssr:stedsnr" v="873714" />
		<tag k="tourism" v="hotel" />
	</node>
	<node id="-22847" lat="58.8963805552" lon="5.68281666072">
		<tag k="name" v="Moseid" />
		<tag k="place" v="farm" />
		<tag k="ssr:stedsnr" v="873267" />
	</node>
	<node id="-22839" lat="58.884783696" lon="5.66635830208">
		<tag k="fixme" v="consider place=hamlet" />
		<tag k="name" v="Skadberg" />
		<tag k="place" v="farm" />
		<tag k="ssr:stedsnr" v="851955" />
	</node>
	<node id="-22831" lat="58.8394861132" lon="5.57056666198">
		<tag k="name" v="Sandsmarka" />
		<tag k="place" v="farm" />
		<tag k="ssr:stedsnr" v="934374" />
	</node>
	<node id="-22828" lat="58.8678916695" lon="5.57528889535">
		<tag k="name" v="Gamlestemmen" />
		<tag k="place" v="farm" />
		<tag k="ssr:stedsnr" v="934363" />
	</node>
	<node id="-22826" lat="58.849591665" lon="5.60263611696">
		<tag k="name" v="Brotet" />
		<tag k="place" v="farm" />
		<tag k="ssr:stedsnr" v="934074" />
	</node>
	<node id="-22819" lat="58.8507833322" lon="5.57024999145">
		<tag k="name" v="Hålandmarka" />
		<tag k="place" v="farm" />
		<tag k="ssr:stedsnr" v="786376" />
	</node>
	<node id="-22817" lat="58.86035918" lon="5.58722428348">
		<tag k="fixme" v="consider place=hamlet" />
		<tag k="name" v="Litlaland" />
		<tag k="old_name" v="Litleland" />
		<tag k="place" v="farm" />
		<tag k="ssr:stedsnr" v="911993" />
	</node>
	<node id="-22815" lat="58.8430749957" lon="5.58505832929">
		<tag k="name" v="Helleland" />
		<tag k="place" v="farm" />
		<tag k="ssr:stedsnr" v="911971" />
	</node>
	<node id="-22814" lat="58.8425111132" lon="5.56656110837">
		<tag k="name" v="Moen" />
		<tag k="place" v="farm" />
		<tag k="ssr:stedsnr" v="911967" />
	</node>
	<node id="-22812" lat="58.829704534" lon="5.60133354857">
		<tag k="fixme" v="consider place=hamlet" />
		<tag k="name" v="Dysjaland" />
		<tag k="place" v="farm" />
		<tag k="ssr:stedsnr" v="911891" />
	</node>
	<node id="-22807" lat="58.9020499986" lon="5.68376110846">
		<tag k="fixme" v="consider place=hamlet" />
		<tag k="name" v="Forus" />
		<tag k="place" v="village" />
		<tag k="ssr:stedsnr" v="911034" />
	</node>
	<node id="-22805" lat="58.9450657315" lon="5.59988917116">
		<tag k="fixme" v="consider place=hamlet" />
		<tag k="name" v="Litle-Meland" />
		<tag k="place" v="farm" />
		<tag k="ssr:stedsnr" v="752333" />
	</node>
	<node id="-22803" lat="58.8594862298" lon="5.61619573883">
		<tag k="alt_name" v="Rege;Reke" />
		<tag k="fixme" v="consider place=hamlet" />
		<tag k="name" v="Ræge" />
		<tag k="place" v="farm" />
		<tag k="ssr:stedsnr" v="752249" />
	</node>
	<node id="-22802" lat="58.8981944443" lon="5.6323000079">
		<tag k="landuse" v="military" />
		<tag k="name" v="Sømsbrygga" />
		<tag k="ssr:stedsnr" v="752217" />
	</node>
	<node id="-22786" lat="58.858176511" lon="5.57744424815">
		<tag k="fixme" v="consider place=hamlet" />
		<tag k="name" v="Håland" />
		<tag k="place" v="farm" />
		<tag k="ssr:stedsnr" v="729995" />
	</node>
	<node id="-22785" lat="58.8883388845" lon="5.64940832977">
		<tag k="name" v="Solakrossen" />
		<tag k="place" v="farm" />
		<tag k="ssr:stedsnr" v="729946" />
	</node>
	<node id="-22773" lat="58.8681527757" lon="5.61928332644">
		<tag k="name" v="Sahara" />
		<tag k="place" v="farm" />
		<tag k="ssr:stedsnr" v="630311" />
	</node>
	<node id="-22769" lat="58.8996339951" lon="5.65333694342">
		<tag k="alt_name" v="Rjoa" />
		<tag k="fixme" v="consider place=hamlet" />
		<tag k="name" v="Joa" />
		<tag k="place" v="farm" />
		<tag k="ssr:stedsnr" v="607029" />
	</node>
	<node id="-22758" lat="58.8648055547" lon="5.65190555122">
		<tag k="name" v="Meholen" />
		<tag k="place" v="farm" />
		<tag k="ssr:stedsnr" v="691369" />
	</node>
	<node id="-22751" lat="58.9214749969" lon="5.68404722047">
		<tag k="name" v="Kanholen" />
		<tag k="place" v="farm" />
		<tag k="ssr:stedsnr" v="691202" />
	</node>
	<node id="-22734" lat="58.8473641774" lon="5.62000596425">
		<tag k="fixme" v="consider place=hamlet" />
		<tag k="name" v="Tjelta" />
		<tag k="place" v="farm" />
		<tag k="ssr:stedsnr" v="668974" />
	</node>
	<node id="-22733" lat="58.8401840572" lon="5.57152603106">
		<tag k="alt_name" v="Hedland" />
		<tag k="fixme" v="consider place=hamlet" />
		<tag k="name" v="Helleland" />
		<tag k="place" v="farm" />
		<tag k="ssr:stedsnr" v="668968" />
	</node>
	<node id="-22732" lat="58.8414638931" lon="5.59773888291">
		<tag k="fixme" v="consider place=hamlet" />
		<tag k="name" v="Tjelta" />
		<tag k="place" v="village" />
		<tag k="ssr:stedsnr" v="668965" />
	</node>
	<node id="-23243" lat="58.9054189262" lon="5.65373999562">
		<tag k="name" v="Maribo" />
		<tag k="place" v="farm" />
		<tag k="ssr:stedsnr" v="1075358" />
	</node>
	<node id="-22721" lat="58.8777000032" lon="5.65636111028">
		<tag k="amenity" v="school" />
		<tag k="name" v="Stangeland barneskole" />
		<tag k="ssr:stedsnr" v="449312" />
	</node>
	<node id="-22718" lat="58.9062555535" lon="5.60089999273">
		<tag k="alt_name" v="Sør Tjora;Tjora" />
		<tag k="name" v="Sør-Tjora" />
		<tag k="place" v="farm" />
		<tag k="ssr:stedsnr" v="425015" />
	</node>
	<node id="-23227" lat="58.9104871326" lon="5.59496985232">
		<tag k="fixme" v="consider place=hamlet" />
		<tag k="name" v="Tjora" />
		<tag k="place" v="farm" />
		<tag k="ssr:stedsnr" v="1071931" />
	</node>
	<node id="-22711" lat="58.8655722218" lon="5.57961944287">
		<tag k="name" v="Gardshaug" />
		<tag k="place" v="farm" />
		<tag k="ssr:stedsnr" v="509381" />
	</node>
	<node id="-22710" lat="58.8288313482" lon="5.57446273262">
		<tag k="name" v="Breidablikk" />
		<tag k="place" v="farm" />
		<tag k="ssr:stedsnr" v="509363" />
	</node>
	<node id="-23219" lat="58.9339212506" lon="5.6078947041">
		<tag k="name" v="Haga" />
		<tag k="place" v="quarter" />
		<tag k="ssr:stedsnr" v="982077" />
	</node>
	<node id="-22691" lat="58.8794805601" lon="5.6654388928">
		<tag k="name" v="Foren" />
		<tag k="place" v="farm" />
		<tag k="ssr:stedsnr" v="387359" />
	</node>
	<node id="-22689" lat="58.8603305548" lon="5.62388610603">
		<tag k="alt_name" v="Regeholen" />
		<tag k="name" v="Holen" />
		<tag k="place" v="farm" />
		<tag k="ssr:stedsnr" v="486994" />
	</node>
	<node id="-22688" lat="58.9021555535" lon="5.67633055193">
		<tag k="name" v="Røyneberg" />
		<tag k="place" v="farm" />
		<tag k="ssr:stedsnr" v="486963" />
	</node>
	<node id="-22687" lat="58.8229416684" lon="5.58834999619">
		<tag k="name" v="Byberg" />
		<tag k="place" v="farm" />
		<tag k="ssr:stedsnr" v="486886" />
	</node>
	<node id="-22685" lat="58.9479741083" lon="5.58688201782">
		<tag k="alt_name" v="Myglabost" />
		<tag k="fixme" v="consider place=hamlet" />
		<tag k="name" v="Myklabust" />
		<tag k="place" v="farm" />
		<tag k="ssr:stedsnr" v="486032" />
	</node>
	<node id="-23192" lat="58.9063388924" lon="5.5940055544">
		<tag k="name" v="Rindå" />
		<tag k="place" v="farm" />
		<tag k="ssr:stedsnr" v="873748" />
	</node>
	<node id="-23191" lat="58.8761970518" lon="5.65734322613">
		<tag k="alt_name" v="Stangaland Austre" />
		<tag k="fixme" v="consider place=hamlet" />
		<tag k="name" v="Austre Stangaland" />
		<tag k="place" v="farm" />
		<tag k="ssr:stedsnr" v="873639" />
	</node>
	<node id="-22677" lat="58.917769857" lon="5.66966651609">
		<tag k="fixme" v="consider place=hamlet" />
		<tag k="name" v="Grannes" />
		<tag k="place" v="farm" />
		<tag k="ssr:stedsnr" v="304010" />
	</node>
	<node id="-23184" lat="58.8617805602" lon="5.66056111535">
		<tag k="name" v="Rudleholen" />
		<tag k="place" v="farm" />
		<tag k="ssr:stedsnr" v="873293" />
	</node>
	<node id="-23181" lat="58.883400004" lon="5.68528610588">
		<tag k="name" v="Solvang" />
		<tag k="place" v="farm" />
		<tag k="ssr:stedsnr" v="873338" />
	</node>
	<node id="-23179" lat="58.9315361098" lon="5.60417777897">
		<tag k="name" v="Haga" />
		<tag k="place" v="farm" />
		<tag k="ssr:stedsnr" v="851061" />
	</node>
	<node id="-23178" lat="58.9290638911" lon="5.69276666553">
		<tag k="name" v="Nov" />
		<tag k="place" v="farm" />
		<tag k="ssr:stedsnr" v="851059" />
	</node>
	<node id="-23177" lat="58.918353448" lon="5.51746933259">
		<tag k="fixme" v="consider place=hamlet" />
		<tag k="name" v="Rott" />
		<tag k="place" v="farm" />
		<tag k="ssr:stedsnr" v="850002" />
	</node>
	<node id="-22664" lat="58.8617472222" lon="5.61858888335">
		<tag k="name" v="Solbakk" />
		<tag k="place" v="farm" />
		<tag k="ssr:stedsnr" v="449280" />
	</node>
	<node id="-23172" lat="58.906072224" lon="5.60392499513">
		<tag k="name" v="Grønaberget" />
		<tag k="place" v="farm" />
		<tag k="ssr:stedsnr" v="830712" />
	</node>
	<node id="-22635" lat="58.9001672606" lon="5.58884042041">
		<tag k="alt_name" v="Kolnes" />
		<tag k="fixme" v="consider place=hamlet" />
		<tag k="name" v="Sør-Kolnes" />
		<tag k="place" v="farm" />
		<tag k="ssr:stedsnr" v="243023" />
	</node>
	<node id="-22651" lat="58.9171250037" lon="5.6685222189">
		<tag k="name" v="Brennerihagen" />
		<tag k="place" v="farm" />
		<tag k="ssr:stedsnr" v="449161" />
	</node>
	<node id="-22650" lat="58.9176388872" lon="5.68286111221">
		<tag k="amenity" v="school" />
		<tag k="name" v="Grannes barneskule" />
		<tag k="ssr:stedsnr" v="449160" />
	</node>
	<node id="-22649" lat="58.8430250036" lon="5.56858888487">
		<tag k="name" v="Sanden" />
		<tag k="place" v="farm" />
		<tag k="ssr:stedsnr" v="449070" />
	</node>
	<node id="-22646" lat="58.8631388872" lon="5.61280277613">
		<tag k="name" v="Einarshaug" />
		<tag k="place" v="farm" />
		<tag k="ssr:stedsnr" v="449256" />
	</node>
	<node id="-23147" lat="58.9383861115" lon="5.60118610868">
		<tag k="name" v="Meling" />
		<tag k="place" v="farm" />
		<tag k="ssr:stedsnr" v="790051" />
	</node>
	<node id="-23146" lat="58.9389687509" lon="5.6183159277">
		<tag k="fixme" v="consider place=hamlet" />
		<tag k="name" v="Haga" />
		<tag k="place" v="farm" />
		<tag k="ssr:stedsnr" v="790048" />
	</node>
	<node id="-23145" lat="58.9397334957" lon="5.61038441576">
		<tag k="fixme" v="consider place=hamlet" />
		<tag k="name" v="Meling" />
		<tag k="place" v="farm" />
		<tag k="ssr:stedsnr" v="790047" />
	</node>
	<node id="-23143" lat="58.8572478533" lon="5.64204255018">
		<tag k="fixme" v="consider place=hamlet" />
		<tag k="name" v="Gimra" />
		<tag k="place" v="farm" />
		<tag k="ssr:stedsnr" v="789990" />
	</node>
	<node id="-23142" lat="58.8486942709" lon="5.55857975545">
		<tag k="alt_name" v="Hedlestø" />
		<tag k="fixme" v="consider place=hamlet" />
		<tag k="name" v="Hellestø" />
		<tag k="place" v="farm" />
		<tag k="ssr:stedsnr" v="789984" />
	</node>
	<node id="-23141" lat="58.8521055511" lon="5.6004222237">
		<tag k="name" v="Håland" />
		<tag k="place" v="farm" />
		<tag k="ssr:stedsnr" v="789981" />
	</node>
	<node id="-23140" lat="58.83727222" lon="5.58343332848">
		<tag k="name" v="Auglend" />
		<tag k="old_name" v="Auklend" />
		<tag k="place" v="farm" />
		<tag k="ssr:stedsnr" v="789972" />
	</node>
	<node id="-22715" lat="58.9224944463" lon="5.60403611048">
		<tag k="name" v="Nedre-Sletthei" />
		<tag k="place" v="farm" />
		<tag k="ssr:stedsnr" v="510805" />
	</node>
	<node id="-22617" lat="58.8885472201" lon="5.65289166604">
		<tag k="name" v="Sola" />
		<tag k="place" v="village" />
		<tag k="ssr:stedsnr" v="266987" />
	</node>
	<node id="-23128" lat="58.9068500012" lon="5.58193056185">
		<tag k="name" v="Stornes" />
		<tag k="place" v="farm" />
		<tag k="ssr:stedsnr" v="752761" />
	</node>
	<node id="-23120" lat="58.8677083298" lon="5.6297333343">
		<tag k="name" v="Skjelsnes" />
		<tag k="place" v="farm" />
		<tag k="ssr:stedsnr" v="752293" />
	</node>
	<node id="-23119" lat="58.8626000006" lon="5.66051944978">
		<tag k="name" v="Gjerdebakk" />
		<tag k="place" v="farm" />
		<tag k="ssr:stedsnr" v="752292" />
	</node>
	<node id="-23118" lat="58.8637055581" lon="5.66840000682">
		<tag k="name" v="Bruholen" />
		<tag k="place" v="farm" />
		<tag k="ssr:stedsnr" v="752289" />
	</node>
	<node id="-22596" lat="58.8377416665" lon="5.60007499864">
		<tag k="name" v="Foren" />
		<tag k="place" v="farm" />
		<tag k="ssr:stedsnr" v="84418" />
	</node>
	<node id="-23106" lat="58.9263333357" lon="5.60870833491">
		<tag k="alt_name" v="Snøda" />
		<tag k="fixme" v="consider place=suburb, village or hamlet" />
		<tag k="name" v="Snøde" />
		<tag k="place" v="quarter" />
		<tag k="ssr:stedsnr" v="630641" />
	</node>
	<node id="-22592" lat="58.9462149394" lon="5.5957129603">
		<tag k="alt_name" v="Mæland" />
		<tag k="fixme" v="consider place=hamlet" />
		<tag k="name" v="Meland" />
		<tag k="place" v="farm" />
		<tag k="ssr:stedsnr" v="244043" />
	</node>
	<node id="-23100" lat="58.8576527787" lon="5.56930000329">
		<tag k="name" v="Soldalen" />
		<tag k="place" v="farm" />
		<tag k="ssr:stedsnr" v="630377" />
	</node>
	<node id="-22585" lat="58.8927999983" lon="5.66461110737">
		<tag k="leisure" v="pitch" />
		<tag k="name" v="Sola Idrettsanlegg" />
		<tag k="ssr:stedsnr" v="24236" />
	</node>
	<node id="-22660" lat="58.8604333317" lon="5.5850722258">
		<tag k="name" v="Holmen" />
		<tag k="place" v="farm" />
		<tag k="ssr:stedsnr" v="449371" />
	</node>
	<node id="-23094" lat="58.8479111083" lon="5.58962221529">
		<tag k="name" v="Eikedalen" />
		<tag k="place" v="farm" />
		<tag k="ssr:stedsnr" v="630081" />
	</node>
	<node id="-23092" lat="58.8448833356" lon="5.59001111812">
		<tag k="alt_name" v="Hedleberget" />
		<tag k="name" v="Helleberget" />
		<tag k="place" v="farm" />
		<tag k="ssr:stedsnr" v="607981" />
	</node>
	<node id="-23090" lat="58.9361777803" lon="5.57410000345">
		<tag k="name" v="Tananger" />
		<tag k="place" v="village" />
		<tag k="ssr:stedsnr" v="607046" />
	</node>
	<node id="-23089" lat="58.9504111125" lon="5.59367221625">
		<tag k="name" v="Steinhaug" />
		<tag k="place" v="farm" />
		<tag k="ssr:stedsnr" v="607040" />
	</node>
	<node id="-23079" lat="58.8663859428" lon="5.65426986972">
		<tag k="alt_name" v="Stangaland Vestre" />
		<tag k="fixme" v="consider place=hamlet" />
		<tag k="name" v="Vestre Stangaland" />
		<tag k="place" v="farm" />
		<tag k="ssr:stedsnr" v="569676" />
	</node>
	<node id="-23076" lat="58.8367444442" lon="5.57146666504">
		<tag k="name" v="Vindholen" />
		<tag k="place" v="farm" />
		<tag k="ssr:stedsnr" v="569405" />
	</node>
	<node id="-23074" lat="58.8705111071" lon="5.57486111643">
		<tag k="name" v="Sjølyst" />
		<tag k="place" v="farm" />
		<tag k="ssr:stedsnr" v="569398" />
	</node>
	<node id="-23069" lat="58.8815472204" lon="5.67761111342">
		<tag k="name" v="Eikebakken" />
		<tag k="place" v="farm" />
		<tag k="ssr:stedsnr" v="569329" />
	</node>
	<node id="-23064" lat="58.8694194445" lon="5.58466666032">
		<tag k="alt_name" v="Ølberg" />
		<tag k="name" v="Ølbør" />
		<tag k="place" v="farm" />
		<tag k="ssr:stedsnr" v="547999" />
	</node>
	<node id="-23063" lat="58.8631166692" lon="5.63570556296">
		<tag k="name" v="Kvitholen" />
		<tag k="old_name" v="Kvitehol" />
		<tag k="place" v="farm" />
		<tag k="ssr:stedsnr" v="547998" />
	</node>
	<node id="-23062" lat="58.951794309" lon="5.6010904098">
		<tag k="fixme" v="consider place=hamlet" />
		<tag k="name" v="Jåsund" />
		<tag k="place" v="farm" />
		<tag k="ssr:stedsnr" v="547099" />
	</node>
	<node id="-23061" lat="58.8324409616" lon="5.58637004997">
		<tag k="fixme" v="consider place=hamlet" />
		<tag k="name" v="Harvaland" />
		<tag k="place" v="farm" />
		<tag k="ssr:stedsnr" v="546963" />
	</node>
	<node id="-23060" lat="58.8979321007" lon="5.62123416103">
		<tag k="fixme" v="consider place=hamlet" />
		<tag k="name" v="Sømme" />
		<tag k="place" v="farm" />
		<tag k="ssr:stedsnr" v="546946" />
	</node>
	<node id="-23057" lat="58.9216664105" lon="5.6212142072">
		<tag k="name" v="Risa" />
		<tag k="place" v="hamlet" />
		<tag k="ssr:stedsnr" v="546022" />
	</node>
	<node id="-23051" lat="58.932953347" lon="5.59796699252">
		<tag k="fixme" v="consider place=suburb, village or hamlet" />
		<tag k="name" v="Båtstad" />
		<tag k="place" v="quarter" />
		<tag k="ssr:stedsnr" v="524236" />
	</node>
	<node id="-22731" lat="58.8748000033" lon="5.68041943706">
		<tag k="alt_name" v="Bæreim" />
		<tag k="name" v="Bærheim" />
		<tag k="place" v="farm" />
		<tag k="ssr:stedsnr" v="668935" />
	</node>
</osm>
