<?xml version="1.0" encoding="UTF-8"?>
<osm generator="osmapis" version="0.6">
	<node id="-407168" lat="58.8321111127" lon="5.57817500772">
		<tag k="name" v="Harvalandsvatnet" />
		<tag k="natural" v="water" />
		<tag k="ssr:stedsnr" v="84390" />
		<tag k="water" v="lake" />
	</node>
	<node id="-407041" lat="58.8933749961" lon="5.60341388952">
		<tag k="name" v="Sandbekk" />
		<tag k="ssr:stedsnr" v="327720" />
		<tag k="waterway" v="stream" />
	</node>
	<node id="-407428" lat="58.9137499965" lon="5.50567499336">
		<tag k="name" v="Vatnet" />
		<tag k="natural" v="water" />
		<tag k="ssr:stedsnr" v="630335" />
		<tag k="water" v="lake" />
	</node>
	<node id="-407474" lat="58.8740249976" lon="5.60313056204">
		<tag k="name" v="Hestabekken" />
		<tag k="ssr:stedsnr" v="691414" />
		<tag k="waterway" v="stream" />
	</node>
	<node id="-407305" lat="58.8959888892" lon="5.60084999305">
		<tag k="alt_name" v="Kolnestjørna" />
		<tag k="name" v="Storatjørn" />
		<tag k="natural" v="water" />
		<tag k="ssr:stedsnr" v="425957" />
	</node>
</osm>
