<?xml version="1.0" encoding="UTF-8"?>
<osm generator="osmapis" version="0.6">
	<node id="-406528" lat="58.9725111098" lon="5.46768888357">
		<tag k="name" v="Hugen" />
		<tag k="place" v="islet" />
		<tag k="ssr:stedsnr" v="364138" />
	</node>
	<node id="-406527" lat="58.9681555543" lon="5.50333055524">
		<tag k="fixme" v="consider seamark:type=rock or natural=shoal" />
		<tag k="name" v="Gåsa" />
		<tag k="place" v="islet" />
		<tag k="ssr:stedsnr" v="364073" />
	</node>
	<node id="-406523" lat="58.9047583372" lon="5.44719722797">
		<tag k="name" v="Store Hugjen" />
		<tag k="place" v="islet" />
		<tag k="ssr:stedsnr" v="362196" />
	</node>
	<node id="-407034" lat="58.9216194431" lon="5.64432500879">
		<tag k="name" v="Kobbholmen" />
		<tag k="place" v="islet" />
		<tag k="ssr:stedsnr" v="873302" />
	</node>
	<node id="-406521" lat="58.9498333351" lon="5.44899445066">
		<tag k="name" v="Litla Ståbelen" />
		<tag k="place" v="islet" />
		<tag k="ssr:stedsnr" v="361204" />
	</node>
	<node id="-406517" lat="58.8625111074" lon="5.55366389333">
		<tag k="fixme" v="consider seamark:type=rock or natural=shoal" />
		<tag k="name" v="Kverna" />
		<tag k="place" v="islet" />
		<tag k="ssr:stedsnr" v="342748" />
	</node>
	<node id="-406515" lat="58.9026444482" lon="5.46250833295">
		<tag k="name" v="Nordra Flua" />
		<tag k="place" v="locality" />
		<tag k="seamark:type" v="rock" />
		<tag k="ssr:stedsnr" v="331506" />
	</node>
	<node id="-406514" lat="58.9478999962" lon="5.54049722649">
		<tag k="name" v="Djubaflua" />
		<tag k="place" v="locality" />
		<tag k="seamark:type" v="rock" />
		<tag k="ssr:stedsnr" v="331486" />
	</node>
	<node id="-406513" lat="58.959691663" lon="5.59534167479">
		<tag k="name" v="Krabbaviga" />
		<tag k="natural" v="bay" />
		<tag k="ssr:stedsnr" v="331484" />
	</node>
	<node id="-407024" lat="58.9243679709" lon="5.57426054515">
		<tag k="name" v="Mjånesholmen" />
		<tag k="natural" v="cape" />
		<tag k="ssr:stedsnr" v="850010" />
	</node>
	<node id="-407022" lat="58.9322222249" lon="5.45681943692">
		<tag k="name" v="Nordre Hansagrunnen" />
		<tag k="natural" v="shoal" />
		<tag k="place" v="locality" />
		<tag k="ssr:stedsnr" v="847692" />
	</node>
	<node id="-406508" lat="58.9223444424" lon="5.50486666522">
		<tag k="name" v="Sjolikgrunden" />
		<tag k="place" v="islet" />
		<tag k="ssr:stedsnr" v="327363" />
	</node>
	<node id="-407019" lat="58.9350305514" lon="5.61902221586">
		<tag k="name" v="Småvågane" />
		<tag k="place" v="islet" />
		<tag k="ssr:stedsnr" v="830731" />
	</node>
	<node id="-407017" lat="58.8640527802" lon="5.49373055529">
		<tag k="name" v="Sørbåen" />
		<tag k="place" v="locality" />
		<tag k="seamark:type" v="rock" />
		<tag k="ssr:stedsnr" v="828820" />
	</node>
	<node id="-407016" lat="58.8873194457" lon="5.48789999852">
		<tag k="name" v="Skotagrunnen" />
		<tag k="natural" v="shoal" />
		<tag k="place" v="locality" />
		<tag k="ssr:stedsnr" v="828815" />
	</node>
	<node id="-407015" lat="58.8708694415" lon="5.50548611395">
		<tag k="name" v="Klakken" />
		<tag k="natural" v="shoal" />
		<tag k="place" v="locality" />
		<tag k="ssr:stedsnr" v="828810" />
	</node>
	<node id="-407014" lat="58.9065194454" lon="5.48690554709">
		<tag k="name" v="Kringla" />
		<tag k="natural" v="shoal" />
		<tag k="place" v="locality" />
		<tag k="ssr:stedsnr" v="828805" />
	</node>
	<node id="-407013" lat="58.8983416671" lon="5.44432778095">
		<tag k="fixme" v="consider seamark:type=rock or natural=shoal" />
		<tag k="name" v="Trillingane" />
		<tag k="place" v="islet" />
		<tag k="ssr:stedsnr" v="828799" />
	</node>
	<node id="-407012" lat="58.8774027807" lon="5.42856389434">
		<tag k="alt_name" v="Folkvårskjeret" />
		<tag k="fixme" v="consider seamark:type=rock or natural=shoal" />
		<tag k="name" v="Folkvordskjeret" />
		<tag k="place" v="islet" />
		<tag k="ssr:stedsnr" v="828792" />
	</node>
	<node id="-407011" lat="58.8977250037" lon="5.46306389027">
		<tag k="name" v="Larsagrunnen" />
		<tag k="natural" v="shoal" />
		<tag k="place" v="locality" />
		<tag k="ssr:stedsnr" v="828786" />
	</node>
	<node id="-407010" lat="58.919133335" lon="5.47385832643">
		<tag k="name" v="Flua" />
		<tag k="place" v="locality" />
		<tag k="seamark:type" v="rock" />
		<tag k="ssr:stedsnr" v="817507" />
	</node>
	<node id="-407009" lat="58.9104277813" lon="5.50082500755">
		<tag k="fixme" v="consider seamark:type=rock or natural=shoal" />
		<tag k="name" v="Kunteskjeret" />
		<tag k="place" v="islet" />
		<tag k="ssr:stedsnr" v="817506" />
	</node>
	<node id="-407008" lat="58.958983333" lon="5.56844443755">
		<tag k="name" v="Grunnaflua" />
		<tag k="place" v="locality" />
		<tag k="seamark:type" v="rock" />
		<tag k="ssr:stedsnr" v="817486" />
	</node>
	<node id="-407007" lat="58.9534055579" lon="5.57004167208">
		<tag k="fixme" v="consider seamark:type=rock or natural=shoal" />
		<tag k="name" v="Vestøskjeret" />
		<tag k="place" v="islet" />
		<tag k="ssr:stedsnr" v="817485" />
	</node>
	<node id="-407005" lat="58.927533331" lon="5.62827223048">
		<tag k="fixme" v="consider seamark:type=rock or natural=shoal" />
		<tag k="name" v="Kobbesteinane" />
		<tag k="place" v="islet" />
		<tag k="ssr:stedsnr" v="813307" />
	</node>
	<node id="-407004" lat="58.9302333327" lon="5.62587778175">
		<tag k="name" v="Øyarvågen" />
		<tag k="natural" v="strait" />
		<tag k="ssr:stedsnr" v="813305" />
	</node>
	<node id="-406522" lat="58.9194888859" lon="5.46681665832">
		<tag k="name" v="Husarhausen" />
		<tag k="natural" v="shoal" />
		<tag k="place" v="locality" />
		<tag k="ssr:stedsnr" v="361706" />
	</node>
	<node id="-407002" lat="58.9417916627" lon="5.61830278124">
		<tag k="name" v="Skarvasteinen" />
		<tag k="natural" v="cape" />
		<tag k="ssr:stedsnr" v="813297" />
	</node>
	<node id="-406489" lat="58.9142643176" lon="5.56020860718">
		<tag k="name" v="Søre Gyrdingen" />
		<tag k="place" v="islet" />
		<tag k="ssr:stedsnr" v="304014" />
	</node>
	<node id="-406487" lat="58.9493305589" lon="5.45170555298">
		<tag k="name" v="Stora Ståbelen" />
		<tag k="place" v="islet" />
		<tag k="ssr:stedsnr" v="300200" />
	</node>
	<node id="-406997" lat="58.9606111113" lon="5.59006389413">
		<tag k="name" v="Stokkavik" />
		<tag k="natural" v="bay" />
		<tag k="ssr:stedsnr" v="812505" />
	</node>
	<node id="-406996" lat="58.8760777758" lon="5.59110832812">
		<tag k="name" v="Regestranden" />
		<tag k="natural" v="bay" />
		<tag k="ssr:stedsnr" v="812426" />
	</node>
	<node id="-406995" lat="58.9233111132" lon="5.50646945154">
		<tag k="name" v="Rottnesbukta" />
		<tag k="natural" v="bay" />
		<tag k="ssr:stedsnr" v="812402" />
	</node>
	<node id="-406993" lat="58.9146499998" lon="5.52182777983">
		<tag k="name" v="Klossvik" />
		<tag k="natural" v="bay" />
		<tag k="ssr:stedsnr" v="812384" />
	</node>
	<node id="-406992" lat="58.9156416651" lon="5.52364443615">
		<tag k="name" v="Seiodden" />
		<tag k="natural" v="cape" />
		<tag k="ssr:stedsnr" v="812381" />
	</node>
	<node id="-406991" lat="58.9097777816" lon="5.50505000244">
		<tag k="name" v="Viddingsvågen" />
		<tag k="natural" v="bay" />
		<tag k="ssr:stedsnr" v="812374" />
	</node>
	<node id="-406478" lat="58.8977472252" lon="5.5472694525">
		<tag k="name" v="Nordboen" />
		<tag k="place" v="locality" />
		<tag k="seamark:type" v="rock" />
		<tag k="ssr:stedsnr" v="271565" />
	</node>
	<node id="-406989" lat="58.8971027786" lon="5.55071944791">
		<tag k="name" v="Kolnesholmane" />
		<tag k="place" v="island" />
		<tag k="ssr:stedsnr" v="809830" />
	</node>
	<node id="-406476" lat="58.963786114" lon="5.53629444852">
		<tag k="name" v="Sandågerflua" />
		<tag k="place" v="locality" />
		<tag k="seamark:type" v="rock" />
		<tag k="ssr:stedsnr" v="271554" />
	</node>
	<node id="-406475" lat="58.951486111" lon="5.6079805596">
		<tag k="name" v="Pighella" />
		<tag k="natural" v="beach" />
		<tag k="place" v="locality" />
		<tag k="ssr:stedsnr" v="271548" />
	</node>
	<node id="-406985" lat="58.9328861075" lon="5.48502500746">
		<tag k="alt_name" v="Håbaskjeret" />
		<tag k="fixme" v="consider seamark:type=rock or natural=shoal" />
		<tag k="name" v="Håbåskjeret" />
		<tag k="old_name" v="Håbåskjere" />
		<tag k="place" v="islet" />
		<tag k="ssr:stedsnr" v="790041" />
	</node>
	<node id="-406980" lat="58.8881305571" lon="5.54251666592">
		<tag k="alt_name" v="Auså" />
		<tag k="name" v="Ausa" />
		<tag k="place" v="islet" />
		<tag k="ssr:stedsnr" v="789966" />
	</node>
	<node id="-406979" lat="58.8914222195" lon="5.54838611328">
		<tag k="alt_name" v="Vardholmen, søre;søre Varholmen" />
		<tag k="name" v="Søre Vardholmen" />
		<tag k="place" v="islet" />
		<tag k="ssr:stedsnr" v="789963" />
	</node>
	<node id="-406978" lat="58.9051638923" lon="5.49999722926">
		<tag k="fixme" v="consider seamark:type=rock or natural=shoal" />
		<tag k="name" v="Nyvlingane" />
		<tag k="place" v="islet" />
		<tag k="ssr:stedsnr" v="789013" />
	</node>
	<node id="-406976" lat="58.9170972212" lon="5.45753610642">
		<tag k="name" v="Kyrkjehausane" />
		<tag k="natural" v="shoal" />
		<tag k="place" v="locality" />
		<tag k="ssr:stedsnr" v="786706" />
	</node>
	<node id="-406971" lat="58.8701194406" lon="5.56932499973">
		<tag k="name" v="Ølbergsanden" />
		<tag k="natural" v="beach" />
		<tag k="place" v="locality" />
		<tag k="ssr:stedsnr" v="767779" />
	</node>
	<node id="-406970" lat="58.8476333315" lon="5.55890555192">
		<tag k="name" v="Hellestøstranda" />
		<tag k="natural" v="beach" />
		<tag k="place" v="locality" />
		<tag k="ssr:stedsnr" v="767769" />
	</node>
	<node id="-406969" lat="58.927055555" lon="5.67262778067">
		<tag k="fixme" v="consider seamark:type=rock or natural=shoal" />
		<tag k="name" v="Skjeret" />
		<tag k="place" v="islet" />
		<tag k="ssr:stedsnr" v="767716" />
	</node>
	<node id="-406968" lat="58.92576609" lon="5.57249343004">
		<tag k="name" v="Laksholmsundet" />
		<tag k="natural" v="strait" />
		<tag k="ssr:stedsnr" v="767246" />
	</node>
	<node id="-406967" lat="58.9646833341" lon="5.47964443668">
		<tag k="name" v="Langeboen" />
		<tag k="place" v="locality" />
		<tag k="seamark:type" v="rock" />
		<tag k="ssr:stedsnr" v="756504" />
	</node>
	<node id="-406965" lat="58.8543749962" lon="5.54751666647">
		<tag k="name" v="Buvika" />
		<tag k="natural" v="bay" />
		<tag k="ssr:stedsnr" v="752722" />
	</node>
	<node id="-406477" lat="58.964041667" lon="5.52234722905">
		<tag k="name" v="Perskallane" />
		<tag k="place" v="locality" />
		<tag k="seamark:type" v="rock" />
		<tag k="ssr:stedsnr" v="271556" />
	</node>
	<node id="-406948" lat="58.8777750033" lon="5.44138887998">
		<tag k="name" v="Tjør-innseilingen" />
		<tag k="natural" v="strait" />
		<tag k="ssr:stedsnr" v="749966" />
	</node>
	<node id="-406947" lat="58.9055745973" lon="5.44354084943">
		<tag k="name" v="Huaboane" />
		<tag k="place" v="locality" />
		<tag k="seamark:type" v="rock" />
		<tag k="ssr:stedsnr" v="748933" />
	</node>
	<node id="-406531" lat="58.9424611071" lon="5.45504999734">
		<tag k="name" v="Stangarholmen" />
		<tag k="place" v="islet" />
		<tag k="ssr:stedsnr" v="365044" />
	</node>
	<node id="-406943" lat="58.8738990779" lon="5.57415483965">
		<tag k="name" v="Trælaneset" />
		<tag k="natural" v="cape" />
		<tag k="old_name" v="Trælneset" />
		<tag k="ssr:stedsnr" v="729942" />
	</node>
	<node id="-406942" lat="58.9607555566" lon="5.57540832893">
		<tag k="name" v="Fjørenesholmane" />
		<tag k="place" v="islet" />
		<tag k="ssr:stedsnr" v="729084" />
	</node>
	<node id="-406941" lat="58.9024571259" lon="5.45058266017">
		<tag k="alt_name" v="Perskjeret" />
		<tag k="fixme" v="consider seamark:type=rock or natural=shoal" />
		<tag k="name" v="Persskjeret" />
		<tag k="old_name" v="Perskjer" />
		<tag k="place" v="islet" />
		<tag k="ssr:stedsnr" v="729033" />
	</node>
	<node id="-406940" lat="58.9102388868" lon="5.44915000052">
		<tag k="name" v="Stora Hua" />
		<tag k="place" v="islet" />
		<tag k="ssr:stedsnr" v="729023" />
	</node>
	<node id="-406939" lat="58.9092083372" lon="5.62386388957">
		<tag k="name" v="Kuholmen" />
		<tag k="place" v="islet" />
		<tag k="ssr:stedsnr" v="729018" />
	</node>
	<node id="-406938" lat="58.9298962009" lon="5.50314114903">
		<tag k="name" v="Olleskjergrunnen" />
		<tag k="natural" v="shoal" />
		<tag k="place" v="locality" />
		<tag k="ssr:stedsnr" v="726686" />
	</node>
	<node id="-406937" lat="58.9177194485" lon="5.49421388179">
		<tag k="name" v="Brønnespynten" />
		<tag k="natural" v="cape" />
		<tag k="ssr:stedsnr" v="725629" />
	</node>
	<node id="-406935" lat="58.8947777753" lon="5.4431666589">
		<tag k="name" v="Løyndagrunnen" />
		<tag k="natural" v="shoal" />
		<tag k="place" v="locality" />
		<tag k="ssr:stedsnr" v="706812" />
	</node>
	<node id="-406934" lat="58.8700027781" lon="5.54910000333">
		<tag k="name" v="Roafluna" />
		<tag k="place" v="locality" />
		<tag k="seamark:type" v="rock" />
		<tag k="ssr:stedsnr" v="706796" />
	</node>
	<node id="-406933" lat="58.9311638856" lon="5.62447778091">
		<tag k="name" v="Øytangen" />
		<tag k="natural" v="cape" />
		<tag k="ssr:stedsnr" v="706665" />
	</node>
	<node id="-406932" lat="58.9673027822" lon="5.4767666674">
		<tag k="name" v="Stora Hugaflua" />
		<tag k="place" v="locality" />
		<tag k="seamark:type" v="rock" />
		<tag k="ssr:stedsnr" v="695307" />
	</node>
	<node id="-406928" lat="58.9245750015" lon="5.51148056043">
		<tag k="name" v="Humlanesodden" />
		<tag k="natural" v="cape" />
		<tag k="ssr:stedsnr" v="691396" />
	</node>
	<node id="-406925" lat="58.9059972207" lon="5.64380277442">
		<tag k="name" v="Kattaberget" />
		<tag k="natural" v="cape" />
		<tag k="ssr:stedsnr" v="691340" />
	</node>
	<node id="-406921" lat="58.9141444409" lon="5.66824166319">
		<tag k="name" v="Grannesvågen" />
		<tag k="natural" v="bay" />
		<tag k="ssr:stedsnr" v="691212" />
	</node>
	<node id="-406920" lat="58.9253694435" lon="5.67550833312">
		<tag k="name" v="Selsneset" />
		<tag k="natural" v="cape" />
		<tag k="ssr:stedsnr" v="691203" />
	</node>
	<node id="-406910" lat="58.9426722224" lon="5.44581111799">
		<tag k="alt_name" v="Kvednholmen" />
		<tag k="name" v="Kvernholmen" />
		<tag k="place" v="islet" />
		<tag k="ssr:stedsnr" v="668083" />
	</node>
	<node id="-406909" lat="58.9601250019" lon="5.46404166993">
		<tag k="name" v="Trollholmen" />
		<tag k="place" v="islet" />
		<tag k="ssr:stedsnr" v="668071" />
	</node>
	<node id="-406908" lat="58.9385500037" lon="5.47255278042">
		<tag k="fixme" v="consider seamark:type=rock or natural=shoal" />
		<tag k="name" v="Dyraskjeret" />
		<tag k="place" v="islet" />
		<tag k="ssr:stedsnr" v="665731" />
	</node>
	<node id="-406907" lat="58.9148194458" lon="5.46626943885">
		<tag k="name" v="Kjerbergen" />
		<tag k="natural" v="shoal" />
		<tag k="place" v="locality" />
		<tag k="ssr:stedsnr" v="664662" />
	</node>
	<node id="-406903" lat="58.8675583349" lon="5.50066389407">
		<tag k="name" v="Steinbåane" />
		<tag k="place" v="locality" />
		<tag k="seamark:type" v="rock" />
		<tag k="ssr:stedsnr" v="645823" />
	</node>
	<node id="-406902" lat="58.8815027821" lon="5.54623333461">
		<tag k="name" v="Bolla" />
		<tag k="place" v="locality" />
		<tag k="seamark:type" v="rock" />
		<tag k="ssr:stedsnr" v="645795" />
	</node>
	<node id="-406901" lat="58.8768583316" lon="5.5473222187">
		<tag k="name" v="Parisgrunnen" />
		<tag k="place" v="locality" />
		<tag k="seamark:type" v="rock" />
		<tag k="ssr:stedsnr" v="645794" />
	</node>
	<node id="-406900" lat="58.8474305572" lon="5.5513472257">
		<tag k="name" v="Sulle" />
		<tag k="place" v="locality" />
		<tag k="seamark:type" v="rock" />
		<tag k="ssr:stedsnr" v="645753" />
	</node>
	<node id="-406899" lat="58.9300972183" lon="5.5981916635">
		<tag k="name" v="Båtstadvågen" />
		<tag k="natural" v="bay" />
		<tag k="ssr:stedsnr" v="645250" />
	</node>
	<node id="-406898" lat="58.9663305591" lon="5.46450833878">
		<tag k="name" v="Den svarte" />
		<tag k="place" v="locality" />
		<tag k="seamark:type" v="rock" />
		<tag k="ssr:stedsnr" v="634538" />
	</node>
	<node id="-406897" lat="58.8982111087" lon="5.5796222282">
		<tag k="name" v="Kjeilå" />
		<tag k="natural" v="bay" />
		<tag k="ssr:stedsnr" v="630714" />
	</node>
	<node id="-406504" lat="58.9114083325" lon="5.66146944367">
		<tag k="name" v="Sørnesvågen" />
		<tag k="natural" v="bay" />
		<tag k="ssr:stedsnr" v="327285" />
	</node>
	<node id="-406893" lat="58.8586055522" lon="5.54879444912">
		<tag k="name" v="Kvernavik" />
		<tag k="natural" v="bay" />
		<tag k="ssr:stedsnr" v="630707" />
	</node>
	<node id="-406892" lat="58.8610277801" lon="5.55057499826">
		<tag k="name" v="Vigdelnes" />
		<tag k="natural" v="cape" />
		<tag k="ssr:stedsnr" v="630706" />
	</node>
	<node id="-406890" lat="58.8970916664" lon="5.55069445097">
		<tag k="fixme" v="consider seamark:type=rock or natural=shoal" />
		<tag k="name" v="Seiaskjeret" />
		<tag k="place" v="islet" />
		<tag k="ssr:stedsnr" v="630386" />
	</node>
	<node id="-406503" lat="58.900169441" lon="5.63610555027">
		<tag k="name" v="Sømmevågen" />
		<tag k="natural" v="bay" />
		<tag k="ssr:stedsnr" v="327243" />
	</node>
	<node id="-406588" lat="58.9269698708" lon="5.5716301069">
		<tag k="name" v="Laksholmen" />
		<tag k="place" v="islet" />
		<tag k="ssr:stedsnr" v="1085" />
	</node>
	<node id="-406885" lat="58.9323555553" lon="5.57295833859">
		<tag k="name" v="Tangen" />
		<tag k="natural" v="cape" />
		<tag k="ssr:stedsnr" v="630350" />
	</node>
	<node id="-406884" lat="58.910688891" lon="5.51354166739">
		<tag k="name" v="Dalhamn" />
		<tag k="natural" v="bay" />
		<tag k="ssr:stedsnr" v="630337" />
	</node>
	<node id="-406882" lat="58.9097555556" lon="5.53399999936">
		<tag k="bay" v="fjord" />
		<tag k="name" v="Rottsfjorden" />
		<tag k="natural" v="bay" />
		<tag k="ssr:stedsnr" v="630333" />
	</node>
	<node id="-406881" lat="58.9338361156" lon="5.62442778328">
		<tag k="name" v="Neset" />
		<tag k="natural" v="cape" />
		<tag k="ssr:stedsnr" v="630329" />
	</node>
	<node id="-406880" lat="58.929486115" lon="5.68494721487">
		<tag k="name" v="Løneset" />
		<tag k="natural" v="cape" />
		<tag k="ssr:stedsnr" v="630326" />
	</node>
	<node id="-406878" lat="58.9198055594" lon="5.62713333818">
		<tag k="fixme" v="consider seamark:type=rock or natural=shoal" />
		<tag k="name" v="Skarvasteinen" />
		<tag k="place" v="islet" />
		<tag k="ssr:stedsnr" v="630289" />
	</node>
	<node id="-406560" lat="58.9662166697" lon="5.48645000429">
		<tag k="name" v="Hinnagrunnen" />
		<tag k="place" v="locality" />
		<tag k="seamark:type" v="rock" />
		<tag k="ssr:stedsnr" v="392559" />
	</node>
	<node id="-406872" lat="58.8772277759" lon="5.42224722802">
		<tag k="alt_name" v="Faksen, yt" />
		<tag k="fixme" v="consider seamark:type=rock or natural=shoal" />
		<tag k="name" v="Ytre Faksen" />
		<tag k="place" v="islet" />
		<tag k="ssr:stedsnr" v="607942" />
	</node>
	<node id="-406871" lat="58.8937694482" lon="5.54704444552">
		<tag k="alt_name" v="Vardholmen, nordre;nordre Varholmen" />
		<tag k="name" v="Nordre Vardholmen" />
		<tag k="place" v="islet" />
		<tag k="ssr:stedsnr" v="607955" />
	</node>
	<node id="-406870" lat="58.9591277754" lon="5.51184721736">
		<tag k="fixme" v="consider seamark:type=rock or natural=shoal" />
		<tag k="name" v="Fladaskjer" />
		<tag k="place" v="islet" />
		<tag k="ssr:stedsnr" v="607077" />
	</node>
	<node id="-406866" lat="58.9381500021" lon="5.53488333286">
		<tag k="name" v="Nilsagrunnen" />
		<tag k="natural" v="shoal" />
		<tag k="place" v="locality" />
		<tag k="ssr:stedsnr" v="604709" />
	</node>
	<node id="-406865" lat="58.9133861146" lon="5.4802833275">
		<tag k="name" v="Brotet" />
		<tag k="natural" v="shoal" />
		<tag k="place" v="locality" />
		<tag k="ssr:stedsnr" v="603642" />
	</node>
	<node id="-406861" lat="58.8660916688" lon="5.49204999126">
		<tag k="name" v="Skotabåen" />
		<tag k="place" v="locality" />
		<tag k="seamark:type" v="rock" />
		<tag k="ssr:stedsnr" v="585811" />
	</node>
	<node id="-406860" lat="58.9277722202" lon="5.41212777254">
		<tag k="name" v="Ytststeingrunnen" />
		<tag k="natural" v="shoal" />
		<tag k="place" v="locality" />
		<tag k="ssr:stedsnr" v="574563" />
	</node>
	<node id="-406859" lat="58.9446611092" lon="5.55386667402">
		<tag k="name" v="Nesjarflua" />
		<tag k="place" v="locality" />
		<tag k="seamark:type" v="rock" />
		<tag k="ssr:stedsnr" v="574528" />
	</node>
	<node id="-406858" lat="58.9252583366" lon="5.53407221536">
		<tag k="name" v="Steinboen" />
		<tag k="place" v="locality" />
		<tag k="seamark:type" v="rock" />
		<tag k="ssr:stedsnr" v="574523" />
	</node>
	<node id="-406855" lat="58.9619194437" lon="5.57636388589">
		<tag k="name" v="Litle Fjørnesholmen" />
		<tag k="place" v="islet" />
		<tag k="ssr:stedsnr" v="569474" />
	</node>
	<node id="-406497" lat="58.8358333339" lon="5.55138889198">
		<tag k="name" v="Hellestøstranden" />
		<tag k="natural" v="beach" />
		<tag k="place" v="locality" />
		<tag k="ssr:stedsnr" v="324944" />
	</node>
	<node id="-406849" lat="58.9197888907" lon="5.52357222566">
		<tag k="name" v="Haugabergbukta" />
		<tag k="natural" v="bay" />
		<tag k="ssr:stedsnr" v="569377" />
	</node>
	<node id="-406848" lat="58.9414888906" lon="5.56468610985">
		<tag k="name" v="Risnes" />
		<tag k="natural" v="cape" />
		<tag k="ssr:stedsnr" v="569370" />
	</node>
	<node id="-406847" lat="58.9123138849" lon="5.50851667502">
		<tag k="name" v="Vestra Øynå" />
		<tag k="place" v="island" />
		<tag k="ssr:stedsnr" v="569359" />
	</node>
	<node id="-406495" lat="58.8641166674" lon="5.48672500356">
		<tag k="alt_name" v="Sørskót" />
		<tag k="fixme" v="consider seamark:type=rock or natural=shoal" />
		<tag k="name" v="Sørskot" />
		<tag k="place" v="islet" />
		<tag k="ssr:stedsnr" v="305000" />
	</node>
	<node id="-406836" lat="58.960333335" lon="5.52251666901">
		<tag k="fixme" v="consider seamark:type=rock or natural=shoal" />
		<tag k="name" v="Skarvaskjeret" />
		<tag k="place" v="islet" />
		<tag k="ssr:stedsnr" v="546078" />
	</node>
	<node id="-406833" lat="58.9299277805" lon="5.54034999669">
		<tag k="name" v="Midtfjæra" />
		<tag k="place" v="locality" />
		<tag k="seamark:type" v="rock" />
		<tag k="ssr:stedsnr" v="544699" />
	</node>
	<node id="-406831" lat="58.9219277768" lon="5.4718499952">
		<tag k="name" v="Klossvikhausane" />
		<tag k="place" v="locality" />
		<tag k="seamark:type" v="rock" />
		<tag k="ssr:stedsnr" v="543664" />
	</node>
	<node id="-406493" lat="58.9540972261" lon="5.47053055455">
		<tag k="name" v="Stora Sandøya" />
		<tag k="place" v="islet" />
		<tag k="ssr:stedsnr" v="304078" />
	</node>
	<node id="-406828" lat="58.8716500011" lon="5.54844999345">
		<tag k="name" v="Ølbergfluna" />
		<tag k="place" v="locality" />
		<tag k="seamark:type" v="rock" />
		<tag k="ssr:stedsnr" v="524785" />
	</node>
	<node id="-406827" lat="58.899494445" lon="5.64326944447">
		<tag k="name" v="Nibba" />
		<tag k="natural" v="cape" />
		<tag k="ssr:stedsnr" v="524608" />
	</node>
	<node id="-406826" lat="58.9128027799" lon="5.62237778467">
		<tag k="name" v="Krøste" />
		<tag k="natural" v="cape" />
		<tag k="ssr:stedsnr" v="524605" />
	</node>
	<node id="-406824" lat="58.9551750007" lon="5.51019165999">
		<tag k="name" v="Torvene" />
		<tag k="place" v="locality" />
		<tag k="seamark:type" v="rock" />
		<tag k="ssr:stedsnr" v="513521" />
	</node>
	<node id="-406823" lat="58.9697583312" lon="5.48739444171">
		<tag k="name" v="Halvardsgrunnen" />
		<tag k="natural" v="shoal" />
		<tag k="place" v="locality" />
		<tag k="ssr:stedsnr" v="513322" />
	</node>
	<node id="-406821" lat="58.896536113" lon="5.44308888154">
		<tag k="name" v="Kniven" />
		<tag k="place" v="locality" />
		<tag k="seamark:type" v="rock" />
		<tag k="ssr:stedsnr" v="510659" />
	</node>
	<node id="-406820" lat="58.9127583306" lon="5.58751389132">
		<tag k="name" v="Brunnavika" />
		<tag k="natural" v="bay" />
		<tag k="ssr:stedsnr" v="509738" />
	</node>
	<node id="-406819" lat="58.8934388846" lon="5.58847500114">
		<tag k="name" v="Grytnes" />
		<tag k="natural" v="cape" />
		<tag k="ssr:stedsnr" v="509735" />
	</node>
	<node id="-406816" lat="58.9209555541" lon="5.52362777254">
		<tag k="name" v="Galten" />
		<tag k="place" v="islet" />
		<tag k="ssr:stedsnr" v="509348" />
	</node>
	<node id="-406558" lat="58.9607083323" lon="5.58271388837">
		<tag k="name" v="Fjøreneset" />
		<tag k="natural" v="cape" />
		<tag k="ssr:stedsnr" v="392537" />
	</node>
	<node id="-406490" lat="58.9110240783" lon="5.63164458756">
		<tag k="fixme" v="multiple name tags, choose one and add the other to alt_name" />
		<tag k="name" v="Hogstholmen;Langøya" />
		<tag k="place" v="islet" />
		<tag k="ssr:stedsnr" v="304022" />
	</node>
	<node id="-406810" lat="58.847722225" lon="5.55704722972">
		<tag k="name" v="Veggevika" />
		<tag k="natural" v="bay" />
		<tag k="ssr:stedsnr" v="509071" />
	</node>
	<node id="-406805" lat="58.956183333" lon="5.53385555945">
		<tag k="name" v="Kjerten" />
		<tag k="place" v="islet" />
		<tag k="ssr:stedsnr" v="486071" />
	</node>
	<node id="-406804" lat="58.9291512289" lon="5.58176848188">
		<tag k="name" v="Melingsholmen" />
		<tag k="place" v="islet" />
		<tag k="ssr:stedsnr" v="486053" />
	</node>
	<node id="-406803" lat="58.9480138865" lon="5.45895277573">
		<tag k="name" v="Buøya" />
		<tag k="place" v="island" />
		<tag k="ssr:stedsnr" v="486035" />
	</node>
	<node id="-406801" lat="58.9185489494" lon="5.57357105544">
		<tag k="name" v="Hestholmen" />
		<tag k="place" v="islet" />
		<tag k="ssr:stedsnr" v="485002" />
	</node>
	<node id="-406800" lat="58.9365638886" lon="5.43232500615">
		<tag k="name" v="Revingane" />
		<tag k="place" v="islet" />
		<tag k="ssr:stedsnr" v="484172" />
	</node>
	<node id="-406799" lat="58.9563388883" lon="5.46629722462">
		<tag k="name" v="Litla Sandøyna" />
		<tag k="place" v="islet" />
		<tag k="ssr:stedsnr" v="482173" />
	</node>
	<node id="-406797" lat="58.8788111112" lon="5.48346945069">
		<tag k="name" v="Steinbåane" />
		<tag k="natural" v="shoal" />
		<tag k="place" v="locality" />
		<tag k="ssr:stedsnr" v="464857" />
	</node>
	<node id="-406796" lat="58.8682790273" lon="5.46631939929">
		<tag k="name" v="Risagrunnen" />
		<tag k="natural" v="shoal" />
		<tag k="place" v="locality" />
		<tag k="ssr:stedsnr" v="464851" />
	</node>
	<node id="-406795" lat="58.9288166648" lon="5.57044999785">
		<tag k="name" v="Laksholmbåen" />
		<tag k="place" v="locality" />
		<tag k="seamark:type" v="rock" />
		<tag k="ssr:stedsnr" v="463257" />
	</node>
	<node id="-406794" lat="58.9443012262" lon="5.42241732666">
		<tag k="fixme" v="consider seamark:type=rock or natural=shoal" />
		<tag k="name" v="Faksen" />
		<tag k="place" v="islet" />
		<tag k="ssr:stedsnr" v="453516" />
	</node>
	<node id="-406793" lat="58.9525972231" lon="5.46487221401">
		<tag k="name" v="Knogane" />
		<tag k="place" v="locality" />
		<tag k="seamark:type" v="rock" />
		<tag k="ssr:stedsnr" v="453515" />
	</node>
	<node id="-406792" lat="58.9233500036" lon="5.59958333566">
		<tag k="name" v="Hamrabukta" />
		<tag k="natural" v="bay" />
		<tag k="ssr:stedsnr" v="449746" />
	</node>
	<node id="-406791" lat="58.8478083317" lon="5.55141111111">
		<tag k="fixme" v="consider seamark:type=rock or natural=shoal" />
		<tag k="name" v="Båane" />
		<tag k="place" v="islet" />
		<tag k="ssr:stedsnr" v="449729" />
	</node>
	<node id="-406790" lat="58.9588750041" lon="5.57961111391">
		<tag k="name" v="Skiftesvik" />
		<tag k="natural" v="bay" />
		<tag k="ssr:stedsnr" v="449420" />
	</node>
	<node id="-406788" lat="58.8677500019" lon="5.56085555913">
		<tag k="name" v="Taravika" />
		<tag k="natural" v="bay" />
		<tag k="ssr:stedsnr" v="449379" />
	</node>
	<node id="-406786" lat="58.9220555589" lon="5.50202221629">
		<tag k="name" v="Strålaus" />
		<tag k="place" v="islet" />
		<tag k="ssr:stedsnr" v="449364" />
	</node>
	<node id="-406785" lat="58.922522222" lon="5.52258333172">
		<tag k="name" v="Sandåkeren" />
		<tag k="natural" v="cape" />
		<tag k="ssr:stedsnr" v="449357" />
	</node>
	<node id="-406782" lat="58.9130833359" lon="5.52021388415">
		<tag k="name" v="Kingshola" />
		<tag k="natural" v="bay" />
		<tag k="ssr:stedsnr" v="449338" />
	</node>
	<node id="-406780" lat="58.9411194446" lon="5.62371110681">
		<tag k="fixme" v="consider seamark:type=rock or natural=shoal" />
		<tag k="name" v="Kråkeskjeret" />
		<tag k="place" v="islet" />
		<tag k="ssr:stedsnr" v="449327" />
	</node>
	<node id="-406770" lat="58.9152805552" lon="5.66385833411">
		<tag k="name" v="Grannesholmen" />
		<tag k="place" v="islet" />
		<tag k="ssr:stedsnr" v="449164" />
	</node>
	<node id="-406483" lat="58.941952776" lon="5.48399722547">
		<tag k="name" v="Frøsholmane" />
		<tag k="place" v="islet" />
		<tag k="ssr:stedsnr" v="284682" />
	</node>
	<node id="-406568" lat="58.8803750012" lon="5.46010000391">
		<tag k="name" v="Kjerberg" />
		<tag k="place" v="locality" />
		<tag k="seamark:type" v="rock" />
		<tag k="ssr:stedsnr" v="889846" />
	</node>
	<node id="-406765" lat="58.9392777784" lon="5.44046111646">
		<tag k="fixme" v="consider seamark:type=rock or natural=shoal" />
		<tag k="name" v="Hatten" />
		<tag k="place" v="islet" />
		<tag k="ssr:stedsnr" v="448703" />
	</node>
	<node id="-406764" lat="58.904644446" lon="5.49932777608">
		<tag k="name" v="Nyvlinggrunnen" />
		<tag k="natural" v="shoal" />
		<tag k="place" v="locality" />
		<tag k="ssr:stedsnr" v="446951" />
	</node>
	<node id="-406763" lat="58.8604888913" lon="5.5542333257">
		<tag k="name" v="Vigdelsvika" />
		<tag k="natural" v="bay" />
		<tag k="ssr:stedsnr" v="427000" />
	</node>
	<node id="-406762" lat="58.8840055531" lon="5.43689445317">
		<tag k="name" v="Storetjør" />
		<tag k="place" v="island" />
		<tag k="ssr:stedsnr" v="426957" />
	</node>
	<node id="-406761" lat="58.9322694413" lon="5.5017083265">
		<tag k="fixme" v="consider seamark:type=rock or natural=shoal" />
		<tag k="name" v="Olleskjer" />
		<tag k="place" v="islet" />
		<tag k="ssr:stedsnr" v="426061" />
	</node>
	<node id="-406505" lat="58.9076111132" lon="5.64710278448">
		<tag k="name" v="Rauesteinen" />
		<tag k="natural" v="cape" />
		<tag k="ssr:stedsnr" v="327287" />
	</node>
	<node id="-406759" lat="58.9680888869" lon="5.41416666308">
		<tag k="bay" v="fjord" />
		<tag k="name" v="Håsteinsfjorden" />
		<tag k="natural" v="bay" />
		<tag k="ssr:stedsnr" v="425114" />
	</node>
	<node id="-406758" lat="58.9012166637" lon="5.4436333377">
		<tag k="alt_name" v="Litle Hugjen" />
		<tag k="fixme" v="consider seamark:type=rock or natural=shoal" />
		<tag k="name" v="Huken" />
		<tag k="place" v="islet" />
		<tag k="ssr:stedsnr" v="425016" />
	</node>
	<node id="-406481" lat="58.9046909943" lon="5.44707082462">
		<tag k="fixme" v="consider seamark:type=rock or natural=shoal" />
		<tag k="name" v="Store Persskjeret" />
		<tag k="place" v="islet" />
		<tag k="ssr:stedsnr" v="282798" />
	</node>
	<node id="-406752" lat="58.9563666659" lon="5.57511944443">
		<tag k="name" v="Slettesvik" />
		<tag k="natural" v="bay" />
		<tag k="ssr:stedsnr" v="266464" />
	</node>
	<node id="-406480" lat="58.9179777773" lon="5.6632138867">
		<tag k="name" v="Vesthasen" />
		<tag k="natural" v="cape" />
		<tag k="ssr:stedsnr" v="282699" />
	</node>
	<node id="-406750" lat="58.9142694475" lon="5.5174972139">
		<tag k="name" v="Sørhamn" />
		<tag k="natural" v="bay" />
		<tag k="ssr:stedsnr" v="266359" />
	</node>
	<node id="-406749" lat="58.9301500001" lon="5.63275833026">
		<tag k="name" v="Haughammarbukta" />
		<tag k="natural" v="bay" />
		<tag k="ssr:stedsnr" v="266344" />
	</node>
	<node id="-406499" lat="58.8437166704" lon="5.56148054996">
		<tag k="name" v="Nadaskjeret" />
		<tag k="natural" v="cape" />
		<tag k="ssr:stedsnr" v="327080" />
	</node>
	<node id="-406747" lat="58.9116250035" lon="5.6539027823">
		<tag k="name" v="Sørnesholmen" />
		<tag k="place" v="islet" />
		<tag k="ssr:stedsnr" v="266307" />
	</node>
	<node id="-406479" lat="58.9177861143" lon="5.47390834059">
		<tag k="name" v="Den Søra" />
		<tag k="place" v="locality" />
		<tag k="seamark:type" v="rock" />
		<tag k="ssr:stedsnr" v="271569" />
	</node>
	<node id="-406744" lat="58.8470444448" lon="5.55437499963">
		<tag k="name" v="Kråke" />
		<tag k="place" v="islet" />
		<tag k="ssr:stedsnr" v="266082" />
	</node>
	<node id="-406743" lat="58.8466194436" lon="5.55964723034">
		<tag k="name" v="Veggeviksholmen" />
		<tag k="place" v="islet" />
		<tag k="ssr:stedsnr" v="266081" />
	</node>
	<node id="-406742" lat="58.9177777786" lon="5.55194444383">
		<tag k="name" v="Flatholmsleia" />
		<tag k="place" v="locality" />
		<tag k="ssr:stedsnr" v="263930" />
	</node>
	<node id="-406740" lat="58.9006138848" lon="5.57733056214">
		<tag k="fixme" v="consider seamark:type=rock or natural=shoal" />
		<tag k="name" v="Lamsteinane" />
		<tag k="place" v="islet" />
		<tag k="ssr:stedsnr" v="263816" />
	</node>
	<node id="-406739" lat="58.8950888919" lon="5.56151667471">
		<tag k="name" v="Kolnesraset" />
		<tag k="natural" v="shoal" />
		<tag k="place" v="locality" />
		<tag k="ssr:stedsnr" v="263809" />
	</node>
	<node id="-406737" lat="58.8814361155" lon="5.47191667188">
		<tag k="alt_name" v="Faksen, in" />
		<tag k="fixme" v="consider seamark:type=rock or natural=shoal" />
		<tag k="name" v="Indre Faksen" />
		<tag k="place" v="islet" />
		<tag k="ssr:stedsnr" v="244956" />
	</node>
	<node id="-406736" lat="58.9375222264" lon="5.43375556367">
		<tag k="alt_name" v="Revingen, l" />
		<tag k="name" v="Litle Revingen" />
		<tag k="place" v="islet" />
		<tag k="ssr:stedsnr" v="244048" />
	</node>
	<node id="-406734" lat="58.8868416624" lon="5.42599166335">
		<tag k="name" v="Tjør" />
		<tag k="place" v="island" />
		<tag k="ssr:stedsnr" v="243967" />
	</node>
	<node id="-406733" lat="58.9236277806" lon="5.59613333153">
		<tag k="name" v="Hamaren" />
		<tag k="natural" v="cape" />
		<tag k="ssr:stedsnr" v="243220" />
	</node>
	<node id="-406732" lat="58.9588253317" lon="5.60756564572">
		<tag k="alt_name" v="Presteskjer;Prestaskjer" />
		<tag k="fixme" v="consider seamark:type=rock or natural=shoal" />
		<tag k="name" v="Prestaskjeret" />
		<tag k="place" v="islet" />
		<tag k="ssr:stedsnr" v="243076" />
	</node>
	<node id="-406731" lat="58.9497611141" lon="5.43519999576">
		<tag k="name" v="Håstein" />
		<tag k="place" v="island" />
		<tag k="ssr:stedsnr" v="243074" />
	</node>
	<node id="-406730" lat="58.9599472251" lon="5.47610832887">
		<tag k="name" v="Hoggene" />
		<tag k="place" v="islet" />
		<tag k="ssr:stedsnr" v="243059" />
	</node>
	<node id="-406496" lat="58.9151604801" lon="5.55989833994">
		<tag k="name" v="Gyrdingane" />
		<tag k="place" v="islet" />
		<tag k="ssr:stedsnr" v="324928" />
	</node>
	<node id="-406727" lat="58.9199249994" lon="5.5560194529">
		<tag k="name" v="Flatholmen" />
		<tag k="place" v="islet" />
		<tag k="ssr:stedsnr" v="243005" />
	</node>
	<node id="-406726" lat="58.9239780816" lon="5.56740366641">
		<tag k="name" v="Staholmen" />
		<tag k="place" v="islet" />
		<tag k="ssr:stedsnr" v="243001" />
	</node>
	<node id="-406725" lat="58.9277138849" lon="5.49186111547">
		<tag k="name" v="Strålausgrunnen" />
		<tag k="natural" v="shoal" />
		<tag k="place" v="locality" />
		<tag k="ssr:stedsnr" v="240681" />
	</node>
	<node id="-406724" lat="58.9297888896" lon="5.43625832702">
		<tag k="name" v="Åbreidskallen" />
		<tag k="natural" v="shoal" />
		<tag k="place" v="locality" />
		<tag k="ssr:stedsnr" v="240705" />
	</node>
	<node id="-406722" lat="58.8335805534" lon="5.55272500305">
		<tag k="name" v="Bårøyna" />
		<tag k="natural" v="cape" />
		<tag k="ssr:stedsnr" v="221752" />
	</node>
	<node id="-406721" lat="58.9269333311" lon="5.60396111609">
		<tag k="name" v="Risagrunnen" />
		<tag k="natural" v="shoal" />
		<tag k="place" v="locality" />
		<tag k="ssr:stedsnr" v="221227" />
	</node>
	<node id="-406719" lat="58.9591388902" lon="5.457588885">
		<tag k="name" v="Smellane" />
		<tag k="place" v="locality" />
		<tag k="seamark:type" v="rock" />
		<tag k="ssr:stedsnr" v="210502" />
	</node>
	<node id="-406718" lat="58.9459361098" lon="5.5680000043">
		<tag k="fixme" v="consider seamark:type=rock or natural=shoal" />
		<tag k="name" v="Kuppmannsskjeret" />
		<tag k="place" v="islet" />
		<tag k="ssr:stedsnr" v="210494" />
	</node>
	<node id="-406717" lat="58.9450305511" lon="5.56774443835">
		<tag k="name" v="Skarvasteinen" />
		<tag k="place" v="locality" />
		<tag k="seamark:type" v="rock" />
		<tag k="ssr:stedsnr" v="210491" />
	</node>
	<node id="-406716" lat="58.9777222252" lon="5.44697499883">
		<tag k="name" v="Veggen" />
		<tag k="place" v="locality" />
		<tag k="seamark:type" v="rock" />
		<tag k="ssr:stedsnr" v="210316" />
	</node>
	<node id="-406714" lat="58.9115527807" lon="5.58017222557">
		<tag k="name" v="Hagen" />
		<tag k="natural" v="cape" />
		<tag k="ssr:stedsnr" v="206774" />
	</node>
	<node id="-406713" lat="58.8645944476" lon="5.5578499911">
		<tag k="name" v="Nudavika" />
		<tag k="natural" v="bay" />
		<tag k="ssr:stedsnr" v="206385" />
	</node>
	<node id="-406711" lat="58.9186027756" lon="5.50876111167">
		<tag k="name" v="Kalaodden" />
		<tag k="natural" v="cape" />
		<tag k="ssr:stedsnr" v="206362" />
	</node>
	<node id="-406710" lat="58.9246694458" lon="5.50637499933">
		<tag k="alt_name" v="Rottsodden" />
		<tag k="name" v="Rottnesodden" />
		<tag k="natural" v="cape" />
		<tag k="ssr:stedsnr" v="206359" />
	</node>
	<node id="-406709" lat="58.9471499985" lon="5.565127784">
		<tag k="fixme" v="consider seamark:type=rock or natural=shoal" />
		<tag k="name" v="Koppmannskjeret" />
		<tag k="place" v="islet" />
		<tag k="ssr:stedsnr" v="206344" />
	</node>
	<node id="-406708" lat="58.9103666695" lon="5.50971389715">
		<tag k="name" v="Stora Sperrevika" />
		<tag k="natural" v="bay" />
		<tag k="ssr:stedsnr" v="206335" />
	</node>
	<node id="-406707" lat="58.9097833362" lon="5.50740555011">
		<tag k="name" v="Litla Sperrevika" />
		<tag k="natural" v="bay" />
		<tag k="ssr:stedsnr" v="206332" />
	</node>
	<node id="-406706" lat="58.9104999973" lon="5.50076666451">
		<tag k="name" v="Konteskjeret" />
		<tag k="place" v="islet" />
		<tag k="ssr:stedsnr" v="206330" />
	</node>
	<node id="-406696" lat="58.8791361101" lon="5.42428888212">
		<tag k="alt_name" v="Spretten" />
		<tag k="fixme" v="consider seamark:type=rock or natural=shoal" />
		<tag k="name" v="Sprette" />
		<tag k="place" v="islet" />
		<tag k="ssr:stedsnr" v="183953" />
	</node>
	<node id="-406589" lat="58.8790277755" lon="5.43428333679">
		<tag k="alt_name" v="Hengsøynå" />
		<tag k="name" v="Hengsøyna" />
		<tag k="old_name" v="Hengsøya" />
		<tag k="place" v="islet" />
		<tag k="ssr:stedsnr" v="1952" />
	</node>
	<node id="-406692" lat="58.8915250017" lon="5.44815555802">
		<tag k="name" v="Nordtjør" />
		<tag k="place" v="islet" />
		<tag k="ssr:stedsnr" v="182956" />
	</node>
	<node id="-406690" lat="58.9140944446" lon="5.64897778234">
		<tag k="name" v="Sømsøy" />
		<tag k="place" v="islet" />
		<tag k="ssr:stedsnr" v="182017" />
	</node>
	<node id="-406688" lat="58.9181602176" lon="5.491717976">
		<tag k="alt_name" v="Brønnesskjeret" />
		<tag k="fixme" v="consider seamark:type=rock or natural=shoal" />
		<tag k="name" v="Brønnesskjera" />
		<tag k="old_name" v="Brønneskjera" />
		<tag k="place" v="islet" />
		<tag k="ssr:stedsnr" v="182001" />
	</node>
	<node id="-406687" lat="58.9436472265" lon="5.48215556025">
		<tag k="name" v="Nordre Frøsholmane" />
		<tag k="place" v="islet" />
		<tag k="ssr:stedsnr" v="180188" />
	</node>
	<node id="-406686" lat="58.925597226" lon="5.42810277488">
		<tag k="name" v="Reiparskallen" />
		<tag k="place" v="locality" />
		<tag k="seamark:type" v="rock" />
		<tag k="ssr:stedsnr" v="179669" />
	</node>
	<node id="-406683" lat="58.8839777813" lon="5.46066666099">
		<tag k="name" v="Mattisen" />
		<tag k="place" v="locality" />
		<tag k="seamark:type" v="rock" />
		<tag k="ssr:stedsnr" v="160827" />
	</node>
	<node id="-406681" lat="58.8780555557" lon="5.58016667501">
		<tag k="name" v="Regetorva" />
		<tag k="natural" v="shoal" />
		<tag k="place" v="locality" />
		<tag k="ssr:stedsnr" v="160758" />
	</node>
	<node id="-406680" lat="58.9391583346" lon="5.48961943979">
		<tag k="name" v="Kumlen" />
		<tag k="place" v="islet" />
		<tag k="ssr:stedsnr" v="149503" />
	</node>
	<node id="-406679" lat="58.9433388849" lon="5.4550361107">
		<tag k="name" v="Smørboen" />
		<tag k="place" v="locality" />
		<tag k="seamark:type" v="rock" />
		<tag k="ssr:stedsnr" v="149490" />
	</node>
	<node id="-406677" lat="58.9222250034" lon="5.59687778237">
		<tag k="name" v="Vestre-Hamrabukta" />
		<tag k="natural" v="bay" />
		<tag k="ssr:stedsnr" v="145755" />
	</node>
	<node id="-406675" lat="58.9585222219" lon="5.57513332968">
		<tag k="fixme" v="consider seamark:type=rock or natural=shoal" />
		<tag k="name" v="Svartaskjer" />
		<tag k="place" v="islet" />
		<tag k="ssr:stedsnr" v="145444" />
	</node>
	<node id="-406672" lat="58.9199250035" lon="5.50483333393">
		<tag k="name" v="Lamholmen" />
		<tag k="place" v="islet" />
		<tag k="ssr:stedsnr" v="145361" />
	</node>
	<node id="-406671" lat="58.9234027762" lon="5.51114722486">
		<tag k="name" v="Nordvik" />
		<tag k="natural" v="bay" />
		<tag k="ssr:stedsnr" v="145357" />
	</node>
	<node id="-406670" lat="58.922372225" lon="5.51727500105">
		<tag k="name" v="Humlaneset" />
		<tag k="natural" v="cape" />
		<tag k="ssr:stedsnr" v="145356" />
	</node>
	<node id="-406669" lat="58.9125138861" lon="5.50058888763">
		<tag k="name" v="Moldvika" />
		<tag k="natural" v="bay" />
		<tag k="ssr:stedsnr" v="145328" />
	</node>
	<node id="-406662" lat="58.9049260639" lon="5.56460047542">
		<tag k="fixme" v="consider seamark:type=rock or natural=shoal" />
		<tag k="name" v="Gangvarskjeret" />
		<tag k="place" v="islet" />
		<tag k="ssr:stedsnr" v="142955" />
	</node>
	<node id="-406661" lat="58.8855555549" lon="5.55862500185">
		<tag k="name" v="Djupafluna" />
		<tag k="place" v="locality" />
		<tag k="seamark:type" v="rock" />
		<tag k="ssr:stedsnr" v="141795" />
	</node>
	<node id="-406659" lat="58.8882722256" lon="5.54871944442">
		<tag k="fixme" v="consider seamark:type=rock or natural=shoal" />
		<tag k="name" v="Svartaskjeret" />
		<tag k="old_name" v="Svartaskjer" />
		<tag k="place" v="islet" />
		<tag k="ssr:stedsnr" v="122961" />
	</node>
	<node id="-406658" lat="58.887138892" lon="5.47968888724">
		<tag k="alt_name" v="Nordskót" />
		<tag k="fixme" v="consider seamark:type=rock or natural=shoal" />
		<tag k="name" v="Nordskot" />
		<tag k="place" v="islet" />
		<tag k="ssr:stedsnr" v="122955" />
	</node>
	<node id="-406654" lat="58.9618361143" lon="5.48366110272">
		<tag k="fixme" v="consider seamark:type=rock or natural=shoal" />
		<tag k="name" v="Goaskjera" />
		<tag k="place" v="islet" />
		<tag k="ssr:stedsnr" v="122074" />
	</node>
	<node id="-406653" lat="58.9462333326" lon="5.60514165887">
		<tag k="name" v="Melsviga" />
		<tag k="natural" v="bay" />
		<tag k="ssr:stedsnr" v="122037" />
	</node>
	<node id="-406651" lat="58.9040861135" lon="5.6230527837">
		<tag k="alt_name" v="Strandsnes" />
		<tag k="name" v="Strandnes" />
		<tag k="natural" v="cape" />
		<tag k="ssr:stedsnr" v="122025" />
	</node>
	<node id="-406648" lat="58.9158853406" lon="5.56135372098">
		<tag k="name" v="Nordre Gyrdingen" />
		<tag k="place" v="islet" />
		<tag k="ssr:stedsnr" v="121007" />
	</node>
	<node id="-406647" lat="58.9214083355" lon="5.50758334034">
		<tag k="name" v="Rott" />
		<tag k="place" v="island" />
		<tag k="ssr:stedsnr" v="121002" />
	</node>
	<node id="-406646" lat="58.9265344793" lon="5.50300416653">
		<tag k="name" v="Rottnesflu" />
		<tag k="place" v="locality" />
		<tag k="seamark:type" v="rock" />
		<tag k="ssr:stedsnr" v="119705" />
	</node>
	<node id="-406645" lat="58.9235861131" lon="5.44446110641">
		<tag k="name" v="Søre Hansagrunnen" />
		<tag k="natural" v="shoal" />
		<tag k="place" v="locality" />
		<tag k="ssr:stedsnr" v="118644" />
	</node>
	<node id="-406643" lat="58.8829111128" lon="5.48815556297">
		<tag k="name" v="Flatbåen" />
		<tag k="place" v="locality" />
		<tag k="seamark:type" v="rock" />
		<tag k="ssr:stedsnr" v="100808" />
	</node>
	<node id="-406642" lat="58.8664388877" lon="5.5536194459">
		<tag k="name" v="Nesodden" />
		<tag k="natural" v="cape" />
		<tag k="ssr:stedsnr" v="100772" />
	</node>
	<node id="-406492" lat="58.9569499992" lon="5.50439165825">
		<tag k="name" v="Fladholmen" />
		<tag k="place" v="islet" />
		<tag k="ssr:stedsnr" v="304076" />
	</node>
	<node id="-406640" lat="58.9687583331" lon="5.53057221573">
		<tag k="name" v="Sakrishausen" />
		<tag k="place" v="locality" />
		<tag k="seamark:type" v="rock" />
		<tag k="ssr:stedsnr" v="89522" />
	</node>
	<node id="-406639" lat="58.9626055576" lon="5.56947500696">
		<tag k="name" v="Einarskia" />
		<tag k="place" v="locality" />
		<tag k="seamark:type" v="rock" />
		<tag k="ssr:stedsnr" v="89520" />
	</node>
	<node id="-406638" lat="58.9411499997" lon="5.50673888528">
		<tag k="name" v="Frøsboen" />
		<tag k="place" v="locality" />
		<tag k="seamark:type" v="rock" />
		<tag k="ssr:stedsnr" v="89514" />
	</node>
	<node id="-406637" lat="58.9675611085" lon="5.40450832669">
		<tag k="name" v="Snørsgrunnane" />
		<tag k="natural" v="shoal" />
		<tag k="place" v="locality" />
		<tag k="ssr:stedsnr" v="89317" />
	</node>
	<node id="-406636" lat="58.9666888854" lon="5.47073611486">
		<tag k="name" v="Den dumme" />
		<tag k="place" v="locality" />
		<tag k="seamark:type" v="rock" />
		<tag k="ssr:stedsnr" v="89316" />
	</node>
	<node id="-406634" lat="58.9267472237" lon="5.6359194476">
		<tag k="name" v="Tedneholmen" />
		<tag k="place" v="islet" />
		<tag k="ssr:stedsnr" v="85271" />
	</node>
	<node id="-406629" lat="58.893761108" lon="5.58700833593">
		<tag k="fixme" v="consider seamark:type=rock or natural=shoal" />
		<tag k="name" v="Klopeskjer" />
		<tag k="place" v="islet" />
		<tag k="ssr:stedsnr" v="84771" />
	</node>
	<node id="-406626" lat="58.8420555526" lon="5.56178610655">
		<tag k="name" v="Skardasanden" />
		<tag k="natural" v="beach" />
		<tag k="place" v="locality" />
		<tag k="ssr:stedsnr" v="84406" />
	</node>
	<node id="-406624" lat="58.8614055539" lon="5.55544444322">
		<tag k="name" v="Måkeskjer" />
		<tag k="place" v="islet" />
		<tag k="ssr:stedsnr" v="84398" />
	</node>
	<node id="-406620" lat="58.9583611152" lon="5.57416665954">
		<tag k="alt_name" v="Frøsholmane, nordre;store Fjørnesholmen" />
		<tag k="name" v="Nordre Frøsholmane" />
		<tag k="place" v="islet" />
		<tag k="ssr:stedsnr" v="62042" />
	</node>
	<node id="-406617" lat="58.8940249956" lon="5.58896388842">
		<tag k="name" v="Stranden" />
		<tag k="natural" v="cape" />
		<tag k="old_name" v="Stranda" />
		<tag k="ssr:stedsnr" v="61951" />
	</node>
	<node id="-406616" lat="58.8979388874" lon="5.57213889514">
		<tag k="alt_name" v="Littholmen" />
		<tag k="name" v="Søre Litholmen" />
		<tag k="old_name" v="Litleholmen, s" />
		<tag k="place" v="islet" />
		<tag k="ssr:stedsnr" v="61020" />
	</node>
	<node id="-406614" lat="58.9088527798" lon="5.44540277464">
		<tag k="fixme" v="consider seamark:type=rock or natural=shoal" />
		<tag k="name" v="Skata" />
		<tag k="place" v="islet" />
		<tag k="ssr:stedsnr" v="41665" />
	</node>
	<node id="-406613" lat="58.8513194458" lon="5.45930277182">
		<tag k="name" v="Hågrunnen" />
		<tag k="natural" v="shoal" />
		<tag k="place" v="locality" />
		<tag k="ssr:stedsnr" v="39813" />
	</node>
	<node id="-406612" lat="58.9022861078" lon="5.45045555737">
		<tag k="fixme" v="consider seamark:type=rock or natural=shoal" />
		<tag k="name" v="Litle Persskjeret" />
		<tag k="place" v="islet" />
		<tag k="ssr:stedsnr" v="39790" />
	</node>
	<node id="-406611" lat="58.9080000005" lon="5.57586944561">
		<tag k="name" v="Tangen" />
		<tag k="natural" v="cape" />
		<tag k="ssr:stedsnr" v="39588" />
	</node>
	<node id="-406610" lat="58.8874472236" lon="5.46328333622">
		<tag k="name" v="Borgaren" />
		<tag k="place" v="locality" />
		<tag k="seamark:type" v="rock" />
		<tag k="ssr:stedsnr" v="39208" />
	</node>
	<node id="-406609" lat="58.8853972246" lon="5.48206944709">
		<tag k="name" v="Bratteskót" />
		<tag k="place" v="islet" />
		<tag k="ssr:stedsnr" v="38045" />
	</node>
	<node id="-406608" lat="58.8916426248" lon="5.58878571093">
		<tag k="fixme" v="consider seamark:type=rock or natural=shoal" />
		<tag k="name" v="Seiaskjer" />
		<tag k="place" v="islet" />
		<tag k="ssr:stedsnr" v="24764" />
	</node>
	<node id="-406607" lat="58.9591888911" lon="5.57626667443">
		<tag k="name" v="Hønesundholmen" />
		<tag k="place" v="islet" />
		<tag k="ssr:stedsnr" v="24446" />
	</node>
	<node id="-406605" lat="58.8705527743" lon="5.56088055449">
		<tag k="fixme" v="consider seamark:type=rock or natural=shoal" />
		<tag k="name" v="Kubbå" />
		<tag k="place" v="islet" />
		<tag k="ssr:stedsnr" v="24389" />
	</node>
	<node id="-406601" lat="58.9174944459" lon="5.50828333182">
		<tag k="name" v="Kalakskjeret" />
		<tag k="place" v="islet" />
		<tag k="ssr:stedsnr" v="24362" />
	</node>
	<node id="-406600" lat="58.92039167" lon="5.51227223044">
		<tag k="name" v="Heimra Øynå" />
		<tag k="place" v="island" />
		<tag k="ssr:stedsnr" v="24360" />
	</node>
	<node id="-406599" lat="58.9314083304" lon="5.57906110389">
		<tag k="name" v="Melingsundet" />
		<tag k="natural" v="strait" />
		<tag k="ssr:stedsnr" v="24347" />
	</node>
	<node id="-406598" lat="58.9099361141" lon="5.51401110869">
		<tag k="name" v="Dalhamnskjeret" />
		<tag k="place" v="islet" />
		<tag k="ssr:stedsnr" v="24340" />
	</node>
	<node id="-406597" lat="58.9337619234" lon="5.62004177406">
		<tag k="name" v="Hagavågen" />
		<tag k="natural" v="bay" />
		<tag k="ssr:stedsnr" v="24331" />
	</node>
	<node id="-406590" lat="58.8865611142" lon="5.58882222872">
		<tag k="name" v="Solavika" />
		<tag k="natural" v="bay" />
		<tag k="ssr:stedsnr" v="1953" />
	</node>
	<node id="-407101" lat="58.9179102251" lon="5.49023900696">
		<tag k="fixme" v="consider seamark:type=rock or natural=shoal" />
		<tag k="name" v="Litla Brønnesskjeret" />
		<tag k="place" v="islet" />
		<tag k="ssr:stedsnr" v="972948" />
	</node>
	<node id="-407100" lat="58.9478591803" lon="5.43400832906">
		<tag k="name" v="Håsteinshalsen" />
		<tag k="natural" v="cape" />
		<tag k="ssr:stedsnr" v="972951" />
	</node>
	<node id="-406587" lat="58.9251805581" lon="5.59090554966">
		<tag k="name" v="Risavika" />
		<tag k="natural" v="bay" />
		<tag k="old_name" v="Risaviga" />
		<tag k="ssr:stedsnr" v="1084" />
	</node>
	<node id="-406585" lat="58.9380611074" lon="5.48487499645">
		<tag k="alt_name" v="Frøsholmane, s" />
		<tag k="name" v="Søre Frøsholmane" />
		<tag k="place" v="islet" />
		<tag k="ssr:stedsnr" v="1055" />
	</node>
	<node id="-406584" lat="58.9475666675" lon="5.53014999248">
		<tag k="name" v="Oksafoden" />
		<tag k="natural" v="shoal" />
		<tag k="place" v="locality" />
		<tag k="ssr:stedsnr" v="1054" />
	</node>
	<node id="-406582" lat="58.9084305521" lon="5.57071667375">
		<tag k="fixme" v="multiple name tags, choose one and add the other to alt_name" />
		<tag k="name" v="Jonsholmen;Litholmen" />
		<tag k="old_name" v="Litleholmen, nordre" />
		<tag k="place" v="islet" />
		<tag k="ssr:stedsnr" v="22" />
	</node>
	<node id="-406581" lat="58.9165972205" lon="5.64441389413">
		<tag k="name" v="Prestøy" />
		<tag k="place" v="islet" />
		<tag k="ssr:stedsnr" v="15" />
	</node>
	<node id="-407092" lat="58.9410805521" lon="5.62321111581">
		<tag k="name" v="Kråga" />
		<tag k="natural" v="cape" />
		<tag k="ssr:stedsnr" v="951742" />
	</node>
	<node id="-407091" lat="58.8911111087" lon="5.43833333981">
		<tag k="name" v="Somabåen" />
		<tag k="place" v="locality" />
		<tag k="seamark:type" v="rock" />
		<tag k="ssr:stedsnr" v="949795" />
	</node>
	<node id="-407090" lat="58.8737916643" lon="5.55425833197">
		<tag k="name" v="Ølberggrunnen" />
		<tag k="natural" v="shoal" />
		<tag k="place" v="locality" />
		<tag k="ssr:stedsnr" v="949786" />
	</node>
	<node id="-407089" lat="58.9386416643" lon="5.62720555371">
		<tag k="name" v="Haganibba" />
		<tag k="natural" v="cape" />
		<tag k="ssr:stedsnr" v="949648" />
	</node>
	<node id="-407088" lat="58.9064861152" lon="5.63110833278">
		<tag k="name" v="Sømsgrunnen" />
		<tag k="natural" v="shoal" />
		<tag k="place" v="locality" />
		<tag k="ssr:stedsnr" v="949608" />
	</node>
	<node id="-406536" lat="58.8839055548" lon="5.47612777336">
		<tag k="alt_name" v="Bjørnskót" />
		<tag k="fixme" v="consider seamark:type=rock or natural=shoal" />
		<tag k="name" v="Bjørnskot" />
		<tag k="place" v="islet" />
		<tag k="ssr:stedsnr" v="365960" />
	</node>
	<node id="-407086" lat="58.8839000015" lon="5.54708888437">
		<tag k="name" v="Hausen" />
		<tag k="natural" v="shoal" />
		<tag k="place" v="locality" />
		<tag k="ssr:stedsnr" v="949787" />
	</node>
	<node id="-407085" lat="58.9057750042" lon="5.46201666538">
		<tag k="name" v="Ribben" />
		<tag k="natural" v="shoal" />
		<tag k="place" v="locality" />
		<tag k="ssr:stedsnr" v="938521" />
	</node>
	<node id="-407084" lat="58.8954499982" lon="5.46237777276">
		<tag k="name" v="Langeflu" />
		<tag k="natural" v="shoal" />
		<tag k="place" v="locality" />
		<tag k="ssr:stedsnr" v="938519" />
	</node>
	<node id="-407083" lat="58.9090805585" lon="5.51745277286">
		<tag k="name" v="Rekkusen" />
		<tag k="place" v="locality" />
		<tag k="seamark:type" v="rock" />
		<tag k="ssr:stedsnr" v="938515" />
	</node>
	<node id="-407082" lat="58.96462222" lon="5.46746666941">
		<tag k="name" v="Den kvide" />
		<tag k="place" v="locality" />
		<tag k="seamark:type" v="rock" />
		<tag k="ssr:stedsnr" v="938506" />
	</node>
	<node id="-407081" lat="58.9564472251" lon="5.52398055819">
		<tag k="name" v="Jekta" />
		<tag k="place" v="locality" />
		<tag k="seamark:type" v="rock" />
		<tag k="ssr:stedsnr" v="938501" />
	</node>
	<node id="-407080" lat="58.9588472177" lon="5.58028888294">
		<tag k="name" v="Skiftesvig" />
		<tag k="natural" v="bay" />
		<tag k="ssr:stedsnr" v="938496" />
	</node>
	<node id="-406566" lat="58.8306222244" lon="5.35294167257">
		<tag k="name" v="Karlsmedgrunnen" />
		<tag k="natural" v="shoal" />
		<tag k="place" v="locality" />
		<tag k="ssr:stedsnr" v="403840" />
	</node>
	<node id="-406565" lat="58.910791667" lon="5.5757833294">
		<tag k="name" v="Skata" />
		<tag k="place" v="locality" />
		<tag k="seamark:type" v="rock" />
		<tag k="ssr:stedsnr" v="403823" />
	</node>
	<node id="-406564" lat="58.9107583311" lon="5.65437222848">
		<tag k="name" v="Vipekastet" />
		<tag k="natural" v="cape" />
		<tag k="ssr:stedsnr" v="403712" />
	</node>
	<node id="-406563" lat="58.9157972228" lon="5.65042777345">
		<tag k="name" v="Sømsøya" />
		<tag k="place" v="islet" />
		<tag k="ssr:stedsnr" v="403303" />
	</node>
	<node id="-406561" lat="58.8927138886" lon="5.49391667356">
		<tag k="name" v="Årsfluene" />
		<tag k="place" v="locality" />
		<tag k="seamark:type" v="rock" />
		<tag k="ssr:stedsnr" v="392571" />
	</node>
	<node id="-407072" lat="58.9164611148" lon="5.50053888928">
		<tag k="name" v="Skarvura" />
		<tag k="natural" v="bay" />
		<tag k="ssr:stedsnr" v="934320" />
	</node>
	<node id="-406559" lat="58.9443472241" lon="5.44435833436">
		<tag k="fixme" v="consider seamark:type=rock or natural=shoal" />
		<tag k="name" v="Odraskjeret" />
		<tag k="place" v="islet" />
		<tag k="ssr:stedsnr" v="392553" />
	</node>
	<node id="-407070" lat="58.906447218" lon="5.61798610487">
		<tag k="name" v="Strandsnesvågen" />
		<tag k="natural" v="bay" />
		<tag k="ssr:stedsnr" v="934268" />
	</node>
	<node id="-406557" lat="58.9739777787" lon="5.49088056079">
		<tag k="name" v="Hjelmen" />
		<tag k="place" v="locality" />
		<tag k="seamark:type" v="rock" />
		<tag k="ssr:stedsnr" v="392319" />
	</node>
	<node id="-406556" lat="58.9158972251" lon="5.55929443897">
		<tag k="name" v="Svartaskjer" />
		<tag k="place" v="islet" />
		<tag k="ssr:stedsnr" v="387776" />
	</node>
	<node id="-406555" lat="58.887541663" lon="5.60133333785">
		<tag k="name" v="Solasanden" />
		<tag k="natural" v="beach" />
		<tag k="place" v="locality" />
		<tag k="ssr:stedsnr" v="387752" />
	</node>
	<node id="-406553" lat="58.9527138857" lon="5.57420554953">
		<tag k="name" v="Vestø" />
		<tag k="natural" v="bay" />
		<tag k="ssr:stedsnr" v="387502" />
	</node>
	<node id="-406551" lat="58.8710250037" lon="5.56393611483">
		<tag k="fixme" v="consider seamark:type=rock or natural=shoal" />
		<tag k="name" v="Kråke" />
		<tag k="place" v="islet" />
		<tag k="ssr:stedsnr" v="387430" />
	</node>
	<node id="-406532" lat="58.9272250025" lon="5.63029721434">
		<tag k="name" v="Hagøyna" />
		<tag k="place" v="islet" />
		<tag k="ssr:stedsnr" v="365064" />
	</node>
	<node id="-406546" lat="58.9379722238" lon="5.56401666632">
		<tag k="fixme" v="consider seamark:type=rock or natural=shoal" />
		<tag k="name" v="Risbitskjer" />
		<tag k="place" v="islet" />
		<tag k="ssr:stedsnr" v="387398" />
	</node>
	<node id="-407057" lat="58.9360222216" lon="5.43286110591">
		<tag k="alt_name" v="Revingen, store" />
		<tag k="name" v="Store Revingen" />
		<tag k="place" v="islet" />
		<tag k="ssr:stedsnr" v="911056" />
	</node>
	<node id="-407056" lat="58.9418027794" lon="5.56696388797">
		<tag k="name" v="Ørnabukta" />
		<tag k="natural" v="bay" />
		<tag k="old_name" v="Ørnebukta" />
		<tag k="ssr:stedsnr" v="911048" />
	</node>
	<node id="-407071" lat="58.9138611088" lon="5.66064721985">
		<tag k="name" v="Ytraberg" />
		<tag k="natural" v="cape" />
		<tag k="ssr:stedsnr" v="934272" />
	</node>
	<node id="-407053" lat="58.9456166632" lon="5.43984444768">
		<tag k="fixme" v="consider seamark:type=rock or natural=shoal" />
		<tag k="name" v="Goaskjeret" />
		<tag k="place" v="islet" />
		<tag k="ssr:stedsnr" v="878562" />
	</node>
	<node id="-407052" lat="58.9573638876" lon="5.57521667086">
		<tag k="fixme" v="consider seamark:type=rock or natural=shoal" />
		<tag k="name" v="Svartaskjeret" />
		<tag k="place" v="islet" />
		<tag k="ssr:stedsnr" v="878554" />
	</node>
	<node id="-407051" lat="58.9378611154" lon="5.56407500273">
		<tag k="fixme" v="consider seamark:type=rock or natural=shoal" />
		<tag k="name" v="Risbidskjeret" />
		<tag k="place" v="islet" />
		<tag k="ssr:stedsnr" v="878545" />
	</node>
	<node id="-407050" lat="58.9713277751" lon="5.476005549">
		<tag k="name" v="Litla Hugaflua" />
		<tag k="place" v="locality" />
		<tag k="seamark:type" v="rock" />
		<tag k="ssr:stedsnr" v="878322" />
	</node>
	<node id="-407049" lat="58.9118972262" lon="5.58460832939">
		<tag k="name" v="Hyljodden" />
		<tag k="natural" v="cape" />
		<tag k="ssr:stedsnr" v="873754" />
	</node>
	<node id="-407048" lat="58.9218055563" lon="5.57216389178">
		<tag k="name" v="Flemmingen" />
		<tag k="place" v="islet" />
		<tag k="ssr:stedsnr" v="873751" />
	</node>
	<node id="-406534" lat="58.8705805586" lon="5.48244165833">
		<tag k="name" v="Gårskot" />
		<tag k="place" v="islet" />
		<tag k="ssr:stedsnr" v="365956" />
	</node>
	<node id="-407044" lat="58.9589916702" lon="5.59636667337">
		<tag k="name" v="Krabbavik" />
		<tag k="natural" v="bay" />
		<tag k="ssr:stedsnr" v="873464" />
	</node>
	<node id="-407043" lat="58.8881500033" lon="5.54899999972">
		<tag k="fixme" v="consider seamark:type=rock or natural=shoal" />
		<tag k="name" v="Bollerane" />
		<tag k="place" v="islet" />
		<tag k="ssr:stedsnr" v="873413" />
	</node>
	<node id="-407042" lat="58.8751694451" lon="5.57816666989">
		<tag k="name" v="Trælastranda" />
		<tag k="natural" v="bay" />
		<tag k="ssr:stedsnr" v="873409" />
	</node>
</osm>
