<?xml version="1.0" encoding="UTF-8"?>
<osm version="0.6" generator="osmapis">
	<node lat="58.89579999917795" lon="5.623180554992339" id="-9">
		<tag k="name" v="Roleghetsmyra" />
		<tag k="place" v="locality" />
		<tag k="ssr:stedsnr" v="24229" />
	</node>
	<node lat="58.91948611167751" lon="5.601055549478998" id="-67">
		<tag k="name" v="Kvernemyr" />
		<tag k="natural" v="wetland" />
		<tag k="ssr:stedsnr" v="267771" />
	</node>
	<node lat="58.85397777819034" lon="5.612911111674214" id="-81">
		<tag k="name" v="Oddamyra" />
		<tag k="natural" v="wetland" />
		<tag k="ssr:stedsnr" v="449275" />
	</node>
	<node lat="58.92668333689435" lon="5.6809833267897725" id="-115">
		<tag k="name" v="Hundasteinen" />
		<tag k="natural" v="stone" />
		<tag k="ssr:stedsnr" v="327168" />
	</node>
	<node lat="58.90573333523877" lon="5.67488333433624" id="-116">
		<tag k="name" v="Grytrøysa" />
		<tag k="natural" v="scree" />
		<tag k="ssr:stedsnr" v="327176" />
	</node>
	<node lat="58.83169444450315" lon="5.556277775453187" id="-135">
		<tag k="name" v="Svensrudla" />
		<tag k="natural" v="stone" />
		<tag k="ssr:stedsnr" v="387417" />
	</node>
	<node lat="58.9454833297026" lon="5.589997224359875" id="-138">
		<tag k="name" v="Storemyr" />
		<tag k="natural" v="wetland" />
		<tag k="ssr:stedsnr" v="387394" />
	</node>
	<node lat="58.86781111295279" lon="5.556716674583265" id="-164">
		<tag k="name" v="Sloane" />
		<tag k="natural" v="stone" />
		<tag k="ssr:stedsnr" v="449392" />
	</node>
	<node lat="58.87638332935029" lon="5.659833327402401" id="-175">
		<tag k="name" v="Stangalandsmyra" />
		<tag k="natural" v="wetland" />
		<tag k="ssr:stedsnr" v="509306" />
	</node>
	<node lat="58.872183332850256" lon="5.60305832697108" id="-241">
		<tag k="name" v="Ølbørskogen" />
		<tag k="place" v="locality" />
		<tag k="ssr:stedsnr" v="752375" />
	</node>
	<node lat="58.86341666555351" lon="5.631108336082097" id="-276">
		<tag k="name" v="Kvitemyr" />
		<tag k="natural" v="wetland" />
		<tag k="ssr:stedsnr" v="934240" />
	</node>
	<node lat="58.82644166227507" lon="5.600116662253666" id="-324">
		<tag k="name" v="Røseneset" />
		<tag k="natural" v="wetland" />
		<tag k="ssr:stedsnr" v="24373" />
	</node>
	<node lat="58.924319444555586" lon="5.686463895278445" id="-362">
		<tag k="name" v="Hesta steinen" />
		<tag k="natural" v="stone" />
		<tag k="ssr:stedsnr" v="145162" />
	</node>
	<node lat="58.93993888864272" lon="5.595277772532774" id="-415">
		<tag k="name" v="Rodamyr" />
		<tag k="natural" v="wetland" />
		<tag k="ssr:stedsnr" v="327339" />
	</node>
	<node lat="58.864266665418285" lon="5.564708333150267" id="-486">
		<tag k="name" v="Stemmen" />
		<tag k="natural" v="wetland" />
		<tag k="ssr:stedsnr" v="569408" />
	</node>
	<node lat="58.85384722342626" lon="5.643547227538395" id="-546">
		<tag k="name" v="Gimramyra" />
		<tag k="natural" v="wetland" />
		<tag k="ssr:stedsnr" v="752253" />
	</node>
	<node lat="58.94261111159877" lon="5.566058339605146" id="-573">
		<tag k="name" v="Skarvasteinen" />
		<tag k="natural" v="stone" />
		<tag k="ssr:stedsnr" v="812390" />
	</node>
	<node lat="58.895894443777564" lon="5.690083336699105" id="-601">
		<tag k="name" v="Stokkavassbotnen" />
		<tag k="natural" v="wetland" />
		<tag k="ssr:stedsnr" v="873266" />
	</node>
	<node lat="58.9441194413985" lon="5.6015861106641" id="-609">
		<tag k="name" v="Kvitemyr" />
		<tag k="natural" v="wetland" />
		<tag k="ssr:stedsnr" v="873372" />
	</node>
	<node lat="58.86661111292468" lon="5.635597215094238" id="-614">
		<tag k="name" v="Stemmen" />
		<tag k="place" v="locality" />
		<tag k="ssr:stedsnr" v="873342" />
	</node>
</osm>
