<?xml version="1.0" encoding="UTF-8"?>
<osm generator="osmapis" version="0.6">
	<node id="-23243" lat="58.9054189262" lon="5.65373999562">
		<tag k="name" v="Maribo" />
		<tag k="place" v="farm" />
		<tag k="ssr:stedsnr" v="1075358" />
	</node>
	<node id="-23227" lat="58.9104871326" lon="5.59496985232">
		<tag k="fixme" v="consider place=hamlet" />
		<tag k="name" v="Tjora" />
		<tag k="place" v="farm" />
		<tag k="ssr:stedsnr" v="1071931" />
	</node>
	<node id="-23219" lat="58.9339212506" lon="5.6078947041">
		<tag k="name" v="Haga" />
		<tag k="place" v="quarter" />
		<tag k="ssr:stedsnr" v="982077" />
	</node>
	<node id="-23204" lat="58.9478591803" lon="5.43400832906">
		<tag k="name" v="Håsteinshalsen" />
		<tag k="natural" v="cape" />
		<tag k="ssr:stedsnr" v="972951" />
	</node>
	<node id="-23203" lat="58.9179102251" lon="5.49023900696">
		<tag k="fixme" v="consider seamark:type=rock or natural=shoal" />
		<tag k="name" v="Litla Brønnesskjeret" />
		<tag k="place" v="islet" />
		<tag k="ssr:stedsnr" v="972948" />
	</node>
	<node id="-23198" lat="58.903927779" lon="5.5748305598">
		<tag k="fixme" v="consider boundary=protected_area and relevant protect_class if not nature reserve" />
		<tag k="leisure" v="nature_reserve" />
		<tag k="name" v="Jærstrendene landskapsvernområde" />
		<tag k="ssr:stedsnr" v="970348" />
	</node>
	<node id="-23196" lat="58.8920666671" lon="5.63042778163">
		<tag k="bridge" v="yes" />
		<tag k="layer" v="1" />
		<tag k="name" v="Sømmevegen" />
		<tag k="ssr:stedsnr" v="957632" />
	</node>
	<node id="-23195" lat="58.895691666" lon="5.6405638867">
		<tag k="bridge" v="yes" />
		<tag k="layer" v="1" />
		<tag k="name" v="Sømmevågen" />
		<tag k="ssr:stedsnr" v="957631" />
	</node>
	<node id="-23194" lat="58.9410805521" lon="5.62321111581">
		<tag k="name" v="Kråga" />
		<tag k="natural" v="cape" />
		<tag k="ssr:stedsnr" v="951742" />
	</node>
	<node id="-23193" lat="58.9218055563" lon="5.57216389178">
		<tag k="name" v="Flemmingen" />
		<tag k="place" v="islet" />
		<tag k="ssr:stedsnr" v="873751" />
	</node>
	<node id="-23192" lat="58.9063388924" lon="5.5940055544">
		<tag k="name" v="Rindå" />
		<tag k="place" v="farm" />
		<tag k="ssr:stedsnr" v="873748" />
	</node>
	<node id="-23191" lat="58.8761970518" lon="5.65734322613">
		<tag k="alt_name" v="Stangaland Austre" />
		<tag k="fixme" v="consider place=hamlet" />
		<tag k="name" v="Austre Stangaland" />
		<tag k="place" v="farm" />
		<tag k="ssr:stedsnr" v="873639" />
	</node>
	<node id="-23190" lat="58.9589916702" lon="5.59636667337">
		<tag k="name" v="Krabbavik" />
		<tag k="natural" v="bay" />
		<tag k="ssr:stedsnr" v="873464" />
	</node>
	<node id="-23189" lat="58.8228027769" lon="5.57849444448">
		<tag k="name" v="Ølstekula" />
		<tag k="natural" v="hill" />
		<tag k="place" v="locality" />
		<tag k="ssr:stedsnr" v="873393" />
	</node>
	<node id="-23188" lat="58.917719441" lon="5.5238166591">
		<tag k="fixme" v="consider natural=peak for the most distinct mountains in the district" />
		<tag k="name" v="Haukaberget" />
		<tag k="natural" v="hill" />
		<tag k="place" v="locality" />
		<tag k="ssr:stedsnr" v="873385" />
	</node>
	<node id="-23187" lat="58.9441194414" lon="5.60158611066">
		<tag k="name" v="Kvitemyr" />
		<tag k="natural" v="wetland" />
		<tag k="ssr:stedsnr" v="873372" />
	</node>
	<node id="-23186" lat="58.9414583348" lon="5.57811389409">
		<tag k="alt_name" v="Storevarden" />
		<tag k="fixme" v="consider natural=peak for the most distinct mountains in the district" />
		<tag k="name" v="Tanangerhaug" />
		<tag k="natural" v="hill" />
		<tag k="place" v="locality" />
		<tag k="ssr:stedsnr" v="873371" />
	</node>
	<node id="-23185" lat="58.9216194431" lon="5.64432500879">
		<tag k="name" v="Kobbholmen" />
		<tag k="place" v="islet" />
		<tag k="ssr:stedsnr" v="873302" />
	</node>
	<node id="-23184" lat="58.8617805602" lon="5.66056111535">
		<tag k="name" v="Rudleholen" />
		<tag k="place" v="farm" />
		<tag k="ssr:stedsnr" v="873293" />
	</node>
	<node id="-23183" lat="58.8507666655" lon="5.6329027755">
		<tag k="name" v="Høgholen" />
		<tag k="natural" v="hill" />
		<tag k="place" v="locality" />
		<tag k="ssr:stedsnr" v="873286" />
	</node>
	<node id="-23182" lat="58.8666111129" lon="5.63559721509">
		<tag k="name" v="Stemmen" />
		<tag k="place" v="locality" />
		<tag k="ssr:stedsnr" v="873342" />
	</node>
	<node id="-23181" lat="58.883400004" lon="5.68528610588">
		<tag k="name" v="Solvang" />
		<tag k="place" v="farm" />
		<tag k="ssr:stedsnr" v="873338" />
	</node>
	<node id="-23180" lat="58.8504694409" lon="5.59647222586">
		<tag k="fixme" v="consider natural=peak for the most distinct mountains in the district" />
		<tag k="name" v="Gjøsteinen" />
		<tag k="natural" v="hill" />
		<tag k="place" v="locality" />
		<tag k="ssr:stedsnr" v="873081" />
	</node>
	<node id="-23179" lat="58.9315361098" lon="5.60417777897">
		<tag k="name" v="Haga" />
		<tag k="place" v="farm" />
		<tag k="ssr:stedsnr" v="851061" />
	</node>
	<node id="-23178" lat="58.9290638911" lon="5.69276666553">
		<tag k="name" v="Nov" />
		<tag k="place" v="farm" />
		<tag k="ssr:stedsnr" v="851059" />
	</node>
	<node id="-23177" lat="58.918353448" lon="5.51746933259">
		<tag k="fixme" v="consider place=hamlet" />
		<tag k="name" v="Rott" />
		<tag k="place" v="farm" />
		<tag k="ssr:stedsnr" v="850002" />
	</node>
	<node id="-23176" lat="58.9322222249" lon="5.45681943692">
		<tag k="name" v="Nordre Hansagrunnen" />
		<tag k="natural" v="shoal" />
		<tag k="place" v="locality" />
		<tag k="ssr:stedsnr" v="847692" />
	</node>
	<node id="-23175" lat="58.935597219" lon="5.60219722309">
		<tag k="bridge" v="yes" />
		<tag k="layer" v="1" />
		<tag k="name" v="Haga" />
		<tag k="ssr:stedsnr" v="836636" />
	</node>
	<node id="-23174" lat="58.9534083324" lon="5.60672221547">
		<tag k="bridge" v="yes" />
		<tag k="layer" v="1" />
		<tag k="name" v="Jåsund" />
		<tag k="ssr:stedsnr" v="836635" />
	</node>
	<node id="-23173" lat="58.9350305514" lon="5.61902221586">
		<tag k="name" v="Småvågane" />
		<tag k="place" v="islet" />
		<tag k="ssr:stedsnr" v="830731" />
	</node>
	<node id="-23172" lat="58.906072224" lon="5.60392499513">
		<tag k="name" v="Grønaberget" />
		<tag k="place" v="farm" />
		<tag k="ssr:stedsnr" v="830712" />
	</node>
	<node id="-23171" lat="58.8640527802" lon="5.49373055529">
		<tag k="name" v="Sørbåen" />
		<tag k="place" v="locality" />
		<tag k="seamark:type" v="rock" />
		<tag k="ssr:stedsnr" v="828820" />
	</node>
	<node id="-23170" lat="58.8873194457" lon="5.48789999852">
		<tag k="name" v="Skotagrunnen" />
		<tag k="natural" v="shoal" />
		<tag k="place" v="locality" />
		<tag k="ssr:stedsnr" v="828815" />
	</node>
	<node id="-23169" lat="58.8708694415" lon="5.50548611395">
		<tag k="name" v="Klakken" />
		<tag k="natural" v="shoal" />
		<tag k="place" v="locality" />
		<tag k="ssr:stedsnr" v="828810" />
	</node>
	<node id="-23168" lat="58.9065194454" lon="5.48690554709">
		<tag k="name" v="Kringla" />
		<tag k="natural" v="shoal" />
		<tag k="place" v="locality" />
		<tag k="ssr:stedsnr" v="828805" />
	</node>
	<node id="-23167" lat="58.8983416671" lon="5.44432778095">
		<tag k="fixme" v="consider seamark:type=rock or natural=shoal" />
		<tag k="name" v="Trillingane" />
		<tag k="place" v="islet" />
		<tag k="ssr:stedsnr" v="828799" />
	</node>
	<node id="-23166" lat="58.8774027807" lon="5.42856389434">
		<tag k="alt_name" v="Folkvårskjeret" />
		<tag k="fixme" v="consider seamark:type=rock or natural=shoal" />
		<tag k="name" v="Folkvordskjeret" />
		<tag k="place" v="islet" />
		<tag k="ssr:stedsnr" v="828792" />
	</node>
	<node id="-23165" lat="58.8977250037" lon="5.46306389027">
		<tag k="name" v="Larsagrunnen" />
		<tag k="natural" v="shoal" />
		<tag k="place" v="locality" />
		<tag k="ssr:stedsnr" v="828786" />
	</node>
	<node id="-23164" lat="58.958983333" lon="5.56844443755">
		<tag k="name" v="Grunnaflua" />
		<tag k="place" v="locality" />
		<tag k="seamark:type" v="rock" />
		<tag k="ssr:stedsnr" v="817486" />
	</node>
	<node id="-23163" lat="58.9534055579" lon="5.57004167208">
		<tag k="fixme" v="consider seamark:type=rock or natural=shoal" />
		<tag k="name" v="Vestøskjeret" />
		<tag k="place" v="islet" />
		<tag k="ssr:stedsnr" v="817485" />
	</node>
	<node id="-23162" lat="58.9348055572" lon="5.69081111479">
		<tag k="name" v="Renneberget" />
		<tag k="natural" v="hill" />
		<tag k="place" v="locality" />
		<tag k="ssr:stedsnr" v="813300" />
	</node>
	<node id="-23161" lat="58.9417916627" lon="5.61830278124">
		<tag k="name" v="Skarvasteinen" />
		<tag k="natural" v="cape" />
		<tag k="ssr:stedsnr" v="813297" />
	</node>
	<node id="-23160" lat="58.8828361089" lon="5.66458889579">
		<tag k="name" v="Nonsberget" />
		<tag k="natural" v="hill" />
		<tag k="place" v="locality" />
		<tag k="ssr:stedsnr" v="813277" />
	</node>
	<node id="-23159" lat="58.8457944408" lon="5.62208611209">
		<tag k="name" v="Langholen" />
		<tag k="place" v="locality" />
		<tag k="ssr:stedsnr" v="813245" />
	</node>
	<node id="-23158" lat="58.8862555518" lon="5.68109722046">
		<tag k="fixme" v="consider natural=peak for the most distinct mountains in the district" />
		<tag k="name" v="Kjerrberget" />
		<tag k="natural" v="hill" />
		<tag k="place" v="locality" />
		<tag k="ssr:stedsnr" v="813220" />
	</node>
	<node id="-23157" lat="58.9182500014" lon="5.67742222902">
		<tag k="name" v="Fredberget" />
		<tag k="natural" v="hill" />
		<tag k="place" v="locality" />
		<tag k="ssr:stedsnr" v="813128" />
	</node>
	<node id="-23156" lat="58.9606111113" lon="5.59006389413">
		<tag k="name" v="Stokkavik" />
		<tag k="natural" v="bay" />
		<tag k="ssr:stedsnr" v="812505" />
	</node>
	<node id="-23155" lat="58.8760777758" lon="5.59110832812">
		<tag k="name" v="Regestranden" />
		<tag k="natural" v="bay" />
		<tag k="ssr:stedsnr" v="812426" />
	</node>
	<node id="-23154" lat="58.9233111132" lon="5.50646945154">
		<tag k="name" v="Rottnesbukta" />
		<tag k="natural" v="bay" />
		<tag k="ssr:stedsnr" v="812402" />
	</node>
	<node id="-23153" lat="58.9426111116" lon="5.56605833961">
		<tag k="name" v="Skarvasteinen" />
		<tag k="natural" v="stone" />
		<tag k="ssr:stedsnr" v="812390" />
	</node>
	<node id="-23152" lat="58.9146499998" lon="5.52182777983">
		<tag k="name" v="Klossvik" />
		<tag k="natural" v="bay" />
		<tag k="ssr:stedsnr" v="812384" />
	</node>
	<node id="-23151" lat="58.9156416651" lon="5.52364443615">
		<tag k="name" v="Seiodden" />
		<tag k="natural" v="cape" />
		<tag k="ssr:stedsnr" v="812381" />
	</node>
	<node id="-23150" lat="58.9097777816" lon="5.50505000244">
		<tag k="name" v="Viddingsvågen" />
		<tag k="natural" v="bay" />
		<tag k="ssr:stedsnr" v="812374" />
	</node>
	<node id="-23149" lat="58.8517555592" lon="5.56763055506">
		<tag k="fixme" v="consider natural=peak for the most distinct mountains in the district" />
		<tag k="name" v="Varafjell" />
		<tag k="natural" v="hill" />
		<tag k="place" v="locality" />
		<tag k="ssr:stedsnr" v="812067" />
	</node>
	<node id="-23148" lat="58.8971027786" lon="5.55071944791">
		<tag k="name" v="Kolnesholmane" />
		<tag k="place" v="island" />
		<tag k="ssr:stedsnr" v="809830" />
	</node>
	<node id="-23147" lat="58.9383861115" lon="5.60118610868">
		<tag k="name" v="Meling" />
		<tag k="place" v="farm" />
		<tag k="ssr:stedsnr" v="790051" />
	</node>
	<node id="-23146" lat="58.9389687509" lon="5.6183159277">
		<tag k="fixme" v="consider place=hamlet" />
		<tag k="name" v="Haga" />
		<tag k="place" v="farm" />
		<tag k="ssr:stedsnr" v="790048" />
	</node>
	<node id="-23145" lat="58.9397334957" lon="5.61038441576">
		<tag k="fixme" v="consider place=hamlet" />
		<tag k="name" v="Meling" />
		<tag k="place" v="farm" />
		<tag k="ssr:stedsnr" v="790047" />
	</node>
	<node id="-23144" lat="58.9328861075" lon="5.48502500746">
		<tag k="alt_name" v="Håbaskjeret" />
		<tag k="fixme" v="consider seamark:type=rock or natural=shoal" />
		<tag k="name" v="Håbåskjeret" />
		<tag k="old_name" v="Håbåskjere" />
		<tag k="place" v="islet" />
		<tag k="ssr:stedsnr" v="790041" />
	</node>
	<node id="-23143" lat="58.8572478533" lon="5.64204255018">
		<tag k="fixme" v="consider place=hamlet" />
		<tag k="name" v="Gimra" />
		<tag k="place" v="farm" />
		<tag k="ssr:stedsnr" v="789990" />
	</node>
	<node id="-23142" lat="58.8486942709" lon="5.55857975545">
		<tag k="alt_name" v="Hedlestø" />
		<tag k="fixme" v="consider place=hamlet" />
		<tag k="name" v="Hellestø" />
		<tag k="place" v="farm" />
		<tag k="ssr:stedsnr" v="789984" />
	</node>
	<node id="-23141" lat="58.8521055511" lon="5.6004222237">
		<tag k="name" v="Håland" />
		<tag k="place" v="farm" />
		<tag k="ssr:stedsnr" v="789981" />
	</node>
	<node id="-23140" lat="58.83727222" lon="5.58343332848">
		<tag k="name" v="Auglend" />
		<tag k="old_name" v="Auklend" />
		<tag k="place" v="farm" />
		<tag k="ssr:stedsnr" v="789972" />
	</node>
	<node id="-23139" lat="58.8881305571" lon="5.54251666592">
		<tag k="alt_name" v="Auså" />
		<tag k="name" v="Ausa" />
		<tag k="place" v="islet" />
		<tag k="ssr:stedsnr" v="789966" />
	</node>
	<node id="-23138" lat="58.8914222195" lon="5.54838611328">
		<tag k="alt_name" v="Vardholmen, søre;søre Varholmen" />
		<tag k="name" v="Søre Vardholmen" />
		<tag k="place" v="islet" />
		<tag k="ssr:stedsnr" v="789963" />
	</node>
	<node id="-23136" lat="58.9170972212" lon="5.45753610642">
		<tag k="name" v="Kyrkjehausane" />
		<tag k="natural" v="shoal" />
		<tag k="place" v="locality" />
		<tag k="ssr:stedsnr" v="786706" />
	</node>
	<node id="-23135" lat="58.9356305586" lon="5.60475833836">
		<tag k="bridge" v="yes" />
		<tag k="layer" v="1" />
		<tag k="name" v="Haga" />
		<tag k="ssr:stedsnr" v="775636" />
	</node>
	<node id="-23134" lat="58.872963888" lon="5.65556945092">
		<tag k="bridge" v="yes" />
		<tag k="layer" v="1" />
		<tag k="name" v="Stangelandsbakken" />
		<tag k="ssr:stedsnr" v="775623" />
	</node>
	<node id="-23133" lat="58.8920750032" lon="5.64476111747">
		<tag k="bridge" v="yes" />
		<tag k="layer" v="1" />
		<tag k="name" v="Araberg" />
		<tag k="ssr:stedsnr" v="775584" />
	</node>
	<node id="-23132" lat="58.8701194406" lon="5.56932499973">
		<tag k="alt_name" v="Ølbergsanden" />
		<tag k="name" v="Ølbørsanden" />
		<tag k="natural" v="beach" />
		<tag k="place" v="locality" />
		<tag k="ssr:stedsnr" v="767779" />
	</node>
	<node id="-23131" lat="58.8476333315" lon="5.55890555192">
		<tag k="name" v="Hellestøstranda" />
		<tag k="natural" v="beach" />
		<tag k="place" v="locality" />
		<tag k="ssr:stedsnr" v="767769" />
	</node>
	<node id="-23130" lat="58.92576609" lon="5.57249343004">
		<tag k="name" v="Laksholmsundet" />
		<tag k="natural" v="strait" />
		<tag k="ssr:stedsnr" v="767246" />
	</node>
	<node id="-23129" lat="58.9646833341" lon="5.47964443668">
		<tag k="name" v="Langeboen" />
		<tag k="place" v="locality" />
		<tag k="seamark:type" v="rock" />
		<tag k="ssr:stedsnr" v="756504" />
	</node>
	<node id="-23128" lat="58.9068500012" lon="5.58193056185">
		<tag k="name" v="Stornes" />
		<tag k="place" v="farm" />
		<tag k="ssr:stedsnr" v="752761" />
	</node>
	<node id="-23127" lat="58.8543749962" lon="5.54751666647">
		<tag k="name" v="Buvika" />
		<tag k="natural" v="bay" />
		<tag k="ssr:stedsnr" v="752722" />
	</node>
	<node id="-23126" lat="58.8625638933" lon="5.55989445188">
		<tag k="fixme" v="consider natural=peak for the most distinct mountains in the district" />
		<tag k="name" v="Rundeholane" />
		<tag k="natural" v="hill" />
		<tag k="place" v="locality" />
		<tag k="ssr:stedsnr" v="752385" />
	</node>
	<node id="-23125" lat="58.8302083334" lon="5.59606943712">
		<tag k="name" v="Valhaug" />
		<tag k="natural" v="hill" />
		<tag k="place" v="locality" />
		<tag k="ssr:stedsnr" v="752376" />
	</node>
	<node id="-23124" lat="58.8721833329" lon="5.60305832697">
		<tag k="name" v="Ølbørskogen" />
		<tag k="place" v="locality" />
		<tag k="ssr:stedsnr" v="752375" />
	</node>
	<node id="-23123" lat="58.8718972204" lon="5.58664443669">
		<tag k="name" v="Havholen" />
		<tag k="natural" v="hill" />
		<tag k="place" v="locality" />
		<tag k="ssr:stedsnr" v="752374" />
	</node>
	<node id="-23122" lat="58.8538527797" lon="5.56870277931">
		<tag k="fixme" v="consider natural=peak for the most distinct mountains in the district" />
		<tag k="name" v="Revanuten" />
		<tag k="natural" v="hill" />
		<tag k="place" v="locality" />
		<tag k="ssr:stedsnr" v="752356" />
	</node>
	<node id="-23121" lat="58.9282750028" lon="5.63371944087">
		<tag k="name" v="Midøyna" />
		<tag k="natural" v="hill" />
		<tag k="place" v="locality" />
		<tag k="ssr:stedsnr" v="752302" />
	</node>
	<node id="-23120" lat="58.8677083298" lon="5.6297333343">
		<tag k="name" v="Skjelsnes" />
		<tag k="place" v="farm" />
		<tag k="ssr:stedsnr" v="752293" />
	</node>
	<node id="-23119" lat="58.8626000006" lon="5.66051944978">
		<tag k="name" v="Gjerdebakk" />
		<tag k="place" v="farm" />
		<tag k="ssr:stedsnr" v="752292" />
	</node>
	<node id="-23118" lat="58.8637055581" lon="5.66840000682">
		<tag k="name" v="Bruholen" />
		<tag k="place" v="farm" />
		<tag k="ssr:stedsnr" v="752289" />
	</node>
	<node id="-23117" lat="58.9089833373" lon="5.67420556307">
		<tag k="name" v="Svinaberget" />
		<tag k="natural" v="hill" />
		<tag k="place" v="locality" />
		<tag k="ssr:stedsnr" v="752156" />
	</node>
	<node id="-23116" lat="58.8497222258" lon="5.57389444949">
		<tag k="fixme" v="consider natural=peak for the most distinct mountains in the district" />
		<tag k="name" v="Trallrudla" />
		<tag k="natural" v="hill" />
		<tag k="place" v="locality" />
		<tag k="ssr:stedsnr" v="752057" />
	</node>
	<node id="-23115" lat="58.8777750033" lon="5.44138887998">
		<tag k="name" v="Tjør-innseilingen" />
		<tag k="natural" v="strait" />
		<tag k="ssr:stedsnr" v="749966" />
	</node>
	<node id="-23114" lat="58.9055745973" lon="5.44354084943">
		<tag k="name" v="Huaboane" />
		<tag k="place" v="locality" />
		<tag k="seamark:type" v="rock" />
		<tag k="ssr:stedsnr" v="748933" />
	</node>
	<node id="-23113" lat="58.9336455313" lon="5.57708859092">
		<tag k="man_made" v="quay" />
		<tag k="name" v="Olsabryggja" />
		<tag k="place" v="locality" />
		<tag k="ssr:stedsnr" v="748932" />
	</node>
	<node id="-23112" lat="58.8675583349" lon="5.50066389407">
		<tag k="name" v="Steinbåane" />
		<tag k="place" v="locality" />
		<tag k="seamark:type" v="rock" />
		<tag k="ssr:stedsnr" v="645823" />
	</node>
	<node id="-23111" lat="58.8815027821" lon="5.54623333461">
		<tag k="name" v="Bolla" />
		<tag k="place" v="locality" />
		<tag k="seamark:type" v="rock" />
		<tag k="ssr:stedsnr" v="645795" />
	</node>
	<node id="-23110" lat="58.8768583316" lon="5.5473222187">
		<tag k="name" v="Parisgrunnen" />
		<tag k="place" v="locality" />
		<tag k="seamark:type" v="rock" />
		<tag k="ssr:stedsnr" v="645794" />
	</node>
	<node id="-23109" lat="58.9300972183" lon="5.5981916635">
		<tag k="name" v="Båtstadvågen" />
		<tag k="natural" v="bay" />
		<tag k="ssr:stedsnr" v="645250" />
	</node>
	<node id="-23108" lat="58.8474305572" lon="5.5513472257">
		<tag k="name" v="Sulle" />
		<tag k="place" v="locality" />
		<tag k="seamark:type" v="rock" />
		<tag k="ssr:stedsnr" v="645753" />
	</node>
	<node id="-23107" lat="58.9663305591" lon="5.46450833878">
		<tag k="name" v="Den svarte" />
		<tag k="place" v="locality" />
		<tag k="seamark:type" v="rock" />
		<tag k="ssr:stedsnr" v="634538" />
	</node>
	<node id="-23106" lat="58.9263333357" lon="5.60870833491">
		<tag k="alt_name" v="Snøda" />
		<tag k="fixme" v="consider place=suburb, village or hamlet" />
		<tag k="name" v="Snøde" />
		<tag k="place" v="quarter" />
		<tag k="ssr:stedsnr" v="630641" />
	</node>
	<node id="-23105" lat="58.9323555553" lon="5.57295833859">
		<tag k="name" v="Tangen" />
		<tag k="natural" v="cape" />
		<tag k="ssr:stedsnr" v="630350" />
	</node>
	<node id="-23104" lat="58.910688891" lon="5.51354166739">
		<tag k="name" v="Dalhamn" />
		<tag k="natural" v="bay" />
		<tag k="ssr:stedsnr" v="630337" />
	</node>
	<node id="-23103" lat="58.8970916664" lon="5.55069445097">
		<tag k="fixme" v="consider seamark:type=rock or natural=shoal" />
		<tag k="name" v="Seiaskjeret" />
		<tag k="place" v="islet" />
		<tag k="ssr:stedsnr" v="630386" />
	</node>
	<node id="-23102" lat="58.8736823429" lon="5.5715684902">
		<tag k="fixme" v="consider natural=peak for the most distinct mountains in the district" />
		<tag k="name" v="Litle Trælen" />
		<tag k="natural" v="hill" />
		<tag k="place" v="locality" />
		<tag k="ssr:stedsnr" v="630385" />
	</node>
	<node id="-23101" lat="58.8747348593" lon="5.57384337975">
		<tag k="fixme" v="consider natural=peak for the most distinct mountains in the district" />
		<tag k="name" v="Store Trælen" />
		<tag k="natural" v="hill" />
		<tag k="place" v="locality" />
		<tag k="ssr:stedsnr" v="630382" />
	</node>
	<node id="-23100" lat="58.8576527787" lon="5.56930000329">
		<tag k="name" v="Soldalen" />
		<tag k="place" v="farm" />
		<tag k="ssr:stedsnr" v="630377" />
	</node>
	<node id="-23099" lat="58.828205557" lon="5.56516110976">
		<tag k="name" v="Stavholane" />
		<tag k="natural" v="hill" />
		<tag k="place" v="locality" />
		<tag k="ssr:stedsnr" v="630368" />
	</node>
	<node id="-23098" lat="58.9031944417" lon="5.62487222951">
		<tag k="fixme" v="consider natural=peak for the most distinct mountains in the district" />
		<tag k="name" v="Leirberg" />
		<tag k="natural" v="hill" />
		<tag k="place" v="locality" />
		<tag k="ssr:stedsnr" v="630243" />
	</node>
	<node id="-23097" lat="58.9137499965" lon="5.50567499336">
		<tag k="name" v="Vatnet" />
		<tag k="natural" v="water" />
		<tag k="ssr:stedsnr" v="630335" />
		<tag k="water" v="lake" />
	</node>
	<node id="-23096" lat="58.9097555556" lon="5.53399999936">
		<tag k="bay" v="fjord" />
		<tag k="name" v="Rottsfjorden" />
		<tag k="natural" v="bay" />
		<tag k="ssr:stedsnr" v="630333" />
	</node>
	<node id="-23095" lat="58.9198055594" lon="5.62713333818">
		<tag k="fixme" v="consider seamark:type=rock or natural=shoal" />
		<tag k="name" v="Skarvasteinen" />
		<tag k="place" v="islet" />
		<tag k="ssr:stedsnr" v="630289" />
	</node>
	<node id="-23094" lat="58.8479111083" lon="5.58962221529">
		<tag k="name" v="Eikedalen" />
		<tag k="place" v="farm" />
		<tag k="ssr:stedsnr" v="630081" />
	</node>
	<node id="-23093" lat="58.8772277759" lon="5.42224722802">
		<tag k="alt_name" v="Faksen, yt" />
		<tag k="fixme" v="consider seamark:type=rock or natural=shoal" />
		<tag k="name" v="Ytre Faksen" />
		<tag k="place" v="islet" />
		<tag k="ssr:stedsnr" v="607942" />
	</node>
	<node id="-23092" lat="58.8448833356" lon="5.59001111812">
		<tag k="alt_name" v="Hedleberget" />
		<tag k="name" v="Helleberget" />
		<tag k="place" v="farm" />
		<tag k="ssr:stedsnr" v="607981" />
	</node>
	<node id="-23091" lat="58.9591277754" lon="5.51184721736">
		<tag k="fixme" v="consider seamark:type=rock or natural=shoal" />
		<tag k="name" v="Fladaskjer" />
		<tag k="place" v="islet" />
		<tag k="ssr:stedsnr" v="607077" />
	</node>
	<node id="-23090" lat="58.9361777803" lon="5.57410000345">
		<tag k="name" v="Tananger" />
		<tag k="place" v="village" />
		<tag k="ssr:stedsnr" v="607046" />
	</node>
	<node id="-23089" lat="58.9504111125" lon="5.59367221625">
		<tag k="name" v="Steinhaug" />
		<tag k="place" v="farm" />
		<tag k="ssr:stedsnr" v="607040" />
	</node>
	<node id="-23088" lat="58.9381500021" lon="5.53488333286">
		<tag k="name" v="Nilsagrunnen" />
		<tag k="natural" v="shoal" />
		<tag k="place" v="locality" />
		<tag k="ssr:stedsnr" v="604709" />
	</node>
	<node id="-23087" lat="58.9043527786" lon="5.66352778276">
		<tag k="bridge" v="yes" />
		<tag k="layer" v="1" />
		<tag k="name" v="Røyneberg" />
		<tag k="ssr:stedsnr" v="592701" />
	</node>
	<node id="-23086" lat="58.8997166663" lon="5.61417499816">
		<tag k="bridge" v="yes" />
		<tag k="layer" v="1" />
		<tag k="name" v="Sola" />
		<tag k="ssr:stedsnr" v="592699" />
	</node>
	<node id="-23085" lat="58.8804499961" lon="5.60310278198">
		<tag k="bridge" v="yes" />
		<tag k="layer" v="1" />
		<tag k="name" v="Solasanden" />
		<tag k="ssr:stedsnr" v="592697" />
	</node>
	<node id="-23084" lat="58.8660916688" lon="5.49204999126">
		<tag k="name" v="Skotabåen" />
		<tag k="place" v="locality" />
		<tag k="seamark:type" v="rock" />
		<tag k="ssr:stedsnr" v="585811" />
	</node>
	<node id="-23083" lat="58.9277722202" lon="5.41212777254">
		<tag k="name" v="Ytststeingrunnen" />
		<tag k="natural" v="shoal" />
		<tag k="place" v="locality" />
		<tag k="ssr:stedsnr" v="574563" />
	</node>
	<node id="-23082" lat="58.9446611092" lon="5.55386667402">
		<tag k="name" v="Nesjarflua" />
		<tag k="place" v="locality" />
		<tag k="seamark:type" v="rock" />
		<tag k="ssr:stedsnr" v="574528" />
	</node>
	<node id="-23081" lat="58.9252583366" lon="5.53407221536">
		<tag k="name" v="Steinboen" />
		<tag k="place" v="locality" />
		<tag k="seamark:type" v="rock" />
		<tag k="ssr:stedsnr" v="574523" />
	</node>
	<node id="-23080" lat="58.9097166689" lon="5.60411111286">
		<tag k="fixme" v="consider natural=peak for the most distinct mountains in the district" />
		<tag k="name" v="Kongshaug" />
		<tag k="natural" v="hill" />
		<tag k="place" v="locality" />
		<tag k="ssr:stedsnr" v="569749" />
	</node>
	<node id="-23079" lat="58.8663859428" lon="5.65426986972">
		<tag k="alt_name" v="Stangaland Vestre" />
		<tag k="fixme" v="consider place=hamlet" />
		<tag k="name" v="Vestre Stangaland" />
		<tag k="place" v="farm" />
		<tag k="ssr:stedsnr" v="569676" />
	</node>
	<node id="-23078" lat="58.9619194437" lon="5.57636388589">
		<tag k="name" v="Litle Fjørnesholmen" />
		<tag k="place" v="islet" />
		<tag k="ssr:stedsnr" v="569474" />
	</node>
	<node id="-23077" lat="58.8642666654" lon="5.56470833315">
		<tag k="name" v="Stemmen" />
		<tag k="natural" v="wetland" />
		<tag k="ssr:stedsnr" v="569408" />
	</node>
	<node id="-23076" lat="58.8367444442" lon="5.57146666504">
		<tag k="name" v="Vindholen" />
		<tag k="place" v="farm" />
		<tag k="ssr:stedsnr" v="569405" />
	</node>
	<node id="-23075" lat="58.8702138897" lon="5.58229722542">
		<tag k="name" v="Haugarhaug" />
		<tag k="natural" v="hill" />
		<tag k="place" v="locality" />
		<tag k="ssr:stedsnr" v="569399" />
	</node>
	<node id="-23074" lat="58.8705111071" lon="5.57486111643">
		<tag k="name" v="Sjølyst" />
		<tag k="place" v="farm" />
		<tag k="ssr:stedsnr" v="569398" />
	</node>
	<node id="-23073" lat="58.8555277755" lon="5.58852778488">
		<tag k="name" v="Revaberget" />
		<tag k="natural" v="hill" />
		<tag k="place" v="locality" />
		<tag k="ssr:stedsnr" v="569391" />
	</node>
	<node id="-23072" lat="58.9197888907" lon="5.52357222566">
		<tag k="name" v="Haugabergbukta" />
		<tag k="natural" v="bay" />
		<tag k="ssr:stedsnr" v="569377" />
	</node>
	<node id="-23071" lat="58.9414888906" lon="5.56468610985">
		<tag k="name" v="Risnes" />
		<tag k="natural" v="cape" />
		<tag k="ssr:stedsnr" v="569370" />
	</node>
	<node id="-23070" lat="58.9123138849" lon="5.50851667502">
		<tag k="name" v="Vestra Øynå" />
		<tag k="place" v="island" />
		<tag k="ssr:stedsnr" v="569359" />
	</node>
	<node id="-23069" lat="58.8815472204" lon="5.67761111342">
		<tag k="name" v="Eikebakken" />
		<tag k="place" v="farm" />
		<tag k="ssr:stedsnr" v="569329" />
	</node>
	<node id="-23068" lat="58.9044194448" lon="5.67146667046">
		<tag k="fixme" v="consider natural=peak for the most distinct mountains in the district" />
		<tag k="name" v="Gåseberget" />
		<tag k="natural" v="hill" />
		<tag k="place" v="locality" />
		<tag k="ssr:stedsnr" v="569276" />
	</node>
	<node id="-23067" lat="58.8967111138" lon="5.64477778222">
		<tag k="fixme" v="consider natural=peak for the most distinct mountains in the district" />
		<tag k="name" v="Skiljaberget" />
		<tag k="natural" v="hill" />
		<tag k="place" v="locality" />
		<tag k="ssr:stedsnr" v="569263" />
	</node>
	<node id="-23066" lat="58.8872500042" lon="5.6096250071">
		<tag k="fixme" v="consider natural=peak for the most distinct mountains in the district" />
		<tag k="name" v="Småberga" />
		<tag k="natural" v="hill" />
		<tag k="place" v="locality" />
		<tag k="ssr:stedsnr" v="569258" />
	</node>
	<node id="-23065" lat="58.8971638866" lon="5.62802778654">
		<tag k="name" v="Halmhaugane" />
		<tag k="natural" v="hill" />
		<tag k="place" v="locality" />
		<tag k="ssr:stedsnr" v="569256" />
	</node>
	<node id="-23064" lat="58.8694194445" lon="5.58466666032">
		<tag k="alt_name" v="Ølberg" />
		<tag k="name" v="Ølbør" />
		<tag k="place" v="farm" />
		<tag k="ssr:stedsnr" v="547999" />
	</node>
	<node id="-23063" lat="58.8631166692" lon="5.63570556296">
		<tag k="name" v="Kvitholen" />
		<tag k="old_name" v="Kvitehol" />
		<tag k="place" v="farm" />
		<tag k="ssr:stedsnr" v="547998" />
	</node>
	<node id="-23062" lat="58.951794309" lon="5.6010904098">
		<tag k="fixme" v="consider place=hamlet" />
		<tag k="name" v="Jåsund" />
		<tag k="place" v="farm" />
		<tag k="ssr:stedsnr" v="547099" />
	</node>
	<node id="-23061" lat="58.8324409616" lon="5.58637004997">
		<tag k="fixme" v="consider place=hamlet" />
		<tag k="name" v="Harvaland" />
		<tag k="place" v="farm" />
		<tag k="ssr:stedsnr" v="546963" />
	</node>
	<node id="-23060" lat="58.8979321007" lon="5.62123416103">
		<tag k="fixme" v="consider place=hamlet" />
		<tag k="name" v="Sømme" />
		<tag k="place" v="farm" />
		<tag k="ssr:stedsnr" v="546946" />
	</node>
	<node id="-23059" lat="58.960333335" lon="5.52251666901">
		<tag k="fixme" v="consider seamark:type=rock or natural=shoal" />
		<tag k="name" v="Skarvaskjeret" />
		<tag k="place" v="islet" />
		<tag k="ssr:stedsnr" v="546078" />
	</node>
	<node id="-23058" lat="58.9133777773" lon="5.60943054965">
		<tag k="alt_name" v="Vardåsen, s;s. Varåsen" />
		<tag k="fixme" v="consider natural=peak for the most distinct mountains in the district" />
		<tag k="name" v="Søre Vardåsen" />
		<tag k="natural" v="hill" />
		<tag k="place" v="locality" />
		<tag k="ssr:stedsnr" v="546031" />
	</node>
	<node id="-23057" lat="58.9216664105" lon="5.6212142072">
		<tag k="name" v="Risa" />
		<tag k="place" v="hamlet" />
		<tag k="ssr:stedsnr" v="546022" />
	</node>
	<node id="-23056" lat="58.9299277805" lon="5.54034999669">
		<tag k="name" v="Midtfjæra" />
		<tag k="place" v="locality" />
		<tag k="seamark:type" v="rock" />
		<tag k="ssr:stedsnr" v="544699" />
	</node>
	<node id="-23054" lat="58.9219277768" lon="5.4718499952">
		<tag k="name" v="Klossvikhausane" />
		<tag k="place" v="locality" />
		<tag k="seamark:type" v="rock" />
		<tag k="ssr:stedsnr" v="543664" />
	</node>
	<node id="-23053" lat="58.8993500029" lon="5.65973610665">
		<tag k="bridge" v="yes" />
		<tag k="layer" v="1" />
		<tag k="name" v="Joa kanalbru" />
		<tag k="ssr:stedsnr" v="532645" />
	</node>
	<node id="-23052" lat="58.8866694432" lon="5.62261388861">
		<tag k="bridge" v="yes" />
		<tag k="layer" v="1" />
		<tag k="name" v="Utsola" />
		<tag k="ssr:stedsnr" v="532638" />
	</node>
	<node id="-23051" lat="58.932953347" lon="5.59796699252">
		<tag k="fixme" v="consider place=suburb, village or hamlet" />
		<tag k="name" v="Båtstad" />
		<tag k="place" v="quarter" />
		<tag k="ssr:stedsnr" v="524236" />
	</node>
	<node id="-23050" lat="58.8604888913" lon="5.5542333257">
		<tag k="name" v="Vigdelsvika" />
		<tag k="natural" v="bay" />
		<tag k="ssr:stedsnr" v="427000" />
	</node>
	<node id="-23049" lat="58.8840055531" lon="5.43689445317">
		<tag k="name" v="Storetjør" />
		<tag k="place" v="island" />
		<tag k="ssr:stedsnr" v="426957" />
	</node>
	<node id="-23048" lat="58.9322694413" lon="5.5017083265">
		<tag k="fixme" v="consider seamark:type=rock or natural=shoal" />
		<tag k="name" v="Olleskjer" />
		<tag k="place" v="islet" />
		<tag k="ssr:stedsnr" v="426061" />
	</node>
	<node id="-23047" lat="58.8959888892" lon="5.60084999305">
		<tag k="alt_name" v="Kolnestjørna" />
		<tag k="name" v="Storatjørn" />
		<tag k="natural" v="water" />
		<tag k="ssr:stedsnr" v="425957" />
	</node>
	<node id="-23046" lat="58.9680888869" lon="5.41416666308">
		<tag k="bay" v="fjord" />
		<tag k="name" v="Håsteinsfjorden" />
		<tag k="natural" v="bay" />
		<tag k="ssr:stedsnr" v="425114" />
	</node>
	<node id="-23045" lat="58.83971944" lon="5.59798332954">
		<tag k="bridge" v="yes" />
		<tag k="layer" v="1" />
		<tag k="name" v="Dammen" />
		<tag k="ssr:stedsnr" v="411608" />
	</node>
	<node id="-23044" lat="58.8306222244" lon="5.35294167257">
		<tag k="name" v="Karlsmedgrunnen" />
		<tag k="natural" v="shoal" />
		<tag k="place" v="locality" />
		<tag k="ssr:stedsnr" v="403840" />
	</node>
	<node id="-23043" lat="58.9607083323" lon="5.58271388837">
		<tag k="name" v="Fjøreneset" />
		<tag k="natural" v="cape" />
		<tag k="ssr:stedsnr" v="392537" />
	</node>
	<node id="-23042" lat="58.8361805515" lon="5.59591388415">
		<tag k="name" v="Bulega" />
		<tag k="natural" v="valley" />
		<tag k="place" v="locality" />
		<tag k="ssr:stedsnr" v="387437" />
	</node>
	<node id="-23041" lat="58.8710250037" lon="5.56393611483">
		<tag k="fixme" v="consider seamark:type=rock or natural=shoal" />
		<tag k="name" v="Kråke" />
		<tag k="place" v="islet" />
		<tag k="ssr:stedsnr" v="387430" />
	</node>
	<node id="-23040" lat="58.8560055512" lon="5.58134721519">
		<tag k="name" v="Austbø" />
		<tag k="place" v="farm" />
		<tag k="ssr:stedsnr" v="387422" />
	</node>
	<node id="-23039" lat="58.8597861101" lon="5.57118333807">
		<tag k="fixme" v="consider natural=peak for the most distinct mountains in the district" />
		<tag k="name" v="Svartaberg" />
		<tag k="natural" v="hill" />
		<tag k="place" v="locality" />
		<tag k="ssr:stedsnr" v="387420" />
	</node>
	<node id="-23038" lat="58.8316944445" lon="5.55627777545">
		<tag k="name" v="Svensrudla" />
		<tag k="natural" v="stone" />
		<tag k="ssr:stedsnr" v="387417" />
	</node>
	<node id="-23037" lat="58.8297593818" lon="5.57617593842">
		<tag k="name" v="Havtun gard" />
		<tag k="place" v="farm" />
		<tag k="ssr:stedsnr" v="387415" />
	</node>
	<node id="-23036" lat="58.9379722238" lon="5.56401666632">
		<tag k="fixme" v="consider seamark:type=rock or natural=shoal" />
		<tag k="name" v="Risbitskjer" />
		<tag k="place" v="islet" />
		<tag k="ssr:stedsnr" v="387398" />
	</node>
	<node id="-23035" lat="58.9454833297" lon="5.58999722436">
		<tag k="name" v="Storemyr" />
		<tag k="natural" v="wetland" />
		<tag k="ssr:stedsnr" v="387394" />
	</node>
	<node id="-23034" lat="58.8591805562" lon="5.62579165846">
		<tag k="name" v="Holareim" />
		<tag k="place" v="farm" />
		<tag k="ssr:stedsnr" v="387314" />
	</node>
	<node id="-23033" lat="58.8479166662" lon="5.62746665896">
		<tag k="name" v="Følingsholen" />
		<tag k="place" v="locality" />
		<tag k="ssr:stedsnr" v="387310" />
	</node>
	<node id="-23032" lat="58.8966249963" lon="5.67383334128">
		<tag k="fixme" v="consider natural=peak for the most distinct mountains in the district" />
		<tag k="name" v="Eikeberget" />
		<tag k="natural" v="hill" />
		<tag k="place" v="locality" />
		<tag k="ssr:stedsnr" v="387297" />
	</node>
	<node id="-23031" lat="58.8911527767" lon="5.69045555919">
		<tag k="name" v="Skadberg bruk" />
		<tag k="place" v="farm" />
		<tag k="ssr:stedsnr" v="387288" />
	</node>
	<node id="-23030" lat="58.8934444406" lon="5.61678333695">
		<tag k="name" v="Einarsminne" />
		<tag k="place" v="farm" />
		<tag k="ssr:stedsnr" v="387282" />
	</node>
	<node id="-23029" lat="58.850147224" lon="5.57018055769">
		<tag k="fixme" v="consider natural=peak for the most distinct mountains in the district" />
		<tag k="name" v="Kodleberget" />
		<tag k="natural" v="hill" />
		<tag k="place" v="locality" />
		<tag k="ssr:stedsnr" v="387084" />
	</node>
	<node id="-23028" lat="58.8839055548" lon="5.47612777336">
		<tag k="alt_name" v="Bjørnskót" />
		<tag k="fixme" v="consider seamark:type=rock or natural=shoal" />
		<tag k="name" v="Bjørnskot" />
		<tag k="place" v="islet" />
		<tag k="ssr:stedsnr" v="365960" />
	</node>
	<node id="-23027" lat="58.8715749979" lon="5.58617221536">
		<tag k="name" v="Trælen" />
		<tag k="place" v="farm" />
		<tag k="ssr:stedsnr" v="365957" />
	</node>
	<node id="-23026" lat="58.8705805586" lon="5.48244165833">
		<tag k="name" v="Gårskot" />
		<tag k="place" v="islet" />
		<tag k="ssr:stedsnr" v="365956" />
	</node>
	<node id="-23025" lat="58.8166888928" lon="5.58639166152">
		<tag k="name" v="Timpelen" />
		<tag k="place" v="farm" />
		<tag k="ssr:stedsnr" v="365902" />
	</node>
	<node id="-23024" lat="58.9272250025" lon="5.63029721434">
		<tag k="name" v="Hagøyna" />
		<tag k="place" v="islet" />
		<tag k="ssr:stedsnr" v="365064" />
	</node>
	<node id="-23023" lat="58.9421791247" lon="5.45564765958">
		<tag k="name" v="Stangarholmen" />
		<tag k="place" v="islet" />
		<tag k="ssr:stedsnr" v="365044" />
	</node>
	<node id="-23022" lat="58.9508805585" lon="5.59849999818">
		<tag k="name" v="Jåsund" />
		<tag k="place" v="farm" />
		<tag k="ssr:stedsnr" v="365039" />
	</node>
	<node id="-23021" lat="58.8484444474" lon="5.58418333687">
		<tag k="name" v="Eikeberget" />
		<tag k="natural" v="hill" />
		<tag k="place" v="locality" />
		<tag k="ssr:stedsnr" v="364985" />
	</node>
	<node id="-23020" lat="58.9725111098" lon="5.46768888357">
		<tag k="name" v="Hugen" />
		<tag k="place" v="islet" />
		<tag k="ssr:stedsnr" v="364138" />
	</node>
	<node id="-23019" lat="58.9681555543" lon="5.50333055524">
		<tag k="fixme" v="consider seamark:type=rock or natural=shoal" />
		<tag k="name" v="Gåsa" />
		<tag k="place" v="islet" />
		<tag k="ssr:stedsnr" v="364073" />
	</node>
	<node id="-23018" lat="58.9126999997" lon="5.66427500349">
		<tag k="name" v="Strandvik" />
		<tag k="place" v="farm" />
		<tag k="ssr:stedsnr" v="364015" />
	</node>
	<node id="-23017" lat="58.9096696423" lon="5.65613264127">
		<tag k="fixme" v="consider place=hamlet" />
		<tag k="name" v="Sørnes" />
		<tag k="old_name" v="Saurnes" />
		<tag k="place" v="farm" />
		<tag k="ssr:stedsnr" v="364014" />
	</node>
	<node id="-23016" lat="58.9278888859" lon="5.60915278066">
		<tag k="name" v="Urda" />
		<tag k="place" v="farm" />
		<tag k="ssr:stedsnr" v="364012" />
	</node>
	<node id="-23015" lat="58.9047583372" lon="5.44719722797">
		<tag k="name" v="Store Hugjen" />
		<tag k="place" v="islet" />
		<tag k="ssr:stedsnr" v="362196" />
	</node>
	<node id="-23014" lat="58.9498333351" lon="5.44899445066">
		<tag k="name" v="Litla Ståbelen" />
		<tag k="place" v="islet" />
		<tag k="ssr:stedsnr" v="361204" />
	</node>
	<node id="-23013" lat="58.92315556" lon="5.60595834102">
		<tag k="bridge" v="yes" />
		<tag k="layer" v="1" />
		<tag k="name" v="Hammaren" />
		<tag k="ssr:stedsnr" v="350628" />
	</node>
	<node id="-23012" lat="58.9435138878" lon="5.58248333084">
		<tag k="bridge" v="yes" />
		<tag k="layer" v="1" />
		<tag k="name" v="Notvegen" />
		<tag k="ssr:stedsnr" v="350625" />
	</node>
	<node id="-23011" lat="58.8321388849" lon="5.59728333143">
		<tag k="bridge" v="yes" />
		<tag k="layer" v="1" />
		<tag k="name" v="Dysjaland" />
		<tag k="ssr:stedsnr" v="350592" />
	</node>
	<node id="-23010" lat="58.8625111074" lon="5.55366389333">
		<tag k="fixme" v="consider seamark:type=rock or natural=shoal" />
		<tag k="name" v="Kverna" />
		<tag k="place" v="islet" />
		<tag k="ssr:stedsnr" v="342748" />
	</node>
	<node id="-23009" lat="58.9358493899" lon="5.60473908515">
		<tag k="junction" v="yes" />
		<tag k="name" v="Hagakrossen" />
		<tag k="place" v="locality" />
		<tag k="ssr:stedsnr" v="342249" />
	</node>
	<node id="-23008" lat="58.9478999962" lon="5.54049722649">
		<tag k="name" v="Djubaflua" />
		<tag k="place" v="locality" />
		<tag k="seamark:type" v="rock" />
		<tag k="ssr:stedsnr" v="331486" />
	</node>
	<node id="-23007" lat="58.959691663" lon="5.59534167479">
		<tag k="name" v="Krabbaviga" />
		<tag k="natural" v="bay" />
		<tag k="ssr:stedsnr" v="331484" />
	</node>
	<node id="-23006" lat="58.8575750012" lon="5.59171111911">
		<tag k="fixme" v="consider natural=peak for the most distinct mountains in the district" />
		<tag k="name" v="Klippen" />
		<tag k="natural" v="hill" />
		<tag k="place" v="locality" />
		<tag k="ssr:stedsnr" v="327382" />
	</node>
	<node id="-23005" lat="58.8598858083" lon="5.60236338004">
		<tag k="name" v="Einhaug" />
		<tag k="natural" v="hill" />
		<tag k="place" v="locality" />
		<tag k="ssr:stedsnr" v="327381" />
	</node>
	<node id="-23004" lat="58.8599777736" lon="5.56712777499">
		<tag k="name" v="Lønning" />
		<tag k="place" v="farm" />
		<tag k="ssr:stedsnr" v="327376" />
	</node>
	<node id="-23003" lat="58.9223444424" lon="5.50486666522">
		<tag k="name" v="Sjolikgrunden" />
		<tag k="place" v="islet" />
		<tag k="ssr:stedsnr" v="327363" />
	</node>
	<node id="-23002" lat="58.9114083325" lon="5.66146944367">
		<tag k="name" v="Sørnesvågen" />
		<tag k="natural" v="bay" />
		<tag k="ssr:stedsnr" v="327285" />
	</node>
	<node id="-23001" lat="58.8596694451" lon="5.66764166518">
		<tag k="name" v="Skas/Heigre-kanalen" />
		<tag k="ssr:stedsnr" v="327278" />
		<tag k="waterway" v="canal" />
	</node>
	<node id="-23000" lat="58.900169441" lon="5.63610555027">
		<tag k="name" v="Sømmevågen" />
		<tag k="natural" v="bay" />
		<tag k="ssr:stedsnr" v="327243" />
	</node>
	<node id="-22999" lat="58.9014083365" lon="5.64485276954">
		<tag k="name" v="Kråkebakkane" />
		<tag k="natural" v="hill" />
		<tag k="place" v="locality" />
		<tag k="ssr:stedsnr" v="327241" />
	</node>
	<node id="-22998" lat="58.8437166704" lon="5.56148054996">
		<tag k="name" v="Nadaskjeret" />
		<tag k="natural" v="cape" />
		<tag k="ssr:stedsnr" v="327080" />
	</node>
	<node id="-22997" lat="58.8437277806" lon="5.59510278177">
		<tag k="name" v="Høgeholen" />
		<tag k="natural" v="hill" />
		<tag k="place" v="locality" />
		<tag k="ssr:stedsnr" v="327079" />
	</node>
	<node id="-22996" lat="58.9399388886" lon="5.59527777253">
		<tag k="name" v="Rodamyr" />
		<tag k="natural" v="wetland" />
		<tag k="ssr:stedsnr" v="327339" />
	</node>
	<node id="-22995" lat="58.9057333352" lon="5.67488333434">
		<tag k="name" v="Grytrøysa" />
		<tag k="natural" v="scree" />
		<tag k="ssr:stedsnr" v="327176" />
	</node>
	<node id="-22994" lat="58.9266833369" lon="5.68098332679">
		<tag k="name" v="Hundasteinen" />
		<tag k="natural" v="stone" />
		<tag k="ssr:stedsnr" v="327168" />
	</node>
	<node id="-22993" lat="58.9076111132" lon="5.64710278448">
		<tag k="name" v="Rauesteinen" />
		<tag k="natural" v="cape" />
		<tag k="ssr:stedsnr" v="327287" />
	</node>
	<node id="-22992" lat="58.8358333339" lon="5.55138889198">
		<tag k="name" v="Hellestøstranden" />
		<tag k="natural" v="beach" />
		<tag k="place" v="locality" />
		<tag k="ssr:stedsnr" v="324944" />
	</node>
	<node id="-22991" lat="58.9151604801" lon="5.55989833994">
		<tag k="name" v="Gyrdingane" />
		<tag k="place" v="islet" />
		<tag k="ssr:stedsnr" v="324928" />
	</node>
	<node id="-22990" lat="58.8641166674" lon="5.48672500356">
		<tag k="alt_name" v="Sørskót" />
		<tag k="fixme" v="consider seamark:type=rock or natural=shoal" />
		<tag k="name" v="Sørskot" />
		<tag k="place" v="islet" />
		<tag k="ssr:stedsnr" v="305000" />
	</node>
	<node id="-22989" lat="58.8501062829" lon="5.56704456738">
		<tag k="alt_name" v="Hedlestøveten" />
		<tag k="name" v="Hellestøveten" />
		<tag k="natural" v="hill" />
		<tag k="place" v="locality" />
		<tag k="ssr:stedsnr" v="304977" />
	</node>
	<node id="-22988" lat="58.9109470827" lon="5.61310914126">
		<tag k="fixme" v="consider place=hamlet" />
		<tag k="name" v="Hogstad" />
		<tag k="place" v="farm" />
		<tag k="ssr:stedsnr" v="304028" />
	</node>
	<node id="-22987" lat="58.9110240783" lon="5.63164458756">
		<tag k="fixme" v="multiple name tags, choose one and add the other to alt_name" />
		<tag k="name" v="Hogstholmen;Langøya" />
		<tag k="place" v="islet" />
		<tag k="ssr:stedsnr" v="304022" />
	</node>
	<node id="-22986" lat="58.9280305573" lon="5.64854999868">
		<tag k="alt_name" v="Hafrsfjorden" />
		<tag k="bay" v="fjord" />
		<tag k="name" v="Hafrsfjord" />
		<tag k="natural" v="bay" />
		<tag k="ssr:stedsnr" v="304018" />
	</node>
	<node id="-22985" lat="58.9352111081" lon="5.60323333447">
		<tag k="amenity" v="place_of_worship" />
		<tag k="denomination" v="lutheran" />
		<tag k="name" v="Tananger kirke" />
		<tag k="religion" v="christian" />
		<tag k="ssr:stedsnr" v="211447" />
	</node>
	<node id="-22984" lat="58.9459361098" lon="5.5680000043">
		<tag k="fixme" v="consider seamark:type=rock or natural=shoal" />
		<tag k="name" v="Kuppmannsskjeret" />
		<tag k="place" v="islet" />
		<tag k="ssr:stedsnr" v="210494" />
	</node>
	<node id="-22983" lat="58.9450305511" lon="5.56774443835">
		<tag k="name" v="Skarvasteinen" />
		<tag k="place" v="locality" />
		<tag k="seamark:type" v="rock" />
		<tag k="ssr:stedsnr" v="210491" />
	</node>
	<node id="-22982" lat="58.9105694456" lon="5.5988250019">
		<tag k="name" v="Teigen" />
		<tag k="place" v="farm" />
		<tag k="ssr:stedsnr" v="206777" />
	</node>
	<node id="-22981" lat="58.9115527807" lon="5.58017222557">
		<tag k="name" v="Hagen" />
		<tag k="natural" v="cape" />
		<tag k="ssr:stedsnr" v="206774" />
	</node>
	<node id="-22980" lat="58.8645944476" lon="5.5578499911">
		<tag k="name" v="Nudavika" />
		<tag k="natural" v="bay" />
		<tag k="ssr:stedsnr" v="206385" />
	</node>
	<node id="-22979" lat="58.868025003" lon="5.57141111895">
		<tag k="fixme" v="consider natural=peak for the most distinct mountains in the district" />
		<tag k="name" v="Mælen" />
		<tag k="natural" v="hill" />
		<tag k="place" v="locality" />
		<tag k="ssr:stedsnr" v="206376" />
	</node>
	<node id="-22978" lat="58.9186027756" lon="5.50876111167">
		<tag k="name" v="Kalaodden" />
		<tag k="natural" v="cape" />
		<tag k="ssr:stedsnr" v="206362" />
	</node>
	<node id="-22977" lat="58.9246694458" lon="5.50637499933">
		<tag k="alt_name" v="Rottsodden" />
		<tag k="name" v="Rottnesodden" />
		<tag k="natural" v="cape" />
		<tag k="ssr:stedsnr" v="206359" />
	</node>
	<node id="-22976" lat="58.9471499985" lon="5.565127784">
		<tag k="fixme" v="consider seamark:type=rock or natural=shoal" />
		<tag k="name" v="Koppmannskjeret" />
		<tag k="place" v="islet" />
		<tag k="ssr:stedsnr" v="206344" />
	</node>
	<node id="-22975" lat="58.9103666695" lon="5.50971389715">
		<tag k="name" v="Stora Sperrevika" />
		<tag k="natural" v="bay" />
		<tag k="ssr:stedsnr" v="206335" />
	</node>
	<node id="-22974" lat="58.9097833362" lon="5.50740555011">
		<tag k="name" v="Litla Sperrevika" />
		<tag k="natural" v="bay" />
		<tag k="ssr:stedsnr" v="206332" />
	</node>
	<node id="-22973" lat="58.9104999973" lon="5.50076666451">
		<tag k="name" v="Konteskjeret" />
		<tag k="place" v="islet" />
		<tag k="ssr:stedsnr" v="206330" />
	</node>
	<node id="-22972" lat="58.9354000033" lon="5.6265027688">
		<tag k="name" v="Hansaberget" />
		<tag k="natural" v="hill" />
		<tag k="place" v="locality" />
		<tag k="ssr:stedsnr" v="206325" />
	</node>
	<node id="-22971" lat="58.9384250001" lon="5.62438889178">
		<tag k="name" v="Grøthaug" />
		<tag k="natural" v="hill" />
		<tag k="place" v="locality" />
		<tag k="ssr:stedsnr" v="206324" />
	</node>
	<node id="-22970" lat="58.8921027777" lon="5.67116944792">
		<tag k="name" v="Åsen" />
		<tag k="place" v="farm" />
		<tag k="ssr:stedsnr" v="206251" />
	</node>
	<node id="-22969" lat="58.9041222185" lon="5.65156111523">
		<tag k="fixme" v="consider natural=peak for the most distinct mountains in the district" />
		<tag k="name" v="Joabakken" />
		<tag k="natural" v="hill" />
		<tag k="place" v="locality" />
		<tag k="ssr:stedsnr" v="206237" />
	</node>
	<node id="-22968" lat="58.9019055523" lon="5.66013611003">
		<tag k="fixme" v="consider natural=peak for the most distinct mountains in the district" />
		<tag k="name" v="Smalaberget" />
		<tag k="natural" v="hill" />
		<tag k="place" v="locality" />
		<tag k="ssr:stedsnr" v="206236" />
	</node>
	<node id="-22967" lat="58.8997694403" lon="5.65550833756">
		<tag k="name" v="Forus-kanalen" />
		<tag k="ssr:stedsnr" v="206235" />
		<tag k="waterway" v="canal" />
	</node>
	<node id="-22965" lat="58.8630911469" lon="5.56936964502">
		<tag k="alt_name" v="Ølberg" />
		<tag k="fixme" v="consider place=hamlet" />
		<tag k="name" v="Ølbør" />
		<tag k="place" v="farm" />
		<tag k="ssr:stedsnr" v="183998" />
	</node>
	<node id="-22964" lat="58.8698666661" lon="5.61653611658">
		<tag k="alt_name" v="Sola" />
		<tag k="name" v="Solamarka" />
		<tag k="old_name" v="Solamarkja" />
		<tag k="place" v="farm" />
		<tag k="ssr:stedsnr" v="183996" />
	</node>
	<node id="-22963" lat="58.8791361101" lon="5.42428888212">
		<tag k="alt_name" v="Spretten" />
		<tag k="fixme" v="consider seamark:type=rock or natural=shoal" />
		<tag k="name" v="Sprette" />
		<tag k="place" v="islet" />
		<tag k="ssr:stedsnr" v="183953" />
	</node>
	<node id="-22962" lat="58.8292511233" lon="5.57928611107">
		<tag k="fixme" v="consider place=hamlet" />
		<tag k="name" v="Byberg" />
		<tag k="place" v="farm" />
		<tag k="ssr:stedsnr" v="183901" />
	</node>
	<node id="-22960" lat="58.8621013832" lon="5.59788331122">
		<tag k="alt_name" v="Klingseim" />
		<tag k="fixme" v="consider place=hamlet" />
		<tag k="name" v="Klingshei" />
		<tag k="place" v="farm" />
		<tag k="ssr:stedsnr" v="182987" />
	</node>
	<node id="-22959" lat="58.8915250017" lon="5.44815555802">
		<tag k="name" v="Nordtjør" />
		<tag k="place" v="islet" />
		<tag k="ssr:stedsnr" v="182956" />
	</node>
	<node id="-22958" lat="58.8920833353" lon="5.65665832946">
		<tag k="name" v="Sande" />
		<tag k="place" v="farm" />
		<tag k="ssr:stedsnr" v="182950" />
	</node>
	<node id="-22957" lat="58.9140944446" lon="5.64897778234">
		<tag k="name" v="Sømsøy" />
		<tag k="place" v="islet" />
		<tag k="ssr:stedsnr" v="182017" />
	</node>
	<node id="-22956" lat="58.9164388916" lon="5.60869443704">
		<tag k="alt_name" v="Vardåsen, nordre;n. Varåsen" />
		<tag k="fixme" v="consider natural=peak for the most distinct mountains in the district" />
		<tag k="name" v="Nordre Vardåsen" />
		<tag k="natural" v="hill" />
		<tag k="place" v="locality" />
		<tag k="ssr:stedsnr" v="182015" />
	</node>
	<node id="-22955" lat="58.1513083303" lon="6.29712777181">
		<tag k="name" v="Nordsjøen" />
		<tag k="name:en" v="North Sea" />
		<tag k="name:no" v="Nordsjøen" />
		<tag k="place" v="sea" />
		<tag k="ssr:stedsnr" v="182096" />
	</node>
	<node id="-22954" lat="58.9181602176" lon="5.491717976">
		<tag k="alt_name" v="Brønnesskjeret" />
		<tag k="fixme" v="consider seamark:type=rock or natural=shoal" />
		<tag k="name" v="Brønnesskjera" />
		<tag k="old_name" v="Brønneskjera" />
		<tag k="place" v="islet" />
		<tag k="ssr:stedsnr" v="182001" />
	</node>
	<node id="-22953" lat="58.9436472265" lon="5.48215556025">
		<tag k="name" v="Nordre Frøsholmane" />
		<tag k="place" v="islet" />
		<tag k="ssr:stedsnr" v="180188" />
	</node>
	<node id="-22952" lat="58.9314777739" lon="5.69653889088">
		<tag k="bridge" v="yes" />
		<tag k="layer" v="1" />
		<tag k="name" v="Radiovegen" />
		<tag k="ssr:stedsnr" v="168644" />
	</node>
	<node id="-22951" lat="58.8659472241" lon="5.63425277058">
		<tag k="bridge" v="yes" />
		<tag k="layer" v="1" />
		<tag k="name" v="Stangeland" />
		<tag k="ssr:stedsnr" v="168641" />
	</node>
	<node id="-22950" lat="58.8839777813" lon="5.46066666099">
		<tag k="name" v="Mattisen" />
		<tag k="place" v="locality" />
		<tag k="seamark:type" v="rock" />
		<tag k="ssr:stedsnr" v="160827" />
	</node>
	<node id="-22948" lat="58.9493305589" lon="5.45170555298">
		<tag k="name" v="Stora Ståbelen" />
		<tag k="place" v="islet" />
		<tag k="ssr:stedsnr" v="300200" />
	</node>
	<node id="-22947" lat="58.9433388849" lon="5.4550361107">
		<tag k="name" v="Smørboen" />
		<tag k="place" v="locality" />
		<tag k="seamark:type" v="rock" />
		<tag k="ssr:stedsnr" v="149490" />
	</node>
	<node id="-22946" lat="58.8533416655" lon="5.55122222205">
		<tag k="fixme" v="consider natural=peak for the most distinct mountains in the district" />
		<tag k="name" v="Fårleberget" />
		<tag k="natural" v="hill" />
		<tag k="place" v="locality" />
		<tag k="ssr:stedsnr" v="145741" />
	</node>
	<node id="-22945" lat="58.9585222219" lon="5.57513332968">
		<tag k="fixme" v="consider seamark:type=rock or natural=shoal" />
		<tag k="name" v="Svartaskjer" />
		<tag k="place" v="islet" />
		<tag k="ssr:stedsnr" v="145444" />
	</node>
	<node id="-22944" lat="58.8392055581" lon="5.58795278488">
		<tag k="name" v="Kråkhaug" />
		<tag k="natural" v="hill" />
		<tag k="place" v="locality" />
		<tag k="ssr:stedsnr" v="145398" />
	</node>
	<node id="-22943" lat="58.9199250035" lon="5.50483333393">
		<tag k="name" v="Lamholmen" />
		<tag k="place" v="islet" />
		<tag k="ssr:stedsnr" v="145361" />
	</node>
	<node id="-22942" lat="58.9234027762" lon="5.51114722486">
		<tag k="name" v="Nordvik" />
		<tag k="natural" v="bay" />
		<tag k="ssr:stedsnr" v="145357" />
	</node>
	<node id="-22941" lat="58.922372225" lon="5.51727500105">
		<tag k="name" v="Humlaneset" />
		<tag k="natural" v="cape" />
		<tag k="ssr:stedsnr" v="145356" />
	</node>
	<node id="-22940" lat="58.9125138861" lon="5.50058888763">
		<tag k="name" v="Moldvika" />
		<tag k="natural" v="bay" />
		<tag k="ssr:stedsnr" v="145328" />
	</node>
	<node id="-22939" lat="58.9040666665" lon="5.6896361157">
		<tag k="fixme" v="consider natural=peak for the most distinct mountains in the district" />
		<tag k="name" v="Kidlingberget" />
		<tag k="natural" v="hill" />
		<tag k="place" v="locality" />
		<tag k="ssr:stedsnr" v="145246" />
	</node>
	<node id="-22938" lat="58.8908138894" lon="5.67273889454">
		<tag k="name" v="Jamnholen" />
		<tag k="natural" v="hill" />
		<tag k="place" v="locality" />
		<tag k="ssr:stedsnr" v="145242" />
	</node>
	<node id="-22937" lat="58.8875277746" lon="5.62158054797">
		<tag k="fixme" v="consider place=hamlet" />
		<tag k="name" v="Utsola" />
		<tag k="place" v="farm" />
		<tag k="ssr:stedsnr" v="145238" />
	</node>
	<node id="-22936" lat="58.9243194446" lon="5.68646389528">
		<tag k="name" v="Hesta steinen" />
		<tag k="natural" v="stone" />
		<tag k="ssr:stedsnr" v="145162" />
	</node>
	<node id="-22935" lat="58.9562277798" lon="5.60850833675">
		<tag k="historic" v="heritage" />
		<tag k="name" v="Pigghella" />
		<tag k="place" v="locality" />
		<tag k="ssr:stedsnr" v="145153" />
	</node>
	<node id="-22934" lat="58.8407138929" lon="5.57596111684">
		<tag k="fixme" v="consider natural=peak for the most distinct mountains in the district" />
		<tag k="name" v="Hanaberget" />
		<tag k="natural" v="hill" />
		<tag k="place" v="locality" />
		<tag k="ssr:stedsnr" v="145070" />
	</node>
	<node id="-22933" lat="58.9049260639" lon="5.56460047542">
		<tag k="fixme" v="consider seamark:type=rock or natural=shoal" />
		<tag k="name" v="Gangvarskjeret" />
		<tag k="place" v="islet" />
		<tag k="ssr:stedsnr" v="142955" />
	</node>
	<node id="-22932" lat="58.8855555549" lon="5.55862500185">
		<tag k="name" v="Djupafluna" />
		<tag k="place" v="locality" />
		<tag k="seamark:type" v="rock" />
		<tag k="ssr:stedsnr" v="141795" />
	</node>
	<node id="-22931" lat="58.8424416704" lon="5.5758861162">
		<tag k="alt_name" v="Tormovarden" />
		<tag k="name" v="Tormodvarden" />
		<tag k="natural" v="hill" />
		<tag k="old_name" v="Turrmovarden" />
		<tag k="place" v="locality" />
		<tag k="ssr:stedsnr" v="122985" />
	</node>
	<node id="-22930" lat="58.8882722256" lon="5.54871944442">
		<tag k="fixme" v="consider seamark:type=rock or natural=shoal" />
		<tag k="name" v="Svartaskjeret" />
		<tag k="old_name" v="Svartaskjer" />
		<tag k="place" v="islet" />
		<tag k="ssr:stedsnr" v="122961" />
	</node>
	<node id="-22929" lat="58.887138892" lon="5.47968888724">
		<tag k="alt_name" v="Nordskót" />
		<tag k="fixme" v="consider seamark:type=rock or natural=shoal" />
		<tag k="name" v="Nordskot" />
		<tag k="place" v="islet" />
		<tag k="ssr:stedsnr" v="122955" />
	</node>
	<node id="-22928" lat="58.8901722242" lon="5.68618333515">
		<tag k="name" v="Bjergsted" />
		<tag k="place" v="farm" />
		<tag k="ssr:stedsnr" v="122948" />
	</node>
	<node id="-22927" lat="58.8738190454" lon="5.66013839697">
		<tag k="name" v="Stangaland" />
		<tag k="place" v="hamlet" />
		<tag k="ssr:stedsnr" v="122939" />
	</node>
	<node id="-22926" lat="58.8700847043" lon="5.56674496374">
		<tag k="alt_name" v="Ølbør hamn" />
		<tag k="landuse" v="harbour" />
		<tag k="name" v="Ølbørhamna" />
		<tag k="seamark:type" v="harbour" />
		<tag k="ssr:stedsnr" v="122932" />
	</node>
	<node id="-22925" lat="58.9618361143" lon="5.48366110272">
		<tag k="fixme" v="consider seamark:type=rock or natural=shoal" />
		<tag k="name" v="Goaskjera" />
		<tag k="place" v="islet" />
		<tag k="ssr:stedsnr" v="122074" />
	</node>
	<node id="-22924" lat="58.9462333326" lon="5.60514165887">
		<tag k="name" v="Melsviga" />
		<tag k="natural" v="bay" />
		<tag k="ssr:stedsnr" v="122037" />
	</node>
	<node id="-22923" lat="58.900875001" lon="5.58716943829">
		<tag k="fixme" v="consider place=hamlet" />
		<tag k="name" v="Kolnes" />
		<tag k="place" v="village" />
		<tag k="ssr:stedsnr" v="122032" />
	</node>
	<node id="-22922" lat="58.9040861135" lon="5.6230527837">
		<tag k="alt_name" v="Strandsnes" />
		<tag k="name" v="Strandnes" />
		<tag k="natural" v="cape" />
		<tag k="ssr:stedsnr" v="122025" />
	</node>
	<node id="-22921" lat="58.9059116806" lon="5.67854747808">
		<tag k="fixme" v="consider place=hamlet" />
		<tag k="name" v="Røyneberg" />
		<tag k="place" v="farm" />
		<tag k="ssr:stedsnr" v="122024" />
	</node>
	<node id="-22920" lat="58.9145916637" lon="5.59980555327">
		<tag k="alt_name" v="Tjora" />
		<tag k="name" v="Nord-Tjora" />
		<tag k="place" v="farm" />
		<tag k="ssr:stedsnr" v="121028" />
	</node>
	<node id="-22919" lat="58.9158853406" lon="5.56135372098">
		<tag k="name" v="Nordre Gyrdingen" />
		<tag k="place" v="islet" />
		<tag k="ssr:stedsnr" v="121007" />
	</node>
	<node id="-22918" lat="58.9214083355" lon="5.50758334034">
		<tag k="name" v="Rott" />
		<tag k="place" v="island" />
		<tag k="ssr:stedsnr" v="121002" />
	</node>
	<node id="-22917" lat="58.9265344793" lon="5.50300416653">
		<tag k="name" v="Rottnesflu" />
		<tag k="place" v="locality" />
		<tag k="seamark:type" v="rock" />
		<tag k="ssr:stedsnr" v="119705" />
	</node>
	<node id="-22916" lat="58.8829111128" lon="5.48815556297">
		<tag k="name" v="Flatbåen" />
		<tag k="place" v="locality" />
		<tag k="seamark:type" v="rock" />
		<tag k="ssr:stedsnr" v="100808" />
	</node>
	<node id="-22915" lat="58.8664388877" lon="5.5536194459">
		<tag k="name" v="Nesodden" />
		<tag k="natural" v="cape" />
		<tag k="ssr:stedsnr" v="100772" />
	</node>
	<node id="-22914" lat="58.8861722238" lon="5.68105833456">
		<tag k="name" v="Kjerrberg" />
		<tag k="natural" v="hill" />
		<tag k="place" v="locality" />
		<tag k="ssr:stedsnr" v="99348" />
	</node>
	<node id="-22913" lat="58.9687583331" lon="5.53057221573">
		<tag k="name" v="Sakrishausen" />
		<tag k="place" v="locality" />
		<tag k="seamark:type" v="rock" />
		<tag k="ssr:stedsnr" v="89522" />
	</node>
	<node id="-22912" lat="58.9626055576" lon="5.56947500696">
		<tag k="name" v="Einarskia" />
		<tag k="place" v="locality" />
		<tag k="seamark:type" v="rock" />
		<tag k="ssr:stedsnr" v="89520" />
	</node>
	<node id="-22911" lat="58.9411499997" lon="5.50673888528">
		<tag k="name" v="Frøsboen" />
		<tag k="place" v="locality" />
		<tag k="seamark:type" v="rock" />
		<tag k="ssr:stedsnr" v="89514" />
	</node>
	<node id="-22910" lat="58.9675611085" lon="5.40450832669">
		<tag k="name" v="Snørsgrunnane" />
		<tag k="natural" v="shoal" />
		<tag k="place" v="locality" />
		<tag k="ssr:stedsnr" v="89317" />
	</node>
	<node id="-22909" lat="58.9666888854" lon="5.47073611486">
		<tag k="name" v="Den dumme" />
		<tag k="place" v="locality" />
		<tag k="seamark:type" v="rock" />
		<tag k="ssr:stedsnr" v="89316" />
	</node>
	<node id="-22908" lat="58.9124019832" lon="5.67716707213">
		<tag k="alt_name" v="Sørnes" />
		<tag k="amenity" v="place_of_worship" />
		<tag k="denomination" v="lutheran" />
		<tag k="name" v="Sørnes kirke" />
		<tag k="religion" v="christian" />
		<tag k="ssr:stedsnr" v="85651" />
	</node>
	<node id="-22907" lat="58.8877111152" lon="5.61479722752">
		<tag k="name" v="Espeberga" />
		<tag k="natural" v="hill" />
		<tag k="place" v="locality" />
		<tag k="ssr:stedsnr" v="85199" />
	</node>
	<node id="-22906" lat="58.9049333333" lon="5.64354166123">
		<tag k="fixme" v="consider natural=peak for the most distinct mountains in the district" />
		<tag k="name" v="Duberg" />
		<tag k="natural" v="hill" />
		<tag k="place" v="locality" />
		<tag k="ssr:stedsnr" v="85194" />
	</node>
	<node id="-22905" lat="58.9239507285" lon="5.6092007275">
		<tag k="fixme" v="consider place=hamlet" />
		<tag k="name" v="Litle Risa" />
		<tag k="place" v="farm" />
		<tag k="ssr:stedsnr" v="85236" />
	</node>
	<node id="-22904" lat="58.893761108" lon="5.58700833593">
		<tag k="fixme" v="consider seamark:type=rock or natural=shoal" />
		<tag k="name" v="Klopeskjer" />
		<tag k="place" v="islet" />
		<tag k="ssr:stedsnr" v="84771" />
	</node>
	<node id="-22903" lat="58.9498972191" lon="5.58165000646">
		<tag k="fixme" v="consider natural=peak for the most distinct mountains in the district" />
		<tag k="name" v="Torvberget" />
		<tag k="natural" v="hill" />
		<tag k="place" v="locality" />
		<tag k="ssr:stedsnr" v="84499" />
	</node>
	<node id="-22902" lat="58.8614055539" lon="5.55544444322">
		<tag k="name" v="Måkeskjer" />
		<tag k="place" v="islet" />
		<tag k="ssr:stedsnr" v="84398" />
	</node>
	<node id="-22901" lat="58.8321111127" lon="5.57817500772">
		<tag k="name" v="Harvalandsvatnet" />
		<tag k="natural" v="water" />
		<tag k="ssr:stedsnr" v="84390" />
		<tag k="water" v="lake" />
	</node>
	<node id="-22900" lat="58.8648194406" lon="5.60174722583">
		<tag k="name" v="Auglend" />
		<tag k="old_name" v="Auklend" />
		<tag k="place" v="farm" />
		<tag k="ssr:stedsnr" v="62997" />
	</node>
	<node id="-22899" lat="58.8877074713" lon="5.65940240671">
		<tag k="fixme" v="consider place=hamlet" />
		<tag k="name" v="Sande" />
		<tag k="place" v="farm" />
		<tag k="ssr:stedsnr" v="62944" />
	</node>
	<node id="-22898" lat="58.9583611152" lon="5.57416665954">
		<tag k="alt_name" v="Frøsholmane, nordre;store Fjørnesholmen" />
		<tag k="name" v="Nordre Frøsholmane" />
		<tag k="place" v="islet" />
		<tag k="ssr:stedsnr" v="62042" />
	</node>
	<node id="-22897" lat="58.856490083" lon="5.55422457201">
		<tag k="fixme" v="consider place=hamlet" />
		<tag k="name" v="Vigdel" />
		<tag k="place" v="farm" />
		<tag k="ssr:stedsnr" v="61985" />
	</node>
	<node id="-22896" lat="58.8902054835" lon="5.61253449452">
		<tag k="alt_name" v="Kjørkje-Sola;Sola (Kjørkje-Sola);Sola (Kyrkje-Sola)" />
		<tag k="fixme" v="multiple name tags, choose one and add the other to alt_name; consider place=hamlet" />
		<tag k="name" v="Sola;Kyrkje-Sola" />
		<tag k="place" v="farm" />
		<tag k="ssr:stedsnr" v="61954" />
	</node>
	<node id="-22895" lat="58.8940249956" lon="5.58896388842">
		<tag k="name" v="Stranden" />
		<tag k="natural" v="cape" />
		<tag k="old_name" v="Stranda" />
		<tag k="ssr:stedsnr" v="61951" />
	</node>
	<node id="-22894" lat="58.8979388874" lon="5.57213889514">
		<tag k="alt_name" v="Littholmen" />
		<tag k="name" v="Søre Litholmen" />
		<tag k="old_name" v="Litleholmen, s" />
		<tag k="place" v="islet" />
		<tag k="ssr:stedsnr" v="61020" />
	</node>
	<node id="-22893" lat="58.9067405143" lon="5.58390529268">
		<tag k="alt_name" v="Nord Kolnes" />
		<tag k="fixme" v="consider place=hamlet" />
		<tag k="name" v="Nord-Kolnes" />
		<tag k="place" v="farm" />
		<tag k="ssr:stedsnr" v="61018" />
	</node>
	<node id="-22892" lat="58.9022861078" lon="5.45045555737">
		<tag k="fixme" v="consider seamark:type=rock or natural=shoal" />
		<tag k="name" v="Litle Persskjeret" />
		<tag k="place" v="islet" />
		<tag k="ssr:stedsnr" v="39790" />
	</node>
	<node id="-22891" lat="58.9080000005" lon="5.57586944561">
		<tag k="name" v="Tangen" />
		<tag k="natural" v="cape" />
		<tag k="ssr:stedsnr" v="39588" />
	</node>
	<node id="-22890" lat="58.8853972246" lon="5.48206944709">
		<tag k="name" v="Bratteskót" />
		<tag k="place" v="islet" />
		<tag k="ssr:stedsnr" v="38045" />
	</node>
	<node id="-22889" lat="58.8916426248" lon="5.58878571093">
		<tag k="fixme" v="consider seamark:type=rock or natural=shoal" />
		<tag k="name" v="Seiaskjer" />
		<tag k="place" v="islet" />
		<tag k="ssr:stedsnr" v="24764" />
	</node>
	<node id="-22888" lat="58.9591888911" lon="5.57626667443">
		<tag k="name" v="Hønesundholmen" />
		<tag k="place" v="islet" />
		<tag k="ssr:stedsnr" v="24446" />
	</node>
	<node id="-22887" lat="58.9096500032" lon="5.61865556064">
		<tag k="fixme" v="consider natural=peak for the most distinct mountains in the district" />
		<tag k="name" v="Manshammar" />
		<tag k="natural" v="hill" />
		<tag k="place" v="locality" />
		<tag k="ssr:stedsnr" v="24268" />
	</node>
	<node id="-22886" lat="58.8769083313" lon="5.59628056141">
		<tag k="fixme" v="consider natural=peak for the most distinct mountains in the district" />
		<tag k="name" v="Bereimsberget" />
		<tag k="natural" v="hill" />
		<tag k="place" v="locality" />
		<tag k="ssr:stedsnr" v="24390" />
	</node>
	<node id="-22885" lat="58.8705527743" lon="5.56088055449">
		<tag k="fixme" v="consider seamark:type=rock or natural=shoal" />
		<tag k="name" v="Kubbå" />
		<tag k="place" v="islet" />
		<tag k="ssr:stedsnr" v="24389" />
	</node>
	<node id="-22884" lat="58.8264416623" lon="5.60011666225">
		<tag k="name" v="Røseneset" />
		<tag k="natural" v="wetland" />
		<tag k="ssr:stedsnr" v="24373" />
	</node>
	<node id="-22883" lat="58.8279138867" lon="5.57703611837">
		<tag k="fixme" v="consider natural=peak for the most distinct mountains in the district" />
		<tag k="name" v="Bybergsnuten" />
		<tag k="natural" v="hill" />
		<tag k="place" v="locality" />
		<tag k="ssr:stedsnr" v="24369" />
	</node>
	<node id="-22882" lat="58.8270500044" lon="5.57770833446">
		<tag k="fixme" v="consider natural=peak for the most distinct mountains in the district" />
		<tag k="name" v="Kjellehaugen" />
		<tag k="natural" v="hill" />
		<tag k="place" v="locality" />
		<tag k="ssr:stedsnr" v="24363" />
	</node>
	<node id="-22881" lat="58.9174944459" lon="5.50828333182">
		<tag k="name" v="Kalakskjeret" />
		<tag k="place" v="islet" />
		<tag k="ssr:stedsnr" v="24362" />
	</node>
	<node id="-22880" lat="58.92039167" lon="5.51227223044">
		<tag k="name" v="Heimra Øynå" />
		<tag k="place" v="island" />
		<tag k="ssr:stedsnr" v="24360" />
	</node>
	<node id="-22879" lat="58.9314083304" lon="5.57906110389">
		<tag k="name" v="Melingsundet" />
		<tag k="natural" v="strait" />
		<tag k="ssr:stedsnr" v="24347" />
	</node>
	<node id="-22878" lat="58.9099361141" lon="5.51401110869">
		<tag k="name" v="Dalhamnskjeret" />
		<tag k="place" v="islet" />
		<tag k="ssr:stedsnr" v="24340" />
	</node>
	<node id="-22877" lat="58.9337619234" lon="5.62004177406">
		<tag k="name" v="Hagavågen" />
		<tag k="natural" v="bay" />
		<tag k="ssr:stedsnr" v="24331" />
	</node>
	<node id="-22876" lat="58.9205070961" lon="5.61579613596">
		<tag k="fixme" v="consider place=hamlet" />
		<tag k="name" v="Store Risa" />
		<tag k="place" v="farm" />
		<tag k="ssr:stedsnr" v="24320" />
	</node>
	<node id="-22875" lat="58.8865611142" lon="5.58882222872">
		<tag k="name" v="Solavika" />
		<tag k="natural" v="bay" />
		<tag k="ssr:stedsnr" v="1953" />
	</node>
	<node id="-22874" lat="58.8790277755" lon="5.43428333679">
		<tag k="alt_name" v="Hengsøynå" />
		<tag k="name" v="Hengsøyna" />
		<tag k="old_name" v="Hengsøya" />
		<tag k="place" v="islet" />
		<tag k="ssr:stedsnr" v="1952" />
	</node>
	<node id="-22873" lat="58.8153416673" lon="5.58740555353">
		<tag k="name" v="Langholen" />
		<tag k="place" v="farm" />
		<tag k="ssr:stedsnr" v="1878" />
	</node>
	<node id="-22872" lat="58.8532833319" lon="5.59738055477">
		<tag k="name" v="Tippen" />
		<tag k="place" v="farm" />
		<tag k="ssr:stedsnr" v="991" />
	</node>
	<node id="-22871" lat="58.9269698708" lon="5.5716301069">
		<tag k="name" v="Laksholmen" />
		<tag k="place" v="islet" />
		<tag k="ssr:stedsnr" v="1085" />
	</node>
	<node id="-22870" lat="58.9251805581" lon="5.59090554966">
		<tag k="name" v="Risavika" />
		<tag k="natural" v="bay" />
		<tag k="old_name" v="Risaviga" />
		<tag k="ssr:stedsnr" v="1084" />
	</node>
	<node id="-22869" lat="58.9351333366" lon="5.60099722928">
		<tag k="amenity" v="place_of_worship" />
		<tag k="denomination" v="lutheran" />
		<tag k="name" v="Tananger kapell" />
		<tag k="religion" v="christian" />
		<tag k="ssr:stedsnr" v="1056" />
	</node>
	<node id="-22868" lat="58.9380611074" lon="5.48487499645">
		<tag k="alt_name" v="Frøsholmane, s" />
		<tag k="name" v="Søre Frøsholmane" />
		<tag k="place" v="islet" />
		<tag k="ssr:stedsnr" v="1055" />
	</node>
	<node id="-22867" lat="58.9475666675" lon="5.53014999248">
		<tag k="name" v="Oksafoden" />
		<tag k="natural" v="shoal" />
		<tag k="place" v="locality" />
		<tag k="ssr:stedsnr" v="1054" />
	</node>
	<node id="-22866" lat="58.9084305521" lon="5.57071667375">
		<tag k="fixme" v="multiple name tags, choose one and add the other to alt_name" />
		<tag k="name" v="Jonsholmen;Litholmen" />
		<tag k="old_name" v="Litleholmen, nordre" />
		<tag k="place" v="islet" />
		<tag k="ssr:stedsnr" v="22" />
	</node>
	<node id="-22865" lat="58.9165972205" lon="5.64441389413">
		<tag k="name" v="Prestøy" />
		<tag k="place" v="islet" />
		<tag k="ssr:stedsnr" v="15" />
	</node>
	<node id="-22864" lat="58.9064861152" lon="5.63110833278">
		<tag k="name" v="Sømsgrunnen" />
		<tag k="natural" v="shoal" />
		<tag k="place" v="locality" />
		<tag k="ssr:stedsnr" v="949608" />
	</node>
	<node id="-22863" lat="58.9090805585" lon="5.51745277286">
		<tag k="name" v="Rekkusen" />
		<tag k="place" v="locality" />
		<tag k="seamark:type" v="rock" />
		<tag k="ssr:stedsnr" v="938515" />
	</node>
	<node id="-22862" lat="58.96462222" lon="5.46746666941">
		<tag k="name" v="Den kvide" />
		<tag k="place" v="locality" />
		<tag k="seamark:type" v="rock" />
		<tag k="ssr:stedsnr" v="938506" />
	</node>
	<node id="-22861" lat="58.8512000013" lon="5.57640000154">
		<tag k="name" v="Hålandsmarka" />
		<tag k="place" v="quarter" />
		<tag k="ssr:stedsnr" v="936316" />
	</node>
	<node id="-22860" lat="58.9064388902" lon="5.57740000447">
		<tag k="fixme" v="consider natural=peak for the most distinct mountains in the district" />
		<tag k="name" v="Ådnaberget" />
		<tag k="natural" v="hill" />
		<tag k="place" v="locality" />
		<tag k="ssr:stedsnr" v="934753" />
	</node>
	<node id="-22859" lat="58.9152916652" lon="5.51737777369">
		<tag k="name" v="Grønevollen" />
		<tag k="place" v="locality" />
		<tag k="ssr:stedsnr" v="934324" />
	</node>
	<node id="-22858" lat="58.9164611148" lon="5.50053888928">
		<tag k="name" v="Skarvura" />
		<tag k="natural" v="bay" />
		<tag k="ssr:stedsnr" v="934320" />
	</node>
	<node id="-22857" lat="58.8634166656" lon="5.63110833608">
		<tag k="name" v="Kvitemyr" />
		<tag k="natural" v="wetland" />
		<tag k="ssr:stedsnr" v="934240" />
	</node>
	<node id="-22856" lat="58.8352777785" lon="5.56861110973">
		<tag k="name" v="Tormodvarden" />
		<tag k="place" v="locality" />
		<tag k="ssr:stedsnr" v="931932" />
	</node>
	<node id="-22855" lat="58.9303361099" lon="5.68828333992">
		<tag k="bridge" v="yes" />
		<tag k="layer" v="1" />
		<tag k="name" v="Granneskrossen" />
		<tag k="ssr:stedsnr" v="896717" />
	</node>
	<node id="-22854" lat="58.8972000002" lon="5.65593888358">
		<tag k="bridge" v="yes" />
		<tag k="layer" v="1" />
		<tag k="name" v="Sande" />
		<tag k="ssr:stedsnr" v="896712" />
	</node>
	<node id="-22853" lat="58.9573638876" lon="5.57521667086">
		<tag k="fixme" v="consider seamark:type=rock or natural=shoal" />
		<tag k="name" v="Svartaskjeret" />
		<tag k="place" v="islet" />
		<tag k="ssr:stedsnr" v="878554" />
	</node>
	<node id="-22852" lat="58.9118972262" lon="5.58460832939">
		<tag k="name" v="Hyljodden" />
		<tag k="natural" v="cape" />
		<tag k="ssr:stedsnr" v="873754" />
	</node>
	<node id="-22851" lat="58.8849888858" lon="5.60476388298">
		<tag k="name" v="Sola Strandhotell" />
		<tag k="ssr:stedsnr" v="873714" />
		<tag k="tourism" v="hotel" />
	</node>
	<node id="-22850" lat="58.9168749967" lon="5.61545555423">
		<tag k="name" v="Ritleberget" />
		<tag k="natural" v="hill" />
		<tag k="place" v="locality" />
		<tag k="ssr:stedsnr" v="873305" />
	</node>
	<node id="-22849" lat="58.8881500033" lon="5.54899999972">
		<tag k="fixme" v="consider seamark:type=rock or natural=shoal" />
		<tag k="name" v="Bollerane" />
		<tag k="place" v="islet" />
		<tag k="ssr:stedsnr" v="873413" />
	</node>
	<node id="-22848" lat="58.8751694451" lon="5.57816666989">
		<tag k="name" v="Trælastranda" />
		<tag k="natural" v="bay" />
		<tag k="ssr:stedsnr" v="873409" />
	</node>
	<node id="-22847" lat="58.8963805552" lon="5.68281666072">
		<tag k="name" v="Moseid" />
		<tag k="place" v="farm" />
		<tag k="ssr:stedsnr" v="873267" />
	</node>
	<node id="-22846" lat="58.8958944438" lon="5.6900833367">
		<tag k="name" v="Stokkavassbotnen" />
		<tag k="natural" v="wetland" />
		<tag k="ssr:stedsnr" v="873266" />
	</node>
	<node id="-22845" lat="58.8911111087" lon="5.43833333981">
		<tag k="name" v="Somabåen" />
		<tag k="place" v="locality" />
		<tag k="seamark:type" v="rock" />
		<tag k="ssr:stedsnr" v="949795" />
	</node>
	<node id="-22844" lat="58.8839000015" lon="5.54708888437">
		<tag k="name" v="Hausen" />
		<tag k="natural" v="shoal" />
		<tag k="place" v="locality" />
		<tag k="ssr:stedsnr" v="949787" />
	</node>
	<node id="-22843" lat="58.8737916643" lon="5.55425833197">
		<tag k="alt_name" v="Ølberggrunnen" />
		<tag k="name" v="Ølbørgrunnen" />
		<tag k="natural" v="shoal" />
		<tag k="place" v="locality" />
		<tag k="ssr:stedsnr" v="949786" />
	</node>
	<node id="-22842" lat="58.9386416643" lon="5.62720555371">
		<tag k="name" v="Haganibba" />
		<tag k="natural" v="cape" />
		<tag k="ssr:stedsnr" v="949648" />
	</node>
	<node id="-22841" lat="58.918288892" lon="5.5917055611">
		<tag k="name" v="Tjoraberg" />
		<tag k="natural" v="hill" />
		<tag k="place" v="locality" />
		<tag k="ssr:stedsnr" v="949601" />
	</node>
	<node id="-22840" lat="58.8832162557" lon="5.62475187783">
		<tag k="aeroway" v="aerodrome" />
		<tag k="alt_name" v="Sola" />
		<tag k="name" v="Stavanger lufthavn, Sola" />
		<tag k="old_name" v="Stavanger Lufthavn/Sola;Stavanger lufthavn" />
		<tag k="ssr:stedsnr" v="851961" />
	</node>
	<node id="-22839" lat="58.884783696" lon="5.66635830208">
		<tag k="fixme" v="consider place=hamlet" />
		<tag k="name" v="Skadberg" />
		<tag k="place" v="farm" />
		<tag k="ssr:stedsnr" v="851955" />
	</node>
	<node id="-22838" lat="58.9243679709" lon="5.57426054515">
		<tag k="name" v="Mjånesholmen" />
		<tag k="natural" v="cape" />
		<tag k="ssr:stedsnr" v="850010" />
	</node>
	<node id="-22837" lat="58.9057750042" lon="5.46201666538">
		<tag k="name" v="Ribben" />
		<tag k="natural" v="shoal" />
		<tag k="place" v="locality" />
		<tag k="ssr:stedsnr" v="938521" />
	</node>
	<node id="-22836" lat="58.8954499982" lon="5.46237777276">
		<tag k="name" v="Langeflu" />
		<tag k="natural" v="shoal" />
		<tag k="place" v="locality" />
		<tag k="ssr:stedsnr" v="938519" />
	</node>
	<node id="-22835" lat="58.9564472251" lon="5.52398055819">
		<tag k="name" v="Jekta" />
		<tag k="place" v="locality" />
		<tag k="seamark:type" v="rock" />
		<tag k="ssr:stedsnr" v="938501" />
	</node>
	<node id="-22834" lat="58.9588472177" lon="5.58028888294">
		<tag k="name" v="Skiftesvig" />
		<tag k="natural" v="bay" />
		<tag k="ssr:stedsnr" v="938496" />
	</node>
	<node id="-22833" lat="58.8652888891" lon="5.5604805517">
		<tag k="name" v="Starebakkane" />
		<tag k="natural" v="hill" />
		<tag k="place" v="locality" />
		<tag k="ssr:stedsnr" v="934379" />
	</node>
	<node id="-22832" lat="58.8620833316" lon="5.57317777828">
		<tag k="name" v="Kolleberget" />
		<tag k="natural" v="hill" />
		<tag k="place" v="locality" />
		<tag k="ssr:stedsnr" v="934376" />
	</node>
	<node id="-22831" lat="58.8394861132" lon="5.57056666198">
		<tag k="name" v="Sandsmarka" />
		<tag k="place" v="farm" />
		<tag k="ssr:stedsnr" v="934374" />
	</node>
	<node id="-22830" lat="58.9138611088" lon="5.66064721985">
		<tag k="name" v="Ytraberg" />
		<tag k="natural" v="cape" />
		<tag k="ssr:stedsnr" v="934272" />
	</node>
	<node id="-22829" lat="58.906447218" lon="5.61798610487">
		<tag k="name" v="Strandsnesvågen" />
		<tag k="natural" v="bay" />
		<tag k="ssr:stedsnr" v="934268" />
	</node>
	<node id="-22828" lat="58.8678916695" lon="5.57528889535">
		<tag k="name" v="Gamlestemmen" />
		<tag k="place" v="farm" />
		<tag k="ssr:stedsnr" v="934363" />
	</node>
	<node id="-22827" lat="58.8557611112" lon="5.64049444982">
		<tag k="name" v="Malmeimshaugen" />
		<tag k="natural" v="hill" />
		<tag k="place" v="locality" />
		<tag k="ssr:stedsnr" v="934253" />
	</node>
	<node id="-22826" lat="58.849591665" lon="5.60263611696">
		<tag k="name" v="Brotet" />
		<tag k="place" v="farm" />
		<tag k="ssr:stedsnr" v="934074" />
	</node>
	<node id="-22825" lat="58.919133335" lon="5.47385832643">
		<tag k="name" v="Flua" />
		<tag k="place" v="locality" />
		<tag k="seamark:type" v="rock" />
		<tag k="ssr:stedsnr" v="817507" />
	</node>
	<node id="-22824" lat="58.9104277813" lon="5.50082500755">
		<tag k="fixme" v="consider seamark:type=rock or natural=shoal" />
		<tag k="name" v="Kunteskjeret" />
		<tag k="place" v="islet" />
		<tag k="ssr:stedsnr" v="817506" />
	</node>
	<node id="-22823" lat="58.9290027819" lon="5.58790000673">
		<tag k="man_made" v="quay" />
		<tag k="name" v="Norscobasen" />
		<tag k="place" v="locality" />
		<tag k="ssr:stedsnr" v="813319" />
	</node>
	<node id="-22822" lat="58.927533331" lon="5.62827223048">
		<tag k="fixme" v="consider seamark:type=rock or natural=shoal" />
		<tag k="name" v="Kobbesteinane" />
		<tag k="place" v="islet" />
		<tag k="ssr:stedsnr" v="813307" />
	</node>
	<node id="-22821" lat="58.9302333327" lon="5.62587778175">
		<tag k="name" v="Øyarvågen" />
		<tag k="natural" v="strait" />
		<tag k="ssr:stedsnr" v="813305" />
	</node>
	<node id="-22820" lat="58.9051638923" lon="5.49999722926">
		<tag k="fixme" v="consider seamark:type=rock or natural=shoal" />
		<tag k="name" v="Nyvlingane" />
		<tag k="place" v="islet" />
		<tag k="ssr:stedsnr" v="789013" />
	</node>
	<node id="-22819" lat="58.8507833322" lon="5.57024999145">
		<tag k="name" v="Hålandmarka" />
		<tag k="place" v="farm" />
		<tag k="ssr:stedsnr" v="786376" />
	</node>
	<node id="-22818" lat="58.927055555" lon="5.67262778067">
		<tag k="fixme" v="consider seamark:type=rock or natural=shoal" />
		<tag k="name" v="Skjeret" />
		<tag k="place" v="islet" />
		<tag k="ssr:stedsnr" v="767716" />
	</node>
	<node id="-22817" lat="58.86035918" lon="5.58722428348">
		<tag k="fixme" v="consider place=hamlet" />
		<tag k="name" v="Litlaland" />
		<tag k="old_name" v="Litleland" />
		<tag k="place" v="farm" />
		<tag k="ssr:stedsnr" v="911993" />
	</node>
	<node id="-22816" lat="58.8612681879" lon="5.60640957144">
		<tag k="alt_name" v="Regehaugen" />
		<tag k="name" v="Rægehaugen" />
		<tag k="natural" v="hill" />
		<tag k="old_name" v="Rekehaugen" />
		<tag k="place" v="locality" />
		<tag k="ssr:stedsnr" v="911987" />
	</node>
	<node id="-22815" lat="58.8430749957" lon="5.58505832929">
		<tag k="name" v="Helleland" />
		<tag k="place" v="farm" />
		<tag k="ssr:stedsnr" v="911971" />
	</node>
	<node id="-22814" lat="58.8425111132" lon="5.56656110837">
		<tag k="name" v="Moen" />
		<tag k="place" v="farm" />
		<tag k="ssr:stedsnr" v="911967" />
	</node>
	<node id="-22812" lat="58.829704534" lon="5.60133354857">
		<tag k="fixme" v="consider place=hamlet" />
		<tag k="name" v="Dysjaland" />
		<tag k="place" v="farm" />
		<tag k="ssr:stedsnr" v="911891" />
	</node>
	<node id="-22810" lat="58.9292914496" lon="5.61459944952">
		<tag k="name" v="Store Snøde" />
		<tag k="natural" v="hill" />
		<tag k="place" v="locality" />
		<tag k="ssr:stedsnr" v="911066" />
	</node>
	<node id="-22809" lat="58.9360222216" lon="5.43286110591">
		<tag k="alt_name" v="Revingen, store" />
		<tag k="name" v="Store Revingen" />
		<tag k="place" v="islet" />
		<tag k="ssr:stedsnr" v="911056" />
	</node>
	<node id="-22808" lat="58.9418027794" lon="5.56696388797">
		<tag k="name" v="Ørnabukta" />
		<tag k="natural" v="bay" />
		<tag k="old_name" v="Ørnebukta" />
		<tag k="ssr:stedsnr" v="911048" />
	</node>
	<node id="-22807" lat="58.9020499986" lon="5.68376110846">
		<tag k="fixme" v="consider place=hamlet" />
		<tag k="name" v="Forus" />
		<tag k="place" v="village" />
		<tag k="ssr:stedsnr" v="911034" />
	</node>
	<node id="-22806" lat="58.9235250014" lon="5.61796110395">
		<tag k="name" v="Ørnaberget" />
		<tag k="natural" v="hill" />
		<tag k="place" v="locality" />
		<tag k="ssr:stedsnr" v="911021" />
	</node>
	<node id="-22805" lat="58.9450657315" lon="5.59988917116">
		<tag k="fixme" v="consider place=hamlet" />
		<tag k="name" v="Litle-Meland" />
		<tag k="place" v="farm" />
		<tag k="ssr:stedsnr" v="752333" />
	</node>
	<node id="-22804" lat="58.8538472234" lon="5.64354722754">
		<tag k="name" v="Gimramyra" />
		<tag k="natural" v="wetland" />
		<tag k="ssr:stedsnr" v="752253" />
	</node>
	<node id="-22803" lat="58.8594862298" lon="5.61619573883">
		<tag k="alt_name" v="Rege;Reke" />
		<tag k="fixme" v="consider place=hamlet" />
		<tag k="name" v="Ræge" />
		<tag k="place" v="farm" />
		<tag k="ssr:stedsnr" v="752249" />
	</node>
	<node id="-22802" lat="58.8981944443" lon="5.6323000079">
		<tag k="landuse" v="military" />
		<tag k="name" v="Sømsbrygga" />
		<tag k="ssr:stedsnr" v="752217" />
	</node>
	<node id="-22801" lat="58.9004138881" lon="5.62959167376">
		<tag k="name" v="Prestaberget" />
		<tag k="natural" v="hill" />
		<tag k="place" v="locality" />
		<tag k="ssr:stedsnr" v="752216" />
	</node>
	<node id="-22800" lat="58.9024571259" lon="5.45058266017">
		<tag k="alt_name" v="Perskjeret" />
		<tag k="fixme" v="consider seamark:type=rock or natural=shoal" />
		<tag k="name" v="Persskjeret" />
		<tag k="old_name" v="Perskjer" />
		<tag k="place" v="islet" />
		<tag k="ssr:stedsnr" v="729033" />
	</node>
	<node id="-22799" lat="58.9102388868" lon="5.44915000052">
		<tag k="name" v="Stora Hua" />
		<tag k="place" v="islet" />
		<tag k="ssr:stedsnr" v="729023" />
	</node>
	<node id="-22798" lat="58.9092083372" lon="5.62386388957">
		<tag k="name" v="Kuholmen" />
		<tag k="place" v="islet" />
		<tag k="ssr:stedsnr" v="729018" />
	</node>
	<node id="-22797" lat="58.9177194485" lon="5.49421388179">
		<tag k="name" v="Brønnespynten" />
		<tag k="natural" v="cape" />
		<tag k="ssr:stedsnr" v="725629" />
	</node>
	<node id="-22796" lat="58.8803750012" lon="5.46010000391">
		<tag k="name" v="Kjerberg" />
		<tag k="place" v="locality" />
		<tag k="seamark:type" v="rock" />
		<tag k="ssr:stedsnr" v="889846" />
	</node>
	<node id="-22795" lat="58.9673027822" lon="5.4767666674">
		<tag k="name" v="Stora Hugaflua" />
		<tag k="place" v="locality" />
		<tag k="seamark:type" v="rock" />
		<tag k="ssr:stedsnr" v="695307" />
	</node>
	<node id="-22794" lat="58.9328800136" lon="5.58052946276">
		<tag k="man_made" v="quay" />
		<tag k="name" v="Melingsbryggja" />
		<tag k="place" v="locality" />
		<tag k="ssr:stedsnr" v="972945" />
	</node>
	<node id="-22793" lat="58.9378611154" lon="5.56407500273">
		<tag k="fixme" v="consider seamark:type=rock or natural=shoal" />
		<tag k="name" v="Risbidskjeret" />
		<tag k="place" v="islet" />
		<tag k="ssr:stedsnr" v="878545" />
	</node>
	<node id="-22792" lat="58.9148194458" lon="5.46626943885">
		<tag k="name" v="Kjerbergen" />
		<tag k="natural" v="shoal" />
		<tag k="place" v="locality" />
		<tag k="ssr:stedsnr" v="664662" />
	</node>
	<node id="-22791" lat="58.9713277751" lon="5.476005549">
		<tag k="name" v="Litla Hugaflua" />
		<tag k="place" v="locality" />
		<tag k="seamark:type" v="rock" />
		<tag k="ssr:stedsnr" v="878322" />
	</node>
	<node id="-22790" lat="58.9456166632" lon="5.43984444768">
		<tag k="fixme" v="consider seamark:type=rock or natural=shoal" />
		<tag k="name" v="Goaskjeret" />
		<tag k="place" v="islet" />
		<tag k="ssr:stedsnr" v="878562" />
	</node>
	<node id="-22789" lat="58.943797225" lon="5.59569721591">
		<tag k="bridge" v="yes" />
		<tag k="layer" v="1" />
		<tag k="name" v="Mæland" />
		<tag k="ssr:stedsnr" v="653676" />
	</node>
	<node id="-22788" lat="58.8861722187" lon="5.64462499531">
		<tag k="bridge" v="yes" />
		<tag k="layer" v="1" />
		<tag k="name" v="Solakrossen" />
		<tag k="ssr:stedsnr" v="653672" />
	</node>
	<node id="-22787" lat="58.8543694475" lon="5.60843889415">
		<tag k="amenity" v="place_of_worship" />
		<tag k="denomination" v="lutheran" />
		<tag k="fixme" v="multiple name tags, choose one and add the other to alt_name" />
		<tag k="name" v="Ræge kirke;Ræge" />
		<tag k="religion" v="christian" />
		<tag k="ssr:stedsnr" v="647654" />
	</node>
	<node id="-22786" lat="58.858176511" lon="5.57744424815">
		<tag k="fixme" v="consider place=hamlet" />
		<tag k="name" v="Håland" />
		<tag k="place" v="farm" />
		<tag k="ssr:stedsnr" v="729995" />
	</node>
	<node id="-22785" lat="58.8883388845" lon="5.64940832977">
		<tag k="name" v="Solakrossen" />
		<tag k="place" v="farm" />
		<tag k="ssr:stedsnr" v="729946" />
	</node>
	<node id="-22784" lat="58.8738990779" lon="5.57415483965">
		<tag k="name" v="Trælaneset" />
		<tag k="natural" v="cape" />
		<tag k="old_name" v="Trælneset" />
		<tag k="ssr:stedsnr" v="729942" />
	</node>
	<node id="-22783" lat="58.9607555566" lon="5.57540832893">
		<tag k="name" v="Fjørenesholmane" />
		<tag k="place" v="islet" />
		<tag k="ssr:stedsnr" v="729084" />
	</node>
	<node id="-22782" lat="58.8982111087" lon="5.5796222282">
		<tag k="name" v="Kjeilå" />
		<tag k="natural" v="bay" />
		<tag k="ssr:stedsnr" v="630714" />
	</node>
	<node id="-22781" lat="58.9003000014" lon="5.57847499507">
		<tag k="name" v="Vestre stranda" />
		<tag k="place" v="locality" />
		<tag k="ssr:stedsnr" v="630713" />
	</node>
	<node id="-22780" lat="58.8513472235" lon="5.54711666902">
		<tag k="fixme" v="consider natural=peak for the most distinct mountains in the district" />
		<tag k="name" v="Idlestolen" />
		<tag k="natural" v="hill" />
		<tag k="place" v="locality" />
		<tag k="ssr:stedsnr" v="630711" />
	</node>
	<node id="-22779" lat="58.8520750021" lon="5.5508527747">
		<tag k="fixme" v="consider natural=peak for the most distinct mountains in the district" />
		<tag k="name" v="Håfjellet" />
		<tag k="natural" v="hill" />
		<tag k="place" v="locality" />
		<tag k="ssr:stedsnr" v="630710" />
	</node>
	<node id="-22778" lat="58.8586055522" lon="5.54879444912">
		<tag k="name" v="Kvernavik" />
		<tag k="natural" v="bay" />
		<tag k="ssr:stedsnr" v="630707" />
	</node>
	<node id="-22777" lat="58.8610277801" lon="5.55057499826">
		<tag k="name" v="Vigdelnes" />
		<tag k="natural" v="cape" />
		<tag k="ssr:stedsnr" v="630706" />
	</node>
	<node id="-22776" lat="58.901513888" lon="5.66988888743">
		<tag k="fixme" v="consider natural=peak for the most distinct mountains in the district" />
		<tag k="name" v="Åsberget" />
		<tag k="natural" v="hill" />
		<tag k="place" v="locality" />
		<tag k="ssr:stedsnr" v="630261" />
	</node>
	<node id="-22775" lat="58.9338361156" lon="5.62442778328">
		<tag k="name" v="Neset" />
		<tag k="natural" v="cape" />
		<tag k="ssr:stedsnr" v="630329" />
	</node>
	<node id="-22774" lat="58.929486115" lon="5.68494721487">
		<tag k="name" v="Løneset" />
		<tag k="natural" v="cape" />
		<tag k="ssr:stedsnr" v="630326" />
	</node>
	<node id="-22773" lat="58.8681527757" lon="5.61928332644">
		<tag k="name" v="Sahara" />
		<tag k="place" v="farm" />
		<tag k="ssr:stedsnr" v="630311" />
	</node>
	<node id="-22772" lat="58.9204583365" lon="5.67258333037">
		<tag k="name" v="Stølsberget" />
		<tag k="natural" v="hill" />
		<tag k="place" v="locality" />
		<tag k="ssr:stedsnr" v="630172" />
	</node>
	<node id="-22771" lat="58.9298962009" lon="5.50314114903">
		<tag k="name" v="Olleskjergrunnen" />
		<tag k="natural" v="shoal" />
		<tag k="place" v="locality" />
		<tag k="ssr:stedsnr" v="726686" />
	</node>
	<node id="-22770" lat="58.8937694482" lon="5.54704444552">
		<tag k="alt_name" v="Vardholmen, nordre;nordre Varholmen" />
		<tag k="name" v="Nordre Vardholmen" />
		<tag k="place" v="islet" />
		<tag k="ssr:stedsnr" v="607955" />
	</node>
	<node id="-22769" lat="58.8996339951" lon="5.65333694342">
		<tag k="alt_name" v="Rjoa" />
		<tag k="fixme" v="consider place=hamlet" />
		<tag k="name" v="Joa" />
		<tag k="place" v="farm" />
		<tag k="ssr:stedsnr" v="607029" />
	</node>
	<node id="-22768" lat="58.9133861146" lon="5.4802833275">
		<tag k="name" v="Brotet" />
		<tag k="natural" v="shoal" />
		<tag k="place" v="locality" />
		<tag k="ssr:stedsnr" v="603642" />
	</node>
	<node id="-22766" lat="58.8947777753" lon="5.4431666589">
		<tag k="name" v="Løyndagrunnen" />
		<tag k="natural" v="shoal" />
		<tag k="place" v="locality" />
		<tag k="ssr:stedsnr" v="706812" />
	</node>
	<node id="-22765" lat="58.8700027781" lon="5.54910000333">
		<tag k="name" v="Roafluna" />
		<tag k="place" v="locality" />
		<tag k="seamark:type" v="rock" />
		<tag k="ssr:stedsnr" v="706796" />
	</node>
	<node id="-22764" lat="58.9311638856" lon="5.62447778091">
		<tag k="name" v="Øytangen" />
		<tag k="natural" v="cape" />
		<tag k="ssr:stedsnr" v="706665" />
	</node>
	<node id="-22763" lat="58.9145861135" lon="5.6020638812">
		<tag k="name" v="Orshaug" />
		<tag k="natural" v="hill" />
		<tag k="place" v="locality" />
		<tag k="ssr:stedsnr" v="691768" />
	</node>
	<node id="-22762" lat="58.8855583302" lon="5.60388888704">
		<tag k="fixme" v="consider natural=peak for the most distinct mountains in the district" />
		<tag k="name" v="Båtaberget" />
		<tag k="natural" v="hill" />
		<tag k="place" v="locality" />
		<tag k="ssr:stedsnr" v="691739" />
	</node>
	<node id="-22761" lat="58.8740249976" lon="5.60313056204">
		<tag k="name" v="Hestabekken" />
		<tag k="ssr:stedsnr" v="691414" />
		<tag k="waterway" v="stream" />
	</node>
	<node id="-22760" lat="58.9245750015" lon="5.51148056043">
		<tag k="name" v="Humlanesodden" />
		<tag k="natural" v="cape" />
		<tag k="ssr:stedsnr" v="691396" />
	</node>
	<node id="-22759" lat="58.937091665" lon="5.5965499938">
		<tag k="fixme" v="consider natural=peak for the most distinct mountains in the district" />
		<tag k="name" v="Bestefarstolen" />
		<tag k="natural" v="hill" />
		<tag k="place" v="locality" />
		<tag k="ssr:stedsnr" v="691388" />
	</node>
	<node id="-22758" lat="58.8648055547" lon="5.65190555122">
		<tag k="name" v="Meholen" />
		<tag k="place" v="farm" />
		<tag k="ssr:stedsnr" v="691369" />
	</node>
	<node id="-22757" lat="58.9059972207" lon="5.64380277442">
		<tag k="name" v="Kattaberget" />
		<tag k="natural" v="cape" />
		<tag k="ssr:stedsnr" v="691340" />
	</node>
	<node id="-22756" lat="58.8992888921" lon="5.67547777349">
		<tag k="fixme" v="consider natural=peak for the most distinct mountains in the district" />
		<tag k="name" v="Blåberget" />
		<tag k="natural" v="hill" />
		<tag k="place" v="locality" />
		<tag k="ssr:stedsnr" v="691296" />
	</node>
	<node id="-22755" lat="58.8847888927" lon="5.61666945121">
		<tag k="fixme" v="consider natural=peak for the most distinct mountains in the district" />
		<tag k="name" v="Vaulaberget" />
		<tag k="natural" v="hill" />
		<tag k="place" v="locality" />
		<tag k="ssr:stedsnr" v="691283" />
	</node>
	<node id="-22754" lat="58.9180416656" lon="5.66552500427">
		<tag k="name" v="Hanaberget" />
		<tag k="natural" v="hill" />
		<tag k="place" v="locality" />
		<tag k="ssr:stedsnr" v="691215" />
	</node>
	<node id="-22753" lat="58.9141444409" lon="5.66824166319">
		<tag k="name" v="Grannesvågen" />
		<tag k="natural" v="bay" />
		<tag k="ssr:stedsnr" v="691212" />
	</node>
	<node id="-22752" lat="58.9253694435" lon="5.67550833312">
		<tag k="name" v="Selsneset" />
		<tag k="natural" v="cape" />
		<tag k="ssr:stedsnr" v="691203" />
	</node>
	<node id="-22751" lat="58.9214749969" lon="5.68404722047">
		<tag k="name" v="Kanholen" />
		<tag k="place" v="farm" />
		<tag k="ssr:stedsnr" v="691202" />
	</node>
	<node id="-22750" lat="58.8457555566" lon="5.58184722973">
		<tag k="fixme" v="consider natural=peak for the most distinct mountains in the district" />
		<tag k="name" v="Træeberget" />
		<tag k="natural" v="hill" />
		<tag k="place" v="locality" />
		<tag k="ssr:stedsnr" v="691094" />
	</node>
	<node id="-22748" lat="58.9326255001" lon="5.57619752762">
		<tag k="landuse" v="harbour" />
		<tag k="name" v="Vestre Hamna" />
		<tag k="seamark:type" v="harbour" />
		<tag k="ssr:stedsnr" v="688928" />
	</node>
	<node id="-22747" lat="58.8716500011" lon="5.54844999345">
		<tag k="alt_name" v="Ølbergfluna" />
		<tag k="name" v="Ølbørfluna" />
		<tag k="place" v="locality" />
		<tag k="seamark:type" v="rock" />
		<tag k="ssr:stedsnr" v="524785" />
	</node>
	<node id="-22746" lat="58.899494445" lon="5.64326944447">
		<tag k="name" v="Nibba" />
		<tag k="natural" v="cape" />
		<tag k="ssr:stedsnr" v="524608" />
	</node>
	<node id="-22745" lat="58.9128027799" lon="5.62237778467">
		<tag k="name" v="Krøste" />
		<tag k="natural" v="cape" />
		<tag k="ssr:stedsnr" v="524605" />
	</node>
	<node id="-22744" lat="58.896536113" lon="5.44308888154">
		<tag k="name" v="Kniven" />
		<tag k="place" v="locality" />
		<tag k="seamark:type" v="rock" />
		<tag k="ssr:stedsnr" v="510659" />
	</node>
	<node id="-22743" lat="58.8934388846" lon="5.58847500114">
		<tag k="name" v="Grytnes" />
		<tag k="natural" v="cape" />
		<tag k="ssr:stedsnr" v="509735" />
	</node>
	<node id="-22742" lat="58.8763833294" lon="5.6598333274">
		<tag k="name" v="Stangalandsmyra" />
		<tag k="natural" v="wetland" />
		<tag k="ssr:stedsnr" v="509306" />
	</node>
	<node id="-22741" lat="61.2177777797" lon="6.59979722139">
		<tag k="alt_name" v="Alskori" />
		<tag k="name" v="Almskori" />
		<tag k="place" v="locality" />
		<tag k="ssr:stedsnr" v="677966" />
	</node>
	<node id="-22740" lat="58.956183333" lon="5.53385555945">
		<tag k="name" v="Kjerten" />
		<tag k="place" v="islet" />
		<tag k="ssr:stedsnr" v="486071" />
	</node>
	<node id="-22739" lat="58.9291512289" lon="5.58176848188">
		<tag k="name" v="Melingsholmen" />
		<tag k="place" v="islet" />
		<tag k="ssr:stedsnr" v="486053" />
	</node>
	<node id="-22738" lat="58.9185489494" lon="5.57357105544">
		<tag k="name" v="Hestholmen" />
		<tag k="place" v="islet" />
		<tag k="ssr:stedsnr" v="485002" />
	</node>
	<node id="-22737" lat="58.9365638886" lon="5.43232500615">
		<tag k="name" v="Revingane" />
		<tag k="place" v="islet" />
		<tag k="ssr:stedsnr" v="484172" />
	</node>
	<node id="-22736" lat="58.9563388883" lon="5.46629722462">
		<tag k="name" v="Litla Sandøyna" />
		<tag k="place" v="islet" />
		<tag k="ssr:stedsnr" v="482173" />
	</node>
	<node id="-22735" lat="58.8560666677" lon="5.55852778098">
		<tag k="name" v="Vigdelsveten" />
		<tag k="natural" v="hill" />
		<tag k="place" v="locality" />
		<tag k="ssr:stedsnr" v="668990" />
	</node>
	<node id="-22734" lat="58.8473641774" lon="5.62000596425">
		<tag k="fixme" v="consider place=hamlet" />
		<tag k="name" v="Tjelta" />
		<tag k="place" v="farm" />
		<tag k="ssr:stedsnr" v="668974" />
	</node>
	<node id="-22733" lat="58.8401840572" lon="5.57152603106">
		<tag k="alt_name" v="Hedland" />
		<tag k="fixme" v="consider place=hamlet" />
		<tag k="name" v="Helleland" />
		<tag k="place" v="farm" />
		<tag k="ssr:stedsnr" v="668968" />
	</node>
	<node id="-22732" lat="58.8414638931" lon="5.59773888291">
		<tag k="fixme" v="consider place=hamlet" />
		<tag k="name" v="Tjelta" />
		<tag k="place" v="village" />
		<tag k="ssr:stedsnr" v="668965" />
	</node>
	<node id="-22731" lat="58.8748000033" lon="5.68041943706">
		<tag k="alt_name" v="Bæreim" />
		<tag k="name" v="Bærheim" />
		<tag k="place" v="farm" />
		<tag k="ssr:stedsnr" v="668935" />
	</node>
	<node id="-22730" lat="58.9426722224" lon="5.44581111799">
		<tag k="alt_name" v="Kvednholmen" />
		<tag k="name" v="Kvernholmen" />
		<tag k="place" v="islet" />
		<tag k="ssr:stedsnr" v="668083" />
	</node>
	<node id="-22729" lat="58.9601250019" lon="5.46404166993">
		<tag k="name" v="Trollholmen" />
		<tag k="place" v="islet" />
		<tag k="ssr:stedsnr" v="668071" />
	</node>
	<node id="-22728" lat="58.8788111112" lon="5.48346945069">
		<tag k="name" v="Steinbåane" />
		<tag k="natural" v="shoal" />
		<tag k="place" v="locality" />
		<tag k="ssr:stedsnr" v="464857" />
	</node>
	<node id="-22727" lat="58.9288166648" lon="5.57044999785">
		<tag k="name" v="Laksholmbåen" />
		<tag k="place" v="locality" />
		<tag k="seamark:type" v="rock" />
		<tag k="ssr:stedsnr" v="463257" />
	</node>
	<node id="-22726" lat="58.9385500037" lon="5.47255278042">
		<tag k="fixme" v="consider seamark:type=rock or natural=shoal" />
		<tag k="name" v="Dyraskjeret" />
		<tag k="place" v="islet" />
		<tag k="ssr:stedsnr" v="665731" />
	</node>
	<node id="-22725" lat="58.9443012262" lon="5.42241732666">
		<tag k="fixme" v="consider seamark:type=rock or natural=shoal" />
		<tag k="name" v="Faksen" />
		<tag k="place" v="islet" />
		<tag k="ssr:stedsnr" v="453516" />
	</node>
	<node id="-22724" lat="58.9525972231" lon="5.46487221401">
		<tag k="name" v="Knogane" />
		<tag k="place" v="locality" />
		<tag k="seamark:type" v="rock" />
		<tag k="ssr:stedsnr" v="453515" />
	</node>
	<node id="-22723" lat="58.8478083317" lon="5.55141111111">
		<tag k="fixme" v="consider seamark:type=rock or natural=shoal" />
		<tag k="name" v="Båane" />
		<tag k="place" v="islet" />
		<tag k="ssr:stedsnr" v="449729" />
	</node>
	<node id="-22722" lat="58.9588750041" lon="5.57961111391">
		<tag k="name" v="Skiftesvik" />
		<tag k="natural" v="bay" />
		<tag k="ssr:stedsnr" v="449420" />
	</node>
	<node id="-22721" lat="58.8777000032" lon="5.65636111028">
		<tag k="amenity" v="school" />
		<tag k="name" v="Stangeland barneskole" />
		<tag k="ssr:stedsnr" v="449312" />
	</node>
	<node id="-22720" lat="58.9392777784" lon="5.44046111646">
		<tag k="fixme" v="consider seamark:type=rock or natural=shoal" />
		<tag k="name" v="Hatten" />
		<tag k="place" v="islet" />
		<tag k="ssr:stedsnr" v="448703" />
	</node>
	<node id="-22719" lat="58.9012166637" lon="5.4436333377">
		<tag k="alt_name" v="Litle Hugjen" />
		<tag k="fixme" v="consider seamark:type=rock or natural=shoal" />
		<tag k="name" v="Huken" />
		<tag k="place" v="islet" />
		<tag k="ssr:stedsnr" v="425016" />
	</node>
	<node id="-22718" lat="58.9062555535" lon="5.60089999273">
		<tag k="alt_name" v="Sør Tjora;Tjora" />
		<tag k="name" v="Sør-Tjora" />
		<tag k="place" v="farm" />
		<tag k="ssr:stedsnr" v="425015" />
	</node>
	<node id="-22717" lat="58.9551750007" lon="5.51019165999">
		<tag k="name" v="Torvene" />
		<tag k="place" v="locality" />
		<tag k="seamark:type" v="rock" />
		<tag k="ssr:stedsnr" v="513521" />
	</node>
	<node id="-22716" lat="58.9697583312" lon="5.48739444171">
		<tag k="name" v="Halvardsgrunnen" />
		<tag k="natural" v="shoal" />
		<tag k="place" v="locality" />
		<tag k="ssr:stedsnr" v="513322" />
	</node>
	<node id="-22715" lat="58.9224944463" lon="5.60403611048">
		<tag k="name" v="Nedre-Sletthei" />
		<tag k="place" v="farm" />
		<tag k="ssr:stedsnr" v="510805" />
	</node>
	<node id="-22714" lat="58.9127583306" lon="5.58751389132">
		<tag k="name" v="Brunnavika" />
		<tag k="natural" v="bay" />
		<tag k="ssr:stedsnr" v="509738" />
	</node>
	<node id="-22713" lat="58.900183337" lon="5.66001944156">
		<tag k="fixme" v="consider natural=peak for the most distinct mountains in the district" />
		<tag k="name" v="Ospeberget" />
		<tag k="natural" v="hill" />
		<tag k="place" v="locality" />
		<tag k="ssr:stedsnr" v="509232" />
	</node>
	<node id="-22712" lat="58.9054805539" lon="5.66630555411">
		<tag k="name" v="Myklaberget" />
		<tag k="natural" v="hill" />
		<tag k="place" v="locality" />
		<tag k="ssr:stedsnr" v="509163" />
	</node>
	<node id="-22711" lat="58.8655722218" lon="5.57961944287">
		<tag k="name" v="Gardshaug" />
		<tag k="place" v="farm" />
		<tag k="ssr:stedsnr" v="509381" />
	</node>
	<node id="-22710" lat="58.8288313482" lon="5.57446273262">
		<tag k="name" v="Breidablikk" />
		<tag k="place" v="farm" />
		<tag k="ssr:stedsnr" v="509363" />
	</node>
	<node id="-22709" lat="58.9209555541" lon="5.52362777254">
		<tag k="name" v="Galten" />
		<tag k="place" v="islet" />
		<tag k="ssr:stedsnr" v="509348" />
	</node>
	<node id="-22708" lat="58.9397388926" lon="5.57937222189">
		<tag k="fixme" v="consider natural=peak for the most distinct mountains in the district" />
		<tag k="name" v="Nonsteinen" />
		<tag k="natural" v="hill" />
		<tag k="place" v="locality" />
		<tag k="ssr:stedsnr" v="509339" />
	</node>
	<node id="-22707" lat="58.9340111134" lon="5.61066111708">
		<tag k="name" v="Berget" />
		<tag k="natural" v="hill" />
		<tag k="place" v="locality" />
		<tag k="ssr:stedsnr" v="509329" />
	</node>
	<node id="-22706" lat="58.847722225" lon="5.55704722972">
		<tag k="name" v="Veggevika" />
		<tag k="natural" v="bay" />
		<tag k="ssr:stedsnr" v="509071" />
	</node>
	<node id="-22705" lat="58.8481111071" lon="5.56873611915">
		<tag k="fixme" v="consider natural=peak for the most distinct mountains in the district" />
		<tag k="name" v="Hagafjell" />
		<tag k="natural" v="hill" />
		<tag k="place" v="locality" />
		<tag k="ssr:stedsnr" v="509069" />
	</node>
	<node id="-22704" lat="58.910791667" lon="5.5757833294">
		<tag k="name" v="Skata" />
		<tag k="place" v="locality" />
		<tag k="seamark:type" v="rock" />
		<tag k="ssr:stedsnr" v="403823" />
	</node>
	<node id="-22703" lat="58.9107583311" lon="5.65437222848">
		<tag k="name" v="Vipekastet" />
		<tag k="natural" v="cape" />
		<tag k="ssr:stedsnr" v="403712" />
	</node>
	<node id="-22702" lat="58.8661484029" lon="5.55743941734">
		<tag k="alt_name" v="Ølbergnesset" />
		<tag k="name" v="Ølbørneset" />
		<tag k="natural" v="cape" />
		<tag k="ssr:stedsnr" v="403256" />
	</node>
	<node id="-22701" lat="58.9157972228" lon="5.65042777345">
		<tag k="name" v="Sømsøya" />
		<tag k="place" v="islet" />
		<tag k="ssr:stedsnr" v="403303" />
	</node>
	<node id="-22700" lat="58.8927138886" lon="5.49391667356">
		<tag k="name" v="Årsfluene" />
		<tag k="place" v="locality" />
		<tag k="seamark:type" v="rock" />
		<tag k="ssr:stedsnr" v="392571" />
	</node>
	<node id="-22699" lat="58.9662166697" lon="5.48645000429">
		<tag k="name" v="Hinnagrunnen" />
		<tag k="place" v="locality" />
		<tag k="seamark:type" v="rock" />
		<tag k="ssr:stedsnr" v="392559" />
	</node>
	<node id="-22698" lat="58.9443472241" lon="5.44435833436">
		<tag k="fixme" v="consider seamark:type=rock or natural=shoal" />
		<tag k="name" v="Odraskjeret" />
		<tag k="place" v="islet" />
		<tag k="ssr:stedsnr" v="392553" />
	</node>
	<node id="-22697" lat="58.9739777787" lon="5.49088056079">
		<tag k="name" v="Hjelmen" />
		<tag k="place" v="locality" />
		<tag k="seamark:type" v="rock" />
		<tag k="ssr:stedsnr" v="392319" />
	</node>
	<node id="-22696" lat="58.9158972251" lon="5.55929443897">
		<tag k="name" v="Svartaskjer" />
		<tag k="place" v="islet" />
		<tag k="ssr:stedsnr" v="387776" />
	</node>
	<node id="-22695" lat="58.887541663" lon="5.60133333785">
		<tag k="name" v="Solasanden" />
		<tag k="natural" v="beach" />
		<tag k="place" v="locality" />
		<tag k="ssr:stedsnr" v="387752" />
	</node>
	<node id="-22694" lat="58.9536111076" lon="5.59437222269">
		<tag k="historic" v="heritage" />
		<tag k="name" v="Sothaug" />
		<tag k="place" v="locality" />
		<tag k="ssr:stedsnr" v="387506" />
	</node>
	<node id="-22693" lat="58.9527138857" lon="5.57420554953">
		<tag k="name" v="Vestø" />
		<tag k="natural" v="bay" />
		<tag k="ssr:stedsnr" v="387502" />
	</node>
	<node id="-22692" lat="58.8811061347" lon="5.66684222445">
		<tag k="fixme" v="consider natural=peak for the most distinct mountains in the district" />
		<tag k="name" v="Varaberget" />
		<tag k="natural" v="hill" />
		<tag k="place" v="locality" />
		<tag k="ssr:stedsnr" v="387361" />
	</node>
	<node id="-22691" lat="58.8794805601" lon="5.6654388928">
		<tag k="name" v="Foren" />
		<tag k="place" v="farm" />
		<tag k="ssr:stedsnr" v="387359" />
	</node>
	<node id="-22690" lat="58.9194888859" lon="5.46681665832">
		<tag k="name" v="Husarhausen" />
		<tag k="natural" v="shoal" />
		<tag k="place" v="locality" />
		<tag k="ssr:stedsnr" v="361706" />
	</node>
	<node id="-22689" lat="58.8603305548" lon="5.62388610603">
		<tag k="alt_name" v="Regeholen" />
		<tag k="name" v="Holen" />
		<tag k="place" v="farm" />
		<tag k="ssr:stedsnr" v="486994" />
	</node>
	<node id="-22688" lat="58.9021555535" lon="5.67633055193">
		<tag k="name" v="Røyneberg" />
		<tag k="place" v="farm" />
		<tag k="ssr:stedsnr" v="486963" />
	</node>
	<node id="-22687" lat="58.8229416684" lon="5.58834999619">
		<tag k="name" v="Byberg" />
		<tag k="place" v="farm" />
		<tag k="ssr:stedsnr" v="486886" />
	</node>
	<node id="-22686" lat="58.9480138865" lon="5.45895277573">
		<tag k="name" v="Buøya" />
		<tag k="place" v="island" />
		<tag k="ssr:stedsnr" v="486035" />
	</node>
	<node id="-22685" lat="58.9479741083" lon="5.58688201782">
		<tag k="alt_name" v="Myglabost" />
		<tag k="fixme" v="consider place=hamlet" />
		<tag k="name" v="Myklabust" />
		<tag k="place" v="farm" />
		<tag k="ssr:stedsnr" v="486032" />
	</node>
	<node id="-22684" lat="58.9026444482" lon="5.46250833295">
		<tag k="name" v="Nordra Flua" />
		<tag k="place" v="locality" />
		<tag k="seamark:type" v="rock" />
		<tag k="ssr:stedsnr" v="331506" />
	</node>
	<node id="-22683" lat="58.8933749961" lon="5.60341388952">
		<tag k="name" v="Sandbekk" />
		<tag k="ssr:stedsnr" v="327720" />
		<tag k="waterway" v="stream" />
	</node>
	<node id="-22682" lat="58.8784972194" lon="5.67783888269">
		<tag k="fixme" v="consider natural=peak for the most distinct mountains in the district" />
		<tag k="name" v="Bæreimsfjellet" />
		<tag k="natural" v="hill" />
		<tag k="place" v="locality" />
		<tag k="ssr:stedsnr" v="327317" />
	</node>
	<node id="-22681" lat="58.8241333359" lon="5.58870000661">
		<tag k="bridge" v="yes" />
		<tag k="layer" v="1" />
		<tag k="name" v="Hagane" />
		<tag k="ssr:stedsnr" v="471663" />
	</node>
	<node id="-22680" lat="58.9540972261" lon="5.47053055455">
		<tag k="name" v="Stora Sandøya" />
		<tag k="place" v="islet" />
		<tag k="ssr:stedsnr" v="304078" />
	</node>
	<node id="-22679" lat="58.9569499992" lon="5.50439165825">
		<tag k="name" v="Fladholmen" />
		<tag k="place" v="islet" />
		<tag k="ssr:stedsnr" v="304076" />
	</node>
	<node id="-22678" lat="58.9142643176" lon="5.56020860718">
		<tag k="name" v="Søre Gyrdingen" />
		<tag k="place" v="islet" />
		<tag k="ssr:stedsnr" v="304014" />
	</node>
	<node id="-22677" lat="58.917769857" lon="5.66966651609">
		<tag k="fixme" v="consider place=hamlet" />
		<tag k="name" v="Grannes" />
		<tag k="place" v="farm" />
		<tag k="ssr:stedsnr" v="304010" />
	</node>
	<node id="-22676" lat="58.8682790273" lon="5.46631939929">
		<tag k="name" v="Risagrunnen" />
		<tag k="natural" v="shoal" />
		<tag k="place" v="locality" />
		<tag k="ssr:stedsnr" v="464851" />
	</node>
	<node id="-22675" lat="58.9219611119" lon="5.64659721554">
		<tag k="fixme" v="consider seamark:type=rock or natural=shoal" />
		<tag k="name" v="Kjerringa" />
		<tag k="place" v="islet" />
		<tag k="ssr:stedsnr" v="464743" />
	</node>
	<node id="-22674" lat="58.8991055513" lon="5.65926110938">
		<tag k="bridge" v="yes" />
		<tag k="layer" v="1" />
		<tag k="name" v="Joa" />
		<tag k="ssr:stedsnr" v="289717" />
	</node>
	<node id="-22673" lat="58.8727388885" lon="5.65583888347">
		<tag k="bridge" v="yes" />
		<tag k="layer" v="1" />
		<tag k="name" v="Stangeland" />
		<tag k="ssr:stedsnr" v="289712" />
	</node>
	<node id="-22672" lat="58.894894445" lon="5.63138611501">
		<tag k="bridge" v="yes" />
		<tag k="layer" v="1" />
		<tag k="name" v="Sømme" />
		<tag k="ssr:stedsnr" v="289709" />
	</node>
	<node id="-22671" lat="58.9177861143" lon="5.47390834059">
		<tag k="name" v="Den Søra" />
		<tag k="place" v="locality" />
		<tag k="seamark:type" v="rock" />
		<tag k="ssr:stedsnr" v="271569" />
	</node>
	<node id="-22670" lat="58.8977472252" lon="5.5472694525">
		<tag k="name" v="Nordboen" />
		<tag k="place" v="locality" />
		<tag k="seamark:type" v="rock" />
		<tag k="ssr:stedsnr" v="271565" />
	</node>
	<node id="-22669" lat="58.964041667" lon="5.52234722905">
		<tag k="name" v="Perskallane" />
		<tag k="place" v="locality" />
		<tag k="seamark:type" v="rock" />
		<tag k="ssr:stedsnr" v="271556" />
	</node>
	<node id="-22668" lat="58.963786114" lon="5.53629444852">
		<tag k="name" v="Sandågerflua" />
		<tag k="place" v="locality" />
		<tag k="seamark:type" v="rock" />
		<tag k="ssr:stedsnr" v="271554" />
	</node>
	<node id="-22667" lat="58.9194861117" lon="5.60105554948">
		<tag k="name" v="Kvernemyr" />
		<tag k="natural" v="wetland" />
		<tag k="ssr:stedsnr" v="267771" />
	</node>
	<node id="-22666" lat="58.9233500036" lon="5.59958333566">
		<tag k="name" v="Hamrabukta" />
		<tag k="natural" v="bay" />
		<tag k="ssr:stedsnr" v="449746" />
	</node>
	<node id="-22665" lat="58.9125638901" lon="5.61747499882">
		<tag k="fixme" v="consider natural=peak for the most distinct mountains in the district" />
		<tag k="name" v="Gjeringsberget" />
		<tag k="natural" v="hill" />
		<tag k="place" v="locality" />
		<tag k="ssr:stedsnr" v="449284" />
	</node>
	<node id="-22664" lat="58.8617472222" lon="5.61858888335">
		<tag k="name" v="Solbakk" />
		<tag k="place" v="farm" />
		<tag k="ssr:stedsnr" v="449280" />
	</node>
	<node id="-22663" lat="58.8539777782" lon="5.61291111167">
		<tag k="name" v="Oddamyra" />
		<tag k="natural" v="wetland" />
		<tag k="ssr:stedsnr" v="449275" />
	</node>
	<node id="-22662" lat="58.867811113" lon="5.55671667458">
		<tag k="name" v="Sloane" />
		<tag k="natural" v="stone" />
		<tag k="ssr:stedsnr" v="449392" />
	</node>
	<node id="-22661" lat="58.8677500019" lon="5.56085555913">
		<tag k="name" v="Taravika" />
		<tag k="natural" v="bay" />
		<tag k="ssr:stedsnr" v="449379" />
	</node>
	<node id="-22660" lat="58.8604333317" lon="5.5850722258">
		<tag k="name" v="Holmen" />
		<tag k="place" v="farm" />
		<tag k="ssr:stedsnr" v="449371" />
	</node>
	<node id="-22659" lat="58.9220555589" lon="5.50202221629">
		<tag k="name" v="Strålaus" />
		<tag k="place" v="islet" />
		<tag k="ssr:stedsnr" v="449364" />
	</node>
	<node id="-22658" lat="58.922522222" lon="5.52258333172">
		<tag k="name" v="Sandåkeren" />
		<tag k="natural" v="cape" />
		<tag k="ssr:stedsnr" v="449357" />
	</node>
	<node id="-22657" lat="58.9445472226" lon="5.57565833432">
		<tag k="name" v="Varden" />
		<tag k="natural" v="hill" />
		<tag k="place" v="locality" />
		<tag k="ssr:stedsnr" v="449345" />
	</node>
	<node id="-22656" lat="58.9475777792" lon="5.57004167307">
		<tag k="fixme" v="consider natural=peak for the most distinct mountains in the district" />
		<tag k="name" v="Koppmannen" />
		<tag k="natural" v="hill" />
		<tag k="place" v="locality" />
		<tag k="ssr:stedsnr" v="449343" />
	</node>
	<node id="-22655" lat="58.9130833359" lon="5.52021388415">
		<tag k="name" v="Kingshola" />
		<tag k="natural" v="bay" />
		<tag k="ssr:stedsnr" v="449338" />
	</node>
	<node id="-22654" lat="58.934322226" lon="5.6144833281">
		<tag k="name" v="Stølsberget" />
		<tag k="natural" v="hill" />
		<tag k="place" v="locality" />
		<tag k="ssr:stedsnr" v="449330" />
	</node>
	<node id="-22653" lat="58.9411194446" lon="5.62371110681">
		<tag k="fixme" v="consider seamark:type=rock or natural=shoal" />
		<tag k="name" v="Kråkeskjeret" />
		<tag k="place" v="islet" />
		<tag k="ssr:stedsnr" v="449327" />
	</node>
	<node id="-22652" lat="58.9152805552" lon="5.66385833411">
		<tag k="name" v="Grannesholmen" />
		<tag k="place" v="islet" />
		<tag k="ssr:stedsnr" v="449164" />
	</node>
	<node id="-22651" lat="58.9171250037" lon="5.6685222189">
		<tag k="name" v="Brennerihagen" />
		<tag k="place" v="farm" />
		<tag k="ssr:stedsnr" v="449161" />
	</node>
	<node id="-22650" lat="58.9176388872" lon="5.68286111221">
		<tag k="amenity" v="school" />
		<tag k="name" v="Grannes barneskule" />
		<tag k="ssr:stedsnr" v="449160" />
	</node>
	<node id="-22649" lat="58.8430250036" lon="5.56858888487">
		<tag k="name" v="Sanden" />
		<tag k="place" v="farm" />
		<tag k="ssr:stedsnr" v="449070" />
	</node>
	<node id="-22648" lat="58.8516305522" lon="5.557305557">
		<tag k="fixme" v="consider natural=peak for the most distinct mountains in the district" />
		<tag k="name" v="Pigjen" />
		<tag k="natural" v="hill" />
		<tag k="place" v="locality" />
		<tag k="ssr:stedsnr" v="449063" />
	</node>
	<node id="-22647" lat="58.8647333339" lon="5.60900555291">
		<tag k="name" v="Ulvsberget" />
		<tag k="natural" v="hill" />
		<tag k="place" v="locality" />
		<tag k="ssr:stedsnr" v="449258" />
	</node>
	<node id="-22646" lat="58.8631388872" lon="5.61280277613">
		<tag k="name" v="Einarshaug" />
		<tag k="place" v="farm" />
		<tag k="ssr:stedsnr" v="449256" />
	</node>
	<node id="-22645" lat="58.884791671" lon="5.68806111733">
		<tag k="name" v="Nattskrinet" />
		<tag k="natural" v="hill" />
		<tag k="place" v="locality" />
		<tag k="ssr:stedsnr" v="449249" />
	</node>
	<node id="-22644" lat="58.8900611074" lon="5.65094167296">
		<tag k="fixme" v="consider natural=peak for the most distinct mountains in the district" />
		<tag k="name" v="Torvberget" />
		<tag k="natural" v="hill" />
		<tag k="place" v="locality" />
		<tag k="ssr:stedsnr" v="449247" />
	</node>
	<node id="-22643" lat="58.8920416672" lon="5.65748333274">
		<tag k="fixme" v="consider natural=peak for the most distinct mountains in the district" />
		<tag k="name" v="Storaberget" />
		<tag k="natural" v="hill" />
		<tag k="place" v="locality" />
		<tag k="ssr:stedsnr" v="449245" />
	</node>
	<node id="-22642" lat="58.8882805559" lon="5.6177916744">
		<tag k="alt_name" v="Sola;Sola kyrkje" />
		<tag k="amenity" v="place_of_worship" />
		<tag k="denomination" v="lutheran" />
		<tag k="name" v="Sola kirke" />
		<tag k="religion" v="christian" />
		<tag k="ssr:stedsnr" v="244959" />
	</node>
	<node id="-22641" lat="58.8814361155" lon="5.47191667188">
		<tag k="alt_name" v="Faksen, in" />
		<tag k="fixme" v="consider seamark:type=rock or natural=shoal" />
		<tag k="name" v="Indre Faksen" />
		<tag k="place" v="islet" />
		<tag k="ssr:stedsnr" v="244956" />
	</node>
	<node id="-22640" lat="58.8868416624" lon="5.42599166335">
		<tag k="name" v="Tjør" />
		<tag k="place" v="island" />
		<tag k="ssr:stedsnr" v="243967" />
	</node>
	<node id="-22639" lat="58.9236277806" lon="5.59613333153">
		<tag k="name" v="Hamaren" />
		<tag k="natural" v="cape" />
		<tag k="ssr:stedsnr" v="243220" />
	</node>
	<node id="-22638" lat="58.9588253317" lon="5.60756564572">
		<tag k="alt_name" v="Presteskjer;Prestaskjer" />
		<tag k="fixme" v="consider seamark:type=rock or natural=shoal" />
		<tag k="name" v="Prestaskjeret" />
		<tag k="place" v="islet" />
		<tag k="ssr:stedsnr" v="243076" />
	</node>
	<node id="-22637" lat="58.9497611141" lon="5.43519999576">
		<tag k="name" v="Håstein" />
		<tag k="place" v="island" />
		<tag k="ssr:stedsnr" v="243074" />
	</node>
	<node id="-22636" lat="58.9599472251" lon="5.47610832887">
		<tag k="name" v="Hoggene" />
		<tag k="place" v="islet" />
		<tag k="ssr:stedsnr" v="243059" />
	</node>
	<node id="-22635" lat="58.9001672606" lon="5.58884042041">
		<tag k="alt_name" v="Kolnes" />
		<tag k="fixme" v="consider place=hamlet" />
		<tag k="name" v="Sør-Kolnes" />
		<tag k="place" v="farm" />
		<tag k="ssr:stedsnr" v="243023" />
	</node>
	<node id="-22634" lat="58.9270000015" lon="5.6907750052">
		<tag k="name" v="Grannes" />
		<tag k="place" v="farm" />
		<tag k="ssr:stedsnr" v="243010" />
	</node>
	<node id="-22633" lat="58.9199249994" lon="5.5560194529">
		<tag k="name" v="Flatholmen" />
		<tag k="place" v="islet" />
		<tag k="ssr:stedsnr" v="243005" />
	</node>
	<node id="-22632" lat="58.9297888896" lon="5.43625832702">
		<tag k="name" v="Åbreidskallen" />
		<tag k="natural" v="shoal" />
		<tag k="place" v="locality" />
		<tag k="ssr:stedsnr" v="240705" />
	</node>
	<node id="-22631" lat="58.9277138849" lon="5.49186111547">
		<tag k="name" v="Strålausgrunnen" />
		<tag k="natural" v="shoal" />
		<tag k="place" v="locality" />
		<tag k="ssr:stedsnr" v="240681" />
	</node>
	<node id="-22630" lat="58.904644446" lon="5.49932777608">
		<tag k="name" v="Nyvlinggrunnen" />
		<tag k="natural" v="shoal" />
		<tag k="place" v="locality" />
		<tag k="ssr:stedsnr" v="446951" />
	</node>
	<node id="-22629" lat="58.9591388902" lon="5.457588885">
		<tag k="name" v="Smellane" />
		<tag k="place" v="locality" />
		<tag k="seamark:type" v="rock" />
		<tag k="ssr:stedsnr" v="210502" />
	</node>
	<node id="-22628" lat="58.9777222252" lon="5.44697499883">
		<tag k="name" v="Veggen" />
		<tag k="place" v="locality" />
		<tag k="seamark:type" v="rock" />
		<tag k="ssr:stedsnr" v="210316" />
	</node>
	<node id="-22627" lat="58.925597226" lon="5.42810277488">
		<tag k="name" v="Reiparskallen" />
		<tag k="place" v="locality" />
		<tag k="seamark:type" v="rock" />
		<tag k="ssr:stedsnr" v="179669" />
	</node>
	<node id="-22626" lat="58.941952776" lon="5.48399722547">
		<tag k="name" v="Frøsholmane" />
		<tag k="place" v="islet" />
		<tag k="ssr:stedsnr" v="284682" />
	</node>
	<node id="-22624" lat="58.9046909943" lon="5.44707082462">
		<tag k="fixme" v="consider seamark:type=rock or natural=shoal" />
		<tag k="name" v="Store Persskjeret" />
		<tag k="place" v="islet" />
		<tag k="ssr:stedsnr" v="282798" />
	</node>
	<node id="-22623" lat="58.9179777773" lon="5.6632138867">
		<tag k="name" v="Vesthasen" />
		<tag k="natural" v="cape" />
		<tag k="ssr:stedsnr" v="282699" />
	</node>
	<node id="-22622" lat="58.8780555557" lon="5.58016667501">
		<tag k="name" v="Regetorva" />
		<tag k="natural" v="shoal" />
		<tag k="place" v="locality" />
		<tag k="ssr:stedsnr" v="160758" />
	</node>
	<node id="-22621" lat="58.9391583346" lon="5.48961943979">
		<tag k="name" v="Kumlen" />
		<tag k="place" v="islet" />
		<tag k="ssr:stedsnr" v="149503" />
	</node>
	<node id="-22620" lat="58.9229111121" lon="5.59711111241">
		<tag k="fixme" v="consider natural=peak for the most distinct mountains in the district" />
		<tag k="name" v="Hamraberget" />
		<tag k="natural" v="hill" />
		<tag k="place" v="locality" />
		<tag k="ssr:stedsnr" v="145771" />
	</node>
	<node id="-22619" lat="58.9222250034" lon="5.59687778237">
		<tag k="name" v="Vestre-Hamrabukta" />
		<tag k="natural" v="bay" />
		<tag k="ssr:stedsnr" v="145755" />
	</node>
	<node id="-22618" lat="58.951486111" lon="5.6079805596">
		<tag k="name" v="Pighella" />
		<tag k="natural" v="beach" />
		<tag k="place" v="locality" />
		<tag k="ssr:stedsnr" v="271548" />
	</node>
	<node id="-22617" lat="58.8885472201" lon="5.65289166604">
		<tag k="name" v="Sola" />
		<tag k="place" v="village" />
		<tag k="ssr:stedsnr" v="266987" />
	</node>
	<node id="-22616" lat="58.9120611126" lon="5.6071249916">
		<tag k="name" v="Hundaberget" />
		<tag k="natural" v="hill" />
		<tag k="place" v="locality" />
		<tag k="ssr:stedsnr" v="266784" />
	</node>
	<node id="-22615" lat="58.895569448" lon="5.58441110533">
		<tag k="name" v="Søre stranda" />
		<tag k="place" v="locality" />
		<tag k="ssr:stedsnr" v="266746" />
	</node>
	<node id="-22614" lat="58.9563666659" lon="5.57511944443">
		<tag k="name" v="Slettesvik" />
		<tag k="natural" v="bay" />
		<tag k="ssr:stedsnr" v="266464" />
	</node>
	<node id="-22613" lat="58.8349944407" lon="5.56788611835">
		<tag k="name" v="Følhusholen" />
		<tag k="natural" v="hill" />
		<tag k="place" v="locality" />
		<tag k="ssr:stedsnr" v="266383" />
	</node>
	<node id="-22612" lat="58.9142694475" lon="5.5174972139">
		<tag k="name" v="Sørhamn" />
		<tag k="natural" v="bay" />
		<tag k="ssr:stedsnr" v="266359" />
	</node>
	<node id="-22611" lat="58.9301500001" lon="5.63275833026">
		<tag k="name" v="Haughammarbukta" />
		<tag k="natural" v="bay" />
		<tag k="ssr:stedsnr" v="266344" />
	</node>
	<node id="-22610" lat="58.929930556" lon="5.63019999845">
		<tag k="name" v="Nordøyna" />
		<tag k="natural" v="hill" />
		<tag k="place" v="locality" />
		<tag k="ssr:stedsnr" v="266338" />
	</node>
	<node id="-22609" lat="58.9116250035" lon="5.6539027823">
		<tag k="name" v="Sørnesholmen" />
		<tag k="place" v="islet" />
		<tag k="ssr:stedsnr" v="266307" />
	</node>
	<node id="-22608" lat="58.9021194407" lon="5.69098888712">
		<tag k="name" v="Grytnes" />
		<tag k="place" v="locality" />
		<tag k="ssr:stedsnr" v="266277" />
	</node>
	<node id="-22607" lat="58.8895833296" lon="5.68695277851">
		<tag k="name" v="Tangen" />
		<tag k="natural" v="hill" />
		<tag k="place" v="locality" />
		<tag k="ssr:stedsnr" v="266273" />
	</node>
	<node id="-22606" lat="58.8470444448" lon="5.55437499963">
		<tag k="name" v="Kråke" />
		<tag k="place" v="islet" />
		<tag k="ssr:stedsnr" v="266082" />
	</node>
	<node id="-22605" lat="58.8466194436" lon="5.55964723034">
		<tag k="name" v="Veggeviksholmen" />
		<tag k="place" v="islet" />
		<tag k="ssr:stedsnr" v="266081" />
	</node>
	<node id="-22604" lat="58.9177777786" lon="5.55194444383">
		<tag k="name" v="Flatholmsleia" />
		<tag k="place" v="locality" />
		<tag k="ssr:stedsnr" v="263930" />
	</node>
	<node id="-22603" lat="58.9340708304" lon="5.58077552597">
		<tag k="landuse" v="harbour" />
		<tag k="name" v="Austre Hamna" />
		<tag k="seamark:type" v="harbour" />
		<tag k="ssr:stedsnr" v="263924" />
	</node>
	<node id="-22602" lat="58.9006138848" lon="5.57733056214">
		<tag k="fixme" v="consider seamark:type=rock or natural=shoal" />
		<tag k="name" v="Lamsteinane" />
		<tag k="place" v="islet" />
		<tag k="ssr:stedsnr" v="263816" />
	</node>
	<node id="-22601" lat="58.8950888919" lon="5.56151667471">
		<tag k="name" v="Kolnesraset" />
		<tag k="natural" v="shoal" />
		<tag k="place" v="locality" />
		<tag k="ssr:stedsnr" v="263809" />
	</node>
	<node id="-22600" lat="58.9235861131" lon="5.44446110641">
		<tag k="name" v="Søre Hansagrunnen" />
		<tag k="natural" v="shoal" />
		<tag k="place" v="locality" />
		<tag k="ssr:stedsnr" v="118644" />
	</node>
	<node id="-22599" lat="58.8555694439" lon="5.60913610677">
		<tag k="name" v="Ræge" />
		<tag k="place" v="hamlet" />
		<tag k="ssr:stedsnr" v="104048" />
	</node>
	<node id="-22598" lat="58.9267472237" lon="5.6359194476">
		<tag k="name" v="Tedneholmen" />
		<tag k="place" v="islet" />
		<tag k="ssr:stedsnr" v="85271" />
	</node>
	<node id="-22597" lat="58.8957611141" lon="5.66884444672">
		<tag k="fixme" v="consider natural=peak for the most distinct mountains in the district" />
		<tag k="name" v="Åsnuten" />
		<tag k="natural" v="hill" />
		<tag k="place" v="locality" />
		<tag k="ssr:stedsnr" v="85209" />
	</node>
	<node id="-22596" lat="58.8377416665" lon="5.60007499864">
		<tag k="name" v="Foren" />
		<tag k="place" v="farm" />
		<tag k="ssr:stedsnr" v="84418" />
	</node>
	<node id="-22595" lat="58.8420555526" lon="5.56178610655">
		<tag k="name" v="Skardasanden" />
		<tag k="natural" v="beach" />
		<tag k="place" v="locality" />
		<tag k="ssr:stedsnr" v="84406" />
	</node>
	<node id="-22594" lat="58.8550916696" lon="5.5676833374">
		<tag k="fixme" v="consider natural=peak for the most distinct mountains in the district" />
		<tag k="name" v="Nilsaberget" />
		<tag k="natural" v="hill" />
		<tag k="place" v="locality" />
		<tag k="ssr:stedsnr" v="84403" />
	</node>
	<node id="-22593" lat="58.9375222264" lon="5.43375556367">
		<tag k="alt_name" v="Revingen, l" />
		<tag k="name" v="Litle Revingen" />
		<tag k="place" v="islet" />
		<tag k="ssr:stedsnr" v="244048" />
	</node>
	<node id="-22592" lat="58.9462149394" lon="5.5957129603">
		<tag k="alt_name" v="Mæland" />
		<tag k="fixme" v="consider place=hamlet" />
		<tag k="name" v="Meland" />
		<tag k="place" v="farm" />
		<tag k="ssr:stedsnr" v="244043" />
	</node>
	<node id="-22591" lat="58.9239780816" lon="5.56740366641">
		<tag k="name" v="Staholmen" />
		<tag k="place" v="islet" />
		<tag k="ssr:stedsnr" v="243001" />
	</node>
	<node id="-22590" lat="58.9088527798" lon="5.44540277464">
		<tag k="fixme" v="consider seamark:type=rock or natural=shoal" />
		<tag k="name" v="Skata" />
		<tag k="place" v="islet" />
		<tag k="ssr:stedsnr" v="41665" />
	</node>
	<node id="-22589" lat="58.8513194458" lon="5.45930277182">
		<tag k="name" v="Hågrunnen" />
		<tag k="natural" v="shoal" />
		<tag k="place" v="locality" />
		<tag k="ssr:stedsnr" v="39813" />
	</node>
	<node id="-22588" lat="58.8874472236" lon="5.46328333622">
		<tag k="name" v="Borgaren" />
		<tag k="place" v="locality" />
		<tag k="seamark:type" v="rock" />
		<tag k="ssr:stedsnr" v="39208" />
	</node>
	<node id="-22587" lat="58.9390055545" lon="5.57414166482">
		<tag k="bridge" v="yes" />
		<tag k="layer" v="1" />
		<tag k="name" v="Tananger" />
		<tag k="ssr:stedsnr" v="229651" />
	</node>
	<node id="-22586" lat="58.8833222228" lon="5.66125000209">
		<tag k="name" v="Uthaug" />
		<tag k="natural" v="hill" />
		<tag k="place" v="locality" />
		<tag k="ssr:stedsnr" v="24302" />
	</node>
	<node id="-22585" lat="58.8927999983" lon="5.66461110737">
		<tag k="leisure" v="pitch" />
		<tag k="name" v="Sola Idrettsanlegg" />
		<tag k="ssr:stedsnr" v="24236" />
	</node>
	<node id="-22584" lat="58.8848361132" lon="5.67361389163">
		<tag k="fixme" v="consider natural=peak for the most distinct mountains in the district" />
		<tag k="name" v="Litlaberget" />
		<tag k="natural" v="hill" />
		<tag k="place" v="locality" />
		<tag k="ssr:stedsnr" v="24233" />
	</node>
	<node id="-22583" lat="58.8957999992" lon="5.62318055499">
		<tag k="name" v="Roleghetsmyra" />
		<tag k="place" v="locality" />
		<tag k="ssr:stedsnr" v="24229" />
	</node>
	<node id="-22582" lat="58.8335805534" lon="5.55272500305">
		<tag k="name" v="Bårøyna" />
		<tag k="natural" v="cape" />
		<tag k="ssr:stedsnr" v="221752" />
	</node>
	<node id="-22581" lat="58.9269333311" lon="5.60396111609">
		<tag k="name" v="Risagrunnen" />
		<tag k="natural" v="shoal" />
		<tag k="place" v="locality" />
		<tag k="ssr:stedsnr" v="221227" />
	</node>
</osm>
