<?xml version="1.0" encoding="UTF-8"?>
<osm version="0.6" generator="osmapis">
	<node lat="63.698672219268815" lon="11.040788891085784" id="-87367">
		<tag k="alt_name" v="Ekne" />
		<tag k="amenity" v="place_of_worship" />
		<tag k="denomination" v="lutheran" />
		<tag k="name" v="Ekne kirke" />
		<tag k="religion" v="christian" />
		<tag k="ssr:stedsnr" v="266961" />
	</node>
	<node lat="63.78663055712219" lon="11.110980562661556" id="-87488">
		<tag k="name" v="Slåssporten" />
		<tag k="place" v="locality" />
		<tag k="ssr:stedsnr" v="291110" />
	</node>
	<node lat="63.72165277833178" lon="11.310916659833183" id="-87629">
		<tag k="amenity" v="community_centre" />
		<tag k="name" v="Bjørkheim grendehus" />
		<tag k="ssr:stedsnr" v="386604" />
	</node>
	<node lat="63.63667129008631" lon="11.274623624736464" id="-87755">
		<tag k="amenity" v="place_of_worship" />
		<tag k="denomination" v="lutheran" />
		<tag k="name" v="Markabygda kirke" />
		<tag k="old_name" v="Markabygd" />
		<tag k="religion" v="christian" />
		<tag k="ssr:stedsnr" v="498438" />
	</node>
	<node lat="63.701011109842504" lon="10.959399990288668" id="-87820">
		<tag k="name" v="Bursenga" />
		<tag k="place" v="locality" />
		<tag k="ssr:stedsnr" v="534319" />
	</node>
	<node lat="63.730363884917615" lon="11.385475000683392" id="-87864">
		<tag k="name" v="Munkeby kloster" />
		<tag k="ssr:stedsnr" v="690758" />
		<tag k="tourism" v="attraction" />
	</node>
	<node lat="63.594983615367255" lon="10.94181042816237" id="-88048">
		<tag k="amenity" v="community_centre" />
		<tag k="name" v="Solhaug" />
		<tag k="ssr:stedsnr" v="897496" />
	</node>
	<node lat="63.70286667077111" lon="11.038852773325573" id="-88129">
		<tag k="amenity" v="community_centre" />
		<tag k="name" v="Haugen forsamlingshus" />
		<tag k="ssr:stedsnr" v="751975" />
	</node>
	<node lat="63.617118588272994" lon="11.394802168531099" id="-88161">
		<tag k="name" v="Årenget" />
		<tag k="place" v="locality" />
		<tag k="ssr:stedsnr" v="802473" />
	</node>
	<node lat="63.73650277760435" lon="11.342011116482164" id="-88181">
		<tag k="amenity" v="community_centre" />
		<tag k="name" v="Hegle grendehus" />
		<tag k="ssr:stedsnr" v="811630" />
	</node>
	<node lat="63.606261177670106" lon="11.038263024825383" id="-88342">
		<tag k="alt_name" v="Åsen" />
		<tag k="amenity" v="place_of_worship" />
		<tag k="denomination" v="lutheran" />
		<tag k="name" v="Åsen kirke" />
		<tag k="religion" v="christian" />
		<tag k="ssr:stedsnr" v="923908" />
	</node>
	<node lat="63.80177499872168" lon="11.14351387883873" id="-88351">
		<tag k="alt_name" v="Ytterøy" />
		<tag k="amenity" v="place_of_worship" />
		<tag k="denomination" v="lutheran" />
		<tag k="name" v="Ytterøy kirke" />
		<tag k="religion" v="christian" />
		<tag k="ssr:stedsnr" v="924816" />
	</node>
	<node lat="63.729088889836426" lon="11.446380546625706" id="-88366">
		<tag k="amenity" v="community_centre" />
		<tag k="name" v="Breidablikk" />
		<tag k="ssr:stedsnr" v="939991" />
	</node>
	<node lat="63.68758333637286" lon="11.312202783744857" id="-88515">
		<tag k="amenity" v="community_centre" />
		<tag k="name" v="Torsbustadhytta" />
		<tag k="ssr:stedsnr" v="60150" />
	</node>
	<node lat="63.75532221837097" lon="11.387930549748534" id="-88854">
		<tag k="amenity" v="community_centre" />
		<tag k="name" v="Nordtun" />
		<tag k="ssr:stedsnr" v="204714" />
	</node>
	<node lat="63.65124722581272" lon="10.990088882479474" id="-89136">
		<tag k="name" v="Bonløftkastet" />
		<tag k="place" v="locality" />
		<tag k="ssr:stedsnr" v="412230" />
	</node>
	<node lat="63.723887981752036" lon="11.225148661438865" id="-89468">
		<tag k="amenity" v="place_of_worship" />
		<tag k="denomination" v="lutheran" />
		<tag k="name" v="Alstadhaug kirke" />
		<tag k="religion" v="christian" />
		<tag k="ssr:stedsnr" v="619651" />
	</node>
	<node lat="63.5939138851201" lon="11.247063896872161" id="-89696">
		<tag k="name" v="Benkåsvollen" />
		<tag k="place" v="locality" />
		<tag k="ssr:stedsnr" v="802497" />
	</node>
	<node lat="63.7284551083743" lon="11.451809968587309" id="-89807">
		<tag k="alt_name" v="Okkenhaug kapell" />
		<tag k="amenity" v="place_of_worship" />
		<tag k="denomination" v="lutheran" />
		<tag k="name" v="Okkenhaug kirke" />
		<tag k="religion" v="christian" />
		<tag k="ssr:stedsnr" v="862619" />
	</node>
</osm>
