<?xml version="1.0" encoding="UTF-8"?>
<osm version="0.6" generator="osmapis">
	<node lat="63.64517778156354" lon="11.29301666911895" id="-43217">
		<tag k="name" v="Bumyran" />
		<tag k="natural" v="wetland" />
		<tag k="ssr:stedsnr" v="230563" />
	</node>
	<node lat="63.67408889162176" lon="11.270791662486365" id="-43219">
		<tag k="name" v="Småmyran" />
		<tag k="natural" v="wetland" />
		<tag k="ssr:stedsnr" v="230577" />
	</node>
	<node lat="63.641538889742115" lon="11.198991670647867" id="-43227">
		<tag k="name" v="Sirimyra" />
		<tag k="natural" v="wetland" />
		<tag k="ssr:stedsnr" v="231552" />
	</node>
	<node lat="63.60155000266415" lon="11.189636101282408" id="-43228">
		<tag k="name" v="Langmyra" />
		<tag k="natural" v="wetland" />
		<tag k="ssr:stedsnr" v="231570" />
	</node>
	<node lat="63.70776667111091" lon="11.504772212614329" id="-43240">
		<tag k="alt_name" v="Skågsetmyra" />
		<tag k="name" v="Stormyra" />
		<tag k="natural" v="wetland" />
		<tag k="ssr:stedsnr" v="13581" />
	</node>
	<node lat="63.730977774617784" lon="11.220922214084178" id="-43249">
		<tag k="name" v="Flatsveet" />
		<tag k="place" v="locality" />
		<tag k="ssr:stedsnr" v="22701" />
	</node>
	<node lat="63.6811027738057" lon="11.276219434406762" id="-43262">
		<tag k="name" v="Tjønnmyrstrupen" />
		<tag k="natural" v="wetland" />
		<tag k="ssr:stedsnr" v="48510" />
	</node>
	<node lat="63.67457499970442" lon="11.27528611227209" id="-43263">
		<tag k="name" v="Raudmyra" />
		<tag k="natural" v="wetland" />
		<tag k="ssr:stedsnr" v="48512" />
	</node>
	<node lat="63.62008055807749" lon="11.240127782819991" id="-43267">
		<tag k="name" v="Sandmyra" />
		<tag k="natural" v="wetland" />
		<tag k="ssr:stedsnr" v="49586" />
	</node>
	<node lat="63.644947221797246" lon="11.309336118919376" id="-43306">
		<tag k="name" v="Brannmyra" />
		<tag k="natural" v="wetland" />
		<tag k="ssr:stedsnr" v="86364" />
	</node>
	<node lat="63.66239444383103" lon="11.522811113790121" id="-43309">
		<tag k="name" v="Hundkjerka" />
		<tag k="natural" v="stone" />
		<tag k="ssr:stedsnr" v="87404" />
	</node>
	<node lat="63.70740833624446" lon="11.544833335472518" id="-43314">
		<tag k="name" v="Fuglmyra" />
		<tag k="natural" v="wetland" />
		<tag k="ssr:stedsnr" v="87419" />
	</node>
	<node lat="63.69237777607604" lon="11.565202768488517" id="-43316">
		<tag k="historic" v="shieling" />
		<tag k="name" v="Burvollen" />
		<tag k="place" v="locality" />
		<tag k="ssr:stedsnr" v="87430" />
	</node>
	<node lat="63.68244166479452" lon="11.450644443531107" id="-43318">
		<tag k="name" v="Jerusalemmyra" />
		<tag k="natural" v="wetland" />
		<tag k="ssr:stedsnr" v="90985" />
	</node>
	<node lat="63.65635258706661" lon="11.041948489274613" id="-43325">
		<tag k="name" v="Finnmyra" />
		<tag k="natural" v="wetland" />
		<tag k="ssr:stedsnr" v="108206" />
	</node>
	<node lat="63.56110055069001" lon="10.945528192649336" id="-43327">
		<tag k="name" v="Storslåttmyra" />
		<tag k="natural" v="wetland" />
		<tag k="ssr:stedsnr" v="108508" />
	</node>
	<node lat="63.65680833472351" lon="11.190544445746509" id="-43330">
		<tag k="name" v="Skarmyra" />
		<tag k="natural" v="wetland" />
		<tag k="ssr:stedsnr" v="109028" />
	</node>
	<node lat="63.668586110920245" lon="11.25268889648784" id="-43336">
		<tag k="name" v="Morsetmyra" />
		<tag k="natural" v="wetland" />
		<tag k="ssr:stedsnr" v="109507" />
	</node>
	<node lat="63.666002778043804" lon="11.269441663785672" id="-43337">
		<tag k="name" v="Bogtremyra" />
		<tag k="natural" v="wetland" />
		<tag k="ssr:stedsnr" v="109508" />
	</node>
	<node lat="63.69090555827995" lon="10.978605563154002" id="-43365">
		<tag k="name" v="Korpfjellmyra" />
		<tag k="natural" v="wetland" />
		<tag k="ssr:stedsnr" v="143545" />
	</node>
	<node lat="63.69293055315216" lon="11.513600008951267" id="-43405">
		<tag k="name" v="Sjursmyra" />
		<tag k="natural" v="wetland" />
		<tag k="ssr:stedsnr" v="256516" />
	</node>
	<node lat="63.582693350022474" lon="11.065658763607818" id="-43423">
		<tag k="historic" v="shieling" />
		<tag k="name" v="Rotbuvollen" />
		<tag k="place" v="locality" />
		<tag k="ssr:stedsnr" v="168403" />
	</node>
	<node lat="63.636397226624126" lon="10.997352785394542" id="-43431">
		<tag k="name" v="Korsmyra" />
		<tag k="natural" v="wetland" />
		<tag k="ssr:stedsnr" v="170316" />
	</node>
	<node lat="63.67188333145726" lon="10.96331665659293" id="-43432">
		<tag k="name" v="Marsjslette" />
		<tag k="place" v="locality" />
		<tag k="ssr:stedsnr" v="170371" />
	</node>
	<node lat="63.7276222216337" lon="11.284127770455616" id="-43438">
		<tag k="name" v="Momarka" />
		<tag k="place" v="locality" />
		<tag k="ssr:stedsnr" v="265653" />
	</node>
	<node lat="63.70497500336682" lon="11.005094450131795" id="-43463">
		<tag k="name" v="Ritaholet" />
		<tag k="place" v="locality" />
		<tag k="ssr:stedsnr" v="204518" />
	</node>
	<node lat="63.69298610886753" lon="11.257947231506988" id="-43464">
		<tag k="name" v="Leinsmyra" />
		<tag k="natural" v="wetland" />
		<tag k="ssr:stedsnr" v="204520" />
	</node>
	<node lat="63.70897500414485" lon="11.022830554634817" id="-43475">
		<tag k="name" v="Nordåkeren" />
		<tag k="place" v="locality" />
		<tag k="ssr:stedsnr" v="205946" />
	</node>
	<node lat="63.69354444364447" lon="11.486269438514984" id="-43478">
		<tag k="name" v="Sørgårdssletta" />
		<tag k="natural" v="wetland" />
		<tag k="ssr:stedsnr" v="268325" />
	</node>
	<node lat="63.72581944467309" lon="11.53821110800553" id="-43482">
		<tag k="name" v="Burmyra" />
		<tag k="natural" v="wetland" />
		<tag k="ssr:stedsnr" v="208417" />
	</node>
	<node lat="63.64665873072818" lon="11.154853661851963" id="-43493">
		<tag k="name" v="Linsvedalsmyra" />
		<tag k="natural" v="wetland" />
		<tag k="ssr:stedsnr" v="229031" />
	</node>
	<node lat="63.66676388561738" lon="11.245563890239374" id="-43501">
		<tag k="name" v="Svemyra" />
		<tag k="natural" v="wetland" />
		<tag k="ssr:stedsnr" v="230527" />
	</node>
	<node lat="63.680647218390966" lon="11.351258340011645" id="-43506">
		<tag k="name" v="Lundholmyra" />
		<tag k="natural" v="wetland" />
		<tag k="ssr:stedsnr" v="450328" />
	</node>
	<node lat="63.69057221984606" lon="11.41154721816716" id="-43507">
		<tag k="name" v="Ått-tjønnmyra" />
		<tag k="natural" v="wetland" />
		<tag k="ssr:stedsnr" v="450287" />
	</node>
	<node lat="63.64444722427861" lon="11.340655564383749" id="-43510">
		<tag k="name" v="Nystamnmyra" />
		<tag k="natural" v="wetland" />
		<tag k="ssr:stedsnr" v="450353" />
	</node>
	<node lat="63.59694722345533" lon="11.205980553460295" id="-43538">
		<tag k="name" v="Kumyra" />
		<tag k="natural" v="wetland" />
		<tag k="ssr:stedsnr" v="255917" />
	</node>
	<node lat="63.6879277765419" lon="11.18930555856955" id="-43555">
		<tag k="name" v="Tørkhyllflata" />
		<tag k="place" v="locality" />
		<tag k="ssr:stedsnr" v="265648" />
	</node>
	<node lat="63.59327590891411" lon="11.175301480039618" id="-43569">
		<tag k="name" v="Hestmyra" />
		<tag k="natural" v="wetland" />
		<tag k="ssr:stedsnr" v="290079" />
	</node>
	<node lat="63.64922500391356" lon="11.19657778215045" id="-43577">
		<tag k="name" v="Nilsmyra" />
		<tag k="natural" v="wetland" />
		<tag k="ssr:stedsnr" v="291026" />
	</node>
	<node lat="63.70309444064982" lon="11.22187223082441" id="-43626">
		<tag k="name" v="Stavlomoen" />
		<tag k="place" v="locality" />
		<tag k="ssr:stedsnr" v="325607" />
	</node>
	<node lat="63.73116666676819" lon="11.215036112650568" id="-43630">
		<tag k="name" v="Evja" />
		<tag k="place" v="locality" />
		<tag k="ssr:stedsnr" v="325688" />
	</node>
	<node lat="63.69293611284491" lon="11.348922225832347" id="-43637">
		<tag k="name" v="Raudmyrstrupen" />
		<tag k="natural" v="wetland" />
		<tag k="ssr:stedsnr" v="329363" />
	</node>
	<node lat="63.59977506021914" lon="11.16200486781422" id="-43651">
		<tag k="name" v="Kjerringmyra" />
		<tag k="natural" v="wetland" />
		<tag k="ssr:stedsnr" v="472037" />
	</node>
	<node lat="63.58939930287103" lon="11.178781151539" id="-43653">
		<tag k="name" v="Skjelstadmyra" />
		<tag k="natural" v="wetland" />
		<tag k="ssr:stedsnr" v="472054" />
	</node>
	<node lat="63.64944534239048" lon="11.046421717734237" id="-43654">
		<tag k="name" v="Raudmyra" />
		<tag k="natural" v="wetland" />
		<tag k="ssr:stedsnr" v="472201" />
	</node>
	<node lat="63.6764055539855" lon="11.280008332479731" id="-43656">
		<tag k="name" v="Hessemyra" />
		<tag k="natural" v="wetland" />
		<tag k="ssr:stedsnr" v="472543" />
	</node>
	<node lat="63.66048055290224" lon="11.181216672765268" id="-43658">
		<tag k="name" v="Lynåsmyra" />
		<tag k="natural" v="wetland" />
		<tag k="ssr:stedsnr" v="473029" />
	</node>
	<node lat="63.67699722576307" lon="11.002758339841433" id="-43665">
		<tag k="name" v="Negardsdøllen" />
		<tag k="place" v="locality" />
		<tag k="ssr:stedsnr" v="473291" />
	</node>
	<node lat="63.60441944691814" lon="11.275633334217497" id="-43673">
		<tag k="name" v="Nordmyra" />
		<tag k="natural" v="wetland" />
		<tag k="ssr:stedsnr" v="473541" />
	</node>
	<node lat="63.616980558581105" lon="11.332794447569677" id="-43674">
		<tag k="name" v="Stormyra" />
		<tag k="natural" v="wetland" />
		<tag k="ssr:stedsnr" v="473575" />
	</node>
	<node lat="63.61042499780837" lon="11.332391665631247" id="-43675">
		<tag k="name" v="Styggmyra" />
		<tag k="natural" v="wetland" />
		<tag k="ssr:stedsnr" v="473580" />
	</node>
	<node lat="63.66121111015598" lon="11.442508339396724" id="-43679">
		<tag k="name" v="Granavollmyra" />
		<tag k="natural" v="wetland" />
		<tag k="ssr:stedsnr" v="473801" />
	</node>
	<node lat="63.62453055263679" lon="10.965072214384763" id="-43682">
		<tag k="name" v="Storkleivmyra" />
		<tag k="natural" v="wetland" />
		<tag k="ssr:stedsnr" v="349906" />
	</node>
	<node lat="63.60793889073377" lon="11.18008611213441" id="-43690">
		<tag k="name" v="Volmyra" />
		<tag k="natural" v="wetland" />
		<tag k="ssr:stedsnr" v="352502" />
	</node>
	<node lat="63.630288887481285" lon="11.294494451145878" id="-43693">
		<tag k="name" v="Nergardsmyran" />
		<tag k="natural" v="wetland" />
		<tag k="ssr:stedsnr" v="352515" />
	</node>
	<node lat="63.71722222356833" lon="11.275572215543786" id="-43707">
		<tag k="name" v="Tårndalsmyra" />
		<tag k="natural" v="wetland" />
		<tag k="ssr:stedsnr" v="386622" />
	</node>
	<node lat="63.76453610933326" lon="11.031324998382754" id="-43714">
		<tag k="name" v="Nordmyra" />
		<tag k="natural" v="wetland" />
		<tag k="ssr:stedsnr" v="388794" />
	</node>
	<node lat="63.5886266346441" lon="11.129645206034471" id="-43721">
		<tag k="name" v="Ol Jensamyra" />
		<tag k="natural" v="wetland" />
		<tag k="ssr:stedsnr" v="411044" />
	</node>
	<node lat="63.57502386517539" lon="11.122132152101065" id="-43725">
		<tag k="name" v="Lundmyra" />
		<tag k="natural" v="wetland" />
		<tag k="ssr:stedsnr" v="411122" />
	</node>
	<node lat="63.70424444203825" lon="11.28957222123375" id="-43755">
		<tag k="name" v="Hesttrømyra" />
		<tag k="natural" v="wetland" />
		<tag k="ssr:stedsnr" v="447529" />
	</node>
	<node lat="63.754438891294605" lon="11.297002773736855" id="-43766">
		<tag k="name" v="Storøra" />
		<tag k="place" v="locality" />
		<tag k="ssr:stedsnr" v="468168" />
	</node>
	<node lat="63.76469999847738" lon="11.34484445304367" id="-43769">
		<tag k="name" v="Langåkeren" />
		<tag k="place" v="locality" />
		<tag k="ssr:stedsnr" v="469210" />
	</node>
	<node lat="63.5671765861169" lon="11.098285084356693" id="-43770">
		<tag k="name" v="Svartåsvollen" />
		<tag k="place" v="locality" />
		<tag k="ssr:stedsnr" v="471404" />
	</node>
	<node lat="63.574491883929326" lon="10.952155010630953" id="-43771">
		<tag k="name" v="Langåsmyra" />
		<tag k="place" v="locality" />
		<tag k="ssr:stedsnr" v="471514" />
	</node>
	<node lat="63.62708333692771" lon="10.957611111199578" id="-43773">
		<tag k="name" v="Tjønnmyra" />
		<tag k="natural" v="wetland" />
		<tag k="ssr:stedsnr" v="471875" />
	</node>
	<node lat="63.639780554815" lon="11.031930551829118" id="-43777">
		<tag k="name" v="Raudmyra" />
		<tag k="natural" v="wetland" />
		<tag k="ssr:stedsnr" v="473310" />
	</node>
	<node lat="63.60398611141511" lon="11.163072217369692" id="-43811">
		<tag k="name" v="Stormyra" />
		<tag k="natural" v="wetland" />
		<tag k="ssr:stedsnr" v="680917" />
	</node>
	<node lat="63.63289166302703" lon="11.401252768789222" id="-43834">
		<tag k="name" v="Hølbekkmyran" />
		<tag k="natural" v="wetland" />
		<tag k="ssr:stedsnr" v="681384" />
	</node>
	<node lat="63.70623889218861" lon="11.005433326157275" id="-43851">
		<tag k="name" v="Smørholet" />
		<tag k="place" v="locality" />
		<tag k="ssr:stedsnr" v="507556" />
	</node>
	<node lat="63.64449999998628" lon="11.324038886149282" id="-43860">
		<tag k="name" v="Bermyra" />
		<tag k="natural" v="wetland" />
		<tag k="ssr:stedsnr" v="511352" />
	</node>
	<node lat="63.72438889165516" lon="11.524222217945727" id="-43866">
		<tag k="name" v="Neråsmyra" />
		<tag k="natural" v="wetland" />
		<tag k="ssr:stedsnr" v="511414" />
	</node>
	<node lat="63.59410208393316" lon="10.948740858614007" id="-43876">
		<tag k="name" v="Finnmarka" />
		<tag k="place" v="locality" />
		<tag k="ssr:stedsnr" v="532522" />
	</node>
	<node lat="63.68030833057539" lon="10.951002786381606" id="-43881">
		<tag k="name" v="Stormyra" />
		<tag k="natural" v="wetland" />
		<tag k="ssr:stedsnr" v="533272" />
	</node>
	<node lat="63.651944446744935" lon="11.281041662510198" id="-43882">
		<tag k="name" v="Stugumyra" />
		<tag k="natural" v="wetland" />
		<tag k="ssr:stedsnr" v="533602" />
	</node>
	<node lat="63.708583334302986" lon="11.266305554483312" id="-43927">
		<tag k="name" v="Rennimarka" />
		<tag k="place" v="locality" />
		<tag k="ssr:stedsnr" v="690666" />
	</node>
	<node lat="63.70199999864772" lon="10.978261111986791" id="-43939">
		<tag k="name" v="Kalvtrøa" />
		<tag k="place" v="locality" />
		<tag k="ssr:stedsnr" v="690958" />
	</node>
	<node lat="63.69188333668774" lon="11.346091658591384" id="-43943">
		<tag k="name" v="Raudmyra" />
		<tag k="natural" v="wetland" />
		<tag k="ssr:stedsnr" v="693385" />
	</node>
	<node lat="63.72334444149429" lon="11.512636111708565" id="-43965">
		<tag k="name" v="Vennåsmyra" />
		<tag k="natural" v="wetland" />
		<tag k="ssr:stedsnr" v="572453" />
	</node>
	<node lat="63.72364999669353" lon="11.499572220574652" id="-43966">
		<tag k="name" v="Postmyra" />
		<tag k="natural" v="wetland" />
		<tag k="ssr:stedsnr" v="572455" />
	</node>
	<node lat="63.70004444526761" lon="11.336516663386424" id="-43967">
		<tag k="name" v="Bjøråslættet" />
		<tag k="natural" v="wetland" />
		<tag k="ssr:stedsnr" v="572345" />
	</node>
	<node lat="63.58452221837296" lon="11.279780553778316" id="-43976">
		<tag k="name" v="Grønnmyra" />
		<tag k="natural" v="wetland" />
		<tag k="ssr:stedsnr" v="593710" />
	</node>
	<node lat="63.80848055276736" lon="11.190525003347496" id="-43978">
		<tag k="name" v="Stangerholtmyra" />
		<tag k="natural" v="wetland" />
		<tag k="ssr:stedsnr" v="594010" />
	</node>
	<node lat="63.65378333363161" lon="11.252936102663714" id="-43982">
		<tag k="name" v="Ådalsskogen" />
		<tag k="place" v="locality" />
		<tag k="ssr:stedsnr" v="594410" />
	</node>
	<node lat="63.69056666594504" lon="10.960544450083642" id="-43984">
		<tag k="name" v="Torvmyra" />
		<tag k="natural" v="wetland" />
		<tag k="ssr:stedsnr" v="594363" />
	</node>
	<node lat="63.62660277781103" lon="11.320961109798098" id="-43985">
		<tag k="name" v="Trosetmyra" />
		<tag k="natural" v="wetland" />
		<tag k="ssr:stedsnr" v="594522" />
	</node>
	<node lat="63.64983055508249" lon="11.237097223111519" id="-43986">
		<tag k="name" v="Folsmyra" />
		<tag k="natural" v="wetland" />
		<tag k="ssr:stedsnr" v="594562" />
	</node>
	<node lat="63.64549444794355" lon="11.240469441167724" id="-43987">
		<tag k="name" v="Langåsmyra" />
		<tag k="natural" v="wetland" />
		<tag k="ssr:stedsnr" v="594564" />
	</node>
	<node lat="63.65018333665845" lon="11.251313880225506" id="-43988">
		<tag k="name" v="Elgmyran" />
		<tag k="natural" v="wetland" />
		<tag k="ssr:stedsnr" v="594565" />
	</node>
	<node lat="63.74880555366044" lon="11.357658338760524" id="-44020">
		<tag k="name" v="Setersmyran" />
		<tag k="place" v="locality" />
		<tag k="ssr:stedsnr" v="628618" />
	</node>
	<node lat="63.746327779757095" lon="11.22548889696247" id="-44028">
		<tag k="name" v="Russgårdsmyra" />
		<tag k="natural" v="wetland" />
		<tag k="ssr:stedsnr" v="628702" />
	</node>
	<node lat="63.7093277752956" lon="11.400238898344373" id="-44034">
		<tag k="name" v="Fokkmyra" />
		<tag k="natural" v="wetland" />
		<tag k="ssr:stedsnr" v="628719" />
	</node>
	<node lat="63.694361109728526" lon="11.0011944528473" id="-44037">
		<tag k="name" v="Dulmålkammyra" />
		<tag k="natural" v="wetland" />
		<tag k="ssr:stedsnr" v="629558" />
	</node>
	<node lat="63.630174998641" lon="11.576202778799297" id="-44038">
		<tag k="historic" v="shieling" />
		<tag k="name" v="Mulebustaden" />
		<tag k="place" v="locality" />
		<tag k="ssr:stedsnr" v="632421" />
	</node>
	<node lat="63.710550000435866" lon="11.546958332075176" id="-44039">
		<tag k="name" v="Langmyra" />
		<tag k="natural" v="wetland" />
		<tag k="ssr:stedsnr" v="632432" />
	</node>
	<node lat="63.639997223489075" lon="10.953825003561995" id="-44054">
		<tag k="name" v="Grasmyra" />
		<tag k="natural" v="wetland" />
		<tag k="ssr:stedsnr" v="653840" />
	</node>
	<node lat="63.6362305532226" lon="11.021744451643345" id="-44061">
		<tag k="name" v="Stamnmyra" />
		<tag k="natural" v="wetland" />
		<tag k="ssr:stedsnr" v="655290" />
	</node>
	<node lat="63.631783333171526" lon="11.255875008819928" id="-44062">
		<tag k="name" v="Myrskogmyran" />
		<tag k="natural" v="wetland" />
		<tag k="ssr:stedsnr" v="655494" />
	</node>
	<node lat="63.601480556842034" lon="11.283455564384475" id="-44064">
		<tag k="name" v="Vargdalsmyra" />
		<tag k="natural" v="wetland" />
		<tag k="ssr:stedsnr" v="655534" />
	</node>
	<node lat="63.60525277895661" lon="11.29415278041753" id="-44065">
		<tag k="name" v="Moslettan" />
		<tag k="natural" v="wetland" />
		<tag k="ssr:stedsnr" v="655536" />
	</node>
	<node lat="63.60432500359159" lon="11.262433331686234" id="-44066">
		<tag k="name" v="Mølnåmyra" />
		<tag k="natural" v="wetland" />
		<tag k="ssr:stedsnr" v="655543" />
	</node>
	<node lat="63.70579722480481" lon="11.276563888316915" id="-44091">
		<tag k="name" v="Dalan" />
		<tag k="natural" v="wetland" />
		<tag k="ssr:stedsnr" v="690605" />
	</node>
	<node lat="63.684498593921354" lon="11.059812145692243" id="-44103">
		<tag k="name" v="Byamarka" />
		<tag k="place" v="locality" />
		<tag k="ssr:stedsnr" v="897184" />
	</node>
	<node lat="63.56738003208504" lon="11.032649158895799" id="-44104">
		<tag k="historic" v="shieling" />
		<tag k="name" v="Undlivollen" />
		<tag k="place" v="locality" />
		<tag k="ssr:stedsnr" v="897370" />
	</node>
	<node lat="63.57544072281154" lon="10.965158484994536" id="-44105">
		<tag k="name" v="Stråmyra" />
		<tag k="natural" v="wetland" />
		<tag k="ssr:stedsnr" v="897460" />
	</node>
	<node lat="63.735516663191284" lon="11.123213893673453" id="-44109">
		<tag k="landuse" v="meadow" />
		<tag k="name" v="Litlsletta" />
		<tag k="ssr:stedsnr" v="898074" />
	</node>
	<node lat="63.6818138904085" lon="10.968636108950433" id="-44112">
		<tag k="name" v="Bjørkåsmyra" />
		<tag k="natural" v="wetland" />
		<tag k="ssr:stedsnr" v="898261" />
	</node>
	<node lat="63.622711109881735" lon="11.304969452061385" id="-44121">
		<tag k="name" v="Skjevelåsmyran" />
		<tag k="natural" v="wetland" />
		<tag k="ssr:stedsnr" v="898535" />
	</node>
	<node lat="63.62886111248059" lon="10.966886116104618" id="-44125">
		<tag k="name" v="Brennmyra" />
		<tag k="natural" v="wetland" />
		<tag k="ssr:stedsnr" v="713875" />
	</node>
	<node lat="63.62774166856942" lon="10.971513879461725" id="-44126">
		<tag k="name" v="Storkleivmyra" />
		<tag k="natural" v="wetland" />
		<tag k="ssr:stedsnr" v="713882" />
	</node>
	<node lat="63.65949034583207" lon="11.100981752507526" id="-44132">
		<tag k="name" v="Nesmarka" />
		<tag k="place" v="locality" />
		<tag k="ssr:stedsnr" v="715172" />
	</node>
	<node lat="63.6544346476574" lon="11.047302886052279" id="-44133">
		<tag k="name" v="Fuglleikmyra" />
		<tag k="natural" v="wetland" />
		<tag k="ssr:stedsnr" v="715209" />
	</node>
	<node lat="63.61016667031446" lon="11.325636119490008" id="-44142">
		<tag k="name" v="Raudmyra" />
		<tag k="natural" v="wetland" />
		<tag k="ssr:stedsnr" v="716605" />
	</node>
	<node lat="63.60864444829882" lon="11.345394436120172" id="-44143">
		<tag k="name" v="Småmyran" />
		<tag k="natural" v="wetland" />
		<tag k="ssr:stedsnr" v="716608" />
	</node>
	<node lat="63.582708337263625" lon="11.13257499049874" id="-44159">
		<tag k="name" v="Stormyra" />
		<tag k="natural" v="wetland" />
		<tag k="ssr:stedsnr" v="741197" />
	</node>
	<node lat="63.6404583330745" lon="11.076288879360902" id="-44192">
		<tag k="name" v="Nonstadmarka" />
		<tag k="place" v="locality" />
		<tag k="ssr:stedsnr" v="775153" />
	</node>
	<node lat="63.68519444791403" lon="11.421155560743623" id="-44210">
		<tag k="historic" v="shieling" />
		<tag k="name" v="Davebustad" />
		<tag k="place" v="locality" />
		<tag k="ssr:stedsnr" v="802613" />
	</node>
	<node lat="63.64843569821493" lon="11.144712800588241" id="-44271">
		<tag k="name" v="Lunnmyra" />
		<tag k="natural" v="wetland" />
		<tag k="ssr:stedsnr" v="836016" />
	</node>
	<node lat="63.659311109091405" lon="11.269575009398192" id="-44277">
		<tag k="name" v="Korsmyra" />
		<tag k="natural" v="wetland" />
		<tag k="ssr:stedsnr" v="837584" />
	</node>
	<node lat="63.602669440628354" lon="11.322836115969945" id="-44284">
		<tag k="name" v="Kammyra" />
		<tag k="natural" v="wetland" />
		<tag k="ssr:stedsnr" v="838578" />
	</node>
	<node lat="63.61820832915894" lon="11.35973889711906" id="-44287">
		<tag k="name" v="Stormyra" />
		<tag k="natural" v="wetland" />
		<tag k="ssr:stedsnr" v="838613" />
	</node>
	<node lat="63.67694722049891" lon="10.925936114713044" id="-44310">
		<tag k="name" v="Nordmyra" />
		<tag k="natural" v="wetland" />
		<tag k="ssr:stedsnr" v="863091" />
	</node>
	<node lat="63.65058055458078" lon="11.235386105941853" id="-44318">
		<tag k="name" v="Langåsmyran" />
		<tag k="natural" v="wetland" />
		<tag k="ssr:stedsnr" v="863542" />
	</node>
	<node lat="63.71210555385745" lon="11.314588885818472" id="-44330">
		<tag k="name" v="Matbergsmyra" />
		<tag k="natural" v="wetland" />
		<tag k="ssr:stedsnr" v="932560" />
	</node>
	<node lat="63.70105000419894" lon="10.999952787507072" id="-44341">
		<tag k="name" v="Børresveet" />
		<tag k="place" v="locality" />
		<tag k="ssr:stedsnr" v="933973" />
	</node>
	<node lat="63.6550777816225" lon="11.101425000533478" id="-44350">
		<tag k="name" v="Nordmarka" />
		<tag k="place" v="locality" />
		<tag k="ssr:stedsnr" v="897154" />
	</node>
	<node lat="63.609063885156594" lon="10.943494438931399" id="-44362">
		<tag k="name" v="Korsmyra" />
		<tag k="natural" v="wetland" />
		<tag k="ssr:stedsnr" v="228819" />
	</node>
</osm>
