<?xml version="1.0" encoding="UTF-8"?>
<osm version="0.6" generator="osmapis">
	<node lat="63.78676666227684" lon="11.133394443874344" id="-43212">
		<tag k="name" v="Svanskkleiva" />
		<tag k="natural" v="slope" />
		<tag k="place" v="locality" />
		<tag k="ssr:stedsnr" v="230124" />
	</node>
	<node lat="63.648627778065794" lon="11.287194452422218" id="-43213">
		<tag k="fixme" v="consider natural=peak for the most distinct mountains in the district" />
		<tag k="name" v="Flatåsen" />
		<tag k="natural" v="hill" />
		<tag k="place" v="locality" />
		<tag k="ssr:stedsnr" v="230389" />
	</node>
	<node lat="63.603388889991244" lon="11.333047216180184" id="-43216">
		<tag k="name" v="Slettbrekka" />
		<tag k="natural" v="slope" />
		<tag k="place" v="locality" />
		<tag k="ssr:stedsnr" v="230552" />
	</node>
	<node lat="63.67971666698128" lon="11.262836101309759" id="-43218">
		<tag k="fixme" v="consider natural=peak for the most distinct mountains in the district" />
		<tag k="name" v="Arnemyrberget" />
		<tag k="natural" v="hill" />
		<tag k="place" v="locality" />
		<tag k="ssr:stedsnr" v="230565" />
	</node>
	<node lat="63.76854444255212" lon="11.057969450962384" id="-43220">
		<tag k="name" v="Nøvikdalen" />
		<tag k="natural" v="valley" />
		<tag k="place" v="locality" />
		<tag k="ssr:stedsnr" v="231119" />
	</node>
	<node lat="63.68913889030408" lon="10.950163895743493" id="-43222">
		<tag k="name" v="Merratrongen" />
		<tag k="natural" v="valley" />
		<tag k="place" v="locality" />
		<tag k="ssr:stedsnr" v="231358" />
	</node>
	<node lat="63.63832222408288" lon="11.205536107553037" id="-43226">
		<tag k="fixme" v="consider natural=peak for the most distinct mountains in the district" />
		<tag k="name" v="Tjønnhaugen" />
		<tag k="natural" v="hill" />
		<tag k="place" v="locality" />
		<tag k="ssr:stedsnr" v="231546" />
	</node>
	<node lat="63.68352778184757" lon="11.490474995829828" id="-43239">
		<tag k="fixme" v="consider natural=peak for the most distinct mountains in the district" />
		<tag k="name" v="Børsåsen" />
		<tag k="natural" v="hill" />
		<tag k="place" v="locality" />
		<tag k="ssr:stedsnr" v="13568" />
	</node>
	<node lat="63.621577774048276" lon="10.951649992855359" id="-43244">
		<tag k="name" v="Bontoppen" />
		<tag k="natural" v="hill" />
		<tag k="place" v="locality" />
		<tag k="ssr:stedsnr" v="13959" />
	</node>
	<node lat="63.70409722144377" lon="11.205591665747958" id="-43248">
		<tag k="name" v="Sanddal" />
		<tag k="natural" v="slope" />
		<tag k="place" v="locality" />
		<tag k="ssr:stedsnr" v="22488" />
	</node>
	<node lat="63.701313889210184" lon="11.472586115589545" id="-43250">
		<tag k="name" v="Kvitsteinhaugen" />
		<tag k="natural" v="hill" />
		<tag k="place" v="locality" />
		<tag k="ssr:stedsnr" v="25328" />
	</node>
	<node lat="63.740527778189104" lon="11.481241665339358" id="-43252">
		<tag k="fixme" v="consider natural=peak for the most distinct mountains in the district" />
		<tag k="name" v="Lauvhaugåsen" />
		<tag k="natural" v="hill" />
		<tag k="place" v="locality" />
		<tag k="ssr:stedsnr" v="29987" />
	</node>
	<node lat="63.79083611457949" lon="11.133461110604886" id="-43254">
		<tag k="name" v="Snasa" />
		<tag k="place" v="locality" />
		<tag k="ssr:stedsnr" v="44377" />
	</node>
	<node lat="63.69659999630352" lon="10.956430550642555" id="-43265">
		<tag k="name" v="Håmmårplassen" />
		<tag k="place" v="locality" />
		<tag k="ssr:stedsnr" v="49373" />
	</node>
	<node lat="63.6177361070105" lon="11.236094449227963" id="-43266">
		<tag k="fixme" v="consider natural=peak for the most distinct mountains in the district" />
		<tag k="name" v="Grindmyråsen" />
		<tag k="natural" v="hill" />
		<tag k="place" v="locality" />
		<tag k="ssr:stedsnr" v="49581" />
	</node>
	<node lat="63.61599166614673" lon="11.518805546533969" id="-43269">
		<tag k="name" v="Eggavola" />
		<tag k="natural" v="hill" />
		<tag k="place" v="locality" />
		<tag k="ssr:stedsnr" v="73405" />
	</node>
	<node lat="63.66073889027364" lon="11.092641662945454" id="-43279">
		<tag k="name" v="Rugsveklumpen" />
		<tag k="natural" v="hill" />
		<tag k="place" v="locality" />
		<tag k="ssr:stedsnr" v="74067" />
	</node>
	<node lat="63.5838555558477" lon="11.209269442580688" id="-43288">
		<tag k="alt_name" v="Haukåskammen" />
		<tag k="fixme" v="consider natural=peak for the most distinct mountains in the district" />
		<tag k="name" v="Haukåsen" />
		<tag k="natural" v="hill" />
		<tag k="place" v="locality" />
		<tag k="ssr:stedsnr" v="74804" />
	</node>
	<node lat="63.7163194423837" lon="11.219669439257888" id="-43295">
		<tag k="name" v="Korsbakken" />
		<tag k="natural" v="slope" />
		<tag k="place" v="locality" />
		<tag k="ssr:stedsnr" v="83515" />
	</node>
	<node lat="63.73552499919129" lon="11.311538879274353" id="-43297">
		<tag k="name" v="Alosaberget" />
		<tag k="natural" v="hill" />
		<tag k="place" v="locality" />
		<tag k="ssr:stedsnr" v="83639" />
	</node>
	<node lat="63.73808055607558" lon="11.353708337542761" id="-43298">
		<tag k="fixme" v="consider natural=peak for the most distinct mountains in the district" />
		<tag k="name" v="Heirskammen" />
		<tag k="natural" v="hill" />
		<tag k="place" v="locality" />
		<tag k="ssr:stedsnr" v="83644" />
	</node>
	<node lat="63.72661388881902" lon="11.264200006556258" id="-43302">
		<tag k="name" v="Nossumshyllan" />
		<tag k="natural" v="slope" />
		<tag k="place" v="locality" />
		<tag k="ssr:stedsnr" v="83594" />
	</node>
	<node lat="63.66873333186507" lon="11.305241671433738" id="-43307">
		<tag k="fixme" v="consider natural=peak for the most distinct mountains in the district" />
		<tag k="name" v="Soonåsen" />
		<tag k="natural" v="hill" />
		<tag k="place" v="locality" />
		<tag k="ssr:stedsnr" v="86367" />
	</node>
	<node lat="63.655611112635256" lon="11.503177771038407" id="-43310">
		<tag k="fixme" v="consider natural=peak for the most distinct mountains in the district" />
		<tag k="name" v="Hanevola" />
		<tag k="natural" v="hill" />
		<tag k="place" v="locality" />
		<tag k="ssr:stedsnr" v="87408" />
	</node>
	<node lat="63.7259111099829" lon="11.525655560719265" id="-43312">
		<tag k="name" v="Djupdalen" />
		<tag k="natural" v="valley" />
		<tag k="place" v="locality" />
		<tag k="ssr:stedsnr" v="87411" />
	</node>
	<node lat="63.71721666573554" lon="11.502902768204574" id="-43313">
		<tag k="name" v="Kårabakken" />
		<tag k="natural" v="slope" />
		<tag k="place" v="locality" />
		<tag k="ssr:stedsnr" v="87415" />
	</node>
	<node lat="63.70806388525933" lon="11.52558611671465" id="-43315">
		<tag k="fixme" v="consider natural=peak for the most distinct mountains in the district" />
		<tag k="name" v="Nordåsen" />
		<tag k="natural" v="hill" />
		<tag k="place" v="locality" />
		<tag k="ssr:stedsnr" v="87426" />
	</node>
	<node lat="63.61809722519884" lon="10.965722231361996" id="-43322">
		<tag k="fixme" v="consider natural=peak for the most distinct mountains in the district" />
		<tag k="name" v="Høgåsen" />
		<tag k="natural" v="hill" />
		<tag k="place" v="locality" />
		<tag k="ssr:stedsnr" v="107809" />
	</node>
	<node lat="63.74830555715244" lon="11.01723888353085" id="-43331">
		<tag k="name" v="Kletten" />
		<tag k="natural" v="hill" />
		<tag k="place" v="locality" />
		<tag k="ssr:stedsnr" v="109083" />
	</node>
	<node lat="63.6258972219275" lon="11.334883327271346" id="-43334">
		<tag k="name" v="Skaret" />
		<tag k="natural" v="valley" />
		<tag k="place" v="locality" />
		<tag k="ssr:stedsnr" v="109504" />
	</node>
	<node lat="63.63701944754402" lon="11.359999994204758" id="-43335">
		<tag k="fixme" v="consider natural=peak for the most distinct mountains in the district" />
		<tag k="name" v="Høgåsen" />
		<tag k="natural" v="hill" />
		<tag k="place" v="locality" />
		<tag k="ssr:stedsnr" v="109505" />
	</node>
	<node lat="63.60939166943773" lon="11.23398611355758" id="-43339">
		<tag k="fixme" v="consider natural=peak for the most distinct mountains in the district" />
		<tag k="name" v="Fætjan" />
		<tag k="natural" v="hill" />
		<tag k="place" v="locality" />
		<tag k="ssr:stedsnr" v="109483" />
	</node>
	<node lat="63.59497500010541" lon="11.36343055481837" id="-43340">
		<tag k="name" v="Stamnhaugen" />
		<tag k="natural" v="hill" />
		<tag k="place" v="locality" />
		<tag k="ssr:stedsnr" v="109783" />
	</node>
	<node lat="63.70580555797577" lon="11.401174995001377" id="-43347">
		<tag k="fixme" v="consider natural=peak for the most distinct mountains in the district" />
		<tag k="name" v="Storåsen" />
		<tag k="natural" v="hill" />
		<tag k="place" v="locality" />
		<tag k="ssr:stedsnr" v="134607" />
	</node>
	<node lat="63.609991663588715" lon="10.90824722089026" id="-43348">
		<tag k="name" v="Tysknebben" />
		<tag k="natural" v="hill" />
		<tag k="place" v="locality" />
		<tag k="ssr:stedsnr" v="134923" />
	</node>
	<node lat="63.704655559295865" lon="11.224055562732634" id="-43358">
		<tag k="name" v="Bjørkheim" />
		<tag k="natural" v="slope" />
		<tag k="place" v="locality" />
		<tag k="ssr:stedsnr" v="143503" />
	</node>
	<node lat="63.722991668806316" lon="11.233144454125913" id="-43363">
		<tag k="name" v="Brødrehaugan" />
		<tag k="natural" v="hill" />
		<tag k="place" v="locality" />
		<tag k="ssr:stedsnr" v="143533" />
	</node>
	<node lat="63.696211111379185" lon="10.994441668543372" id="-43364">
		<tag k="name" v="Vedaberget" />
		<tag k="natural" v="hill" />
		<tag k="place" v="locality" />
		<tag k="ssr:stedsnr" v="143541" />
	</node>
	<node lat="63.695513889925444" lon="11.291358342867671" id="-43366">
		<tag k="name" v="Høysloberget" />
		<tag k="natural" v="hill" />
		<tag k="place" v="locality" />
		<tag k="ssr:stedsnr" v="143580" />
	</node>
	<node lat="63.72288889091876" lon="11.281102771779953" id="-43367">
		<tag k="fixme" v="consider natural=peak for the most distinct mountains in the district" />
		<tag k="name" v="Høgberget" />
		<tag k="natural" v="hill" />
		<tag k="place" v="locality" />
		<tag k="ssr:stedsnr" v="143587" />
	</node>
	<node lat="63.71209722250348" lon="11.272711105502452" id="-43368">
		<tag k="fixme" v="consider natural=peak for the most distinct mountains in the district" />
		<tag k="name" v="Tårndalshøgda" />
		<tag k="natural" v="hill" />
		<tag k="place" v="locality" />
		<tag k="ssr:stedsnr" v="143591" />
	</node>
	<node lat="63.73626944179664" lon="11.424013894604187" id="-43370">
		<tag k="fixme" v="consider natural=peak for the most distinct mountains in the district" />
		<tag k="name" v="Tømmeråsen" />
		<tag k="natural" v="hill" />
		<tag k="place" v="locality" />
		<tag k="ssr:stedsnr" v="143710" />
	</node>
	<node lat="63.72150000031533" lon="11.566472227051802" id="-43377">
		<tag k="name" v="Skallberget" />
		<tag k="natural" v="hill" />
		<tag k="place" v="locality" />
		<tag k="ssr:stedsnr" v="255609" />
	</node>
	<node lat="63.6035194440408" lon="10.953980555462861" id="-43388">
		<tag k="name" v="Nydalen" />
		<tag k="natural" v="valley" />
		<tag k="place" v="locality" />
		<tag k="ssr:stedsnr" v="255901" />
	</node>
	<node lat="63.5682194458391" lon="10.994924996243851" id="-43389">
		<tag k="fixme" v="consider natural=peak for the most distinct mountains in the district" />
		<tag k="name" v="Kaukkollen" />
		<tag k="natural" v="hill" />
		<tag k="place" v="locality" />
		<tag k="ssr:stedsnr" v="255828" />
	</node>
	<node lat="63.765394443973115" lon="11.037594439338653" id="-43396">
		<tag k="name" v="Storhaugen" />
		<tag k="natural" v="hill" />
		<tag k="place" v="locality" />
		<tag k="ssr:stedsnr" v="147802" />
	</node>
	<node lat="63.74938888444115" lon="11.446941671612274" id="-43401">
		<tag k="name" v="Finnkalldalen" />
		<tag k="natural" v="valley" />
		<tag k="place" v="locality" />
		<tag k="ssr:stedsnr" v="150969" />
	</node>
	<node lat="63.59978362636612" lon="11.107803037803864" id="-43420">
		<tag k="name" v="Haugavola" />
		<tag k="natural" v="slope" />
		<tag k="place" v="locality" />
		<tag k="ssr:stedsnr" v="168060" />
	</node>
	<node lat="63.64911318341857" lon="11.118992328418587" id="-43421">
		<tag k="name" v="Åsan" />
		<tag k="natural" v="slope" />
		<tag k="place" v="locality" />
		<tag k="ssr:stedsnr" v="168071" />
	</node>
	<node lat="63.56955316189455" lon="11.174391438955206" id="-43422">
		<tag k="name" v="Gillerberget" />
		<tag k="natural" v="hill" />
		<tag k="place" v="locality" />
		<tag k="ssr:stedsnr" v="168119" />
	</node>
	<node lat="63.57404465451994" lon="10.93169187009844" id="-43424">
		<tag k="name" v="Kvenndalen" />
		<tag k="natural" v="valley" />
		<tag k="place" v="locality" />
		<tag k="ssr:stedsnr" v="168477" />
	</node>
	<node lat="63.5618863686345" lon="10.941091327002722" id="-43426">
		<tag k="name" v="Fættenhylla" />
		<tag k="place" v="locality" />
		<tag k="ssr:stedsnr" v="168505" />
	</node>
	<node lat="63.65622777871014" lon="11.273616673872393" id="-43427">
		<tag k="fixme" v="consider natural=peak for the most distinct mountains in the district" />
		<tag k="name" v="Helgesåsen" />
		<tag k="natural" v="hill" />
		<tag k="place" v="locality" />
		<tag k="ssr:stedsnr" v="169405" />
	</node>
	<node lat="63.673316664539655" lon="11.259624993965527" id="-43429">
		<tag k="name" v="Flauge" />
		<tag k="natural" v="slope" />
		<tag k="place" v="locality" />
		<tag k="ssr:stedsnr" v="169586" />
	</node>
	<node lat="63.692272218174175" lon="11.075666667045818" id="-43436">
		<tag k="name" v="Gustadlia" />
		<tag k="natural" v="slope" />
		<tag k="place" v="locality" />
		<tag k="ssr:stedsnr" v="265545" />
	</node>
	<node lat="63.74071666259687" lon="11.303166675586887" id="-43443">
		<tag k="name" v="Bruborg" />
		<tag k="natural" v="slope" />
		<tag k="place" v="locality" />
		<tag k="ssr:stedsnr" v="265676" />
	</node>
	<node lat="63.58354722214343" lon="11.289963897541115" id="-43449">
		<tag k="name" v="Skogndalen" />
		<tag k="natural" v="valley" />
		<tag k="place" v="locality" />
		<tag k="ssr:stedsnr" v="195479" />
	</node>
	<node lat="65.11002777597567" lon="13.085422216082504" id="-43455">
		<tag k="fixme" v="consider natural=peak for the most distinct mountains in the district" />
		<tag k="name" v="Kløftfjellet - Sloeptjenguevtele" />
		<tag k="name:no" v="Kløftfjellet" />
		<tag k="name:sma" v="Sloeptjenguevtele" />
		<tag k="natural" v="hill" />
		<tag k="place" v="locality" />
		<tag k="ssr:stedsnr" v="196523" />
	</node>
	<node lat="63.76048810528373" lon="11.018123744255448" id="-43456">
		<tag k="fixme" v="consider natural=peak for the most distinct mountains in the district" />
		<tag k="name" v="Sandstadkammen" />
		<tag k="natural" v="hill" />
		<tag k="place" v="locality" />
		<tag k="ssr:stedsnr" v="196803" />
	</node>
	<node lat="63.70047221950421" lon="10.989297223239497" id="-43462">
		<tag k="fixme" v="consider natural=peak for the most distinct mountains in the district" />
		<tag k="name" v="Høgklumpen" />
		<tag k="natural" v="hill" />
		<tag k="place" v="locality" />
		<tag k="ssr:stedsnr" v="204515" />
	</node>
	<node lat="63.71176110783472" lon="11.404102782870838" id="-43470">
		<tag k="fixme" v="consider natural=peak for the most distinct mountains in the district" />
		<tag k="name" v="Storkorphaugen" />
		<tag k="natural" v="hill" />
		<tag k="place" v="locality" />
		<tag k="ssr:stedsnr" v="204593" />
	</node>
	<node lat="63.717691666177394" lon="11.386738882554114" id="-43471">
		<tag k="fixme" v="consider natural=peak for the most distinct mountains in the district" />
		<tag k="name" v="Kleiva" />
		<tag k="natural" v="hill" />
		<tag k="place" v="locality" />
		<tag k="ssr:stedsnr" v="204595" />
	</node>
	<node lat="63.75905833315334" lon="11.411049993602864" id="-43472">
		<tag k="fixme" v="consider natural=peak for the most distinct mountains in the district" />
		<tag k="name" v="Kleivaåsen" />
		<tag k="natural" v="hill" />
		<tag k="place" v="locality" />
		<tag k="ssr:stedsnr" v="204697" />
	</node>
	<node lat="63.76539721780003" lon="11.374080564724343" id="-43473">
		<tag k="fixme" v="consider natural=peak for the most distinct mountains in the district" />
		<tag k="name" v="Hansåsen" />
		<tag k="natural" v="hill" />
		<tag k="place" v="locality" />
		<tag k="ssr:stedsnr" v="204699" />
	</node>
	<node lat="63.652927777841" lon="11.300827778504656" id="-43474">
		<tag k="fixme" v="consider natural=peak for the most distinct mountains in the district" />
		<tag k="name" v="Johannesåsen" />
		<tag k="natural" v="hill" />
		<tag k="place" v="locality" />
		<tag k="ssr:stedsnr" v="268341" />
	</node>
	<node lat="63.723505555017745" lon="11.534141676042465" id="-43484">
		<tag k="name" v="Storengvollen" />
		<tag k="place" v="locality" />
		<tag k="ssr:stedsnr" v="208424" />
	</node>
	<node lat="63.64468055111788" lon="11.533211113515348" id="-43485">
		<tag k="name" v="Nonsklompen" />
		<tag k="natural" v="hill" />
		<tag k="place" v="locality" />
		<tag k="ssr:stedsnr" v="269432" />
	</node>
	<node lat="63.74182222590411" lon="11.450980559019577" id="-43487">
		<tag k="fixme" v="consider natural=peak for the most distinct mountains in the district" />
		<tag k="name" v="Glåmma" />
		<tag k="natural" v="hill" />
		<tag k="place" v="locality" />
		<tag k="ssr:stedsnr" v="211980" />
	</node>
	<node lat="63.732263893294224" lon="11.474377771239174" id="-43488">
		<tag k="fixme" v="consider natural=peak for the most distinct mountains in the district" />
		<tag k="name" v="Aunåsen" />
		<tag k="natural" v="hill" />
		<tag k="place" v="locality" />
		<tag k="ssr:stedsnr" v="211984" />
	</node>
	<node lat="63.63098055960714" lon="10.944311104396114" id="-43492">
		<tag k="name" v="Sunndalen" />
		<tag k="natural" v="valley" />
		<tag k="place" v="locality" />
		<tag k="ssr:stedsnr" v="228886" />
	</node>
	<node lat="63.589888112221814" lon="11.116112683581335" id="-43496">
		<tag k="name" v="Bjønnlidalen" />
		<tag k="natural" v="valley" />
		<tag k="place" v="locality" />
		<tag k="ssr:stedsnr" v="229081" />
	</node>
	<node lat="63.60464384363511" lon="11.007462245339955" id="-43498">
		<tag k="name" v="Branndalen" />
		<tag k="natural" v="valley" />
		<tag k="place" v="locality" />
		<tag k="ssr:stedsnr" v="229487" />
	</node>
	<node lat="63.61131388697686" lon="11.293022214716544" id="-43499">
		<tag k="name" v="Bjørndalen" />
		<tag k="natural" v="valley" />
		<tag k="place" v="locality" />
		<tag k="ssr:stedsnr" v="230512" />
	</node>
	<node lat="63.640033332402695" lon="11.329133327837175" id="-43500">
		<tag k="fixme" v="consider natural=peak for the most distinct mountains in the district" />
		<tag k="name" v="Storsvartvola" />
		<tag k="natural" v="hill" />
		<tag k="place" v="locality" />
		<tag k="ssr:stedsnr" v="230518" />
	</node>
	<node lat="63.68442778035476" lon="11.291038890267192" id="-43502">
		<tag k="fixme" v="consider natural=peak for the most distinct mountains in the district" />
		<tag k="name" v="Svartberget" />
		<tag k="natural" v="hill" />
		<tag k="place" v="locality" />
		<tag k="ssr:stedsnr" v="230585" />
	</node>
	<node lat="63.57356111493424" lon="11.426402769760161" id="-43503">
		<tag k="name" v="Vekterhaugen" />
		<tag k="natural" v="hill" />
		<tag k="place" v="locality" />
		<tag k="ssr:stedsnr" v="230784" />
	</node>
	<node lat="63.76204722290632" lon="11.434011115742187" id="-43514">
		<tag k="name" v="Svedjan" />
		<tag k="place" v="locality" />
		<tag k="ssr:stedsnr" v="450531" />
	</node>
	<node lat="63.7173055587185" lon="11.434722223372821" id="-43518">
		<tag k="name" v="Kolsetberget" />
		<tag k="natural" v="hill" />
		<tag k="place" v="locality" />
		<tag k="ssr:stedsnr" v="451347" />
	</node>
	<node lat="63.69959722091815" lon="11.3503805473821" id="-43519">
		<tag k="name" v="Kusholman" />
		<tag k="natural" v="slope" />
		<tag k="place" v="locality" />
		<tag k="ssr:stedsnr" v="451351" />
	</node>
	<node lat="63.7117111100103" lon="11.54106666303024" id="-43521">
		<tag k="fixme" v="consider natural=peak for the most distinct mountains in the district" />
		<tag k="name" v="Langmyråsen" />
		<tag k="natural" v="hill" />
		<tag k="place" v="locality" />
		<tag k="ssr:stedsnr" v="451440" />
	</node>
	<node lat="63.707224996952455" lon="11.552705561128288" id="-43522">
		<tag k="name" v="Ner-Svenskbakkan" />
		<tag k="natural" v="slope" />
		<tag k="place" v="locality" />
		<tag k="ssr:stedsnr" v="451443" />
	</node>
	<node lat="63.718547226279824" lon="11.519736113096954" id="-43523">
		<tag k="name" v="Åsmoan" />
		<tag k="place" v="locality" />
		<tag k="ssr:stedsnr" v="451445" />
	</node>
	<node lat="63.74006666382391" lon="11.500019444311937" id="-43525">
		<tag k="name" v="Nordmarka" />
		<tag k="natural" v="wood" />
		<tag k="ssr:stedsnr" v="454954" />
	</node>
	<node lat="63.617334657462244" lon="11.468289609748345" id="-43530">
		<tag k="name" v="Jerpvola" />
		<tag k="natural" v="hill" />
		<tag k="place" v="locality" />
		<tag k="ssr:stedsnr" v="255402" />
	</node>
	<node lat="63.57595555594215" lon="11.4268611020404" id="-43544">
		<tag k="alt_name" v="Skjennholkammen" />
		<tag k="fixme" v="consider natural=peak for the most distinct mountains in the district" />
		<tag k="name" v="Skjenholvola" />
		<tag k="natural" v="hill" />
		<tag k="place" v="locality" />
		<tag k="ssr:stedsnr" v="256407" />
	</node>
	<node lat="63.57521388754384" lon="11.277586118267875" id="-43545">
		<tag k="alt_name" v="Høgsætervola" />
		<tag k="name" v="Høgsetervola" />
		<tag k="natural" v="hill" />
		<tag k="place" v="locality" />
		<tag k="ssr:stedsnr" v="256410" />
	</node>
	<node lat="63.5740194455047" lon="10.963722212345203" id="-43548">
		<tag k="fixme" v="consider natural=peak for the most distinct mountains in the district" />
		<tag k="name" v="Vudduåsen" />
		<tag k="natural" v="hill" />
		<tag k="place" v="locality" />
		<tag k="ssr:stedsnr" v="256804" />
	</node>
	<node lat="63.689961114506715" lon="11.270608337974682" id="-43553">
		<tag k="fixme" v="consider natural=peak for the most distinct mountains in the district" />
		<tag k="name" v="Øvre Brannåsen" />
		<tag k="natural" v="hill" />
		<tag k="place" v="locality" />
		<tag k="ssr:stedsnr" v="265612" />
	</node>
	<node lat="63.768744442272755" lon="11.353336104226063" id="-43558">
		<tag k="name" v="Høgkammen" />
		<tag k="natural" v="hill" />
		<tag k="place" v="locality" />
		<tag k="ssr:stedsnr" v="265715" />
	</node>
	<node lat="63.75168846381259" lon="11.327735434753226" id="-43560">
		<tag k="name" v="Røstadlia" />
		<tag k="natural" v="slope" />
		<tag k="place" v="locality" />
		<tag k="ssr:stedsnr" v="265719" />
	</node>
	<node lat="63.69386389144275" lon="11.439577778026203" id="-43561">
		<tag k="name" v="Kolbergmarka" />
		<tag k="natural" v="slope" />
		<tag k="place" v="locality" />
		<tag k="ssr:stedsnr" v="268327" />
	</node>
	<node lat="63.67232777720738" lon="11.57866667361532" id="-43563">
		<tag k="name" v="Lauvbrøyta" />
		<tag k="natural" v="valley" />
		<tag k="place" v="locality" />
		<tag k="ssr:stedsnr" v="269423" />
	</node>
	<node lat="63.6646666631506" lon="10.942838897508521" id="-43568">
		<tag k="fixme" v="consider natural=peak for the most distinct mountains in the district" />
		<tag k="name" v="Seterkammen" />
		<tag k="natural" v="hill" />
		<tag k="place" v="locality" />
		<tag k="ssr:stedsnr" v="289882" />
	</node>
	<node lat="63.57734280216715" lon="10.96094556229828" id="-43570">
		<tag k="name" v="Steindalen" />
		<tag k="natural" v="valley" />
		<tag k="place" v="locality" />
		<tag k="ssr:stedsnr" v="290429" />
	</node>
	<node lat="63.57770619925548" lon="10.96162843828514" id="-43571">
		<tag k="name" v="Steindalshaugen" />
		<tag k="natural" v="hill" />
		<tag k="place" v="locality" />
		<tag k="ssr:stedsnr" v="290431" />
	</node>
	<node lat="63.57182817776491" lon="10.968310700997035" id="-43572">
		<tag k="name" v="Vuddubakken" />
		<tag k="natural" v="slope" />
		<tag k="place" v="locality" />
		<tag k="ssr:stedsnr" v="290433" />
	</node>
	<node lat="63.80299444161714" lon="11.21610555727412" id="-43575">
		<tag k="name" v="Tangfjellet" />
		<tag k="natural" v="ridge" />
		<tag k="place" v="locality" />
		<tag k="ssr:stedsnr" v="291006" />
	</node>
	<node lat="63.7711277741913" lon="11.042269453207057" id="-43579">
		<tag k="fixme" v="consider natural=peak for the most distinct mountains in the district" />
		<tag k="name" v="Reithaugen" />
		<tag k="natural" v="hill" />
		<tag k="place" v="locality" />
		<tag k="ssr:stedsnr" v="291091" />
	</node>
	<node lat="63.7769194463468" lon="11.088602780024857" id="-43580">
		<tag k="name" v="Bjørvikdalen" />
		<tag k="natural" v="valley" />
		<tag k="place" v="locality" />
		<tag k="ssr:stedsnr" v="291095" />
	</node>
	<node lat="63.60179722573498" lon="11.195947214968124" id="-43581">
		<tag k="fixme" v="consider natural=peak for the most distinct mountains in the district" />
		<tag k="name" v="Langmyråsen" />
		<tag k="natural" v="hill" />
		<tag k="place" v="locality" />
		<tag k="ssr:stedsnr" v="291504" />
	</node>
	<node lat="63.6848972223599" lon="10.9315777752501" id="-43587">
		<tag k="name" v="Svartdalen" />
		<tag k="natural" v="valley" />
		<tag k="place" v="locality" />
		<tag k="ssr:stedsnr" v="291285" />
	</node>
	<node lat="63.68592778186692" lon="10.96543611405119" id="-43588">
		<tag k="fixme" v="consider natural=peak for the most distinct mountains in the district" />
		<tag k="name" v="Småtjønnholtan" />
		<tag k="natural" v="hill" />
		<tag k="place" v="locality" />
		<tag k="ssr:stedsnr" v="291287" />
	</node>
	<node lat="63.663325000980805" lon="11.279749990164671" id="-43590">
		<tag k="fixme" v="consider natural=peak for the most distinct mountains in the district" />
		<tag k="name" v="Åsgårdskammen" />
		<tag k="natural" v="hill" />
		<tag k="place" v="locality" />
		<tag k="ssr:stedsnr" v="291428" />
	</node>
	<node lat="63.58627222064277" lon="11.407966666585823" id="-43591">
		<tag k="name" v="Byavolldalen" />
		<tag k="natural" v="valley" />
		<tag k="place" v="locality" />
		<tag k="ssr:stedsnr" v="291812" />
	</node>
	<node lat="63.58314999853522" lon="11.42624445336736" id="-43598">
		<tag k="fixme" v="consider natural=peak for the most distinct mountains in the district" />
		<tag k="name" v="Finnåsvola" />
		<tag k="natural" v="hill" />
		<tag k="place" v="locality" />
		<tag k="ssr:stedsnr" v="316505" />
	</node>
	<node lat="63.58259722160122" lon="11.413116657066366" id="-43600">
		<tag k="name" v="Styggdalen" />
		<tag k="natural" v="valley" />
		<tag k="place" v="locality" />
		<tag k="ssr:stedsnr" v="316498" />
	</node>
	<node lat="63.58877777355823" lon="11.145316657826964" id="-43607">
		<tag k="fixme" v="consider natural=peak for the most distinct mountains in the district" />
		<tag k="name" v="Matåsen" />
		<tag k="natural" v="hill" />
		<tag k="place" v="locality" />
		<tag k="ssr:stedsnr" v="316905" />
	</node>
	<node lat="63.75466111353106" lon="11.222730565336295" id="-43612">
		<tag k="name" v="Svartberget" />
		<tag k="natural" v="hill" />
		<tag k="place" v="locality" />
		<tag k="ssr:stedsnr" v="317914" />
	</node>
	<node lat="63.70306111395594" lon="11.198466669691316" id="-43624">
		<tag k="name" v="Sandli" />
		<tag k="natural" v="slope" />
		<tag k="place" v="locality" />
		<tag k="ssr:stedsnr" v="325602" />
	</node>
	<node lat="63.73566667087911" lon="11.205255555571286" id="-43629">
		<tag k="name" v="Naustberget" />
		<tag k="natural" v="hill" />
		<tag k="place" v="locality" />
		<tag k="ssr:stedsnr" v="325685" />
	</node>
	<node lat="63.760969446459974" lon="11.422097230511806" id="-43634">
		<tag k="name" v="Kjerktrøhaugen" />
		<tag k="natural" v="hill" />
		<tag k="place" v="locality" />
		<tag k="ssr:stedsnr" v="325719" />
	</node>
	<node lat="63.78504722487431" lon="11.034119445636858" id="-43635">
		<tag k="name" v="Bakaromnen" />
		<tag k="natural" v="hill" />
		<tag k="place" v="locality" />
		<tag k="ssr:stedsnr" v="328861" />
	</node>
	<node lat="63.724827778280186" lon="11.442533332113259" id="-43636">
		<tag k="name" v="Bjørndalen" />
		<tag k="natural" v="valley" />
		<tag k="place" v="locality" />
		<tag k="ssr:stedsnr" v="329314" />
	</node>
	<node lat="63.676194444292506" lon="11.317063880815505" id="-43640">
		<tag k="fixme" v="consider natural=peak for the most distinct mountains in the district" />
		<tag k="name" v="Svartåsen" />
		<tag k="natural" v="hill" />
		<tag k="place" v="locality" />
		<tag k="ssr:stedsnr" v="329371" />
	</node>
	<node lat="63.69895277366041" lon="11.506313880891213" id="-43641">
		<tag k="fixme" v="consider natural=peak for the most distinct mountains in the district" />
		<tag k="name" v="Høgåsen" />
		<tag k="natural" v="hill" />
		<tag k="place" v="locality" />
		<tag k="ssr:stedsnr" v="329414" />
	</node>
	<node lat="63.651856875576726" lon="11.119906348652034" id="-43650">
		<tag k="name" v="Stordalen" />
		<tag k="natural" v="valley" />
		<tag k="place" v="locality" />
		<tag k="ssr:stedsnr" v="472018" />
	</node>
	<node lat="63.6633888893855" lon="11.251438889793844" id="-43655">
		<tag k="fixme" v="consider natural=peak for the most distinct mountains in the district" />
		<tag k="name" v="Brentåsen" />
		<tag k="natural" v="hill" />
		<tag k="place" v="locality" />
		<tag k="ssr:stedsnr" v="472384" />
	</node>
	<node lat="63.6688277787764" lon="11.259922227854124" id="-43657">
		<tag k="fixme" v="consider natural=peak for the most distinct mountains in the district" />
		<tag k="name" v="Lauvberget" />
		<tag k="natural" v="hill" />
		<tag k="place" v="locality" />
		<tag k="ssr:stedsnr" v="472586" />
	</node>
	<node lat="63.65305833164377" lon="11.220199999333866" id="-43659">
		<tag k="fixme" v="consider natural=peak for the most distinct mountains in the district" />
		<tag k="name" v="Brattåsen" />
		<tag k="natural" v="hill" />
		<tag k="place" v="locality" />
		<tag k="ssr:stedsnr" v="473035" />
	</node>
	<node lat="63.651824999598986" lon="11.228555547756113" id="-43660">
		<tag k="fixme" v="consider natural=peak for the most distinct mountains in the district" />
		<tag k="loc_name" v="Finnberga" />
		<tag k="name" v="Finneberga" />
		<tag k="natural" v="hill" />
		<tag k="place" v="locality" />
		<tag k="ssr:stedsnr" v="473036" />
	</node>
	<node lat="63.643527773853585" lon="11.27970554605929" id="-43667">
		<tag k="fixme" v="consider natural=peak for the most distinct mountains in the district" />
		<tag k="name" v="Nordengkammen" />
		<tag k="natural" v="hill" />
		<tag k="place" v="locality" />
		<tag k="ssr:stedsnr" v="473442" />
	</node>
	<node lat="63.61141666902619" lon="11.307216664233774" id="-43670">
		<tag k="fixme" v="consider natural=peak for the most distinct mountains in the district" />
		<tag k="name" v="Stamnmyrberga" />
		<tag k="natural" v="hill" />
		<tag k="place" v="locality" />
		<tag k="ssr:stedsnr" v="473524" />
	</node>
	<node lat="63.60304721932795" lon="11.268594447141364" id="-43672">
		<tag k="fixme" v="consider natural=peak for the most distinct mountains in the district" />
		<tag k="name" v="Spigelåsen" />
		<tag k="natural" v="hill" />
		<tag k="place" v="locality" />
		<tag k="ssr:stedsnr" v="473534" />
	</node>
	<node lat="63.63826666363855" lon="11.343724999382184" id="-43676">
		<tag k="fixme" v="consider natural=peak for the most distinct mountains in the district" />
		<tag k="name" v="Svenskhaugen" />
		<tag k="natural" v="hill" />
		<tag k="place" v="locality" />
		<tag k="ssr:stedsnr" v="473556" />
	</node>
	<node lat="63.59412500268813" lon="11.422599998447645" id="-43678">
		<tag k="fixme" v="consider natural=peak for the most distinct mountains in the district" />
		<tag k="name" v="Rennanvola" />
		<tag k="natural" v="hill" />
		<tag k="place" v="locality" />
		<tag k="ssr:stedsnr" v="473816" />
	</node>
	<node lat="63.61953889295958" lon="10.901800002948104" id="-43680">
		<tag k="name" v="Gammelplassberga" />
		<tag k="natural" v="hill" />
		<tag k="place" v="locality" />
		<tag k="ssr:stedsnr" v="349816" />
	</node>
	<node lat="63.62432777630943" lon="10.9686194458919" id="-43681">
		<tag k="name" v="Storkleiva" />
		<tag k="natural" v="slope" />
		<tag k="place" v="locality" />
		<tag k="ssr:stedsnr" v="349902" />
	</node>
	<node lat="63.63941388717949" lon="11.077991665207309" id="-43684">
		<tag k="name" v="Skjelstadhaugen" />
		<tag k="natural" v="hill" />
		<tag k="place" v="locality" />
		<tag k="ssr:stedsnr" v="350156" />
	</node>
	<node lat="63.684288888810016" lon="10.97017222074514" id="-43687">
		<tag k="fixme" v="consider natural=peak for the most distinct mountains in the district" />
		<tag k="name" v="Bjørkåsen" />
		<tag k="natural" v="hill" />
		<tag k="place" v="locality" />
		<tag k="ssr:stedsnr" v="351268" />
	</node>
	<node lat="63.7902333314895" lon="11.073744444789247" id="-43688">
		<tag k="name" v="Osdalen" />
		<tag k="natural" v="valley" />
		<tag k="place" v="locality" />
		<tag k="ssr:stedsnr" v="352112" />
	</node>
	<node lat="63.62242778156871" lon="11.355094441991804" id="-43691">
		<tag k="name" v="Svedalen" />
		<tag k="natural" v="valley" />
		<tag k="place" v="locality" />
		<tag k="ssr:stedsnr" v="352504" />
	</node>
	<node lat="63.700816667774276" lon="10.959288889170423" id="-43695">
		<tag k="name" v="Løkshåmmåren" />
		<tag k="natural" v="hill" />
		<tag k="place" v="locality" />
		<tag k="ssr:stedsnr" v="376084" />
	</node>
	<node lat="63.69926666822354" lon="11.094899997703973" id="-43702">
		<tag k="name" v="Strandlia" />
		<tag k="natural" v="slope" />
		<tag k="place" v="locality" />
		<tag k="ssr:stedsnr" v="386511" />
	</node>
	<node lat="63.692738889588966" lon="11.097536105928587" id="-43703">
		<tag k="name" v="Grismyrberget" />
		<tag k="natural" v="hill" />
		<tag k="place" v="locality" />
		<tag k="ssr:stedsnr" v="386513" />
	</node>
	<node lat="63.696661112736386" lon="11.02750832403642" id="-43713">
		<tag k="name" v="Idarbakken" />
		<tag k="natural" v="slope" />
		<tag k="place" v="locality" />
		<tag k="ssr:stedsnr" v="387970" />
	</node>
	<node lat="63.68568055642374" lon="11.482116660023204" id="-43715">
		<tag k="name" v="Tverrberget" />
		<tag k="natural" v="hill" />
		<tag k="place" v="locality" />
		<tag k="ssr:stedsnr" v="389343" />
	</node>
	<node lat="63.575224627983054" lon="11.238524540541569" id="-43722">
		<tag k="name" v="Rundstaven" />
		<tag k="natural" v="hill" />
		<tag k="place" v="locality" />
		<tag k="ssr:stedsnr" v="411115" />
	</node>
	<node lat="63.59366048369796" lon="11.241404521068473" id="-43724">
		<tag k="name" v="Benkåsberga" />
		<tag k="natural" v="hill" />
		<tag k="place" v="locality" />
		<tag k="ssr:stedsnr" v="411121" />
	</node>
	<node lat="63.680572218653914" lon="11.042075008506654" id="-43726">
		<tag k="fixme" v="consider natural=peak for the most distinct mountains in the district" />
		<tag k="name" v="Siemsåsen" />
		<tag k="natural" v="hill" />
		<tag k="place" v="locality" />
		<tag k="ssr:stedsnr" v="411195" />
	</node>
	<node lat="63.68027777451417" lon="10.936291670675319" id="-43730">
		<tag k="fixme" v="consider natural=peak for the most distinct mountains in the district" />
		<tag k="name" v="Høgåsen" />
		<tag k="natural" v="hill" />
		<tag k="place" v="locality" />
		<tag k="ssr:stedsnr" v="412238" />
	</node>
	<node lat="63.624941664357465" lon="11.28988611446733" id="-43745">
		<tag k="alt_name" v="Korphammeren" />
		<tag k="name" v="Korphamaren" />
		<tag k="natural" v="hill" />
		<tag k="place" v="locality" />
		<tag k="ssr:stedsnr" v="438384" />
	</node>
	<node lat="63.63101110713223" lon="11.00916111953508" id="-43751">
		<tag k="fixme" v="consider natural=peak for the most distinct mountains in the district" />
		<tag k="name" v="Fånnåvarden" />
		<tag k="natural" v="hill" />
		<tag k="place" v="locality" />
		<tag k="ssr:stedsnr" v="438952" />
	</node>
	<node lat="63.721508331277036" lon="11.329000002687087" id="-43757">
		<tag k="name" v="Hegeråshaugen" />
		<tag k="natural" v="hill" />
		<tag k="place" v="locality" />
		<tag k="ssr:stedsnr" v="447582" />
	</node>
	<node lat="63.68915555544226" lon="11.138755557872981" id="-43760">
		<tag k="fixme" v="consider natural=peak for the most distinct mountains in the district" />
		<tag k="name" v="Leiråsen" />
		<tag k="natural" v="hill" />
		<tag k="place" v="locality" />
		<tag k="ssr:stedsnr" v="447475" />
	</node>
	<node lat="63.68828611285068" lon="11.388383330302478" id="-43765">
		<tag k="name" v="Skogskjøtingen" />
		<tag k="natural" v="slope" />
		<tag k="place" v="locality" />
		<tag k="ssr:stedsnr" v="450320" />
	</node>
	<node lat="63.68133055128998" lon="11.253897228130153" id="-43775">
		<tag k="fixme" v="consider natural=peak for the most distinct mountains in the district" />
		<tag k="name" v="Klobakkhalla" />
		<tag k="natural" v="hill" />
		<tag k="place" v="locality" />
		<tag k="ssr:stedsnr" v="472575" />
	</node>
	<node lat="63.68359722064368" lon="10.917341673385216" id="-43779">
		<tag k="name" v="Aldergodtholet" />
		<tag k="natural" v="valley" />
		<tag k="place" v="locality" />
		<tag k="ssr:stedsnr" v="473377" />
	</node>
	<node lat="63.660409234065924" lon="10.9659831301866" id="-43788">
		<tag k="fixme" v="consider natural=peak for the most distinct mountains in the district" />
		<tag k="name" v="Høgåsen" />
		<tag k="natural" v="hill" />
		<tag k="place" v="locality" />
		<tag k="ssr:stedsnr" v="680180" />
	</node>
	<node lat="63.57742778037997" lon="11.411991668065461" id="-43794">
		<tag k="alt_name" v="Skjennholet" />
		<tag k="name" v="Skjenholet" />
		<tag k="natural" v="valley" />
		<tag k="place" v="locality" />
		<tag k="ssr:stedsnr" v="680496" />
	</node>
	<node lat="63.67559722362748" lon="11.304355547738213" id="-43797">
		<tag k="fixme" v="consider natural=peak for the most distinct mountains in the district" />
		<tag k="name" v="Lundsbustadvola" />
		<tag k="natural" v="hill" />
		<tag k="place" v="locality" />
		<tag k="ssr:stedsnr" v="680600" />
	</node>
	<node lat="63.72198888612742" lon="11.55489166865013" id="-43798">
		<tag k="alt_name" v="Skallbergmoen" />
		<tag k="name" v="Skallbergmo" />
		<tag k="place" v="locality" />
		<tag k="ssr:stedsnr" v="680649" />
	</node>
	<node lat="63.59062222121442" lon="11.064508341379499" id="-43808">
		<tag k="fixme" v="consider natural=peak for the most distinct mountains in the district" />
		<tag k="name" v="Stokkvola" />
		<tag k="natural" v="hill" />
		<tag k="place" v="locality" />
		<tag k="ssr:stedsnr" v="680889" />
	</node>
	<node lat="63.63558888859722" lon="11.57042222090594" id="-43828">
		<tag k="name" v="Heståsvola" />
		<tag k="natural" v="hill" />
		<tag k="place" v="locality" />
		<tag k="ssr:stedsnr" v="498563" />
	</node>
	<node lat="63.579655551250084" lon="11.010616675074377" id="-43837">
		<tag k="name" v="Vordalen" />
		<tag k="natural" v="valley" />
		<tag k="place" v="locality" />
		<tag k="ssr:stedsnr" v="498841" />
	</node>
	<node lat="63.764197220294434" lon="11.386580561700011" id="-43840">
		<tag k="fixme" v="consider natural=peak for the most distinct mountains in the district" />
		<tag k="name" v="Børsåsen" />
		<tag k="natural" v="hill" />
		<tag k="place" v="locality" />
		<tag k="ssr:stedsnr" v="681349" />
	</node>
	<node lat="63.69470278193228" lon="10.985866666043352" id="-43852">
		<tag k="name" v="Tempelskardet" />
		<tag k="natural" v="valley" />
		<tag k="place" v="locality" />
		<tag k="ssr:stedsnr" v="507560" />
	</node>
	<node lat="63.70175833590801" lon="11.117980555546842" id="-43855">
		<tag k="fixme" v="consider natural=peak for the most distinct mountains in the district" />
		<tag k="name" v="Valumsberga" />
		<tag k="natural" v="hill" />
		<tag k="place" v="locality" />
		<tag k="ssr:stedsnr" v="507507" />
	</node>
	<node lat="63.69589444090438" lon="11.002283337052843" id="-43856">
		<tag k="fixme" v="consider natural=peak for the most distinct mountains in the district" />
		<tag k="name" v="Nonsåsen" />
		<tag k="natural" v="hill" />
		<tag k="place" v="locality" />
		<tag k="ssr:stedsnr" v="507956" />
	</node>
	<node lat="63.6494861138954" lon="11.321077770556563" id="-43861">
		<tag k="fixme" v="consider natural=peak for the most distinct mountains in the district" />
		<tag k="name" v="Tjurrudalshøgda" />
		<tag k="natural" v="hill" />
		<tag k="place" v="locality" />
		<tag k="ssr:stedsnr" v="511354" />
	</node>
	<node lat="63.79799166753355" lon="11.175347216770511" id="-43871">
		<tag k="name" v="Berghaugen" />
		<tag k="natural" v="hill" />
		<tag k="place" v="locality" />
		<tag k="ssr:stedsnr" v="531827" />
	</node>
	<node lat="63.56550851173055" lon="10.913734160166994" id="-43875">
		<tag k="fixme" v="consider natural=peak for the most distinct mountains in the district" />
		<tag k="name" v="Langeråsen" />
		<tag k="natural" v="hill" />
		<tag k="place" v="locality" />
		<tag k="ssr:stedsnr" v="532509" />
	</node>
	<node lat="63.57477556961153" lon="10.938656976393565" id="-43877">
		<tag k="name" v="Vasshalla" />
		<tag k="natural" v="slope" />
		<tag k="place" v="locality" />
		<tag k="ssr:stedsnr" v="532481" />
	</node>
	<node lat="63.60540533890063" lon="10.994150484305283" id="-43878">
		<tag k="name" v="Hellemsberget" />
		<tag k="natural" v="hill" />
		<tag k="place" v="locality" />
		<tag k="ssr:stedsnr" v="532485" />
	</node>
	<node lat="63.65057222225305" lon="10.9914361061631" id="-43880">
		<tag k="name" v="Bonløftet" />
		<tag k="natural" v="slope" />
		<tag k="place" v="locality" />
		<tag k="ssr:stedsnr" v="533267" />
	</node>
	<node lat="63.68401111085307" lon="11.26892222068689" id="-43883">
		<tag k="fixme" v="consider natural=peak for the most distinct mountains in the district" />
		<tag k="name" v="Veavolin" />
		<tag k="natural" v="hill" />
		<tag k="place" v="locality" />
		<tag k="ssr:stedsnr" v="533608" />
	</node>
	<node lat="63.67042499917976" lon="11.274497222624335" id="-43884">
		<tag k="fixme" v="consider natural=peak for the most distinct mountains in the district" />
		<tag k="name" v="Lauvåsen" />
		<tag k="natural" v="hill" />
		<tag k="place" v="locality" />
		<tag k="ssr:stedsnr" v="533616" />
	</node>
	<node lat="63.60900555249836" lon="11.666077769528076" id="-43885">
		<tag k="fixme" v="consider natural=peak for the most distinct mountains in the district" />
		<tag k="name" v="Glunkvola" />
		<tag k="natural" v="hill" />
		<tag k="place" v="locality" />
		<tag k="ssr:stedsnr" v="533803" />
	</node>
	<node lat="63.640786109279304" lon="11.112111102146978" id="-43887">
		<tag k="fixme" v="consider natural=peak for the most distinct mountains in the district" />
		<tag k="name" v="Kolmyråsen" />
		<tag k="natural" v="hill" />
		<tag k="place" v="locality" />
		<tag k="ssr:stedsnr" v="534405" />
	</node>
	<node lat="63.606827779129574" lon="11.52578056049011" id="-43898">
		<tag k="name" v="Grytesvola" />
		<tag k="natural" v="hill" />
		<tag k="place" v="locality" />
		<tag k="ssr:stedsnr" v="558442" />
	</node>
	<node lat="63.747808337804194" lon="11.285266660448865" id="-43920">
		<tag k="name" v="Staupslia" />
		<tag k="natural" v="slope" />
		<tag k="place" v="locality" />
		<tag k="ssr:stedsnr" v="690693" />
	</node>
	<node lat="63.70776944028192" lon="11.300441663494967" id="-43923">
		<tag k="fixme" v="consider natural=peak for the most distinct mountains in the district" />
		<tag k="name" v="Katteråsen" />
		<tag k="natural" v="hill" />
		<tag k="place" v="locality" />
		<tag k="ssr:stedsnr" v="690650" />
	</node>
	<node lat="63.702138885679645" lon="11.109333325029189" id="-43933">
		<tag k="fixme" v="consider natural=peak for the most distinct mountains in the district" />
		<tag k="name" v="Bjørgberga" />
		<tag k="natural" v="hill" />
		<tag k="place" v="locality" />
		<tag k="ssr:stedsnr" v="690548" />
	</node>
	<node lat="63.71997500119664" lon="11.381022222899706" id="-43937">
		<tag k="name" v="Munkbyberget" />
		<tag k="natural" v="hill" />
		<tag k="place" v="locality" />
		<tag k="ssr:stedsnr" v="690764" />
	</node>
	<node lat="63.67863610854561" lon="11.350230546327538" id="-43940">
		<tag k="name" v="Fongberget" />
		<tag k="natural" v="hill" />
		<tag k="place" v="locality" />
		<tag k="ssr:stedsnr" v="693379" />
	</node>
	<node lat="63.653538889615575" lon="11.330099994801117" id="-43944">
		<tag k="fixme" v="consider natural=peak for the most distinct mountains in the district" />
		<tag k="name" v="Bustadåsen" />
		<tag k="natural" v="hill" />
		<tag k="place" v="locality" />
		<tag k="ssr:stedsnr" v="693387" />
	</node>
	<node lat="63.65093055376495" lon="11.317886112442487" id="-43945">
		<tag k="name" v="Tjurrudalen" />
		<tag k="natural" v="valley" />
		<tag k="place" v="locality" />
		<tag k="ssr:stedsnr" v="693391" />
	</node>
	<node lat="63.753219446369386" lon="11.008533330082416" id="-43947">
		<tag k="name" v="Hanshaugen" />
		<tag k="natural" v="hill" />
		<tag k="place" v="locality" />
		<tag k="ssr:stedsnr" v="692802" />
	</node>
	<node lat="63.57111111515816" lon="10.972113892984837" id="-43948">
		<tag k="name" v="Vuddudalen" />
		<tag k="natural" v="valley" />
		<tag k="place" v="locality" />
		<tag k="ssr:stedsnr" v="566771" />
	</node>
	<node lat="63.69556666995356" lon="11.069119442117907" id="-43951">
		<tag k="fixme" v="consider natural=peak for the most distinct mountains in the district" />
		<tag k="name" v="Fløyhalla" />
		<tag k="natural" v="hill" />
		<tag k="place" v="locality" />
		<tag k="ssr:stedsnr" v="568504" />
	</node>
	<node lat="63.727861115617166" lon="11.29473055075447" id="-43954">
		<tag k="fixme" v="consider natural=peak for the most distinct mountains in the district" />
		<tag k="name" v="Halssteinen" />
		<tag k="natural" v="hill" />
		<tag k="place" v="locality" />
		<tag k="ssr:stedsnr" v="568581" />
	</node>
	<node lat="63.68798889112589" lon="11.462713889776618" id="-43959">
		<tag k="name" v="Tømmerlia" />
		<tag k="natural" v="slope" />
		<tag k="place" v="locality" />
		<tag k="ssr:stedsnr" v="693367" />
	</node>
	<node lat="63.648505556338606" lon="11.334586104461444" id="-43962">
		<tag k="fixme" v="consider natural=peak for the most distinct mountains in the district" />
		<tag k="name" v="Stamnvola" />
		<tag k="natural" v="hill" />
		<tag k="place" v="locality" />
		<tag k="ssr:stedsnr" v="571349" />
	</node>
	<node lat="63.68436730312688" lon="11.503620130601421" id="-43963">
		<tag k="alt_name" v="Allergotåsen" />
		<tag k="fixme" v="consider natural=peak for the most distinct mountains in the district" />
		<tag k="name" v="Allergodtåsen" />
		<tag k="natural" v="hill" />
		<tag k="place" v="locality" />
		<tag k="ssr:stedsnr" v="571402" />
	</node>
	<node lat="63.67933333381287" lon="11.455413895056227" id="-43969">
		<tag k="fixme" v="consider natural=peak for the most distinct mountains in the district" />
		<tag k="name" v="Nysagvollåsen" />
		<tag k="natural" v="hill" />
		<tag k="place" v="locality" />
		<tag k="ssr:stedsnr" v="696993" />
	</node>
	<node lat="63.58712222001418" lon="11.337069454261234" id="-43975">
		<tag k="fixme" v="consider natural=peak for the most distinct mountains in the district" />
		<tag k="name" v="Steinsvola" />
		<tag k="natural" v="hill" />
		<tag k="place" v="locality" />
		<tag k="ssr:stedsnr" v="593707" />
	</node>
	<node lat="63.69055555516727" lon="10.981055548756274" id="-43991">
		<tag k="fixme" v="consider natural=peak for the most distinct mountains in the district" />
		<tag k="name" v="Korpfjellet" />
		<tag k="natural" v="hill" />
		<tag k="place" v="locality" />
		<tag k="ssr:stedsnr" v="619072" />
	</node>
	<node lat="63.5961611113109" lon="11.2548638835522" id="-43993">
		<tag k="alt_name" v="Benkåskammen" />
		<tag k="fixme" v="consider natural=peak for the most distinct mountains in the district" />
		<tag k="name" v="Benkåsen" />
		<tag k="natural" v="hill" />
		<tag k="place" v="locality" />
		<tag k="ssr:stedsnr" v="619472" />
	</node>
	<node lat="63.66054166951004" lon="11.38655277328141" id="-43999">
		<tag k="fixme" v="consider natural=peak for the most distinct mountains in the district" />
		<tag k="name" v="Skjøtingen" />
		<tag k="natural" v="hill" />
		<tag k="place" v="locality" />
		<tag k="ssr:stedsnr" v="619571" />
	</node>
	<node lat="63.64580278012685" lon="11.001119452309384" id="-44004">
		<tag k="fixme" v="consider natural=peak for the most distinct mountains in the district" />
		<tag k="name" v="Høgkammen" />
		<tag k="natural" v="hill" />
		<tag k="place" v="locality" />
		<tag k="ssr:stedsnr" v="620027" />
	</node>
	<node lat="63.64921110716956" lon="10.955527783349352" id="-44005">
		<tag k="alt_name" v="Skallen" />
		<tag k="fixme" v="consider natural=peak for the most distinct mountains in the district" />
		<tag k="name" v="Markhusskallen" />
		<tag k="natural" v="hill" />
		<tag k="place" v="locality" />
		<tag k="ssr:stedsnr" v="620029" />
	</node>
	<node lat="63.58515832917047" lon="11.270911111779535" id="-44010">
		<tag k="fixme" v="consider natural=peak for the most distinct mountains in the district" />
		<tag k="name" v="Svartvola" />
		<tag k="natural" v="hill" />
		<tag k="place" v="locality" />
		<tag k="ssr:stedsnr" v="620422" />
	</node>
	<node lat="63.70505277828982" lon="11.044713896316917" id="-44017">
		<tag k="name" v="Falstadberget" />
		<tag k="natural" v="hill" />
		<tag k="place" v="locality" />
		<tag k="ssr:stedsnr" v="628513" />
	</node>
	<node lat="63.74246111402913" lon="11.25818056341244" id="-44024">
		<tag k="name" v="Kleivstua" />
		<tag k="natural" v="slope" />
		<tag k="place" v="locality" />
		<tag k="ssr:stedsnr" v="628648" />
	</node>
	<node lat="63.7463861157188" lon="11.283730547816914" id="-44025">
		<tag k="name" v="Hobran" />
		<tag k="natural" v="hill" />
		<tag k="place" v="locality" />
		<tag k="ssr:stedsnr" v="628651" />
	</node>
	<node lat="63.73151666548149" lon="11.400983339270484" id="-44027">
		<tag k="name" v="Timstokkhaugen" />
		<tag k="natural" v="hill" />
		<tag k="place" v="locality" />
		<tag k="ssr:stedsnr" v="628699" />
	</node>
	<node lat="63.73979721980103" lon="11.393238894450223" id="-44031">
		<tag k="fixme" v="consider natural=peak for the most distinct mountains in the district" />
		<tag k="name" v="Leveråskammen" />
		<tag k="natural" v="hill" />
		<tag k="place" v="locality" />
		<tag k="ssr:stedsnr" v="628706" />
	</node>
	<node lat="63.707161112399646" lon="11.47579445188165" id="-44042">
		<tag k="name" v="Østeråsen" />
		<tag k="place" v="locality" />
		<tag k="ssr:stedsnr" v="632349" />
	</node>
	<node lat="63.649286115164195" lon="11.341497228023634" id="-44043">
		<tag k="name" v="Volusjøvola" />
		<tag k="natural" v="slope" />
		<tag k="place" v="locality" />
		<tag k="ssr:stedsnr" v="632393" />
	</node>
	<node lat="63.64478333617294" lon="11.353486103557806" id="-44044">
		<tag k="fixme" v="consider natural=peak for the most distinct mountains in the district" />
		<tag k="name" v="Nystamnvola" />
		<tag k="natural" v="hill" />
		<tag k="place" v="locality" />
		<tag k="ssr:stedsnr" v="632395" />
	</node>
	<node lat="63.66224999629239" lon="11.304869445498351" id="-44045">
		<tag k="fixme" v="consider natural=peak for the most distinct mountains in the district" />
		<tag k="name" v="Åsgårdskrullen" />
		<tag k="natural" v="hill" />
		<tag k="place" v="locality" />
		<tag k="ssr:stedsnr" v="632396" />
	</node>
	<node lat="63.744055555812615" lon="11.433133335689204" id="-44047">
		<tag k="name" v="Banmyrkneppet" />
		<tag k="place" v="locality" />
		<tag k="ssr:stedsnr" v="635979" />
	</node>
	<node lat="63.6150416665166" lon="11.083752781780413" id="-44051">
		<tag k="name" v="Hovshaugen" />
		<tag k="natural" v="hill" />
		<tag k="place" v="locality" />
		<tag k="ssr:stedsnr" v="653112" />
	</node>
	<node lat="63.57395006771417" lon="11.091007135758574" id="-44053">
		<tag k="fixme" v="consider natural=peak for the most distinct mountains in the district" />
		<tag k="name" v="Alstadbean" />
		<tag k="natural" v="hill" />
		<tag k="place" v="locality" />
		<tag k="ssr:stedsnr" v="653395" />
	</node>
	<node lat="63.64454398521453" lon="11.122492422473943" id="-44055">
		<tag k="name" v="Brentberget" />
		<tag k="natural" v="hill" />
		<tag k="place" v="locality" />
		<tag k="ssr:stedsnr" v="654011" />
	</node>
	<node lat="63.65399166466849" lon="11.296708323540143" id="-44056">
		<tag k="fixme" v="consider natural=peak for the most distinct mountains in the district" />
		<tag k="name" v="Veiåsen" />
		<tag k="natural" v="hill" />
		<tag k="place" v="locality" />
		<tag k="ssr:stedsnr" v="654412" />
	</node>
	<node lat="63.66093888543949" lon="11.277602782561567" id="-44057">
		<tag k="fixme" v="consider natural=peak for the most distinct mountains in the district" />
		<tag k="name" v="Slettåsan" />
		<tag k="natural" v="hill" />
		<tag k="place" v="locality" />
		<tag k="ssr:stedsnr" v="654413" />
	</node>
	<node lat="63.81095555116674" lon="11.174650002405773" id="-44058">
		<tag k="name" v="Væråslia" />
		<tag k="natural" v="slope" />
		<tag k="place" v="locality" />
		<tag k="ssr:stedsnr" v="655004" />
	</node>
	<node lat="63.643675003239586" lon="11.29001943665442" id="-44063">
		<tag k="fixme" v="consider natural=peak for the most distinct mountains in the district" />
		<tag k="name" v="Høgåsen" />
		<tag k="natural" v="hill" />
		<tag k="place" v="locality" />
		<tag k="ssr:stedsnr" v="655399" />
	</node>
	<node lat="63.62963333236103" lon="10.979633330605868" id="-44085">
		<tag k="alt_name" v="Høgklumpen" />
		<tag k="fixme" v="consider natural=peak for the most distinct mountains in the district" />
		<tag k="name" v="Høgklimpen" />
		<tag k="natural" v="hill" />
		<tag k="place" v="locality" />
		<tag k="ssr:stedsnr" v="680973" />
	</node>
	<node lat="63.75314444644416" lon="11.31540555012409" id="-44093">
		<tag k="name" v="Kjerkhaugen" />
		<tag k="natural" v="hill" />
		<tag k="place" v="locality" />
		<tag k="ssr:stedsnr" v="690721" />
	</node>
	<node lat="63.70519167112777" lon="11.487250001043273" id="-44094">
		<tag k="name" v="Skågsetlia" />
		<tag k="natural" v="slope" />
		<tag k="place" v="locality" />
		<tag k="ssr:stedsnr" v="693409" />
	</node>
	<node lat="63.717177777422435" lon="11.537155555580744" id="-44095">
		<tag k="name" v="Hundberget" />
		<tag k="natural" v="hill" />
		<tag k="place" v="locality" />
		<tag k="ssr:stedsnr" v="693423" />
	</node>
	<node lat="63.69576110686562" lon="11.46886111096973" id="-44096">
		<tag k="name" v="Revhaugen" />
		<tag k="natural" v="hill" />
		<tag k="place" v="locality" />
		<tag k="ssr:stedsnr" v="693369" />
	</node>
	<node lat="63.71097222366831" lon="11.456955555210632" id="-44097">
		<tag k="name" v="Sagmarka" />
		<tag k="place" v="locality" />
		<tag k="ssr:stedsnr" v="694291" />
	</node>
	<node lat="63.614377782030516" lon="11.042055557839209" id="-44102">
		<tag k="name" v="Fossberga" />
		<tag k="natural" v="hill" />
		<tag k="place" v="locality" />
		<tag k="ssr:stedsnr" v="897132" />
	</node>
	<node lat="63.57961666642679" lon="11.317297223513963" id="-44108">
		<tag k="name" v="Botn" />
		<tag k="natural" v="valley" />
		<tag k="place" v="locality" />
		<tag k="ssr:stedsnr" v="897740" />
	</node>
	<node lat="63.61135555763949" lon="11.286997218474069" id="-44117">
		<tag k="fixme" v="consider natural=peak for the most distinct mountains in the district" />
		<tag k="name" v="Lauvåsen" />
		<tag k="natural" v="hill" />
		<tag k="place" v="locality" />
		<tag k="ssr:stedsnr" v="898515" />
	</node>
	<node lat="63.62475555575613" lon="11.239930547204702" id="-44118">
		<tag k="name" v="Sandlia" />
		<tag k="natural" v="slope" />
		<tag k="place" v="locality" />
		<tag k="ssr:stedsnr" v="898487" />
	</node>
	<node lat="63.68316388725558" lon="11.26528889170491" id="-44119">
		<tag k="fixme" v="consider natural=peak for the most distinct mountains in the district" />
		<tag k="name" v="Tjongfallberget" />
		<tag k="natural" v="hill" />
		<tag k="place" v="locality" />
		<tag k="ssr:stedsnr" v="898586" />
	</node>
	<node lat="63.67082500361058" lon="11.289249999926398" id="-44120">
		<tag k="name" v="Møssmørkleiva" />
		<tag k="natural" v="slope" />
		<tag k="place" v="locality" />
		<tag k="ssr:stedsnr" v="898593" />
	</node>
	<node lat="63.62598055511566" lon="11.332241665721787" id="-44122">
		<tag k="fixme" v="consider natural=peak for the most distinct mountains in the district" />
		<tag k="name" v="Skjevelåsberga" />
		<tag k="natural" v="hill" />
		<tag k="place" v="locality" />
		<tag k="ssr:stedsnr" v="898538" />
	</node>
	<node lat="63.58151388732682" lon="11.389627768082276" id="-44128">
		<tag k="fixme" v="consider natural=peak for the most distinct mountains in the district" />
		<tag k="name" v="Jardåsen" />
		<tag k="natural" v="hill" />
		<tag k="place" v="locality" />
		<tag k="ssr:stedsnr" v="898781" />
	</node>
	<node lat="63.65898333599237" lon="10.9574138923815" id="-44130">
		<tag k="name" v="Skalibakken" />
		<tag k="natural" v="slope" />
		<tag k="place" v="locality" />
		<tag k="ssr:stedsnr" v="714827" />
	</node>
	<node lat="63.7948111114744" lon="11.140836114522637" id="-44135">
		<tag k="name" v="Kvaksberga" />
		<tag k="natural" v="hill" />
		<tag k="place" v="locality" />
		<tag k="ssr:stedsnr" v="716009" />
	</node>
	<node lat="63.794197223701026" lon="11.119502781395415" id="-44140">
		<tag k="name" v="Storhaugen" />
		<tag k="natural" v="hill" />
		<tag k="place" v="locality" />
		<tag k="ssr:stedsnr" v="716128" />
	</node>
	<node lat="63.61408889002615" lon="11.33980833799151" id="-44144">
		<tag k="name" v="Erstrødalen" />
		<tag k="natural" v="valley" />
		<tag k="place" v="locality" />
		<tag k="ssr:stedsnr" v="716611" />
	</node>
	<node lat="63.69856666486167" lon="10.972136106223994" id="-44145">
		<tag k="fixme" v="consider natural=peak for the most distinct mountains in the district" />
		<tag k="name" v="Korpfjellnebben" />
		<tag k="natural" v="hill" />
		<tag k="place" v="locality" />
		<tag k="ssr:stedsnr" v="716375" />
	</node>
	<node lat="63.69241944460586" lon="10.973436105199328" id="-44146">
		<tag k="fixme" v="consider natural=peak for the most distinct mountains in the district" />
		<tag k="name" v="Korpfjellet" />
		<tag k="natural" v="hill" />
		<tag k="place" v="locality" />
		<tag k="ssr:stedsnr" v="716377" />
	</node>
	<node lat="63.61261944202881" lon="11.317824996977414" id="-44150">
		<tag k="name" v="Tårnhalla" />
		<tag k="natural" v="slope" />
		<tag k="place" v="locality" />
		<tag k="ssr:stedsnr" v="716590" />
	</node>
	<node lat="63.69848888643762" lon="11.161583338522092" id="-44178">
		<tag k="name" v="Åkløftet" />
		<tag k="natural" v="valley" />
		<tag k="place" v="locality" />
		<tag k="ssr:stedsnr" v="750503" />
	</node>
	<node lat="63.69475833734032" lon="11.133641671771583" id="-44179">
		<tag k="fixme" v="consider natural=peak for the most distinct mountains in the district" />
		<tag k="name" v="Auringberget" />
		<tag k="natural" v="hill" />
		<tag k="place" v="locality" />
		<tag k="ssr:stedsnr" v="750510" />
	</node>
	<node lat="63.67508055644142" lon="11.56377776935615" id="-44187">
		<tag k="name" v="Rundhaugen" />
		<tag k="natural" v="hill" />
		<tag k="place" v="locality" />
		<tag k="ssr:stedsnr" v="754450" />
	</node>
	<node lat="63.66033889328024" lon="10.921400008098713" id="-44190">
		<tag k="name" v="Litlheia" />
		<tag k="natural" v="hill" />
		<tag k="place" v="locality" />
		<tag k="ssr:stedsnr" v="774852" />
	</node>
	<node lat="63.810691669348124" lon="11.189527783425511" id="-44193">
		<tag k="fixme" v="consider natural=peak for the most distinct mountains in the district" />
		<tag k="name" v="Litlmarka" />
		<tag k="natural" v="hill" />
		<tag k="place" v="locality" />
		<tag k="ssr:stedsnr" v="776003" />
	</node>
	<node lat="63.77628888708804" lon="11.072274996237873" id="-44196">
		<tag k="fixme" v="consider natural=peak for the most distinct mountains in the district" />
		<tag k="name" v="Dragåsen" />
		<tag k="natural" v="hill" />
		<tag k="place" v="locality" />
		<tag k="ssr:stedsnr" v="777109" />
	</node>
	<node lat="63.791905556854836" lon="11.093911117542552" id="-44197">
		<tag k="fixme" v="consider natural=peak for the most distinct mountains in the district" />
		<tag k="name" v="Jørstadhaugen" />
		<tag k="natural" v="hill" />
		<tag k="place" v="locality" />
		<tag k="ssr:stedsnr" v="777113" />
	</node>
	<node lat="63.61889999619084" lon="11.291461102951729" id="-44201">
		<tag k="name" v="Gropin" />
		<tag k="natural" v="slope" />
		<tag k="place" v="locality" />
		<tag k="ssr:stedsnr" v="777555" />
	</node>
	<node lat="63.61376199401837" lon="11.435769155449886" id="-44208">
		<tag k="alt_name" v="Telitongdalen" />
		<tag k="name" v="Tellitungdalen" />
		<tag k="natural" v="valley" />
		<tag k="place" v="locality" />
		<tag k="ssr:stedsnr" v="802472" />
	</node>
	<node lat="63.70751666344613" lon="11.11191110965699" id="-44227">
		<tag k="fixme" v="consider natural=peak for the most distinct mountains in the district" />
		<tag k="name" v="Diskberga" />
		<tag k="natural" v="hill" />
		<tag k="place" v="locality" />
		<tag k="ssr:stedsnr" v="811505" />
	</node>
	<node lat="63.68812778201342" lon="11.024661117791318" id="-44231">
		<tag k="fixme" v="consider natural=peak for the most distinct mountains in the district" />
		<tag k="name" v="Nonsåsen" />
		<tag k="natural" v="hill" />
		<tag k="place" v="locality" />
		<tag k="ssr:stedsnr" v="811532" />
	</node>
	<node lat="63.74893055990221" lon="11.3996361096174" id="-44234">
		<tag k="name" v="Nonshaugen" />
		<tag k="natural" v="hill" />
		<tag k="place" v="locality" />
		<tag k="ssr:stedsnr" v="811707" />
	</node>
	<node lat="63.71307777679873" lon="11.396005563948684" id="-44236">
		<tag k="fixme" v="consider natural=peak for the most distinct mountains in the district" />
		<tag k="name" v="Kolmilåsen" />
		<tag k="natural" v="hill" />
		<tag k="place" v="locality" />
		<tag k="ssr:stedsnr" v="811716" />
	</node>
	<node lat="63.713941665496954" lon="11.55249721716621" id="-44237">
		<tag k="fixme" v="consider natural=peak for the most distinct mountains in the district" />
		<tag k="name" v="Tørsveåsen" />
		<tag k="natural" v="hill" />
		<tag k="place" v="locality" />
		<tag k="ssr:stedsnr" v="815413" />
	</node>
	<node lat="63.72284166756795" lon="11.509461108709125" id="-44238">
		<tag k="name" v="Skardshåmmåren" />
		<tag k="natural" v="hill" />
		<tag k="place" v="locality" />
		<tag k="ssr:stedsnr" v="815418" />
	</node>
	<node lat="63.653188890766586" lon="11.363449991046568" id="-44257">
		<tag k="alt_name" v="Gaukhaugen" />
		<tag k="name" v="Gaukhaugan" />
		<tag k="natural" v="hill" />
		<tag k="place" v="locality" />
		<tag k="ssr:stedsnr" v="923572" />
	</node>
	<node lat="63.682384229895426" lon="11.410934598339605" id="-44258">
		<tag k="fixme" v="consider natural=peak for the most distinct mountains in the district" />
		<tag k="name" v="Furuhevilen" />
		<tag k="natural" v="hill" />
		<tag k="place" v="locality" />
		<tag k="ssr:stedsnr" v="923574" />
	</node>
	<node lat="63.671580552759394" lon="11.541633342331073" id="-44259">
		<tag k="name" v="Storlivola" />
		<tag k="natural" v="hill" />
		<tag k="place" v="locality" />
		<tag k="ssr:stedsnr" v="923579" />
	</node>
	<node lat="63.6602083371685" lon="10.965802774125315" id="-44270">
		<tag k="fixme" v="consider natural=peak for the most distinct mountains in the district" />
		<tag k="name" v="Høgåskammen" />
		<tag k="natural" v="hill" />
		<tag k="place" v="locality" />
		<tag k="ssr:stedsnr" v="835833" />
	</node>
	<node lat="63.67430045890916" lon="11.074439992467076" id="-44273">
		<tag k="name" v="Kjølaberga" />
		<tag k="natural" v="hill" />
		<tag k="place" v="locality" />
		<tag k="ssr:stedsnr" v="836176" />
	</node>
	<node lat="63.64842222144952" lon="11.206230561966589" id="-44274">
		<tag k="fixme" v="consider natural=peak for the most distinct mountains in the district" />
		<tag k="name" v="Hojemsberga" />
		<tag k="natural" v="hill" />
		<tag k="place" v="locality" />
		<tag k="ssr:stedsnr" v="837028" />
	</node>
	<node lat="63.66753055503785" lon="11.291730546395126" id="-44276">
		<tag k="fixme" v="consider natural=peak for the most distinct mountains in the district" />
		<tag k="name" v="Bjønndalskammen" />
		<tag k="natural" v="hill" />
		<tag k="place" v="locality" />
		<tag k="ssr:stedsnr" v="837605" />
	</node>
	<node lat="63.62229166522365" lon="11.210383336253638" id="-44283">
		<tag k="name" v="Aspåsgrøbba" />
		<tag k="natural" v="valley" />
		<tag k="place" v="locality" />
		<tag k="ssr:stedsnr" v="838515" />
	</node>
	<node lat="63.605444442637605" lon="11.324244444757749" id="-44285">
		<tag k="fixme" v="consider natural=peak for the most distinct mountains in the district" />
		<tag k="name" v="Brekkvola" />
		<tag k="natural" v="hill" />
		<tag k="place" v="locality" />
		<tag k="ssr:stedsnr" v="838582" />
	</node>
	<node lat="63.62885555614305" lon="11.446819444389385" id="-44286">
		<tag k="fixme" v="consider natural=peak for the most distinct mountains in the district" />
		<tag k="name" v="Brølivola" />
		<tag k="natural" v="hill" />
		<tag k="place" v="locality" />
		<tag k="ssr:stedsnr" v="924353" />
	</node>
	<node lat="63.64253332972466" lon="11.47407499138909" id="-44316">
		<tag k="name" v="Snøgrava" />
		<tag k="natural" v="valley" />
		<tag k="place" v="locality" />
		<tag k="ssr:stedsnr" v="863520" />
	</node>
	<node lat="63.695344448490914" lon="11.099855560356769" id="-44324">
		<tag k="name" v="Middagsberget" />
		<tag k="natural" v="hill" />
		<tag k="place" v="locality" />
		<tag k="ssr:stedsnr" v="932510" />
	</node>
	<node lat="63.69461110992416" lon="11.233811108066138" id="-44332">
		<tag k="name" v="Halla" />
		<tag k="natural" v="slope" />
		<tag k="place" v="locality" />
		<tag k="ssr:stedsnr" v="932575" />
	</node>
	<node lat="63.68952222643858" lon="10.97836388284018" id="-44337">
		<tag k="fixme" v="consider natural=peak for the most distinct mountains in the district" />
		<tag k="name" v="Storbjørkåsen" />
		<tag k="natural" v="hill" />
		<tag k="place" v="locality" />
		<tag k="ssr:stedsnr" v="933581" />
	</node>
	<node lat="63.57686152892022" lon="10.887770437849923" id="-44347">
		<tag k="name" v="Aunåsberget" />
		<tag k="natural" v="hill" />
		<tag k="place" v="locality" />
		<tag k="ssr:stedsnr" v="896579" />
	</node>
	<node lat="63.65624721910423" lon="10.946466662276897" id="-44348">
		<tag k="name" v="Selbulia" />
		<tag k="natural" v="slope" />
		<tag k="place" v="locality" />
		<tag k="ssr:stedsnr" v="896865" />
	</node>
	<node lat="63.61651944667126" lon="11.303108330206902" id="-44353">
		<tag k="fixme" v="consider natural=peak for the most distinct mountains in the district" />
		<tag k="name" v="Brantåsen" />
		<tag k="natural" v="hill" />
		<tag k="place" v="locality" />
		<tag k="ssr:stedsnr" v="898505" />
	</node>
	<node lat="63.6160805568175" lon="11.329327776123508" id="-44354">
		<tag k="fixme" v="consider natural=peak for the most distinct mountains in the district" />
		<tag k="name" v="Sagåsen" />
		<tag k="natural" v="hill" />
		<tag k="place" v="locality" />
		<tag k="ssr:stedsnr" v="898511" />
	</node>
	<node lat="63.649447218699265" lon="11.268355563712182" id="-44355">
		<tag k="fixme" v="consider natural=peak for the most distinct mountains in the district" />
		<tag k="name" v="Sagåsen" />
		<tag k="natural" v="hill" />
		<tag k="place" v="locality" />
		<tag k="ssr:stedsnr" v="898404" />
	</node>
	<node lat="63.64259166482454" lon="11.2187638973608" id="-44356">
		<tag k="fixme" v="consider natural=peak for the most distinct mountains in the district" />
		<tag k="name" v="Småtjønnberga" />
		<tag k="natural" v="hill" />
		<tag k="place" v="locality" />
		<tag k="ssr:stedsnr" v="898454" />
	</node>
	<node lat="63.67133055975847" lon="10.96034445445155" id="-44369">
		<tag k="fixme" v="consider natural=peak for the most distinct mountains in the district" />
		<tag k="name" v="Ørndalskammen" />
		<tag k="natural" v="hill" />
		<tag k="place" v="locality" />
		<tag k="ssr:stedsnr" v="923128" />
	</node>
</osm>
