<?xml version="1.0" encoding="UTF-8"?>
<<<<<<< HEAD
<osm version="0.6" generator="osmapis">
	<node lat="63.579255558982645" lon="11.347350001380482" id="-31216">
		<tag k="name" v="Nord-Røkkebekken" />
		<tag k="ssr:stedsnr" v="229773" />
		<tag k="waterway" v="stream" />
	</node>
	<node lat="63.6203361094611" lon="11.2488638957513" id="-31219">
		<tag k="name" v="Slettbukta" />
		<tag k="natural" v="cape" />
		<tag k="ssr:stedsnr" v="230500" />
	</node>
	<node lat="63.619641670795055" lon="11.316722220608364" id="-31220">
		<tag k="name" v="Skjevelåsnesset" />
		<tag k="natural" v="cape" />
		<tag k="ssr:stedsnr" v="230546" />
	</node>
	<node lat="63.67301388966386" lon="10.9769583306801" id="-31237">
		<tag k="name" v="Storholmen" />
		<tag k="place" v="islet" />
		<tag k="ssr:stedsnr" v="13122" />
	</node>
	<node lat="63.59889999988208" lon="11.372588890647913" id="-31241">
		<tag k="alt_name" v="Svendgardstjønna" />
		<tag k="name" v="Svengardstjønna" />
		<tag k="natural" v="water" />
		<tag k="ssr:stedsnr" v="13464" />
	</node>
	<node lat="63.692155556826556" lon="11.158005561087025" id="-31252">
		<tag k="name" v="Leiraelva" />
		<tag k="ssr:stedsnr" v="22485" />
		<tag k="waterway" v="stream" />
	</node>
	<node lat="63.6627416633957" lon="10.969330559237768" id="-31278">
		<tag k="name" v="Høgåstjønna" />
		<tag k="natural" v="water" />
		<tag k="ssr:stedsnr" v="74012" />
	</node>
	<node lat="63.67354444116908" lon="10.970363892437003" id="-31286">
		<tag k="name" v="Sønningen" />
		<tag k="natural" v="water" />
		<tag k="ssr:stedsnr" v="74103" />
		<tag k="water" v="lake" />
	</node>
	<node lat="63.67399444630658" lon="10.995727783578705" id="-31287">
		<tag k="name" v="Kløfttjønnin" />
		<tag k="natural" v="water" />
		<tag k="ssr:stedsnr" v="74109" />
	</node>
	<node lat="63.63458889148173" lon="11.350813890625934" id="-31288">
		<tag k="name" v="Trosetbekken" />
		<tag k="ssr:stedsnr" v="74372" />
		<tag k="waterway" v="stream" />
	</node>
	<node lat="63.58057777453699" lon="11.198736112643642" id="-31294">
		<tag k="name" v="Sagtjønna" />
		<tag k="natural" v="water" />
		<tag k="ssr:stedsnr" v="74805" />
	</node>
	<node lat="63.6477944458574" lon="11.553463887252008" id="-31316">
		<tag k="name" v="Klingertjønna" />
		<tag k="natural" v="water" />
		<tag k="ssr:stedsnr" v="87410" />
	</node>
	<node lat="63.596861581129595" lon="11.22783282859069" id="-31329">
		<tag k="name" v="Storfossen" />
		<tag k="natural" v="waterfall" />
		<tag k="ssr:stedsnr" v="108070" />
	</node>
	<node lat="63.65016003139418" lon="11.051480763575471" id="-31331">
		<tag k="name" v="Bantjønnbekken" />
		<tag k="ssr:stedsnr" v="108208" />
		<tag k="waterway" v="stream" />
	</node>
	<node lat="63.610031972491996" lon="10.984149261785047" id="-31333">
		<tag k="name" v="Kuba" />
		<tag k="place" v="island" />
		<tag k="ssr:stedsnr" v="108513" />
	</node>
	<node lat="63.676313884761115" lon="11.226830553615843" id="-31337">
		<tag k="name" v="Brennesbekken" />
		<tag k="ssr:stedsnr" v="109379" />
		<tag k="waterway" v="stream" />
	</node>
	<node lat="63.61683055199691" lon="11.310675009215135" id="-31343">
		<tag k="name" v="Veråsneset" />
		<tag k="natural" v="cape" />
		<tag k="ssr:stedsnr" v="109522" />
	</node>
	<node lat="63.713288885779455" lon="11.568602774598038" id="-31376">
		<tag k="name" v="Burtjønna" />
		<tag k="natural" v="water" />
		<tag k="ssr:stedsnr" v="255585" />
	</node>
	<node lat="63.673194443459174" lon="10.98867500446708" id="-31402">
=======
<osm generator="osmapis" version="0.6">
	<node id="-770048" lat="63.7355805585" lon="11.5275555548">
		<tag k="fixme" v="multiple name tags, choose one and add the other to alt_name" />
		<tag k="name" v="Burelva;Rinnelva" />
		<tag k="ssr:stedsnr" v="741725" />
		<tag k="waterway" v="river" />
	</node>
	<node id="-770389" lat="63.6159384569" lon="11.6504717537">
		<tag k="name" v="Glunka" />
		<tag k="ssr:stedsnr" v="958816" />
		<tag k="waterway" v="river" />
	</node>
	<node id="-769020" lat="63.619841665" lon="11.1312638856">
		<tag k="name" v="Hoklingen" />
		<tag k="natural" v="water" />
		<tag k="ssr:stedsnr" v="74943" />
		<tag k="water" v="lake" />
	</node>
	<node id="-769707" lat="63.6517499988" lon="11.3392972176">
		<tag k="alt_name" v="Volusjøen;Vulusjøen" />
		<tag k="name" v="Skognvulusjøen" />
		<tag k="natural" v="water" />
		<tag k="ssr:stedsnr" v="438521" />
	</node>
	<node id="-769017" lat="63.5805777745" lon="11.1987361126">
		<tag k="name" v="Sagtjønna" />
		<tag k="natural" v="water" />
		<tag k="ssr:stedsnr" v="74805" />
	</node>
	<node id="-768504" lat="63.7016111089" lon="10.9601111188">
		<tag k="name" v="Høgsetesnebben" />
		<tag k="natural" v="cape" />
		<tag k="ssr:stedsnr" v="716380" />
	</node>
	<node id="-770132" lat="63.6566305559" lon="11.1785083261">
		<tag k="name" v="Menestangen" />
		<tag k="natural" v="cape" />
		<tag k="ssr:stedsnr" v="776037" />
	</node>
	<node id="-769523" lat="63.6580222257" lon="11.4752777713">
		<tag k="name" v="Klonkbekken" />
		<tag k="ssr:stedsnr" v="352773" />
		<tag k="waterway" v="stream" />
	</node>
	<node id="-769522" lat="63.6171249985" lon="11.2534416609">
		<tag k="name" v="Kastberget" />
		<tag k="natural" v="cape" />
		<tag k="ssr:stedsnr" v="352539" />
	</node>
	<node id="-769521" lat="63.6193611124" lon="11.2530000028">
		<tag k="name" v="Bjønntangen" />
		<tag k="natural" v="cape" />
		<tag k="ssr:stedsnr" v="352537" />
	</node>
	<node id="-769704" lat="63.5896916693" lon="11.3306388832">
		<tag k="alt_name" v="Litlgrønningen" />
		<tag k="name" v="Litl-Grønningsvatnet" />
		<tag k="natural" v="water" />
		<tag k="ssr:stedsnr" v="438422" />
	</node>
	<node id="-769517" lat="63.6331916677" lon="11.3347166615">
		<tag k="name" v="Litlrosetbekken" />
		<tag k="ssr:stedsnr" v="352506" />
		<tag k="waterway" v="stream" />
	</node>
	<node id="-769004" lat="63.6507833313" lon="11.2779083412">
		<tag k="name" v="Vensettjønna" />
		<tag k="natural" v="water" />
		<tag k="ssr:stedsnr" v="74528" />
	</node>
	<node id="-769003" lat="63.6633444422" lon="11.3493944415">
		<tag k="alt_name" v="Holbekkdammen" />
		<tag k="name" v="Hølbekkdammen" />
		<tag k="natural" v="water" />
		<tag k="ssr:stedsnr" v="74523" />
		<tag k="water" v="lake" />
	</node>
	<node id="-770215" lat="63.6886972226" lon="11.0175194513">
		<tag k="name" v="Hyllbekken" />
		<tag k="ssr:stedsnr" v="811540" />
		<tag k="waterway" v="stream" />
	</node>
	<node id="-768488" lat="63.5765278066" lon="11.174983599">
		<tag k="name" v="Grønbukta" />
		<tag k="natural" v="bay" />
		<tag k="ssr:stedsnr" v="715105" />
	</node>
	<node id="-769511" lat="63.6414027806" lon="11.1230361149">
		<tag k="name" v="Karbutjønna" />
		<tag k="natural" v="water" />
		<tag k="ssr:stedsnr" v="352396" />
	</node>
	<node id="-770022" lat="63.6047388857" lon="11.3039555649">
		<tag k="name" v="Pissaren" />
		<tag k="ssr:stedsnr" v="655596" />
		<tag k="waterway" v="stream" />
	</node>
	<node id="-768485" lat="63.6237000013" lon="11.0903777725">
		<tag k="alt_name" v="Dølombekken" />
		<tag k="name" v="Dulumbekken" />
		<tag k="ssr:stedsnr" v="715178" />
		<tag k="waterway" v="stream" />
	</node>
	<node id="-768996" lat="63.6739944463" lon="10.9957277836">
		<tag k="name" v="Kløfttjønnin" />
		<tag k="natural" v="water" />
		<tag k="ssr:stedsnr" v="74109" />
	</node>
	<node id="-768995" lat="63.6735444412" lon="10.9703638924">
		<tag k="name" v="Sønningen" />
		<tag k="natural" v="water" />
		<tag k="ssr:stedsnr" v="74103" />
		<tag k="water" v="lake" />
	</node>
	<node id="-770014" lat="63.6140694409" lon="11.2472972313">
		<tag k="name" v="Bergsvetangen" />
		<tag k="natural" v="cape" />
		<tag k="ssr:stedsnr" v="655530" />
	</node>
	<node id="-768476" lat="63.6568194448" lon="11.2085944465">
		<tag k="name" v="Ståbekken" />
		<tag k="ssr:stedsnr" v="594028" />
		<tag k="waterway" v="stream" />
	</node>
	<node id="-767963" lat="63.5728808946" lon="11.1489993504">
		<tag k="name" v="Trettåstangen" />
		<tag k="natural" v="cape" />
		<tag k="ssr:stedsnr" v="229103" />
	</node>
	<node id="-768001" lat="63.711505553" lon="11.3569250076">
		<tag k="name" v="Flatåsbekken" />
		<tag k="ssr:stedsnr" v="447588" />
		<tag k="waterway" v="stream" />
	</node>
	<node id="-768981" lat="63.6033305577" lon="11.5463277682">
		<tag k="name" v="Heståa" />
		<tag k="ssr:stedsnr" v="73429" />
		<tag k="waterway" v="river" />
	</node>
	<node id="-768433" lat="63.6698333305" lon="10.9208250095">
		<tag k="name" v="Kristivikvatnet" />
		<tag k="natural" v="water" />
		<tag k="ssr:stedsnr" v="559008" />
	</node>
	<node id="-769489" lat="63.6750562006" lon="11.0518566935">
		<tag k="name" v="Skåråstangen" />
		<tag k="natural" v="cape" />
		<tag k="ssr:stedsnr" v="350191" />
	</node>
	<node id="-767951" lat="63.628272225" lon="11.2571916724">
		<tag k="alt_name" v="Buranelva" />
		<tag k="name" v="Burelva" />
		<tag k="ssr:stedsnr" v="195408" />
		<tag k="waterway" v="stream" />
	</node>
	<node id="-769485" lat="63.5833853" lon="11.078341732">
		<tag k="name" v="Lomtjønna" />
		<tag k="natural" v="water" />
		<tag k="ssr:stedsnr" v="350355" />
	</node>
	<node id="-769484" lat="63.6505972216" lon="10.9735305555">
		<tag k="name" v="Laberget" />
		<tag k="natural" v="cape" />
		<tag k="ssr:stedsnr" v="349851" />
	</node>
	<node id="-769482" lat="63.6462722187" lon="10.9456222237">
		<tag k="name" v="Skallbekken" />
		<tag k="ssr:stedsnr" v="349843" />
		<tag k="waterway" v="stream" />
	</node>
	<node id="-767944" lat="63.6278777744" lon="11.4783527713">
		<tag k="name" v="Hovsbekken" />
		<tag k="ssr:stedsnr" v="291786" />
		<tag k="waterway" v="stream" />
	</node>
	<node id="-767820" lat="63.6857388927" lon="11.5518444543">
		<tag k="name" v="Lauvbrøyta" />
		<tag k="ssr:stedsnr" v="256526" />
		<tag k="waterway" v="stream" />
	</node>
	<node id="-769476" lat="63.6736666679" lon="11.4635111115">
		<tag k="name" v="Blåsterfossen" />
		<tag k="natural" v="waterfall" />
		<tag k="ssr:stedsnr" v="332998" />
	</node>
	<node id="-769475" lat="63.6682777804" lon="11.4714888945">
		<tag k="name" v="Holderbekken" />
		<tag k="ssr:stedsnr" v="332991" />
		<tag k="waterway" v="stream" />
	</node>
	<node id="-769473" lat="63.6700305517" lon="11.3768388983">
		<tag k="name" v="Skjøtingsdalsbekken" />
		<tag k="ssr:stedsnr" v="332987" />
		<tag k="waterway" v="stream" />
	</node>
	<node id="-769472" lat="63.7393194461" lon="11.4665472148">
		<tag k="name" v="Kløvibekken" />
		<tag k="ssr:stedsnr" v="332977" />
		<tag k="waterway" v="stream" />
	</node>
	<node id="-768958" lat="63.6775111104" lon="10.9447555481">
		<tag k="name" v="Laupabekken" />
		<tag k="ssr:stedsnr" v="49406" />
		<tag k="waterway" v="stream" />
	</node>
	<node id="-769113" lat="63.674463893" lon="11.2425749905">
		<tag k="name" v="Trodalsbekken" />
		<tag k="ssr:stedsnr" v="109550" />
		<tag k="waterway" v="stream" />
	</node>
	<node id="-769311" lat="63.5929805523" lon="11.1037305534">
		<tag k="name" v="Haugatjønna" />
		<tag k="natural" v="water" />
		<tag k="ssr:stedsnr" v="195861" />
	</node>
	<node id="-770397" lat="63.6400277764" lon="11.1748333267">
		<tag k="name" v="Moabekken" />
		<tag k="ssr:stedsnr" v="959435" />
		<tag k="waterway" v="stream" />
	</node>
	<node id="-768440" lat="63.6044750032" lon="11.6244583287">
		<tag k="name" v="Holmtjønna" />
		<tag k="natural" v="water" />
		<tag k="ssr:stedsnr" v="559408" />
	</node>
	<node id="-770292" lat="63.6845500031" lon="10.9577166697">
		<tag k="name" v="Klingertjønna" />
		<tag k="place" v="locality" />
		<tag k="ssr:stedsnr" v="863116" />
	</node>
	<node id="-768949" lat="63.5891916668" lon="11.3014222176">
		<tag k="name" v="Bokktjønna" />
		<tag k="natural" v="water" />
		<tag k="ssr:stedsnr" v="47766" />
	</node>
	<node id="-769879" lat="63.6571972263" lon="11.2513250023">
		<tag k="name" v="Sundebekken" />
		<tag k="ssr:stedsnr" v="594412" />
		<tag k="waterway" v="stream" />
	</node>
	<node id="-769969" lat="63.7027138896" lon="11.1567388868">
		<tag k="name" v="Hotterelva" />
		<tag k="ssr:stedsnr" v="628511" />
		<tag k="waterway" v="stream" />
	</node>
	<node id="-768944" lat="63.5906216185" lon="11.1338549297">
		<tag k="name" v="Matåsbekken" />
		<tag k="ssr:stedsnr" v="47040" />
		<tag k="waterway" v="stream" />
	</node>
	<node id="-769967" lat="63.6933083374" lon="11.1660555479">
		<tag k="name" v="Ståbekken" />
		<tag k="ssr:stedsnr" v="628492" />
		<tag k="waterway" v="stream" />
	</node>
	<node id="-767916" lat="63.5790276318" lon="11.1736633129">
		<tag k="name" v="Mosslinbukta" />
		<tag k="natural" v="bay" />
		<tag k="ssr:stedsnr" v="290067" />
	</node>
	<node id="-768427" lat="63.6180999963" lon="11.641641668">
		<tag k="name" v="Glunkvollbekken" />
		<tag k="ssr:stedsnr" v="558414" />
		<tag k="waterway" v="stream" />
	</node>
	<node id="-768424" lat="63.6806694482" lon="11.4117194385">
		<tag k="name" v="Fagertjønna" />
		<tag k="natural" v="water" />
		<tag k="ssr:stedsnr" v="696985" />
	</node>
	<node id="-769009" lat="63.6850888853" lon="11.3302805456">
		<tag k="alt_name" v="Halvardåsbekken" />
		<tag k="name" v="Hallvardåsbekken" />
		<tag k="ssr:stedsnr" v="74550" />
		<tag k="waterway" v="stream" />
	</node>
	<node id="-770369" lat="63.5996911119" lon="11.1341371615">
		<tag k="name" v="Grøvla" />
		<tag k="natural" v="water" />
		<tag k="ssr:stedsnr" v="957044" />
	</node>
	<node id="-768418" lat="63.6838944471" lon="11.3412972202">
		<tag k="name" v="Svullbekken" />
		<tag k="ssr:stedsnr" v="693393" />
		<tag k="waterway" v="stream" />
	</node>
	<node id="-768155" lat="63.6652611098" lon="10.9819361077">
		<tag k="name" v="Teppingtjønna" />
		<tag k="natural" v="water" />
		<tag k="ssr:stedsnr" v="498003" />
	</node>
	<node id="-768740" lat="63.6458194469" lon="11.2298583417">
		<tag k="alt_name" v="Tjyvtjønna" />
		<tag k="name" v="Tjuvtjønna" />
		<tag k="natural" v="water" />
		<tag k="ssr:stedsnr" v="802578" />
	</node>
	<node id="-768414" lat="63.6881527787" lon="11.3435027838">
		<tag k="name" v="Svullubakkbekken" />
		<tag k="ssr:stedsnr" v="693383" />
		<tag k="waterway" v="stream" />
	</node>
	<node id="-768413" lat="63.6833194456" lon="11.3196472234">
		<tag k="name" v="Langfyllbekken" />
		<tag k="ssr:stedsnr" v="693380" />
		<tag k="waterway" v="stream" />
	</node>
	<node id="-768411" lat="63.5857250043" lon="11.3714194449">
		<tag k="name" v="Hundtangen" />
		<tag k="natural" v="cape" />
		<tag k="ssr:stedsnr" v="534808" />
	</node>
	<node id="-768410" lat="63.5744444457" lon="11.4013194409">
		<tag k="name" v="Kvitsteinbekken" />
		<tag k="ssr:stedsnr" v="534806" />
		<tag k="waterway" v="stream" />
	</node>
	<node id="-769433" lat="63.6549722179" lon="11.2064249986">
		<tag k="name" v="Hojemstjønna" />
		<tag k="natural" v="water" />
		<tag k="ssr:stedsnr" v="323774" />
	</node>
	<node id="-768898" lat="63.6960222238" lon="10.9918777704">
		<tag k="name" v="Hyttelva" />
		<tag k="ssr:stedsnr" v="22551" />
		<tag k="waterway" v="stream" />
	</node>
	<node id="-768919" lat="63.6975833366" lon="10.9904833394">
		<tag k="name" v="Stampfossen" />
		<tag k="natural" v="waterfall" />
		<tag k="ssr:stedsnr" v="22966" />
	</node>
	<node id="-768323" lat="63.697861109" lon="11.3658555628">
		<tag k="alt_name" v="Tvårråsjøen" />
		<tag k="name" v="Tvåråsjøen" />
		<tag k="natural" v="water" />
		<tag k="ssr:stedsnr" v="680622" />
	</node>
	<node id="-769005" lat="63.6514027785" lon="11.3056555646">
		<tag k="name" v="Svartbekken" />
		<tag k="ssr:stedsnr" v="74529" />
		<tag k="waterway" v="stream" />
	</node>
	<node id="-767809" lat="63.6731944435" lon="10.9886750045">
>>>>>>> e1d4bc35ff8a6074a6f2e91616a996b547c36f15
		<tag k="name" v="Bantjønna" />
		<tag k="natural" v="water" />
		<tag k="ssr:stedsnr" v="256098" />
	</node>
<<<<<<< HEAD
	<node lat="63.59488610816352" lon="11.207786105986386" id="-31414">
		<tag k="name" v="Hundbekken" />
		<tag k="ssr:stedsnr" v="256831" />
		<tag k="waterway" v="stream" />
	</node>
	<node lat="63.685058332022834" lon="11.278944434670988" id="-31433">
		<tag k="name" v="Kvennbekken" />
		<tag k="ssr:stedsnr" v="169606" />
		<tag k="waterway" v="stream" />
	</node>
	<node lat="63.717822220433874" lon="11.400188882109754" id="-31445">
		<tag k="name" v="Svartbergmyrbekken" />
		<tag k="ssr:stedsnr" v="265663" />
		<tag k="waterway" v="stream" />
	</node>
	<node lat="63.749205554424776" lon="11.317183338831498" id="-31449">
		<tag k="name" v="Leirabekken" />
		<tag k="ssr:stedsnr" v="265681" />
		<tag k="waterway" v="stream" />
	</node>
	<node lat="63.61409721844145" lon="11.601372229697343" id="-31453">
		<tag k="name" v="Reinsjøen" />
		<tag k="natural" v="water" />
		<tag k="ssr:stedsnr" v="195434" />
		<tag k="water" v="lake" />
	</node>
	<node lat="63.69611111387524" lon="11.256586107792717" id="-31470">
		<tag k="name" v="Høyslobekken" />
		<tag k="ssr:stedsnr" v="204542" />
		<tag k="waterway" v="stream" />
	</node>
	<node lat="63.690491670114845" lon="11.264908324047516" id="-31471">
		<tag k="name" v="Kvernbekken" />
		<tag k="ssr:stedsnr" v="204545" />
		<tag k="waterway" v="stream" />
	</node>
	<node lat="63.686663887030946" lon="11.458433339931291" id="-31482">
		<tag k="name" v="Hærolafossen" />
		<tag k="natural" v="waterfall" />
		<tag k="ssr:stedsnr" v="268324" />
	</node>
	<node lat="63.664891669732846" lon="11.30578056531544" id="-31486">
		<tag k="name" v="Okstjønna" />
		<tag k="natural" v="water" />
		<tag k="ssr:stedsnr" v="207340" />
	</node>
	<node lat="63.70843889065618" lon="11.496638884852478" id="-31488">
		<tag k="name" v="Skågsetfossen" />
		<tag k="natural" v="waterfall" />
		<tag k="ssr:stedsnr" v="208421" />
	</node>
	<node lat="63.6891666677462" lon="11.552674999110435" id="-31491">
		<tag k="name" v="Gjeldsåsbekken" />
		<tag k="ssr:stedsnr" v="269449" />
		<tag k="waterway" v="stream" />
	</node>
	<node lat="63.59752517662108" lon="10.993503728580453" id="-31502">
		<tag k="name" v="Taura" />
		<tag k="ssr:stedsnr" v="229485" />
		<tag k="waterway" v="stream" />
	</node>
	<node lat="63.67480833492462" lon="11.311827768882521" id="-31516">
		<tag k="name" v="Lundsbustadtjønna" />
		<tag k="natural" v="water" />
		<tag k="ssr:stedsnr" v="450356" />
	</node>
	<node lat="63.68653055146684" lon="11.547686118689986" id="-31529">
		<tag k="name" v="Mardalsbekken" />
		<tag k="ssr:stedsnr" v="451449" />
		<tag k="waterway" v="stream" />
	</node>
	<node lat="63.61238333732438" lon="11.37532778258511" id="-31536">
		<tag k="name" v="Årengelva" />
		<tag k="ssr:stedsnr" v="255404" />
		<tag k="waterway" v="stream" />
	</node>
	<node lat="63.58575278015627" lon="11.397983325166114" id="-31548">
		<tag k="name" v="Finnåstjønna" />
		<tag k="natural" v="water" />
		<tag k="ssr:stedsnr" v="256402" />
	</node>
	<node lat="63.688588890156645" lon="11.213241656973949" id="-31554">
		<tag k="name" v="Fostadbekken" />
		<tag k="ssr:stedsnr" v="265522" />
		<tag k="waterway" v="stream" />
	</node>
	<node lat="63.67424999572617" lon="11.553388890681742" id="-31569">
		<tag k="name" v="Volusjøelva" />
		<tag k="ssr:stedsnr" v="269427" />
		<tag k="waterway" v="river" />
	</node>
	<node lat="63.60402500240699" lon="11.231694451015773" id="-31587">
		<tag k="name" v="Haugabukta" />
		<tag k="natural" v="bay" />
		<tag k="ssr:stedsnr" v="291507" />
	</node>
	<node lat="63.63012777634657" lon="11.316780548211717" id="-31588">
		<tag k="name" v="Trosetbekken" />
		<tag k="ssr:stedsnr" v="291510" />
		<tag k="waterway" v="stream" />
	</node>
	<node lat="63.66569999969629" lon="11.013894452520583" id="-31590">
		<tag k="name" v="Svartvika" />
		<tag k="natural" v="bay" />
		<tag k="ssr:stedsnr" v="291277" />
	</node>
	<node lat="63.678047221187384" lon="10.921425006698204" id="-31591">
		<tag k="name" v="Kaggspunsbekken" />
		<tag k="ssr:stedsnr" v="291284" />
		<tag k="waterway" v="stream" />
	</node>
	<node lat="63.6816444416613" lon="10.983122232079168" id="-31594">
		<tag k="name" v="Setersundet" />
		<tag k="natural" v="strait" />
		<tag k="ssr:stedsnr" v="291290" />
	</node>
	<node lat="63.627877774418415" lon="11.478352771291457" id="-31597">
		<tag k="name" v="Hovsbekken" />
		<tag k="ssr:stedsnr" v="291786" />
		<tag k="waterway" v="stream" />
	</node>
	<node lat="63.65545555671012" lon="10.945916667830188" id="-31599">
		<tag k="name" v="Selbubekken" />
		<tag k="ssr:stedsnr" v="316052" />
		<tag k="waterway" v="stream" />
	</node>
	<node lat="63.677691665149084" lon="10.963958327149053" id="-31601">
		<tag k="name" v="Grønsjøen" />
		<tag k="natural" v="water" />
		<tag k="ssr:stedsnr" v="316106" />
	</node>
	<node lat="63.48552221947059" lon="11.232763887939871" id="-31602">
		<tag k="name" v="Forra" />
		<tag k="ssr:stedsnr" v="316198" />
		<tag k="waterway" v="river" />
	</node>
	<node lat="63.57843333746573" lon="11.224099995357715" id="-31604">
		<tag k="name" v="Sundtjønna" />
		<tag k="natural" v="water" />
		<tag k="ssr:stedsnr" v="316513" />
	</node>
	<node lat="63.654972217853185" lon="11.206424998571725" id="-31624">
		<tag k="name" v="Hojemstjønna" />
		<tag k="natural" v="water" />
		<tag k="ssr:stedsnr" v="323774" />
	</node>
	<node lat="63.673666667922284" lon="11.463511111518526" id="-31647">
		<tag k="name" v="Blåsterfossen" />
		<tag k="natural" v="waterfall" />
		<tag k="ssr:stedsnr" v="332998" />
	</node>
	<node lat="63.68376841458603" lon="11.143090925447636" id="-31648">
		<tag k="name" v="Leirabekken" />
		<tag k="ssr:stedsnr" v="472228" />
		<tag k="waterway" v="stream" />
	</node>
	<node lat="63.64673888916032" lon="11.109556760257997" id="-31657">
		<tag k="name" v="Kvennhusbekken" />
		<tag k="ssr:stedsnr" v="472049" />
		<tag k="waterway" v="stream" />
	</node>
	<node lat="63.6758611140678" lon="10.966319452830472" id="-31671">
		<tag k="name" v="Matbergvika" />
		<tag k="natural" v="bay" />
		<tag k="ssr:stedsnr" v="473387" />
	</node>
	<node lat="63.615772221900635" lon="11.247749999440938" id="-31676">
		<tag k="name" v="Kastbukta" />
		<tag k="natural" v="bay" />
		<tag k="ssr:stedsnr" v="473528" />
	</node>
	<node lat="63.62262222353377" lon="11.445422217840374" id="-31682">
		<tag k="name" v="Todalstjønna" />
		<tag k="natural" v="water" />
		<tag k="ssr:stedsnr" v="473794" />
	</node>
	<node lat="63.66419166432759" lon="11.000955549426681" id="-31691">
		<tag k="name" v="Aunbekken" />
		<tag k="ssr:stedsnr" v="351265" />
		<tag k="waterway" v="stream" />
	</node>
	<node lat="63.63319166770629" lon="11.334716661527693" id="-31697">
		<tag k="name" v="Litlrosetbekken" />
		<tag k="ssr:stedsnr" v="352506" />
		<tag k="waterway" v="stream" />
	</node>
	<node lat="63.658022225698176" lon="11.475277771317732" id="-31699">
		<tag k="name" v="Klonkbekken" />
		<tag k="ssr:stedsnr" v="352773" />
		<tag k="waterway" v="stream" />
	</node>
	<node lat="63.693030557063786" lon="11.38595833055984" id="-31721">
		<tag k="name" v="Neverdalsbekken" />
		<tag k="ssr:stedsnr" v="389352" />
		<tag k="waterway" v="stream" />
	</node>
	<node lat="63.65327222315638" lon="11.536908339015424" id="-31722">
		<tag k="name" v="Skallbekken" />
		<tag k="ssr:stedsnr" v="390390" />
		<tag k="waterway" v="stream" />
	</node>
	<node lat="63.56826940129493" lon="11.12355387759572" id="-31728">
		<tag k="name" v="Håvassbekken" />
		<tag k="ssr:stedsnr" v="411116" />
		<tag k="waterway" v="stream" />
	</node>
	<node lat="63.62699620275475" lon="11.251774531856977" id="-31738">
		<tag k="name" v="Burtangen" />
		<tag k="natural" v="cape" />
		<tag k="old_name" v="Burantangen" />
		<tag k="ssr:stedsnr" v="413539" />
	</node>
	<node lat="63.628424995818136" lon="11.562202776248142" id="-31749">
		<tag k="name" v="Heståsbekken" />
		<tag k="ssr:stedsnr" v="438377" />
		<tag k="waterway" v="stream" />
	</node>
	<node lat="63.581725001079306" lon="11.244147216712586" id="-31751">
		<tag k="name" v="Rundstavtjønnin" />
		<tag k="natural" v="water" />
		<tag k="ssr:stedsnr" v="438418" />
	</node>
	<node lat="63.598722837792046" lon="11.182450864214834" id="-31779">
		<tag k="name" v="Bjørkstamnelva" />
		<tag k="ssr:stedsnr" v="472067" />
		<tag k="waterway" v="stream" />
	</node>
	<node lat="63.5941999976616" lon="11.601438891724847" id="-31781">
		<tag k="name" v="Svartbekken" />
		<tag k="ssr:stedsnr" v="472862" />
		<tag k="waterway" v="stream" />
	</node>
	<node lat="63.68490555583869" lon="11.002036114857853" id="-31790">
		<tag k="name" v="Karusstjønna" />
		<tag k="natural" v="water" />
		<tag k="ssr:stedsnr" v="680135" />
	</node>
	<node lat="63.59068888901391" lon="11.078147215123357" id="-31812">
		<tag k="name" v="Voltjønnin" />
		<tag k="natural" v="water" />
		<tag k="ssr:stedsnr" v="680888" />
	</node>
	<node lat="63.60813055439261" lon="10.956919434642733" id="-31815">
		<tag k="name" v="Fårabotnen" />
		<tag k="natural" v="bay" />
		<tag k="ssr:stedsnr" v="680907" />
	</node>
	<node lat="63.63822499733457" lon="11.209477771424465" id="-31818">
		<tag k="name" v="Almlitjønna" />
		<tag k="natural" v="water" />
		<tag k="ssr:stedsnr" v="680999" />
	</node>
	<node lat="63.63851388613179" lon="11.125394440502681" id="-31819">
		<tag k="name" v="Svarttjønna" />
		<tag k="natural" v="water" />
		<tag k="ssr:stedsnr" v="681000" />
	</node>
	<node lat="63.6491916680634" lon="11.084774992365007" id="-31820">
		<tag k="name" v="Nesvatnet" />
		<tag k="natural" v="water" />
		<tag k="ssr:stedsnr" v="681042" />
		<tag k="water" v="lake" />
	</node>
	<node lat="63.66393888974443" lon="11.020183338842864" id="-31822">
		<tag k="alt_name" v="Byvatnet" />
		<tag k="name" v="Byavatnet" />
		<tag k="natural" v="water" />
		<tag k="ssr:stedsnr" v="498002" />
		<tag k="water" v="lake" />
	</node>
	<node lat="63.665261109806" lon="10.981936107679672" id="-31823">
		<tag k="name" v="Teppingtjønna" />
		<tag k="natural" v="water" />
		<tag k="ssr:stedsnr" v="498003" />
	</node>
	<node lat="63.6510416691888" lon="11.012213895973531" id="-31828">
		<tag k="name" v="Migtjønna" />
		<tag k="natural" v="water" />
		<tag k="ssr:stedsnr" v="498041" />
	</node>
	<node lat="63.67498888933403" lon="10.986799998770778" id="-31830">
		<tag k="alt_name" v="Vestremssvarttjønna" />
		<tag k="name" v="Svarttjønna" />
		<tag k="natural" v="water" />
		<tag k="ssr:stedsnr" v="498116" />
	</node>
	<node lat="63.62901110818812" lon="11.408474994656434" id="-31838">
		<tag k="alt_name" v="Klavtjønna" />
		<tag k="name" v="Kleivtjønna" />
		<tag k="natural" v="water" />
		<tag k="ssr:stedsnr" v="681381" />
	</node>
	<node lat="63.57996944296873" lon="10.947469454232088" id="-31854">
		<tag k="name" v="Nesjovatnet" />
		<tag k="natural" v="water" />
		<tag k="ssr:stedsnr" v="681850" />
		<tag k="water" v="lake" />
	</node>
	<node lat="63.715125002837425" lon="11.461625003216218" id="-31864">
		<tag k="name" v="Reistaddammen" />
		<tag k="natural" v="water" />
		<tag k="ssr:stedsnr" v="511314" />
	</node>
	<node lat="63.649494445139524" lon="11.598083336452481" id="-31870">
		<tag k="name" v="Kammervatnet" />
		<tag k="natural" v="water" />
		<tag k="ssr:stedsnr" v="511402" />
		<tag k="water" v="lake" />
	</node>
	<node lat="63.5747750027576" lon="11.143830561179442" id="-31877">
		<tag k="name" v="Hallanbekken" />
		<tag k="ssr:stedsnr" v="532092" />
		<tag k="waterway" v="stream" />
	</node>
	<node lat="63.57103103891182" lon="11.044246363482914" id="-31878">
		<tag k="name" v="Rotbubekken" />
		<tag k="ssr:stedsnr" v="532369" />
		<tag k="waterway" v="stream" />
	</node>
	<node lat="63.5713428638274" lon="11.065001792478272" id="-31879">
		<tag k="name" v="Blekkåstjønna" />
		<tag k="natural" v="water" />
		<tag k="ssr:stedsnr" v="532370" />
	</node>
	<node lat="63.574444445668576" lon="11.401319440929425" id="-31896">
		<tag k="name" v="Kvitsteinbekken" />
		<tag k="ssr:stedsnr" v="534806" />
		<tag k="waterway" v="stream" />
	</node>
	<node lat="63.58572500426986" lon="11.371419444928465" id="-31897">
		<tag k="name" v="Hundtangen" />
		<tag k="natural" v="cape" />
		<tag k="ssr:stedsnr" v="534808" />
	</node>
	<node lat="63.61809999626154" lon="11.641641667957352" id="-31900">
		<tag k="name" v="Glunkvollbekken" />
		<tag k="ssr:stedsnr" v="558414" />
		<tag k="waterway" v="stream" />
	</node>
	<node lat="63.69655555769365" lon="11.451305552469165" id="-31910">
		<tag k="name" v="Tomtvasselva" />
		<tag k="ssr:stedsnr" v="558596" />
		<tag k="waterway" v="river" />
	</node>
	<node lat="63.66806388534436" lon="11.315338894448637" id="-31915">
		<tag k="name" v="Gåssjøen" />
		<tag k="natural" v="water" />
		<tag k="ssr:stedsnr" v="559535" />
		<tag k="water" v="lake" />
	</node>
	<node lat="63.60447500316705" lon="11.624458328675711" id="-31916">
		<tag k="name" v="Holmtjønna" />
		<tag k="natural" v="water" />
		<tag k="ssr:stedsnr" v="559408" />
	</node>
	<node lat="63.683319445649474" lon="11.31964722338415" id="-31946">
		<tag k="name" v="Langfyllbekken" />
		<tag k="ssr:stedsnr" v="693380" />
		<tag k="waterway" v="stream" />
	</node>
	<node lat="63.68815277873939" lon="11.343502783756291" id="-31947">
		<tag k="name" v="Svullubakkbekken" />
		<tag k="ssr:stedsnr" v="693383" />
		<tag k="waterway" v="stream" />
	</node>
	<node lat="63.683894447133774" lon="11.341297220222696" id="-31951">
		<tag k="name" v="Svullbekken" />
		<tag k="ssr:stedsnr" v="693393" />
		<tag k="waterway" v="stream" />
	</node>
	<node lat="63.70613889096522" lon="11.45014167059349" id="-31969">
		<tag k="name" v="Finnkallfossen" />
		<tag k="natural" v="waterfall" />
		<tag k="ssr:stedsnr" v="571403" />
	</node>
	<node lat="63.649991662712395" lon="10.936102774866294" id="-31977">
		<tag k="name" v="Sandbekken" />
		<tag k="ssr:stedsnr" v="592870" />
		<tag k="waterway" v="stream" />
	</node>
	<node lat="63.6489761144798" lon="11.112414886146247" id="-31978">
		<tag k="name" v="Nebbabekken" />
		<tag k="ssr:stedsnr" v="593062" />
		<tag k="waterway" v="stream" />
	</node>
	<node lat="63.590019702974935" lon="11.193835474455609" id="-31979">
		<tag k="name" v="Smørtjønna" />
		<tag k="natural" v="water" />
		<tag k="ssr:stedsnr" v="593066" />
	</node>
	<node lat="63.65334166715537" lon="11.260719454206503" id="-31986">
		<tag k="name" v="Vensetbekken" />
		<tag k="ssr:stedsnr" v="594408" />
		<tag k="waterway" v="stream" />
	</node>
	<node lat="63.657197226312825" lon="11.251325002335504" id="-31988">
		<tag k="name" v="Sundebekken" />
		<tag k="ssr:stedsnr" v="594412" />
		<tag k="waterway" v="stream" />
	</node>
	<node lat="63.687336113627325" lon="11.441627775702733" id="-32005">
		<tag k="name" v="Tågåbekken" />
		<tag k="ssr:stedsnr" v="619583" />
		<tag k="waterway" v="stream" />
	</node>
	<node lat="63.70271388959582" lon="11.156738886846474" id="-32021">
		<tag k="name" v="Hotterelva" />
		<tag k="ssr:stedsnr" v="628511" />
		<tag k="waterway" v="stream" />
	</node>
	<node lat="63.756858336866955" lon="11.41477500975806" id="-32038">
		<tag k="name" v="Kleivabekken" />
		<tag k="ssr:stedsnr" v="628709" />
		<tag k="waterway" v="stream" />
	</node>
	<node lat="63.68673055871903" lon="11.39049999471756" id="-32045">
		<tag k="name" v="Oterbekken" />
		<tag k="ssr:stedsnr" v="632344" />
		<tag k="waterway" v="stream" />
	</node>
	<node lat="63.604738885683446" lon="11.303955564933986" id="-32072">
		<tag k="name" v="Pissaren" />
		<tag k="ssr:stedsnr" v="655596" />
		<tag k="waterway" v="stream" />
	</node>
	<node lat="63.69786110900482" lon="11.365855562776483" id="-32078">
		<tag k="alt_name" v="Tvårråsjøen" />
		<tag k="name" v="Tvåråsjøen" />
		<tag k="natural" v="water" />
		<tag k="ssr:stedsnr" v="680622" />
	</node>
	<node lat="63.69792499896799" lon="11.34507777644849" id="-32079">
		<tag k="name" v="Koltjønna" />
		<tag k="natural" v="water" />
		<tag k="ssr:stedsnr" v="680625" />
	</node>
	<node lat="63.67011388948262" lon="10.944758329932986" id="-32088">
		<tag k="name" v="Bengtstjønna" />
		<tag k="natural" v="water" />
		<tag k="ssr:stedsnr" v="681008" />
	</node>
	<node lat="63.68066944819272" lon="11.411719438528555" id="-32104">
		<tag k="name" v="Fagertjønna" />
		<tag k="natural" v="water" />
		<tag k="ssr:stedsnr" v="696985" />
	</node>
	<node lat="63.63369999672441" lon="10.936988884601488" id="-32106">
		<tag k="name" v="Ingebriktsbekken" />
		<tag k="ssr:stedsnr" v="896898" />
		<tag k="waterway" v="stream" />
	</node>
	<node lat="63.63872500364558" lon="11.316313893548362" id="-32116">
		<tag k="name" v="Nystamnbekken" />
		<tag k="ssr:stedsnr" v="898477" />
		<tag k="waterway" v="stream" />
	</node>
	<node lat="63.68168889102299" lon="10.98421389743996" id="-32118">
		<tag k="name" v="Setertangen" />
		<tag k="natural" v="cape" />
		<tag k="ssr:stedsnr" v="898272" />
	</node>
	<node lat="63.623616664071214" lon="11.004227768648109" id="-32119">
		<tag k="name" v="Fonnåbukta" />
		<tag k="natural" v="bay" />
		<tag k="ssr:stedsnr" v="898279" />
	</node>
	<node lat="63.70199166439388" lon="10.973683337713712" id="-32120">
		<tag k="name" v="Tyssnebben" />
		<tag k="natural" v="cape" />
		<tag k="ssr:stedsnr" v="898348" />
	</node>
	<node lat="63.623366666130856" lon="11.226858333592125" id="-32121">
		<tag k="name" v="Vinbukta" />
		<tag k="natural" v="bay" />
		<tag k="ssr:stedsnr" v="898452" />
	</node>
	<node lat="63.6539833322256" lon="11.418441660598173" id="-32134">
		<tag k="name" v="Naustbekken" />
		<tag k="ssr:stedsnr" v="898790" />
		<tag k="waterway" v="stream" />
	</node>
	<node lat="63.57652780662575" lon="11.174983598964635" id="-32136">
		<tag k="name" v="Grønbukta" />
		<tag k="natural" v="bay" />
		<tag k="ssr:stedsnr" v="715105" />
	</node>
	<node lat="63.65317777735048" lon="11.284538897534938" id="-32146">
		<tag k="name" v="Åsgårdsbekken" />
		<tag k="ssr:stedsnr" v="716436" />
		<tag k="waterway" v="stream" />
	</node>
	<node lat="63.70161110892559" lon="10.960111118848918" id="-32152">
		<tag k="name" v="Høgsetesnebben" />
		<tag k="natural" v="cape" />
		<tag k="ssr:stedsnr" v="716380" />
	</node>
	<node lat="63.700133328796305" lon="10.969177784441468" id="-32153">
		<tag k="name" v="Finsvikhamna" />
		<tag k="natural" v="bay" />
		<tag k="ssr:stedsnr" v="716382" />
	</node>
	<node lat="63.69334722640031" lon="11.48344444895117" id="-32174">
		<tag k="alt_name" v="Storbrannbekken" />
		<tag k="name" v="Storbrannsbekken" />
		<tag k="ssr:stedsnr" v="741633" />
		<tag k="waterway" v="stream" />
	</node>
	<node lat="63.693027774513055" lon="11.0430500068882" id="-32185">
		<tag k="name" v="Byaelva" />
		<tag k="ssr:stedsnr" v="750517" />
		<tag k="waterway" v="stream" />
	</node>
	<node lat="63.66376944290831" lon="11.497463883754065" id="-32193">
		<tag k="name" v="Davebustadbekken" />
		<tag k="ssr:stedsnr" v="754452" />
		<tag k="waterway" v="stream" />
	</node>
	<node lat="63.6491499977303" lon="11.574636115808262" id="-32194">
		<tag k="name" v="Hestgrøbba" />
		<tag k="natural" v="water" />
		<tag k="ssr:stedsnr" v="754454" />
	</node>
	<node lat="63.60410858791972" lon="11.25174959247976" id="-32196">
		<tag k="name" v="Mølnåelva" />
		<tag k="ssr:stedsnr" v="775101" />
		<tag k="waterway" v="stream" />
	</node>
	<node lat="63.59763333082021" lon="11.643375004782829" id="-32200">
		<tag k="name" v="Glunka" />
		<tag k="ssr:stedsnr" v="776870" />
		<tag k="waterway" v="river" />
	</node>
	<node lat="63.62242500227319" lon="11.332811118987426" id="-32204">
		<tag k="name" v="Slettbekken" />
		<tag k="ssr:stedsnr" v="777514" />
		<tag k="waterway" v="stream" />
	</node>
	<node lat="63.641530554577024" lon="11.235011110646138" id="-32205">
		<tag k="name" v="Vikabekken" />
		<tag k="ssr:stedsnr" v="777523" />
		<tag k="waterway" v="stream" />
	</node>
	<node lat="63.64671389225952" lon="11.042811121354873" id="-32208">
		<tag k="name" v="Bantjønna" />
		<tag k="natural" v="water" />
		<tag k="ssr:stedsnr" v="802075" />
	</node>
	<node lat="63.696330552994034" lon="11.430722212377173" id="-32217">
		<tag k="name" v="Rognbakkbekken" />
		<tag k="ssr:stedsnr" v="802617" />
		<tag k="waterway" v="stream" />
	</node>
	<node lat="63.58737500034077" lon="11.372416663793103" id="-32218">
		<tag k="name" v="Grønningen" />
		<tag k="natural" v="water" />
		<tag k="ssr:stedsnr" v="802509" />
		<tag k="water" v="lake" />
	</node>
	<node lat="63.58483333348233" lon="11.325866676216156" id="-32220">
		<tag k="name" v="Litlgrønningstjønna" />
		<tag k="natural" v="water" />
		<tag k="ssr:stedsnr" v="802513" />
	</node>
	<node lat="63.56834444131841" lon="11.046680553807384" id="-32225">
		<tag k="name" v="Skordalstjønna" />
		<tag k="natural" v="water" />
		<tag k="ssr:stedsnr" v="802814" />
	</node>
	<node lat="63.73261388551265" lon="11.215163892271477" id="-32235">
		<tag k="name" v="Kvernhusbekken" />
		<tag k="ssr:stedsnr" v="811689" />
		<tag k="waterway" v="stream" />
	</node>
	<node lat="63.732936114577804" lon="11.439475005794167" id="-32246">
		<tag k="name" v="Libekken" />
		<tag k="ssr:stedsnr" v="818990" />
		<tag k="waterway" v="stream" />
	</node>
	<node lat="63.602905559382435" lon="11.225733342340293" id="-32258">
		<tag k="name" v="Haugaelva" />
		<tag k="ssr:stedsnr" v="923453" />
		<tag k="waterway" v="stream" />
	</node>
	<node lat="63.5966712090167" lon="11.142241454073694" id="-32277">
		<tag k="name" v="Bjørkstamnbekken" />
		<tag k="ssr:stedsnr" v="836029" />
		<tag k="waterway" v="stream" />
	</node>
	<node lat="63.63236944713911" lon="11.387961118822373" id="-32284">
		<tag k="name" v="Hegglibekken" />
		<tag k="ssr:stedsnr" v="924346" />
		<tag k="waterway" v="stream" />
	</node>
	<node lat="63.674636108536255" lon="10.969238885123893" id="-32287">
		<tag k="name" v="Kvitmåssåtangen" />
		<tag k="natural" v="cape" />
		<tag k="ssr:stedsnr" v="838386" />
	</node>
	<node lat="63.64512222462138" lon="11.399172218683212" id="-32293">
		<tag k="name" v="Staffabekken" />
		<tag k="ssr:stedsnr" v="838827" />
		<tag k="waterway" v="stream" />
	</node>
	<node lat="63.69391944822707" lon="10.994136101703798" id="-32313">
		<tag k="name" v="Hyttelva" />
		<tag k="ssr:stedsnr" v="863077" />
		<tag k="waterway" v="stream" />
	</node>
	<node lat="63.68441484421952" lon="10.95773193332329" id="-32318">
		<tag k="name" v="Klingertjønna" />
		<tag k="place" v="locality" />
		<tag k="ssr:stedsnr" v="863116" />
	</node>
	<node lat="63.641716668749666" lon="11.329450003633822" id="-32322">
		<tag k="name" v="Nystamnbekken" />
		<tag k="ssr:stedsnr" v="863522" />
		<tag k="waterway" v="stream" />
	</node>
	<node lat="63.58471110899082" lon="11.221669441003433" id="-32324">
		<tag k="name" v="Haukåstjønnin" />
		<tag k="natural" v="water" />
		<tag k="ssr:stedsnr" v="863449" />
	</node>
	<node lat="63.72408611552839" lon="11.346424997829153" id="-32336">
		<tag k="name" v="Leirbekken" />
		<tag k="ssr:stedsnr" v="932563" />
		<tag k="waterway" v="stream" />
	</node>
	<node lat="63.693738889709685" lon="11.213127782494865" id="-32340">
		<tag k="name" v="Hoemselva" />
		<tag k="ssr:stedsnr" v="933539" />
		<tag k="waterway" v="stream" />
	</node>
	<node lat="63.68265000417601" lon="11.28376388494601" id="-32347">
		<tag k="name" v="Demningstjønnin" />
		<tag k="natural" v="water" />
		<tag k="ssr:stedsnr" v="934454" />
	</node>
	<node lat="63.601980590322" lon="11.265942878093089" id="-32354">
		<tag k="name" v="Frigårdselva" />
		<tag k="ssr:stedsnr" v="897114" />
		<tag k="waterway" v="stream" />
	</node>
	<node lat="63.68839444779343" lon="10.950258336052228" id="-32357">
		<tag k="name" v="Laupabekken" />
		<tag k="ssr:stedsnr" v="898356" />
		<tag k="waterway" v="stream" />
	</node>
	<node lat="63.63573888940946" lon="11.34112777522427" id="-32362">
		<tag k="name" v="Rognåsbekken" />
		<tag k="ssr:stedsnr" v="898476" />
		<tag k="waterway" v="stream" />
	</node>
	<node lat="63.67294166429776" lon="10.92542221848779" id="-32375">
		<tag k="name" v="Grasdalstjønna" />
		<tag k="natural" v="water" />
		<tag k="ssr:stedsnr" v="923130" />
	</node>
	<node lat="63.58756389071231" lon="11.205599991885608" id="-32392">
		<tag k="name" v="Stamnåstjønna" />
		<tag k="natural" v="water" />
		<tag k="ssr:stedsnr" v="923880" />
	</node>
	<node lat="63.71943055140833" lon="11.284005548086853" id="-32408">
		<tag k="name" v="Koiabekken" />
		<tag k="ssr:stedsnr" v="933641" />
		<tag k="waterway" v="stream" />
	</node>
	<node lat="63.755991664892875" lon="11.026491673276208" id="-32409">
		<tag k="name" v="Stordammen" />
		<tag k="natural" v="water" />
		<tag k="ssr:stedsnr" v="935810" />
	</node>
	<node lat="63.73908333339517" lon="11.474155556544037" id="-32412">
		<tag k="name" v="Slættbekken" />
		<tag k="ssr:stedsnr" v="939988" />
		<tag k="waterway" v="stream" />
	</node>
	<node lat="63.65755555189185" lon="11.05381389092737" id="-32445">
		<tag k="name" v="Moatjønnin" />
		<tag k="natural" v="water" />
		<tag k="ssr:stedsnr" v="13061" />
	</node>
	<node lat="63.677083336030464" lon="11.295994445460792" id="-32453">
		<tag k="fixme" v="multiple name tags, choose one and add the other to alt_name" />
		<tag k="name" v="Øver Sleppingstjønna;Øvre Demningstjønna" />
		<tag k="natural" v="water" />
		<tag k="ssr:stedsnr" v="13543" />
	</node>
	<node lat="63.68052777397206" lon="11.319208334256796" id="-32454">
		<tag k="name" v="Langfylltjønnin" />
		<tag k="natural" v="water" />
		<tag k="ssr:stedsnr" v="13545" />
	</node>
	<node lat="63.63945555946008" lon="11.103252776225014" id="-32474">
=======
	<node id="-768907" lat="63.722986111" lon="11.2491416568">
		<tag k="name" v="Nossemsbekken" />
		<tag k="ssr:stedsnr" v="22618" />
		<tag k="waterway" v="stream" />
	</node>
	<node id="-767879" lat="63.6891666677" lon="11.5526749991">
		<tag k="name" v="Gjeldsåsbekken" />
		<tag k="ssr:stedsnr" v="269449" />
		<tag k="waterway" v="stream" />
	</node>
	<node id="-768902" lat="63.6921555568" lon="11.1580055611">
		<tag k="name" v="Leiraelva" />
		<tag k="ssr:stedsnr" v="22485" />
		<tag k="waterway" v="stream" />
	</node>
	<node id="-767877" lat="63.6742499957" lon="11.5533888907">
		<tag k="name" v="Volusjøelva" />
		<tag k="ssr:stedsnr" v="269427" />
		<tag k="waterway" v="river" />
	</node>
	<node id="-769410" lat="63.5766222247" lon="11.0722777775">
		<tag k="name" v="Møssingvatnet" />
		<tag k="natural" v="water" />
		<tag k="ssr:stedsnr" v="316878" />
		<tag k="water" v="lake" />
	</node>
	<node id="-769735" lat="63.5747750028" lon="11.1438305612">
		<tag k="name" v="Hallanbekken" />
		<tag k="ssr:stedsnr" v="532092" />
		<tag k="waterway" v="stream" />
	</node>
	<node id="-767872" lat="63.686663887" lon="11.4584333399">
		<tag k="name" v="Hærolafossen" />
		<tag k="natural" v="waterfall" />
		<tag k="ssr:stedsnr" v="268324" />
	</node>
	<node id="-769407" lat="63.6710694444" lon="11.4968416748">
		<tag k="name" v="Huldertjønna" />
		<tag k="natural" v="water" />
		<tag k="ssr:stedsnr" v="316593" />
	</node>
	<node id="-769915" lat="63.6873361136" lon="11.4416277757">
		<tag k="name" v="Tågåbekken" />
		<tag k="ssr:stedsnr" v="619583" />
		<tag k="waterway" v="stream" />
	</node>
	<node id="-768378" lat="63.6782549414" lon="11.1165437721">
		<tag k="name" v="Tuvbekken" />
		<tag k="ssr:stedsnr" v="532211" />
		<tag k="waterway" v="stream" />
	</node>
	<node id="-769913" lat="63.6746694449" lon="11.4767333309">
		<tag k="name" v="Raudhyllbekken" />
		<tag k="ssr:stedsnr" v="619569" />
		<tag k="waterway" v="stream" />
	</node>
	<node id="-769399" lat="63.6009722214" lon="11.673758331">
		<tag k="name" v="Storsteinbekken" />
		<tag k="ssr:stedsnr" v="316477" />
		<tag k="waterway" v="stream" />
	</node>
	<node id="-768374" lat="63.6016250003" lon="10.9456722314">
		<tag k="name" v="Hoplaelva" />
		<tag k="ssr:stedsnr" v="531807" />
		<tag k="waterway" v="river" />
	</node>
	<node id="-769909" lat="63.5920666708" lon="11.2930916607">
		<tag k="name" v="Frigardstjønna" />
		<tag k="natural" v="water" />
		<tag k="ssr:stedsnr" v="619489" />
	</node>
	<node id="-768117" lat="63.6554555567" lon="10.9459166678">
		<tag k="name" v="Selbubekken" />
		<tag k="ssr:stedsnr" v="316052" />
		<tag k="waterway" v="stream" />
	</node>
	<node id="-769904" lat="63.6112749981" lon="11.4968388924">
		<tag k="name" v="Hovskallåa" />
		<tag k="ssr:stedsnr" v="619463" />
		<tag k="waterway" v="stream" />
	</node>
	<node id="-768232" lat="63.5912694445" lon="11.2087638894">
		<tag k="name" v="Ringfosselva" />
		<tag k="ssr:stedsnr" v="505779" />
		<tag k="waterway" v="river" />
	</node>
	<node id="-767853" lat="63.7492055544" lon="11.3171833388">
		<tag k="name" v="Leirabekken" />
		<tag k="ssr:stedsnr" v="265681" />
		<tag k="waterway" v="stream" />
	</node>
	<node id="-769386" lat="63.7109277745" lon="11.5608583396">
		<tag k="name" v="Burtjønnbekken" />
		<tag k="ssr:stedsnr" v="211947" />
		<tag k="waterway" v="stream" />
	</node>
	<node id="-767849" lat="63.7178222204" lon="11.4001888821">
		<tag k="name" v="Svartbergmyrbekken" />
		<tag k="ssr:stedsnr" v="265663" />
		<tag k="waterway" v="stream" />
	</node>
	<node id="-769383" lat="63.6454805532" lon="11.329188897">
		<tag k="name" v="Volusjøbekken" />
		<tag k="ssr:stedsnr" v="208363" />
		<tag k="waterway" v="stream" />
	</node>
	<node id="-769894" lat="63.5882250011" lon="11.3801972191">
		<tag k="name" v="Sautangen" />
		<tag k="natural" v="cape" />
		<tag k="ssr:stedsnr" v="594791" />
	</node>
	<node id="-769893" lat="63.6228055584" lon="11.3886583391">
		<tag k="name" v="Kulåsbekken" />
		<tag k="ssr:stedsnr" v="594773" />
		<tag k="waterway" v="stream" />
	</node>
	<node id="-769380" lat="63.6648916697" lon="11.3057805653">
		<tag k="name" v="Okstjønna" />
		<tag k="natural" v="water" />
		<tag k="ssr:stedsnr" v="207340" />
	</node>
	<node id="-768355" lat="63.6290111082" lon="11.4084749947">
		<tag k="name" v="Klavtjønna" />
		<tag k="natural" v="water" />
		<tag k="ssr:stedsnr" v="681381" />
	</node>
	<node id="-769890" lat="63.6774138873" lon="11.2478222208">
		<tag k="name" v="Stamnbekken" />
		<tag k="ssr:stedsnr" v="594579" />
		<tag k="waterway" v="stream" />
	</node>
	<node id="-770401" lat="63.6407277752" lon="11.3134888788">
		<tag k="name" v="Volusjøbekken" />
		<tag k="ssr:stedsnr" v="959478" />
		<tag k="waterway" v="stream" />
	</node>
	<node id="-769376" lat="63.689155556" lon="11.4091027831">
		<tag k="name" v="Tjærakleivbekken" />
		<tag k="ssr:stedsnr" v="207317" />
		<tag k="waterway" v="stream" />
	</node>
	<node id="-768119" lat="63.6776916651" lon="10.9639583271">
		<tag k="name" v="Grønsjøen" />
		<tag k="natural" v="water" />
		<tag k="ssr:stedsnr" v="316106" />
	</node>
	<node id="-767837" lat="63.6885888902" lon="11.213241657">
		<tag k="name" v="Fostadbekken" />
		<tag k="ssr:stedsnr" v="265522" />
		<tag k="waterway" v="stream" />
	</node>
	<node id="-767836" lat="63.6834388924" lon="11.2937277736">
		<tag k="name" v="Døraholtjønna" />
		<tag k="natural" v="water" />
		<tag k="ssr:stedsnr" v="109540" />
	</node>
	<node id="-768859" lat="63.680527774" lon="11.3192083343">
		<tag k="name" v="Langfylltjønnin" />
		<tag k="natural" v="water" />
		<tag k="ssr:stedsnr" v="13545" />
	</node>
	<node id="-769882" lat="63.6362666645" lon="11.2542222229">
		<tag k="name" v="Størringbekken" />
		<tag k="ssr:stedsnr" v="594487" />
		<tag k="waterway" v="stream" />
	</node>
	<node id="-769881" lat="63.6246388863" lon="11.3478638923">
		<tag k="name" v="Kvennhusbekken" />
		<tag k="ssr:stedsnr" v="594479" />
		<tag k="waterway" v="stream" />
	</node>
	<node id="-769368" lat="63.7168083365" lon="11.4147694459">
		<tag k="name" v="Mobekken" />
		<tag k="ssr:stedsnr" v="204710" />
		<tag k="waterway" v="stream" />
	</node>
	<node id="-767972" lat="63.579255559" lon="11.3473500014">
		<tag k="name" v="Nord-Røkkebekken" />
		<tag k="ssr:stedsnr" v="229773" />
		<tag k="waterway" v="stream" />
	</node>
	<node id="-769877" lat="63.6533416672" lon="11.2607194542">
		<tag k="name" v="Vensetbekken" />
		<tag k="ssr:stedsnr" v="594408" />
		<tag k="waterway" v="stream" />
	</node>
	<node id="-769118" lat="63.6461444476" lon="11.0284888968">
		<tag k="name" v="Korsbekken" />
		<tag k="ssr:stedsnr" v="134045" />
		<tag k="waterway" v="stream" />
	</node>
	<node id="-768851" lat="63.6575555519" lon="11.0538138909">
		<tag k="name" v="Moatjønnin" />
		<tag k="natural" v="water" />
		<tag k="ssr:stedsnr" v="13061" />
	</node>
	<node id="-768866" lat="63.5988999999" lon="11.3725888906">
		<tag k="alt_name" v="Svendgardstjønna" />
		<tag k="name" v="Svengardstjønna" />
		<tag k="natural" v="water" />
		<tag k="ssr:stedsnr" v="13464" />
	</node>
	<node id="-767825" lat="63.5948861082" lon="11.207786106">
		<tag k="name" v="Hundbekken" />
		<tag k="ssr:stedsnr" v="256831" />
		<tag k="waterway" v="stream" />
	</node>
	<node id="-768335" lat="63.6543694461" lon="11.0644333275">
		<tag k="name" v="Hibergtjønna" />
		<tag k="natural" v="water" />
		<tag k="ssr:stedsnr" v="498075" />
	</node>
	<node id="-768334" lat="63.6547527812" lon="11.17301945">
		<tag k="name" v="Lynvatnet" />
		<tag k="natural" v="water" />
		<tag k="ssr:stedsnr" v="498070" />
		<tag k="water" v="lake" />
	</node>
	<node id="-769357" lat="63.6969833291" lon="11.2217916706">
		<tag k="name" v="Stavlobekken" />
		<tag k="ssr:stedsnr" v="204575" />
		<tag k="waterway" v="stream" />
	</node>
	<node id="-768332" lat="63.671752779" lon="10.9370472244">
		<tag k="name" v="Laupavatna" />
		<tag k="natural" v="water" />
		<tag k="ssr:stedsnr" v="498118" />
	</node>
	<node id="-768331" lat="63.6749888893" lon="10.9867999988">
		<tag k="alt_name" v="Vestremssvarttjønna" />
		<tag k="name" v="Svarttjønna" />
		<tag k="natural" v="water" />
		<tag k="ssr:stedsnr" v="498116" />
	</node>
	<node id="-769354" lat="63.6904916701" lon="11.264908324">
		<tag k="name" v="Kvernbekken" />
		<tag k="ssr:stedsnr" v="204545" />
		<tag k="waterway" v="stream" />
	</node>
	<node id="-769353" lat="63.6961111139" lon="11.2565861078">
		<tag k="name" v="Høyslobekken" />
		<tag k="ssr:stedsnr" v="204542" />
		<tag k="waterway" v="stream" />
	</node>
	<node id="-768839" lat="63.7065861113" lon="11.5346250057">
		<tag k="name" v="Burtjønna" />
		<tag k="natural" v="water" />
		<tag k="ssr:stedsnr" v="936423" />
	</node>
	<node id="-770373" lat="63.624294443" lon="11.0605388873">
		<tag k="name" v="Hammertangen" />
		<tag k="natural" v="cape" />
		<tag k="ssr:stedsnr" v="957166" />
	</node>
	<node id="-768324" lat="63.697924999" lon="11.3450777764">
		<tag k="name" v="Koltjønna" />
		<tag k="natural" v="water" />
		<tag k="ssr:stedsnr" v="680625" />
	</node>
	<node id="-769859" lat="63.6489761145" lon="11.1124148861">
		<tag k="name" v="Nebbabekken" />
		<tag k="ssr:stedsnr" v="593062" />
		<tag k="waterway" v="stream" />
	</node>
	<node id="-768834" lat="63.7559916649" lon="11.0264916733">
		<tag k="name" v="Stordammen" />
		<tag k="natural" v="water" />
		<tag k="ssr:stedsnr" v="935810" />
	</node>
	<node id="-768833" lat="63.6937388897" lon="11.2131277825">
		<tag k="name" v="Hoemselva" />
		<tag k="ssr:stedsnr" v="933539" />
		<tag k="waterway" v="stream" />
	</node>
	<node id="-769854" lat="63.6499916627" lon="10.9361027749">
		<tag k="name" v="Sandbekken" />
		<tag k="ssr:stedsnr" v="592870" />
		<tag k="waterway" v="stream" />
	</node>
	<node id="-770358" lat="63.6803999967" lon="11.3192361103">
		<tag k="name" v="Nedre Langfylltjønna" />
		<tag k="natural" v="water" />
		<tag k="ssr:stedsnr" v="875368" />
	</node>
	<node id="-770356" lat="63.7017777787" lon="11.4116277828">
		<tag k="name" v="Ertsåsbekken" />
		<tag k="ssr:stedsnr" v="875346" />
		<tag k="waterway" v="stream" />
	</node>
	<node id="-769502" lat="63.6641916643" lon="11.0009555494">
		<tag k="name" v="Aunbekken" />
		<tag k="ssr:stedsnr" v="351265" />
		<tag k="waterway" v="stream" />
	</node>
	<node id="-769329" lat="63.6407638877" lon="11.0108805488">
		<tag k="name" v="Åltjønnin" />
		<tag k="natural" v="water" />
		<tag k="ssr:stedsnr" v="195981" />
	</node>
	<node id="-767792" lat="63.7132888858" lon="11.5686027746">
		<tag k="name" v="Burtjønna" />
		<tag k="natural" v="water" />
		<tag k="ssr:stedsnr" v="255585" />
	</node>
	<node id="-769839" lat="63.6433833341" lon="11.5620527796">
		<tag k="name" v="Koltjønna" />
		<tag k="natural" v="water" />
		<tag k="ssr:stedsnr" v="572442" />
	</node>
	<node id="-769838" lat="63.6493666707" lon="11.5558722172">
		<tag k="name" v="Langtjønna" />
		<tag k="natural" v="water" />
		<tag k="ssr:stedsnr" v="572435" />
	</node>
	<node id="-769836" lat="63.7038361132" lon="11.3581027861">
		<tag k="name" v="Langåselva" />
		<tag k="ssr:stedsnr" v="572385" />
		<tag k="waterway" v="river" />
	</node>
	<node id="-769831" lat="63.706138891" lon="11.4501416706">
		<tag k="name" v="Finnkallfossen" />
		<tag k="natural" v="waterfall" />
		<tag k="ssr:stedsnr" v="571403" />
	</node>
	<node id="-768293" lat="63.6986861117" lon="11.0170138872">
		<tag k="name" v="Geilbekken" />
		<tag k="ssr:stedsnr" v="447945" />
		<tag k="waterway" v="stream" />
	</node>
	<node id="-768816" lat="63.6883944478" lon="10.9502583361">
		<tag k="name" v="Laupabekken" />
		<tag k="ssr:stedsnr" v="898356" />
		<tag k="waterway" v="stream" />
	</node>
	<node id="-767772" lat="63.6627416634" lon="10.9693305592">
		<tag k="name" v="Høgåstjønna" />
		<tag k="natural" v="water" />
		<tag k="ssr:stedsnr" v="74012" />
	</node>
	<node id="-769306" lat="63.6622583313" lon="11.5438749923">
		<tag k="alt_name" v="Volusjøen;Vulusjøen" />
		<tag k="name" v="Frolvulusjøen" />
		<tag k="natural" v="water" />
		<tag k="ssr:stedsnr" v="195569" />
	</node>
	<node id="-769817" lat="63.7190666628" lon="11.3523611109">
		<tag k="name" v="Litlelva" />
		<tag k="ssr:stedsnr" v="568593" />
		<tag k="waterway" v="stream" />
	</node>
	<node id="-768280" lat="63.6697194433" lon="11.461711119">
		<tag k="name" v="Korselva" />
		<tag k="natural" v="strait" />
		<tag k="ssr:stedsnr" v="514999" />
	</node>
	<node id="-769303" lat="63.6471694418" lon="11.4470444387">
		<tag k="name" v="Heggesbekken" />
		<tag k="ssr:stedsnr" v="195560" />
		<tag k="waterway" v="stream" />
	</node>
	<node id="-767764" lat="63.6472583318" lon="10.9474138955">
		<tag k="name" v="Skalltjønna" />
		<tag k="natural" v="water" />
		<tag k="ssr:stedsnr" v="50170" />
	</node>
	<node id="-768787" lat="63.6725805522" lon="11.017744442">
		<tag k="name" v="Liabekken" />
		<tag k="ssr:stedsnr" v="837253" />
		<tag k="waterway" v="stream" />
	</node>
	<node id="-768786" lat="63.5965250017" lon="11.3391055473">
		<tag k="name" v="Litl-Grønningsbekken" />
		<tag k="ssr:stedsnr" v="836773" />
		<tag k="waterway" v="stream" />
	</node>
	<node id="-768273" lat="63.6969388869" lon="11.5768638809">
		<tag k="name" v="Buåsbekken" />
		<tag k="ssr:stedsnr" v="511417" />
		<tag k="waterway" v="stream" />
	</node>
	<node id="-768593" lat="63.6336999967" lon="10.9369888846">
		<tag k="name" v="Ingebriktsbekken" />
		<tag k="ssr:stedsnr" v="896898" />
		<tag k="waterway" v="stream" />
	</node>
	<node id="-770319" lat="63.6417166687" lon="11.3294500036">
		<tag k="name" v="Nystamnbekken" />
		<tag k="ssr:stedsnr" v="863522" />
		<tag k="waterway" v="stream" />
	</node>
	<node id="-768781" lat="63.6497525584" lon="11.0623987215">
		<tag k="name" v="Hibergsbekken" />
		<tag k="ssr:stedsnr" v="836166" />
		<tag k="waterway" v="stream" />
	</node>
	<node id="-770315" lat="63.584711109" lon="11.221669441">
		<tag k="name" v="Haukåstjønnin" />
		<tag k="natural" v="water" />
		<tag k="ssr:stedsnr" v="863449" />
	</node>
	<node id="-769290" lat="63.59224167" lon="11.3901611153">
		<tag k="name" v="Kongshaugbekken" />
		<tag k="ssr:stedsnr" v="195455" />
		<tag k="waterway" v="stream" />
	</node>
	<node id="-767753" lat="63.6196416708" lon="11.3167222206">
		<tag k="name" v="Skjevelåsnesset" />
		<tag k="natural" v="cape" />
		<tag k="ssr:stedsnr" v="230546" />
	</node>
	<node id="-769288" lat="63.6140972184" lon="11.6013722297">
		<tag k="name" v="Reinsjøen" />
		<tag k="natural" v="water" />
		<tag k="ssr:stedsnr" v="195434" />
		<tag k="water" v="lake" />
	</node>
	<node id="-769799" lat="63.6680638853" lon="11.3153388944">
		<tag k="name" v="Gåssjøen" />
		<tag k="natural" v="water" />
		<tag k="ssr:stedsnr" v="559535" />
		<tag k="water" v="lake" />
	</node>
	<node id="-768262" lat="63.7151250028" lon="11.4616250032">
		<tag k="name" v="Reistaddammen" />
		<tag k="natural" v="water" />
		<tag k="ssr:stedsnr" v="511314" />
	</node>
	<node id="-769797" lat="63.6826500042" lon="11.2837638849">
		<tag k="fixme" v="multiple name tags, choose one and add the other to alt_name" />
		<tag k="name" v="Nedre Sleppingstjønna;Nedre Demningstjønna" />
		<tag k="natural" v="water" />
		<tag k="ssr:stedsnr" v="559530" />
	</node>
	<node id="-769796" lat="63.6515555584" lon="11.461544435">
		<tag k="name" v="Svartbekken" />
		<tag k="ssr:stedsnr" v="559528" />
		<tag k="waterway" v="stream" />
	</node>
	<node id="-769238" lat="63.6721222209" lon="11.4754694458">
		<tag k="name" v="Lomtjønna" />
		<tag k="natural" v="water" />
		<tag k="ssr:stedsnr" v="150992" />
	</node>
	<node id="-770305" lat="63.6939194482" lon="10.9941361017">
		<tag k="name" v="Hyttelva" />
		<tag k="ssr:stedsnr" v="863077" />
		<tag k="waterway" v="stream" />
	</node>
	<node id="-767744" lat="63.5975251766" lon="10.9935037286">
		<tag k="name" v="Taura" />
		<tag k="ssr:stedsnr" v="229485" />
		<tag k="waterway" v="stream" />
	</node>
	<node id="-770176" lat="63.5848333335" lon="11.3258666762">
		<tag k="name" v="Litlgrønningstjønna" />
		<tag k="natural" v="water" />
		<tag k="ssr:stedsnr" v="802513" />
	</node>
	<node id="-768812" lat="63.681688891" lon="10.9842138974">
		<tag k="name" v="Setertangen" />
		<tag k="natural" v="cape" />
		<tag k="ssr:stedsnr" v="898272" />
	</node>
	<node id="-769274" lat="63.6867916673" lon="10.9628499964">
		<tag k="name" v="Småtjønnin" />
		<tag k="natural" v="water" />
		<tag k="ssr:stedsnr" v="195134" />
	</node>
	<node id="-769785" lat="63.6602416627" lon="10.952405559">
		<tag k="name" v="Skalitjønna" />
		<tag k="natural" v="water" />
		<tag k="ssr:stedsnr" v="559059" />
	</node>
	<node id="-768505" lat="63.7001333288" lon="10.9691777844">
		<tag k="name" v="Finsvikhamna" />
		<tag k="natural" v="bay" />
		<tag k="ssr:stedsnr" v="716382" />
	</node>
	<node id="-769271" lat="63.6754722207" lon="11.0024027813">
		<tag k="name" v="Halvvågåtjønna" />
		<tag k="natural" v="water" />
		<tag k="ssr:stedsnr" v="195121" />
	</node>
	<node id="-768757" lat="63.7194305514" lon="11.2840055481">
		<tag k="name" v="Koiabekken" />
		<tag k="ssr:stedsnr" v="933641" />
		<tag k="waterway" v="stream" />
	</node>
	<node id="-769268" lat="63.6473138853" lon="10.9471361062">
		<tag k="name" v="Skardtjønna" />
		<tag k="natural" v="water" />
		<tag k="ssr:stedsnr" v="195030" />
	</node>
	<node id="-770174" lat="63.5873750003" lon="11.3724166638">
		<tag k="name" v="Grønningen" />
		<tag k="natural" v="water" />
		<tag k="ssr:stedsnr" v="802509" />
		<tag k="water" v="lake" />
	</node>
	<node id="-769263" lat="63.6202583369" lon="11.3569833373">
		<tag k="name" v="Kvennbekken" />
		<tag k="ssr:stedsnr" v="170591" />
		<tag k="waterway" v="stream" />
	</node>
	<node id="-769773" lat="63.6965555577" lon="11.4513055525">
		<tag k="name" v="Tomtvasselva" />
		<tag k="ssr:stedsnr" v="558596" />
		<tag k="waterway" v="river" />
	</node>
	<node id="-768999" lat="63.6371249963" lon="11.3296194405">
		<tag k="fixme" v="multiple name tags, choose one and add the other to alt_name" />
		<tag k="name" v="Skjelbekken;Sollibekken" />
		<tag k="ssr:stedsnr" v="74376" />
		<tag k="waterway" v="stream" />
	</node>
	<node id="-768747" lat="63.7240861155" lon="11.3464249978">
		<tag k="name" v="Leirbekken" />
		<tag k="ssr:stedsnr" v="932563" />
		<tag k="waterway" v="stream" />
	</node>
	<node id="-768233" lat="63.6952722245" lon="11.1751500016">
		<tag k="name" v="Mønsterhaugbekken" />
		<tag k="ssr:stedsnr" v="507486" />
		<tag k="waterway" v="stream" />
	</node>
	<node id="-769256" lat="63.685058332" lon="11.2789444347">
		<tag k="name" v="Kvennbekken" />
		<tag k="ssr:stedsnr" v="169606" />
		<tag k="waterway" v="stream" />
	</node>
	<node id="-769767" lat="63.6106388868" lon="11.3487138878">
		<tag k="name" v="Grønningselva" />
		<tag k="ssr:stedsnr" v="558437" />
		<tag k="waterway" v="river" />
	</node>
	<node id="-769637" lat="63.6665000668" lon="11.0413089791">
		<tag k="name" v="Djupbekken" />
		<tag k="ssr:stedsnr" v="411219" />
		<tag k="waterway" v="stream" />
	</node>
	<node id="-768229" lat="63.6814527779" lon="11.3580694502">
		<tag k="name" v="Lundholbekken" />
		<tag k="ssr:stedsnr" v="389364" />
		<tag k="waterway" v="stream" />
	</node>
	<node id="-769252" lat="63.6550527756" lon="11.0164305588">
		<tag k="name" v="Migbekken" />
		<tag k="ssr:stedsnr" v="169242" />
		<tag k="waterway" v="stream" />
	</node>
	<node id="-767715" lat="63.6730138897" lon="10.9769583307">
		<tag k="name" v="Storholmen" />
		<tag k="place" v="islet" />
		<tag k="ssr:stedsnr" v="13122" />
	</node>
	<node id="-767714" lat="63.677083336" lon="11.2959944455">
		<tag k="fixme" v="multiple name tags, choose one and add the other to alt_name" />
		<tag k="name" v="Øver Sleppingstjønna;Øvre Demningstjønna" />
		<tag k="natural" v="water" />
		<tag k="ssr:stedsnr" v="13543" />
	</node>
	<node id="-769403" lat="63.6989694413" lon="11.312419446">
		<tag k="fixme" v="multiple name tags, choose one and add the other to alt_name" />
		<tag k="name" v="Øster Masteråstjønna;Matbergtjønna" />
		<tag k="natural" v="water" />
		<tag k="ssr:stedsnr" v="316616" />
	</node>
	<node id="-768735" lat="63.7102166667" lon="11.5116500092">
		<tag k="name" v="Åselva" />
		<tag k="ssr:stedsnr" v="802634" />
		<tag k="waterway" v="river" />
	</node>
	<node id="-767986" lat="63.6954166631" lon="11.1673694448">
		<tag k="name" v="Hovselva" />
		<tag k="ssr:stedsnr" v="447461" />
		<tag k="waterway" v="stream" />
	</node>
	<node id="-769757" lat="63.6246222243" lon="11.2162916708">
		<tag k="name" v="Lauvtangen" />
		<tag k="natural" v="cape" />
		<tag k="ssr:stedsnr" v="534485" />
	</node>
	<node id="-770268" lat="63.6538555562" lon="11.2906472208">
		<tag k="name" v="Hallanbekken" />
		<tag k="ssr:stedsnr" v="838450" />
		<tag k="waterway" v="stream" />
	</node>
	<node id="-767866" lat="63.6784027807" lon="10.9577416572">
		<tag k="name" v="Svarttjønna" />
		<tag k="natural" v="water" />
		<tag k="ssr:stedsnr" v="134131" />
	</node>
	<node id="-770266" lat="63.6801250009" lon="11.2141888944">
		<tag k="name" v="Myrelva" />
		<tag k="ssr:stedsnr" v="838422" />
		<tag k="waterway" v="stream" />
	</node>
	<node id="-770265" lat="63.6746361085" lon="10.9692388851">
		<tag k="name" v="Kvitmåssåtangen" />
		<tag k="natural" v="cape" />
		<tag k="ssr:stedsnr" v="838386" />
	</node>
	<node id="-769750" lat="63.589452776" lon="11.5089166629">
		<tag k="name" v="Hårskallåa" />
		<tag k="ssr:stedsnr" v="533894" />
		<tag k="waterway" v="river" />
	</node>
	<node id="-770261" lat="63.683786114" lon="11.2446861213">
		<tag k="name" v="Hynnesbekken" />
		<tag k="ssr:stedsnr" v="837552" />
		<tag k="waterway" v="stream" />
	</node>
	<node id="-770260" lat="63.6608666707" lon="11.0378333372">
		<tag k="name" v="Djupbekken" />
		<tag k="ssr:stedsnr" v="837301" />
		<tag k="waterway" v="stream" />
	</node>
	<node id="-770258" lat="63.6717222198" lon="11.0376333399">
		<tag k="name" v="Flåttågrøbba" />
		<tag k="natural" v="bay" />
		<tag k="ssr:stedsnr" v="837267" />
	</node>
	<node id="-769571" lat="63.58458333" lon="11.5034055472">
		<tag k="name" v="Storbekken" />
		<tag k="ssr:stedsnr" v="377430" />
		<tag k="waterway" v="stream" />
	</node>
	<node id="-770379" lat="63.5768018641" lon="10.8955807698">
		<tag k="name" v="Nestjønna" />
		<tag k="natural" v="water" />
		<tag k="ssr:stedsnr" v="957504" />
	</node>
	<node id="-768998" lat="63.6345888915" lon="11.3508138906">
		<tag k="name" v="Trosetbekken" />
		<tag k="ssr:stedsnr" v="74372" />
		<tag k="waterway" v="stream" />
	</node>
	<node id="-770253" lat="63.596671209" lon="11.1422414541">
		<tag k="name" v="Bjørkstamnbekken" />
		<tag k="ssr:stedsnr" v="836029" />
		<tag k="waterway" v="stream" />
	</node>
	<node id="-768333" lat="63.6602277772" lon="10.9442027772">
		<tag k="name" v="Lomtjønna" />
		<tag k="natural" v="water" />
		<tag k="ssr:stedsnr" v="498066" />
	</node>
	<node id="-768344" lat="63.6385138861" lon="11.1253944405">
		<tag k="name" v="Svarttjønna" />
		<tag k="natural" v="water" />
		<tag k="ssr:stedsnr" v="681000" />
	</node>
	<node id="-769737" lat="63.5713428638" lon="11.0650017925">
		<tag k="name" v="Blekkåstjønna" />
		<tag k="natural" v="water" />
		<tag k="ssr:stedsnr" v="532370" />
	</node>
	<node id="-769736" lat="63.5710310389" lon="11.0442463635">
		<tag k="name" v="Rotbubekken" />
		<tag k="ssr:stedsnr" v="532369" />
		<tag k="waterway" v="stream" />
	</node>
	<node id="-768199" lat="63.635261108" lon="10.9765527688">
		<tag k="name" v="Igltjønna" />
		<tag k="natural" v="water" />
		<tag k="ssr:stedsnr" v="498983" />
	</node>
	<node id="-769221" lat="63.7161416701" lon="11.4423472182">
		<tag k="name" v="Løssibekken" />
		<tag k="ssr:stedsnr" v="146277" />
		<tag k="waterway" v="stream" />
	</node>
	<node id="-768060" lat="63.6421250026" lon="11.3053666731">
		<tag k="name" v="Svartbekken" />
		<tag k="ssr:stedsnr" v="291513" />
		<tag k="waterway" v="stream" />
	</node>
	<node id="-768715" lat="63.6323694471" lon="11.3879611188">
		<tag k="name" v="Hegglibekken" />
		<tag k="ssr:stedsnr" v="924346" />
		<tag k="waterway" v="stream" />
	</node>
	<node id="-769215" lat="63.766877782" lon="11.4183916608">
		<tag k="name" v="Salthåmmårsbekken" />
		<tag k="ssr:stedsnr" v="143719" />
		<tag k="waterway" v="stream" />
	</node>
	<node id="-770238" lat="63.6811861101" lon="11.323969446">
		<tag k="name" v="Øvre Langfylltjønna" />
		<tag k="natural" v="water" />
		<tag k="ssr:stedsnr" v="814378" />
	</node>
	<node id="-769397" lat="63.4855222195" lon="11.2327638879">
		<tag k="name" v="Forra" />
		<tag k="ssr:stedsnr" v="316198" />
		<tag k="waterway" v="river" />
	</node>
	<node id="-768458" lat="63.6981027734" lon="11.3981750053">
		<tag k="name" v="Ertsåsmyrbekken" />
		<tag k="ssr:stedsnr" v="571330" />
		<tag k="waterway" v="stream" />
	</node>
	<node id="-770276" lat="63.6451222246" lon="11.3991722187">
		<tag k="name" v="Staffabekken" />
		<tag k="ssr:stedsnr" v="838827" />
		<tag k="waterway" v="stream" />
	</node>
	<node id="-768185" lat="63.7094805597" lon="11.3315999982">
		<tag k="name" v="Langåsdammen" />
		<tag k="natural" v="water" />
		<tag k="ssr:stedsnr" v="498623" />
		<tag k="water" v="lake" />
	</node>
	<node id="-769719" lat="63.5714722224" lon="11.1569750001">
		<tag k="name" v="Hovatnet" />
		<tag k="natural" v="water" />
		<tag k="ssr:stedsnr" v="438836" />
		<tag k="water" v="lake" />
	</node>
	<node id="-768181" lat="63.6979111119" lon="11.2945249996">
		<tag k="name" v="Masteråstjønna" />
		<tag k="natural" v="water" />
		<tag k="ssr:stedsnr" v="498612" />
	</node>
	<node id="-770228" lat="63.7326138855" lon="11.2151638923">
		<tag k="name" v="Kvernhusbekken" />
		<tag k="ssr:stedsnr" v="811689" />
		<tag k="waterway" v="stream" />
	</node>
	<node id="-768176" lat="63.6493999997" lon="11.432627786">
		<tag k="name" v="Tomtvatnet" />
		<tag k="natural" v="water" />
		<tag k="ssr:stedsnr" v="498580" />
		<tag k="water" v="lake" />
	</node>
	<node id="-770395" lat="63.6921388931" lon="10.9686833334">
		<tag k="name" v="Finsvikbekken" />
		<tag k="ssr:stedsnr" v="959326" />
		<tag k="waterway" v="stream" />
	</node>
	<node id="-768732" lat="63.696330553" lon="11.4307222124">
		<tag k="name" v="Rognbakkbekken" />
		<tag k="ssr:stedsnr" v="802617" />
		<tag k="waterway" v="stream" />
	</node>
	<node id="-768683" lat="63.6029055594" lon="11.2257333423">
		<tag k="name" v="Haugaelva" />
		<tag k="ssr:stedsnr" v="923453" />
		<tag k="waterway" v="stream" />
	</node>
	<node id="-770247" lat="63.5745665858" lon="11.1276481442">
		<tag k="name" v="Slettvolltjønna" />
		<tag k="natural" v="water" />
		<tag k="ssr:stedsnr" v="836081" />
	</node>
	<node id="-768168" lat="63.6774666653" lon="11.3698555504">
		<tag k="alt_name" v="Dalelva" />
		<tag k="name" v="Dalaelva" />
		<tag k="ssr:stedsnr" v="498263" />
		<tag k="waterway" v="river" />
	</node>
	<node id="-769703" lat="63.5817250011" lon="11.2441472167">
		<tag k="name" v="Rundstavtjønnin" />
		<tag k="natural" v="water" />
		<tag k="ssr:stedsnr" v="438418" />
	</node>
	<node id="-768059" lat="63.6301277763" lon="11.3167805482">
		<tag k="name" v="Trosetbekken" />
		<tag k="ssr:stedsnr" v="291510" />
		<tag k="waterway" v="stream" />
	</node>
	<node id="-768113" lat="63.6226222235" lon="11.4454222178">
		<tag k="name" v="Todalstjønna" />
		<tag k="natural" v="water" />
		<tag k="ssr:stedsnr" v="473794" />
	</node>
	<node id="-768676" lat="63.6729416643" lon="10.9254222185">
		<tag k="name" v="Grasdalstjønna" />
		<tag k="natural" v="water" />
		<tag k="ssr:stedsnr" v="923130" />
	</node>
	<node id="-768161" lat="63.6510416692" lon="11.012213896">
		<tag k="name" v="Migtjønna" />
		<tag k="natural" v="water" />
		<tag k="ssr:stedsnr" v="498041" />
	</node>
	<node id="-768880" lat="63.6394555595" lon="11.1032527762">
>>>>>>> e1d4bc35ff8a6074a6f2e91616a996b547c36f15
		<tag k="name" v="Skardtjønna" />
		<tag k="natural" v="water" />
		<tag k="ssr:stedsnr" v="13977" />
	</node>
<<<<<<< HEAD
	<node lat="63.69602222384302" lon="10.991877770359533" id="-32485">
		<tag k="name" v="Hyttelva" />
		<tag k="ssr:stedsnr" v="22551" />
		<tag k="waterway" v="stream" />
	</node>
	<node lat="63.72298611104996" lon="11.2491416568174" id="-32497">
		<tag k="name" v="Nossemsbekken" />
		<tag k="ssr:stedsnr" v="22618" />
		<tag k="waterway" v="stream" />
	</node>
	<node lat="63.69758333656832" lon="10.990483339409213" id="-32503">
		<tag k="name" v="Stampfossen" />
		<tag k="natural" v="waterfall" />
		<tag k="ssr:stedsnr" v="22966" />
	</node>
	<node lat="63.590621618537725" lon="11.133854929658142" id="-32523">
		<tag k="name" v="Matåsbekken" />
		<tag k="ssr:stedsnr" v="47040" />
		<tag k="waterway" v="stream" />
	</node>
	<node lat="63.61061111095664" lon="11.086619442254285" id="-32524">
		<tag k="name" v="Fossingelva" />
		<tag k="ssr:stedsnr" v="47133" />
		<tag k="waterway" v="river" />
	</node>
	<node lat="63.58919166675316" lon="11.30142221764535" id="-32528">
		<tag k="name" v="Bokktjønna" />
		<tag k="natural" v="water" />
		<tag k="ssr:stedsnr" v="47766" />
	</node>
	<node lat="63.57288089456729" lon="11.148999350402484" id="-32531">
		<tag k="name" v="Trettåstangen" />
		<tag k="natural" v="cape" />
		<tag k="ssr:stedsnr" v="229103" />
	</node>
	<node lat="63.67751111044016" lon="10.944755548059826" id="-32536">
		<tag k="name" v="Laupabekken" />
		<tag k="ssr:stedsnr" v="49406" />
		<tag k="waterway" v="stream" />
	</node>
	<node lat="63.64432221846624" lon="11.278408336961405" id="-32539">
		<tag k="name" v="Søringbekken" />
		<tag k="ssr:stedsnr" v="49461" />
		<tag k="waterway" v="stream" />
	</node>
	<node lat="63.64725833177643" lon="10.947413895543063" id="-32549">
		<tag k="name" v="Skalltjønna" />
		<tag k="natural" v="water" />
		<tag k="ssr:stedsnr" v="50170" />
	</node>
	<node lat="63.60333055765009" lon="11.546327768228979" id="-32555">
		<tag k="name" v="Heståa" />
		<tag k="ssr:stedsnr" v="73429" />
		<tag k="waterway" v="river" />
	</node>
	<node lat="63.69713333248911" lon="11.010305553692081" id="-32557">
		<tag k="name" v="Brattbekken" />
		<tag k="ssr:stedsnr" v="73098" />
		<tag k="waterway" v="stream" />
	</node>
	<node lat="63.637124996250435" lon="11.3296194404801" id="-32570">
		<tag k="fixme" v="multiple name tags, choose one and add the other to alt_name" />
		<tag k="name" v="Sollibekken;Skjelbekken" />
		<tag k="ssr:stedsnr" v="74376" />
		<tag k="waterway" v="stream" />
	</node>
	<node lat="63.66334444223771" lon="11.349394441511938" id="-32573">
		<tag k="alt_name" v="Holbekkdammen" />
		<tag k="name" v="Hølbekkdammen" />
		<tag k="natural" v="water" />
		<tag k="ssr:stedsnr" v="74523" />
		<tag k="water" v="lake" />
	</node>
	<node lat="63.65078333125669" lon="11.277908341156577" id="-32574">
		<tag k="name" v="Vensettjønna" />
		<tag k="natural" v="water" />
		<tag k="ssr:stedsnr" v="74528" />
	</node>
	<node lat="63.65140277851332" lon="11.305655564550305" id="-32575">
		<tag k="name" v="Svartbekken" />
		<tag k="ssr:stedsnr" v="74529" />
		<tag k="waterway" v="stream" />
	</node>
	<node lat="63.685088885335524" lon="11.330280545638377" id="-32582">
		<tag k="alt_name" v="Halvardåsbekken" />
		<tag k="name" v="Hallvardåsbekken" />
		<tag k="ssr:stedsnr" v="74550" />
		<tag k="waterway" v="stream" />
	</node>
	<node lat="63.61984166503775" lon="11.131263885619815" id="-32586">
		<tag k="name" v="Hoklingen" />
		<tag k="natural" v="water" />
		<tag k="ssr:stedsnr" v="74943" />
		<tag k="water" v="lake" />
	</node>
	<node lat="63.6664638874241" lon="11.516805548578724" id="-32617">
		<tag k="name" v="Davebustadtjønna" />
		<tag k="natural" v="water" />
		<tag k="ssr:stedsnr" v="87399" />
	</node>
	<node lat="63.60645277460966" lon="10.912597229992251" id="-32622">
		<tag k="name" v="Tørøya" />
		<tag k="natural" v="cape" />
		<tag k="ssr:stedsnr" v="107859" />
	</node>
	<node lat="63.65189732881109" lon="11.107495703698635" id="-32626">
		<tag k="name" v="Einlottbekken" />
		<tag k="ssr:stedsnr" v="108053" />
		<tag k="waterway" v="stream" />
	</node>
	<node lat="63.65995277554703" lon="10.99378610869116" id="-32642">
		<tag k="name" v="Sveabekken" />
		<tag k="ssr:stedsnr" v="109249" />
		<tag k="waterway" v="stream" />
	</node>
	<node lat="63.68343889240113" lon="11.293727773597514" id="-32650">
		<tag k="name" v="Døraholtjønna" />
=======
	<node id="-770245" lat="63.7329361146" lon="11.4394750058">
		<tag k="name" v="Libekken" />
		<tag k="ssr:stedsnr" v="818990" />
		<tag k="waterway" v="stream" />
	</node>
	<node id="-769650" lat="63.6685638851" lon="11.0214388902">
		<tag k="name" v="Furunesbukta" />
		<tag k="natural" v="bay" />
		<tag k="ssr:stedsnr" v="412234" />
	</node>
	<node id="-768282" lat="63.6284249958" lon="11.5622027762">
		<tag k="name" v="Heståsbekken" />
		<tag k="ssr:stedsnr" v="438377" />
		<tag k="waterway" v="stream" />
	</node>
	<node id="-768154" lat="63.6639388897" lon="11.0201833388">
		<tag k="alt_name" v="Byvatnet" />
		<tag k="name" v="Byavatnet" />
		<tag k="natural" v="water" />
		<tag k="ssr:stedsnr" v="498002" />
		<tag k="water" v="lake" />
	</node>
	<node id="-769099" lat="63.6763138848" lon="11.2268305536">
		<tag k="name" v="Brennesbekken" />
		<tag k="ssr:stedsnr" v="109379" />
		<tag k="waterway" v="stream" />
	</node>
	<node id="-768345" lat="63.6491916681" lon="11.0847749924">
		<tag k="name" v="Nesvatnet" />
		<tag k="natural" v="water" />
		<tag k="ssr:stedsnr" v="681042" />
		<tag k="water" v="lake" />
	</node>
	<node id="-767940" lat="63.6816444417" lon="10.9831222321">
		<tag k="name" v="Setersundet" />
		<tag k="natural" v="strait" />
		<tag k="ssr:stedsnr" v="291290" />
	</node>
	<node id="-769685" lat="63.7485416639" lon="11.3056277679">
		<tag k="name" v="Levangselva" />
		<tag k="ssr:stedsnr" v="437639" />
		<tag k="waterway" v="river" />
	</node>
	<node id="-768658" lat="63.6415305546" lon="11.2350111106">
		<tag k="name" v="Vikabekken" />
		<tag k="ssr:stedsnr" v="777523" />
		<tag k="waterway" v="stream" />
	</node>
	<node id="-768657" lat="63.6224250023" lon="11.332811119">
		<tag k="name" v="Slettbekken" />
		<tag k="ssr:stedsnr" v="777514" />
		<tag k="waterway" v="stream" />
	</node>
	<node id="-769860" lat="63.590019703" lon="11.1938354745">
		<tag k="name" v="Smørtjønna" />
		<tag k="natural" v="water" />
		<tag k="ssr:stedsnr" v="593066" />
	</node>
	<node id="-768653" lat="63.5976333308" lon="11.6433750048">
		<tag k="name" v="Glunka" />
		<tag k="ssr:stedsnr" v="776870" />
		<tag k="waterway" v="river" />
	</node>
	<node id="-768650" lat="63.5843638219" lon="11.2208573479">
		<tag k="name" v="Stor-Haukåstjønna" />
		<tag k="ssr:stedsnr" v="775067" />
		<tag k="waterway" v="stream" />
	</node>
	<node id="-769673" lat="63.6251000043" lon="11.1883750059">
		<tag k="name" v="Movatnet" />
		<tag k="natural" v="water" />
		<tag k="ssr:stedsnr" v="438940" />
		<tag k="water" v="lake" />
	</node>
	<node id="-769160" lat="63.5684111079" lon="11.0572388879">
		<tag k="name" v="Alstadtjønna" />
		<tag k="natural" v="water" />
		<tag k="ssr:stedsnr" v="134793" />
	</node>
	<node id="-768764" lat="63.6826500042" lon="11.2837638849">
		<tag k="name" v="Demningstjønnin" />
		<tag k="natural" v="water" />
		<tag k="ssr:stedsnr" v="934454" />
	</node>
	<node id="-768646" lat="63.6930277745" lon="11.0430500069">
		<tag k="name" v="Byaelva" />
		<tag k="ssr:stedsnr" v="750517" />
		<tag k="waterway" v="stream" />
	</node>
	<node id="-767937" lat="63.6780472212" lon="10.9214250067">
		<tag k="name" v="Kaggspunsbekken" />
		<tag k="ssr:stedsnr" v="291284" />
		<tag k="waterway" v="stream" />
	</node>
	<node id="-768132" lat="63.5854833331" lon="11.1009194482">
		<tag k="name" v="Kortåstjønna" />
		<tag k="natural" v="water" />
		<tag k="ssr:stedsnr" v="316870" />
	</node>
	<node id="-770178" lat="63.5683444413" lon="11.0466805538">
		<tag k="name" v="Skordalstjønna" />
		<tag k="natural" v="water" />
		<tag k="ssr:stedsnr" v="802814" />
	</node>
	<node id="-768641" lat="63.6138055558" lon="11.0041305481">
		<tag k="name" v="Hammervatnet" />
		<tag k="natural" v="water" />
		<tag k="ssr:stedsnr" v="741965" />
		<tag k="water" v="lake" />
	</node>
	<node id="-768640" lat="63.6155194467" lon="10.997900009">
		<tag k="name" v="Ytterøya" />
		<tag k="place" v="island" />
		<tag k="ssr:stedsnr" v="741964" />
	</node>
	<node id="-769984" lat="63.6867305587" lon="11.3904999947">
		<tag k="name" v="Oterbekken" />
		<tag k="ssr:stedsnr" v="632344" />
		<tag k="waterway" v="stream" />
	</node>
	<node id="-769662" lat="63.6030722178" lon="11.2873777865">
		<tag k="name" v="Litltjønna" />
		<tag k="natural" v="water" />
		<tag k="ssr:stedsnr" v="413570" />
	</node>
	<node id="-769661" lat="63.6267611146" lon="11.250758343">
		<tag k="name" v="Burantangen" />
		<tag k="natural" v="cape" />
		<tag k="ssr:stedsnr" v="413539" />
	</node>
	<node id="-770171" lat="63.6004277772" lon="11.6227527697">
		<tag k="name" v="Litltjønna" />
>>>>>>> e1d4bc35ff8a6074a6f2e91616a996b547c36f15
		<tag k="natural" v="water" />
		<tag k="ssr:stedsnr" v="802487" />
	</node>
<<<<<<< HEAD
	<node lat="63.674463892978494" lon="11.242574990478385" id="-32651">
		<tag k="name" v="Trodalsbekken" />
		<tag k="ssr:stedsnr" v="109550" />
		<tag k="waterway" v="stream" />
	</node>
	<node lat="63.646144447613864" lon="11.028488896764424" id="-32654">
		<tag k="name" v="Korsbekken" />
		<tag k="ssr:stedsnr" v="134045" />
		<tag k="waterway" v="stream" />
	</node>
	<node lat="63.67840278065413" lon="10.957741657157436" id="-32655">
		<tag k="name" v="Svarttjønna" />
		<tag k="natural" v="water" />
		<tag k="ssr:stedsnr" v="134131" />
	</node>
	<node lat="63.69024166254477" lon="11.016574990990565" id="-32657">
		<tag k="name" v="Geilbekken" />
		<tag k="ssr:stedsnr" v="134092" />
		<tag k="waterway" v="stream" />
	</node>
	<node lat="63.59964166341862" lon="11.604849999946023" id="-32665">
		<tag k="name" v="Svartbekken" />
		<tag k="ssr:stedsnr" v="134470" />
		<tag k="waterway" v="stream" />
	</node>
	<node lat="63.601888887640825" lon="11.29006666869076" id="-32667">
		<tag k="name" v="Svarttjønna" />
		<tag k="natural" v="water" />
		<tag k="ssr:stedsnr" v="134475" />
	</node>
	<node lat="63.591469443292105" lon="11.609769440172055" id="-32668">
		<tag k="name" v="Lomtjønna" />
		<tag k="natural" v="water" />
		<tag k="ssr:stedsnr" v="134478" />
	</node>
	<node lat="63.58781944482004" lon="11.397369441951975" id="-32669">
		<tag k="alt_name" v="Sjulbekken" />
		<tag k="name" v="Skjulbekken" />
		<tag k="ssr:stedsnr" v="134490" />
		<tag k="waterway" v="stream" />
	</node>
	<node lat="63.64728333428606" lon="11.273949990757428" id="-32671">
		<tag k="name" v="Dalsvetjønnin" />
		<tag k="natural" v="water" />
		<tag k="ssr:stedsnr" v="134554" />
	</node>
	<node lat="63.57963889322356" lon="11.063652778118254" id="-32692">
		<tag k="name" v="Rotbutjønna" />
=======
	<node id="-768228" lat="63.6930305571" lon="11.3859583306">
		<tag k="name" v="Neverdalsbekken" />
		<tag k="ssr:stedsnr" v="389352" />
		<tag k="waterway" v="stream" />
	</node>
	<node id="-768961" lat="63.6443222185" lon="11.278408337">
		<tag k="name" v="Søringbekken" />
		<tag k="ssr:stedsnr" v="49461" />
		<tag k="waterway" v="stream" />
	</node>
	<node id="-769653" lat="63.6600861073" lon="11.2615944461">
		<tag k="name" v="Bjønndalsbekken" />
		<tag k="ssr:stedsnr" v="412558" />
		<tag k="waterway" v="stream" />
	</node>
	<node id="-769257" lat="63.5920861136" lon="11.6095722223">
		<tag k="name" v="Lomtjønna" />
		<tag k="natural" v="water" />
		<tag k="ssr:stedsnr" v="169857" />
	</node>
	<node id="-770323" lat="63.6810527765" lon="11.5150555456">
		<tag k="name" v="Snastjønna" />
		<tag k="natural" v="water" />
		<tag k="ssr:stedsnr" v="863575" />
	</node>
	<node id="-769136" lat="63.6472833343" lon="11.2739499908">
		<tag k="name" v="Dalsvetjønnin" />
		<tag k="natural" v="water" />
		<tag k="ssr:stedsnr" v="134554" />
	</node>
	<node id="-769379" lat="63.6678972247" lon="11.300841668">
		<tag k="name" v="Soontjønna" />
		<tag k="natural" v="water" />
		<tag k="ssr:stedsnr" v="207323" />
	</node>
	<node id="-768013" lat="63.6748083349" lon="11.3118277689">
		<tag k="name" v="Lundsbustadtjønna" />
>>>>>>> e1d4bc35ff8a6074a6f2e91616a996b547c36f15
		<tag k="natural" v="water" />
		<tag k="ssr:stedsnr" v="134844" />
	</node>
<<<<<<< HEAD
	<node lat="63.56841110786292" lon="11.057238887884193" id="-32699">
		<tag k="name" v="Alstadtjønna" />
		<tag k="natural" v="water" />
		<tag k="ssr:stedsnr" v="134793" />
	</node>
	<node lat="63.76687778195039" lon="11.418391660826332" id="-32725">
		<tag k="name" v="Salthåmmårsbekken" />
		<tag k="ssr:stedsnr" v="143719" />
		<tag k="waterway" v="stream" />
	</node>
	<node lat="63.716141670149156" lon="11.442347218153328" id="-32736">
		<tag k="name" v="Løssibekken" />
		<tag k="ssr:stedsnr" v="146277" />
		<tag k="waterway" v="stream" />
	</node>
	<node lat="63.64336111298331" lon="11.359727783880608" id="-32741">
		<tag k="name" v="Skillebekken" />
		<tag k="ssr:stedsnr" v="146321" />
		<tag k="waterway" v="stream" />
	</node>
	<node lat="63.71919999944265" lon="11.451058333242797" id="-32748">
		<tag k="name" v="Hansfossen" />
		<tag k="natural" v="waterfall" />
		<tag k="ssr:stedsnr" v="147336" />
	</node>
	<node lat="63.672122220856146" lon="11.47546944583704" id="-32755">
		<tag k="name" v="Lomtjønna" />
		<tag k="natural" v="water" />
		<tag k="ssr:stedsnr" v="150992" />
	</node>
	<node lat="63.65505277555691" lon="11.016430558779431" id="-32777">
		<tag k="name" v="Migbekken" />
		<tag k="ssr:stedsnr" v="169242" />
		<tag k="waterway" v="stream" />
	</node>
	<node lat="63.592086113627865" lon="11.609572222346305" id="-32780">
		<tag k="name" v="Lomtjønna" />
		<tag k="natural" v="water" />
		<tag k="ssr:stedsnr" v="169857" />
	</node>
	<node lat="63.620258336929375" lon="11.356983337289313" id="-32787">
		<tag k="name" v="Kvennbekken" />
		<tag k="ssr:stedsnr" v="170591" />
		<tag k="waterway" v="stream" />
	</node>
	<node lat="63.64716944176018" lon="11.447044438733029" id="-32794">
		<tag k="name" v="Heggesbekken" />
		<tag k="ssr:stedsnr" v="195560" />
		<tag k="waterway" v="stream" />
	</node>
	<node lat="63.662333487720744" lon="11.543841240674924" id="-32797">
		<tag k="alt_name" v="Volusjøen;Frolvulusjøen" />
		<tag k="name" v="Vulusjøen" />
		<tag k="natural" v="water" />
		<tag k="ssr:stedsnr" v="195569" />
	</node>
	<node lat="63.64731388533929" lon="10.947136106220674" id="-32798">
		<tag k="name" v="Skardtjønna" />
		<tag k="natural" v="water" />
		<tag k="ssr:stedsnr" v="195030" />
	</node>
	<node lat="63.67547222073434" lon="11.002402781335746" id="-32811">
		<tag k="name" v="Halvvågåtjønna" />
		<tag k="natural" v="water" />
		<tag k="ssr:stedsnr" v="195121" />
	</node>
	<node lat="63.68679166729888" lon="10.962849996376226" id="-32814">
		<tag k="name" v="Småtjønnin" />
		<tag k="natural" v="water" />
		<tag k="ssr:stedsnr" v="195134" />
	</node>
	<node lat="63.62827222502913" lon="11.257191672402838" id="-32822">
		<tag k="name" v="Burelva" />
		<tag k="old_name" v="Buranelva" />
		<tag k="ssr:stedsnr" v="195408" />
		<tag k="waterway" v="stream" />
	</node>
	<node lat="63.592241669951996" lon="11.390161115328421" id="-32826">
		<tag k="name" v="Kongshaugbekken" />
		<tag k="ssr:stedsnr" v="195455" />
		<tag k="waterway" v="stream" />
	</node>
	<node lat="63.592980552267704" lon="11.103730553356304" id="-32842">
		<tag k="name" v="Haugatjønna" />
		<tag k="natural" v="water" />
		<tag k="ssr:stedsnr" v="195861" />
	</node>
	<node lat="63.64076388770931" lon="11.010880548766357" id="-32856">
		<tag k="name" v="Åltjønnin" />
		<tag k="natural" v="water" />
		<tag k="ssr:stedsnr" v="195981" />
	</node>
	<node lat="63.69698332905623" lon="11.22179167060875" id="-32873">
		<tag k="name" v="Stavlobekken" />
		<tag k="ssr:stedsnr" v="204575" />
		<tag k="waterway" v="stream" />
	</node>
	<node lat="63.71680833648356" lon="11.414769445856015" id="-32878">
		<tag k="name" v="Mobekken" />
		<tag k="ssr:stedsnr" v="204710" />
		<tag k="waterway" v="stream" />
	</node>
	<node lat="63.64548055317562" lon="11.329188896955277" id="-32884">
		<tag k="name" v="Volusjøbekken" />
		<tag k="ssr:stedsnr" v="208363" />
		<tag k="waterway" v="stream" />
	</node>
	<node lat="63.689155555993004" lon="11.409102783087162" id="-32886">
		<tag k="name" v="Tjærakleivbekken" />
		<tag k="ssr:stedsnr" v="207317" />
		<tag k="waterway" v="stream" />
	</node>
	<node lat="63.66789722467987" lon="11.30084166801699" id="-32889">
		<tag k="name" v="Soontjønna" />
		<tag k="natural" v="water" />
		<tag k="ssr:stedsnr" v="207323" />
	</node>
	<node lat="63.71092777447094" lon="11.560858339634354" id="-32894">
		<tag k="name" v="Burtjønnbekken" />
		<tag k="ssr:stedsnr" v="211947" />
		<tag k="waterway" v="stream" />
	</node>
	<node lat="63.57902763177603" lon="11.173663312923068" id="-32910">
		<tag k="name" v="Mosslinbukta" />
		<tag k="natural" v="bay" />
		<tag k="ssr:stedsnr" v="290067" />
	</node>
	<node lat="63.65506943988827" lon="11.101505564762595" id="-32912">
		<tag k="name" v="Holmen" />
		<tag k="place" v="islet" />
		<tag k="ssr:stedsnr" v="290168" />
	</node>
	<node lat="63.64212500255203" lon="11.305366673122519" id="-32918">
		<tag k="name" v="Svartbekken" />
		<tag k="ssr:stedsnr" v="291513" />
		<tag k="waterway" v="stream" />
	</node>
	<node lat="63.600972221426225" lon="11.673758331026283" id="-32936">
		<tag k="name" v="Storsteinbekken" />
		<tag k="ssr:stedsnr" v="316477" />
		<tag k="waterway" v="stream" />
	</node>
	<node lat="63.698969441307995" lon="11.312419445991521" id="-32939">
		<tag k="fixme" v="multiple name tags, choose one and add the other to alt_name" />
		<tag k="name" v="Øster Masteråstjønna;Matbergtjønna" />
		<tag k="natural" v="water" />
		<tag k="ssr:stedsnr" v="316616" />
	</node>
	<node lat="63.67136521287544" lon="11.497418561966638" id="-32943">
		<tag k="alt_name" v="Holdertjønna" />
		<tag k="loc_name" v="Høldervatnet;Høldertjønna" />
		<tag k="name" v="Holdervatnet" />
		<tag k="natural" v="water" />
		<tag k="old_name" v="Huldertjørna;Huldertjønna" />
		<tag k="ssr:stedsnr" v="316593" />
	</node>
	<node lat="63.58548333312634" lon="11.100919448225879" id="-32947">
		<tag k="name" v="Kortåstjønna" />
		<tag k="natural" v="water" />
		<tag k="ssr:stedsnr" v="316870" />
	</node>
	<node lat="63.57662222474691" lon="11.072277777529239" id="-32949">
		<tag k="name" v="Møssingvatnet" />
		<tag k="natural" v="water" />
		<tag k="ssr:stedsnr" v="316878" />
		<tag k="water" v="lake" />
	</node>
	<node lat="63.702991667734125" lon="11.317980555934597" id="-32983">
		<tag k="name" v="Brannåsbekken" />
		<tag k="ssr:stedsnr" v="329331" />
		<tag k="waterway" v="stream" />
	</node>
	<node lat="63.739319446088295" lon="11.466547214841944" id="-32990">
		<tag k="name" v="Kløvibekken" />
		<tag k="ssr:stedsnr" v="332977" />
		<tag k="waterway" v="stream" />
	</node>
	<node lat="63.67003055168216" lon="11.376838898292233" id="-32991">
		<tag k="name" v="Skjøtingsdalsbekken" />
		<tag k="ssr:stedsnr" v="332987" />
		<tag k="waterway" v="stream" />
	</node>
	<node lat="63.6682777803981" lon="11.471488894521512" id="-32993">
		<tag k="loc_name" v="Hølderbekken" />
		<tag k="name" v="Holderbekken" />
		<tag k="ssr:stedsnr" v="332991" />
		<tag k="waterway" v="stream" />
	</node>
	<node lat="63.6462722186855" lon="10.945622223679045" id="-32998">
		<tag k="name" v="Skallbekken" />
		<tag k="ssr:stedsnr" v="349843" />
		<tag k="waterway" v="stream" />
	</node>
	<node lat="63.65059722159654" lon="10.973530555539346" id="-33000">
		<tag k="name" v="Laberget" />
		<tag k="natural" v="cape" />
		<tag k="ssr:stedsnr" v="349851" />
	</node>
	<node lat="63.675056200553016" lon="11.051856693546469" id="-33003">
		<tag k="name" v="Skåråstangen" />
		<tag k="natural" v="cape" />
		<tag k="ssr:stedsnr" v="350191" />
	</node>
	<node lat="63.58338529998873" lon="11.078341732012507" id="-33006">
		<tag k="name" v="Lomtjønna" />
		<tag k="natural" v="water" />
		<tag k="ssr:stedsnr" v="350355" />
	</node>
	<node lat="63.64140278063666" lon="11.123036114918612" id="-33024">
		<tag k="name" v="Karbutjønna" />
		<tag k="natural" v="water" />
		<tag k="ssr:stedsnr" v="352396" />
	</node>
	<node lat="63.61936111240588" lon="11.253000002755552" id="-33028">
		<tag k="name" v="Bjønntangen" />
		<tag k="natural" v="cape" />
		<tag k="ssr:stedsnr" v="352537" />
	</node>
	<node lat="63.617124998489075" lon="11.253441660942732" id="-33029">
		<tag k="name" v="Kastberget" />
		<tag k="natural" v="cape" />
		<tag k="ssr:stedsnr" v="352539" />
	</node>
	<node lat="63.60044999790372" lon="11.201986106098927" id="-33043">
		<tag k="name" v="Haugaelva" />
		<tag k="ssr:stedsnr" v="376904" />
		<tag k="waterway" v="river" />
	</node>
	<node lat="63.66750000414926" lon="11.024983338007623" id="-33046">
		<tag k="name" v="Furunes" />
		<tag k="natural" v="cape" />
		<tag k="ssr:stedsnr" v="377001" />
	</node>
	<node lat="63.601569446107156" lon="11.350405562910321" id="-33067">
		<tag k="name" v="Litlgrønningsbekken" />
		<tag k="ssr:stedsnr" v="377408" />
		<tag k="waterway" v="stream" />
	</node>
	<node lat="63.58458333000974" lon="11.503405547249287" id="-33074">
		<tag k="name" v="Storbekken" />
		<tag k="ssr:stedsnr" v="377430" />
		<tag k="waterway" v="stream" />
	</node>
	<node lat="63.57107499936763" lon="11.047197215003258" id="-33087">
		<tag k="name" v="Blanka" />
		<tag k="natural" v="water" />
		<tag k="ssr:stedsnr" v="377835" />
	</node>
	<node lat="63.62058333217807" lon="11.022813881143279" id="-33101">
		<tag k="alt_name" v="Hammerøya" />
		<tag k="name" v="Innerøya" />
		<tag k="place" v="island" />
		<tag k="ssr:stedsnr" v="377954" />
	</node>
	<node lat="63.68145277789282" lon="11.358069450247372" id="-33123">
		<tag k="name" v="Lundholbekken" />
		<tag k="ssr:stedsnr" v="389364" />
		<tag k="waterway" v="stream" />
	</node>
	<node lat="63.57419099686852" lon="11.224527854343787" id="-33136">
		<tag k="name" v="Tronsbekken" />
		<tag k="ssr:stedsnr" v="411069" />
		<tag k="waterway" v="stream" />
	</node>
	<node lat="63.6665000667556" lon="11.041308979141323" id="-33140">
		<tag k="name" v="Djupbekken" />
		<tag k="ssr:stedsnr" v="411219" />
		<tag k="waterway" v="stream" />
	</node>
	<node lat="63.5766190629057" lon="10.991165464737358" id="-33143">
		<tag k="name" v="Vulu" />
		<tag k="ssr:stedsnr" v="411467" />
		<tag k="waterway" v="stream" />
	</node>
	<node lat="63.66856388506186" lon="11.021438890191707" id="-33151">
		<tag k="name" v="Furunesbukta" />
		<tag k="natural" v="bay" />
		<tag k="ssr:stedsnr" v="412234" />
	</node>
	<node lat="63.66008610725377" lon="11.261594446088516" id="-33152">
		<tag k="name" v="Bjønndalsbekken" />
		<tag k="ssr:stedsnr" v="412558" />
		<tag k="waterway" v="stream" />
	</node>
	<node lat="63.658713887525" lon="11.037972232075479" id="-33154">
		<tag k="name" v="Korsbekken" />
		<tag k="ssr:stedsnr" v="412272" />
		<tag k="waterway" v="stream" />
	</node>
	<node lat="63.60307221782806" lon="11.28737778652508" id="-33157">
		<tag k="name" v="Litltjønna" />
		<tag k="natural" v="water" />
		<tag k="ssr:stedsnr" v="413570" />
	</node>
	<node lat="63.5899472183106" lon="11.372480562584945" id="-33163">
		<tag k="name" v="Furuholmen" />
		<tag k="place" v="islet" />
		<tag k="ssr:stedsnr" v="413823" />
	</node>
	<node lat="63.74854166393426" lon="11.3056277678548" id="-33177">
		<tag k="name" v="Levangselva" />
		<tag k="ssr:stedsnr" v="437639" />
		<tag k="waterway" v="river" />
	</node>
	<node lat="63.589691669271346" lon="11.330638883169632" id="-33182">
		<tag k="alt_name" v="Litlgrønningen" />
		<tag k="name" v="Litl-Grønningsvatnet" />
		<tag k="natural" v="water" />
		<tag k="ssr:stedsnr" v="438422" />
	</node>
	<node lat="63.651749998840884" lon="11.339297217629985" id="-33185">
		<tag k="alt_name" v="Volusjøen;Vulusjøen" />
		<tag k="name" v="Skognvulusjøen" />
		<tag k="natural" v="water" />
		<tag k="ssr:stedsnr" v="438521" />
=======
	<node id="-769133" lat="63.5878194448" lon="11.397369442">
		<tag k="alt_name" v="Sjulbekken" />
		<tag k="name" v="Skjulbekken" />
		<tag k="ssr:stedsnr" v="134490" />
		<tag k="waterway" v="stream" />
	</node>
	<node id="-769132" lat="63.5914694433" lon="11.6097694402">
		<tag k="name" v="Lomtjønna" />
		<tag k="natural" v="water" />
		<tag k="ssr:stedsnr" v="134478" />
	</node>
	<node id="-769810" lat="63.6441555514" lon="11.1835972306">
		<tag k="name" v="Mobekken" />
		<tag k="ssr:stedsnr" v="655026" />
		<tag k="waterway" v="stream" />
	</node>
	<node id="-768106" lat="63.6758611141" lon="10.9663194528">
		<tag k="name" v="Matbergvika" />
		<tag k="natural" v="bay" />
		<tag k="ssr:stedsnr" v="473387" />
	</node>
	<node id="-769129" lat="63.5996416634" lon="11.6048499999">
		<tag k="name" v="Svartbekken" />
		<tag k="ssr:stedsnr" v="134470" />
		<tag k="waterway" v="stream" />
	</node>
	<node id="-769131" lat="63.6018888876" lon="11.2900666687">
		<tag k="name" v="Svarttjønna" />
		<tag k="natural" v="water" />
		<tag k="ssr:stedsnr" v="134475" />
	</node>
	<node id="-769639" lat="63.5766190629" lon="10.9911654647">
		<tag k="name" v="Vulu" />
		<tag k="ssr:stedsnr" v="411467" />
		<tag k="waterway" v="stream" />
	</node>
	<node id="-770150" lat="63.6467138923" lon="11.0428111214">
		<tag k="name" v="Bantjønna" />
		<tag k="natural" v="water" />
		<tag k="ssr:stedsnr" v="802075" />
	</node>
	<node id="-769165" lat="63.5796388932" lon="11.0636527781">
		<tag k="name" v="Rotbutjønna" />
		<tag k="natural" v="water" />
		<tag k="ssr:stedsnr" v="134844" />
	</node>
	<node id="-768266" lat="63.6587138875" lon="11.0379722321">
		<tag k="name" v="Korsbekken" />
		<tag k="ssr:stedsnr" v="412272" />
		<tag k="waterway" v="stream" />
	</node>
	<node id="-768614" lat="63.6539833322" lon="11.4184416606">
		<tag k="name" v="Naustbekken" />
		<tag k="ssr:stedsnr" v="898790" />
		<tag k="waterway" v="stream" />
	</node>
	<node id="-769122" lat="63.6902416625" lon="11.016574991">
		<tag k="name" v="Geilbekken" />
		<tag k="ssr:stedsnr" v="134092" />
		<tag k="waterway" v="stream" />
	</node>
	<node id="-769632" lat="63.5682694013" lon="11.1235538776">
		<tag k="name" v="Håvassbekken" />
		<tag k="ssr:stedsnr" v="411116" />
		<tag k="waterway" v="stream" />
	</node>
	<node id="-770143" lat="63.6626527795" lon="10.9415999925">
		<tag k="name" v="Setertjønna" />
		<tag k="natural" v="water" />
		<tag k="ssr:stedsnr" v="802012" />
	</node>
	<node id="-768606" lat="63.6387250036" lon="11.3163138935">
		<tag k="name" v="Nystamnbekken" />
		<tag k="ssr:stedsnr" v="898477" />
		<tag k="waterway" v="stream" />
	</node>
	<node id="-768605" lat="63.6357388894" lon="11.3411277752">
		<tag k="name" v="Rognåsbekken" />
		<tag k="ssr:stedsnr" v="898476" />
		<tag k="waterway" v="stream" />
	</node>
	<node id="-768604" lat="63.6233666661" lon="11.2268583336">
		<tag k="name" v="Vinbukta" />
		<tag k="natural" v="bay" />
		<tag k="ssr:stedsnr" v="898452" />
	</node>
	<node id="-768603" lat="63.7019916644" lon="10.9736833377">
		<tag k="name" v="Tyssnebben" />
		<tag k="natural" v="cape" />
		<tag k="ssr:stedsnr" v="898348" />
	</node>
	<node id="-768271" lat="63.6494944451" lon="11.5980833365">
		<tag k="name" v="Kammervatnet" />
		<tag k="natural" v="water" />
		<tag k="ssr:stedsnr" v="511402" />
		<tag k="water" v="lake" />
	</node>
	<node id="-768088" lat="63.6157722219" lon="11.2477499994">
		<tag k="name" v="Kastbukta" />
		<tag k="natural" v="bay" />
		<tag k="ssr:stedsnr" v="473528" />
	</node>
	<node id="-768977" lat="63.6971333325" lon="11.0103055537">
		<tag k="name" v="Brattbekken" />
		<tag k="ssr:stedsnr" v="73098" />
		<tag k="waterway" v="stream" />
	</node>
	<node id="-768697" lat="63.5875638907" lon="11.2055999919">
		<tag k="name" v="Stamnåstjønna" />
		<tag k="natural" v="water" />
		<tag k="ssr:stedsnr" v="923880" />
	</node>
	<node id="-768084" lat="63.6837684146" lon="11.1430909254">
		<tag k="name" v="Leirabekken" />
		<tag k="ssr:stedsnr" v="472228" />
		<tag k="waterway" v="stream" />
	</node>
	<node id="-768329" lat="63.590688889" lon="11.0781472151">
		<tag k="name" v="Voltjønnin" />
		<tag k="natural" v="water" />
		<tag k="ssr:stedsnr" v="680888" />
	</node>
	<node id="-768594" lat="63.6019805903" lon="11.2659428781">
		<tag k="name" v="Frigårdselva" />
		<tag k="ssr:stedsnr" v="897114" />
		<tag k="waterway" v="stream" />
	</node>
	<node id="-769617" lat="63.6532722232" lon="11.536908339">
		<tag k="name" v="Skallbekken" />
		<tag k="ssr:stedsnr" v="390390" />
		<tag k="waterway" v="stream" />
	</node>
	<node id="-768080" lat="63.6467388892" lon="11.1095567603">
		<tag k="name" v="Kvennhusbekken" />
		<tag k="ssr:stedsnr" v="472049" />
		<tag k="waterway" v="stream" />
	</node>
	<node id="-770405" lat="63.6351361079" lon="11.42921667">
		<tag k="name" v="Kjerringbekken" />
		<tag k="ssr:stedsnr" v="959782" />
		<tag k="waterway" v="stream" />
	</node>
	<node id="-768269" lat="63.6781027761" lon="11.3267944502">
		<tag k="name" v="Gåssjøbekken" />
		<tag k="ssr:stedsnr" v="511363" />
		<tag k="waterway" v="stream" />
	</node>
	<node id="-768587" lat="63.6531777774" lon="11.2845388975">
		<tag k="name" v="Åsgårdsbekken" />
		<tag k="ssr:stedsnr" v="716436" />
		<tag k="waterway" v="stream" />
	</node>
	<node id="-770120" lat="63.6041085879" lon="11.2517495925">
		<tag k="name" v="Mølnåelva" />
		<tag k="ssr:stedsnr" v="775101" />
		<tag k="waterway" v="stream" />
	</node>
	<node id="-769095" lat="63.6599527755" lon="10.9937861087">
		<tag k="name" v="Sveabekken" />
		<tag k="ssr:stedsnr" v="109249" />
		<tag k="waterway" v="stream" />
	</node>
	<node id="-768141" lat="63.7029916677" lon="11.3179805559">
		<tag k="name" v="Brannåsbekken" />
		<tag k="ssr:stedsnr" v="329331" />
		<tag k="waterway" v="stream" />
	</node>
	<node id="-769089" lat="63.6100319725" lon="10.9841492618">
		<tag k="name" v="Kuba" />
		<tag k="place" v="island" />
		<tag k="ssr:stedsnr" v="108513" />
	</node>
	<node id="-769086" lat="63.6501600314" lon="11.0514807636">
		<tag k="name" v="Bantjønnbekken" />
		<tag k="ssr:stedsnr" v="108208" />
		<tag k="waterway" v="stream" />
	</node>
	<node id="-770109" lat="63.6491499977" lon="11.5746361158">
		<tag k="name" v="Hestgrøbba" />
		<tag k="natural" v="water" />
		<tag k="ssr:stedsnr" v="754454" />
	</node>
	<node id="-768572" lat="63.6701138895" lon="10.9447583299">
		<tag k="name" v="Bengtstjønna" />
		<tag k="natural" v="water" />
		<tag k="ssr:stedsnr" v="681008" />
	</node>
	<node id="-769083" lat="63.5968615811" lon="11.2278328286">
		<tag k="name" v="Storfossen" />
		<tag k="natural" v="waterfall" />
		<tag k="ssr:stedsnr" v="108070" />
	</node>
	<node id="-768058" lat="63.6040250024" lon="11.231694451">
		<tag k="name" v="Haugabukta" />
		<tag k="natural" v="bay" />
		<tag k="ssr:stedsnr" v="291507" />
	</node>
	<node id="-769081" lat="63.6518973288" lon="11.1074957037">
		<tag k="name" v="Einlottbekken" />
		<tag k="ssr:stedsnr" v="108053" />
		<tag k="waterway" v="stream" />
	</node>
	<node id="-767936" lat="63.6656999997" lon="11.0138944525">
		<tag k="name" v="Svartvika" />
		<tag k="natural" v="bay" />
		<tag k="ssr:stedsnr" v="291277" />
	</node>
	<node id="-769591" lat="63.6205833322" lon="11.0228138811">
		<tag k="alt_name" v="Hammerøya" />
		<tag k="name" v="Innerøya" />
		<tag k="place" v="island" />
		<tag k="ssr:stedsnr" v="377954" />
	</node>
	<node id="-768741" lat="63.6461805528" lon="11.5035027784">
		<tag k="fixme" v="multiple name tags, choose one and add the other to alt_name" />
		<tag k="name" v="Hårskalltjønna;Skalltjønna" />
		<tag k="natural" v="water" />
		<tag k="ssr:stedsnr" v="802580" />
	</node>
	<node id="-769077" lat="63.6064527746" lon="10.91259723">
		<tag k="name" v="Tørøya" />
		<tag k="natural" v="cape" />
		<tag k="ssr:stedsnr" v="107859" />
	</node>
	<node id="-769385" lat="63.7084388907" lon="11.4966388849">
		<tag k="name" v="Skågsetfossen" />
		<tag k="natural" v="waterfall" />
		<tag k="ssr:stedsnr" v="208421" />
	</node>
	<node id="-768094" lat="63.5941999977" lon="11.6014388917">
		<tag k="name" v="Svartbekken" />
		<tag k="ssr:stedsnr" v="472862" />
		<tag k="waterway" v="stream" />
	</node>
	<node id="-768362" lat="63.579969443" lon="10.9474694542">
		<tag k="name" v="Nesjovatnet" />
		<tag k="natural" v="water" />
		<tag k="ssr:stedsnr" v="681850" />
		<tag k="water" v="lake" />
	</node>
	<node id="-769665" lat="63.5899472183" lon="11.3724805626">
		<tag k="name" v="Furuholmen" />
		<tag k="place" v="islet" />
		<tag k="ssr:stedsnr" v="413823" />
	</node>
	<node id="-769629" lat="63.5741909969" lon="11.2245278543">
		<tag k="name" v="Tronsbekken" />
		<tag k="ssr:stedsnr" v="411069" />
		<tag k="waterway" v="stream" />
	</node>
	<node id="-769580" lat="63.5710749994" lon="11.047197215">
		<tag k="name" v="Blanka" />
		<tag k="natural" v="water" />
		<tag k="ssr:stedsnr" v="377835" />
	</node>
	<node id="-770108" lat="63.6637694429" lon="11.4974638838">
		<tag k="name" v="Davebustadbekken" />
		<tag k="ssr:stedsnr" v="754452" />
		<tag k="waterway" v="stream" />
	</node>
	<node id="-768554" lat="63.672641663" lon="11.429888895">
		<tag k="name" v="Lauvøybekken" />
		<tag k="ssr:stedsnr" v="880000" />
		<tag k="waterway" v="stream" />
	</node>
	<node id="-768263" lat="63.7062138891" lon="11.4926194538">
		<tag k="name" v="Stormyrbekken" />
		<tag k="ssr:stedsnr" v="511326" />
		<tag k="waterway" v="stream" />
	</node>
	<node id="-768123" lat="63.5784333375" lon="11.2240999954">
		<tag k="name" v="Sundtjønna" />
		<tag k="natural" v="water" />
		<tag k="ssr:stedsnr" v="316513" />
	</node>
	<node id="-768039" lat="63.5857527802" lon="11.3979833252">
		<tag k="name" v="Finnåstjønna" />
		<tag k="natural" v="water" />
		<tag k="ssr:stedsnr" v="256402" />
	</node>
	<node id="-768082" lat="63.5987228378" lon="11.1824508642">
		<tag k="name" v="Bjørkstamnelva" />
		<tag k="ssr:stedsnr" v="472067" />
		<tag k="waterway" v="stream" />
	</node>
	<node id="-768945" lat="63.610611111" lon="11.0866194423">
		<tag k="name" v="Fossingelva" />
		<tag k="ssr:stedsnr" v="47133" />
		<tag k="waterway" v="river" />
	</node>
	<node id="-769060" lat="63.6477944459" lon="11.5534638873">
		<tag k="name" v="Klingertjønna" />
		<tag k="natural" v="water" />
		<tag k="ssr:stedsnr" v="87410" />
	</node>
	<node id="-769231" lat="63.7191999994" lon="11.4510583332">
		<tag k="name" v="Hansfossen" />
		<tag k="natural" v="waterfall" />
		<tag k="ssr:stedsnr" v="147336" />
	</node>
	<node id="-769057" lat="63.6664638874" lon="11.5168055486">
		<tag k="name" v="Davebustadtjønna" />
		<tag k="natural" v="water" />
		<tag k="ssr:stedsnr" v="87399" />
	</node>
	<node id="-768566" lat="63.6081305544" lon="10.9569194346">
		<tag k="name" v="Fårabotnen" />
		<tag k="natural" v="bay" />
		<tag k="ssr:stedsnr" v="680907" />
	</node>
	<node id="-769567" lat="63.6015694461" lon="11.3504055629">
		<tag k="name" v="Litlgrønningsbekken" />
		<tag k="ssr:stedsnr" v="377408" />
		<tag k="waterway" v="stream" />
	</node>
	<node id="-768542" lat="63.7206194414" lon="11.5313138864">
		<tag k="name" v="Mobekken" />
		<tag k="ssr:stedsnr" v="876430" />
		<tag k="waterway" v="stream" />
	</node>
	<node id="-767749" lat="63.6203361095" lon="11.2488638958">
		<tag k="name" v="Slettbukta" />
		<tag k="natural" v="cape" />
		<tag k="ssr:stedsnr" v="230500" />
	</node>
	<node id="-767834" lat="63.616830552" lon="11.3106750092">
		<tag k="name" v="Veråsneset" />
		<tag k="natural" v="cape" />
		<tag k="ssr:stedsnr" v="109522" />
	</node>
	<node id="-768310" lat="63.6849055558" lon="11.0020361149">
		<tag k="name" v="Karusstjønna" />
		<tag k="natural" v="water" />
		<tag k="ssr:stedsnr" v="680135" />
	</node>
	<node id="-768022" lat="63.6123833373" lon="11.3753277826">
		<tag k="name" v="Årengelva" />
		<tag k="ssr:stedsnr" v="255404" />
		<tag k="waterway" v="stream" />
	</node>
	<node id="-768601" lat="63.6236166641" lon="11.0042277686">
		<tag k="name" v="Fonnåbukta" />
		<tag k="natural" v="bay" />
		<tag k="ssr:stedsnr" v="898279" />
	</node>
	<node id="-768532" lat="63.6936555587" lon="11.4541888884">
		<tag k="name" v="Storholmen" />
		<tag k="place" v="islet" />
		<tag k="ssr:stedsnr" v="632367" />
	</node>
	<node id="-768018" lat="63.6865305515" lon="11.5476861187">
		<tag k="name" v="Mardalsbekken" />
		<tag k="ssr:stedsnr" v="451449" />
		<tag k="waterway" v="stream" />
	</node>
	<node id="-768054" lat="63.6550694399" lon="11.1015055648">
		<tag k="name" v="Holmen" />
		<tag k="place" v="islet" />
		<tag k="ssr:stedsnr" v="290168" />
	</node>
	<node id="-769880" lat="63.6305777759" lon="11.1954194369">
		<tag k="name" v="Bergetbekken" />
		<tag k="ssr:stedsnr" v="594457" />
		<tag k="waterway" v="stream" />
	</node>
	<node id="-768525" lat="63.7568583369" lon="11.4147750098">
		<tag k="name" v="Kleivabekken" />
		<tag k="ssr:stedsnr" v="628709" />
		<tag k="waterway" v="stream" />
	</node>
	<node id="-770059" lat="63.639924998" lon="11.0246138856">
		<tag k="name" v="Gortjønna" />
		<tag k="natural" v="water" />
		<tag k="ssr:stedsnr" v="741988" />
	</node>
	<node id="-768343" lat="63.6382249973" lon="11.2094777714">
		<tag k="name" v="Almlitjønna" />
		<tag k="natural" v="water" />
		<tag k="ssr:stedsnr" v="680999" />
	</node>
	<node id="-768841" lat="63.7390833334" lon="11.4741555565">
		<tag k="name" v="Slættbekken" />
		<tag k="ssr:stedsnr" v="939988" />
		<tag k="waterway" v="stream" />
	</node>
	<node id="-769541" lat="63.6675000041" lon="11.024983338">
		<tag k="name" v="Furunes" />
		<tag k="natural" v="cape" />
		<tag k="ssr:stedsnr" v="377001" />
	</node>
	<node id="-770052" lat="63.6933472264" lon="11.483444449">
		<tag k="alt_name" v="Storbrannbekken" />
		<tag k="name" v="Storbrannsbekken" />
		<tag k="ssr:stedsnr" v="741633" />
		<tag k="waterway" v="stream" />
	</node>
	<node id="-770050" lat="63.6560249978" lon="11.2563833327">
		<tag k="name" v="Sundetjønna" />
		<tag k="natural" v="water" />
		<tag k="ssr:stedsnr" v="741622" />
	</node>
	<node id="-769538" lat="63.6004499979" lon="11.2019861061">
		<tag k="name" v="Haugaelva" />
		<tag k="ssr:stedsnr" v="376904" />
		<tag k="waterway" v="river" />
	</node>
	<node id="-767883" lat="63.643361113" lon="11.3597277839">
		<tag k="name" v="Skillebekken" />
		<tag k="ssr:stedsnr" v="146321" />
		<tag k="waterway" v="stream" />
>>>>>>> e1d4bc35ff8a6074a6f2e91616a996b547c36f15
	</node>
</osm>
