<?xml version="1.0" encoding="UTF-8"?>
<osm version="0.6" generator="osmapis">
	<node lat="63.625047224968874" lon="11.006944453331323" id="-31226">
		<tag k="name" v="Danielsve" />
		<tag k="place" v="locality" />
		<tag k="ssr:stedsnr" v="231316" />
	</node>
	<node lat="63.670810653196604" lon="11.21773559460617" id="-31228">
		<tag k="fixme" v="consider place=hamlet" />
		<tag k="name" v="Stavern" />
		<tag k="place" v="farm" />
		<tag k="ssr:stedsnr" v="231442" />
	</node>
	<node lat="63.62729166454069" lon="11.123199998751362" id="-31229">
		<tag k="name" v="Åsen" />
		<tag k="place" v="farm" />
		<tag k="ssr:stedsnr" v="231446" />
	</node>
	<node lat="63.64000277681434" lon="11.150658334770442" id="-31230">
		<tag k="name" v="Opemsaunet" />
		<tag k="place" v="farm" />
		<tag k="ssr:stedsnr" v="231453" />
	</node>
	<node lat="63.6580205665675" lon="11.023759976587305" id="-31234">
		<tag k="alt_name" v="Migen" />
		<tag k="name" v="Miga" />
		<tag k="place" v="locality" />
		<tag k="ssr:stedsnr" v="13062" />
	</node>
	<node lat="63.6521004720597" lon="11.101333782465924" id="-31235">
		<tag k="fixme" v="consider place=hamlet" />
		<tag k="name" v="Nes" />
		<tag k="place" v="farm" />
		<tag k="ssr:stedsnr" v="13077" />
	</node>
	<node lat="63.70337221859041" lon="11.157802780384221" id="-31236">
		<tag k="name" v="Nygården" />
		<tag k="place" v="farm" />
		<tag k="ssr:stedsnr" v="13081" />
	</node>
	<node lat="63.74931944572846" lon="11.003372229137945" id="-31238">
		<tag k="name" v="Fellesgjerdet" />
		<tag k="place" v="farm" />
		<tag k="ssr:stedsnr" v="13163" />
	</node>
	<node lat="63.70642900093283" lon="11.020438009675686" id="-31240">
		<tag k="fixme" v="consider place=hamlet" />
		<tag k="name" v="Jevika" />
		<tag k="place" v="farm" />
		<tag k="ssr:stedsnr" v="13180" />
	</node>
	<node lat="63.69140184015456" lon="11.219645380526973" id="-31242">
		<tag k="fixme" v="consider place=hamlet" />
		<tag k="name" v="Fostad" />
		<tag k="place" v="farm" />
		<tag k="ssr:stedsnr" v="13562" />
	</node>
	<node lat="63.68960277428446" lon="11.241216664450986" id="-31243">
		<tag k="name" v="Haugen" />
		<tag k="place" v="farm" />
		<tag k="ssr:stedsnr" v="13565" />
	</node>
	<node lat="63.58541389053368" lon="10.937099993373222" id="-31246">
		<tag k="alt_name" v="Skjesol, midtre" />
		<tag k="name" v="Midtre Skjesol" />
		<tag k="place" v="farm" />
		<tag k="ssr:stedsnr" v="13813" />
	</node>
	<node lat="63.58529166652197" lon="10.95470833957041" id="-31247">
		<tag k="name" v="Svedjan" />
		<tag k="place" v="farm" />
		<tag k="ssr:stedsnr" v="13815" />
	</node>
	<node lat="63.715215385818844" lon="11.211156427635498" id="-31250">
		<tag k="fixme" v="consider place=hamlet" />
		<tag k="name" v="Tilfredshet" />
		<tag k="place" v="farm" />
		<tag k="ssr:stedsnr" v="22508" />
	</node>
	<node lat="63.61636944248727" lon="10.910002780557825" id="-31262">
		<tag k="name" v="Sunndalsveet" />
		<tag k="place" v="isolated_dwelling" />
		<tag k="ssr:stedsnr" v="46807" />
	</node>
	<node lat="63.646159081161805" lon="11.11159834086599" id="-31263">
		<tag k="name" v="Nesaunet" />
		<tag k="place" v="farm" />
		<tag k="ssr:stedsnr" v="47005" />
	</node>
	<node lat="63.63226470191356" lon="11.094993249770337" id="-31264">
		<tag k="fixme" v="consider place=hamlet" />
		<tag k="name" v="Sonstad" />
		<tag k="place" v="farm" />
		<tag k="ssr:stedsnr" v="47176" />
	</node>
	<node lat="63.69276111039898" lon="10.938872212523801" id="-31269">
		<tag k="name" v="Litlmarka" />
		<tag k="place" v="isolated_dwelling" />
		<tag k="ssr:stedsnr" v="49370" />
	</node>
	<node lat="63.612625001928826" lon="11.345386105495662" id="-31273">
		<tag k="name" v="Hjelmmarka" />
		<tag k="place" v="farm" />
		<tag k="ssr:stedsnr" v="73415" />
	</node>
	<node lat="63.61968888469505" lon="11.525041660388027" id="-31275">
		<tag k="name" v="Tynesvollen" />
		<tag k="place" v="locality" />
		<tag k="ssr:stedsnr" v="73407" />
	</node>
	<node lat="63.72471944048455" lon="11.27740000593555" id="-31276">
		<tag k="name" v="Djupdalen" />
		<tag k="place" v="farm" />
		<tag k="ssr:stedsnr" v="73628" />
	</node>
	<node lat="63.74808055187577" lon="11.372669440737395" id="-31277">
		<tag k="name" v="Austvoll" />
		<tag k="place" v="farm" />
		<tag k="ssr:stedsnr" v="73678" />
	</node>
	<node lat="63.66549365707237" lon="11.119056098498847" id="-31279">
		<tag k="alt_name" v="Støreaunet" />
		<tag k="fixme" v="consider place=hamlet" />
		<tag k="name" v="Støresaunet" />
		<tag k="place" v="farm" />
		<tag k="ssr:stedsnr" v="74021" />
	</node>
	<node lat="63.674619448731114" lon="11.18341666108969" id="-31280">
		<tag k="name" v="Løveng" />
		<tag k="place" v="farm" />
		<tag k="ssr:stedsnr" v="74032" />
	</node>
	<node lat="63.653894443137865" lon="11.186511103165016" id="-31281">
		<tag k="alt_name" v="Lynsve" />
		<tag k="name" v="Lynsveet" />
		<tag k="place" v="farm" />
		<tag k="ssr:stedsnr" v="74057" />
	</node>
	<node lat="63.65036052274394" lon="11.1893633001783" id="-31282">
		<tag k="fixme" v="consider place=hamlet" />
		<tag k="name" v="Sundlo" />
		<tag k="place" v="farm" />
		<tag k="ssr:stedsnr" v="74060" />
	</node>
	<node lat="63.655992780285786" lon="11.138530306540106" id="-31283">
		<tag k="fixme" v="consider place=hamlet" />
		<tag k="name" v="Slengen" />
		<tag k="place" v="farm" />
		<tag k="ssr:stedsnr" v="74064" />
	</node>
	<node lat="63.63588611324571" lon="11.070561110578915" id="-31285">
		<tag k="name" v="Råa" />
		<tag k="place" v="farm" />
		<tag k="ssr:stedsnr" v="73973" />
	</node>
	<node lat="63.63725833499493" lon="11.274383323563413" id="-31289">
		<tag k="alt_name" v="Markabygd" />
		<tag k="fixme" v="consider place=hamlet" />
		<tag k="name" v="Markabygda" />
		<tag k="old_name" v="Markabygden" />
		<tag k="place" v="village" />
		<tag k="ssr:stedsnr" v="74514" />
	</node>
	<node lat="63.631577780649046" lon="11.266636118720223" id="-31290">
		<tag k="name" v="Myrskog" />
		<tag k="place" v="farm" />
		<tag k="ssr:stedsnr" v="74516" />
	</node>
	<node lat="63.71573888878384" lon="11.324630562010086" id="-31291">
		<tag k="name" v="Stubbe" />
		<tag k="place" v="farm" />
		<tag k="ssr:stedsnr" v="74608" />
	</node>
	<node lat="63.71712221772173" lon="11.325013897752784" id="-31292">
		<tag k="name" v="Mostad" />
		<tag k="place" v="farm" />
		<tag k="ssr:stedsnr" v="74616" />
	</node>
	<node lat="63.77570277866783" lon="11.052011120596811" id="-31295">
		<tag k="name" v="Berget" />
		<tag k="place" v="farm" />
		<tag k="ssr:stedsnr" v="74769" />
	</node>
	<node lat="63.62989166784724" lon="11.072244450156905" id="-31296">
		<tag k="name" v="Skogmo" />
		<tag k="place" v="farm" />
		<tag k="ssr:stedsnr" v="74954" />
	</node>
	<node lat="63.620999997146036" lon="11.108122230451844" id="-31297">
		<tag k="name" v="Nysveet" />
		<tag k="place" v="farm" />
		<tag k="ssr:stedsnr" v="74957" />
	</node>
	<node lat="63.792666426438295" lon="11.076460361456995" id="-31298">
		<tag k="fixme" v="consider place=hamlet" />
		<tag k="name" v="Osen" />
		<tag k="place" v="farm" />
		<tag k="ssr:stedsnr" v="75811" />
	</node>
	<node lat="63.784863890094734" lon="11.118338889404104" id="-31299">
		<tag k="name" v="Øver-Vannsvika" />
		<tag k="place" v="farm" />
		<tag k="ssr:stedsnr" v="75820" />
	</node>
	<node lat="63.766449998728895" lon="11.34422221300694" id="-31304">
		<tag k="name" v="Fribøra" />
		<tag k="place" v="farm" />
		<tag k="ssr:stedsnr" v="83680" />
	</node>
	<node lat="63.76090555227694" lon="11.265422227092296" id="-31305">
		<tag k="name" v="Øra" />
		<tag k="place" v="farm" />
		<tag k="ssr:stedsnr" v="83689" />
	</node>
	<node lat="63.718641664727826" lon="11.287744446345583" id="-31306">
		<tag k="name" v="Korsvegen" />
		<tag k="place" v="farm" />
		<tag k="ssr:stedsnr" v="83593" />
	</node>
	<node lat="63.71218610991791" lon="11.235500004402569" id="-31308">
		<tag k="name" v="Auster-Eggen" />
		<tag k="place" v="farm" />
		<tag k="ssr:stedsnr" v="83596" />
	</node>
	<node lat="63.73822778197645" lon="11.211961112822689" id="-31309">
		<tag k="name" v="Bjørklund" />
		<tag k="place" v="farm" />
		<tag k="ssr:stedsnr" v="83715" />
	</node>
	<node lat="63.65912123969821" lon="10.989442426497252" id="-31310">
		<tag k="fixme" v="consider place=hamlet" />
		<tag k="name" v="Avdalen" />
		<tag k="place" v="farm" />
		<tag k="ssr:stedsnr" v="86433" />
	</node>
	<node lat="63.66004999976902" lon="11.166069437796274" id="-31313">
		<tag k="name" v="Lynan" />
		<tag k="place" v="hamlet" />
		<tag k="ssr:stedsnr" v="86389" />
	</node>
	<node lat="63.69237777607604" lon="11.565202768488517" id="-31321">
		<tag k="historic" v="shieling" />
		<tag k="name" v="Burvollen" />
		<tag k="place" v="isolated_dwelling" />
		<tag k="ssr:stedsnr" v="87430" />
	</node>
	<node lat="63.72957221793" lon="11.453661116352873" id="-31322">
		<tag k="name" v="Øver-Okkenhaug" />
		<tag k="place" v="farm" />
		<tag k="ssr:stedsnr" v="90978" />
	</node>
	<node lat="63.729883337834934" lon="11.49018610708523" id="-31324">
		<tag k="name" v="Litl-Gustad" />
		<tag k="place" v="farm" />
		<tag k="ssr:stedsnr" v="90987" />
	</node>
	<node lat="63.580538625002944" lon="10.904631924449674" id="-31328">
		<tag k="name" v="Nordaunet" />
		<tag k="place" v="farm" />
		<tag k="ssr:stedsnr" v="107826" />
	</node>
	<node lat="63.66577777379518" lon="11.199397212682598" id="-31338">
		<tag k="name" v="Ner-Kjesbu" />
		<tag k="place" v="farm" />
		<tag k="ssr:stedsnr" v="109382" />
	</node>
	<node lat="63.646361114808286" lon="11.168116666375296" id="-31346">
		<tag k="alt_name" v="Elgset, søre" />
		<tag k="name" v="Søre Elgset" />
		<tag k="place" v="farm" />
		<tag k="ssr:stedsnr" v="134061" />
	</node>
	<node lat="63.72467499684875" lon="11.212705545271875" id="-31347">
		<tag k="name" v="Tangen" />
		<tag k="place" v="farm" />
		<tag k="ssr:stedsnr" v="134220" />
	</node>
	<node lat="63.70078889205033" lon="10.977197232057849" id="-31348">
		<tag k="fixme" v="multiple name tags, choose one and add the other to alt_name" />
		<tag k="name" v="Finnsvika;Austre Finnsvika" />
		<tag k="place" v="farm" />
		<tag k="ssr:stedsnr" v="134104" />
	</node>
	<node lat="63.676751165194055" lon="11.19549348696279" id="-31349">
		<tag k="fixme" v="multiple name tags, choose one and add the other to alt_name; consider place=hamlet" />
		<tag k="name" v="Aglia;Augdal" />
		<tag k="place" v="farm" />
		<tag k="ssr:stedsnr" v="134122" />
	</node>
	<node lat="63.73621388720258" lon="11.21014444087548" id="-31350">
		<tag k="name" v="Alfheim" />
		<tag k="place" v="farm" />
		<tag k="ssr:stedsnr" v="134163" />
	</node>
	<node lat="63.62008889259852" lon="11.450647232509988" id="-31351">
		<tag k="name" v="Sjåstadbustaden" />
		<tag k="place" v="locality" />
		<tag k="ssr:stedsnr" v="134454" />
	</node>
	<node lat="63.62499721957951" lon="11.114211112883076" id="-31354">
		<tag k="name" v="Husbyaunet" />
		<tag k="place" v="farm" />
		<tag k="ssr:stedsnr" v="134952" />
	</node>
	<node lat="63.62804260264821" lon="11.186271458091314" id="-31355">
		<tag k="alt_name" v="Gryte, s" />
		<tag k="fixme" v="consider place=hamlet" />
		<tag k="name" v="Søre Gryte" />
		<tag k="place" v="farm" />
		<tag k="ssr:stedsnr" v="134954" />
	</node>
	<node lat="63.57831389079551" lon="10.996661107581245" id="-31357">
		<tag k="name" v="Vudduaunet" />
		<tag k="place" v="farm" />
		<tag k="ssr:stedsnr" v="134868" />
	</node>
	<node lat="63.760288890029344" lon="11.368722229651677" id="-31358">
		<tag k="name" v="Børsmoen" />
		<tag k="place" v="farm" />
		<tag k="ssr:stedsnr" v="135351" />
	</node>
	<node lat="63.693707903168054" lon="11.196056165301698" id="-31359">
		<tag k="fixme" v="consider place=hamlet" />
		<tag k="name" v="Hove" />
		<tag k="place" v="farm" />
		<tag k="ssr:stedsnr" v="255128" />
	</node>
	<node lat="63.692599999906626" lon="11.143758334140344" id="-31360">
		<tag k="name" v="Auringan" />
		<tag k="place" v="farm" />
		<tag k="ssr:stedsnr" v="143494" />
	</node>
	<node lat="63.68909166622298" lon="11.185594443406908" id="-31361">
		<tag k="name" v="Hofset" />
		<tag k="place" v="farm" />
		<tag k="ssr:stedsnr" v="143609" />
	</node>
	<node lat="63.690233332713476" lon="11.179627782648408" id="-31362">
		<tag k="name" v="Litl-Nesgard" />
		<tag k="place" v="farm" />
		<tag k="ssr:stedsnr" v="143611" />
	</node>
	<node lat="63.703716664753124" lon="11.194277777036698" id="-31364">
		<tag k="building" v="commercial" />
		<tag k="name" v="Solvang" />
		<tag k="ssr:stedsnr" v="143508" />
	</node>
	<node lat="63.718855559899666" lon="11.22374721903427" id="-31366">
		<tag k="name" v="Lyng" />
		<tag k="place" v="farm" />
		<tag k="ssr:stedsnr" v="143516" />
	</node>
	<node lat="63.715941663427934" lon="11.232952784972799" id="-31367">
		<tag k="name" v="Bragstad" />
		<tag k="place" v="farm" />
		<tag k="ssr:stedsnr" v="143518" />
	</node>
	<node lat="63.72487500342479" lon="11.359663893546642" id="-31374">
		<tag k="name" v="Munkbyaunet" />
		<tag k="place" v="farm" />
		<tag k="ssr:stedsnr" v="143594" />
	</node>
	<node lat="63.712811113983676" lon="11.483227769579191" id="-31377">
		<tag k="name" v="Rognsveet" />
		<tag k="place" v="farm" />
		<tag k="ssr:stedsnr" v="255587" />
	</node>
	<node lat="63.70556111462976" lon="11.34633610939663" id="-31378">
		<tag k="name" v="Bjørås" />
		<tag k="place" v="farm" />
		<tag k="ssr:stedsnr" v="255594" />
	</node>
	<node lat="63.707649998705996" lon="11.335511108787646" id="-31379">
		<tag k="name" v="Tømte" />
		<tag k="place" v="farm" />
		<tag k="ssr:stedsnr" v="255595" />
	</node>
	<node lat="63.710722220580955" lon="11.2885361078326" id="-31380">
		<tag k="name" v="Grønvoll" />
		<tag k="place" v="farm" />
		<tag k="ssr:stedsnr" v="255597" />
	</node>
	<node lat="63.713060267065664" lon="11.249069003076984" id="-31381">
		<tag k="fixme" v="consider place=hamlet" />
		<tag k="name" v="Gilstad" />
		<tag k="place" v="farm" />
		<tag k="ssr:stedsnr" v="255601" />
	</node>
	<node lat="63.715899996604136" lon="11.529788886493654" id="-31383">
		<tag k="name" v="Mobekk" />
		<tag k="place" v="farm" />
		<tag k="ssr:stedsnr" v="255611" />
	</node>
	<node lat="63.742765966167305" lon="11.223236199220059" id="-31384">
		<tag k="fixme" v="consider place=hamlet" />
		<tag k="name" v="Russgården" />
		<tag k="place" v="farm" />
		<tag k="ssr:stedsnr" v="255687" />
	</node>
	<node lat="63.747052775176265" lon="11.399722231862784" id="-31385">
		<tag k="name" v="Vollan" />
		<tag k="place" v="farm" />
		<tag k="ssr:stedsnr" v="255697" />
	</node>
	<node lat="63.730441665029794" lon="11.356338879662697" id="-31386">
		<tag k="name" v="Nordheim" />
		<tag k="place" v="farm" />
		<tag k="ssr:stedsnr" v="255639" />
	</node>
	<node lat="63.731763890809354" lon="11.365552772140756" id="-31387">
		<tag k="name" v="Nedre Gran" />
		<tag k="place" v="farm" />
		<tag k="ssr:stedsnr" v="255643" />
	</node>
	<node lat="63.73135628474146" lon="11.233555068738935" id="-31388">
		<tag k="fixme" v="consider place=hamlet" />
		<tag k="name" v="Eide" />
		<tag k="place" v="farm" />
		<tag k="ssr:stedsnr" v="255645" />
	</node>
	<node lat="63.7464333342975" lon="11.299638896640749" id="-31389">
		<tag k="name" v="Levanger" />
		<tag k="place" v="town" />
		<tag k="ssr:stedsnr" v="255646" />
	</node>
	<node lat="63.73348611052295" lon="11.326555547819911" id="-31390">
		<tag k="name" v="Ner-Tingstad" />
		<tag k="place" v="farm" />
		<tag k="ssr:stedsnr" v="255653" />
	</node>
	<node lat="63.73718055762225" lon="11.447902778286455" id="-31391">
		<tag k="name" v="Solberg" />
		<tag k="place" v="farm" />
		<tag k="ssr:stedsnr" v="255659" />
	</node>
	<node lat="63.7351027753343" lon="11.424900005611763" id="-31392">
		<tag k="name" v="Hojemslia" />
		<tag k="place" v="farm" />
		<tag k="ssr:stedsnr" v="255661" />
	</node>
	<node lat="63.685330557207216" lon="11.090572212762293" id="-31396">
		<tag k="name" v="Verås" />
		<tag k="place" v="farm" />
		<tag k="ssr:stedsnr" v="256118" />
	</node>
	<node lat="63.682980555214954" lon="11.069550004849209" id="-31397">
		<tag k="alt_name" v="Kjølen, vestre" />
		<tag k="name" v="Vestre Kjølen" />
		<tag k="place" v="farm" />
		<tag k="ssr:stedsnr" v="256119" />
	</node>
	<node lat="63.68114166268469" lon="11.051397226297018" id="-31398">
		<tag k="alt_name" v="Siem, austre;Siem østre" />
		<tag k="name" v="Austre Siem" />
		<tag k="place" v="farm" />
		<tag k="ssr:stedsnr" v="256120" />
	</node>
	<node lat="63.70854213117261" lon="11.228590190645406" id="-31399">
		<tag k="name" v="Eggen" />
		<tag k="place" v="hamlet" />
		<tag k="ssr:stedsnr" v="147321" />
	</node>
	<node lat="63.6749851259411" lon="11.202511124913256" id="-31400">
		<tag k="fixme" v="consider place=hamlet" />
		<tag k="name" v="Storaunet" />
		<tag k="place" v="farm" />
		<tag k="ssr:stedsnr" v="256037" />
	</node>
	<node lat="63.74510720021777" lon="11.036406215804655" id="-31403">
		<tag k="fixme" v="consider place=hamlet" />
		<tag k="name" v="Sandsøra" />
		<tag k="place" v="farm" />
		<tag k="ssr:stedsnr" v="256146" />
	</node>
	<node lat="63.71889390241466" lon="11.216744657782295" id="-31404">
		<tag k="fixme" v="consider place=hamlet" />
		<tag k="name" v="Bjerka" />
		<tag k="place" v="farm" />
		<tag k="ssr:stedsnr" v="256180" />
	</node>
	<node lat="63.73942777572741" lon="11.45764165682607" id="-31407">
		<tag k="name" v="Grøttingen" />
		<tag k="place" v="locality" />
		<tag k="ssr:stedsnr" v="150973" />
	</node>
	<node lat="63.62320730534327" lon="11.235918797375346" id="-31408">
		<tag k="fixme" v="consider place=hamlet" />
		<tag k="name" v="Sand" />
		<tag k="place" v="farm" />
		<tag k="ssr:stedsnr" v="256354" />
	</node>
	<node lat="63.62268970013882" lon="11.319011292194219" id="-31409">
		<tag k="alt_name" v="Skjevelås" />
		<tag k="fixme" v="consider place=hamlet" />
		<tag k="name" v="Skjevelåsen" />
		<tag k="place" v="farm" />
		<tag k="ssr:stedsnr" v="256357" />
	</node>
	<node lat="63.673527779353385" lon="11.369425009862933" id="-31411">
		<tag k="name" v="Matbergbustad" />
		<tag k="place" v="isolated_dwelling" />
		<tag k="ssr:stedsnr" v="256501" />
	</node>
	<node lat="63.581136801429864" lon="10.940604503913429" id="-31412">
		<tag k="fixme" v="consider place=hamlet" />
		<tag k="name" v="Nesjo" />
		<tag k="place" v="farm" />
		<tag k="ssr:stedsnr" v="256788" />
	</node>
	<node lat="63.57177239132527" lon="11.081407324022518" id="-31413">
		<tag k="fixme" v="consider place=hamlet" />
		<tag k="name" v="Alstad" />
		<tag k="place" v="farm" />
		<tag k="ssr:stedsnr" v="256801" />
	</node>
	<node lat="63.76531388459301" lon="11.046511106574963" id="-31415">
		<tag k="name" v="Ytter-Røvika" />
		<tag k="place" v="farm" />
		<tag k="ssr:stedsnr" v="256743" />
	</node>
	<node lat="63.62605277555866" lon="11.067519444750282" id="-31416">
		<tag k="fixme" v="consider place=hamlet" />
		<tag k="name" v="Hammer" />
		<tag k="place" v="farm" />
		<tag k="ssr:stedsnr" v="256943" />
	</node>
	<node lat="63.62074167074084" lon="11.16846389809646" id="-31417">
		<tag k="alt_name" v="Straumen, nedre;Nedre Strømmen" />
		<tag k="fixme" v="multiple name tags, choose one and add the other to alt_name" />
		<tag k="name" v="Strømmen;Nedre Straumen" />
		<tag k="old_name" v="Strømmen nordre" />
		<tag k="place" v="farm" />
		<tag k="ssr:stedsnr" v="256953" />
	</node>
	<node lat="63.64373055744532" lon="11.191888895328947" id="-31418">
		<tag k="name" v="Høgsveet" />
		<tag k="place" v="farm" />
		<tag k="ssr:stedsnr" v="256981" />
	</node>
	<node lat="63.78138889222983" lon="11.0544555529543" id="-31419">
		<tag k="name" v="Fjordgløtt" />
		<tag k="place" v="farm" />
		<tag k="ssr:stedsnr" v="257833" />
	</node>
	<node lat="63.611941665721154" lon="11.051288882940174" id="-31420">
		<tag k="amenity" v="school" />
		<tag k="name" v="Åsen barne- og ungdomsskole" />
		<tag k="ssr:stedsnr" v="163157" />
	</node>
	<node lat="63.7460972190698" lon="11.320652779035267" id="-31421">
		<tag k="amenity" v="school" />
		<tag k="name" v="Frol oppvekstsenter" />
		<tag k="ssr:stedsnr" v="163159" />
	</node>
	<node lat="63.60304425530674" lon="10.989737745908794" id="-31423">
		<tag k="fixme" v="consider place=hamlet" />
		<tag k="name" v="Hellem" />
		<tag k="place" v="farm" />
		<tag k="ssr:stedsnr" v="165759" />
	</node>
	<node lat="63.593891938090806" lon="10.994932872459685" id="-31430">
		<tag k="name" v="Tilderaunet" />
		<tag k="place" v="farm" />
		<tag k="ssr:stedsnr" v="168369" />
	</node>
	<node lat="63.696566663926774" lon="11.019069449622393" id="-31439">
		<tag k="name" v="Øversveet" />
		<tag k="place" v="locality" />
		<tag k="ssr:stedsnr" v="265970" />
	</node>
	<node lat="63.72020555746721" lon="11.316569441615" id="-31440">
		<tag k="name" v="Austre Matberg" />
		<tag k="place" v="farm" />
		<tag k="ssr:stedsnr" v="265632" />
	</node>
	<node lat="63.7238527739522" lon="11.226536105176708" id="-31442">
		<tag k="name" v="Prestgården" />
		<tag k="place" v="farm" />
		<tag k="ssr:stedsnr" v="265555" />
	</node>
	<node lat="63.7192027757484" lon="11.367724991544724" id="-31444">
		<tag k="name" v="Talplassen" />
		<tag k="place" v="locality" />
		<tag k="ssr:stedsnr" v="265661" />
	</node>
	<node lat="63.7504083365165" lon="11.333058336163855" id="-31446">
		<tag k="name" v="Røset" />
		<tag k="place" v="farm" />
		<tag k="ssr:stedsnr" v="265667" />
	</node>
	<node lat="63.73488055943555" lon="11.355302785393205" id="-31447">
		<tag k="name" v="Nyborg" />
		<tag k="place" v="farm" />
		<tag k="ssr:stedsnr" v="265674" />
	</node>
	<node lat="63.74701388938031" lon="11.322616675482879" id="-31450">
		<tag k="name" v="Bakkehuset" />
		<tag k="place" v="isolated_dwelling" />
		<tag k="ssr:stedsnr" v="265682" />
	</node>
	<node lat="63.69523888838914" lon="11.236477768138087" id="-31451">
		<tag k="name" v="Litl-Brennmålan" />
		<tag k="place" v="farm" />
		<tag k="ssr:stedsnr" v="195585" />
	</node>
	<node lat="63.701992693238964" lon="11.239101647320188" id="-31452">
		<tag k="fixme" v="consider place=hamlet" />
		<tag k="name" v="Rennan" />
		<tag k="place" v="farm" />
		<tag k="ssr:stedsnr" v="195586" />
	</node>
	<node lat="63.728313889014665" lon="11.521238888276114" id="-31455">
		<tag k="name" v="Elgåsen" />
		<tag k="place" v="farm" />
		<tag k="ssr:stedsnr" v="195632" />
	</node>
	<node lat="63.724650278367726" lon="11.247697704896312" id="-31456">
		<tag k="name" v="Eidesøra" />
		<tag k="place" v="farm" />
		<tag k="ssr:stedsnr" v="195635" />
	</node>
	<node lat="63.59984166411065" lon="10.966127783566078" id="-31457">
		<tag k="name" v="Bergsveet" />
		<tag k="place" v="farm" />
		<tag k="ssr:stedsnr" v="195885" />
	</node>
	<node lat="63.61659444714018" lon="10.952961107784882" id="-31458">
		<tag k="name" v="Kjølen" />
		<tag k="place" v="farm" />
		<tag k="ssr:stedsnr" v="195908" />
	</node>
	<node lat="63.76210555484914" lon="11.396322218024032" id="-31459">
		<tag k="name" v="Engsveet" />
		<tag k="place" v="farm" />
		<tag k="ssr:stedsnr" v="196283" />
	</node>
	<node lat="63.801929594687856" lon="11.20029166975282" id="-31462">
		<tag k="name" v="Brustad" />
		<tag k="place" v="hamlet" />
		<tag k="ssr:stedsnr" v="196820" />
	</node>
	<node lat="63.77002500046876" lon="11.092313882783229" id="-31464">
		<tag k="name" v="Lystad" />
		<tag k="place" v="farm" />
		<tag k="ssr:stedsnr" v="196776" />
	</node>
	<node lat="63.69332777497021" lon="11.034975004247565" id="-31466">
		<tag k="name" v="Ner-Falstad" />
		<tag k="place" v="farm" />
		<tag k="ssr:stedsnr" v="266966" />
	</node>
	<node lat="63.72338888830132" lon="11.24336111342232" id="-31472">
		<tag k="name" v="Granåsen" />
		<tag k="place" v="farm" />
		<tag k="ssr:stedsnr" v="204554" />
	</node>
	<node lat="63.699358337712425" lon="11.233094449356795" id="-31473">
		<tag k="name" v="Austre Stavlo" />
		<tag k="place" v="farm" />
		<tag k="ssr:stedsnr" v="204451" />
	</node>
	<node lat="63.69526666258011" lon="11.1996166624943" id="-31474">
		<tag k="name" v="Småland" />
		<tag k="place" v="quarter" />
		<tag k="ssr:stedsnr" v="204453" />
	</node>
	<node lat="63.762155553890594" lon="11.439122217171237" id="-31484">
		<tag k="alt_name" v="Rinnan litle" />
		<tag k="name" v="Litle Rinnan" />
		<tag k="place" v="farm" />
		<tag k="ssr:stedsnr" v="268496" />
	</node>
	<node lat="63.664236191759116" lon="11.237589469842685" id="-31485">
		<tag k="name" v="Sunde" />
		<tag k="place" v="hamlet" />
		<tag k="ssr:stedsnr" v="268357" />
	</node>
	<node lat="63.578800268235284" lon="10.893828138077787" id="-31495">
		<tag k="name" v="Aunås" />
		<tag k="place" v="farm" />
		<tag k="ssr:stedsnr" v="228587" />
	</node>
	<node lat="63.593268679826906" lon="10.899684131258232" id="-31496">
		<tag k="name" v="Framnes" />
		<tag k="place" v="farm" />
		<tag k="ssr:stedsnr" v="228836" />
	</node>
	<node lat="63.61231388821684" lon="11.050599996258764" id="-31499">
		<tag k="leisure" v="pitch" />
		<tag k="name" v="Reithaug" />
		<tag k="ssr:stedsnr" v="229138" />
	</node>
	<node lat="63.684744443047805" lon="11.0736910432466" id="-31500">
		<tag k="name" v="Kjølmoen" />
		<tag k="place" v="isolated_dwelling" />
		<tag k="ssr:stedsnr" v="229187" />
	</node>
	<node lat="63.675163890593026" lon="11.219777782825066" id="-31510">
		<tag k="name" v="Soltun" />
		<tag k="place" v="farm" />
		<tag k="ssr:stedsnr" v="231435" />
	</node>
	<node lat="63.606490535260996" lon="11.104082366347386" id="-31513">
		<tag k="name" v="Mossingan" />
		<tag k="place" v="hamlet" />
		<tag k="ssr:stedsnr" v="450332" />
	</node>
	<node lat="63.58890034938166" lon="11.019758579370889" id="-31514">
		<tag k="fixme" v="consider place=hamlet" />
		<tag k="name" v="Vordalen" />
		<tag k="place" v="farm" />
		<tag k="ssr:stedsnr" v="450335" />
	</node>
	<node lat="63.760227774352956" lon="11.441497219649845" id="-31517">
		<tag k="name" v="Moum" />
		<tag k="place" v="isolated_dwelling" />
		<tag k="ssr:stedsnr" v="450496" />
	</node>
	<node lat="63.75943055801556" lon="11.449772212308249" id="-31518">
		<tag k="name" v="Øver-Rinnan" />
		<tag k="place" v="farm" />
		<tag k="ssr:stedsnr" v="450527" />
	</node>
	<node lat="63.66393889109045" lon="11.221908330759264" id="-31520">
		<tag k="name" v="Finne" />
		<tag k="place" v="farm" />
		<tag k="ssr:stedsnr" v="241231" />
	</node>
	<node lat="63.59826702064116" lon="11.539769351457464" id="-31521">
		<tag k="alt_name" v="Branokhytta" />
		<tag k="fixme" v="consider tourism=alpine_hut or tourism=chalet" />
		<tag k="name" v="Branok" />
		<tag k="ssr:stedsnr" v="241909" />
		<tag k="tourism" v="wilderness_hut" />
	</node>
	<node lat="63.79022735922801" lon="11.092870876400289" id="-31522">
		<tag k="name" v="Jørstad" />
		<tag k="place" v="hamlet" />
		<tag k="ssr:stedsnr" v="451391" />
	</node>
	<node lat="63.65926389106171" lon="11.55749444518503" id="-31525">
		<tag k="historic" v="shieling" />
		<tag k="name" v="Tingstadbustad" />
		<tag k="place" v="isolated_dwelling" />
		<tag k="ssr:stedsnr" v="451429" />
	</node>
	<node lat="63.69361666743984" lon="11.035225002791917" id="-31531">
		<tag k="alt_name" v="Falstad, nedre" />
		<tag k="name" v="Nedre Falstad" />
		<tag k="place" v="farm" />
		<tag k="ssr:stedsnr" v="255077" />
	</node>
	<node lat="63.694658058911536" lon="11.066102835798187" id="-31532">
		<tag k="name" v="Gustad" />
		<tag k="place" v="hamlet" />
		<tag k="ssr:stedsnr" v="255079" />
	</node>
	<node lat="63.69940833086423" lon="11.098758328061228" id="-31533">
		<tag k="name" v="Haug" />
		<tag k="place" v="farm" />
		<tag k="ssr:stedsnr" v="255105" />
	</node>
	<node lat="63.710779536550255" lon="11.207864615151365" id="-31534">
		<tag k="fixme" v="consider place=hamlet" />
		<tag k="name" v="Støre" />
		<tag k="place" v="farm" />
		<tag k="ssr:stedsnr" v="255168" />
	</node>
	<node lat="63.70497500328912" lon="11.423602769355934" id="-31537">
		<tag k="alt_name" v="Høgsve" />
		<tag k="name" v="Høgsveet" />
		<tag k="place" v="farm" />
		<tag k="ssr:stedsnr" v="255569" />
	</node>
	<node lat="63.697410701936235" lon="11.258023283410653" id="-31538">
		<tag k="fixme" v="consider place=hamlet" />
		<tag k="name" v="Høyslo" />
		<tag k="place" v="farm" />
		<tag k="ssr:stedsnr" v="255578" />
	</node>
	<node lat="63.71989444301031" lon="11.227147230746146" id="-31539">
		<tag k="name" v="Myrstad" />
		<tag k="place" v="farm" />
		<tag k="ssr:stedsnr" v="255602" />
	</node>
	<node lat="63.743441666437356" lon="11.396561112426587" id="-31540">
		<tag k="name" v="Geitsete" />
		<tag k="place" v="farm" />
		<tag k="ssr:stedsnr" v="255675" />
	</node>
	<node lat="63.60487222173852" lon="11.092733330016168" id="-31541">
		<tag k="name" v="Åsvoll" />
		<tag k="place" v="farm" />
		<tag k="ssr:stedsnr" v="255911" />
	</node>
	<node lat="63.59647222005385" lon="11.12709722512101" id="-31542">
		<tag k="name" v="Hojem" />
		<tag k="place" v="farm" />
		<tag k="ssr:stedsnr" v="255913" />
	</node>
	<node lat="63.63775602655517" lon="11.086130102832913" id="-31544">
		<tag k="fixme" v="consider place=hamlet" />
		<tag k="name" v="Skjelstad" />
		<tag k="place" v="farm" />
		<tag k="ssr:stedsnr" v="255971" />
	</node>
	<node lat="63.68693055813164" lon="11.206088891505797" id="-31545">
		<tag k="name" v="Heggstad" />
		<tag k="place" v="farm" />
		<tag k="ssr:stedsnr" v="256104" />
	</node>
	<node lat="63.65659166386073" lon="11.109480549742583" id="-31546">
		<tag k="name" v="Nes" />
		<tag k="place" v="farm" />
		<tag k="ssr:stedsnr" v="256164" />
	</node>
	<node lat="63.71263611334633" lon="11.212669441416846" id="-31547">
		<tag k="name" v="Vanderås" />
		<tag k="place" v="farm" />
		<tag k="ssr:stedsnr" v="256177" />
	</node>
	<node lat="63.639277780305264" lon="11.376444454401561" id="-31551">
		<tag k="name" v="Hegglivollen" />
		<tag k="place" v="isolated_dwelling" />
		<tag k="ssr:stedsnr" v="256479" />
	</node>
	<node lat="63.76122431183846" lon="11.059385993356008" id="-31552">
		<tag k="fixme" v="consider place=hamlet" />
		<tag k="name" v="Naust" />
		<tag k="place" v="farm" />
		<tag k="ssr:stedsnr" v="256768" />
	</node>
	<node lat="63.71786389252167" lon="11.214963884968324" id="-31555">
		<tag k="name" v="Ensomhet" />
		<tag k="place" v="farm" />
		<tag k="ssr:stedsnr" v="265526" />
	</node>
	<node lat="63.70977463473346" lon="11.191829669359873" id="-31556">
		<tag k="fixme" v="consider place=hamlet" />
		<tag k="name" v="Oversanden" />
		<tag k="place" v="farm" />
		<tag k="ssr:stedsnr" v="265530" />
	</node>
	<node lat="63.72889444174468" lon="11.329755559141278" id="-31557">
		<tag k="name" v="Skogly" />
		<tag k="place" v="farm" />
		<tag k="ssr:stedsnr" v="265605" />
	</node>
	<node lat="63.69503610879257" lon="11.279686105498408" id="-31559">
		<tag k="name" v="Finnkallbakken" />
		<tag k="place" v="locality" />
		<tag k="ssr:stedsnr" v="265614" />
	</node>
	<node lat="63.7417833350058" lon="11.28409167083128" id="-31561">
		<tag k="leisure" v="pitch" />
		<tag k="name" v="Levangerhallen" />
		<tag k="ssr:stedsnr" v="265706" />
	</node>
	<node lat="63.76187182240527" lon="11.362414198949475" id="-31564">
		<tag k="name" v="Storbør" />
		<tag k="place" v="hamlet" />
		<tag k="ssr:stedsnr" v="265718" />
	</node>
	<node lat="63.8007556707952" lon="11.186146118778622" id="-31581">
		<tag k="fixme" v="consider place=hamlet" />
		<tag k="name" v="Stangerholt" />
		<tag k="place" v="farm" />
		<tag k="ssr:stedsnr" v="291007" />
	</node>
	<node lat="63.73257777329359" lon="11.119063894222368" id="-31583">
		<tag k="name" v="Olaplassen" />
		<tag k="place" v="locality" />
		<tag k="ssr:stedsnr" v="291078" />
	</node>
	<node lat="63.63954444645143" lon="11.293308329859995" id="-31589">
		<tag k="alt_name" v="Haldberget" />
		<tag k="name" v="Hallberget" />
		<tag k="place" v="farm" />
		<tag k="ssr:stedsnr" v="291525" />
	</node>
	<node lat="63.649845619763234" lon="11.072322760139091" id="-31598">
		<tag k="fixme" v="consider place=hamlet" />
		<tag k="name" v="Hiberg" />
		<tag k="place" v="farm" />
		<tag k="ssr:stedsnr" v="316048" />
	</node>
	<node lat="63.66071389216214" lon="10.994005561907208" id="-31600">
		<tag k="alt_name" v="Avdalen, nordre" />
		<tag k="name" v="Nordre Avdalen" />
		<tag k="place" v="farm" />
		<tag k="ssr:stedsnr" v="316054" />
	</node>
	<node lat="63.70635555506102" lon="11.52563054985899" id="-31606">
		<tag k="name" v="Buraunet" />
		<tag k="place" v="farm" />
		<tag k="ssr:stedsnr" v="316610" />
	</node>
	<node lat="63.71938446760038" lon="11.315560460610739" id="-31607">
		<tag k="fixme" v="consider place=hamlet" />
		<tag k="name" v="Matberg" />
		<tag k="place" v="farm" />
		<tag k="ssr:stedsnr" v="316652" />
	</node>
	<node lat="63.725350002875935" lon="11.307644453317437" id="-31608">
		<tag k="name" v="Halset" />
		<tag k="place" v="farm" />
		<tag k="ssr:stedsnr" v="316657" />
	</node>
	<node lat="63.72340555380259" lon="11.305502776457494" id="-31609">
		<tag k="name" v="Halsaunet" />
		<tag k="place" v="farm" />
		<tag k="ssr:stedsnr" v="316659" />
	</node>
	<node lat="63.74125445982894" lon="11.366302701466893" id="-31610">
		<tag k="name" v="Øvre Gran" />
		<tag k="place" v="farm" />
		<tag k="ssr:stedsnr" v="316707" />
	</node>
	<node lat="63.73689166795583" lon="11.379513892181295" id="-31611">
		<tag k="name" v="Skjelstad" />
		<tag k="place" v="farm" />
		<tag k="ssr:stedsnr" v="316710" />
	</node>
	<node lat="63.58054722331526" lon="10.909766675036154" id="-31613">
		<tag k="name" v="Vestre Undlinan" />
		<tag k="place" v="farm" />
		<tag k="ssr:stedsnr" v="316910" />
	</node>
	<node lat="63.67089476841017" lon="11.126707162680052" id="-31614">
		<tag k="fixme" v="consider place=hamlet" />
		<tag k="name" v="Skjele" />
		<tag k="place" v="farm" />
		<tag k="ssr:stedsnr" v="317015" />
	</node>
	<node lat="63.61987221948985" lon="11.20320833616657" id="-31615">
		<tag k="alt_name" v="Aspås, austre" />
		<tag k="fixme" v="multiple name tags, choose one and add the other to alt_name" />
		<tag k="name" v="Aspås;Austre Aspås" />
		<tag k="place" v="farm" />
		<tag k="ssr:stedsnr" v="316949" />
	</node>
	<node lat="63.786872219715335" lon="11.097663893782233" id="-31616">
		<tag k="name" v="Haugen" />
		<tag k="place" v="farm" />
		<tag k="ssr:stedsnr" v="317704" />
	</node>
	<node lat="63.75360653235206" lon="11.02411414516041" id="-31618">
		<tag k="fixme" v="consider place=hamlet" />
		<tag k="name" v="Øver-Myr" />
		<tag k="place" v="farm" />
		<tag k="ssr:stedsnr" v="317917" />
	</node>
	<node lat="63.74988396100703" lon="11.030868796885446" id="-31619">
		<tag k="name" v="Øver-Grav" />
		<tag k="place" v="farm" />
		<tag k="ssr:stedsnr" v="317922" />
	</node>
	<node lat="63.75228100521952" lon="11.022686072239761" id="-31620">
		<tag k="fixme" v="consider place=hamlet" />
		<tag k="name" v="Ner-Myr" />
		<tag k="place" v="farm" />
		<tag k="ssr:stedsnr" v="317923" />
	</node>
	<node lat="63.7957833335638" lon="11.140641669203383" id="-31621">
		<tag k="name" v="Strandheim" />
		<tag k="place" v="farm" />
		<tag k="ssr:stedsnr" v="317804" />
	</node>
	<node lat="63.79809352375764" lon="11.053856196469726" id="-31622">
		<tag k="fixme" v="consider place=hamlet" />
		<tag k="name" v="Sålåter" />
		<tag k="place" v="farm" />
		<tag k="ssr:stedsnr" v="317813" />
	</node>
	<node lat="63.614635941609684" lon="10.943656432727181" id="-31623">
		<tag k="fixme" v="consider place=hamlet" />
		<tag k="name" v="Leangan" />
		<tag k="place" v="farm" />
		<tag k="ssr:stedsnr" v="467724" />
	</node>
	<node lat="63.708194442211614" lon="11.219274997983794" id="-31628">
		<tag k="name" v="Myran" />
		<tag k="place" v="farm" />
		<tag k="ssr:stedsnr" v="325519" />
	</node>
	<node lat="63.72999722176865" lon="11.306186118266751" id="-31630">
		<tag k="fixme" v="multiple name tags, choose one and add the other to alt_name" />
		<tag k="name" v="Halsan;Austre Halsan" />
		<tag k="place" v="farm" />
		<tag k="ssr:stedsnr" v="325633" />
	</node>
	<node lat="63.72939722348197" lon="11.318955559268511" id="-31632">
		<tag k="name" v="Øver-Halsan" />
		<tag k="place" v="farm" />
		<tag k="ssr:stedsnr" v="325638" />
	</node>
	<node lat="63.72550277659584" lon="11.263683327453958" id="-31633">
		<tag k="name" v="Nordmarka" />
		<tag k="place" v="quarter" />
		<tag k="ssr:stedsnr" v="325613" />
	</node>
	<node lat="63.74109166489948" lon="11.402286117817201" id="-31637">
		<tag k="name" v="Litl-Hojem" />
		<tag k="place" v="farm" />
		<tag k="ssr:stedsnr" v="325707" />
	</node>
	<node lat="63.78369086710287" lon="11.117960121643774" id="-31643">
		<tag k="name" v="Vannsvika" />
		<tag k="place" v="hamlet" />
		<tag k="ssr:stedsnr" v="329368" />
	</node>
	<node lat="63.77486110732952" lon="11.100058323018192" id="-31644">
		<tag k="fixme" v="multiple name tags, choose one and add the other to alt_name" />
		<tag k="name" v="Brenne;Ytter-Brenne" />
		<tag k="place" v="farm" />
		<tag k="ssr:stedsnr" v="329370" />
	</node>
	<node lat="63.672241301557236" lon="11.134076787484796" id="-31649">
		<tag k="name" v="Hellan" />
		<tag k="place" v="isolated_dwelling" />
		<tag k="ssr:stedsnr" v="472234" />
	</node>
	<node lat="63.596977140509225" lon="10.97253312073411" id="-31651">
		<tag k="name" v="Solheim" />
		<tag k="place" v="farm" />
		<tag k="ssr:stedsnr" v="471543" />
	</node>
	<node lat="63.5904792418429" lon="10.962085905967795" id="-31652">
		<tag k="name" v="Brakstadbakken" />
		<tag k="place" v="farm" />
		<tag k="ssr:stedsnr" v="471546" />
	</node>
	<node lat="63.58592096344211" lon="10.907726849841174" id="-31653">
		<tag k="name" v="Undlidalen" />
		<tag k="place" v="farm" />
		<tag k="ssr:stedsnr" v="471809" />
	</node>
	<node lat="63.59516783742668" lon="10.906545511715906" id="-31654">
		<tag k="name" v="Tinbua" />
		<tag k="place" v="locality" />
		<tag k="ssr:stedsnr" v="471813" />
	</node>
	<node lat="63.79157500183711" lon="11.045158335903519" id="-31667">
		<tag k="name" v="Brubakken" />
		<tag k="place" v="locality" />
		<tag k="ssr:stedsnr" v="473123" />
	</node>
	<node lat="63.6566194461458" lon="11.294600004019179" id="-31673">
		<tag k="name" v="Åsgårdan" />
		<tag k="place" v="locality" />
		<tag k="ssr:stedsnr" v="473444" />
	</node>
	<node lat="63.67418055832109" lon="11.132494441777753" id="-31688">
		<tag k="name" v="Skjelesmoen" />
		<tag k="place" v="farm" />
		<tag k="ssr:stedsnr" v="350219" />
	</node>
	<node lat="63.801036114193494" lon="11.182188894849045" id="-31690">
		<tag k="name" v="Forberg" />
		<tag k="place" v="hamlet" />
		<tag k="ssr:stedsnr" v="351008" />
	</node>
	<node lat="63.70094166390654" lon="10.999002775147698" id="-31701">
		<tag k="name" v="Langfallet" />
		<tag k="place" v="farm" />
		<tag k="ssr:stedsnr" v="376090" />
	</node>
	<node lat="63.704319442245186" lon="11.010416661308854" id="-31702">
		<tag k="name" v="Søre Vestran" />
		<tag k="place" v="farm" />
		<tag k="ssr:stedsnr" v="376092" />
	</node>
	<node lat="63.75696588284632" lon="11.360913720250984" id="-31703">
		<tag k="fixme" v="consider place=hamlet" />
		<tag k="name" v="Seter" />
		<tag k="place" v="farm" />
		<tag k="ssr:stedsnr" v="378375" />
	</node>
	<node lat="63.75770000217603" lon="11.221822215557363" id="-31704">
		<tag k="name" v="Strandlia" />
		<tag k="place" v="farm" />
		<tag k="ssr:stedsnr" v="378376" />
	</node>
	<node lat="63.78178817249729" lon="11.094406968431114" id="-31705">
		<tag k="fixme" v="consider place=hamlet" />
		<tag k="name" v="Skjerve" />
		<tag k="place" v="farm" />
		<tag k="ssr:stedsnr" v="378812" />
	</node>
	<node lat="63.6962750816541" lon="11.147416487802545" id="-31706">
		<tag k="name" v="Rennan" />
		<tag k="place" v="hamlet" />
		<tag k="ssr:stedsnr" v="482230" />
	</node>
	<node lat="63.69752455739357" lon="11.072505824493449" id="-31709">
		<tag k="fixme" v="consider place=hamlet" />
		<tag k="name" v="Holaunet" />
		<tag k="place" v="farm" />
		<tag k="ssr:stedsnr" v="386522" />
	</node>
	<node lat="63.7444457429831" lon="11.2665581897827" id="-31713">
		<tag k="fixme" v="consider place=hamlet" />
		<tag k="name" v="Eidslia" />
		<tag k="place" v="farm" />
		<tag k="ssr:stedsnr" v="386649" />
	</node>
	<node lat="63.74253055784186" lon="11.298936115693468" id="-31714">
		<tag k="name" v="Brusveet" />
		<tag k="place" v="quarter" />
		<tag k="ssr:stedsnr" v="386656" />
	</node>
	<node lat="63.72411110906584" lon="11.362391663090563" id="-31715">
		<tag k="name" v="Høgaunet" />
		<tag k="place" v="farm" />
		<tag k="ssr:stedsnr" v="386600" />
	</node>
	<node lat="63.74751944580021" lon="11.213675003909067" id="-31716">
		<tag k="name" v="Sandmo" />
		<tag k="place" v="isolated_dwelling" />
		<tag k="ssr:stedsnr" v="386704" />
	</node>
	<node lat="63.73201388664505" lon="11.228580559124856" id="-31717">
		<tag k="name" v="Prestsveet" />
		<tag k="place" v="farm" />
		<tag k="ssr:stedsnr" v="386705" />
	</node>
	<node lat="63.63021521272641" lon="11.047314896446709" id="-31724">
		<tag k="fixme" v="consider place=hamlet" />
		<tag k="name" v="Sandan" />
		<tag k="place" v="village" />
		<tag k="ssr:stedsnr" v="410149" />
	</node>
	<node lat="63.59228113895491" lon="10.893199167264907" id="-31725">
		<tag k="name" v="Langøya" />
		<tag k="place" v="farm" />
		<tag k="ssr:stedsnr" v="410804" />
	</node>
	<node lat="63.58636934580373" lon="10.923740585678926" id="-31732">
		<tag k="name" v="Hæggerås" />
		<tag k="place" v="farm" />
		<tag k="ssr:stedsnr" v="411515" />
	</node>
	<node lat="63.68981944175246" lon="10.933130554447272" id="-31736">
		<tag k="name" v="Båthaugen" />
		<tag k="place" v="locality" />
		<tag k="ssr:stedsnr" v="413338" />
	</node>
	<node lat="63.63150277444079" lon="11.184197216584868" id="-31737">
		<tag k="name" v="Åsheim" />
		<tag k="place" v="farm" />
		<tag k="ssr:stedsnr" v="413499" />
	</node>
	<node lat="63.65385278137051" lon="11.426877786805802" id="-31739">
		<tag k="historic" v="shieling" />
		<tag k="name" v="Naustvollen" />
		<tag k="place" v="isolated_dwelling" />
		<tag k="ssr:stedsnr" v="413802" />
	</node>
	<node lat="63.67609166359694" lon="11.234911108090316" id="-31740">
		<tag k="name" v="Søre Brenne" />
		<tag k="place" v="farm" />
		<tag k="ssr:stedsnr" v="419004" />
	</node>
	<node lat="63.69674999935588" lon="10.96799165768309" id="-31741">
		<tag k="name" v="Vestre Finnsvika" />
		<tag k="place" v="farm" />
		<tag k="ssr:stedsnr" v="437109" />
	</node>
	<node lat="63.70348055775141" lon="11.092905547093881" id="-31742">
		<tag k="name" v="Sjøenget" />
		<tag k="place" v="farm" />
		<tag k="ssr:stedsnr" v="437123" />
	</node>
	<node lat="63.73617024637309" lon="11.505465923580251" id="-31743">
		<tag k="name" v="Gustad" />
		<tag k="place" v="hamlet" />
		<tag k="ssr:stedsnr" v="437653" />
	</node>
	<node lat="63.6023333335728" lon="10.995722217990489" id="-31744">
		<tag k="alt_name" v="Hellem, austre" />
		<tag k="name" v="Austre Hellem" />
		<tag k="place" v="farm" />
		<tag k="ssr:stedsnr" v="437855" />
	</node>
	<node lat="63.63318888748087" lon="11.136927768834097" id="-31745">
		<tag k="name" v="Torsveet" />
		<tag k="place" v="farm" />
		<tag k="ssr:stedsnr" v="438000" />
	</node>
	<node lat="63.66245555883452" lon="11.154330553771095" id="-31746">
		<tag k="name" v="Storsveet" />
		<tag k="place" v="farm" />
		<tag k="ssr:stedsnr" v="438012" />
	</node>
	<node lat="63.689049996183265" lon="11.031072214568615" id="-31747">
		<tag k="name" v="Tunsvoll" />
		<tag k="place" v="farm" />
		<tag k="ssr:stedsnr" v="438063" />
	</node>
	<node lat="63.63353055150762" lon="11.32425556323994" id="-31748">
		<tag k="alt_name" v="Sollien" />
		<tag k="name" v="Solli" />
		<tag k="place" v="farm" />
		<tag k="ssr:stedsnr" v="438375" />
	</node>
	<node lat="63.71658332906172" lon="11.381727783802466" id="-31752">
		<tag k="name" v="Slåttsveet" />
		<tag k="place" v="farm" />
		<tag k="ssr:stedsnr" v="438599" />
	</node>
	<node lat="63.594908150637515" lon="10.979245938560025" id="-31753">
		<tag k="fixme" v="consider place=hamlet" />
		<tag k="name" v="Voll" />
		<tag k="place" v="farm" />
		<tag k="ssr:stedsnr" v="438853" />
	</node>
	<node lat="63.627319865663495" lon="11.07714240210794" id="-31755">
		<tag k="fixme" v="consider place=hamlet" />
		<tag k="name" v="Holingan" />
		<tag k="place" v="farm" />
		<tag k="ssr:stedsnr" v="438947" />
	</node>
	<node lat="63.62276538530859" lon="11.11576042336799" id="-31757">
		<tag k="alt_name" v="Rugsve" />
		<tag k="name" v="Rugsveet" />
		<tag k="place" v="locality" />
		<tag k="ssr:stedsnr" v="438957" />
	</node>
	<node lat="63.61747777805223" lon="11.191277779606862" id="-31758">
		<tag k="alt_name" v="Aspås, vestre" />
		<tag k="name" v="Vestre Aspås" />
		<tag k="place" v="farm" />
		<tag k="ssr:stedsnr" v="438959" />
	</node>
	<node lat="63.7104388858669" lon="11.197063887213572" id="-31759">
		<tag k="name" v="Fagerstad" />
		<tag k="place" v="farm" />
		<tag k="ssr:stedsnr" v="447506" />
	</node>
	<node lat="63.71695555380812" lon="11.284844454361645" id="-31761">
		<tag k="name" v="Koia" />
		<tag k="place" v="farm" />
		<tag k="ssr:stedsnr" v="447576" />
	</node>
	<node lat="63.71205555893085" lon="11.257061116196757" id="-31763">
		<tag k="name" v="Gilberg" />
		<tag k="place" v="farm" />
		<tag k="ssr:stedsnr" v="447584" />
	</node>
	<node lat="63.70084444108952" lon="11.192863883945043" id="-31764">
		<tag k="leisure" v="pitch" />
		<tag k="name" v="Remyra" />
		<tag k="ssr:stedsnr" v="447471" />
	</node>
	<node lat="63.70175277909023" lon="11.202811111061665" id="-31766">
		<tag k="name" v="Småland" />
		<tag k="place" v="quarter" />
		<tag k="ssr:stedsnr" v="447478" />
	</node>
	<node lat="63.74015833431278" lon="11.413413897103405" id="-31768">
		<tag k="name" v="Sør-Hojem" />
		<tag k="place" v="farm" />
		<tag k="ssr:stedsnr" v="447695" />
	</node>
	<node lat="63.68382473801067" lon="11.075130016473" id="-31769">
		<tag k="name" v="Kjølen" />
		<tag k="place" v="hamlet" />
		<tag k="ssr:stedsnr" v="450315" />
	</node>
	<node lat="63.613902639074915" lon="10.97370767866276" id="-31777">
		<tag k="name" v="Svedjan" />
		<tag k="place" v="isolated_dwelling" />
		<tag k="ssr:stedsnr" v="471802" />
	</node>
	<node lat="63.66212222179199" lon="11.110508326782144" id="-31785">
		<tag k="fixme" v="consider place=hamlet" />
		<tag k="name" v="Valaunet" />
		<tag k="place" v="farm" />
		<tag k="ssr:stedsnr" v="680002" />
	</node>
	<node lat="63.69851925953744" lon="11.199509508633376" id="-31786">
		<tag k="fixme" v="consider place=hamlet" />
		<tag k="name" v="Re" />
		<tag k="place" v="farm" />
		<tag k="ssr:stedsnr" v="680075" />
	</node>
	<node lat="63.68841111475372" lon="11.041455557038647" id="-31787">
		<tag k="name" v="Perssveet" />
		<tag k="place" v="farm" />
		<tag k="ssr:stedsnr" v="680088" />
	</node>
	<node lat="63.69043611021501" lon="11.059330555807206" id="-31788">
		<tag k="name" v="Solbakken" />
		<tag k="place" v="farm" />
		<tag k="ssr:stedsnr" v="680089" />
	</node>
	<node lat="63.67924999804132" lon="11.042383324199712" id="-31791">
		<tag k="alt_name" v="Siem, vestre;Siem vestre" />
		<tag k="name" v="Vestre Siem" />
		<tag k="place" v="farm" />
		<tag k="ssr:stedsnr" v="680142" />
	</node>
	<node lat="63.707786113519866" lon="11.029136105716702" id="-31792">
		<tag k="name" v="Vestre Haugan" />
		<tag k="old_name" v="Haugan, vestre" />
		<tag k="place" v="farm" />
		<tag k="ssr:stedsnr" v="680179" />
	</node>
	<node lat="63.59444444823151" lon="11.694319438158212" id="-31794">
		<tag k="historic" v="shieling" />
		<tag k="name" v="Leirfallsvollen" />
		<tag k="place" v="isolated_dwelling" />
		<tag k="ssr:stedsnr" v="680474" />
	</node>
	<node lat="63.61483055824798" lon="11.271355559997609" id="-31795">
		<tag k="name" v="Sørmo" />
		<tag k="place" v="farm" />
		<tag k="ssr:stedsnr" v="680448" />
	</node>
	<node lat="63.620874997461165" lon="11.291152770432914" id="-31796">
		<tag k="alt_name" v="Storsve" />
		<tag k="name" v="Storsveet" />
		<tag k="place" v="farm" />
		<tag k="ssr:stedsnr" v="680450" />
	</node>
	<node lat="63.61289444332872" lon="11.237811120638664" id="-31797">
		<tag k="alt_name" v="Vinan søndre" />
		<tag k="name" v="Vinan" />
		<tag k="place" v="farm" />
		<tag k="ssr:stedsnr" v="680457" />
	</node>
	<node lat="63.603511107226275" lon="11.432316666080443" id="-31798">
		<tag k="name" v="Alnesvollen" />
		<tag k="place" v="isolated_dwelling" />
		<tag k="ssr:stedsnr" v="680459" />
	</node>
	<node lat="63.63499722122636" lon="11.249605547436314" id="-31800">
		<tag k="name" v="Åvik" />
		<tag k="place" v="farm" />
		<tag k="ssr:stedsnr" v="680578" />
	</node>
	<node lat="63.66561666261713" lon="11.23515555617465" id="-31801">
		<tag k="alt_name" v="Sunde, nedre" />
		<tag k="fixme" v="multiple name tags, choose one and add the other to alt_name" />
		<tag k="name" v="Sunde;Nedre Sunde" />
		<tag k="place" v="farm" />
		<tag k="ssr:stedsnr" v="680584" />
	</node>
	<node lat="63.71453333148853" lon="11.353336115933946" id="-31804">
		<tag k="name" v="Fossen" />
		<tag k="place" v="farm" />
		<tag k="ssr:stedsnr" v="680654" />
	</node>
	<node lat="63.71220555358657" lon="11.335797227829486" id="-31805">
		<tag k="name" v="Åsheim" />
		<tag k="place" v="farm" />
		<tag k="ssr:stedsnr" v="680655" />
	</node>
	<node lat="63.71091944057704" lon="11.383122226057447" id="-31806">
		<tag k="name" v="Nyberg" />
		<tag k="place" v="farm" />
		<tag k="ssr:stedsnr" v="680657" />
	</node>
	<node lat="63.75285202193542" lon="11.231144594792873" id="-31807">
		<tag k="fixme" v="consider place=hamlet" />
		<tag k="name" v="Håa" />
		<tag k="place" v="farm" />
		<tag k="ssr:stedsnr" v="681309" />
	</node>
	<node lat="63.73941666876705" lon="11.336672223067797" id="-31808">
		<tag k="name" v="Lysaker" />
		<tag k="place" v="farm" />
		<tag k="ssr:stedsnr" v="680701" />
	</node>
	<node lat="63.58821944764216" lon="11.018416658416898" id="-31809">
		<tag k="name" v="Vestre Vordalen" />
		<tag k="place" v="farm" />
		<tag k="ssr:stedsnr" v="680855" />
	</node>
	<node lat="63.59272053020471" lon="10.92245130352365" id="-31810">
		<tag k="fixme" v="consider place=hamlet" />
		<tag k="name" v="Lo" />
		<tag k="place" v="farm" />
		<tag k="ssr:stedsnr" v="680879" />
	</node>
	<node lat="63.63419771561063" lon="11.050654261135762" id="-31817">
		<tag k="fixme" v="consider place=hamlet" />
		<tag k="name" v="Risberg" />
		<tag k="place" v="farm" />
		<tag k="ssr:stedsnr" v="680985" />
	</node>
	<node lat="63.6786833365883" lon="11.05374721484083" id="-31821">
		<tag k="alt_name" v="Byaøra" />
		<tag k="name" v="Øra" />
		<tag k="place" v="farm" />
		<tag k="ssr:stedsnr" v="681099" />
	</node>
	<node lat="63.66464741063082" lon="11.197261802180202" id="-31824">
		<tag k="fixme" v="consider place=hamlet" />
		<tag k="name" v="Kjesbu" />
		<tag k="place" v="farm" />
		<tag k="ssr:stedsnr" v="498010" />
	</node>
	<node lat="63.66101167975955" lon="11.191102370278436" id="-31825">
		<tag k="fixme" v="consider place=hamlet" />
		<tag k="name" v="Rosingaunet" />
		<tag k="place" v="farm" />
		<tag k="ssr:stedsnr" v="498012" />
	</node>
	<node lat="63.66493333116761" lon="11.216186117545202" id="-31826">
		<tag k="name" v="Finnstad" />
		<tag k="place" v="farm" />
		<tag k="ssr:stedsnr" v="498013" />
	</node>
	<node lat="63.66158333651534" lon="11.16085833313645" id="-31827">
		<tag k="name" v="Buenget" />
		<tag k="place" v="farm" />
		<tag k="ssr:stedsnr" v="498018" />
	</node>
	<node lat="63.666761995656806" lon="11.039827274641672" id="-31829">
		<tag k="fixme" v="consider place=hamlet" />
		<tag k="name" v="Djupa" />
		<tag k="place" v="farm" />
		<tag k="ssr:stedsnr" v="498001" />
	</node>
	<node lat="63.70489009164253" lon="11.163627451228242" id="-31831">
		<tag k="fixme" v="consider place=hamlet" />
		<tag k="name" v="Holberg" />
		<tag k="place" v="farm" />
		<tag k="ssr:stedsnr" v="498188" />
	</node>
	<node lat="63.72639166290844" lon="11.22022500713819" id="-31834">
		<tag k="name" v="Kårstad" />
		<tag k="place" v="farm" />
		<tag k="ssr:stedsnr" v="498667" />
	</node>
	<node lat="63.72851397253377" lon="11.365991344932093" id="-31835">
		<tag k="alt_name" v="Lilleenget;Lillenget" />
		<tag k="name" v="Litlenget" />
		<tag k="place" v="farm" />
		<tag k="ssr:stedsnr" v="498668" />
	</node>
	<node lat="63.73033055683664" lon="11.431311103645415" id="-31836">
		<tag k="alt_name" v="Segtnan, litle;Litl Segtnan" />
		<tag k="name" v="Litle Segtnan" />
		<tag k="place" v="farm" />
		<tag k="ssr:stedsnr" v="498671" />
	</node>
	<node lat="63.62772221831482" lon="11.560977775041108" id="-31837">
		<tag k="name" v="Heglesvollen" />
		<tag k="place" v="isolated_dwelling" />
		<tag k="ssr:stedsnr" v="681376" />
	</node>
	<node lat="63.63064722239272" lon="11.303608337677705" id="-31840">
		<tag k="name" v="Sørheim" />
		<tag k="place" v="farm" />
		<tag k="ssr:stedsnr" v="681388" />
	</node>
	<node lat="63.58863888648593" lon="11.01592778637837" id="-31841">
		<tag k="name" v="Midtre Vordalen" />
		<tag k="place" v="farm" />
		<tag k="ssr:stedsnr" v="498840" />
	</node>
	<node lat="63.75127499584418" lon="11.454991663367485" id="-31843">
		<tag k="name" v="Holman" />
		<tag k="place" v="farm" />
		<tag k="ssr:stedsnr" v="499261" />
	</node>
	<node lat="63.75196966574971" lon="11.40462304514197" id="-31844">
		<tag k="fixme" v="consider place=hamlet" />
		<tag k="name" v="Grevskott" />
		<tag k="place" v="farm" />
		<tag k="ssr:stedsnr" v="499263" />
	</node>
	<node lat="63.762824999822236" lon="11.404944448093753" id="-31846">
		<tag k="name" v="Marienborg" />
		<tag k="place" v="farm" />
		<tag k="ssr:stedsnr" v="681350" />
	</node>
	<node lat="63.7613670396234" lon="11.438414407580686" id="-31847">
		<tag k="fixme" v="consider place=hamlet" />
		<tag k="name" v="Rinnan" />
		<tag k="place" v="village" />
		<tag k="ssr:stedsnr" v="681351" />
	</node>
	<node lat="63.62812433678339" lon="11.33851509060606" id="-31848">
		<tag k="fixme" v="consider place=hamlet" />
		<tag k="name" v="Fraubakken" />
		<tag k="place" v="farm" />
		<tag k="ssr:stedsnr" v="681395" />
	</node>
	<node lat="63.77309722133651" lon="11.060486101270056" id="-31849">
		<tag k="name" v="Vaksdal" />
		<tag k="place" v="farm" />
		<tag k="ssr:stedsnr" v="499744" />
	</node>
	<node lat="63.80596458377736" lon="11.205279935103684" id="-31850">
		<tag k="name" v="Barstad" />
		<tag k="old_name" v="Storsveet, øvre;Øvre Storsveet" />
		<tag k="place" v="farm" />
		<tag k="ssr:stedsnr" v="499795" />
	</node>
	<node lat="63.8059155054042" lon="11.19545188600974" id="-31851">
		<tag k="fixme" v="consider place=hamlet" />
		<tag k="name" v="Falstad" />
		<tag k="place" v="farm" />
		<tag k="ssr:stedsnr" v="499798" />
	</node>
	<node lat="63.80371388641816" lon="11.176058330690422" id="-31852">
		<tag k="name" v="Vester-Verås" />
		<tag k="place" v="farm" />
		<tag k="ssr:stedsnr" v="499800" />
	</node>
	<node lat="63.77565555210373" lon="11.089100007927604" id="-31853">
		<tag k="name" v="Øver-Bjørvika" />
		<tag k="place" v="farm" />
		<tag k="ssr:stedsnr" v="681784" />
	</node>
	<node lat="63.79680555998168" lon="11.1974555493128" id="-31855">
		<tag k="name" v="Sandnes" />
		<tag k="place" v="farm" />
		<tag k="ssr:stedsnr" v="681883" />
	</node>
	<node lat="63.76413055842132" lon="11.27406111631666" id="-31858">
		<tag k="name" v="Vikan" />
		<tag k="place" v="farm" />
		<tag k="ssr:stedsnr" v="507566" />
	</node>
	<node lat="63.74070277788402" lon="11.262705562766254" id="-31862">
		<tag k="name" v="Sand" />
		<tag k="place" v="farm" />
		<tag k="ssr:stedsnr" v="507664" />
	</node>
	<node lat="63.61936178744625" lon="11.200742789490866" id="-31863">
		<tag k="fixme" v="consider place=hamlet" />
		<tag k="name" v="Aspås" />
		<tag k="place" v="farm" />
		<tag k="ssr:stedsnr" v="510359" />
	</node>
	<node lat="63.67615555484065" lon="11.545080560551925" id="-31867">
		<tag k="alt_name" v="Storlia" />
		<tag k="historic" v="shieling" />
		<tag k="name" v="Storlivollen" />
		<tag k="place" v="isolated_dwelling" />
		<tag k="ssr:stedsnr" v="511397" />
	</node>
	<node lat="63.76188332898525" lon="11.449327778702404" id="-31868">
		<tag k="alt_name" v="Rinnan midtre" />
		<tag k="name" v="Midt-Rinnan" />
		<tag k="old_name" v="Rindan mellem" />
		<tag k="place" v="farm" />
		<tag k="ssr:stedsnr" v="511506" />
	</node>
	<node lat="63.7660166684995" lon="11.447597232051205" id="-31869">
		<tag k="alt_name" v="Rinnan nedre" />
		<tag k="name" v="Ner-Rinnan" />
		<tag k="place" v="farm" />
		<tag k="ssr:stedsnr" v="511507" />
	</node>
	<node lat="63.751376244593864" lon="11.329008495718677" id="-31872">
		<tag k="name" v="Røstad" />
		<tag k="place" v="hamlet" />
		<tag k="ssr:stedsnr" v="512324" />
	</node>
	<node lat="63.61706111096157" lon="11.097097214115344" id="-31874">
		<tag k="fixme" v="consider place=hamlet" />
		<tag k="name" v="Husby" />
		<tag k="place" v="village" />
		<tag k="ssr:stedsnr" v="531117" />
	</node>
	<node lat="63.62054999563646" lon="11.091002784848996" id="-31875">
		<tag k="name" v="Storsveberget" />
		<tag k="place" v="farm" />
		<tag k="ssr:stedsnr" v="531118" />
	</node>
	<node lat="63.665958329254984" lon="11.222202774915106" id="-31891">
		<tag k="name" v="Ner-Finne" />
		<tag k="place" v="farm" />
		<tag k="ssr:stedsnr" v="534402" />
	</node>
	<node lat="63.69393055248607" lon="10.943005555556354" id="-31893">
		<tag k="name" v="Laupsjøenget" />
		<tag k="place" v="isolated_dwelling" />
		<tag k="ssr:stedsnr" v="534316" />
	</node>
	<node lat="63.638094892563885" lon="11.24776523145022" id="-31895">
		<tag k="fixme" v="consider place=hamlet" />
		<tag k="name" v="Naustberget" />
		<tag k="place" v="farm" />
		<tag k="ssr:stedsnr" v="534520" />
	</node>
	<node lat="63.70186876309896" lon="11.144589686213306" id="-31898">
		<tag k="fixme" v="consider place=hamlet" />
		<tag k="name" v="Hottran" />
		<tag k="place" v="farm" />
		<tag k="ssr:stedsnr" v="558114" />
	</node>
	<node lat="63.69922499643808" lon="10.985827783463174" id="-31899">
		<tag k="name" v="Bakkheim" />
		<tag k="place" v="farm" />
		<tag k="ssr:stedsnr" v="558100" />
	</node>
	<node lat="63.61680767739887" lon="11.228259888830214" id="-31901">
		<tag k="fixme" v="consider place=hamlet" />
		<tag k="name" v="Vinan" />
		<tag k="place" v="farm" />
		<tag k="ssr:stedsnr" v="558415" />
	</node>
	<node lat="63.618127773563096" lon="11.286975003420654" id="-31902">
		<tag k="name" v="Granmo" />
		<tag k="place" v="isolated_dwelling" />
		<tag k="ssr:stedsnr" v="558417" />
	</node>
	<node lat="63.700316662827895" lon="11.284863896325962" id="-31904">
		<tag k="name" v="Haugen" />
		<tag k="place" v="farm" />
		<tag k="ssr:stedsnr" v="558604" />
	</node>
	<node lat="63.72144722625971" lon="11.480436118446125" id="-31905">
		<tag k="name" v="Brannhaugen" />
		<tag k="place" v="farm" />
		<tag k="ssr:stedsnr" v="558645" />
	</node>
	<node lat="63.71810000144845" lon="11.489930559970336" id="-31906">
		<tag k="name" v="Nybø" />
		<tag k="place" v="farm" />
		<tag k="ssr:stedsnr" v="558648" />
	</node>
	<node lat="63.717783331643744" lon="11.447041657035703" id="-31907">
		<tag k="alt_name" v="Ner-Kolberg" />
		<tag k="name" v="Kolbergneset" />
		<tag k="place" v="farm" />
		<tag k="ssr:stedsnr" v="558650" />
	</node>
	<node lat="63.70744444102837" lon="11.46158333173619" id="-31908">
		<tag k="alt_name" v="Buåsen" />
		<tag k="name" v="Buås" />
		<tag k="place" v="farm" />
		<tag k="ssr:stedsnr" v="558592" />
	</node>
	<node lat="63.7022944463593" lon="11.45434999974806" id="-31909">
		<tag k="name" v="Myrås" />
		<tag k="place" v="farm" />
		<tag k="ssr:stedsnr" v="558593" />
	</node>
	<node lat="63.64863763229403" lon="10.969136431454682" id="-31911">
		<tag k="name" v="Markhusan" />
		<tag k="place" v="hamlet" />
		<tag k="ssr:stedsnr" v="559038" />
	</node>
	<node lat="63.6526250015461" lon="11.204372213919227" id="-31912">
		<tag k="name" v="Jøssåsen" />
		<tag k="place" v="farm" />
		<tag k="ssr:stedsnr" v="559045" />
	</node>
	<node lat="63.646130558715676" lon="11.071394444111377" id="-31913">
		<tag k="alt_name" v="Nonstad, austre;Nonstad østre" />
		<tag k="name" v="Austre Nonstad" />
		<tag k="place" v="farm" />
		<tag k="ssr:stedsnr" v="559052" />
	</node>
	<node lat="63.63498174303178" lon="11.269832632900533" id="-31914">
		<tag k="fixme" v="consider place=hamlet" />
		<tag k="name" v="Buran" />
		<tag k="place" v="farm" />
		<tag k="ssr:stedsnr" v="559511" />
	</node>
	<node lat="63.64055277776398" lon="11.240058337966184" id="-31917">
		<tag k="name" v="Vollan" />
		<tag k="place" v="farm" />
		<tag k="ssr:stedsnr" v="559490" />
	</node>
	<node lat="63.64620845682044" lon="11.224085171442779" id="-31918">
		<tag k="alt_name" v="Myren" />
		<tag k="fixme" v="consider place=hamlet" />
		<tag k="name" v="Myra" />
		<tag k="place" v="farm" />
		<tag k="ssr:stedsnr" v="559493" />
	</node>
	<node lat="63.6392726090101" lon="11.282930724425999" id="-31919">
		<tag k="fixme" v="consider place=hamlet" />
		<tag k="name" v="Hallan" />
		<tag k="place" v="farm" />
		<tag k="ssr:stedsnr" v="559499" />
	</node>
	<node lat="63.57482987970535" lon="10.978222894157753" id="-31920">
		<tag k="fixme" v="consider place=hamlet" />
		<tag k="name" v="Vuddu" />
		<tag k="place" v="farm" />
		<tag k="ssr:stedsnr" v="559835" />
	</node>
	<node lat="63.595338892256784" lon="10.937544448879782" id="-31921">
		<tag k="name" v="Holte" />
		<tag k="place" v="farm" />
		<tag k="ssr:stedsnr" v="559841" />
	</node>
	<node lat="63.61278168722136" lon="11.063247934636872" id="-31923">
		<tag k="fixme" v="consider place=hamlet" />
		<tag k="name" v="Fossingan" />
		<tag k="place" v="farm" />
		<tag k="ssr:stedsnr" v="559936" />
	</node>
	<node lat="63.73883332921627" lon="11.248249991098195" id="-31924">
		<tag k="name" v="Fredrikkefryd" />
		<tag k="place" v="farm" />
		<tag k="ssr:stedsnr" v="690687" />
	</node>
	<node lat="63.73914166669981" lon="11.278408325938289" id="-31926">
		<tag k="name" v="Moan Camping" />
		<tag k="ssr:stedsnr" v="690698" />
		<tag k="tourism" v="camp_site" />
	</node>
	<node lat="63.74161944092459" lon="11.257275007929616" id="-31927">
		<tag k="name" v="Sørkleiva" />
		<tag k="place" v="quarter" />
		<tag k="ssr:stedsnr" v="690700" />
	</node>
	<node lat="63.71464444828111" lon="11.353477778126022" id="-31929">
		<tag k="name" v="Langåsfossen" />
		<tag k="place" v="farm" />
		<tag k="ssr:stedsnr" v="690654" />
	</node>
	<node lat="63.698113888148306" lon="11.184563894854984" id="-31930">
		<tag k="name" v="Skogtun" />
		<tag k="place" v="farm" />
		<tag k="ssr:stedsnr" v="690658" />
	</node>
	<node lat="63.75232222647259" lon="11.216602776429962" id="-31931">
		<tag k="name" v="Alstad" />
		<tag k="place" v="farm" />
		<tag k="ssr:stedsnr" v="690660" />
	</node>
	<node lat="63.732711107443805" lon="11.331511115562344" id="-31933">
		<tag k="name" v="Heimtun" />
		<tag k="place" v="farm" />
		<tag k="ssr:stedsnr" v="690670" />
	</node>
	<node lat="63.736322220906736" lon="11.347216667784679" id="-31934">
		<tag k="name" v="Nedre Heir" />
		<tag k="place" v="farm" />
		<tag k="ssr:stedsnr" v="690671" />
	</node>
	<node lat="63.733302776168856" lon="11.350650005853891" id="-31935">
		<tag k="name" v="Nordre Ryan" />
		<tag k="place" v="isolated_dwelling" />
		<tag k="ssr:stedsnr" v="690672" />
	</node>
	<node lat="63.69906388712006" lon="11.218972213083807" id="-31939">
		<tag k="name" v="Øver-Stavlo" />
		<tag k="place" v="farm" />
		<tag k="ssr:stedsnr" v="690550" />
	</node>
	<node lat="63.71168889256014" lon="11.200330555184502" id="-31940">
		<tag k="name" v="Støreslia" />
		<tag k="place" v="farm" />
		<tag k="ssr:stedsnr" v="690573" />
	</node>
	<node lat="63.76055277961036" lon="11.260669437125918" id="-31941">
		<tag k="name" v="Nordfjæra" />
		<tag k="place" v="farm" />
		<tag k="ssr:stedsnr" v="690619" />
	</node>
	<node lat="63.7113972179001" lon="11.033902771997695" id="-31943">
		<tag k="name" v="Nordenget" />
		<tag k="place" v="farm" />
		<tag k="ssr:stedsnr" v="690950" />
	</node>
	<node lat="63.73326389121195" lon="11.344658326711889" id="-31954">
		<tag k="name" v="Nedre Hegle" />
		<tag k="place" v="farm" />
		<tag k="ssr:stedsnr" v="568614" />
	</node>
	<node lat="63.73999444736525" lon="11.305977773145381" id="-31955">
		<tag k="name" v="Kvilstad" />
		<tag k="place" v="farm" />
		<tag k="ssr:stedsnr" v="568620" />
	</node>
	<node lat="63.70183888596296" lon="11.008072231730186" id="-31957">
		<tag k="name" v="Minde" />
		<tag k="place" v="farm" />
		<tag k="ssr:stedsnr" v="568528" />
	</node>
	<node lat="63.71079166935298" lon="11.254688889618816" id="-31958">
		<tag k="name" v="Høyem" />
		<tag k="place" v="farm" />
		<tag k="ssr:stedsnr" v="568579" />
	</node>
	<node lat="63.69786944137803" lon="10.990769447778064" id="-31961">
		<tag k="name" v="Vestli" />
		<tag k="place" v="farm" />
		<tag k="ssr:stedsnr" v="568957" />
	</node>
	<node lat="63.751527776239854" lon="11.335799996643443" id="-31962">
		<tag k="name" v="Øvre Røstadlia" />
		<tag k="place" v="quarter" />
		<tag k="ssr:stedsnr" v="568655" />
	</node>
	<node lat="63.75493333735004" lon="11.33502777900404" id="-31963">
		<tag k="name" v="Søgstad" />
		<tag k="place" v="farm" />
		<tag k="ssr:stedsnr" v="568662" />
	</node>
	<node lat="63.70148332890039" lon="11.034463893084169" id="-31965">
		<tag k="name" v="Øver-Falstad" />
		<tag k="place" v="farm" />
		<tag k="ssr:stedsnr" v="569953" />
	</node>
	<node lat="63.75990277376334" lon="11.437747229717841" id="-31966">
		<tag k="alt_name" v="Salthammar litle" />
		<tag k="name" v="Litle Salthammar" />
		<tag k="place" v="farm" />
		<tag k="ssr:stedsnr" v="693534" />
	</node>
	<node lat="63.75278536339242" lon="11.022732306359531" id="-31973">
		<tag k="fixme" v="consider place=hamlet" />
		<tag k="name" v="Myr" />
		<tag k="place" v="farm" />
		<tag k="ssr:stedsnr" v="694360" />
	</node>
	<node lat="63.566571070755046" lon="10.916217204370884" id="-31976">
		<tag k="name" v="Saltbua" />
		<tag k="place" v="locality" />
		<tag k="ssr:stedsnr" v="592571" />
	</node>
	<node lat="63.627930557623266" lon="11.064997215479783" id="-31994">
		<tag k="name" v="Nordre Hammer" />
		<tag k="place" v="farm" />
		<tag k="ssr:stedsnr" v="601956" />
	</node>
	<node lat="63.68395296785643" lon="11.12452197758709" id="-31995">
		<tag k="fixme" v="consider place=hamlet" />
		<tag k="name" v="Holte" />
		<tag k="place" v="farm" />
		<tag k="ssr:stedsnr" v="619103" />
	</node>
	<node lat="63.68799166434355" lon="11.096052778690304" id="-31997">
		<tag k="name" v="Heimdal" />
		<tag k="place" v="farm" />
		<tag k="ssr:stedsnr" v="619078" />
	</node>
	<node lat="63.60003976013068" lon="11.268355158306159" id="-31999">
		<tag k="alt_name" v="Frigård" />
		<tag k="fixme" v="consider place=hamlet" />
		<tag k="name" v="Frigarden" />
		<tag k="place" v="farm" />
		<tag k="ssr:stedsnr" v="619473" />
	</node>
	<node lat="63.592508335204876" lon="11.418591659726122" id="-32000">
		<tag k="name" v="Rennanvollen" />
		<tag k="place" v="locality" />
		<tag k="ssr:stedsnr" v="619477" />
	</node>
	<node lat="63.71045504419041" lon="11.225590909557132" id="-32001">
		<tag k="name" v="Mellom-Eggen" />
		<tag k="place" v="farm" />
		<tag k="ssr:stedsnr" v="619620" />
	</node>
	<node lat="63.71668333692475" lon="11.240480557496412" id="-32002">
		<tag k="name" v="Viborg" />
		<tag k="place" v="farm" />
		<tag k="ssr:stedsnr" v="619622" />
	</node>
	<node lat="63.67432499934975" lon="11.13909721656949" id="-32007">
		<tag k="name" v="Karlgård" />
		<tag k="place" v="farm" />
		<tag k="ssr:stedsnr" v="620015" />
	</node>
	<node lat="63.673199996397834" lon="11.212138885250312" id="-32008">
		<tag k="name" v="Myrskog" />
		<tag k="place" v="farm" />
		<tag k="ssr:stedsnr" v="620020" />
	</node>
	<node lat="63.656213889827015" lon="11.21210833622222" id="-32011">
		<tag k="name" v="Myrvang" />
		<tag k="place" v="farm" />
		<tag k="ssr:stedsnr" v="620035" />
	</node>
	<node lat="63.617686108432025" lon="10.979466667973352" id="-32012">
		<tag k="name" v="Frigården" />
		<tag k="place" v="isolated_dwelling" />
		<tag k="ssr:stedsnr" v="619973" />
	</node>
	<node lat="63.633772222851015" lon="11.111472230995597" id="-32013">
		<tag k="name" v="Rognås" />
		<tag k="place" v="isolated_dwelling" />
		<tag k="ssr:stedsnr" v="619981" />
	</node>
	<node lat="63.71648452452709" lon="11.202717033267357" id="-32014">
		<tag k="name" v="Jonsborg" />
		<tag k="place" v="farm" />
		<tag k="ssr:stedsnr" v="620171" />
	</node>
	<node lat="63.64418276510016" lon="11.250301396494157" id="-32016">
		<tag k="fixme" v="consider place=hamlet" />
		<tag k="name" v="Langåsan" />
		<tag k="place" v="farm" />
		<tag k="ssr:stedsnr" v="620481" />
	</node>
	<node lat="63.75099391951668" lon="11.398144537475854" id="-32017">
		<tag k="fixme" v="consider place=hamlet" />
		<tag k="name" v="Haugskott" />
		<tag k="place" v="farm" />
		<tag k="ssr:stedsnr" v="620318" />
	</node>
	<node lat="63.80289980723644" lon="11.182578665640857" id="-32018">
		<tag k="name" v="Solstad" />
		<tag k="place" v="farm" />
		<tag k="ssr:stedsnr" v="620818" />
	</node>
	<node lat="63.613849998992116" lon="11.060080564932264" id="-32019">
		<tag k="name" v="Bakken" />
		<tag k="place" v="farm" />
		<tag k="ssr:stedsnr" v="620906" />
	</node>
	<node lat="63.572497220192005" lon="11.190300007095225" id="-32020">
		<tag k="name" v="Øvervollen" />
		<tag k="place" v="farm" />
		<tag k="ssr:stedsnr" v="626851" />
	</node>
	<node lat="63.68868055778323" lon="11.058572229861058" id="-32024">
		<tag k="name" v="Bakken" />
		<tag k="place" v="farm" />
		<tag k="ssr:stedsnr" v="628517" />
	</node>
	<node lat="63.74754999975184" lon="11.309666657880076" id="-32026">
		<tag k="leisure" v="pitch" />
		<tag k="name" v="Elberg" />
		<tag k="ssr:stedsnr" v="628620" />
	</node>
	<node lat="63.74255833539085" lon="11.360188896062379" id="-32027">
		<tag k="name" v="Gransveet" />
		<tag k="place" v="farm" />
		<tag k="ssr:stedsnr" v="628624" />
	</node>
	<node lat="63.739063892525934" lon="11.351147212970332" id="-32028">
		<tag k="name" v="Haugan" />
		<tag k="place" v="farm" />
		<tag k="ssr:stedsnr" v="628626" />
	</node>
	<node lat="63.759208328971475" lon="11.28053611367377" id="-32031">
		<tag k="name" v="Skarpenget" />
		<tag k="place" v="farm" />
		<tag k="ssr:stedsnr" v="628660" />
	</node>
	<node lat="63.69622777999396" lon="11.212475000786084" id="-32035">
		<tag k="name" v="Elvestad" />
		<tag k="place" v="farm" />
		<tag k="ssr:stedsnr" v="628600" />
	</node>
	<node lat="63.730133335102586" lon="11.391405554066168" id="-32037">
		<tag k="name" v="Vestre Munkrøstad" />
		<tag k="place" v="farm" />
		<tag k="ssr:stedsnr" v="628707" />
	</node>
	<node lat="63.713255558882175" lon="11.198344450987488" id="-32040">
		<tag k="name" v="Nordlia" />
		<tag k="place" v="farm" />
		<tag k="ssr:stedsnr" v="629542" />
	</node>
	<node lat="63.630174998641" lon="11.576202778799297" id="-32043">
		<tag k="historic" v="shieling" />
		<tag k="name" v="Mulebustaden" />
		<tag k="place" v="isolated_dwelling" />
		<tag k="ssr:stedsnr" v="632421" />
	</node>
	<node lat="63.726691663557126" lon="11.43636944842125" id="-32046">
		<tag k="name" v="Risholt" />
		<tag k="place" v="farm" />
		<tag k="ssr:stedsnr" v="632345" />
	</node>
	<node lat="63.75033332989499" lon="11.442630549971778" id="-32051">
		<tag k="alt_name" v="Olden øvre" />
		<tag k="name" v="Øver-Olla" />
		<tag k="place" v="isolated_dwelling" />
		<tag k="ssr:stedsnr" v="632523" />
	</node>
	<node lat="63.794041665092635" lon="11.195880550483867" id="-32055">
		<tag k="name" v="Berga" />
		<tag k="place" v="farm" />
		<tag k="ssr:stedsnr" v="652807" />
	</node>
	<node lat="63.60015147760914" lon="11.060996974488285" id="-32057">
		<tag k="name" v="Brannan" />
		<tag k="place" v="farm" />
		<tag k="ssr:stedsnr" v="653389" />
	</node>
	<node lat="63.74229999960806" lon="11.285844435703448" id="-32073">
		<tag k="amenity" v="school" />
		<tag k="name" v="Levanger videregående skole" />
		<tag k="ssr:stedsnr" v="709179" />
	</node>
	<node lat="63.66554167127041" lon="11.16015276989574" id="-32074">
		<tag k="name" v="Lynmo" />
		<tag k="place" v="farm" />
		<tag k="ssr:stedsnr" v="680015" />
	</node>
	<node lat="63.693747219050415" lon="11.234283338669684" id="-32075">
		<tag k="name" v="Blomset" />
		<tag k="place" v="farm" />
		<tag k="ssr:stedsnr" v="680608" />
	</node>
	<node lat="63.69911110786789" lon="11.456269440942467" id="-32076">
		<tag k="name" v="Hogstad" />
		<tag k="place" v="farm" />
		<tag k="ssr:stedsnr" v="680614" />
	</node>
	<node lat="63.70038610994457" lon="11.379433334371477" id="-32077">
		<tag k="name" v="Stokkbakken" />
		<tag k="place" v="farm" />
		<tag k="ssr:stedsnr" v="680620" />
	</node>
	<node lat="63.71219444448574" lon="11.360922224136898" id="-32080">
		<tag k="name" v="Flatåsen" />
		<tag k="place" v="farm" />
		<tag k="ssr:stedsnr" v="680659" />
	</node>
	<node lat="63.71285000282967" lon="11.311713887293617" id="-32081">
		<tag k="name" v="Litlenget" />
		<tag k="place" v="farm" />
		<tag k="ssr:stedsnr" v="680665" />
	</node>
	<node lat="63.72027757075821" lon="11.288827438106948" id="-32082">
		<tag k="fixme" v="consider place=hamlet" />
		<tag k="name" v="Nordmarka" />
		<tag k="place" v="farm" />
		<tag k="ssr:stedsnr" v="680671" />
	</node>
	<node lat="63.72175277466558" lon="11.388566662667065" id="-32083">
		<tag k="name" v="Munkhaugen" />
		<tag k="place" v="farm" />
		<tag k="ssr:stedsnr" v="680678" />
	</node>
	<node lat="63.72111111219006" lon="11.415994442868557" id="-32084">
		<tag k="name" v="Sagmoen" />
		<tag k="place" v="farm" />
		<tag k="ssr:stedsnr" v="680679" />
	</node>
	<node lat="63.73819444426031" lon="11.375105560863949" id="-32085">
		<tag k="name" v="Sveberg" />
		<tag k="place" v="farm" />
		<tag k="ssr:stedsnr" v="680706" />
	</node>
	<node lat="63.58494479995925" lon="10.94624013534238" id="-32086">
		<tag k="fixme" v="consider place=hamlet" />
		<tag k="name" v="Spillset" />
		<tag k="place" v="farm" />
		<tag k="ssr:stedsnr" v="680859" />
	</node>
	<node lat="63.588555552483236" lon="10.958416663040985" id="-32087">
		<tag k="name" v="Spillsetbakken" />
		<tag k="place" v="farm" />
		<tag k="ssr:stedsnr" v="680860" />
	</node>
	<node lat="63.676830558242884" lon="11.105674993600527" id="-32089">
		<tag k="name" v="Åsen" />
		<tag k="place" v="farm" />
		<tag k="ssr:stedsnr" v="681022" />
	</node>
	<node lat="63.75411511210458" lon="11.447604020707919" id="-32092">
		<tag k="fixme" v="consider place=hamlet" />
		<tag k="name" v="Reitan" />
		<tag k="place" v="farm" />
		<tag k="ssr:stedsnr" v="681304" />
	</node>
	<node lat="63.79811389199556" lon="11.163908341063065" id="-32093">
		<tag k="name" v="Hokstad" />
		<tag k="place" v="isolated_dwelling" />
		<tag k="ssr:stedsnr" v="681855" />
	</node>
	<node lat="63.6070037387403" lon="10.988657080831914" id="-32094">
		<tag k="name" v="Støa" />
		<tag k="place" v="farm" />
		<tag k="ssr:stedsnr" v="681856" />
	</node>
	<node lat="63.623285248206464" lon="11.112820625635347" id="-32095">
		<tag k="name" v="Husby" />
		<tag k="place" v="hamlet" />
		<tag k="ssr:stedsnr" v="894047" />
	</node>
	<node lat="63.740611109026545" lon="11.251600007185557" id="-32097">
		<tag k="amenity" v="school" />
		<tag k="name" v="Vårtun kristne oppvekstsenter" />
		<tag k="old_name" v="Vårtun skole" />
		<tag k="ssr:stedsnr" v="690712" />
	</node>
	<node lat="63.667161109048834" lon="11.108433332070996" id="-32103">
		<tag k="alt_name" v="Ronglan, vestre" />
		<tag k="name" v="Vestre Ronglan" />
		<tag k="place" v="farm" />
		<tag k="ssr:stedsnr" v="894888" />
	</node>
	<node lat="63.56627244732266" lon="10.937770403382386" id="-32111">
		<tag k="name" v="Åvikstykket" />
		<tag k="place" v="farm" />
		<tag k="ssr:stedsnr" v="897482" />
	</node>
	<node lat="63.73461944741052" lon="11.126522230662136" id="-32115">
		<tag k="name" v="Setervollen" />
		<tag k="place" v="locality" />
		<tag k="ssr:stedsnr" v="898085" />
	</node>
	<node lat="63.61307487553571" lon="11.35367654749578" id="-32128">
		<tag k="fixme" v="consider place=hamlet" />
		<tag k="name" v="Hjelmstadbakk" />
		<tag k="place" v="farm" />
		<tag k="ssr:stedsnr" v="898553" />
	</node>
	<node lat="63.81443888604679" lon="11.201627770810772" id="-32129">
		<tag k="name" v="Litlåkeren" />
		<tag k="place" v="farm" />
		<tag k="ssr:stedsnr" v="713809" />
	</node>
	<node lat="63.633709934108765" lon="11.043624179933326" id="-32132">
		<tag k="name" v="Skotrøa" />
		<tag k="place" v="farm" />
		<tag k="ssr:stedsnr" v="714125" />
	</node>
	<node lat="63.655005558821976" lon="11.031005549900074" id="-32139">
		<tag k="name" v="Jonsplassen" />
		<tag k="place" v="locality" />
		<tag k="ssr:stedsnr" v="715328" />
	</node>
	<node lat="63.80479999860578" lon="11.169397218134991" id="-32141">
		<tag k="name" v="Vårvang" />
		<tag k="place" v="farm" />
		<tag k="ssr:stedsnr" v="716015" />
	</node>
	<node lat="63.66074999678821" lon="11.229561108737553" id="-32143">
		<tag k="name" v="Bymarka" />
		<tag k="place" v="quarter" />
		<tag k="ssr:stedsnr" v="716024" />
	</node>
	<node lat="63.62930555822639" lon="11.329005548921744" id="-32154">
		<tag k="name" v="Trosetvollan" />
		<tag k="place" v="farm" />
		<tag k="ssr:stedsnr" v="716522" />
	</node>
	<node lat="63.68621388808049" lon="11.309158327846593" id="-32156">
		<tag k="leisure" v="pitch" />
		<tag k="name" v="Torsbustaden skianlegg" />
		<tag k="ssr:stedsnr" v="728774" />
	</node>
	<node lat="63.6910002832938" lon="11.056107142752506" id="-32157">
		<tag k="name" v="Sør-By" />
		<tag k="place" v="farm" />
		<tag k="ssr:stedsnr" v="741092" />
	</node>
	<node lat="63.690605556197156" lon="11.126536109599554" id="-32158">
		<tag k="name" v="Veimo" />
		<tag k="place" v="farm" />
		<tag k="ssr:stedsnr" v="741098" />
	</node>
	<node lat="63.685198325831976" lon="11.173675371439527" id="-32160">
		<tag k="name" v="Svenngard" />
		<tag k="old_name" v="Svendgård" />
		<tag k="place" v="farm" />
		<tag k="ssr:stedsnr" v="741145" />
	</node>
	<node lat="63.70119444750714" lon="11.212200004504263" id="-32161">
		<tag k="fixme" v="consider place=hamlet" />
		<tag k="name" v="Sør-Sandbergan" />
		<tag k="place" v="farm" />
		<tag k="ssr:stedsnr" v="741193" />
	</node>
	<node lat="63.70529444623946" lon="11.15932777993494" id="-32162">
		<tag k="name" v="Sjøvika" />
		<tag k="place" v="farm" />
		<tag k="ssr:stedsnr" v="741195" />
	</node>
	<node lat="63.7052083989614" lon="11.035326303071596" id="-32163">
		<tag k="name" v="Aust-Haugan" />
		<tag k="place" v="farm" />
		<tag k="ssr:stedsnr" v="741196" />
	</node>
	<node lat="63.630409097999426" lon="11.345668165905453" id="-32165">
		<tag k="alt_name" v="Vinkjær" />
		<tag k="fixme" v="consider place=hamlet" />
		<tag k="name" v="Vinkjerran" />
		<tag k="place" v="farm" />
		<tag k="ssr:stedsnr" v="741445" />
	</node>
	<node lat="63.608477774452595" lon="11.641272229812133" id="-32166">
		<tag k="name" v="Glunkvollen" />
		<tag k="place" v="isolated_dwelling" />
		<tag k="ssr:stedsnr" v="741485" />
	</node>
	<node lat="63.60118888554284" lon="11.265163883536923" id="-32167">
		<tag k="name" v="Friberg" />
		<tag k="place" v="farm" />
		<tag k="ssr:stedsnr" v="741499" />
	</node>
	<node lat="63.63919722648647" lon="11.25543055360651" id="-32168">
		<tag k="alt_name" v="Venset lille" />
		<tag k="fixme" v="multiple name tags, choose one and add the other to alt_name" />
		<tag k="name" v="Brubakken;Litle Venset" />
		<tag k="place" v="farm" />
		<tag k="ssr:stedsnr" v="741607" />
	</node>
	<node lat="63.65944166693246" lon="11.240124994072644" id="-32169">
		<tag k="name" v="Slåttsveet" />
		<tag k="place" v="farm" />
		<tag k="ssr:stedsnr" v="741609" />
	</node>
	<node lat="63.59599999779267" lon="11.34625555782955" id="-32170">
		<tag k="name" v="Litlgrøningsvollen" />
		<tag k="place" v="locality" />
		<tag k="ssr:stedsnr" v="741503" />
	</node>
	<node lat="63.721149067414586" lon="11.253509919774148" id="-32171">
		<tag k="fixme" v="consider place=hamlet" />
		<tag k="name" v="Nossum" />
		<tag k="place" v="farm" />
		<tag k="ssr:stedsnr" v="741704" />
	</node>
	<node lat="63.73235606963516" lon="11.354234522465537" id="-32172">
		<tag k="fixme" v="consider place=hamlet" />
		<tag k="name" v="Floan" />
		<tag k="place" v="farm" />
		<tag k="ssr:stedsnr" v="741709" />
	</node>
	<node lat="63.735899998516466" lon="11.374549996249765" id="-32173">
		<tag k="name" v="Granli" />
		<tag k="place" v="farm" />
		<tag k="ssr:stedsnr" v="741710" />
	</node>
	<node lat="63.689780560061905" lon="11.238822217952183" id="-32175">
		<tag k="name" v="Leinsvang" />
		<tag k="place" v="farm" />
		<tag k="ssr:stedsnr" v="741635" />
	</node>
	<node lat="63.72451388948954" lon="11.378274990821268" id="-32176">
		<tag k="name" v="Munkby" />
		<tag k="place" v="farm" />
		<tag k="ssr:stedsnr" v="741686" />
	</node>
	<node lat="63.724649997075716" lon="11.437250000144953" id="-32177">
		<tag k="alt_name" v="Svegård" />
		<tag k="name" v="Svegard" />
		<tag k="place" v="farm" />
		<tag k="ssr:stedsnr" v="741700" />
	</node>
	<node lat="63.78236111026774" lon="11.116852771933935" id="-32178">
		<tag k="name" v="Ner-Vannsvika" />
		<tag k="place" v="farm" />
		<tag k="ssr:stedsnr" v="741800" />
	</node>
	<node lat="63.64205555224861" lon="11.181461112363591" id="-32179">
		<tag k="name" v="Grytesmo" />
		<tag k="place" v="farm" />
		<tag k="ssr:stedsnr" v="741996" />
	</node>
	<node lat="63.796772218957756" lon="11.136938882086927" id="-32182">
		<tag k="name" v="Lyngstad" />
		<tag k="place" v="farm" />
		<tag k="ssr:stedsnr" v="742837" />
	</node>
	<node lat="63.7178638877208" lon="11.301299996220525" id="-32186">
		<tag k="name" v="Søre Kjølåsen" />
		<tag k="place" v="farm" />
		<tag k="ssr:stedsnr" v="750601" />
	</node>
	<node lat="63.75638055372413" lon="11.217608329466351" id="-32188">
		<tag k="name" v="Gran" />
		<tag k="place" v="farm" />
		<tag k="ssr:stedsnr" v="750612" />
	</node>
	<node lat="63.756700001654586" lon="11.232141675669473" id="-32189">
		<tag k="name" v="Ner-Håa" />
		<tag k="place" v="farm" />
		<tag k="ssr:stedsnr" v="750613" />
	</node>
	<node lat="63.67061196245659" lon="11.128477729374596" id="-32191">
		<tag k="name" v="Skjele" />
		<tag k="place" v="farm" />
		<tag k="ssr:stedsnr" v="905027" />
	</node>
	<node lat="63.7984861104281" lon="11.102944437800282" id="-32203">
		<tag k="name" v="Nordstrand" />
		<tag k="place" v="farm" />
		<tag k="ssr:stedsnr" v="777114" />
	</node>
	<node lat="63.6590986185469" lon="11.206352115181804" id="-32207">
		<tag k="fixme" v="consider place=hamlet" />
		<tag k="name" v="Hojem" />
		<tag k="place" v="farm" />
		<tag k="ssr:stedsnr" v="802021" />
	</node>
	<node lat="63.683786033132556" lon="11.148216387926647" id="-32210">
		<tag k="name" v="Hojemsaunet" />
		<tag k="place" v="locality" />
		<tag k="ssr:stedsnr" v="802123" />
	</node>
	<node lat="63.74990420018837" lon="11.037314632602262" id="-32211">
		<tag k="fixme" v="consider place=hamlet" />
		<tag k="name" v="Trygstad" />
		<tag k="place" v="farm" />
		<tag k="ssr:stedsnr" v="802179" />
	</node>
	<node lat="63.61201388823734" lon="11.357563879360594" id="-32212">
		<tag k="fixme" v="multiple name tags, choose one and add the other to alt_name" />
		<tag k="name" v="Dalen;Bakkheim" />
		<tag k="place" v="farm" />
		<tag k="ssr:stedsnr" v="802469" />
	</node>
	<node lat="63.68519444791403" lon="11.421155560743623" id="-32215">
		<tag k="name" v="Davebustad" />
		<tag k="place" v="locality" />
		<tag k="ssr:stedsnr" v="802613" />
	</node>
	<node lat="63.677118803207115" lon="11.234085447160357" id="-32216">
		<tag k="name" v="Brenne" />
		<tag k="place" v="hamlet" />
		<tag k="ssr:stedsnr" v="802614" />
	</node>
	<node lat="63.587677775112844" lon="11.364700000897608" id="-32219">
		<tag k="name" v="Steinsetvollen" />
		<tag k="place" v="isolated_dwelling" />
		<tag k="ssr:stedsnr" v="802511" />
	</node>
	<node lat="63.58330980098011" lon="11.400885332673248" id="-32221">
		<tag k="fixme" v="consider place=hamlet" />
		<tag k="name" v="Finnåsen" />
		<tag k="place" v="farm" />
		<tag k="ssr:stedsnr" v="802515" />
	</node>
	<node lat="63.73580832993899" lon="11.338652777806049" id="-32222">
		<tag k="name" v="Øvre Hegle" />
		<tag k="place" v="farm" />
		<tag k="ssr:stedsnr" v="802705" />
	</node>
	<node lat="63.735702782064166" lon="11.494452786553138" id="-32223">
		<tag k="name" v="Rønningen" />
		<tag k="place" v="farm" />
		<tag k="ssr:stedsnr" v="802709" />
	</node>
	<node lat="63.74548463937916" lon="11.27642573228985" id="-32224">
		<tag k="fixme" v="consider place=hamlet" />
		<tag k="name" v="Staup" />
		<tag k="place" v="farm" />
		<tag k="ssr:stedsnr" v="802711" />
	</node>
	<node lat="63.593149748438314" lon="11.038029725246504" id="-32227">
		<tag k="name" v="Kleiva" />
		<tag k="place" v="farm" />
		<tag k="ssr:stedsnr" v="802885" />
	</node>
	<node lat="63.60273888698354" lon="11.066819445017993" id="-32228">
		<tag k="name" v="Stokksveet" />
		<tag k="place" v="farm" />
		<tag k="ssr:stedsnr" v="802930" />
	</node>
	<node lat="63.615027775654774" lon="10.949969442021178" id="-32229">
		<tag k="name" v="Austre Leangan" />
		<tag k="place" v="farm" />
		<tag k="ssr:stedsnr" v="802931" />
	</node>
	<node lat="63.6137250011804" lon="10.92141389524161" id="-32230">
		<tag k="name" v="Oldret" />
		<tag k="place" v="farm" />
		<tag k="ssr:stedsnr" v="802932" />
	</node>
	<node lat="63.75663049130005" lon="11.435745818334489" id="-32231">
		<tag k="name" v="Rinnaunet" />
		<tag k="place" v="farm" />
		<tag k="ssr:stedsnr" v="803317" />
	</node>
	<node lat="63.696338888862904" lon="11.041122230767169" id="-32233">
		<tag k="amenity" v="school" />
		<tag k="name" v="Ekne skole" />
		<tag k="old_name" v="Solvang" />
		<tag k="ssr:stedsnr" v="811514" />
	</node>
	<node lat="63.762988886963036" lon="11.417033338558483" id="-32238">
		<tag k="name" v="Holmen" />
		<tag k="place" v="farm" />
		<tag k="ssr:stedsnr" v="811706" />
	</node>
	<node lat="63.756698398313524" lon="11.371415194180186" id="-32240">
		<tag k="name" v="Øver-Rokne" />
		<tag k="place" v="locality" />
		<tag k="ssr:stedsnr" v="811715" />
	</node>
	<node lat="63.76589166964317" lon="11.45293889417736" id="-32244">
		<tag k="name" v="Øster-Rinnan" />
		<tag k="place" v="farm" />
		<tag k="ssr:stedsnr" v="815490" />
	</node>
	<node lat="63.67076644724834" lon="11.076859091945458" id="-32248">
		<tag k="fixme" v="consider place=hamlet" />
		<tag k="name" v="Moan" />
		<tag k="place" v="farm" />
		<tag k="ssr:stedsnr" v="923025" />
	</node>
	<node lat="63.646775756058425" lon="11.181537293742146" id="-32249">
		<tag k="fixme" v="consider place=hamlet" />
		<tag k="name" v="Ryggen" />
		<tag k="place" v="farm" />
		<tag k="ssr:stedsnr" v="923046" />
	</node>
	<node lat="63.644579826255615" lon="11.093365687242146" id="-32250">
		<tag k="fixme" v="consider place=hamlet" />
		<tag k="name" v="Ringstad" />
		<tag k="place" v="farm" />
		<tag k="ssr:stedsnr" v="923053" />
	</node>
	<node lat="63.65833888781455" lon="11.151419453200555" id="-32251">
		<tag k="name" v="Nerenget" />
		<tag k="place" v="farm" />
		<tag k="ssr:stedsnr" v="923070" />
	</node>
	<node lat="63.70908611344716" lon="11.177449994369608" id="-32253">
		<tag k="alt_name" v="Holan, nordre" />
		<tag k="name" v="Nordre Holan" />
		<tag k="place" v="farm" />
		<tag k="ssr:stedsnr" v="923201" />
	</node>
	<node lat="63.60743888462678" lon="11.080897220513382" id="-32254">
		<tag k="name" v="Midtre Hoklingan" />
		<tag k="place" v="farm" />
		<tag k="ssr:stedsnr" v="923934" />
	</node>
	<node lat="63.610091669025316" lon="11.100138889213417" id="-32255">
		<tag k="name" v="Svehaugen" />
		<tag k="place" v="farm" />
		<tag k="ssr:stedsnr" v="923937" />
	</node>
	<node lat="63.611638884983606" lon="11.028752767531266" id="-32256">
		<tag k="name" v="Austre Håmmåren" />
		<tag k="place" v="farm" />
		<tag k="ssr:stedsnr" v="923942" />
	</node>
	<node lat="63.61564166688679" lon="11.044149999665139" id="-32257">
		<tag k="name" v="Fossen" />
		<tag k="place" v="isolated_dwelling" />
		<tag k="ssr:stedsnr" v="923944" />
	</node>
	<node lat="63.637304417479235" lon="11.270582548552646" id="-32259">
		<tag k="fixme" v="consider place=hamlet" />
		<tag k="name" v="Støringen" />
		<tag k="place" v="farm" />
		<tag k="ssr:stedsnr" v="923560" />
	</node>
	<node lat="63.74932002768151" lon="11.422787206987453" id="-32260">
		<tag k="name" v="Flatåsen" />
		<tag k="place" v="farm" />
		<tag k="ssr:stedsnr" v="923691" />
	</node>
	<node lat="63.65520833625452" lon="11.22849444547088" id="-32261">
		<tag k="name" v="Arnstad" />
		<tag k="place" v="farm" />
		<tag k="ssr:stedsnr" v="923569" />
	</node>
	<node lat="63.66947770621866" lon="11.227693202357717" id="-32265">
		<tag k="name" v="By" />
		<tag k="place" v="hamlet" />
		<tag k="ssr:stedsnr" v="923581" />
	</node>
	<node lat="63.72587386582016" lon="11.42872203340218" id="-32266">
		<tag k="fixme" v="consider place=hamlet" />
		<tag k="name" v="Segtnan" />
		<tag k="place" v="farm" />
		<tag k="ssr:stedsnr" v="923643" />
	</node>
	<node lat="63.728449999412526" lon="11.314324992468968" id="-32267">
		<tag k="name" v="Valstad" />
		<tag k="place" v="farm" />
		<tag k="ssr:stedsnr" v="923664" />
	</node>
	<node lat="63.731305813460345" lon="11.298114147264018" id="-32268">
		<tag k="name" v="Halsan" />
		<tag k="place" v="hamlet" />
		<tag k="ssr:stedsnr" v="923666" />
	</node>
	<node lat="63.60162499563475" lon="11.011202775034112" id="-32270">
		<tag k="name" v="Forbord" />
		<tag k="place" v="farm" />
		<tag k="ssr:stedsnr" v="923894" />
	</node>
	<node lat="63.58104111239258" lon="11.154764276941581" id="-32271">
		<tag k="fixme" v="consider place=hamlet" />
		<tag k="name" v="Moslinan" />
		<tag k="place" v="farm" />
		<tag k="ssr:stedsnr" v="923847" />
	</node>
	<node lat="63.632019442227495" lon="11.134822213773107" id="-32272">
		<tag k="name" v="Vollan" />
		<tag k="place" v="farm" />
		<tag k="ssr:stedsnr" v="923959" />
	</node>
	<node lat="63.62655442062064" lon="11.175033495018361" id="-32273">
		<tag k="fixme" v="consider place=hamlet" />
		<tag k="name" v="Tangen" />
		<tag k="place" v="farm" />
		<tag k="ssr:stedsnr" v="923961" />
	</node>
	<node lat="63.63058888765206" lon="11.085983329202888" id="-32274">
		<tag k="name" v="Granås" />
		<tag k="place" v="farm" />
		<tag k="ssr:stedsnr" v="923964" />
	</node>
	<node lat="63.753183334638074" lon="11.327419442631525" id="-32280">
		<tag k="name" v="Øver-Røstad" />
		<tag k="place" v="farm" />
		<tag k="ssr:stedsnr" v="924299" />
	</node>
	<node lat="63.63559444472488" lon="11.28343333334784" id="-32283">
		<tag k="name" v="Hallem" />
		<tag k="place" v="farm" />
		<tag k="ssr:stedsnr" v="924344" />
	</node>
	<node lat="63.7903138877005" lon="11.099805550812654" id="-32294">
		<tag k="name" v="Østre Jørstad" />
		<tag k="place" v="farm" />
		<tag k="ssr:stedsnr" v="924742" />
	</node>
	<node lat="63.78823971584303" lon="11.135942060034042" id="-32295">
		<tag k="fixme" v="consider place=hamlet" />
		<tag k="name" v="Kjølsvika" />
		<tag k="place" v="farm" />
		<tag k="ssr:stedsnr" v="924748" />
	</node>
	<node lat="63.77984167061653" lon="11.11065555241685" id="-32296">
		<tag k="name" v="Holmen" />
		<tag k="place" v="farm" />
		<tag k="ssr:stedsnr" v="924759" />
	</node>
	<node lat="63.771730558471305" lon="11.076819440096408" id="-32298">
		<tag k="name" v="Tyholt" />
		<tag k="place" v="farm" />
		<tag k="ssr:stedsnr" v="924763" />
	</node>
	<node lat="63.75897499799117" lon="11.046580548318174" id="-32299">
		<tag k="fixme" v="consider place=hamlet" />
		<tag k="name" v="Lønvika" />
		<tag k="place" v="farm" />
		<tag k="ssr:stedsnr" v="924794" />
	</node>
	<node lat="63.75338055558107" lon="11.049194439159683" id="-32300">
		<tag k="name" v="Saltbua" />
		<tag k="place" v="isolated_dwelling" />
		<tag k="ssr:stedsnr" v="924931" />
	</node>
	<node lat="63.75380832925711" lon="11.01119165719384" id="-32301">
		<tag k="name" v="Bugjerde" />
		<tag k="place" v="farm" />
		<tag k="ssr:stedsnr" v="924934" />
	</node>
	<node lat="63.64430555623415" lon="11.293208341997524" id="-32302">
		<tag k="name" v="Halhaugen" />
		<tag k="place" v="farm" />
		<tag k="ssr:stedsnr" v="848025" />
	</node>
	<node lat="63.69457777673481" lon="11.125674999551146" id="-32304">
		<tag k="name" v="Skei" />
		<tag k="place" v="farm" />
		<tag k="ssr:stedsnr" v="862110" />
	</node>
	<node lat="63.69526944019248" lon="11.198788886906923" id="-32305">
		<tag k="name" v="Småland" />
		<tag k="place" v="farm" />
		<tag k="ssr:stedsnr" v="862072" />
	</node>
	<node lat="63.61603333586608" lon="11.293025003031827" id="-32306">
		<tag k="alt_name" v="Mosveet" />
		<tag k="name" v="Mosve" />
		<tag k="place" v="farm" />
		<tag k="ssr:stedsnr" v="862403" />
	</node>
	<node lat="63.609349995555846" lon="11.477402782088882" id="-32307">
		<tag k="name" v="Jerpvollen" />
		<tag k="place" v="locality" />
		<tag k="ssr:stedsnr" v="862408" />
	</node>
	<node lat="63.60617657106537" lon="11.056570504519843" id="-32309">
		<tag k="alt_name" v="Stokkan, austre" />
		<tag k="name" v="Austre Stokkan" />
		<tag k="place" v="farm" />
		<tag k="ssr:stedsnr" v="862909" />
	</node>
	<node lat="63.60445833510543" lon="11.053047228423655" id="-32310">
		<tag k="alt_name" v="Stokkan, midtre" />
		<tag k="name" v="Stokkan" />
		<tag k="place" v="farm" />
		<tag k="ssr:stedsnr" v="862910" />
	</node>
	<node lat="63.739262698460344" lon="11.240642168574489" id="-32311">
		<tag k="fixme" v="consider place=hamlet" />
		<tag k="name" v="Kråkstad" />
		<tag k="place" v="farm" />
		<tag k="ssr:stedsnr" v="862654" />
	</node>
	<node lat="63.56607541572252" lon="10.946879620443235" id="-32312">
		<tag k="fixme" v="consider place=hamlet" />
		<tag k="name" v="Fætta" />
		<tag k="place" v="farm" />
		<tag k="ssr:stedsnr" v="862816" />
	</node>
	<node lat="63.67736388896801" lon="11.169649998609772" id="-32314">
		<tag k="name" v="Stein" />
		<tag k="place" v="farm" />
		<tag k="ssr:stedsnr" v="863088" />
	</node>
	<node lat="63.67890430982862" lon="11.189326729485426" id="-32316">
		<tag k="fixme" v="consider place=hamlet" />
		<tag k="name" v="Voll" />
		<tag k="place" v="farm" />
		<tag k="ssr:stedsnr" v="863097" />
	</node>
	<node lat="63.68857221839718" lon="11.159447215991571" id="-32317">
		<tag k="name" v="Engstad" />
		<tag k="place" v="farm" />
		<tag k="ssr:stedsnr" v="863108" />
	</node>
	<node lat="63.642072223812804" lon="11.280358330344106" id="-32319">
		<tag k="name" v="Nordenget" />
		<tag k="place" v="farm" />
		<tag k="ssr:stedsnr" v="863516" />
	</node>
	<node lat="63.64233010595345" lon="11.266624886034771" id="-32320">
		<tag k="fixme" v="consider place=hamlet" />
		<tag k="name" v="Venset" />
		<tag k="place" v="farm" />
		<tag k="ssr:stedsnr" v="863518" />
	</node>
	<node lat="63.628329719872596" lon="11.180867269528763" id="-32325">
		<tag k="name" v="Tangsveet" />
		<tag k="place" v="farm" />
		<tag k="ssr:stedsnr" v="863944" />
	</node>
	<node lat="63.63098332964695" lon="11.316269438032432" id="-32326">
		<tag k="name" v="Troset" />
		<tag k="place" v="hamlet" />
		<tag k="ssr:stedsnr" v="870563" />
	</node>
	<node lat="63.75448055945324" lon="11.242041674743794" id="-32331">
		<tag k="name" v="Rønning" />
		<tag k="place" v="farm" />
		<tag k="ssr:stedsnr" v="932535" />
	</node>
	<node lat="63.70573055718143" lon="11.130836110109609" id="-32332">
		<tag k="name" v="Grubba" />
		<tag k="place" v="locality" />
		<tag k="ssr:stedsnr" v="932483" />
	</node>
	<node lat="63.71403333695593" lon="11.343958337264926" id="-32334">
		<tag k="name" v="Fagerås" />
		<tag k="place" v="farm" />
		<tag k="ssr:stedsnr" v="932543" />
	</node>
	<node lat="63.716669442052854" lon="11.236244435547356" id="-32338">
		<tag k="name" v="Vinnabakken" />
		<tag k="place" v="farm" />
		<tag k="ssr:stedsnr" v="932585" />
	</node>
	<node lat="63.73953055772535" lon="11.299044453608762" id="-32339">
		<tag k="name" v="Gimle" />
		<tag k="place" v="farm" />
		<tag k="ssr:stedsnr" v="932631" />
	</node>
	<node lat="63.72724166843886" lon="11.228441657419378" id="-32341">
		<tag k="name" v="Skjerpingen" />
		<tag k="place" v="farm" />
		<tag k="ssr:stedsnr" v="933551" />
	</node>
	<node lat="63.69946388940644" lon="10.98669166801569" id="-32343">
		<tag k="name" v="Ottestuplassen" />
		<tag k="place" v="locality" />
		<tag k="ssr:stedsnr" v="933582" />
	</node>
	<node lat="63.712908337566255" lon="11.0232444403442" id="-32344">
		<tag k="name" v="Jønvik" />
		<tag k="place" v="farm" />
		<tag k="ssr:stedsnr" v="933961" />
	</node>
	<node lat="63.64361843441498" lon="11.184682961009687" id="-32349">
		<tag k="fixme" v="consider place=hamlet" />
		<tag k="name" v="Gryte" />
		<tag k="place" v="farm" />
		<tag k="ssr:stedsnr" v="935368" />
	</node>
	<node lat="63.80843902657475" lon="11.178559051776874" id="-32350">
		<tag k="name" v="Verås" />
		<tag k="place" v="hamlet" />
		<tag k="ssr:stedsnr" v="935400" />
	</node>
	<node lat="63.60322222240795" lon="10.923508334845918" id="-32351">
		<tag k="name" v="Hesthåggån" />
		<tag k="place" v="isolated_dwelling" />
		<tag k="ssr:stedsnr" v="894982" />
	</node>
	<node lat="63.62382836591238" lon="11.084395169827477" id="-32363">
		<tag k="fixme" v="consider place=hamlet" />
		<tag k="name" v="Dulum" />
		<tag k="place" v="farm" />
		<tag k="ssr:stedsnr" v="902376" />
	</node>
	<node lat="63.67681944651101" lon="11.235494451647849" id="-32364">
		<tag k="name" v="Brenne" />
		<tag k="place" v="farm" />
		<tag k="ssr:stedsnr" v="905008" />
	</node>
	<node lat="63.67021666420274" lon="11.17054721593707" id="-32365">
		<tag k="name" v="Østre Lælo" />
		<tag k="place" v="farm" />
		<tag k="ssr:stedsnr" v="906119" />
	</node>
	<node lat="63.72570872433728" lon="11.486594778272078" id="-32366">
		<tag k="fixme" v="multiple name tags, choose one and add the other to alt_name" />
		<tag k="name" v="Nedre Skågset;Skågset" />
		<tag k="place" v="farm" />
		<tag k="ssr:stedsnr" v="909263" />
	</node>
	<node lat="63.66359166919807" lon="11.209913894697387" id="-32368">
		<tag k="name" v="Bekkevoll" />
		<tag k="place" v="farm" />
		<tag k="ssr:stedsnr" v="923010" />
	</node>
	<node lat="63.65876389295349" lon="11.138322223081492" id="-32369">
		<tag k="name" v="Slengslia" />
		<tag k="place" v="farm" />
		<tag k="ssr:stedsnr" v="923011" />
	</node>
	<node lat="63.700178017474535" lon="11.019069185950643" id="-32370">
		<tag k="fixme" v="consider place=hamlet" />
		<tag k="name" v="Aunet" />
		<tag k="place" v="farm" />
		<tag k="ssr:stedsnr" v="923108" />
	</node>
	<node lat="63.70065555842411" lon="11.038380550659907" id="-32371">
		<tag k="name" v="Ekne" />
		<tag k="place" v="hamlet" />
		<tag k="ssr:stedsnr" v="923110" />
	</node>
	<node lat="63.678802773714075" lon="11.129847219706653" id="-32372">
		<tag k="name" v="Moen" />
		<tag k="place" v="farm" />
		<tag k="ssr:stedsnr" v="923120" />
	</node>
	<node lat="63.684493857036436" lon="11.216069369256012" id="-32373">
		<tag k="name" v="Vennevoll" />
		<tag k="place" v="farm" />
		<tag k="ssr:stedsnr" v="923123" />
	</node>
	<node lat="63.67140596980181" lon="11.06599372132063" id="-32376">
		<tag k="fixme" v="consider place=hamlet" />
		<tag k="name" v="Skillbreia" />
		<tag k="place" v="farm" />
		<tag k="ssr:stedsnr" v="923131" />
	</node>
	<node lat="63.687659029096416" lon="11.170196210377803" id="-32377">
		<tag k="fixme" v="consider place=hamlet" />
		<tag k="name" v="Nesgard" />
		<tag k="place" v="farm" />
		<tag k="ssr:stedsnr" v="923137" />
	</node>
	<node lat="63.70373888635928" lon="11.192625007971175" id="-32379">
		<tag k="name" v="Skogn" />
		<tag k="place" v="village" />
		<tag k="ssr:stedsnr" v="923081" />
	</node>
	<node lat="63.689082426076304" lon="10.931369295614171" id="-32380">
		<tag k="fixme" v="consider place=hamlet" />
		<tag k="name" v="Kristivika" />
		<tag k="place" v="farm" />
		<tag k="ssr:stedsnr" v="923082" />
	</node>
	<node lat="63.69237522526984" lon="10.949335021209537" id="-32381">
		<tag k="fixme" v="consider place=hamlet" />
		<tag k="name" v="Laupen" />
		<tag k="place" v="farm" />
		<tag k="ssr:stedsnr" v="923083" />
	</node>
	<node lat="63.70795277786496" lon="11.08264722301866" id="-32382">
		<tag k="name" v="Nordholmen" />
		<tag k="place" v="farm" />
		<tag k="ssr:stedsnr" v="923203" />
	</node>
	<node lat="63.59839166908573" lon="11.40306111995027" id="-32385">
		<tag k="name" v="Kongshaugen" />
		<tag k="place" v="isolated_dwelling" />
		<tag k="ssr:stedsnr" v="923470" />
	</node>
	<node lat="63.70169802882199" lon="11.23111531517331" id="-32386">
		<tag k="fixme" v="consider place=hamlet" />
		<tag k="name" v="Stavlo" />
		<tag k="place" v="farm" />
		<tag k="ssr:stedsnr" v="923607" />
	</node>
	<node lat="63.72266944145997" lon="11.356927767908806" id="-32387">
		<tag k="name" v="Tingvoll" />
		<tag k="place" v="farm" />
		<tag k="ssr:stedsnr" v="923633" />
	</node>
	<node lat="63.73915497546323" lon="11.409990242928677" id="-32388">
		<tag k="name" v="Hojem" />
		<tag k="place" v="hamlet" />
		<tag k="ssr:stedsnr" v="923680" />
	</node>
	<node lat="63.5941371549432" lon="10.96361309432387" id="-32391">
		<tag k="name" v="Brakstad" />
		<tag k="place" v="hamlet" />
		<tag k="ssr:stedsnr" v="923871" />
	</node>
	<node lat="63.58478889055685" lon="10.930522212517925" id="-32393">
		<tag k="alt_name" v="Skjesol, austre" />
		<tag k="name" v="Austre Skjesol" />
		<tag k="place" v="farm" />
		<tag k="ssr:stedsnr" v="923881" />
	</node>
	<node lat="63.67560000358411" lon="11.207352776963663" id="-32395">
		<tag k="alt_name" v="Vollhaugen" />
		<tag k="name" v="Vollhaug" />
		<tag k="place" v="farm" />
		<tag k="ssr:stedsnr" v="924016" />
	</node>
	<node lat="63.75772017426298" lon="11.348621788493775" id="-32396">
		<tag k="name" v="Øver-Tynes" />
		<tag k="place" v="farm" />
		<tag k="ssr:stedsnr" v="924334" />
	</node>
	<node lat="63.80987500400774" lon="11.180616661052943" id="-32399">
		<tag k="name" v="Øster-Verås" />
		<tag k="place" v="farm" />
		<tag k="ssr:stedsnr" v="924821" />
	</node>
	<node lat="63.56718055283132" lon="10.881122226859645" id="-32400">
		<tag k="name" v="Nessveet" />
		<tag k="place" v="farm" />
		<tag k="ssr:stedsnr" v="924771" />
	</node>
	<node lat="63.6072833342196" lon="11.107975002321346" id="-32401">
		<tag k="name" v="Austre Mossingan" />
		<tag k="place" v="farm" />
		<tag k="ssr:stedsnr" v="924903" />
	</node>
	<node lat="63.75554659069167" lon="11.402485593838486" id="-32403">
		<tag k="fixme" v="consider place=hamlet" />
		<tag k="name" v="Sandsaunet" />
		<tag k="place" v="farm" />
		<tag k="ssr:stedsnr" v="932687" />
	</node>
	<node lat="63.75719817155686" lon="11.421392461779512" id="-32404">
		<tag k="fixme" v="consider place=hamlet" />
		<tag k="name" v="Salthåmmår" />
		<tag k="place" v="farm" />
		<tag k="ssr:stedsnr" v="932688" />
	</node>
	<node lat="63.65115555314857" lon="11.558769451826272" id="-32411">
		<tag k="fixme" v="multiple name tags, choose one and add the other to alt_name" />
		<tag k="historic" v="shieling" />
		<tag k="name" v="Munkbyvollen;Munkbybustaden" />
		<tag k="old_name" v="Munkebubystaden" />
		<tag k="place" v="isolated_dwelling" />
		<tag k="ssr:stedsnr" v="936409" />
	</node>
	<node lat="63.60803055891063" lon="10.907308334371344" id="-32415">
		<tag k="name" v="Saltbuvika" />
		<tag k="place" v="farm" />
		<tag k="ssr:stedsnr" v="956849" />
	</node>
	<node lat="63.6230361119656" lon="10.91690555709145" id="-32416">
		<tag k="name" v="Hanebogsveet" />
		<tag k="place" v="isolated_dwelling" />
		<tag k="ssr:stedsnr" v="956898" />
	</node>
	<node lat="63.60284722347694" lon="10.937783337725497" id="-32418">
		<tag k="name" v="Tomasplassen" />
		<tag k="place" v="isolated_dwelling" />
		<tag k="ssr:stedsnr" v="956800" />
	</node>
	<node lat="63.80318333103986" lon="11.151441666615282" id="-32420">
		<tag k="name" v="Eidet" />
		<tag k="place" v="hamlet" />
		<tag k="ssr:stedsnr" v="958018" />
	</node>
	<node lat="63.690000209747666" lon="11.057592297592706" id="-32426">
		<tag k="fixme" v="consider place=hamlet" />
		<tag k="name" v="Kvernbakken" />
		<tag k="place" v="farm" />
		<tag k="ssr:stedsnr" v="976760" />
	</node>
	<node lat="63.63026236951856" lon="11.049299608856849" id="-32427">
		<tag k="fixme" v="consider place=hamlet" />
		<tag k="name" v="Sandan" />
		<tag k="place" v="farm" />
		<tag k="ssr:stedsnr" v="976767" />
	</node>
	<node lat="63.62206945670798" lon="11.030014414670227" id="-32428">
		<tag k="alt_name" v="Hammerøya" />
		<tag k="fixme" v="consider place=hamlet" />
		<tag k="name" v="Innerøya" />
		<tag k="place" v="farm" />
		<tag k="ssr:stedsnr" v="976771" />
	</node>
	<node lat="63.60224069694625" lon="11.050660465746153" id="-32430">
		<tag k="name" v="Stokkan" />
		<tag k="place" v="hamlet" />
		<tag k="ssr:stedsnr" v="976776" />
	</node>
	<node lat="63.5957863888496" lon="11.042758928466188" id="-32434">
		<tag k="name" v="Grubbåsen" />
		<tag k="place" v="locality" />
		<tag k="ssr:stedsnr" v="989092" />
	</node>
	<node lat="63.618896056367966" lon="11.068353278860414" id="-32435">
		<tag k="name" v="Vassmarka" />
		<tag k="place" v="locality" />
		<tag k="ssr:stedsnr" v="989093" />
	</node>
	<node lat="63.69800833620047" lon="11.24450833733953" id="-32440">
		<tag k="alt_name" v="Brennmål, store" />
		<tag k="name" v="Store Brennmål" />
		<tag k="place" v="farm" />
		<tag k="ssr:stedsnr" v="13596" />
	</node>
	<node lat="63.713344447928655" lon="11.195697218921463" id="-32441">
		<tag k="name" v="Vollan" />
		<tag k="place" v="farm" />
		<tag k="ssr:stedsnr" v="13193" />
	</node>
	<node lat="63.66968333150908" lon="11.098791674556134" id="-32442">
		<tag k="name" v="Dalheim" />
		<tag k="place" v="farm" />
		<tag k="ssr:stedsnr" v="13018" />
	</node>
	<node lat="63.67148610869623" lon="11.207436107000902" id="-32443">
		<tag k="name" v="Røysing" />
		<tag k="place" v="farm" />
		<tag k="ssr:stedsnr" v="13027" />
	</node>
	<node lat="63.67675833139082" lon="11.163038885876784" id="-32444">
		<tag k="name" v="Bekkenget" />
		<tag k="place" v="farm" />
		<tag k="ssr:stedsnr" v="13034" />
	</node>
	<node lat="63.62363889238943" lon="11.334063882575428" id="-32447">
		<tag k="name" v="Bjørkenget" />
		<tag k="place" v="farm" />
		<tag k="ssr:stedsnr" v="13428" />
	</node>
	<node lat="63.64191389179763" lon="11.253302780955744" id="-32450">
		<tag k="name" v="Augdal" />
		<tag k="place" v="farm" />
		<tag k="ssr:stedsnr" v="13529" />
	</node>
	<node lat="63.63879822753065" lon="11.239027351942072" id="-32451">
		<tag k="fixme" v="consider place=hamlet" />
		<tag k="name" v="Sandvika" />
		<tag k="place" v="farm" />
		<tag k="ssr:stedsnr" v="13536" />
	</node>
	<node lat="63.65819444083487" lon="11.231941662828493" id="-32452">
		<tag k="name" v="Solhaug" />
		<tag k="place" v="farm" />
		<tag k="ssr:stedsnr" v="13539" />
	</node>
	<node lat="63.72078889311121" lon="11.361819443757618" id="-32456">
		<tag k="name" v="Holme" />
		<tag k="place" v="farm" />
		<tag k="ssr:stedsnr" v="13629" />
	</node>
	<node lat="63.71839999775682" lon="11.534052786105251" id="-32457">
		<tag k="name" v="Mobekkmoen" />
		<tag k="place" v="farm" />
		<tag k="ssr:stedsnr" v="13635" />
	</node>
	<node lat="63.727599999689815" lon="11.270924991857413" id="-32458">
		<tag k="name" v="Fossen" />
		<tag k="place" v="farm" />
		<tag k="ssr:stedsnr" v="13647" />
	</node>
	<node lat="63.73633884216967" lon="11.383929511079865" id="-32459">
		<tag k="fixme" v="consider place=hamlet" />
		<tag k="name" v="Leverås" />
		<tag k="place" v="farm" />
		<tag k="ssr:stedsnr" v="13650" />
	</node>
	<node lat="63.60071183012381" lon="11.000311277850418" id="-32461">
		<tag k="fixme" v="consider place=hamlet" />
		<tag k="name" v="Maurvegan" />
		<tag k="place" v="farm" />
		<tag k="ssr:stedsnr" v="13891" />
	</node>
	<node lat="63.68859999746868" lon="11.533858337977442" id="-32462">
		<tag k="name" v="Ulvesvollen" />
		<tag k="place" v="isolated_dwelling" />
		<tag k="ssr:stedsnr" v="13558" />
	</node>
	<node lat="63.73354721892124" lon="11.225341672841123" id="-32463">
		<tag k="name" v="Reinsborg" />
		<tag k="place" v="farm" />
		<tag k="ssr:stedsnr" v="13666" />
	</node>
	<node lat="63.7412166642445" lon="11.426041661851217" id="-32464">
		<tag k="name" v="Hojemsaunet" />
		<tag k="place" v="farm" />
		<tag k="ssr:stedsnr" v="13672" />
	</node>
	<node lat="63.74006670887799" lon="11.287308743011335" id="-32465">
		<tag k="fixme" v="consider place=hamlet" />
		<tag k="name" v="Mo" />
		<tag k="place" v="farm" />
		<tag k="ssr:stedsnr" v="13679" />
	</node>
	<node lat="63.74838333145552" lon="11.323761104147428" id="-32466">
		<tag k="name" v="Sør-Røstad" />
		<tag k="place" v="farm" />
		<tag k="ssr:stedsnr" v="13691" />
	</node>
	<node lat="63.74938055600632" lon="11.427986109955226" id="-32467">
		<tag k="name" v="Granheim" />
		<tag k="place" v="farm" />
		<tag k="ssr:stedsnr" v="13693" />
	</node>
	<node lat="63.77101388469108" lon="11.08672778542868" id="-32468">
		<tag k="name" v="Ner-Bjørvika" />
		<tag k="place" v="farm" />
		<tag k="ssr:stedsnr" v="13789" />
	</node>
	<node lat="63.59804444641023" lon="10.913883339046471" id="-32469">
		<tag k="name" v="Sagtun" />
		<tag k="place" v="farm" />
		<tag k="ssr:stedsnr" v="13843" />
	</node>
	<node lat="63.596875003011895" lon="10.942150009147527" id="-32470">
		<tag k="name" v="Røsdal" />
		<tag k="place" v="farm" />
		<tag k="ssr:stedsnr" v="13852" />
	</node>
	<node lat="63.611252780846925" lon="11.038994451132618" id="-32471">
		<tag k="name" v="Torgard" />
		<tag k="place" v="farm" />
		<tag k="ssr:stedsnr" v="13939" />
	</node>
	<node lat="63.60031111118724" lon="11.056319446304945" id="-32472">
		<tag k="alt_name" v="Stokkan, søre;Stokkan" />
		<tag k="name" v="Søre Stokkan" />
		<tag k="place" v="farm" />
		<tag k="ssr:stedsnr" v="13894" />
	</node>
	<node lat="63.75475530465934" lon="11.340679580224569" id="-32476">
		<tag k="fixme" v="consider place=hamlet" />
		<tag k="name" v="Søgstad" />
		<tag k="place" v="farm" />
		<tag k="ssr:stedsnr" v="14290" />
	</node>
	<node lat="63.76036528831115" lon="11.378602592220455" id="-32477">
		<tag k="fixme" v="consider place=hamlet" />
		<tag k="name" v="Østbør" />
		<tag k="place" v="farm" />
		<tag k="ssr:stedsnr" v="14292" />
	</node>
	<node lat="63.7576990217689" lon="11.263688950321768" id="-32478">
		<tag k="name" v="Kjønstad" />
		<tag k="place" v="hamlet" />
		<tag k="ssr:stedsnr" v="14296" />
	</node>
	<node lat="63.79079167076039" lon="11.089813897765245" id="-32479">
		<tag k="name" v="Vestre Jørstad" />
		<tag k="place" v="farm" />
		<tag k="ssr:stedsnr" v="14724" />
	</node>
	<node lat="63.7912888852396" lon="11.124077784750167" id="-32480">
		<tag k="name" v="Østre Berg" />
		<tag k="place" v="farm" />
		<tag k="ssr:stedsnr" v="14728" />
	</node>
	<node lat="63.751952944438294" lon="11.01646996873738" id="-32481">
		<tag k="fixme" v="consider place=hamlet" />
		<tag k="name" v="Sandstad" />
		<tag k="place" v="farm" />
		<tag k="ssr:stedsnr" v="14923" />
	</node>
	<node lat="63.69407221786924" lon="11.062591674108884" id="-32482">
		<tag k="name" v="Vestre Gustad" />
		<tag k="place" v="farm" />
		<tag k="ssr:stedsnr" v="22527" />
	</node>
	<node lat="63.69548055734953" lon="11.023427775701409" id="-32486">
		<tag k="name" v="Nystu" />
		<tag k="place" v="locality" />
		<tag k="ssr:stedsnr" v="22558" />
	</node>
	<node lat="63.70040000458005" lon="11.002897215272077" id="-32487">
		<tag k="name" v="Vesterheim" />
		<tag k="place" v="farm" />
		<tag k="ssr:stedsnr" v="22559" />
	</node>
	<node lat="63.745550000727114" lon="11.31664721322972" id="-32489">
		<tag k="name" v="Elverhøy" />
		<tag k="place" v="farm" />
		<tag k="ssr:stedsnr" v="22632" />
	</node>
	<node lat="63.74698943072993" lon="11.267914033212548" id="-32490">
		<tag k="fixme" v="consider place=hamlet" />
		<tag k="name" v="Auster-Veske" />
		<tag k="place" v="farm" />
		<tag k="ssr:stedsnr" v="22644" />
	</node>
	<node lat="63.732052780348816" lon="11.282238894583612" id="-32492">
		<tag k="building" v="commercial" />
		<tag k="name" v="Magneten" />
		<tag k="ssr:stedsnr" v="22647" />
	</node>
	<node lat="63.7391277788209" lon="11.264938898636343" id="-32494">
		<tag k="name" v="Møllerenget" />
		<tag k="place" v="quarter" />
		<tag k="ssr:stedsnr" v="22661" />
	</node>
	<node lat="63.75980023823823" lon="11.425706635753253" id="-32495">
		<tag k="name" v="Salthammar" />
		<tag k="place" v="farm" />
		<tag k="ssr:stedsnr" v="22735" />
	</node>
	<node lat="63.74736667089364" lon="11.319705551961125" id="-32498">
		<tag k="name" v="Leira sjefsgård" />
		<tag k="place" v="isolated_dwelling" />
		<tag k="ssr:stedsnr" v="22622" />
	</node>
	<node lat="63.74402221914191" lon="11.332413887837381" id="-32499">
		<tag k="name" v="Lykkens Prøve" />
		<tag k="place" v="farm" />
		<tag k="ssr:stedsnr" v="22625" />
	</node>
	<node lat="63.73853333601065" lon="11.30915555240245" id="-32502">
		<tag k="name" v="Vestgård" />
		<tag k="place" v="farm" />
		<tag k="ssr:stedsnr" v="22631" />
	</node>
	<node lat="63.710516667153215" lon="11.033824998560926" id="-32504">
		<tag k="name" v="Øversanden" />
		<tag k="place" v="farm" />
		<tag k="ssr:stedsnr" v="23949" />
	</node>
	<node lat="63.65856111497038" lon="11.299983325000994" id="-32508">
		<tag k="name" v="Åsgårdan" />
		<tag k="place" v="locality" />
		<tag k="ssr:stedsnr" v="25359" />
	</node>
	<node lat="63.730112814444006" lon="11.331874167251753" id="-32510">
		<tag k="fixme" v="consider place=hamlet" />
		<tag k="name" v="Tingstad" />
		<tag k="place" v="farm" />
		<tag k="ssr:stedsnr" v="25936" />
	</node>
	<node lat="63.69049772647726" lon="11.123395424477375" id="-32511">
		<tag k="name" v="Veie" />
		<tag k="place" v="hamlet" />
		<tag k="ssr:stedsnr" v="26346" />
	</node>
	<node lat="63.727797416200616" lon="11.45200617509227" id="-32512">
		<tag k="name" v="Okkenhaug" />
		<tag k="place" v="farm" />
		<tag k="ssr:stedsnr" v="26350" />
	</node>
	<node lat="63.758797224521174" lon="11.043477778652276" id="-32518">
		<tag k="name" v="Klingra" />
		<tag k="place" v="isolated_dwelling" />
		<tag k="ssr:stedsnr" v="45740" />
	</node>
	<node lat="63.799902777387" lon="11.200140238892537" id="-32520">
		<tag k="name" v="Sandan" />
		<tag k="place" v="farm" />
		<tag k="ssr:stedsnr" v="46818" />
	</node>
	<node lat="63.66485555955733" lon="11.11087500041158" id="-32522">
		<tag k="alt_name" v="Ronglan østre" />
		<tag k="name" v="Østre Ronglan" />
		<tag k="place" v="farm" />
		<tag k="ssr:stedsnr" v="47011" />
	</node>
	<node lat="63.639036114290796" lon="11.296769439195312" id="-32545">
		<tag k="name" v="Hallset" />
		<tag k="place" v="farm" />
		<tag k="ssr:stedsnr" v="49550" />
	</node>
	<node lat="63.628730551831865" lon="11.27562222424232" id="-32546">
		<tag k="name" v="Bergheim" />
		<tag k="place" v="farm" />
		<tag k="ssr:stedsnr" v="49552" />
	</node>
	<node lat="63.695930559242456" lon="11.147180562243276" id="-32550">
		<tag k="name" v="Rennan" />
		<tag k="place" v="farm" />
		<tag k="ssr:stedsnr" v="58291" />
	</node>
	<node lat="63.68621388808049" lon="11.309158327846593" id="-32551">
		<tag k="leisure" v="pitch" />
		<tag k="name" v="Torsbustaden" />
		<tag k="ssr:stedsnr" v="60149" />
	</node>
	<node lat="63.60916549077121" lon="11.371768192063813" id="-32553">
		<tag k="name" v="Ådalsvollen" />
		<tag k="place" v="locality" />
		<tag k="ssr:stedsnr" v="73424" />
	</node>
	<node lat="63.70029999995004" lon="11.002880556436002" id="-32556">
		<tag k="name" v="Vestran" />
		<tag k="place" v="farm" />
		<tag k="ssr:stedsnr" v="73095" />
	</node>
	<node lat="63.63772500243698" lon="11.048372220919422" id="-32560">
		<tag k="name" v="Risbergbakken" />
		<tag k="place" v="farm" />
		<tag k="ssr:stedsnr" v="73974" />
	</node>
	<node lat="63.63922147164435" lon="11.139759659135741" id="-32561">
		<tag k="fixme" v="consider place=hamlet" />
		<tag k="name" v="Skogen" />
		<tag k="place" v="farm" />
		<tag k="ssr:stedsnr" v="73999" />
	</node>
	<node lat="63.57130767403825" lon="10.928645068240243" id="-32563">
		<tag k="fixme" v="consider place=hamlet" />
		<tag k="name" v="Åvika" />
		<tag k="place" v="farm" />
		<tag k="ssr:stedsnr" v="73794" />
	</node>
	<node lat="63.603043051803155" lon="10.958902601652714" id="-32565">
		<tag k="fixme" v="consider place=hamlet" />
		<tag k="name" v="Hopla" />
		<tag k="place" v="farm" />
		<tag k="ssr:stedsnr" v="73873" />
	</node>
	<node lat="63.69597777453293" lon="11.187672225290362" id="-32568">
		<tag k="name" v="Moslett" />
		<tag k="place" v="farm" />
		<tag k="ssr:stedsnr" v="74075" />
	</node>
	<node lat="63.692695101783755" lon="11.051377388474227" id="-32569">
		<tag k="name" v="Nord-By" />
		<tag k="place" v="farm" />
		<tag k="ssr:stedsnr" v="74081" />
	</node>
	<node lat="63.750524999665224" lon="11.370808342008758" id="-32571">
		<tag k="alt_name" v="Rokne, vestre;Vestre Rokne" />
		<tag k="name" v="Vester-Rokne" />
		<tag k="place" v="farm" />
		<tag k="ssr:stedsnr" v="74336" />
	</node>
	<node lat="63.70242261415" lon="11.297954230368688" id="-32576">
		<tag k="fixme" v="consider place=hamlet" />
		<tag k="name" v="Masteråsen" />
		<tag k="place" v="farm" />
		<tag k="ssr:stedsnr" v="74586" />
	</node>
	<node lat="63.70378333141837" lon="11.335850000498567" id="-32577">
		<tag k="alt_name" v="Brandåsen" />
		<tag k="name" v="Brennås" />
		<tag k="place" v="farm" />
		<tag k="ssr:stedsnr" v="74588" />
	</node>
	<node lat="63.58282777476341" lon="10.916447213069288" id="-32578">
		<tag k="name" v="Nordre Undlinan" />
		<tag k="place" v="farm" />
		<tag k="ssr:stedsnr" v="74857" />
	</node>
	<node lat="63.664736110568136" lon="11.51298334246748" id="-32580">
		<tag k="name" v="Davebustad" />
		<tag k="place" v="isolated_dwelling" />
		<tag k="ssr:stedsnr" v="74539" />
	</node>
	<node lat="63.610819893487054" lon="11.073045690270893" id="-32585">
		<tag k="fixme" v="consider place=hamlet" />
		<tag k="name" v="Vang" />
		<tag k="place" v="farm" />
		<tag k="ssr:stedsnr" v="74930" />
	</node>
	<node lat="63.63198888847848" lon="11.091677779575702" id="-32587">
		<tag k="name" v="Sonstad" />
		<tag k="place" v="farm" />
		<tag k="ssr:stedsnr" v="74948" />
	</node>
	<node lat="63.58216388549783" lon="10.9292388965368" id="-32588">
		<tag k="alt_name" v="Skjesol, øvre" />
		<tag k="name" v="Øvre Skjesol" />
		<tag k="place" v="farm" />
		<tag k="ssr:stedsnr" v="74798" />
	</node>
	<node lat="63.806238886677235" lon="11.227733326816436" id="-32589">
		<tag k="name" v="Tangen" />
		<tag k="place" v="farm" />
		<tag k="ssr:stedsnr" v="75294" />
	</node>
	<node lat="63.77788896164508" lon="11.062902283286196" id="-32591">
		<tag k="name" v="Ner-Erstad" />
		<tag k="place" v="farm" />
		<tag k="ssr:stedsnr" v="75836" />
	</node>
	<node lat="63.78460277930189" lon="11.080608336346735" id="-32592">
		<tag k="name" v="Østre Erstad" />
		<tag k="place" v="farm" />
		<tag k="ssr:stedsnr" v="75838" />
	</node>
	<node lat="63.72416944337067" lon="11.21835832678616" id="-32593">
		<tag k="name" v="Verstad" />
		<tag k="place" v="farm" />
		<tag k="ssr:stedsnr" v="83498" />
	</node>
	<node lat="63.69778055503545" lon="11.224191671240643" id="-32594">
		<tag k="name" v="Elverhaug" />
		<tag k="place" v="farm" />
		<tag k="ssr:stedsnr" v="83614" />
	</node>
	<node lat="63.72645000241348" lon="11.252711106613933" id="-32595">
		<tag k="leisure" v="pitch" />
		<tag k="name" v="Nossum Travbane" />
		<tag k="ssr:stedsnr" v="83620" />
	</node>
	<node lat="63.73540833242159" lon="11.354611117421006" id="-32598">
		<tag k="name" v="Solhaug" />
		<tag k="place" v="isolated_dwelling" />
		<tag k="ssr:stedsnr" v="83646" />
	</node>
	<node lat="63.73490278133898" lon="11.240180560110469" id="-32599">
		<tag k="name" v="Bergtrøa" />
		<tag k="place" v="isolated_dwelling" />
		<tag k="ssr:stedsnr" v="83651" />
	</node>
	<node lat="63.741541666404885" lon="11.278566665911706" id="-32600">
		<tag k="leisure" v="pitch" />
		<tag k="name" v="Moan idrettspark" />
		<tag k="ssr:stedsnr" v="83652" />
	</node>
	<node lat="63.76861111460637" lon="11.34345277049117" id="-32603">
		<tag k="name" v="Børøya" />
		<tag k="place" v="farm" />
		<tag k="ssr:stedsnr" v="83670" />
	</node>
	<node lat="63.7641444403609" lon="11.358836102530331" id="-32604">
		<tag k="name" v="Øver-Bør" />
		<tag k="place" v="farm" />
		<tag k="ssr:stedsnr" v="83678" />
	</node>
	<node lat="63.75592500053807" lon="11.38031389745285" id="-32606">
		<tag k="name" v="Ner-Rokne" />
		<tag k="place" v="farm" />
		<tag k="ssr:stedsnr" v="83727" />
	</node>
	<node lat="63.72761423419814" lon="11.455747401172095" id="-32611">
		<tag k="fixme" v="consider place=hamlet" />
		<tag k="name" v="Okkenhaug" />
		<tag k="place" v="farm" />
		<tag k="ssr:stedsnr" v="86322" />
	</node>
	<node lat="63.71237222340045" lon="11.218783338757026" id="-32612">
		<tag k="name" v="Eggen" />
		<tag k="place" v="farm" />
		<tag k="ssr:stedsnr" v="87292" />
	</node>
	<node lat="63.72051667074785" lon="11.463877775947353" id="-32614">
		<tag k="name" v="Reidulfstad" />
		<tag k="place" v="farm" />
		<tag k="ssr:stedsnr" v="87307" />
	</node>
	<node lat="63.63600095340509" lon="11.057936312937512" id="-32619">
		<tag k="fixme" v="consider place=hamlet" />
		<tag k="name" v="Melhus" />
		<tag k="place" v="farm" />
		<tag k="ssr:stedsnr" v="105651" />
	</node>
	<node lat="63.5791396060535" lon="10.897267589330982" id="-32621">
		<tag k="name" v="Undliaunet" />
		<tag k="place" v="farm" />
		<tag k="ssr:stedsnr" v="107545" />
	</node>
	<node lat="63.61233055295857" lon="10.918744438199578" id="-32623">
		<tag k="name" v="Slåttsveet" />
		<tag k="place" v="isolated_dwelling" />
		<tag k="ssr:stedsnr" v="107860" />
	</node>
	<node lat="63.65326388838638" lon="11.036013886709581" id="-32639">
		<tag k="name" v="Tretsve" />
		<tag k="place" v="locality" />
		<tag k="ssr:stedsnr" v="109297" />
	</node>
	<node lat="63.77806388979171" lon="11.052911115729183" id="-32641">
		<tag k="alt_name" v="Gilberg øvre" />
		<tag k="name" v="Øvre Gilberg" />
		<tag k="place" v="farm" />
		<tag k="ssr:stedsnr" v="109099" />
	</node>
	<node lat="63.69606111370337" lon="10.946641664353349" id="-32644">
		<tag k="name" v="Båtsve" />
		<tag k="place" v="locality" />
		<tag k="ssr:stedsnr" v="109315" />
	</node>
	<node lat="63.67591944070211" lon="11.13386666082766" id="-32653">
		<tag k="name" v="Gottåsåsen" />
		<tag k="place" v="farm" />
		<tag k="ssr:stedsnr" v="134034" />
	</node>
	<node lat="63.65331389208953" lon="11.183294437523287" id="-32656">
		<tag k="name" v="Olstad" />
		<tag k="place" v="farm" />
		<tag k="ssr:stedsnr" v="134075" />
	</node>
	<node lat="63.6889583322099" lon="11.064052779134888" id="-32658">
		<tag k="name" v="Grønvoll" />
		<tag k="place" v="farm" />
		<tag k="ssr:stedsnr" v="134100" />
	</node>
	<node lat="63.70565833167029" lon="11.031069442309134" id="-32659">
		<tag k="alt_name" v="Haugan, midtre" />
		<tag k="name" v="Midtre Haugan" />
		<tag k="place" v="farm" />
		<tag k="ssr:stedsnr" v="134188" />
	</node>
	<node lat="63.63541111205604" lon="11.313908327109994" id="-32660">
		<tag k="name" v="Nyborg" />
		<tag k="place" v="farm" />
		<tag k="ssr:stedsnr" v="134427" />
	</node>
	<node lat="63.6284712520055" lon="11.351560753789043" id="-32661">
		<tag k="fixme" v="consider place=hamlet" />
		<tag k="name" v="Storbakken" />
		<tag k="place" v="farm" />
		<tag k="ssr:stedsnr" v="134431" />
	</node>
	<node lat="63.63628332898923" lon="11.425608338313419" id="-32662">
		<tag k="alt_name" v="Rallen, store" />
		<tag k="name" v="Store Rallen" />
		<tag k="place" v="isolated_dwelling" />
		<tag k="ssr:stedsnr" v="134437" />
	</node>
	<node lat="63.75196944108325" lon="11.358277777322321" id="-32663">
		<tag k="name" v="Setran" />
		<tag k="place" v="farm" />
		<tag k="ssr:stedsnr" v="134386" />
	</node>
	<node lat="63.619676453584084" lon="11.343927975317676" id="-32664">
		<tag k="fixme" v="consider place=hamlet" />
		<tag k="name" v="Knipenberg" />
		<tag k="place" v="farm" />
		<tag k="ssr:stedsnr" v="134458" />
	</node>
	<node lat="63.603174997960586" lon="11.261066674782965" id="-32666">
		<tag k="alt_name" v="Mølnåsen" />
		<tag k="name" v="Mølnås" />
		<tag k="place" v="farm" />
		<tag k="ssr:stedsnr" v="134474" />
	</node>
	<node lat="63.62199999835047" lon="11.402591666691915" id="-32670">
		<tag k="name" v="Trosetvollen" />
		<tag k="place" v="locality" />
		<tag k="ssr:stedsnr" v="134452" />
	</node>
	<node lat="63.64237778016452" lon="11.450508335383638" id="-32672">
		<tag k="name" v="Hoabustaden" />
		<tag k="place" v="isolated_dwelling" />
		<tag k="ssr:stedsnr" v="134558" />
	</node>
	<node lat="63.63670000235923" lon="11.252025007234549" id="-32673">
		<tag k="name" v="Berglund" />
		<tag k="place" v="farm" />
		<tag k="ssr:stedsnr" v="134562" />
	</node>
	<node lat="63.65835000249116" lon="11.227266665844112" id="-32674">
		<tag k="name" v="Berg" />
		<tag k="place" v="farm" />
		<tag k="ssr:stedsnr" v="134565" />
	</node>
	<node lat="63.673019440150384" lon="11.247463889704557" id="-32676">
		<tag k="name" v="Lundsvoll" />
		<tag k="place" v="farm" />
		<tag k="ssr:stedsnr" v="134577" />
	</node>
	<node lat="63.67493611137067" lon="11.303866669469999" id="-32678">
		<tag k="name" v="Lundsbustad" />
		<tag k="place" v="isolated_dwelling" />
		<tag k="ssr:stedsnr" v="134580" />
	</node>
	<node lat="63.7073722229674" lon="11.253566668274793" id="-32682">
		<tag k="name" v="Rydningsmo" />
		<tag k="place" v="farm" />
		<tag k="ssr:stedsnr" v="134637" />
	</node>
	<node lat="63.71917500034045" lon="11.380358329720991" id="-32683">
		<tag k="name" v="Munkbyberget" />
		<tag k="place" v="farm" />
		<tag k="ssr:stedsnr" v="134656" />
	</node>
	<node lat="63.72527777592259" lon="11.550650003535834" id="-32684">
		<tag k="alt_name" v="Østmoen" />
		<tag k="name" v="Austmo" />
		<tag k="place" v="farm" />
		<tag k="ssr:stedsnr" v="134661" />
	</node>
	<node lat="63.71943610746657" lon="11.268741660947063" id="-32685">
		<tag k="name" v="Berg" />
		<tag k="place" v="farm" />
		<tag k="ssr:stedsnr" v="134663" />
	</node>
	<node lat="63.72732499800148" lon="11.24150556124634" id="-32686">
		<tag k="name" v="Marienborg" />
		<tag k="place" v="farm" />
		<tag k="ssr:stedsnr" v="134666" />
	</node>
	<node lat="63.73105923367467" lon="11.403894038719722" id="-32687">
		<tag k="fixme" v="consider place=hamlet" />
		<tag k="name" v="Munkrøstad" />
		<tag k="place" v="farm" />
		<tag k="ssr:stedsnr" v="134667" />
	</node>
	<node lat="63.72900000402861" lon="11.480811111812624" id="-32688">
		<tag k="name" v="Duvsete" />
		<tag k="place" v="farm" />
		<tag k="ssr:stedsnr" v="134668" />
	</node>
	<node lat="63.740780556048776" lon="11.407799995172402" id="-32689">
		<tag k="name" v="Steine" />
		<tag k="place" v="farm" />
		<tag k="ssr:stedsnr" v="134681" />
	</node>
	<node lat="63.737274998638384" lon="11.255727774638512" id="-32690">
		<tag k="name" v="Nesheim" />
		<tag k="place" v="farm" />
		<tag k="ssr:stedsnr" v="134685" />
	</node>
	<node lat="63.74060000113421" lon="11.325372231898466" id="-32691">
		<tag k="name" v="Austre Ulve" />
		<tag k="place" v="farm" />
		<tag k="ssr:stedsnr" v="134686" />
	</node>
	<node lat="63.61278333345738" lon="11.142961111107471" id="-32693">
		<tag k="name" v="Røstadvika" />
		<tag k="place" v="farm" />
		<tag k="ssr:stedsnr" v="134929" />
	</node>
	<node lat="63.6101127607118" lon="10.96413464149644" id="-32694">
		<tag k="fixme" v="consider place=hamlet" />
		<tag k="name" v="Fåra" />
		<tag k="place" v="farm" />
		<tag k="ssr:stedsnr" v="134941" />
	</node>
	<node lat="63.61367283547159" lon="11.078236172049612" id="-32695">
		<tag k="fixme" v="consider place=hamlet" />
		<tag k="name" v="Hove" />
		<tag k="place" v="farm" />
		<tag k="ssr:stedsnr" v="134947" />
	</node>
	<node lat="63.76961926509197" lon="11.068265260641146" id="-32696">
		<tag k="name" v="Berg" />
		<tag k="place" v="hamlet" />
		<tag k="ssr:stedsnr" v="134779" />
	</node>
	<node lat="63.567174998687996" lon="10.868722222257501" id="-32697">
		<tag k="name" v="Aurtua" />
		<tag k="place" v="farm" />
		<tag k="ssr:stedsnr" v="134782" />
	</node>
	<node lat="63.76894444077031" lon="11.048091667160469" id="-32698">
		<tag k="name" v="Nord-Røvika" />
		<tag k="place" v="farm" />
		<tag k="ssr:stedsnr" v="134784" />
	</node>
	<node lat="63.771563888045435" lon="11.052074994947636" id="-32700">
		<tag k="name" v="Nøvik" />
		<tag k="place" v="isolated_dwelling" />
		<tag k="ssr:stedsnr" v="134797" />
	</node>
	<node lat="63.59380833549697" lon="11.12661389214505" id="-32701">
		<tag k="name" v="Åsli" />
		<tag k="place" v="farm" />
		<tag k="ssr:stedsnr" v="134878" />
	</node>
	<node lat="63.59840497012607" lon="10.950121255964044" id="-32702">
		<tag k="fixme" v="consider place=hamlet" />
		<tag k="name" v="Berg" />
		<tag k="place" v="farm" />
		<tag k="ssr:stedsnr" v="134887" />
	</node>
	<node lat="63.614147219276965" lon="11.09797223079134" id="-32703">
		<tag k="alt_name" v="Husby, nedre" />
		<tag k="name" v="Nedre Husby" />
		<tag k="place" v="farm" />
		<tag k="ssr:stedsnr" v="134968" />
	</node>
	<node lat="63.62168767935997" lon="10.920550946822397" id="-32705">
		<tag k="fixme" v="consider place=hamlet" />
		<tag k="name" v="Sunndalen" />
		<tag k="place" v="farm" />
		<tag k="ssr:stedsnr" v="134978" />
	</node>
	<node lat="63.63411666472434" lon="11.079741669345053" id="-32706">
		<tag k="alt_name" v="Holingan, austre" />
		<tag k="fixme" v="multiple name tags, choose one and add the other to alt_name" />
		<tag k="name" v="Syrstad;Austre Holingan" />
		<tag k="place" v="farm" />
		<tag k="ssr:stedsnr" v="134979" />
	</node>
	<node lat="63.63813055766852" lon="11.152788885057026" id="-32708">
		<tag k="name" v="Skogsveet" />
		<tag k="place" v="farm" />
		<tag k="ssr:stedsnr" v="134997" />
	</node>
	<node lat="63.63456666813875" lon="11.185669435754638" id="-32709">
		<tag k="name" v="Myrvang" />
		<tag k="place" v="farm" />
		<tag k="ssr:stedsnr" v="134998" />
	</node>
	<node lat="63.76081388459344" lon="11.3365444520135" id="-32710">
		<tag k="name" v="Ner-Tynes" />
		<tag k="place" v="farm" />
		<tag k="ssr:stedsnr" v="135348" />
	</node>
	<node lat="63.75707860400036" lon="11.409987736237477" id="-32711">
		<tag k="fixme" v="consider place=hamlet" />
		<tag k="name" v="Kleiva" />
		<tag k="place" v="farm" />
		<tag k="ssr:stedsnr" v="135297" />
	</node>
	<node lat="63.78099444682782" lon="11.075044442633823" id="-32712">
		<tag k="name" v="Øver-Erstad" />
		<tag k="place" v="farm" />
		<tag k="ssr:stedsnr" v="135761" />
	</node>
	<node lat="63.70686944263228" lon="11.21203055084547" id="-32715">
		<tag k="name" v="Lunden" />
		<tag k="place" v="farm" />
		<tag k="ssr:stedsnr" v="143618" />
	</node>
	<node lat="63.71887499670899" lon="11.306836101124402" id="-32718">
		<tag k="name" v="Austre Kjølåsen" />
		<tag k="place" v="farm" />
		<tag k="ssr:stedsnr" v="143572" />
	</node>
	<node lat="63.72409444591674" lon="11.349855556461167" id="-32719">
		<tag k="name" v="Bergsmo" />
		<tag k="place" v="farm" />
		<tag k="ssr:stedsnr" v="143575" />
	</node>
	<node lat="63.72220758954149" lon="11.333235980901174" id="-32720">
		<tag k="fixme" v="consider place=hamlet" />
		<tag k="name" v="Hegeråsen" />
		<tag k="place" v="farm" />
		<tag k="ssr:stedsnr" v="143577" />
	</node>
	<node lat="63.697652779066026" lon="11.229422216566558" id="-32721">
		<tag k="name" v="Ner-Stavlo" />
		<tag k="place" v="farm" />
		<tag k="ssr:stedsnr" v="143620" />
	</node>
	<node lat="63.755508337821205" lon="11.23593610255788" id="-32722">
		<tag k="name" v="Dalheim" />
		<tag k="place" v="farm" />
		<tag k="ssr:stedsnr" v="143622" />
	</node>
	<node lat="63.74935555929787" lon="11.38260556145997" id="-32724">
		<tag k="name" v="Haugset" />
		<tag k="place" v="farm" />
		<tag k="ssr:stedsnr" v="143697" />
	</node>
	<node lat="63.74063055930459" lon="11.28301387917425" id="-32727">
		<tag k="name" v="Moan" />
		<tag k="place" v="suburb" />
		<tag k="ssr:stedsnr" v="143648" />
	</node>
	<node lat="63.742127778190685" lon="11.266338895054648" id="-32729">
		<tag k="name" v="Litlmarka" />
		<tag k="place" v="farm" />
		<tag k="ssr:stedsnr" v="143657" />
	</node>
	<node lat="63.710733336991005" lon="11.035519439071379" id="-32734">
		<tag k="name" v="Haugsanden" />
		<tag k="place" v="farm" />
		<tag k="ssr:stedsnr" v="144945" />
	</node>
	<node lat="63.58647132443011" lon="10.879649109008835" id="-32735">
		<tag k="fixme" v="consider place=hamlet" />
		<tag k="name" v="Lauvtangen" />
		<tag k="place" v="farm" />
		<tag k="ssr:stedsnr" v="146071" />
	</node>
	<node lat="63.80687381866223" lon="11.210198018075674" id="-32739">
		<tag k="name" v="Storsveet" />
		<tag k="place" v="farm" />
		<tag k="ssr:stedsnr" v="146371" />
	</node>
	<node lat="63.77603333193228" lon="11.03444443919604" id="-32744">
		<tag k="name" v="Storsveet" />
		<tag k="place" v="locality" />
		<tag k="ssr:stedsnr" v="146851" />
	</node>
	<node lat="63.76566577541207" lon="11.047554555446512" id="-32746">
		<tag k="name" v="Røvika" />
		<tag k="place" v="hamlet" />
		<tag k="ssr:stedsnr" v="147380" />
	</node>
	<node lat="63.791316664403475" lon="11.123513893009923" id="-32747">
		<tag k="name" v="Berg" />
		<tag k="place" v="farm" />
		<tag k="ssr:stedsnr" v="147384" />
	</node>
	<node lat="63.765269445221335" lon="11.440838889593447" id="-32751">
		<tag k="alt_name" v="Rindheim" />
		<tag k="name" v="Rinnheim" />
		<tag k="place" v="farm" />
		<tag k="ssr:stedsnr" v="147483" />
	</node>
	<node lat="63.59410859149661" lon="10.911356801464622" id="-32758">
		<tag k="alt_name" v="Lo vestre" />
		<tag k="name" v="Vestre Lo" />
		<tag k="place" v="farm" />
		<tag k="ssr:stedsnr" v="229552" />
	</node>
	<node lat="63.5972111150312" lon="10.912377778323293" id="-32759">
		<tag k="name" v="Tunli" />
		<tag k="place" v="neighbourhood" />
		<tag k="ssr:stedsnr" v="229553" />
	</node>
	<node lat="63.60782281765858" lon="11.080080060198425" id="-32761">
		<tag k="name" v="Hoklingan" />
		<tag k="place" v="hamlet" />
		<tag k="ssr:stedsnr" v="165045" />
	</node>
	<node lat="63.79487500093917" lon="11.079047219841115" id="-32762">
		<tag k="name" v="Jørstadsjøen" />
		<tag k="place" v="farm" />
		<tag k="ssr:stedsnr" v="165438" />
	</node>
	<node lat="63.79217777809362" lon="11.066861113821163" id="-32763">
		<tag k="name" v="Sandberget" />
		<tag k="place" v="isolated_dwelling" />
		<tag k="ssr:stedsnr" v="165440" />
	</node>
	<node lat="63.658113886821035" lon="11.236500006904889" id="-32782">
		<tag k="name" v="Myrås" />
		<tag k="place" v="farm" />
		<tag k="ssr:stedsnr" v="170436" />
	</node>
	<node lat="63.632498427708924" lon="11.318400353970894" id="-32783">
		<tag k="alt_name" v="Troset lille" />
		<tag k="fixme" v="consider place=hamlet" />
		<tag k="name" v="Litle Troset" />
		<tag k="place" v="farm" />
		<tag k="ssr:stedsnr" v="170506" />
	</node>
	<node lat="63.64244999774338" lon="11.27260278218979" id="-32784">
		<tag k="name" v="Haugen" />
		<tag k="place" v="farm" />
		<tag k="ssr:stedsnr" v="170524" />
	</node>
	<node lat="63.64011388490039" lon="11.242691673708281" id="-32785">
		<tag k="name" v="Langåssve" />
		<tag k="place" v="farm" />
		<tag k="ssr:stedsnr" v="170525" />
	</node>
	<node lat="63.75218610666095" lon="11.304952777836343" id="-32790">
		<tag k="amenity" v="school" />
		<tag k="name" v="Levanger ungdomsskole" />
		<tag k="ssr:stedsnr" v="181091" />
	</node>
	<node lat="63.63977222491108" lon="11.305524999742168" id="-32791">
		<tag k="name" v="Hallbakken" />
		<tag k="place" v="farm" />
		<tag k="ssr:stedsnr" v="195540" />
	</node>
	<node lat="63.644141668749796" lon="11.275536106254707" id="-32792">
		<tag k="alt_name" v="Dalsve" />
		<tag k="name" v="Dalsveet" />
		<tag k="place" v="farm" />
		<tag k="ssr:stedsnr" v="195545" />
	</node>
	<node lat="63.656244443361786" lon="11.231505557392717" id="-32793">
		<tag k="name" v="Høgstein" />
		<tag k="place" v="farm" />
		<tag k="ssr:stedsnr" v="195558" />
	</node>
	<node lat="63.6738944424312" lon="11.224544453360888" id="-32795">
		<tag k="name" v="Byvoll" />
		<tag k="place" v="farm" />
		<tag k="ssr:stedsnr" v="195564" />
	</node>
	<node lat="63.66792222313358" lon="11.488022215632972" id="-32796">
		<tag k="name" v="Rinnbustad" />
		<tag k="place" v="isolated_dwelling" />
		<tag k="ssr:stedsnr" v="195568" />
	</node>
	<node lat="63.641983331381425" lon="11.16600555428036" id="-32799">
		<tag k="name" v="Elgsetsveet" />
		<tag k="place" v="farm" />
		<tag k="ssr:stedsnr" v="195037" />
	</node>
	<node lat="63.65649722038332" lon="10.984738886824447" id="-32800">
		<tag k="alt_name" v="Avdalen, s;Avdalen søndre" />
		<tag k="name" v="Søre Avdalen" />
		<tag k="place" v="farm" />
		<tag k="ssr:stedsnr" v="195046" />
	</node>
	<node lat="63.66349326174033" lon="11.11526159298965" id="-32801">
		<tag k="fixme" v="consider place=hamlet" />
		<tag k="name" v="Sæte" />
		<tag k="place" v="farm" />
		<tag k="ssr:stedsnr" v="195006" />
	</node>
	<node lat="63.67538429367157" lon="11.06977873914157" id="-32803">
		<tag k="name" v="Kjølstad" />
		<tag k="place" v="farm" />
		<tag k="ssr:stedsnr" v="195020" />
	</node>
	<node lat="63.66983888565969" lon="11.069986118182198" id="-32804">
		<tag k="name" v="Bjørklund" />
		<tag k="place" v="farm" />
		<tag k="ssr:stedsnr" v="195021" />
	</node>
	<node lat="63.652669444273954" lon="11.200883336481082" id="-32805">
		<tag k="name" v="Hovdal" />
		<tag k="place" v="farm" />
		<tag k="ssr:stedsnr" v="195059" />
	</node>
	<node lat="63.658305555698306" lon="11.163755548349064" id="-32806">
		<tag k="alt_name" v="Lynan, søre" />
		<tag k="name" v="Søre Lynan" />
		<tag k="place" v="farm" />
		<tag k="ssr:stedsnr" v="195062" />
	</node>
	<node lat="63.65269166775207" lon="11.164477778841619" id="-32807">
		<tag k="name" v="Undlynan" />
		<tag k="place" v="farm" />
		<tag k="ssr:stedsnr" v="195063" />
	</node>
	<node lat="63.65289999695229" lon="11.08413611216033" id="-32808">
		<tag k="alt_name" v="Litle Kolsan;Kolsan litle" />
		<tag k="name" v="Kolsan" />
		<tag k="place" v="farm" />
		<tag k="ssr:stedsnr" v="195067" />
	</node>
	<node lat="63.687083332384695" lon="11.120327780372039" id="-32809">
		<tag k="name" v="Mellom-Veie" />
		<tag k="place" v="farm" />
		<tag k="ssr:stedsnr" v="195084" />
	</node>
	<node lat="63.67261110754317" lon="11.05761944452731" id="-32810">
		<tag k="name" v="Olberg" />
		<tag k="place" v="farm" />
		<tag k="ssr:stedsnr" v="195119" />
	</node>
	<node lat="63.69342777554314" lon="11.2172583422743" id="-32812">
		<tag k="name" v="Nordre Fostad" />
		<tag k="place" v="farm" />
		<tag k="ssr:stedsnr" v="195130" />
	</node>
	<node lat="63.74739166339996" lon="11.006336106567082" id="-32816">
		<tag k="name" v="Vika" />
		<tag k="place" v="farm" />
		<tag k="ssr:stedsnr" v="195162" />
	</node>
	<node lat="63.74823488501213" lon="11.026908974445682" id="-32817">
		<tag k="name" v="Grav" />
		<tag k="place" v="hamlet" />
		<tag k="ssr:stedsnr" v="195164" />
	</node>
	<node lat="63.70879722011608" lon="11.175747226036515" id="-32818">
		<tag k="alt_name" v="Holan, søre" />
		<tag k="name" v="Søre Holan" />
		<tag k="place" v="farm" />
		<tag k="ssr:stedsnr" v="195178" />
	</node>
	<node lat="63.62820555231296" lon="11.49200555192534" id="-32821">
		<tag k="alt_name" v="Reebustad" />
		<tag k="historic" v="shieling" />
		<tag k="name" v="Revollen" />
		<tag k="place" v="isolated_dwelling" />
		<tag k="ssr:stedsnr" v="195405" />
	</node>
	<node lat="63.623656374195036" lon="11.343910635655794" id="-32823">
		<tag k="fixme" v="consider place=hamlet" />
		<tag k="name" v="Kulåsen" />
		<tag k="place" v="farm" />
		<tag k="ssr:stedsnr" v="195415" />
	</node>
	<node lat="63.61520946226832" lon="11.360017994953527" id="-32824">
		<tag k="alt_name" v="Tretli" />
		<tag k="fixme" v="consider place=hamlet" />
		<tag k="name" v="Trettlia" />
		<tag k="place" v="farm" />
		<tag k="ssr:stedsnr" v="195427" />
	</node>
	<node lat="63.59815277378902" lon="11.5239250084205" id="-32827">
		<tag k="name" v="Grytesvollen" />
		<tag k="place" v="locality" />
		<tag k="ssr:stedsnr" v="195456" />
	</node>
	<node lat="63.591430551550054" lon="11.43090000681503" id="-32828">
		<tag k="name" v="Brennesvollen" />
		<tag k="place" v="locality" />
		<tag k="ssr:stedsnr" v="195466" />
	</node>
	<node lat="63.74206667129078" lon="11.392011103677737" id="-32831">
		<tag k="name" v="Granåsen" />
		<tag k="place" v="farm" />
		<tag k="ssr:stedsnr" v="195671" />
	</node>
	<node lat="63.72054444286675" lon="11.312319445862814" id="-32832">
		<tag k="name" v="Norenget" />
		<tag k="place" v="farm" />
		<tag k="ssr:stedsnr" v="195621" />
	</node>
	<node lat="63.72362777747298" lon="11.403794434646818" id="-32833">
		<tag k="name" v="Rømo" />
		<tag k="place" v="farm" />
		<tag k="ssr:stedsnr" v="195627" />
	</node>
	<node lat="63.745263889741075" lon="11.393750008389695" id="-32834">
		<tag k="name" v="Tronslia" />
		<tag k="place" v="farm" />
		<tag k="ssr:stedsnr" v="195690" />
	</node>
	<node lat="63.58406111218604" lon="11.005669449846431" id="-32835">
		<tag k="name" v="Storsveet" />
		<tag k="place" v="farm" />
		<tag k="ssr:stedsnr" v="195818" />
	</node>
	<node lat="63.58198965182129" lon="10.959070536346841" id="-32836">
		<tag k="fixme" v="consider place=hamlet" />
		<tag k="name" v="Åker" />
		<tag k="place" v="farm" />
		<tag k="ssr:stedsnr" v="195821" />
	</node>
	<node lat="63.60263333063122" lon="11.02369443523546" id="-32837">
		<tag k="alt_name" v="Grenne, austre" />
		<tag k="name" v="Austre Grenne" />
		<tag k="place" v="farm" />
		<tag k="ssr:stedsnr" v="195895" />
	</node>
	<node lat="63.599280555008015" lon="11.045616663950362" id="-32838">
		<tag k="alt_name" v="Rydningen" />
		<tag k="name" v="Innlegget" />
		<tag k="place" v="farm" />
		<tag k="ssr:stedsnr" v="195897" />
	</node>
	<node lat="63.576322225594225" lon="11.066333333920008" id="-32840">
		<tag k="name" v="Møssingvollen" />
		<tag k="place" v="isolated_dwelling" />
		<tag k="ssr:stedsnr" v="195846" />
	</node>
	<node lat="63.59583333747597" lon="11.021458332871337" id="-32843">
		<tag k="name" v="Grenneåsen" />
		<tag k="place" v="farm" />
		<tag k="ssr:stedsnr" v="195865" />
	</node>
	<node lat="63.58315000297564" lon="10.928413879805417" id="-32844">
		<tag k="alt_name" v="Skjesol, vestre" />
		<tag k="name" v="Vestre Skjesol" />
		<tag k="place" v="farm" />
		<tag k="ssr:stedsnr" v="195873" />
	</node>
	<node lat="63.58150000241453" lon="10.920388889192763" id="-32845">
		<tag k="name" v="Austre Undlinan" />
		<tag k="place" v="farm" />
		<tag k="ssr:stedsnr" v="195874" />
	</node>
	<node lat="63.60742499906153" lon="11.101716660855185" id="-32846">
		<tag k="name" v="Vestre Mossingan" />
		<tag k="place" v="farm" />
		<tag k="ssr:stedsnr" v="195920" />
	</node>
	<node lat="63.60909722495892" lon="11.098347221746263" id="-32847">
		<tag k="alt_name" v="Hokling, nedre" />
		<tag k="name" v="Vestre Mossing" />
		<tag k="place" v="farm" />
		<tag k="ssr:stedsnr" v="195922" />
	</node>
	<node lat="63.60693055853064" lon="10.988602774069893" id="-32849">
		<tag k="name" v="Støa" />
		<tag k="place" v="isolated_dwelling" />
		<tag k="ssr:stedsnr" v="195944" />
	</node>
	<node lat="63.62903580469706" lon="11.110931943701267" id="-32850">
		<tag k="fixme" v="consider place=hamlet" />
		<tag k="name" v="Rettan" />
		<tag k="place" v="farm" />
		<tag k="ssr:stedsnr" v="195956" />
	</node>
	<node lat="63.6171361155189" lon="11.091794439577578" id="-32851">
		<tag k="alt_name" v="Husby, vestre" />
		<tag k="name" v="Vestre Husby" />
		<tag k="place" v="farm" />
		<tag k="ssr:stedsnr" v="195966" />
	</node>
	<node lat="63.61718333492095" lon="11.160766663549175" id="-32852">
		<tag k="alt_name" v="Straumen, øvre;Øvre Strømmen" />
		<tag k="name" v="Øvre Straumen" />
		<tag k="old_name" v="Strømmen østre" />
		<tag k="place" v="farm" />
		<tag k="ssr:stedsnr" v="195968" />
	</node>
	<node lat="63.62338610945798" lon="11.069200004157516" id="-32853">
		<tag k="name" v="Gullberget" />
		<tag k="ssr:stedsnr" v="195972" />
		<tag k="tourism" v="camp_site" />
	</node>
	<node lat="63.63731587932569" lon="11.080115239570866" id="-32854">
		<tag k="name" v="Skjelstadaunet" />
		<tag k="place" v="hamlet" />
		<tag k="ssr:stedsnr" v="195979" />
	</node>
	<node lat="63.63382499861478" lon="11.062738898702902" id="-32855">
		<tag k="name" v="Melhus" />
		<tag k="place" v="farm" />
		<tag k="ssr:stedsnr" v="195980" />
	</node>
	<node lat="63.77393333666558" lon="11.401525005471743" id="-32857">
		<tag k="alt_name" v="Skånes, østre" />
		<tag k="name" v="Østre Skånes" />
		<tag k="place" v="farm" />
		<tag k="ssr:stedsnr" v="196255" />
	</node>
	<node lat="63.766672219224525" lon="11.060827779305278" id="-32859">
		<tag k="name" v="Hagan" />
		<tag k="place" v="farm" />
		<tag k="ssr:stedsnr" v="196801" />
	</node>
	<node lat="63.70877499704114" lon="11.176172228851868" id="-32860">
		<tag k="name" v="Øver-Holan" />
		<tag k="place" v="farm" />
		<tag k="ssr:stedsnr" v="204467" />
	</node>
	<node lat="63.71033055583375" lon="11.201419442541965" id="-32861">
		<tag k="name" v="Rabben" />
		<tag k="place" v="farm" />
		<tag k="ssr:stedsnr" v="204470" />
	</node>
	<node lat="63.69399166282429" lon="11.068736112916932" id="-32863">
		<tag k="name" v="Øver-Gustad" />
		<tag k="place" v="farm" />
		<tag k="ssr:stedsnr" v="204480" />
	</node>
	<node lat="63.6955027814607" lon="11.063941666348885" id="-32866">
		<tag k="name" v="Nord-Gustad" />
		<tag k="place" v="farm" />
		<tag k="ssr:stedsnr" v="204491" />
	</node>
	<node lat="63.762627776755174" lon="11.269138891467682" id="-32869">
		<tag k="name" v="Nordvik" />
		<tag k="place" v="farm" />
		<tag k="ssr:stedsnr" v="204529" />
	</node>
	<node lat="63.70933610936021" lon="11.252344435675845" id="-32872">
		<tag k="name" v="Glæstad" />
		<tag k="place" v="farm" />
		<tag k="ssr:stedsnr" v="204567" />
	</node>
	<node lat="63.70747499763166" lon="11.187300000644788" id="-32874">
		<tag k="name" v="Ner-Holan" />
		<tag k="place" v="farm" />
		<tag k="ssr:stedsnr" v="204580" />
	</node>
	<node lat="63.737458332802916" lon="11.30214722832894" id="-32875">
		<tag k="name" v="Geitingsvollen" />
		<tag k="place" v="farm" />
		<tag k="ssr:stedsnr" v="204616" />
	</node>
	<node lat="63.74490277916276" lon="11.264780552581295" id="-32876">
		<tag k="name" v="Rognhaugen" />
		<tag k="place" v="isolated_dwelling" />
		<tag k="ssr:stedsnr" v="204634" />
	</node>
	<node lat="63.73426388802217" lon="11.381780556386557" id="-32880">
		<tag k="name" v="Elvebakk" />
		<tag k="place" v="farm" />
		<tag k="ssr:stedsnr" v="204684" />
	</node>
	<node lat="63.69883611051511" lon="10.991491673398817" id="-32881">
		<tag k="name" v="Jonassveet" />
		<tag k="place" v="locality" />
		<tag k="ssr:stedsnr" v="204971" />
	</node>
	<node lat="63.70995278089383" lon="11.038261113710877" id="-32882">
		<tag k="name" v="Nordgård" />
		<tag k="place" v="farm" />
		<tag k="ssr:stedsnr" v="205950" />
	</node>
	<node lat="63.638925001161915" lon="11.283199999620647" id="-32897">
		<tag k="alt_name" v="Søre Hallan" />
		<tag k="name" v="Hallan" />
		<tag k="place" v="farm" />
		<tag k="ssr:stedsnr" v="283194" />
	</node>
	<node lat="63.63750277980658" lon="11.2867611043695" id="-32898">
		<tag k="alt_name" v="Vestre Hallan" />
		<tag k="name" v="Hallan" />
		<tag k="place" v="farm" />
		<tag k="ssr:stedsnr" v="283196" />
	</node>
	<node lat="63.59051944379242" lon="11.11189444822951" id="-32900">
		<tag k="name" v="Ringfoss" />
		<tag k="place" v="hamlet" />
		<tag k="ssr:stedsnr" v="290094" />
	</node>
	<node lat="63.60659132925254" lon="11.029551679132917" id="-32903">
		<tag k="name" v="Vedølan" />
		<tag k="place" v="isolated_dwelling" />
		<tag k="ssr:stedsnr" v="289554" />
	</node>
	<node lat="63.66251476896211" lon="11.110898356384618" id="-32909">
		<tag k="fixme" v="consider place=hamlet" />
		<tag k="name" v="Sætesaunet" />
		<tag k="place" v="farm" />
		<tag k="ssr:stedsnr" v="290059" />
	</node>
	<node lat="63.635661108792355" lon="11.294863896974853" id="-32920">
		<tag k="name" v="Myrheim" />
		<tag k="place" v="farm" />
		<tag k="ssr:stedsnr" v="291523" />
	</node>
	<node lat="63.59292222492238" lon="11.109755550603012" id="-32923">
		<tag k="name" v="Hammerhaug" />
		<tag k="place" v="isolated_dwelling" />
		<tag k="ssr:stedsnr" v="292007" />
	</node>
	<node lat="63.66485555955733" lon="11.11087500041158" id="-32925">
		<tag k="alt_name" v="Østre Ronglan" />
		<tag k="name" v="Ronglan østre" />
		<tag k="place" v="farm" />
		<tag k="ssr:stedsnr" v="299511" />
	</node>
	<node lat="63.65962777610859" lon="11.173150001668533" id="-32926">
		<tag k="alt_name" v="Vannvik" />
		<tag k="name" v="Vanvik" />
		<tag k="place" v="farm" />
		<tag k="ssr:stedsnr" v="316009" />
	</node>
	<node lat="63.69422778075259" lon="11.12266111773753" id="-32927">
		<tag k="name" v="Nordre Veie" />
		<tag k="place" v="farm" />
		<tag k="ssr:stedsnr" v="316077" />
	</node>
	<node lat="63.70315417849694" lon="11.132367306514322" id="-32929">
		<tag k="fixme" v="consider place=hamlet" />
		<tag k="name" v="Valan" />
		<tag k="place" v="farm" />
		<tag k="ssr:stedsnr" v="316092" />
	</node>
	<node lat="63.69312222645245" lon="11.129827769030891" id="-32930">
		<tag k="name" v="Veiset" />
		<tag k="place" v="farm" />
		<tag k="ssr:stedsnr" v="316121" />
	</node>
	<node lat="63.687036114941755" lon="11.200233335765228" id="-32931">
		<tag k="name" v="Elvrum" />
		<tag k="place" v="farm" />
		<tag k="ssr:stedsnr" v="316124" />
	</node>
	<node lat="63.74497222076913" lon="11.018169436677214" id="-32932">
		<tag k="name" v="Litl-Grav" />
		<tag k="place" v="farm" />
		<tag k="ssr:stedsnr" v="316159" />
	</node>
	<node lat="63.6429455250614" lon="11.068574587029493" id="-32933">
		<tag k="fixme" v="consider place=hamlet" />
		<tag k="name" v="Nonstad" />
		<tag k="place" v="farm" />
		<tag k="ssr:stedsnr" v="316044" />
	</node>
	<node lat="63.592727775164576" lon="11.379172231382787" id="-32937">
		<tag k="name" v="Bergbustaden" />
		<tag k="place" v="isolated_dwelling" />
		<tag k="ssr:stedsnr" v="316485" />
	</node>
	<node lat="63.667394442502946" lon="11.56333611422555" id="-32938">
		<tag k="historic" v="shieling" />
		<tag k="name" v="Kløvjanbustad" />
		<tag k="place" v="isolated_dwelling" />
		<tag k="ssr:stedsnr" v="316595" />
	</node>
	<node lat="63.70500555776114" lon="11.285244438259602" id="-32940">
		<tag k="name" v="Lennes" />
		<tag k="place" v="farm" />
		<tag k="ssr:stedsnr" v="316629" />
	</node>
	<node lat="63.65315277780399" lon="11.34265554720703" id="-32941">
		<tag k="alt_name" v="Volusjøvollen" />
		<tag k="name" v="Vulusjøvollen" />
		<tag k="place" v="isolated_dwelling" />
		<tag k="ssr:stedsnr" v="316586" />
	</node>
	<node lat="63.67837777437824" lon="11.446258330939624" id="-32942">
		<tag k="name" v="Nysagvollen" />
		<tag k="place" v="locality" />
		<tag k="ssr:stedsnr" v="316591" />
	</node>
	<node lat="63.72050000016577" lon="11.42045555442161" id="-32944">
		<tag k="name" v="Brekken" />
		<tag k="place" v="farm" />
		<tag k="ssr:stedsnr" v="316669" />
	</node>
	<node lat="63.58942629461905" lon="10.9989214972294" id="-32946">
		<tag k="fixme" v="consider place=hamlet" />
		<tag k="name" v="Avdølan" />
		<tag k="place" v="farm" />
		<tag k="ssr:stedsnr" v="316862" />
	</node>
	<node lat="63.57772265131489" lon="10.954720505337173" id="-32948">
		<tag k="fixme" v="consider place=hamlet" />
		<tag k="name" v="Langåsan" />
		<tag k="place" v="farm" />
		<tag k="ssr:stedsnr" v="316877" />
	</node>
	<node lat="63.59203186285692" lon="10.941791233864771" id="-32950">
		<tag k="fixme" v="consider place=hamlet" />
		<tag k="name" v="Reinås" />
		<tag k="place" v="farm" />
		<tag k="ssr:stedsnr" v="316881" />
	</node>
	<node lat="63.5927050378283" lon="11.004763320865608" id="-32951">
		<tag k="fixme" v="consider place=hamlet" />
		<tag k="name" v="Tildersveet" />
		<tag k="place" v="farm" />
		<tag k="ssr:stedsnr" v="316891" />
	</node>
	<node lat="63.61696111012772" lon="11.098338880471857" id="-32952">
		<tag k="alt_name" v="Husby, austre" />
		<tag k="name" v="Austre Husby" />
		<tag k="place" v="farm" />
		<tag k="ssr:stedsnr" v="316979" />
	</node>
	<node lat="63.63501944792585" lon="11.13956944099086" id="-32954">
		<tag k="name" v="Sjurplassen" />
		<tag k="place" v="farm" />
		<tag k="ssr:stedsnr" v="317000" />
	</node>
	<node lat="63.671477773749295" lon="11.19568888844225" id="-32955">
		<tag k="name" v="Nordheim" />
		<tag k="place" v="farm" />
		<tag k="ssr:stedsnr" v="317029" />
	</node>
	<node lat="63.75412964757688" lon="11.398455243362573" id="-32956">
		<tag k="fixme" v="consider place=hamlet" />
		<tag k="name" v="Tynesaunet" />
		<tag k="place" v="farm" />
		<tag k="ssr:stedsnr" v="317290" />
	</node>
	<node lat="63.62711388477187" lon="11.256411109689813" id="-32957">
		<tag k="name" v="Nes" />
		<tag k="place" v="farm" />
		<tag k="ssr:stedsnr" v="317355" />
	</node>
	<node lat="63.75244139004594" lon="11.27431191042588" id="-32958">
		<tag k="fixme" v="consider place=hamlet" />
		<tag k="name" v="Gjemle" />
		<tag k="place" v="farm" />
		<tag k="ssr:stedsnr" v="317300" />
	</node>
	<node lat="63.763802778650444" lon="11.425858335029444" id="-32959">
		<tag k="alt_name" v="Salthammar, nordre" />
		<tag k="name" v="Nordre Salthammar" />
		<tag k="place" v="farm" />
		<tag k="ssr:stedsnr" v="317323" />
	</node>
	<node lat="63.76610277613105" lon="11.047177771060671" id="-32963">
		<tag k="name" v="Inner-Røvika" />
		<tag k="place" v="farm" />
		<tag k="ssr:stedsnr" v="317728" />
	</node>
	<node lat="63.705002780178816" lon="11.237774995081367" id="-32965">
		<tag k="name" v="Skoglund" />
		<tag k="place" v="farm" />
		<tag k="ssr:stedsnr" v="325589" />
	</node>
	<node lat="63.69891388724191" lon="11.204169439347156" id="-32969">
		<tag k="amenity" v="school" />
		<tag k="name" v="Skogn barne- og ungdomsskole" />
		<tag k="old_name" v="Lysaker skole" />
		<tag k="ssr:stedsnr" v="325499" />
	</node>
	<node lat="63.69989166945778" lon="11.250672227749096" id="-32972">
		<tag k="name" v="Heggli" />
		<tag k="place" v="farm" />
		<tag k="ssr:stedsnr" v="325591" />
	</node>
	<node lat="63.71939721793161" lon="11.270100007512013" id="-32973">
		<tag k="name" v="Austli" />
		<tag k="place" v="farm" />
		<tag k="ssr:stedsnr" v="325593" />
	</node>
	<node lat="63.70201110866483" lon="11.023650002942063" id="-32975">
		<tag k="name" v="Lyngstad" />
		<tag k="place" v="farm" />
		<tag k="ssr:stedsnr" v="325953" />
	</node>
	<node lat="63.69930742980097" lon="10.971975948035182" id="-32980">
		<tag k="name" v="Finnsvika" />
		<tag k="place" v="hamlet" />
		<tag k="ssr:stedsnr" v="326969" />
	</node>
	<node lat="63.707059912555586" lon="11.343619827051844" id="-32981">
		<tag k="fixme" v="consider place=hamlet" />
		<tag k="name" v="Bjørås" />
		<tag k="place" v="farm" />
		<tag k="ssr:stedsnr" v="329325" />
	</node>
	<node lat="63.706497062524896" lon="11.03255690895292" id="-32985">
		<tag k="name" v="Haugan" />
		<tag k="place" v="hamlet" />
		<tag k="ssr:stedsnr" v="329335" />
	</node>
	<node lat="63.70265464293365" lon="11.412286670861487" id="-32986">
		<tag k="fixme" v="consider place=hamlet" />
		<tag k="name" v="Ertsås" />
		<tag k="place" v="farm" />
		<tag k="ssr:stedsnr" v="329348" />
	</node>
	<node lat="63.69152484342643" lon="11.054932065820417" id="-32988">
		<tag k="name" v="By" />
		<tag k="place" v="hamlet" />
		<tag k="ssr:stedsnr" v="330996" />
	</node>
	<node lat="63.78911783049614" lon="11.066495027498323" id="-32994">
		<tag k="alt_name" v="Jønvik" />
		<tag k="fixme" v="consider place=hamlet" />
		<tag k="name" v="Jønvika" />
		<tag k="place" v="farm" />
		<tag k="ssr:stedsnr" v="340719" />
	</node>
	<node lat="63.77034721913797" lon="11.048094452022212" id="-32995">
		<tag k="amenity" v="school" />
		<tag k="name" v="Ytterøy skole" />
		<tag k="ssr:stedsnr" v="345187" />
	</node>
	<node lat="63.801076616901014" lon="11.139383310941765" id="-33012">
		<tag k="fixme" v="consider place=hamlet" />
		<tag k="name" v="Prestgården" />
		<tag k="place" v="farm" />
		<tag k="ssr:stedsnr" v="351014" />
	</node>
	<node lat="63.8069694463558" lon="11.166224994492131" id="-33015">
		<tag k="name" v="Ringsveet" />
		<tag k="place" v="locality" />
		<tag k="ssr:stedsnr" v="351025" />
	</node>
	<node lat="63.737188891712094" lon="11.134455552802724" id="-33021">
		<tag k="name" v="Litlgården" />
		<tag k="place" v="locality" />
		<tag k="ssr:stedsnr" v="352096" />
	</node>
	<node lat="63.62253055682082" lon="11.29665556032748" id="-33026">
		<tag k="name" v="Bergenget" />
		<tag k="place" v="farm" />
		<tag k="ssr:stedsnr" v="352518" />
	</node>
	<node lat="63.64268611549011" lon="11.247663885540572" id="-33027">
		<tag k="name" v="Nygård" />
		<tag k="place" v="farm" />
		<tag k="ssr:stedsnr" v="352521" />
	</node>
	<node lat="63.670422224396695" lon="11.061291676724691" id="-33032">
		<tag k="name" v="Vestre Skillbreia" />
		<tag k="place" v="farm" />
		<tag k="ssr:stedsnr" v="358228" />
	</node>
	<node lat="63.61956801693831" lon="11.165855437386677" id="-33033">
		<tag k="alt_name" v="Strømmen" />
		<tag k="fixme" v="consider place=hamlet" />
		<tag k="name" v="Straumen" />
		<tag k="place" v="farm" />
		<tag k="ssr:stedsnr" v="361724" />
	</node>
	<node lat="63.72237777725706" lon="11.345274997658692" id="-33034">
		<tag k="name" v="Tinglund" />
		<tag k="place" v="farm" />
		<tag k="ssr:stedsnr" v="376614" />
	</node>
	<node lat="63.727911112694926" lon="11.356697228675271" id="-33035">
		<tag k="name" v="Haugen" />
		<tag k="place" v="farm" />
		<tag k="ssr:stedsnr" v="376617" />
	</node>
	<node lat="63.744733330019216" lon="11.342352773941327" id="-33036">
		<tag k="name" v="Røstheim" />
		<tag k="place" v="farm" />
		<tag k="ssr:stedsnr" v="376673" />
	</node>
	<node lat="63.73190832929063" lon="11.499411113999278" id="-33037">
		<tag k="name" v="Myrenget" />
		<tag k="place" v="farm" />
		<tag k="ssr:stedsnr" v="376643" />
	</node>
	<node lat="63.73245555156619" lon="11.481141659342642" id="-33038">
		<tag k="name" v="Aunet" />
		<tag k="place" v="farm" />
		<tag k="ssr:stedsnr" v="376645" />
	</node>
	<node lat="63.74034999659663" lon="11.489497221235766" id="-33039">
		<tag k="name" v="Lauvhaugen" />
		<tag k="place" v="farm" />
		<tag k="ssr:stedsnr" v="376663" />
	</node>
	<node lat="63.73692210854743" lon="11.475391558711783" id="-33040">
		<tag k="fixme" v="consider place=hamlet" />
		<tag k="name" v="Kløvjan" />
		<tag k="place" v="farm" />
		<tag k="ssr:stedsnr" v="376666" />
	</node>
	<node lat="63.7408166652123" lon="11.249100009998882" id="-33041">
		<tag k="name" v="Vårtun" />
		<tag k="place" v="farm" />
		<tag k="ssr:stedsnr" v="376667" />
	</node>
	<node lat="63.603244442201934" lon="11.091141676003634" id="-33042">
		<tag k="name" v="Tømmerås" />
		<tag k="place" v="farm" />
		<tag k="ssr:stedsnr" v="376899" />
	</node>
	<node lat="63.59909166569558" lon="10.989536119951136" id="-33044">
		<tag k="name" v="Vollabakken" />
		<tag k="place" v="farm" />
		<tag k="ssr:stedsnr" v="376911" />
	</node>
	<node lat="63.59769549737969" lon="11.035083454599237" id="-33045">
		<tag k="fixme" v="consider place=hamlet" />
		<tag k="name" v="Følke" />
		<tag k="place" v="farm" />
		<tag k="ssr:stedsnr" v="376916" />
	</node>
	<node lat="63.664752779954505" lon="11.112524997767355" id="-33047">
		<tag k="fixme" v="consider place=hamlet" />
		<tag k="name" v="Ronglan" />
		<tag k="place" v="village" />
		<tag k="ssr:stedsnr" v="377019" />
	</node>
	<node lat="63.69315832918493" lon="11.11698888984402" id="-33048">
		<tag k="name" v="Åsmo" />
		<tag k="place" v="farm" />
		<tag k="ssr:stedsnr" v="377074" />
	</node>
	<node lat="63.68166123262301" lon="11.172231878975754" id="-33049">
		<tag k="fixme" v="consider place=hamlet" />
		<tag k="name" v="Skjerve" />
		<tag k="place" v="farm" />
		<tag k="ssr:stedsnr" v="377091" />
	</node>
	<node lat="63.67709722557297" lon="11.157380548804596" id="-33050">
		<tag k="alt_name" v="Skjerve, vestre" />
		<tag k="name" v="Vestre Skjerve" />
		<tag k="place" v="farm" />
		<tag k="ssr:stedsnr" v="377093" />
	</node>
	<node lat="63.67363332995428" lon="11.15721943804032" id="-33051">
		<tag k="name" v="Vestre Lælo" />
		<tag k="place" v="farm" />
		<tag k="ssr:stedsnr" v="377029" />
	</node>
	<node lat="63.654493810004155" lon="10.968281343224287" id="-33052">
		<tag k="fixme" v="consider place=hamlet" />
		<tag k="name" v="Selbua" />
		<tag k="place" v="farm" />
		<tag k="ssr:stedsnr" v="377054" />
	</node>
	<node lat="63.695596030756455" lon="11.170547150856583" id="-33053">
		<tag k="fixme" v="consider place=hamlet" />
		<tag k="name" v="Mønsterhaug" />
		<tag k="place" v="farm" />
		<tag k="ssr:stedsnr" v="377063" />
	</node>
	<node lat="63.69591388933237" lon="11.145905553787463" id="-33054">
		<tag k="name" v="Rennan" />
		<tag k="place" v="farm" />
		<tag k="ssr:stedsnr" v="377064" />
	</node>
	<node lat="63.68755833634992" lon="11.145191669634114" id="-33057">
		<tag k="name" v="Leira" />
		<tag k="place" v="farm" />
		<tag k="ssr:stedsnr" v="377104" />
	</node>
	<node lat="63.686805554424176" lon="11.137669444116595" id="-33058">
		<tag k="alt_name" v="Veie, litle" />
		<tag k="name" v="Litle Veie" />
		<tag k="place" v="farm" />
		<tag k="ssr:stedsnr" v="377105" />
	</node>
	<node lat="63.690974601938436" lon="11.205174407914404" id="-33059">
		<tag k="fixme" v="consider place=hamlet" />
		<tag k="name" v="Hoem" />
		<tag k="place" v="farm" />
		<tag k="ssr:stedsnr" v="377107" />
	</node>
	<node lat="63.683498709852906" lon="11.102082633361862" id="-33060">
		<tag k="fixme" v="consider place=hamlet" />
		<tag k="name" v="Jørås" />
		<tag k="place" v="farm" />
		<tag k="ssr:stedsnr" v="377114" />
	</node>
	<node lat="63.777186114304854" lon="11.39757778645905" id="-33061">
		<tag k="name" v="Vestre Skånes" />
		<tag k="place" v="farm" />
		<tag k="ssr:stedsnr" v="377262" />
	</node>
	<node lat="63.63058672459994" lon="11.322460252533055" id="-33062">
		<tag k="alt_name" v="Troset store" />
		<tag k="fixme" v="consider place=hamlet" />
		<tag k="name" v="Troset" />
		<tag k="place" v="farm" />
		<tag k="ssr:stedsnr" v="377369" />
	</node>
	<node lat="63.62403316658307" lon="11.277469918402755" id="-33064">
		<tag k="alt_name" v="Litlemo" />
		<tag k="fixme" v="consider place=hamlet" />
		<tag k="name" v="Litlmo" />
		<tag k="place" v="farm" />
		<tag k="ssr:stedsnr" v="377380" />
	</node>
	<node lat="63.62287500221731" lon="11.456397219973349" id="-33065">
		<tag k="name" v="Håvebustad" />
		<tag k="place" v="locality" />
		<tag k="ssr:stedsnr" v="377382" />
	</node>
	<node lat="63.61156110875247" lon="11.278175000984834" id="-33066">
		<tag k="name" v="Moås" />
		<tag k="place" v="isolated_dwelling" />
		<tag k="ssr:stedsnr" v="377405" />
	</node>
	<node lat="63.64753611386265" lon="11.396611118912704" id="-33069">
		<tag k="name" v="Tomtvasslia" />
		<tag k="place" v="isolated_dwelling" />
		<tag k="ssr:stedsnr" v="377517" />
	</node>
	<node lat="63.75286666750979" lon="11.262199990855816" id="-33071">
		<tag k="name" v="Solstad" />
		<tag k="place" v="farm" />
		<tag k="ssr:stedsnr" v="377337" />
	</node>
	<node lat="63.587416669625306" lon="11.581030549763593" id="-33073">
		<tag k="name" v="Langåsvollen" />
		<tag k="place" v="isolated_dwelling" />
		<tag k="ssr:stedsnr" v="377428" />
	</node>
	<node lat="63.63599722531866" lon="11.560077771750532" id="-33075">
		<tag k="name" v="Heståsvollen" />
		<tag k="place" v="isolated_dwelling" />
		<tag k="ssr:stedsnr" v="377505" />
	</node>
	<node lat="63.71888508102167" lon="11.509512169005177" id="-33076">
		<tag k="alt_name" v="Vennåsen" />
		<tag k="fixme" v="consider place=hamlet" />
		<tag k="name" v="Venås" />
		<tag k="place" v="farm" />
		<tag k="ssr:stedsnr" v="377616" />
	</node>
	<node lat="63.7074916705334" lon="11.44662499634409" id="-33078">
		<tag k="alt_name" v="Kolbergsmoen" />
		<tag k="name" v="Kolbergmoen" />
		<tag k="place" v="farm" />
		<tag k="ssr:stedsnr" v="377559" />
	</node>
	<node lat="63.71237222340045" lon="11.218783338757026" id="-33079">
		<tag k="name" v="Ner-Eggen" />
		<tag k="place" v="farm" />
		<tag k="ssr:stedsnr" v="377585" />
	</node>
	<node lat="63.71648888491233" lon="11.25583334056673" id="-33080">
		<tag k="name" v="Norum" />
		<tag k="place" v="farm" />
		<tag k="ssr:stedsnr" v="377587" />
	</node>
	<node lat="63.71810278022806" lon="11.549822227204295" id="-33081">
		<tag k="alt_name" v="Sør-Buran" />
		<tag k="name" v="Sørenget" />
		<tag k="place" v="farm" />
		<tag k="ssr:stedsnr" v="377594" />
	</node>
	<node lat="63.715486114616475" lon="11.373066672189962" id="-33082">
		<tag k="name" v="Myrsveet" />
		<tag k="place" v="farm" />
		<tag k="ssr:stedsnr" v="377597" />
	</node>
	<node lat="63.71817196136537" lon="11.463067846302764" id="-33083">
		<tag k="fixme" v="consider place=hamlet" />
		<tag k="name" v="Reistad" />
		<tag k="place" v="farm" />
		<tag k="ssr:stedsnr" v="377614" />
	</node>
	<node lat="63.56775000344238" lon="10.889024998791347" id="-33084">
		<tag k="name" v="Litlneset" />
		<tag k="place" v="farm" />
		<tag k="ssr:stedsnr" v="377759" />
	</node>
	<node lat="63.56493888826722" lon="10.888475007916083" id="-33085">
		<tag k="name" v="Gullgruva" />
		<tag k="place" v="farm" />
		<tag k="ssr:stedsnr" v="377762" />
	</node>
	<node lat="63.59235555214756" lon="11.012477767700712" id="-33088">
		<tag k="name" v="Nygården" />
		<tag k="place" v="farm" />
		<tag k="ssr:stedsnr" v="377844" />
	</node>
	<node lat="63.58075833426304" lon="10.912319442634375" id="-33089">
		<tag k="name" v="Søndre Undlinan" />
		<tag k="place" v="farm" />
		<tag k="ssr:stedsnr" v="377860" />
	</node>
	<node lat="63.61454722636363" lon="10.940474990976778" id="-33090">
		<tag k="name" v="Vestre Leangan" />
		<tag k="place" v="farm" />
		<tag k="ssr:stedsnr" v="377906" />
	</node>
	<node lat="63.57462164073979" lon="10.89662291999057" id="-33091">
		<tag k="fixme" v="consider place=hamlet" />
		<tag k="name" v="Nes" />
		<tag k="place" v="farm" />
		<tag k="ssr:stedsnr" v="377807" />
	</node>
	<node lat="63.80396388840959" lon="11.204452779657519" id="-33092">
		<tag k="name" v="Haugen" />
		<tag k="place" v="farm" />
		<tag k="ssr:stedsnr" v="377808" />
	</node>
	<node lat="63.57680833428501" lon="10.903955546846902" id="-33093">
		<tag k="name" v="Solhaug" />
		<tag k="place" v="farm" />
		<tag k="ssr:stedsnr" v="377815" />
	</node>
	<node lat="63.605045702892994" lon="11.214245649282928" id="-33094">
		<tag k="fixme" v="consider place=hamlet" />
		<tag k="name" v="Haugen" />
		<tag k="place" v="farm" />
		<tag k="ssr:stedsnr" v="377926" />
	</node>
	<node lat="63.75284444026334" lon="11.214819452057906" id="-33096">
		<tag k="name" v="Granlund" />
		<tag k="place" v="farm" />
		<tag k="ssr:stedsnr" v="377934" />
	</node>
	<node lat="63.75032092907344" lon="11.213759065431082" id="-33097">
		<tag k="fixme" v="consider place=hamlet" />
		<tag k="name" v="Alstad" />
		<tag k="place" v="farm" />
		<tag k="ssr:stedsnr" v="377936" />
	</node>
	<node lat="63.751613890939915" lon="11.047788893067212" id="-33098">
		<tag k="name" v="Sandåker" />
		<tag k="place" v="farm" />
		<tag k="ssr:stedsnr" v="377939" />
	</node>
	<node lat="63.629399999317435" lon="11.043888881681278" id="-33099">
		<tag k="alt_name" v="Sandan, vestre" />
		<tag k="name" v="Vestre Sandan" />
		<tag k="place" v="farm" />
		<tag k="ssr:stedsnr" v="377947" />
	</node>
	<node lat="63.62882499859709" lon="11.051455559406476" id="-33100">
		<tag k="alt_name" v="Sandan, midtre" />
		<tag k="name" v="Midtre Sandan" />
		<tag k="place" v="farm" />
		<tag k="ssr:stedsnr" v="377948" />
	</node>
	<node lat="63.79973333297521" lon="11.208041656632673" id="-33103">
		<tag k="name" v="Solås" />
		<tag k="place" v="farm" />
		<tag k="ssr:stedsnr" v="378893" />
	</node>
	<node lat="63.75599029833786" lon="11.376036941219766" id="-33105">
		<tag k="fixme" v="consider place=hamlet" />
		<tag k="name" v="Rokne" />
		<tag k="place" v="farm" />
		<tag k="ssr:stedsnr" v="378327" />
	</node>
	<node lat="63.74246944431178" lon="11.316363881609835" id="-33107">
		<tag k="name" v="Vestre Ulve" />
		<tag k="place" v="farm" />
		<tag k="ssr:stedsnr" v="386630" />
	</node>
	<node lat="63.76930555774268" lon="11.400722231398847" id="-33109">
		<tag k="name" v="Skånes" />
		<tag k="place" v="farm" />
		<tag k="ssr:stedsnr" v="386722" />
	</node>
	<node lat="63.71257500208041" lon="11.19777221475214" id="-33111">
		<tag k="name" v="Fagerlia" />
		<tag k="place" v="farm" />
		<tag k="ssr:stedsnr" v="386491" />
	</node>
	<node lat="63.72131666378387" lon="11.304061108692327" id="-33112">
		<tag k="name" v="Nordre Kjølåsen" />
		<tag k="place" v="farm" />
		<tag k="ssr:stedsnr" v="386570" />
	</node>
	<node lat="63.728672225517734" lon="11.325069444206317" id="-33113">
		<tag k="name" v="Vestre Skogly" />
		<tag k="place" v="farm" />
		<tag k="ssr:stedsnr" v="386575" />
	</node>
	<node lat="63.71741389202865" lon="11.269272228384565" id="-33115">
		<tag k="name" v="Jordal" />
		<tag k="place" v="farm" />
		<tag k="ssr:stedsnr" v="386589" />
	</node>
	<node lat="63.756427776354606" lon="11.24041944619934" id="-33118">
		<tag k="name" v="Brattli" />
		<tag k="place" v="farm" />
		<tag k="ssr:stedsnr" v="386679" />
	</node>
	<node lat="63.70807251769119" lon="11.028938330949353" id="-33119">
		<tag k="name" v="Ut-Haugan" />
		<tag k="place" v="farm" />
		<tag k="ssr:stedsnr" v="386959" />
	</node>
	<node lat="63.78493835666086" lon="11.040042095119972" id="-33125">
		<tag k="fixme" v="consider place=hamlet" />
		<tag k="name" v="Norvika" />
		<tag k="place" v="farm" />
		<tag k="ssr:stedsnr" v="390354" />
	</node>
	<node lat="63.5909841044159" lon="11.114386195872045" id="-33138">
		<tag k="name" v="Åsen" />
		<tag k="place" v="farm" />
		<tag k="ssr:stedsnr" v="411099" />
	</node>
	<node lat="63.574053801626185" lon="10.923673857791362" id="-33142">
		<tag k="name" v="Åvikåsen" />
		<tag k="place" v="farm" />
		<tag k="ssr:stedsnr" v="411461" />
	</node>
	<node lat="63.63064722435082" lon="11.30577778209006" id="-33162">
		<tag k="name" v="Moen" />
		<tag k="place" v="farm" />
		<tag k="ssr:stedsnr" v="413534" />
	</node>
	<node lat="63.67035555281278" lon="11.170608338309455" id="-33164">
		<tag k="name" v="Lælo" />
		<tag k="place" v="farm" />
		<tag k="ssr:stedsnr" v="421137" />
	</node>
	<node lat="63.635483336684565" lon="11.27080832549554" id="-33165">
		<tag k="name" v="Buran" />
		<tag k="place" v="farm" />
		<tag k="ssr:stedsnr" v="423029" />
	</node>
	<node lat="63.70936111283398" lon="11.199811113348758" id="-33166">
		<tag k="name" v="Nordaker" />
		<tag k="place" v="farm" />
		<tag k="ssr:stedsnr" v="437188" />
	</node>
	<node lat="63.70621944302258" lon="11.134286104686133" id="-33167">
		<tag k="name" v="Laberget" />
		<tag k="place" v="farm" />
		<tag k="ssr:stedsnr" v="437191" />
	</node>
	<node lat="63.67009166823838" lon="11.19066944388864" id="-33168">
		<tag k="name" v="Kvam" />
		<tag k="place" v="farm" />
		<tag k="ssr:stedsnr" v="438024" />
	</node>
	<node lat="63.615705556216675" lon="11.304861108117832" id="-33171">
		<tag k="name" v="Sagsvevollen" />
		<tag k="place" v="locality" />
		<tag k="ssr:stedsnr" v="437428" />
	</node>
	<node lat="63.61518610734441" lon="11.285044442944429" id="-33172">
		<tag k="name" v="Mobakken" />
		<tag k="place" v="farm" />
		<tag k="ssr:stedsnr" v="437430" />
	</node>
	<node lat="63.61372499715082" lon="11.547524994316188" id="-33173">
		<tag k="historic" v="shieling" />
		<tag k="name" v="Roknesvollen" />
		<tag k="place" v="isolated_dwelling" />
		<tag k="ssr:stedsnr" v="437435" />
	</node>
	<node lat="63.604220957308904" lon="11.254879201016527" id="-33174">
		<tag k="fixme" v="consider place=hamlet" />
		<tag k="name" v="Mølnå" />
		<tag k="place" v="farm" />
		<tag k="ssr:stedsnr" v="437438" />
	</node>
	<node lat="63.72214444717498" lon="11.46120276936532" id="-33175">
		<tag k="name" v="Stubbmoen" />
		<tag k="place" v="farm" />
		<tag k="ssr:stedsnr" v="437618" />
	</node>
	<node lat="63.72475832939644" lon="11.546122228753696" id="-33176">
		<tag k="alt_name" v="Burmoen" />
		<tag k="name" v="Burmo" />
		<tag k="place" v="farm" />
		<tag k="ssr:stedsnr" v="437629" />
	</node>
	<node lat="63.73051666238424" lon="11.334758340580175" id="-33178">
		<tag k="name" v="Stor-Tingstad" />
		<tag k="place" v="farm" />
		<tag k="ssr:stedsnr" v="437642" />
	</node>
	<node lat="63.56412777818335" lon="10.92547778702851" id="-33179">
		<tag k="name" v="Åvikaunet" />
		<tag k="place" v="farm" />
		<tag k="ssr:stedsnr" v="437789" />
	</node>
	<node lat="63.60591573247814" lon="11.02170601692504" id="-33181">
		<tag k="alt_name" v="Grenne, nordre" />
		<tag k="name" v="Nordre Grenne" />
		<tag k="place" v="isolated_dwelling" />
		<tag k="ssr:stedsnr" v="437877" />
	</node>
	<node lat="63.58159444734701" lon="11.366655548492863" id="-33183">
		<tag k="name" v="Kråkstadvollen" />
		<tag k="place" v="isolated_dwelling" />
		<tag k="ssr:stedsnr" v="438429" />
	</node>
</osm>
