<?xml version="1.0" encoding="UTF-8"?>
<osm version="0.6" generator="osmapis">
	<node lat="63.605488891746155" lon="10.907627786439187" id="-87145">
		<tag k="name" v="Tørøya" />
		<tag k="natural" v="cape" />
		<tag k="ssr:stedsnr" v="13871" />
	</node>
	<node lat="63.573978995340674" lon="10.871549615589151" id="-87157">
		<tag k="name" v="Mevika" />
		<tag k="natural" v="bay" />
		<tag k="ssr:stedsnr" v="46573" />
	</node>
	<node lat="63.56541680994566" lon="10.896781033164183" id="-87158">
		<tag k="name" v="Vågen" />
		<tag k="natural" v="bay" />
		<tag k="ssr:stedsnr" v="46581" />
	</node>
	<node lat="63.81383055320117" lon="11.219238886893937" id="-87163">
		<tag k="name" v="Eidnesbukta" />
		<tag k="natural" v="bay" />
		<tag k="ssr:stedsnr" v="48001" />
	</node>
	<node lat="63.798072221308644" lon="11.092241663713677" id="-87224">
		<tag k="name" v="Sveet" />
		<tag k="natural" v="cape" />
		<tag k="ssr:stedsnr" v="104429" />
	</node>
	<node lat="63.58771388685887" lon="10.919883327038482" id="-87225">
		<tag k="name" v="Sponleira" />
		<tag k="natural" v="bay" />
		<tag k="ssr:stedsnr" v="105809" />
	</node>
	<node lat="63.80113610862687" lon="11.152333324765769" id="-87233">
		<tag k="name" v="Øversjøen" />
		<tag k="natural" v="bay" />
		<tag k="ssr:stedsnr" v="109019" />
	</node>
	<node lat="63.54932222073952" lon="10.721980561779462" id="-87255">
		<tag k="bay" v="fjord" />
		<tag k="name" v="Åsenfjorden" />
		<tag k="natural" v="bay" />
		<tag k="ssr:stedsnr" v="134806" />
	</node>
	<node lat="63.5624000026669" lon="10.86851943575054" id="-87294">
		<tag k="name" v="Kipperberget" />
		<tag k="natural" v="cape" />
		<tag k="ssr:stedsnr" v="255834" />
	</node>
	<node lat="63.77808055954911" lon="11.39465277484794" id="-87304">
		<tag k="name" v="Skånestangen" />
		<tag k="natural" v="cape" />
		<tag k="ssr:stedsnr" v="256267" />
	</node>
	<node lat="63.685436114190196" lon="10.897936105337532" id="-87321">
		<tag k="name" v="Purkvikgrunnen" />
		<tag k="natural" v="shoal" />
		<tag k="place" v="locality" />
		<tag k="ssr:stedsnr" v="164808" />
	</node>
	<node lat="63.608577776688115" lon="10.927869440153613" id="-87323">
		<tag k="name" v="Tangen" />
		<tag k="natural" v="cape" />
		<tag k="ssr:stedsnr" v="167803" />
	</node>
	<node lat="63.76364444830142" lon="11.081438892538182" id="-87334">
		<tag k="name" v="Bergsørtangen" />
		<tag k="natural" v="cape" />
		<tag k="ssr:stedsnr" v="170107" />
	</node>
	<node lat="63.61192777898625" lon="10.93246945284104" id="-87397">
		<tag k="name" v="Leangsleira" />
		<tag k="natural" v="bay" />
		<tag k="ssr:stedsnr" v="226780" />
	</node>
	<node lat="63.798477778722614" lon="11.067011119623707" id="-87412">
		<tag k="name" v="Oterolen" />
		<tag k="natural" v="cape" />
		<tag k="ssr:stedsnr" v="231133" />
	</node>
	<node lat="63.75460555567165" lon="11.203608328463746" id="-87480">
		<tag k="name" v="Håagrunnen" />
		<tag k="natural" v="shoal" />
		<tag k="place" v="locality" />
		<tag k="ssr:stedsnr" v="287215" />
	</node>
	<node lat="63.58907221929998" lon="10.865130557523743" id="-87481">
		<tag k="name" v="Kobberggrunnen" />
		<tag k="natural" v="shoal" />
		<tag k="place" v="locality" />
		<tag k="ssr:stedsnr" v="287979" />
	</node>
	<node lat="63.79724722127094" lon="11.070566676163576" id="-87487">
		<tag k="name" v="Gangstadvika" />
		<tag k="natural" v="bay" />
		<tag k="ssr:stedsnr" v="291108" />
	</node>
	<node lat="63.597655557152855" lon="10.908677770497775" id="-87539">
		<tag k="name" v="Sagtunbukta" />
		<tag k="natural" v="bay" />
		<tag k="ssr:stedsnr" v="468998" />
	</node>
	<node lat="63.573668014905834" lon="10.853177373692452" id="-87564">
		<tag k="name" v="Nesfjæra" />
		<tag k="natural" v="beach" />
		<tag k="ssr:stedsnr" v="471531" />
	</node>
	<node lat="63.811447220770326" lon="11.228699996604936" id="-87580">
		<tag k="name" v="Storholmen" />
		<tag k="place" v="islet" />
		<tag k="ssr:stedsnr" v="473002" />
	</node>
	<node lat="63.79562499974298" lon="11.078213887483226" id="-87582">
		<tag k="name" v="Jørstadsjøleiret" />
		<tag k="natural" v="bay" />
		<tag k="ssr:stedsnr" v="473136" />
	</node>
	<node lat="63.793919441073776" lon="11.141694450005588" id="-87583">
		<tag k="name" v="Bergstangen" />
		<tag k="natural" v="cape" />
		<tag k="ssr:stedsnr" v="473144" />
	</node>
	<node lat="63.79808333265829" lon="11.051097214823791" id="-87609">
		<tag k="name" v="Fjøsvika" />
		<tag k="natural" v="bay" />
		<tag k="ssr:stedsnr" v="352118" />
	</node>
	<node lat="63.806855557076986" lon="11.230950001929079" id="-87655">
		<tag k="name" v="Hundtangen" />
		<tag k="natural" v="cape" />
		<tag k="ssr:stedsnr" v="412003" />
	</node>
	<node lat="63.798108335881025" lon="11.168641676482597" id="-87656">
		<tag k="name" v="Bursbukta" />
		<tag k="natural" v="bay" />
		<tag k="ssr:stedsnr" v="412008" />
	</node>
	<node lat="63.76630278193466" lon="11.086541667034261" id="-87676">
		<tag k="name" v="Bjørvikbukta" />
		<tag k="natural" v="bay" />
		<tag k="ssr:stedsnr" v="438797" />
	</node>
	<node lat="63.75876110884676" lon="11.225316656648154" id="-87695">
		<tag k="name" v="Håatangen" />
		<tag k="natural" v="cape" />
		<tag k="ssr:stedsnr" v="468185" />
	</node>
	<node lat="63.71763333753078" lon="11.097130554658458" id="-87696">
		<tag k="name" v="Holmgrunnan" />
		<tag k="natural" v="shoal" />
		<tag k="place" v="locality" />
		<tag k="ssr:stedsnr" v="468808" />
	</node>
	<node lat="63.703088886121606" lon="10.99731110830296" id="-87712">
		<tag k="name" v="Vestremsbukta" />
		<tag k="natural" v="bay" />
		<tag k="ssr:stedsnr" v="680098" />
	</node>
	<node lat="63.593122221624746" lon="10.897863883317314" id="-87734">
		<tag k="name" v="Langøya" />
		<tag k="natural" v="cape" />
		<tag k="ssr:stedsnr" v="680880" />
	</node>
	<node lat="63.58891388775295" lon="10.900497224740567" id="-87737">
		<tag k="bay" v="fjord" />
		<tag k="name" v="Lofjorden" />
		<tag k="natural" v="bay" />
		<tag k="ssr:stedsnr" v="680902" />
	</node>
	<node lat="63.569949999163754" lon="10.8372305630448" id="-87799">
		<tag k="name" v="Tjuvholmen" />
		<tag k="place" v="islet" />
		<tag k="ssr:stedsnr" v="529835" />
	</node>
	<node lat="63.81536389252371" lon="11.219369443756243" id="-87810">
		<tag k="alt_name" v="Eineset" />
		<tag k="name" v="Eidnesneset" />
		<tag k="natural" v="cape" />
		<tag k="ssr:stedsnr" v="533002" />
	</node>
	<node lat="63.59826111110768" lon="10.882505557020606" id="-87849">
		<tag k="name" v="Hoøya" />
		<tag k="place" v="island" />
		<tag k="ssr:stedsnr" v="559842" />
	</node>
	<node lat="63.56335801142395" lon="10.882504157526816" id="-87902">
		<tag k="fixme" v="consider seamark:type=rock or natural=shoal" />
		<tag k="name" v="Ferjemannsskjæret" />
		<tag k="place" v="islet" />
		<tag k="ssr:stedsnr" v="592558" />
	</node>
	<node lat="63.80301944639319" lon="11.22209444172245" id="-87909">
		<tag k="name" v="Sandvika" />
		<tag k="natural" v="bay" />
		<tag k="ssr:stedsnr" v="594005" />
	</node>
	<node lat="63.76908888568904" lon="11.091966668418992" id="-87912">
		<tag k="name" v="Grasberget" />
		<tag k="natural" v="cape" />
		<tag k="ssr:stedsnr" v="594102" />
	</node>
	<node lat="63.60145833529248" lon="10.919052777769831" id="-87938">
		<tag k="name" v="Hoplafjorden" />
		<tag k="natural" v="bay" />
		<tag k="ssr:stedsnr" v="619906" />
	</node>
	<node lat="63.5567166642199" lon="10.903419446907366" id="-87986">
		<tag k="name" v="Skurvegrunnen" />
		<tag k="natural" v="shoal" />
		<tag k="place" v="locality" />
		<tag k="ssr:stedsnr" v="651644" />
	</node>
	<node lat="63.74492777798906" lon="11.002033329702618" id="-87996">
		<tag k="name" v="Vikasanden" />
		<tag k="natural" v="bay" />
		<tag k="ssr:stedsnr" v="655101" />
	</node>
	<node lat="63.784127776163224" lon="11.130475002105012" id="-87997">
		<tag k="name" v="Vannsvikøra" />
		<tag k="natural" v="cape" />
		<tag k="ssr:stedsnr" v="655135" />
	</node>
	<node lat="63.8048555530488" lon="11.14435277300986" id="-88078">
		<tag k="name" v="Prestberga" />
		<tag k="natural" v="beach" />
		<tag k="ssr:stedsnr" v="716019" />
	</node>
	<node lat="63.76686388908913" lon="11.088372228461983" id="-88080">
		<tag k="name" v="Bjørviktangen" />
		<tag k="natural" v="cape" />
		<tag k="ssr:stedsnr" v="716104" />
	</node>
	<node lat="63.76908055266989" lon="11.331366673595284" id="-88118">
		<tag k="name" v="Borrsøya" />
		<tag k="natural" v="cape" />
		<tag k="ssr:stedsnr" v="742332" />
	</node>
	<node lat="63.796822221064076" lon="11.180438884198448" id="-88119">
		<tag k="name" v="Sandingsbukta" />
		<tag k="natural" v="bay" />
		<tag k="ssr:stedsnr" v="742835" />
	</node>
	<node lat="63.79769721810683" lon="11.144469453685462" id="-88144">
		<tag k="name" v="Kvitberga" />
		<tag k="natural" v="beach" />
		<tag k="ssr:stedsnr" v="776011" />
	</node>
	<node lat="63.71566944221826" lon="11.062036118948507" id="-88156">
		<tag k="name" v="Haugsandgrunnen" />
		<tag k="natural" v="shoal" />
		<tag k="place" v="locality" />
		<tag k="ssr:stedsnr" v="802211" />
	</node>
	<node lat="63.56385555596169" lon="10.827894437550373" id="-88173">
		<tag k="name" v="Storholmen" />
		<tag k="place" v="islet" />
		<tag k="ssr:stedsnr" v="802822" />
	</node>
	<node lat="63.76910555309251" lon="11.026775004109288" id="-88192">
		<tag k="name" v="Rølsvika" />
		<tag k="natural" v="bay" />
		<tag k="ssr:stedsnr" v="815828" />
	</node>
	<node lat="63.70063055653159" lon="10.970405562077643" id="-88201">
		<tag k="name" v="Finnsvikbukta" />
		<tag k="natural" v="bay" />
		<tag k="ssr:stedsnr" v="923102" />
	</node>
	<node lat="63.60810277438656" lon="10.920569447519274" id="-88218">
		<tag k="name" v="Leangsfjorden" />
		<tag k="natural" v="bay" />
		<tag k="ssr:stedsnr" v="923889" />
	</node>
	<node lat="63.73916666286196" lon="11.133247222027029" id="-88234">
		<tag k="name" v="Skagen" />
		<tag k="natural" v="cape" />
		<tag k="ssr:stedsnr" v="838105" />
	</node>
	<node lat="63.746877777012365" lon="11.000474998536024" id="-88235">
		<tag k="name" v="Sjømyra" />
		<tag k="natural" v="bay" />
		<tag k="ssr:stedsnr" v="838112" />
	</node>
	<node lat="63.5723555548362" lon="10.865105553507085" id="-88246">
		<tag k="alt_name" v="Djupvikabukta" />
		<tag k="name" v="Djupvika" />
		<tag k="natural" v="bay" />
		<tag k="ssr:stedsnr" v="924762" />
	</node>
	<node lat="63.81539444435921" lon="11.210944436331586" id="-88307">
		<tag k="name" v="Ringstøa" />
		<tag k="natural" v="bay" />
		<tag k="ssr:stedsnr" v="898004" />
	</node>
	<node lat="63.58592777866977" lon="10.888152786151181" id="-88347">
		<tag k="name" v="Lauvtangbukta" />
		<tag k="natural" v="bay" />
		<tag k="ssr:stedsnr" v="923883" />
	</node>
	<node lat="63.79713889201047" lon="11.075027769918226" id="-88376">
		<tag k="name" v="Osnebben" />
		<tag k="natural" v="cape" />
		<tag k="ssr:stedsnr" v="959109" />
	</node>
	<node lat="63.58751944486295" lon="10.877261109735977" id="-88422">
		<tag k="name" v="Lauvtangen" />
		<tag k="natural" v="cape" />
		<tag k="ssr:stedsnr" v="13860" />
	</node>
	<node lat="63.56783889216283" lon="10.914294440110321" id="-88525">
		<tag k="name" v="Åvikfjorden" />
		<tag k="natural" v="bay" />
		<tag k="ssr:stedsnr" v="73789" />
	</node>
	<node lat="63.75744722069169" lon="11.237991661900145" id="-88552">
		<tag k="name" v="Håabukta" />
		<tag k="natural" v="bay" />
		<tag k="ssr:stedsnr" v="75383" />
	</node>
	<node lat="63.81159166825724" lon="11.220886115604175" id="-88599">
		<tag k="name" v="Barstadbukta" />
		<tag k="natural" v="bay" />
		<tag k="ssr:stedsnr" v="109003" />
	</node>
	<node lat="63.799544442647516" lon="11.057277768167186" id="-88681">
		<tag k="fixme" v="multiple name tags, choose one and add the other to alt_name" />
		<tag k="name" v="Stornestangen;Salatertangen" />
		<tag k="natural" v="cape" />
		<tag k="ssr:stedsnr" v="135830" />
	</node>
	<node lat="63.7381861101388" lon="11.13857500321337" id="-88736">
		<tag k="name" v="Hestøygrunnflua" />
		<tag k="natural" v="shoal" />
		<tag k="place" v="locality" />
		<tag k="ssr:stedsnr" v="165934" />
	</node>
	<node lat="63.74723889109753" lon="10.998694446296502" id="-88790">
		<tag k="name" v="Sjømyrtangen" />
		<tag k="natural" v="cape" />
		<tag k="ssr:stedsnr" v="195161" />
	</node>
	<node lat="63.74407499583777" lon="11.002352784050156" id="-88871">
		<tag k="alt_name" v="Gravatangen" />
		<tag k="name" v="Gravtangen" />
		<tag k="natural" v="cape" />
		<tag k="ssr:stedsnr" v="226938" />
	</node>
	<node lat="63.774069441517184" lon="11.03306665862429" id="-88872">
		<tag k="name" v="Nordviklandet" />
		<tag k="natural" v="cape" />
		<tag k="ssr:stedsnr" v="227074" />
	</node>
	<node lat="63.58470350220552" lon="10.900914823891542" id="-88884">
		<tag k="name" v="Svartvika" />
		<tag k="natural" v="bay" />
		<tag k="ssr:stedsnr" v="289848" />
	</node>
	<node lat="63.75311944083377" lon="11.292586116990904" id="-88903">
		<tag k="fixme" v="consider seamark:type=rock or natural=shoal" />
		<tag k="name" v="Nessiskjæret" />
		<tag k="place" v="islet" />
		<tag k="ssr:stedsnr" v="292286" />
	</node>
	<node lat="63.556941664916486" lon="10.856019439155922" id="-88925">
		<tag k="name" v="Skarvholman" />
		<tag k="place" v="islet" />
		<tag k="ssr:stedsnr" v="316847" />
	</node>
	<node lat="63.78258055361156" lon="11.143355559491164" id="-88941">
		<tag k="name" v="Kjølsvikholmen" />
		<tag k="place" v="islet" />
		<tag k="ssr:stedsnr" v="317713" />
	</node>
	<node lat="63.700922221784396" lon="10.928316671694901" id="-88979">
		<tag k="name" v="Håmmårgrunnen" />
		<tag k="natural" v="shoal" />
		<tag k="place" v="locality" />
		<tag k="ssr:stedsnr" v="346794" />
	</node>
	<node lat="63.57273502279206" lon="10.87238061721783" id="-88990">
		<tag k="name" v="Sørvika" />
		<tag k="natural" v="bay" />
		<tag k="ssr:stedsnr" v="350485" />
	</node>
	<node lat="63.8017166649542" lon="11.131380556876726" id="-88994">
		<tag k="name" v="Mosvikstøa" />
		<tag k="natural" v="bay" />
		<tag k="ssr:stedsnr" v="351011" />
	</node>
	<node lat="63.79451666525254" lon="11.203094440021074" id="-88996">
		<tag k="name" v="Kabelvika" />
		<tag k="natural" v="bay" />
		<tag k="ssr:stedsnr" v="351018" />
	</node>
	<node lat="63.8070083329693" lon="11.228355561474613" id="-88997">
		<tag k="name" v="Tangbukta" />
		<tag k="natural" v="bay" />
		<tag k="ssr:stedsnr" v="351001" />
	</node>
	<node lat="63.789527774304005" lon="11.140005547284794" id="-89001">
		<tag k="fixme" v="consider seamark:type=rock or natural=shoal" />
		<tag k="name" v="Kjølsviksklæret" />
		<tag k="place" v="islet" />
		<tag k="ssr:stedsnr" v="351118" />
	</node>
	<node lat="63.74860833477229" lon="11.00032778502984" id="-89005">
		<tag k="name" v="Buaholet" />
		<tag k="natural" v="bay" />
		<tag k="ssr:stedsnr" v="352098" />
	</node>
	<node lat="63.71662777767441" lon="11.129594435328846" id="-89039">
		<tag k="name" v="Skallen" />
		<tag k="natural" v="shoal" />
		<tag k="place" v="locality" />
		<tag k="ssr:stedsnr" v="377158" />
	</node>
	<node lat="63.71404722089308" lon="11.02450278508792" id="-89040">
		<tag k="name" v="Jevikbukta" />
		<tag k="natural" v="bay" />
		<tag k="ssr:stedsnr" v="377160" />
	</node>
	<node lat="63.574847220706765" lon="10.850463883198366" id="-89183">
		<tag k="alt_name" v="Nesbeinet" />
		<tag k="name" v="Nisbeinet" />
		<tag k="natural" v="cape" />
		<tag k="ssr:stedsnr" v="438833" />
	</node>
	<node lat="63.793100002984055" lon="11.195644451353703" id="-89191">
		<tag k="name" v="Otersteinvika" />
		<tag k="natural" v="bay" />
		<tag k="ssr:stedsnr" v="439860" />
	</node>
	<node lat="63.682424999671454" lon="10.910352784440548" id="-89222">
		<tag k="name" v="Purkvika" />
		<tag k="natural" v="bay" />
		<tag k="ssr:stedsnr" v="498135" />
	</node>
	<node lat="63.561844448496586" lon="10.899249993078291" id="-89250">
		<tag k="alt_name" v="Sandvikholmen" />
		<tag k="name" v="Sandvikholman" />
		<tag k="place" v="islet" />
		<tag k="ssr:stedsnr" v="498831" />
	</node>
	<node lat="63.56335277483718" lon="10.893677784803014" id="-89251">
		<tag k="name" v="Skarpøya" />
		<tag k="natural" v="cape" />
		<tag k="ssr:stedsnr" v="498833" />
	</node>
	<node lat="63.771770667932735" lon="11.43167529215657" id="-89252">
		<tag k="name" v="Rinnleiret" />
		<tag k="natural" v="cape" />
		<tag k="ssr:stedsnr" v="499212" />
	</node>
	<node lat="63.758602781629286" lon="11.055008323614116" id="-89259">
		<tag k="name" v="Naustbukta" />
		<tag k="natural" v="bay" />
		<tag k="ssr:stedsnr" v="499929" />
	</node>
	<node lat="63.60440278103201" lon="10.917663879765328" id="-89298">
		<tag k="name" v="Hesthåggånebben" />
		<tag k="natural" v="cape" />
		<tag k="ssr:stedsnr" v="531809" />
	</node>
	<node lat="63.60997222561985" lon="10.923647232406246" id="-89299">
		<tag k="name" v="Litløya" />
		<tag k="natural" v="cape" />
		<tag k="ssr:stedsnr" v="531814" />
	</node>
	<node lat="63.60648333467089" lon="10.896819439209825" id="-89301">
		<tag k="name" v="Litløya" />
		<tag k="place" v="island" />
		<tag k="ssr:stedsnr" v="531869" />
	</node>
	<node lat="63.80495555361374" lon="11.150322222067517" id="-89312">
		<tag k="name" v="Øversjøen" />
		<tag k="natural" v="bay" />
		<tag k="ssr:stedsnr" v="533019" />
	</node>
	<node lat="63.75521944642196" lon="11.28788888591105" id="-89400">
		<tag k="name" v="Austvika" />
		<tag k="natural" v="bay" />
		<tag k="ssr:stedsnr" v="590181" />
	</node>
	<node lat="63.555361111638774" lon="10.82105000925493" id="-89401">
		<tag k="name" v="Storgrunnen" />
		<tag k="natural" v="shoal" />
		<tag k="place" v="locality" />
		<tag k="ssr:stedsnr" v="590637" />
	</node>
	<node lat="63.593999998588636" lon="10.883130559247007" id="-89403">
		<tag k="name" v="Søndre Hoøygrunnen" />
		<tag k="natural" v="shoal" />
		<tag k="place" v="locality" />
		<tag k="ssr:stedsnr" v="590998" />
	</node>
	<node lat="63.61145277477479" lon="10.903469447222852" id="-89408">
		<tag k="bay" v="fjord" />
		<tag k="name" v="Sunndalsfjorden" />
		<tag k="natural" v="bay" />
		<tag k="ssr:stedsnr" v="593192" />
	</node>
	<node lat="63.73222222258388" lon="11.118147225372898" id="-89425">
		<tag k="name" v="Plassfjæra" />
		<tag k="natural" v="beach" />
		<tag k="ssr:stedsnr" v="594083" />
	</node>
	<node lat="63.73001110952414" lon="11.119411105273787" id="-89426">
		<tag k="name" v="Måkeskjær" />
		<tag k="natural" v="cape" />
		<tag k="ssr:stedsnr" v="594087" />
	</node>
	<node lat="63.743863884552354" lon="11.017294450879994" id="-89427">
		<tag k="name" v="Nygårdsfjæra" />
		<tag k="natural" v="beach" />
		<tag k="ssr:stedsnr" v="594091" />
	</node>
	<node lat="63.74428055668947" lon="11.037247218229627" id="-89428">
		<tag k="name" v="Sandsørtangen" />
		<tag k="natural" v="cape" />
		<tag k="ssr:stedsnr" v="594098" />
	</node>
	<node lat="63.79774999623077" lon="11.212869444120269" id="-89521">
		<tag k="name" v="Lottvika" />
		<tag k="natural" v="bay" />
		<tag k="ssr:stedsnr" v="655015" />
	</node>
	<node lat="63.75507499699695" lon="11.052055552612313" id="-89523">
		<tag k="name" v="Ringberget" />
		<tag k="natural" v="cape" />
		<tag k="ssr:stedsnr" v="655116" />
	</node>
	<node lat="63.763611113409645" lon="11.080444451880123" id="-89541">
		<tag k="name" v="Bergsøra" />
		<tag k="natural" v="cape" />
		<tag k="ssr:stedsnr" v="712733" />
	</node>
	<node lat="63.59281877015526" lon="10.903764274325393" id="-89542">
		<tag k="name" v="Kobbskjæret" />
		<tag k="natural" v="cape" />
		<tag k="ssr:stedsnr" v="713816" />
	</node>
	<node lat="63.615261108892106" lon="10.972755556550474" id="-89543">
		<tag k="name" v="Leangshølet" />
		<tag k="natural" v="bay" />
		<tag k="ssr:stedsnr" v="713818" />
	</node>
	<node lat="63.724624999824954" lon="11.06418889622489" id="-89578">
		<tag k="name" v="Hestøyflua" />
		<tag k="natural" v="shoal" />
		<tag k="place" v="locality" />
		<tag k="ssr:stedsnr" v="741156" />
	</node>
	<node lat="63.734037557798736" lon="11.125827234935414" id="-89579">
		<tag k="name" v="Hestøya" />
		<tag k="place" v="island" />
		<tag k="ssr:stedsnr" v="741167" />
	</node>
	<node lat="63.5649749980502" lon="10.912772231402547" id="-89598">
		<tag k="name" v="Saltbutangen" />
		<tag k="natural" v="cape" />
		<tag k="ssr:stedsnr" v="741822" />
	</node>
	<node lat="63.79743333692967" lon="11.160697227366828" id="-89665">
		<tag k="name" v="Sundberga" />
		<tag k="natural" v="beach" />
		<tag k="ssr:stedsnr" v="776029" />
	</node>
	<node lat="63.75996388890748" lon="11.283288897094577" id="-89761">
		<tag k="name" v="Kjønsvika" />
		<tag k="natural" v="bay" />
		<tag k="ssr:stedsnr" v="833175" />
	</node>
	<node lat="63.57303152959793" lon="10.857884990136633" id="-89769">
		<tag k="name" v="Litlneset" />
		<tag k="natural" v="cape" />
		<tag k="ssr:stedsnr" v="835566" />
	</node>
	<node lat="63.73526666603174" lon="11.11954443547131" id="-89786">
		<tag k="name" v="Vakkerfjæra" />
		<tag k="natural" v="beach" />
		<tag k="ssr:stedsnr" v="838100" />
	</node>
	<node lat="63.563038892989496" lon="10.86413054944812" id="-89811">
		<tag k="name" v="Aurtubukta" />
		<tag k="natural" v="bay" />
		<tag k="ssr:stedsnr" v="862822" />
	</node>
	<node lat="63.60972778189435" lon="10.900866664611884" id="-89831">
		<tag k="name" v="Sunndalsfjorden" />
		<tag k="natural" v="bay" />
		<tag k="ssr:stedsnr" v="863900" />
	</node>
	<node lat="63.798991669496324" lon="11.060224990340622" id="-89836">
		<tag k="fixme" v="multiple name tags, choose one and add the other to alt_name" />
		<tag k="name" v="Sørbukta;Oldervika" />
		<tag k="natural" v="bay" />
		<tag k="ssr:stedsnr" v="864861" />
	</node>
	<node lat="63.599747224680826" lon="10.896658341308862" id="-89887">
		<tag k="name" v="Hoøygrunnen" />
		<tag k="natural" v="shoal" />
		<tag k="place" v="locality" />
		<tag k="ssr:stedsnr" v="954988" />
	</node>
	<node lat="63.56512899613408" lon="10.883928006663858" id="-89900">
		<tag k="name" v="Ferjemannsbukta" />
		<tag k="natural" v="bay" />
		<tag k="ssr:stedsnr" v="957502" />
	</node>
	<node lat="63.55948607280989" lon="10.911425716814739" id="-89902">
		<tag k="name" v="Holmen" />
		<tag k="place" v="islet" />
		<tag k="ssr:stedsnr" v="957508" />
	</node>
</osm>
