<?xml version="1.0" encoding="UTF-8"?>
<osm generator="osmapis" version="0.6">
	<node id="-750205" lat="63.6888750039" lon="10.9975722175">
		<tag k="fixme" v="consider highway=path" />
		<tag k="highway" v="track" />
		<tag k="name" v="Øvre Våggåskiftet" />
		<tag k="ssr:stedsnr" v="325959" />
	</node>
	<node id="-751217" lat="63.7531355879" lon="11.3194721493">
		<tag k="name" v="Røstad holdeplass" />
		<tag k="railway" v="station" />
		<tag k="ssr:stedsnr" v="1076227" />
		<tag k="train" v="yes" />
	</node>
	<node id="-751216" lat="63.7448377881" lon="11.3004614009">
		<tag k="name" v="Levanger stasjon" />
		<tag k="railway" v="station" />
		<tag k="ssr:stedsnr" v="1076220" />
		<tag k="train" v="yes" />
	</node>
	<node id="-749294" lat="63.7160000015" lon="11.3524666578">
		<tag k="landuse" v="industrial" />
		<tag k="name" v="Langåsfossen kraftstasjon" />
		<tag k="power" v="plant" />
		<tag k="ssr:stedsnr" v="628563" />
	</node>
	<node id="-749285" lat="63.6660750022" lon="11.1127638807">
		<tag k="name" v="Ronglan stasjon" />
		<tag k="railway" v="station" />
		<tag k="ssr:stedsnr" v="619005" />
		<tag k="train" v="yes" />
	</node>
	<node id="-749349" lat="63.7489916635" lon="11.2998472247">
		<tag k="amenity" v="ferry_terminal" />
		<tag k="name" v="Levanger ferjekai" />
		<tag k="ssr:stedsnr" v="886851" />
	</node>
	<node id="-749019" lat="63.7536166629" lon="11.2906083234">
		<tag k="leisure" v="marina" />
		<tag k="name" v="Sjøbadet" />
		<tag k="ssr:stedsnr" v="507568" />
	</node>
	<node id="-748633" lat="63.7135277763" lon="11.0116111014">
		<tag k="highway" v="path" />
		<tag k="name" v="Urdastien" />
		<tag k="ssr:stedsnr" v="265938" />
	</node>
	<node id="-750421" lat="63.6728750014" lon="11.000130552">
		<tag k="bridge" v="yes" />
		<tag k="layer" v="1" />
		<tag k="name" v="Korsbrua" />
		<tag k="ssr:stedsnr" v="412226" />
	</node>
	<node id="-748882" lat="63.6257777736" lon="11.1643611019">
		<tag k="bridge" v="yes" />
		<tag k="layer" v="1" />
		<tag k="loc_name" v="Straumbrua" />
		<tag k="name" v="Strøm bru" />
		<tag k="ssr:stedsnr" v="473487" />
	</node>
	<node id="-749517" lat="63.6882805549" lon="11.0144250033">
		<tag k="highway" v="path" />
		<tag k="name" v="Hyllvegen" />
		<tag k="ssr:stedsnr" v="811949" />
	</node>
	<node id="-751050" lat="63.6310027758" lon="11.0091611162">
		<tag k="man_made" v="cairn" />
		<tag k="name" v="Fonnåsvarden" />
		<tag k="place" v="locality" />
		<tag k="ssr:stedsnr" v="839153" />
	</node>
	<node id="-750535" lat="63.7599722201" lon="11.2652083359">
		<tag k="highway" v="path" />
		<tag k="name" v="Kløva" />
		<tag k="ssr:stedsnr" v="545542" />
	</node>
	<node id="-750021" lat="63.6792742953" lon="11.0769131236">
		<tag k="junction" v="yes" />
		<tag k="name" v="Kjølakorsen" />
		<tag k="place" v="locality" />
		<tag k="ssr:stedsnr" v="168180" />
	</node>
	<node id="-749248" lat="63.7990027807" lon="11.1334694463">
		<tag k="junction" v="yes" />
		<tag k="name" v="Øverlandet" />
		<tag k="place" v="locality" />
		<tag k="ssr:stedsnr" v="594016" />
	</node>
	<node id="-749629" lat="63.7051555556" lon="11.1940305581">
		<tag k="alt_name" v="Skogn" />
		<tag k="name" v="Skogn stasjon" />
		<tag k="railway" v="station" />
		<tag k="ssr:stedsnr" v="13172" />
		<tag k="train" v="yes" />
	</node>
	<node id="-750392" lat="63.7311361104" lon="11.4638222149">
		<tag k="junction" v="yes" />
		<tag k="name" v="Triangelen" />
		<tag k="place" v="locality" />
		<tag k="ssr:stedsnr" v="393983" />
	</node>
	<node id="-749577" lat="63.702788885" lon="10.9882166618">
		<tag k="man_made" v="quay" />
		<tag k="name" v="Smalvegkaia" />
		<tag k="place" v="locality" />
		<tag k="ssr:stedsnr" v="872965" />
	</node>
	<node id="-750387" lat="63.683922226" lon="11.306913883">
		<tag k="highway" v="path" />
		<tag k="name" v="Langfyllbakkan" />
		<tag k="ssr:stedsnr" v="389378" />
	</node>
	<node id="-750764" lat="63.7604749963" lon="11.4399499958">
		<tag k="name" v="Rinnan stasjon" />
		<tag k="railway" v="halt" />
		<tag k="ssr:stedsnr" v="632501" />
		<tag k="train" v="yes" />
	</node>
	<node id="-749255" lat="63.6159055527" lon="10.9160888859">
		<tag k="name" v="Kastråa" />
		<tag k="place" v="locality" />
		<tag k="ssr:stedsnr" v="714844" />
	</node>
	<node id="-749990" lat="63.693799998" lon="10.9985777859">
		<tag k="fixme" v="consider highway=path" />
		<tag k="highway" v="track" />
		<tag k="name" v="Nedre Våggåskiftet" />
		<tag k="ssr:stedsnr" v="143950" />
	</node>
	<node id="-749989" lat="63.7257499999" lon="11.3693027807">
		<tag k="junction" v="yes" />
		<tag k="name" v="Kjerksvegrinda" />
		<tag k="place" v="locality" />
		<tag k="ssr:stedsnr" v="143724" />
	</node>
	<node id="-750756" lat="63.7015472256" lon="10.9898527741">
		<tag k="fixme" v="consider highway=path" />
		<tag k="highway" v="track" />
		<tag k="name" v="Kolmilvegen" />
		<tag k="ssr:stedsnr" v="629975" />
	</node>
	<node id="-750752" lat="63.7008888886" lon="10.9870222275">
		<tag k="highway" v="path" />
		<tag k="name" v="Perkleiva" />
		<tag k="ssr:stedsnr" v="628940" />
	</node>
	<node id="-749720" lat="63.624294443" lon="11.0605388873">
		<tag k="man_made" v="cairn" />
		<tag k="name" v="Sonstadvåttån" />
		<tag k="place" v="locality" />
		<tag k="ssr:stedsnr" v="47178" />
	</node>
	<node id="-750358" lat="62.8465321479" lon="11.3147765981">
		<tag k="name" v="Åsen stasjon" />
		<tag k="railway" v="station" />
		<tag k="ssr:stedsnr" v="377932" />
		<tag k="train" v="yes" />
	</node>
	<node id="-749707" lat="63.7982027786" lon="11.1681388933">
		<tag k="amenity" v="ferry_terminal" />
		<tag k="name" v="Hokstad ferjekai" />
		<tag k="ssr:stedsnr" v="36882" />
	</node>
	<node id="-749961" lat="63.7115472187" lon="11.1846944445">
		<tag k="man_made" v="quay" />
		<tag k="name" v="Holsandkaia" />
		<tag k="place" v="locality" />
		<tag k="ssr:stedsnr" v="143514" />
	</node>
	<node id="-748551" lat="63.7528194443" lon="11.2964638839">
		<tag k="highway" v="path" />
		<tag k="name" v="Hamnpiren" />
		<tag k="ssr:stedsnr" v="83563" />
	</node>
	<node id="-749062" lat="63.7211138884" lon="11.3835888807">
		<tag k="junction" v="yes" />
		<tag k="name" v="Håmmårledet" />
		<tag k="place" v="locality" />
		<tag k="ssr:stedsnr" v="447612" />
	</node>
	<node id="-750594" lat="63.775694444" lon="11.4032138902">
		<tag k="man_made" v="quay" />
		<tag k="name" v="Skåneskaia" />
		<tag k="place" v="locality" />
		<tag k="ssr:stedsnr" v="568705" />
	</node>
</osm>
