<?xml version="1.0" encoding="UTF-8"?>
<osm version="0.6" generator="osmapis">
	<node id="838376747" lat="59.8899148" lon="10.9828969" version="3" timestamp="2022-04-16T06:46:21Z" changeset="119772765" uid="3497659" user="NKA">
		<tag k="name" v="Losby" />
		<tag k="place" v="hamlet" />
		<tag k="ssr:stedsnr" v="368198" />
	</node>
	<node id="1300161516" lat="59.8738055" lon="10.9977501" version="2" timestamp="2022-04-16T06:46:21Z" changeset="119772765" uid="3497659" user="NKA">
		<tag k="name" v="Finnland" />
		<tag k="place" v="isolated_dwelling" />
		<tag k="ssr:stedsnr" v="550191" />
	</node>
	<node id="1326930077" lat="59.9030889" lon="10.9151389" version="3" timestamp="2022-04-16T06:46:21Z" changeset="119772765" uid="3497659" user="NKA">
		<tag k="historic" v="croft" />
		<tag k="name" v="Toresplassen" />
		<tag k="place" v="locality" />
		<tag k="ssr:stedsnr" v="934607" />
	</node>
	<node id="1416248880" lat="59.9340136" lon="11.0230204" version="2" timestamp="2022-04-16T06:46:21Z" changeset="119772765" uid="3497659" user="NKA">
		<tag k="name" v="Kurland" />
		<tag k="place" v="suburb" />
		<tag k="ssr:stedsnr" v="647041" />
	</node>
	<node id="1494698135" lat="59.9369653" lon="10.9894336" version="3" timestamp="2022-04-16T06:46:21Z" changeset="119772765" uid="3497659" user="NKA">
		<tag k="name" v="Lørdagsrud" />
		<tag k="place" v="hamlet" />
		<tag k="ssr:stedsnr" v="691662" />
	</node>
	<node id="1844647545" lat="59.9200759" lon="10.9405263" version="4" timestamp="2022-04-16T06:46:21Z" changeset="119772765" uid="3497659" user="NKA">
		<tag k="name" v="Rasta" />
		<tag k="place" v="suburb" />
		<tag k="ssr:stedsnr" v="40040" />
	</node>
	<node id="1844647546" lat="59.924883" lon="10.9307303" version="9" timestamp="2022-04-16T06:46:21Z" changeset="119772765" uid="3497659" user="NKA">
		<tag k="name" v="Røykås" />
		<tag k="place" v="suburb" />
		<tag k="ssr:stedsnr" v="283028" />
		<tag k="wikidata" v="Q7386740" />
	</node>
	<node id="1844647547" lat="59.91571" lon="10.9394667" version="5" timestamp="2022-04-16T06:46:21Z" changeset="119772765" uid="3497659" user="NKA">
		<tag k="name" v="Vallerud" />
		<tag k="place" v="suburb" />
		<tag k="ssr:stedsnr" v="768044" />
	</node>
	<node id="1844647548" lat="59.9347702" lon="10.9361807" version="5" timestamp="2022-04-16T06:46:21Z" changeset="119772765" uid="3497659" user="NKA">
		<tag k="name" v="Visperud" />
		<tag k="place" v="suburb" />
		<tag k="ssr:stedsnr" v="550011" />
		<tag k="wikidata" v="Q15055847" />
	</node>
	<node id="2696204976" lat="59.9123213" lon="10.9249005" version="2" timestamp="2022-04-16T06:46:21Z" changeset="119772765" uid="3497659" user="NKA">
		<tag k="name" v="Ekerud" />
		<tag k="place" v="neighbourhood" />
		<tag k="ssr:stedsnr" v="793085" />
	</node>
	<node id="2773351535" lat="59.8690624" lon="10.9516715" version="5" timestamp="2022-04-16T06:46:21Z" changeset="119772765" uid="3497659" user="NKA">
		<tag k="board_type" v="history" />
		<tag k="historic" v="shieling" />
		<tag k="historic:operator" v="Ryen;Skjetten (Skedsmo)" />
		<tag k="information" v="board" />
		<tag k="name" v="Ryenseter" />
		<tag k="official_name" v="Ryensetra" />
		<tag k="operator" v="Lørenskog Historielag" />
		<tag k="place" v="isolated_dwelling" />
		<tag k="ssr:stedsnr" v="327929" />
		<tag k="tourism" v="information" />
	</node>
	<node id="2953270587" lat="59.9017139" lon="10.9280333" version="2" timestamp="2022-04-16T06:46:21Z" changeset="119772765" uid="3497659" user="NKA">
		<tag k="historic" v="croft" />
		<tag k="name" v="Toresrud" />
		<tag k="place" v="croft" />
		<tag k="ssr:stedsnr" v="23704" />
	</node>
	<node id="3222422128" lat="59.9456249" lon="10.9520794" version="2" timestamp="2022-04-16T06:46:21Z" changeset="119772765" uid="3497659" user="NKA">
		<tag k="name" v="Skårerødegården" />
		<tag k="place" v="quarter" />
		<tag k="ssr:stedsnr" v="968134" />
		<tag k="website" v="https://lokalhistoriewiki.no/index.php/Skårerødegården_(Lørenskog)" />
	</node>
	<node id="6234312541" lat="59.9413507" lon="10.981272" version="2" timestamp="2022-04-16T06:46:21Z" changeset="119772765" uid="3497659" user="NKA">
		<tag k="name" v="Fjellhamar" />
		<tag k="place" v="suburb" />
		<tag k="ssr:stedsnr" v="526044" />
	</node>
	<node id="6234312542" lat="59.9116989" lon="10.9611774" version="2" timestamp="2022-04-16T06:46:21Z" changeset="119772765" uid="3497659" user="NKA">
		<tag k="alt_name" v="Finstadjordet" />
		<tag k="name" v="Finstad" />
		<tag k="place" v="suburb" />
		<tag k="ssr:stedsnr" v="222031" />
	</node>
	<node id="6234312556" lat="59.9278152" lon="10.9612738" version="11" timestamp="2022-04-16T06:46:21Z" changeset="119772765" uid="3497659" user="NKA">
		<tag k="name" v="Lørenskog" />
		<tag k="name:ps" v="لورېن سکوګ" />
		<tag k="place" v="town" />
		<tag k="population" v="42381" />
		<tag k="population:date" v="2021-01-01" />
		<tag k="ref:ssb_tettsted" v="0801-3029" />
		<tag k="source:population" v="SSB - befolkning i tettstedet" />
		<tag k="ssr:stedsnr" v="404035" />
		<tag k="start_date" v="1908-01-01" />
	</node>
	<node id="9669589171" lat="59.9174517" lon="10.9635598" version="1" timestamp="2022-04-16T06:46:21Z" changeset="119772765" uid="3497659" user="NKA">
		<tag k="name" v="Løken" />
		<tag k="place" v="quarter" />
		<tag k="ssr:stedsnr" v="343041" />
	</node>
	<node id="9669589172" lat="59.9237195" lon="10.9345361" version="1" timestamp="2022-04-16T06:46:21Z" changeset="119772765" uid="3497659" user="NKA">
		<tag k="name" v="Østlia" />
		<tag k="place" v="hamlet" />
		<tag k="ssr:stedsnr" v="751897" />
	</node>
	<node id="9669589173" lat="59.922874" lon="10.9878601" version="1" timestamp="2022-04-16T06:46:21Z" changeset="119772765" uid="3497659" user="NKA">
		<tag k="name" v="Øvre Røyri" />
		<tag k="place" v="farm" />
		<tag k="ssr:stedsnr" v="266077" />
	</node>
	<node id="9669589174" lat="59.9397102" lon="10.9970461" version="1" timestamp="2022-04-16T06:46:21Z" changeset="119772765" uid="3497659" user="NKA">
		<tag k="name" v="Vittenberg" />
		<tag k="place" v="quarter" />
		<tag k="ssr:stedsnr" v="404041" />
	</node>
	<node id="9669589175" lat="59.9128801" lon="10.9892364" version="1" timestamp="2022-04-16T06:46:21Z" changeset="119772765" uid="3497659" user="NKA">
		<tag k="name" v="Nordenga" />
		<tag k="place" v="farm" />
		<tag k="ssr:stedsnr" v="144974" />
	</node>
	<node id="9669589176" lat="59.9211583" lon="11.0095945" version="1" timestamp="2022-04-16T06:46:21Z" changeset="119772765" uid="3497659" user="NKA">
		<tag k="name" v="Østbytajet" />
		<tag k="place" v="locality" />
		<tag k="ssr:stedsnr" v="266706" />
	</node>
	<node id="9669589177" lat="59.9222416" lon="10.9854718" version="1" timestamp="2022-04-16T06:46:21Z" changeset="119772765" uid="3497659" user="NKA">
		<tag k="name" v="Mellom-Røyri" />
		<tag k="place" v="farm" />
		<tag k="ssr:stedsnr" v="691983" />
	</node>
	<node id="9669589178" lat="59.9366424" lon="11.0078626" version="1" timestamp="2022-04-16T06:46:21Z" changeset="119772765" uid="3497659" user="NKA">
		<tag k="name" v="Bårli" />
		<tag k="place" v="farm" />
		<tag k="ssr:stedsnr" v="793060" />
	</node>
	<node id="9669589179" lat="59.8487889" lon="10.9276111" version="1" timestamp="2022-04-16T06:46:21Z" changeset="119772765" uid="3497659" user="NKA">
		<tag k="name" v="Sør-Skytten" />
		<tag k="place" v="locality" />
		<tag k="ssr:stedsnr" v="915215" />
	</node>
	<node id="9669589180" lat="59.9121744" lon="10.9208075" version="1" timestamp="2022-04-16T06:46:21Z" changeset="119772765" uid="3497659" user="NKA">
		<tag k="name" v="Pålerud" />
		<tag k="place" v="farm" />
		<tag k="ssr:stedsnr" v="84988" />
	</node>
	<node id="9669589181" lat="59.929025" lon="10.987425" version="1" timestamp="2022-04-16T06:46:21Z" changeset="119772765" uid="3497659" user="NKA">
		<tag k="name" v="Torshovbråten" />
		<tag k="place" v="locality" />
		<tag k="ssr:stedsnr" v="812697" />
	</node>
	<node id="9669589182" lat="59.9247777" lon="10.9930112" version="1" timestamp="2022-04-16T06:46:21Z" changeset="119772765" uid="3497659" user="NKA">
		<tag k="name" v="Tangen" />
		<tag k="place" v="locality" />
		<tag k="ssr:stedsnr" v="327633" />
	</node>
	<node id="9669589183" lat="59.9238267" lon="10.9952533" version="1" timestamp="2022-04-16T06:46:21Z" changeset="119772765" uid="3497659" user="NKA">
		<tag k="name" v="Sørli" />
		<tag k="place" v="isolated_dwelling" />
		<tag k="ssr:stedsnr" v="569849" />
	</node>
	<node id="9669589184" lat="59.9104607" lon="10.9783829" version="1" timestamp="2022-04-16T06:46:21Z" changeset="119772765" uid="3497659" user="NKA">
		<tag k="name" v="Nedre Feiring" />
		<tag k="place" v="farm" />
		<tag k="ssr:stedsnr" v="751981" />
	</node>
	<node id="9669589185" lat="59.8687678" lon="10.9961141" version="1" timestamp="2022-04-16T06:46:21Z" changeset="119772765" uid="3497659" user="NKA">
		<tag k="name" v="Søndre Tangen" />
		<tag k="place" v="farm" />
		<tag k="ssr:stedsnr" v="569948" />
	</node>
	<node id="9669589186" lat="59.9267028" lon="11.0131805" version="1" timestamp="2022-04-16T06:46:21Z" changeset="119772765" uid="3497659" user="NKA">
		<tag k="name" v="Hovelsrudstua" />
		<tag k="place" v="farm" />
		<tag k="ssr:stedsnr" v="793097" />
	</node>
	<node id="9669589187" lat="59.9237417" lon="11.0006251" version="1" timestamp="2022-04-16T06:46:21Z" changeset="119772765" uid="3497659" user="NKA">
		<tag k="name" v="Nedre Østby" />
		<tag k="place" v="farm" />
		<tag k="ssr:stedsnr" v="630971" />
	</node>
	<node id="9669589188" lat="59.9284587" lon="11.007146" version="1" timestamp="2022-04-16T06:46:21Z" changeset="119772765" uid="3497659" user="NKA">
		<tag k="name" v="Nordre Hovelsrud" />
		<tag k="place" v="farm" />
		<tag k="ssr:stedsnr" v="569636" />
	</node>
	<node id="9669589189" lat="59.9239417" lon="10.9710555" version="1" timestamp="2022-04-16T06:46:21Z" changeset="119772765" uid="3497659" user="NKA">
		<tag k="name" v="Søndre Nordli" />
		<tag k="place" v="farm" />
		<tag k="ssr:stedsnr" v="873096" />
	</node>
	<node id="9669589190" lat="59.9188734" lon="11.0096084" version="1" timestamp="2022-04-16T06:46:21Z" changeset="119772765" uid="3497659" user="NKA">
		<tag k="name" v="NRTKs hytte" />
		<tag k="place" v="isolated_dwelling" />
		<tag k="ssr:stedsnr" v="509593" />
	</node>
	<node id="9669589191" lat="59.9291639" lon="10.9641556" version="1" timestamp="2022-04-16T06:46:21Z" changeset="119772765" uid="3497659" user="NKA">
		<tag k="name" v="Skårås" />
		<tag k="place" v="locality" />
		<tag k="ssr:stedsnr" v="873637" />
	</node>
	<node id="9669589192" lat="59.9168055" lon="10.9953111" version="1" timestamp="2022-04-16T06:46:21Z" changeset="119772765" uid="3497659" user="NKA">
		<tag k="name" v="Røyribråtan" />
		<tag k="place" v="locality" />
		<tag k="ssr:stedsnr" v="751693" />
	</node>
	<node id="9669589193" lat="59.9109778" lon="10.9854361" version="1" timestamp="2022-04-16T06:46:21Z" changeset="119772765" uid="3497659" user="NKA">
		<tag k="name" v="Nordre Kirkerud" />
		<tag k="place" v="farm" />
		<tag k="ssr:stedsnr" v="23979" />
	</node>
	<node id="9669589194" lat="59.8967712" lon="10.9577276" version="1" timestamp="2022-04-16T06:46:21Z" changeset="119772765" uid="3497659" user="NKA">
		<tag k="name" v="Vålerenga" />
		<tag k="place" v="farm" />
		<tag k="ssr:stedsnr" v="812987" />
	</node>
	<node id="9669589195" lat="59.89855" lon="10.9440583" version="1" timestamp="2022-04-16T06:46:21Z" changeset="119772765" uid="3497659" user="NKA">
		<tag k="name" v="Heggedalen" />
		<tag k="place" v="isolated_dwelling" />
		<tag k="ssr:stedsnr" v="733093" />
	</node>
	<node id="9669589196" lat="59.9056083" lon="10.9456861" version="1" timestamp="2022-04-16T06:46:21Z" changeset="119772765" uid="3497659" user="NKA">
		<tag k="name" v="Vestereng" />
		<tag k="place" v="farm" />
		<tag k="ssr:stedsnr" v="66078" />
	</node>
	<node id="9669589197" lat="59.9279566" lon="11.0078106" version="1" timestamp="2022-04-16T06:46:21Z" changeset="119772765" uid="3497659" user="NKA">
		<tag k="name" v="Hovelsrud" />
		<tag k="place" v="farm" />
		<tag k="ssr:stedsnr" v="65009" />
	</node>
	<node id="9669589198" lat="59.8977916" lon="10.9442805" version="1" timestamp="2022-04-16T06:46:21Z" changeset="119772765" uid="3497659" user="NKA">
		<tag k="name" v="Gamle Linderud" />
		<tag k="place" v="locality" />
		<tag k="ssr:stedsnr" v="266645" />
	</node>
	<node id="9669589199" lat="59.9193333" lon="11.0025111" version="1" timestamp="2022-04-16T06:46:21Z" changeset="119772765" uid="3497659" user="NKA">
		<tag k="name" v="Lille Stensrud" />
		<tag k="place" v="locality" />
		<tag k="ssr:stedsnr" v="387663" />
	</node>
	<node id="9669589200" lat="59.9086972" lon="10.9797861" version="1" timestamp="2022-04-16T06:46:21Z" changeset="119772765" uid="3497659" user="NKA">
		<tag k="name" v="Kaldkroken" />
		<tag k="place" v="locality" />
		<tag k="ssr:stedsnr" v="934630" />
	</node>
	<node id="9669589201" lat="59.8824197" lon="10.9880834" version="1" timestamp="2022-04-16T06:46:21Z" changeset="119772765" uid="3497659" user="NKA">
		<tag k="name" v="Sagenga" />
		<tag k="place" v="farm" />
		<tag k="ssr:stedsnr" v="448965" />
	</node>
	<node id="9669589202" lat="59.9212002" lon="10.9506299" version="1" timestamp="2022-04-16T06:46:21Z" changeset="119772765" uid="3497659" user="NKA">
		<tag k="alt_name" v="Søndre Rolvsrud" />
		<tag k="name" v="Rolvsrud" />
		<tag k="place" v="neighbourhood" />
		<tag k="ssr:stedsnr" v="672014" />
	</node>
	<node id="9669589203" lat="59.9243724" lon="10.9719076" version="1" timestamp="2022-04-16T06:46:21Z" changeset="119772765" uid="3497659" user="NKA">
		<tag k="name" v="Nordli" />
		<tag k="place" v="farm" />
		<tag k="ssr:stedsnr" v="308013" />
	</node>
	<node id="9669589204" lat="59.8951702" lon="10.9710528" version="1" timestamp="2022-04-16T06:46:21Z" changeset="119772765" uid="3497659" user="NKA">
		<tag k="name" v="Morkbråten" />
		<tag k="place" v="farm" />
		<tag k="ssr:stedsnr" v="387974" />
	</node>
	<node id="9669589205" lat="59.9296711" lon="11.0222536" version="1" timestamp="2022-04-16T06:46:21Z" changeset="119772765" uid="3497659" user="NKA">
		<tag k="name" v="Sandbakken" />
		<tag k="place" v="farm" />
		<tag k="ssr:stedsnr" v="144651" />
	</node>
	<node id="9669589206" lat="59.9320472" lon="11.0198861" version="1" timestamp="2022-04-16T06:46:21Z" changeset="119772765" uid="3497659" user="NKA">
		<tag k="name" v="Kuland" />
		<tag k="place" v="farm" />
		<tag k="ssr:stedsnr" v="429002" />
	</node>
	<node id="9669589207" lat="59.9285861" lon="10.952261" version="1" timestamp="2022-04-16T06:46:21Z" changeset="119772765" uid="3497659" user="NKA">
		<tag k="name" v="Pokerskogen" />
		<tag k="place" v="hamlet" />
		<tag k="ssr:stedsnr" v="23992" />
	</node>
	<node id="9669589208" lat="59.8448055" lon="11.0242889" version="1" timestamp="2022-04-16T06:46:21Z" changeset="119772765" uid="3497659" user="NKA">
		<tag k="name" v="Kustinta" />
		<tag k="place" v="locality" />
		<tag k="ssr:stedsnr" v="387658" />
	</node>
	<node id="9669589209" lat="59.9165444" lon="10.9496083" version="1" timestamp="2022-04-16T06:46:21Z" changeset="119772765" uid="3497659" user="NKA">
		<tag k="name" v="Løkenhagen" />
		<tag k="place" v="hamlet" />
		<tag k="ssr:stedsnr" v="448995" />
	</node>
	<node id="9669589210" lat="59.93955" lon="11.0073833" version="1" timestamp="2022-04-16T06:46:21Z" changeset="119772765" uid="3497659" user="NKA">
		<tag k="name" v="Fjellstad" />
		<tag k="place" v="hamlet" />
		<tag k="ssr:stedsnr" v="630577" />
	</node>
	<node id="9669589211" lat="59.9229" lon="10.9905778" version="1" timestamp="2022-04-16T06:46:21Z" changeset="119772765" uid="3497659" user="NKA">
		<tag k="name" v="Norum" />
		<tag k="place" v="farm" />
		<tag k="ssr:stedsnr" v="429020" />
	</node>
	<node id="9669589212" lat="59.924825" lon="10.9969916" version="1" timestamp="2022-04-16T06:46:21Z" changeset="119772765" uid="3497659" user="NKA">
		<tag k="name" v="Lille Østby" />
		<tag k="place" v="hamlet" />
		<tag k="ssr:stedsnr" v="205894" />
	</node>
	<node id="9669589213" lat="59.9342333" lon="11.0222666" version="1" timestamp="2022-04-16T06:46:21Z" changeset="119772765" uid="3497659" user="NKA">
		<tag k="name" v="Kurlandsåsen" />
		<tag k="place" v="neighbourhood" />
		<tag k="ssr:stedsnr" v="934594" />
	</node>
	<node id="9669589214" lat="59.9131631" lon="10.9861012" version="1" timestamp="2022-04-16T06:46:21Z" changeset="119772765" uid="3497659" user="NKA">
		<tag k="name" v="Bjørnholt" />
		<tag k="place" v="farm" />
		<tag k="ssr:stedsnr" v="65112" />
	</node>
	<node id="9669589215" lat="59.9325713" lon="11.0055077" version="1" timestamp="2022-04-16T06:46:21Z" changeset="119772765" uid="3497659" user="NKA">
		<tag k="name" v="Plåterud" />
		<tag k="place" v="farm" />
		<tag k="ssr:stedsnr" v="550014" />
	</node>
	<node id="9669589216" lat="59.89415" lon="10.9893945" version="1" timestamp="2022-04-16T06:46:21Z" changeset="119772765" uid="3497659" user="NKA">
		<tag k="name" v="Steinbråtan" />
		<tag k="old_name" v="Steinbråten" />
		<tag k="place" v="isolated_dwelling" />
		<tag k="ssr:stedsnr" v="248077" />
	</node>
	<node id="9669615717" lat="59.928875" lon="11.0219055" version="1" timestamp="2022-04-16T06:46:21Z" changeset="119772765" uid="3497659" user="NKA">
		<tag k="name" v="Skihytta" />
		<tag k="place" v="isolated_dwelling" />
		<tag k="ssr:stedsnr" v="672004" />
	</node>
	<node id="9669615718" lat="59.8942082" lon="10.9626844" version="1" timestamp="2022-04-16T06:46:21Z" changeset="119772765" uid="3497659" user="NKA">
		<tag k="name" v="Søndre Våler" />
		<tag k="place" v="farm" />
		<tag k="ssr:stedsnr" v="144968" />
	</node>
	<node id="9669615719" lat="59.9263619" lon="10.9815411" version="1" timestamp="2022-04-16T06:46:21Z" changeset="119772765" uid="3497659" user="NKA">
		<tag k="name" v="Nordre Hammer" />
		<tag k="place" v="farm" />
		<tag k="ssr:stedsnr" v="23083" />
	</node>
	<node id="9669615720" lat="59.8887383" lon="10.9831099" version="1" timestamp="2022-04-16T06:46:21Z" changeset="119772765" uid="3497659" user="NKA">
		<tag k="name" v="Oppigard" />
		<tag k="place" v="locality" />
		<tag k="ssr:stedsnr" v="873969" />
	</node>
	<node id="9669615721" lat="59.9095151" lon="10.9659512" version="1" timestamp="2022-04-16T06:46:21Z" changeset="119772765" uid="3497659" user="NKA">
		<tag k="name" v="Finstadenga" />
		<tag k="place" v="farm" />
		<tag k="ssr:stedsnr" v="84974" />
	</node>
	<node id="9669615722" lat="59.8677834" lon="11.0015778" version="1" timestamp="2022-04-16T06:46:21Z" changeset="119772765" uid="3497659" user="NKA">
		<tag k="name" v="Geiterud" />
		<tag k="place" v="locality" />
		<tag k="ssr:stedsnr" v="144688" />
	</node>
	<node id="9669615723" lat="59.9263723" lon="10.9987944" version="1" timestamp="2022-04-16T06:46:21Z" changeset="119772765" uid="3497659" user="NKA">
		<tag k="name" v="Østbyenga" />
		<tag k="place" v="farm" />
		<tag k="ssr:stedsnr" v="308006" />
	</node>
	<node id="9669615724" lat="59.8972388" lon="10.9691999" version="1" timestamp="2022-04-16T06:46:21Z" changeset="119772765" uid="3497659" user="NKA">
		<tag k="name" v="Heia" />
		<tag k="place" v="isolated_dwelling" />
		<tag k="ssr:stedsnr" v="569949" />
	</node>
	<node id="9669615725" lat="59.9083953" lon="10.96969" version="1" timestamp="2022-04-16T06:46:21Z" changeset="119772765" uid="3497659" user="NKA">
		<tag k="name" v="Feiring" />
		<tag k="place" v="farm" />
		<tag k="ssr:stedsnr" v="611113" />
	</node>
	<node id="9669615726" lat="59.9311528" lon="10.9383334" version="1" timestamp="2022-04-16T06:46:21Z" changeset="119772765" uid="3497659" user="NKA">
		<tag k="name" v="Thurmannskogen" />
		<tag k="place" v="quarter" />
		<tag k="ssr:stedsnr" v="40036" />
	</node>
	<node id="9669615727" lat="59.9305028" lon="11.0280083" version="1" timestamp="2022-04-16T06:46:21Z" changeset="119772765" uid="3497659" user="NKA">
		<tag k="name" v="Sandbekken" />
		<tag k="place" v="isolated_dwelling" />
		<tag k="ssr:stedsnr" v="490003" />
	</node>
	<node id="9669615728" lat="59.9216139" lon="10.973625" version="1" timestamp="2022-04-16T06:46:21Z" changeset="119772765" uid="3497659" user="NKA">
		<tag k="name" v="Nordre Sørli" />
		<tag k="place" v="isolated_dwelling" />
		<tag k="ssr:stedsnr" v="387875" />
	</node>
	<node id="9669615729" lat="59.9025556" lon="10.9858722" version="1" timestamp="2022-04-16T06:46:21Z" changeset="119772765" uid="3497659" user="NKA">
		<tag k="name" v="Juterud" />
		<tag k="place" v="farm" />
		<tag k="ssr:stedsnr" v="247061" />
	</node>
	<node id="9669615730" lat="59.8605693" lon="10.916621" version="1" timestamp="2022-04-16T06:46:21Z" changeset="119772765" uid="3497659" user="NKA">
		<tag k="name" v="Nord-Skytten" />
		<tag k="place" v="locality" />
		<tag k="ssr:stedsnr" v="915149" />
	</node>
	<node id="9669615731" lat="59.8921426" lon="10.9589013" version="1" timestamp="2022-04-16T06:46:21Z" changeset="119772765" uid="3497659" user="NKA">
		<tag k="name" v="Vesle Dalbakk" />
		<tag k="place" v="farm" />
		<tag k="ssr:stedsnr" v="569937" />
	</node>
	<node id="9669615732" lat="59.8750056" lon="10.9907499" version="1" timestamp="2022-04-16T06:46:21Z" changeset="119772765" uid="3497659" user="NKA">
		<tag k="alt_name" v="Sotue" />
		<tag k="name" v="Sotua" />
		<tag k="place" v="farm" />
		<tag k="ssr:stedsnr" v="854172" />
	</node>
	<node id="9669615733" lat="59.9172584" lon="10.9317362" version="1" timestamp="2022-04-16T06:46:21Z" changeset="119772765" uid="3497659" user="NKA">
		<tag k="name" v="Øvre Rasta" />
		<tag k="place" v="neighbourhood" />
		<tag k="ssr:stedsnr" v="144995" />
	</node>
	<node id="9669615734" lat="59.9024166" lon="10.9875194" version="1" timestamp="2022-04-16T06:46:21Z" changeset="119772765" uid="3497659" user="NKA">
		<tag k="name" v="Sanderud" />
		<tag k="place" v="locality" />
		<tag k="ssr:stedsnr" v="387662" />
	</node>
	<node id="9669615735" lat="59.9459303" lon="10.9582934" version="1" timestamp="2022-04-16T06:46:21Z" changeset="119772765" uid="3497659" user="NKA">
		<tag k="name" v="Steinerud" />
		<tag k="place" v="locality" />
		<tag k="ssr:stedsnr" v="368047" />
	</node>
	<node id="9669615736" lat="59.9358455" lon="10.9336843" version="1" timestamp="2022-04-16T06:46:21Z" changeset="119772765" uid="3497659" user="NKA">
		<tag k="name" v="Robsrudenga" />
		<tag k="place" v="neighbourhood" />
		<tag k="ssr:stedsnr" v="448998" />
	</node>
	<node id="9669615737" lat="59.9233026" lon="11.0036644" version="1" timestamp="2022-04-16T06:46:21Z" changeset="119772765" uid="3497659" user="NKA">
		<tag k="name" v="Østby" />
		<tag k="place" v="farm" />
		<tag k="ssr:stedsnr" v="4018" />
	</node>
	<node id="9669615738" lat="59.9254974" lon="11.0111716" version="1" timestamp="2022-04-16T06:46:21Z" changeset="119772765" uid="3497659" user="NKA">
		<tag k="name" v="Østbystua" />
		<tag k="place" v="farm" />
		<tag k="ssr:stedsnr" v="266630" />
	</node>
	<node id="9669615739" lat="59.9420846" lon="10.9688237" version="1" timestamp="2022-04-16T06:46:21Z" changeset="119772765" uid="3497659" user="NKA">
		<tag k="name" v="Haneborglia" />
		<tag k="place" v="quarter" />
		<tag k="ssr:stedsnr" v="708059" />
	</node>
	<node id="9669615740" lat="59.88755" lon="10.9928861" version="1" timestamp="2022-04-16T06:46:21Z" changeset="119772765" uid="3497659" user="NKA">
		<tag k="name" v="Østmork" />
		<tag k="place" v="farm" />
		<tag k="ssr:stedsnr" v="125181" />
	</node>
	<node id="9669615741" lat="59.9489445" lon="10.9861612" version="1" timestamp="2022-04-16T06:46:21Z" changeset="119772765" uid="3497659" user="NKA">
		<tag k="name" v="Grønlia" />
		<tag k="place" v="quarter" />
		<tag k="ssr:stedsnr" v="162037" />
	</node>
	<node id="9669615742" lat="59.9131694" lon="10.9754361" version="1" timestamp="2022-04-16T06:46:21Z" changeset="119772765" uid="3497659" user="NKA">
		<tag k="name" v="Nesåsen" />
		<tag k="place" v="quarter" />
		<tag k="ssr:stedsnr" v="465029" />
	</node>
	<node id="9669615743" lat="59.9107426" lon="10.9197844" version="1" timestamp="2022-04-16T06:46:21Z" changeset="119772765" uid="3497659" user="NKA">
		<tag k="name" v="Nyborg" />
		<tag k="place" v="farm" />
		<tag k="ssr:stedsnr" v="509982" />
	</node>
	<node id="9669615744" lat="59.9193373" lon="10.9975284" version="1" timestamp="2022-04-16T06:46:21Z" changeset="119772765" uid="3497659" user="NKA">
		<tag k="name" v="Store Stensrud" />
		<tag k="place" v="farm" />
		<tag k="ssr:stedsnr" v="812981" />
	</node>
	<node id="9669615745" lat="59.925492" lon="10.9813173" version="1" timestamp="2022-04-16T06:46:21Z" changeset="119772765" uid="3497659" user="NKA">
		<tag k="name" v="Hammar" />
		<tag k="place" v="hamlet" />
		<tag k="ssr:stedsnr" v="550016" />
	</node>
	<node id="9669615746" lat="59.9186917" lon="11.0012084" version="1" timestamp="2022-04-16T06:46:21Z" changeset="119772765" uid="3497659" user="NKA">
		<tag k="name" v="Nordli" />
		<tag k="place" v="isolated_dwelling" />
		<tag k="ssr:stedsnr" v="387965" />
	</node>
	<node id="9669615747" lat="59.9157861" lon="11.0026944" version="1" timestamp="2022-04-16T06:46:21Z" changeset="119772765" uid="3497659" user="NKA">
		<tag k="name" v="Lauvås" />
		<tag k="place" v="locality" />
		<tag k="ssr:stedsnr" v="23696" />
	</node>
	<node id="9669615748" lat="59.899575" lon="10.9886555" version="1" timestamp="2022-04-16T06:46:21Z" changeset="119772765" uid="3497659" user="NKA">
		<tag k="name" v="Bakkerud" />
		<tag k="place" v="farm" />
		<tag k="ssr:stedsnr" v="915076" />
	</node>
	<node id="9669615749" lat="59.9220137" lon="10.9874863" version="1" timestamp="2022-04-16T06:46:21Z" changeset="119772765" uid="3497659" user="NKA">
		<tag k="name" v="Røyri" />
		<tag k="place" v="farm" />
		<tag k="ssr:stedsnr" v="672019" />
	</node>
	<node id="9669615750" lat="59.923884" lon="10.9938055" version="1" timestamp="2022-04-16T06:46:21Z" changeset="119772765" uid="3497659" user="NKA">
		<tag k="name" v="Østheim" />
		<tag k="place" v="farm" />
		<tag k="ssr:stedsnr" v="812985" />
	</node>
	<node id="9669615751" lat="59.9086083" lon="10.9293778" version="1" timestamp="2022-04-16T06:46:21Z" changeset="119772765" uid="3497659" user="NKA">
		<tag k="name" v="Kristianstomta" />
		<tag k="place" v="locality" />
		<tag k="ssr:stedsnr" v="934605" />
	</node>
	<node id="9669615752" lat="59.9159834" lon="10.9963584" version="1" timestamp="2022-04-16T06:46:21Z" changeset="119772765" uid="3497659" user="NKA">
		<tag k="name" v="Nordal" />
		<tag k="place" v="locality" />
		<tag k="ssr:stedsnr" v="691649" />
	</node>
	<node id="9669615753" lat="59.9389639" lon="10.9919528" version="1" timestamp="2022-04-16T06:46:21Z" changeset="119772765" uid="3497659" user="NKA">
		<tag k="name" v="Blåkollen" />
		<tag k="place" v="neighbourhood" />
		<tag k="ssr:stedsnr" v="448996" />
	</node>
	<node id="9669615754" lat="59.9243222" lon="10.9826028" version="1" timestamp="2022-04-16T06:46:21Z" changeset="119772765" uid="3497659" user="NKA">
		<tag k="name" v="Søndre Hammer" />
		<tag k="place" v="farm" />
		<tag k="ssr:stedsnr" v="751085" />
	</node>
	<node id="9669615755" lat="59.9011323" lon="10.9860895" version="1" timestamp="2022-04-16T06:46:21Z" changeset="119772765" uid="3497659" user="NKA">
		<tag k="name" v="Myra" />
		<tag k="place" v="farm" />
		<tag k="ssr:stedsnr" v="327969" />
	</node>
	<node id="9669615756" lat="59.9341055" lon="10.9969779" version="1" timestamp="2022-04-16T06:46:21Z" changeset="119772765" uid="3497659" user="NKA">
		<tag k="name" v="Nordbygda" />
		<tag k="place" v="neighbourhood" />
		<tag k="ssr:stedsnr" v="465049" />
	</node>
	<node id="9669615757" lat="59.8924058" lon="10.9828064" version="1" timestamp="2022-04-16T06:46:21Z" changeset="119772765" uid="3497659" user="NKA">
		<tag k="name" v="Grytehaugen" />
		<tag k="place" v="farm" />
		<tag k="ssr:stedsnr" v="327954" />
	</node>
	<node id="9669615758" lat="59.9083896" lon="10.9704941" version="1" timestamp="2022-04-16T06:46:21Z" changeset="119772765" uid="3497659" user="NKA">
		<tag k="name" v="Øvre Feiring" />
		<tag k="place" v="farm" />
		<tag k="ssr:stedsnr" v="630966" />
	</node>
	<node id="9669615759" lat="59.8696965" lon="10.99556" version="1" timestamp="2022-04-16T06:46:21Z" changeset="119772765" uid="3497659" user="NKA">
		<tag k="name" v="Tangen" />
		<tag k="place" v="farm" />
		<tag k="ssr:stedsnr" v="247142" />
	</node>
	<node id="9669615760" lat="59.941675" lon="11.0089612" version="1" timestamp="2022-04-16T06:46:21Z" changeset="119772765" uid="3497659" user="NKA">
		<tag k="name" v="Guldal" />
		<tag k="place" v="neighbourhood" />
		<tag k="ssr:stedsnr" v="509994" />
	</node>
	<node id="9669615761" lat="59.8965557" lon="10.9614164" version="1" timestamp="2022-04-16T06:46:21Z" changeset="119772765" uid="3497659" user="NKA">
		<tag k="name" v="Sørbygda" />
		<tag k="place" v="quarter" />
		<tag k="ssr:stedsnr" v="162056" />
	</node>
	<node id="9669615762" lat="59.9132944" lon="10.9833416" version="1" timestamp="2022-04-16T06:46:21Z" changeset="119772765" uid="3497659" user="NKA">
		<tag k="name" v="Bomma" />
		<tag k="place" v="locality" />
		<tag k="ssr:stedsnr" v="509621" />
	</node>
	<node id="9669615763" lat="59.9356722" lon="11.0020529" version="1" timestamp="2022-04-16T06:46:21Z" changeset="119772765" uid="3497659" user="NKA">
		<tag k="name" v="Haugen" />
		<tag k="place" v="locality" />
		<tag k="ssr:stedsnr" v="509627" />
	</node>
	<node id="9669615764" lat="59.9166818" lon="10.9762654" version="1" timestamp="2022-04-16T06:46:21Z" changeset="119772765" uid="3497659" user="NKA">
		<tag k="name" v="Nes" />
		<tag k="place" v="farm" />
		<tag k="ssr:stedsnr" v="611022" />
	</node>
	<node id="9669615765" lat="59.8706006" lon="10.9947022" version="1" timestamp="2022-04-16T06:46:21Z" changeset="119772765" uid="3497659" user="NKA">
		<tag k="name" v="Nordre Tangen" />
		<tag k="place" v="farm" />
		<tag k="ssr:stedsnr" v="387964" />
	</node>
	<node id="9669615766" lat="59.9116184" lon="10.9193344" version="1" timestamp="2022-04-16T06:46:21Z" changeset="119772765" uid="3497659" user="NKA">
		<tag k="name" v="Aspelund" />
		<tag k="place" v="farm" />
		<tag k="ssr:stedsnr" v="934991" />
	</node>
	<node id="9669615767" lat="59.9173707" lon="10.9486671" version="1" timestamp="2022-04-16T06:46:21Z" changeset="119772765" uid="3497659" user="NKA">
		<tag k="name" v="Benterud" />
		<tag k="place" v="farm" />
		<tag k="ssr:stedsnr" v="854014" />
	</node>
	<node id="9669615768" lat="59.9174889" lon="10.9191611" version="1" timestamp="2022-04-16T06:46:21Z" changeset="119772765" uid="3497659" user="NKA">
		<tag k="name" v="Møllerstua" />
		<tag k="place" v="locality" />
		<tag k="ssr:stedsnr" v="144663" />
	</node>
	<node id="9669615769" lat="59.87619" lon="10.9932447" version="1" timestamp="2022-04-16T06:46:21Z" changeset="119772765" uid="3497659" user="NKA">
		<tag k="name" v="Garterud" />
		<tag k="place" v="farm" />
		<tag k="ssr:stedsnr" v="672174" />
	</node>
	<node id="9669615770" lat="59.9186674" lon="11.0019982" version="1" timestamp="2022-04-16T06:46:21Z" changeset="119772765" uid="3497659" user="NKA">
		<tag k="name" v="Vestby" />
		<tag k="place" v="farm" />
		<tag k="ssr:stedsnr" v="934981" />
	</node>
	<node id="9669615771" lat="59.9281674" lon="10.9936297" version="1" timestamp="2022-04-16T06:46:21Z" changeset="119772765" uid="3497659" user="NKA">
		<tag k="name" v="Bredde" />
		<tag k="place" v="neighbourhood" />
		<tag k="ssr:stedsnr" v="387996" />
	</node>
	<node id="9669615772" lat="59.93395" lon="11.0149638" version="1" timestamp="2022-04-16T06:46:21Z" changeset="119772765" uid="3497659" user="NKA">
		<tag k="alt_name" v="Kurlandsholen" />
		<tag k="name" v="Holen" />
		<tag k="place" v="farm" />
		<tag k="ssr:stedsnr" v="732012" />
	</node>
	<node id="9669615773" lat="59.8548672" lon="11.0009903" version="1" timestamp="2022-04-16T06:46:21Z" changeset="119772765" uid="3497659" user="NKA">
		<tag k="historic" v="shieling" />
		<tag k="name" v="Feiringsetra" />
		<tag k="place" v="isolated_dwelling" />
		<tag k="ssr:stedsnr" v="812958" />
	</node>
	<node id="9669615774" lat="59.9280889" lon="10.9388389" version="1" timestamp="2022-04-16T06:46:21Z" changeset="119772765" uid="3497659" user="NKA">
		<tag k="name" v="Bråten" />
		<tag k="place" v="locality" />
		<tag k="ssr:stedsnr" v="873638" />
	</node>
	<node id="9669615775" lat="59.9281146" lon="10.9551725" version="1" timestamp="2022-04-16T06:46:21Z" changeset="119772765" uid="3497659" user="NKA">
		<tag k="name" v="Solheim" />
		<tag k="place" v="locality" />
		<tag k="ssr:stedsnr" v="550009" />
	</node>
	<node id="9669615776" lat="59.8920302" lon="10.9535154" version="1" timestamp="2022-04-16T06:46:21Z" changeset="119772765" uid="3497659" user="NKA">
		<tag k="name" v="Store Dalbakk" />
		<tag k="place" v="farm" />
		<tag k="ssr:stedsnr" v="144950" />
	</node>
	<node id="9669615777" lat="59.8919083" lon="10.9537249" version="1" timestamp="2022-04-16T06:46:21Z" changeset="119772765" uid="3497659" user="NKA">
		<tag k="name" v="Dalbakk" />
		<tag k="place" v="isolated_dwelling" />
		<tag k="ssr:stedsnr" v="126083" />
	</node>
	<node id="9669615778" lat="59.9300553" lon="10.9822423" version="1" timestamp="2022-04-16T06:46:21Z" changeset="119772765" uid="3497659" user="NKA">
		<tag k="name" v="Torshov" />
		<tag k="place" v="farm" />
		<tag k="ssr:stedsnr" v="489017" />
	</node>
	<node id="9669615779" lat="59.9306434" lon="10.9677302" version="1" timestamp="2022-04-16T06:46:21Z" changeset="119772765" uid="3497659" user="NKA">
		<tag k="name" v="Knatten" />
		<tag k="place" v="farm" />
		<tag k="ssr:stedsnr" v="448993" />
	</node>
	<node id="9669615780" lat="59.9069972" lon="10.9252722" version="1" timestamp="2022-04-16T06:46:21Z" changeset="119772765" uid="3497659" user="NKA">
		<tag k="name" v="Jonsrud" />
		<tag k="place" v="isolated_dwelling" />
		<tag k="ssr:stedsnr" v="611080" />
	</node>
	<node id="9669615781" lat="59.9392425" lon="10.9472281" version="1" timestamp="2022-04-16T06:46:21Z" changeset="119772765" uid="3497659" user="NKA">
		<tag k="name" v="Robsrud" />
		<tag k="place" v="quarter" />
		<tag k="ssr:stedsnr" v="179126" />
	</node>
	<node id="9669615782" lat="59.9346693" lon="10.9972401" version="1" timestamp="2022-04-16T06:46:21Z" changeset="119772765" uid="3497659" user="NKA">
		<tag k="name" v="Nordby" />
		<tag k="place" v="neighbourhood" />
		<tag k="ssr:stedsnr" v="751997" />
	</node>
	<node id="9669615783" lat="59.9098601" lon="10.9845627" version="1" timestamp="2022-04-16T06:46:21Z" changeset="119772765" uid="3497659" user="NKA">
		<tag k="name" v="Kirkerud" />
		<tag k="place" v="farm" />
		<tag k="ssr:stedsnr" v="247114" />
	</node>
	<node id="9669615784" lat="59.9387444" lon="11.0054556" version="1" timestamp="2022-04-16T06:46:21Z" changeset="119772765" uid="3497659" user="NKA">
		<tag k="name" v="Bårlibakken" />
		<tag k="place" v="neighbourhood" />
		<tag k="ssr:stedsnr" v="751666" />
	</node>
	<node id="9669615785" lat="59.9248616" lon="10.9709143" version="1" timestamp="2022-04-16T06:46:21Z" changeset="119772765" uid="3497659" user="NKA">
		<tag k="name" v="Nordre Nordli" />
		<tag k="place" v="farm" />
		<tag k="ssr:stedsnr" v="691107" />
	</node>
	<node id="9669615786" lat="59.9206751" lon="10.9857206" version="1" timestamp="2022-04-16T06:46:21Z" changeset="119772765" uid="3497659" user="NKA">
		<tag k="name" v="Søndre Røyri" />
		<tag k="place" v="farm" />
		<tag k="ssr:stedsnr" v="327978" />
	</node>
	<node id="9669615787" lat="59.9055544" lon="10.953414" version="1" timestamp="2022-04-16T06:46:21Z" changeset="119772765" uid="3497659" user="NKA">
		<tag k="name" v="Hauger" />
		<tag k="place" v="farm" />
		<tag k="ssr:stedsnr" v="551075" />
	</node>
	<node id="9669615788" lat="59.9079778" lon="10.9426778" version="1" timestamp="2022-04-16T06:46:21Z" changeset="119772765" uid="3497659" user="NKA">
		<tag k="name" v="Frydenberg" />
		<tag k="place" v="isolated_dwelling" />
		<tag k="ssr:stedsnr" v="65108" />
	</node>
	<node id="9669615789" lat="59.8545139" lon="10.9236725" version="1" timestamp="2022-04-16T06:46:21Z" changeset="119772765" uid="3497659" user="NKA">
		<tag k="name" v="Skytten" />
		<tag k="place" v="locality" />
		<tag k="ssr:stedsnr" v="1076922" />
	</node>
	<node id="9669615790" lat="59.9360357" lon="10.9664081" version="1" timestamp="2022-04-16T06:46:21Z" changeset="119772765" uid="3497659" user="NKA">
		<tag k="name" v="Fjellhamarskogen" />
		<tag k="place" v="quarter" />
		<tag k="ssr:stedsnr" v="830044" />
	</node>
	<node id="9669615791" lat="59.9190528" lon="10.9857556" version="1" timestamp="2022-04-16T06:46:21Z" changeset="119772765" uid="3497659" user="NKA">
		<tag k="name" v="Bakken" />
		<tag k="place" v="locality" />
		<tag k="ssr:stedsnr" v="266664" />
	</node>
	<node id="9669615792" lat="59.8827722" lon="10.9909751" version="1" timestamp="2022-04-16T06:46:21Z" changeset="119772765" uid="3497659" user="NKA">
		<tag k="name" v="Møllerenga" />
		<tag k="place" v="isolated_dwelling" />
		<tag k="ssr:stedsnr" v="4182" />
	</node>
	<node id="9669615793" lat="59.9162028" lon="11.0000694" version="1" timestamp="2022-04-16T06:46:21Z" changeset="119772765" uid="3497659" user="NKA">
		<tag k="name" v="Nybakk" />
		<tag k="place" v="locality" />
		<tag k="ssr:stedsnr" v="327626" />
	</node>
	<node id="9669615794" lat="59.8983639" lon="10.9521139" version="1" timestamp="2022-04-16T06:46:21Z" changeset="119772765" uid="3497659" user="NKA">
		<tag k="name" v="Linderud" />
		<tag k="place" v="locality" />
		<tag k="ssr:stedsnr" v="266655" />
	</node>
	<node id="9669615795" lat="59.9000528" lon="10.9868472" version="1" timestamp="2022-04-16T06:46:21Z" changeset="119772765" uid="3497659" user="NKA">
		<tag k="name" v="Kirkerudbråten" />
		<tag k="place" v="farm" />
		<tag k="ssr:stedsnr" v="327948" />
	</node>
	<node id="9669615796" lat="59.925223" lon="10.9836793" version="1" timestamp="2022-04-16T06:46:21Z" changeset="119772765" uid="3497659" user="NKA">
		<tag k="name" v="Mellom-Hammer" />
		<tag k="place" v="farm" />
		<tag k="ssr:stedsnr" v="448078" />
	</node>
	<node id="9669615797" lat="59.9336777" lon="10.9994982" version="1" timestamp="2022-04-16T06:46:21Z" changeset="119772765" uid="3497659" user="NKA">
		<tag k="name" v="Nordheim" />
		<tag k="place" v="farm" />
		<tag k="ssr:stedsnr" v="569981" />
	</node>
	<node id="9669615798" lat="59.9059294" lon="10.9601604" version="1" timestamp="2022-04-16T06:46:21Z" changeset="119772765" uid="3497659" user="NKA">
		<tag k="name" v="Rud" />
		<tag k="place" v="farm" />
		<tag k="ssr:stedsnr" v="430069" />
	</node>
	<node id="9669615799" lat="59.937481" lon="10.9784382" version="1" timestamp="2022-04-16T06:46:21Z" changeset="119772765" uid="3497659" user="NKA">
		<tag k="name" v="Fjellsrud" />
		<tag k="place" v="quarter" />
		<tag k="ssr:stedsnr" v="449000" />
	</node>
	<node id="9669615800" lat="59.8954744" lon="10.9597519" version="1" timestamp="2022-04-16T06:46:21Z" changeset="119772765" uid="3497659" user="NKA">
		<tag k="name" v="Vestre Våler" />
		<tag k="place" v="farm" />
		<tag k="ssr:stedsnr" v="691961" />
	</node>
	<node id="9669615801" lat="59.9323888" lon="10.9624055" version="1" timestamp="2022-04-16T06:46:21Z" changeset="119772765" uid="3497659" user="NKA">
		<tag k="name" v="Polen" />
		<tag k="place" v="locality" />
		<tag k="ssr:stedsnr" v="84689" />
	</node>
	<node id="9669615802" lat="59.9066445" lon="10.9456777" version="1" timestamp="2022-04-16T06:46:21Z" changeset="119772765" uid="3497659" user="NKA">
		<tag k="name" v="Nyborgholen" />
		<tag k="place" v="locality" />
		<tag k="ssr:stedsnr" v="934604" />
	</node>
	<node id="9669615803" lat="59.9118722" lon="10.9798556" version="1" timestamp="2022-04-16T06:46:21Z" changeset="119772765" uid="3497659" user="NKA">
		<tag k="name" v="Lia" />
		<tag k="place" v="locality" />
		<tag k="ssr:stedsnr" v="934627" />
	</node>
	<node id="9669615804" lat="59.8798478" lon="10.9882755" version="1" timestamp="2022-04-16T06:46:21Z" changeset="119772765" uid="3497659" user="NKA">
		<tag k="name" v="Sandstykket" />
		<tag k="place" v="farm" />
		<tag k="ssr:stedsnr" v="691950" />
	</node>
	<node id="9669615805" lat="59.9063296" lon="10.9517306" version="1" timestamp="2022-04-16T06:46:21Z" changeset="119772765" uid="3497659" user="NKA">
		<tag k="name" v="Nordre Hauger" />
		<tag k="place" v="farm" />
		<tag k="ssr:stedsnr" v="448983" />
	</node>
	<node id="9669615806" lat="59.9106351" lon="10.918568" version="1" timestamp="2022-04-16T06:46:21Z" changeset="119772765" uid="3497659" user="NKA">
		<tag k="name" v="Bjørndalen" />
		<tag k="place" v="hamlet" />
		<tag k="ssr:stedsnr" v="222037" />
	</node>
	<node id="9669615807" lat="59.8506868" lon="10.9826261" version="1" timestamp="2022-04-16T06:46:21Z" changeset="119772765" uid="3497659" user="NKA">
		<tag k="name" v="Skålsjøhytta" />
		<tag k="place" v="isolated_dwelling" />
		<tag k="ssr:stedsnr" v="751971" />
	</node>
	<node id="9669615808" lat="59.919261" lon="10.9995373" version="1" timestamp="2022-04-16T06:46:21Z" changeset="119772765" uid="3497659" user="NKA">
		<tag k="name" v="Steinsrud" />
		<tag k="place" v="farm" />
		<tag k="ssr:stedsnr" v="793015" />
	</node>
	<node id="9669615809" lat="59.9272528" lon="10.9371721" version="1" timestamp="2022-04-16T06:46:21Z" changeset="119772765" uid="3497659" user="NKA">
		<tag k="name" v="Rasta" />
		<tag k="place" v="farm" />
		<tag k="ssr:stedsnr" v="672007" />
	</node>
	<node id="9669615810" lat="59.9271324" lon="10.925804" version="1" timestamp="2022-04-16T06:46:21Z" changeset="119772765" uid="3497659" user="NKA">
		<tag k="name" v="Lysås" />
		<tag k="place" v="farm" />
		<tag k="ssr:stedsnr" v="247015" />
	</node>
	<node id="9669615811" lat="59.8957696" lon="10.9623796" version="1" timestamp="2022-04-16T06:46:21Z" changeset="119772765" uid="3497659" user="NKA">
		<tag k="name" v="Våler" />
		<tag k="place" v="farm" />
		<tag k="ssr:stedsnr" v="187080" />
	</node>
	<node id="9669615812" lat="59.9120306" lon="10.9566222" version="1" timestamp="2022-04-16T06:46:21Z" changeset="119772765" uid="3497659" user="NKA">
		<tag k="name" v="Øvre Finstad" />
		<tag k="place" v="farm" />
		<tag k="ssr:stedsnr" v="84986" />
	</node>
	<node id="9669615813" lat="59.91975" lon="10.9738944" version="1" timestamp="2022-04-16T06:46:21Z" changeset="119772765" uid="3497659" user="NKA">
		<tag k="name" v="Sørli" />
		<tag k="place" v="quarter" />
		<tag k="ssr:stedsnr" v="40043" />
	</node>
	<node id="9669615814" lat="59.9111083" lon="10.9225306" version="1" timestamp="2022-04-16T06:46:21Z" changeset="119772765" uid="3497659" user="NKA">
		<tag k="alt_name" v="Elvågasæter" />
		<tag k="name" v="Elvågaseter" />
		<tag k="place" v="farm" />
		<tag k="ssr:stedsnr" v="65079" />
	</node>
	<node id="9669615815" lat="59.9339833" lon="10.9529348" version="1" timestamp="2022-04-16T06:46:21Z" changeset="119772765" uid="3497659" user="NKA">
		<tag k="name" v="Kjenn" />
		<tag k="place" v="suburb" />
		<tag k="ssr:stedsnr" v="708029" />
	</node>
	<node id="9669615816" lat="59.9165342" lon="11.0049172" version="1" timestamp="2022-04-16T06:46:21Z" changeset="119772765" uid="3497659" user="NKA">
		<tag k="name" v="Stensrudbråten" />
		<tag k="place" v="isolated_dwelling" />
		<tag k="ssr:stedsnr" v="751972" />
	</node>
	<node id="9669615817" lat="59.9153583" lon="10.9538416" version="1" timestamp="2022-04-16T06:46:21Z" changeset="119772765" uid="3497659" user="NKA">
		<tag k="name" v="Berger" />
		<tag k="place" v="farm" />
		<tag k="ssr:stedsnr" v="266959" />
	</node>
	<node id="9669615818" lat="59.9180222" lon="11.0123084" version="1" timestamp="2022-04-16T06:46:21Z" changeset="119772765" uid="3497659" user="NKA">
		<tag k="name" v="Sanderud" />
		<tag k="place" v="locality" />
		<tag k="ssr:stedsnr" v="144684" />
	</node>
	<node id="9669615819" lat="59.9222778" lon="10.9217584" version="1" timestamp="2022-04-16T06:46:21Z" changeset="119772765" uid="3497659" user="NKA">
		<tag k="name" v="Nordli" />
		<tag k="place" v="farm" />
		<tag k="ssr:stedsnr" v="733027" />
	</node>
	<node id="9669615820" lat="59.9109125" lon="10.9851248" version="1" timestamp="2022-04-16T06:46:21Z" changeset="119772765" uid="3497659" user="NKA">
		<tag k="name" v="Midtbygda" />
		<tag k="place" v="quarter" />
		<tag k="ssr:stedsnr" v="890067" />
	</node>
	<node id="9669615821" lat="59.9043829" lon="10.9517979" version="1" timestamp="2022-04-16T06:46:21Z" changeset="119772765" uid="3497659" user="NKA">
		<tag k="name" v="Søndre Hauger" />
		<tag k="place" v="farm" />
		<tag k="ssr:stedsnr" v="812988" />
	</node>
	<node id="9669615822" lat="59.9168805" lon="11.0018083" version="1" timestamp="2022-04-16T06:46:21Z" changeset="119772765" uid="3497659" user="NKA">
		<tag k="name" v="Nylenne" />
		<tag k="place" v="locality" />
		<tag k="ssr:stedsnr" v="327627" />
	</node>
	<node id="9669615823" lat="59.900825" lon="10.9672027" version="1" timestamp="2022-04-16T06:46:21Z" changeset="119772765" uid="3497659" user="NKA">
		<tag k="name" v="Grinderud" />
		<tag k="place" v="farm" />
		<tag k="ssr:stedsnr" v="794067" />
	</node>
	<node id="9669615824" lat="59.9227241" lon="11.0067386" version="1" timestamp="2022-04-16T06:46:21Z" changeset="119772765" uid="3497659" user="NKA">
		<tag k="name" v="Øvre Østby" />
		<tag k="place" v="farm" />
		<tag k="ssr:stedsnr" v="509600" />
	</node>
	<node id="9669615825" lat="59.8988445" lon="10.9653277" version="1" timestamp="2022-04-16T06:46:21Z" changeset="119772765" uid="3497659" user="NKA">
		<tag k="name" v="Nordre Våler" />
		<tag k="place" v="farm" />
		<tag k="ssr:stedsnr" v="144970" />
	</node>
	<node id="9669615826" lat="59.9044389" lon="10.9848056" version="1" timestamp="2022-04-16T06:46:21Z" changeset="119772765" uid="3497659" user="NKA">
		<tag k="alt_name" v="Engerbråten" />
		<tag k="name" v="Engebråtan" />
		<tag k="old_name" v="Engebråten" />
		<tag k="place" v="farm" />
		<tag k="ssr:stedsnr" v="794066" />
	</node>
	<node id="9669615827" lat="59.889364" lon="10.9817277" version="1" timestamp="2022-04-16T06:46:21Z" changeset="119772765" uid="3497659" user="NKA">
		<tag k="name" v="Tomta" />
		<tag k="place" v="isolated_dwelling" />
		<tag k="ssr:stedsnr" v="873954" />
	</node>
	<node id="9669615828" lat="59.9346722" lon="10.9777528" version="1" timestamp="2022-04-16T06:46:21Z" changeset="119772765" uid="3497659" user="NKA">
		<tag k="name" v="Tynes" />
		<tag k="place" v="hamlet" />
		<tag k="ssr:stedsnr" v="751892" />
	</node>
	<node id="9669615829" lat="59.9416667" lon="10.9893779" version="1" timestamp="2022-04-16T06:46:21Z" changeset="119772765" uid="3497659" user="NKA">
		<tag k="alt_name" v="Fjellhammer Brug;Fjeldhammer Brug" />
		<tag k="name" v="Fjellhammer bruk" />
		<tag k="place" v="neighbourhood" />
		<tag k="ssr:stedsnr" v="569996" />
	</node>
	<node id="9669615830" lat="59.8974417" lon="10.9680466" version="1" timestamp="2022-04-16T06:46:21Z" changeset="119772765" uid="3497659" user="NKA">
		<tag k="name" v="Grinda" />
		<tag k="place" v="farm" />
		<tag k="ssr:stedsnr" v="327955" />
	</node>
	<node id="9669615831" lat="59.9271994" lon="11.0082391" version="1" timestamp="2022-04-16T06:46:21Z" changeset="119772765" uid="3497659" user="NKA">
		<tag k="name" v="Søndre Hovelsrud" />
		<tag k="place" v="farm" />
		<tag k="ssr:stedsnr" v="84650" />
	</node>
	<node id="9669615832" lat="59.8952513" lon="10.9673907" version="1" timestamp="2022-04-16T06:46:21Z" changeset="119772765" uid="3497659" user="NKA">
		<tag k="name" v="Østre Våler" />
		<tag k="place" v="farm" />
		<tag k="ssr:stedsnr" v="266971" />
	</node>
	<node id="9669615833" lat="59.9142298" lon="10.9505177" version="1" timestamp="2022-04-16T06:46:21Z" changeset="119772765" uid="3497659" user="NKA">
		<tag k="name" v="Vallerud" />
		<tag k="place" v="farm" />
		<tag k="ssr:stedsnr" v="793122" />
	</node>
	<node id="9669615834" lat="59.8989818" lon="10.9682159" version="1" timestamp="2022-04-16T06:46:21Z" changeset="119772765" uid="3497659" user="NKA">
		<tag k="name" v="Vålerhagan" />
		<tag k="place" v="farm" />
		<tag k="ssr:stedsnr" v="812977" />
	</node>
	<node id="9669615835" lat="59.9138723" lon="10.945" version="1" timestamp="2022-04-16T06:46:21Z" changeset="119772765" uid="3497659" user="NKA">
		<tag k="name" v="Ilajordet" />
		<tag k="place" v="hamlet" />
		<tag k="ssr:stedsnr" v="873857" />
	</node>
	<node id="9669615836" lat="59.8902611" lon="10.9122723" version="1" timestamp="2022-04-16T06:46:21Z" changeset="119772765" uid="3497659" user="NKA">
		<tag k="name" v="Brenninga" />
		<tag k="place" v="locality" />
		<tag k="ssr:stedsnr" v="84666" />
	</node>
	<node id="9669615837" lat="59.9200667" lon="10.9518361" version="1" timestamp="2022-04-16T06:46:21Z" changeset="119772765" uid="3497659" user="NKA">
		<tag k="name" v="Skårer vest" />
		<tag k="place" v="neighbourhood" />
		<tag k="ssr:stedsnr" v="813000" />
	</node>
	<node id="9669615838" lat="59.9355362" lon="11.0032749" version="1" timestamp="2022-04-16T06:46:21Z" changeset="119772765" uid="3497659" user="NKA">
		<tag k="name" v="Sletten" />
		<tag k="place" v="farm" />
		<tag k="ssr:stedsnr" v="812983" />
	</node>
	<node id="9669615839" lat="59.9337528" lon="10.9946667" version="1" timestamp="2022-04-16T06:46:21Z" changeset="119772765" uid="3497659" user="NKA">
		<tag k="name" v="Nordbyhagen" />
		<tag k="place" v="quarter" />
		<tag k="ssr:stedsnr" v="526030" />
	</node>
	<node id="9669615840" lat="59.8921255" lon="10.9772946" version="1" timestamp="2022-04-16T06:46:21Z" changeset="119772765" uid="3497659" user="NKA">
		<tag k="name" v="Skolehuset" />
		<tag k="place" v="farm" />
		<tag k="ssr:stedsnr" v="630954" />
	</node>
	<node id="9669615841" lat="59.9118361" lon="10.9485278" version="1" timestamp="2022-04-16T06:46:21Z" changeset="119772765" uid="3497659" user="NKA">
		<tag k="name" v="Søndre Vallerud" />
		<tag k="place" v="locality" />
		<tag k="ssr:stedsnr" v="266656" />
	</node>
	<node id="9669615842" lat="59.9281223" lon="10.9343805" version="1" timestamp="2022-04-16T06:46:21Z" changeset="119772765" uid="3497659" user="NKA">
		<tag k="name" v="Svingen" />
		<tag k="place" v="hamlet" />
		<tag k="ssr:stedsnr" v="751899" />
	</node>
	<node id="9669615844" lat="59.8946856" lon="10.9532596" version="1" timestamp="2022-04-16T06:46:21Z" changeset="119772765" uid="3497659" user="NKA">
		<tag k="name" v="Skulerud" />
		<tag k="place" v="farm" />
		<tag k="ssr:stedsnr" v="855078" />
	</node>
	<node id="9669615845" lat="59.9053056" lon="10.9427472" version="1" timestamp="2022-04-16T06:46:21Z" changeset="119772765" uid="3497659" user="NKA">
		<tag k="name" v="Bekkensten" />
		<tag k="place" v="locality" />
		<tag k="ssr:stedsnr" v="812666" />
	</node>
	<node id="9669615846" lat="59.9183801" lon="10.9552079" version="1" timestamp="2022-04-16T06:46:21Z" changeset="119772765" uid="3497659" user="NKA">
		<tag k="name" v="Skårer" />
		<tag k="place" v="suburb" />
		<tag k="ssr:stedsnr" v="951035" />
	</node>
	<node id="9669615847" lat="59.8989081" lon="10.9694406" version="1" timestamp="2022-04-16T06:46:21Z" changeset="119772765" uid="3497659" user="NKA">
		<tag k="name" v="Lund" />
		<tag k="place" v="isolated_dwelling" />
		<tag k="ssr:stedsnr" v="934951" />
	</node>
	<node id="9669615848" lat="59.9241486" lon="10.934766" version="1" timestamp="2022-04-16T06:46:21Z" changeset="119772765" uid="3497659" user="NKA">
		<tag k="name" v="Østli" />
		<tag k="place" v="farm" />
		<tag k="ssr:stedsnr" v="793014" />
	</node>
	<node id="9669615849" lat="59.9333806" lon="10.9786778" version="1" timestamp="2022-04-16T06:46:21Z" changeset="119772765" uid="3497659" user="NKA">
		<tag k="name" v="Bensen" />
		<tag k="place" v="neighbourhood" />
		<tag k="ssr:stedsnr" v="630997" />
	</node>
	<node id="9669615850" lat="59.8967139" lon="10.9696167" version="1" timestamp="2022-04-16T06:46:21Z" changeset="119772765" uid="3497659" user="NKA">
		<tag k="name" v="Hellerud" />
		<tag k="place" v="locality" />
		<tag k="ssr:stedsnr" v="327629" />
	</node>
	<node id="9669615851" lat="59.917125" lon="10.9926444" version="1" timestamp="2022-04-16T06:46:21Z" changeset="119772765" uid="3497659" user="NKA">
		<tag k="name" v="Røyrihagan" />
		<tag k="place" v="locality" />
		<tag k="ssr:stedsnr" v="509624" />
	</node>
	<node id="9669615852" lat="59.910964" lon="10.9715749" version="1" timestamp="2022-04-16T06:46:21Z" changeset="119772765" uid="3497659" user="NKA">
		<tag k="name" v="Feiringhagan" />
		<tag k="place" v="farm" />
		<tag k="ssr:stedsnr" v="84977" />
	</node>
</osm>
