<?xml version="1.0" encoding="UTF-8"?>
<osm version="0.6" generator="osmapis">
	<node lat="63.887788892322135" lon="11.698672226996266" id="-36111">
		<tag k="name" v="Aksnesslættet" />
		<tag k="ssr:date" v="2019-05-30" />
		<tag k="ssr:gruppe" v="veg" />
		<tag k="ssr:hovedgruppe" v="infrastruktur" />
		<tag k="ssr:stedsnr" v="101365" />
		<tag k="ssr:type" v="adressenavn" />
	</node>
	<node lat="63.7849031304416" lon="11.43682986891561" id="-36361">
		<tag k="name" v="Verdal molo" />
		<tag k="ssr:date" v="2020-09-16" />
		<tag k="ssr:gruppe" v="navigasjon" />
		<tag k="ssr:hovedgruppe" v="infrastruktur" />
		<tag k="ssr:stedsnr" v="269133" />
		<tag k="ssr:type" v="fyrlykt" />
	</node>
	<node lat="63.7374694405753" lon="12.08941110132942" id="-36363">
		<tag k="name" v="Fagerlitjønna" />
		<tag k="ssr:date" v="2019-05-30" />
		<tag k="ssr:gruppe" v="veg" />
		<tag k="ssr:hovedgruppe" v="infrastruktur" />
		<tag k="ssr:stedsnr" v="282380" />
		<tag k="ssr:type" v="adressenavn" />
	</node>
	<node lat="63.87424167078496" lon="11.69226111998304" id="-36375">
		<tag k="name" v="Aksnestjønna" />
		<tag k="ssr:date" v="2019-05-30" />
		<tag k="ssr:gruppe" v="veg" />
		<tag k="ssr:hovedgruppe" v="infrastruktur" />
		<tag k="ssr:stedsnr" v="465375" />
		<tag k="ssr:type" v="adressenavn" />
	</node>
	<node lat="63.756913888343234" lon="12.086527771739886" id="-36471">
		<tag k="name" v="Heståtjønnin" />
		<tag k="ssr:date" v="2019-05-30" />
		<tag k="ssr:gruppe" v="veg" />
		<tag k="ssr:hovedgruppe" v="infrastruktur" />
		<tag k="ssr:stedsnr" v="403392" />
		<tag k="ssr:type" v="adressenavn" />
	</node>
	<node lat="63.859908333759385" lon="11.799677784259881" id="-36472">
		<tag k="name" v="Fånetvatnet" />
		<tag k="ssr:date" v="2019-05-30" />
		<tag k="ssr:gruppe" v="veg" />
		<tag k="ssr:hovedgruppe" v="infrastruktur" />
		<tag k="ssr:stedsnr" v="404376" />
		<tag k="ssr:type" v="adressenavn" />
	</node>
	<node lat="63.904925003386744" lon="12.14653610492378" id="-36859">
		<tag k="name" v="Kolstadvollen" />
		<tag k="ssr:date" v="2019-05-30" />
		<tag k="ssr:gruppe" v="veg" />
		<tag k="ssr:hovedgruppe" v="infrastruktur" />
		<tag k="ssr:stedsnr" v="768353" />
		<tag k="ssr:type" v="adressenavn" />
	</node>
	<node lat="63.83969444678573" lon="11.87224721544699" id="-36894">
		<tag k="name" v="Skjellheia" />
		<tag k="ssr:date" v="2019-05-30" />
		<tag k="ssr:gruppe" v="veg" />
		<tag k="ssr:hovedgruppe" v="infrastruktur" />
		<tag k="ssr:stedsnr" v="829405" />
		<tag k="ssr:type" v="adressenavn" />
	</node>
	<node lat="63.869547226806056" lon="11.851488883658067" id="-36985">
		<tag k="name" v="Mevatnet" />
		<tag k="ssr:date" v="2019-05-30" />
		<tag k="ssr:gruppe" v="veg" />
		<tag k="ssr:hovedgruppe" v="infrastruktur" />
		<tag k="ssr:stedsnr" v="890407" />
		<tag k="ssr:type" v="adressenavn" />
	</node>
	<node lat="63.79374166507976" lon="11.897669445699561" id="-37141">
		<tag k="name" v="Hangan" />
		<tag k="ssr:date" v="2019-05-30" />
		<tag k="ssr:gruppe" v="veg" />
		<tag k="ssr:hovedgruppe" v="infrastruktur" />
		<tag k="ssr:stedsnr" v="39357" />
		<tag k="ssr:type" v="adressenavn" />
	</node>
	<node lat="63.89706388878369" lon="12.139619445481118" id="-37510">
		<tag k="name" v="Ørtugtjønna" />
		<tag k="ssr:date" v="2019-05-30" />
		<tag k="ssr:gruppe" v="veg" />
		<tag k="ssr:hovedgruppe" v="infrastruktur" />
		<tag k="ssr:stedsnr" v="343343" />
		<tag k="ssr:type" v="adressenavn" />
	</node>
	<node lat="63.869155552910655" lon="11.86855556004151" id="-37511">
		<tag k="name" v="Landfallvollen" />
		<tag k="ssr:date" v="2019-05-30" />
		<tag k="ssr:gruppe" v="veg" />
		<tag k="ssr:hovedgruppe" v="infrastruktur" />
		<tag k="ssr:stedsnr" v="343369" />
		<tag k="ssr:type" v="adressenavn" />
	</node>
	<node lat="63.37686944025041" lon="10.295886115900249" id="-37530">
		<tag k="fixme" v="multiple name tags, choose one and add the other to alt_name" />
		<tag k="name" v="Pilegrimsleia;Pilegrimsleden" />
		<tag k="ssr:date" v="2021-06-08" />
		<tag k="ssr:gruppe" v="veg" />
		<tag k="ssr:hovedgruppe" v="infrastruktur" />
		<tag k="ssr:stedsnr" v="353342" />
		<tag k="ssr:type" v="vegstrekning" />
	</node>
	<node lat="63.67229167072379" lon="12.255658324321653" id="-37532">
		<tag k="name" v="Turen" />
		<tag k="ssr:date" v="2018-01-09" />
		<tag k="ssr:gruppe" v="veg" />
		<tag k="ssr:hovedgruppe" v="infrastruktur" />
		<tag k="ssr:stedsnr" v="363141" />
		<tag k="ssr:type" v="vegstrekning" />
	</node>
	<node lat="63.91452222537274" lon="12.202430563320377" id="-37608">
		<tag k="name" v="Kulslivollen" />
		<tag k="ssr:date" v="2019-05-30" />
		<tag k="ssr:gruppe" v="veg" />
		<tag k="ssr:hovedgruppe" v="infrastruktur" />
		<tag k="ssr:stedsnr" v="404356" />
		<tag k="ssr:type" v="adressenavn" />
	</node>
	<node lat="63.66304444264731" lon="12.091627771582017" id="-37738">
		<tag k="name" v="Karl Johans veg" />
		<tag k="ssr:date" v="2019-02-26" />
		<tag k="ssr:gruppe" v="veg" />
		<tag k="ssr:hovedgruppe" v="infrastruktur" />
		<tag k="ssr:stedsnr" v="510859" />
		<tag k="ssr:type" v="vegstrekning" />
	</node>
	<node lat="63.77724166308312" lon="12.073461116634354" id="-37842">
		<tag k="name" v="Hestådalen" />
		<tag k="ssr:date" v="2019-05-30" />
		<tag k="ssr:gruppe" v="veg" />
		<tag k="ssr:hovedgruppe" v="infrastruktur" />
		<tag k="ssr:stedsnr" v="585377" />
		<tag k="ssr:type" v="adressenavn" />
	</node>
</osm>
