<?xml version="1.0" encoding="UTF-8"?>
<osm version="0.6" generator="osmapis">
	<node id="97093634" lat="63.354484" lon="8.1489667" version="3" timestamp="2022-07-30T17:16:56Z" changeset="124276450" uid="3497659" user="NKA">
		<tag k="alt_name" v="Nerdvika" />
		<tag k="name" v="Nelvika" />
		<tag k="place" v="village" />
		<tag k="ssr:stedsnr" v="923855" />
	</node>
	<node id="441345216" lat="63.5188051" lon="7.9535624" version="2" timestamp="2022-07-30T17:16:56Z" changeset="124276450" uid="3497659" user="NKA">
		<tag k="name" v="Veiholmen" />
		<tag k="place" v="village" />
		<tag k="ssr:stedsnr" v="455512" />
	</node>
	<node id="2597180714" lat="63.4256889" lon="7.8531691" version="2" timestamp="2022-07-30T17:16:56Z" changeset="124276450" uid="3497659" user="NKA">
		<tag k="name" v="Dyrnes" />
		<tag k="place" v="village" />
		<tag k="ssr:stedsnr" v="558754" />
	</node>
	<node id="2597180717" lat="63.4646179" lon="8.0117704" version="3" timestamp="2022-07-30T17:16:56Z" changeset="124276450" uid="3497659" user="NKA">
		<tag k="alt_name" v="Smøla" />
		<tag k="name" v="Hopen" />
		<tag k="place" v="village" />
		<tag k="ssr:stedsnr" v="922488" />
	</node>
	<node id="5226211954" lat="63.2877294" lon="8.1325759" version="2" timestamp="2022-07-30T17:16:56Z" changeset="124276450" uid="3497659" user="NKA">
		<tag k="name" v="Edøy" />
		<tag k="place" v="hamlet" />
		<tag k="ssr:stedsnr" v="133927" />
	</node>
	<node id="9921220199" lat="63.4374513" lon="8.1437735" version="1" timestamp="2022-07-30T17:16:56Z" changeset="124276450" uid="3497659" user="NKA">
		<tag k="name" v="Nordvika" />
		<tag k="place" v="hamlet" />
		<tag k="ssr:stedsnr" v="680752" />
	</node>
	<node id="9921220200" lat="63.3970947" lon="7.8386657" version="1" timestamp="2022-07-30T17:16:56Z" changeset="124276450" uid="3497659" user="NKA">
		<tag k="name" v="Skomsøya" />
		<tag k="place" v="farm" />
		<tag k="ssr:stedsnr" v="498684" />
	</node>
	<node id="9921220201" lat="63.4330583" lon="7.8738807" version="1" timestamp="2022-07-30T17:16:56Z" changeset="124276450" uid="3497659" user="NKA">
		<tag k="name" v="Vika" />
		<tag k="place" v="farm" />
		<tag k="ssr:stedsnr" v="73731" />
	</node>
	<node id="9921220202" lat="63.4545333" lon="8.0664834" version="1" timestamp="2022-07-30T17:16:56Z" changeset="124276450" uid="3497659" user="NKA">
		<tag k="name" v="Elverum" />
		<tag k="place" v="farm" />
		<tag k="ssr:stedsnr" v="740744" />
	</node>
	<node id="9921220203" lat="63.4164378" lon="8.1539492" version="1" timestamp="2022-07-30T17:16:56Z" changeset="124276450" uid="3497659" user="NKA">
		<tag k="name" v="Rokstad" />
		<tag k="place" v="hamlet" />
		<tag k="ssr:stedsnr" v="618662" />
	</node>
	<node id="9921220204" lat="63.4186528" lon="8.0819138" version="1" timestamp="2022-07-30T17:16:56Z" changeset="124276450" uid="3497659" user="NKA">
		<tag k="name" v="Moldstadhøgda" />
		<tag k="place" v="farm" />
		<tag k="ssr:stedsnr" v="680716" />
	</node>
	<node id="9921220205" lat="63.4279611" lon="8.0657055" version="1" timestamp="2022-07-30T17:16:56Z" changeset="124276450" uid="3497659" user="NKA">
		<tag k="name" v="Flate" />
		<tag k="place" v="farm" />
		<tag k="ssr:stedsnr" v="437701" />
	</node>
	<node id="9921220206" lat="63.4165991" lon="8.0315951" version="1" timestamp="2022-07-30T17:16:56Z" changeset="124276450" uid="3497659" user="NKA">
		<tag k="name" v="Skjølstad" />
		<tag k="place" v="farm" />
		<tag k="ssr:stedsnr" v="558708" />
	</node>
	<node id="9921220207" lat="63.5190714" lon="7.9534648" version="1" timestamp="2022-07-30T17:16:56Z" changeset="124276450" uid="3497659" user="NKA">
		<tag k="name" v="Bakkan" />
		<tag k="place" v="neighbourhood" />
		<tag k="ssr:stedsnr" v="328884" />
	</node>
	<node id="9921220208" lat="63.3512806" lon="8.1410778" version="1" timestamp="2022-07-30T17:16:56Z" changeset="124276450" uid="3497659" user="NKA">
		<tag k="name" v="Heimly" />
		<tag k="place" v="farm" />
		<tag k="ssr:stedsnr" v="559828" />
	</node>
	<node id="9921220209" lat="63.3800372" lon="8.1955097" version="1" timestamp="2022-07-30T17:16:56Z" changeset="124276450" uid="3497659" user="NKA">
		<tag k="name" v="Vikan" />
		<tag k="place" v="hamlet" />
		<tag k="ssr:stedsnr" v="558874" />
	</node>
	<node id="9921220210" lat="63.2913242" lon="8.0266611" version="1" timestamp="2022-07-30T17:16:56Z" changeset="124276450" uid="3497659" user="NKA">
		<tag k="name" v="Ellevsøya" />
		<tag k="place" v="farm" />
		<tag k="ssr:stedsnr" v="980130" />
	</node>
	<node id="9921220211" lat="63.3042699" lon="8.0837948" version="1" timestamp="2022-07-30T17:16:56Z" changeset="124276450" uid="3497659" user="NKA">
		<tag k="name" v="Hestøya" />
		<tag k="place" v="farm" />
		<tag k="ssr:stedsnr" v="980129" />
	</node>
	<node id="9921220212" lat="63.3129389" lon="8.0317917" version="1" timestamp="2022-07-30T17:16:56Z" changeset="124276450" uid="3497659" user="NKA">
		<tag k="name" v="Leirmyra" />
		<tag k="place" v="farm" />
		<tag k="ssr:stedsnr" v="922998" />
	</node>
	<node id="9921220213" lat="63.331475" lon="8.052039" version="1" timestamp="2022-07-30T17:16:56Z" changeset="124276450" uid="3497659" user="NKA">
		<tag k="name" v="Tallerås" />
		<tag k="place" v="farm" />
		<tag k="ssr:stedsnr" v="922730" />
	</node>
	<node id="9921220214" lat="63.3495547" lon="7.8876231" version="1" timestamp="2022-07-30T17:16:56Z" changeset="124276450" uid="3497659" user="NKA">
		<tag k="name" v="Jøa" />
		<tag k="place" v="hamlet" />
		<tag k="ssr:stedsnr" v="377805" />
	</node>
	<node id="9921220215" lat="63.4509806" lon="8.1316222" version="1" timestamp="2022-07-30T17:16:56Z" changeset="124276450" uid="3497659" user="NKA">
		<tag k="name" v="Hønsvik" />
		<tag k="place" v="farm" />
		<tag k="ssr:stedsnr" v="233053" />
	</node>
	<node id="9921220216" lat="63.4205389" lon="8.0413862" version="1" timestamp="2022-07-30T17:16:56Z" changeset="124276450" uid="3497659" user="NKA">
		<tag k="name" v="Gåsebekk" />
		<tag k="place" v="farm" />
		<tag k="ssr:stedsnr" v="133684" />
	</node>
	<node id="9921247617" lat="63.296817" lon="8.087261" version="1" timestamp="2022-07-30T17:16:56Z" changeset="124276450" uid="3497659" user="NKA">
		<tag k="name" v="Kuli" />
		<tag k="place" v="hamlet" />
		<tag k="ssr:stedsnr" v="680978" />
	</node>
	<node id="9921247618" lat="63.4079695" lon="8.142625" version="1" timestamp="2022-07-30T17:16:56Z" changeset="124276450" uid="3497659" user="NKA">
		<tag k="name" v="Lyngmo" />
		<tag k="place" v="farm" />
		<tag k="ssr:stedsnr" v="133623" />
	</node>
	<node id="9921247619" lat="63.4126413" lon="7.8286916" version="1" timestamp="2022-07-30T17:16:56Z" changeset="124276450" uid="3497659" user="NKA">
		<tag k="name" v="Vollan" />
		<tag k="place" v="farm" />
		<tag k="ssr:stedsnr" v="862675" />
	</node>
	<node id="9921247620" lat="63.3564207" lon="7.8925325" version="1" timestamp="2022-07-30T17:16:56Z" changeset="124276450" uid="3497659" user="NKA">
		<tag k="name" v="Jøstølen" />
		<tag k="place" v="hamlet" />
		<tag k="ssr:stedsnr" v="316914" />
	</node>
	<node id="9921247621" lat="63.4222338" lon="8.1572267" version="1" timestamp="2022-07-30T17:16:56Z" changeset="124276450" uid="3497659" user="NKA">
		<tag k="name" v="Bergheim" />
		<tag k="place" v="farm" />
		<tag k="ssr:stedsnr" v="133662" />
	</node>
	<node id="9921247622" lat="63.447301" lon="8.1296632" version="1" timestamp="2022-07-30T17:16:56Z" changeset="124276450" uid="3497659" user="NKA">
		<tag k="name" v="Reiråa" />
		<tag k="place" v="farm" />
		<tag k="ssr:stedsnr" v="73753" />
	</node>
	<node id="9921247623" lat="63.4274861" lon="8.0361639" version="1" timestamp="2022-07-30T17:16:56Z" changeset="124276450" uid="3497659" user="NKA">
		<tag k="name" v="Myrvang" />
		<tag k="place" v="farm" />
		<tag k="ssr:stedsnr" v="73702" />
	</node>
	<node id="9921247624" lat="63.3682945" lon="7.8755556" version="1" timestamp="2022-07-30T17:16:56Z" changeset="124276450" uid="3497659" user="NKA">
		<tag k="name" v="Stølen" />
		<tag k="place" v="farm" />
		<tag k="ssr:stedsnr" v="558880" />
	</node>
	<node id="9921247625" lat="63.4438694" lon="8.1425839" version="1" timestamp="2022-07-30T17:16:56Z" changeset="124276450" uid="3497659" user="NKA">
		<tag k="name" v="Knubben" />
		<tag k="place" v="farm" />
		<tag k="ssr:stedsnr" v="73739" />
	</node>
	<node id="9921247626" lat="63.3206753" lon="7.8010751" version="1" timestamp="2022-07-30T17:16:56Z" changeset="124276450" uid="3497659" user="NKA">
		<tag k="name" v="Sørheim" />
		<tag k="place" v="locality" />
		<tag k="ssr:stedsnr" v="557968" />
	</node>
	<node id="9921247627" lat="63.4332447" lon="8.0559182" version="1" timestamp="2022-07-30T17:16:56Z" changeset="124276450" uid="3497659" user="NKA">
		<tag k="name" v="Moldstad" />
		<tag k="place" v="farm" />
		<tag k="ssr:stedsnr" v="73716" />
	</node>
	<node id="9921247628" lat="63.3710264" lon="7.8255374" version="1" timestamp="2022-07-30T17:16:56Z" changeset="124276450" uid="3497659" user="NKA">
		<tag k="name" v="Hjellberget" />
		<tag k="place" v="hamlet" />
		<tag k="ssr:stedsnr" v="741892" />
	</node>
	<node id="9921247629" lat="63.4173" lon="8.0283944" version="1" timestamp="2022-07-30T17:16:56Z" changeset="124276450" uid="3497659" user="NKA">
		<tag k="name" v="Nerheim" />
		<tag k="place" v="farm" />
		<tag k="ssr:stedsnr" v="12687" />
	</node>
	<node id="9921247630" lat="63.3835077" lon="7.796546" version="1" timestamp="2022-07-30T17:16:56Z" changeset="124276450" uid="3497659" user="NKA">
		<tag k="name" v="Steinsøyneset" />
		<tag k="place" v="hamlet" />
		<tag k="ssr:stedsnr" v="293452" />
	</node>
	<node id="9921247631" lat="63.4579186" lon="8.0463137" version="1" timestamp="2022-07-30T17:16:56Z" changeset="124276450" uid="3497659" user="NKA">
		<tag k="name" v="Bukta" />
		<tag k="place" v="isolated_dwelling" />
		<tag k="ssr:stedsnr" v="862510" />
	</node>
	<node id="9921247632" lat="63.3689306" lon="8.1418111" version="1" timestamp="2022-07-30T17:16:56Z" changeset="124276450" uid="3497659" user="NKA">
		<tag k="name" v="Alvestad" />
		<tag k="place" v="farm" />
		<tag k="ssr:stedsnr" v="73855" />
	</node>
	<node id="9921247633" lat="63.4417987" lon="8.141621" version="1" timestamp="2022-07-30T17:16:56Z" changeset="124276450" uid="3497659" user="NKA">
		<tag k="name" v="Gjevik" />
		<tag k="place" v="farm" />
		<tag k="ssr:stedsnr" v="195742" />
	</node>
	<node id="9921247634" lat="63.3344208" lon="8.0675583" version="1" timestamp="2022-07-30T17:16:56Z" changeset="124276450" uid="3497659" user="NKA">
		<tag k="name" v="Nordigarden" />
		<tag k="place" v="farm" />
		<tag k="ssr:stedsnr" v="73758" />
	</node>
	<node id="9921247635" lat="63.4120028" lon="8.0741945" version="1" timestamp="2022-07-30T17:16:56Z" changeset="124276450" uid="3497659" user="NKA">
		<tag k="name" v="Alfheim" />
		<tag k="place" v="farm" />
		<tag k="ssr:stedsnr" v="194646" />
	</node>
	<node id="9921247636" lat="63.3333195" lon="8.0583111" version="1" timestamp="2022-07-30T17:16:56Z" changeset="124276450" uid="3497659" user="NKA">
		<tag k="name" v="Heimdal" />
		<tag k="place" v="farm" />
		<tag k="ssr:stedsnr" v="73755" />
	</node>
	<node id="9921247637" lat="63.4509556" lon="8.128225" version="1" timestamp="2022-07-30T17:16:56Z" changeset="124276450" uid="3497659" user="NKA">
		<tag k="name" v="Bakken" />
		<tag k="place" v="farm" />
		<tag k="ssr:stedsnr" v="862755" />
	</node>
	<node id="9921247638" lat="63.3667361" lon="7.8646806" version="1" timestamp="2022-07-30T17:16:56Z" changeset="124276450" uid="3497659" user="NKA">
		<tag k="name" v="Skardet" />
		<tag k="place" v="farm" />
		<tag k="ssr:stedsnr" v="619877" />
	</node>
	<node id="9921247639" lat="63.3447128" lon="8.2287653" version="1" timestamp="2022-07-30T17:16:56Z" changeset="124276450" uid="3497659" user="NKA">
		<tag k="name" v="Glasøya" />
		<tag k="place" v="farm" />
		<tag k="ssr:stedsnr" v="587139" />
	</node>
	<node id="9921247640" lat="63.3099635" lon="8.2135972" version="1" timestamp="2022-07-30T17:16:56Z" changeset="124276450" uid="3497659" user="NKA">
		<tag k="name" v="Kyrhaug" />
		<tag k="place" v="farm" />
		<tag k="ssr:stedsnr" v="497938" />
	</node>
	<node id="9921247641" lat="63.4314573" lon="7.8579042" version="1" timestamp="2022-07-30T17:16:56Z" changeset="124276450" uid="3497659" user="NKA">
		<tag k="name" v="Nordstrand" />
		<tag k="place" v="farm" />
		<tag k="ssr:stedsnr" v="111754" />
	</node>
	<node id="9921247642" lat="63.3221917" lon="8.2060084" version="1" timestamp="2022-07-30T17:16:56Z" changeset="124276450" uid="3497659" user="NKA">
		<tag k="name" v="Fruhamna" />
		<tag k="place" v="farm" />
		<tag k="ssr:stedsnr" v="315985" />
	</node>
	<node id="9921247643" lat="63.3016722" lon="8.1901333" version="1" timestamp="2022-07-30T17:16:56Z" changeset="124276450" uid="3497659" user="NKA">
		<tag k="name" v="Valen" />
		<tag k="place" v="farm" />
		<tag k="ssr:stedsnr" v="862929" />
	</node>
	<node id="9921247644" lat="63.3661592" lon="8.1965198" version="1" timestamp="2022-07-30T17:16:56Z" changeset="124276450" uid="3497659" user="NKA">
		<tag k="name" v="Breivika" />
		<tag k="place" v="farm" />
		<tag k="ssr:stedsnr" v="134835" />
	</node>
	<node id="9921247645" lat="63.3890043" lon="8.1916001" version="1" timestamp="2022-07-30T17:16:56Z" changeset="124276450" uid="3497659" user="NKA">
		<tag k="name" v="Bremneset" />
		<tag k="place" v="farm" />
		<tag k="ssr:stedsnr" v="195641" />
	</node>
	<node id="9921247646" lat="63.4197937" lon="7.8261288" version="1" timestamp="2022-07-30T17:16:56Z" changeset="124276450" uid="3497659" user="NKA">
		<tag k="name" v="Råket" />
		<tag k="place" v="village" />
		<tag k="ssr:stedsnr" v="73714" />
	</node>
	<node id="9921247647" lat="63.4628309" lon="8.0032235" version="1" timestamp="2022-07-30T17:16:56Z" changeset="124276450" uid="3497659" user="NKA">
		<tag k="name" v="Hopshaugen" />
		<tag k="place" v="farm" />
		<tag k="ssr:stedsnr" v="658122" />
	</node>
	<node id="9921247648" lat="63.5182947" lon="7.9526481" version="1" timestamp="2022-07-30T17:16:56Z" changeset="124276450" uid="3497659" user="NKA">
		<tag k="name" v="Loshuset" />
		<tag k="place" v="locality" />
		<tag k="ssr:stedsnr" v="631911" />
	</node>
	<node id="9921247649" lat="63.4293166" lon="8.1424549" version="1" timestamp="2022-07-30T17:16:56Z" changeset="124276450" uid="3497659" user="NKA">
		<tag k="name" v="Inner Roksvågen" />
		<tag k="place" v="farm" />
		<tag k="ssr:stedsnr" v="415098" />
	</node>
	<node id="9921247650" lat="63.4373639" lon="8.1277779" version="1" timestamp="2022-07-30T17:16:56Z" changeset="124276450" uid="3497659" user="NKA">
		<tag k="name" v="Langhaugen" />
		<tag k="place" v="farm" />
		<tag k="ssr:stedsnr" v="741763" />
	</node>
	<node id="9921247651" lat="63.5102337" lon="7.9693322" version="1" timestamp="2022-07-30T17:16:56Z" changeset="124276450" uid="3497659" user="NKA">
		<tag k="name" v="Inner Innveien" />
		<tag k="place" v="quarter" />
		<tag k="ssr:stedsnr" v="536641" />
	</node>
	<node id="9921247652" lat="63.3433364" lon="8.1583565" version="1" timestamp="2022-07-30T17:16:56Z" changeset="124276450" uid="3497659" user="NKA">
		<tag k="name" v="Gjerneset" />
		<tag k="place" v="farm" />
		<tag k="ssr:stedsnr" v="680845" />
	</node>
	<node id="9921247653" lat="63.4298667" lon="8.0855223" version="1" timestamp="2022-07-30T17:16:56Z" changeset="124276450" uid="3497659" user="NKA">
		<tag k="name" v="Sørgård" />
		<tag k="place" v="farm" />
		<tag k="ssr:stedsnr" v="437687" />
	</node>
	<node id="9921247654" lat="63.4030889" lon="8.1445333" version="1" timestamp="2022-07-30T17:16:56Z" changeset="124276450" uid="3497659" user="NKA">
		<tag k="name" v="Nyvoll" />
		<tag k="place" v="farm" />
		<tag k="ssr:stedsnr" v="558679" />
	</node>
	<node id="9921247655" lat="63.4240195" lon="7.8232639" version="1" timestamp="2022-07-30T17:16:56Z" changeset="124276450" uid="3497659" user="NKA">
		<tag k="name" v="Indre Råkholmen" />
		<tag k="place" v="farm" />
		<tag k="ssr:stedsnr" v="705902" />
	</node>
	<node id="9921247656" lat="63.4318667" lon="8.0938945" version="1" timestamp="2022-07-30T17:16:56Z" changeset="124276450" uid="3497659" user="NKA">
		<tag k="name" v="Kvilarhaugen" />
		<tag k="place" v="farm" />
		<tag k="ssr:stedsnr" v="316759" />
	</node>
	<node id="9921247657" lat="63.4434611" lon="8.0599667" version="1" timestamp="2022-07-30T17:16:56Z" changeset="124276450" uid="3497659" user="NKA">
		<tag k="name" v="Holmstad" />
		<tag k="place" v="farm" />
		<tag k="ssr:stedsnr" v="316770" />
	</node>
	<node id="9921247658" lat="63.5190367" lon="7.9522013" version="1" timestamp="2022-07-30T17:16:56Z" changeset="124276450" uid="3497659" user="NKA">
		<tag k="name" v="Latræva" />
		<tag k="place" v="neighbourhood" />
		<tag k="ssr:stedsnr" v="814899" />
	</node>
	<node id="9921247659" lat="63.2897417" lon="8.1435667" version="1" timestamp="2022-07-30T17:16:56Z" changeset="124276450" uid="3497659" user="NKA">
		<tag k="name" v="Korsvollen" />
		<tag k="place" v="farm" />
		<tag k="ssr:stedsnr" v="316937" />
	</node>
	<node id="9921247660" lat="63.4312277" lon="8.0849585" version="1" timestamp="2022-07-30T17:16:56Z" changeset="124276450" uid="3497659" user="NKA">
		<tag k="name" v="Rypdal" />
		<tag k="place" v="farm" />
		<tag k="ssr:stedsnr" v="255730" />
	</node>
	<node id="9921247661" lat="63.4190695" lon="8.0379501" version="1" timestamp="2022-07-30T17:16:56Z" changeset="124276450" uid="3497659" user="NKA">
		<tag k="name" v="Frostmo" />
		<tag k="place" v="farm" />
		<tag k="ssr:stedsnr" v="315686" />
	</node>
	<node id="9921247662" lat="63.4577657" lon="8.1186942" version="1" timestamp="2022-07-30T17:16:56Z" changeset="124276450" uid="3497659" user="NKA">
		<tag k="name" v="Skaget" />
		<tag k="place" v="farm" />
		<tag k="ssr:stedsnr" v="255506" />
	</node>
	<node id="9921247663" lat="63.2984278" lon="8.1764223" version="1" timestamp="2022-07-30T17:16:56Z" changeset="124276450" uid="3497659" user="NKA">
		<tag k="name" v="Grønbukta" />
		<tag k="place" v="farm" />
		<tag k="ssr:stedsnr" v="315921" />
	</node>
	<node id="9921247664" lat="63.4160138" lon="8.1342139" version="1" timestamp="2022-07-30T17:16:56Z" changeset="124276450" uid="3497659" user="NKA">
		<tag k="name" v="Lyngheim" />
		<tag k="place" v="farm" />
		<tag k="ssr:stedsnr" v="315682" />
	</node>
	<node id="9921247665" lat="63.4076297" lon="7.8012995" version="1" timestamp="2022-07-30T17:16:56Z" changeset="124276450" uid="3497659" user="NKA">
		<tag k="name" v="Flatmyra" />
		<tag k="place" v="farm" />
		<tag k="ssr:stedsnr" v="680708" />
	</node>
	<node id="9921247666" lat="63.3388778" lon="8.1233794" version="1" timestamp="2022-07-30T17:16:56Z" changeset="124276450" uid="3497659" user="NKA">
		<tag k="name" v="Leirvika" />
		<tag k="place" v="hamlet" />
		<tag k="ssr:stedsnr" v="256748" />
	</node>
	<node id="9921247667" lat="63.3331722" lon="8.0615527" version="1" timestamp="2022-07-30T17:16:56Z" changeset="124276450" uid="3497659" user="NKA">
		<tag k="name" v="Sygarden" />
		<tag k="place" v="farm" />
		<tag k="ssr:stedsnr" v="254722" />
	</node>
	<node id="9921247668" lat="63.3910562" lon="8.1546479" version="1" timestamp="2022-07-30T17:16:56Z" changeset="124276450" uid="3497659" user="NKA">
		<tag k="name" v="Reitdalen" />
		<tag k="place" v="farm" />
		<tag k="ssr:stedsnr" v="619653" />
	</node>
	<node id="9921247669" lat="63.4009111" lon="8.0687667" version="1" timestamp="2022-07-30T17:16:56Z" changeset="124276450" uid="3497659" user="NKA">
		<tag k="name" v="Bergli" />
		<tag k="place" v="farm" />
		<tag k="ssr:stedsnr" v="255652" />
	</node>
	<node id="9921247670" lat="63.5187218" lon="7.9530869" version="1" timestamp="2022-07-30T17:16:56Z" changeset="124276450" uid="3497659" user="NKA">
		<tag k="name" v="Eckhoffbua" />
		<tag k="place" v="locality" />
		<tag k="ssr:stedsnr" v="146917" />
	</node>
	<node id="9921247671" lat="63.320275" lon="8.2132667" version="1" timestamp="2022-07-30T17:16:56Z" changeset="124276450" uid="3497659" user="NKA">
		<tag k="name" v="Varden" />
		<tag k="place" v="farm" />
		<tag k="ssr:stedsnr" v="255991" />
	</node>
	<node id="9921247672" lat="63.3526278" lon="8.146814" version="1" timestamp="2022-07-30T17:16:56Z" changeset="124276450" uid="3497659" user="NKA">
		<tag k="alt_name" v="Nelvika" />
		<tag k="name" v="Øra" />
		<tag k="place" v="farm" />
		<tag k="ssr:stedsnr" v="134859" />
	</node>
	<node id="9921247673" lat="63.4299666" lon="8.0553999" version="1" timestamp="2022-07-30T17:16:56Z" changeset="124276450" uid="3497659" user="NKA">
		<tag k="name" v="Romstad" />
		<tag k="place" v="farm" />
		<tag k="ssr:stedsnr" v="619752" />
	</node>
	<node id="9921247674" lat="63.4579662" lon="8.0447906" version="1" timestamp="2022-07-30T17:16:56Z" changeset="124276450" uid="3497659" user="NKA">
		<tag k="name" v="Rambergshaugen" />
		<tag k="place" v="farm" />
		<tag k="ssr:stedsnr" v="980217" />
	</node>
	<node id="9921247675" lat="63.3744111" lon="8.2060278" version="1" timestamp="2022-07-30T17:16:56Z" changeset="124276450" uid="3497659" user="NKA">
		<tag k="name" v="Åstasund" />
		<tag k="place" v="farm" />
		<tag k="ssr:stedsnr" v="134893" />
	</node>
	<node id="9921247676" lat="63.3193361" lon="8.2006194" version="1" timestamp="2022-07-30T17:16:56Z" changeset="124276450" uid="3497659" user="NKA">
		<tag k="name" v="Slættet" />
		<tag k="place" v="farm" />
		<tag k="ssr:stedsnr" v="133990" />
	</node>
	<node id="9921247677" lat="63.4527042" lon="8.1288331" version="1" timestamp="2022-07-30T17:16:56Z" changeset="124276450" uid="3497659" user="NKA">
		<tag k="name" v="Brevika" />
		<tag k="place" v="farm" />
		<tag k="ssr:stedsnr" v="740747" />
	</node>
	<node id="9921247678" lat="63.3046889" lon="8.1822472" version="1" timestamp="2022-07-30T17:16:56Z" changeset="124276450" uid="3497659" user="NKA">
		<tag k="name" v="Kveldro" />
		<tag k="place" v="farm" />
		<tag k="ssr:stedsnr" v="133925" />
	</node>
	<node id="9921247679" lat="63.4060925" lon="8.0522055" version="1" timestamp="2022-07-30T17:16:56Z" changeset="124276450" uid="3497659" user="NKA">
		<tag k="name" v="Moldvatnet" />
		<tag k="place" v="farm" />
		<tag k="ssr:stedsnr" v="172873" />
	</node>
	<node id="9921247680" lat="63.5178484" lon="7.9551986" version="1" timestamp="2022-07-30T17:16:56Z" changeset="124276450" uid="3497659" user="NKA">
		<tag k="name" v="Innergården" />
		<tag k="place" v="locality" />
		<tag k="ssr:stedsnr" v="86926" />
	</node>
	<node id="9921247681" lat="63.3604324" lon="7.8317683" version="1" timestamp="2022-07-30T17:16:56Z" changeset="124276450" uid="3497659" user="NKA">
		<tag k="name" v="Ersneset" />
		<tag k="place" v="farm" />
		<tag k="ssr:stedsnr" v="980163" />
	</node>
	<node id="9921247682" lat="63.3394869" lon="8.1402306" version="1" timestamp="2022-07-30T17:16:56Z" changeset="124276450" uid="3497659" user="NKA">
		<tag k="name" v="Algarheim" />
		<tag k="place" v="farm" />
		<tag k="ssr:stedsnr" v="377777" />
	</node>
	<node id="9921247683" lat="63.3184661" lon="8.1963446" version="1" timestamp="2022-07-30T17:16:56Z" changeset="124276450" uid="3497659" user="NKA">
		<tag k="name" v="Buvollen" />
		<tag k="place" v="farm" />
		<tag k="ssr:stedsnr" v="73992" />
	</node>
	<node id="9921247684" lat="63.5189058" lon="7.9570991" version="1" timestamp="2022-07-30T17:16:56Z" changeset="124276450" uid="3497659" user="NKA">
		<tag k="name" v="Hammervoldbrygga" />
		<tag k="place" v="locality" />
		<tag k="ssr:stedsnr" v="25903" />
	</node>
	<node id="9921247685" lat="63.3303223" lon="8.088625" version="1" timestamp="2022-07-30T17:16:56Z" changeset="124276450" uid="3497659" user="NKA">
		<tag k="name" v="Grønvika" />
		<tag k="place" v="farm" />
		<tag k="ssr:stedsnr" v="73980" />
	</node>
	<node id="9921247686" lat="63.4195056" lon="8.0600307" version="1" timestamp="2022-07-30T17:16:56Z" changeset="124276450" uid="3497659" user="NKA">
		<tag k="name" v="Moldstad" />
		<tag k="place" v="hamlet" />
		<tag k="ssr:stedsnr" v="73680" />
	</node>
	<node id="9921247687" lat="63.3646028" lon="7.8359916" version="1" timestamp="2022-07-30T17:16:56Z" changeset="124276450" uid="3497659" user="NKA">
		<tag k="name" v="Solhei" />
		<tag k="place" v="farm" />
		<tag k="ssr:stedsnr" v="255897" />
	</node>
	<node id="9921247688" lat="63.4602646" lon="8.1127745" version="1" timestamp="2022-07-30T17:16:56Z" changeset="124276450" uid="3497659" user="NKA">
		<tag k="name" v="Bekken" />
		<tag k="place" v="farm" />
		<tag k="ssr:stedsnr" v="980235" />
	</node>
	<node id="9921247689" lat="63.4593166" lon="8.1167712" version="1" timestamp="2022-07-30T17:16:56Z" changeset="124276450" uid="3497659" user="NKA">
		<tag k="name" v="Haugen" />
		<tag k="place" v="farm" />
		<tag k="ssr:stedsnr" v="73526" />
	</node>
	<node id="9921247690" lat="63.3454315" lon="8.031534" version="1" timestamp="2022-07-30T17:16:56Z" changeset="124276450" uid="3497659" user="NKA">
		<tag k="name" v="Elvegard" />
		<tag k="place" v="farm" />
		<tag k="ssr:stedsnr" v="13792" />
	</node>
	<node id="9921247691" lat="63.5180662" lon="7.9565913" version="1" timestamp="2022-07-30T17:16:56Z" changeset="124276450" uid="3497659" user="NKA">
		<tag k="name" v="Vågarbrygga" />
		<tag k="place" v="locality" />
		<tag k="ssr:stedsnr" v="935913" />
	</node>
	<node id="9921247692" lat="63.4145722" lon="8.0258834" version="1" timestamp="2022-07-30T17:16:56Z" changeset="124276450" uid="3497659" user="NKA">
		<tag k="alt_name" v="Frosta" />
		<tag k="name" v="Frostad" />
		<tag k="place" v="farm" />
		<tag k="ssr:stedsnr" v="12681" />
	</node>
	<node id="9921247693" lat="63.4324778" lon="8.0577222" version="1" timestamp="2022-07-30T17:16:56Z" changeset="124276450" uid="3497659" user="NKA">
		<tag k="name" v="Bjørge" />
		<tag k="place" v="farm" />
		<tag k="ssr:stedsnr" v="802751" />
	</node>
	<node id="9921247694" lat="63.51779" lon="7.9540586" version="1" timestamp="2022-07-30T17:16:56Z" changeset="124276450" uid="3497659" user="NKA">
		<tag k="name" v="Posthuset" />
		<tag k="place" v="locality" />
		<tag k="ssr:stedsnr" v="935922" />
	</node>
	<node id="9921247695" lat="63.4587069" lon="8.0610559" version="1" timestamp="2022-07-30T17:16:56Z" changeset="124276450" uid="3497659" user="NKA">
		<tag k="name" v="Sætran" />
		<tag k="place" v="hamlet" />
		<tag k="ssr:stedsnr" v="801511" />
	</node>
	<node id="9921247696" lat="63.3312305" lon="8.0655889" version="1" timestamp="2022-07-30T17:16:56Z" changeset="124276450" uid="3497659" user="NKA">
		<tag k="name" v="Rabben" />
		<tag k="place" v="farm" />
		<tag k="ssr:stedsnr" v="923808" />
	</node>
	<node id="9921247697" lat="63.4275639" lon="8.0693862" version="1" timestamp="2022-07-30T17:16:56Z" changeset="124276450" uid="3497659" user="NKA">
		<tag k="name" v="Midttun" />
		<tag k="place" v="farm" />
		<tag k="ssr:stedsnr" v="801684" />
	</node>
	<node id="9921247698" lat="63.4452233" lon="8.1385587" version="1" timestamp="2022-07-30T17:16:56Z" changeset="124276450" uid="3497659" user="NKA">
		<tag k="name" v="Havnvik" />
		<tag k="place" v="farm" />
		<tag k="ssr:stedsnr" v="1082059" />
	</node>
	<node id="9921247699" lat="63.3380194" lon="8.096789" version="1" timestamp="2022-07-30T17:16:56Z" changeset="124276450" uid="3497659" user="NKA">
		<tag k="name" v="Bekken" />
		<tag k="place" v="farm" />
		<tag k="ssr:stedsnr" v="862763" />
	</node>
	<node id="9921247700" lat="63.4073281" lon="8.0737338" version="1" timestamp="2022-07-30T17:16:56Z" changeset="124276450" uid="3497659" user="NKA">
		<tag k="name" v="Moldvatnet" />
		<tag k="place" v="farm" />
		<tag k="ssr:stedsnr" v="901902" />
	</node>
	<node id="9921247701" lat="63.3092601" lon="8.0214998" version="1" timestamp="2022-07-30T17:16:56Z" changeset="124276450" uid="3497659" user="NKA">
		<tag k="name" v="Rossvoll" />
		<tag k="place" v="farm" />
		<tag k="ssr:stedsnr" v="194942" />
	</node>
	<node id="9921247702" lat="63.3653638" lon="7.8715723" version="1" timestamp="2022-07-30T17:16:56Z" changeset="124276450" uid="3497659" user="NKA">
		<tag k="name" v="Stranda" />
		<tag k="place" v="farm" />
		<tag k="ssr:stedsnr" v="619878" />
	</node>
	<node id="9921247703" lat="63.5191383" lon="7.9544536" version="1" timestamp="2022-07-30T17:16:56Z" changeset="124276450" uid="3497659" user="NKA">
		<tag k="name" v="Eckhoffbrygga" />
		<tag k="place" v="locality" />
		<tag k="ssr:stedsnr" v="935891" />
	</node>
	<node id="9921247704" lat="63.3283416" lon="8.0402029" version="1" timestamp="2022-07-30T17:16:56Z" changeset="124276450" uid="3497659" user="NKA">
		<tag k="name" v="Gullbøen" />
		<tag k="place" v="farm" />
		<tag k="ssr:stedsnr" v="194759" />
	</node>
	<node id="9921247705" lat="63.4240417" lon="8.05235" version="1" timestamp="2022-07-30T17:16:56Z" changeset="124276450" uid="3497659" user="NKA">
		<tag k="name" v="Nysæter" />
		<tag k="place" v="farm" />
		<tag k="ssr:stedsnr" v="740697" />
	</node>
	<node id="9921247706" lat="63.42655" lon="8.0626444" version="1" timestamp="2022-07-30T17:16:56Z" changeset="124276450" uid="3497659" user="NKA">
		<tag k="name" v="Klingen" />
		<tag k="place" v="farm" />
		<tag k="ssr:stedsnr" v="740693" />
	</node>
	<node id="9921247707" lat="63.4628889" lon="8.1096584" version="1" timestamp="2022-07-30T17:16:56Z" changeset="124276450" uid="3497659" user="NKA">
		<tag k="name" v="Holmen" />
		<tag k="place" v="farm" />
		<tag k="ssr:stedsnr" v="476031" />
	</node>
	<node id="9921247708" lat="63.3627875" lon="7.7820769" version="1" timestamp="2022-07-30T17:16:56Z" changeset="124276450" uid="3497659" user="NKA">
		<tag k="name" v="Skillingan" />
		<tag k="place" v="farm" />
		<tag k="ssr:stedsnr" v="980172" />
	</node>
	<node id="9921247709" lat="63.4585834" lon="8.0152492" version="1" timestamp="2022-07-30T17:16:56Z" changeset="124276450" uid="3497659" user="NKA">
		<tag k="name" v="Varden" />
		<tag k="place" v="farm" />
		<tag k="ssr:stedsnr" v="862513" />
	</node>
	<node id="9921247710" lat="63.289" lon="8.0637057" version="1" timestamp="2022-07-30T17:16:56Z" changeset="124276450" uid="3497659" user="NKA">
		<tag k="name" v="Breivika" />
		<tag k="place" v="farm" />
		<tag k="ssr:stedsnr" v="862915" />
	</node>
	<node id="9921247711" lat="63.4273555" lon="8.1604027" version="1" timestamp="2022-07-30T17:16:56Z" changeset="124276450" uid="3497659" user="NKA">
		<tag k="loc_name" v="Langhaugen" />
		<tag k="name" v="Solheim" />
		<tag k="place" v="farm" />
		<tag k="ssr:stedsnr" v="437690" />
	</node>
	<node id="9921247712" lat="63.4198889" lon="8.0341362" version="1" timestamp="2022-07-30T17:16:56Z" changeset="124276450" uid="3497659" user="NKA">
		<tag k="name" v="Liset" />
		<tag k="place" v="farm" />
		<tag k="ssr:stedsnr" v="862674" />
	</node>
	<node id="9921247713" lat="63.3232387" lon="7.7848535" version="1" timestamp="2022-07-30T17:16:56Z" changeset="124276450" uid="3497659" user="NKA">
		<tag k="name" v="Spilvalen" />
		<tag k="place" v="farm" />
		<tag k="ssr:stedsnr" v="680808" />
	</node>
	<node id="9921247714" lat="63.3262194" lon="8.0476389" version="1" timestamp="2022-07-30T17:16:56Z" changeset="124276450" uid="3497659" user="NKA">
		<tag k="name" v="Valen" />
		<tag k="place" v="farm" />
		<tag k="ssr:stedsnr" v="923802" />
	</node>
	<node id="9921247715" lat="63.4669306" lon="8.0986928" version="1" timestamp="2022-07-30T17:16:56Z" changeset="124276450" uid="3497659" user="NKA">
		<tag k="name" v="Holberg" />
		<tag k="place" v="farm" />
		<tag k="ssr:stedsnr" v="597012" />
	</node>
	<node id="9921247716" lat="63.3630028" lon="7.8301584" version="1" timestamp="2022-07-30T17:16:56Z" changeset="124276450" uid="3497659" user="NKA">
		<tag k="name" v="Nystua" />
		<tag k="place" v="farm" />
		<tag k="ssr:stedsnr" v="558890" />
	</node>
	<node id="9921247717" lat="63.4290111" lon="8.0766917" version="1" timestamp="2022-07-30T17:16:56Z" changeset="124276450" uid="3497659" user="NKA">
		<tag k="name" v="Kvam" />
		<tag k="place" v="farm" />
		<tag k="ssr:stedsnr" v="922687" />
	</node>
	<node id="9921247718" lat="63.4073889" lon="8.0741222" version="1" timestamp="2022-07-30T17:16:56Z" changeset="124276450" uid="3497659" user="NKA">
		<tag k="name" v="Jutulheimen" />
		<tag k="place" v="farm" />
		<tag k="ssr:stedsnr" v="498699" />
	</node>
	<node id="9921247719" lat="63.4642444" lon="8.1027702" version="1" timestamp="2022-07-30T17:16:56Z" changeset="124276450" uid="3497659" user="NKA">
		<tag k="name" v="Valan" />
		<tag k="place" v="farm" />
		<tag k="ssr:stedsnr" v="922480" />
	</node>
	<node id="9921247720" lat="63.306325" lon="8.1701695" version="1" timestamp="2022-07-30T17:16:56Z" changeset="124276450" uid="3497659" user="NKA">
		<tag k="name" v="Dambukta" />
		<tag k="place" v="farm" />
		<tag k="ssr:stedsnr" v="801941" />
	</node>
	<node id="9921247721" lat="63.4685918" lon="8.1169918" version="1" timestamp="2022-07-30T17:16:56Z" changeset="124276450" uid="3497659" user="NKA">
		<tag k="name" v="Steinsøya" />
		<tag k="place" v="farm" />
		<tag k="ssr:stedsnr" v="980224" />
	</node>
	<node id="9921247722" lat="63.4111972" lon="8.1402668" version="1" timestamp="2022-07-30T17:16:56Z" changeset="124276450" uid="3497659" user="NKA">
		<tag k="name" v="Oppheim" />
		<tag k="place" v="farm" />
		<tag k="ssr:stedsnr" v="923679" />
	</node>
	<node id="9921247723" lat="63.4581758" lon="8.0462963" version="1" timestamp="2022-07-30T17:16:56Z" changeset="124276450" uid="3497659" user="NKA">
		<tag k="name" v="Øver Stamberghaugen" />
		<tag k="place" v="isolated_dwelling" />
		<tag k="ssr:stedsnr" v="476104" />
	</node>
	<node id="9921247724" lat="63.2951944" lon="8.1503055" version="1" timestamp="2022-07-30T17:16:56Z" changeset="124276450" uid="3497659" user="NKA">
		<tag k="name" v="Utheim" />
		<tag k="place" v="farm" />
		<tag k="ssr:stedsnr" v="801963" />
	</node>
	<node id="9921247725" lat="63.3934804" lon="8.1613529" version="1" timestamp="2022-07-30T17:16:56Z" changeset="124276450" uid="3497659" user="NKA">
		<tag k="name" v="Indre Roksvågen" />
		<tag k="place" v="hamlet" />
		<tag k="ssr:stedsnr" v="680692" />
	</node>
	<node id="9921247726" lat="63.3548139" lon="8.1389917" version="1" timestamp="2022-07-30T17:16:56Z" changeset="124276450" uid="3497659" user="NKA">
		<tag k="name" v="Elverhøy" />
		<tag k="place" v="farm" />
		<tag k="ssr:stedsnr" v="680877" />
	</node>
	<node id="9921247727" lat="63.4010222" lon="8.0651806" version="1" timestamp="2022-07-30T17:16:56Z" changeset="124276450" uid="3497659" user="NKA">
		<tag k="name" v="Pilsbakk" />
		<tag k="old_name" v="Pilsbekk;Pilsbekken" />
		<tag k="place" v="farm" />
		<tag k="ssr:stedsnr" v="923665" />
	</node>
	<node id="9921247728" lat="63.4124211" lon="8.0689981" version="1" timestamp="2022-07-30T17:16:56Z" changeset="124276450" uid="3497659" user="NKA">
		<tag k="name" v="Stakkhaugen" />
		<tag k="place" v="farm" />
		<tag k="ssr:stedsnr" v="475909" />
	</node>
	<node id="9921247729" lat="63.3650552" lon="8.1803225" version="1" timestamp="2022-07-30T17:16:56Z" changeset="124276450" uid="3497659" user="NKA">
		<tag k="name" v="Hellesfjorden" />
		<tag k="place" v="hamlet" />
		<tag k="ssr:stedsnr" v="559809" />
	</node>
	<node id="9921247730" lat="63.4307889" lon="8.0753722" version="1" timestamp="2022-07-30T17:16:56Z" changeset="124276450" uid="3497659" user="NKA">
		<tag k="name" v="Nordal" />
		<tag k="place" v="farm" />
		<tag k="ssr:stedsnr" v="376737" />
	</node>
	<node id="9921247731" lat="63.4298194" lon="8.0574472" version="1" timestamp="2022-07-30T17:16:56Z" changeset="124276450" uid="3497659" user="NKA">
		<tag k="name" v="Wullum" />
		<tag k="place" v="farm" />
		<tag k="ssr:stedsnr" v="498745" />
	</node>
	<node id="9921247732" lat="63.2759207" lon="7.9809985" version="1" timestamp="2022-07-30T17:16:56Z" changeset="124276450" uid="3497659" user="NKA">
		<tag k="name" v="Arnøya" />
		<tag k="place" v="farm" />
		<tag k="ssr:stedsnr" v="980131" />
	</node>
	<node id="9921247733" lat="63.3490194" lon="7.9852973" version="1" timestamp="2022-07-30T17:16:56Z" changeset="124276450" uid="3497659" user="NKA">
		<tag k="alt_name" v="Skjølberg" />
		<tag k="name" v="Djupvika" />
		<tag k="place" v="farm" />
		<tag k="ssr:stedsnr" v="741869" />
	</node>
	<node id="9921247734" lat="63.4298004" lon="8.1365138" version="1" timestamp="2022-07-30T17:16:56Z" changeset="124276450" uid="3497659" user="NKA">
		<tag k="alt_name" v="Roksvåg, ytre" />
		<tag k="name" v="Ytre Roksvåg" />
		<tag k="place" v="farm" />
		<tag k="ssr:stedsnr" v="497689" />
	</node>
	<node id="9921247735" lat="63.4238055" lon="8.0493112" version="1" timestamp="2022-07-30T17:16:56Z" changeset="124276450" uid="3497659" user="NKA">
		<tag k="name" v="Kryssmo" />
		<tag k="place" v="farm" />
		<tag k="ssr:stedsnr" v="497682" />
	</node>
	<node id="9921247736" lat="63.404719" lon="7.8104113" version="1" timestamp="2022-07-30T17:16:56Z" changeset="124276450" uid="3497659" user="NKA">
		<tag k="name" v="Skarpneset" />
		<tag k="place" v="farm" />
		<tag k="ssr:stedsnr" v="980179" />
	</node>
	<node id="9921247737" lat="63.3631007" lon="7.8633834" version="1" timestamp="2022-07-30T17:16:56Z" changeset="124276450" uid="3497659" user="NKA">
		<tag k="name" v="Klakkan" />
		<tag k="place" v="farm" />
		<tag k="ssr:stedsnr" v="980162" />
	</node>
	<node id="9921247738" lat="63.2882212" lon="7.7884482" version="1" timestamp="2022-07-30T17:16:56Z" changeset="124276450" uid="3497659" user="NKA">
		<tag k="name" v="Hallarøya" />
		<tag k="place" v="farm" />
		<tag k="ssr:stedsnr" v="980160" />
	</node>
	<node id="9921247739" lat="63.2493804" lon="7.8312266" version="1" timestamp="2022-07-30T17:16:56Z" changeset="124276450" uid="3497659" user="NKA">
		<tag k="name" v="Solværet" />
		<tag k="place" v="farm" />
		<tag k="ssr:stedsnr" v="980158" />
	</node>
	<node id="9921247740" lat="63.4053194" lon="8.1495528" version="1" timestamp="2022-07-30T17:16:56Z" changeset="124276450" uid="3497659" user="NKA">
		<tag k="name" v="Øverli" />
		<tag k="place" v="farm" />
		<tag k="ssr:stedsnr" v="437657" />
	</node>
	<node id="9921247741" lat="63.3967417" lon="8.1669194" version="1" timestamp="2022-07-30T17:16:56Z" changeset="124276450" uid="3497659" user="NKA">
		<tag k="name" v="Hopmarka" />
		<tag k="place" v="farm" />
		<tag k="ssr:stedsnr" v="437641" />
	</node>
	<node id="9921247742" lat="63.3755111" lon="8.2030725" version="1" timestamp="2022-07-30T17:16:56Z" changeset="124276450" uid="3497659" user="NKA">
		<tag k="name" v="Vikan industriområde" />
		<tag k="place" v="neighbourhood" />
		<tag k="ssr:stedsnr" v="976400" />
	</node>
	<node id="9921247743" lat="63.3391464" lon="8.056552" version="1" timestamp="2022-07-30T17:16:56Z" changeset="124276450" uid="3497659" user="NKA">
		<tag k="name" v="Fredly" />
		<tag k="place" v="farm" />
		<tag k="ssr:stedsnr" v="497749" />
	</node>
	<node id="9921247744" lat="63.2907861" lon="8.1285444" version="1" timestamp="2022-07-30T17:16:56Z" changeset="124276450" uid="3497659" user="NKA">
		<tag k="name" v="Nausthaugen" />
		<tag k="place" v="farm" />
		<tag k="ssr:stedsnr" v="740908" />
	</node>
	<node id="9921247745" lat="63.3419611" lon="7.9848472" version="1" timestamp="2022-07-30T17:16:56Z" changeset="124276450" uid="3497659" user="NKA">
		<tag k="name" v="Hallarvika" />
		<tag k="place" v="farm" />
		<tag k="ssr:stedsnr" v="316842" />
	</node>
	<node id="9921247746" lat="63.4535439" lon="7.8123619" version="1" timestamp="2022-07-30T17:16:56Z" changeset="124276450" uid="3497659" user="NKA">
		<tag k="name" v="Brattværet" />
		<tag k="place" v="hamlet" />
		<tag k="ssr:stedsnr" v="980194" />
	</node>
	<node id="9921247747" lat="63.4481419" lon="7.8893849" version="1" timestamp="2022-07-30T17:16:56Z" changeset="124276450" uid="3497659" user="NKA">
		<tag k="name" v="Monsøya" />
		<tag k="place" v="farm" />
		<tag k="ssr:stedsnr" v="980196" />
	</node>
	<node id="9921247748" lat="63.4628843" lon="8.1028355" version="1" timestamp="2022-07-30T17:16:56Z" changeset="124276450" uid="3497659" user="NKA">
		<tag k="name" v="Steinsøysundet" />
		<tag k="place" v="hamlet" />
		<tag k="ssr:stedsnr" v="619561" />
	</node>
	<node id="9921247749" lat="63.4563278" lon="8.118975" version="1" timestamp="2022-07-30T17:16:56Z" changeset="124276450" uid="3497659" user="NKA">
		<tag k="name" v="Nygård" />
		<tag k="place" v="farm" />
		<tag k="ssr:stedsnr" v="619784" />
	</node>
	<node id="9921247750" lat="63.3560776" lon="7.7640069" version="1" timestamp="2022-07-30T17:16:56Z" changeset="124276450" uid="3497659" user="NKA">
		<tag k="name" v="Odden" />
		<tag k="place" v="locality" />
		<tag k="ssr:stedsnr" v="980187" />
	</node>
	<node id="9921247751" lat="63.4302639" lon="8.0327056" version="1" timestamp="2022-07-30T17:16:56Z" changeset="124276450" uid="3497659" user="NKA">
		<tag k="name" v="Vestli" />
		<tag k="place" v="farm" />
		<tag k="ssr:stedsnr" v="619745" />
	</node>
	<node id="9921247752" lat="63.4226422" lon="7.8337509" version="1" timestamp="2022-07-30T17:16:56Z" changeset="124276450" uid="3497659" user="NKA">
		<tag k="name" v="Båtneset" />
		<tag k="place" v="farm" />
		<tag k="ssr:stedsnr" v="980184" />
	</node>
	<node id="9921247753" lat="63.4397801" lon="7.9112361" version="1" timestamp="2022-07-30T17:16:56Z" changeset="124276450" uid="3497659" user="NKA">
		<tag k="name" v="Litlneset" />
		<tag k="place" v="farm" />
		<tag k="ssr:stedsnr" v="980198" />
	</node>
	<node id="9921247754" lat="63.2615876" lon="7.8574813" version="1" timestamp="2022-07-30T17:16:56Z" changeset="124276450" uid="3497659" user="NKA">
		<tag k="name" v="Rotværet" />
		<tag k="place" v="farm" />
		<tag k="ssr:stedsnr" v="980157" />
	</node>
	<node id="9921247755" lat="63.3241787" lon="7.8101296" version="1" timestamp="2022-07-30T17:16:56Z" changeset="124276450" uid="3497659" user="NKA">
		<tag k="name" v="Tranøya" />
		<tag k="place" v="farm" />
		<tag k="ssr:stedsnr" v="980161" />
	</node>
	<node id="9921247756" lat="63.3461167" lon="8.0067143" version="1" timestamp="2022-07-30T17:16:56Z" changeset="124276450" uid="3497659" user="NKA">
		<tag k="name" v="Skjølberg" />
		<tag k="place" v="hamlet" />
		<tag k="ssr:stedsnr" v="970930" />
	</node>
	<node id="9921247757" lat="63.2827405" lon="7.8425645" version="1" timestamp="2022-07-30T17:16:56Z" changeset="124276450" uid="3497659" user="NKA">
		<tag k="name" v="Sandværet" />
		<tag k="place" v="farm" />
		<tag k="ssr:stedsnr" v="980156" />
	</node>
	<node id="9921247758" lat="63.3321928" lon="8.0749565" version="1" timestamp="2022-07-30T17:16:56Z" changeset="124276450" uid="3497659" user="NKA">
		<tag k="name" v="Straumen" />
		<tag k="place" v="village" />
		<tag k="ssr:stedsnr" v="740752" />
	</node>
	<node id="9921247759" lat="63.4139028" lon="8.1394445" version="1" timestamp="2022-07-30T17:16:56Z" changeset="124276450" uid="3497659" user="NKA">
		<tag k="name" v="Rokstad" />
		<tag k="place" v="farm" />
		<tag k="ssr:stedsnr" v="740670" />
	</node>
	<node id="9921247760" lat="63.4313667" lon="8.0555751" version="1" timestamp="2022-07-30T17:16:56Z" changeset="124276450" uid="3497659" user="NKA">
		<tag k="name" v="Dølstad" />
		<tag k="place" v="farm" />
		<tag k="ssr:stedsnr" v="680768" />
	</node>
	<node id="9921247761" lat="63.5185039" lon="7.9536312" version="1" timestamp="2022-07-30T17:16:56Z" changeset="124276450" uid="3497659" user="NKA">
		<tag k="name" v="Skolgården" />
		<tag k="place" v="locality" />
		<tag k="ssr:stedsnr" v="935924" />
	</node>
	<node id="9921247762" lat="63.4260469" lon="8.0554902" version="1" timestamp="2022-07-30T17:16:56Z" changeset="124276450" uid="3497659" user="NKA">
		<tag k="alt_name" v="Frostaheia" />
		<tag k="name" v="Frostadheia" />
		<tag k="place" v="hamlet" />
		<tag k="ssr:stedsnr" v="618668" />
	</node>
	<node id="9921247763" lat="63.2957861" lon="8.1639111" version="1" timestamp="2022-07-30T17:16:56Z" changeset="124276450" uid="3497659" user="NKA">
		<tag k="name" v="Norddal" />
		<tag k="place" v="farm" />
		<tag k="ssr:stedsnr" v="740919" />
	</node>
	<node id="9921247764" lat="63.3272652" lon="7.9950072" version="1" timestamp="2022-07-30T17:16:56Z" changeset="124276450" uid="3497659" user="NKA">
		<tag k="loc_name" v="Rangneset" />
		<tag k="name" v="Rangnes" />
		<tag k="place" v="hamlet" />
		<tag k="ssr:stedsnr" v="814895" />
	</node>
	<node id="9921247765" lat="63.3392521" lon="8.116673" version="1" timestamp="2022-07-30T17:16:56Z" changeset="124276450" uid="3497659" user="NKA">
		<tag k="alt_name" v="Lerviken" />
		<tag k="name" v="Sygarden Lerviken" />
		<tag k="place" v="farm" />
		<tag k="ssr:stedsnr" v="983405" />
	</node>
	<node id="9921247766" lat="63.518425" lon="7.9538612" version="1" timestamp="2022-07-30T17:16:56Z" changeset="124276450" uid="3497659" user="NKA">
		<tag k="name" v="Bellabakkan" />
		<tag k="place" v="neighbourhood" />
		<tag k="ssr:stedsnr" v="207889" />
	</node>
	<node id="9921247767" lat="63.3293083" lon="8.0608195" version="1" timestamp="2022-07-30T17:16:56Z" changeset="124276450" uid="3497659" user="NKA">
		<tag k="name" v="Risdalen" />
		<tag k="place" v="farm" />
		<tag k="ssr:stedsnr" v="801754" />
	</node>
	<node id="9921247768" lat="63.3689416" lon="8.1437306" version="1" timestamp="2022-07-30T17:16:56Z" changeset="124276450" uid="3497659" user="NKA">
		<tag k="name" v="Vollstad" />
		<tag k="place" v="farm" />
		<tag k="ssr:stedsnr" v="498888" />
	</node>
	<node id="9921247769" lat="63.5197328" lon="7.9611804" version="1" timestamp="2022-07-30T17:16:56Z" changeset="124276450" uid="3497659" user="NKA">
		<tag k="name" v="Nordsettstua" />
		<tag k="place" v="locality" />
		<tag k="ssr:stedsnr" v="268882" />
	</node>
	<node id="9921247770" lat="63.3472778" lon="8.1501279" version="1" timestamp="2022-07-30T17:16:56Z" changeset="124276450" uid="3497659" user="NKA">
		<tag k="name" v="Steingarden" />
		<tag k="place" v="locality" />
		<tag k="ssr:stedsnr" v="316849" />
	</node>
	<node id="9921247771" lat="63.518798" lon="7.9558603" version="1" timestamp="2022-07-30T17:16:56Z" changeset="124276450" uid="3497659" user="NKA">
		<tag k="name" v="Rokstadbrygga" />
		<tag k="place" v="locality" />
		<tag k="ssr:stedsnr" v="207894" />
	</node>
	<node id="9921247772" lat="63.5135935" lon="7.9551024" version="1" timestamp="2022-07-30T17:16:56Z" changeset="124276450" uid="3497659" user="NKA">
		<tag k="name" v="Ytter Innveien" />
		<tag k="place" v="quarter" />
		<tag k="ssr:stedsnr" v="657622" />
	</node>
	<node id="9921247773" lat="63.5194491" lon="7.9573497" version="1" timestamp="2022-07-30T17:16:56Z" changeset="124276450" uid="3497659" user="NKA">
		<tag k="name" v="Flidbrygga" />
		<tag k="place" v="locality" />
		<tag k="ssr:stedsnr" v="450915" />
	</node>
	<node id="9921247774" lat="63.5186295" lon="7.9535409" version="1" timestamp="2022-07-30T17:16:56Z" changeset="124276450" uid="3497659" user="NKA">
		<tag k="name" v="Hanshusa" />
		<tag k="place" v="locality" />
		<tag k="ssr:stedsnr" v="450923" />
	</node>
	<node id="9921247775" lat="63.3397722" lon="8.1298945" version="1" timestamp="2022-07-30T17:16:56Z" changeset="124276450" uid="3497659" user="NKA">
		<tag k="name" v="Melkvika" />
		<tag k="place" v="farm" />
		<tag k="ssr:stedsnr" v="74762" />
	</node>
	<node id="9921247776" lat="63.3266389" lon="8.0498834" version="1" timestamp="2022-07-30T17:16:56Z" changeset="124276450" uid="3497659" user="NKA">
		<tag k="name" v="Risvika" />
		<tag k="place" v="farm" />
		<tag k="ssr:stedsnr" v="923803" />
	</node>
	<node id="9921247777" lat="63.3791472" lon="8.1914527" version="1" timestamp="2022-07-30T17:16:56Z" changeset="124276450" uid="3497659" user="NKA">
		<tag k="name" v="Teinosen" />
		<tag k="place" v="farm" />
		<tag k="ssr:stedsnr" v="13845" />
	</node>
</osm>
