<?xml version="1.0" encoding="UTF-8"?>
<osm generator="osmapis" version="0.6">
	<node id="-803119" lat="63.1827388858" lon="8.73577221919">
		<tag k="old_name" v="Engdal" />
		<tag k="place" v="hamlet" />
		<tag k="ssr:date" v="2019-12-27" />
		<tag k="ssr:gruppe" v="gardsbebyggelse" />
		<tag k="ssr:hovedgruppe" v="bebyggelse" />
		<tag k="ssr:stedsnr" v="464531" />
		<tag k="ssr:type" v="navnegard" />
	</node>
	<node id="-806094" lat="63.1442277822" lon="8.79596110184">
		<tag k="loc_name" v="Dyrstolen" />
		<tag k="place" v="locality" />
		<tag k="ssr:date" v="2019-12-27" />
		<tag k="ssr:gruppe" v="terrengdetaljer" />
		<tag k="ssr:hovedgruppe" v="terreng" />
		<tag k="ssr:stedsnr" v="353227" />
		<tag k="ssr:type" v="hylle" />
	</node>
	<node id="-803317" lat="63.1285277802" lon="8.73697777341">
		<tag k="natural" v="valley" />
		<tag k="old_name" v="Skottjørndalen;Skottjønndalen" />
		<tag k="place" v="locality" />
		<tag k="ssr:date" v="2019-12-27" />
		<tag k="ssr:gruppe" v="senkninger" />
		<tag k="ssr:hovedgruppe" v="terreng" />
		<tag k="ssr:stedsnr" v="497708" />
		<tag k="ssr:type" v="dal" />
	</node>
	<node id="-806902" lat="63.3762027811" lon="9.15064999286">
		<tag k="amenity" v="ferry_terminal" />
		<tag k="old_name" v="Storoddan ferjeleie" />
		<tag k="ssr:date" v="2019-12-27" />
		<tag k="ssr:gruppe" v="sjøfart" />
		<tag k="ssr:hovedgruppe" v="infrastruktur" />
		<tag k="ssr:stedsnr" v="635695" />
		<tag k="ssr:type" v="ferjekai" />
	</node>
</osm>
