<?xml version="1.0" encoding="UTF-8"?>
<osm version="0.6" generator="osmapis">
	<node lat="63.32290038860756" lon="9.245416739211514" id="-90442">
		<tag k="name" v="Berdalsveien" />
		<tag k="ssr:date" v="2019-12-27" />
		<tag k="ssr:gruppe" v="veg" />
		<tag k="ssr:hovedgruppe" v="infrastruktur" />
		<tag k="ssr:stedsnr" v="242986" />
		<tag k="ssr:type" v="adressenavn" />
	</node>
	<node lat="63.14100751449977" lon="8.432182990284987" id="-90563">
		<tag k="name" v="Kråknes laksevorpe" />
		<tag k="ssr:date" v="2019-12-27" />
		<tag k="ssr:gruppe" v="farvann" />
		<tag k="ssr:hovedgruppe" v="sjø" />
		<tag k="ssr:stedsnr" v="109526" />
		<tag k="ssr:type" v="fiskeplassISjø" />
	</node>
	<node lat="63.345640633235135" lon="9.259678808769182" id="-90572">
		<tag k="name" v="Forra" />
		<tag k="ssr:date" v="2019-12-27" />
		<tag k="ssr:gruppe" v="veg" />
		<tag k="ssr:hovedgruppe" v="infrastruktur" />
		<tag k="ssr:stedsnr" v="120983" />
		<tag k="ssr:type" v="adressenavn" />
	</node>
	<node lat="63.330964067329596" lon="9.305043146819106" id="-90745">
		<tag k="name" v="Vennadalsveien" />
		<tag k="ssr:date" v="2019-12-27" />
		<tag k="ssr:gruppe" v="veg" />
		<tag k="ssr:hovedgruppe" v="infrastruktur" />
		<tag k="ssr:stedsnr" v="181013" />
		<tag k="ssr:type" v="adressenavn" />
	</node>
	<node lat="63.34763316993047" lon="9.26921513507463" id="-90746">
		<tag k="name" v="Hyllveien" />
		<tag k="ssr:date" v="2019-12-27" />
		<tag k="ssr:gruppe" v="veg" />
		<tag k="ssr:hovedgruppe" v="infrastruktur" />
		<tag k="ssr:stedsnr" v="181014" />
		<tag k="ssr:type" v="adressenavn" />
	</node>
	<node lat="63.360424092443786" lon="9.184871359476528" id="-90984">
		<tag k="name" v="Næløya" />
		<tag k="old_name" v="Nerøy;Nærøy" />
		<tag k="ssr:date" v="2020-09-10" />
		<tag k="ssr:gruppe" v="navigasjon" />
		<tag k="ssr:hovedgruppe" v="infrastruktur" />
		<tag k="ssr:stedsnr" v="255718" />
		<tag k="ssr:type" v="fyrlykt" />
	</node>
	<node lat="63.35703522025809" lon="9.31062106027408" id="-91111">
		<tag k="name" v="Selnes" />
		<tag k="ssr:date" v="2019-12-27" />
		<tag k="ssr:gruppe" v="veg" />
		<tag k="ssr:hovedgruppe" v="infrastruktur" />
		<tag k="ssr:stedsnr" v="302981" />
		<tag k="ssr:type" v="adressenavn" />
	</node>
	<node lat="63.15500656570087" lon="8.523207693119067" id="-92156">
		<tag k="name" v="Risholmen" />
		<tag k="ssr:date" v="2020-09-10" />
		<tag k="ssr:gruppe" v="navigasjon" />
		<tag k="ssr:hovedgruppe" v="infrastruktur" />
		<tag k="ssr:stedsnr" v="687188" />
		<tag k="ssr:type" v="fyrlykt" />
	</node>
	<node lat="63.20140833399715" lon="8.92501388591007" id="-92273">
		<tag k="name" v="Haukvikhølen" />
		<tag k="ssr:date" v="2019-12-27" />
		<tag k="ssr:gruppe" v="sjøbunn" />
		<tag k="ssr:hovedgruppe" v="sjø" />
		<tag k="ssr:stedsnr" v="716707" />
		<tag k="ssr:type" v="søkkISjø" />
	</node>
	<node lat="63.14463888650407" lon="8.497136116457755" id="-92521">
		<tag k="name" v="Helgeneset" />
		<tag k="ssr:date" v="2019-12-27" />
		<tag k="ssr:gruppe" v="navigasjon" />
		<tag k="ssr:hovedgruppe" v="infrastruktur" />
		<tag k="ssr:stedsnr" v="838814" />
		<tag k="ssr:type" v="fyrlykt" />
	</node>
	<node lat="63.34939029539845" lon="9.272162473159701" id="-92523">
		<tag k="name" v="Einanveien" />
		<tag k="ssr:date" v="2019-12-27" />
		<tag k="ssr:gruppe" v="veg" />
		<tag k="ssr:hovedgruppe" v="infrastruktur" />
		<tag k="ssr:stedsnr" v="849985" />
		<tag k="ssr:type" v="adressenavn" />
	</node>
	<node lat="63.34978291957728" lon="9.272181710322231" id="-92758">
		<tag k="name" v="Hyllberget" />
		<tag k="ssr:date" v="2019-12-27" />
		<tag k="ssr:gruppe" v="veg" />
		<tag k="ssr:hovedgruppe" v="infrastruktur" />
		<tag k="ssr:stedsnr" v="969968" />
		<tag k="ssr:type" v="adressenavn" />
	</node>
	<node lat="63.19965555229062" lon="8.862999994380562" id="-93187">
		<tag k="name" v="Hofsethølen" />
		<tag k="ssr:date" v="2019-12-27" />
		<tag k="ssr:gruppe" v="sjøbunn" />
		<tag k="ssr:hovedgruppe" v="sjø" />
		<tag k="ssr:stedsnr" v="110651" />
		<tag k="ssr:type" v="søkkISjø" />
	</node>
	<node lat="63.34484371716279" lon="9.262142423268433" id="-93190">
		<tag k="name" v="Storaunveien" />
		<tag k="ssr:date" v="2019-12-27" />
		<tag k="ssr:gruppe" v="veg" />
		<tag k="ssr:hovedgruppe" v="infrastruktur" />
		<tag k="ssr:stedsnr" v="120007" />
		<tag k="ssr:type" v="adressenavn" />
	</node>
	<node lat="63.21428333737019" lon="9.043277771466443" id="-93278">
		<tag k="name" v="Stølvegen" />
		<tag k="ssr:date" v="2019-12-27" />
		<tag k="ssr:gruppe" v="veg" />
		<tag k="ssr:hovedgruppe" v="infrastruktur" />
		<tag k="ssr:stedsnr" v="150290" />
		<tag k="ssr:type" v="vegstrekning" />
	</node>
	<node lat="63.44898055886882" lon="8.995688894990938" id="-93381">
		<tag k="alt_name" v="Magerøy" />
		<tag k="loc_name" v="Ringberget" />
		<tag k="name" v="Magerøya" />
		<tag k="ssr:date" v="2019-12-27" />
		<tag k="ssr:gruppe" v="navigasjon" />
		<tag k="ssr:hovedgruppe" v="infrastruktur" />
		<tag k="ssr:stedsnr" v="166438" />
		<tag k="ssr:type" v="fyrlykt" />
	</node>
	<node lat="63.134227229951016" lon="8.46074620088222" id="-93408">
		<tag k="name" v="Kane laksevorpe" />
		<tag k="ssr:date" v="2019-12-27" />
		<tag k="ssr:gruppe" v="farvann" />
		<tag k="ssr:hovedgruppe" v="sjø" />
		<tag k="ssr:stedsnr" v="169559" />
		<tag k="ssr:type" v="fiskeplassISjø" />
	</node>
	<node lat="63.02873268046195" lon="8.21967239741468" id="-93508">
		<tag k="name" v="Saksnes" />
		<tag k="ssr:date" v="2020-09-10" />
		<tag k="ssr:gruppe" v="navigasjon" />
		<tag k="ssr:hovedgruppe" v="infrastruktur" />
		<tag k="ssr:stedsnr" v="202186" />
		<tag k="ssr:type" v="fyrlykt" />
	</node>
	<node lat="63.46777499897581" lon="9.071127784363382" id="-93610">
		<tag k="alt_name" v="Ballen" />
		<tag k="name" v="Balen" />
		<tag k="ssr:date" v="2019-12-27" />
		<tag k="ssr:gruppe" v="navigasjon" />
		<tag k="ssr:hovedgruppe" v="infrastruktur" />
		<tag k="ssr:stedsnr" v="227373" />
		<tag k="ssr:type" v="lanterne" />
	</node>
	<node lat="63.350178359412496" lon="9.282483520462266" id="-93888">
		<tag k="name" v="Vennaveien" />
		<tag k="ssr:date" v="2019-12-27" />
		<tag k="ssr:gruppe" v="veg" />
		<tag k="ssr:hovedgruppe" v="infrastruktur" />
		<tag k="ssr:stedsnr" v="363015" />
		<tag k="ssr:type" v="adressenavn" />
	</node>
	<node lat="62.91875000334113" lon="7.925902769418111" id="-93968">
		<tag k="name" v="Nordmøre" />
		<tag k="ssr:date" v="2019-12-27" />
		<tag k="ssr:gruppe" v="terrengområder" />
		<tag k="ssr:hovedgruppe" v="terreng" />
		<tag k="ssr:stedsnr" v="389819" />
		<tag k="ssr:type" v="landskapsområde" />
	</node>
	<node lat="63.14774669631643" lon="8.254900576627643" id="-93973">
		<tag k="name" v="Haukomkin" />
		<tag k="ssr:date" v="2020-09-10" />
		<tag k="ssr:gruppe" v="navigasjon" />
		<tag k="ssr:hovedgruppe" v="infrastruktur" />
		<tag k="ssr:stedsnr" v="390964" />
		<tag k="ssr:type" v="fyrlykt" />
	</node>
	<node lat="63.366100965194676" lon="9.382780749725372" id="-94609">
		<tag k="name" v="Sandvikveien" />
		<tag k="ssr:date" v="2019-12-27" />
		<tag k="ssr:gruppe" v="veg" />
		<tag k="ssr:hovedgruppe" v="infrastruktur" />
		<tag k="ssr:stedsnr" v="605052" />
		<tag k="ssr:type" v="adressenavn" />
	</node>
	<node lat="63.196305410084406" lon="8.839038260540251" id="-94869">
		<tag k="alt_name" v="Hovdehammeren" />
		<tag k="name" v="Hovdhammaren" />
		<tag k="ssr:date" v="2020-10-19" />
		<tag k="ssr:gruppe" v="navigasjon" />
		<tag k="ssr:hovedgruppe" v="infrastruktur" />
		<tag k="ssr:stedsnr" v="716645" />
		<tag k="ssr:type" v="lanterne" />
	</node>
	<node lat="63.35696520849981" lon="9.286127783892791" id="-94872">
		<tag k="name" v="Vollanesveien" />
		<tag k="ssr:date" v="2019-12-27" />
		<tag k="ssr:gruppe" v="veg" />
		<tag k="ssr:hovedgruppe" v="infrastruktur" />
		<tag k="ssr:stedsnr" v="727054" />
		<tag k="ssr:type" v="adressenavn" />
	</node>
	<node lat="63.417011113246765" lon="9.137855552087574" id="-95042">
		<tag k="name" v="Flisa" />
		<tag k="ssr:date" v="2019-12-27" />
		<tag k="ssr:gruppe" v="navigasjon" />
		<tag k="ssr:hovedgruppe" v="infrastruktur" />
		<tag k="ssr:stedsnr" v="773556" />
		<tag k="ssr:type" v="fyrlykt" />
	</node>
	<node lat="63.10808589412655" lon="8.16768266670734" id="-95825">
		<tag k="name" v="Storvika" />
		<tag k="ssr:date" v="2019-12-27" />
		<tag k="ssr:gruppe" v="veg" />
		<tag k="ssr:hovedgruppe" v="infrastruktur" />
		<tag k="ssr:stedsnr" v="1073108" />
		<tag k="ssr:type" v="adressenavn" />
	</node>
	<node lat="63.33108646976206" lon="9.233966733818372" id="-95827">
		<tag k="name" v="Vennastrandveien" />
		<tag k="ssr:date" v="2019-12-27" />
		<tag k="ssr:gruppe" v="veg" />
		<tag k="ssr:hovedgruppe" v="infrastruktur" />
		<tag k="ssr:stedsnr" v="1074457" />
		<tag k="ssr:type" v="adressenavn" />
	</node>
</osm>
