<?xml version="1.0" encoding="UTF-8"?>
<osm version="0.6" generator="osmapis">
	<node lat="59.88796944542535" lon="9.579313890295209" id="-17735">
		<tag k="fixme" v="consider natural=peak for the most distinct mountains in the district" />
		<tag k="name" v="Pålseterhøgda" />
		<tag k="natural" v="hill" />
		<tag k="place" v="locality" />
		<tag k="ssr:stedsnr" v="3004" />
	</node>
	<node lat="59.74096666541746" lon="9.4789111157516" id="-17739">
		<tag k="fixme" v="consider natural=peak for the most distinct mountains in the district" />
		<tag k="name" v="Lindbuseteråsen" />
		<tag k="natural" v="hill" />
		<tag k="place" v="locality" />
		<tag k="ssr:stedsnr" v="3393" />
	</node>
	<node lat="59.737633329242655" lon="9.496350007337549" id="-17740">
		<tag k="fixme" v="consider natural=peak for the most distinct mountains in the district" />
		<tag k="name" v="Svartåsen" />
		<tag k="natural" v="hill" />
		<tag k="place" v="locality" />
		<tag k="ssr:stedsnr" v="3394" />
	</node>
	<node lat="59.84045277792725" lon="9.255305559432248" id="-17742">
		<tag k="fixme" v="consider natural=peak for the most distinct mountains in the district" />
		<tag k="name" v="Seteråsen" />
		<tag k="natural" v="hill" />
		<tag k="place" v="locality" />
		<tag k="ssr:stedsnr" v="4065" />
	</node>
	<node lat="59.84476110806116" lon="9.221466667912358" id="-17743">
		<tag k="fixme" v="consider natural=peak for the most distinct mountains in the district" />
		<tag k="name" v="Flesebekknatten" />
		<tag k="natural" v="hill" />
		<tag k="place" v="locality" />
		<tag k="ssr:stedsnr" v="4066" />
	</node>
	<node lat="59.841075004009426" lon="9.352108331779768" id="-17746">
		<tag k="name" v="Lauvhaugen" />
		<tag k="natural" v="hill" />
		<tag k="place" v="locality" />
		<tag k="ssr:stedsnr" v="4083" />
	</node>
	<node lat="59.75972222097343" lon="9.427936110030894" id="-17758">
		<tag k="fixme" v="consider natural=peak for the most distinct mountains in the district" />
		<tag k="name" v="Rendlenatten" />
		<tag k="natural" v="hill" />
		<tag k="place" v="locality" />
		<tag k="ssr:stedsnr" v="233793" />
	</node>
	<node lat="59.88268333421849" lon="9.456241669778969" id="-17766">
		<tag k="fixme" v="consider natural=peak for the most distinct mountains in the district" />
		<tag k="name" v="Sedalsåsen" />
		<tag k="natural" v="hill" />
		<tag k="place" v="locality" />
		<tag k="ssr:stedsnr" v="40179" />
	</node>
	<node lat="59.863841668429124" lon="9.654661104883493" id="-17779">
		<tag k="fixme" v="consider natural=peak for the most distinct mountains in the district" />
		<tag k="name" v="Fønnsetåsen" />
		<tag k="natural" v="hill" />
		<tag k="place" v="locality" />
		<tag k="ssr:stedsnr" v="239551" />
	</node>
	<node lat="59.87743333698111" lon="9.640958338511401" id="-17786">
		<tag k="name" v="Bakketjerndalen" />
		<tag k="natural" v="valley" />
		<tag k="place" v="locality" />
		<tag k="ssr:stedsnr" v="57536" />
	</node>
	<node lat="59.741127774719196" lon="9.539008336165347" id="-17797">
		<tag k="fixme" v="consider natural=peak for the most distinct mountains in the district" />
		<tag k="name" v="Brennåsen" />
		<tag k="natural" v="hill" />
		<tag k="place" v="locality" />
		<tag k="ssr:stedsnr" v="64115" />
	</node>
	<node lat="59.87655555892408" lon="9.552305560097444" id="-17800">
		<tag k="fixme" v="consider natural=peak for the most distinct mountains in the district" />
		<tag k="name" v="Risåsen" />
		<tag k="natural" v="hill" />
		<tag k="place" v="locality" />
		<tag k="ssr:stedsnr" v="64017" />
	</node>
	<node lat="59.78406944497968" lon="9.506425001914529" id="-17807">
		<tag k="name" v="Gjelhovden" />
		<tag k="natural" v="hill" />
		<tag k="place" v="locality" />
		<tag k="ssr:stedsnr" v="64910" />
	</node>
	<node lat="59.78562221791206" lon="9.458905555212997" id="-17810">
		<tag k="name" v="Ådalen" />
		<tag k="natural" v="valley" />
		<tag k="place" v="locality" />
		<tag k="ssr:stedsnr" v="64923" />
	</node>
	<node lat="59.86368333561271" lon="9.465475002509251" id="-17822">
		<tag k="fixme" v="consider natural=peak for the most distinct mountains in the district" />
		<tag k="name" v="Kolkinnåsen" />
		<tag k="natural" v="hill" />
		<tag k="place" v="locality" />
		<tag k="ssr:stedsnr" v="246050" />
	</node>
	<node lat="59.96980555798129" lon="9.447263891169051" id="-17825">
		<tag k="fixme" v="consider natural=peak for the most distinct mountains in the district" />
		<tag k="name" v="Teksleåsen" />
		<tag k="natural" v="hill" />
		<tag k="place" v="locality" />
		<tag k="ssr:stedsnr" v="246299" />
	</node>
	<node lat="59.83719166728815" lon="9.460716665167753" id="-17827">
		<tag k="fixme" v="multiple name tags, choose one and add the other to alt_name" />
		<tag k="name" v="Kollen;Gjellerudkollen" />
		<tag k="natural" v="hill" />
		<tag k="place" v="locality" />
		<tag k="ssr:stedsnr" v="246088" />
	</node>
	<node lat="59.834874997727816" lon="9.477155554831372" id="-17828">
		<tag k="fixme" v="consider natural=peak for the most distinct mountains in the district" />
		<tag k="name" v="Hagaåsen" />
		<tag k="natural" v="hill" />
		<tag k="place" v="locality" />
		<tag k="ssr:stedsnr" v="246089" />
	</node>
	<node lat="59.84853888611558" lon="9.190244443697301" id="-17850">
		<tag k="fixme" v="consider natural=peak for the most distinct mountains in the district" />
		<tag k="name" v="Blefjell" />
		<tag k="natural" v="hill" />
		<tag k="place" v="locality" />
		<tag k="ssr:stedsnr" v="247639" />
	</node>
	<node lat="59.8442694484784" lon="9.624563884818395" id="-17852">
		<tag k="name" v="Fløtåkerseterdalen" />
		<tag k="natural" v="valley" />
		<tag k="place" v="locality" />
		<tag k="ssr:stedsnr" v="247740" />
	</node>
	<node lat="59.92355278142108" lon="9.444816664007073" id="-17858">
		<tag k="name" v="Rugdeberget" />
		<tag k="natural" v="hill" />
		<tag k="place" v="locality" />
		<tag k="ssr:stedsnr" v="100871" />
	</node>
	<node lat="59.87069444451374" lon="9.459505556448997" id="-17859">
		<tag k="name" v="Kjeldebakken" />
		<tag k="natural" v="slope" />
		<tag k="place" v="locality" />
		<tag k="ssr:stedsnr" v="101304" />
	</node>
	<node lat="59.90028888567227" lon="9.374438888110136" id="-17860">
		<tag k="fixme" v="consider natural=peak for the most distinct mountains in the district" />
		<tag k="name" v="Bakkanhaugan" />
		<tag k="natural" v="hill" />
		<tag k="place" v="locality" />
		<tag k="ssr:stedsnr" v="101208" />
	</node>
	<node lat="59.82078055669467" lon="9.400061103220688" id="-17870">
		<tag k="name" v="Tverrgarden" />
		<tag k="natural" v="slope" />
		<tag k="place" v="locality" />
		<tag k="ssr:stedsnr" v="117970" />
	</node>
	<node lat="59.83799444096633" lon="9.41504166011224" id="-17876">
		<tag k="name" v="Våtlibakken" />
		<tag k="natural" v="slope" />
		<tag k="place" v="locality" />
		<tag k="ssr:stedsnr" v="119507" />
	</node>
	<node lat="59.85608055113244" lon="9.541791661250233" id="-17883">
		<tag k="fixme" v="consider natural=peak for the most distinct mountains in the district" />
		<tag k="name" v="Kronsetåsen" />
		<tag k="natural" v="hill" />
		<tag k="place" v="locality" />
		<tag k="ssr:stedsnr" v="125073" />
	</node>
	<node lat="59.81590833192988" lon="9.251602782005762" id="-17886">
		<tag k="fixme" v="consider natural=peak for the most distinct mountains in the district" />
		<tag k="name" v="Svaraberg" />
		<tag k="natural" v="hill" />
		<tag k="place" v="locality" />
		<tag k="ssr:stedsnr" v="125114" />
	</node>
	<node lat="59.817047226481726" lon="9.36531943582364" id="-17894">
		<tag k="name" v="Nutdalen" />
		<tag k="natural" v="valley" />
		<tag k="place" v="locality" />
		<tag k="ssr:stedsnr" v="126928" />
	</node>
	<node lat="59.908030552053226" lon="9.565741671715765" id="-17901">
		<tag k="name" v="Kastberga" />
		<tag k="place" v="locality" />
		<tag k="ssr:stedsnr" v="176326" />
	</node>
	<node lat="59.8348083350574" lon="9.434161103969755" id="-17905">
		<tag k="name" v="Kista" />
		<tag k="place" v="locality" />
		<tag k="ssr:stedsnr" v="180466" />
	</node>
	<node lat="59.85919999727711" lon="9.288386119724716" id="-17915">
		<tag k="name" v="Bjørvasslia" />
		<tag k="natural" v="slope" />
		<tag k="place" v="locality" />
		<tag k="ssr:stedsnr" v="186036" />
	</node>
	<node lat="59.919802776624245" lon="9.47822778584252" id="-17922">
		<tag k="fixme" v="consider natural=peak for the most distinct mountains in the district" />
		<tag k="name" v="Strandåsen" />
		<tag k="natural" v="hill" />
		<tag k="place" v="locality" />
		<tag k="ssr:stedsnr" v="186186" />
	</node>
	<node lat="59.77781944254716" lon="9.70287777828549" id="-17932">
		<tag k="fixme" v="consider natural=peak for the most distinct mountains in the district" />
		<tag k="name" v="Ullandseteråsen" />
		<tag k="natural" v="hill" />
		<tag k="place" v="locality" />
		<tag k="ssr:stedsnr" v="269832" />
	</node>
	<node lat="59.90556944825927" lon="9.503627775600211" id="-17937">
		<tag k="name" v="Langehaug" />
		<tag k="natural" v="hill" />
		<tag k="place" v="locality" />
		<tag k="ssr:stedsnr" v="222078" />
	</node>
	<node lat="59.93064444070251" lon="9.59550277547296" id="-17949">
		<tag k="name" v="Snauåsen" />
		<tag k="natural" v="hill" />
		<tag k="place" v="locality" />
		<tag k="ssr:stedsnr" v="237312" />
	</node>
	<node lat="59.82556388727526" lon="9.49858611011204" id="-17954">
		<tag k="name" v="Åslandsåsen" />
		<tag k="natural" v="hill" />
		<tag k="place" v="locality" />
		<tag k="ssr:stedsnr" v="239993" />
	</node>
	<node lat="59.932824998268025" lon="9.531700008102229" id="-17965">
		<tag k="fixme" v="consider natural=peak for the most distinct mountains in the district" />
		<tag k="name" v="Lisliåsen" />
		<tag k="natural" v="hill" />
		<tag k="place" v="locality" />
		<tag k="ssr:stedsnr" v="246153" />
	</node>
	<node lat="59.781247222598566" lon="9.573800008318685" id="-17973">
		<tag k="name" v="Gåsumkollen" />
		<tag k="natural" v="hill" />
		<tag k="place" v="locality" />
		<tag k="ssr:stedsnr" v="246879" />
	</node>
	<node lat="59.92950833029958" lon="9.396611107996083" id="-17981">
		<tag k="fixme" v="consider natural=peak for the most distinct mountains in the district" />
		<tag k="name" v="Lauvåsen" />
		<tag k="natural" v="hill" />
		<tag k="place" v="locality" />
		<tag k="ssr:stedsnr" v="282075" />
	</node>
	<node lat="59.92370833273907" lon="9.410655550325798" id="-17982">
		<tag k="name" v="Bjønnåsen" />
		<tag k="natural" v="slope" />
		<tag k="place" v="locality" />
		<tag k="ssr:stedsnr" v="282077" />
	</node>
	<node lat="59.9041583331274" lon="9.529616672658047" id="-17984">
		<tag k="name" v="Askedalen" />
		<tag k="natural" v="valley" />
		<tag k="place" v="locality" />
		<tag k="ssr:stedsnr" v="282080" />
	</node>
	<node lat="59.889819448797496" lon="9.441077775449084" id="-17986">
		<tag k="fixme" v="consider natural=peak for the most distinct mountains in the district" />
		<tag k="name" v="Sjursnatten" />
		<tag k="natural" v="hill" />
		<tag k="place" v="locality" />
		<tag k="ssr:stedsnr" v="283115" />
	</node>
	<node lat="59.851525003889364" lon="9.624449995385556" id="-17996">
		<tag k="name" v="Damtjennhøgda" />
		<tag k="natural" v="hill" />
		<tag k="place" v="locality" />
		<tag k="ssr:stedsnr" v="296718" />
	</node>
	<node lat="59.91428055509052" lon="9.642063895425599" id="-17999">
		<tag k="fixme" v="consider natural=peak for the most distinct mountains in the district" />
		<tag k="name" v="Lisliseteråsen" />
		<tag k="natural" v="hill" />
		<tag k="place" v="locality" />
		<tag k="ssr:stedsnr" v="298295" />
	</node>
	<node lat="59.929897221967416" lon="9.53523333625126" id="-18005">
		<tag k="name" v="Hommelihøgda" />
		<tag k="natural" v="hill" />
		<tag k="place" v="locality" />
		<tag k="ssr:stedsnr" v="300890" />
	</node>
	<node lat="59.7639527763088" lon="9.526683331737932" id="-18011">
		<tag k="fixme" v="consider natural=peak for the most distinct mountains in the district" />
		<tag k="name" v="Grååsen" />
		<tag k="natural" v="hill" />
		<tag k="place" v="locality" />
		<tag k="ssr:stedsnr" v="301793" />
	</node>
	<node lat="59.89521110885761" lon="9.51874999116098" id="-18020">
		<tag k="name" v="Massingsmedhaugen" />
		<tag k="natural" v="hill" />
		<tag k="place" v="locality" />
		<tag k="ssr:stedsnr" v="465101" />
	</node>
	<node lat="59.883172224545724" lon="9.450208335071158" id="-18021">
		<tag k="name" v="Gampedalen" />
		<tag k="natural" v="valley" />
		<tag k="place" v="locality" />
		<tag k="ssr:stedsnr" v="465142" />
	</node>
	<node lat="59.89416111326551" lon="9.397958341380333" id="-18022">
		<tag k="name" v="Kattekleiva" />
		<tag k="natural" v="slope" />
		<tag k="place" v="locality" />
		<tag k="ssr:stedsnr" v="465234" />
	</node>
	<node lat="59.88312499896077" lon="9.351625005160797" id="-18023">
		<tag k="fixme" v="consider natural=peak for the most distinct mountains in the district" />
		<tag k="name" v="Haukåsen" />
		<tag k="natural" v="hill" />
		<tag k="place" v="locality" />
		<tag k="ssr:stedsnr" v="307004" />
	</node>
	<node lat="59.82245000101779" lon="9.4671111157277" id="-18025">
		<tag k="fixme" v="consider natural=peak for the most distinct mountains in the district" />
		<tag k="name" v="Beinsåsen" />
		<tag k="natural" v="hill" />
		<tag k="place" v="locality" />
		<tag k="ssr:stedsnr" v="307112" />
	</node>
	<node lat="59.82540555566709" lon="9.258488884610106" id="-18026">
		<tag k="name" v="Kyrkjerinden" />
		<tag k="natural" v="ridge" />
		<tag k="place" v="locality" />
		<tag k="ssr:stedsnr" v="307114" />
	</node>
	<node lat="59.792272221087934" lon="9.349352774389798" id="-18040">
		<tag k="name" v="Gampedalen" />
		<tag k="natural" v="valley" />
		<tag k="place" v="locality" />
		<tag k="ssr:stedsnr" v="307906" />
	</node>
	<node lat="59.7353666657988" lon="9.627691666064988" id="-18045">
		<tag k="name" v="Barlinddalen" />
		<tag k="natural" v="valley" />
		<tag k="place" v="locality" />
		<tag k="ssr:stedsnr" v="466836" />
	</node>
	<node lat="59.779477775852676" lon="9.696752785496276" id="-18052">
		<tag k="name" v="Hybellia" />
		<tag k="natural" v="slope" />
		<tag k="place" v="locality" />
		<tag k="ssr:stedsnr" v="330869" />
	</node>
	<node lat="59.913813884479794" lon="9.398552782382005" id="-18057">
		<tag k="name" v="Steinkloppdalen" />
		<tag k="natural" v="valley" />
		<tag k="place" v="locality" />
		<tag k="ssr:stedsnr" v="343207" />
	</node>
	<node lat="59.93593611151348" lon="9.543024997107965" id="-18058">
		<tag k="fixme" v="consider natural=peak for the most distinct mountains in the district" />
		<tag k="name" v="Hommeliåsen" />
		<tag k="natural" v="hill" />
		<tag k="place" v="locality" />
		<tag k="ssr:stedsnr" v="343784" />
	</node>
	<node lat="59.96231667056555" lon="9.428897217285355" id="-18059">
		<tag k="name" v="Skardsroa" />
		<tag k="natural" v="slope" />
		<tag k="place" v="locality" />
		<tag k="ssr:stedsnr" v="343809" />
	</node>
	<node lat="59.96066666697747" lon="9.501974992904854" id="-18060">
		<tag k="name" v="Brennåsen" />
		<tag k="natural" v="hill" />
		<tag k="place" v="locality" />
		<tag k="ssr:stedsnr" v="343811" />
	</node>
	<node lat="59.953416668013865" lon="9.562916665759394" id="-18065">
		<tag k="name" v="Soliåsen" />
		<tag k="natural" v="hill" />
		<tag k="place" v="locality" />
		<tag k="ssr:stedsnr" v="358312" />
	</node>
	<node lat="59.90245000446716" lon="9.558602772413842" id="-18067">
		<tag k="name" v="Hagaåsen" />
		<tag k="natural" v="hill" />
		<tag k="place" v="locality" />
		<tag k="ssr:stedsnr" v="358332" />
	</node>
	<node lat="59.82984166239667" lon="9.189886105247352" id="-18078">
		<tag k="fixme" v="consider natural=peak for the most distinct mountains in the district" />
		<tag k="name" v="Flesebekk-ble" />
		<tag k="natural" v="hill" />
		<tag k="place" v="locality" />
		<tag k="ssr:stedsnr" v="367616" />
	</node>
	<node lat="59.8745888921719" lon="9.46083889122252" id="-18082">
		<tag k="name" v="Åsen" />
		<tag k="natural" v="hill" />
		<tag k="place" v="locality" />
		<tag k="ssr:stedsnr" v="368032" />
	</node>
	<node lat="59.87233055139005" lon="9.675122229576335" id="-18096">
		<tag k="name" v="Skillingsåsen" />
		<tag k="natural" v="hill" />
		<tag k="place" v="locality" />
		<tag k="ssr:stedsnr" v="368674" />
	</node>
	<node lat="59.845069440426954" lon="9.388788888280043" id="-18112">
		<tag k="name" v="Ingeborglia" />
		<tag k="natural" v="slope" />
		<tag k="place" v="locality" />
		<tag k="ssr:stedsnr" v="483540" />
	</node>
	<node lat="59.85720833584915" lon="9.412583338801136" id="-18120">
		<tag k="name" v="Bruhaug" />
		<tag k="natural" v="hill" />
		<tag k="place" v="locality" />
		<tag k="ssr:stedsnr" v="404290" />
	</node>
	<node lat="59.82630833376251" lon="9.626938894937135" id="-18122">
		<tag k="name" v="Skåkåslia" />
		<tag k="natural" v="slope" />
		<tag k="place" v="locality" />
		<tag k="ssr:stedsnr" v="405746" />
	</node>
	<node lat="59.92952499881101" lon="9.58918611530548" id="-18129">
		<tag k="name" v="Krestiberget" />
		<tag k="natural" v="hill" />
		<tag k="place" v="locality" />
		<tag k="ssr:stedsnr" v="419313" />
	</node>
	<node lat="59.943269444216114" lon="9.581858341688307" id="-18131">
		<tag k="name" v="Plassåsen" />
		<tag k="natural" v="hill" />
		<tag k="place" v="locality" />
		<tag k="ssr:stedsnr" v="419328" />
	</node>
	<node lat="59.85979722350994" lon="9.347680554450697" id="-18139">
		<tag k="fixme" v="consider natural=peak for the most distinct mountains in the district" />
		<tag k="name" v="Maugerudnatten" />
		<tag k="natural" v="hill" />
		<tag k="old_name" v="Mougerud Nut" />
		<tag k="place" v="locality" />
		<tag k="ssr:stedsnr" v="489063" />
	</node>
	<node lat="59.79478332916675" lon="9.51685277012641" id="-18143">
		<tag k="name" v="Pukkverksløkka" />
		<tag k="place" v="locality" />
		<tag k="ssr:stedsnr" v="421806" />
	</node>
	<node lat="59.83204722216964" lon="9.558938887001851" id="-18145">
		<tag k="name" v="Tåskjemogen" />
		<tag k="place" v="locality" />
		<tag k="ssr:stedsnr" v="421721" />
	</node>
	<node lat="59.913441669196295" lon="9.376780554013656" id="-18146">
		<tag k="fixme" v="consider natural=peak for the most distinct mountains in the district" />
		<tag k="name" v="Bakkerudåsen" />
		<tag k="natural" v="hill" />
		<tag k="place" v="locality" />
		<tag k="ssr:stedsnr" v="489225" />
	</node>
	<node lat="59.824113887805844" lon="9.422858329481455" id="-18148">
		<tag k="name" v="Halvvegsberget" />
		<tag k="natural" v="hill" />
		<tag k="place" v="locality" />
		<tag k="ssr:stedsnr" v="421993" />
	</node>
	<node lat="59.81076388641438" lon="9.413738885053897" id="-18149">
		<tag k="name" v="Sjuvasslia" />
		<tag k="natural" v="slope" />
		<tag k="place" v="locality" />
		<tag k="ssr:stedsnr" v="421998" />
	</node>
	<node lat="59.928725001152415" lon="9.53873888645692" id="-18158">
		<tag k="fixme" v="consider natural=peak for the most distinct mountains in the district" />
		<tag k="name" v="Snukkeråsen" />
		<tag k="natural" v="hill" />
		<tag k="place" v="locality" />
		<tag k="ssr:stedsnr" v="422903" />
	</node>
	<node lat="59.83892777519514" lon="9.50929444867162" id="-18167">
		<tag k="fixme" v="consider natural=peak for the most distinct mountains in the district" />
		<tag k="name" v="Snapperudkollen" />
		<tag k="natural" v="hill" />
		<tag k="place" v="locality" />
		<tag k="ssr:stedsnr" v="423506" />
	</node>
	<node lat="59.740677781885786" lon="9.50578889127419" id="-18170">
		<tag k="name" v="Grauthola" />
		<tag k="place" v="locality" />
		<tag k="ssr:stedsnr" v="423844" />
	</node>
	<node lat="59.884811108516566" lon="9.65662777685988" id="-18176">
		<tag k="fixme" v="consider natural=peak for the most distinct mountains in the district" />
		<tag k="name" v="Trytetjennkollen" />
		<tag k="natural" v="hill" />
		<tag k="place" v="locality" />
		<tag k="ssr:stedsnr" v="489699" />
	</node>
	<node lat="59.89133888965728" lon="9.580211119327531" id="-18183">
		<tag k="name" v="Gjerdesåsen" />
		<tag k="natural" v="hill" />
		<tag k="place" v="locality" />
		<tag k="ssr:stedsnr" v="428003" />
	</node>
	<node lat="59.81451388806891" lon="9.523238892863363" id="-18202">
		<tag k="fixme" v="consider natural=peak for the most distinct mountains in the district" />
		<tag k="name" v="Åslandåsen" />
		<tag k="natural" v="hill" />
		<tag k="place" v="locality" />
		<tag k="ssr:stedsnr" v="429115" />
	</node>
	<node lat="59.830233336687535" lon="9.241508326294513" id="-18214">
		<tag k="fixme" v="consider natural=peak for the most distinct mountains in the district" />
		<tag k="name" v="Bakåsen" />
		<tag k="natural" v="hill" />
		<tag k="place" v="locality" />
		<tag k="ssr:stedsnr" v="671102" />
	</node>
	<node lat="59.89654999872228" lon="9.473786108648488" id="-18219">
		<tag k="fixme" v="consider natural=peak for the most distinct mountains in the district" />
		<tag k="name" v="Liåsen" />
		<tag k="natural" v="hill" />
		<tag k="place" v="locality" />
		<tag k="ssr:stedsnr" v="671219" />
	</node>
	<node lat="59.90082500055397" lon="9.428550004538172" id="-18221">
		<tag k="fixme" v="consider natural=peak for the most distinct mountains in the district" />
		<tag k="name" v="Dokkåsen" />
		<tag k="natural" v="hill" />
		<tag k="place" v="locality" />
		<tag k="ssr:stedsnr" v="671227" />
	</node>
	<node lat="59.95668332953207" lon="9.441550007867628" id="-18226">
		<tag k="fixme" v="consider natural=peak for the most distinct mountains in the district" />
		<tag k="name" v="Geitnesåsen" />
		<tag k="natural" v="hill" />
		<tag k="place" v="locality" />
		<tag k="ssr:stedsnr" v="671355" />
	</node>
	<node lat="59.75353333013987" lon="9.544444452616977" id="-18232">
		<tag k="fixme" v="consider natural=peak for the most distinct mountains in the district" />
		<tag k="name" v="Lindbuaksla" />
		<tag k="natural" v="hill" />
		<tag k="place" v="locality" />
		<tag k="ssr:stedsnr" v="671970" />
	</node>
	<node lat="59.7519111122517" lon="9.464636114914988" id="-18233">
		<tag k="name" v="Nipetoflå" />
		<tag k="place" v="locality" />
		<tag k="ssr:stedsnr" v="671979" />
	</node>
	<node lat="59.757888892765315" lon="9.453449992145599" id="-18234">
		<tag k="name" v="Kløvnattseterdalen" />
		<tag k="natural" v="valley" />
		<tag k="place" v="locality" />
		<tag k="ssr:stedsnr" v="671981" />
	</node>
	<node lat="59.7670999973556" lon="9.55740555644359" id="-18236">
		<tag k="alt_name" v="Svartåsen" />
		<tag k="fixme" v="consider natural=peak for the most distinct mountains in the district" />
		<tag k="name" v="Svartås" />
		<tag k="natural" v="hill" />
		<tag k="place" v="locality" />
		<tag k="ssr:stedsnr" v="672594" />
	</node>
	<node lat="59.909813889380786" lon="9.394302783613044" id="-18241">
		<tag k="name" v="Kloppåsen" />
		<tag k="natural" v="hill" />
		<tag k="place" v="locality" />
		<tag k="ssr:stedsnr" v="465224" />
	</node>
	<node lat="59.93363611249544" lon="9.611105548380428" id="-18248">
		<tag k="fixme" v="consider natural=peak for the most distinct mountains in the district" />
		<tag k="name" v="Murdalsåsen" />
		<tag k="natural" v="hill" />
		<tag k="place" v="locality" />
		<tag k="ssr:stedsnr" v="479311" />
	</node>
	<node lat="59.819141663854666" lon="9.377716671182112" id="-18250">
		<tag k="name" v="Pikhaug" />
		<tag k="natural" v="hill" />
		<tag k="place" v="locality" />
		<tag k="ssr:stedsnr" v="481968" />
	</node>
	<node lat="59.81157222472903" lon="9.36820000358504" id="-18251">
		<tag k="name" v="Skjærdalen" />
		<tag k="natural" v="valley" />
		<tag k="place" v="locality" />
		<tag k="ssr:stedsnr" v="481977" />
	</node>
	<node lat="59.81914166652192" lon="9.691480549041778" id="-18253">
		<tag k="name" v="Tindkjerka" />
		<tag k="natural" v="hill" />
		<tag k="place" v="locality" />
		<tag k="ssr:stedsnr" v="482705" />
	</node>
	<node lat="59.84169166674708" lon="9.426686102571226" id="-18254">
		<tag k="name" v="Grasbrekkejuvet" />
		<tag k="natural" v="gorge" />
		<tag k="ssr:stedsnr" v="483505" />
	</node>
	<node lat="59.88664444402904" lon="9.343497229963255" id="-18258">
		<tag k="name" v="Kleiva" />
		<tag k="natural" v="slope" />
		<tag k="place" v="locality" />
		<tag k="ssr:stedsnr" v="484316" />
	</node>
	<node lat="59.889844447053825" lon="9.37203332553662" id="-18259">
		<tag k="name" v="Evjumogen" />
		<tag k="place" v="locality" />
		<tag k="ssr:stedsnr" v="484325" />
	</node>
	<node lat="59.88614444615608" lon="9.4029916633675" id="-18260">
		<tag k="name" v="Svarteflag" />
		<tag k="natural" v="cliff" />
		<tag k="ssr:stedsnr" v="484326" />
	</node>
	<node lat="59.82331389294928" lon="9.486633328268175" id="-18284">
		<tag k="fixme" v="consider natural=peak for the most distinct mountains in the district" />
		<tag k="name" v="Brennåsen" />
		<tag k="natural" v="hill" />
		<tag k="place" v="locality" />
		<tag k="ssr:stedsnr" v="490601" />
	</node>
	<node lat="59.915108333736754" lon="9.432688886112867" id="-18292">
		<tag k="name" v="Pina" />
		<tag k="natural" v="slope" />
		<tag k="place" v="locality" />
		<tag k="ssr:stedsnr" v="525081" />
	</node>
	<node lat="59.75945555354924" lon="9.661444444554071" id="-18294">
		<tag k="name" v="Askedalen" />
		<tag k="natural" v="valley" />
		<tag k="place" v="locality" />
		<tag k="ssr:stedsnr" v="526673" />
	</node>
	<node lat="59.987216667377766" lon="9.487174998573472" id="-18320">
		<tag k="fixme" v="consider natural=peak for the most distinct mountains in the district" />
		<tag k="name" v="Lysemyråsen" />
		<tag k="natural" v="hill" />
		<tag k="place" v="locality" />
		<tag k="ssr:stedsnr" v="549309" />
	</node>
	<node lat="59.82750000212478" lon="9.48874999964518" id="-18321">
		<tag k="fixme" v="consider natural=peak for the most distinct mountains in the district" />
		<tag k="name" v="Turtreåsen" />
		<tag k="natural" v="hill" />
		<tag k="place" v="locality" />
		<tag k="ssr:stedsnr" v="550102" />
	</node>
	<node lat="59.83185555662114" lon="9.29005833719117" id="-18322">
		<tag k="fixme" v="consider natural=peak for the most distinct mountains in the district" />
		<tag k="name" v="Fagerfjell" />
		<tag k="natural" v="hill" />
		<tag k="place" v="locality" />
		<tag k="ssr:stedsnr" v="550105" />
	</node>
	<node lat="59.83224999887146" lon="9.348449992336317" id="-18323">
		<tag k="fixme" v="consider natural=peak for the most distinct mountains in the district" />
		<tag k="name" v="Våtvassåsen" />
		<tag k="natural" v="hill" />
		<tag k="place" v="locality" />
		<tag k="ssr:stedsnr" v="550109" />
	</node>
	<node lat="59.82122500185655" lon="9.503508335579525" id="-18329">
		<tag k="fixme" v="consider natural=peak for the most distinct mountains in the district" />
		<tag k="name" v="Seteråsen" />
		<tag k="natural" v="hill" />
		<tag k="place" v="locality" />
		<tag k="ssr:stedsnr" v="550606" />
	</node>
	<node lat="59.93725000270749" lon="9.488052777797039" id="-18330">
		<tag k="fixme" v="consider natural=peak for the most distinct mountains in the district" />
		<tag k="name" v="Flagåsen" />
		<tag k="natural" v="hill" />
		<tag k="place" v="locality" />
		<tag k="ssr:stedsnr" v="550610" />
	</node>
	<node lat="59.89607777842751" lon="9.430544436755008" id="-18336">
		<tag k="name" v="Jordesåsen" />
		<tag k="natural" v="hill" />
		<tag k="place" v="locality" />
		<tag k="ssr:stedsnr" v="586212" />
	</node>
	<node lat="59.85636944169519" lon="9.306002777558135" id="-18339">
		<tag k="name" v="Delingsdokka" />
		<tag k="place" v="locality" />
		<tag k="ssr:stedsnr" v="586301" />
	</node>
	<node lat="59.94043888784989" lon="9.592116674212454" id="-18340">
		<tag k="name" v="Brennåsen" />
		<tag k="natural" v="hill" />
		<tag k="place" v="locality" />
		<tag k="ssr:stedsnr" v="783311" />
	</node>
	<node lat="59.77351389103285" lon="9.634497224564951" id="-18343">
		<tag k="name" v="Bjelkehovet" />
		<tag k="place" v="locality" />
		<tag k="ssr:stedsnr" v="587664" />
	</node>
	<node lat="59.81736944320696" lon="9.378249999207572" id="-18347">
		<tag k="name" v="Væråsnuten" />
		<tag k="natural" v="hill" />
		<tag k="place" v="locality" />
		<tag k="ssr:stedsnr" v="602999" />
	</node>
	<node lat="59.77846944493231" lon="9.516030555019656" id="-18355">
		<tag k="name" v="Mastedalen" />
		<tag k="natural" v="valley" />
		<tag k="place" v="locality" />
		<tag k="ssr:stedsnr" v="604856" />
	</node>
	<node lat="59.768386108633884" lon="9.5137555562313" id="-18371">
		<tag k="fixme" v="consider natural=peak for the most distinct mountains in the district" />
		<tag k="name" v="Dronningkollen" />
		<tag k="natural" v="hill" />
		<tag k="place" v="locality" />
		<tag k="ssr:stedsnr" v="610904" />
	</node>
	<node lat="59.84211388587251" lon="9.647149998023997" id="-18376">
		<tag k="fixme" v="consider natural=peak for the most distinct mountains in the district" />
		<tag k="name" v="Seteråsen" />
		<tag k="natural" v="hill" />
		<tag k="place" v="locality" />
		<tag k="ssr:stedsnr" v="618908" />
	</node>
	<node lat="59.896108336318385" lon="9.503019448857808" id="-18382">
		<tag k="name" v="Kleiva" />
		<tag k="natural" v="slope" />
		<tag k="place" v="locality" />
		<tag k="ssr:stedsnr" v="646090" />
	</node>
	<node lat="59.91669166770829" lon="9.396941668005782" id="-18387">
		<tag k="name" v="Marihaugen" />
		<tag k="natural" v="hill" />
		<tag k="place" v="locality" />
		<tag k="ssr:stedsnr" v="707088" />
	</node>
	<node lat="59.900741665178" lon="9.469019436794728" id="-18388">
		<tag k="name" v="Bjønnedæla" />
		<tag k="place" v="locality" />
		<tag k="ssr:stedsnr" v="707113" />
	</node>
	<node lat="59.895063884709295" lon="9.39932778266357" id="-18391">
		<tag k="name" v="Storliåsen" />
		<tag k="natural" v="hill" />
		<tag k="place" v="locality" />
		<tag k="ssr:stedsnr" v="708244" />
	</node>
	<node lat="59.87312500442149" lon="9.338805559179596" id="-18398">
		<tag k="name" v="Ramnskardsjuvet" />
		<tag k="natural" v="gorge" />
		<tag k="old_name" v="Ramneskarsjuvet" />
		<tag k="ssr:stedsnr" v="659581" />
	</node>
	<node lat="59.80821667107049" lon="9.659202774800935" id="-18402">
		<tag k="name" v="Nøa" />
		<tag k="place" v="locality" />
		<tag k="ssr:stedsnr" v="663721" />
	</node>
	<node lat="59.78134166325918" lon="9.499883333953404" id="-18409">
		<tag k="name" v="Louiseløkka" />
		<tag k="place" v="locality" />
		<tag k="ssr:stedsnr" v="665815" />
	</node>
	<node lat="59.87887499738335" lon="9.333611118476806" id="-18412">
		<tag k="fixme" v="consider natural=peak for the most distinct mountains in the district" />
		<tag k="name" v="Ospekollen" />
		<tag k="natural" v="hill" />
		<tag k="place" v="locality" />
		<tag k="ssr:stedsnr" v="666341" />
	</node>
	<node lat="59.89945833488103" lon="9.509736109472277" id="-18416">
		<tag k="name" v="Bjønnemogen" />
		<tag k="place" v="locality" />
		<tag k="ssr:stedsnr" v="890088" />
	</node>
	<node lat="59.87836666722103" lon="9.412699999366762" id="-18421">
		<tag k="name" v="Jutulflaget" />
		<tag k="natural" v="hill" />
		<tag k="place" v="locality" />
		<tag k="ssr:stedsnr" v="671011" />
	</node>
	<node lat="59.873311114994" lon="9.246630549622616" id="-18425">
		<tag k="name" v="Geiteryggen" />
		<tag k="natural" v="ridge" />
		<tag k="place" v="locality" />
		<tag k="ssr:stedsnr" v="671025" />
	</node>
	<node lat="59.81486388660982" lon="9.372819444244454" id="-18437">
		<tag k="fixme" v="multiple name tags, choose one and add the other to alt_name; consider natural=peak for the most distinct mountains in the district" />
		<tag k="name" v="Væråsnuten;Nutdalsrinden" />
		<tag k="natural" v="hill" />
		<tag k="place" v="locality" />
		<tag k="ssr:stedsnr" v="672106" />
	</node>
	<node lat="59.79787499669024" lon="9.70383333953744" id="-18443">
		<tag k="name" v="Gvamseterlia" />
		<tag k="natural" v="slope" />
		<tag k="place" v="locality" />
		<tag k="ssr:stedsnr" v="891694" />
	</node>
	<node lat="59.8976999989379" lon="9.549638886519416" id="-18445">
		<tag k="name" v="Pålshølet" />
		<tag k="natural" v="valley" />
		<tag k="place" v="locality" />
		<tag k="ssr:stedsnr" v="707069" />
	</node>
	<node lat="59.82641666836117" lon="9.554422228498137" id="-18449">
		<tag k="fixme" v="consider natural=peak for the most distinct mountains in the district" />
		<tag k="name" v="Østre Gårdåsåsen" />
		<tag k="natural" v="hill" />
		<tag k="place" v="locality" />
		<tag k="ssr:stedsnr" v="708678" />
	</node>
	<node lat="59.80607499974634" lon="9.615702768893803" id="-18451">
		<tag k="fixme" v="consider natural=peak for the most distinct mountains in the district" />
		<tag k="name" v="Skjerpåsen" />
		<tag k="natural" v="hill" />
		<tag k="place" v="locality" />
		<tag k="ssr:stedsnr" v="708681" />
	</node>
	<node lat="59.7611750044327" lon="9.576658339387988" id="-18454">
		<tag k="fixme" v="consider natural=peak for the most distinct mountains in the district" />
		<tag k="name" v="Skutsåsen" />
		<tag k="natural" v="hill" />
		<tag k="place" v="locality" />
		<tag k="ssr:stedsnr" v="709812" />
	</node>
	<node lat="59.72396667078576" lon="9.597694438197795" id="-18455">
		<tag k="fixme" v="consider natural=peak for the most distinct mountains in the district" />
		<tag k="name" v="Primskottåsen" />
		<tag k="natural" v="hill" />
		<tag k="place" v="locality" />
		<tag k="ssr:stedsnr" v="709799" />
	</node>
	<node lat="59.92683611034789" lon="9.526077779578797" id="-18465">
		<tag k="name" v="Bekkjordsplasshøgda" />
		<tag k="natural" v="ridge" />
		<tag k="place" v="locality" />
		<tag k="ssr:stedsnr" v="725906" />
	</node>
	<node lat="59.84491388554691" lon="9.41635833243942" id="-18468">
		<tag k="name" v="Nedre Ranten" />
		<tag k="natural" v="hill" />
		<tag k="place" v="locality" />
		<tag k="ssr:stedsnr" v="726488" />
	</node>
	<node lat="59.98214444265592" lon="9.475258341022299" id="-18492">
		<tag k="fixme" v="consider natural=peak for the most distinct mountains in the district" />
		<tag k="name" v="Istjennåsen" />
		<tag k="natural" v="hill" />
		<tag k="place" v="locality" />
		<tag k="ssr:stedsnr" v="732299" />
	</node>
	<node lat="59.863363890476464" lon="9.204258327080442" id="-18493">
		<tag k="name" v="Sløkjedalen" />
		<tag k="natural" v="valley" />
		<tag k="place" v="locality" />
		<tag k="ssr:stedsnr" v="732702" />
	</node>
	<node lat="59.76447499601888" lon="9.455638896727349" id="-18500">
		<tag k="fixme" v="consider natural=peak for the most distinct mountains in the district" />
		<tag k="name" v="Kløvnatten" />
		<tag k="natural" v="hill" />
		<tag k="place" v="locality" />
		<tag k="ssr:stedsnr" v="732999" />
	</node>
	<node lat="59.900883330235665" lon="9.66034166498796" id="-18508">
		<tag k="fixme" v="consider natural=peak for the most distinct mountains in the district" />
		<tag k="name" v="Tjuvåsen" />
		<tag k="natural" v="hill" />
		<tag k="place" v="locality" />
		<tag k="ssr:stedsnr" v="905330" />
	</node>
	<node lat="59.82589166969311" lon="9.449561116359414" id="-18513">
		<tag k="name" v="Langedokka" />
		<tag k="natural" v="slope" />
		<tag k="place" v="locality" />
		<tag k="ssr:stedsnr" v="906995" />
	</node>
	<node lat="59.88428610895543" lon="9.494586104926961" id="-18515">
		<tag k="name" v="Refshaug" />
		<tag k="natural" v="hill" />
		<tag k="place" v="locality" />
		<tag k="ssr:stedsnr" v="768142" />
	</node>
	<node lat="59.97394999823402" lon="9.520088894028556" id="-18516">
		<tag k="name" v="Gvilarhaugen" />
		<tag k="natural" v="hill" />
		<tag k="place" v="locality" />
		<tag k="ssr:stedsnr" v="768811" />
	</node>
	<node lat="59.93023611023116" lon="9.43318889645908" id="-18522">
		<tag k="name" v="Holtandalen" />
		<tag k="natural" v="valley" />
		<tag k="place" v="locality" />
		<tag k="ssr:stedsnr" v="907861" />
	</node>
	<node lat="59.85931111050214" lon="9.228050008022102" id="-18527">
		<tag k="name" v="Høgstdagshaugen" />
		<tag k="natural" v="hill" />
		<tag k="place" v="locality" />
		<tag k="ssr:stedsnr" v="908514" />
	</node>
	<node lat="59.798802780346946" lon="9.367847218255564" id="-18529">
		<tag k="name" v="Sjuvasstjerntoppen" />
		<tag k="natural" v="hill" />
		<tag k="place" v="locality" />
		<tag k="ssr:stedsnr" v="908832" />
	</node>
	<node lat="59.880477774044586" lon="9.27974443960198" id="-18538">
		<tag k="fixme" v="consider natural=peak for the most distinct mountains in the district" />
		<tag k="name" v="Tinnhovd" />
		<tag k="natural" v="hill" />
		<tag k="place" v="locality" />
		<tag k="ssr:stedsnr" v="792009" />
	</node>
	<node lat="59.88537499964011" lon="9.42658056037235" id="-18539">
		<tag k="fixme" v="consider natural=peak for the most distinct mountains in the district" />
		<tag k="name" v="Fleksåsen" />
		<tag k="natural" v="hill" />
		<tag k="place" v="locality" />
		<tag k="ssr:stedsnr" v="792012" />
	</node>
	<node lat="59.977416665487276" lon="9.450913884892811" id="-18543">
		<tag k="name" v="Kollen" />
		<tag k="natural" v="hill" />
		<tag k="place" v="locality" />
		<tag k="ssr:stedsnr" v="792280" />
	</node>
	<node lat="59.95706388748572" lon="9.53111944507754" id="-18547">
		<tag k="name" v="Tannbergkollen" />
		<tag k="natural" v="hill" />
		<tag k="place" v="locality" />
		<tag k="ssr:stedsnr" v="792358" />
	</node>
	<node lat="59.871033334807926" lon="9.187424993232" id="-18549">
		<tag k="fixme" v="consider natural=peak for the most distinct mountains in the district" />
		<tag k="name" v="Uverudfjell" />
		<tag k="natural" v="hill" />
		<tag k="place" v="locality" />
		<tag k="ssr:stedsnr" v="792688" />
	</node>
	<node lat="59.81630833726075" lon="9.492094443699225" id="-18553">
		<tag k="name" v="Tømmerhaugen" />
		<tag k="natural" v="hill" />
		<tag k="place" v="locality" />
		<tag k="ssr:stedsnr" v="793123" />
	</node>
	<node lat="59.77746111271834" lon="9.6717749977176" id="-18559">
		<tag k="fixme" v="consider natural=peak for the most distinct mountains in the district" />
		<tag k="name" v="Bråtåsen" />
		<tag k="natural" v="hill" />
		<tag k="place" v="locality" />
		<tag k="ssr:stedsnr" v="793625" />
	</node>
	<node lat="59.83605833712625" lon="9.206227774654298" id="-18560">
		<tag k="fixme" v="consider natural=peak for the most distinct mountains in the district" />
		<tag k="name" v="Gunnulvsbunatten" />
		<tag k="natural" v="hill" />
		<tag k="place" v="locality" />
		<tag k="ssr:stedsnr" v="793672" />
	</node>
	<node lat="59.95495278215706" lon="9.494041658515048" id="-18576">
		<tag k="fixme" v="consider natural=peak for the most distinct mountains in the district" />
		<tag k="name" v="Blåmyråsen" />
		<tag k="natural" v="hill" />
		<tag k="place" v="locality" />
		<tag k="ssr:stedsnr" v="914358" />
	</node>
	<node lat="59.79051944501076" lon="9.653488890140258" id="-18579">
		<tag k="fixme" v="consider natural=peak for the most distinct mountains in the district" />
		<tag k="name" v="Rognliåsen" />
		<tag k="natural" v="hill" />
		<tag k="place" v="locality" />
		<tag k="ssr:stedsnr" v="914538" />
	</node>
	<node lat="59.91184166485055" lon="9.382400005856503" id="-18586">
		<tag k="name" v="Bakkerudskarvin" />
		<tag k="place" v="locality" />
		<tag k="ssr:stedsnr" v="829220" />
	</node>
	<node lat="59.85553333400063" lon="9.359297215012408" id="-18588">
		<tag k="name" v="Sulusetåsen" />
		<tag k="natural" v="hill" />
		<tag k="place" v="locality" />
		<tag k="ssr:stedsnr" v="829288" />
	</node>
	<node lat="59.95878888584248" lon="9.43381110235625" id="-18589">
		<tag k="name" v="Skardet" />
		<tag k="natural" v="valley" />
		<tag k="place" v="locality" />
		<tag k="ssr:stedsnr" v="829769" />
	</node>
	<node lat="59.93831944416145" lon="9.604266661066873" id="-18596">
		<tag k="fixme" v="consider natural=peak for the most distinct mountains in the district" />
		<tag k="name" v="Bjønnåsen" />
		<tag k="natural" v="hill" />
		<tag k="place" v="locality" />
		<tag k="ssr:stedsnr" v="844312" />
	</node>
	<node lat="59.84054444651509" lon="9.578888895657013" id="-18602">
		<tag k="name" v="Skartumlia" />
		<tag k="natural" v="slope" />
		<tag k="place" v="locality" />
		<tag k="ssr:stedsnr" v="846509" />
	</node>
	<node lat="59.78546666327445" lon="9.455038892591276" id="-18605">
		<tag k="name" v="Vesleådalen" />
		<tag k="natural" v="valley" />
		<tag k="place" v="locality" />
		<tag k="ssr:stedsnr" v="846782" />
	</node>
	<node lat="59.91455277600554" lon="9.54612778655995" id="-18608">
		<tag k="fixme" v="consider natural=peak for the most distinct mountains in the district" />
		<tag k="name" v="Kampestadnatten" />
		<tag k="natural" v="hill" />
		<tag k="place" v="locality" />
		<tag k="ssr:stedsnr" v="847903" />
	</node>
	<node lat="59.84253611382978" lon="9.394683331552514" id="-18610">
		<tag k="name" v="Kippen" />
		<tag k="place" v="locality" />
		<tag k="ssr:stedsnr" v="848522" />
	</node>
	<node lat="59.780113890555725" lon="9.52490833601818" id="-18615">
		<tag k="name" v="Skjerpåsen" />
		<tag k="natural" v="cliff" />
		<tag k="ssr:stedsnr" v="848786" />
	</node>
	<node lat="59.82158055369896" lon="9.209522227532661" id="-18619">
		<tag k="fixme" v="consider natural=peak for the most distinct mountains in the district" />
		<tag k="name" v="Gunnulvsbu-ble" />
		<tag k="natural" v="hill" />
		<tag k="place" v="locality" />
		<tag k="ssr:stedsnr" v="853621" />
	</node>
	<node lat="59.7890000017498" lon="9.514086117686375" id="-18621">
		<tag k="fixme" v="consider natural=peak for the most distinct mountains in the district" />
		<tag k="name" v="Pukkverksåsen" />
		<tag k="natural" v="hill" />
		<tag k="place" v="locality" />
		<tag k="ssr:stedsnr" v="853911" />
	</node>
	<node lat="59.90690555533164" lon="9.427844437520024" id="-18632">
		<tag k="name" v="Brekka" />
		<tag k="natural" v="hill" />
		<tag k="place" v="locality" />
		<tag k="ssr:stedsnr" v="890095" />
	</node>
	<node lat="59.904536111255226" lon="9.430619447320021" id="-18633">
		<tag k="name" v="Kollen" />
		<tag k="natural" v="hill" />
		<tag k="place" v="locality" />
		<tag k="ssr:stedsnr" v="890099" />
	</node>
	<node lat="59.796774999441624" lon="9.437675006647371" id="-18639">
		<tag k="name" v="Tonmyrhaugen" />
		<tag k="natural" v="hill" />
		<tag k="place" v="locality" />
		<tag k="ssr:stedsnr" v="902624" />
	</node>
	<node lat="59.870127779759734" lon="9.552863892559138" id="-18645">
		<tag k="name" v="Smørkrona" />
		<tag k="natural" v="hill" />
		<tag k="place" v="locality" />
		<tag k="ssr:stedsnr" v="907508" />
	</node>
	<node lat="59.83684166411755" lon="9.387619445726793" id="-18655">
		<tag k="fixme" v="consider natural=peak for the most distinct mountains in the district" />
		<tag k="name" v="Skvalåsen" />
		<tag k="natural" v="hill" />
		<tag k="place" v="locality" />
		<tag k="ssr:stedsnr" v="914105" />
	</node>
	<node lat="59.800549999183076" lon="9.493769450912632" id="-18667">
		<tag k="fixme" v="consider natural=peak for the most distinct mountains in the district" />
		<tag k="name" v="Brennåsen" />
		<tag k="natural" v="hill" />
		<tag k="place" v="locality" />
		<tag k="ssr:stedsnr" v="915596" />
	</node>
	<node lat="59.82641944162275" lon="9.506944446501983" id="-18681">
		<tag k="name" v="Middagsdæla" />
		<tag k="natural" v="slope" />
		<tag k="place" v="locality" />
		<tag k="ssr:stedsnr" v="967990" />
	</node>
	<node lat="59.88629444263712" lon="9.282800004407733" id="-18685">
		<tag k="name" v="Bjønneskaret" />
		<tag k="natural" v="valley" />
		<tag k="place" v="locality" />
		<tag k="ssr:stedsnr" v="969341" />
	</node>
	<node lat="59.86161389328343" lon="9.509688886999557" id="-18693">
		<tag k="fixme" v="consider natural=peak for the most distinct mountains in the district" />
		<tag k="name" v="Ørsteinåsen" />
		<tag k="natural" v="hill" />
		<tag k="place" v="locality" />
		<tag k="ssr:stedsnr" v="4044" />
	</node>
	<node lat="59.919758336695644" lon="9.451169451574073" id="-18714">
		<tag k="name" v="Natten" />
		<tag k="natural" v="hill" />
		<tag k="place" v="locality" />
		<tag k="ssr:stedsnr" v="40088" />
	</node>
</osm>
