<?xml version="1.0" encoding="UTF-8"?>
<<<<<<< HEAD
<osm version="0.6" generator="osmapis">
	<node lat="59.79915833071614" lon="9.58221666064713" id="-17672">
		<tag k="alt_name" v="Svene" />
		<tag k="amenity" v="place_of_worship" />
		<tag k="denomination" v="lutheran" />
		<tag k="name" v="Svene kirke" />
		<tag k="religion" v="christian" />
		<tag k="ssr:stedsnr" v="24106" />
	</node>
	<node lat="59.738605557481016" lon="9.585022230673315" id="-17686">
		<tag k="name" v="Reinholplassen" />
=======
<osm generator="osmapis" version="0.6">
	<node id="-290938" lat="59.9288194471" lon="9.6137555581">
		<tag k="name" v="Smulkerud" />
		<tag k="place" v="locality" />
		<tag k="ssr:stedsnr" v="419311" />
	</node>
	<node id="-290937" lat="59.7703944473" lon="9.68739167428">
		<tag k="name" v="Larsbruene" />
		<tag k="place" v="locality" />
		<tag k="ssr:stedsnr" v="511778" />
	</node>
	<node id="-291832" lat="59.7556000016" lon="9.49953611501">
		<tag k="name" v="Pukkverksløkka" />
		<tag k="place" v="locality" />
		<tag k="ssr:stedsnr" v="362839" />
	</node>
	<node id="-290935" lat="59.7439361126" lon="9.56138332622">
		<tag k="name" v="Jokkumplassen" />
		<tag k="place" v="locality" />
		<tag k="ssr:stedsnr" v="406826" />
	</node>
	<node id="-291433" lat="59.9106750007" lon="9.52872222197">
		<tag k="alt_name" v="Lyngdal" />
		<tag k="amenity" v="place_of_worship" />
		<tag k="denomination" v="lutheran" />
		<tag k="name" v="Lyngdal kirke" />
		<tag k="religion" v="christian" />
		<tag k="ssr:stedsnr" v="944004" />
	</node>
	<node id="-291955" lat="59.8524944438" lon="9.45636388709">
		<tag k="name" v="Neset Skydsstasjon" />
		<tag k="place" v="locality" />
		<tag k="ssr:stedsnr" v="525314" />
	</node>
	<node id="-292338" lat="59.9283194439" lon="9.61904166353">
		<tag k="name" v="Barselsplassen" />
		<tag k="place" v="locality" />
		<tag k="ssr:stedsnr" v="965334" />
	</node>
	<node id="-292081" lat="59.8470083328" lon="9.48396944422">
		<tag k="name" v="Krokmogen" />
		<tag k="place" v="locality" />
		<tag k="ssr:stedsnr" v="604471" />
	</node>
	<node id="-291952" lat="59.9101805531" lon="9.3888527766">
		<tag k="name" v="Kvennhølen" />
		<tag k="place" v="locality" />
		<tag k="ssr:stedsnr" v="525239" />
	</node>
	<node id="-291240" lat="59.8807305525" lon="9.3902944518">
		<tag k="name" v="Langestrand" />
		<tag k="place" v="locality" />
		<tag k="ssr:stedsnr" v="666354" />
	</node>
	<node id="-291438" lat="59.9413194401" lon="9.57563332583">
		<tag k="name" v="Ingeburudplassen" />
		<tag k="place" v="locality" />
		<tag k="ssr:stedsnr" v="965353" />
	</node>
	<node id="-291051" lat="59.9471027822" lon="9.59603054682">
		<tag k="name" v="Sølvsethagen" />
		<tag k="place" v="locality" />
		<tag k="ssr:stedsnr" v="479315" />
	</node>
	<node id="-291561" lat="59.9596750013" lon="9.48389166702">
		<tag k="name" v="Hegna" />
>>>>>>> e1d4bc35ff8a6074a6f2e91616a996b547c36f15
		<tag k="place" v="locality" />
		<tag k="ssr:stedsnr" v="41815" />
	</node>
<<<<<<< HEAD
	<node lat="59.879108335720126" lon="9.63833054669472" id="-17698">
		<tag k="name" v="Bakketjernbråtan" />
=======
	<node id="-292328" lat="59.8210611148" lon="9.55558055442">
		<tag k="name" v="Sotrud" />
>>>>>>> e1d4bc35ff8a6074a6f2e91616a996b547c36f15
		<tag k="place" v="locality" />
		<tag k="ssr:stedsnr" v="57526" />
	</node>
<<<<<<< HEAD
	<node lat="59.82735000031585" lon="9.443266664344904" id="-17774">
=======
	<node id="-292069" lat="59.8180583329" lon="9.54376388394">
		<tag k="name" v="Eneren" />
		<tag k="place" v="locality" />
		<tag k="ssr:stedsnr" v="602986" />
	</node>
	<node id="-291682" lat="59.8887333357" lon="9.38956665782">
		<tag k="name" v="Breivad" />
		<tag k="place" v="locality" />
		<tag k="ssr:stedsnr" v="180344" />
	</node>
	<node id="-292045" lat="59.9134000032" lon="9.43316666819">
		<tag k="name" v="Vermeland" />
		<tag k="place" v="locality" />
		<tag k="ssr:stedsnr" v="586093" />
	</node>
	<node id="-292190" lat="59.9461222224" lon="9.48686110967">
		<tag k="name" v="Torget" />
		<tag k="place" v="locality" />
		<tag k="ssr:stedsnr" v="785944" />
	</node>
	<node id="-291571" lat="59.8273500003" lon="9.44326666434">
>>>>>>> e1d4bc35ff8a6074a6f2e91616a996b547c36f15
		<tag k="name" v="Viermyr" />
		<tag k="place" v="locality" />
		<tag k="ssr:stedsnr" v="102826" />
	</node>
<<<<<<< HEAD
	<node lat="59.88608888528932" lon="9.480766662856226" id="-17846">
		<tag k="name" v="Spekkulerplassen" />
		<tag k="place" v="locality" />
		<tag k="ssr:stedsnr" v="222122" />
	</node>
	<node lat="59.922019442674916" lon="9.496863885778225" id="-17866">
=======
	<node id="-290822" lat="59.8451666704" lon="9.4100972249">
		<tag k="name" v="Svensbråtan" />
		<tag k="place" v="locality" />
		<tag k="ssr:stedsnr" v="301505" />
	</node>
	<node id="-290637" lat="59.9220194427" lon="9.49686388578">
>>>>>>> e1d4bc35ff8a6074a6f2e91616a996b547c36f15
		<tag k="name" v="Roajordet" />
		<tag k="place" v="locality" />
		<tag k="ssr:stedsnr" v="239931" />
	</node>
<<<<<<< HEAD
	<node lat="59.84516667036935" lon="9.410097224899436" id="-17919">
		<tag k="name" v="Svensbråtan" />
=======
	<node id="-290758" lat="59.9116777798" lon="9.39246389539">
		<tag k="name" v="Hagaflata" />
>>>>>>> e1d4bc35ff8a6074a6f2e91616a996b547c36f15
		<tag k="place" v="locality" />
		<tag k="ssr:stedsnr" v="301505" />
	</node>
<<<<<<< HEAD
	<node lat="59.94710278217332" lon="9.59603054681713" id="-18013">
		<tag k="name" v="Sølvsethagen" />
=======
	<node id="-291653" lat="59.8127472199" lon="9.56758333821">
		<tag k="name" v="Klypen" />
>>>>>>> e1d4bc35ff8a6074a6f2e91616a996b547c36f15
		<tag k="place" v="locality" />
		<tag k="ssr:stedsnr" v="479315" />
	</node>
<<<<<<< HEAD
	<node lat="59.91028055842149" lon="9.473319449447228" id="-18030">
		<tag k="name" v="Nordli" />
=======
	<node id="-292292" lat="59.9230694478" lon="9.54476388693">
		<tag k="name" v="Bråtån" />
>>>>>>> e1d4bc35ff8a6074a6f2e91616a996b547c36f15
		<tag k="place" v="locality" />
		<tag k="ssr:stedsnr" v="404086" />
	</node>
<<<<<<< HEAD
	<node lat="59.89701111206935" lon="9.361997223766018" id="-18032">
		<tag k="name" v="Meengstøa" />
=======
	<node id="-291265" lat="59.7729277811" lon="9.57451111956">
		<tag k="name" v="Slambusholet" />
>>>>>>> e1d4bc35ff8a6074a6f2e91616a996b547c36f15
		<tag k="place" v="locality" />
		<tag k="ssr:stedsnr" v="404231" />
	</node>
<<<<<<< HEAD
	<node lat="59.928819447137265" lon="9.613755558097278" id="-18041">
		<tag k="name" v="Smulkerud" />
=======
	<node id="-291263" lat="59.9078305561" lon="9.36901665785">
		<tag k="name" v="Bekkerud" />
>>>>>>> e1d4bc35ff8a6074a6f2e91616a996b547c36f15
		<tag k="place" v="locality" />
		<tag k="ssr:stedsnr" v="419311" />
	</node>
<<<<<<< HEAD
	<node lat="59.92683333158232" lon="9.613897215646597" id="-18216">
		<tag k="name" v="Letmoliplassen" />
=======
	<node id="-291262" lat="59.9094111127" lon="9.38764721907">
		<tag k="name" v="Haland" />
>>>>>>> e1d4bc35ff8a6074a6f2e91616a996b547c36f15
		<tag k="place" v="locality" />
		<tag k="ssr:stedsnr" v="540313" />
	</node>
<<<<<<< HEAD
	<node lat="59.853147220697856" lon="9.565719443740965" id="-18218">
		<tag k="name" v="Smettinn" />
=======
	<node id="-292285" lat="59.8128638891" lon="9.52449444527">
		<tag k="name" v="Nommeni" />
>>>>>>> e1d4bc35ff8a6074a6f2e91616a996b547c36f15
		<tag k="place" v="locality" />
		<tag k="ssr:stedsnr" v="543513" />
	</node>
<<<<<<< HEAD
	<node lat="59.83425277632209" lon="9.408338889572262" id="-18222">
		<tag k="name" v="Bråtan" />
=======
	<node id="-290748" lat="59.8597138845" lon="9.41309723103">
		<tag k="name" v="Bruhaugsvingen" />
>>>>>>> e1d4bc35ff8a6074a6f2e91616a996b547c36f15
		<tag k="place" v="locality" />
		<tag k="ssr:stedsnr" v="544506" />
	</node>
<<<<<<< HEAD
	<node lat="59.91340000323504" lon="9.433166668191344" id="-18248">
		<tag k="name" v="Vermeland" />
=======
	<node id="-291898" lat="59.8747166643" lon="9.59214444047">
		<tag k="name" v="Sollid" />
>>>>>>> e1d4bc35ff8a6074a6f2e91616a996b547c36f15
		<tag k="place" v="locality" />
		<tag k="ssr:stedsnr" v="586093" />
	</node>
<<<<<<< HEAD
	<node lat="59.81869166866024" lon="9.57818888253097" id="-18298">
		<tag k="name" v="Snekkerplassen" />
=======
	<node id="-291257" lat="59.9102861129" lon="9.46702500829">
		<tag k="name" v="Gunnarsgård" />
>>>>>>> e1d4bc35ff8a6074a6f2e91616a996b547c36f15
		<tag k="place" v="locality" />
		<tag k="ssr:stedsnr" v="647680" />
	</node>
<<<<<<< HEAD
	<node lat="59.910816662750875" lon="9.360358329774625" id="-18303">
		<tag k="name" v="Storkastet" />
=======
	<node id="-291511" lat="59.8791083357" lon="9.63833054669">
		<tag k="name" v="Bakketjernbråtan" />
>>>>>>> e1d4bc35ff8a6074a6f2e91616a996b547c36f15
		<tag k="place" v="locality" />
		<tag k="ssr:stedsnr" v="708232" />
	</node>
<<<<<<< HEAD
	<node lat="59.749974999557054" lon="9.612838892040386" id="-18309">
		<tag k="name" v="Hararoa" />
		<tag k="place" v="locality" />
		<tag k="ssr:stedsnr" v="708848" />
	</node>
	<node lat="59.81719999922233" lon="9.540450003966246" id="-18316">
=======
	<node id="-290993" lat="59.8171999992" lon="9.54045000397">
>>>>>>> e1d4bc35ff8a6074a6f2e91616a996b547c36f15
		<tag k="name" v="Toeren" />
		<tag k="place" v="locality" />
		<tag k="ssr:stedsnr" v="663986" />
	</node>
<<<<<<< HEAD
	<node lat="59.92300555311789" lon="9.520991666989385" id="-18318">
		<tag k="name" v="Slåttebråtan" />
=======
	<node id="-290607" lat="59.7386055575" lon="9.58502223067">
		<tag k="name" v="Reinholplassen" />
		<tag k="place" v="locality" />
		<tag k="ssr:stedsnr" v="41815" />
	</node>
	<node id="-290733" lat="59.9034694425" lon="9.51292777044">
		<tag k="name" v="Vebrandsplassen" />
		<tag k="place" v="locality" />
		<tag k="ssr:stedsnr" v="161106" />
	</node>
	<node id="-292267" lat="59.8229472264" lon="9.57219722109">
		<tag k="name" v="Strykopp" />
		<tag k="place" v="locality" />
		<tag k="ssr:stedsnr" v="830686" />
	</node>
	<node id="-292136" lat="59.8186916687" lon="9.57818888253">
		<tag k="name" v="Snekkerplassen" />
>>>>>>> e1d4bc35ff8a6074a6f2e91616a996b547c36f15
		<tag k="place" v="locality" />
		<tag k="ssr:stedsnr" v="664911" />
	</node>
<<<<<<< HEAD
	<node lat="59.877466666939924" lon="9.373180554889851" id="-18326">
		<tag k="name" v="Tave" />
=======
	<node id="-291879" lat="59.8970111121" lon="9.36199722377">
		<tag k="name" v="Meengstøa" />
>>>>>>> e1d4bc35ff8a6074a6f2e91616a996b547c36f15
		<tag k="place" v="locality" />
		<tag k="ssr:stedsnr" v="404231" />
	</node>
<<<<<<< HEAD
	<node lat="59.88073055253478" lon="9.39029445180127" id="-18327">
		<tag k="name" v="Langestrand" />
=======
	<node id="-291493" lat="59.8627194464" lon="9.43311389003">
		<tag k="alt_name" v="Flesberg" />
		<tag k="amenity" v="place_of_worship" />
		<tag k="denomination" v="lutheran" />
		<tag k="name" v="Flesberg stavkirke" />
		<tag k="religion" v="christian" />
		<tag k="ssr:stedsnr" v="33084" />
	</node>
	<node id="-290596" lat="59.7991583307" lon="9.58221666065">
		<tag k="alt_name" v="Svene" />
		<tag k="amenity" v="place_of_worship" />
		<tag k="denomination" v="lutheran" />
		<tag k="name" v="Svene kirke" />
		<tag k="religion" v="christian" />
		<tag k="ssr:stedsnr" v="24106" />
	</node>
	<node id="-291875" lat="59.9102805584" lon="9.47331944945">
		<tag k="name" v="Nordli" />
		<tag k="place" v="locality" />
		<tag k="ssr:stedsnr" v="404086" />
	</node>
	<node id="-291103" lat="59.7499749996" lon="9.61283889204">
		<tag k="name" v="Hararoa" />
>>>>>>> e1d4bc35ff8a6074a6f2e91616a996b547c36f15
		<tag k="place" v="locality" />
		<tag k="ssr:stedsnr" v="666354" />
	</node>
<<<<<<< HEAD
	<node lat="59.909411112650794" lon="9.387647219071157" id="-18332">
		<tag k="name" v="Haland" />
		<tag k="place" v="locality" />
		<tag k="ssr:stedsnr" v="890238" />
	</node>
	<node lat="59.90783055612945" lon="9.369016657849265" id="-18333">
		<tag k="name" v="Bekkerud" />
=======
	<node id="-291230" lat="59.9230055531" lon="9.52099166699">
		<tag k="name" v="Slåttebråtan" />
		<tag k="place" v="locality" />
		<tag k="ssr:stedsnr" v="664911" />
	</node>
	<node id="-290599" lat="59.9134472236" lon="9.52393610514">
		<tag k="amenity" v="community_centre" />
		<tag k="name" v="Høgheim" />
		<tag k="ssr:stedsnr" v="40074" />
	</node>
	<node id="-291239" lat="59.8774666669" lon="9.37318055489">
		<tag k="name" v="Tave" />
		<tag k="place" v="locality" />
		<tag k="ssr:stedsnr" v="666349" />
	</node>
	<node id="-291095" lat="59.9108166628" lon="9.36035832977">
		<tag k="name" v="Storkastet" />
>>>>>>> e1d4bc35ff8a6074a6f2e91616a996b547c36f15
		<tag k="place" v="locality" />
		<tag k="ssr:stedsnr" v="890239" />
	</node>
<<<<<<< HEAD
	<node lat="59.77292778107533" lon="9.574511119559766" id="-18354">
		<tag k="name" v="Slambusholet" />
=======
	<node id="-292245" lat="59.7402111099" lon="9.7010166644">
		<tag k="name" v="Ullandsaga" />
>>>>>>> e1d4bc35ff8a6074a6f2e91616a996b547c36f15
		<tag k="place" v="locality" />
		<tag k="ssr:stedsnr" v="890685" />
	</node>
<<<<<<< HEAD
	<node lat="59.911608336424976" lon="9.480688885013622" id="-18359">
		<tag k="name" v="Strandeplassen" />
=======
	<node id="-291822" lat="59.910861109" lon="9.55924444744">
		<tag k="name" v="Sotebråtan" />
>>>>>>> e1d4bc35ff8a6074a6f2e91616a996b547c36f15
		<tag k="place" v="locality" />
		<tag k="ssr:stedsnr" v="358336" />
	</node>
<<<<<<< HEAD
	<node lat="59.822947226361876" lon="9.57219722108589" id="-18505">
		<tag k="name" v="Strykopp" />
		<tag k="place" v="locality" />
		<tag k="ssr:stedsnr" v="830686" />
	</node>
	<node lat="59.812863889131634" lon="9.524494445268376" id="-18519">
		<tag k="name" v="Nommeni" />
		<tag k="place" v="locality" />
		<tag k="ssr:stedsnr" v="846990" />
	</node>
	<node lat="59.91028611290445" lon="9.467025008291893" id="-18544">
		<tag k="name" v="Gunnarsgård" />
		<tag k="place" v="locality" />
		<tag k="ssr:stedsnr" v="890114" />
	</node>
	<node lat="59.82106111481341" lon="9.555580554415409" id="-18585">
		<tag k="name" v="Sotrud" />
		<tag k="place" v="locality" />
		<tag k="ssr:stedsnr" v="951693" />
	</node>
	<node lat="59.928319443923165" lon="9.61904166353184" id="-18591">
		<tag k="name" v="Barselsplassen" />
		<tag k="place" v="locality" />
		<tag k="ssr:stedsnr" v="965334" />
	</node>
	<node lat="59.86271944635194" lon="9.43311389003213" id="-18625">
		<tag k="alt_name" v="Flesberg" />
		<tag k="amenity" v="place_of_worship" />
		<tag k="denomination" v="lutheran" />
		<tag k="name" v="Flesberg stavkirke" />
		<tag k="religion" v="christian" />
		<tag k="ssr:stedsnr" v="33084" />
	</node>
	<node lat="59.91344722361842" lon="9.523936105143287" id="-18626">
		<tag k="amenity" v="community_centre" />
		<tag k="name" v="Høgheim" />
		<tag k="ssr:stedsnr" v="40074" />
=======
	<node id="-291982" lat="59.9396222214" lon="9.41888611504">
		<tag k="name" v="Snåbu" />
		<tag k="place" v="locality" />
		<tag k="ssr:stedsnr" v="543896" />
	</node>
	<node id="-290572" lat="59.8860888853" lon="9.48076666286">
		<tag k="name" v="Spekkulerplassen" />
		<tag k="place" v="locality" />
		<tag k="ssr:stedsnr" v="222122" />
	</node>
	<node id="-291588" lat="59.9194916684" lon="9.53229444821">
		<tag k="name" v="Bjønnerud" />
		<tag k="place" v="locality" />
		<tag k="ssr:stedsnr" v="118898" />
	</node>
	<node id="-291082" lat="59.8342527763" lon="9.40833888957">
		<tag k="name" v="Bråtan" />
		<tag k="place" v="locality" />
		<tag k="ssr:stedsnr" v="544506" />
	</node>
	<node id="-291091" lat="59.9116083364" lon="9.48068888501">
		<tag k="name" v="Strandeplassen" />
		<tag k="place" v="locality" />
		<tag k="ssr:stedsnr" v="707073" />
	</node>
	<node id="-291079" lat="59.8531472207" lon="9.56571944374">
		<tag k="name" v="Smettinn" />
		<tag k="place" v="locality" />
		<tag k="ssr:stedsnr" v="543513" />
	</node>
	<node id="-291590" lat="59.9444138856" lon="9.46491111013">
		<tag k="name" v="Hegna" />
		<tag k="place" v="locality" />
		<tag k="ssr:stedsnr" v="118931" />
	</node>
	<node id="-291972" lat="59.9268333316" lon="9.61389721565">
		<tag k="name" v="Letmoliplassen" />
		<tag k="place" v="locality" />
		<tag k="ssr:stedsnr" v="540313" />
>>>>>>> e1d4bc35ff8a6074a6f2e91616a996b547c36f15
	</node>
</osm>
