<?xml version="1.0" encoding="UTF-8"?>
<osm version="0.6" generator="osmapis">
	<node lat="59.7781000015023" lon="9.554030551732497" id="-18539">
		<tag k="name" v="Hakkelberg skog" />
		<tag k="place" v="locality" />
		<tag k="ssr:stedsnr" v="40665" />
	</node>
	<node lat="59.96848333201734" lon="9.569530553010043" id="-18542">
		<tag k="name" v="Rustadlandet" />
		<tag k="place" v="locality" />
		<tag k="ssr:stedsnr" v="237324" />
	</node>
	<node lat="59.920650000024416" lon="9.648822224393236" id="-18552">
		<tag k="name" v="Ulvemyra" />
		<tag k="natural" v="wetland" />
		<tag k="ssr:stedsnr" v="55293" />
	</node>
	<node lat="59.79966389121263" lon="9.430638890455672" id="-18560">
		<tag k="name" v="Krullmyra" />
		<tag k="natural" v="wetland" />
		<tag k="ssr:stedsnr" v="57784" />
	</node>
	<node lat="59.86311666303981" lon="9.18920556194347" id="-18566">
		<tag k="name" v="Gvervsteinura" />
		<tag k="natural" v="scree" />
		<tag k="ssr:stedsnr" v="59488" />
	</node>
	<node lat="59.75684722527183" lon="9.516052778044143" id="-18567">
		<tag k="name" v="Fosseterstykket" />
		<tag k="place" v="locality" />
		<tag k="ssr:stedsnr" v="59820" />
	</node>
	<node lat="59.82403888588227" lon="9.290938884294238" id="-18582">
		<tag k="name" v="Løkemyra" />
		<tag k="natural" v="wetland" />
		<tag k="ssr:stedsnr" v="65083" />
	</node>
	<node lat="59.9782361131738" lon="9.463502770668795" id="-18594">
		<tag k="name" v="Ellingsbråtån" />
		<tag k="place" v="locality" />
		<tag k="ssr:stedsnr" v="246289" />
	</node>
	<node lat="59.74568888994924" lon="9.533086116177856" id="-18619">
		<tag k="name" v="Jondalsmyrene" />
		<tag k="natural" v="wetland" />
		<tag k="ssr:stedsnr" v="301833" />
	</node>
	<node lat="59.95009444248396" lon="9.538816659863713" id="-18627">
		<tag k="name" v="Gampemyra" />
		<tag k="natural" v="wetland" />
		<tag k="ssr:stedsnr" v="100718" />
	</node>
	<node lat="59.9662833354939" lon="9.437833332958771" id="-18628">
		<tag k="name" v="Stormyran" />
		<tag k="natural" v="wetland" />
		<tag k="ssr:stedsnr" v="100726" />
	</node>
	<node lat="59.88510833521772" lon="9.635944439649089" id="-18644">
		<tag k="name" v="Ramnemyrane" />
		<tag k="natural" v="wetland" />
		<tag k="ssr:stedsnr" v="118511" />
	</node>
	<node lat="59.92498333719856" lon="9.482008340916659" id="-18675">
		<tag k="name" v="Raumyr" />
		<tag k="natural" v="wetland" />
		<tag k="ssr:stedsnr" v="179914" />
	</node>
	<node lat="59.83410278199334" lon="9.448850004350403" id="-18677">
		<tag k="name" v="Vintermyra" />
		<tag k="natural" v="wetland" />
		<tag k="ssr:stedsnr" v="180467" />
	</node>
	<node lat="59.75688333147284" lon="9.694563895908576" id="-18702">
		<tag k="name" v="Sjutjennsmyrane" />
		<tag k="natural" v="wetland" />
		<tag k="ssr:stedsnr" v="269455" />
	</node>
	<node lat="59.804569448601" lon="9.573611113089246" id="-18715">
		<tag k="name" v="Svenejordet" />
		<tag k="place" v="locality" />
		<tag k="ssr:stedsnr" v="223722" />
	</node>
	<node lat="59.73594444801667" lon="9.484780550975575" id="-18728">
		<tag k="historic" v="shieling" />
		<tag k="name" v="Lindbusetra" />
		<tag k="place" v="locality" />
		<tag k="ssr:stedsnr" v="241811" />
	</node>
	<node lat="59.75995555419607" lon="9.535877781094026" id="-18729">
		<tag k="name" v="Holbekkmyra" />
		<tag k="natural" v="wetland" />
		<tag k="ssr:stedsnr" v="241829" />
	</node>
	<node lat="59.905805554997585" lon="9.526066660222979" id="-18756">
		<tag k="landuse" v="meadow" />
		<tag k="name" v="Ringdansen" />
		<tag k="ssr:stedsnr" v="283075" />
	</node>
	<node lat="59.96444444020864" lon="9.473088894580696" id="-18759">
		<tag k="name" v="Diplemyr" />
		<tag k="natural" v="wetland" />
		<tag k="ssr:stedsnr" v="283776" />
	</node>
	<node lat="59.924583334107325" lon="9.485758327081761" id="-18774">
		<tag k="name" v="Stormyra" />
		<tag k="natural" v="wetland" />
		<tag k="ssr:stedsnr" v="300903" />
	</node>
	<node lat="59.75913611459236" lon="9.485527777912921" id="-18780">
		<tag k="name" v="Mårtmannsstykket" />
		<tag k="place" v="locality" />
		<tag k="ssr:stedsnr" v="301831" />
	</node>
	<node lat="59.783986109504866" lon="9.499158327723041" id="-18781">
		<tag k="landuse" v="quarry" />
		<tag k="name" v="Prinsesse Louise" />
		<tag k="ssr:stedsnr" v="301792" />
	</node>
	<node lat="59.765713892931586" lon="9.525838894569462" id="-18783">
		<tag k="landuse" v="quarry" />
		<tag k="name" v="Glück auf" />
		<tag k="ssr:stedsnr" v="301795" />
	</node>
	<node lat="59.897336109947666" lon="9.537927783569934" id="-18785">
		<tag k="name" v="Hagastykket" />
		<tag k="place" v="locality" />
		<tag k="ssr:stedsnr" v="464080" />
	</node>
	<node lat="59.883783332213795" lon="9.381933341968518" id="-18786">
		<tag k="landuse" v="meadow" />
		<tag k="name" v="Stærenga" />
		<tag k="ssr:stedsnr" v="302373" />
	</node>
	<node lat="59.97156944367719" lon="9.496497226377933" id="-18789">
		<tag k="name" v="Orremyr" />
		<tag k="natural" v="wetland" />
		<tag k="ssr:stedsnr" v="464792" />
	</node>
	<node lat="59.958705557976224" lon="9.475855555163339" id="-18790">
		<tag k="name" v="Botnanhagen" />
		<tag k="place" v="locality" />
		<tag k="ssr:stedsnr" v="464797" />
	</node>
	<node lat="59.826091663309455" lon="9.42054167026813" id="-18795">
		<tag k="name" v="Langemyra" />
		<tag k="natural" v="wetland" />
		<tag k="ssr:stedsnr" v="307109" />
	</node>
	<node lat="59.93488611055024" lon="9.502086116973537" id="-18799">
		<tag k="name" v="Lågmyran" />
		<tag k="natural" v="wetland" />
		<tag k="ssr:stedsnr" v="307190" />
	</node>
	<node lat="59.819233332293436" lon="9.55697777667123" id="-18810">
		<tag k="name" v="Søre Sotrudflata" />
		<tag k="place" v="locality" />
		<tag k="ssr:stedsnr" v="465674" />
	</node>
	<node lat="59.76192778203438" lon="9.495091668573119" id="-18812">
		<tag k="name" v="Røyrlinemyra" />
		<tag k="natural" v="wetland" />
		<tag k="ssr:stedsnr" v="308000" />
	</node>
	<node lat="59.75436111545095" lon="9.56383610962518" id="-18819">
		<tag k="name" v="Brannkåsmyra" />
		<tag k="natural" v="wetland" />
		<tag k="ssr:stedsnr" v="466843" />
	</node>
	<node lat="59.90548055430964" lon="9.513333339592503" id="-18827">
		<tag k="landuse" v="meadow" />
		<tag k="name" v="Livlandsenga" />
		<tag k="ssr:stedsnr" v="343095" />
	</node>
	<node lat="59.889194446692336" lon="9.611541669616408" id="-18876">
		<tag k="name" v="Nitjernmyra" />
		<tag k="natural" v="wetland" />
		<tag k="ssr:stedsnr" v="482567" />
	</node>
	<node lat="59.91867222213641" lon="9.515058324939211" id="-18879">
		<tag k="name" v="Sildehølen" />
		<tag k="natural" v="wetland" />
		<tag k="ssr:stedsnr" v="482875" />
	</node>
	<node lat="59.746180552149234" lon="9.675861109083487" id="-18894">
		<tag k="name" v="Løkemyr" />
		<tag k="natural" v="wetland" />
		<tag k="ssr:stedsnr" v="405690" />
	</node>
	<node lat="59.95396666566558" lon="9.49254444207023" id="-18931">
		<tag k="name" v="Blåmyra" />
		<tag k="natural" v="wetland" />
		<tag k="ssr:stedsnr" v="422946" />
	</node>
	<node lat="59.844572221283265" lon="9.344616664903164" id="-18940">
		<tag k="name" v="Orsonmyra" />
		<tag k="natural" v="wetland" />
		<tag k="ssr:stedsnr" v="423546" />
	</node>
	<node lat="59.76658333573814" lon="9.510469450276323" id="-18943">
		<tag k="landuse" v="quarry" />
		<tag k="name" v="Norske Løve" />
		<tag k="ssr:stedsnr" v="423857" />
	</node>
	<node lat="59.73230000003296" lon="9.531913884328445" id="-18962">
		<tag k="name" v="Sandbakkmyra" />
		<tag k="natural" v="wetland" />
		<tag k="ssr:stedsnr" v="428403" />
	</node>
	<node lat="59.86804444188196" lon="9.62704443874317" id="-18978">
		<tag k="name" v="Dei store myran" />
		<tag k="natural" v="wetland" />
		<tag k="ssr:stedsnr" v="429612" />
	</node>
	<node lat="59.905316667905225" lon="9.584841658344528" id="-18994">
		<tag k="name" v="Gormyr" />
		<tag k="natural" v="wetland" />
		<tag k="ssr:stedsnr" v="671231" />
	</node>
	<node lat="59.871305552604696" lon="9.31883888442992" id="-19109">
		<tag k="name" v="Krokmyran" />
		<tag k="natural" v="wetland" />
		<tag k="ssr:stedsnr" v="586310" />
	</node>
	<node lat="59.77625000377788" lon="9.631361116548387" id="-19112">
		<tag k="name" v="Diplemyr" />
		<tag k="natural" v="wetland" />
		<tag k="ssr:stedsnr" v="587661" />
	</node>
	<node lat="59.91344444308631" lon="9.608033329162339" id="-19117">
		<tag k="name" v="Røyrmyr" />
		<tag k="natural" v="wetland" />
		<tag k="ssr:stedsnr" v="601300" />
	</node>
	<node lat="59.83113888675613" lon="9.41354722397728" id="-19123">
		<tag k="name" v="Heggemyra" />
		<tag k="natural" v="wetland" />
		<tag k="ssr:stedsnr" v="604503" />
	</node>
	<node lat="59.828252775473075" lon="9.439122213753334" id="-19124">
		<tag k="name" v="Måsåmyra" />
		<tag k="natural" v="wetland" />
		<tag k="ssr:stedsnr" v="604507" />
	</node>
	<node lat="59.754244445149666" lon="9.691633337677256" id="-19135">
		<tag k="name" v="Sjutjennmyra" />
		<tag k="natural" v="wetland" />
		<tag k="ssr:stedsnr" v="610610" />
	</node>
	<node lat="59.82465000021024" lon="9.618147230380197" id="-19141">
		<tag k="name" v="Skåkåsmyran" />
		<tag k="natural" v="wetland" />
		<tag k="ssr:stedsnr" v="610716" />
	</node>
	<node lat="59.89763055361785" lon="9.355766662957098" id="-19154">
		<tag k="landuse" v="meadow" />
		<tag k="name" v="Meenga" />
		<tag k="ssr:stedsnr" v="646233" />
	</node>
	<node lat="59.856422226669245" lon="9.411288887942769" id="-19155">
		<tag k="name" v="Engemyra" />
		<tag k="natural" v="wetland" />
		<tag k="ssr:stedsnr" v="646283" />
	</node>
	<node lat="59.96384721810437" lon="9.51552499876254" id="-19160">
		<tag k="historic" v="shieling" />
		<tag k="name" v="Buinsetra" />
		<tag k="place" v="locality" />
		<tag k="ssr:stedsnr" v="707783" />
	</node>
	<node lat="59.87664166365532" lon="9.633888894626502" id="-19175">
		<tag k="name" v="Skråmyr" />
		<tag k="natural" v="wetland" />
		<tag k="ssr:stedsnr" v="664535" />
	</node>
	<node lat="59.848805556768525" lon="9.437555554255267" id="-19177">
		<tag k="name" v="Høymyrsengan" />
		<tag k="place" v="locality" />
		<tag k="ssr:stedsnr" v="665513" />
	</node>
	<node lat="59.85509999853182" lon="9.471394448182467" id="-19200">
		<tag k="name" v="Nordre Blåmyra" />
		<tag k="natural" v="wetland" />
		<tag k="ssr:stedsnr" v="890266" />
	</node>
	<node lat="59.85055555124622" lon="9.478950002861463" id="-19218">
		<tag k="landuse" v="meadow" />
		<tag k="name" v="Bergsenga" />
		<tag k="ssr:stedsnr" v="707316" />
	</node>
	<node lat="59.948472218275654" lon="9.462711109696984" id="-19237">
		<tag k="name" v="Geitnessteinen" />
		<tag k="natural" v="stone" />
		<tag k="ssr:stedsnr" v="725916" />
	</node>
	<node lat="59.83424166960389" lon="9.36905832610864" id="-19241">
		<tag k="historic" v="shieling" />
		<tag k="name" v="Nysetra" />
		<tag k="place" v="locality" />
		<tag k="ssr:stedsnr" v="726533" />
	</node>
	<node lat="59.8056277752682" lon="9.410216664726175" id="-19278">
		<tag k="historic" v="shieling" />
		<tag k="name" v="Søre Gjellerudsetra" />
		<tag k="place" v="locality" />
		<tag k="ssr:stedsnr" v="905245" />
	</node>
	<node lat="59.90840833161191" lon="9.640483331630874" id="-19280">
		<tag k="name" v="Setermyr" />
		<tag k="natural" v="wetland" />
		<tag k="ssr:stedsnr" v="905344" />
	</node>
	<node lat="59.82362222306547" lon="9.410491661846617" id="-19282">
		<tag k="name" v="Vegbunnmyra" />
		<tag k="natural" v="wetland" />
		<tag k="ssr:stedsnr" v="906976" />
	</node>
	<node lat="59.82519722548368" lon="9.437816658286659" id="-19283">
		<tag k="name" v="Kulpmyra" />
		<tag k="natural" v="wetland" />
		<tag k="ssr:stedsnr" v="906994" />
	</node>
	<node lat="59.8417944406742" lon="9.387858338800234" id="-19299">
		<tag k="name" v="Tømmermyra" />
		<tag k="natural" v="wetland" />
		<tag k="ssr:stedsnr" v="908539" />
	</node>
	<node lat="59.94762500251537" lon="9.591038894145614" id="-19326">
		<tag k="name" v="Løkmyran" />
		<tag k="natural" v="wetland" />
		<tag k="ssr:stedsnr" v="793147" />
	</node>
	<node lat="59.777927773466565" lon="9.707474992471699" id="-19329">
		<tag k="historic" v="shieling" />
		<tag k="name" v="Ullandsetra" />
		<tag k="place" v="locality" />
		<tag k="ssr:stedsnr" v="793624" />
	</node>
	<node lat="59.90167222013488" lon="9.477363892500229" id="-19344">
		<tag k="name" v="Vasslimyra" />
		<tag k="natural" v="wetland" />
		<tag k="ssr:stedsnr" v="914243" />
	</node>
	<node lat="59.94978611544105" lon="9.561208339941665" id="-19365">
		<tag k="name" v="Ulvemyr" />
		<tag k="natural" v="wetland" />
		<tag k="ssr:stedsnr" v="844307" />
	</node>
	<node lat="59.93746944381178" lon="9.587661117542353" id="-19366">
		<tag k="name" v="Pinkerudlandet" />
		<tag k="place" v="locality" />
		<tag k="ssr:stedsnr" v="844311" />
	</node>
	<node lat="59.844755552643335" lon="9.680250006193868" id="-19371">
		<tag k="name" v="Stormyra" />
		<tag k="natural" v="wetland" />
		<tag k="ssr:stedsnr" v="846506" />
	</node>
	<node lat="59.81380833182649" lon="9.682597220946151" id="-19375">
		<tag k="historic" v="shieling" />
		<tag k="name" v="Koppangsetra" />
		<tag k="place" v="locality" />
		<tag k="ssr:stedsnr" v="846723" />
	</node>
	<node lat="59.82458055266372" lon="9.41699722839604" id="-19378">
		<tag k="name" v="Kjørkjemyra" />
		<tag k="natural" v="wetland" />
		<tag k="ssr:stedsnr" v="846997" />
	</node>
	<node lat="59.79402500172285" lon="9.438941669131792" id="-19411">
		<tag k="name" v="Tonmyra" />
		<tag k="natural" v="wetland" />
		<tag k="ssr:stedsnr" v="902625" />
	</node>
	<node lat="59.861972222047704" lon="9.592580549255583" id="-19417">
		<tag k="name" v="Torvmyra" />
		<tag k="natural" v="wetland" />
		<tag k="ssr:stedsnr" v="907509" />
	</node>
	<node lat="59.91616389122129" lon="9.416499999733453" id="-19431">
		<tag k="name" v="Hamremyra" />
		<tag k="natural" v="wetland" />
		<tag k="ssr:stedsnr" v="914203" />
	</node>
	<node lat="59.86968055413738" lon="9.383344444547127" id="-19441">
		<tag k="name" v="Smauget" />
		<tag k="place" v="locality" />
		<tag k="ssr:stedsnr" v="950301" />
	</node>
	<node lat="59.826855552300394" lon="9.429972213440601" id="-19453">
		<tag k="name" v="Skrukkemyra" />
		<tag k="natural" v="wetland" />
		<tag k="ssr:stedsnr" v="967996" />
	</node>
</osm>
