<?xml version="1.0" encoding="UTF-8"?>
<osm version="0.6" generator="osmapis">
	<node lat="59.88062777735858" lon="9.521149997747049" id="-17649">
		<tag k="name" v="Vatnebrynnvatnet" />
		<tag k="natural" v="water" />
		<tag k="old_name" v="Vatnebryn Vd:" />
		<tag k="ssr:stedsnr" v="3024" />
		<tag k="water" v="lake" />
	</node>
	<node lat="59.73324999919803" lon="9.489583338725293" id="-17651">
		<tag k="name" v="Lindbusetertjennet" />
		<tag k="natural" v="water" />
		<tag k="ssr:stedsnr" v="3413" />
	</node>
	<node lat="59.845069443979476" lon="9.510811116888975" id="-17658">
		<tag k="name" v="Breievjo" />
		<tag k="natural" v="bay" />
		<tag k="ssr:stedsnr" v="4076" />
	</node>
	<node lat="59.896841670273226" lon="9.518091660593285" id="-17663">
		<tag k="name" v="Øvre Lona" />
		<tag k="natural" v="water" />
		<tag k="ssr:stedsnr" v="4215" />
		<tag k="water" v="lake" />
	</node>
	<node lat="59.76260277356431" lon="9.417275001535993" id="-17670">
		<tag k="name" v="Skjentjennbekken" />
		<tag k="ssr:stedsnr" v="233791" />
		<tag k="waterway" v="stream" />
	</node>
	<node lat="59.87820277478813" lon="9.347644446042079" id="-17673">
		<tag k="name" v="Ramnskardsbekken" />
		<tag k="old_name" v="Ramneskardbekken" />
		<tag k="ssr:stedsnr" v="235043" />
		<tag k="waterway" v="stream" />
	</node>
	<node lat="59.944142465120564" lon="9.427162145074671" id="-17675">
		<tag k="name" v="Søre Damtjenn" />
		<tag k="natural" v="water" />
		<tag k="ssr:stedsnr" v="235375" />
		<tag k="water" v="lake" />
	</node>
	<node lat="59.87455264833078" lon="9.640318793867122" id="-17676">
		<tag k="name" v="Bakketjenn" />
		<tag k="natural" v="water" />
		<tag k="ssr:stedsnr" v="236599" />
	</node>
	<node lat="59.96497777691115" lon="9.484936102518802" id="-17682">
		<tag k="name" v="Delestjern" />
		<tag k="natural" v="water" />
		<tag k="ssr:stedsnr" v="40801" />
	</node>
	<node lat="59.73434166717025" lon="9.578633337856784" id="-17685">
		<tag k="name" v="Skarlitjern" />
		<tag k="natural" v="water" />
		<tag k="ssr:stedsnr" v="41813" />
	</node>
	<node lat="59.92347125380822" lon="9.586113767455165" id="-17687">
		<tag k="name" v="Dalatjern" />
		<tag k="natural" v="water" />
		<tag k="ssr:stedsnr" v="237364" />
	</node>
	<node lat="59.84297221810047" lon="9.632747223352665" id="-17691">
		<tag k="name" v="Blokktjern" />
		<tag k="natural" v="water" />
		<tag k="ssr:stedsnr" v="239515" />
	</node>
	<node lat="59.818408336545964" lon="9.657711111464582" id="-17693">
		<tag k="name" v="Gørrtjern" />
		<tag k="natural" v="water" />
		<tag k="ssr:stedsnr" v="239732" />
	</node>
	<node lat="59.934669444702344" lon="9.58940278277074" id="-17695">
		<tag k="name" v="Auretangen" />
		<tag k="natural" v="cape" />
		<tag k="ssr:stedsnr" v="55299" />
	</node>
	<node lat="59.93684166886555" lon="9.423022215971061" id="-17697">
		<tag k="name" v="Flagåstjern" />
		<tag k="natural" v="water" />
		<tag k="ssr:stedsnr" v="239919" />
	</node>
	<node lat="59.81107500346992" lon="9.674963893587075" id="-17700">
		<tag k="name" v="Grettetjern" />
		<tag k="natural" v="water" />
		<tag k="ssr:stedsnr" v="57710" />
	</node>
	<node lat="59.81204444417541" lon="9.704133335682938" id="-17704">
		<tag k="name" v="Rundtjern" />
		<tag k="natural" v="water" />
		<tag k="ssr:stedsnr" v="57687" />
	</node>
	<node lat="59.82759444086569" lon="9.200258338376583" id="-17706">
		<tag k="name" v="Bletjerna" />
		<tag k="natural" v="water" />
		<tag k="ssr:stedsnr" v="57971" />
		<tag k="water" v="lake" />
	</node>
	<node lat="59.834602774288285" lon="9.362477769735552" id="-17707">
		<tag k="name" v="Oksetjernet" />
		<tag k="natural" v="water" />
		<tag k="ssr:stedsnr" v="59508" />
	</node>
	<node lat="59.86921769604216" lon="9.27768949284504" id="-17714">
		<tag k="name" v="Kjevatna" />
		<tag k="natural" v="water" />
		<tag k="ssr:stedsnr" v="64018" />
		<tag k="water" v="lake" />
	</node>
	<node lat="59.967103447571276" lon="9.476969043020523" id="-17717">
		<tag k="name" v="Lindteigstjennet" />
		<tag k="natural" v="water" />
		<tag k="ssr:stedsnr" v="64361" />
	</node>
	<node lat="59.79355833312903" lon="9.441427769621132" id="-17722">
		<tag k="name" v="Langevassbekken" />
		<tag k="ssr:stedsnr" v="64920" />
		<tag k="waterway" v="stream" />
	</node>
	<node lat="59.86253889199396" lon="9.297416661864043" id="-17727">
		<tag k="name" v="Bjørvasselva" />
		<tag k="ssr:stedsnr" v="241458" />
		<tag k="waterway" v="river" />
	</node>
	<node lat="59.8675888875794" lon="9.288319453149034" id="-17728">
		<tag k="name" v="Sølbufossen" />
		<tag k="natural" v="waterfall" />
		<tag k="ssr:stedsnr" v="241460" />
	</node>
	<node lat="59.856744442078416" lon="9.23136943603063" id="-17729">
		<tag k="name" v="Flesebekken" />
		<tag k="ssr:stedsnr" v="241467" />
		<tag k="waterway" v="stream" />
	</node>
	<node lat="59.848809517796134" lon="9.643828335419089" id="-17731">
		<tag k="name" v="Hamretjenn" />
		<tag k="natural" v="water" />
		<tag k="ssr:stedsnr" v="65749" />
	</node>
	<node lat="59.87123391893425" lon="9.41360351672547" id="-17732">
		<tag k="name" v="Lomtjenn" />
		<tag k="natural" v="water" />
		<tag k="ssr:stedsnr" v="246034" />
	</node>
	<node lat="59.87035277448758" lon="9.54525555811087" id="-17734">
		<tag k="name" v="Setervilen" />
		<tag k="natural" v="water" />
		<tag k="ssr:stedsnr" v="246041" />
	</node>
	<node lat="59.98895384324776" lon="9.466454268558481" id="-17737">
		<tag k="name" v="Røyrtjenn" />
		<tag k="natural" v="water" />
		<tag k="ssr:stedsnr" v="246296" />
	</node>
	<node lat="59.96537791519168" lon="9.463325508435071" id="-17739">
		<tag k="name" v="Tovstjenn" />
		<tag k="natural" v="water" />
		<tag k="ssr:stedsnr" v="246301" />
	</node>
	<node lat="59.91413108594391" lon="9.381530759465397" id="-17743">
		<tag k="name" v="Suggerudtjennet" />
		<tag k="natural" v="water" />
		<tag k="ssr:stedsnr" v="246197" />
	</node>
	<node lat="59.96402089664994" lon="9.563116768026756" id="-17744">
		<tag k="name" v="Elgstjenn" />
		<tag k="natural" v="water" />
		<tag k="ssr:stedsnr" v="246361" />
	</node>
	<node lat="59.815007042722456" lon="9.667529678231594" id="-17747">
		<tag k="name" v="Krokvatnet" />
		<tag k="natural" v="water" />
		<tag k="ssr:stedsnr" v="246680" />
		<tag k="water" v="lake" />
	</node>
	<node lat="59.75900374205462" lon="9.471449007732293" id="-17751">
		<tag k="name" v="Nipetovatna" />
		<tag k="natural" v="water" />
		<tag k="ssr:stedsnr" v="247000" />
		<tag k="water" v="lake" />
	</node>
	<node lat="59.853133336302925" lon="9.388686116944367" id="-17752">
		<tag k="name" v="Djupedalsbekken" />
		<tag k="ssr:stedsnr" v="247050" />
		<tag k="waterway" v="stream" />
	</node>
	<node lat="59.892177778320125" lon="9.298130563985453" id="-17757">
		<tag k="name" v="Svarttjennbekken" />
		<tag k="ssr:stedsnr" v="247232" />
		<tag k="waterway" v="stream" />
	</node>
	<node lat="59.880902776208" lon="9.249311109388497" id="-17759">
		<tag k="name" v="Hukabekken" />
		<tag k="ssr:stedsnr" v="247240" />
		<tag k="waterway" v="stream" />
	</node>
	<node lat="59.94880265122686" lon="9.514596027638934" id="-17760">
		<tag k="name" v="Kjølåsvatnet" />
		<tag k="natural" v="water" />
		<tag k="ssr:stedsnr" v="247332" />
	</node>
	<node lat="59.95768888507308" lon="9.564649999290179" id="-17778">
		<tag k="name" v="Bresketjenn" />
		<tag k="natural" v="water" />
		<tag k="ssr:stedsnr" v="115370" />
	</node>
	<node lat="59.79535277388712" lon="9.384861109710556" id="-17779">
		<tag k="name" v="Sjuvasstjenna" />
		<tag k="natural" v="water" />
		<tag k="ssr:stedsnr" v="115890" />
		<tag k="water" v="lake" />
	</node>
	<node lat="59.92387500133777" lon="9.656183338360885" id="-17781">
		<tag k="name" v="Klabufoss" />
		<tag k="natural" v="waterfall" />
		<tag k="ssr:stedsnr" v="116290" />
	</node>
	<node lat="59.8216111137595" lon="9.337852775231068" id="-17784">
		<tag k="name" v="Tvangsseterelva" />
		<tag k="ssr:stedsnr" v="117977" />
		<tag k="waterway" v="stream" />
	</node>
	<node lat="59.915377778841915" lon="9.49145555939459" id="-17787">
		<tag k="name" v="Bjønndalsbekken" />
		<tag k="ssr:stedsnr" v="118879" />
		<tag k="waterway" v="stream" />
	</node>
	<node lat="59.862188888782654" lon="9.263116669228275" id="-17790">
		<tag k="name" v="Slemdalsbekken" />
		<tag k="ssr:stedsnr" v="119515" />
		<tag k="waterway" v="stream" />
	</node>
	<node lat="59.87574444096819" lon="9.258649994154169" id="-17793">
		<tag k="name" v="Kyrkjevatnet" />
		<tag k="natural" v="water" />
		<tag k="ssr:stedsnr" v="125021" />
		<tag k="water" v="lake" />
	</node>
	<node lat="59.84015188353371" lon="9.324820250507173" id="-17797">
		<tag k="name" v="Holmevatnet" />
		<tag k="natural" v="water" />
		<tag k="ssr:stedsnr" v="125104" />
		<tag k="water" v="lake" />
	</node>
	<node lat="59.98453139176256" lon="9.46006607698236" id="-17801">
		<tag k="name" v="Ellingstjønn" />
		<tag k="natural" v="water" />
		<tag k="ssr:stedsnr" v="125309" />
	</node>
	<node lat="59.97694444255998" lon="9.502219444852546" id="-17802">
		<tag k="name" v="Igletjenn" />
		<tag k="natural" v="water" />
		<tag k="ssr:stedsnr" v="125357" />
	</node>
	<node lat="59.87775800462572" lon="9.229362705741858" id="-17808">
		<tag k="name" v="Søre Revlivatn" />
		<tag k="natural" v="water" />
		<tag k="ssr:stedsnr" v="173616" />
	</node>
	<node lat="59.96159140678672" lon="9.574668342940209" id="-17813">
		<tag k="name" v="Småfisketjenn" />
		<tag k="natural" v="water" />
		<tag k="ssr:stedsnr" v="175355" />
	</node>
	<node lat="59.84121944521859" lon="9.694133324984366" id="-17815">
		<tag k="name" v="Gulliksputt" />
		<tag k="natural" v="water" />
		<tag k="ssr:stedsnr" v="179515" />
	</node>
	<node lat="59.8661611089829" lon="9.296288888661708" id="-17820">
		<tag k="name" v="Nedre Greinin" />
		<tag k="place" v="locality" />
		<tag k="ssr:stedsnr" v="180468" />
	</node>
	<node lat="59.85165555286855" lon="9.184108328908076" id="-17821">
		<tag k="name" v="Kjellerene" />
		<tag k="natural" v="water" />
		<tag k="ssr:stedsnr" v="180476" />
		<tag k="water" v="lake" />
	</node>
	<node lat="59.971266586650934" lon="9.429905424435583" id="-17822">
		<tag k="name" v="Repetjenn" />
		<tag k="natural" v="water" />
		<tag k="ssr:stedsnr" v="185304" />
	</node>
	<node lat="59.737095888162564" lon="9.646195943803155" id="-17825">
		<tag k="name" v="Holmetjenn" />
		<tag k="natural" v="water" />
		<tag k="ssr:stedsnr" v="185635" />
	</node>
	<node lat="59.78618269855704" lon="9.38881003109975" id="-17827">
		<tag k="name" v="Hønevatnet" />
		<tag k="natural" v="water" />
		<tag k="ssr:stedsnr" v="185883" />
	</node>
	<node lat="59.865287609437345" lon="9.474820483309736" id="-17829">
		<tag k="name" v="Svarttjenn" />
		<tag k="natural" v="water" />
		<tag k="ssr:stedsnr" v="186038" />
	</node>
	<node lat="59.907561115032316" lon="9.50579999498671" id="-17832">
		<tag k="name" v="Såthøl" />
		<tag k="place" v="locality" />
		<tag k="ssr:stedsnr" v="186202" />
	</node>
	<node lat="59.89970555548817" lon="9.42757222100483" id="-17848">
		<tag k="name" v="Saltblekktjern" />
		<tag k="natural" v="water" />
		<tag k="ssr:stedsnr" v="222185" />
	</node>
	<node lat="59.90274721922329" lon="9.527861102834144" id="-17849">
		<tag k="name" v="Livlandstjernet" />
		<tag k="natural" v="water" />
		<tag k="ssr:stedsnr" v="222070" />
	</node>
	<node lat="59.91163889071858" lon="9.355413892187126" id="-17851">
		<tag k="name" v="Bakkerudholmen" />
		<tag k="place" v="islet" />
		<tag k="ssr:stedsnr" v="222209" />
	</node>
	<node lat="59.751661111069794" lon="9.654030546693988" id="-17853">
		<tag k="name" v="Østre Svarttjern" />
		<tag k="natural" v="water" />
		<tag k="ssr:stedsnr" v="223704" />
	</node>
	<node lat="59.80607499774977" lon="9.631211103459124" id="-17854">
		<tag k="name" v="Hungertjern" />
		<tag k="natural" v="water" />
		<tag k="ssr:stedsnr" v="223714" />
	</node>
	<node lat="59.7412805595502" lon="9.690791660078084" id="-17859">
		<tag k="name" v="Gutterudelva" />
		<tag k="ssr:stedsnr" v="449756" />
		<tag k="waterway" v="stream" />
	</node>
	<node lat="59.957072221167564" lon="9.593274992810711" id="-17861">
		<tag k="name" v="Olatangen" />
		<tag k="natural" v="cape" />
		<tag k="ssr:stedsnr" v="237280" />
	</node>
	<node lat="59.92801666246784" lon="9.57672499432717" id="-17863">
		<tag k="name" v="Sagbekken" />
		<tag k="ssr:stedsnr" v="237314" />
		<tag k="waterway" v="stream" />
	</node>
	<node lat="59.83469722055456" lon="9.630094436402413" id="-17865">
		<tag k="name" v="Tritjern" />
		<tag k="natural" v="water" />
		<tag k="ssr:stedsnr" v="239506" />
		<tag k="water" v="lake" />
	</node>
	<node lat="59.824858333400215" lon="9.457805563188206" id="-17868">
		<tag k="name" v="Tjyruhjellvika" />
		<tag k="natural" v="bay" />
		<tag k="ssr:stedsnr" v="239996" />
	</node>
	<node lat="59.838244445939104" lon="9.232669448581191" id="-17869">
		<tag k="name" v="Dølelva" />
		<tag k="ssr:stedsnr" v="241483" />
		<tag k="waterway" v="stream" />
	</node>
	<node lat="59.91355833443268" lon="9.368899991232421" id="-17875">
		<tag k="name" v="Bakkerudtjennet" />
		<tag k="natural" v="water" />
		<tag k="ssr:stedsnr" v="246202" />
	</node>
	<node lat="59.72862499816148" lon="9.530930551154515" id="-17877">
		<tag k="name" v="Tverrelva" />
		<tag k="ssr:stedsnr" v="246414" />
		<tag k="waterway" v="river" />
	</node>
	<node lat="59.93121414569858" lon="9.587600826566124" id="-17879">
		<tag k="name" v="Letmolivatnet" />
		<tag k="natural" v="water" />
		<tag k="old_name" v="LetmoliVd:;Litmovatnet" />
		<tag k="ssr:stedsnr" v="246160" />
		<tag k="water" v="lake" />
	</node>
	<node lat="59.962794443946166" lon="9.50994722644001" id="-17881">
		<tag k="name" v="Tritjenna" />
		<tag k="natural" v="water" />
		<tag k="ssr:stedsnr" v="246364" />
		<tag k="water" v="lake" />
	</node>
	<node lat="59.83678833416886" lon="9.692046639611176" id="-17882">
		<tag k="name" v="Trehørningen" />
		<tag k="natural" v="water" />
		<tag k="ssr:stedsnr" v="246706" />
	</node>
	<node lat="59.82230174344655" lon="9.196920141266578" id="-17883">
		<tag k="fixme" v="multiple name tags, choose one and add the other to alt_name" />
		<tag k="name" v="Langevatnet;Storevatn" />
		<tag k="natural" v="water" />
		<tag k="ssr:stedsnr" v="246614" />
		<tag k="water" v="lake" />
	</node>
	<node lat="59.97241944795393" lon="9.534638891765702" id="-17893">
		<tag k="name" v="Kistefoss" />
		<tag k="natural" v="waterfall" />
		<tag k="ssr:stedsnr" v="275010" />
	</node>
	<node lat="59.920599999986344" lon="9.454830552934492" id="-17896">
		<tag k="name" v="Kolhusodden" />
		<tag k="natural" v="cape" />
		<tag k="ssr:stedsnr" v="282078" />
	</node>
	<node lat="59.8991805585487" lon="9.360180560623094" id="-17900">
		<tag k="name" v="Bakkanholmen" />
		<tag k="place" v="islet" />
		<tag k="ssr:stedsnr" v="283202" />
	</node>
	<node lat="59.97524721863424" lon="9.470647214159476" id="-17902">
		<tag k="name" v="Damtjernbekken" />
		<tag k="ssr:stedsnr" v="283779" />
		<tag k="waterway" v="stream" />
	</node>
	<node lat="59.84018896555759" lon="9.272536774814787" id="-17905">
		<tag k="name" v="Nørdre Ljøsbuvatnet" />
		<tag k="natural" v="water" />
		<tag k="ssr:stedsnr" v="294704" />
	</node>
	<node lat="59.80782777937436" lon="9.691150004501239" id="-17908">
		<tag k="name" v="Bergtjenn" />
		<tag k="natural" v="water" />
		<tag k="ssr:stedsnr" v="296522" />
	</node>
	<node lat="59.88048207005864" lon="9.66589489910895" id="-17910">
		<tag k="name" v="Stjernetjenn" />
		<tag k="natural" v="water" />
		<tag k="ssr:stedsnr" v="297671" />
	</node>
	<node lat="59.896541663203955" lon="9.692605563745369" id="-17911">
		<tag k="name" v="Ulsbekk" />
		<tag k="ssr:stedsnr" v="298317" />
		<tag k="waterway" v="stream" />
	</node>
	<node lat="59.82260555658084" lon="9.309544437008944" id="-17914">
		<tag k="name" v="Sandvasselva" />
		<tag k="ssr:stedsnr" v="299975" />
		<tag k="waterway" v="stream" />
	</node>
	<node lat="59.82571944504355" lon="9.699177770666768" id="-17915">
		<tag k="name" v="Østre Krøkjevatnet" />
		<tag k="natural" v="water" />
		<tag k="ssr:stedsnr" v="300718" />
	</node>
	<node lat="59.84571944142968" lon="9.301247214974303" id="-17921">
		<tag k="name" v="Fremste Fagerfjelltjernbekken" />
		<tag k="ssr:stedsnr" v="301513" />
		<tag k="waterway" v="stream" />
	</node>
	<node lat="59.96135278098155" lon="9.453830563151143" id="-17930">
		<tag k="name" v="Holmen" />
		<tag k="natural" v="cape" />
		<tag k="ssr:stedsnr" v="464787" />
	</node>
	<node lat="59.830284721775" lon="9.32009090043813" id="-17940">
		<tag k="name" v="Sandvatnet" />
		<tag k="natural" v="water" />
		<tag k="ssr:stedsnr" v="307116" />
		<tag k="water" v="lake" />
	</node>
	<node lat="59.8523696398404" lon="9.27944637929601" id="-17945">
		<tag k="name" v="Lomtjenna" />
		<tag k="natural" v="water" />
		<tag k="ssr:stedsnr" v="307058" />
		<tag k="water" v="lake" />
	</node>
	<node lat="59.848902776183024" lon="9.565041673430942" id="-17946">
		<tag k="name" v="Fosshølen" />
		<tag k="place" v="locality" />
		<tag k="ssr:stedsnr" v="307069" />
	</node>
	<node lat="59.87251111030387" lon="9.615388882927242" id="-17950">
		<tag k="name" v="Fosseseterbekken" />
		<tag k="ssr:stedsnr" v="307647" />
		<tag k="waterway" v="stream" />
	</node>
	<node lat="59.720791663998625" lon="9.608499994652211" id="-17957">
		<tag k="name" v="Bruatjern" />
		<tag k="natural" v="water" />
		<tag k="ssr:stedsnr" v="466834" />
	</node>
	<node lat="59.73667777850918" lon="9.614036117580978" id="-17959">
		<tag k="name" v="Kvennhusbekken" />
		<tag k="ssr:stedsnr" v="466837" />
		<tag k="waterway" v="stream" />
	</node>
	<node lat="59.7984380734886" lon="9.661581665475563" id="-17962">
		<tag k="name" v="Pytten" />
		<tag k="natural" v="water" />
		<tag k="ssr:stedsnr" v="466697" />
	</node>
	<node lat="59.78170833765713" lon="9.653888881038476" id="-17963">
		<tag k="name" v="Igletjenn" />
		<tag k="natural" v="water" />
		<tag k="ssr:stedsnr" v="329775" />
	</node>
	<node lat="59.774449995631734" lon="9.638058328005938" id="-17964">
		<tag k="name" v="Nørdre Tovstjenn" />
		<tag k="natural" v="water" />
		<tag k="ssr:stedsnr" v="329777" />
	</node>
	<node lat="59.87699444631866" lon="9.52520277655108" id="-17968">
		<tag k="name" v="Vengestadodden" />
		<tag k="natural" v="cape" />
		<tag k="ssr:stedsnr" v="343141" />
	</node>
	<node lat="59.93341666414926" lon="9.617508328939513" id="-17974">
		<tag k="name" v="Blåtjenn" />
		<tag k="natural" v="water" />
		<tag k="ssr:stedsnr" v="354926" />
	</node>
	<node lat="59.89388333408534" lon="9.612805560188274" id="-17975">
		<tag k="name" v="Svarttjenn" />
		<tag k="natural" v="water" />
		<tag k="ssr:stedsnr" v="355611" />
	</node>
	<node lat="59.72812500247926" lon="9.633686104681422" id="-17976">
		<tag k="name" v="Bjønnetjenn" />
		<tag k="natural" v="water" />
		<tag k="ssr:stedsnr" v="357653" />
	</node>
	<node lat="59.96238611349395" lon="9.589536111072512" id="-17977">
		<tag k="name" v="Lauvøya" />
		<tag k="place" v="islet" />
		<tag k="ssr:stedsnr" v="358268" />
	</node>
	<node lat="59.821055556016525" lon="9.558313884361416" id="-17982">
		<tag k="name" v="Søre Soterudtjennet" />
		<tag k="natural" v="water" />
		<tag k="old_name" v="Store Solerudtjern;Store Solerudtjenn" />
		<tag k="ssr:stedsnr" v="476641" />
	</node>
	<node lat="59.758016624847116" lon="9.473019049577774" id="-17983">
		<tag k="name" v="Øvre Nipetovatnet" />
		<tag k="natural" v="water" />
		<tag k="ssr:stedsnr" v="476769" />
	</node>
	<node lat="59.864913889285354" lon="9.242674994997765" id="-17985">
		<tag k="name" v="Krokstulelva" />
		<tag k="ssr:stedsnr" v="476744" />
		<tag k="waterway" v="river" />
	</node>
	<node lat="59.89728889180628" lon="9.498724991453962" id="-17986">
		<tag k="name" v="Kista" />
		<tag k="natural" v="water" />
		<tag k="ssr:stedsnr" v="363719" />
	</node>
	<node lat="59.83955833313781" lon="9.584508334140637" id="-17987">
		<tag k="name" v="Damtjennbekken" />
		<tag k="ssr:stedsnr" v="478085" />
		<tag k="waterway" v="stream" />
	</node>
	<node lat="59.90032499913215" lon="9.575544437235122" id="-17988">
		<tag k="name" v="Bergtjenn" />
		<tag k="natural" v="water" />
		<tag k="ssr:stedsnr" v="478244" />
	</node>
	<node lat="59.49672500301199" lon="9.926219438829566" id="-17989">
		<tag k="alt_name" v="Numedalslågen" />
		<tag k="name" v="Lågen" />
		<tag k="ssr:stedsnr" v="366578" />
		<tag k="waterway" v="river" />
	</node>
	<node lat="59.86937499686864" lon="9.454094449741573" id="-17998">
		<tag k="name" v="Nesbekken" />
		<tag k="ssr:stedsnr" v="368049" />
		<tag k="waterway" v="stream" />
	</node>
	<node lat="59.951065798313905" lon="9.520520033127394" id="-18002">
		<tag k="name" v="Tukutjennet" />
		<tag k="natural" v="water" />
		<tag k="ssr:stedsnr" v="368375" />
	</node>
	<node lat="59.96142272394388" lon="9.478821328025079" id="-18005">
		<tag k="name" v="Botnantjennet" />
		<tag k="natural" v="water" />
		<tag k="ssr:stedsnr" v="368383" />
	</node>
	<node lat="59.80697777778002" lon="9.617725005111726" id="-18006">
		<tag k="name" v="Hølbekken" />
		<tag k="ssr:stedsnr" v="368580" />
		<tag k="waterway" v="stream" />
	</node>
	<node lat="59.81135555208887" lon="9.623466658457307" id="-18007">
		<tag k="name" v="Elgstjenn" />
		<tag k="natural" v="water" />
		<tag k="ssr:stedsnr" v="368582" />
	</node>
	<node lat="59.875427777612614" lon="9.679277772436976" id="-18010">
		<tag k="name" v="Svarttjenn" />
		<tag k="natural" v="water" />
		<tag k="ssr:stedsnr" v="368675" />
	</node>
	<node lat="59.81262066993312" lon="9.527593172682261" id="-18011">
		<tag k="name" v="Nommenidammen" />
		<tag k="natural" v="water" />
		<tag k="ssr:stedsnr" v="368930" />
	</node>
	<node lat="59.81593055150516" lon="9.417905564179131" id="-18012">
		<tag k="name" v="Storsteinbekken" />
		<tag k="ssr:stedsnr" v="368933" />
		<tag k="waterway" v="stream" />
	</node>
	<node lat="59.81791044497338" lon="9.668082909926735" id="-18014">
		<tag k="name" v="Nørdre Krokvatnet" />
		<tag k="natural" v="water" />
		<tag k="ssr:stedsnr" v="479397" />
	</node>
	<node lat="59.83089444816541" lon="9.235524994008198" id="-18016">
		<tag k="name" v="Bleelva" />
		<tag k="ssr:stedsnr" v="481990" />
		<tag k="waterway" v="stream" />
	</node>
	<node lat="59.825740548808724" lon="9.693934093298191" id="-18019">
		<tag k="name" v="Brilletjern" />
		<tag k="natural" v="water" />
		<tag k="ssr:stedsnr" v="482691" />
	</node>
	<node lat="59.94779721906754" lon="9.465619435698558" id="-18020">
		<tag k="name" v="Maritholmen" />
		<tag k="place" v="islet" />
		<tag k="ssr:stedsnr" v="482910" />
	</node>
	<node lat="59.840683336895644" lon="9.305519446560352" id="-18022">
		<tag k="name" v="Midtre Fagerfjelltjern" />
		<tag k="natural" v="water" />
		<tag k="ssr:stedsnr" v="483530" />
	</node>
	<node lat="59.909705555933456" lon="9.460402772904883" id="-18028">
		<tag k="name" v="Borgerodden" />
		<tag k="natural" v="cape" />
		<tag k="ssr:stedsnr" v="404102" />
	</node>
	<node lat="59.87459722498861" lon="9.42805277676085" id="-18029">
		<tag k="name" v="Prestegårdsbekken" />
		<tag k="ssr:stedsnr" v="404305" />
		<tag k="waterway" v="stream" />
	</node>
	<node lat="59.894919441782825" lon="9.367888890551628" id="-18031">
		<tag k="name" v="Mogtjern" />
		<tag k="natural" v="water" />
		<tag k="ssr:stedsnr" v="404228" />
	</node>
	<node lat="59.83075555494569" lon="9.257624998777061" id="-18038">
		<tag k="name" v="Grøtebuelva" />
		<tag k="ssr:stedsnr" v="415102" />
		<tag k="waterway" v="river" />
	</node>
	<node lat="59.7265614539048" lon="9.610753601550407" id="-18040">
		<tag k="name" v="Tronrudtjenn" />
		<tag k="natural" v="water" />
		<tag k="ssr:stedsnr" v="488630" />
	</node>
	<node lat="59.95444167053733" lon="9.558599993412782" id="-18043">
		<tag k="name" v="Soljåbekken" />
		<tag k="ssr:stedsnr" v="419325" />
		<tag k="waterway" v="stream" />
	</node>
	<node lat="59.95970833502332" lon="9.588341671001409" id="-18045">
		<tag k="name" v="Garnøya" />
		<tag k="place" v="islet" />
		<tag k="ssr:stedsnr" v="419285" />
	</node>
	<node lat="59.62987222602977" lon="9.428249997717222" id="-18046">
		<tag k="alt_name" v="Deletjønn" />
		<tag k="name" v="Delestjern" />
		<tag k="natural" v="water" />
		<tag k="ssr:stedsnr" v="488851" />
	</node>
	<node lat="59.88451877248528" lon="9.550936136876706" id="-18047">
		<tag k="name" v="Risåstjenn" />
		<tag k="natural" v="water" />
		<tag k="ssr:stedsnr" v="489024" />
	</node>
	<node lat="59.87204999578152" lon="9.539050006294367" id="-18048">
		<tag k="name" v="Vengestadvilen" />
		<tag k="natural" v="water" />
		<tag k="ssr:stedsnr" v="489033" />
	</node>
	<node lat="59.8754638867407" lon="9.535072219265526" id="-18049">
		<tag k="name" v="Storholmen" />
		<tag k="place" v="islet" />
		<tag k="ssr:stedsnr" v="489035" />
	</node>
	<node lat="59.945169442740294" lon="9.500052783435093" id="-18054">
		<tag k="name" v="Bjørkesettjennet" />
		<tag k="natural" v="water" />
		<tag k="ssr:stedsnr" v="489164" />
	</node>
	<node lat="59.839602485975" lon="9.640628225110724" id="-18055">
		<tag k="name" v="Setertjern" />
		<tag k="natural" v="water" />
		<tag k="ssr:stedsnr" v="421510" />
	</node>
	<node lat="59.79442221965838" lon="9.498263888146068" id="-18057">
		<tag k="name" v="Tveitseterdammen" />
		<tag k="ssr:stedsnr" v="421807" />
		<tag k="waterway" v="dam" />
	</node>
	<node lat="59.781249581368705" lon="9.387198778825798" id="-18060">
		<tag k="name" v="Huldrevatnet" />
		<tag k="natural" v="water" />
		<tag k="ssr:stedsnr" v="549887" />
	</node>
	<node lat="59.957724506467144" lon="9.57028258881353" id="-18069">
		<tag k="name" v="Åstjenn" />
		<tag k="natural" v="water" />
		<tag k="ssr:stedsnr" v="489378" />
	</node>
	<node lat="59.9348416664242" lon="9.444558331309542" id="-18070">
		<tag k="name" v="Holtanvika" />
		<tag k="natural" v="bay" />
		<tag k="ssr:stedsnr" v="422890" />
	</node>
	<node lat="59.80916944562872" lon="9.70927777323861" id="-18074">
		<tag k="name" v="Krokvassløkin" />
		<tag k="natural" v="water" />
		<tag k="ssr:stedsnr" v="489563" />
		<tag k="water" v="lake" />
	</node>
	<node lat="59.80735511118435" lon="9.660640530953868" id="-18077">
		<tag k="name" v="Langevatnet" />
		<tag k="natural" v="water" />
		<tag k="ssr:stedsnr" v="489574" />
		<tag k="water" v="lake" />
	</node>
	<node lat="59.78135633222691" lon="9.397528476084911" id="-18079">
		<tag k="name" v="Langevatnet" />
		<tag k="natural" v="water" />
		<tag k="ssr:stedsnr" v="549888" />
	</node>
	<node lat="59.75551666675489" lon="9.480669442514502" id="-18084">
		<tag k="name" v="Nipetotjern" />
		<tag k="natural" v="water" />
		<tag k="ssr:stedsnr" v="423851" />
	</node>
	<node lat="59.76334890793181" lon="9.514459100089052" id="-18086">
		<tag k="name" v="Østre Sparkoppdammen" />
		<tag k="natural" v="water" />
		<tag k="ssr:stedsnr" v="423859" />
	</node>
	<node lat="59.78208610751181" lon="9.610022216836118" id="-18087">
		<tag k="name" v="Rambergelva" />
		<tag k="old_name" v="Garderelva;Gardarelva" />
		<tag k="ssr:stedsnr" v="489624" />
		<tag k="waterway" v="river" />
	</node>
	<node lat="59.87517206233628" lon="9.616744790576941" id="-18088">
		<tag k="name" v="Svarttjenn" />
		<tag k="natural" v="water" />
		<tag k="ssr:stedsnr" v="489664" />
	</node>
	<node lat="59.874100003614274" lon="9.670472219984239" id="-18090">
		<tag k="name" v="Titjenna" />
		<tag k="natural" v="water" />
		<tag k="ssr:stedsnr" v="489712" />
		<tag k="water" v="lake" />
	</node>
	<node lat="59.879374998364675" lon="9.602022224969323" id="-18091">
		<tag k="name" v="Fiskeløysa" />
		<tag k="natural" v="water" />
		<tag k="ssr:stedsnr" v="489716" />
	</node>
	<node lat="59.98583406122808" lon="9.514629920719493" id="-18094">
		<tag k="name" v="Horgesetervatna" />
		<tag k="natural" v="water" />
		<tag k="old_name" v="Horgevatnet;Hørgevatna" />
		<tag k="ssr:stedsnr" v="490006" />
		<tag k="water" v="lake" />
	</node>
	<node lat="59.88075806309421" lon="9.224449242940926" id="-18095">
		<tag k="name" v="Revlivatna" />
		<tag k="natural" v="water" />
		<tag k="ssr:stedsnr" v="428002" />
		<tag k="water" v="lake" />
	</node>
	<node lat="59.88043333230234" lon="9.413300001070292" id="-18098">
		<tag k="name" v="Jutultjenn" />
		<tag k="natural" v="water" />
		<tag k="ssr:stedsnr" v="428009" />
	</node>
	<node lat="59.87958387890225" lon="9.508302038401489" id="-18099">
		<tag k="name" v="Mjovatnet" />
		<tag k="natural" v="water" />
		<tag k="ssr:stedsnr" v="428011" />
	</node>
	<node lat="59.987190877244174" lon="9.466476901725516" id="-18102">
		<tag k="name" v="Paddetjenn" />
		<tag k="natural" v="water" />
		<tag k="ssr:stedsnr" v="428275" />
	</node>
	<node lat="59.73423388543709" lon="9.586211040867985" id="-18103">
		<tag k="fixme" v="multiple name tags, choose one and add the other to alt_name" />
		<tag k="name" v="Fukstjenn;Konningetjenn" />
		<tag k="natural" v="water" />
		<tag k="ssr:stedsnr" v="428402" />
	</node>
	<node lat="59.797791667128635" lon="9.331925005236581" id="-18107">
		<tag k="name" v="Storegrø" />
		<tag k="ssr:stedsnr" v="428921" />
		<tag k="waterway" v="stream" />
	</node>
	<node lat="59.85864724004115" lon="9.529937236715297" id="-18110">
		<tag k="name" v="Øvre Bringetjennet" />
		<tag k="natural" v="water" />
		<tag k="ssr:stedsnr" v="429063" />
	</node>
	<node lat="59.92469444617986" lon="9.510369444194014" id="-18128">
		<tag k="name" v="Elvebekken" />
		<tag k="ssr:stedsnr" v="671173" />
		<tag k="waterway" v="stream" />
	</node>
	<node lat="59.93930130695477" lon="9.561422493909877" id="-18130">
		<tag k="name" v="Orretjenn" />
		<tag k="natural" v="water" />
		<tag k="ssr:stedsnr" v="671152" />
	</node>
	<node lat="59.89811944764927" lon="9.385602784243428" id="-18137">
		<tag k="name" v="Evjubekken" />
		<tag k="ssr:stedsnr" v="671247" />
		<tag k="waterway" v="stream" />
	</node>
	<node lat="59.814836109212344" lon="9.439641657773853" id="-18150">
		<tag k="name" v="Bergsseterbekken" />
		<tag k="ssr:stedsnr" v="672937" />
		<tag k="waterway" v="stream" />
	</node>
	<node lat="59.75029722590413" lon="9.650302773841213" id="-18155">
		<tag k="name" v="Vestre Svarttjern" />
		<tag k="natural" v="water" />
		<tag k="ssr:stedsnr" v="465662" />
	</node>
	<node lat="59.9112361074149" lon="9.47996666494972" id="-18158">
		<tag k="name" v="Strandeelva" />
		<tag k="ssr:stedsnr" v="477103" />
		<tag k="waterway" v="river" />
	</node>
	<node lat="59.92349166325505" lon="9.608308332197959" id="-18160">
		<tag k="name" v="Diplemyrhølen" />
		<tag k="place" v="locality" />
		<tag k="ssr:stedsnr" v="479304" />
	</node>
	<node lat="59.86126111348562" lon="9.61665277554362" id="-18165">
		<tag k="name" v="Rostedalsbekken" />
		<tag k="ssr:stedsnr" v="482559" />
		<tag k="waterway" v="stream" />
	</node>
	<node lat="59.84093888690631" lon="9.434830554850784" id="-18168">
		<tag k="name" v="Trolihølen" />
		<tag k="place" v="locality" />
		<tag k="ssr:stedsnr" v="483507" />
	</node>
	<node lat="59.8662777822381" lon="9.266933340834992" id="-18169">
		<tag k="name" v="Kistehølen" />
		<tag k="place" v="locality" />
		<tag k="ssr:stedsnr" v="483513" />
	</node>
	<node lat="59.840233335241734" lon="9.301358328821655" id="-18170">
		<tag k="name" v="Vestre Fagerfjelltjern" />
		<tag k="natural" v="water" />
		<tag k="ssr:stedsnr" v="483529" />
	</node>
	<node lat="59.834524946286436" lon="9.339037018591512" id="-18174">
		<tag k="name" v="Mjovatnet" />
		<tag k="natural" v="water" />
		<tag k="old_name" v="Mjøvatnet" />
		<tag k="ssr:stedsnr" v="489112" />
	</node>
	<node lat="59.879025004038354" lon="9.511100004170189" id="-18178">
		<tag k="name" v="Langetangen" />
		<tag k="natural" v="cape" />
		<tag k="ssr:stedsnr" v="489013" />
	</node>
	<node lat="59.86127771057053" lon="9.271485333901172" id="-18179">
		<tag k="name" v="Hånevatnet" />
		<tag k="natural" v="water" />
		<tag k="ssr:stedsnr" v="489042" />
	</node>
	<node lat="59.865191310052325" lon="9.514595666289281" id="-18181">
		<tag k="name" v="Svarttjenn" />
		<tag k="natural" v="water" />
		<tag k="ssr:stedsnr" v="489054" />
	</node>
	<node lat="59.86529988570969" lon="9.561602216676569" id="-18182">
		<tag k="name" v="Kvernanlona" />
		<tag k="natural" v="water" />
		<tag k="ssr:stedsnr" v="489057" />
		<tag k="water" v="lake" />
	</node>
	<node lat="59.97470833164449" lon="9.510925004697013" id="-18185">
		<tag k="name" v="Nedre Aurehølen" />
		<tag k="place" v="locality" />
		<tag k="ssr:stedsnr" v="489342" />
	</node>
	<node lat="59.78698051907245" lon="9.714053318870565" id="-18186">
		<tag k="name" v="Svarttjenn" />
		<tag k="natural" v="water" />
		<tag k="ssr:stedsnr" v="489542" />
	</node>
	<node lat="59.76636111449241" lon="9.696708341582864" id="-18189">
		<tag k="name" v="Langvasselva" />
		<tag k="ssr:stedsnr" v="489596" />
		<tag k="waterway" v="stream" />
	</node>
	<node lat="59.82791252268025" lon="9.705603694716917" id="-18190">
		<tag k="name" v="Grølla" />
		<tag k="natural" v="water" />
		<tag k="ssr:stedsnr" v="489738" />
		<tag k="water" v="lake" />
	</node>
	<node lat="59.87606111472805" lon="9.197961108866169" id="-18191">
		<tag k="fixme" v="multiple name tags, choose one and add the other to alt_name" />
		<tag k="name" v="Åklitjønnan;Åklivatna" />
		<tag k="natural" v="water" />
		<tag k="ssr:stedsnr" v="489745" />
		<tag k="water" v="lake" />
	</node>
	<node lat="59.79003224131697" lon="9.347852416196229" id="-18192">
		<tag k="name" v="Gampedalsvatna" />
		<tag k="natural" v="water" />
		<tag k="ssr:stedsnr" v="489908" />
		<tag k="water" v="lake" />
	</node>
	<node lat="59.81964444596591" lon="9.521300004634096" id="-18196">
		<tag k="name" v="Åstjenn" />
		<tag k="natural" v="water" />
		<tag k="ssr:stedsnr" v="490124" />
	</node>
	<node lat="59.81433888526835" lon="9.478141664038146" id="-18198">
		<tag k="name" v="Eivindsetertjenn" />
		<tag k="natural" v="water" />
		<tag k="ssr:stedsnr" v="490927" />
	</node>
	<node lat="59.91328610930931" lon="9.355627786306037" id="-18199">
		<tag k="name" v="Steinkloppbekken" />
		<tag k="ssr:stedsnr" v="272827" />
		<tag k="waterway" v="stream" />
	</node>
	<node lat="59.89615278054424" lon="9.532922216827233" id="-18202">
		<tag k="name" v="Hardtjernbekken" />
		<tag k="ssr:stedsnr" v="525068" />
		<tag k="waterway" v="stream" />
	</node>
	<node lat="59.892349998892655" lon="9.53804167123974" id="-18203">
		<tag k="name" v="Bekkesisla" />
		<tag k="ssr:stedsnr" v="525070" />
		<tag k="waterway" v="stream" />
	</node>
	<node lat="59.74557221875192" lon="9.554702782165577" id="-18211">
		<tag k="name" v="Lindbubekken" />
		<tag k="ssr:stedsnr" v="527815" />
		<tag k="waterway" v="stream" />
	</node>
	<node lat="59.822808334104" lon="9.655638889365028" id="-18217">
		<tag k="name" v="Nordre Lakstjern" />
		<tag k="natural" v="water" />
		<tag k="ssr:stedsnr" v="542712" />
	</node>
	<node lat="59.94942777575582" lon="9.471622213899433" id="-18220">
		<tag k="name" v="Brøtanodden" />
		<tag k="natural" v="cape" />
		<tag k="ssr:stedsnr" v="543905" />
	</node>
	<node lat="59.851780556172294" lon="9.263641665222423" id="-18225">
		<tag k="name" v="Sølvtjern" />
		<tag k="natural" v="water" />
		<tag k="ssr:stedsnr" v="544476" />
	</node>
	<node lat="59.87072221819908" lon="9.233413894863467" id="-18226">
		<tag k="name" v="Bråtahøltjern" />
		<tag k="natural" v="water" />
		<tag k="ssr:stedsnr" v="544479" />
	</node>
	<node lat="59.82428055764395" lon="9.540452781756297" id="-18237">
		<tag k="name" v="Gårdåstjennet" />
		<tag k="natural" v="water" />
		<tag k="ssr:stedsnr" v="550121" />
	</node>
	<node lat="59.78577500245229" lon="9.648338893824162" id="-18240">
		<tag k="name" v="Gransetdammen" />
		<tag k="natural" v="water" />
		<tag k="ssr:stedsnr" v="550498" />
	</node>
	<node lat="59.96610833736846" lon="9.444330552117101" id="-18247">
		<tag k="name" v="Hølen" />
		<tag k="place" v="locality" />
		<tag k="ssr:stedsnr" v="585743" />
	</node>
	<node lat="59.88019444339634" lon="9.544241670240948" id="-18250">
		<tag k="name" v="Risåsbekken" />
		<tag k="ssr:stedsnr" v="586242" />
		<tag k="waterway" v="stream" />
	</node>
	<node lat="59.79273664023039" lon="9.706707129567018" id="-18258">
		<tag k="name" v="Bjørvatnet" />
		<tag k="natural" v="water" />
		<tag k="ssr:stedsnr" v="598506" />
		<tag k="water" v="lake" />
	</node>
	<node lat="59.81859166628802" lon="9.454794439405406" id="-18261">
		<tag k="name" v="Beinsvasstjernet" />
		<tag k="natural" v="water" />
		<tag k="ssr:stedsnr" v="603000" />
	</node>
	<node lat="59.93764444517746" lon="9.416177782458726" id="-18263">
		<tag k="name" v="Lauvhaugtjern" />
		<tag k="natural" v="water" />
		<tag k="ssr:stedsnr" v="603899" />
	</node>
	<node lat="59.733883331591485" lon="9.495155558159516" id="-18267">
		<tag k="name" v="Jokkumsetertjern" />
		<tag k="natural" v="water" />
		<tag k="ssr:stedsnr" v="604850" />
	</node>
	<node lat="59.881991486625324" lon="9.291223296815105" id="-18270">
		<tag k="name" v="Svarttjenn" />
		<tag k="natural" v="water" />
		<tag k="old_name" v="SvarteKj:" />
		<tag k="ssr:stedsnr" v="610010" />
	</node>
	<node lat="59.93141944097279" lon="9.441558340750587" id="-18271">
		<tag k="name" v="Holtanbekken" />
		<tag k="ssr:stedsnr" v="610209" />
		<tag k="waterway" v="stream" />
	</node>
	<node lat="59.921711295239334" lon="9.478950040638805" id="-18272">
		<tag k="name" v="Strandtjenn" />
		<tag k="natural" v="water" />
		<tag k="ssr:stedsnr" v="610215" />
	</node>
	<node lat="59.922362762792815" lon="9.560337447923251" id="-18273">
		<tag k="name" v="Kallerudhaugplasstjennet" />
		<tag k="natural" v="water" />
		<tag k="ssr:stedsnr" v="610217" />
	</node>
	<node lat="59.738847225501004" lon="9.459547224538127" id="-18276">
		<tag k="name" v="Rendla" />
		<tag k="ssr:stedsnr" v="610484" />
		<tag k="waterway" v="river" />
	</node>
	<node lat="59.769791670389374" lon="9.639286116979275" id="-18278">
		<tag k="name" v="Tovstjenn" />
		<tag k="natural" v="water" />
		<tag k="ssr:stedsnr" v="610631" />
		<tag k="water" v="lake" />
	</node>
	<node lat="59.8055704099936" lon="9.701269052549844" id="-18280">
		<tag k="name" v="Søre Øyvatnet" />
		<tag k="natural" v="water" />
		<tag k="ssr:stedsnr" v="610587" />
		<tag k="water" v="lake" />
	</node>
	<node lat="59.81443055163359" lon="9.483958328831559" id="-18287">
		<tag k="name" v="Kringlehaugtjenn" />
		<tag k="natural" v="water" />
		<tag k="ssr:stedsnr" v="611112" />
	</node>
	<node lat="59.90517778196821" lon="9.5100222161139" id="-18294">
		<tag k="name" v="Sagfossen" />
		<tag k="natural" v="waterfall" />
		<tag k="ssr:stedsnr" v="646084" />
	</node>
	<node lat="59.7556583321542" lon="9.673472216447248" id="-18305">
		<tag k="name" v="Vesletjern" />
		<tag k="natural" v="water" />
		<tag k="ssr:stedsnr" v="708664" />
	</node>
	<node lat="59.97570132051093" lon="9.467652080201836" id="-18312">
		<tag k="name" v="Damtjenn" />
		<tag k="natural" v="water" />
		<tag k="ssr:stedsnr" v="660302" />
	</node>
	<node lat="59.82815277984403" lon="9.642902777981371" id="-18314">
		<tag k="name" v="Tritjerna" />
		<tag k="natural" v="water" />
		<tag k="ssr:stedsnr" v="663708" />
		<tag k="water" v="lake" />
	</node>
	<node lat="59.834438891007224" lon="9.417974991484881" id="-18321">
		<tag k="name" v="Elvesvingen" />
		<tag k="ssr:stedsnr" v="665518" />
		<tag k="waterway" v="river" />
	</node>
	<node lat="59.89102777712896" lon="9.294347217771602" id="-18323">
		<tag k="name" v="Tilretjern" />
		<tag k="natural" v="water" />
		<tag k="ssr:stedsnr" v="666324" />
	</node>
	<node lat="59.88555833218896" lon="9.25224167270063" id="-18324">
		<tag k="name" v="Repekulp" />
		<tag k="place" v="locality" />
		<tag k="ssr:stedsnr" v="666332" />
	</node>
	<node lat="59.91085555907723" lon="9.37552222331581" id="-18331">
		<tag k="name" v="Suggerudtjernbekken" />
		<tag k="ssr:stedsnr" v="890233" />
		<tag k="waterway" v="stream" />
	</node>
	<node lat="59.882388890151844" lon="9.499019451722642" id="-18336">
		<tag k="name" v="Gjømlevatnet" />
		<tag k="natural" v="water" />
		<tag k="ssr:stedsnr" v="671014" />
	</node>
	<node lat="59.87112195167015" lon="9.293750441373081" id="-18337">
		<tag k="name" v="Juvevatnet" />
		<tag k="natural" v="water" />
		<tag k="old_name" v="Juvvatnet" />
		<tag k="ssr:stedsnr" v="671022" />
		<tag k="water" v="lake" />
	</node>
	<node lat="59.86770919273298" lon="9.550569440809344" id="-18340">
		<tag k="name" v="Damvatnet" />
		<tag k="natural" v="water" />
		<tag k="ssr:stedsnr" v="671039" />
	</node>
	<node lat="59.88735555748942" lon="9.417102782290936" id="-18343">
		<tag k="name" v="Bukketjern" />
		<tag k="natural" v="water" />
		<tag k="ssr:stedsnr" v="890161" />
	</node>
	<node lat="59.987124276513974" lon="9.47692231958472" id="-18345">
		<tag k="name" v="Nedre Trytetjenn" />
		<tag k="natural" v="water" />
		<tag k="ssr:stedsnr" v="671308" />
	</node>
	<node lat="59.896594988390135" lon="9.597927092999655" id="-18347">
		<tag k="name" v="Marketjenn" />
		<tag k="natural" v="water" />
		<tag k="ssr:stedsnr" v="671817" />
	</node>
	<node lat="59.90229190270812" lon="9.618244518443259" id="-18348">
		<tag k="name" v="Blåtjenn" />
		<tag k="natural" v="water" />
		<tag k="ssr:stedsnr" v="671818" />
	</node>
	<node lat="59.73985000409218" lon="9.590024995742956" id="-18366">
		<tag k="name" v="Trollerudfoss" />
		<tag k="natural" v="waterfall" />
		<tag k="ssr:stedsnr" v="709808" />
	</node>
	<node lat="59.870106119263106" lon="9.27686976679961" id="-18372">
		<tag k="name" v="Vesle Kjevatnet" />
		<tag k="natural" v="water" />
		<tag k="ssr:stedsnr" v="719666" />
	</node>
	<node lat="59.869433330156866" lon="9.537311113249457" id="-18374">
		<tag k="fixme" v="multiple name tags, choose one and add the other to alt_name" />
		<tag k="name" v="Plassetjennet;Bringetjenn" />
		<tag k="natural" v="water" />
		<tag k="ssr:stedsnr" v="721026" />
	</node>
	<node lat="59.794400001163446" lon="9.447283329416166" id="-18375">
		<tag k="name" v="Tonmyrbekken" />
		<tag k="ssr:stedsnr" v="720975" />
		<tag k="waterway" v="stream" />
	</node>
	<node lat="59.92821944694251" lon="9.601597220083729" id="-18376">
		<tag k="name" v="Bakkenbekken" />
		<tag k="ssr:stedsnr" v="722321" />
		<tag k="waterway" v="stream" />
	</node>
	<node lat="59.8096444458755" lon="9.64880278518674" id="-18377">
		<tag k="name" v="Lauvtjern" />
		<tag k="natural" v="water" />
		<tag k="ssr:stedsnr" v="724707" />
	</node>
	<node lat="59.871136113842766" lon="9.29620832565094" id="-18380">
		<tag k="name" v="Smalsundtangen" />
		<tag k="natural" v="cape" />
		<tag k="ssr:stedsnr" v="726328" />
	</node>
	<node lat="59.79977777947635" lon="9.346097225941344" id="-18384">
		<tag k="name" v="Nordre Sandtjern" />
		<tag k="natural" v="water" />
		<tag k="ssr:stedsnr" v="726813" />
	</node>
	<node lat="59.883983336402764" lon="9.253247219165054" id="-18385">
		<tag k="name" v="Svartekulp" />
		<tag k="place" v="locality" />
		<tag k="ssr:stedsnr" v="727329" />
	</node>
	<node lat="59.832186110319405" lon="9.434108335645693" id="-18398">
		<tag k="name" v="Trolielva" />
		<tag k="ssr:stedsnr" v="732123" />
		<tag k="waterway" v="stream" />
	</node>
	<node lat="59.9412777788962" lon="9.52106389320975" id="-18400">
		<tag k="name" v="Mørktjenn" />
		<tag k="natural" v="water" />
		<tag k="ssr:stedsnr" v="732167" />
	</node>
	<node lat="59.82659264243584" lon="9.646355443675175" id="-18407">
		<tag k="name" v="Sandtjenn" />
		<tag k="natural" v="water" />
		<tag k="ssr:stedsnr" v="732709" />
	</node>
	<node lat="59.86362500142681" lon="9.695330547513516" id="-18415">
		<tag k="name" v="Smedsvatnet" />
		<tag k="natural" v="water" />
		<tag k="ssr:stedsnr" v="902680" />
		<tag k="water" v="lake" />
	</node>
	<node lat="59.98215555529208" lon="9.464777784444765" id="-18416">
		<tag k="name" v="Bukketjenn" />
		<tag k="natural" v="water" />
		<tag k="ssr:stedsnr" v="903286" />
	</node>
	<node lat="59.769791670389374" lon="9.639286116979275" id="-18417">
		<tag k="name" v="Søre Tovstjenn" />
		<tag k="natural" v="water" />
		<tag k="ssr:stedsnr" v="904187" />
		<tag k="water" v="lake" />
	</node>
	<node lat="59.799266666189794" lon="9.720533335516638" id="-18419">
		<tag k="name" v="Galaseterfossen" />
		<tag k="natural" v="waterfall" />
		<tag k="ssr:stedsnr" v="754706" />
	</node>
	<node lat="59.8361888846818" lon="9.620666658601028" id="-18430">
		<tag k="name" v="Laksekulp" />
		<tag k="natural" v="water" />
		<tag k="ssr:stedsnr" v="907479" />
		<tag k="water" v="pond" />
	</node>
	<node lat="59.859180556679874" lon="9.562019442570458" id="-18431">
		<tag k="name" v="Lyngdalselva" />
		<tag k="ssr:stedsnr" v="907483" />
		<tag k="waterway" v="river" />
	</node>
	<node lat="59.8454944457099" lon="9.6920444389607" id="-18432">
		<tag k="name" v="Småtjern" />
		<tag k="natural" v="water" />
		<tag k="ssr:stedsnr" v="907486" />
	</node>
	<node lat="59.76130000211366" lon="9.568633329046637" id="-18434">
		<tag k="name" v="Kvennbekken" />
		<tag k="ssr:stedsnr" v="770815" />
		<tag k="waterway" v="stream" />
	</node>
	<node lat="59.956480558704335" lon="9.460694452057853" id="-18436">
		<tag k="name" v="Teksleelva" />
		<tag k="ssr:stedsnr" v="907893" />
		<tag k="waterway" v="river" />
	</node>
	<node lat="59.95396110672932" lon="9.416238897268107" id="-18437">
		<tag k="name" v="Svartkulp" />
		<tag k="natural" v="water" />
		<tag k="ssr:stedsnr" v="907896" />
		<tag k="water" v="pond" />
	</node>
	<node lat="59.85967500130537" lon="9.244530547316428" id="-18439">
		<tag k="name" v="Flåttåa" />
		<tag k="ssr:stedsnr" v="908512" />
		<tag k="waterway" v="river" />
	</node>
	<node lat="59.87388610850169" lon="9.306252778420259" id="-18443">
		<tag k="name" v="Skrubbehølbekken" />
		<tag k="ssr:stedsnr" v="909337" />
		<tag k="waterway" v="stream" />
	</node>
	<node lat="59.88274443997439" lon="9.253275008391594" id="-18444">
		<tag k="name" v="Nybuelva" />
		<tag k="ssr:stedsnr" v="909342" />
		<tag k="waterway" v="river" />
	</node>
	<node lat="59.82486944558431" lon="9.56156943968553" id="-18445">
		<tag k="name" v="Nørdre Soterudtjennet" />
		<tag k="natural" v="water" />
		<tag k="ssr:stedsnr" v="779655" />
	</node>
	<node lat="59.831200002514365" lon="9.654830558382146" id="-18446">
		<tag k="name" v="Bråtatjenn" />
		<tag k="natural" v="water" />
		<tag k="ssr:stedsnr" v="782700" />
	</node>
	<node lat="59.93963888720759" lon="9.578161117589415" id="-18447">
		<tag k="name" v="Brennabekken" />
		<tag k="ssr:stedsnr" v="783307" />
		<tag k="waterway" v="stream" />
	</node>
	<node lat="59.78342777369861" lon="9.553458337944761" id="-18448">
		<tag k="name" v="Pukkverkselva" />
		<tag k="ssr:stedsnr" v="785786" />
		<tag k="waterway" v="river" />
	</node>
	<node lat="59.8437506061995" lon="9.306484860916648" id="-18449">
		<tag k="name" v="Fremste Fagerfjelltjern" />
		<tag k="natural" v="water" />
		<tag k="ssr:stedsnr" v="787501" />
	</node>
	<node lat="59.73894166707778" lon="9.520169441052456" id="-18450">
		<tag k="name" v="Løkkebekken" />
		<tag k="ssr:stedsnr" v="787802" />
		<tag k="waterway" v="stream" />
	</node>
	<node lat="59.872907351833284" lon="9.467105932988778" id="-18454">
		<tag k="name" v="Landetjenn" />
		<tag k="natural" v="water" />
		<tag k="ssr:stedsnr" v="792043" />
	</node>
	<node lat="59.840116662968015" lon="9.491897230890721" id="-18455">
		<tag k="name" v="Huslendbekken" />
		<tag k="ssr:stedsnr" v="792106" />
		<tag k="waterway" v="stream" />
	</node>
	<node lat="59.98920458939902" lon="9.504666985173486" id="-18457">
		<tag k="alt_name" v="Grimesundvatnet" />
		<tag k="name" v="Grimesundsvatnet" />
		<tag k="natural" v="water" />
		<tag k="ssr:stedsnr" v="792285" />
		<tag k="water" v="lake" />
	</node>
	<node lat="59.87169999999145" lon="9.20696944168756" id="-18461">
		<tag k="name" v="Stigerhølen" />
		<tag k="place" v="locality" />
		<tag k="ssr:stedsnr" v="792684" />
	</node>
	<node lat="59.8026749999693" lon="9.465836119309161" id="-18465">
		<tag k="name" v="Svarttjenn" />
		<tag k="natural" v="water" />
		<tag k="ssr:stedsnr" v="792908" />
	</node>
	<node lat="59.94066111231899" lon="9.462566673838666" id="-18467">
		<tag k="name" v="Plasstjenn" />
		<tag k="natural" v="water" />
		<tag k="ssr:stedsnr" v="793129" />
	</node>
	<node lat="59.90397608799863" lon="9.384244914898526" id="-18469">
		<tag k="name" v="Evjutjenna" />
		<tag k="natural" v="water" />
		<tag k="ssr:stedsnr" v="793223" />
		<tag k="water" v="lake" />
	</node>
	<node lat="59.8716166707867" lon="9.58864445163563" id="-18479">
		<tag k="name" v="Grønbuelva" />
		<tag k="ssr:stedsnr" v="914055" />
		<tag k="waterway" v="stream" />
	</node>
	<node lat="59.751011615584716" lon="9.652248374403422" id="-18490">
		<tag k="name" v="Svarttjenn" />
		<tag k="natural" v="water" />
		<tag k="ssr:stedsnr" v="914584" />
		<tag k="water" v="lake" />
	</node>
	<node lat="59.950340788095" lon="9.60382872401898" id="-18493">
		<tag k="name" v="Gislegardstjennet" />
		<tag k="natural" v="water" />
		<tag k="ssr:stedsnr" v="914784" />
	</node>
	<node lat="59.78581724714267" lon="9.371437461786" id="-18494">
		<tag k="name" v="Krokvatna" />
		<tag k="natural" v="water" />
		<tag k="ssr:stedsnr" v="914893" />
		<tag k="water" v="lake" />
	</node>
	<node lat="59.91842777352786" lon="9.645299993181315" id="-18496">
		<tag k="name" v="Langtjennbekken" />
		<tag k="ssr:stedsnr" v="914830" />
		<tag k="waterway" v="stream" />
	</node>
	<node lat="59.91362500005074" lon="9.462138881507109" id="-18498">
		<tag k="name" v="Maurnes" />
		<tag k="natural" v="cape" />
		<tag k="ssr:stedsnr" v="829116" />
	</node>
	<node lat="59.958911110861344" lon="9.468786110366255" id="-18503">
		<tag k="name" v="Blaksund" />
		<tag k="natural" v="strait" />
		<tag k="ssr:stedsnr" v="829771" />
	</node>
	<node lat="59.83540833676108" lon="9.274161103735304" id="-18506">
		<tag k="name" v="Søre Ljøsbuvatnet" />
		<tag k="natural" v="water" />
		<tag k="ssr:stedsnr" v="840698" />
	</node>
	<node lat="59.932636107179356" lon="9.552936105355787" id="-18510">
		<tag k="name" v="Hommelibekken" />
		<tag k="ssr:stedsnr" v="844332" />
		<tag k="waterway" v="stream" />
	</node>
	<node lat="59.929369446112794" lon="9.556675004335595" id="-18511">
		<tag k="name" v="Trytetjernbekken" />
		<tag k="ssr:stedsnr" v="844333" />
		<tag k="waterway" v="stream" />
	</node>
	<node lat="59.8440472254202" lon="9.64663332820822" id="-18512">
		<tag k="name" v="Åstjern" />
		<tag k="natural" v="water" />
		<tag k="ssr:stedsnr" v="846504" />
	</node>
	<node lat="59.84064722340989" lon="9.664019452741156" id="-18514">
		<tag k="name" v="Svarttjern" />
		<tag k="natural" v="water" />
		<tag k="ssr:stedsnr" v="846507" />
	</node>
	<node lat="59.83408055637174" lon="9.562061116271598" id="-18516">
		<tag k="name" v="Tåskjestryken" />
		<tag k="ssr:stedsnr" v="846709" />
		<tag k="waterway" v="rapids" />
	</node>
	<node lat="59.84712499762468" lon="9.476600003213715" id="-18525">
		<tag k="name" v="Gjellerudtjern" />
		<tag k="natural" v="water" />
		<tag k="ssr:stedsnr" v="848478" />
	</node>
	<node lat="59.843919445147996" lon="9.50744166176828" id="-18526">
		<tag k="name" v="Tangen" />
		<tag k="natural" v="cape" />
		<tag k="ssr:stedsnr" v="848480" />
	</node>
	<node lat="59.84036308657891" lon="9.362472611571745" id="-18537">
		<tag k="name" v="Lauvhaugtjennet" />
		<tag k="natural" v="water" />
		<tag k="ssr:stedsnr" v="854059" />
	</node>
	<node lat="59.90143432380793" lon="9.506096273992496" id="-18540">
		<tag k="name" v="Urdretjennet" />
		<tag k="natural" v="water" />
		<tag k="ssr:stedsnr" v="854204" />
	</node>
	<node lat="59.93059721931763" lon="9.459474992156197" id="-18542">
		<tag k="name" v="Haugesjøelva" />
		<tag k="ssr:stedsnr" v="854602" />
		<tag k="waterway" v="river" />
	</node>
	<node lat="59.765366664338366" lon="9.700658333832374" id="-18543">
		<tag k="name" v="Vollsnarhølen" />
		<tag k="place" v="locality" />
		<tag k="ssr:stedsnr" v="876826" />
	</node>
	<node lat="59.96806111379689" lon="9.535383341549213" id="-18547">
		<tag k="name" v="Kjølåsvika" />
		<tag k="natural" v="bay" />
		<tag k="ssr:stedsnr" v="891823" />
	</node>
	<node lat="59.82965555520843" lon="9.693749996775248" id="-18554">
		<tag k="name" v="Nørdre Krøkjevatnet" />
		<tag k="natural" v="water" />
		<tag k="ssr:stedsnr" v="902722" />
	</node>
	<node lat="59.871000000650525" lon="9.603661114237994" id="-18556">
		<tag k="name" v="Mjovatnet" />
		<tag k="natural" v="water" />
		<tag k="ssr:stedsnr" v="903629" />
	</node>
	<node lat="59.77485277442819" lon="9.46011111214922" id="-18557">
		<tag k="name" v="Ådalselva" />
		<tag k="ssr:stedsnr" v="906804" />
		<tag k="waterway" v="river" />
	</node>
	<node lat="59.81835278203773" lon="9.708350001376804" id="-18560">
		<tag k="name" v="Rumpetrolltjern" />
		<tag k="natural" v="water" />
		<tag k="ssr:stedsnr" v="907660" />
	</node>
	<node lat="59.94444166348973" lon="9.462208325964935" id="-18561">
		<tag k="name" v="Tråsåvika" />
		<tag k="natural" v="bay" />
		<tag k="ssr:stedsnr" v="907910" />
	</node>
	<node lat="59.948099999473456" lon="9.473572222609052" id="-18562">
		<tag k="name" v="Brøtanvika" />
		<tag k="natural" v="bay" />
		<tag k="ssr:stedsnr" v="907934" />
	</node>
	<node lat="59.869064888942596" lon="9.497220653246938" id="-18564">
		<tag k="name" v="Lehovdtjenn" />
		<tag k="natural" v="water" />
		<tag k="ssr:stedsnr" v="914029" />
	</node>
	<node lat="59.8226888920347" lon="9.476927773259044" id="-18569">
		<tag k="name" v="Løstadbekken" />
		<tag k="ssr:stedsnr" v="914119" />
		<tag k="waterway" v="stream" />
	</node>
	<node lat="59.86257839491" lon="9.191765714750485" id="-18575">
		<tag k="name" v="Sløkjedalsvatnet" />
		<tag k="natural" v="water" />
		<tag k="ssr:stedsnr" v="914707" />
	</node>
	<node lat="59.79514052006466" lon="9.435499459149915" id="-18577">
		<tag k="name" v="Tonmyrtjennet" />
		<tag k="natural" v="water" />
		<tag k="ssr:stedsnr" v="914904" />
	</node>
	<node lat="59.804130557052275" lon="9.303236109300196" id="-18578">
		<tag k="name" v="Skjentjenna" />
		<tag k="natural" v="water" />
		<tag k="old_name" v="Skjeentjerna" />
		<tag k="ssr:stedsnr" v="914933" />
		<tag k="water" v="lake" />
	</node>
	<node lat="59.819669526452174" lon="9.479273501435522" id="-18579">
		<tag k="alt_name" v="Fremstemyrtjenn" />
		<tag k="name" v="Fremstetjenn" />
		<tag k="natural" v="water" />
		<tag k="ssr:stedsnr" v="915122" />
	</node>
	<node lat="59.81003870864687" lon="9.541922453970708" id="-18581">
		<tag k="name" v="Skardtjenn" />
		<tag k="natural" v="water" />
		<tag k="ssr:stedsnr" v="915922" />
	</node>
	<node lat="59.803586107364296" lon="9.69376111583883" id="-18584">
		<tag k="name" v="Bergtjern" />
		<tag k="natural" v="water" />
		<tag k="ssr:stedsnr" v="951688" />
	</node>
	<node lat="59.86837777548303" lon="9.279522228095876" id="-18587">
		<tag k="name" v="Store Kjevatnet" />
		<tag k="natural" v="water" />
		<tag k="ssr:stedsnr" v="961715" />
	</node>
	<node lat="59.78015555582299" lon="9.707966665725595" id="-18590">
		<tag k="name" v="Nørdre Ullandsetertjenn" />
		<tag k="natural" v="water" />
		<tag k="ssr:stedsnr" v="963840" />
	</node>
	<node lat="59.782344441831945" lon="9.361272229525424" id="-18601">
		<tag k="name" v="Rundevatnet" />
		<tag k="natural" v="water" />
		<tag k="ssr:stedsnr" v="3892" />
	</node>
	<node lat="59.74643889101608" lon="9.71328611442218" id="-18603">
		<tag k="name" v="Dørsjø" />
		<tag k="natural" v="water" />
		<tag k="ssr:stedsnr" v="3654" />
	</node>
	<node lat="59.82252214144056" lon="9.67378211655377" id="-18605">
		<tag k="name" v="Svarttjenn" />
		<tag k="natural" v="water" />
		<tag k="ssr:stedsnr" v="4498" />
	</node>
	<node lat="59.854808335259925" lon="9.367308324861225" id="-18608">
		<tag k="name" v="Vrengja" />
		<tag k="ssr:stedsnr" v="4057" />
		<tag k="waterway" v="stream" />
	</node>
	<node lat="59.95660345791358" lon="9.540215668658936" id="-18610">
		<tag k="name" v="Tannbergtjenn" />
		<tag k="natural" v="water" />
		<tag k="ssr:stedsnr" v="4132" />
	</node>
	<node lat="59.94434863694436" lon="9.565388132823214" id="-18612">
		<tag k="name" v="Gåstjenn" />
		<tag k="natural" v="water" />
		<tag k="ssr:stedsnr" v="4156" />
	</node>
	<node lat="59.96072221786193" lon="9.589283335352427" id="-18617">
		<tag k="name" v="Geitøya" />
		<tag k="place" v="islet" />
		<tag k="ssr:stedsnr" v="4353" />
	</node>
	<node lat="59.86257502293728" lon="9.687694706169964" id="-18619">
		<tag k="name" v="Sagtjenn" />
		<tag k="natural" v="water" />
		<tag k="ssr:stedsnr" v="4641" />
	</node>
	<node lat="59.77486111244387" lon="9.70339166346579" id="-18624">
		<tag k="name" v="Søre Ullandsetertjenn" />
		<tag k="natural" v="water" />
		<tag k="ssr:stedsnr" v="26779" />
	</node>
</osm>
