<?xml version="1.0" encoding="UTF-8"?>
<osm version="0.6" generator="osmapis">
	<node lat="59.731119446568435" lon="9.590563893691435" id="-33162">
		<tag k="name" v="Konningen" />
		<tag k="old_name" v="Konning" />
		<tag k="place" v="farm" />
		<tag k="ssr:stedsnr" v="3408" />
	</node>
	<node lat="59.8533527821027" lon="9.488463887327843" id="-33169">
		<tag k="name" v="Nordre Vangestad" />
		<tag k="place" v="farm" />
		<tag k="ssr:stedsnr" v="4073" />
	</node>
	<node lat="59.84479078237878" lon="9.56810259420781" id="-33172">
		<tag k="alt_name" v="Ranvik" />
		<tag k="fixme" v="consider place=hamlet" />
		<tag k="name" v="Ramvik" />
		<tag k="place" v="farm" />
		<tag k="ssr:stedsnr" v="4090" />
	</node>
	<node lat="59.845286111646786" lon="9.524038894095463" id="-33173">
		<tag k="fixme" v="consider place=hamlet" />
		<tag k="name" v="Rud" />
		<tag k="place" v="farm" />
		<tag k="ssr:stedsnr" v="4091" />
	</node>
	<node lat="59.801433331181094" lon="9.6740750085006" id="-33174">
		<tag k="alt_name" v="Fonnerudsetra" />
		<tag k="historic" v="shieling" />
		<tag k="name" v="Fønnerudsetra" />
		<tag k="place" v="isolated_dwelling" />
		<tag k="ssr:stedsnr" v="4501" />
	</node>
	<node lat="59.791325003238406" lon="9.583575004235117" id="-33177">
		<tag k="name" v="Nedre Grette" />
		<tag k="place" v="farm" />
		<tag k="ssr:stedsnr" v="4918" />
	</node>
	<node lat="59.792763414211834" lon="9.578822518577303" id="-33178">
		<tag k="fixme" v="consider place=suburb, village or hamlet" />
		<tag k="name" v="Svene" />
		<tag k="place" v="quarter" />
		<tag k="ssr:stedsnr" v="4929" />
	</node>
	<node lat="59.80536100967214" lon="9.581120290261497" id="-33179">
		<tag k="fixme" v="consider place=hamlet" />
		<tag k="name" v="Enga" />
		<tag k="place" v="farm" />
		<tag k="ssr:stedsnr" v="4940" />
	</node>
	<node lat="59.881911110636345" lon="9.48922778013052" id="-33189">
		<tag k="name" v="Gjømlebråtan" />
		<tag k="place" v="locality" />
		<tag k="ssr:stedsnr" v="40160" />
	</node>
	<node lat="59.87109166808385" lon="9.485852784807017" id="-33190">
		<tag k="name" v="Nedre Lehovd" />
		<tag k="place" v="farm" />
		<tag k="ssr:stedsnr" v="40172" />
	</node>
	<node lat="59.85841111408154" lon="9.416097213591174" id="-33192">
		<tag k="building" v="industrial" />
		<tag k="industrial" v="factory" />
		<tag k="name" v="Norske Fjellhus" />
		<tag k="ssr:stedsnr" v="40316" />
	</node>
	<node lat="59.84403588657923" lon="9.46817269667831" id="-33196">
		<tag k="fixme" v="consider place=hamlet" />
		<tag k="name" v="Gjellerud" />
		<tag k="place" v="farm" />
		<tag k="ssr:stedsnr" v="41515" />
	</node>
	<node lat="59.92964722650229" lon="9.601924995407453" id="-33210">
		<tag k="name" v="Bakken" />
		<tag k="place" v="locality" />
		<tag k="ssr:stedsnr" v="55300" />
	</node>
	<node lat="59.80961666997416" lon="9.670424995652677" id="-33215">
		<tag k="historic" v="shieling" />
		<tag k="name" v="Nordre Gutterudsetra" />
		<tag k="place" v="isolated_dwelling" />
		<tag k="ssr:stedsnr" v="57713" />
	</node>
	<node lat="59.91840833073908" lon="9.499530559531486" id="-33217">
		<tag k="name" v="Mellom-Bakli" />
		<tag k="place" v="farm" />
		<tag k="ssr:stedsnr" v="57903" />
	</node>
	<node lat="59.82573333545652" lon="9.276436111842791" id="-33219">
		<tag k="fixme" v="consider tourism=alpine_hut or tourism=chalet" />
		<tag k="name" v="Werenskioldhytta" />
		<tag k="ssr:stedsnr" v="57970" />
		<tag k="tourism" v="wilderness_hut" />
	</node>
	<node lat="59.87365000024767" lon="9.47554999721153" id="-33230">
		<tag k="name" v="Frågått" />
		<tag k="old_name" v="Vraagaat" />
		<tag k="place" v="farm" />
		<tag k="ssr:stedsnr" v="64027" />
	</node>
	<node lat="59.769649998996435" lon="9.608219442787993" id="-33234">
		<tag k="name" v="Hagan" />
		<tag k="place" v="farm" />
		<tag k="ssr:stedsnr" v="64603" />
	</node>
	<node lat="59.78746389125628" lon="9.58214721867035" id="-33236">
		<tag k="name" v="Øya" />
		<tag k="place" v="farm" />
		<tag k="ssr:stedsnr" v="64917" />
	</node>
	<node lat="59.881083333239864" lon="9.377508341749481" id="-33240">
		<tag k="name" v="Toresenga" />
		<tag k="place" v="farm" />
		<tag k="ssr:stedsnr" v="241344" />
	</node>
	<node lat="59.77922536477219" lon="9.602912655256457" id="-33245">
		<tag k="fixme" v="consider place=hamlet" />
		<tag k="name" v="Årud" />
		<tag k="place" v="farm" />
		<tag k="ssr:stedsnr" v="65516" />
	</node>
	<node lat="59.87695555962659" lon="9.487488897599805" id="-33248">
		<tag k="name" v="Dølabråtan" />
		<tag k="place" v="isolated_dwelling" />
		<tag k="ssr:stedsnr" v="246038" />
	</node>
	<node lat="59.93168332968439" lon="9.43801945102042" id="-33257">
		<tag k="name" v="Nordre Holtan" />
		<tag k="place" v="farm" />
		<tag k="ssr:stedsnr" v="246169" />
	</node>
	<node lat="59.74599722312653" lon="9.583374994749759" id="-33260">
		<tag k="name" v="Belgen" />
		<tag k="place" v="farm" />
		<tag k="ssr:stedsnr" v="246465" />
	</node>
	<node lat="59.7530416711678" lon="9.672299999624" id="-33261">
		<tag k="alt_name" v="Søndre Ulland" />
		<tag k="name" v="Søre Ulland" />
		<tag k="place" v="farm" />
		<tag k="ssr:stedsnr" v="246543" />
	</node>
	<node lat="59.90446110991508" lon="9.593122221957309" id="-33263">
		<tag k="alt_name" v="Fekjasetra;Fekjansetra" />
		<tag k="historic" v="shieling" />
		<tag k="name" v="Fetjasetra" />
		<tag k="place" v="isolated_dwelling" />
		<tag k="ssr:stedsnr" v="246799" />
	</node>
	<node lat="59.9475388908068" lon="9.567000004982761" id="-33268">
		<tag k="name" v="Kjosar" />
		<tag k="place" v="farm" />
		<tag k="ssr:stedsnr" v="247159" />
	</node>
	<node lat="59.94628611217626" lon="9.547163897078212" id="-33269">
		<tag k="name" v="Bråta" />
		<tag k="place" v="farm" />
		<tag k="ssr:stedsnr" v="247160" />
	</node>
	<node lat="59.94620673437591" lon="9.539129343423982" id="-33270">
		<tag k="fixme" v="consider place=hamlet" />
		<tag k="name" v="Rust" />
		<tag k="place" v="farm" />
		<tag k="ssr:stedsnr" v="247161" />
	</node>
	<node lat="59.91898021260628" lon="9.510364878250387" id="-33271">
		<tag k="alt_name" v="Lyngbakken" />
		<tag k="name" v="Kjerstiplassen" />
		<tag k="place" v="isolated_dwelling" />
		<tag k="ssr:stedsnr" v="247184" />
	</node>
	<node lat="59.926524995576294" lon="9.626025004046133" id="-33281">
		<tag k="name" v="Grønli" />
		<tag k="place" v="farm" />
		<tag k="ssr:stedsnr" v="247835" />
	</node>
	<node lat="59.92005000223596" lon="9.68245277467138" id="-33283">
		<tag k="alt_name" v="Ingebu" />
		<tag k="name" v="Vestre Ingebu" />
		<tag k="place" v="farm" />
		<tag k="ssr:stedsnr" v="247840" />
	</node>
	<node lat="59.853574378676385" lon="9.49599926165879" id="-33292">
		<tag k="fixme" v="consider place=hamlet" />
		<tag k="name" v="Vangestad" />
		<tag k="old_name" v="Vangstad" />
		<tag k="place" v="farm" />
		<tag k="ssr:stedsnr" v="113278" />
	</node>
	<node lat="59.81705277838462" lon="9.438883327135347" id="-33300">
		<tag k="alt_name" v="Bergs Sr" />
		<tag k="historic" v="shieling" />
		<tag k="loc_name" v="Bergssetra" />
		<tag k="name" v="Bergsetra" />
		<tag k="place" v="isolated_dwelling" />
		<tag k="ssr:stedsnr" v="117993" />
	</node>
	<node lat="59.84498537575452" lon="9.435626557944405" id="-33304">
		<tag k="name" v="Sagstua" />
		<tag k="place" v="locality" />
		<tag k="ssr:stedsnr" v="119503" />
	</node>
	<node lat="59.73821944180349" lon="9.59551110920953" id="-33307">
		<tag k="name" v="Berget" />
		<tag k="place" v="isolated_dwelling" />
		<tag k="ssr:stedsnr" v="124612" />
	</node>
	<node lat="59.88069411638255" lon="9.477154568544302" id="-33308">
		<tag k="fixme" v="consider place=hamlet" />
		<tag k="name" v="Øyberg" />
		<tag k="place" v="farm" />
		<tag k="ssr:stedsnr" v="125014" />
	</node>
	<node lat="59.859680552020365" lon="9.383705556556281" id="-33310">
		<tag k="name" v="Rognlia" />
		<tag k="place" v="farm" />
		<tag k="ssr:stedsnr" v="125059" />
	</node>
	<node lat="59.85671944270172" lon="9.4072194532314" id="-33311">
		<tag k="name" v="Vinger" />
		<tag k="place" v="farm" />
		<tag k="ssr:stedsnr" v="125065" />
	</node>
	<node lat="59.836470261516205" lon="9.540427598754103" id="-33314">
		<tag k="fixme" v="consider place=hamlet" />
		<tag k="name" v="Strålsund" />
		<tag k="place" v="farm" />
		<tag k="ssr:stedsnr" v="125109" />
	</node>
	<node lat="59.92781666922175" lon="9.501902770076232" id="-33316">
		<tag k="alt_name" v="Søndre Låg" />
		<tag k="name" v="Søre Låg" />
		<tag k="place" v="farm" />
		<tag k="ssr:stedsnr" v="125188" />
	</node>
	<node lat="59.85528663943257" lon="9.662085278456036" id="-33319">
		<tag k="fixme" v="consider place=hamlet" />
		<tag k="name" v="Dokka" />
		<tag k="place" v="farm" />
		<tag k="ssr:stedsnr" v="125748" />
	</node>
	<node lat="59.80783611270587" lon="9.585355547476457" id="-33321">
		<tag k="name" v="Mojaren" />
		<tag k="place" v="farm" />
		<tag k="ssr:stedsnr" v="126915" />
	</node>
	<node lat="59.80454311523331" lon="9.588600908262288" id="-33322">
		<tag k="fixme" v="consider place=hamlet" />
		<tag k="name" v="Bråta" />
		<tag k="place" v="farm" />
		<tag k="ssr:stedsnr" v="126918" />
	</node>
	<node lat="59.915386026040245" lon="9.536750376110463" id="-33332">
		<tag k="name" v="Huset" />
		<tag k="place" v="locality" />
		<tag k="ssr:stedsnr" v="179907" />
	</node>
	<node lat="59.837229750728866" lon="9.493861899649193" id="-33339">
		<tag k="fixme" v="consider place=hamlet" />
		<tag k="name" v="Huslende" />
		<tag k="place" v="farm" />
		<tag k="ssr:stedsnr" v="185094" />
	</node>
	<node lat="59.740130559023825" lon="9.608080558197758" id="-33340">
		<tag k="name" v="Brekke" />
		<tag k="place" v="farm" />
		<tag k="ssr:stedsnr" v="185630" />
	</node>
	<node lat="59.85878055128225" lon="9.44462777212705" id="-33346">
		<tag k="name" v="Nordre Fekjan" />
		<tag k="place" v="farm" />
		<tag k="ssr:stedsnr" v="186042" />
	</node>
	<node lat="59.85872777448329" lon="9.50180832466092" id="-33347">
		<tag k="fixme" v="consider place=hamlet" />
		<tag k="name" v="Ørstein" />
		<tag k="place" v="farm" />
		<tag k="ssr:stedsnr" v="186043" />
	</node>
	<node lat="59.920527774734275" lon="9.40148888261372" id="-33350">
		<tag k="alt_name" v="Søndre Buin" />
		<tag k="name" v="Søre Buin" />
		<tag k="place" v="farm" />
		<tag k="ssr:stedsnr" v="186182" />
	</node>
	<node lat="59.91544444630102" lon="9.470254850878284" id="-33352">
		<tag k="fixme" v="consider place=hamlet" />
		<tag k="name" v="Strand" />
		<tag k="place" v="farm" />
		<tag k="ssr:stedsnr" v="186189" />
	</node>
	<node lat="59.908921624133995" lon="9.522157843372984" id="-33353">
		<tag k="fixme" v="consider place=hamlet" />
		<tag k="name" v="Bakke" />
		<tag k="place" v="farm" />
		<tag k="ssr:stedsnr" v="186201" />
	</node>
	<node lat="59.75437777945471" lon="9.599824999307481" id="-33355">
		<tag k="name" v="Håvardsrudhagan" />
		<tag k="place" v="farm" />
		<tag k="ssr:stedsnr" v="186625" />
	</node>
	<node lat="59.80547500394542" lon="9.519961106331973" id="-33357">
		<tag k="historic" v="shieling" />
		<tag k="name" v="Sandbekksetra" />
		<tag k="place" v="isolated_dwelling" />
		<tag k="ssr:stedsnr" v="186926" />
	</node>
	<node lat="59.756930554693895" lon="9.527583329405319" id="-33358">
		<tag k="alt_name" v="Søndre Valders" />
		<tag k="name" v="Søre Valders" />
		<tag k="place" v="farm" />
		<tag k="ssr:stedsnr" v="186979" />
	</node>
	<node lat="59.76162777510954" lon="9.525166663688848" id="-33359">
		<tag k="name" v="Nordre Valders" />
		<tag k="place" v="farm" />
		<tag k="ssr:stedsnr" v="186981" />
	</node>
	<node lat="59.879944444215006" lon="9.466813897399364" id="-33363">
		<tag k="name" v="Nordre Lande" />
		<tag k="place" v="farm" />
		<tag k="ssr:stedsnr" v="222123" />
	</node>
	<node lat="59.80374722426964" lon="9.586502782007074" id="-33371">
		<tag k="name" v="Nedre Bråta" />
		<tag k="place" v="farm" />
		<tag k="ssr:stedsnr" v="223716" />
	</node>
	<node lat="59.78895289347146" lon="9.597258985753367" id="-33372">
		<tag k="name" v="Søre Gutterud" />
		<tag k="place" v="farm" />
		<tag k="ssr:stedsnr" v="223719" />
	</node>
	<node lat="59.79259166899857" lon="9.58967500766131" id="-33374">
		<tag k="name" v="Øvre Grette" />
		<tag k="place" v="farm" />
		<tag k="ssr:stedsnr" v="224508" />
	</node>
	<node lat="59.95606666671538" lon="9.583461111065738" id="-33380">
		<tag k="historic" v="shieling" />
		<tag k="name" v="Kjosarsetra" />
		<tag k="place" v="isolated_dwelling" />
		<tag k="ssr:stedsnr" v="237327" />
	</node>
	<node lat="59.885293959663066" lon="9.491063481900188" id="-33389">
		<tag k="fixme" v="consider place=hamlet" />
		<tag k="name" v="Gjømle" />
		<tag k="place" v="farm" />
		<tag k="ssr:stedsnr" v="246017" />
	</node>
	<node lat="59.88279721788434" lon="9.561616670332159" id="-33390">
		<tag k="alt_name" v="Bergssetra" />
		<tag k="historic" v="shieling" />
		<tag k="name" v="Gurisetra" />
		<tag k="place" v="isolated_dwelling" />
		<tag k="ssr:stedsnr" v="246020" />
	</node>
	<node lat="59.73970000084254" lon="9.522675007834463" id="-33392">
		<tag k="name" v="Viermyr" />
		<tag k="place" v="isolated_dwelling" />
		<tag k="ssr:stedsnr" v="246408" />
	</node>
	<node lat="59.9732027741394" lon="9.482297222949079" id="-33396">
		<tag k="name" v="Mogen" />
		<tag k="place" v="farm" />
		<tag k="ssr:stedsnr" v="246314" />
	</node>
	<node lat="59.896663892815056" lon="9.696377775605807" id="-33400">
		<tag k="name" v="Ulstad" />
		<tag k="place" v="isolated_dwelling" />
		<tag k="ssr:stedsnr" v="246805" />
	</node>
	<node lat="59.77891666524834" lon="9.574811103519306" id="-33401">
		<tag k="name" v="Øygarden" />
		<tag k="place" v="farm" />
		<tag k="ssr:stedsnr" v="246874" />
	</node>
	<node lat="59.84049444728413" lon="9.538772221450216" id="-33404">
		<tag k="name" v="Møte" />
		<tag k="place" v="farm" />
		<tag k="ssr:stedsnr" v="247070" />
	</node>
	<node lat="59.80173333098911" lon="9.673741671147297" id="-33408">
		<tag k="historic" v="shieling" />
		<tag k="name" v="Gvamseter" />
		<tag k="place" v="isolated_dwelling" />
		<tag k="ssr:stedsnr" v="268794" />
	</node>
	<node lat="59.807475002932215" lon="9.58867223047799" id="-33419">
		<tag k="name" v="Moen" />
		<tag k="place" v="farm" />
		<tag k="ssr:stedsnr" v="284684" />
	</node>
	<node lat="59.89927222534783" lon="9.678755558526955" id="-33422">
		<tag k="name" v="Ulsbekkhytta" />
		<tag k="place" v="farm" />
		<tag k="ssr:stedsnr" v="295219" />
	</node>
	<node lat="59.945096641337656" lon="9.493343910120213" id="-33434">
		<tag k="fixme" v="consider place=hamlet" />
		<tag k="name" v="Bjørkeset" />
		<tag k="place" v="farm" />
		<tag k="ssr:stedsnr" v="300912" />
	</node>
	<node lat="59.834174999552445" lon="9.315950008888226" id="-33437">
		<tag k="name" v="Fagerfjell turistsenter" />
		<tag k="old_name" v="Fagerli turistsenter" />
		<tag k="ssr:stedsnr" v="301512" />
		<tag k="tourism" v="hotel" />
	</node>
	<node lat="59.788713890319045" lon="9.382538886676544" id="-33443">
		<tag k="fixme" v="consider tourism=alpine_hut or tourism=chalet" />
		<tag k="name" v="Strutåsen fjellstue" />
		<tag k="ssr:stedsnr" v="301796" />
		<tag k="tourism" v="wilderness_hut" />
	</node>
	<node lat="59.91658888489875" lon="9.389161105773848" id="-33446">
		<tag k="name" v="Ormenatten" />
		<tag k="place" v="isolated_dwelling" />
		<tag k="ssr:stedsnr" v="464088" />
	</node>
	<node lat="59.86552500209828" lon="9.584261106172278" id="-33461">
		<tag k="name" v="Karlsrud" />
		<tag k="place" v="farm" />
		<tag k="ssr:stedsnr" v="307055" />
	</node>
	<node lat="59.905700002367006" lon="9.542116672779496" id="-33465">
		<tag k="name" v="Nordre Gjerde" />
		<tag k="place" v="farm" />
		<tag k="ssr:stedsnr" v="307228" />
	</node>
	<node lat="59.85381666825062" lon="9.458183332461722" id="-33468">
		<tag k="name" v="Øvre Neset" />
		<tag k="place" v="farm" />
		<tag k="ssr:stedsnr" v="465303" />
	</node>
	<node lat="59.75303611510874" lon="9.614477773089545" id="-33472">
		<tag k="name" v="Søre Håvardsrud" />
		<tag k="place" v="farm" />
		<tag k="ssr:stedsnr" v="465888" />
	</node>
	<node lat="59.738588890461386" lon="9.589130561848453" id="-33477">
		<tag k="building" v="industrial" />
		<tag k="name" v="Sølvverksstua" />
		<tag k="ssr:stedsnr" v="466838" />
	</node>
	<node lat="59.897572225804375" lon="9.564972218067515" id="-33496">
		<tag k="name" v="Høljeplass" />
		<tag k="place" v="locality" />
		<tag k="ssr:stedsnr" v="358331" />
	</node>
	<node lat="59.837819447290585" lon="9.473075002139735" id="-33507">
		<tag k="name" v="Bergshagan" />
		<tag k="place" v="farm" />
		<tag k="ssr:stedsnr" v="367085" />
	</node>
	<node lat="59.74804444814159" lon="9.708763887609512" id="-33510">
		<tag k="name" v="Dørsjø" />
		<tag k="place" v="farm" />
		<tag k="ssr:stedsnr" v="367673" />
	</node>
	<node lat="59.8699111078099" lon="9.331163884583217" id="-33511">
		<tag k="fixme" v="consider tourism=alpine_hut or tourism=chalet" />
		<tag k="name" v="Blekroa" />
		<tag k="ssr:stedsnr" v="368029" />
		<tag k="tourism" v="wilderness_hut" />
	</node>
	<node lat="59.9088777792229" lon="9.53026388498058" id="-33517">
		<tag k="name" v="Øvre Berget" />
		<tag k="place" v="farm" />
		<tag k="ssr:stedsnr" v="368225" />
	</node>
	<node lat="59.946707623022796" lon="9.556518214970804" id="-33518">
		<tag k="fixme" v="consider place=hamlet" />
		<tag k="name" v="Jerpeton" />
		<tag k="place" v="farm" />
		<tag k="ssr:stedsnr" v="368181" />
	</node>
	<node lat="59.95263055434883" lon="9.487691670527548" id="-33520">
		<tag k="name" v="Øvre Bjørkeset" />
		<tag k="place" v="farm" />
		<tag k="ssr:stedsnr" v="368379" />
	</node>
	<node lat="59.95765882072206" lon="9.4802434835435" id="-33521">
		<tag k="fixme" v="consider place=hamlet" />
		<tag k="name" v="Botnan" />
		<tag k="place" v="farm" />
		<tag k="ssr:stedsnr" v="368382" />
	</node>
	<node lat="59.78632499941953" lon="9.68860834129611" id="-33525">
		<tag k="historic" v="shieling" />
		<tag k="name" v="Årudsetra" />
		<tag k="place" v="isolated_dwelling" />
		<tag k="ssr:stedsnr" v="368633" />
	</node>
	<node lat="59.78838055155577" lon="9.585538885627164" id="-33534">
		<tag k="name" v="Krinkhaug" />
		<tag k="place" v="farm" />
		<tag k="ssr:stedsnr" v="480245" />
	</node>
	<node lat="59.840225003300006" lon="9.623613889600158" id="-33536">
		<tag k="historic" v="shieling" />
		<tag k="name" v="Lampelandsetra" />
		<tag k="place" v="isolated_dwelling" />
		<tag k="ssr:stedsnr" v="482536" />
	</node>
	<node lat="59.84220833484385" lon="9.480472229735856" id="-33543">
		<tag k="name" v="Vestre Berget" />
		<tag k="place" v="farm" />
		<tag k="ssr:stedsnr" v="483498" />
	</node>
	<node lat="59.83611388614549" lon="9.503719446408391" id="-33544">
		<tag k="name" v="Vestre Åsland" />
		<tag k="place" v="farm" />
		<tag k="ssr:stedsnr" v="483500" />
	</node>
	<node lat="59.78143055563307" lon="9.710188882279896" id="-33546">
		<tag k="name" v="Prestvassplassen" />
		<tag k="place" v="isolated_dwelling" />
		<tag k="ssr:stedsnr" v="390807" />
	</node>
	<node lat="59.79563333345881" lon="9.583705552157502" id="-33554">
		<tag k="leisure" v="pitch" />
		<tag k="name" v="Svenekollen" />
		<tag k="ssr:stedsnr" v="405707" />
	</node>
	<node lat="59.761919441932044" lon="9.58688889003869" id="-33557">
		<tag k="name" v="Søre Gvila" />
		<tag k="place" v="locality" />
		<tag k="ssr:stedsnr" v="405886" />
	</node>
	<node lat="59.92186462305474" lon="9.445774928452703" id="-33571">
		<tag k="fixme" v="consider place=hamlet" />
		<tag k="name" v="Landerud" />
		<tag k="place" v="farm" />
		<tag k="ssr:stedsnr" v="489196" />
	</node>
	<node lat="59.851625002112584" lon="9.511733331523892" id="-33573">
		<tag k="name" v="Kleiva" />
		<tag k="place" v="farm" />
		<tag k="ssr:stedsnr" v="489082" />
	</node>
	<node lat="59.89568611183744" lon="9.569491662310794" id="-33585">
		<tag k="name" v="Hanserud" />
		<tag k="place" v="farm" />
		<tag k="ssr:stedsnr" v="489280" />
	</node>
	<node lat="59.95691041566862" lon="9.521859835658272" id="-33586">
		<tag k="fixme" v="consider place=hamlet" />
		<tag k="name" v="Gautnebb" />
		<tag k="place" v="farm" />
		<tag k="ssr:stedsnr" v="489357" />
	</node>
	<node lat="59.95099361007963" lon="9.504023237199993" id="-33587">
		<tag k="fixme" v="consider place=hamlet" />
		<tag k="name" v="Kjølås" />
		<tag k="place" v="farm" />
		<tag k="ssr:stedsnr" v="489360" />
	</node>
	<node lat="59.966280553510806" lon="9.493277775108574" id="-33588">
		<tag k="name" v="Flatin" />
		<tag k="place" v="farm" />
		<tag k="ssr:stedsnr" v="489333" />
	</node>
	<node lat="59.952841669305926" lon="9.507711119248963" id="-33592">
		<tag k="name" v="Østre Kjølås" />
		<tag k="place" v="farm" />
		<tag k="ssr:stedsnr" v="422945" />
	</node>
	<node lat="59.852386107244" lon="9.343627772187455" id="-33596">
		<tag k="historic" v="shieling" />
		<tag k="name" v="Pinka" />
		<tag k="place" v="isolated_dwelling" />
		<tag k="ssr:stedsnr" v="423311" />
	</node>
	<node lat="59.80734722384798" lon="9.608686111230172" id="-33598">
		<tag k="name" v="Nedre Berg" />
		<tag k="place" v="farm" />
		<tag k="ssr:stedsnr" v="489578" />
	</node>
	<node lat="59.835880553009375" lon="9.510711116398117" id="-33601">
		<tag k="name" v="Åsland" />
		<tag k="place" v="farm" />
		<tag k="ssr:stedsnr" v="423507" />
	</node>
	<node lat="59.77669722567537" lon="9.579152774334995" id="-33612">
		<tag k="name" v="Ramsrud" />
		<tag k="place" v="farm" />
		<tag k="ssr:stedsnr" v="489872" />
	</node>
	<node lat="59.76965000377323" lon="9.444299998145349" id="-33613">
		<tag k="name" v="Blestølen" />
		<tag k="place" v="neighbourhood" />
		<tag k="ssr:stedsnr" v="489874" />
	</node>
	<node lat="59.86925277690129" lon="9.231241658293504" id="-33620">
		<tag k="historic" v="shieling" />
		<tag k="name" v="Bråtahøl" />
		<tag k="old_name" v="Braatehul" />
		<tag k="place" v="isolated_dwelling" />
		<tag k="ssr:stedsnr" v="428018" />
	</node>
	<node lat="59.92712777991417" lon="9.382536118159832" id="-33621">
		<tag k="name" v="Øvre Brattås" />
		<tag k="place" v="farm" />
		<tag k="ssr:stedsnr" v="428161" />
	</node>
	<node lat="59.76588055325119" lon="9.607580556056247" id="-33625">
		<tag k="alt_name" v="Nordre Ås" />
		<tag k="name" v="Nord-Ås" />
		<tag k="place" v="farm" />
		<tag k="ssr:stedsnr" v="428519" />
	</node>
	<node lat="59.836024996103504" lon="9.69372222957986" id="-33628">
		<tag k="name" v="Gruvevollen" />
		<tag k="place" v="isolated_dwelling" />
		<tag k="ssr:stedsnr" v="490752" />
	</node>
	<node lat="59.85231389046827" lon="9.40245278644383" id="-33629">
		<tag k="name" v="Nordre Solum" />
		<tag k="place" v="farm" />
		<tag k="ssr:stedsnr" v="429054" />
	</node>
	<node lat="59.842522062953385" lon="9.480650032213438" id="-33631">
		<tag k="fixme" v="consider place=hamlet" />
		<tag k="name" v="Berget" />
		<tag k="place" v="farm" />
		<tag k="ssr:stedsnr" v="429067" />
	</node>
	<node lat="59.82919395638932" lon="9.53385636211067" id="-33633">
		<tag k="fixme" v="consider place=hamlet" />
		<tag k="name" v="Tollum" />
		<tag k="place" v="farm" />
		<tag k="ssr:stedsnr" v="429112" />
	</node>
	<node lat="59.831685750356755" lon="9.564916212795547" id="-33634">
		<tag k="alt_name" v="Tåskje" />
		<tag k="fixme" v="consider place=hamlet" />
		<tag k="name" v="Toskje" />
		<tag k="old_name" v="Taaske" />
		<tag k="place" v="farm" />
		<tag k="ssr:stedsnr" v="429114" />
	</node>
	<node lat="59.939441667024916" lon="9.47863610364169" id="-33636">
		<tag k="fixme" v="consider place=hamlet" />
		<tag k="name" v="Dusterud" />
		<tag k="place" v="farm" />
		<tag k="ssr:stedsnr" v="429123" />
	</node>
	<node lat="59.906624997800165" lon="9.524449993106456" id="-33638">
		<tag k="fixme" v="consider place=hamlet" />
		<tag k="name" v="Livland" />
		<tag k="old_name" v="Liveland" />
		<tag k="place" v="farm" />
		<tag k="ssr:stedsnr" v="429194" />
	</node>
	<node lat="59.75229722393719" lon="9.589727776986358" id="-33639">
		<tag k="name" v="Gråten" />
		<tag k="place" v="farm" />
		<tag k="ssr:stedsnr" v="429606" />
	</node>
	<node lat="59.79917500134978" lon="9.578741666621736" id="-33643">
		<tag k="name" v="Svenesund" />
		<tag k="place" v="farm" />
		<tag k="ssr:stedsnr" v="429918" />
	</node>
	<node lat="59.83971944247484" lon="9.454169447350333" id="-33645">
		<tag k="name" v="Nedre Værås" />
		<tag k="place" v="farm" />
		<tag k="ssr:stedsnr" v="671094" />
	</node>
	<node lat="59.83377400423533" lon="9.319205242850437" id="-33646">
		<tag k="name" v="Fagerfjell" />
		<tag k="place" v="neighbourhood" />
		<tag k="ssr:stedsnr" v="671098" />
	</node>
	<node lat="59.93198611451483" lon="9.535388884124433" id="-33651">
		<tag k="name" v="Øvre Hommelia" />
		<tag k="place" v="farm" />
		<tag k="ssr:stedsnr" v="671158" />
	</node>
	<node lat="59.89854292759165" lon="9.383044121927298" id="-33653">
		<tag k="fixme" v="consider place=hamlet" />
		<tag k="name" v="Evju" />
		<tag k="place" v="farm" />
		<tag k="ssr:stedsnr" v="671226" />
	</node>
	<node lat="59.97547500171686" lon="9.487238880535259" id="-33658">
		<tag k="name" v="Grøterudplassen" />
		<tag k="place" v="farm" />
		<tag k="ssr:stedsnr" v="671330" />
	</node>
	<node lat="59.75923611065726" lon="9.676180555598672" id="-33660">
		<tag k="name" v="Nordre Ulland" />
		<tag k="place" v="farm" />
		<tag k="ssr:stedsnr" v="671570" />
	</node>
	<node lat="59.858613150133635" lon="9.651929117681204" id="-33661">
		<tag k="fixme" v="consider place=hamlet" />
		<tag k="name" v="Teigen" />
		<tag k="place" v="farm" />
		<tag k="ssr:stedsnr" v="671657" />
	</node>
	<node lat="59.84900278020078" lon="9.653399997632494" id="-33663">
		<tag k="name" v="Øvre Lia" />
		<tag k="place" v="farm" />
		<tag k="ssr:stedsnr" v="671731" />
	</node>
	<node lat="59.75591577397441" lon="9.610763126082032" id="-33668">
		<tag k="alt_name" v="Håvålsrud;Håvaldsrud" />
		<tag k="fixme" v="consider place=hamlet" />
		<tag k="name" v="Håvardsrud" />
		<tag k="old_name" v="Haavaalsrud;Haavardsrud" />
		<tag k="place" v="farm" />
		<tag k="ssr:stedsnr" v="672468" />
	</node>
	<node lat="59.97416666466716" lon="9.479336113605646" id="-33671">
		<tag k="name" v="Mariplassen" />
		<tag k="place" v="locality" />
		<tag k="ssr:stedsnr" v="464808" />
	</node>
	<node lat="59.92212500257879" lon="9.444958339231784" id="-33672">
		<tag k="name" v="Landerudplass" />
		<tag k="place" v="locality" />
		<tag k="ssr:stedsnr" v="464902" />
	</node>
	<node lat="59.90087222275191" lon="9.492419445247117" id="-33673">
		<tag k="name" v="Halvorsbråtån" />
		<tag k="place" v="locality" />
		<tag k="ssr:stedsnr" v="465079" />
	</node>
	<node lat="59.79022777770928" lon="9.569463896906376" id="-33676">
		<tag k="name" v="Fossplassen" />
		<tag k="place" v="farm" />
		<tag k="ssr:stedsnr" v="466713" />
	</node>
	<node lat="59.80504444102607" lon="9.392208327683791" id="-33683">
		<tag k="name" v="Sjuvasslia" />
		<tag k="place" v="neighbourhood" />
		<tag k="ssr:stedsnr" v="481773" />
	</node>
	<node lat="59.836266705503895" lon="9.51149295192656" id="-33696">
		<tag k="fixme" v="consider place=hamlet" />
		<tag k="name" v="Åsland" />
		<tag k="place" v="farm" />
		<tag k="ssr:stedsnr" v="489117" />
	</node>
	<node lat="59.84303888990712" lon="9.471722230335947" id="-33704">
		<tag k="alt_name" v="Søndre Gjellerud" />
		<tag k="name" v="Søre Gjellerud" />
		<tag k="place" v="farm" />
		<tag k="ssr:stedsnr" v="489091" />
	</node>
	<node lat="59.84351944353202" lon="9.546030549035894" id="-33705">
		<tag k="name" v="Øvre Stemning" />
		<tag k="place" v="farm" />
		<tag k="ssr:stedsnr" v="489101" />
	</node>
	<node lat="59.90752222651248" lon="9.453077777785355" id="-33708">
		<tag k="name" v="Kloppås" />
		<tag k="place" v="farm" />
		<tag k="ssr:stedsnr" v="489239" />
	</node>
	<node lat="59.75825000248059" lon="9.599433330675806" id="-33709">
		<tag k="alt_name" v="Søndre Kvear" />
		<tag k="name" v="Søre Kvear" />
		<tag k="place" v="farm" />
		<tag k="ssr:stedsnr" v="489606" />
	</node>
	<node lat="59.80348910799819" lon="9.559369501362303" id="-33714">
		<tag k="fixme" v="consider place=hamlet" />
		<tag k="name" v="Ton" />
		<tag k="place" v="farm" />
		<tag k="ssr:stedsnr" v="489910" />
	</node>
	<node lat="59.9041793830557" lon="9.542456545599281" id="-33721">
		<tag k="fixme" v="consider place=hamlet" />
		<tag k="name" v="Gjerde" />
		<tag k="place" v="farm" />
		<tag k="ssr:stedsnr" v="510039" />
	</node>
	<node lat="59.90659999974445" lon="9.527205560258311" id="-33722">
		<tag k="name" v="Solvang" />
		<tag k="place" v="isolated_dwelling" />
		<tag k="ssr:stedsnr" v="525103" />
	</node>
	<node lat="59.908913888307644" lon="9.527994452464707" id="-33725">
		<tag k="name" v="Nordre Berget" />
		<tag k="place" v="farm" />
		<tag k="ssr:stedsnr" v="525078" />
	</node>
	<node lat="59.87873611503273" lon="9.46776389642943" id="-33727">
		<tag k="name" v="Vestre Lande" />
		<tag k="place" v="farm" />
		<tag k="ssr:stedsnr" v="525158" />
	</node>
	<node lat="59.75848611269979" lon="9.67527500314481" id="-33729">
		<tag k="name" v="Nedre Ulland" />
		<tag k="place" v="farm" />
		<tag k="ssr:stedsnr" v="526676" />
	</node>
	<node lat="59.807330557440345" lon="9.612127779037497" id="-33730">
		<tag k="name" v="Øvre Berg" />
		<tag k="place" v="farm" />
		<tag k="ssr:stedsnr" v="526679" />
	</node>
	<node lat="59.91398055871911" lon="9.394405553905841" id="-33736">
		<tag k="alt_name" v="Nørdre Bergan" />
		<tag k="name" v="Nordre Bergan" />
		<tag k="old_name" v="Bergen no:" />
		<tag k="place" v="farm" />
		<tag k="ssr:stedsnr" v="538381" />
	</node>
	<node lat="59.91819721904981" lon="9.498722226156211" id="-33741">
		<tag k="name" v="Nedre Bakli" />
		<tag k="place" v="farm" />
		<tag k="ssr:stedsnr" v="543889" />
	</node>
	<node lat="59.94609721987978" lon="9.471575000291542" id="-33743">
		<tag k="name" v="Søre Haugan" />
		<tag k="place" v="farm" />
		<tag k="ssr:stedsnr" v="543914" />
	</node>
	<node lat="59.83380555798058" lon="9.444083334045994" id="-33745">
		<tag k="name" v="Surtelia" />
		<tag k="place" v="locality" />
		<tag k="ssr:stedsnr" v="544472" />
	</node>
	<node lat="59.86881944355064" lon="9.287330550477265" id="-33746">
		<tag k="historic" v="shieling" />
		<tag k="name" v="Sølbu" />
		<tag k="place" v="isolated_dwelling" />
		<tag k="ssr:stedsnr" v="544473" />
	</node>
	<node lat="59.83485555739729" lon="9.579119451825976" id="-33749">
		<tag k="fixme" v="consider place=suburb, village or hamlet" />
		<tag k="name" v="Lampeland" />
		<tag k="place" v="quarter" />
		<tag k="ssr:stedsnr" v="549106" />
	</node>
	<node lat="59.83373276279938" lon="9.54254447594785" id="-33750">
		<tag k="fixme" v="consider place=hamlet" />
		<tag k="name" v="Rindum" />
		<tag k="place" v="farm" />
		<tag k="ssr:stedsnr" v="549107" />
	</node>
	<node lat="59.93282479419008" lon="9.548030160484302" id="-33751">
		<tag k="fixme" v="consider place=hamlet" />
		<tag k="name" v="Hommeliberget" />
		<tag k="place" v="farm" />
		<tag k="ssr:stedsnr" v="549162" />
	</node>
	<node lat="59.93125277786569" lon="9.43699167124131" id="-33752">
		<tag k="name" v="Vestre Holtan" />
		<tag k="place" v="farm" />
		<tag k="ssr:stedsnr" v="549172" />
	</node>
	<node lat="59.886061108944354" lon="9.585875008090172" id="-33753">
		<tag k="name" v="Hønserud" />
		<tag k="place" v="farm" />
		<tag k="ssr:stedsnr" v="549003" />
	</node>
	<node lat="59.87990277590042" lon="9.454091663091363" id="-33754">
		<tag k="name" v="Sedalen" />
		<tag k="place" v="farm" />
		<tag k="ssr:stedsnr" v="549009" />
	</node>
	<node lat="59.78272907567383" lon="9.59926096981967" id="-33761">
		<tag k="fixme" v="consider place=hamlet" />
		<tag k="name" v="Ramberg" />
		<tag k="place" v="farm" />
		<tag k="ssr:stedsnr" v="550505" />
	</node>
	<node lat="59.79507499992093" lon="9.701905557557703" id="-33763">
		<tag k="historic" v="shieling" />
		<tag k="name" v="Gvamsetra" />
		<tag k="place" v="isolated_dwelling" />
		<tag k="ssr:stedsnr" v="550500" />
	</node>
	<node lat="59.7933249984506" lon="9.518825005128841" id="-33766">
		<tag k="name" v="Nedre Mangelen" />
		<tag k="place" v="isolated_dwelling" />
		<tag k="ssr:stedsnr" v="550900" />
	</node>
	<node lat="59.867772221313935" lon="9.696836109501337" id="-33767">
		<tag k="historic" v="shieling" />
		<tag k="name" v="Grønlia" />
		<tag k="place" v="isolated_dwelling" />
		<tag k="ssr:stedsnr" v="693401" />
	</node>
	<node lat="59.78112222339798" lon="9.57951388287251" id="-33777">
		<tag k="name" v="Nordre Øygarden" />
		<tag k="place" v="farm" />
		<tag k="ssr:stedsnr" v="587662" />
	</node>
	<node lat="59.85918889183821" lon="9.576605563194772" id="-33784">
		<tag k="name" v="Nedre Grønbu" />
		<tag k="place" v="locality" />
		<tag k="ssr:stedsnr" v="603549" />
	</node>
	<node lat="59.930919985791355" lon="9.437477587449516" id="-33786">
		<tag k="fixme" v="consider place=hamlet" />
		<tag k="name" v="Holtan" />
		<tag k="place" v="farm" />
		<tag k="ssr:stedsnr" v="604159" />
	</node>
	<node lat="59.74917356431468" lon="9.549126026255545" id="-33791">
		<tag k="fixme" v="consider place=hamlet" />
		<tag k="name" v="Lindbu" />
		<tag k="place" v="farm" />
		<tag k="ssr:stedsnr" v="609470" />
	</node>
	<node lat="59.91862605849015" lon="9.50014396955824" id="-33796">
		<tag k="fixme" v="consider place=hamlet" />
		<tag k="name" v="Bakli" />
		<tag k="place" v="farm" />
		<tag k="ssr:stedsnr" v="610233" />
	</node>
	<node lat="59.80760555160746" lon="9.602405561111505" id="-33801">
		<tag k="name" v="Bråtenhaug" />
		<tag k="place" v="locality" />
		<tag k="ssr:stedsnr" v="610583" />
	</node>
	<node lat="59.76762850221654" lon="9.599958682128316" id="-33804">
		<tag k="alt_name" v="Fonnerud" />
		<tag k="fixme" v="consider place=hamlet" />
		<tag k="name" v="Fønnerud" />
		<tag k="place" v="farm" />
		<tag k="ssr:stedsnr" v="610597" />
	</node>
	<node lat="59.757700001674344" lon="9.5848722295333" id="-33807">
		<tag k="name" v="Haugen" />
		<tag k="place" v="farm" />
		<tag k="ssr:stedsnr" v="610979" />
	</node>
	<node lat="59.82672500273559" lon="9.564647214477132" id="-33808">
		<tag k="name" v="Myra" />
		<tag k="place" v="farm" />
		<tag k="ssr:stedsnr" v="611107" />
	</node>
	<node lat="59.7922324299131" lon="9.587934342940226" id="-33812">
		<tag k="fixme" v="consider place=hamlet" />
		<tag k="name" v="Grette" />
		<tag k="place" v="farm" />
		<tag k="ssr:stedsnr" v="631108" />
	</node>
	<node lat="59.917538886571705" lon="9.390458338747665" id="-33814">
		<tag k="name" v="Dalen" />
		<tag k="place" v="farm" />
		<tag k="ssr:stedsnr" v="646072" />
	</node>
	<node lat="59.90269166402387" lon="9.495897213367298" id="-33815">
		<tag k="name" v="Grorud" />
		<tag k="place" v="locality" />
		<tag k="ssr:stedsnr" v="646074" />
	</node>
	<node lat="59.8053222234491" lon="9.59014721571713" id="-33821">
		<tag k="name" v="Øvre Bråta" />
		<tag k="place" v="farm" />
		<tag k="ssr:stedsnr" v="647688" />
	</node>
	<node lat="59.75562777383936" lon="9.613352778213542" id="-33832">
		<tag k="name" v="Mellom-Håvardsrud" />
		<tag k="place" v="farm" />
		<tag k="ssr:stedsnr" v="708861" />
	</node>
	<node lat="59.84544140250505" lon="9.533359445510188" id="-33835">
		<tag k="fixme" v="consider place=hamlet" />
		<tag k="name" v="Grøsli" />
		<tag k="place" v="farm" />
		<tag k="ssr:stedsnr" v="660339" />
	</node>
	<node lat="59.90836666591446" lon="9.527805559503781" id="-33850">
		<tag k="name" v="Søre Berget" />
		<tag k="place" v="farm" />
		<tag k="ssr:stedsnr" v="890075" />
	</node>
	<node lat="59.913813884479794" lon="9.398552782382005" id="-33852">
		<tag k="name" v="Berget" />
		<tag k="place" v="farm" />
		<tag k="ssr:stedsnr" v="890225" />
	</node>
	<node lat="59.886041663776226" lon="9.393374995895797" id="-33857">
		<tag k="name" v="Evjuåsen" />
		<tag k="place" v="farm" />
		<tag k="ssr:stedsnr" v="671013" />
	</node>
	<node lat="59.86636389015419" lon="9.37374999194752" id="-33861">
		<tag k="alt_name" v="Søndre Maugerud" />
		<tag k="name" v="Søre Maugerud" />
		<tag k="place" v="farm" />
		<tag k="ssr:stedsnr" v="671027" />
	</node>
	<node lat="59.85304585810406" lon="9.462389610254583" id="-33863">
		<tag k="name" v="Neset" />
		<tag k="place" v="farm" />
		<tag k="ssr:stedsnr" v="671075" />
	</node>
	<node lat="59.76432500175381" lon="9.608574993044657" id="-33868">
		<tag k="alt_name" v="Søndre Ås" />
		<tag k="name" v="Søre Ås" />
		<tag k="place" v="farm" />
		<tag k="ssr:stedsnr" v="671553" />
	</node>
	<node lat="59.820919808236326" lon="9.54821206611857" id="-33873">
		<tag k="fixme" v="consider place=hamlet" />
		<tag k="name" v="Tveiten" />
		<tag k="place" v="farm" />
		<tag k="ssr:stedsnr" v="672112" />
	</node>
	<node lat="59.8154328111078" lon="9.568732665919068" id="-33874">
		<tag k="fixme" v="consider place=hamlet" />
		<tag k="name" v="Sandbekk" />
		<tag k="place" v="farm" />
		<tag k="ssr:stedsnr" v="672113" />
	</node>
	<node lat="59.81719166968255" lon="9.430775007812697" id="-33875">
		<tag k="historic" v="shieling" />
		<tag k="name" v="Tyttebærbråtan" />
		<tag k="place" v="isolated_dwelling" />
		<tag k="ssr:stedsnr" v="672115" />
	</node>
	<node lat="59.74691944830163" lon="9.633744451515351" id="-33879">
		<tag k="name" v="Rustebråtan" />
		<tag k="place" v="isolated_dwelling" />
		<tag k="ssr:stedsnr" v="891840" />
	</node>
	<node lat="59.80696666518241" lon="9.587752783724962" id="-33883">
		<tag k="amenity" v="nursing_home" />
		<tag k="name" v="Flesbergheimen" />
		<tag k="ssr:stedsnr" v="708669" />
	</node>
	<node lat="59.80173055973745" lon="9.5837583345012" id="-33885">
		<tag k="name" v="Solvoll" />
		<tag k="place" v="isolated_dwelling" />
		<tag k="ssr:stedsnr" v="708679" />
	</node>
	<node lat="59.788850305996185" lon="9.614692648416217" id="-33887">
		<tag k="name" v="Museplassen" />
		<tag k="place" v="isolated_dwelling" />
		<tag k="ssr:stedsnr" v="708682" />
	</node>
	<node lat="59.91022130208838" lon="9.536225888003106" id="-33893">
		<tag k="alt_name" v="Fekjan" />
		<tag k="fixme" v="consider place=hamlet" />
		<tag k="name" v="Fetjan" />
		<tag k="old_name" v="Fekjen" />
		<tag k="place" v="farm" />
		<tag k="ssr:stedsnr" v="719207" />
	</node>
	<node lat="59.84007222315518" lon="9.435997218345742" id="-33904">
		<tag k="name" v="Hanseplassen" />
		<tag k="place" v="locality" />
		<tag k="ssr:stedsnr" v="726491" />
	</node>
	<node lat="59.72818055484683" lon="9.608150006701496" id="-33908">
		<tag k="name" v="Finnebråten" />
		<tag k="place" v="farm" />
		<tag k="ssr:stedsnr" v="731610" />
	</node>
	<node lat="59.72837222212148" lon="9.621388883426738" id="-33909">
		<tag k="name" v="Lurås" />
		<tag k="place" v="isolated_dwelling" />
		<tag k="ssr:stedsnr" v="731613" />
	</node>
	<node lat="59.77032499579766" lon="9.600319436809281" id="-33910">
		<tag k="name" v="Nedre Gvam" />
		<tag k="place" v="farm" />
		<tag k="ssr:stedsnr" v="731561" />
	</node>
	<node lat="59.87938888569392" lon="9.504999996680992" id="-33911">
		<tag k="name" v="Taksrud" />
		<tag k="place" v="farm" />
		<tag k="ssr:stedsnr" v="732014" />
	</node>
	<node lat="59.86105833187393" lon="9.55381666875394" id="-33914">
		<tag k="name" v="Haugen" />
		<tag k="place" v="farm" />
		<tag k="ssr:stedsnr" v="732055" />
	</node>
	<node lat="59.86656944643786" lon="9.559086119919131" id="-33915">
		<tag k="name" v="Kvernan" />
		<tag k="old_name" v="Kvænne" />
		<tag k="place" v="farm" />
		<tag k="ssr:stedsnr" v="732058" />
	</node>
	<node lat="59.85581944714374" lon="9.389786105229414" id="-33916">
		<tag k="name" v="Hagan" />
		<tag k="place" v="farm" />
		<tag k="ssr:stedsnr" v="732066" />
	</node>
	<node lat="59.83715277666045" lon="9.528263894522407" id="-33917">
		<tag k="alt_name" v="Fløtterudsundet" />
		<tag k="name" v="Fløtterudsund" />
		<tag k="place" v="farm" />
		<tag k="ssr:stedsnr" v="732112" />
	</node>
	<node lat="59.83565833615491" lon="9.579955563098462" id="-33918">
		<tag k="name" v="Fløtåker" />
		<tag k="place" v="farm" />
		<tag k="ssr:stedsnr" v="732113" />
	</node>
	<node lat="59.94210545654732" lon="9.573081968212456" id="-33921">
		<tag k="fixme" v="consider place=hamlet" />
		<tag k="name" v="Ingeburud" />
		<tag k="place" v="farm" />
		<tag k="ssr:stedsnr" v="732160" />
	</node>
	<node lat="59.92309166393928" lon="9.393150008783316" id="-33923">
		<tag k="alt_name" v="Nordre Buin" />
		<tag k="name" v="Nord-Buin" />
		<tag k="place" v="farm" />
		<tag k="ssr:stedsnr" v="732205" />
	</node>
	<node lat="59.912162239372144" lon="9.538248809791774" id="-33924">
		<tag k="fixme" v="consider place=hamlet" />
		<tag k="name" v="Kampestad" />
		<tag k="place" v="farm" />
		<tag k="ssr:stedsnr" v="732214" />
	</node>
	<node lat="59.79023333555398" lon="9.415336107288956" id="-33930">
		<tag k="amenity" v="cafe" />
		<tag k="name" v="Blestua" />
		<tag k="ssr:stedsnr" v="732903" />
	</node>
	<node lat="59.79754862872123" lon="9.57328687230287" id="-33931">
		<tag k="fixme" v="consider place=hamlet" />
		<tag k="name" v="Strand" />
		<tag k="place" v="farm" />
		<tag k="ssr:stedsnr" v="732912" />
	</node>
	<node lat="59.76587499983817" lon="9.57533055146291" id="-33934">
		<tag k="name" v="Skutsvika" />
		<tag k="place" v="farm" />
		<tag k="ssr:stedsnr" v="732991" />
	</node>
	<node lat="59.76917499995647" lon="9.439166664923201" id="-33940">
		<tag k="historic" v="shieling" />
		<tag k="name" v="Blestølen" />
		<tag k="place" v="isolated_dwelling" />
		<tag k="ssr:stedsnr" v="752105" />
	</node>
	<node lat="59.93622193959757" lon="9.498434858469238" id="-33950">
		<tag k="fixme" v="consider place=hamlet" />
		<tag k="name" v="Låg" />
		<tag k="place" v="farm" />
		<tag k="ssr:stedsnr" v="767921" />
	</node>
	<node lat="59.920520844668744" lon="9.684137078149375" id="-33961">
		<tag k="name" v="Ingebu" />
		<tag k="place" v="hamlet" />
		<tag k="ssr:stedsnr" v="908154" />
	</node>
	<node lat="59.97840881743181" lon="9.501098230322324" id="-33982">
		<tag k="fixme" v="consider place=hamlet" />
		<tag k="name" v="Markerud" />
		<tag k="place" v="farm" />
		<tag k="ssr:stedsnr" v="792321" />
	</node>
	<node lat="59.77049580595945" lon="9.65350651266099" id="-33987">
		<tag k="fixme" v="consider place=hamlet" />
		<tag k="name" v="Aslaksrud" />
		<tag k="place" v="farm" />
		<tag k="ssr:stedsnr" v="792585" />
	</node>
	<node lat="59.863936108828426" lon="9.438999995455468" id="-33999">
		<tag k="alt_name" v="Sønstegard;Søndre Flesberg" />
		<tag k="name" v="Søre Flesberg" />
		<tag k="place" v="farm" />
		<tag k="ssr:stedsnr" v="914044" />
	</node>
	<node lat="59.84059288500083" lon="9.577121084742783" id="-34001">
		<tag k="fixme" v="consider place=hamlet" />
		<tag k="name" v="Skartum" />
		<tag k="place" v="farm" />
		<tag k="ssr:stedsnr" v="914088" />
	</node>
	<node lat="59.863038271373064" lon="9.483591240054986" id="-34002">
		<tag k="fixme" v="consider place=hamlet" />
		<tag k="name" v="Bergerud" />
		<tag k="place" v="farm" />
		<tag k="ssr:stedsnr" v="914050" />
	</node>
	<node lat="59.85419541358324" lon="9.495511608497202" id="-34004">
		<tag k="alt_name" v="Søndre Vangestad" />
		<tag k="name" v="Søre Vangestad" />
		<tag k="place" v="farm" />
		<tag k="ssr:stedsnr" v="914072" />
	</node>
	<node lat="59.84183227437402" lon="9.52644720971602" id="-34006">
		<tag k="fixme" v="consider place=hamlet" />
		<tag k="name" v="Fløtterud" />
		<tag k="place" v="farm" />
		<tag k="ssr:stedsnr" v="914098" />
	</node>
	<node lat="59.914774997070396" lon="9.571358333948707" id="-34008">
		<tag k="name" v="Buserud" />
		<tag k="place" v="farm" />
		<tag k="ssr:stedsnr" v="914238" />
	</node>
	<node lat="59.951647222292145" lon="9.46363333391702" id="-34012">
		<tag k="name" v="Øygarden" />
		<tag k="place" v="farm" />
		<tag k="ssr:stedsnr" v="914357" />
	</node>
	<node lat="59.77429999771689" lon="9.604583327710142" id="-34015">
		<tag k="name" v="Øvre Gvam" />
		<tag k="place" v="farm" />
		<tag k="ssr:stedsnr" v="914622" />
	</node>
	<node lat="59.76522222584276" lon="9.584058335455115" id="-34019">
		<tag k="name" v="Rambergtangen" />
		<tag k="place" v="farm" />
		<tag k="ssr:stedsnr" v="914985" />
	</node>
	<node lat="59.93191666891591" lon="9.634997228689345" id="-34021">
		<tag k="alt_name" v="Ragnildsrud" />
		<tag k="name" v="Ragnhildsrud" />
		<tag k="place" v="farm" />
		<tag k="ssr:stedsnr" v="914868" />
	</node>
	<node lat="59.90409166492481" lon="9.36967223042765" id="-34024">
		<tag k="name" v="Søre Bakkerud" />
		<tag k="place" v="farm" />
		<tag k="ssr:stedsnr" v="829222" />
	</node>
	<node lat="59.77891944557536" lon="9.559849991384878" id="-34028">
		<tag k="name" v="Myra" />
		<tag k="place" v="isolated_dwelling" />
		<tag k="ssr:stedsnr" v="830660" />
	</node>
	<node lat="59.83742778082354" lon="9.406255563790632" id="-34048">
		<tag k="name" v="Søre Våtli" />
		<tag k="place" v="locality" />
		<tag k="ssr:stedsnr" v="848527" />
	</node>
	<node lat="59.83774167009543" lon="9.49539445182983" id="-34051">
		<tag k="name" v="Mellom-Huslende" />
		<tag k="place" v="farm" />
		<tag k="ssr:stedsnr" v="848484" />
	</node>
	<node lat="59.87860555285846" lon="9.467047230172348" id="-34054">
		<tag k="name" v="Landegrenda" />
		<tag k="place" v="hamlet" />
		<tag k="ssr:stedsnr" v="853015" />
	</node>
	<node lat="59.87278333659999" lon="9.367266665351577" id="-34055">
		<tag k="name" v="Brekke" />
		<tag k="place" v="farm" />
		<tag k="ssr:stedsnr" v="853027" />
	</node>
	<node lat="59.79938055227523" lon="9.409891664789717" id="-34059">
		<tag k="historic" v="shieling" />
		<tag k="name" v="Svartholtsetra" />
		<tag k="place" v="isolated_dwelling" />
		<tag k="ssr:stedsnr" v="853923" />
	</node>
	<node lat="59.8475500003408" lon="9.452099997065883" id="-34060">
		<tag k="name" v="Væråsmogen" />
		<tag k="place" v="farm" />
		<tag k="ssr:stedsnr" v="854057" />
	</node>
	<node lat="59.84593611342786" lon="9.583008337779935" id="-34062">
		<tag k="alt_name" v="Jørnsplassen" />
		<tag k="name" v="Slettemoen" />
		<tag k="place" v="isolated_dwelling" />
		<tag k="ssr:stedsnr" v="854061" />
	</node>
	<node lat="59.84568611003145" lon="9.560502783786303" id="-34063">
		<tag k="fixme" v="consider place=hamlet" />
		<tag k="name" v="Foss" />
		<tag k="place" v="farm" />
		<tag k="ssr:stedsnr" v="854063" />
	</node>
	<node lat="59.89673314080321" lon="9.340049208383677" id="-34065">
		<tag k="fixme" v="consider place=hamlet" />
		<tag k="name" v="Blia" />
		<tag k="place" v="farm" />
		<tag k="ssr:stedsnr" v="854206" />
	</node>
	<node lat="59.8796027752488" lon="9.37992222573954" id="-34087">
		<tag k="name" v="Flatstrand" />
		<tag k="place" v="farm" />
		<tag k="ssr:stedsnr" v="914007" />
	</node>
	<node lat="59.87372777504507" lon="9.523716673189552" id="-34089">
		<tag k="name" v="Vika" />
		<tag k="place" v="isolated_dwelling" />
		<tag k="ssr:stedsnr" v="914031" />
	</node>
	<node lat="59.8630444478513" lon="9.396816671258856" id="-34090">
		<tag k="name" v="Deildokk" />
		<tag k="place" v="farm" />
		<tag k="ssr:stedsnr" v="914039" />
	</node>
	<node lat="59.83459166239101" lon="9.464569436103877" id="-34091">
		<tag k="name" v="Bjøråsen" />
		<tag k="place" v="farm" />
		<tag k="ssr:stedsnr" v="914103" />
	</node>
	<node lat="59.90611388672834" lon="9.35256667534624" id="-34110">
		<tag k="alt_name" v="Rebberudplass" />
		<tag k="name" v="Rebberudplassen" />
		<tag k="old_name" v="Rebberudplads" />
		<tag k="place" v="farm" />
		<tag k="ssr:stedsnr" v="952789" />
	</node>
	<node lat="59.82502777340114" lon="9.52356388141225" id="-34118">
		<tag k="historic" v="shieling" />
		<tag k="name" v="Toskjemogsetra" />
		<tag k="place" v="isolated_dwelling" />
		<tag k="ssr:stedsnr" v="967989" />
	</node>
	<node lat="59.95680833144199" lon="9.464563890735821" id="-34121">
		<tag k="name" v="Teksleplassen" />
		<tag k="place" v="isolated_dwelling" />
		<tag k="ssr:stedsnr" v="967894" />
	</node>
	<node lat="59.761266482373934" lon="9.600112165497908" id="-34124">
		<tag k="fixme" v="consider place=hamlet" />
		<tag k="name" v="Kvear" />
		<tag k="place" v="farm" />
		<tag k="ssr:stedsnr" v="976241" />
	</node>
	<node lat="59.77297499929278" lon="9.621505562957362" id="-34127">
		<tag k="name" v="Myra" />
		<tag k="place" v="farm" />
		<tag k="ssr:stedsnr" v="3564" />
	</node>
	<node lat="59.744175001028786" lon="9.705497230445683" id="-34129">
		<tag k="name" v="Haugen" />
		<tag k="place" v="farm" />
		<tag k="ssr:stedsnr" v="3660" />
	</node>
	<node lat="59.85385000253296" lon="9.395027781071565" id="-34134">
		<tag k="name" v="Bjørnerud" />
		<tag k="place" v="farm" />
		<tag k="ssr:stedsnr" v="4060" />
	</node>
	<node lat="59.94835836498504" lon="9.497721921746155" id="-34136">
		<tag k="fixme" v="consider place=hamlet" />
		<tag k="name" v="Buin" />
		<tag k="place" v="farm" />
		<tag k="ssr:stedsnr" v="4154" />
	</node>
	<node lat="59.91729166879185" lon="9.384497216908352" id="-34139">
		<tag k="name" v="Suggerud" />
		<tag k="place" v="farm" />
		<tag k="ssr:stedsnr" v="4200" />
	</node>
	<node lat="59.90090000358155" lon="9.535530562899014" id="-34141">
		<tag k="name" v="Hagan" />
		<tag k="place" v="locality" />
		<tag k="ssr:stedsnr" v="4248" />
	</node>
	<node lat="59.86541110935078" lon="9.700330557927902" id="-34145">
		<tag k="name" v="Sagløkka" />
		<tag k="place" v="farm" />
		<tag k="ssr:stedsnr" v="4648" />
	</node>
	<node lat="59.75593611213932" lon="9.587122228848992" id="-34147">
		<tag k="name" v="Gråten" />
		<tag k="place" v="farm" />
		<tag k="ssr:stedsnr" v="4975" />
	</node>
	<node lat="59.76669444561877" lon="9.678574992477207" id="-34148">
		<tag k="name" v="Sagstua" />
		<tag k="place" v="isolated_dwelling" />
		<tag k="ssr:stedsnr" v="26759" />
	</node>
	<node lat="59.910466664328474" lon="9.41226111191019" id="-34154">
		<tag k="name" v="Paseroa" />
		<tag k="place" v="farm" />
		<tag k="ssr:stedsnr" v="40236" />
	</node>
	<node lat="59.79025832948283" lon="9.57514722132066" id="-34158">
		<tag k="name" v="Fossholm" />
		<tag k="place" v="farm" />
		<tag k="ssr:stedsnr" v="41692" />
	</node>
	<node lat="59.74988610726004" lon="9.598958333094675" id="-34159">
		<tag k="name" v="Refsrud" />
		<tag k="place" v="isolated_dwelling" />
		<tag k="ssr:stedsnr" v="41864" />
	</node>
	<node lat="59.88308611021235" lon="9.364633335539509" id="-34175">
		<tag k="name" v="Flata" />
		<tag k="place" v="farm" />
		<tag k="ssr:stedsnr" v="59346" />
	</node>
	<node lat="59.9155207567506" lon="9.400113341350512" id="-34183">
		<tag k="name" v="Dokka" />
		<tag k="place" v="hamlet" />
		<tag k="ssr:stedsnr" v="64187" />
	</node>
	<node lat="59.877280553959736" lon="9.364725004200038" id="-34187">
		<tag k="name" v="Haukeli" />
		<tag k="place" v="farm" />
		<tag k="ssr:stedsnr" v="64006" />
	</node>
	<node lat="59.94494166471002" lon="9.493108331216325" id="-34196">
		<tag k="name" v="Nedre Bjørkeset" />
		<tag k="place" v="farm" />
		<tag k="ssr:stedsnr" v="65148" />
	</node>
	<node lat="59.88720555356129" lon="9.48749999432876" id="-34197">
		<tag k="name" v="Nordre Ånnestad" />
		<tag k="place" v="farm" />
		<tag k="ssr:stedsnr" v="65231" />
	</node>
	<node lat="59.79782707141797" lon="9.599948302717324" id="-34202">
		<tag k="fixme" v="consider place=hamlet" />
		<tag k="name" v="Surten" />
		<tag k="place" v="farm" />
		<tag k="ssr:stedsnr" v="65497" />
	</node>
	<node lat="59.869127780274106" lon="9.40023055718348" id="-34215">
		<tag k="name" v="Nordre Aslefet" />
		<tag k="place" v="farm" />
		<tag k="ssr:stedsnr" v="101290" />
	</node>
	<node lat="59.77199722540818" lon="9.677574992256295" id="-34240">
		<tag k="name" v="Bråta" />
		<tag k="place" v="farm" />
		<tag k="ssr:stedsnr" v="124546" />
	</node>
	<node lat="59.86428888630582" lon="9.573188880490303" id="-34245">
		<tag k="name" v="Steinset" />
		<tag k="place" v="farm" />
		<tag k="ssr:stedsnr" v="125052" />
	</node>
	<node lat="59.84072500056888" lon="9.449008327266615" id="-34246">
		<tag k="name" v="Rabben" />
		<tag k="place" v="farm" />
		<tag k="ssr:stedsnr" v="125082" />
	</node>
	<node lat="59.843177781695076" lon="9.548291666833462" id="-34249">
		<tag k="name" v="Nedre Stemning" />
		<tag k="place" v="farm" />
		<tag k="ssr:stedsnr" v="125096" />
	</node>
	<node lat="59.946267850940735" lon="9.47073175676843" id="-34252">
		<tag k="fixme" v="consider place=hamlet" />
		<tag k="name" v="Haugan" />
		<tag k="place" v="farm" />
		<tag k="ssr:stedsnr" v="125132" />
	</node>
	<node lat="59.92427499860121" lon="9.39533333289833" id="-34255">
		<tag k="name" v="Øvre Buin" />
		<tag k="place" v="farm" />
		<tag k="ssr:stedsnr" v="125209" />
	</node>
	<node lat="59.91129444875766" lon="9.528211112459418" id="-34256">
		<tag k="fixme" v="consider place=hamlet" />
		<tag k="name" v="Lyngdal" />
		<tag k="place" v="village" />
		<tag k="ssr:stedsnr" v="125212" />
	</node>
	<node lat="59.90772778058264" lon="9.39334443993239" id="-34258">
		<tag k="name" v="Toten" />
		<tag k="place" v="farm" />
		<tag k="ssr:stedsnr" v="125238" />
	</node>
	<node lat="59.886408329014955" lon="9.495113887222287" id="-34259">
		<tag k="fixme" v="consider place=hamlet" />
		<tag k="name" v="Nerli" />
		<tag k="place" v="farm" />
		<tag k="ssr:stedsnr" v="125266" />
	</node>
	<node lat="59.76327499988472" lon="9.601472222052344" id="-34262">
		<tag k="alt_name" v="Kvear" />
		<tag k="name" v="Nordre Kvear" />
		<tag k="place" v="farm" />
		<tag k="ssr:stedsnr" v="125570" />
	</node>
	<node lat="59.75782500403985" lon="9.672133325519821" id="-34263">
		<tag k="name" v="Nygård" />
		<tag k="place" v="farm" />
		<tag k="ssr:stedsnr" v="125584" />
	</node>
	<node lat="59.75725555805205" lon="9.680008332271534" id="-34264">
		<tag k="name" v="Østre Ulland" />
		<tag k="place" v="farm" />
		<tag k="ssr:stedsnr" v="125585" />
	</node>
	<node lat="59.79014160250346" lon="9.572759750361037" id="-34269">
		<tag k="fixme" v="consider place=hamlet" />
		<tag k="name" v="Foss" />
		<tag k="place" v="farm" />
		<tag k="ssr:stedsnr" v="125911" />
	</node>
	<node lat="59.777680551798994" lon="9.685030554981724" id="-34273">
		<tag k="name" v="Hotellet" />
		<tag k="place" v="isolated_dwelling" />
		<tag k="ssr:stedsnr" v="147785" />
	</node>
	<node lat="59.86971389071816" lon="9.36957222726806" id="-34275">
		<tag k="alt_name" v="Nordre Maugerud" />
		<tag k="name" v="Nord-Maugerud" />
		<tag k="place" v="farm" />
		<tag k="ssr:stedsnr" v="161163" />
	</node>
	<node lat="59.90080277848766" lon="9.48650277707592" id="-34276">
		<tag k="name" v="Øvre Kleiv" />
		<tag k="place" v="locality" />
		<tag k="ssr:stedsnr" v="161096" />
	</node>
	<node lat="59.86861111068668" lon="9.40110000531221" id="-34279">
		<tag k="name" v="Søre Aslefet" />
		<tag k="place" v="farm" />
		<tag k="ssr:stedsnr" v="161304" />
	</node>
	<node lat="59.86531944614459" lon="9.434041671410247" id="-34280">
		<tag k="name" v="Prestegården" />
		<tag k="place" v="farm" />
		<tag k="ssr:stedsnr" v="161319" />
	</node>
	<node lat="59.758988907125314" lon="9.6747817064962" id="-34284">
		<tag k="fixme" v="consider place=hamlet" />
		<tag k="name" v="Ulland" />
		<tag k="place" v="farm" />
		<tag k="ssr:stedsnr" v="162687" />
	</node>
	<node lat="59.9193499990572" lon="9.506786119938225" id="-34302">
		<tag k="name" v="Søre Bakli" />
		<tag k="place" v="farm" />
		<tag k="ssr:stedsnr" v="179893" />
	</node>
	<node lat="59.96851388928086" lon="9.47559722988215" id="-34311">
		<tag k="name" v="Nordskogen" />
		<tag k="place" v="hamlet" />
		<tag k="ssr:stedsnr" v="186323" />
	</node>
	<node lat="59.88128611229704" lon="9.395499998763272" id="-34315">
		<tag k="name" v="Bjørnsrud" />
		<tag k="place" v="farm" />
		<tag k="ssr:stedsnr" v="185014" />
	</node>
	<node lat="59.88353333362308" lon="9.584158333239584" id="-34316">
		<tag k="historic" v="shieling" />
		<tag k="name" v="Pålsetra" />
		<tag k="place" v="isolated_dwelling" />
		<tag k="ssr:stedsnr" v="185025" />
	</node>
	<node lat="59.947650002949985" lon="9.482583341616166" id="-34321">
		<tag k="name" v="Nedre Brøtan" />
		<tag k="place" v="farm" />
		<tag k="ssr:stedsnr" v="186149" />
	</node>
	<node lat="59.862236739448626" lon="9.580347279900462" id="-34323">
		<tag k="fixme" v="consider place=hamlet" />
		<tag k="name" v="Grønbu" />
		<tag k="place" v="farm" />
		<tag k="ssr:stedsnr" v="186054" />
	</node>
	<node lat="59.90241111546494" lon="9.34964444731335" id="-34325">
		<tag k="fixme" v="consider place=hamlet" />
		<tag k="name" v="Gåseberg" />
		<tag k="place" v="farm" />
		<tag k="ssr:stedsnr" v="186221" />
	</node>
	<node lat="59.901900001561316" lon="9.547219446013143" id="-34326">
		<tag k="alt_name" v="Søndre Gjerde" />
		<tag k="name" v="Søre Gjerde" />
		<tag k="place" v="farm" />
		<tag k="ssr:stedsnr" v="186227" />
	</node>
	<node lat="59.88685277961933" lon="9.492766664741922" id="-34328">
		<tag k="name" v="Ligrenda" />
		<tag k="place" v="hamlet" />
		<tag k="ssr:stedsnr" v="186240" />
	</node>
	<node lat="59.88898611217226" lon="9.490327778061168" id="-34329">
		<tag k="name" v="Øvre Li" />
		<tag k="place" v="farm" />
		<tag k="ssr:stedsnr" v="186244" />
	</node>
	<node lat="59.80198055196033" lon="9.668650004205661" id="-34330">
		<tag k="historic" v="shieling" />
		<tag k="name" v="Rambergsetra" />
		<tag k="place" v="isolated_dwelling" />
		<tag k="ssr:stedsnr" v="186555" />
	</node>
	<node lat="59.848802775656225" lon="9.657827778277953" id="-34335">
		<tag k="name" v="Nedre Lia" />
		<tag k="place" v="farm" />
		<tag k="ssr:stedsnr" v="186759" />
	</node>
	<node lat="59.86674999814191" lon="9.698099999373012" id="-34339">
		<tag k="historic" v="shieling" />
		<tag k="name" v="Setertun" />
		<tag k="place" v="isolated_dwelling" />
		<tag k="ssr:stedsnr" v="207357" />
	</node>
	<node lat="59.905216667742025" lon="9.368755556242796" id="-34347">
		<tag k="name" v="Nordre Bakkerud" />
		<tag k="place" v="farm" />
		<tag k="ssr:stedsnr" v="222199" />
	</node>
	<node lat="59.87811944723814" lon="9.475041658102258" id="-34348">
		<tag k="name" v="Østre Lande" />
		<tag k="place" v="farm" />
		<tag k="ssr:stedsnr" v="222128" />
	</node>
	<node lat="59.87669721958381" lon="9.468358324711259" id="-34349">
		<tag k="name" v="Myrvoll" />
		<tag k="place" v="farm" />
		<tag k="ssr:stedsnr" v="222135" />
	</node>
	<node lat="59.779680555366326" lon="9.579152771767388" id="-34351">
		<tag k="name" v="Nedre Øygarden" />
		<tag k="place" v="farm" />
		<tag k="ssr:stedsnr" v="223676" />
	</node>
	<node lat="59.756697225822364" lon="9.611288895165176" id="-34353">
		<tag k="name" v="Nordre Håvardsrud" />
		<tag k="place" v="farm" />
		<tag k="ssr:stedsnr" v="223897" />
	</node>
	<node lat="59.73211666771197" lon="9.594461105001072" id="-34355">
		<tag k="name" v="Langeid" />
		<tag k="place" v="isolated_dwelling" />
		<tag k="ssr:stedsnr" v="224815" />
	</node>
	<node lat="59.74496667115" lon="9.59029444690961" id="-34357">
		<tag k="name" v="Gleda" />
		<tag k="place" v="farm" />
		<tag k="ssr:stedsnr" v="224826" />
	</node>
	<node lat="59.86191111492735" lon="9.421963889989755" id="-34360">
		<tag k="name" v="Nedre Førle" />
		<tag k="place" v="farm" />
		<tag k="ssr:stedsnr" v="283267" />
	</node>
	<node lat="59.87954444163024" lon="9.470416670700311" id="-34364">
		<tag k="name" v="Søre Lande" />
		<tag k="place" v="farm" />
		<tag k="ssr:stedsnr" v="284838" />
	</node>
	<node lat="59.77970278178818" lon="9.554808341276056" id="-34370">
		<tag k="name" v="Vinoren" />
		<tag k="old_name" v="Vinoren ferieheim;Vinoren feriehjem" />
		<tag k="place" v="isolated_dwelling" />
		<tag k="ssr:stedsnr" v="294888" />
	</node>
	<node lat="59.9056416632829" lon="9.647888896882062" id="-34375">
		<tag k="historic" v="shieling" />
		<tag k="name" v="Langtjernsetra" />
		<tag k="place" v="isolated_dwelling" />
		<tag k="ssr:stedsnr" v="297803" />
	</node>
	<node lat="59.849045224419676" lon="9.658303151704098" id="-34377">
		<tag k="fixme" v="consider place=hamlet" />
		<tag k="name" v="Lia" />
		<tag k="place" v="farm" />
		<tag k="ssr:stedsnr" v="299783" />
	</node>
	<node lat="59.946822222257" lon="9.472516664076283" id="-34379">
		<tag k="name" v="Nordre Haugan" />
		<tag k="place" v="farm" />
		<tag k="ssr:stedsnr" v="300924" />
	</node>
	<node lat="59.956250004101115" lon="9.475102773891232" id="-34380">
		<tag k="name" v="Haugsjå" />
		<tag k="place" v="farm" />
		<tag k="ssr:stedsnr" v="300937" />
	</node>
	<node lat="59.77061101338379" lon="9.600785097300548" id="-34381">
		<tag k="fixme" v="consider place=hamlet" />
		<tag k="name" v="Gvam" />
		<tag k="place" v="farm" />
		<tag k="ssr:stedsnr" v="301134" />
	</node>
	<node lat="59.83666747317489" lon="9.49566805283741" id="-34387">
		<tag k="name" v="Søre Huslende" />
		<tag k="place" v="farm" />
		<tag k="ssr:stedsnr" v="301459" />
	</node>
	<node lat="59.948763892070396" lon="9.482474994005173" id="-34395">
		<tag k="name" v="Øvre Brøtan" />
		<tag k="place" v="farm" />
		<tag k="ssr:stedsnr" v="307164" />
	</node>
	<node lat="59.93702707016936" lon="9.5296451677686" id="-34396">
		<tag k="fixme" v="consider place=hamlet" />
		<tag k="name" v="Mørk" />
		<tag k="place" v="farm" />
		<tag k="ssr:stedsnr" v="307171" />
	</node>
	<node lat="59.893377778136504" lon="9.447144446864842" id="-34397">
		<tag k="fixme" v="consider place=hamlet" />
		<tag k="name" v="Dåset" />
		<tag k="old_name" v="Daassæt" />
		<tag k="place" v="farm" />
		<tag k="ssr:stedsnr" v="307279" />
	</node>
	<node lat="59.86708129910618" lon="9.372869890878437" id="-34409">
		<tag k="fixme" v="consider place=hamlet" />
		<tag k="name" v="Maugerud" />
		<tag k="old_name" v="Mjaugerud" />
		<tag k="place" v="farm" />
		<tag k="ssr:stedsnr" v="307034" />
	</node>
	<node lat="59.867536106809766" lon="9.589833329563886" id="-34410">
		<tag k="name" v="Grønbuenga" />
		<tag k="place" v="farm" />
		<tag k="ssr:stedsnr" v="307037" />
	</node>
	<node lat="59.86870090887234" lon="9.399020293339634" id="-34412">
		<tag k="fixme" v="consider place=hamlet" />
		<tag k="name" v="Aslefet" />
		<tag k="place" v="farm" />
		<tag k="ssr:stedsnr" v="307044" />
	</node>
	<node lat="59.90730833602596" lon="9.49176111181795" id="-34415">
		<tag k="name" v="Kleiv" />
		<tag k="place" v="farm" />
		<tag k="ssr:stedsnr" v="307234" />
	</node>
	<node lat="59.905531396668245" lon="9.368470430186532" id="-34416">
		<tag k="fixme" v="consider place=hamlet" />
		<tag k="name" v="Bakkerud" />
		<tag k="place" v="farm" />
		<tag k="ssr:stedsnr" v="307242" />
	</node>
	<node lat="59.94929849302879" lon="9.548460170857293" id="-34418">
		<tag k="fixme" v="consider place=hamlet" />
		<tag k="name" v="Belteslia" />
		<tag k="place" v="farm" />
		<tag k="ssr:stedsnr" v="307356" />
	</node>
	<node lat="59.78930680097837" lon="9.596577217696113" id="-34419">
		<tag k="name" v="Gutterud" />
		<tag k="place" v="locality" />
		<tag k="ssr:stedsnr" v="307536" />
	</node>
	<node lat="59.820766662865644" lon="9.582800000286554" id="-34422">
		<tag k="name" v="Beier" />
		<tag k="place" v="farm" />
		<tag k="ssr:stedsnr" v="308100" />
	</node>
	<node lat="59.80765957577445" lon="9.56126786985376" id="-34425">
		<tag k="fixme" v="consider place=hamlet" />
		<tag k="name" v="Dyrebu" />
		<tag k="place" v="farm" />
		<tag k="ssr:stedsnr" v="308929" />
	</node>
	<node lat="59.785786113613526" lon="9.685266659256078" id="-34428">
		<tag k="name" v="Sagstua" />
		<tag k="place" v="isolated_dwelling" />
		<tag k="ssr:stedsnr" v="329783" />
	</node>
	<node lat="59.859591665990585" lon="9.431358333165123" id="-34429">
		<tag k="name" v="Haugen" />
		<tag k="place" v="farm" />
		<tag k="ssr:stedsnr" v="343278" />
	</node>
	<node lat="59.7650277799231" lon="9.598266672493619" id="-34432">
		<tag k="name" v="Åsbråtan" />
		<tag k="place" v="farm" />
		<tag k="ssr:stedsnr" v="344659" />
	</node>
	<node lat="59.721824180016746" lon="9.606931918957697" id="-34437">
		<tag k="name" v="Brua" />
		<tag k="place" v="farm" />
		<tag k="ssr:stedsnr" v="350529" />
	</node>
	<node lat="59.91654444700405" lon="9.521677778132796" id="-34454">
		<tag k="name" v="Helgerud" />
		<tag k="place" v="farm" />
		<tag k="ssr:stedsnr" v="360863" />
	</node>
	<node lat="59.91503333210214" lon="9.522244452565975" id="-34455">
		<tag k="name" v="Bakliroa" />
		<tag k="place" v="farm" />
		<tag k="ssr:stedsnr" v="360864" />
	</node>
	<node lat="59.92519444710279" lon="9.541258327715243" id="-34462">
		<tag k="name" v="Marteplassen" />
		<tag k="place" v="isolated_dwelling" />
		<tag k="ssr:stedsnr" v="361905" />
	</node>
	<node lat="59.83941944742467" lon="9.360819437104134" id="-34467">
		<tag k="name" v="Lauvåshytta" />
		<tag k="place" v="isolated_dwelling" />
		<tag k="ssr:stedsnr" v="362509" />
	</node>
	<node lat="59.83804541246756" lon="9.493527905725697" id="-34468">
		<tag k="name" v="Nordre Huslende" />
		<tag k="place" v="farm" />
		<tag k="ssr:stedsnr" v="362470" />
	</node>
	<node lat="59.853002828250986" lon="9.543449785543759" id="-34474">
		<tag k="fixme" v="consider place=hamlet" />
		<tag k="name" v="Kronset" />
		<tag k="place" v="farm" />
		<tag k="ssr:stedsnr" v="368086" />
	</node>
	<node lat="59.82631895825517" lon="9.583318960059982" id="-34481">
		<tag k="fixme" v="consider place=hamlet" />
		<tag k="name" v="Fjøse" />
		<tag k="place" v="farm" />
		<tag k="ssr:stedsnr" v="368133" />
	</node>
	<node lat="59.89816364420256" lon="9.350738357587018" id="-34484">
		<tag k="fixme" v="consider place=hamlet" />
		<tag k="name" v="Engerud" />
		<tag k="place" v="farm" />
		<tag k="ssr:stedsnr" v="368238" />
	</node>
	<node lat="59.843830552178574" lon="9.608216666175789" id="-34491">
		<tag k="name" v="Damtjern" />
		<tag k="place" v="isolated_dwelling" />
		<tag k="ssr:stedsnr" v="368779" />
	</node>
	<node lat="59.89508889241387" lon="9.497266664273099" id="-34495">
		<tag k="name" v="Liplassen" />
		<tag k="place" v="locality" />
		<tag k="ssr:stedsnr" v="404099" />
	</node>
	<node lat="59.781930557203786" lon="9.59953055516892" id="-34501">
		<tag k="name" v="Søre Ramberg" />
		<tag k="place" v="farm" />
		<tag k="ssr:stedsnr" v="405663" />
	</node>
	<node lat="59.77924999687089" lon="9.460972228784899" id="-34508">
		<tag k="historic" v="shieling" />
		<tag k="name" v="Ådalssetra" />
		<tag k="place" v="isolated_dwelling" />
		<tag k="ssr:stedsnr" v="415991" />
	</node>
	<node lat="59.846027777939064" lon="9.531777779807438" id="-34511">
		<tag k="alt_name" v="Nordre Grøsli" />
		<tag k="name" v="Nord-Grøsli" />
		<tag k="place" v="farm" />
		<tag k="ssr:stedsnr" v="418079" />
	</node>
	<node lat="59.80919444548592" lon="9.67046944443434" id="-34519">
		<tag k="historic" v="shieling" />
		<tag k="name" v="Søre Gutterudsetra" />
		<tag k="place" v="isolated_dwelling" />
		<tag k="ssr:stedsnr" v="421734" />
	</node>
	<node lat="59.93652547624234" lon="9.498260808904002" id="-34535">
		<tag k="name" v="Nordre Låg" />
		<tag k="place" v="farm" />
		<tag k="ssr:stedsnr" v="428144" />
	</node>
	<node lat="59.93935555649857" lon="9.49427499952461" id="-34536">
		<tag k="name" v="Lågstykket" />
		<tag k="place" v="farm" />
		<tag k="ssr:stedsnr" v="428145" />
	</node>
	<node lat="59.929338885371635" lon="9.445177786652714" id="-34537">
		<tag k="alt_name" v="Mellom Holtan" />
		<tag k="name" v="Midtre Holtan" />
		<tag k="place" v="farm" />
		<tag k="ssr:stedsnr" v="428147" />
	</node>
	<node lat="59.97242429671153" lon="9.450977040992054" id="-34540">
		<tag k="fixme" v="consider place=hamlet" />
		<tag k="name" v="Hovet" />
		<tag k="old_name" v="Haave" />
		<tag k="place" v="farm" />
		<tag k="ssr:stedsnr" v="428290" />
	</node>
	<node lat="59.73033333360606" lon="9.604613882715155" id="-34544">
		<tag k="name" v="Luteberget" />
		<tag k="place" v="farm" />
		<tag k="ssr:stedsnr" v="428631" />
	</node>
	<node lat="59.85800833543162" lon="9.399255548943037" id="-34547">
		<tag k="name" v="Tullerud" />
		<tag k="place" v="farm" />
		<tag k="ssr:stedsnr" v="429052" />
	</node>
	<node lat="59.91195334664359" lon="9.525610261744546" id="-34548">
		<tag k="alt_name" v="Lyngjorden" />
		<tag k="fixme" v="consider place=hamlet" />
		<tag k="name" v="Lyngjorda" />
		<tag k="place" v="farm" />
		<tag k="ssr:stedsnr" v="429197" />
	</node>
	<node lat="59.904399996828204" lon="9.414011107206829" id="-34549">
		<tag k="name" v="Hungeråsen" />
		<tag k="place" v="farm" />
		<tag k="ssr:stedsnr" v="429200" />
	</node>
	<node lat="59.899638889176025" lon="9.459508330451042" id="-34551">
		<tag k="name" v="Snarhaugen" />
		<tag k="place" v="isolated_dwelling" />
		<tag k="ssr:stedsnr" v="429212" />
	</node>
	<node lat="59.88986666539881" lon="9.492824992417653" id="-34553">
		<tag k="name" v="Nedre Li" />
		<tag k="place" v="farm" />
		<tag k="ssr:stedsnr" v="429230" />
	</node>
	<node lat="59.80840000178181" lon="9.6480000048342" id="-34557">
		<tag k="name" v="Lauvtjernhaugen" />
		<tag k="place" v="farm" />
		<tag k="ssr:stedsnr" v="429523" />
	</node>
	<node lat="59.763482355072924" lon="9.586741495765192" id="-34560">
		<tag k="name" v="Gvila" />
		<tag k="place" v="farm" />
		<tag k="ssr:stedsnr" v="429988" />
	</node>
	<node lat="59.92239166785687" lon="9.389013884163552" id="-34563">
		<tag k="name" v="Krinkerud" />
		<tag k="place" v="locality" />
		<tag k="ssr:stedsnr" v="525087" />
	</node>
	<node lat="59.86774999962873" lon="9.437625006389819" id="-34565">
		<tag k="name" v="Prestegårdsgrenda" />
		<tag k="place" v="quarter" />
		<tag k="ssr:stedsnr" v="525323" />
	</node>
	<node lat="59.92203333504539" lon="9.447658334166551" id="-34567">
		<tag k="name" v="Østre Landerud" />
		<tag k="place" v="farm" />
		<tag k="ssr:stedsnr" v="525883" />
	</node>
	<node lat="59.80126944702762" lon="9.561791669850956" id="-34568">
		<tag k="name" v="Tonhaugen" />
		<tag k="place" v="isolated_dwelling" />
		<tag k="ssr:stedsnr" v="526700" />
	</node>
	<node lat="59.83769167061274" lon="9.384277783615508" id="-34587">
		<tag k="name" v="Glimmerhytta" />
		<tag k="place" v="isolated_dwelling" />
		<tag k="ssr:stedsnr" v="544508" />
	</node>
	<node lat="59.84288888688921" lon="9.480463888306177" id="-34589">
		<tag k="name" v="Østre Berget" />
		<tag k="place" v="farm" />
		<tag k="ssr:stedsnr" v="544457" />
	</node>
	<node lat="59.870269350789414" lon="9.487331407622204" id="-34593">
		<tag k="fixme" v="consider place=hamlet" />
		<tag k="name" v="Lehovd" />
		<tag k="place" v="farm" />
		<tag k="ssr:stedsnr" v="549044" />
	</node>
	<node lat="59.88849166715232" lon="9.539083329461679" id="-34594">
		<tag k="name" v="Åsen" />
		<tag k="place" v="farm" />
		<tag k="ssr:stedsnr" v="549236" />
	</node>
	<node lat="59.86298055334044" lon="9.43245554993619" id="-34601">
		<tag k="fixme" v="consider place=suburb, village or hamlet" />
		<tag k="name" v="Flesberg" />
		<tag k="place" v="quarter" />
		<tag k="ssr:stedsnr" v="550046" />
	</node>
	<node lat="59.94381501034702" lon="9.481305768233183" id="-34603">
		<tag k="fixme" v="consider place=hamlet" />
		<tag k="name" v="Åsan" />
		<tag k="place" v="farm" />
		<tag k="ssr:stedsnr" v="550141" />
	</node>
	<node lat="59.901401835923046" lon="9.44493758805821" id="-34604">
		<tag k="fixme" v="consider place=hamlet" />
		<tag k="name" v="Kjølset" />
		<tag k="place" v="farm" />
		<tag k="ssr:stedsnr" v="550224" />
	</node>
	<node lat="59.842030558295704" lon="9.513800006410964" id="-34609">
		<tag k="name" v="Snapperud" />
		<tag k="place" v="farm" />
		<tag k="ssr:stedsnr" v="550091" />
	</node>
	<node lat="59.89897777355903" lon="9.448380560312046" id="-34613">
		<tag k="name" v="Kjølberg" />
		<tag k="place" v="farm" />
		<tag k="ssr:stedsnr" v="550227" />
	</node>
	<node lat="59.95491944640344" lon="9.481599991509785" id="-34615">
		<tag k="name" v="Lauvli" />
		<tag k="place" v="farm" />
		<tag k="ssr:stedsnr" v="550344" />
	</node>
	<node lat="59.973719445764985" lon="9.509480556405382" id="-34627">
		<tag k="name" v="Molistugo" />
		<tag k="place" v="locality" />
		<tag k="ssr:stedsnr" v="585760" />
	</node>
	<node lat="59.90563333062218" lon="9.416116661300586" id="-34629">
		<tag k="name" v="Smedplassen" />
		<tag k="place" v="locality" />
		<tag k="ssr:stedsnr" v="586083" />
	</node>
	<node lat="59.76353611297606" lon="9.586686113480031" id="-34633">
		<tag k="name" v="Nordre Gvila" />
		<tag k="place" v="farm" />
		<tag k="ssr:stedsnr" v="586872" />
	</node>
	<node lat="59.81877222478658" lon="9.348400006255144" id="-34652">
		<tag k="name" v="Redningen" />
		<tag k="place" v="isolated_dwelling" />
		<tag k="ssr:stedsnr" v="602975" />
	</node>
	<node lat="59.837858336333234" lon="9.57331111083524" id="-34656">
		<tag k="name" v="Kløfta" />
		<tag k="place" v="locality" />
		<tag k="ssr:stedsnr" v="603678" />
	</node>
	<node lat="59.83693888518065" lon="9.508247216136706" id="-34662">
		<tag k="name" v="Nordre Åsland" />
		<tag k="place" v="farm" />
		<tag k="ssr:stedsnr" v="604474" />
	</node>
	<node lat="59.85875555699114" lon="9.395924997046157" id="-34673">
		<tag k="name" v="Hankerud" />
		<tag k="place" v="farm" />
		<tag k="ssr:stedsnr" v="610060" />
	</node>
	<node lat="59.85059999922379" lon="9.408911108204027" id="-34674">
		<tag k="alt_name" v="Søndre Solum" />
		<tag k="name" v="Søre Solum" />
		<tag k="place" v="farm" />
		<tag k="ssr:stedsnr" v="610063" />
	</node>
	<node lat="59.84341389206018" lon="9.468352774737264" id="-34676">
		<tag k="name" v="Nordre Gjellerud" />
		<tag k="place" v="farm" />
		<tag k="ssr:stedsnr" v="610079" />
	</node>
	<node lat="59.88662221956377" lon="9.487080551292529" id="-34677">
		<tag k="alt_name" v="Søndre Ånnestad" />
		<tag k="name" v="Søre Ånnestad" />
		<tag k="place" v="farm" />
		<tag k="ssr:stedsnr" v="610282" />
	</node>
	<node lat="59.787025002641606" lon="9.601083332093452" id="-34688">
		<tag k="name" v="Ramstad" />
		<tag k="place" v="farm" />
		<tag k="ssr:stedsnr" v="610559" />
	</node>
	<node lat="59.8086527775596" lon="9.607300000083638" id="-34691">
		<tag k="name" v="Solli" />
		<tag k="place" v="farm" />
		<tag k="ssr:stedsnr" v="610581" />
	</node>
	<node lat="59.93793055871376" lon="9.592986106282547" id="-34697">
		<tag k="name" v="Pinkerud" />
		<tag k="place" v="locality" />
		<tag k="ssr:stedsnr" v="631058" />
	</node>
	<node lat="59.85177777484624" lon="9.466027781026845" id="-34700">
		<tag k="name" v="Søre Neset" />
		<tag k="place" v="farm" />
		<tag k="ssr:stedsnr" v="646299" />
	</node>
	<node lat="59.88095278167068" lon="9.476261103420798" id="-34703">
		<tag k="name" v="Vestre Øyberg" />
		<tag k="place" v="farm" />
		<tag k="ssr:stedsnr" v="646126" />
	</node>
	<node lat="59.88055277641758" lon="9.479919450419677" id="-34704">
		<tag k="name" v="Østre Øyberg" />
		<tag k="place" v="farm" />
		<tag k="ssr:stedsnr" v="646127" />
	</node>
	<node lat="59.78293333690901" lon="9.598480554670806" id="-34709">
		<tag k="name" v="Nordre Ramberg" />
		<tag k="place" v="farm" />
		<tag k="ssr:stedsnr" v="647648" />
	</node>
	<node lat="59.91186817657602" lon="9.405869809099414" id="-34713">
		<tag k="fixme" v="consider place=hamlet" />
		<tag k="name" v="Gvasshovd" />
		<tag k="old_name" v="Vashøvd;Hvashovd" />
		<tag k="place" v="farm" />
		<tag k="ssr:stedsnr" v="660212" />
	</node>
	<node lat="59.83248055575303" lon="9.632086112538571" id="-34720">
		<tag k="name" v="Snåbuhytta" />
		<tag k="place" v="isolated_dwelling" />
		<tag k="ssr:stedsnr" v="664497" />
	</node>
	<node lat="59.85021110912233" lon="9.334538892093882" id="-34725">
		<tag k="historic" v="shieling" />
		<tag k="name" v="Vingersetra" />
		<tag k="place" v="isolated_dwelling" />
		<tag k="ssr:stedsnr" v="665558" />
	</node>
	<node lat="59.869969445481296" lon="9.488283330284228" id="-34732">
		<tag k="name" v="Øvre Lehovd" />
		<tag k="place" v="farm" />
		<tag k="ssr:stedsnr" v="666379" />
	</node>
	<node lat="59.84841388820023" lon="9.2912750027812" id="-34734">
		<tag k="historic" v="shieling" />
		<tag k="name" v="Hølsetra" />
		<tag k="place" v="isolated_dwelling" />
		<tag k="ssr:stedsnr" v="719056" />
	</node>
	<node lat="59.864538886511674" lon="9.24615555913398" id="-34749">
		<tag k="historic" v="shieling" />
		<tag k="name" v="Nedre Krokstul" />
		<tag k="place" v="isolated_dwelling" />
		<tag k="ssr:stedsnr" v="726503" />
	</node>
	<node lat="59.80711110725027" lon="9.38276945330531" id="-34750">
		<tag k="historic" v="shieling" />
		<tag k="name" v="Gvelvenseter" />
		<tag k="place" v="isolated_dwelling" />
		<tag k="ssr:stedsnr" v="724775" />
	</node>
	<node lat="59.79048888701904" lon="9.484183330911314" id="-34751">
		<tag k="name" v="Gardåssetra" />
		<tag k="place" v="locality" />
		<tag k="ssr:stedsnr" v="724784" />
	</node>
	<node lat="59.80876111276138" lon="9.380577780034134" id="-34753">
		<tag k="name" v="Gvelven" />
		<tag k="place" v="neighbourhood" />
		<tag k="ssr:stedsnr" v="724981" />
	</node>
	<node lat="59.93494444375506" lon="9.545241658582306" id="-34770">
		<tag k="name" v="Nedre Hommelia" />
		<tag k="place" v="farm" />
		<tag k="ssr:stedsnr" v="732178" />
	</node>
	<node lat="59.93651666299885" lon="9.403874993365266" id="-34771">
		<tag k="historic" v="shieling" />
		<tag k="name" v="Brattåssetra" />
		<tag k="place" v="isolated_dwelling" />
		<tag k="ssr:stedsnr" v="732185" />
	</node>
	<node lat="59.92511666504383" lon="9.512594448165991" id="-34773">
		<tag k="name" v="Pukkverket" />
		<tag k="place" v="farm" />
		<tag k="ssr:stedsnr" v="732196" />
	</node>
	<node lat="59.84470954671739" lon="9.53558824918668" id="-34778">
		<tag k="alt_name" v="Søndre Grøsli" />
		<tag k="name" v="Søre Grøsli" />
		<tag k="place" v="farm" />
		<tag k="ssr:stedsnr" v="732099" />
	</node>
	<node lat="59.77213888592202" lon="9.582949991126869" id="-34788">
		<tag k="name" v="Hostveit" />
		<tag k="place" v="farm" />
		<tag k="ssr:stedsnr" v="732867" />
	</node>
	<node lat="59.78594028551875" lon="9.575718216350051" id="-34790">
		<tag k="fixme" v="consider place=hamlet" />
		<tag k="name" v="Gåsum" />
		<tag k="place" v="farm" />
		<tag k="ssr:stedsnr" v="732880" />
	</node>
	<node lat="59.79303847737463" lon="9.494091744155776" id="-34792">
		<tag k="name" v="Øvre Mangelen" />
		<tag k="place" v="locality" />
		<tag k="ssr:stedsnr" v="732890" />
	</node>
	<node lat="59.91215000410811" lon="9.413855559668761" id="-34800">
		<tag k="name" v="Stuvestadgrenda" />
		<tag k="place" v="hamlet" />
		<tag k="ssr:stedsnr" v="768219" />
	</node>
	<node lat="59.86994166276117" lon="9.389169436104204" id="-34804">
		<tag k="name" v="Klemetsplassen" />
		<tag k="place" v="locality" />
		<tag k="ssr:stedsnr" v="768275" />
	</node>
	<node lat="59.85921111520674" lon="9.437477783135272" id="-34805">
		<tag k="building" v="industrial" />
		<tag k="industrial" v="factory" />
		<tag k="name" v="Numedal Bruk" />
		<tag k="ssr:stedsnr" v="768283" />
	</node>
	<node lat="59.86070278086595" lon="9.426088882561537" id="-34806">
		<tag k="amenity" v="school" />
		<tag k="name" v="Flesberg skole" />
		<tag k="ssr:stedsnr" v="768286" />
	</node>
	<node lat="59.818963892579625" lon="9.585449996786622" id="-34811">
		<tag k="name" v="Ellenrud" />
		<tag k="place" v="farm" />
		<tag k="ssr:stedsnr" v="769680" />
	</node>
	<node lat="59.83386695500799" lon="9.578252918744088" id="-34819">
		<tag k="fixme" v="consider place=hamlet" />
		<tag k="name" v="Lampeland" />
		<tag k="old_name" v="Lambeland" />
		<tag k="place" v="farm" />
		<tag k="ssr:stedsnr" v="780369" />
	</node>
	<node lat="59.834477774532935" lon="9.552880561171058" id="-34832">
		<tag k="name" v="Rindumplassen" />
		<tag k="place" v="locality" />
		<tag k="ssr:stedsnr" v="785701" />
	</node>
	<node lat="59.849775000341914" lon="9.593308336159168" id="-34833">
		<tag k="name" v="Fuglli" />
		<tag k="place" v="isolated_dwelling" />
		<tag k="ssr:stedsnr" v="785534" />
	</node>
	<node lat="59.87420833176118" lon="9.452911110580471" id="-34842">
		<tag k="name" v="Solli" />
		<tag k="place" v="locality" />
		<tag k="ssr:stedsnr" v="787354" />
	</node>
	<node lat="59.8597527797575" lon="9.321280561619071" id="-34850">
		<tag k="name" v="Blåberg" />
		<tag k="old_name" v="Blåberg fjellstue" />
		<tag k="ssr:stedsnr" v="792050" />
		<tag k="tourism" v="hotel" />
	</node>
	<node lat="59.96420010005341" lon="9.495600309412819" id="-34855">
		<tag k="fixme" v="consider place=hamlet" />
		<tag k="name" v="Molia" />
		<tag k="place" v="farm" />
		<tag k="ssr:stedsnr" v="792361" />
	</node>
	<node lat="59.861030558052015" lon="9.409361112604056" id="-34856">
		<tag k="name" v="Enga" />
		<tag k="place" v="farm" />
		<tag k="ssr:stedsnr" v="792055" />
	</node>
	<node lat="59.92742499932797" lon="9.443433332615676" id="-34859">
		<tag k="alt_name" v="Søndre Holtan" />
		<tag k="name" v="Søre Holtan" />
		<tag k="place" v="farm" />
		<tag k="ssr:stedsnr" v="792175" />
	</node>
	<node lat="59.922391667293745" lon="9.397866667594954" id="-34860">
		<tag k="alt_name" v="Mellom Buin" />
		<tag k="name" v="Midtre Buin" />
		<tag k="place" v="farm" />
		<tag k="ssr:stedsnr" v="792188" />
	</node>
	<node lat="59.817197218170215" lon="9.673055563762468" id="-34864">
		<tag k="historic" v="shieling" />
		<tag k="name" v="Nedre Grettesetra" />
		<tag k="place" v="isolated_dwelling" />
		<tag k="ssr:stedsnr" v="792521" />
	</node>
	<node lat="59.85776388835007" lon="9.447827784163465" id="-34869">
		<tag k="alt_name" v="Søndre Fekjan" />
		<tag k="name" v="Søre Fekjan" />
		<tag k="place" v="farm" />
		<tag k="ssr:stedsnr" v="793062" />
	</node>
	<node lat="59.856234625958784" lon="9.508922788661609" id="-34870">
		<tag k="fixme" v="consider place=hamlet" />
		<tag k="name" v="Vengestad" />
		<tag k="place" v="farm" />
		<tag k="ssr:stedsnr" v="793067" />
	</node>
	<node lat="59.836619447681414" lon="9.454394453077606" id="-34879">
		<tag k="name" v="Øvre Værås" />
		<tag k="place" v="farm" />
		<tag k="ssr:stedsnr" v="793080" />
	</node>
	<node lat="59.83013055548697" lon="9.39483610333607" id="-34881">
		<tag k="historic" v="shieling" />
		<tag k="name" v="Hestemyr" />
		<tag k="place" v="isolated_dwelling" />
		<tag k="ssr:stedsnr" v="793096" />
	</node>
	<node lat="59.95327777560854" lon="9.523650007478345" id="-34883">
		<tag k="fixme" v="consider place=hamlet" />
		<tag k="name" v="Tuko" />
		<tag k="place" v="farm" />
		<tag k="ssr:stedsnr" v="793371" />
	</node>
	<node lat="59.88039407536501" lon="9.466933889019973" id="-34886">
		<tag k="fixme" v="consider place=hamlet" />
		<tag k="name" v="Lande" />
		<tag k="place" v="farm" />
		<tag k="ssr:stedsnr" v="813140" />
	</node>
	<node lat="59.880397225923254" lon="9.468447225129962" id="-34891">
		<tag k="name" v="Øvre Lande" />
		<tag k="place" v="farm" />
		<tag k="ssr:stedsnr" v="829145" />
	</node>
	<node lat="59.86099722573474" lon="9.379869449119628" id="-34895">
		<tag k="name" v="Steinset" />
		<tag k="place" v="locality" />
		<tag k="ssr:stedsnr" v="829292" />
	</node>
	<node lat="59.921641665343515" lon="9.446991659389477" id="-34903">
		<tag k="name" v="Vestre Landerud" />
		<tag k="place" v="farm" />
		<tag k="ssr:stedsnr" v="829898" />
	</node>
	<node lat="59.80091110863058" lon="9.390111115993557" id="-34911">
		<tag k="aerialway" v="drag_lift" />
		<tag k="fixme" v="consider the other aerialway types" />
		<tag k="name" v="Blefjellheisen" />
		<tag k="ssr:stedsnr" v="846767" />
	</node>
	<node lat="59.95122499894445" lon="9.505249997551063" id="-34913">
		<tag k="name" v="Vestre Kjølås" />
		<tag k="place" v="farm" />
		<tag k="ssr:stedsnr" v="847944" />
	</node>
	<node lat="59.920136112687295" lon="9.501397216266477" id="-34916">
		<tag k="name" v="Øvre Bakli" />
		<tag k="place" v="farm" />
		<tag k="ssr:stedsnr" v="847892" />
	</node>
	<node lat="59.909533329238386" lon="9.404574998204815" id="-34934">
		<tag k="alt_name" v="Søndre Bergan" />
		<tag k="name" v="Søre Bergan" />
		<tag k="old_name" v="Bergen sö:" />
		<tag k="place" v="farm" />
		<tag k="ssr:stedsnr" v="854195" />
	</node>
	<node lat="59.81233213135271" lon="9.585359746416476" id="-34944">
		<tag k="fixme" v="consider place=hamlet" />
		<tag k="name" v="Moen" />
		<tag k="place" v="farm" />
		<tag k="ssr:stedsnr" v="854917" />
	</node>
	<node lat="59.81771388471782" lon="9.57923610344364" id="-34946">
		<tag k="name" v="Toresplassen" />
		<tag k="place" v="locality" />
		<tag k="ssr:stedsnr" v="854930" />
	</node>
	<node lat="59.769647220100964" lon="9.67551666236925" id="-34947">
		<tag k="name" v="Snørtevoll" />
		<tag k="place" v="isolated_dwelling" />
		<tag k="ssr:stedsnr" v="875781" />
	</node>
	<node lat="59.779944446827926" lon="9.68471944779508" id="-34950">
		<tag k="historic" v="shieling" />
		<tag k="name" v="Aslaksrudseter" />
		<tag k="place" v="isolated_dwelling" />
		<tag k="ssr:stedsnr" v="936769" />
	</node>
	<node lat="59.90745555401507" lon="9.492124993281841" id="-34957">
		<tag k="name" v="Nedre Kleiv" />
		<tag k="place" v="farm" />
		<tag k="ssr:stedsnr" v="950099" />
	</node>
	<node lat="59.78996666758531" lon="9.59613055721003" id="-34960">
		<tag k="name" v="Nordre Gutterud" />
		<tag k="place" v="farm" />
		<tag k="ssr:stedsnr" v="951711" />
	</node>
	<node lat="59.7935888882576" lon="9.574991664958675" id="-34961">
		<tag k="name" v="Fossheim" />
		<tag k="place" v="locality" />
		<tag k="ssr:stedsnr" v="951721" />
	</node>
	<node lat="59.808500002436766" lon="9.40816667211396" id="-34973">
		<tag k="name" v="Sjuvasslia" />
		<tag k="place" v="neighbourhood" />
		<tag k="ssr:stedsnr" v="967964" />
	</node>
	<node lat="59.86371388502575" lon="9.68867221876054" id="-34974">
		<tag k="name" v="Jegerhaugen" />
		<tag k="place" v="isolated_dwelling" />
		<tag k="ssr:stedsnr" v="967538" />
	</node>
	<node lat="59.851459770013875" lon="9.40578924513548" id="-35233">
		<tag k="fixme" v="consider place=hamlet" />
		<tag k="name" v="Solum" />
		<tag k="place" v="farm" />
		<tag k="ssr:stedsnr" v="1072748" />
	</node>
	<node lat="59.83762062648515" lon="9.454086040846901" id="-35234">
		<tag k="fixme" v="consider place=hamlet" />
		<tag k="name" v="Værås" />
		<tag k="place" v="farm" />
		<tag k="ssr:stedsnr" v="1072750" />
	</node>
	<node lat="59.88961608572452" lon="9.4912121827314" id="-35235">
		<tag k="fixme" v="consider place=hamlet" />
		<tag k="name" v="Li" />
		<tag k="place" v="farm" />
		<tag k="ssr:stedsnr" v="1072755" />
	</node>
	<node lat="59.88694481708037" lon="9.487552441080098" id="-35236">
		<tag k="fixme" v="consider place=hamlet" />
		<tag k="name" v="Ånnestad" />
		<tag k="place" v="farm" />
		<tag k="ssr:stedsnr" v="1072757" />
	</node>
	<node lat="59.85721597594838" lon="9.446056100339227" id="-35237">
		<tag k="fixme" v="consider place=hamlet" />
		<tag k="name" v="Fekjan" />
		<tag k="place" v="farm" />
		<tag k="ssr:stedsnr" v="1072758" />
	</node>
	<node lat="59.91331951189964" lon="9.39614728345966" id="-35238">
		<tag k="fixme" v="consider place=hamlet" />
		<tag k="name" v="Bergan" />
		<tag k="place" v="farm" />
		<tag k="ssr:stedsnr" v="1072759" />
	</node>
	<node lat="59.92335569638247" lon="9.378577312738733" id="-35239">
		<tag k="name" v="Brattås" />
		<tag k="place" v="hamlet" />
		<tag k="ssr:stedsnr" v="1072760" />
	</node>
	<node lat="59.9216373234698" lon="9.396407117250552" id="-35240">
		<tag k="fixme" v="consider place=hamlet" />
		<tag k="name" v="Buin" />
		<tag k="place" v="farm" />
		<tag k="ssr:stedsnr" v="1072761" />
	</node>
	<node lat="59.96083647052838" lon="9.462578630408023" id="-35241">
		<tag k="fixme" v="consider place=hamlet" />
		<tag k="name" v="Teksle" />
		<tag k="place" v="farm" />
		<tag k="ssr:stedsnr" v="1072762" />
	</node>
	<node lat="59.93522144348107" lon="9.546301220465784" id="-35242">
		<tag k="fixme" v="consider place=hamlet" />
		<tag k="name" v="Hommelia" />
		<tag k="place" v="farm" />
		<tag k="ssr:stedsnr" v="1072763" />
	</node>
	<node lat="59.84273871067806" lon="9.546137516237371" id="-35243">
		<tag k="name" v="Stemning" />
		<tag k="place" v="hamlet" />
		<tag k="ssr:stedsnr" v="1072765" />
	</node>
	<node lat="59.76541148875364" lon="9.608610160099216" id="-35244">
		<tag k="fixme" v="consider place=hamlet" />
		<tag k="name" v="Ås" />
		<tag k="place" v="farm" />
		<tag k="ssr:stedsnr" v="1072768" />
	</node>
</osm>
