<?xml version="1.0" encoding="UTF-8"?>
<osm version="0.6" generator="osmapis">
	<node lat="59.76408333564155" lon="9.575161110479428" id="-33745">
		<tag k="bridge" v="yes" />
		<tag k="layer" v="1" />
		<tag k="name" v="Skudsvik" />
		<tag k="ssr:stedsnr" v="107605" />
	</node>
	<node lat="59.786908329544886" lon="9.575819439179412" id="-33746">
		<tag k="bridge" v="yes" />
		<tag k="layer" v="1" />
		<tag k="name" v="Gåsum" />
		<tag k="ssr:stedsnr" v="107608" />
	</node>
	<node lat="59.86300833492151" lon="9.42708332903326" id="-33823">
		<tag k="name" v="Flesberg stasjon" />
		<tag k="railway" v="station" />
		<tag k="ssr:stedsnr" v="222297" />
		<tag k="train" v="yes" />
	</node>
	<node lat="59.859199999538355" lon="9.409274997945761" id="-33875">
		<tag k="bridge" v="yes" />
		<tag k="layer" v="1" />
		<tag k="name" v="Vrenja" />
		<tag k="ssr:stedsnr" v="289634" />
	</node>
	<node lat="59.96187222264206" lon="9.582202785800984" id="-33884">
		<tag k="name" v="Jerpetonvelta" />
		<tag k="place" v="locality" />
		<tag k="ssr:stedsnr" v="298298" />
	</node>
	<node lat="59.84798610755437" lon="9.437925006795796" id="-33938">
		<tag k="bridge" v="yes" />
		<tag k="layer" v="1" />
		<tag k="name" v="Høymyr" />
		<tag k="ssr:stedsnr" v="471588" />
	</node>
	<node lat="59.85923333230879" lon="9.426808341455779" id="-33939">
		<tag k="bridge" v="yes" />
		<tag k="layer" v="1" />
		<tag k="name" v="Haugen" />
		<tag k="ssr:stedsnr" v="471590" />
	</node>
	<node lat="59.76550555517512" lon="9.512858325218666" id="-34002">
		<tag k="highway" v="path" />
		<tag k="name" v="Sextusvegen" />
		<tag k="ssr:stedsnr" v="483873" />
	</node>
	<node lat="59.84862778041941" lon="9.419741673601186" id="-34297">
		<tag k="name" v="Hagale" />
		<tag k="place" v="locality" />
		<tag k="ssr:stedsnr" v="665514" />
	</node>
	<node lat="59.87300833360459" lon="9.506547228774053" id="-34321">
		<tag k="name" v="Lehovdvelta" />
		<tag k="place" v="locality" />
		<tag k="ssr:stedsnr" v="890165" />
	</node>
	<node lat="59.79664166967956" lon="9.581280558482286" id="-34332">
		<tag k="name" v="Svene stasjon" />
		<tag k="railway" v="station" />
		<tag k="ssr:stedsnr" v="891693" />
		<tag k="train" v="yes" />
	</node>
	<node lat="59.89432500247758" lon="9.516369443972003" id="-34347">
		<tag k="bridge" v="yes" />
		<tag k="layer" v="1" />
		<tag k="name" v="Bufevad" />
		<tag k="ssr:stedsnr" v="714518" />
	</node>
	<node lat="59.85211388717992" lon="9.493822220965942" id="-34460">
		<tag k="alt_name" v="Vangestad" />
		<tag k="name" v="Vangestad holdeplass" />
		<tag k="railway" v="halt" />
		<tag k="ssr:stedsnr" v="914075" />
		<tag k="train" v="yes" />
	</node>
	<node lat="59.95285555833101" lon="9.592572230457172" id="-34572">
		<tag k="name" v="Sølvsetvelta" />
		<tag k="place" v="locality" />
		<tag k="ssr:stedsnr" v="965345" />
	</node>
	<node lat="59.87808610999752" lon="9.373291673057043" id="-34615">
		<tag k="bridge" v="yes" />
		<tag k="layer" v="1" />
		<tag k="name" v="Tave" />
		<tag k="ssr:stedsnr" v="46632" />
	</node>
	<node lat="59.77517222459538" lon="9.588205562420653" id="-34616">
		<tag k="bridge" v="yes" />
		<tag k="layer" v="1" />
		<tag k="name" v="Ramberg" />
		<tag k="ssr:stedsnr" v="46635" />
	</node>
	<node lat="59.7473250028027" lon="9.591027784176259" id="-34633">
		<tag k="alt_name" v="Gleda;Glea" />
		<tag k="name" v="Gleda stasjon" />
		<tag k="railway" v="station" />
		<tag k="ssr:stedsnr" v="64492" />
		<tag k="train" v="yes" />
	</node>
	<node lat="59.866774999030405" lon="9.407266669483258" id="-34671">
		<tag k="bridge" v="yes" />
		<tag k="layer" v="1" />
		<tag k="name" v="Aslefet" />
		<tag k="ssr:stedsnr" v="107593" />
	</node>
	<node lat="59.8449138862499" lon="9.37121110219719" id="-34761">
		<tag k="highway" v="path" />
		<tag k="name" v="Gygrestien" />
		<tag k="ssr:stedsnr" v="180486" />
	</node>
	<node lat="59.74414444456237" lon="9.691494442478906" id="-34822">
		<tag k="bridge" v="yes" />
		<tag k="layer" v="1" />
		<tag k="name" v="Dammyr" />
		<tag k="ssr:stedsnr" v="289623" />
	</node>
	<node lat="59.8775277801292" lon="9.5411305532018" id="-34890">
		<tag k="bridge" v="yes" />
		<tag k="layer" v="1" />
		<tag k="name" v="Riså" />
		<tag k="ssr:stedsnr" v="349630" />
	</node>
	<node lat="59.83639444814953" lon="9.572772223872834" id="-34891">
		<tag k="bridge" v="yes" />
		<tag k="layer" v="1" />
		<tag k="name" v="Fløtaker" />
		<tag k="ssr:stedsnr" v="350526" />
	</node>
	<node lat="59.799511109120665" lon="9.546794440423376" id="-34914">
		<tag k="highway" v="path" />
		<tag k="name" v="Gruvevegen" />
		<tag k="ssr:stedsnr" v="360977" />
	</node>
	<node lat="59.84399722476358" lon="9.461522214996828" id="-34961">
		<tag k="bridge" v="yes" />
		<tag k="layer" v="1" />
		<tag k="name" v="Gjellerud" />
		<tag k="ssr:stedsnr" v="410585" />
	</node>
	<node lat="59.74868611355039" lon="9.682944448994585" id="-35024">
		<tag k="bridge" v="yes" />
		<tag k="layer" v="1" />
		<tag k="name" v="Guterud" />
		<tag k="ssr:stedsnr" v="532547" />
	</node>
	<node lat="59.84123888893571" lon="9.492652779244471" id="-35025">
		<tag k="bridge" v="yes" />
		<tag k="layer" v="1" />
		<tag k="name" v="Huslende" />
		<tag k="ssr:stedsnr" v="532563" />
	</node>
	<node lat="59.74691666896205" lon="9.584369440595127" id="-35092">
		<tag k="bridge" v="yes" />
		<tag k="layer" v="1" />
		<tag k="name" v="Belgen" />
		<tag k="ssr:stedsnr" v="592611" />
	</node>
	<node lat="59.833811108793604" lon="9.561447219700451" id="-35093">
		<tag k="bridge" v="yes" />
		<tag k="layer" v="1" />
		<tag k="name" v="Toskjestryken" />
		<tag k="ssr:stedsnr" v="592622" />
	</node>
	<node lat="59.837730551889884" lon="9.578258333141742" id="-35167">
		<tag k="bridge" v="yes" />
		<tag k="layer" v="1" />
		<tag k="name" v="Skartum" />
		<tag k="ssr:stedsnr" v="653575" />
	</node>
	<node lat="59.85690278098886" lon="9.563591664114517" id="-35270">
		<tag k="bridge" v="yes" />
		<tag k="layer" v="1" />
		<tag k="name" v="Grønbu" />
		<tag k="ssr:stedsnr" v="775527" />
	</node>
	<node lat="59.89667500184382" lon="9.34313888824338" id="-35271">
		<tag k="bridge" v="yes" />
		<tag k="layer" v="1" />
		<tag k="name" v="Juva" />
		<tag k="ssr:stedsnr" v="775543" />
	</node>
	<node lat="59.86309722267763" lon="9.383552785558471" id="-35354">
		<tag k="landuse" v="industrial" />
		<tag k="name" v="Vrengja kraftstasjon" />
		<tag k="power" v="plant" />
		<tag k="ssr:stedsnr" v="829297" />
	</node>
	<node lat="59.97516666701054" lon="9.50697777610271" id="-35357">
		<tag k="name" v="Botnanvelta" />
		<tag k="place" v="locality" />
		<tag k="ssr:stedsnr" v="829788" />
	</node>
	<node lat="59.74365555548742" lon="9.57223056270523" id="-35361">
		<tag k="name" v="Ragnhildsvingen" />
		<tag k="place" v="locality" />
		<tag k="ssr:stedsnr" v="831776" />
	</node>
	<node lat="59.83321111446447" lon="9.576530552978204" id="-35430">
		<tag k="name" v="Lampeland stasjon" />
		<tag k="railway" v="station" />
		<tag k="ssr:stedsnr" v="967673" />
		<tag k="train" v="yes" />
	</node>
</osm>
