<?xml version="1.0" encoding="UTF-8"?>
<osm version="0.6" generator="osmapis">
	<node lat="65.59149599918412" lon="14.059847319506934" id="-7069">
		<tag k="fixme" v="consider place=hamlet" />
		<tag k="name" v="Valmåsen" />
		<tag k="name:no" v="Valmåsen" />
		<tag k="place" v="farm" />
		<tag k="ssr:stedsnr" v="15063" />
	</node>
	<node lat="65.63047222527952" lon="14.024258331289642" id="-7070">
		<tag k="alt_name:no" v="Sætren" />
		<tag k="name" v="Setren" />
		<tag k="name:no" v="Setren" />
		<tag k="place" v="farm" />
		<tag k="ssr:stedsnr" v="15104" />
	</node>
	<node lat="65.65240278175168" lon="14.05298610339859" id="-7078">
		<tag k="alt_name:no" v="Bjørkvika" />
		<tag k="name" v="Bjørkvik" />
		<tag k="name:no" v="Bjørkvik" />
		<tag k="place" v="farm" />
		<tag k="ssr:stedsnr" v="15454" />
	</node>
	<node lat="65.64726111059848" lon="14.071505565320933" id="-7079">
		<tag k="alt_name:no" v="Steinlia" />
		<tag k="name" v="Steinli" />
		<tag k="name:no" v="Steinli" />
		<tag k="place" v="farm" />
		<tag k="ssr:stedsnr" v="15455" />
	</node>
	<node lat="65.65072499962726" lon="14.100475000977823" id="-7080">
		<tag k="name" v="Nordstad" />
		<tag k="name:no" v="Nordstad" />
		<tag k="place" v="farm" />
		<tag k="ssr:stedsnr" v="15456" />
	</node>
	<node lat="65.67908333432213" lon="14.171997229989275" id="-7090">
		<tag k="alt_name:no" v="Kjempeosen" />
		<tag k="name" v="Kjempos" />
		<tag k="name:no" v="Kjempos" />
		<tag k="place" v="farm" />
		<tag k="ssr:stedsnr" v="15518" />
	</node>
	<node lat="65.36467777433444" lon="14.051802785515726" id="-7092">
		<tag k="name" v="Finnbakken" />
		<tag k="name:no" v="Finnbakken" />
		<tag k="place" v="farm" />
		<tag k="ssr:stedsnr" v="15802" />
	</node>
	<node lat="65.42097675314177" lon="13.973914093807098" id="-7095">
		<tag k="fixme" v="consider place=hamlet" />
		<tag k="name" v="Ivarrud" />
		<tag k="name:no" v="Ivarrud" />
		<tag k="place" v="farm" />
		<tag k="ssr:stedsnr" v="15823" />
	</node>
	<node lat="65.52572778016633" lon="14.215608324405169" id="-7117">
		<tag k="name" v="Skogstue" />
		<tag k="name:no" v="Skogstue" />
		<tag k="place" v="isolated_dwelling" />
		<tag k="ssr:stedsnr" v="33872" />
	</node>
	<node lat="65.55669166587647" lon="14.204627770165576" id="-7141">
		<tag k="name" v="Hals" />
		<tag k="name:no" v="Hals" />
		<tag k="place" v="isolated_dwelling" />
		<tag k="ssr:stedsnr" v="237643" />
	</node>
	<node lat="65.55760277364621" lon="14.207263879555917" id="-7169">
		<tag k="name" v="Hals" />
		<tag k="name:no" v="Hals" />
		<tag k="place" v="farm" />
		<tag k="ssr:stedsnr" v="76266" />
	</node>
	<node lat="65.50444999960479" lon="13.999824999523238" id="-7171">
		<tag k="name" v="Persby" />
		<tag k="name:no" v="Persby" />
		<tag k="place" v="isolated_dwelling" />
		<tag k="ssr:stedsnr" v="76160" />
	</node>
	<node lat="65.82593877192603" lon="14.188189321799397" id="-7172">
		<tag k="alt_name:no" v="Varntresk, yt;Varntræsk" />
		<tag k="name" v="Varntresk Ytre" />
		<tag k="name:no" v="Varntresk Ytre" />
		<tag k="place" v="farm" />
		<tag k="ssr:stedsnr" v="76162" />
	</node>
	<node lat="65.40057500193643" lon="14.00475000559487" id="-7192">
		<tag k="name" v="Elvarheim" />
		<tag k="name:no" v="Elvarheim" />
		<tag k="place" v="farm" />
		<tag k="ssr:stedsnr" v="76768" />
	</node>
	<node lat="65.39481667042519" lon="13.986525001908067" id="-7193">
		<tag k="name" v="Einvoll" />
		<tag k="name:no" v="Einvoll" />
		<tag k="place" v="farm" />
		<tag k="ssr:stedsnr" v="76769" />
	</node>
	<node lat="65.43445833067204" lon="14.132516656252022" id="-7199">
		<tag k="name" v="Vangen" />
		<tag k="name:no" v="Vangen" />
		<tag k="place" v="farm" />
		<tag k="ssr:stedsnr" v="76810" />
	</node>
	<node lat="65.60194999927903" lon="14.048738881114831" id="-7221">
		<tag k="name" v="Motun" />
		<tag k="name:no" v="Motun" />
		<tag k="place" v="farm" />
		<tag k="ssr:stedsnr" v="95580" />
	</node>
	<node lat="65.59927222605023" lon="13.997080548381742" id="-7223">
		<tag k="name" v="Svean" />
		<tag k="name:no" v="Svean" />
		<tag k="place" v="quarter" />
		<tag k="ssr:stedsnr" v="95973" />
	</node>
	<node lat="65.81377222076412" lon="14.359488894302547" id="-7238">
		<tag k="name" v="Bjørkvik" />
		<tag k="name:no" v="Bjørkvik" />
		<tag k="place" v="farm" />
		<tag k="ssr:stedsnr" v="136003" />
	</node>
	<node lat="65.60273611330719" lon="14.090708335933758" id="-7246">
		<tag k="name" v="Elvnes" />
		<tag k="name:no" v="Elvnes" />
		<tag k="place" v="farm" />
		<tag k="ssr:stedsnr" v="136041" />
	</node>
	<node lat="65.53010739118572" lon="14.00164110334856" id="-7259">
		<tag k="alt_name:no" v="Vefsnmoen" />
		<tag k="fixme" v="consider place=hamlet" />
		<tag k="name" v="Vefsnmo" />
		<tag k="name:no" v="Vefsnmo" />
		<tag k="place" v="farm" />
		<tag k="ssr:stedsnr" v="136266" />
	</node>
	<node lat="65.51676152346472" lon="14.112742376710093" id="-7266">
		<tag k="alt_name:no" v="Vatshaug" />
		<tag k="fixme" v="consider place=hamlet" />
		<tag k="name" v="Vasshaugen" />
		<tag k="name:no" v="Vasshaugen" />
		<tag k="place" v="farm" />
		<tag k="ssr:stedsnr" v="136159" />
	</node>
	<node lat="65.46454722016296" lon="14.35079999859938" id="-7272">
		<tag k="alt_name:no" v="Asplia" />
		<tag k="name" v="Aspli" />
		<tag k="name:no" v="Aspli" />
		<tag k="place" v="farm" />
		<tag k="ssr:stedsnr" v="136756" />
	</node>
	<node lat="65.424848235285" lon="13.965982307683781" id="-7277">
		<tag k="alt_name:no" v="Grubblandshaug" />
		<tag k="fixme" v="consider place=hamlet" />
		<tag k="name" v="Grubblandshaugen" />
		<tag k="name:no" v="Grubblandshaugen" />
		<tag k="place" v="farm" />
		<tag k="ssr:stedsnr" v="136810" />
	</node>
	<node lat="65.57423095035088" lon="14.34002502872395" id="-7278">
		<tag k="fixme" v="consider place=hamlet" />
		<tag k="name" v="Garsmarka" />
		<tag k="name:no" v="Garsmarka" />
		<tag k="place" v="farm" />
		<tag k="ssr:stedsnr" v="136820" />
	</node>
	<node lat="65.57948611147557" lon="14.16956667583245" id="-7283">
		<tag k="name" v="Bergtun" />
		<tag k="name:no" v="Bergtun" />
		<tag k="place" v="farm" />
		<tag k="ssr:stedsnr" v="137020" />
	</node>
	<node lat="65.74778889227197" lon="13.920722231502427" id="-7311">
		<tag k="name" v="Stikkelvika" />
		<tag k="name:no" v="Stikkelvika" />
		<tag k="place" v="farm" />
		<tag k="ssr:stedsnr" v="155383" />
	</node>
	<node lat="65.8244722185531" lon="14.202075009719826" id="-7312">
		<tag k="alt_name:no" v="Indremo" />
		<tag k="name" v="Indremoen" />
		<tag k="name:no" v="Indremoen" />
		<tag k="place" v="farm" />
		<tag k="ssr:stedsnr" v="257128" />
	</node>
	<node lat="65.54579444047165" lon="14.022663884337845" id="-7313">
		<tag k="name" v="Aune" />
		<tag k="name:no" v="Aune" />
		<tag k="place" v="farm" />
		<tag k="ssr:stedsnr" v="155502" />
	</node>
	<node lat="65.60829251662373" lon="14.094447239570675" id="-7324">
		<tag k="alt_name:no" v="Sirijord" />
		<tag k="fixme" v="consider place=hamlet" />
		<tag k="name" v="Sirijorda" />
		<tag k="name:no" v="Sirijorda" />
		<tag k="place" v="farm" />
		<tag k="ssr:stedsnr" v="258033" />
	</node>
	<node lat="65.51309685117987" lon="14.148346828942636" id="-7328">
		<tag k="name" v="Luspie - Luspen" />
		<tag k="name:no" v="Luspen" />
		<tag k="name:sma" v="Luspie" />
		<tag k="place" v="isolated_dwelling" />
		<tag k="ssr:stedsnr" v="258153" />
	</node>
	<node lat="65.59281111480651" lon="14.04123056098914" id="-7331">
		<tag k="name" v="Nyheim" />
		<tag k="name:no" v="Nyheim" />
		<tag k="place" v="farm" />
		<tag k="ssr:stedsnr" v="258001" />
	</node>
	<node lat="65.61821110810564" lon="13.928841669697675" id="-7336">
		<tag k="name" v="Lyngen" />
		<tag k="name:no" v="Lyngen" />
		<tag k="place" v="farm" />
		<tag k="ssr:stedsnr" v="258079" />
	</node>
	<node lat="65.85659999772791" lon="14.205000006188365" id="-7337">
		<tag k="alt_name:no" v="Meisvik" />
		<tag k="name" v="Meisvika" />
		<tag k="name:no" v="Meisvika" />
		<tag k="place" v="farm" />
		<tag k="ssr:stedsnr" v="258177" />
	</node>
	<node lat="65.50888928280521" lon="14.217238114992256" id="-7339">
		<tag k="fixme" v="consider place=hamlet" />
		<tag k="name" v="Tjåelmie - Tjolmen" />
		<tag k="name:no" v="Tjolmen" />
		<tag k="name:sma" v="Tjåelmie" />
		<tag k="place" v="farm" />
		<tag k="ssr:stedsnr" v="258183" />
	</node>
	<node lat="65.66813333637381" lon="14.095863897568984" id="-7346">
		<tag k="name" v="Saulia" />
		<tag k="name:no" v="Saulia" />
		<tag k="place" v="farm" />
		<tag k="ssr:stedsnr" v="258488" />
	</node>
	<node lat="65.6686083363043" lon="14.143402773487896" id="-7352">
		<tag k="name" v="Nordheim" />
		<tag k="name:no" v="Nordheim" />
		<tag k="place" v="farm" />
		<tag k="ssr:stedsnr" v="258384" />
	</node>
	<node lat="65.40061388996453" lon="13.981175001571028" id="-7361">
		<tag k="name" v="Kjerstad" />
		<tag k="name:no" v="Kjerstad" />
		<tag k="place" v="farm" />
		<tag k="ssr:stedsnr" v="258784" />
	</node>
	<node lat="65.71542400093398" lon="13.696655663496605" id="-7365">
		<tag k="name" v="Jamtsætra" />
		<tag k="name:no" v="Jamtsætra" />
		<tag k="place" v="locality" />
		<tag k="ssr:stedsnr" v="258752" />
	</node>
	<node lat="65.54609444722523" lon="14.197850000780454" id="-7376">
		<tag k="name" v="Skogstue" />
		<tag k="name:no" v="Skogstue" />
		<tag k="place" v="isolated_dwelling" />
		<tag k="ssr:stedsnr" v="177659" />
	</node>
	<node lat="65.60501388725162" lon="13.994747223604987" id="-7383">
		<tag k="name" v="Hove" />
		<tag k="name:no" v="Hove" />
		<tag k="place" v="farm" />
		<tag k="ssr:stedsnr" v="197111" />
	</node>
	<node lat="65.5954583369571" lon="13.90131665807936" id="-7391">
		<tag k="name" v="Melkarlia" />
		<tag k="name:no" v="Melkarlia" />
		<tag k="place" v="farm" />
		<tag k="ssr:stedsnr" v="197009" />
	</node>
	<node lat="65.5334957289816" lon="13.832258326107866" id="-7405">
		<tag k="fixme" v="consider place=hamlet" />
		<tag k="name" v="Fjellstad" />
		<tag k="name:no" v="Fjellstad" />
		<tag k="place" v="farm" />
		<tag k="ssr:stedsnr" v="197261" />
	</node>
	<node lat="65.38687222035546" lon="14.021305560226683" id="-7415">
		<tag k="name" v="Haugerud" />
		<tag k="name:no" v="Haugerud" />
		<tag k="place" v="farm" />
		<tag k="ssr:stedsnr" v="197808" />
	</node>
	<node lat="65.4860166651864" lon="14.030441666585144" id="-7421">
		<tag k="name" v="Skoglund" />
		<tag k="name:no" v="Skoglund" />
		<tag k="place" v="farm" />
		<tag k="ssr:stedsnr" v="197860" />
	</node>
	<node lat="65.62483333485119" lon="14.038866674627421" id="-7424">
		<tag k="name" v="Skogstad" />
		<tag k="name:no" v="Skogstad" />
		<tag k="place" v="farm" />
		<tag k="ssr:stedsnr" v="198057" />
	</node>
	<node lat="65.36526886093765" lon="14.251655673196547" id="-7429">
		<tag k="name" v="Kroken" />
		<tag k="name:no" v="Kroken" />
		<tag k="place" v="farm" />
		<tag k="ssr:stedsnr" v="198708" />
	</node>
	<node lat="65.32663888787819" lon="14.417469447716961" id="-7430">
		<tag k="name" v="Harvasstua" />
		<tag k="name:no" v="Harvasstua" />
		<tag k="place" v="isolated_dwelling" />
		<tag k="ssr:stedsnr" v="198709" />
	</node>
	<node lat="65.41191944118526" lon="13.98360278371326" id="-7438">
		<tag k="name" v="Haga" />
		<tag k="name:no" v="Haga" />
		<tag k="place" v="farm" />
		<tag k="ssr:stedsnr" v="216413" />
	</node>
	<node lat="65.71852222319063" lon="13.951086105526802" id="-7445">
		<tag k="name" v="Bakken" />
		<tag k="name:no" v="Bakken" />
		<tag k="place" v="farm" />
		<tag k="ssr:stedsnr" v="216394" />
	</node>
	<node lat="65.61251111412304" lon="13.937333327856646" id="-7476">
		<tag k="alt_name:no" v="Rundmoen" />
		<tag k="name" v="Rundmo" />
		<tag k="name:no" v="Rundmo" />
		<tag k="place" v="farm" />
		<tag k="ssr:stedsnr" v="258132" />
	</node>
	<node lat="65.59839722351703" lon="14.123280557287305" id="-7477">
		<tag k="name" v="Babylon" />
		<tag k="name:no" v="Babylon" />
		<tag k="place" v="locality" />
		<tag k="ssr:stedsnr" v="258006" />
	</node>
	<node lat="65.58515401529716" lon="13.813062101489727" id="-7478">
		<tag k="alt_name:no" v="Gryteselv" />
		<tag k="fixme" v="consider place=hamlet" />
		<tag k="name" v="Gryteselva" />
		<tag k="name:no" v="Gryteselva" />
		<tag k="place" v="farm" />
		<tag k="ssr:stedsnr" v="258015" />
	</node>
	<node lat="65.58643333435737" lon="14.070924997812194" id="-7479">
		<tag k="name" v="Moen" />
		<tag k="name:no" v="Moen" />
		<tag k="place" v="isolated_dwelling" />
		<tag k="ssr:stedsnr" v="258056" />
	</node>
	<node lat="65.67547499881357" lon="13.814502782261904" id="-7497">
		<tag k="name" v="Nermoen" />
		<tag k="name:no" v="Nermoen" />
		<tag k="place" v="farm" />
		<tag k="ssr:stedsnr" v="258464" />
	</node>
	<node lat="65.47125555634229" lon="14.014416674237214" id="-7504">
		<tag k="alt_name:no" v="Mikkeljorda" />
		<tag k="name" v="Mikkeljord" />
		<tag k="name:no" v="Mikkeljord" />
		<tag k="place" v="farm" />
		<tag k="ssr:stedsnr" v="258824" />
	</node>
	<node lat="65.45589167117289" lon="14.425877774041211" id="-7513">
		<tag k="name" v="Engen" />
		<tag k="name:no" v="Engen" />
		<tag k="place" v="farm" />
		<tag k="ssr:stedsnr" v="258707" />
	</node>
	<node lat="65.32679999587546" lon="14.419744451163494" id="-7516">
		<tag k="name" v="Statens Fjellstue" />
		<tag k="name:no" v="Statens Fjellstue" />
		<tag k="place" v="isolated_dwelling" />
		<tag k="ssr:stedsnr" v="258717" />
	</node>
	<node lat="65.36721552779865" lon="14.164460980915933" id="-7518">
		<tag k="fixme" v="consider place=hamlet" />
		<tag k="name" v="Flukstad" />
		<tag k="name:no" v="Flukstad" />
		<tag k="place" v="farm" />
		<tag k="ssr:stedsnr" v="258762" />
	</node>
	<node lat="65.68769166582277" lon="14.167847227221168" id="-7524">
		<tag k="name" v="Bekkmo" />
		<tag k="name:no" v="Bekkmo" />
		<tag k="place" v="farm" />
		<tag k="ssr:stedsnr" v="458139" />
	</node>
	<node lat="65.37945277701694" lon="14.032747230976526" id="-7533">
		<tag k="name" v="Ruud" />
		<tag k="name:no" v="Ruud" />
		<tag k="place" v="farm" />
		<tag k="ssr:stedsnr" v="458631" />
	</node>
	<node lat="65.71463333298585" lon="13.938624999606388" id="-7554">
		<tag k="name" v="Moen" />
		<tag k="name:no" v="Moen" />
		<tag k="place" v="farm" />
		<tag k="ssr:stedsnr" v="459393" />
	</node>
	<node lat="65.66174444282373" lon="14.13418888110102" id="-7574">
		<tag k="name" v="Moen" />
		<tag k="name:no" v="Moen" />
		<tag k="place" v="farm" />
		<tag k="ssr:stedsnr" v="276522" />
	</node>
	<node lat="65.6070305590858" lon="13.949377782512512" id="-7578">
		<tag k="name" v="Sagstua" />
		<tag k="name:no" v="Sagstua" />
		<tag k="place" v="farm" />
		<tag k="ssr:stedsnr" v="276616" />
	</node>
	<node lat="65.36456666483335" lon="14.055483338730923" id="-7586">
		<tag k="name" v="Furuheim" />
		<tag k="name:no" v="Furuheim" />
		<tag k="place" v="farm" />
		<tag k="ssr:stedsnr" v="277312" />
	</node>
	<node lat="65.809099995546" lon="14.162922231565533" id="-7595">
		<tag k="name" v="Tolkmoen" />
		<tag k="name:no" v="Tolkmoen" />
		<tag k="place" v="neighbourhood" />
		<tag k="ssr:stedsnr" v="283081" />
	</node>
	<node lat="65.67809444173623" lon="14.009344452645342" id="-7602">
		<tag k="fixme" v="consider tourism=alpine_hut or tourism=chalet" />
		<tag k="name" v="Røssvassholmen" />
		<tag k="name:no" v="Røssvassholmen" />
		<tag k="ssr:stedsnr" v="466256" />
		<tag k="tourism" v="wilderness_hut" />
	</node>
	<node lat="65.44716666745033" lon="14.040955552469923" id="-7607">
		<tag k="name" v="Sønsterud" />
		<tag k="name:no" v="Sønsterud" />
		<tag k="place" v="farm" />
		<tag k="ssr:stedsnr" v="317751" />
	</node>
	<node lat="65.53895833398974" lon="14.157702780786988" id="-7610">
		<tag k="name" v="Breidablikk" />
		<tag k="name:no" v="Breidablikk" />
		<tag k="place" v="farm" />
		<tag k="ssr:stedsnr" v="318205" />
	</node>
	<node lat="65.6623166626954" lon="14.138274994473036" id="-7617">
		<tag k="alt_name:no" v="Flatmoen" />
		<tag k="name" v="Flatmo" />
		<tag k="name:no" v="Flatmo" />
		<tag k="place" v="farm" />
		<tag k="ssr:stedsnr" v="318388" />
	</node>
	<node lat="65.42813057343287" lon="13.937625708330938" id="-7622">
		<tag k="name" v="Fjellheim" />
		<tag k="name:no" v="Fjellheim" />
		<tag k="place" v="locality" />
		<tag k="ssr:stedsnr" v="318845" />
	</node>
	<node lat="65.53658888930282" lon="14.228461112142755" id="-7623">
		<tag k="name" v="Åseng" />
		<tag k="name:no" v="Åseng" />
		<tag k="place" v="farm" />
		<tag k="ssr:stedsnr" v="318848" />
	</node>
	<node lat="65.59513889148946" lon="14.03694167332456" id="-7625">
		<tag k="name" v="Villmoen" />
		<tag k="name:no" v="Villmoen" />
		<tag k="place" v="isolated_dwelling" />
		<tag k="ssr:stedsnr" v="319036" />
	</node>
	<node lat="65.587911109641" lon="14.00555555098718" id="-7626">
		<tag k="name" v="Sørvollen" />
		<tag k="name:no" v="Sørvollen" />
		<tag k="place" v="farm" />
		<tag k="ssr:stedsnr" v="319039" />
	</node>
	<node lat="65.59111699777155" lon="14.11212328373702" id="-7628">
		<tag k="fixme" v="consider place=hamlet" />
		<tag k="name" v="Dalen" />
		<tag k="name:no" v="Dalen" />
		<tag k="place" v="farm" />
		<tag k="ssr:stedsnr" v="319042" />
	</node>
	<node lat="65.63044721825067" lon="14.029819451791885" id="-7636">
		<tag k="alt_name:no" v="Breidset" />
		<tag k="name" v="Breiset" />
		<tag k="name:no" v="Breiset" />
		<tag k="place" v="farm" />
		<tag k="ssr:stedsnr" v="319099" />
	</node>
	<node lat="65.36773610681024" lon="14.247029203293076" id="-7654">
		<tag k="fixme" v="consider place=hamlet" />
		<tag k="name" v="Kroken" />
		<tag k="name:no" v="Kroken" />
		<tag k="place" v="farm" />
		<tag k="ssr:stedsnr" v="337247" />
	</node>
	<node lat="65.55748055507398" lon="14.00803889133147" id="-7663">
		<tag k="name" v="Storvollstua" />
		<tag k="name:no" v="Storvollstua" />
		<tag k="place" v="isolated_dwelling" />
		<tag k="ssr:stedsnr" v="337507" />
	</node>
	<node lat="65.52422777718111" lon="14.04025833561068" id="-7665">
		<tag k="name" v="Bjørgan" />
		<tag k="name:no" v="Bjørgan" />
		<tag k="place" v="farm" />
		<tag k="ssr:stedsnr" v="337557" />
	</node>
	<node lat="65.59093889311845" lon="14.006238879717898" id="-7669">
		<tag k="name" v="Haugen" />
		<tag k="name:no" v="Haugen" />
		<tag k="place" v="quarter" />
		<tag k="ssr:stedsnr" v="337997" />
	</node>
	<node lat="65.5611083338465" lon="13.760258326087964" id="-7671">
		<tag k="name" v="Storvatnet" />
		<tag k="place" v="neighbourhood" />
		<tag k="ssr:stedsnr" v="343102" />
	</node>
	<node lat="65.79768675121409" lon="14.201933448951056" id="-7687">
		<tag k="alt_name:no" v="Sørdal" />
		<tag k="fixme" v="consider place=hamlet" />
		<tag k="name" v="Sørdalen" />
		<tag k="name:no" v="Sørdalen" />
		<tag k="place" v="farm" />
		<tag k="ssr:stedsnr" v="379106" />
	</node>
	<node lat="65.61271389186217" lon="14.073474998733728" id="-7691">
		<tag k="name" v="Vesterli" />
		<tag k="name:no" v="Vesterli" />
		<tag k="place" v="farm" />
		<tag k="ssr:stedsnr" v="379117" />
	</node>
	<node lat="65.67577222469903" lon="14.236549992131255" id="-7696">
		<tag k="alt_name:no" v="Rognmoen" />
		<tag k="name" v="Rognmo" />
		<tag k="name:no" v="Rognmo" />
		<tag k="place" v="farm" />
		<tag k="ssr:stedsnr" v="379178" />
	</node>
	<node lat="65.59001669885185" lon="14.056002543940183" id="-7699">
		<tag k="fixme" v="consider place=hamlet" />
		<tag k="name" v="Brennmoen" />
		<tag k="name:no" v="Brennmoen" />
		<tag k="place" v="farm" />
		<tag k="ssr:stedsnr" v="379061" />
	</node>
	<node lat="65.57459455208286" lon="14.183004104217586" id="-7700">
		<tag k="fixme" v="consider place=hamlet" />
		<tag k="name" v="Grønli" />
		<tag k="name:no" v="Grønli" />
		<tag k="place" v="farm" />
		<tag k="ssr:stedsnr" v="379208" />
	</node>
	<node lat="65.6600972262132" lon="14.129327788978115" id="-7708">
		<tag k="name" v="Nergård" />
		<tag k="name:no" v="Nergård" />
		<tag k="place" v="farm" />
		<tag k="ssr:stedsnr" v="379385" />
	</node>
	<node lat="65.49340330124991" lon="14.313860116815462" id="-7718">
		<tag k="alt_name:no" v="Ørneset" />
		<tag k="fixme" v="consider place=hamlet" />
		<tag k="name" v="Ørnes" />
		<tag k="name:no" v="Ørnes" />
		<tag k="place" v="farm" />
		<tag k="ssr:stedsnr" v="379721" />
	</node>
	<node lat="65.42178888920076" lon="14.190080557897225" id="-7720">
		<tag k="name" v="Bjørklund" />
		<tag k="name:no" v="Bjørklund" />
		<tag k="place" v="farm" />
		<tag k="ssr:stedsnr" v="379780" />
	</node>
	<node lat="65.53243888969465" lon="14.239922230577255" id="-7726">
		<tag k="name" v="Åkre" />
		<tag k="name:no" v="Åkre" />
		<tag k="place" v="farm" />
		<tag k="ssr:stedsnr" v="379814" />
	</node>
	<node lat="65.82631388636058" lon="14.18571389918103" id="-7744">
		<tag k="amenity" v="school" />
		<tag k="name" v="Varntresk skole" />
		<tag k="name:no" v="Varntresk skole" />
		<tag k="ssr:stedsnr" v="397012" />
	</node>
	<node lat="65.45574444771219" lon="14.421805555469065" id="-7766">
		<tag k="name" v="Ågerud" />
		<tag k="name:no" v="Ågerud" />
		<tag k="place" v="farm" />
		<tag k="ssr:stedsnr" v="398434" />
	</node>
	<node lat="65.81364722287405" lon="14.384144442077083" id="-7793">
		<tag k="alt_name:no" v="Sivertgård" />
		<tag k="fixme" v="consider place=hamlet" />
		<tag k="name" v="Sivertsgården" />
		<tag k="name:no" v="Sivertsgården" />
		<tag k="place" v="farm" />
		<tag k="ssr:stedsnr" v="440004" />
	</node>
	<node lat="65.6010444441249" lon="14.004425001507371" id="-7797">
		<tag k="leisure" v="pitch" />
		<tag k="name" v="Lysløype" />
		<tag k="name:no" v="Lysløype" />
		<tag k="ssr:stedsnr" v="440018" />
	</node>
	<node lat="65.59414722399261" lon="13.887450009189028" id="-7802">
		<tag k="name" v="Dalbu" />
		<tag k="name:no" v="Dalbu" />
		<tag k="place" v="isolated_dwelling" />
		<tag k="ssr:stedsnr" v="440032" />
	</node>
	<node lat="65.58015957333576" lon="13.984221493535964" id="-7806">
		<tag k="alt_name:no" v="Lanes" />
		<tag k="fixme" v="consider place=hamlet" />
		<tag k="name" v="Laneset" />
		<tag k="name:no" v="Laneset" />
		<tag k="place" v="farm" />
		<tag k="ssr:stedsnr" v="440058" />
	</node>
	<node lat="65.59377778033955" lon="14.058116675682081" id="-7807">
		<tag k="name" v="Rustad" />
		<tag k="name:no" v="Rustad" />
		<tag k="place" v="farm" />
		<tag k="ssr:stedsnr" v="440001" />
	</node>
	<node lat="65.62264066128533" lon="13.911610987922014" id="-7808">
		<tag k="fixme" v="consider place=hamlet" />
		<tag k="name" v="Granmo" />
		<tag k="name:no" v="Granmo" />
		<tag k="place" v="farm" />
		<tag k="ssr:stedsnr" v="440105" />
	</node>
	<node lat="65.525074997772" lon="14.043711102386268" id="-7813">
		<tag k="name" v="Hagen" />
		<tag k="name:no" v="Hagen" />
		<tag k="place" v="farm" />
		<tag k="ssr:stedsnr" v="440195" />
	</node>
	<node lat="65.52673055288892" lon="14.071033324905562" id="-7814">
		<tag k="alt_name:no" v="Elstad" />
		<tag k="name" v="Eldstad" />
		<tag k="name:no" v="Eldstad" />
		<tag k="place" v="farm" />
		<tag k="ssr:stedsnr" v="440197" />
	</node>
	<node lat="65.66011754699558" lon="13.893021827938744" id="-7824">
		<tag k="alt_name:no" v="Skjåvik" />
		<tag k="fixme" v="consider place=hamlet" />
		<tag k="name" v="Skjåvika" />
		<tag k="name:no" v="Skjåvika" />
		<tag k="place" v="farm" />
		<tag k="ssr:stedsnr" v="440408" />
	</node>
	<node lat="65.70061110837041" lon="13.907183337446636" id="-7828">
		<tag k="alt_name:no" v="Flatmoen" />
		<tag k="name" v="Flatmo" />
		<tag k="name:no" v="Flatmo" />
		<tag k="place" v="farm" />
		<tag k="ssr:stedsnr" v="440338" />
	</node>
	<node lat="65.38114779502412" lon="14.030555115063574" id="-7839">
		<tag k="fixme" v="consider place=hamlet" />
		<tag k="name" v="Trallerud" />
		<tag k="name:no" v="Trallerud" />
		<tag k="place" v="farm" />
		<tag k="ssr:stedsnr" v="440754" />
	</node>
	<node lat="65.69513888853804" lon="14.476761117771163" id="-7862">
		<tag k="name" v="Fjellstue" />
		<tag k="name:no" v="Fjellstue" />
		<tag k="place" v="isolated_dwelling" />
		<tag k="ssr:stedsnr" v="466866" />
	</node>
	<node lat="65.67545555945689" lon="14.249138885340749" id="-7875">
		<tag k="alt_name:no" v="Krutådalen" />
		<tag k="name" v="Krutådal" />
		<tag k="name:no" v="Krutådal" />
		<tag k="place" v="farm" />
		<tag k="ssr:stedsnr" v="500192" />
	</node>
	<node lat="65.36631110862706" lon="14.152741670176617" id="-7880">
		<tag k="name" v="Solvang" />
		<tag k="name:no" v="Solvang" />
		<tag k="place" v="farm" />
		<tag k="ssr:stedsnr" v="500804" />
	</node>
	<node lat="65.47054999645285" lon="14.312161110621943" id="-7890">
		<tag k="name" v="Heggnes" />
		<tag k="name:no" v="Heggnes" />
		<tag k="place" v="isolated_dwelling" />
		<tag k="ssr:stedsnr" v="501720" />
	</node>
	<node lat="65.61092499821396" lon="14.077541668136723" id="-7906">
		<tag k="name" v="Vestli" />
		<tag k="name:no" v="Vestli" />
		<tag k="place" v="farm" />
		<tag k="ssr:stedsnr" v="682127" />
	</node>
	<node lat="65.6785444447322" lon="14.043427783546955" id="-7909">
		<tag k="name" v="Nystad" />
		<tag k="name:no" v="Nystad" />
		<tag k="place" v="isolated_dwelling" />
		<tag k="ssr:stedsnr" v="682538" />
	</node>
	<node lat="65.37680277676301" lon="14.036480557972784" id="-7914">
		<tag k="name" v="Brantvollen" />
		<tag k="name:no" v="Brantvollen" />
		<tag k="place" v="farm" />
		<tag k="ssr:stedsnr" v="682827" />
	</node>
	<node lat="65.4520722218143" lon="14.028255548867216" id="-7919">
		<tag k="name" v="Fossum" />
		<tag k="name:no" v="Fossum" />
		<tag k="place" v="farm" />
		<tag k="ssr:stedsnr" v="682880" />
	</node>
	<node lat="65.44944722476356" lon="14.101949994326391" id="-7920">
		<tag k="name" v="Engan" />
		<tag k="name:no" v="Engan" />
		<tag k="place" v="farm" />
		<tag k="ssr:stedsnr" v="682881" />
	</node>
	<node lat="65.52712756884075" lon="13.75636081546549" id="-7926">
		<tag k="fixme" v="consider place=hamlet" />
		<tag k="name" v="Berglia" />
		<tag k="name:no" v="Berglia" />
		<tag k="place" v="farm" />
		<tag k="ssr:stedsnr" v="683129" />
	</node>
	<node lat="65.5290611080882" lon="14.12729723210015" id="-7929">
		<tag k="name" v="Sørlund" />
		<tag k="name:no" v="Sørlund" />
		<tag k="place" v="isolated_dwelling" />
		<tag k="ssr:stedsnr" v="683144" />
	</node>
	<node lat="65.69652499970411" lon="13.810838880604091" id="-7938">
		<tag k="name" v="Rostad" />
		<tag k="name:no" v="Rostad" />
		<tag k="place" v="isolated_dwelling" />
		<tag k="ssr:stedsnr" v="683424" />
	</node>
	<node lat="65.43045555794505" lon="14.181858329062113" id="-7947">
		<tag k="alt_name:no" v="Ørjevatn" />
		<tag k="fixme" v="consider place=hamlet" />
		<tag k="name" v="Ørjevatnet" />
		<tag k="name:no" v="Ørjevatnet" />
		<tag k="place" v="farm" />
		<tag k="ssr:stedsnr" v="683777" />
	</node>
	<node lat="65.7893678864406" lon="14.29816536598188" id="-7979">
		<tag k="alt_name:no" v="Varnvatn gård" />
		<tag k="fixme" v="consider place=hamlet" />
		<tag k="name" v="Varnvatnet" />
		<tag k="name:no" v="Varnvatnet" />
		<tag k="place" v="farm" />
		<tag k="ssr:stedsnr" v="541609" />
	</node>
	<node lat="65.58845555867259" lon="13.907402785794973" id="-7982">
		<tag k="name" v="Mjølkarlien" />
		<tag k="name:no" v="Mjølkarlien" />
		<tag k="place" v="locality" />
		<tag k="ssr:stedsnr" v="545515" />
	</node>
	<node lat="65.49352145369177" lon="14.024135944170014" id="-7983">
		<tag k="name" v="Pantdalsli" />
		<tag k="name:no" v="Pantdalsli" />
		<tag k="place" v="farm" />
		<tag k="ssr:stedsnr" v="545526" />
	</node>
	<node lat="65.63175982135837" lon="14.118241960068909" id="-7987">
		<tag k="fixme" v="consider place=hamlet" />
		<tag k="name" v="Uglvatnet" />
		<tag k="name:no" v="Uglvatnet" />
		<tag k="place" v="farm" />
		<tag k="ssr:stedsnr" v="561086" />
	</node>
	<node lat="65.603766665132" lon="14.099536105901947" id="-8019">
		<tag k="name" v="Bjørnstad" />
		<tag k="name:no" v="Bjørnstad" />
		<tag k="place" v="farm" />
		<tag k="ssr:stedsnr" v="580641" />
	</node>
	<node lat="65.45335832935083" lon="14.01521944936704" id="-8034">
		<tag k="name" v="Granly" />
		<tag k="name:no" v="Granly" />
		<tag k="place" v="isolated_dwelling" />
		<tag k="ssr:stedsnr" v="603385" />
	</node>
	<node lat="65.64303055274202" lon="14.060533333082118" id="-8044">
		<tag k="name" v="Skoglund" />
		<tag k="name:no" v="Skoglund" />
		<tag k="place" v="farm" />
		<tag k="ssr:stedsnr" v="701085" />
	</node>
	<node lat="65.71806944699232" lon="13.942691656349979" id="-8049">
		<tag k="name" v="Remmen" />
		<tag k="name:no" v="Remmen" />
		<tag k="place" v="farm" />
		<tag k="ssr:stedsnr" v="701495" />
	</node>
	<node lat="65.49164166761976" lon="14.026330551449702" id="-8070">
		<tag k="alt_name:no" v="Liabakken" />
		<tag k="name" v="Liabakk" />
		<tag k="name:no" v="Liabakk" />
		<tag k="place" v="farm" />
		<tag k="ssr:stedsnr" v="621872" />
	</node>
	<node lat="65.60524444339606" lon="14.109486104966265" id="-8073">
		<tag k="name" v="Seilstad" />
		<tag k="name:no" v="Seilstad" />
		<tag k="place" v="farm" />
		<tag k="ssr:stedsnr" v="702531" />
	</node>
	<node lat="65.84796944020434" lon="14.196258336578351" id="-8079">
		<tag k="alt_name:no" v="Bjørklia" />
		<tag k="name" v="Bjørkli" />
		<tag k="name:no" v="Bjørkli" />
		<tag k="place" v="farm" />
		<tag k="ssr:stedsnr" v="622168" />
	</node>
	<node lat="65.68109721940694" lon="14.1709972323007" id="-8093">
		<tag k="name" v="Åneshytta" />
		<tag k="name:no" v="Åneshytta" />
		<tag k="place" v="isolated_dwelling" />
		<tag k="ssr:stedsnr" v="640008" />
	</node>
	<node lat="65.44746944454812" lon="13.98873612141976" id="-8113">
		<tag k="name" v="Skogstue" />
		<tag k="name:no" v="Skogstue" />
		<tag k="place" v="isolated_dwelling" />
		<tag k="ssr:stedsnr" v="640674" />
	</node>
	<node lat="65.57460555297486" lon="14.348947221144659" id="-8125">
		<tag k="name" v="Plassbakken" />
		<tag k="name:no" v="Plassbakken" />
		<tag k="place" v="isolated_dwelling" />
		<tag k="ssr:stedsnr" v="664702" />
	</node>
	<node lat="65.44989444127964" lon="14.47074721103468" id="-8139">
		<tag k="name" v="Storbekkhytta" />
		<tag k="name:no" v="Storbekkhytta" />
		<tag k="place" v="isolated_dwelling" />
		<tag k="ssr:stedsnr" v="891866" />
	</node>
	<node lat="65.80347222310985" lon="14.522205556785213" id="-8141">
		<tag k="name" v="Ol-Monsaheimen" />
		<tag k="name:no" v="Ol-Monsaheimen" />
		<tag k="place" v="locality" />
		<tag k="ssr:stedsnr" v="891929" />
	</node>
	<node lat="65.80293888580267" lon="14.56607777160733" id="-8143">
		<tag k="name" v="Lars-Monsaheimen" />
		<tag k="name:no" v="Lars-Monsaheimen" />
		<tag k="place" v="locality" />
		<tag k="ssr:stedsnr" v="891938" />
	</node>
	<node lat="65.80981426898983" lon="14.420773595764786" id="-8145">
		<tag k="fixme" v="consider place=hamlet" />
		<tag k="name" v="Valen" />
		<tag k="name:no" v="Valen" />
		<tag k="place" v="farm" />
		<tag k="ssr:stedsnr" v="682004" />
	</node>
	<node lat="65.31324444385211" lon="14.358391657434275" id="-8157">
		<tag k="fixme" v="multiple name tags, choose one and add the other to alt_name" />
		<tag k="name" v="Storvollen;Sjånes" />
		<tag k="name:no" v="Storvollen;Sjånes" />
		<tag k="place" v="farm" />
		<tag k="ssr:stedsnr" v="682722" />
	</node>
	<node lat="65.36687777781755" lon="14.187191666556766" id="-8158">
		<tag k="name" v="Rogne" />
		<tag k="name:no" v="Rogne" />
		<tag k="place" v="farm" />
		<tag k="ssr:stedsnr" v="682805" />
	</node>
	<node lat="65.36776695101139" lon="14.195964790183572" id="-8159">
		<tag k="fixme" v="consider place=hamlet" />
		<tag k="name" v="Ivarslia" />
		<tag k="name:no" v="Ivarslia" />
		<tag k="place" v="farm" />
		<tag k="ssr:stedsnr" v="682806" />
	</node>
	<node lat="65.61683333074271" lon="14.065116664144982" id="-8168">
		<tag k="name" v="Steinbakken" />
		<tag k="name:no" v="Steinbakken" />
		<tag k="place" v="farm" />
		<tag k="ssr:stedsnr" v="683103" />
	</node>
	<node lat="65.60933333527478" lon="14.032105557305513" id="-8169">
		<tag k="name" v="Granhaug" />
		<tag k="name:no" v="Granhaug" />
		<tag k="place" v="farm" />
		<tag k="ssr:stedsnr" v="683105" />
	</node>
	<node lat="65.7807333347577" lon="14.44909444759775" id="-8176">
		<tag k="name" v="Nyheim" />
		<tag k="name:no" v="Nyheim" />
		<tag k="place" v="isolated_dwelling" />
		<tag k="ssr:stedsnr" v="683454" />
	</node>
	<node lat="65.48701110881721" lon="14.313758333369002" id="-8184">
		<tag k="name" v="Grannes" />
		<tag k="name:no" v="Grannes" />
		<tag k="place" v="isolated_dwelling" />
		<tag k="ssr:stedsnr" v="683731" />
	</node>
	<node lat="65.67382499752436" lon="13.803755552246322" id="-8197">
		<tag k="fixme" v="multiple name tags, choose one and add the other to alt_name" />
		<tag k="name" v="Storlien;Tvilsneset" />
		<tag k="name:no" v="Storlien;Tvilsneset" />
		<tag k="place" v="farm" />
		<tag k="ssr:stedsnr" v="701069" />
	</node>
	<node lat="65.36575159717894" lon="14.053698070683565" id="-8201">
		<tag k="name" v="Øvre Trallerud" />
		<tag k="name:no" v="Øvre Trallerud" />
		<tag k="place" v="farm" />
		<tag k="ssr:stedsnr" v="701418" />
	</node>
	<node lat="65.36359444700474" lon="14.055088888888466" id="-8221">
		<tag k="name" v="Furuheim" />
		<tag k="name:no" v="Furuheim" />
		<tag k="place" v="farm" />
		<tag k="ssr:stedsnr" v="723406" />
	</node>
	<node lat="65.80592500199553" lon="14.316736105489554" id="-8229">
		<tag k="name" v="Famlia" />
		<tag k="name:no" v="Famlia" />
		<tag k="place" v="farm" />
		<tag k="ssr:stedsnr" v="743013" />
	</node>
	<node lat="65.59805000208448" lon="13.90228888431048" id="-8230">
		<tag k="name" v="Austmoen" />
		<tag k="name:no" v="Austmoen" />
		<tag k="place" v="isolated_dwelling" />
		<tag k="ssr:stedsnr" v="743029" />
	</node>
	<node lat="65.60597499944652" lon="14.037913883115971" id="-8232">
		<tag k="name" v="Frydenlund" />
		<tag k="name:no" v="Frydenlund" />
		<tag k="place" v="farm" />
		<tag k="ssr:stedsnr" v="743034" />
	</node>
	<node lat="65.60356944827444" lon="14.03642778271884" id="-8233">
		<tag k="alt_name:no" v="Hovstad" />
		<tag k="name" v="Hoffstad" />
		<tag k="name:no" v="Hoffstad" />
		<tag k="place" v="farm" />
		<tag k="ssr:stedsnr" v="743035" />
	</node>
	<node lat="65.6243817918297" lon="13.934463638117224" id="-8238">
		<tag k="alt_name:no" v="Groli" />
		<tag k="fixme" v="consider place=hamlet" />
		<tag k="name" v="Grolia" />
		<tag k="name:no" v="Grolia" />
		<tag k="place" v="farm" />
		<tag k="ssr:stedsnr" v="743091" />
	</node>
	<node lat="65.74276111247758" lon="14.071277784190643" id="-8248">
		<tag k="name" v="Vendlia" />
		<tag k="name:no" v="Vendlia" />
		<tag k="place" v="farm" />
		<tag k="ssr:stedsnr" v="743309" />
	</node>
	<node lat="65.71884763129499" lon="13.945565164073647" id="-8249">
		<tag k="alt_name:no" v="Åkervik" />
		<tag k="fixme" v="consider place=hamlet" />
		<tag k="name" v="Åkervika" />
		<tag k="name:no" v="Åkervika" />
		<tag k="place" v="farm" />
		<tag k="ssr:stedsnr" v="743328" />
	</node>
	<node lat="65.36377953375181" lon="14.12284286164388" id="-8256">
		<tag k="alt_name:no" v="Valli" />
		<tag k="fixme" v="consider place=hamlet" />
		<tag k="name" v="Vallia" />
		<tag k="name:no" v="Vallia" />
		<tag k="place" v="farm" />
		<tag k="ssr:stedsnr" v="743775" />
	</node>
	<node lat="65.36956614142525" lon="14.115709843110091" id="-8257">
		<tag k="alt_name:no" v="Åslid" />
		<tag k="fixme" v="consider place=hamlet" />
		<tag k="name" v="Åslia" />
		<tag k="name:no" v="Åslia" />
		<tag k="place" v="farm" />
		<tag k="ssr:stedsnr" v="743784" />
	</node>
	<node lat="65.37116711888599" lon="14.02419014178518" id="-8258">
		<tag k="name" v="Øyum" />
		<tag k="name:no" v="Øyum" />
		<tag k="place" v="farm" />
		<tag k="ssr:stedsnr" v="743786" />
	</node>
	<node lat="65.61752778025522" lon="14.038638881984365" id="-8262">
		<tag k="name" v="Åshaug" />
		<tag k="name:no" v="Åshaug" />
		<tag k="place" v="farm" />
		<tag k="ssr:stedsnr" v="744082" />
	</node>
	<node lat="65.61428228985109" lon="13.90546524122099" id="-8263">
		<tag k="alt_name:no" v="Sæterli" />
		<tag k="fixme" v="consider place=hamlet" />
		<tag k="name" v="Sæterlia" />
		<tag k="name:no" v="Sæterlia" />
		<tag k="place" v="farm" />
		<tag k="ssr:stedsnr" v="744085" />
	</node>
	<node lat="65.6103861131874" lon="13.899949998392612" id="-8264">
		<tag k="alt_name:no" v="Sørli" />
		<tag k="name" v="Sørlia" />
		<tag k="name:no" v="Sørlia" />
		<tag k="place" v="farm" />
		<tag k="ssr:stedsnr" v="744086" />
	</node>
	<node lat="65.50311388692286" lon="14.154944442026514" id="-8267">
		<tag k="alt_name:no" v="Bjørknes" />
		<tag k="name" v="Bjørkneset" />
		<tag k="name:no" v="Bjørkneset" />
		<tag k="place" v="farm" />
		<tag k="ssr:stedsnr" v="744135" />
	</node>
	<node lat="65.68748123161525" lon="13.8520398937447" id="-8271">
		<tag k="alt_name:no" v="Vesterbukta" />
		<tag k="fixme" v="consider place=hamlet" />
		<tag k="name" v="Vesterbukt" />
		<tag k="name:no" v="Vesterbukt" />
		<tag k="place" v="farm" />
		<tag k="ssr:stedsnr" v="744432" />
	</node>
	<node lat="65.37042777559756" lon="14.232947220884371" id="-8274">
		<tag k="name" v="Nordgård" />
		<tag k="name:no" v="Nordgård" />
		<tag k="place" v="farm" />
		<tag k="ssr:stedsnr" v="744692" />
	</node>
	<node lat="65.3364194464337" lon="14.29441944567893" id="-8275">
		<tag k="fixme" v="multiple name tags, choose one and add the other to alt_name" />
		<tag k="name" v="Oksvollen;Uhoberg" />
		<tag k="name:no" v="Oksvollen;Uhoberg" />
		<tag k="place" v="farm" />
		<tag k="ssr:stedsnr" v="744694" />
	</node>
	<node lat="65.39984166310279" lon="14.0051916682245" id="-8284">
		<tag k="name" v="Furuly" />
		<tag k="name:no" v="Furuly" />
		<tag k="place" v="farm" />
		<tag k="ssr:stedsnr" v="761557" />
	</node>
	<node lat="65.58217500420905" lon="13.924861103053791" id="-8302">
		<tag k="name" v="Skogstue" />
		<tag k="name:no" v="Skogstue" />
		<tag k="place" v="isolated_dwelling" />
		<tag k="ssr:stedsnr" v="762844" />
	</node>
	<node lat="65.36269444090144" lon="14.085047216401687" id="-8308">
		<tag k="name" v="Rapbekkvollen" />
		<tag k="name:no" v="Rapbekkvollen" />
		<tag k="place" v="isolated_dwelling" />
		<tag k="ssr:stedsnr" v="906446" />
	</node>
	<node lat="65.59127777565503" lon="13.864797227417771" id="-8332">
		<tag k="name" v="Nabbli" />
		<tag k="name:no" v="Nabbli" />
		<tag k="place" v="farm" />
		<tag k="ssr:stedsnr" v="804033" />
	</node>
	<node lat="65.60173888772665" lon="14.040266669300937" id="-8333">
		<tag k="name" v="Myra" />
		<tag k="name:no" v="Myra" />
		<tag k="place" v="farm" />
		<tag k="ssr:stedsnr" v="804035" />
	</node>
	<node lat="65.60763889053885" lon="14.020122218187245" id="-8334">
		<tag k="alt_name:no" v="Granli" />
		<tag k="name" v="Granlid" />
		<tag k="name:no" v="Granlid" />
		<tag k="place" v="farm" />
		<tag k="ssr:stedsnr" v="804037" />
	</node>
	<node lat="65.6953833326314" lon="14.477322211892394" id="-8341">
		<tag k="name" v="Krutvatn" />
		<tag k="name:no" v="Krutvatn" />
		<tag k="place" v="isolated_dwelling" />
		<tag k="ssr:stedsnr" v="804203" />
	</node>
	<node lat="65.6987888876751" lon="13.948450007865407" id="-8349">
		<tag k="alt_name:no" v="Vestbakken" />
		<tag k="name" v="Vestbakk" />
		<tag k="name:no" v="Vestbakk" />
		<tag k="place" v="isolated_dwelling" />
		<tag k="ssr:stedsnr" v="804464" />
	</node>
	<node lat="65.69256944161666" lon="13.872619454498057" id="-8351">
		<tag k="name" v="Skogly" />
		<tag k="name:no" v="Skogly" />
		<tag k="place" v="farm" />
		<tag k="ssr:stedsnr" v="804470" />
	</node>
	<node lat="65.43636666664855" lon="14.015705549221627" id="-8368">
		<tag k="name" v="Landvollen" />
		<tag k="name:no" v="Landvollen" />
		<tag k="place" v="locality" />
		<tag k="ssr:stedsnr" v="804825" />
	</node>
	<node lat="65.39684154604973" lon="14.008674785228537" id="-8378">
		<tag k="alt_name:no" v="Svenskvoll" />
		<tag k="fixme" v="consider place=hamlet" />
		<tag k="name" v="Svenskvollen" />
		<tag k="name:no" v="Svenskvollen" />
		<tag k="place" v="farm" />
		<tag k="ssr:stedsnr" v="804785" />
	</node>
	<node lat="65.40262222274835" lon="13.998152771192556" id="-8379">
		<tag k="name" v="Bekkstad" />
		<tag k="name:no" v="Bekkstad" />
		<tag k="place" v="farm" />
		<tag k="ssr:stedsnr" v="804788" />
	</node>
	<node lat="65.71162777422123" lon="13.938944445824955" id="-8395">
		<tag k="name" v="Fagerslett" />
		<tag k="name:no" v="Fagerslett" />
		<tag k="place" v="farm" />
		<tag k="ssr:stedsnr" v="823407" />
	</node>
	<node lat="65.44874722136944" lon="14.04608610154544" id="-8401">
		<tag k="name" v="Smibakken" />
		<tag k="name:no" v="Smibakken" />
		<tag k="place" v="farm" />
		<tag k="ssr:stedsnr" v="823773" />
	</node>
	<node lat="65.44253611403822" lon="14.143922219251689" id="-8406">
		<tag k="alt_name:no" v="Fagerbakken, austre" />
		<tag k="name" v="Austre Fagerbakk" />
		<tag k="name:no" v="Austre Fagerbakk" />
		<tag k="place" v="farm" />
		<tag k="ssr:stedsnr" v="924800" />
	</node>
	<node lat="65.81259166899152" lon="14.274147225703897" id="-8410">
		<tag k="alt_name:no" v="Grubbli" />
		<tag k="name" v="Grubblia" />
		<tag k="name:no" v="Grubblia" />
		<tag k="place" v="farm" />
		<tag k="ssr:stedsnr" v="925043" />
	</node>
	<node lat="65.80043055157834" lon="14.183005558243448" id="-8412">
		<tag k="name" v="Bergenden" />
		<tag k="name:no" v="Bergenden" />
		<tag k="place" v="isolated_dwelling" />
		<tag k="ssr:stedsnr" v="925130" />
	</node>
	<node lat="65.36044721779896" lon="14.087491672148431" id="-8414">
		<tag k="name" v="Heslia" />
		<tag k="name:no" v="Heslia" />
		<tag k="place" v="isolated_dwelling" />
		<tag k="ssr:stedsnr" v="844390" />
	</node>
	<node lat="65.650672768744" lon="14.06641338820295" id="-8420">
		<tag k="alt_name:no" v="Bjørkås" />
		<tag k="fixme" v="consider place=hamlet" />
		<tag k="name" v="Bjørkåsen" />
		<tag k="name:no" v="Bjørkåsen" />
		<tag k="place" v="farm" />
		<tag k="ssr:stedsnr" v="925453" />
	</node>
	<node lat="65.64610000397614" lon="14.06889999783053" id="-8421">
		<tag k="name" v="Sørås" />
		<tag k="name:no" v="Sørås" />
		<tag k="place" v="farm" />
		<tag k="ssr:stedsnr" v="925473" />
	</node>
	<node lat="65.66833611196644" lon="13.801886107369736" id="-8423">
		<tag k="alt_name:no" v="Tvildal" />
		<tag k="name" v="Tvilldalen" />
		<tag k="name:no" v="Tvilldalen" />
		<tag k="place" v="farm" />
		<tag k="ssr:stedsnr" v="925528" />
	</node>
	<node lat="65.49906111147584" lon="14.166680559519136" id="-8425">
		<tag k="alt_name:no" v="Olderli" />
		<tag k="name" v="Olderlia" />
		<tag k="name:no" v="Olderlia" />
		<tag k="place" v="farm" />
		<tag k="ssr:stedsnr" v="925885" />
	</node>
	<node lat="65.67233333718133" lon="14.225402784307697" id="-8427">
		<tag k="name" v="Elvestad" />
		<tag k="name:no" v="Elvestad" />
		<tag k="place" v="farm" />
		<tag k="ssr:stedsnr" v="925890" />
	</node>
	<node lat="65.58063055714229" lon="13.830150010881704" id="-8434">
		<tag k="name" v="Høgda" />
		<tag k="name:no" v="Høgda" />
		<tag k="place" v="farm" />
		<tag k="ssr:stedsnr" v="926049" />
	</node>
	<node lat="65.51122778140864" lon="14.014627780022543" id="-8438">
		<tag k="name" v="Bjormoen" />
		<tag k="name:no" v="Bjormoen" />
		<tag k="place" v="farm" />
		<tag k="ssr:stedsnr" v="926134" />
	</node>
	<node lat="65.52415833157981" lon="14.03653889871029" id="-8440">
		<tag k="alt_name:no" v="Nyset" />
		<tag k="name" v="Nyseth" />
		<tag k="name:no" v="Nyseth" />
		<tag k="place" v="farm" />
		<tag k="ssr:stedsnr" v="926154" />
	</node>
	<node lat="65.45643055292607" lon="14.417800007614245" id="-8453">
		<tag k="name" v="Heggli" />
		<tag k="name:no" v="Heggli" />
		<tag k="place" v="farm" />
		<tag k="ssr:stedsnr" v="926690" />
	</node>
	<node lat="65.48103610825142" lon="14.288969444520086" id="-8457">
		<tag k="name" v="Tjønna" />
		<tag k="name:no" v="Tjønna" />
		<tag k="place" v="farm" />
		<tag k="ssr:stedsnr" v="926745" />
	</node>
	<node lat="65.41739999995725" lon="13.96210276863265" id="-8458">
		<tag k="alt_name:no" v="Ivarstua, gl" />
		<tag k="name" v="Ivarstua" />
		<tag k="name:no" v="Ivarstua" />
		<tag k="place" v="isolated_dwelling" />
		<tag k="ssr:stedsnr" v="926795" />
	</node>
	<node lat="65.8345833348903" lon="14.20743334344481" id="-8475">
		<tag k="name" v="Norddalsbukta" />
		<tag k="name:no" v="Norddalsbukta" />
		<tag k="place" v="neighbourhood" />
		<tag k="ssr:stedsnr" v="890102" />
	</node>
	<node lat="65.5960194426689" lon="13.97953887990697" id="-8486">
		<tag k="name" v="Slettbakken" />
		<tag k="name:no" v="Slettbakken" />
		<tag k="place" v="farm" />
		<tag k="ssr:stedsnr" v="925011" />
	</node>
	<node lat="65.64763333670393" lon="13.949233326424231" id="-8493">
		<tag k="alt_name:no" v="Oslid" />
		<tag k="name" v="Oslia" />
		<tag k="name:no" v="Oslia" />
		<tag k="place" v="farm" />
		<tag k="ssr:stedsnr" v="925439" />
	</node>
	<node lat="65.36938332957581" lon="14.05689445373176" id="-8499">
		<tag k="name" v="Fagertun" />
		<tag k="name:no" v="Fagertun" />
		<tag k="place" v="farm" />
		<tag k="ssr:stedsnr" v="925835" />
	</node>
	<node lat="65.58611388620794" lon="13.820913880306994" id="-8512">
		<tag k="name" v="Oppstad" />
		<tag k="name:no" v="Oppstad" />
		<tag k="place" v="farm" />
		<tag k="ssr:stedsnr" v="926006" />
	</node>
	<node lat="65.76775833182153" lon="13.925499991561924" id="-8514">
		<tag k="name" v="Kjerringneset" />
		<tag k="name:no" v="Kjerringneset" />
		<tag k="place" v="farm" />
		<tag k="ssr:stedsnr" v="926083" />
	</node>
	<node lat="65.28352777340724" lon="14.110775005431211" id="-8531">
		<tag k="name" v="Tiplinghaugen" />
		<tag k="name:no" v="Tiplinghaugen" />
		<tag k="place" v="isolated_dwelling" />
		<tag k="ssr:stedsnr" v="926726" />
	</node>
	<node lat="65.36532222371483" lon="14.249358343029337" id="-8537">
		<tag k="name" v="Børge" />
		<tag k="name:no" v="Børge" />
		<tag k="place" v="farm" />
		<tag k="ssr:stedsnr" v="944154" />
	</node>
	<node lat="65.5590498198038" lon="14.290825561928942" id="-8565">
		<tag k="name" v="Garsmarka" />
		<tag k="name:no" v="Garsmarka" />
		<tag k="place" v="farm" />
		<tag k="ssr:stedsnr" v="965138" />
	</node>
	<node lat="65.12840475405419" lon="13.684345364798022" id="-8571">
		<tag k="fixme" v="consider tourism=alpine_hut or tourism=chalet" />
		<tag k="name" v="Jengelhytta" />
		<tag k="name:no" v="Jengelhytta" />
		<tag k="ssr:stedsnr" v="977665" />
		<tag k="tourism" v="wilderness_hut" />
	</node>
	<node lat="65.5625348090264" lon="14.14536419157199" id="-8572">
		<tag k="fixme" v="consider place=hamlet" />
		<tag k="name" v="Åsen" />
		<tag k="name:no" v="Åsen" />
		<tag k="place" v="farm" />
		<tag k="ssr:stedsnr" v="990715" />
	</node>
	<node lat="65.66394425112435" lon="14.138472686692513" id="-8573">
		<tag k="fixme" v="consider place=hamlet" />
		<tag k="name" v="Grubben" />
		<tag k="place" v="farm" />
		<tag k="ssr:stedsnr" v="990718" />
	</node>
	<node lat="65.44935085233408" lon="14.040401689316365" id="-8578">
		<tag k="alt_name:no" v="Ørjedal" />
		<tag k="fixme" v="consider place=hamlet" />
		<tag k="name" v="Ørjedalen" />
		<tag k="name:no" v="Ørjedalen" />
		<tag k="place" v="farm" />
		<tag k="ssr:stedsnr" v="14815" />
	</node>
	<node lat="65.57831388483885" lon="14.012974993086443" id="-8586">
		<tag k="name" v="Bjørnstad" />
		<tag k="name:no" v="Bjørnstad" />
		<tag k="place" v="isolated_dwelling" />
		<tag k="ssr:stedsnr" v="15048" />
	</node>
	<node lat="65.82441389041603" lon="14.196388891579186" id="-8589">
		<tag k="alt_name:no" v="Varntresk, in;Varntresk" />
		<tag k="name" v="Varntresk indre" />
		<tag k="name:no" v="Varntresk indre" />
		<tag k="place" v="farm" />
		<tag k="ssr:stedsnr" v="15145" />
	</node>
	<node lat="65.64826666342874" lon="14.0257666642056" id="-8606">
		<tag k="name" v="Granåsen" />
		<tag k="name:no" v="Granåsen" />
		<tag k="place" v="locality" />
		<tag k="ssr:stedsnr" v="15452" />
	</node>
	<node lat="65.61429999678892" lon="14.036552787326105" id="-8610">
		<tag k="alt_name:no" v="Sørmyra" />
		<tag k="name" v="Sørmyr" />
		<tag k="name:no" v="Sørmyr" />
		<tag k="place" v="farm" />
		<tag k="ssr:stedsnr" v="16091" />
	</node>
	<node lat="65.37831666759891" lon="14.05173611095053" id="-8616">
		<tag k="name" v="Bråten" />
		<tag k="name:no" v="Bråten" />
		<tag k="place" v="farm" />
		<tag k="ssr:stedsnr" v="15795" />
	</node>
	<node lat="65.50058055852564" lon="14.205836121734771" id="-8624">
		<tag k="alt_name:no" v="Sundseth" />
		<tag k="name" v="Sundset" />
		<tag k="name:no" v="Sundset" />
		<tag k="place" v="farm" />
		<tag k="ssr:stedsnr" v="16154" />
	</node>
	<node lat="65.57392222505531" lon="14.193625001490542" id="-8628">
		<tag k="name" v="Nygård" />
		<tag k="name:no" v="Nygård" />
		<tag k="place" v="farm" />
		<tag k="ssr:stedsnr" v="16190" />
	</node>
	<node lat="65.68764444218618" lon="14.165866674956707" id="-8645">
		<tag k="name" v="Nystuen" />
		<tag k="name:no" v="Nystuen" />
		<tag k="place" v="farm" />
		<tag k="ssr:stedsnr" v="33141" />
	</node>
	<node lat="65.58615555158148" lon="14.013277785657976" id="-8689">
		<tag k="name" v="Solum" />
		<tag k="name:no" v="Solum" />
		<tag k="place" v="farm" />
		<tag k="ssr:stedsnr" v="76082" />
	</node>
	<node lat="65.52592054126922" lon="14.052507807673846" id="-8694">
		<tag k="fixme" v="consider place=hamlet" />
		<tag k="name" v="Brenna" />
		<tag k="name:no" v="Brenna" />
		<tag k="place" v="farm" />
		<tag k="ssr:stedsnr" v="76173" />
	</node>
	<node lat="65.8495749992462" lon="14.192144439814932" id="-8698">
		<tag k="name" v="Hjartfjellneset" />
		<tag k="name:no" v="Hjartfjellneset" />
		<tag k="place" v="farm" />
		<tag k="ssr:stedsnr" v="76182" />
	</node>
	<node lat="65.60369999699753" lon="14.102622226679909" id="-8701">
		<tag k="name" v="Brennbakken" />
		<tag k="name:no" v="Brennbakken" />
		<tag k="place" v="farm" />
		<tag k="ssr:stedsnr" v="76037" />
	</node>
	<node lat="65.85877499577896" lon="14.220011116039165" id="-8703">
		<tag k="name" v="Bakketun" />
		<tag k="name:no" v="Bakketun" />
		<tag k="place" v="farm" />
		<tag k="ssr:stedsnr" v="76040" />
	</node>
	<node lat="65.61923888547457" lon="14.01879443305213" id="-8709">
		<tag k="name" v="Øståsen" />
		<tag k="name:no" v="Øståsen" />
		<tag k="place" v="farm" />
		<tag k="ssr:stedsnr" v="76136" />
	</node>
	<node lat="65.54712777611155" lon="14.13307500916051" id="-8712">
		<tag k="name" v="Nyrud" />
		<tag k="name:no" v="Nyrud" />
		<tag k="place" v="farm" />
		<tag k="ssr:stedsnr" v="76237" />
	</node>
	<node lat="65.66363611419979" lon="14.136141670304424" id="-8713">
		<tag k="fixme" v="consider place=hamlet" />
		<tag k="name" v="Gråbpoe - Grubben" />
		<tag k="name:no" v="Grubben" />
		<tag k="name:sma" v="Gråbpoe" />
		<tag k="place" v="village" />
		<tag k="ssr:stedsnr" v="76410" />
	</node>
	<node lat="65.6658166622975" lon="14.138750001429116" id="-8715">
		<tag k="name" v="Strand" />
		<tag k="name:no" v="Strand" />
		<tag k="place" v="farm" />
		<tag k="ssr:stedsnr" v="76396" />
	</node>
	<node lat="65.79594157253054" lon="14.485456090078861" id="-8716">
		<tag k="fixme" v="consider place=hamlet" />
		<tag k="name" v="Skjelmoen" />
		<tag k="name:no" v="Skjelmoen" />
		<tag k="place" v="farm" />
		<tag k="ssr:stedsnr" v="76484" />
	</node>
	<node lat="65.63820833683792" lon="14.071538895749548" id="-8722">
		<tag k="name" v="Myrmo" />
		<tag k="name:no" v="Myrmo" />
		<tag k="place" v="farm" />
		<tag k="ssr:stedsnr" v="76441" />
	</node>
	<node lat="65.66357581237092" lon="13.95287257983894" id="-8726">
		<tag k="alt_name:no" v="Tjønnli" />
		<tag k="name" v="Tjørnlia" />
		<tag k="name:no" v="Tjørnlia" />
		<tag k="place" v="locality" />
		<tag k="ssr:stedsnr" v="76511" />
	</node>
	<node lat="65.38588333190393" lon="14.003049998562151" id="-8734">
		<tag k="alt_name:no" v="Nordmoen" />
		<tag k="name" v="Nordmo" />
		<tag k="name:no" v="Nordmo" />
		<tag k="place" v="farm" />
		<tag k="ssr:stedsnr" v="76784" />
	</node>
	<node lat="65.42223055338032" lon="14.172397221158281" id="-8735">
		<tag k="alt_name:no" v="Volden" />
		<tag k="name" v="Vollan" />
		<tag k="name:no" v="Vollan" />
		<tag k="place" v="farm" />
		<tag k="ssr:stedsnr" v="76795" />
	</node>
	<node lat="65.57635555709011" lon="14.32160833063267" id="-8740">
		<tag k="name" v="Tverrelvnes" />
		<tag k="name:no" v="Tverrelvnes" />
		<tag k="place" v="farm" />
		<tag k="ssr:stedsnr" v="76843" />
	</node>
	<node lat="65.53661666291659" lon="14.429947230662146" id="-8786">
		<tag k="name" v="Garsmarka" />
		<tag k="name:no" v="Garsmarka" />
		<tag k="place" v="isolated_dwelling" />
		<tag k="ssr:stedsnr" v="118984" />
	</node>
	<node lat="65.56046110755031" lon="14.14424167065737" id="-8789">
		<tag k="alt_name:no" v="Åsen, nedre" />
		<tag k="name" v="Neråsen" />
		<tag k="name:no" v="Neråsen" />
		<tag k="old_name:no" v="Åsen" />
		<tag k="place" v="farm" />
		<tag k="ssr:stedsnr" v="136233" />
	</node>
	<node lat="65.45099166227357" lon="14.062000000102243" id="-8795">
		<tag k="alt_name:no" v="Sagmoen" />
		<tag k="name" v="Sagmo" />
		<tag k="name:no" v="Sagmo" />
		<tag k="place" v="isolated_dwelling" />
		<tag k="ssr:stedsnr" v="135822" />
	</node>
	<node lat="65.55210000258047" lon="14.132922229479725" id="-8797">
		<tag k="name" v="Arnstad" />
		<tag k="name:no" v="Arnstad" />
		<tag k="place" v="farm" />
		<tag k="ssr:stedsnr" v="136272" />
	</node>
	<node lat="65.3675242435941" lon="14.11072304075353" id="-8800">
		<tag k="fixme" v="consider place=hamlet" />
		<tag k="name" v="Skundberg" />
		<tag k="name:no" v="Skundberg" />
		<tag k="place" v="farm" />
		<tag k="ssr:stedsnr" v="136780" />
	</node>
	<node lat="65.49080716746911" lon="14.032096692478193" id="-8803">
		<tag k="alt_name:no" v="Kampli" />
		<tag k="fixme" v="consider place=hamlet" />
		<tag k="name" v="Kamplia" />
		<tag k="name:no" v="Kamplia" />
		<tag k="place" v="farm" />
		<tag k="ssr:stedsnr" v="136860" />
	</node>
	<node lat="65.6681805580791" lon="13.80682222692065" id="-8814">
		<tag k="name" v="Bjørnebakken" />
		<tag k="name:no" v="Bjørnebakken" />
		<tag k="place" v="farm" />
		<tag k="ssr:stedsnr" v="136496" />
	</node>
	<node lat="65.61406944499124" lon="14.068780548583433" id="-8821">
		<tag k="alt_name:no" v="Haugom" />
		<tag k="name" v="Haugum" />
		<tag k="name:no" v="Haugum" />
		<tag k="place" v="farm" />
		<tag k="ssr:stedsnr" v="137077" />
	</node>
	<node lat="65.61019721972026" lon="14.022066660029328" id="-8822">
		<tag k="name" v="Åsheim" />
		<tag k="name:no" v="Åsheim" />
		<tag k="place" v="farm" />
		<tag k="ssr:stedsnr" v="137082" />
	</node>
	<node lat="65.6177000007492" lon="13.925177768801683" id="-8824">
		<tag k="alt_name:no" v="Lyngmoen" />
		<tag k="name" v="Lyngmo" />
		<tag k="name:no" v="Lyngmo" />
		<tag k="place" v="farm" />
		<tag k="ssr:stedsnr" v="137086" />
	</node>
	<node lat="65.58539999912442" lon="13.81090554694752" id="-8838">
		<tag k="name" v="Oppigarden" />
		<tag k="name:no" v="Oppigarden" />
		<tag k="place" v="farm" />
		<tag k="ssr:stedsnr" v="153783" />
	</node>
	<node lat="65.52603888664405" lon="14.228580553031911" id="-8845">
		<tag k="name" v="Granlund" />
		<tag k="name:no" v="Granlund" />
		<tag k="place" v="farm" />
		<tag k="ssr:stedsnr" v="155852" />
	</node>
	<node lat="65.59309166369773" lon="13.985922226755823" id="-8868">
		<tag k="name" v="Utgård" />
		<tag k="name:no" v="Utgård" />
		<tag k="place" v="farm" />
		<tag k="ssr:stedsnr" v="155986" />
	</node>
	<node lat="65.58764722330997" lon="14.009336121337766" id="-8882">
		<tag k="name" v="Livden" />
		<tag k="name:no" v="Livden" />
		<tag k="place" v="farm" />
		<tag k="ssr:stedsnr" v="197081" />
	</node>
	<node lat="65.60997777663873" lon="14.081299998285031" id="-8888">
		<tag k="name" v="Austrem" />
		<tag k="name:no" v="Austrem" />
		<tag k="place" v="farm" />
		<tag k="ssr:stedsnr" v="197034" />
	</node>
	<node lat="65.70585833632813" lon="13.75999167401637" id="-8902">
		<tag k="name" v="Forsmoen" />
		<tag k="name:no" v="Forsmoen" />
		<tag k="place" v="locality" />
		<tag k="ssr:stedsnr" v="197335" />
	</node>
	<node lat="65.7121609239765" lon="13.937154785348588" id="-8903">
		<tag k="fixme" v="consider place=hamlet" />
		<tag k="name" v="Lamoen" />
		<tag k="name:no" v="Lamoen" />
		<tag k="place" v="farm" />
		<tag k="ssr:stedsnr" v="197350" />
	</node>
	<node lat="65.4476861118595" lon="14.497191657061672" id="-8910">
		<tag k="alt_name:no" v="Grensvold" />
		<tag k="name" v="Grensvollen" />
		<tag k="name:no" v="Grensvollen" />
		<tag k="place" v="farm" />
		<tag k="ssr:stedsnr" v="197726" />
	</node>
	<node lat="65.573763887442" lon="14.198524989479967" id="-8925">
		<tag k="name" v="Hattli" />
		<tag k="name:no" v="Hattli" />
		<tag k="place" v="farm" />
		<tag k="ssr:stedsnr" v="198189" />
	</node>
	<node lat="65.69551389212474" lon="13.897594443053832" id="-8930">
		<tag k="alt_name:no" v="Stormoen" />
		<tag k="name" v="Stormo" />
		<tag k="name:no" v="Stormo" />
		<tag k="place" v="farm" />
		<tag k="ssr:stedsnr" v="198430" />
	</node>
	<node lat="65.69348889123789" lon="14.16497222644388" id="-8932">
		<tag k="name" v="Ytterlia" />
		<tag k="name:no" v="Ytterlia" />
		<tag k="place" v="isolated_dwelling" />
		<tag k="ssr:stedsnr" v="198444" />
	</node>
	<node lat="65.41777222492424" lon="14.200869441419705" id="-8939">
		<tag k="alt_name:no" v="Reinskarenget" />
		<tag k="name" v="Reinskardenget" />
		<tag k="name:no" v="Reinskardenget" />
		<tag k="place" v="farm" />
		<tag k="ssr:stedsnr" v="198800" />
	</node>
	<node lat="65.82531944305353" lon="14.192508340546523" id="-8946">
		<tag k="name" v="Midttun" />
		<tag k="name:no" v="Midttun" />
		<tag k="place" v="farm" />
		<tag k="ssr:stedsnr" v="216135" />
	</node>
	<node lat="65.60524444381333" lon="14.076330556731358" id="-8958">
		<tag k="name" v="Myrgåvan" />
		<tag k="name:no" v="Myrgåvan" />
		<tag k="place" v="farm" />
		<tag k="ssr:stedsnr" v="216643" />
	</node>
	<node lat="65.50465833070636" lon="14.321205564391633" id="-8963">
		<tag k="historic" v="shieling" />
		<tag k="name" v="Ørnessetra" />
		<tag k="name:no" v="Ørnessetra" />
		<tag k="place" v="isolated_dwelling" />
		<tag k="ssr:stedsnr" v="216841" />
	</node>
	<node lat="65.36651666684699" lon="14.249644452381105" id="-8983">
		<tag k="name" v="Gammelgården" />
		<tag k="name:no" v="Gammelgården" />
		<tag k="place" v="farm" />
		<tag k="ssr:stedsnr" v="276168" />
	</node>
	<node lat="65.81059444489644" lon="14.41332778153376" id="-8995">
		<tag k="name" v="Fagereng" />
		<tag k="name:no" v="Fagereng" />
		<tag k="place" v="farm" />
		<tag k="ssr:stedsnr" v="277066" />
	</node>
	<node lat="65.42388611243167" lon="14.174866666198781" id="-9013">
		<tag k="barrier" v="fence" />
		<tag k="name" v="Skillingsgjerdet" />
		<tag k="name:no" v="Skillingsgjerdet" />
		<tag k="ssr:stedsnr" v="297435" />
	</node>
	<node lat="65.61567777971189" lon="13.903002773485344" id="-9025">
		<tag k="name" v="Skogstue" />
		<tag k="name:no" v="Skogstue" />
		<tag k="place" v="isolated_dwelling" />
		<tag k="ssr:stedsnr" v="301290" />
	</node>
	<node lat="65.72731666308944" lon="13.962763897940933" id="-9043">
		<tag k="name" v="Grannes" />
		<tag k="name:no" v="Grannes" />
		<tag k="place" v="farm" />
		<tag k="ssr:stedsnr" v="318293" />
	</node>
	<node lat="65.5632444421726" lon="14.148352777992224" id="-9048">
		<tag k="alt_name:no" v="Åsen, øvre" />
		<tag k="name" v="Øveråsen" />
		<tag k="name:no" v="Øveråsen" />
		<tag k="place" v="farm" />
		<tag k="ssr:stedsnr" v="318177" />
	</node>
	<node lat="65.7344583343381" lon="14.064508329014076" id="-9049">
		<tag k="name" v="Murnes" />
		<tag k="name:no" v="Murnes" />
		<tag k="place" v="farm" />
		<tag k="ssr:stedsnr" v="318271" />
	</node>
	<node lat="65.64212777555998" lon="14.055686102300852" id="-9055">
		<tag k="name" v="Bjørnhaug" />
		<tag k="name:no" v="Bjørnhaug" />
		<tag k="place" v="farm" />
		<tag k="ssr:stedsnr" v="318431" />
	</node>
	<node lat="65.84023055739539" lon="14.195741657747503" id="-9056">
		<tag k="alt_name:no" v="Sørli" />
		<tag k="name" v="Sørlia" />
		<tag k="name:no" v="Sørlia" />
		<tag k="place" v="farm" />
		<tag k="ssr:stedsnr" v="319152" />
	</node>
	<node lat="65.36632500026319" lon="14.199399992392928" id="-9060">
		<tag k="name" v="Fossheim" />
		<tag k="name:no" v="Fossheim" />
		<tag k="place" v="farm" />
		<tag k="ssr:stedsnr" v="318759" />
	</node>
	<node lat="65.36183889262323" lon="14.0875083376116" id="-9061">
		<tag k="alt_name:no" v="Bakli" />
		<tag k="name" v="Baklia" />
		<tag k="name:no" v="Baklia" />
		<tag k="place" v="farm" />
		<tag k="ssr:stedsnr" v="318760" />
	</node>
	<node lat="65.49522500127075" lon="14.19319999605037" id="-9069">
		<tag k="alt_name:no" v="Bringlia" />
		<tag k="name" v="Bringli" />
		<tag k="name:no" v="Bringli" />
		<tag k="place" v="farm" />
		<tag k="ssr:stedsnr" v="318865" />
	</node>
	<node lat="65.61217499840075" lon="14.03727500578381" id="-9074">
		<tag k="name" v="Vonheim" />
		<tag k="name:no" v="Vonheim" />
		<tag k="place" v="farm" />
		<tag k="ssr:stedsnr" v="319113" />
	</node>
	<node lat="65.87286666899357" lon="14.306888888639204" id="-9077">
		<tag k="alt_name:no" v="Linviken" />
		<tag k="name" v="Linvika" />
		<tag k="name:no" v="Linvika" />
		<tag k="place" v="locality" />
		<tag k="ssr:stedsnr" v="319056" />
	</node>
	<node lat="65.62650000245313" lon="14.060147226591743" id="-9079">
		<tag k="name" v="Myrvang" />
		<tag k="name:no" v="Myrvang" />
		<tag k="place" v="farm" />
		<tag k="ssr:stedsnr" v="319066" />
	</node>
	<node lat="65.36478139735631" lon="14.250783800346749" id="-9090">
		<tag k="fixme" v="consider place=hamlet" />
		<tag k="name" v="Måelhkie - Kroken" />
		<tag k="name:no" v="Kroken" />
		<tag k="name:sma" v="Måelhkie" />
		<tag k="place" v="farm" />
		<tag k="ssr:stedsnr" v="319717" />
	</node>
	<node lat="65.412902781079" lon="13.969991658310844" id="-9097">
		<tag k="name" v="Sørum" />
		<tag k="name:no" v="Sørum" />
		<tag k="place" v="farm" />
		<tag k="ssr:stedsnr" v="319798" />
	</node>
	<node lat="65.40463889123664" lon="13.992669445132506" id="-9099">
		<tag k="name" v="Sande" />
		<tag k="name:no" v="Sande" />
		<tag k="place" v="farm" />
		<tag k="ssr:stedsnr" v="336500" />
	</node>
	<node lat="65.37732777370199" lon="14.020197213548233" id="-9150">
		<tag k="alt_name:no" v="Sørmoen" />
		<tag k="name" v="Sørmo" />
		<tag k="name:no" v="Sørmo" />
		<tag k="place" v="farm" />
		<tag k="ssr:stedsnr" v="379743" />
	</node>
	<node lat="65.39990277459803" lon="14.015175004693482" id="-9154">
		<tag k="name" v="Svenskvollsætra" />
		<tag k="name:no" v="Svenskvollsætra" />
		<tag k="place" v="isolated_dwelling" />
		<tag k="ssr:stedsnr" v="379752" />
	</node>
	<node lat="65.50220832939537" lon="14.210863887949154" id="-9166">
		<tag k="alt_name:no" v="Sundmoen" />
		<tag k="name" v="Sundmo" />
		<tag k="name:no" v="Sundmo" />
		<tag k="place" v="isolated_dwelling" />
		<tag k="ssr:stedsnr" v="379181" />
	</node>
	<node lat="65.72598901771458" lon="14.075796611636104" id="-9168">
		<tag k="alt_name:no" v="Krutnes" />
		<tag k="fixme" v="consider place=hamlet" />
		<tag k="name" v="Krutneset" />
		<tag k="name:no" v="Krutneset" />
		<tag k="place" v="farm" />
		<tag k="ssr:stedsnr" v="379283" />
	</node>
	<node lat="65.75092222193331" lon="14.07869722499488" id="-9170">
		<tag k="name" v="Nordneset" />
		<tag k="name:no" v="Nordneset" />
		<tag k="place" v="farm" />
		<tag k="ssr:stedsnr" v="379092" />
	</node>
	<node lat="65.70337221871308" lon="13.975441673473412" id="-9174">
		<tag k="alt_name:no" v="Breidvika" />
		<tag k="name" v="Breivika" />
		<tag k="name:no" v="Breivika" />
		<tag k="place" v="locality" />
		<tag k="ssr:stedsnr" v="379429" />
	</node>
	<node lat="65.65551111024719" lon="14.119225006829472" id="-9181">
		<tag k="alt_name:no" v="Volleng" />
		<tag k="name" v="Voldeng" />
		<tag k="name:no" v="Voldeng" />
		<tag k="place" v="farm" />
		<tag k="ssr:stedsnr" v="379395" />
	</node>
	<node lat="65.56437221959762" lon="14.317480556223728" id="-9198">
		<tag k="alt_name:no" v="Storvollen" />
		<tag k="name" v="Storvoll" />
		<tag k="name:no" v="Storvoll" />
		<tag k="place" v="farm" />
		<tag k="ssr:stedsnr" v="379796" />
	</node>
	<node lat="65.57915278065275" lon="14.012833326663788" id="-9222">
		<tag k="name" v="Storsvingen" />
		<tag k="name:no" v="Storsvingen" />
		<tag k="place" v="hamlet" />
		<tag k="ssr:stedsnr" v="398566" />
	</node>
	<node lat="65.78640277904793" lon="14.412502782376894" id="-9234">
		<tag k="historic" v="shieling" />
		<tag k="name" v="Sørbuktsetra" />
		<tag k="name:no" v="Sørbuktsetra" />
		<tag k="place" v="isolated_dwelling" />
		<tag k="ssr:stedsnr" v="423775" />
	</node>
	<node lat="65.60645160793175" lon="14.099388941283843" id="-9246">
		<tag k="fixme" v="consider place=hamlet" />
		<tag k="name" v="Steinslett" />
		<tag k="name:no" v="Steinslett" />
		<tag k="place" v="farm" />
		<tag k="ssr:stedsnr" v="440038" />
	</node>
	<node lat="65.59218055494513" lon="14.00893611144378" id="-9252">
		<tag k="name" v="Slettåsen" />
		<tag k="name:no" v="Slettåsen" />
		<tag k="place" v="quarter" />
		<tag k="ssr:stedsnr" v="440059" />
	</node>
	<node lat="65.63812500105365" lon="13.893974990080583" id="-9265">
		<tag k="name" v="Osberg" />
		<tag k="name:no" v="Osberg" />
		<tag k="place" v="isolated_dwelling" />
		<tag k="ssr:stedsnr" v="440434" />
	</node>
	<node lat="65.70526666785193" lon="13.925952780334232" id="-9269">
		<tag k="alt_name:no" v="Engåsen" />
		<tag k="name" v="Engås" />
		<tag k="name:no" v="Engås" />
		<tag k="place" v="farm" />
		<tag k="ssr:stedsnr" v="440450" />
	</node>
	<node lat="65.67547737249808" lon="14.055120686706383" id="-9276">
		<tag k="fixme" v="consider place=hamlet" />
		<tag k="name" v="Holmen" />
		<tag k="name:no" v="Holmen" />
		<tag k="place" v="farm" />
		<tag k="ssr:stedsnr" v="440476" />
	</node>
	<node lat="65.79917500352038" lon="14.232844446607606" id="-9277">
		<tag k="name" v="Sæterstad" />
		<tag k="name:no" v="Sæterstad" />
		<tag k="place" v="farm" />
		<tag k="ssr:stedsnr" v="440478" />
	</node>
	<node lat="65.66859999861708" lon="13.88442776843328" id="-9279">
		<tag k="name" v="Skjåvika" />
		<tag k="name:no" v="Skjåvika" />
		<tag k="place" v="farm" />
		<tag k="ssr:stedsnr" v="440487" />
	</node>
	<node lat="65.40209444660697" lon="13.979955551175772" id="-9283">
		<tag k="name" v="Nyvoll" />
		<tag k="name:no" v="Nyvoll" />
		<tag k="place" v="farm" />
		<tag k="ssr:stedsnr" v="440764" />
	</node>
	<node lat="65.3890083336818" lon="13.997877786768733" id="-9284">
		<tag k="name" v="Myrvang" />
		<tag k="name:no" v="Myrvang" />
		<tag k="place" v="farm" />
		<tag k="ssr:stedsnr" v="440773" />
	</node>
	<node lat="65.40610833451807" lon="13.975841668018592" id="-9286">
		<tag k="name" v="Bjørnstad" />
		<tag k="name:no" v="Bjørnstad" />
		<tag k="place" v="farm" />
		<tag k="ssr:stedsnr" v="440785" />
	</node>
	<node lat="65.44066388668094" lon="14.011252787103306" id="-9298">
		<tag k="name" v="Martavala" />
		<tag k="name:sma" v="Martavala" />
		<tag k="place" v="isolated_dwelling" />
		<tag k="ssr:stedsnr" v="499780" />
	</node>
	<node lat="65.59386111199535" lon="13.984266665146475" id="-9303">
		<tag k="name" v="Tofta" />
		<tag k="name:no" v="Tofta" />
		<tag k="place" v="farm" />
		<tag k="ssr:stedsnr" v="500014" />
	</node>
	<node lat="65.81120833340835" lon="14.166308329607965" id="-9308">
		<tag k="name" v="Tolkmoen" />
		<tag k="name:no" v="Tolkmoen" />
		<tag k="place" v="farm" />
		<tag k="ssr:stedsnr" v="500128" />
	</node>
	<node lat="65.53936074525036" lon="14.015698616331067" id="-9309">
		<tag k="fixme" v="consider place=hamlet" />
		<tag k="name" v="Nerli" />
		<tag k="name:no" v="Nerli" />
		<tag k="place" v="farm" />
		<tag k="ssr:stedsnr" v="500272" />
	</node>
	<node lat="65.67668715921722" lon="14.036621260329659" id="-9321">
		<tag k="name" v="Myrvoll" />
		<tag k="name:no" v="Myrvoll" />
		<tag k="place" v="locality" />
		<tag k="ssr:stedsnr" v="500561" />
	</node>
	<node lat="65.37669999746187" lon="14.044158329492305" id="-9336">
		<tag k="name" v="Fagerli" />
		<tag k="name:no" v="Fagerli" />
		<tag k="place" v="farm" />
		<tag k="ssr:stedsnr" v="500824" />
	</node>
	<node lat="65.7118000040846" lon="13.938249992780309" id="-9347">
		<tag k="name" v="Myrnes" />
		<tag k="name:no" v="Myrnes" />
		<tag k="place" v="farm" />
		<tag k="ssr:stedsnr" v="501289" />
	</node>
	<node lat="65.4526346117246" lon="14.46497261621575" id="-9361">
		<tag k="alt_name:no" v="Skarmodal" />
		<tag k="fixme" v="consider place=hamlet" />
		<tag k="loc_name:sma" v="Skaalma" />
		<tag k="name" v="Skardmodalen" />
		<tag k="name:no" v="Skardmodalen" />
		<tag k="place" v="farm" />
		<tag k="ssr:stedsnr" v="501670" />
	</node>
	<node lat="65.49747222622426" lon="14.016647217536221" id="-9387">
		<tag k="name" v="Svingstad" />
		<tag k="name:no" v="Svingstad" />
		<tag k="place" v="farm" />
		<tag k="ssr:stedsnr" v="519637" />
	</node>
	<node lat="65.66320477843466" lon="14.140634454545536" id="-9408">
		<tag k="name" v="Grubben" />
		<tag k="name:no" v="Grubben" />
		<tag k="place" v="neighbourhood" />
		<tag k="ssr:stedsnr" v="526098" />
	</node>
	<node lat="65.47052499885248" lon="14.017897219016843" id="-9420">
		<tag k="fixme" v="consider place=hamlet" />
		<tag k="name" v="Mikkeljorden" />
		<tag k="name:no" v="Mikkeljorden" />
		<tag k="place" v="farm" />
		<tag k="ssr:stedsnr" v="545528" />
	</node>
	<node lat="65.446922223499" lon="14.114574989988816" id="-9427">
		<tag k="name" v="Storhaugen" />
		<tag k="name:no" v="Storhaugen" />
		<tag k="place" v="farm" />
		<tag k="ssr:stedsnr" v="560830" />
	</node>
	<node lat="65.489008329585" lon="14.019061102933648" id="-9430">
		<tag k="name" v="Fredheim" />
		<tag k="name:no" v="Fredheim" />
		<tag k="place" v="farm" />
		<tag k="ssr:stedsnr" v="560861" />
	</node>
	<node lat="65.57666110899783" lon="13.833069437126815" id="-9433">
		<tag k="name" v="Forseng" />
		<tag k="name:no" v="Forseng" />
		<tag k="place" v="farm" />
		<tag k="ssr:stedsnr" v="561052" />
	</node>
	<node lat="65.52549444794677" lon="14.223661109286006" id="-9436">
		<tag k="name" v="Daleng" />
		<tag k="name:no" v="Daleng" />
		<tag k="place" v="farm" />
		<tag k="ssr:stedsnr" v="561834" />
	</node>
	<node lat="65.4669855764771" lon="14.009566033683145" id="-9437">
		<tag k="alt_name:no" v="Kvalpskardmo" />
		<tag k="fixme" v="consider place=hamlet" />
		<tag k="name" v="Kvalpskardmoen" />
		<tag k="name:no" v="Kvalpskardmoen" />
		<tag k="place" v="farm" />
		<tag k="ssr:stedsnr" v="561835" />
	</node>
	<node lat="65.58831110960327" lon="13.818494441826575" id="-9440">
		<tag k="alt_name:no" v="Grytlia" />
		<tag k="name" v="Grytli" />
		<tag k="name:no" v="Grytli" />
		<tag k="place" v="farm" />
		<tag k="ssr:stedsnr" v="561008" />
	</node>
	<node lat="65.58316388559776" lon="13.842252787590139" id="-9441">
		<tag k="name" v="Nyenget" />
		<tag k="name:no" v="Nyenget" />
		<tag k="place" v="farm" />
		<tag k="ssr:stedsnr" v="561009" />
	</node>
	<node lat="65.58319722206228" lon="13.850591666457289" id="-9442">
		<tag k="name" v="Bjerkeset" />
		<tag k="name:no" v="Bjerkeset" />
		<tag k="place" v="farm" />
		<tag k="ssr:stedsnr" v="561011" />
	</node>
	<node lat="65.60005832941228" lon="14.043147224964889" id="-9445">
		<tag k="name" v="Mo" />
		<tag k="name:no" v="Mo" />
		<tag k="place" v="farm" />
		<tag k="ssr:stedsnr" v="561023" />
	</node>
	<node lat="65.80852500323589" lon="14.163675010650604" id="-9451">
		<tag k="name" v="Villmoen" />
		<tag k="name:no" v="Villmoen" />
		<tag k="place" v="isolated_dwelling" />
		<tag k="ssr:stedsnr" v="561126" />
	</node>
	<node lat="65.57103989257952" lon="13.757229698401215" id="-9459">
		<tag k="fixme" v="consider place=hamlet" />
		<tag k="name" v="Storvassli" />
		<tag k="name:no" v="Storvassli" />
		<tag k="place" v="farm" />
		<tag k="ssr:stedsnr" v="561210" />
	</node>
	<node lat="65.65914120289555" lon="13.962376316321835" id="-9474">
		<tag k="alt_name:no" v="Ruderås" />
		<tag k="fixme" v="consider place=hamlet" />
		<tag k="name" v="Ruderåsen" />
		<tag k="name:no" v="Ruderåsen" />
		<tag k="place" v="farm" />
		<tag k="ssr:stedsnr" v="561396" />
	</node>
	<node lat="65.33068333348821" lon="14.32019445127108" id="-9483">
		<tag k="alt_name:no" v="Eldsmo" />
		<tag k="name" v="Eldsmoen" />
		<tag k="name:no" v="Eldsmoen" />
		<tag k="place" v="farm" />
		<tag k="ssr:stedsnr" v="561727" />
	</node>
	<node lat="65.37414999671405" lon="14.050761107924563" id="-9485">
		<tag k="alt_name:no" v="Trallerud, øvre" />
		<tag k="name" v="Øvre Trallerud" />
		<tag k="name:no" v="Øvre Trallerud" />
		<tag k="place" v="farm" />
		<tag k="ssr:stedsnr" v="561777" />
	</node>
	<node lat="65.39211110952664" lon="14.015799990338353" id="-9488">
		<tag k="name" v="Bjerke" />
		<tag k="name:no" v="Bjerke" />
		<tag k="place" v="farm" />
		<tag k="ssr:stedsnr" v="561784" />
	</node>
	<node lat="65.3911500373941" lon="13.98993519173962" id="-9489">
		<tag k="alt_name:no" v="Værdalshaug" />
		<tag k="fixme" v="consider place=hamlet" />
		<tag k="name" v="Værdalshaugen" />
		<tag k="name:no" v="Værdalshaugen" />
		<tag k="place" v="farm" />
		<tag k="ssr:stedsnr" v="561787" />
	</node>
	<node lat="65.36435555286046" lon="14.163699995595927" id="-9496">
		<tag k="name" v="Sørstad" />
		<tag k="name:no" v="Sørstad" />
		<tag k="place" v="farm" />
		<tag k="ssr:stedsnr" v="561755" />
	</node>
	<node lat="65.36098164126764" lon="14.145235608536312" id="-9497">
		<tag k="alt_name:no" v="Atterli" />
		<tag k="fixme" v="consider place=hamlet" />
		<tag k="name" v="Atterlia" />
		<tag k="name:no" v="Atterlia" />
		<tag k="place" v="farm" />
		<tag k="ssr:stedsnr" v="561757" />
	</node>
	<node lat="65.36930500372932" lon="14.19861114716664" id="-9500">
		<tag k="fixme" v="consider place=hamlet" />
		<tag k="name" v="Eggen" />
		<tag k="name:no" v="Eggen" />
		<tag k="place" v="farm" />
		<tag k="ssr:stedsnr" v="561773" />
	</node>
	<node lat="65.56888889286495" lon="14.323861106855038" id="-9501">
		<tag k="name" v="Stormohagen" />
		<tag k="name:no" v="Stormohagen" />
		<tag k="place" v="farm" />
		<tag k="ssr:stedsnr" v="561809" />
	</node>
	<node lat="65.67413333190743" lon="14.26529722808819" id="-9504">
		<tag k="name" v="Austerkroken" />
		<tag k="name:no" v="Austerkroken" />
		<tag k="place" v="farm" />
		<tag k="ssr:stedsnr" v="561849" />
	</node>
	<node lat="65.36713333104757" lon="14.272677768840982" id="-9511">
		<tag k="name" v="Burstomta" />
		<tag k="name:no" v="Burstomta" />
		<tag k="place" v="locality" />
		<tag k="ssr:stedsnr" v="579159" />
	</node>
	<node lat="65.5221333298379" lon="14.089286113281489" id="-9512">
		<tag k="name" v="Furumyr" />
		<tag k="name:no" v="Furumyr" />
		<tag k="place" v="farm" />
		<tag k="ssr:stedsnr" v="580089" />
	</node>
	<node lat="65.63746110766095" lon="14.04374443844528" id="-9555">
		<tag k="name" v="Øyås" />
		<tag k="name:no" v="Øyås" />
		<tag k="place" v="isolated_dwelling" />
		<tag k="ssr:stedsnr" v="622408" />
	</node>
	<node lat="65.60592222635121" lon="14.070838891404033" id="-9565">
		<tag k="name" v="Skogmo" />
		<tag k="name:no" v="Skogmo" />
		<tag k="place" v="farm" />
		<tag k="ssr:stedsnr" v="621030" />
	</node>
	<node lat="65.6523222240938" lon="14.109436102423022" id="-9570">
		<tag k="name" v="Haugtun" />
		<tag k="name:no" v="Haugtun" />
		<tag k="place" v="farm" />
		<tag k="ssr:stedsnr" v="621434" />
	</node>
	<node lat="65.45228774123012" lon="14.461265480951418" id="-9573">
		<tag k="fixme" v="consider place=hamlet" />
		<tag k="name" v="Nybrott" />
		<tag k="name:no" v="Nybrott" />
		<tag k="place" v="farm" />
		<tag k="ssr:stedsnr" v="622696" />
	</node>
	<node lat="65.44477500230799" lon="13.993619436332798" id="-9576">
		<tag k="name" v="Olstad" />
		<tag k="name:no" v="Olstad" />
		<tag k="place" v="farm" />
		<tag k="ssr:stedsnr" v="621833" />
	</node>
	<node lat="65.69009444350425" lon="14.159119447857641" id="-9581">
		<tag k="alt_name:no" v="Seljerema" />
		<tag k="name" v="Seljerem" />
		<tag k="name:no" v="Seljerem" />
		<tag k="place" v="farm" />
		<tag k="ssr:stedsnr" v="621526" />
	</node>
	<node lat="65.67728888869767" lon="14.053002784476767" id="-9582">
		<tag k="name" v="Fagerheim" />
		<tag k="name:no" v="Fagerheim" />
		<tag k="place" v="isolated_dwelling" />
		<tag k="ssr:stedsnr" v="621532" />
	</node>
	<node lat="65.36893055831858" lon="14.08940556429981" id="-9586">
		<tag k="alt_name:no" v="Klokklia" />
		<tag k="name" v="Klokkli" />
		<tag k="name:no" v="Klokkli" />
		<tag k="place" v="farm" />
		<tag k="ssr:stedsnr" v="621800" />
	</node>
	<node lat="65.58079444124792" lon="14.150691674339262" id="-9598">
		<tag k="alt_name:no" v="Lauvlia" />
		<tag k="name" v="Lauvli" />
		<tag k="name:no" v="Lauvli" />
		<tag k="place" v="isolated_dwelling" />
		<tag k="ssr:stedsnr" v="622032" />
	</node>
	<node lat="65.57558611451266" lon="14.003730549622452" id="-9599">
		<tag k="name" v="Osbakken" />
		<tag k="name:no" v="Osbakken" />
		<tag k="place" v="farm" />
		<tag k="ssr:stedsnr" v="622046" />
	</node>
	<node lat="65.41940000154675" lon="13.987288889508504" id="-9618">
		<tag k="name" v="Lona" />
		<tag k="name:no" v="Lona" />
		<tag k="place" v="farm" />
		<tag k="ssr:stedsnr" v="622791" />
	</node>
	<node lat="65.46260971008645" lon="14.395812339840544" id="-9622">
		<tag k="alt_name:no" v="Brattli" />
		<tag k="fixme" v="consider place=hamlet" />
		<tag k="name" v="Brattlia" />
		<tag k="name:no" v="Brattlia" />
		<tag k="place" v="farm" />
		<tag k="ssr:stedsnr" v="622732" />
	</node>
	<node lat="65.59429166335809" lon="13.978827784643553" id="-9647">
		<tag k="name" v="Kjerkstad" />
		<tag k="name:no" v="Kjerkstad" />
		<tag k="place" v="farm" />
		<tag k="ssr:stedsnr" v="640842" />
	</node>
	<node lat="65.79071666508135" lon="14.419244434414662" id="-9683">
		<tag k="name" v="Sørbukta" />
		<tag k="name:no" v="Sørbukta" />
		<tag k="place" v="isolated_dwelling" />
		<tag k="ssr:stedsnr" v="665777" />
	</node>
	<node lat="65.44363888787305" lon="14.13656943942168" id="-9697">
		<tag k="name" v="Fagerbakken" />
		<tag k="name:no" v="Fagerbakken" />
		<tag k="place" v="farm" />
		<tag k="ssr:stedsnr" v="742802" />
	</node>
	<node lat="65.71976111130701" lon="13.692505558562228" id="-9701">
		<tag k="name" v="Jamtvollan" />
		<tag k="name:no" v="Jamtvollan" />
		<tag k="place" v="isolated_dwelling" />
		<tag k="ssr:stedsnr" v="743746" />
	</node>
	<node lat="65.46768610859914" lon="14.016061120897938" id="-9704">
		<tag k="name" v="Solheim" />
		<tag k="name:no" v="Solheim" />
		<tag k="place" v="farm" />
		<tag k="ssr:stedsnr" v="743839" />
	</node>
	<node lat="65.52700710171489" lon="14.015570124621416" id="-9711">
		<tag k="name" v="Sørvollen" />
		<tag k="name:no" v="Sørvollen" />
		<tag k="place" v="locality" />
		<tag k="ssr:stedsnr" v="743162" />
	</node>
	<node lat="65.70678867688083" lon="14.013278500915618" id="-9714">
		<tag k="fixme" v="consider place=hamlet" />
		<tag k="name" v="Sandneset" />
		<tag k="name:no" v="Sandneset" />
		<tag k="place" v="farm" />
		<tag k="ssr:stedsnr" v="743450" />
	</node>
	<node lat="65.43177143997876" lon="14.004991967814094" id="-9722">
		<tag k="alt_name:no" v="Slettfjelli" />
		<tag k="fixme" v="consider place=hamlet" />
		<tag k="name" v="Slettfjellia" />
		<tag k="name:no" v="Slettfjellia" />
		<tag k="place" v="farm" />
		<tag k="ssr:stedsnr" v="743821" />
	</node>
	<node lat="65.4345000031826" lon="13.98824444293479" id="-9723">
		<tag k="name" v="Nervollen" />
		<tag k="name:no" v="Nervollen" />
		<tag k="place" v="farm" />
		<tag k="ssr:stedsnr" v="743822" />
	</node>
	<node lat="65.39674395336516" lon="13.984601460424509" id="-9736">
		<tag k="fixme" v="consider place=hamlet" />
		<tag k="name" v="Vollan" />
		<tag k="name:no" v="Vollan" />
		<tag k="place" v="farm" />
		<tag k="ssr:stedsnr" v="744761" />
	</node>
	<node lat="65.58073888518442" lon="14.276538877552333" id="-9737">
		<tag k="alt_name:no" v="Bratland" />
		<tag k="name" v="Brattland" />
		<tag k="name:no" v="Brattland" />
		<tag k="place" v="farm" />
		<tag k="ssr:stedsnr" v="744845" />
	</node>
	<node lat="65.59736111464417" lon="13.987905551291941" id="-9740">
		<tag k="name" v="Aarborte - Hattfjelldal" />
		<tag k="name:no" v="Hattfjelldal" />
		<tag k="name:sma" v="Aarborte" />
		<tag k="old_name:sma" v="Aarporte" />
		<tag k="place" v="village" />
		<tag k="ssr:stedsnr" v="753542" />
	</node>
	<node lat="65.59384722497724" lon="13.897069449562395" id="-9742">
		<tag k="name" v="Sørstad" />
		<tag k="name:no" v="Sørstad" />
		<tag k="place" v="farm" />
		<tag k="ssr:stedsnr" v="760573" />
	</node>
	<node lat="65.40636388615223" lon="13.987608330940114" id="-9744">
		<tag k="name" v="Sandmo" />
		<tag k="name:no" v="Sandmo" />
		<tag k="place" v="farm" />
		<tag k="ssr:stedsnr" v="761564" />
	</node>
	<node lat="65.59626111474458" lon="14.004394455503812" id="-9762">
		<tag k="name" v="Sollia" />
		<tag k="name:no" v="Sollia" />
		<tag k="place" v="quarter" />
		<tag k="ssr:stedsnr" v="762967" />
	</node>
	<node lat="65.5930749964168" lon="14.009324994162565" id="-9763">
		<tag k="name" v="Sletten" />
		<tag k="name:no" v="Sletten" />
		<tag k="place" v="quarter" />
		<tag k="ssr:stedsnr" v="762970" />
	</node>
	<node lat="65.8136277786483" lon="14.19025554749976" id="-9788">
		<tag k="alt_name:no" v="Tolkvatnet" />
		<tag k="name" v="Tolkvatn" />
		<tag k="name:no" v="Tolkvatn" />
		<tag k="place" v="farm" />
		<tag k="ssr:stedsnr" v="804143" />
	</node>
	<node lat="65.52660833282117" lon="14.212816667147056" id="-9790">
		<tag k="name" v="Sandøreng" />
		<tag k="name:no" v="Sandøreng" />
		<tag k="place" v="isolated_dwelling" />
		<tag k="ssr:stedsnr" v="804152" />
	</node>
	<node lat="65.55011388732945" lon="14.135222214361367" id="-9793">
		<tag k="name" v="Grøneng" />
		<tag k="name:no" v="Grøneng" />
		<tag k="place" v="farm" />
		<tag k="ssr:stedsnr" v="804269" />
	</node>
	<node lat="65.57271745551418" lon="14.20125722090629" id="-9799">
		<tag k="alt_name:no" v="Elsvatn" />
		<tag k="fixme" v="consider place=hamlet" />
		<tag k="name" v="Elsvatnet" />
		<tag k="name:no" v="Elsvatnet" />
		<tag k="place" v="farm" />
		<tag k="ssr:stedsnr" v="804246" />
	</node>
	<node lat="65.3891571355695" lon="14.017614800096304" id="-9812">
		<tag k="fixme" v="consider place=hamlet" />
		<tag k="name" v="Solhaug" />
		<tag k="name:no" v="Solhaug" />
		<tag k="place" v="farm" />
		<tag k="ssr:stedsnr" v="804794" />
	</node>
	<node lat="65.57436111202409" lon="14.191691674917363" id="-9853">
		<tag k="name" v="Nyruta" />
		<tag k="name:no" v="Nyruta" />
		<tag k="place" v="isolated_dwelling" />
		<tag k="ssr:stedsnr" v="823730" />
	</node>
	<node lat="65.49824722061231" lon="14.221294449303159" id="-9856">
		<tag k="name" v="Mikkeljordhytta" />
		<tag k="name:no" v="Mikkeljordhytta" />
		<tag k="place" v="isolated_dwelling" />
		<tag k="ssr:stedsnr" v="823789" />
	</node>
	<node lat="65.80856944870325" lon="14.4353111127946" id="-9868">
		<tag k="name" v="Famvatnet" />
		<tag k="name:no" v="Famvatnet" />
		<tag k="place" v="neighbourhood" />
		<tag k="ssr:stedsnr" v="830091" />
	</node>
	<node lat="65.59750277640626" lon="13.962266661155951" id="-9895">
		<tag k="name" v="Finnmomyran" />
		<tag k="name:no" v="Finnmomyran" />
		<tag k="place" v="isolated_dwelling" />
		<tag k="ssr:stedsnr" v="865016" />
	</node>
	<node lat="65.62290555411805" lon="13.938725004839208" id="-9904">
		<tag k="name" v="Nyheim" />
		<tag k="name:no" v="Nyheim" />
		<tag k="place" v="farm" />
		<tag k="ssr:stedsnr" v="865100" />
	</node>
	<node lat="65.76617222631384" lon="13.923033323787479" id="-9907">
		<tag k="name" v="Rystad" />
		<tag k="name:no" v="Rystad" />
		<tag k="place" v="farm" />
		<tag k="ssr:stedsnr" v="865116" />
	</node>
	<node lat="65.60483610925917" lon="13.870250004359328" id="-9911">
		<tag k="fixme" v="multiple name tags, choose one and add the other to alt_name" />
		<tag k="historic" v="shieling" />
		<tag k="name" v="Mjølkarlisætra;Sæter" />
		<tag k="name:no" v="Mjølkarlisætra;Sæter" />
		<tag k="place" v="isolated_dwelling" />
		<tag k="ssr:stedsnr" v="865132" />
	</node>
	<node lat="65.61863055604168" lon="14.042527787360791" id="-9913">
		<tag k="name" v="Arnerud" />
		<tag k="name:no" v="Arnerud" />
		<tag k="place" v="farm" />
		<tag k="ssr:stedsnr" v="865145" />
	</node>
	<node lat="65.53988333565998" lon="14.139608328648922" id="-9922">
		<tag k="alt_name:no" v="Vestmoen" />
		<tag k="name" v="Vestmo" />
		<tag k="name:no" v="Vestmo" />
		<tag k="place" v="farm" />
		<tag k="ssr:stedsnr" v="865253" />
	</node>
	<node lat="65.54045977707932" lon="14.14557422168903" id="-9923">
		<tag k="alt_name:no" v="Unkervatn" />
		<tag k="fixme" v="consider place=hamlet" />
		<tag k="name" v="Unkervatnet" />
		<tag k="name:no" v="Unkervatnet" />
		<tag k="place" v="farm" />
		<tag k="ssr:stedsnr" v="865256" />
	</node>
	<node lat="65.73652500113596" lon="14.066749994103162" id="-9928">
		<tag k="name" v="Brustad" />
		<tag k="name:no" v="Brustad" />
		<tag k="place" v="farm" />
		<tag k="ssr:stedsnr" v="865313" />
	</node>
	<node lat="65.49401954364045" lon="14.025529807934062" id="-9933">
		<tag k="alt_name:no" v="Pantdalsli" />
		<tag k="fixme" v="consider place=hamlet" />
		<tag k="name" v="Pantdalslia" />
		<tag k="name:no" v="Pantdalslia" />
		<tag k="place" v="farm" />
		<tag k="ssr:stedsnr" v="865848" />
	</node>
	<node lat="65.68753983867717" lon="14.170247383851715" id="-9944">
		<tag k="alt_name:no" v="Krutåga" />
		<tag k="fixme" v="consider place=hamlet" />
		<tag k="name" v="Kruvhtege - Krutå" />
		<tag k="name:no" v="Krutå" />
		<tag k="name:sma" v="Kruvhtege" />
		<tag k="place" v="farm" />
		<tag k="ssr:stedsnr" v="865496" />
	</node>
	<node lat="65.65795555905095" lon="14.122724998954645" id="-9952">
		<tag k="name" v="Sørflata" />
		<tag k="name:no" v="Sørflata" />
		<tag k="place" v="farm" />
		<tag k="ssr:stedsnr" v="865432" />
	</node>
	<node lat="65.75912932455519" lon="14.567584299624311" id="-9961">
		<tag k="alt_name:no" v="Linnerud" />
		<tag k="fixme" v="consider place=hamlet" />
		<tag k="name" v="Linerud" />
		<tag k="name:no" v="Linerud" />
		<tag k="place" v="farm" />
		<tag k="ssr:stedsnr" v="865482" />
	</node>
	<node lat="65.4166392421233" lon="13.965079542771798" id="-9966">
		<tag k="fixme" v="consider place=hamlet" />
		<tag k="name" v="Haugen" />
		<tag k="name:no" v="Haugen" />
		<tag k="place" v="farm" />
		<tag k="ssr:stedsnr" v="865797" />
	</node>
	<node lat="65.3678999987248" lon="14.214416655574961" id="-9976">
		<tag k="name" v="Bergum" />
		<tag k="name:no" v="Bergum" />
		<tag k="place" v="farm" />
		<tag k="ssr:stedsnr" v="865759" />
	</node>
	<node lat="65.3790017432725" lon="14.007981124901887" id="-9981">
		<tag k="alt_name:no" v="Sørgården" />
		<tag k="fixme" v="consider place=hamlet" />
		<tag k="name" v="Sørgård" />
		<tag k="name:no" v="Sørgård" />
		<tag k="place" v="farm" />
		<tag k="ssr:stedsnr" v="865775" />
	</node>
	<node lat="65.36948333527278" lon="14.142638886790918" id="-9983">
		<tag k="alt_name:no" v="Austli" />
		<tag k="name" v="Austlia" />
		<tag k="name:no" v="Austlia" />
		<tag k="place" v="farm" />
		<tag k="ssr:stedsnr" v="865777" />
	</node>
	<node lat="65.49974722469764" lon="14.164113884212792" id="-9984">
		<tag k="name" v="Olderlia" />
		<tag k="name:no" v="Olderlia" />
		<tag k="place" v="farm" />
		<tag k="ssr:stedsnr" v="865779" />
	</node>
	<node lat="65.53840555192167" lon="14.250680565021261" id="-9987">
		<tag k="name" v="Sætermoen" />
		<tag k="name:no" v="Sætermoen" />
		<tag k="place" v="farm" />
		<tag k="ssr:stedsnr" v="865831" />
	</node>
	<node lat="65.58107778084766" lon="13.829663879353301" id="-9992">
		<tag k="name" v="Høgda" />
		<tag k="name:no" v="Høgda" />
		<tag k="place" v="farm" />
		<tag k="ssr:stedsnr" v="882674" />
	</node>
	<node lat="65.82614999949004" lon="14.190313892962259" id="-9997">
		<tag k="name" v="Nyrud" />
		<tag k="name:no" v="Nyrud" />
		<tag k="place" v="farm" />
		<tag k="ssr:stedsnr" v="883183" />
	</node>
	<node lat="65.57493888838702" lon="14.195791661398099" id="-10016">
		<tag k="name" v="Myggheim" />
		<tag k="name:no" v="Myggheim" />
		<tag k="place" v="isolated_dwelling" />
		<tag k="ssr:stedsnr" v="883822" />
	</node>
	<node lat="65.59821666328821" lon="13.985655544673586" id="-10054">
		<tag k="name" v="Toppen" />
		<tag k="name:no" v="Toppen" />
		<tag k="place" v="quarter" />
		<tag k="ssr:stedsnr" v="944993" />
	</node>
	<node lat="65.52931388938399" lon="14.235861120984554" id="-10076">
		<tag k="name" v="Nyhus" />
		<tag k="name:no" v="Nyhus" />
		<tag k="place" v="isolated_dwelling" />
		<tag k="ssr:stedsnr" v="969627" />
	</node>
	<node lat="65.82808696493463" lon="14.194659466476875" id="-10078">
		<tag k="alt_name:no" v="Varntræsken;Varntresken nordre" />
		<tag k="fixme" v="consider place=hamlet" />
		<tag k="name" v="Varntresken" />
		<tag k="name:no" v="Varntresken" />
		<tag k="place" v="farm" />
		<tag k="ssr:stedsnr" v="976802" />
	</node>
	<node lat="65.79293810980928" lon="14.226689155929924" id="-10079">
		<tag k="name" v="Varntresken nord" />
		<tag k="name:no" v="Varntresken nord" />
		<tag k="place" v="farm" />
		<tag k="ssr:stedsnr" v="976805" />
	</node>
	<node lat="65.8256028783877" lon="14.257777417479092" id="-10080">
		<tag k="fixme" v="multiple name tags, choose one and add the other to alt_name" />
		<tag k="name" v="Værnetresken;Varntresk" />
		<tag k="name:no" v="Værnetresken;Varntresk" />
		<tag k="place" v="farm" />
		<tag k="ssr:stedsnr" v="976808" />
	</node>
	<node lat="65.59183295754758" lon="13.96844594065736" id="-10081">
		<tag k="name" v="Kjerkstad" />
		<tag k="name:no" v="Kjerkstad" />
		<tag k="place" v="farm" />
		<tag k="ssr:stedsnr" v="977749" />
	</node>
	<node lat="65.58938712433925" lon="13.991904764213162" id="-10083">
		<tag k="fixme" v="consider place=hamlet" />
		<tag k="name" v="Hattfjeldal" />
		<tag k="place" v="farm" />
		<tag k="ssr:stedsnr" v="990649" />
	</node>
	<node lat="65.28201749085886" lon="14.13721531425478" id="-10084">
		<tag k="fixme" v="consider tourism=alpine_hut or tourism=chalet" />
		<tag k="name" v="Tiplingen skogstue" />
		<tag k="name:no" v="Tiplingen skogstue" />
		<tag k="ssr:stedsnr" v="1080149" />
		<tag k="tourism" v="wilderness_hut" />
	</node>
	<node lat="65.51376108657189" lon="14.149480633745265" id="-10089">
		<tag k="fixme" v="consider tourism=alpine_hut or tourism=chalet" />
		<tag k="name" v="Øvre Luspen skogstue" />
		<tag k="name:no" v="Øvre Luspen skogstue" />
		<tag k="ssr:stedsnr" v="1080531" />
		<tag k="tourism" v="wilderness_hut" />
	</node>
</osm>
