<?xml version="1.0" encoding="UTF-8"?>
<osm generator="osmapis" version="0.6">
	<node id="-15392" lat="65.1955062865" lon="13.9421417132">
		<tag k="fixme" v="consider boundary=protected_area and relevant protect_class if not nature reserve" />
		<tag k="leisure" v="nature_reserve" />
		<tag k="name" v="Børgefjell/Byrkije nasjonalpark" />
		<tag k="name:no" v="Børgefjell/Byrkije nasjonalpark" />
		<tag k="old_name:no" v="Børgefjell nasjonalpark" />
		<tag k="ssr:stedsnr" v="317726" />
	</node>
	<node id="-16432" lat="65.750610168" lon="14.5788320378">
		<tag k="historic" v="boundary_stone" />
		<tag k="man_made" v="cairn" />
		<tag k="name" v="Låtakarøysa" />
		<tag k="name:no" v="Låtakarøysa" />
		<tag k="place" v="locality" />
		<tag k="ssr:stedsnr" v="413965" />
	</node>
	<node id="-14142" lat="65.7822833375" lon="14.4482305533">
		<tag k="fixme" v="consider boundary=protected_area and relevant protect_class if not nature reserve" />
		<tag k="leisure" v="nature_reserve" />
		<tag k="name" v="Favnvassdalen landskapsverneområde" />
		<tag k="name:no" v="Favnvassdalen landskapsverneområde" />
		<tag k="ssr:stedsnr" v="665785" />
	</node>
	<node id="-15132" lat="65.7794111094" lon="14.6005277814">
		<tag k="historic" v="boundary_stone" />
		<tag k="man_made" v="cairn" />
		<tag k="name" v="Jofjellsrøysa" />
		<tag k="name:no" v="Jofjellsrøysa" />
		<tag k="old_name:no" v="Joe fields Røse;Jofjeld Røs" />
		<tag k="place" v="locality" />
		<tag k="ssr:stedsnr" v="110960" />
	</node>
	<node id="-15131" lat="65.1631555522" lon="14.3434555645">
		<tag k="historic" v="boundary_stone" />
		<tag k="man_made" v="cairn" />
		<tag k="name" v="Saxfjellrøysa" />
		<tag k="name:no" v="Saxfjellrøysa" />
		<tag k="place" v="locality" />
		<tag k="ssr:stedsnr" v="110889" />
	</node>
	<node id="-14522" lat="65.8010277748" lon="14.4560055655">
		<tag k="fixme" v="consider boundary=protected_area and relevant protect_class if not nature reserve" />
		<tag k="leisure" v="nature_reserve" />
		<tag k="name" v="Storslettmyra naturreservat" />
		<tag k="name:no" v="Storslettmyra naturreservat" />
		<tag k="ssr:stedsnr" v="709329" />
	</node>
	<node id="-16440" lat="65.193704485" lon="14.355564839">
		<tag k="historic" v="boundary_stone" />
		<tag k="man_made" v="cairn" />
		<tag k="name" v="Ranserrøysa" />
		<tag k="name:no" v="Ranserrøysa" />
		<tag k="old_name:no" v="Randser Røset;Ranser røs" />
		<tag k="place" v="locality" />
		<tag k="ssr:stedsnr" v="595954" />
	</node>
	<node id="-16439" lat="65.3097316282" lon="14.5068198606">
		<tag k="historic" v="boundary_stone" />
		<tag k="man_made" v="cairn" />
		<tag k="name" v="Moritz Skytsby-røysa" />
		<tag k="name:no" v="Moritz Skytsby-røysa" />
		<tag k="old_name:no" v="Moritz Skytsky Røset;Moritzskytsky røs" />
		<tag k="place" v="locality" />
		<tag k="ssr:stedsnr" v="717953" />
	</node>
	<node id="-16438" lat="65.8118094121" lon="14.6254725968">
		<tag k="historic" v="boundary_stone" />
		<tag k="man_made" v="cairn" />
		<tag k="name" v="Brakfjellsrøysa" />
		<tag k="name:no" v="Brakfjellsrøysa" />
		<tag k="old_name:no" v="Brakfields Røset;Brakfjeld Røs" />
		<tag k="place" v="locality" />
		<tag k="ssr:stedsnr" v="413963" />
	</node>
	<node id="-16437" lat="65.4627213247" lon="14.5002315559">
		<tag k="historic" v="boundary_stone" />
		<tag k="man_made" v="cairn" />
		<tag k="name" v="Linefjellet" />
		<tag k="name:no" v="Linefjellet" />
		<tag k="place" v="locality" />
		<tag k="ssr:stedsnr" v="959947" />
	</node>
	<node id="-14110" lat="65.2476222184" lon="14.3787972318">
		<tag k="historic" v="boundary_stone" />
		<tag k="man_made" v="cairn" />
		<tag k="name" v="Fremjokksrøysa" />
		<tag k="name:no" v="Fremjokksrøysa" />
		<tag k="old_name:no" v="Fremsjocks Røset;Fremstcok røs" />
		<tag k="place" v="locality" />
		<tag k="ssr:stedsnr" v="656957" />
	</node>
	<node id="-16434" lat="65.2635599339" lon="14.4115644496">
		<tag k="historic" v="boundary_stone" />
		<tag k="man_made" v="cairn" />
		<tag k="name" v="Galpererøysa" />
		<tag k="name:no" v="Galpererøysa" />
		<tag k="place" v="locality" />
		<tag k="ssr:stedsnr" v="474961" />
	</node>
	<node id="-15857" lat="65.6129610137" lon="14.5213631467">
		<tag k="historic" v="boundary_stone" />
		<tag k="man_made" v="cairn" />
		<tag k="name" v="Forbefjellsrøysa" />
		<tag k="name:no" v="Forbefjellsrøysa" />
		<tag k="old_name:no" v="Forbefields Røset;Færbefjeld Røs" />
		<tag k="place" v="locality" />
		<tag k="ssr:stedsnr" v="595967" />
	</node>
	<node id="-15856" lat="65.7007472228" lon="14.5414583428">
		<tag k="historic" v="boundary_stone" />
		<tag k="man_made" v="cairn" />
		<tag k="name" v="Bukksfjellsrøysa" />
		<tag k="name:no" v="Bukksfjellsrøysa" />
		<tag k="old_name:no" v="Bruxtfields;Buksfjeld Røs" />
		<tag k="place" v="locality" />
		<tag k="ssr:stedsnr" v="595966" />
	</node>
	<node id="-16431" lat="65.5212978254" lon="14.4987625518">
		<tag k="historic" v="boundary_stone" />
		<tag k="man_made" v="cairn" />
		<tag k="name" v="Arerøysa" />
		<tag k="name:no" v="Arerøysa" />
		<tag k="old_name:no" v="Are-Røset;Are røs" />
		<tag k="place" v="locality" />
		<tag k="ssr:stedsnr" v="110958" />
	</node>
	<node id="-16435" lat="65.3739393688" lon="14.5020087877">
		<tag k="historic" v="boundary_stone" />
		<tag k="man_made" v="cairn" />
		<tag k="name" v="Amirrøysa" />
		<tag k="name:no" v="Amirrøysa" />
		<tag k="old_name:no" v="Amir Røset;Amir Røs" />
		<tag k="place" v="locality" />
		<tag k="ssr:stedsnr" v="777953" />
	</node>
	<node id="-14253" lat="65.4442000005" lon="14.5006888979">
		<tag k="historic" v="boundary_stone" />
		<tag k="man_made" v="cairn" />
		<tag k="name" v="Skardmodalselvsrøysa" />
		<tag k="name:no" v="Skardmodalselvsrøysa" />
		<tag k="old_name:no" v="Vefsen Elvs Røset;Vefsenelv Røs" />
		<tag k="place" v="locality" />
		<tag k="ssr:stedsnr" v="534962" />
	</node>
	<node id="-16408" lat="65.4196249961" lon="14.5011555439">
		<tag k="historic" v="boundary_stone" />
		<tag k="man_made" v="cairn" />
		<tag k="name" v="Gemsåiverøysa" />
		<tag k="name:no" v="Gemsåiverøysa" />
		<tag k="place" v="locality" />
		<tag k="ssr:stedsnr" v="959946" />
	</node>
	<node id="-16433" lat="65.2940917091" lon="14.4745389673">
		<tag k="historic" v="boundary_stone" />
		<tag k="man_made" v="cairn" />
		<tag k="name" v="Voltanrøysa" />
		<tag k="name:no" v="Voltanrøysa" />
		<tag k="place" v="locality" />
		<tag k="ssr:stedsnr" v="777949" />
	</node>
	<node id="-15138" lat="65.7853305584" lon="14.2190194432">
		<tag k="fixme" v="consider boundary=protected_area and relevant protect_class if not nature reserve" />
		<tag k="leisure" v="nature_reserve" />
		<tag k="name" v="Sørdalen  naturreservat" />
		<tag k="name:no" v="Sørdalen  naturreservat" />
		<tag k="ssr:stedsnr" v="116673" />
	</node>
</osm>
