<?xml version="1.0" encoding="UTF-8"?>
<<<<<<< HEAD
<osm version="0.6" generator="osmapis">
	<node lat="65.57021111411353" lon="14.278130557945959" id="-6595">
		<tag k="highway" v="path" />
		<tag k="name" v="Jordbrua" />
		<tag k="name:no" v="Jordbrua" />
		<tag k="ssr:stedsnr" v="216539" />
	</node>
	<node lat="65.59466388760104" lon="13.988127782717545" id="-6815">
		<tag k="aeroway" v="aerodrome" />
		<tag k="name" v="Hattfjelldal flyplass" />
		<tag k="name:no" v="Hattfjelldal flyplass" />
		<tag k="ssr:stedsnr" v="345215" />
	</node>
	<node lat="65.46698055249055" lon="14.336905551696594" id="-7112">
		<tag k="highway" v="path" />
		<tag k="name" v="Bergstien" />
		<tag k="name:no" v="Bergstien" />
		<tag k="ssr:stedsnr" v="520124" />
	</node>
	<node lat="65.49189444057022" lon="14.198886117383775" id="-7164">
=======
<osm generator="osmapis" version="0.6">
	<node id="-144656" lat="65.6539694449" lon="13.973327774">
		<tag k="fixme" v="consider highway=path" />
		<tag k="highway" v="track" />
		<tag k="name" v="Skogsvegen" />
		<tag k="name:no" v="Skogsvegen" />
		<tag k="ssr:stedsnr" v="398140" />
	</node>
	<node id="-143333" lat="65.4918944406" lon="14.1988861174">
>>>>>>> e1d4bc35ff8a6074a6f2e91616a996b547c36f15
		<tag k="highway" v="path" />
		<tag k="name" v="Vestervegen" />
		<tag k="name:no" v="Vestervegen" />
		<tag k="ssr:stedsnr" v="585509" />
	</node>
<<<<<<< HEAD
	<node lat="65.38965000280889" lon="14.033447214175512" id="-7349">
=======
	<node id="-143114" lat="65.64044722" lon="13.9572805586">
		<tag k="fixme" v="consider highway=path" />
		<tag k="highway" v="track" />
		<tag k="name" v="Skogsvegen" />
		<tag k="name:no" v="Skogsvegen" />
		<tag k="ssr:stedsnr" v="664373" />
	</node>
	<node id="-143258" lat="65.3896500028" lon="14.0334472142">
>>>>>>> e1d4bc35ff8a6074a6f2e91616a996b547c36f15
		<tag k="highway" v="path" />
		<tag k="name" v="Bråtenvegen" />
		<tag k="name:no" v="Bråtenvegen" />
		<tag k="ssr:stedsnr" v="701572" />
	</node>
<<<<<<< HEAD
	<node lat="65.69157500143963" lon="14.220344445210324" id="-7364">
		<tag k="highway" v="path" />
		<tag k="name" v="Svenskvegen" />
		<tag k="name:no" v="Svenskvegen" />
		<tag k="ssr:stedsnr" v="723585" />
	</node>
	<node lat="65.47826944531238" lon="14.343636114724356" id="-7369">
=======
	<node id="-143352" lat="65.4782694453" lon="14.3436361147">
>>>>>>> e1d4bc35ff8a6074a6f2e91616a996b547c36f15
		<tag k="highway" v="path" />
		<tag k="name" v="Akselvegen" />
		<tag k="name:no" v="Akselvegen" />
		<tag k="ssr:stedsnr" v="725719" />
	</node>
<<<<<<< HEAD
	<node lat="65.55910277418435" lon="14.381955564758545" id="-7461">
		<tag k="fixme" v="verify maritime location" />
		<tag k="mooring" v="yes" />
		<tag k="name" v="Gammelbåtstøa" />
		<tag k="name:no" v="Gammelbåtstøa" />
=======
	<node id="-145398" lat="65.4683027756" lon="14.3053777868">
		<tag k="highway" v="path" />
		<tag k="name" v="Pantdalsvegen" />
		<tag k="name:no" v="Pantdalsvegen" />
		<tag k="ssr:stedsnr" v="969625" />
	</node>
	<node id="-143506" lat="65.6915750014" lon="14.2203444452">
		<tag k="highway" v="path" />
		<tag k="name" v="Svenskvegen" />
		<tag k="name:no" v="Svenskvegen" />
		<tag k="ssr:stedsnr" v="723585" />
	</node>
	<node id="-145264" lat="65.4113083322" lon="14.2190944429">
		<tag k="ford" v="yes" />
		<tag k="name" v="Tinnbruvadet" />
		<tag k="name:no" v="Tinnbruvadet" />
>>>>>>> e1d4bc35ff8a6074a6f2e91616a996b547c36f15
		<tag k="place" v="locality" />
		<tag k="ssr:stedsnr" v="785708" />
	</node>
<<<<<<< HEAD
	<node lat="65.64978333145434" lon="13.96192776776966" id="-7911">
		<tag k="alt_name:no" v="Ruderåsvegen" />
=======
	<node id="-145231" lat="65.3673000012" lon="14.2644611063">
>>>>>>> e1d4bc35ff8a6074a6f2e91616a996b547c36f15
		<tag k="highway" v="path" />
		<tag k="name" v="Gamle Ruderåsvegen" />
		<tag k="name:no" v="Gamle Ruderåsvegen" />
		<tag k="ssr:stedsnr" v="95850" />
	</node>
<<<<<<< HEAD
	<node lat="65.60418611109455" lon="13.881441669383397" id="-8280">
=======
	<node id="-142990" lat="65.6041861111" lon="13.8814416694">
>>>>>>> e1d4bc35ff8a6074a6f2e91616a996b547c36f15
		<tag k="highway" v="path" />
		<tag k="name" v="Sætervegen" />
		<tag k="name:no" v="Sætervegen" />
		<tag k="ssr:stedsnr" v="362323" />
	</node>
<<<<<<< HEAD
	<node lat="65.65396944490863" lon="13.973327774007851" id="-8354">
		<tag k="fixme" v="consider highway=path" />
		<tag k="highway" v="track" />
		<tag k="name" v="Skogsvegen" />
		<tag k="name:no" v="Skogsvegen" />
		<tag k="ssr:stedsnr" v="398140" />
	</node>
	<node lat="65.38200833079814" lon="13.990030552145116" id="-8773">
=======
	<node id="-145130" lat="65.5591027742" lon="14.3819555648">
		<tag k="fixme" v="verify maritime location" />
		<tag k="mooring" v="yes" />
		<tag k="name" v="Gammelbåtstøa" />
		<tag k="name:no" v="Gammelbåtstøa" />
		<tag k="place" v="locality" />
		<tag k="ssr:stedsnr" v="785708" />
	</node>
	<node id="-142985" lat="65.5946638876" lon="13.9881277827">
		<tag k="aeroway" v="aerodrome" />
		<tag k="name" v="Hattfjelldal flyplass" />
		<tag k="name:no" v="Hattfjelldal flyplass" />
		<tag k="ssr:stedsnr" v="345215" />
	</node>
	<node id="-145384" lat="65.4917944436" lon="14.2070972243">
		<tag k="highway" v="path" />
		<tag k="name" v="Austervegen" />
		<tag k="name:no" v="Austervegen" />
		<tag k="ssr:stedsnr" v="950531" />
	</node>
	<node id="-143720" lat="65.4684083321" lon="14.3601583395">
		<tag k="highway" v="path" />
		<tag k="name" v="Livegen" />
		<tag k="name:no" v="Livegen" />
		<tag k="ssr:stedsnr" v="824165" />
	</node>
	<node id="-144965" lat="65.3820083308" lon="13.9900305521">
>>>>>>> e1d4bc35ff8a6074a6f2e91616a996b547c36f15
		<tag k="highway" v="path" />
		<tag k="name" v="Midterlivegen" />
		<tag k="name:no" v="Midterlivegen" />
		<tag k="ssr:stedsnr" v="639582" />
	</node>
<<<<<<< HEAD
	<node lat="65.6404472199572" lon="13.957280558558692" id="-8819">
		<tag k="fixme" v="consider highway=path" />
		<tag k="highway" v="track" />
		<tag k="name" v="Skogsvegen" />
		<tag k="name:no" v="Skogsvegen" />
		<tag k="ssr:stedsnr" v="664373" />
	</node>
	<node lat="65.36730000123463" lon="14.264461106294613" id="-8984">
=======
	<node id="-144708" lat="65.4669805525" lon="14.3369055517">
>>>>>>> e1d4bc35ff8a6074a6f2e91616a996b547c36f15
		<tag k="highway" v="path" />
		<tag k="name" v="Finnburvegen" />
		<tag k="name:no" v="Finnburvegen" />
		<tag k="ssr:stedsnr" v="823139" />
	</node>
<<<<<<< HEAD
	<node lat="65.46840833205505" lon="14.360158339469006" id="-9000">
=======
	<node id="-144355" lat="65.5702111141" lon="14.2781305579">
>>>>>>> e1d4bc35ff8a6074a6f2e91616a996b547c36f15
		<tag k="highway" v="path" />
		<tag k="name" v="Jordbrua" />
		<tag k="name:no" v="Jordbrua" />
		<tag k="ssr:stedsnr" v="216539" />
	</node>
	<node id="-144104" lat="65.6497833315" lon="13.9619277678">
		<tag k="alt_name:no" v="Ruderåsvegen" />
		<tag k="highway" v="path" />
		<tag k="name" v="Gamle Ruderåsvegen" />
		<tag k="name:no" v="Gamle Ruderåsvegen" />
		<tag k="ssr:stedsnr" v="95850" />
	</node>
	<node lat="65.4113083321729" lon="14.219094442922257" id="-9008">
		<tag k="ford" v="yes" />
		<tag k="name" v="Tinnbruvadet" />
		<tag k="name:no" v="Tinnbruvadet" />
		<tag k="place" v="locality" />
		<tag k="ssr:stedsnr" v="829545" />
	</node>
	<node lat="65.49179444357365" lon="14.20709722428597" id="-9208">
		<tag k="highway" v="path" />
		<tag k="name" v="Austervegen" />
		<tag k="name:no" v="Austervegen" />
		<tag k="ssr:stedsnr" v="950531" />
	</node>
	<node lat="65.4683027756418" lon="14.305377786775933" id="-9217">
		<tag k="highway" v="path" />
		<tag k="name" v="Pantdalsvegen" />
		<tag k="name:no" v="Pantdalsvegen" />
		<tag k="ssr:stedsnr" v="969625" />
	</node>
</osm>
