<?xml version="1.0" encoding="UTF-8"?>
<<<<<<< HEAD
<osm version="0.6" generator="osmapis">
	<node lat="65.79466666478474" lon="14.186116676918925" id="-6526">
		<tag k="name" v="Sørdalsbukta" />
		<tag k="name:no" v="Sørdalsbukta" />
		<tag k="natural" v="bay" />
		<tag k="ssr:stedsnr" v="197112" />
	</node>
	<node lat="65.7619638866586" lon="14.12072222531474" id="-7031">
		<tag k="name" v="Storsteinneset" />
		<tag k="name:no" v="Storsteinneset" />
		<tag k="natural" v="cape" />
		<tag k="ssr:stedsnr" v="501089" />
	</node>
	<node lat="65.77401666926735" lon="14.153269436801612" id="-7044">
=======
<osm generator="osmapis" version="0.6">
	<node id="-143392" lat="65.7740166693" lon="14.1532694368">
>>>>>>> e1d4bc35ff8a6074a6f2e91616a996b547c36f15
		<tag k="name" v="Rabbneset" />
		<tag k="name:no" v="Rabbneset" />
		<tag k="natural" v="cape" />
		<tag k="ssr:stedsnr" v="682115" />
	</node>
<<<<<<< HEAD
	<node lat="65.81869444140204" lon="14.161419447006985" id="-7050">
		<tag k="name" v="Tolkneset" />
		<tag k="name:no" v="Tolkneset" />
		<tag k="natural" v="cape" />
		<tag k="ssr:stedsnr" v="682149" />
	</node>
	<node lat="65.83624444340288" lon="14.191269442559541" id="-7067">
		<tag k="name" v="Reinhagodden" />
		<tag k="name:no" v="Reinhagodden" />
		<tag k="natural" v="cape" />
		<tag k="ssr:stedsnr" v="683123" />
	</node>
	<node lat="65.8285166654247" lon="14.178583330956524" id="-7291">
		<tag k="alt_name:no" v="Gardneset" />
		<tag k="name" v="Gardsneset" />
		<tag k="name:no" v="Gardsneset" />
=======
	<node id="-143035" lat="65.8551472197" lon="14.1833333376">
		<tag k="name" v="Hjartfjellneset" />
		<tag k="name:no" v="Hjartfjellneset" />
>>>>>>> e1d4bc35ff8a6074a6f2e91616a996b547c36f15
		<tag k="natural" v="cape" />
		<tag k="ssr:stedsnr" v="682158" />
	</node>
<<<<<<< HEAD
	<node lat="65.76665833660633" lon="13.961766668587641" id="-7378">
=======
	<node id="-143514" lat="65.7666583366" lon="13.9617666686">
>>>>>>> e1d4bc35ff8a6074a6f2e91616a996b547c36f15
		<tag k="name" v="Skogholmen" />
		<tag k="name:no" v="Skogholmen" />
		<tag k="place" v="islet" />
		<tag k="ssr:stedsnr" v="743103" />
	</node>
<<<<<<< HEAD
	<node lat="65.76480832966337" lon="14.139969435604767" id="-7470">
		<tag k="name" v="Sørrabbneset" />
		<tag k="name:no" v="Sørrabbneset" />
=======
	<node id="-143993" lat="65.7807999986" lon="14.1679027778">
		<tag k="name" v="Fjølbuneset" />
		<tag k="name:no" v="Fjølbuneset" />
		<tag k="natural" v="cape" />
		<tag k="ssr:stedsnr" v="76133" />
	</node>
	<node id="-145156" lat="65.7648083297" lon="14.1399694356">
		<tag k="name" v="Sørrabbneset" />
		<tag k="name:no" v="Sørrabbneset" />
		<tag k="natural" v="cape" />
		<tag k="ssr:stedsnr" v="804118" />
	</node>
	<node id="-143030" lat="65.768902777" lon="14.1499444393">
		<tag k="name" v="Rabbukta" />
		<tag k="name:no" v="Rabbukta" />
		<tag k="natural" v="bay" />
		<tag k="ssr:stedsnr" v="501091" />
	</node>
	<node id="-145305" lat="65.7897500028" lon="14.190583344">
		<tag k="name" v="Leirelvneset" />
		<tag k="name:no" v="Leirelvneset" />
>>>>>>> e1d4bc35ff8a6074a6f2e91616a996b547c36f15
		<tag k="natural" v="cape" />
		<tag k="ssr:stedsnr" v="804118" />
	</node>
<<<<<<< HEAD
	<node lat="65.80645106703979" lon="14.165722703335042" id="-7555">
		<tag k="name" v="Høystakkneset" />
		<tag k="name:no" v="Høystakkneset" />
		<tag k="natural" v="cape" />
		<tag k="ssr:stedsnr" v="925134" />
	</node>
	<node lat="65.8445500023868" lon="14.189875003251336" id="-7723">
		<tag k="name" v="Kvervodden" />
		<tag k="name:no" v="Kvervodden" />
=======
	<node id="-143028" lat="65.7619638867" lon="14.1207222253">
		<tag k="name" v="Storsteinneset" />
		<tag k="name:no" v="Storsteinneset" />
>>>>>>> e1d4bc35ff8a6074a6f2e91616a996b547c36f15
		<tag k="natural" v="cape" />
		<tag k="ssr:stedsnr" v="15165" />
	</node>
<<<<<<< HEAD
	<node lat="65.78079999858592" lon="14.16790277775787" id="-7850">
		<tag k="name" v="Fjølbuneset" />
		<tag k="name:no" v="Fjølbuneset" />
=======
	<node id="-145315" lat="65.8515499987" lon="14.1801138994">
		<tag k="alt_name:no" v="Forneset" />
		<tag k="name" v="Forrneset" />
		<tag k="name:no" v="Forrneset" />
		<tag k="natural" v="cape" />
		<tag k="ssr:stedsnr" v="865187" />
	</node>
	<node id="-143396" lat="65.8285166654" lon="14.178583331">
		<tag k="alt_name:no" v="Gardneset" />
		<tag k="name" v="Gardsneset" />
		<tag k="name:no" v="Gardsneset" />
>>>>>>> e1d4bc35ff8a6074a6f2e91616a996b547c36f15
		<tag k="natural" v="cape" />
		<tag k="ssr:stedsnr" v="76133" />
	</node>
<<<<<<< HEAD
	<node lat="65.85961389045345" lon="14.210474995030413" id="-7938">
=======
	<node id="-144150" lat="65.8596138905" lon="14.210474995">
>>>>>>> e1d4bc35ff8a6074a6f2e91616a996b547c36f15
		<tag k="name" v="Meisvikodden" />
		<tag k="name:no" v="Meisvikodden" />
		<tag k="natural" v="cape" />
		<tag k="ssr:stedsnr" v="136186" />
	</node>
<<<<<<< HEAD
	<node lat="65.76890277697427" lon="14.149944439291891" id="-8480">
		<tag k="name" v="Rabbukta" />
		<tag k="name:no" v="Rabbukta" />
		<tag k="natural" v="bay" />
		<tag k="ssr:stedsnr" v="501091" />
	</node>
	<node lat="65.85514721974259" lon="14.183333337627852" id="-8483">
		<tag k="name" v="Hjartfjellneset" />
		<tag k="name:no" v="Hjartfjellneset" />
		<tag k="natural" v="cape" />
		<tag k="ssr:stedsnr" v="501157" />
	</node>
	<node lat="65.77627221869406" lon="13.929166673673446" id="-8832">
		<tag k="name" v="Kjerringnesodden" />
		<tag k="name:no" v="Kjerringnesodden" />
		<tag k="natural" v="cape" />
		<tag k="ssr:stedsnr" v="743119" />
	</node>
	<node lat="65.85154999871814" lon="14.180113899432968" id="-9026">
		<tag k="alt_name:no" v="Forneset" />
		<tag k="name" v="Forrneset" />
		<tag k="name:no" v="Forrneset" />
=======
	<node id="-143594" lat="65.8064333351" lon="14.1658083368">
		<tag k="name" v="Høystakkneset" />
		<tag k="name:no" v="Høystakkneset" />
		<tag k="natural" v="cape" />
		<tag k="ssr:stedsnr" v="925134" />
	</node>
	<node id="-143817" lat="65.8445500024" lon="14.1898750033">
		<tag k="name" v="Kvervodden" />
		<tag k="name:no" v="Kvervodden" />
		<tag k="natural" v="cape" />
		<tag k="ssr:stedsnr" v="15165" />
	</node>
	<node id="-142631" lat="65.7946666648" lon="14.1861166769">
		<tag k="name" v="Sørdalsbukta" />
		<tag k="name:no" v="Sørdalsbukta" />
		<tag k="natural" v="bay" />
		<tag k="ssr:stedsnr" v="197112" />
	</node>
	<node id="-143185" lat="65.8186944414" lon="14.161419447">
		<tag k="name" v="Tolkneset" />
		<tag k="name:no" v="Tolkneset" />
		<tag k="natural" v="cape" />
		<tag k="ssr:stedsnr" v="682149" />
	</node>
	<node id="-143204" lat="65.8362444434" lon="14.1912694426">
		<tag k="name" v="Reinhagodden" />
		<tag k="name:no" v="Reinhagodden" />
>>>>>>> e1d4bc35ff8a6074a6f2e91616a996b547c36f15
		<tag k="natural" v="cape" />
		<tag k="ssr:stedsnr" v="683123" />
	</node>
	<node id="-143990" lat="65.7934083367" lon="14.1990583416">
		<tag k="name" v="Sørdalsaven" />
		<tag k="name:no" v="Sørdalsaven" />
		<tag k="natural" v="bay" />
		<tag k="ssr:stedsnr" v="76121" />
	</node>
	<node id="-145014" lat="65.7762722187" lon="13.9291666737">
		<tag k="name" v="Kjerringnesodden" />
		<tag k="name:no" v="Kjerringnesodden" />
		<tag k="natural" v="cape" />
		<tag k="ssr:stedsnr" v="743119" />
	</node>
	<node lat="65.78975000280593" lon="14.19058334397492" id="-9052">
		<tag k="name" v="Leirelvneset" />
		<tag k="name:no" v="Leirelvneset" />
		<tag k="natural" v="cape" />
		<tag k="ssr:stedsnr" v="865129" />
	</node>
</osm>
