<?xml version="1.0" encoding="UTF-8"?>
<osm generator="osmapis" version="0.6">
	<node id="-143358" lat="65.4518111086" lon="14.049750002">
		<tag k="name" v="Kujotmyra" />
		<tag k="name:no" v="Kujotmyra" />
		<tag k="natural" v="wetland" />
		<tag k="ssr:stedsnr" v="640853" />
	</node>
	<node id="-145400" lat="65.6105138907" lon="14.0520722267">
		<tag k="name" v="Nesan" />
		<tag k="name:no" v="Nesan" />
		<tag k="place" v="locality" />
		<tag k="ssr:stedsnr" v="969743" />
	</node>
	<node id="-143350" lat="65.8500750037" lon="14.2568555631">
		<tag k="name" v="Blautenget" />
		<tag k="name:no" v="Blautenget" />
		<tag k="natural" v="wetland" />
		<tag k="ssr:stedsnr" v="725702" />
	</node>
	<node id="-145397" lat="65.5179666675" lon="14.1344361081">
		<tag k="name" v="Luspmyra" />
		<tag k="name:no" v="Luspmyra" />
		<tag k="natural" v="wetland" />
		<tag k="ssr:stedsnr" v="969145" />
	</node>
	<node id="-143348" lat="65.5268750005" lon="14.0096111093">
		<tag k="landuse" v="meadow" />
		<tag k="name" v="Lillevollen" />
		<tag k="name:no" v="Lillevollen" />
		<tag k="ssr:stedsnr" v="725142" />
	</node>
	<node id="-145395" lat="65.8282944459" lon="14.2229916571">
		<tag k="name" v="Lassemyra" />
		<tag k="name:no" v="Lassemyra" />
		<tag k="natural" v="wetland" />
		<tag k="ssr:stedsnr" v="967602" />
	</node>
	<node id="-145394" lat="65.5502527735" lon="14.2245722318">
		<tag k="name" v="Oksmyra" />
		<tag k="name:no" v="Oksmyra" />
		<tag k="natural" v="wetland" />
		<tag k="ssr:stedsnr" v="965634" />
	</node>
	<node id="-145392" lat="65.5384333298" lon="14.2187750091">
		<tag k="name" v="Brannmyra" />
		<tag k="name:no" v="Brannmyra" />
		<tag k="natural" v="wetland" />
		<tag k="ssr:stedsnr" v="965625" />
	</node>
	<node id="-143342" lat="65.8594333299" lon="14.2387055503">
		<tag k="name" v="Mulakløbbmyra" />
		<tag k="name:no" v="Mulakløbbmyra" />
		<tag k="natural" v="wetland" />
		<tag k="ssr:stedsnr" v="603626" />
	</node>
	<node id="-145387" lat="65.4454777762" lon="14.4698444349">
		<tag k="name" v="Maritmyra" />
		<tag k="name:no" v="Maritmyra" />
		<tag k="natural" v="wetland" />
		<tag k="ssr:stedsnr" v="951864" />
	</node>
	<node id="-143338" lat="65.5537888924" lon="14.2160861075">
		<tag k="name" v="Reinkalvmyra" />
		<tag k="name:no" v="Reinkalvmyra" />
		<tag k="natural" v="wetland" />
		<tag k="ssr:stedsnr" v="601613" />
	</node>
	<node id="-145385" lat="65.6592250025" lon="13.7804277725">
		<tag k="name" v="Rundhaugmyra" />
		<tag k="name:no" v="Rundhaugmyra" />
		<tag k="natural" v="wetland" />
		<tag k="ssr:stedsnr" v="951293" />
	</node>
	<node id="-143325" lat="65.6092138866" lon="13.9696249954">
		<tag k="name" v="Falkflogmyran" />
		<tag k="name:no" v="Falkflogmyran" />
		<tag k="natural" v="wetland" />
		<tag k="ssr:stedsnr" v="580461" />
	</node>
	<node id="-143324" lat="65.5786000014" lon="14.1804166611">
		<tag k="name" v="Lillekartmyra" />
		<tag k="name:no" v="Lillekartmyra" />
		<tag k="natural" v="wetland" />
		<tag k="ssr:stedsnr" v="580406" />
	</node>
	<node id="-143319" lat="65.4655555587" lon="13.9962194518">
		<tag k="name" v="Øl-Hansamyra" />
		<tag k="name:no" v="Øl-Hansamyra" />
		<tag k="natural" v="wetland" />
		<tag k="ssr:stedsnr" v="580316" />
	</node>
	<node id="-143316" lat="65.6493416693" lon="14.0379388872">
		<tag k="name" v="Stormyra" />
		<tag k="name:no" v="Stormyra" />
		<tag k="natural" v="wetland" />
		<tag k="ssr:stedsnr" v="580113" />
	</node>
	<node id="-145339" lat="65.6505194431" lon="13.9565305592">
		<tag k="name" v="Stormyra" />
		<tag k="name:no" v="Stormyra" />
		<tag k="natural" v="wetland" />
		<tag k="ssr:stedsnr" v="865447" />
	</node>
	<node id="-143287" lat="65.5261388892" lon="14.1089361095">
		<tag k="name" v="Stormyra" />
		<tag k="name:no" v="Stormyra" />
		<tag k="natural" v="wetland" />
		<tag k="ssr:stedsnr" v="561159" />
	</node>
	<node id="-143284" lat="65.7770694478" lon="14.2051805604">
		<tag k="name" v="Koteskogen" />
		<tag k="name:no" v="Koteskogen" />
		<tag k="place" v="locality" />
		<tag k="ssr:stedsnr" v="561104" />
	</node>
	<node id="-143347" lat="65.5591750035" lon="14.3273027743">
		<tag k="name" v="Hagan" />
		<tag k="name:no" v="Hagan" />
		<tag k="place" v="locality" />
		<tag k="ssr:stedsnr" v="724713" />
	</node>
	<node id="-144712" lat="65.4596333312" lon="14.4020611038">
		<tag k="name" v="Stormyra" />
		<tag k="name:no" v="Stormyra" />
		<tag k="natural" v="wetland" />
		<tag k="ssr:stedsnr" v="520478" />
	</node>
	<node id="-143267" lat="65.595272223" lon="13.9858388837">
		<tag k="name" v="Vollen" />
		<tag k="name:no" v="Vollen" />
		<tag k="place" v="locality" />
		<tag k="ssr:stedsnr" v="701914" />
	</node>
	<node id="-145304" lat="65.6312" lon="14.0968888959">
		<tag k="name" v="Pålmyra" />
		<tag k="name:no" v="Pålmyra" />
		<tag k="natural" v="wetland" />
		<tag k="ssr:stedsnr" v="865122" />
	</node>
	<node id="-143254" lat="65.5837388876" lon="14.1733805485">
		<tag k="name" v="Langmyråsmyran" />
		<tag k="name:no" v="Langmyråsmyran" />
		<tag k="natural" v="wetland" />
		<tag k="ssr:stedsnr" v="701230" />
	</node>
	<node id="-143252" lat="65.375791665" lon="14.2168583274">
		<tag k="landuse" v="meadow" />
		<tag k="name" v="Gammelklokkarslåtta" />
		<tag k="name:no" v="Gammelklokkarslåtta" />
		<tag k="ssr:stedsnr" v="701270" />
	</node>
	<node id="-145296" lat="65.5784055521" lon="14.0581472177">
		<tag k="name" v="Vargmyran" />
		<tag k="name:no" v="Vargmyran" />
		<tag k="natural" v="wetland" />
		<tag k="ssr:stedsnr" v="865055" />
	</node>
	<node id="-143246" lat="65.378161112" lon="13.9810138886">
		<tag k="name" v="Stormyra" />
		<tag k="name:no" v="Stormyra" />
		<tag k="natural" v="wetland" />
		<tag k="ssr:stedsnr" v="700585" />
	</node>
	<node id="-143243" lat="65.6264777802" lon="13.9317583419">
		<tag k="name" v="Rundmyra" />
		<tag k="name:no" v="Rundmyra" />
		<tag k="natural" v="wetland" />
		<tag k="ssr:stedsnr" v="544455" />
	</node>
	<node id="-143238" lat="65.5420527813" lon="14.2268277752">
		<tag k="name" v="Mærkesmyra" />
		<tag k="name:no" v="Mærkesmyra" />
		<tag k="natural" v="wetland" />
		<tag k="ssr:stedsnr" v="541637" />
	</node>
	<node id="-145284" lat="65.6362666629" lon="13.9720499972">
		<tag k="name" v="Kløpmyra" />
		<tag k="name:no" v="Kløpmyra" />
		<tag k="natural" v="wetland" />
		<tag k="ssr:stedsnr" v="848477" />
	</node>
	<node id="-145282" lat="65.6274111093" lon="13.9524194402">
		<tag k="name" v="Arkfjellmyra" />
		<tag k="name:no" v="Arkfjellmyra" />
		<tag k="natural" v="wetland" />
		<tag k="ssr:stedsnr" v="848466" />
	</node>
	<node id="-143339" lat="65.5680777791" lon="14.346141672">
		<tag k="name" v="Hestmyra" />
		<tag k="name:no" v="Hestmyra" />
		<tag k="natural" v="wetland" />
		<tag k="ssr:stedsnr" v="602724" />
	</node>
	<node id="-145278" lat="65.5485166696" lon="14.2399083432">
		<tag k="name" v="Stormyra" />
		<tag k="name:no" v="Stormyra" />
		<tag k="natural" v="wetland" />
		<tag k="ssr:stedsnr" v="844639" />
	</node>
	<node id="-144021" lat="65.6362972211" lon="13.8805611183">
		<tag k="name" v="Stormyra" />
		<tag k="name:no" v="Stormyra" />
		<tag k="natural" v="wetland" />
		<tag k="ssr:stedsnr" v="76432" />
	</node>
	<node id="-143337" lat="65.4557305537" lon="14.461783343">
		<tag k="name" v="Storsteinan" />
		<tag k="name:no" v="Storsteinan" />
		<tag k="natural" v="stone" />
		<tag k="ssr:stedsnr" v="587868" />
	</node>
	<node id="-143210" lat="65.5702138912" lon="14.1079555577">
		<tag k="name" v="Endelausmyran" />
		<tag k="name:no" v="Endelausmyran" />
		<tag k="natural" v="wetland" />
		<tag k="ssr:stedsnr" v="683201" />
	</node>
	<node id="-143207" lat="65.5264750001" lon="14.1434250062">
		<tag k="alt_name:no" v="Tjøradalsmyra" />
		<tag k="name" v="Tjærdalsmyra" />
		<tag k="name:no" v="Tjærdalsmyra" />
		<tag k="natural" v="wetland" />
		<tag k="ssr:stedsnr" v="683143" />
	</node>
	<node id="-143206" lat="65.5310333302" lon="14.093238896">
		<tag k="alt_name:no" v="Storveltet" />
		<tag k="name" v="Storvelta" />
		<tag k="name:no" v="Storvelta" />
		<tag k="place" v="locality" />
		<tag k="ssr:stedsnr" v="683141" />
	</node>
	<node id="-145252" lat="65.6140027795" lon="14.0448027763">
		<tag k="name" v="Langmyra" />
		<tag k="name:no" v="Langmyra" />
		<tag k="natural" v="wetland" />
		<tag k="ssr:stedsnr" v="823686" />
	</node>
	<node id="-145251" lat="65.5156444405" lon="14.0293722178">
		<tag k="name" v="Unkerelvmyra" />
		<tag k="name:no" v="Unkerelvmyra" />
		<tag k="natural" v="wetland" />
		<tag k="ssr:stedsnr" v="823545" />
	</node>
	<node id="-145249" lat="65.531488893" lon="14.2175111068">
		<tag k="name" v="Mostermyra" />
		<tag k="name:no" v="Mostermyra" />
		<tag k="natural" v="wetland" />
		<tag k="ssr:stedsnr" v="823833" />
	</node>
	<node id="-145245" lat="65.5948972207" lon="14.082380546">
		<tag k="name" v="Bærmyra" />
		<tag k="name:no" v="Bærmyra" />
		<tag k="natural" v="wetland" />
		<tag k="ssr:stedsnr" v="823646" />
	</node>
	<node id="-145244" lat="65.6000388925" lon="14.0898777837">
		<tag k="name" v="Storlamyra" />
		<tag k="name:no" v="Storlamyra" />
		<tag k="natural" v="wetland" />
		<tag k="ssr:stedsnr" v="823644" />
	</node>
	<node id="-145241" lat="65.5644611108" lon="14.1692916611">
		<tag k="name" v="Austerstormyra" />
		<tag k="name:no" v="Austerstormyra" />
		<tag k="natural" v="wetland" />
		<tag k="ssr:stedsnr" v="823429" />
	</node>
	<node id="-143192" lat="65.4600833362" lon="14.1423555474">
		<tag k="name" v="Haugbakkmyra" />
		<tag k="name:no" v="Haugbakkmyra" />
		<tag k="natural" v="wetland" />
		<tag k="ssr:stedsnr" v="682875" />
	</node>
	<node id="-143190" lat="65.6723583317" lon="13.908583324">
		<tag k="name" v="Skjånesmyran" />
		<tag k="name:no" v="Skjånesmyran" />
		<tag k="natural" v="wetland" />
		<tag k="ssr:stedsnr" v="682543" />
	</node>
	<node id="-145236" lat="65.5591111119" lon="14.1559444399">
		<tag k="name" v="Benjamenmyra" />
		<tag k="name:no" v="Benjamenmyra" />
		<tag k="natural" v="wetland" />
		<tag k="ssr:stedsnr" v="823403" />
	</node>
	<node id="-145234" lat="65.4258888921" lon="13.941530564">
		<tag k="landuse" v="meadow" />
		<tag k="name" v="Holenget" />
		<tag k="name:no" v="Holenget" />
		<tag k="ssr:stedsnr" v="823227" />
	</node>
	<node id="-145229" lat="65.3684805527" lon="14.2223861052">
		<tag k="landuse" v="meadow" />
		<tag k="name" v="Vinterlaenget" />
		<tag k="name:no" v="Vinterlaenget" />
		<tag k="ssr:stedsnr" v="823198" />
	</node>
	<node id="-145224" lat="65.6948194422" lon="14.1570583359">
		<tag k="name" v="Limyran" />
		<tag k="name:no" v="Limyran" />
		<tag k="natural" v="wetland" />
		<tag k="ssr:stedsnr" v="823114" />
	</node>
	<node id="-145222" lat="65.7019805573" lon="13.9142250066">
		<tag k="landuse" v="meadow" />
		<tag k="name" v="Lillenget" />
		<tag k="name:no" v="Lillenget" />
		<tag k="ssr:stedsnr" v="823102" />
	</node>
	<node id="-145221" lat="65.3916944445" lon="14.013808338">
		<tag k="name" v="Solhaugmyra" />
		<tag k="name:no" v="Solhaugmyra" />
		<tag k="natural" v="wetland" />
		<tag k="ssr:stedsnr" v="822596" />
	</node>
	<node id="-145218" lat="65.5888333343" lon="14.0901194442">
		<tag k="landuse" v="meadow" />
		<tag k="name" v="Bergtun" />
		<tag k="name:no" v="Bergtun" />
		<tag k="ssr:stedsnr" v="822291" />
	</node>
	<node id="-145216" lat="65.6290305511" lon="14.054611117">
		<tag k="landuse" v="meadow" />
		<tag k="name" v="Krokenget" />
		<tag k="name:no" v="Krokenget" />
		<tag k="ssr:stedsnr" v="822092" />
	</node>
	<node id="-143166" lat="65.798663893" lon="14.4595694512">
		<tag k="name" v="Storsletta" />
		<tag k="name:no" v="Storsletta" />
		<tag k="natural" v="wetland" />
		<tag k="ssr:stedsnr" v="501455" />
	</node>
	<node id="-145202" lat="65.6716166694" lon="14.4942805581">
		<tag k="name" v="Raudvassmyran" />
		<tag k="name:no" v="Raudvassmyran" />
		<tag k="natural" v="wetland" />
		<tag k="ssr:stedsnr" v="804854" />
	</node>
	<node id="-143152" lat="65.5721444474" lon="14.3080333307">
		<tag k="name" v="Elsvassmyra" />
		<tag k="name:no" v="Elsvassmyra" />
		<tag k="natural" v="wetland" />
		<tag k="ssr:stedsnr" v="500863" />
	</node>
	<node id="-145197" lat="65.6683916634" lon="13.9485000088">
		<tag k="alt_name:no" v="Nordengmyra" />
		<tag k="name" v="Nordengmyran" />
		<tag k="name:no" v="Nordengmyran" />
		<tag k="natural" v="wetland" />
		<tag k="ssr:stedsnr" v="804523" />
	</node>
	<node id="-143146" lat="65.6502249992" lon="13.8762194352">
		<tag k="alt_name:no" v="Øvermyran" />
		<tag k="name" v="Øvermyra" />
		<tag k="name:no" v="Øvermyra" />
		<tag k="natural" v="wetland" />
		<tag k="ssr:stedsnr" v="500466" />
	</node>
	<node id="-143140" lat="65.6064388879" lon="13.8098499937">
		<tag k="name" v="Blautmyra" />
		<tag k="name:no" v="Blautmyra" />
		<tag k="natural" v="wetland" />
		<tag k="ssr:stedsnr" v="500107" />
	</node>
	<node id="-143133" lat="65.6679805589" lon="13.9475388962">
		<tag k="name" v="Nordenget" />
		<tag k="name:no" v="Nordenget" />
		<tag k="place" v="locality" />
		<tag k="ssr:stedsnr" v="480404" />
	</node>
	<node id="-143126" lat="65.6979972195" lon="13.7405333255">
		<tag k="name" v="Apfjellmyrene" />
		<tag k="name:no" v="Apfjellmyrene" />
		<tag k="natural" v="wetland" />
		<tag k="ssr:stedsnr" v="465117" />
	</node>
	<node id="-143125" lat="65.5203499982" lon="14.1625416621">
		<tag k="name" v="Småholmmyra" />
		<tag k="name:no" v="Småholmmyra" />
		<tag k="natural" v="wetland" />
		<tag k="ssr:stedsnr" v="666138" />
	</node>
	<node id="-145164" lat="65.653083336" lon="14.018561116">
		<tag k="name" v="Nordtjønnmyra" />
		<tag k="name:no" v="Nordtjønnmyra" />
		<tag k="natural" v="wetland" />
		<tag k="ssr:stedsnr" v="804431" />
	</node>
	<node id="-143111" lat="65.5680055532" lon="14.2433055492">
		<tag k="name" v="Lamyra" />
		<tag k="name:no" v="Lamyra" />
		<tag k="natural" v="wetland" />
		<tag k="ssr:stedsnr" v="663603" />
	</node>
	<node id="-143110" lat="65.540433331" lon="14.2416166636">
		<tag k="name" v="Momyra" />
		<tag k="name:no" v="Momyra" />
		<tag k="natural" v="wetland" />
		<tag k="ssr:stedsnr" v="662598" />
	</node>
	<node id="-145154" lat="65.6224777735" lon="13.8770750011">
		<tag k="name" v="Forsmyra" />
		<tag k="name:no" v="Forsmyra" />
		<tag k="natural" v="wetland" />
		<tag k="ssr:stedsnr" v="804109" />
	</node>
	<node id="-145139" lat="65.5995444492" lon="14.028099992">
		<tag k="name" v="Prestegårdsskogen" />
		<tag k="name:no" v="Prestegårdsskogen" />
		<tag k="place" v="locality" />
		<tag k="ssr:stedsnr" v="804016" />
	</node>
	<node id="-143090" lat="65.6934166638" lon="13.8902416614">
		<tag k="name" v="Nordenget" />
		<tag k="name:no" v="Nordenget" />
		<tag k="natural" v="wetland" />
		<tag k="ssr:stedsnr" v="519521" />
	</node>
	<node id="-145136" lat="65.5282111137" lon="14.1480833265">
		<tag k="name" v="Bjørnmyra" />
		<tag k="name:no" v="Bjørnmyra" />
		<tag k="natural" v="wetland" />
		<tag k="ssr:stedsnr" v="804190" />
	</node>
	<node id="-143087" lat="65.7208694475" lon="13.9621500018">
		<tag k="name" v="Skarpmyra" />
		<tag k="name:no" v="Skarpmyra" />
		<tag k="natural" v="wetland" />
		<tag k="ssr:stedsnr" v="519446" />
	</node>
	<node id="-145132" lat="65.6026638914" lon="13.9041805468">
		<tag k="name" v="Småmyran" />
		<tag k="name:no" v="Småmyran" />
		<tag k="natural" v="wetland" />
		<tag k="ssr:stedsnr" v="787316" />
	</node>
	<node id="-143082" lat="65.3735305536" lon="14.2292722225">
		<tag k="name" v="Gørmyra" />
		<tag k="name:no" v="Gørmyra" />
		<tag k="natural" v="wetland" />
		<tag k="ssr:stedsnr" v="519232" />
	</node>
	<node id="-145129" lat="65.8290583376" lon="14.2009472204">
		<tag k="name" v="Stormyra" />
		<tag k="name:no" v="Stormyra" />
		<tag k="natural" v="wetland" />
		<tag k="ssr:stedsnr" v="785624" />
	</node>
	<node id="-143078" lat="65.5836249985" lon="14.1368305616">
		<tag k="name" v="Stormyra" />
		<tag k="name:no" v="Stormyra" />
		<tag k="natural" v="wetland" />
		<tag k="ssr:stedsnr" v="519204" />
	</node>
	<node id="-143077" lat="65.5858444466" lon="14.1326805507">
		<tag k="name" v="Geitklauvmyra" />
		<tag k="name:no" v="Geitklauvmyra" />
		<tag k="natural" v="wetland" />
		<tag k="ssr:stedsnr" v="519201" />
	</node>
	<node id="-143072" lat="65.6656638858" lon="13.8072055526">
		<tag k="name" v="Øvremyra" />
		<tag k="name:no" v="Øvremyra" />
		<tag k="natural" v="wetland" />
		<tag k="ssr:stedsnr" v="518578" />
	</node>
	<node id="-143065" lat="65.5561805541" lon="14.1437388831">
		<tag k="name" v="Erikmyra" />
		<tag k="name:no" v="Erikmyra" />
		<tag k="natural" v="wetland" />
		<tag k="ssr:stedsnr" v="424229" />
	</node>
	<node id="-143069" lat="65.6202166626" lon="14.0368444346">
		<tag k="name" v="Storlamyra" />
		<tag k="name:no" v="Storlamyra" />
		<tag k="natural" v="wetland" />
		<tag k="ssr:stedsnr" v="519717" />
	</node>
	<node id="-145116" lat="65.6396777798" lon="13.9602888997">
		<tag k="name" v="Trettarlandet" />
		<tag k="name:no" v="Trettarlandet" />
		<tag k="place" v="locality" />
		<tag k="ssr:stedsnr" v="762835" />
	</node>
	<node id="-145115" lat="65.5590333309" lon="14.2325416761">
		<tag k="name" v="Langremsa" />
		<tag k="name:no" v="Langremsa" />
		<tag k="natural" v="wetland" />
		<tag k="ssr:stedsnr" v="762771" />
	</node>
	<node id="-145114" lat="65.5667388851" lon="14.2132027669">
		<tag k="name" v="Bekkmyra" />
		<tag k="name:no" v="Bekkmyra" />
		<tag k="natural" v="wetland" />
		<tag k="ssr:stedsnr" v="762756" />
	</node>
	<node id="-145113" lat="65.6226833349" lon="13.9432500032">
		<tag k="landuse" v="meadow" />
		<tag k="name" v="Innerslåtten" />
		<tag k="name:no" v="Innerslåtten" />
		<tag k="ssr:stedsnr" v="762695" />
	</node>
	<node id="-143063" lat="65.8137694479" lon="14.3153694376">
		<tag k="name" v="Langmyra" />
		<tag k="name:no" v="Langmyra" />
		<tag k="natural" v="wetland" />
		<tag k="ssr:stedsnr" v="420708" />
	</node>
	<node id="-143061" lat="65.8173027811" lon="14.2723944363">
		<tag k="name" v="Svielkmyra" />
		<tag k="name:no" v="Svielkmyra" />
		<tag k="natural" v="wetland" />
		<tag k="ssr:stedsnr" v="420705" />
	</node>
	<node id="-145108" lat="65.417236115" lon="14.025236113">
		<tag k="name" v="Sjuenhaugmyra" />
		<tag k="name:no" v="Sjuenhaugmyra" />
		<tag k="natural" v="wetland" />
		<tag k="ssr:stedsnr" v="762411" />
	</node>
	<node id="-143057" lat="65.5390833363" lon="14.2286694352">
		<tag k="name" v="Tiurmyra" />
		<tag k="name:no" v="Tiurmyra" />
		<tag k="natural" v="wetland" />
		<tag k="ssr:stedsnr" v="419615" />
	</node>
	<node id="-145104" lat="65.7123972206" lon="13.915511116">
		<tag k="name" v="Langmyra" />
		<tag k="name:no" v="Langmyra" />
		<tag k="natural" v="wetland" />
		<tag k="ssr:stedsnr" v="762400" />
	</node>
	<node id="-145101" lat="65.7518222259" lon="13.9175444538">
		<tag k="landuse" v="meadow" />
		<tag k="name" v="Røyrbakkenget" />
		<tag k="name:no" v="Røyrbakkenget" />
		<tag k="ssr:stedsnr" v="762358" />
	</node>
	<node id="-143052" lat="65.5943805544" lon="14.0991861146">
		<tag k="name" v="Storfloa" />
		<tag k="name:no" v="Storfloa" />
		<tag k="natural" v="wetland" />
		<tag k="ssr:stedsnr" v="519694" />
	</node>
	<node id="-143051" lat="65.5878444486" lon="13.857202784">
		<tag k="name" v="Steinmyra" />
		<tag k="name:no" v="Steinmyra" />
		<tag k="natural" v="wetland" />
		<tag k="ssr:stedsnr" v="396513" />
	</node>
	<node id="-145097" lat="65.3825277801" lon="14.0547722135">
		<tag k="name" v="Raubergmyra" />
		<tag k="name:no" v="Raubergmyra" />
		<tag k="natural" v="wetland" />
		<tag k="ssr:stedsnr" v="762313" />
	</node>
	<node id="-145095" lat="65.6303694423" lon="14.0460277752">
		<tag k="name" v="Skørvmyra" />
		<tag k="name:no" v="Skørvmyra" />
		<tag k="natural" v="wetland" />
		<tag k="ssr:stedsnr" v="762022" />
	</node>
	<node id="-143041" lat="65.799488887" lon="14.5334722325">
		<tag k="name" v="Stormyra" />
		<tag k="name:no" v="Stormyra" />
		<tag k="natural" v="wetland" />
		<tag k="ssr:stedsnr" v="501451" />
	</node>
	<node id="-145088" lat="65.5938611152" lon="14.1242138865">
		<tag k="name" v="Storbakkmyra" />
		<tag k="name:no" v="Storbakkmyra" />
		<tag k="natural" v="wetland" />
		<tag k="ssr:stedsnr" v="761035" />
	</node>
	<node id="-145086" lat="65.5984972216" lon="13.8325444526">
		<tag k="name" v="Nabbkråmyra" />
		<tag k="name:no" v="Nabbkråmyra" />
		<tag k="natural" v="wetland" />
		<tag k="ssr:stedsnr" v="760744" />
	</node>
	<node id="-143027" lat="65.6333111128" lon="14.1465027769">
		<tag k="name" v="Reingardsmyra" />
		<tag k="name:no" v="Reingardsmyra" />
		<tag k="natural" v="wetland" />
		<tag k="ssr:stedsnr" v="501085" />
	</node>
	<node id="-145109" lat="65.4124611143" lon="13.9734555665">
		<tag k="landuse" v="meadow" />
		<tag k="name" v="Nersørvollen" />
		<tag k="name:no" v="Nersørvollen" />
		<tag k="ssr:stedsnr" v="762416" />
	</node>
	<node id="-145062" lat="65.5107194467" lon="13.9851611178">
		<tag k="name" v="Brantmyra" />
		<tag k="name:no" v="Brantmyra" />
		<tag k="natural" v="wetland" />
		<tag k="ssr:stedsnr" v="744101" />
	</node>
	<node id="-143013" lat="65.7195583298" lon="13.9193722281">
		<tag k="name" v="Krokmyra" />
		<tag k="name:no" v="Krokmyra" />
		<tag k="natural" v="wetland" />
		<tag k="ssr:stedsnr" v="500351" />
	</node>
	<node id="-145055" lat="65.4712694486" lon="14.1502305456">
		<tag k="name" v="Stormyra" />
		<tag k="name:no" v="Stormyra" />
		<tag k="natural" v="wetland" />
		<tag k="ssr:stedsnr" v="743841" />
	</node>
	<node id="-145053" lat="65.5727000009" lon="14.2683750075">
		<tag k="name" v="Langmosmyra" />
		<tag k="name:no" v="Langmosmyra" />
		<tag k="natural" v="wetland" />
		<tag k="ssr:stedsnr" v="743828" />
	</node>
	<node id="-142618" lat="65.4331861116" lon="14.1886305508">
		<tag k="name" v="Eivindmyran" />
		<tag k="name:no" v="Eivindmyran" />
		<tag k="natural" v="wetland" />
		<tag k="ssr:stedsnr" v="286515" />
	</node>
	<node id="-142995" lat="65.5334888929" lon="14.147130561">
		<tag k="name" v="Langmyra" />
		<tag k="name:no" v="Langmyra" />
		<tag k="natural" v="wetland" />
		<tag k="ssr:stedsnr" v="500163" />
	</node>
	<node id="-145041" lat="65.301394444" lon="14.3590777846">
		<tag k="name" v="Stormyra" />
		<tag k="name:no" v="Stormyra" />
		<tag k="natural" v="wetland" />
		<tag k="ssr:stedsnr" v="743701" />
	</node>
	<node id="-142991" lat="65.6400333344" lon="13.9518666666">
		<tag k="name" v="Klokkarstakken" />
		<tag k="name:no" v="Klokkarstakken" />
		<tag k="natural" v="wetland" />
		<tag k="ssr:stedsnr" v="362464" />
	</node>
	<node id="-142989" lat="65.6050027789" lon="13.9084888913">
		<tag k="name" v="Sørenget" />
		<tag k="name:no" v="Sørenget" />
		<tag k="place" v="locality" />
		<tag k="ssr:stedsnr" v="362319" />
	</node>
	<node id="-145032" lat="65.7281888921" lon="13.9451000012">
		<tag k="name" v="Stormyra" />
		<tag k="name:no" v="Stormyra" />
		<tag k="natural" v="wetland" />
		<tag k="ssr:stedsnr" v="743300" />
	</node>
	<node id="-142982" lat="65.6306111136" lon="13.9558083286">
		<tag k="name" v="Storsteinmyra" />
		<tag k="name:no" v="Storsteinmyra" />
		<tag k="natural" v="wetland" />
		<tag k="ssr:stedsnr" v="483493" />
	</node>
	<node id="-145024" lat="65.6084750004" lon="14.0565666692">
		<tag k="name" v="Stormyra" />
		<tag k="name:no" v="Stormyra" />
		<tag k="natural" v="wetland" />
		<tag k="ssr:stedsnr" v="743038" />
	</node>
	<node id="-142954" lat="65.5463277746" lon="14.2204666627">
		<tag k="name" v="Grøbbmyra" />
		<tag k="name:no" v="Grøbbmyra" />
		<tag k="natural" v="wetland" />
		<tag k="ssr:stedsnr" v="480642" />
	</node>
	<node id="-142967" lat="65.4219138904" lon="13.9454611091">
		<tag k="name" v="Småmyran" />
		<tag k="name:no" v="Småmyran" />
		<tag k="natural" v="wetland" />
		<tag k="ssr:stedsnr" v="337472" />
	</node>
	<node id="-142962" lat="65.6654444459" lon="13.910861102">
		<tag k="name" v="Stormyra" />
		<tag k="name:no" v="Stormyra" />
		<tag k="natural" v="wetland" />
		<tag k="ssr:stedsnr" v="336977" />
	</node>
	<node id="-142961" lat="65.6644972268" lon="13.8953055498">
		<tag k="name" v="Snaumyra" />
		<tag k="name:no" v="Snaumyra" />
		<tag k="natural" v="wetland" />
		<tag k="ssr:stedsnr" v="336973" />
	</node>
	<node id="-145007" lat="65.4599388852" lon="14.4063277785">
		<tag k="name" v="Krokåtbjørk-åkeren" />
		<tag k="name:no" v="Krokåtbjørk-åkeren" />
		<tag k="place" v="locality" />
		<tag k="ssr:stedsnr" v="641551" />
	</node>
	<node id="-145005" lat="65.4549777816" lon="14.4400972191">
		<tag k="name" v="Bjørsten" />
		<tag k="name:no" v="Bjørsten" />
		<tag k="natural" v="stone" />
		<tag k="ssr:stedsnr" v="641543" />
	</node>
	<node id="-145004" lat="65.4537166702" lon="14.4384833313">
		<tag k="name" v="Kringelmyra" />
		<tag k="name:no" v="Kringelmyra" />
		<tag k="natural" v="wetland" />
		<tag k="ssr:stedsnr" v="641440" />
	</node>
	<node id="-145002" lat="65.5808805554" lon="14.0217805577">
		<tag k="name" v="Geitklauvmyra" />
		<tag k="name:no" v="Geitklauvmyra" />
		<tag k="natural" v="wetland" />
		<tag k="ssr:stedsnr" v="640874" />
	</node>
	<node id="-145000" lat="65.5644583345" lon="14.1887916614">
		<tag k="name" v="Sløykhagen" />
		<tag k="name:no" v="Sløykhagen" />
		<tag k="place" v="locality" />
		<tag k="ssr:stedsnr" v="640797" />
	</node>
	<node id="-142951" lat="65.4556027796" lon="14.1643083301">
		<tag k="name" v="Blautmyra" />
		<tag k="name:no" v="Blautmyra" />
		<tag k="natural" v="wetland" />
		<tag k="ssr:stedsnr" v="479447" />
	</node>
	<node id="-142948" lat="65.572572221" lon="14.258083323">
		<tag k="name" v="Lompmyra" />
		<tag k="name:no" v="Lompmyra" />
		<tag k="natural" v="wetland" />
		<tag k="ssr:stedsnr" v="519634" />
	</node>
	<node id="-142947" lat="65.5032555543" lon="14.0327055615">
		<tag k="name" v="Tiurmyra" />
		<tag k="name:no" v="Tiurmyra" />
		<tag k="natural" v="wetland" />
		<tag k="ssr:stedsnr" v="519625" />
	</node>
	<node id="-144994" lat="65.5746694422" lon="14.3089583414">
		<tag k="name" v="Tverrelvmyra" />
		<tag k="name:no" v="Tverrelvmyra" />
		<tag k="natural" v="wetland" />
		<tag k="ssr:stedsnr" v="640580" />
	</node>
	<node id="-144993" lat="65.5680027765" lon="14.1430888856">
		<tag k="name" v="Vinmyra" />
		<tag k="name:no" v="Vinmyra" />
		<tag k="natural" v="wetland" />
		<tag k="ssr:stedsnr" v="640489" />
	</node>
	<node id="-144991" lat="65.5635972228" lon="14.1625166599">
		<tag k="name" v="Hesjemyra" />
		<tag k="name:no" v="Hesjemyra" />
		<tag k="natural" v="wetland" />
		<tag k="ssr:stedsnr" v="640483" />
	</node>
	<node id="-142941" lat="65.6088861112" lon="13.8628111217">
		<tag k="name" v="Nabbmyran" />
		<tag k="name:no" v="Nabbmyran" />
		<tag k="natural" v="wetland" />
		<tag k="ssr:stedsnr" v="319122" />
	</node>
	<node id="-144988" lat="65.7252361099" lon="13.9228416576">
		<tag k="name" v="Andersmyra" />
		<tag k="name:no" v="Andersmyra" />
		<tag k="natural" v="wetland" />
		<tag k="ssr:stedsnr" v="640445" />
	</node>
	<node id="-144985" lat="65.4593638897" lon="14.0194805625">
		<tag k="name" v="Ørjedalsmyran" />
		<tag k="name:no" v="Ørjedalsmyran" />
		<tag k="natural" v="wetland" />
		<tag k="ssr:stedsnr" v="640399" />
	</node>
	<node id="-144983" lat="65.3802166698" lon="14.0440999956">
		<tag k="name" v="Øvre Raubergvollen" />
		<tag k="name:no" v="Øvre Raubergvollen" />
		<tag k="place" v="locality" />
		<tag k="ssr:stedsnr" v="640348" />
	</node>
	<node id="-144982" lat="65.520986114" lon="14.1196500037">
		<tag k="name" v="Stormyra" />
		<tag k="name:no" v="Stormyra" />
		<tag k="natural" v="wetland" />
		<tag k="ssr:stedsnr" v="640237" />
	</node>
	<node id="-144977" lat="65.6642111117" lon="13.9967361148">
		<tag k="name" v="Skarpnesmyra" />
		<tag k="name:no" v="Skarpnesmyra" />
		<tag k="natural" v="wetland" />
		<tag k="ssr:stedsnr" v="640169" />
	</node>
	<node id="-142928" lat="65.6166472197" lon="14.1061444535">
		<tag k="name" v="Ol-Benjaminmyra" />
		<tag k="name:no" v="Ol-Benjaminmyra" />
		<tag k="natural" v="wetland" />
		<tag k="ssr:stedsnr" v="519581" />
	</node>
	<node id="-142927" lat="65.6052499982" lon="13.9461944539">
		<tag k="name" v="Elvebakkmyra" />
		<tag k="name:no" v="Elvebakkmyra" />
		<tag k="natural" v="wetland" />
		<tag k="ssr:stedsnr" v="519546" />
	</node>
	<node id="-144971" lat="65.6280277769" lon="14.0392277811">
		<tag k="name" v="Innerdalsmyra" />
		<tag k="name:no" v="Innerdalsmyra" />
		<tag k="natural" v="wetland" />
		<tag k="ssr:stedsnr" v="640016" />
	</node>
	<node id="-144969" lat="65.6303055555" lon="13.9035361159">
		<tag k="name" v="Langmyran" />
		<tag k="name:no" v="Langmyran" />
		<tag k="natural" v="wetland" />
		<tag k="ssr:stedsnr" v="639957" />
	</node>
	<node id="-142915" lat="65.5956333321" lon="14.1169083361">
		<tag k="name" v="Babylonmyra" />
		<tag k="name:no" v="Babylonmyra" />
		<tag k="natural" v="wetland" />
		<tag k="ssr:stedsnr" v="459671" />
	</node>
	<node id="-144959" lat="65.5914444427" lon="13.8985388842">
		<tag k="name" v="Holtmyra" />
		<tag k="name:no" v="Holtmyra" />
		<tag k="natural" v="wetland" />
		<tag k="ssr:stedsnr" v="638532" />
	</node>
	<node id="-142909" lat="65.5328166633" lon="14.0168750066">
		<tag k="name" v="Langmyra" />
		<tag k="name:no" v="Langmyra" />
		<tag k="natural" v="wetland" />
		<tag k="ssr:stedsnr" v="459530" />
	</node>
	<node id="-144956" lat="65.5869361117" lon="14.2475444463">
		<tag k="name" v="Antonstakkan" />
		<tag k="name:no" v="Antonstakkan" />
		<tag k="natural" v="wetland" />
		<tag k="ssr:stedsnr" v="622861" />
	</node>
	<node id="-142907" lat="65.6077055532" lon="14.0652388957">
		<tag k="name" v="Grasmyra" />
		<tag k="name:no" v="Grasmyra" />
		<tag k="natural" v="wetland" />
		<tag k="ssr:stedsnr" v="459502" />
	</node>
	<node id="-142906" lat="65.5207388884" lon="14.0435222161">
		<tag k="landuse" v="meadow" />
		<tag k="name" v="Nerslåtten" />
		<tag k="name:no" v="Nerslåtten" />
		<tag k="ssr:stedsnr" v="459499" />
	</node>
	<node id="-142904" lat="65.4534194455" lon="14.4287833307">
		<tag k="name" v="Langmyra" />
		<tag k="name:no" v="Langmyra" />
		<tag k="natural" v="wetland" />
		<tag k="ssr:stedsnr" v="459437" />
	</node>
	<node id="-142582" lat="65.4231722248" lon="13.97032222">
		<tag k="landuse" v="meadow" />
		<tag k="name" v="Lissenget" />
		<tag k="name:no" v="Lissenget" />
		<tag k="ssr:stedsnr" v="277231" />
	</node>
	<node id="-142901" lat="65.5678111094" lon="14.1765527745">
		<tag k="name" v="Øverlimyra" />
		<tag k="name:no" v="Øverlimyra" />
		<tag k="natural" v="wetland" />
		<tag k="ssr:stedsnr" v="459417" />
	</node>
	<node id="-144948" lat="65.5933138923" lon="14.1940666656">
		<tag k="name" v="Hattmyran" />
		<tag k="name:no" v="Hattmyran" />
		<tag k="natural" v="wetland" />
		<tag k="ssr:stedsnr" v="622763" />
	</node>
	<node id="-144946" lat="65.6374611137" lon="13.9420416768">
		<tag k="name" v="Stormyra" />
		<tag k="name:no" v="Stormyra" />
		<tag k="natural" v="wetland" />
		<tag k="ssr:stedsnr" v="622743" />
	</node>
	<node id="-142897" lat="65.6782416637" lon="14.2861361099">
		<tag k="name" v="Berlstumyra" />
		<tag k="name:no" v="Berlstumyra" />
		<tag k="natural" v="wetland" />
		<tag k="ssr:stedsnr" v="459392" />
	</node>
	<node id="-142896" lat="65.7235194464" lon="13.9315249979">
		<tag k="name" v="Stjørdalmyra" />
		<tag k="name:no" v="Stjørdalmyra" />
		<tag k="natural" v="wetland" />
		<tag k="ssr:stedsnr" v="459378" />
	</node>
	<node id="-142894" lat="65.4787277739" lon="14.0043944473">
		<tag k="name" v="Styggmyra" />
		<tag k="name:no" v="Styggmyra" />
		<tag k="natural" v="wetland" />
		<tag k="ssr:stedsnr" v="459354" />
	</node>
	<node id="-142892" lat="65.5529361102" lon="14.1738611075">
		<tag k="name" v="Tjønnmyra" />
		<tag k="name:no" v="Tjønnmyra" />
		<tag k="natural" v="wetland" />
		<tag k="ssr:stedsnr" v="459251" />
	</node>
	<node id="-144934" lat="65.6591305524" lon="13.7686388947">
		<tag k="name" v="Reinmyra" />
		<tag k="name:no" v="Reinmyra" />
		<tag k="natural" v="wetland" />
		<tag k="ssr:stedsnr" v="622367" />
	</node>
	<node id="-142881" lat="65.5341999972" lon="14.2174527671">
		<tag k="name" v="Smalmyra" />
		<tag k="name:no" v="Smalmyra" />
		<tag k="natural" v="wetland" />
		<tag k="ssr:stedsnr" v="276907" />
	</node>
	<node id="-142880" lat="65.5772055557" lon="14.1948527786">
		<tag k="name" v="Reinhagen" />
		<tag k="name:no" v="Reinhagen" />
		<tag k="place" v="locality" />
		<tag k="ssr:stedsnr" v="276812" />
	</node>
	<node id="-144645" lat="65.589324999" lon="14.0719722206">
		<tag k="name" v="Stormyra" />
		<tag k="name:no" v="Stormyra" />
		<tag k="natural" v="wetland" />
		<tag k="ssr:stedsnr" v="397701" />
	</node>
	<node id="-142875" lat="65.6266249978" lon="13.899305545">
		<tag k="name" v="Mølnhusmyra" />
		<tag k="name:no" v="Mølnhusmyra" />
		<tag k="natural" v="wetland" />
		<tag k="ssr:stedsnr" v="458951" />
	</node>
	<node id="-142870" lat="65.6420416644" lon="14.1048583358">
		<tag k="name" v="Gabrielmyra" />
		<tag k="name:no" v="Gabrielmyra" />
		<tag k="natural" v="wetland" />
		<tag k="ssr:stedsnr" v="276105" />
	</node>
	<node id="-142869" lat="65.5349499983" lon="14.2113916741">
		<tag k="name" v="Skørvmyra" />
		<tag k="name:no" v="Skørvmyra" />
		<tag k="natural" v="wetland" />
		<tag k="ssr:stedsnr" v="458898" />
	</node>
	<node id="-144913" lat="65.6164583348" lon="13.8760055629">
		<tag k="name" v="Forsmyran" />
		<tag k="name:no" v="Forsmyran" />
		<tag k="natural" v="wetland" />
		<tag k="ssr:stedsnr" v="622089" />
	</node>
	<node id="-142861" lat="65.5692972225" lon="14.2327388997">
		<tag k="name" v="Åkermannmyra" />
		<tag k="name:no" v="Åkermannmyra" />
		<tag k="natural" v="wetland" />
		<tag k="ssr:stedsnr" v="458812" />
	</node>
	<node id="-144900" lat="65.5445527734" lon="14.2437694499">
		<tag k="name" v="Einbærmyra" />
		<tag k="name:no" v="Einbærmyra" />
		<tag k="natural" v="wetland" />
		<tag k="ssr:stedsnr" v="621859" />
	</node>
	<node id="-142851" lat="65.6905611103" lon="13.8874888879">
		<tag k="name" v="Krokmyr" />
		<tag k="name:no" v="Krokmyr" />
		<tag k="natural" v="wetland" />
		<tag k="ssr:stedsnr" v="458583" />
	</node>
	<node id="-144896" lat="65.4498055594" lon="14.1699194399">
		<tag k="name" v="Blautmyra" />
		<tag k="name:no" v="Blautmyra" />
		<tag k="natural" v="wetland" />
		<tag k="ssr:stedsnr" v="621836" />
	</node>
	<node id="-142846" lat="65.3695249993" lon="14.2217333258">
		<tag k="landuse" v="meadow" />
		<tag k="name" v="Nylaenget" />
		<tag k="name:no" v="Nylaenget" />
		<tag k="ssr:stedsnr" v="458274" />
	</node>
	<node id="-142841" lat="65.5829416642" lon="13.8087000069">
		<tag k="name" v="Myrteigen" />
		<tag k="name:no" v="Myrteigen" />
		<tag k="place" v="locality" />
		<tag k="ssr:stedsnr" v="457739" />
	</node>
	<node id="-142839" lat="65.5857416707" lon="14.2349305486">
		<tag k="name" v="Sjustakkmyra" />
		<tag k="name:no" v="Sjustakkmyra" />
		<tag k="natural" v="wetland" />
		<tag k="ssr:stedsnr" v="258876" />
	</node>
	<node id="-142929" lat="65.5453027789" lon="14.1676777824">
		<tag k="fixme" v="multiple name tags, choose one and add the other to alt_name" />
		<tag k="name" v="Stormyra;Unkervassstormyra" />
		<tag k="name:no" v="Stormyra;Unkervassstormyra" />
		<tag k="natural" v="wetland" />
		<tag k="ssr:stedsnr" v="318203" />
	</node>
	<node id="-142812" lat="65.6875499975" lon="13.8745138991">
		<tag k="name" v="Storskrapmyra" />
		<tag k="name:no" v="Storskrapmyra" />
		<tag k="natural" v="wetland" />
		<tag k="ssr:stedsnr" v="258461" />
	</node>
	<node id="-142806" lat="65.6520833373" lon="14.1295972278">
		<tag k="name" v="Grubbskogen" />
		<tag k="name:no" v="Grubbskogen" />
		<tag k="place" v="locality" />
		<tag k="ssr:stedsnr" v="258408" />
	</node>
	<node id="-142804" lat="65.6456250029" lon="14.005233329">
		<tag k="name" v="Blautmyra" />
		<tag k="name:no" v="Blautmyra" />
		<tag k="natural" v="wetland" />
		<tag k="ssr:stedsnr" v="258402" />
	</node>
	<node id="-144848" lat="65.6353249997" lon="13.9407138924">
		<tag k="name" v="Olorsomyra" />
		<tag k="name:no" v="Olorsomyra" />
		<tag k="natural" v="wetland" />
		<tag k="ssr:stedsnr" v="604470" />
	</node>
	<node id="-144835" lat="65.4134694483" lon="14.2120083348">
		<tag k="name" v="Fossmyra" />
		<tag k="name:no" v="Fossmyra" />
		<tag k="natural" v="wetland" />
		<tag k="ssr:stedsnr" v="585423" />
	</node>
	<node id="-144828" lat="65.4120472242" lon="13.98140001">
		<tag k="name" v="Høylemvollen" />
		<tag k="name:no" v="Høylemvollen" />
		<tag k="place" v="locality" />
		<tag k="ssr:stedsnr" v="580390" />
	</node>
	<node id="-142779" lat="65.6209555535" lon="13.8593305551">
		<tag k="name" v="Lommtjønnmyran" />
		<tag k="name:no" v="Lommtjønnmyran" />
		<tag k="natural" v="wetland" />
		<tag k="ssr:stedsnr" v="241316" />
	</node>
	<node id="-144824" lat="65.4094166696" lon="13.9987972237">
		<tag k="name" v="Legramyra" />
		<tag k="name:no" v="Legramyra" />
		<tag k="natural" v="wetland" />
		<tag k="ssr:stedsnr" v="580364" />
	</node>
	<node id="-142774" lat="65.5809944486" lon="14.304541658">
		<tag k="name" v="Holmyra" />
		<tag k="name:no" v="Holmyra" />
		<tag k="natural" v="wetland" />
		<tag k="ssr:stedsnr" v="440856" />
	</node>
	<node id="-142767" lat="65.3527638871" lon="13.976069437">
		<tag k="name" v="Forsmyran" />
		<tag k="name:no" v="Forsmyran" />
		<tag k="natural" v="wetland" />
		<tag k="ssr:stedsnr" v="440734" />
	</node>
	<node id="-144810" lat="65.8196555511" lon="14.346500009">
		<tag k="name" v="Limyra" />
		<tag k="name:no" v="Limyra" />
		<tag k="natural" v="wetland" />
		<tag k="ssr:stedsnr" v="580232" />
	</node>
	<node id="-144801" lat="65.5776472185" lon="14.302636118">
		<tag k="name" v="Hålmyra" />
		<tag k="name:no" v="Hålmyra" />
		<tag k="natural" v="wetland" />
		<tag k="ssr:stedsnr" v="579630" />
	</node>
	<node id="-144798" lat="65.3943472181" lon="14.0324138927">
		<tag k="historic" v="shieling" />
		<tag k="name" v="Solhaugsetra" />
		<tag k="name:no" v="Solhaugsetra" />
		<tag k="place" v="locality" />
		<tag k="ssr:stedsnr" v="579604" />
	</node>
	<node id="-142748" lat="65.7014416633" lon="13.9629500044">
		<tag k="name" v="Gardsmyra" />
		<tag k="name:no" v="Gardsmyra" />
		<tag k="natural" v="wetland" />
		<tag k="ssr:stedsnr" v="440449" />
	</node>
	<node id="-144789" lat="65.5910500016" lon="13.8923500068">
		<tag k="name" v="Dalmyra" />
		<tag k="name:no" v="Dalmyra" />
		<tag k="natural" v="wetland" />
		<tag k="ssr:stedsnr" v="578511" />
	</node>
	<node id="-142737" lat="65.7062944439" lon="13.8989027869">
		<tag k="alt_name:no" v="Langmyran" />
		<tag k="name" v="Langmyra" />
		<tag k="name:no" v="Langmyra" />
		<tag k="natural" v="wetland" />
		<tag k="ssr:stedsnr" v="440336" />
	</node>
	<node id="-144783" lat="65.5554444434" lon="14.2765638789">
		<tag k="name" v="Bent-Olsonstormyra" />
		<tag k="name:no" v="Bent-Olsonstormyra" />
		<tag k="natural" v="wetland" />
		<tag k="ssr:stedsnr" v="561838" />
	</node>
	<node id="-142734" lat="65.7393972195" lon="14.0848527863">
		<tag k="name" v="Nordenget" />
		<tag k="name:no" v="Nordenget" />
		<tag k="place" v="locality" />
		<tag k="ssr:stedsnr" v="440310" />
	</node>
	<node id="-144780" lat="65.4031750017" lon="14.0452416728">
		<tag k="name" v="Stormyra" />
		<tag k="name:no" v="Stormyra" />
		<tag k="natural" v="wetland" />
		<tag k="ssr:stedsnr" v="561793" />
	</node>
	<node id="-142714" lat="65.5356138849" lon="14.2096527683">
		<tag k="name" v="Skorvmyra" />
		<tag k="name:no" v="Skorvmyra" />
		<tag k="natural" v="wetland" />
		<tag k="ssr:stedsnr" v="440190" />
	</node>
	<node id="-142713" lat="65.505374996" lon="14.0531138882">
		<tag k="name" v="Bakomsmitt" />
		<tag k="name:no" v="Bakomsmitt" />
		<tag k="place" v="locality" />
		<tag k="ssr:stedsnr" v="440183" />
	</node>
	<node id="-144759" lat="65.5492861152" lon="14.0102111098">
		<tag k="name" v="Midtvollen" />
		<tag k="name:no" v="Midtvollen" />
		<tag k="place" v="locality" />
		<tag k="ssr:stedsnr" v="561249" />
	</node>
	<node id="-142706" lat="65.6358138923" lon="14.0204500009">
		<tag k="name" v="Sæterlangmyra" />
		<tag k="name:no" v="Sæterlangmyra" />
		<tag k="natural" v="wetland" />
		<tag k="ssr:stedsnr" v="440128" />
	</node>
	<node id="-142705" lat="65.6321861126" lon="13.9841972271">
		<tag k="name" v="Langmyra" />
		<tag k="name:no" v="Langmyra" />
		<tag k="natural" v="wetland" />
		<tag k="ssr:stedsnr" v="440127" />
	</node>
	<node id="-144728" lat="65.6196000041" lon="13.8959333252">
		<tag k="name" v="Snauholten" />
		<tag k="name:no" v="Snauholten" />
		<tag k="place" v="locality" />
		<tag k="ssr:stedsnr" v="544311" />
	</node>
	<node id="-144727" lat="65.4739611089" lon="14.3451055472">
		<tag k="name" v="Akselryan" />
		<tag k="name:no" v="Akselryan" />
		<tag k="natural" v="wetland" />
		<tag k="ssr:stedsnr" v="543691" />
	</node>
	<node id="-142677" lat="65.6470749961" lon="14.0188527819">
		<tag k="name" v="Vesterengkrå" />
		<tag k="name:no" v="Vesterengkrå" />
		<tag k="natural" v="wetland" />
		<tag k="ssr:stedsnr" v="216914" />
	</node>
	<node id="-144723" lat="65.4569805518" lon="14.477788898">
		<tag k="name" v="Hævland" />
		<tag k="name:no" v="Hævland" />
		<tag k="place" v="locality" />
		<tag k="ssr:stedsnr" v="526862" />
	</node>
	<node id="-142674" lat="65.6022416656" lon="13.9277638899">
		<tag k="name" v="Tjønnmyra" />
		<tag k="name:no" v="Tjønnmyra" />
		<tag k="natural" v="wetland" />
		<tag k="ssr:stedsnr" v="216507" />
	</node>
	<node id="-142672" lat="65.5782583315" lon="14.1288361057">
		<tag k="name" v="Kåtmyra" />
		<tag k="name:no" v="Kåtmyra" />
		<tag k="natural" v="wetland" />
		<tag k="ssr:stedsnr" v="216436" />
	</node>
	<node id="-142671" lat="65.5673583344" lon="14.1563277765">
		<tag k="name" v="Israelmyra" />
		<tag k="name:no" v="Israelmyra" />
		<tag k="natural" v="wetland" />
		<tag k="ssr:stedsnr" v="216425" />
	</node>
	<node id="-144716" lat="65.4105083361" lon="14.2169000098">
		<tag k="name" v="Mare-Larstemyran" />
		<tag k="name:no" v="Mare-Larstemyran" />
		<tag k="natural" v="wetland" />
		<tag k="ssr:stedsnr" v="525547" />
	</node>
	<node id="-142667" lat="65.775811115" lon="14.4912222192">
		<tag k="name" v="Roneslåtten" />
		<tag k="name:no" v="Roneslåtten" />
		<tag k="natural" v="wetland" />
		<tag k="ssr:stedsnr" v="298692" />
	</node>
	<node id="-142664" lat="65.4507694479" lon="14.1555555629">
		<tag k="name" v="Ruudmyra" />
		<tag k="name:no" v="Ruudmyra" />
		<tag k="natural" v="wetland" />
		<tag k="ssr:stedsnr" v="297438" />
	</node>
	<node id="-144711" lat="65.4513694451" lon="14.4225500008">
		<tag k="name" v="Stormyra" />
		<tag k="name:no" v="Stormyra" />
		<tag k="natural" v="wetland" />
		<tag k="ssr:stedsnr" v="520476" />
	</node>
	<node id="-144704" lat="65.6259472175" lon="13.8740972319">
		<tag k="name" v="Benjaminmyra" />
		<tag k="name:no" v="Benjaminmyra" />
		<tag k="natural" v="wetland" />
		<tag k="ssr:stedsnr" v="519951" />
	</node>
	<node id="-142655" lat="65.6643499971" lon="14.176794441">
		<tag k="alt_name:no" v="Dallimyran" />
		<tag k="name" v="Dallimyra" />
		<tag k="name:no" v="Dallimyra" />
		<tag k="natural" v="wetland" />
		<tag k="ssr:stedsnr" v="198349" />
	</node>
	<node id="-142652" lat="65.5711500006" lon="14.28751112">
		<tag k="name" v="Storfloa" />
		<tag k="name:no" v="Storfloa" />
		<tag k="natural" v="wetland" />
		<tag k="ssr:stedsnr" v="197837" />
	</node>
	<node id="-144698" lat="65.6273583363" lon="13.9396722171">
		<tag k="name" v="Stormyra" />
		<tag k="name:no" v="Stormyra" />
		<tag k="natural" v="wetland" />
		<tag k="ssr:stedsnr" v="423499" />
	</node>
	<node id="-144693" lat="65.3448250025" lon="14.3323111018">
		<tag k="name" v="Stormyra" />
		<tag k="name:no" v="Stormyra" />
		<tag k="natural" v="wetland" />
		<tag k="ssr:stedsnr" v="421765" />
	</node>
	<node id="-142643" lat="65.67416389" lon="14.1639888897">
		<tag k="name" v="Silhårmyra" />
		<tag k="name:no" v="Silhårmyra" />
		<tag k="natural" v="wetland" />
		<tag k="ssr:stedsnr" v="197530" />
	</node>
	<node id="-144682" lat="65.5847611111" lon="13.9495805468">
		<tag k="name" v="Tjærbrennmyra" />
		<tag k="name:no" v="Tjærbrennmyra" />
		<tag k="natural" v="wetland" />
		<tag k="ssr:stedsnr" v="398841" />
	</node>
	<node id="-142633" lat="65.6183222248" lon="14.0935388859">
		<tag k="alt_name:no" v="Tjørnmyra" />
		<tag k="name" v="Tjønnmyra" />
		<tag k="name:no" v="Tjønnmyra" />
		<tag k="natural" v="wetland" />
		<tag k="ssr:stedsnr" v="197120" />
	</node>
	<node id="-144680" lat="65.494980554" lon="14.0022416595">
		<tag k="landuse" v="meadow" />
		<tag k="name" v="Pantdalsvollen" />
		<tag k="name:no" v="Pantdalsvollen" />
		<tag k="ssr:stedsnr" v="398580" />
	</node>
	<node id="-144677" lat="65.5659722211" lon="14.2658111127">
		<tag k="name" v="Stormyra" />
		<tag k="name:no" v="Stormyra" />
		<tag k="natural" v="wetland" />
		<tag k="ssr:stedsnr" v="398512" />
	</node>
	<node id="-144671" lat="65.4581722253" lon="14.454419441">
		<tag k="name" v="Finnkåtmyra" />
		<tag k="name:no" v="Finnkåtmyra" />
		<tag k="natural" v="wetland" />
		<tag k="ssr:stedsnr" v="398421" />
	</node>
	<node id="-144670" lat="65.5680666631" lon="14.1694138774">
		<tag k="name" v="Vesterstormyra" />
		<tag k="name:no" v="Vesterstormyra" />
		<tag k="natural" v="wetland" />
		<tag k="ssr:stedsnr" v="398414" />
	</node>
	<node id="-144666" lat="65.4105833339" lon="14.0068499936">
		<tag k="name" v="Limyra" />
		<tag k="name:no" v="Limyra" />
		<tag k="natural" v="wetland" />
		<tag k="ssr:stedsnr" v="398393" />
	</node>
	<node id="-144665" lat="65.4899305513" lon="14.0243194409">
		<tag k="name" v="Rundmyra" />
		<tag k="name:no" v="Rundmyra" />
		<tag k="natural" v="wetland" />
		<tag k="ssr:stedsnr" v="398388" />
	</node>
	<node id="-144664" lat="65.5644583323" lon="14.1481027699">
		<tag k="name" v="Reinhagen" />
		<tag k="name:no" v="Reinhagen" />
		<tag k="place" v="locality" />
		<tag k="ssr:stedsnr" v="398376" />
	</node>
	<node id="-144661" lat="65.4268166655" lon="13.9733055541">
		<tag k="landuse" v="meadow" />
		<tag k="name" v="Bukkenget" />
		<tag k="name:no" v="Bukkenget" />
		<tag k="ssr:stedsnr" v="398250" />
	</node>
	<node id="-142612" lat="65.8512305577" lon="14.2131638974">
		<tag k="name" v="Luggmyrskogen" />
		<tag k="name:no" v="Luggmyrskogen" />
		<tag k="place" v="locality" />
		<tag k="ssr:stedsnr" v="178704" />
	</node>
	<node id="-142611" lat="65.4515694475" lon="14.4773361052">
		<tag k="landuse" v="meadow" />
		<tag k="name" v="Øvereng" />
		<tag k="name:no" v="Øvereng" />
		<tag k="ssr:stedsnr" v="284878" />
	</node>
	<node id="-144652" lat="65.5336500001" lon="14.2328333277">
		<tag k="name" v="Skogformyrfeltet" />
		<tag k="name:no" v="Skogformyrfeltet" />
		<tag k="natural" v="wetland" />
		<tag k="ssr:stedsnr" v="397890" />
	</node>
	<node id="-142600" lat="65.4470000023" lon="14.1684222307">
		<tag k="name" v="Blautmyra" />
		<tag k="name:no" v="Blautmyra" />
		<tag k="natural" v="wetland" />
		<tag k="ssr:stedsnr" v="277892" />
	</node>
	<node id="-144646" lat="65.5771083358" lon="14.231705565">
		<tag k="name" v="Blåmannmyra" />
		<tag k="name:no" v="Blåmannmyra" />
		<tag k="natural" v="wetland" />
		<tag k="ssr:stedsnr" v="397759" />
	</node>
	<node id="-142597" lat="65.5996666645" lon="14.0224416723">
		<tag k="name" v="Bergemyra" />
		<tag k="name:no" v="Bergemyra" />
		<tag k="natural" v="wetland" />
		<tag k="ssr:stedsnr" v="277888" />
	</node>
	<node id="-142594" lat="65.495925004" lon="13.9969555571">
		<tag k="name" v="Lasshyttskogen" />
		<tag k="name:no" v="Lasshyttskogen" />
		<tag k="place" v="locality" />
		<tag k="ssr:stedsnr" v="277589" />
	</node>
	<node id="-142593" lat="65.5977972191" lon="14.1079861095">
		<tag k="name" v="Sirijordsmyra" />
		<tag k="name:no" v="Sirijordsmyra" />
		<tag k="natural" v="wetland" />
		<tag k="ssr:stedsnr" v="277681" />
	</node>
	<node id="-144639" lat="65.6568805555" lon="14.1828166696">
		<tag k="name" v="Skardmyra" />
		<tag k="name:no" v="Skardmyra" />
		<tag k="natural" v="wetland" />
		<tag k="ssr:stedsnr" v="397495" />
	</node>
	<node id="-144638" lat="65.6365111104" lon="14.0610972301">
		<tag k="name" v="Stormyra" />
		<tag k="name:no" v="Stormyra" />
		<tag k="natural" v="wetland" />
		<tag k="ssr:stedsnr" v="397097" />
	</node>
	<node id="-144637" lat="65.6726666687" lon="13.8181750065">
		<tag k="name" v="Høystakkmyra" />
		<tag k="name:no" v="Høystakkmyra" />
		<tag k="natural" v="wetland" />
		<tag k="ssr:stedsnr" v="397073" />
	</node>
	<node id="-142587" lat="65.731938886" lon="13.937194443">
		<tag k="name" v="Vargmyra" />
		<tag k="name:no" v="Vargmyra" />
		<tag k="natural" v="wetland" />
		<tag k="ssr:stedsnr" v="277382" />
	</node>
	<node id="-142586" lat="65.7386527775" lon="13.9542166763">
		<tag k="name" v="Bestamyra" />
		<tag k="name:no" v="Bestamyra" />
		<tag k="natural" v="wetland" />
		<tag k="ssr:stedsnr" v="277370" />
	</node>
	<node id="-144632" lat="65.5916166645" lon="13.826802777">
		<tag k="name" v="Ole Bendiksenmyra" />
		<tag k="name:no" v="Ole Bendiksenmyra" />
		<tag k="natural" v="wetland" />
		<tag k="ssr:stedsnr" v="396718" />
	</node>
	<node id="-142583" lat="65.7940305566" lon="14.4491583261">
		<tag k="name" v="Loftmyra" />
		<tag k="name:no" v="Loftmyra" />
		<tag k="natural" v="wetland" />
		<tag k="ssr:stedsnr" v="277246" />
	</node>
	<node id="-144630" lat="65.5743111146" lon="13.8010527771">
		<tag k="name" v="Sørmyran" />
		<tag k="name:no" v="Sørmyran" />
		<tag k="natural" v="wetland" />
		<tag k="ssr:stedsnr" v="396288" />
	</node>
	<node id="-144629" lat="65.5967138921" lon="13.8669888814">
		<tag k="name" v="Merkemyra" />
		<tag k="name:no" v="Merkemyra" />
		<tag k="natural" v="wetland" />
		<tag k="ssr:stedsnr" v="396547" />
	</node>
	<node id="-142580" lat="65.4955111071" lon="14.2161916593">
		<tag k="name" v="Raumyren" />
		<tag k="name:no" v="Raumyren" />
		<tag k="natural" v="wetland" />
		<tag k="ssr:stedsnr" v="276870" />
	</node>
	<node id="-142574" lat="65.6990444447" lon="13.8792416589">
		<tag k="name" v="Liengmyra" />
		<tag k="name:no" v="Liengmyra" />
		<tag k="natural" v="wetland" />
		<tag k="ssr:stedsnr" v="276591" />
	</node>
	<node id="-142573" lat="65.370325003" lon="14.0308027697">
		<tag k="name" v="Flotaholmyra" />
		<tag k="name:no" v="Flotaholmyra" />
		<tag k="natural" v="wetland" />
		<tag k="ssr:stedsnr" v="276678" />
	</node>
	<node id="-142571" lat="65.6921305566" lon="14.1822916734">
		<tag k="name" v="Slåtten" />
		<tag k="name:no" v="Slåtten" />
		<tag k="place" v="locality" />
		<tag k="ssr:stedsnr" v="276145" />
	</node>
	<node id="-144618" lat="65.5711777763" lon="14.3389777684">
		<tag k="name" v="Garsepluevie - Garsmarkmyran" />
		<tag k="name:no" v="Garsmarkmyran" />
		<tag k="name:sma" v="Garsepluevie" />
		<tag k="natural" v="wetland" />
		<tag k="ssr:stedsnr" v="379807" />
	</node>
	<node id="-144611" lat="65.5094111117" lon="14.0616222192">
		<tag k="name" v="Stormyra" />
		<tag k="name:no" v="Stormyra" />
		<tag k="natural" v="wetland" />
		<tag k="ssr:stedsnr" v="379747" />
	</node>
	<node id="-142559" lat="65.6897499961" lon="13.8958472219">
		<tag k="name" v="Høystakkmyra" />
		<tag k="name:no" v="Høystakkmyra" />
		<tag k="natural" v="wetland" />
		<tag k="ssr:stedsnr" v="137457" />
	</node>
	<node id="-142538" lat="65.6295583338" lon="14.1655333442">
		<tag k="name" v="Rundklumpmyra" />
		<tag k="name:no" v="Rundklumpmyra" />
		<tag k="natural" v="wetland" />
		<tag k="ssr:stedsnr" v="136104" />
	</node>
	<node id="-144584" lat="65.6717694428" lon="13.766044436">
		<tag k="alt_name:no" v="Råkmyra" />
		<tag k="name" v="Rokmyra" />
		<tag k="name:no" v="Rokmyra" />
		<tag k="natural" v="wetland" />
		<tag k="ssr:stedsnr" v="379445" />
	</node>
	<node id="-144580" lat="65.6314138847" lon="13.9165916635">
		<tag k="name" v="Vesterstormyra" />
		<tag k="name:no" v="Vesterstormyra" />
		<tag k="natural" v="wetland" />
		<tag k="ssr:stedsnr" v="379416" />
	</node>
	<node id="-142526" lat="65.788002776" lon="14.466747223">
		<tag k="name" v="Lamyren" />
		<tag k="name:no" v="Lamyren" />
		<tag k="natural" v="wetland" />
		<tag k="ssr:stedsnr" v="119782" />
	</node>
	<node id="-142524" lat="65.8500499999" lon="14.2032750102">
		<tag k="name" v="Loffmyra" />
		<tag k="name:no" v="Loffmyra" />
		<tag k="natural" v="wetland" />
		<tag k="ssr:stedsnr" v="118711" />
	</node>
	<node id="-142520" lat="65.5502000021" lon="14.3084833239">
		<tag k="name" v="Stormyra" />
		<tag k="name:no" v="Stormyra" />
		<tag k="natural" v="wetland" />
		<tag k="ssr:stedsnr" v="258833" />
	</node>
	<node id="-142519" lat="65.5487000041" lon="14.2318055638">
		<tag k="name" v="Blautmyra" />
		<tag k="name:no" v="Blautmyra" />
		<tag k="natural" v="wetland" />
		<tag k="ssr:stedsnr" v="258830" />
	</node>
	<node id="-144559" lat="65.5677888862" lon="14.1733249917">
		<tag k="name" v="Limyra" />
		<tag k="name:no" v="Limyra" />
		<tag k="natural" v="wetland" />
		<tag k="ssr:stedsnr" v="379210" />
	</node>
	<node id="-142509" lat="65.6826472195" lon="13.7749000013">
		<tag k="name" v="Joelmyra" />
		<tag k="name:no" v="Joelmyra" />
		<tag k="natural" v="wetland" />
		<tag k="ssr:stedsnr" v="258448" />
	</node>
	<node id="-144549" lat="65.6133694407" lon="14.1112333231">
		<tag k="name" v="Spelarmyra" />
		<tag k="name:no" v="Spelarmyra" />
		<tag k="natural" v="wetland" />
		<tag k="ssr:stedsnr" v="379115" />
	</node>
	<node id="-142500" lat="65.7310111149" lon="14.1291916577">
		<tag k="name" v="Stormyra" />
		<tag k="name:no" v="Stormyra" />
		<tag k="natural" v="wetland" />
		<tag k="ssr:stedsnr" v="258298" />
	</node>
	<node id="-142499" lat="65.7381666631" lon="14.0919361013">
		<tag k="loc_name:no" v="Elvmyra" />
		<tag k="name" v="Langmyra" />
		<tag k="name:no" v="Langmyra" />
		<tag k="natural" v="wetland" />
		<tag k="ssr:stedsnr" v="258296" />
	</node>
	<node id="-144545" lat="65.6054138866" lon="13.8960805521">
		<tag k="alt_name:no" v="Hesmyra" />
		<tag k="name" v="Hestmyra" />
		<tag k="name:no" v="Hestmyra" />
		<tag k="natural" v="wetland" />
		<tag k="ssr:stedsnr" v="379101" />
	</node>
	<node id="-144526" lat="65.5601249968" lon="14.1906583366">
		<tag k="name" v="Stoppelmyra" />
		<tag k="name:no" v="Stoppelmyra" />
		<tag k="natural" v="wetland" />
		<tag k="ssr:stedsnr" v="519794" />
	</node>
	<node id="-144525" lat="65.5782194423" lon="14.1936083381">
		<tag k="name" v="Austerbarmomyra" />
		<tag k="name:no" v="Austerbarmomyra" />
		<tag k="natural" v="wetland" />
		<tag k="ssr:stedsnr" v="519788" />
	</node>
	<node id="-142473" lat="65.5840388859" lon="13.9939527713">
		<tag k="name" v="Gammeljorda" />
		<tag k="name:no" v="Gammeljorda" />
		<tag k="place" v="locality" />
		<tag k="ssr:stedsnr" v="95916" />
	</node>
	<node id="-144520" lat="65.8516083327" lon="14.2030749956">
		<tag k="name" v="Luggmyra" />
		<tag k="name:no" v="Luggmyra" />
		<tag k="natural" v="wetland" />
		<tag k="ssr:stedsnr" v="360633" />
	</node>
	<node id="-144519" lat="65.8589833319" lon="14.2602138833">
		<tag k="name" v="Mulakløppnesmyra" />
		<tag k="name:no" v="Mulakløppnesmyra" />
		<tag k="natural" v="wetland" />
		<tag k="ssr:stedsnr" v="360632" />
	</node>
	<node id="-142469" lat="65.6737611074" lon="14.246422219">
		<tag k="name" v="Svarthammarmyra" />
		<tag k="name:no" v="Svarthammarmyra" />
		<tag k="natural" v="wetland" />
		<tag k="ssr:stedsnr" v="95465" />
	</node>
	<node id="-144516" lat="65.5475138879" lon="14.211966664">
		<tag k="name" v="Hjartmyra" />
		<tag k="name:no" v="Hjartmyra" />
		<tag k="natural" v="wetland" />
		<tag k="ssr:stedsnr" v="358642" />
	</node>
	<node id="-144513" lat="65.4153416653" lon="14.1743611038">
		<tag k="name" v="Vestre Sørmyr" />
		<tag k="name:no" v="Vestre Sørmyr" />
		<tag k="natural" v="wetland" />
		<tag k="ssr:stedsnr" v="358437" />
	</node>
	<node id="-144512" lat="65.3635472242" lon="14.1135916731">
		<tag k="name" v="Kvernhusmyra" />
		<tag k="name:no" v="Kvernhusmyra" />
		<tag k="natural" v="wetland" />
		<tag k="ssr:stedsnr" v="358390" />
	</node>
	<node id="-144509" lat="65.4123194483" lon="14.2258055589">
		<tag k="name" v="Trettmyra" />
		<tag k="name:no" v="Trettmyra" />
		<tag k="natural" v="wetland" />
		<tag k="ssr:stedsnr" v="343536" />
	</node>
	<node id="-144503" lat="65.5996972199" lon="13.9582861057">
		<tag k="name" v="Finnmomyran" />
		<tag k="name:no" v="Finnmomyran" />
		<tag k="natural" v="wetland" />
		<tag k="ssr:stedsnr" v="337852" />
	</node>
	<node id="-144500" lat="65.4481361091" lon="14.1062666659">
		<tag k="name" v="Stormyra" />
		<tag k="name:no" v="Stormyra" />
		<tag k="natural" v="wetland" />
		<tag k="ssr:stedsnr" v="337779" />
	</node>
	<node id="-144499" lat="65.5764027735" lon="14.2234027747">
		<tag k="name" v="Bjønnmyra" />
		<tag k="name:no" v="Bjønnmyra" />
		<tag k="natural" v="wetland" />
		<tag k="ssr:stedsnr" v="337776" />
	</node>
	<node id="-142448" lat="65.4284749959" lon="14.1888611042">
		<tag k="name" v="Øvervegmyran" />
		<tag k="name:no" v="Øvervegmyran" />
		<tag k="natural" v="wetland" />
		<tag k="ssr:stedsnr" v="58057" />
	</node>
	<node id="-144492" lat="65.4748861087" lon="14.0376638977">
		<tag k="name" v="Lamyra" />
		<tag k="name:no" v="Lamyra" />
		<tag k="natural" v="wetland" />
		<tag k="ssr:stedsnr" v="337421" />
	</node>
	<node id="-142442" lat="65.5524638874" lon="14.226888898">
		<tag k="name" v="Tjolmreinkalvmyra" />
		<tag k="name:no" v="Tjolmreinkalvmyra" />
		<tag k="natural" v="wetland" />
		<tag k="ssr:stedsnr" v="237636" />
	</node>
	<node id="-144489" lat="65.3643083373" lon="14.0601583359">
		<tag k="name" v="Nils-Henrikvollen" />
		<tag k="name:no" v="Nils-Henrikvollen" />
		<tag k="place" v="locality" />
		<tag k="ssr:stedsnr" v="337358" />
	</node>
	<node id="-144488" lat="65.7141694473" lon="14.1758861178">
		<tag k="name" v="Blindheim" />
		<tag k="name:no" v="Blindheim" />
		<tag k="place" v="locality" />
		<tag k="ssr:stedsnr" v="337275" />
	</node>
	<node id="-142439" lat="65.412863893" lon="14.1772388989">
		<tag k="name" v="Austre Sørmyr" />
		<tag k="name:no" v="Austre Sørmyr" />
		<tag k="natural" v="wetland" />
		<tag k="ssr:stedsnr" v="237469" />
	</node>
	<node id="-144486" lat="65.6195138888" lon="14.0563916631">
		<tag k="name" v="Målmyra" />
		<tag k="name:no" v="Målmyra" />
		<tag k="natural" v="wetland" />
		<tag k="ssr:stedsnr" v="337219" />
	</node>
	<node id="-144485" lat="65.853680555" lon="14.1809472161">
		<tag k="name" v="Hjartfjellnesmyra" />
		<tag k="name:no" v="Hjartfjellnesmyra" />
		<tag k="natural" v="wetland" />
		<tag k="ssr:stedsnr" v="337203" />
	</node>
	<node id="-144484" lat="65.5876944401" lon="14.1718694489">
		<tag k="name" v="Merkemyra" />
		<tag k="name:no" v="Merkemyra" />
		<tag k="natural" v="wetland" />
		<tag k="ssr:stedsnr" v="337199" />
	</node>
	<node id="-142431" lat="65.5774777763" lon="14.2721944526">
		<tag k="name" v="Brattlimyran" />
		<tag k="name:no" v="Brattlimyran" />
		<tag k="natural" v="wetland" />
		<tag k="ssr:stedsnr" v="16854" />
	</node>
	<node id="-142423" lat="65.4583416666" lon="14.464644453">
		<tag k="name" v="Fjellmyran" />
		<tag k="name:no" v="Fjellmyran" />
		<tag k="natural" v="wetland" />
		<tag k="ssr:stedsnr" v="223883" />
	</node>
	<node id="-142411" lat="65.8024444479" lon="14.6060000033">
		<tag k="alt_name:no" v="Linmyren" />
		<tag k="name" v="Linmyran" />
		<tag k="name:no" v="Linmyran" />
		<tag k="natural" v="wetland" />
		<tag k="ssr:stedsnr" v="15504" />
	</node>
	<node id="-142398" lat="65.412747223" lon="14.1872999949">
		<tag k="name" v="Kårsmyra" />
		<tag k="name:no" v="Kårsmyra" />
		<tag k="natural" v="wetland" />
		<tag k="ssr:stedsnr" v="222441" />
	</node>
	<node id="-142395" lat="65.5837111109" lon="13.8396277769">
		<tag k="landuse" v="meadow" />
		<tag k="name" v="Nyenget" />
		<tag k="name:no" v="Nyenget" />
		<tag k="ssr:stedsnr" v="222282" />
	</node>
	<node id="-144429" lat="65.5670277791" lon="14.2256333425">
		<tag k="name" v="Stormyra" />
		<tag k="name:no" v="Stormyra" />
		<tag k="natural" v="wetland" />
		<tag k="ssr:stedsnr" v="318839" />
	</node>
	<node id="-144425" lat="65.5160277768" lon="14.2488888929">
		<tag k="name" v="Dalmyra" />
		<tag k="name:no" v="Dalmyra" />
		<tag k="natural" v="wetland" />
		<tag k="ssr:stedsnr" v="318813" />
	</node>
	<node id="-144424" lat="65.3846027788" lon="14.061188889">
		<tag k="name" v="Sætermyra" />
		<tag k="name:no" v="Sætermyra" />
		<tag k="natural" v="wetland" />
		<tag k="ssr:stedsnr" v="318772" />
	</node>
	<node id="-144422" lat="65.3459750014" lon="13.8034277817">
		<tag k="name" v="Bliehtjedielhtie" />
		<tag k="name:sma" v="Bliehtjedielhtie" />
		<tag k="natural" v="glacier" />
		<tag k="ssr:stedsnr" v="318767" />
	</node>
	<node id="-144418" lat="65.3610527744" lon="13.9788499957">
		<tag k="name" v="Stormyra" />
		<tag k="name:no" v="Stormyra" />
		<tag k="natural" v="wetland" />
		<tag k="ssr:stedsnr" v="318656" />
	</node>
	<node id="-144410" lat="65.6306861093" lon="14.1845499976">
		<tag k="name" v="Vågvassdalsmyran" />
		<tag k="name:no" v="Vågvassdalsmyran" />
		<tag k="natural" v="wetland" />
		<tag k="ssr:stedsnr" v="319089" />
	</node>
	<node id="-142632" lat="65.6015027758" lon="13.793058337">
		<tag k="name" v="Stormyra" />
		<tag k="name:no" v="Stormyra" />
		<tag k="natural" v="wetland" />
		<tag k="ssr:stedsnr" v="197113" />
	</node>
	<node id="-144392" lat="65.6118750038" lon="14.1285583329">
		<tag k="name" v="Fløtningsmyran" />
		<tag k="name:no" v="Fløtningsmyran" />
		<tag k="natural" v="wetland" />
		<tag k="ssr:stedsnr" v="318100" />
	</node>
	<node id="-142848" lat="65.3731888918" lon="14.2050416591">
		<tag k="landuse" v="meadow" />
		<tag k="name" v="Øverlaenget" />
		<tag k="name:no" v="Øverlaenget" />
		<tag k="ssr:stedsnr" v="458294" />
	</node>
	<node id="-144379" lat="65.455491664" lon="13.9983083311">
		<tag k="name" v="Stormyra" />
		<tag k="name:no" v="Stormyra" />
		<tag k="natural" v="wetland" />
		<tag k="ssr:stedsnr" v="317795" />
	</node>
	<node id="-144375" lat="65.4536555558" lon="14.1662500051">
		<tag k="alt_name:no" v="Mikkeljordmyrene" />
		<tag k="name" v="Mikkeljordmyra" />
		<tag k="name:no" v="Mikkeljordmyra" />
		<tag k="natural" v="wetland" />
		<tag k="ssr:stedsnr" v="317748" />
	</node>
	<node id="-144369" lat="65.6109055583" lon="13.8948472316">
		<tag k="name" v="Jarmyra" />
		<tag k="name:no" v="Jarmyra" />
		<tag k="natural" v="wetland" />
		<tag k="ssr:stedsnr" v="301285" />
	</node>
	<node id="-144368" lat="65.4604611101" lon="14.4049361001">
		<tag k="name" v="Merkestein" />
		<tag k="name:no" v="Merkestein" />
		<tag k="natural" v="stone" />
		<tag k="ssr:stedsnr" v="300700" />
	</node>
	<node id="-144365" lat="65.4562277817" lon="14.1013944495">
		<tag k="name" v="Gabrilmyra" />
		<tag k="name:no" v="Gabrilmyra" />
		<tag k="natural" v="wetland" />
		<tag k="ssr:stedsnr" v="216798" />
	</node>
	<node id="-144362" lat="65.5607833344" lon="14.243602788">
		<tag k="name" v="Fløtningsmyra" />
		<tag k="name:no" v="Fløtningsmyra" />
		<tag k="natural" v="wetland" />
		<tag k="ssr:stedsnr" v="216756" />
	</node>
	<node id="-144360" lat="65.571705559" lon="14.2123388837">
		<tag k="name" v="Gardsmyra" />
		<tag k="name:no" v="Gardsmyra" />
		<tag k="natural" v="wetland" />
		<tag k="ssr:stedsnr" v="216754" />
	</node>
	<node id="-144357" lat="65.5621222266" lon="14.0017083263">
		<tag k="name" v="Storvollen" />
		<tag k="name:no" v="Storvollen" />
		<tag k="place" v="locality" />
		<tag k="ssr:stedsnr" v="216553" />
	</node>
	<node id="-144353" lat="65.5602138899" lon="14.2795777682">
		<tag k="name" v="Sørmyra" />
		<tag k="name:no" v="Sørmyra" />
		<tag k="natural" v="wetland" />
		<tag k="ssr:stedsnr" v="216533" />
	</node>
	<node id="-144343" lat="65.5324555572" lon="14.1312083295">
		<tag k="name" v="Reinhagen" />
		<tag k="name:no" v="Reinhagen" />
		<tag k="place" v="locality" />
		<tag k="ssr:stedsnr" v="216188" />
	</node>
	<node id="-144341" lat="65.5880027748" lon="14.1255833224">
		<tag k="name" v="Kristianhogsten" />
		<tag k="name:no" v="Kristianhogsten" />
		<tag k="place" v="locality" />
		<tag k="ssr:stedsnr" v="216170" />
	</node>
	<node id="-144337" lat="65.6546833354" lon="13.8955277782">
		<tag k="name" v="Stjørdalmyra" />
		<tag k="name:no" v="Stjørdalmyra" />
		<tag k="natural" v="wetland" />
		<tag k="ssr:stedsnr" v="215989" />
	</node>
	<node id="-144333" lat="65.5813555594" lon="13.8390388846">
		<tag k="name" v="Nernyenget" />
		<tag k="name:no" v="Nernyenget" />
		<tag k="place" v="locality" />
		<tag k="ssr:stedsnr" v="214781" />
	</node>
	<node id="-144332" lat="65.5983805536" lon="13.8961388895">
		<tag k="name" v="Bærmyra" />
		<tag k="name:no" v="Bærmyra" />
		<tag k="natural" v="wetland" />
		<tag k="ssr:stedsnr" v="214578" />
	</node>
	<node id="-144322" lat="65.5651444407" lon="14.0559111174">
		<tag k="name" v="Sætermyra" />
		<tag k="name:no" v="Sætermyra" />
		<tag k="natural" v="wetland" />
		<tag k="ssr:stedsnr" v="198190" />
	</node>
	<node id="-144313" lat="65.6203472203" lon="13.9879249961">
		<tag k="name" v="Arkfjellmyran" />
		<tag k="name:no" v="Arkfjellmyran" />
		<tag k="natural" v="wetland" />
		<tag k="ssr:stedsnr" v="198052" />
	</node>
	<node id="-144297" lat="65.5547611097" lon="14.2253694473">
		<tag k="alt_name:no" v="Bentolamyra" />
		<tag k="name" v="Bent-Olamyra" />
		<tag k="name:no" v="Bent-Olamyra" />
		<tag k="natural" v="wetland" />
		<tag k="ssr:stedsnr" v="197847" />
	</node>
	<node id="-144291" lat="65.7355888867" lon="14.0961277848">
		<tag k="name" v="Mellomelvan" />
		<tag k="name:no" v="Mellomelvan" />
		<tag k="place" v="locality" />
		<tag k="ssr:stedsnr" v="197327" />
	</node>
	<node id="-144289" lat="65.7360472264" lon="14.1104305498">
		<tag k="name" v="Bjørkenget" />
		<tag k="name:no" v="Bjørkenget" />
		<tag k="place" v="locality" />
		<tag k="ssr:stedsnr" v="197319" />
	</node>
	<node id="-144287" lat="65.6311999992" lon="13.9333888783">
		<tag k="name" v="Høgstlandet" />
		<tag k="name:no" v="Høgstlandet" />
		<tag k="place" v="locality" />
		<tag k="ssr:stedsnr" v="197478" />
	</node>
	<node id="-144284" lat="65.6386611078" lon="14.0503722282">
		<tag k="name" v="Stormyra" />
		<tag k="name:no" v="Stormyra" />
		<tag k="natural" v="wetland" />
		<tag k="ssr:stedsnr" v="197466" />
	</node>
	<node id="-144282" lat="65.5501972184" lon="14.2045888839">
		<tag k="name" v="Kroktjønnbekkmyra" />
		<tag k="name:no" v="Kroktjønnbekkmyra" />
		<tag k="natural" v="wetland" />
		<tag k="ssr:stedsnr" v="197276" />
	</node>
	<node id="-144281" lat="65.5442027809" lon="13.8373333302">
		<tag k="name" v="Kavelmyra" />
		<tag k="name:no" v="Kavelmyra" />
		<tag k="natural" v="wetland" />
		<tag k="ssr:stedsnr" v="197275" />
	</node>
	<node id="-144277" lat="65.563230559" lon="14.2097333288">
		<tag k="name" v="Vassengmyra" />
		<tag k="name:no" v="Vassengmyra" />
		<tag k="natural" v="wetland" />
		<tag k="ssr:stedsnr" v="197236" />
	</node>
	<node id="-144272" lat="65.6151222255" lon="13.8201166731">
		<tag k="name" v="Grønmyra" />
		<tag k="name:no" v="Grønmyra" />
		<tag k="natural" v="wetland" />
		<tag k="ssr:stedsnr" v="197092" />
	</node>
	<node id="-143170" lat="65.6635861102" lon="13.9334944423">
		<tag k="name" v="Fagermyra" />
		<tag k="name:no" v="Fagermyra" />
		<tag k="natural" v="wetland" />
		<tag k="ssr:stedsnr" v="501474" />
	</node>
	<node id="-144262" lat="65.5727305566" lon="14.3535027694">
		<tag k="name" v="Forsmyra" />
		<tag k="name:no" v="Forsmyra" />
		<tag k="natural" v="wetland" />
		<tag k="ssr:stedsnr" v="178687" />
	</node>
	<node id="-144260" lat="65.6920111089" lon="14.2053083393">
		<tag k="name" v="Stormyra" />
		<tag k="name:no" v="Stormyra" />
		<tag k="natural" v="wetland" />
		<tag k="ssr:stedsnr" v="177633" />
	</node>
	<node id="-144258" lat="65.5409722264" lon="14.243744453">
		<tag k="name" v="Langmyra" />
		<tag k="name:no" v="Langmyra" />
		<tag k="natural" v="wetland" />
		<tag k="ssr:stedsnr" v="177613" />
	</node>
	<node id="-144249" lat="65.4328999963" lon="13.973194434">
		<tag k="name" v="Øverenget" />
		<tag k="name:no" v="Øverenget" />
		<tag k="place" v="locality" />
		<tag k="ssr:stedsnr" v="161380" />
	</node>
	<node id="-144239" lat="65.5143861117" lon="14.2312583253">
		<tag k="name" v="Kulmyra" />
		<tag k="name:no" v="Kulmyra" />
		<tag k="natural" v="wetland" />
		<tag k="ssr:stedsnr" v="155846" />
	</node>
	<node id="-144237" lat="65.615463893" lon="14.0417749953">
		<tag k="name" v="Rundmyra" />
		<tag k="name:no" v="Rundmyra" />
		<tag k="natural" v="wetland" />
		<tag k="ssr:stedsnr" v="155691" />
	</node>
	<node id="-144235" lat="65.5264666634" lon="14.0338805623">
		<tag k="name" v="Harkmyra" />
		<tag k="name:no" v="Harkmyra" />
		<tag k="natural" v="wetland" />
		<tag k="ssr:stedsnr" v="155555" />
	</node>
	<node id="-144233" lat="65.4320138847" lon="14.140552776">
		<tag k="name" v="Sørvollen" />
		<tag k="name:no" v="Sørvollen" />
		<tag k="place" v="locality" />
		<tag k="ssr:stedsnr" v="155550" />
	</node>
	<node id="-144230" lat="65.6092972207" lon="14.1108027748">
		<tag k="name" v="Lagersletta" />
		<tag k="name:no" v="Lagersletta" />
		<tag k="natural" v="wetland" />
		<tag k="ssr:stedsnr" v="155527" />
	</node>
	<node id="-144229" lat="65.574380556" lon="14.2792305564">
		<tag k="name" v="Geitklauvmyra" />
		<tag k="name:no" v="Geitklauvmyra" />
		<tag k="natural" v="wetland" />
		<tag k="ssr:stedsnr" v="155521" />
	</node>
	<node id="-144228" lat="65.5709472179" lon="14.2578277829">
		<tag k="name" v="Trondmyra" />
		<tag k="name:no" v="Trondmyra" />
		<tag k="natural" v="wetland" />
		<tag k="ssr:stedsnr" v="155520" />
	</node>
	<node id="-144225" lat="65.3769749977" lon="14.147322211">
		<tag k="name" v="Bjørnbekkmyra" />
		<tag k="name:no" v="Bjørnbekkmyra" />
		<tag k="natural" v="wetland" />
		<tag k="ssr:stedsnr" v="155465" />
	</node>
	<node id="-144224" lat="65.3756638869" lon="14.1598833278">
		<tag k="name" v="Petterbumyra" />
		<tag k="name:no" v="Petterbumyra" />
		<tag k="natural" v="wetland" />
		<tag k="ssr:stedsnr" v="155464" />
	</node>
	<node id="-144223" lat="65.5521666676" lon="14.0143916635">
		<tag k="landuse" v="meadow" />
		<tag k="name" v="Bergulenget" />
		<tag k="name:no" v="Bergulenget" />
		<tag k="ssr:stedsnr" v="155461" />
	</node>
	<node id="-144222" lat="65.4244305528" lon="14.0057444406">
		<tag k="historic" v="shieling" />
		<tag k="name" v="Sætra" />
		<tag k="name:no" v="Sætra" />
		<tag k="place" v="locality" />
		<tag k="ssr:stedsnr" v="155445" />
	</node>
	<node id="-144221" lat="65.5653416704" lon="14.161549991">
		<tag k="name" v="Steinmyra" />
		<tag k="name:no" v="Steinmyra" />
		<tag k="natural" v="wetland" />
		<tag k="ssr:stedsnr" v="155439" />
	</node>
	<node id="-144219" lat="65.5786166666" lon="14.160602785">
		<tag k="name" v="Bergslåtten" />
		<tag k="name:no" v="Bergslåtten" />
		<tag k="place" v="locality" />
		<tag k="ssr:stedsnr" v="155433" />
	</node>
	<node id="-144217" lat="65.5616027775" lon="14.1802583383">
		<tag k="name" v="Båtgranmyra" />
		<tag k="name:no" v="Båtgranmyra" />
		<tag k="natural" v="wetland" />
		<tag k="ssr:stedsnr" v="155430" />
	</node>
	<node id="-144213" lat="65.3655916689" lon="14.208561105">
		<tag k="landuse" v="meadow" />
		<tag k="name" v="Enget" />
		<tag k="name:no" v="Enget" />
		<tag k="ssr:stedsnr" v="155249" />
	</node>
	<node id="-144211" lat="65.5888305581" lon="14.1293722223">
		<tag k="name" v="Rødikmyran" />
		<tag k="name:no" v="Rødikmyran" />
		<tag k="natural" v="wetland" />
		<tag k="ssr:stedsnr" v="155200" />
	</node>
	<node id="-144209" lat="65.5248861101" lon="14.0712138836">
		<tag k="name" v="Småvelten" />
		<tag k="name:no" v="Småvelten" />
		<tag k="place" v="locality" />
		<tag k="ssr:stedsnr" v="155159" />
	</node>
	<node id="-144207" lat="65.6300916648" lon="13.8898194498">
		<tag k="name" v="Lilleosmyra" />
		<tag k="name:no" v="Lilleosmyra" />
		<tag k="natural" v="wetland" />
		<tag k="ssr:stedsnr" v="154954" />
	</node>
	<node id="-144206" lat="65.3689361069" lon="14.0370694398">
		<tag k="name" v="Blautmyra" />
		<tag k="name:no" v="Blautmyra" />
		<tag k="natural" v="wetland" />
		<tag k="ssr:stedsnr" v="154698" />
	</node>
	<node id="-144200" lat="65.5893027747" lon="13.9003861001">
		<tag k="name" v="Mørnhusmyra" />
		<tag k="name:no" v="Mørnhusmyra" />
		<tag k="natural" v="wetland" />
		<tag k="ssr:stedsnr" v="153550" />
	</node>
	<node id="-144198" lat="65.5740583364" lon="13.8156500005">
		<tag k="name" v="Storåsmyra" />
		<tag k="name:no" v="Storåsmyra" />
		<tag k="natural" v="wetland" />
		<tag k="ssr:stedsnr" v="153371" />
	</node>
	<node id="-144169" lat="65.562058331" lon="14.2439777877">
		<tag k="name" v="Skjurtoppmyra" />
		<tag k="name:no" v="Skjurtoppmyra" />
		<tag k="natural" v="wetland" />
		<tag k="ssr:stedsnr" v="136825" />
	</node>
	<node id="-144152" lat="65.6451416662" lon="13.8868888941">
		<tag k="name" v="Høystakkmyra" />
		<tag k="name:no" v="Høystakkmyra" />
		<tag k="natural" v="wetland" />
		<tag k="ssr:stedsnr" v="136439" />
	</node>
	<node id="-144136" lat="65.6327805573" lon="14.0470888888">
		<tag k="name" v="Moengmyra" />
		<tag k="name:no" v="Moengmyra" />
		<tag k="natural" v="wetland" />
		<tag k="ssr:stedsnr" v="136113" />
	</node>
	<node id="-144131" lat="65.6078055584" lon="14.1539750055">
		<tag k="name" v="Hattmyran" />
		<tag k="name:no" v="Hattmyran" />
		<tag k="natural" v="wetland" />
		<tag k="ssr:stedsnr" v="136047" />
	</node>
	<node id="-142464" lat="65.5578583287" lon="14.1763250096">
		<tag k="name" v="Notstongmyra" />
		<tag k="name:no" v="Notstongmyra" />
		<tag k="natural" v="wetland" />
		<tag k="ssr:stedsnr" v="95362" />
	</node>
	<node id="-144107" lat="65.5854194487" lon="13.7940361091">
		<tag k="name" v="Limyra" />
		<tag k="name:no" v="Limyra" />
		<tag k="natural" v="wetland" />
		<tag k="ssr:stedsnr" v="101280" />
	</node>
	<node id="-144103" lat="65.605188888" lon="14.0458444517">
		<tag k="landuse" v="meadow" />
		<tag k="name" v="Sirijordsenget" />
		<tag k="name:no" v="Sirijordsenget" />
		<tag k="ssr:stedsnr" v="95596" />
	</node>
	<node id="-144099" lat="65.6210083317" lon="14.0747500083">
		<tag k="name" v="Storsteinmyra" />
		<tag k="name:no" v="Storsteinmyra" />
		<tag k="natural" v="wetland" />
		<tag k="ssr:stedsnr" v="95487" />
	</node>
	<node id="-144096" lat="65.4142083302" lon="14.03450277">
		<tag k="name" v="Stormyra" />
		<tag k="name:no" v="Stormyra" />
		<tag k="natural" v="wetland" />
		<tag k="ssr:stedsnr" v="95389" />
	</node>
	<node id="-144095" lat="65.3828944436" lon="14.0677138821">
		<tag k="name" v="Raumyra" />
		<tag k="name:no" v="Raumyra" />
		<tag k="natural" v="wetland" />
		<tag k="ssr:stedsnr" v="95275" />
	</node>
	<node id="-144092" lat="65.7958527746" lon="14.2577638982">
		<tag k="name" v="Tømmerlunnmyran" />
		<tag k="name:no" v="Tømmerlunnmyran" />
		<tag k="natural" v="wetland" />
		<tag k="ssr:stedsnr" v="95167" />
	</node>
	<node id="-144089" lat="65.6329555547" lon="14.0197555589">
		<tag k="name" v="Rundmyra" />
		<tag k="name:no" v="Rundmyra" />
		<tag k="natural" v="wetland" />
		<tag k="ssr:stedsnr" v="95010" />
	</node>
	<node id="-143174" lat="65.5944250005" lon="13.8351000078">
		<tag k="name" v="Sankarmyra" />
		<tag k="name:no" v="Sankarmyra" />
		<tag k="natural" v="wetland" />
		<tag k="ssr:stedsnr" v="682027" />
	</node>
	<node id="-144086" lat="65.5307916653" lon="14.2090944498">
		<tag k="name" v="Sanderlimyra" />
		<tag k="name:no" v="Sanderlimyra" />
		<tag k="natural" v="wetland" />
		<tag k="ssr:stedsnr" v="94906" />
	</node>
	<node id="-144085" lat="65.499961113" lon="14.3043861176">
		<tag k="name" v="Skogstutomten" />
		<tag k="name:no" v="Skogstutomten" />
		<tag k="place" v="locality" />
		<tag k="ssr:stedsnr" v="94896" />
	</node>
	<node id="-144082" lat="65.5580444461" lon="14.2760638845">
		<tag k="name" v="Bendikstormyra" />
		<tag k="name:no" v="Bendikstormyra" />
		<tag k="natural" v="wetland" />
		<tag k="ssr:stedsnr" v="94613" />
	</node>
	<node id="-144077" lat="65.368877777" lon="14.1923333369">
		<tag k="name" v="Jonasåkeren" />
		<tag k="name:no" v="Jonasåkeren" />
		<tag k="place" v="locality" />
		<tag k="ssr:stedsnr" v="94277" />
	</node>
	<node id="-144075" lat="65.581725001" lon="14.1760916626">
		<tag k="name" v="Hestmyra" />
		<tag k="name:no" v="Hestmyra" />
		<tag k="natural" v="wetland" />
		<tag k="ssr:stedsnr" v="94239" />
	</node>
	<node id="-144073" lat="65.8333305584" lon="14.1960444425">
		<tag k="name" v="Geitklauvmyra" />
		<tag k="name:no" v="Geitklauvmyra" />
		<tag k="natural" v="wetland" />
		<tag k="ssr:stedsnr" v="94186" />
	</node>
	<node id="-144066" lat="65.4575138872" lon="14.0264555565">
		<tag k="name" v="Tjønnmyra" />
		<tag k="name:no" v="Tjønnmyra" />
		<tag k="natural" v="wetland" />
		<tag k="ssr:stedsnr" v="95328" />
	</node>
	<node id="-144058" lat="65.5527916685" lon="14.280822233">
		<tag k="name" v="Larsstormyra" />
		<tag k="name:no" v="Larsstormyra" />
		<tag k="natural" v="wetland" />
		<tag k="ssr:stedsnr" v="76824" />
	</node>
	<node id="-144057" lat="65.531844443" lon="14.2571777777">
		<tag k="name" v="Våtmyra" />
		<tag k="name:no" v="Våtmyra" />
		<tag k="natural" v="wetland" />
		<tag k="ssr:stedsnr" v="76817" />
	</node>
	<node id="-142451" lat="65.8592111123" lon="14.2756999909">
		<tag k="name" v="Litllaenget" />
		<tag k="name:no" v="Litllaenget" />
		<tag k="place" v="locality" />
		<tag k="ssr:stedsnr" v="239652" />
	</node>
	<node id="-144040" lat="65.7329194417" lon="14.1124555517">
		<tag k="name" v="Langmyra" />
		<tag k="name:no" v="Langmyra" />
		<tag k="natural" v="wetland" />
		<tag k="ssr:stedsnr" v="76751" />
	</node>
	<node id="-144023" lat="65.6316055565" lon="13.8306500004">
		<tag k="name" v="Raudnakkmyra" />
		<tag k="name:no" v="Raudnakkmyra" />
		<tag k="natural" v="wetland" />
		<tag k="ssr:stedsnr" v="76450" />
	</node>
	<node id="-143233" lat="65.6780777798" lon="14.1935722296">
		<tag k="name" v="Stormyra" />
		<tag k="name:no" v="Stormyra" />
		<tag k="natural" v="wetland" />
		<tag k="ssr:stedsnr" v="520521" />
	</node>
	<node id="-142787" lat="65.5881527749" lon="14.1686666724">
		<tag k="alt_name:no" v="Grønmyran" />
		<tag k="name" v="Grønmyra" />
		<tag k="name:no" v="Grønmyra" />
		<tag k="natural" v="wetland" />
		<tag k="ssr:stedsnr" v="258063" />
	</node>
	<node id="-144013" lat="65.7049388901" lon="13.8804444539">
		<tag k="name" v="Granluskmyra" />
		<tag k="name:no" v="Granluskmyra" />
		<tag k="natural" v="wetland" />
		<tag k="ssr:stedsnr" v="76301" />
	</node>
	<node id="-144001" lat="65.5221805588" lon="14.0934333383">
		<tag k="name" v="Surmyra" />
		<tag k="name:no" v="Surmyra" />
		<tag k="natural" v="wetland" />
		<tag k="ssr:stedsnr" v="76179" />
	</node>
	<node id="-143992" lat="65.6092305515" lon="14.1649833334">
		<tag k="name" v="Ivarhattmyran" />
		<tag k="name:no" v="Ivarhattmyran" />
		<tag k="natural" v="wetland" />
		<tag k="ssr:stedsnr" v="76131" />
	</node>
	<node id="-143985" lat="65.6263305547" lon="14.0276500077">
		<tag k="name" v="Skrivsteinmyra" />
		<tag k="name:no" v="Skrivsteinmyra" />
		<tag k="natural" v="wetland" />
		<tag k="ssr:stedsnr" v="76091" />
	</node>
	<node id="-142440" lat="65.4557055516" lon="14.1557833351">
		<tag k="name" v="Haugbukkmyra" />
		<tag k="name:no" v="Haugbukkmyra" />
		<tag k="natural" v="wetland" />
		<tag k="ssr:stedsnr" v="237473" />
	</node>
	<node id="-143961" lat="65.6339194469" lon="13.9489833426">
		<tag k="name" v="Bjønnmyra" />
		<tag k="name:no" v="Bjønnmyra" />
		<tag k="natural" v="wetland" />
		<tag k="ssr:stedsnr" v="59461" />
	</node>
	<node id="-143942" lat="65.8081249969" lon="14.5382805629">
		<tag k="name" v="Brakfjellurda" />
		<tag k="name:no" v="Brakfjellurda" />
		<tag k="natural" v="scree" />
		<tag k="ssr:stedsnr" v="42908" />
	</node>
	<node id="-143940" lat="65.4256638926" lon="14.1915777784">
		<tag k="landuse" v="meadow" />
		<tag k="name" v="Lilaenget" />
		<tag k="name:no" v="Lilaenget" />
		<tag k="ssr:stedsnr" v="40490" />
	</node>
	<node id="-143934" lat="65.4629777762" lon="14.052949989">
		<tag k="name" v="Utengløet" />
		<tag k="name:no" v="Utengløet" />
		<tag k="place" v="locality" />
		<tag k="ssr:stedsnr" v="34835" />
	</node>
	<node id="-143931" lat="65.4490750027" lon="14.0921277734">
		<tag k="name" v="Vasshøvmyra" />
		<tag k="name:no" v="Vasshøvmyra" />
		<tag k="natural" v="wetland" />
		<tag k="ssr:stedsnr" v="34793" />
	</node>
	<node id="-143930" lat="65.62251389" lon="13.9994777883">
		<tag k="name" v="Storarkfjellmyra" />
		<tag k="name:no" v="Storarkfjellmyra" />
		<tag k="natural" v="wetland" />
		<tag k="ssr:stedsnr" v="34692" />
	</node>
	<node id="-143929" lat="65.6024222231" lon="14.0227944378">
		<tag k="name" v="Bergmyra" />
		<tag k="name:no" v="Bergmyra" />
		<tag k="natural" v="wetland" />
		<tag k="ssr:stedsnr" v="34596" />
	</node>
	<node id="-143926" lat="65.6011666649" lon="14.1148777691">
		<tag k="name" v="Sagmyra" />
		<tag k="name:no" v="Sagmyra" />
		<tag k="natural" v="wetland" />
		<tag k="ssr:stedsnr" v="34507" />
	</node>
	<node id="-143924" lat="65.6016694466" lon="13.9512000039">
		<tag k="name" v="Finnmomyra" />
		<tag k="name:no" v="Finnmomyra" />
		<tag k="natural" v="wetland" />
		<tag k="ssr:stedsnr" v="34458" />
	</node>
	<node id="-143919" lat="65.4754388928" lon="14.0077166611">
		<tag k="name" v="Rundmyra" />
		<tag k="name:no" v="Rundmyra" />
		<tag k="natural" v="wetland" />
		<tag k="ssr:stedsnr" v="34351" />
	</node>
	<node id="-143918" lat="65.3644138913" lon="14.0480916655">
		<tag k="name" v="Setermyra" />
		<tag k="name:no" v="Setermyra" />
		<tag k="natural" v="wetland" />
		<tag k="ssr:stedsnr" v="34312" />
	</node>
	<node id="-143917" lat="65.6397222209" lon="14.0364916607">
		<tag k="name" v="Nerlangmyra" />
		<tag k="name:no" v="Nerlangmyra" />
		<tag k="natural" v="wetland" />
		<tag k="ssr:stedsnr" v="34208" />
	</node>
	<node id="-143916" lat="65.5193916625" lon="14.1499833337">
		<tag k="name" v="Steinmyra" />
		<tag k="name:no" v="Steinmyra" />
		<tag k="natural" v="wetland" />
		<tag k="ssr:stedsnr" v="34204" />
	</node>
	<node id="-143915" lat="65.6302222252" lon="13.9897527881">
		<tag k="name" v="Hattfjellangmyra" />
		<tag k="name:no" v="Hattfjellangmyra" />
		<tag k="natural" v="wetland" />
		<tag k="ssr:stedsnr" v="34002" />
	</node>
	<node id="-143904" lat="65.565380556" lon="14.277613884">
		<tag k="name" v="Forsnesmyra" />
		<tag k="name:no" v="Forsnesmyra" />
		<tag k="natural" v="wetland" />
		<tag k="ssr:stedsnr" v="33631" />
	</node>
	<node id="-143902" lat="65.4475361121" lon="13.9732250086">
		<tag k="name" v="Grustakmyra" />
		<tag k="name:no" v="Grustakmyra" />
		<tag k="natural" v="wetland" />
		<tag k="ssr:stedsnr" v="33579" />
	</node>
	<node id="-143897" lat="65.5873083318" lon="14.160388895">
		<tag k="name" v="Småmyran" />
		<tag k="name:no" v="Småmyran" />
		<tag k="natural" v="wetland" />
		<tag k="ssr:stedsnr" v="33228" />
	</node>
	<node id="-143896" lat="65.5865249999" lon="14.1828333282">
		<tag k="name" v="Grasliommyra" />
		<tag k="name:no" v="Grasliommyra" />
		<tag k="natural" v="wetland" />
		<tag k="ssr:stedsnr" v="33222" />
	</node>
	<node id="-143893" lat="65.5839305523" lon="13.8263916762">
		<tag k="name" v="Småvollan" />
		<tag k="name:no" v="Småvollan" />
		<tag k="place" v="locality" />
		<tag k="ssr:stedsnr" v="32733" />
	</node>
	<node id="-143891" lat="65.5811861119" lon="14.2415583385">
		<tag k="name" v="Istermyra" />
		<tag k="name:no" v="Istermyra" />
		<tag k="natural" v="wetland" />
		<tag k="ssr:stedsnr" v="16858" />
	</node>
	<node id="-143886" lat="65.5687749957" lon="14.2778250009">
		<tag k="name" v="Høgstlandet" />
		<tag k="name:no" v="Høgstlandet" />
		<tag k="place" v="locality" />
		<tag k="ssr:stedsnr" v="16755" />
	</node>
	<node id="-143879" lat="65.5661527776" lon="14.0057583312">
		<tag k="name" v="Kolmila" />
		<tag k="name:no" v="Kolmila" />
		<tag k="place" v="locality" />
		<tag k="ssr:stedsnr" v="16185" />
	</node>
	<node id="-142886" lat="65.6173611109" lon="14.0043000021">
		<tag k="name" v="Lillearkfjellmyra" />
		<tag k="name:no" v="Lillearkfjellmyra" />
		<tag k="natural" v="wetland" />
		<tag k="ssr:stedsnr" v="277713" />
	</node>
	<node id="-143839" lat="65.5520888913" lon="14.1001722137">
		<tag k="name" v="Lamyra" />
		<tag k="name:no" v="Lamyra" />
		<tag k="natural" v="wetland" />
		<tag k="ssr:stedsnr" v="15254" />
	</node>
	<node id="-143824" lat="65.58064722" lon="13.8656999962">
		<tag k="name" v="Brennan" />
		<tag k="name:no" v="Brennan" />
		<tag k="place" v="locality" />
		<tag k="ssr:stedsnr" v="15039" />
	</node>
	<node id="-143816" lat="65.5330944416" lon="14.2031833273">
		<tag k="alt_name:no" v="Rundtjørnmyra" />
		<tag k="name" v="Rundtjønnmyra" />
		<tag k="name:no" v="Rundtjønnmyra" />
		<tag k="natural" v="wetland" />
		<tag k="ssr:stedsnr" v="15151" />
	</node>
	<node id="-143800" lat="65.5864777746" lon="14.0312416592">
		<tag k="landuse" v="meadow" />
		<tag k="name" v="Valmåsenget" />
		<tag k="name:no" v="Valmåsenget" />
		<tag k="ssr:stedsnr" v="884863" />
	</node>
	<node id="-143791" lat="65.6344194479" lon="14.0238277886">
		<tag k="name" v="Kvitmyra" />
		<tag k="name:no" v="Kvitmyra" />
		<tag k="natural" v="wetland" />
		<tag k="ssr:stedsnr" v="884004" />
	</node>
	<node id="-143782" lat="65.5576777808" lon="14.0018916763">
		<tag k="name" v="Storvollen" />
		<tag k="name:no" v="Storvollen" />
		<tag k="place" v="locality" />
		<tag k="ssr:stedsnr" v="865218" />
	</node>
	<node id="-143780" lat="65.4560249958" lon="14.431680557">
		<tag k="name" v="Storvoll" />
		<tag k="name:no" v="Storvoll" />
		<tag k="place" v="locality" />
		<tag k="ssr:stedsnr" v="945539" />
	</node>
	<node id="-143776" lat="65.8144194429" lon="14.4207888826">
		<tag k="landuse" v="meadow" />
		<tag k="name" v="Karislåtta" />
		<tag k="name:no" v="Karislåtta" />
		<tag k="ssr:stedsnr" v="945279" />
	</node>
	<node id="-143772" lat="65.6317583329" lon="13.8871388902">
		<tag k="name" v="Storosmyra" />
		<tag k="name:no" v="Storosmyra" />
		<tag k="natural" v="wetland" />
		<tag k="ssr:stedsnr" v="944939" />
	</node>
	<node id="-143767" lat="65.5181694469" lon="14.213261111">
		<tag k="name" v="Vegskillmyra" />
		<tag k="name:no" v="Vegskillmyra" />
		<tag k="natural" v="wetland" />
		<tag k="ssr:stedsnr" v="944873" />
	</node>
	<node id="-143765" lat="65.4612611115" lon="14.0484583397">
		<tag k="landuse" v="meadow" />
		<tag k="name" v="Tjønnlaenget" />
		<tag k="name:no" v="Tjønnlaenget" />
		<tag k="ssr:stedsnr" v="944862" />
	</node>
	<node id="-143761" lat="65.575077775" lon="14.2137333343">
		<tag k="name" v="Hestmyra" />
		<tag k="name:no" v="Hestmyra" />
		<tag k="natural" v="wetland" />
		<tag k="ssr:stedsnr" v="944794" />
	</node>
	<node id="-143758" lat="65.5339750028" lon="14.0236472208">
		<tag k="landuse" v="meadow" />
		<tag k="name" v="Lilleslåtten" />
		<tag k="name:no" v="Lilleslåtten" />
		<tag k="ssr:stedsnr" v="944618" />
	</node>
	<node id="-143757" lat="65.4308166679" lon="14.1417777675">
		<tag k="name" v="Tjønnvollen" />
		<tag k="name:no" v="Tjønnvollen" />
		<tag k="place" v="locality" />
		<tag k="ssr:stedsnr" v="944614" />
	</node>
	<node id="-143748" lat="65.4152527747" lon="13.9515027849">
		<tag k="name" v="Steinbakkmyra" />
		<tag k="name:no" v="Steinbakkmyra" />
		<tag k="natural" v="wetland" />
		<tag k="ssr:stedsnr" v="944504" />
	</node>
	<node id="-143747" lat="65.5600111093" lon="14.1746111021">
		<tag k="name" v="Kaldkildmyra" />
		<tag k="name:no" v="Kaldkildmyra" />
		<tag k="natural" v="wetland" />
		<tag k="ssr:stedsnr" v="944476" />
	</node>
	<node id="-143742" lat="65.3720083291" lon="14.2262194408">
		<tag k="landuse" v="meadow" />
		<tag k="name" v="Hopaslåttan" />
		<tag k="name:no" v="Hopaslåttan" />
		<tag k="ssr:stedsnr" v="944254" />
	</node>
	<node id="-143739" lat="65.5358444414" lon="14.1303388922">
		<tag k="name" v="Vollmyra" />
		<tag k="name:no" v="Vollmyra" />
		<tag k="natural" v="wetland" />
		<tag k="ssr:stedsnr" v="944223" />
	</node>
	<node id="-143734" lat="65.7549583314" lon="14.0919527827">
		<tag k="name" v="Merkemyra" />
		<tag k="name:no" v="Merkemyra" />
		<tag k="natural" v="wetland" />
		<tag k="ssr:stedsnr" v="944076" />
	</node>
	<node id="-143733" lat="65.6316972214" lon="14.0388305622">
		<tag k="name" v="Andersmyra" />
		<tag k="name:no" v="Andersmyra" />
		<tag k="natural" v="wetland" />
		<tag k="ssr:stedsnr" v="944026" />
	</node>
	<node id="-143732" lat="65.6546972249" lon="13.8753277736">
		<tag k="name" v="Bærmyra" />
		<tag k="name:no" v="Bærmyra" />
		<tag k="natural" v="wetland" />
		<tag k="ssr:stedsnr" v="943974" />
	</node>
	<node id="-143730" lat="65.6641083294" lon="13.8851000068">
		<tag k="name" v="Stormyra" />
		<tag k="name:no" v="Stormyra" />
		<tag k="natural" v="wetland" />
		<tag k="ssr:stedsnr" v="943965" />
	</node>
	<node id="-143722" lat="65.6803249973" lon="14.2748500094">
		<tag k="name" v="Ole Benjaminmyra" />
		<tag k="name:no" v="Ole Benjaminmyra" />
		<tag k="natural" v="wetland" />
		<tag k="ssr:stedsnr" v="824560" />
	</node>
	<node id="-143716" lat="65.7791250043" lon="14.1836416653">
		<tag k="name" v="Sara-Jonsenmyra" />
		<tag k="name:no" v="Sara-Jonsenmyra" />
		<tag k="natural" v="wetland" />
		<tag k="ssr:stedsnr" v="823253" />
	</node>
	<node id="-143710" lat="65.6942416647" lon="13.8547972264">
		<tag k="name" v="Fjellmyra" />
		<tag k="name:no" v="Fjellmyra" />
		<tag k="natural" v="wetland" />
		<tag k="ssr:stedsnr" v="822569" />
	</node>
	<node id="-143709" lat="65.5793694437" lon="14.1834916684">
		<tag k="name" v="Vesterbarmomyra" />
		<tag k="name:no" v="Vesterbarmomyra" />
		<tag k="natural" v="wetland" />
		<tag k="ssr:stedsnr" v="822216" />
	</node>
	<node id="-143708" lat="65.5879444471" lon="14.1629916725">
		<tag k="name" v="Stormyra" />
		<tag k="name:no" v="Stormyra" />
		<tag k="natural" v="wetland" />
		<tag k="ssr:stedsnr" v="822210" />
	</node>
	<node id="-143707" lat="65.5654444467" lon="13.762761114">
		<tag k="name" v="Storvassmyra" />
		<tag k="name:no" v="Storvassmyra" />
		<tag k="natural" v="wetland" />
		<tag k="ssr:stedsnr" v="821316" />
	</node>
	<node id="-143659" lat="65.692830554" lon="13.7469249957">
		<tag k="name" v="Melkarnesmyran" />
		<tag k="name:no" v="Melkarnesmyran" />
		<tag k="natural" v="wetland" />
		<tag k="ssr:stedsnr" v="926430" />
	</node>
	<node id="-143656" lat="65.6556444437" lon="13.8665388858">
		<tag k="name" v="Stemtjønnmyran" />
		<tag k="name:no" v="Stemtjønnmyran" />
		<tag k="natural" v="wetland" />
		<tag k="ssr:stedsnr" v="926374" />
	</node>
	<node id="-143068" lat="65.6005916658" lon="13.8708333344">
		<tag k="name" v="Sprekkerholmyra" />
		<tag k="name:no" v="Sprekkerholmyra" />
		<tag k="natural" v="wetland" />
		<tag k="ssr:stedsnr" v="517572" />
	</node>
	<node id="-143066" lat="65.6014305538" lon="13.8596027755">
		<tag k="name" v="Nabbmyran" />
		<tag k="name:no" v="Nabbmyran" />
		<tag k="natural" v="wetland" />
		<tag k="ssr:stedsnr" v="517550" />
	</node>
	<node id="-143640" lat="65.6159305596" lon="14.0230666605">
		<tag k="name" v="Johannesmyra" />
		<tag k="name:no" v="Johannesmyra" />
		<tag k="natural" v="wetland" />
		<tag k="ssr:stedsnr" v="926111" />
	</node>
	<node id="-143637" lat="65.6232722198" lon="14.0709111138">
		<tag k="name" v="Flatmyra" />
		<tag k="name:no" v="Flatmyra" />
		<tag k="natural" v="wetland" />
		<tag k="ssr:stedsnr" v="926061" />
	</node>
	<node id="-143635" lat="65.5889527765" lon="13.8771888798">
		<tag k="name" v="Vestermyran" />
		<tag k="name:no" v="Vestermyran" />
		<tag k="natural" v="wetland" />
		<tag k="ssr:stedsnr" v="926054" />
	</node>
	<node id="-143625" lat="65.5490499992" lon="14.2976527802">
		<tag k="name" v="Tronmyra" />
		<tag k="name:no" v="Tronmyra" />
		<tag k="natural" v="wetland" />
		<tag k="ssr:stedsnr" v="925878" />
	</node>
	<node id="-143613" lat="65.3780444455" lon="13.9687500076">
		<tag k="name" v="Stormyra" />
		<tag k="name:no" v="Stormyra" />
		<tag k="natural" v="wetland" />
		<tag k="ssr:stedsnr" v="925820" />
	</node>
	<node id="-143579" lat="65.8001111077" lon="14.5118194482">
		<tag k="name" v="Brakfjellmyra" />
		<tag k="name:no" v="Brakfjellmyra" />
		<tag k="natural" v="wetland" />
		<tag k="ssr:stedsnr" v="770933" />
	</node>
	<node id="-143578" lat="65.5186388893" lon="14.2417749892">
		<tag k="name" v="Tjerradalamyra" />
		<tag k="name:no" v="Tjerradalamyra" />
		<tag k="natural" v="wetland" />
		<tag k="ssr:stedsnr" v="216868" />
	</node>
	<node id="-143577" lat="65.4511305542" lon="14.0920555502">
		<tag k="name" v="Vasshavvollen" />
		<tag k="name:no" v="Vasshavvollen" />
		<tag k="place" v="locality" />
		<tag k="ssr:stedsnr" v="216866" />
	</node>
	<node id="-143575" lat="65.4632138912" lon="14.1126583327">
		<tag k="name" v="Annamyra" />
		<tag k="name:no" v="Annamyra" />
		<tag k="natural" v="wetland" />
		<tag k="ssr:stedsnr" v="216850" />
	</node>
	<node id="-143566" lat="65.6164166655" lon="13.9557055466">
		<tag k="name" v="Flogmyra" />
		<tag k="name:no" v="Flogmyra" />
		<tag k="natural" v="wetland" />
		<tag k="ssr:stedsnr" v="762473" />
	</node>
	<node id="-143565" lat="65.5248111069" lon="13.9891611074">
		<tag k="name" v="Stormyra" />
		<tag k="name:no" v="Stormyra" />
		<tag k="natural" v="wetland" />
		<tag k="ssr:stedsnr" v="762538" />
	</node>
	<node id="-143561" lat="65.6141250012" lon="14.0586277698">
		<tag k="name" v="Tøllevmyra" />
		<tag k="name:no" v="Tøllevmyra" />
		<tag k="natural" v="wetland" />
		<tag k="ssr:stedsnr" v="762523" />
	</node>
	<node id="-143560" lat="65.6217416687" lon="14.0983249936">
		<tag k="name" v="Jomyra" />
		<tag k="name:no" v="Jomyra" />
		<tag k="natural" v="wetland" />
		<tag k="ssr:stedsnr" v="762515" />
	</node>
	<node id="-143559" lat="65.6184916679" lon="14.0858888786">
		<tag k="name" v="Nordtjønnmyra" />
		<tag k="name:no" v="Nordtjønnmyra" />
		<tag k="natural" v="wetland" />
		<tag k="ssr:stedsnr" v="762514" />
	</node>
	<node id="-143554" lat="65.61941389" lon="14.0303194554">
		<tag k="name" v="Hesavmyra" />
		<tag k="name:no" v="Hesavmyra" />
		<tag k="natural" v="wetland" />
		<tag k="ssr:stedsnr" v="216677" />
	</node>
	<node id="-145099" lat="65.5341694447" lon="14.1232083325">
		<tag k="name" v="Tjønnmyra" />
		<tag k="name:no" v="Tjønnmyra" />
		<tag k="natural" v="wetland" />
		<tag k="ssr:stedsnr" v="762206" />
	</node>
	<node id="-143551" lat="65.6294361099" lon="13.9492972281">
		<tag k="name" v="Totjønnmyra" />
		<tag k="name:no" v="Totjønnmyra" />
		<tag k="natural" v="wetland" />
		<tag k="ssr:stedsnr" v="908498" />
	</node>
	<node id="-143547" lat="65.8327861149" lon="14.2280666658">
		<tag k="name" v="Bentlimyra" />
		<tag k="name:no" v="Bentlimyra" />
		<tag k="natural" v="wetland" />
		<tag k="ssr:stedsnr" v="907600" />
	</node>
	<node id="-143527" lat="65.6497416706" lon="14.0165555535">
		<tag k="name" v="Sørtjønnmyra" />
		<tag k="name:no" v="Sørtjønnmyra" />
		<tag k="natural" v="wetland" />
		<tag k="ssr:stedsnr" v="743418" />
	</node>
	<node id="-143503" lat="65.6825111083" lon="13.7647277752">
		<tag k="name" v="Nordmyra" />
		<tag k="name:no" v="Nordmyra" />
		<tag k="natural" v="wetland" />
		<tag k="ssr:stedsnr" v="708151" />
	</node>
	<node id="-143494" lat="65.7958833322" lon="14.5340194504">
		<tag k="name" v="Krokmyren" />
		<tag k="name:no" v="Krokmyren" />
		<tag k="natural" v="wetland" />
		<tag k="ssr:stedsnr" v="891926" />
	</node>
	<node id="-143489" lat="65.4616611072" lon="14.0547027825">
		<tag k="name" v="Fagerjorda" />
		<tag k="name:no" v="Fagerjorda" />
		<tag k="place" v="locality" />
		<tag k="ssr:stedsnr" v="701867" />
	</node>
	<node id="-143475" lat="65.5969749992" lon="13.8602083391">
		<tag k="name" v="Snaumyra" />
		<tag k="name:no" v="Snaumyra" />
		<tag k="natural" v="wetland" />
		<tag k="ssr:stedsnr" v="700577" />
	</node>
	<node id="-143471" lat="65.5905027772" lon="14.1125944436">
		<tag k="name" v="Dalvollen" />
		<tag k="name:no" v="Dalvollen" />
		<tag k="place" v="locality" />
		<tag k="ssr:stedsnr" v="884642" />
	</node>
	<node id="-143465" lat="65.604199997" lon="14.0144166589">
		<tag k="name" v="Svemyra" />
		<tag k="name:no" v="Svemyra" />
		<tag k="natural" v="wetland" />
		<tag k="ssr:stedsnr" v="884580" />
	</node>
	<node id="-143463" lat="65.7399388915" lon="13.9161638831">
		<tag k="name" v="Forsmyra" />
		<tag k="name:no" v="Forsmyra" />
		<tag k="natural" v="wetland" />
		<tag k="ssr:stedsnr" v="884372" />
	</node>
	<node id="-143458" lat="65.5714388901" lon="14.2480611187">
		<tag k="name" v="Merkemyra" />
		<tag k="name:no" v="Merkemyra" />
		<tag k="natural" v="wetland" />
		<tag k="ssr:stedsnr" v="883841" />
	</node>
	<node id="-143457" lat="65.5745888867" lon="14.2232416736">
		<tag k="name" v="Kartmyra" />
		<tag k="name:no" v="Kartmyra" />
		<tag k="natural" v="wetland" />
		<tag k="ssr:stedsnr" v="883835" />
	</node>
	<node id="-143452" lat="65.4158250036" lon="14.1761000039">
		<tag k="name" v="Sørmyran" />
		<tag k="name:no" v="Sørmyran" />
		<tag k="natural" v="wetland" />
		<tag k="ssr:stedsnr" v="683783" />
	</node>
	<node id="-143445" lat="65.5348694432" lon="14.2240777794">
		<tag k="name" v="Skoformyra" />
		<tag k="name:no" v="Skoformyra" />
		<tag k="natural" v="wetland" />
		<tag k="ssr:stedsnr" v="683803" />
	</node>
	<node id="-143437" lat="65.6292472184" lon="13.9287777834">
		<tag k="alt_name:no" v="Tjørnmyra" />
		<tag k="name" v="Tjønnmyra" />
		<tag k="name:no" v="Tjønnmyra" />
		<tag k="natural" v="wetland" />
		<tag k="ssr:stedsnr" v="683405" />
	</node>
	<node id="-143419" lat="65.5749194477" lon="14.2410027882">
		<tag k="name" v="Slåttmyra" />
		<tag k="name:no" v="Slåttmyra" />
		<tag k="natural" v="wetland" />
		<tag k="ssr:stedsnr" v="682866" />
	</node>
	<node id="-143406" lat="65.6699361098" lon="13.8234138889">
		<tag k="name" v="Kalvnesåsmyra" />
		<tag k="name:no" v="Kalvnesåsmyra" />
		<tag k="natural" v="wetland" />
		<tag k="ssr:stedsnr" v="883132" />
	</node>
	<node id="-143403" lat="65.6401499998" lon="14.0839666746">
		<tag k="fixme" v="multiple name tags, choose one and add the other to alt_name" />
		<tag k="name" v="Kerstaferrmyra;Kristafermyra" />
		<tag k="name:no" v="Kerstaferrmyra;Kristafermyra" />
		<tag k="natural" v="wetland" />
		<tag k="ssr:stedsnr" v="682475" />
	</node>
	<node id="-143395" lat="65.6126500005" lon="14.0993138869">
		<tag k="name" v="Langmyra" />
		<tag k="name:no" v="Langmyra" />
		<tag k="natural" v="wetland" />
		<tag k="ssr:stedsnr" v="682121" />
	</node>
	<node id="-143553" lat="65.6291777792" lon="14.06390278">
		<tag k="name" v="Fløttjønnmyra" />
		<tag k="name:no" v="Fløttjønnmyra" />
		<tag k="natural" v="wetland" />
		<tag k="ssr:stedsnr" v="909090" />
	</node>
	<node id="-143389" lat="65.6432194433" lon="14.0535083263">
		<tag k="name" v="Gubbmyran" />
		<tag k="name:no" v="Gubbmyran" />
		<tag k="natural" v="wetland" />
		<tag k="ssr:stedsnr" v="883086" />
	</node>
	<node id="-143380" lat="65.5753444485" lon="13.774083336">
		<tag k="name" v="Anders-Larsamyra" />
		<tag k="name:no" v="Anders-Larsamyra" />
		<tag k="natural" v="wetland" />
		<tag k="ssr:stedsnr" v="882329" />
	</node>
	<node id="-143374" lat="65.8579527801" lon="14.2224000112">
		<tag k="name" v="Skrapmyra" />
		<tag k="name:no" v="Skrapmyra" />
		<tag k="natural" v="wetland" />
		<tag k="ssr:stedsnr" v="664736" />
	</node>
	<node id="-143371" lat="65.3740666622" lon="14.1357361148">
		<tag k="name" v="Bolstadåkran" />
		<tag k="name:no" v="Bolstadåkran" />
		<tag k="place" v="locality" />
		<tag k="ssr:stedsnr" v="662457" />
	</node>
	<node id="-143365" lat="65.443991671" lon="14.4871277781">
		<tag k="name" v="Brentdalsmyran" />
		<tag k="name:no" v="Brentdalsmyran" />
		<tag k="natural" v="wetland" />
		<tag k="ssr:stedsnr" v="647877" />
	</node>
</osm>
