<?xml version="1.0" encoding="UTF-8"?>
<osm generator="osmapis" version="0.6">
	<node id="-533374" lat="61.4548027742" lon="5.63619167365">
		<tag k="alt_name" v="Storura" />
		<tag k="name" v="Staururda" />
		<tag k="natural" v="scree" />
		<tag k="ssr:stedsnr" v="68646" />
	</node>
	<node id="-534013" lat="61.4367777735" lon="6.06833056262">
		<tag k="name" v="Gjelmyra" />
		<tag k="natural" v="wetland" />
		<tag k="ssr:stedsnr" v="577879" />
	</node>
	<node id="-533498" lat="61.4756583336" lon="5.71711945188">
		<tag k="name" v="Storemyra" />
		<tag k="natural" v="wetland" />
		<tag k="ssr:stedsnr" v="129697" />
	</node>
	<node id="-533240" lat="61.4316194419" lon="5.8802138818">
		<tag k="name" v="Myrane" />
		<tag k="natural" v="wetland" />
		<tag k="ssr:stedsnr" v="881918" />
	</node>
	<node id="-533204" lat="61.41959444" lon="6.45955277176">
		<tag k="name" v="Hyllesteinen" />
		<tag k="natural" v="stone" />
		<tag k="ssr:stedsnr" v="395853" />
	</node>
	<node id="-534518" lat="61.5225472209" lon="5.94063333538">
		<tag k="name" v="Løkane" />
		<tag k="natural" v="wetland" />
		<tag k="ssr:stedsnr" v="859144" />
	</node>
	<node id="-533877" lat="61.4152333369" lon="6.31886943924">
		<tag k="name" v="Storesteinen" />
		<tag k="natural" v="stone" />
		<tag k="ssr:stedsnr" v="516799" />
	</node>
	<node id="-534641" lat="61.4725444487" lon="5.91728888038">
		<tag k="name" v="Merkemyra" />
		<tag k="natural" v="wetland" />
		<tag k="ssr:stedsnr" v="941966" />
	</node>
	<node id="-533872" lat="61.397008336" lon="6.20696111947">
		<tag k="name" v="Gråura" />
		<tag k="natural" v="scree" />
		<tag k="ssr:stedsnr" v="516789" />
	</node>
	<node id="-533864" lat="61.3812305574" lon="6.07553055171">
		<tag k="name" v="Løa" />
		<tag k="natural" v="stone" />
		<tag k="ssr:stedsnr" v="516747" />
	</node>
	<node id="-532973" lat="61.4224055511" lon="6.45164999899">
		<tag k="name" v="Tytebærsteinen" />
		<tag k="natural" v="stone" />
		<tag k="ssr:stedsnr" v="274789" />
	</node>
	<node id="-533612" lat="61.4319805554" lon="6.36254999887">
		<tag k="name" v="Fjellmyrane" />
		<tag k="natural" v="wetland" />
		<tag k="ssr:stedsnr" v="213810" />
	</node>
	<node id="-533867" lat="61.4910111145" lon="5.97055555072">
		<tag k="name" v="Tjønnelandsmyrane" />
		<tag k="natural" v="wetland" />
		<tag k="ssr:stedsnr" v="516772" />
	</node>
	<node id="-533610" lat="61.4944527809" lon="5.95634999927">
		<tag k="name" v="Kyramyra" />
		<tag k="natural" v="wetland" />
		<tag k="ssr:stedsnr" v="213807" />
	</node>
	<node id="-533992" lat="61.4282333334" lon="6.36299443629">
		<tag k="name" v="Einebakksteinen" />
		<tag k="natural" v="stone" />
		<tag k="ssr:stedsnr" v="577808" />
	</node>
	<node id="-532967" lat="61.4193499985" lon="6.34771389416">
		<tag k="name" v="Vindskeisteinen" />
		<tag k="natural" v="stone" />
		<tag k="ssr:stedsnr" v="274763" />
	</node>
	<node id="-533349" lat="61.4337972196" lon="5.69918333231">
		<tag k="name" v="Gjestebodmyrane" />
		<tag k="natural" v="wetland" />
		<tag k="ssr:stedsnr" v="31876" />
	</node>
	<node id="-533434" lat="61.4348250032" lon="6.40355278534">
		<tag k="name" v="Blåfjellsura" />
		<tag k="natural" v="scree" />
		<tag k="ssr:stedsnr" v="92776" />
	</node>
	<node id="-533345" lat="61.4415305575" lon="6.47623610461">
		<tag k="name" v="Tatresteinen" />
		<tag k="natural" v="stone" />
		<tag k="ssr:stedsnr" v="31854" />
	</node>
	<node id="-534112" lat="61.4948472248" lon="5.86807500252">
		<tag k="name" v="Pikesteinen" />
		<tag k="natural" v="stone" />
		<tag k="ssr:stedsnr" v="637883" />
	</node>
	<node id="-534239" lat="61.4937722197" lon="5.82203333833">
		<tag k="name" v="Øyane" />
		<tag k="natural" v="wetland" />
		<tag k="ssr:stedsnr" v="735721" />
	</node>
	<node id="-533421" lat="61.4909770974" lon="5.72452378655">
		<tag k="name" v="Åreskreda" />
		<tag k="natural" v="scree" />
		<tag k="ssr:stedsnr" v="92589" />
	</node>
	<node id="-534492" lat="61.4226000003" lon="5.830108329">
		<tag k="name" v="Furemyra" />
		<tag k="natural" v="wetland" />
		<tag k="ssr:stedsnr" v="857805" />
	</node>
	<node id="-534619" lat="61.4100444486" lon="6.29840833008">
		<tag k="name" v="Klokkarsteinen" />
		<tag k="natural" v="stone" />
		<tag k="ssr:stedsnr" v="941807" />
	</node>
	<node id="-534614" lat="61.4394666705" lon="6.40073610261">
		<tag k="name" v="Motsteinen" />
		<tag k="natural" v="stone" />
		<tag k="ssr:stedsnr" v="941788" />
	</node>
	<node id="-534356" lat="61.4946999994" lon="5.8241777704">
		<tag k="name" v="Storehaugmyra" />
		<tag k="natural" v="wetland" />
		<tag k="ssr:stedsnr" v="796750" />
	</node>
	<node id="-534099" lat="61.4991944444" lon="6.01478333171">
		<tag k="name" v="Klovsteinen" />
		<tag k="natural" v="stone" />
		<tag k="ssr:stedsnr" v="637816" />
	</node>
	<node id="-533037" lat="61.4858722226" lon="6.5151277776">
		<tag k="name" v="Grovabreen" />
		<tag k="natural" v="glacier" />
		<tag k="ssr:stedsnr" v="311735" />
	</node>
	<node id="-534092" lat="61.4880694428" lon="5.94019167471">
		<tag k="name" v="Ramstadskreda" />
		<tag k="natural" v="scree" />
		<tag k="place" v="locality" />
		<tag k="ssr:stedsnr" v="637776" />
	</node>
	<node id="-534219" lat="61.489255558" lon="5.81487777633">
		<tag k="name" v="Ringesteinen" />
		<tag k="natural" v="stone" />
		<tag k="ssr:stedsnr" v="699990" />
	</node>
	<node id="-534085" lat="61.4916194483" lon="5.74880833687">
		<tag k="name" v="Klypura" />
		<tag k="natural" v="scree" />
		<tag k="ssr:stedsnr" v="637607" />
	</node>
	<node id="-533058" lat="61.4289722198" lon="5.92327777793">
		<tag k="name" v="Merkemyra" />
		<tag k="natural" v="wetland" />
		<tag k="ssr:stedsnr" v="92894" />
	</node>
	<node id="-533451" lat="61.3747333321" lon="5.90314999164">
		<tag k="name" v="Storemyra" />
		<tag k="natural" v="wetland" />
		<tag k="ssr:stedsnr" v="92940" />
	</node>
	<node id="-534590" lat="61.4026416665" lon="5.83411944617">
		<tag k="name" v="Skjermyra" />
		<tag k="natural" v="wetland" />
		<tag k="ssr:stedsnr" v="918828" />
	</node>
	<node id="-533946" lat="61.4261749973" lon="5.67510555944">
		<tag k="alt_name" v="Pikøyrane" />
		<tag k="name" v="Pikaøyrane" />
		<tag k="place" v="locality" />
		<tag k="ssr:stedsnr" v="553835" />
	</node>
	<node id="-533560" lat="61.465627774" lon="5.80518055677">
		<tag k="name" v="Gravdalsøyra" />
		<tag k="place" v="locality" />
		<tag k="ssr:stedsnr" v="189588" />
	</node>
	<node id="-533814" lat="61.4422388889" lon="5.89203332727">
		<tag k="name" v="Ingvaldmyra" />
		<tag k="natural" v="wetland" />
		<tag k="ssr:stedsnr" v="456925" />
	</node>
	<node id="-533257" lat="61.4065999996" lon="6.20901945169">
		<tag k="name" v="Svoramyrane" />
		<tag k="natural" v="wetland" />
		<tag k="ssr:stedsnr" v="7403" />
	</node>
	<node id="-534195" lat="61.481102777" lon="5.87937778669">
		<tag k="name" v="Gråura" />
		<tag k="natural" v="scree" />
		<tag k="ssr:stedsnr" v="698975" />
	</node>
	<node id="-534189" lat="61.4321333372" lon="5.94221666388">
		<tag k="name" v="Storemyra" />
		<tag k="natural" v="wetland" />
		<tag k="ssr:stedsnr" v="698838" />
	</node>
	<node id="-534188" lat="61.4508666647" lon="6.49873888694">
		<tag k="name" v="Bresteinane" />
		<tag k="natural" v="stone" />
		<tag k="ssr:stedsnr" v="698827" />
	</node>
	<node id="-533803" lat="61.4420111088" lon="6.48139167463">
		<tag k="name" v="Storura" />
		<tag k="natural" v="scree" />
		<tag k="ssr:stedsnr" v="456852" />
	</node>
	<node id="-534182" lat="61.41375" lon="6.25324721885">
		<tag k="name" v="Stølsura" />
		<tag k="natural" v="scree" />
		<tag k="ssr:stedsnr" v="698784" />
	</node>
	<node id="-534304" lat="61.4130277821" lon="6.29577777769">
		<tag k="name" v="Storura" />
		<tag k="natural" v="scree" />
		<tag k="ssr:stedsnr" v="759786" />
	</node>
	<node id="-533662" lat="61.4582916658" lon="5.76562777945">
		<tag k="alt_name" v="Sjurstølslonene" />
		<tag k="name" v="Sjurdsstølslonene" />
		<tag k="natural" v="wetland" />
		<tag k="ssr:stedsnr" v="250631" />
	</node>
	<node id="-533788" lat="61.3949194426" lon="6.17267500729">
		<tag k="name" v="Høgelisteinen" />
		<tag k="natural" v="stone" />
		<tag k="ssr:stedsnr" v="456782" />
	</node>
	<node id="-533401" lat="61.4717611112" lon="5.94693054943">
		<tag k="name" v="Langemyra" />
		<tag k="natural" v="wetland" />
		<tag k="ssr:stedsnr" v="69312" />
	</node>
	<node id="-533911" lat="61.4455083303" lon="5.84346944058">
		<tag k="name" v="Svoramyra" />
		<tag k="natural" v="wetland" />
		<tag k="ssr:stedsnr" v="516943" />
	</node>
	<node id="-533398" lat="61.5278861117" lon="6.02564722107">
		<tag k="name" v="Angedalsmyrane" />
		<tag k="natural" v="wetland" />
		<tag k="ssr:stedsnr" v="69172" />
	</node>
	<node id="-534165" lat="61.5247944406" lon="6.00869167522">
		<tag k="name" v="Eikelandsmyrane" />
		<tag k="natural" v="wetland" />
		<tag k="ssr:stedsnr" v="677159" />
	</node>
	<node id="-532971" lat="61.4203805573" lon="6.39436666041">
		<tag k="name" v="Liamyra" />
		<tag k="natural" v="wetland" />
		<tag k="ssr:stedsnr" v="274781" />
	</node>
	<node id="-533150" lat="61.4717305525" lon="5.86019444287">
		<tag k="historic" v="shieling" />
		<tag k="name" v="Skeistølen" />
		<tag k="place" v="locality" />
		<tag k="ssr:stedsnr" v="372311" />
	</node>
	<node id="-534551" lat="61.415233335" lon="6.36981666966">
		<tag k="name" v="Osemyra" />
		<tag k="natural" v="wetland" />
		<tag k="ssr:stedsnr" v="881811" />
	</node>
	<node id="-534285" lat="61.5108333359" lon="5.97931111487">
		<tag k="name" v="Skogamyra" />
		<tag k="natural" v="wetland" />
		<tag k="ssr:stedsnr" v="758792" />
	</node>
	<node id="-534154" lat="61.3901805531" lon="6.43774165834">
		<tag k="name" v="Skarvedalsbreen" />
		<tag k="natural" v="glacier" />
		<tag k="ssr:stedsnr" v="675763" />
	</node>
	<node id="-533399" lat="61.5254527768" lon="6.04987777001">
		<tag k="name" v="Lonene" />
		<tag k="natural" v="wetland" />
		<tag k="ssr:stedsnr" v="69173" />
	</node>
	<node id="-534024" lat="61.3732888903" lon="5.91531944591">
		<tag k="name" v="Grønemyra" />
		<tag k="natural" v="wetland" />
		<tag k="ssr:stedsnr" v="577955" />
	</node>
	<node id="-534535" lat="61.4106611128" lon="6.09194999283">
		<tag k="name" v="Stølsmyra" />
		<tag k="natural" v="wetland" />
		<tag k="ssr:stedsnr" v="881750" />
	</node>
	<node id="-534534" lat="61.4794833326" lon="5.94734443888">
		<tag k="name" v="Ramstadmyrane" />
		<tag k="natural" v="wetland" />
		<tag k="ssr:stedsnr" v="881746" />
	</node>
	<node id="-533763" lat="61.4742500014" lon="5.96487777739">
		<tag k="name" v="Stesteinen" />
		<tag k="natural" v="stone" />
		<tag k="ssr:stedsnr" v="456754" />
	</node>
	<node id="-534530" lat="61.4280444456" lon="5.68918333185">
		<tag k="name" v="Krokøyrane" />
		<tag k="place" v="locality" />
		<tag k="ssr:stedsnr" v="881600" />
	</node>
	<node id="-532993" lat="61.4393805545" lon="5.87874166553">
		<tag k="name" v="Viåtemyra" />
		<tag k="natural" v="wetland" />
		<tag k="ssr:stedsnr" v="274905" />
	</node>
</osm>
