<?xml version="1.0" encoding="UTF-8"?>
<osm generator="osmapis" version="0.6">
	<node id="-533760" lat="61.481807103" lon="5.94554409013">
		<tag k="fixme" v="consider place=hamlet" />
		<tag k="name" v="Ramstad" />
		<tag k="place" v="farm" />
		<tag k="ssr:stedsnr" v="311345" />
	</node>
	<node id="-534014" lat="61.4837222251" lon="5.76430000784">
		<tag k="name" v="Slåtten" />
		<tag k="place" v="farm" />
		<tag k="ssr:stedsnr" v="7679" />
	</node>
	<node id="-534011" lat="61.4536381394" lon="5.62654186618">
		<tag k="alt_name" v="Ervik" />
		<tag k="fixme" v="consider place=hamlet" />
		<tag k="name" v="Ervika" />
		<tag k="place" v="farm" />
		<tag k="ssr:stedsnr" v="7610" />
	</node>
	<node id="-534010" lat="61.4568306857" lon="5.60918616501">
		<tag k="alt_name" v="Friborg" />
		<tag k="fixme" v="consider place=hamlet" />
		<tag k="name" v="Friborga" />
		<tag k="place" v="farm" />
		<tag k="ssr:stedsnr" v="7607" />
	</node>
	<node id="-534008" lat="61.4053083345" lon="6.17551389039">
		<tag k="name" v="Nyestølen" />
		<tag k="place" v="isolated_dwelling" />
		<tag k="ssr:stedsnr" v="7405" />
	</node>
	<node id="-534007" lat="61.4074611098" lon="6.18847500847">
		<tag k="name" v="Heimestølen" />
		<tag k="place" v="farm" />
		<tag k="ssr:stedsnr" v="7402" />
	</node>
	<node id="-535030" lat="61.5032361119" lon="5.85055278063">
		<tag k="historic" v="shieling" />
		<tag k="name" v="Fossastølen" />
		<tag k="place" v="locality" />
		<tag k="ssr:stedsnr" v="738158" />
	</node>
	<node id="-534003" lat="61.4519333327" lon="5.88733334243">
		<tag k="name" v="Øyane" />
		<tag k="place" v="farm" />
		<tag k="ssr:stedsnr" v="7327" />
	</node>
	<node id="-535025" lat="61.525230552" lon="5.9755361201">
		<tag k="historic" v="shieling" />
		<tag k="name" v="Kvålsstølen" />
		<tag k="place" v="locality" />
		<tag k="ssr:stedsnr" v="737149" />
	</node>
	<node id="-535023" lat="61.3503083317" lon="6.40316110939">
		<tag k="name" v="Frøyslandsstølen" />
		<tag k="place" v="locality" />
		<tag k="ssr:stedsnr" v="736755" />
	</node>
	<node id="-535018" lat="61.4711706214" lon="5.79213016665">
		<tag k="alt_name" v="Kirketeig" />
		<tag k="fixme" v="consider place=hamlet" />
		<tag k="name" v="Kyrkjeteigen" />
		<tag k="place" v="farm" />
		<tag k="ssr:stedsnr" v="736663" />
	</node>
	<node id="-534505" lat="61.5493166672" lon="6.11408333483">
		<tag k="historic" v="shieling" />
		<tag k="name" v="Botnastølen" />
		<tag k="place" v="locality" />
		<tag k="ssr:stedsnr" v="434158" />
	</node>
	<node id="-535016" lat="61.4329972236" lon="6.38982221877">
		<tag k="name" v="Reinestølen" />
		<tag k="place" v="isolated_dwelling" />
		<tag k="ssr:stedsnr" v="736660" />
	</node>
	<node id="-534501" lat="61.4294527745" lon="5.74584167306">
		<tag k="alt_name" v="Soleimsstølen" />
		<tag k="historic" v="shieling" />
		<tag k="name" v="Solheimsstølen" />
		<tag k="place" v="locality" />
		<tag k="ssr:stedsnr" v="433841" />
	</node>
	<node id="-535012" lat="61.4460249964" lon="6.50117777491">
		<tag k="historic" v="shieling" />
		<tag k="name" v="Grøningsstølen" />
		<tag k="place" v="locality" />
		<tag k="ssr:stedsnr" v="736645" />
	</node>
	<node id="-535011" lat="61.4342166657" lon="5.58603055014">
		<tag k="historic" v="shieling" />
		<tag k="name" v="Heilevangsstølen" />
		<tag k="place" v="locality" />
		<tag k="ssr:stedsnr" v="736875" />
	</node>
	<node id="-535010" lat="61.4416277787" lon="5.61654167353">
		<tag k="alt_name" v="Holene" />
		<tag k="name" v="Mulahola" />
		<tag k="place" v="farm" />
		<tag k="ssr:stedsnr" v="736873" />
	</node>
	<node id="-535009" lat="61.4359249977" lon="5.72570833786">
		<tag k="historic" v="shieling" />
		<tag k="name" v="Liastølen" />
		<tag k="place" v="locality" />
		<tag k="ssr:stedsnr" v="736855" />
	</node>
	<node id="-535006" lat="61.4321305532" lon="5.77452778698">
		<tag k="alt_name" v="Kalsetstølen" />
		<tag k="historic" v="shieling" />
		<tag k="name" v="Kaldsetstølen" />
		<tag k="place" v="locality" />
		<tag k="ssr:stedsnr" v="736851" />
	</node>
	<node id="-534493" lat="61.4927082537" lon="5.80548488284">
		<tag k="alt_name" v="Rotenes" />
		<tag k="fixme" v="consider place=hamlet" />
		<tag k="name" v="Roteneset" />
		<tag k="place" v="farm" />
		<tag k="ssr:stedsnr" v="433744" />
	</node>
	<node id="-535003" lat="61.4415083305" lon="5.68582500093">
		<tag k="alt_name" v="Øygardstølen" />
		<tag k="historic" v="shieling" />
		<tag k="name" v="Øygardsstølen" />
		<tag k="place" v="locality" />
		<tag k="ssr:stedsnr" v="736836" />
	</node>
	<node id="-534490" lat="61.4662222242" lon="5.79637500827">
		<tag k="alt_name" v="Kirkebø" />
		<tag k="name" v="Kyrkjebø" />
		<tag k="place" v="farm" />
		<tag k="ssr:stedsnr" v="433646" />
	</node>
	<node id="-535000" lat="61.3765916645" lon="5.91317500788">
		<tag k="alt_name" v="Kvanndalsstølen" />
		<tag k="historic" v="shieling" />
		<tag k="name" v="Kvanndalen" />
		<tag k="place" v="locality" />
		<tag k="ssr:stedsnr" v="736429" />
	</node>
	<node id="-534487" lat="61.3955388869" lon="6.23086112064">
		<tag k="alt_name" v="Floten" />
		<tag k="name" v="Rørvikfloten" />
		<tag k="place" v="farm" />
		<tag k="ssr:stedsnr" v="433619" />
	</node>
	<node id="-534485" lat="61.4211472233" lon="6.35944166258">
		<tag k="name" v="Birkeland" />
		<tag k="place" v="farm" />
		<tag k="ssr:stedsnr" v="433604" />
	</node>
	<node id="-534484" lat="61.4150319274" lon="6.34374567734">
		<tag k="fixme" v="consider place=hamlet" />
		<tag k="name" v="Nes" />
		<tag k="place" v="farm" />
		<tag k="ssr:stedsnr" v="433605" />
	</node>
	<node id="-534994" lat="61.4349263235" lon="5.99688322121">
		<tag k="alt_name" v="Stevoll" />
		<tag k="fixme" v="consider place=hamlet" />
		<tag k="name" v="Stevollen" />
		<tag k="place" v="farm" />
		<tag k="ssr:stedsnr" v="736342" />
	</node>
	<node id="-534481" lat="61.420446196" lon="6.06432702916">
		<tag k="fixme" v="consider place=hamlet" />
		<tag k="name" v="Husetuft" />
		<tag k="place" v="farm" />
		<tag k="ssr:stedsnr" v="433355" />
	</node>
	<node id="-534992" lat="61.4681750044" lon="5.88140000686">
		<tag k="alt_name" v="Legestølen" />
		<tag k="historic" v="shieling" />
		<tag k="name" v="Legene" />
		<tag k="place" v="locality" />
		<tag k="ssr:stedsnr" v="736297" />
	</node>
	<node id="-534991" lat="61.4939311703" lon="5.98450097428">
		<tag k="fixme" v="consider place=hamlet" />
		<tag k="name" v="Grimeland" />
		<tag k="place" v="farm" />
		<tag k="ssr:stedsnr" v="736270" />
	</node>
	<node id="-534476" lat="61.4860217158" lon="5.85513646422">
		<tag k="name" v="Botnatunet" />
		<tag k="place" v="farm" />
		<tag k="ssr:stedsnr" v="433252" />
	</node>
	<node id="-534985" lat="61.4648500038" lon="5.80372778407">
		<tag k="alt_name" v="Gravdalen, yt" />
		<tag k="name" v="Ytre Gravdalen" />
		<tag k="place" v="farm" />
		<tag k="ssr:stedsnr" v="735623" />
	</node>
	<node id="-534472" lat="61.4430543673" lon="5.59259415113">
		<tag k="alt_name" v="Mulen" />
		<tag k="fixme" v="consider place=hamlet" />
		<tag k="name" v="Mula" />
		<tag k="place" v="farm" />
		<tag k="ssr:stedsnr" v="432855" />
	</node>
	<node id="-534982" lat="61.3923500005" lon="5.88207499629">
		<tag k="name" v="Masdalsgjerdet" />
		<tag k="place" v="farm" />
		<tag k="ssr:stedsnr" v="735408" />
	</node>
	<node id="-534981" lat="61.3935805552" lon="5.8989805598">
		<tag k="alt_name" v="Ullebuststølen" />
		<tag k="historic" v="shieling" />
		<tag k="name" v="Ullebostølen" />
		<tag k="place" v="locality" />
		<tag k="ssr:stedsnr" v="735403" />
	</node>
	<node id="-534977" lat="61.4136749985" lon="6.16171110951">
		<tag k="name" v="Vika" />
		<tag k="place" v="farm" />
		<tag k="ssr:stedsnr" v="735392" />
	</node>
	<node id="-534975" lat="61.4641999964" lon="5.90513889478">
		<tag k="name" v="Bergstad" />
		<tag k="place" v="farm" />
		<tag k="ssr:stedsnr" v="735315" />
	</node>
	<node id="-534462" lat="61.4094694428" lon="6.17479443839">
		<tag k="name" v="Slettebakken" />
		<tag k="place" v="isolated_dwelling" />
		<tag k="ssr:stedsnr" v="432387" />
	</node>
	<node id="-534972" lat="61.416081478" lon="6.38720558277">
		<tag k="fixme" v="consider place=hamlet" />
		<tag k="name" v="Frøysland" />
		<tag k="place" v="farm" />
		<tag k="ssr:stedsnr" v="736617" />
	</node>
	<node id="-534456" lat="61.4623916683" lon="5.85272500227">
		<tag k="alt_name" v="Hundvebakke" />
		<tag k="name" v="Hundvedbakken" />
		<tag k="place" v="farm" />
		<tag k="ssr:stedsnr" v="432294" />
	</node>
	<node id="-534455" lat="61.4614941835" lon="5.91492834575">
		<tag k="alt_name" v="Tefre" />
		<tag k="fixme" v="consider place=hamlet" />
		<tag k="name" v="Tevra" />
		<tag k="place" v="farm" />
		<tag k="ssr:stedsnr" v="432293" />
	</node>
	<node id="-534449" lat="61.5353328752" lon="6.05891087233">
		<tag k="fixme" v="consider place=hamlet" />
		<tag k="name" v="Botnen" />
		<tag k="place" v="farm" />
		<tag k="ssr:stedsnr" v="267102" />
	</node>
	<node id="-534447" lat="61.5494166649" lon="6.06817222331">
		<tag k="historic" v="shieling" />
		<tag k="name" v="Øyastølen" />
		<tag k="place" v="locality" />
		<tag k="ssr:stedsnr" v="252139" />
	</node>
	<node id="-534956" lat="61.4487361072" lon="5.84717777052">
		<tag k="name" v="Nytun" />
		<tag k="place" v="quarter" />
		<tag k="ssr:stedsnr" v="699893" />
	</node>
	<node id="-533804" lat="61.5220722249" lon="5.97247500643">
		<tag k="historic" v="shieling" />
		<tag k="name" v="Slåttestølen" />
		<tag k="place" v="locality" />
		<tag k="ssr:stedsnr" v="313185" />
	</node>
	<node id="-534437" lat="61.4747638922" lon="5.90437500336">
		<tag k="historic" v="shieling" />
		<tag k="name" v="Furekamben" />
		<tag k="place" v="locality" />
		<tag k="ssr:stedsnr" v="251314" />
	</node>
	<node id="-534435" lat="61.4704985551" lon="5.93437125454">
		<tag k="fixme" v="consider place=hamlet" />
		<tag k="name" v="Kvamme" />
		<tag k="place" v="farm" />
		<tag k="ssr:stedsnr" v="251311" />
	</node>
	<node id="-534431" lat="61.4309341884" lon="5.70625537389">
		<tag k="alt_name" v="Solheimslid;Soleimslia" />
		<tag k="fixme" v="consider place=hamlet" />
		<tag k="name" v="Solheimslia" />
		<tag k="place" v="farm" />
		<tag k="ssr:stedsnr" v="250812" />
	</node>
	<node id="-534429" lat="61.4368861142" lon="5.66498055823">
		<tag k="name" v="Teigane" />
		<tag k="place" v="farm" />
		<tag k="ssr:stedsnr" v="250797" />
	</node>
	<node id="-533916" lat="61.5534527789" lon="6.07087778526">
		<tag k="historic" v="shieling" />
		<tag k="name" v="Gamlestølen" />
		<tag k="place" v="locality" />
		<tag k="ssr:stedsnr" v="373178" />
	</node>
	<node id="-534939" lat="61.4276583335" lon="5.98059443886">
		<tag k="historic" v="shieling" />
		<tag k="name" v="Stølen" />
		<tag k="place" v="locality" />
		<tag k="ssr:stedsnr" v="698842" />
	</node>
	<node id="-534426" lat="61.4973555574" lon="5.82283611288">
		<tag k="alt_name" v="Kvienesstølen" />
		<tag k="historic" v="shieling" />
		<tag k="name" v="Kvinesstølen" />
		<tag k="place" v="locality" />
		<tag k="ssr:stedsnr" v="250727" />
	</node>
	<node id="-534786" lat="61.4846348323" lon="5.97267796571">
		<tag k="alt_name" v="Lien" />
		<tag k="fixme" v="consider place=hamlet" />
		<tag k="name" v="Lia" />
		<tag k="place" v="farm" />
		<tag k="ssr:stedsnr" v="614278" />
	</node>
	<node id="-534423" lat="61.4914629449" lon="5.84204997055">
		<tag k="fixme" v="consider place=hamlet" />
		<tag k="name" v="Fossen" />
		<tag k="place" v="farm" />
		<tag k="ssr:stedsnr" v="250704" />
	</node>
	<node id="-534422" lat="61.4777861086" lon="5.74361111106">
		<tag k="alt_name" v="Haugastøl" />
		<tag k="historic" v="shieling" />
		<tag k="name" v="Haugastølen" />
		<tag k="place" v="locality" />
		<tag k="ssr:stedsnr" v="250687" />
	</node>
	<node id="-533742" lat="61.4352777772" lon="5.89197499373">
		<tag k="historic" v="shieling" />
		<tag k="name" v="Nyestølen" />
		<tag k="place" v="locality" />
		<tag k="ssr:stedsnr" v="274898" />
	</node>
	<node id="-534417" lat="61.4777125293" lon="5.78912071903">
		<tag k="alt_name" v="Ulltang" />
		<tag k="fixme" v="consider place=hamlet" />
		<tag k="name" v="Ulltangen" />
		<tag k="place" v="farm" />
		<tag k="ssr:stedsnr" v="250665" />
	</node>
	<node id="-533904" lat="61.4087723418" lon="5.97684516789">
		<tag k="alt_name" v="Byrkjeflot" />
		<tag k="fixme" v="consider place=hamlet" />
		<tag k="name" v="Byrkjefloten" />
		<tag k="place" v="farm" />
		<tag k="ssr:stedsnr" v="372408" />
	</node>
	<node id="-533902" lat="61.4179262878" lon="5.93384861458">
		<tag k="alt_name" v="Refsdal" />
		<tag k="fixme" v="consider place=hamlet" />
		<tag k="name" v="Revsdalen" />
		<tag k="place" v="farm" />
		<tag k="ssr:stedsnr" v="372380" />
	</node>
	<node id="-533901" lat="61.4248861091" lon="5.94881667033">
		<tag k="fixme" v="multiple name tags, choose one and add the other to alt_name" />
		<tag k="name" v="Flatjord;Saga" />
		<tag k="place" v="farm" />
		<tag k="ssr:stedsnr" v="372366" />
	</node>
	<node id="-534412" lat="61.4018722229" lon="6.22597221544">
		<tag k="name" v="Rørvik Fjellstove" />
		<tag k="ssr:stedsnr" v="250633" />
		<tag k="tourism" v="guest_house" />
	</node>
	<node id="-533896" lat="61.4368749965" lon="5.59848055397">
		<tag k="name" v="Haugen" />
		<tag k="place" v="farm" />
		<tag k="ssr:stedsnr" v="371876" />
	</node>
	<node id="-534252" lat="61.430988891" lon="5.64377499384">
		<tag k="alt_name" v="Hellevangsdal" />
		<tag k="fixme" v="multiple name tags, choose one and add the other to alt_name" />
		<tag k="name" v="Marka;Heilevangsdalen" />
		<tag k="place" v="farm" />
		<tag k="ssr:stedsnr" v="129833" />
	</node>
	<node id="-534029" lat="61.4269060235" lon="5.98142379866">
		<tag k="alt_name" v="Ytre Åsen" />
		<tag k="name" v="Ytråsane" />
		<tag k="place" v="locality" />
		<tag k="ssr:stedsnr" v="8402" />
	</node>
	<node id="-534405" lat="61.4154694449" lon="6.16795278403">
		<tag k="alt_name" v="Alberget" />
		<tag k="name" v="Almberget" />
		<tag k="place" v="locality" />
		<tag k="ssr:stedsnr" v="250390" />
	</node>
	<node id="-533891" lat="61.4423888935" lon="5.7991027864">
		<tag k="alt_name" v="Halbrendstølane" />
		<tag k="historic" v="shieling" />
		<tag k="name" v="Hallbrendstølane" />
		<tag k="place" v="locality" />
		<tag k="ssr:stedsnr" v="371826" />
	</node>
	<node id="-533890" lat="61.4864139712" lon="5.76034231556">
		<tag k="alt_name" v="Furevik" />
		<tag k="fixme" v="consider place=hamlet" />
		<tag k="name" v="Furevika" />
		<tag k="place" v="farm" />
		<tag k="ssr:stedsnr" v="371716" />
	</node>
	<node id="-534913" lat="61.506556136" lon="5.98624838977">
		<tag k="fixme" v="consider place=hamlet" />
		<tag k="name" v="Slåtten" />
		<tag k="place" v="farm" />
		<tag k="ssr:stedsnr" v="677147" />
	</node>
	<node id="-534400" lat="61.4769305588" lon="5.90532499778">
		<tag k="historic" v="shieling" />
		<tag k="name" v="Slåttestølen" />
		<tag k="place" v="locality" />
		<tag k="ssr:stedsnr" v="250277" />
	</node>
	<node id="-534399" lat="61.4790388899" lon="5.90589999789">
		<tag k="historic" v="shieling" />
		<tag k="name" v="Hjellestølen" />
		<tag k="place" v="locality" />
		<tag k="ssr:stedsnr" v="250276" />
	</node>
	<node id="-534398" lat="61.4949069853" lon="5.97104752275">
		<tag k="alt_name" v="Tjønneland" />
		<tag k="fixme" v="consider place=hamlet" />
		<tag k="name" v="Tjørnaland" />
		<tag k="place" v="farm" />
		<tag k="ssr:stedsnr" v="250270" />
	</node>
	<node id="-534909" lat="61.4531361364" lon="5.83966934699">
		<tag k="fixme" v="consider place=hamlet" />
		<tag k="name" v="Hallbrend" />
		<tag k="place" v="farm" />
		<tag k="ssr:stedsnr" v="675872" />
	</node>
	<node id="-533883" lat="61.3846333337" lon="5.98767500382">
		<tag k="alt_name" v="Kusslidstølen" />
		<tag k="historic" v="shieling" />
		<tag k="name" v="Kusslistølen" />
		<tag k="place" v="locality" />
		<tag k="ssr:stedsnr" v="371405" />
	</node>
	<node id="-533879" lat="61.4630170931" lon="5.8971881512">
		<tag k="alt_name" v="Slåtten" />
		<tag k="fixme" v="consider place=hamlet" />
		<tag k="name" v="Slåttene" />
		<tag k="place" v="farm" />
		<tag k="ssr:stedsnr" v="371295" />
	</node>
	<node id="-534901" lat="61.3971055548" lon="6.34910555829">
		<tag k="historic" v="shieling" />
		<tag k="name" v="Årskogstølen" />
		<tag k="place" v="locality" />
		<tag k="ssr:stedsnr" v="675754" />
	</node>
	<node id="-534675" lat="61.4369666654" lon="5.95865000025">
		<tag k="name" v="Oppheim" />
		<tag k="place" v="farm" />
		<tag k="ssr:stedsnr" v="553316" />
	</node>
	<node id="-534896" lat="61.4841305515" lon="5.76636389022">
		<tag k="name" v="Orevika" />
		<tag k="place" v="farm" />
		<tag k="ssr:stedsnr" v="675724" />
	</node>
	<node id="-534892" lat="61.4338666708" lon="6.36261945325">
		<tag k="alt_name" v="Gjerlandsstølen, yt" />
		<tag k="historic" v="shieling" />
		<tag k="name" v="Gjerlandsstølen" />
		<tag k="place" v="locality" />
		<tag k="ssr:stedsnr" v="675659" />
	</node>
	<node id="-534891" lat="61.4131444486" lon="6.25267500054">
		<tag k="name" v="Teigastølen" />
		<tag k="place" v="locality" />
		<tag k="ssr:stedsnr" v="675647" />
	</node>
	<node id="-535401" lat="61.4305455195" lon="5.64328586697">
		<tag k="fixme" v="consider place=hamlet" />
		<tag k="name" v="Heilevangsdalen" />
		<tag k="place" v="farm" />
		<tag k="ssr:stedsnr" v="974596" />
	</node>
	<node id="-535400" lat="61.4466890018" lon="5.89346893972">
		<tag k="fixme" v="consider place=hamlet" />
		<tag k="name" v="Bruland" />
		<tag k="place" v="farm" />
		<tag k="ssr:stedsnr" v="974595" />
	</node>
	<node id="-535399" lat="61.4267819299" lon="5.99332130095">
		<tag k="fixme" v="consider place=hamlet" />
		<tag k="name" v="Åsen" />
		<tag k="place" v="farm" />
		<tag k="ssr:stedsnr" v="974594" />
	</node>
	<node id="-535398" lat="61.4577885919" lon="5.87773975358">
		<tag k="fixme" v="consider place=hamlet" />
		<tag k="name" v="Førde prestegard" />
		<tag k="place" v="farm" />
		<tag k="ssr:stedsnr" v="974454" />
	</node>
	<node id="-534885" lat="61.438111108" lon="6.00782499205">
		<tag k="name" v="Reinene" />
		<tag k="place" v="farm" />
		<tag k="ssr:stedsnr" v="675389" />
	</node>
	<node id="-535396" lat="61.4209423903" lon="6.15558659582">
		<tag k="fixme" v="consider place=hamlet" />
		<tag k="name" v="Holsen" />
		<tag k="place" v="farm" />
		<tag k="ssr:stedsnr" v="974447" />
	</node>
	<node id="-534883" lat="61.4488638867" lon="5.87083611794">
		<tag k="alt_name" v="Havstad" />
		<tag k="fixme" v="consider place=hamlet" />
		<tag k="name" v="Hafstad" />
		<tag k="place" v="village" />
		<tag k="ssr:stedsnr" v="675338" />
	</node>
	<node id="-535394" lat="61.4531694459" lon="5.8182166665">
		<tag k="name" v="Slåttebakkane" />
		<tag k="place" v="quarter" />
		<tag k="ssr:stedsnr" v="963792" />
	</node>
	<node id="-535392" lat="61.4701194416" lon="5.8479750016">
		<tag k="alt_name" v="Hundvebakkstølen" />
		<tag k="historic" v="shieling" />
		<tag k="name" v="Hundvedbakkstølen" />
		<tag k="place" v="locality" />
		<tag k="ssr:stedsnr" v="941991" />
	</node>
	<node id="-534879" lat="61.4534944416" lon="5.82674444032">
		<tag k="leisure" v="pitch" />
		<tag k="name" v="Slåttebakkane" />
		<tag k="ssr:stedsnr" v="660641" />
	</node>
	<node id="-534878" lat="61.4524527815" lon="5.83178611051">
		<tag k="name" v="Hallbrend" />
		<tag k="place" v="quarter" />
		<tag k="ssr:stedsnr" v="659772" />
	</node>
	<node id="-534500" lat="61.4293722249" lon="5.70439167506">
		<tag k="name" v="Jarane" />
		<tag k="place" v="farm" />
		<tag k="ssr:stedsnr" v="433837" />
	</node>
	<node id="-534870" lat="61.4151472192" lon="5.91836667331">
		<tag k="name" v="Øyestad" />
		<tag k="place" v="farm" />
		<tag k="ssr:stedsnr" v="637929" />
	</node>
	<node id="-534863" lat="61.4652722191" lon="5.86271944847">
		<tag k="historic" v="shieling" />
		<tag k="name" v="Gamlestølen" />
		<tag k="place" v="locality" />
		<tag k="ssr:stedsnr" v="637889" />
	</node>
	<node id="-534583" lat="61.4506916682" lon="5.58972777805">
		<tag k="name" v="Mulanobba" />
		<tag k="place" v="locality" />
		<tag k="ssr:stedsnr" v="493870" />
	</node>
	<node id="-534339" lat="61.4381333317" lon="5.65944444839">
		<tag k="name" v="Runnane" />
		<tag k="place" v="farm" />
		<tag k="ssr:stedsnr" v="190850" />
	</node>
	<node id="-534338" lat="61.4235944489" lon="5.65912500838">
		<tag k="historic" v="shieling" />
		<tag k="name" v="Karstadstølen" />
		<tag k="place" v="locality" />
		<tag k="ssr:stedsnr" v="190814" />
	</node>
	<node id="-534325" lat="61.4200952231" lon="6.11145195853">
		<tag k="alt_name" v="Nydal" />
		<tag k="fixme" v="consider place=hamlet" />
		<tag k="name" v="Nyddalen" />
		<tag k="place" v="farm" />
		<tag k="ssr:stedsnr" v="190395" />
	</node>
	<node id="-534332" lat="61.423402779" lon="6.3420388866">
		<tag k="name" v="Nesstølen" />
		<tag k="place" v="locality" />
		<tag k="ssr:stedsnr" v="190665" />
	</node>
	<node id="-534330" lat="61.4210499995" lon="6.37386944455">
		<tag k="fixme" v="consider place=hamlet" />
		<tag k="name" v="Haukedalen" />
		<tag k="place" v="village" />
		<tag k="ssr:stedsnr" v="190628" />
	</node>
	<node id="-535350" lat="61.5199380043" lon="6.00300575812">
		<tag k="fixme" v="consider place=hamlet" />
		<tag k="name" v="Eikeland" />
		<tag k="place" v="farm" />
		<tag k="ssr:stedsnr" v="920163" />
	</node>
	<node id="-535349" lat="61.5145833352" lon="5.95210000514">
		<tag k="historic" v="shieling" />
		<tag k="name" v="Tjørnalandsstølen" />
		<tag k="place" v="locality" />
		<tag k="ssr:stedsnr" v="920159" />
	</node>
	<node id="-534324" lat="61.4243976469" lon="6.09286971787">
		<tag k="fixme" v="consider place=hamlet" />
		<tag k="name" v="Høgset" />
		<tag k="place" v="farm" />
		<tag k="ssr:stedsnr" v="190394" />
	</node>
	<node id="-534323" lat="61.4205648239" lon="5.97024197567">
		<tag k="fixme" v="consider place=hamlet" />
		<tag k="name" v="Kinna" />
		<tag k="place" v="farm" />
		<tag k="ssr:stedsnr" v="190387" />
	</node>
	<node id="-535346" lat="61.4335250029" lon="5.6173638857">
		<tag k="name" v="Ospelia" />
		<tag k="place" v="farm" />
		<tag k="ssr:stedsnr" v="918895" />
	</node>
	<node id="-535347" lat="61.5002944439" lon="6.00619443893">
		<tag k="name" v="Morgildra" />
		<tag k="place" v="locality" />
		<tag k="ssr:stedsnr" v="920135" />
	</node>
	<node id="-534320" lat="61.4368166641" lon="6.00412499492">
		<tag k="name" v="Moneset" />
		<tag k="place" v="farm" />
		<tag k="ssr:stedsnr" v="190364" />
	</node>
	<node id="-534408" lat="61.3917896743" lon="5.99779371701">
		<tag k="alt_name" v="Ytreåsstølen" />
		<tag k="historic" v="shieling" />
		<tag k="name" v="Ytråsstølen" />
		<tag k="place" v="locality" />
		<tag k="ssr:stedsnr" v="250409" />
	</node>
	<node id="-533806" lat="61.5329366033" lon="6.03280336031">
		<tag k="fixme" v="consider place=hamlet" />
		<tag k="name" v="Indrebø" />
		<tag k="place" v="farm" />
		<tag k="ssr:stedsnr" v="313197" />
	</node>
	<node id="-535261" lat="61.467349996" lon="5.72470000913">
		<tag k="historic" v="shieling" />
		<tag k="name" v="Øvrestølen" />
		<tag k="place" v="locality" />
		<tag k="ssr:stedsnr" v="858681" />
	</node>
	<node id="-534316" lat="61.4855921915" lon="5.84465947127">
		<tag k="alt_name" v="Erdalsdal" />
		<tag k="fixme" v="consider place=hamlet" />
		<tag k="name" v="Erdalsdalen" />
		<tag k="place" v="farm" />
		<tag k="ssr:stedsnr" v="190269" />
	</node>
	<node id="-534322" lat="61.4303027751" lon="6.17771388369">
		<tag k="historic" v="shieling" />
		<tag k="name" v="Norddalen" />
		<tag k="place" v="locality" />
		<tag k="ssr:stedsnr" v="190369" />
	</node>
	<node id="-533802" lat="61.5092443872" lon="5.99757249057">
		<tag k="fixme" v="consider place=hamlet" />
		<tag k="name" v="Skogstad" />
		<tag k="place" v="farm" />
		<tag k="ssr:stedsnr" v="313173" />
	</node>
	<node id="-534823" lat="61.4346315081" lon="5.67264553146">
		<tag k="fixme" v="consider place=hamlet" />
		<tag k="name" v="Karstad" />
		<tag k="place" v="farm" />
		<tag k="ssr:stedsnr" v="614843" />
	</node>
	<node id="-535334" lat="61.4727249982" lon="5.7939388953">
		<tag k="alt_name" v="Havnen" />
		<tag k="name" v="Hamnen" />
		<tag k="place" v="farm" />
		<tag k="ssr:stedsnr" v="918714" />
	</node>
	<node id="-535345" lat="61.4360611134" lon="5.61233333643">
		<tag k="name" v="Mulastølen" />
		<tag k="place" v="locality" />
		<tag k="ssr:stedsnr" v="918892" />
	</node>
	<node id="-534308" lat="61.3909250017" lon="5.96340833396">
		<tag k="historic" v="shieling" />
		<tag k="name" v="Kinnastølen" />
		<tag k="place" v="locality" />
		<tag k="ssr:stedsnr" v="189397" />
	</node>
	<node id="-534307" lat="61.4050000038" lon="6.18310277432">
		<tag k="name" v="Redalen" />
		<tag k="place" v="isolated_dwelling" />
		<tag k="ssr:stedsnr" v="189383" />
	</node>
	<node id="-535330" lat="61.3997284401" lon="6.23890853331">
		<tag k="fixme" v="consider place=hamlet" />
		<tag k="name" v="Rørvika" />
		<tag k="place" v="farm" />
		<tag k="ssr:stedsnr" v="918693" />
	</node>
	<node id="-534235" lat="61.4700029449" lon="5.81967994807">
		<tag k="alt_name" v="Hornes" />
		<tag k="fixme" v="consider place=hamlet" />
		<tag k="name" v="Hornnes" />
		<tag k="place" v="farm" />
		<tag k="ssr:stedsnr" v="129634" />
	</node>
	<node id="-535328" lat="61.3878305588" lon="6.07069999961">
		<tag k="alt_name" v="Nydalsstølen" />
		<tag k="historic" v="shieling" />
		<tag k="name" v="Nyddalsstølen" />
		<tag k="place" v="locality" />
		<tag k="ssr:stedsnr" v="918487" />
	</node>
	<node id="-533791" lat="61.4958138881" lon="5.79071667223">
		<tag k="alt_name" v="Nedre Klopstad;Kloppstad, nedre" />
		<tag k="name" v="Nedre Kloppstad" />
		<tag k="place" v="farm" />
		<tag k="ssr:stedsnr" v="311778" />
	</node>
	<node id="-535325" lat="61.4144805559" lon="6.17503056157">
		<tag k="name" v="Annestølen" />
		<tag k="place" v="locality" />
		<tag k="ssr:stedsnr" v="918455" />
	</node>
	<node id="-535324" lat="61.4050166638" lon="5.92455000437">
		<tag k="name" v="Betnene" />
		<tag k="place" v="locality" />
		<tag k="ssr:stedsnr" v="918441" />
	</node>
	<node id="-535323" lat="61.4191138927" lon="6.15606666105">
		<tag k="fixme" v="consider place=hamlet" />
		<tag k="name" v="Holsen" />
		<tag k="place" v="village" />
		<tag k="ssr:stedsnr" v="918434" />
	</node>
	<node id="-534810" lat="61.4044083304" lon="6.23537777088">
		<tag k="name" v="Rørvikstølen" />
		<tag k="place" v="locality" />
		<tag k="ssr:stedsnr" v="614654" />
	</node>
	<node id="-534319" lat="61.4386249989" lon="6.08906945014">
		<tag k="historic" v="shieling" />
		<tag k="name" v="Høgsetstølen" />
		<tag k="place" v="locality" />
		<tag k="ssr:stedsnr" v="190359" />
	</node>
	<node id="-534808" lat="61.4523333318" lon="5.58821389275">
		<tag k="alt_name" v="Holmevik" />
		<tag k="name" v="Holmevika" />
		<tag k="place" v="farm" />
		<tag k="ssr:stedsnr" v="614648" />
	</node>
	<node id="-535319" lat="61.4243993752" lon="5.96688353624">
		<tag k="alt_name" v="Li" />
		<tag k="fixme" v="consider place=hamlet" />
		<tag k="name" v="Lia" />
		<tag k="place" v="farm" />
		<tag k="ssr:stedsnr" v="918394" />
	</node>
	<node id="-535318" lat="61.4423083294" lon="5.97137500884">
		<tag k="alt_name" v="Mofleten" />
		<tag k="name" v="Mofletene" />
		<tag k="place" v="farm" />
		<tag k="ssr:stedsnr" v="918392" />
	</node>
	<node id="-535317" lat="61.4354749999" lon="5.92173889468">
		<tag k="name" v="Berget" />
		<tag k="place" v="farm" />
		<tag k="ssr:stedsnr" v="918378" />
	</node>
	<node id="-534803" lat="61.3993416646" lon="6.14900000789">
		<tag k="alt_name" v="Gulefjellet" />
		<tag k="historic" v="shieling" />
		<tag k="name" v="Gulefjell" />
		<tag k="place" v="locality" />
		<tag k="ssr:stedsnr" v="614426" />
	</node>
	<node id="-534801" lat="61.4125666636" lon="6.16368610749">
		<tag k="name" v="Teigen" />
		<tag k="place" v="farm" />
		<tag k="ssr:stedsnr" v="614391" />
	</node>
	<node id="-535312" lat="61.4417527744" lon="5.56769443808">
		<tag k="name" v="Skjeret" />
		<tag k="place" v="isolated_dwelling" />
		<tag k="ssr:stedsnr" v="917850" />
	</node>
	<node id="-535311" lat="61.498233335" lon="5.83086666326">
		<tag k="historic" v="shieling" />
		<tag k="name" v="Rotenesstølen" />
		<tag k="place" v="locality" />
		<tag k="ssr:stedsnr" v="917712" />
	</node>
	<node id="-534798" lat="61.4260739953" lon="6.12758508209">
		<tag k="alt_name" v="Fleten;Fletene, yt" />
		<tag k="name" v="Ytre Fletene" />
		<tag k="place" v="farm" />
		<tag k="ssr:stedsnr" v="614377" />
	</node>
	<node id="-535309" lat="61.4803972226" lon="5.71695833894">
		<tag k="alt_name" v="Nedre Kråkenesstølen" />
		<tag k="historic" v="shieling" />
		<tag k="name" v="Nedrestølen" />
		<tag k="place" v="locality" />
		<tag k="ssr:stedsnr" v="917691" />
	</node>
	<node id="-534796" lat="61.4307138858" lon="5.9836666644">
		<tag k="name" v="Moøyra" />
		<tag k="place" v="farm" />
		<tag k="ssr:stedsnr" v="614369" />
	</node>
	<node id="-535307" lat="61.4340444466" lon="5.98591388606">
		<tag k="amenity" v="school" />
		<tag k="name" v="Mo jordbruksskule" />
		<tag k="ssr:stedsnr" v="881833" />
	</node>
	<node id="-534793" lat="61.4416912336" lon="6.00040865641">
		<tag k="amenity" v="cafe" />
		<tag k="name" v="Moskog" />
		<tag k="ssr:stedsnr" v="614353" />
	</node>
	<node id="-533767" lat="61.4107861136" lon="5.91395555232">
		<tag k="name" v="Åsen" />
		<tag k="place" v="farm" />
		<tag k="ssr:stedsnr" v="311436" />
	</node>
	<node id="-533766" lat="61.4110332412" lon="5.89435021912">
		<tag k="alt_name" v="Masdal" />
		<tag k="fixme" v="consider place=hamlet" />
		<tag k="name" v="Masdalen" />
		<tag k="place" v="farm" />
		<tag k="ssr:stedsnr" v="311435" />
	</node>
	<node id="-533765" lat="61.5019361265" lon="5.79212889651">
		<tag k="fixme" v="consider place=hamlet" />
		<tag k="name" v="Kloppstad" />
		<tag k="old_name" v="Øvre Klopstad;Øvre Kloppstad" />
		<tag k="place" v="farm" />
		<tag k="ssr:stedsnr" v="311434" />
	</node>
	<node id="-534833" lat="61.4111473235" lon="6.27550888762">
		<tag k="fixme" v="consider place=hamlet" />
		<tag k="name" v="Hårklau" />
		<tag k="place" v="farm" />
		<tag k="ssr:stedsnr" v="632173" />
	</node>
	<node id="-534785" lat="61.4861083373" lon="5.9690888795">
		<tag k="name" v="Kjerrestad" />
		<tag k="place" v="farm" />
		<tag k="ssr:stedsnr" v="614277" />
	</node>
	<node id="-534784" lat="61.490605303" lon="5.75159321851">
		<tag k="fixme" v="consider place=hamlet" />
		<tag k="name" v="Svinevik" />
		<tag k="place" v="farm" />
		<tag k="ssr:stedsnr" v="599858" />
	</node>
	<node id="-533810" lat="61.4340999968" lon="5.9857833393">
		<tag k="amenity" v="school" />
		<tag k="name" v="Mo" />
		<tag k="ssr:stedsnr" v="328496" />
	</node>
	<node id="-533886" lat="61.4566944469" lon="5.59298054949">
		<tag k="name" v="Friborgneset" />
		<tag k="place" v="farm" />
		<tag k="ssr:stedsnr" v="371628" />
	</node>
	<node id="-534321" lat="61.4354250038" lon="5.98736944072">
		<tag k="fixme" v="consider place=hamlet" />
		<tag k="name" v="Mo" />
		<tag k="place" v="farm" />
		<tag k="ssr:stedsnr" v="190365" />
	</node>
	<node id="-534257" lat="61.5005305587" lon="5.79890833503">
		<tag k="name" v="Rotenesbakken" />
		<tag k="place" v="farm" />
		<tag k="ssr:stedsnr" v="140699" />
	</node>
	<node id="-534255" lat="61.5529777739" lon="6.10204999212">
		<tag k="name" v="Nordkvia" />
		<tag k="place" v="isolated_dwelling" />
		<tag k="ssr:stedsnr" v="130171" />
	</node>
	<node id="-534766" lat="61.4574388927" lon="5.86454445016">
		<tag k="name" v="Falkenstein" />
		<tag k="place" v="farm" />
		<tag k="ssr:stedsnr" v="577904" />
	</node>
	<node id="-534397" lat="61.496211111" lon="5.93278610722">
		<tag k="historic" v="shieling" />
		<tag k="name" v="Ramstadstølen" />
		<tag k="place" v="locality" />
		<tag k="ssr:stedsnr" v="250269" />
	</node>
	<node id="-535276" lat="61.4645966176" lon="5.80421306177">
		<tag k="alt_name" v="Gravdal" />
		<tag k="fixme" v="consider place=hamlet" />
		<tag k="name" v="Gravdalen" />
		<tag k="place" v="farm" />
		<tag k="ssr:stedsnr" v="881581" />
	</node>
	<node id="-534226" lat="61.4351803811" lon="5.95599608579">
		<tag k="alt_name" v="Kusslid" />
		<tag k="fixme" v="consider place=hamlet" />
		<tag k="name" v="Kusslia" />
		<tag k="place" v="farm" />
		<tag k="ssr:stedsnr" v="129333" />
	</node>
	<node id="-533799" lat="61.5284304784" lon="6.01356848751">
		<tag k="fixme" v="consider place=hamlet" />
		<tag k="name" v="Bruket" />
		<tag k="place" v="farm" />
		<tag k="ssr:stedsnr" v="312136" />
	</node>
	<node id="-534815" lat="61.4685499994" lon="5.676769448">
		<tag k="alt_name" v="Bjørkedalstølen" />
		<tag k="historic" v="shieling" />
		<tag k="name" v="Bjørkedalsstølen" />
		<tag k="place" v="locality" />
		<tag k="ssr:stedsnr" v="614680" />
	</node>
	<node id="-533762" lat="61.4320036731" lon="5.92507658911">
		<tag k="fixme" v="consider place=hamlet" />
		<tag k="name" v="Hagen" />
		<tag k="place" v="farm" />
		<tag k="ssr:stedsnr" v="311409" />
	</node>
	<node id="-534243" lat="61.4625027766" lon="5.69185554671">
		<tag k="alt_name" v="Nordre-Fauskestøl;Fauskestølen, nordre" />
		<tag k="historic" v="shieling" />
		<tag k="name" v="Nordre Fauskestølen" />
		<tag k="place" v="locality" />
		<tag k="ssr:stedsnr" v="129667" />
	</node>
	<node id="-534241" lat="61.4614081124" lon="5.6480990564">
		<tag k="alt_name" v="Bjørkedal" />
		<tag k="fixme" v="consider place=hamlet" />
		<tag k="name" v="Bjørkedalen" />
		<tag k="place" v="farm" />
		<tag k="ssr:stedsnr" v="129659" />
	</node>
	<node id="-534821" lat="61.4173722186" lon="5.73221110682">
		<tag k="historic" v="shieling" />
		<tag k="name" v="Friborgsstølen" />
		<tag k="place" v="locality" />
		<tag k="ssr:stedsnr" v="614826" />
	</node>
	<node id="-535260" lat="61.4133861096" lon="6.45469443747">
		<tag k="historic" v="shieling" />
		<tag k="name" v="Myrestølen" />
		<tag k="place" v="locality" />
		<tag k="ssr:stedsnr" v="858658" />
	</node>
	<node id="-535259" lat="61.4127936533" lon="6.37711075231">
		<tag k="fixme" v="consider place=hamlet" />
		<tag k="name" v="Årskog" />
		<tag k="place" v="farm" />
		<tag k="ssr:stedsnr" v="858659" />
	</node>
	<node id="-534234" lat="61.4721194429" lon="5.8117722193">
		<tag k="name" v="Hornnesvika" />
		<tag k="place" v="farm" />
		<tag k="ssr:stedsnr" v="129632" />
	</node>
	<node id="-535256" lat="61.4155166662" lon="6.01846111875">
		<tag k="alt_name" v="Indreåsstølane" />
		<tag k="historic" v="shieling" />
		<tag k="name" v="Åsastølane" />
		<tag k="place" v="locality" />
		<tag k="ssr:stedsnr" v="858401" />
	</node>
	<node id="-534231" lat="61.4158805602" lon="5.91396111965">
		<tag k="name" v="Skogstad" />
		<tag k="place" v="farm" />
		<tag k="ssr:stedsnr" v="129366" />
	</node>
	<node id="-535253" lat="61.4323055601" lon="6.15562500773">
		<tag k="historic" v="shieling" />
		<tag k="name" v="Finneskotet" />
		<tag k="place" v="locality" />
		<tag k="ssr:stedsnr" v="858373" />
	</node>
	<node id="-535250" lat="61.4646888903" lon="5.83985000673">
		<tag k="name" v="Bergum" />
		<tag k="place" v="farm" />
		<tag k="ssr:stedsnr" v="857849" />
	</node>
	<node id="-534225" lat="61.485449999" lon="5.87244721309">
		<tag k="historic" v="shieling" />
		<tag k="name" v="Tuftene" />
		<tag k="place" v="locality" />
		<tag k="ssr:stedsnr" v="129279" />
	</node>
	<node id="-535243" lat="61.4349861088" lon="5.6547083291">
		<tag k="name" v="Langeneset" />
		<tag k="place" v="farm" />
		<tag k="ssr:stedsnr" v="857815" />
	</node>
	<node id="-534217" lat="61.4493113167" lon="5.6470601491">
		<tag k="fixme" v="consider place=hamlet" />
		<tag k="name" v="Fengestad" />
		<tag k="place" v="farm" />
		<tag k="ssr:stedsnr" v="128853" />
	</node>
	<node id="-535141" lat="61.4987583358" lon="5.79490555772">
		<tag k="name" v="Haslelia" />
		<tag k="place" v="farm" />
		<tag k="ssr:stedsnr" v="797748" />
	</node>
	<node id="-534725" lat="61.4871666625" lon="5.9565722158">
		<tag k="name" v="Furebø" />
		<tag k="place" v="farm" />
		<tag k="ssr:stedsnr" v="576779" />
	</node>
	<node id="-534723" lat="61.5117555575" lon="5.79758611353">
		<tag k="historic" v="shieling" />
		<tag k="name" v="Einestølen" />
		<tag k="place" v="locality" />
		<tag k="ssr:stedsnr" v="565716" />
	</node>
	<node id="-534722" lat="61.501913891" lon="5.93186667053">
		<tag k="historic" v="shieling" />
		<tag k="name" v="Furebøstølen" />
		<tag k="place" v="locality" />
		<tag k="ssr:stedsnr" v="556151" />
	</node>
	<node id="-534721" lat="61.5399500002" lon="6.05955832988">
		<tag k="name" v="Aksla" />
		<tag k="place" v="farm" />
		<tag k="ssr:stedsnr" v="555141" />
	</node>
	<node id="-535232" lat="61.4221179564" lon="6.36866845481">
		<tag k="fixme" v="consider place=hamlet" />
		<tag k="name" v="Gjerland" />
		<tag k="place" v="farm" />
		<tag k="ssr:stedsnr" v="857647" />
	</node>
	<node id="-533792" lat="61.4913194436" lon="5.75390556185">
		<tag k="alt_name" v="Furevikstrand" />
		<tag k="name" v="Furevikstranda" />
		<tag k="place" v="farm" />
		<tag k="ssr:stedsnr" v="311784" />
	</node>
	<node id="-534206" lat="61.4772666692" lon="5.73314723066">
		<tag k="leisure" v="pitch" />
		<tag k="name" v="Kråkenesmarka" />
		<tag k="ssr:stedsnr" v="113766" />
	</node>
	<node id="-534717" lat="61.4259647702" lon="5.71729994683">
		<tag k="alt_name" v="Soleim" />
		<tag k="fixme" v="consider place=hamlet" />
		<tag k="name" v="Solheim" />
		<tag k="place" v="farm" />
		<tag k="ssr:stedsnr" v="554830" />
	</node>
	<node id="-534715" lat="61.4925066888" lon="5.71085058593">
		<tag k="alt_name" v="Indre Kråkenes;Kråkeneset, in" />
		<tag k="fixme" v="consider place=hamlet" />
		<tag k="name" v="Indre Kråkeneset" />
		<tag k="place" v="farm" />
		<tag k="ssr:stedsnr" v="554772" />
	</node>
	<node id="-535226" lat="61.3755416713" lon="5.93900556426">
		<tag k="name" v="Hagestølen" />
		<tag k="place" v="isolated_dwelling" />
		<tag k="ssr:stedsnr" v="857448" />
	</node>
	<node id="-534303" lat="61.4556819828" lon="5.86553885357">
		<tag k="fixme" v="consider place=hamlet" />
		<tag k="name" v="Skei" />
		<tag k="place" v="farm" />
		<tag k="ssr:stedsnr" v="189280" />
	</node>
	<node id="-534473" lat="61.4481472228" lon="5.83633333379">
		<tag k="name" v="Flatene" />
		<tag k="place" v="quarter" />
		<tag k="ssr:stedsnr" v="432862" />
	</node>
	<node id="-535220" lat="61.4299609841" lon="5.94476220173">
		<tag k="alt_name" v="Farsund" />
		<tag k="fixme" v="consider place=hamlet" />
		<tag k="name" v="Farsundet" />
		<tag k="place" v="farm" />
		<tag k="ssr:stedsnr" v="857366" />
	</node>
	<node id="-534707" lat="61.4778902461" lon="5.95039271831">
		<tag k="alt_name" v="Kvamstad" />
		<tag k="name" v="Kvamsstad" />
		<tag k="place" v="farm" />
		<tag k="ssr:stedsnr" v="554312" />
	</node>
	<node id="-534706" lat="61.4805388883" lon="5.95900000464">
		<tag k="alt_name" v="Liabø" />
		<tag k="name" v="Liabøen" />
		<tag k="place" v="farm" />
		<tag k="ssr:stedsnr" v="554287" />
	</node>
	<node id="-534705" lat="61.5303213776" lon="6.02095226654">
		<tag k="fixme" v="consider place=hamlet" />
		<tag k="name" v="Angedal" />
		<tag k="place" v="farm" />
		<tag k="ssr:stedsnr" v="554163" />
	</node>
	<node id="-535216" lat="61.4498808741" lon="5.90351212865">
		<tag k="alt_name" v="Vie" />
		<tag k="fixme" v="consider place=hamlet" />
		<tag k="name" v="Via" />
		<tag k="place" v="farm" />
		<tag k="ssr:stedsnr" v="857339" />
	</node>
	<node id="-535215" lat="61.4644909583" lon="5.95874572461">
		<tag k="alt_name" v="Flugedal" />
		<tag k="fixme" v="consider place=hamlet" />
		<tag k="name" v="Flugedalen" />
		<tag k="place" v="farm" />
		<tag k="ssr:stedsnr" v="857320" />
	</node>
	<node id="-535214" lat="61.4958999996" lon="5.92823056362">
		<tag k="historic" v="shieling" />
		<tag k="name" v="Kvammestølen" />
		<tag k="place" v="locality" />
		<tag k="ssr:stedsnr" v="857287" />
	</node>
	<node id="-535213" lat="61.4483794879" lon="5.86855493705">
		<tag k="fixme" v="consider place=hamlet" />
		<tag k="name" v="Hafstad" />
		<tag k="place" v="farm" />
		<tag k="ssr:stedsnr" v="846186" />
	</node>
	<node id="-535212" lat="61.4723583342" lon="5.73719166437">
		<tag k="aerialway" v="drag_lift" />
		<tag k="fixme" v="consider the other aerialway types" />
		<tag k="name" v="Blomlia" />
		<tag k="ssr:stedsnr" v="842762" />
	</node>
	<node id="-534697" lat="61.4312694416" lon="5.68415555456">
		<tag k="name" v="Vikane" />
		<tag k="place" v="farm" />
		<tag k="ssr:stedsnr" v="553836" />
	</node>
	<node id="-534131" lat="61.4420189002" lon="5.95536869719">
		<tag k="fixme" v="consider place=hamlet" />
		<tag k="name" v="Solheim" />
		<tag k="place" v="farm" />
		<tag k="ssr:stedsnr" v="68354" />
	</node>
	<node id="-534693" lat="61.4321138864" lon="5.62704999234">
		<tag k="name" v="Bakkane" />
		<tag k="place" v="farm" />
		<tag k="ssr:stedsnr" v="553823" />
	</node>
	<node id="-534811" lat="61.4715694474" lon="5.8385305552">
		<tag k="historic" v="shieling" />
		<tag k="name" v="Hornnesstølen" />
		<tag k="place" v="locality" />
		<tag k="ssr:stedsnr" v="614656" />
	</node>
	<node id="-534684" lat="61.4303305547" lon="6.39265556113">
		<tag k="name" v="Frøyslandsstølen" />
		<tag k="place" v="isolated_dwelling" />
		<tag k="ssr:stedsnr" v="553631" />
	</node>
	<node id="-534683" lat="61.3837749957" lon="5.89281666071">
		<tag k="alt_name" v="Masdalstølen" />
		<tag k="historic" v="shieling" />
		<tag k="name" v="Masdalsstølen" />
		<tag k="place" v="locality" />
		<tag k="ssr:stedsnr" v="553417" />
	</node>
	<node id="-534681" lat="61.4154499991" lon="6.10244444169">
		<tag k="alt_name" v="Øvre Nydal;Nyddalen, øvre" />
		<tag k="fixme" v="multiple name tags, choose one and add the other to alt_name" />
		<tag k="name" v="Gjerdet;Øvre Nyddalen" />
		<tag k="place" v="farm" />
		<tag k="ssr:stedsnr" v="553386" />
	</node>
	<node id="-534318" lat="61.4460166628" lon="5.98345832557">
		<tag k="name" v="Mostølen" />
		<tag k="place" v="isolated_dwelling" />
		<tag k="ssr:stedsnr" v="190345" />
	</node>
	<node id="-534679" lat="61.4247833367" lon="5.86986943937">
		<tag k="alt_name" v="Brulandsstølen" />
		<tag k="historic" v="shieling" />
		<tag k="name" v="Brulandsstølane" />
		<tag k="place" v="locality" />
		<tag k="ssr:stedsnr" v="553333" />
	</node>
	<node id="-534678" lat="61.428413893" lon="5.97157499192">
		<tag k="name" v="Kinnaneset" />
		<tag k="place" v="farm" />
		<tag k="ssr:stedsnr" v="553331" />
	</node>
	<node id="-535321" lat="61.4355212416" lon="6.05778619472">
		<tag k="alt_name" v="Viskedal" />
		<tag k="fixme" v="consider place=hamlet" />
		<tag k="name" v="Viskedalen" />
		<tag k="place" v="farm" />
		<tag k="ssr:stedsnr" v="918403" />
	</node>
	<node id="-534676" lat="61.4382333342" lon="5.89665000134">
		<tag k="fixme" v="consider place=hamlet" />
		<tag k="name" v="Bruland" />
		<tag k="place" v="village" />
		<tag k="ssr:stedsnr" v="553322" />
	</node>
	<node id="-535187" lat="61.4250499977" lon="6.10711665892">
		<tag k="name" v="Skjeldset" />
		<tag k="place" v="farm" />
		<tag k="ssr:stedsnr" v="820861" />
	</node>
	<node id="-534674" lat="61.4390861069" lon="5.9600916656">
		<tag k="alt_name" v="Hellarskvia" />
		<tag k="name" v="Hellerskvia" />
		<tag k="place" v="farm" />
		<tag k="ssr:stedsnr" v="553317" />
	</node>
	<node id="-534157" lat="61.4252362051" lon="6.43753659734">
		<tag k="fixme" v="consider place=hamlet" />
		<tag k="name" v="Grøning" />
		<tag k="place" v="farm" />
		<tag k="ssr:stedsnr" v="69669" />
	</node>
	<node id="-534666" lat="61.4739722227" lon="5.90020832562">
		<tag k="historic" v="shieling" />
		<tag k="name" v="Bergstadstølen" />
		<tag k="place" v="locality" />
		<tag k="ssr:stedsnr" v="516976" />
	</node>
	<node id="-534807" lat="61.4641444462" lon="5.80539444818">
		<tag k="alt_name" v="Gravdalen, in" />
		<tag k="name" v="Indre Gravdalen" />
		<tag k="place" v="farm" />
		<tag k="ssr:stedsnr" v="614646" />
	</node>
	<node id="-534664" lat="61.4852999975" lon="5.92503055671">
		<tag k="historic" v="shieling" />
		<tag k="name" v="Hjortdalstølen" />
		<tag k="place" v="locality" />
		<tag k="ssr:stedsnr" v="516973" />
	</node>
	<node id="-534151" lat="61.4142777791" lon="5.84913610947">
		<tag k="alt_name" v="Viestølen" />
		<tag k="historic" v="shieling" />
		<tag k="name" v="Viastølen" />
		<tag k="place" v="locality" />
		<tag k="ssr:stedsnr" v="69371" />
	</node>
	<node id="-535174" lat="61.4006361109" lon="6.18018610565">
		<tag k="historic" v="shieling" />
		<tag k="name" v="Heimestølen" />
		<tag k="place" v="locality" />
		<tag k="ssr:stedsnr" v="820779" />
	</node>
	<node id="-534209" lat="61.4109666634" lon="6.16362500685">
		<tag k="name" v="Skorpa" />
		<tag k="place" v="farm" />
		<tag k="ssr:stedsnr" v="128373" />
	</node>
	<node id="-535255" lat="61.4134250029" lon="5.93836943832">
		<tag k="alt_name" v="Refsdalstølen" />
		<tag k="fixme" v="multiple name tags, choose one and add the other to alt_name" />
		<tag k="historic" v="shieling" />
		<tag k="name" v="Vårstølen;Revsdalen" />
		<tag k="place" v="locality" />
		<tag k="ssr:stedsnr" v="858394" />
	</node>
	<node id="-534144" lat="61.4359444459" lon="5.63879444309">
		<tag k="name" v="Skardvollen" />
		<tag k="place" v="farm" />
		<tag k="ssr:stedsnr" v="68863" />
	</node>
	<node id="-534143" lat="61.4408869256" lon="5.6256957049">
		<tag k="alt_name" v="Muledalen" />
		<tag k="fixme" v="consider place=hamlet" />
		<tag k="name" v="Muladalen" />
		<tag k="place" v="farm" />
		<tag k="ssr:stedsnr" v="68860" />
	</node>
	<node id="-534133" lat="61.4167555598" lon="6.0839249931">
		<tag k="name" v="Stranda" />
		<tag k="place" v="farm" />
		<tag k="ssr:stedsnr" v="68413" />
	</node>
	<node id="-534140" lat="61.4378611074" lon="5.66416389651">
		<tag k="name" v="Fredheim" />
		<tag k="place" v="farm" />
		<tag k="ssr:stedsnr" v="68812" />
	</node>
	<node id="-534122" lat="61.4960888905" lon="5.79631111778">
		<tag k="name" v="Skogen" />
		<tag k="place" v="farm" />
		<tag k="ssr:stedsnr" v="53702" />
	</node>
	<node id="-534137" lat="61.4353972184" lon="6.38541111852">
		<tag k="name" v="Bakkestølen" />
		<tag k="place" v="locality" />
		<tag k="ssr:stedsnr" v="68658" />
	</node>
	<node id="-534647" lat="61.4447777807" lon="5.96851944353">
		<tag k="historic" v="shieling" />
		<tag k="name" v="Fletestølen" />
		<tag k="place" v="locality" />
		<tag k="ssr:stedsnr" v="516867" />
	</node>
	<node id="-534134" lat="61.390188888" lon="5.97252500851">
		<tag k="historic" v="shieling" />
		<tag k="name" v="Liastølen" />
		<tag k="place" v="locality" />
		<tag k="ssr:stedsnr" v="68431" />
	</node>
	<node id="-535157" lat="61.4379555531" lon="5.55653610929">
		<tag k="historic" v="shieling" />
		<tag k="name" v="Fengestølen" />
		<tag k="place" v="locality" />
		<tag k="ssr:stedsnr" v="820574" />
	</node>
	<node id="-535230" lat="61.4591586488" lon="5.66849331111">
		<tag k="fixme" v="consider place=hamlet" />
		<tag k="name" v="Fauske" />
		<tag k="place" v="farm" />
		<tag k="ssr:stedsnr" v="857639" />
	</node>
	<node id="-534130" lat="61.4679305566" lon="5.96616110751">
		<tag k="alt_name" v="Bakkestølen" />
		<tag k="historic" v="shieling" />
		<tag k="name" v="Kvamsbakkestølen" />
		<tag k="place" v="locality" />
		<tag k="ssr:stedsnr" v="68300" />
	</node>
	<node id="-534126" lat="61.472863887" lon="5.7554527744">
		<tag k="historic" v="shieling" />
		<tag k="name" v="Furevikstølen" />
		<tag k="place" v="locality" />
		<tag k="ssr:stedsnr" v="68705" />
	</node>
	<node id="-534124" lat="61.4539249971" lon="5.60257221628">
		<tag k="name" v="Botnen" />
		<tag k="place" v="farm" />
		<tag k="ssr:stedsnr" v="68647" />
	</node>
	<node id="-535146" lat="61.5301388913" lon="5.98512222669">
		<tag k="name" v="Eikelandsstølen" />
		<tag k="place" v="locality" />
		<tag k="ssr:stedsnr" v="798147" />
	</node>
	<node id="-534163" lat="61.5574833371" lon="6.07315555266">
		<tag k="historic" v="shieling" />
		<tag k="name" v="Brekkestølen" />
		<tag k="place" v="locality" />
		<tag k="ssr:stedsnr" v="70179" />
	</node>
	<node id="-534460" lat="61.4019055511" lon="5.98946388647">
		<tag k="name" v="Tunastølen" />
		<tag k="place" v="isolated_dwelling" />
		<tag k="ssr:stedsnr" v="432379" />
	</node>
	<node id="-535142" lat="61.4908327292" lon="5.75163031472">
		<tag k="name" v="Svinevikhaugen" />
		<tag k="place" v="farm" />
		<tag k="ssr:stedsnr" v="797749" />
	</node>
	<node id="-535313" lat="61.4898000025" lon="5.84384444071">
		<tag k="alt_name" v="Kleiven" />
		<tag k="name" v="Kleivane" />
		<tag k="place" v="farm" />
		<tag k="ssr:stedsnr" v="918314" />
	</node>
	<node id="-534116" lat="61.4723916709" lon="5.87570278098">
		<tag k="historic" v="shieling" />
		<tag k="name" v="Flatestølen" />
		<tag k="place" v="locality" />
		<tag k="ssr:stedsnr" v="31983" />
	</node>
	<node id="-534886" lat="61.4094483703" lon="6.17282972693">
		<tag k="name" v="Støa" />
		<tag k="place" v="locality" />
		<tag k="ssr:stedsnr" v="675420" />
	</node>
	<node id="-535137" lat="61.4711583294" lon="5.83993611897">
		<tag k="historic" v="shieling" />
		<tag k="name" v="Strandastølen" />
		<tag k="place" v="locality" />
		<tag k="ssr:stedsnr" v="797648" />
	</node>
	<node id="-533776" lat="61.4109083354" lon="6.28511110497">
		<tag k="name" v="Indre Hårklau" />
		<tag k="place" v="farm" />
		<tag k="ssr:stedsnr" v="311672" />
	</node>
	<node id="-535397" lat="61.425429156" lon="6.13128470234">
		<tag k="fixme" v="consider place=hamlet" />
		<tag k="name" v="Fletene" />
		<tag k="place" v="farm" />
		<tag k="ssr:stedsnr" v="974448" />
	</node>
	<node id="-535132" lat="61.4186208922" lon="6.43165174174">
		<tag k="fixme" v="consider place=hamlet" />
		<tag k="name" v="Myra" />
		<tag k="place" v="farm" />
		<tag k="ssr:stedsnr" v="797629" />
	</node>
	<node id="-534714" lat="61.4883419266" lon="5.70606911291">
		<tag k="alt_name" v="Kråkenes;Kråkeneset, yt;Kråkeneset;Ytre Kråkenes" />
		<tag k="fixme" v="consider place=hamlet" />
		<tag k="name" v="Ytre Kråkeneset" />
		<tag k="place" v="farm" />
		<tag k="ssr:stedsnr" v="554770" />
	</node>
	<node id="-535130" lat="61.4247189864" lon="6.13259445681">
		<tag k="alt_name" v="Fleten;Fletene, in;Fletene" />
		<tag k="name" v="Indre Fletene" />
		<tag k="place" v="farm" />
		<tag k="ssr:stedsnr" v="797370" />
	</node>
	<node id="-534799" lat="61.409119125" lon="5.90944353716">
		<tag k="alt_name" v="Ullebust" />
		<tag k="fixme" v="consider place=hamlet" />
		<tag k="name" v="Ullebost" />
		<tag k="place" v="farm" />
		<tag k="ssr:stedsnr" v="614383" />
	</node>
	<node id="-535128" lat="61.4319666691" lon="6.12206666435">
		<tag k="alt_name" v="Ytreflet-stølen" />
		<tag k="historic" v="shieling" />
		<tag k="name" v="Fletestølen" />
		<tag k="place" v="locality" />
		<tag k="ssr:stedsnr" v="797353" />
	</node>
	<node id="-534713" lat="61.4104811773" lon="6.27088622391">
		<tag k="alt_name" v="Hårklau" />
		<tag k="name" v="Ytre Hårklau" />
		<tag k="place" v="farm" />
		<tag k="ssr:stedsnr" v="554680" />
	</node>
	<node id="-535122" lat="61.4274926049" lon="5.93374451699">
		<tag k="fixme" v="consider place=hamlet" />
		<tag k="name" v="Sunde" />
		<tag k="place" v="farm" />
		<tag k="ssr:stedsnr" v="797332" />
	</node>
	<node id="-535121" lat="61.4787499986" lon="5.98096665946">
		<tag k="historic" v="shieling" />
		<tag k="name" v="Liastølen" />
		<tag k="place" v="locality" />
		<tag k="ssr:stedsnr" v="797277" />
	</node>
	<node id="-535120" lat="61.4729389631" lon="5.94158470149">
		<tag k="fixme" v="consider place=hamlet" />
		<tag k="name" v="Kvamsås" />
		<tag k="place" v="farm" />
		<tag k="ssr:stedsnr" v="797269" />
	</node>
	<node id="-535117" lat="61.4973305571" lon="6.00615554754">
		<tag k="alt_name" v="Grimelandstølen" />
		<tag k="historic" v="shieling" />
		<tag k="name" v="Grimelandsstølen" />
		<tag k="place" v="locality" />
		<tag k="ssr:stedsnr" v="797247" />
	</node>
	<node id="-535116" lat="61.4913305546" lon="5.86704999372">
		<tag k="alt_name" v="Erdalsstølen" />
		<tag k="historic" v="shieling" />
		<tag k="name" v="Erdalsstølane" />
		<tag k="place" v="locality" />
		<tag k="ssr:stedsnr" v="797239" />
	</node>
	<node id="-535115" lat="61.4864097535" lon="5.96492202967">
		<tag k="fixme" v="consider place=hamlet" />
		<tag k="name" v="Furebøen" />
		<tag k="place" v="farm" />
		<tag k="ssr:stedsnr" v="797240" />
	</node>
	<node id="-534599" lat="61.5005111118" lon="5.98468611291">
		<tag k="alt_name" v="Grimelandshaug" />
		<tag k="name" v="Grimelandshaugen" />
		<tag k="place" v="farm" />
		<tag k="ssr:stedsnr" v="495155" />
	</node>
	<node id="-535110" lat="61.4406466854" lon="5.5536378603">
		<tag k="alt_name" v="Hellevang;Heilevong" />
		<tag k="fixme" v="consider place=hamlet" />
		<tag k="name" v="Heilevang" />
		<tag k="place" v="farm" />
		<tag k="ssr:stedsnr" v="796860" />
	</node>
	<node id="-535108" lat="61.4299361126" lon="5.66404721493">
		<tag k="name" v="Kviene" />
		<tag k="place" v="locality" />
		<tag k="ssr:stedsnr" v="796844" />
	</node>
	<node id="-535107" lat="61.4402222186" lon="5.65375832499">
		<tag k="name" v="Øygarden" />
		<tag k="place" v="farm" />
		<tag k="ssr:stedsnr" v="796827" />
	</node>
	<node id="-534594" lat="61.4991527816" lon="5.79287222176">
		<tag k="alt_name" v="Langebø" />
		<tag k="name" v="Langebøen" />
		<tag k="place" v="farm" />
		<tag k="ssr:stedsnr" v="493755" />
	</node>
	<node id="-534806" lat="61.4636861072" lon="5.77349444797">
		<tag k="alt_name" v="Ulltangstøl" />
		<tag k="historic" v="shieling" />
		<tag k="name" v="Ulltangestølen" />
		<tag k="place" v="locality" />
		<tag k="ssr:stedsnr" v="614645" />
	</node>
	<node id="-535104" lat="61.482533332" lon="5.76752499378">
		<tag k="name" v="Indrebotnen" />
		<tag k="place" v="farm" />
		<tag k="ssr:stedsnr" v="796719" />
	</node>
	<node id="-535101" lat="61.4798053807" lon="5.79554305092">
		<tag k="name" v="Nesbø" />
		<tag k="place" v="farm" />
		<tag k="ssr:stedsnr" v="796672" />
	</node>
	<node id="-535098" lat="61.4547222224" lon="5.70710000692">
		<tag k="alt_name" v="Søre-Fauskestøl;Fauskestølen, s" />
		<tag k="historic" v="shieling" />
		<tag k="name" v="Søre Fauskestølen" />
		<tag k="place" v="locality" />
		<tag k="ssr:stedsnr" v="796627" />
	</node>
	<node id="-533914" lat="61.5512333333" lon="6.07198055081">
		<tag k="name" v="Øyane" />
		<tag k="place" v="locality" />
		<tag k="ssr:stedsnr" v="373159" />
	</node>
	<node id="-535095" lat="61.400270598" lon="5.8734589542">
		<tag k="alt_name" v="Etterli" />
		<tag k="fixme" v="consider place=hamlet" />
		<tag k="name" v="Etrelia" />
		<tag k="place" v="farm" />
		<tag k="ssr:stedsnr" v="796402" />
	</node>
	<node id="-533769" lat="61.4051666693" lon="6.06805000816">
		<tag k="historic" v="shieling" />
		<tag k="name" v="Husetuftstølen" />
		<tag k="place" v="locality" />
		<tag k="ssr:stedsnr" v="311446" />
	</node>
	<node id="-535090" lat="61.46640282" lon="5.91389926694">
		<tag k="fixme" v="consider place=hamlet" />
		<tag k="name" v="Hjelle" />
		<tag k="place" v="farm" />
		<tag k="ssr:stedsnr" v="796308" />
	</node>
	<node id="-535219" lat="61.4466083352" lon="5.91187500734">
		<tag k="name" v="Løland" />
		<tag k="place" v="farm" />
		<tag k="ssr:stedsnr" v="857360" />
	</node>
	<node id="-534576" lat="61.4249749979" lon="6.10868332925">
		<tag k="name" v="Vikane" />
		<tag k="place" v="isolated_dwelling" />
		<tag k="ssr:stedsnr" v="493370" />
	</node>
	<node id="-534573" lat="61.498522226" lon="5.8220583345">
		<tag k="alt_name" v="Klopstadstølen" />
		<tag k="historic" v="shieling" />
		<tag k="name" v="Kloppstadstølen" />
		<tag k="place" v="locality" />
		<tag k="ssr:stedsnr" v="492718" />
	</node>
	<node id="-534057" lat="61.4172583333" lon="6.08359444885">
		<tag k="name" v="Husetuftstranda" />
		<tag k="place" v="farm" />
		<tag k="ssr:stedsnr" v="31223" />
	</node>
	<node id="-535079" lat="61.4156583323" lon="5.92462223055">
		<tag k="name" v="Nyheim" />
		<tag k="place" v="farm" />
		<tag k="ssr:stedsnr" v="759925" />
	</node>
	<node id="-534054" lat="61.5188249584" lon="6.01227673314">
		<tag k="fixme" v="consider place=hamlet" />
		<tag k="name" v="Haugen" />
		<tag k="place" v="farm" />
		<tag k="ssr:stedsnr" v="10171" />
	</node>
	<node id="-534052" lat="61.5523249981" lon="6.07812222789">
		<tag k="historic" v="shieling" />
		<tag k="name" v="Vassbrekka" />
		<tag k="place" v="locality" />
		<tag k="ssr:stedsnr" v="9169" />
	</node>
	<node id="-534050" lat="61.4322388853" lon="5.80768611766">
		<tag k="historic" v="shieling" />
		<tag k="name" v="Prestestølen" />
		<tag k="place" v="locality" />
		<tag k="ssr:stedsnr" v="8856" />
	</node>
	<node id="-534192" lat="61.4267972238" lon="5.99103888549">
		<tag k="name" v="Midtåsen" />
		<tag k="place" v="farm" />
		<tag k="ssr:stedsnr" v="92831" />
	</node>
	<node id="-534689" lat="61.4869531919" lon="5.81680084111">
		<tag k="alt_name" v="Erdal" />
		<tag k="fixme" v="consider place=hamlet" />
		<tag k="name" v="Erdalen" />
		<tag k="place" v="farm" />
		<tag k="ssr:stedsnr" v="553720" />
	</node>
	<node id="-534043" lat="61.4252888864" lon="5.80828333989">
		<tag k="alt_name" v="Havstadstølane" />
		<tag k="historic" v="shieling" />
		<tag k="name" v="Hafstadstølane" />
		<tag k="place" v="locality" />
		<tag k="ssr:stedsnr" v="8806" />
	</node>
	<node id="-534703" lat="61.4346833293" lon="5.60003333807">
		<tag k="name" v="Stølen" />
		<tag k="place" v="farm" />
		<tag k="ssr:stedsnr" v="553882" />
	</node>
	<node id="-534036" lat="61.4680277763" lon="5.84210833186">
		<tag k="alt_name" v="Bergumstølen" />
		<tag k="historic" v="shieling" />
		<tag k="name" v="Bergumsstølen" />
		<tag k="place" v="locality" />
		<tag k="ssr:stedsnr" v="8663" />
	</node>
	<node id="-534033" lat="61.4164111124" lon="6.27647777539">
		<tag k="alt_name" v="Hårklaustølen, in" />
		<tag k="name" v="Hårklaustølen" />
		<tag k="place" v="locality" />
		<tag k="ssr:stedsnr" v="8641" />
	</node>
	<node id="-534032" lat="61.4248100336" lon="6.02021020742">
		<tag k="name" v="Åsen" />
		<tag k="place" v="farm" />
		<tag k="ssr:stedsnr" v="8406" />
	</node>
	<node id="-534030" lat="61.4271290758" lon="5.99709861151">
		<tag k="alt_name" v="Indre Åsen" />
		<tag k="name" v="Indråsane" />
		<tag k="place" v="farm" />
		<tag k="ssr:stedsnr" v="8403" />
	</node>
	<node id="-534541" lat="61.5219111074" lon="6.0184416692">
		<tag k="name" v="Indreli" />
		<tag k="place" v="farm" />
		<tag k="ssr:stedsnr" v="456800" />
	</node>
	<node id="-534028" lat="61.4146144145" lon="5.86552940176">
		<tag k="alt_name" v="Digernes" />
		<tag k="fixme" v="consider place=hamlet" />
		<tag k="name" v="Digreneset" />
		<tag k="place" v="farm" />
		<tag k="ssr:stedsnr" v="8385" />
	</node>
	<node id="-534027" lat="61.4158027752" lon="5.92810555043">
		<tag k="name" v="Myrane" />
		<tag k="place" v="farm" />
		<tag k="ssr:stedsnr" v="8382" />
	</node>
	<node id="-535049" lat="61.4223666707" lon="6.14744444001">
		<tag k="name" v="Stranda" />
		<tag k="place" v="hamlet" />
		<tag k="ssr:stedsnr" v="759767" />
	</node>
	<node id="-534024" lat="61.4790611138" lon="5.95442777321">
		<tag k="alt_name" v="Instebø" />
		<tag k="name" v="Instebøen" />
		<tag k="place" v="farm" />
		<tag k="ssr:stedsnr" v="8300" />
	</node>
	<node id="-534444" lat="61.5135419451" lon="5.99102544625">
		<tag k="fixme" v="consider place=hamlet" />
		<tag k="name" v="Kvål" />
		<tag k="place" v="farm" />
		<tag k="ssr:stedsnr" v="252120" />
	</node>
	<node id="-534022" lat="61.4903638852" lon="5.96083611212">
		<tag k="name" v="Kvia" />
		<tag k="place" v="farm" />
		<tag k="ssr:stedsnr" v="8285" />
	</node>
	<node id="-534021" lat="61.4501222211" lon="5.78575277617">
		<tag k="historic" v="shieling" />
		<tag k="name" v="Gravdalsstølen" />
		<tag k="place" v="locality" />
		<tag k="ssr:stedsnr" v="7866" />
	</node>
	<node id="-534019" lat="61.4521694458" lon="5.85717500499">
		<tag k="name" v="Førde" />
		<tag k="place" v="town" />
		<tag k="ssr:stedsnr" v="7844" />
	</node>
</osm>
