<?xml version="1.0" encoding="UTF-8"?>
<osm generator="osmapis" version="0.6">
	<node id="-533245" lat="61.4099499964" lon="6.27950833635">
		<tag k="bridge" v="yes" />
		<tag k="layer" v="1" />
		<tag k="name" v="Hårklau" />
		<tag k="ssr:stedsnr" v="897306" />
	</node>
	<node id="-533372" lat="61.5174138849" lon="6.00118055118">
		<tag k="bridge" v="yes" />
		<tag k="layer" v="1" />
		<tag k="name" v="Eikeland" />
		<tag k="ssr:stedsnr" v="47322" />
	</node>
	<node id="-533371" lat="61.5365472225" lon="6.05219722236">
		<tag k="bridge" v="yes" />
		<tag k="layer" v="1" />
		<tag k="name" v="Botna" />
		<tag k="ssr:stedsnr" v="47320" />
	</node>
	<node id="-533370" lat="61.4362611119" lon="5.63826666206">
		<tag k="bridge" v="yes" />
		<tag k="layer" v="1" />
		<tag k="name" v="Skarevollen" />
		<tag k="ssr:stedsnr" v="47317" />
	</node>
	<node id="-534644" lat="61.4706750029" lon="5.81756111739">
		<tag k="layer" v="-1" />
		<tag k="name" v="Hornnes" />
		<tag k="ssr:stedsnr" v="954500" />
		<tag k="tunnel" v="yes" />
	</node>
	<node id="-533821" lat="61.5278083365" lon="6.01942777076">
		<tag k="bridge" v="yes" />
		<tag k="layer" v="1" />
		<tag k="name" v="Svoregrova" />
		<tag k="ssr:stedsnr" v="472293" />
	</node>
	<node id="-533226" lat="61.4589944407" lon="5.8487250042">
		<tag k="bridge" v="yes" />
		<tag k="layer" v="1" />
		<tag k="name" v="Øyrane" />
		<tag k="ssr:stedsnr" v="411609" />
	</node>
	<node id="-533225" lat="61.487444446" lon="5.81700277615">
		<tag k="bridge" v="yes" />
		<tag k="layer" v="1" />
		<tag k="name" v="Erdal" />
		<tag k="ssr:stedsnr" v="411300" />
	</node>
	<node id="-533008" lat="61.4384750019" lon="5.86288888887">
		<tag k="highway" v="path" />
		<tag k="name" v="Hafstadkleiva" />
		<tag k="ssr:stedsnr" v="299226" />
	</node>
	<node id="-533005" lat="61.4597111122" lon="5.88969721477">
		<tag k="bridge" v="yes" />
		<tag k="layer" v="1" />
		<tag k="name" v="Prestefoss" />
		<tag k="ssr:stedsnr" v="290299" />
	</node>
	<node id="-533646" lat="61.4101027816" lon="5.91014166094">
		<tag k="bridge" v="yes" />
		<tag k="layer" v="1" />
		<tag k="name" v="Ullebust" />
		<tag k="ssr:stedsnr" v="229626" />
	</node>
	<node id="-533456" lat="61.4995138882" lon="5.97480832489">
		<tag k="bridge" v="yes" />
		<tag k="layer" v="1" />
		<tag k="name" v="Grøvla" />
		<tag k="ssr:stedsnr" v="108311" />
	</node>
	<node id="-534222" lat="61.485652781" lon="5.95620555608">
		<tag k="bridge" v="yes" />
		<tag k="layer" v="1" />
		<tag k="name" v="Furebø" />
		<tag k="ssr:stedsnr" v="715348" />
	</node>
	<node id="-534221" lat="61.4676555531" lon="5.92477223165">
		<tag k="bridge" v="yes" />
		<tag k="layer" v="1" />
		<tag k="name" v="Tefre" />
		<tag k="ssr:stedsnr" v="715342" />
	</node>
	<node id="-534340" lat="61.4708472223" lon="5.72352777877">
		<tag k="bridge" v="yes" />
		<tag k="layer" v="1" />
		<tag k="name" v="Trongaelv" />
		<tag k="ssr:stedsnr" v="775281" />
	</node>
	<node id="-534339" lat="61.4148249965" lon="6.34615833517">
		<tag k="bridge" v="yes" />
		<tag k="layer" v="1" />
		<tag k="name" v="Nes" />
		<tag k="ssr:stedsnr" v="775277" />
	</node>
	<node id="-533822" lat="61.4379888887" lon="5.65668610354">
		<tag k="bridge" v="yes" />
		<tag k="layer" v="1" />
		<tag k="name" v="Øygard" />
		<tag k="ssr:stedsnr" v="472605" />
	</node>
	<node id="-534461" lat="61.4558222183" lon="5.67251944624">
		<tag k="bridge" v="yes" />
		<tag k="layer" v="1" />
		<tag k="name" v="Fauske" />
		<tag k="ssr:stedsnr" v="836274" />
	</node>
	<node id="-534460" lat="61.4293111107" lon="5.93972221646">
		<tag k="bridge" v="yes" />
		<tag k="layer" v="1" />
		<tag k="name" v="Farsund" />
		<tag k="ssr:stedsnr" v="836272" />
	</node>
	<node id="-534459" lat="61.4262833291" lon="6.4428638968">
		<tag k="bridge" v="yes" />
		<tag k="layer" v="1" />
		<tag k="name" v="Grøneng" />
		<tag k="ssr:stedsnr" v="836271" />
	</node>
	<node id="-534458" lat="61.4650916668" lon="5.90933332643">
		<tag k="bridge" v="yes" />
		<tag k="layer" v="1" />
		<tag k="name" v="Gryteelva" />
		<tag k="ssr:stedsnr" v="836270" />
	</node>
	<node id="-534457" lat="61.4397166673" lon="5.55479166137">
		<tag k="bridge" v="yes" />
		<tag k="layer" v="1" />
		<tag k="name" v="Heilevang" />
		<tag k="ssr:stedsnr" v="836261" />
	</node>
	<node id="-533809" lat="61.450230559" lon="5.85269722507">
		<tag k="leisure" v="marina" />
		<tag k="name" v="Naustøyna" />
		<tag k="ssr:stedsnr" v="456897" />
	</node>
	<node id="-533551" lat="61.4565055533" lon="5.69160555017">
		<tag k="bridge" v="yes" />
		<tag k="layer" v="1" />
		<tag k="name" v="Fauskestølen" />
		<tag k="ssr:stedsnr" v="169318" />
	</node>
	<node id="-533550" lat="61.4912638846" lon="5.98092222535">
		<tag k="bridge" v="yes" />
		<tag k="layer" v="1" />
		<tag k="name" v="Grimeland" />
		<tag k="ssr:stedsnr" v="169314" />
	</node>
	<node id="-533549" lat="61.4400444422" lon="5.96582499182">
		<tag k="bridge" v="yes" />
		<tag k="layer" v="1" />
		<tag k="name" v="Mo" />
		<tag k="ssr:stedsnr" v="169299" />
	</node>
	<node id="-533548" lat="61.4645944451" lon="5.70990554767">
		<tag k="layer" v="-1" />
		<tag k="name" v="Nordhei" />
		<tag k="ssr:stedsnr" v="165358" />
		<tag k="tunnel" v="yes" />
	</node>
	<node id="-533921" lat="61.4523111093" lon="5.84363611041">
		<tag k="bridge" v="yes" />
		<tag k="layer" v="1" />
		<tag k="name" v="Halbrend" />
		<tag k="ssr:stedsnr" v="533312" />
	</node>
	<node id="-533920" lat="61.4595944462" lon="5.81599443831">
		<tag k="layer" v="-1" />
		<tag k="name" v="Kvernberg" />
		<tag k="ssr:stedsnr" v="529267" />
		<tag k="tunnel" v="yes" />
	</node>
	<node id="-534168" lat="61.4111333303" lon="6.31138611432">
		<tag k="layer" v="-1" />
		<tag k="name" v="Storesvatunnelen" />
		<tag k="ssr:stedsnr" v="688410" />
		<tag k="tunnel" v="yes" />
	</node>
	<node id="-534033" lat="61.4530249977" lon="5.85001666716">
		<tag k="bridge" v="yes" />
		<tag k="layer" v="1" />
		<tag k="name" v="Førde" />
		<tag k="ssr:stedsnr" v="593284" />
	</node>
	<node id="-534032" lat="61.458388886" lon="5.88054721838">
		<tag k="bridge" v="yes" />
		<tag k="layer" v="1" />
		<tag k="name" v="Skei" />
		<tag k="ssr:stedsnr" v="593283" />
	</node>
	<node id="-534031" lat="61.4935388912" lon="5.80303055283">
		<tag k="bridge" v="yes" />
		<tag k="layer" v="1" />
		<tag k="name" v="Rotenes" />
		<tag k="ssr:stedsnr" v="593280" />
	</node>
	<node id="-534030" lat="61.4730805592" lon="5.81221666372">
		<tag k="layer" v="-1" />
		<tag k="name" v="Bjørnsnes" />
		<tag k="ssr:stedsnr" v="590133" />
		<tag k="tunnel" v="yes" />
	</node>
	<node id="-533645" lat="61.4587833355" lon="5.84895555895">
		<tag k="bridge" v="yes" />
		<tag k="layer" v="1" />
		<tag k="name" v="Øyrane Undergang" />
		<tag k="ssr:stedsnr" v="229623" />
	</node>
	<node id="-533644" lat="61.4600722253" lon="5.84702777809">
		<tag k="layer" v="-1" />
		<tag k="name" v="Kletta" />
		<tag k="ssr:stedsnr" v="226298" />
		<tag k="tunnel" v="yes" />
	</node>
	<node id="-533127" lat="61.4502611093" lon="5.84981388883">
		<tag k="bridge" v="yes" />
		<tag k="layer" v="1" />
		<tag k="name" v="Storehagen" />
		<tag k="ssr:stedsnr" v="350271" />
	</node>
	<node id="-533126" lat="61.4596277796" lon="5.84780000455">
		<tag k="bridge" v="yes" />
		<tag k="layer" v="1" />
		<tag k="name" v="Krossen Undergang" />
		<tag k="ssr:stedsnr" v="350265" />
	</node>
</osm>
