<?xml version="1.0" encoding="UTF-8"?>
<osm generator="osmapis" version="0.6">
	<node id="-534783" lat="61.4899944431" lon="5.70130555617">
		<tag k="name" v="Ytre Kråkenesvika" />
		<tag k="natural" v="bay" />
		<tag k="ssr:stedsnr" v="599855" />
	</node>
	<node id="-534013" lat="61.4765916709" lon="5.66343889566">
		<tag k="alt_name" v="Gjesneset" />
		<tag k="name" v="Geitsneset" />
		<tag k="natural" v="cape" />
		<tag k="ssr:stedsnr" v="7666" />
	</node>
	<node id="-535036" lat="61.4905111115" lon="5.69516111962">
		<tag k="name" v="Tåna" />
		<tag k="natural" v="cape" />
		<tag k="ssr:stedsnr" v="759574" />
	</node>
	<node id="-534954" lat="61.4630666712" lon="5.84111389736">
		<tag k="name" v="Klettavika" />
		<tag k="natural" v="bay" />
		<tag k="ssr:stedsnr" v="699888" />
	</node>
	<node id="-534015" lat="61.4841416711" lon="5.7850027779">
		<tag k="alt_name" v="Halvrø" />
		<tag k="name" v="Stranda" />
		<tag k="natural" v="cape" />
		<tag k="ssr:stedsnr" v="7682" />
	</node>
	<node id="-534902" lat="61.4916805593" lon="5.74531666942">
		<tag k="name" v="Haugavika" />
		<tag k="natural" v="bay" />
		<tag k="ssr:stedsnr" v="675759" />
	</node>
	<node id="-535155" lat="61.4440611151" lon="5.58502221518">
		<tag k="name" v="Leirvikneset" />
		<tag k="natural" v="cape" />
		<tag k="ssr:stedsnr" v="820570" />
	</node>
	<node id="-533757" lat="61.4917388887" lon="5.71958056349">
		<tag k="name" v="Indre Kråkenesvika" />
		<tag k="natural" v="bay" />
		<tag k="ssr:stedsnr" v="296849" />
	</node>
	<node id="-535020" lat="61.4773000004" lon="5.80508056176">
		<tag k="alt_name" v="Bjørnholmen" />
		<tag k="name" v="Bjørnen" />
		<tag k="place" v="islet" />
		<tag k="ssr:stedsnr" v="736689" />
	</node>
	<node id="-535273" lat="61.44078333" lon="5.54816111603">
		<tag k="name" v="Verpe" />
		<tag k="natural" v="cape" />
		<tag k="ssr:stedsnr" v="881563" />
	</node>
	<node id="-535144" lat="61.4895361116" lon="5.69689721554">
		<tag k="name" v="Kastevika" />
		<tag k="natural" v="bay" />
		<tag k="ssr:stedsnr" v="797754" />
	</node>
	<node id="-534396" lat="61.4557999975" lon="5.63032777056">
		<tag k="name" v="Ervika" />
		<tag k="natural" v="bay" />
		<tag k="ssr:stedsnr" v="235872" />
	</node>
	<node id="-535395" lat="61.4802861088" lon="5.79444166272">
		<tag k="name" v="Ulltangneset" />
		<tag k="natural" v="cape" />
		<tag k="ssr:stedsnr" v="963881" />
	</node>
	<node id="-534496" lat="61.4982111149" lon="5.77736666769">
		<tag k="name" v="Fureneset" />
		<tag k="natural" v="cape" />
		<tag k="ssr:stedsnr" v="433749" />
	</node>
	<node id="-534495" lat="61.4927416644" lon="5.75208610959">
		<tag k="name" v="Hauganeset" />
		<tag k="natural" v="cape" />
		<tag k="ssr:stedsnr" v="433747" />
	</node>
	<node id="-534494" lat="61.495169447" lon="5.78915833565">
		<tag k="alt_name" v="Kvieneset" />
		<tag k="name" v="Kvineset" />
		<tag k="natural" v="cape" />
		<tag k="ssr:stedsnr" v="433745" />
	</node>
	<node id="-535248" lat="61.4430472242" lon="5.58380555145">
		<tag k="alt_name" v="Mulevika" />
		<tag k="name" v="Mulavika" />
		<tag k="natural" v="bay" />
		<tag k="ssr:stedsnr" v="857842" />
	</node>
	<node id="-534712" lat="61.4851361151" lon="5.76593888168">
		<tag k="name" v="Furevika" />
		<tag k="natural" v="bay" />
		<tag k="ssr:stedsnr" v="554570" />
	</node>
	<node id="-534037" lat="61.4521861076" lon="5.55988055905">
		<tag k="alt_name" v="Nobbeneset, nordre;Nordre Nobbeneset" />
		<tag k="name" v="Nordre Nobbaneset" />
		<tag k="natural" v="cape" />
		<tag k="ssr:stedsnr" v="8671" />
	</node>
	<node id="-534598" lat="61.4405638864" lon="5.53924165932">
		<tag k="name" v="Neset" />
		<tag k="natural" v="cape" />
		<tag k="ssr:stedsnr" v="494512" />
	</node>
	<node id="-534469" lat="61.482658335" lon="5.69264999276">
		<tag k="alt_name" v="Juvika;Juvvika" />
		<tag k="name" v="Djupvika" />
		<tag k="natural" v="bay" />
		<tag k="ssr:stedsnr" v="432694" />
	</node>
	<node id="-534724" lat="61.457641666" lon="5.84816389301">
		<tag k="name" v="Øyrane" />
		<tag k="natural" v="cape" />
		<tag k="ssr:stedsnr" v="573790" />
	</node>
	<node id="-533878" lat="61.4879611136" lon="5.81216389071">
		<tag k="name" v="Erdalsvikane" />
		<tag k="natural" v="bay" />
		<tag k="ssr:stedsnr" v="356692" />
	</node>
	<node id="-535352" lat="61.4907444412" lon="5.71623055488">
		<tag k="name" v="Søreneset" />
		<tag k="natural" v="cape" />
		<tag k="ssr:stedsnr" v="941565" />
	</node>
	<node id="-533813" lat="61.4418083335" lon="5.55894721738">
		<tag k="name" v="Vareneset" />
		<tag k="natural" v="cape" />
		<tag k="ssr:stedsnr" v="334561" />
	</node>
	<node id="-533812" lat="61.4919972248" lon="5.73303333806">
		<tag k="name" v="Stranda" />
		<tag k="natural" v="beach" />
		<tag k="place" v="locality" />
		<tag k="ssr:stedsnr" v="334558" />
	</node>
	<node id="-534238" lat="61.498347219" lon="5.78353610699">
		<tag k="name" v="Furevika" />
		<tag k="natural" v="bay" />
		<tag k="ssr:stedsnr" v="129749" />
	</node>
	<node id="-534451" lat="61.4731388848" lon="5.80725555153">
		<tag k="name" v="Bjørnsneset" />
		<tag k="natural" v="cape" />
		<tag k="ssr:stedsnr" v="417889" />
	</node>
	<node id="-534704" lat="61.4823166661" lon="5.30860000151">
		<tag k="alt_name" v="Sunnfjord" />
		<tag k="bay" v="fjord" />
		<tag k="name" v="Førdefjorden" />
		<tag k="natural" v="bay" />
		<tag k="ssr:stedsnr" v="554047" />
	</node>
	<node id="-534062" lat="61.4538833323" lon="5.58750278533">
		<tag k="name" v="Litleholmen" />
		<tag k="place" v="islet" />
		<tag k="ssr:stedsnr" v="31603" />
	</node>
	<node id="-533789" lat="61.4914055554" lon="5.80320000139">
		<tag k="name" v="Roteneset" />
		<tag k="natural" v="cape" />
		<tag k="ssr:stedsnr" v="311754" />
	</node>
	<node id="-533756" lat="61.4679305547" lon="5.7997111078">
		<tag k="alt_name" v="Kirketeigvik" />
		<tag k="name" v="Kyrkjeteigvika" />
		<tag k="natural" v="bay" />
		<tag k="ssr:stedsnr" v="296848" />
	</node>
	<node id="-533929" lat="61.4527194425" lon="5.5900277737">
		<tag k="name" v="Holmevika" />
		<tag k="natural" v="bay" />
		<tag k="ssr:stedsnr" v="395615" />
	</node>
	<node id="-534440" lat="61.4809527797" lon="5.79568889456">
		<tag k="name" v="Skjeret" />
		<tag k="natural" v="cape" />
		<tag k="ssr:stedsnr" v="251558" />
	</node>
	<node id="-533759" lat="61.4551777801" lon="5.58379166301">
		<tag k="alt_name" v="Storholmen" />
		<tag k="name" v="Storeholmen" />
		<tag k="place" v="islet" />
		<tag k="ssr:stedsnr" v="310637" />
	</node>
	<node id="-533793" lat="61.4929027823" lon="5.72913611954">
		<tag k="name" v="Slåtteskorneset" />
		<tag k="natural" v="cape" />
		<tag k="ssr:stedsnr" v="311786" />
	</node>
	<node id="-534302" lat="61.4605222184" lon="5.81797222761">
		<tag k="name" v="Kvernbergvika" />
		<tag k="natural" v="bay" />
		<tag k="ssr:stedsnr" v="174879" />
	</node>
	<node id="-534301" lat="61.490502781" lon="5.69331944542">
		<tag k="name" v="Høna" />
		<tag k="natural" v="cape" />
		<tag k="ssr:stedsnr" v="174871" />
	</node>
	<node id="-533781" lat="61.46123333" lon="5.64190832816">
		<tag k="name" v="Bjørkedalsneset" />
		<tag k="natural" v="cape" />
		<tag k="ssr:stedsnr" v="311702" />
	</node>
	<node id="-534038" lat="61.4578194484" lon="5.59121944572">
		<tag k="alt_name" v="Barholmen" />
		<tag k="name" v="Bardholmen" />
		<tag k="place" v="islet" />
		<tag k="ssr:stedsnr" v="8674" />
	</node>
	<node id="-534165" lat="61.4585055523" lon="5.82659166999">
		<tag k="name" v="Steinen" />
		<tag k="natural" v="cape" />
		<tag k="ssr:stedsnr" v="88791" />
	</node>
	<node id="-534418" lat="61.4801305577" lon="5.80929999382">
		<tag k="name" v="Smedneset" />
		<tag k="natural" v="cape" />
		<tag k="ssr:stedsnr" v="250668" />
	</node>
	<node id="-534467" lat="61.4815972229" lon="5.79336388545">
		<tag k="alt_name" v="Ulltangvika" />
		<tag k="name" v="Ulltangevika" />
		<tag k="natural" v="bay" />
		<tag k="ssr:stedsnr" v="432648" />
	</node>
	<node id="-535310" lat="61.484880553" lon="5.69355833594">
		<tag k="name" v="Skjeret" />
		<tag k="natural" v="cape" />
		<tag k="ssr:stedsnr" v="917694" />
	</node>
	<node id="-535308" lat="61.4461638312" lon="5.55788000119">
		<tag k="name" v="Søre Nobbaneset" />
		<tag k="natural" v="cape" />
		<tag k="ssr:stedsnr" v="903751" />
	</node>
	<node id="-534919" lat="61.4790277739" lon="5.79685000368">
		<tag k="name" v="Åleneset" />
		<tag k="natural" v="cape" />
		<tag k="ssr:stedsnr" v="698546" />
	</node>
	<node id="-534276" lat="61.4568861154" lon="5.61713888291">
		<tag k="name" v="Gamlestøa" />
		<tag k="natural" v="bay" />
		<tag k="ssr:stedsnr" v="152622" />
	</node>
	<node id="-534274" lat="61.4926305564" lon="5.71400832396">
		<tag k="name" v="Gamlestøa" />
		<tag k="natural" v="bay" />
		<tag k="ssr:stedsnr" v="152602" />
	</node>
</osm>
