<?xml version="1.0" encoding="UTF-8"?>
<osm generator="osmapis" version="0.6">
	<node id="-535040" lat="61.4842833364" lon="5.714519451">
		<tag k="name" v="Geitevad" />
		<tag k="natural" v="water" />
		<tag k="ssr:stedsnr" v="759614" />
		<tag k="water" v="lake" />
	</node>
	<node id="-534016" lat="61.3664194467" lon="6.40816943548">
		<tag k="name" v="Steinbotsvatna" />
		<tag k="natural" v="water" />
		<tag k="ssr:stedsnr" v="7704" />
		<tag k="water" v="lake" />
	</node>
	<node id="-534526" lat="61.4843694461" lon="5.75734722463">
		<tag k="name" v="Furevikelva" />
		<tag k="ssr:stedsnr" v="456619" />
		<tag k="waterway" v="stream" />
	</node>
	<node id="-534023" lat="61.4998166681" lon="5.87710834004">
		<tag k="alt_name" v="Fremste Vasslivatn" />
		<tag k="name" v="Vasslivatnet" />
		<tag k="natural" v="water" />
		<tag k="ssr:stedsnr" v="8292" />
	</node>
	<node id="-534524" lat="61.4822777797" lon="5.7388749959">
		<tag k="name" v="Merkestjørna" />
		<tag k="natural" v="water" />
		<tag k="ssr:stedsnr" v="456614" />
	</node>
	<node id="-534186" lat="61.4078527807" lon="6.37979444598">
		<tag k="name" v="Kvernagrova" />
		<tag k="ssr:stedsnr" v="92797" />
		<tag k="waterway" v="river" />
	</node>
	<node id="-535033" lat="61.4948638845" lon="5.93744721549">
		<tag k="name" v="Øyane" />
		<tag k="natural" v="water" />
		<tag k="ssr:stedsnr" v="758789" />
		<tag k="water" v="lake" />
	</node>
	<node id="-534005" lat="61.4136166635" lon="6.06703055812">
		<tag k="name" v="Husetuftelva" />
		<tag k="ssr:stedsnr" v="7388" />
		<tag k="waterway" v="stream" />
	</node>
	<node id="-534004" lat="61.4507194466" lon="5.85897499213">
		<tag k="name" v="Jølstra" />
		<tag k="ssr:stedsnr" v="7328" />
		<tag k="waterway" v="river" />
	</node>
	<node id="-535026" lat="61.5504407593" lon="6.09983207469">
		<tag k="name" v="Botnavatnet" />
		<tag k="natural" v="water" />
		<tag k="ssr:stedsnr" v="737167" />
	</node>
	<node id="-535024" lat="61.3991166704" lon="6.32433611587">
		<tag k="name" v="Heitjønna" />
		<tag k="natural" v="water" />
		<tag k="ssr:stedsnr" v="736767" />
	</node>
	<node id="-535014" lat="61.4717583373" lon="5.76554444216">
		<tag k="name" v="Slokedalstjørna" />
		<tag k="natural" v="water" />
		<tag k="ssr:stedsnr" v="736656" />
	</node>
	<node id="-534498" lat="61.4209333354" lon="5.7506861096">
		<tag k="name" v="Fisketjørna" />
		<tag k="natural" v="water" />
		<tag k="ssr:stedsnr" v="433807" />
	</node>
	<node id="-535007" lat="61.4323461193" lon="5.78090311751">
		<tag k="alt_name" v="Kalsetvatnet" />
		<tag k="name" v="Kaldsetvatnet" />
		<tag k="natural" v="water" />
		<tag k="ssr:stedsnr" v="736852" />
		<tag k="water" v="lake" />
	</node>
	<node id="-535005" lat="61.4448583327" lon="5.80984445235">
		<tag k="name" v="Sollitjørna" />
		<tag k="natural" v="water" />
		<tag k="ssr:stedsnr" v="736842" />
	</node>
	<node id="-533977" lat="61.5015361155" lon="5.91258611421">
		<tag k="name" v="Tjørnali-tjørna" />
		<tag k="natural" v="water" />
		<tag k="ssr:stedsnr" v="881856" />
	</node>
	<node id="-534158" lat="61.4271166628" lon="6.46705833492">
		<tag k="name" v="Botnaelva" />
		<tag k="ssr:stedsnr" v="69672" />
		<tag k="waterway" v="stream" />
	</node>
	<node id="-534998" lat="61.4065861092" lon="5.87272499341">
		<tag k="name" v="Sandvika" />
		<tag k="natural" v="bay" />
		<tag k="ssr:stedsnr" v="736383" />
	</node>
	<node id="-534997" lat="61.415186108" lon="5.97800277124">
		<tag k="alt_name" v="Gjelelva" />
		<tag k="name" v="Gilelva" />
		<tag k="ssr:stedsnr" v="736363" />
		<tag k="waterway" v="river" />
	</node>
	<node id="-534996" lat="61.4295000033" lon="6.00893055006">
		<tag k="name" v="Oretangen" />
		<tag k="natural" v="cape" />
		<tag k="ssr:stedsnr" v="736362" />
	</node>
	<node id="-534995" lat="61.4306750036" lon="6.12155000612">
		<tag k="name" v="Vikaelva" />
		<tag k="ssr:stedsnr" v="736355" />
		<tag k="waterway" v="stream" />
	</node>
	<node id="-534482" lat="61.4211750041" lon="6.09648610561">
		<tag k="name" v="Holsavatnet" />
		<tag k="natural" v="water" />
		<tag k="ssr:stedsnr" v="433356" />
		<tag k="water" v="lake" />
	</node>
	<node id="-534993" lat="61.4394720239" lon="6.01649161645">
		<tag k="name" v="Flatetjørna" />
		<tag k="natural" v="water" />
		<tag k="ssr:stedsnr" v="736341" />
	</node>
	<node id="-534480" lat="61.4314444405" lon="5.99301943636">
		<tag k="alt_name" v="Huldrefossen" />
		<tag k="name" v="Huldefossen" />
		<tag k="natural" v="waterfall" />
		<tag k="ssr:stedsnr" v="433349" />
	</node>
	<node id="-534990" lat="61.4881111087" lon="6.00790834294">
		<tag k="name" v="Litledalsvatnet" />
		<tag k="natural" v="water" />
		<tag k="ssr:stedsnr" v="736269" />
	</node>
	<node id="-534989" lat="61.3913878222" lon="6.49284449573">
		<tag k="name" v="Norddalsvatnet" />
		<tag k="natural" v="water" />
		<tag k="ssr:stedsnr" v="735729" />
		<tag k="water" v="lake" />
	</node>
	<node id="-534987" lat="61.4875027736" lon="5.7075249928">
		<tag k="name" v="Kråkeneselva" />
		<tag k="ssr:stedsnr" v="735703" />
		<tag k="waterway" v="stream" />
	</node>
	<node id="-534986" lat="61.4596166658" lon="5.68405833886">
		<tag k="name" v="Katemannselva" />
		<tag k="ssr:stedsnr" v="735627" />
		<tag k="waterway" v="stream" />
	</node>
	<node id="-534984" lat="61.4568166675" lon="5.75310555311">
		<tag k="name" v="Svartetjørn" />
		<tag k="natural" v="water" />
		<tag k="ssr:stedsnr" v="735619" />
	</node>
	<node id="-534983" lat="61.3871500036" lon="5.89743054897">
		<tag k="name" v="Øyragrova" />
		<tag k="ssr:stedsnr" v="735407" />
		<tag k="waterway" v="stream" />
	</node>
	<node id="-534980" lat="61.4038499976" lon="6.16790554676">
		<tag k="name" v="Fosselva" />
		<tag k="ssr:stedsnr" v="735401" />
		<tag k="waterway" v="stream" />
	</node>
	<node id="-534978" lat="61.4036638898" lon="6.11079999658">
		<tag k="name" v="Tjørnane" />
		<tag k="natural" v="water" />
		<tag k="ssr:stedsnr" v="735397" />
	</node>
	<node id="-534465" lat="61.4685694408" lon="6.44542222361">
		<tag k="name" v="Andrevatnet" />
		<tag k="natural" v="water" />
		<tag k="ssr:stedsnr" v="432644" />
	</node>
	<node id="-534976" lat="61.4082916685" lon="6.08436111145">
		<tag k="alt_name" v="Nydalselva" />
		<tag k="name" v="Nyddalselva" />
		<tag k="ssr:stedsnr" v="735385" />
		<tag k="waterway" v="river" />
	</node>
	<node id="-534463" lat="61.3744499991" lon="5.94233333578">
		<tag k="fixme" v="multiple name tags, choose one and add the other to alt_name" />
		<tag k="name" v="Hagestølselva;Kvanndalselva" />
		<tag k="ssr:stedsnr" v="432413" />
		<tag k="waterway" v="stream" />
	</node>
	<node id="-534974" lat="61.432886108" lon="6.26748055263">
		<tag k="name" v="Ytrebotsvatna" />
		<tag k="natural" v="water" />
		<tag k="ssr:stedsnr" v="736638" />
		<tag k="water" v="lake" />
	</node>
	<node id="-534459" lat="61.3995000006" lon="5.94170000457">
		<tag k="name" v="Lomsvatnet" />
		<tag k="natural" v="water" />
		<tag k="ssr:stedsnr" v="432376" />
	</node>
	<node id="-533946" lat="61.4081083308" lon="6.34907500809">
		<tag k="name" v="Karstadelva" />
		<tag k="ssr:stedsnr" v="395820" />
		<tag k="waterway" v="river" />
	</node>
	<node id="-534965" lat="61.4071833336" lon="5.8562138802">
		<tag k="name" v="Steinsundet" />
		<tag k="natural" v="strait" />
		<tag k="ssr:stedsnr" v="699967" />
	</node>
	<node id="-534964" lat="61.3871722223" lon="5.85876667248">
		<tag k="name" v="Tverligrova" />
		<tag k="ssr:stedsnr" v="699942" />
		<tag k="waterway" v="stream" />
	</node>
	<node id="-533934" lat="61.4176444416" lon="6.13286389823">
		<tag k="name" v="Oksen" />
		<tag k="place" v="islet" />
		<tag k="ssr:stedsnr" v="395783" />
	</node>
	<node id="-533931" lat="61.3973333305" lon="5.98666110594">
		<tag k="name" v="Løkene" />
		<tag k="natural" v="water" />
		<tag k="ssr:stedsnr" v="395773" />
		<tag k="water" v="lake" />
	</node>
	<node id="-534293" lat="61.4074638921" lon="5.8587305593">
		<tag k="name" v="Storeholmen" />
		<tag k="place" v="islet" />
		<tag k="ssr:stedsnr" v="152963" />
	</node>
	<node id="-534952" lat="61.5293249975" lon="6.05130000576">
		<tag k="name" v="Svidalsgrova" />
		<tag k="ssr:stedsnr" v="699791" />
		<tag k="waterway" v="stream" />
	</node>
	<node id="-534172" lat="61.3927749974" lon="5.9888833275">
		<tag k="name" v="Løkene" />
		<tag k="natural" v="water" />
		<tag k="ssr:stedsnr" v="92746" />
		<tag k="water" v="lake" />
	</node>
	<node id="-534942" lat="61.4114416711" lon="5.86951667401">
		<tag k="name" v="Bøvika" />
		<tag k="natural" v="bay" />
		<tag k="ssr:stedsnr" v="698966" />
	</node>
	<node id="-534341" lat="61.4268083335" lon="5.64878055464">
		<tag k="name" v="Markafossen" />
		<tag k="natural" v="waterfall" />
		<tag k="ssr:stedsnr" v="190860" />
	</node>
	<node id="-534940" lat="61.4215627257" lon="5.88298220677">
		<tag k="name" v="Lomtjørna" />
		<tag k="natural" v="water" />
		<tag k="ssr:stedsnr" v="698929" />
	</node>
	<node id="-533913" lat="61.426347224" lon="5.74595832853">
		<tag k="alt_name" v="Soleimselva" />
		<tag k="name" v="Solheimselva" />
		<tag k="ssr:stedsnr" v="372811" />
		<tag k="waterway" v="river" />
	</node>
	<node id="-533912" lat="61.4190583358" lon="5.65810833949">
		<tag k="name" v="Middagsvatnet" />
		<tag k="natural" v="water" />
		<tag k="ssr:stedsnr" v="372809" />
	</node>
	<node id="-534935" lat="61.4075277775" lon="5.96843333124">
		<tag k="name" v="Vaskarelva" />
		<tag k="ssr:stedsnr" v="698813" />
		<tag k="waterway" v="stream" />
	</node>
	<node id="-533910" lat="61.4297333329" lon="5.828858342">
		<tag k="alt_name" v="Bekkevatnet" />
		<tag k="name" v="Bekkjevatnet" />
		<tag k="natural" v="water" />
		<tag k="old_name" v="Brekkevatnet" />
		<tag k="ssr:stedsnr" v="372800" />
		<tag k="water" v="lake" />
	</node>
	<node id="-534425" lat="61.4947361106" lon="5.80381667302">
		<tag k="alt_name" v="Rotneselva" />
		<tag k="name" v="Roteneselva" />
		<tag k="ssr:stedsnr" v="250728" />
		<tag k="waterway" v="stream" />
	</node>
	<node id="-534420" lat="61.4719972237" lon="5.72330832645">
		<tag k="name" v="Øvrestølselva" />
		<tag k="ssr:stedsnr" v="250680" />
		<tag k="waterway" v="stream" />
	</node>
	<node id="-533907" lat="61.4153249981" lon="6.49569999793">
		<tag k="name" v="Breibotsvatnet" />
		<tag k="natural" v="water" />
		<tag k="ssr:stedsnr" v="372658" />
	</node>
	<node id="-533903" lat="61.4105749988" lon="5.88233334135">
		<tag k="name" v="Litlevatnet" />
		<tag k="natural" v="water" />
		<tag k="ssr:stedsnr" v="372402" />
	</node>
	<node id="-534414" lat="61.4649194465" lon="6.36789999953">
		<tag k="name" v="Skryklingen" />
		<tag k="natural" v="water" />
		<tag k="ssr:stedsnr" v="250647" />
	</node>
	<node id="-534413" lat="61.4372805561" lon="6.31778333419">
		<tag k="name" v="Nes-Isvatnet" />
		<tag k="natural" v="water" />
		<tag k="ssr:stedsnr" v="250637" />
	</node>
	<node id="-534923" lat="61.4767777798" lon="5.93887500398">
		<tag k="name" v="Strandaøyna" />
		<tag k="natural" v="water" />
		<tag k="ssr:stedsnr" v="698734" />
		<tag k="water" v="lake" />
	</node>
	<node id="-534922" lat="61.378577776" lon="6.06874443792">
		<tag k="name" v="Gøyvingelva" />
		<tag k="ssr:stedsnr" v="698735" />
		<tag k="waterway" v="river" />
	</node>
	<node id="-533911" lat="61.4325833342" lon="5.83781667357">
		<tag k="alt_name" v="Havstadlangeneset" />
		<tag k="name" v="Hafstadlangeneset" />
		<tag k="natural" v="cape" />
		<tag k="ssr:stedsnr" v="372801" />
	</node>
	<node id="-533895" lat="61.4388805576" lon="5.56848054879">
		<tag k="name" v="Heilevangselva" />
		<tag k="ssr:stedsnr" v="371872" />
		<tag k="waterway" v="stream" />
	</node>
	<node id="-533894" lat="61.4390583329" lon="5.65399722951">
		<tag k="name" v="Øygardsvatnet" />
		<tag k="natural" v="water" />
		<tag k="ssr:stedsnr" v="371867" />
	</node>
	<node id="-533893" lat="61.4468472193" lon="5.77257499996">
		<tag k="name" v="Stølstjørna" />
		<tag k="natural" v="water" />
		<tag k="ssr:stedsnr" v="371860" />
	</node>
	<node id="-534404" lat="61.3996555555" lon="5.95626110532">
		<tag k="name" v="Dyttingsvatnet" />
		<tag k="natural" v="water" />
		<tag k="ssr:stedsnr" v="250391" />
	</node>
	<node id="-533889" lat="61.4855166662" lon="5.83263054741">
		<tag k="name" v="Erdøla" />
		<tag k="ssr:stedsnr" v="371714" />
		<tag k="waterway" v="stream" />
	</node>
	<node id="-533729" lat="61.5475749997" lon="6.09654167484">
		<tag k="name" v="Djupna" />
		<tag k="natural" v="beach" />
		<tag k="ssr:stedsnr" v="274799" />
	</node>
	<node id="-533885" lat="61.3808277775" lon="5.88385834152">
		<tag k="name" v="Svartetjørna" />
		<tag k="natural" v="water" />
		<tag k="ssr:stedsnr" v="371408" />
	</node>
	<node id="-534908" lat="61.4492777772" lon="5.6492777687">
		<tag k="name" v="Stølselva" />
		<tag k="ssr:stedsnr" v="675866" />
		<tag k="waterway" v="stream" />
	</node>
	<node id="-534389" lat="61.4696083329" lon="5.86426388881">
		<tag k="name" v="Øvre Tverrgrova" />
		<tag k="ssr:stedsnr" v="213994" />
		<tag k="waterway" v="stream" />
	</node>
	<node id="-533822" lat="61.3794972238" lon="6.07856111405">
		<tag k="name" v="Blåfjellselva" />
		<tag k="ssr:stedsnr" v="334733" />
		<tag k="waterway" v="river" />
	</node>
	<node id="-534386" lat="61.4697249976" lon="5.81441111548">
		<tag k="name" v="Kattakråna" />
		<tag k="natural" v="bay" />
		<tag k="ssr:stedsnr" v="213977" />
	</node>
	<node id="-534897" lat="61.4854722224" lon="5.72660833545">
		<tag k="alt_name" v="Dormålsltjørna" />
		<tag k="name" v="Daurmålstjørna" />
		<tag k="natural" v="water" />
		<tag k="ssr:stedsnr" v="675726" />
	</node>
	<node id="-534384" lat="61.4177138919" lon="5.85324999447">
		<tag k="name" v="Mørkevika" />
		<tag k="natural" v="bay" />
		<tag k="ssr:stedsnr" v="213963" />
	</node>
	<node id="-533869" lat="61.3739750007" lon="5.91959721652">
		<tag k="name" v="Fuglegapet" />
		<tag k="natural" v="cape" />
		<tag k="ssr:stedsnr" v="334942" />
	</node>
	<node id="-534379" lat="61.4281861073" lon="5.92454166088">
		<tag k="name" v="Kviegrova" />
		<tag k="ssr:stedsnr" v="213920" />
		<tag k="waterway" v="stream" />
	</node>
	<node id="-534890" lat="61.3797805554" lon="6.0165111123">
		<tag k="name" v="Litlevatnet" />
		<tag k="natural" v="water" />
		<tag k="ssr:stedsnr" v="675439" />
	</node>
	<node id="-534889" lat="61.397586112" lon="6.15443889669">
		<tag k="name" v="Litlevatnet" />
		<tag k="natural" v="water" />
		<tag k="ssr:stedsnr" v="675436" />
	</node>
	<node id="-534376" lat="61.4320638932" lon="6.0446638884">
		<tag k="name" v="Stroka" />
		<tag k="ssr:stedsnr" v="213872" />
		<tag k="waterway" v="river" />
	</node>
	<node id="-534372" lat="61.4271611122" lon="5.94998611754">
		<tag k="name" v="Korsnesodden" />
		<tag k="natural" v="cape" />
		<tag k="ssr:stedsnr" v="213856" />
	</node>
	<node id="-534502" lat="61.4284388902" lon="5.76817500176">
		<tag k="name" v="Langeloka" />
		<tag k="natural" v="water" />
		<tag k="ssr:stedsnr" v="433842" />
	</node>
	<node id="-534370" lat="61.4430777757" lon="6.51393611864">
		<tag k="name" v="Skålebotnselva" />
		<tag k="ssr:stedsnr" v="213849" />
		<tag k="waterway" v="river" />
	</node>
	<node id="-534368" lat="61.4137805551" lon="6.39927500249">
		<tag k="name" v="Gardafossen" />
		<tag k="natural" v="waterfall" />
		<tag k="ssr:stedsnr" v="213843" />
	</node>
	<node id="-534049" lat="61.438783331" lon="5.80664166806">
		<tag k="name" v="Prestestølselva" />
		<tag k="ssr:stedsnr" v="8854" />
		<tag k="waterway" v="stream" />
	</node>
	<node id="-534877" lat="61.4815805518" lon="5.84586111551">
		<tag k="name" v="Dyregrova" />
		<tag k="ssr:stedsnr" v="637994" />
		<tag k="waterway" v="stream" />
	</node>
	<node id="-535387" lat="61.371461109" lon="5.91836944232">
		<tag k="name" v="Øyeelva" />
		<tag k="ssr:stedsnr" v="941938" />
		<tag k="waterway" v="river" />
	</node>
	<node id="-535386" lat="61.4040833291" lon="5.85975278385">
		<tag k="name" v="Skjerholmane" />
		<tag k="place" v="islet" />
		<tag k="ssr:stedsnr" v="941937" />
	</node>
	<node id="-535385" lat="61.4091611143" lon="5.89024443521">
		<tag k="name" v="Dyttingelva" />
		<tag k="ssr:stedsnr" v="941928" />
		<tag k="waterway" v="stream" />
	</node>
	<node id="-533848" lat="61.413575001" lon="6.36459445056">
		<tag k="name" v="Osen" />
		<tag k="natural" v="bay" />
		<tag k="ssr:stedsnr" v="334807" />
	</node>
	<node id="-535381" lat="61.4552138904" lon="5.87990555069">
		<tag k="name" v="Prestholmen" />
		<tag k="place" v="islet" />
		<tag k="ssr:stedsnr" v="941897" />
	</node>
	<node id="-534580" lat="61.4029250005" lon="6.03857499173">
		<tag k="name" v="Litlevatnet" />
		<tag k="natural" v="water" />
		<tag k="ssr:stedsnr" v="493392" />
	</node>
	<node id="-534239" lat="61.4033527742" lon="6.26359999376">
		<tag k="name" v="Haukedalsvatnet" />
		<tag k="natural" v="water" />
		<tag k="ssr:stedsnr" v="129750" />
		<tag k="water" v="lake" />
	</node>
	<node id="-534864" lat="61.4630805583" lon="5.91388610175">
		<tag k="name" v="Høgefossen" />
		<tag k="natural" v="waterfall" />
		<tag k="ssr:stedsnr" v="637892" />
	</node>
	<node id="-533838" lat="61.3920944452" lon="6.15790834031">
		<tag k="name" v="Mysedalstjørna" />
		<tag k="natural" v="water" />
		<tag k="ssr:stedsnr" v="334784" />
	</node>
	<node id="-534607" lat="61.4346999964" lon="5.64554166245">
		<tag k="name" v="Sandvika" />
		<tag k="natural" v="bay" />
		<tag k="ssr:stedsnr" v="516586" />
	</node>
	<node id="-535372" lat="61.5189527817" lon="5.94630833536">
		<tag k="name" v="Dyttinga" />
		<tag k="natural" v="water" />
		<tag k="ssr:stedsnr" v="941823" />
		<tag k="water" v="lake" />
	</node>
	<node id="-533835" lat="61.4976777816" lon="5.97734445277">
		<tag k="name" v="Langestrekkja" />
		<tag k="ssr:stedsnr" v="334780" />
		<tag k="waterway" v="stream" />
	</node>
	<node id="-534071" lat="61.4014916691" lon="6.06946666772">
		<tag k="name" v="Øyna" />
		<tag k="natural" v="water" />
		<tag k="ssr:stedsnr" v="31760" />
		<tag k="water" v="lake" />
	</node>
	<node id="-534344" lat="61.5641277801" lon="6.1254611059">
		<tag k="name" v="Tjørnene" />
		<tag k="natural" v="water" />
		<tag k="ssr:stedsnr" v="191155" />
	</node>
	<node id="-533831" lat="61.409424999" lon="6.28904166823">
		<tag k="name" v="Skjeret" />
		<tag k="place" v="islet" />
		<tag k="ssr:stedsnr" v="334769" />
	</node>
	<node id="-534753" lat="61.4451749996" lon="6.50522500681">
		<tag k="name" v="Øyra" />
		<tag k="natural" v="water" />
		<tag k="ssr:stedsnr" v="577847" />
		<tag k="water" v="lake" />
	</node>
	<node id="-535364" lat="61.5017805593" lon="5.97989721326">
		<tag k="name" v="Nordrereinene" />
		<tag k="natural" v="water" />
		<tag k="ssr:stedsnr" v="941792" />
		<tag k="water" v="lake" />
	</node>
	<node id="-535362" lat="61.4038944435" lon="6.23682500829">
		<tag k="name" v="Rørvikelva" />
		<tag k="ssr:stedsnr" v="941778" />
		<tag k="waterway" v="river" />
	</node>
	<node id="-534337" lat="61.3931472234" lon="6.33734166166">
		<tag k="name" v="Tjønna" />
		<tag k="natural" v="water" />
		<tag k="ssr:stedsnr" v="190764" />
	</node>
	<node id="-533824" lat="61.4841472213" lon="5.98226110645">
		<tag k="name" v="Geitafossen" />
		<tag k="ssr:stedsnr" v="334741" />
		<tag k="waterway" v="stream" />
	</node>
	<node id="-534335" lat="61.46269167" lon="6.49553888674">
		<tag k="alt_name" v="Breelvane" />
		<tag k="name" v="Breelva" />
		<tag k="ssr:stedsnr" v="190689" />
		<tag k="waterway" v="river" />
	</node>
	<node id="-534846" lat="61.4335861071" lon="6.39504445118">
		<tag k="name" v="Gjerlandselva" />
		<tag k="ssr:stedsnr" v="637787" />
		<tag k="waterway" v="river" />
	</node>
	<node id="-534845" lat="61.409533332" lon="6.26255277896">
		<tag k="name" v="Øyraelva" />
		<tag k="ssr:stedsnr" v="637781" />
		<tag k="waterway" v="river" />
	</node>
	<node id="-534844" lat="61.4115194422" lon="6.25788055875">
		<tag k="name" v="Blåsvagrova" />
		<tag k="ssr:stedsnr" v="637780" />
		<tag k="waterway" v="stream" />
	</node>
	<node id="-534331" lat="61.4462411136" lon="6.47896523448">
		<tag k="name" v="Grøningsstølsvatnet" />
		<tag k="natural" v="water" />
		<tag k="ssr:stedsnr" v="190655" />
		<tag k="water" v="lake" />
	</node>
	<node id="-533818" lat="61.4759916643" lon="5.70836110788">
		<tag k="name" v="Sagligrova" />
		<tag k="ssr:stedsnr" v="334606" />
		<tag k="waterway" v="stream" />
	</node>
	<node id="-534329" lat="61.4096055531" lon="5.86434167444">
		<tag k="name" v="Langeneset" />
		<tag k="natural" v="cape" />
		<tag k="ssr:stedsnr" v="190553" />
	</node>
	<node id="-534328" lat="61.3775638918" lon="5.90223333403">
		<tag k="name" v="Kvanndalselva" />
		<tag k="ssr:stedsnr" v="190445" />
		<tag k="waterway" v="stream" />
	</node>
	<node id="-534327" lat="61.3981916696" lon="6.05088333513">
		<tag k="name" v="Fossavatnet" />
		<tag k="natural" v="water" />
		<tag k="ssr:stedsnr" v="190434" />
	</node>
	<node id="-534326" lat="61.4237777746" lon="6.11925833246">
		<tag k="name" v="Sandvikodden" />
		<tag k="natural" v="cape" />
		<tag k="ssr:stedsnr" v="190396" />
	</node>
	<node id="-535348" lat="61.5001000035" lon="5.89271944997">
		<tag k="alt_name" v="Inste Vasslivatn" />
		<tag k="name" v="Vasslivatna" />
		<tag k="natural" v="water" />
		<tag k="ssr:stedsnr" v="920138" />
	</node>
	<node id="-534832" lat="61.5536972243" lon="6.13013611329">
		<tag k="name" v="Kvitefossen" />
		<tag k="natural" v="waterfall" />
		<tag k="ssr:stedsnr" v="616158" />
	</node>
	<node id="-535342" lat="61.4353277742" lon="5.78584999782">
		<tag k="name" v="Stølselva" />
		<tag k="ssr:stedsnr" v="918873" />
		<tag k="waterway" v="stream" />
	</node>
	<node id="-534340" lat="61.4784861088" lon="6.62367221741">
		<tag k="name" v="Femtevatnet" />
		<tag k="natural" v="water" />
		<tag k="ssr:stedsnr" v="190851" />
		<tag k="water" v="lake" />
	</node>
	<node id="-534828" lat="61.4438694473" lon="6.51731111033">
		<tag k="name" v="Gaula" />
		<tag k="ssr:stedsnr" v="615484" />
		<tag k="waterway" v="river" />
	</node>
	<node id="-534314" lat="61.4014611128" lon="5.85953333464">
		<tag k="name" v="Lona" />
		<tag k="natural" v="bay" />
		<tag k="ssr:stedsnr" v="189997" />
	</node>
	<node id="-535337" lat="61.4026685893" lon="6.48474185071">
		<tag k="name" v="Kvanngrøvatnet" />
		<tag k="natural" v="water" />
		<tag k="ssr:stedsnr" v="918796" />
	</node>
	<node id="-534312" lat="61.4461666658" lon="5.62377500279">
		<tag k="name" v="Langetjørna" />
		<tag k="natural" v="water" />
		<tag k="ssr:stedsnr" v="189844" />
	</node>
	<node id="-535335" lat="61.4774416701" lon="5.75935554761">
		<tag k="alt_name" v="Slåtteelva" />
		<tag k="name" v="Slåttelva" />
		<tag k="ssr:stedsnr" v="918749" />
		<tag k="waterway" v="stream" />
	</node>
	<node id="-533798" lat="61.4461555542" lon="5.83386943827">
		<tag k="alt_name" v="Sageelva;Halbrendselva;Hallbrendselva" />
		<tag k="name" v="Sagelva" />
		<tag k="ssr:stedsnr" v="311886" />
		<tag k="waterway" v="stream" />
	</node>
	<node id="-535332" lat="61.4238333326" lon="6.26403611428">
		<tag k="name" v="Hårklauelva" />
		<tag k="ssr:stedsnr" v="918705" />
		<tag k="waterway" v="stream" />
	</node>
	<node id="-535331" lat="61.4481249984" lon="6.35182776863">
		<tag k="alt_name" v="Jørva" />
		<tag k="name" v="Gyrva" />
		<tag k="ssr:stedsnr" v="918700" />
		<tag k="waterway" v="stream" />
	</node>
	<node id="-534306" lat="61.4157749965" lon="6.12974444989">
		<tag k="name" v="Driva" />
		<tag k="ssr:stedsnr" v="189372" />
		<tag k="waterway" v="stream" />
	</node>
	<node id="-533794" lat="61.4436305542" lon="5.7356361051">
		<tag k="name" v="Flotevotna" />
		<tag k="natural" v="water" />
		<tag k="ssr:stedsnr" v="311844" />
	</node>
	<node id="-534812" lat="61.4505083334" lon="6.55356111083">
		<tag k="name" v="Mevatnet" />
		<tag k="natural" v="water" />
		<tag k="ssr:stedsnr" v="614664" />
	</node>
	<node id="-535322" lat="61.430925004" lon="6.13637499952">
		<tag k="name" v="Sagelva" />
		<tag k="ssr:stedsnr" v="918419" />
		<tag k="waterway" v="stream" />
	</node>
	<node id="-533785" lat="61.478833338" lon="5.77974722985">
		<tag k="alt_name" v="Ulltangstjørna" />
		<tag k="name" v="Ulltangetjørna" />
		<tag k="natural" v="water" />
		<tag k="ssr:stedsnr" v="311733" />
	</node>
	<node id="-535320" lat="61.4245833356" lon="5.85259999617">
		<tag k="alt_name" v="Hunsrasta" />
		<tag k="name" v="Hundsrasta" />
		<tag k="ssr:stedsnr" v="918398" />
		<tag k="waterway" v="stream" />
	</node>
	<node id="-533892" lat="61.4479333369" lon="5.7672250003">
		<tag k="alt_name" v="Stølsvatnet, s" />
		<tag k="fixme" v="multiple name tags, choose one and add the other to alt_name" />
		<tag k="name" v="Gravdalsvatnet;Søre Stølsvatnet" />
		<tag k="natural" v="water" />
		<tag k="ssr:stedsnr" v="371859" />
	</node>
	<node id="-534489" lat="61.4706472241" lon="5.74003889221">
		<tag k="name" v="Høgelivatnet" />
		<tag k="natural" v="water" />
		<tag k="ssr:stedsnr" v="433636" />
	</node>
	<node id="-535316" lat="61.4650555546" lon="5.94751389225">
		<tag k="alt_name" v="Gjelgrova" />
		<tag k="name" v="Gilgrova" />
		<tag k="ssr:stedsnr" v="918347" />
		<tag k="waterway" v="stream" />
	</node>
	<node id="-534830" lat="61.515780552" lon="6.00279443847">
		<tag k="name" v="Øyane" />
		<tag k="place" v="islet" />
		<tag k="ssr:stedsnr" v="616139" />
	</node>
	<node id="-534290" lat="61.4030972223" lon="5.89199165832">
		<tag k="name" v="Tverrgrova" />
		<tag k="ssr:stedsnr" v="152939" />
		<tag k="waterway" v="stream" />
	</node>
	<node id="-533777" lat="61.4531694415" lon="6.58390277886">
		<tag k="fixme" v="multiple name tags, choose one and add the other to alt_name" />
		<tag k="name" v="Hestebotsvatnet;Tredjevatnet" />
		<tag k="natural" v="water" />
		<tag k="ssr:stedsnr" v="311687" />
		<tag k="water" v="lake" />
	</node>
	<node id="-533981" lat="61.4946027751" lon="5.84453332944">
		<tag k="name" v="Fossaelva" />
		<tag k="ssr:stedsnr" v="881871" />
		<tag k="waterway" v="river" />
	</node>
	<node id="-534797" lat="61.4194527761" lon="6.0128749947">
		<tag k="name" v="Stølselva" />
		<tag k="ssr:stedsnr" v="614374" />
		<tag k="waterway" v="stream" />
	</node>
	<node id="-533772" lat="61.372641668" lon="5.92445833469">
		<tag k="name" v="Kvanndalsvatnet" />
		<tag k="natural" v="water" />
		<tag k="ssr:stedsnr" v="311482" />
	</node>
	<node id="-533771" lat="61.3865749974" lon="5.97741111694">
		<tag k="name" v="Annegrova" />
		<tag k="ssr:stedsnr" v="311464" />
		<tag k="waterway" v="river" />
	</node>
	<node id="-534282" lat="61.4633444472" lon="5.96896943876">
		<tag k="name" v="Lonene" />
		<tag k="natural" v="water" />
		<tag k="ssr:stedsnr" v="152788" />
		<tag k="water" v="lake" />
	</node>
	<node id="-534792" lat="61.4385833353" lon="6.03348332629">
		<tag k="name" v="Bulingstjørna" />
		<tag k="natural" v="water" />
		<tag k="ssr:stedsnr" v="614349" />
	</node>
	<node id="-534791" lat="61.4351583341" lon="6.07015000433">
		<tag k="name" v="Viskedalselva" />
		<tag k="ssr:stedsnr" v="614347" />
		<tag k="waterway" v="stream" />
	</node>
	<node id="-534790" lat="61.4364999978" lon="6.13823055973">
		<tag k="name" v="Stølverlivatnet" />
		<tag k="natural" v="water" />
		<tag k="ssr:stedsnr" v="614346" />
	</node>
	<node id="-534789" lat="61.4262805559" lon="5.9488111084">
		<tag k="name" v="Revsneset" />
		<tag k="natural" v="cape" />
		<tag k="ssr:stedsnr" v="614341" />
	</node>
	<node id="-533763" lat="61.4216500031" lon="5.90603611686">
		<tag k="name" v="Kolltjørna" />
		<tag k="natural" v="water" />
		<tag k="ssr:stedsnr" v="311421" />
	</node>
	<node id="-534272" lat="61.4501944486" lon="6.47677222196">
		<tag k="name" v="Stranda" />
		<tag k="natural" v="beach" />
		<tag k="ssr:stedsnr" v="152859" />
	</node>
	<node id="-534263" lat="61.4120416696" lon="6.35710833668">
		<tag k="name" v="Vindneset" />
		<tag k="natural" v="cape" />
		<tag k="ssr:stedsnr" v="152824" />
	</node>
	<node id="-534260" lat="61.4028250033" lon="6.16247221583">
		<tag k="name" v="Brunevad" />
		<tag k="natural" v="water" />
		<tag k="ssr:stedsnr" v="152803" />
		<tag k="water" v="lake" />
	</node>
	<node id="-534483" lat="61.4226805521" lon="6.12787778361">
		<tag k="name" v="Fureneset" />
		<tag k="natural" v="cape" />
		<tag k="ssr:stedsnr" v="433541" />
	</node>
	<node id="-534256" lat="61.5067055529" lon="5.9581361101">
		<tag k="name" v="Grøvla" />
		<tag k="ssr:stedsnr" v="131152" />
		<tag k="waterway" v="stream" />
	</node>
	<node id="-533800" lat="61.4438694473" lon="6.51731111033">
		<tag k="name" v="Gaula" />
		<tag k="ssr:stedsnr" v="312515" />
		<tag k="waterway" v="river" />
	</node>
	<node id="-534254" lat="61.4650472192" lon="6.60509722872">
		<tag k="name" v="Fjerdevatnet" />
		<tag k="natural" v="water" />
		<tag k="ssr:stedsnr" v="129839" />
	</node>
	<node id="-534048" lat="61.4287805572" lon="5.68556389062">
		<tag k="name" v="Lonafossen" />
		<tag k="natural" v="waterfall" />
		<tag k="ssr:stedsnr" v="8844" />
	</node>
	<node id="-534249" lat="61.4216888882" lon="5.81647222234">
		<tag k="name" v="Timbrevika" />
		<tag k="natural" v="bay" />
		<tag k="ssr:stedsnr" v="129796" />
	</node>
	<node id="-534248" lat="61.4337972239" lon="5.56476111434">
		<tag k="name" v="Storevatnet" />
		<tag k="natural" v="water" />
		<tag k="ssr:stedsnr" v="129871" />
	</node>
	<node id="-533884" lat="61.3787000015" lon="5.87856110165">
		<tag k="alt_name" v="Brendeskarselva" />
		<tag k="name" v="Brendeskardelva" />
		<tag k="ssr:stedsnr" v="371407" />
		<tag k="waterway" v="stream" />
	</node>
	<node id="-533733" lat="61.4325416678" lon="6.05883054863">
		<tag k="name" v="Litleholmen" />
		<tag k="place" v="islet" />
		<tag k="ssr:stedsnr" v="274825" />
	</node>
	<node id="-534244" lat="61.4434888884" lon="6.23741389735">
		<tag k="name" v="Krokavatnet" />
		<tag k="natural" v="water" />
		<tag k="ssr:stedsnr" v="129671" />
	</node>
	<node id="-533731" lat="61.4426027776" lon="5.96531666064">
		<tag k="name" v="Gjelgrova" />
		<tag k="ssr:stedsnr" v="274813" />
		<tag k="waterway" v="stream" />
	</node>
	<node id="-534242" lat="61.4650916643" lon="6.40404721737">
		<tag k="alt_name" v="Tjørna" />
		<tag k="name" v="Tverrgrovvatnet" />
		<tag k="natural" v="water" />
		<tag k="ssr:stedsnr" v="129660" />
	</node>
	<node id="-535265" lat="61.4331166708" lon="5.75253332455">
		<tag k="alt_name" v="Soleimsstølsvatnet" />
		<tag k="name" v="Solheimsstølsvatnet" />
		<tag k="natural" v="water" />
		<tag k="ssr:stedsnr" v="858858" />
	</node>
	<node id="-535264" lat="61.4242444486" lon="5.63549444078">
		<tag k="name" v="Rimmavatnet" />
		<tag k="natural" v="water" />
		<tag k="ssr:stedsnr" v="858812" />
	</node>
	<node id="-535263" lat="61.3992944428" lon="6.35823332995">
		<tag k="alt_name" v="Nykkjevatna" />
		<tag k="fixme" v="multiple name tags, choose one and add the other to alt_name" />
		<tag k="name" v="Årskogstølsvatnet;Nykkjevatnet" />
		<tag k="natural" v="water" />
		<tag k="ssr:stedsnr" v="858771" />
	</node>
	<node id="-534749" lat="61.4141250018" lon="6.39439167555">
		<tag k="name" v="Bukkeholmen" />
		<tag k="natural" v="water" />
		<tag k="ssr:stedsnr" v="577842" />
		<tag k="water" v="lake" />
	</node>
	<node id="-535258" lat="61.4173666691" lon="6.44854165935">
		<tag k="name" v="Sygneelva" />
		<tag k="ssr:stedsnr" v="858649" />
		<tag k="waterway" v="stream" />
	</node>
	<node id="-535257" lat="61.4085166663" lon="6.38673054826">
		<tag k="name" v="Tverrelva" />
		<tag k="ssr:stedsnr" v="858542" />
		<tag k="waterway" v="stream" />
	</node>
	<node id="-534232" lat="61.4298111155" lon="6.05363610364">
		<tag k="alt_name" v="Vettreiene" />
		<tag k="name" v="Vetreidene" />
		<tag k="natural" v="strait" />
		<tag k="ssr:stedsnr" v="129374" />
	</node>
	<node id="-533796" lat="61.4427333315" lon="5.82839999936">
		<tag k="alt_name" v="Halbrendsfossen" />
		<tag k="name" v="Hallbrendsfossen" />
		<tag k="natural" v="waterfall" />
		<tag k="ssr:stedsnr" v="311852" />
	</node>
	<node id="-533716" lat="61.4030888929" lon="6.30795278302">
		<tag k="name" v="Halvrø" />
		<tag k="natural" v="beach" />
		<tag k="ssr:stedsnr" v="274760" />
	</node>
	<node id="-534227" lat="61.4390577092" lon="5.97043689333">
		<tag k="name" v="Movika" />
		<tag k="natural" v="bay" />
		<tag k="ssr:stedsnr" v="129335" />
	</node>
	<node id="-535247" lat="61.4332095673" lon="5.66104367385">
		<tag k="name" v="Karstadvatnet" />
		<tag k="natural" v="water" />
		<tag k="ssr:stedsnr" v="857830" />
		<tag k="water" v="lake" />
	</node>
	<node id="-533709" lat="61.4371416702" lon="5.65204722306">
		<tag k="name" v="Sommarvika" />
		<tag k="natural" v="bay" />
		<tag k="ssr:stedsnr" v="274587" />
	</node>
	<node id="-534220" lat="61.4926500008" lon="5.94261110288">
		<tag k="alt_name" v="Flora;Fora" />
		<tag k="name" v="Fura" />
		<tag k="ssr:stedsnr" v="129271" />
		<tag k="waterway" v="river" />
	</node>
	<node id="-534818" lat="61.4517666644" lon="6.40902222963">
		<tag k="name" v="Tverrgrova" />
		<tag k="ssr:stedsnr" v="614695" />
		<tag k="waterway" v="stream" />
	</node>
	<node id="-534728" lat="61.5038305547" lon="5.98353055315">
		<tag k="name" v="Litleøyna" />
		<tag k="natural" v="water" />
		<tag k="ssr:stedsnr" v="576817" />
		<tag k="water" v="lake" />
	</node>
	<node id="-535244" lat="61.4312749958" lon="5.58766111518">
		<tag k="name" v="Litlevatnet" />
		<tag k="natural" v="water" />
		<tag k="ssr:stedsnr" v="857820" />
	</node>
	<node id="-535237" lat="61.4521750017" lon="6.29867222821">
		<tag k="name" v="Gjerlands-Isvatnet" />
		<tag k="natural" v="water" />
		<tag k="ssr:stedsnr" v="857661" />
		<tag k="water" v="lake" />
	</node>
	<node id="-535235" lat="61.4741166701" lon="6.44902500639">
		<tag k="name" v="Tredjevatnet" />
		<tag k="natural" v="water" />
		<tag k="ssr:stedsnr" v="857652" />
	</node>
	<node id="-535233" lat="61.4287527736" lon="6.2979611137">
		<tag k="name" v="Vardevatnet" />
		<tag k="natural" v="water" />
		<tag k="ssr:stedsnr" v="857646" />
	</node>
	<node id="-534754" lat="61.4429722241" lon="6.46884443975">
		<tag k="name" v="Sandvika" />
		<tag k="natural" v="bay" />
		<tag k="ssr:stedsnr" v="577853" />
	</node>
	<node id="-534719" lat="61.5116194477" lon="5.99997221763">
		<tag k="name" v="Skogstadtjørna" />
		<tag k="natural" v="water" />
		<tag k="ssr:stedsnr" v="555110" />
	</node>
	<node id="-535228" lat="61.455863892" lon="5.68631389719">
		<tag k="name" v="Trongaelva" />
		<tag k="ssr:stedsnr" v="857628" />
		<tag k="waterway" v="stream" />
	</node>
	<node id="-534474" lat="61.4490861103" lon="5.76134443701">
		<tag k="alt_name" v="Stølsvatnet, nordre" />
		<tag k="name" v="Nordre Stølsvatnet" />
		<tag k="natural" v="water" />
		<tag k="ssr:stedsnr" v="432866" />
	</node>
	<node id="-534201" lat="61.4705583332" lon="5.90769166909">
		<tag k="name" v="Gryta" />
		<tag k="ssr:stedsnr" v="92973" />
		<tag k="waterway" v="stream" />
	</node>
	<node id="-535224" lat="61.4248877949" lon="6.02723967793">
		<tag k="name" v="Kyraneset" />
		<tag k="natural" v="cape" />
		<tag k="ssr:stedsnr" v="857405" />
	</node>
	<node id="-534710" lat="61.4244027785" lon="6.15835278578">
		<tag k="name" v="Utigardselva" />
		<tag k="ssr:stedsnr" v="554399" />
		<tag k="waterway" v="stream" />
	</node>
	<node id="-535221" lat="61.4447249968" lon="6.13102499354">
		<tag k="name" v="Litlevatnet" />
		<tag k="natural" v="water" />
		<tag k="ssr:stedsnr" v="857373" />
	</node>
	<node id="-534194" lat="61.4354972263" lon="6.05401667526">
		<tag k="name" v="Viskedalsvika" />
		<tag k="natural" v="bay" />
		<tag k="ssr:stedsnr" v="92834" />
	</node>
	<node id="-535217" lat="61.4552500015" lon="5.96891666552">
		<tag k="name" v="Krokevatnet" />
		<tag k="natural" v="water" />
		<tag k="ssr:stedsnr" v="857341" />
	</node>
	<node id="-534041" lat="61.474711109" lon="5.75257500345">
		<tag k="name" v="Elvakrokane" />
		<tag k="place" v="locality" />
		<tag k="ssr:stedsnr" v="8729" />
	</node>
	<node id="-534698" lat="61.4304555516" lon="5.63864166269">
		<tag k="name" v="Markavatnet" />
		<tag k="natural" v="water" />
		<tag k="ssr:stedsnr" v="553842" />
	</node>
	<node id="-534727" lat="61.4913833307" lon="5.94507499351">
		<tag k="name" v="Høgefossen" />
		<tag k="natural" v="waterfall" />
		<tag k="ssr:stedsnr" v="576811" />
	</node>
	<node id="-534696" lat="61.430302781" lon="5.6754027816">
		<tag k="name" v="Lonaelva" />
		<tag k="ssr:stedsnr" v="553834" />
		<tag k="waterway" v="stream" />
	</node>
	<node id="-533788" lat="61.3429222194" lon="6.41009445349">
		<tag k="name" v="Tverrlielva" />
		<tag k="ssr:stedsnr" v="311747" />
		<tag k="waterway" v="stream" />
	</node>
	<node id="-534179" lat="61.3996000039" lon="6.24643610687">
		<tag k="name" v="Rørvikneset" />
		<tag k="natural" v="cape" />
		<tag k="ssr:stedsnr" v="92767" />
	</node>
	<node id="-535201" lat="61.4166388909" lon="5.85805000757">
		<tag k="name" v="Kyraneset" />
		<tag k="natural" v="cape" />
		<tag k="ssr:stedsnr" v="820970" />
	</node>
	<node id="-533990" lat="61.3942305583" lon="5.86642777383">
		<tag k="name" v="Resgrova" />
		<tag k="ssr:stedsnr" v="881930" />
		<tag k="waterway" v="stream" />
	</node>
	<node id="-534685" lat="61.4342499957" lon="6.36669722427">
		<tag k="fixme" v="multiple name tags, choose one and add the other to alt_name" />
		<tag k="name" v="Isaelva;Norddalselva" />
		<tag k="ssr:stedsnr" v="553652" />
		<tag k="waterway" v="river" />
	</node>
	<node id="-535196" lat="61.4197111115" lon="5.87210834246">
		<tag k="name" v="Storevika" />
		<tag k="natural" v="bay" />
		<tag k="ssr:stedsnr" v="820949" />
	</node>
	<node id="-535195" lat="61.397863886" lon="5.8550333329">
		<tag k="name" v="Merkegrova" />
		<tag k="ssr:stedsnr" v="820946" />
		<tag k="waterway" v="stream" />
	</node>
	<node id="-534682" lat="61.3954000041" lon="5.95026943946">
		<tag k="name" v="Hestelitjørna" />
		<tag k="natural" v="water" />
		<tag k="ssr:stedsnr" v="553401" />
	</node>
	<node id="-535193" lat="61.4375611143" lon="5.88693056284">
		<tag k="name" v="Mellomgrova" />
		<tag k="ssr:stedsnr" v="820922" />
		<tag k="waterway" v="stream" />
	</node>
	<node id="-534680" lat="61.435530552" lon="6.13295556429">
		<tag k="name" v="Lambevatnet" />
		<tag k="natural" v="water" />
		<tag k="ssr:stedsnr" v="553358" />
	</node>
	<node id="-535191" lat="61.4999527818" lon="5.8828916753">
		<tag k="name" v="Vasslielva" />
		<tag k="ssr:stedsnr" v="820877" />
		<tag k="waterway" v="river" />
	</node>
	<node id="-534677" lat="61.4463249973" lon="6.12151110985">
		<tag k="name" v="Fossavatnet" />
		<tag k="natural" v="water" />
		<tag k="ssr:stedsnr" v="553327" />
	</node>
	<node id="-535188" lat="61.4260166638" lon="6.0612138954">
		<tag k="name" v="Staveneset" />
		<tag k="natural" v="cape" />
		<tag k="ssr:stedsnr" v="820862" />
	</node>
	<node id="-535186" lat="61.4274083353" lon="6.06943332835">
		<tag k="name" v="Kattavika" />
		<tag k="natural" v="bay" />
		<tag k="ssr:stedsnr" v="820860" />
	</node>
	<node id="-535183" lat="61.4529222256" lon="6.47645833641">
		<tag k="name" v="Strandselva" />
		<tag k="ssr:stedsnr" v="820832" />
		<tag k="waterway" v="river" />
	</node>
	<node id="-535182" lat="61.4333277774" lon="5.93386388552">
		<tag k="name" v="Dalebukta" />
		<tag k="natural" v="bay" />
		<tag k="ssr:stedsnr" v="820831" />
	</node>
	<node id="-534156" lat="61.3977277818" lon="5.86821110265">
		<tag k="name" v="Kvanndalselva" />
		<tag k="ssr:stedsnr" v="69603" />
		<tag k="waterway" v="river" />
	</node>
	<node id="-534155" lat="61.409102777" lon="5.85843055352">
		<tag k="alt_name" v="Digernesvatnet" />
		<tag k="name" v="Digrenesvatnet" />
		<tag k="natural" v="water" />
		<tag k="ssr:stedsnr" v="69400" />
		<tag k="water" v="lake" />
	</node>
	<node id="-534215" lat="61.4572111097" lon="5.65807778497">
		<tag k="alt_name" v="Fauskeelva" />
		<tag k="name" v="Fauskelva" />
		<tag k="ssr:stedsnr" v="128619" />
		<tag k="waterway" v="stream" />
	</node>
	<node id="-534663" lat="61.4120555545" lon="5.85667500113">
		<tag k="name" v="Viseholmen" />
		<tag k="place" v="islet" />
		<tag k="ssr:stedsnr" v="516961" />
	</node>
	<node id="-534662" lat="61.4201805534" lon="5.8678555538">
		<tag k="name" v="Osen" />
		<tag k="natural" v="bay" />
		<tag k="ssr:stedsnr" v="516959" />
	</node>
	<node id="-534149" lat="61.471125004" lon="5.96851944624">
		<tag k="fixme" v="multiple name tags, choose one and add the other to alt_name" />
		<tag k="name" v="Bakkevatna;Liavatna" />
		<tag k="natural" v="water" />
		<tag k="ssr:stedsnr" v="69310" />
	</node>
	<node id="-534198" lat="61.4030749965" lon="5.92101666388">
		<tag k="name" v="Strindaelva" />
		<tag k="ssr:stedsnr" v="92929" />
		<tag k="waterway" v="river" />
	</node>
	<node id="-534659" lat="61.3660888928" lon="5.98913055542">
		<tag k="name" v="Storelva" />
		<tag k="ssr:stedsnr" v="516939" />
		<tag k="waterway" v="river" />
	</node>
	<node id="-534658" lat="61.3811369425" lon="5.91365948643">
		<tag k="name" v="Gyttevatnet" />
		<tag k="natural" v="water" />
		<tag k="ssr:stedsnr" v="516940" />
		<tag k="water" v="lake" />
	</node>
	<node id="-534464" lat="61.3751138868" lon="6.06090000417">
		<tag k="name" v="Gøyvinga" />
		<tag k="ssr:stedsnr" v="432418" />
		<tag k="waterway" v="stream" />
	</node>
	<node id="-534654" lat="61.4947527759" lon="5.86929166349">
		<tag k="name" v="Stølselva" />
		<tag k="ssr:stedsnr" v="516887" />
		<tag k="waterway" v="river" />
	</node>
	<node id="-534805" lat="61.4196638869" lon="5.9357388981">
		<tag k="alt_name" v="Storelva" />
		<tag k="name" v="Sagelva" />
		<tag k="ssr:stedsnr" v="614570" />
		<tag k="waterway" v="stream" />
	</node>
	<node id="-534139" lat="61.4798472241" lon="6.44812222855">
		<tag k="name" v="Trollebotsvatnet" />
		<tag k="natural" v="water" />
		<tag k="ssr:stedsnr" v="68697" />
	</node>
	<node id="-534649" lat="61.4433611076" lon="6.00726388199">
		<tag k="name" v="Moøyane" />
		<tag k="natural" v="water" />
		<tag k="ssr:stedsnr" v="516873" />
		<tag k="water" v="lake" />
	</node>
	<node id="-534648" lat="61.4284027784" lon="6.0113944494">
		<tag k="name" v="Sagelva" />
		<tag k="ssr:stedsnr" v="516872" />
		<tag k="waterway" v="river" />
	</node>
	<node id="-534136" lat="61.4425111104" lon="6.37879723082">
		<tag k="name" v="Skryklingselva" />
		<tag k="ssr:stedsnr" v="68653" />
		<tag k="waterway" v="stream" />
	</node>
	<node id="-535158" lat="61.4279333328" lon="5.6578000074">
		<tag k="name" v="Kvernhusgrova" />
		<tag k="ssr:stedsnr" v="820598" />
		<tag k="waterway" v="stream" />
	</node>
	<node id="-533865" lat="61.4615416669" lon="5.8760833272">
		<tag k="name" v="Tverrgrova" />
		<tag k="ssr:stedsnr" v="334922" />
		<tag k="waterway" v="stream" />
	</node>
	<node id="-534132" lat="61.4286453311" lon="6.02744295614">
		<tag k="name" v="Åsvatnet" />
		<tag k="natural" v="water" />
		<tag k="ssr:stedsnr" v="68396" />
		<tag k="water" v="lake" />
	</node>
	<node id="-533950" lat="61.5158777806" lon="5.98271667144">
		<tag k="name" v="Storegrova" />
		<tag k="ssr:stedsnr" v="395839" />
		<tag k="waterway" v="stream" />
	</node>
	<node id="-535151" lat="61.5049111135" lon="5.98743611813">
		<tag k="name" v="Storøyna" />
		<tag k="natural" v="water" />
		<tag k="ssr:stedsnr" v="819810" />
		<tag k="water" v="lake" />
	</node>
	<node id="-534637" lat="61.4177833334" lon="6.38411388481">
		<tag k="name" v="Åregjelgrova" />
		<tag k="ssr:stedsnr" v="516829" />
		<tag k="waterway" v="river" />
	</node>
	<node id="-535148" lat="61.5717861094" lon="6.12269722637">
		<tag k="name" v="Nordvatnet" />
		<tag k="natural" v="water" />
		<tag k="ssr:stedsnr" v="798202" />
	</node>
	<node id="-535147" lat="61.5442833356" lon="6.0513361152">
		<tag k="name" v="Tverrelva" />
		<tag k="ssr:stedsnr" v="798165" />
		<tag k="waterway" v="stream" />
	</node>
	<node id="-534581" lat="61.431999997" lon="5.60509999882">
		<tag k="name" v="Stølselva" />
		<tag k="ssr:stedsnr" v="493528" />
		<tag k="waterway" v="stream" />
	</node>
	<node id="-534627" lat="61.4108138872" lon="6.30598611408">
		<tag k="name" v="Illesva" />
		<tag k="natural" v="bay" />
		<tag k="ssr:stedsnr" v="516802" />
	</node>
	<node id="-534114" lat="61.4097888886" lon="5.85931388799">
		<tag k="name" v="Fureholmen" />
		<tag k="place" v="islet" />
		<tag k="ssr:stedsnr" v="31973" />
	</node>
	<node id="-535227" lat="61.3647277746" lon="5.96278610908">
		<tag k="name" v="Daurmålvatnet" />
		<tag k="natural" v="water" />
		<tag k="ssr:stedsnr" v="857451" />
	</node>
	<node id="-535135" lat="61.4065750004" lon="6.22184445296">
		<tag k="alt_name" v="Tjønna" />
		<tag k="name" v="Fjelltjønna" />
		<tag k="natural" v="water" />
		<tag k="ssr:stedsnr" v="797644" />
	</node>
	<node id="-534622" lat="61.4420722236" lon="6.35634722227">
		<tag k="name" v="Fossane" />
		<tag k="natural" v="waterfall" />
		<tag k="ssr:stedsnr" v="516790" />
	</node>
	<node id="-535133" lat="61.4309916658" lon="6.43638610831">
		<tag k="name" v="Tverrelva" />
		<tag k="ssr:stedsnr" v="797632" />
		<tag k="waterway" v="stream" />
	</node>
	<node id="-534108" lat="61.4180714715" lon="5.88605957381">
		<tag k="name" v="Reinetjørna" />
		<tag k="natural" v="water" />
		<tag k="ssr:stedsnr" v="31933" />
	</node>
	<node id="-535131" lat="61.4030083322" lon="6.19397500463">
		<tag k="fixme" v="multiple name tags, choose one and add the other to alt_name" />
		<tag k="name" v="Skorpeelva;Vikaelva" />
		<tag k="ssr:stedsnr" v="797568" />
		<tag k="waterway" v="stream" />
	</node>
	<node id="-533775" lat="61.4119166678" lon="6.42201667262">
		<tag k="name" v="Blikelva" />
		<tag k="ssr:stedsnr" v="311670" />
		<tag k="waterway" v="stream" />
	</node>
	<node id="-534009" lat="61.3701277807" lon="5.99848611686">
		<tag k="name" v="Gravvatnet" />
		<tag k="natural" v="water" />
		<tag k="ssr:stedsnr" v="7443" />
		<tag k="water" v="lake" />
	</node>
	<node id="-533860" lat="61.4307699742" lon="6.0010404217">
		<tag k="name" v="Hulda" />
		<tag k="natural" v="water" />
		<tag k="ssr:stedsnr" v="334858" />
		<tag k="water" v="lake" />
	</node>
	<node id="-535126" lat="61.4295277819" lon="6.18193332726">
		<tag k="name" v="Norddalsvatnet" />
		<tag k="natural" v="water" />
		<tag k="ssr:stedsnr" v="797348" />
	</node>
	<node id="-535124" lat="61.4438166687" lon="6.11021944567">
		<tag k="name" v="Tverrlivatn" />
		<tag k="natural" v="water" />
		<tag k="ssr:stedsnr" v="797340" />
	</node>
	<node id="-535123" lat="61.4424250018" lon="6.21743055064">
		<tag k="name" v="Krokevatnet" />
		<tag k="natural" v="water" />
		<tag k="ssr:stedsnr" v="797337" />
	</node>
	<node id="-535119" lat="61.4590694417" lon="5.88298610381">
		<tag k="fixme" v="multiple name tags, choose one and add the other to alt_name" />
		<tag k="name" v="Anga;Angedalselva" />
		<tag k="ssr:stedsnr" v="797268" />
		<tag k="waterway" v="river" />
	</node>
	<node id="-534668" lat="61.4850333369" lon="5.86790555727">
		<tag k="name" v="Skjemmedalselva" />
		<tag k="ssr:stedsnr" v="516997" />
		<tag k="waterway" v="river" />
	</node>
	<node id="-534091" lat="61.4394962608" lon="5.96686479409">
		<tag k="name" v="Bårdkvibukta" />
		<tag k="natural" v="bay" />
		<tag k="ssr:stedsnr" v="31839" />
	</node>
	<node id="-534089" lat="61.5505194474" lon="6.09063332769">
		<tag k="name" v="Naustneset" />
		<tag k="natural" v="cape" />
		<tag k="ssr:stedsnr" v="31835" />
	</node>
	<node id="-535111" lat="61.4458583296" lon="5.80454721372">
		<tag k="name" v="Gravdalselva" />
		<tag k="ssr:stedsnr" v="796876" />
		<tag k="waterway" v="river" />
	</node>
	<node id="-533899" lat="61.46903611" lon="5.92492500037">
		<tag k="name" v="Kvamsfossen" />
		<tag k="natural" v="waterfall" />
		<tag k="ssr:stedsnr" v="372307" />
	</node>
	<node id="-534113" lat="61.4388916641" lon="5.85926944761">
		<tag k="name" v="Lamanderstjørna" />
		<tag k="natural" v="water" />
		<tag k="ssr:stedsnr" v="31959" />
	</node>
	<node id="-535222" lat="61.4345305514" lon="6.03677500523">
		<tag k="alt_name" v="Skjervatjørna" />
		<tag k="name" v="Skjervetjørna" />
		<tag k="natural" v="water" />
		<tag k="ssr:stedsnr" v="857380" />
	</node>
	<node id="-535106" lat="61.4392472265" lon="5.75043055263">
		<tag k="name" v="Liastølsvatnet" />
		<tag k="natural" v="water" />
		<tag k="ssr:stedsnr" v="796821" />
	</node>
	<node id="-534080" lat="61.4044833325" lon="6.32271389353">
		<tag k="name" v="Sørestranda" />
		<tag k="natural" v="beach" />
		<tag k="ssr:stedsnr" v="31804" />
	</node>
	<node id="-535103" lat="61.4911861122" lon="5.81985556435">
		<tag k="alt_name" v="Løypingselva" />
		<tag k="name" v="Løypingelva" />
		<tag k="ssr:stedsnr" v="796711" />
		<tag k="waterway" v="stream" />
	</node>
	<node id="-535100" lat="61.4597249995" lon="5.73196110306">
		<tag k="name" v="Øvrestølsvatnet" />
		<tag k="natural" v="water" />
		<tag k="ssr:stedsnr" v="796631" />
	</node>
	<node id="-535099" lat="61.4610749995" lon="5.70483333058">
		<tag k="alt_name" v="Nordre-Fauskevatn;Fauskevatnet, nordre" />
		<tag k="fixme" v="multiple name tags, choose one and add the other to alt_name" />
		<tag k="name" v="Storevatnet;Nordre Fauskevatnet" />
		<tag k="natural" v="water" />
		<tag k="ssr:stedsnr" v="796629" />
	</node>
	<node id="-534586" lat="61.4456583366" lon="6.41649999592">
		<tag k="name" v="Daleelva" />
		<tag k="ssr:stedsnr" v="493655" />
		<tag k="waterway" v="river" />
	</node>
	<node id="-534111" lat="61.4261222259" lon="5.84579444033">
		<tag k="name" v="Turtletjørna" />
		<tag k="natural" v="water" />
		<tag k="ssr:stedsnr" v="31954" />
	</node>
	<node id="-535096" lat="61.4000111148" lon="5.89963611092">
		<tag k="name" v="Flategrova" />
		<tag k="ssr:stedsnr" v="796403" />
		<tag k="waterway" v="stream" />
	</node>
	<node id="-534452" lat="61.4554944465" lon="5.71530000264">
		<tag k="fixme" v="multiple name tags, choose one and add the other to alt_name" />
		<tag k="name" v="Litlevatnet;Søre-Fauskevatn" />
		<tag k="natural" v="water" />
		<tag k="ssr:stedsnr" v="432607" />
	</node>
	<node id="-535093" lat="61.4333051533" lon="5.96641588984">
		<tag k="name" v="Movatnet" />
		<tag k="natural" v="water" />
		<tag k="ssr:stedsnr" v="796336" />
		<tag k="water" v="lake" />
	</node>
	<node id="-535092" lat="61.4323158434" lon="5.93053790766">
		<tag k="name" v="Bergavatnet" />
		<tag k="natural" v="water" />
		<tag k="ssr:stedsnr" v="796332" />
	</node>
	<node id="-534579" lat="61.4096583322" lon="6.10794443835">
		<tag k="alt_name" v="Fossaelva" />
		<tag k="name" v="Fossafjellelva" />
		<tag k="ssr:stedsnr" v="493386" />
		<tag k="waterway" v="stream" />
	</node>
	<node id="-534578" lat="61.421900001" lon="6.16124444326">
		<tag k="name" v="Norddøla" />
		<tag k="ssr:stedsnr" v="493378" />
		<tag k="waterway" v="stream" />
	</node>
	<node id="-534203" lat="61.4872861114" lon="5.81481388995">
		<tag k="name" v="Trollehølen" />
		<tag k="place" v="locality" />
		<tag k="ssr:stedsnr" v="92993" />
	</node>
	<node id="-535081" lat="61.414047787" lon="5.88643835316">
		<tag k="name" v="Blekatjørn" />
		<tag k="natural" v="water" />
		<tag k="ssr:stedsnr" v="759934" />
	</node>
	<node id="-534056" lat="61.3855249999" lon="5.86267222744">
		<tag k="name" v="Brendeskarelva" />
		<tag k="ssr:stedsnr" v="31172" />
		<tag k="waterway" v="stream" />
	</node>
	<node id="-534055" lat="61.5006805515" lon="5.76905277346">
		<tag k="name" v="Skredvika" />
		<tag k="natural" v="bay" />
		<tag k="ssr:stedsnr" v="20744" />
	</node>
	<node id="-534053" lat="61.5742660428" lon="6.16155727415">
		<tag k="name" v="Isvatnet" />
		<tag k="natural" v="water" />
		<tag k="ssr:stedsnr" v="9181" />
		<tag k="water" v="lake" />
	</node>
	<node id="-535075" lat="61.4941111142" lon="5.85794166872">
		<tag k="name" v="Holtetjørna" />
		<tag k="natural" v="water" />
		<tag k="ssr:stedsnr" v="759883" />
	</node>
	<node id="-533956" lat="61.4273861142" lon="6.42471111778">
		<tag k="name" v="Blåsvagrova" />
		<tag k="ssr:stedsnr" v="395856" />
		<tag k="waterway" v="stream" />
	</node>
	<node id="-535072" lat="61.4317083305" lon="6.03835000618">
		<tag k="name" v="Kyraneset" />
		<tag k="natural" v="cape" />
		<tag k="ssr:stedsnr" v="759865" />
	</node>
	<node id="-534046" lat="61.4333861109" lon="5.61196944435">
		<tag k="name" v="Storelva" />
		<tag k="ssr:stedsnr" v="8840" />
		<tag k="waterway" v="river" />
	</node>
	<node id="-535069" lat="61.4285388867" lon="6.06674445392">
		<tag k="name" v="Stølsvika" />
		<tag k="natural" v="bay" />
		<tag k="ssr:stedsnr" v="759849" />
	</node>
	<node id="-534044" lat="61.4272472267" lon="5.83083611918">
		<tag k="name" v="Langeneset" />
		<tag k="natural" v="cape" />
		<tag k="ssr:stedsnr" v="8805" />
	</node>
	<node id="-534362" lat="61.4150250024" lon="6.29259999442">
		<tag k="name" v="Fossane" />
		<tag k="natural" v="waterfall" />
		<tag k="ssr:stedsnr" v="213817" />
	</node>
	<node id="-535066" lat="61.4465666628" lon="6.49637778102">
		<tag k="name" v="Stølselva" />
		<tag k="ssr:stedsnr" v="759841" />
		<tag k="waterway" v="river" />
	</node>
	<node id="-535065" lat="61.4301444488" lon="5.98028055539">
		<tag k="name" v="Løken" />
		<tag k="natural" v="strait" />
		<tag k="ssr:stedsnr" v="759839" />
	</node>
	<node id="-535063" lat="61.433919444" lon="5.95984999203">
		<tag k="name" v="Kusslidneset" />
		<tag k="natural" v="cape" />
		<tag k="ssr:stedsnr" v="759834" />
	</node>
	<node id="-534617" lat="61.4203111114" lon="6.15867499743">
		<tag k="name" v="Kjerringfossen" />
		<tag k="natural" v="waterfall" />
		<tag k="ssr:stedsnr" v="516773" />
	</node>
	<node id="-535059" lat="61.4153666675" lon="6.41006110369">
		<tag k="name" v="Holmane" />
		<tag k="natural" v="water" />
		<tag k="ssr:stedsnr" v="759809" />
		<tag k="water" v="lake" />
	</node>
	<node id="-534034" lat="61.421394447" lon="6.34172221687">
		<tag k="name" v="Neselva" />
		<tag k="ssr:stedsnr" v="8643" />
		<tag k="waterway" v="stream" />
	</node>
	<node id="-535299" lat="61.4309583371" lon="6.46147499799">
		<tag k="name" v="Øyane" />
		<tag k="natural" v="water" />
		<tag k="ssr:stedsnr" v="881807" />
		<tag k="water" v="lake" />
	</node>
	<node id="-534031" lat="61.4216750003" lon="6.08716110954">
		<tag k="name" v="Høgsetholmen" />
		<tag k="natural" v="cape" />
		<tag k="ssr:stedsnr" v="8407" />
	</node>
	<node id="-534540" lat="61.4130526821" lon="6.32528344632">
		<tag k="name" v="Ospeneset" />
		<tag k="natural" v="cape" />
		<tag k="ssr:stedsnr" v="456798" />
	</node>
	<node id="-534228" lat="61.4526305565" lon="6.10307500072">
		<tag k="name" v="Blåfjelltjørna" />
		<tag k="natural" v="water" />
		<tag k="ssr:stedsnr" v="129340" />
	</node>
	<node id="-534245" lat="61.4557055539" lon="6.43339445341">
		<tag k="name" v="Dalevatnet" />
		<tag k="natural" v="water" />
		<tag k="ssr:stedsnr" v="129674" />
	</node>
	<node id="-535302" lat="61.3994666638" lon="6.30339723075">
		<tag k="name" v="Skorafossgrova" />
		<tag k="ssr:stedsnr" v="881815" />
		<tag k="waterway" v="stream" />
	</node>
	<node id="-535336" lat="61.3646138875" lon="6.3899222225">
		<tag k="name" v="Langetjønna" />
		<tag k="natural" v="water" />
		<tag k="ssr:stedsnr" v="918793" />
	</node>
	<node id="-534530" lat="61.424933335" lon="6.08268888104">
		<tag k="name" v="Høgsetbukta" />
		<tag k="natural" v="bay" />
		<tag k="ssr:stedsnr" v="456759" />
	</node>
	<node id="-534017" lat="61.3913999985" lon="6.38152500143">
		<tag k="name" v="Eggjavatnet" />
		<tag k="natural" v="water" />
		<tag k="ssr:stedsnr" v="7731" />
	</node>
</osm>
