<?xml version="1.0" encoding="UTF-8"?>
<osm generator="osmapis" version="0.6">
	<node id="-22848" lat="59.6651802738" lon="10.7609704995">
		<tag k="name" v="Oluf Thesens vei" />
		<tag k="ssr:date" v="2019-05-31" />
		<tag k="ssr:gruppe" v="veg" />
		<tag k="ssr:hovedgruppe" v="infrastruktur" />
		<tag k="ssr:stedsnr" v="989809" />
		<tag k="ssr:type" v="adressenavn" />
	</node>
	<node id="-22846" lat="59.6944879286" lon="10.8279704609">
		<tag k="name" v="Kjølstadveien" />
		<tag k="ssr:date" v="2019-05-31" />
		<tag k="ssr:gruppe" v="veg" />
		<tag k="ssr:hovedgruppe" v="infrastruktur" />
		<tag k="ssr:stedsnr" v="987410" />
		<tag k="ssr:type" v="adressenavn" />
	</node>
	<node id="-22845" lat="59.7175027536" lon="10.8037097526">
		<tag k="name" v="Hagen Johansens vei" />
		<tag k="ssr:date" v="2019-05-31" />
		<tag k="ssr:gruppe" v="veg" />
		<tag k="ssr:hovedgruppe" v="infrastruktur" />
		<tag k="ssr:stedsnr" v="984891" />
		<tag k="ssr:type" v="adressenavn" />
	</node>
	<node id="-22844" lat="59.7171278967" lon="10.8015736207">
		<tag k="name" v="Skifabrikksvingen" />
		<tag k="ssr:date" v="2019-05-31" />
		<tag k="ssr:gruppe" v="veg" />
		<tag k="ssr:hovedgruppe" v="infrastruktur" />
		<tag k="ssr:stedsnr" v="984890" />
		<tag k="ssr:type" v="adressenavn" />
	</node>
	<node id="-22843" lat="59.7202345817" lon="10.8102693058">
		<tag k="name" v="Bekkestien" />
		<tag k="ssr:date" v="2019-05-31" />
		<tag k="ssr:gruppe" v="veg" />
		<tag k="ssr:hovedgruppe" v="infrastruktur" />
		<tag k="ssr:stedsnr" v="1067235" />
		<tag k="ssr:type" v="adressenavn" />
	</node>
	<node id="-22840" lat="59.6636555546" lon="10.7910083419">
		<tag k="loc_name" v="Ås" />
		<tag k="name" v="Ås kommune" />
		<tag k="ssr:date" v="2016-05-10" />
		<tag k="ssr:gruppe" v="administrativeIndelinger" />
		<tag k="ssr:hovedgruppe" v="offentligAdministrasjon" />
		<tag k="ssr:stedsnr" v="388749" />
		<tag k="ssr:type" v="kommune" />
	</node>
	<node id="-23381" lat="60.5908609473" lon="9.63819281559">
		<tag k="fixme" v="multiple name tags, choose one and add the other to alt_name" />
		<tag k="name" v="Austlandet;Østlandet" />
		<tag k="ssr:date" v="2018-01-09" />
		<tag k="ssr:gruppe" v="administrativeIndelinger" />
		<tag k="ssr:hovedgruppe" v="offentligAdministrasjon" />
		<tag k="ssr:stedsnr" v="974775" />
		<tag k="ssr:type" v="annenAdministrativInndeling" />
	</node>
	<node id="-23248" lat="59.7395027736" lon="10.7709083265">
		<tag k="name" v="Vinterbro" />
		<tag k="ssr:date" v="2016-05-11" />
		<tag k="ssr:gruppe" v="administrativeIndelinger" />
		<tag k="ssr:hovedgruppe" v="offentligAdministrasjon" />
		<tag k="ssr:stedsnr" v="752664" />
		<tag k="ssr:type" v="poststed" />
	</node>
	<node id="-23169" lat="59.7519972252" lon="10.7428027793">
		<tag k="name" v="Oppegårdveien" />
		<tag k="ssr:date" v="2016-05-10" />
		<tag k="ssr:gruppe" v="veg" />
		<tag k="ssr:hovedgruppe" v="infrastruktur" />
		<tag k="ssr:stedsnr" v="629829" />
		<tag k="ssr:type" v="vegstrekning" />
	</node>
	<node id="-22850" lat="59.6664990571" lon="10.7657622602">
		<tag k="name" v="Ragnhild Sundbys plass" />
		<tag k="ssr:date" v="2019-05-31" />
		<tag k="ssr:gruppe" v="veg" />
		<tag k="ssr:hovedgruppe" v="infrastruktur" />
		<tag k="ssr:stedsnr" v="989811" />
		<tag k="ssr:type" v="adressenavn" />
	</node>
	<node id="-22849" lat="59.6701868427" lon="10.762032158">
		<tag k="name" v="Elizabeth Stephansens vei" />
		<tag k="ssr:date" v="2019-05-31" />
		<tag k="ssr:gruppe" v="veg" />
		<tag k="ssr:hovedgruppe" v="infrastruktur" />
		<tag k="ssr:stedsnr" v="989810" />
		<tag k="ssr:type" v="adressenavn" />
	</node>
</osm>
