<?xml version="1.0" encoding="UTF-8"?>
<osm version="0.6" generator="osmapis">
	<node lat="59.633960467792384" lon="10.669655688551197" id="-27178">
		<tag k="fixme" v="consider place=hamlet" />
		<tag k="name" v="Kroksrud" />
		<tag k="place" v="farm" />
		<tag k="ssr:stedsnr" v="3633" />
	</node>
	<node lat="59.70239722262837" lon="10.590211109829776" id="-27179">
		<tag k="name" v="Askholmene" />
		<tag k="place" v="islet" />
		<tag k="ssr:stedsnr" v="3738" />
	</node>
	<node lat="59.69039166218226" lon="10.591558341201646" id="-27180">
		<tag k="name" v="Tronstad" />
		<tag k="place" v="isolated_dwelling" />
		<tag k="ssr:stedsnr" v="3742" />
	</node>
	<node lat="59.67904360075572" lon="10.656578360899369" id="-27181">
		<tag k="fixme" v="consider place=hamlet" />
		<tag k="name" v="Kringerud" />
		<tag k="place" v="farm" />
		<tag k="ssr:stedsnr" v="3755" />
	</node>
	<node lat="59.7031833327668" lon="10.562236116804492" id="-27182">
		<tag k="name" v="Håøybukta" />
		<tag k="natural" v="bay" />
		<tag k="ssr:stedsnr" v="25091" />
	</node>
	<node lat="59.76404444451629" lon="10.712472221723852" id="-27183">
		<tag k="fixme" v="consider seamark:type=rock or natural=shoal" />
		<tag k="name" v="Storskjær" />
		<tag k="place" v="islet" />
		<tag k="ssr:stedsnr" v="25273" />
	</node>
	<node lat="59.6909194453212" lon="10.605744444508998" id="-27184">
		<tag k="fixme" v="consider seamark:type=rock or natural=shoal" />
		<tag k="name" v="Dronninga" />
		<tag k="place" v="islet" />
		<tag k="ssr:stedsnr" v="26107" />
	</node>
	<node lat="59.68464166863836" lon="10.73211388221658" id="-27187">
		<tag k="name" v="Sørbråten" />
		<tag k="place" v="farm" />
		<tag k="ssr:stedsnr" v="39311" />
	</node>
	<node lat="59.693825000821334" lon="10.626563896301933" id="-27188">
		<tag k="fixme" v="consider boundary=protected_area and relevant protect_class if not nature reserve" />
		<tag k="leisure" v="nature_reserve" />
		<tag k="name" v="Stakaskjær naturreservat" />
		<tag k="ssr:stedsnr" v="39325" />
	</node>
	<node lat="59.70545277986662" lon="10.604094452602963" id="-27189">
		<tag k="name" v="Marikovadammen" />
		<tag k="natural" v="water" />
		<tag k="ssr:stedsnr" v="39469" />
	</node>
	<node lat="59.655822219891334" lon="10.65814444964736" id="-27190">
		<tag k="name" v="Nordre Øyerud hyttefelt" />
		<tag k="place" v="neighbourhood" />
		<tag k="ssr:stedsnr" v="39475" />
	</node>
	<node lat="59.655138890411884" lon="10.672486110186561" id="-27191">
		<tag k="name" v="Kolstadbråten" />
		<tag k="place" v="locality" />
		<tag k="ssr:stedsnr" v="39477" />
	</node>
	<node lat="59.701222225269134" lon="10.602630550722958" id="-27192">
		<tag k="name" v="Marikova" />
		<tag k="place" v="hamlet" />
		<tag k="ssr:stedsnr" v="39481" />
	</node>
	<node lat="59.66163435341801" lon="10.639303964749041" id="-27193">
		<tag k="fixme" v="consider place=hamlet" />
		<tag k="name" v="Tverkjegla" />
		<tag k="place" v="farm" />
		<tag k="ssr:stedsnr" v="240041" />
	</node>
	<node lat="59.68926389209158" lon="10.689555560061606" id="-27194">
		<tag k="name" v="Mellom-Roksrud" />
		<tag k="place" v="farm" />
		<tag k="ssr:stedsnr" v="240157" />
	</node>
	<node lat="59.675083330869526" lon="10.688166669326284" id="-27195">
		<tag k="name" v="Nordre Ermesø" />
		<tag k="place" v="farm" />
		<tag k="ssr:stedsnr" v="58594" />
	</node>
	<node lat="59.743930555225354" lon="10.72048333866587" id="-27196">
		<tag k="name" v="Dragen" />
		<tag k="natural" v="cape" />
		<tag k="ssr:stedsnr" v="240451" />
	</node>
	<node lat="59.73283055167279" lon="10.706533341535163" id="-27197">
		<tag k="name" v="Bølerbråten" />
		<tag k="place" v="farm" />
		<tag k="ssr:stedsnr" v="240466" />
	</node>
	<node lat="59.664038887928214" lon="10.683650003588125" id="-27198">
		<tag k="name" v="Nordre Fjøser" />
		<tag k="place" v="farm" />
		<tag k="ssr:stedsnr" v="240629" />
	</node>
	<node lat="59.71235555633684" lon="10.646522227729792" id="-27199">
		<tag k="name" v="Pollen" />
		<tag k="place" v="isolated_dwelling" />
		<tag k="ssr:stedsnr" v="240642" />
	</node>
	<node lat="59.65650833454222" lon="10.640144440656998" id="-27200">
		<tag k="name" v="Nordre Sogsti" />
		<tag k="place" v="farm" />
		<tag k="ssr:stedsnr" v="240576" />
	</node>
	<node lat="59.682694441875284" lon="10.569063888147934" id="-27201">
		<tag k="name" v="Parisbukta" />
		<tag k="natural" v="bay" />
		<tag k="ssr:stedsnr" v="240861" />
	</node>
	<node lat="59.68741320140505" lon="10.683170869547615" id="-27202">
		<tag k="name" v="Glosli" />
		<tag k="place" v="hamlet" />
		<tag k="ssr:stedsnr" v="63769" />
	</node>
	<node lat="59.70039722238254" lon="10.6589083244833" id="-27203">
		<tag k="name" v="Monsrud" />
		<tag k="place" v="farm" />
		<tag k="ssr:stedsnr" v="64759" />
	</node>
	<node lat="59.69717500037429" lon="10.632947216559948" id="-27204">
		<tag k="name" v="Holmen" />
		<tag k="place" v="hamlet" />
		<tag k="ssr:stedsnr" v="64767" />
	</node>
	<node lat="59.70951666770005" lon="10.705275007119972" id="-27205">
		<tag k="fixme" v="consider place=hamlet" />
		<tag k="name" v="Stubberud" />
		<tag k="place" v="farm" />
		<tag k="ssr:stedsnr" v="64819" />
	</node>
	<node lat="59.67532493426613" lon="10.688686801520648" id="-27206">
		<tag k="fixme" v="consider place=hamlet" />
		<tag k="name" v="Ermesø" />
		<tag k="place" v="farm" />
		<tag k="ssr:stedsnr" v="64873" />
	</node>
	<node lat="59.67720844264441" lon="10.696534120871805" id="-27207">
		<tag k="fixme" v="consider place=hamlet" />
		<tag k="name" v="Berg" />
		<tag k="place" v="farm" />
		<tag k="ssr:stedsnr" v="64875" />
	</node>
	<node lat="59.6676699377065" lon="10.64464771653123" id="-27208">
		<tag k="fixme" v="consider place=hamlet" />
		<tag k="name" v="Ullerud" />
		<tag k="place" v="farm" />
		<tag k="ssr:stedsnr" v="64880" />
	</node>
	<node lat="59.699888889506276" lon="10.640080563421053" id="-27209">
		<tag k="name" v="Kleiva" />
		<tag k="place" v="hamlet" />
		<tag k="ssr:stedsnr" v="85905" />
	</node>
	<node lat="59.71473610811045" lon="10.553566670672152" id="-27210">
		<tag k="name" v="Bjørnhuebukta" />
		<tag k="natural" v="bay" />
		<tag k="ssr:stedsnr" v="86152" />
	</node>
	<node lat="59.66256771245302" lon="10.569230621474123" id="-27211">
		<tag k="layer" v="-1" />
		<tag k="name" v="Oslofjordtunnelen" />
		<tag k="ssr:stedsnr" v="86382" />
		<tag k="tunnel" v="yes" />
	</node>
	<node lat="59.730622218875446" lon="10.687708327359584" id="-27212">
		<tag k="alt_name" v="Dal, østre;Østre Dal" />
		<tag k="name" v="Øvre Dal" />
		<tag k="place" v="farm" />
		<tag k="ssr:stedsnr" v="246748" />
	</node>
	<node lat="59.7309694410758" lon="10.651155562372725" id="-27213">
		<tag k="alt_name" v="Knappelåsen" />
		<tag k="fixme" v="consider natural=peak for the most distinct mountains in the district" />
		<tag k="name" v="Knappelsåsen" />
		<tag k="natural" v="hill" />
		<tag k="place" v="locality" />
		<tag k="ssr:stedsnr" v="246749" />
	</node>
	<node lat="59.72512777738473" lon="10.588211117344114" id="-27214">
		<tag k="man_made" v="quay" />
		<tag k="name" v="Digerud brygge" />
		<tag k="place" v="locality" />
		<tag k="ssr:stedsnr" v="246753" />
	</node>
	<node lat="59.71523888680812" lon="10.550261114968752" id="-27215">
		<tag k="alt_name" v="Bjørnehuet" />
		<tag k="name" v="Bjørnehue" />
		<tag k="natural" v="cape" />
		<tag k="ssr:stedsnr" v="246756" />
	</node>
	<node lat="59.67404999604984" lon="10.607108331488623" id="-27216">
		<tag k="name" v="Søndre Kaholmen" />
		<tag k="place" v="island" />
		<tag k="ssr:stedsnr" v="246835" />
	</node>
	<node lat="59.67462607628498" lon="10.679297153729404" id="-27217">
		<tag k="fixme" v="consider place=hamlet" />
		<tag k="name" v="Kykkelsrud" />
		<tag k="place" v="farm" />
		<tag k="ssr:stedsnr" v="246840" />
	</node>
	<node lat="59.768061109719916" lon="10.69157500481415" id="-27218">
		<tag k="alt_name" v="Garder" />
		<tag k="name" v="Nedre Garder" />
		<tag k="place" v="farm" />
		<tag k="ssr:stedsnr" v="247623" />
	</node>
	<node lat="59.758124996596386" lon="10.702147226200584" id="-27219">
		<tag k="alt_name" v="Glenne, øvre" />
		<tag k="name" v="Øvre Glenne" />
		<tag k="place" v="farm" />
		<tag k="ssr:stedsnr" v="247585" />
	</node>
	<node lat="59.62804722368511" lon="10.652766674704978" id="-27220">
		<tag k="name" v="Øvre Kjeppestaddam" />
		<tag k="natural" v="water" />
		<tag k="ssr:stedsnr" v="100425" />
	</node>
	<node lat="59.66541666879387" lon="10.612033341197296" id="-27221">
		<tag k="fixme" v="consider boundary=protected_area and relevant protect_class if not nature reserve" />
		<tag k="leisure" v="nature_reserve" />
		<tag k="name" v="Småskjær naturreservat" />
		<tag k="ssr:stedsnr" v="100366" />
	</node>
	<node lat="59.71228610841028" lon="10.663513893475953" id="-27222">
		<tag k="name" v="Skyssrudfeltet" />
		<tag k="place" v="quarter" />
		<tag k="ssr:stedsnr" v="100367" />
	</node>
	<node lat="59.71472222015509" lon="10.70808332493339" id="-27223">
		<tag k="name" v="Rundvollbakkene" />
		<tag k="natural" v="slope" />
		<tag k="place" v="locality" />
		<tag k="ssr:stedsnr" v="100462" />
	</node>
	<node lat="59.73749166561482" lon="10.640980559647991" id="-27224">
		<tag k="name" v="Mellom-Gulbjørnrud" />
		<tag k="place" v="farm" />
		<tag k="ssr:stedsnr" v="100464" />
	</node>
	<node lat="59.77150581976343" lon="10.69481210175284" id="-27225">
		<tag k="name" v="Hasla" />
		<tag k="ssr:stedsnr" v="249244" />
		<tag k="waterway" v="river" />
	</node>
	<node lat="59.6784083360753" lon="10.632550008484484" id="-27226">
		<tag k="alt_name" v="Nedredam" />
		<tag k="name" v="Nedredammen" />
		<tag k="natural" v="water" />
		<tag k="ssr:stedsnr" v="118378" />
	</node>
	<node lat="59.70094444324521" lon="10.581858339211582" id="-27227">
		<tag k="name" v="Galteryggen" />
		<tag k="natural" v="shoal" />
		<tag k="place" v="locality" />
		<tag k="ssr:stedsnr" v="118831" />
	</node>
	<node lat="59.694344440232385" lon="10.625258338931008" id="-27228">
		<tag k="name" v="Hallangspollen" />
		<tag k="natural" v="bay" />
		<tag k="ssr:stedsnr" v="124709" />
	</node>
	<node lat="59.6875961621896" lon="10.66498935796702" id="-27229">
		<tag k="fixme" v="consider place=hamlet" />
		<tag k="name" v="Ottarsrud" />
		<tag k="place" v="farm" />
		<tag k="ssr:stedsnr" v="124723" />
	</node>
	<node lat="59.700144375680836" lon="10.726428470548003" id="-27230">
		<tag k="fixme" v="consider place=hamlet" />
		<tag k="name" v="Frogn" />
		<tag k="place" v="farm" />
		<tag k="ssr:stedsnr" v="125416" />
	</node>
	<node lat="59.6520450053405" lon="10.650622609101816" id="-27231">
		<tag k="fixme" v="consider place=hamlet" />
		<tag k="name" v="Odalen" />
		<tag k="place" v="farm" />
		<tag k="ssr:stedsnr" v="146021" />
	</node>
	<node lat="59.74585555288972" lon="10.720277775106913" id="-27232">
		<tag k="name" v="Lagodden" />
		<tag k="natural" v="cape" />
		<tag k="ssr:stedsnr" v="146222" />
	</node>
	<node lat="59.70546944383578" lon="10.642716665367615" id="-27233">
		<tag k="alt_name" v="Spervikstranda" />
		<tag k="name" v="Sperrevikstranda" />
		<tag k="natural" v="beach" />
		<tag k="ssr:stedsnr" v="146226" />
	</node>
	<node lat="59.70610555559865" lon="10.642055556303516" id="-27234">
		<tag k="name" v="Mortensbergodden" />
		<tag k="natural" v="cape" />
		<tag k="ssr:stedsnr" v="148663" />
	</node>
	<node lat="59.705801830313774" lon="10.674221370425336" id="-27236">
		<tag k="fixme" v="consider place=hamlet" />
		<tag k="name" v="Holt" />
		<tag k="place" v="farm" />
		<tag k="ssr:stedsnr" v="185727" />
	</node>
	<node lat="59.7029833364626" lon="10.704499991898944" id="-27237">
		<tag k="name" v="Skjønhaug" />
		<tag k="place" v="farm" />
		<tag k="ssr:stedsnr" v="185729" />
	</node>
	<node lat="59.70376666995993" lon="10.57471944674899" id="-27238">
		<tag k="name" v="Håøygrunnen" />
		<tag k="natural" v="shoal" />
		<tag k="place" v="locality" />
		<tag k="ssr:stedsnr" v="185734" />
	</node>
	<node lat="59.6835017192535" lon="10.70096406859302" id="-27239">
		<tag k="fixme" v="consider place=hamlet" />
		<tag k="name" v="Rød" />
		<tag k="place" v="farm" />
		<tag k="ssr:stedsnr" v="185839" />
	</node>
	<node lat="59.75983055783853" lon="10.543661113294549" id="-27241">
		<tag k="name" v="Langårgrunnane" />
		<tag k="natural" v="shoal" />
		<tag k="place" v="locality" />
		<tag k="ssr:stedsnr" v="207113" />
	</node>
	<node lat="59.69863611434686" lon="10.62521665869154" id="-27242">
		<tag k="fixme" v="multiple name tags, choose one and add the other to alt_name" />
		<tag k="name" v="Svartlagsundet;Pollesundet" />
		<tag k="natural" v="strait" />
		<tag k="ssr:stedsnr" v="207233" />
	</node>
	<node lat="59.67864999741625" lon="10.583508325226601" id="-27243">
		<tag k="name" v="Munkehatten" />
		<tag k="natural" v="cape" />
		<tag k="ssr:stedsnr" v="208090" />
	</node>
	<node lat="59.680619448591116" lon="10.596813889783046" id="-27244">
		<tag k="name" v="Ormeleina" />
		<tag k="natural" v="valley" />
		<tag k="place" v="locality" />
		<tag k="ssr:stedsnr" v="208109" />
	</node>
	<node lat="59.745313886441224" lon="10.691333339450383" id="-27245">
		<tag k="fixme" v="consider natural=peak for the most distinct mountains in the district" />
		<tag k="name" v="Høyås" />
		<tag k="natural" v="hill" />
		<tag k="place" v="locality" />
		<tag k="ssr:stedsnr" v="221407" />
	</node>
	<node lat="59.74776110729068" lon="10.698005562690113" id="-27246">
		<tag k="name" v="Vestre Dal" />
		<tag k="place" v="farm" />
		<tag k="ssr:stedsnr" v="221408" />
	</node>
	<node lat="59.67298888589929" lon="10.622127771900171" id="-27247">
		<tag k="fixme" v="consider natural=peak for the most distinct mountains in the district" />
		<tag k="name" v="Kopåsen" />
		<tag k="natural" v="hill" />
		<tag k="place" v="locality" />
		<tag k="ssr:stedsnr" v="221423" />
	</node>
	<node lat="59.719327775372946" lon="10.593163889803693" id="-27248">
		<tag k="name" v="Hetholdammen" />
		<tag k="natural" v="water" />
		<tag k="ssr:stedsnr" v="221525" />
	</node>
	<node lat="59.712297223539956" lon="10.650394449035828" id="-27249">
		<tag k="fixme" v="multiple name tags, choose one and add the other to alt_name" />
		<tag k="name" v="Holtberget;Berget" />
		<tag k="place" v="farm" />
		<tag k="ssr:stedsnr" v="221570" />
	</node>
	<node lat="59.76987221886235" lon="10.711986106115697" id="-27250">
		<tag k="name" v="Skirstad" />
		<tag k="place" v="farm" />
		<tag k="ssr:stedsnr" v="221589" />
	</node>
	<node lat="59.636050000546774" lon="10.659952769018263" id="-27251">
		<tag k="fixme" v="consider natural=peak for the most distinct mountains in the district" />
		<tag k="name" v="Eikebergåsen" />
		<tag k="natural" v="hill" />
		<tag k="place" v="locality" />
		<tag k="ssr:stedsnr" v="450014" />
	</node>
	<node lat="59.7232722224357" lon="10.587749992895999" id="-27252">
		<tag k="name" v="Hethol" />
		<tag k="place" v="farm" />
		<tag k="ssr:stedsnr" v="450117" />
	</node>
	<node lat="59.71948332961213" lon="10.587677778096522" id="-27253">
		<tag k="name" v="Digerud" />
		<tag k="place" v="isolated_dwelling" />
		<tag k="ssr:stedsnr" v="240904" />
	</node>
	<node lat="59.715955559102596" lon="10.592844444505186" id="-27254">
		<tag k="name" v="Barkebustranda" />
		<tag k="natural" v="beach" />
		<tag k="ssr:stedsnr" v="240911" />
	</node>
	<node lat="59.680564435251675" lon="10.66561885702498" id="-27255">
		<tag k="fixme" v="consider place=hamlet" />
		<tag k="name" v="Gislerud" />
		<tag k="place" v="farm" />
		<tag k="ssr:stedsnr" v="245748" />
	</node>
	<node lat="59.752411113214556" lon="10.711891673275098" id="-27256">
		<tag k="name" v="Brevik" />
		<tag k="place" v="hamlet" />
		<tag k="ssr:stedsnr" v="247581" />
	</node>
	<node lat="59.76952499558066" lon="10.713083337675" id="-27257">
		<tag k="name" v="Solbukta" />
		<tag k="place" v="isolated_dwelling" />
		<tag k="ssr:stedsnr" v="247606" />
	</node>
	<node lat="59.73643333105503" lon="10.715416674136359" id="-27258">
		<tag k="name" v="Øvre Knardal" />
		<tag k="place" v="farm" />
		<tag k="ssr:stedsnr" v="282418" />
	</node>
	<node lat="59.63101110802926" lon="10.646527775954766" id="-27259">
		<tag k="name" v="Søndre Eikeberg hyttefelt" />
		<tag k="place" v="neighbourhood" />
		<tag k="ssr:stedsnr" v="282421" />
	</node>
	<node lat="59.75113888588172" lon="10.646347226361375" id="-27260">
		<tag k="junction" v="yes" />
		<tag k="name" v="Kopperud" />
		<tag k="place" v="locality" />
		<tag k="ssr:stedsnr" v="282423" />
	</node>
	<node lat="59.63514722219862" lon="10.64885833675899" id="-27261">
		<tag k="name" v="Nordre Eikeberg hyttefelt" />
		<tag k="place" v="neighbourhood" />
		<tag k="ssr:stedsnr" v="282425" />
	</node>
	<node lat="59.71367500353452" lon="10.730450001999168" id="-27262">
		<tag k="fixme" v="consider natural=peak for the most distinct mountains in the district" />
		<tag k="name" v="Tjuåsen" />
		<tag k="natural" v="hill" />
		<tag k="place" v="locality" />
		<tag k="ssr:stedsnr" v="282373" />
	</node>
	<node lat="59.70732777899175" lon="10.64279166913871" id="-27263">
		<tag k="name" v="Sanddrettet" />
		<tag k="natural" v="beach" />
		<tag k="ssr:stedsnr" v="282377" />
	</node>
	<node lat="59.637288885299334" lon="10.671952779624757" id="-27264">
		<tag k="name" v="Øvre Solberg" />
		<tag k="place" v="farm" />
		<tag k="ssr:stedsnr" v="282508" />
	</node>
	<node lat="59.726175000274" lon="10.592780551070483" id="-27265">
		<tag k="fixme" v="multiple name tags, choose one and add the other to alt_name" />
		<tag k="name" v="Åstvet;Søndre Sandvika" />
		<tag k="place" v="isolated_dwelling" />
		<tag k="ssr:stedsnr" v="282885" />
	</node>
	<node lat="59.707102774565534" lon="10.737786115155966" id="-27266">
		<tag k="bridge" v="yes" />
		<tag k="layer" v="1" />
		<tag k="name" v="Årungselva" />
		<tag k="ssr:stedsnr" v="289110" />
	</node>
	<node lat="59.7042888911895" lon="10.738661108970595" id="-27267">
		<tag k="bridge" v="yes" />
		<tag k="layer" v="1" />
		<tag k="name" v="Mølledammen" />
		<tag k="ssr:stedsnr" v="289126" />
	</node>
	<node lat="59.68715833529372" lon="10.706716665533303" id="-27268">
		<tag k="name" v="Rødsholtet" />
		<tag k="place" v="hamlet" />
		<tag k="ssr:stedsnr" v="463140" />
	</node>
	<node lat="59.747263890909885" lon="10.648133326083537" id="-27269">
		<tag k="name" v="Søndre Kopperud" />
		<tag k="place" v="farm" />
		<tag k="ssr:stedsnr" v="463428" />
	</node>
	<node lat="59.74956111446959" lon="10.67102778256966" id="-27270">
		<tag k="name" v="Glennemåsan" />
		<tag k="natural" v="wetland" />
		<tag k="ssr:stedsnr" v="463433" />
	</node>
	<node lat="59.76921388904342" lon="10.69836388318862" id="-27271">
		<tag k="name" v="Garderbråtan" />
		<tag k="place" v="farm" />
		<tag k="ssr:stedsnr" v="463651" />
	</node>
	<node lat="59.68341666566509" lon="10.662899998446047" id="-27272">
		<tag k="amenity" v="school" />
		<tag k="name" v="Heer skole" />
		<tag k="ssr:stedsnr" v="463721" />
	</node>
	<node lat="59.71591666242512" lon="10.712786116901396" id="-27273">
		<tag k="name" v="Bånn" />
		<tag k="place" v="locality" />
		<tag k="ssr:stedsnr" v="464480" />
	</node>
	<node lat="59.724136111576456" lon="10.694886116570366" id="-27274">
		<tag k="name" v="Bergerhøgda" />
		<tag k="natural" v="slope" />
		<tag k="place" v="locality" />
		<tag k="ssr:stedsnr" v="464484" />
	</node>
	<node lat="59.7410361120229" lon="10.692272222029624" id="-27275">
		<tag k="name" v="Kaspars mage" />
		<tag k="place" v="locality" />
		<tag k="ssr:stedsnr" v="306957" />
	</node>
	<node lat="59.76257222439653" lon="10.66209722345837" id="-27276">
		<tag k="alt_name" v="Skog, nordre;Nordre Skau" />
		<tag k="name" v="Nordre Skog" />
		<tag k="place" v="farm" />
		<tag k="ssr:stedsnr" v="308619" />
	</node>
	<node lat="59.761849999347625" lon="10.546069439806432" id="-27277">
		<tag k="name" v="Klokkegrunnen" />
		<tag k="natural" v="shoal" />
		<tag k="place" v="locality" />
		<tag k="ssr:stedsnr" v="328108" />
	</node>
	<node lat="59.67511388446962" lon="10.634625001363748" id="-27278">
		<tag k="name" v="Gloslibekken" />
		<tag k="ssr:stedsnr" v="342411" />
		<tag k="waterway" v="stream" />
	</node>
	<node lat="59.69373724268185" lon="10.626546527374249" id="-27279">
		<tag k="fixme" v="consider seamark:type=rock or natural=shoal" />
		<tag k="name" v="Stakaskjæret" />
		<tag k="place" v="islet" />
		<tag k="ssr:stedsnr" v="342418" />
	</node>
	<node lat="59.72937222148978" lon="10.689211110788358" id="-27280">
		<tag k="junction" v="yes" />
		<tag k="name" v="Tusse" />
		<tag k="place" v="locality" />
		<tag k="ssr:stedsnr" v="342421" />
	</node>
	<node lat="59.731388887055026" lon="10.659855560207689" id="-27281">
		<tag k="name" v="Langebru" />
		<tag k="place" v="locality" />
		<tag k="ssr:stedsnr" v="342422" />
	</node>
	<node lat="59.68773888852898" lon="10.7027833325763" id="-27282">
		<tag k="amenity" v="community_centre" />
		<tag k="name" v="Folkvang" />
		<tag k="ssr:stedsnr" v="342146" />
	</node>
	<node lat="59.73748611450485" lon="10.721922216413803" id="-27284">
		<tag k="man_made" v="quay" />
		<tag k="name" v="Knardal" />
		<tag k="place" v="locality" />
		<tag k="ssr:stedsnr" v="367581" />
	</node>
	<node lat="59.682621167836075" lon="10.715089694247752" id="-27285">
		<tag k="fixme" v="consider place=hamlet" />
		<tag k="name" v="Bakker" />
		<tag k="place" v="farm" />
		<tag k="ssr:stedsnr" v="367829" />
	</node>
	<node lat="59.665097226315986" lon="10.61228610539635" id="-27286">
		<tag k="name" v="Småskjær" />
		<tag k="place" v="islet" />
		<tag k="ssr:stedsnr" v="368883" />
	</node>
	<node lat="59.77366667074185" lon="10.712305562920676" id="-27287">
		<tag k="alt_name" v="Hasletangen" />
		<tag k="name" v="Haslumtangen" />
		<tag k="natural" v="cape" />
		<tag k="ssr:stedsnr" v="369580" />
	</node>
	<node lat="59.688219442262195" lon="10.687830550923836" id="-27288">
		<tag k="name" v="Ødegården" />
		<tag k="place" v="farm" />
		<tag k="ssr:stedsnr" v="482138" />
	</node>
	<node lat="59.67107777997623" lon="10.701244441377115" id="-27289">
		<tag k="name" v="Mellom-Furu" />
		<tag k="place" v="farm" />
		<tag k="ssr:stedsnr" v="482585" />
	</node>
	<node lat="59.67738610944308" lon="10.58627222014505" id="-27290">
		<tag k="name" v="Geitestranda" />
		<tag k="natural" v="beach" />
		<tag k="ssr:stedsnr" v="482843" />
	</node>
	<node lat="59.696327777445" lon="10.63118333467779" id="-27291">
		<tag k="name" v="Sandstrand" />
		<tag k="natural" v="beach" />
		<tag k="ssr:stedsnr" v="482851" />
	</node>
	<node lat="59.68513611498063" lon="10.68938055577772" id="-27293">
		<tag k="name" v="Nordre Roksrud" />
		<tag k="place" v="farm" />
		<tag k="ssr:stedsnr" v="403141" />
	</node>
	<node lat="59.70534722102653" lon="10.681388892523938" id="-27294">
		<tag k="name" v="Bjerkebråtan" />
		<tag k="place" v="farm" />
		<tag k="ssr:stedsnr" v="403461" />
	</node>
	<node lat="59.6972194427541" lon="10.606755563601297" id="-27295">
		<tag k="name" v="Båtstødammen" />
		<tag k="natural" v="water" />
		<tag k="ssr:stedsnr" v="403930" />
	</node>
	<node lat="59.74463333364277" lon="10.722119444469184" id="-27296">
		<tag k="bay" v="fjord" />
		<tag k="name" v="Bunnefjorden" />
		<tag k="natural" v="bay" />
		<tag k="ssr:stedsnr" v="488471" />
	</node>
	<node lat="59.70838055504858" lon="10.748802777739913" id="-27297">
		<tag k="alt_name" v="Stokkholm" />
		<tag k="name" v="Stokholm" />
		<tag k="place" v="farm" />
		<tag k="ssr:stedsnr" v="488563" />
	</node>
	<node lat="59.614399997294356" lon="10.656794444918042" id="-27298">
		<tag k="name" v="Saga" />
		<tag k="place" v="isolated_dwelling" />
		<tag k="ssr:stedsnr" v="488616" />
	</node>
	<node lat="59.69383055230838" lon="10.671533341215852" id="-27299">
		<tag k="name" v="Oppegårdstjernet" />
		<tag k="natural" v="water" />
		<tag k="ssr:stedsnr" v="488776" />
	</node>
	<node lat="59.68968333769108" lon="10.694105552160543" id="-27300">
		<tag k="name" v="Bilitt" />
		<tag k="place" v="farm" />
		<tag k="ssr:stedsnr" v="422143" />
	</node>
	<node lat="59.6705861110533" lon="10.671922213833199" id="-27301">
		<tag k="name" v="Kykkelsrudbråten" />
		<tag k="place" v="farm" />
		<tag k="ssr:stedsnr" v="422590" />
	</node>
	<node lat="59.6919692856831" lon="10.701609288124029" id="-27302">
		<tag k="name" v="Huseby" />
		<tag k="place" v="hamlet" />
		<tag k="ssr:stedsnr" v="428759" />
	</node>
	<node lat="59.68675511308212" lon="10.677065132670133" id="-27303">
		<tag k="fixme" v="consider place=hamlet" />
		<tag k="name" v="Tomter" />
		<tag k="place" v="farm" />
		<tag k="ssr:stedsnr" v="428764" />
	</node>
	<node lat="59.727498956249924" lon="10.573664726636665" id="-27304">
		<tag k="name" v="Aspond" />
		<tag k="place" v="island" />
		<tag k="ssr:stedsnr" v="428774" />
	</node>
	<node lat="59.67401389277449" lon="10.65495833646991" id="-27305">
		<tag k="name" v="Dyrløkke" />
		<tag k="place" v="suburb" />
		<tag k="ssr:stedsnr" v="428861" />
	</node>
	<node lat="59.670714439785975" lon="10.701217149031352" id="-27306">
		<tag k="name" v="Furu" />
		<tag k="place" v="hamlet" />
		<tag k="ssr:stedsnr" v="428870" />
	</node>
	<node lat="59.74978056135226" lon="10.64760693252926" id="-27307">
		<tag k="fixme" v="consider place=hamlet" />
		<tag k="name" v="Kopperud" />
		<tag k="place" v="farm" />
		<tag k="ssr:stedsnr" v="430512" />
	</node>
	<node lat="59.74197080570945" lon="10.66577483075227" id="-27308">
		<tag k="name" v="Lindebråte" />
		<tag k="place" v="locality" />
		<tag k="ssr:stedsnr" v="670944" />
	</node>
	<node lat="59.743363889795795" lon="10.697783332602409" id="-27309">
		<tag k="alt_name" v="Dal, midtre;Mellom Dal" />
		<tag k="name" v="Midtre Dal" />
		<tag k="place" v="farm" />
		<tag k="ssr:stedsnr" v="670946" />
	</node>
	<node lat="59.727991666473635" lon="10.724927783018048" id="-27310">
		<tag k="name" v="England" />
		<tag k="place" v="isolated_dwelling" />
		<tag k="ssr:stedsnr" v="450229" />
	</node>
	<node lat="59.742624609837385" lon="10.71511800708268" id="-27311">
		<tag k="name" v="Fuglesang feriehjem" />
		<tag k="ssr:stedsnr" v="451468" />
		<tag k="tourism" v="guest_house" />
	</node>
	<node lat="59.64412221955247" lon="10.635869448886304" id="-27312">
		<tag k="alt_name" v="Elleskjær" />
		<tag k="fixme" v="consider seamark:type=rock or natural=shoal" />
		<tag k="name" v="Elleskjæret" />
		<tag k="place" v="islet" />
		<tag k="ssr:stedsnr" v="282858" />
	</node>
	<node lat="59.756536112576235" lon="10.70898888517491" id="-27313">
		<tag k="name" v="Åsebukta" />
		<tag k="natural" v="bay" />
		<tag k="ssr:stedsnr" v="671597" />
	</node>
	<node lat="59.75313055839343" lon="10.69117499183925" id="-27314">
		<tag k="name" v="Garderenga" />
		<tag k="place" v="farm" />
		<tag k="ssr:stedsnr" v="671601" />
	</node>
	<node lat="59.64570556174167" lon="10.662155629157375" id="-27315">
		<tag k="fixme" v="consider place=hamlet" />
		<tag k="name" v="Røys" />
		<tag k="place" v="farm" />
		<tag k="ssr:stedsnr" v="671834" />
	</node>
	<node lat="59.67385868275921" lon="10.6600721076739" id="-27316">
		<tag k="fixme" v="consider place=hamlet" />
		<tag k="name" v="Holter" />
		<tag k="place" v="farm" />
		<tag k="ssr:stedsnr" v="671856" />
	</node>
	<node lat="59.67583889175486" lon="10.67378056113141" id="-27317">
		<tag k="name" v="Finset" />
		<tag k="place" v="farm" />
		<tag k="ssr:stedsnr" v="671859" />
	</node>
	<node lat="59.75924444360986" lon="10.693408334752489" id="-27318">
		<tag k="alt_name" v="Garder, østre" />
		<tag k="name" v="Østre Garder" />
		<tag k="place" v="farm" />
		<tag k="ssr:stedsnr" v="672576" />
	</node>
	<node lat="59.76138611416616" lon="10.686111115482344" id="-27319">
		<tag k="alt_name" v="Garder, nordre" />
		<tag k="name" v="Nordre Garder" />
		<tag k="place" v="farm" />
		<tag k="ssr:stedsnr" v="672579" />
	</node>
	<node lat="59.75376389268073" lon="10.664027786242944" id="-27320">
		<tag k="name" v="Slottet" />
		<tag k="place" v="farm" />
		<tag k="ssr:stedsnr" v="672580" />
	</node>
	<node lat="59.76597375123206" lon="10.675690663980966" id="-27321">
		<tag k="fixme" v="consider place=hamlet" />
		<tag k="name" v="Skuterud" />
		<tag k="place" v="farm" />
		<tag k="ssr:stedsnr" v="672618" />
	</node>
	<node lat="59.71326944642379" lon="10.73937222598871" id="-27322">
		<tag k="fixme" v="consider natural=peak for the most distinct mountains in the district" />
		<tag k="name" v="Kaksrudåsen" />
		<tag k="natural" v="hill" />
		<tag k="place" v="locality" />
		<tag k="ssr:stedsnr" v="464405" />
	</node>
	<node lat="59.68523610887075" lon="10.668816665726633" id="-27323">
		<tag k="junction" v="yes" />
		<tag k="name" v="Ottarsrud" />
		<tag k="place" v="locality" />
		<tag k="ssr:stedsnr" v="464461" />
	</node>
	<node lat="59.69131666889527" lon="10.699624995399253" id="-27324">
		<tag k="name" v="Mellom-Huseby" />
		<tag k="place" v="farm" />
		<tag k="ssr:stedsnr" v="482118" />
	</node>
	<node lat="59.696336108801795" lon="10.699080564132856" id="-27325">
		<tag k="name" v="Husebyhagen" />
		<tag k="place" v="farm" />
		<tag k="ssr:stedsnr" v="482220" />
	</node>
	<node lat="59.75279444778266" lon="10.703227781396624" id="-27326">
		<tag k="alt_name" v="Kjøyabekken" />
		<tag k="name" v="Køyabekken" />
		<tag k="ssr:stedsnr" v="482415" />
		<tag k="waterway" v="stream" />
	</node>
	<node lat="59.63504890175617" lon="10.65451018913309" id="-27327">
		<tag k="fixme" v="consider place=hamlet" />
		<tag k="name" v="Eikeberg" />
		<tag k="place" v="farm" />
		<tag k="ssr:stedsnr" v="488659" />
	</node>
	<node lat="59.70279166913668" lon="10.652166674595263" id="-27328">
		<tag k="alt_name" v="Snerrevik;Sperrvik" />
		<tag k="name" v="Sperrevik" />
		<tag k="place" v="farm" />
		<tag k="ssr:stedsnr" v="488744" />
	</node>
	<node lat="59.65903490952792" lon="10.672837869978228" id="-27329">
		<tag k="fixme" v="consider place=hamlet" />
		<tag k="name" v="Kolstad" />
		<tag k="place" v="farm" />
		<tag k="ssr:stedsnr" v="489827" />
	</node>
	<node lat="59.77038597945878" lon="10.682694974177606" id="-27330">
		<tag k="fixme" v="consider place=hamlet" />
		<tag k="name" v="Gullerud" />
		<tag k="place" v="farm" />
		<tag k="ssr:stedsnr" v="490620" />
	</node>
	<node lat="59.68511667074909" lon="10.62394166926884" id="-27331">
		<tag k="name" v="Gylte" />
		<tag k="place" v="farm" />
		<tag k="ssr:stedsnr" v="510062" />
	</node>
	<node lat="59.69215555496599" lon="10.734386117010459" id="-27332">
		<tag k="name" v="Årungstua" />
		<tag k="place" v="isolated_dwelling" />
		<tag k="ssr:stedsnr" v="524327" />
	</node>
	<node lat="59.73670555659451" lon="10.720111106193775" id="-27333">
		<tag k="fixme" v="consider boundary=protected_area and relevant protect_class if not nature reserve" />
		<tag k="leisure" v="nature_reserve" />
		<tag k="name" v="Knardal naturreservat" />
		<tag k="ssr:stedsnr" v="524418" />
	</node>
	<node lat="59.667494441729524" lon="10.632000008339425" id="-27334">
		<tag k="amenity" v="nursing_home" />
		<tag k="name" v="Seimåsen" />
		<tag k="ssr:stedsnr" v="543068" />
	</node>
	<node lat="59.6453194440401" lon="10.655549991859253" id="-27335">
		<tag k="name" v="Sørli" />
		<tag k="place" v="locality" />
		<tag k="ssr:stedsnr" v="543131" />
	</node>
	<node lat="59.662091662293484" lon="10.669636117378424" id="-27336">
		<tag k="name" v="Søndre Skorkeberg" />
		<tag k="place" v="farm" />
		<tag k="ssr:stedsnr" v="543577" />
	</node>
	<node lat="59.6954277813323" lon="10.628402771260344" id="-27337">
		<tag k="name" v="Holmegrunnen" />
		<tag k="natural" v="shoal" />
		<tag k="place" v="locality" />
		<tag k="ssr:stedsnr" v="544612" />
	</node>
	<node lat="59.768733335792184" lon="10.708438880976974" id="-27338">
		<tag k="name" v="Søndre Haslum" />
		<tag k="place" v="farm" />
		<tag k="ssr:stedsnr" v="545514" />
	</node>
	<node lat="59.74141595525307" lon="10.6375365297146" id="-27339">
		<tag k="fixme" v="consider place=hamlet" />
		<tag k="name" v="Gulbjørnrud" />
		<tag k="place" v="farm" />
		<tag k="ssr:stedsnr" v="549967" />
	</node>
	<node lat="59.6900583357266" lon="10.619508328405809" id="-27340">
		<tag k="name" v="Tiurlia" />
		<tag k="place" v="hamlet" />
		<tag k="ssr:stedsnr" v="559805" />
	</node>
	<node lat="59.67822500028842" lon="10.622913883672094" id="-27341">
		<tag k="name" v="Vindfangerbukta" />
		<tag k="natural" v="bay" />
		<tag k="ssr:stedsnr" v="692063" />
	</node>
	<node lat="59.661169440071006" lon="10.645147227982742" id="-27342">
		<tag k="name" v="Holterteigen" />
		<tag k="place" v="farm" />
		<tag k="ssr:stedsnr" v="693038" />
	</node>
	<node lat="59.68517777367667" lon="10.589730548032732" id="-27343">
		<tag k="name" v="Gåsa" />
		<tag k="natural" v="slope" />
		<tag k="place" v="locality" />
		<tag k="ssr:stedsnr" v="693116" />
	</node>
	<node lat="59.70871388968992" lon="10.599538884934661" id="-27344">
		<tag k="name" v="Solvik" />
		<tag k="place" v="isolated_dwelling" />
		<tag k="ssr:stedsnr" v="693164" />
	</node>
	<node lat="59.72896388455067" lon="10.592555553330262" id="-27345">
		<tag k="fixme" v="multiple name tags, choose one and add the other to alt_name" />
		<tag k="name" v="Nordre Sandvika;Sandvika" />
		<tag k="place" v="isolated_dwelling" />
		<tag k="ssr:stedsnr" v="693167" />
	</node>
	<node lat="59.71722499744194" lon="10.71114444815566" id="-27346">
		<tag k="fixme" v="consider place=hamlet" />
		<tag k="name" v="Mien" />
		<tag k="place" v="farm" />
		<tag k="ssr:stedsnr" v="693290" />
	</node>
	<node lat="59.70703611132" lon="10.556941663661158" id="-27347">
		<tag k="name" v="Dragsundet" />
		<tag k="natural" v="bay" />
		<tag k="ssr:stedsnr" v="571144" />
	</node>
	<node lat="59.618750000789746" lon="10.651600007607835" id="-27348">
		<tag k="name" v="Børrebråten" />
		<tag k="place" v="isolated_dwelling" />
		<tag k="ssr:stedsnr" v="571006" />
	</node>
	<node lat="59.64904063080003" lon="10.635589738039664" id="-27349">
		<tag k="fixme" v="consider place=hamlet" />
		<tag k="name" v="Løkkedal" />
		<tag k="place" v="farm" />
		<tag k="ssr:stedsnr" v="571023" />
	</node>
	<node lat="59.68206388860817" lon="10.706100005283442" id="-27350">
		<tag k="name" v="Storgrava" />
		<tag k="ssr:stedsnr" v="584162" />
		<tag k="waterway" v="drain" />
	</node>
	<node lat="59.6879305588131" lon="10.609172227095382" id="-27351">
		<tag k="man_made" v="quay" />
		<tag k="name" v="Langebåt brygge" />
		<tag k="place" v="locality" />
		<tag k="ssr:stedsnr" v="584746" />
	</node>
	<node lat="59.71968055633243" lon="10.607708327694576" id="-27352">
		<tag k="name" v="Søndre Digerud" />
		<tag k="place" v="farm" />
		<tag k="ssr:stedsnr" v="585410" />
	</node>
	<node lat="59.72040000066114" lon="10.636816665146577" id="-27353">
		<tag k="name" v="Storrmyrbekken" />
		<tag k="ssr:stedsnr" v="585412" />
		<tag k="waterway" v="stream" />
	</node>
	<node lat="59.74218610744623" lon="10.644927780920954" id="-27354">
		<tag k="name" v="Gulbjørnrudbråten" />
		<tag k="place" v="farm" />
		<tag k="ssr:stedsnr" v="585951" />
	</node>
	<node lat="59.67162222584452" lon="10.621494437005426" id="-27355">
		<tag k="man_made" v="quay" />
		<tag k="name" v="Kopåsbrygga" />
		<tag k="place" v="locality" />
		<tag k="ssr:stedsnr" v="603402" />
	</node>
	<node lat="59.67495278184692" lon="10.679369438650985" id="-27356">
		<tag k="name" v="Nordre Kykkelsrud" />
		<tag k="place" v="farm" />
		<tag k="ssr:stedsnr" v="603567" />
	</node>
	<node lat="59.70946944094961" lon="10.747422217572861" id="-27357">
		<tag k="name" v="Askebakke" />
		<tag k="place" v="farm" />
		<tag k="ssr:stedsnr" v="609542" />
	</node>
	<node lat="59.62593611216236" lon="10.647463885383118" id="-27358">
		<tag k="name" v="Kjeppestadbukta" />
		<tag k="natural" v="bay" />
		<tag k="ssr:stedsnr" v="609643" />
	</node>
	<node lat="59.70317974655706" lon="10.742626027341533" id="-27359">
		<tag k="fixme" v="consider place=hamlet" />
		<tag k="name" v="Vassum" />
		<tag k="place" v="farm" />
		<tag k="ssr:stedsnr" v="610430" />
	</node>
	<node lat="59.71357777895004" lon="10.663219437168822" id="-27360">
		<tag k="name" v="Skyssrud" />
		<tag k="place" v="farm" />
		<tag k="ssr:stedsnr" v="610824" />
	</node>
	<node lat="59.75205000407986" lon="10.705183341948358" id="-27361">
		<tag k="name" v="Køya" />
		<tag k="old_name" v="Kjøya" />
		<tag k="place" v="farm" />
		<tag k="ssr:stedsnr" v="611608" />
	</node>
	<node lat="59.64977222372139" lon="10.665138883233116" id="-27362">
		<tag k="alt_name" v="Søndre Øyerud" />
		<tag k="name" v="Søndre Øyrud" />
		<tag k="place" v="farm" />
		<tag k="ssr:stedsnr" v="631032" />
	</node>
	<node lat="59.689616668521474" lon="10.606499991245887" id="-27363">
		<tag k="fixme" v="consider seamark:type=rock or natural=shoal" />
		<tag k="name" v="Kongen" />
		<tag k="place" v="islet" />
		<tag k="ssr:stedsnr" v="632119" />
	</node>
	<node lat="59.69081944193462" lon="10.627663884309435" id="-27364">
		<tag k="name" v="Ottarsrud" />
		<tag k="place" v="neighbourhood" />
		<tag k="ssr:stedsnr" v="640813" />
	</node>
	<node lat="59.7700527785005" lon="10.68273611860925" id="-27365">
		<tag k="name" v="Søndre Gullerud" />
		<tag k="place" v="farm" />
		<tag k="ssr:stedsnr" v="706279" />
	</node>
	<node lat="59.760222226341526" lon="10.678858334805918" id="-27366">
		<tag k="name" v="Granli" />
		<tag k="place" v="isolated_dwelling" />
		<tag k="ssr:stedsnr" v="706284" />
	</node>
	<node lat="59.6952333311871" lon="10.721697229003716" id="-27367">
		<tag k="fixme" v="consider boundary=protected_area and relevant protect_class if not nature reserve" />
		<tag k="leisure" v="nature_reserve" />
		<tag k="name" v="Danmark naturreservat" />
		<tag k="ssr:stedsnr" v="706358" />
	</node>
	<node lat="59.70651944573611" lon="10.688752778976655" id="-27368">
		<tag k="name" v="Limtjern" />
		<tag k="natural" v="water" />
		<tag k="ssr:stedsnr" v="706448" />
		<tag k="water" v="pond" />
	</node>
	<node lat="59.690102776792465" lon="10.624608324803928" id="-27369">
		<tag k="name" v="Svartvarpgrunnen" />
		<tag k="natural" v="shoal" />
		<tag k="place" v="locality" />
		<tag k="ssr:stedsnr" v="706451" />
	</node>
	<node lat="59.722833336369696" lon="10.691247221146574" id="-27370">
		<tag k="name" v="Stubberudkleiva" />
		<tag k="natural" v="slope" />
		<tag k="place" v="locality" />
		<tag k="ssr:stedsnr" v="706453" />
	</node>
	<node lat="59.750086111993994" lon="10.65083332562165" id="-27371">
		<tag k="name" v="Skjønhaug" />
		<tag k="place" v="farm" />
		<tag k="ssr:stedsnr" v="645414" />
	</node>
	<node lat="59.76098060511571" lon="10.654616844085663" id="-27372">
		<tag k="fixme" v="consider place=hamlet" />
		<tag k="name" v="Skog" />
		<tag k="place" v="farm" />
		<tag k="ssr:stedsnr" v="645415" />
	</node>
	<node lat="59.75308888789195" lon="10.6803888835453" id="-27373">
		<tag k="name" v="Tiurleiken" />
		<tag k="place" v="locality" />
		<tag k="ssr:stedsnr" v="645417" />
	</node>
	<node lat="59.67417222632255" lon="10.61856388554808" id="-27374">
		<tag k="name" v="Husvikbåen" />
		<tag k="place" v="locality" />
		<tag k="seamark:type" v="rock" />
		<tag k="ssr:stedsnr" v="645424" />
	</node>
	<node lat="59.717622226317914" lon="10.728022221014433" id="-27375">
		<tag k="name" v="Fossen" />
		<tag k="place" v="locality" />
		<tag k="ssr:stedsnr" v="645375" />
	</node>
	<node lat="59.68452777800884" lon="10.623627784395055" id="-27376">
		<tag k="name" v="Gylte" />
		<tag k="place" v="isolated_dwelling" />
		<tag k="ssr:stedsnr" v="645710" />
	</node>
	<node lat="59.68403888637381" lon="10.626997219792928" id="-27377">
		<tag k="name" v="Gylteåsen" />
		<tag k="place" v="neighbourhood" />
		<tag k="ssr:stedsnr" v="706715" />
	</node>
	<node lat="59.66463888452208" lon="10.626111105662352" id="-27379">
		<tag k="name" v="Kirkeberget" />
		<tag k="natural" v="hill" />
		<tag k="place" v="locality" />
		<tag k="ssr:stedsnr" v="706849" />
	</node>
	<node lat="59.66613333625359" lon="10.625949993534034" id="-27380">
		<tag k="name" v="Badeparken" />
		<tag k="natural" v="beach" />
		<tag k="ssr:stedsnr" v="706850" />
	</node>
	<node lat="59.62516667007696" lon="10.649097213616344" id="-27381">
		<tag k="name" v="Nedre Kjeppestaddam" />
		<tag k="natural" v="water" />
		<tag k="ssr:stedsnr" v="707452" />
	</node>
	<node lat="59.72076666245023" lon="10.607833337568449" id="-27382">
		<tag k="name" v="Nordre Digerud" />
		<tag k="place" v="farm" />
		<tag k="ssr:stedsnr" v="707467" />
	</node>
	<node lat="59.665591664121585" lon="10.636986111637825" id="-27383">
		<tag k="name" v="Karlsrud" />
		<tag k="place" v="quarter" />
		<tag k="ssr:stedsnr" v="664037" />
	</node>
	<node lat="59.67828333595831" lon="10.643394448795611" id="-27384">
		<tag k="name" v="Bjørndalen" />
		<tag k="natural" v="valley" />
		<tag k="place" v="locality" />
		<tag k="ssr:stedsnr" v="664384" />
	</node>
	<node lat="59.695033335864736" lon="10.603561114442158" id="-27385">
		<tag k="fixme" v="consider seamark:type=rock or natural=shoal" />
		<tag k="name" v="Sandbuktskjæret" />
		<tag k="place" v="islet" />
		<tag k="ssr:stedsnr" v="664523" />
	</node>
	<node lat="59.77244444447541" lon="10.71039167306541" id="-27386">
		<tag k="alt_name" v="Hasledammane" />
		<tag k="name" v="Haslumdammene" />
		<tag k="natural" v="water" />
		<tag k="ssr:stedsnr" v="664606" />
		<tag k="water" v="pond" />
	</node>
	<node lat="59.722791667361875" lon="10.545227769637224" id="-27387">
		<tag k="name" v="Flågrunnrenna" />
		<tag k="natural" v="strait" />
		<tag k="ssr:stedsnr" v="665836" />
	</node>
	<node lat="59.695650492418224" lon="10.6258127322709" id="-27388">
		<tag k="name" v="Skorogrunnen" />
		<tag k="natural" v="shoal" />
		<tag k="place" v="locality" />
		<tag k="ssr:stedsnr" v="693109" />
	</node>
	<node lat="59.70936111010613" lon="10.737855549778645" id="-27389">
		<tag k="bridge" v="yes" />
		<tag k="layer" v="1" />
		<tag k="name" v="Nordengbrua" />
		<tag k="ssr:stedsnr" v="896137" />
	</node>
	<node lat="59.71036842283993" lon="10.738262082959944" id="-27390">
		<tag k="layer" v="-1" />
		<tag k="name" v="Nordbytunnelen" />
		<tag k="ssr:stedsnr" v="703928" />
		<tag k="tunnel" v="yes" />
	</node>
	<node lat="59.73728055342932" lon="10.663438895575792" id="-27391">
		<tag k="fixme" v="consider natural=peak for the most distinct mountains in the district" />
		<tag k="name" v="Furukollen" />
		<tag k="natural" v="hill" />
		<tag k="place" v="locality" />
		<tag k="ssr:stedsnr" v="706408" />
	</node>
	<node lat="59.7494222237164" lon="10.696666672980323" id="-27392">
		<tag k="name" v="Dalsbakkene" />
		<tag k="natural" v="slope" />
		<tag k="place" v="locality" />
		<tag k="ssr:stedsnr" v="706417" />
	</node>
	<node lat="59.7464916643391" lon="10.708602773960848" id="-27393">
		<tag k="fixme" v="consider natural=peak for the most distinct mountains in the district" />
		<tag k="name" v="Fuglesangåsen" />
		<tag k="natural" v="hill" />
		<tag k="place" v="locality" />
		<tag k="ssr:stedsnr" v="706418" />
	</node>
	<node lat="59.67676944494369" lon="10.638650007827394" id="-27394">
		<tag k="alt_name" v="Kvernerdammen" />
		<tag k="name" v="Kverndammen" />
		<tag k="natural" v="water" />
		<tag k="ssr:stedsnr" v="706459" />
	</node>
	<node lat="59.726700001518616" lon="10.69435834090512" id="-27395">
		<tag k="name" v="Berger" />
		<tag k="place" v="farm" />
		<tag k="ssr:stedsnr" v="706461" />
	</node>
	<node lat="59.63875832898163" lon="10.639491670206603" id="-27396">
		<tag k="fixme" v="multiple name tags, choose one and add the other to alt_name" />
		<tag k="name" v="Skiphelleodden;Elleodden" />
		<tag k="natural" v="cape" />
		<tag k="ssr:stedsnr" v="706879" />
	</node>
	<node lat="59.67441944060621" lon="10.680441664475033" id="-27397">
		<tag k="name" v="Søndre Kykkelsrud" />
		<tag k="place" v="farm" />
		<tag k="ssr:stedsnr" v="725532" />
	</node>
	<node lat="59.699269441849026" lon="10.58831945071806" id="-27398">
		<tag k="name" v="Askholmgrunnen" />
		<tag k="natural" v="shoal" />
		<tag k="place" v="locality" />
		<tag k="ssr:stedsnr" v="725803" />
	</node>
	<node lat="59.685666667715815" lon="10.60845832770022" id="-27399">
		<tag k="fixme" v="consider seamark:type=rock or natural=shoal" />
		<tag k="name" v="Langebåt" />
		<tag k="place" v="islet" />
		<tag k="ssr:stedsnr" v="731763" />
	</node>
	<node lat="59.71182222525868" lon="10.600363896776088" id="-27400">
		<tag k="name" v="Sønderstøa" />
		<tag k="place" v="isolated_dwelling" />
		<tag k="ssr:stedsnr" v="731803" />
	</node>
	<node lat="59.70895555414871" lon="10.608824994283372" id="-27401">
		<tag k="fixme" v="multiple name tags, choose one and add the other to alt_name" />
		<tag k="name" v="Sønderstødammen;Søndre Sønderstødam" />
		<tag k="natural" v="water" />
		<tag k="ssr:stedsnr" v="731802" />
	</node>
	<node lat="59.6994432877743" lon="10.722997313217931" id="-27402">
		<tag k="alt_name" v="Frogn" />
		<tag k="amenity" v="place_of_worship" />
		<tag k="denomination" v="lutheran" />
		<tag k="name" v="Frogn kirke" />
		<tag k="religion" v="christian" />
		<tag k="ssr:stedsnr" v="732420" />
	</node>
	<node lat="59.69615277768969" lon="10.707050000120976" id="-27404">
		<tag k="name" v="Vestre Bjerke" />
		<tag k="place" v="farm" />
		<tag k="ssr:stedsnr" v="907126" />
	</node>
	<node lat="59.6350861151882" lon="10.672213890218494" id="-27405">
		<tag k="name" v="Nedre Kroksrud" />
		<tag k="place" v="farm" />
		<tag k="ssr:stedsnr" v="767506" />
	</node>
	<node lat="59.63565833078902" lon="10.6737499975051" id="-27406">
		<tag k="name" v="Nedre Solberg" />
		<tag k="place" v="farm" />
		<tag k="ssr:stedsnr" v="767509" />
	</node>
	<node lat="59.66525555920094" lon="10.627080557146387" id="-27407">
		<tag k="amenity" v="place_of_worship" />
		<tag k="denomination" v="lutheran" />
		<tag k="name" v="Drøbak kirke" />
		<tag k="religion" v="christian" />
		<tag k="ssr:stedsnr" v="767855" />
	</node>
	<node lat="59.67758611440169" lon="10.606794436367693" id="-27408">
		<tag k="landuse" v="military" />
		<tag k="name" v="Nordre Oscarsborg" />
		<tag k="ssr:stedsnr" v="907360" />
	</node>
	<node lat="59.68029722304101" lon="10.649708332771379" id="-27409">
		<tag k="name" v="Øvredam" />
		<tag k="natural" v="water" />
		<tag k="ssr:stedsnr" v="907533" />
	</node>
	<node lat="59.672011111885936" lon="10.642980553138019" id="-27410">
		<tag k="name" v="Follo museum" />
		<tag k="ssr:stedsnr" v="907371" />
		<tag k="tourism" v="museum" />
	</node>
	<node lat="59.6692722230224" lon="10.644266659858477" id="-27411">
		<tag k="name" v="Ullerudtjernet" />
		<tag k="natural" v="water" />
		<tag k="ssr:stedsnr" v="907372" />
	</node>
	<node lat="59.71374444293693" lon="10.563086106320608" id="-27412">
		<tag k="name" v="Selskjærbukta" />
		<tag k="natural" v="bay" />
		<tag k="ssr:stedsnr" v="907833" />
	</node>
	<node lat="59.67469722252373" lon="10.656286104905185" id="-27413">
		<tag k="bridge" v="yes" />
		<tag k="layer" v="1" />
		<tag k="name" v="Horgen" />
		<tag k="ssr:stedsnr" v="774160" />
	</node>
	<node lat="59.69800555430125" lon="10.65568055480254" id="-27414">
		<tag k="name" v="Søndre Dammen" />
		<tag k="place" v="farm" />
		<tag k="ssr:stedsnr" v="908892" />
	</node>
	<node lat="59.68578333663148" lon="10.676019447686663" id="-27415">
		<tag k="name" v="Nedre Tomter" />
		<tag k="place" v="farm" />
		<tag k="ssr:stedsnr" v="786136" />
	</node>
	<node lat="59.754775002440525" lon="10.717497224636675" id="-27416">
		<tag k="name" v="Brevikflua" />
		<tag k="natural" v="shoal" />
		<tag k="place" v="locality" />
		<tag k="ssr:stedsnr" v="786447" />
	</node>
	<node lat="59.66834444233112" lon="10.643758340870738" id="-27417">
		<tag k="alt_name" v="Ullerud nordre" />
		<tag k="name" v="Nordre Ullerud" />
		<tag k="place" v="farm" />
		<tag k="ssr:stedsnr" v="786461" />
	</node>
	<node lat="59.67242222380183" lon="10.69263054976929" id="-27418">
		<tag k="name" v="Søndre Ermesø" />
		<tag k="place" v="farm" />
		<tag k="ssr:stedsnr" v="786604" />
	</node>
	<node lat="59.69830833102085" lon="10.554511103911262" id="-27419">
		<tag k="name" v="Tåjegrunnen" />
		<tag k="natural" v="shoal" />
		<tag k="place" v="locality" />
		<tag k="ssr:stedsnr" v="786857" />
	</node>
	<node lat="59.697941668985266" lon="10.610291668831831" id="-27420">
		<tag k="name" v="Båtstøfeltet" />
		<tag k="place" v="neighbourhood" />
		<tag k="ssr:stedsnr" v="786860" />
	</node>
	<node lat="59.701686110907346" lon="10.656483326666057" id="-27421">
		<tag k="name" v="Nordre Dammen" />
		<tag k="place" v="farm" />
		<tag k="ssr:stedsnr" v="786863" />
	</node>
	<node lat="59.689314634070584" lon="10.744510114016146" id="-27422">
		<tag k="name" v="Årungen" />
		<tag k="natural" v="water" />
		<tag k="ssr:stedsnr" v="792399" />
		<tag k="water" v="lake" />
	</node>
	<node lat="59.7567527801603" lon="10.68820834090484" id="-27423">
		<tag k="alt_name" v="Garder, søndre" />
		<tag k="name" v="Søndre Garder" />
		<tag k="place" v="farm" />
		<tag k="ssr:stedsnr" v="794603" />
	</node>
	<node lat="59.70344444182301" lon="10.584608333552948" id="-27424">
		<tag k="name" v="Askholmflaket" />
		<tag k="natural" v="shoal" />
		<tag k="place" v="locality" />
		<tag k="ssr:stedsnr" v="797843" />
	</node>
	<node lat="59.695780556119004" lon="10.681330547774232" id="-27425">
		<tag k="name" v="Kalfausen" />
		<tag k="natural" v="water" />
		<tag k="ssr:stedsnr" v="913754" />
	</node>
	<node lat="59.67928611105186" lon="10.67041666475634" id="-27426">
		<tag k="name" v="Flater" />
		<tag k="place" v="farm" />
		<tag k="ssr:stedsnr" v="913759" />
	</node>
	<node lat="59.685458336633644" lon="10.57577778449887" id="-27427">
		<tag k="alt_name" v="Sæterdalen" />
		<tag k="name" v="Sætersdalen" />
		<tag k="natural" v="valley" />
		<tag k="place" v="locality" />
		<tag k="ssr:stedsnr" v="913764" />
	</node>
	<node lat="59.729002766550046" lon="10.704247338301899" id="-27428">
		<tag k="fixme" v="consider place=hamlet" />
		<tag k="name" v="Bøler" />
		<tag k="place" v="farm" />
		<tag k="ssr:stedsnr" v="913766" />
	</node>
	<node lat="59.730841664328146" lon="10.67190833109356" id="-27429">
		<tag k="name" v="Dalen" />
		<tag k="place" v="farm" />
		<tag k="ssr:stedsnr" v="913772" />
	</node>
	<node lat="59.71778055514135" lon="10.566861102709217" id="-27430">
		<tag k="alt_name" v="Rissan" />
		<tag k="name" v="Ristodden" />
		<tag k="natural" v="cape" />
		<tag k="ssr:stedsnr" v="913776" />
	</node>
	<node lat="59.74539999608454" lon="10.561588893544307" id="-27431">
		<tag k="name" v="Sydvestgrunnen" />
		<tag k="natural" v="shoal" />
		<tag k="place" v="locality" />
		<tag k="ssr:stedsnr" v="913958" />
	</node>
	<node lat="59.71166944155497" lon="10.722505557146201" id="-27432">
		<tag k="fixme" v="consider natural=peak for the most distinct mountains in the district" />
		<tag k="name" v="Nymøllåsen" />
		<tag k="natural" v="hill" />
		<tag k="place" v="locality" />
		<tag k="ssr:stedsnr" v="914583" />
	</node>
	<node lat="59.67468055268178" lon="10.588377781731845" id="-27433">
		<tag k="name" v="Bergholmen" />
		<tag k="place" v="islet" />
		<tag k="ssr:stedsnr" v="914849" />
	</node>
	<node lat="59.675290435615544" lon="10.64627084239986" id="-27434">
		<tag k="name" v="Belsjø" />
		<tag k="place" v="hamlet" />
		<tag k="ssr:stedsnr" v="914862" />
	</node>
	<node lat="59.76004722026927" lon="10.544472218589728" id="-27435">
		<tag k="name" v="Langårgrunnane" />
		<tag k="natural" v="shoal" />
		<tag k="place" v="locality" />
		<tag k="ssr:stedsnr" v="915615" />
	</node>
	<node lat="59.70423333057124" lon="10.653091674012693" id="-27436">
		<tag k="name" v="Spervika" />
		<tag k="place" v="hamlet" />
		<tag k="ssr:stedsnr" v="828381" />
	</node>
	<node lat="59.71975555596714" lon="10.602397219324375" id="-27437">
		<tag k="name" v="Bråtan" />
		<tag k="place" v="farm" />
		<tag k="ssr:stedsnr" v="828505" />
	</node>
	<node lat="59.64809166484411" lon="10.680580557754347" id="-27438">
		<tag k="junction" v="yes" />
		<tag k="name" v="Solberg" />
		<tag k="place" v="locality" />
		<tag k="ssr:stedsnr" v="828510" />
	</node>
	<node lat="59.73598888992295" lon="10.715805561469445" id="-27439">
		<tag k="name" v="Nedre Knardal" />
		<tag k="place" v="farm" />
		<tag k="ssr:stedsnr" v="828410" />
	</node>
	<node lat="59.739611113743365" lon="10.67086945072932" id="-27440">
		<tag k="name" v="Mellom-Lindebråte" />
		<tag k="place" v="farm" />
		<tag k="ssr:stedsnr" v="828413" />
	</node>
	<node lat="59.749827782050055" lon="10.645697226209892" id="-27441">
		<tag k="name" v="Vestre Kopperud" />
		<tag k="place" v="farm" />
		<tag k="ssr:stedsnr" v="828416" />
	</node>
	<node lat="59.701522221175445" lon="10.73737499647466" id="-27442">
		<tag k="bridge" v="yes" />
		<tag k="layer" v="1" />
		<tag k="name" v="Froen" />
		<tag k="ssr:stedsnr" v="835144" />
	</node>
	<node lat="59.72761944860852" lon="10.697661114042257" id="-27444">
		<tag k="alt_name" v="Bølerengen" />
		<tag k="name" v="Bølerenga" />
		<tag k="place" v="farm" />
		<tag k="ssr:stedsnr" v="847476" />
	</node>
	<node lat="59.71962457616822" lon="10.719939992424742" id="-27445">
		<tag k="fixme" v="consider place=hamlet" />
		<tag k="name" v="Flespjeld" />
		<tag k="place" v="farm" />
		<tag k="ssr:stedsnr" v="853559" />
	</node>
	<node lat="59.7060895097969" lon="10.70172947116403" id="-27447">
		<tag k="fixme" v="consider place=hamlet" />
		<tag k="name" v="Skjellerud" />
		<tag k="place" v="farm" />
		<tag k="ssr:stedsnr" v="853801" />
	</node>
	<node lat="59.755047219462156" lon="10.563144448651366" id="-27448">
		<tag k="alt_name" v="Langåra" />
		<tag k="name" v="Søndre Langåra" />
		<tag k="place" v="island" />
		<tag k="ssr:stedsnr" v="854503" />
	</node>
	<node lat="59.71143055407683" lon="10.690405561973225" id="-27449">
		<tag k="name" v="Krøkle" />
		<tag k="natural" v="water" />
		<tag k="ssr:stedsnr" v="869978" />
	</node>
	<node lat="59.70689721852607" lon="10.711027779292712" id="-27450">
		<tag k="name" v="Rommerud" />
		<tag k="place" v="locality" />
		<tag k="ssr:stedsnr" v="869980" />
	</node>
	<node lat="59.68402967733327" lon="10.711626495535846" id="-27451">
		<tag k="alt_name" v="Bakker bro" />
		<tag k="bridge" v="yes" />
		<tag k="layer" v="1" />
		<tag k="name" v="Bakker bru" />
		<tag k="ssr:stedsnr" v="888124" />
	</node>
	<node lat="59.70229999631721" lon="10.628983337803229" id="-27452">
		<tag k="alt_name" v="Pollebukta" />
		<tag k="name" v="Pollen" />
		<tag k="natural" v="bay" />
		<tag k="ssr:stedsnr" v="935210" />
	</node>
	<node lat="59.71544999853099" lon="10.710166662805042" id="-27453">
		<tag k="name" v="Rundvoll" />
		<tag k="place" v="isolated_dwelling" />
		<tag k="ssr:stedsnr" v="935215" />
	</node>
	<node lat="59.75516388919666" lon="10.668458340555432" id="-27454">
		<tag k="name" v="Søndre Kai" />
		<tag k="place" v="farm" />
		<tag k="ssr:stedsnr" v="888261" />
	</node>
	<node lat="59.73252499716023" lon="10.676508339334676" id="-27455">
		<tag k="fixme" v="consider natural=peak for the most distinct mountains in the district" />
		<tag k="name" v="Flaggstangåsen" />
		<tag k="natural" v="hill" />
		<tag k="place" v="locality" />
		<tag k="ssr:stedsnr" v="888396" />
	</node>
	<node lat="59.76085833774779" lon="10.697744436012087" id="-27456">
		<tag k="name" v="Endre" />
		<tag k="place" v="isolated_dwelling" />
		<tag k="ssr:stedsnr" v="888415" />
	</node>
	<node lat="59.65558333035214" lon="10.668566662754355" id="-27457">
		<tag k="name" v="Skansen" />
		<tag k="natural" v="hill" />
		<tag k="place" v="locality" />
		<tag k="ssr:stedsnr" v="889524" />
	</node>
	<node lat="59.66723889118086" lon="10.633158331083253" id="-27458">
		<tag k="name" v="Holmåsen" />
		<tag k="natural" v="hill" />
		<tag k="place" v="locality" />
		<tag k="ssr:stedsnr" v="889853" />
	</node>
	<node lat="59.69814444587403" lon="10.634522225142176" id="-27459">
		<tag k="name" v="Holmebukta" />
		<tag k="natural" v="bay" />
		<tag k="ssr:stedsnr" v="908649" />
	</node>
	<node lat="59.704930557535555" lon="10.600313893731794" id="-27460">
		<tag k="name" v="Marikoven" />
		<tag k="place" v="isolated_dwelling" />
		<tag k="ssr:stedsnr" v="913733" />
	</node>
	<node lat="59.71743333146708" lon="10.660552785303421" id="-27461">
		<tag k="name" v="Holtbråten" />
		<tag k="place" v="farm" />
		<tag k="ssr:stedsnr" v="913790" />
	</node>
	<node lat="59.71153611293508" lon="10.564350007029548" id="-27462">
		<tag k="alt_name" v="Selskjæret" />
		<tag k="name" v="Selskjæra" />
		<tag k="place" v="islet" />
		<tag k="ssr:stedsnr" v="913801" />
	</node>
	<node lat="59.6393527744183" lon="10.675313896904072" id="-27463">
		<tag k="fixme" v="multiple name tags, choose one and add the other to alt_name" />
		<tag k="name" v="Eike-Solberg;Øvre Solberg" />
		<tag k="place" v="farm" />
		<tag k="ssr:stedsnr" v="914705" />
	</node>
	<node lat="59.66411569109839" lon="10.684575438629508" id="-27464">
		<tag k="fixme" v="consider place=hamlet" />
		<tag k="name" v="Fjøser" />
		<tag k="place" v="farm" />
		<tag k="ssr:stedsnr" v="914875" />
	</node>
	<node lat="59.76994721776968" lon="10.693630559007284" id="-27465">
		<tag k="name" v="Sagstua" />
		<tag k="place" v="farm" />
		<tag k="ssr:stedsnr" v="915603" />
	</node>
	<node lat="59.69410000393145" lon="10.628141661096254" id="-27467">
		<tag k="name" v="Furuholmen" />
		<tag k="place" v="islet" />
		<tag k="ssr:stedsnr" v="935048" />
	</node>
	<node lat="59.680055554670105" lon="10.625116659878174" id="-27468">
		<tag k="name" v="Kastet" />
		<tag k="place" v="locality" />
		<tag k="ssr:stedsnr" v="935052" />
	</node>
	<node lat="59.676677781223304" lon="10.58844167142414" id="-27469">
		<tag k="alt_name" v="Orrekleiva" />
		<tag k="name" v="Orrekloa" />
		<tag k="place" v="isolated_dwelling" />
		<tag k="ssr:stedsnr" v="936091" />
	</node>
	<node lat="59.692755559305404" lon="10.606205552124175" id="-27470">
		<tag k="name" v="Sandbukta" />
		<tag k="natural" v="bay" />
		<tag k="ssr:stedsnr" v="936095" />
	</node>
	<node lat="59.74838055514421" lon="10.66938334049243" id="-27471">
		<tag k="name" v="Tassehorn" />
		<tag k="place" v="locality" />
		<tag k="ssr:stedsnr" v="949381" />
	</node>
	<node lat="59.75128610960098" lon="10.679530563035721" id="-27472">
		<tag k="name" v="Veslemåsan" />
		<tag k="natural" v="wetland" />
		<tag k="ssr:stedsnr" v="949382" />
	</node>
	<node lat="59.719611107326614" lon="10.589763890195142" id="-27473">
		<tag k="name" v="Sollia" />
		<tag k="place" v="farm" />
		<tag k="ssr:stedsnr" v="949511" />
	</node>
	<node lat="59.669513886123916" lon="10.626986119558595" id="-27474">
		<tag k="amenity" v="nursing_home" />
		<tag k="name" v="Grande" />
		<tag k="ssr:stedsnr" v="949830" />
	</node>
	<node lat="59.689166669358904" lon="10.676241668031128" id="-27475">
		<tag k="name" v="Østre Oppegård" />
		<tag k="place" v="farm" />
		<tag k="ssr:stedsnr" v="968150" />
	</node>
	<node lat="59.69141111107322" lon="10.651427779054748" id="-27476">
		<tag k="name" v="Måna" />
		<tag k="place" v="isolated_dwelling" />
		<tag k="ssr:stedsnr" v="968638" />
	</node>
	<node lat="59.703174997692024" lon="10.557544451028233" id="-27477">
		<tag k="fixme" v="consider natural=peak for the most distinct mountains in the district" />
		<tag k="name" v="Svanehalsen" />
		<tag k="natural" v="hill" />
		<tag k="place" v="locality" />
		<tag k="ssr:stedsnr" v="968842" />
	</node>
	<node lat="59.684575391876244" lon="10.689908010445658" id="-27482">
		<tag k="fixme" v="consider place=hamlet" />
		<tag k="name" v="Roksrud" />
		<tag k="place" v="farm" />
		<tag k="ssr:stedsnr" v="3847" />
	</node>
	<node lat="59.640964227501414" lon="10.654974474577742" id="-27483">
		<tag k="fixme" v="consider place=hamlet" />
		<tag k="name" v="Leium" />
		<tag k="place" v="farm" />
		<tag k="ssr:stedsnr" v="3647" />
	</node>
	<node lat="59.72048182340255" lon="10.608556766995507" id="-27484">
		<tag k="fixme" v="consider place=hamlet" />
		<tag k="name" v="Digerud" />
		<tag k="place" v="farm" />
		<tag k="ssr:stedsnr" v="3796" />
	</node>
	<node lat="59.74243861656921" lon="10.714866369434592" id="-27485">
		<tag k="fixme" v="consider place=hamlet" />
		<tag k="name" v="Fuglesang" />
		<tag k="place" v="farm" />
		<tag k="ssr:stedsnr" v="3947" />
	</node>
	<node lat="59.75928127869884" lon="10.68655499971719" id="-27486">
		<tag k="alt_name" v="Garder, vestre" />
		<tag k="name" v="Vestre Garder" />
		<tag k="place" v="farm" />
		<tag k="ssr:stedsnr" v="4600" />
	</node>
	<node lat="59.75040555565262" lon="10.678613896073479" id="-27487">
		<tag k="name" v="Måsan" />
		<tag k="old_name" v="Mosen" />
		<tag k="place" v="isolated_dwelling" />
		<tag k="ssr:stedsnr" v="5591" />
	</node>
	<node lat="59.68902499746253" lon="10.623827780185131" id="-27489">
		<tag k="fixme" v="consider seamark:type=rock or natural=shoal" />
		<tag k="name" v="Gylteskjæra" />
		<tag k="place" v="islet" />
		<tag k="ssr:stedsnr" v="25059" />
	</node>
	<node lat="59.742783334722745" lon="10.720316658937081" id="-27490">
		<tag k="name" v="Ånebakke" />
		<tag k="place" v="isolated_dwelling" />
		<tag k="ssr:stedsnr" v="25246" />
	</node>
	<node lat="59.74758611013361" lon="10.715652784852367" id="-27491">
		<tag k="name" v="Nordli" />
		<tag k="place" v="isolated_dwelling" />
		<tag k="ssr:stedsnr" v="39398" />
	</node>
	<node lat="59.696577778087885" lon="10.732197229146143" id="-27492">
		<tag k="fixme" v="consider boundary=protected_area and relevant protect_class if not nature reserve" />
		<tag k="leisure" v="nature_reserve" />
		<tag k="name" v="Smihagen naturreservat" />
		<tag k="ssr:stedsnr" v="39329" />
	</node>
	<node lat="59.71362499692677" lon="10.727283327062715" id="-27493">
		<tag k="name" v="Nymølldammen" />
		<tag k="natural" v="water" />
		<tag k="ssr:stedsnr" v="39333" />
	</node>
	<node lat="59.68220000355871" lon="10.637652774278171" id="-27494">
		<tag k="alt_name" v="Øvredam" />
		<tag k="name" v="Øvredammen" />
		<tag k="natural" v="water" />
		<tag k="ssr:stedsnr" v="39435" />
	</node>
	<node lat="59.729172222034684" lon="10.641888884736165" id="-27495">
		<tag k="name" v="Størrmyra" />
		<tag k="natural" v="wetland" />
		<tag k="ssr:stedsnr" v="39437" />
	</node>
	<node lat="59.72600277969828" lon="10.639633329878073" id="-27496">
		<tag k="alt_name" v="Hållangsbekken" />
		<tag k="name" v="Hallangsbekken" />
		<tag k="ssr:stedsnr" v="39955" />
		<tag k="waterway" v="stream" />
	</node>
	<node lat="59.70837499727411" lon="10.737091666730576" id="-27497">
		<tag k="bridge" v="yes" />
		<tag k="layer" v="1" />
		<tag k="name" v="Vassum" />
		<tag k="ssr:stedsnr" v="46150" />
	</node>
	<node lat="59.664344448783446" lon="10.6347416748433" id="-27498">
		<tag k="name" v="Holmåsen" />
		<tag k="place" v="quarter" />
		<tag k="ssr:stedsnr" v="58042" />
	</node>
	<node lat="59.69273888798215" lon="10.702877770835709" id="-27499">
		<tag k="name" v="Østre Huseby" />
		<tag k="place" v="farm" />
		<tag k="ssr:stedsnr" v="58143" />
	</node>
	<node lat="59.6168416683929" lon="10.654025005468416" id="-27500">
		<tag k="name" v="Sagakollen" />
		<tag k="natural" v="hill" />
		<tag k="place" v="locality" />
		<tag k="ssr:stedsnr" v="58287" />
	</node>
	<node lat="59.75291666492277" lon="10.71458888460819" id="-27501">
		<tag k="name" v="Brevikbukta" />
		<tag k="natural" v="bay" />
		<tag k="ssr:stedsnr" v="58465" />
	</node>
	<node lat="59.70643889271025" lon="10.554177780539893" id="-27502">
		<tag k="name" v="Dragsundodden" />
		<tag k="natural" v="cape" />
		<tag k="ssr:stedsnr" v="58848" />
	</node>
	<node lat="59.68028000328801" lon="10.707713855859586" id="-27503">
		<tag k="fixme" v="consider place=hamlet" />
		<tag k="name" v="Klunderud" />
		<tag k="place" v="farm" />
		<tag k="ssr:stedsnr" v="63840" />
	</node>
	<node lat="59.65636944320896" lon="10.645355555760563" id="-27504">
		<tag k="fixme" v="consider boundary=protected_area and relevant protect_class if not nature reserve" />
		<tag k="leisure" v="nature_reserve" />
		<tag k="name" v="Nordre Sogsti naturminne" />
		<tag k="ssr:stedsnr" v="69419" />
	</node>
	<node lat="59.675097218558804" lon="10.598788881653284" id="-27505">
		<tag k="name" v="Håøytangen" />
		<tag k="natural" v="cape" />
		<tag k="ssr:stedsnr" v="85859" />
	</node>
	<node lat="59.63851667058085" lon="10.643824991581582" id="-27506">
		<tag k="name" v="Skiphelle" />
		<tag k="ssr:stedsnr" v="86021" />
		<tag k="tourism" v="hotel" />
	</node>
	<node lat="59.63032893723829" lon="10.663308125307276" id="-27507">
		<tag k="name" v="Kroksrudsand" />
		<tag k="place" v="locality" />
		<tag k="ssr:stedsnr" v="86022" />
	</node>
	<node lat="59.70026388981975" lon="10.601677770523395" id="-27508">
		<tag k="name" v="Revjeodden" />
		<tag k="natural" v="cape" />
		<tag k="ssr:stedsnr" v="86137" />
	</node>
	<node lat="59.72720833302675" lon="10.589147221669773" id="-27509">
		<tag k="name" v="Sandtangen" />
		<tag k="natural" v="cape" />
		<tag k="ssr:stedsnr" v="86140" />
	</node>
	<node lat="59.6920527797547" lon="10.610649996884025" id="-27510">
		<tag k="name" v="Langebåtfeltet" />
		<tag k="place" v="hamlet" />
		<tag k="ssr:stedsnr" v="95782" />
	</node>
	<node lat="59.74396111464975" lon="10.672863892699171" id="-27511">
		<tag k="fixme" v="consider natural=peak for the most distinct mountains in the district" />
		<tag k="name" v="Saraåsen" />
		<tag k="natural" v="hill" />
		<tag k="place" v="locality" />
		<tag k="ssr:stedsnr" v="99455" />
	</node>
	<node lat="59.74922778184106" lon="10.649136120146904" id="-27512">
		<tag k="name" v="Østre Kopperud" />
		<tag k="place" v="farm" />
		<tag k="ssr:stedsnr" v="99459" />
	</node>
	<node lat="59.6912784251855" lon="10.592079366101075" id="-27513">
		<tag k="alt_name" v="Tronstadåsen" />
		<tag k="name" v="Tronstadodden" />
		<tag k="natural" v="cape" />
		<tag k="ssr:stedsnr" v="99556" />
	</node>
	<node lat="59.71980000140823" lon="10.62057222990646" id="-27514">
		<tag k="name" v="Østskogen" />
		<tag k="place" v="hamlet" />
		<tag k="ssr:stedsnr" v="100439" />
	</node>
	<node lat="59.67442222115367" lon="10.622269441810092" id="-27515">
		<tag k="name" v="Husvik" />
		<tag k="place" v="isolated_dwelling" />
		<tag k="ssr:stedsnr" v="100442" />
	</node>
	<node lat="59.629827775405815" lon="10.663333326381869" id="-27516">
		<tag k="name" v="Nedre Kroksrudsand" />
		<tag k="place" v="farm" />
		<tag k="ssr:stedsnr" v="100499" />
	</node>
	<node lat="59.66826111172941" lon="10.635480555736189" id="-27517">
		<tag k="leisure" v="pitch" />
		<tag k="name" v="Seiersten stadion" />
		<tag k="ssr:stedsnr" v="100823" />
	</node>
	<node lat="59.643908331842155" lon="10.63647777453311" id="-27518">
		<tag k="name" v="Ellebukta" />
		<tag k="natural" v="bay" />
		<tag k="ssr:stedsnr" v="100849" />
	</node>
	<node lat="59.77535555663726" lon="10.712355561899685" id="-27520">
		<tag k="name" v="Sindingbukta" />
		<tag k="natural" v="bay" />
		<tag k="ssr:stedsnr" v="117762" />
	</node>
	<node lat="59.675500000045425" lon="10.648211114693023" id="-27521">
		<tag k="name" v="Søndre Belsjø" />
		<tag k="place" v="farm" />
		<tag k="ssr:stedsnr" v="118380" />
	</node>
	<node lat="59.62043055384579" lon="10.662036107365246" id="-27522">
		<tag k="fixme" v="consider natural=peak for the most distinct mountains in the district" />
		<tag k="name" v="Sagaåsen" />
		<tag k="natural" v="hill" />
		<tag k="place" v="locality" />
		<tag k="ssr:stedsnr" v="119253" />
	</node>
	<node lat="59.65523611252624" lon="10.642797220503283" id="-27523">
		<tag k="name" v="Søndre Sogsti" />
		<tag k="place" v="farm" />
		<tag k="ssr:stedsnr" v="118515" />
	</node>
	<node lat="59.66537777831021" lon="10.628275000223569" id="-27524">
		<tag k="amenity" v="nursing_home" />
		<tag k="name" v="Frogn eldresenter" />
		<tag k="ssr:stedsnr" v="118519" />
	</node>
	<node lat="59.66290833615915" lon="10.66948333681444" id="-27525">
		<tag k="name" v="Nordre Skorkeberg" />
		<tag k="place" v="farm" />
		<tag k="ssr:stedsnr" v="118538" />
	</node>
	<node lat="59.642630554732094" lon="10.65030833836783" id="-27526">
		<tag k="name" v="Leiumåsen" />
		<tag k="place" v="quarter" />
		<tag k="ssr:stedsnr" v="118953" />
	</node>
	<node lat="59.61756389124912" lon="10.656488882759236" id="-27527">
		<tag k="name" v="Køyta" />
		<tag k="place" v="isolated_dwelling" />
		<tag k="ssr:stedsnr" v="119865" />
	</node>
	<node lat="59.719416667128726" lon="10.615397219403754" id="-27528">
		<tag k="name" v="Digerudtjern" />
		<tag k="natural" v="water" />
		<tag k="ssr:stedsnr" v="119908" />
	</node>
	<node lat="59.71538889008143" lon="10.559461115539165" id="-27529">
		<tag k="alt_name" v="Håøya, nordre" />
		<tag k="name" v="Nordre Håøya" />
		<tag k="place" v="island" />
		<tag k="ssr:stedsnr" v="124780" />
	</node>
	<node lat="59.70332221934947" lon="10.697780552628446" id="-27530">
		<tag k="name" v="Steinhuk" />
		<tag k="place" v="farm" />
		<tag k="ssr:stedsnr" v="124701" />
	</node>
	<node lat="59.6858954479866" lon="10.562525340684028" id="-27531">
		<tag k="name" v="Møkkalassa" />
		<tag k="place" v="islet" />
		<tag k="ssr:stedsnr" v="124736" />
	</node>
	<node lat="59.74485944001428" lon="10.69919539826696" id="-27532">
		<tag k="name" v="Dal" />
		<tag k="place" v="hamlet" />
		<tag k="ssr:stedsnr" v="124932" />
	</node>
	<node lat="59.74748055677826" lon="10.566952784441504" id="-27533">
		<tag k="name" v="Sydostgrunnen" />
		<tag k="natural" v="shoal" />
		<tag k="place" v="locality" />
		<tag k="ssr:stedsnr" v="124943" />
	</node>
	<node lat="59.75077499948079" lon="10.661813895517016" id="-27534">
		<tag k="name" v="Myrvoll" />
		<tag k="place" v="isolated_dwelling" />
		<tag k="ssr:stedsnr" v="126597" />
	</node>
	<node lat="59.76356666532718" lon="10.711950007451712" id="-27535">
		<tag k="name" v="Glennestranda" />
		<tag k="natural" v="beach" />
		<tag k="ssr:stedsnr" v="146246" />
	</node>
	<node lat="59.70480555452442" lon="10.628341670267723" id="-27536">
		<tag k="name" v="Høybråtenfeltet" />
		<tag k="place" v="quarter" />
		<tag k="ssr:stedsnr" v="160349" />
	</node>
	<node lat="59.682941670693694" lon="10.700674993139623" id="-27537">
		<tag k="name" v="Søndre Rød" />
		<tag k="place" v="farm" />
		<tag k="ssr:stedsnr" v="160127" />
	</node>
	<node lat="59.766491669281386" lon="10.694844436836041" id="-27538">
		<tag k="name" v="Høyendal" />
		<tag k="place" v="isolated_dwelling" />
		<tag k="ssr:stedsnr" v="160255" />
	</node>
	<node lat="59.77114722241141" lon="10.682772218752136" id="-27539">
		<tag k="name" v="Nordre Gullerud" />
		<tag k="place" v="farm" />
		<tag k="ssr:stedsnr" v="160257" />
	</node>
	<node lat="59.704336108778335" lon="10.735780560463796" id="-27540">
		<tag k="name" v="Frydenlund" />
		<tag k="place" v="farm" />
		<tag k="ssr:stedsnr" v="160339" />
	</node>
	<node lat="59.70563610930562" lon="10.738691669166608" id="-27541">
		<tag k="name" v="Mølla" />
		<tag k="place" v="locality" />
		<tag k="ssr:stedsnr" v="160341" />
	</node>
	<node lat="59.718250004492226" lon="10.6253861114288" id="-27542">
		<tag k="name" v="Nordre Hallangen" />
		<tag k="place" v="hamlet" />
		<tag k="ssr:stedsnr" v="160342" />
	</node>
	<node lat="59.668458333284754" lon="10.625211107749767" id="-27543">
		<tag k="name" v="Skrivarbukta" />
		<tag k="natural" v="bay" />
		<tag k="ssr:stedsnr" v="160404" />
	</node>
	<node lat="59.70566388961581" lon="10.662902780629835" id="-27544">
		<tag k="name" v="Holthagen" />
		<tag k="place" v="farm" />
		<tag k="ssr:stedsnr" v="160408" />
	</node>
	<node lat="59.70473889047059" lon="10.707700004184796" id="-27545">
		<tag k="name" v="Rommerudhagen" />
		<tag k="place" v="locality" />
		<tag k="ssr:stedsnr" v="160419" />
	</node>
	<node lat="59.72712777642014" lon="10.684936102577247" id="-27546">
		<tag k="name" v="Rørmyra" />
		<tag k="place" v="locality" />
		<tag k="ssr:stedsnr" v="160428" />
	</node>
	<node lat="59.697716666713234" lon="10.622755554262968" id="-27547">
		<tag k="name" v="Svartlaget" />
		<tag k="natural" v="slope" />
		<tag k="place" v="locality" />
		<tag k="ssr:stedsnr" v="160376" />
	</node>
	<node lat="59.73797222595061" lon="10.679861112677791" id="-27548">
		<tag k="name" v="Møglestu" />
		<tag k="place" v="isolated_dwelling" />
		<tag k="ssr:stedsnr" v="160382" />
	</node>
	<node lat="59.63306666438742" lon="10.668549993967265" id="-27549">
		<tag k="name" v="Øvre Kroksrud" />
		<tag k="place" v="farm" />
		<tag k="ssr:stedsnr" v="160451" />
	</node>
	<node lat="59.724113891760325" lon="10.600647215838467" id="-27550">
		<tag k="name" v="Digeruddammen" />
		<tag k="natural" v="water" />
		<tag k="ssr:stedsnr" v="160486" />
	</node>
	<node lat="59.72147500272891" lon="10.570008327953651" id="-27551">
		<tag k="name" v="Ristsundet" />
		<tag k="natural" v="strait" />
		<tag k="ssr:stedsnr" v="160493" />
	</node>
	<node lat="59.73472777895443" lon="10.645113884228513" id="-27552">
		<tag k="alt_name" v="Gulbjørnrud" />
		<tag k="name" v="Søndre Gulbjørnrud" />
		<tag k="place" v="farm" />
		<tag k="ssr:stedsnr" v="160957" />
	</node>
	<node lat="59.71627222307819" lon="10.715080553543588" id="-27553">
		<tag k="bridge" v="yes" />
		<tag k="layer" v="1" />
		<tag k="name" v="Bunden" />
		<tag k="ssr:stedsnr" v="167166" />
	</node>
	<node lat="59.68710278170176" lon="10.67949722117233" id="-27555">
		<tag k="name" v="Øvre Tomter" />
		<tag k="place" v="farm" />
		<tag k="ssr:stedsnr" v="179149" />
	</node>
	<node lat="59.73050555582712" lon="10.56897221926723" id="-27556">
		<tag k="name" v="Lågøysundet" />
		<tag k="natural" v="strait" />
		<tag k="ssr:stedsnr" v="180754" />
	</node>
	<node lat="59.71305555282559" lon="10.59702777879804" id="-27557">
		<tag k="name" v="Revjetangen" />
		<tag k="natural" v="cape" />
		<tag k="ssr:stedsnr" v="180884" />
	</node>
	<node lat="59.646274999074265" lon="10.670655547341713" id="-27558">
		<tag k="fixme" v="consider natural=peak for the most distinct mountains in the district" />
		<tag k="name" v="Haveråsen" />
		<tag k="natural" v="hill" />
		<tag k="place" v="locality" />
		<tag k="ssr:stedsnr" v="185821" />
	</node>
	<node lat="59.72717777625201" lon="10.670425000323146" id="-27559">
		<tag k="name" v="Tassebråten" />
		<tag k="place" v="farm" />
		<tag k="ssr:stedsnr" v="185770" />
	</node>
	<node lat="59.690588631984916" lon="10.72847480816382" id="-27560">
		<tag k="fixme" v="consider place=hamlet" />
		<tag k="name" v="Horgen" />
		<tag k="place" v="farm" />
		<tag k="ssr:stedsnr" v="186465" />
	</node>
	<node lat="59.760144445280446" lon="10.706125000032815" id="-27561">
		<tag k="alt_name" v="Glenne, nedre" />
		<tag k="name" v="Nedre Glenne" />
		<tag k="place" v="farm" />
		<tag k="ssr:stedsnr" v="186653" />
	</node>
	<node lat="59.64269999849611" lon="10.64103333826572" id="-27562">
		<tag k="name" v="Søndre Elle" />
		<tag k="place" v="farm" />
		<tag k="ssr:stedsnr" v="186839" />
	</node>
	<node lat="59.673525000879955" lon="10.607077778666236" id="-27563">
		<tag k="landuse" v="military" />
		<tag k="name" v="Oscarsborg" />
		<tag k="ssr:stedsnr" v="186859" />
	</node>
	<node lat="59.67603610991164" lon="10.622236105771393" id="-27564">
		<tag k="alt_name" v="Husvikholmen" />
		<tag k="name" v="Husvik" />
		<tag k="natural" v="cape" />
		<tag k="ssr:stedsnr" v="186860" />
	</node>
	<node lat="59.71972777381785" lon="10.72886389295747" id="-27565">
		<tag k="junction" v="yes" />
		<tag k="name" v="Bekkevoll" />
		<tag k="place" v="locality" />
		<tag k="ssr:stedsnr" v="205398" />
	</node>
	<node lat="59.70284999604766" lon="10.61786666023456" id="-27566">
		<tag k="name" v="Søndre Hallangen" />
		<tag k="place" v="farm" />
		<tag k="ssr:stedsnr" v="221865" />
	</node>
	<node lat="59.68383333185273" lon="10.701288891021212" id="-27567">
		<tag k="name" v="Nordre Rød" />
		<tag k="place" v="farm" />
		<tag k="ssr:stedsnr" v="221135" />
	</node>
	<node lat="59.75783055828026" lon="10.67197499569866" id="-27568">
		<tag k="name" v="Nordre Kai" />
		<tag k="place" v="farm" />
		<tag k="ssr:stedsnr" v="221274" />
	</node>
	<node lat="59.704097222044034" lon="10.712944452186365" id="-27569">
		<tag k="name" v="Rommerudsletta" />
		<tag k="place" v="locality" />
		<tag k="ssr:stedsnr" v="221361" />
	</node>
	<node lat="59.706636115000556" lon="10.739061113164858" id="-27570">
		<tag k="name" v="Grønlund" />
		<tag k="place" v="locality" />
		<tag k="ssr:stedsnr" v="221362" />
	</node>
	<node lat="59.71564722508834" lon="10.616600000909594" id="-27571">
		<tag k="fixme" v="consider natural=peak for the most distinct mountains in the district" />
		<tag k="name" v="Elgåsen" />
		<tag k="natural" v="hill" />
		<tag k="place" v="locality" />
		<tag k="ssr:stedsnr" v="221365" />
	</node>
	<node lat="59.70545277356364" lon="10.66753055815854" id="-27572">
		<tag k="name" v="Holttjernet" />
		<tag k="natural" v="water" />
		<tag k="ssr:stedsnr" v="221443" />
	</node>
	<node lat="59.73039722146441" lon="10.70795832562056" id="-27573">
		<tag k="name" v="Østre Bøler" />
		<tag k="place" v="farm" />
		<tag k="ssr:stedsnr" v="221451" />
	</node>
	<node lat="59.64952499780128" lon="10.646244443262937" id="-27574">
		<tag k="name" v="Nordre Elle" />
		<tag k="place" v="farm" />
		<tag k="ssr:stedsnr" v="221991" />
	</node>
	<node lat="59.706908330443376" lon="10.739608338047002" id="-27575">
		<tag k="bridge" v="yes" />
		<tag k="layer" v="1" />
		<tag k="name" v="Vassumbrua" />
		<tag k="ssr:stedsnr" v="228147" />
	</node>
	<node lat="59.690188893181414" lon="10.728952771258475" id="-27576">
		<tag k="name" v="Søndre Horgen" />
		<tag k="place" v="farm" />
		<tag k="ssr:stedsnr" v="282346" />
	</node>
	<node lat="59.70184722349893" lon="10.738405557618902" id="-27577">
		<tag k="junction" v="yes" />
		<tag k="name" v="Vassum" />
		<tag k="place" v="locality" />
		<tag k="ssr:stedsnr" v="282365" />
	</node>
	<node lat="59.752824997429286" lon="10.653105562049117" id="-27578">
		<tag k="name" v="Tuhusmyra" />
		<tag k="natural" v="wetland" />
		<tag k="ssr:stedsnr" v="282427" />
	</node>
	<node lat="59.68583333484002" lon="10.61756111204461" id="-27579">
		<tag k="fixme" v="multiple name tags, choose one and add the other to alt_name" />
		<tag k="name" v="Nordbukta;Lortbukta" />
		<tag k="natural" v="bay" />
		<tag k="ssr:stedsnr" v="282440" />
	</node>
	<node lat="59.67700555274013" lon="10.625608325768166" id="-27580">
		<tag k="name" v="Rolighet" />
		<tag k="place" v="isolated_dwelling" />
		<tag k="ssr:stedsnr" v="282445" />
	</node>
	<node lat="59.71740000332377" lon="10.663180564005732" id="-27581">
		<tag k="name" v="Skarphella" />
		<tag k="natural" v="slope" />
		<tag k="place" v="locality" />
		<tag k="ssr:stedsnr" v="282450" />
	</node>
	<node lat="59.74321388491782" lon="10.63743332756427" id="-27582">
		<tag k="name" v="Nordre Gulbjørnrud" />
		<tag k="place" v="farm" />
		<tag k="ssr:stedsnr" v="282458" />
	</node>
	<node lat="59.68312222601102" lon="10.61526389450647" id="-27583">
		<tag k="name" v="Godthol" />
		<tag k="place" v="isolated_dwelling" />
		<tag k="ssr:stedsnr" v="282461" />
	</node>
	<node lat="59.640125001351564" lon="10.637322224859075" id="-27584">
		<tag k="name" v="Venteberget" />
		<tag k="natural" v="cape" />
		<tag k="ssr:stedsnr" v="282864" />
	</node>
	<node lat="59.703006294610304" lon="10.658386972538631" id="-27585">
		<tag k="name" v="Dammen" />
		<tag k="place" v="hamlet" />
		<tag k="ssr:stedsnr" v="282930" />
	</node>
	<node lat="59.701533335558565" lon="10.634919452049473" id="-27586">
		<tag k="name" v="Innerpollen" />
		<tag k="natural" v="bay" />
		<tag k="ssr:stedsnr" v="282934" />
	</node>
	<node lat="59.66645277449353" lon="10.635519440088084" id="-27587">
		<tag k="amenity" v="townhall" />
		<tag k="name" v="Frogn rådhus" />
		<tag k="ssr:stedsnr" v="300070" />
	</node>
	<node lat="59.688183334276786" lon="10.668766660111245" id="-27588">
		<tag k="name" v="Hagen" />
		<tag k="place" v="isolated_dwelling" />
		<tag k="ssr:stedsnr" v="300140" />
	</node>
	<node lat="59.67262777541067" lon="10.639672213544223" id="-27589">
		<tag k="landuse" v="military" />
		<tag k="name" v="Øvre Seiersten skanse" />
		<tag k="ssr:stedsnr" v="300433" />
	</node>
	<node lat="59.703244445385124" lon="10.602513891960765" id="-27590">
		<tag k="name" v="Båtmannsskaret" />
		<tag k="natural" v="valley" />
		<tag k="place" v="locality" />
		<tag k="ssr:stedsnr" v="300558" />
	</node>
	<node lat="59.7116546712564" lon="10.624396966995796" id="-27591">
		<tag k="name" v="Hallangen" />
		<tag k="place" v="hamlet" />
		<tag k="ssr:stedsnr" v="306736" />
	</node>
	<node lat="59.69488380508461" lon="10.708449417285115" id="-27592">
		<tag k="fixme" v="consider place=hamlet" />
		<tag k="name" v="Bjerke" />
		<tag k="place" v="farm" />
		<tag k="ssr:stedsnr" v="306750" />
	</node>
	<node lat="59.689316142338114" lon="10.676225366981045" id="-27593">
		<tag k="fixme" v="consider place=hamlet" />
		<tag k="name" v="Oppegård" />
		<tag k="place" v="farm" />
		<tag k="ssr:stedsnr" v="306751" />
	</node>
	<node lat="59.63681744275431" lon="10.674687855133849" id="-27594">
		<tag k="name" v="Solberg" />
		<tag k="place" v="hamlet" />
		<tag k="ssr:stedsnr" v="307696" />
	</node>
	<node lat="59.66692956284609" lon="10.620635514296593" id="-27595">
		<tag k="alt_name" v="Drøbakgrunna" />
		<tag k="name" v="Drøbakgrunnen" />
		<tag k="natural" v="shoal" />
		<tag k="place" v="locality" />
		<tag k="ssr:stedsnr" v="307869" />
	</node>
	<node lat="59.65563055742417" lon="10.641433337630549" id="-27596">
		<tag k="name" v="Sogsti" />
		<tag k="place" v="suburb" />
		<tag k="ssr:stedsnr" v="307818" />
	</node>
	<node lat="59.652644445641016" lon="10.663536115168398" id="-27597">
		<tag k="alt_name" v="Øyrud, nordre;Nordre Øyerud" />
		<tag k="name" v="Nordre Øyrud" />
		<tag k="place" v="farm" />
		<tag k="ssr:stedsnr" v="307819" />
	</node>
	<node lat="59.75390277747437" lon="10.710527783427539" id="-27598">
		<tag k="alt_name" v="Kjøyakollen" />
		<tag k="fixme" v="consider natural=peak for the most distinct mountains in the district" />
		<tag k="name" v="Køyakollen" />
		<tag k="natural" v="hill" />
		<tag k="place" v="locality" />
		<tag k="ssr:stedsnr" v="329281" />
	</node>
	<node lat="59.74276388494318" lon="10.663249994420026" id="-27599">
		<tag k="name" v="Nordre Lindebråte" />
		<tag k="place" v="farm" />
		<tag k="ssr:stedsnr" v="329442" />
	</node>
	<node lat="59.7696361119271" lon="10.703177771247958" id="-27600">
		<tag k="name" v="Brattås" />
		<tag k="place" v="isolated_dwelling" />
		<tag k="ssr:stedsnr" v="342569" />
	</node>
	<node lat="59.63803611536073" lon="10.652725000904631" id="-27601">
		<tag k="name" v="Solhøgda" />
		<tag k="place" v="hamlet" />
		<tag k="ssr:stedsnr" v="342384" />
	</node>
	<node lat="59.71614166299331" lon="10.60334444272115" id="-27602">
		<tag k="name" v="Nordre Sønderstødam" />
		<tag k="natural" v="water" />
		<tag k="ssr:stedsnr" v="342465" />
	</node>
	<node lat="59.68365277446312" lon="10.615344447007667" id="-27603">
		<tag k="name" v="Lyksetodden" />
		<tag k="natural" v="cape" />
		<tag k="ssr:stedsnr" v="342664" />
	</node>
	<node lat="59.768891669853325" lon="10.709005560691557" id="-27604">
		<tag k="bridge" v="yes" />
		<tag k="layer" v="1" />
		<tag k="name" v="Haslum" />
		<tag k="ssr:stedsnr" v="349174" />
	</node>
	<node lat="59.701534674387545" lon="10.738896134839571" id="-27605">
		<tag k="bridge" v="yes" />
		<tag k="layer" v="1" />
		<tag k="name" v="Årungen bru" />
		<tag k="ssr:stedsnr" v="349143" />
	</node>
	<node lat="59.67013610901347" lon="10.63269722763176" id="-27606">
		<tag k="landuse" v="military" />
		<tag k="name" v="Veisvingbatteriet" />
		<tag k="ssr:stedsnr" v="361066" />
	</node>
	<node lat="59.66314167105053" lon="10.625947214718872" id="-27607">
		<tag k="name" v="Biologen" />
		<tag k="place" v="locality" />
		<tag k="ssr:stedsnr" v="361040" />
	</node>
	<node lat="59.67673055642017" lon="10.696186105801711" id="-27608">
		<tag k="name" v="Søndre Berg" />
		<tag k="place" v="farm" />
		<tag k="ssr:stedsnr" v="361591" />
	</node>
	<node lat="59.214972223183594" lon="10.636341670814504" id="-27610">
		<tag k="bay" v="fjord" />
		<tag k="name" v="Oslofjorden" />
		<tag k="natural" v="bay" />
		<tag k="ssr:stedsnr" v="365030" />
	</node>
	<node lat="59.69830000146933" lon="10.603302786544079" id="-27611">
		<tag k="fixme" v="multiple name tags, choose one and add the other to alt_name" />
		<tag k="name" v="Båtstø;Nordre Båtstø" />
		<tag k="natural" v="cape" />
		<tag k="ssr:stedsnr" v="367736" />
	</node>
	<node lat="59.69883889226549" lon="10.612875001361587" id="-27612">
		<tag k="name" v="Svartlaget" />
		<tag k="place" v="isolated_dwelling" />
		<tag k="ssr:stedsnr" v="367737" />
	</node>
	<node lat="59.68629166874167" lon="10.645119446573254" id="-27613">
		<tag k="alt_name" v="Harefjellet" />
		<tag k="fixme" v="consider natural=peak for the most distinct mountains in the district" />
		<tag k="name" v="Harafjellet" />
		<tag k="natural" v="hill" />
		<tag k="place" v="locality" />
		<tag k="ssr:stedsnr" v="367753" />
	</node>
	<node lat="59.68549999872141" lon="10.583013893624212" id="-27614">
		<tag k="fixme" v="consider natural=peak for the most distinct mountains in the district" />
		<tag k="name" v="Varden" />
		<tag k="natural" v="hill" />
		<tag k="place" v="locality" />
		<tag k="ssr:stedsnr" v="367760" />
	</node>
	<node lat="59.73516388495412" lon="10.69243610237802" id="-27615">
		<tag k="alt_name" v="Dal, søndre" />
		<tag k="name" v="Søndre Dal" />
		<tag k="place" v="farm" />
		<tag k="ssr:stedsnr" v="367950" />
	</node>
	<node lat="59.73542634980962" lon="10.565992156974017" id="-27616">
		<tag k="name" v="Lågøya" />
		<tag k="place" v="islet" />
		<tag k="ssr:stedsnr" v="367960" />
	</node>
	<node lat="59.669761619607065" lon="10.623067942412103" id="-27618">
		<tag k="man_made" v="quay" />
		<tag k="name" v="Ringeplan" />
		<tag k="place" v="locality" />
		<tag k="ssr:stedsnr" v="372427" />
	</node>
	<node lat="59.684644442799744" lon="10.621536110027876" id="-27619">
		<tag k="name" v="Gylteholmen" />
		<tag k="place" v="island" />
		<tag k="ssr:stedsnr" v="384632" />
	</node>
	<node lat="59.6775138896806" lon="10.572036116518184" id="-27620">
		<tag k="name" v="Munkhattgrunnen" />
		<tag k="natural" v="shoal" />
		<tag k="place" v="locality" />
		<tag k="ssr:stedsnr" v="388009" />
	</node>
	<node lat="59.76834989616659" lon="10.709051665383107" id="-27621">
		<tag k="fixme" v="consider place=hamlet" />
		<tag k="name" v="Haslum" />
		<tag k="place" v="farm" />
		<tag k="ssr:stedsnr" v="389266" />
	</node>
	<node lat="59.65172222319608" lon="10.634302784598605" id="-27622">
		<tag k="alt_name" v="Rosekollen" />
		<tag k="name" v="Rosenkollen" />
		<tag k="natural" v="hill" />
		<tag k="place" v="locality" />
		<tag k="ssr:stedsnr" v="403867" />
	</node>
	<node lat="59.74494166300448" lon="10.688200003597338" id="-27623">
		<tag k="name" v="Hagan" />
		<tag k="place" v="isolated_dwelling" />
		<tag k="ssr:stedsnr" v="403423" />
	</node>
	<node lat="59.71236110883882" lon="10.635338892742537" id="-27624">
		<tag k="name" v="Ståterudmåsan" />
		<tag k="natural" v="wetland" />
		<tag k="ssr:stedsnr" v="403367" />
	</node>
	<node lat="59.71611666827329" lon="10.624269447338083" id="-27625">
		<tag k="name" v="Nordre Hallangen hyttefelt" />
		<tag k="place" v="neighbourhood" />
		<tag k="ssr:stedsnr" v="403368" />
	</node>
	<node lat="59.759064862048085" lon="10.704216576431902" id="-27626">
		<tag k="fixme" v="consider place=hamlet" />
		<tag k="name" v="Glenne" />
		<tag k="place" v="farm" />
		<tag k="ssr:stedsnr" v="403432" />
	</node>
	<node lat="59.756336107427686" lon="10.70723611425833" id="-27627">
		<tag k="name" v="Åsen" />
		<tag k="place" v="isolated_dwelling" />
		<tag k="ssr:stedsnr" v="403433" />
	</node>
	<node lat="59.67620000351528" lon="10.6491166632139" id="-27628">
		<tag k="name" v="Nordre Belsjø" />
		<tag k="place" v="isolated_dwelling" />
		<tag k="ssr:stedsnr" v="403444" />
	</node>
	<node lat="59.69458333398724" lon="10.707555554188245" id="-27629">
		<tag k="name" v="Søndre Bjerke" />
		<tag k="place" v="farm" />
		<tag k="ssr:stedsnr" v="422123" />
	</node>
	<node lat="59.70204166751335" lon="10.69407221348066" id="-27630">
		<tag k="name" v="Teipa" />
		<tag k="place" v="farm" />
		<tag k="ssr:stedsnr" v="422224" />
	</node>
	<node lat="59.68986110829624" lon="10.563908334532229" id="-27631">
		<tag k="name" v="Revjebukta" />
		<tag k="natural" v="bay" />
		<tag k="ssr:stedsnr" v="422862" />
	</node>
	<node lat="59.698536112830574" lon="10.557294445172198" id="-27632">
		<tag k="name" v="Tåjeodden" />
		<tag k="natural" v="bay" />
		<tag k="ssr:stedsnr" v="422865" />
	</node>
	<node lat="59.755341670118554" lon="10.71313055472483" id="-27633">
		<tag k="name" v="Odden" />
		<tag k="natural" v="cape" />
		<tag k="ssr:stedsnr" v="422379" />
	</node>
	<node lat="59.715424996151555" lon="10.714355546675817" id="-27634">
		<tag k="name" v="Bonn" />
		<tag k="place" v="farm" />
		<tag k="ssr:stedsnr" v="428803" />
	</node>
	<node lat="59.72074231867214" lon="10.666208069647656" id="-27635">
		<tag k="fixme" v="consider place=hamlet" />
		<tag k="name" v="Havsjødalen" />
		<tag k="place" v="farm" />
		<tag k="ssr:stedsnr" v="428805" />
	</node>
	<node lat="59.73851944325713" lon="10.652880546735886" id="-27636">
		<tag k="alt_name" v="Måren" />
		<tag k="name" v="Målen" />
		<tag k="place" v="locality" />
		<tag k="ssr:stedsnr" v="428964" />
	</node>
	<node lat="59.668891670275876" lon="10.672300003866226" id="-27638">
		<tag k="name" v="Espely" />
		<tag k="place" v="farm" />
		<tag k="ssr:stedsnr" v="429874" />
	</node>
	<node lat="59.649729591709935" lon="10.672597854426058" id="-27639">
		<tag k="fixme" v="consider place=hamlet" />
		<tag k="name" v="Haver" />
		<tag k="place" v="farm" />
		<tag k="ssr:stedsnr" v="429838" />
	</node>
	<node lat="59.701102778845865" lon="10.561233341722232" id="-27640">
		<tag k="name" v="Håøya" />
		<tag k="place" v="isolated_dwelling" />
		<tag k="ssr:stedsnr" v="511116" />
	</node>
	<node lat="59.77305555477572" lon="10.702586115431759" id="-27641">
		<tag k="name" v="Nissedalen" />
		<tag k="natural" v="valley" />
		<tag k="place" v="locality" />
		<tag k="ssr:stedsnr" v="524586" />
	</node>
	<node lat="59.755997225736465" lon="10.67131388975817" id="-27642">
		<tag k="name" v="Kinndalen" />
		<tag k="natural" v="valley" />
		<tag k="place" v="locality" />
		<tag k="ssr:stedsnr" v="524261" />
	</node>
	<node lat="59.76101110841095" lon="10.671152781836765" id="-27643">
		<tag k="name" v="Svartedalen" />
		<tag k="natural" v="valley" />
		<tag k="place" v="locality" />
		<tag k="ssr:stedsnr" v="524262" />
	</node>
	<node lat="59.717738888484135" lon="10.629663890725835" id="-27644">
		<tag k="name" v="Vestgårdstoppen" />
		<tag k="natural" v="hill" />
		<tag k="place" v="locality" />
		<tag k="ssr:stedsnr" v="524343" />
	</node>
	<node lat="59.76081389067022" lon="10.713036115034134" id="-27645">
		<tag k="name" v="Rosestranda" />
		<tag k="natural" v="beach" />
		<tag k="ssr:stedsnr" v="524389" />
	</node>
	<node lat="59.69540971979151" lon="10.73365152702878" id="-27646">
		<tag k="layer" v="-1" />
		<tag k="name" v="Smiehagen" />
		<tag k="ssr:stedsnr" v="529757" />
		<tag k="tunnel" v="yes" />
	</node>
	<node lat="59.72347777730395" lon="10.716372218522121" id="-27648">
		<tag k="name" v="Bonneholet" />
		<tag k="natural" v="valley" />
		<tag k="place" v="locality" />
		<tag k="ssr:stedsnr" v="543444" />
	</node>
	<node lat="59.65491110943925" lon="10.646455557914358" id="-27649">
		<tag k="amenity" v="school" />
		<tag k="name" v="Sogsti skole" />
		<tag k="ssr:stedsnr" v="543553" />
	</node>
	<node lat="59.70990277995278" lon="10.585391668134328" id="-27650">
		<tag k="name" v="Nordre Torskekrakken" />
		<tag k="natural" v="shoal" />
		<tag k="place" v="locality" />
		<tag k="ssr:stedsnr" v="543825" />
	</node>
	<node lat="59.707447223788094" lon="10.55699444235454" id="-27651">
		<tag k="alt_name" v="Dragsund, vestre" />
		<tag k="name" v="Vestre Dragsund" />
		<tag k="natural" v="bay" />
		<tag k="ssr:stedsnr" v="549799" />
	</node>
	<node lat="59.7196055538519" lon="10.555374997406743" id="-27652">
		<tag k="fixme" v="multiple name tags, choose one and add the other to alt_name" />
		<tag k="name" v="Nordbukta;Djupebukta" />
		<tag k="natural" v="bay" />
		<tag k="ssr:stedsnr" v="549772" />
	</node>
	<node lat="59.72163888770305" lon="10.54756943643127" id="-27653">
		<tag k="name" v="Flågrunnen" />
		<tag k="natural" v="shoal" />
		<tag k="place" v="locality" />
		<tag k="ssr:stedsnr" v="549779" />
	</node>
	<node lat="59.64538055869952" lon="10.645452775356288" id="-27654">
		<tag k="name" v="Odalsbekken" />
		<tag k="ssr:stedsnr" v="550834" />
		<tag k="waterway" v="stream" />
	</node>
	<node lat="59.6625979936691" lon="10.669840495660514" id="-27655">
		<tag k="fixme" v="consider place=hamlet" />
		<tag k="name" v="Skorkeberg" />
		<tag k="place" v="farm" />
		<tag k="ssr:stedsnr" v="550863" />
	</node>
	<node lat="59.75739763684282" lon="10.671000208077572" id="-27656">
		<tag k="fixme" v="consider place=hamlet" />
		<tag k="name" v="Kai" />
		<tag k="place" v="farm" />
		<tag k="ssr:stedsnr" v="551601" />
	</node>
	<node lat="59.67842500159823" lon="10.606655548960502" id="-27657">
		<tag k="name" v="Nordre Kaholmen" />
		<tag k="place" v="island" />
		<tag k="ssr:stedsnr" v="571086" />
	</node>
	<node lat="59.67315278236413" lon="10.616099993779569" id="-27658">
		<tag k="name" v="Drøbaksundet" />
		<tag k="natural" v="strait" />
		<tag k="ssr:stedsnr" v="571089" />
	</node>
	<node lat="59.74104999681195" lon="10.689783339999046" id="-27659">
		<tag k="fixme" v="consider natural=peak for the most distinct mountains in the district" />
		<tag k="name" v="Ravnekollen" />
		<tag k="natural" v="hill" />
		<tag k="place" v="locality" />
		<tag k="ssr:stedsnr" v="584452" />
	</node>
	<node lat="59.74582222124848" lon="10.69936666299187" id="-27660">
		<tag k="alt_name" v="Dal, nordre" />
		<tag k="name" v="Nordre Dal" />
		<tag k="place" v="farm" />
		<tag k="ssr:stedsnr" v="584454" />
	</node>
	<node lat="59.74741111260505" lon="10.680583340373369" id="-27661">
		<tag k="name" v="Nymåsan" />
		<tag k="natural" v="wetland" />
		<tag k="ssr:stedsnr" v="584464" />
	</node>
	<node lat="59.7026777748992" lon="10.592213886488487" id="-27662">
		<tag k="fixme" v="consider boundary=protected_area and relevant protect_class if not nature reserve" />
		<tag k="leisure" v="nature_reserve" />
		<tag k="name" v="Nordøstre Askeskjær naturreservat" />
		<tag k="ssr:stedsnr" v="585344" />
	</node>
	<node lat="59.71338611399704" lon="10.651675000121147" id="-27663">
		<tag k="name" v="Havsjødalsbekken" />
		<tag k="ssr:stedsnr" v="585345" />
		<tag k="waterway" v="stream" />
	</node>
	<node lat="59.70561944116572" lon="10.636505552102093" id="-27664">
		<tag k="name" v="Strandmyr" />
		<tag k="place" v="isolated_dwelling" />
		<tag k="ssr:stedsnr" v="585350" />
	</node>
	<node lat="59.70126110995502" lon="10.626588892002035" id="-27665">
		<tag k="name" v="Vollebakken" />
		<tag k="natural" v="slope" />
		<tag k="place" v="locality" />
		<tag k="ssr:stedsnr" v="585392" />
	</node>
	<node lat="59.67351389082725" lon="10.607077779438944" id="-27667">
		<tag k="landuse" v="military" />
		<tag k="name" v="Søndre Oscarsborg" />
		<tag k="ssr:stedsnr" v="603384" />
	</node>
	<node lat="59.72267499743244" lon="10.726344445510245" id="-27669">
		<tag k="fixme" v="consider seamark:type=rock or natural=shoal" />
		<tag k="name" v="Skjæret" />
		<tag k="place" v="islet" />
		<tag k="ssr:stedsnr" v="603421" />
	</node>
	<node lat="59.668877776379865" lon="10.634855552992159" id="-27670">
		<tag k="amenity" v="sports_centre" />
		<tag k="name" v="Frognhallen" />
		<tag k="ssr:stedsnr" v="603045" />
	</node>
	<node lat="59.68953611480092" lon="10.675513892038357" id="-27671">
		<tag k="name" v="Vestre Oppegård" />
		<tag k="place" v="farm" />
		<tag k="ssr:stedsnr" v="603124" />
	</node>
	<node lat="59.696013893092875" lon="10.604194450285707" id="-27672">
		<tag k="name" v="Søndre Båtstø" />
		<tag k="natural" v="cape" />
		<tag k="ssr:stedsnr" v="603544" />
	</node>
	<node lat="59.70304721940092" lon="10.578758338062462" id="-27673">
		<tag k="name" v="Bjellegrunnen" />
		<tag k="natural" v="shoal" />
		<tag k="place" v="locality" />
		<tag k="ssr:stedsnr" v="603829" />
	</node>
	<node lat="59.62169166701631" lon="10.648322224484833" id="-27674">
		<tag k="alt_name" v="Solbergstranda" />
		<tag k="name" v="Solbergstrand" />
		<tag k="natural" v="beach" />
		<tag k="ssr:stedsnr" v="609613" />
	</node>
	<node lat="59.73614606909037" lon="10.715642504875625" id="-27675">
		<tag k="fixme" v="consider place=hamlet" />
		<tag k="name" v="Knardal" />
		<tag k="place" v="farm" />
		<tag k="ssr:stedsnr" v="609960" />
	</node>
	<node lat="59.73595000039106" lon="10.68107500828036" id="-27676">
		<tag k="alt_name" v="Slåttebråtan" />
		<tag k="name" v="Slåttebråten" />
		<tag k="place" v="farm" />
		<tag k="ssr:stedsnr" v="609972" />
	</node>
	<node lat="59.699486406302405" lon="10.715438333089937" id="-27677">
		<tag k="fixme" v="consider place=hamlet" />
		<tag k="name" v="Økern" />
		<tag k="place" v="farm" />
		<tag k="ssr:stedsnr" v="610767" />
	</node>
	<node lat="59.6491388861693" lon="10.634441671621717" id="-27678">
		<tag k="name" v="Torkilstranda" />
		<tag k="natural" v="beach" />
		<tag k="ssr:stedsnr" v="610848" />
	</node>
	<node lat="59.7021833309854" lon="10.679958335233298" id="-27680">
		<tag k="name" v="Breimåsan" />
		<tag k="natural" v="wetland" />
		<tag k="ssr:stedsnr" v="626980" />
	</node>
	<node lat="59.68397777538723" lon="10.659766674185798" id="-27681">
		<tag k="fixme" v="consider place=suburb, village or hamlet" />
		<tag k="name" v="Heer" />
		<tag k="place" v="quarter" />
		<tag k="ssr:stedsnr" v="630526" />
	</node>
	<node lat="59.76782222195227" lon="10.550083339820636" id="-27682">
		<tag k="name" v="Torpene" />
		<tag k="natural" v="shoal" />
		<tag k="place" v="locality" />
		<tag k="ssr:stedsnr" v="631118" />
	</node>
	<node lat="59.68421944854927" lon="10.68875000833076" id="-27683">
		<tag k="name" v="Søndre Roksrud" />
		<tag k="place" v="farm" />
		<tag k="ssr:stedsnr" v="645140" />
	</node>
	<node lat="59.72311667049732" lon="10.589591658236696" id="-27684">
		<tag k="name" v="Digerud" />
		<tag k="place" v="hamlet" />
		<tag k="ssr:stedsnr" v="645519" />
	</node>
	<node lat="59.75970428438741" lon="10.68671428572486" id="-27685">
		<tag k="fixme" v="consider place=hamlet" />
		<tag k="name" v="Garder" />
		<tag k="place" v="farm" />
		<tag k="ssr:stedsnr" v="645271" />
	</node>
	<node lat="59.690913887785285" lon="10.728494448116711" id="-27686">
		<tag k="name" v="Nordre Horgen" />
		<tag k="place" v="farm" />
		<tag k="ssr:stedsnr" v="645354" />
	</node>
	<node lat="59.70072258067805" lon="10.633335598410968" id="-27687">
		<tag k="fixme" v="consider boundary=protected_area and relevant protect_class if not nature reserve" />
		<tag k="leisure" v="nature_reserve" />
		<tag k="name" v="Storskjær naturreservat" />
		<tag k="ssr:stedsnr" v="645362" />
	</node>
	<node lat="59.713533331788966" lon="10.700644442117767" id="-27688">
		<tag k="name" v="Stubberudhytta" />
		<tag k="place" v="isolated_dwelling" />
		<tag k="ssr:stedsnr" v="645439" />
	</node>
	<node lat="59.720169446952234" lon="10.6931055547717" id="-27689">
		<tag k="name" v="Stubberudtjern" />
		<tag k="natural" v="water" />
		<tag k="ssr:stedsnr" v="645447" />
	</node>
	<node lat="59.70085113631894" lon="10.633230610230349" id="-27690">
		<tag k="fixme" v="consider seamark:type=rock or natural=shoal" />
		<tag k="name" v="Storskjæret" />
		<tag k="place" v="islet" />
		<tag k="ssr:stedsnr" v="645450" />
	</node>
	<node lat="59.74181666991469" lon="10.637047222343233" id="-27691">
		<tag k="name" v="Gulbjørnrud" />
		<tag k="place" v="farm" />
		<tag k="ssr:stedsnr" v="645453" />
	</node>
	<node lat="59.72847500456303" lon="10.704374994257952" id="-27692">
		<tag k="name" v="Vestre Bøler" />
		<tag k="place" v="farm" />
		<tag k="ssr:stedsnr" v="645462" />
	</node>
	<node lat="59.72919999742947" lon="10.703236113909675" id="-27693">
		<tag k="name" v="Søndre Bøler" />
		<tag k="place" v="farm" />
		<tag k="ssr:stedsnr" v="645463" />
	</node>
	<node lat="59.669281532943295" lon="10.623726946919248" id="-27694">
		<tag k="name" v="Brenneripynten" />
		<tag k="natural" v="cape" />
		<tag k="ssr:stedsnr" v="645831" />
	</node>
	<node lat="59.654552776266776" lon="10.632702783156846" id="-27695">
		<tag k="name" v="Torkilsbyen" />
		<tag k="place" v="quarter" />
		<tag k="ssr:stedsnr" v="664098" />
	</node>
	<node lat="59.68789463800152" lon="10.675337659349216" id="-27696">
		<tag k="fixme" v="consider place=hamlet" />
		<tag k="name" v="Haneborg" />
		<tag k="place" v="farm" />
		<tag k="ssr:stedsnr" v="664128" />
	</node>
	<node lat="59.701572220884316" lon="10.694936114726653" id="-27697">
		<tag k="name" v="Birkeli" />
		<tag k="place" v="farm" />
		<tag k="ssr:stedsnr" v="664214" />
	</node>
	<node lat="59.74488889022848" lon="10.721422216873776" id="-27698">
		<tag k="name" v="Kølleberget" />
		<tag k="natural" v="shoal" />
		<tag k="place" v="locality" />
		<tag k="ssr:stedsnr" v="664392" />
	</node>
	<node lat="59.72229166608473" lon="10.721950008592232" id="-27699">
		<tag k="name" v="Stakabukta" />
		<tag k="natural" v="bay" />
		<tag k="ssr:stedsnr" v="664417" />
	</node>
	<node lat="59.70953055302691" lon="10.58853888249177" id="-27700">
		<tag k="name" v="Storegrunnen" />
		<tag k="natural" v="shoal" />
		<tag k="place" v="locality" />
		<tag k="ssr:stedsnr" v="664858" />
	</node>
	<node lat="59.68216666842605" lon="10.563655551728779" id="-27701">
		<tag k="name" v="Møkkalassgrunnene" />
		<tag k="natural" v="shoal" />
		<tag k="place" v="locality" />
		<tag k="ssr:stedsnr" v="664860" />
	</node>
	<node lat="59.728469444345436" lon="10.689908326206897" id="-27702">
		<tag k="name" v="Tusse" />
		<tag k="place" v="isolated_dwelling" />
		<tag k="ssr:stedsnr" v="670764" />
	</node>
	<node lat="59.75653333126734" lon="10.716091662900759" id="-27703">
		<tag k="name" v="Klatten" />
		<tag k="natural" v="shoal" />
		<tag k="place" v="locality" />
		<tag k="ssr:stedsnr" v="724749" />
	</node>
	<node lat="59.69006666622736" lon="10.664116659509984" id="-27704">
		<tag k="alt_name" v="Steen" />
		<tag k="name" v="Sten" />
		<tag k="place" v="locality" />
		<tag k="ssr:stedsnr" v="725144" />
	</node>
	<node lat="59.68225833394203" lon="10.65080000778712" id="-27705">
		<tag k="name" v="Kringerudfeltet" />
		<tag k="place" v="quarter" />
		<tag k="ssr:stedsnr" v="725847" />
	</node>
	<node lat="59.69859999669477" lon="10.630458336466454" id="-27706">
		<tag k="name" v="Bollesundet" />
		<tag k="natural" v="bay" />
		<tag k="ssr:stedsnr" v="725856" />
	</node>
	<node lat="59.62559722517013" lon="10.673941659357093" id="-27707">
		<tag k="alt_name" v="Solbergelva" />
		<tag k="name" v="Solbergbekken" />
		<tag k="ssr:stedsnr" v="731632" />
		<tag k="waterway" v="stream" />
	</node>
	<node lat="59.62995832888829" lon="10.67132223036299" id="-27708">
		<tag k="alt_name" v="Solberg, søndre" />
		<tag k="name" v="Søndre Solberg" />
		<tag k="place" v="farm" />
		<tag k="ssr:stedsnr" v="731639" />
	</node>
	<node lat="59.683285666568615" lon="10.587976721894202" id="-27709">
		<tag k="name" v="Håøya" />
		<tag k="place" v="island" />
		<tag k="ssr:stedsnr" v="731740" />
	</node>
	<node lat="59.638011106830625" lon="10.641211103096758" id="-27710">
		<tag k="name" v="Skiphellebukta" />
		<tag k="natural" v="bay" />
		<tag k="ssr:stedsnr" v="731837" />
	</node>
	<node lat="59.74721388669713" lon="10.673347217980886" id="-27711">
		<tag k="name" v="Dalsmåsan" />
		<tag k="natural" v="wetland" />
		<tag k="ssr:stedsnr" v="731932" />
	</node>
	<node lat="59.69145833085691" lon="10.719527776572638" id="-27712">
		<tag k="name" v="Østli" />
		<tag k="place" v="farm" />
		<tag k="ssr:stedsnr" v="732435" />
	</node>
	<node lat="59.66331944237574" lon="10.629738891280056" id="-27713">
		<tag k="name" v="Drøbak" />
		<tag k="place" v="town" />
		<tag k="ssr:stedsnr" v="732857" />
	</node>
	<node lat="59.676400003818095" lon="10.586525003405775" id="-27714">
		<tag k="name" v="Kloasundet" />
		<tag k="natural" v="strait" />
		<tag k="ssr:stedsnr" v="732843" />
	</node>
	<node lat="59.66785000416158" lon="10.62573333506303" id="-27715">
		<tag k="name" v="Parrstranda" />
		<tag k="natural" v="beach" />
		<tag k="ssr:stedsnr" v="737390" />
	</node>
	<node lat="59.69807777830422" lon="10.558677781771852" id="-27716">
		<tag k="name" v="Tåjebukta" />
		<tag k="natural" v="bay" />
		<tag k="ssr:stedsnr" v="754148" />
	</node>
	<node lat="59.69967069509241" lon="10.718560287759233" id="-27717">
		<tag k="junction" v="yes" />
		<tag k="name" v="Økern" />
		<tag k="place" v="locality" />
		<tag k="ssr:stedsnr" v="767382" />
	</node>
	<node lat="59.6880749960182" lon="10.578180563344864" id="-27718">
		<tag k="fixme" v="consider boundary=protected_area and relevant protect_class if not nature reserve" />
		<tag k="leisure" v="nature_reserve" />
		<tag k="name" v="Søndre Håøya naturreservat" />
		<tag k="ssr:stedsnr" v="767385" />
	</node>
	<node lat="59.73147500041996" lon="10.722438889768783" id="-27719">
		<tag k="name" v="Knardal hyttefelt" />
		<tag k="place" v="neighbourhood" />
		<tag k="ssr:stedsnr" v="767485" />
	</node>
	<node lat="59.648541663408466" lon="10.633652784633021" id="-27720">
		<tag k="man_made" v="quay" />
		<tag k="name" v="Heidalsbrygga" />
		<tag k="place" v="locality" />
		<tag k="ssr:stedsnr" v="767880" />
	</node>
	<node lat="59.706984462895825" lon="10.68232264451141" id="-27721">
		<tag k="layer" v="-1" />
		<tag k="name" v="Frogntunnelen" />
		<tag k="ssr:stedsnr" v="772440" />
		<tag k="tunnel" v="yes" />
	</node>
	<node lat="59.70869823023055" lon="10.73037116375707" id="-27722">
		<tag k="layer" v="-1" />
		<tag k="name" v="Vassumtunnelen" />
		<tag k="ssr:stedsnr" v="772651" />
		<tag k="tunnel" v="yes" />
	</node>
	<node lat="59.67466666940518" lon="10.606844448444653" id="-27723">
		<tag k="alt_name" v="Kaholmene" />
		<tag k="name" v="Kaholmane" />
		<tag k="place" v="island" />
		<tag k="ssr:stedsnr" v="786445" />
	</node>
	<node lat="59.6776777793933" lon="10.696572215407631" id="-27724">
		<tag k="name" v="Nordre Berg" />
		<tag k="place" v="farm" />
		<tag k="ssr:stedsnr" v="786580" />
	</node>
	<node lat="59.673586110372995" lon="10.704605549907019" id="-27725">
		<tag k="name" v="Nordre Furu" />
		<tag k="place" v="farm" />
		<tag k="ssr:stedsnr" v="786582" />
	</node>
	<node lat="59.70566388476724" lon="10.583024997365897" id="-27726">
		<tag k="name" v="Søre Torskekrakken" />
		<tag k="natural" v="shoal" />
		<tag k="place" v="locality" />
		<tag k="ssr:stedsnr" v="786838" />
	</node>
	<node lat="59.6947527819198" lon="10.563849997461912" id="-27727">
		<tag k="fixme" v="consider natural=peak for the most distinct mountains in the district" />
		<tag k="name" v="Ramneflauet" />
		<tag k="natural" v="hill" />
		<tag k="place" v="locality" />
		<tag k="ssr:stedsnr" v="791756" />
	</node>
	<node lat="59.6908194487863" lon="10.614352784860463" id="-27728">
		<tag k="name" v="Hallangstangen" />
		<tag k="natural" v="cape" />
		<tag k="ssr:stedsnr" v="791760" />
	</node>
	<node lat="59.694552777941816" lon="10.658138897329254" id="-27729">
		<tag k="name" v="Torshytta" />
		<tag k="place" v="farm" />
		<tag k="ssr:stedsnr" v="791771" />
	</node>
	<node lat="59.71674444124169" lon="10.639941673021706" id="-27730">
		<tag k="alt_name" v="Hallangen, nordre" />
		<tag k="name" v="Nordre Hallangen" />
		<tag k="place" v="farm" />
		<tag k="ssr:stedsnr" v="792783" />
	</node>
	<node lat="59.71498888841918" lon="10.53172776937539" id="-27731">
		<tag k="bay" v="fjord" />
		<tag k="name" v="Vestfjorden" />
		<tag k="natural" v="bay" />
		<tag k="ssr:stedsnr" v="792789" />
	</node>
	<node lat="59.64154444325817" lon="10.675938882981827" id="-27732">
		<tag k="alt_name" v="Solberg, nordre" />
		<tag k="name" v="Nordre Solberg" />
		<tag k="place" v="farm" />
		<tag k="ssr:stedsnr" v="792657" />
	</node>
	<node lat="59.66938889199969" lon="10.63713611589854" id="-27733">
		<tag k="fixme" v="consider place=suburb, village or hamlet" />
		<tag k="name" v="Seiersten" />
		<tag k="place" v="quarter" />
		<tag k="ssr:stedsnr" v="792840" />
	</node>
	<node lat="59.66671666794794" lon="10.679363884684458" id="-27734">
		<tag k="fixme" v="multiple name tags, choose one and add the other to alt_name; consider natural=peak for the most distinct mountains in the district" />
		<tag k="name" v="Fjøseråsen;Torpåsen" />
		<tag k="natural" v="hill" />
		<tag k="place" v="locality" />
		<tag k="ssr:stedsnr" v="814036" />
	</node>
	<node lat="59.66327499720333" lon="10.649122226962092" id="-27735">
		<tag k="name" v="Granheia" />
		<tag k="place" v="quarter" />
		<tag k="ssr:stedsnr" v="828021" />
	</node>
	<node lat="59.63690000266215" lon="10.66522777237596" id="-27736">
		<tag k="name" v="Solbergsand" />
		<tag k="place" v="locality" />
		<tag k="ssr:stedsnr" v="828489" />
	</node>
	<node lat="59.6362944472356" lon="10.665552776044903" id="-27737">
		<tag k="name" v="Øvre Kroksrudsand" />
		<tag k="place" v="isolated_dwelling" />
		<tag k="ssr:stedsnr" v="828491" />
	</node>
	<node lat="59.66941944504679" lon="10.661744445548827" id="-27738">
		<tag k="name" v="Råsbakkløkka" />
		<tag k="place" v="locality" />
		<tag k="ssr:stedsnr" v="828431" />
	</node>
	<node lat="59.71136944309365" lon="10.711627782407202" id="-27739">
		<tag k="name" v="Bråtan" />
		<tag k="place" v="isolated_dwelling" />
		<tag k="ssr:stedsnr" v="828442" />
	</node>
	<node lat="59.68631389096495" lon="10.651141663421507" id="-27740">
		<tag k="name" v="Gloslibråten" />
		<tag k="place" v="isolated_dwelling" />
		<tag k="ssr:stedsnr" v="828452" />
	</node>
	<node lat="59.74183611345874" lon="10.72050000728444" id="-27741">
		<tag k="name" v="Fuglesang" />
		<tag k="place" v="isolated_dwelling" />
		<tag k="ssr:stedsnr" v="828457" />
	</node>
	<node lat="59.76898940768713" lon="10.713998274167771" id="-27742">
		<tag k="man_made" v="quay" />
		<tag k="name" v="Solbukta brygge" />
		<tag k="place" v="locality" />
		<tag k="ssr:stedsnr" v="828595" />
	</node>
	<node lat="59.66218888909262" lon="10.626824995415687" id="-27743">
		<tag k="alt_name" v="Småbåthavn" />
		<tag k="leisure" v="marina" />
		<tag k="loc_name" v="Molohavnen" />
		<tag k="name" v="Småbåthavna" />
		<tag k="ssr:stedsnr" v="828835" />
	</node>
	<node lat="59.647552779690656" lon="10.638713893234353" id="-27744">
		<tag k="name" v="Skrubben" />
		<tag k="place" v="locality" />
		<tag k="ssr:stedsnr" v="828851" />
	</node>
	<node lat="59.76289166490725" lon="10.565238885499916" id="-27745">
		<tag k="name" v="Langårrabbane" />
		<tag k="natural" v="shoal" />
		<tag k="place" v="locality" />
		<tag k="ssr:stedsnr" v="845040" />
	</node>
	<node lat="59.66741110844994" lon="10.63446388609461" id="-27746">
		<tag k="amenity" v="school" />
		<tag k="name" v="Drøbak skole" />
		<tag k="ssr:stedsnr" v="847070" />
	</node>
	<node lat="59.6925138885601" lon="10.701658328870245" id="-27747">
		<tag k="name" v="Nordre Huseby" />
		<tag k="place" v="farm" />
		<tag k="ssr:stedsnr" v="847142" />
	</node>
	<node lat="59.69529444718688" lon="10.709386103018657" id="-27748">
		<tag k="name" v="Nordre Bjerke" />
		<tag k="place" v="farm" />
		<tag k="ssr:stedsnr" v="847153" />
	</node>
	<node lat="59.68056666946577" lon="10.627288886097706" id="-27749">
		<tag k="name" v="Gylteåsen" />
		<tag k="place" v="quarter" />
		<tag k="ssr:stedsnr" v="847578" />
	</node>
	<node lat="59.69778611270854" lon="10.643833330021904" id="-27750">
		<tag k="fixme" v="multiple name tags, choose one and add the other to alt_name" />
		<tag k="name" v="Kjerringkleiva;Kleiva" />
		<tag k="natural" v="slope" />
		<tag k="place" v="locality" />
		<tag k="ssr:stedsnr" v="847610" />
	</node>
	<node lat="59.70411944444097" lon="10.625730560983833" id="-27751">
		<tag k="name" v="Pollen" />
		<tag k="place" v="isolated_dwelling" />
		<tag k="ssr:stedsnr" v="847620" />
	</node>
	<node lat="59.65009040384898" lon="10.647200827316569" id="-27752">
		<tag k="fixme" v="consider place=hamlet" />
		<tag k="name" v="Elle" />
		<tag k="place" v="farm" />
		<tag k="ssr:stedsnr" v="847948" />
	</node>
	<node lat="59.69645277698679" lon="10.58347778224541" id="-27753">
		<tag k="name" v="Bruresteinen" />
		<tag k="natural" v="stone" />
		<tag k="ssr:stedsnr" v="852729" />
	</node>
	<node lat="59.69023610725864" lon="10.646730549912013" id="-27754">
		<tag k="name" v="Brakadalen" />
		<tag k="place" v="isolated_dwelling" />
		<tag k="ssr:stedsnr" v="852739" />
	</node>
	<node lat="59.68285555844137" lon="10.60311665861362" id="-27755">
		<tag k="name" v="Kaholmgrunnen" />
		<tag k="natural" v="shoal" />
		<tag k="place" v="locality" />
		<tag k="ssr:stedsnr" v="852751" />
	</node>
	<node lat="59.70268536499283" lon="10.660191296604955" id="-27756">
		<tag k="name" v="Dammen" />
		<tag k="place" v="farm" />
		<tag k="ssr:stedsnr" v="853741" />
	</node>
	<node lat="59.72451110839626" lon="10.657699993827514" id="-27757">
		<tag k="name" v="Asgautrud" />
		<tag k="place" v="farm" />
		<tag k="ssr:stedsnr" v="853768" />
	</node>
	<node lat="59.66626371342723" lon="10.669047216554814" id="-27758">
		<tag k="name" v="Hauer" />
		<tag k="place" v="hamlet" />
		<tag k="ssr:stedsnr" v="854876" />
	</node>
	<node lat="59.76143308222155" lon="10.653763273025886" id="-27759">
		<tag k="alt_name" v="Skog, søndre;Søndre Skau" />
		<tag k="name" v="Søndre Skog" />
		<tag k="place" v="farm" />
		<tag k="ssr:stedsnr" v="855658" />
	</node>
	<node lat="59.652658332337055" lon="10.630552771821705" id="-27760">
		<tag k="name" v="Drøbakbanken" />
		<tag k="natural" v="shoal" />
		<tag k="place" v="locality" />
		<tag k="ssr:stedsnr" v="875017" />
	</node>
	<node lat="59.669155558599996" lon="10.65507500821219" id="-27761">
		<tag k="fixme" v="multiple name tags, choose one and add the other to alt_name; consider natural=peak for the most distinct mountains in the district" />
		<tag k="name" v="Ullerudflaket;Holteråsen" />
		<tag k="natural" v="hill" />
		<tag k="place" v="locality" />
		<tag k="ssr:stedsnr" v="875031" />
	</node>
	<node lat="59.71194166962913" lon="10.59860833710635" id="-27762">
		<tag k="name" v="Sønderstøbukta" />
		<tag k="natural" v="bay" />
		<tag k="ssr:stedsnr" v="875153" />
	</node>
	<node lat="59.70619721806701" lon="10.628302785213457" id="-27763">
		<tag k="alt_name" v="Strandmyrfeltet" />
		<tag k="name" v="Strandemyra" />
		<tag k="place" v="quarter" />
		<tag k="ssr:stedsnr" v="875254" />
	</node>
	<node lat="59.775108334938274" lon="10.708602783596527" id="-27764">
		<tag k="name" v="Nordre Haslum" />
		<tag k="place" v="farm" />
		<tag k="ssr:stedsnr" v="875276" />
	</node>
	<node lat="59.73269444196467" lon="10.719122226278063" id="-27765">
		<tag k="name" v="Glufs" />
		<tag k="natural" v="slope" />
		<tag k="place" v="locality" />
		<tag k="ssr:stedsnr" v="875245" />
	</node>
	<node lat="59.71848611073994" lon="10.716258332654975" id="-27766">
		<tag k="name" v="Bonnebukta" />
		<tag k="natural" v="bay" />
		<tag k="ssr:stedsnr" v="875253" />
	</node>
	<node lat="59.74494985424293" lon="10.697623334131963" id="-27767">
		<tag k="amenity" v="school" />
		<tag k="name" v="Dal skole" />
		<tag k="ssr:stedsnr" v="888641" />
	</node>
	<node lat="59.756336107427686" lon="10.70723611425833" id="-27768">
		<tag k="junction" v="yes" />
		<tag k="name" v="Garder" />
		<tag k="place" v="locality" />
		<tag k="ssr:stedsnr" v="888642" />
	</node>
	<node lat="59.76494444364235" lon="10.711058333812995" id="-27769">
		<tag k="name" v="Slora" />
		<tag k="place" v="locality" />
		<tag k="ssr:stedsnr" v="888643" />
	</node>
	<node lat="59.678552773602554" lon="10.62452778343734" id="-27770">
		<tag k="man_made" v="quay" />
		<tag k="name" v="Kranbrygga" />
		<tag k="place" v="locality" />
		<tag k="ssr:stedsnr" v="889462" />
	</node>
	<node lat="59.73013610964824" lon="10.71354722469457" id="-27771">
		<tag k="name" v="Krams" />
		<tag k="place" v="locality" />
		<tag k="ssr:stedsnr" v="889479" />
	</node>
	<node lat="59.66581111250467" lon="10.63443888349529" id="-27772">
		<tag k="name" v="Drøbak og Frogn prestegård" />
		<tag k="place" v="isolated_dwelling" />
		<tag k="ssr:stedsnr" v="949024" />
	</node>
	<node lat="59.763461113158925" lon="10.708275002586321" id="-27773">
		<tag k="highway" v="path" />
		<tag k="name" v="Jettegrytestien" />
		<tag k="ssr:stedsnr" v="949272" />
	</node>
	<node lat="59.71583611453189" lon="10.651938891569829" id="-27774">
		<tag k="name" v="Hallangshagen" />
		<tag k="place" v="isolated_dwelling" />
		<tag k="ssr:stedsnr" v="949338" />
	</node>
	<node lat="59.73703055743916" lon="10.674741675315744" id="-27775">
		<tag k="name" v="Lindskau" />
		<tag k="place" v="farm" />
		<tag k="ssr:stedsnr" v="949373" />
	</node>
	<node lat="59.72180555998666" lon="10.673430549667861" id="-27776">
		<tag k="name" v="Nordengen" />
		<tag k="place" v="isolated_dwelling" />
		<tag k="ssr:stedsnr" v="949412" />
	</node>
	<node lat="59.72554166700383" lon="10.660616662083" id="-27777">
		<tag k="name" v="Langen" />
		<tag k="place" v="isolated_dwelling" />
		<tag k="ssr:stedsnr" v="949416" />
	</node>
	<node lat="59.71160366916963" lon="10.714900451881212" id="-27778">
		<tag k="bridge" v="yes" />
		<tag k="layer" v="1" />
		<tag k="name" v="Bråtan bru" />
		<tag k="ssr:stedsnr" v="956161" />
	</node>
	<node lat="59.76784721983753" lon="10.711580549411538" id="-27780">
		<tag k="name" v="Solbukta" />
		<tag k="natural" v="bay" />
		<tag k="ssr:stedsnr" v="966772" />
	</node>
	<node lat="59.66857777851334" lon="10.63810832635186" id="-27782">
		<tag k="amenity" v="school" />
		<tag k="name" v="Seiersten ungdomsskole" />
		<tag k="ssr:stedsnr" v="968064" />
	</node>
	<node lat="59.687249381846975" lon="10.610900589268496" id="-27783">
		<tag k="name" v="Langebåt" />
		<tag k="place" v="hamlet" />
		<tag k="ssr:stedsnr" v="985679" />
	</node>
	<node lat="59.6583282987306" lon="10.630143912779078" id="-27784">
		<tag k="man_made" v="quay" />
		<tag k="name" v="Kommunekaien" />
		<tag k="place" v="locality" />
		<tag k="ssr:stedsnr" v="985548" />
	</node>
	<node lat="59.651813100872005" lon="10.665003950613091" id="-28278">
		<tag k="fixme" v="consider place=hamlet" />
		<tag k="name" v="Øyrud" />
		<tag k="place" v="farm" />
		<tag k="ssr:stedsnr" v="1078472" />
	</node>
	<node lat="59.672498014022466" lon="10.667687972502206" id="-28279">
		<tag k="fixme" v="consider place=hamlet" />
		<tag k="name" v="Tomta" />
		<tag k="place" v="farm" />
		<tag k="ssr:stedsnr" v="1078475" />
	</node>
	<node lat="59.65371471894822" lon="10.651242224104516" id="-28280">
		<tag k="fixme" v="consider place=hamlet" />
		<tag k="name" v="Teigen" />
		<tag k="place" v="farm" />
		<tag k="ssr:stedsnr" v="1078476" />
	</node>
	<node lat="59.62341996179072" lon="10.648629130185284" id="-28281">
		<tag k="name" v="Strandsnippen" />
		<tag k="old_name" v="Strandsniuppen" />
		<tag k="place" v="farm" />
		<tag k="ssr:stedsnr" v="1082058" />
	</node>
	<node lat="59.67807334769561" lon="10.604857025928641" id="-28282">
		<tag k="man_made" v="monitoring_station" />
		<tag k="monitoring:water_Level" v="yes" />
		<tag k="name" v="Oscarsborg vannstandsmåler" />
		<tag k="ssr:stedsnr" v="1082261" />
	</node>
	<node lat="59.71953979839926" lon="10.586046804809074" id="-28284">
		<tag k="name" v="Digerudgrunnen" />
		<tag k="natural" v="shoal" />
		<tag k="place" v="locality" />
		<tag k="ssr:stedsnr" v="1083235" />
	</node>
</osm>
