<?xml version="1.0" encoding="UTF-8"?>
<osm version="0.6" generator="osmapis">
	<node lat="59.633960467792384" lon="10.669655688551197" id="-29958">
		<tag k="fixme" v="consider place=hamlet" />
		<tag k="name" v="Kroksrud" />
		<tag k="place" v="farm" />
		<tag k="ssr:stedsnr" v="3633" />
	</node>
	<node lat="59.69039166218226" lon="10.591558341201646" id="-29960">
		<tag k="name" v="Tronstad" />
		<tag k="place" v="isolated_dwelling" />
		<tag k="ssr:stedsnr" v="3742" />
	</node>
	<node lat="59.67904360075572" lon="10.656578360899369" id="-29961">
		<tag k="fixme" v="consider place=hamlet" />
		<tag k="name" v="Kringerud" />
		<tag k="place" v="farm" />
		<tag k="ssr:stedsnr" v="3755" />
	</node>
	<node lat="59.68464166863836" lon="10.73211388221658" id="-29967">
		<tag k="name" v="Sørbråten" />
		<tag k="place" v="farm" />
		<tag k="ssr:stedsnr" v="39311" />
	</node>
	<node lat="59.655822219891334" lon="10.65814444964736" id="-29970">
		<tag k="name" v="Nordre Øyerud hyttefelt" />
		<tag k="place" v="neighbourhood" />
		<tag k="ssr:stedsnr" v="39475" />
	</node>
	<node lat="59.655138890411884" lon="10.672486110186561" id="-29971">
		<tag k="name" v="Kolstadbråten" />
		<tag k="place" v="locality" />
		<tag k="ssr:stedsnr" v="39477" />
	</node>
	<node lat="59.701222225269134" lon="10.602630550722958" id="-29972">
		<tag k="name" v="Marikova" />
		<tag k="place" v="hamlet" />
		<tag k="ssr:stedsnr" v="39481" />
	</node>
	<node lat="59.66163435341801" lon="10.639303964749041" id="-29973">
		<tag k="fixme" v="consider place=hamlet" />
		<tag k="name" v="Tverkjegla" />
		<tag k="place" v="farm" />
		<tag k="ssr:stedsnr" v="240041" />
	</node>
	<node lat="59.68926389209158" lon="10.689555560061606" id="-29974">
		<tag k="name" v="Mellom-Roksrud" />
		<tag k="place" v="farm" />
		<tag k="ssr:stedsnr" v="240157" />
	</node>
	<node lat="59.675083330869526" lon="10.688166669326284" id="-29975">
		<tag k="name" v="Nordre Ermesø" />
		<tag k="place" v="farm" />
		<tag k="ssr:stedsnr" v="58594" />
	</node>
	<node lat="59.73283055167279" lon="10.706533341535163" id="-29977">
		<tag k="name" v="Bølerbråten" />
		<tag k="place" v="farm" />
		<tag k="ssr:stedsnr" v="240466" />
	</node>
	<node lat="59.664038887928214" lon="10.683650003588125" id="-29978">
		<tag k="name" v="Nordre Fjøser" />
		<tag k="place" v="farm" />
		<tag k="ssr:stedsnr" v="240629" />
	</node>
	<node lat="59.71235555633684" lon="10.646522227729792" id="-29979">
		<tag k="name" v="Pollen" />
		<tag k="place" v="isolated_dwelling" />
		<tag k="ssr:stedsnr" v="240642" />
	</node>
	<node lat="59.65650833454222" lon="10.640144440656998" id="-29980">
		<tag k="name" v="Nordre Sogsti" />
		<tag k="place" v="farm" />
		<tag k="ssr:stedsnr" v="240576" />
	</node>
	<node lat="59.68741320140505" lon="10.683170869547615" id="-29982">
		<tag k="name" v="Glosli" />
		<tag k="place" v="hamlet" />
		<tag k="ssr:stedsnr" v="63769" />
	</node>
	<node lat="59.70039722238254" lon="10.6589083244833" id="-29983">
		<tag k="name" v="Monsrud" />
		<tag k="place" v="farm" />
		<tag k="ssr:stedsnr" v="64759" />
	</node>
	<node lat="59.69717500037429" lon="10.632947216559948" id="-29984">
		<tag k="name" v="Holmen" />
		<tag k="place" v="hamlet" />
		<tag k="ssr:stedsnr" v="64767" />
	</node>
	<node lat="59.70951666770005" lon="10.705275007119972" id="-29985">
		<tag k="fixme" v="consider place=hamlet" />
		<tag k="name" v="Stubberud" />
		<tag k="place" v="farm" />
		<tag k="ssr:stedsnr" v="64819" />
	</node>
	<node lat="59.67532493426613" lon="10.688686801520648" id="-29986">
		<tag k="fixme" v="consider place=hamlet" />
		<tag k="name" v="Ermesø" />
		<tag k="place" v="farm" />
		<tag k="ssr:stedsnr" v="64873" />
	</node>
	<node lat="59.67720844264441" lon="10.696534120871805" id="-29987">
		<tag k="fixme" v="consider place=hamlet" />
		<tag k="name" v="Berg" />
		<tag k="place" v="farm" />
		<tag k="ssr:stedsnr" v="64875" />
	</node>
	<node lat="59.6676699377065" lon="10.64464771653123" id="-29988">
		<tag k="fixme" v="consider place=hamlet" />
		<tag k="name" v="Ullerud" />
		<tag k="place" v="farm" />
		<tag k="ssr:stedsnr" v="64880" />
	</node>
	<node lat="59.699888889506276" lon="10.640080563421053" id="-29989">
		<tag k="name" v="Kleiva" />
		<tag k="place" v="hamlet" />
		<tag k="ssr:stedsnr" v="85905" />
	</node>
	<node lat="59.730622218875446" lon="10.687708327359584" id="-29992">
		<tag k="alt_name" v="Dal, østre;Østre Dal" />
		<tag k="name" v="Øvre Dal" />
		<tag k="place" v="farm" />
		<tag k="ssr:stedsnr" v="246748" />
	</node>
	<node lat="59.67462607628498" lon="10.679297153729404" id="-29997">
		<tag k="fixme" v="consider place=hamlet" />
		<tag k="name" v="Kykkelsrud" />
		<tag k="place" v="farm" />
		<tag k="ssr:stedsnr" v="246840" />
	</node>
	<node lat="59.768061109719916" lon="10.69157500481415" id="-29998">
		<tag k="alt_name" v="Garder" />
		<tag k="name" v="Nedre Garder" />
		<tag k="place" v="farm" />
		<tag k="ssr:stedsnr" v="247623" />
	</node>
	<node lat="59.758124996596386" lon="10.702147226200584" id="-29999">
		<tag k="alt_name" v="Glenne, øvre" />
		<tag k="name" v="Øvre Glenne" />
		<tag k="place" v="farm" />
		<tag k="ssr:stedsnr" v="247585" />
	</node>
	<node lat="59.71228610841028" lon="10.663513893475953" id="-30002">
		<tag k="name" v="Skyssrudfeltet" />
		<tag k="place" v="quarter" />
		<tag k="ssr:stedsnr" v="100367" />
	</node>
	<node lat="59.73749166561482" lon="10.640980559647991" id="-30004">
		<tag k="name" v="Mellom-Gulbjørnrud" />
		<tag k="place" v="farm" />
		<tag k="ssr:stedsnr" v="100464" />
	</node>
	<node lat="59.6875961621896" lon="10.66498935796702" id="-30009">
		<tag k="fixme" v="consider place=hamlet" />
		<tag k="name" v="Ottarsrud" />
		<tag k="place" v="farm" />
		<tag k="ssr:stedsnr" v="124723" />
	</node>
	<node lat="59.700144375680836" lon="10.726428470548003" id="-30010">
		<tag k="fixme" v="consider place=hamlet" />
		<tag k="name" v="Frogn" />
		<tag k="place" v="farm" />
		<tag k="ssr:stedsnr" v="125416" />
	</node>
	<node lat="59.6520450053405" lon="10.650622609101816" id="-30011">
		<tag k="fixme" v="consider place=hamlet" />
		<tag k="name" v="Odalen" />
		<tag k="place" v="farm" />
		<tag k="ssr:stedsnr" v="146021" />
	</node>
	<node lat="59.705801830313774" lon="10.674221370425336" id="-30016">
		<tag k="fixme" v="consider place=hamlet" />
		<tag k="name" v="Holt" />
		<tag k="place" v="farm" />
		<tag k="ssr:stedsnr" v="185727" />
	</node>
	<node lat="59.7029833364626" lon="10.704499991898944" id="-30017">
		<tag k="name" v="Skjønhaug" />
		<tag k="place" v="farm" />
		<tag k="ssr:stedsnr" v="185729" />
	</node>
	<node lat="59.6835017192535" lon="10.70096406859302" id="-30019">
		<tag k="fixme" v="consider place=hamlet" />
		<tag k="name" v="Rød" />
		<tag k="place" v="farm" />
		<tag k="ssr:stedsnr" v="185839" />
	</node>
	<node lat="59.74776110729068" lon="10.698005562690113" id="-30026">
		<tag k="name" v="Vestre Dal" />
		<tag k="place" v="farm" />
		<tag k="ssr:stedsnr" v="221408" />
	</node>
	<node lat="59.712297223539956" lon="10.650394449035828" id="-30029">
		<tag k="fixme" v="multiple name tags, choose one and add the other to alt_name" />
		<tag k="name" v="Holtberget;Berget" />
		<tag k="place" v="farm" />
		<tag k="ssr:stedsnr" v="221570" />
	</node>
	<node lat="59.76987221886235" lon="10.711986106115697" id="-30030">
		<tag k="name" v="Skirstad" />
		<tag k="place" v="farm" />
		<tag k="ssr:stedsnr" v="221589" />
	</node>
	<node lat="59.7232722224357" lon="10.587749992895999" id="-30032">
		<tag k="name" v="Hethol" />
		<tag k="place" v="farm" />
		<tag k="ssr:stedsnr" v="450117" />
	</node>
	<node lat="59.71948332961213" lon="10.587677778096522" id="-30033">
		<tag k="name" v="Digerud" />
		<tag k="place" v="isolated_dwelling" />
		<tag k="ssr:stedsnr" v="240904" />
	</node>
	<node lat="59.680564435251675" lon="10.66561885702498" id="-30035">
		<tag k="fixme" v="consider place=hamlet" />
		<tag k="name" v="Gislerud" />
		<tag k="place" v="farm" />
		<tag k="ssr:stedsnr" v="245748" />
	</node>
	<node lat="59.752411113214556" lon="10.711891673275098" id="-30036">
		<tag k="name" v="Brevik" />
		<tag k="place" v="hamlet" />
		<tag k="ssr:stedsnr" v="247581" />
	</node>
	<node lat="59.76952499558066" lon="10.713083337675" id="-30037">
		<tag k="name" v="Solbukta" />
		<tag k="place" v="isolated_dwelling" />
		<tag k="ssr:stedsnr" v="247606" />
	</node>
	<node lat="59.73643333105503" lon="10.715416674136359" id="-30038">
		<tag k="name" v="Øvre Knardal" />
		<tag k="place" v="farm" />
		<tag k="ssr:stedsnr" v="282418" />
	</node>
	<node lat="59.63101110802926" lon="10.646527775954766" id="-30039">
		<tag k="name" v="Søndre Eikeberg hyttefelt" />
		<tag k="place" v="neighbourhood" />
		<tag k="ssr:stedsnr" v="282421" />
	</node>
	<node lat="59.63514722219862" lon="10.64885833675899" id="-30041">
		<tag k="name" v="Nordre Eikeberg hyttefelt" />
		<tag k="place" v="neighbourhood" />
		<tag k="ssr:stedsnr" v="282425" />
	</node>
	<node lat="59.637288885299334" lon="10.671952779624757" id="-30044">
		<tag k="name" v="Øvre Solberg" />
		<tag k="place" v="farm" />
		<tag k="ssr:stedsnr" v="282508" />
	</node>
	<node lat="59.726175000274" lon="10.592780551070483" id="-30045">
		<tag k="fixme" v="multiple name tags, choose one and add the other to alt_name" />
		<tag k="name" v="Åstvet;Søndre Sandvika" />
		<tag k="place" v="isolated_dwelling" />
		<tag k="ssr:stedsnr" v="282885" />
	</node>
	<node lat="59.68715833529372" lon="10.706716665533303" id="-30048">
		<tag k="name" v="Rødsholtet" />
		<tag k="place" v="hamlet" />
		<tag k="ssr:stedsnr" v="463140" />
	</node>
	<node lat="59.747263890909885" lon="10.648133326083537" id="-30049">
		<tag k="name" v="Søndre Kopperud" />
		<tag k="place" v="farm" />
		<tag k="ssr:stedsnr" v="463428" />
	</node>
	<node lat="59.76921388904342" lon="10.69836388318862" id="-30051">
		<tag k="name" v="Garderbråtan" />
		<tag k="place" v="farm" />
		<tag k="ssr:stedsnr" v="463651" />
	</node>
	<node lat="59.68341666566509" lon="10.662899998446047" id="-30052">
		<tag k="amenity" v="school" />
		<tag k="name" v="Heer skole" />
		<tag k="ssr:stedsnr" v="463721" />
	</node>
	<node lat="59.76257222439653" lon="10.66209722345837" id="-30056">
		<tag k="alt_name" v="Skog, nordre;Nordre Skau" />
		<tag k="name" v="Nordre Skog" />
		<tag k="place" v="farm" />
		<tag k="ssr:stedsnr" v="308619" />
	</node>
	<node lat="59.682621167836075" lon="10.715089694247752" id="-30065">
		<tag k="fixme" v="consider place=hamlet" />
		<tag k="name" v="Bakker" />
		<tag k="place" v="farm" />
		<tag k="ssr:stedsnr" v="367829" />
	</node>
	<node lat="59.688219442262195" lon="10.687830550923836" id="-30068">
		<tag k="name" v="Ødegården" />
		<tag k="place" v="farm" />
		<tag k="ssr:stedsnr" v="482138" />
	</node>
	<node lat="59.67107777997623" lon="10.701244441377115" id="-30069">
		<tag k="name" v="Mellom-Furu" />
		<tag k="place" v="farm" />
		<tag k="ssr:stedsnr" v="482585" />
	</node>
	<node lat="59.68513611498063" lon="10.68938055577772" id="-30073">
		<tag k="name" v="Nordre Roksrud" />
		<tag k="place" v="farm" />
		<tag k="ssr:stedsnr" v="403141" />
	</node>
	<node lat="59.70534722102653" lon="10.681388892523938" id="-30074">
		<tag k="name" v="Bjerkebråtan" />
		<tag k="place" v="farm" />
		<tag k="ssr:stedsnr" v="403461" />
	</node>
	<node lat="59.70838055504858" lon="10.748802777739913" id="-30077">
		<tag k="alt_name" v="Stokkholm" />
		<tag k="name" v="Stokholm" />
		<tag k="place" v="farm" />
		<tag k="ssr:stedsnr" v="488563" />
	</node>
	<node lat="59.614399997294356" lon="10.656794444918042" id="-30078">
		<tag k="name" v="Saga" />
		<tag k="place" v="isolated_dwelling" />
		<tag k="ssr:stedsnr" v="488616" />
	</node>
	<node lat="59.68968333769108" lon="10.694105552160543" id="-30080">
		<tag k="name" v="Bilitt" />
		<tag k="place" v="farm" />
		<tag k="ssr:stedsnr" v="422143" />
	</node>
	<node lat="59.6705861110533" lon="10.671922213833199" id="-30081">
		<tag k="name" v="Kykkelsrudbråten" />
		<tag k="place" v="farm" />
		<tag k="ssr:stedsnr" v="422590" />
	</node>
	<node lat="59.6919692856831" lon="10.701609288124029" id="-30082">
		<tag k="name" v="Huseby" />
		<tag k="place" v="hamlet" />
		<tag k="ssr:stedsnr" v="428759" />
	</node>
	<node lat="59.68675511308212" lon="10.677065132670133" id="-30083">
		<tag k="fixme" v="consider place=hamlet" />
		<tag k="name" v="Tomter" />
		<tag k="place" v="farm" />
		<tag k="ssr:stedsnr" v="428764" />
	</node>
	<node lat="59.67401389277449" lon="10.65495833646991" id="-30085">
		<tag k="name" v="Dyrløkke" />
		<tag k="place" v="suburb" />
		<tag k="ssr:stedsnr" v="428861" />
	</node>
	<node lat="59.670714439785975" lon="10.701217149031352" id="-30086">
		<tag k="name" v="Furu" />
		<tag k="place" v="hamlet" />
		<tag k="ssr:stedsnr" v="428870" />
	</node>
	<node lat="59.74978056135226" lon="10.64760693252926" id="-30087">
		<tag k="fixme" v="consider place=hamlet" />
		<tag k="name" v="Kopperud" />
		<tag k="place" v="farm" />
		<tag k="ssr:stedsnr" v="430512" />
	</node>
	<node lat="59.74197080570945" lon="10.66577483075227" id="-30088">
		<tag k="name" v="Lindebråte" />
		<tag k="place" v="locality" />
		<tag k="ssr:stedsnr" v="670944" />
	</node>
	<node lat="59.743363889795795" lon="10.697783332602409" id="-30089">
		<tag k="alt_name" v="Dal, midtre;Mellom Dal" />
		<tag k="name" v="Midtre Dal" />
		<tag k="place" v="farm" />
		<tag k="ssr:stedsnr" v="670946" />
	</node>
	<node lat="59.727991666473635" lon="10.724927783018048" id="-30090">
		<tag k="name" v="England" />
		<tag k="place" v="isolated_dwelling" />
		<tag k="ssr:stedsnr" v="450229" />
	</node>
	<node lat="59.742624609837385" lon="10.71511800708268" id="-30091">
		<tag k="name" v="Fuglesang feriehjem" />
		<tag k="ssr:stedsnr" v="451468" />
		<tag k="tourism" v="guest_house" />
	</node>
	<node lat="59.75313055839343" lon="10.69117499183925" id="-30094">
		<tag k="name" v="Garderenga" />
		<tag k="place" v="farm" />
		<tag k="ssr:stedsnr" v="671601" />
	</node>
	<node lat="59.64570556174167" lon="10.662155629157375" id="-30095">
		<tag k="fixme" v="consider place=hamlet" />
		<tag k="name" v="Røys" />
		<tag k="place" v="farm" />
		<tag k="ssr:stedsnr" v="671834" />
	</node>
	<node lat="59.67385868275921" lon="10.6600721076739" id="-30096">
		<tag k="fixme" v="consider place=hamlet" />
		<tag k="name" v="Holter" />
		<tag k="place" v="farm" />
		<tag k="ssr:stedsnr" v="671856" />
	</node>
	<node lat="59.67583889175486" lon="10.67378056113141" id="-30097">
		<tag k="name" v="Finset" />
		<tag k="place" v="farm" />
		<tag k="ssr:stedsnr" v="671859" />
	</node>
	<node lat="59.75924444360986" lon="10.693408334752489" id="-30098">
		<tag k="alt_name" v="Garder, østre" />
		<tag k="name" v="Østre Garder" />
		<tag k="place" v="farm" />
		<tag k="ssr:stedsnr" v="672576" />
	</node>
	<node lat="59.76138611416616" lon="10.686111115482344" id="-30099">
		<tag k="alt_name" v="Garder, nordre" />
		<tag k="name" v="Nordre Garder" />
		<tag k="place" v="farm" />
		<tag k="ssr:stedsnr" v="672579" />
	</node>
	<node lat="59.75376389268073" lon="10.664027786242944" id="-30100">
		<tag k="name" v="Slottet" />
		<tag k="place" v="farm" />
		<tag k="ssr:stedsnr" v="672580" />
	</node>
	<node lat="59.76597375123206" lon="10.675690663980966" id="-30101">
		<tag k="fixme" v="consider place=hamlet" />
		<tag k="name" v="Skuterud" />
		<tag k="place" v="farm" />
		<tag k="ssr:stedsnr" v="672618" />
	</node>
	<node lat="59.69131666889527" lon="10.699624995399253" id="-30104">
		<tag k="name" v="Mellom-Huseby" />
		<tag k="place" v="farm" />
		<tag k="ssr:stedsnr" v="482118" />
	</node>
	<node lat="59.696336108801795" lon="10.699080564132856" id="-30105">
		<tag k="name" v="Husebyhagen" />
		<tag k="place" v="farm" />
		<tag k="ssr:stedsnr" v="482220" />
	</node>
	<node lat="59.63504890175617" lon="10.65451018913309" id="-30107">
		<tag k="fixme" v="consider place=hamlet" />
		<tag k="name" v="Eikeberg" />
		<tag k="place" v="farm" />
		<tag k="ssr:stedsnr" v="488659" />
	</node>
	<node lat="59.70279166913668" lon="10.652166674595263" id="-30108">
		<tag k="alt_name" v="Snerrevik;Sperrvik" />
		<tag k="name" v="Sperrevik" />
		<tag k="place" v="farm" />
		<tag k="ssr:stedsnr" v="488744" />
	</node>
	<node lat="59.65903490952792" lon="10.672837869978228" id="-30109">
		<tag k="fixme" v="consider place=hamlet" />
		<tag k="name" v="Kolstad" />
		<tag k="place" v="farm" />
		<tag k="ssr:stedsnr" v="489827" />
	</node>
	<node lat="59.77038597945878" lon="10.682694974177606" id="-30110">
		<tag k="fixme" v="consider place=hamlet" />
		<tag k="name" v="Gullerud" />
		<tag k="place" v="farm" />
		<tag k="ssr:stedsnr" v="490620" />
	</node>
	<node lat="59.68511667074909" lon="10.62394166926884" id="-30111">
		<tag k="name" v="Gylte" />
		<tag k="place" v="farm" />
		<tag k="ssr:stedsnr" v="510062" />
	</node>
	<node lat="59.69215555496599" lon="10.734386117010459" id="-30112">
		<tag k="name" v="Årungstua" />
		<tag k="place" v="isolated_dwelling" />
		<tag k="ssr:stedsnr" v="524327" />
	</node>
	<node lat="59.667494441729524" lon="10.632000008339425" id="-30114">
		<tag k="amenity" v="nursing_home" />
		<tag k="name" v="Seimåsen" />
		<tag k="ssr:stedsnr" v="543068" />
	</node>
	<node lat="59.6453194440401" lon="10.655549991859253" id="-30115">
		<tag k="name" v="Sørli" />
		<tag k="place" v="locality" />
		<tag k="ssr:stedsnr" v="543131" />
	</node>
	<node lat="59.662091662293484" lon="10.669636117378424" id="-30116">
		<tag k="name" v="Søndre Skorkeberg" />
		<tag k="place" v="farm" />
		<tag k="ssr:stedsnr" v="543577" />
	</node>
	<node lat="59.768733335792184" lon="10.708438880976974" id="-30118">
		<tag k="name" v="Søndre Haslum" />
		<tag k="place" v="farm" />
		<tag k="ssr:stedsnr" v="545514" />
	</node>
	<node lat="59.74141595525307" lon="10.6375365297146" id="-30119">
		<tag k="fixme" v="consider place=hamlet" />
		<tag k="name" v="Gulbjørnrud" />
		<tag k="place" v="farm" />
		<tag k="ssr:stedsnr" v="549967" />
	</node>
	<node lat="59.6900583357266" lon="10.619508328405809" id="-30120">
		<tag k="name" v="Tiurlia" />
		<tag k="place" v="hamlet" />
		<tag k="ssr:stedsnr" v="559805" />
	</node>
	<node lat="59.661169440071006" lon="10.645147227982742" id="-30122">
		<tag k="name" v="Holterteigen" />
		<tag k="place" v="farm" />
		<tag k="ssr:stedsnr" v="693038" />
	</node>
	<node lat="59.70871388968992" lon="10.599538884934661" id="-30124">
		<tag k="name" v="Solvik" />
		<tag k="place" v="isolated_dwelling" />
		<tag k="ssr:stedsnr" v="693164" />
	</node>
	<node lat="59.72896388455067" lon="10.592555553330262" id="-30125">
		<tag k="fixme" v="multiple name tags, choose one and add the other to alt_name" />
		<tag k="name" v="Nordre Sandvika;Sandvika" />
		<tag k="place" v="isolated_dwelling" />
		<tag k="ssr:stedsnr" v="693167" />
	</node>
	<node lat="59.71722499744194" lon="10.71114444815566" id="-30126">
		<tag k="fixme" v="consider place=hamlet" />
		<tag k="name" v="Mien" />
		<tag k="place" v="farm" />
		<tag k="ssr:stedsnr" v="693290" />
	</node>
	<node lat="59.618750000789746" lon="10.651600007607835" id="-30128">
		<tag k="name" v="Børrebråten" />
		<tag k="place" v="isolated_dwelling" />
		<tag k="ssr:stedsnr" v="571006" />
	</node>
	<node lat="59.64904063080003" lon="10.635589738039664" id="-30129">
		<tag k="fixme" v="consider place=hamlet" />
		<tag k="name" v="Løkkedal" />
		<tag k="place" v="farm" />
		<tag k="ssr:stedsnr" v="571023" />
	</node>
	<node lat="59.71968055633243" lon="10.607708327694576" id="-30132">
		<tag k="name" v="Søndre Digerud" />
		<tag k="place" v="farm" />
		<tag k="ssr:stedsnr" v="585410" />
	</node>
	<node lat="59.74218610744623" lon="10.644927780920954" id="-30134">
		<tag k="name" v="Gulbjørnrudbråten" />
		<tag k="place" v="farm" />
		<tag k="ssr:stedsnr" v="585951" />
	</node>
	<node lat="59.67495278184692" lon="10.679369438650985" id="-30136">
		<tag k="name" v="Nordre Kykkelsrud" />
		<tag k="place" v="farm" />
		<tag k="ssr:stedsnr" v="603567" />
	</node>
	<node lat="59.70946944094961" lon="10.747422217572861" id="-30137">
		<tag k="name" v="Askebakke" />
		<tag k="place" v="farm" />
		<tag k="ssr:stedsnr" v="609542" />
	</node>
	<node lat="59.70317974655706" lon="10.742626027341533" id="-30139">
		<tag k="fixme" v="consider place=hamlet" />
		<tag k="name" v="Vassum" />
		<tag k="place" v="farm" />
		<tag k="ssr:stedsnr" v="610430" />
	</node>
	<node lat="59.71357777895004" lon="10.663219437168822" id="-30140">
		<tag k="name" v="Skyssrud" />
		<tag k="place" v="farm" />
		<tag k="ssr:stedsnr" v="610824" />
	</node>
	<node lat="59.75205000407986" lon="10.705183341948358" id="-30141">
		<tag k="name" v="Køya" />
		<tag k="old_name" v="Kjøya" />
		<tag k="place" v="farm" />
		<tag k="ssr:stedsnr" v="611608" />
	</node>
	<node lat="59.64977222372139" lon="10.665138883233116" id="-30142">
		<tag k="alt_name" v="Søndre Øyerud" />
		<tag k="name" v="Søndre Øyrud" />
		<tag k="place" v="farm" />
		<tag k="ssr:stedsnr" v="631032" />
	</node>
	<node lat="59.69081944193462" lon="10.627663884309435" id="-30144">
		<tag k="name" v="Ottarsrud" />
		<tag k="place" v="neighbourhood" />
		<tag k="ssr:stedsnr" v="640813" />
	</node>
	<node lat="59.7700527785005" lon="10.68273611860925" id="-30145">
		<tag k="name" v="Søndre Gullerud" />
		<tag k="place" v="farm" />
		<tag k="ssr:stedsnr" v="706279" />
	</node>
	<node lat="59.760222226341526" lon="10.678858334805918" id="-30146">
		<tag k="name" v="Granli" />
		<tag k="place" v="isolated_dwelling" />
		<tag k="ssr:stedsnr" v="706284" />
	</node>
	<node lat="59.750086111993994" lon="10.65083332562165" id="-30151">
		<tag k="name" v="Skjønhaug" />
		<tag k="place" v="farm" />
		<tag k="ssr:stedsnr" v="645414" />
	</node>
	<node lat="59.76098060511571" lon="10.654616844085663" id="-30152">
		<tag k="fixme" v="consider place=hamlet" />
		<tag k="name" v="Skog" />
		<tag k="place" v="farm" />
		<tag k="ssr:stedsnr" v="645415" />
	</node>
	<node lat="59.717622226317914" lon="10.728022221014433" id="-30155">
		<tag k="name" v="Fossen" />
		<tag k="place" v="locality" />
		<tag k="ssr:stedsnr" v="645375" />
	</node>
	<node lat="59.68452777800884" lon="10.623627784395055" id="-30156">
		<tag k="name" v="Gylte" />
		<tag k="place" v="isolated_dwelling" />
		<tag k="ssr:stedsnr" v="645710" />
	</node>
	<node lat="59.68403888637381" lon="10.626997219792928" id="-30157">
		<tag k="name" v="Gylteåsen" />
		<tag k="place" v="neighbourhood" />
		<tag k="ssr:stedsnr" v="706715" />
	</node>
	<node lat="59.72076666245023" lon="10.607833337568449" id="-30162">
		<tag k="name" v="Nordre Digerud" />
		<tag k="place" v="farm" />
		<tag k="ssr:stedsnr" v="707467" />
	</node>
	<node lat="59.665591664121585" lon="10.636986111637825" id="-30163">
		<tag k="name" v="Karlsrud" />
		<tag k="place" v="quarter" />
		<tag k="ssr:stedsnr" v="664037" />
	</node>
	<node lat="59.726700001518616" lon="10.69435834090512" id="-30175">
		<tag k="name" v="Berger" />
		<tag k="place" v="farm" />
		<tag k="ssr:stedsnr" v="706461" />
	</node>
	<node lat="59.67441944060621" lon="10.680441664475033" id="-30177">
		<tag k="name" v="Søndre Kykkelsrud" />
		<tag k="place" v="farm" />
		<tag k="ssr:stedsnr" v="725532" />
	</node>
	<node lat="59.71182222525868" lon="10.600363896776088" id="-30180">
		<tag k="name" v="Sønderstøa" />
		<tag k="place" v="isolated_dwelling" />
		<tag k="ssr:stedsnr" v="731803" />
	</node>
	<node lat="59.69615277768969" lon="10.707050000120976" id="-30184">
		<tag k="name" v="Vestre Bjerke" />
		<tag k="place" v="farm" />
		<tag k="ssr:stedsnr" v="907126" />
	</node>
	<node lat="59.6350861151882" lon="10.672213890218494" id="-30185">
		<tag k="name" v="Nedre Kroksrud" />
		<tag k="place" v="farm" />
		<tag k="ssr:stedsnr" v="767506" />
	</node>
	<node lat="59.63565833078902" lon="10.6737499975051" id="-30186">
		<tag k="name" v="Nedre Solberg" />
		<tag k="place" v="farm" />
		<tag k="ssr:stedsnr" v="767509" />
	</node>
	<node lat="59.67758611440169" lon="10.606794436367693" id="-30188">
		<tag k="landuse" v="military" />
		<tag k="name" v="Nordre Oscarsborg" />
		<tag k="ssr:stedsnr" v="907360" />
	</node>
	<node lat="59.69800555430125" lon="10.65568055480254" id="-30194">
		<tag k="name" v="Søndre Dammen" />
		<tag k="place" v="farm" />
		<tag k="ssr:stedsnr" v="908892" />
	</node>
	<node lat="59.68578333663148" lon="10.676019447686663" id="-30195">
		<tag k="name" v="Nedre Tomter" />
		<tag k="place" v="farm" />
		<tag k="ssr:stedsnr" v="786136" />
	</node>
	<node lat="59.66834444233112" lon="10.643758340870738" id="-30197">
		<tag k="alt_name" v="Ullerud nordre" />
		<tag k="name" v="Nordre Ullerud" />
		<tag k="place" v="farm" />
		<tag k="ssr:stedsnr" v="786461" />
	</node>
	<node lat="59.67242222380183" lon="10.69263054976929" id="-30198">
		<tag k="name" v="Søndre Ermesø" />
		<tag k="place" v="farm" />
		<tag k="ssr:stedsnr" v="786604" />
	</node>
	<node lat="59.697941668985266" lon="10.610291668831831" id="-30200">
		<tag k="name" v="Båtstøfeltet" />
		<tag k="place" v="neighbourhood" />
		<tag k="ssr:stedsnr" v="786860" />
	</node>
	<node lat="59.701686110907346" lon="10.656483326666057" id="-30201">
		<tag k="name" v="Nordre Dammen" />
		<tag k="place" v="farm" />
		<tag k="ssr:stedsnr" v="786863" />
	</node>
	<node lat="59.7567527801603" lon="10.68820834090484" id="-30203">
		<tag k="alt_name" v="Garder, søndre" />
		<tag k="name" v="Søndre Garder" />
		<tag k="place" v="farm" />
		<tag k="ssr:stedsnr" v="794603" />
	</node>
	<node lat="59.67928611105186" lon="10.67041666475634" id="-30206">
		<tag k="name" v="Flater" />
		<tag k="place" v="farm" />
		<tag k="ssr:stedsnr" v="913759" />
	</node>
	<node lat="59.729002766550046" lon="10.704247338301899" id="-30208">
		<tag k="fixme" v="consider place=hamlet" />
		<tag k="name" v="Bøler" />
		<tag k="place" v="farm" />
		<tag k="ssr:stedsnr" v="913766" />
	</node>
	<node lat="59.730841664328146" lon="10.67190833109356" id="-30209">
		<tag k="name" v="Dalen" />
		<tag k="place" v="farm" />
		<tag k="ssr:stedsnr" v="913772" />
	</node>
	<node lat="59.675290435615544" lon="10.64627084239986" id="-30214">
		<tag k="name" v="Belsjø" />
		<tag k="place" v="hamlet" />
		<tag k="ssr:stedsnr" v="914862" />
	</node>
	<node lat="59.70423333057124" lon="10.653091674012693" id="-30216">
		<tag k="name" v="Spervika" />
		<tag k="place" v="hamlet" />
		<tag k="ssr:stedsnr" v="828381" />
	</node>
	<node lat="59.71975555596714" lon="10.602397219324375" id="-30217">
		<tag k="name" v="Bråtan" />
		<tag k="place" v="farm" />
		<tag k="ssr:stedsnr" v="828505" />
	</node>
	<node lat="59.73598888992295" lon="10.715805561469445" id="-30219">
		<tag k="name" v="Nedre Knardal" />
		<tag k="place" v="farm" />
		<tag k="ssr:stedsnr" v="828410" />
	</node>
	<node lat="59.739611113743365" lon="10.67086945072932" id="-30220">
		<tag k="name" v="Mellom-Lindebråte" />
		<tag k="place" v="farm" />
		<tag k="ssr:stedsnr" v="828413" />
	</node>
	<node lat="59.749827782050055" lon="10.645697226209892" id="-30221">
		<tag k="name" v="Vestre Kopperud" />
		<tag k="place" v="farm" />
		<tag k="ssr:stedsnr" v="828416" />
	</node>
	<node lat="59.72761944860852" lon="10.697661114042257" id="-30224">
		<tag k="alt_name" v="Bølerengen" />
		<tag k="name" v="Bølerenga" />
		<tag k="place" v="farm" />
		<tag k="ssr:stedsnr" v="847476" />
	</node>
	<node lat="59.71962457616822" lon="10.719939992424742" id="-30225">
		<tag k="fixme" v="consider place=hamlet" />
		<tag k="name" v="Flespjeld" />
		<tag k="place" v="farm" />
		<tag k="ssr:stedsnr" v="853559" />
	</node>
	<node lat="59.7060895097969" lon="10.70172947116403" id="-30227">
		<tag k="fixme" v="consider place=hamlet" />
		<tag k="name" v="Skjellerud" />
		<tag k="place" v="farm" />
		<tag k="ssr:stedsnr" v="853801" />
	</node>
	<node lat="59.70689721852607" lon="10.711027779292712" id="-30230">
		<tag k="name" v="Rommerud" />
		<tag k="place" v="locality" />
		<tag k="ssr:stedsnr" v="869980" />
	</node>
	<node lat="59.71544999853099" lon="10.710166662805042" id="-30233">
		<tag k="name" v="Rundvoll" />
		<tag k="place" v="isolated_dwelling" />
		<tag k="ssr:stedsnr" v="935215" />
	</node>
	<node lat="59.75516388919666" lon="10.668458340555432" id="-30234">
		<tag k="name" v="Søndre Kai" />
		<tag k="place" v="farm" />
		<tag k="ssr:stedsnr" v="888261" />
	</node>
	<node lat="59.76085833774779" lon="10.697744436012087" id="-30236">
		<tag k="name" v="Endre" />
		<tag k="place" v="isolated_dwelling" />
		<tag k="ssr:stedsnr" v="888415" />
	</node>
	<node lat="59.704930557535555" lon="10.600313893731794" id="-30240">
		<tag k="name" v="Marikoven" />
		<tag k="place" v="isolated_dwelling" />
		<tag k="ssr:stedsnr" v="913733" />
	</node>
	<node lat="59.71743333146708" lon="10.660552785303421" id="-30241">
		<tag k="name" v="Holtbråten" />
		<tag k="place" v="farm" />
		<tag k="ssr:stedsnr" v="913790" />
	</node>
	<node lat="59.6393527744183" lon="10.675313896904072" id="-30243">
		<tag k="fixme" v="multiple name tags, choose one and add the other to alt_name" />
		<tag k="name" v="Eike-Solberg;Øvre Solberg" />
		<tag k="place" v="farm" />
		<tag k="ssr:stedsnr" v="914705" />
	</node>
	<node lat="59.66411569109839" lon="10.684575438629508" id="-30244">
		<tag k="fixme" v="consider place=hamlet" />
		<tag k="name" v="Fjøser" />
		<tag k="place" v="farm" />
		<tag k="ssr:stedsnr" v="914875" />
	</node>
	<node lat="59.76994721776968" lon="10.693630559007284" id="-30245">
		<tag k="name" v="Sagstua" />
		<tag k="place" v="farm" />
		<tag k="ssr:stedsnr" v="915603" />
	</node>
	<node lat="59.676677781223304" lon="10.58844167142414" id="-30249">
		<tag k="alt_name" v="Orrekleiva" />
		<tag k="name" v="Orrekloa" />
		<tag k="place" v="isolated_dwelling" />
		<tag k="ssr:stedsnr" v="936091" />
	</node>
	<node lat="59.719611107326614" lon="10.589763890195142" id="-30253">
		<tag k="name" v="Sollia" />
		<tag k="place" v="farm" />
		<tag k="ssr:stedsnr" v="949511" />
	</node>
	<node lat="59.669513886123916" lon="10.626986119558595" id="-30254">
		<tag k="amenity" v="nursing_home" />
		<tag k="name" v="Grande" />
		<tag k="ssr:stedsnr" v="949830" />
	</node>
	<node lat="59.689166669358904" lon="10.676241668031128" id="-30255">
		<tag k="name" v="Østre Oppegård" />
		<tag k="place" v="farm" />
		<tag k="ssr:stedsnr" v="968150" />
	</node>
	<node lat="59.69141111107322" lon="10.651427779054748" id="-30256">
		<tag k="name" v="Måna" />
		<tag k="place" v="isolated_dwelling" />
		<tag k="ssr:stedsnr" v="968638" />
	</node>
	<node lat="59.684575391876244" lon="10.689908010445658" id="-30262">
		<tag k="fixme" v="consider place=hamlet" />
		<tag k="name" v="Roksrud" />
		<tag k="place" v="farm" />
		<tag k="ssr:stedsnr" v="3847" />
	</node>
	<node lat="59.640964227501414" lon="10.654974474577742" id="-30263">
		<tag k="fixme" v="consider place=hamlet" />
		<tag k="name" v="Leium" />
		<tag k="place" v="farm" />
		<tag k="ssr:stedsnr" v="3647" />
	</node>
	<node lat="59.72048182340255" lon="10.608556766995507" id="-30264">
		<tag k="fixme" v="consider place=hamlet" />
		<tag k="name" v="Digerud" />
		<tag k="place" v="farm" />
		<tag k="ssr:stedsnr" v="3796" />
	</node>
	<node lat="59.74243861656921" lon="10.714866369434592" id="-30265">
		<tag k="fixme" v="consider place=hamlet" />
		<tag k="name" v="Fuglesang" />
		<tag k="place" v="farm" />
		<tag k="ssr:stedsnr" v="3947" />
	</node>
	<node lat="59.75928127869884" lon="10.68655499971719" id="-30266">
		<tag k="alt_name" v="Garder, vestre" />
		<tag k="name" v="Vestre Garder" />
		<tag k="place" v="farm" />
		<tag k="ssr:stedsnr" v="4600" />
	</node>
	<node lat="59.75040555565262" lon="10.678613896073479" id="-30267">
		<tag k="name" v="Måsan" />
		<tag k="old_name" v="Mosen" />
		<tag k="place" v="isolated_dwelling" />
		<tag k="ssr:stedsnr" v="5591" />
	</node>
	<node lat="59.742783334722745" lon="10.720316658937081" id="-30270">
		<tag k="name" v="Ånebakke" />
		<tag k="place" v="isolated_dwelling" />
		<tag k="ssr:stedsnr" v="25246" />
	</node>
	<node lat="59.74758611013361" lon="10.715652784852367" id="-30271">
		<tag k="name" v="Nordli" />
		<tag k="place" v="isolated_dwelling" />
		<tag k="ssr:stedsnr" v="39398" />
	</node>
	<node lat="59.664344448783446" lon="10.6347416748433" id="-30278">
		<tag k="name" v="Holmåsen" />
		<tag k="place" v="quarter" />
		<tag k="ssr:stedsnr" v="58042" />
	</node>
	<node lat="59.69273888798215" lon="10.702877770835709" id="-30279">
		<tag k="name" v="Østre Huseby" />
		<tag k="place" v="farm" />
		<tag k="ssr:stedsnr" v="58143" />
	</node>
	<node lat="59.68028000328801" lon="10.707713855859586" id="-30283">
		<tag k="fixme" v="consider place=hamlet" />
		<tag k="name" v="Klunderud" />
		<tag k="place" v="farm" />
		<tag k="ssr:stedsnr" v="63840" />
	</node>
	<node lat="59.63851667058085" lon="10.643824991581582" id="-30286">
		<tag k="name" v="Skiphelle" />
		<tag k="ssr:stedsnr" v="86021" />
		<tag k="tourism" v="hotel" />
	</node>
	<node lat="59.63032893723829" lon="10.663308125307276" id="-30287">
		<tag k="name" v="Kroksrudsand" />
		<tag k="place" v="locality" />
		<tag k="ssr:stedsnr" v="86022" />
	</node>
	<node lat="59.6920527797547" lon="10.610649996884025" id="-30290">
		<tag k="name" v="Langebåtfeltet" />
		<tag k="place" v="hamlet" />
		<tag k="ssr:stedsnr" v="95782" />
	</node>
	<node lat="59.74922778184106" lon="10.649136120146904" id="-30292">
		<tag k="name" v="Østre Kopperud" />
		<tag k="place" v="farm" />
		<tag k="ssr:stedsnr" v="99459" />
	</node>
	<node lat="59.71980000140823" lon="10.62057222990646" id="-30294">
		<tag k="name" v="Østskogen" />
		<tag k="place" v="hamlet" />
		<tag k="ssr:stedsnr" v="100439" />
	</node>
	<node lat="59.67442222115367" lon="10.622269441810092" id="-30295">
		<tag k="name" v="Husvik" />
		<tag k="place" v="isolated_dwelling" />
		<tag k="ssr:stedsnr" v="100442" />
	</node>
	<node lat="59.629827775405815" lon="10.663333326381869" id="-30296">
		<tag k="name" v="Nedre Kroksrudsand" />
		<tag k="place" v="farm" />
		<tag k="ssr:stedsnr" v="100499" />
	</node>
	<node lat="59.66826111172941" lon="10.635480555736189" id="-30297">
		<tag k="leisure" v="pitch" />
		<tag k="name" v="Seiersten stadion" />
		<tag k="ssr:stedsnr" v="100823" />
	</node>
	<node lat="59.675500000045425" lon="10.648211114693023" id="-30301">
		<tag k="name" v="Søndre Belsjø" />
		<tag k="place" v="farm" />
		<tag k="ssr:stedsnr" v="118380" />
	</node>
	<node lat="59.65523611252624" lon="10.642797220503283" id="-30303">
		<tag k="name" v="Søndre Sogsti" />
		<tag k="place" v="farm" />
		<tag k="ssr:stedsnr" v="118515" />
	</node>
	<node lat="59.66537777831021" lon="10.628275000223569" id="-30304">
		<tag k="amenity" v="nursing_home" />
		<tag k="name" v="Frogn eldresenter" />
		<tag k="ssr:stedsnr" v="118519" />
	</node>
	<node lat="59.66290833615915" lon="10.66948333681444" id="-30305">
		<tag k="name" v="Nordre Skorkeberg" />
		<tag k="place" v="farm" />
		<tag k="ssr:stedsnr" v="118538" />
	</node>
	<node lat="59.642630554732094" lon="10.65030833836783" id="-30306">
		<tag k="name" v="Leiumåsen" />
		<tag k="place" v="quarter" />
		<tag k="ssr:stedsnr" v="118953" />
	</node>
	<node lat="59.61756389124912" lon="10.656488882759236" id="-30307">
		<tag k="name" v="Køyta" />
		<tag k="place" v="isolated_dwelling" />
		<tag k="ssr:stedsnr" v="119865" />
	</node>
	<node lat="59.70332221934947" lon="10.697780552628446" id="-30310">
		<tag k="name" v="Steinhuk" />
		<tag k="place" v="farm" />
		<tag k="ssr:stedsnr" v="124701" />
	</node>
	<node lat="59.74485944001428" lon="10.69919539826696" id="-30312">
		<tag k="name" v="Dal" />
		<tag k="place" v="hamlet" />
		<tag k="ssr:stedsnr" v="124932" />
	</node>
	<node lat="59.75077499948079" lon="10.661813895517016" id="-30314">
		<tag k="name" v="Myrvoll" />
		<tag k="place" v="isolated_dwelling" />
		<tag k="ssr:stedsnr" v="126597" />
	</node>
	<node lat="59.70480555452442" lon="10.628341670267723" id="-30316">
		<tag k="name" v="Høybråtenfeltet" />
		<tag k="place" v="quarter" />
		<tag k="ssr:stedsnr" v="160349" />
	</node>
	<node lat="59.682941670693694" lon="10.700674993139623" id="-30317">
		<tag k="name" v="Søndre Rød" />
		<tag k="place" v="farm" />
		<tag k="ssr:stedsnr" v="160127" />
	</node>
	<node lat="59.766491669281386" lon="10.694844436836041" id="-30318">
		<tag k="name" v="Høyendal" />
		<tag k="place" v="isolated_dwelling" />
		<tag k="ssr:stedsnr" v="160255" />
	</node>
	<node lat="59.77114722241141" lon="10.682772218752136" id="-30319">
		<tag k="name" v="Nordre Gullerud" />
		<tag k="place" v="farm" />
		<tag k="ssr:stedsnr" v="160257" />
	</node>
	<node lat="59.704336108778335" lon="10.735780560463796" id="-30320">
		<tag k="name" v="Frydenlund" />
		<tag k="place" v="farm" />
		<tag k="ssr:stedsnr" v="160339" />
	</node>
	<node lat="59.718250004492226" lon="10.6253861114288" id="-30322">
		<tag k="name" v="Nordre Hallangen" />
		<tag k="place" v="hamlet" />
		<tag k="ssr:stedsnr" v="160342" />
	</node>
	<node lat="59.70566388961581" lon="10.662902780629835" id="-30324">
		<tag k="name" v="Holthagen" />
		<tag k="place" v="farm" />
		<tag k="ssr:stedsnr" v="160408" />
	</node>
	<node lat="59.73797222595061" lon="10.679861112677791" id="-30328">
		<tag k="name" v="Møglestu" />
		<tag k="place" v="isolated_dwelling" />
		<tag k="ssr:stedsnr" v="160382" />
	</node>
	<node lat="59.63306666438742" lon="10.668549993967265" id="-30329">
		<tag k="name" v="Øvre Kroksrud" />
		<tag k="place" v="farm" />
		<tag k="ssr:stedsnr" v="160451" />
	</node>
	<node lat="59.73472777895443" lon="10.645113884228513" id="-30332">
		<tag k="alt_name" v="Gulbjørnrud" />
		<tag k="name" v="Søndre Gulbjørnrud" />
		<tag k="place" v="farm" />
		<tag k="ssr:stedsnr" v="160957" />
	</node>
	<node lat="59.68710278170176" lon="10.67949722117233" id="-30335">
		<tag k="name" v="Øvre Tomter" />
		<tag k="place" v="farm" />
		<tag k="ssr:stedsnr" v="179149" />
	</node>
	<node lat="59.72717777625201" lon="10.670425000323146" id="-30339">
		<tag k="name" v="Tassebråten" />
		<tag k="place" v="farm" />
		<tag k="ssr:stedsnr" v="185770" />
	</node>
	<node lat="59.690588631984916" lon="10.72847480816382" id="-30340">
		<tag k="fixme" v="consider place=hamlet" />
		<tag k="name" v="Horgen" />
		<tag k="place" v="farm" />
		<tag k="ssr:stedsnr" v="186465" />
	</node>
	<node lat="59.760144445280446" lon="10.706125000032815" id="-30341">
		<tag k="alt_name" v="Glenne, nedre" />
		<tag k="name" v="Nedre Glenne" />
		<tag k="place" v="farm" />
		<tag k="ssr:stedsnr" v="186653" />
	</node>
	<node lat="59.64269999849611" lon="10.64103333826572" id="-30342">
		<tag k="name" v="Søndre Elle" />
		<tag k="place" v="farm" />
		<tag k="ssr:stedsnr" v="186839" />
	</node>
	<node lat="59.673525000879955" lon="10.607077778666236" id="-30343">
		<tag k="landuse" v="military" />
		<tag k="name" v="Oscarsborg" />
		<tag k="ssr:stedsnr" v="186859" />
	</node>
	<node lat="59.70284999604766" lon="10.61786666023456" id="-30346">
		<tag k="name" v="Søndre Hallangen" />
		<tag k="place" v="farm" />
		<tag k="ssr:stedsnr" v="221865" />
	</node>
	<node lat="59.68383333185273" lon="10.701288891021212" id="-30347">
		<tag k="name" v="Nordre Rød" />
		<tag k="place" v="farm" />
		<tag k="ssr:stedsnr" v="221135" />
	</node>
	<node lat="59.75783055828026" lon="10.67197499569866" id="-30348">
		<tag k="name" v="Nordre Kai" />
		<tag k="place" v="farm" />
		<tag k="ssr:stedsnr" v="221274" />
	</node>
	<node lat="59.73039722146441" lon="10.70795832562056" id="-30353">
		<tag k="name" v="Østre Bøler" />
		<tag k="place" v="farm" />
		<tag k="ssr:stedsnr" v="221451" />
	</node>
	<node lat="59.64952499780128" lon="10.646244443262937" id="-30354">
		<tag k="name" v="Nordre Elle" />
		<tag k="place" v="farm" />
		<tag k="ssr:stedsnr" v="221991" />
	</node>
	<node lat="59.690188893181414" lon="10.728952771258475" id="-30356">
		<tag k="name" v="Søndre Horgen" />
		<tag k="place" v="farm" />
		<tag k="ssr:stedsnr" v="282346" />
	</node>
	<node lat="59.67700555274013" lon="10.625608325768166" id="-30360">
		<tag k="name" v="Rolighet" />
		<tag k="place" v="isolated_dwelling" />
		<tag k="ssr:stedsnr" v="282445" />
	</node>
	<node lat="59.74321388491782" lon="10.63743332756427" id="-30362">
		<tag k="name" v="Nordre Gulbjørnrud" />
		<tag k="place" v="farm" />
		<tag k="ssr:stedsnr" v="282458" />
	</node>
	<node lat="59.68312222601102" lon="10.61526389450647" id="-30363">
		<tag k="name" v="Godthol" />
		<tag k="place" v="isolated_dwelling" />
		<tag k="ssr:stedsnr" v="282461" />
	</node>
	<node lat="59.703006294610304" lon="10.658386972538631" id="-30365">
		<tag k="name" v="Dammen" />
		<tag k="place" v="hamlet" />
		<tag k="ssr:stedsnr" v="282930" />
	</node>
	<node lat="59.66645277449353" lon="10.635519440088084" id="-30367">
		<tag k="amenity" v="townhall" />
		<tag k="name" v="Frogn rådhus" />
		<tag k="ssr:stedsnr" v="300070" />
	</node>
	<node lat="59.688183334276786" lon="10.668766660111245" id="-30368">
		<tag k="name" v="Hagen" />
		<tag k="place" v="isolated_dwelling" />
		<tag k="ssr:stedsnr" v="300140" />
	</node>
	<node lat="59.67262777541067" lon="10.639672213544223" id="-30369">
		<tag k="landuse" v="military" />
		<tag k="name" v="Øvre Seiersten skanse" />
		<tag k="ssr:stedsnr" v="300433" />
	</node>
	<node lat="59.7116546712564" lon="10.624396966995796" id="-30371">
		<tag k="name" v="Hallangen" />
		<tag k="place" v="hamlet" />
		<tag k="ssr:stedsnr" v="306736" />
	</node>
	<node lat="59.69488380508461" lon="10.708449417285115" id="-30372">
		<tag k="fixme" v="consider place=hamlet" />
		<tag k="name" v="Bjerke" />
		<tag k="place" v="farm" />
		<tag k="ssr:stedsnr" v="306750" />
	</node>
	<node lat="59.689316142338114" lon="10.676225366981045" id="-30373">
		<tag k="fixme" v="consider place=hamlet" />
		<tag k="name" v="Oppegård" />
		<tag k="place" v="farm" />
		<tag k="ssr:stedsnr" v="306751" />
	</node>
	<node lat="59.63681744275431" lon="10.674687855133849" id="-30374">
		<tag k="name" v="Solberg" />
		<tag k="place" v="hamlet" />
		<tag k="ssr:stedsnr" v="307696" />
	</node>
	<node lat="59.65563055742417" lon="10.641433337630549" id="-30376">
		<tag k="name" v="Sogsti" />
		<tag k="place" v="suburb" />
		<tag k="ssr:stedsnr" v="307818" />
	</node>
	<node lat="59.652644445641016" lon="10.663536115168398" id="-30377">
		<tag k="alt_name" v="Øyrud, nordre;Nordre Øyerud" />
		<tag k="name" v="Nordre Øyrud" />
		<tag k="place" v="farm" />
		<tag k="ssr:stedsnr" v="307819" />
	</node>
	<node lat="59.74276388494318" lon="10.663249994420026" id="-30379">
		<tag k="name" v="Nordre Lindebråte" />
		<tag k="place" v="farm" />
		<tag k="ssr:stedsnr" v="329442" />
	</node>
	<node lat="59.7696361119271" lon="10.703177771247958" id="-30380">
		<tag k="name" v="Brattås" />
		<tag k="place" v="isolated_dwelling" />
		<tag k="ssr:stedsnr" v="342569" />
	</node>
	<node lat="59.63803611536073" lon="10.652725000904631" id="-30381">
		<tag k="name" v="Solhøgda" />
		<tag k="place" v="hamlet" />
		<tag k="ssr:stedsnr" v="342384" />
	</node>
	<node lat="59.67013610901347" lon="10.63269722763176" id="-30386">
		<tag k="landuse" v="military" />
		<tag k="name" v="Veisvingbatteriet" />
		<tag k="ssr:stedsnr" v="361066" />
	</node>
	<node lat="59.67673055642017" lon="10.696186105801711" id="-30388">
		<tag k="name" v="Søndre Berg" />
		<tag k="place" v="farm" />
		<tag k="ssr:stedsnr" v="361591" />
	</node>
	<node lat="59.69883889226549" lon="10.612875001361587" id="-30392">
		<tag k="name" v="Svartlaget" />
		<tag k="place" v="isolated_dwelling" />
		<tag k="ssr:stedsnr" v="367737" />
	</node>
	<node lat="59.73516388495412" lon="10.69243610237802" id="-30395">
		<tag k="alt_name" v="Dal, søndre" />
		<tag k="name" v="Søndre Dal" />
		<tag k="place" v="farm" />
		<tag k="ssr:stedsnr" v="367950" />
	</node>
	<node lat="59.76834989616659" lon="10.709051665383107" id="-30401">
		<tag k="fixme" v="consider place=hamlet" />
		<tag k="name" v="Haslum" />
		<tag k="place" v="farm" />
		<tag k="ssr:stedsnr" v="389266" />
	</node>
	<node lat="59.74494166300448" lon="10.688200003597338" id="-30403">
		<tag k="name" v="Hagan" />
		<tag k="place" v="isolated_dwelling" />
		<tag k="ssr:stedsnr" v="403423" />
	</node>
	<node lat="59.71611666827329" lon="10.624269447338083" id="-30405">
		<tag k="name" v="Nordre Hallangen hyttefelt" />
		<tag k="place" v="neighbourhood" />
		<tag k="ssr:stedsnr" v="403368" />
	</node>
	<node lat="59.759064862048085" lon="10.704216576431902" id="-30406">
		<tag k="fixme" v="consider place=hamlet" />
		<tag k="name" v="Glenne" />
		<tag k="place" v="farm" />
		<tag k="ssr:stedsnr" v="403432" />
	</node>
	<node lat="59.756336107427686" lon="10.70723611425833" id="-30407">
		<tag k="name" v="Åsen" />
		<tag k="place" v="isolated_dwelling" />
		<tag k="ssr:stedsnr" v="403433" />
	</node>
	<node lat="59.67620000351528" lon="10.6491166632139" id="-30408">
		<tag k="name" v="Nordre Belsjø" />
		<tag k="place" v="isolated_dwelling" />
		<tag k="ssr:stedsnr" v="403444" />
	</node>
	<node lat="59.69458333398724" lon="10.707555554188245" id="-30409">
		<tag k="name" v="Søndre Bjerke" />
		<tag k="place" v="farm" />
		<tag k="ssr:stedsnr" v="422123" />
	</node>
	<node lat="59.70204166751335" lon="10.69407221348066" id="-30410">
		<tag k="name" v="Teipa" />
		<tag k="place" v="farm" />
		<tag k="ssr:stedsnr" v="422224" />
	</node>
	<node lat="59.715424996151555" lon="10.714355546675817" id="-30414">
		<tag k="name" v="Bonn" />
		<tag k="place" v="farm" />
		<tag k="ssr:stedsnr" v="428803" />
	</node>
	<node lat="59.72074231867214" lon="10.666208069647656" id="-30415">
		<tag k="fixme" v="consider place=hamlet" />
		<tag k="name" v="Havsjødalen" />
		<tag k="place" v="farm" />
		<tag k="ssr:stedsnr" v="428805" />
	</node>
	<node lat="59.73851944325713" lon="10.652880546735886" id="-30416">
		<tag k="alt_name" v="Måren" />
		<tag k="name" v="Målen" />
		<tag k="place" v="locality" />
		<tag k="ssr:stedsnr" v="428964" />
	</node>
	<node lat="59.668891670275876" lon="10.672300003866226" id="-30418">
		<tag k="name" v="Espely" />
		<tag k="place" v="farm" />
		<tag k="ssr:stedsnr" v="429874" />
	</node>
	<node lat="59.649729591709935" lon="10.672597854426058" id="-30419">
		<tag k="fixme" v="consider place=hamlet" />
		<tag k="name" v="Haver" />
		<tag k="place" v="farm" />
		<tag k="ssr:stedsnr" v="429838" />
	</node>
	<node lat="59.701102778845865" lon="10.561233341722232" id="-30420">
		<tag k="name" v="Håøya" />
		<tag k="place" v="isolated_dwelling" />
		<tag k="ssr:stedsnr" v="511116" />
	</node>
	<node lat="59.65491110943925" lon="10.646455557914358" id="-30429">
		<tag k="amenity" v="school" />
		<tag k="name" v="Sogsti skole" />
		<tag k="ssr:stedsnr" v="543553" />
	</node>
	<node lat="59.6625979936691" lon="10.669840495660514" id="-30435">
		<tag k="fixme" v="consider place=hamlet" />
		<tag k="name" v="Skorkeberg" />
		<tag k="place" v="farm" />
		<tag k="ssr:stedsnr" v="550863" />
	</node>
	<node lat="59.75739763684282" lon="10.671000208077572" id="-30436">
		<tag k="fixme" v="consider place=hamlet" />
		<tag k="name" v="Kai" />
		<tag k="place" v="farm" />
		<tag k="ssr:stedsnr" v="551601" />
	</node>
	<node lat="59.74582222124848" lon="10.69936666299187" id="-30440">
		<tag k="alt_name" v="Dal, nordre" />
		<tag k="name" v="Nordre Dal" />
		<tag k="place" v="farm" />
		<tag k="ssr:stedsnr" v="584454" />
	</node>
	<node lat="59.70561944116572" lon="10.636505552102093" id="-30444">
		<tag k="name" v="Strandmyr" />
		<tag k="place" v="isolated_dwelling" />
		<tag k="ssr:stedsnr" v="585350" />
	</node>
	<node lat="59.67351389082725" lon="10.607077779438944" id="-30447">
		<tag k="landuse" v="military" />
		<tag k="name" v="Søndre Oscarsborg" />
		<tag k="ssr:stedsnr" v="603384" />
	</node>
	<node lat="59.668877776379865" lon="10.634855552992159" id="-30450">
		<tag k="amenity" v="sports_centre" />
		<tag k="name" v="Frognhallen" />
		<tag k="ssr:stedsnr" v="603045" />
	</node>
	<node lat="59.68953611480092" lon="10.675513892038357" id="-30451">
		<tag k="name" v="Vestre Oppegård" />
		<tag k="place" v="farm" />
		<tag k="ssr:stedsnr" v="603124" />
	</node>
	<node lat="59.73614606909037" lon="10.715642504875625" id="-30455">
		<tag k="fixme" v="consider place=hamlet" />
		<tag k="name" v="Knardal" />
		<tag k="place" v="farm" />
		<tag k="ssr:stedsnr" v="609960" />
	</node>
	<node lat="59.73595000039106" lon="10.68107500828036" id="-30456">
		<tag k="alt_name" v="Slåttebråtan" />
		<tag k="name" v="Slåttebråten" />
		<tag k="place" v="farm" />
		<tag k="ssr:stedsnr" v="609972" />
	</node>
	<node lat="59.699486406302405" lon="10.715438333089937" id="-30457">
		<tag k="fixme" v="consider place=hamlet" />
		<tag k="name" v="Økern" />
		<tag k="place" v="farm" />
		<tag k="ssr:stedsnr" v="610767" />
	</node>
	<node lat="59.68397777538723" lon="10.659766674185798" id="-30461">
		<tag k="fixme" v="consider place=suburb, village or hamlet" />
		<tag k="name" v="Heer" />
		<tag k="place" v="quarter" />
		<tag k="ssr:stedsnr" v="630526" />
	</node>
	<node lat="59.68421944854927" lon="10.68875000833076" id="-30463">
		<tag k="name" v="Søndre Roksrud" />
		<tag k="place" v="farm" />
		<tag k="ssr:stedsnr" v="645140" />
	</node>
	<node lat="59.72311667049732" lon="10.589591658236696" id="-30464">
		<tag k="name" v="Digerud" />
		<tag k="place" v="hamlet" />
		<tag k="ssr:stedsnr" v="645519" />
	</node>
	<node lat="59.75970428438741" lon="10.68671428572486" id="-30465">
		<tag k="fixme" v="consider place=hamlet" />
		<tag k="name" v="Garder" />
		<tag k="place" v="farm" />
		<tag k="ssr:stedsnr" v="645271" />
	</node>
	<node lat="59.690913887785285" lon="10.728494448116711" id="-30466">
		<tag k="name" v="Nordre Horgen" />
		<tag k="place" v="farm" />
		<tag k="ssr:stedsnr" v="645354" />
	</node>
	<node lat="59.713533331788966" lon="10.700644442117767" id="-30468">
		<tag k="name" v="Stubberudhytta" />
		<tag k="place" v="isolated_dwelling" />
		<tag k="ssr:stedsnr" v="645439" />
	</node>
	<node lat="59.74181666991469" lon="10.637047222343233" id="-30471">
		<tag k="name" v="Gulbjørnrud" />
		<tag k="place" v="farm" />
		<tag k="ssr:stedsnr" v="645453" />
	</node>
	<node lat="59.72847500456303" lon="10.704374994257952" id="-30472">
		<tag k="name" v="Vestre Bøler" />
		<tag k="place" v="farm" />
		<tag k="ssr:stedsnr" v="645462" />
	</node>
	<node lat="59.72919999742947" lon="10.703236113909675" id="-30473">
		<tag k="name" v="Søndre Bøler" />
		<tag k="place" v="farm" />
		<tag k="ssr:stedsnr" v="645463" />
	</node>
	<node lat="59.654552776266776" lon="10.632702783156846" id="-30475">
		<tag k="name" v="Torkilsbyen" />
		<tag k="place" v="quarter" />
		<tag k="ssr:stedsnr" v="664098" />
	</node>
	<node lat="59.68789463800152" lon="10.675337659349216" id="-30476">
		<tag k="fixme" v="consider place=hamlet" />
		<tag k="name" v="Haneborg" />
		<tag k="place" v="farm" />
		<tag k="ssr:stedsnr" v="664128" />
	</node>
	<node lat="59.701572220884316" lon="10.694936114726653" id="-30477">
		<tag k="name" v="Birkeli" />
		<tag k="place" v="farm" />
		<tag k="ssr:stedsnr" v="664214" />
	</node>
	<node lat="59.728469444345436" lon="10.689908326206897" id="-30482">
		<tag k="name" v="Tusse" />
		<tag k="place" v="isolated_dwelling" />
		<tag k="ssr:stedsnr" v="670764" />
	</node>
	<node lat="59.68225833394203" lon="10.65080000778712" id="-30485">
		<tag k="name" v="Kringerudfeltet" />
		<tag k="place" v="quarter" />
		<tag k="ssr:stedsnr" v="725847" />
	</node>
	<node lat="59.62995832888829" lon="10.67132223036299" id="-30488">
		<tag k="alt_name" v="Solberg, søndre" />
		<tag k="name" v="Søndre Solberg" />
		<tag k="place" v="farm" />
		<tag k="ssr:stedsnr" v="731639" />
	</node>
	<node lat="59.69145833085691" lon="10.719527776572638" id="-30492">
		<tag k="name" v="Østli" />
		<tag k="place" v="farm" />
		<tag k="ssr:stedsnr" v="732435" />
	</node>
	<node lat="59.66331944237574" lon="10.629738891280056" id="-30493">
		<tag k="name" v="Drøbak" />
		<tag k="place" v="town" />
		<tag k="ssr:stedsnr" v="732857" />
	</node>
	<node lat="59.73147500041996" lon="10.722438889768783" id="-30499">
		<tag k="name" v="Knardal hyttefelt" />
		<tag k="place" v="neighbourhood" />
		<tag k="ssr:stedsnr" v="767485" />
	</node>
	<node lat="59.6776777793933" lon="10.696572215407631" id="-30504">
		<tag k="name" v="Nordre Berg" />
		<tag k="place" v="farm" />
		<tag k="ssr:stedsnr" v="786580" />
	</node>
	<node lat="59.673586110372995" lon="10.704605549907019" id="-30505">
		<tag k="name" v="Nordre Furu" />
		<tag k="place" v="farm" />
		<tag k="ssr:stedsnr" v="786582" />
	</node>
	<node lat="59.694552777941816" lon="10.658138897329254" id="-30509">
		<tag k="name" v="Torshytta" />
		<tag k="place" v="farm" />
		<tag k="ssr:stedsnr" v="791771" />
	</node>
	<node lat="59.71674444124169" lon="10.639941673021706" id="-30510">
		<tag k="alt_name" v="Hallangen, nordre" />
		<tag k="name" v="Nordre Hallangen" />
		<tag k="place" v="farm" />
		<tag k="ssr:stedsnr" v="792783" />
	</node>
	<node lat="59.64154444325817" lon="10.675938882981827" id="-30512">
		<tag k="alt_name" v="Solberg, nordre" />
		<tag k="name" v="Nordre Solberg" />
		<tag k="place" v="farm" />
		<tag k="ssr:stedsnr" v="792657" />
	</node>
	<node lat="59.66938889199969" lon="10.63713611589854" id="-30513">
		<tag k="fixme" v="consider place=suburb, village or hamlet" />
		<tag k="name" v="Seiersten" />
		<tag k="place" v="quarter" />
		<tag k="ssr:stedsnr" v="792840" />
	</node>
	<node lat="59.66327499720333" lon="10.649122226962092" id="-30515">
		<tag k="name" v="Granheia" />
		<tag k="place" v="quarter" />
		<tag k="ssr:stedsnr" v="828021" />
	</node>
	<node lat="59.63690000266215" lon="10.66522777237596" id="-30516">
		<tag k="name" v="Solbergsand" />
		<tag k="place" v="locality" />
		<tag k="ssr:stedsnr" v="828489" />
	</node>
	<node lat="59.6362944472356" lon="10.665552776044903" id="-30517">
		<tag k="name" v="Øvre Kroksrudsand" />
		<tag k="place" v="isolated_dwelling" />
		<tag k="ssr:stedsnr" v="828491" />
	</node>
	<node lat="59.71136944309365" lon="10.711627782407202" id="-30519">
		<tag k="name" v="Bråtan" />
		<tag k="place" v="isolated_dwelling" />
		<tag k="ssr:stedsnr" v="828442" />
	</node>
	<node lat="59.68631389096495" lon="10.651141663421507" id="-30520">
		<tag k="name" v="Gloslibråten" />
		<tag k="place" v="isolated_dwelling" />
		<tag k="ssr:stedsnr" v="828452" />
	</node>
	<node lat="59.74183611345874" lon="10.72050000728444" id="-30521">
		<tag k="name" v="Fuglesang" />
		<tag k="place" v="isolated_dwelling" />
		<tag k="ssr:stedsnr" v="828457" />
	</node>
	<node lat="59.66741110844994" lon="10.63446388609461" id="-30526">
		<tag k="amenity" v="school" />
		<tag k="name" v="Drøbak skole" />
		<tag k="ssr:stedsnr" v="847070" />
	</node>
	<node lat="59.6925138885601" lon="10.701658328870245" id="-30527">
		<tag k="name" v="Nordre Huseby" />
		<tag k="place" v="farm" />
		<tag k="ssr:stedsnr" v="847142" />
	</node>
	<node lat="59.69529444718688" lon="10.709386103018657" id="-30528">
		<tag k="name" v="Nordre Bjerke" />
		<tag k="place" v="farm" />
		<tag k="ssr:stedsnr" v="847153" />
	</node>
	<node lat="59.68056666946577" lon="10.627288886097706" id="-30529">
		<tag k="name" v="Gylteåsen" />
		<tag k="place" v="quarter" />
		<tag k="ssr:stedsnr" v="847578" />
	</node>
	<node lat="59.70411944444097" lon="10.625730560983833" id="-30531">
		<tag k="name" v="Pollen" />
		<tag k="place" v="isolated_dwelling" />
		<tag k="ssr:stedsnr" v="847620" />
	</node>
	<node lat="59.65009040384898" lon="10.647200827316569" id="-30532">
		<tag k="fixme" v="consider place=hamlet" />
		<tag k="name" v="Elle" />
		<tag k="place" v="farm" />
		<tag k="ssr:stedsnr" v="847948" />
	</node>
	<node lat="59.69023610725864" lon="10.646730549912013" id="-30534">
		<tag k="name" v="Brakadalen" />
		<tag k="place" v="isolated_dwelling" />
		<tag k="ssr:stedsnr" v="852739" />
	</node>
	<node lat="59.70268536499283" lon="10.660191296604955" id="-30536">
		<tag k="name" v="Dammen" />
		<tag k="place" v="farm" />
		<tag k="ssr:stedsnr" v="853741" />
	</node>
	<node lat="59.72451110839626" lon="10.657699993827514" id="-30537">
		<tag k="name" v="Asgautrud" />
		<tag k="place" v="farm" />
		<tag k="ssr:stedsnr" v="853768" />
	</node>
	<node lat="59.66626371342723" lon="10.669047216554814" id="-30538">
		<tag k="name" v="Hauer" />
		<tag k="place" v="hamlet" />
		<tag k="ssr:stedsnr" v="854876" />
	</node>
	<node lat="59.76143308222155" lon="10.653763273025886" id="-30539">
		<tag k="alt_name" v="Skog, søndre;Søndre Skau" />
		<tag k="name" v="Søndre Skog" />
		<tag k="place" v="farm" />
		<tag k="ssr:stedsnr" v="855658" />
	</node>
	<node lat="59.70619721806701" lon="10.628302785213457" id="-30543">
		<tag k="alt_name" v="Strandmyrfeltet" />
		<tag k="name" v="Strandemyra" />
		<tag k="place" v="quarter" />
		<tag k="ssr:stedsnr" v="875254" />
	</node>
	<node lat="59.775108334938274" lon="10.708602783596527" id="-30544">
		<tag k="name" v="Nordre Haslum" />
		<tag k="place" v="farm" />
		<tag k="ssr:stedsnr" v="875276" />
	</node>
	<node lat="59.74494985424293" lon="10.697623334131963" id="-30547">
		<tag k="amenity" v="school" />
		<tag k="name" v="Dal skole" />
		<tag k="ssr:stedsnr" v="888641" />
	</node>
	<node lat="59.66581111250467" lon="10.63443888349529" id="-30552">
		<tag k="name" v="Drøbak og Frogn prestegård" />
		<tag k="place" v="isolated_dwelling" />
		<tag k="ssr:stedsnr" v="949024" />
	</node>
	<node lat="59.71583611453189" lon="10.651938891569829" id="-30554">
		<tag k="name" v="Hallangshagen" />
		<tag k="place" v="isolated_dwelling" />
		<tag k="ssr:stedsnr" v="949338" />
	</node>
	<node lat="59.73703055743916" lon="10.674741675315744" id="-30555">
		<tag k="name" v="Lindskau" />
		<tag k="place" v="farm" />
		<tag k="ssr:stedsnr" v="949373" />
	</node>
	<node lat="59.72180555998666" lon="10.673430549667861" id="-30556">
		<tag k="name" v="Nordengen" />
		<tag k="place" v="isolated_dwelling" />
		<tag k="ssr:stedsnr" v="949412" />
	</node>
	<node lat="59.72554166700383" lon="10.660616662083" id="-30557">
		<tag k="name" v="Langen" />
		<tag k="place" v="isolated_dwelling" />
		<tag k="ssr:stedsnr" v="949416" />
	</node>
	<node lat="59.66857777851334" lon="10.63810832635186" id="-30562">
		<tag k="amenity" v="school" />
		<tag k="name" v="Seiersten ungdomsskole" />
		<tag k="ssr:stedsnr" v="968064" />
	</node>
	<node lat="59.687249381846975" lon="10.610900589268496" id="-30563">
		<tag k="name" v="Langebåt" />
		<tag k="place" v="hamlet" />
		<tag k="ssr:stedsnr" v="985679" />
	</node>
	<node lat="59.651813100872005" lon="10.665003950613091" id="-31058">
		<tag k="fixme" v="consider place=hamlet" />
		<tag k="name" v="Øyrud" />
		<tag k="place" v="farm" />
		<tag k="ssr:stedsnr" v="1078472" />
	</node>
	<node lat="59.672498014022466" lon="10.667687972502206" id="-31059">
		<tag k="fixme" v="consider place=hamlet" />
		<tag k="name" v="Tomta" />
		<tag k="place" v="farm" />
		<tag k="ssr:stedsnr" v="1078475" />
	</node>
	<node lat="59.65371471894822" lon="10.651242224104516" id="-31060">
		<tag k="fixme" v="consider place=hamlet" />
		<tag k="name" v="Teigen" />
		<tag k="place" v="farm" />
		<tag k="ssr:stedsnr" v="1078476" />
	</node>
	<node lat="59.62341996179072" lon="10.648629130185284" id="-31061">
		<tag k="name" v="Strandsnippen" />
		<tag k="old_name" v="Strandsniuppen" />
		<tag k="place" v="farm" />
		<tag k="ssr:stedsnr" v="1082058" />
	</node>
</osm>
