<?xml version="1.0" encoding="UTF-8"?>
<osm version="0.6" generator="osmapis">
	<node lat="59.68773888852898" lon="10.7027833325763" id="-13528">
		<tag k="amenity" v="community_centre" />
		<tag k="name" v="Folkvang" />
		<tag k="ssr:stedsnr" v="342146" />
	</node>
	<node lat="59.6994432877743" lon="10.722997313217931" id="-13647">
		<tag k="alt_name" v="Frogn" />
		<tag k="amenity" v="place_of_worship" />
		<tag k="denomination" v="lutheran" />
		<tag k="name" v="Frogn kirke" />
		<tag k="religion" v="christian" />
		<tag k="ssr:stedsnr" v="732420" />
	</node>
	<node lat="59.66525555920094" lon="10.627080557146387" id="-13652">
		<tag k="amenity" v="place_of_worship" />
		<tag k="denomination" v="lutheran" />
		<tag k="name" v="Drøbak kirke" />
		<tag k="religion" v="christian" />
		<tag k="ssr:stedsnr" v="767855" />
	</node>
	<node lat="59.672011111885936" lon="10.642980553138019" id="-13655">
		<tag k="name" v="Follo museum" />
		<tag k="ssr:stedsnr" v="907371" />
		<tag k="tourism" v="museum" />
	</node>
	<node lat="59.70563610930562" lon="10.738691669166608" id="-13784">
		<tag k="name" v="Mølla" />
		<tag k="place" v="locality" />
		<tag k="ssr:stedsnr" v="160341" />
	</node>
	<node lat="59.66697221861449" lon="10.637994445183436" id="-13797">
		<tag k="name" v="Seiersten sentrum" />
		<tag k="place" v="locality" />
		<tag k="ssr:stedsnr" v="179067" />
	</node>
	<node lat="59.706636115000556" lon="10.739061113164858" id="-13813">
		<tag k="name" v="Grønlund" />
		<tag k="place" v="locality" />
		<tag k="ssr:stedsnr" v="221362" />
	</node>
	<node lat="59.66314167105053" lon="10.625947214718872" id="-13849">
		<tag k="name" v="Biologen" />
		<tag k="place" v="locality" />
		<tag k="ssr:stedsnr" v="361040" />
	</node>
	<node lat="59.69006666622736" lon="10.664116659509984" id="-13945">
		<tag k="alt_name" v="Steen" />
		<tag k="name" v="Sten" />
		<tag k="place" v="locality" />
		<tag k="ssr:stedsnr" v="725144" />
	</node>
	<node lat="59.647552779690656" lon="10.638713893234353" id="-13983">
		<tag k="name" v="Skrubben" />
		<tag k="place" v="locality" />
		<tag k="ssr:stedsnr" v="828851" />
	</node>
</osm>
