<?xml version="1.0" encoding="UTF-8"?>
<osm generator="osmapis" version="0.6">
	<node id="-236543" lat="59.7083749973" lon="10.7370916667">
		<tag k="bridge" v="yes" />
		<tag k="layer" v="1" />
		<tag k="name" v="Vassum" />
		<tag k="ssr:stedsnr" v="46150" />
	</node>
	<node id="-236351" lat="59.6852361089" lon="10.6688166657">
		<tag k="junction" v="yes" />
		<tag k="name" v="Ottarsrud" />
		<tag k="place" v="locality" />
		<tag k="ssr:stedsnr" v="464461" />
	</node>
	<node id="-236279" lat="59.7511388859" lon="10.6463472264">
		<tag k="junction" v="yes" />
		<tag k="name" v="Kopperud" />
		<tag k="place" v="locality" />
		<tag k="ssr:stedsnr" v="282423" />
	</node>
	<node id="-236658" lat="59.7558833319" lon="10.700466658">
		<tag k="junction" v="yes" />
		<tag k="name" v="Glenne" />
		<tag k="place" v="locality" />
		<tag k="ssr:stedsnr" v="403432" />
	</node>
	<node id="-236272" lat="59.7162722231" lon="10.7150805535">
		<tag k="bridge" v="yes" />
		<tag k="layer" v="1" />
		<tag k="name" v="Bunden" />
		<tag k="ssr:stedsnr" v="167166" />
	</node>
	<node id="-236398" lat="59.6716222258" lon="10.621494437">
		<tag k="man_made" v="quay" />
		<tag k="name" v="Kopåsbrygga" />
		<tag k="place" v="locality" />
		<tag k="ssr:stedsnr" v="603402" />
	</node>
	<node id="-236775" lat="59.7015222212" lon="10.7373749965">
		<tag k="bridge" v="yes" />
		<tag k="layer" v="1" />
		<tag k="name" v="Froen" />
		<tag k="ssr:stedsnr" v="835144" />
	</node>
	<node id="-236773" lat="59.6621888891" lon="10.6268249954">
		<tag k="alt_name" v="Småbåthavn" />
		<tag k="leisure" v="marina" />
		<tag k="loc_name" v="Molohavnen" />
		<tag k="name" v="Småbåthavna" />
		<tag k="ssr:stedsnr" v="828835" />
	</node>
	<node id="-236644" lat="59.7374861145" lon="10.7219222164">
		<tag k="man_made" v="quay" />
		<tag k="name" v="Knardal" />
		<tag k="place" v="locality" />
		<tag k="ssr:stedsnr" v="367581" />
	</node>
	<node id="-236515" lat="59.6583282987" lon="10.6301439128">
		<tag k="man_made" v="quay" />
		<tag k="name" v="Kommunekaien" />
		<tag k="place" v="locality" />
		<tag k="ssr:stedsnr" v="985548" />
	</node>
	<node id="-236508" lat="59.7634611132" lon="10.7082750026">
		<tag k="highway" v="path" />
		<tag k="name" v="Jettegrytestien" />
		<tag k="ssr:stedsnr" v="949272" />
	</node>
	<node id="-236635" lat="59.7293722215" lon="10.6892111108">
		<tag k="junction" v="yes" />
		<tag k="name" v="Tusse" />
		<tag k="place" v="locality" />
		<tag k="ssr:stedsnr" v="342421" />
	</node>
	<node id="-236772" lat="59.7689894077" lon="10.7139982742">
		<tag k="man_made" v="quay" />
		<tag k="name" v="Solbukta brygge" />
		<tag k="place" v="locality" />
		<tag k="ssr:stedsnr" v="828595" />
	</node>
	<node id="-236747" lat="59.6746972225" lon="10.6562861049">
		<tag k="bridge" v="yes" />
		<tag k="layer" v="1" />
		<tag k="name" v="Horgen" />
		<tag k="ssr:stedsnr" v="774160" />
	</node>
	<node id="-236616" lat="59.7197277738" lon="10.728863893">
		<tag k="junction" v="yes" />
		<tag k="name" v="Bekkevoll" />
		<tag k="place" v="locality" />
		<tag k="ssr:stedsnr" v="205398" />
	</node>
	<node id="-236742" lat="59.6996706951" lon="10.7185602878">
		<tag k="junction" v="yes" />
		<tag k="name" v="Økern" />
		<tag k="place" v="locality" />
		<tag k="ssr:stedsnr" v="767382" />
	</node>
	<node id="-236483" lat="59.6800555547" lon="10.6251166599">
		<tag k="name" v="Kastet" />
		<tag k="place" v="locality" />
		<tag k="ssr:stedsnr" v="935052" />
	</node>
	<node id="-236481" lat="59.6480916648" lon="10.6805805578">
		<tag k="junction" v="yes" />
		<tag k="name" v="Solberg" />
		<tag k="place" v="locality" />
		<tag k="ssr:stedsnr" v="828510" />
	</node>
	<node id="-236223" lat="59.7069083304" lon="10.739608338">
		<tag k="bridge" v="yes" />
		<tag k="layer" v="1" />
		<tag k="name" v="Vassumbrua" />
		<tag k="ssr:stedsnr" v="228147" />
	</node>
	<node id="-236465" lat="59.6485416634" lon="10.6336527846">
		<tag k="man_made" v="quay" />
		<tag k="name" v="Heidalsbrygga" />
		<tag k="place" v="locality" />
		<tag k="ssr:stedsnr" v="767880" />
	</node>
	<node id="-236274" lat="59.7018472235" lon="10.7384055576">
		<tag k="junction" v="yes" />
		<tag k="name" v="Vassum" />
		<tag k="place" v="locality" />
		<tag k="ssr:stedsnr" v="282365" />
	</node>
	<node id="-236327" lat="59.6697616196" lon="10.6230679424">
		<tag k="man_made" v="quay" />
		<tag k="name" v="Ringeplan" />
		<tag k="place" v="locality" />
		<tag k="ssr:stedsnr" v="372427" />
	</node>
	<node id="-236703" lat="59.6879305588" lon="10.6091722271">
		<tag k="man_made" v="quay" />
		<tag k="name" v="Langebåt brygge" />
		<tag k="place" v="locality" />
		<tag k="ssr:stedsnr" v="584746" />
	</node>
	<node id="-236317" lat="59.7688916699" lon="10.7090055607">
		<tag k="bridge" v="yes" />
		<tag k="layer" v="1" />
		<tag k="name" v="Haslum" />
		<tag k="ssr:stedsnr" v="349174" />
	</node>
	<node id="-236444" lat="59.7093611101" lon="10.7378555498">
		<tag k="bridge" v="yes" />
		<tag k="layer" v="1" />
		<tag k="name" v="Nordengbrua" />
		<tag k="ssr:stedsnr" v="896137" />
	</node>
	<node id="-236440" lat="59.6785527736" lon="10.6245277834">
		<tag k="man_made" v="quay" />
		<tag k="name" v="Kranbrygga" />
		<tag k="place" v="locality" />
		<tag k="ssr:stedsnr" v="889462" />
	</node>
	<node id="-236434" lat="59.7563361074" lon="10.7072361143">
		<tag k="junction" v="yes" />
		<tag k="name" v="Garder" />
		<tag k="place" v="locality" />
		<tag k="ssr:stedsnr" v="888642" />
	</node>
	<node id="-236304" lat="59.7042888912" lon="10.738661109">
		<tag k="bridge" v="yes" />
		<tag k="layer" v="1" />
		<tag k="name" v="Mølledammen" />
		<tag k="ssr:stedsnr" v="289126" />
	</node>
	<node id="-236303" lat="59.7071027746" lon="10.7377861152">
		<tag k="bridge" v="yes" />
		<tag k="layer" v="1" />
		<tag k="name" v="Årungselva" />
		<tag k="ssr:stedsnr" v="289110" />
	</node>
	<node id="-236297" lat="59.7251277774" lon="10.5882111173">
		<tag k="man_made" v="quay" />
		<tag k="name" v="Digerud brygge" />
		<tag k="place" v="locality" />
		<tag k="ssr:stedsnr" v="246753" />
	</node>
</osm>
