<?xml version="1.0" encoding="UTF-8"?>
<<<<<<< HEAD
<osm version="0.6" generator="osmapis">
	<node lat="59.70239722262837" lon="10.590211109829776" id="-12568">
		<tag k="name" v="Askholmene" />
		<tag k="place" v="islet" />
		<tag k="ssr:stedsnr" v="3738" />
	</node>
	<node lat="59.7031833327668" lon="10.562236116804492" id="-12571">
		<tag k="name" v="Håøybukta" />
		<tag k="natural" v="bay" />
		<tag k="ssr:stedsnr" v="25091" />
	</node>
	<node lat="59.76404444451629" lon="10.712472221723852" id="-12572">
		<tag k="fixme" v="consider seamark:type=rock or natural=shoal" />
		<tag k="name" v="Storskjær" />
		<tag k="place" v="islet" />
		<tag k="ssr:stedsnr" v="25273" />
	</node>
	<node lat="59.6909194453212" lon="10.605744444508998" id="-12573">
		<tag k="fixme" v="consider seamark:type=rock or natural=shoal" />
		<tag k="name" v="Dronninga" />
=======
<osm generator="osmapis" version="0.6">
	<node id="-246772" lat="59.7282249982" lon="10.5740055596">
		<tag k="name" v="Aspond" />
		<tag k="place" v="island" />
		<tag k="ssr:stedsnr" v="428774" />
	</node>
	<node id="-246771" lat="59.6985361128" lon="10.5572944452">
		<tag k="name" v="Tåjeodden" />
		<tag k="natural" v="bay" />
		<tag k="ssr:stedsnr" v="422865" />
	</node>
	<node id="-246770" lat="59.6898611083" lon="10.5639083345">
		<tag k="name" v="Revjebukta" />
		<tag k="natural" v="bay" />
		<tag k="ssr:stedsnr" v="422862" />
	</node>
	<node id="-246768" lat="59.7553416701" lon="10.7131305547">
		<tag k="name" v="Odden" />
		<tag k="natural" v="cape" />
		<tag k="ssr:stedsnr" v="422379" />
	</node>
	<node id="-246756" lat="59.6846444428" lon="10.62153611">
		<tag k="name" v="Gylteholmen" />
		<tag k="place" v="island" />
		<tag k="ssr:stedsnr" v="384632" />
	</node>
	<node id="-246754" lat="59.7736666707" lon="10.7123055629">
		<tag k="alt_name" v="Hasletangen" />
		<tag k="name" v="Haslumtangen" />
		<tag k="natural" v="cape" />
		<tag k="ssr:stedsnr" v="369580" />
	</node>
	<node id="-246753" lat="59.6650972263" lon="10.6122861054">
		<tag k="name" v="Småskjær" />
		<tag k="place" v="islet" />
		<tag k="ssr:stedsnr" v="368883" />
	</node>
	<node id="-246752" lat="59.734625001" lon="10.5653361077">
		<tag k="name" v="Lågøya" />
		<tag k="place" v="islet" />
		<tag k="ssr:stedsnr" v="367960" />
	</node>
	<node id="-246746" lat="59.6983000015" lon="10.6033027865">
		<tag k="fixme" v="multiple name tags, choose one and add the other to alt_name" />
		<tag k="name" v="Båtstø;Nordre Båtstø" />
		<tag k="natural" v="cape" />
		<tag k="ssr:stedsnr" v="367736" />
	</node>
	<node id="-246744" lat="59.7006888916" lon="10.5770500006">
		<tag k="name" v="Kjellerenna" />
		<tag k="place" v="locality" />
		<tag k="ssr:stedsnr" v="361875" />
	</node>
	<node id="-246740" lat="59.6836527745" lon="10.615344447">
		<tag k="name" v="Lyksetodden" />
		<tag k="natural" v="cape" />
		<tag k="ssr:stedsnr" v="342664" />
	</node>
	<node id="-246735" lat="59.6937372427" lon="10.6265465274">
		<tag k="fixme" v="consider seamark:type=rock or natural=shoal" />
		<tag k="name" v="Stakaskjæret" />
		<tag k="place" v="islet" />
		<tag k="ssr:stedsnr" v="342418" />
	</node>
	<node id="-246729" lat="59.6669295628" lon="10.6206355143">
		<tag k="alt_name" v="Drøbakgrunna" />
		<tag k="name" v="Drøbakgrunnen" />
		<tag k="natural" v="shoal" />
		<tag k="place" v="locality" />
		<tag k="ssr:stedsnr" v="307869" />
	</node>
	<node id="-246720" lat="59.6786499974" lon="10.5835083252">
		<tag k="name" v="Munkehatten" />
		<tag k="natural" v="cape" />
		<tag k="ssr:stedsnr" v="208090" />
	</node>
	<node id="-246719" lat="59.6986361143" lon="10.6252166587">
		<tag k="fixme" v="multiple name tags, choose one and add the other to alt_name" />
		<tag k="name" v="Pollesundet;Svartlagsundet" />
		<tag k="natural" v="strait" />
		<tag k="ssr:stedsnr" v="207233" />
	</node>
	<node id="-246718" lat="59.7598305578" lon="10.5436611133">
		<tag k="name" v="Langårgrunnane" />
		<tag k="natural" v="shoal" />
		<tag k="place" v="locality" />
		<tag k="ssr:stedsnr" v="207113" />
	</node>
	<node id="-246716" lat="59.6760361099" lon="10.6222361058">
		<tag k="alt_name" v="Husvikholmen" />
		<tag k="name" v="Husvik" />
		<tag k="natural" v="cape" />
		<tag k="ssr:stedsnr" v="186860" />
	</node>
	<node id="-246708" lat="59.70376667" lon="10.5747194467">
		<tag k="name" v="Håøygrunnen" />
		<tag k="natural" v="shoal" />
		<tag k="place" v="locality" />
		<tag k="ssr:stedsnr" v="185734" />
	</node>
	<node id="-246705" lat="59.7130555528" lon="10.5970277788">
		<tag k="name" v="Revjetangen" />
		<tag k="natural" v="cape" />
		<tag k="ssr:stedsnr" v="180884" />
	</node>
	<node id="-246696" lat="59.7214750027" lon="10.570008328">
		<tag k="name" v="Ristsundet" />
		<tag k="natural" v="strait" />
		<tag k="ssr:stedsnr" v="160493" />
	</node>
	<node id="-246689" lat="59.7635666653" lon="10.7119500075">
		<tag k="name" v="Glennestranda" />
		<tag k="natural" v="beach" />
		<tag k="place" v="locality" />
		<tag k="ssr:stedsnr" v="146246" />
	</node>
	<node id="-246685" lat="59.7474805568" lon="10.5669527844">
		<tag k="name" v="Sydostgrunnen" />
		<tag k="natural" v="shoal" />
		<tag k="place" v="locality" />
		<tag k="ssr:stedsnr" v="124943" />
	</node>
	<node id="-246683" lat="59.7153888901" lon="10.5594611155">
		<tag k="alt_name" v="Håøya, nordre" />
		<tag k="name" v="Nordre Håøya" />
		<tag k="place" v="island" />
		<tag k="ssr:stedsnr" v="124780" />
	</node>
	<node id="-246682" lat="59.6872583302" lon="10.5622777858">
		<tag k="name" v="Møkkalassa" />
		<tag k="place" v="islet" />
		<tag k="ssr:stedsnr" v="124736" />
	</node>
	<node id="-246680" lat="59.6943444402" lon="10.6252583389">
		<tag k="name" v="Hallangspollen" />
		<tag k="natural" v="bay" />
		<tag k="ssr:stedsnr" v="124709" />
	</node>
	<node id="-246675" lat="59.7009444432" lon="10.5818583392">
		<tag k="name" v="Galteryggen" />
		<tag k="natural" v="shoal" />
		<tag k="place" v="locality" />
		<tag k="ssr:stedsnr" v="118831" />
	</node>
	<node id="-246670" lat="59.7753555566" lon="10.7123555619">
		<tag k="name" v="Sindingbukta" />
		<tag k="natural" v="bay" />
		<tag k="ssr:stedsnr" v="117762" />
	</node>
	<node id="-246668" lat="59.6439083318" lon="10.6364777745">
		<tag k="name" v="Ellebukta" />
		<tag k="natural" v="bay" />
		<tag k="ssr:stedsnr" v="100849" />
	</node>
	<node id="-246662" lat="59.727208333" lon="10.5891472217">
		<tag k="name" v="Sandtangen" />
		<tag k="natural" v="cape" />
		<tag k="ssr:stedsnr" v="86140" />
	</node>
	<node id="-246661" lat="59.7002638898" lon="10.6016777705">
		<tag k="name" v="Revjeodden" />
		<tag k="natural" v="cape" />
		<tag k="ssr:stedsnr" v="86137" />
	</node>
	<node id="-246650" lat="59.7064388927" lon="10.5541777805">
		<tag k="name" v="Dragsundodden" />
		<tag k="natural" v="cape" />
		<tag k="ssr:stedsnr" v="58848" />
	</node>
	<node id="-246648" lat="59.7529166649" lon="10.7145888846">
		<tag k="name" v="Brevikbukta" />
		<tag k="natural" v="bay" />
		<tag k="ssr:stedsnr" v="58465" />
	</node>
	<node id="-246634" lat="59.6909194453" lon="10.6057444445">
		<tag k="fixme" v="consider seamark:type=rock or natural=shoal" />
		<tag k="name" v="Dronninga" />
		<tag k="place" v="islet" />
		<tag k="ssr:stedsnr" v="26107" />
	</node>
	<node id="-246633" lat="59.7640444445" lon="10.7124722217">
		<tag k="fixme" v="consider seamark:type=rock or natural=shoal" />
		<tag k="name" v="Storskjær" />
		<tag k="place" v="islet" />
		<tag k="ssr:stedsnr" v="25273" />
	</node>
	<node id="-246632" lat="59.7031833328" lon="10.5622361168">
		<tag k="name" v="Håøybukta" />
		<tag k="natural" v="bay" />
		<tag k="ssr:stedsnr" v="25091" />
	</node>
	<node id="-246631" lat="59.6890249975" lon="10.6238277802">
		<tag k="fixme" v="consider seamark:type=rock or natural=shoal" />
		<tag k="name" v="Gylteskjæra" />
		<tag k="place" v="islet" />
		<tag k="ssr:stedsnr" v="25059" />
	</node>
	<node id="-246606" lat="59.7022999963" lon="10.6289833378">
		<tag k="alt_name" v="Pollebukta" />
		<tag k="name" v="Pollen" />
		<tag k="natural" v="bay" />
		<tag k="ssr:stedsnr" v="935210" />
	</node>
	<node id="-246604" lat="59.7600472203" lon="10.5444722186">
		<tag k="name" v="Langårgrunnane" />
		<tag k="natural" v="shoal" />
		<tag k="place" v="locality" />
		<tag k="ssr:stedsnr" v="915615" />
	</node>
	<node id="-246602" lat="59.7137444429" lon="10.5630861063">
		<tag k="name" v="Selskjærbukta" />
		<tag k="natural" v="bay" />
		<tag k="ssr:stedsnr" v="907833" />
	</node>
	<node id="-246596" lat="59.7184861107" lon="10.7162583327">
		<tag k="name" v="Bonnebukta" />
		<tag k="natural" v="bay" />
		<tag k="ssr:stedsnr" v="875253" />
	</node>
	<node id="-246590" lat="59.7550472195" lon="10.5631444487">
		<tag k="alt_name" v="Langåra" />
		<tag k="name" v="Søndre Langåra" />
		<tag k="place" v="island" />
		<tag k="ssr:stedsnr" v="854503" />
	</node>
	<node id="-246586" lat="59.6927555593" lon="10.6062055521">
		<tag k="name" v="Sandbukta" />
		<tag k="natural" v="bay" />
		<tag k="ssr:stedsnr" v="936095" />
	</node>
	<node id="-246583" lat="59.6941000039" lon="10.6281416611">
		<tag k="name" v="Furuholmen" />
		<tag k="place" v="islet" />
		<tag k="ssr:stedsnr" v="935048" />
	</node>
	<node id="-246578" lat="59.6908194488" lon="10.6143527849">
		<tag k="name" v="Hallangstangen" />
		<tag k="natural" v="cape" />
		<tag k="ssr:stedsnr" v="791760" />
	</node>
	<node id="-246576" lat="59.7056638848" lon="10.5830249974">
		<tag k="name" v="Søre Torskekrakken" />
		<tag k="natural" v="shoal" />
		<tag k="place" v="locality" />
		<tag k="ssr:stedsnr" v="786838" />
	</node>
	<node id="-246569" lat="59.6746805527" lon="10.5883777817">
		<tag k="name" v="Bergholmen" />
		<tag k="place" v="islet" />
		<tag k="ssr:stedsnr" v="914849" />
	</node>
	<node id="-246564" lat="59.7453999961" lon="10.5615888935">
		<tag k="name" v="Sydvestgrunnen" />
		<tag k="natural" v="shoal" />
		<tag k="place" v="locality" />
		<tag k="ssr:stedsnr" v="913958" />
	</node>
	<node id="-246563" lat="59.7115361129" lon="10.564350007">
		<tag k="alt_name" v="Selskjæret" />
		<tag k="name" v="Selskjæra" />
>>>>>>> e1d4bc35ff8a6074a6f2e91616a996b547c36f15
		<tag k="place" v="islet" />
		<tag k="ssr:stedsnr" v="26107" />
	</node>
<<<<<<< HEAD
	<node lat="59.743930555225354" lon="10.72048333866587" id="-12585">
		<tag k="name" v="Dragen" />
=======
	<node id="-246561" lat="59.7177805551" lon="10.5668611027">
		<tag k="alt_name" v="Rissan" />
		<tag k="name" v="Ristodden" />
>>>>>>> e1d4bc35ff8a6074a6f2e91616a996b547c36f15
		<tag k="natural" v="cape" />
		<tag k="ssr:stedsnr" v="240451" />
	</node>
<<<<<<< HEAD
	<node lat="59.682694441875284" lon="10.569063888147934" id="-12590">
		<tag k="name" v="Parisbukta" />
=======
	<node id="-246553" lat="59.6981444459" lon="10.6345222251">
		<tag k="name" v="Holmebukta" />
>>>>>>> e1d4bc35ff8a6074a6f2e91616a996b547c36f15
		<tag k="natural" v="bay" />
		<tag k="ssr:stedsnr" v="240861" />
	</node>
<<<<<<< HEAD
	<node lat="59.71473610811045" lon="10.553566670672152" id="-12599">
		<tag k="name" v="Bjørnhuebukta" />
		<tag k="natural" v="bay" />
		<tag k="ssr:stedsnr" v="86152" />
	</node>
	<node lat="59.71523888680812" lon="10.550261114968752" id="-12603">
		<tag k="alt_name" v="Bjørnehuet" />
		<tag k="name" v="Bjørnehue" />
		<tag k="natural" v="cape" />
		<tag k="ssr:stedsnr" v="246756" />
	</node>
	<node lat="59.67404999604984" lon="10.607108331488623" id="-12604">
		<tag k="name" v="Søndre Kaholmen" />
		<tag k="place" v="island" />
		<tag k="ssr:stedsnr" v="246835" />
	</node>
	<node lat="59.70094444324521" lon="10.581858339211582" id="-12615">
		<tag k="name" v="Galteryggen" />
		<tag k="natural" v="shoal" />
		<tag k="place" v="locality" />
		<tag k="ssr:stedsnr" v="118831" />
	</node>
	<node lat="59.694344440232385" lon="10.625258338931008" id="-12616">
		<tag k="name" v="Hallangspollen" />
=======
	<node id="-246546" lat="59.6992694418" lon="10.5883194507">
		<tag k="name" v="Askholmgrunnen" />
		<tag k="natural" v="shoal" />
		<tag k="place" v="locality" />
		<tag k="ssr:stedsnr" v="725803" />
	</node>
	<node id="-246537" lat="59.6956504924" lon="10.6258127323">
		<tag k="name" v="Skorogrunnen" />
		<tag k="natural" v="shoal" />
		<tag k="place" v="locality" />
		<tag k="ssr:stedsnr" v="693109" />
	</node>
	<node id="-246532" lat="59.6821666684" lon="10.5636555517">
		<tag k="name" v="Møkkalassgrunnene" />
		<tag k="natural" v="shoal" />
		<tag k="place" v="locality" />
		<tag k="ssr:stedsnr" v="664860" />
	</node>
	<node id="-246531" lat="59.709530553" lon="10.5885388825">
		<tag k="name" v="Storegrunnen" />
		<tag k="natural" v="shoal" />
		<tag k="place" v="locality" />
		<tag k="ssr:stedsnr" v="664858" />
	</node>
	<node id="-246523" lat="59.6764000038" lon="10.5865250034">
		<tag k="name" v="Kloasundet" />
		<tag k="natural" v="strait" />
		<tag k="ssr:stedsnr" v="732843" />
	</node>
	<node id="-246519" lat="59.6380111068" lon="10.6412111031">
		<tag k="name" v="Skiphellebukta" />
>>>>>>> e1d4bc35ff8a6074a6f2e91616a996b547c36f15
		<tag k="natural" v="bay" />
		<tag k="ssr:stedsnr" v="124709" />
	</node>
<<<<<<< HEAD
	<node lat="59.74585555288972" lon="10.720277775106913" id="-12620">
		<tag k="name" v="Lagodden" />
		<tag k="natural" v="cape" />
		<tag k="ssr:stedsnr" v="146222" />
	</node>
	<node lat="59.70546944383578" lon="10.642716665367615" id="-12621">
		<tag k="alt_name" v="Spervikstranda" />
		<tag k="name" v="Sperrevikstranda" />
		<tag k="natural" v="beach" />
		<tag k="ssr:stedsnr" v="146226" />
	</node>
	<node lat="59.70610555559865" lon="10.642055556303516" id="-12622">
		<tag k="name" v="Mortensbergodden" />
		<tag k="natural" v="cape" />
		<tag k="ssr:stedsnr" v="148663" />
	</node>
	<node lat="59.70376666995993" lon="10.57471944674899" id="-12626">
		<tag k="name" v="Håøygrunnen" />
		<tag k="natural" v="shoal" />
		<tag k="place" v="locality" />
		<tag k="ssr:stedsnr" v="185734" />
	</node>
	<node lat="59.75983055783853" lon="10.543661113294549" id="-12629">
		<tag k="name" v="Langårgrunnane" />
		<tag k="natural" v="shoal" />
=======
	<node id="-246516" lat="59.6856666677" lon="10.6084583277">
		<tag k="fixme" v="consider seamark:type=rock or natural=shoal" />
		<tag k="name" v="Langebåt" />
		<tag k="place" v="islet" />
		<tag k="ssr:stedsnr" v="731763" />
	</node>
	<node id="-246515" lat="59.6832856666" lon="10.5879767219">
		<tag k="name" v="Håøya" />
		<tag k="place" v="island" />
		<tag k="ssr:stedsnr" v="731740" />
	</node>
	<node id="-246511" lat="59.6985999967" lon="10.6304583365">
		<tag k="name" v="Bollesundet" />
		<tag k="natural" v="bay" />
		<tag k="ssr:stedsnr" v="725856" />
	</node>
	<node id="-246507" lat="59.7565333313" lon="10.7160916629">
		<tag k="name" v="Klatten" />
		<tag k="natural" v="shoal" />
		<tag k="place" v="locality" />
		<tag k="ssr:stedsnr" v="724749" />
	</node>
	<node id="-246502" lat="59.6259361122" lon="10.6474638854">
		<tag k="name" v="Kjeppestadbukta" />
		<tag k="natural" v="bay" />
		<tag k="ssr:stedsnr" v="609643" />
	</node>
	<node id="-246501" lat="59.621691667" lon="10.6483222245">
		<tag k="alt_name" v="Solbergstranda" />
		<tag k="name" v="Solbergstrand" />
		<tag k="natural" v="beach" />
>>>>>>> e1d4bc35ff8a6074a6f2e91616a996b547c36f15
		<tag k="place" v="locality" />
		<tag k="ssr:stedsnr" v="207113" />
	</node>
<<<<<<< HEAD
	<node lat="59.69863611434686" lon="10.62521665869154" id="-12630">
=======
	<node id="-246492" lat="59.638758329" lon="10.6394916702">
>>>>>>> e1d4bc35ff8a6074a6f2e91616a996b547c36f15
		<tag k="fixme" v="multiple name tags, choose one and add the other to alt_name" />
		<tag k="name" v="Svartlagsundet;Pollesundet" />
		<tag k="natural" v="strait" />
		<tag k="ssr:stedsnr" v="207233" />
	</node>
	<node lat="59.67864999741625" lon="10.583508325226601" id="-12631">
		<tag k="name" v="Munkehatten" />
		<tag k="natural" v="cape" />
		<tag k="ssr:stedsnr" v="208090" />
	</node>
<<<<<<< HEAD
	<node lat="59.715955559102596" lon="10.592844444505186" id="-12642">
		<tag k="name" v="Barkebustranda" />
		<tag k="natural" v="beach" />
		<tag k="ssr:stedsnr" v="240911" />
	</node>
	<node lat="59.70732777899175" lon="10.64279166913871" id="-12651">
		<tag k="name" v="Sanddrettet" />
=======
	<node id="-246491" lat="59.6661333363" lon="10.6259499935">
		<tag k="name" v="Badeparken" />
>>>>>>> e1d4bc35ff8a6074a6f2e91616a996b547c36f15
		<tag k="natural" v="beach" />
		<tag k="ssr:stedsnr" v="282377" />
	</node>
	<node lat="59.761849999347625" lon="10.546069439806432" id="-12665">
		<tag k="name" v="Klokkegrunnen" />
		<tag k="natural" v="shoal" />
		<tag k="place" v="locality" />
		<tag k="ssr:stedsnr" v="328108" />
	</node>
<<<<<<< HEAD
	<node lat="59.69373724268185" lon="10.626546527374249" id="-12667">
		<tag k="fixme" v="consider seamark:type=rock or natural=shoal" />
		<tag k="name" v="Stakaskjæret" />
		<tag k="place" v="islet" />
		<tag k="ssr:stedsnr" v="342418" />
	</node>
	<node lat="59.665097226315986" lon="10.61228610539635" id="-12674">
		<tag k="name" v="Småskjær" />
=======
	<node id="-246487" lat="59.6731527824" lon="10.6160999938">
		<tag k="name" v="Drøbaksundet" />
		<tag k="natural" v="strait" />
		<tag k="ssr:stedsnr" v="571089" />
	</node>
	<node id="-246486" lat="59.6784250016" lon="10.606655549">
		<tag k="name" v="Nordre Kaholmen" />
>>>>>>> e1d4bc35ff8a6074a6f2e91616a996b547c36f15
		<tag k="place" v="islet" />
		<tag k="ssr:stedsnr" v="368883" />
	</node>
<<<<<<< HEAD
	<node lat="59.77366667074185" lon="10.712305562920676" id="-12675">
		<tag k="alt_name" v="Hasletangen" />
		<tag k="name" v="Haslumtangen" />
		<tag k="natural" v="cape" />
		<tag k="ssr:stedsnr" v="369580" />
	</node>
	<node lat="59.67738610944308" lon="10.58627222014505" id="-12678">
		<tag k="name" v="Geitestranda" />
		<tag k="natural" v="beach" />
		<tag k="ssr:stedsnr" v="482843" />
	</node>
	<node lat="59.696327777445" lon="10.63118333467779" id="-12679">
		<tag k="name" v="Sandstrand" />
=======
	<node id="-246482" lat="59.6901027768" lon="10.6246083248">
		<tag k="name" v="Svartvarpgrunnen" />
		<tag k="natural" v="shoal" />
		<tag k="place" v="locality" />
		<tag k="ssr:stedsnr" v="706451" />
	</node>
	<node id="-246471" lat="59.6782250003" lon="10.6229138837">
		<tag k="name" v="Vindfangerbukta" />
		<tag k="natural" v="bay" />
		<tag k="ssr:stedsnr" v="692063" />
	</node>
	<node id="-246469" lat="59.7608138907" lon="10.713036115">
		<tag k="name" v="Rosestranda" />
>>>>>>> e1d4bc35ff8a6074a6f2e91616a996b547c36f15
		<tag k="natural" v="beach" />
		<tag k="ssr:stedsnr" v="482851" />
	</node>
<<<<<<< HEAD
	<node lat="59.74463333364277" lon="10.722119444469184" id="-12684">
		<tag k="bay" v="fjord" />
		<tag k="name" v="Bunnefjorden" />
=======
	<node id="-246456" lat="59.7565361126" lon="10.7089888852">
		<tag k="name" v="Åsebukta" />
>>>>>>> e1d4bc35ff8a6074a6f2e91616a996b547c36f15
		<tag k="natural" v="bay" />
		<tag k="ssr:stedsnr" v="488471" />
	</node>
<<<<<<< HEAD
	<node lat="59.727498956249924" lon="10.573664726636665" id="-12692">
		<tag k="name" v="Aspond" />
		<tag k="place" v="island" />
		<tag k="ssr:stedsnr" v="428774" />
	</node>
	<node lat="59.64412221955247" lon="10.635869448886304" id="-12700">
		<tag k="alt_name" v="Elleskjær" />
=======
	<node id="-246449" lat="59.7227916674" lon="10.5452277696">
		<tag k="name" v="Flågrunnrenna" />
		<tag k="natural" v="strait" />
		<tag k="ssr:stedsnr" v="665836" />
	</node>
	<node id="-246447" lat="59.6950333359" lon="10.6035611144">
>>>>>>> e1d4bc35ff8a6074a6f2e91616a996b547c36f15
		<tag k="fixme" v="consider seamark:type=rock or natural=shoal" />
		<tag k="name" v="Elleskjæret" />
		<tag k="place" v="islet" />
		<tag k="ssr:stedsnr" v="282858" />
	</node>
<<<<<<< HEAD
	<node lat="59.756536112576235" lon="10.70898888517491" id="-12701">
		<tag k="name" v="Åsebukta" />
=======
	<node id="-246446" lat="59.7222916661" lon="10.7219500086">
		<tag k="name" v="Stakabukta" />
>>>>>>> e1d4bc35ff8a6074a6f2e91616a996b547c36f15
		<tag k="natural" v="bay" />
		<tag k="ssr:stedsnr" v="671597" />
	</node>
<<<<<<< HEAD
	<node lat="59.6954277813323" lon="10.628402771260344" id="-12725">
		<tag k="name" v="Holmegrunnen" />
=======
	<node id="-246445" lat="59.7448888902" lon="10.7214222169">
		<tag k="name" v="Kølleberget" />
>>>>>>> e1d4bc35ff8a6074a6f2e91616a996b547c36f15
		<tag k="natural" v="shoal" />
		<tag k="place" v="locality" />
		<tag k="ssr:stedsnr" v="544612" />
	</node>
<<<<<<< HEAD
	<node lat="59.67822500028842" lon="10.622913883672094" id="-12729">
		<tag k="name" v="Vindfangerbukta" />
		<tag k="natural" v="bay" />
		<tag k="ssr:stedsnr" v="692063" />
	</node>
	<node lat="59.70703611132" lon="10.556941663661158" id="-12735">
		<tag k="name" v="Dragsundet" />
=======
	<node id="-246429" lat="59.6775138897" lon="10.5720361165">
		<tag k="name" v="Munkhattgrunnen" />
		<tag k="natural" v="shoal" />
		<tag k="place" v="locality" />
		<tag k="ssr:stedsnr" v="388009" />
	</node>
	<node id="-246383" lat="59.6858333348" lon="10.617561112">
		<tag k="fixme" v="multiple name tags, choose one and add the other to alt_name" />
		<tag k="name" v="Lortbukta;Nordbukta" />
		<tag k="natural" v="bay" />
		<tag k="ssr:stedsnr" v="282440" />
	</node>
	<node id="-246419" lat="59.7446333336" lon="10.7221194445">
		<tag k="bay" v="fjord" />
		<tag k="name" v="Bunnefjorden" />
>>>>>>> e1d4bc35ff8a6074a6f2e91616a996b547c36f15
		<tag k="natural" v="bay" />
		<tag k="ssr:stedsnr" v="571144" />
	</node>
<<<<<<< HEAD
	<node lat="59.62593611216236" lon="10.647463885383118" id="-12746">
		<tag k="name" v="Kjeppestadbukta" />
		<tag k="natural" v="bay" />
		<tag k="ssr:stedsnr" v="609643" />
	</node>
	<node lat="59.689616668521474" lon="10.606499991245887" id="-12751">
		<tag k="fixme" v="consider seamark:type=rock or natural=shoal" />
		<tag k="name" v="Kongen" />
		<tag k="place" v="islet" />
		<tag k="ssr:stedsnr" v="632119" />
	</node>
	<node lat="59.690102776792465" lon="10.624608324803928" id="-12757">
		<tag k="name" v="Svartvarpgrunnen" />
=======
	<node id="-246417" lat="59.6963277774" lon="10.6311833347">
		<tag k="name" v="Sandstrand" />
		<tag k="natural" v="beach" />
		<tag k="place" v="locality" />
		<tag k="ssr:stedsnr" v="482851" />
	</node>
	<node id="-246416" lat="59.6773861094" lon="10.5862722201">
		<tag k="name" v="Geitestranda" />
		<tag k="natural" v="beach" />
		<tag k="place" v="locality" />
		<tag k="ssr:stedsnr" v="482843" />
	</node>
	<node id="-246412" lat="59.7618499993" lon="10.5460694398">
		<tag k="name" v="Klokkegrunnen" />
>>>>>>> e1d4bc35ff8a6074a6f2e91616a996b547c36f15
		<tag k="natural" v="shoal" />
		<tag k="place" v="locality" />
		<tag k="ssr:stedsnr" v="706451" />
	</node>
<<<<<<< HEAD
	<node lat="59.67417222632255" lon="10.61856388554808" id="-12762">
		<tag k="name" v="Husvikbåen" />
		<tag k="place" v="locality" />
		<tag k="seamark:type" v="rock" />
		<tag k="ssr:stedsnr" v="645424" />
	</node>
	<node lat="59.66613333625359" lon="10.625949993534034" id="-12768">
		<tag k="name" v="Badeparken" />
=======
	<node id="-246916" lat="59.2149722232" lon="10.6363416708">
		<tag k="bay" v="fjord" />
		<tag k="name" v="Oslofjorden" />
		<tag k="natural" v="bay" />
		<tag k="ssr:stedsnr" v="365030" />
	</node>
	<node id="-246397" lat="59.6826944419" lon="10.5690638881">
		<tag k="name" v="Parisbukta" />
		<tag k="natural" v="bay" />
		<tag k="ssr:stedsnr" v="240861" />
	</node>
	<node id="-246396" lat="59.7159555591" lon="10.5928444445">
		<tag k="name" v="Barkebustranda" />
>>>>>>> e1d4bc35ff8a6074a6f2e91616a996b547c36f15
		<tag k="natural" v="beach" />
		<tag k="ssr:stedsnr" v="706850" />
	</node>
<<<<<<< HEAD
	<node lat="59.695033335864736" lon="10.603561114442158" id="-12773">
		<tag k="fixme" v="consider seamark:type=rock or natural=shoal" />
		<tag k="name" v="Sandbuktskjæret" />
		<tag k="place" v="islet" />
		<tag k="ssr:stedsnr" v="664523" />
	</node>
	<node lat="59.722791667361875" lon="10.545227769637224" id="-12775">
		<tag k="name" v="Flågrunnrenna" />
=======
	<node id="-246394" lat="59.7305055558" lon="10.5689722193">
		<tag k="name" v="Lågøysundet" />
>>>>>>> e1d4bc35ff8a6074a6f2e91616a996b547c36f15
		<tag k="natural" v="strait" />
		<tag k="ssr:stedsnr" v="665836" />
	</node>
<<<<<<< HEAD
	<node lat="59.695650492418224" lon="10.6258127322709" id="-12776">
		<tag k="name" v="Skorogrunnen" />
		<tag k="natural" v="shoal" />
		<tag k="place" v="locality" />
		<tag k="ssr:stedsnr" v="693109" />
	</node>
	<node lat="59.63875832898163" lon="10.639491670206603" id="-12783">
		<tag k="fixme" v="multiple name tags, choose one and add the other to alt_name" />
		<tag k="name" v="Skiphelleodden;Elleodden" />
=======
	<node id="-246393" lat="59.7015333356" lon="10.634919452">
		<tag k="name" v="Innerpollen" />
		<tag k="natural" v="bay" />
		<tag k="ssr:stedsnr" v="282934" />
	</node>
	<node id="-246390" lat="59.6401250014" lon="10.6373222249">
		<tag k="name" v="Venteberget" />
>>>>>>> e1d4bc35ff8a6074a6f2e91616a996b547c36f15
		<tag k="natural" v="cape" />
		<tag k="ssr:stedsnr" v="706879" />
	</node>
<<<<<<< HEAD
	<node lat="59.699269441849026" lon="10.58831945071806" id="-12785">
		<tag k="name" v="Askholmgrunnen" />
		<tag k="natural" v="shoal" />
		<tag k="place" v="locality" />
		<tag k="ssr:stedsnr" v="725803" />
	</node>
	<node lat="59.685666667715815" lon="10.60845832770022" id="-12786">
=======
	<node id="-246389" lat="59.6441222196" lon="10.6358694489">
		<tag k="alt_name" v="Elleskjær" />
>>>>>>> e1d4bc35ff8a6074a6f2e91616a996b547c36f15
		<tag k="fixme" v="consider seamark:type=rock or natural=shoal" />
		<tag k="name" v="Langebåt" />
		<tag k="place" v="islet" />
<<<<<<< HEAD
		<tag k="ssr:stedsnr" v="731763" />
	</node>
	<node lat="59.71374444293693" lon="10.563086106320608" id="-12799">
		<tag k="name" v="Selskjærbukta" />
=======
		<tag k="ssr:stedsnr" v="282858" />
	</node>
	<node id="-246899" lat="59.7678472198" lon="10.7115805494">
		<tag k="name" v="Solbukta" />
		<tag k="natural" v="bay" />
		<tag k="ssr:stedsnr" v="966772" />
	</node>
	<node id="-246897" lat="59.7119416696" lon="10.5986083371">
		<tag k="name" v="Sønderstøbukta" />
>>>>>>> e1d4bc35ff8a6074a6f2e91616a996b547c36f15
		<tag k="natural" v="bay" />
		<tag k="ssr:stedsnr" v="907833" />
	</node>
<<<<<<< HEAD
	<node lat="59.754775002440525" lon="10.717497224636675" id="-12803">
		<tag k="name" v="Brevikflua" />
=======
	<node id="-246895" lat="59.6526583323" lon="10.6305527718">
		<tag k="name" v="Drøbakbanken" />
>>>>>>> e1d4bc35ff8a6074a6f2e91616a996b547c36f15
		<tag k="natural" v="shoal" />
		<tag k="place" v="locality" />
		<tag k="ssr:stedsnr" v="786447" />
	</node>
<<<<<<< HEAD
	<node lat="59.69830833102085" lon="10.554511103911262" id="-12806">
		<tag k="name" v="Tåjegrunnen" />
=======
	<node id="-246889" lat="59.6828555584" lon="10.6031166586">
		<tag k="name" v="Kaholmgrunnen" />
>>>>>>> e1d4bc35ff8a6074a6f2e91616a996b547c36f15
		<tag k="natural" v="shoal" />
		<tag k="place" v="locality" />
		<tag k="ssr:stedsnr" v="786857" />
	</node>
<<<<<<< HEAD
	<node lat="59.70344444182301" lon="10.584608333552948" id="-12811">
		<tag k="name" v="Askholmflaket" />
		<tag k="natural" v="shoal" />
		<tag k="place" v="locality" />
		<tag k="ssr:stedsnr" v="797843" />
	</node>
	<node lat="59.71778055514135" lon="10.566861102709217" id="-12817">
		<tag k="alt_name" v="Rissan" />
		<tag k="name" v="Ristodden" />
=======
	<node id="-246370" lat="59.6684583333" lon="10.6252111077">
		<tag k="name" v="Skrivarbukta" />
		<tag k="natural" v="bay" />
		<tag k="ssr:stedsnr" v="160404" />
	</node>
	<node id="-246367" lat="59.7061055556" lon="10.6420555563">
		<tag k="name" v="Mortensbergodden" />
>>>>>>> e1d4bc35ff8a6074a6f2e91616a996b547c36f15
		<tag k="natural" v="cape" />
		<tag k="ssr:stedsnr" v="913776" />
	</node>
<<<<<<< HEAD
	<node lat="59.74539999608454" lon="10.561588893544307" id="-12818">
		<tag k="name" v="Sydvestgrunnen" />
=======
	<node id="-246878" lat="59.7628916649" lon="10.5652388855">
		<tag k="name" v="Langårrabbane" />
>>>>>>> e1d4bc35ff8a6074a6f2e91616a996b547c36f15
		<tag k="natural" v="shoal" />
		<tag k="place" v="locality" />
		<tag k="ssr:stedsnr" v="913958" />
	</node>
<<<<<<< HEAD
	<node lat="59.67468055268178" lon="10.588377781731845" id="-12820">
		<tag k="name" v="Bergholmen" />
		<tag k="place" v="islet" />
		<tag k="ssr:stedsnr" v="914849" />
	</node>
	<node lat="59.76004722026927" lon="10.544472218589728" id="-12822">
		<tag k="name" v="Langårgrunnane" />
		<tag k="natural" v="shoal" />
		<tag k="place" v="locality" />
		<tag k="ssr:stedsnr" v="915615" />
	</node>
	<node lat="59.755047219462156" lon="10.563144448651366" id="-12835">
		<tag k="alt_name" v="Langåra" />
		<tag k="name" v="Søndre Langåra" />
		<tag k="place" v="island" />
		<tag k="ssr:stedsnr" v="854503" />
	</node>
	<node lat="59.70229999631721" lon="10.628983337803229" id="-12838">
		<tag k="alt_name" v="Pollebukta" />
		<tag k="name" v="Pollen" />
=======
	<node id="-246365" lat="59.7458555529" lon="10.7202777751">
		<tag k="name" v="Lagodden" />
		<tag k="natural" v="cape" />
		<tag k="ssr:stedsnr" v="146222" />
	</node>
	<node id="-246377" lat="59.707327779" lon="10.6427916691">
		<tag k="name" v="Sanddrettet" />
		<tag k="natural" v="beach" />
		<tag k="place" v="locality" />
		<tag k="ssr:stedsnr" v="282377" />
	</node>
	<node id="-246356" lat="59.6912784252" lon="10.5920793661">
		<tag k="alt_name" v="Tronstadåsen" />
		<tag k="name" v="Tronstadodden" />
		<tag k="natural" v="cape" />
		<tag k="ssr:stedsnr" v="99556" />
	</node>
	<node id="-246353" lat="59.7147361081" lon="10.5535666707">
		<tag k="name" v="Bjørnhuebukta" />
>>>>>>> e1d4bc35ff8a6074a6f2e91616a996b547c36f15
		<tag k="natural" v="bay" />
		<tag k="ssr:stedsnr" v="935210" />
	</node>
<<<<<<< HEAD
	<node lat="59.69814444587403" lon="10.634522225142176" id="-12845">
		<tag k="name" v="Holmebukta" />
		<tag k="natural" v="bay" />
		<tag k="ssr:stedsnr" v="908649" />
	</node>
	<node lat="59.71153611293508" lon="10.564350007029548" id="-12848">
		<tag k="alt_name" v="Selskjæret" />
		<tag k="name" v="Selskjæra" />
		<tag k="place" v="islet" />
		<tag k="ssr:stedsnr" v="913801" />
	</node>
	<node lat="59.69410000393145" lon="10.628141661096254" id="-12853">
		<tag k="name" v="Furuholmen" />
		<tag k="place" v="islet" />
		<tag k="ssr:stedsnr" v="935048" />
	</node>
	<node lat="59.692755559305404" lon="10.606205552124175" id="-12856">
		<tag k="name" v="Sandbukta" />
=======
	<node id="-246351" lat="59.6750972186" lon="10.5987888817">
		<tag k="name" v="Håøytangen" />
		<tag k="natural" v="cape" />
		<tag k="ssr:stedsnr" v="85859" />
	</node>
	<node id="-246860" lat="59.7034444418" lon="10.5846083336">
		<tag k="name" v="Askholmflaket" />
		<tag k="natural" v="shoal" />
		<tag k="place" v="locality" />
		<tag k="ssr:stedsnr" v="797843" />
	</node>
	<node id="-246857" lat="59.7149888884" lon="10.5317277694">
		<tag k="bay" v="fjord" />
		<tag k="name" v="Vestfjorden" />
>>>>>>> e1d4bc35ff8a6074a6f2e91616a996b547c36f15
		<tag k="natural" v="bay" />
		<tag k="ssr:stedsnr" v="936095" />
	</node>
<<<<<<< HEAD
	<node lat="59.68902499746253" lon="10.623827780185131" id="-12874">
		<tag k="fixme" v="consider seamark:type=rock or natural=shoal" />
		<tag k="name" v="Gylteskjæra" />
=======
	<node id="-246344" lat="59.674049996" lon="10.6071083315">
		<tag k="name" v="Søndre Kaholmen" />
>>>>>>> e1d4bc35ff8a6074a6f2e91616a996b547c36f15
		<tag k="place" v="islet" />
		<tag k="ssr:stedsnr" v="25059" />
	</node>
<<<<<<< HEAD
	<node lat="59.75291666492277" lon="10.71458888460819" id="-12886">
		<tag k="name" v="Brevikbukta" />
		<tag k="natural" v="bay" />
		<tag k="ssr:stedsnr" v="58465" />
	</node>
	<node lat="59.70643889271025" lon="10.554177780539893" id="-12887">
		<tag k="name" v="Dragsundodden" />
=======
	<node id="-246343" lat="59.7152388868" lon="10.550261115">
		<tag k="alt_name" v="Bjørnehuet" />
		<tag k="name" v="Bjørnehue" />
>>>>>>> e1d4bc35ff8a6074a6f2e91616a996b547c36f15
		<tag k="natural" v="cape" />
		<tag k="ssr:stedsnr" v="58848" />
	</node>
<<<<<<< HEAD
	<node lat="59.675097218558804" lon="10.598788881653284" id="-12890">
		<tag k="name" v="Håøytangen" />
		<tag k="natural" v="cape" />
		<tag k="ssr:stedsnr" v="85859" />
	</node>
	<node lat="59.70026388981975" lon="10.601677770523395" id="-12893">
		<tag k="name" v="Revjeodden" />
		<tag k="natural" v="cape" />
		<tag k="ssr:stedsnr" v="86137" />
	</node>
	<node lat="59.72720833302675" lon="10.589147221669773" id="-12894">
		<tag k="name" v="Sandtangen" />
		<tag k="natural" v="cape" />
		<tag k="ssr:stedsnr" v="86140" />
	</node>
	<node lat="59.6912784251855" lon="10.592079366101075" id="-12898">
		<tag k="alt_name" v="Tronstadåsen" />
		<tag k="name" v="Tronstadodden" />
=======
	<node id="-246853" lat="59.698308331" lon="10.5545111039">
		<tag k="name" v="Tåjegrunnen" />
		<tag k="natural" v="shoal" />
		<tag k="place" v="locality" />
		<tag k="ssr:stedsnr" v="786857" />
	</node>
	<node id="-246851" lat="59.7547750024" lon="10.7174972246">
		<tag k="name" v="Brevikflua" />
		<tag k="natural" v="shoal" />
		<tag k="place" v="locality" />
		<tag k="ssr:stedsnr" v="786447" />
	</node>
	<node id="-246850" lat="59.6746666694" lon="10.6068444484">
		<tag k="alt_name" v="Kaholmene" />
		<tag k="name" v="Kaholmane" />
		<tag k="place" v="islet" />
		<tag k="ssr:stedsnr" v="786445" />
	</node>
	<node id="-246333" lat="59.7439305552" lon="10.7204833387">
		<tag k="name" v="Dragen" />
>>>>>>> e1d4bc35ff8a6074a6f2e91616a996b547c36f15
		<tag k="natural" v="cape" />
		<tag k="ssr:stedsnr" v="99556" />
	</node>
<<<<<<< HEAD
	<node lat="59.643908331842155" lon="10.63647777453311" id="-12903">
		<tag k="name" v="Ellebukta" />
		<tag k="natural" v="bay" />
		<tag k="ssr:stedsnr" v="100849" />
	</node>
	<node lat="59.77535555663726" lon="10.712355561899685" id="-12905">
		<tag k="name" v="Sindingbukta" />
		<tag k="natural" v="bay" />
		<tag k="ssr:stedsnr" v="117762" />
	</node>
	<node lat="59.71538889008143" lon="10.559461115539165" id="-12914">
		<tag k="alt_name" v="Håøya, nordre" />
		<tag k="name" v="Nordre Håøya" />
		<tag k="place" v="island" />
		<tag k="ssr:stedsnr" v="124780" />
	</node>
	<node lat="59.6858954479866" lon="10.562525340684028" id="-12916">
		<tag k="name" v="Møkkalassa" />
=======
	<node id="-246842" lat="59.6980777783" lon="10.5586777818">
		<tag k="name" v="Tåjebukta" />
		<tag k="natural" v="bay" />
		<tag k="ssr:stedsnr" v="754148" />
	</node>
	<node id="-246841" lat="59.6678500042" lon="10.6257333351">
		<tag k="name" v="Parrstranda" />
		<tag k="natural" v="beach" />
		<tag k="place" v="locality" />
		<tag k="ssr:stedsnr" v="737390" />
	</node>
	<node id="-246840" lat="59.6692815329" lon="10.6237269469">
		<tag k="name" v="Brenneripynten" />
		<tag k="natural" v="cape" />
		<tag k="ssr:stedsnr" v="645831" />
	</node>
	<node id="-246839" lat="59.7008511363" lon="10.6332306102">
		<tag k="fixme" v="consider seamark:type=rock or natural=shoal" />
		<tag k="name" v="Storskjæret" />
		<tag k="place" v="islet" />
		<tag k="ssr:stedsnr" v="645450" />
	</node>
	<node id="-246836" lat="59.6741722263" lon="10.6185638855">
		<tag k="name" v="Husvikbåen" />
		<tag k="place" v="locality" />
		<tag k="seamark:type" v="rock" />
		<tag k="ssr:stedsnr" v="645424" />
	</node>
	<node id="-246366" lat="59.7054694438" lon="10.6427166654">
		<tag k="alt_name" v="Spervikstranda" />
		<tag k="name" v="Sperrevikstranda" />
		<tag k="natural" v="beach" />
		<tag k="place" v="locality" />
		<tag k="ssr:stedsnr" v="146226" />
	</node>
	<node id="-246827" lat="59.6896166685" lon="10.6064999912">
		<tag k="fixme" v="consider seamark:type=rock or natural=shoal" />
		<tag k="name" v="Kongen" />
>>>>>>> e1d4bc35ff8a6074a6f2e91616a996b547c36f15
		<tag k="place" v="islet" />
		<tag k="ssr:stedsnr" v="124736" />
	</node>
<<<<<<< HEAD
	<node lat="59.74748055677826" lon="10.566952784441504" id="-12918">
		<tag k="name" v="Sydostgrunnen" />
=======
	<node id="-246826" lat="59.767822222" lon="10.5500833398">
		<tag k="name" v="Torpene" />
>>>>>>> e1d4bc35ff8a6074a6f2e91616a996b547c36f15
		<tag k="natural" v="shoal" />
		<tag k="place" v="locality" />
		<tag k="ssr:stedsnr" v="124943" />
	</node>
<<<<<<< HEAD
	<node lat="59.76356666532718" lon="10.711950007451712" id="-12920">
		<tag k="name" v="Glennestranda" />
=======
	<node id="-246822" lat="59.6491388862" lon="10.6344416716">
		<tag k="name" v="Torkilstranda" />
>>>>>>> e1d4bc35ff8a6074a6f2e91616a996b547c36f15
		<tag k="natural" v="beach" />
		<tag k="ssr:stedsnr" v="146246" />
	</node>
<<<<<<< HEAD
	<node lat="59.668458333284754" lon="10.625211107749767" id="-12928">
		<tag k="name" v="Skrivarbukta" />
		<tag k="natural" v="bay" />
		<tag k="ssr:stedsnr" v="160404" />
	</node>
	<node lat="59.72147500272891" lon="10.570008327953651" id="-12936">
		<tag k="name" v="Ristsundet" />
		<tag k="natural" v="strait" />
		<tag k="ssr:stedsnr" v="160493" />
	</node>
	<node lat="59.73050555582712" lon="10.56897221926723" id="-12941">
		<tag k="name" v="Lågøysundet" />
		<tag k="natural" v="strait" />
		<tag k="ssr:stedsnr" v="180754" />
	</node>
	<node lat="59.71305555282559" lon="10.59702777879804" id="-12942">
		<tag k="name" v="Revjetangen" />
=======
	<node id="-246307" lat="59.7023972226" lon="10.5902111098">
		<tag k="name" v="Askholmene" />
		<tag k="place" v="islet" />
		<tag k="ssr:stedsnr" v="3738" />
	</node>
	<node id="-246818" lat="59.7030472194" lon="10.5787583381">
		<tag k="name" v="Bjellegrunnen" />
		<tag k="natural" v="shoal" />
		<tag k="place" v="locality" />
		<tag k="ssr:stedsnr" v="603829" />
	</node>
	<node id="-246817" lat="59.6960138931" lon="10.6041944503">
		<tag k="name" v="Søndre Båtstø" />
>>>>>>> e1d4bc35ff8a6074a6f2e91616a996b547c36f15
		<tag k="natural" v="cape" />
		<tag k="ssr:stedsnr" v="180884" />
	</node>
<<<<<<< HEAD
	<node lat="59.67603610991164" lon="10.622236105771393" id="-12949">
		<tag k="alt_name" v="Husvikholmen" />
		<tag k="name" v="Husvik" />
		<tag k="natural" v="cape" />
		<tag k="ssr:stedsnr" v="186860" />
	</node>
	<node lat="59.68583333484002" lon="10.61756111204461" id="-12964">
		<tag k="fixme" v="multiple name tags, choose one and add the other to alt_name" />
		<tag k="name" v="Nordbukta;Lortbukta" />
=======
	<node id="-246816" lat="59.7226749974" lon="10.7263444455">
		<tag k="fixme" v="consider seamark:type=rock or natural=shoal" />
		<tag k="name" v="Skjæret" />
		<tag k="place" v="islet" />
		<tag k="ssr:stedsnr" v="603421" />
	</node>
	<node id="-246800" lat="59.7070361113" lon="10.5569416637">
		<tag k="name" v="Dragsundet" />
>>>>>>> e1d4bc35ff8a6074a6f2e91616a996b547c36f15
		<tag k="natural" v="bay" />
		<tag k="ssr:stedsnr" v="282440" />
	</node>
<<<<<<< HEAD
	<node lat="59.640125001351564" lon="10.637322224859075" id="-12969">
		<tag k="name" v="Venteberget" />
		<tag k="natural" v="cape" />
		<tag k="ssr:stedsnr" v="282864" />
	</node>
	<node lat="59.701533335558565" lon="10.634919452049473" id="-12971">
		<tag k="name" v="Innerpollen" />
=======
	<node id="-246795" lat="59.7074472238" lon="10.5569944424">
		<tag k="alt_name" v="Dragsund, vestre" />
		<tag k="name" v="Vestre Dragsund" />
>>>>>>> e1d4bc35ff8a6074a6f2e91616a996b547c36f15
		<tag k="natural" v="bay" />
		<tag k="ssr:stedsnr" v="282934" />
	</node>
<<<<<<< HEAD
	<node lat="59.66692956284609" lon="10.620635514296593" id="-12980">
		<tag k="alt_name" v="Drøbakgrunna" />
		<tag k="name" v="Drøbakgrunnen" />
=======
	<node id="-246794" lat="59.7216388877" lon="10.5475694364">
		<tag k="name" v="Flågrunnen" />
>>>>>>> e1d4bc35ff8a6074a6f2e91616a996b547c36f15
		<tag k="natural" v="shoal" />
		<tag k="place" v="locality" />
		<tag k="ssr:stedsnr" v="307869" />
	</node>
<<<<<<< HEAD
	<node lat="59.68365277446312" lon="10.615344447007667" id="-12988">
		<tag k="name" v="Lyksetodden" />
		<tag k="natural" v="cape" />
		<tag k="ssr:stedsnr" v="342664" />
	</node>
	<node lat="59.214972223183594" lon="10.636341670814504" id="-12994">
		<tag k="bay" v="fjord" />
		<tag k="name" v="Oslofjorden" />
=======
	<node id="-246793" lat="59.7196055539" lon="10.5553749974">
		<tag k="fixme" v="multiple name tags, choose one and add the other to alt_name" />
		<tag k="name" v="Djupebukta;Nordbukta" />
>>>>>>> e1d4bc35ff8a6074a6f2e91616a996b547c36f15
		<tag k="natural" v="bay" />
		<tag k="ssr:stedsnr" v="365030" />
	</node>
<<<<<<< HEAD
	<node lat="59.69830000146933" lon="10.603302786544079" id="-12995">
		<tag k="fixme" v="multiple name tags, choose one and add the other to alt_name" />
		<tag k="name" v="Båtstø;Nordre Båtstø" />
		<tag k="natural" v="cape" />
		<tag k="ssr:stedsnr" v="367736" />
	</node>
	<node lat="59.73542634980962" lon="10.565992156974017" id="-13000">
		<tag k="name" v="Lågøya" />
		<tag k="place" v="islet" />
		<tag k="ssr:stedsnr" v="367960" />
	</node>
	<node lat="59.684644442799744" lon="10.621536110027876" id="-13003">
		<tag k="name" v="Gylteholmen" />
		<tag k="place" v="island" />
		<tag k="ssr:stedsnr" v="384632" />
	</node>
	<node lat="59.6775138896806" lon="10.572036116518184" id="-13004">
		<tag k="name" v="Munkhattgrunnen" />
		<tag k="natural" v="shoal" />
		<tag k="place" v="locality" />
		<tag k="ssr:stedsnr" v="388009" />
	</node>
	<node lat="59.68986110829624" lon="10.563908334532229" id="-13015">
		<tag k="name" v="Revjebukta" />
		<tag k="natural" v="bay" />
		<tag k="ssr:stedsnr" v="422862" />
	</node>
	<node lat="59.698536112830574" lon="10.557294445172198" id="-13016">
		<tag k="name" v="Tåjeodden" />
		<tag k="natural" v="bay" />
		<tag k="ssr:stedsnr" v="422865" />
	</node>
	<node lat="59.755341670118554" lon="10.71313055472483" id="-13017">
		<tag k="name" v="Odden" />
		<tag k="natural" v="cape" />
		<tag k="ssr:stedsnr" v="422379" />
	</node>
	<node lat="59.76081389067022" lon="10.713036115034134" id="-13029">
		<tag k="name" v="Rosestranda" />
		<tag k="natural" v="beach" />
		<tag k="ssr:stedsnr" v="524389" />
	</node>
	<node lat="59.70990277995278" lon="10.585391668134328" id="-13033">
		<tag k="name" v="Nordre Torskekrakken" />
		<tag k="natural" v="shoal" />
		<tag k="place" v="locality" />
		<tag k="ssr:stedsnr" v="543825" />
	</node>
	<node lat="59.707447223788094" lon="10.55699444235454" id="-13034">
		<tag k="alt_name" v="Dragsund, vestre" />
		<tag k="name" v="Vestre Dragsund" />
		<tag k="natural" v="bay" />
		<tag k="ssr:stedsnr" v="549799" />
	</node>
	<node lat="59.7196055538519" lon="10.555374997406743" id="-13035">
		<tag k="fixme" v="multiple name tags, choose one and add the other to alt_name" />
		<tag k="name" v="Nordbukta;Djupebukta" />
		<tag k="natural" v="bay" />
		<tag k="ssr:stedsnr" v="549772" />
	</node>
	<node lat="59.72163888770305" lon="10.54756943643127" id="-13036">
		<tag k="name" v="Flågrunnen" />
		<tag k="natural" v="shoal" />
		<tag k="place" v="locality" />
		<tag k="ssr:stedsnr" v="549779" />
	</node>
	<node lat="59.67842500159823" lon="10.606655548960502" id="-13040">
		<tag k="name" v="Nordre Kaholmen" />
		<tag k="place" v="island" />
		<tag k="ssr:stedsnr" v="571086" />
	</node>
	<node lat="59.67315278236413" lon="10.616099993779569" id="-13041">
		<tag k="name" v="Drøbaksundet" />
		<tag k="natural" v="strait" />
		<tag k="ssr:stedsnr" v="571089" />
	</node>
	<node lat="59.72267499743244" lon="10.726344445510245" id="-13052">
		<tag k="fixme" v="consider seamark:type=rock or natural=shoal" />
		<tag k="name" v="Skjæret" />
		<tag k="place" v="islet" />
		<tag k="ssr:stedsnr" v="603421" />
	</node>
	<node lat="59.696013893092875" lon="10.604194450285707" id="-13055">
		<tag k="name" v="Søndre Båtstø" />
		<tag k="natural" v="cape" />
		<tag k="ssr:stedsnr" v="603544" />
	</node>
	<node lat="59.70304721940092" lon="10.578758338062462" id="-13056">
		<tag k="name" v="Bjellegrunnen" />
		<tag k="natural" v="shoal" />
		<tag k="place" v="locality" />
		<tag k="ssr:stedsnr" v="603829" />
	</node>
	<node lat="59.62169166701631" lon="10.648322224484833" id="-13057">
		<tag k="alt_name" v="Solbergstranda" />
		<tag k="name" v="Solbergstrand" />
		<tag k="natural" v="beach" />
		<tag k="ssr:stedsnr" v="609613" />
	</node>
	<node lat="59.6491388861693" lon="10.634441671621717" id="-13061">
		<tag k="name" v="Torkilstranda" />
		<tag k="natural" v="beach" />
		<tag k="ssr:stedsnr" v="610848" />
	</node>
	<node lat="59.76782222195227" lon="10.550083339820636" id="-13065">
		<tag k="name" v="Torpene" />
		<tag k="natural" v="shoal" />
		<tag k="place" v="locality" />
		<tag k="ssr:stedsnr" v="631118" />
	</node>
	<node lat="59.70085113631894" lon="10.633230610230349" id="-13073">
		<tag k="fixme" v="consider seamark:type=rock or natural=shoal" />
		<tag k="name" v="Storskjæret" />
		<tag k="place" v="islet" />
		<tag k="ssr:stedsnr" v="645450" />
	</node>
	<node lat="59.669281532943295" lon="10.623726946919248" id="-13077">
		<tag k="name" v="Brenneripynten" />
		<tag k="natural" v="cape" />
		<tag k="ssr:stedsnr" v="645831" />
	</node>
	<node lat="59.74488889022848" lon="10.721422216873776" id="-13081">
		<tag k="name" v="Kølleberget" />
		<tag k="natural" v="shoal" />
		<tag k="place" v="locality" />
		<tag k="ssr:stedsnr" v="664392" />
	</node>
	<node lat="59.72229166608473" lon="10.721950008592232" id="-13082">
		<tag k="name" v="Stakabukta" />
		<tag k="natural" v="bay" />
		<tag k="ssr:stedsnr" v="664417" />
	</node>
	<node lat="59.70953055302691" lon="10.58853888249177" id="-13083">
		<tag k="name" v="Storegrunnen" />
		<tag k="natural" v="shoal" />
		<tag k="place" v="locality" />
		<tag k="ssr:stedsnr" v="664858" />
	</node>
	<node lat="59.68216666842605" lon="10.563655551728779" id="-13084">
		<tag k="name" v="Møkkalassgrunnene" />
		<tag k="natural" v="shoal" />
		<tag k="place" v="locality" />
		<tag k="ssr:stedsnr" v="664860" />
	</node>
	<node lat="59.75653333126734" lon="10.716091662900759" id="-13086">
		<tag k="name" v="Klatten" />
		<tag k="natural" v="shoal" />
		<tag k="place" v="locality" />
		<tag k="ssr:stedsnr" v="724749" />
	</node>
	<node lat="59.69859999669477" lon="10.630458336466454" id="-13089">
		<tag k="name" v="Bollesundet" />
		<tag k="natural" v="bay" />
		<tag k="ssr:stedsnr" v="725856" />
	</node>
	<node lat="59.683285666568615" lon="10.587976721894202" id="-13092">
		<tag k="name" v="Håøya" />
		<tag k="place" v="island" />
		<tag k="ssr:stedsnr" v="731740" />
	</node>
	<node lat="59.638011106830625" lon="10.641211103096758" id="-13093">
		<tag k="name" v="Skiphellebukta" />
		<tag k="natural" v="bay" />
		<tag k="ssr:stedsnr" v="731837" />
	</node>
	<node lat="59.676400003818095" lon="10.586525003405775" id="-13097">
		<tag k="name" v="Kloasundet" />
		<tag k="natural" v="strait" />
		<tag k="ssr:stedsnr" v="732843" />
	</node>
	<node lat="59.66785000416158" lon="10.62573333506303" id="-13098">
		<tag k="name" v="Parrstranda" />
		<tag k="natural" v="beach" />
		<tag k="ssr:stedsnr" v="737390" />
	</node>
	<node lat="59.69807777830422" lon="10.558677781771852" id="-13099">
		<tag k="name" v="Tåjebukta" />
		<tag k="natural" v="bay" />
		<tag k="ssr:stedsnr" v="754148" />
	</node>
	<node lat="59.67466666940518" lon="10.606844448444653" id="-13104">
		<tag k="alt_name" v="Kaholmene" />
		<tag k="name" v="Kaholmane" />
		<tag k="place" v="island" />
		<tag k="ssr:stedsnr" v="786445" />
	</node>
	<node lat="59.70566388476724" lon="10.583024997365897" id="-13107">
		<tag k="name" v="Søre Torskekrakken" />
		<tag k="natural" v="shoal" />
		<tag k="place" v="locality" />
		<tag k="ssr:stedsnr" v="786838" />
	</node>
	<node lat="59.6908194487863" lon="10.614352784860463" id="-13109">
		<tag k="name" v="Hallangstangen" />
		<tag k="natural" v="cape" />
		<tag k="ssr:stedsnr" v="791760" />
	</node>
	<node lat="59.71498888841918" lon="10.53172776937539" id="-13112">
		<tag k="bay" v="fjord" />
		<tag k="name" v="Vestfjorden" />
		<tag k="natural" v="bay" />
		<tag k="ssr:stedsnr" v="792789" />
	</node>
	<node lat="59.76289166490725" lon="10.565238885499916" id="-13126">
		<tag k="name" v="Langårrabbane" />
		<tag k="natural" v="shoal" />
		<tag k="place" v="locality" />
		<tag k="ssr:stedsnr" v="845040" />
	</node>
	<node lat="59.68285555844137" lon="10.60311665861362" id="-13136">
		<tag k="name" v="Kaholmgrunnen" />
		<tag k="natural" v="shoal" />
		<tag k="place" v="locality" />
		<tag k="ssr:stedsnr" v="852751" />
	</node>
	<node lat="59.652658332337055" lon="10.630552771821705" id="-13141">
		<tag k="name" v="Drøbakbanken" />
		<tag k="natural" v="shoal" />
		<tag k="place" v="locality" />
		<tag k="ssr:stedsnr" v="875017" />
	</node>
	<node lat="59.71194166962913" lon="10.59860833710635" id="-13143">
		<tag k="name" v="Sønderstøbukta" />
		<tag k="natural" v="bay" />
		<tag k="ssr:stedsnr" v="875153" />
	</node>
	<node lat="59.71848611073994" lon="10.716258332654975" id="-13147">
		<tag k="name" v="Bonnebukta" />
		<tag k="natural" v="bay" />
		<tag k="ssr:stedsnr" v="875253" />
	</node>
	<node lat="59.76784721983753" lon="10.711580549411538" id="-13160">
		<tag k="name" v="Solbukta" />
		<tag k="natural" v="bay" />
		<tag k="ssr:stedsnr" v="966772" />
	</node>
=======
	<node id="-246791" lat="59.6954277813" lon="10.6284027713">
		<tag k="name" v="Holmegrunnen" />
		<tag k="natural" v="shoal" />
		<tag k="place" v="locality" />
		<tag k="ssr:stedsnr" v="544612" />
	</node>
	<node id="-246790" lat="59.70990278" lon="10.5853916681">
		<tag k="name" v="Nordre Torskekrakken" />
		<tag k="natural" v="shoal" />
		<tag k="place" v="locality" />
		<tag k="ssr:stedsnr" v="543825" />
	</node>
>>>>>>> e1d4bc35ff8a6074a6f2e91616a996b547c36f15
</osm>
