<?xml version="1.0" encoding="UTF-8"?>
<osm version="0.6" generator="osmapis">
	<node lat="59.74956111446959" lon="10.67102778256966" id="-15354">
		<tag k="name" v="Glennemåsan" />
		<tag k="natural" v="wetland" />
		<tag k="ssr:stedsnr" v="463433" />
	</node>
	<node lat="59.71591666242512" lon="10.712786116901396" id="-15357">
		<tag k="name" v="Bånn" />
		<tag k="place" v="locality" />
		<tag k="ssr:stedsnr" v="464480" />
	</node>
	<node lat="59.731388887055026" lon="10.659855560207689" id="-15365">
		<tag k="name" v="Langebru" />
		<tag k="place" v="locality" />
		<tag k="ssr:stedsnr" v="342422" />
	</node>
	<node lat="59.75308888789195" lon="10.6803888835453" id="-15457">
		<tag k="name" v="Tiurleiken" />
		<tag k="place" v="locality" />
		<tag k="ssr:stedsnr" v="645417" />
	</node>
	<node lat="59.74838055514421" lon="10.66938334049243" id="-15553">
		<tag k="name" v="Tassehorn" />
		<tag k="place" v="locality" />
		<tag k="ssr:stedsnr" v="949381" />
	</node>
	<node lat="59.75128610960098" lon="10.679530563035721" id="-15554">
		<tag k="name" v="Veslemåsan" />
		<tag k="natural" v="wetland" />
		<tag k="ssr:stedsnr" v="949382" />
	</node>
	<node lat="59.729172222034684" lon="10.641888884736165" id="-15576">
		<tag k="name" v="Størrmyra" />
		<tag k="natural" v="wetland" />
		<tag k="ssr:stedsnr" v="39437" />
	</node>
	<node lat="59.70473889047059" lon="10.707700004184796" id="-15626">
		<tag k="name" v="Rommerudhagen" />
		<tag k="place" v="locality" />
		<tag k="ssr:stedsnr" v="160419" />
	</node>
	<node lat="59.72712777642014" lon="10.684936102577247" id="-15627">
		<tag k="name" v="Rørmyra" />
		<tag k="place" v="locality" />
		<tag k="ssr:stedsnr" v="160428" />
	</node>
	<node lat="59.752824997429286" lon="10.653105562049117" id="-15659">
		<tag k="name" v="Tuhusmyra" />
		<tag k="natural" v="wetland" />
		<tag k="ssr:stedsnr" v="282427" />
	</node>
	<node lat="59.71236110883882" lon="10.635338892742537" id="-15704">
		<tag k="name" v="Ståterudmåsan" />
		<tag k="natural" v="wetland" />
		<tag k="ssr:stedsnr" v="403367" />
	</node>
	<node lat="59.74741111260505" lon="10.680583340373369" id="-15740">
		<tag k="name" v="Nymåsan" />
		<tag k="natural" v="wetland" />
		<tag k="ssr:stedsnr" v="584464" />
	</node>
	<node lat="59.7021833309854" lon="10.679958335233298" id="-15759">
		<tag k="name" v="Breimåsan" />
		<tag k="natural" v="wetland" />
		<tag k="ssr:stedsnr" v="626980" />
	</node>
	<node lat="59.74721388669713" lon="10.673347217980886" id="-15790">
		<tag k="name" v="Dalsmåsan" />
		<tag k="natural" v="wetland" />
		<tag k="ssr:stedsnr" v="731932" />
	</node>
	<node lat="59.69645277698679" lon="10.58347778224541" id="-15830">
		<tag k="name" v="Bruresteinen" />
		<tag k="natural" v="stone" />
		<tag k="ssr:stedsnr" v="852729" />
	</node>
	<node lat="59.76494444364235" lon="10.711058333812995" id="-15846">
		<tag k="name" v="Slora" />
		<tag k="place" v="locality" />
		<tag k="ssr:stedsnr" v="888643" />
	</node>
	<node lat="59.73013610964824" lon="10.71354722469457" id="-15848">
		<tag k="name" v="Krams" />
		<tag k="place" v="locality" />
		<tag k="ssr:stedsnr" v="889479" />
	</node>
</osm>
