<?xml version="1.0" encoding="UTF-8"?>
<osm generator="osmapis" version="0.6">
	<node id="-236797" lat="59.732694442" lon="10.7191222263">
		<tag k="name" v="Glufs" />
		<tag k="natural" v="slope" />
		<tag k="place" v="locality" />
		<tag k="ssr:stedsnr" v="875245" />
	</node>
	<node id="-236284" lat="59.7174000033" lon="10.663180564">
		<tag k="name" v="Skarphella" />
		<tag k="natural" v="slope" />
		<tag k="place" v="locality" />
		<tag k="ssr:stedsnr" v="282450" />
	</node>
	<node id="-236795" lat="59.6691555586" lon="10.6550750082">
		<tag k="fixme" v="multiple name tags, choose one and add the other to alt_name; consider natural=peak for the most distinct mountains in the district" />
		<tag k="name" v="Holteråsen;Ullerudflaket" />
		<tag k="natural" v="hill" />
		<tag k="place" v="locality" />
		<tag k="ssr:stedsnr" v="875031" />
	</node>
	<node id="-236275" lat="59.7136750035" lon="10.730450002">
		<tag k="fixme" v="consider natural=peak for the most distinct mountains in the district" />
		<tag k="name" v="Tjuåsen" />
		<tag k="natural" v="hill" />
		<tag k="place" v="locality" />
		<tag k="ssr:stedsnr" v="282373" />
	</node>
	<node id="-236783" lat="59.6977861127" lon="10.64383333">
		<tag k="fixme" v="multiple name tags, choose one and add the other to alt_name" />
		<tag k="name" v="Kjerringkleiva;Kleiva" />
		<tag k="natural" v="slope" />
		<tag k="place" v="locality" />
		<tag k="ssr:stedsnr" v="847610" />
	</node>
	<node id="-236212" lat="59.7453138864" lon="10.6913333395">
		<tag k="fixme" v="consider natural=peak for the most distinct mountains in the district" />
		<tag k="name" v="Høyås" />
		<tag k="natural" v="hill" />
		<tag k="place" v="locality" />
		<tag k="ssr:stedsnr" v="221407" />
	</node>
	<node id="-236394" lat="59.7410499968" lon="10.68978334">
		<tag k="fixme" v="consider natural=peak for the most distinct mountains in the district" />
		<tag k="name" v="Ravnekollen" />
		<tag k="natural" v="hill" />
		<tag k="place" v="locality" />
		<tag k="ssr:stedsnr" v="584452" />
	</node>
	<node id="-236648" lat="59.6854999987" lon="10.5830138936">
		<tag k="fixme" v="consider natural=peak for the most distinct mountains in the district" />
		<tag k="name" v="Varden" />
		<tag k="natural" v="hill" />
		<tag k="place" v="locality" />
		<tag k="ssr:stedsnr" v="367760" />
	</node>
	<node id="-236647" lat="59.6862916687" lon="10.6451194466">
		<tag k="alt_name" v="Harefjellet" />
		<tag k="fixme" v="consider natural=peak for the most distinct mountains in the district" />
		<tag k="name" v="Harafjellet" />
		<tag k="natural" v="hill" />
		<tag k="place" v="locality" />
		<tag k="ssr:stedsnr" v="367753" />
	</node>
	<node id="-236389" lat="59.6646388845" lon="10.6261111057">
		<tag k="name" v="Kirkeberget" />
		<tag k="natural" v="hill" />
		<tag k="place" v="locality" />
		<tag k="ssr:stedsnr" v="706849" />
	</node>
	<node id="-236259" lat="59.7147222202" lon="10.7080833249">
		<tag k="name" v="Rundvollbakkene" />
		<tag k="natural" v="slope" />
		<tag k="place" v="locality" />
		<tag k="ssr:stedsnr" v="100462" />
	</node>
	<node id="-236766" lat="59.669419445" lon="10.6617444455">
		<tag k="name" v="Råsbakkløkka" />
		<tag k="place" v="locality" />
		<tag k="ssr:stedsnr" v="828431" />
	</node>
	<node id="-236253" lat="59.7439611146" lon="10.6728638927">
		<tag k="fixme" v="consider natural=peak for the most distinct mountains in the district" />
		<tag k="name" v="Saraåsen" />
		<tag k="natural" v="hill" />
		<tag k="place" v="locality" />
		<tag k="ssr:stedsnr" v="99455" />
	</node>
	<node id="-236379" lat="59.7464916643" lon="10.708602774">
		<tag k="fixme" v="consider natural=peak for the most distinct mountains in the district" />
		<tag k="name" v="Fuglesangåsen" />
		<tag k="natural" v="hill" />
		<tag k="place" v="locality" />
		<tag k="ssr:stedsnr" v="706418" />
	</node>
	<node id="-236378" lat="59.7494222237" lon="10.696666673">
		<tag k="name" v="Dalsbakkene" />
		<tag k="natural" v="slope" />
		<tag k="place" v="locality" />
		<tag k="ssr:stedsnr" v="706417" />
	</node>
	<node id="-236377" lat="59.7372805534" lon="10.6634388956">
		<tag k="fixme" v="consider natural=peak for the most distinct mountains in the district" />
		<tag k="name" v="Furukollen" />
		<tag k="natural" v="hill" />
		<tag k="place" v="locality" />
		<tag k="ssr:stedsnr" v="706408" />
	</node>
	<node id="-236760" lat="59.6667166679" lon="10.6793638847">
		<tag k="fixme" v="multiple name tags, choose one and add the other to alt_name; consider natural=peak for the most distinct mountains in the district" />
		<tag k="name" v="Fjøseråsen;Torpåsen" />
		<tag k="natural" v="hill" />
		<tag k="place" v="locality" />
		<tag k="ssr:stedsnr" v="814036" />
	</node>
	<node id="-236629" lat="59.7539027775" lon="10.7105277834">
		<tag k="alt_name" v="Kjøyakollen" />
		<tag k="fixme" v="consider natural=peak for the most distinct mountains in the district" />
		<tag k="name" v="Køyakollen" />
		<tag k="natural" v="hill" />
		<tag k="place" v="locality" />
		<tag k="ssr:stedsnr" v="329281" />
	</node>
	<node id="-236241" lat="59.7309694411" lon="10.6511555624">
		<tag k="alt_name" v="Knappelåsen" />
		<tag k="fixme" v="consider natural=peak for the most distinct mountains in the district" />
		<tag k="name" v="Knappelsåsen" />
		<tag k="natural" v="hill" />
		<tag k="place" v="locality" />
		<tag k="ssr:stedsnr" v="246749" />
	</node>
	<node id="-236624" lat="59.741036112" lon="10.692272222">
		<tag k="name" v="Kaspars mage" />
		<tag k="place" v="locality" />
		<tag k="ssr:stedsnr" v="306957" />
	</node>
	<node id="-236620" lat="59.6806194486" lon="10.5968138898">
		<tag k="name" v="Ormeleina" />
		<tag k="natural" v="valley" />
		<tag k="place" v="locality" />
		<tag k="ssr:stedsnr" v="208109" />
	</node>
	<node id="-236609" lat="59.6462749991" lon="10.6706555473">
		<tag k="fixme" v="consider natural=peak for the most distinct mountains in the district" />
		<tag k="name" v="Haveråsen" />
		<tag k="natural" v="hill" />
		<tag k="place" v="locality" />
		<tag k="ssr:stedsnr" v="185821" />
	</node>
	<node id="-236350" lat="59.7132694464" lon="10.739372226">
		<tag k="fixme" v="consider natural=peak for the most distinct mountains in the district" />
		<tag k="name" v="Kaksrudåsen" />
		<tag k="natural" v="hill" />
		<tag k="place" v="locality" />
		<tag k="ssr:stedsnr" v="464405" />
	</node>
	<node id="-236476" lat="59.6947527819" lon="10.5638499975">
		<tag k="fixme" v="consider natural=peak for the most distinct mountains in the district" />
		<tag k="name" v="Ramneflauet" />
		<tag k="natural" v="hill" />
		<tag k="place" v="locality" />
		<tag k="ssr:stedsnr" v="791756" />
	</node>
	<node id="-236298" lat="59.6360500005" lon="10.659952769">
		<tag k="fixme" v="consider natural=peak for the most distinct mountains in the district" />
		<tag k="name" v="Eikebergåsen" />
		<tag k="natural" v="hill" />
		<tag k="place" v="locality" />
		<tag k="ssr:stedsnr" v="450014" />
	</node>
	<node id="-236343" lat="59.678283336" lon="10.6433944488">
		<tag k="name" v="Bjørndalen" />
		<tag k="natural" v="valley" />
		<tag k="place" v="locality" />
		<tag k="ssr:stedsnr" v="664384" />
	</node>
	<node id="-236214" lat="59.6729888859" lon="10.6221277719">
		<tag k="fixme" v="consider natural=peak for the most distinct mountains in the district" />
		<tag k="name" v="Kopåsen" />
		<tag k="natural" v="hill" />
		<tag k="place" v="locality" />
		<tag k="ssr:stedsnr" v="221423" />
	</node>
	<node id="-236596" lat="59.6977166667" lon="10.6227555543">
		<tag k="name" v="Svartlaget" />
		<tag k="natural" v="slope" />
		<tag k="place" v="locality" />
		<tag k="ssr:stedsnr" v="160376" />
	</node>
	<node id="-236382" lat="59.7228333364" lon="10.6912472211">
		<tag k="name" v="Stubberudkleiva" />
		<tag k="natural" v="slope" />
		<tag k="place" v="locality" />
		<tag k="ssr:stedsnr" v="706453" />
	</node>
	<node id="-236466" lat="59.7116694416" lon="10.7225055571">
		<tag k="fixme" v="consider natural=peak for the most distinct mountains in the district" />
		<tag k="name" v="Nymøllåsen" />
		<tag k="natural" v="hill" />
		<tag k="place" v="locality" />
		<tag k="ssr:stedsnr" v="914583" />
	</node>
	<node id="-236211" lat="59.7156472251" lon="10.6166000009">
		<tag k="fixme" v="consider natural=peak for the most distinct mountains in the district" />
		<tag k="name" v="Elgåsen" />
		<tag k="natural" v="hill" />
		<tag k="place" v="locality" />
		<tag k="ssr:stedsnr" v="221365" />
	</node>
	<node id="-236332" lat="59.6517222232" lon="10.6343027846">
		<tag k="alt_name" v="Rosekollen" />
		<tag k="name" v="Rosenkollen" />
		<tag k="natural" v="hill" />
		<tag k="place" v="locality" />
		<tag k="ssr:stedsnr" v="403867" />
	</node>
	<node id="-236457" lat="59.6854583366" lon="10.5757777845">
		<tag k="alt_name" v="Sæterdalen" />
		<tag k="name" v="Sætersdalen" />
		<tag k="natural" v="valley" />
		<tag k="place" v="locality" />
		<tag k="ssr:stedsnr" v="913764" />
	</node>
	<node id="-236209" lat="59.704097222" lon="10.7129444522">
		<tag k="name" v="Rommerudsletta" />
		<tag k="place" v="locality" />
		<tag k="ssr:stedsnr" v="221361" />
	</node>
	<node id="-236707" lat="59.70126111" lon="10.626588892">
		<tag k="name" v="Vollebakken" />
		<tag k="natural" v="slope" />
		<tag k="place" v="locality" />
		<tag k="ssr:stedsnr" v="585392" />
	</node>
	<node id="-236575" lat="59.6204305538" lon="10.6620361074">
		<tag k="fixme" v="consider natural=peak for the most distinct mountains in the district" />
		<tag k="name" v="Sagaåsen" />
		<tag k="natural" v="hill" />
		<tag k="place" v="locality" />
		<tag k="ssr:stedsnr" v="119253" />
	</node>
	<node id="-236443" lat="59.6672388912" lon="10.6331583311">
		<tag k="name" v="Holmåsen" />
		<tag k="natural" v="hill" />
		<tag k="place" v="locality" />
		<tag k="ssr:stedsnr" v="889853" />
	</node>
	<node id="-236442" lat="59.6555833304" lon="10.6685666628">
		<tag k="name" v="Skansen" />
		<tag k="natural" v="hill" />
		<tag k="place" v="locality" />
		<tag k="ssr:stedsnr" v="889524" />
	</node>
	<node id="-236310" lat="59.7032444454" lon="10.602513892">
		<tag k="name" v="Båtmannsskaret" />
		<tag k="natural" v="valley" />
		<tag k="place" v="locality" />
		<tag k="ssr:stedsnr" v="300558" />
	</node>
	<node id="-236437" lat="59.6851777737" lon="10.589730548">
		<tag k="name" v="Gåsa" />
		<tag k="natural" v="slope" />
		<tag k="place" v="locality" />
		<tag k="ssr:stedsnr" v="693116" />
	</node>
	<node id="-236307" lat="59.7241361116" lon="10.6948861166">
		<tag k="name" v="Bergerhøgda" />
		<tag k="natural" v="slope" />
		<tag k="place" v="locality" />
		<tag k="ssr:stedsnr" v="464484" />
	</node>
	<node id="-236802" lat="59.7031749977" lon="10.557544451">
		<tag k="fixme" v="consider natural=peak for the most distinct mountains in the district" />
		<tag k="name" v="Svanehalsen" />
		<tag k="natural" v="hill" />
		<tag k="place" v="locality" />
		<tag k="ssr:stedsnr" v="968842" />
	</node>
	<node id="-236432" lat="59.7325249972" lon="10.6765083393">
		<tag k="fixme" v="consider natural=peak for the most distinct mountains in the district" />
		<tag k="name" v="Flaggstangåsen" />
		<tag k="natural" v="hill" />
		<tag k="place" v="locality" />
		<tag k="ssr:stedsnr" v="888396" />
	</node>
	<node id="-236686" lat="59.7234777773" lon="10.7163722185">
		<tag k="name" v="Bonneholet" />
		<tag k="natural" v="valley" />
		<tag k="place" v="locality" />
		<tag k="ssr:stedsnr" v="543444" />
	</node>
	<node id="-236683" lat="59.7730555548" lon="10.7025861154">
		<tag k="name" v="Nissedalen" />
		<tag k="natural" v="valley" />
		<tag k="place" v="locality" />
		<tag k="ssr:stedsnr" v="524586" />
	</node>
	<node id="-236682" lat="59.7177388885" lon="10.6296638907">
		<tag k="name" v="Vestgårdstoppen" />
		<tag k="natural" v="hill" />
		<tag k="place" v="locality" />
		<tag k="ssr:stedsnr" v="524343" />
	</node>
	<node id="-236680" lat="59.7610111084" lon="10.6711527818">
		<tag k="name" v="Svartedalen" />
		<tag k="natural" v="valley" />
		<tag k="place" v="locality" />
		<tag k="ssr:stedsnr" v="524262" />
	</node>
	<node id="-236679" lat="59.7559972257" lon="10.6713138898">
		<tag k="name" v="Kinndalen" />
		<tag k="natural" v="valley" />
		<tag k="place" v="locality" />
		<tag k="ssr:stedsnr" v="524261" />
	</node>
	<node id="-236546" lat="59.6168416684" lon="10.6540250055">
		<tag k="name" v="Sagakollen" />
		<tag k="natural" v="hill" />
		<tag k="place" v="locality" />
		<tag k="ssr:stedsnr" v="58287" />
	</node>
</osm>
