<?xml version="1.0" encoding="UTF-8"?>
<<<<<<< HEAD
<osm version="0.6" generator="osmapis">
	<node lat="59.693825000821334" lon="10.626563896301933" id="-12577">
=======
<osm generator="osmapis" version="0.6">
	<node id="-246357" lat="59.6654166688" lon="10.6120333412">
		<tag k="fixme" v="consider boundary=protected_area and relevant protect_class if not nature reserve" />
		<tag k="leisure" v="nature_reserve" />
		<tag k="name" v="Småskjær naturreservat" />
		<tag k="ssr:stedsnr" v="100366" />
	</node>
	<node id="-246844" lat="59.688074996" lon="10.5781805633">
		<tag k="fixme" v="consider boundary=protected_area and relevant protect_class if not nature reserve" />
		<tag k="leisure" v="nature_reserve" />
		<tag k="name" v="Søndre Håøya naturreservat" />
		<tag k="ssr:stedsnr" v="767385" />
	</node>
	<node id="-246326" lat="59.6938250008" lon="10.6265638963">
>>>>>>> e1d4bc35ff8a6074a6f2e91616a996b547c36f15
		<tag k="fixme" v="consider boundary=protected_area and relevant protect_class if not nature reserve" />
		<tag k="leisure" v="nature_reserve" />
		<tag k="name" v="Stakaskjær naturreservat" />
		<tag k="ssr:stedsnr" v="39325" />
	</node>
<<<<<<< HEAD
	<node lat="59.66541666879387" lon="10.612033341197296" id="-12609">
=======
	<node id="-246805" lat="59.7026777749" lon="10.5922138865">
>>>>>>> e1d4bc35ff8a6074a6f2e91616a996b547c36f15
		<tag k="fixme" v="consider boundary=protected_area and relevant protect_class if not nature reserve" />
		<tag k="leisure" v="nature_reserve" />
		<tag k="name" v="Småskjær naturreservat" />
		<tag k="ssr:stedsnr" v="100366" />
	</node>
<<<<<<< HEAD
	<node lat="59.73670555659451" lon="10.720111106193775" id="-12721">
=======
	<node id="-246831" lat="59.7007225807" lon="10.6333355984">
>>>>>>> e1d4bc35ff8a6074a6f2e91616a996b547c36f15
		<tag k="fixme" v="consider boundary=protected_area and relevant protect_class if not nature reserve" />
		<tag k="leisure" v="nature_reserve" />
		<tag k="name" v="Knardal naturreservat" />
		<tag k="ssr:stedsnr" v="524418" />
	</node>
<<<<<<< HEAD
	<node lat="59.6952333311871" lon="10.721697229003716" id="-12755">
=======
	<node id="-246477" lat="59.6952333312" lon="10.721697229">
>>>>>>> e1d4bc35ff8a6074a6f2e91616a996b547c36f15
		<tag k="fixme" v="consider boundary=protected_area and relevant protect_class if not nature reserve" />
		<tag k="leisure" v="nature_reserve" />
		<tag k="name" v="Danmark naturreservat" />
		<tag k="ssr:stedsnr" v="706358" />
	</node>
<<<<<<< HEAD
	<node lat="59.696577778087885" lon="10.732197229146143" id="-12877">
=======
	<node id="-246635" lat="59.6965777781" lon="10.7321972291">
>>>>>>> e1d4bc35ff8a6074a6f2e91616a996b547c36f15
		<tag k="fixme" v="consider boundary=protected_area and relevant protect_class if not nature reserve" />
		<tag k="leisure" v="nature_reserve" />
		<tag k="name" v="Smihagen naturreservat" />
		<tag k="ssr:stedsnr" v="39329" />
	</node>
<<<<<<< HEAD
	<node lat="59.65636944320896" lon="10.645355555760563" id="-12889">
=======
	<node id="-246468" lat="59.7367055566" lon="10.7201111062">
>>>>>>> e1d4bc35ff8a6074a6f2e91616a996b547c36f15
		<tag k="fixme" v="consider boundary=protected_area and relevant protect_class if not nature reserve" />
		<tag k="leisure" v="nature_reserve" />
		<tag k="name" v="Nordre Sogsti naturminne" />
		<tag k="ssr:stedsnr" v="69419" />
	</node>
<<<<<<< HEAD
	<node lat="59.7026777748992" lon="10.592213886488487" id="-13045">
=======
	<node id="-246657" lat="59.6563694432" lon="10.6453555558">
>>>>>>> e1d4bc35ff8a6074a6f2e91616a996b547c36f15
		<tag k="fixme" v="consider boundary=protected_area and relevant protect_class if not nature reserve" />
		<tag k="leisure" v="nature_reserve" />
		<tag k="name" v="Nordøstre Askeskjær naturreservat" />
		<tag k="ssr:stedsnr" v="585344" />
	</node>
	<node lat="59.70072258067805" lon="10.633335598410968" id="-13070">
		<tag k="fixme" v="consider boundary=protected_area and relevant protect_class if not nature reserve" />
		<tag k="leisure" v="nature_reserve" />
		<tag k="name" v="Storskjær naturreservat" />
		<tag k="ssr:stedsnr" v="645362" />
	</node>
<<<<<<< HEAD
	<node lat="59.6880749960182" lon="10.578180563344864" id="-13101">
		<tag k="fixme" v="consider boundary=protected_area and relevant protect_class if not nature reserve" />
		<tag k="leisure" v="nature_reserve" />
		<tag k="name" v="Søndre Håøya naturreservat" />
		<tag k="ssr:stedsnr" v="767385" />
	</node>
=======
>>>>>>> e1d4bc35ff8a6074a6f2e91616a996b547c36f15
</osm>
