<?xml version="1.0" encoding="UTF-8"?>
<<<<<<< HEAD
<osm version="0.6" generator="osmapis">
	<node lat="59.70545277986662" lon="10.604094452602963" id="-12578">
		<tag k="name" v="Marikovadammen" />
		<tag k="natural" v="water" />
		<tag k="ssr:stedsnr" v="39469" />
	</node>
	<node lat="59.62804722368511" lon="10.652766674704978" id="-12608">
		<tag k="name" v="Øvre Kjeppestaddam" />
=======
<osm generator="osmapis" version="0.6">
	<node id="-246517" lat="59.7089555541" lon="10.6088249943">
		<tag k="fixme" v="multiple name tags, choose one and add the other to alt_name" />
		<tag k="name" v="Sønderstødammen;Søndre Sønderstødam" />
		<tag k="natural" v="water" />
		<tag k="ssr:stedsnr" v="731802" />
	</node>
	<node id="-246547" lat="59.6255972252" lon="10.6739416594">
		<tag k="alt_name" v="Solbergelva" />
		<tag k="name" v="Solbergbekken" />
		<tag k="ssr:stedsnr" v="731632" />
		<tag k="waterway" v="stream" />
	</node>
	<node id="-246640" lat="59.7054527799" lon="10.6040944526">
		<tag k="name" v="Marikovadammen" />
		<tag k="natural" v="water" />
		<tag k="ssr:stedsnr" v="39469" />
	</node>
	<node id="-246638" lat="59.6822000036" lon="10.6376527743">
		<tag k="alt_name" v="Øvredam" />
		<tag k="name" v="Øvredammen" />
		<tag k="natural" v="water" />
		<tag k="ssr:stedsnr" v="39435" />
	</node>
	<node id="-246893" lat="59.7114305541" lon="10.690405562">
		<tag k="name" v="Krøkle" />
		<tag k="natural" v="water" />
		<tag k="ssr:stedsnr" v="869978" />
	</node>
	<node id="-246636" lat="59.7136249969" lon="10.7272833271">
		<tag k="name" v="Nymølldammen" />
		<tag k="natural" v="water" />
		<tag k="ssr:stedsnr" v="39333" />
	</node>
	<node id="-246552" lat="59.680297223" lon="10.6497083328">
		<tag k="name" v="Øvredam" />
		<tag k="natural" v="water" />
		<tag k="ssr:stedsnr" v="907533" />
	</node>
	<node id="-246493" lat="59.6251666701" lon="10.6490972136">
		<tag k="name" v="Nedre Kjeppestaddam" />
		<tag k="natural" v="water" />
		<tag k="ssr:stedsnr" v="707452" />
	</node>
	<node id="-246359" lat="59.6280472237" lon="10.6527666747">
		<tag k="name" v="Øvre Kjeppestaddam" />
		<tag k="natural" v="water" />
		<tag k="ssr:stedsnr" v="100425" />
	</node>
	<node id="-246484" lat="59.6767694449" lon="10.6386500078">
		<tag k="alt_name" v="Kvernerdammen" />
		<tag k="name" v="Kverndammen" />
		<tag k="natural" v="water" />
		<tag k="ssr:stedsnr" v="706459" />
	</node>
	<node id="-246734" lat="59.6751138845" lon="10.6346250014">
		<tag k="name" v="Gloslibekken" />
		<tag k="ssr:stedsnr" v="342411" />
		<tag k="waterway" v="stream" />
	</node>
	<node id="-246738" lat="59.716141663" lon="10.6033444427">
		<tag k="name" v="Nordre Sønderstødam" />
		<tag k="natural" v="water" />
		<tag k="ssr:stedsnr" v="342465" />
	</node>
	<node id="-246481" lat="59.7065194457" lon="10.688752779">
		<tag k="name" v="Limtjern" />
		<tag k="natural" v="water" />
		<tag k="ssr:stedsnr" v="706448" />
		<tag k="water" v="pond" />
	</node>
	<node id="-246350" lat="59.7715058198" lon="10.6948121018">
		<tag k="name" v="Hasla" />
		<tag k="ssr:stedsnr" v="249244" />
		<tag k="waterway" v="river" />
	</node>
	<node id="-246466" lat="59.7527944478" lon="10.7032277814">
		<tag k="alt_name" v="Kjøyabekken" />
		<tag k="name" v="Køyabekken" />
		<tag k="ssr:stedsnr" v="482415" />
		<tag k="waterway" v="stream" />
	</node>
	<node id="-246327" lat="59.7260027797" lon="10.6396333299">
		<tag k="alt_name" v="Hållangsbekken" />
		<tag k="name" v="Hallangsbekken" />
		<tag k="ssr:stedsnr" v="39955" />
		<tag k="waterway" v="stream" />
	</node>
	<node id="-246838" lat="59.720169447" lon="10.6931055548">
		<tag k="name" v="Stubberudtjern" />
>>>>>>> e1d4bc35ff8a6074a6f2e91616a996b547c36f15
		<tag k="natural" v="water" />
		<tag k="ssr:stedsnr" v="100425" />
	</node>
<<<<<<< HEAD
	<node lat="59.77150581976343" lon="10.69481210175284" id="-12613">
		<tag k="name" v="Hasla" />
		<tag k="ssr:stedsnr" v="249244" />
		<tag k="waterway" v="river" />
	</node>
	<node lat="59.6784083360753" lon="10.632550008484484" id="-12614">
		<tag k="alt_name" v="Nedredam" />
		<tag k="name" v="Nedredammen" />
=======
	<node id="-246448" lat="59.7724444445" lon="10.7103916731">
		<tag k="alt_name" v="Hasledammane" />
		<tag k="name" v="Haslumdammene" />
>>>>>>> e1d4bc35ff8a6074a6f2e91616a996b547c36f15
		<tag k="natural" v="water" />
		<tag k="ssr:stedsnr" v="118378" />
	</node>
<<<<<<< HEAD
	<node lat="59.719327775372946" lon="10.593163889803693" id="-12636">
=======
	<node id="-246318" lat="59.7193277754" lon="10.5931638898">
>>>>>>> e1d4bc35ff8a6074a6f2e91616a996b547c36f15
		<tag k="name" v="Hetholdammen" />
		<tag k="natural" v="water" />
		<tag k="ssr:stedsnr" v="221525" />
	</node>
<<<<<<< HEAD
	<node lat="59.67511388446962" lon="10.634625001363748" id="-12666">
		<tag k="name" v="Gloslibekken" />
		<tag k="ssr:stedsnr" v="342411" />
		<tag k="waterway" v="stream" />
	</node>
	<node lat="59.6972194427541" lon="10.606755563601297" id="-12683">
		<tag k="name" v="Båtstødammen" />
=======
	<node id="-246316" lat="59.7054527736" lon="10.6675305582">
		<tag k="name" v="Holttjernet" />
		<tag k="natural" v="water" />
		<tag k="ssr:stedsnr" v="221443" />
	</node>
	<node id="-246695" lat="59.7241138918" lon="10.6006472158">
		<tag k="name" v="Digeruddammen" />
>>>>>>> e1d4bc35ff8a6074a6f2e91616a996b547c36f15
		<tag k="natural" v="water" />
		<tag k="ssr:stedsnr" v="403930" />
	</node>
<<<<<<< HEAD
	<node lat="59.69383055230838" lon="10.671533341215852" id="-12687">
		<tag k="name" v="Oppegårdstjernet" />
=======
	<node id="-246556" lat="59.6957805561" lon="10.6813305478">
		<tag k="name" v="Kalfausen" />
>>>>>>> e1d4bc35ff8a6074a6f2e91616a996b547c36f15
		<tag k="natural" v="water" />
		<tag k="ssr:stedsnr" v="488776" />
	</node>
	<node lat="59.75279444778266" lon="10.703227781396624" id="-12714">
		<tag k="alt_name" v="Kjøyabekken" />
		<tag k="name" v="Køyabekken" />
		<tag k="ssr:stedsnr" v="482415" />
		<tag k="waterway" v="stream" />
	</node>
	<node lat="59.68206388860817" lon="10.706100005283442" id="-12738">
		<tag k="name" v="Storgrava" />
		<tag k="ssr:stedsnr" v="584162" />
		<tag k="waterway" v="drain" />
	</node>
<<<<<<< HEAD
	<node lat="59.72040000066114" lon="10.636816665146577" id="-12741">
=======
	<node id="-246810" lat="59.7204000007" lon="10.6368166651">
>>>>>>> e1d4bc35ff8a6074a6f2e91616a996b547c36f15
		<tag k="name" v="Storrmyrbekken" />
		<tag k="ssr:stedsnr" v="585412" />
		<tag k="waterway" v="stream" />
	</node>
<<<<<<< HEAD
	<node lat="59.70651944573611" lon="10.688752778976655" id="-12756">
		<tag k="name" v="Limtjern" />
		<tag k="natural" v="water" />
		<tag k="ssr:stedsnr" v="706448" />
		<tag k="water" v="pond" />
	</node>
	<node lat="59.62516667007696" lon="10.649097213616344" id="-12769">
		<tag k="name" v="Nedre Kjeppestaddam" />
=======
	<node id="-246424" lat="59.6938305523" lon="10.6715333412">
		<tag k="name" v="Oppegårdstjernet" />
		<tag k="natural" v="water" />
		<tag k="ssr:stedsnr" v="488776" />
	</node>
	<node id="-246551" lat="59.669272223" lon="10.6442666599">
		<tag k="name" v="Ullerudtjernet" />
>>>>>>> e1d4bc35ff8a6074a6f2e91616a996b547c36f15
		<tag k="natural" v="water" />
		<tag k="ssr:stedsnr" v="707452" />
	</node>
<<<<<<< HEAD
	<node lat="59.77244444447541" lon="10.71039167306541" id="-12774">
		<tag k="alt_name" v="Hasledammane" />
		<tag k="name" v="Haslumdammene" />
		<tag k="natural" v="water" />
		<tag k="ssr:stedsnr" v="664606" />
		<tag k="water" v="pond" />
	</node>
	<node lat="59.67676944494369" lon="10.638650007827394" id="-12781">
		<tag k="alt_name" v="Kvernerdammen" />
		<tag k="name" v="Kverndammen" />
		<tag k="natural" v="water" />
		<tag k="ssr:stedsnr" v="706459" />
	</node>
	<node lat="59.70895555414871" lon="10.608824994283372" id="-12788">
		<tag k="fixme" v="multiple name tags, choose one and add the other to alt_name" />
		<tag k="name" v="Sønderstødammen;Søndre Sønderstødam" />
		<tag k="natural" v="water" />
		<tag k="ssr:stedsnr" v="731802" />
	</node>
	<node lat="59.68029722304101" lon="10.649708332771379" id="-12796">
		<tag k="name" v="Øvredam" />
		<tag k="natural" v="water" />
		<tag k="ssr:stedsnr" v="907533" />
	</node>
	<node lat="59.6692722230224" lon="10.644266659858477" id="-12798">
		<tag k="name" v="Ullerudtjernet" />
		<tag k="natural" v="water" />
		<tag k="ssr:stedsnr" v="907372" />
	</node>
	<node lat="59.689314634070584" lon="10.744510114016146" id="-12809">
		<tag k="name" v="Årungen" />
		<tag k="natural" v="water" />
		<tag k="ssr:stedsnr" v="792399" />
		<tag k="water" v="lake" />
	</node>
	<node lat="59.695780556119004" lon="10.681330547774232" id="-12812">
		<tag k="name" v="Kalfausen" />
=======
	<node id="-246806" lat="59.713386114" lon="10.6516750001">
		<tag k="name" v="Havsjødalsbekken" />
		<tag k="ssr:stedsnr" v="585345" />
		<tag k="waterway" v="stream" />
	</node>
	<node id="-246803" lat="59.6820638886" lon="10.7061000053">
		<tag k="name" v="Storgrava" />
		<tag k="ssr:stedsnr" v="584162" />
		<tag k="waterway" v="drain" />
	</node>
	<node id="-246671" lat="59.6784083361" lon="10.6325500085">
		<tag k="alt_name" v="Nedredam" />
		<tag k="name" v="Nedredammen" />
		<tag k="natural" v="water" />
		<tag k="ssr:stedsnr" v="118378" />
	</node>
	<node id="-246797" lat="59.6453805587" lon="10.6454527754">
		<tag k="name" v="Odalsbekken" />
		<tag k="ssr:stedsnr" v="550834" />
		<tag k="waterway" v="stream" />
	</node>
	<node id="-246764" lat="59.6972194428" lon="10.6067555636">
		<tag k="name" v="Båtstødammen" />
>>>>>>> e1d4bc35ff8a6074a6f2e91616a996b547c36f15
		<tag k="natural" v="water" />
		<tag k="ssr:stedsnr" v="913754" />
	</node>
<<<<<<< HEAD
	<node lat="59.71143055407683" lon="10.690405561973225" id="-12836">
		<tag k="name" v="Krøkle" />
		<tag k="natural" v="water" />
		<tag k="ssr:stedsnr" v="869978" />
	</node>
	<node lat="59.71362499692677" lon="10.727283327062715" id="-12878">
		<tag k="name" v="Nymølldammen" />
		<tag k="natural" v="water" />
		<tag k="ssr:stedsnr" v="39333" />
	</node>
	<node lat="59.68220000355871" lon="10.637652774278171" id="-12879">
		<tag k="alt_name" v="Øvredam" />
		<tag k="name" v="Øvredammen" />
		<tag k="natural" v="water" />
		<tag k="ssr:stedsnr" v="39435" />
	</node>
	<node lat="59.72600277969828" lon="10.639633329878073" id="-12881">
		<tag k="alt_name" v="Hållangsbekken" />
		<tag k="name" v="Hallangsbekken" />
		<tag k="ssr:stedsnr" v="39955" />
		<tag k="waterway" v="stream" />
	</node>
	<node lat="59.719416667128726" lon="10.615397219403754" id="-12913">
		<tag k="name" v="Digerudtjern" />
		<tag k="natural" v="water" />
		<tag k="ssr:stedsnr" v="119908" />
	</node>
	<node lat="59.724113891760325" lon="10.600647215838467" id="-12935">
		<tag k="name" v="Digeruddammen" />
		<tag k="natural" v="water" />
		<tag k="ssr:stedsnr" v="160486" />
	</node>
	<node lat="59.70545277356364" lon="10.66753055815854" id="-12957">
		<tag k="name" v="Holttjernet" />
		<tag k="natural" v="water" />
		<tag k="ssr:stedsnr" v="221443" />
	</node>
	<node lat="59.71614166299331" lon="10.60334444272115" id="-12987">
		<tag k="name" v="Nordre Sønderstødam" />
=======
	<node id="-246678" lat="59.7194166671" lon="10.6153972194">
		<tag k="name" v="Digerudtjern" />
>>>>>>> e1d4bc35ff8a6074a6f2e91616a996b547c36f15
		<tag k="natural" v="water" />
		<tag k="ssr:stedsnr" v="119908" />
	</node>
<<<<<<< HEAD
	<node lat="59.64538055869952" lon="10.645452775356288" id="-13037">
		<tag k="name" v="Odalsbekken" />
		<tag k="ssr:stedsnr" v="550834" />
		<tag k="waterway" v="stream" />
	</node>
	<node lat="59.71338611399704" lon="10.651675000121147" id="-13046">
		<tag k="name" v="Havsjødalsbekken" />
		<tag k="ssr:stedsnr" v="585345" />
		<tag k="waterway" v="stream" />
	</node>
	<node lat="59.720169446952234" lon="10.6931055547717" id="-13072">
		<tag k="name" v="Stubberudtjern" />
		<tag k="natural" v="water" />
		<tag k="ssr:stedsnr" v="645447" />
	</node>
	<node lat="59.62559722517013" lon="10.673941659357093" id="-13090">
		<tag k="alt_name" v="Solbergelva" />
		<tag k="name" v="Solbergbekken" />
		<tag k="ssr:stedsnr" v="731632" />
		<tag k="waterway" v="stream" />
=======
	<node id="-246914" lat="59.6893146341" lon="10.744510114">
		<tag k="name" v="Årungen" />
		<tag k="natural" v="water" />
		<tag k="ssr:stedsnr" v="792399" />
		<tag k="water" v="lake" />
>>>>>>> e1d4bc35ff8a6074a6f2e91616a996b547c36f15
	</node>
</osm>
