<?xml version="1.0" encoding="UTF-8"?>
<osm version="0.6" generator="osmapis">
	<node lat="59.375413914957534" lon="10.9226217466127" id="-25918">
		<tag k="name" v="Gillingsrød" />
		<tag k="place" v="farm" />
		<tag k="ssr:date" v="2020-08-11" />
		<tag k="ssr:gruppe" v="gardsbebyggelse" />
		<tag k="ssr:hovedgruppe" v="bebyggelse" />
		<tag k="ssr:stedsnr" v="2309" />
		<tag k="ssr:type" v="gard" />
	</node>
	<node lat="59.335218761485635" lon="10.830026424493948" id="-25919">
		<tag k="name" v="Ringsrød" />
		<tag k="place" v="farm" />
		<tag k="ssr:date" v="2020-08-12" />
		<tag k="ssr:gruppe" v="gardsbebyggelse" />
		<tag k="ssr:hovedgruppe" v="bebyggelse" />
		<tag k="ssr:stedsnr" v="2489" />
		<tag k="ssr:type" v="gard" />
	</node>
	<node lat="59.343309552605795" lon="10.80021469818252" id="-25920">
		<tag k="name" v="Norum" />
		<tag k="place" v="farm" />
		<tag k="ssr:date" v="2020-08-11" />
		<tag k="ssr:gruppe" v="gardsbebyggelse" />
		<tag k="ssr:hovedgruppe" v="bebyggelse" />
		<tag k="ssr:stedsnr" v="2497" />
		<tag k="ssr:type" v="gard" />
	</node>
	<node lat="59.34452090850426" lon="10.872168410012545" id="-25921">
		<tag k="name" v="Strømshaug" />
		<tag k="place" v="farm" />
		<tag k="ssr:date" v="2020-08-12" />
		<tag k="ssr:gruppe" v="gardsbebyggelse" />
		<tag k="ssr:hovedgruppe" v="bebyggelse" />
		<tag k="ssr:stedsnr" v="2511" />
		<tag k="ssr:type" v="gard" />
	</node>
	<node lat="59.34745682470415" lon="10.865133397602836" id="-25922">
		<tag k="alt_name" v="Råde" />
		<tag k="name" v="Råde stasjon" />
		<tag k="railway" v="station" />
		<tag k="ssr:date" v="2019-12-27" />
		<tag k="ssr:gruppe" v="bane" />
		<tag k="ssr:hovedgruppe" v="infrastruktur" />
		<tag k="ssr:stedsnr" v="2512" />
		<tag k="ssr:type" v="stasjon" />
		<tag k="train" v="yes" />
	</node>
	<node lat="59.28870833202469" lon="10.690613891180101" id="-25923">
		<tag k="alt_name" v="Posgrunnen" />
		<tag k="name" v="Påsgrunnen" />
		<tag k="natural" v="shoal" />
		<tag k="place" v="locality" />
		<tag k="ssr:date" v="2019-12-27" />
		<tag k="ssr:gruppe" v="grunnerISjø" />
		<tag k="ssr:hovedgruppe" v="sjø" />
		<tag k="ssr:stedsnr" v="3601" />
		<tag k="ssr:type" v="grunneISjø" />
	</node>
	<node lat="59.337449627314015" lon="10.757906153495675" id="-25924">
		<tag k="alt_name" v="Tasken søndre" />
		<tag k="name" v="Søndre Tasken" />
		<tag k="place" v="farm" />
		<tag k="ssr:date" v="2020-08-11" />
		<tag k="ssr:gruppe" v="gardsbebyggelse" />
		<tag k="ssr:hovedgruppe" v="bebyggelse" />
		<tag k="ssr:stedsnr" v="56922" />
		<tag k="ssr:type" v="gard" />
	</node>
	<node lat="59.39360000331488" lon="10.81737500692674" id="-25925">
		<tag k="name" v="Skogstangen" />
		<tag k="natural" v="cape" />
		<tag k="ssr:date" v="2019-12-27" />
		<tag k="ssr:gruppe" v="ferskvannskontur" />
		<tag k="ssr:hovedgruppe" v="ferskvann" />
		<tag k="ssr:stedsnr" v="56890" />
		<tag k="ssr:type" v="nes" />
	</node>
	<node lat="59.331858332983906" lon="10.883708330389185" id="-25926">
		<tag k="name" v="Haugan" />
		<tag k="place" v="farm" />
		<tag k="ssr:date" v="2019-12-27" />
		<tag k="ssr:gruppe" v="gardsbebyggelse" />
		<tag k="ssr:hovedgruppe" v="bebyggelse" />
		<tag k="ssr:stedsnr" v="58823" />
		<tag k="ssr:type" v="bruk" />
	</node>
	<node lat="59.350686114620956" lon="10.894158332788813" id="-25927">
		<tag k="bridge" v="yes" />
		<tag k="layer" v="1" />
		<tag k="name" v="Skovly" />
		<tag k="ssr:date" v="2019-12-27" />
		<tag k="ssr:gruppe" v="samferdselsanlegg" />
		<tag k="ssr:hovedgruppe" v="infrastruktur" />
		<tag k="ssr:stedsnr" v="228484" />
		<tag k="ssr:type" v="bru" />
	</node>
	<node lat="59.355186108592044" lon="10.870422215141565" id="-25928">
		<tag k="bridge" v="yes" />
		<tag k="layer" v="1" />
		<tag k="name" v="Karlshus" />
		<tag k="ssr:date" v="2019-12-27" />
		<tag k="ssr:gruppe" v="samferdselsanlegg" />
		<tag k="ssr:hovedgruppe" v="infrastruktur" />
		<tag k="ssr:stedsnr" v="228566" />
		<tag k="ssr:type" v="bru" />
	</node>
	<node lat="59.37636111249199" lon="10.96788889602308" id="-25929">
		<tag k="name" v="Slangsvoll" />
		<tag k="place" v="farm" />
		<tag k="ssr:date" v="2019-12-27" />
		<tag k="ssr:gruppe" v="gardsbebyggelse" />
		<tag k="ssr:hovedgruppe" v="bebyggelse" />
		<tag k="ssr:stedsnr" v="63301" />
		<tag k="ssr:type" v="bruk" />
	</node>
	<node lat="59.38721666771556" lon="10.855947216039265" id="-25930">
		<tag k="alt_name" v="Vannsjø" />
		<tag k="name" v="Vansjø" />
		<tag k="natural" v="water" />
		<tag k="ssr:date" v="2019-12-27" />
		<tag k="ssr:gruppe" v="stilleståendeVann" />
		<tag k="ssr:hovedgruppe" v="ferskvann" />
		<tag k="ssr:stedsnr" v="63316" />
		<tag k="ssr:type" v="innsjø" />
		<tag k="water" v="lake" />
	</node>
	<node lat="59.346557895452456" lon="10.809811499675765" id="-25931">
		<tag k="name" v="Huseby" />
		<tag k="place" v="farm" />
		<tag k="ssr:date" v="2020-08-11" />
		<tag k="ssr:gruppe" v="gardsbebyggelse" />
		<tag k="ssr:hovedgruppe" v="bebyggelse" />
		<tag k="ssr:stedsnr" v="63508" />
		<tag k="ssr:type" v="navnegard" />
	</node>
	<node lat="59.34888141658268" lon="10.863731970271978" id="-25932">
		<tag k="name" v="Skråtorp" />
		<tag k="place" v="farm" />
		<tag k="ssr:date" v="2020-08-12" />
		<tag k="ssr:gruppe" v="gardsbebyggelse" />
		<tag k="ssr:hovedgruppe" v="bebyggelse" />
		<tag k="ssr:stedsnr" v="63509" />
		<tag k="ssr:type" v="gard" />
	</node>
	<node lat="59.34860833665989" lon="10.89509443911296" id="-25933">
		<tag k="name" v="Kirkebø" />
		<tag k="place" v="farm" />
		<tag k="ssr:date" v="2019-12-27" />
		<tag k="ssr:gruppe" v="gardsbebyggelse" />
		<tag k="ssr:hovedgruppe" v="bebyggelse" />
		<tag k="ssr:stedsnr" v="63525" />
		<tag k="ssr:type" v="bruk" />
	</node>
	<node lat="59.328269381345095" lon="10.756935490559561" id="-25934">
		<tag k="name" v="Helgerød" />
		<tag k="place" v="farm" />
		<tag k="ssr:date" v="2020-08-12" />
		<tag k="ssr:gruppe" v="gardsbebyggelse" />
		<tag k="ssr:hovedgruppe" v="bebyggelse" />
		<tag k="ssr:stedsnr" v="306433" />
		<tag k="ssr:type" v="gard" />
	</node>
	<node lat="59.33336724797734" lon="10.7755668301959" id="-25935">
		<tag k="name" v="Holer" />
		<tag k="place" v="farm" />
		<tag k="ssr:date" v="2020-08-12" />
		<tag k="ssr:gruppe" v="gardsbebyggelse" />
		<tag k="ssr:hovedgruppe" v="bebyggelse" />
		<tag k="ssr:stedsnr" v="306434" />
		<tag k="ssr:type" v="gard" />
	</node>
	<node lat="59.353766668254124" lon="10.879875004820049" id="-25936">
		<tag k="bridge" v="yes" />
		<tag k="layer" v="1" />
		<tag k="name" v="Karlshusbunn" />
		<tag k="ssr:date" v="2019-12-27" />
		<tag k="ssr:gruppe" v="samferdselsanlegg" />
		<tag k="ssr:hovedgruppe" v="infrastruktur" />
		<tag k="ssr:stedsnr" v="107523" />
		<tag k="ssr:type" v="bru" />
	</node>
	<node lat="59.340589969312944" lon="10.794511968595655" id="-25937">
		<tag k="alt_name" v="Berg vestre" />
		<tag k="name" v="Vestre Berg" />
		<tag k="place" v="farm" />
		<tag k="ssr:date" v="2020-09-08" />
		<tag k="ssr:gruppe" v="gardsbebyggelse" />
		<tag k="ssr:hovedgruppe" v="bebyggelse" />
		<tag k="ssr:stedsnr" v="117909" />
		<tag k="ssr:type" v="gard" />
	</node>
	<node lat="59.35170172605348" lon="10.871105134541354" id="-25938">
		<tag k="amenity" v="townhall" />
		<tag k="name" v="Råde rådhus" />
		<tag k="ssr:date" v="2019-12-27" />
		<tag k="ssr:gruppe" v="institusjoner" />
		<tag k="ssr:hovedgruppe" v="bebyggelse" />
		<tag k="ssr:stedsnr" v="118933" />
		<tag k="ssr:type" v="rådhus" />
	</node>
	<node lat="59.31746388953901" lon="10.880786109736336" id="-25939">
		<tag k="name" v="Revjehaugen" />
		<tag k="natural" v="hill" />
		<tag k="place" v="locality" />
		<tag k="ssr:date" v="2019-12-27" />
		<tag k="ssr:gruppe" v="høyder" />
		<tag k="ssr:hovedgruppe" v="terreng" />
		<tag k="ssr:stedsnr" v="118817" />
		<tag k="ssr:type" v="haug" />
	</node>
	<node lat="59.31187777746819" lon="10.836027785031705" id="-25940">
		<tag k="name" v="Løkka" />
		<tag k="place" v="farm" />
		<tag k="ssr:date" v="2019-12-27" />
		<tag k="ssr:gruppe" v="gardsbebyggelse" />
		<tag k="ssr:hovedgruppe" v="bebyggelse" />
		<tag k="ssr:stedsnr" v="118822" />
		<tag k="ssr:type" v="bruk" />
	</node>
	<node lat="59.29835555642338" lon="10.859744451428185" id="-25941">
		<tag k="name" v="Bjørndalen" />
		<tag k="natural" v="valley" />
		<tag k="place" v="locality" />
		<tag k="ssr:date" v="2019-12-27" />
		<tag k="ssr:gruppe" v="senkninger" />
		<tag k="ssr:hovedgruppe" v="terreng" />
		<tag k="ssr:stedsnr" v="118824" />
		<tag k="ssr:type" v="dal" />
	</node>
	<node lat="59.330088890527335" lon="10.885786118098906" id="-25942">
		<tag k="name" v="Bekkhus" />
		<tag k="place" v="farm" />
		<tag k="ssr:date" v="2019-12-27" />
		<tag k="ssr:gruppe" v="gardsbebyggelse" />
		<tag k="ssr:hovedgruppe" v="bebyggelse" />
		<tag k="ssr:stedsnr" v="123515" />
		<tag k="ssr:type" v="bruk" />
	</node>
	<node lat="59.3261750002748" lon="10.888911109097807" id="-25943">
		<tag k="name" v="Tverrbekk" />
		<tag k="place" v="farm" />
		<tag k="ssr:date" v="2019-12-27" />
		<tag k="ssr:gruppe" v="gardsbebyggelse" />
		<tag k="ssr:hovedgruppe" v="bebyggelse" />
		<tag k="ssr:stedsnr" v="123516" />
		<tag k="ssr:type" v="bruk" />
	</node>
	<node lat="59.329180552710355" lon="10.840719436860944" id="-25944">
		<tag k="name" v="Myre" />
		<tag k="place" v="farm" />
		<tag k="ssr:date" v="2019-12-27" />
		<tag k="ssr:gruppe" v="gardsbebyggelse" />
		<tag k="ssr:hovedgruppe" v="bebyggelse" />
		<tag k="ssr:stedsnr" v="123520" />
		<tag k="ssr:type" v="bruk" />
	</node>
	<node lat="59.35805191589324" lon="10.802164232569982" id="-25945">
		<tag k="name" v="Løken" />
		<tag k="place" v="farm" />
		<tag k="ssr:date" v="2020-08-11" />
		<tag k="ssr:gruppe" v="gardsbebyggelse" />
		<tag k="ssr:hovedgruppe" v="bebyggelse" />
		<tag k="ssr:stedsnr" v="124212" />
		<tag k="ssr:type" v="gard" />
	</node>
	<node lat="59.36051185241959" lon="10.949561843879799" id="-25946">
		<tag k="name" v="Slangsvoll" />
		<tag k="place" v="farm" />
		<tag k="ssr:date" v="2020-08-11" />
		<tag k="ssr:gruppe" v="gardsbebyggelse" />
		<tag k="ssr:hovedgruppe" v="bebyggelse" />
		<tag k="ssr:stedsnr" v="124214" />
		<tag k="ssr:type" v="gard" />
	</node>
	<node lat="59.362187702007624" lon="10.900285716932489" id="-25947">
		<tag k="name" v="Bjørnebekk" />
		<tag k="place" v="farm" />
		<tag k="ssr:date" v="2019-12-27" />
		<tag k="ssr:gruppe" v="gardsbebyggelse" />
		<tag k="ssr:hovedgruppe" v="bebyggelse" />
		<tag k="ssr:stedsnr" v="124217" />
		<tag k="ssr:type" v="bruk" />
	</node>
	<node lat="59.30697316587487" lon="10.729384324599748" id="-25948">
		<tag k="name" v="Storesand" />
		<tag k="place" v="isolated_dwelling" />
		<tag k="ssr:date" v="2022-08-25" />
		<tag k="ssr:gruppe" v="bolighus" />
		<tag k="ssr:hovedgruppe" v="bebyggelse" />
		<tag k="ssr:stedsnr" v="124357" />
		<tag k="ssr:type" v="fritidsbolig" />
	</node>
	<node lat="59.32076667051544" lon="10.9320749975092" id="-25949">
		<tag k="alt_name" v="Sølvland" />
		<tag k="name" v="Søland" />
		<tag k="place" v="farm" />
		<tag k="ssr:date" v="2019-12-27" />
		<tag k="ssr:gruppe" v="gardsbebyggelse" />
		<tag k="ssr:hovedgruppe" v="bebyggelse" />
		<tag k="ssr:stedsnr" v="124364" />
		<tag k="ssr:type" v="bruk" />
	</node>
	<node lat="59.326580555913495" lon="10.781225002680626" id="-25950">
		<tag k="name" v="Akersbekken" />
		<tag k="ssr:date" v="2019-12-27" />
		<tag k="ssr:gruppe" v="rennendeVann" />
		<tag k="ssr:hovedgruppe" v="ferskvann" />
		<tag k="ssr:stedsnr" v="238549" />
		<tag k="ssr:type" v="bekk" />
		<tag k="waterway" v="stream" />
	</node>
	<node lat="59.31733055608232" lon="10.791408335247594" id="-25951">
		<tag k="name" v="Hestevoll" />
		<tag k="place" v="farm" />
		<tag k="ssr:date" v="2019-12-27" />
		<tag k="ssr:gruppe" v="gardsbebyggelse" />
		<tag k="ssr:hovedgruppe" v="bebyggelse" />
		<tag k="ssr:stedsnr" v="238554" />
		<tag k="ssr:type" v="bruk" />
	</node>
	<node lat="59.37866667010918" lon="10.804200000868866" id="-25952">
		<tag k="name" v="Vitteberget" />
		<tag k="natural" v="hill" />
		<tag k="place" v="locality" />
		<tag k="ssr:date" v="2019-12-27" />
		<tag k="ssr:gruppe" v="høyder" />
		<tag k="ssr:hovedgruppe" v="terreng" />
		<tag k="ssr:stedsnr" v="238877" />
		<tag k="ssr:type" v="haug" />
	</node>
	<node lat="59.38691111460482" lon="10.810836109976632" id="-25953">
		<tag k="name" v="Sogn skog" />
		<tag k="place" v="locality" />
		<tag k="ssr:date" v="2019-12-27" />
		<tag k="ssr:gruppe" v="vegetasjon" />
		<tag k="ssr:hovedgruppe" v="markslag" />
		<tag k="ssr:stedsnr" v="238887" />
		<tag k="ssr:type" v="skog" />
	</node>
	<node lat="59.34196227840554" lon="10.915395834178868" id="-25954">
		<tag k="name" v="Borge" />
		<tag k="place" v="farm" />
		<tag k="ssr:date" v="2020-08-11" />
		<tag k="ssr:gruppe" v="gardsbebyggelse" />
		<tag k="ssr:hovedgruppe" v="bebyggelse" />
		<tag k="ssr:stedsnr" v="240383" />
		<tag k="ssr:type" v="gard" />
	</node>
	<node lat="59.33705555986699" lon="10.881463889069062" id="-25955">
		<tag k="name" v="Lunderberget" />
		<tag k="natural" v="hill" />
		<tag k="place" v="locality" />
		<tag k="ssr:date" v="2019-12-27" />
		<tag k="ssr:gruppe" v="høyder" />
		<tag k="ssr:hovedgruppe" v="terreng" />
		<tag k="ssr:stedsnr" v="240385" />
		<tag k="ssr:type" v="haug" />
	</node>
	<node lat="59.360463891874815" lon="10.926994445774511" id="-25956">
		<tag k="name" v="Kleven" />
		<tag k="place" v="locality" />
		<tag k="ssr:date" v="2019-12-27" />
		<tag k="ssr:gruppe" v="kulturminner" />
		<tag k="ssr:hovedgruppe" v="kultur" />
		<tag k="ssr:stedsnr" v="240276" />
		<tag k="ssr:type" v="annenKulturdetalj" />
	</node>
	<node lat="59.36031944627772" lon="10.85071388318286" id="-25957">
		<tag k="name" v="Elvestadstøa" />
		<tag k="place" v="locality" />
		<tag k="ssr:date" v="2021-12-01" />
		<tag k="ssr:gruppe" v="gardsbebyggelse" />
		<tag k="ssr:hovedgruppe" v="bebyggelse" />
		<tag k="ssr:stedsnr" v="240282" />
		<tag k="ssr:type" v="eiendom" />
	</node>
	<node lat="59.31630277470862" lon="10.918027772269896" id="-25958">
		<tag k="name" v="Mørhuset" />
		<tag k="place" v="locality" />
		<tag k="ssr:date" v="2019-12-27" />
		<tag k="ssr:gruppe" v="kulturminner" />
		<tag k="ssr:hovedgruppe" v="kultur" />
		<tag k="ssr:stedsnr" v="240772" />
		<tag k="ssr:type" v="annenKulturdetalj" />
	</node>
	<node lat="59.32630833242572" lon="10.875422226679094" id="-25959">
		<tag k="alt_name" v="Musangen nordre" />
		<tag k="name" v="Nordre Musangen" />
		<tag k="place" v="farm" />
		<tag k="ssr:date" v="2019-12-27" />
		<tag k="ssr:gruppe" v="gardsbebyggelse" />
		<tag k="ssr:hovedgruppe" v="bebyggelse" />
		<tag k="ssr:stedsnr" v="240822" />
		<tag k="ssr:type" v="bruk" />
	</node>
	<node lat="59.2945416629156" lon="10.726397220973954" id="-25960">
		<tag k="name" v="Jammerlappen" />
		<tag k="natural" v="shoal" />
		<tag k="place" v="locality" />
		<tag k="ssr:date" v="2019-12-27" />
		<tag k="ssr:gruppe" v="grunnerISjø" />
		<tag k="ssr:hovedgruppe" v="sjø" />
		<tag k="ssr:stedsnr" v="240875" />
		<tag k="ssr:type" v="grunneISjø" />
	</node>
	<node lat="59.35342777889283" lon="10.925802769316592" id="-25961">
		<tag k="alt_name" v="Borgebotn" />
		<tag k="name" v="Borgebunn" />
		<tag k="place" v="farm" />
		<tag k="ssr:date" v="2019-12-27" />
		<tag k="ssr:gruppe" v="gardsbebyggelse" />
		<tag k="ssr:hovedgruppe" v="bebyggelse" />
		<tag k="ssr:stedsnr" v="245233" />
		<tag k="ssr:type" v="bruk" />
	</node>
	<node lat="59.34126110933196" lon="10.801949994725986" id="-25962">
		<tag k="name" v="Sørgård" />
		<tag k="place" v="farm" />
		<tag k="ssr:date" v="2019-12-27" />
		<tag k="ssr:gruppe" v="gardsbebyggelse" />
		<tag k="ssr:hovedgruppe" v="bebyggelse" />
		<tag k="ssr:stedsnr" v="245449" />
		<tag k="ssr:type" v="bruk" />
	</node>
	<node lat="59.2896444477137" lon="10.677727775637752" id="-25963">
		<tag k="name" v="Mellom-Sletter" />
		<tag k="place" v="islet" />
		<tag k="ssr:date" v="2021-06-08" />
		<tag k="ssr:gruppe" v="kystkontur" />
		<tag k="ssr:hovedgruppe" v="sjø" />
		<tag k="ssr:stedsnr" v="246607" />
		<tag k="ssr:type" v="holmeISjø" />
	</node>
	<node lat="59.34036944292281" lon="10.780472218400508" id="-25964">
		<tag k="name" v="Gammelsrød" />
		<tag k="place" v="farm" />
		<tag k="ssr:date" v="2019-12-27" />
		<tag k="ssr:gruppe" v="gardsbebyggelse" />
		<tag k="ssr:hovedgruppe" v="bebyggelse" />
		<tag k="ssr:stedsnr" v="178917" />
		<tag k="ssr:type" v="bruk" />
	</node>
	<node lat="59.34126666693607" lon="10.775788893831246" id="-25965">
		<tag k="alt_name" v="Gammelsrød nordre" />
		<tag k="name" v="Nordre Gammelsrød" />
		<tag k="place" v="farm" />
		<tag k="ssr:date" v="2019-12-27" />
		<tag k="ssr:gruppe" v="gardsbebyggelse" />
		<tag k="ssr:hovedgruppe" v="bebyggelse" />
		<tag k="ssr:stedsnr" v="178919" />
		<tag k="ssr:type" v="bruk" />
	</node>
	<node lat="59.34561388714793" lon="10.827191670624973" id="-25966">
		<tag k="fixme" v="consider natural=peak for the most distinct mountains in the district" />
		<tag k="name" v="Varden" />
		<tag k="natural" v="hill" />
		<tag k="place" v="locality" />
		<tag k="ssr:date" v="2019-12-27" />
		<tag k="ssr:gruppe" v="høyder" />
		<tag k="ssr:hovedgruppe" v="terreng" />
		<tag k="ssr:stedsnr" v="178921" />
		<tag k="ssr:type" v="ås" />
	</node>
	<node lat="59.359750641103496" lon="10.783204458102746" id="-25967">
		<tag k="alt_name" v="Sandaker" />
		<tag k="name" v="Sandåker" />
		<tag k="place" v="farm" />
		<tag k="ssr:date" v="2021-09-03" />
		<tag k="ssr:gruppe" v="gardsbebyggelse" />
		<tag k="ssr:hovedgruppe" v="bebyggelse" />
		<tag k="ssr:stedsnr" v="178924" />
		<tag k="ssr:type" v="gard" />
	</node>
	<node lat="59.36835833532011" lon="10.796069451985947" id="-25968">
		<tag k="name" v="Granum" />
		<tag k="place" v="farm" />
		<tag k="ssr:date" v="2019-12-27" />
		<tag k="ssr:gruppe" v="gardsbebyggelse" />
		<tag k="ssr:hovedgruppe" v="bebyggelse" />
		<tag k="ssr:stedsnr" v="178864" />
		<tag k="ssr:type" v="bruk" />
	</node>
	<node lat="59.36882322638649" lon="10.79309504747658" id="-25969">
		<tag k="name" v="Askerød" />
		<tag k="place" v="farm" />
		<tag k="ssr:date" v="2020-08-12" />
		<tag k="ssr:gruppe" v="gardsbebyggelse" />
		<tag k="ssr:hovedgruppe" v="bebyggelse" />
		<tag k="ssr:stedsnr" v="178865" />
		<tag k="ssr:type" v="gard" />
	</node>
	<node lat="59.353694442103716" lon="10.881788885683381" id="-25970">
		<tag k="name" v="Karlshusbunn" />
		<tag k="place" v="farm" />
		<tag k="ssr:date" v="2019-12-27" />
		<tag k="ssr:gruppe" v="gardsbebyggelse" />
		<tag k="ssr:hovedgruppe" v="bebyggelse" />
		<tag k="ssr:stedsnr" v="179272" />
		<tag k="ssr:type" v="bruk" />
	</node>
	<node lat="59.31441439183827" lon="10.740004001851304" id="-25971">
		<tag k="name" v="Grindholmen" />
		<tag k="place" v="island" />
		<tag k="ssr:date" v="2020-08-12" />
		<tag k="ssr:gruppe" v="kystkontur" />
		<tag k="ssr:hovedgruppe" v="sjø" />
		<tag k="ssr:stedsnr" v="210791" />
		<tag k="ssr:type" v="øyISjø" />
	</node>
	<node lat="59.35442053148483" lon="10.773019732320686" id="-25972">
		<tag k="name" v="Sarpebakken" />
		<tag k="place" v="farm" />
		<tag k="ssr:date" v="2020-08-12" />
		<tag k="ssr:gruppe" v="gardsbebyggelse" />
		<tag k="ssr:hovedgruppe" v="bebyggelse" />
		<tag k="ssr:stedsnr" v="245238" />
		<tag k="ssr:type" v="gard" />
	</node>
	<node lat="59.357549847916324" lon="10.81295912378057" id="-25973">
		<tag k="alt_name" v="Vold" />
		<tag k="name" v="Voll" />
		<tag k="place" v="farm" />
		<tag k="ssr:date" v="2020-08-12" />
		<tag k="ssr:gruppe" v="gardsbebyggelse" />
		<tag k="ssr:hovedgruppe" v="bebyggelse" />
		<tag k="ssr:stedsnr" v="245249" />
		<tag k="ssr:type" v="gard" />
	</node>
	<node lat="59.322219499911384" lon="10.861527557497512" id="-25974">
		<tag k="alt_name" v="Brekke" />
		<tag k="name" v="Brekka" />
		<tag k="place" v="farm" />
		<tag k="ssr:date" v="2020-08-12" />
		<tag k="ssr:gruppe" v="gardsbebyggelse" />
		<tag k="ssr:hovedgruppe" v="bebyggelse" />
		<tag k="ssr:stedsnr" v="245406" />
		<tag k="ssr:type" v="gard" />
	</node>
	<node lat="59.317528154934855" lon="10.871365248268871" id="-25975">
		<tag k="alt_name" v="Hisingby" />
		<tag k="name" v="Hissingby" />
		<tag k="place" v="farm" />
		<tag k="ssr:date" v="2020-08-11" />
		<tag k="ssr:gruppe" v="gardsbebyggelse" />
		<tag k="ssr:hovedgruppe" v="bebyggelse" />
		<tag k="ssr:stedsnr" v="245408" />
		<tag k="ssr:type" v="navnegard" />
	</node>
	<node lat="59.32401118647596" lon="10.910599036319036" id="-25976">
		<tag k="alt_name" v="Søgård" />
		<tag k="name" v="Sørgård" />
		<tag k="place" v="farm" />
		<tag k="ssr:date" v="2020-08-12" />
		<tag k="ssr:gruppe" v="gardsbebyggelse" />
		<tag k="ssr:hovedgruppe" v="bebyggelse" />
		<tag k="ssr:stedsnr" v="245410" />
		<tag k="ssr:type" v="gard" />
	</node>
	<node lat="59.317933335121744" lon="10.93465555620652" id="-25977">
		<tag k="name" v="Skinnerflo" />
		<tag k="natural" v="water" />
		<tag k="ssr:date" v="2019-12-27" />
		<tag k="ssr:gruppe" v="stilleståendeVann" />
		<tag k="ssr:hovedgruppe" v="ferskvann" />
		<tag k="ssr:stedsnr" v="245418" />
		<tag k="ssr:type" v="vann" />
		<tag k="water" v="lake" />
	</node>
	<node lat="59.297863893269316" lon="10.663461107041652" id="-25978">
		<tag k="name" v="Haukebukta" />
		<tag k="natural" v="bay" />
		<tag k="ssr:date" v="2019-12-27" />
		<tag k="ssr:gruppe" v="kystkontur" />
		<tag k="ssr:hovedgruppe" v="sjø" />
		<tag k="ssr:stedsnr" v="271913" />
		<tag k="ssr:type" v="vikISjø" />
	</node>
	<node lat="59.309386114970934" lon="10.716461102606656" id="-25979">
		<tag k="fixme" v="consider seamark:type=rock or natural=shoal" />
		<tag k="name" v="Kameratskjær" />
		<tag k="place" v="islet" />
		<tag k="ssr:date" v="2019-12-27" />
		<tag k="ssr:gruppe" v="grunnerISjø" />
		<tag k="ssr:hovedgruppe" v="sjø" />
		<tag k="ssr:stedsnr" v="271895" />
		<tag k="ssr:type" v="skjærISjø" />
	</node>
	<node lat="59.32855000221848" lon="10.747808332363608" id="-25980">
		<tag k="name" v="Labu" />
		<tag k="place" v="islet" />
		<tag k="ssr:date" v="2019-12-27" />
		<tag k="ssr:gruppe" v="kystkontur" />
		<tag k="ssr:hovedgruppe" v="sjø" />
		<tag k="ssr:stedsnr" v="449754" />
		<tag k="ssr:type" v="holmeISjø" />
	</node>
	<node lat="59.34846667592737" lon="10.884678774954043" id="-25981">
		<tag k="name" v="Roe" />
		<tag k="place" v="farm" />
		<tag k="ssr:date" v="2020-09-08" />
		<tag k="ssr:gruppe" v="gardsbebyggelse" />
		<tag k="ssr:hovedgruppe" v="bebyggelse" />
		<tag k="ssr:stedsnr" v="289401" />
		<tag k="ssr:type" v="navnegard" />
	</node>
	<node lat="59.339747224036735" lon="10.770786112959794" id="-25982">
		<tag k="alt_name" v="Gammelsrød søndre" />
		<tag k="name" v="Søndre Gammelsrød" />
		<tag k="place" v="farm" />
		<tag k="ssr:date" v="2019-12-27" />
		<tag k="ssr:gruppe" v="gardsbebyggelse" />
		<tag k="ssr:hovedgruppe" v="bebyggelse" />
		<tag k="ssr:stedsnr" v="299922" />
		<tag k="ssr:type" v="bruk" />
	</node>
	<node lat="59.34948332967383" lon="10.775969448229578" id="-25983">
		<tag k="name" v="Heia" />
		<tag k="place" v="locality" />
		<tag k="ssr:date" v="2019-12-27" />
		<tag k="ssr:gruppe" v="bolighus" />
		<tag k="ssr:hovedgruppe" v="bebyggelse" />
		<tag k="ssr:stedsnr" v="299924" />
		<tag k="ssr:type" v="gammelBosettingsplass" />
	</node>
	<node lat="59.348730553035814" lon="10.76006666365344" id="-25984">
		<tag k="name" v="Tyggelite" />
		<tag k="place" v="farm" />
		<tag k="ssr:date" v="2019-12-27" />
		<tag k="ssr:gruppe" v="gardsbebyggelse" />
		<tag k="ssr:hovedgruppe" v="bebyggelse" />
		<tag k="ssr:stedsnr" v="300214" />
		<tag k="ssr:type" v="bruk" />
	</node>
	<node lat="59.3349599640942" lon="10.932653611408282" id="-25985">
		<tag k="name" v="Åkeberg" />
		<tag k="place" v="farm" />
		<tag k="ssr:date" v="2020-08-11" />
		<tag k="ssr:gruppe" v="gardsbebyggelse" />
		<tag k="ssr:hovedgruppe" v="bebyggelse" />
		<tag k="ssr:stedsnr" v="305509" />
		<tag k="ssr:type" v="navnegard" />
	</node>
	<node lat="59.341033332800045" lon="10.955944441756392" id="-25986">
		<tag k="name" v="Åkebergbråten" />
		<tag k="place" v="farm" />
		<tag k="ssr:date" v="2019-12-27" />
		<tag k="ssr:gruppe" v="gardsbebyggelse" />
		<tag k="ssr:hovedgruppe" v="bebyggelse" />
		<tag k="ssr:stedsnr" v="305511" />
		<tag k="ssr:type" v="bruk" />
	</node>
	<node lat="59.349919445565426" lon="10.934786119542055" id="-25987">
		<tag k="name" v="Lund" />
		<tag k="place" v="farm" />
		<tag k="ssr:date" v="2019-12-27" />
		<tag k="ssr:gruppe" v="gardsbebyggelse" />
		<tag k="ssr:hovedgruppe" v="bebyggelse" />
		<tag k="ssr:stedsnr" v="305527" />
		<tag k="ssr:type" v="bruk" />
	</node>
	<node lat="59.344649997403856" lon="10.949202776091312" id="-25988">
		<tag k="alt_name" v="Åkebergmosan" />
		<tag k="name" v="Åkebergmosen" />
		<tag k="natural" v="wetland" />
		<tag k="ssr:date" v="2019-12-27" />
		<tag k="ssr:gruppe" v="våtmark" />
		<tag k="ssr:hovedgruppe" v="markslag" />
		<tag k="ssr:stedsnr" v="305532" />
		<tag k="ssr:type" v="myr" />
	</node>
	<node lat="59.32028971172297" lon="10.908053177543518" id="-25989">
		<tag k="name" v="Tofteberg" />
		<tag k="place" v="farm" />
		<tag k="ssr:date" v="2020-08-11" />
		<tag k="ssr:gruppe" v="gardsbebyggelse" />
		<tag k="ssr:hovedgruppe" v="bebyggelse" />
		<tag k="ssr:stedsnr" v="306411" />
		<tag k="ssr:type" v="navnegard" />
	</node>
	<node lat="59.323909776261495" lon="10.804442685672408" id="-25990">
		<tag k="name" v="Bua" />
		<tag k="place" v="farm" />
		<tag k="ssr:date" v="2022-06-07" />
		<tag k="ssr:gruppe" v="gardsbebyggelse" />
		<tag k="ssr:hovedgruppe" v="bebyggelse" />
		<tag k="ssr:stedsnr" v="331815" />
		<tag k="ssr:type" v="bruk" />
	</node>
	<node lat="59.311630558450744" lon="10.668863889437919" id="-25991">
		<tag k="name" v="Sletterhakan" />
		<tag k="natural" v="shoal" />
		<tag k="place" v="locality" />
		<tag k="ssr:date" v="2019-12-27" />
		<tag k="ssr:gruppe" v="grunnerISjø" />
		<tag k="ssr:hovedgruppe" v="sjø" />
		<tag k="ssr:stedsnr" v="331903" />
		<tag k="ssr:type" v="grunneISjø" />
	</node>
	<node lat="59.306236111335004" lon="10.899455556372178" id="-25992">
		<tag k="fixme" v="consider natural=peak for the most distinct mountains in the district" />
		<tag k="name" v="Ravneberget" />
		<tag k="natural" v="hill" />
		<tag k="place" v="locality" />
		<tag k="ssr:date" v="2019-12-27" />
		<tag k="ssr:gruppe" v="høyder" />
		<tag k="ssr:hovedgruppe" v="terreng" />
		<tag k="ssr:stedsnr" v="359885" />
		<tag k="ssr:type" v="ås" />
	</node>
	<node lat="59.37904166315536" lon="10.837861109605802" id="-25993">
		<tag k="fixme" v="consider boundary=protected_area and relevant protect_class if not nature reserve" />
		<tag k="leisure" v="nature_reserve" />
		<tag k="name" v="Moskjæra naturreservat" />
		<tag k="ssr:date" v="2019-12-27" />
		<tag k="ssr:gruppe" v="verne-OgBruksområder" />
		<tag k="ssr:hovedgruppe" v="offentligAdministrasjon" />
		<tag k="ssr:stedsnr" v="361287" />
		<tag k="ssr:type" v="verneområde" />
	</node>
	<node lat="59.33349444689146" lon="10.930794452631867" id="-25994">
		<tag k="alt_name" v="Åkeberg østre" />
		<tag k="name" v="Østre Åkeberg" />
		<tag k="place" v="farm" />
		<tag k="ssr:date" v="2019-12-27" />
		<tag k="ssr:gruppe" v="gardsbebyggelse" />
		<tag k="ssr:hovedgruppe" v="bebyggelse" />
		<tag k="ssr:stedsnr" v="361788" />
		<tag k="ssr:type" v="bruk" />
	</node>
	<node lat="59.331180557450104" lon="10.8714555472586" id="-25995">
		<tag k="alt_name" v="Auberg søndre;Augeberg søndre" />
		<tag k="name" v="Søndre Augeberg" />
		<tag k="place" v="farm" />
		<tag k="ssr:date" v="2019-12-27" />
		<tag k="ssr:gruppe" v="gardsbebyggelse" />
		<tag k="ssr:hovedgruppe" v="bebyggelse" />
		<tag k="ssr:stedsnr" v="361864" />
		<tag k="ssr:type" v="bruk" />
	</node>
	<node lat="59.35169999695583" lon="10.927652778275354" id="-25996">
		<tag k="alt_name" v="Skaugen" />
		<tag k="name" v="Skogen" />
		<tag k="place" v="farm" />
		<tag k="ssr:date" v="2019-12-27" />
		<tag k="ssr:gruppe" v="gardsbebyggelse" />
		<tag k="ssr:hovedgruppe" v="bebyggelse" />
		<tag k="ssr:stedsnr" v="366245" />
		<tag k="ssr:type" v="bruk" />
	</node>
	<node lat="59.35733055447486" lon="10.88073888078505" id="-25997">
		<tag k="building" v="industrial" />
		<tag k="industrial" v="factory" />
		<tag k="name" v="Karlshus bruk" />
		<tag k="ssr:date" v="2022-04-07" />
		<tag k="ssr:gruppe" v="næring" />
		<tag k="ssr:hovedgruppe" v="bebyggelse" />
		<tag k="ssr:stedsnr" v="366251" />
		<tag k="ssr:type" v="fabrikk" />
	</node>
	<node lat="59.38674652139037" lon="10.915272451533017" id="-25998">
		<tag k="name" v="Bjørkå" />
		<tag k="place" v="farm" />
		<tag k="ssr:date" v="2020-08-12" />
		<tag k="ssr:gruppe" v="gardsbebyggelse" />
		<tag k="ssr:hovedgruppe" v="bebyggelse" />
		<tag k="ssr:stedsnr" v="366295" />
		<tag k="ssr:type" v="gard" />
	</node>
	<node lat="59.310517747665834" lon="10.78575478130664" id="-25999">
		<tag k="name" v="Holme" />
		<tag k="place" v="farm" />
		<tag k="ssr:date" v="2020-08-11" />
		<tag k="ssr:gruppe" v="gardsbebyggelse" />
		<tag k="ssr:hovedgruppe" v="bebyggelse" />
		<tag k="ssr:stedsnr" v="366442" />
		<tag k="ssr:type" v="gard" />
	</node>
	<node lat="59.32652401344127" lon="10.937722689419841" id="-26000">
		<tag k="name" v="Jørsø" />
		<tag k="place" v="farm" />
		<tag k="ssr:date" v="2020-08-11" />
		<tag k="ssr:gruppe" v="gardsbebyggelse" />
		<tag k="ssr:hovedgruppe" v="bebyggelse" />
		<tag k="ssr:stedsnr" v="366452" />
		<tag k="ssr:type" v="navnegard" />
	</node>
	<node lat="59.32333319761434" lon="10.831919353209413" id="-26001">
		<tag k="name" v="Rød" />
		<tag k="place" v="farm" />
		<tag k="ssr:date" v="2020-08-12" />
		<tag k="ssr:gruppe" v="gardsbebyggelse" />
		<tag k="ssr:hovedgruppe" v="bebyggelse" />
		<tag k="ssr:stedsnr" v="366455" />
		<tag k="ssr:type" v="gard" />
	</node>
	<node lat="59.33201111100577" lon="10.79133611301394" id="-26002">
		<tag k="fixme" v="consider natural=peak for the most distinct mountains in the district" />
		<tag k="name" v="Vardås" />
		<tag k="natural" v="hill" />
		<tag k="place" v="locality" />
		<tag k="ssr:date" v="2019-12-27" />
		<tag k="ssr:gruppe" v="høyder" />
		<tag k="ssr:hovedgruppe" v="terreng" />
		<tag k="ssr:stedsnr" v="420567" />
		<tag k="ssr:type" v="ås" />
	</node>
	<node lat="59.339456291424376" lon="10.86332210316773" id="-26003">
		<tag k="name" v="Strømnes" />
		<tag k="place" v="farm" />
		<tag k="ssr:date" v="2020-08-12" />
		<tag k="ssr:gruppe" v="gardsbebyggelse" />
		<tag k="ssr:hovedgruppe" v="bebyggelse" />
		<tag k="ssr:stedsnr" v="427492" />
		<tag k="ssr:type" v="gard" />
	</node>
	<node lat="59.31227777356218" lon="10.797161110431322" id="-26004">
		<tag k="name" v="Skogly" />
		<tag k="place" v="farm" />
		<tag k="ssr:date" v="2019-12-27" />
		<tag k="ssr:gruppe" v="gardsbebyggelse" />
		<tag k="ssr:hovedgruppe" v="bebyggelse" />
		<tag k="ssr:stedsnr" v="453815" />
		<tag k="ssr:type" v="bruk" />
	</node>
	<node lat="59.30392777689537" lon="10.711591670005301" id="-26005">
		<tag k="name" v="Perbåen" />
		<tag k="place" v="locality" />
		<tag k="seamark:type" v="rock" />
		<tag k="ssr:date" v="2019-12-27" />
		<tag k="ssr:gruppe" v="grunnerISjø" />
		<tag k="ssr:hovedgruppe" v="sjø" />
		<tag k="ssr:stedsnr" v="453877" />
		<tag k="ssr:type" v="båeISjø" />
	</node>
	<node lat="59.37818055346688" lon="10.821761117726227" id="-26006">
		<tag k="name" v="Lilledøvik" />
		<tag k="natural" v="bay" />
		<tag k="ssr:date" v="2019-12-27" />
		<tag k="ssr:gruppe" v="ferskvannskontur" />
		<tag k="ssr:hovedgruppe" v="ferskvann" />
		<tag k="ssr:stedsnr" v="663892" />
		<tag k="ssr:type" v="vik" />
	</node>
	<node lat="59.30159444346555" lon="10.842886103112306" id="-26007">
		<tag k="name" v="Dammyr" />
		<tag k="natural" v="wetland" />
		<tag k="ssr:date" v="2019-12-27" />
		<tag k="ssr:gruppe" v="våtmark" />
		<tag k="ssr:hovedgruppe" v="markslag" />
		<tag k="ssr:stedsnr" v="663902" />
		<tag k="ssr:type" v="myr" />
	</node>
	<node lat="59.352182500465126" lon="10.796281939659695" id="-26008">
		<tag k="name" v="Røstad" />
		<tag k="place" v="farm" />
		<tag k="ssr:date" v="2020-08-12" />
		<tag k="ssr:gruppe" v="gardsbebyggelse" />
		<tag k="ssr:hovedgruppe" v="bebyggelse" />
		<tag k="ssr:stedsnr" v="663929" />
		<tag k="ssr:type" v="navnegard" />
	</node>
	<node lat="59.37007222403578" lon="10.956086106187556" id="-26009">
		<tag k="name" v="Slangsvoll" />
		<tag k="place" v="farm" />
		<tag k="ssr:date" v="2019-12-27" />
		<tag k="ssr:gruppe" v="gardsbebyggelse" />
		<tag k="ssr:hovedgruppe" v="bebyggelse" />
		<tag k="ssr:stedsnr" v="664542" />
		<tag k="ssr:type" v="bruk" />
	</node>
	<node lat="59.40120555368535" lon="10.8784861117882" id="-26010">
		<tag k="name" v="Slottsholmen" />
		<tag k="place" v="islet" />
		<tag k="ssr:date" v="2019-12-27" />
		<tag k="ssr:gruppe" v="ferskvannskontur" />
		<tag k="ssr:hovedgruppe" v="ferskvann" />
		<tag k="ssr:stedsnr" v="664551" />
		<tag k="ssr:type" v="holme" />
	</node>
	<node lat="59.37141955605262" lon="10.895422288287994" id="-26011">
		<tag k="name" v="Heneskilen" />
		<tag k="natural" v="bay" />
		<tag k="ssr:date" v="2019-12-27" />
		<tag k="ssr:gruppe" v="ferskvannskontur" />
		<tag k="ssr:hovedgruppe" v="ferskvann" />
		<tag k="ssr:stedsnr" v="664561" />
		<tag k="ssr:type" v="vik" />
	</node>
	<node lat="59.320375790187164" lon="10.815923649109589" id="-26012">
		<tag k="name" v="Tom" />
		<tag k="place" v="farm" />
		<tag k="ssr:date" v="2022-06-07" />
		<tag k="ssr:gruppe" v="gardsbebyggelse" />
		<tag k="ssr:hovedgruppe" v="bebyggelse" />
		<tag k="ssr:stedsnr" v="665296" />
		<tag k="ssr:type" v="gard" />
	</node>
	<node lat="59.32803055847126" lon="10.764305547597678" id="-26013">
		<tag k="fixme" v="consider natural=peak for the most distinct mountains in the district" />
		<tag k="name" v="Østre Åsen" />
		<tag k="natural" v="hill" />
		<tag k="place" v="locality" />
		<tag k="ssr:date" v="2019-12-27" />
		<tag k="ssr:gruppe" v="høyder" />
		<tag k="ssr:hovedgruppe" v="terreng" />
		<tag k="ssr:stedsnr" v="481904" />
		<tag k="ssr:type" v="ås" />
	</node>
	<node lat="59.34267500316785" lon="10.762866671355459" id="-26014">
		<tag k="name" v="Heiabekken" />
		<tag k="ssr:date" v="2019-12-27" />
		<tag k="ssr:gruppe" v="rennendeVann" />
		<tag k="ssr:hovedgruppe" v="ferskvann" />
		<tag k="ssr:stedsnr" v="481922" />
		<tag k="ssr:type" v="bekk" />
		<tag k="waterway" v="stream" />
	</node>
	<node lat="59.3569500030602" lon="10.803330550850447" id="-26015">
		<tag k="alt_name" v="Løken søndre" />
		<tag k="name" v="Søndre Løken" />
		<tag k="place" v="farm" />
		<tag k="ssr:date" v="2019-12-27" />
		<tag k="ssr:gruppe" v="gardsbebyggelse" />
		<tag k="ssr:hovedgruppe" v="bebyggelse" />
		<tag k="ssr:stedsnr" v="481924" />
		<tag k="ssr:type" v="bruk" />
	</node>
	<node lat="59.38177221893725" lon="10.94683054936803" id="-26016">
		<tag k="name" v="Leiedalsmyra" />
		<tag k="natural" v="wetland" />
		<tag k="ssr:date" v="2019-12-27" />
		<tag k="ssr:gruppe" v="våtmark" />
		<tag k="ssr:hovedgruppe" v="markslag" />
		<tag k="ssr:stedsnr" v="482579" />
		<tag k="ssr:type" v="myr" />
	</node>
	<node lat="59.39576111550943" lon="10.892186103204425" id="-26017">
		<tag k="name" v="Lefseholmene" />
		<tag k="place" v="islet" />
		<tag k="ssr:date" v="2019-12-27" />
		<tag k="ssr:gruppe" v="ferskvannskontur" />
		<tag k="ssr:hovedgruppe" v="ferskvann" />
		<tag k="ssr:stedsnr" v="482590" />
		<tag k="ssr:type" v="holme" />
	</node>
	<node lat="59.337602780503765" lon="10.960019449480667" id="-26018">
		<tag k="name" v="Galgehytta" />
		<tag k="place" v="locality" />
		<tag k="ssr:date" v="2019-12-27" />
		<tag k="ssr:gruppe" v="kulturminner" />
		<tag k="ssr:hovedgruppe" v="kultur" />
		<tag k="ssr:stedsnr" v="482912" />
		<tag k="ssr:type" v="annenKulturdetalj" />
	</node>
	<node lat="59.32527777230075" lon="10.92681065795862" id="-26019">
		<tag k="name" v="Frakkestad" />
		<tag k="place" v="farm" />
		<tag k="ssr:date" v="2020-08-12" />
		<tag k="ssr:gruppe" v="gardsbebyggelse" />
		<tag k="ssr:hovedgruppe" v="bebyggelse" />
		<tag k="ssr:stedsnr" v="487473" />
		<tag k="ssr:type" v="gard" />
	</node>
	<node lat="59.34046805164351" lon="10.893653082460295" id="-26020">
		<tag k="name" v="Rød" />
		<tag k="place" v="farm" />
		<tag k="ssr:date" v="2020-08-12" />
		<tag k="ssr:gruppe" v="gardsbebyggelse" />
		<tag k="ssr:hovedgruppe" v="bebyggelse" />
		<tag k="ssr:stedsnr" v="487518" />
		<tag k="ssr:type" v="gard" />
	</node>
	<node lat="59.35920277480606" lon="10.852147221301646" id="-26021">
		<tag k="name" v="Ringstad" />
		<tag k="place" v="farm" />
		<tag k="ssr:date" v="2019-12-27" />
		<tag k="ssr:gruppe" v="gardsbebyggelse" />
		<tag k="ssr:hovedgruppe" v="bebyggelse" />
		<tag k="ssr:stedsnr" v="669240" />
		<tag k="ssr:type" v="bruk" />
	</node>
	<node lat="59.30762777998258" lon="10.866766669112874" id="-26022">
		<tag k="alt_name" v="Kil midtre;Kil mellem" />
		<tag k="name" v="Midtre Kil" />
		<tag k="place" v="farm" />
		<tag k="ssr:date" v="2019-12-27" />
		<tag k="ssr:gruppe" v="gardsbebyggelse" />
		<tag k="ssr:hovedgruppe" v="bebyggelse" />
		<tag k="ssr:stedsnr" v="669425" />
		<tag k="ssr:type" v="bruk" />
	</node>
	<node lat="59.30546666754653" lon="10.810524997586441" id="-26023">
		<tag k="name" v="Solbakken" />
		<tag k="place" v="farm" />
		<tag k="ssr:date" v="2019-12-27" />
		<tag k="ssr:gruppe" v="gardsbebyggelse" />
		<tag k="ssr:hovedgruppe" v="bebyggelse" />
		<tag k="ssr:stedsnr" v="669428" />
		<tag k="ssr:type" v="bruk" />
	</node>
	<node lat="59.3397655618345" lon="10.838951505574565" id="-26024">
		<tag k="alt_name" v="Årneberg" />
		<tag k="name" v="Arneberg" />
		<tag k="place" v="farm" />
		<tag k="ssr:date" v="2020-08-12" />
		<tag k="ssr:gruppe" v="gardsbebyggelse" />
		<tag k="ssr:hovedgruppe" v="bebyggelse" />
		<tag k="ssr:stedsnr" v="669497" />
		<tag k="ssr:type" v="gard" />
	</node>
	<node lat="59.36508055954181" lon="10.95525277728381" id="-26025">
		<tag k="alt_name" v="Harehaugen" />
		<tag k="name" v="Harahaugen" />
		<tag k="place" v="farm" />
		<tag k="ssr:date" v="2019-12-27" />
		<tag k="ssr:gruppe" v="gardsbebyggelse" />
		<tag k="ssr:hovedgruppe" v="bebyggelse" />
		<tag k="ssr:stedsnr" v="670257" />
		<tag k="ssr:type" v="bruk" />
	</node>
	<node lat="59.31443610749477" lon="10.751158326240278" id="-26026">
		<tag k="alt_name" v="Åvensund" />
		<tag k="name" v="Åvensundet" />
		<tag k="natural" v="bay" />
		<tag k="ssr:date" v="2019-12-27" />
		<tag k="ssr:gruppe" v="kystkontur" />
		<tag k="ssr:hovedgruppe" v="sjø" />
		<tag k="ssr:stedsnr" v="670400" />
		<tag k="ssr:type" v="vikISjø" />
	</node>
	<node lat="59.315562466964025" lon="10.796055011766311" id="-26027">
		<tag k="name" v="Hestevoll" />
		<tag k="place" v="farm" />
		<tag k="ssr:date" v="2020-08-11" />
		<tag k="ssr:gruppe" v="gardsbebyggelse" />
		<tag k="ssr:hovedgruppe" v="bebyggelse" />
		<tag k="ssr:stedsnr" v="670424" />
		<tag k="ssr:type" v="gard" />
	</node>
	<node lat="59.31322456976836" lon="10.909504433314327" id="-26028">
		<tag k="name" v="Reklingsholm" />
		<tag k="place" v="farm" />
		<tag k="ssr:date" v="2020-08-11" />
		<tag k="ssr:gruppe" v="gardsbebyggelse" />
		<tag k="ssr:hovedgruppe" v="bebyggelse" />
		<tag k="ssr:stedsnr" v="670425" />
		<tag k="ssr:type" v="gard" />
	</node>
	<node lat="59.32729722203572" lon="10.83882777424483" id="-26029">
		<tag k="name" v="Nøysom" />
		<tag k="place" v="farm" />
		<tag k="ssr:date" v="2019-12-27" />
		<tag k="ssr:gruppe" v="gardsbebyggelse" />
		<tag k="ssr:hovedgruppe" v="bebyggelse" />
		<tag k="ssr:stedsnr" v="670444" />
		<tag k="ssr:type" v="bruk" />
	</node>
	<node lat="59.28493333643997" lon="10.71801110586506" id="-26030">
		<tag k="name" v="Rødskjærhausen" />
		<tag k="natural" v="shoal" />
		<tag k="place" v="locality" />
		<tag k="ssr:date" v="2019-12-27" />
		<tag k="ssr:gruppe" v="grunnerISjø" />
		<tag k="ssr:hovedgruppe" v="sjø" />
		<tag k="ssr:stedsnr" v="513784" />
		<tag k="ssr:type" v="grunneISjø" />
	</node>
	<node lat="59.37683610909365" lon="10.831827780184705" id="-26031">
		<tag k="name" v="Haugstentangen" />
		<tag k="natural" v="cape" />
		<tag k="ssr:date" v="2019-12-27" />
		<tag k="ssr:gruppe" v="ferskvannskontur" />
		<tag k="ssr:hovedgruppe" v="ferskvann" />
		<tag k="ssr:stedsnr" v="543275" />
		<tag k="ssr:type" v="nes" />
	</node>
	<node lat="59.35745833607725" lon="10.85678610651842" id="-26032">
		<tag k="name" v="Burummyra" />
		<tag k="place" v="farm" />
		<tag k="ssr:date" v="2019-12-27" />
		<tag k="ssr:gruppe" v="gardsbebyggelse" />
		<tag k="ssr:hovedgruppe" v="bebyggelse" />
		<tag k="ssr:stedsnr" v="543276" />
		<tag k="ssr:type" v="bruk" />
	</node>
	<node lat="59.354883336047656" lon="10.943424991891803" id="-26033">
		<tag k="alt_name" v="Slangsvoll søndre" />
		<tag k="name" v="Søndre Slangsvoll" />
		<tag k="place" v="farm" />
		<tag k="ssr:date" v="2019-12-27" />
		<tag k="ssr:gruppe" v="gardsbebyggelse" />
		<tag k="ssr:hovedgruppe" v="bebyggelse" />
		<tag k="ssr:stedsnr" v="543588" />
		<tag k="ssr:type" v="bruk" />
	</node>
	<node lat="59.37861388562344" lon="10.858255549573547" id="-26034">
		<tag k="name" v="Brattholmen" />
		<tag k="place" v="islet" />
		<tag k="ssr:date" v="2019-12-27" />
		<tag k="ssr:gruppe" v="ferskvannskontur" />
		<tag k="ssr:hovedgruppe" v="ferskvann" />
		<tag k="ssr:stedsnr" v="548305" />
		<tag k="ssr:type" v="holme" />
	</node>
	<node lat="59.33114722289787" lon="10.885550003941" id="-26036">
		<tag k="name" v="Haugen" />
		<tag k="place" v="farm" />
		<tag k="ssr:date" v="2019-12-27" />
		<tag k="ssr:gruppe" v="gardsbebyggelse" />
		<tag k="ssr:hovedgruppe" v="bebyggelse" />
		<tag k="ssr:stedsnr" v="548468" />
		<tag k="ssr:type" v="bruk" />
	</node>
	<node lat="59.33762663764514" lon="10.926926080130938" id="-26037">
		<tag k="name" v="Missingen" />
		<tag k="place" v="farm" />
		<tag k="ssr:date" v="2020-08-12" />
		<tag k="ssr:gruppe" v="gardsbebyggelse" />
		<tag k="ssr:hovedgruppe" v="bebyggelse" />
		<tag k="ssr:stedsnr" v="548487" />
		<tag k="ssr:type" v="gard" />
	</node>
	<node lat="59.37286666422595" lon="10.939788892573606" id="-26038">
		<tag k="name" v="Kloppermyra" />
		<tag k="natural" v="wetland" />
		<tag k="ssr:date" v="2019-12-27" />
		<tag k="ssr:gruppe" v="våtmark" />
		<tag k="ssr:hovedgruppe" v="markslag" />
		<tag k="ssr:stedsnr" v="603569" />
		<tag k="ssr:type" v="myr" />
	</node>
	<node lat="59.31574722276777" lon="10.856477777183654" id="-26039">
		<tag k="name" v="Hissingbydalen" />
		<tag k="place" v="locality" />
		<tag k="ssr:date" v="2019-12-27" />
		<tag k="ssr:gruppe" v="bolighus" />
		<tag k="ssr:hovedgruppe" v="bebyggelse" />
		<tag k="ssr:stedsnr" v="603815" />
		<tag k="ssr:type" v="gammelBosettingsplass" />
	</node>
	<node lat="59.29779166865112" lon="10.83233611245161" id="-26040">
		<tag k="fixme" v="consider natural=peak for the most distinct mountains in the district" />
		<tag k="name" v="Rørfjell" />
		<tag k="natural" v="hill" />
		<tag k="place" v="locality" />
		<tag k="ssr:date" v="2019-12-27" />
		<tag k="ssr:gruppe" v="høyder" />
		<tag k="ssr:hovedgruppe" v="terreng" />
		<tag k="ssr:stedsnr" v="608406" />
		<tag k="ssr:type" v="ås" />
	</node>
	<node lat="59.29960741826094" lon="10.774545347540164" id="-26041">
		<tag k="name" v="Spetalen" />
		<tag k="place" v="farm" />
		<tag k="ssr:date" v="2020-08-12" />
		<tag k="ssr:gruppe" v="gardsbebyggelse" />
		<tag k="ssr:hovedgruppe" v="bebyggelse" />
		<tag k="ssr:stedsnr" v="608400" />
		<tag k="ssr:type" v="gard" />
	</node>
	<node lat="59.33766667015247" lon="10.949925002829769" id="-26042">
		<tag k="name" v="Sulerød" />
		<tag k="place" v="farm" />
		<tag k="ssr:date" v="2019-12-27" />
		<tag k="ssr:gruppe" v="gardsbebyggelse" />
		<tag k="ssr:hovedgruppe" v="bebyggelse" />
		<tag k="ssr:stedsnr" v="608508" />
		<tag k="ssr:type" v="bruk" />
	</node>
	<node lat="59.34734969627076" lon="10.78741646694824" id="-26043">
		<tag k="name" v="Heia" />
		<tag k="place" v="farm" />
		<tag k="ssr:date" v="2020-08-11" />
		<tag k="ssr:gruppe" v="gardsbebyggelse" />
		<tag k="ssr:hovedgruppe" v="bebyggelse" />
		<tag k="ssr:stedsnr" v="608512" />
		<tag k="ssr:type" v="bruk" />
	</node>
	<node lat="59.3900722262075" lon="10.950336115300576" id="-26044">
		<tag k="name" v="Danserfjella" />
		<tag k="natural" v="mountain_range" />
		<tag k="ssr:date" v="2022-01-20" />
		<tag k="ssr:gruppe" v="terrengområder" />
		<tag k="ssr:hovedgruppe" v="terreng" />
		<tag k="ssr:stedsnr" v="609292" />
		<tag k="ssr:type" v="fjellområde" />
	</node>
	<node lat="59.31692079691261" lon="10.76554822090826" id="-26045">
		<tag k="name" v="Røstad" />
		<tag k="place" v="farm" />
		<tag k="ssr:date" v="2020-08-11" />
		<tag k="ssr:gruppe" v="gardsbebyggelse" />
		<tag k="ssr:hovedgruppe" v="bebyggelse" />
		<tag k="ssr:stedsnr" v="609419" />
		<tag k="ssr:type" v="gard" />
	</node>
	<node lat="59.33230216849348" lon="10.824864424499633" id="-26046">
		<tag k="name" v="Kolbjørnrød" />
		<tag k="place" v="farm" />
		<tag k="ssr:date" v="2020-08-12" />
		<tag k="ssr:gruppe" v="gardsbebyggelse" />
		<tag k="ssr:hovedgruppe" v="bebyggelse" />
		<tag k="ssr:stedsnr" v="609440" />
		<tag k="ssr:type" v="gard" />
	</node>
	<node lat="59.29855277534229" lon="10.766922219135926" id="-26047">
		<tag k="name" v="Spetalen" />
		<tag k="place" v="village" />
		<tag k="ssr:date" v="2019-12-27" />
		<tag k="ssr:gruppe" v="bebyggelsesområder" />
		<tag k="ssr:hovedgruppe" v="bebyggelse" />
		<tag k="ssr:stedsnr" v="631201" />
		<tag k="ssr:type" v="tettsted" />
	</node>
	<node lat="59.30453888556499" lon="10.732052779365755" id="-26048">
		<tag k="fixme" v="consider seamark:type=rock or natural=shoal" />
		<tag k="name" v="Stongeskjær" />
		<tag k="place" v="islet" />
		<tag k="ssr:date" v="2019-12-27" />
		<tag k="ssr:gruppe" v="grunnerISjø" />
		<tag k="ssr:hovedgruppe" v="sjø" />
		<tag k="ssr:stedsnr" v="634818" />
		<tag k="ssr:type" v="skjærISjø" />
	</node>
	<node lat="59.313347219046406" lon="10.729769444587903" id="-26049">
		<tag k="alt_name" v="Kokholmsundet" />
		<tag k="name" v="Kokholmsund" />
		<tag k="natural" v="strait" />
		<tag k="ssr:date" v="2019-12-27" />
		<tag k="ssr:gruppe" v="kystkontur" />
		<tag k="ssr:hovedgruppe" v="sjø" />
		<tag k="ssr:stedsnr" v="634892" />
		<tag k="ssr:type" v="sundISjø" />
	</node>
	<node lat="59.306347226380964" lon="10.737841674216481" id="-26050">
		<tag k="fixme" v="consider seamark:type=rock or natural=shoal" />
		<tag k="name" v="Raskjæret" />
		<tag k="place" v="islet" />
		<tag k="ssr:date" v="2019-12-27" />
		<tag k="ssr:gruppe" v="grunnerISjø" />
		<tag k="ssr:hovedgruppe" v="sjø" />
		<tag k="ssr:stedsnr" v="695768" />
		<tag k="ssr:type" v="skjærISjø" />
	</node>
	<node lat="59.30795844976084" lon="10.77998641038448" id="-26051">
		<tag k="name" v="Makrellrød" />
		<tag k="place" v="farm" />
		<tag k="ssr:date" v="2020-08-13" />
		<tag k="ssr:gruppe" v="gardsbebyggelse" />
		<tag k="ssr:hovedgruppe" v="bebyggelse" />
		<tag k="ssr:stedsnr" v="663496" />
		<tag k="ssr:type" v="gard" />
	</node>
	<node lat="59.368424996208375" lon="10.79966389303358" id="-26052">
		<tag k="name" v="Løkenbråten" />
		<tag k="place" v="farm" />
		<tag k="ssr:date" v="2019-12-27" />
		<tag k="ssr:gruppe" v="gardsbebyggelse" />
		<tag k="ssr:hovedgruppe" v="bebyggelse" />
		<tag k="ssr:stedsnr" v="663890" />
		<tag k="ssr:type" v="bruk" />
	</node>
	<node lat="59.343541663734584" lon="10.799980561019257" id="-26053">
		<tag k="alt_name" v="Norum nordre" />
		<tag k="name" v="Nordre Norum" />
		<tag k="place" v="farm" />
		<tag k="ssr:date" v="2019-12-27" />
		<tag k="ssr:gruppe" v="gardsbebyggelse" />
		<tag k="ssr:hovedgruppe" v="bebyggelse" />
		<tag k="ssr:stedsnr" v="663916" />
		<tag k="ssr:type" v="bruk" />
	</node>
	<node lat="59.366047223228975" lon="10.851552786125806" id="-26054">
		<tag k="name" v="Lundsholmen" />
		<tag k="place" v="islet" />
		<tag k="ssr:date" v="2019-12-27" />
		<tag k="ssr:gruppe" v="ferskvannskontur" />
		<tag k="ssr:hovedgruppe" v="ferskvann" />
		<tag k="ssr:stedsnr" v="664224" />
		<tag k="ssr:type" v="holme" />
	</node>
	<node lat="59.35504915438001" lon="10.93562799738114" id="-26055">
		<tag k="fixme" v="consider natural=peak for the most distinct mountains in the district" />
		<tag k="name" v="Ridefjell" />
		<tag k="natural" v="hill" />
		<tag k="place" v="locality" />
		<tag k="ssr:date" v="2019-12-27" />
		<tag k="ssr:gruppe" v="høyder" />
		<tag k="ssr:hovedgruppe" v="terreng" />
		<tag k="ssr:stedsnr" v="664227" />
		<tag k="ssr:type" v="ås" />
	</node>
	<node lat="59.29453485333769" lon="10.791907828255031" id="-26056">
		<tag k="name" v="Røtne" />
		<tag k="place" v="farm" />
		<tag k="ssr:date" v="2020-10-06" />
		<tag k="ssr:gruppe" v="gardsbebyggelse" />
		<tag k="ssr:hovedgruppe" v="bebyggelse" />
		<tag k="ssr:stedsnr" v="669389" />
		<tag k="ssr:type" v="gard" />
	</node>
	<node lat="59.34966110914029" lon="10.88762499512022" id="-26057">
		<tag k="name" v="Raet" />
		<tag k="place" v="farm" />
		<tag k="ssr:date" v="2019-12-27" />
		<tag k="ssr:gruppe" v="gardsbebyggelse" />
		<tag k="ssr:hovedgruppe" v="bebyggelse" />
		<tag k="ssr:stedsnr" v="669514" />
		<tag k="ssr:type" v="bruk" />
	</node>
	<node lat="59.375969447987956" lon="10.901802786485291" id="-26058">
		<tag k="name" v="Kilen" />
		<tag k="place" v="farm" />
		<tag k="ssr:date" v="2019-12-27" />
		<tag k="ssr:gruppe" v="gardsbebyggelse" />
		<tag k="ssr:hovedgruppe" v="bebyggelse" />
		<tag k="ssr:stedsnr" v="670280" />
		<tag k="ssr:type" v="bruk" />
	</node>
	<node lat="59.339791667473115" lon="10.932050003086195" id="-26059">
		<tag k="bridge" v="yes" />
		<tag k="layer" v="1" />
		<tag k="name" v="Åkeberg" />
		<tag k="ssr:date" v="2019-12-27" />
		<tag k="ssr:gruppe" v="samferdselsanlegg" />
		<tag k="ssr:hovedgruppe" v="infrastruktur" />
		<tag k="ssr:stedsnr" v="713441" />
		<tag k="ssr:type" v="bru" />
	</node>
	<node lat="59.34646111199319" lon="10.870305552109697" id="-26060">
		<tag k="bridge" v="yes" />
		<tag k="layer" v="1" />
		<tag k="name" v="Strømshaug" />
		<tag k="ssr:date" v="2019-12-27" />
		<tag k="ssr:gruppe" v="samferdselsanlegg" />
		<tag k="ssr:hovedgruppe" v="infrastruktur" />
		<tag k="ssr:stedsnr" v="713443" />
		<tag k="ssr:type" v="bru" />
	</node>
	<node lat="59.2999694418777" lon="10.915755554512039" id="-26061">
		<tag k="name" v="Bjørndalen" />
		<tag k="natural" v="valley" />
		<tag k="place" v="locality" />
		<tag k="ssr:date" v="2019-12-27" />
		<tag k="ssr:gruppe" v="senkninger" />
		<tag k="ssr:hovedgruppe" v="terreng" />
		<tag k="ssr:stedsnr" v="724943" />
		<tag k="ssr:type" v="dal" />
	</node>
	<node lat="59.303874998586835" lon="10.772416658310215" id="-26062">
		<tag k="name" v="Agnes" />
		<tag k="place" v="farm" />
		<tag k="ssr:date" v="2019-12-27" />
		<tag k="ssr:gruppe" v="gardsbebyggelse" />
		<tag k="ssr:hovedgruppe" v="bebyggelse" />
		<tag k="ssr:stedsnr" v="725191" />
		<tag k="ssr:type" v="bruk" />
	</node>
	<node lat="59.33895237540369" lon="10.910863198542446" id="-26063">
		<tag k="name" v="Hauger" />
		<tag k="place" v="farm" />
		<tag k="ssr:date" v="2020-08-12" />
		<tag k="ssr:gruppe" v="gardsbebyggelse" />
		<tag k="ssr:hovedgruppe" v="bebyggelse" />
		<tag k="ssr:stedsnr" v="730503" />
		<tag k="ssr:type" v="gard" />
	</node>
	<node lat="59.34058055337414" lon="10.939900001225434" id="-26064">
		<tag k="name" v="Åkebergrød" />
		<tag k="place" v="farm" />
		<tag k="ssr:date" v="2019-12-27" />
		<tag k="ssr:gruppe" v="gardsbebyggelse" />
		<tag k="ssr:hovedgruppe" v="bebyggelse" />
		<tag k="ssr:stedsnr" v="730506" />
		<tag k="ssr:type" v="bruk" />
	</node>
	<node lat="59.3489333306904" lon="10.927341665651708" id="-26065">
		<tag k="alt_name" v="Branndalen" />
		<tag k="name" v="Branddalen" />
		<tag k="place" v="farm" />
		<tag k="ssr:date" v="2019-12-27" />
		<tag k="ssr:gruppe" v="gardsbebyggelse" />
		<tag k="ssr:hovedgruppe" v="bebyggelse" />
		<tag k="ssr:stedsnr" v="730527" />
		<tag k="ssr:type" v="bruk" />
	</node>
	<node lat="59.332210224675535" lon="10.872450717884467" id="-26066">
		<tag k="name" v="Augeberg" />
		<tag k="place" v="farm" />
		<tag k="ssr:date" v="2020-08-11" />
		<tag k="ssr:gruppe" v="gardsbebyggelse" />
		<tag k="ssr:hovedgruppe" v="bebyggelse" />
		<tag k="ssr:stedsnr" v="730486" />
		<tag k="ssr:type" v="navnegard" />
	</node>
	<node lat="59.3138138915855" lon="10.879847215276506" id="-26067">
		<tag k="name" v="Holtet" />
		<tag k="place" v="farm" />
		<tag k="ssr:date" v="2019-12-27" />
		<tag k="ssr:gruppe" v="gardsbebyggelse" />
		<tag k="ssr:hovedgruppe" v="bebyggelse" />
		<tag k="ssr:stedsnr" v="752769" />
		<tag k="ssr:type" v="bruk" />
	</node>
	<node lat="59.35873889042625" lon="10.839963895928953" id="-26068">
		<tag k="bridge" v="yes" />
		<tag k="layer" v="1" />
		<tag k="name" v="Jonsten" />
		<tag k="ssr:date" v="2019-12-27" />
		<tag k="ssr:gruppe" v="samferdselsanlegg" />
		<tag k="ssr:hovedgruppe" v="infrastruktur" />
		<tag k="ssr:stedsnr" v="896540" />
		<tag k="ssr:type" v="bru" />
	</node>
	<node lat="59.35961667123283" lon="10.840736107611301" id="-26069">
		<tag k="bridge" v="yes" />
		<tag k="layer" v="1" />
		<tag k="name" v="Jonsten rampe" />
		<tag k="ssr:date" v="2019-12-27" />
		<tag k="ssr:gruppe" v="samferdselsanlegg" />
		<tag k="ssr:hovedgruppe" v="infrastruktur" />
		<tag k="ssr:stedsnr" v="896543" />
		<tag k="ssr:type" v="bru" />
	</node>
	<node lat="59.32514278410888" lon="10.80724504236735" id="-26070">
		<tag k="alt_name" v="Krokstad" />
		<tag k="bridge" v="yes" />
		<tag k="layer" v="1" />
		<tag k="name" v="Krokstad bru" />
		<tag k="ssr:date" v="2019-12-27" />
		<tag k="ssr:gruppe" v="samferdselsanlegg" />
		<tag k="ssr:hovedgruppe" v="infrastruktur" />
		<tag k="ssr:stedsnr" v="896548" />
		<tag k="ssr:type" v="bru" />
	</node>
	<node lat="59.330684269389195" lon="10.953061920381588" id="-26071">
		<tag k="alt_name" v="Jørsø store" />
		<tag k="name" v="Store Jørsø" />
		<tag k="place" v="farm" />
		<tag k="ssr:date" v="2020-08-11" />
		<tag k="ssr:gruppe" v="gardsbebyggelse" />
		<tag k="ssr:hovedgruppe" v="bebyggelse" />
		<tag k="ssr:stedsnr" v="780312" />
		<tag k="ssr:type" v="gard" />
	</node>
	<node lat="59.33895000279217" lon="10.843819448300334" id="-26072">
		<tag k="name" v="Årneberghølen" />
		<tag k="ssr:date" v="2019-12-27" />
		<tag k="ssr:gruppe" v="rennendeVann" />
		<tag k="ssr:hovedgruppe" v="ferskvann" />
		<tag k="ssr:stedsnr" v="786352" />
		<tag k="ssr:type" v="bekk" />
		<tag k="waterway" v="stream" />
	</node>
	<node lat="59.3566955682603" lon="10.833896401219132" id="-26073">
		<tag k="alt_name" v="Jonstein" />
		<tag k="name" v="Jonsten" />
		<tag k="place" v="farm" />
		<tag k="ssr:date" v="2020-08-12" />
		<tag k="ssr:gruppe" v="gardsbebyggelse" />
		<tag k="ssr:hovedgruppe" v="bebyggelse" />
		<tag k="ssr:stedsnr" v="791259" />
		<tag k="ssr:type" v="gard" />
	</node>
	<node lat="59.36001944023874" lon="10.85351111056719" id="-26074">
		<tag k="name" v="Burumbråten" />
		<tag k="place" v="farm" />
		<tag k="ssr:date" v="2019-12-27" />
		<tag k="ssr:gruppe" v="gardsbebyggelse" />
		<tag k="ssr:hovedgruppe" v="bebyggelse" />
		<tag k="ssr:stedsnr" v="791260" />
		<tag k="ssr:type" v="bruk" />
	</node>
	<node lat="59.40210833778688" lon="10.886163881085585" id="-26075">
		<tag k="name" v="Burumøya" />
		<tag k="place" v="island" />
		<tag k="ssr:date" v="2019-12-27" />
		<tag k="ssr:gruppe" v="ferskvannskontur" />
		<tag k="ssr:hovedgruppe" v="ferskvann" />
		<tag k="ssr:stedsnr" v="791298" />
		<tag k="ssr:type" v="øy" />
	</node>
	<node lat="59.332786111928236" lon="10.885361112528889" id="-26076">
		<tag k="name" v="Stene" />
		<tag k="place" v="farm" />
		<tag k="ssr:date" v="2019-12-27" />
		<tag k="ssr:gruppe" v="gardsbebyggelse" />
		<tag k="ssr:hovedgruppe" v="bebyggelse" />
		<tag k="ssr:stedsnr" v="791439" />
		<tag k="ssr:type" v="bruk" />
	</node>
	<node lat="59.3083833335056" lon="10.87237500231226" id="-26077">
		<tag k="alt_name" v="Kil østre" />
		<tag k="name" v="Østre Kil" />
		<tag k="place" v="farm" />
		<tag k="ssr:date" v="2019-12-27" />
		<tag k="ssr:gruppe" v="gardsbebyggelse" />
		<tag k="ssr:hovedgruppe" v="bebyggelse" />
		<tag k="ssr:stedsnr" v="791392" />
		<tag k="ssr:type" v="bruk" />
	</node>
	<node lat="59.28805833653049" lon="10.742830559124236" id="-26078">
		<tag k="alt_name" v="Saltnesholmen" />
		<tag k="name" v="Saltholmen" />
		<tag k="place" v="islet" />
		<tag k="ssr:date" v="2019-12-27" />
		<tag k="ssr:gruppe" v="kystkontur" />
		<tag k="ssr:hovedgruppe" v="sjø" />
		<tag k="ssr:stedsnr" v="792386" />
		<tag k="ssr:type" v="holmeISjø" />
	</node>
	<node lat="59.321869442979754" lon="10.783386115243777" id="-26079">
		<tag k="name" v="Lårbu" />
		<tag k="place" v="farm" />
		<tag k="ssr:date" v="2019-12-27" />
		<tag k="ssr:gruppe" v="gardsbebyggelse" />
		<tag k="ssr:hovedgruppe" v="bebyggelse" />
		<tag k="ssr:stedsnr" v="906531" />
		<tag k="ssr:type" v="bruk" />
	</node>
	<node lat="59.38326110984556" lon="10.823900002801825" id="-26080">
		<tag k="name" v="Sponbukt" />
		<tag k="natural" v="bay" />
		<tag k="ssr:date" v="2019-12-27" />
		<tag k="ssr:gruppe" v="ferskvannskontur" />
		<tag k="ssr:hovedgruppe" v="ferskvann" />
		<tag k="ssr:stedsnr" v="906886" />
		<tag k="ssr:type" v="vik" />
	</node>
	<node lat="59.34557499671517" lon="10.779424991209135" id="-26081">
		<tag k="name" v="Heiasvingen" />
		<tag k="place" v="locality" />
		<tag k="ssr:date" v="2019-12-27" />
		<tag k="ssr:gruppe" v="kulturminner" />
		<tag k="ssr:hovedgruppe" v="kultur" />
		<tag k="ssr:stedsnr" v="906889" />
		<tag k="ssr:type" v="annenKulturdetalj" />
	</node>
	<node lat="59.30181944131886" lon="10.774327776384855" id="-26082">
		<tag k="fixme" v="multiple name tags, choose one and add the other to alt_name" />
		<tag k="name" v="Kløfta;Tangen" />
		<tag k="place" v="farm" />
		<tag k="ssr:date" v="2019-12-27" />
		<tag k="ssr:gruppe" v="gardsbebyggelse" />
		<tag k="ssr:hovedgruppe" v="bebyggelse" />
		<tag k="ssr:stedsnr" v="817827" />
		<tag k="ssr:type" v="bruk" />
	</node>
	<node lat="59.294761112790304" lon="10.662136102837234" id="-26083">
		<tag k="name" v="Brotta" />
		<tag k="place" v="islet" />
		<tag k="ssr:date" v="2019-12-27" />
		<tag k="ssr:gruppe" v="kystkontur" />
		<tag k="ssr:hovedgruppe" v="sjø" />
		<tag k="ssr:stedsnr" v="817909" />
		<tag k="ssr:type" v="holmeISjø" />
	</node>
	<node lat="59.30589722358725" lon="10.754391671680454" id="-26084">
		<tag k="fixme" v="consider seamark:type=rock or natural=shoal" />
		<tag k="name" v="Guleskjær" />
		<tag k="place" v="islet" />
		<tag k="ssr:date" v="2019-12-27" />
		<tag k="ssr:gruppe" v="grunnerISjø" />
		<tag k="ssr:hovedgruppe" v="sjø" />
		<tag k="ssr:stedsnr" v="907185" />
		<tag k="ssr:type" v="skjærISjø" />
	</node>
	<node lat="59.372358334140365" lon="10.915927774018488" id="-26085">
		<tag k="name" v="Borgebunn" />
		<tag k="natural" v="bay" />
		<tag k="ssr:date" v="2019-12-27" />
		<tag k="ssr:gruppe" v="ferskvannskontur" />
		<tag k="ssr:hovedgruppe" v="ferskvann" />
		<tag k="ssr:stedsnr" v="907228" />
		<tag k="ssr:type" v="vik" />
	</node>
	<node lat="59.372783337375935" lon="10.967577784525695" id="-26086">
		<tag k="name" v="Bjørnemyr" />
		<tag k="natural" v="wetland" />
		<tag k="ssr:date" v="2019-12-27" />
		<tag k="ssr:gruppe" v="våtmark" />
		<tag k="ssr:hovedgruppe" v="markslag" />
		<tag k="ssr:stedsnr" v="907531" />
		<tag k="ssr:type" v="myr" />
	</node>
	<node lat="59.325963885495256" lon="10.930383336706416" id="-26087">
		<tag k="name" v="Ileby" />
		<tag k="place" v="farm" />
		<tag k="ssr:date" v="2019-12-27" />
		<tag k="ssr:gruppe" v="gardsbebyggelse" />
		<tag k="ssr:hovedgruppe" v="bebyggelse" />
		<tag k="ssr:stedsnr" v="907736" />
		<tag k="ssr:type" v="bruk" />
	</node>
	<node lat="59.304701398257734" lon="10.861676726767804" id="-26088">
		<tag k="name" v="Kil" />
		<tag k="place" v="farm" />
		<tag k="ssr:date" v="2020-08-11" />
		<tag k="ssr:gruppe" v="gardsbebyggelse" />
		<tag k="ssr:hovedgruppe" v="bebyggelse" />
		<tag k="ssr:stedsnr" v="844286" />
		<tag k="ssr:type" v="navnegard" />
	</node>
	<node lat="59.38797777935791" lon="10.816616661886632" id="-26089">
		<tag k="name" v="Grimsrød" />
		<tag k="place" v="locality" />
		<tag k="ssr:date" v="2019-12-27" />
		<tag k="ssr:gruppe" v="kulturminner" />
		<tag k="ssr:hovedgruppe" v="kultur" />
		<tag k="ssr:stedsnr" v="845905" />
		<tag k="ssr:type" v="annenKulturdetalj" />
	</node>
	<node lat="59.35756389009827" lon="10.80578889736251" id="-26090">
		<tag k="alt_name" v="Løken nordre" />
		<tag k="name" v="Nordre Løken" />
		<tag k="place" v="farm" />
		<tag k="ssr:date" v="2019-12-27" />
		<tag k="ssr:gruppe" v="gardsbebyggelse" />
		<tag k="ssr:hovedgruppe" v="bebyggelse" />
		<tag k="ssr:stedsnr" v="845938" />
		<tag k="ssr:type" v="bruk" />
	</node>
	<node lat="59.33908333137976" lon="10.922213895938844" id="-26091">
		<tag k="name" v="Dalen" />
		<tag k="place" v="farm" />
		<tag k="ssr:date" v="2019-12-27" />
		<tag k="ssr:gruppe" v="gardsbebyggelse" />
		<tag k="ssr:hovedgruppe" v="bebyggelse" />
		<tag k="ssr:stedsnr" v="847230" />
		<tag k="ssr:type" v="bruk" />
	</node>
	<node lat="59.33709166532942" lon="10.957583337477258" id="-26092">
		<tag k="name" v="Grepet" />
		<tag k="place" v="farm" />
		<tag k="ssr:date" v="2021-03-25" />
		<tag k="ssr:gruppe" v="gardsbebyggelse" />
		<tag k="ssr:hovedgruppe" v="bebyggelse" />
		<tag k="ssr:stedsnr" v="847581" />
		<tag k="ssr:type" v="bruk" />
	</node>
	<node lat="59.321058330324504" lon="10.878330549787318" id="-26093">
		<tag k="name" v="Haugen" />
		<tag k="place" v="farm" />
		<tag k="ssr:date" v="2019-12-27" />
		<tag k="ssr:gruppe" v="gardsbebyggelse" />
		<tag k="ssr:hovedgruppe" v="bebyggelse" />
		<tag k="ssr:stedsnr" v="847827" />
		<tag k="ssr:type" v="bruk" />
	</node>
	<node lat="59.30380278175706" lon="10.796419443446977" id="-26094">
		<tag k="name" v="Holmebråten" />
		<tag k="place" v="farm" />
		<tag k="ssr:date" v="2019-12-27" />
		<tag k="ssr:gruppe" v="gardsbebyggelse" />
		<tag k="ssr:hovedgruppe" v="bebyggelse" />
		<tag k="ssr:stedsnr" v="852408" />
		<tag k="ssr:type" v="bruk" />
	</node>
	<node lat="59.33918055950663" lon="10.825716670600697" id="-26095">
		<tag k="name" v="Løkka" />
		<tag k="place" v="farm" />
		<tag k="ssr:date" v="2019-12-27" />
		<tag k="ssr:gruppe" v="gardsbebyggelse" />
		<tag k="ssr:hovedgruppe" v="bebyggelse" />
		<tag k="ssr:stedsnr" v="852472" />
		<tag k="ssr:type" v="bruk" />
	</node>
	<node lat="59.292783331385465" lon="10.653458337654698" id="-26096">
		<tag k="name" v="Bråttene" />
		<tag k="natural" v="shoal" />
		<tag k="place" v="locality" />
		<tag k="ssr:date" v="2021-06-08" />
		<tag k="ssr:gruppe" v="grunnerISjø" />
		<tag k="ssr:hovedgruppe" v="sjø" />
		<tag k="ssr:stedsnr" v="853629" />
		<tag k="ssr:type" v="grunneISjø" />
	</node>
	<node lat="59.31723055901484" lon="10.771347225271295" id="-26097">
		<tag k="name" v="Solsletta" />
		<tag k="place" v="isolated_dwelling" />
		<tag k="ssr:date" v="2019-12-27" />
		<tag k="ssr:gruppe" v="bolighus" />
		<tag k="ssr:hovedgruppe" v="bebyggelse" />
		<tag k="ssr:stedsnr" v="913417" />
		<tag k="ssr:type" v="fritidsbolig" />
	</node>
	<node lat="59.31907924443444" lon="10.803403662169732" id="-26098">
		<tag k="alt_name" v="Tomb" />
		<tag k="name" v="Tom" />
		<tag k="place" v="village" />
		<tag k="ssr:date" v="2022-06-07" />
		<tag k="ssr:gruppe" v="bebyggelsesområder" />
		<tag k="ssr:hovedgruppe" v="bebyggelse" />
		<tag k="ssr:stedsnr" v="913431" />
		<tag k="ssr:type" v="tettsted" />
	</node>
	<node lat="59.29598610684705" lon="10.738050001977925" id="-26099">
		<tag k="name" v="Svenskehausen" />
		<tag k="natural" v="shoal" />
		<tag k="place" v="locality" />
		<tag k="ssr:date" v="2019-12-27" />
		<tag k="ssr:gruppe" v="grunnerISjø" />
		<tag k="ssr:hovedgruppe" v="sjø" />
		<tag k="ssr:stedsnr" v="874820" />
		<tag k="ssr:type" v="grunneISjø" />
	</node>
	<node lat="59.30965555892495" lon="10.762047229774998" id="-26100">
		<tag k="name" v="Båsane" />
		<tag k="natural" v="cape" />
		<tag k="ssr:date" v="2019-12-27" />
		<tag k="ssr:gruppe" v="kystkontur" />
		<tag k="ssr:hovedgruppe" v="sjø" />
		<tag k="ssr:stedsnr" v="874778" />
		<tag k="ssr:type" v="nesISjø" />
	</node>
	<node lat="59.338264765254095" lon="10.763875794175474" id="-26101">
		<tag k="alt_name" v="Tasken nordre" />
		<tag k="name" v="Nordre Tasken" />
		<tag k="place" v="farm" />
		<tag k="ssr:date" v="2020-08-11" />
		<tag k="ssr:gruppe" v="gardsbebyggelse" />
		<tag k="ssr:hovedgruppe" v="bebyggelse" />
		<tag k="ssr:stedsnr" v="906917" />
		<tag k="ssr:type" v="gard" />
	</node>
	<node lat="59.340466662718114" lon="10.882127772206792" id="-26102">
		<tag k="name" v="Lunder" />
		<tag k="place" v="farm" />
		<tag k="ssr:date" v="2019-12-27" />
		<tag k="ssr:gruppe" v="gardsbebyggelse" />
		<tag k="ssr:hovedgruppe" v="bebyggelse" />
		<tag k="ssr:stedsnr" v="912505" />
		<tag k="ssr:type" v="bruk" />
	</node>
	<node lat="59.34314444290037" lon="10.852430549562454" id="-26103">
		<tag k="alt_name" v="Hafeld" />
		<tag k="name" v="Hafell" />
		<tag k="place" v="farm" />
		<tag k="ssr:date" v="2019-12-27" />
		<tag k="ssr:gruppe" v="gardsbebyggelse" />
		<tag k="ssr:hovedgruppe" v="bebyggelse" />
		<tag k="ssr:stedsnr" v="912507" />
		<tag k="ssr:type" v="bruk" />
	</node>
	<node lat="59.352159655541364" lon="10.832937650953397" id="-26104">
		<tag k="name" v="Elvestad" />
		<tag k="place" v="farm" />
		<tag k="ssr:date" v="2020-08-11" />
		<tag k="ssr:gruppe" v="gardsbebyggelse" />
		<tag k="ssr:hovedgruppe" v="bebyggelse" />
		<tag k="ssr:stedsnr" v="912514" />
		<tag k="ssr:type" v="navnegard" />
	</node>
	<node lat="59.34672465125962" lon="10.764491763952595" id="-26105">
		<tag k="alt_name" v="Viersholm" />
		<tag k="name" v="Viersholmen" />
		<tag k="place" v="farm" />
		<tag k="ssr:date" v="2020-08-12" />
		<tag k="ssr:gruppe" v="gardsbebyggelse" />
		<tag k="ssr:hovedgruppe" v="bebyggelse" />
		<tag k="ssr:stedsnr" v="912517" />
		<tag k="ssr:type" v="gard" />
	</node>
	<node lat="59.33431388696878" lon="10.800827781016041" id="-26106">
		<tag k="alt_name" v="Åker" />
		<tag k="name" v="Aker" />
		<tag k="place" v="farm" />
		<tag k="ssr:date" v="2020-08-11" />
		<tag k="ssr:gruppe" v="gardsbebyggelse" />
		<tag k="ssr:hovedgruppe" v="bebyggelse" />
		<tag k="ssr:stedsnr" v="913434" />
		<tag k="ssr:type" v="navnegard" />
	</node>
	<node lat="59.325539766802514" lon="10.806457359599664" id="-26107">
		<tag k="alt_name" v="Hauga;Krokstad" />
		<tag k="name" v="Haga" />
		<tag k="place" v="farm" />
		<tag k="ssr:date" v="2022-06-07" />
		<tag k="ssr:gruppe" v="gardsbebyggelse" />
		<tag k="ssr:hovedgruppe" v="bebyggelse" />
		<tag k="ssr:stedsnr" v="913441" />
		<tag k="ssr:type" v="bruk" />
	</node>
	<node lat="59.34485555570161" lon="10.926708338504872" id="-26108">
		<tag k="name" v="Sandbakken" />
		<tag k="place" v="locality" />
		<tag k="ssr:date" v="2019-12-27" />
		<tag k="ssr:gruppe" v="kulturminner" />
		<tag k="ssr:hovedgruppe" v="kultur" />
		<tag k="ssr:stedsnr" v="937408" />
		<tag k="ssr:type" v="annenKulturdetalj" />
	</node>
	<node lat="59.29093333026365" lon="10.833249994697997" id="-26109">
		<tag k="fixme" v="consider natural=peak for the most distinct mountains in the district" />
		<tag k="name" v="Ravneberg" />
		<tag k="natural" v="hill" />
		<tag k="place" v="locality" />
		<tag k="ssr:date" v="2019-12-27" />
		<tag k="ssr:gruppe" v="høyder" />
		<tag k="ssr:hovedgruppe" v="terreng" />
		<tag k="ssr:stedsnr" v="967789" />
		<tag k="ssr:type" v="ås" />
	</node>
	<node lat="59.37111110701176" lon="10.882383332027029" id="-26110">
		<tag k="name" v="Gåsholmen" />
		<tag k="place" v="islet" />
		<tag k="ssr:date" v="2019-12-27" />
		<tag k="ssr:gruppe" v="ferskvannskontur" />
		<tag k="ssr:hovedgruppe" v="ferskvann" />
		<tag k="ssr:stedsnr" v="968308" />
		<tag k="ssr:type" v="holme" />
	</node>
	<node lat="59.3891250017777" lon="10.945788881776025" id="-26111">
		<tag k="name" v="Høymyr" />
		<tag k="natural" v="wetland" />
		<tag k="ssr:date" v="2019-12-27" />
		<tag k="ssr:gruppe" v="våtmark" />
		<tag k="ssr:hovedgruppe" v="markslag" />
		<tag k="ssr:stedsnr" v="968599" />
		<tag k="ssr:type" v="myr" />
	</node>
	<node lat="59.38187778103594" lon="10.969072220415448" id="-26112">
		<tag k="name" v="Bruane" />
		<tag k="place" v="locality" />
		<tag k="ssr:date" v="2019-12-27" />
		<tag k="ssr:gruppe" v="vegetasjon" />
		<tag k="ssr:hovedgruppe" v="markslag" />
		<tag k="ssr:stedsnr" v="968600" />
		<tag k="ssr:type" v="skog" />
	</node>
	<node lat="59.30268451654243" lon="10.670210116732301" id="-26113">
		<tag k="name" v="Tuva" />
		<tag k="natural" v="hill" />
		<tag k="place" v="locality" />
		<tag k="ssr:date" v="2019-12-27" />
		<tag k="ssr:gruppe" v="høyder" />
		<tag k="ssr:hovedgruppe" v="terreng" />
		<tag k="ssr:stedsnr" v="987082" />
		<tag k="ssr:type" v="haug" />
	</node>
	<node lat="59.35777511038777" lon="10.789034166271119" id="-26114">
		<tag k="name" v="Stomner" />
		<tag k="place" v="farm" />
		<tag k="ssr:date" v="2020-08-12" />
		<tag k="ssr:gruppe" v="gardsbebyggelse" />
		<tag k="ssr:hovedgruppe" v="bebyggelse" />
		<tag k="ssr:stedsnr" v="2269" />
		<tag k="ssr:type" v="gard" />
	</node>
	<node lat="59.360721554765604" lon="10.821859128250411" id="-26115">
		<tag k="name" v="Haugsten" />
		<tag k="place" v="farm" />
		<tag k="ssr:date" v="2020-08-11" />
		<tag k="ssr:gruppe" v="gardsbebyggelse" />
		<tag k="ssr:hovedgruppe" v="bebyggelse" />
		<tag k="ssr:stedsnr" v="2272" />
		<tag k="ssr:type" v="navnegard" />
	</node>
	<node lat="59.34711944515223" lon="10.96670277951327" id="-26116">
		<tag k="alt_name" v="Isebakktjernet" />
		<tag k="name" v="Isebakktjern" />
		<tag k="natural" v="water" />
		<tag k="ssr:date" v="2019-12-27" />
		<tag k="ssr:gruppe" v="stilleståendeVann" />
		<tag k="ssr:hovedgruppe" v="ferskvann" />
		<tag k="ssr:stedsnr" v="2518" />
		<tag k="ssr:type" v="tjern" />
	</node>
	<node lat="59.323053024405716" lon="10.936547615350607" id="-26117">
		<tag k="name" v="Finstad" />
		<tag k="place" v="farm" />
		<tag k="ssr:date" v="2020-08-12" />
		<tag k="ssr:gruppe" v="gardsbebyggelse" />
		<tag k="ssr:hovedgruppe" v="bebyggelse" />
		<tag k="ssr:stedsnr" v="2452" />
		<tag k="ssr:type" v="gard" />
	</node>
	<node lat="59.328532026341804" lon="10.930764308540681" id="-26118">
		<tag k="name" v="Ileby" />
		<tag k="place" v="farm" />
		<tag k="ssr:date" v="2020-08-11" />
		<tag k="ssr:gruppe" v="gardsbebyggelse" />
		<tag k="ssr:hovedgruppe" v="bebyggelse" />
		<tag k="ssr:stedsnr" v="2473" />
		<tag k="ssr:type" v="gard" />
	</node>
	<node lat="59.30172500186597" lon="10.667327781566163" id="-26119">
		<tag k="name" v="Store Sletter" />
		<tag k="place" v="island" />
		<tag k="ssr:date" v="2021-06-08" />
		<tag k="ssr:gruppe" v="kystkontur" />
		<tag k="ssr:hovedgruppe" v="sjø" />
		<tag k="ssr:stedsnr" v="2665" />
		<tag k="ssr:type" v="øyISjø" />
	</node>
	<node lat="59.29017222153215" lon="10.733486105211819" id="-26120">
		<tag k="name" v="Saltholmhausen" />
		<tag k="natural" v="shoal" />
		<tag k="place" v="locality" />
		<tag k="ssr:date" v="2019-12-27" />
		<tag k="ssr:gruppe" v="grunnerISjø" />
		<tag k="ssr:hovedgruppe" v="sjø" />
		<tag k="ssr:stedsnr" v="24788" />
		<tag k="ssr:type" v="grunneISjø" />
	</node>
	<node lat="59.312257969159546" lon="10.79163027625803" id="-26121">
		<tag k="name" v="Sandvegen" />
		<tag k="place" v="farm" />
		<tag k="ssr:date" v="2019-12-27" />
		<tag k="ssr:gruppe" v="gardsbebyggelse" />
		<tag k="ssr:hovedgruppe" v="bebyggelse" />
		<tag k="ssr:stedsnr" v="28840" />
		<tag k="ssr:type" v="bruk" />
	</node>
	<node lat="59.308591663991436" lon="10.775194446724479" id="-26122">
		<tag k="alt_name" v="Makrelskjæret" />
		<tag k="fixme" v="consider seamark:type=rock or natural=shoal" />
		<tag k="name" v="Makrellskjær" />
		<tag k="place" v="islet" />
		<tag k="ssr:date" v="2019-12-27" />
		<tag k="ssr:gruppe" v="grunnerISjø" />
		<tag k="ssr:hovedgruppe" v="sjø" />
		<tag k="ssr:stedsnr" v="28844" />
		<tag k="ssr:type" v="skjærISjø" />
	</node>
	<node lat="59.323858332126825" lon="10.803333336057282" id="-26123">
		<tag k="man_made" v="quay" />
		<tag k="name" v="Tomb brygge" />
		<tag k="place" v="locality" />
		<tag k="ssr:date" v="2019-12-27" />
		<tag k="ssr:gruppe" v="sjøfart" />
		<tag k="ssr:hovedgruppe" v="infrastruktur" />
		<tag k="ssr:stedsnr" v="56545" />
		<tag k="ssr:type" v="brygge" />
	</node>
	<node lat="59.29534800745136" lon="10.774342873479851" id="-26124">
		<tag k="name" v="Andersrød" />
		<tag k="place" v="farm" />
		<tag k="ssr:date" v="2020-08-12" />
		<tag k="ssr:gruppe" v="gardsbebyggelse" />
		<tag k="ssr:hovedgruppe" v="bebyggelse" />
		<tag k="ssr:stedsnr" v="56546" />
		<tag k="ssr:type" v="gard" />
	</node>
	<node lat="59.30718888588225" lon="10.812288891862869" id="-26125">
		<tag k="name" v="Jerndalen" />
		<tag k="natural" v="valley" />
		<tag k="place" v="locality" />
		<tag k="ssr:date" v="2019-12-27" />
		<tag k="ssr:gruppe" v="senkninger" />
		<tag k="ssr:hovedgruppe" v="terreng" />
		<tag k="ssr:stedsnr" v="56550" />
		<tag k="ssr:type" v="dal" />
	</node>
	<node lat="59.30653055722574" lon="10.826113884811358" id="-26126">
		<tag k="name" v="Tombdalen" />
		<tag k="natural" v="valley" />
		<tag k="place" v="locality" />
		<tag k="ssr:date" v="2019-12-27" />
		<tag k="ssr:gruppe" v="senkninger" />
		<tag k="ssr:hovedgruppe" v="terreng" />
		<tag k="ssr:stedsnr" v="56552" />
		<tag k="ssr:type" v="dal" />
	</node>
	<node lat="59.31086110980064" lon="10.880913885122403" id="-26127">
		<tag k="name" v="Kongsrød" />
		<tag k="place" v="farm" />
		<tag k="ssr:date" v="2019-12-27" />
		<tag k="ssr:gruppe" v="gardsbebyggelse" />
		<tag k="ssr:hovedgruppe" v="bebyggelse" />
		<tag k="ssr:stedsnr" v="56895" />
		<tag k="ssr:type" v="bruk" />
	</node>
	<node lat="59.32228193355226" lon="10.758698023102781" id="-26128">
		<tag k="alt_name" v="Fuglevik søndre" />
		<tag k="name" v="Søndre Fuglevik" />
		<tag k="place" v="farm" />
		<tag k="ssr:date" v="2019-12-27" />
		<tag k="ssr:gruppe" v="gardsbebyggelse" />
		<tag k="ssr:hovedgruppe" v="bebyggelse" />
		<tag k="ssr:stedsnr" v="56978" />
		<tag k="ssr:type" v="bruk" />
	</node>
	<node lat="59.375397224560814" lon="10.949633335013035" id="-26129">
		<tag k="alt_name" v="Leiedalen nordre" />
		<tag k="name" v="Nordre Leiedalen" />
		<tag k="place" v="farm" />
		<tag k="ssr:date" v="2019-12-27" />
		<tag k="ssr:gruppe" v="gardsbebyggelse" />
		<tag k="ssr:hovedgruppe" v="bebyggelse" />
		<tag k="ssr:stedsnr" v="58600" />
		<tag k="ssr:type" v="bruk" />
	</node>
	<node lat="59.3559805535163" lon="10.877111113505057" id="-26130">
		<tag k="name" v="Halvorsrød" />
		<tag k="place" v="farm" />
		<tag k="ssr:date" v="2019-12-27" />
		<tag k="ssr:gruppe" v="gardsbebyggelse" />
		<tag k="ssr:hovedgruppe" v="bebyggelse" />
		<tag k="ssr:stedsnr" v="58300" />
		<tag k="ssr:type" v="bruk" />
	</node>
	<node lat="59.33254732768496" lon="10.873349554090634" id="-26131">
		<tag k="alt_name" v="Auberg" />
		<tag k="name" v="Augeberg" />
		<tag k="place" v="farm" />
		<tag k="ssr:date" v="2019-12-27" />
		<tag k="ssr:gruppe" v="gardsbebyggelse" />
		<tag k="ssr:hovedgruppe" v="bebyggelse" />
		<tag k="ssr:stedsnr" v="58856" />
		<tag k="ssr:type" v="bruk" />
	</node>
	<node lat="59.32217500092219" lon="10.792647218997256" id="-26132">
		<tag k="alt_name" v="Torkelstad" />
		<tag k="name" v="Torkilstad" />
		<tag k="place" v="farm" />
		<tag k="ssr:date" v="2019-12-27" />
		<tag k="ssr:gruppe" v="gardsbebyggelse" />
		<tag k="ssr:hovedgruppe" v="bebyggelse" />
		<tag k="ssr:stedsnr" v="63469" />
		<tag k="ssr:type" v="bruk" />
	</node>
	<node lat="59.334119446749504" lon="10.889138892381899" id="-26133">
		<tag k="alt_name" v="Salby" />
		<tag k="name" v="Salbu" />
		<tag k="place" v="farm" />
		<tag k="ssr:date" v="2019-12-27" />
		<tag k="ssr:gruppe" v="gardsbebyggelse" />
		<tag k="ssr:hovedgruppe" v="bebyggelse" />
		<tag k="ssr:stedsnr" v="63490" />
		<tag k="ssr:type" v="bruk" />
	</node>
	<node lat="59.334150208316544" lon="10.812225380226105" id="-26134">
		<tag k="alt_name" v="Hauga" />
		<tag k="name" v="Haga" />
		<tag k="place" v="farm" />
		<tag k="ssr:date" v="2022-06-07" />
		<tag k="ssr:gruppe" v="gardsbebyggelse" />
		<tag k="ssr:hovedgruppe" v="bebyggelse" />
		<tag k="ssr:stedsnr" v="63494" />
		<tag k="ssr:type" v="gard" />
	</node>
	<node lat="59.31014999713079" lon="10.88098056280454" id="-26135">
		<tag k="name" v="Kongsveien" />
		<tag k="place" v="farm" />
		<tag k="ssr:date" v="2019-12-27" />
		<tag k="ssr:gruppe" v="gardsbebyggelse" />
		<tag k="ssr:hovedgruppe" v="bebyggelse" />
		<tag k="ssr:stedsnr" v="63455" />
		<tag k="ssr:type" v="bruk" />
	</node>
	<node lat="59.347603840515845" lon="10.90528373957965" id="-26136">
		<tag k="name" v="Lundeby" />
		<tag k="place" v="farm" />
		<tag k="ssr:date" v="2020-08-11" />
		<tag k="ssr:gruppe" v="gardsbebyggelse" />
		<tag k="ssr:hovedgruppe" v="bebyggelse" />
		<tag k="ssr:stedsnr" v="63526" />
		<tag k="ssr:type" v="navnegard" />
	</node>
	<node lat="59.362775002616544" lon="10.956152775021364" id="-26137">
		<tag k="name" v="Kleiva" />
		<tag k="place" v="farm" />
		<tag k="ssr:date" v="2019-12-27" />
		<tag k="ssr:gruppe" v="gardsbebyggelse" />
		<tag k="ssr:hovedgruppe" v="bebyggelse" />
		<tag k="ssr:stedsnr" v="63296" />
		<tag k="ssr:type" v="bruk" />
	</node>
	<node lat="59.280286108381" lon="10.677038884981194" id="-26138">
		<tag k="name" v="Søndre Sletter" />
		<tag k="place" v="islet" />
		<tag k="ssr:date" v="2021-06-08" />
		<tag k="ssr:gruppe" v="kystkontur" />
		<tag k="ssr:hovedgruppe" v="sjø" />
		<tag k="ssr:stedsnr" v="64638" />
		<tag k="ssr:type" v="holmeISjø" />
	</node>
	<node lat="59.340630555281145" lon="10.96355277404996" id="-26139">
		<tag k="fixme" v="consider natural=peak for the most distinct mountains in the district" />
		<tag k="name" v="Gullikås" />
		<tag k="natural" v="hill" />
		<tag k="place" v="locality" />
		<tag k="ssr:date" v="2019-12-27" />
		<tag k="ssr:gruppe" v="høyder" />
		<tag k="ssr:hovedgruppe" v="terreng" />
		<tag k="ssr:stedsnr" v="113361" />
		<tag k="ssr:type" v="ås" />
	</node>
	<node lat="59.29799444885356" lon="10.784824994708947" id="-26140">
		<tag k="name" v="Andersrød" />
		<tag k="place" v="farm" />
		<tag k="ssr:date" v="2019-12-27" />
		<tag k="ssr:gruppe" v="gardsbebyggelse" />
		<tag k="ssr:hovedgruppe" v="bebyggelse" />
		<tag k="ssr:stedsnr" v="117546" />
		<tag k="ssr:type" v="bruk" />
	</node>
	<node lat="59.34377499962704" lon="10.777677785795092" id="-26141">
		<tag k="name" v="Heia" />
		<tag k="place" v="farm" />
		<tag k="ssr:date" v="2019-12-27" />
		<tag k="ssr:gruppe" v="gardsbebyggelse" />
		<tag k="ssr:hovedgruppe" v="bebyggelse" />
		<tag k="ssr:stedsnr" v="117924" />
		<tag k="ssr:type" v="bruk" />
	</node>
	<node lat="59.31334999752868" lon="10.911166657991066" id="-26142">
		<tag k="alt_name" v="Reklingsholm østre" />
		<tag k="name" v="Østre Reklingsholm" />
		<tag k="place" v="farm" />
		<tag k="ssr:date" v="2019-12-27" />
		<tag k="ssr:gruppe" v="gardsbebyggelse" />
		<tag k="ssr:hovedgruppe" v="bebyggelse" />
		<tag k="ssr:stedsnr" v="117888" />
		<tag k="ssr:type" v="bruk" />
	</node>
	<node lat="59.33915833257617" lon="10.853711103955357" id="-26143">
		<tag k="fixme" v="consider natural=peak for the most distinct mountains in the district" />
		<tag k="name" v="Strømnesfjellet" />
		<tag k="natural" v="hill" />
		<tag k="place" v="locality" />
		<tag k="ssr:date" v="2019-12-27" />
		<tag k="ssr:gruppe" v="høyder" />
		<tag k="ssr:hovedgruppe" v="terreng" />
		<tag k="ssr:stedsnr" v="118353" />
		<tag k="ssr:type" v="ås" />
	</node>
	<node lat="59.34819167100981" lon="10.895236105509982" id="-26144">
		<tag k="name" v="Kirkebø" />
		<tag k="place" v="farm" />
		<tag k="ssr:date" v="2019-12-27" />
		<tag k="ssr:gruppe" v="gardsbebyggelse" />
		<tag k="ssr:hovedgruppe" v="bebyggelse" />
		<tag k="ssr:stedsnr" v="118363" />
		<tag k="ssr:type" v="bruk" />
	</node>
	<node lat="59.34975833058139" lon="10.86382221685664" id="-26145">
		<tag k="name" v="Skråtorp" />
		<tag k="place" v="farm" />
		<tag k="ssr:date" v="2019-12-27" />
		<tag k="ssr:gruppe" v="gardsbebyggelse" />
		<tag k="ssr:hovedgruppe" v="bebyggelse" />
		<tag k="ssr:stedsnr" v="118364" />
		<tag k="ssr:type" v="bruk" />
	</node>
	<node lat="59.31746111081925" lon="10.917916659406476" id="-26146">
		<tag k="name" v="Elverhøy" />
		<tag k="place" v="farm" />
		<tag k="ssr:date" v="2019-12-27" />
		<tag k="ssr:gruppe" v="gardsbebyggelse" />
		<tag k="ssr:hovedgruppe" v="bebyggelse" />
		<tag k="ssr:stedsnr" v="118750" />
		<tag k="ssr:type" v="bruk" />
	</node>
	<node lat="59.31429167028531" lon="10.866572222675359" id="-26147">
		<tag k="name" v="Hissingby" />
		<tag k="place" v="farm" />
		<tag k="ssr:date" v="2019-12-27" />
		<tag k="ssr:gruppe" v="gardsbebyggelse" />
		<tag k="ssr:hovedgruppe" v="bebyggelse" />
		<tag k="ssr:stedsnr" v="118859" />
		<tag k="ssr:type" v="bruk" />
	</node>
	<node lat="59.336808279305444" lon="10.844508480448026" id="-26148">
		<tag k="name" v="Husbakke" />
		<tag k="place" v="farm" />
		<tag k="ssr:date" v="2020-08-12" />
		<tag k="ssr:gruppe" v="gardsbebyggelse" />
		<tag k="ssr:hovedgruppe" v="bebyggelse" />
		<tag k="ssr:stedsnr" v="123530" />
		<tag k="ssr:type" v="gard" />
	</node>
	<node lat="59.341766465906844" lon="10.889380876066438" id="-26149">
		<tag k="name" v="Prestegården" />
		<tag k="place" v="farm" />
		<tag k="ssr:date" v="2020-08-12" />
		<tag k="ssr:gruppe" v="gardsbebyggelse" />
		<tag k="ssr:hovedgruppe" v="bebyggelse" />
		<tag k="ssr:stedsnr" v="123534" />
		<tag k="ssr:type" v="gard" />
	</node>
	<node lat="59.3468197748315" lon="10.891031751057335" id="-26150">
		<tag k="name" v="Kåpegot" />
		<tag k="place" v="farm" />
		<tag k="ssr:date" v="2020-08-12" />
		<tag k="ssr:gruppe" v="gardsbebyggelse" />
		<tag k="ssr:hovedgruppe" v="bebyggelse" />
		<tag k="ssr:stedsnr" v="123547" />
		<tag k="ssr:type" v="gard" />
	</node>
	<node lat="59.317893155633335" lon="10.738438337323222" id="-26151">
		<tag k="name" v="Åven" />
		<tag k="place" v="farm" />
		<tag k="ssr:date" v="2020-08-12" />
		<tag k="ssr:gruppe" v="gardsbebyggelse" />
		<tag k="ssr:hovedgruppe" v="bebyggelse" />
		<tag k="ssr:stedsnr" v="123498" />
		<tag k="ssr:type" v="gard" />
	</node>
	<node lat="59.32635833271713" lon="10.732949995146" id="-26152">
		<tag k="name" v="Knappholmene" />
		<tag k="place" v="islet" />
		<tag k="ssr:date" v="2021-06-08" />
		<tag k="ssr:gruppe" v="kystkontur" />
		<tag k="ssr:hovedgruppe" v="sjø" />
		<tag k="ssr:stedsnr" v="123501" />
		<tag k="ssr:type" v="holmegruppeISjø" />
	</node>
	<node lat="59.37511944666422" lon="10.964544435829772" id="-26153">
		<tag k="name" v="Gullhaug" />
		<tag k="place" v="farm" />
		<tag k="ssr:date" v="2019-12-27" />
		<tag k="ssr:gruppe" v="gardsbebyggelse" />
		<tag k="ssr:hovedgruppe" v="bebyggelse" />
		<tag k="ssr:stedsnr" v="124227" />
		<tag k="ssr:type" v="bruk" />
	</node>
	<node lat="59.29924722197638" lon="10.741491660377108" id="-26155">
		<tag k="fixme" v="consider seamark:type=rock or natural=shoal" />
		<tag k="name" v="Vrangbeinskjæret" />
		<tag k="place" v="islet" />
		<tag k="ssr:date" v="2019-12-27" />
		<tag k="ssr:gruppe" v="grunnerISjø" />
		<tag k="ssr:hovedgruppe" v="sjø" />
		<tag k="ssr:stedsnr" v="145824" />
		<tag k="ssr:type" v="skjærISjø" />
	</node>
	<node lat="59.29245833675093" lon="10.75056667363919" id="-26156">
		<tag k="name" v="Rubingen" />
		<tag k="natural" v="bay" />
		<tag k="ssr:date" v="2019-12-27" />
		<tag k="ssr:gruppe" v="kystkontur" />
		<tag k="ssr:hovedgruppe" v="sjø" />
		<tag k="ssr:stedsnr" v="149809" />
		<tag k="ssr:type" v="vikISjø" />
	</node>
	<node lat="59.37071666403597" lon="10.816502768846883" id="-26157">
		<tag k="fixme" v="verify maritime location" />
		<tag k="mooring" v="yes" />
		<tag k="name" v="Grimstadstøa" />
		<tag k="place" v="locality" />
		<tag k="ssr:date" v="2019-12-27" />
		<tag k="ssr:gruppe" v="sjøfart" />
		<tag k="ssr:hovedgruppe" v="infrastruktur" />
		<tag k="ssr:stedsnr" v="177886" />
		<tag k="ssr:type" v="stø" />
	</node>
	<node lat="59.36698055313356" lon="10.804108339339777" id="-26158">
		<tag k="name" v="Nygård" />
		<tag k="place" v="farm" />
		<tag k="ssr:date" v="2019-12-27" />
		<tag k="ssr:gruppe" v="gardsbebyggelse" />
		<tag k="ssr:hovedgruppe" v="bebyggelse" />
		<tag k="ssr:stedsnr" v="177888" />
		<tag k="ssr:type" v="bruk" />
	</node>
	<node lat="59.305002778421645" lon="10.835605555992899" id="-26159">
		<tag k="name" v="Hasledalen" />
		<tag k="natural" v="valley" />
		<tag k="place" v="locality" />
		<tag k="ssr:date" v="2019-12-27" />
		<tag k="ssr:gruppe" v="senkninger" />
		<tag k="ssr:hovedgruppe" v="terreng" />
		<tag k="ssr:stedsnr" v="179828" />
		<tag k="ssr:type" v="dal" />
	</node>
	<node lat="59.31456944383027" lon="10.87154167003589" id="-26160">
		<tag k="alt_name" v="Hissingby mellem" />
		<tag k="name" v="Mellom-Hissingby" />
		<tag k="place" v="farm" />
		<tag k="ssr:date" v="2019-12-27" />
		<tag k="ssr:gruppe" v="gardsbebyggelse" />
		<tag k="ssr:hovedgruppe" v="bebyggelse" />
		<tag k="ssr:stedsnr" v="179874" />
		<tag k="ssr:type" v="bruk" />
	</node>
	<node lat="59.368055552515145" lon="10.804655562333084" id="-26161">
		<tag k="name" v="Ramyr" />
		<tag k="place" v="farm" />
		<tag k="ssr:date" v="2019-12-27" />
		<tag k="ssr:gruppe" v="gardsbebyggelse" />
		<tag k="ssr:hovedgruppe" v="bebyggelse" />
		<tag k="ssr:stedsnr" v="184261" />
		<tag k="ssr:type" v="bruk" />
	</node>
	<node lat="59.31658714579219" lon="10.780868696734629" id="-26162">
		<tag k="name" v="Krokstadfjorden" />
		<tag k="natural" v="bay" />
		<tag k="ssr:date" v="2022-08-05" />
		<tag k="ssr:gruppe" v="kystkontur" />
		<tag k="ssr:hovedgruppe" v="sjø" />
		<tag k="ssr:stedsnr" v="184424" />
		<tag k="ssr:type" v="vikISjø" />
	</node>
	<node lat="59.325789890077" lon="10.874337799459003" id="-26163">
		<tag k="name" v="Musangen" />
		<tag k="place" v="farm" />
		<tag k="ssr:date" v="2020-08-11" />
		<tag k="ssr:gruppe" v="gardsbebyggelse" />
		<tag k="ssr:hovedgruppe" v="bebyggelse" />
		<tag k="ssr:stedsnr" v="184479" />
		<tag k="ssr:type" v="navnegard" />
	</node>
	<node lat="59.32796745031976" lon="10.911772438710193" id="-26164">
		<tag k="name" v="Revhaug" />
		<tag k="place" v="farm" />
		<tag k="ssr:date" v="2020-08-12" />
		<tag k="ssr:gruppe" v="gardsbebyggelse" />
		<tag k="ssr:hovedgruppe" v="bebyggelse" />
		<tag k="ssr:stedsnr" v="184459" />
		<tag k="ssr:type" v="navnegard" />
	</node>
	<node lat="59.32969166427341" lon="10.73835832879616" id="-26165">
		<tag k="name" v="Kurefjorden" />
		<tag k="natural" v="bay" />
		<tag k="ssr:date" v="2019-12-27" />
		<tag k="ssr:gruppe" v="kystkontur" />
		<tag k="ssr:hovedgruppe" v="sjø" />
		<tag k="ssr:stedsnr" v="184616" />
		<tag k="ssr:type" v="vikISjø" />
	</node>
	<node lat="59.35113729810823" lon="10.916192562069234" id="-26166">
		<tag k="name" v="Borge" />
		<tag k="place" v="farm" />
		<tag k="ssr:date" v="2020-08-11" />
		<tag k="ssr:gruppe" v="gardsbebyggelse" />
		<tag k="ssr:hovedgruppe" v="bebyggelse" />
		<tag k="ssr:stedsnr" v="184505" />
		<tag k="ssr:type" v="gard" />
	</node>
	<node lat="59.29172777534461" lon="10.69462500105556" id="-26167">
		<tag k="name" v="Åletitten" />
		<tag k="natural" v="shoal" />
		<tag k="place" v="locality" />
		<tag k="ssr:date" v="2019-12-27" />
		<tag k="ssr:gruppe" v="grunnerISjø" />
		<tag k="ssr:hovedgruppe" v="sjø" />
		<tag k="ssr:stedsnr" v="184658" />
		<tag k="ssr:type" v="grunneISjø" />
	</node>
	<node lat="59.362175932568526" lon="10.811665867285392" id="-26168">
		<tag k="name" v="Grimstad" />
		<tag k="place" v="farm" />
		<tag k="ssr:date" v="2020-08-11" />
		<tag k="ssr:gruppe" v="gardsbebyggelse" />
		<tag k="ssr:hovedgruppe" v="bebyggelse" />
		<tag k="ssr:stedsnr" v="185249" />
		<tag k="ssr:type" v="navnegard" />
	</node>
	<node lat="59.36618333746443" lon="10.966719452486094" id="-26169">
		<tag k="alt_name" v="Fensbekk" />
		<tag k="name" v="Finnsbekk" />
		<tag k="place" v="farm" />
		<tag k="ssr:date" v="2019-12-27" />
		<tag k="ssr:gruppe" v="gardsbebyggelse" />
		<tag k="ssr:hovedgruppe" v="bebyggelse" />
		<tag k="ssr:stedsnr" v="185259" />
		<tag k="ssr:type" v="bruk" />
	</node>
	<node lat="59.32355277886308" lon="10.884841668503952" id="-26170">
		<tag k="bridge" v="yes" />
		<tag k="layer" v="1" />
		<tag k="name" v="Enebekk" />
		<tag k="ssr:date" v="2019-12-27" />
		<tag k="ssr:gruppe" v="samferdselsanlegg" />
		<tag k="ssr:hovedgruppe" v="infrastruktur" />
		<tag k="ssr:stedsnr" v="289535" />
		<tag k="ssr:type" v="bru" />
	</node>
	<node lat="59.305172224317886" lon="10.785394440208021" id="-26171">
		<tag k="name" v="Andersrød" />
		<tag k="place" v="farm" />
		<tag k="ssr:date" v="2019-12-27" />
		<tag k="ssr:gruppe" v="gardsbebyggelse" />
		<tag k="ssr:hovedgruppe" v="bebyggelse" />
		<tag k="ssr:stedsnr" v="299545" />
		<tag k="ssr:type" v="bruk" />
	</node>
	<node lat="59.29565832895216" lon="10.664044442428004" id="-26172">
		<tag k="fixme" v="consider boundary=protected_area and relevant protect_class if not nature reserve" />
		<tag k="leisure" v="nature_reserve" />
		<tag k="name" v="Vesle Sletter naturreservat" />
		<tag k="ssr:date" v="2019-12-27" />
		<tag k="ssr:gruppe" v="verne-OgBruksområder" />
		<tag k="ssr:hovedgruppe" v="offentligAdministrasjon" />
		<tag k="ssr:stedsnr" v="299557" />
		<tag k="ssr:type" v="verneområde" />
	</node>
	<node lat="59.316528476432104" lon="10.783250986130609" id="-26173">
		<tag k="fixme" v="consider boundary=protected_area and relevant protect_class if not nature reserve" />
		<tag k="leisure" v="nature_reserve" />
		<tag k="name" v="Kråkstadfjorden naturreservat" />
		<tag k="ssr:date" v="2022-06-07" />
		<tag k="ssr:gruppe" v="verne-OgBruksområder" />
		<tag k="ssr:hovedgruppe" v="offentligAdministrasjon" />
		<tag k="ssr:stedsnr" v="299558" />
		<tag k="ssr:type" v="verneområde" />
	</node>
	<node lat="59.31412777532628" lon="10.797669439708612" id="-26174">
		<tag k="name" v="Hestevoll" />
		<tag k="place" v="farm" />
		<tag k="ssr:date" v="2019-12-27" />
		<tag k="ssr:gruppe" v="gardsbebyggelse" />
		<tag k="ssr:hovedgruppe" v="bebyggelse" />
		<tag k="ssr:stedsnr" v="299535" />
		<tag k="ssr:type" v="bruk" />
	</node>
	<node lat="59.32536944499466" lon="10.756644442352249" id="-26175">
		<tag k="fixme" v="consider natural=peak for the most distinct mountains in the district" />
		<tag k="name" v="Vestre Åsen" />
		<tag k="natural" v="hill" />
		<tag k="place" v="locality" />
		<tag k="ssr:date" v="2019-12-27" />
		<tag k="ssr:gruppe" v="høyder" />
		<tag k="ssr:hovedgruppe" v="terreng" />
		<tag k="ssr:stedsnr" v="299955" />
		<tag k="ssr:type" v="ås" />
	</node>
	<node lat="59.360083337330096" lon="10.9088333327751" id="-26176">
		<tag k="fixme" v="consider natural=peak for the most distinct mountains in the district" />
		<tag k="name" v="Fugleleiken" />
		<tag k="natural" v="hill" />
		<tag k="place" v="locality" />
		<tag k="ssr:date" v="2019-12-27" />
		<tag k="ssr:gruppe" v="høyder" />
		<tag k="ssr:hovedgruppe" v="terreng" />
		<tag k="ssr:stedsnr" v="300274" />
		<tag k="ssr:type" v="ås" />
	</node>
	<node lat="59.36224999980702" lon="10.95181667291102" id="-26177">
		<tag k="name" v="Engen" />
		<tag k="place" v="farm" />
		<tag k="ssr:date" v="2019-12-27" />
		<tag k="ssr:gruppe" v="gardsbebyggelse" />
		<tag k="ssr:hovedgruppe" v="bebyggelse" />
		<tag k="ssr:stedsnr" v="300574" />
		<tag k="ssr:type" v="bruk" />
	</node>
	<node lat="59.36733611219193" lon="10.945669447720562" id="-26178">
		<tag k="fixme" v="consider natural=peak for the most distinct mountains in the district" />
		<tag k="name" v="Langklo" />
		<tag k="natural" v="hill" />
		<tag k="place" v="locality" />
		<tag k="ssr:date" v="2019-12-27" />
		<tag k="ssr:gruppe" v="høyder" />
		<tag k="ssr:hovedgruppe" v="terreng" />
		<tag k="ssr:stedsnr" v="300581" />
		<tag k="ssr:type" v="ås" />
	</node>
	<node lat="59.34689166524108" lon="10.965358324661691" id="-26179">
		<tag k="name" v="Staringa" />
		<tag k="place" v="islet" />
		<tag k="ssr:date" v="2019-12-27" />
		<tag k="ssr:gruppe" v="ferskvannskontur" />
		<tag k="ssr:hovedgruppe" v="ferskvann" />
		<tag k="ssr:stedsnr" v="300584" />
		<tag k="ssr:type" v="holme" />
	</node>
	<node lat="59.34627023256028" lon="10.787044520970248" id="-26180">
		<tag k="name" v="Myra" />
		<tag k="place" v="farm" />
		<tag k="ssr:date" v="2020-08-11" />
		<tag k="ssr:gruppe" v="gardsbebyggelse" />
		<tag k="ssr:hovedgruppe" v="bebyggelse" />
		<tag k="ssr:stedsnr" v="305519" />
		<tag k="ssr:type" v="gard" />
	</node>
	<node lat="59.30508889154203" lon="10.723436103876463" id="-26181">
		<tag k="name" v="Åventangen" />
		<tag k="place" v="isolated_dwelling" />
		<tag k="ssr:date" v="2019-12-27" />
		<tag k="ssr:gruppe" v="bolighus" />
		<tag k="ssr:hovedgruppe" v="bebyggelse" />
		<tag k="ssr:stedsnr" v="306400" />
		<tag k="ssr:type" v="fritidsbolig" />
	</node>
	<node lat="59.36328610714978" lon="10.871972217738422" id="-26182">
		<tag k="alt_name" v="Starengen" />
		<tag k="name" v="Starenga" />
		<tag k="place" v="farm" />
		<tag k="ssr:date" v="2019-12-27" />
		<tag k="ssr:gruppe" v="gardsbebyggelse" />
		<tag k="ssr:hovedgruppe" v="bebyggelse" />
		<tag k="ssr:stedsnr" v="306245" />
		<tag k="ssr:type" v="bruk" />
	</node>
	<node lat="59.330142993583614" lon="10.82224811564503" id="-26183">
		<tag k="name" v="Sønsterød" />
		<tag k="place" v="farm" />
		<tag k="ssr:date" v="2020-08-12" />
		<tag k="ssr:gruppe" v="gardsbebyggelse" />
		<tag k="ssr:hovedgruppe" v="bebyggelse" />
		<tag k="ssr:stedsnr" v="306440" />
		<tag k="ssr:type" v="gard" />
	</node>
	<node lat="59.29552709538159" lon="10.715235764419146" id="-26184">
		<tag k="bay" v="fjord" />
		<tag k="name" v="Krokstadleira" />
		<tag k="natural" v="bay" />
		<tag k="ssr:date" v="2022-08-05" />
		<tag k="ssr:gruppe" v="farvann" />
		<tag k="ssr:hovedgruppe" v="sjø" />
		<tag k="ssr:stedsnr" v="331883" />
		<tag k="ssr:type" v="fjord" />
	</node>
	<node lat="59.389394447791254" lon="10.816269447103082" id="-26185">
		<tag k="name" v="Brandenborg" />
		<tag k="place" v="locality" />
		<tag k="ssr:date" v="2019-12-27" />
		<tag k="ssr:gruppe" v="kulturminner" />
		<tag k="ssr:hovedgruppe" v="kultur" />
		<tag k="ssr:stedsnr" v="359886" />
		<tag k="ssr:type" v="annenKulturdetalj" />
	</node>
	<node lat="59.324516668556825" lon="10.812963891563308" id="-26186">
		<tag k="name" v="Verkens lund" />
		<tag k="place" v="locality" />
		<tag k="ssr:date" v="2019-12-27" />
		<tag k="ssr:gruppe" v="kulturminner" />
		<tag k="ssr:hovedgruppe" v="kultur" />
		<tag k="ssr:stedsnr" v="359536" />
		<tag k="ssr:type" v="annenKulturdetalj" />
	</node>
	<node lat="59.35940278105867" lon="10.82661388778632" id="-26187">
		<tag k="alt_name" v="Haug øvre" />
		<tag k="name" v="Øvre Haug" />
		<tag k="place" v="farm" />
		<tag k="ssr:date" v="2019-12-27" />
		<tag k="ssr:gruppe" v="gardsbebyggelse" />
		<tag k="ssr:hovedgruppe" v="bebyggelse" />
		<tag k="ssr:stedsnr" v="359923" />
		<tag k="ssr:type" v="bruk" />
	</node>
	<node lat="59.36034593640546" lon="10.819519767998523" id="-26188">
		<tag k="alt_name" v="Haugesten nedre;Nedre Haugesten" />
		<tag k="name" v="Nedre Haugsten" />
		<tag k="place" v="farm" />
		<tag k="ssr:date" v="2020-08-11" />
		<tag k="ssr:gruppe" v="gardsbebyggelse" />
		<tag k="ssr:hovedgruppe" v="bebyggelse" />
		<tag k="ssr:stedsnr" v="359926" />
		<tag k="ssr:type" v="gard" />
	</node>
	<node lat="59.214972223183594" lon="10.636341670814504" id="-26189">
		<tag k="bay" v="fjord" />
		<tag k="name" v="Oslofjorden" />
		<tag k="natural" v="bay" />
		<tag k="ssr:date" v="2020-06-08" />
		<tag k="ssr:gruppe" v="farvann" />
		<tag k="ssr:hovedgruppe" v="sjø" />
		<tag k="ssr:stedsnr" v="365030" />
		<tag k="ssr:type" v="fjord" />
	</node>
	<node lat="59.3550008820375" lon="10.815193630428238" id="-26190">
		<tag k="name" v="Haug" />
		<tag k="place" v="farm" />
		<tag k="ssr:date" v="2020-08-11" />
		<tag k="ssr:gruppe" v="gardsbebyggelse" />
		<tag k="ssr:hovedgruppe" v="bebyggelse" />
		<tag k="ssr:stedsnr" v="366261" />
		<tag k="ssr:type" v="gard" />
	</node>
	<node lat="59.36896730606999" lon="10.857677855688985" id="-26191">
		<tag k="name" v="Langøya" />
		<tag k="place" v="island" />
		<tag k="ssr:date" v="2020-08-12" />
		<tag k="ssr:gruppe" v="ferskvannskontur" />
		<tag k="ssr:hovedgruppe" v="ferskvann" />
		<tag k="ssr:stedsnr" v="366266" />
		<tag k="ssr:type" v="øy" />
	</node>
	<node lat="59.36912453399907" lon="10.8302135815721" id="-26192">
		<tag k="name" v="Haugstenstøa" />
		<tag k="place" v="farm" />
		<tag k="ssr:date" v="2019-12-27" />
		<tag k="ssr:gruppe" v="gardsbebyggelse" />
		<tag k="ssr:hovedgruppe" v="bebyggelse" />
		<tag k="ssr:stedsnr" v="366267" />
		<tag k="ssr:type" v="bruk" />
	</node>
	<node lat="59.304630555183046" lon="10.820002770193183" id="-26193">
		<tag k="alt_name" v="Jerndalen" />
		<tag k="name" v="Jerndal" />
		<tag k="place" v="farm" />
		<tag k="ssr:date" v="2021-03-25" />
		<tag k="ssr:gruppe" v="gardsbebyggelse" />
		<tag k="ssr:hovedgruppe" v="bebyggelse" />
		<tag k="ssr:stedsnr" v="366423" />
		<tag k="ssr:type" v="bruk" />
	</node>
	<node lat="59.30315277860102" lon="10.86191944331349" id="-26194">
		<tag k="alt_name" v="Kil vestre" />
		<tag k="name" v="Vestre Kil" />
		<tag k="place" v="farm" />
		<tag k="ssr:date" v="2019-12-27" />
		<tag k="ssr:gruppe" v="gardsbebyggelse" />
		<tag k="ssr:hovedgruppe" v="bebyggelse" />
		<tag k="ssr:stedsnr" v="366425" />
		<tag k="ssr:type" v="bruk" />
	</node>
	<node lat="59.32203427113897" lon="10.809789368095029" id="-26195">
		<tag k="amenity" v="place_of_worship" />
		<tag k="denomination" v="lutheran" />
		<tag k="name" v="Tomb kirke" />
		<tag k="religion" v="christian" />
		<tag k="ssr:date" v="2022-06-07" />
		<tag k="ssr:gruppe" v="kulturinstitusjoner" />
		<tag k="ssr:hovedgruppe" v="kultur" />
		<tag k="ssr:stedsnr" v="366462" />
		<tag k="ssr:type" v="kirke" />
	</node>
	<node lat="59.331400549903464" lon="10.842101181221553" id="-26196">
		<tag k="name" v="Myre" />
		<tag k="place" v="farm" />
		<tag k="ssr:date" v="2020-08-12" />
		<tag k="ssr:gruppe" v="gardsbebyggelse" />
		<tag k="ssr:hovedgruppe" v="bebyggelse" />
		<tag k="ssr:stedsnr" v="366477" />
		<tag k="ssr:type" v="gard" />
	</node>
	<node lat="59.34624722008826" lon="10.893580548947531" id="-26197">
		<tag k="amenity" v="place_of_worship" />
		<tag k="denomination" v="lutheran" />
		<tag k="name" v="Råde kirke" />
		<tag k="religion" v="christian" />
		<tag k="ssr:date" v="2021-06-08" />
		<tag k="ssr:gruppe" v="kulturinstitusjoner" />
		<tag k="ssr:hovedgruppe" v="kultur" />
		<tag k="ssr:stedsnr" v="366514" />
		<tag k="ssr:type" v="kirke" />
	</node>
	<node lat="59.35173893345058" lon="10.872341907527874" id="-26198">
		<tag k="name" v="Karlshus" />
		<tag k="old_name" v="Råde" />
		<tag k="place" v="village" />
		<tag k="ssr:date" v="2019-12-27" />
		<tag k="ssr:gruppe" v="bebyggelsesområder" />
		<tag k="ssr:hovedgruppe" v="bebyggelse" />
		<tag k="ssr:stedsnr" v="391341" />
		<tag k="ssr:type" v="tettsted" />
	</node>
	<node lat="59.30436110985566" lon="10.678441661616514" id="-26199">
		<tag k="name" v="Nesblinda" />
		<tag k="natural" v="strait" />
		<tag k="ssr:date" v="2019-12-27" />
		<tag k="ssr:gruppe" v="kystkontur" />
		<tag k="ssr:hovedgruppe" v="sjø" />
		<tag k="ssr:stedsnr" v="392892" />
		<tag k="ssr:type" v="sundISjø" />
	</node>
	<node lat="59.31182500049692" lon="10.720913885304682" id="-26200">
		<tag k="name" v="Kokholmen" />
		<tag k="place" v="islet" />
		<tag k="ssr:date" v="2019-12-27" />
		<tag k="ssr:gruppe" v="kystkontur" />
		<tag k="ssr:hovedgruppe" v="sjø" />
		<tag k="ssr:stedsnr" v="420583" />
		<tag k="ssr:type" v="holmeISjø" />
	</node>
	<node lat="59.30293611298122" lon="10.912513894353715" id="-26201">
		<tag k="fixme" v="consider natural=peak for the most distinct mountains in the district" />
		<tag k="name" v="Ælinåsen" />
		<tag k="natural" v="hill" />
		<tag k="place" v="locality" />
		<tag k="ssr:date" v="2019-12-27" />
		<tag k="ssr:gruppe" v="høyder" />
		<tag k="ssr:hovedgruppe" v="terreng" />
		<tag k="ssr:stedsnr" v="420933" />
		<tag k="ssr:type" v="ås" />
	</node>
	<node lat="59.36991944032356" lon="10.785027783650355" id="-26202">
		<tag k="name" v="Eggeroa" />
		<tag k="place" v="farm" />
		<tag k="ssr:date" v="2019-12-27" />
		<tag k="ssr:gruppe" v="gardsbebyggelse" />
		<tag k="ssr:hovedgruppe" v="bebyggelse" />
		<tag k="ssr:stedsnr" v="420939" />
		<tag k="ssr:type" v="bruk" />
	</node>
	<node lat="59.366211108830086" lon="10.822086117263694" id="-26203">
		<tag k="name" v="Vollebekk" />
		<tag k="place" v="farm" />
		<tag k="ssr:date" v="2019-12-27" />
		<tag k="ssr:gruppe" v="gardsbebyggelse" />
		<tag k="ssr:hovedgruppe" v="bebyggelse" />
		<tag k="ssr:stedsnr" v="420888" />
		<tag k="ssr:type" v="bruk" />
	</node>
	<node lat="59.32397222564686" lon="10.794411117408055" id="-26204">
		<tag k="name" v="Fjell" />
		<tag k="place" v="farm" />
		<tag k="ssr:date" v="2019-12-27" />
		<tag k="ssr:gruppe" v="gardsbebyggelse" />
		<tag k="ssr:hovedgruppe" v="bebyggelse" />
		<tag k="ssr:stedsnr" v="422196" />
		<tag k="ssr:type" v="bruk" />
	</node>
	<node lat="59.36086944499288" lon="10.947391670583798" id="-26205">
		<tag k="name" v="Slangsvoll" />
		<tag k="place" v="farm" />
		<tag k="ssr:date" v="2019-12-27" />
		<tag k="ssr:gruppe" v="gardsbebyggelse" />
		<tag k="ssr:hovedgruppe" v="bebyggelse" />
		<tag k="ssr:stedsnr" v="422583" />
		<tag k="ssr:type" v="bruk" />
	</node>
	<node lat="59.33285833308199" lon="10.940424996162362" id="-26206">
		<tag k="fixme" v="consider natural=peak for the most distinct mountains in the district" />
		<tag k="name" v="Høyås" />
		<tag k="natural" v="hill" />
		<tag k="place" v="locality" />
		<tag k="ssr:date" v="2019-12-27" />
		<tag k="ssr:gruppe" v="høyder" />
		<tag k="ssr:hovedgruppe" v="terreng" />
		<tag k="ssr:stedsnr" v="422777" />
		<tag k="ssr:type" v="ås" />
	</node>
	<node lat="59.32897222215988" lon="10.93176666530261" id="-26207">
		<tag k="name" v="Ileby" />
		<tag k="place" v="farm" />
		<tag k="ssr:date" v="2019-12-27" />
		<tag k="ssr:gruppe" v="gardsbebyggelse" />
		<tag k="ssr:hovedgruppe" v="bebyggelse" />
		<tag k="ssr:stedsnr" v="422778" />
		<tag k="ssr:type" v="bruk" />
	</node>
	<node lat="59.38259478706627" lon="10.905879477247133" id="-26208">
		<tag k="name" v="Henes" />
		<tag k="place" v="farm" />
		<tag k="ssr:date" v="2020-08-12" />
		<tag k="ssr:gruppe" v="gardsbebyggelse" />
		<tag k="ssr:hovedgruppe" v="bebyggelse" />
		<tag k="ssr:stedsnr" v="427322" />
		<tag k="ssr:type" v="gard" />
	</node>
	<node lat="59.32795314722037" lon="10.922923763969855" id="-26209">
		<tag k="name" v="Hovland" />
		<tag k="place" v="farm" />
		<tag k="ssr:date" v="2020-08-12" />
		<tag k="ssr:gruppe" v="gardsbebyggelse" />
		<tag k="ssr:hovedgruppe" v="bebyggelse" />
		<tag k="ssr:stedsnr" v="427460" />
		<tag k="ssr:type" v="gard" />
	</node>
	<node lat="59.33059064591571" lon="10.921092588409294" id="-26210">
		<tag k="name" v="Sørby" />
		<tag k="place" v="farm" />
		<tag k="ssr:date" v="2020-08-12" />
		<tag k="ssr:gruppe" v="gardsbebyggelse" />
		<tag k="ssr:hovedgruppe" v="bebyggelse" />
		<tag k="ssr:stedsnr" v="427462" />
		<tag k="ssr:type" v="gard" />
	</node>
	<node lat="59.33762276655646" lon="10.761669759601068" id="-26211">
		<tag k="name" v="Tasken" />
		<tag k="place" v="farm" />
		<tag k="ssr:date" v="2020-08-11" />
		<tag k="ssr:gruppe" v="gardsbebyggelse" />
		<tag k="ssr:hovedgruppe" v="bebyggelse" />
		<tag k="ssr:stedsnr" v="427478" />
		<tag k="ssr:type" v="navnegard" />
	</node>
	<node lat="59.39096388761109" lon="10.818344443694025" id="-26212">
		<tag k="name" v="Sandbukt" />
		<tag k="natural" v="bay" />
		<tag k="ssr:date" v="2019-12-27" />
		<tag k="ssr:gruppe" v="ferskvannskontur" />
		<tag k="ssr:hovedgruppe" v="ferskvann" />
		<tag k="ssr:stedsnr" v="481890" />
		<tag k="ssr:type" v="vik" />
	</node>
	<node lat="59.37453888766317" lon="10.836666666791254" id="-26213">
		<tag k="name" v="Hareholmen" />
		<tag k="place" v="islet" />
		<tag k="ssr:date" v="2019-12-27" />
		<tag k="ssr:gruppe" v="ferskvannskontur" />
		<tag k="ssr:hovedgruppe" v="ferskvann" />
		<tag k="ssr:stedsnr" v="482237" />
		<tag k="ssr:type" v="holme" />
	</node>
	<node lat="59.3459459244218" lon="10.842077514195053" id="-26214">
		<tag k="name" v="Kjellerød" />
		<tag k="place" v="farm" />
		<tag k="ssr:date" v="2020-08-11" />
		<tag k="ssr:gruppe" v="gardsbebyggelse" />
		<tag k="ssr:hovedgruppe" v="bebyggelse" />
		<tag k="ssr:stedsnr" v="482363" />
		<tag k="ssr:type" v="gard" />
	</node>
	<node lat="59.348708334076576" lon="10.890483339616608" id="-26215">
		<tag k="name" v="Roe" />
		<tag k="place" v="locality" />
		<tag k="ssr:date" v="2019-12-27" />
		<tag k="ssr:gruppe" v="kulturminner" />
		<tag k="ssr:hovedgruppe" v="kultur" />
		<tag k="ssr:stedsnr" v="482381" />
		<tag k="ssr:type" v="annenKulturdetalj" />
	</node>
	<node lat="59.35903888979299" lon="10.932525007194606" id="-26216">
		<tag k="fixme" v="consider natural=peak for the most distinct mountains in the district" />
		<tag k="name" v="Vetaåsen" />
		<tag k="natural" v="hill" />
		<tag k="place" v="locality" />
		<tag k="ssr:date" v="2019-12-27" />
		<tag k="ssr:gruppe" v="høyder" />
		<tag k="ssr:hovedgruppe" v="terreng" />
		<tag k="ssr:stedsnr" v="487249" />
		<tag k="ssr:type" v="ås" />
	</node>
	<node lat="59.358644908429845" lon="10.874815857717875" id="-26217">
		<tag k="name" v="Halvorsrød" />
		<tag k="place" v="farm" />
		<tag k="ssr:date" v="2020-08-12" />
		<tag k="ssr:gruppe" v="gardsbebyggelse" />
		<tag k="ssr:hovedgruppe" v="bebyggelse" />
		<tag k="ssr:stedsnr" v="487251" />
		<tag k="ssr:type" v="gard" />
	</node>
	<node lat="59.30737500315276" lon="10.75274722805078" id="-26218">
		<tag k="alt_name" v="Vrangbein" />
		<tag k="name" v="Vrangben" />
		<tag k="place" v="islet" />
		<tag k="ssr:date" v="2019-12-27" />
		<tag k="ssr:gruppe" v="kystkontur" />
		<tag k="ssr:hovedgruppe" v="sjø" />
		<tag k="ssr:stedsnr" v="487442" />
		<tag k="ssr:type" v="holmeISjø" />
	</node>
	<node lat="59.372183333536995" lon="10.951808340993685" id="-26219">
		<tag k="name" v="Leiedalen" />
		<tag k="place" v="farm" />
		<tag k="ssr:date" v="2019-12-27" />
		<tag k="ssr:gruppe" v="gardsbebyggelse" />
		<tag k="ssr:hovedgruppe" v="bebyggelse" />
		<tag k="ssr:stedsnr" v="488243" />
		<tag k="ssr:type" v="bruk" />
	</node>
	<node lat="59.37098610739385" lon="10.935558337829617" id="-26220">
		<tag k="name" v="Bjørndalen" />
		<tag k="place" v="locality" />
		<tag k="ssr:date" v="2019-12-27" />
		<tag k="ssr:gruppe" v="bolighus" />
		<tag k="ssr:hovedgruppe" v="bebyggelse" />
		<tag k="ssr:stedsnr" v="488254" />
		<tag k="ssr:type" v="gammelBosettingsplass" />
	</node>
	<node lat="59.32486666496298" lon="10.885747224635049" id="-26221">
		<tag k="name" v="Enebekk" />
		<tag k="place" v="farm" />
		<tag k="ssr:date" v="2019-12-27" />
		<tag k="ssr:gruppe" v="gardsbebyggelse" />
		<tag k="ssr:hovedgruppe" v="bebyggelse" />
		<tag k="ssr:stedsnr" v="488399" />
		<tag k="ssr:type" v="bruk" />
	</node>
	<node lat="59.29126944093118" lon="10.843925006417098" id="-26222">
		<tag k="name" v="Bjørndalen" />
		<tag k="natural" v="valley" />
		<tag k="place" v="locality" />
		<tag k="ssr:date" v="2019-12-27" />
		<tag k="ssr:gruppe" v="senkninger" />
		<tag k="ssr:hovedgruppe" v="terreng" />
		<tag k="ssr:stedsnr" v="495843" />
		<tag k="ssr:type" v="dal" />
	</node>
	<node lat="59.32513333470767" lon="10.823599995816524" id="-26223">
		<tag k="bridge" v="yes" />
		<tag k="layer" v="1" />
		<tag k="name" v="Møllebekken" />
		<tag k="ssr:date" v="2019-12-27" />
		<tag k="ssr:gruppe" v="samferdselsanlegg" />
		<tag k="ssr:hovedgruppe" v="infrastruktur" />
		<tag k="ssr:stedsnr" v="531549" />
		<tag k="ssr:type" v="bru" />
	</node>
	<node lat="59.333977776309496" lon="10.799211105031103" id="-26224">
		<tag k="alt_name" v="Aker søndre" />
		<tag k="name" v="Søndre Aker" />
		<tag k="place" v="farm" />
		<tag k="ssr:date" v="2019-12-27" />
		<tag k="ssr:gruppe" v="gardsbebyggelse" />
		<tag k="ssr:hovedgruppe" v="bebyggelse" />
		<tag k="ssr:stedsnr" v="541544" />
		<tag k="ssr:type" v="bruk" />
	</node>
	<node lat="59.31611388574378" lon="10.766163884870732" id="-26225">
		<tag k="alt_name" v="Røstad store" />
		<tag k="name" v="Store Røstad" />
		<tag k="place" v="farm" />
		<tag k="ssr:date" v="2019-12-27" />
		<tag k="ssr:gruppe" v="gardsbebyggelse" />
		<tag k="ssr:hovedgruppe" v="bebyggelse" />
		<tag k="ssr:stedsnr" v="541568" />
		<tag k="ssr:type" v="bruk" />
	</node>
	<node lat="59.30619722623084" lon="10.728077769837034" id="-26226">
		<tag k="name" v="Storesand" />
		<tag k="natural" v="beach" />
		<tag k="ssr:date" v="2019-12-27" />
		<tag k="ssr:gruppe" v="kystkontur" />
		<tag k="ssr:hovedgruppe" v="sjø" />
		<tag k="ssr:stedsnr" v="541569" />
		<tag k="ssr:type" v="strandISjø" />
	</node>
	<node lat="59.31327777446227" lon="10.891974998789482" id="-26227">
		<tag k="fixme" v="consider boundary=protected_area and relevant protect_class if not nature reserve" />
		<tag k="leisure" v="nature_reserve" />
		<tag k="name" v="Skinnerflo naturreservat" />
		<tag k="ssr:date" v="2019-12-27" />
		<tag k="ssr:gruppe" v="verne-OgBruksområder" />
		<tag k="ssr:hovedgruppe" v="offentligAdministrasjon" />
		<tag k="ssr:stedsnr" v="541906" />
		<tag k="ssr:type" v="verneområde" />
	</node>
	<node lat="59.34286666922192" lon="10.801280558697684" id="-26228">
		<tag k="alt_name" v="Norum søndre" />
		<tag k="name" v="Søndre Norum" />
		<tag k="place" v="farm" />
		<tag k="ssr:date" v="2019-12-27" />
		<tag k="ssr:gruppe" v="gardsbebyggelse" />
		<tag k="ssr:hovedgruppe" v="bebyggelse" />
		<tag k="ssr:stedsnr" v="542922" />
		<tag k="ssr:type" v="bruk" />
	</node>
	<node lat="59.361774780766446" lon="10.823915003753703" id="-26229">
		<tag k="alt_name" v="Haugesten" />
		<tag k="name" v="Øvre Haugsten" />
		<tag k="place" v="farm" />
		<tag k="ssr:date" v="2020-08-11" />
		<tag k="ssr:gruppe" v="gardsbebyggelse" />
		<tag k="ssr:hovedgruppe" v="bebyggelse" />
		<tag k="ssr:stedsnr" v="542944" />
		<tag k="ssr:type" v="gard" />
	</node>
	<node lat="59.34748888797517" lon="10.893458340373181" id="-26230">
		<tag k="name" v="Klokkergården" />
		<tag k="place" v="farm" />
		<tag k="ssr:date" v="2019-12-27" />
		<tag k="ssr:gruppe" v="gardsbebyggelse" />
		<tag k="ssr:hovedgruppe" v="bebyggelse" />
		<tag k="ssr:stedsnr" v="543398" />
		<tag k="ssr:type" v="bruk" />
	</node>
	<node lat="59.32121388888534" lon="10.941819451221187" id="-26231">
		<tag k="name" v="Finstadbukta" />
		<tag k="natural" v="bay" />
		<tag k="ssr:date" v="2019-12-27" />
		<tag k="ssr:gruppe" v="ferskvannskontur" />
		<tag k="ssr:hovedgruppe" v="ferskvann" />
		<tag k="ssr:stedsnr" v="543755" />
		<tag k="ssr:type" v="vik" />
	</node>
	<node lat="59.3251972239263" lon="10.874588891846114" id="-26232">
		<tag k="alt_name" v="Musangen østre" />
		<tag k="name" v="Østre Musangen" />
		<tag k="place" v="farm" />
		<tag k="ssr:date" v="2019-12-27" />
		<tag k="ssr:gruppe" v="gardsbebyggelse" />
		<tag k="ssr:hovedgruppe" v="bebyggelse" />
		<tag k="ssr:stedsnr" v="543797" />
		<tag k="ssr:type" v="bruk" />
	</node>
	<node lat="59.37566317638778" lon="10.782196014365264" id="-26233">
		<tag k="aeroway" v="aerodrome" />
		<tag k="alt_name" v="Rygge" />
		<tag k="name" v="Moss lufthavn, Rygge" />
		<tag k="ssr:date" v="2020-11-09" />
		<tag k="ssr:gruppe" v="luftfart" />
		<tag k="ssr:hovedgruppe" v="infrastruktur" />
		<tag k="ssr:stedsnr" v="548301" />
		<tag k="ssr:type" v="flyplass" />
	</node>
	<node lat="59.37719166809958" lon="10.878072225222393" id="-26234">
		<tag k="alt_name" v="Øksenøya" />
		<tag k="name" v="Oksenøya" />
		<tag k="place" v="island" />
		<tag k="ssr:date" v="2019-12-27" />
		<tag k="ssr:gruppe" v="ferskvannskontur" />
		<tag k="ssr:hovedgruppe" v="ferskvann" />
		<tag k="ssr:stedsnr" v="548307" />
		<tag k="ssr:type" v="øy" />
	</node>
	<node lat="59.38262500347372" lon="10.971247215530491" id="-26235">
		<tag k="alt_name" v="Slangsvold" />
		<tag k="name" v="Slangsvoll" />
		<tag k="place" v="farm" />
		<tag k="ssr:date" v="2019-12-27" />
		<tag k="ssr:gruppe" v="gardsbebyggelse" />
		<tag k="ssr:hovedgruppe" v="bebyggelse" />
		<tag k="ssr:stedsnr" v="548314" />
		<tag k="ssr:type" v="bruk" />
	</node>
	<node lat="59.36163234697905" lon="10.89334153607516" id="-26236">
		<tag k="name" v="Bekken" />
		<tag k="place" v="farm" />
		<tag k="ssr:date" v="2019-12-27" />
		<tag k="ssr:gruppe" v="gardsbebyggelse" />
		<tag k="ssr:hovedgruppe" v="bebyggelse" />
		<tag k="ssr:stedsnr" v="548255" />
		<tag k="ssr:type" v="bruk" />
	</node>
	<node lat="59.35884144330217" lon="10.776571367619907" id="-26237">
		<tag k="name" v="Solberg" />
		<tag k="place" v="farm" />
		<tag k="ssr:date" v="2021-09-06" />
		<tag k="ssr:gruppe" v="gardsbebyggelse" />
		<tag k="ssr:hovedgruppe" v="bebyggelse" />
		<tag k="ssr:stedsnr" v="548263" />
		<tag k="ssr:type" v="gard" />
	</node>
	<node lat="59.32364999710014" lon="10.898208337756655" id="-26238">
		<tag k="name" v="Solvang" />
		<tag k="place" v="farm" />
		<tag k="ssr:date" v="2019-12-27" />
		<tag k="ssr:gruppe" v="gardsbebyggelse" />
		<tag k="ssr:hovedgruppe" v="bebyggelse" />
		<tag k="ssr:stedsnr" v="548438" />
		<tag k="ssr:type" v="bruk" />
	</node>
	<node lat="59.31192500065279" lon="10.734938895714793" id="-26239">
		<tag k="name" v="Åven" />
		<tag k="place" v="farm" />
		<tag k="ssr:date" v="2019-12-27" />
		<tag k="ssr:gruppe" v="gardsbebyggelse" />
		<tag k="ssr:hovedgruppe" v="bebyggelse" />
		<tag k="ssr:stedsnr" v="548443" />
		<tag k="ssr:type" v="bruk" />
	</node>
	<node lat="59.316824455311085" lon="10.855441672228153" id="-26240">
		<tag k="name" v="Vårli" />
		<tag k="place" v="farm" />
		<tag k="ssr:date" v="2021-03-25" />
		<tag k="ssr:gruppe" v="gardsbebyggelse" />
		<tag k="ssr:hovedgruppe" v="bebyggelse" />
		<tag k="ssr:stedsnr" v="548457" />
		<tag k="ssr:type" v="bruk" />
	</node>
	<node lat="59.26559999913176" lon="10.626097218238737" id="-26241">
		<tag k="name" v="Bjørnen" />
		<tag k="natural" v="shoal" />
		<tag k="place" v="locality" />
		<tag k="ssr:date" v="2019-12-27" />
		<tag k="ssr:gruppe" v="grunnerISjø" />
		<tag k="ssr:hovedgruppe" v="sjø" />
		<tag k="ssr:stedsnr" v="549642" />
		<tag k="ssr:type" v="grunneISjø" />
	</node>
	<node lat="59.33619722566456" lon="10.746286104858466" id="-26242">
		<tag k="name" v="Badehuset" />
		<tag k="natural" v="cape" />
		<tag k="ssr:date" v="2019-12-27" />
		<tag k="ssr:gruppe" v="kystkontur" />
		<tag k="ssr:hovedgruppe" v="sjø" />
		<tag k="ssr:stedsnr" v="570758" />
		<tag k="ssr:type" v="nesISjø" />
	</node>
	<node lat="59.369769447505" lon="10.789508335993629" id="-26243">
		<tag k="name" v="Stomnerhuset" />
		<tag k="place" v="farm" />
		<tag k="ssr:date" v="2019-12-27" />
		<tag k="ssr:gruppe" v="gardsbebyggelse" />
		<tag k="ssr:hovedgruppe" v="bebyggelse" />
		<tag k="ssr:stedsnr" v="602871" />
		<tag k="ssr:type" v="bruk" />
	</node>
	<node lat="59.31252499959603" lon="10.875188891893126" id="-26244">
		<tag k="name" v="Revehaugen" />
		<tag k="natural" v="hill" />
		<tag k="place" v="locality" />
		<tag k="ssr:date" v="2019-12-27" />
		<tag k="ssr:gruppe" v="høyder" />
		<tag k="ssr:hovedgruppe" v="terreng" />
		<tag k="ssr:stedsnr" v="602886" />
		<tag k="ssr:type" v="haug" />
	</node>
	<node lat="59.2986055588873" lon="10.838349999729212" id="-26245">
		<tag k="name" v="Rørfjellmyr" />
		<tag k="natural" v="wetland" />
		<tag k="ssr:date" v="2019-12-27" />
		<tag k="ssr:gruppe" v="våtmark" />
		<tag k="ssr:hovedgruppe" v="markslag" />
		<tag k="ssr:stedsnr" v="602887" />
		<tag k="ssr:type" v="myr" />
	</node>
	<node lat="59.31301110709523" lon="10.907263889020662" id="-26246">
		<tag k="alt_name" v="Reklingsholm vestre" />
		<tag k="name" v="Vestre Reklingsholm" />
		<tag k="place" v="farm" />
		<tag k="ssr:date" v="2019-12-27" />
		<tag k="ssr:gruppe" v="gardsbebyggelse" />
		<tag k="ssr:hovedgruppe" v="bebyggelse" />
		<tag k="ssr:stedsnr" v="602890" />
		<tag k="ssr:type" v="bruk" />
	</node>
	<node lat="59.360308330553906" lon="10.790363884883151" id="-26247">
		<tag k="name" v="Stomner" />
		<tag k="place" v="farm" />
		<tag k="ssr:date" v="2019-12-27" />
		<tag k="ssr:gruppe" v="gardsbebyggelse" />
		<tag k="ssr:hovedgruppe" v="bebyggelse" />
		<tag k="ssr:stedsnr" v="602932" />
		<tag k="ssr:type" v="bruk" />
	</node>
	<node lat="59.35336389009184" lon="10.920183339229297" id="-26248">
		<tag k="name" v="Hukeberg" />
		<tag k="place" v="farm" />
		<tag k="ssr:date" v="2019-12-27" />
		<tag k="ssr:gruppe" v="gardsbebyggelse" />
		<tag k="ssr:hovedgruppe" v="bebyggelse" />
		<tag k="ssr:stedsnr" v="608236" />
		<tag k="ssr:type" v="bruk" />
	</node>
	<node lat="59.34053979345281" lon="10.773967185683347" id="-26249">
		<tag k="name" v="Gammelsrød" />
		<tag k="place" v="farm" />
		<tag k="ssr:date" v="2020-08-11" />
		<tag k="ssr:gruppe" v="gardsbebyggelse" />
		<tag k="ssr:hovedgruppe" v="bebyggelse" />
		<tag k="ssr:stedsnr" v="608496" />
		<tag k="ssr:type" v="navnegard" />
	</node>
	<node lat="59.34025555397568" lon="10.784122215228006" id="-26250">
		<tag k="alt_name" v="Brånan" />
		<tag k="name" v="Brånen" />
		<tag k="place" v="farm" />
		<tag k="ssr:date" v="2019-12-27" />
		<tag k="ssr:gruppe" v="gardsbebyggelse" />
		<tag k="ssr:hovedgruppe" v="bebyggelse" />
		<tag k="ssr:stedsnr" v="608501" />
		<tag k="ssr:type" v="bruk" />
	</node>
	<node lat="59.345874995794055" lon="10.95289444683274" id="-26251">
		<tag k="name" v="Mosatjernet" />
		<tag k="natural" v="water" />
		<tag k="ssr:date" v="2019-12-27" />
		<tag k="ssr:gruppe" v="stilleståendeVann" />
		<tag k="ssr:hovedgruppe" v="ferskvann" />
		<tag k="ssr:stedsnr" v="608531" />
		<tag k="ssr:type" v="tjern" />
	</node>
	<node lat="59.292230553575656" lon="10.919147214859054" id="-26252">
		<tag k="alt_name" v="Kjelshus" />
		<tag k="name" v="Kjelshuset" />
		<tag k="place" v="locality" />
		<tag k="ssr:date" v="2021-12-01" />
		<tag k="ssr:gruppe" v="vegetasjon" />
		<tag k="ssr:hovedgruppe" v="markslag" />
		<tag k="ssr:stedsnr" v="609386" />
		<tag k="ssr:type" v="skog" />
	</node>
	<node lat="59.30679444536585" lon="10.75784999261106" id="-26253">
		<tag k="name" v="Pampus" />
		<tag k="natural" v="shoal" />
		<tag k="place" v="locality" />
		<tag k="ssr:date" v="2019-12-27" />
		<tag k="ssr:gruppe" v="grunnerISjø" />
		<tag k="ssr:hovedgruppe" v="sjø" />
		<tag k="ssr:stedsnr" v="631776" />
		<tag k="ssr:type" v="grunneISjø" />
	</node>
	<node lat="59.33974999638048" lon="10.74706389678334" id="-26254">
		<tag k="name" v="Grågåstangen" />
		<tag k="natural" v="cape" />
		<tag k="ssr:date" v="2019-12-27" />
		<tag k="ssr:gruppe" v="kystkontur" />
		<tag k="ssr:hovedgruppe" v="sjø" />
		<tag k="ssr:stedsnr" v="631777" />
		<tag k="ssr:type" v="nesISjø" />
	</node>
	<node lat="59.30068055687123" lon="10.715658341564247" id="-26255">
		<tag k="fixme" v="consider seamark:type=rock or natural=shoal" />
		<tag k="name" v="Åvenskjær" />
		<tag k="place" v="islet" />
		<tag k="ssr:date" v="2019-12-27" />
		<tag k="ssr:gruppe" v="grunnerISjø" />
		<tag k="ssr:hovedgruppe" v="sjø" />
		<tag k="ssr:stedsnr" v="631783" />
		<tag k="ssr:type" v="skjærISjø" />
	</node>
	<node lat="59.27696388728951" lon="10.675313896485834" id="-26256">
		<tag k="name" v="Slettertangen" />
		<tag k="natural" v="cape" />
		<tag k="ssr:date" v="2019-12-27" />
		<tag k="ssr:gruppe" v="kystkontur" />
		<tag k="ssr:hovedgruppe" v="sjø" />
		<tag k="ssr:stedsnr" v="631880" />
		<tag k="ssr:type" v="nesISjø" />
	</node>
	<node lat="59.3451027762076" lon="10.924777777510231" id="-26257">
		<tag k="bridge" v="yes" />
		<tag k="layer" v="1" />
		<tag k="name" v="Åsgårdkrysset" />
		<tag k="ssr:date" v="2019-12-27" />
		<tag k="ssr:gruppe" v="samferdselsanlegg" />
		<tag k="ssr:hovedgruppe" v="infrastruktur" />
		<tag k="ssr:stedsnr" v="652412" />
		<tag k="ssr:type" v="bru" />
	</node>
	<node lat="59.3474916704022" lon="10.92096388715476" id="-26258">
		<tag k="alt_name" v="Bråten" />
		<tag k="name" v="Borgebråten" />
		<tag k="old_name" v="Braaten" />
		<tag k="place" v="farm" />
		<tag k="ssr:date" v="2019-12-27" />
		<tag k="ssr:gruppe" v="gardsbebyggelse" />
		<tag k="ssr:hovedgruppe" v="bebyggelse" />
		<tag k="ssr:stedsnr" v="660082" />
		<tag k="ssr:type" v="bruk" />
	</node>
	<node lat="59.36609999939724" lon="10.96618611269274" id="-26259">
		<tag k="bridge" v="yes" />
		<tag k="layer" v="1" />
		<tag k="name" v="Fennsbekk" />
		<tag k="ssr:date" v="2019-12-27" />
		<tag k="ssr:gruppe" v="samferdselsanlegg" />
		<tag k="ssr:hovedgruppe" v="infrastruktur" />
		<tag k="ssr:stedsnr" v="713521" />
		<tag k="ssr:type" v="bru" />
	</node>
	<node lat="59.3621589669484" lon="10.784997362775043" id="-26260">
		<tag k="loc_name" v="Huset" />
		<tag k="name" v="Sandakerhuset" />
		<tag k="place" v="locality" />
		<tag k="ssr:date" v="2021-09-06" />
		<tag k="ssr:gruppe" v="gardsbebyggelse" />
		<tag k="ssr:hovedgruppe" v="bebyggelse" />
		<tag k="ssr:stedsnr" v="724896" />
		<tag k="ssr:type" v="eiendom" />
	</node>
	<node lat="59.38535833268201" lon="10.809997227548182" id="-26261">
		<tag k="fixme" v="consider natural=peak for the most distinct mountains in the district" />
		<tag k="name" v="Fugleleiken" />
		<tag k="natural" v="hill" />
		<tag k="place" v="locality" />
		<tag k="ssr:date" v="2019-12-27" />
		<tag k="ssr:gruppe" v="høyder" />
		<tag k="ssr:hovedgruppe" v="terreng" />
		<tag k="ssr:stedsnr" v="724902" />
		<tag k="ssr:type" v="ås" />
	</node>
	<node lat="59.36317222300707" lon="10.885461107142186" id="-26262">
		<tag k="name" v="Karlshusbunn" />
		<tag k="natural" v="bay" />
		<tag k="ssr:date" v="2019-12-27" />
		<tag k="ssr:gruppe" v="ferskvannskontur" />
		<tag k="ssr:hovedgruppe" v="ferskvann" />
		<tag k="ssr:stedsnr" v="725249" />
		<tag k="ssr:type" v="vik" />
	</node>
	<node lat="59.33594166660625" lon="10.8783277707286" id="-26263">
		<tag k="alt_name" v="Auberghølen" />
		<tag k="name" v="Augeberghølen" />
		<tag k="natural" v="water" />
		<tag k="ssr:date" v="2019-12-27" />
		<tag k="ssr:gruppe" v="stilleståendeVann" />
		<tag k="ssr:hovedgruppe" v="ferskvann" />
		<tag k="ssr:stedsnr" v="725343" />
		<tag k="ssr:type" v="tjern" />
	</node>
	<node lat="59.35107378363727" lon="10.900520283468342" id="-26264">
		<tag k="name" v="Nordby" />
		<tag k="place" v="locality" />
		<tag k="ssr:date" v="2021-12-01" />
		<tag k="ssr:gruppe" v="dyrkamark" />
		<tag k="ssr:hovedgruppe" v="markslag" />
		<tag k="ssr:stedsnr" v="725346" />
		<tag k="ssr:type" v="jorde" />
	</node>
	<node lat="59.32043333389193" lon="10.913111116458456" id="-26265">
		<tag k="alt_name" v="Tofteberg østre" />
		<tag k="name" v="Østre Tofteberg" />
		<tag k="place" v="farm" />
		<tag k="ssr:date" v="2019-12-27" />
		<tag k="ssr:gruppe" v="gardsbebyggelse" />
		<tag k="ssr:hovedgruppe" v="bebyggelse" />
		<tag k="ssr:stedsnr" v="725739" />
		<tag k="ssr:type" v="bruk" />
	</node>
	<node lat="59.33611388709748" lon="10.935916660155304" id="-26266">
		<tag k="name" v="Åkeberg" />
		<tag k="place" v="farm" />
		<tag k="ssr:date" v="2019-12-27" />
		<tag k="ssr:gruppe" v="gardsbebyggelse" />
		<tag k="ssr:hovedgruppe" v="bebyggelse" />
		<tag k="ssr:stedsnr" v="725740" />
		<tag k="ssr:type" v="bruk" />
	</node>
	<node lat="59.33620839430678" lon="10.940242799529326" id="-26267">
		<tag k="fixme" v="consider natural=peak for the most distinct mountains in the district" />
		<tag k="name" v="Gyllerås" />
		<tag k="natural" v="hill" />
		<tag k="place" v="locality" />
		<tag k="ssr:date" v="2021-12-01" />
		<tag k="ssr:gruppe" v="høyder" />
		<tag k="ssr:hovedgruppe" v="terreng" />
		<tag k="ssr:stedsnr" v="725747" />
		<tag k="ssr:type" v="ås" />
	</node>
	<node lat="59.33662061939646" lon="10.790250444359069" id="-26268">
		<tag k="name" v="Meum" />
		<tag k="place" v="farm" />
		<tag k="ssr:date" v="2020-08-12" />
		<tag k="ssr:gruppe" v="gardsbebyggelse" />
		<tag k="ssr:hovedgruppe" v="bebyggelse" />
		<tag k="ssr:stedsnr" v="730498" />
		<tag k="ssr:type" v="gard" />
	</node>
	<node lat="59.38800833310325" lon="10.900008332312316" id="-26269">
		<tag k="name" v="Henestangen" />
		<tag k="natural" v="cape" />
		<tag k="ssr:date" v="2019-12-27" />
		<tag k="ssr:gruppe" v="ferskvannskontur" />
		<tag k="ssr:hovedgruppe" v="ferskvann" />
		<tag k="ssr:stedsnr" v="730301" />
		<tag k="ssr:type" v="nes" />
	</node>
	<node lat="59.36871340055514" lon="10.92338696445583" id="-26270">
		<tag k="alt_name" v="Knappervika" />
		<tag k="name" v="Knapperviken" />
		<tag k="place" v="farm" />
		<tag k="ssr:date" v="2020-08-12" />
		<tag k="ssr:gruppe" v="gardsbebyggelse" />
		<tag k="ssr:hovedgruppe" v="bebyggelse" />
		<tag k="ssr:stedsnr" v="731215" />
		<tag k="ssr:type" v="gard" />
	</node>
	<node lat="59.372680558097194" lon="10.82822500580229" id="-26271">
		<tag k="name" v="Engene" />
		<tag k="place" v="farm" />
		<tag k="ssr:date" v="2019-12-27" />
		<tag k="ssr:gruppe" v="gardsbebyggelse" />
		<tag k="ssr:hovedgruppe" v="bebyggelse" />
		<tag k="ssr:stedsnr" v="731234" />
		<tag k="ssr:type" v="bruk" />
	</node>
	<node lat="59.32503023729302" lon="10.871265012126464" id="-26272">
		<tag k="alt_name" v="Berg østre" />
		<tag k="name" v="Østre Berg" />
		<tag k="place" v="farm" />
		<tag k="ssr:date" v="2020-09-08" />
		<tag k="ssr:gruppe" v="gardsbebyggelse" />
		<tag k="ssr:hovedgruppe" v="bebyggelse" />
		<tag k="ssr:stedsnr" v="731396" />
		<tag k="ssr:type" v="gard" />
	</node>
	<node lat="59.29656388535746" lon="10.665369440115931" id="-26273">
		<tag k="name" v="Vesle Sletter" />
		<tag k="natural" v="cape" />
		<tag k="ssr:date" v="2019-12-27" />
		<tag k="ssr:gruppe" v="kystkontur" />
		<tag k="ssr:hovedgruppe" v="sjø" />
		<tag k="ssr:stedsnr" v="754250" />
		<tag k="ssr:type" v="nesISjø" />
	</node>
	<node lat="59.30141111331689" lon="10.783283335337565" id="-26274">
		<tag k="name" v="Andersrød" />
		<tag k="place" v="farm" />
		<tag k="ssr:date" v="2019-12-27" />
		<tag k="ssr:gruppe" v="gardsbebyggelse" />
		<tag k="ssr:hovedgruppe" v="bebyggelse" />
		<tag k="ssr:stedsnr" v="784558" />
		<tag k="ssr:type" v="bruk" />
	</node>
	<node lat="59.336752775355386" lon="10.801766671312736" id="-26275">
		<tag k="alt_name" v="Aker vestre" />
		<tag k="name" v="Vestre Aker" />
		<tag k="place" v="farm" />
		<tag k="ssr:date" v="2019-12-27" />
		<tag k="ssr:gruppe" v="gardsbebyggelse" />
		<tag k="ssr:hovedgruppe" v="bebyggelse" />
		<tag k="ssr:stedsnr" v="784543" />
		<tag k="ssr:type" v="bruk" />
	</node>
	<node lat="59.38027777669779" lon="10.822577785181037" id="-26276">
		<tag k="name" v="Storedøvik" />
		<tag k="natural" v="bay" />
		<tag k="ssr:date" v="2019-12-27" />
		<tag k="ssr:gruppe" v="ferskvannskontur" />
		<tag k="ssr:hovedgruppe" v="ferskvann" />
		<tag k="ssr:stedsnr" v="784893" />
		<tag k="ssr:type" v="vik" />
	</node>
	<node lat="59.34077500184701" lon="10.923136115492866" id="-26277">
		<tag k="name" v="Borgedalen" />
		<tag k="place" v="farm" />
		<tag k="ssr:date" v="2019-12-27" />
		<tag k="ssr:gruppe" v="gardsbebyggelse" />
		<tag k="ssr:hovedgruppe" v="bebyggelse" />
		<tag k="ssr:stedsnr" v="786199" />
		<tag k="ssr:type" v="bruk" />
	</node>
	<node lat="59.347950000198296" lon="10.84441111981212" id="-26278">
		<tag k="name" v="Kjellerød" />
		<tag k="place" v="farm" />
		<tag k="ssr:date" v="2019-12-27" />
		<tag k="ssr:gruppe" v="gardsbebyggelse" />
		<tag k="ssr:hovedgruppe" v="bebyggelse" />
		<tag k="ssr:stedsnr" v="786380" />
		<tag k="ssr:type" v="bruk" />
	</node>
	<node lat="59.353123978571254" lon="10.835858086479005" id="-26279">
		<tag k="name" v="Elvestad" />
		<tag k="place" v="farm" />
		<tag k="ssr:date" v="2020-08-11" />
		<tag k="ssr:gruppe" v="gardsbebyggelse" />
		<tag k="ssr:hovedgruppe" v="bebyggelse" />
		<tag k="ssr:stedsnr" v="786382" />
		<tag k="ssr:type" v="gard" />
	</node>
	<node lat="59.383386109110624" lon="10.839891662445996" id="-26280">
		<tag k="name" v="Moskjærene" />
		<tag k="place" v="islet" />
		<tag k="ssr:date" v="2019-12-27" />
		<tag k="ssr:gruppe" v="grunnerIFerskvann" />
		<tag k="ssr:hovedgruppe" v="ferskvann" />
		<tag k="ssr:stedsnr" v="786600" />
		<tag k="ssr:type" v="skjær" />
	</node>
	<node lat="59.317397222810186" lon="10.92167499764573" id="-26281">
		<tag k="name" v="Hovland" />
		<tag k="place" v="farm" />
		<tag k="ssr:date" v="2019-12-27" />
		<tag k="ssr:gruppe" v="gardsbebyggelse" />
		<tag k="ssr:hovedgruppe" v="bebyggelse" />
		<tag k="ssr:stedsnr" v="786773" />
		<tag k="ssr:type" v="bruk" />
	</node>
	<node lat="59.364085826194845" lon="10.776598474800952" id="-26282">
		<tag k="loc_name" v="Solberghøyda" />
		<tag k="name" v="Solberghøgda" />
		<tag k="place" v="locality" />
		<tag k="ssr:date" v="2021-09-06" />
		<tag k="ssr:gruppe" v="bolighus" />
		<tag k="ssr:hovedgruppe" v="bebyggelse" />
		<tag k="ssr:stedsnr" v="791271" />
		<tag k="ssr:type" v="gammelBosettingsplass" />
	</node>
	<node lat="59.321429860858686" lon="10.760825024400443" id="-26283">
		<tag k="name" v="Fuglevik" />
		<tag k="place" v="hamlet" />
		<tag k="ssr:date" v="2020-08-12" />
		<tag k="ssr:gruppe" v="bebyggelsesområder" />
		<tag k="ssr:hovedgruppe" v="bebyggelse" />
		<tag k="ssr:stedsnr" v="791426" />
		<tag k="ssr:type" v="grend" />
	</node>
	<node lat="59.33965393801111" lon="10.806125177346743" id="-26284">
		<tag k="alt_name" v="Åker" />
		<tag k="name" v="Aker" />
		<tag k="place" v="farm" />
		<tag k="ssr:date" v="2020-08-11" />
		<tag k="ssr:gruppe" v="gardsbebyggelse" />
		<tag k="ssr:hovedgruppe" v="bebyggelse" />
		<tag k="ssr:stedsnr" v="791462" />
		<tag k="ssr:type" v="gard" />
	</node>
	<node lat="59.34861946794868" lon="10.8286340355595" id="-26285">
		<tag k="name" v="Burum" />
		<tag k="place" v="farm" />
		<tag k="ssr:date" v="2020-08-12" />
		<tag k="ssr:gruppe" v="gardsbebyggelse" />
		<tag k="ssr:hovedgruppe" v="bebyggelse" />
		<tag k="ssr:stedsnr" v="791466" />
		<tag k="ssr:type" v="navnegard" />
	</node>
	<node lat="59.34332775994554" lon="10.916444847778083" id="-26286">
		<tag k="name" v="Borge" />
		<tag k="place" v="farm" />
		<tag k="ssr:date" v="2020-08-11" />
		<tag k="ssr:gruppe" v="gardsbebyggelse" />
		<tag k="ssr:hovedgruppe" v="bebyggelse" />
		<tag k="ssr:stedsnr" v="791486" />
		<tag k="ssr:type" v="navnegard" />
	</node>
	<node lat="59.31432500195979" lon="10.720619437382622" id="-26287">
		<tag k="name" v="Hestholmen" />
		<tag k="place" v="islet" />
		<tag k="ssr:date" v="2019-12-27" />
		<tag k="ssr:gruppe" v="kystkontur" />
		<tag k="ssr:hovedgruppe" v="sjø" />
		<tag k="ssr:stedsnr" v="791626" />
		<tag k="ssr:type" v="holmeISjø" />
	</node>
	<node lat="59.34730555967019" lon="10.929255564116733" id="-26288">
		<tag k="name" v="Løkka" />
		<tag k="place" v="farm" />
		<tag k="ssr:date" v="2019-12-27" />
		<tag k="ssr:gruppe" v="gardsbebyggelse" />
		<tag k="ssr:hovedgruppe" v="bebyggelse" />
		<tag k="ssr:stedsnr" v="815373" />
		<tag k="ssr:type" v="bruk" />
	</node>
	<node lat="59.29676111521477" lon="10.647130548655172" id="-26289">
		<tag k="name" v="Hauken" />
		<tag k="natural" v="shoal" />
		<tag k="place" v="locality" />
		<tag k="ssr:date" v="2019-12-27" />
		<tag k="ssr:gruppe" v="grunnerISjø" />
		<tag k="ssr:hovedgruppe" v="sjø" />
		<tag k="ssr:stedsnr" v="817794" />
		<tag k="ssr:type" v="grunneISjø" />
	</node>
	<node lat="59.3090583371259" lon="10.884291674545926" id="-26290">
		<tag k="bridge" v="yes" />
		<tag k="layer" v="1" />
		<tag k="loc_name" v="Kil" />
		<tag k="name" v="Kihl" />
		<tag k="ssr:date" v="2019-12-27" />
		<tag k="ssr:gruppe" v="samferdselsanlegg" />
		<tag k="ssr:hovedgruppe" v="infrastruktur" />
		<tag k="ssr:stedsnr" v="835545" />
		<tag k="ssr:type" v="bru" />
	</node>
	<node lat="59.327515631200676" lon="10.790142245783281" id="-26291">
		<tag k="alt_name" v="Aker mellem" />
		<tag k="name" v="Mellom-Aker" />
		<tag k="place" v="farm" />
		<tag k="ssr:date" v="2021-03-25" />
		<tag k="ssr:gruppe" v="gardsbebyggelse" />
		<tag k="ssr:hovedgruppe" v="bebyggelse" />
		<tag k="ssr:stedsnr" v="845562" />
		<tag k="ssr:type" v="bruk" />
	</node>
	<node lat="59.29944166667519" lon="10.820427773189046" id="-26292">
		<tag k="name" v="Jerndalsfjellet" />
		<tag k="natural" v="ridge" />
		<tag k="place" v="locality" />
		<tag k="ssr:date" v="2019-12-27" />
		<tag k="ssr:gruppe" v="høyder" />
		<tag k="ssr:hovedgruppe" v="terreng" />
		<tag k="ssr:stedsnr" v="845574" />
		<tag k="ssr:type" v="rygg" />
	</node>
	<node lat="59.38315555718457" lon="10.813436114722892" id="-26293">
		<tag k="name" v="Sagmyra" />
		<tag k="natural" v="wetland" />
		<tag k="ssr:date" v="2019-12-27" />
		<tag k="ssr:gruppe" v="våtmark" />
		<tag k="ssr:hovedgruppe" v="markslag" />
		<tag k="ssr:stedsnr" v="845902" />
		<tag k="ssr:type" v="myr" />
	</node>
	<node lat="59.32360833165679" lon="10.762511112837807" id="-26294">
		<tag k="alt_name" v="Fuglevik nordre" />
		<tag k="name" v="Nordre Fuglevik" />
		<tag k="place" v="farm" />
		<tag k="ssr:date" v="2020-08-12" />
		<tag k="ssr:gruppe" v="gardsbebyggelse" />
		<tag k="ssr:hovedgruppe" v="bebyggelse" />
		<tag k="ssr:stedsnr" v="845975" />
		<tag k="ssr:type" v="bruk" />
	</node>
	<node lat="59.35138055357911" lon="10.835558338137593" id="-26295">
		<tag k="alt_name" v="Elvestad søndre" />
		<tag k="name" v="Søndre Elvestad" />
		<tag k="place" v="farm" />
		<tag k="ssr:date" v="2019-12-27" />
		<tag k="ssr:gruppe" v="gardsbebyggelse" />
		<tag k="ssr:hovedgruppe" v="bebyggelse" />
		<tag k="ssr:stedsnr" v="847397" />
		<tag k="ssr:type" v="bruk" />
	</node>
	<node lat="59.300080558107695" lon="10.660941663665369" id="-26296">
		<tag k="name" v="Seiltangen" />
		<tag k="natural" v="cape" />
		<tag k="ssr:date" v="2019-12-27" />
		<tag k="ssr:gruppe" v="kystkontur" />
		<tag k="ssr:hovedgruppe" v="sjø" />
		<tag k="ssr:stedsnr" v="847237" />
		<tag k="ssr:type" v="nesISjø" />
	</node>
	<node lat="59.32585278084412" lon="10.894449992516295" id="-26297">
		<tag k="name" v="Granly" />
		<tag k="place" v="farm" />
		<tag k="ssr:date" v="2019-12-27" />
		<tag k="ssr:gruppe" v="gardsbebyggelse" />
		<tag k="ssr:hovedgruppe" v="bebyggelse" />
		<tag k="ssr:stedsnr" v="847787" />
		<tag k="ssr:type" v="bruk" />
	</node>
	<node lat="59.36360833454592" lon="10.952827783534113" id="-26298">
		<tag k="name" v="Slangsvoll" />
		<tag k="place" v="farm" />
		<tag k="ssr:date" v="2019-12-27" />
		<tag k="ssr:gruppe" v="gardsbebyggelse" />
		<tag k="ssr:hovedgruppe" v="bebyggelse" />
		<tag k="ssr:stedsnr" v="847571" />
		<tag k="ssr:type" v="bruk" />
	</node>
	<node lat="59.31273055227753" lon="10.883266668746726" id="-26299">
		<tag k="name" v="Hissingby" />
		<tag k="place" v="locality" />
		<tag k="ssr:date" v="2019-12-27" />
		<tag k="ssr:gruppe" v="kulturminner" />
		<tag k="ssr:hovedgruppe" v="kultur" />
		<tag k="ssr:stedsnr" v="847874" />
		<tag k="ssr:type" v="annenKulturdetalj" />
	</node>
	<node lat="59.361289236386426" lon="10.794766591578098" id="-26300">
		<tag k="name" v="Sogn" />
		<tag k="place" v="farm" />
		<tag k="ssr:date" v="2020-08-12" />
		<tag k="ssr:gruppe" v="gardsbebyggelse" />
		<tag k="ssr:hovedgruppe" v="bebyggelse" />
		<tag k="ssr:stedsnr" v="852264" />
		<tag k="ssr:type" v="gard" />
	</node>
	<node lat="59.41121944236029" lon="10.763413891467753" id="-26301">
		<tag k="name" v="Nygård" />
		<tag k="place" v="farm" />
		<tag k="ssr:date" v="2019-12-27" />
		<tag k="ssr:gruppe" v="gardsbebyggelse" />
		<tag k="ssr:hovedgruppe" v="bebyggelse" />
		<tag k="ssr:stedsnr" v="852284" />
		<tag k="ssr:type" v="bruk" />
	</node>
	<node lat="59.290082106104485" lon="10.754246829928205" id="-26302">
		<tag k="name" v="Saltnes" />
		<tag k="place" v="quarter" />
		<tag k="ssr:date" v="2020-08-12" />
		<tag k="ssr:gruppe" v="bebyggelsesområder" />
		<tag k="ssr:hovedgruppe" v="bebyggelse" />
		<tag k="ssr:stedsnr" v="853401" />
		<tag k="ssr:type" v="tettbebyggelse" />
	</node>
	<node lat="59.3171333368069" lon="10.729241673963264" id="-26303">
		<tag k="name" v="Husholmen" />
		<tag k="place" v="islet" />
		<tag k="ssr:date" v="2019-12-27" />
		<tag k="ssr:gruppe" v="kystkontur" />
		<tag k="ssr:hovedgruppe" v="sjø" />
		<tag k="ssr:stedsnr" v="877879" />
		<tag k="ssr:type" v="holmeISjø" />
	</node>
	<node lat="59.34528333765836" lon="10.936633341373104" id="-26304">
		<tag k="name" v="Missingmyr" />
		<tag k="place" v="neighbourhood" />
		<tag k="ssr:date" v="2019-12-27" />
		<tag k="ssr:gruppe" v="bebyggelsesområder" />
		<tag k="ssr:hovedgruppe" v="bebyggelse" />
		<tag k="ssr:stedsnr" v="935075" />
		<tag k="ssr:type" v="boligfelt" />
	</node>
	<node lat="59.3536388910771" lon="10.969441667698147" id="-26306">
		<tag k="name" v="Sagabekken" />
		<tag k="ssr:date" v="2019-12-27" />
		<tag k="ssr:gruppe" v="rennendeVann" />
		<tag k="ssr:hovedgruppe" v="ferskvann" />
		<tag k="ssr:stedsnr" v="962364" />
		<tag k="ssr:type" v="bekk" />
		<tag k="waterway" v="stream" />
	</node>
	<node lat="59.31059166684954" lon="10.744638894970526" id="-26307">
		<tag k="name" v="Svarteskjærtangen" />
		<tag k="natural" v="cape" />
		<tag k="ssr:date" v="2019-12-27" />
		<tag k="ssr:gruppe" v="kystkontur" />
		<tag k="ssr:hovedgruppe" v="sjø" />
		<tag k="ssr:stedsnr" v="966564" />
		<tag k="ssr:type" v="nesISjø" />
	</node>
	<node lat="59.2790361100729" lon="10.676466674842105" id="-26308">
		<tag k="fixme" v="consider boundary=protected_area and relevant protect_class if not nature reserve" />
		<tag k="leisure" v="nature_reserve" />
		<tag k="name" v="Søndre Sletter naturreservat" />
		<tag k="ssr:date" v="2019-12-27" />
		<tag k="ssr:gruppe" v="verne-OgBruksområder" />
		<tag k="ssr:hovedgruppe" v="offentligAdministrasjon" />
		<tag k="ssr:stedsnr" v="966581" />
		<tag k="ssr:type" v="verneområde" />
	</node>
	<node lat="59.327133334667415" lon="10.738227771077517" id="-26309">
		<tag k="fixme" v="consider boundary=protected_area and relevant protect_class if not nature reserve" />
		<tag k="leisure" v="nature_reserve" />
		<tag k="name" v="Kurefjorden naturreservat" />
		<tag k="ssr:date" v="2019-12-27" />
		<tag k="ssr:gruppe" v="verne-OgBruksområder" />
		<tag k="ssr:hovedgruppe" v="offentligAdministrasjon" />
		<tag k="ssr:stedsnr" v="966962" />
		<tag k="ssr:type" v="verneområde" />
	</node>
	<node lat="59.37521389330893" lon="10.86131110473426" id="-26310">
		<tag k="name" v="Klokkerne" />
		<tag k="place" v="islet" />
		<tag k="ssr:date" v="2019-12-27" />
		<tag k="ssr:gruppe" v="ferskvannskontur" />
		<tag k="ssr:hovedgruppe" v="ferskvann" />
		<tag k="ssr:stedsnr" v="968281" />
		<tag k="ssr:type" v="holme" />
	</node>
	<node lat="59.35597222172238" lon="10.927461104384099" id="-26311">
		<tag k="fixme" v="consider natural=peak for the most distinct mountains in the district" />
		<tag k="name" v="Bunnåsen" />
		<tag k="natural" v="hill" />
		<tag k="place" v="locality" />
		<tag k="ssr:date" v="2019-12-27" />
		<tag k="ssr:gruppe" v="høyder" />
		<tag k="ssr:hovedgruppe" v="terreng" />
		<tag k="ssr:stedsnr" v="968283" />
		<tag k="ssr:type" v="ås" />
	</node>
	<node lat="59.34118352667193" lon="10.847864071350418" id="-26312">
		<tag k="name" v="Stranden" />
		<tag k="place" v="farm" />
		<tag k="ssr:date" v="2020-08-12" />
		<tag k="ssr:gruppe" v="gardsbebyggelse" />
		<tag k="ssr:hovedgruppe" v="bebyggelse" />
		<tag k="ssr:stedsnr" v="968362" />
		<tag k="ssr:type" v="gard" />
	</node>
	<node lat="59.31936944887296" lon="10.903597217458278" id="-26313">
		<tag k="alt_name" v="Tofteberg vestre" />
		<tag k="name" v="Vestre Tofteberg" />
		<tag k="place" v="farm" />
		<tag k="ssr:date" v="2019-12-27" />
		<tag k="ssr:gruppe" v="gardsbebyggelse" />
		<tag k="ssr:hovedgruppe" v="bebyggelse" />
		<tag k="ssr:stedsnr" v="968785" />
		<tag k="ssr:type" v="bruk" />
	</node>
	<node lat="59.39459022590528" lon="10.946056385631055" id="-26314">
		<tag k="fixme" v="consider natural=peak for the most distinct mountains in the district" />
		<tag k="name" v="Piperødåsen" />
		<tag k="natural" v="hill" />
		<tag k="place" v="locality" />
		<tag k="ssr:date" v="2020-06-09" />
		<tag k="ssr:gruppe" v="høyder" />
		<tag k="ssr:hovedgruppe" v="terreng" />
		<tag k="ssr:stedsnr" v="972956" />
		<tag k="ssr:type" v="ås" />
	</node>
	<node lat="59.36715618293975" lon="10.857248483928714" id="-26592">
		<tag k="name" v="Langøya" />
		<tag k="place" v="farm" />
		<tag k="ssr:date" v="2020-08-12" />
		<tag k="ssr:gruppe" v="gardsbebyggelse" />
		<tag k="ssr:hovedgruppe" v="bebyggelse" />
		<tag k="ssr:stedsnr" v="1077881" />
		<tag k="ssr:type" v="gard" />
	</node>
	<node lat="59.351591266851315" lon="10.8487037247238" id="-26593">
		<tag k="name" v="Stensrød" />
		<tag k="place" v="farm" />
		<tag k="ssr:date" v="2020-08-13" />
		<tag k="ssr:gruppe" v="gardsbebyggelse" />
		<tag k="ssr:hovedgruppe" v="bebyggelse" />
		<tag k="ssr:stedsnr" v="1077898" />
		<tag k="ssr:type" v="gard" />
	</node>
	<node lat="59.32133016065259" lon="10.801545465833287" id="-26597">
		<tag k="name" v="Krokstad" />
		<tag k="place" v="locality" />
		<tag k="ssr:date" v="2022-06-07" />
		<tag k="ssr:gruppe" v="gardsbebyggelse" />
		<tag k="ssr:hovedgruppe" v="bebyggelse" />
		<tag k="ssr:stedsnr" v="1085318" />
		<tag k="ssr:type" v="eiendom" />
	</node>
</osm>
