<?xml version="1.0" encoding="UTF-8"?>
<osm version="0.6" generator="osmapis">
	<node lat="59.35176619494113" lon="10.871665070224413" id="-26938">
		<tag k="alt_name" v="Råde" />
		<tag k="name" v="Råde kommune" />
		<tag k="ssr:date" v="2019-12-27" />
		<tag k="ssr:gruppe" v="administrativeIndelinger" />
		<tag k="ssr:hovedgruppe" v="offentligAdministrasjon" />
		<tag k="ssr:stedsnr" v="935265" />
		<tag k="ssr:type" v="kommune" />
	</node>
	<node lat="59.35169772332447" lon="10.863461298684504" id="-27154">
		<tag k="name" v="Fjellveien" />
		<tag k="ssr:date" v="2019-12-27" />
		<tag k="ssr:gruppe" v="veg" />
		<tag k="ssr:hovedgruppe" v="infrastruktur" />
		<tag k="ssr:stedsnr" v="1060671" />
		<tag k="ssr:type" v="adressenavn" />
	</node>
	<node lat="59.351741100240865" lon="10.869973578062028" id="-27155">
		<tag k="name" v="Skogveien" />
		<tag k="ssr:date" v="2019-12-27" />
		<tag k="ssr:gruppe" v="veg" />
		<tag k="ssr:hovedgruppe" v="infrastruktur" />
		<tag k="ssr:stedsnr" v="1060672" />
		<tag k="ssr:type" v="adressenavn" />
	</node>
	<node lat="59.35337465216681" lon="10.86550026885438" id="-27156">
		<tag k="name" v="Elgveien" />
		<tag k="ssr:date" v="2019-12-27" />
		<tag k="ssr:gruppe" v="veg" />
		<tag k="ssr:hovedgruppe" v="infrastruktur" />
		<tag k="ssr:stedsnr" v="1060673" />
		<tag k="ssr:type" v="adressenavn" />
	</node>
	<node lat="59.349726050366804" lon="10.866636493840758" id="-27157">
		<tag k="name" v="Stubben" />
		<tag k="ssr:date" v="2019-12-27" />
		<tag k="ssr:gruppe" v="veg" />
		<tag k="ssr:hovedgruppe" v="infrastruktur" />
		<tag k="ssr:stedsnr" v="1060674" />
		<tag k="ssr:type" v="adressenavn" />
	</node>
	<node lat="59.35324148627725" lon="10.859159882747521" id="-27158">
		<tag k="name" v="Falkeveien" />
		<tag k="ssr:date" v="2019-12-27" />
		<tag k="ssr:gruppe" v="veg" />
		<tag k="ssr:hovedgruppe" v="infrastruktur" />
		<tag k="ssr:stedsnr" v="1060675" />
		<tag k="ssr:type" v="adressenavn" />
	</node>
	<node lat="59.3523690953776" lon="10.860312212771225" id="-27159">
		<tag k="name" v="Orreveien" />
		<tag k="ssr:date" v="2019-12-27" />
		<tag k="ssr:gruppe" v="veg" />
		<tag k="ssr:hovedgruppe" v="infrastruktur" />
		<tag k="ssr:stedsnr" v="1060676" />
		<tag k="ssr:type" v="adressenavn" />
	</node>
	<node lat="59.35064414922339" lon="10.870123577391643" id="-27160">
		<tag k="name" v="Parkveien" />
		<tag k="ssr:date" v="2019-12-27" />
		<tag k="ssr:gruppe" v="veg" />
		<tag k="ssr:hovedgruppe" v="infrastruktur" />
		<tag k="ssr:stedsnr" v="1060678" />
		<tag k="ssr:type" v="adressenavn" />
	</node>
	<node lat="59.351980340100724" lon="10.86437590342135" id="-27161">
		<tag k="name" v="Furuveien" />
		<tag k="ssr:date" v="2019-12-27" />
		<tag k="ssr:gruppe" v="veg" />
		<tag k="ssr:hovedgruppe" v="infrastruktur" />
		<tag k="ssr:stedsnr" v="1060679" />
		<tag k="ssr:type" v="adressenavn" />
	</node>
	<node lat="59.357468486970156" lon="10.867546483637447" id="-27162">
		<tag k="name" v="Starengveien" />
		<tag k="ssr:date" v="2019-12-27" />
		<tag k="ssr:gruppe" v="veg" />
		<tag k="ssr:hovedgruppe" v="infrastruktur" />
		<tag k="ssr:stedsnr" v="1060680" />
		<tag k="ssr:type" v="adressenavn" />
	</node>
	<node lat="59.3535636443544" lon="10.863608999752058" id="-27163">
		<tag k="name" v="Ekornveien" />
		<tag k="ssr:date" v="2019-12-27" />
		<tag k="ssr:gruppe" v="veg" />
		<tag k="ssr:hovedgruppe" v="infrastruktur" />
		<tag k="ssr:stedsnr" v="1060682" />
		<tag k="ssr:type" v="adressenavn" />
	</node>
	<node lat="59.3141974500705" lon="10.884535963735937" id="-27164">
		<tag k="name" v="Fredrikstadveien" />
		<tag k="ssr:date" v="2019-12-27" />
		<tag k="ssr:gruppe" v="veg" />
		<tag k="ssr:hovedgruppe" v="infrastruktur" />
		<tag k="ssr:stedsnr" v="1060683" />
		<tag k="ssr:type" v="adressenavn" />
	</node>
	<node lat="59.34868799915164" lon="10.87189320707695" id="-27165">
		<tag k="name" v="Skoleveien" />
		<tag k="ssr:date" v="2019-12-27" />
		<tag k="ssr:gruppe" v="veg" />
		<tag k="ssr:hovedgruppe" v="infrastruktur" />
		<tag k="ssr:stedsnr" v="1060684" />
		<tag k="ssr:type" v="adressenavn" />
	</node>
	<node lat="59.351205674412235" lon="10.871243756990522" id="-27166">
		<tag k="name" v="Ringveien" />
		<tag k="ssr:date" v="2019-12-27" />
		<tag k="ssr:gruppe" v="veg" />
		<tag k="ssr:hovedgruppe" v="infrastruktur" />
		<tag k="ssr:stedsnr" v="1060685" />
		<tag k="ssr:type" v="adressenavn" />
	</node>
	<node lat="59.35140093715556" lon="10.869377766037907" id="-27167">
		<tag k="name" v="Everksveien" />
		<tag k="ssr:date" v="2019-12-27" />
		<tag k="ssr:gruppe" v="veg" />
		<tag k="ssr:hovedgruppe" v="infrastruktur" />
		<tag k="ssr:stedsnr" v="1060687" />
		<tag k="ssr:type" v="adressenavn" />
	</node>
	<node lat="59.35461886529859" lon="10.862607004091894" id="-27168">
		<tag k="name" v="Rådyrveien" />
		<tag k="ssr:date" v="2019-12-27" />
		<tag k="ssr:gruppe" v="veg" />
		<tag k="ssr:hovedgruppe" v="infrastruktur" />
		<tag k="ssr:stedsnr" v="1060688" />
		<tag k="ssr:type" v="adressenavn" />
	</node>
	<node lat="59.353655571079734" lon="10.862342306507914" id="-27169">
		<tag k="name" v="Hagebyveien" />
		<tag k="ssr:date" v="2019-12-27" />
		<tag k="ssr:gruppe" v="veg" />
		<tag k="ssr:hovedgruppe" v="infrastruktur" />
		<tag k="ssr:stedsnr" v="1060689" />
		<tag k="ssr:type" v="adressenavn" />
	</node>
	<node lat="59.3529412221779" lon="10.854160571171219" id="-27170">
		<tag k="name" v="Rugdeveien" />
		<tag k="ssr:date" v="2019-12-27" />
		<tag k="ssr:gruppe" v="veg" />
		<tag k="ssr:hovedgruppe" v="infrastruktur" />
		<tag k="ssr:stedsnr" v="1060690" />
		<tag k="ssr:type" v="adressenavn" />
	</node>
	<node lat="59.348702172634496" lon="10.855831892217621" id="-27171">
		<tag k="name" v="Ørneveien" />
		<tag k="ssr:date" v="2019-12-27" />
		<tag k="ssr:gruppe" v="veg" />
		<tag k="ssr:hovedgruppe" v="infrastruktur" />
		<tag k="ssr:stedsnr" v="1060692" />
		<tag k="ssr:type" v="adressenavn" />
	</node>
	<node lat="59.352261086896846" lon="10.854035860439001" id="-27172">
		<tag k="name" v="Stensrødveien" />
		<tag k="ssr:date" v="2019-12-27" />
		<tag k="ssr:gruppe" v="veg" />
		<tag k="ssr:hovedgruppe" v="infrastruktur" />
		<tag k="ssr:stedsnr" v="1060694" />
		<tag k="ssr:type" v="adressenavn" />
	</node>
	<node lat="59.35240030014763" lon="10.87134673295488" id="-27173">
		<tag k="name" v="Mosseveien" />
		<tag k="ssr:date" v="2019-12-27" />
		<tag k="ssr:gruppe" v="veg" />
		<tag k="ssr:hovedgruppe" v="infrastruktur" />
		<tag k="ssr:stedsnr" v="1060696" />
		<tag k="ssr:type" v="adressenavn" />
	</node>
	<node lat="59.351205674412235" lon="10.871243756990522" id="-27174">
		<tag k="name" v="Skråtorpveien" />
		<tag k="ssr:date" v="2019-12-27" />
		<tag k="ssr:gruppe" v="veg" />
		<tag k="ssr:hovedgruppe" v="infrastruktur" />
		<tag k="ssr:stedsnr" v="1060699" />
		<tag k="ssr:type" v="adressenavn" />
	</node>
	<node lat="59.353130663612184" lon="10.851047172000667" id="-27175">
		<tag k="name" v="Stien" />
		<tag k="ssr:date" v="2019-12-27" />
		<tag k="ssr:gruppe" v="veg" />
		<tag k="ssr:hovedgruppe" v="infrastruktur" />
		<tag k="ssr:stedsnr" v="1060700" />
		<tag k="ssr:type" v="adressenavn" />
	</node>
	<node lat="59.35276339399939" lon="10.852162632557558" id="-27176">
		<tag k="name" v="Grindveien" />
		<tag k="ssr:date" v="2019-12-27" />
		<tag k="ssr:gruppe" v="veg" />
		<tag k="ssr:hovedgruppe" v="infrastruktur" />
		<tag k="ssr:stedsnr" v="1060702" />
		<tag k="ssr:type" v="adressenavn" />
	</node>
	<node lat="59.352370457281125" lon="10.853376283342467" id="-27177">
		<tag k="name" v="Bureveien" />
		<tag k="ssr:date" v="2019-12-27" />
		<tag k="ssr:gruppe" v="veg" />
		<tag k="ssr:hovedgruppe" v="infrastruktur" />
		<tag k="ssr:stedsnr" v="1060704" />
		<tag k="ssr:type" v="adressenavn" />
	</node>
	<node lat="59.36506679376027" lon="10.812616149711104" id="-27178">
		<tag k="name" v="Solbakken" />
		<tag k="ssr:date" v="2019-12-27" />
		<tag k="ssr:gruppe" v="veg" />
		<tag k="ssr:hovedgruppe" v="infrastruktur" />
		<tag k="ssr:stedsnr" v="1060707" />
		<tag k="ssr:type" v="adressenavn" />
	</node>
	<node lat="59.361860811644135" lon="10.82122305617599" id="-27179">
		<tag k="name" v="Haugestenveien" />
		<tag k="ssr:date" v="2019-12-27" />
		<tag k="ssr:gruppe" v="veg" />
		<tag k="ssr:hovedgruppe" v="infrastruktur" />
		<tag k="ssr:stedsnr" v="1060709" />
		<tag k="ssr:type" v="adressenavn" />
	</node>
	<node lat="59.34934804402516" lon="10.87473205909587" id="-27198">
		<tag k="name" v="Lokes vei" />
		<tag k="ssr:date" v="2019-12-27" />
		<tag k="ssr:gruppe" v="veg" />
		<tag k="ssr:hovedgruppe" v="infrastruktur" />
		<tag k="ssr:stedsnr" v="1062537" />
		<tag k="ssr:type" v="adressenavn" />
	</node>
	<node lat="59.34998152831184" lon="10.874832913015592" id="-27199">
		<tag k="name" v="Odinsvei" />
		<tag k="ssr:date" v="2019-12-27" />
		<tag k="ssr:gruppe" v="veg" />
		<tag k="ssr:hovedgruppe" v="infrastruktur" />
		<tag k="ssr:stedsnr" v="1062538" />
		<tag k="ssr:type" v="adressenavn" />
	</node>
	<node lat="59.34547105101468" lon="10.922508152379189" id="-27200">
		<tag k="name" v="Kongeveien" />
		<tag k="ssr:date" v="2019-12-27" />
		<tag k="ssr:gruppe" v="veg" />
		<tag k="ssr:hovedgruppe" v="infrastruktur" />
		<tag k="ssr:stedsnr" v="1062540" />
		<tag k="ssr:type" v="adressenavn" />
	</node>
	<node lat="59.34898479925293" lon="10.889641883063348" id="-27201">
		<tag k="name" v="Tårnveien" />
		<tag k="ssr:date" v="2019-12-27" />
		<tag k="ssr:gruppe" v="veg" />
		<tag k="ssr:hovedgruppe" v="infrastruktur" />
		<tag k="ssr:stedsnr" v="1062541" />
		<tag k="ssr:type" v="adressenavn" />
	</node>
	<node lat="59.34841702790612" lon="10.889284030757977" id="-27202">
		<tag k="name" v="Skovlyveien" />
		<tag k="ssr:date" v="2019-12-27" />
		<tag k="ssr:gruppe" v="veg" />
		<tag k="ssr:hovedgruppe" v="infrastruktur" />
		<tag k="ssr:stedsnr" v="1062542" />
		<tag k="ssr:type" v="adressenavn" />
	</node>
	<node lat="59.348945495961296" lon="10.891145597404723" id="-27203">
		<tag k="name" v="Hauka" />
		<tag k="ssr:date" v="2019-12-27" />
		<tag k="ssr:gruppe" v="veg" />
		<tag k="ssr:hovedgruppe" v="infrastruktur" />
		<tag k="ssr:stedsnr" v="1062544" />
		<tag k="ssr:type" v="adressenavn" />
	</node>
	<node lat="59.347837831477825" lon="10.859929802998849" id="-27204">
		<tag k="name" v="Stasjonsveien" />
		<tag k="ssr:date" v="2019-12-27" />
		<tag k="ssr:gruppe" v="veg" />
		<tag k="ssr:hovedgruppe" v="infrastruktur" />
		<tag k="ssr:stedsnr" v="1062545" />
		<tag k="ssr:type" v="adressenavn" />
	</node>
	<node lat="59.35033916662402" lon="10.874882782426413" id="-27205">
		<tag k="name" v="Strømshaugveien" />
		<tag k="ssr:date" v="2019-12-27" />
		<tag k="ssr:gruppe" v="veg" />
		<tag k="ssr:hovedgruppe" v="infrastruktur" />
		<tag k="ssr:stedsnr" v="1062546" />
		<tag k="ssr:type" v="adressenavn" />
	</node>
	<node lat="59.324886839786195" lon="10.948604808160495" id="-27206">
		<tag k="name" v="Sarpsborgveien" />
		<tag k="ssr:date" v="2019-12-27" />
		<tag k="ssr:gruppe" v="veg" />
		<tag k="ssr:hovedgruppe" v="infrastruktur" />
		<tag k="ssr:stedsnr" v="1062547" />
		<tag k="ssr:type" v="adressenavn" />
	</node>
	<node lat="59.346881645774666" lon="10.938237181672116" id="-27331">
		<tag k="name" v="Feltspatveien" />
		<tag k="ssr:date" v="2019-12-27" />
		<tag k="ssr:gruppe" v="veg" />
		<tag k="ssr:hovedgruppe" v="infrastruktur" />
		<tag k="ssr:stedsnr" v="1062499" />
		<tag k="ssr:type" v="adressenavn" />
	</node>
	<node lat="59.347302966249714" lon="10.93750549633716" id="-27332">
		<tag k="name" v="Glimmerveien" />
		<tag k="ssr:date" v="2019-12-27" />
		<tag k="ssr:gruppe" v="veg" />
		<tag k="ssr:hovedgruppe" v="infrastruktur" />
		<tag k="ssr:stedsnr" v="1062500" />
		<tag k="ssr:type" v="adressenavn" />
	</node>
	<node lat="59.3471053686517" lon="10.937800248100638" id="-27333">
		<tag k="name" v="Bergkrystallen" />
		<tag k="ssr:date" v="2019-12-27" />
		<tag k="ssr:gruppe" v="veg" />
		<tag k="ssr:hovedgruppe" v="infrastruktur" />
		<tag k="ssr:stedsnr" v="1062501" />
		<tag k="ssr:type" v="adressenavn" />
	</node>
	<node lat="59.35464227328035" lon="10.856529024092543" id="-27338">
		<tag k="name" v="Hjorteveien" />
		<tag k="ssr:date" v="2019-12-27" />
		<tag k="ssr:gruppe" v="veg" />
		<tag k="ssr:hovedgruppe" v="infrastruktur" />
		<tag k="ssr:stedsnr" v="1062512" />
		<tag k="ssr:type" v="adressenavn" />
	</node>
	<node lat="59.29653553155943" lon="10.77220859178163" id="-27339">
		<tag k="name" v="Skovbølet" />
		<tag k="ssr:date" v="2019-12-27" />
		<tag k="ssr:gruppe" v="veg" />
		<tag k="ssr:hovedgruppe" v="infrastruktur" />
		<tag k="ssr:stedsnr" v="1062513" />
		<tag k="ssr:type" v="adressenavn" />
	</node>
	<node lat="59.3465005681958" lon="10.923916092272478" id="-27340">
		<tag k="name" v="Gillingsrødveien" />
		<tag k="ssr:date" v="2019-12-27" />
		<tag k="ssr:gruppe" v="veg" />
		<tag k="ssr:hovedgruppe" v="infrastruktur" />
		<tag k="ssr:stedsnr" v="1062514" />
		<tag k="ssr:type" v="adressenavn" />
	</node>
	<node lat="59.35470794881703" lon="10.87913800970564" id="-27341">
		<tag k="name" v="Bruksveien" />
		<tag k="ssr:date" v="2019-12-27" />
		<tag k="ssr:gruppe" v="veg" />
		<tag k="ssr:hovedgruppe" v="infrastruktur" />
		<tag k="ssr:stedsnr" v="1062515" />
		<tag k="ssr:type" v="adressenavn" />
	</node>
	<node lat="59.3466407535229" lon="10.938556471983594" id="-27342">
		<tag k="name" v="Kvartsveien" />
		<tag k="ssr:date" v="2019-12-27" />
		<tag k="ssr:gruppe" v="veg" />
		<tag k="ssr:hovedgruppe" v="infrastruktur" />
		<tag k="ssr:stedsnr" v="1062516" />
		<tag k="ssr:type" v="adressenavn" />
	</node>
	<node lat="59.34307407581179" lon="10.937319570962549" id="-27343">
		<tag k="name" v="Granittveien" />
		<tag k="ssr:date" v="2019-12-27" />
		<tag k="ssr:gruppe" v="veg" />
		<tag k="ssr:hovedgruppe" v="infrastruktur" />
		<tag k="ssr:stedsnr" v="1062518" />
		<tag k="ssr:type" v="adressenavn" />
	</node>
	<node lat="59.29477465006515" lon="10.763395297524589" id="-27344">
		<tag k="name" v="Fiolveien" />
		<tag k="ssr:date" v="2019-12-27" />
		<tag k="ssr:gruppe" v="veg" />
		<tag k="ssr:hovedgruppe" v="infrastruktur" />
		<tag k="ssr:stedsnr" v="1062520" />
		<tag k="ssr:type" v="adressenavn" />
	</node>
	<node lat="59.29275756137159" lon="10.763050539936144" id="-27345">
		<tag k="name" v="Liljeveien" />
		<tag k="ssr:date" v="2019-12-27" />
		<tag k="ssr:gruppe" v="veg" />
		<tag k="ssr:hovedgruppe" v="infrastruktur" />
		<tag k="ssr:stedsnr" v="1062521" />
		<tag k="ssr:type" v="adressenavn" />
	</node>
	<node lat="59.35000610656406" lon="10.860624964967885" id="-27346">
		<tag k="name" v="Fasanveien" />
		<tag k="ssr:date" v="2019-12-27" />
		<tag k="ssr:gruppe" v="veg" />
		<tag k="ssr:hovedgruppe" v="infrastruktur" />
		<tag k="ssr:stedsnr" v="1062522" />
		<tag k="ssr:type" v="adressenavn" />
	</node>
	<node lat="59.294232222880325" lon="10.758139981855342" id="-27347">
		<tag k="name" v="Måkeveien" />
		<tag k="ssr:date" v="2019-12-27" />
		<tag k="ssr:gruppe" v="veg" />
		<tag k="ssr:hovedgruppe" v="infrastruktur" />
		<tag k="ssr:stedsnr" v="1062523" />
		<tag k="ssr:type" v="adressenavn" />
	</node>
	<node lat="59.294106309990184" lon="10.758635568324797" id="-27348">
		<tag k="name" v="Alkeveien" />
		<tag k="ssr:date" v="2019-12-27" />
		<tag k="ssr:gruppe" v="veg" />
		<tag k="ssr:hovedgruppe" v="infrastruktur" />
		<tag k="ssr:stedsnr" v="1062524" />
		<tag k="ssr:type" v="adressenavn" />
	</node>
	<node lat="59.29386330201133" lon="10.759318032926876" id="-27349">
		<tag k="name" v="Terneveien" />
		<tag k="ssr:date" v="2019-12-27" />
		<tag k="ssr:gruppe" v="veg" />
		<tag k="ssr:hovedgruppe" v="infrastruktur" />
		<tag k="ssr:stedsnr" v="1062525" />
		<tag k="ssr:type" v="adressenavn" />
	</node>
	<node lat="59.293868200490756" lon="10.764710537319363" id="-27350">
		<tag k="name" v="Grendehusveien" />
		<tag k="ssr:date" v="2019-12-27" />
		<tag k="ssr:gruppe" v="veg" />
		<tag k="ssr:hovedgruppe" v="infrastruktur" />
		<tag k="ssr:stedsnr" v="1062526" />
		<tag k="ssr:type" v="adressenavn" />
	</node>
	<node lat="59.295149228777134" lon="10.766191213783825" id="-27351">
		<tag k="name" v="Spetalenveien" />
		<tag k="ssr:date" v="2019-12-27" />
		<tag k="ssr:gruppe" v="veg" />
		<tag k="ssr:hovedgruppe" v="infrastruktur" />
		<tag k="ssr:stedsnr" v="1062528" />
		<tag k="ssr:type" v="adressenavn" />
	</node>
	<node lat="59.349410158115965" lon="10.88138245092872" id="-27352">
		<tag k="name" v="Treull alle" />
		<tag k="ssr:date" v="2019-12-27" />
		<tag k="ssr:gruppe" v="veg" />
		<tag k="ssr:hovedgruppe" v="infrastruktur" />
		<tag k="ssr:stedsnr" v="1062529" />
		<tag k="ssr:type" v="adressenavn" />
	</node>
	<node lat="59.28975088896028" lon="10.758976281068358" id="-27353">
		<tag k="name" v="Saltnesfjellet" />
		<tag k="ssr:date" v="2019-12-27" />
		<tag k="ssr:gruppe" v="veg" />
		<tag k="ssr:hovedgruppe" v="infrastruktur" />
		<tag k="ssr:stedsnr" v="1062531" />
		<tag k="ssr:type" v="adressenavn" />
	</node>
	<node lat="59.34901133884793" lon="10.870926596527712" id="-27354">
		<tag k="name" v="Øvre Langbråten" />
		<tag k="ssr:date" v="2019-12-27" />
		<tag k="ssr:gruppe" v="veg" />
		<tag k="ssr:hovedgruppe" v="infrastruktur" />
		<tag k="ssr:stedsnr" v="1062534" />
		<tag k="ssr:type" v="adressenavn" />
	</node>
	<node lat="59.349712190803835" lon="10.880621311221246" id="-27355">
		<tag k="name" v="Østre Tingvei" />
		<tag k="ssr:date" v="2019-12-27" />
		<tag k="ssr:gruppe" v="veg" />
		<tag k="ssr:hovedgruppe" v="infrastruktur" />
		<tag k="ssr:stedsnr" v="1062535" />
		<tag k="ssr:type" v="adressenavn" />
	</node>
	<node lat="59.35176481195715" lon="10.85875542274645" id="-27361">
		<tag k="name" v="Tiurveien" />
		<tag k="ssr:date" v="2019-12-27" />
		<tag k="ssr:gruppe" v="veg" />
		<tag k="ssr:hovedgruppe" v="infrastruktur" />
		<tag k="ssr:stedsnr" v="1062549" />
		<tag k="ssr:type" v="adressenavn" />
	</node>
	<node lat="59.34934804402516" lon="10.87473205909587" id="-27362">
		<tag k="name" v="Vestre Tingvei" />
		<tag k="ssr:date" v="2019-12-27" />
		<tag k="ssr:gruppe" v="veg" />
		<tag k="ssr:hovedgruppe" v="infrastruktur" />
		<tag k="ssr:stedsnr" v="1062550" />
		<tag k="ssr:type" v="adressenavn" />
	</node>
	<node lat="59.35072123107871" lon="10.875334634237877" id="-27363">
		<tag k="name" v="Torsvei" />
		<tag k="ssr:date" v="2019-12-27" />
		<tag k="ssr:gruppe" v="veg" />
		<tag k="ssr:hovedgruppe" v="infrastruktur" />
		<tag k="ssr:stedsnr" v="1062553" />
		<tag k="ssr:type" v="adressenavn" />
	</node>
	<node lat="59.35240030014763" lon="10.87134673295488" id="-27364">
		<tag k="name" v="Nethusveien" />
		<tag k="ssr:date" v="2019-12-27" />
		<tag k="ssr:gruppe" v="veg" />
		<tag k="ssr:hovedgruppe" v="infrastruktur" />
		<tag k="ssr:stedsnr" v="1062555" />
		<tag k="ssr:type" v="adressenavn" />
	</node>
	<node lat="59.351749546479816" lon="10.873458292409232" id="-27365">
		<tag k="name" v="Vansjøveien" />
		<tag k="ssr:date" v="2019-12-27" />
		<tag k="ssr:gruppe" v="veg" />
		<tag k="ssr:hovedgruppe" v="infrastruktur" />
		<tag k="ssr:stedsnr" v="1062557" />
		<tag k="ssr:type" v="adressenavn" />
	</node>
</osm>
