<?xml version="1.0" encoding="UTF-8"?>
<osm generator="osmapis" version="0.6">
	<node id="-746026" lat="63.8070472257" lon="11.7425472134">
		<tag k="fixme" v="multiple name tags, choose one and add the other to alt_name" />
		<tag k="historic" v="shieling" />
		<tag k="name" v="Helsetvollen;Bergengsvollen" />
		<tag k="place" v="locality" />
		<tag k="ssr:stedsnr" v="776949" />
	</node>
	<node id="-745462" lat="63.6514638915" lon="12.1848527855">
		<tag k="name" v="Jervdalsmyra" />
		<tag k="natural" v="wetland" />
		<tag k="ssr:stedsnr" v="329839" />
	</node>
	<node id="-745973" lat="63.6814833291" lon="11.9786083429">
		<tag k="name" v="Lemyra" />
		<tag k="natural" v="wetland" />
		<tag k="ssr:stedsnr" v="752801" />
	</node>
	<node id="-745725" lat="63.8489333301" lon="11.9972055529">
		<tag k="name" v="Langmyra" />
		<tag k="natural" v="wetland" />
		<tag k="ssr:stedsnr" v="559547" />
	</node>
	<node id="-744424" lat="63.904313892" lon="12.0721861133">
		<tag k="landuse" v="quarry" />
		<tag k="name" v="Malsåa kopparverk" />
		<tag k="ssr:stedsnr" v="499373" />
	</node>
	<node id="-745809" lat="63.7163444435" lon="11.6307861115">
		<tag k="name" v="Småmyran" />
		<tag k="natural" v="wetland" />
		<tag k="ssr:stedsnr" v="594977" />
	</node>
	<node id="-744932" lat="63.824572218" lon="11.7727888864">
		<tag k="name" v="Stamnmyra" />
		<tag k="natural" v="wetland" />
		<tag k="ssr:stedsnr" v="838154" />
	</node>
	<node id="-744418" lat="63.8053305557" lon="11.5317583237">
		<tag k="name" v="Leinsmyra" />
		<tag k="natural" v="wetland" />
		<tag k="ssr:stedsnr" v="499228" />
	</node>
	<node id="-744928" lat="63.7484388918" lon="11.8199416589">
		<tag k="historic" v="shieling" />
		<tag k="name" v="Vonavollen" />
		<tag k="place" v="locality" />
		<tag k="ssr:stedsnr" v="838056" />
	</node>
	<node id="-744926" lat="63.7913194429" lon="11.7736249907">
		<tag k="name" v="Svemyra" />
		<tag k="natural" v="wetland" />
		<tag k="ssr:stedsnr" v="838116" />
	</node>
	<node id="-745360" lat="63.7626055542" lon="12.3778805521">
		<tag k="name" v="Ørvillmyrin" />
		<tag k="natural" v="wetland" />
		<tag k="ssr:stedsnr" v="196772" />
	</node>
	<node id="-745942" lat="63.8191277759" lon="11.4722250045">
		<tag k="name" v="Yssemyra" />
		<tag k="natural" v="wetland" />
		<tag k="ssr:stedsnr" v="742197" />
	</node>
	<node id="-744917" lat="63.7966138883" lon="11.6046361119">
		<tag k="name" v="Prestgårdsmyra" />
		<tag k="natural" v="wetland" />
		<tag k="ssr:stedsnr" v="936680" />
	</node>
	<node id="-744915" lat="63.7499416666" lon="11.8064666626">
		<tag k="name" v="Nordslætta" />
		<tag k="natural" v="wetland" />
		<tag k="ssr:stedsnr" v="936623" />
	</node>
	<node id="-744388" lat="63.6874111138" lon="12.0262750103">
		<tag k="name" v="Storslættet" />
		<tag k="natural" v="wetland" />
		<tag k="ssr:stedsnr" v="498370" />
	</node>
	<node id="-744011" lat="63.8296583294" lon="11.9539777814">
		<tag k="name" v="Lauvåsmyra" />
		<tag k="natural" v="wetland" />
		<tag k="ssr:stedsnr" v="85768" />
	</node>
	<node id="-744384" lat="63.6888111103" lon="12.2400722207">
		<tag k="name" v="Bellingsflata" />
		<tag k="natural" v="wetland" />
		<tag k="ssr:stedsnr" v="498148" />
	</node>
	<node id="-745913" lat="63.7323583361" lon="11.6264833379">
		<tag k="name" v="Rovmyra" />
		<tag k="natural" v="wetland" />
		<tag k="ssr:stedsnr" v="654964" />
	</node>
	<node id="-745400" lat="63.6904944439" lon="11.7551250058">
		<tag k="alt_name" v="Steinslettet" />
		<tag k="name" v="Steinsslættet" />
		<tag k="natural" v="wetland" />
		<tag k="ssr:stedsnr" v="316325" />
	</node>
	<node id="-744372" lat="63.7991638906" lon="11.8789166629">
		<tag k="name" v="Rødflåa" />
		<tag k="natural" v="wetland" />
		<tag k="ssr:stedsnr" v="329640" />
	</node>
	<node id="-745394" lat="63.8896194475" lon="11.6856444547">
		<tag k="name" v="Aksnesslættet" />
		<tag k="natural" v="wetland" />
		<tag k="ssr:stedsnr" v="211347" />
	</node>
	<node id="-745385" lat="63.7258194447" lon="11.538211108">
		<tag k="name" v="Burmyra" />
		<tag k="natural" v="wetland" />
		<tag k="ssr:stedsnr" v="208417" />
	</node>
	<node id="-745382" lat="63.7577499985" lon="11.6558027736">
		<tag k="alt_name" v="Skardmyra" />
		<tag k="name" v="Monsmyra" />
		<tag k="natural" v="wetland" />
		<tag k="ssr:stedsnr" v="207695" />
	</node>
	<node id="-745893" lat="63.7522833377" lon="11.538077776">
		<tag k="fixme" v="multiple name tags, choose one and add the other to alt_name" />
		<tag k="name" v="Krikamyra;Sursildmyra" />
		<tag k="natural" v="wetland" />
		<tag k="ssr:stedsnr" v="632532" />
	</node>
	<node id="-746139" lat="63.7168444409" lon="11.7070888945">
		<tag k="name" v="Hoåshalleran" />
		<tag k="natural" v="wetland" />
		<tag k="ssr:stedsnr" v="838981" />
	</node>
	<node id="-745888" lat="63.7925361095" lon="11.9126694524">
		<tag k="name" v="Stamnmyra" />
		<tag k="natural" v="wetland" />
		<tag k="ssr:stedsnr" v="631646" />
	</node>
	<node id="-744340" lat="63.7238083367" lon="11.6453861064">
		<tag k="landuse" v="meadow" />
		<tag k="name" v="Kløvenget" />
		<tag k="ssr:stedsnr" v="473971" />
	</node>
	<node id="-744339" lat="63.7156361134" lon="11.6397499945">
		<tag k="name" v="Stormyra" />
		<tag k="natural" v="wetland" />
		<tag k="ssr:stedsnr" v="473968" />
	</node>
	<node id="-744337" lat="63.745572219" lon="11.6043055639">
		<tag k="name" v="Nonsskarsmyra" />
		<tag k="natural" v="wetland" />
		<tag k="ssr:stedsnr" v="473771" />
	</node>
	<node id="-744336" lat="63.7400000013" lon="11.6092833249">
		<tag k="name" v="Kjerstimyra" />
		<tag k="natural" v="wetland" />
		<tag k="ssr:stedsnr" v="473768" />
	</node>
	<node id="-744335" lat="63.7291416632" lon="11.6073694366">
		<tag k="name" v="Drangelmyra" />
		<tag k="natural" v="wetland" />
		<tag k="ssr:stedsnr" v="473765" />
	</node>
	<node id="-745870" lat="63.7604083317" lon="12.1929638807">
		<tag k="historic" v="shieling" />
		<tag k="name" v="Midtre Juldalsvollen" />
		<tag k="place" v="locality" />
		<tag k="ssr:stedsnr" v="620652" />
	</node>
	<node id="-744333" lat="63.7430055544" lon="11.5767027692">
		<tag k="name" v="Reinsslettet" />
		<tag k="place" v="locality" />
		<tag k="ssr:stedsnr" v="473760" />
	</node>
	<node id="-744147" lat="63.7241722207" lon="11.7973416692">
		<tag k="name" v="Løssimyra" />
		<tag k="natural" v="wetland" />
		<tag k="ssr:stedsnr" v="170017" />
	</node>
	<node id="-745865" lat="63.8011305595" lon="11.7599500015">
		<tag k="name" v="Hjellflåa" />
		<tag k="natural" v="wetland" />
		<tag k="ssr:stedsnr" v="620576" />
	</node>
	<node id="-744167" lat="63.7473472206" lon="11.7124861105">
		<tag k="landuse" v="meadow" />
		<tag k="name" v="Nyenget" />
		<tag k="ssr:stedsnr" v="291963" />
	</node>
	<node id="-745861" lat="63.808999999" lon="11.8233277774">
		<tag k="name" v="Holmlistormyra" />
		<tag k="natural" v="wetland" />
		<tag k="ssr:stedsnr" v="620543" />
	</node>
	<node id="-744324" lat="63.8389888869" lon="11.7770277814">
		<tag k="name" v="Snausasletta" />
		<tag k="natural" v="wetland" />
		<tag k="ssr:stedsnr" v="473132" />
	</node>
	<node id="-744320" lat="63.7785138884" lon="11.8514861059">
		<tag k="name" v="Svartåssiktet" />
		<tag k="natural" v="wetland" />
		<tag k="ssr:stedsnr" v="473085" />
	</node>
	<node id="-744318" lat="63.7469388868" lon="11.7796222302">
		<tag k="name" v="Bjørnmyra" />
		<tag k="natural" v="wetland" />
		<tag k="ssr:stedsnr" v="473077" />
	</node>
	<node id="-744316" lat="63.7069222249" lon="11.8216333297">
		<tag k="name" v="Lomtjønnmyran" />
		<tag k="natural" v="wetland" />
		<tag k="ssr:stedsnr" v="473008" />
	</node>
	<node id="-744315" lat="63.7991777767" lon="11.7189722221">
		<tag k="name" v="Steinbrumoen" />
		<tag k="natural" v="wetland" />
		<tag k="ssr:stedsnr" v="472942" />
	</node>
	<node id="-745364" lat="63.7700361113" lon="11.7800500005">
		<tag k="name" v="Stingmyra" />
		<tag k="natural" v="wetland" />
		<tag k="ssr:stedsnr" v="206640" />
	</node>
	<node id="-744309" lat="63.8238333352" lon="11.7824361021">
		<tag k="name" v="Gammelslettet" />
		<tag k="place" v="locality" />
		<tag k="ssr:stedsnr" v="291117" />
	</node>
	<node id="-744307" lat="63.7982333363" lon="12.4010777831">
		<tag k="name" v="Lukasmyra" />
		<tag k="natural" v="wetland" />
		<tag k="ssr:stedsnr" v="268853" />
	</node>
	<node id="-745327" lat="63.7479666677" lon="11.8015611109">
		<tag k="name" v="Stormyra" />
		<tag k="natural" v="wetland" />
		<tag k="ssr:stedsnr" v="195297" />
	</node>
	<node id="-745277" lat="63.7749472262" lon="12.3328027852">
		<tag k="name" v="Høgmyra" />
		<tag k="natural" v="wetland" />
		<tag k="ssr:stedsnr" v="135750" />
	</node>
	<node id="-744297" lat="63.7272333304" lon="11.5800444479">
		<tag k="name" v="Jomfrumyra" />
		<tag k="natural" v="wetland" />
		<tag k="ssr:stedsnr" v="454998" />
	</node>
	<node id="-744296" lat="63.8141138913" lon="12.4634305589">
		<tag k="name" v="Sessilvollmyrin" />
		<tag k="natural" v="wetland" />
		<tag k="ssr:stedsnr" v="257765" />
	</node>
	<node id="-744807" lat="63.6826888915" lon="11.7865527747">
		<tag k="name" v="Melbymyra" />
		<tag k="natural" v="wetland" />
		<tag k="ssr:stedsnr" v="923322" />
	</node>
	<node id="-745315" lat="63.8499777782" lon="11.4655499995">
		<tag k="historic" v="shieling" />
		<tag k="name" v="Myrsvollen" />
		<tag k="place" v="locality" />
		<tag k="ssr:stedsnr" v="170788" />
	</node>
	<node id="-746021" lat="63.8191111074" lon="11.6888055503">
		<tag k="name" v="Moamyra" />
		<tag k="natural" v="wetland" />
		<tag k="ssr:stedsnr" v="776926" />
	</node>
	<node id="-745312" lat="63.7276194449" lon="11.6199277874">
		<tag k="name" v="Litlmoenget" />
		<tag k="place" v="locality" />
		<tag k="ssr:stedsnr" v="170769" />
	</node>
	<node id="-745311" lat="63.863030555" lon="11.7075166597">
		<tag k="name" v="Stiklestadmyra" />
		<tag k="natural" v="wetland" />
		<tag k="ssr:stedsnr" v="170598" />
	</node>
	<node id="-745818" lat="63.7353527755" lon="11.5376138954">
		<tag k="alt_name" v="Ravlomyra" />
		<tag k="name" v="Ravlomyran" />
		<tag k="natural" v="wetland" />
		<tag k="ssr:stedsnr" v="619661" />
	</node>
	<node id="-745304" lat="63.8010722183" lon="11.7987583282">
		<tag k="name" v="Brumyra" />
		<tag k="natural" v="wetland" />
		<tag k="ssr:stedsnr" v="170101" />
	</node>
	<node id="-745815" lat="63.708077777" lon="11.9908000078">
		<tag k="historic" v="shieling" />
		<tag k="name" v="Sognavollen" />
		<tag k="place" v="locality" />
		<tag k="ssr:stedsnr" v="619335" />
	</node>
	<node id="-744278" lat="63.8550944482" lon="12.4696166588">
		<tag k="name" v="Johannesmyrin" />
		<tag k="natural" v="wetland" />
		<tag k="ssr:stedsnr" v="256716" />
	</node>
	<node id="-745492" lat="63.6604166708" lon="12.0274333413">
		<tag k="name" v="Bursfloa" />
		<tag k="natural" v="wetland" />
		<tag k="ssr:stedsnr" v="352413" />
	</node>
	<node id="-745297" lat="63.7150166664" lon="11.6021916761">
		<tag k="name" v="Storsleiparen" />
		<tag k="place" v="locality" />
		<tag k="ssr:stedsnr" v="150933" />
	</node>
	<node id="-745808" lat="63.7430583314" lon="11.6646499942">
		<tag k="name" v="Liaberga" />
		<tag k="place" v="locality" />
		<tag k="ssr:stedsnr" v="594956" />
	</node>
	<node id="-745806" lat="63.8006777755" lon="11.6994277682">
		<tag k="name" v="Stormyrin" />
		<tag k="natural" v="wetland" />
		<tag k="ssr:stedsnr" v="594934" />
	</node>
	<node id="-745805" lat="63.7925972223" lon="11.6315027812">
		<tag k="name" v="Flaugflata" />
		<tag k="place" v="locality" />
		<tag k="ssr:stedsnr" v="594929" />
	</node>
	<node id="-745100" lat="63.7374749962" lon="11.8526638901">
		<tag k="name" v="Bjønnhalsen" />
		<tag k="natural" v="wetland" />
		<tag k="ssr:stedsnr" v="49048" />
	</node>
	<node id="-744258" lat="63.6646000039" lon="12.2065694394">
		<tag k="name" v="Sjømyra" />
		<tag k="natural" v="wetland" />
		<tag k="ssr:stedsnr" v="450839" />
	</node>
	<node id="-745792" lat="63.8423555573" lon="11.7158138821">
		<tag k="name" v="Malmmyra" />
		<tag k="natural" v="wetland" />
		<tag k="ssr:stedsnr" v="594243" />
	</node>
	<node id="-744253" lat="63.7873805577" lon="11.662427777">
		<tag k="landuse" v="meadow" />
		<tag k="name" v="Holstenget" />
		<tag k="ssr:stedsnr" v="450663" />
	</node>
	<node id="-744762" lat="63.7959638927" lon="11.7043083349">
		<tag k="name" v="Bjørgmyrin" />
		<tag k="natural" v="wetland" />
		<tag k="ssr:stedsnr" v="898948" />
	</node>
	<node id="-745609" lat="63.6911277755" lon="12.0304666566">
		<tag k="name" v="Vargdalsfloa" />
		<tag k="natural" v="wetland" />
		<tag k="ssr:stedsnr" v="413436" />
	</node>
	<node id="-744756" lat="63.8193166638" lon="11.791947214">
		<tag k="name" v="Høgmyra" />
		<tag k="natural" v="wetland" />
		<tag k="ssr:stedsnr" v="898118" />
	</node>
	<node id="-745779" lat="63.8184138871" lon="11.813316675">
		<tag k="name" v="Raudmyra" />
		<tag k="natural" v="wetland" />
		<tag k="ssr:stedsnr" v="655137" />
	</node>
	<node id="-745777" lat="63.7287166655" lon="11.8504361115">
		<tag k="name" v="Setermyra" />
		<tag k="natural" v="wetland" />
		<tag k="ssr:stedsnr" v="655048" />
	</node>
	<node id="-744751" lat="63.7206250026" lon="11.6660638942">
		<tag k="name" v="Haugmyran" />
		<tag k="natural" v="wetland" />
		<tag k="ssr:stedsnr" v="716969" />
	</node>
	<node id="-744750" lat="63.7374499991" lon="11.7507638979">
		<tag k="name" v="Garnesmyra" />
		<tag k="natural" v="wetland" />
		<tag k="ssr:stedsnr" v="716959" />
	</node>
	<node id="-744739" lat="63.8069138865" lon="11.6028666692">
		<tag k="name" v="Gjardmyra" />
		<tag k="natural" v="wetland" />
		<tag k="ssr:stedsnr" v="693706" />
	</node>
	<node id="-744225" lat="63.7874829047" lon="12.3036365394">
		<tag k="historic" v="shieling" />
		<tag k="name" v="Tronsmoseteren" />
		<tag k="place" v="locality" />
		<tag k="ssr:stedsnr" v="439771" />
	</node>
	<node id="-744736" lat="63.7956166674" lon="12.3302583325">
		<tag k="name" v="Moltmyra" />
		<tag k="natural" v="wetland" />
		<tag k="ssr:stedsnr" v="693860" />
	</node>
	<node id="-744735" lat="63.8083916667" lon="12.392194446">
		<tag k="name" v="Nilsmyra" />
		<tag k="natural" v="wetland" />
		<tag k="ssr:stedsnr" v="693859" />
	</node>
	<node id="-744733" lat="63.7905527774" lon="12.3930027862">
		<tag k="name" v="Skjeftesmyra" />
		<tag k="natural" v="wetland" />
		<tag k="ssr:stedsnr" v="693856" />
	</node>
	<node id="-745755" lat="63.8283944435" lon="11.8640694526">
		<tag k="name" v="Skeikmyra" />
		<tag k="natural" v="wetland" />
		<tag k="ssr:stedsnr" v="570591" />
	</node>
	<node id="-745754" lat="63.7424944463" lon="11.8093611043">
		<tag k="name" v="Høgmyra" />
		<tag k="natural" v="wetland" />
		<tag k="ssr:stedsnr" v="655033" />
	</node>
	<node id="-745237" lat="63.6834833321" lon="12.0421027754">
		<tag k="name" v="Vollmyra" />
		<tag k="natural" v="wetland" />
		<tag k="ssr:stedsnr" v="134352" />
	</node>
	<node id="-746258" lat="63.8968333307" lon="12.160838889">
		<tag k="name" v="Nermyrin" />
		<tag k="natural" v="wetland" />
		<tag k="ssr:stedsnr" v="970261" />
	</node>
	<node id="-744664" lat="63.6976111149" lon="11.8117583396">
		<tag k="name" v="Storsteinmyra" />
		<tag k="natural" v="wetland" />
		<tag k="ssr:stedsnr" v="716021" />
	</node>
	<node id="-746249" lat="63.7294138914" lon="11.6165249956">
		<tag k="name" v="Stormoenget" />
		<tag k="place" v="locality" />
		<tag k="ssr:stedsnr" v="959743" />
	</node>
	<node id="-745224" lat="63.7251972184" lon="11.6832222302">
		<tag k="name" v="Piksteinmyra" />
		<tag k="natural" v="wetland" />
		<tag k="ssr:stedsnr" v="109971" />
	</node>
	<node id="-746247" lat="63.8736555586" lon="11.7330388944">
		<tag k="name" v="Mauråsmyra" />
		<tag k="natural" v="wetland" />
		<tag k="ssr:stedsnr" v="959568" />
	</node>
	<node id="-745217" lat="63.7466888901" lon="11.7969972306">
		<tag k="name" v="Skavhauggstormyra" />
		<tag k="natural" v="wetland" />
		<tag k="ssr:stedsnr" v="109064" />
	</node>
	<node id="-744701" lat="63.7111138918" lon="11.5948305585">
		<tag k="historic" v="shieling" />
		<tag k="name" v="Nylundvollen" />
		<tag k="place" v="locality" />
		<tag k="ssr:stedsnr" v="879945" />
	</node>
	<node id="-744700" lat="63.7232361114" lon="11.5884833406">
		<tag k="name" v="Kaldvassmyra" />
		<tag k="natural" v="wetland" />
		<tag k="ssr:stedsnr" v="879941" />
	</node>
	<node id="-745514" lat="63.8545407945" lon="11.528401067">
		<tag k="historic" v="shieling" />
		<tag k="name" v="Yssevollen" />
		<tag k="place" v="locality" />
		<tag k="ssr:stedsnr" v="377136" />
	</node>
	<node id="-744698" lat="63.7916555595" lon="11.7803222271">
		<tag k="name" v="Brannan" />
		<tag k="place" v="locality" />
		<tag k="ssr:stedsnr" v="655091" />
	</node>
	<node id="-746232" lat="63.7927055597" lon="11.7412694457">
		<tag k="name" v="Nordsveet" />
		<tag k="place" v="locality" />
		<tag k="ssr:stedsnr" v="958960" />
	</node>
	<node id="-744694" lat="63.8298777768" lon="11.5395111138">
		<tag k="name" v="Trollmyra" />
		<tag k="natural" v="wetland" />
		<tag k="ssr:stedsnr" v="632714" />
	</node>
	<node id="-746228" lat="63.6494277797" lon="12.0222833256">
		<tag k="name" v="Stuggumyra" />
		<tag k="natural" v="wetland" />
		<tag k="ssr:stedsnr" v="958424" />
	</node>
	<node id="-745201" lat="63.7908361137" lon="11.6628194465">
		<tag k="name" v="Staverenget" />
		<tag k="place" v="locality" />
		<tag k="ssr:stedsnr" v="86697" />
	</node>
	<node id="-744174" lat="63.6927527794" lon="12.0331416677">
		<tag k="name" v="Våtmyra" />
		<tag k="natural" v="wetland" />
		<tag k="ssr:stedsnr" v="195322" />
	</node>
	<node id="-746218" lat="63.8463277741" lon="11.9285638963">
		<tag k="name" v="Seterlangmyra" />
		<tag k="natural" v="wetland" />
		<tag k="ssr:stedsnr" v="874801" />
	</node>
	<node id="-745703" lat="63.6304277821" lon="12.0009999927">
		<tag k="name" v="Skaffelimyran" />
		<tag k="natural" v="wetland" />
		<tag k="ssr:stedsnr" v="559329" />
	</node>
	<node id="-744164" lat="63.7457888876" lon="11.6157999923">
		<tag k="name" v="Vassmyra" />
		<tag k="natural" v="wetland" />
		<tag k="ssr:stedsnr" v="291766" />
	</node>
	<node id="-744161" lat="63.6469888929" lon="11.9779388923">
		<tag k="name" v="Reinskinnmyra" />
		<tag k="natural" v="wetland" />
		<tag k="ssr:stedsnr" v="291434" />
	</node>
	<node id="-744672" lat="63.79404722" lon="11.758527784">
		<tag k="name" v="Marenplassen" />
		<tag k="natural" v="wetland" />
		<tag k="ssr:stedsnr" v="716093" />
	</node>
	<node id="-744670" lat="63.7456361123" lon="11.7608722283">
		<tag k="name" v="Garnesstormyra" />
		<tag k="natural" v="wetland" />
		<tag k="ssr:stedsnr" v="716064" />
	</node>
	<node id="-744157" lat="63.7348166686" lon="11.8522472236">
		<tag k="name" v="Bekkaslettan" />
		<tag k="natural" v="wetland" />
		<tag k="ssr:stedsnr" v="291039" />
	</node>
	<node id="-745691" lat="63.7282611138" lon="11.8549666714">
		<tag k="historic" v="shieling" />
		<tag k="name" v="Inndalsvollen" />
		<tag k="place" v="locality" />
		<tag k="ssr:stedsnr" v="558273" />
	</node>
	<node id="-745689" lat="63.6975388847" lon="12.2270750023">
		<tag k="historic" v="shieling" />
		<tag k="name" v="Sørbellingsvollen" />
		<tag k="place" v="locality" />
		<tag k="ssr:stedsnr" v="545138" />
	</node>
	<node id="-745176" lat="63.8374833291" lon="12.0464805467">
		<tag k="name" v="Kavlbrumyran" />
		<tag k="natural" v="wetland" />
		<tag k="ssr:stedsnr" v="75586" />
	</node>
	<node id="-744663" lat="63.8122333338" lon="11.7155750069">
		<tag k="name" v="Storsiktet" />
		<tag k="natural" v="wetland" />
		<tag k="ssr:stedsnr" v="715944" />
	</node>
	<node id="-745686" lat="63.8431666694" lon="11.5187749953">
		<tag k="name" v="Auglanmyran" />
		<tag k="natural" v="wetland" />
		<tag k="ssr:stedsnr" v="534995" />
	</node>
	<node id="-744158" lat="63.81036111" lon="11.7756916628">
		<tag k="name" v="Tjurrudalsmyra" />
		<tag k="natural" v="wetland" />
		<tag k="ssr:stedsnr" v="291088" />
	</node>
	<node id="-744659" lat="63.6845361116" lon="11.7816027814">
		<tag k="name" v="Melbymyra" />
		<tag k="natural" v="wetland" />
		<tag k="ssr:stedsnr" v="594026" />
	</node>
	<node id="-744145" lat="63.8067611128" lon="11.7114611195">
		<tag k="name" v="Tjønnmyra" />
		<tag k="natural" v="wetland" />
		<tag k="ssr:stedsnr" v="169935" />
	</node>
	<node id="-746104" lat="63.7757944436" lon="11.442469438">
		<tag k="name" v="Bergsfætta" />
		<tag k="place" v="locality" />
		<tag k="ssr:stedsnr" v="814569" />
	</node>
	<node id="-745675" lat="63.7787055584" lon="11.8293722211">
		<tag k="name" v="Aunrauvmyra" />
		<tag k="natural" v="wetland" />
		<tag k="ssr:stedsnr" v="534063" />
	</node>
	<node id="-744648" lat="63.8037722223" lon="12.4544750016">
		<tag k="name" v="Floan" />
		<tag k="natural" v="wetland" />
		<tag k="ssr:stedsnr" v="560763" />
	</node>
	<node id="-745671" lat="63.7990305519" lon="11.6620083294">
		<tag k="name" v="Skogtrøa" />
		<tag k="place" v="locality" />
		<tag k="ssr:stedsnr" v="533943" />
	</node>
	<node id="-745669" lat="63.7228083348" lon="11.8036222168">
		<tag k="name" v="Kirkamyra" />
		<tag k="natural" v="wetland" />
		<tag k="ssr:stedsnr" v="534017" />
	</node>
	<node id="-744129" lat="63.7533361116" lon="11.5435777689">
		<tag k="name" v="Langmyra" />
		<tag k="natural" v="wetland" />
		<tag k="ssr:stedsnr" v="146506" />
	</node>
	<node id="-744640" lat="63.8351000009" lon="11.971627784">
		<tag k="name" v="Langmyra" />
		<tag k="natural" v="wetland" />
		<tag k="ssr:stedsnr" v="559807" />
	</node>
	<node id="-745589" lat="63.8996333347" lon="11.8304888814">
		<tag k="name" v="Brurasløret" />
		<tag k="place" v="locality" />
		<tag k="ssr:stedsnr" v="412543" />
	</node>
	<node id="-744118" lat="63.6561277789" lon="12.2515138923">
		<tag k="name" v="Vakkermyra" />
		<tag k="natural" v="wetland" />
		<tag k="ssr:stedsnr" v="268848" />
	</node>
	<node id="-744623" lat="63.8283277745" lon="11.6423194454">
		<tag k="name" v="Klattermyra" />
		<tag k="natural" v="wetland" />
		<tag k="ssr:stedsnr" v="559207" />
	</node>
	<node id="-744622" lat="63.8270944445" lon="11.6741666693">
		<tag k="name" v="Nastadmyra" />
		<tag k="natural" v="wetland" />
		<tag k="ssr:stedsnr" v="559203" />
	</node>
	<node id="-744221" lat="63.8297000039" lon="12.4866055626">
		<tag k="name" v="Stormyra" />
		<tag k="natural" v="wetland" />
		<tag k="ssr:stedsnr" v="439741" />
	</node>
	<node id="-744619" lat="63.6743777798" lon="12.0411888981">
		<tag k="name" v="Stormyra" />
		<tag k="natural" v="wetland" />
		<tag k="ssr:stedsnr" v="559303" />
	</node>
	<node id="-744105" lat="63.7677083347" lon="11.5435916754">
		<tag k="alt_name" v="Brugjerdet" />
		<tag k="name" v="Brugjardet" />
		<tag k="place" v="locality" />
		<tag k="ssr:stedsnr" v="268549" />
	</node>
	<node id="-745638" lat="63.6164083323" lon="12.1787361164">
		<tag k="name" v="Hansmyra" />
		<tag k="natural" v="wetland" />
		<tag k="ssr:stedsnr" v="438351" />
	</node>
	<node id="-744101" lat="63.8112389858" lon="12.2622575295">
		<tag k="historic" v="shieling" />
		<tag k="name" v="Bringsåsvollen" />
		<tag k="place" v="locality" />
		<tag k="ssr:stedsnr" v="135715" />
	</node>
	<node id="-745628" lat="63.6845805553" lon="11.9276999908">
		<tag k="name" v="Kleivmyran" />
		<tag k="natural" v="wetland" />
		<tag k="ssr:stedsnr" v="438275" />
	</node>
	<node id="-744603" lat="63.8019750025" lon="11.925855551">
		<tag k="name" v="Raudmyra" />
		<tag k="natural" v="wetland" />
		<tag k="ssr:stedsnr" v="692629" />
	</node>
	<node id="-745114" lat="63.7465083311" lon="11.9237888967">
		<tag k="historic" v="shieling" />
		<tag k="name" v="Auskinvollen" />
		<tag k="place" v="locality" />
		<tag k="ssr:stedsnr" v="73270" />
	</node>
	<node id="-744303" lat="63.7599666664" lon="11.6885638986">
		<tag k="name" v="Millommyra" />
		<tag k="natural" v="wetland" />
		<tag k="ssr:stedsnr" v="268705" />
	</node>
	<node id="-744600" lat="63.7082888857" lon="11.6325916715">
		<tag k="historic" v="shieling" />
		<tag k="name" v="Hellovollen" />
		<tag k="place" v="locality" />
		<tag k="ssr:stedsnr" v="534978" />
	</node>
	<node id="-746134" lat="63.8659944422" lon="11.7238944485">
		<tag k="name" v="Hallemsvollen" />
		<tag k="place" v="locality" />
		<tag k="ssr:stedsnr" v="838612" />
	</node>
	<node id="-744596" lat="63.732094441" lon="11.6923444344">
		<tag k="name" v="Stamnmyra" />
		<tag k="natural" v="wetland" />
		<tag k="ssr:stedsnr" v="533960" />
	</node>
	<node id="-744595" lat="63.7340111076" lon="11.6534638855">
		<tag k="name" v="Liamyra" />
		<tag k="natural" v="wetland" />
		<tag k="ssr:stedsnr" v="533958" />
	</node>
	<node id="-745613" lat="63.7370222199" lon="11.6434138808">
		<tag k="name" v="Liaberga" />
		<tag k="place" v="locality" />
		<tag k="ssr:stedsnr" v="413961" />
	</node>
	<node id="-745612" lat="63.8468722223" lon="11.4673166766">
		<tag k="name" v="Ratåsmyra" />
		<tag k="natural" v="wetland" />
		<tag k="ssr:stedsnr" v="413782" />
	</node>
	<node id="-745098" lat="63.7119833346" lon="11.8253472256">
		<tag k="name" v="Merkesmyra" />
		<tag k="natural" v="wetland" />
		<tag k="ssr:stedsnr" v="49010" />
	</node>
	<node id="-744585" lat="63.821305554" lon="11.837847212">
		<tag k="name" v="Bjørnslættmyra" />
		<tag k="natural" v="wetland" />
		<tag k="ssr:stedsnr" v="510667" />
	</node>
	<node id="-744071" lat="63.7928416632" lon="11.6939861009">
		<tag k="name" v="Stinnesmyra" />
		<tag k="natural" v="wetland" />
		<tag k="ssr:stedsnr" v="109929" />
	</node>
	<node id="-745094" lat="63.8274638857" lon="11.7031805547">
		<tag k="name" v="Seterenget" />
		<tag k="place" v="locality" />
		<tag k="ssr:stedsnr" v="48936" />
	</node>
	<node id="-745605" lat="63.8147527744" lon="11.7796500079">
		<tag k="name" v="Tangmyra" />
		<tag k="natural" v="wetland" />
		<tag k="ssr:stedsnr" v="413110" />
	</node>
	<node id="-745604" lat="63.7933194407" lon="11.7627277861">
		<tag k="name" v="Brennmyran" />
		<tag k="natural" v="wetland" />
		<tag k="ssr:stedsnr" v="413094" />
	</node>
	<node id="-744065" lat="63.7983750009" lon="11.4599083251">
		<tag k="name" v="Verdalsøra" />
		<tag k="place" v="locality" />
		<tag k="ssr:stedsnr" v="105925" />
	</node>
	<node id="-744128" lat="63.7893666623" lon="11.7483777761">
		<tag k="loc_name" v="Lassengmyra" />
		<tag k="name" v="Lassmyra" />
		<tag k="natural" v="wetland" />
		<tag k="ssr:stedsnr" v="146615" />
	</node>
	<node id="-746110" lat="63.7571527805" lon="11.6826111119">
		<tag k="name" v="Finnmyra" />
		<tag k="natural" v="wetland" />
		<tag k="ssr:stedsnr" v="814741" />
	</node>
	<node id="-745493" lat="63.8549861154" lon="12.0935500038">
		<tag k="landuse" v="quarry" />
		<tag k="name" v="Verkensvollen" />
		<tag k="ssr:stedsnr" v="352426" />
	</node>
	<node id="-745082" lat="63.7459944449" lon="11.4578527772">
		<tag k="name" v="Langmyra" />
		<tag k="natural" v="wetland" />
		<tag k="ssr:stedsnr" v="29984" />
	</node>
	<node id="-745081" lat="63.7184833295" lon="11.5983555515">
		<tag k="name" v="Litlsleiparen" />
		<tag k="place" v="locality" />
		<tag k="ssr:stedsnr" v="29942" />
	</node>
	<node id="-745080" lat="63.7954499994" lon="12.4312888978">
		<tag k="name" v="Føllungmyra" />
		<tag k="natural" v="wetland" />
		<tag k="ssr:stedsnr" v="26824" />
	</node>
	<node id="-745591" lat="63.8252166672" lon="11.695116661">
		<tag k="name" v="Seterengsmyra" />
		<tag k="natural" v="wetland" />
		<tag k="ssr:stedsnr" v="412899" />
	</node>
	<node id="-745078" lat="63.7494027756" lon="11.7075888854">
		<tag k="name" v="Skansmyra" />
		<tag k="natural" v="wetland" />
		<tag k="ssr:stedsnr" v="26697" />
	</node>
	<node id="-746101" lat="63.7653083356" lon="11.5092472178">
		<tag k="name" v="Byamyran" />
		<tag k="natural" v="wetland" />
		<tag k="ssr:stedsnr" v="814555" />
	</node>
	<node id="-745071" lat="63.7550305539" lon="11.7635638872">
		<tag k="name" v="Holsmyra" />
		<tag k="natural" v="wetland" />
		<tag k="ssr:stedsnr" v="25620" />
	</node>
	<node id="-745581" lat="63.7096472262" lon="11.5951888978">
		<tag k="name" v="Hesjimyra" />
		<tag k="natural" v="wetland" />
		<tag k="ssr:stedsnr" v="393947" />
	</node>
	<node id="-744043" lat="63.8056500043" lon="11.8070027875">
		<tag k="name" v="Vangstadstormyra" />
		<tag k="natural" v="wetland" />
		<tag k="ssr:stedsnr" v="256585" />
	</node>
	<node id="-744041" lat="63.8116722196" lon="12.1952666623">
		<tag k="name" v="Såggåmyran" />
		<tag k="natural" v="wetland" />
		<tag k="ssr:stedsnr" v="256574" />
	</node>
	<node id="-746200" lat="63.9071999979" lon="11.8831833408">
		<tag k="name" v="Breimyra" />
		<tag k="natural" v="wetland" />
		<tag k="ssr:stedsnr" v="864491" />
	</node>
	<node id="-744030" lat="63.6842194447" lon="12.0191555483">
		<tag k="name" v="Fjellmannmyra" />
		<tag k="natural" v="wetland" />
		<tag k="ssr:stedsnr" v="256290" />
	</node>
	<node id="-745558" lat="63.7673666631" lon="12.3536861013">
		<tag k="name" v="Stormyrin" />
		<tag k="natural" v="wetland" />
		<tag k="ssr:stedsnr" v="378796" />
	</node>
	<node id="-746222" lat="63.8029166657" lon="11.4702555585">
		<tag k="name" v="Melan" />
		<tag k="place" v="locality" />
		<tag k="ssr:stedsnr" v="875492" />
	</node>
	<node id="-744665" lat="63.7430000021" lon="11.8646500102">
		<tag k="name" v="Gunnarslettan" />
		<tag k="natural" v="wetland" />
		<tag k="ssr:stedsnr" v="716040" />
	</node>
	<node id="-745037" lat="63.8246861099" lon="11.7913527865">
		<tag k="name" v="Slættesmyra" />
		<tag k="natural" v="wetland" />
		<tag k="ssr:stedsnr" v="14473" />
	</node>
	<node id="-744523" lat="63.7163046789" lon="11.7304173273">
		<tag k="historic" v="shieling" />
		<tag k="name" v="Fåravollen" />
		<tag k="place" v="locality" />
		<tag k="ssr:stedsnr" v="498317" />
	</node>
	<node id="-745546" lat="63.8267111109" lon="11.7362666604">
		<tag k="name" v="Langmyra" />
		<tag k="natural" v="wetland" />
		<tag k="ssr:stedsnr" v="378576" />
	</node>
	<node id="-744521" lat="63.7063805538" lon="11.7097583335">
		<tag k="name" v="Tortåsmyra" />
		<tag k="natural" v="wetland" />
		<tag k="ssr:stedsnr" v="680632" />
	</node>
	<node id="-744512" lat="63.8024472193" lon="12.3757444365">
		<tag k="alt_name" v="Nordværaskogen" />
		<tag k="name" v="Nordveraskogen" />
		<tag k="place" v="locality" />
		<tag k="ssr:stedsnr" v="482055" />
	</node>
	<node id="-744153" lat="63.6284916642" lon="11.9879666592">
		<tag k="historic" v="shieling" />
		<tag k="name" v="Brennvollen" />
		<tag k="place" v="locality" />
		<tag k="ssr:stedsnr" v="290346" />
	</node>
	<node id="-746046" lat="63.7806305527" lon="12.3785166618">
		<tag k="alt_name" v="Sørværaskogen" />
		<tag k="name" v="Sørveraskogen" />
		<tag k="place" v="locality" />
		<tag k="ssr:stedsnr" v="785062" />
	</node>
	<node id="-746042" lat="63.7477472189" lon="11.6994805584">
		<tag k="landuse" v="meadow" />
		<tag k="name" v="Nesjan" />
		<tag k="ssr:stedsnr" v="777969" />
	</node>
	<node id="-746040" lat="63.7370055552" lon="11.7011111177">
		<tag k="name" v="Tortdalsmyra" />
		<tag k="natural" v="wetland" />
		<tag k="ssr:stedsnr" v="777959" />
	</node>
	<node id="-745396" lat="63.7437805547" lon="11.4716666744">
		<tag k="name" v="Stormyra" />
		<tag k="natural" v="wetland" />
		<tag k="ssr:stedsnr" v="211973" />
	</node>
	<node id="-744502" lat="63.8077777775" lon="11.6126777836">
		<tag k="name" v="Høgåsmyra" />
		<tag k="natural" v="wetland" />
		<tag k="ssr:stedsnr" v="450702" />
	</node>
	<node id="-746037" lat="63.7307722261" lon="11.6104972242">
		<tag k="name" v="Markusmyra" />
		<tag k="natural" v="wetland" />
		<tag k="ssr:stedsnr" v="777752" />
	</node>
	<node id="-744499" lat="63.8062055544" lon="11.4532111208">
		<tag k="name" v="Moåkeren" />
		<tag k="place" v="locality" />
		<tag k="ssr:stedsnr" v="450507" />
	</node>
	<node id="-744498" lat="63.7482305589" lon="11.8144222187">
		<tag k="name" v="Fantmyra" />
		<tag k="natural" v="wetland" />
		<tag k="ssr:stedsnr" v="450647" />
	</node>
	<node id="-746031" lat="63.7180833345" lon="11.8115083336">
		<tag k="name" v="Beinvedmyra" />
		<tag k="natural" v="wetland" />
		<tag k="ssr:stedsnr" v="777021" />
	</node>
	<node id="-746124" lat="63.8094499995" lon="11.6932694353">
		<tag k="name" v="Åsamyra" />
		<tag k="natural" v="wetland" />
		<tag k="ssr:stedsnr" v="837937" />
	</node>
	<node id="-743978" lat="63.7403944467" lon="11.5869194363">
		<tag k="name" v="Andershogget" />
		<tag k="place" v="locality" />
		<tag k="ssr:stedsnr" v="230723" />
	</node>
	<node id="-744489" lat="63.7196138887" lon="11.6854694344">
		<tag k="name" v="Hoåsmyra" />
		<tag k="natural" v="wetland" />
		<tag k="ssr:stedsnr" v="655971" />
	</node>
	<node id="-746024" lat="63.796302781" lon="11.7412444357">
		<tag k="name" v="Dalsmyra" />
		<tag k="natural" v="wetland" />
		<tag k="ssr:stedsnr" v="776942" />
	</node>
	<node id="-743973" lat="63.7444444445" lon="11.8122611046">
		<tag k="name" v="Sørslættet" />
		<tag k="natural" v="wetland" />
		<tag k="ssr:stedsnr" v="230042" />
	</node>
	<node id="-746215" lat="63.8600972251" lon="11.5339666753">
		<tag k="historic" v="shieling" />
		<tag k="name" v="Yssevollen" />
		<tag k="place" v="locality" />
		<tag k="ssr:stedsnr" v="872712" />
	</node>
	<node id="-743971" lat="63.7957027817" lon="11.7686916631">
		<tag k="name" v="Langmyra" />
		<tag k="natural" v="wetland" />
		<tag k="ssr:stedsnr" v="230098" />
	</node>
	<node id="-745908" lat="63.7471527808" lon="11.4610027797">
		<tag k="alt_name" v="Heitlomarka" />
		<tag k="name" v="Hetlomarka" />
		<tag k="place" v="locality" />
		<tag k="ssr:stedsnr" v="635975" />
	</node>
	<node id="-743965" lat="63.7674000002" lon="11.7487972145">
		<tag k="name" v="Buenget" />
		<tag k="place" v="locality" />
		<tag k="ssr:stedsnr" v="26702" />
	</node>
	<node id="-746012" lat="63.7507277823" lon="11.7364805536">
		<tag k="landuse" v="meadow" />
		<tag k="name" v="Steinsengan" />
		<tag k="ssr:stedsnr" v="875703" />
	</node>
	<node id="-744472" lat="63.7561666706" lon="11.5507111041">
		<tag k="name" v="Fuglmyra" />
		<tag k="natural" v="wetland" />
		<tag k="ssr:stedsnr" v="511512" />
	</node>
	<node id="-744981" lat="63.7523277763" lon="11.6591694506">
		<tag k="name" v="Monsmyrin" />
		<tag k="natural" v="wetland" />
		<tag k="ssr:stedsnr" v="936714" />
	</node>
	<node id="-744468" lat="63.751852776" lon="11.7449500086">
		<tag k="name" v="Seterneset" />
		<tag k="place" v="locality" />
		<tag k="ssr:stedsnr" v="511688" />
	</node>
	<node id="-744979" lat="63.792380559" lon="11.8460750097">
		<tag k="name" v="Småmyran" />
		<tag k="natural" v="wetland" />
		<tag k="ssr:stedsnr" v="936611" />
	</node>
	<node id="-744464" lat="63.8308277798" lon="12.0521166614">
		<tag k="name" v="Kavelbrumyran" />
		<tag k="natural" v="wetland" />
		<tag k="ssr:stedsnr" v="510864" />
	</node>
	<node id="-744462" lat="63.6695861078" lon="12.0602388879">
		<tag k="name" v="Rønningslættet" />
		<tag k="natural" v="wetland" />
		<tag k="ssr:stedsnr" v="510856" />
	</node>
	<node id="-745481" lat="63.8014194414" lon="11.7240888928">
		<tag k="name" v="Leirsjøstammen" />
		<tag k="natural" v="wetland" />
		<tag k="ssr:stedsnr" v="351959" />
	</node>
	<node id="-745990" lat="63.8325277801" lon="11.5451361189">
		<tag k="name" v="Okkulsmyra" />
		<tag k="natural" v="wetland" />
		<tag k="ssr:stedsnr" v="753692" />
	</node>
	<node id="-746241" lat="63.8410750033" lon="11.7411083272">
		<tag k="historic" v="shieling" />
		<tag k="name" v="Skeisvollen" />
		<tag k="place" v="locality" />
		<tag k="ssr:stedsnr" v="959216" />
	</node>
	<node id="-745476" lat="63.7201916646" lon="11.7132055537">
		<tag k="name" v="Badstumyra" />
		<tag k="natural" v="wetland" />
		<tag k="ssr:stedsnr" v="352983" />
	</node>
</osm>
