<?xml version="1.0" encoding="UTF-8"?>
<osm version="0.6" generator="osmapis">
	<node lat="63.63345833070013" lon="12.151958341314227" id="-31103">
		<tag k="name" v="Kvilbekken" />
		<tag k="ssr:stedsnr" v="230388" />
		<tag k="waterway" v="stream" />
	</node>
	<node lat="63.671333332829015" lon="12.105905558528255" id="-31114">
		<tag k="name" v="Litldriva" />
		<tag k="ssr:stedsnr" v="13361" />
		<tag k="waterway" v="stream" />
	</node>
	<node lat="63.60923055179416" lon="12.006227786785018" id="-31115">
		<tag k="alt_name" v="Nordre Sulsjøen" />
		<tag k="fixme" v="multiple name tags, choose one and add the other to alt_name" />
		<tag k="name" v="Sultjønna;Vestersjøen" />
		<tag k="natural" v="water" />
		<tag k="old_name" v="Sulsjøan, nordre" />
		<tag k="ssr:stedsnr" v="13366" />
		<tag k="water" v="lake" />
	</node>
	<node lat="63.91497500100702" lon="12.050097228352131" id="-31122">
		<tag k="name" v="Merratjønna" />
		<tag k="natural" v="water" />
		<tag k="ssr:stedsnr" v="14375" />
	</node>
	<node lat="63.81205555171845" lon="12.184291663631887" id="-31123">
		<tag k="name" v="Langlunet" />
		<tag k="ssr:stedsnr" v="14560" />
		<tag k="waterway" v="river" />
	</node>
	<node lat="63.800766665108526" lon="11.772916667127305" id="-31124">
		<tag k="name" v="Austhjelltjønna" />
		<tag k="natural" v="water" />
		<tag k="ssr:stedsnr" v="14563" />
	</node>
	<node lat="63.76186666280203" lon="12.215586116730353" id="-31131">
		<tag k="name" v="Pesilltjønna" />
		<tag k="natural" v="water" />
		<tag k="ssr:stedsnr" v="14637" />
	</node>
	<node lat="63.92855555342919" lon="12.476916657909744" id="-31132">
		<tag k="name" v="Bierneloebpelh" />
		<tag k="name:sma" v="Bierneloebpelh" />
		<tag k="natural" v="water" />
		<tag k="ssr:stedsnr" v="20844" />
	</node>
	<node lat="63.80682777355226" lon="11.860677779267828" id="-31140">
		<tag k="name" v="Hærfossen" />
		<tag k="natural" v="waterfall" />
		<tag k="ssr:stedsnr" v="25673" />
	</node>
	<node lat="63.603823730967406" lon="12.032081284451404" id="-31141">
		<tag k="name" v="Sulsjøan" />
		<tag k="natural" v="water" />
		<tag k="ssr:stedsnr" v="26227" />
		<tag k="water" v="lake" />
	</node>
	<node lat="63.76012500179922" lon="11.450680559578077" id="-31142">
		<tag k="name" v="Rinnfossen" />
		<tag k="natural" v="waterfall" />
		<tag k="ssr:stedsnr" v="26512" />
	</node>
	<node lat="63.758722222605485" lon="11.645458333338855" id="-31147">
		<tag k="loc_name" v="Kvernhusbekken" />
		<tag k="name" v="Kvennbekken" />
		<tag k="ssr:stedsnr" v="26706" />
		<tag k="waterway" v="stream" />
	</node>
	<node lat="63.67248055903163" lon="12.275219447266474" id="-31148">
		<tag k="name" v="Finnvoltjønnin" />
		<tag k="natural" v="water" />
		<tag k="ssr:stedsnr" v="26804" />
	</node>
	<node lat="63.812586112146114" lon="12.14044167454157" id="-31149">
		<tag k="name" v="Kleppholmen" />
		<tag k="place" v="islet" />
		<tag k="ssr:stedsnr" v="26813" />
	</node>
	<node lat="63.704588892334364" lon="12.076286115046631" id="-31156">
		<tag k="name" v="Vestgardsseterdalstjønna" />
		<tag k="natural" v="water" />
		<tag k="ssr:stedsnr" v="41107" />
	</node>
	<node lat="63.710791662651424" lon="12.194636115922364" id="-31168">
		<tag k="name" v="Gluptjønnin" />
		<tag k="natural" v="water" />
		<tag k="ssr:stedsnr" v="242223" />
		<tag k="water" v="lake" />
	</node>
	<node lat="63.72360000138595" lon="12.303508342563081" id="-31172">
		<tag k="name" v="Bustadtjønna" />
		<tag k="natural" v="water" />
		<tag k="ssr:stedsnr" v="74120" />
	</node>
	<node lat="63.88153333479134" lon="11.876680555342318" id="-31177">
		<tag k="name" v="Svarttjønna" />
		<tag k="natural" v="water" />
		<tag k="ssr:stedsnr" v="74454" />
	</node>
	<node lat="63.84650000389182" lon="11.836186106451212" id="-31179">
		<tag k="name" v="Kluksdalstjønna" />
		<tag k="natural" v="water" />
		<tag k="ssr:stedsnr" v="74517" />
	</node>
	<node lat="63.864405553134766" lon="12.271402767704597" id="-31184">
		<tag k="name" v="Storbekken" />
		<tag k="ssr:stedsnr" v="74802" />
		<tag k="waterway" v="stream" />
	</node>
	<node lat="63.80442222405281" lon="12.438113887500553" id="-31193">
		<tag k="name" v="Sessilbekken" />
		<tag k="ssr:stedsnr" v="75816" />
		<tag k="waterway" v="stream" />
	</node>
	<node lat="63.79245555748269" lon="12.439294442005947" id="-31195">
		<tag k="name" v="Strådalstjønnin" />
		<tag k="natural" v="water" />
		<tag k="ssr:stedsnr" v="75821" />
	</node>
	<node lat="63.8171666706041" lon="11.970236121338381" id="-31199">
		<tag k="name" v="Kolstadholmen" />
		<tag k="place" v="islet" />
		<tag k="ssr:stedsnr" v="85798" />
	</node>
	<node lat="63.770052782010964" lon="11.642949990279002" id="-31202">
		<tag k="name" v="Guddingneset" />
		<tag k="natural" v="cape" />
		<tag k="ssr:stedsnr" v="86712" />
	</node>
	<node lat="63.800733335535796" lon="11.811927773143548" id="-31211">
		<tag k="name" v="Rønningsdammen" />
		<tag k="ssr:stedsnr" v="109081" />
		<tag k="waterway" v="dam" />
	</node>
	<node lat="63.82017777593691" lon="11.786480548934717" id="-31212">
		<tag k="name" v="Koltjønnbekken" />
		<tag k="ssr:stedsnr" v="109114" />
		<tag k="waterway" v="stream" />
	</node>
	<node lat="63.81212500027313" lon="11.902438891452407" id="-31218">
		<tag k="name" v="Barsjøen" />
		<tag k="natural" v="water" />
		<tag k="ssr:stedsnr" v="134602" />
	</node>
	<node lat="63.78081111064221" lon="11.657074992839087" id="-31226">
		<tag k="name" v="Leiråa" />
		<tag k="ssr:stedsnr" v="135258" />
		<tag k="waterway" v="stream" />
	</node>
	<node lat="63.79468333458704" lon="12.30516666877395" id="-31237">
		<tag k="name" v="Beverlunet" />
		<tag k="place" v="locality" />
		<tag k="ssr:stedsnr" v="135732" />
	</node>
	<node lat="63.8037722229311" lon="11.921394434976781" id="-31239">
		<tag k="name" v="Mugda" />
		<tag k="ssr:stedsnr" v="135609" />
		<tag k="waterway" v="stream" />
	</node>
	<node lat="63.8420472189868" lon="11.892649998260987" id="-31244">
		<tag k="name" v="Evidalstjønna" />
		<tag k="natural" v="water" />
		<tag k="ssr:stedsnr" v="145806" />
	</node>
	<node lat="63.7595583291065" lon="11.782436116065112" id="-31248">
		<tag k="name" v="Allmenningsbekken" />
		<tag k="ssr:stedsnr" v="146604" />
		<tag k="waterway" v="stream" />
	</node>
	<node lat="63.701400004176534" lon="12.260197212851129" id="-31258">
		<tag k="name" v="Ångerstjønna" />
		<tag k="natural" v="water" />
		<tag k="ssr:stedsnr" v="256125" />
	</node>
	<node lat="63.68400000229444" lon="12.285897231659295" id="-31259">
		<tag k="name" v="Fånettjønna" />
		<tag k="natural" v="water" />
		<tag k="ssr:stedsnr" v="256128" />
	</node>
	<node lat="63.84176944406443" lon="11.62321943471432" id="-31261">
		<tag k="name" v="Bunestangen" />
		<tag k="natural" v="cape" />
		<tag k="ssr:stedsnr" v="256131" />
	</node>
	<node lat="63.69911666238396" lon="11.977958338676967" id="-31264">
		<tag k="alt_name" v="Sognåa" />
		<tag k="name" v="Sogna" />
		<tag k="ssr:stedsnr" v="256274" />
		<tag k="waterway" v="stream" />
	</node>
	<node lat="63.60242500293668" lon="12.057441671439143" id="-31269">
		<tag k="name" v="Øystre Sulsjøen" />
		<tag k="natural" v="water" />
		<tag k="ssr:stedsnr" v="256309" />
		<tag k="water" v="lake" />
	</node>
	<node lat="63.67883055917664" lon="12.069200001214522" id="-31277">
		<tag k="name" v="Nøkktjønna" />
		<tag k="natural" v="water" />
		<tag k="ssr:stedsnr" v="256296" />
	</node>
	<node lat="63.87045555136117" lon="11.941983332136651" id="-31281">
		<tag k="name" v="Øysternesbekken" />
		<tag k="ssr:stedsnr" v="256489" />
		<tag k="waterway" v="stream" />
	</node>
	<node lat="63.84715277385699" lon="12.494897212759343" id="-31295">
		<tag k="name" v="Seterbekken" />
		<tag k="ssr:stedsnr" v="256720" />
		<tag k="waterway" v="stream" />
	</node>
	<node lat="63.84413888552959" lon="12.367288887951352" id="-31296">
		<tag k="name" v="Tverrådalsstamntjønnin" />
		<tag k="natural" v="water" />
		<tag k="ssr:stedsnr" v="256722" />
	</node>
	<node lat="63.8105138869413" lon="12.299927784943058" id="-31308">
		<tag k="alt_name" v="Storlonet" />
		<tag k="name" v="Storlunet" />
		<tag k="place" v="locality" />
		<tag k="ssr:stedsnr" v="257780" />
	</node>
	<node lat="63.786538893472795" lon="12.367116658418682" id="-31312">
		<tag k="name" v="Hundstangen" />
		<tag k="natural" v="cape" />
		<tag k="ssr:stedsnr" v="257822" />
	</node>
	<node lat="63.73647777557683" lon="11.778838888510565" id="-31319">
		<tag k="name" v="Åkergjerdebekken" />
		<tag k="ssr:stedsnr" v="170057" />
		<tag k="waterway" v="stream" />
	</node>
	<node lat="63.90130833148302" lon="11.734033323429806" id="-31324">
		<tag k="name" v="Bjerkemslettet" />
		<tag k="ssr:stedsnr" v="170568" />
		<tag k="waterway" v="stream" />
	</node>
	<node lat="63.73101944586653" lon="11.617225002727261" id="-31327">
		<tag k="name" v="Våtholmen" />
		<tag k="place" v="islet" />
		<tag k="ssr:stedsnr" v="170775" />
	</node>
	<node lat="63.7174305530753" lon="11.67018611352645" id="-31328">
		<tag k="name" v="Mølnbekken" />
		<tag k="ssr:stedsnr" v="170970" />
		<tag k="waterway" v="stream" />
	</node>
	<node lat="63.65137777796847" lon="11.727016663156853" id="-31332">
		<tag k="name" v="Grønningen" />
		<tag k="natural" v="water" />
		<tag k="ssr:stedsnr" v="195351" />
		<tag k="water" v="lake" />
	</node>
	<node lat="63.748981258588266" lon="11.662566055398555" id="-31334">
		<tag k="name" v="Guddingsvatnet" />
		<tag k="natural" v="water" />
		<tag k="ssr:stedsnr" v="195679" />
	</node>
	<node lat="63.84291944384824" lon="11.529969447689222" id="-31335">
		<tag k="name" v="Haukåvatnet" />
		<tag k="natural" v="water" />
		<tag k="ssr:stedsnr" v="196129" />
	</node>
	<node lat="63.606633331830764" lon="12.020744453978136" id="-31343">
		<tag k="loc_name" v="Vestre Sulsjøen" />
		<tag k="name" v="Midtre Sulsjøen" />
		<tag k="natural" v="water" />
		<tag k="old_name" v="Sulsjøan, midtre" />
		<tag k="ssr:stedsnr" v="196296" />
		<tag k="water" v="lake" />
	</node>
	<node lat="63.91534722142689" lon="12.068233341981482" id="-31344">
		<tag k="name" v="Gruvtjønna" />
		<tag k="natural" v="water" />
		<tag k="ssr:stedsnr" v="196408" />
	</node>
	<node lat="63.60112499968764" lon="12.073927767865207" id="-31347">
		<tag k="alt_name" v="Langtjønna" />
		<tag k="name" v="Marentjønna" />
		<tag k="natural" v="water" />
		<tag k="ssr:stedsnr" v="196308" />
	</node>
	<node lat="63.87941666535194" lon="12.43299999349227" id="-31351">
		<tag k="name" v="Damtjønna" />
		<tag k="natural" v="water" />
		<tag k="ssr:stedsnr" v="196664" />
	</node>
	<node lat="63.95345278089932" lon="12.325586121293643" id="-31353">
		<tag k="name" v="Løbekken" />
		<tag k="ssr:stedsnr" v="196702" />
		<tag k="waterway" v="stream" />
	</node>
	<node lat="63.82078333573889" lon="12.453511102926312" id="-31354">
		<tag k="name" v="Knulmyrbekken" />
		<tag k="ssr:stedsnr" v="196706" />
		<tag k="waterway" v="stream" />
	</node>
	<node lat="63.80469166371651" lon="12.382291663179288" id="-31355">
		<tag k="name" v="Finntjønna" />
		<tag k="natural" v="water" />
		<tag k="ssr:stedsnr" v="196709" />
	</node>
	<node lat="63.814841666775216" lon="12.279594438643937" id="-31358">
		<tag k="name" v="Småtjønnin" />
		<tag k="natural" v="water" />
		<tag k="ssr:stedsnr" v="196717" />
	</node>
	<node lat="63.76758055860449" lon="11.69711388807793" id="-31362">
		<tag k="name" v="Kvellstadbekken" />
		<tag k="ssr:stedsnr" v="268696" />
		<tag k="waterway" v="stream" />
	</node>
	<node lat="63.82431667050548" lon="11.508722228081908" id="-31364">
		<tag k="alt_name" v="Skarsbekken" />
		<tag k="name" v="Skardsbekken" />
		<tag k="ssr:stedsnr" v="268715" />
		<tag k="waterway" v="stream" />
	</node>
	<node lat="63.67892778245742" lon="11.988158323940173" id="-31366">
		<tag k="name" v="Brennholmen" />
		<tag k="place" v="islet" />
		<tag k="ssr:stedsnr" v="267798" />
	</node>
	<node lat="63.75961111262584" lon="11.542166657300664" id="-31367">
		<tag k="name" v="Krikabekken" />
		<tag k="ssr:stedsnr" v="268520" />
		<tag k="waterway" v="stream" />
	</node>
	<node lat="63.681250000582594" lon="12.299641674268166" id="-31382">
		<tag k="name" v="Bekkalitjønna" />
		<tag k="natural" v="water" />
		<tag k="ssr:stedsnr" v="268840" />
	</node>
	<node lat="63.78851111535528" lon="11.58249443532864" id="-31386">
		<tag k="loc_name" v="Bjørndalsbekken" />
		<tag k="name" v="Bjønndalsbekken" />
		<tag k="ssr:stedsnr" v="207714" />
		<tag k="waterway" v="stream" />
	</node>
	<node lat="63.710088891512456" lon="11.87409723201621" id="-31393">
		<tag k="name" v="Buholmen" />
		<tag k="place" v="islet" />
		<tag k="ssr:stedsnr" v="230036" />
	</node>
	<node lat="63.66215277497533" lon="12.029158338889415" id="-31398">
		<tag k="name" v="Trollfossen" />
		<tag k="natural" v="waterfall" />
		<tag k="ssr:stedsnr" v="449799" />
	</node>
	<node lat="63.76032500456579" lon="11.593305551215792" id="-31402">
		<tag k="name" v="Skruddubekken" />
		<tag k="ssr:stedsnr" v="450548" />
		<tag k="waterway" v="stream" />
	</node>
	<node lat="63.77406388767332" lon="11.444147226297973" id="-31403">
		<tag k="name" v="Valbekken" />
		<tag k="ssr:stedsnr" v="450559" />
		<tag k="waterway" v="stream" />
	</node>
	<node lat="63.772291666918235" lon="11.644788883665177" id="-31413">
		<tag k="name" v="Landfalløra" />
		<tag k="natural" v="cape" />
		<tag k="old_name" v="Landfaldøra" />
		<tag k="ssr:stedsnr" v="450722" />
	</node>
	<node lat="63.82728888922969" lon="11.501330563947127" id="-31419">
		<tag k="name" v="Ysseelva" />
		<tag k="ssr:stedsnr" v="450728" />
		<tag k="waterway" v="river" />
	</node>
	<node lat="63.797172220957776" lon="12.237091669200145" id="-31422">
		<tag k="name" v="Rotbrekkbekken" />
		<tag k="ssr:stedsnr" v="450843" />
		<tag k="waterway" v="stream" />
	</node>
	<node lat="63.79111111065909" lon="12.44033054647802" id="-31423">
		<tag k="name" v="Strådalsfossen" />
		<tag k="natural" v="waterfall" />
		<tag k="old_name" v="Straadals Fors" />
		<tag k="ssr:stedsnr" v="240331" />
	</node>
	<node lat="63.85183055408352" lon="11.914430558368933" id="-31431">
		<tag k="name" v="Gunhildtjønna" />
		<tag k="natural" v="water" />
		<tag k="ssr:stedsnr" v="256469" />
	</node>
	<node lat="63.847780559078956" lon="11.93831110684865" id="-31432">
		<tag k="name" v="Setertjønna" />
		<tag k="natural" v="water" />
		<tag k="ssr:stedsnr" v="256478" />
	</node>
	<node lat="63.859125003459795" lon="11.665161112742537" id="-31436">
		<tag k="name" v="Aspåstjønna" />
		<tag k="natural" v="water" />
		<tag k="ssr:stedsnr" v="257157" />
	</node>
	<node lat="63.767708332582494" lon="11.901222225120218" id="-31443">
		<tag k="name" v="Mugdtjønna" />
		<tag k="natural" v="water" />
		<tag k="ssr:stedsnr" v="257676" />
	</node>
	<node lat="63.779380554423014" lon="11.778230563730983" id="-31445">
		<tag k="name" v="Grunnholmen" />
		<tag k="place" v="islet" />
		<tag k="ssr:stedsnr" v="267629" />
	</node>
	<node lat="63.678030558802995" lon="11.994663885252136" id="-31447">
		<tag k="name" v="Holmfossen" />
		<tag k="natural" v="waterfall" />
		<tag k="ssr:stedsnr" v="267803" />
	</node>
	<node lat="63.68321111155673" lon="11.978352780638767" id="-31449">
		<tag k="name" v="Trettarholman" />
		<tag k="place" v="islet" />
		<tag k="ssr:stedsnr" v="267822" />
	</node>
	<node lat="63.640894441605056" lon="12.140741659138007" id="-31451">
		<tag k="name" v="Nybyggtjønna" />
		<tag k="natural" v="water" />
		<tag k="ssr:stedsnr" v="267836" />
	</node>
	<node lat="63.82756389276369" lon="11.511738897759981" id="-31458">
		<tag k="name" v="Frøsen" />
		<tag k="ssr:stedsnr" v="268721" />
		<tag k="waterway" v="stream" />
	</node>
	<node lat="63.72464999621724" lon="11.826119436027739" id="-31463">
		<tag k="name" v="Gruvbekken" />
		<tag k="ssr:stedsnr" v="291011" />
		<tag k="waterway" v="stream" />
	</node>
	<node lat="63.81317778102758" lon="11.64514443585361" id="-31469">
		<tag k="name" v="Sørbekken" />
		<tag k="ssr:stedsnr" v="291932" />
		<tag k="waterway" v="stream" />
	</node>
	<node lat="63.626172221210176" lon="11.986438881701444" id="-31471">
		<tag k="name" v="Raudnakka" />
		<tag k="natural" v="water" />
		<tag k="ssr:stedsnr" v="302175" />
	</node>
	<node lat="63.72603610813645" lon="12.125208327121976" id="-31472">
		<tag k="name" v="Støveltjønna" />
		<tag k="natural" v="water" />
		<tag k="ssr:stedsnr" v="302176" />
	</node>
	<node lat="63.693083331870994" lon="11.897977770080887" id="-31476">
		<tag k="name" v="Kleivdalsbekken" />
		<tag k="ssr:stedsnr" v="316355" />
		<tag k="waterway" v="stream" />
	</node>
	<node lat="63.90829166507843" lon="12.055674994819217" id="-31483">
		<tag k="name" v="Vetringen" />
		<tag k="natural" v="water" />
		<tag k="ssr:stedsnr" v="317397" />
	</node>
	<node lat="63.837511108586405" lon="11.85383332362389" id="-31484">
		<tag k="name" v="Hundsbekken" />
		<tag k="ssr:stedsnr" v="317507" />
		<tag k="waterway" v="stream" />
	</node>
	<node lat="63.881074996914656" lon="11.908608332862036" id="-31492">
		<tag k="name" v="Haukåa" />
		<tag k="ssr:stedsnr" v="317405" />
		<tag k="waterway" v="stream" />
	</node>
	<node lat="63.89545833225587" lon="12.157625005651209" id="-31493">
		<tag k="name" v="Breivadet" />
		<tag k="natural" v="shoal" />
		<tag k="place" v="locality" />
		<tag k="ssr:stedsnr" v="317411" />
	</node>
	<node lat="63.76381111053281" lon="11.612366673885571" id="-31510">
		<tag k="name" v="Lundbekken" />
		<tag k="ssr:stedsnr" v="329672" />
		<tag k="waterway" v="stream" />
	</node>
	<node lat="63.6603416710537" lon="12.235397215356725" id="-31511">
		<tag k="name" v="Bergholmen" />
		<tag k="place" v="islet" />
		<tag k="ssr:stedsnr" v="329817" />
	</node>
	<node lat="63.82123889279413" lon="11.807733326723891" id="-31520">
		<tag k="name" v="Koltjønnbekken" />
		<tag k="ssr:stedsnr" v="473143" />
		<tag k="waterway" v="stream" />
	</node>
	<node lat="63.84160555587565" lon="11.573752776414302" id="-31526">
		<tag k="name" v="Hyllbekken" />
		<tag k="ssr:stedsnr" v="474000" />
		<tag k="waterway" v="stream" />
	</node>
	<node lat="63.65444444003031" lon="12.062897221979819" id="-31534">
		<tag k="name" v="Vollabekken" />
		<tag k="ssr:stedsnr" v="352403" />
		<tag k="waterway" v="stream" />
	</node>
	<node lat="63.744191670903774" lon="11.699955547470303" id="-31539">
		<tag k="name" v="Sagholet" />
		<tag k="natural" v="waterfall" />
		<tag k="ssr:stedsnr" v="352966" />
	</node>
	<node lat="63.874258336433094" lon="12.308633336465848" id="-31548">
		<tag k="name" v="Olatjønna" />
		<tag k="natural" v="water" />
		<tag k="ssr:stedsnr" v="378713" />
	</node>
	<node lat="63.750194442379" lon="12.261138888889601" id="-31551">
		<tag k="name" v="Langvoltjønna" />
		<tag k="natural" v="water" />
		<tag k="ssr:stedsnr" v="378816" />
	</node>
	<node lat="63.657788891604056" lon="12.23312221928668" id="-31564">
		<tag k="name" v="Sandvikodden" />
		<tag k="natural" v="cape" />
		<tag k="ssr:stedsnr" v="389845" />
	</node>
	<node lat="63.72598333576574" lon="11.617288896270544" id="-31565">
		<tag k="name" v="Litlmoengbekken" />
		<tag k="ssr:stedsnr" v="393935" />
		<tag k="waterway" v="stream" />
	</node>
	<node lat="63.71745555236648" lon="12.195569452945179" id="-31573">
		<tag k="loc_name" v="Nordre Driva;Norddriva" />
		<tag k="name" v="Driva" />
		<tag k="ssr:stedsnr" v="412389" />
		<tag k="waterway" v="river" />
	</node>
	<node lat="63.83605555426998" lon="12.21876666063091" id="-31574">
		<tag k="name" v="Fagerlifossen" />
		<tag k="natural" v="waterfall" />
		<tag k="ssr:stedsnr" v="412406" />
	</node>
	<node lat="63.82123889305328" lon="11.638030562830648" id="-31577">
		<tag k="name" v="Musumsbekken" />
		<tag k="ssr:stedsnr" v="412908" />
		<tag k="waterway" v="stream" />
	</node>
	<node lat="63.712344441447634" lon="11.852805565368772" id="-31578">
		<tag k="name" v="Årdalsbekken" />
		<tag k="ssr:stedsnr" v="413003" />
		<tag k="waterway" v="stream" />
	</node>
	<node lat="63.73883055376448" lon="11.850177778371686" id="-31586">
		<tag k="name" v="Storbekken" />
		<tag k="ssr:stedsnr" v="437270" />
		<tag k="waterway" v="stream" />
	</node>
	<node lat="63.89754166634607" lon="12.137449993974984" id="-31589">
		<tag k="name" v="Ørtugtjønna" />
		<tag k="natural" v="water" />
		<tag k="ssr:stedsnr" v="438419" />
	</node>
	<node lat="63.812672221401215" lon="12.204875002689658" id="-31590">
		<tag k="name" v="Sætertjønnin" />
		<tag k="natural" v="water" />
		<tag k="ssr:stedsnr" v="438610" />
	</node>
	<node lat="63.80795000349477" lon="11.729163887498395" id="-31591">
		<tag k="name" v="Svarttjønna" />
		<tag k="natural" v="water" />
		<tag k="ssr:stedsnr" v="438612" />
	</node>
	<node lat="63.806847223991724" lon="11.792513893955347" id="-31593">
		<tag k="name" v="Ulvillelva" />
		<tag k="ssr:stedsnr" v="438619" />
		<tag k="waterway" v="stream" />
	</node>
	<node lat="63.93306666242321" lon="12.620141670294805" id="-31598">
		<tag k="name" v="Burua" />
		<tag k="ssr:stedsnr" v="438698" />
		<tag k="waterway" v="river" />
	</node>
	<node lat="63.87584722146201" lon="12.285061104689857" id="-31599">
		<tag k="name" v="Nedre Storbekktjønna" />
		<tag k="natural" v="water" />
		<tag k="ssr:stedsnr" v="438700" />
	</node>
	<node lat="63.82500277896299" lon="12.16413889304717" id="-31600">
		<tag k="name" v="Storbekken" />
		<tag k="ssr:stedsnr" v="438808" />
		<tag k="waterway" v="stream" />
	</node>
	<node lat="63.82729722228487" lon="11.702086106137585" id="-31604">
		<tag k="name" v="Andølvatnet" />
		<tag k="natural" v="water" />
		<tag k="ssr:stedsnr" v="439201" />
	</node>
	<node lat="63.78437222471348" lon="12.395108330677239" id="-31609">
		<tag k="name" v="Ongelsbekken" />
		<tag k="ssr:stedsnr" v="439797" />
		<tag k="waterway" v="stream" />
	</node>
	<node lat="63.754019442262404" lon="12.26034167331599" id="-31610">
		<tag k="name" v="Storrørtjønna" />
		<tag k="natural" v="water" />
		<tag k="ssr:stedsnr" v="439802" />
	</node>
	<node lat="63.75758055673016" lon="12.273636120210718" id="-31611">
		<tag k="name" v="Storholmtjønna" />
		<tag k="natural" v="water" />
		<tag k="ssr:stedsnr" v="439805" />
	</node>
	<node lat="63.80794444246584" lon="11.898155558430275" id="-31616">
		<tag k="name" v="Kvernbekken" />
		<tag k="ssr:stedsnr" v="449778" />
		<tag k="waterway" v="stream" />
	</node>
	<node lat="63.67989166885819" lon="11.984377781016274" id="-31618">
		<tag k="name" v="Storholmen" />
		<tag k="natural" v="cape" />
		<tag k="ssr:stedsnr" v="449784" />
	</node>
	<node lat="63.81929444794636" lon="11.89024166802287" id="-31619">
		<tag k="name" v="Vollafossen" />
		<tag k="natural" v="waterfall" />
		<tag k="ssr:stedsnr" v="449787" />
	</node>
	<node lat="63.772988888689916" lon="11.465022216182426" id="-31621">
		<tag k="alt_name" v="Fættakanalen" />
		<tag k="name" v="Fættenkanalen" />
		<tag k="ssr:stedsnr" v="450513" />
		<tag k="waterway" v="drain" />
	</node>
	<node lat="63.797455559853084" lon="11.616533340427745" id="-31623">
		<tag k="name" v="Follobekken" />
		<tag k="ssr:stedsnr" v="450704" />
		<tag k="waterway" v="stream" />
	</node>
	<node lat="63.72375000188975" lon="11.837783334018601" id="-31627">
		<tag k="name" v="Vesterbekken" />
		<tag k="ssr:stedsnr" v="473014" />
		<tag k="waterway" v="stream" />
	</node>
	<node lat="63.7918277795609" lon="11.812350004731538" id="-31628">
		<tag k="name" v="Grunnfossen" />
		<tag k="natural" v="waterfall" />
		<tag k="ssr:stedsnr" v="473107" />
	</node>
	<node lat="63.91248333191211" lon="12.094461108313942" id="-31631">
		<tag k="name" v="Nordtjønna" />
		<tag k="natural" v="water" />
		<tag k="ssr:stedsnr" v="473723" />
	</node>
	<node lat="63.73230833592156" lon="12.293902772887492" id="-31640">
		<tag k="name" v="Søre Vassdalstjønna" />
		<tag k="natural" v="water" />
		<tag k="ssr:stedsnr" v="680170" />
	</node>
	<node lat="63.679313886739884" lon="12.12017500064274" id="-31644">
		<tag k="name" v="Tranatjønnin" />
		<tag k="natural" v="water" />
		<tag k="ssr:stedsnr" v="680331" />
	</node>
	<node lat="63.675269447981755" lon="12.093466659714483" id="-31645">
		<tag k="name" v="Stordriva" />
		<tag k="ssr:stedsnr" v="680332" />
		<tag k="waterway" v="stream" />
	</node>
	<node lat="63.67943055134846" lon="12.009294451798652" id="-31646">
		<tag k="name" v="Litlåa" />
		<tag k="ssr:stedsnr" v="680340" />
		<tag k="waterway" v="stream" />
	</node>
	<node lat="63.65321944526172" lon="11.715497229466857" id="-31648">
		<tag k="name" v="Grønningen" />
		<tag k="natural" v="water" />
		<tag k="ssr:stedsnr" v="680586" />
		<tag k="water" v="lake" />
	</node>
	<node lat="63.695988887566436" lon="11.92256388234405" id="-31651">
		<tag k="name" v="Inna" />
		<tag k="ssr:stedsnr" v="681203" />
		<tag k="waterway" v="river" />
	</node>
	<node lat="63.851680556859804" lon="11.704180556064316" id="-31653">
		<tag k="name" v="Lundselva" />
		<tag k="ssr:stedsnr" v="681127" />
		<tag k="waterway" v="river" />
	</node>
	<node lat="63.69273055236997" lon="12.261769436016476" id="-31654">
		<tag k="fixme" v="multiple name tags, choose one and add the other to alt_name" />
		<tag k="name" v="Litlbellingslunet;Synnerlunet" />
		<tag k="place" v="locality" />
		<tag k="ssr:stedsnr" v="498145" />
	</node>
	<node lat="63.695180552673236" lon="12.273813893299147" id="-31655">
		<tag k="fixme" v="multiple name tags, choose one and add the other to alt_name" />
		<tag k="name" v="Storbellingslunet;Norderlunet" />
		<tag k="place" v="locality" />
		<tag k="ssr:stedsnr" v="498146" />
	</node>
	<node lat="63.87236944616106" lon="11.668452774542077" id="-31657">
		<tag k="name" v="Aksnestjønna" />
		<tag k="natural" v="water" />
		<tag k="ssr:stedsnr" v="681156" />
	</node>
	<node lat="63.706336114938885" lon="11.755611106093113" id="-31664">
		<tag k="name" v="Gravbekken" />
		<tag k="ssr:stedsnr" v="498352" />
		<tag k="waterway" v="stream" />
	</node>
	<node lat="63.645549999250775" lon="11.771249999811653" id="-31665">
		<tag k="name" v="Snasaelva" />
		<tag k="ssr:stedsnr" v="498401" />
		<tag k="waterway" v="river" />
	</node>
	<node lat="63.72866389046016" lon="11.579947213896938" id="-31667">
		<tag k="name" v="Tømmersjøen" />
		<tag k="natural" v="water" />
		<tag k="ssr:stedsnr" v="498663" />
	</node>
	<node lat="63.724044442107285" lon="11.582280564507302" id="-31668">
		<tag k="name" v="Kaldvatnet" />
		<tag k="natural" v="water" />
		<tag k="ssr:stedsnr" v="498664" />
	</node>
	<node lat="63.815252775400964" lon="11.6845888953345" id="-31671">
		<tag k="name" v="Moatjønna" />
		<tag k="natural" v="water" />
		<tag k="ssr:stedsnr" v="499148" />
	</node>
	<node lat="63.602425003632916" lon="11.74465555803307" id="-31676">
		<tag k="name" v="Storbekken" />
		<tag k="ssr:stedsnr" v="499294" />
		<tag k="waterway" v="stream" />
	</node>
	<node lat="63.84972777608263" lon="11.91665554655381" id="-31677">
		<tag k="name" v="Langtjønna" />
		<tag k="natural" v="water" />
		<tag k="ssr:stedsnr" v="499436" />
	</node>
	<node lat="63.850724997808726" lon="11.836816669764753" id="-31678">
		<tag k="name" v="Grunntjønnin" />
		<tag k="natural" v="water" />
		<tag k="ssr:stedsnr" v="499440" />
	</node>
	<node lat="63.88131666722479" lon="12.028980554882644" id="-31683">
		<tag k="name" v="Tjuvdalsbekken" />
		<tag k="ssr:stedsnr" v="499386" />
		<tag k="waterway" v="stream" />
	</node>
	<node lat="63.814791666149276" lon="11.74094723072882" id="-31687">
		<tag k="name" v="Kjesbuvatnet" />
		<tag k="natural" v="water" />
		<tag k="ssr:stedsnr" v="499508" />
		<tag k="water" v="lake" />
	</node>
	<node lat="63.82107499855561" lon="12.053286119628524" id="-31689">
		<tag k="name" v="Styggdalsbekken" />
		<tag k="ssr:stedsnr" v="499537" />
		<tag k="waterway" v="stream" />
	</node>
	<node lat="63.83928611046766" lon="11.882127770456684" id="-31690">
		<tag k="name" v="Evidalstjønna" />
		<tag k="natural" v="water" />
		<tag k="ssr:stedsnr" v="499487" />
	</node>
	<node lat="63.90614999973525" lon="12.307436117172504" id="-31691">
		<tag k="name" v="Langtjønna" />
		<tag k="natural" v="water" />
		<tag k="ssr:stedsnr" v="499641" />
	</node>
	<node lat="63.91752500428419" lon="12.5079888808461" id="-31692">
		<tag k="name" v="Lakavatnet - Njaakanjaevrie" />
		<tag k="name:no" v="Lakavatnet" />
		<tag k="name:sma" v="Njaakanjaevrie" />
		<tag k="natural" v="water" />
		<tag k="ssr:stedsnr" v="499642" />
	</node>
	<node lat="63.827891667531006" lon="11.847083342202481" id="-31696">
		<tag k="name" v="Bantjønna" />
		<tag k="natural" v="water" />
		<tag k="ssr:stedsnr" v="681533" />
	</node>
	<node lat="63.82084166842276" lon="12.14032777632492" id="-31704">
		<tag k="name" v="Vindklepptjønna" />
		<tag k="natural" v="water" />
		<tag k="ssr:stedsnr" v="681589" />
	</node>
	<node lat="63.85273611136099" lon="11.956902780606432" id="-31710">
		<tag k="name" v="Malsåa" />
		<tag k="ssr:stedsnr" v="681492" />
		<tag k="waterway" v="river" />
	</node>
	<node lat="63.88549999757833" lon="12.348725006596199" id="-31714">
		<tag k="name" v="Lakatjønna" />
		<tag k="natural" v="water" />
		<tag k="ssr:stedsnr" v="681694" />
	</node>
	<node lat="63.89163055703528" lon="12.462222218348444" id="-31715">
		<tag k="name" v="Daudfisktjønna" />
		<tag k="natural" v="water" />
		<tag k="ssr:stedsnr" v="681695" />
	</node>
	<node lat="63.90738333029956" lon="12.342502768090839" id="-31716">
		<tag k="name" v="Snødalsbekken" />
		<tag k="ssr:stedsnr" v="681701" />
		<tag k="waterway" v="stream" />
	</node>
	<node lat="63.76396110736204" lon="12.339805558178195" id="-31718">
		<tag k="name" v="Vassdalsbekken" />
		<tag k="ssr:stedsnr" v="681786" />
		<tag k="waterway" v="stream" />
	</node>
	<node lat="63.67683888512206" lon="12.044038897627358" id="-31729">
		<tag k="name" v="Lomtjønna" />
		<tag k="natural" v="water" />
		<tag k="ssr:stedsnr" v="510853" />
	</node>
	<node lat="63.70734999635815" lon="11.81580556406689" id="-31740">
		<tag k="name" v="Lomtjønna" />
		<tag k="natural" v="water" />
		<tag k="ssr:stedsnr" v="534011" />
	</node>
	<node lat="63.721897217921274" lon="11.812311114163387" id="-31741">
		<tag k="name" v="Storbekken" />
		<tag k="ssr:stedsnr" v="534016" />
		<tag k="waterway" v="stream" />
	</node>
	<node lat="63.839380552450024" lon="11.763288881013278" id="-31743">
		<tag k="name" v="Sandtjønna" />
		<tag k="natural" v="water" />
		<tag k="ssr:stedsnr" v="534107" />
	</node>
	<node lat="63.62636666892195" lon="12.200913890808183" id="-31744">
		<tag k="name" v="Hegglitjønna" />
		<tag k="natural" v="water" />
		<tag k="ssr:stedsnr" v="534427" />
	</node>
	<node lat="63.815327775537796" lon="11.769852779263967" id="-31746">
		<tag k="name" v="Tangen" />
		<tag k="natural" v="cape" />
		<tag k="ssr:stedsnr" v="534118" />
	</node>
	<node lat="63.724413889173626" lon="11.636666657889121" id="-31750">
		<tag k="name" v="Plassabekken" />
		<tag k="ssr:stedsnr" v="534975" />
		<tag k="waterway" v="stream" />
	</node>
	<node lat="63.71249166590106" lon="12.02630555136237" id="-31753">
		<tag k="name" v="Sognatjønnin" />
		<tag k="natural" v="water" />
		<tag k="ssr:stedsnr" v="545127" />
		<tag k="water" v="lake" />
	</node>
	<node lat="63.59381944813111" lon="11.729125010309424" id="-31761">
		<tag k="name" v="Oset" />
		<tag k="natural" v="bay" />
		<tag k="ssr:stedsnr" v="559340" />
	</node>
	<node lat="63.846516666812846" lon="11.896849991775044" id="-31762">
		<tag k="name" v="Ronnotjønna" />
		<tag k="natural" v="water" />
		<tag k="ssr:stedsnr" v="559505" />
	</node>
	<node lat="63.869702781697484" lon="11.788691667384015" id="-31764">
		<tag k="name" v="Fånettbekken" />
		<tag k="ssr:stedsnr" v="559514" />
		<tag k="waterway" v="stream" />
	</node>
	<node lat="63.86558611154749" lon="11.751938892921098" id="-31765">
		<tag k="name" v="Kjerringholbekken" />
		<tag k="ssr:stedsnr" v="559515" />
		<tag k="waterway" v="stream" />
	</node>
	<node lat="63.68508610966445" lon="12.179050000937007" id="-31771">
		<tag k="name" v="Elsetjønna" />
		<tag k="natural" v="water" />
		<tag k="ssr:stedsnr" v="559298" />
	</node>
	<node lat="63.884955551238214" lon="12.528341664548105" id="-31776">
		<tag k="name" v="Storbekken" />
		<tag k="ssr:stedsnr" v="559688" />
		<tag k="waterway" v="stream" />
	</node>
	<node lat="63.88965278218467" lon="12.474597218450937" id="-31777">
		<tag k="name" v="Lakaklumptjønna" />
		<tag k="natural" v="water" />
		<tag k="ssr:stedsnr" v="559689" />
	</node>
	<node lat="63.90127222252799" lon="12.493922232278791" id="-31778">
		<tag k="name" v="Heimtjønna" />
		<tag k="natural" v="water" />
		<tag k="ssr:stedsnr" v="559693" />
	</node>
	<node lat="63.832952781038884" lon="11.950247225507455" id="-31785">
		<tag k="name" v="Svarttjønna" />
		<tag k="natural" v="water" />
		<tag k="ssr:stedsnr" v="560539" />
	</node>
	<node lat="63.77658611259465" lon="12.104627784618499" id="-31788">
		<tag k="name" v="Spjeldbergbekken" />
		<tag k="ssr:stedsnr" v="560638" />
		<tag k="waterway" v="stream" />
	</node>
	<node lat="63.78405555599791" lon="12.41196944603756" id="-31789">
		<tag k="name" v="Ongelstjønna" />
		<tag k="natural" v="water" />
		<tag k="ssr:stedsnr" v="560786" />
	</node>
	<node lat="63.83024166774734" lon="11.976541675040242" id="-31796">
		<tag k="name" v="Haugbekken" />
		<tag k="ssr:stedsnr" v="692828" />
		<tag k="waterway" v="stream" />
	</node>
	<node lat="63.82160277532141" lon="11.82274721618092" id="-31798">
		<tag k="alt_name" v="Gamle Koltjønna" />
		<tag k="name" v="Gammelkoltjønna" />
		<tag k="natural" v="water" />
		<tag k="ssr:stedsnr" v="570610" />
	</node>
	<node lat="63.757638893237434" lon="11.633502781476674" id="-31811">
		<tag k="name" v="Fossdalsbekken" />
		<tag k="ssr:stedsnr" v="693733" />
		<tag k="waterway" v="stream" />
	</node>
	<node lat="63.75793055420617" lon="11.681724996068684" id="-31813">
		<tag k="name" v="Finnmyrtjønna" />
		<tag k="natural" v="water" />
		<tag k="ssr:stedsnr" v="571689" />
	</node>
	<node lat="63.88031666963922" lon="11.644741659824444" id="-31823">
		<tag k="name" v="Tusetbekken" />
		<tag k="ssr:stedsnr" v="575300" />
		<tag k="waterway" v="stream" />
	</node>
	<node lat="63.710400002109466" lon="11.83507777254025" id="-31824">
		<tag k="name" v="Kirkaholet" />
		<tag k="natural" v="water" />
		<tag k="ssr:stedsnr" v="594003" />
	</node>
	<node lat="63.85266944641564" lon="11.840661111162364" id="-31827">
		<tag k="name" v="Grunntjønna" />
		<tag k="natural" v="water" />
		<tag k="ssr:stedsnr" v="594103" />
	</node>
	<node lat="63.853586115145575" lon="12.071911108623048" id="-31829">
		<tag k="name" v="Setertjønnin" />
		<tag k="natural" v="water" />
		<tag k="ssr:stedsnr" v="594420" />
	</node>
	<node lat="63.91534722225106" lon="12.086500003963875" id="-31831">
		<tag k="name" v="Litl-Langdalstjønna" />
		<tag k="natural" v="water" />
		<tag k="ssr:stedsnr" v="594702" />
	</node>
	<node lat="63.71677222441569" lon="12.27084166254749" id="-31834">
		<tag k="name" v="Bellingsholmen" />
		<tag k="place" v="islet" />
		<tag k="ssr:stedsnr" v="620121" />
	</node>
	<node lat="63.696741668642105" lon="12.233341660082338" id="-31835">
		<tag k="alt_name" v="Billingsåa" />
		<tag k="name" v="Bellingsåa" />
		<tag k="ssr:stedsnr" v="620123" />
		<tag k="waterway" v="river" />
	</node>
	<node lat="63.67575000354853" lon="11.95631666392406" id="-31845">
		<tag k="alt_name" v="Risbekken" />
		<tag k="name" v="Risvassbekken" />
		<tag k="ssr:stedsnr" v="620288" />
		<tag k="waterway" v="stream" />
	</node>
	<node lat="63.9055138862393" lon="12.070588885759083" id="-31846">
		<tag k="name" v="Malsåa" />
		<tag k="ssr:stedsnr" v="620417" />
		<tag k="waterway" v="stream" />
	</node>
	<node lat="63.62252500185337" lon="11.991038887649097" id="-31847">
		<tag k="name" v="Langtjønna" />
		<tag k="natural" v="water" />
		<tag k="ssr:stedsnr" v="620320" />
	</node>
	<node lat="63.89046111471911" lon="12.271605551944074" id="-31851">
		<tag k="name" v="Øvre Storbekktjønnin" />
		<tag k="natural" v="water" />
		<tag k="ssr:stedsnr" v="620675" />
	</node>
	<node lat="63.89937222066662" lon="12.463055563776553" id="-31852">
		<tag k="name" v="Bellingtjønnin" />
		<tag k="natural" v="water" />
		<tag k="ssr:stedsnr" v="620680" />
	</node>
	<node lat="63.942886114082555" lon="12.300191661535429" id="-31853">
		<tag k="name" v="Tverråa" />
		<tag k="ssr:stedsnr" v="620683" />
		<tag k="waterway" v="stream" />
	</node>
	<node lat="63.90708333041839" lon="12.369413880020264" id="-31855">
		<tag k="name" v="Tverråa" />
		<tag k="ssr:stedsnr" v="620791" />
		<tag k="waterway" v="river" />
	</node>
	<node lat="63.66915000114251" lon="12.048397213599738" id="-31856">
		<tag k="name" v="Flokkåsdalsbekken" />
		<tag k="ssr:stedsnr" v="631835" />
		<tag k="waterway" v="stream" />
	</node>
	<node lat="63.65593610914062" lon="12.223597231122158" id="-31863">
		<tag k="name" v="Håven" />
		<tag k="natural" v="bay" />
		<tag k="ssr:stedsnr" v="632834" />
	</node>
	<node lat="63.78324166859433" lon="11.494111114861964" id="-31882">
		<tag k="name" v="Verdalselva" />
		<tag k="ssr:stedsnr" v="681359" />
		<tag k="waterway" v="river" />
	</node>
	<node lat="63.87315555353297" lon="11.80893332833602" id="-31886">
		<tag k="name" v="Mevassbekken" />
		<tag k="ssr:stedsnr" v="681521" />
		<tag k="waterway" v="stream" />
	</node>
	<node lat="63.79030555608184" lon="11.849183332808561" id="-31889">
		<tag k="name" v="Litlskyta" />
		<tag k="ssr:stedsnr" v="681605" />
		<tag k="waterway" v="stream" />
	</node>
	<node lat="63.795099996486684" lon="12.13144722647341" id="-31890">
		<tag k="name" v="Seterbekken" />
		<tag k="ssr:stedsnr" v="681608" />
		<tag k="waterway" v="stream" />
	</node>
	<node lat="63.90112777472583" lon="12.18872222432018" id="-31893">
		<tag k="name" v="Tverråa" />
		<tag k="ssr:stedsnr" v="681818" />
		<tag k="waterway" v="river" />
	</node>
	<node lat="63.716308333332535" lon="11.834502770764443" id="-31910">
		<tag k="name" v="Plankbekken" />
		<tag k="ssr:stedsnr" v="716006" />
		<tag k="waterway" v="stream" />
	</node>
	<node lat="63.83829444168027" lon="11.796472220021466" id="-31914">
		<tag k="name" v="Søndre Rollsjø" />
		<tag k="natural" v="water" />
		<tag k="ssr:stedsnr" v="716124" />
	</node>
	<node lat="63.8294277755357" lon="12.204177773563176" id="-31941">
		<tag k="name" v="Kløftafossen" />
		<tag k="natural" v="waterfall" />
		<tag k="ssr:stedsnr" v="742503" />
	</node>
	<node lat="63.82660833181547" lon="11.997005549028255" id="-31942">
		<tag k="name" v="Bjartholman" />
		<tag k="place" v="islet" />
		<tag k="ssr:stedsnr" v="742511" />
	</node>
	<node lat="63.95459166990728" lon="12.382361104354604" id="-31947">
		<tag k="name" v="Gluptjønna" />
		<tag k="natural" v="water" />
		<tag k="ssr:stedsnr" v="742707" />
	</node>
	<node lat="63.813830551657546" lon="12.427061117382175" id="-31948">
		<tag k="name" v="Auretjønna" />
		<tag k="natural" v="water" />
		<tag k="ssr:stedsnr" v="742740" />
	</node>
	<node lat="63.83074444381827" lon="12.010430547491397" id="-31950">
		<tag k="name" v="Klokkarbekken" />
		<tag k="ssr:stedsnr" v="752815" />
		<tag k="waterway" v="stream" />
	</node>
	<node lat="63.650649999015045" lon="12.18145000014447" id="-31951">
		<tag k="name" v="Jervdalsbekken" />
		<tag k="ssr:stedsnr" v="752825" />
		<tag k="waterway" v="stream" />
	</node>
	<node lat="63.79596111434562" lon="11.544941668592191" id="-31955">
		<tag k="name" v="Brokskitbekken" />
		<tag k="ssr:stedsnr" v="754707" />
		<tag k="waterway" v="stream" />
	</node>
	<node lat="63.71468055167414" lon="11.824102775894001" id="-31967">
		<tag k="name" v="Merkesbekken" />
		<tag k="ssr:stedsnr" v="777007" />
		<tag k="waterway" v="stream" />
	</node>
	<node lat="63.661916670212264" lon="11.68956666216671" id="-31972">
		<tag k="name" v="Jensåstjønna" />
		<tag k="natural" v="water" />
		<tag k="ssr:stedsnr" v="909992" />
	</node>
	<node lat="63.847494448528714" lon="11.60794167064817" id="-31975">
		<tag k="name" v="Leksdalsvatnet" />
		<tag k="natural" v="water" />
		<tag k="ssr:stedsnr" v="802177" />
		<tag k="water" v="lake" />
	</node>
	<node lat="63.72854444803966" lon="11.967769437820385" id="-31976">
		<tag k="name" v="Langtjønna" />
		<tag k="natural" v="water" />
		<tag k="ssr:stedsnr" v="802312" />
	</node>
	<node lat="63.797047221089024" lon="11.571249998549458" id="-31990">
		<tag k="name" v="Korsdalsbekken" />
		<tag k="ssr:stedsnr" v="814684" />
		<tag k="waterway" v="stream" />
	</node>
	<node lat="63.73495833509767" lon="12.241641668079197" id="-31993">
		<tag k="alt_name" v="Litlbillingen" />
		<tag k="name" v="Litlbellingen" />
		<tag k="natural" v="water" />
		<tag k="ssr:stedsnr" v="923194" />
		<tag k="water" v="lake" />
	</node>
	<node lat="63.71724166401682" lon="12.261594439918698" id="-31998">
		<tag k="name" v="Storbellingen" />
		<tag k="natural" v="water" />
		<tag k="ssr:stedsnr" v="923157" />
		<tag k="water" v="lake" />
	</node>
	<node lat="63.71143611406929" lon="12.161388892810383" id="-31999">
		<tag k="alt_name" v="Drivsjøen, nordre" />
		<tag k="name" v="Nordre Drivsjøen" />
		<tag k="natural" v="water" />
		<tag k="ssr:stedsnr" v="923330" />
		<tag k="water" v="lake" />
	</node>
	<node lat="63.70458888796553" lon="11.795994438203193" id="-32000">
		<tag k="name" v="Svarthugguvatnet" />
		<tag k="natural" v="water" />
		<tag k="ssr:stedsnr" v="923331" />
	</node>
	<node lat="63.70539999651256" lon="11.903891656888188" id="-32001">
		<tag k="name" v="Seterbekken" />
		<tag k="ssr:stedsnr" v="923334" />
		<tag k="waterway" v="stream" />
	</node>
	<node lat="63.664972218458765" lon="12.077816673683198" id="-32002">
		<tag k="name" v="Skravlfossen" />
		<tag k="natural" v="waterfall" />
		<tag k="ssr:stedsnr" v="923345" />
	</node>
	<node lat="63.64705000085361" lon="12.207891661158252" id="-32026">
		<tag k="name" v="Godbekken" />
		<tag k="ssr:stedsnr" v="924281" />
		<tag k="waterway" v="stream" />
	</node>
	<node lat="63.690911111182025" lon="11.90003611604256" id="-32029">
		<tag k="name" v="Vestre Kleivmyrtjønna" />
		<tag k="natural" v="water" />
		<tag k="ssr:stedsnr" v="837385" />
	</node>
	<node lat="63.701141670659865" lon="11.917822224372468" id="-32030">
		<tag k="name" v="Svartholbekken" />
		<tag k="ssr:stedsnr" v="837386" />
		<tag k="waterway" v="stream" />
	</node>
	<node lat="63.62382592375641" lon="12.085081435598118" id="-32031">
		<tag k="name" v="Kråksjøen" />
		<tag k="natural" v="water" />
		<tag k="ssr:stedsnr" v="924298" />
		<tag k="water" v="lake" />
	</node>
	<node lat="63.630338892446176" lon="11.988488886877963" id="-32033">
		<tag k="name" v="Brenntjønna" />
		<tag k="natural" v="water" />
		<tag k="ssr:stedsnr" v="924302" />
	</node>
	<node lat="63.63931389077101" lon="12.024077786117102" id="-32034">
		<tag k="name" v="Storkråka" />
		<tag k="ssr:stedsnr" v="924306" />
		<tag k="waterway" v="river" />
	</node>
	<node lat="63.843183337156205" lon="11.551211108485461" id="-32040">
		<tag k="name" v="Lomtjønna" />
		<tag k="natural" v="water" />
		<tag k="ssr:stedsnr" v="924110" />
	</node>
	<node lat="63.87296666660314" lon="11.924055555508911" id="-32049">
		<tag k="name" v="Storbekken" />
		<tag k="ssr:stedsnr" v="924491" />
		<tag k="waterway" v="stream" />
	</node>
	<node lat="63.86345555134332" lon="11.922661105363478" id="-32050">
		<tag k="name" v="Høysjøen" />
		<tag k="natural" v="water" />
		<tag k="ssr:stedsnr" v="924501" />
		<tag k="water" v="lake" />
	</node>
	<node lat="63.80233055772771" lon="12.336241663166854" id="-32053">
		<tag k="name" v="Hølbekken" />
		<tag k="ssr:stedsnr" v="924732" />
		<tag k="waterway" v="stream" />
	</node>
	<node lat="63.95029721893459" lon="12.276038895681877" id="-32057">
		<tag k="name" v="Lågvassbekken" />
		<tag k="ssr:stedsnr" v="924693" />
		<tag k="waterway" v="river" />
	</node>
	<node lat="63.808386109305566" lon="12.164855546161865" id="-32064">
		<tag k="name" v="Kroklunet" />
		<tag k="place" v="locality" />
		<tag k="ssr:stedsnr" v="863608" />
	</node>
	<node lat="63.89646666255791" lon="12.015222229175054" id="-32068">
		<tag k="name" v="Storbekken" />
		<tag k="ssr:stedsnr" v="863793" />
		<tag k="waterway" v="stream" />
	</node>
	<node lat="63.831022223896944" lon="12.27080000742033" id="-32069">
		<tag k="name" v="Storbekken" />
		<tag k="ssr:stedsnr" v="863801" />
		<tag k="waterway" v="stream" />
	</node>
	<node lat="63.75605833595216" lon="11.608124991753279" id="-32071">
		<tag k="name" v="Bjørkbekken" />
		<tag k="ssr:stedsnr" v="864345" />
		<tag k="waterway" v="stream" />
	</node>
	<node lat="63.83218610795088" lon="11.504119434050029" id="-32075">
		<tag k="name" v="Hofossen" />
		<tag k="natural" v="waterfall" />
		<tag k="ssr:stedsnr" v="875717" />
	</node>
	<node lat="63.75478888860318" lon="11.808333336745495" id="-32078">
		<tag k="name" v="Kløyvdalsbekken" />
		<tag k="ssr:stedsnr" v="875604" />
		<tag k="waterway" v="stream" />
	</node>
	<node lat="63.86372778183744" lon="11.94399999672985" id="-32084">
		<tag k="name" v="Botn" />
		<tag k="natural" v="bay" />
		<tag k="ssr:stedsnr" v="897356" />
	</node>
	<node lat="63.774972225357686" lon="11.883188880505282" id="-32087">
		<tag k="name" v="Lomtjønna" />
		<tag k="natural" v="water" />
		<tag k="ssr:stedsnr" v="898060" />
	</node>
	<node lat="63.628088892709535" lon="12.19296666493444" id="-32089">
		<tag k="name" v="Hegglitjønna" />
		<tag k="natural" v="water" />
		<tag k="ssr:stedsnr" v="898417" />
	</node>
	<node lat="63.73826110743645" lon="11.606180551948915" id="-32090">
		<tag k="name" v="Litlvatnet" />
		<tag k="natural" v="water" />
		<tag k="ssr:stedsnr" v="898757" />
	</node>
	<node lat="63.7465249986243" lon="12.093483338198492" id="-32093">
		<tag k="name" v="Litl-Fagerlitjønna" />
		<tag k="natural" v="water" />
		<tag k="ssr:stedsnr" v="909162" />
	</node>
	<node lat="63.742686108056766" lon="12.191611112876986" id="-32096">
		<tag k="name" v="Juldøla" />
		<tag k="ssr:stedsnr" v="923286" />
		<tag k="waterway" v="river" />
	</node>
	<node lat="63.696850001178696" lon="12.130486115584542" id="-32097">
		<tag k="alt_name" v="Drivsjøen, s;Søndre Drivsjøen" />
		<tag k="name" v="Søre Drivsjøen" />
		<tag k="natural" v="water" />
		<tag k="ssr:stedsnr" v="923320" />
		<tag k="water" v="lake" />
	</node>
	<node lat="63.901783333352725" lon="12.030352787104437" id="-32103">
		<tag k="name" v="Grunnbekken" />
		<tag k="ssr:stedsnr" v="924415" />
		<tag k="waterway" v="stream" />
	</node>
	<node lat="63.82848055869343" lon="12.125213895624976" id="-32108">
		<tag k="name" v="Smørholbekken" />
		<tag k="ssr:stedsnr" v="924519" />
		<tag k="waterway" v="stream" />
	</node>
	<node lat="63.83657778034777" lon="12.38864445017756" id="-32116">
		<tag k="name" v="Klumptjønnin" />
		<tag k="natural" v="water" />
		<tag k="ssr:stedsnr" v="924722" />
	</node>
	<node lat="63.75730832910172" lon="12.061900001138705" id="-32123">
		<tag k="name" v="Bergtjønnin" />
		<tag k="natural" v="water" />
		<tag k="ssr:stedsnr" v="924666" />
	</node>
	<node lat="63.856763888919104" lon="12.317855559594461" id="-32124">
		<tag k="name" v="Tverråtjønna" />
		<tag k="natural" v="water" />
		<tag k="ssr:stedsnr" v="924672" />
	</node>
	<node lat="63.85405277896911" lon="12.320141659205053" id="-32126">
		<tag k="name" v="Tverråa" />
		<tag k="ssr:stedsnr" v="924804" />
		<tag k="waterway" v="river" />
	</node>
	<node lat="63.66082222122085" lon="12.139819434610976" id="-32130">
		<tag k="name" v="Innsdammen" />
		<tag k="ssr:stedsnr" v="935839" />
		<tag k="waterway" v="dam" />
	</node>
	<node lat="63.832100002500255" lon="11.939069443385009" id="-32131">
		<tag k="name" v="Svartdalsbekken" />
		<tag k="ssr:stedsnr" v="935801" />
		<tag k="waterway" v="stream" />
	</node>
	<node lat="63.80167777884389" lon="11.511113885527035" id="-32141">
		<tag k="name" v="Haugslibekken" />
		<tag k="ssr:stedsnr" v="936685" />
		<tag k="waterway" v="stream" />
	</node>
	<node lat="63.659316670699965" lon="11.947308340699397" id="-32162">
		<tag k="name" v="Risvatnet" />
		<tag k="natural" v="water" />
		<tag k="ssr:stedsnr" v="13329" />
	</node>
	<node lat="63.66321666475308" lon="12.133811115810309" id="-32170">
		<tag k="name" v="Gomtjønna" />
		<tag k="natural" v="water" />
		<tag k="ssr:stedsnr" v="13350" />
	</node>
	<node lat="63.65035000256144" lon="11.972602773302308" id="-32172">
		<tag k="name" v="Sandåa" />
		<tag k="ssr:stedsnr" v="13355" />
		<tag k="waterway" v="stream" />
	</node>
	<node lat="63.65907221977184" lon="11.685838892924453" id="-32173">
		<tag k="name" v="Jensåsbekken" />
		<tag k="old_name" v="Fensåsbekken" />
		<tag k="ssr:stedsnr" v="13555" />
		<tag k="waterway" v="stream" />
	</node>
	<node lat="63.86685555281778" lon="11.85094999995852" id="-32179">
		<tag k="name" v="Mevatna" />
		<tag k="natural" v="water" />
		<tag k="ssr:stedsnr" v="14458" />
		<tag k="water" v="lake" />
	</node>
	<node lat="63.82178055485858" lon="12.027886109904001" id="-32183">
		<tag k="name" v="Hjellmobekken" />
		<tag k="ssr:stedsnr" v="14480" />
		<tag k="waterway" v="stream" />
	</node>
	<node lat="63.859755554072585" lon="11.909366675007835" id="-32195">
		<tag k="name" v="Landfastholmen" />
		<tag k="natural" v="cape" />
		<tag k="ssr:stedsnr" v="14422" />
	</node>
	<node lat="63.844261109420486" lon="11.863799997040028" id="-32196">
		<tag k="name" v="Skjettrenna" />
		<tag k="ssr:stedsnr" v="14429" />
		<tag k="waterway" v="stream" />
	</node>
	<node lat="63.84696388771131" lon="11.802174998703034" id="-32197">
		<tag k="name" v="Revhaugtjønna" />
		<tag k="natural" v="water" />
		<tag k="ssr:stedsnr" v="14438" />
	</node>
	<node lat="63.87387777946542" lon="11.75737499700914" id="-32198">
		<tag k="name" v="Småvasshaugtjønna" />
		<tag k="natural" v="water" />
		<tag k="ssr:stedsnr" v="14448" />
	</node>
	<node lat="63.83728888973311" lon="12.026322229438962" id="-32200">
		<tag k="name" v="Skjækerfossen" />
		<tag k="natural" v="waterfall" />
		<tag k="ssr:stedsnr" v="14492" />
	</node>
	<node lat="63.79576666433134" lon="11.91229722070582" id="-32207">
		<tag k="name" v="Haukbekken" />
		<tag k="ssr:stedsnr" v="14551" />
		<tag k="waterway" v="stream" />
	</node>
	<node lat="63.88585277398257" lon="12.33421388359081" id="-32208">
		<tag k="name" v="Bjarnetjønna" />
		<tag k="natural" v="water" />
		<tag k="ssr:stedsnr" v="14643" />
	</node>
	<node lat="63.8491388860901" lon="12.26211667028977" id="-32213">
		<tag k="name" v="Småbekktjønnnin" />
		<tag k="natural" v="water" />
		<tag k="ssr:stedsnr" v="14700" />
	</node>
	<node lat="63.7931750027547" lon="12.359091675754541" id="-32214">
		<tag k="fixme" v="multiple name tags, choose one and add the other to alt_name" />
		<tag k="name" v="Veressjøen;Veresvatnet" />
		<tag k="natural" v="water" />
		<tag k="ssr:stedsnr" v="14741" />
		<tag k="water" v="lake" />
	</node>
	<node lat="64.0009999986408" lon="12.642186107870174" id="-32215">
		<tag k="name" v="Njaakanjohke - Stigåa" />
		<tag k="name:no" v="Stigåa" />
		<tag k="name:sma" v="Njaakanjohke" />
		<tag k="ssr:stedsnr" v="14854" />
		<tag k="waterway" v="stream" />
	</node>
	<node lat="63.666430552643234" lon="12.066286104773756" id="-32219">
		<tag k="name" v="Nokktjønnbekken" />
		<tag k="ssr:stedsnr" v="24835" />
		<tag k="waterway" v="stream" />
	</node>
	<node lat="63.660161113569224" lon="12.147480549722191" id="-32220">
		<tag k="name" v="Motjønna" />
		<tag k="natural" v="water" />
		<tag k="ssr:stedsnr" v="24845" />
	</node>
	<node lat="63.86359166278329" lon="11.716994453851125" id="-32242">
		<tag k="name" v="Stiklestadholmen" />
		<tag k="place" v="islet" />
		<tag k="ssr:stedsnr" v="48534" />
	</node>
	<node lat="63.72471666913587" lon="11.755797225850053" id="-32244">
		<tag k="name" v="Kvernbekken" />
		<tag k="ssr:stedsnr" v="48016" />
		<tag k="waterway" v="stream" />
	</node>
	<node lat="63.7015611153192" lon="11.883380563668888" id="-32245">
		<tag k="name" v="Granesbekken" />
		<tag k="ssr:stedsnr" v="48348" />
		<tag k="waterway" v="stream" />
	</node>
	<node lat="63.68941667111259" lon="11.886622216460578" id="-32246">
		<tag k="name" v="Havervollbekken" />
		<tag k="ssr:stedsnr" v="48349" />
		<tag k="waterway" v="stream" />
	</node>
	<node lat="63.799955553180354" lon="11.74391389565901" id="-32254">
		<tag k="name" v="Helltjønna" />
		<tag k="natural" v="water" />
		<tag k="ssr:stedsnr" v="48954" />
	</node>
	<node lat="63.62882500074659" lon="12.145855561679653" id="-32258">
		<tag k="name" v="Merraskardtjønnin" />
		<tag k="natural" v="water" />
		<tag k="ssr:stedsnr" v="60157" />
		<tag k="water" v="lake" />
	</node>
	<node lat="63.68801111092518" lon="12.00719999027521" id="-32260">
		<tag k="name" v="Vargdalsbekken" />
		<tag k="ssr:stedsnr" v="60247" />
		<tag k="waterway" v="stream" />
	</node>
	<node lat="63.73336666581407" lon="11.660261104189237" id="-32274">
		<tag k="name" v="Trongdøla" />
		<tag k="ssr:stedsnr" v="73648" />
		<tag k="waterway" v="river" />
	</node>
	<node lat="63.67575833702505" lon="12.287169449477746" id="-32276">
		<tag k="name" v="Finnvoltjønna" />
		<tag k="natural" v="water" />
		<tag k="ssr:stedsnr" v="74126" />
	</node>
	<node lat="63.65742222154647" lon="12.256497224683837" id="-32277">
		<tag k="alt_name" v="Vargåa" />
		<tag k="name" v="Vergåa" />
		<tag k="ssr:stedsnr" v="74128" />
		<tag k="waterway" v="river" />
	</node>
	<node lat="63.71079444885296" lon="12.194638881171626" id="-32283">
		<tag k="name" v="Gluptjønna" />
		<tag k="natural" v="water" />
		<tag k="ssr:stedsnr" v="74293" />
	</node>
	<node lat="63.69854166913906" lon="11.927116662695422" id="-32284">
		<tag k="name" v="Midtsogna" />
		<tag k="ssr:stedsnr" v="74296" />
		<tag k="waterway" v="stream" />
	</node>
	<node lat="63.64941666846039" lon="11.96242777906468" id="-32286">
		<tag k="name" v="Bjartnestjønna" />
		<tag k="natural" v="water" />
		<tag k="ssr:stedsnr" v="74319" />
	</node>
	<node lat="63.6560527799019" lon="12.040824998941766" id="-32288">
		<tag k="name" v="Storskardbekken" />
		<tag k="ssr:stedsnr" v="74327" />
		<tag k="waterway" v="stream" />
	</node>
	<node lat="63.87046389143668" lon="12.299019438936087" id="-32296">
		<tag k="name" v="Einartjønna" />
		<tag k="natural" v="water" />
		<tag k="ssr:stedsnr" v="74682" />
	</node>
	<node lat="63.94219722311826" lon="12.26763610221265" id="-32298">
		<tag k="name" v="Skjækerlunet" />
		<tag k="place" v="locality" />
		<tag k="ssr:stedsnr" v="74691" />
	</node>
	<node lat="63.8041833316745" lon="11.73698610934192" id="-32301">
		<tag k="name" v="Skavdalsbekken" />
		<tag k="ssr:stedsnr" v="74624" />
		<tag k="waterway" v="stream" />
	</node>
	<node lat="63.84214999976376" lon="12.056022223191611" id="-32305">
		<tag k="name" v="Stabeltjønna" />
		<tag k="natural" v="water" />
		<tag k="ssr:stedsnr" v="75585" />
	</node>
	<node lat="63.93728333178791" lon="12.200597225628949" id="-32314">
		<tag k="name" v="Storbekktjønnin" />
		<tag k="natural" v="water" />
		<tag k="ssr:stedsnr" v="75522" />
	</node>
	<node lat="63.79401110787226" lon="12.155625008086199" id="-32315">
		<tag k="name" v="Stamtjønna" />
		<tag k="natural" v="water" />
		<tag k="ssr:stedsnr" v="75644" />
	</node>
	<node lat="63.75859999662819" lon="12.098511109183235" id="-32316">
		<tag k="name" v="Spjeldbergtjønnin" />
		<tag k="natural" v="water" />
		<tag k="ssr:stedsnr" v="75721" />
	</node>
	<node lat="63.90975555483805" lon="11.807008325656772" id="-32317">
		<tag k="name" v="Høgmannselva" />
		<tag k="ssr:stedsnr" v="75471" />
		<tag k="waterway" v="stream" />
	</node>
	<node lat="63.805905553759295" lon="12.230511118067257" id="-32322">
		<tag k="name" v="Skjulseterdalstjønna" />
		<tag k="natural" v="water" />
		<tag k="ssr:stedsnr" v="75769" />
	</node>
	<node lat="63.83417777607912" lon="12.235097211930446" id="-32324">
		<tag k="name" v="Forlandet" />
		<tag k="ssr:stedsnr" v="75778" />
		<tag k="waterway" v="river" />
	</node>
	<node lat="63.78295277890158" lon="12.33199999299421" id="-32327">
		<tag k="name" v="Leirvika" />
		<tag k="natural" v="bay" />
		<tag k="ssr:stedsnr" v="75823" />
	</node>
	<node lat="63.67279166946091" lon="12.264158335434784" id="-32340">
		<tag k="name" v="Finnvolbekken" />
		<tag k="ssr:stedsnr" v="86846" />
		<tag k="waterway" v="stream" />
	</node>
	<node lat="63.83048611343695" lon="12.118341660507186" id="-32341">
		<tag k="name" v="Forlanddalsbekken" />
		<tag k="ssr:stedsnr" v="86848" />
		<tag k="waterway" v="stream" />
	</node>
	<node lat="63.66009722198985" lon="12.26143610557774" id="-32342">
		<tag k="alt_name" v="Østeråa" />
		<tag k="name" v="Øysteråa" />
		<tag k="ssr:stedsnr" v="86853" />
		<tag k="waterway" v="stream" />
	</node>
	<node lat="63.72455555805848" lon="11.60311667209858" id="-32345">
		<tag k="name" v="Fættin" />
		<tag k="natural" v="cape" />
		<tag k="ssr:stedsnr" v="90924" />
	</node>
	<node lat="63.7161083325311" lon="11.620011115622944" id="-32346">
		<tag k="name" v="Ramsåa" />
		<tag k="ssr:stedsnr" v="90935" />
		<tag k="waterway" v="river" />
	</node>
	<node lat="63.708741662821964" lon="12.107461113949114" id="-32347">
		<tag k="name" v="Mefjellstjønnin" />
		<tag k="natural" v="water" />
		<tag k="ssr:stedsnr" v="102099" />
		<tag k="water" v="lake" />
	</node>
	<node lat="63.722655556627295" lon="11.842552784529557" id="-32350">
		<tag k="name" v="Inndalseterbekken" />
		<tag k="ssr:stedsnr" v="109010" />
		<tag k="waterway" v="stream" />
	</node>
	<node lat="63.73048888732603" lon="11.790158328328703" id="-32353">
		<tag k="name" v="Ålibekken" />
		<tag k="ssr:stedsnr" v="109062" />
		<tag k="waterway" v="stream" />
	</node>
	<node lat="63.84290278102796" lon="11.806158327715368" id="-32355">
		<tag k="name" v="Nordre Rollsjø" />
		<tag k="natural" v="water" />
		<tag k="ssr:stedsnr" v="109097" />
	</node>
	<node lat="63.64207500284288" lon="12.01591111688927" id="-32357">
		<tag k="name" v="Svarttjønna" />
		<tag k="natural" v="water" />
		<tag k="ssr:stedsnr" v="109397" />
	</node>
	<node lat="63.739694448343855" lon="11.615497221745764" id="-32358">
		<tag k="name" v="Sunnbytjønna" />
		<tag k="natural" v="water" />
		<tag k="ssr:stedsnr" v="109712" />
	</node>
	<node lat="63.7957527768906" lon="11.720958329685693" id="-32362">
		<tag k="name" v="Svartdalsbekken" />
		<tag k="ssr:stedsnr" v="109946" />
		<tag k="waterway" v="stream" />
	</node>
	<node lat="63.74740555315587" lon="11.630536118520517" id="-32363">
		<tag k="name" v="Kvinnfjelltjønna" />
		<tag k="natural" v="water" />
		<tag k="ssr:stedsnr" v="109957" />
	</node>
	<node lat="63.67648332917097" lon="11.923199999485053" id="-32370">
		<tag k="name" v="Litlåa" />
		<tag k="ssr:stedsnr" v="134240" />
		<tag k="waterway" v="stream" />
	</node>
	<node lat="63.72174999702701" lon="12.084933340052345" id="-32372">
		<tag k="loc_name" v="Kvernsjøen nordre" />
		<tag k="name" v="Kvernsjøen" />
		<tag k="natural" v="water" />
		<tag k="ssr:stedsnr" v="134324" />
		<tag k="water" v="lake" />
	</node>
	<node lat="63.627144443429465" lon="11.665700000668885" id="-32379">
		<tag k="name" v="Glunka" />
		<tag k="ssr:stedsnr" v="134438" />
		<tag k="waterway" v="river" />
	</node>
	<node lat="63.62215000129392" lon="11.91090833489608" id="-32380">
		<tag k="name" v="Tverråtjønna" />
		<tag k="natural" v="water" />
		<tag k="ssr:stedsnr" v="134388" />
	</node>
	<node lat="63.90231666503873" lon="12.081613878947232" id="-32382">
		<tag k="name" v="Svarttjønna" />
		<tag k="natural" v="water" />
		<tag k="ssr:stedsnr" v="134486" />
	</node>
	<node lat="63.82640277954385" lon="12.39952499157693" id="-32383">
		<tag k="name" v="Seterbekken" />
		<tag k="ssr:stedsnr" v="134840" />
		<tag k="waterway" v="stream" />
	</node>
	<node lat="63.85535555312981" lon="12.104908327693485" id="-32385">
		<tag k="name" v="Dyråa" />
		<tag k="ssr:stedsnr" v="135476" />
		<tag k="waterway" v="stream" />
	</node>
	<node lat="63.845174996807884" lon="12.064247218801537" id="-32397">
		<tag k="name" v="Seterdalsbekken" />
		<tag k="ssr:stedsnr" v="135545" />
		<tag k="waterway" v="stream" />
	</node>
	<node lat="63.774188887924964" lon="12.349300008732476" id="-32398">
		<tag k="name" v="Vassdalsvika" />
		<tag k="natural" v="bay" />
		<tag k="ssr:stedsnr" v="135758" />
	</node>
	<node lat="63.85349722496054" lon="11.903536101769804" id="-32401">
		<tag k="name" v="Litlhøysjøen" />
		<tag k="natural" v="water" />
		<tag k="ssr:stedsnr" v="135487" />
	</node>
	<node lat="63.792572225077734" lon="11.928419439287794" id="-32404">
		<tag k="name" v="Raudkollbekken" />
		<tag k="ssr:stedsnr" v="135594" />
		<tag k="waterway" v="stream" />
	</node>
	<node lat="63.79529999629439" lon="12.167474996331213" id="-32405">
		<tag k="name" v="Styggholbekken" />
		<tag k="ssr:stedsnr" v="135598" />
		<tag k="waterway" v="stream" />
	</node>
	<node lat="63.860427778109404" lon="12.288352778193543" id="-32407">
		<tag k="name" v="Elghaugtjønna" />
		<tag k="natural" v="water" />
		<tag k="ssr:stedsnr" v="135686" />
	</node>
	<node lat="63.79683333565219" lon="12.318261106216315" id="-32410">
		<tag k="name" v="Bomlunet" />
		<tag k="place" v="locality" />
		<tag k="ssr:stedsnr" v="135734" />
	</node>
	<node lat="63.799644447976156" lon="12.374899992744464" id="-32411">
		<tag k="name" v="Kjeholmen" />
		<tag k="place" v="islet" />
		<tag k="ssr:stedsnr" v="135735" />
	</node>
	<node lat="63.79666514935952" lon="12.245761634192558" id="-32412">
		<tag k="name" v="Djupdalsbekken" />
		<tag k="ssr:stedsnr" v="135739" />
		<tag k="waterway" v="stream" />
	</node>
	<node lat="63.86702777965574" lon="11.645166659722822" id="-32415">
		<tag k="name" v="Haugabekken" />
		<tag k="ssr:stedsnr" v="143656" />
		<tag k="waterway" v="stream" />
	</node>
	<node lat="63.65719722426726" lon="12.129236102633046" id="-32417">
		<tag k="name" v="Nybyggbekken" />
		<tag k="ssr:stedsnr" v="145844" />
		<tag k="waterway" v="stream" />
	</node>
	<node lat="63.70324444163498" lon="11.619644448624122" id="-32419">
		<tag k="name" v="Skjettholbekken" />
		<tag k="ssr:stedsnr" v="146332" />
		<tag k="waterway" v="stream" />
	</node>
	<node lat="63.7791972256632" lon="12.313033326710205" id="-32423">
		<tag k="name" v="Korstjønnbekken" />
		<tag k="ssr:stedsnr" v="147844" />
		<tag k="waterway" v="stream" />
	</node>
	<node lat="63.72692499848408" lon="11.620597228579266" id="-32431">
		<tag k="name" v="Stormoengbekken" />
		<tag k="ssr:stedsnr" v="150928" />
		<tag k="waterway" v="stream" />
	</node>
	<node lat="63.70659722584582" lon="11.618619440110729" id="-32434">
		<tag k="name" v="Svarttjønna" />
		<tag k="natural" v="water" />
		<tag k="ssr:stedsnr" v="272943" />
	</node>
	<node lat="63.83250000452513" lon="11.656986105716491" id="-32436">
		<tag k="name" v="Holobekken" />
		<tag k="ssr:stedsnr" v="169919" />
		<tag k="waterway" v="stream" />
	</node>
	<node lat="63.816350002521006" lon="11.636619447910805" id="-32437">
		<tag k="name" v="Tømmeråsebekken" />
		<tag k="ssr:stedsnr" v="169924" />
		<tag k="waterway" v="stream" />
	</node>
	<node lat="63.74835277509755" lon="11.643897222562911" id="-32440">
		<tag k="name" v="Håbekken" />
		<tag k="ssr:stedsnr" v="169952" />
		<tag k="waterway" v="stream" />
	</node>
	<node lat="63.850719447759396" lon="11.638447229198714" id="-32447">
		<tag k="name" v="Vannvikbukta" />
		<tag k="natural" v="bay" />
		<tag k="ssr:stedsnr" v="170254" />
	</node>
	<node lat="63.70597778162616" lon="11.702694451242987" id="-32450">
		<tag k="name" v="Smørtjønna" />
		<tag k="natural" v="water" />
		<tag k="ssr:stedsnr" v="170982" />
	</node>
	<node lat="63.69126388782002" lon="12.12973054957599" id="-32452">
		<tag k="name" v="Inatjønna" />
		<tag k="natural" v="water" />
		<tag k="ssr:stedsnr" v="181147" />
	</node>
	<node lat="63.70363611487034" lon="11.999625002704704" id="-32453">
		<tag k="name" v="Svarttjønna" />
		<tag k="natural" v="water" />
		<tag k="ssr:stedsnr" v="181168" />
	</node>
	<node lat="63.72810833561617" lon="12.165405549487662" id="-32459">
		<tag k="name" v="Tverråa" />
		<tag k="ssr:stedsnr" v="195308" />
		<tag k="waterway" v="stream" />
	</node>
	<node lat="63.87001111260259" lon="11.752475001343795" id="-32467">
		<tag k="name" v="Sørelva" />
		<tag k="ssr:stedsnr" v="195819" />
		<tag k="waterway" v="river" />
	</node>
	<node lat="63.798547226756625" lon="11.641805552275052" id="-32475">
		<tag k="name" v="Skeistjønna" />
		<tag k="natural" v="water" />
		<tag k="ssr:stedsnr" v="196276" />
	</node>
	<node lat="63.85400555478903" lon="11.924955546927029" id="-32476">
		<tag k="name" v="Raudtjønna" />
		<tag k="natural" v="water" />
		<tag k="ssr:stedsnr" v="196464" />
	</node>
	<node lat="63.84260833409224" lon="11.921597224148357" id="-32477">
		<tag k="name" v="Høysjøelva" />
		<tag k="ssr:stedsnr" v="196472" />
		<tag k="waterway" v="stream" />
	</node>
	<node lat="63.8214527813785" lon="11.768955550221603" id="-32481">
		<tag k="name" v="Rolltangen" />
		<tag k="natural" v="cape" />
		<tag k="ssr:stedsnr" v="196498" />
	</node>
	<node lat="63.784338889634824" lon="12.16242499936347" id="-32487">
		<tag k="name" v="Svarttjønnbekken" />
		<tag k="ssr:stedsnr" v="196608" />
		<tag k="waterway" v="stream" />
	</node>
	<node lat="63.78001389092049" lon="12.172072215974334" id="-32493">
		<tag k="name" v="Svarttjønna" />
		<tag k="natural" v="water" />
		<tag k="ssr:stedsnr" v="196596" />
	</node>
	<node lat="63.75500277643222" lon="12.268125005764459" id="-32496">
		<tag k="name" v="Litlholmtjønna" />
		<tag k="natural" v="water" />
		<tag k="ssr:stedsnr" v="196785" />
	</node>
	<node lat="63.848036114539454" lon="11.897675006230028" id="-32497">
		<tag k="name" v="Ronnotjønnbekken" />
		<tag k="ssr:stedsnr" v="206796" />
		<tag k="waterway" v="stream" />
	</node>
	<node lat="63.842674995851226" lon="11.893630558546732" id="-32498">
		<tag k="name" v="Marktjønna" />
		<tag k="natural" v="water" />
		<tag k="ssr:stedsnr" v="206798" />
	</node>
	<node lat="63.80762777846827" lon="11.940752782881951" id="-32500">
		<tag k="name" v="Midtgårdsholmen" />
		<tag k="place" v="islet" />
		<tag k="ssr:stedsnr" v="206805" />
	</node>
	<node lat="63.81946667096395" lon="11.917483329531297" id="-32502">
		<tag k="name" v="Leirbekken" />
		<tag k="ssr:stedsnr" v="206818" />
		<tag k="waterway" v="stream" />
	</node>
	<node lat="63.78040555693216" lon="11.484219440187733" id="-32507">
		<tag k="name" v="Grønøra" />
		<tag k="natural" v="cape" />
		<tag k="ssr:stedsnr" v="207467" />
	</node>
	<node lat="63.68322499708935" lon="12.280236116750498" id="-32517">
		<tag k="name" v="Fånettjønnin" />
		<tag k="natural" v="water" />
		<tag k="ssr:stedsnr" v="208851" />
	</node>
	<node lat="63.68804999824087" lon="12.307849997590786" id="-32520">
		<tag k="name" v="Okseauget" />
		<tag k="natural" v="water" />
		<tag k="ssr:stedsnr" v="208866" />
	</node>
	<node lat="63.792338884632315" lon="12.387086116059011" id="-32521">
		<tag k="name" v="Storsteintangen" />
		<tag k="natural" v="cape" />
		<tag k="ssr:stedsnr" v="208873" />
	</node>
	<node lat="63.71998055858465" lon="11.582130559876688" id="-32523">
		<tag k="name" v="Grøntjønna" />
		<tag k="natural" v="water" />
		<tag k="ssr:stedsnr" v="211945" />
	</node>
	<node lat="63.70442777474101" lon="11.937938898567284" id="-32526">
		<tag k="name" v="Midtsognbekken" />
		<tag k="ssr:stedsnr" v="290342" />
		<tag k="waterway" v="stream" />
	</node>
	<node lat="63.84490832891343" lon="11.575427776934518" id="-32534">
		<tag k="alt_name" v="Haukåa" />
		<tag k="name" v="Haukåelva" />
		<tag k="ssr:stedsnr" v="291995" />
		<tag k="waterway" v="stream" />
	</node>
	<node lat="63.85323611237869" lon="11.587224997981092" id="-32535">
		<tag k="name" v="Svartbekken" />
		<tag k="ssr:stedsnr" v="291998" />
		<tag k="waterway" v="stream" />
	</node>
	<node lat="63.7033027759252" lon="11.679072231479505" id="-32539">
		<tag k="name" v="Skarbekken" />
		<tag k="ssr:stedsnr" v="291971" />
		<tag k="waterway" v="stream" />
	</node>
	<node lat="63.68611111523295" lon="11.987933329013615" id="-32546">
		<tag k="name" v="Badstubekken" />
		<tag k="ssr:stedsnr" v="316329" />
		<tag k="waterway" v="stream" />
	</node>
	<node lat="63.71036388943948" lon="12.041405549208742" id="-32547">
		<tag k="name" v="Langtjønna" />
		<tag k="natural" v="water" />
		<tag k="ssr:stedsnr" v="316336" />
	</node>
	<node lat="63.662475001409405" lon="11.728752786373269" id="-32549">
		<tag k="name" v="Fånettjønna" />
		<tag k="natural" v="water" />
		<tag k="ssr:stedsnr" v="316378" />
	</node>
	<node lat="63.657961111232474" lon="12.155438893466412" id="-32559">
		<tag k="name" v="Hylltangen" />
		<tag k="natural" v="cape" />
		<tag k="ssr:stedsnr" v="317287" />
	</node>
	<node lat="63.876897226229744" lon="12.152436116888644" id="-32568">
		<tag k="name" v="Storbekken" />
		<tag k="ssr:stedsnr" v="317467" />
		<tag k="waterway" v="stream" />
	</node>
	<node lat="63.78450833136493" lon="11.827702786034147" id="-32572">
		<tag k="name" v="Skardbekken" />
		<tag k="ssr:stedsnr" v="317596" />
		<tag k="waterway" v="stream" />
	</node>
	<node lat="63.75996666354312" lon="12.080016660456613" id="-32573">
		<tag k="name" v="Heståtjønnin" />
		<tag k="natural" v="water" />
		<tag k="ssr:stedsnr" v="317624" />
	</node>
	<node lat="63.922866669592814" lon="12.56815833485383" id="-32574">
		<tag k="name" v="Bjørkvatnet" />
		<tag k="natural" v="water" />
		<tag k="ssr:stedsnr" v="317636" />
	</node>
	<node lat="63.79136666913743" lon="12.393838885594025" id="-32583">
		<tag k="name" v="Lomtjønna" />
		<tag k="natural" v="water" />
		<tag k="ssr:stedsnr" v="317716" />
	</node>
	<node lat="63.76939166992532" lon="12.364725001010022" id="-32584">
		<tag k="alt_name" v="Årvindbekken" />
		<tag k="name" v="Ørvillbekken" />
		<tag k="ssr:stedsnr" v="317722" />
		<tag k="waterway" v="stream" />
	</node>
	<node lat="63.79160833182874" lon="11.907822225135813" id="-32585">
		<tag k="name" v="Merkesbekken" />
		<tag k="ssr:stedsnr" v="328648" />
		<tag k="waterway" v="stream" />
	</node>
	<node lat="63.82977222561227" lon="11.992024992237463" id="-32588">
		<tag k="name" v="Kvernbekken" />
		<tag k="ssr:stedsnr" v="328831" />
		<tag k="waterway" v="stream" />
	</node>
	<node lat="63.76203333428495" lon="11.509480563898606" id="-32593">
		<tag k="name" v="Reinsbekken" />
		<tag k="ssr:stedsnr" v="329529" />
		<tag k="waterway" v="stream" />
	</node>
	<node lat="63.75615000220392" lon="11.573708333456027" id="-32596">
		<tag k="name" v="Skjørdalsbekken" />
		<tag k="ssr:stedsnr" v="329537" />
		<tag k="waterway" v="stream" />
	</node>
	<node lat="63.7890444481079" lon="11.566627780152233" id="-32600">
		<tag k="name" v="Korsådalsbekken" />
		<tag k="ssr:stedsnr" v="329649" />
		<tag k="waterway" v="stream" />
	</node>
	<node lat="63.74927499969131" lon="11.736491671740911" id="-32603">
		<tag k="name" v="Bruvollholmen" />
		<tag k="place" v="islet" />
		<tag k="ssr:stedsnr" v="329678" />
	</node>
	<node lat="63.71644167115986" lon="12.172058325530363" id="-32610">
		<tag k="name" v="Magnhildtjønna" />
		<tag k="natural" v="water" />
		<tag k="ssr:stedsnr" v="343330" />
	</node>
	<node lat="63.68874167086566" lon="11.907091671834829" id="-32611">
		<tag k="alt_name" v="Østre Kleivmyrtjønna" />
		<tag k="name" v="Øystre Kleivmyrtjønna" />
		<tag k="natural" v="water" />
		<tag k="ssr:stedsnr" v="351376" />
	</node>
	<node lat="63.802966665554706" lon="11.806152771439077" id="-32616">
		<tag k="name" v="Kvernhusbekken" />
		<tag k="ssr:stedsnr" v="352089" />
		<tag k="waterway" v="stream" />
	</node>
	<node lat="63.880833335394954" lon="11.802844436992665" id="-32618">
		<tag k="name" v="Lomtjønna" />
		<tag k="natural" v="water" />
		<tag k="ssr:stedsnr" v="352374" />
	</node>
	<node lat="63.7603277791798" lon="12.162725002422874" id="-32621">
		<tag k="name" v="Bryggneset" />
		<tag k="natural" v="cape" />
		<tag k="ssr:stedsnr" v="352427" />
	</node>
	<node lat="63.861355557906464" lon="11.73184443971203" id="-32622">
		<tag k="name" v="Lauvhaugbekken" />
		<tag k="ssr:stedsnr" v="352581" />
		<tag k="waterway" v="stream" />
	</node>
	<node lat="63.70827778071153" lon="12.23564999055091" id="-32634">
		<tag k="name" v="Hogsettjønna" />
		<tag k="natural" v="water" />
		<tag k="ssr:stedsnr" v="377119" />
	</node>
	<node lat="63.75039567450305" lon="11.675489726084496" id="-32636">
		<tag k="name" v="Kvellovatnet" />
		<tag k="natural" v="water" />
		<tag k="ssr:stedsnr" v="377322" />
	</node>
	<node lat="63.66633611094633" lon="12.083661109419987" id="-32637">
		<tag k="name" v="Stabbfossen" />
		<tag k="natural" v="waterfall" />
		<tag k="ssr:stedsnr" v="377326" />
	</node>
	<node lat="63.790936107876476" lon="11.712838880353152" id="-32638">
		<tag k="name" v="Bjørgtjønna" />
		<tag k="natural" v="water" />
		<tag k="ssr:stedsnr" v="377240" />
	</node>
	<node lat="63.747827781222995" lon="11.992186119263653" id="-32640">
		<tag k="name" v="Kverna" />
		<tag k="ssr:stedsnr" v="377253" />
		<tag k="waterway" v="river" />
	</node>
	<node lat="63.68536111268743" lon="11.96792499689251" id="-32644">
		<tag k="loc_name" v="Grådefossen" />
		<tag k="name" v="Gråtøyfossen" />
		<tag k="natural" v="waterfall" />
		<tag k="ssr:stedsnr" v="377274" />
	</node>
	<node lat="63.70858611207132" lon="11.730905553327538" id="-32645">
		<tag k="name" v="Kvernbekken" />
		<tag k="ssr:stedsnr" v="377279" />
		<tag k="waterway" v="stream" />
	</node>
	<node lat="63.64726667011299" lon="11.9402388915926" id="-32649">
		<tag k="alt_name" v="Risvassbekken" />
		<tag k="name" v="Risåa" />
		<tag k="ssr:stedsnr" v="377313" />
		<tag k="waterway" v="stream" />
	</node>
	<node lat="63.86478611380075" lon="12.018341660613718" id="-32650">
		<tag k="name" v="Jensvukkutjønna" />
		<tag k="natural" v="water" />
		<tag k="ssr:stedsnr" v="377516" />
	</node>
	<node lat="63.63815277435375" lon="12.17403611297547" id="-32651">
		<tag k="name" v="Bjørbekken" />
		<tag k="ssr:stedsnr" v="377345" />
		<tag k="waterway" v="stream" />
	</node>
	<node lat="63.6413305600582" lon="12.105030556481449" id="-32652">
		<tag k="name" v="Holmtjønna" />
		<tag k="natural" v="water" />
		<tag k="ssr:stedsnr" v="377346" />
	</node>
	<node lat="63.85661389212415" lon="11.91769999459579" id="-32654">
		<tag k="name" v="Sagtjønna" />
		<tag k="natural" v="water" />
		<tag k="ssr:stedsnr" v="377497" />
	</node>
	<node lat="63.86062500451737" lon="11.87669999507219" id="-32655">
		<tag k="name" v="Karpusbekken" />
		<tag k="ssr:stedsnr" v="377502" />
		<tag k="waterway" v="stream" />
	</node>
	<node lat="63.85770277886852" lon="11.803238891002776" id="-32657">
		<tag k="name" v="Fånettjønna" />
		<tag k="natural" v="water" />
		<tag k="ssr:stedsnr" v="377515" />
	</node>
	<node lat="63.805727778559536" lon="11.935272216079088" id="-32660">
		<tag k="name" v="Granfossen" />
		<tag k="natural" v="waterfall" />
		<tag k="ssr:stedsnr" v="377624" />
	</node>
	<node lat="63.79878055862926" lon="12.008330545781554" id="-32662">
		<tag k="name" v="Svartbergbekken" />
		<tag k="ssr:stedsnr" v="377627" />
		<tag k="waterway" v="stream" />
	</node>
	<node lat="63.926736114539686" lon="12.17208056000353" id="-32669">
		<tag k="alt_name" v="Stortjønnelva" />
		<tag k="name" v="Storbekken" />
		<tag k="ssr:stedsnr" v="377788" />
		<tag k="waterway" v="stream" />
	</node>
	<node lat="63.88697222229205" lon="12.45869166528481" id="-32670">
		<tag k="name" v="Langtjønna" />
		<tag k="natural" v="water" />
		<tag k="ssr:stedsnr" v="377676" />
	</node>
	<node lat="63.901352778274656" lon="12.224644447453986" id="-32671">
		<tag k="name" v="Tverråa" />
		<tag k="ssr:stedsnr" v="377796" />
		<tag k="waterway" v="stream" />
	</node>
	<node lat="63.86459999931483" lon="11.600202771729618" id="-32672">
		<tag k="name" v="Kulstadvika" />
		<tag k="natural" v="bay" />
		<tag k="ssr:stedsnr" v="378151" />
	</node>
	<node lat="63.752113887090275" lon="12.210541663495661" id="-32675">
		<tag k="name" v="Korstjønna" />
		<tag k="natural" v="water" />
		<tag k="ssr:stedsnr" v="378697" />
	</node>
	<node lat="63.79101666289184" lon="12.408466662013282" id="-32676">
		<tag k="name" v="Storbekken" />
		<tag k="ssr:stedsnr" v="378794" />
		<tag k="waterway" v="stream" />
	</node>
	<node lat="63.82870555640539" lon="11.781258337901916" id="-32679">
		<tag k="name" v="Rolla" />
		<tag k="ssr:stedsnr" v="378573" />
		<tag k="waterway" v="stream" />
	</node>
	<node lat="63.79787777654193" lon="11.905894441709387" id="-32688">
		<tag k="name" v="Svartdalsbekken" />
		<tag k="ssr:stedsnr" v="388629" />
		<tag k="waterway" v="stream" />
	</node>
	<node lat="63.828272225212814" lon="11.912800002379797" id="-32690">
		<tag k="name" v="Langdalsfossen" />
		<tag k="natural" v="waterfall" />
		<tag k="ssr:stedsnr" v="388800" />
	</node>
	<node lat="63.660427779572366" lon="12.126708335911518" id="-32691">
		<tag k="name" v="Brudesløret" />
		<tag k="natural" v="waterfall" />
		<tag k="ssr:stedsnr" v="388825" />
	</node>
	<node lat="63.80975277817568" lon="12.181030561188445" id="-32703">
		<tag k="name" v="Olaengbekken" />
		<tag k="ssr:stedsnr" v="389841" />
		<tag k="waterway" v="stream" />
	</node>
	<node lat="63.817955551336205" lon="11.720549995557716" id="-32710">
		<tag k="name" v="Slangneset" />
		<tag k="natural" v="cape" />
		<tag k="ssr:stedsnr" v="412923" />
	</node>
	<node lat="63.719308334134055" lon="11.873819446403695" id="-32713">
		<tag k="name" v="Brenbergbekken" />
		<tag k="ssr:stedsnr" v="413007" />
		<tag k="waterway" v="stream" />
	</node>
	<node lat="63.706133336112565" lon="11.779819442986465" id="-32714">
		<tag k="name" v="Ostholbekken" />
		<tag k="ssr:stedsnr" v="413010" />
		<tag k="waterway" v="stream" />
	</node>
	<node lat="63.703697221657166" lon="11.807330552938792" id="-32715">
		<tag k="name" v="Lomtjønna" />
		<tag k="natural" v="water" />
		<tag k="ssr:stedsnr" v="413026" />
	</node>
	<node lat="63.8266250006989" lon="11.768033327390302" id="-32718">
		<tag k="name" v="Kvernbekken" />
		<tag k="ssr:stedsnr" v="413131" />
		<tag k="waterway" v="stream" />
	</node>
	<node lat="63.74412778122214" lon="11.764130565168111" id="-32720">
		<tag k="name" v="Stormyrbekken" />
		<tag k="ssr:stedsnr" v="413064" />
		<tag k="waterway" v="stream" />
	</node>
	<node lat="63.821227775592526" lon="12.255022217591035" id="-32729">
		<tag k="name" v="Bekkalunet" />
		<tag k="place" v="locality" />
		<tag k="ssr:stedsnr" v="439749" />
	</node>
	<node lat="63.74400833624446" lon="12.19228333556575" id="-32731">
		<tag k="name" v="Setertjønna" />
		<tag k="natural" v="water" />
		<tag k="ssr:stedsnr" v="437275" />
	</node>
	<node lat="63.688261114247915" lon="12.292383330669324" id="-32733">
		<tag k="name" v="Breivatnet" />
		<tag k="natural" v="water" />
		<tag k="ssr:stedsnr" v="438123" />
	</node>
	<node lat="63.737905557768194" lon="12.344494436787846" id="-32735">
		<tag k="name" v="Ørvilltjønna" />
		<tag k="natural" v="water" />
		<tag k="ssr:stedsnr" v="438146" />
	</node>
	<node lat="63.89862500375992" lon="12.133608332370798" id="-32736">
		<tag k="name" v="Gravdalsbekken" />
		<tag k="ssr:stedsnr" v="438420" />
		<tag k="waterway" v="stream" />
	</node>
	<node lat="63.89511110788407" lon="11.955552782162195" id="-32737">
		<tag k="name" v="Grastjønna" />
		<tag k="natural" v="water" />
		<tag k="ssr:stedsnr" v="438442" />
	</node>
	<node lat="63.66418333207742" lon="12.047761102177516" id="-32751">
		<tag k="alt_name" v="Hjellfossen" />
		<tag k="name" v="Gjelfossan" />
		<tag k="natural" v="waterfall" />
		<tag k="ssr:stedsnr" v="438297" />
	</node>
	<node lat="63.85270833406186" lon="11.730102779168496" id="-32752">
		<tag k="name" v="Kvitsteinbekken" />
		<tag k="ssr:stedsnr" v="438496" />
		<tag k="waterway" v="stream" />
	</node>
	<node lat="63.648558330693845" lon="11.99301388971653" id="-32757">
		<tag k="name" v="Litlkråka" />
		<tag k="ssr:stedsnr" v="438312" />
		<tag k="waterway" v="stream" />
	</node>
	<node lat="63.614824996411045" lon="12.098905561461713" id="-32758">
		<tag k="name" v="Gammelvollbekken" />
		<tag k="ssr:stedsnr" v="438321" />
		<tag k="waterway" v="stream" />
	</node>
	<node lat="63.71661944677438" lon="11.654311119081212" id="-32759">
		<tag k="name" v="Tromsdalselva" />
		<tag k="ssr:stedsnr" v="438589" />
		<tag k="waterway" v="river" />
	</node>
	<node lat="63.829113886194214" lon="12.110130546674101" id="-32766">
		<tag k="name" v="Helgåsbekken" />
		<tag k="ssr:stedsnr" v="439524" />
		<tag k="waterway" v="stream" />
	</node>
	<node lat="63.757136108237944" lon="12.361622218496606" id="-32772">
		<tag k="name" v="Ørvilltjønna" />
		<tag k="natural" v="water" />
		<tag k="ssr:stedsnr" v="439818" />
	</node>
	<node lat="63.791324996099746" lon="12.313730561798247" id="-32775">
		<tag k="name" v="Langtjønna" />
		<tag k="natural" v="water" />
		<tag k="ssr:stedsnr" v="439772" />
	</node>
	<node lat="63.79029166512007" lon="12.426700003822287" id="-32776">
		<tag k="name" v="Gåstjønna" />
		<tag k="natural" v="water" />
		<tag k="ssr:stedsnr" v="439784" />
	</node>
	<node lat="63.639728249299324" lon="12.040980860247226" id="-32777">
		<tag k="alt_name" v="Stongbakktjønnin" />
		<tag k="name" v="Stongtjønnin" />
		<tag k="natural" v="water" />
		<tag k="ssr:stedsnr" v="445463" />
	</node>
	<node lat="63.743686107649715" lon="12.230536118474763" id="-32779">
		<tag k="name" v="Kvitbergslitjønna" />
		<tag k="natural" v="water" />
		<tag k="ssr:stedsnr" v="498175" />
	</node>
	<node lat="63.66432777316031" lon="11.643236120272439" id="-32788">
		<tag k="name" v="Lyngstjønna" />
		<tag k="natural" v="water" />
		<tag k="ssr:stedsnr" v="498593" />
	</node>
	<node lat="63.81466666813024" lon="12.409961104191861" id="-32793">
		<tag k="name" v="Auretjønnbekken" />
		<tag k="ssr:stedsnr" v="499670" />
		<tag k="waterway" v="stream" />
	</node>
	<node lat="63.80448889254999" lon="12.251911111111943" id="-32794">
		<tag k="name" v="Karitjønna" />
		<tag k="natural" v="water" />
		<tag k="ssr:stedsnr" v="499672" />
	</node>
	<node lat="63.8097472224586" lon="12.365397222775714" id="-32796">
		<tag k="name" v="Stamtjønnbekken" />
		<tag k="ssr:stedsnr" v="499680" />
		<tag k="waterway" v="stream" />
	</node>
	<node lat="63.77402222235983" lon="12.402758338524917" id="-32797">
		<tag k="name" v="Smalfisktjønna" />
		<tag k="natural" v="water" />
		<tag k="ssr:stedsnr" v="499747" />
	</node>
	<node lat="63.67110833005873" lon="11.976294453644648" id="-32798">
		<tag k="name" v="Svartbekken" />
		<tag k="ssr:stedsnr" v="510840" />
		<tag k="waterway" v="stream" />
	</node>
	<node lat="63.860683335676775" lon="12.090938896734444" id="-32812">
		<tag k="name" v="Setertjønna" />
		<tag k="natural" v="water" />
		<tag k="ssr:stedsnr" v="499422" />
	</node>
	<node lat="63.85203055837671" lon="12.031349994078665" id="-32813">
		<tag k="name" v="Rotbrekkbekken" />
		<tag k="ssr:stedsnr" v="499423" />
		<tag k="waterway" v="stream" />
	</node>
	<node lat="63.85012222633063" lon="11.925575003430982" id="-32815">
		<tag k="name" v="Fånettvatnet" />
		<tag k="natural" v="water" />
		<tag k="ssr:stedsnr" v="499433" />
	</node>
	<node lat="63.75835555687406" lon="12.074322213704317" id="-32817">
		<tag k="name" v="Holmtjønna" />
		<tag k="natural" v="water" />
		<tag k="ssr:stedsnr" v="499630" />
	</node>
	<node lat="63.78815555790659" lon="12.322947217153208" id="-32820">
		<tag k="name" v="Tronsmotjønna" />
		<tag k="natural" v="water" />
		<tag k="ssr:stedsnr" v="499716" />
	</node>
	<node lat="63.79272777857833" lon="12.432013896430883" id="-32821">
		<tag k="name" v="Kverntjønna" />
		<tag k="natural" v="water" />
		<tag k="ssr:stedsnr" v="499730" />
	</node>
	<node lat="63.86106389051846" lon="11.945886103025138" id="-32825">
		<tag k="name" v="Svarttjønna" />
		<tag k="natural" v="water" />
		<tag k="ssr:stedsnr" v="499456" />
	</node>
	<node lat="63.67436388714574" lon="12.128252773302698" id="-32839">
		<tag k="name" v="Skardfjellbekken" />
		<tag k="ssr:stedsnr" v="510871" />
		<tag k="waterway" v="stream" />
	</node>
	<node lat="63.65365555703595" lon="12.236416672134284" id="-32844">
		<tag k="name" v="Litl-Sandvika" />
		<tag k="natural" v="bay" />
		<tag k="ssr:stedsnr" v="511850" />
	</node>
	<node lat="63.70565555358952" lon="11.88555555406469" id="-32847">
		<tag k="name" v="Garnesholmen" />
		<tag k="place" v="islet" />
		<tag k="ssr:stedsnr" v="533371" />
	</node>
	<node lat="63.72791666797013" lon="11.758263882367167" id="-32854">
		<tag k="name" v="Seterbekken" />
		<tag k="ssr:stedsnr" v="534057" />
		<tag k="waterway" v="stream" />
	</node>
	<node lat="63.76042777761075" lon="12.302897217581323" id="-32858">
		<tag k="name" v="Blankauretjønna" />
		<tag k="natural" v="water" />
		<tag k="ssr:stedsnr" v="534460" />
	</node>
	<node lat="63.87303055105071" lon="11.723597225928735" id="-32859">
		<tag k="name" v="Storbekken" />
		<tag k="ssr:stedsnr" v="534599" />
		<tag k="waterway" v="stream" />
	</node>
	<node lat="63.73657778217666" lon="11.727863885806858" id="-32861">
		<tag k="name" v="Sagbekken" />
		<tag k="ssr:stedsnr" v="534966" />
		<tag k="waterway" v="stream" />
	</node>
	<node lat="63.607408336519676" lon="11.706277785153965" id="-32871">
		<tag k="name" v="Bubekken" />
		<tag k="ssr:stedsnr" v="558434" />
		<tag k="waterway" v="stream" />
	</node>
	<node lat="63.65267777533249" lon="11.849125008135925" id="-32880">
		<tag k="name" v="Tverråsjøan" />
		<tag k="natural" v="water" />
		<tag k="ssr:stedsnr" v="559317" />
		<tag k="water" v="lake" />
	</node>
	<node lat="63.64084999845515" lon="12.087358337239307" id="-32885">
		<tag k="name" v="Stamtjønna" />
		<tag k="natural" v="water" />
		<tag k="ssr:stedsnr" v="559333" />
	</node>
	<node lat="63.63657499600757" lon="11.979286117423198" id="-32886">
		<tag k="name" v="Otertjønna" />
		<tag k="natural" v="water" />
		<tag k="ssr:stedsnr" v="559335" />
	</node>
	<node lat="63.89106666488426" lon="11.998052773121955" id="-32895">
		<tag k="name" v="Holmlibekken" />
		<tag k="ssr:stedsnr" v="559458" />
		<tag k="waterway" v="stream" />
	</node>
	<node lat="63.895613891936044" lon="11.738797231365162" id="-32896">
		<tag k="name" v="Blååsbekken" />
		<tag k="ssr:stedsnr" v="559464" />
		<tag k="waterway" v="stream" />
	</node>
	<node lat="63.81765555872891" lon="12.013313879679835" id="-32902">
		<tag k="name" v="Luna" />
		<tag k="ssr:stedsnr" v="559582" />
		<tag k="waterway" v="stream" />
	</node>
	<node lat="63.97000555156815" lon="12.644797212278757" id="-32907">
		<tag k="name" v="Litlhøgsettjønna" />
		<tag k="natural" v="water" />
		<tag k="ssr:stedsnr" v="559714" />
	</node>
	<node lat="63.842677773271646" lon="12.508302780401092" id="-32908">
		<tag k="name" v="Grunntjønna - Duvkienloebpele" />
		<tag k="name:no" v="Grunntjønna" />
		<tag k="name:sma" v="Duvkienloebpele" />
		<tag k="natural" v="water" />
		<tag k="ssr:stedsnr" v="559732" />
	</node>
	<node lat="63.80463888992847" lon="12.2786527735947" id="-32916">
		<tag k="name" v="Stortjønna" />
		<tag k="natural" v="water" />
		<tag k="ssr:stedsnr" v="560710" />
	</node>
	<node lat="63.82730000192175" lon="12.331755545974627" id="-32918">
		<tag k="name" v="Flåtjønna" />
		<tag k="natural" v="water" />
		<tag k="ssr:stedsnr" v="560730" />
	</node>
	<node lat="63.78170833391254" lon="12.293838888081492" id="-32921">
		<tag k="name" v="Seterbekken" />
		<tag k="ssr:stedsnr" v="560769" />
		<tag k="waterway" v="stream" />
	</node>
	<node lat="63.75610555266669" lon="11.615163889976172" id="-32925">
		<tag k="name" v="Siribekken" />
		<tag k="ssr:stedsnr" v="571535" />
		<tag k="waterway" v="stream" />
	</node>
	<node lat="63.8054472219239" lon="12.311355560428833" id="-32929">
		<tag k="name" v="Kubekken" />
		<tag k="ssr:stedsnr" v="571856" />
		<tag k="waterway" v="stream" />
	</node>
	<node lat="63.66876666744893" lon="12.238074993274436" id="-32934">
		<tag k="name" v="Svartvika" />
		<tag k="natural" v="bay" />
		<tag k="ssr:stedsnr" v="571830" />
	</node>
	<node lat="63.72365833313704" lon="11.604608334466072" id="-32936">
		<tag k="name" v="Klokkarholmen" />
		<tag k="place" v="islet" />
		<tag k="ssr:stedsnr" v="575927" />
	</node>
	<node lat="63.734702775813886" lon="11.548383327139158" id="-32937">
		<tag k="name" v="Dalibekken" />
		<tag k="ssr:stedsnr" v="575938" />
		<tag k="waterway" v="stream" />
	</node>
	<node lat="63.80007777665168" lon="11.799963882407106" id="-32946">
		<tag k="name" v="Kulsdalsbekken" />
		<tag k="ssr:stedsnr" v="594081" />
		<tag k="waterway" v="stream" />
	</node>
	<node lat="63.80475833611272" lon="11.78411944778367" id="-32947">
		<tag k="name" v="Rennbekken" />
		<tag k="ssr:stedsnr" v="594082" />
		<tag k="waterway" v="stream" />
	</node>
	<node lat="63.83800277918318" lon="11.695988884978613" id="-32951">
		<tag k="name" v="Røsbekken" />
		<tag k="ssr:stedsnr" v="594241" />
		<tag k="waterway" v="stream" />
	</node>
	<node lat="63.86613333631218" lon="11.866283338691883" id="-32956">
		<tag k="name" v="Litl-Mevatnet" />
		<tag k="natural" v="water" />
		<tag k="ssr:stedsnr" v="594386" />
		<tag k="water" v="lake" />
	</node>
	<node lat="63.71480277895836" lon="12.148658341427595" id="-32975">
		<tag k="name" v="Tverråtjønna" />
		<tag k="natural" v="water" />
		<tag k="ssr:stedsnr" v="619338" />
	</node>
</osm>
