<?xml version="1.0" encoding="UTF-8"?>
<osm version="0.6" generator="osmapis">
	<node lat="63.79118610900072" lon="11.484183338600952" id="-87282">
		<tag k="name" v="Verdal stasjon" />
		<tag k="railway" v="station" />
		<tag k="ssr:stedsnr" v="451245" />
		<tag k="train" v="yes" />
	</node>
	<node lat="63.840511109638435" lon="11.462250006221264" id="-87404">
		<tag k="highway" v="path" />
		<tag k="name" v="Gamle kongevegen" />
		<tag k="ssr:stedsnr" v="352753" />
	</node>
	<node lat="63.65065277574489" lon="12.02513888848327" id="-87452">
		<tag k="highway" v="path" />
		<tag k="name" v="Sankt Olavs veg" />
		<tag k="ssr:stedsnr" v="413446" />
	</node>
	<node lat="63.8287194479526" lon="11.704800010465684" id="-87799">
		<tag k="highway" v="path" />
		<tag k="name" v="Myssmørbakken" />
		<tag k="ssr:stedsnr" v="898937" />
	</node>
	<node lat="63.73902222632824" lon="11.694136106126226" id="-88049">
		<tag k="highway" v="path" />
		<tag k="name" v="Armfelts veg" />
		<tag k="ssr:stedsnr" v="959956" />
	</node>
	<node lat="63.66037222038754" lon="12.158530561247078" id="-88163">
		<tag k="highway" v="path" />
		<tag k="name" v="Ståggån" />
		<tag k="ssr:stedsnr" v="60164" />
	</node>
	<node lat="63.657962703362" lon="12.152092918961415" id="-89145">
		<tag k="bridge" v="yes" />
		<tag k="layer" v="1" />
		<tag k="name" v="St Olavs bru" />
		<tag k="ssr:stedsnr" v="802362" />
	</node>
	<node lat="63.752311111124975" lon="11.50462500080868" id="-89193">
		<tag k="landuse" v="industrial" />
		<tag k="name" v="Ballhallan trafo" />
		<tag k="power" v="plant" />
		<tag k="ssr:stedsnr" v="814577" />
	</node>
	<node lat="63.757694444397465" lon="11.61189167335109" id="-89316">
		<tag k="name" v="Oterbakken" />
		<tag k="place" v="locality" />
		<tag k="ssr:stedsnr" v="875531" />
	</node>
	<node lat="63.771678641829034" lon="11.472080047479663" id="-89812">
		<tag k="name" v="Bergsgrav stasjon" />
		<tag k="railway" v="station" />
		<tag k="ssr:stedsnr" v="1076230" />
		<tag k="train" v="yes" />
	</node>
</osm>
