<?xml version="1.0" encoding="UTF-8"?>
<osm generator="osmapis" version="0.6">
	<node id="-898297" lat="63.7237472219" lon="11.5719638883">
		<tag k="name" v="Ramsås statsallmenning" />
		<tag k="place" v="locality" />
		<tag k="ssr:stedsnr" v="272928" />
	</node>
	<node id="-898294" lat="63.6995027786" lon="11.6112750015">
		<tag k="name" v="Hoås statsallmenning" />
		<tag k="place" v="locality" />
		<tag k="ssr:stedsnr" v="936361" />
	</node>
	<node id="-897652" lat="63.854205551" lon="11.8891500074">
		<tag k="name" v="Leksdal statsallmenning" />
		<tag k="place" v="locality" />
		<tag k="ssr:stedsnr" v="449779" />
	</node>
	<node id="-897905" lat="63.8187583366" lon="12.4802305478">
		<tag k="historic" v="boundary_stone" />
		<tag k="man_made" v="cairn" />
		<tag k="name" v="Knulrøysa" />
		<tag k="old_name" v="Strådalsklumprøysa;Straadals Klump Røset" />
		<tag k="place" v="locality" />
		<tag k="ssr:stedsnr" v="535206" />
	</node>
	<node id="-899181" lat="63.7540833326" lon="12.3870472207">
		<tag k="historic" v="boundary_stone" />
		<tag k="man_made" v="cairn" />
		<tag k="name" v="Årvindhøgda" />
		<tag k="old_name" v="Årvinghaug" />
		<tag k="place" v="locality" />
		<tag k="ssr:stedsnr" v="49237" />
	</node>
	<node id="-897516" lat="63.9173944423" lon="12.6098750092">
		<tag k="historic" v="boundary_stone" />
		<tag k="man_made" v="cairn" />
		<tag k="name" v="Burvassklumprøysa" />
		<tag k="old_name" v="Bjørkvasklumprøysa;Biærkvands-Fields Røset" />
		<tag k="place" v="locality" />
		<tag k="ssr:stedsnr" v="110186" />
	</node>
	<node id="-898666" lat="63.790666669" lon="11.9463305627">
		<tag k="name" v="Kverndal statsallmenning" />
		<tag k="place" v="locality" />
		<tag k="ssr:stedsnr" v="388623" />
	</node>
	<node id="-898793" lat="63.7912611099" lon="12.4407972136">
		<tag k="historic" v="boundary_stone" />
		<tag k="man_made" v="cairn" />
		<tag k="name" v="Strådalsfossrøysa" />
		<tag k="old_name" v="Straadals Fors Røset" />
		<tag k="place" v="locality" />
		<tag k="ssr:stedsnr" v="352194" />
	</node>
	<node id="-897892" lat="63.7984250022" lon="11.4504333385">
		<tag k="fixme" v="consider boundary=protected_area and relevant protect_class if not nature reserve" />
		<tag k="leisure" v="nature_reserve" />
		<tag k="name" v="Ørin naturreservat" />
		<tag k="ssr:stedsnr" v="753446" />
	</node>
	<node id="-897505" lat="63.9494583298" lon="12.6516250084">
		<tag k="historic" v="boundary_stone" />
		<tag k="man_made" v="cairn" />
		<tag k="name" v="Snjåametjahkerøysa" />
		<tag k="place" v="locality" />
		<tag k="ssr:stedsnr" v="110188" />
	</node>
	<node id="-898908" lat="63.6746833345" lon="12.2386361171">
		<tag k="name" v="Inn statsskog" />
		<tag k="place" v="locality" />
		<tag k="ssr:stedsnr" v="693841" />
	</node>
	<node id="-898649" lat="63.7243638866" lon="11.5886611055">
		<tag k="fixme" v="consider boundary=protected_area and relevant protect_class if not nature reserve" />
		<tag k="leisure" v="nature_reserve" />
		<tag k="name" v="Kaldvassmyra naturreservat" />
		<tag k="ssr:stedsnr" v="635934" />
	</node>
	<node id="-898264" lat="63.7843055595" lon="11.4948916589">
		<tag k="fixme" v="consider boundary=protected_area and relevant protect_class if not nature reserve" />
		<tag k="leisure" v="nature_reserve" />
		<tag k="name" v="Langnes naturreservat" />
		<tag k="ssr:stedsnr" v="753478" />
	</node>
	<node id="-898006" lat="63.9742027778" lon="12.6835888816">
		<tag k="historic" v="boundary_stone" />
		<tag k="loc_name" v="Jalkedsåejjierøysa" />
		<tag k="man_made" v="cairn" />
		<tag k="name" v="Høgsetrøysa" />
		<tag k="old_name" v="Høgsæde Røset" />
		<tag k="place" v="locality" />
		<tag k="ssr:stedsnr" v="413228" />
	</node>
	<node id="-896960" lat="63.9015944428" lon="12.0241583382">
		<tag k="name" v="Malså statsallmenning" />
		<tag k="place" v="locality" />
		<tag k="ssr:stedsnr" v="170560" />
	</node>
	<node id="-897974" lat="63.7313111125" lon="11.6735166728">
		<tag k="name" v="Tromsdal statsalmenning" />
		<tag k="place" v="locality" />
		<tag k="ssr:stedsnr" v="413962" />
	</node>
	<node id="-898609" lat="63.7559861078" lon="11.7752916671">
		<tag k="name" v="Småseteråsen statsallmenning" />
		<tag k="place" v="locality" />
		<tag k="ssr:stedsnr" v="329598" />
	</node>
	<node id="-897962" lat="63.7169527787" lon="11.5808055654">
		<tag k="fixme" v="consider boundary=protected_area and relevant protect_class if not nature reserve" />
		<tag k="leisure" v="nature_reserve" />
		<tag k="name" v="Ramsås naturreservat" />
		<tag k="ssr:stedsnr" v="909130" />
	</node>
	<node id="-899113" lat="63.6720027813" lon="12.2995083428">
		<tag k="historic" v="boundary_stone" />
		<tag k="man_made" v="cairn" />
		<tag k="name" v="Finnvolrøysa" />
		<tag k="old_name" v="Findvola Røset;Finnvolarøysa;Finvolarøysa" />
		<tag k="place" v="locality" />
		<tag k="ssr:stedsnr" v="656158" />
	</node>
	<node id="-898652" lat="63.6308805518" lon="12.2272583268">
		<tag k="historic" v="boundary_stone" />
		<tag k="man_made" v="cairn" />
		<tag k="name" v="Hegglifjellrøysa" />
		<tag k="old_name" v="Mærskars Røset;Morskarsrøysa" />
		<tag k="place" v="locality" />
		<tag k="ssr:stedsnr" v="162164" />
	</node>
	<node id="-899109" lat="63.7150722217" lon="12.3305722251">
		<tag k="historic" v="boundary_stone" />
		<tag k="man_made" v="cairn" />
		<tag k="name" v="Skillevassrøysa" />
		<tag k="old_name" v="Skjorvannsrøysa;Skiærvands Røset" />
		<tag k="place" v="locality" />
		<tag k="ssr:stedsnr" v="960189" />
	</node>
	<node id="-898718" lat="63.7123499998" lon="11.7636000064">
		<tag k="name" v="Inndal statsalmenning" />
		<tag k="place" v="locality" />
		<tag k="ssr:stedsnr" v="959011" />
	</node>
	<node id="-898199" lat="63.8623027756" lon="12.5381083375">
		<tag k="historic" v="boundary_stone" />
		<tag k="man_made" v="cairn" />
		<tag k="name" v="Strådølrøysa" />
		<tag k="old_name" v="Skecken Elvs Røset;Skjækerelvrøysa;Skekken" />
		<tag k="place" v="locality" />
		<tag k="ssr:stedsnr" v="838243" />
	</node>
	<node id="-898960" lat="63.6974527768" lon="11.8835944502">
		<tag k="name" v="Svarthovd statsalmenning" />
		<tag k="place" v="locality" />
		<tag k="ssr:stedsnr" v="230377" />
	</node>
	<node id="-898262" lat="63.7496972211" lon="12.3805972212">
		<tag k="historic" v="boundary_stone" />
		<tag k="man_made" v="cairn" />
		<tag k="name" v="Lapprøysa" />
		<tag k="old_name" v="Lap Røset" />
		<tag k="place" v="locality" />
		<tag k="ssr:stedsnr" v="292177" />
	</node>
</osm>
