<?xml version="1.0" encoding="UTF-8"?>
<osm generator="osmapis" version="0.6">
	<node id="-751613" lat="63.739563891" lon="11.6023194463">
		<tag k="name" v="Vasshaugen" />
		<tag k="natural" v="hill" />
		<tag k="place" v="locality" />
		<tag k="ssr:stedsnr" v="473761" />
	</node>
	<node id="-751609" lat="63.9268055532" lon="12.2712583322">
		<tag k="fixme" v="consider natural=peak for the most distinct mountains in the district" />
		<tag k="name" v="Skjækerstøytan" />
		<tag k="natural" v="hill" />
		<tag k="place" v="locality" />
		<tag k="ssr:stedsnr" v="473646" />
	</node>
	<node id="-751608" lat="63.7254861129" lon="12.2044888893">
		<tag k="name" v="Juldalen" />
		<tag k="natural" v="valley" />
		<tag k="place" v="locality" />
		<tag k="ssr:stedsnr" v="473450" />
	</node>
	<node id="-751607" lat="63.6598833365" lon="12.1130388816">
		<tag k="name" v="Mekalbakken" />
		<tag k="natural" v="slope" />
		<tag k="place" v="locality" />
		<tag k="ssr:stedsnr" v="473437" />
	</node>
	<node id="-751602" lat="63.8378361135" lon="11.7676972216">
		<tag k="fixme" v="consider natural=peak for the most distinct mountains in the district" />
		<tag k="name" v="Brennvola" />
		<tag k="natural" v="hill" />
		<tag k="place" v="locality" />
		<tag k="ssr:stedsnr" v="473120" />
	</node>
	<node id="-751600" lat="63.789274998" lon="11.8755944361">
		<tag k="fixme" v="consider natural=peak for the most distinct mountains in the district" />
		<tag k="name" v="Lassengåsen" />
		<tag k="natural" v="hill" />
		<tag k="place" v="locality" />
		<tag k="ssr:stedsnr" v="473099" />
	</node>
	<node id="-751598" lat="63.7853361122" lon="11.8481944509">
		<tag k="name" v="Rokka" />
		<tag k="natural" v="slope" />
		<tag k="place" v="locality" />
		<tag k="ssr:stedsnr" v="473083" />
	</node>
	<node id="-751592" lat="63.608684477" lon="12.1049512299">
		<tag k="name" v="Kokksteinlia" />
		<tag k="natural" v="slope" />
		<tag k="place" v="locality" />
		<tag k="ssr:stedsnr" v="302167" />
	</node>
	<node id="-751589" lat="63.8226805596" lon="11.7107722219">
		<tag k="name" v="Bjørnhiet" />
		<tag k="place" v="locality" />
		<tag k="ssr:stedsnr" v="291921" />
	</node>
	<node id="-751587" lat="63.887611108" lon="11.6865111032">
		<tag k="name" v="Tusetdalen" />
		<tag k="natural" v="valley" />
		<tag k="place" v="locality" />
		<tag k="ssr:stedsnr" v="272317" />
	</node>
	<node id="-751579" lat="63.6824444407" lon="11.9819611169">
		<tag k="name" v="Likkistmoen" />
		<tag k="place" v="locality" />
		<tag k="ssr:stedsnr" v="267819" />
	</node>
	<node id="-751572" lat="63.7989000023" lon="12.3989722124">
		<tag k="fixme" v="consider natural=peak for the most distinct mountains in the district" />
		<tag k="name" v="Litltømmeråsen" />
		<tag k="natural" v="hill" />
		<tag k="place" v="locality" />
		<tag k="ssr:stedsnr" v="257811" />
	</node>
	<node id="-751570" lat="63.8326944459" lon="12.0973666694">
		<tag k="fixme" v="consider natural=peak for the most distinct mountains in the district" />
		<tag k="name" v="Helgåsfjellet" />
		<tag k="natural" v="hill" />
		<tag k="place" v="locality" />
		<tag k="ssr:stedsnr" v="257610" />
	</node>
	<node id="-751565" lat="63.7651500006" lon="11.6648750004">
		<tag k="name" v="Karidalen" />
		<tag k="natural" v="valley" />
		<tag k="place" v="locality" />
		<tag k="ssr:stedsnr" v="257406" />
	</node>
	<node id="-751563" lat="63.8637722186" lon="12.3566666641">
		<tag k="name" v="Finnkoihaugen" />
		<tag k="natural" v="hill" />
		<tag k="place" v="locality" />
		<tag k="ssr:stedsnr" v="256664" />
	</node>
	<node id="-751562" lat="63.8814750028" lon="12.4185777781">
		<tag k="name" v="Lakadalen - Njaaka" />
		<tag k="name:no" v="Lakadalen" />
		<tag k="name:sma" v="Njaaka" />
		<tag k="natural" v="valley" />
		<tag k="place" v="locality" />
		<tag k="ssr:stedsnr" v="256661" />
	</node>
	<node id="-751559" lat="63.8507305592" lon="12.4937111063">
		<tag k="fixme" v="consider natural=peak for the most distinct mountains in the district" />
		<tag k="name" v="Bjørnliklumpen" />
		<tag k="natural" v="hill" />
		<tag k="place" v="locality" />
		<tag k="ssr:stedsnr" v="256719" />
	</node>
	<node id="-751558" lat="63.8555249994" lon="12.5160972191">
		<tag k="fixme" v="consider natural=peak for the most distinct mountains in the district" />
		<tag k="name" v="Seterknoppen" />
		<tag k="natural" v="hill" />
		<tag k="place" v="locality" />
		<tag k="ssr:stedsnr" v="256718" />
	</node>
	<node id="-751556" lat="63.7967833315" lon="12.0470222203">
		<tag k="name" v="Hestådalen" />
		<tag k="natural" v="valley" />
		<tag k="place" v="locality" />
		<tag k="ssr:stedsnr" v="256570" />
	</node>
	<node id="-751548" lat="63.6359058349" lon="12.0699055212">
		<tag k="name" v="Kråksjøfløytan" />
		<tag k="natural" v="plateau" />
		<tag k="old_name" v="Kråksjøfløtan" />
		<tag k="ssr:stedsnr" v="256315" />
	</node>
	<node id="-751547" lat="63.6213361154" lon="12.1559305622">
		<tag k="alt_name" v="Mærraskardet" />
		<tag k="name" v="Merraskardet" />
		<tag k="natural" v="valley" />
		<tag k="place" v="locality" />
		<tag k="ssr:stedsnr" v="256312" />
	</node>
	<node id="-751541" lat="63.7667555584" lon="11.6694833316">
		<tag k="name" v="Kroksteinen" />
		<tag k="place" v="locality" />
		<tag k="ssr:stedsnr" v="450726" />
	</node>
	<node id="-751540" lat="63.7597583325" lon="11.6493222307">
		<tag k="name" v="Stugguberget" />
		<tag k="natural" v="hill" />
		<tag k="place" v="locality" />
		<tag k="ssr:stedsnr" v="450724" />
	</node>
	<node id="-751534" lat="63.778994447" lon="11.6045722312">
		<tag k="name" v="Rasporten" />
		<tag k="natural" v="valley" />
		<tag k="place" v="locality" />
		<tag k="ssr:stedsnr" v="450689" />
	</node>
	<node id="-751533" lat="63.8056333307" lon="11.8403305521">
		<tag k="name" v="Holmliberget" />
		<tag k="natural" v="hill" />
		<tag k="place" v="locality" />
		<tag k="ssr:stedsnr" v="450685" />
	</node>
	<node id="-751531" lat="63.7822861101" lon="11.7320999994">
		<tag k="name" v="Skrampenget" />
		<tag k="place" v="locality" />
		<tag k="ssr:stedsnr" v="450654" />
	</node>
	<node id="-751530" lat="63.7771694461" lon="11.7413444374">
		<tag k="name" v="Pikloven" />
		<tag k="place" v="locality" />
		<tag k="ssr:stedsnr" v="450653" />
	</node>
	<node id="-751528" lat="63.7604249959" lon="11.5835444347">
		<tag k="name" v="Tjuvhaugen" />
		<tag k="natural" v="hill" />
		<tag k="place" v="locality" />
		<tag k="ssr:stedsnr" v="450718" />
	</node>
	<node id="-751515" lat="63.6142361079" lon="12.0945861033">
		<tag k="name" v="Kokksteinen" />
		<tag k="place" v="locality" />
		<tag k="ssr:stedsnr" v="242123" />
	</node>
	<node id="-751514" lat="63.8963333298" lon="12.2841388874">
		<tag k="name" v="Guevtelenjeeruve" />
		<tag k="name:sma" v="Guevtelenjeeruve" />
		<tag k="natural" v="mountain_range" />
		<tag k="ssr:stedsnr" v="445835" />
	</node>
	<node id="-751512" lat="63.7174249993" lon="11.803852774">
		<tag k="name" v="Kirkaberga" />
		<tag k="natural" v="hill" />
		<tag k="place" v="locality" />
		<tag k="ssr:stedsnr" v="230009" />
	</node>
	<node id="-751511" lat="63.7065222259" lon="11.8294194507">
		<tag k="fixme" v="consider natural=peak for the most distinct mountains in the district" />
		<tag k="name" v="Øvre Trappbekktjønna" />
		<tag k="natural" v="hill" />
		<tag k="place" v="locality" />
		<tag k="ssr:stedsnr" v="230003" />
	</node>
	<node id="-751256" lat="63.6392527816" lon="11.9830194415">
		<tag k="name" v="Brenntjønnhaugen" />
		<tag k="natural" v="hill" />
		<tag k="place" v="locality" />
		<tag k="ssr:stedsnr" v="230393" />
	</node>
	<node id="-751502" lat="63.8436722231" lon="12.4528194353">
		<tag k="fixme" v="consider natural=peak for the most distinct mountains in the district" />
		<tag k="name" v="Hardmyråsen - Pliehtjebåvne" />
		<tag k="name:no" v="Hardmyråsen" />
		<tag k="name:sma" v="Pliehtjebåvne" />
		<tag k="natural" v="hill" />
		<tag k="place" v="locality" />
		<tag k="ssr:stedsnr" v="439759" />
	</node>
	<node id="-751497" lat="63.7747194422" lon="11.8495222285">
		<tag k="fixme" v="consider natural=peak for the most distinct mountains in the district" />
		<tag k="name" v="Guddingsskallen" />
		<tag k="natural" v="hill" />
		<tag k="place" v="locality" />
		<tag k="ssr:stedsnr" v="439635" />
	</node>
	<node id="-751495" lat="63.7633999965" lon="11.9451972286">
		<tag k="fixme" v="consider natural=peak for the most distinct mountains in the district" />
		<tag k="name" v="Heggjavola" />
		<tag k="natural" v="hill" />
		<tag k="place" v="locality" />
		<tag k="ssr:stedsnr" v="439619" />
	</node>
	<node id="-751494" lat="63.7559499964" lon="11.7364916563">
		<tag k="name" v="Steinsvåttån" />
		<tag k="natural" v="hill" />
		<tag k="place" v="locality" />
		<tag k="ssr:stedsnr" v="439616" />
	</node>
	<node id="-751487" lat="63.8453388906" lon="11.979449994">
		<tag k="fixme" v="consider natural=peak for the most distinct mountains in the district" />
		<tag k="name" v="Lifjellet" />
		<tag k="natural" v="hill" />
		<tag k="place" v="locality" />
		<tag k="ssr:stedsnr" v="439487" />
	</node>
	<node id="-751483" lat="63.8324722265" lon="11.4596805589">
		<tag k="fixme" v="consider natural=peak for the most distinct mountains in the district" />
		<tag k="name" v="Leklemsåsen" />
		<tag k="natural" v="hill" />
		<tag k="place" v="locality" />
		<tag k="ssr:stedsnr" v="207506" />
	</node>
	<node id="-753530" lat="63.8455361116" lon="11.4655944369">
		<tag k="fixme" v="consider natural=peak for the most distinct mountains in the district" />
		<tag k="name" v="Ratåsen" />
		<tag k="natural" v="hill" />
		<tag k="place" v="locality" />
		<tag k="ssr:stedsnr" v="959760" />
	</node>
	<node id="-751480" lat="63.8254583363" lon="12.470663898">
		<tag k="name" v="Pepålsdalen" />
		<tag k="natural" v="valley" />
		<tag k="place" v="locality" />
		<tag k="ssr:stedsnr" v="196714" />
	</node>
	<node id="-751479" lat="63.8232861103" lon="12.3762055642">
		<tag k="name" v="Vargtjønndalen" />
		<tag k="natural" v="valley" />
		<tag k="place" v="locality" />
		<tag k="ssr:stedsnr" v="196712" />
	</node>
	<node id="-753524" lat="63.8090027815" lon="12.0669888919">
		<tag k="name" v="Helmoseterdalen" />
		<tag k="natural" v="valley" />
		<tag k="place" v="locality" />
		<tag k="ssr:stedsnr" v="959393" />
	</node>
	<node id="-753523" lat="63.7571027739" lon="12.1681138799">
		<tag k="name" v="Kjelhaugen" />
		<tag k="natural" v="hill" />
		<tag k="place" v="locality" />
		<tag k="ssr:stedsnr" v="959383" />
	</node>
	<node id="-753522" lat="63.7923972254" lon="12.062900003">
		<tag k="name" v="Merkesdalen" />
		<tag k="natural" v="valley" />
		<tag k="place" v="locality" />
		<tag k="ssr:stedsnr" v="959378" />
	</node>
	<node id="-753521" lat="63.6840777776" lon="12.0145333244">
		<tag k="fixme" v="consider natural=peak for the most distinct mountains in the district" />
		<tag k="name" v="Vargåsan" />
		<tag k="natural" v="hill" />
		<tag k="place" v="locality" />
		<tag k="ssr:stedsnr" v="959366" />
	</node>
	<node id="-751470" lat="63.8076111122" lon="12.07528333">
		<tag k="name" v="Glenna" />
		<tag k="natural" v="hill" />
		<tag k="place" v="locality" />
		<tag k="ssr:stedsnr" v="196536" />
	</node>
	<node id="-753517" lat="63.7578138897" lon="11.8308861191">
		<tag k="name" v="Bjønmoen" />
		<tag k="place" v="locality" />
		<tag k="ssr:stedsnr" v="959055" />
	</node>
	<node id="-751468" lat="63.8445333349" lon="12.1156805572">
		<tag k="fixme" v="consider natural=peak for the most distinct mountains in the district" />
		<tag k="name" v="Bynavola" />
		<tag k="natural" v="hill" />
		<tag k="place" v="locality" />
		<tag k="ssr:stedsnr" v="196517" />
	</node>
	<node id="-753513" lat="63.7114777781" lon="11.8769250018">
		<tag k="name" v="Blokkhuset" />
		<tag k="natural" v="hill" />
		<tag k="place" v="locality" />
		<tag k="ssr:stedsnr" v="959006" />
	</node>
	<node id="-753512" lat="63.723083333" lon="11.8545333421">
		<tag k="fixme" v="consider natural=peak for the most distinct mountains in the district" />
		<tag k="name" v="Seteråsen" />
		<tag k="natural" v="hill" />
		<tag k="place" v="locality" />
		<tag k="ssr:stedsnr" v="959001" />
	</node>
	<node id="-753510" lat="63.8227583311" lon="11.7442638976">
		<tag k="name" v="Ståggåberget" />
		<tag k="natural" v="hill" />
		<tag k="place" v="locality" />
		<tag k="ssr:stedsnr" v="958939" />
	</node>
	<node id="-753503" lat="63.7540055538" lon="11.5254444368">
		<tag k="name" v="Helloeggen" />
		<tag k="natural" v="ridge" />
		<tag k="place" v="locality" />
		<tag k="ssr:stedsnr" v="875522" />
	</node>
	<node id="-753500" lat="63.81225278" lon="11.5909694394">
		<tag k="name" v="Klinga" />
		<tag k="place" v="locality" />
		<tag k="ssr:stedsnr" v="875676" />
	</node>
	<node id="-753498" lat="63.6821444436" lon="12.0868055532">
		<tag k="alt_name" v="Østerlia" />
		<tag k="name" v="Øysterlia" />
		<tag k="natural" v="slope" />
		<tag k="place" v="locality" />
		<tag k="ssr:stedsnr" v="874832" />
	</node>
	<node id="-753496" lat="63.7865638915" lon="11.8039972318">
		<tag k="name" v="Stormoen" />
		<tag k="place" v="locality" />
		<tag k="ssr:stedsnr" v="874688" />
	</node>
	<node id="-751445" lat="63.739647221" lon="11.7108111151">
		<tag k="name" v="Gravdalsberget" />
		<tag k="natural" v="hill" />
		<tag k="place" v="locality" />
		<tag k="ssr:stedsnr" v="291962" />
	</node>
	<node id="-753492" lat="63.7540138929" lon="12.3745805522">
		<tag k="name" v="Slettørvillhaugen" />
		<tag k="natural" v="hill" />
		<tag k="place" v="locality" />
		<tag k="ssr:stedsnr" v="864819" />
	</node>
	<node id="-751442" lat="63.7287055562" lon="11.5667805571">
		<tag k="name" v="Hanekammen" />
		<tag k="natural" v="hill" />
		<tag k="place" v="locality" />
		<tag k="ssr:stedsnr" v="291758" />
	</node>
	<node id="-751441" lat="63.8893055583" lon="11.6985249991">
		<tag k="name" v="Aksnesdalen" />
		<tag k="natural" v="valley" />
		<tag k="place" v="locality" />
		<tag k="ssr:stedsnr" v="291587" />
	</node>
	<node id="-753488" lat="63.8100777821" lon="12.4329888878">
		<tag k="fixme" v="consider natural=peak for the most distinct mountains in the district" />
		<tag k="name" v="Tjønnåsen" />
		<tag k="natural" v="hill" />
		<tag k="place" v="locality" />
		<tag k="ssr:stedsnr" v="864786" />
	</node>
	<node id="-751439" lat="63.6933638884" lon="11.9945666657">
		<tag k="name" v="Badstuhaugen" />
		<tag k="natural" v="hill" />
		<tag k="place" v="locality" />
		<tag k="ssr:stedsnr" v="291427" />
	</node>
	<node id="-751438" lat="63.8752222241" lon="11.8652361068">
		<tag k="name" v="Fagerlian" />
		<tag k="natural" v="slope" />
		<tag k="place" v="locality" />
		<tag k="ssr:stedsnr" v="291412" />
	</node>
	<node id="-751435" lat="63.6936500022" lon="11.8149472207">
		<tag k="name" v="Haverlia" />
		<tag k="natural" v="slope" />
		<tag k="place" v="locality" />
		<tag k="ssr:stedsnr" v="291028" />
	</node>
	<node id="-751433" lat="63.7183805601" lon="11.8636638801">
		<tag k="name" v="Brennberga" />
		<tag k="natural" v="hill" />
		<tag k="place" v="locality" />
		<tag k="ssr:stedsnr" v="291002" />
	</node>
	<node id="-753477" lat="63.910897221" lon="12.1722472267">
		<tag k="name" v="Storbekkdalen" />
		<tag k="natural" v="valley" />
		<tag k="place" v="locality" />
		<tag k="ssr:stedsnr" v="864485" />
	</node>
	<node id="-751428" lat="63.7000833355" lon="11.9001972138">
		<tag k="name" v="Festningsberga" />
		<tag k="natural" v="hill" />
		<tag k="place" v="locality" />
		<tag k="ssr:stedsnr" v="170406" />
	</node>
	<node id="-751425" lat="63.7061416659" lon="11.7978416623">
		<tag k="fixme" v="consider natural=peak for the most distinct mountains in the district" />
		<tag k="name" v="Svarthovdknoppen" />
		<tag k="natural" v="hill" />
		<tag k="place" v="locality" />
		<tag k="ssr:stedsnr" v="170013" />
	</node>
	<node id="-751423" lat="63.802055558" lon="11.6389666697">
		<tag k="name" v="Skaret" />
		<tag k="natural" v="valley" />
		<tag k="place" v="locality" />
		<tag k="ssr:stedsnr" v="169930" />
	</node>
	<node id="-753467" lat="63.829952776" lon="11.5304722233">
		<tag k="alt_name" v="Skardet" />
		<tag k="name" v="Skardsdalen" />
		<tag k="natural" v="valley" />
		<tag k="place" v="locality" />
		<tag k="ssr:stedsnr" v="864232" />
	</node>
	<node id="-751417" lat="63.756569443" lon="11.7515444381">
		<tag k="fixme" v="consider natural=peak for the most distinct mountains in the district" />
		<tag k="name" v="Strandåsan" />
		<tag k="natural" v="hill" />
		<tag k="place" v="locality" />
		<tag k="ssr:stedsnr" v="147715" />
	</node>
	<node id="-753487" lat="63.821091669" lon="12.2678166599">
		<tag k="name" v="Brannhaugen" />
		<tag k="natural" v="hill" />
		<tag k="place" v="locality" />
		<tag k="ssr:stedsnr" v="864768" />
	</node>
	<node id="-753461" lat="63.8697833349" lon="11.6836222198">
		<tag k="alt_name" v="Tillerknoppen" />
		<tag k="name" v="Tjelderknoppen" />
		<tag k="natural" v="hill" />
		<tag k="place" v="locality" />
		<tag k="ssr:stedsnr" v="864154" />
	</node>
	<node id="-751410" lat="63.8336555564" lon="11.5132305501">
		<tag k="name" v="Stjernehaugen" />
		<tag k="natural" v="hill" />
		<tag k="place" v="locality" />
		<tag k="ssr:stedsnr" v="146717" />
	</node>
	<node id="-753457" lat="63.9326388871" lon="12.5679138888">
		<tag k="fixme" v="consider natural=peak for the most distinct mountains in the district" />
		<tag k="name" v="Bjørkvassvola" />
		<tag k="natural" v="hill" />
		<tag k="place" v="locality" />
		<tag k="ssr:stedsnr" v="863695" />
	</node>
	<node id="-753456" lat="63.8740166635" lon="12.476333337">
		<tag k="fixme" v="consider natural=peak for the most distinct mountains in the district" />
		<tag k="name" v="Nordre Seterfjellet" />
		<tag k="natural" v="hill" />
		<tag k="place" v="locality" />
		<tag k="ssr:stedsnr" v="863693" />
	</node>
	<node id="-751404" lat="63.8497861156" lon="12.0097527683">
		<tag k="name" v="Åkerbrannen" />
		<tag k="natural" v="slope" />
		<tag k="place" v="locality" />
		<tag k="ssr:stedsnr" v="145818" />
	</node>
	<node id="-753450" lat="63.7162972237" lon="11.571113885">
		<tag k="name" v="Kvitberget" />
		<tag k="natural" v="hill" />
		<tag k="place" v="locality" />
		<tag k="ssr:stedsnr" v="863587" />
	</node>
	<node id="-753449" lat="63.6894750008" lon="11.598027786">
		<tag k="fixme" v="consider natural=peak for the most distinct mountains in the district" />
		<tag k="name" v="Skjettholvola" />
		<tag k="natural" v="hill" />
		<tag k="place" v="locality" />
		<tag k="ssr:stedsnr" v="863564" />
	</node>
	<node id="-753447" lat="63.8386250025" lon="11.7615722165">
		<tag k="name" v="Skeisvola" />
		<tag k="natural" v="hill" />
		<tag k="place" v="locality" />
		<tag k="ssr:stedsnr" v="863561" />
	</node>
	<node id="-753445" lat="63.8699499993" lon="12.0297111125">
		<tag k="fixme" v="consider natural=peak for the most distinct mountains in the district" />
		<tag k="name" v="Tjuvdalshalla" />
		<tag k="natural" v="hill" />
		<tag k="place" v="locality" />
		<tag k="ssr:stedsnr" v="863535" />
	</node>
	<node id="-751395" lat="63.6596972184" lon="12.22005277">
		<tag k="name" v="Godberget" />
		<tag k="natural" v="hill" />
		<tag k="place" v="locality" />
		<tag k="ssr:stedsnr" v="268839" />
	</node>
	<node id="-753441" lat="63.884280556" lon="11.9215055623">
		<tag k="name" v="Hellhaugen" />
		<tag k="natural" v="hill" />
		<tag k="place" v="locality" />
		<tag k="ssr:stedsnr" v="863466" />
	</node>
	<node id="-753440" lat="63.8776416644" lon="11.7564000039">
		<tag k="name" v="Småvasshaugknoppen" />
		<tag k="natural" v="hill" />
		<tag k="place" v="locality" />
		<tag k="ssr:stedsnr" v="863462" />
	</node>
	<node id="-753439" lat="63.6413805598" lon="11.8885999919">
		<tag k="fixme" v="consider natural=peak for the most distinct mountains in the district" />
		<tag k="name" v="Tverrvola" />
		<tag k="natural" v="hill" />
		<tag k="place" v="locality" />
		<tag k="ssr:stedsnr" v="863337" />
	</node>
	<node id="-751390" lat="63.7569750047" lon="11.8087222132">
		<tag k="name" v="Styggbergdalen" />
		<tag k="natural" v="valley" />
		<tag k="place" v="locality" />
		<tag k="ssr:stedsnr" v="268623" />
	</node>
	<node id="-753436" lat="63.6448833331" lon="12.0107305541">
		<tag k="name" v="Middagshaugen" />
		<tag k="natural" v="hill" />
		<tag k="place" v="locality" />
		<tag k="ssr:stedsnr" v="863315" />
	</node>
	<node id="-751387" lat="63.7578111082" lon="11.5974666569">
		<tag k="name" v="Smeddiberget" />
		<tag k="natural" v="hill" />
		<tag k="place" v="locality" />
		<tag k="ssr:stedsnr" v="268694" />
	</node>
	<node id="-751386" lat="63.7552583349" lon="11.5937416763">
		<tag k="fixme" v="consider natural=peak for the most distinct mountains in the district" />
		<tag k="name" v="Nystamnhøgda" />
		<tag k="natural" v="hill" />
		<tag k="place" v="locality" />
		<tag k="ssr:stedsnr" v="268690" />
	</node>
	<node id="-751385" lat="63.7548916696" lon="11.6027666717">
		<tag k="fixme" v="consider natural=peak for the most distinct mountains in the district" />
		<tag k="loc_name" v="Sagåsen" />
		<tag k="name" v="Sagåsan" />
		<tag k="natural" v="hill" />
		<tag k="place" v="locality" />
		<tag k="ssr:stedsnr" v="268689" />
	</node>
	<node id="-753431" lat="63.7030694448" lon="12.0257249953">
		<tag k="fixme" v="consider natural=peak for the most distinct mountains in the district" />
		<tag k="name" v="Brattåsen" />
		<tag k="natural" v="hill" />
		<tag k="place" v="locality" />
		<tag k="ssr:stedsnr" v="863287" />
	</node>
	<node id="-753429" lat="63.678874996" lon="12.1699555623">
		<tag k="fixme" v="consider natural=peak for the most distinct mountains in the district" />
		<tag k="name" v="Skardfjellet" />
		<tag k="natural" v="hill" />
		<tag k="place" v="locality" />
		<tag k="ssr:stedsnr" v="863275" />
	</node>
	<node id="-753426" lat="63.7880833295" lon="11.6838722133">
		<tag k="fixme" v="multiple name tags, choose one and add the other to alt_name; consider natural=peak for the most distinct mountains in the district" />
		<tag k="name" v="Bjørgåsen;Klokkhusberget" />
		<tag k="natural" v="hill" />
		<tag k="place" v="locality" />
		<tag k="ssr:stedsnr" v="863243" />
	</node>
	<node id="-751377" lat="63.8165999995" lon="12.4360611128">
		<tag k="fixme" v="consider natural=peak for the most distinct mountains in the district" />
		<tag k="name" v="Auretjønnlia" />
		<tag k="natural" v="hill" />
		<tag k="place" v="locality" />
		<tag k="ssr:stedsnr" v="135707" />
	</node>
	<node id="-751375" lat="63.7669416641" lon="12.0310972315">
		<tag k="fixme" v="consider natural=peak for the most distinct mountains in the district" />
		<tag k="name" v="Blåstøytan" />
		<tag k="natural" v="hill" />
		<tag k="place" v="locality" />
		<tag k="ssr:stedsnr" v="135613" />
	</node>
	<node id="-753422" lat="63.8530249991" lon="11.6697333324">
		<tag k="name" v="Korsmyrdalen" />
		<tag k="natural" v="valley" />
		<tag k="place" v="locality" />
		<tag k="ssr:stedsnr" v="863131" />
	</node>
	<node id="-751370" lat="63.8347722188" lon="11.7773416697">
		<tag k="name" v="Rundhaugen" />
		<tag k="natural" v="hill" />
		<tag k="place" v="locality" />
		<tag k="ssr:stedsnr" v="135526" />
	</node>
	<node id="-753417" lat="63.7174583315" lon="11.6660555541">
		<tag k="name" v="Hoåsdalen" />
		<tag k="natural" v="valley" />
		<tag k="place" v="locality" />
		<tag k="ssr:stedsnr" v="838978" />
	</node>
	<node id="-751367" lat="63.6661777813" lon="12.157713882">
		<tag k="name" v="Skardfjelldalen" />
		<tag k="natural" v="valley" />
		<tag k="place" v="locality" />
		<tag k="ssr:stedsnr" v="267841" />
	</node>
	<node id="-753414" lat="63.8678833329" lon="11.7552083378">
		<tag k="fixme" v="consider natural=peak for the most distinct mountains in the district" />
		<tag k="name" v="Hofstadåsen" />
		<tag k="natural" v="hill" />
		<tag k="place" v="locality" />
		<tag k="ssr:stedsnr" v="838619" />
	</node>
	<node id="-751365" lat="63.8285722251" lon="12.0071916723">
		<tag k="name" v="Klokkarmoen" />
		<tag k="place" v="locality" />
		<tag k="ssr:stedsnr" v="267831" />
	</node>
	<node id="-753412" lat="63.7031249992" lon="12.2545388875">
		<tag k="name" v="Ungersvola" />
		<tag k="natural" v="hill" />
		<tag k="place" v="locality" />
		<tag k="ssr:stedsnr" v="838488" />
	</node>
	<node id="-753411" lat="63.7418694487" lon="12.2122444463">
		<tag k="name" v="Juldalsseterhaugen" />
		<tag k="natural" v="hill" />
		<tag k="place" v="locality" />
		<tag k="ssr:stedsnr" v="838486" />
	</node>
	<node id="-753410" lat="63.6867444468" lon="12.04643888">
		<tag k="name" v="Vargdalen" />
		<tag k="natural" v="valley" />
		<tag k="place" v="locality" />
		<tag k="ssr:stedsnr" v="838441" />
	</node>
	<node id="-753407" lat="63.8680472186" lon="11.7596666764">
		<tag k="fixme" v="consider natural=peak for the most distinct mountains in the district" />
		<tag k="name" v="Hofstadåsen" />
		<tag k="natural" v="hill" />
		<tag k="place" v="locality" />
		<tag k="ssr:stedsnr" v="838135" />
	</node>
	<node id="-753406" lat="63.8526611137" lon="11.8552194409">
		<tag k="fixme" v="consider natural=peak for the most distinct mountains in the district" />
		<tag k="name" v="Tuvåsen" />
		<tag k="natural" v="hill" />
		<tag k="place" v="locality" />
		<tag k="ssr:stedsnr" v="838127" />
	</node>
	<node id="-753405" lat="63.8014416634" lon="11.7419083337">
		<tag k="name" v="Setermyrhaugen" />
		<tag k="natural" v="hill" />
		<tag k="place" v="locality" />
		<tag k="ssr:stedsnr" v="837950" />
	</node>
	<node id="-751356" lat="63.88504167" lon="11.6533777798">
		<tag k="alt_name" v="Tusettuva" />
		<tag k="fixme" v="consider natural=peak for the most distinct mountains in the district" />
		<tag k="name" v="Tusettua" />
		<tag k="natural" v="hill" />
		<tag k="place" v="locality" />
		<tag k="ssr:stedsnr" v="135044" />
	</node>
	<node id="-751354" lat="63.9285555534" lon="12.4769166579">
		<tag k="name" v="Bierneloebpelh" />
		<tag k="name:sma" v="Bierneloebpelh" />
		<tag k="natural" v="mountain_range" />
		<tag k="ssr:stedsnr" v="263829" />
	</node>
	<node id="-751352" lat="63.7925833305" lon="11.744361107">
		<tag k="name" v="Styggdalshalla" />
		<tag k="natural" v="slope" />
		<tag k="place" v="locality" />
		<tag k="ssr:stedsnr" v="109945" />
	</node>
	<node id="-751351" lat="63.8038972194" lon="11.7468333248">
		<tag k="name" v="Skavdalsberga" />
		<tag k="natural" v="hill" />
		<tag k="place" v="locality" />
		<tag k="ssr:stedsnr" v="109938" />
	</node>
	<node id="-751349" lat="63.823241668" lon="11.7137888979">
		<tag k="name" v="Høgbrannen" />
		<tag k="natural" v="hill" />
		<tag k="place" v="locality" />
		<tag k="ssr:stedsnr" v="109912" />
	</node>
	<node id="-753395" lat="63.775902777" lon="11.6662972149">
		<tag k="name" v="Volgavlen" />
		<tag k="natural" v="ridge" />
		<tag k="place" v="locality" />
		<tag k="ssr:stedsnr" v="815633" />
	</node>
	<node id="-751343" lat="63.7549972242" lon="12.3415861043">
		<tag k="name" v="Ørvillbakkan" />
		<tag k="natural" v="hill" />
		<tag k="place" v="locality" />
		<tag k="ssr:stedsnr" v="257847" />
	</node>
	<node id="-751342" lat="63.7647277739" lon="12.2919388856">
		<tag k="name" v="Vanghamna" />
		<tag k="natural" v="slope" />
		<tag k="place" v="locality" />
		<tag k="ssr:stedsnr" v="257838" />
	</node>
	<node id="-751229" lat="63.8527277765" lon="12.4348333278">
		<tag k="fixme" v="consider natural=peak for the most distinct mountains in the district" />
		<tag k="name" v="Hitre Seterfjellet" />
		<tag k="natural" v="hill" />
		<tag k="place" v="locality" />
		<tag k="ssr:stedsnr" v="14702" />
	</node>
	<node id="-753388" lat="63.7647222238" lon="11.6823472239">
		<tag k="name" v="Glåma" />
		<tag k="place" v="locality" />
		<tag k="ssr:stedsnr" v="814725" />
	</node>
	<node id="-751339" lat="63.7741111094" lon="12.1454416586">
		<tag k="name" v="Juldalen" />
		<tag k="natural" v="valley" />
		<tag k="place" v="locality" />
		<tag k="ssr:stedsnr" v="257685" />
	</node>
	<node id="-753296" lat="63.699866671" lon="11.9297333337">
		<tag k="name" v="Midtsogndalen" />
		<tag k="natural" v="valley" />
		<tag k="place" v="locality" />
		<tag k="ssr:stedsnr" v="776365" />
	</node>
	<node id="-753379" lat="63.8010083337" lon="11.4748722234">
		<tag k="name" v="Tvistvoll" />
		<tag k="place" v="locality" />
		<tag k="ssr:stedsnr" v="814527" />
	</node>
	<node id="-751327" lat="63.8115888887" lon="12.0164861086">
		<tag k="name" v="Skardshaugen" />
		<tag k="natural" v="hill" />
		<tag k="place" v="locality" />
		<tag k="ssr:stedsnr" v="256536" />
	</node>
	<node id="-753374" lat="63.8426722262" lon="12.5082722297">
		<tag k="name" v="Duvkie" />
		<tag k="name:sma" v="Duvkie" />
		<tag k="natural" v="mountain_range" />
		<tag k="ssr:stedsnr" v="810920" />
	</node>
	<node id="-753373" lat="63.846166664" lon="12.2288416646">
		<tag k="name" v="Høgvelta" />
		<tag k="natural" v="hill" />
		<tag k="place" v="locality" />
		<tag k="ssr:stedsnr" v="803750" />
	</node>
	<node id="-751324" lat="63.8443583363" lon="11.7602611134">
		<tag k="name" v="Markavola" />
		<tag k="natural" v="hill" />
		<tag k="place" v="locality" />
		<tag k="ssr:stedsnr" v="256515" />
	</node>
	<node id="-751323" lat="63.9527194437" lon="12.3465027703">
		<tag k="name" v="Vakkerdalen" />
		<tag k="natural" v="valley" />
		<tag k="place" v="locality" />
		<tag k="ssr:stedsnr" v="256677" />
	</node>
	<node id="-753370" lat="63.815013888" lon="12.2260861192">
		<tag k="alt_name" v="Otmohøgda" />
		<tag k="name" v="Ottmohøgda" />
		<tag k="natural" v="hill" />
		<tag k="place" v="locality" />
		<tag k="ssr:stedsnr" v="803735" />
	</node>
	<node id="-753369" lat="63.917272214" lon="12.607653571">
		<tag k="fixme" v="consider natural=peak for the most distinct mountains in the district" />
		<tag k="name" v="Burvassklumpen - Noelengaejsie" />
		<tag k="name:no" v="Burvassklumpen" />
		<tag k="name:sma" v="Noelengaejsie" />
		<tag k="natural" v="hill" />
		<tag k="place" v="locality" />
		<tag k="ssr:stedsnr" v="803699" />
	</node>
	<node id="-751318" lat="63.8701777773" lon="11.9543555634">
		<tag k="name" v="Botnhøgda" />
		<tag k="natural" v="hill" />
		<tag k="place" v="locality" />
		<tag k="ssr:stedsnr" v="256491" />
	</node>
	<node id="-753364" lat="63.7754249996" lon="12.2889444416">
		<tag k="name" v="Kvernhaugen" />
		<tag k="natural" v="hill" />
		<tag k="place" v="locality" />
		<tag k="ssr:stedsnr" v="803775" />
	</node>
	<node id="-751314" lat="63.6079111068" lon="12.1575444433">
		<tag k="fixme" v="consider natural=peak for the most distinct mountains in the district" />
		<tag k="name" v="Merraskardfjellet" />
		<tag k="natural" v="hill" />
		<tag k="place" v="locality" />
		<tag k="ssr:stedsnr" v="256329" />
	</node>
	<node id="-753361" lat="63.851577781" lon="11.7499583283">
		<tag k="name" v="Marsteinsdalen" />
		<tag k="natural" v="valley" />
		<tag k="place" v="locality" />
		<tag k="ssr:stedsnr" v="803515" />
	</node>
	<node id="-751299" lat="63.7415111131" lon="11.5827194539">
		<tag k="name" v="Blåberget" />
		<tag k="natural" v="hill" />
		<tag k="place" v="locality" />
		<tag k="ssr:stedsnr" v="255680" />
	</node>
	<node id="-751297" lat="63.8285750028" lon="11.5348416739">
		<tag k="name" v="Sandshaugan" />
		<tag k="natural" v="hill" />
		<tag k="place" v="locality" />
		<tag k="ssr:stedsnr" v="86721" />
	</node>
	<node id="-753344" lat="63.8910222241" lon="12.0222416645">
		<tag k="name" v="Holmliflåa" />
		<tag k="place" v="locality" />
		<tag k="ssr:stedsnr" v="802524" />
	</node>
	<node id="-753343" lat="63.8914749969" lon="11.9525416683">
		<tag k="fixme" v="consider natural=peak for the most distinct mountains in the district" />
		<tag k="name" v="Breivola" />
		<tag k="natural" v="hill" />
		<tag k="place" v="locality" />
		<tag k="ssr:stedsnr" v="802523" />
	</node>
	<node id="-753342" lat="63.6336305578" lon="12.0337138963">
		<tag k="fixme" v="consider natural=peak for the most distinct mountains in the district" />
		<tag k="name" v="Finnheiman" />
		<tag k="natural" v="hill" />
		<tag k="place" v="locality" />
		<tag k="ssr:stedsnr" v="802394" />
	</node>
	<node id="-753340" lat="63.6756583351" lon="12.0866611136">
		<tag k="fixme" v="consider natural=peak for the most distinct mountains in the district" />
		<tag k="name" v="Drivåsan" />
		<tag k="natural" v="hill" />
		<tag k="old_name" v="Drivåsen" />
		<tag k="place" v="locality" />
		<tag k="ssr:stedsnr" v="802350" />
	</node>
	<node id="-751291" lat="63.8059916651" lon="11.859933324">
		<tag k="name" v="Grøntuva" />
		<tag k="natural" v="hill" />
		<tag k="place" v="locality" />
		<tag k="ssr:stedsnr" v="86619" />
	</node>
	<node id="-753336" lat="63.7084416675" lon="11.828652773">
		<tag k="name" v="Krikaberga" />
		<tag k="natural" v="hill" />
		<tag k="place" v="locality" />
		<tag k="ssr:stedsnr" v="802332" />
	</node>
	<node id="-751287" lat="63.8083111086" lon="12.4116722263">
		<tag k="fixme" v="consider natural=peak for the most distinct mountains in the district" />
		<tag k="name" v="Gaddbeinåsen" />
		<tag k="natural" v="hill" />
		<tag k="place" v="locality" />
		<tag k="ssr:stedsnr" v="75803" />
	</node>
	<node id="-751286" lat="63.7966361127" lon="12.2559611123">
		<tag k="name" v="Djupdalshøgda" />
		<tag k="natural" v="hill" />
		<tag k="place" v="locality" />
		<tag k="ssr:stedsnr" v="75792" />
	</node>
	<node id="-751285" lat="63.8336999992" lon="12.3960722179">
		<tag k="alt_name" v="Gudmundliklompen" />
		<tag k="name" v="Gudmundliklumpen" />
		<tag k="natural" v="hill" />
		<tag k="place" v="locality" />
		<tag k="ssr:stedsnr" v="75782" />
	</node>
	<node id="-751283" lat="63.8218138865" lon="12.4370027677">
		<tag k="fixme" v="consider natural=peak for the most distinct mountains in the district" />
		<tag k="name" v="Eggåsen" />
		<tag k="natural" v="hill" />
		<tag k="place" v="locality" />
		<tag k="ssr:stedsnr" v="75775" />
	</node>
	<node id="-753323" lat="63.8287333357" lon="12.1719194456">
		<tag k="name" v="Torsliberget" />
		<tag k="natural" v="hill" />
		<tag k="place" v="locality" />
		<tag k="ssr:stedsnr" v="875828" />
	</node>
	<node id="-753320" lat="63.7411388853" lon="11.7448194512">
		<tag k="name" v="Moldknoppen" />
		<tag k="natural" v="hill" />
		<tag k="place" v="locality" />
		<tag k="ssr:stedsnr" v="777963" />
	</node>
	<node id="-753317" lat="63.7451972215" lon="11.6532888816">
		<tag k="name" v="Vasshaugen" />
		<tag k="natural" v="hill" />
		<tag k="place" v="locality" />
		<tag k="ssr:stedsnr" v="777952" />
	</node>
	<node id="-751268" lat="63.8871305518" lon="12.2441694393">
		<tag k="name" v="Tevet" />
		<tag k="place" v="locality" />
		<tag k="ssr:stedsnr" v="236757" />
	</node>
	<node id="-753315" lat="63.7389527737" lon="11.5911555633">
		<tag k="name" v="Rundhaugen" />
		<tag k="natural" v="hill" />
		<tag k="place" v="locality" />
		<tag k="ssr:stedsnr" v="777750" />
	</node>
	<node id="-753314" lat="63.6476944458" lon="12.0414111049">
		<tag k="name" v="Storskaret" />
		<tag k="natural" v="valley" />
		<tag k="place" v="locality" />
		<tag k="ssr:stedsnr" v="777412" />
	</node>
	<node id="-751264" lat="63.6857694441" lon="11.7162277831">
		<tag k="fixme" v="consider natural=peak for the most distinct mountains in the district" />
		<tag k="name" v="Tortåsvola" />
		<tag k="natural" v="hill" />
		<tag k="place" v="locality" />
		<tag k="ssr:stedsnr" v="230991" />
	</node>
	<node id="-751263" lat="63.7131805527" lon="11.6450249924">
		<tag k="name" v="Tolleran" />
		<tag k="natural" v="hill" />
		<tag k="place" v="locality" />
		<tag k="ssr:stedsnr" v="230982" />
	</node>
	<node id="-751262" lat="63.791836108" lon="11.7351472175">
		<tag k="fixme" v="consider natural=peak for the most distinct mountains in the district" />
		<tag k="name" v="Finnkallåsen" />
		<tag k="natural" v="hill" />
		<tag k="place" v="locality" />
		<tag k="ssr:stedsnr" v="230944" />
	</node>
	<node id="-753308" lat="63.748444448" lon="11.8445555612">
		<tag k="name" v="Snøfonndalen" />
		<tag k="natural" v="valley" />
		<tag k="place" v="locality" />
		<tag k="ssr:stedsnr" v="777093" />
	</node>
	<node id="-751259" lat="63.862616667" lon="11.6983111106">
		<tag k="name" v="Tillerdalen" />
		<tag k="natural" v="valley" />
		<tag k="place" v="locality" />
		<tag k="ssr:stedsnr" v="230551" />
	</node>
	<node id="-753306" lat="63.807655555" lon="11.731919437">
		<tag k="name" v="Svarttjønnberget" />
		<tag k="natural" v="hill" />
		<tag k="place" v="locality" />
		<tag k="ssr:stedsnr" v="776957" />
	</node>
	<node id="-753304" lat="63.789044443" lon="11.6965222285">
		<tag k="fixme" v="consider natural=peak for the most distinct mountains in the district" />
		<tag k="name" v="Heimberget" />
		<tag k="natural" v="hill" />
		<tag k="place" v="locality" />
		<tag k="ssr:stedsnr" v="776945" />
	</node>
	<node id="-751254" lat="63.855813891" lon="11.7363861087">
		<tag k="name" v="Fraukulan" />
		<tag k="natural" v="hill" />
		<tag k="place" v="locality" />
		<tag k="ssr:stedsnr" v="230237" />
	</node>
	<node id="-753299" lat="63.8206388851" lon="11.6975555481">
		<tag k="fixme" v="consider natural=peak for the most distinct mountains in the district" />
		<tag k="name" v="Heggemshalla" />
		<tag k="natural" v="hill" />
		<tag k="place" v="locality" />
		<tag k="ssr:stedsnr" v="776924" />
	</node>
	<node id="-751248" lat="63.7333972228" lon="11.8065138987">
		<tag k="fixme" v="consider natural=peak for the most distinct mountains in the district" />
		<tag k="name" v="Inndalsåsen" />
		<tag k="natural" v="hill" />
		<tag k="place" v="locality" />
		<tag k="ssr:stedsnr" v="230069" />
	</node>
	<node id="-753295" lat="63.6217305566" lon="11.9999166607">
		<tag k="name" v="Støttingdalen" />
		<tag k="natural" v="valley" />
		<tag k="place" v="locality" />
		<tag k="ssr:stedsnr" v="776359" />
	</node>
	<node id="-753293" lat="63.8343361067" lon="11.5474444526">
		<tag k="name" v="Trollkjerringberget" />
		<tag k="natural" v="hill" />
		<tag k="place" v="locality" />
		<tag k="ssr:stedsnr" v="875721" />
	</node>
	<node id="-751242" lat="63.7647499983" lon="11.6085249977">
		<tag k="name" v="Lundhaugen" />
		<tag k="natural" v="hill" />
		<tag k="place" v="locality" />
		<tag k="ssr:stedsnr" v="26532" />
	</node>
	<node id="-751241" lat="63.7618166633" lon="11.5953083255">
		<tag k="name" v="Bjørkberga" />
		<tag k="natural" v="cliff" />
		<tag k="ssr:stedsnr" v="26528" />
	</node>
	<node id="-753288" lat="63.6987777744" lon="12.0360166616">
		<tag k="name" v="Spjeldberget" />
		<tag k="natural" v="hill" />
		<tag k="place" v="locality" />
		<tag k="ssr:stedsnr" v="770351" />
	</node>
	<node id="-753284" lat="63.7437583312" lon="11.4807194475">
		<tag k="name" v="Elvenget" />
		<tag k="place" v="locality" />
		<tag k="ssr:stedsnr" v="757985" />
	</node>
	<node id="-753283" lat="63.7925277762" lon="12.2997833257">
		<tag k="name" v="Tronsmovassdalen" />
		<tag k="natural" v="valley" />
		<tag k="place" v="locality" />
		<tag k="ssr:stedsnr" v="754868" />
	</node>
	<node id="-751234" lat="63.8253499962" lon="11.8759500076">
		<tag k="alt_name" v="Bynaskaret" />
		<tag k="name" v="Bynaskardet" />
		<tag k="natural" v="valley" />
		<tag k="place" v="locality" />
		<tag k="ssr:stedsnr" v="24650" />
	</node>
	<node id="-751233" lat="63.7975555529" lon="11.9233138818">
		<tag k="name" v="Evenhaugen" />
		<tag k="natural" v="hill" />
		<tag k="place" v="locality" />
		<tag k="ssr:stedsnr" v="24644" />
	</node>
	<node id="-751231" lat="63.8474611145" lon="12.3700888931">
		<tag k="name" v="Haukberget" />
		<tag k="natural" v="hill" />
		<tag k="place" v="locality" />
		<tag k="ssr:stedsnr" v="14704" />
	</node>
	<node id="-751230" lat="63.8480861128" lon="12.3194361131">
		<tag k="fixme" v="consider natural=peak for the most distinct mountains in the district" />
		<tag k="name" v="Vollaåsen" />
		<tag k="natural" v="hill" />
		<tag k="place" v="locality" />
		<tag k="ssr:stedsnr" v="14703" />
	</node>
	<node id="-753277" lat="63.7524472265" lon="11.6191194526">
		<tag k="fixme" v="consider natural=peak for the most distinct mountains in the district" />
		<tag k="name" v="Storåsen" />
		<tag k="natural" v="hill" />
		<tag k="place" v="locality" />
		<tag k="ssr:stedsnr" v="754550" />
	</node>
	<node id="-751226" lat="63.8106722267" lon="11.9830555548">
		<tag k="name" v="Melaberget" />
		<tag k="natural" v="hill" />
		<tag k="place" v="locality" />
		<tag k="ssr:stedsnr" v="14513" />
	</node>
	<node id="-753270" lat="63.7791555531" lon="11.6045361041">
		<tag k="name" v="Modalen" />
		<tag k="natural" v="valley" />
		<tag k="place" v="locality" />
		<tag k="ssr:stedsnr" v="753700" />
	</node>
	<node id="-751221" lat="63.82668333" lon="12.1409361165">
		<tag k="name" v="Vindkleppen" />
		<tag k="natural" v="hill" />
		<tag k="place" v="locality" />
		<tag k="ssr:stedsnr" v="13611" />
	</node>
	<node id="-753266" lat="63.7862638914" lon="11.6045611142">
		<tag k="name" v="Magnustangen" />
		<tag k="natural" v="ridge" />
		<tag k="place" v="locality" />
		<tag k="ssr:stedsnr" v="753637" />
	</node>
	<node id="-753264" lat="63.7526027775" lon="11.781586104">
		<tag k="name" v="Brannsberget" />
		<tag k="natural" v="slope" />
		<tag k="place" v="locality" />
		<tag k="ssr:stedsnr" v="753585" />
	</node>
	<node id="-753262" lat="63.7604444439" lon="11.7641888971">
		<tag k="name" v="Dilldalen" />
		<tag k="natural" v="valley" />
		<tag k="place" v="locality" />
		<tag k="ssr:stedsnr" v="753581" />
	</node>
	<node id="-753255" lat="63.807130554" lon="11.4810444389">
		<tag k="name" v="Glåma" />
		<tag k="place" v="locality" />
		<tag k="ssr:stedsnr" v="753432" />
	</node>
	<node id="-753251" lat="63.8426583355" lon="11.9573305634">
		<tag k="fixme" v="consider natural=peak for the most distinct mountains in the district" />
		<tag k="name" v="Nybuåsen" />
		<tag k="natural" v="hill" />
		<tag k="place" v="locality" />
		<tag k="ssr:stedsnr" v="752791" />
	</node>
	<node id="-753249" lat="63.784277782" lon="11.7902000007">
		<tag k="name" v="Liahaugen" />
		<tag k="natural" v="hill" />
		<tag k="place" v="locality" />
		<tag k="ssr:stedsnr" v="752632" />
	</node>
	<node id="-753248" lat="63.7853416695" lon="11.7983527724">
		<tag k="name" v="Grunnhola" />
		<tag k="place" v="locality" />
		<tag k="ssr:stedsnr" v="752615" />
	</node>
	<node id="-753247" lat="63.8204444483" lon="11.8607805632">
		<tag k="fixme" v="consider natural=peak for the most distinct mountains in the district" />
		<tag k="name" v="Svartåsen" />
		<tag k="natural" v="hill" />
		<tag k="place" v="locality" />
		<tag k="ssr:stedsnr" v="752609" />
	</node>
	<node id="-753246" lat="63.8643305514" lon="12.4501027842">
		<tag k="name" v="Snajpevaerie" />
		<tag k="name:sma" v="Snajpevaerie" />
		<tag k="natural" v="mountain_range" />
		<tag k="ssr:stedsnr" v="749920" />
	</node>
	<node id="-753245" lat="63.8527611087" lon="12.434594439">
		<tag k="fixme" v="consider natural=peak for the most distinct mountains in the district" />
		<tag k="name" v="Seterfjellet" />
		<tag k="natural" v="hill" />
		<tag k="place" v="locality" />
		<tag k="ssr:stedsnr" v="748733" />
	</node>
	<node id="-753240" lat="63.9420499995" lon="12.3985138871">
		<tag k="name" v="Glupen - Saalva" />
		<tag k="name:no" v="Glupen" />
		<tag k="name:sma" v="Saalva" />
		<tag k="natural" v="valley" />
		<tag k="place" v="locality" />
		<tag k="ssr:stedsnr" v="742697" />
	</node>
	<node id="-753235" lat="63.8201916709" lon="12.0033166764">
		<tag k="fixme" v="consider natural=peak for the most distinct mountains in the district" />
		<tag k="name" v="Raudtuva" />
		<tag k="natural" v="hill" />
		<tag k="place" v="locality" />
		<tag k="ssr:stedsnr" v="742559" />
	</node>
	<node id="-753232" lat="63.7547527753" lon="11.9658999927">
		<tag k="name" v="Kalvdalen" />
		<tag k="natural" v="valley" />
		<tag k="place" v="locality" />
		<tag k="ssr:stedsnr" v="742674" />
	</node>
	<node id="-753230" lat="63.8117444435" lon="12.0378027769">
		<tag k="fixme" v="consider natural=peak for the most distinct mountains in the district" />
		<tag k="name" v="Åsmundfjellet" />
		<tag k="natural" v="hill" />
		<tag k="place" v="locality" />
		<tag k="ssr:stedsnr" v="742551" />
	</node>
	<node id="-753229" lat="63.8135361127" lon="12.1205277722">
		<tag k="name" v="Buneshaugen" />
		<tag k="natural" v="hill" />
		<tag k="place" v="locality" />
		<tag k="ssr:stedsnr" v="742549" />
	</node>
	<node id="-753228" lat="63.836016663" lon="11.9523805471">
		<tag k="name" v="Kringlåthaugen" />
		<tag k="natural" v="hill" />
		<tag k="place" v="locality" />
		<tag k="ssr:stedsnr" v="742535" />
	</node>
	<node id="-753226" lat="63.8690722209" lon="12.1645138923">
		<tag k="fixme" v="consider natural=peak for the most distinct mountains in the district" />
		<tag k="name" v="Rundvola" />
		<tag k="natural" v="hill" />
		<tag k="place" v="locality" />
		<tag k="ssr:stedsnr" v="742491" />
	</node>
	<node id="-751235" lat="63.7798749961" lon="11.6776250032">
		<tag k="name" v="Styggdalen" />
		<tag k="natural" v="valley" />
		<tag k="place" v="locality" />
		<tag k="ssr:stedsnr" v="26630" />
	</node>
	<node id="-753210" lat="63.7817361076" lon="12.0399555534">
		<tag k="name" v="Merkesdalen" />
		<tag k="natural" v="valley" />
		<tag k="place" v="locality" />
		<tag k="ssr:stedsnr" v="741849" />
	</node>
	<node id="-753207" lat="63.6857194477" lon="11.646949998">
		<tag k="fixme" v="consider natural=peak for the most distinct mountains in the district" />
		<tag k="name" v="Lyngsvola" />
		<tag k="natural" v="hill" />
		<tag k="place" v="locality" />
		<tag k="ssr:stedsnr" v="741634" />
	</node>
	<node id="-753199" lat="63.7213444415" lon="11.9412861106">
		<tag k="fixme" v="consider natural=peak for the most distinct mountains in the district" />
		<tag k="name" v="Sognavola" />
		<tag k="natural" v="hill" />
		<tag k="place" v="locality" />
		<tag k="ssr:stedsnr" v="741319" />
	</node>
	<node id="-753195" lat="63.6959222219" lon="12.0594833412">
		<tag k="name" v="Vestgårdseterdalen" />
		<tag k="natural" v="valley" />
		<tag k="place" v="locality" />
		<tag k="ssr:stedsnr" v="655412" />
	</node>
	<node id="-753194" lat="63.7104305576" lon="12.2210500079">
		<tag k="name" v="Hogsetvola" />
		<tag k="natural" v="hill" />
		<tag k="place" v="locality" />
		<tag k="ssr:stedsnr" v="655405" />
	</node>
	<node id="-753193" lat="63.6527416647" lon="11.9804333399">
		<tag k="name" v="Litlmoseteren" />
		<tag k="natural" v="slope" />
		<tag k="place" v="locality" />
		<tag k="ssr:stedsnr" v="655402" />
	</node>
	<node id="-753191" lat="63.8063694468" lon="11.6946138909">
		<tag k="fixme" v="consider natural=peak for the most distinct mountains in the district" />
		<tag k="name" v="Svartåsen" />
		<tag k="natural" v="hill" />
		<tag k="place" v="locality" />
		<tag k="ssr:stedsnr" v="654952" />
	</node>
	<node id="-753190" lat="63.8102166674" lon="11.6345694361">
		<tag k="name" v="Brennberget" />
		<tag k="natural" v="hill" />
		<tag k="place" v="locality" />
		<tag k="ssr:stedsnr" v="654945" />
	</node>
	<node id="-753186" lat="63.7713555583" lon="12.3655499983">
		<tag k="name" v="Ørvilldalen" />
		<tag k="natural" v="valley" />
		<tag k="place" v="locality" />
		<tag k="ssr:stedsnr" v="632839" />
	</node>
	<node id="-753184" lat="63.6902111073" lon="12.3005222162">
		<tag k="name" v="Breivassklompen" />
		<tag k="natural" v="hill" />
		<tag k="place" v="locality" />
		<tag k="ssr:stedsnr" v="632830" />
	</node>
	<node id="-753181" lat="63.7835999998" lon="11.7302805532">
		<tag k="name" v="Vollanhøgda" />
		<tag k="natural" v="hill" />
		<tag k="place" v="locality" />
		<tag k="ssr:stedsnr" v="632617" />
	</node>
	<node id="-753180" lat="63.7866638867" lon="11.7268249946">
		<tag k="fixme" v="consider natural=peak for the most distinct mountains in the district" />
		<tag k="name" v="Hoåsen" />
		<tag k="natural" v="hill" />
		<tag k="place" v="locality" />
		<tag k="ssr:stedsnr" v="632612" />
	</node>
	<node id="-753178" lat="63.7615638861" lon="11.7706944467">
		<tag k="name" v="Bjørsmoberget" />
		<tag k="place" v="locality" />
		<tag k="ssr:stedsnr" v="632594" />
	</node>
	<node id="-753177" lat="63.7954611081" lon="11.8651916712">
		<tag k="loc_name" v="Bjørnmelflåa" />
		<tag k="name" v="Bjønnmelflåa" />
		<tag k="natural" v="ridge" />
		<tag k="place" v="locality" />
		<tag k="ssr:stedsnr" v="632593" />
	</node>
	<node id="-753176" lat="63.780897225" lon="11.6290472304">
		<tag k="name" v="Tokstadbakkan" />
		<tag k="natural" v="slope" />
		<tag k="place" v="locality" />
		<tag k="ssr:stedsnr" v="632694" />
	</node>
	<node id="-753171" lat="63.6782999998" lon="12.059416668">
		<tag k="name" v="Flokkåsdalen" />
		<tag k="natural" v="valley" />
		<tag k="place" v="locality" />
		<tag k="ssr:stedsnr" v="631843" />
	</node>
	<node id="-753162" lat="63.7506861112" lon="12.250038884">
		<tag k="name" v="Kvitberget" />
		<tag k="natural" v="hill" />
		<tag k="place" v="locality" />
		<tag k="ssr:stedsnr" v="620756" />
	</node>
	<node id="-753161" lat="63.7818027794" lon="12.3981916759">
		<tag k="fixme" v="consider natural=peak for the most distinct mountains in the district" />
		<tag k="name" v="Torstenåsen" />
		<tag k="natural" v="hill" />
		<tag k="place" v="locality" />
		<tag k="ssr:stedsnr" v="620752" />
	</node>
	<node id="-753158" lat="63.8222666668" lon="12.3602222291">
		<tag k="name" v="Reinsmyrhøgda - Vieren-njuenie" />
		<tag k="name:no" v="Reinsmyrhøgda" />
		<tag k="name:sma" v="Vieren-njuenie" />
		<tag k="natural" v="hill" />
		<tag k="place" v="locality" />
		<tag k="ssr:stedsnr" v="620711" />
	</node>
	<node id="-753150" lat="63.8612888906" lon="12.5306861124">
		<tag k="fixme" v="consider natural=peak for the most distinct mountains in the district" />
		<tag k="name" v="Rognåsen" />
		<tag k="natural" v="hill" />
		<tag k="place" v="locality" />
		<tag k="ssr:stedsnr" v="620664" />
	</node>
	<node id="-753145" lat="63.7937027811" lon="11.8858777855">
		<tag k="name" v="Hangan" />
		<tag k="natural" v="hill" />
		<tag k="place" v="locality" />
		<tag k="ssr:stedsnr" v="620578" />
	</node>
	<node id="-753137" lat="63.842511114" lon="12.1435222232">
		<tag k="fixme" v="consider natural=peak for the most distinct mountains in the district" />
		<tag k="name" v="Seriannavola" />
		<tag k="natural" v="hill" />
		<tag k="place" v="locality" />
		<tag k="ssr:stedsnr" v="620521" />
	</node>
	<node id="-753135" lat="63.8951527738" lon="11.8428499923">
		<tag k="fixme" v="consider natural=peak for the most distinct mountains in the district" />
		<tag k="name" v="Holtjønnvola" />
		<tag k="natural" v="hill" />
		<tag k="place" v="locality" />
		<tag k="ssr:stedsnr" v="620445" />
	</node>
	<node id="-753131" lat="63.8870083347" lon="12.2073999929">
		<tag k="fixme" v="consider natural=peak for the most distinct mountains in the district" />
		<tag k="name" v="Gjermstadåsen" />
		<tag k="natural" v="hill" />
		<tag k="place" v="locality" />
		<tag k="ssr:stedsnr" v="620429" />
	</node>
	<node id="-753130" lat="63.8860777745" lon="12.1042500067">
		<tag k="name" v="Melaslættet" />
		<tag k="place" v="locality" />
		<tag k="ssr:stedsnr" v="620427" />
	</node>
	<node id="-753128" lat="63.6558499967" lon="12.025055558">
		<tag k="name" v="Sullia" />
		<tag k="natural" v="slope" />
		<tag k="place" v="locality" />
		<tag k="ssr:stedsnr" v="620296" />
	</node>
	<node id="-753124" lat="63.680255553" lon="12.078319442">
		<tag k="alt_name" v="Hederliknoppen" />
		<tag k="fixme" v="consider natural=peak for the most distinct mountains in the district" />
		<tag k="name" v="Hederliklumpen" />
		<tag k="natural" v="hill" />
		<tag k="place" v="locality" />
		<tag k="ssr:stedsnr" v="620287" />
	</node>
	<node id="-753123" lat="63.6826305531" lon="11.844508331">
		<tag k="fixme" v="consider natural=peak for the most distinct mountains in the district" />
		<tag k="name" v="Storhavren" />
		<tag k="natural" v="hill" />
		<tag k="place" v="locality" />
		<tag k="ssr:stedsnr" v="620286" />
	</node>
	<node id="-753104" lat="63.8490583322" lon="11.6744055653">
		<tag k="alt_name" v="Leksdalen, nordre" />
		<tag k="loc_name" v="Leksdalen" />
		<tag k="name" v="Nordre Leksdalen" />
		<tag k="natural" v="valley" />
		<tag k="place" v="locality" />
		<tag k="ssr:stedsnr" v="620127" />
	</node>
	<node id="-753103" lat="63.6717083367" lon="12.2938611146">
		<tag k="fixme" v="consider natural=peak for the most distinct mountains in the district" />
		<tag k="name" v="Finnvola" />
		<tag k="natural" v="hill" />
		<tag k="place" v="locality" />
		<tag k="ssr:stedsnr" v="620126" />
	</node>
	<node id="-753096" lat="63.7152111146" lon="11.693438898">
		<tag k="name" v="Hoåsknoppen" />
		<tag k="natural" v="hill" />
		<tag k="place" v="locality" />
		<tag k="ssr:stedsnr" v="619627" />
	</node>
	<node id="-753093" lat="63.718133337" lon="12.0392833286">
		<tag k="name" v="Gullklumpan" />
		<tag k="natural" v="hill" />
		<tag k="place" v="locality" />
		<tag k="ssr:stedsnr" v="619308" />
	</node>
	<node id="-753092" lat="63.6598972265" lon="12.172308326">
		<tag k="name" v="Høgberga" />
		<tag k="natural" v="hill" />
		<tag k="place" v="locality" />
		<tag k="ssr:stedsnr" v="605293" />
	</node>
	<node id="-753091" lat="63.6800277803" lon="12.0952277797">
		<tag k="name" v="Holet" />
		<tag k="natural" v="valley" />
		<tag k="place" v="locality" />
		<tag k="ssr:stedsnr" v="605182" />
	</node>
	<node id="-753086" lat="63.7990277744" lon="11.7498083406">
		<tag k="name" v="Sveddibuhaugen" />
		<tag k="natural" v="hill" />
		<tag k="place" v="locality" />
		<tag k="ssr:stedsnr" v="594942" />
	</node>
	<node id="-753083" lat="63.8218861119" lon="11.4044499975">
		<tag k="name" v="Blåberga" />
		<tag k="natural" v="hill" />
		<tag k="place" v="locality" />
		<tag k="ssr:stedsnr" v="594748" />
	</node>
	<node id="-753081" lat="63.89031111" lon="11.7194277738">
		<tag k="fixme" v="consider natural=peak for the most distinct mountains in the district" />
		<tag k="name" v="Høgåsen" />
		<tag k="natural" v="hill" />
		<tag k="place" v="locality" />
		<tag k="ssr:stedsnr" v="594529" />
	</node>
	<node id="-753080" lat="63.7649777774" lon="12.3389666732">
		<tag k="name" v="Vassdalen" />
		<tag k="natural" v="valley" />
		<tag k="place" v="locality" />
		<tag k="ssr:stedsnr" v="594432" />
	</node>
	<node id="-753079" lat="63.6901000019" lon="12.0586305594">
		<tag k="name" v="Skrovolia" />
		<tag k="natural" v="slope" />
		<tag k="place" v="locality" />
		<tag k="ssr:stedsnr" v="594423" />
	</node>
	<node id="-753077" lat="63.8830083358" lon="11.9884749993">
		<tag k="fixme" v="consider natural=peak for the most distinct mountains in the district" />
		<tag k="name" v="Tulleråsen" />
		<tag k="natural" v="hill" />
		<tag k="place" v="locality" />
		<tag k="ssr:stedsnr" v="594403" />
	</node>
	<node id="-753076" lat="63.6588499997" lon="12.0708361123">
		<tag k="name" v="Ådalsliin" />
		<tag k="natural" v="slope" />
		<tag k="place" v="locality" />
		<tag k="ssr:stedsnr" v="594400" />
	</node>
	<node id="-753074" lat="63.7372861075" lon="11.9464527813">
		<tag k="name" v="Auskindalen" />
		<tag k="natural" v="valley" />
		<tag k="place" v="locality" />
		<tag k="ssr:stedsnr" v="594383" />
	</node>
	<node id="-753073" lat="63.7084222217" lon="11.8840888941">
		<tag k="name" v="Ørnberget" />
		<tag k="natural" v="hill" />
		<tag k="place" v="locality" />
		<tag k="ssr:stedsnr" v="594381" />
	</node>
	<node id="-753069" lat="63.8254305544" lon="11.7636444476">
		<tag k="name" v="Fleinberget" />
		<tag k="natural" v="hill" />
		<tag k="place" v="locality" />
		<tag k="ssr:stedsnr" v="594132" />
	</node>
	<node id="-753067" lat="63.8050527803" lon="11.7626666768">
		<tag k="name" v="Svartdalen" />
		<tag k="natural" v="valley" />
		<tag k="place" v="locality" />
		<tag k="ssr:stedsnr" v="594099" />
	</node>
	<node id="-753064" lat="63.7716972244" lon="11.8292500094">
		<tag k="fixme" v="consider natural=peak for the most distinct mountains in the district" />
		<tag k="name" v="Vestre Guddingsskallen" />
		<tag k="natural" v="hill" />
		<tag k="ssr:stedsnr" v="594072" />
	</node>
	<node id="-753063" lat="63.7601527752" lon="11.8634027766">
		<tag k="name" v="Bjørnkammen" />
		<tag k="natural" v="ridge" />
		<tag k="place" v="locality" />
		<tag k="ssr:stedsnr" v="594054" />
	</node>
	<node id="-753062" lat="63.7298027748" lon="11.8639055645">
		<tag k="name" v="Brekka" />
		<tag k="place" v="locality" />
		<tag k="ssr:stedsnr" v="594047" />
	</node>
	<node id="-753057" lat="63.7144111141" lon="11.7572416598">
		<tag k="name" v="Gråvådalen" />
		<tag k="natural" v="valley" />
		<tag k="place" v="locality" />
		<tag k="ssr:stedsnr" v="655052" />
	</node>
	<node id="-753055" lat="63.7462583317" lon="11.4846555563">
		<tag k="name" v="Sveberget" />
		<tag k="natural" v="hill" />
		<tag k="place" v="locality" />
		<tag k="ssr:stedsnr" v="575973" />
	</node>
	<node id="-753051" lat="63.8097194442" lon="12.2724861085">
		<tag k="fixme" v="consider natural=peak for the most distinct mountains in the district" />
		<tag k="name" v="Stortjønnåsen" />
		<tag k="natural" v="hill" />
		<tag k="place" v="locality" />
		<tag k="ssr:stedsnr" v="571835" />
	</node>
	<node id="-753048" lat="63.7964333354" lon="11.8745250092">
		<tag k="name" v="Gravdalen" />
		<tag k="natural" v="valley" />
		<tag k="place" v="locality" />
		<tag k="ssr:stedsnr" v="571635" />
	</node>
	<node id="-753040" lat="63.7501555517" lon="11.5624055531">
		<tag k="name" v="Skjørdalsskaret" />
		<tag k="natural" v="valley" />
		<tag k="place" v="locality" />
		<tag k="ssr:stedsnr" v="571675" />
	</node>
	<node id="-753039" lat="63.7613611142" lon="11.5933416663">
		<tag k="name" v="Skruddu" />
		<tag k="place" v="locality" />
		<tag k="ssr:stedsnr" v="571671" />
	</node>
	<node id="-753036" lat="63.8308722184" lon="11.8513888928">
		<tag k="name" v="Okslia" />
		<tag k="natural" v="slope" />
		<tag k="place" v="locality" />
		<tag k="ssr:stedsnr" v="570616" />
	</node>
	<node id="-753031" lat="63.7644722244" lon="12.3274250031">
		<tag k="name" v="Høgmyrhøgda" />
		<tag k="natural" v="hill" />
		<tag k="place" v="locality" />
		<tag k="ssr:stedsnr" v="560800" />
	</node>
	<node id="-753030" lat="63.7698527799" lon="12.3668916711">
		<tag k="fixme" v="consider natural=peak for the most distinct mountains in the district" />
		<tag k="name" v="Kjellbekkåsan" />
		<tag k="natural" v="hill" />
		<tag k="place" v="locality" />
		<tag k="ssr:stedsnr" v="560796" />
	</node>
	<node id="-753026" lat="63.8320916665" lon="12.3733749977">
		<tag k="name" v="Klumpan" />
		<tag k="natural" v="hill" />
		<tag k="place" v="locality" />
		<tag k="ssr:stedsnr" v="560728" />
	</node>
	<node id="-753024" lat="63.7787222217" lon="11.8168305598">
		<tag k="name" v="Brennberget" />
		<tag k="natural" v="hill" />
		<tag k="place" v="locality" />
		<tag k="ssr:stedsnr" v="560641" />
	</node>
	<node id="-753013" lat="63.7983194461" lon="11.899966673">
		<tag k="name" v="Middagshaugen" />
		<tag k="natural" v="hill" />
		<tag k="place" v="locality" />
		<tag k="ssr:stedsnr" v="559634" />
	</node>
	<node id="-753012" lat="63.800963889" lon="12.0659249912">
		<tag k="name" v="Allmenningsvola" />
		<tag k="natural" v="hill" />
		<tag k="place" v="locality" />
		<tag k="ssr:stedsnr" v="559590" />
	</node>
	<node id="-753011" lat="63.800475003" lon="12.0444527862">
		<tag k="name" v="Heståslættet" />
		<tag k="place" v="locality" />
		<tag k="ssr:stedsnr" v="559589" />
	</node>
	<node id="-753009" lat="63.8104388919" lon="12.1054888793">
		<tag k="name" v="Hovdalen" />
		<tag k="natural" v="valley" />
		<tag k="place" v="locality" />
		<tag k="ssr:stedsnr" v="559575" />
	</node>
	<node id="-753008" lat="63.943519441" lon="12.3110083257">
		<tag k="name" v="Snødalen" />
		<tag k="natural" v="valley" />
		<tag k="place" v="locality" />
		<tag k="ssr:stedsnr" v="559698" />
	</node>
	<node id="-753002" lat="63.8381111081" lon="11.8156944404">
		<tag k="name" v="Håkkåklumpen" />
		<tag k="natural" v="hill" />
		<tag k="place" v="locality" />
		<tag k="ssr:stedsnr" v="559542" />
	</node>
	<node id="-753001" lat="63.6631083311" lon="11.6730000018">
		<tag k="name" v="Nonsknoppen" />
		<tag k="natural" v="hill" />
		<tag k="place" v="locality" />
		<tag k="ssr:stedsnr" v="559538" />
	</node>
	<node id="-752999" lat="63.8591000044" lon="11.7753666624">
		<tag k="name" v="Heggdalen" />
		<tag k="natural" v="valley" />
		<tag k="place" v="locality" />
		<tag k="ssr:stedsnr" v="559526" />
	</node>
	<node id="-752998" lat="63.6569361088" lon="11.5912249899">
		<tag k="fixme" v="consider natural=peak for the most distinct mountains in the district" />
		<tag k="name" v="Kammarvola" />
		<tag k="natural" v="hill" />
		<tag k="place" v="locality" />
		<tag k="ssr:stedsnr" v="559523" />
	</node>
	<node id="-752997" lat="63.8633777766" lon="11.8004472242">
		<tag k="name" v="Skitholvola" />
		<tag k="natural" v="hill" />
		<tag k="place" v="locality" />
		<tag k="ssr:stedsnr" v="559516" />
	</node>
	<node id="-752993" lat="63.8814749982" lon="11.784908336">
		<tag k="name" v="Styggdalen" />
		<tag k="natural" v="valley" />
		<tag k="place" v="locality" />
		<tag k="ssr:stedsnr" v="559449" />
	</node>
	<node id="-752983" lat="63.6331194475" lon="11.8128916605">
		<tag k="fixme" v="consider natural=peak for the most distinct mountains in the district" />
		<tag k="loc_name:sma" v="Hermansoilksaivo" />
		<tag k="name" v="Hermannssnasa" />
		<tag k="name:no" v="Hermannssnasa" />
		<tag k="natural" v="hill" />
		<tag k="place" v="locality" />
		<tag k="ssr:stedsnr" v="559330" />
	</node>
	<node id="-752981" lat="63.6246944456" lon="11.7664138901">
		<tag k="alt_name" v="Færsvola" />
		<tag k="fixme" v="consider natural=peak for the most distinct mountains in the district" />
		<tag k="name" v="Fersvola" />
		<tag k="natural" v="hill" />
		<tag k="place" v="locality" />
		<tag k="ssr:stedsnr" v="559327" />
	</node>
	<node id="-752980" lat="63.6296583316" lon="12.1982138821">
		<tag k="fixme" v="consider natural=peak for the most distinct mountains in the district" />
		<tag k="name" v="Hegglifjellet" />
		<tag k="natural" v="hill" />
		<tag k="place" v="locality" />
		<tag k="ssr:stedsnr" v="559324" />
	</node>
	<node id="-752975" lat="63.6701138891" lon="11.7263583352">
		<tag k="name" v="Hundkjerka" />
		<tag k="natural" v="hill" />
		<tag k="place" v="locality" />
		<tag k="ssr:stedsnr" v="559281" />
	</node>
	<node id="-752964" lat="63.9105749961" lon="12.1145027741">
		<tag k="name" v="Sunniholet" />
		<tag k="natural" v="valley" />
		<tag k="place" v="locality" />
		<tag k="ssr:stedsnr" v="534730" />
	</node>
	<node id="-752963" lat="63.8464833333" lon="11.4816777732">
		<tag k="fixme" v="consider natural=peak for the most distinct mountains in the district" />
		<tag k="name" v="Høgåsen" />
		<tag k="natural" v="hill" />
		<tag k="place" v="locality" />
		<tag k="ssr:stedsnr" v="534775" />
	</node>
	<node id="-752958" lat="63.6980694405" lon="11.900552779">
		<tag k="fixme" v="consider natural=peak for the most distinct mountains in the district" />
		<tag k="name" v="Kleivklompen" />
		<tag k="natural" v="hill" />
		<tag k="ssr:stedsnr" v="534387" />
	</node>
	<node id="-752953" lat="63.7814499999" lon="11.8754805617">
		<tag k="name" v="Langberget" />
		<tag k="natural" v="hill" />
		<tag k="place" v="locality" />
		<tag k="ssr:stedsnr" v="534059" />
	</node>
	<node id="-752951" lat="63.8087972206" lon="11.7364250005">
		<tag k="name" v="Rundhaugen" />
		<tag k="natural" v="hill" />
		<tag k="place" v="locality" />
		<tag k="ssr:stedsnr" v="533951" />
	</node>
	<node id="-752949" lat="63.8045861121" lon="11.6334027815">
		<tag k="name" v="Snauberget" />
		<tag k="natural" v="hill" />
		<tag k="place" v="locality" />
		<tag k="ssr:stedsnr" v="533938" />
	</node>
	<node id="-752945" lat="63.6974361079" lon="12.0712999949">
		<tag k="name" v="Vestgardsseterdalen" />
		<tag k="natural" v="valley" />
		<tag k="place" v="locality" />
		<tag k="ssr:stedsnr" v="527387" />
	</node>
	<node id="-752935" lat="63.8166083361" lon="11.6584166693">
		<tag k="alt_name" v="Leksdalen, s" />
		<tag k="name" v="Søre Leksdalen" />
		<tag k="natural" v="valley" />
		<tag k="place" v="locality" />
		<tag k="ssr:stedsnr" v="439171" />
	</node>
	<node id="-752929" lat="63.8027472207" lon="11.7392500082">
		<tag k="name" v="Lauvhaugen" />
		<tag k="natural" v="hill" />
		<tag k="place" v="locality" />
		<tag k="ssr:stedsnr" v="438616" />
	</node>
	<node id="-752923" lat="63.809272225" lon="11.8640416613">
		<tag k="name" v="Helgådalen" />
		<tag k="natural" v="valley" />
		<tag k="place" v="locality" />
		<tag k="ssr:stedsnr" v="438561" />
	</node>
	<node id="-752913" lat="63.7988722217" lon="11.7043583254">
		<tag k="name" v="Svartdalen" />
		<tag k="natural" v="valley" />
		<tag k="place" v="locality" />
		<tag k="ssr:stedsnr" v="438300" />
	</node>
	<node id="-752905" lat="63.7085611091" lon="12.2124305606">
		<tag k="name" v="Glupen" />
		<tag k="natural" v="valley" />
		<tag k="place" v="locality" />
		<tag k="ssr:stedsnr" v="438270" />
	</node>
	<node id="-752904" lat="63.7128805592" lon="11.8031916672">
		<tag k="name" v="Masterberget" />
		<tag k="natural" v="hill" />
		<tag k="place" v="locality" />
		<tag k="ssr:stedsnr" v="438260" />
	</node>
	<node id="-752903" lat="63.7789138922" lon="11.6060527687">
		<tag k="name" v="Raset" />
		<tag k="natural" v="valley" />
		<tag k="place" v="locality" />
		<tag k="ssr:stedsnr" v="438252" />
	</node>
	<node id="-752894" lat="63.7117472183" lon="11.6766500081">
		<tag k="name" v="Bård-Erikdalen" />
		<tag k="natural" v="valley" />
		<tag k="place" v="locality" />
		<tag k="ssr:stedsnr" v="413977" />
	</node>
	<node id="-752890" lat="63.7411944463" lon="11.5973861092">
		<tag k="name" v="Lysthaugen" />
		<tag k="natural" v="hill" />
		<tag k="place" v="locality" />
		<tag k="ssr:stedsnr" v="413768" />
	</node>
	<node id="-752885" lat="63.8380250027" lon="11.8388805617">
		<tag k="name" v="Staurdalen" />
		<tag k="natural" v="valley" />
		<tag k="place" v="locality" />
		<tag k="ssr:stedsnr" v="413114" />
	</node>
	<node id="-752882" lat="63.7891833377" lon="11.8403583267">
		<tag k="name" v="Skytådalen" />
		<tag k="natural" v="valley" />
		<tag k="place" v="locality" />
		<tag k="ssr:stedsnr" v="413070" />
	</node>
	<node id="-752880" lat="63.7308638884" lon="11.8145361159">
		<tag k="name" v="Bursdalen" />
		<tag k="natural" v="valley" />
		<tag k="place" v="locality" />
		<tag k="ssr:stedsnr" v="413063" />
	</node>
	<node id="-752875" lat="63.7975416634" lon="11.7501888855">
		<tag k="fixme" v="consider natural=peak for the most distinct mountains in the district" />
		<tag k="name" v="Hoåsen" />
		<tag k="natural" v="hill" />
		<tag k="place" v="locality" />
		<tag k="ssr:stedsnr" v="412934" />
	</node>
	<node id="-752874" lat="63.8031027822" lon="11.6921722237">
		<tag k="fixme" v="consider natural=peak for the most distinct mountains in the district" />
		<tag k="name" v="Randåsen" />
		<tag k="natural" v="hill" />
		<tag k="place" v="locality" />
		<tag k="ssr:stedsnr" v="412931" />
	</node>
	<node id="-752871" lat="63.8305472193" lon="11.6841388969">
		<tag k="fixme" v="consider natural=peak for the most distinct mountains in the district" />
		<tag k="name" v="Lunneråsberget" />
		<tag k="natural" v="hill" />
		<tag k="place" v="locality" />
		<tag k="ssr:stedsnr" v="412906" />
	</node>
	<node id="-752869" lat="63.904516663" lon="12.2252666761">
		<tag k="fixme" v="consider natural=peak for the most distinct mountains in the district" />
		<tag k="name" v="Tverråhøgda" />
		<tag k="natural" v="hill" />
		<tag k="place" v="locality" />
		<tag k="ssr:stedsnr" v="412604" />
	</node>
	<node id="-752867" lat="63.8609861073" lon="11.7561555542">
		<tag k="name" v="Lauvhaugen" />
		<tag k="natural" v="hill" />
		<tag k="place" v="locality" />
		<tag k="ssr:stedsnr" v="412532" />
	</node>
	<node id="-752866" lat="63.8938805562" lon="11.7555527852">
		<tag k="name" v="Nyseterdalen" />
		<tag k="natural" v="valley" />
		<tag k="place" v="locality" />
		<tag k="ssr:stedsnr" v="412507" />
	</node>
	<node id="-752859" lat="63.7168250042" lon="11.6201361052">
		<tag k="name" v="Sagholman" />
		<tag k="place" v="locality" />
		<tag k="ssr:stedsnr" v="393937" />
	</node>
	<node id="-752853" lat="63.6631972186" lon="12.2783750065">
		<tag k="name" v="Finnvoldalen" />
		<tag k="natural" v="valley" />
		<tag k="place" v="locality" />
		<tag k="ssr:stedsnr" v="389836" />
	</node>
	<node id="-752850" lat="63.8024888914" lon="11.6222944517">
		<tag k="loc_name" v="Lyngåsflata" />
		<tag k="name" v="Lyngåssletta" />
		<tag k="place" v="locality" />
		<tag k="ssr:stedsnr" v="389694" />
	</node>
	<node id="-752847" lat="63.7504333343" lon="11.5432999932">
		<tag k="name" v="Porten" />
		<tag k="natural" v="hill" />
		<tag k="place" v="locality" />
		<tag k="ssr:stedsnr" v="389543" />
	</node>
	<node id="-752843" lat="63.7789749993" lon="11.7282500074">
		<tag k="name" v="Maihaugen" />
		<tag k="natural" v="hill" />
		<tag k="place" v="locality" />
		<tag k="ssr:stedsnr" v="389648" />
	</node>
	<node id="-752842" lat="63.7641888919" lon="11.7847972166">
		<tag k="name" v="Sørmoen" />
		<tag k="place" v="locality" />
		<tag k="ssr:stedsnr" v="389638" />
	</node>
	<node id="-752835" lat="63.7834944469" lon="12.2840555568">
		<tag k="name" v="Branndalen" />
		<tag k="natural" v="valley" />
		<tag k="place" v="locality" />
		<tag k="ssr:stedsnr" v="378780" />
	</node>
	<node id="-752834" lat="63.8278805566" lon="12.481233335">
		<tag k="fixme" v="consider natural=peak for the most distinct mountains in the district" />
		<tag k="name" v="Stormyråsen" />
		<tag k="natural" v="hill" />
		<tag k="place" v="locality" />
		<tag k="ssr:stedsnr" v="378756" />
	</node>
	<node id="-752830" lat="63.80706944" lon="12.1822861136">
		<tag k="fixme" v="consider natural=peak for the most distinct mountains in the district" />
		<tag k="name" v="Brattåsåsan" />
		<tag k="natural" v="hill" />
		<tag k="place" v="locality" />
		<tag k="ssr:stedsnr" v="378643" />
	</node>
	<node id="-752827" lat="63.8198749998" lon="11.8411749927">
		<tag k="name" v="Flyhangan" />
		<tag k="natural" v="hill" />
		<tag k="place" v="locality" />
		<tag k="ssr:stedsnr" v="378615" />
	</node>
	<node id="-752812" lat="63.7930972234" lon="11.78790278">
		<tag k="name" v="Tømmerdalen" />
		<tag k="natural" v="valley" />
		<tag k="place" v="locality" />
		<tag k="ssr:stedsnr" v="377590" />
	</node>
	<node id="-751474" lat="63.7849000022" lon="11.8480861197">
		<tag k="name" v="Jakophaugen" />
		<tag k="natural" v="hill" />
		<tag k="place" v="locality" />
		<tag k="ssr:stedsnr" v="196614" />
	</node>
	<node id="-752809" lat="63.8931305562" lon="11.8837583373">
		<tag k="fixme" v="consider natural=peak for the most distinct mountains in the district" />
		<tag k="name" v="Bynavola" />
		<tag k="natural" v="hill" />
		<tag k="place" v="locality" />
		<tag k="ssr:stedsnr" v="377458" />
	</node>
	<node id="-751473" lat="63.7827027789" lon="11.8703444484">
		<tag k="name" v="Rokkhaugen" />
		<tag k="natural" v="hill" />
		<tag k="place" v="locality" />
		<tag k="ssr:stedsnr" v="196613" />
	</node>
	<node id="-752803" lat="63.6474250027" lon="12.0348250079">
		<tag k="name" v="Stongbakkan" />
		<tag k="natural" v="slope" />
		<tag k="place" v="locality" />
		<tag k="ssr:stedsnr" v="377308" />
	</node>
	<node id="-752801" lat="63.7055444423" lon="12.0583472294">
		<tag k="name" v="Kvernsjøhøgda" />
		<tag k="natural" v="hill" />
		<tag k="old_name" v="Spjeldberget" />
		<tag k="place" v="locality" />
		<tag k="ssr:stedsnr" v="377283" />
	</node>
	<node id="-752784" lat="63.8634833376" lon="11.8079333263">
		<tag k="name" v="Grunnvola" />
		<tag k="natural" v="hill" />
		<tag k="place" v="locality" />
		<tag k="ssr:stedsnr" v="377513" />
	</node>
	<node id="-752780" lat="63.6598749964" lon="11.7751583347">
		<tag k="fixme" v="consider natural=peak for the most distinct mountains in the district" />
		<tag k="name" v="Haverkjerringa" />
		<tag k="natural" v="hill" />
		<tag k="ssr:stedsnr" v="357189" />
	</node>
	<node id="-752777" lat="63.8359750036" lon="11.4199499968">
		<tag k="name" v="Bjørga" />
		<tag k="natural" v="hill" />
		<tag k="place" v="locality" />
		<tag k="ssr:stedsnr" v="352750" />
	</node>
	<node id="-752775" lat="63.9016388857" lon="11.7744333275">
		<tag k="fixme" v="consider natural=peak for the most distinct mountains in the district" />
		<tag k="name" v="Semsåsen" />
		<tag k="natural" v="hill" />
		<tag k="place" v="locality" />
		<tag k="ssr:stedsnr" v="352591" />
	</node>
	<node id="-752770" lat="63.6838194411" lon="12.0797583307">
		<tag k="fixme" v="consider natural=peak for the most distinct mountains in the district" />
		<tag k="name" v="Sjululiknoppen" />
		<tag k="natural" v="hill" />
		<tag k="place" v="locality" />
		<tag k="ssr:stedsnr" v="352404" />
	</node>
	<node id="-752766" lat="63.7927833351" lon="11.8063583321">
		<tag k="name" v="Kåsahaugen" />
		<tag k="natural" v="hill" />
		<tag k="place" v="locality" />
		<tag k="ssr:stedsnr" v="352091" />
	</node>
	<node id="-752764" lat="63.7815333343" lon="11.8586222125">
		<tag k="fixme" v="consider natural=peak for the most distinct mountains in the district" />
		<tag k="name" v="Svartåsen" />
		<tag k="natural" v="hill" />
		<tag k="place" v="locality" />
		<tag k="ssr:stedsnr" v="352067" />
	</node>
	<node id="-752763" lat="63.7536194427" lon="11.823819454">
		<tag k="name" v="Bastuhalla" />
		<tag k="natural" v="slope" />
		<tag k="place" v="locality" />
		<tag k="ssr:stedsnr" v="352047" />
	</node>
	<node id="-752762" lat="63.7007083318" lon="11.8584027831">
		<tag k="name" v="Brudalen" />
		<tag k="natural" v="valley" />
		<tag k="place" v="locality" />
		<tag k="ssr:stedsnr" v="352007" />
	</node>
	<node id="-752761" lat="63.7487111083" lon="11.6511694397">
		<tag k="name" v="Håbekkdalen" />
		<tag k="natural" v="valley" />
		<tag k="place" v="locality" />
		<tag k="ssr:stedsnr" v="351965" />
	</node>
	<node id="-752759" lat="63.8007500002" lon="11.6409472289">
		<tag k="name" v="Tjønnberget" />
		<tag k="natural" v="hill" />
		<tag k="place" v="locality" />
		<tag k="ssr:stedsnr" v="351947" />
	</node>
	<node id="-752758" lat="63.8251166658" lon="11.6908138876">
		<tag k="fixme" v="consider natural=peak for the most distinct mountains in the district" />
		<tag k="name" v="Høgåsen" />
		<tag k="natural" v="hill" />
		<tag k="place" v="locality" />
		<tag k="ssr:stedsnr" v="351932" />
	</node>
	<node id="-752756" lat="63.8456361072" lon="11.5326527676">
		<tag k="name" v="Sandsberga" />
		<tag k="natural" v="cliff" />
		<tag k="ssr:stedsnr" v="352995" />
	</node>
	<node id="-752754" lat="63.7111277782" lon="11.6459888974">
		<tag k="name" v="Benkberga" />
		<tag k="natural" v="hill" />
		<tag k="place" v="locality" />
		<tag k="ssr:stedsnr" v="352974" />
	</node>
	<node id="-752746" lat="63.745063892" lon="11.5561999934">
		<tag k="name" v="Skjørdalsskardet" />
		<tag k="natural" v="valley" />
		<tag k="place" v="locality" />
		<tag k="ssr:stedsnr" v="332944" />
	</node>
	<node id="-752745" lat="63.7174916646" lon="11.5800722231">
		<tag k="name" v="Ståggåberget" />
		<tag k="natural" v="hill" />
		<tag k="place" v="locality" />
		<tag k="ssr:stedsnr" v="332934" />
	</node>
	<node id="-752743" lat="63.8846999963" lon="11.6566777676">
		<tag k="name" v="Bjørnhidalen" />
		<tag k="natural" v="valley" />
		<tag k="place" v="locality" />
		<tag k="ssr:stedsnr" v="332339" />
	</node>
	<node id="-752742" lat="63.7719749994" lon="12.3445277843">
		<tag k="name" v="Sørveresvassdalen" />
		<tag k="natural" v="valley" />
		<tag k="place" v="locality" />
		<tag k="ssr:stedsnr" v="329843" />
	</node>
	<node id="-752740" lat="63.6722333359" lon="12.2356305569">
		<tag k="fixme" v="consider natural=peak for the most distinct mountains in the district" />
		<tag k="name" v="Svartvikåsan" />
		<tag k="natural" v="hill" />
		<tag k="place" v="locality" />
		<tag k="ssr:stedsnr" v="329823" />
	</node>
	<node id="-752737" lat="63.7521333329" lon="11.5908694396">
		<tag k="fixme" v="consider natural=peak for the most distinct mountains in the district" />
		<tag k="name" v="Raudmyrhøvlan" />
		<tag k="natural" v="hill" />
		<tag k="place" v="locality" />
		<tag k="ssr:stedsnr" v="329670" />
	</node>
	<node id="-752736" lat="63.7966861147" lon="11.5245694459">
		<tag k="name" v="Slottet" />
		<tag k="place" v="locality" />
		<tag k="ssr:stedsnr" v="329666" />
	</node>
	<node id="-752728" lat="63.755375004" lon="11.5418749943">
		<tag k="name" v="Rognhaugen" />
		<tag k="natural" v="hill" />
		<tag k="place" v="locality" />
		<tag k="ssr:stedsnr" v="329526" />
	</node>
	<node id="-752726" lat="63.8116277809" lon="11.5949138859">
		<tag k="name" v="Feginsbrekka" />
		<tag k="place" v="locality" />
		<tag k="ssr:stedsnr" v="329654" />
	</node>
	<node id="-752723" lat="63.8195305561" lon="11.8697416643">
		<tag k="name" v="Ulriksveet" />
		<tag k="place" v="locality" />
		<tag k="ssr:stedsnr" v="328655" />
	</node>
	<node id="-752715" lat="63.8334749984" lon="12.3565333271">
		<tag k="name" v="Flåtjønnhøgda" />
		<tag k="natural" v="hill" />
		<tag k="place" v="locality" />
		<tag k="ssr:stedsnr" v="317676" />
	</node>
	<node id="-752714" lat="63.8149805516" lon="12.099811108">
		<tag k="name" v="Hovdalsberget" />
		<tag k="natural" v="hill" />
		<tag k="place" v="locality" />
		<tag k="ssr:stedsnr" v="317549" />
	</node>
	<node id="-752710" lat="63.8262258582" lon="11.9573108313">
		<tag k="name" v="Ørtughøgda" />
		<tag k="natural" v="hill" />
		<tag k="place" v="locality" />
		<tag k="ssr:stedsnr" v="317498" />
	</node>
	<node id="-752707" lat="63.8610111085" lon="12.0129277837">
		<tag k="name" v="Tinnklumpan" />
		<tag k="natural" v="hill" />
		<tag k="place" v="locality" />
		<tag k="ssr:stedsnr" v="317475" />
	</node>
	<node id="-752706" lat="63.8557444454" lon="11.7332527876">
		<tag k="fixme" v="consider natural=peak for the most distinct mountains in the district" />
		<tag k="name" v="Geiskåsen" />
		<tag k="natural" v="hill" />
		<tag k="place" v="locality" />
		<tag k="ssr:stedsnr" v="317469" />
	</node>
	<node id="-752703" lat="63.768922222" lon="11.7695861026">
		<tag k="name" v="Tomtberget" />
		<tag k="natural" v="hill" />
		<tag k="place" v="locality" />
		<tag k="ssr:stedsnr" v="317589" />
	</node>
	<node id="-752702" lat="63.7684333309" lon="12.0935416697">
		<tag k="fixme" v="consider natural=peak for the most distinct mountains in the district" />
		<tag k="name" v="Litlfjellet" />
		<tag k="natural" v="hill" />
		<tag k="place" v="locality" />
		<tag k="ssr:stedsnr" v="317586" />
	</node>
	<node id="-752699" lat="63.8597749976" lon="11.8913305481">
		<tag k="fixme" v="consider natural=peak for the most distinct mountains in the district" />
		<tag k="name" v="Gabrielåsen" />
		<tag k="natural" v="hill" />
		<tag k="place" v="locality" />
		<tag k="ssr:stedsnr" v="317448" />
	</node>
	<node id="-752684" lat="63.7207833348" lon="11.7027499904">
		<tag k="name" v="Korsfuruhaugen" />
		<tag k="natural" v="hill" />
		<tag k="place" v="locality" />
		<tag k="ssr:stedsnr" v="316677" />
	</node>
	<node id="-751452" lat="63.7282500004" lon="11.889963891">
		<tag k="fixme" v="consider natural=peak for the most distinct mountains in the district" />
		<tag k="name" v="Brekka" />
		<tag k="natural" v="hill" />
		<tag k="place" v="locality" />
		<tag k="ssr:stedsnr" v="195320" />
	</node>
	<node id="-752670" lat="63.7918277813" lon="12.2255111143">
		<tag k="name" v="Rotbrekkhøgda" />
		<tag k="natural" v="hill" />
		<tag k="place" v="locality" />
		<tag k="ssr:stedsnr" v="208862" />
	</node>
	<node id="-752669" lat="63.8116277758" lon="12.2585138822">
		<tag k="fixme" v="consider natural=peak for the most distinct mountains in the district" />
		<tag k="name" v="Bringsåsen" />
		<tag k="natural" v="hill" />
		<tag k="place" v="locality" />
		<tag k="ssr:stedsnr" v="208861" />
	</node>
	<node id="-752667" lat="63.7509583321" lon="11.7217027815">
		<tag k="name" v="Skansberget" />
		<tag k="natural" v="hill" />
		<tag k="place" v="locality" />
		<tag k="ssr:stedsnr" v="208733" />
	</node>
	<node id="-752662" lat="63.8224999995" lon="11.5116555526">
		<tag k="fixme" v="consider natural=peak for the most distinct mountains in the district" />
		<tag k="name" v="Minsåsåsen" />
		<tag k="natural" v="hill" />
		<tag k="place" v="locality" />
		<tag k="ssr:stedsnr" v="207708" />
	</node>
	<node id="-752659" lat="63.7996222214" lon="11.8764000086">
		<tag k="name" v="Dråppåberget" />
		<tag k="natural" v="hill" />
		<tag k="place" v="locality" />
		<tag k="ssr:stedsnr" v="207652" />
	</node>
	<node id="-752658" lat="63.7681833368" lon="11.806755557">
		<tag k="name" v="Brannan" />
		<tag k="natural" v="hill" />
		<tag k="place" v="locality" />
		<tag k="ssr:stedsnr" v="207595" />
	</node>
	<node id="-752657" lat="63.8043222264" lon="11.867599991">
		<tag k="name" v="Lauvbueggen" />
		<tag k="natural" v="hill" />
		<tag k="place" v="locality" />
		<tag k="ssr:stedsnr" v="207591" />
	</node>
	<node id="-752654" lat="63.8110722179" lon="11.4607638962">
		<tag k="alt_name" v="Nordberghaugen" />
		<tag k="name" v="Nordbergshaugen" />
		<tag k="natural" v="hill" />
		<tag k="place" v="locality" />
		<tag k="ssr:stedsnr" v="207464" />
	</node>
	<node id="-752651" lat="63.818049996" lon="11.9924527865">
		<tag k="name" v="Nessiberga" />
		<tag k="natural" v="hill" />
		<tag k="place" v="locality" />
		<tag k="ssr:stedsnr" v="206829" />
	</node>
	<node id="-752650" lat="63.6819166707" lon="12.0706861038">
		<tag k="name" v="Sjululia" />
		<tag k="natural" v="slope" />
		<tag k="place" v="locality" />
		<tag k="ssr:stedsnr" v="206828" />
	</node>
	<node id="-752646" lat="63.8141444482" lon="11.9199166621">
		<tag k="fixme" v="consider natural=peak for the most distinct mountains in the district" />
		<tag k="name" v="Høgåsen" />
		<tag k="natural" v="hill" />
		<tag k="place" v="locality" />
		<tag k="ssr:stedsnr" v="206801" />
	</node>
	<node id="-752642" lat="63.7841666652" lon="11.8175416669">
		<tag k="name" v="Blåberget" />
		<tag k="natural" v="cliff" />
		<tag k="ssr:stedsnr" v="206632" />
	</node>
	<node id="-752641" lat="63.7780305548" lon="11.7679888886">
		<tag k="name" v="Husegga" />
		<tag k="natural" v="hill" />
		<tag k="place" v="locality" />
		<tag k="ssr:stedsnr" v="206625" />
	</node>
	<node id="-752637" lat="63.7857666662" lon="12.3892861104">
		<tag k="name" v="Tangberget" />
		<tag k="natural" v="hill" />
		<tag k="place" v="locality" />
		<tag k="ssr:stedsnr" v="196756" />
	</node>
	<node id="-752635" lat="63.7607805513" lon="11.9156666659">
		<tag k="fixme" v="consider natural=peak for the most distinct mountains in the district" />
		<tag k="name" v="Litlheggen" />
		<tag k="natural" v="hill" />
		<tag k="place" v="locality" />
		<tag k="ssr:stedsnr" v="196663" />
	</node>
	<node id="-752633" lat="63.831897222" lon="11.7417333394">
		<tag k="name" v="Fuglleikhaugen" />
		<tag k="natural" v="hill" />
		<tag k="place" v="locality" />
		<tag k="ssr:stedsnr" v="196496" />
	</node>
	<node id="-752632" lat="63.841688891" lon="12.1932611022">
		<tag k="fixme" v="consider natural=peak for the most distinct mountains in the district" />
		<tag k="name" v="Fagerlifjellet" />
		<tag k="natural" v="hill" />
		<tag k="place" v="locality" />
		<tag k="ssr:stedsnr" v="196495" />
	</node>
	<node id="-752628" lat="63.775113893" lon="11.8102250024">
		<tag k="name" v="Vassmyrberget" />
		<tag k="natural" v="hill" />
		<tag k="place" v="locality" />
		<tag k="ssr:stedsnr" v="196601" />
	</node>
	<node id="-752623" lat="63.7994833319" lon="12.1139722322">
		<tag k="name" v="Løysmundhøgda" />
		<tag k="natural" v="hill" />
		<tag k="place" v="locality" />
		<tag k="ssr:stedsnr" v="196554" />
	</node>
	<node id="-752605" lat="63.7388500007" lon="12.1268250095">
		<tag k="name" v="Merkesdalen" />
		<tag k="natural" v="valley" />
		<tag k="place" v="locality" />
		<tag k="ssr:stedsnr" v="195286" />
	</node>
	<node id="-752604" lat="63.7348916678" lon="11.9713361102">
		<tag k="fixme" v="consider natural=peak for the most distinct mountains in the district" />
		<tag k="name" v="Auskinvola" />
		<tag k="natural" v="hill" />
		<tag k="place" v="locality" />
		<tag k="ssr:stedsnr" v="195283" />
	</node>
	<node id="-752603" lat="63.6746249988" lon="12.1687305598">
		<tag k="name" v="Geilen" />
		<tag k="natural" v="valley" />
		<tag k="place" v="locality" />
		<tag k="ssr:stedsnr" v="195360" />
	</node>
	<node id="-752601" lat="63.7482472231" lon="12.2815222221">
		<tag k="name" v="Juldalshøgda" />
		<tag k="natural" v="hill" />
		<tag k="place" v="locality" />
		<tag k="ssr:stedsnr" v="195171" />
	</node>
	<node id="-752592" lat="63.7452083313" lon="11.573736105">
		<tag k="fixme" v="consider natural=peak for the most distinct mountains in the district" />
		<tag k="name" v="Stordalshøgda" />
		<tag k="natural" v="hill" />
		<tag k="place" v="locality" />
		<tag k="ssr:stedsnr" v="170770" />
	</node>
	<node id="-752587" lat="63.8757305534" lon="11.8243083259">
		<tag k="fixme" v="consider natural=peak for the most distinct mountains in the district" />
		<tag k="name" v="Bustadåsen" />
		<tag k="natural" v="hill" />
		<tag k="place" v="locality" />
		<tag k="ssr:stedsnr" v="170401" />
	</node>
	<node id="-752586" lat="63.8443888879" lon="11.7547138826">
		<tag k="name" v="Skeisvola" />
		<tag k="natural" v="hill" />
		<tag k="place" v="locality" />
		<tag k="ssr:stedsnr" v="170256" />
	</node>
	<node id="-752582" lat="63.7634916626" lon="11.8693222187">
		<tag k="name" v="Bjørndalen" />
		<tag k="natural" v="valley" />
		<tag k="place" v="locality" />
		<tag k="ssr:stedsnr" v="170085" />
	</node>
	<node id="-752581" lat="63.8052416645" lon="11.8187250022">
		<tag k="name" v="Svartåshaugen" />
		<tag k="natural" v="hill" />
		<tag k="place" v="locality" />
		<tag k="ssr:stedsnr" v="170082" />
	</node>
	<node id="-752579" lat="63.8052472248" lon="12.0845166597">
		<tag k="name" v="Styggdalen" />
		<tag k="natural" v="valley" />
		<tag k="place" v="locality" />
		<tag k="ssr:stedsnr" v="170455" />
	</node>
	<node id="-752574" lat="63.8117194457" lon="12.2725388837">
		<tag k="name" v="Kudalen" />
		<tag k="natural" v="valley" />
		<tag k="place" v="locality" />
		<tag k="ssr:stedsnr" v="147847" />
	</node>
	<node id="-752572" lat="63.6428805541" lon="12.2416138951">
		<tag k="name" v="Middagshaugen" />
		<tag k="natural" v="hill" />
		<tag k="place" v="locality" />
		<tag k="ssr:stedsnr" v="147839" />
	</node>
	<node id="-752569" lat="63.8130111067" lon="11.513544442">
		<tag k="name" v="Sørhaugsberga" />
		<tag k="natural" v="hill" />
		<tag k="place" v="locality" />
		<tag k="ssr:stedsnr" v="147686" />
	</node>
	<node id="-752564" lat="63.6868833358" lon="11.6061500026">
		<tag k="name" v="Smørkleppen" />
		<tag k="natural" v="hill" />
		<tag k="place" v="locality" />
		<tag k="ssr:stedsnr" v="146330" />
	</node>
	<node id="-752559" lat="63.9507805533" lon="12.6467305464">
		<tag k="fixme" v="consider natural=peak for the most distinct mountains in the district" />
		<tag k="name" v="Snjåametjahke" />
		<tag k="name:sma" v="Snjåametjahke" />
		<tag k="natural" v="hill" />
		<tag k="place" v="locality" />
		<tag k="ssr:stedsnr" v="141682" />
	</node>
	<node id="-752558" lat="63.7676361134" lon="12.2545055528">
		<tag k="name" v="Grønlihøgda" />
		<tag k="natural" v="hill" />
		<tag k="place" v="locality" />
		<tag k="ssr:stedsnr" v="135765" />
	</node>
	<node id="-752552" lat="63.948544449" lon="12.4099666594">
		<tag k="fixme" v="consider natural=peak for the most distinct mountains in the district" />
		<tag k="name" v="Tilhengaren" />
		<tag k="natural" v="hill" />
		<tag k="place" v="locality" />
		<tag k="ssr:stedsnr" v="135698" />
	</node>
	<node id="-752551" lat="63.9407111092" lon="12.3300777773">
		<tag k="fixme" v="consider natural=peak for the most distinct mountains in the district" />
		<tag k="name" v="Brattbakken" />
		<tag k="natural" v="hill" />
		<tag k="place" v="locality" />
		<tag k="ssr:stedsnr" v="135696" />
	</node>
	<node id="-752549" lat="63.8774638912" lon="12.2076138861">
		<tag k="fixme" v="consider natural=peak for the most distinct mountains in the district" />
		<tag k="name" v="Hardbakfjellet" />
		<tag k="natural" v="hill" />
		<tag k="place" v="locality" />
		<tag k="ssr:stedsnr" v="135495" />
	</node>
	<node id="-752546" lat="63.7963805596" lon="12.269219436">
		<tag k="name" v="Haldodalen" />
		<tag k="natural" v="valley" />
		<tag k="place" v="locality" />
		<tag k="ssr:stedsnr" v="135730" />
	</node>
	<node id="-751429" lat="63.8704944473" lon="11.9854222169">
		<tag k="name" v="Gravdalen" />
		<tag k="natural" v="valley" />
		<tag k="place" v="locality" />
		<tag k="ssr:stedsnr" v="170427" />
	</node>
	<node id="-752539" lat="63.8519055536" lon="11.975077782">
		<tag k="name" v="Grensslættet" />
		<tag k="place" v="locality" />
		<tag k="ssr:stedsnr" v="135479" />
	</node>
	<node id="-752529" lat="63.6043027763" lon="11.9749388917">
		<tag k="fixme" v="consider natural=peak for the most distinct mountains in the district" />
		<tag k="name" v="Tuva" />
		<tag k="natural" v="hill" />
		<tag k="place" v="locality" />
		<tag k="ssr:stedsnr" v="135336" />
	</node>
	<node id="-752523" lat="63.7855194448" lon="11.6580277765">
		<tag k="name" v="Leirådalen" />
		<tag k="natural" v="valley" />
		<tag k="place" v="locality" />
		<tag k="ssr:stedsnr" v="135244" />
	</node>
	<node id="-752519" lat="63.6232111111" lon="12.0063750042">
		<tag k="name" v="Skaffelia" />
		<tag k="natural" v="slope" />
		<tag k="place" v="locality" />
		<tag k="ssr:stedsnr" v="134391" />
	</node>
	<node id="-752515" lat="63.6654694456" lon="11.9641250092">
		<tag k="fixme" v="consider natural=peak for the most distinct mountains in the district" />
		<tag k="name" v="Småliin" />
		<tag k="natural" v="hill" />
		<tag k="place" v="locality" />
		<tag k="ssr:stedsnr" v="134351" />
	</node>
	<node id="-752513" lat="63.6977027737" lon="11.8879249985">
		<tag k="name" v="Kleivdalen" />
		<tag k="natural" v="valley" />
		<tag k="place" v="locality" />
		<tag k="ssr:stedsnr" v="134341" />
	</node>
	<node id="-752512" lat="63.6886972226" lon="11.7197388924">
		<tag k="fixme" v="consider natural=peak for the most distinct mountains in the district" />
		<tag k="name" v="Geitryggen" />
		<tag k="natural" v="hill" />
		<tag k="place" v="locality" />
		<tag k="ssr:stedsnr" v="134339" />
	</node>
	<node id="-752511" lat="63.7361055587" lon="11.8211416707">
		<tag k="fixme" v="consider natural=peak for the most distinct mountains in the district" />
		<tag k="name" v="Storbakken" />
		<tag k="natural" v="hill" />
		<tag k="place" v="locality" />
		<tag k="ssr:stedsnr" v="134332" />
	</node>
	<node id="-752504" lat="63.8386611134" lon="11.5347972199">
		<tag k="fixme" v="consider natural=peak for the most distinct mountains in the district" />
		<tag k="name" v="Brannåsen" />
		<tag k="natural" v="hill" />
		<tag k="place" v="locality" />
		<tag k="ssr:stedsnr" v="109992" />
	</node>
	<node id="-752493" lat="63.7265861086" lon="11.8584750043">
		<tag k="fixme" v="consider natural=peak for the most distinct mountains in the district" />
		<tag k="name" v="Svartåsen" />
		<tag k="natural" v="hill" />
		<tag k="place" v="locality" />
		<tag k="ssr:stedsnr" v="109043" />
	</node>
	<node id="-752487" lat="63.7263166694" lon="11.5772833313">
		<tag k="name" v="Dyrhaugen" />
		<tag k="natural" v="hill" />
		<tag k="place" v="locality" />
		<tag k="ssr:stedsnr" v="90922" />
	</node>
	<node id="-752482" lat="63.7895777776" lon="11.6108666589">
		<tag k="name" v="Follodalen" />
		<tag k="natural" v="valley" />
		<tag k="place" v="locality" />
		<tag k="ssr:stedsnr" v="86726" />
	</node>
	<node id="-752478" lat="63.8121583329" lon="11.6169999939">
		<tag k="name" v="Staurdalen" />
		<tag k="natural" v="valley" />
		<tag k="place" v="locality" />
		<tag k="ssr:stedsnr" v="86679" />
	</node>
	<node id="-752477" lat="63.8131277818" lon="11.6187277681">
		<tag k="name" v="Ausberget" />
		<tag k="natural" v="hill" />
		<tag k="place" v="locality" />
		<tag k="ssr:stedsnr" v="86677" />
	</node>
	<node id="-752476" lat="63.7500472189" lon="11.4994027793">
		<tag k="fixme" v="consider natural=peak for the most distinct mountains in the district" />
		<tag k="name" v="Støttåsen" />
		<tag k="natural" v="hill" />
		<tag k="place" v="locality" />
		<tag k="ssr:stedsnr" v="86556" />
	</node>
	<node id="-752475" lat="63.7550833336" lon="11.5025166741">
		<tag k="loc_name" v="Reinsberget" />
		<tag k="name" v="Reinsberg" />
		<tag k="natural" v="hill" />
		<tag k="place" v="locality" />
		<tag k="ssr:stedsnr" v="86537" />
	</node>
	<node id="-752472" lat="63.6682805538" lon="12.0934805578">
		<tag k="name" v="Drivahaugen" />
		<tag k="natural" v="hill" />
		<tag k="place" v="locality" />
		<tag k="ssr:stedsnr" v="85797" />
	</node>
	<node id="-752471" lat="63.8252777791" lon="11.882247228">
		<tag k="fixme" v="consider natural=peak for the most distinct mountains in the district" />
		<tag k="name" v="Kolstadåsen" />
		<tag k="natural" v="hill" />
		<tag k="place" v="locality" />
		<tag k="ssr:stedsnr" v="85591" />
	</node>
	<node id="-752469" lat="63.8234055541" lon="11.9498583412">
		<tag k="name" v="Elnesvåttån" />
		<tag k="natural" v="hill" />
		<tag k="place" v="locality" />
		<tag k="ssr:stedsnr" v="81458" />
	</node>
	<node id="-752466" lat="63.7810944424" lon="12.3120027778">
		<tag k="fixme" v="consider natural=peak for the most distinct mountains in the district" />
		<tag k="name" v="Bustadåsen" />
		<tag k="natural" v="hill" />
		<tag k="place" v="locality" />
		<tag k="ssr:stedsnr" v="75819" />
	</node>
	<node id="-752460" lat="63.7786472199" lon="12.1933749935">
		<tag k="fixme" v="consider natural=peak for the most distinct mountains in the district" />
		<tag k="name" v="Tørrgranvola" />
		<tag k="natural" v="hill" />
		<tag k="place" v="locality" />
		<tag k="ssr:stedsnr" v="75676" />
	</node>
	<node id="-752453" lat="63.836180556" lon="11.8707027874">
		<tag k="name" v="Evidalen" />
		<tag k="natural" v="valley" />
		<tag k="place" v="locality" />
		<tag k="ssr:stedsnr" v="75577" />
	</node>
	<node id="-752445" lat="63.8086638859" lon="11.6169888921">
		<tag k="fixme" v="multiple name tags, choose one and add the other to alt_name; consider natural=peak for the most distinct mountains in the district" />
		<tag k="name" v="Høgåsen;Lyngåsen" />
		<tag k="natural" v="hill" />
		<tag k="place" v="locality" />
		<tag k="ssr:stedsnr" v="75287" />
	</node>
	<node id="-752442" lat="63.9263388864" lon="12.2525833402">
		<tag k="name" v="Skjækerdalen" />
		<tag k="natural" v="valley" />
		<tag k="place" v="locality" />
		<tag k="ssr:stedsnr" v="74695" />
	</node>
	<node id="-752441" lat="63.9377222179" lon="12.3872500036">
		<tag k="fixme" v="multiple name tags, choose one and add the other to alt_name; consider natural=peak for the most distinct mountains in the district" />
		<tag k="name" v="Kvitrevvola;Stygghatten" />
		<tag k="natural" v="hill" />
		<tag k="place" v="locality" />
		<tag k="ssr:stedsnr" v="74693" />
	</node>
	<node id="-752439" lat="63.8825277734" lon="12.3060416729">
		<tag k="fixme" v="consider natural=peak for the most distinct mountains in the district" />
		<tag k="name" v="Storbekkryggen" />
		<tag k="natural" v="hill" />
		<tag k="place" v="locality" />
		<tag k="ssr:stedsnr" v="74686" />
	</node>
	<node id="-752433" lat="63.7131916689" lon="11.587566673">
		<tag k="fixme" v="consider natural=peak for the most distinct mountains in the district" />
		<tag k="name" v="Ramsåsen" />
		<tag k="natural" v="hill" />
		<tag k="place" v="locality" />
		<tag k="ssr:stedsnr" v="74579" />
	</node>
	<node id="-752432" lat="63.7064000013" lon="11.5772083357">
		<tag k="name" v="Bjørnstrupen" />
		<tag k="natural" v="valley" />
		<tag k="place" v="locality" />
		<tag k="ssr:stedsnr" v="74577" />
	</node>
	<node id="-752431" lat="63.703344443" lon="11.5963055496">
		<tag k="name" v="Byahøgda" />
		<tag k="natural" v="hill" />
		<tag k="place" v="locality" />
		<tag k="ssr:stedsnr" v="74560" />
	</node>
	<node id="-752430" lat="63.6795222214" lon="11.7081611202">
		<tag k="fixme" v="consider natural=peak for the most distinct mountains in the district" />
		<tag k="name" v="Stuskinvola" />
		<tag k="natural" v="hill" />
		<tag k="place" v="locality" />
		<tag k="ssr:stedsnr" v="74555" />
	</node>
	<node id="-752429" lat="63.8451555543" lon="11.786566676">
		<tag k="name" v="Revhaugen" />
		<tag k="natural" v="hill" />
		<tag k="place" v="locality" />
		<tag k="ssr:stedsnr" v="74521" />
	</node>
	<node id="-752427" lat="63.8899777779" lon="12.037375008">
		<tag k="name" v="Sagdalen" />
		<tag k="natural" v="valley" />
		<tag k="place" v="locality" />
		<tag k="ssr:stedsnr" v="74457" />
	</node>
	<node id="-752425" lat="63.8938666646" lon="11.9795555592">
		<tag k="fixme" v="consider natural=peak for the most distinct mountains in the district" />
		<tag k="name" v="Hærvola" />
		<tag k="natural" v="hill" />
		<tag k="place" v="locality" />
		<tag k="ssr:stedsnr" v="74435" />
	</node>
	<node id="-752422" lat="63.6671250033" lon="12.1490055503">
		<tag k="fixme" v="consider natural=peak for the most distinct mountains in the district" />
		<tag k="name" v="Hyllklumpen" />
		<tag k="natural" v="hill" />
		<tag k="place" v="locality" />
		<tag k="ssr:stedsnr" v="74332" />
	</node>
	<node id="-751409" lat="63.7654583371" lon="11.6856499986">
		<tag k="name" v="Kvelloberget" />
		<tag k="natural" v="hill" />
		<tag k="old_name" v="Kvellobergt" />
		<tag k="place" v="locality" />
		<tag k="ssr:stedsnr" v="146702" />
	</node>
	<node id="-752418" lat="63.6469055526" lon="12.0506527728">
		<tag k="fixme" v="consider natural=peak for the most distinct mountains in the district" />
		<tag k="name" v="Våttån" />
		<tag k="natural" v="hill" />
		<tag k="place" v="locality" />
		<tag k="ssr:stedsnr" v="74317" />
	</node>
	<node id="-752415" lat="63.7087249996" lon="12.013788893">
		<tag k="fixme" v="multiple name tags, choose one and add the other to alt_name; consider natural=peak for the most distinct mountains in the district" />
		<tag k="name" v="Malmslettknappen;Sognatjønnhaugen" />
		<tag k="natural" v="hill" />
		<tag k="place" v="locality" />
		<tag k="ssr:stedsnr" v="74291" />
	</node>
	<node id="-752403" lat="63.7241055559" lon="12.2381277834">
		<tag k="fixme" v="consider natural=peak for the most distinct mountains in the district" />
		<tag k="name" v="Bellingsvola" />
		<tag k="natural" v="hill" />
		<tag k="place" v="locality" />
		<tag k="ssr:stedsnr" v="74144" />
	</node>
	<node id="-752398" lat="63.8890361143" lon="11.6840138832">
		<tag k="name" v="Tusetdalen" />
		<tag k="natural" v="valley" />
		<tag k="place" v="locality" />
		<tag k="ssr:stedsnr" v="74072" />
	</node>
	<node id="-752397" lat="63.8919694477" lon="11.6929555569">
		<tag k="alt_name" v="Østerdalen" />
		<tag k="name" v="Øysterdalen" />
		<tag k="natural" v="valley" />
		<tag k="place" v="locality" />
		<tag k="ssr:stedsnr" v="74069" />
	</node>
	<node id="-752390" lat="63.7359888829" lon="11.8817606301">
		<tag k="fixme" v="consider natural=peak for the most distinct mountains in the district" />
		<tag k="name" v="Skavhauggvola" />
		<tag k="natural" v="hill" />
		<tag k="place" v="locality" />
		<tag k="ssr:stedsnr" v="73249" />
	</node>
	<node id="-752386" lat="63.6553666696" lon="11.6973916766">
		<tag k="name" v="Jensåsvola" />
		<tag k="natural" v="hill" />
		<tag k="place" v="locality" />
		<tag k="ssr:stedsnr" v="59986" />
	</node>
	<node id="-752384" lat="63.7448472207" lon="11.7086083398">
		<tag k="fixme" v="consider natural=peak for the most distinct mountains in the district" />
		<tag k="name" v="Bergylen" />
		<tag k="natural" v="hill" />
		<tag k="place" v="locality" />
		<tag k="ssr:stedsnr" v="49973" />
	</node>
	<node id="-752382" lat="63.7293277816" lon="11.7618944502">
		<tag k="name" v="Tverråmoan" />
		<tag k="place" v="locality" />
		<tag k="ssr:stedsnr" v="49069" />
	</node>
	<node id="-752381" lat="63.7200416684" lon="11.7971222144">
		<tag k="name" v="Styggdalen" />
		<tag k="natural" v="valley" />
		<tag k="place" v="locality" />
		<tag k="ssr:stedsnr" v="49059" />
	</node>
	<node id="-752380" lat="63.7411138908" lon="11.8520638891">
		<tag k="name" v="Snøfonndalshaugan" />
		<tag k="natural" v="hill" />
		<tag k="place" v="locality" />
		<tag k="ssr:stedsnr" v="49050" />
	</node>
	<node id="-752378" lat="63.6956583353" lon="11.8406694379">
		<tag k="alt_name" v="Havren nordre" />
		<tag k="fixme" v="consider natural=peak for the most distinct mountains in the district" />
		<tag k="name" v="Nordre Havren" />
		<tag k="natural" v="hill" />
		<tag k="ssr:stedsnr" v="49031" />
	</node>
	<node id="-752374" lat="63.7938111085" lon="11.6915777777">
		<tag k="fixme" v="consider natural=peak for the most distinct mountains in the district" />
		<tag k="name" v="Sagåsen" />
		<tag k="natural" v="hill" />
		<tag k="place" v="locality" />
		<tag k="ssr:stedsnr" v="48950" />
	</node>
	<node id="-751401" lat="63.7201111067" lon="11.6165777873">
		<tag k="fixme" v="consider natural=peak for the most distinct mountains in the district" />
		<tag k="name" v="Sagåsen" />
		<tag k="natural" v="hill" />
		<tag k="place" v="locality" />
		<tag k="ssr:stedsnr" v="272930" />
	</node>
	<node id="-752371" lat="63.8759027765" lon="11.7348694368">
		<tag k="fixme" v="consider natural=peak for the most distinct mountains in the district" />
		<tag k="name" v="Mauråsen" />
		<tag k="natural" v="hill" />
		<tag k="place" v="locality" />
		<tag k="ssr:stedsnr" v="48531" />
	</node>
	<node id="-752370" lat="63.8416194465" lon="12.2531611035">
		<tag k="name" v="Storbekkdalen" />
		<tag k="natural" v="valley" />
		<tag k="place" v="locality" />
		<tag k="ssr:stedsnr" v="48411" />
	</node>
	<node id="-752369" lat="63.6560666692" lon="11.962297227">
		<tag k="name" v="Risvasshaugen" />
		<tag k="natural" v="hill" />
		<tag k="place" v="locality" />
		<tag k="ssr:stedsnr" v="48355" />
	</node>
	<node id="-752366" lat="63.7812500031" lon="11.8674999922">
		<tag k="name" v="Lauvhaugan" />
		<tag k="natural" v="hill" />
		<tag k="place" v="locality" />
		<tag k="ssr:stedsnr" v="48058" />
	</node>
	<node id="-752353" lat="63.7675527751" lon="11.8160194498">
		<tag k="name" v="Stokkberget" />
		<tag k="natural" v="hill" />
		<tag k="place" v="locality" />
		<tag k="ssr:stedsnr" v="25637" />
	</node>
	<node id="-752346" lat="63.8084416656" lon="11.4567611129">
		<tag k="name" v="Fallet" />
		<tag k="place" v="locality" />
		<tag k="ssr:stedsnr" v="25491" />
	</node>
	<node id="-752341" lat="63.6901805587" lon="11.9739027703">
		<tag k="fixme" v="consider natural=peak for the most distinct mountains in the district" />
		<tag k="name" v="Badstuåsan" />
		<tag k="natural" v="hill" />
		<tag k="place" v="locality" />
		<tag k="ssr:stedsnr" v="24825" />
	</node>
	<node id="-752339" lat="63.6751138846" lon="11.9880222315">
		<tag k="name" v="Kvennbruhaugen" />
		<tag k="natural" v="hill" />
		<tag k="place" v="locality" />
		<tag k="ssr:stedsnr" v="24815" />
	</node>
	<node id="-752338" lat="63.8331999964" lon="11.9447638986">
		<tag k="name" v="Svartdalen" />
		<tag k="natural" v="valley" />
		<tag k="place" v="locality" />
		<tag k="ssr:stedsnr" v="24812" />
	</node>
	<node id="-752337" lat="63.8375111081" lon="11.908758328">
		<tag k="name" v="Sagvollberga" />
		<tag k="natural" v="hill" />
		<tag k="place" v="locality" />
		<tag k="ssr:stedsnr" v="24806" />
	</node>
	<node id="-752336" lat="63.7862583344" lon="11.8055472189">
		<tag k="name" v="Liin" />
		<tag k="natural" v="slope" />
		<tag k="place" v="locality" />
		<tag k="ssr:stedsnr" v="24658" />
	</node>
	<node id="-752335" lat="63.8588055594" lon="11.6012166757">
		<tag k="name" v="Høgberga" />
		<tag k="natural" v="hill" />
		<tag k="place" v="locality" />
		<tag k="ssr:stedsnr" v="22696" />
	</node>
	<node id="-752334" lat="63.9244694403" lon="12.3487472207">
		<tag k="name" v="Gierkietjahkh" />
		<tag k="name:sma" v="Gierkietjahkh" />
		<tag k="natural" v="mountain_range" />
		<tag k="ssr:stedsnr" v="20835" />
	</node>
	<node id="-752331" lat="63.771941668" lon="12.4053472245">
		<tag k="name" v="Vargholet" />
		<tag k="natural" v="hill" />
		<tag k="place" v="locality" />
		<tag k="ssr:stedsnr" v="14762" />
	</node>
	<node id="-752329" lat="63.8273583372" lon="12.2951500079">
		<tag k="fixme" v="consider natural=peak for the most distinct mountains in the district" />
		<tag k="name" v="Svensklunåsen" />
		<tag k="natural" v="hill" />
		<tag k="place" v="locality" />
		<tag k="ssr:stedsnr" v="14696" />
	</node>
	<node id="-752320" lat="63.8415222252" lon="12.0359500043">
		<tag k="fixme" v="consider natural=peak for the most distinct mountains in the district" />
		<tag k="name" v="Høgåsen" />
		<tag k="natural" v="hill" />
		<tag k="place" v="locality" />
		<tag k="ssr:stedsnr" v="14490" />
	</node>
	<node id="-752317" lat="63.8249555598" lon="11.7259722295">
		<tag k="name" v="Brannan" />
		<tag k="natural" v="hill" />
		<tag k="place" v="locality" />
		<tag k="ssr:stedsnr" v="14476" />
	</node>
	<node id="-751391" lat="63.7869083343" lon="11.6764833382">
		<tag k="name" v="Klokkhusberget" />
		<tag k="natural" v="hill" />
		<tag k="place" v="locality" />
		<tag k="ssr:stedsnr" v="268639" />
	</node>
	<node id="-752308" lat="63.790905369" lon="11.9432912461">
		<tag k="name" v="Raudkolla" />
		<tag k="natural" v="hill" />
		<tag k="place" v="locality" />
		<tag k="ssr:stedsnr" v="14549" />
	</node>
	<node id="-752297" lat="63.8284361079" lon="11.5473138795">
		<tag k="alt_name" v="Våttåhaugen" />
		<tag k="fixme" v="consider natural=peak for the most distinct mountains in the district" />
		<tag k="loc_name" v="Okkulshaugen" />
		<tag k="name" v="Okkulshaug" />
		<tag k="natural" v="hill" />
		<tag k="place" v="locality" />
		<tag k="ssr:stedsnr" v="14187" />
	</node>
	<node id="-752285" lat="63.7078416673" lon="11.6549472175">
		<tag k="name" v="Steikpannvola" />
		<tag k="natural" v="hill" />
		<tag k="place" v="locality" />
		<tag k="ssr:stedsnr" v="13576" />
	</node>
	<node id="-752282" lat="63.6066249996" lon="11.9494138948">
		<tag k="fixme" v="consider natural=peak for the most distinct mountains in the district" />
		<tag k="name" v="Kråkfjellet - Voerhtjevaerie" />
		<tag k="name:no" v="Kråkfjellet" />
		<tag k="name:sma" v="Voerhtjevaerie" />
		<tag k="natural" v="hill" />
		<tag k="place" v="locality" />
		<tag k="ssr:stedsnr" v="13370" />
	</node>
	<node id="-752274" lat="63.7382805538" lon="12.0692833314">
		<tag k="name" v="Fagerlia" />
		<tag k="natural" v="slope" />
		<tag k="place" v="locality" />
		<tag k="ssr:stedsnr" v="13276" />
	</node>
	<node id="-752272" lat="63.8567305538" lon="11.6847999943">
		<tag k="name" v="Lauvhaugen" />
		<tag k="natural" v="hill" />
		<tag k="place" v="locality" />
		<tag k="ssr:stedsnr" v="13150" />
	</node>
	<node id="-752271" lat="63.6712083327" lon="11.9351944521">
		<tag k="name" v="Mohaugen" />
		<tag k="natural" v="hill" />
		<tag k="place" v="locality" />
		<tag k="ssr:stedsnr" v="13335" />
	</node>
	<node id="-752262" lat="63.746077778" lon="11.4713027774">
		<tag k="name" v="Elvberget" />
		<tag k="natural" v="hill" />
		<tag k="place" v="locality" />
		<tag k="ssr:stedsnr" v="939978" />
	</node>
	<node id="-751381" lat="63.8348166708" lon="12.2542527709">
		<tag k="name" v="Hommelberget" />
		<tag k="natural" v="hill" />
		<tag k="place" v="locality" />
		<tag k="ssr:stedsnr" v="135719" />
	</node>
	<node id="-752248" lat="63.8272027742" lon="12.0598444542">
		<tag k="name" v="Litldjupdalen" />
		<tag k="natural" v="valley" />
		<tag k="place" v="locality" />
		<tag k="ssr:stedsnr" v="935837" />
	</node>
	<node id="-752247" lat="63.6779361069" lon="12.0779611203">
		<tag k="name" v="Hederlia" />
		<tag k="natural" v="slope" />
		<tag k="place" v="locality" />
		<tag k="ssr:stedsnr" v="935824" />
	</node>
	<node id="-752242" lat="63.8399083306" lon="12.4861805611">
		<tag k="fixme" v="consider natural=peak for the most distinct mountains in the district" />
		<tag k="name" v="Daudvassåsan" />
		<tag k="natural" v="hill" />
		<tag k="place" v="locality" />
		<tag k="ssr:stedsnr" v="924713" />
	</node>
	<node id="-752237" lat="63.742655554" lon="11.7077388824">
		<tag k="fixme" v="multiple name tags, choose one and add the other to alt_name" />
		<tag k="name" v="Bergugleberget;Skogrøvaren" />
		<tag k="natural" v="hill" />
		<tag k="place" v="locality" />
		<tag k="ssr:stedsnr" v="923687" />
	</node>
	<node id="-752236" lat="63.7347027818" lon="11.6840555459">
		<tag k="fixme" v="multiple name tags, choose one and add the other to alt_name" />
		<tag k="name" v="Bjølloberget;Skreppåsen" />
		<tag k="natural" v="hill" />
		<tag k="place" v="locality" />
		<tag k="ssr:stedsnr" v="923660" />
	</node>
	<node id="-752233" lat="63.7034638875" lon="11.8912611024">
		<tag k="name" v="Tråssåliåsan" />
		<tag k="natural" v="slope" />
		<tag k="place" v="locality" />
		<tag k="ssr:stedsnr" v="898370" />
	</node>
	<node id="-752230" lat="63.6563555514" lon="11.9875222222">
		<tag k="name" v="Nonshaugen" />
		<tag k="natural" v="hill" />
		<tag k="place" v="locality" />
		<tag k="ssr:stedsnr" v="898408" />
	</node>
	<node id="-752229" lat="63.8768777766" lon="11.9610277837">
		<tag k="name" v="Botnberga" />
		<tag k="natural" v="ridge" />
		<tag k="place" v="locality" />
		<tag k="ssr:stedsnr" v="897357" />
	</node>
	<node id="-752225" lat="63.7796944423" lon="11.5152750016">
		<tag k="name" v="Byafalla" />
		<tag k="natural" v="slope" />
		<tag k="place" v="locality" />
		<tag k="ssr:stedsnr" v="875659" />
	</node>
	<node id="-752222" lat="63.671033336" lon="11.992480564">
		<tag k="name" v="Låkåberget" />
		<tag k="natural" v="hill" />
		<tag k="place" v="locality" />
		<tag k="ssr:stedsnr" v="874822" />
	</node>
	<node id="-752221" lat="63.7740222233" lon="11.8024305486">
		<tag k="name" v="Raudmyrhevilen" />
		<tag k="natural" v="hill" />
		<tag k="place" v="locality" />
		<tag k="ssr:stedsnr" v="874674" />
	</node>
	<node id="-752219" lat="63.822388885" lon="11.84861389">
		<tag k="name" v="Hauganskardet" />
		<tag k="natural" v="valley" />
		<tag k="place" v="locality" />
		<tag k="ssr:stedsnr" v="874662" />
	</node>
	<node id="-752218" lat="63.788266666" lon="11.793433332">
		<tag k="name" v="Ågemoberget" />
		<tag k="natural" v="hill" />
		<tag k="place" v="locality" />
		<tag k="ssr:stedsnr" v="874660" />
	</node>
	<node id="-752216" lat="63.8430305591" lon="12.2776305595">
		<tag k="fixme" v="consider natural=peak for the most distinct mountains in the district" />
		<tag k="name" v="Tverråhøgda" />
		<tag k="natural" v="hill" />
		<tag k="place" v="locality" />
		<tag k="ssr:stedsnr" v="863745" />
	</node>
	<node id="-752213" lat="63.9278166625" lon="12.3259527709">
		<tag k="fixme" v="consider natural=peak for the most distinct mountains in the district" />
		<tag k="name" v="Breivola" />
		<tag k="natural" v="hill" />
		<tag k="place" v="locality" />
		<tag k="ssr:stedsnr" v="863706" />
	</node>
	<node id="-752212" lat="63.9348055563" lon="12.4275722287">
		<tag k="name" v="Skjækerfjella - Skæhkere" />
		<tag k="name:no" v="Skjækerfjella" />
		<tag k="name:sma" v="Skæhkere" />
		<tag k="natural" v="mountain_range" />
		<tag k="ssr:stedsnr" v="863705" />
	</node>
	<node id="-752206" lat="63.7448694483" lon="11.8318888853">
		<tag k="name" v="Brannhaugen" />
		<tag k="natural" v="hill" />
		<tag k="place" v="locality" />
		<tag k="ssr:stedsnr" v="838053" />
	</node>
	<node id="-752204" lat="63.7626277785" lon="11.8443527852">
		<tag k="name" v="Tømmerdalen" />
		<tag k="natural" v="valley" />
		<tag k="place" v="locality" />
		<tag k="ssr:stedsnr" v="838107" />
	</node>
	<node id="-752203" lat="63.8127749968" lon="11.703158326">
		<tag k="name" v="Rybergdalen" />
		<tag k="natural" v="valley" />
		<tag k="place" v="locality" />
		<tag k="ssr:stedsnr" v="837956" />
	</node>
	<node id="-752201" lat="63.7078805553" lon="11.8371000065">
		<tag k="name" v="Årberga" />
		<tag k="natural" v="hill" />
		<tag k="place" v="locality" />
		<tag k="ssr:stedsnr" v="838008" />
	</node>
	<node id="-752200" lat="63.7140805535" lon="11.8758888905">
		<tag k="name" v="Brenbergklompen" />
		<tag k="natural" v="hill" />
		<tag k="place" v="locality" />
		<tag k="ssr:stedsnr" v="838007" />
	</node>
	<node id="-752192" lat="63.7685638913" lon="11.4901805543">
		<tag k="name" v="Bergshaugen" />
		<tag k="natural" v="hill" />
		<tag k="place" v="locality" />
		<tag k="ssr:stedsnr" v="936502" />
	</node>
	<node id="-752189" lat="63.80264444" lon="11.9141527803">
		<tag k="name" v="Trongberga" />
		<tag k="natural" v="hill" />
		<tag k="place" v="locality" />
		<tag k="ssr:stedsnr" v="935802" />
	</node>
	<node id="-752186" lat="63.78207778" lon="11.8079027726">
		<tag k="name" v="Skytvollen" />
		<tag k="place" v="locality" />
		<tag k="ssr:stedsnr" v="935674" />
	</node>
	<node id="-752184" lat="63.8311472259" lon="11.871127787">
		<tag k="name" v="Kudalen" />
		<tag k="natural" v="valley" />
		<tag k="place" v="locality" />
		<tag k="ssr:stedsnr" v="935664" />
	</node>
	<node id="-751369" lat="63.8322916701" lon="11.8081527852">
		<tag k="name" v="Seterdalen" />
		<tag k="natural" v="valley" />
		<tag k="place" v="locality" />
		<tag k="ssr:stedsnr" v="135524" />
	</node>
	<node id="-752180" lat="63.8698305584" lon="11.6433888799">
		<tag k="name" v="Brannåsen" />
		<tag k="natural" v="hill" />
		<tag k="place" v="locality" />
		<tag k="ssr:stedsnr" v="933695" />
	</node>
	<node id="-752178" lat="63.6455611156" lon="12.202586107">
		<tag k="fixme" v="consider natural=peak for the most distinct mountains in the district" />
		<tag k="name" v="Godbekkrabban" />
		<tag k="natural" v="hill" />
		<tag k="place" v="locality" />
		<tag k="ssr:stedsnr" v="814858" />
	</node>
	<node id="-752166" lat="63.8659083361" lon="11.6935138933">
		<tag k="name" v="Steindalen" />
		<tag k="natural" v="valley" />
		<tag k="place" v="locality" />
		<tag k="ssr:stedsnr" v="803170" />
	</node>
	<node id="-752165" lat="63.8609944411" lon="11.5243694512">
		<tag k="fixme" v="consider natural=peak for the most distinct mountains in the district" />
		<tag k="name" v="Marsteinsvola" />
		<tag k="natural" v="hill" />
		<tag k="place" v="locality" />
		<tag k="ssr:stedsnr" v="803166" />
	</node>
	<node id="-752156" lat="63.777941663" lon="12.4216666611">
		<tag k="alt_name" v="Fuglleikhaugen" />
		<tag k="name" v="Kronmyrhaugen" />
		<tag k="natural" v="hill" />
		<tag k="place" v="locality" />
		<tag k="ssr:stedsnr" v="924761" />
	</node>
	<node id="-752155" lat="63.7844499973" lon="12.4301749962">
		<tag k="name" v="Hansdalen" />
		<tag k="natural" v="valley" />
		<tag k="place" v="locality" />
		<tag k="ssr:stedsnr" v="924760" />
	</node>
	<node id="-752154" lat="63.806002776" lon="12.4397416743">
		<tag k="name" v="Hanshaugen" />
		<tag k="natural" v="hill" />
		<tag k="place" v="locality" />
		<tag k="ssr:stedsnr" v="924749" />
	</node>
	<node id="-752153" lat="63.7845944419" lon="12.2933833268">
		<tag k="fixme" v="consider natural=peak for the most distinct mountains in the district" />
		<tag k="name" v="Brotta" />
		<tag k="natural" v="hill" />
		<tag k="place" v="locality" />
		<tag k="ssr:stedsnr" v="924741" />
	</node>
	<node id="-752152" lat="63.8019888912" lon="12.234472213">
		<tag k="name" v="Lauvhaugan" />
		<tag k="natural" v="hill" />
		<tag k="place" v="locality" />
		<tag k="ssr:stedsnr" v="924739" />
	</node>
	<node id="-752150" lat="63.8925333294" lon="12.2214083254">
		<tag k="fixme" v="consider natural=peak for the most distinct mountains in the district" />
		<tag k="name" v="Litlvola" />
		<tag k="natural" v="hill" />
		<tag k="place" v="locality" />
		<tag k="ssr:stedsnr" v="924678" />
	</node>
	<node id="-752147" lat="63.7842027736" lon="11.8341083361">
		<tag k="name" v="Blåberget" />
		<tag k="natural" v="hill" />
		<tag k="place" v="locality" />
		<tag k="ssr:stedsnr" v="924635" />
	</node>
	<node id="-752142" lat="63.7674083358" lon="12.1717888865">
		<tag k="name" v="Kulstadhaugen" />
		<tag k="natural" v="hill" />
		<tag k="place" v="locality" />
		<tag k="ssr:stedsnr" v="924610" />
	</node>
	<node id="-752137" lat="63.8103472255" lon="11.7860305651">
		<tag k="name" v="Bjørnholberget" />
		<tag k="natural" v="hill" />
		<tag k="place" v="locality" />
		<tag k="ssr:stedsnr" v="924541" />
	</node>
	<node id="-752135" lat="63.8399861069" lon="11.901080545">
		<tag k="name" v="Marktjønnhøgda" />
		<tag k="natural" v="hill" />
		<tag k="place" v="locality" />
		<tag k="ssr:stedsnr" v="924527" />
	</node>
	<node id="-752128" lat="63.8805500042" lon="12.1483694419">
		<tag k="name" v="Kolstaddalsflåa" />
		<tag k="place" v="locality" />
		<tag k="ssr:stedsnr" v="924428" />
	</node>
	<node id="-752127" lat="63.9090611127" lon="12.1286555536">
		<tag k="name" v="Kolstadklumpen" />
		<tag k="natural" v="hill" />
		<tag k="place" v="locality" />
		<tag k="ssr:stedsnr" v="924418" />
	</node>
	<node id="-752125" lat="63.8987305535" lon="12.0981833314">
		<tag k="fixme" v="consider natural=peak for the most distinct mountains in the district" />
		<tag k="name" v="Sagvollvola" />
		<tag k="natural" v="hill" />
		<tag k="place" v="locality" />
		<tag k="ssr:stedsnr" v="924411" />
	</node>
	<node id="-751359" lat="63.7863333327" lon="11.8015138883">
		<tag k="name" v="Nordsvehaugen" />
		<tag k="natural" v="hill" />
		<tag k="place" v="locality" />
		<tag k="ssr:stedsnr" v="267645" />
	</node>
	<node id="-752116" lat="63.6125916666" lon="12.0611833255">
		<tag k="fixme" v="consider natural=peak for the most distinct mountains in the district" />
		<tag k="name" v="Raudvola" />
		<tag k="natural" v="hill" />
		<tag k="place" v="locality" />
		<tag k="ssr:stedsnr" v="924301" />
	</node>
	<node id="-752113" lat="63.659163889" lon="12.0494833422">
		<tag k="name" v="Ådalsberget" />
		<tag k="natural" v="hill" />
		<tag k="place" v="locality" />
		<tag k="ssr:stedsnr" v="924289" />
	</node>
	<node id="-751357" lat="63.7842888856" lon="11.784297212">
		<tag k="fixme" v="consider natural=peak for the most distinct mountains in the district" />
		<tag k="name" v="Høgåsen" />
		<tag k="natural" v="hill" />
		<tag k="place" v="locality" />
		<tag k="ssr:stedsnr" v="267627" />
	</node>
	<node id="-752108" lat="63.8047638915" lon="11.6329611044">
		<tag k="fixme" v="consider natural=peak for the most distinct mountains in the district" />
		<tag k="name" v="Blommen" />
		<tag k="natural" v="hill" />
		<tag k="place" v="locality" />
		<tag k="ssr:stedsnr" v="924271" />
	</node>
	<node id="-752104" lat="63.8038694488" lon="11.7041666649">
		<tag k="name" v="Skrovesvola" />
		<tag k="natural" v="hill" />
		<tag k="place" v="locality" />
		<tag k="ssr:stedsnr" v="924253" />
	</node>
	<node id="-752094" lat="63.860275003" lon="11.6884361206">
		<tag k="name" v="Tjelderdalen" />
		<tag k="natural" v="valley" />
		<tag k="place" v="locality" />
		<tag k="ssr:stedsnr" v="924127" />
	</node>
	<node id="-752091" lat="63.7281611152" lon="11.6962416746">
		<tag k="name" v="Rotbrekka" />
		<tag k="natural" v="hill" />
		<tag k="place" v="locality" />
		<tag k="ssr:stedsnr" v="923648" />
	</node>
	<node id="-752075" lat="63.8231472193" lon="11.7810083431">
		<tag k="name" v="Staurdalen" />
		<tag k="natural" v="valley" />
		<tag k="place" v="locality" />
		<tag k="ssr:stedsnr" v="777119" />
	</node>
	<node id="-752074" lat="63.8531000029" lon="11.7785416631">
		<tag k="name" v="Heggdalen" />
		<tag k="natural" v="valley" />
		<tag k="place" v="locality" />
		<tag k="ssr:stedsnr" v="777106" />
	</node>
	<node id="-752066" lat="63.8118666669" lon="12.3565416709">
		<tag k="name" v="Storbjørklia" />
		<tag k="natural" v="slope" />
		<tag k="place" v="locality" />
		<tag k="ssr:stedsnr" v="742719" />
	</node>
	<node id="-752063" lat="63.755841671" lon="11.7589972302">
		<tag k="name" v="Strandberget" />
		<tag k="natural" v="hill" />
		<tag k="place" v="locality" />
		<tag k="ssr:stedsnr" v="742605" />
	</node>
	<node id="-752061" lat="63.807883334" lon="11.6263444419">
		<tag k="name" v="Strupdalen" />
		<tag k="natural" v="valley" />
		<tag k="place" v="locality" />
		<tag k="ssr:stedsnr" v="742258" />
	</node>
	<node id="-751258" lat="63.8585333313" lon="11.694508339">
		<tag k="name" v="Høtthaugan" />
		<tag k="natural" v="hill" />
		<tag k="place" v="locality" />
		<tag k="ssr:stedsnr" v="230550" />
	</node>
	<node id="-752053" lat="63.8261194421" lon="11.7101999917">
		<tag k="name" v="Sendesbrannen" />
		<tag k="natural" v="hill" />
		<tag k="place" v="locality" />
		<tag k="ssr:stedsnr" v="742205" />
	</node>
	<node id="-752051" lat="63.658091663" lon="11.6046583264">
		<tag k="fixme" v="consider natural=peak for the most distinct mountains in the district" />
		<tag k="name" v="Kammarknoppen" />
		<tag k="natural" v="hill" />
		<tag k="ssr:stedsnr" v="741614" />
	</node>
	<node id="-752046" lat="63.7387277781" lon="11.9495416593">
		<tag k="name" v="Kverndalen" />
		<tag k="natural" v="valley" />
		<tag k="place" v="locality" />
		<tag k="ssr:stedsnr" v="741305" />
	</node>
	<node id="-752040" lat="63.8315611117" lon="11.6900972189">
		<tag k="name" v="Finkoidalen" />
		<tag k="natural" v="valley" />
		<tag k="place" v="locality" />
		<tag k="ssr:stedsnr" v="898938" />
	</node>
	<node id="-752038" lat="63.6994361091" lon="11.6549111141">
		<tag k="fixme" v="consider natural=peak for the most distinct mountains in the district" />
		<tag k="name" v="Bjartnesvola" />
		<tag k="natural" v="hill" />
		<tag k="place" v="locality" />
		<tag k="ssr:stedsnr" v="898988" />
	</node>
	<node id="-752033" lat="63.8495694456" lon="11.498725008">
		<tag k="name" v="Yssedalen" />
		<tag k="natural" v="valley" />
		<tag k="place" v="locality" />
		<tag k="ssr:stedsnr" v="716988" />
	</node>
	<node id="-752026" lat="63.8814833325" lon="12.0245888989">
		<tag k="name" v="Tyvdalen" />
		<tag k="natural" v="valley" />
		<tag k="place" v="locality" />
		<tag k="ssr:stedsnr" v="716426" />
	</node>
	<node id="-752024" lat="63.7219555519" lon="11.7686694364">
		<tag k="name" v="Geitbakkan" />
		<tag k="natural" v="slope" />
		<tag k="place" v="locality" />
		<tag k="ssr:stedsnr" v="716012" />
	</node>
	<node id="-752022" lat="63.7212583293" lon="11.8607944381">
		<tag k="name" v="Smidalen" />
		<tag k="natural" v="valley" />
		<tag k="place" v="locality" />
		<tag k="ssr:stedsnr" v="716004" />
	</node>
	<node id="-752013" lat="63.8039611085" lon="12.4224249958">
		<tag k="fixme" v="consider natural=peak for the most distinct mountains in the district" />
		<tag k="name" v="Stormyråsen" />
		<tag k="natural" v="hill" />
		<tag k="place" v="locality" />
		<tag k="ssr:stedsnr" v="693858" />
	</node>
	<node id="-752011" lat="63.7768722219" lon="11.7416111121">
		<tag k="name" v="Blåhaugen" />
		<tag k="natural" v="hill" />
		<tag k="place" v="locality" />
		<tag k="ssr:stedsnr" v="693657" />
	</node>
	<node id="-752009" lat="63.8290611129" lon="11.9607777774">
		<tag k="name" v="Bantjønndalen" />
		<tag k="natural" v="valley" />
		<tag k="place" v="locality" />
		<tag k="ssr:stedsnr" v="692804" />
	</node>
	<node id="-752007" lat="63.790761112" lon="11.7935083292">
		<tag k="name" v="Slettdalen" />
		<tag k="natural" v="valley" />
		<tag k="place" v="locality" />
		<tag k="ssr:stedsnr" v="692662" />
	</node>
	<node id="-752006" lat="63.775141668" lon="11.7886555479">
		<tag k="name" v="Brakstaden" />
		<tag k="natural" v="ridge" />
		<tag k="place" v="locality" />
		<tag k="ssr:stedsnr" v="692653" />
	</node>
	<node id="-752005" lat="63.9663472182" lon="12.5818583234">
		<tag k="name" v="Oksbakkan - Tjolledhgaske" />
		<tag k="name:no" v="Oksbakkan" />
		<tag k="name:sma" v="Tjolledhgaske" />
		<tag k="natural" v="slope" />
		<tag k="place" v="locality" />
		<tag k="ssr:stedsnr" v="681712" />
	</node>
	<node id="-752004" lat="63.9245000036" lon="12.275616669">
		<tag k="fixme" v="consider natural=peak for the most distinct mountains in the district" />
		<tag k="loc_name" v="Skjækjervola" />
		<tag k="name" v="Skjækervola" />
		<tag k="natural" v="hill" />
		<tag k="place" v="locality" />
		<tag k="ssr:stedsnr" v="681711" />
	</node>
	<node id="-752003" lat="63.9017305538" lon="12.4368722296">
		<tag k="fixme" v="consider natural=peak for the most distinct mountains in the district" />
		<tag k="name" v="Hestryggen" />
		<tag k="natural" v="hill" />
		<tag k="place" v="locality" />
		<tag k="ssr:stedsnr" v="681706" />
	</node>
	<node id="-752000" lat="63.7852750043" lon="12.0724000086">
		<tag k="name" v="Tjønnmyrhevilen" />
		<tag k="natural" v="hill" />
		<tag k="place" v="locality" />
		<tag k="ssr:stedsnr" v="681654" />
	</node>
	<node id="-751998" lat="63.7973722201" lon="12.08495278">
		<tag k="fixme" v="consider natural=peak for the most distinct mountains in the district" />
		<tag k="name" v="Snusvola" />
		<tag k="natural" v="hill" />
		<tag k="place" v="locality" />
		<tag k="ssr:stedsnr" v="681609" />
	</node>
	<node id="-751993" lat="63.8463749983" lon="11.8236805532">
		<tag k="name" v="Kluksdalen" />
		<tag k="natural" v="valley" />
		<tag k="place" v="locality" />
		<tag k="ssr:stedsnr" v="681507" />
	</node>
	<node id="-751992" lat="63.8499527744" lon="11.8663749943">
		<tag k="fixme" v="consider natural=peak for the most distinct mountains in the district" />
		<tag k="name" v="Skjellheia" />
		<tag k="natural" v="hill" />
		<tag k="place" v="locality" />
		<tag k="ssr:stedsnr" v="681506" />
	</node>
	<node id="-751988" lat="63.654933337" lon="11.7881333422">
		<tag k="fixme" v="consider natural=peak for the most distinct mountains in the district" />
		<tag k="name" v="Litlhavren" />
		<tag k="natural" v="hill" />
		<tag k="place" v="locality" />
		<tag k="ssr:stedsnr" v="681316" />
	</node>
	<node id="-751987" lat="63.6573805521" lon="12.1419999966">
		<tag k="alt_name" v="Saugklompen" />
		<tag k="name" v="Saugklumpen" />
		<tag k="natural" v="hill" />
		<tag k="place" v="locality" />
		<tag k="ssr:stedsnr" v="681305" />
	</node>
	<node id="-751982" lat="63.6438361153" lon="11.6599527703">
		<tag k="name" v="Haugsvola" />
		<tag k="natural" v="hill" />
		<tag k="place" v="locality" />
		<tag k="ssr:stedsnr" v="680569" />
	</node>
	<node id="-751975" lat="63.7461472183" lon="11.7893472131">
		<tag k="name" v="Skansen" />
		<tag k="natural" v="hill" />
		<tag k="place" v="locality" />
		<tag k="ssr:stedsnr" v="655060" />
	</node>
	<node id="-751972" lat="63.8147111142" lon="11.5177138796">
		<tag k="name" v="Sørhaugsberget" />
		<tag k="natural" v="hill" />
		<tag k="place" v="locality" />
		<tag k="ssr:stedsnr" v="632706" />
	</node>
	<node id="-751970" lat="63.8080055575" lon="11.8452972199">
		<tag k="name" v="Brudalen" />
		<tag k="natural" v="valley" />
		<tag k="place" v="locality" />
		<tag k="ssr:stedsnr" v="632653" />
	</node>
	<node id="-751969" lat="63.7734888879" lon="11.8067611112">
		<tag k="name" v="Rognberget" />
		<tag k="natural" v="hill" />
		<tag k="place" v="locality" />
		<tag k="ssr:stedsnr" v="631666" />
	</node>
	<node id="-751968" lat="63.7715694459" lon="11.8174527776">
		<tag k="name" v="Kvernkallberget" />
		<tag k="natural" v="hill" />
		<tag k="place" v="locality" />
		<tag k="ssr:stedsnr" v="631664" />
	</node>
	<node id="-751963" lat="63.7499166624" lon="11.6832555523">
		<tag k="name" v="Helgåsberget" />
		<tag k="natural" v="hill" />
		<tag k="place" v="locality" />
		<tag k="ssr:stedsnr" v="620305" />
	</node>
	<node id="-751958" lat="63.8380666653" lon="11.66417777">
		<tag k="name" v="Lundskammen" />
		<tag k="natural" v="ridge" />
		<tag k="place" v="locality" />
		<tag k="ssr:stedsnr" v="716248" />
	</node>
	<node id="-751957" lat="63.8311194456" lon="11.7930972324">
		<tag k="name" v="Seterdalen" />
		<tag k="natural" v="valley" />
		<tag k="place" v="locality" />
		<tag k="ssr:stedsnr" v="716144" />
	</node>
	<node id="-751956" lat="63.8277527762" lon="11.7741694424">
		<tag k="name" v="Storkleiva" />
		<tag k="natural" v="slope" />
		<tag k="place" v="locality" />
		<tag k="ssr:stedsnr" v="716139" />
	</node>
	<node id="-751955" lat="63.814252777" lon="11.7888138945">
		<tag k="name" v="Kleiva" />
		<tag k="natural" v="hill" />
		<tag k="place" v="locality" />
		<tag k="ssr:stedsnr" v="716132" />
	</node>
	<node id="-751953" lat="63.8929388856" lon="11.8457888904">
		<tag k="name" v="Tjønnhaugen" />
		<tag k="natural" v="hill" />
		<tag k="place" v="locality" />
		<tag k="ssr:stedsnr" v="716121" />
	</node>
	<node id="-751952" lat="63.8304" lon="11.7599750077">
		<tag k="fixme" v="consider natural=peak for the most distinct mountains in the district" />
		<tag k="name" v="Svartåsen" />
		<tag k="natural" v="hill" />
		<tag k="place" v="locality" />
		<tag k="ssr:stedsnr" v="716103" />
	</node>
	<node id="-751950" lat="63.796558333" lon="11.7789166603">
		<tag k="fixme" v="consider natural=peak for the most distinct mountains in the district" />
		<tag k="name" v="Vesteråsen" />
		<tag k="natural" v="hill" />
		<tag k="place" v="locality" />
		<tag k="ssr:stedsnr" v="716085" />
	</node>
	<node id="-751948" lat="63.738180553" lon="11.7957638872">
		<tag k="fixme" v="consider natural=peak for the most distinct mountains in the district" />
		<tag k="name" v="Brattåsen" />
		<tag k="natural" v="hill" />
		<tag k="place" v="locality" />
		<tag k="ssr:stedsnr" v="716060" />
	</node>
	<node id="-751947" lat="63.7252805524" lon="11.8124861045">
		<tag k="name" v="Bergstuberga" />
		<tag k="natural" v="hill" />
		<tag k="place" v="locality" />
		<tag k="ssr:stedsnr" v="716058" />
	</node>
	<node id="-751946" lat="63.7136666665" lon="11.8128611161">
		<tag k="name" v="Kilholmdalen" />
		<tag k="natural" v="valley" />
		<tag k="place" v="locality" />
		<tag k="ssr:stedsnr" v="716045" />
	</node>
	<node id="-751945" lat="63.7600805577" lon="11.829619443">
		<tag k="name" v="Fagerlia" />
		<tag k="natural" v="slope" />
		<tag k="place" v="locality" />
		<tag k="ssr:stedsnr" v="716044" />
	</node>
	<node id="-751941" lat="63.8104697347" lon="11.7188291723">
		<tag k="name" v="Leirsjøknoppen" />
		<tag k="natural" v="hill" />
		<tag k="place" v="locality" />
		<tag k="ssr:stedsnr" v="715941" />
	</node>
	<node id="-751937" lat="63.7233250016" lon="11.8459416761">
		<tag k="name" v="Rotmodalen" />
		<tag k="natural" v="valley" />
		<tag k="place" v="locality" />
		<tag k="ssr:stedsnr" v="594014" />
	</node>
	<node id="-751936" lat="63.7139499971" lon="11.8282861093">
		<tag k="fixme" v="consider natural=peak for the most distinct mountains in the district" />
		<tag k="name" v="Rotmoberga" />
		<tag k="natural" v="hill" />
		<tag k="place" v="locality" />
		<tag k="ssr:stedsnr" v="594004" />
	</node>
	<node id="-751929" lat="63.8709472252" lon="11.6866972289">
		<tag k="name" v="Tillerfatet" />
		<tag k="place" v="locality" />
		<tag k="ssr:stedsnr" v="568633" />
	</node>
	<node id="-751921" lat="63.9159972229" lon="12.0732222293">
		<tag k="fixme" v="consider natural=peak for the most distinct mountains in the district" />
		<tag k="name" v="Vetringshalla" />
		<tag k="natural" v="hill" />
		<tag k="place" v="locality" />
		<tag k="ssr:stedsnr" v="560459" />
	</node>
	<node id="-751917" lat="63.7837305573" lon="12.1957222139">
		<tag k="name" v="Svenskbruholet" />
		<tag k="natural" v="valley" />
		<tag k="place" v="locality" />
		<tag k="ssr:stedsnr" v="559661" />
	</node>
	<node id="-751914" lat="63.9523666701" lon="12.5628444516">
		<tag k="name" v="Stigådalen" />
		<tag k="natural" v="valley" />
		<tag k="place" v="locality" />
		<tag k="ssr:stedsnr" v="559702" />
	</node>
	<node id="-751910" lat="63.6824194456" lon="11.6043805584">
		<tag k="name" v="Skåddåberget" />
		<tag k="natural" v="hill" />
		<tag k="place" v="locality" />
		<tag k="ssr:stedsnr" v="559554" />
	</node>
	<node id="-751909" lat="63.8513583322" lon="11.8099333317">
		<tag k="name" v="Kvitsteinsvola" />
		<tag k="natural" v="hill" />
		<tag k="place" v="locality" />
		<tag k="ssr:stedsnr" v="559512" />
	</node>
	<node id="-751897" lat="63.7354777793" lon="12.0562694447">
		<tag k="fixme" v="consider natural=peak for the most distinct mountains in the district" />
		<tag k="loc_name" v="Neveråsan" />
		<tag k="name" v="Neveråsen" />
		<tag k="natural" v="hill" />
		<tag k="place" v="locality" />
		<tag k="ssr:stedsnr" v="558265" />
	</node>
	<node id="-751896" lat="63.749283331" lon="11.6527472129">
		<tag k="name" v="Håbekkdalshalleran" />
		<tag k="natural" v="hill" />
		<tag k="place" v="locality" />
		<tag k="ssr:stedsnr" v="693736" />
	</node>
	<node id="-751894" lat="63.7607194401" lon="11.7371638886">
		<tag k="fixme" v="consider natural=peak for the most distinct mountains in the district" />
		<tag k="name" v="Dillåsan" />
		<tag k="natural" v="hill" />
		<tag k="place" v="locality" />
		<tag k="ssr:stedsnr" v="693731" />
	</node>
	<node id="-751893" lat="63.6951277796" lon="12.3046277833">
		<tag k="name" v="Breivassdalen" />
		<tag k="natural" v="valley" />
		<tag k="place" v="locality" />
		<tag k="ssr:stedsnr" v="693845" />
	</node>
	<node id="-751891" lat="63.6781194485" lon="12.2519555564">
		<tag k="fixme" v="consider natural=peak for the most distinct mountains in the district" />
		<tag k="name" v="Svartvikåsen" />
		<tag k="natural" v="hill" />
		<tag k="place" v="locality" />
		<tag k="ssr:stedsnr" v="693837" />
	</node>
	<node id="-751886" lat="63.8083277767" lon="11.8374944525">
		<tag k="name" v="Langengdalen" />
		<tag k="natural" v="valley" />
		<tag k="place" v="locality" />
		<tag k="ssr:stedsnr" v="693688" />
	</node>
	<node id="-751885" lat="63.7634916666" lon="11.528044441">
		<tag k="name" v="Tjurruhaugen" />
		<tag k="natural" v="hill" />
		<tag k="place" v="locality" />
		<tag k="ssr:stedsnr" v="693544" />
	</node>
	<node id="-751883" lat="63.8540805557" lon="11.9196444366">
		<tag k="name" v="Bjørkbakken" />
		<tag k="natural" v="hill" />
		<tag k="place" v="locality" />
		<tag k="ssr:stedsnr" v="692794" />
	</node>
	<node id="-751881" lat="63.8073083325" lon="11.9048083415">
		<tag k="name" v="Sandeggen" />
		<tag k="natural" v="ridge" />
		<tag k="place" v="locality" />
		<tag k="ssr:stedsnr" v="692625" />
	</node>
	<node id="-751876" lat="63.8982777799" lon="11.8809805618">
		<tag k="name" v="Bustadhaugen" />
		<tag k="natural" v="hill" />
		<tag k="place" v="locality" />
		<tag k="ssr:stedsnr" v="534604" />
	</node>
	<node id="-751871" lat="63.6500083299" lon="12.0057861092">
		<tag k="name" v="Brennan" />
		<tag k="place" v="locality" />
		<tag k="ssr:stedsnr" v="533414" />
	</node>
	<node id="-751869" lat="63.726522218" lon="11.5682027833">
		<tag k="name" v="Skåkdalen" />
		<tag k="natural" v="valley" />
		<tag k="place" v="locality" />
		<tag k="ssr:stedsnr" v="514931" />
	</node>
	<node id="-751868" lat="63.6653055518" lon="12.1148666749">
		<tag k="name" v="Bjørndalen" />
		<tag k="natural" v="valley" />
		<tag k="place" v="locality" />
		<tag k="ssr:stedsnr" v="510855" />
	</node>
	<node id="-751866" lat="63.6777472191" lon="12.0002333325">
		<tag k="fixme" v="consider natural=peak for the most distinct mountains in the district" />
		<tag k="name" v="Bråtta" />
		<tag k="natural" v="hill" />
		<tag k="place" v="locality" />
		<tag k="ssr:stedsnr" v="510852" />
	</node>
	<node id="-751865" lat="63.8170111136" lon="11.8731527793">
		<tag k="name" v="Evidalen" />
		<tag k="natural" v="valley" />
		<tag k="place" v="locality" />
		<tag k="ssr:stedsnr" v="510685" />
	</node>
	<node id="-751863" lat="63.832019445" lon="11.842625007">
		<tag k="name" v="Brannen" />
		<tag k="place" v="locality" />
		<tag k="ssr:stedsnr" v="510666" />
	</node>
	<node id="-751861" lat="63.8106805576" lon="12.2812472277">
		<tag k="fixme" v="consider natural=peak for the most distinct mountains in the district" />
		<tag k="name" v="Høgåsen" />
		<tag k="natural" v="hill" />
		<tag k="place" v="locality" />
		<tag k="ssr:stedsnr" v="681832" />
	</node>
	<node id="-751860" lat="63.9650388933" lon="12.6207194444">
		<tag k="name" v="Reinsgardbakkan" />
		<tag k="natural" v="slope" />
		<tag k="place" v="locality" />
		<tag k="ssr:stedsnr" v="681824" />
	</node>
	<node id="-751856" lat="63.7498833376" lon="12.3805999914">
		<tag k="name" v="Ørvillhaugen" />
		<tag k="natural" v="hill" />
		<tag k="place" v="locality" />
		<tag k="ssr:stedsnr" v="681796" />
	</node>
	<node id="-751854" lat="63.7655944435" lon="12.2724944536">
		<tag k="name" v="Tronsmovassdalen" />
		<tag k="natural" v="valley" />
		<tag k="place" v="locality" />
		<tag k="ssr:stedsnr" v="681778" />
	</node>
	<node id="-751853" lat="63.7753027786" lon="12.0134833248">
		<tag k="fixme" v="consider natural=peak for the most distinct mountains in the district" />
		<tag k="name" v="Hyllfjellet" />
		<tag k="natural" v="hill" />
		<tag k="place" v="locality" />
		<tag k="ssr:stedsnr" v="681638" />
	</node>
	<node id="-751852" lat="63.8046722231" lon="11.901327781">
		<tag k="name" v="Merkesberget" />
		<tag k="natural" v="hill" />
		<tag k="place" v="locality" />
		<tag k="ssr:stedsnr" v="681628" />
	</node>
	<node id="-751850" lat="63.7959833366" lon="11.7459611116">
		<tag k="name" v="Rognhaugen" />
		<tag k="natural" v="hill" />
		<tag k="place" v="locality" />
		<tag k="ssr:stedsnr" v="681598" />
	</node>
	<node id="-751846" lat="63.8375388847" lon="11.7519638965">
		<tag k="fixme" v="consider natural=peak for the most distinct mountains in the district" />
		<tag k="name" v="Svartåsen" />
		<tag k="natural" v="hill" />
		<tag k="place" v="locality" />
		<tag k="ssr:stedsnr" v="681535" />
	</node>
	<node id="-751843" lat="63.8247083293" lon="11.8591027826">
		<tag k="fixme" v="consider natural=peak for the most distinct mountains in the district" />
		<tag k="name" v="Bynahangan" />
		<tag k="natural" v="hill" />
		<tag k="place" v="locality" />
		<tag k="ssr:stedsnr" v="681580" />
	</node>
	<node id="-751841" lat="63.8142555588" lon="11.7985305458">
		<tag k="name" v="Klukstårnet" />
		<tag k="natural" v="hill" />
		<tag k="place" v="locality" />
		<tag k="ssr:stedsnr" v="681567" />
	</node>
	<node id="-751840" lat="63.8173555552" lon="11.8025583266">
		<tag k="name" v="Koltjønnberget" />
		<tag k="natural" v="hill" />
		<tag k="place" v="locality" />
		<tag k="ssr:stedsnr" v="681566" />
	</node>
	<node id="-751834" lat="63.8029861084" lon="12.2671222218">
		<tag k="name" v="Nordgrønlia" />
		<tag k="natural" v="hill" />
		<tag k="place" v="locality" />
		<tag k="ssr:stedsnr" v="499673" />
	</node>
	<node id="-751831" lat="63.9299749984" lon="12.3421750033">
		<tag k="fixme" v="consider natural=peak for the most distinct mountains in the district" />
		<tag k="name" v="Tverrvola - Njeeruvetjahke" />
		<tag k="name:no" v="Tverrvola" />
		<tag k="name:sma" v="Njeeruvetjahke" />
		<tag k="natural" v="hill" />
		<tag k="place" v="locality" />
		<tag k="ssr:stedsnr" v="499655" />
	</node>
	<node id="-751823" lat="63.8360111134" lon="11.5185166623">
		<tag k="fixme" v="consider natural=peak for the most distinct mountains in the district" />
		<tag k="loc_name" v="Solberghøgda" />
		<tag k="name" v="Solbergshøgda" />
		<tag k="natural" v="hill" />
		<tag k="place" v="locality" />
		<tag k="ssr:stedsnr" v="681232" />
	</node>
	<node id="-751818" lat="63.8640027807" lon="12.1037055616">
		<tag k="name" v="Dyrhaugen" />
		<tag k="natural" v="hill" />
		<tag k="place" v="locality" />
		<tag k="ssr:stedsnr" v="499455" />
	</node>
	<node id="-751817" lat="63.7555277812" lon="11.656908335">
		<tag k="name" v="Kvernhusdalen" />
		<tag k="natural" v="valley" />
		<tag k="place" v="locality" />
		<tag k="ssr:stedsnr" v="499253" />
	</node>
	<node id="-751815" lat="63.8762944482" lon="11.6797027706">
		<tag k="fixme" v="consider natural=peak for the most distinct mountains in the district" />
		<tag k="name" v="Aksnesvola" />
		<tag k="natural" v="hill" />
		<tag k="place" v="locality" />
		<tag k="ssr:stedsnr" v="681174" />
	</node>
	<node id="-751808" lat="63.7446418659" lon="11.6296738637">
		<tag k="fixme" v="consider natural=peak for the most distinct mountains in the district" />
		<tag k="name" v="Kvinnfjellet" />
		<tag k="natural" v="hill" />
		<tag k="old_name" v="Kvindfjellet" />
		<tag k="place" v="locality" />
		<tag k="ssr:stedsnr" v="498703" />
	</node>
	<node id="-751807" lat="63.695536107" lon="11.7551916695">
		<tag k="name" v="Digerhaugen" />
		<tag k="natural" v="hill" />
		<tag k="place" v="locality" />
		<tag k="ssr:stedsnr" v="498339" />
	</node>
	<node id="-751806" lat="63.6971750011" lon="11.7415444528">
		<tag k="fixme" v="consider natural=peak for the most distinct mountains in the district" />
		<tag k="name" v="Slættesvola" />
		<tag k="natural" v="hill" />
		<tag k="place" v="locality" />
		<tag k="ssr:stedsnr" v="498338" />
	</node>
	<node id="-751803" lat="63.7157694467" lon="12.1235194482">
		<tag k="fixme" v="consider natural=peak for the most distinct mountains in the district" />
		<tag k="name" v="Drivsjøfjellet" />
		<tag k="natural" v="hill" />
		<tag k="place" v="locality" />
		<tag k="ssr:stedsnr" v="498319" />
	</node>
	<node id="-751795" lat="63.7056138917" lon="11.9517444364">
		<tag k="loc_name" v="Storsleadalen" />
		<tag k="name" v="Storslåddådalen" />
		<tag k="natural" v="valley" />
		<tag k="place" v="locality" />
		<tag k="ssr:stedsnr" v="680321" />
	</node>
	<node id="-751793" lat="63.7196361125" lon="11.8343083267">
		<tag k="name" v="Inndalen" />
		<tag k="natural" v="valley" />
		<tag k="place" v="locality" />
		<tag k="ssr:stedsnr" v="680298" />
	</node>
	<node id="-751788" lat="63.6934222244" lon="11.9179888943">
		<tag k="name" v="Sogna" />
		<tag k="natural" v="valley" />
		<tag k="place" v="locality" />
		<tag k="ssr:stedsnr" v="666268" />
	</node>
	<node id="-751786" lat="63.7111694423" lon="11.9374583381">
		<tag k="name" v="Salen" />
		<tag k="natural" v="valley" />
		<tag k="place" v="locality" />
		<tag k="ssr:stedsnr" v="666157" />
	</node>
	<node id="-751776" lat="63.7929194415" lon="11.8414111065">
		<tag k="name" v="Stordalen" />
		<tag k="natural" v="valley" />
		<tag k="place" v="locality" />
		<tag k="ssr:stedsnr" v="450628" />
	</node>
	<node id="-751775" lat="63.6479555554" lon="12.1117194454">
		<tag k="fixme" v="consider natural=peak for the most distinct mountains in the district" />
		<tag k="name" v="Nybyggfjellet" />
		<tag k="natural" v="hill" />
		<tag k="place" v="locality" />
		<tag k="ssr:stedsnr" v="449805" />
	</node>
	<node id="-751774" lat="63.6634777737" lon="12.0876111065">
		<tag k="name" v="Styggdalen" />
		<tag k="natural" v="valley" />
		<tag k="place" v="locality" />
		<tag k="ssr:stedsnr" v="449802" />
	</node>
	<node id="-751773" lat="63.8332777739" lon="11.8338083325">
		<tag k="name" v="Åsen" />
		<tag k="natural" v="wood" />
		<tag k="ssr:stedsnr" v="449623" />
	</node>
	<node id="-751772" lat="63.8773222224" lon="11.6600138937">
		<tag k="fixme" v="consider natural=peak for the most distinct mountains in the district" />
		<tag k="name" v="Seteråsen" />
		<tag k="natural" v="hill" />
		<tag k="place" v="locality" />
		<tag k="ssr:stedsnr" v="447636" />
	</node>
	<node id="-751769" lat="63.7245277781" lon="11.6609916717">
		<tag k="fixme" v="consider natural=peak for the most distinct mountains in the district" />
		<tag k="name" v="Limbuåsen" />
		<tag k="natural" v="hill" />
		<tag k="place" v="locality" />
		<tag k="ssr:stedsnr" v="655979" />
	</node>
	<node id="-751765" lat="63.7370722182" lon="11.5739694396">
		<tag k="fixme" v="consider natural=peak for the most distinct mountains in the district" />
		<tag k="name" v="Grønliberga" />
		<tag k="natural" v="hill" />
		<tag k="place" v="locality" />
		<tag k="ssr:stedsnr" v="655746" />
	</node>
	<node id="-751760" lat="63.7774305557" lon="11.6182305635">
		<tag k="name" v="Eklodalen" />
		<tag k="natural" v="valley" />
		<tag k="place" v="locality" />
		<tag k="ssr:stedsnr" v="511718" />
	</node>
	<node id="-751759" lat="63.7848305541" lon="11.73544167">
		<tag k="name" v="Bergvola" />
		<tag k="natural" v="hill" />
		<tag k="place" v="locality" />
		<tag k="ssr:stedsnr" v="511614" />
	</node>
	<node id="-751758" lat="63.7781805546" lon="11.7404277685">
		<tag k="name" v="Ekerdalen" />
		<tag k="natural" v="valley" />
		<tag k="place" v="locality" />
		<tag k="ssr:stedsnr" v="511610" />
	</node>
	<node id="-751752" lat="63.755344446" lon="11.5836416686">
		<tag k="fixme" v="consider natural=peak for the most distinct mountains in the district" />
		<tag k="name" v="Litlåsen" />
		<tag k="natural" v="hill" />
		<tag k="place" v="locality" />
		<tag k="ssr:stedsnr" v="511513" />
	</node>
	<node id="-751748" lat="63.7683638886" lon="11.6318694518">
		<tag k="name" v="Melbyhaugan" />
		<tag k="natural" v="hill" />
		<tag k="place" v="locality" />
		<tag k="ssr:stedsnr" v="511697" />
	</node>
	<node id="-751744" lat="63.8202027806" lon="12.0650666638">
		<tag k="name" v="Bindalen" />
		<tag k="natural" v="valley" />
		<tag k="place" v="locality" />
		<tag k="ssr:stedsnr" v="510866" />
	</node>
	<node id="-751739" lat="63.8672653253" lon="12.4269749058">
		<tag k="name" v="Ryphaugen" />
		<tag k="natural" v="hill" />
		<tag k="place" v="locality" />
		<tag k="ssr:stedsnr" v="506550" />
	</node>
	<node id="-751738" lat="63.7778777741" lon="11.6810833317">
		<tag k="name" v="Mønnen" />
		<tag k="place" v="locality" />
		<tag k="ssr:stedsnr" v="389657" />
	</node>
	<node id="-751295" lat="63.7579611087" lon="11.6420111176">
		<tag k="name" v="Nonshaugen" />
		<tag k="natural" v="hill" />
		<tag k="place" v="locality" />
		<tag k="ssr:stedsnr" v="86709" />
	</node>
	<node id="-751736" lat="63.7506694405" lon="11.6034722183">
		<tag k="fixme" v="consider natural=peak for the most distinct mountains in the district" />
		<tag k="name" v="Lauvåsen" />
		<tag k="natural" v="hill" />
		<tag k="place" v="locality" />
		<tag k="ssr:stedsnr" v="389553" />
	</node>
	<node id="-751294" lat="63.7600444412" lon="11.7089527759">
		<tag k="name" v="Jøssåsdalen" />
		<tag k="natural" v="valley" />
		<tag k="place" v="locality" />
		<tag k="ssr:stedsnr" v="86702" />
	</node>
	<node id="-751730" lat="63.8477694439" lon="12.0218944544">
		<tag k="fixme" v="consider natural=peak for the most distinct mountains in the district" />
		<tag k="name" v="Litlengåsen" />
		<tag k="natural" v="hill" />
		<tag k="place" v="locality" />
		<tag k="ssr:stedsnr" v="388802" />
	</node>
	<node id="-751728" lat="63.7924694407" lon="12.4265583274">
		<tag k="fixme" v="consider natural=peak for the most distinct mountains in the district" />
		<tag k="name" v="Tømmeråsen" />
		<tag k="natural" v="hill" />
		<tag k="place" v="locality" />
		<tag k="ssr:stedsnr" v="499731" />
	</node>
	<node id="-751726" lat="63.9041835734" lon="12.5277042614">
		<tag k="fixme" v="consider natural=peak for the most distinct mountains in the district" />
		<tag k="name" v="Lakavassklumpen - Nåemeletjahke" />
		<tag k="name:no" v="Lakavassklumpen" />
		<tag k="name:sma" v="Nåemeletjahke" />
		<tag k="natural" v="hill" />
		<tag k="place" v="locality" />
		<tag k="ssr:stedsnr" v="499648" />
	</node>
	<node id="-751720" lat="63.7854277804" lon="11.9640416584">
		<tag k="name" v="Geithevilen" />
		<tag k="natural" v="hill" />
		<tag k="place" v="locality" />
		<tag k="ssr:stedsnr" v="499591" />
	</node>
	<node id="-751716" lat="63.8099000039" lon="12.4656555645">
		<tag k="fixme" v="consider natural=peak for the most distinct mountains in the district" />
		<tag k="name" v="Jervåsen" />
		<tag k="natural" v="hill" />
		<tag k="place" v="locality" />
		<tag k="ssr:stedsnr" v="499713" />
	</node>
	<node id="-751714" lat="63.8293166647" lon="12.3895416673">
		<tag k="name" v="Stordalen" />
		<tag k="natural" v="valley" />
		<tag k="place" v="locality" />
		<tag k="ssr:stedsnr" v="499683" />
	</node>
	<node id="-751709" lat="63.8543083328" lon="11.9981722144">
		<tag k="name" v="Grensknoppen" />
		<tag k="natural" v="hill" />
		<tag k="place" v="locality" />
		<tag k="ssr:stedsnr" v="499425" />
	</node>
	<node id="-751706" lat="63.8919722231" lon="12.1346805468">
		<tag k="name" v="Kolstadflåa" />
		<tag k="place" v="locality" />
		<tag k="ssr:stedsnr" v="499391" />
	</node>
	<node id="-751702" lat="63.7904805549" lon="11.7274111015">
		<tag k="name" v="Råddåhaugan" />
		<tag k="natural" v="hill" />
		<tag k="place" v="locality" />
		<tag k="ssr:stedsnr" v="499555" />
	</node>
	<node id="-751701" lat="63.7967333322" lon="11.8653444464">
		<tag k="name" v="Skavdalsmoberget" />
		<tag k="natural" v="hill" />
		<tag k="place" v="locality" />
		<tag k="ssr:stedsnr" v="499550" />
	</node>
	<node id="-751288" lat="63.8759888854" lon="11.6732972214">
		<tag k="name" v="Blankberget" />
		<tag k="natural" v="hill" />
		<tag k="place" v="locality" />
		<tag k="ssr:stedsnr" v="83655" />
	</node>
	<node id="-751685" lat="63.8170083343" lon="11.6978666607">
		<tag k="fixme" v="multiple name tags, choose one and add the other to alt_name; consider natural=peak for the most distinct mountains in the district" />
		<tag k="name" v="Spellmannsstolen;Vargåsen" />
		<tag k="natural" v="hill" />
		<tag k="place" v="locality" />
		<tag k="ssr:stedsnr" v="499149" />
	</node>
	<node id="-751679" lat="63.801283337" lon="11.9311027779">
		<tag k="name" v="Trosvikdalen" />
		<tag k="natural" v="valley" />
		<tag k="place" v="locality" />
		<tag k="ssr:stedsnr" v="377625" />
	</node>
	<node id="-751677" lat="63.8028861135" lon="11.8802277742">
		<tag k="name" v="Purkdalen" />
		<tag k="natural" v="valley" />
		<tag k="place" v="locality" />
		<tag k="ssr:stedsnr" v="377620" />
	</node>
	<node id="-751676" lat="63.8055833337" lon="11.8836416756">
		<tag k="fixme" v="consider natural=peak for the most distinct mountains in the district" />
		<tag k="name" v="Purka" />
		<tag k="natural" v="hill" />
		<tag k="place" v="locality" />
		<tag k="ssr:stedsnr" v="377618" />
	</node>
	<node id="-751668" lat="63.6491555559" lon="11.9888749915">
		<tag k="loc_name" v="Litlmoseterlia" />
		<tag k="name" v="Litlmovollia" />
		<tag k="natural" v="slope" />
		<tag k="place" v="locality" />
		<tag k="ssr:stedsnr" v="498381" />
	</node>
	<node id="-751658" lat="63.8506027804" lon="11.8072138824">
		<tag k="name" v="Rolldalen" />
		<tag k="natural" v="valley" />
		<tag k="place" v="locality" />
		<tag k="ssr:stedsnr" v="352111" />
	</node>
	<node id="-751657" lat="63.7940305592" lon="11.7871416676">
		<tag k="name" v="Steindalen" />
		<tag k="natural" v="valley" />
		<tag k="place" v="locality" />
		<tag k="ssr:stedsnr" v="352103" />
	</node>
	<node id="-751649" lat="63.6652027818" lon="12.1342000043">
		<tag k="name" v="Gomtjønnlia" />
		<tag k="natural" v="slope" />
		<tag k="place" v="locality" />
		<tag k="ssr:stedsnr" v="328843" />
	</node>
	<node id="-751648" lat="63.6466749976" lon="12.1473027863">
		<tag k="name" v="Kvilliin" />
		<tag k="natural" v="slope" />
		<tag k="place" v="locality" />
		<tag k="ssr:stedsnr" v="328839" />
	</node>
	<node id="-751645" lat="63.8473583295" lon="11.9951805586">
		<tag k="fixme" v="consider natural=peak for the most distinct mountains in the district" />
		<tag k="name" v="Åkervollklumpen" />
		<tag k="natural" v="hill" />
		<tag k="place" v="locality" />
		<tag k="ssr:stedsnr" v="328817" />
	</node>
	<node id="-751644" lat="63.8472361122" lon="11.9755888934">
		<tag k="fixme" v="consider natural=peak for the most distinct mountains in the district" />
		<tag k="name" v="Svartåsen" />
		<tag k="natural" v="hill" />
		<tag k="place" v="locality" />
		<tag k="ssr:stedsnr" v="328814" />
	</node>
	<node id="-751643" lat="63.7864138857" lon="11.5912361142">
		<tag k="loc_name" v="Verdal" />
		<tag k="name" v="Verdalen" />
		<tag k="natural" v="valley" />
		<tag k="place" v="locality" />
		<tag k="ssr:stedsnr" v="328703" />
	</node>
	<node id="-751641" lat="63.7867222264" lon="12.2334527702">
		<tag k="name" v="Rotbrekka" />
		<tag k="natural" v="hill" />
		<tag k="place" v="locality" />
		<tag k="ssr:stedsnr" v="317711" />
	</node>
	<node id="-751639" lat="63.7992333369" lon="12.1069777783">
		<tag k="name" v="Middagshaugen" />
		<tag k="natural" v="hill" />
		<tag k="place" v="locality" />
		<tag k="ssr:stedsnr" v="317556" />
	</node>
	<node id="-751638" lat="63.8193972264" lon="12.461822223">
		<tag k="name" v="Langdalen" />
		<tag k="natural" v="valley" />
		<tag k="place" v="locality" />
		<tag k="ssr:stedsnr" v="317658" />
	</node>
	<node id="-751637" lat="63.8472111079" lon="11.9910388816">
		<tag k="name" v="Svartdalen" />
		<tag k="natural" v="valley" />
		<tag k="place" v="locality" />
		<tag k="ssr:stedsnr" v="317453" />
	</node>
	<node id="-751629" lat="63.838425001" lon="12.0805388971">
		<tag k="name" v="Grunnskardklubben" />
		<tag k="natural" v="hill" />
		<tag k="place" v="locality" />
		<tag k="ssr:stedsnr" v="317516" />
	</node>
	<node id="-751624" lat="63.7442138898" lon="11.5385750045">
		<tag k="name" v="Ravloberget" />
		<tag k="natural" v="hill" />
		<tag k="place" v="locality" />
		<tag k="ssr:stedsnr" v="316711" />
	</node>
</osm>
