<?xml version="1.0" encoding="UTF-8"?>
<osm version="0.6" generator="osmapis">
	<node lat="63.820847219607025" lon="11.419672225436438" id="-88472">
		<tag k="name" v="Nordskaget" />
		<tag k="place" v="quarter" />
		<tag k="ssr:stedsnr" v="230743" />
	</node>
	<node lat="63.83964444795499" lon="11.454791667697656" id="-88473">
		<tag k="name" v="Busvean" />
		<tag k="place" v="locality" />
		<tag k="ssr:stedsnr" v="230744" />
	</node>
	<node lat="63.73023888520791" lon="11.774150009070972" id="-88475">
		<tag k="alt_name" v="Moan" />
		<tag k="name" v="Bruås" />
		<tag k="place" v="farm" />
		<tag k="ssr:stedsnr" v="13304" />
	</node>
	<node lat="63.73346666327925" lon="11.774997215109302" id="-88476">
		<tag k="alt_name" v="Svegjardet" />
		<tag k="name" v="Svegård" />
		<tag k="place" v="farm" />
		<tag k="ssr:stedsnr" v="13305" />
	</node>
	<node lat="63.682924996634064" lon="11.639647225651657" id="-88480">
		<tag k="alt_name" v="Lyngvollen" />
		<tag k="historic" v="shieling" />
		<tag k="name" v="Lyngsvollen" />
		<tag k="place" v="isolated_dwelling" />
		<tag k="ssr:stedsnr" v="13570" />
	</node>
	<node lat="63.6981194481741" lon="11.608441671982698" id="-88482">
		<tag k="historic" v="shieling" />
		<tag k="name" v="Skjettholvollen" />
		<tag k="place" v="isolated_dwelling" />
		<tag k="ssr:stedsnr" v="13579" />
	</node>
	<node lat="63.842777777597796" lon="11.633463884086906" id="-88483">
		<tag k="name" v="Nordvik" />
		<tag k="place" v="farm" />
		<tag k="ssr:stedsnr" v="14203" />
	</node>
	<node lat="63.77964732613791" lon="11.705335689255516" id="-88484">
		<tag k="fixme" v="consider place=hamlet" />
		<tag k="name" v="Lundskin" />
		<tag k="place" v="farm" />
		<tag k="ssr:stedsnr" v="14214" />
	</node>
	<node lat="63.76833610663383" lon="11.472344449241977" id="-88485">
		<tag k="name" v="Bergsveet" />
		<tag k="place" v="farm" />
		<tag k="ssr:stedsnr" v="14278" />
	</node>
	<node lat="63.78819444752398" lon="11.820044444685848" id="-88493">
		<tag k="name" v="Storstadmoen" />
		<tag k="place" v="farm" />
		<tag k="ssr:stedsnr" v="14605" />
	</node>
	<node lat="63.75974722023131" lon="12.156647226594362" id="-88494">
		<tag k="alt_name" v="Vestre Juldalsvollen" />
		<tag k="historic" v="shieling" />
		<tag k="name" v="Juldalseter" />
		<tag k="place" v="isolated_dwelling" />
		<tag k="ssr:stedsnr" v="14632" />
	</node>
	<node lat="63.77372222154956" lon="11.477369448430395" id="-88502">
		<tag k="name" v="Stamphusmyra" />
		<tag k="place" v="farm" />
		<tag k="ssr:stedsnr" v="25523" />
	</node>
	<node lat="63.80513055458904" lon="11.872119450167537" id="-88503">
		<tag k="name" v="Dalbakken" />
		<tag k="place" v="farm" />
		<tag k="ssr:stedsnr" v="25623" />
	</node>
	<node lat="63.76552222453755" lon="11.502911116854017" id="-88508">
		<tag k="alt_name" v="Rostad søndre" />
		<tag k="name" v="Rostad" />
		<tag k="place" v="farm" />
		<tag k="ssr:stedsnr" v="26527" />
	</node>
	<node lat="63.77307777524629" lon="12.364119447705507" id="-88514">
		<tag k="historic" v="shieling" />
		<tag k="name" v="Surusvollen" />
		<tag k="place" v="isolated_dwelling" />
		<tag k="ssr:stedsnr" v="26821" />
	</node>
	<node lat="63.791619629295596" lon="11.469497126049921" id="-88522">
		<tag k="amenity" v="school" />
		<tag k="name" v="Ørmelen skole" />
		<tag k="ssr:stedsnr" v="42192" />
	</node>
	<node lat="63.82202777804957" lon="11.446697228554807" id="-88523">
		<tag k="alt_name" v="Fleskhus store" />
		<tag k="name" v="Store Fleskhus" />
		<tag k="place" v="farm" />
		<tag k="ssr:stedsnr" v="47387" />
	</node>
	<node lat="63.80144721765633" lon="12.346908342003898" id="-88528">
		<tag k="alt_name" v="Nordre Væren" />
		<tag k="name" v="Nord-Vera" />
		<tag k="place" v="farm" />
		<tag k="ssr:stedsnr" v="239055" />
	</node>
	<node lat="63.816044347853236" lon="11.503169685933202" id="-88530">
		<tag k="name" v="Minsås" />
		<tag k="place" v="hamlet" />
		<tag k="ssr:stedsnr" v="240456" />
	</node>
	<node lat="63.743152780037285" lon="11.689783342444533" id="-88534">
		<tag k="alt_name" v="Granli" />
		<tag k="name" v="Granly" />
		<tag k="place" v="farm" />
		<tag k="ssr:stedsnr" v="73669" />
	</node>
	<node lat="63.781417285902776" lon="11.476643450743696" id="-88538">
		<tag k="fixme" v="consider place=hamlet" />
		<tag k="name" v="Kjæran" />
		<tag k="place" v="farm" />
		<tag k="ssr:stedsnr" v="74257" />
	</node>
	<node lat="63.78850744345011" lon="11.7002852148965" id="-88539">
		<tag k="fixme" v="consider place=hamlet" />
		<tag k="name" v="Bjørgan" />
		<tag k="place" v="farm" />
		<tag k="ssr:stedsnr" v="74261" />
	</node>
	<node lat="63.78480278101708" lon="11.612541665812483" id="-88540">
		<tag k="name" v="Selegg" />
		<tag k="place" v="farm" />
		<tag k="ssr:stedsnr" v="74268" />
	</node>
	<node lat="63.78564444389065" lon="11.608783326301761" id="-88541">
		<tag k="name" v="Egge" />
		<tag k="place" v="farm" />
		<tag k="ssr:stedsnr" v="74271" />
	</node>
	<node lat="63.79749721899511" lon="11.854883339748604" id="-88548">
		<tag k="name" v="Bjørnmelen" />
		<tag k="place" v="farm" />
		<tag k="ssr:stedsnr" v="74606" />
	</node>
	<node lat="63.81517777450153" lon="11.64761110325271" id="-88550">
		<tag k="name" v="Myrtun" />
		<tag k="place" v="farm" />
		<tag k="ssr:stedsnr" v="75203" />
	</node>
	<node lat="63.81401666579563" lon="11.504111119931224" id="-88551">
		<tag k="alt_name" v="Minsås, søre" />
		<tag k="name" v="Søre Minsås" />
		<tag k="place" v="farm" />
		<tag k="ssr:stedsnr" v="75210" />
	</node>
	<node lat="63.82117295464644" lon="11.446041915066434" id="-88552">
		<tag k="fixme" v="consider place=hamlet" />
		<tag k="name" v="Mikkelsgarden" />
		<tag k="place" v="farm" />
		<tag k="ssr:stedsnr" v="75212" />
	</node>
	<node lat="63.81740818350221" lon="11.42680958485428" id="-88553">
		<tag k="fixme" v="consider place=hamlet" />
		<tag k="name" v="Trones" />
		<tag k="place" v="farm" />
		<tag k="ssr:stedsnr" v="75213" />
	</node>
	<node lat="63.91481111046304" lon="12.203313884703558" id="-88554">
		<tag k="name" v="Kulsliseteren" />
		<tag k="place" v="isolated_dwelling" />
		<tag k="ssr:stedsnr" v="75466" />
	</node>
	<node lat="63.83197129571612" lon="11.891527524943886" id="-88555">
		<tag k="fixme" v="consider place=hamlet" />
		<tag k="name" v="Litlgarden" />
		<tag k="place" v="farm" />
		<tag k="ssr:stedsnr" v="75551" />
	</node>
	<node lat="63.823783335273255" lon="11.98302500340826" id="-88556">
		<tag k="name" v="Nessimoen" />
		<tag k="place" v="farm" />
		<tag k="ssr:stedsnr" v="75569" />
	</node>
	<node lat="63.781505176238554" lon="11.784368249226715" id="-88561">
		<tag k="fixme" v="consider place=hamlet" />
		<tag k="name" v="Vestgrunnan" />
		<tag k="place" v="farm" />
		<tag k="ssr:stedsnr" v="85584" />
	</node>
	<node lat="63.77307149562461" lon="11.747610986563464" id="-88570">
		<tag k="fixme" v="consider place=hamlet" />
		<tag k="name" v="Prestgarden" />
		<tag k="old_name" v="Præstgaarden" />
		<tag k="place" v="farm" />
		<tag k="ssr:stedsnr" v="86624" />
	</node>
	<node lat="63.76466111553449" lon="11.564794446141974" id="-88573">
		<tag k="name" v="Nordheim" />
		<tag k="place" v="farm" />
		<tag k="ssr:stedsnr" v="86689" />
	</node>
	<node lat="63.78066944891219" lon="11.858258332683752" id="-88577">
		<tag k="historic" v="shieling" />
		<tag k="name" v="Nordbustadvollen" />
		<tag k="place" v="isolated_dwelling" />
		<tag k="ssr:stedsnr" v="109069" />
	</node>
	<node lat="63.81596944177655" lon="11.416369453687933" id="-88580">
		<tag k="name" v="Sørskaget" />
		<tag k="place" v="quarter" />
		<tag k="ssr:stedsnr" v="109727" />
	</node>
	<node lat="63.82094167110695" lon="11.655291658495843" id="-88581">
		<tag k="name" v="Øver-Musem" />
		<tag k="place" v="farm" />
		<tag k="ssr:stedsnr" v="109905" />
	</node>
	<node lat="63.65451111246309" lon="11.942386104023587" id="-88584">
		<tag k="alt_name" v="Stormoseter" />
		<tag k="name" v="Stormovollen" />
		<tag k="place" v="locality" />
		<tag k="ssr:stedsnr" v="134374" />
	</node>
	<node lat="63.77312300343807" lon="11.708844098874248" id="-88586">
		<tag k="fixme" v="consider place=hamlet" />
		<tag k="name" v="Bollgarden" />
		<tag k="place" v="farm" />
		<tag k="ssr:stedsnr" v="135333" />
	</node>
	<node lat="63.82297112588785" lon="11.541426488389446" id="-88588">
		<tag k="alt_name" v="Okollan" />
		<tag k="fixme" v="consider place=hamlet" />
		<tag k="name" v="Oklan" />
		<tag k="place" v="farm" />
		<tag k="ssr:stedsnr" v="135207" />
	</node>
	<node lat="63.82669160956705" lon="11.491856943597071" id="-88589">
		<tag k="fixme" v="consider place=hamlet" />
		<tag k="name" v="Høa" />
		<tag k="place" v="farm" />
		<tag k="ssr:stedsnr" v="135210" />
	</node>
	<node lat="63.83145500605075" lon="11.450974286207659" id="-88590">
		<tag k="fixme" v="consider place=hamlet" />
		<tag k="name" v="Leklem" />
		<tag k="place" v="farm" />
		<tag k="ssr:stedsnr" v="135211" />
	</node>
	<node lat="63.832480557327514" lon="11.643013896000532" id="-88591">
		<tag k="name" v="Lysgård" />
		<tag k="place" v="farm" />
		<tag k="ssr:stedsnr" v="135221" />
	</node>
	<node lat="63.842988889915226" lon="11.708941666085725" id="-88592">
		<tag k="name" v="Vollan" />
		<tag k="place" v="farm" />
		<tag k="ssr:stedsnr" v="135228" />
	</node>
	<node lat="63.78434352306439" lon="11.66407952416573" id="-88594">
		<tag k="alt_name" v="Østre Brannhaugen" />
		<tag k="name" v="Brannhaugen" />
		<tag k="place" v="farm" />
		<tag k="ssr:stedsnr" v="135260" />
	</node>
	<node lat="63.77490833154349" lon="11.681105564682333" id="-88595">
		<tag k="alt_name" v="Storøra" />
		<tag k="name" v="Elverum" />
		<tag k="place" v="farm" />
		<tag k="ssr:stedsnr" v="135265" />
	</node>
	<node lat="63.83941256241348" lon="11.925985298769865" id="-88596">
		<tag k="fixme" v="consider place=hamlet" />
		<tag k="name" v="Seter" />
		<tag k="place" v="farm" />
		<tag k="ssr:stedsnr" v="135551" />
	</node>
	<node lat="63.807341670908734" lon="12.296102776986803" id="-88599">
		<tag k="alt_name" v="Storlunsetra" />
		<tag k="historic" v="shieling" />
		<tag k="name" v="Storlunsætra" />
		<tag k="place" v="isolated_dwelling" />
		<tag k="ssr:stedsnr" v="135711" />
	</node>
	<node lat="63.83040000373583" lon="12.434855546702725" id="-88600">
		<tag k="name" v="Bringsvollen" />
		<tag k="place" v="isolated_dwelling" />
		<tag k="ssr:stedsnr" v="135713" />
	</node>
	<node lat="63.80339411979416" lon="11.836929532665318" id="-88605">
		<tag k="fixme" v="consider place=hamlet" />
		<tag k="name" v="Holmlia" />
		<tag k="place" v="farm" />
		<tag k="ssr:stedsnr" v="135607" />
	</node>
	<node lat="63.76381810743067" lon="11.753705494906919" id="-88607">
		<tag k="fixme" v="consider place=hamlet" />
		<tag k="name" v="Dillan" />
		<tag k="place" v="farm" />
		<tag k="ssr:stedsnr" v="135610" />
	</node>
	<node lat="63.76549999725757" lon="11.734333323692082" id="-88608">
		<tag k="name" v="Øvre" />
		<tag k="place" v="farm" />
		<tag k="ssr:stedsnr" v="135611" />
	</node>
	<node lat="63.66538333222761" lon="11.99906943494785" id="-88613">
		<tag k="name" v="Sørenget" />
		<tag k="place" v="farm" />
		<tag k="ssr:stedsnr" v="145825" />
	</node>
	<node lat="63.78845000011092" lon="11.709150004147816" id="-88618">
		<tag k="name" v="Helsetbakken" />
		<tag k="place" v="farm" />
		<tag k="ssr:stedsnr" v="147616" />
	</node>
	<node lat="63.77663333018887" lon="11.651063884708515" id="-88619">
		<tag k="name" v="Landfall" />
		<tag k="old_name" v="Landfald" />
		<tag k="place" v="farm" />
		<tag k="ssr:stedsnr" v="147622" />
	</node>
	<node lat="63.77653055987539" lon="11.663825005346528" id="-88620">
		<tag k="name" v="Vestre Vola" />
		<tag k="place" v="farm" />
		<tag k="ssr:stedsnr" v="147625" />
	</node>
	<node lat="63.76984900746998" lon="11.524081733203802" id="-88621">
		<tag k="fixme" v="consider place=hamlet" />
		<tag k="name" v="Vallstad" />
		<tag k="place" v="farm" />
		<tag k="ssr:stedsnr" v="147515" />
	</node>
	<node lat="63.755386111955715" lon="11.508019442854268" id="-88622">
		<tag k="alt_name" v="Reinåsen" />
		<tag k="name" v="Reinås" />
		<tag k="place" v="farm" />
		<tag k="ssr:stedsnr" v="147517" />
	</node>
	<node lat="63.76858055404942" lon="11.59071667087506" id="-88623">
		<tag k="name" v="Fergestad" />
		<tag k="place" v="farm" />
		<tag k="ssr:stedsnr" v="147522" />
	</node>
	<node lat="63.671202775861055" lon="12.220902768010724" id="-88627">
		<tag k="alt_name" v="Nord-Innsvollen" />
		<tag k="historic" v="shieling" />
		<tag k="name" v="Innsvollen" />
		<tag k="place" v="isolated_dwelling" />
		<tag k="ssr:stedsnr" v="256130" />
	</node>
	<node lat="63.82365555939545" lon="11.634544446342659" id="-88629">
		<tag k="name" v="Flatås" />
		<tag k="place" v="farm" />
		<tag k="ssr:stedsnr" v="256226" />
	</node>
	<node lat="63.77503889065453" lon="11.504875007683657" id="-88630">
		<tag k="alt_name" v="Vestre By;By vestre" />
		<tag k="name" v="By" />
		<tag k="place" v="farm" />
		<tag k="ssr:stedsnr" v="256271" />
	</node>
	<node lat="63.82533888648299" lon="11.483261110783413" id="-88632">
		<tag k="name" v="Hall" />
		<tag k="place" v="farm" />
		<tag k="ssr:stedsnr" v="256235" />
	</node>
	<node lat="63.77796661049696" lon="11.557515237776347" id="-88633">
		<tag k="alt_name" v="Trøgstad" />
		<tag k="name" v="Trykstad" />
		<tag k="place" v="farm" />
		<tag k="ssr:stedsnr" v="256255" />
	</node>
	<node lat="63.78176820810155" lon="11.598639871020193" id="-88634">
		<tag k="fixme" v="consider place=hamlet" />
		<tag k="name" v="Mo" />
		<tag k="place" v="farm" />
		<tag k="ssr:stedsnr" v="256257" />
	</node>
	<node lat="63.775600003877855" lon="11.625616674984695" id="-88635">
		<tag k="name" v="Eklo, midtre" />
		<tag k="place" v="farm" />
		<tag k="ssr:stedsnr" v="256258" />
	</node>
	<node lat="63.79967221873758" lon="11.563627769271772" id="-88639">
		<tag k="name" v="Lia" />
		<tag k="place" v="farm" />
		<tag k="ssr:stedsnr" v="256279" />
	</node>
	<node lat="63.799573843563216" lon="11.591742179706069" id="-88640">
		<tag k="name" v="Dagali" />
		<tag k="place" v="farm" />
		<tag k="ssr:stedsnr" v="256282" />
	</node>
	<node lat="63.66409166322798" lon="12.01048333625366" id="-88641">
		<tag k="name" v="Åsen" />
		<tag k="place" v="farm" />
		<tag k="ssr:stedsnr" v="256285" />
	</node>
	<node lat="63.676137811643166" lon="12.013816036658676" id="-88643">
		<tag k="fixme" v="consider place=hamlet" />
		<tag k="name" v="Vestgarden" />
		<tag k="place" v="farm" />
		<tag k="ssr:stedsnr" v="256294" />
	</node>
	<node lat="63.905149998240624" lon="12.146116661099466" id="-88645">
		<tag k="historic" v="shieling" />
		<tag k="name" v="Kolstadseteren" />
		<tag k="place" v="isolated_dwelling" />
		<tag k="ssr:stedsnr" v="256427" />
	</node>
	<node lat="63.8618633813275" lon="11.974596069871934" id="-88650">
		<tag k="fixme" v="consider place=hamlet" />
		<tag k="name" v="Tosteigan" />
		<tag k="place" v="farm" />
		<tag k="ssr:stedsnr" v="256498" />
	</node>
	<node lat="63.80862500174529" lon="11.757924990046106" id="-88651">
		<tag k="name" v="Skavdalen" />
		<tag k="place" v="farm" />
		<tag k="ssr:stedsnr" v="256580" />
	</node>
	<node lat="63.846491665621095" lon="12.162402768190399" id="-88653">
		<tag k="name" v="Finnvollen" />
		<tag k="place" v="locality" />
		<tag k="ssr:stedsnr" v="256522" />
	</node>
	<node lat="63.81583055155794" lon="11.86246389681788" id="-88654">
		<tag k="name" v="Haugset" />
		<tag k="place" v="farm" />
		<tag k="ssr:stedsnr" v="256528" />
	</node>
	<node lat="63.78548959940276" lon="11.76315007702383" id="-88656">
		<tag k="name" v="Hjellan" />
		<tag k="place" v="hamlet" />
		<tag k="ssr:stedsnr" v="256630" />
	</node>
	<node lat="63.76905891144889" lon="11.618593746489406" id="-88664">
		<tag k="fixme" v="consider place=hamlet" />
		<tag k="name" v="Melby" />
		<tag k="old_name" v="Melbu" />
		<tag k="place" v="farm" />
		<tag k="ssr:stedsnr" v="257378" />
	</node>
	<node lat="63.767966314439086" lon="11.67643208083746" id="-88665">
		<tag k="alt_name" v="Ytter Bollgarden" />
		<tag k="fixme" v="consider place=hamlet" />
		<tag k="name" v="Bollgarden" />
		<tag k="place" v="farm" />
		<tag k="ssr:stedsnr" v="257380" />
	</node>
	<node lat="63.757452781706725" lon="11.578002778737904" id="-88666">
		<tag k="name" v="Fossheim" />
		<tag k="place" v="farm" />
		<tag k="ssr:stedsnr" v="257354" />
	</node>
	<node lat="63.76303479518068" lon="11.68144388439921" id="-88667">
		<tag k="fixme" v="consider place=hamlet" />
		<tag k="name" v="Kvello" />
		<tag k="place" v="farm" />
		<tag k="ssr:stedsnr" v="257422" />
	</node>
	<node lat="63.766903312954106" lon="11.620303200748285" id="-88668">
		<tag k="fixme" v="consider place=hamlet" />
		<tag k="name" v="Østgard" />
		<tag k="place" v="farm" />
		<tag k="ssr:stedsnr" v="257401" />
	</node>
	<node lat="63.81970555544749" lon="11.886611109362168" id="-88669">
		<tag k="name" v="Bakken" />
		<tag k="place" v="farm" />
		<tag k="ssr:stedsnr" v="257633" />
	</node>
	<node lat="63.82369999579182" lon="11.914494452437015" id="-88670">
		<tag k="name" v="Li" />
		<tag k="place" v="farm" />
		<tag k="ssr:stedsnr" v="257640" />
	</node>
	<node lat="63.81657222063324" lon="11.936416672676819" id="-88671">
		<tag k="name" v="Berg" />
		<tag k="place" v="farm" />
		<tag k="ssr:stedsnr" v="257644" />
	</node>
	<node lat="63.78111388862293" lon="11.764302775493658" id="-88673">
		<tag k="name" v="Nysete" />
		<tag k="place" v="farm" />
		<tag k="ssr:stedsnr" v="257687" />
	</node>
	<node lat="63.800126732097944" lon="12.385749115348325" id="-88676">
		<tag k="alt_name" v="Sisselvold" />
		<tag k="fixme" v="consider place=hamlet" />
		<tag k="name" v="Sessilvollen" />
		<tag k="place" v="farm" />
		<tag k="ssr:stedsnr" v="257809" />
	</node>
	<node lat="63.78534554718726" lon="12.379769008205203" id="-88678">
		<tag k="alt_name" v="Væren;Vera;Søndre Væren" />
		<tag k="name" v="Sveet" />
		<tag k="place" v="farm" />
		<tag k="ssr:stedsnr" v="257818" />
	</node>
	<node lat="63.766630559480774" lon="11.480808332575407" id="-88683">
		<tag k="name" v="Odden" />
		<tag k="place" v="isolated_dwelling" />
		<tag k="ssr:stedsnr" v="166219" />
	</node>
	<node lat="63.71653055705273" lon="11.686019449009905" id="-88696">
		<tag k="historic" v="shieling" />
		<tag k="name" v="Hoåsvollen" />
		<tag k="place" v="isolated_dwelling" />
		<tag k="ssr:stedsnr" v="170974" />
	</node>
	<node lat="63.84949444216011" lon="11.650150004951048" id="-88703">
		<tag k="name" v="Nordset" />
		<tag k="place" v="farm" />
		<tag k="ssr:stedsnr" v="196131" />
	</node>
	<node lat="63.81488888828007" lon="11.63943333089281" id="-88704">
		<tag k="alt_name" v="Vestre Sende" />
		<tag k="name" v="Sende" />
		<tag k="place" v="farm" />
		<tag k="ssr:stedsnr" v="196203" />
	</node>
	<node lat="63.81705277756126" lon="11.49791944018907" id="-88705">
		<tag k="alt_name" v="Minsås, vestre" />
		<tag k="name" v="Vestre Minsås" />
		<tag k="place" v="farm" />
		<tag k="ssr:stedsnr" v="196207" />
	</node>
	<node lat="63.822772222182834" lon="11.675241667550425" id="-88706">
		<tag k="name" v="Musemaunet" />
		<tag k="place" v="farm" />
		<tag k="ssr:stedsnr" v="196211" />
	</node>
	<node lat="63.84423055498864" lon="11.680374993721374" id="-88707">
		<tag k="name" v="Elvesveet" />
		<tag k="place" v="farm" />
		<tag k="ssr:stedsnr" v="196233" />
	</node>
	<node lat="63.8399611094316" lon="11.63073888096117" id="-88708">
		<tag k="name" v="Myrvang" />
		<tag k="place" v="farm" />
		<tag k="ssr:stedsnr" v="196236" />
	</node>
	<node lat="63.75473725811044" lon="11.696156969329293" id="-88709">
		<tag k="fixme" v="consider place=hamlet" />
		<tag k="name" v="Levringan" />
		<tag k="place" v="farm" />
		<tag k="ssr:stedsnr" v="196286" />
	</node>
	<node lat="63.7707305588501" lon="11.686263879481427" id="-88712">
		<tag k="name" v="Heggjanes" />
		<tag k="old_name" v="Kvellstad" />
		<tag k="place" v="farm" />
		<tag k="ssr:stedsnr" v="196304" />
	</node>
	<node lat="63.76888480756814" lon="11.69612008848676" id="-88713">
		<tag k="fixme" v="consider place=hamlet" />
		<tag k="name" v="Kvellstad" />
		<tag k="place" v="farm" />
		<tag k="ssr:stedsnr" v="196306" />
	</node>
	<node lat="63.761233552195925" lon="11.502846468828915" id="-88715">
		<tag k="fixme" v="consider place=hamlet" />
		<tag k="name" v="Nygjardet" />
		<tag k="place" v="farm" />
		<tag k="ssr:stedsnr" v="196311" />
	</node>
	<node lat="63.79454999793813" lon="11.82080832580985" id="-88719">
		<tag k="name" v="Selneset" />
		<tag k="place" v="farm" />
		<tag k="ssr:stedsnr" v="196562" />
	</node>
	<node lat="63.77610833305003" lon="12.381949995401532" id="-88726">
		<tag k="name" v="Symoen" />
		<tag k="place" v="farm" />
		<tag k="ssr:stedsnr" v="196764" />
	</node>
	<node lat="63.784833332185265" lon="11.772594439141772" id="-88732">
		<tag k="name" v="Østre Hjellan" />
		<tag k="place" v="farm" />
		<tag k="ssr:stedsnr" v="267661" />
	</node>
	<node lat="63.77583888968891" lon="11.484380562528322" id="-88735">
		<tag k="name" v="Veie" />
		<tag k="place" v="farm" />
		<tag k="ssr:stedsnr" v="268538" />
	</node>
	<node lat="63.780047226372844" lon="11.662297225241693" id="-88741">
		<tag k="alt_name" v="Brannhaugen søre" />
		<tag k="name" v="Søre Brannhaugen" />
		<tag k="place" v="farm" />
		<tag k="ssr:stedsnr" v="268640" />
	</node>
	<node lat="63.78876388822046" lon="11.66389999314566" id="-88742">
		<tag k="name" v="Ekeberg" />
		<tag k="place" v="farm" />
		<tag k="ssr:stedsnr" v="268641" />
	</node>
	<node lat="63.77694444014324" lon="11.545969443488556" id="-88743">
		<tag k="alt_name" v="Rossvoll søre" />
		<tag k="name" v="Søre Rossvoll" />
		<tag k="place" v="farm" />
		<tag k="ssr:stedsnr" v="268667" />
	</node>
	<node lat="63.773713738255" lon="11.730077890636583" id="-88744">
		<tag k="fixme" v="consider place=hamlet" />
		<tag k="name" v="Austnes" />
		<tag k="place" v="farm" />
		<tag k="ssr:stedsnr" v="268620" />
	</node>
	<node lat="63.7724472227468" lon="11.478977785482899" id="-88746">
		<tag k="name" v="Brannan" />
		<tag k="place" v="quarter" />
		<tag k="ssr:stedsnr" v="207243" />
	</node>
	<node lat="63.8100333328115" lon="11.810549995894041" id="-88764">
		<tag k="name" v="Øster Kluken" />
		<tag k="place" v="farm" />
		<tag k="ssr:stedsnr" v="230091" />
	</node>
	<node lat="63.79582777442208" lon="11.631266673669584" id="-88769">
		<tag k="name" v="Gjermstad" />
		<tag k="place" v="farm" />
		<tag k="ssr:stedsnr" v="450164" />
	</node>
	<node lat="63.76524999684596" lon="11.540480556097991" id="-88771">
		<tag k="name" v="Krikaplassen" />
		<tag k="place" v="locality" />
		<tag k="ssr:stedsnr" v="450535" />
	</node>
	<node lat="63.76975294600262" lon="11.531144022810729" id="-88774">
		<tag k="name" v="Vestre Leirfall" />
		<tag k="place" v="farm" />
		<tag k="ssr:stedsnr" v="450565" />
	</node>
	<node lat="63.76506111499311" lon="11.585686114843892" id="-88780">
		<tag k="name" v="Lauvnes" />
		<tag k="place" v="farm" />
		<tag k="ssr:stedsnr" v="450716" />
	</node>
	<node lat="63.756277826216916" lon="11.691273235151618" id="-88782">
		<tag k="name" v="Stevret" />
		<tag k="place" v="farm" />
		<tag k="ssr:stedsnr" v="450720" />
	</node>
	<node lat="63.78720555925683" lon="11.511036103061736" id="-88786">
		<tag k="name" v="Visøya" />
		<tag k="place" v="farm" />
		<tag k="ssr:stedsnr" v="450695" />
	</node>
	<node lat="63.796219447362525" lon="11.597358330580795" id="-88787">
		<tag k="name" v="Skogmo" />
		<tag k="place" v="farm" />
		<tag k="ssr:stedsnr" v="450700" />
	</node>
	<node lat="63.8145277781568" lon="11.556833342774809" id="-88790">
		<tag k="name" v="Fiskvik" />
		<tag k="place" v="isolated_dwelling" />
		<tag k="ssr:stedsnr" v="450732" />
	</node>
	<node lat="63.81758333227233" lon="11.554666665388064" id="-88797">
		<tag k="name" v="Vistvik" />
		<tag k="place" v="isolated_dwelling" />
		<tag k="ssr:stedsnr" v="256204" />
	</node>
	<node lat="63.817084831109646" lon="11.62917481220418" id="-88798">
		<tag k="fixme" v="consider place=hamlet" />
		<tag k="name" v="Tømmeråsen" />
		<tag k="place" v="farm" />
		<tag k="ssr:stedsnr" v="256207" />
	</node>
	<node lat="63.77787671389311" lon="11.711874987771843" id="-88799">
		<tag k="name" v="Auskin" />
		<tag k="place" v="hamlet" />
		<tag k="ssr:stedsnr" v="256261" />
	</node>
	<node lat="63.85946388935162" lon="12.172513880516492" id="-88800">
		<tag k="name" v="Tevet" />
		<tag k="place" v="isolated_dwelling" />
		<tag k="ssr:stedsnr" v="256463" />
	</node>
	<node lat="63.8063722265729" lon="11.557002768225596" id="-88807">
		<tag k="name" v="Fagerli" />
		<tag k="place" v="farm" />
		<tag k="ssr:stedsnr" v="257210" />
	</node>
	<node lat="63.812469444329324" lon="11.480744438675206" id="-88808">
		<tag k="name" v="Reitaunet" />
		<tag k="place" v="farm" />
		<tag k="ssr:stedsnr" v="257217" />
	</node>
	<node lat="63.814369441102706" lon="11.661277775421738" id="-88809">
		<tag k="alt_name" v="Sende, midtre" />
		<tag k="name" v="Midtre Sende" />
		<tag k="place" v="farm" />
		<tag k="ssr:stedsnr" v="257218" />
	</node>
	<node lat="63.76680277462709" lon="11.555733324708857" id="-88811">
		<tag k="alt_name" v="Nes, østre" />
		<tag k="name" v="Østre Nes" />
		<tag k="place" v="farm" />
		<tag k="ssr:stedsnr" v="257412" />
	</node>
	<node lat="63.8142999966232" lon="11.945427779475114" id="-88823">
		<tag k="name" v="Skansmo" />
		<tag k="place" v="farm" />
		<tag k="ssr:stedsnr" v="267791" />
	</node>
	<node lat="63.758675002875634" lon="11.577552779503899" id="-88826">
		<tag k="name" v="Stamli" />
		<tag k="place" v="farm" />
		<tag k="ssr:stedsnr" v="268529" />
	</node>
	<node lat="63.77748696588663" lon="11.626796443953081" id="-88827">
		<tag k="name" v="Eklo" />
		<tag k="place" v="hamlet" />
		<tag k="ssr:stedsnr" v="268732" />
	</node>
	<node lat="63.71670111270428" lon="11.765190042094781" id="-88849">
		<tag k="fixme" v="consider place=hamlet" />
		<tag k="name" v="Øysteråsan" />
		<tag k="place" v="farm" />
		<tag k="ssr:stedsnr" v="316303" />
	</node>
	<node lat="63.73763333583581" lon="11.758033332621338" id="-88850">
		<tag k="name" v="Garnesmoen" />
		<tag k="place" v="farm" />
		<tag k="ssr:stedsnr" v="316316" />
	</node>
	<node lat="63.819591616146695" lon="11.443461885229112" id="-88853">
		<tag k="fixme" v="consider place=hamlet" />
		<tag k="name" v="Myr" />
		<tag k="place" v="farm" />
		<tag k="ssr:stedsnr" v="317209" />
	</node>
	<node lat="63.82998147745216" lon="11.486037975203315" id="-88854">
		<tag k="fixme" v="consider place=hamlet" />
		<tag k="name" v="Husan" />
		<tag k="place" v="farm" />
		<tag k="ssr:stedsnr" v="317215" />
	</node>
	<node lat="63.83381666953241" lon="11.647636115162339" id="-88855">
		<tag k="name" v="Buset" />
		<tag k="place" v="farm" />
		<tag k="ssr:stedsnr" v="317222" />
	</node>
	<node lat="63.837865066262665" lon="11.644826399671059" id="-88856">
		<tag k="name" v="Granholt" />
		<tag k="place" v="farm" />
		<tag k="ssr:stedsnr" v="317223" />
	</node>
	<node lat="63.900074996612354" lon="12.067483323569256" id="-88857">
		<tag k="historic" v="shieling" />
		<tag k="name" v="Sagvollseteren" />
		<tag k="place" v="isolated_dwelling" />
		<tag k="ssr:stedsnr" v="317391" />
	</node>
	<node lat="63.814201553050985" lon="11.819426025856895" id="-88861">
		<tag k="fixme" v="consider place=hamlet" />
		<tag k="name" v="Åsen" />
		<tag k="place" v="farm" />
		<tag k="ssr:stedsnr" v="317520" />
	</node>
	<node lat="63.81277499926294" lon="11.935636117333441" id="-88862">
		<tag k="name" v="Sør-Elnes" />
		<tag k="place" v="farm" />
		<tag k="ssr:stedsnr" v="317546" />
	</node>
	<node lat="63.821313886172625" lon="12.11061666272277" id="-88863">
		<tag k="name" v="Fjellstad" />
		<tag k="place" v="farm" />
		<tag k="ssr:stedsnr" v="317548" />
	</node>
	<node lat="63.75256666378223" lon="11.715522216527152" id="-88866">
		<tag k="name" v="Steine" />
		<tag k="place" v="farm" />
		<tag k="ssr:stedsnr" v="317294" />
	</node>
	<node lat="63.822996282593735" lon="11.761972365337682" id="-88869">
		<tag k="fixme" v="consider place=hamlet" />
		<tag k="name" v="Kjesbua" />
		<tag k="place" v="farm" />
		<tag k="ssr:stedsnr" v="317495" />
	</node>
	<node lat="63.80104722341732" lon="12.449416670528379" id="-88871">
		<tag k="name" v="Strådalen" />
		<tag k="place" v="farm" />
		<tag k="ssr:stedsnr" v="317710" />
	</node>
	<node lat="63.770780098253745" lon="11.511774336320583" id="-88872">
		<tag k="name" v="By" />
		<tag k="place" v="hamlet" />
		<tag k="ssr:stedsnr" v="317740" />
	</node>
	<node lat="63.81582778146324" lon="11.416458334469269" id="-88874">
		<tag k="name" v="Sørskaget" />
		<tag k="place" v="hamlet" />
		<tag k="ssr:stedsnr" v="328719" />
	</node>
	<node lat="63.785177775758534" lon="11.757008324284977" id="-88876">
		<tag k="name" v="Vest-Hjellan" />
		<tag k="place" v="farm" />
		<tag k="ssr:stedsnr" v="328661" />
	</node>
	<node lat="63.66992896687396" lon="11.993676142195524" id="-88879">
		<tag k="name" v="Sandneset" />
		<tag k="place" v="farm" />
		<tag k="ssr:stedsnr" v="328819" />
	</node>
	<node lat="63.75861944262749" lon="11.48425556107173" id="-88880">
		<tag k="name" v="Granlund" />
		<tag k="place" v="farm" />
		<tag k="ssr:stedsnr" v="329522" />
	</node>
	<node lat="63.79389722466729" lon="11.516011114353942" id="-88882">
		<tag k="name" v="Kirkehaug" />
		<tag k="place" v="quarter" />
		<tag k="ssr:stedsnr" v="329659" />
	</node>
	<node lat="63.84288333702095" lon="11.67232778428272" id="-88900">
		<tag k="name" v="Solheim" />
		<tag k="place" v="farm" />
		<tag k="ssr:stedsnr" v="473248" />
	</node>
	<node lat="63.79443333068083" lon="11.988977776242056" id="-88901">
		<tag k="name" v="Storstadseter" />
		<tag k="place" v="locality" />
		<tag k="ssr:stedsnr" v="473435" />
	</node>
	<node lat="63.81821944623479" lon="11.664116672144175" id="-88907">
		<tag k="name" v="Duvsete" />
		<tag k="place" v="farm" />
		<tag k="ssr:stedsnr" v="351918" />
	</node>
	<node lat="63.84761842763702" lon="11.704883786275873" id="-88912">
		<tag k="name" v="Marka" />
		<tag k="place" v="hamlet" />
		<tag k="ssr:stedsnr" v="352211" />
	</node>
	<node lat="63.743341666520635" lon="11.739155553266997" id="-88917">
		<tag k="name" v="Molda" />
		<tag k="place" v="farm" />
		<tag k="ssr:stedsnr" v="352964" />
	</node>
	<node lat="63.78088055149039" lon="11.553013881696188" id="-88921">
		<tag k="name" v="Store Rossvoll" />
		<tag k="place" v="farm" />
		<tag k="ssr:stedsnr" v="358965" />
	</node>
	<node lat="63.81797266262199" lon="11.44137876260134" id="-88922">
		<tag k="fixme" v="consider place=hamlet" />
		<tag k="name" v="Åkerhus" />
		<tag k="place" v="farm" />
		<tag k="ssr:stedsnr" v="378208" />
	</node>
	<node lat="63.818941670199486" lon="11.47984999101223" id="-88923">
		<tag k="alt_name" v="Ysse, nordre;Ysse nordre" />
		<tag k="name" v="Nordre Ysse" />
		<tag k="place" v="farm" />
		<tag k="ssr:stedsnr" v="378213" />
	</node>
	<node lat="63.75462777549193" lon="11.467050006308675" id="-88924">
		<tag k="alt_name" v="Hallan, søre" />
		<tag k="name" v="Søre Hallan" />
		<tag k="place" v="farm" />
		<tag k="ssr:stedsnr" v="378319" />
	</node>
	<node lat="63.76021666369098" lon="11.585705558051783" id="-88925">
		<tag k="alt_name" v="Skjørdal nedre;Skjørdalen" />
		<tag k="name" v="Nedre Skjørdalen" />
		<tag k="place" v="farm" />
		<tag k="ssr:stedsnr" v="378371" />
	</node>
	<node lat="63.83159787972362" lon="11.896529871504278" id="-88926">
		<tag k="fixme" v="consider place=hamlet" />
		<tag k="name" v="Varslåtten" />
		<tag k="place" v="farm" />
		<tag k="ssr:stedsnr" v="378563" />
	</node>
	<node lat="63.741447222553845" lon="11.782208338458476" id="-88931">
		<tag k="name" v="Øvre Skavhaugg" />
		<tag k="place" v="farm" />
		<tag k="ssr:stedsnr" v="482049" />
	</node>
	<node lat="63.80180833064492" lon="12.355405553545511" id="-88932">
		<tag k="alt_name" v="Nordre Væren" />
		<tag k="name" v="Nord-Vera" />
		<tag k="place" v="farm" />
		<tag k="ssr:stedsnr" v="482054" />
	</node>
	<node lat="63.83952499613619" lon="12.018566656151503" id="-88935">
		<tag k="name" v="Åkerenget" />
		<tag k="place" v="farm" />
		<tag k="ssr:stedsnr" v="388803" />
	</node>
	<node lat="63.809091668037595" lon="12.173199336038069" id="-88936">
		<tag k="fixme" v="consider place=hamlet" />
		<tag k="name" v="Brattåsen" />
		<tag k="place" v="farm" />
		<tag k="ssr:stedsnr" v="388817" />
	</node>
	<node lat="63.77186389226649" lon="11.47693610769898" id="-88937">
		<tag k="name" v="Baglan-Berg" />
		<tag k="place" v="quarter" />
		<tag k="ssr:stedsnr" v="389509" />
	</node>
	<node lat="63.82368611381982" lon="11.518716675659197" id="-88938">
		<tag k="name" v="Sandlia" />
		<tag k="place" v="farm" />
		<tag k="ssr:stedsnr" v="389712" />
	</node>
	<node lat="63.78488055264383" lon="11.600658330843533" id="-88939">
		<tag k="name" v="Mogrenda" />
		<tag k="place" v="quarter" />
		<tag k="ssr:stedsnr" v="389727" />
	</node>
	<node lat="63.804808337283035" lon="11.593069450089923" id="-88941">
		<tag k="alt_name" v="Buvold" />
		<tag k="name" v="Buvollen" />
		<tag k="place" v="farm" />
		<tag k="ssr:stedsnr" v="389691" />
	</node>
	<node lat="63.83764166968142" lon="11.640727784881731" id="-88962">
		<tag k="name" v="Gravstedåsen" />
		<tag k="place" v="farm" />
		<tag k="ssr:stedsnr" v="413251" />
	</node>
	<node lat="63.84446666492163" lon="11.539472224814194" id="-88967">
		<tag k="name" v="Sandsvollen" />
		<tag k="place" v="locality" />
		<tag k="ssr:stedsnr" v="413988" />
	</node>
	<node lat="63.700455556746554" lon="11.642594437782396" id="-88976">
		<tag k="alt_name" v="Helberg seter" />
		<tag k="historic" v="shieling" />
		<tag k="name" v="Helbergvollen" />
		<tag k="place" v="isolated_dwelling" />
		<tag k="ssr:stedsnr" v="438552" />
	</node>
	<node lat="63.69580555743241" lon="11.710022223493805" id="-88978">
		<tag k="name" v="Tortåsvollen" />
		<tag k="place" v="isolated_dwelling" />
		<tag k="ssr:stedsnr" v="438565" />
	</node>
	<node lat="63.9471222194917" lon="12.29999443772991" id="-88979">
		<tag k="name" v="Skjækervollan" />
		<tag k="place" v="locality" />
		<tag k="ssr:stedsnr" v="438712" />
	</node>
	<node lat="63.82566389167127" lon="11.632799997119564" id="-88983">
		<tag k="name" v="Binde" />
		<tag k="place" v="farm" />
		<tag k="ssr:stedsnr" v="439208" />
	</node>
	<node lat="63.816367087905824" lon="11.443842599317005" id="-88984">
		<tag k="fixme" v="consider place=hamlet" />
		<tag k="name" v="Svinhammar" />
		<tag k="place" v="farm" />
		<tag k="ssr:stedsnr" v="439195" />
	</node>
	<node lat="63.82306017699461" lon="11.447780981091624" id="-88985">
		<tag k="fixme" v="consider place=hamlet" />
		<tag k="name" v="Fleskhus" />
		<tag k="place" v="farm" />
		<tag k="ssr:stedsnr" v="439198" />
	</node>
	<node lat="63.76454999687223" lon="11.7413638810385" id="-88987">
		<tag k="name" v="Engsvehaugen" />
		<tag k="place" v="farm" />
		<tag k="ssr:stedsnr" v="439615" />
	</node>
	<node lat="63.788411108496355" lon="11.8005388825052" id="-88989">
		<tag k="name" v="Innlegghaugen" />
		<tag k="place" v="farm" />
		<tag k="ssr:stedsnr" v="439651" />
	</node>
	<node lat="63.794827776907255" lon="11.999824992979276" id="-88990">
		<tag k="name" v="Storstadvollen" />
		<tag k="place" v="locality" />
		<tag k="ssr:stedsnr" v="439599" />
	</node>
	<node lat="63.81136389302994" lon="11.576500002694246" id="-89006">
		<tag k="name" v="Østre Støa" />
		<tag k="place" v="farm" />
		<tag k="ssr:stedsnr" v="450706" />
	</node>
	<node lat="63.795991668437736" lon="11.558766674661342" id="-89007">
		<tag k="name" v="Stiklestad" />
		<tag k="place" v="hamlet" />
		<tag k="ssr:stedsnr" v="450709" />
	</node>
	<node lat="63.92062499729689" lon="12.098391671192783" id="-89013">
		<tag k="historic" v="shieling" />
		<tag k="name" v="Krogseteren" />
		<tag k="place" v="isolated_dwelling" />
		<tag k="ssr:stedsnr" v="473716" />
	</node>
	<node lat="63.83428055311762" lon="11.427466662627634" id="-89020">
		<tag k="name" v="Bjørgvika" />
		<tag k="place" v="farm" />
		<tag k="ssr:stedsnr" v="473776" />
	</node>
	<node lat="63.744949997737336" lon="11.73376943778855" id="-89024">
		<tag k="name" v="Molda" />
		<tag k="place" v="farm" />
		<tag k="ssr:stedsnr" v="680292" />
	</node>
	<node lat="63.72534999614544" lon="11.806452776925898" id="-89026">
		<tag k="name" v="Krika" />
		<tag k="place" v="farm" />
		<tag k="ssr:stedsnr" v="680299" />
	</node>
	<node lat="63.81354166983575" lon="11.561880556391612" id="-89033">
		<tag k="name" v="Nordli" />
		<tag k="place" v="farm" />
		<tag k="ssr:stedsnr" v="681182" />
	</node>
	<node lat="63.80064722331283" lon="11.580761104433297" id="-89041">
		<tag k="alt_name" v="Kolshaugan" />
		<tag k="name" v="Kolshaug" />
		<tag k="place" v="farm" />
		<tag k="ssr:stedsnr" v="681279" />
	</node>
	<node lat="63.79990785055069" lon="11.589403012216595" id="-89042">
		<tag k="alt_name" v="Øystad" />
		<tag k="fixme" v="consider place=hamlet" />
		<tag k="name" v="Øgstad" />
		<tag k="place" v="farm" />
		<tag k="ssr:stedsnr" v="681280" />
	</node>
	<node lat="63.83910278198042" lon="11.69003612003096" id="-89044">
		<tag k="name" v="Lunde" />
		<tag k="place" v="farm" />
		<tag k="ssr:stedsnr" v="681236" />
	</node>
	<node lat="63.78655278089531" lon="11.670144445921247" id="-89049">
		<tag k="alt_name" v="Trygstadaunet" />
		<tag k="name" v="Trøgstadaunet" />
		<tag k="place" v="farm" />
		<tag k="ssr:stedsnr" v="681242" />
	</node>
	<node lat="63.7965924558247" lon="11.636998702650656" id="-89052">
		<tag k="fixme" v="consider place=hamlet" />
		<tag k="name" v="Skei" />
		<tag k="place" v="farm" />
		<tag k="ssr:stedsnr" v="681281" />
	</node>
	<node lat="63.78968128401968" lon="11.557462011596105" id="-89053">
		<tag k="fixme" v="consider place=hamlet" />
		<tag k="name" v="Ekle" />
		<tag k="place" v="farm" />
		<tag k="ssr:stedsnr" v="681289" />
	</node>
	<node lat="63.813758328939926" lon="11.666116666792595" id="-89056">
		<tag k="alt_name" v="Sende, øvre" />
		<tag k="name" v="Øvre Sende" />
		<tag k="place" v="farm" />
		<tag k="ssr:stedsnr" v="499152" />
	</node>
	<node lat="63.81964444334961" lon="11.669661102637408" id="-89057">
		<tag k="alt_name" v="Sende, nordre" />
		<tag k="name" v="Nordre Sende" />
		<tag k="place" v="farm" />
		<tag k="ssr:stedsnr" v="499153" />
	</node>
	<node lat="63.76134166702144" lon="11.472336111084868" id="-89058">
		<tag k="alt_name" v="Hallan, nedre;Nedre Hallan" />
		<tag k="name" v="Ner-Hallan" />
		<tag k="place" v="farm" />
		<tag k="ssr:stedsnr" v="681299" />
	</node>
	<node lat="63.76919548711881" lon="11.50084535314896" id="-89062">
		<tag k="fixme" v="consider place=hamlet" />
		<tag k="name" v="Flotten" />
		<tag k="place" v="farm" />
		<tag k="ssr:stedsnr" v="681344" />
	</node>
	<node lat="63.76179444556393" lon="11.473583325327612" id="-89063">
		<tag k="name" v="Blybakken" />
		<tag k="place" v="farm" />
		<tag k="ssr:stedsnr" v="681347" />
	</node>
	<node lat="63.792499996917435" lon="11.676413884019864" id="-89064">
		<tag k="name" v="Lundegård" />
		<tag k="place" v="farm" />
		<tag k="ssr:stedsnr" v="499195" />
	</node>
	<node lat="63.768122223522916" lon="11.559252783042055" id="-89065">
		<tag k="alt_name" v="Nes, vestre" />
		<tag k="name" v="Vestre Nes" />
		<tag k="place" v="farm" />
		<tag k="ssr:stedsnr" v="499302" />
	</node>
	<node lat="63.88757500410964" lon="11.732308325331047" id="-89067">
		<tag k="name" v="Eklesseteren" />
		<tag k="place" v="locality" />
		<tag k="ssr:stedsnr" v="499390" />
	</node>
	<node lat="63.814225004517915" lon="11.86737221564823" id="-89069">
		<tag k="alt_name" v="Haugan østre" />
		<tag k="fixme" v="multiple name tags, choose one and add the other to alt_name" />
		<tag k="name" v="Haugan;Østre Haugan" />
		<tag k="place" v="farm" />
		<tag k="ssr:stedsnr" v="499505" />
	</node>
	<node lat="63.808640426757364" lon="11.853667636502916" id="-89071">
		<tag k="fixme" v="consider place=hamlet" />
		<tag k="name" v="Flyan" />
		<tag k="place" v="farm" />
		<tag k="ssr:stedsnr" v="499511" />
	</node>
	<node lat="63.78470412512464" lon="11.810670588807662" id="-89078">
		<tag k="fixme" v="consider place=hamlet" />
		<tag k="name" v="Aunet" />
		<tag k="place" v="farm" />
		<tag k="ssr:stedsnr" v="499594" />
	</node>
	<node lat="63.840366890798045" lon="12.01153617984462" id="-89081">
		<tag k="fixme" v="consider place=hamlet" />
		<tag k="name" v="Åkervollen" />
		<tag k="place" v="farm" />
		<tag k="ssr:stedsnr" v="681563" />
	</node>
	<node lat="63.81406667003469" lon="11.951930550731602" id="-89084">
		<tag k="alt_name" v="Sørmo" />
		<tag k="name" v="Sørmoen" />
		<tag k="place" v="farm" />
		<tag k="ssr:stedsnr" v="681572" />
	</node>
	<node lat="63.81677592824408" lon="11.867286847420072" id="-89086">
		<tag k="fixme" v="consider place=hamlet" />
		<tag k="name" v="Bjørstad" />
		<tag k="place" v="farm" />
		<tag k="ssr:stedsnr" v="681582" />
	</node>
	<node lat="63.79652402700732" lon="11.815795426108934" id="-89089">
		<tag k="fixme" v="consider place=hamlet" />
		<tag k="name" v="Ulvilla" />
		<tag k="place" v="village" />
		<tag k="ssr:stedsnr" v="681603" />
	</node>
	<node lat="63.81288611029928" lon="12.165338896506606" id="-89090">
		<tag k="name" v="Bergholm" />
		<tag k="place" v="farm" />
		<tag k="ssr:stedsnr" v="681614" />
	</node>
	<node lat="63.80618889012122" lon="11.835463885911729" id="-89091">
		<tag k="name" v="Sponga" />
		<tag k="place" v="farm" />
		<tag k="ssr:stedsnr" v="681625" />
	</node>
	<node lat="63.75646944855998" lon="11.894069446096294" id="-89096">
		<tag k="name" v="Vukuvollen" />
		<tag k="place" v="isolated_dwelling" />
		<tag k="ssr:stedsnr" v="681690" />
	</node>
	<node lat="63.700491664376656" lon="12.28067223205448" id="-89108">
		<tag k="historic" v="shieling" />
		<tag k="name" v="Sørbellingsvollen" />
		<tag k="place" v="isolated_dwelling" />
		<tag k="ssr:stedsnr" v="506310" />
	</node>
	<node lat="63.79790555434114" lon="11.85181666775264" id="-89118">
		<tag k="name" v="Steingrunnan" />
		<tag k="place" v="farm" />
		<tag k="ssr:stedsnr" v="511594" />
	</node>
	<node lat="63.82181388832601" lon="11.519741675294927" id="-89119">
		<tag k="name" v="Sørli" />
		<tag k="place" v="farm" />
		<tag k="ssr:stedsnr" v="511703" />
	</node>
	<node lat="63.772419598921985" lon="11.578107028019305" id="-89120">
		<tag k="leisure" v="pitch" />
		<tag k="name" v="Stiklestad stadion" />
		<tag k="ssr:stedsnr" v="511712" />
	</node>
	<node lat="63.84563888675586" lon="11.647102772065677" id="-89124">
		<tag k="amenity" v="school" />
		<tag k="name" v="Leksdal skole" />
		<tag k="ssr:stedsnr" v="527180" />
	</node>
	<node lat="63.88570277532371" lon="12.053497217475659" id="-89130">
		<tag k="name" v="Tyvdalseteren" />
		<tag k="place" v="locality" />
		<tag k="ssr:stedsnr" v="534428" />
	</node>
	<node lat="63.8380138929728" lon="11.706569443736866" id="-89141">
		<tag k="name" v="Lundsmoen" />
		<tag k="place" v="farm" />
		<tag k="ssr:stedsnr" v="559213" />
	</node>
	<node lat="63.79223333625301" lon="11.642475000099443" id="-89142">
		<tag k="alt_name" v="Rønningan" />
		<tag k="name" v="Rønning" />
		<tag k="place" v="farm" />
		<tag k="ssr:stedsnr" v="559237" />
	</node>
	<node lat="63.78351431796242" lon="11.698360159312884" id="-89143">
		<tag k="fixme" v="consider place=hamlet" />
		<tag k="name" v="Helset" />
		<tag k="place" v="farm" />
		<tag k="ssr:stedsnr" v="559242" />
	</node>
	<node lat="63.777860119233566" lon="11.58516261521886" id="-89144">
		<tag k="name" v="Lyng" />
		<tag k="place" v="hamlet" />
		<tag k="ssr:stedsnr" v="559243" />
	</node>
	<node lat="63.843130553428395" lon="12.015350003717886" id="-89153">
		<tag k="name" v="Sørvang" />
		<tag k="place" v="farm" />
		<tag k="ssr:stedsnr" v="559546" />
	</node>
	<node lat="63.795218666855256" lon="11.673879841876627" id="-89155">
		<tag k="name" v="Skrove" />
		<tag k="place" v="hamlet" />
		<tag k="ssr:stedsnr" v="559288" />
	</node>
	<node lat="63.79305221129753" lon="11.613874783673005" id="-89157">
		<tag k="fixme" v="consider place=hamlet" />
		<tag k="name" v="Follo" />
		<tag k="place" v="farm" />
		<tag k="ssr:stedsnr" v="559299" />
	</node>
	<node lat="63.79389167101775" lon="11.587447220775838" id="-89158">
		<tag k="name" v="Spelan" />
		<tag k="place" v="farm" />
		<tag k="ssr:stedsnr" v="559300" />
	</node>
	<node lat="63.88587013885512" lon="12.020476398269944" id="-89159">
		<tag k="historic" v="shieling" />
		<tag k="name" v="Holmliseteren" />
		<tag k="place" v="isolated_dwelling" />
		<tag k="ssr:stedsnr" v="559440" />
	</node>
	<node lat="63.86504166886529" lon="11.635180560123786" id="-89166">
		<tag k="name" v="Haugan" />
		<tag k="place" v="farm" />
		<tag k="ssr:stedsnr" v="560139" />
	</node>
	<node lat="63.80973411443634" lon="11.545260959092015" id="-89167">
		<tag k="fixme" v="consider place=hamlet" />
		<tag k="name" v="Forbregd" />
		<tag k="place" v="farm" />
		<tag k="ssr:stedsnr" v="560185" />
	</node>
	<node lat="63.761430228395156" lon="11.520760153978891" id="-89169">
		<tag k="fixme" v="consider place=hamlet" />
		<tag k="name" v="Risan" />
		<tag k="place" v="farm" />
		<tag k="ssr:stedsnr" v="560338" />
	</node>
	<node lat="63.83843055351538" lon="12.008580545226266" id="-89171">
		<tag k="name" v="Vestly" />
		<tag k="place" v="isolated_dwelling" />
		<tag k="ssr:stedsnr" v="560576" />
	</node>
	<node lat="63.765483335652846" lon="11.805730550069843" id="-89172">
		<tag k="name" v="Vollan" />
		<tag k="place" v="farm" />
		<tag k="ssr:stedsnr" v="560635" />
	</node>
	<node lat="63.77801666783952" lon="12.379988898736677" id="-89175">
		<tag k="name" v="Bruhaugen" />
		<tag k="place" v="farm" />
		<tag k="ssr:stedsnr" v="560788" />
	</node>
	<node lat="63.663507986159196" lon="12.02155833215352" id="-89182">
		<tag k="name" v="Sulstu" />
		<tag k="place" v="hamlet" />
		<tag k="ssr:stedsnr" v="692957" />
	</node>
	<node lat="63.78609444844081" lon="11.76671666798957" id="-89185">
		<tag k="alt_name" v="Hjellan midtre" />
		<tag k="name" v="Midtre Hjellan" />
		<tag k="place" v="farm" />
		<tag k="ssr:stedsnr" v="570619" />
	</node>
	<node lat="63.78339604984539" lon="11.801170297112675" id="-89186">
		<tag k="alt_name" v="Midtgrunnan" />
		<tag k="name" v="Midtgrunnen" />
		<tag k="place" v="hamlet" />
		<tag k="ssr:stedsnr" v="570624" />
	</node>
	<node lat="63.81670278009009" lon="11.46623611589188" id="-89188">
		<tag k="name" v="Norum" />
		<tag k="place" v="farm" />
		<tag k="ssr:stedsnr" v="693568" />
	</node>
	<node lat="63.80500833658629" lon="11.843005547739587" id="-89189">
		<tag k="alt_name" v="Holmlia midtre" />
		<tag k="name" v="Midtre Holmlia" />
		<tag k="place" v="farm" />
		<tag k="ssr:stedsnr" v="693637" />
	</node>
	<node lat="63.81052222078765" lon="11.571411105831357" id="-89191">
		<tag k="name" v="Vestre Støa" />
		<tag k="place" v="farm" />
		<tag k="ssr:stedsnr" v="693702" />
	</node>
	<node lat="63.83572778038021" lon="11.446169440193254" id="-89192">
		<tag k="name" v="Bakken" />
		<tag k="place" v="farm" />
		<tag k="ssr:stedsnr" v="571549" />
	</node>
	<node lat="63.77533329368937" lon="11.754556036094534" id="-89193">
		<tag k="fixme" v="consider place=hamlet" />
		<tag k="name" v="Kulstad" />
		<tag k="place" v="farm" />
		<tag k="ssr:stedsnr" v="693648" />
	</node>
	<node lat="63.78280833213341" lon="11.590561113481487" id="-89199">
		<tag k="name" v="Lyngsaunet" />
		<tag k="place" v="farm" />
		<tag k="ssr:stedsnr" v="571697" />
	</node>
	<node lat="63.811388218789304" lon="11.86696471502422" id="-89200">
		<tag k="fixme" v="consider place=hamlet" />
		<tag k="name" v="Haugan" />
		<tag k="place" v="farm" />
		<tag k="ssr:stedsnr" v="571598" />
	</node>
	<node lat="63.81124166503043" lon="11.55695833179968" id="-89222">
		<tag k="name" v="Moholt" />
		<tag k="place" v="farm" />
		<tag k="ssr:stedsnr" v="620178" />
	</node>
	<node lat="63.81310833390585" lon="11.563044448968434" id="-89223">
		<tag k="name" v="Tangen" />
		<tag k="place" v="farm" />
		<tag k="ssr:stedsnr" v="620181" />
	</node>
	<node lat="63.81203611473533" lon="11.534202783154438" id="-89224">
		<tag k="alt_name" v="Lein, østre" />
		<tag k="name" v="Østre Lein" />
		<tag k="place" v="farm" />
		<tag k="ssr:stedsnr" v="620188" />
	</node>
	<node lat="63.82503161773198" lon="11.531686905902932" id="-89225">
		<tag k="fixme" v="consider place=hamlet" />
		<tag k="name" v="Sand" />
		<tag k="place" v="farm" />
		<tag k="ssr:stedsnr" v="620218" />
	</node>
	<node lat="63.68643889026416" lon="11.950030553674745" id="-89226">
		<tag k="fixme" v="consider place=hamlet" />
		<tag k="name" v="Stormoen" />
		<tag k="place" v="village" />
		<tag k="ssr:stedsnr" v="620269" />
	</node>
	<node lat="63.7961138907069" lon="11.505525003400935" id="-89228">
		<tag k="alt_name" v="Holmsveet, vestre" />
		<tag k="name" v="Vestre Holmsveet" />
		<tag k="place" v="farm" />
		<tag k="ssr:stedsnr" v="620284" />
	</node>
	<node lat="63.821695382193994" lon="12.096767012870865" id="-89234">
		<tag k="name" v="Helgåsen" />
		<tag k="place" v="hamlet" />
		<tag k="ssr:stedsnr" v="620568" />
	</node>
	<node lat="63.77270882710429" lon="11.741323498193173" id="-89235">
		<tag k="fixme" v="consider place=hamlet" />
		<tag k="name" v="Stor-Vuku" />
		<tag k="place" v="farm" />
		<tag k="ssr:stedsnr" v="620603" />
	</node>
	<node lat="63.76938333691637" lon="11.758841666444225" id="-89236">
		<tag k="name" v="Dillmoen" />
		<tag k="place" v="farm" />
		<tag k="ssr:stedsnr" v="620604" />
	</node>
	<node lat="63.75065000292386" lon="12.356652776104596" id="-89240">
		<tag k="name" v="Symosetra" />
		<tag k="place" v="locality" />
		<tag k="ssr:stedsnr" v="620774" />
	</node>
	<node lat="63.774480138084755" lon="11.75104181582215" id="-89245">
		<tag k="alt_name" v="Kirkevuku" />
		<tag k="fixme" v="consider place=hamlet" />
		<tag k="name" v="Kjerk-Vuku" />
		<tag k="place" v="farm" />
		<tag k="ssr:stedsnr" v="632609" />
	</node>
	<node lat="63.80386110696361" lon="11.544238881180718" id="-89247">
		<tag k="name" v="Forbregdsaunet" />
		<tag k="place" v="farm" />
		<tag k="ssr:stedsnr" v="632682" />
	</node>
	<node lat="63.820088885196526" lon="11.667708335111257" id="-89262">
		<tag k="name" v="Sendesaunet" />
		<tag k="place" v="farm" />
		<tag k="ssr:stedsnr" v="654942" />
	</node>
	<node lat="63.718711111942596" lon="11.651052769601257" id="-89267">
		<tag k="name" v="Sveet" />
		<tag k="place" v="farm" />
		<tag k="ssr:stedsnr" v="655985" />
	</node>
	<node lat="63.79632222671699" lon="11.502033331352957" id="-89269">
		<tag k="amenity" v="school" />
		<tag k="name" v="Verdal videregående skole" />
		<tag k="ssr:stedsnr" v="891199" />
	</node>
	<node lat="63.77347222570178" lon="11.489436110800916" id="-89270">
		<tag k="amenity" v="school" />
		<tag k="name" v="Vinne skole" />
		<tag k="ssr:stedsnr" v="891206" />
	</node>
	<node lat="63.86824635799128" lon="11.60197353040785" id="-89273">
		<tag k="alt_name" v="Kulstadviken" />
		<tag k="fixme" v="consider place=hamlet" />
		<tag k="name" v="Kulstadvika" />
		<tag k="place" v="farm" />
		<tag k="ssr:stedsnr" v="681170" />
	</node>
	<node lat="63.762933336032724" lon="11.63155833199219" id="-89276">
		<tag k="name" v="Austheim" />
		<tag k="place" v="farm" />
		<tag k="ssr:stedsnr" v="681356" />
	</node>
	<node lat="63.767713888438514" lon="11.566213881073825" id="-89278">
		<tag k="name" v="Leira" />
		<tag k="place" v="farm" />
		<tag k="ssr:stedsnr" v="681360" />
	</node>
	<node lat="63.77759166301307" lon="11.4612305597461" id="-89282">
		<tag k="name" v="Østvik" />
		<tag k="place" v="farm" />
		<tag k="ssr:stedsnr" v="681259" />
	</node>
	<node lat="63.804220915589106" lon="11.479359689889554" id="-89283">
		<tag k="alt_name" v="Nesvoll;Nestvold;Nestvold store" />
		<tag k="name" v="Nestvoll" />
		<tag k="place" v="hamlet" />
		<tag k="ssr:stedsnr" v="681272" />
	</node>
	<node lat="63.78882777376325" lon="11.7762166601242" id="-89287">
		<tag k="name" v="Grunnmoen" />
		<tag k="old_name" v="Grundmo" />
		<tag k="place" v="farm" />
		<tag k="ssr:stedsnr" v="681660" />
	</node>
	<node lat="63.87007222611581" lon="11.601791660887045" id="-89289">
		<tag k="alt_name" v="Viken litle" />
		<tag k="name" v="Litle Viken" />
		<tag k="place" v="farm" />
		<tag k="ssr:stedsnr" v="690739" />
	</node>
	<node lat="63.83061388460716" lon="11.911761103911937" id="-89291">
		<tag k="alt_name" v="Langdal nordre" />
		<tag k="name" v="Nordre Langdal" />
		<tag k="place" v="farm" />
		<tag k="ssr:stedsnr" v="692803" />
	</node>
	<node lat="63.80766944490661" lon="11.568402776859317" id="-89294">
		<tag k="name" v="Vestre Hallem" />
		<tag k="place" v="farm" />
		<tag k="ssr:stedsnr" v="693703" />
	</node>
	<node lat="63.76289721855404" lon="11.577172228451651" id="-89296">
		<tag k="name" v="Høgnes" />
		<tag k="place" v="farm" />
		<tag k="ssr:stedsnr" v="693725" />
	</node>
	<node lat="63.90094722116241" lon="11.750863895769017" id="-89300">
		<tag k="historic" v="shieling" />
		<tag k="name" v="Blååsseteren" />
		<tag k="place" v="isolated_dwelling" />
		<tag k="ssr:stedsnr" v="898542" />
	</node>
	<node lat="63.8130034653098" lon="11.657301084272978" id="-89301">
		<tag k="fixme" v="consider place=hamlet" />
		<tag k="name" v="Sende" />
		<tag k="place" v="village" />
		<tag k="ssr:stedsnr" v="715927" />
	</node>
	<node lat="63.8032527801428" lon="11.66898055129413" id="-89302">
		<tag k="name" v="Rye" />
		<tag k="place" v="farm" />
		<tag k="ssr:stedsnr" v="715929" />
	</node>
	<node lat="63.83408055811051" lon="11.579516667236028" id="-89316">
		<tag k="name" v="Nord-Skjørholmen" />
		<tag k="place" v="farm" />
		<tag k="ssr:stedsnr" v="898999" />
	</node>
	<node lat="63.85061111185499" lon="11.543741659556552" id="-89317">
		<tag k="name" v="Okkulsvollen" />
		<tag k="place" v="locality" />
		<tag k="ssr:stedsnr" v="716980" />
	</node>
	<node lat="63.740580556923504" lon="11.776583323829158" id="-89320">
		<tag k="name" v="Bergli" />
		<tag k="place" v="farm" />
		<tag k="ssr:stedsnr" v="741306" />
	</node>
	<node lat="63.74098617059738" lon="11.781445655603958" id="-89321">
		<tag k="fixme" v="consider place=hamlet" />
		<tag k="name" v="Skavhaugg" />
		<tag k="place" v="farm" />
		<tag k="ssr:stedsnr" v="741307" />
	</node>
	<node lat="63.90232500027473" lon="12.198308332940169" id="-89322">
		<tag k="historic" v="shieling" />
		<tag k="name" v="Hardbakseteren" />
		<tag k="place" v="isolated_dwelling" />
		<tag k="ssr:stedsnr" v="741536" />
	</node>
	<node lat="63.8294138861876" lon="11.64622499274559" id="-89325">
		<tag k="name" v="Buås" />
		<tag k="place" v="farm" />
		<tag k="ssr:stedsnr" v="742207" />
	</node>
	<node lat="63.83488784101192" lon="11.662238383871745" id="-89326">
		<tag k="fixme" v="consider place=hamlet" />
		<tag k="name" v="Karmhus" />
		<tag k="place" v="farm" />
		<tag k="ssr:stedsnr" v="742221" />
	</node>
	<node lat="63.83508101347578" lon="11.636039564374773" id="-89327">
		<tag k="fixme" v="consider place=hamlet" />
		<tag k="name" v="Bunes" />
		<tag k="place" v="farm" />
		<tag k="ssr:stedsnr" v="742224" />
	</node>
	<node lat="63.84723984936977" lon="11.648999302539568" id="-89328">
		<tag k="fixme" v="consider place=hamlet" />
		<tag k="name" v="Tjeldrum" />
		<tag k="place" v="farm" />
		<tag k="ssr:stedsnr" v="742233" />
	</node>
	<node lat="63.78437499696878" lon="11.593380546079231" id="-89329">
		<tag k="name" v="Stubbe" />
		<tag k="place" v="farm" />
		<tag k="ssr:stedsnr" v="742238" />
	</node>
	<node lat="63.854265798357844" lon="11.6402245862667" id="-89330">
		<tag k="name" v="Dalamarka" />
		<tag k="place" v="farm" />
		<tag k="ssr:stedsnr" v="742137" />
	</node>
	<node lat="63.8204527762005" lon="11.62554444864617" id="-89331">
		<tag k="name" v="Valøya" />
		<tag k="place" v="farm" />
		<tag k="ssr:stedsnr" v="742186" />
	</node>
	<node lat="63.90028055859822" lon="11.86918055204615" id="-89333">
		<tag k="historic" v="shieling" />
		<tag k="name" v="Karmhussetran" />
		<tag k="place" v="isolated_dwelling" />
		<tag k="ssr:stedsnr" v="742406" />
	</node>
	<node lat="63.791587164048956" lon="11.804390144958496" id="-89336">
		<tag k="fixme" v="consider place=hamlet" />
		<tag k="name" v="Saukinn" />
		<tag k="place" v="farm" />
		<tag k="ssr:stedsnr" v="742632" />
	</node>
	<node lat="63.83509326414539" lon="11.932450892579023" id="-89339">
		<tag k="name" v="Gren" />
		<tag k="place" v="hamlet" />
		<tag k="ssr:stedsnr" v="742533" />
	</node>
	<node lat="63.801891671049304" lon="11.815819437912317" id="-89341">
		<tag k="name" v="Holmlimoen" />
		<tag k="place" v="farm" />
		<tag k="ssr:stedsnr" v="742595" />
	</node>
	<node lat="63.799875002095234" lon="11.841450006671606" id="-89342">
		<tag k="name" v="Sørlian" />
		<tag k="place" v="farm" />
		<tag k="ssr:stedsnr" v="742598" />
	</node>
	<node lat="63.787380552072115" lon="11.61538332584158" id="-89348">
		<tag k="name" v="Eklosveet" />
		<tag k="place" v="farm" />
		<tag k="ssr:stedsnr" v="753704" />
	</node>
	<node lat="63.797794441369966" lon="11.506186113880753" id="-89350">
		<tag k="name" v="Haugslia" />
		<tag k="place" v="farm" />
		<tag k="ssr:stedsnr" v="754704" />
	</node>
	<node lat="63.80419999807462" lon="11.541491668233292" id="-89352">
		<tag k="alt_name" v="Forbregd søre" />
		<tag k="name" v="Søre Forbregd" />
		<tag k="place" v="farm" />
		<tag k="ssr:stedsnr" v="754711" />
	</node>
	<node lat="63.75929444679569" lon="12.180300008834466" id="-89363">
		<tag k="name" v="Bryggneset" />
		<tag k="place" v="isolated_dwelling" />
		<tag k="ssr:stedsnr" v="907694" />
	</node>
	<node lat="63.80106666374266" lon="11.635469452523607" id="-89368">
		<tag k="name" v="Skeisaunet" />
		<tag k="place" v="locality" />
		<tag k="ssr:stedsnr" v="776932" />
	</node>
	<node lat="63.79418055412861" lon="11.661627779561012" id="-89369">
		<tag k="name" v="Skrove" />
		<tag k="place" v="farm" />
		<tag k="ssr:stedsnr" v="776936" />
	</node>
	<node lat="63.82077778103409" lon="11.903802773105193" id="-89378">
		<tag k="amenity" v="school" />
		<tag k="name" v="Helgådal Montessori" />
		<tag k="old_name" v="Volden skole" />
		<tag k="ssr:stedsnr" v="783160" />
	</node>
	<node lat="63.809397218405046" lon="11.882627774080364" id="-89382">
		<tag k="name" v="Rødset" />
		<tag k="place" v="farm" />
		<tag k="ssr:stedsnr" v="802619" />
	</node>
	<node lat="63.66269999863314" lon="12.0578888843143" id="-89383">
		<tag k="name" v="Ådalsvollen" />
		<tag k="place" v="farm" />
		<tag k="ssr:stedsnr" v="802369" />
	</node>
	<node lat="63.74623888659288" lon="11.47965555802202" id="-89386">
		<tag k="name" v="Sørheim" />
		<tag k="place" v="farm" />
		<tag k="ssr:stedsnr" v="802714" />
	</node>
	<node lat="63.76567499769317" lon="11.554577781831277" id="-89387">
		<tag k="alt_name" v="Nes, søre" />
		<tag k="name" v="Søre Nes" />
		<tag k="place" v="farm" />
		<tag k="ssr:stedsnr" v="803361" />
	</node>
	<node lat="63.779300002754496" lon="11.508380564277822" id="-89388">
		<tag k="name" v="Voll" />
		<tag k="place" v="farm" />
		<tag k="ssr:stedsnr" v="803258" />
	</node>
	<node lat="63.781563888449696" lon="11.560197219452846" id="-89389">
		<tag k="name" v="Leirvoll" />
		<tag k="place" v="farm" />
		<tag k="ssr:stedsnr" v="803269" />
	</node>
	<node lat="63.78403610756709" lon="11.74987221855263" id="-89391">
		<tag k="name" v="Hellberg" />
		<tag k="place" v="farm" />
		<tag k="ssr:stedsnr" v="803615" />
	</node>
	<node lat="63.76208333614731" lon="11.455677778138813" id="-89392">
		<tag k="building" v="industrial" />
		<tag k="industrial" v="factory" />
		<tag k="name" v="Rindsem Mølle" />
		<tag k="ssr:stedsnr" v="814512" />
	</node>
	<node lat="63.79005250157768" lon="11.811835731096135" id="-89394">
		<tag k="fixme" v="consider place=hamlet" />
		<tag k="name" v="Fossneset" />
		<tag k="place" v="farm" />
		<tag k="ssr:stedsnr" v="814675" />
	</node>
	<node lat="63.77016944547149" lon="11.488800001394761" id="-89396">
		<tag k="name" v="Krokstad" />
		<tag k="place" v="farm" />
		<tag k="ssr:stedsnr" v="815491" />
	</node>
	<node lat="63.73916111087105" lon="11.73503611845396" id="-89401">
		<tag k="name" v="Bråttåenget" />
		<tag k="place" v="farm" />
		<tag k="ssr:stedsnr" v="923295" />
	</node>
	<node lat="63.71992499908654" lon="11.847038897702644" id="-89402">
		<tag k="name" v="Rotmoen" />
		<tag k="place" v="farm" />
		<tag k="ssr:stedsnr" v="923300" />
	</node>
	<node lat="63.72762691476129" lon="11.786390614369584" id="-89403">
		<tag k="alt_name" v="Inndal" />
		<tag k="name" v="Inndalen" />
		<tag k="place" v="hamlet" />
		<tag k="ssr:stedsnr" v="923314" />
	</node>
	<node lat="63.72296388528054" lon="12.29746388391428" id="-89404">
		<tag k="historic" v="shieling" />
		<tag k="name" v="Nordbellingsvollen" />
		<tag k="place" v="isolated_dwelling" />
		<tag k="ssr:stedsnr" v="923155" />
	</node>
	<node lat="63.81124722134394" lon="11.954066666647087" id="-89413">
		<tag k="name" v="Storholmen" />
		<tag k="place" v="farm" />
		<tag k="ssr:stedsnr" v="924547" />
	</node>
	<node lat="63.814171155035226" lon="12.143122642202686" id="-89414">
		<tag k="fixme" v="consider place=hamlet" />
		<tag k="name" v="Kleppen" />
		<tag k="place" v="farm" />
		<tag k="ssr:stedsnr" v="924551" />
	</node>
	<node lat="63.81039721868313" lon="12.136155553544238" id="-89415">
		<tag k="name" v="Granlund" />
		<tag k="place" v="farm" />
		<tag k="ssr:stedsnr" v="924553" />
	</node>
	<node lat="63.8668472219883" lon="11.632611116524078" id="-89416">
		<tag k="name" v="Aksnesenget" />
		<tag k="place" v="farm" />
		<tag k="ssr:stedsnr" v="924143" />
	</node>
	<node lat="63.81077500111435" lon="11.520727784872856" id="-89417">
		<tag k="name" v="Storlia" />
		<tag k="place" v="farm" />
		<tag k="ssr:stedsnr" v="924172" />
	</node>
	<node lat="63.811805554412324" lon="11.498952777929357" id="-89418">
		<tag k="name" v="Sørenget" />
		<tag k="place" v="farm" />
		<tag k="ssr:stedsnr" v="924176" />
	</node>
	<node lat="63.83886812314521" lon="11.658961062350047" id="-89419">
		<tag k="fixme" v="consider place=hamlet" />
		<tag k="name" v="Lund" />
		<tag k="place" v="farm" />
		<tag k="ssr:stedsnr" v="924206" />
	</node>
	<node lat="63.83705277918242" lon="11.662094442547422" id="-89420">
		<tag k="name" v="Leirdal" />
		<tag k="place" v="farm" />
		<tag k="ssr:stedsnr" v="924207" />
	</node>
	<node lat="63.845277777276294" lon="11.63807500715364" id="-89421">
		<tag k="name" v="Holmen" />
		<tag k="place" v="farm" />
		<tag k="ssr:stedsnr" v="924224" />
	</node>
	<node lat="63.841230557576736" lon="11.630594447945722" id="-89422">
		<tag k="name" v="Vasseng" />
		<tag k="place" v="farm" />
		<tag k="ssr:stedsnr" v="924226" />
	</node>
	<node lat="63.78137500210449" lon="11.50308054799931" id="-89423">
		<tag k="name" v="Storøra" />
		<tag k="place" v="farm" />
		<tag k="ssr:stedsnr" v="924228" />
	</node>
	<node lat="63.78179490949523" lon="11.674247421478645" id="-89424">
		<tag k="fixme" v="consider place=hamlet" />
		<tag k="name" v="Reppe" />
		<tag k="place" v="farm" />
		<tag k="ssr:stedsnr" v="924246" />
	</node>
	<node lat="63.80155212274481" lon="11.490473403292018" id="-89426">
		<tag k="fixme" v="consider place=hamlet" />
		<tag k="name" v="Mekvoll" />
		<tag k="place" v="farm" />
		<tag k="ssr:stedsnr" v="924257" />
	</node>
	<node lat="63.802524999370924" lon="11.513711112123179" id="-89427">
		<tag k="name" v="Høyem" />
		<tag k="place" v="farm" />
		<tag k="ssr:stedsnr" v="924259" />
	</node>
	<node lat="63.795824996342574" lon="11.6312638961676" id="-89428">
		<tag k="alt_name" v="Gjermstad, øvre;Øvre Gjermstad" />
		<tag k="name" v="Øver-Gjermstad" />
		<tag k="place" v="farm" />
		<tag k="ssr:stedsnr" v="924268" />
	</node>
	<node lat="63.79103074405531" lon="11.502654043858147" id="-89430">
		<tag k="fixme" v="consider place=hamlet" />
		<tag k="name" v="Feby" />
		<tag k="place" v="farm" />
		<tag k="ssr:stedsnr" v="924273" />
	</node>
	<node lat="63.79460277762769" lon="11.509027779771463" id="-89431">
		<tag k="alt_name" v="Holmsveet, søre;Holmsveet søre" />
		<tag k="name" v="Søre Holmsveet" />
		<tag k="place" v="farm" />
		<tag k="ssr:stedsnr" v="924276" />
	</node>
	<node lat="63.79111981828288" lon="11.592946154871466" id="-89432">
		<tag k="loc_name" v="Prestmoen" />
		<tag k="name" v="Prestmo" />
		<tag k="place" v="farm" />
		<tag k="ssr:stedsnr" v="924277" />
	</node>
	<node lat="63.76027222371593" lon="11.62457777571027" id="-89435">
		<tag k="name" v="Bjørnstad" />
		<tag k="place" v="farm" />
		<tag k="ssr:stedsnr" v="924290" />
	</node>
	<node lat="63.65529999702247" lon="12.212224999028136" id="-89442">
		<tag k="name" v="Innsmoen" />
		<tag k="place" v="isolated_dwelling" />
		<tag k="ssr:stedsnr" v="924307" />
	</node>
	<node lat="63.77308333041062" lon="11.68986388733742" id="-89443">
		<tag k="name" v="Tingvoll" />
		<tag k="place" v="farm" />
		<tag k="ssr:stedsnr" v="924310" />
	</node>
	<node lat="63.76972112540437" lon="11.533357446469516" id="-89444">
		<tag k="name" v="Leirfall" />
		<tag k="place" v="hamlet" />
		<tag k="ssr:stedsnr" v="924311" />
	</node>
	<node lat="63.77194721800498" lon="11.605183327391197" id="-89445">
		<tag k="name" v="Krågsvoll" />
		<tag k="place" v="farm" />
		<tag k="ssr:stedsnr" v="924314" />
	</node>
	<node lat="63.77248333114765" lon="11.60872777761889" id="-89446">
		<tag k="alt_name" v="Søre Kråg" />
		<tag k="name" v="Kråg" />
		<tag k="place" v="farm" />
		<tag k="ssr:stedsnr" v="924315" />
	</node>
	<node lat="63.853308330111396" lon="11.648755563254577" id="-89448">
		<tag k="name" v="Aspåsen" />
		<tag k="place" v="farm" />
		<tag k="ssr:stedsnr" v="924113" />
	</node>
	<node lat="63.853558329723" lon="11.895088887566692" id="-89455">
		<tag k="name" v="Hanavollen" />
		<tag k="place" v="isolated_dwelling" />
		<tag k="ssr:stedsnr" v="924471" />
	</node>
	<node lat="63.77406080144565" lon="11.73800527453803" id="-89458">
		<tag k="fixme" v="consider place=hamlet" />
		<tag k="name" v="Ekra" />
		<tag k="place" v="farm" />
		<tag k="ssr:stedsnr" v="924629" />
	</node>
	<node lat="63.801261111111494" lon="12.347233329114525" id="-89461">
		<tag k="alt_name" v="Nord-Vera" />
		<tag k="fixme" v="consider place=hamlet" />
		<tag k="name" v="Vera" />
		<tag k="place" v="village" />
		<tag k="ssr:stedsnr" v="924733" />
	</node>
	<node lat="63.746625003775385" lon="11.691372218542767" id="-89468">
		<tag k="name" v="Forset" />
		<tag k="place" v="farm" />
		<tag k="ssr:stedsnr" v="862653" />
	</node>
	<node lat="63.725963888199026" lon="11.787650009453825" id="-89469">
		<tag k="name" v="Inndalsrønningen" />
		<tag k="place" v="farm" />
		<tag k="ssr:stedsnr" v="863259" />
	</node>
	<node lat="63.875558330537686" lon="12.112702768208273" id="-89470">
		<tag k="name" v="Kolstaddalskoia" />
		<tag k="place" v="isolated_dwelling" />
		<tag k="ssr:stedsnr" v="863533" />
	</node>
	<node lat="63.81935278164076" lon="11.676769449988328" id="-89479">
		<tag k="name" v="Rømo" />
		<tag k="place" v="farm" />
		<tag k="ssr:stedsnr" v="864203" />
	</node>
	<node lat="63.81292778107298" lon="11.475580559645055" id="-89480">
		<tag k="alt_name" v="Ysse, østre" />
		<tag k="name" v="Østre Ysse" />
		<tag k="place" v="farm" />
		<tag k="ssr:stedsnr" v="864211" />
	</node>
	<node lat="63.8228222230079" lon="11.522472225704703" id="-89484">
		<tag k="name" v="Sandsaunet" />
		<tag k="place" v="farm" />
		<tag k="ssr:stedsnr" v="875724" />
	</node>
	<node lat="63.77368135227914" lon="11.723467599134196" id="-89486">
		<tag k="loc_name" v="Mønes" />
		<tag k="name" v="Mønnes" />
		<tag k="place" v="hamlet" />
		<tag k="ssr:stedsnr" v="875608" />
	</node>
	<node lat="63.800202774138356" lon="11.575480563306776" id="-89488">
		<tag k="name" v="Kolset" />
		<tag k="place" v="farm" />
		<tag k="ssr:stedsnr" v="875665" />
	</node>
	<node lat="63.73526666987093" lon="11.612872220562815" id="-89499">
		<tag k="name" v="Liavollen" />
		<tag k="place" v="locality" />
		<tag k="ssr:stedsnr" v="898759" />
	</node>
	<node lat="63.743152782113356" lon="11.77414166728817" id="-89503">
		<tag k="name" v="Garberg" />
		<tag k="place" v="farm" />
		<tag k="ssr:stedsnr" v="923282" />
	</node>
	<node lat="63.762918343511814" lon="11.658918603743626" id="-89509">
		<tag k="fixme" v="consider place=hamlet" />
		<tag k="name" v="Oppem" />
		<tag k="place" v="farm" />
		<tag k="ssr:stedsnr" v="924330" />
	</node>
	<node lat="63.86869999549504" lon="11.857811120361632" id="-89514">
		<tag k="historic" v="shieling" />
		<tag k="name" v="Landfallvollen" />
		<tag k="place" v="isolated_dwelling" />
		<tag k="ssr:stedsnr" v="924505" />
	</node>
	<node lat="63.86330278201076" lon="11.901305551864906" id="-89515">
		<tag k="historic" v="shieling" />
		<tag k="name" v="Langdalseteren" />
		<tag k="place" v="isolated_dwelling" />
		<tag k="ssr:stedsnr" v="924508" />
	</node>
	<node lat="63.84517777913226" lon="12.0265583260067" id="-89518">
		<tag k="name" v="Åkermoen" />
		<tag k="place" v="farm" />
		<tag k="ssr:stedsnr" v="924529" />
	</node>
	<node lat="63.82404403431036" lon="11.930803478107444" id="-89519">
		<tag k="fixme" v="consider place=hamlet" />
		<tag k="name" v="Nonset" />
		<tag k="place" v="farm" />
		<tag k="ssr:stedsnr" v="924568" />
	</node>
	<node lat="63.82258999493017" lon="11.977995912690522" id="-89520">
		<tag k="alt_name" v="Neset" />
		<tag k="fixme" v="consider place=hamlet" />
		<tag k="name" v="Overneset" />
		<tag k="place" v="farm" />
		<tag k="ssr:stedsnr" v="924572" />
	</node>
	<node lat="63.823636108904104" lon="12.065502786788413" id="-89521">
		<tag k="name" v="Slapgardsholmen" />
		<tag k="place" v="farm" />
		<tag k="ssr:stedsnr" v="924578" />
	</node>
	<node lat="63.833988890679194" lon="12.269111118078463" id="-89523">
		<tag k="name" v="Flyvollen" />
		<tag k="place" v="locality" />
		<tag k="ssr:stedsnr" v="924720" />
	</node>
	<node lat="63.798889892133396" lon="11.824948076492243" id="-89525">
		<tag k="fixme" v="consider place=hamlet" />
		<tag k="name" v="Brekka" />
		<tag k="place" v="farm" />
		<tag k="ssr:stedsnr" v="924603" />
	</node>
	<node lat="63.80132777419339" lon="11.991677772036685" id="-89526">
		<tag k="name" v="Melavollen" />
		<tag k="place" v="locality" />
		<tag k="ssr:stedsnr" v="924606" />
	</node>
	<node lat="63.762722220088214" lon="11.723658323440757" id="-89528">
		<tag k="name" v="Jøssåsmoen" />
		<tag k="place" v="farm" />
		<tag k="ssr:stedsnr" v="924611" />
	</node>
	<node lat="63.76702594869541" lon="11.795314605828997" id="-89529">
		<tag k="fixme" v="consider place=hamlet" />
		<tag k="name" v="Årstad" />
		<tag k="place" v="farm" />
		<tag k="ssr:stedsnr" v="924615" />
	</node>
	<node lat="63.7759244180606" lon="11.766187703086347" id="-89530">
		<tag k="fixme" v="consider place=hamlet" />
		<tag k="name" v="Holmen" />
		<tag k="place" v="farm" />
		<tag k="ssr:stedsnr" v="924624" />
	</node>
	<node lat="63.80858055933887" lon="11.478699996880891" id="-89540">
		<tag k="name" v="Ramstad" />
		<tag k="place" v="farm" />
		<tag k="ssr:stedsnr" v="936507" />
	</node>
	<node lat="63.795708292405315" lon="11.488314602182477" id="-89541">
		<tag k="fixme" v="consider place=hamlet" />
		<tag k="name" v="Maritvoll" />
		<tag k="old_name" v="Maritvold" />
		<tag k="place" v="farm" />
		<tag k="ssr:stedsnr" v="936501" />
	</node>
	<node lat="63.795722224552826" lon="11.82348333320986" id="-89543">
		<tag k="name" v="Selneset" />
		<tag k="place" v="farm" />
		<tag k="ssr:stedsnr" v="936605" />
	</node>
	<node lat="63.76911110774547" lon="11.56181389460706" id="-89545">
		<tag k="name" v="Ryan" />
		<tag k="place" v="farm" />
		<tag k="ssr:stedsnr" v="936533" />
	</node>
	<node lat="63.784433337519964" lon="11.474427771784974" id="-89546">
		<tag k="name" v="Kjærhaugen" />
		<tag k="place" v="quarter" />
		<tag k="ssr:stedsnr" v="936539" />
	</node>
	<node lat="63.786361115603675" lon="11.484441658072305" id="-89547">
		<tag k="fixme" v="consider place=suburb, village or hamlet" />
		<tag k="name" v="Tinden" />
		<tag k="place" v="quarter" />
		<tag k="ssr:stedsnr" v="936540" />
	</node>
	<node lat="63.80697499723167" lon="11.503488894684809" id="-89548">
		<tag k="name" v="Blåbakken" />
		<tag k="place" v="farm" />
		<tag k="ssr:stedsnr" v="936684" />
	</node>
	<node lat="63.799702774981554" lon="11.528555552475632" id="-89550">
		<tag k="name" v="Nordheim" />
		<tag k="place" v="farm" />
		<tag k="ssr:stedsnr" v="936687" />
	</node>
	<node lat="63.90445833464791" lon="12.144483337506005" id="-89560">
		<tag k="historic" v="shieling" />
		<tag k="name" v="Kolstadseteren" />
		<tag k="place" v="isolated_dwelling" />
		<tag k="ssr:stedsnr" v="959705" />
	</node>
	<node lat="63.84831944694122" lon="11.520616677058335" id="-89562">
		<tag k="name" v="Solbergsvollen" />
		<tag k="place" v="locality" />
		<tag k="ssr:stedsnr" v="959988" />
	</node>
	<node lat="63.73732978335566" lon="11.770028400223886" id="-89564">
		<tag k="fixme" v="consider place=hamlet" />
		<tag k="name" v="Garnes" />
		<tag k="place" v="farm" />
		<tag k="ssr:stedsnr" v="977387" />
	</node>
	<node lat="63.75560028356922" lon="11.466638866251383" id="-89565">
		<tag k="name" v="Hallan" />
		<tag k="place" v="hamlet" />
		<tag k="ssr:stedsnr" v="977403" />
	</node>
	<node lat="63.759681491757355" lon="11.454104154334876" id="-89566">
		<tag k="fixme" v="consider place=hamlet" />
		<tag k="name" v="Rinnsem" />
		<tag k="place" v="farm" />
		<tag k="ssr:stedsnr" v="977404" />
	</node>
	<node lat="63.84355032578941" lon="11.657490290687656" id="-89567">
		<tag k="fixme" v="consider place=hamlet" />
		<tag k="name" v="Hofstad" />
		<tag k="place" v="farm" />
		<tag k="ssr:stedsnr" v="977322" />
	</node>
	<node lat="63.82037790209761" lon="11.65295623828499" id="-89568">
		<tag k="fixme" v="consider place=hamlet" />
		<tag k="name" v="Musem" />
		<tag k="place" v="farm" />
		<tag k="ssr:stedsnr" v="977324" />
	</node>
	<node lat="63.81325562450318" lon="11.661311726053007" id="-89569">
		<tag k="name" v="Sende" />
		<tag k="place" v="hamlet" />
		<tag k="ssr:stedsnr" v="977325" />
	</node>
	<node lat="63.81138610727219" lon="11.941527778877653" id="-89570">
		<tag k="name" v="Sandmoen" />
		<tag k="place" v="farm" />
		<tag k="ssr:stedsnr" v="13591" />
	</node>
	<node lat="63.81263055939614" lon="11.92887500568188" id="-89571">
		<tag k="name" v="Sørheim" />
		<tag k="place" v="farm" />
		<tag k="ssr:stedsnr" v="13593" />
	</node>
	<node lat="63.79915277664433" lon="11.532616660555155" id="-89573">
		<tag k="name" v="Slåtteli" />
		<tag k="place" v="farm" />
		<tag k="ssr:stedsnr" v="13323" />
	</node>
	<node lat="63.79594166901616" lon="11.585975003264208" id="-89574">
		<tag k="name" v="Granheim" />
		<tag k="place" v="farm" />
		<tag k="ssr:stedsnr" v="13326" />
	</node>
	<node lat="63.79732403995233" lon="11.622296802254288" id="-89576">
		<tag k="alt_name" v="Gjermstad, vestre;Gjermstad;Jermstad" />
		<tag k="name" v="Vestre Gjermstad" />
		<tag k="place" v="farm" />
		<tag k="ssr:stedsnr" v="13331" />
	</node>
	<node lat="63.745374998701834" lon="11.775777767825657" id="-89578">
		<tag k="name" v="Svartåsen" />
		<tag k="place" v="isolated_dwelling" />
		<tag k="ssr:stedsnr" v="13272" />
	</node>
	<node lat="63.73366944503093" lon="11.757280554503426" id="-89580">
		<tag k="name" v="Storneset" />
		<tag k="place" v="farm" />
		<tag k="ssr:stedsnr" v="13292" />
	</node>
	<node lat="63.59513610762507" lon="11.728547220608585" id="-89582">
		<tag k="name" v="Stalinbakken" />
		<tag k="place" v="isolated_dwelling" />
		<tag k="ssr:stedsnr" v="13392" />
	</node>
	<node lat="63.7500194477054" lon="11.716536111396065" id="-89584">
		<tag k="name" v="Vikdal" />
		<tag k="place" v="farm" />
		<tag k="ssr:stedsnr" v="13351" />
	</node>
	<node lat="63.75970456977453" lon="11.514422974079212" id="-89587">
		<tag k="fixme" v="consider place=hamlet" />
		<tag k="name" v="Rein" />
		<tag k="place" v="farm" />
		<tag k="ssr:stedsnr" v="14241" />
	</node>
	<node lat="63.75386462008301" lon="11.460521555050438" id="-89588">
		<tag k="alt_name" v="Heitlo;Hatlo" />
		<tag k="fixme" v="consider place=hamlet" />
		<tag k="name" v="Hetlo" />
		<tag k="old_name" v="Hætlo" />
		<tag k="place" v="farm" />
		<tag k="ssr:stedsnr" v="14242" />
	</node>
	<node lat="63.900375001396306" lon="11.812430558354409" id="-89589">
		<tag k="name" v="Ryvollen" />
		<tag k="place" v="isolated_dwelling" />
		<tag k="ssr:stedsnr" v="14360" />
	</node>
	<node lat="63.90005278015568" lon="11.796883337850442" id="-89590">
		<tag k="historic" v="shieling" />
		<tag k="name" v="Dalemsseteren" />
		<tag k="place" v="isolated_dwelling" />
		<tag k="ssr:stedsnr" v="14361" />
	</node>
	<node lat="63.879177779297116" lon="12.085419451858025" id="-89591">
		<tag k="name" v="Vollaseteren" />
		<tag k="place" v="locality" />
		<tag k="ssr:stedsnr" v="14384" />
	</node>
	<node lat="63.82849832501357" lon="11.985022275980935" id="-89595">
		<tag k="fixme" v="consider place=hamlet" />
		<tag k="name" v="Haugen" />
		<tag k="place" v="farm" />
		<tag k="ssr:stedsnr" v="14478" />
	</node>
	<node lat="63.747613885315936" lon="11.486366668218912" id="-89597">
		<tag k="name" v="Sveberg" />
		<tag k="place" v="farm" />
		<tag k="ssr:stedsnr" v="13685" />
	</node>
	<node lat="63.80636111149053" lon="11.554116660023013" id="-89598">
		<tag k="name" v="Hammar" />
		<tag k="place" v="farm" />
		<tag k="ssr:stedsnr" v="14161" />
	</node>
	<node lat="63.813627777594355" lon="11.655719436835383" id="-89599">
		<tag k="alt_name" v="Sende, nedre" />
		<tag k="name" v="Nedre Sende" />
		<tag k="place" v="farm" />
		<tag k="ssr:stedsnr" v="14167" />
	</node>
	<node lat="63.81825833214255" lon="11.66936665876747" id="-89600">
		<tag k="alt_name" v="Sende, søre" />
		<tag k="name" v="Søre Sende" />
		<tag k="place" v="farm" />
		<tag k="ssr:stedsnr" v="14168" />
	</node>
	<node lat="63.81321519863105" lon="11.470653325692037" id="-89601">
		<tag k="alt_name" v="Ysse, vestre;Ysse" />
		<tag k="name" v="Vestre Ysse" />
		<tag k="place" v="farm" />
		<tag k="ssr:stedsnr" v="14175" />
	</node>
	<node lat="63.82128611257624" lon="11.681808327260114" id="-89602">
		<tag k="name" v="Lian" />
		<tag k="place" v="farm" />
		<tag k="ssr:stedsnr" v="14182" />
	</node>
	<node lat="63.823787174880394" lon="11.493645447816718" id="-89604">
		<tag k="fixme" v="consider place=hamlet" />
		<tag k="name" v="Kvamme" />
		<tag k="place" v="farm" />
		<tag k="ssr:stedsnr" v="14189" />
	</node>
	<node lat="63.8320580621934" lon="11.47889722999843" id="-89605">
		<tag k="fixme" v="consider place=hamlet" />
		<tag k="name" v="Tokstad" />
		<tag k="place" v="farm" />
		<tag k="ssr:stedsnr" v="14191" />
	</node>
	<node lat="63.76605337921688" lon="11.61906241677121" id="-89606">
		<tag k="name" v="Sunnby" />
		<tag k="place" v="hamlet" />
		<tag k="ssr:stedsnr" v="14284" />
	</node>
	<node lat="63.76479862208636" lon="11.65212595019219" id="-89607">
		<tag k="fixme" v="consider place=hamlet" />
		<tag k="name" v="Gudding" />
		<tag k="place" v="farm" />
		<tag k="ssr:stedsnr" v="14285" />
	</node>
	<node lat="63.832419801409756" lon="12.002047133869581" id="-89614">
		<tag k="fixme" v="consider place=hamlet" />
		<tag k="name" v="Bjartan" />
		<tag k="place" v="farm" />
		<tag k="ssr:stedsnr" v="14500" />
	</node>
	<node lat="63.81610555809397" lon="11.933302777153612" id="-89616">
		<tag k="name" v="Øver-Elnes" />
		<tag k="place" v="farm" />
		<tag k="ssr:stedsnr" v="14522" />
	</node>
	<node lat="63.80682569321549" lon="12.148392449103033" id="-89617">
		<tag k="fixme" v="consider place=hamlet" />
		<tag k="name" v="Snekkarmoen" />
		<tag k="place" v="farm" />
		<tag k="ssr:stedsnr" v="14538" />
	</node>
	<node lat="63.796441543162494" lon="11.796634159280831" id="-89618">
		<tag k="fixme" v="consider place=hamlet" />
		<tag k="name" v="Vangstad" />
		<tag k="place" v="farm" />
		<tag k="ssr:stedsnr" v="14539" />
	</node>
	<node lat="63.77242777375655" lon="11.760597226573035" id="-89622">
		<tag k="name" v="Holmsberget" />
		<tag k="place" v="farm" />
		<tag k="ssr:stedsnr" v="14583" />
	</node>
	<node lat="63.77343333401543" lon="11.719338894143911" id="-89623">
		<tag k="name" v="Øyster-Slapgarden" />
		<tag k="old_name" v="Slapgården;Slapgarden" />
		<tag k="place" v="farm" />
		<tag k="ssr:stedsnr" v="14588" />
	</node>
	<node lat="63.77450500157265" lon="11.773876278349313" id="-89624">
		<tag k="fixme" v="consider place=hamlet" />
		<tag k="name" v="Midtholmen" />
		<tag k="place" v="farm" />
		<tag k="ssr:stedsnr" v="14595" />
	</node>
	<node lat="63.8121694419683" lon="11.916788893593447" id="-89631">
		<tag k="name" v="Telsneset" />
		<tag k="place" v="locality" />
		<tag k="ssr:stedsnr" v="24818" />
	</node>
	<node lat="63.77713055424728" lon="11.727508340788603" id="-89637">
		<tag k="name" v="Bredeng" />
		<tag k="place" v="farm" />
		<tag k="ssr:stedsnr" v="25631" />
	</node>
	<node lat="63.815230551374505" lon="11.535513894624666" id="-89640">
		<tag k="name" v="Sandmo" />
		<tag k="place" v="farm" />
		<tag k="ssr:stedsnr" v="25737" />
	</node>
	<node lat="63.82073333545782" lon="11.4958083366842" id="-89641">
		<tag k="name" v="Hesgreia" />
		<tag k="place" v="farm" />
		<tag k="ssr:stedsnr" v="25532" />
	</node>
	<node lat="63.75952777529147" lon="11.579099998851609" id="-89645">
		<tag k="name" v="Øvre Skjørdalen" />
		<tag k="place" v="farm" />
		<tag k="ssr:stedsnr" v="26536" />
	</node>
	<node lat="63.78027222324046" lon="11.644150001276067" id="-89647">
		<tag k="name" v="Ringstad" />
		<tag k="place" v="farm" />
		<tag k="ssr:stedsnr" v="26638" />
	</node>
	<node lat="63.788161111910625" lon="11.657700000310511" id="-89648">
		<tag k="name" v="Storebuvollen" />
		<tag k="place" v="locality" />
		<tag k="ssr:stedsnr" v="26639" />
	</node>
	<node lat="63.76466944091797" lon="11.574430545877668" id="-89649">
		<tag k="name" v="Lågnes" />
		<tag k="place" v="farm" />
		<tag k="ssr:stedsnr" v="26695" />
	</node>
	<node lat="63.851316666549494" lon="11.537313890822746" id="-89664">
		<tag k="name" v="Sissellivollen" />
		<tag k="place" v="locality" />
		<tag k="ssr:stedsnr" v="48988" />
	</node>
	<node lat="63.7365194462755" lon="11.66296389811401" id="-89672">
		<tag k="name" v="Guddingvollen" />
		<tag k="place" v="locality" />
		<tag k="ssr:stedsnr" v="49966" />
	</node>
	<node lat="63.84548067076911" lon="11.716274870961493" id="-89673">
		<tag k="leisure" v="pitch" />
		<tag k="name" v="Leksdal skistadion" />
		<tag k="ssr:stedsnr" v="50098" />
	</node>
	<node lat="63.74270555363917" lon="12.029816657637243" id="-89678">
		<tag k="historic" v="shieling" />
		<tag k="name" v="Kverndalsvollen" />
		<tag k="place" v="isolated_dwelling" />
		<tag k="ssr:stedsnr" v="73258" />
	</node>
	<node lat="63.745775001160055" lon="11.728700009933224" id="-89679">
		<tag k="name" v="Tronesvollen" />
		<tag k="place" v="farm" />
		<tag k="ssr:stedsnr" v="73265" />
	</node>
	<node lat="63.73977777406233" lon="12.194466661352575" id="-89681">
		<tag k="alt_name" v="Juldalsvollen;Grunnvollen" />
		<tag k="historic" v="shieling" />
		<tag k="name" v="Øystre Juldalsvollen" />
		<tag k="place" v="isolated_dwelling" />
		<tag k="ssr:stedsnr" v="73281" />
	</node>
	<node lat="63.82898339922607" lon="11.472498974867118" id="-89682">
		<tag k="fixme" v="consider place=hamlet" />
		<tag k="name" v="Råa" />
		<tag k="place" v="farm" />
		<tag k="ssr:stedsnr" v="74227" />
	</node>
	<node lat="63.83263592984558" lon="11.669132347889946" id="-89683">
		<tag k="name" v="Karmhusbakken" />
		<tag k="old_name" v="Kvarmhusbakken" />
		<tag k="place" v="farm" />
		<tag k="ssr:stedsnr" v="74232" />
	</node>
	<node lat="63.83679444330487" lon="11.65173889861947" id="-89684">
		<tag k="name" v="Nyheim" />
		<tag k="place" v="farm" />
		<tag k="ssr:stedsnr" v="74233" />
	</node>
	<node lat="63.83983055405793" lon="11.700641665864648" id="-89685">
		<tag k="name" v="Lundsaunet" />
		<tag k="place" v="farm" />
		<tag k="ssr:stedsnr" v="74246" />
	</node>
	<node lat="63.846411109525754" lon="11.671324995404603" id="-89686">
		<tag k="name" v="Solhaug" />
		<tag k="place" v="farm" />
		<tag k="ssr:stedsnr" v="74247" />
	</node>
	<node lat="63.84073333714121" lon="11.670886114028148" id="-89687">
		<tag k="name" v="Buhaug" />
		<tag k="place" v="farm" />
		<tag k="ssr:stedsnr" v="74248" />
	</node>
	<node lat="63.84357914824895" lon="11.65929180112994" id="-89688">
		<tag k="alt_name" v="Hofstad øvre" />
		<tag k="name" v="Hofstad" />
		<tag k="place" v="farm" />
		<tag k="ssr:stedsnr" v="74250" />
	</node>
	<node lat="63.7855429796201" lon="11.653675174281673" id="-89689">
		<tag k="alt_name" v="Fåren nordre;Fåra" />
		<tag k="name" v="Nord-Fåra" />
		<tag k="place" v="farm" />
		<tag k="ssr:stedsnr" v="74254" />
	</node>
	<node lat="63.84455461671645" lon="11.494604745129205" id="-89691">
		<tag k="fixme" v="consider place=hamlet" />
		<tag k="name" v="Stavlund" />
		<tag k="place" v="farm" />
		<tag k="ssr:stedsnr" v="74124" />
	</node>
	<node lat="63.78062614172279" lon="11.636229568753265" id="-89695">
		<tag k="fixme" v="consider place=hamlet" />
		<tag k="name" v="Rognhaugen" />
		<tag k="place" v="farm" />
		<tag k="ssr:stedsnr" v="74278" />
	</node>
	<node lat="63.778744444713766" lon="11.689483343203863" id="-89696">
		<tag k="alt_name" v="Søre Stuskin" />
		<tag k="name" v="Stuskin" />
		<tag k="place" v="farm" />
		<tag k="ssr:stedsnr" v="74281" />
	</node>
	<node lat="63.73811389341402" lon="11.772630552843898" id="-89697">
		<tag k="alt_name" v="Garnes, øvre" />
		<tag k="name" v="Øvre Garnes" />
		<tag k="place" v="farm" />
		<tag k="ssr:stedsnr" v="74285" />
	</node>
	<node lat="63.75113055141221" lon="11.701636110436729" id="-89703">
		<tag k="name" v="Haugan" />
		<tag k="place" v="farm" />
		<tag k="ssr:stedsnr" v="74324" />
	</node>
	<node lat="63.61282222384589" lon="12.086663894367472" id="-89706">
		<tag k="name" v="Litlmovollen" />
		<tag k="place" v="locality" />
		<tag k="ssr:stedsnr" v="74333" />
	</node>
	<node lat="63.64373610979809" lon="12.195699995297243" id="-89707">
		<tag k="alt_name" v="Jervdalsvollen" />
		<tag k="name" v="Jervdalen" />
		<tag k="place" v="isolated_dwelling" />
		<tag k="ssr:stedsnr" v="74341" />
	</node>
	<node lat="63.79239343390381" lon="11.824150554987071" id="-89711">
		<tag k="fixme" v="consider place=hamlet" />
		<tag k="name" v="Storstad" />
		<tag k="place" v="farm" />
		<tag k="ssr:stedsnr" v="74600" />
	</node>
	<node lat="63.80701111151371" lon="11.85383333713506" id="-89718">
		<tag k="name" v="Fosslia" />
		<tag k="place" v="farm" />
		<tag k="ssr:stedsnr" v="74629" />
	</node>
	<node lat="63.75479446690097" lon="11.721447499241512" id="-89719">
		<tag k="name" v="Steine" />
		<tag k="place" v="hamlet" />
		<tag k="ssr:stedsnr" v="74799" />
	</node>
	<node lat="63.83570003464799" lon="12.03959282536221" id="-89723">
		<tag k="fixme" v="consider place=hamlet" />
		<tag k="name" v="Skjækermoen" />
		<tag k="place" v="farm" />
		<tag k="ssr:stedsnr" v="75587" />
	</node>
	<node lat="63.83435205894693" lon="11.913754070246078" id="-89724">
		<tag k="fixme" v="consider place=hamlet" />
		<tag k="name" v="Sagvollen" />
		<tag k="place" v="farm" />
		<tag k="ssr:stedsnr" v="75589" />
	</node>
	<node lat="63.836819446220325" lon="12.013438891136751" id="-89725">
		<tag k="alt_name" v="Storneset" />
		<tag k="name" v="Granum" />
		<tag k="place" v="farm" />
		<tag k="ssr:stedsnr" v="75592" />
	</node>
	<node lat="63.806955557133406" lon="11.506813885894939" id="-89726">
		<tag k="name" v="Østby" />
		<tag k="place" v="farm" />
		<tag k="ssr:stedsnr" v="75193" />
	</node>
	<node lat="63.80847777651872" lon="11.677644445816428" id="-89728">
		<tag k="name" v="Arnesborg" />
		<tag k="place" v="farm" />
		<tag k="ssr:stedsnr" v="75292" />
	</node>
	<node lat="63.77367151401482" lon="11.663180400507303" id="-89729">
		<tag k="fixme" v="consider place=hamlet" />
		<tag k="name" v="Vola" />
		<tag k="place" v="farm" />
		<tag k="ssr:stedsnr" v="75353" />
	</node>
	<node lat="63.77767223837081" lon="11.723299081079416" id="-89735">
		<tag k="fixme" v="consider place=hamlet" />
		<tag k="name" v="Bredeng" />
		<tag k="place" v="farm" />
		<tag k="ssr:stedsnr" v="75686" />
	</node>
	<node lat="63.78240833177415" lon="11.74338054829183" id="-89736">
		<tag k="name" v="Arnsveet" />
		<tag k="place" v="farm" />
		<tag k="ssr:stedsnr" v="75687" />
	</node>
	<node lat="63.788234739903174" lon="11.907975649571727" id="-89737">
		<tag k="name" v="Rødsvollen" />
		<tag k="place" v="locality" />
		<tag k="ssr:stedsnr" v="75693" />
	</node>
	<node lat="63.750291668135745" lon="11.710172221625195" id="-89750">
		<tag k="name" v="Skansen" />
		<tag k="place" v="farm" />
		<tag k="ssr:stedsnr" v="86700" />
	</node>
	<node lat="63.75634080874339" lon="11.468596741189174" id="-89751">
		<tag k="name" v="Hallan" />
		<tag k="place" v="hamlet" />
		<tag k="ssr:stedsnr" v="86535" />
	</node>
	<node lat="63.7987166697316" lon="11.82714166396408" id="-89754">
		<tag k="name" v="Framnes" />
		<tag k="place" v="farm" />
		<tag k="ssr:stedsnr" v="86660" />
	</node>
	<node lat="63.7872305597962" lon="11.596347229892881" id="-89755">
		<tag k="alt_name" v="Klokkerhaug" />
		<tag k="name" v="Klokkerhaugen" />
		<tag k="place" v="farm" />
		<tag k="ssr:stedsnr" v="86730" />
	</node>
	<node lat="63.91084166676548" lon="12.221675005391415" id="-89759">
		<tag k="fixme" v="consider tourism=alpine_hut or tourism=chalet" />
		<tag k="name" v="Skjækerdalshytta" />
		<tag k="ssr:stedsnr" v="87897" />
		<tag k="tourism" v="wilderness_hut" />
	</node>
	<node lat="63.79541618888034" lon="11.483479637567406" id="-89765">
		<tag k="fixme" v="consider place=suburb, village or hamlet" />
		<tag k="name" v="Verdalsøra" />
		<tag k="place" v="quarter" />
		<tag k="ssr:stedsnr" v="105925" />
	</node>
	<node lat="63.814330552125966" lon="11.438758335383238" id="-89766">
		<tag k="name" v="Kåret" />
		<tag k="place" v="farm" />
		<tag k="ssr:stedsnr" v="105947" />
	</node>
	<node lat="63.76120555179452" lon="11.823525004560452" id="-89769">
		<tag k="name" v="Lindset" />
		<tag k="place" v="locality" />
		<tag k="ssr:stedsnr" v="109049" />
	</node>
	<node lat="63.84556110984075" lon="11.710824998417074" id="-89773">
		<tag k="name" v="Søndre Marka" />
		<tag k="place" v="farm" />
		<tag k="ssr:stedsnr" v="109229" />
	</node>
	<node lat="63.80658397311194" lon="11.672554114968131" id="-89784">
		<tag k="fixme" v="consider place=hamlet" />
		<tag k="name" v="Åsen" />
		<tag k="place" v="farm" />
		<tag k="ssr:stedsnr" v="135273" />
	</node>
	<node lat="63.80513333553588" lon="11.456208332367906" id="-89785">
		<tag k="name" v="Kausmo" />
		<tag k="place" v="farm" />
		<tag k="ssr:stedsnr" v="135278" />
	</node>
	<node lat="63.80227222192397" lon="11.496827776578876" id="-89786">
		<tag k="name" v="Holte" />
		<tag k="place" v="farm" />
		<tag k="ssr:stedsnr" v="135280" />
	</node>
	<node lat="63.74216213876871" lon="11.740796861843945" id="-89788">
		<tag k="fixme" v="consider place=hamlet" />
		<tag k="name" v="Molda" />
		<tag k="place" v="farm" />
		<tag k="ssr:stedsnr" v="134243" />
	</node>
	<node lat="63.796563891420966" lon="11.533733340907414" id="-89793">
		<tag k="name" v="Havstad" />
		<tag k="place" v="farm" />
		<tag k="ssr:stedsnr" v="134345" />
	</node>
	<node lat="63.81248055153716" lon="11.526969443997755" id="-89803">
		<tag k="alt_name" v="Lein, vestre" />
		<tag k="name" v="Vestre Lein" />
		<tag k="place" v="farm" />
		<tag k="ssr:stedsnr" v="135180" />
	</node>
	<node lat="63.822656420212944" lon="11.500765153400906" id="-89805">
		<tag k="fixme" v="consider place=hamlet" />
		<tag k="name" v="Hesgreia" />
		<tag k="place" v="farm" />
		<tag k="ssr:stedsnr" v="135199" />
	</node>
	<node lat="63.78378333680022" lon="11.712169440431019" id="-89807">
		<tag k="name" v="Voll" />
		<tag k="place" v="farm" />
		<tag k="ssr:stedsnr" v="135248" />
	</node>
	<node lat="63.78801666982575" lon="11.515608327569744" id="-89808">
		<tag k="alt_name" v="Bjartnes, vestre" />
		<tag k="name" v="Vestre Bjartnes" />
		<tag k="place" v="farm" />
		<tag k="ssr:stedsnr" v="135291" />
	</node>
	<node lat="63.79303055358933" lon="11.619941667755816" id="-89809">
		<tag k="name" v="Spannet" />
		<tag k="place" v="farm" />
		<tag k="ssr:stedsnr" v="135295" />
	</node>
	<node lat="63.832543558978344" lon="11.888740103875087" id="-89810">
		<tag k="fixme" v="consider place=hamlet" />
		<tag k="name" v="Litl-Langdalen" />
		<tag k="place" v="farm" />
		<tag k="ssr:stedsnr" v="135518" />
	</node>
	<node lat="63.85158889051721" lon="12.094050006778444" id="-89813">
		<tag k="name" v="Bynavollen" />
		<tag k="place" v="isolated_dwelling" />
		<tag k="ssr:stedsnr" v="135544" />
	</node>
	<node lat="63.82011221025647" lon="11.901368746439273" id="-89820">
		<tag k="fixme" v="consider place=hamlet" />
		<tag k="name" v="Vollen" />
		<tag k="place" v="farm" />
		<tag k="ssr:stedsnr" v="135579" />
	</node>
	<node lat="63.78409999836958" lon="12.13350834207943" id="-89823">
		<tag k="name" v="Julnesseteren" />
		<tag k="place" v="isolated_dwelling" />
		<tag k="ssr:stedsnr" v="135625" />
	</node>
	<node lat="63.8618412679779" lon="11.635463292520694" id="-89831">
		<tag k="fixme" v="consider place=hamlet" />
		<tag k="name" v="Aksnes" />
		<tag k="place" v="farm" />
		<tag k="ssr:stedsnr" v="143651" />
	</node>
	<node lat="63.810944445440235" lon="11.893491670945911" id="-89833">
		<tag k="alt_name" v="Rød østre" />
		<tag k="name" v="Østre Rød" />
		<tag k="place" v="farm" />
		<tag k="ssr:stedsnr" v="145636" />
	</node>
	<node lat="63.78450000351515" lon="11.694494435814468" id="-89837">
		<tag k="name" v="Vestre Helset" />
		<tag k="place" v="farm" />
		<tag k="ssr:stedsnr" v="146601" />
	</node>
	<node lat="63.805938886792916" lon="11.461869438163069" id="-89842">
		<tag k="name" v="Nord-Nestvoll" />
		<tag k="old_name" v="Nestvold nordre" />
		<tag k="place" v="farm" />
		<tag k="ssr:stedsnr" v="147481" />
	</node>
	<node lat="63.80398611423438" lon="11.567805552259177" id="-89843">
		<tag k="name" v="Valum" />
		<tag k="place" v="farm" />
		<tag k="ssr:stedsnr" v="147682" />
	</node>
	<node lat="63.812769442797084" lon="11.551897214012307" id="-89845">
		<tag k="name" v="Dalhaug" />
		<tag k="place" v="farm" />
		<tag k="ssr:stedsnr" v="147692" />
	</node>
	<node lat="63.76528333464724" lon="11.583780560169766" id="-89846">
		<tag k="alt_name" v="Haga søre" />
		<tag k="name" v="Søre Haga" />
		<tag k="place" v="farm" />
		<tag k="ssr:stedsnr" v="147701" />
	</node>
	<node lat="63.87880832947964" lon="11.619750002980256" id="-89847">
		<tag k="name" v="Tuset" />
		<tag k="place" v="farm" />
		<tag k="ssr:stedsnr" v="149323" />
	</node>
	<node lat="63.74215555267313" lon="11.526505546197637" id="-89850">
		<tag k="alt_name" v="Ravlo vestre" />
		<tag k="name" v="Vester-Ravlo" />
		<tag k="place" v="farm" />
		<tag k="ssr:stedsnr" v="150939" />
	</node>
	<node lat="63.698077775441455" lon="11.794344440930583" id="-89868">
		<tag k="name" v="Fæbyvollen" />
		<tag k="place" v="locality" />
		<tag k="ssr:stedsnr" v="170030" />
	</node>
	<node lat="63.832355559398486" lon="11.808375002650786" id="-89869">
		<tag k="historic" v="shieling" />
		<tag k="name" v="Klukssetra" />
		<tag k="place" v="isolated_dwelling" />
		<tag k="ssr:stedsnr" v="170131" />
	</node>
	<node lat="63.67850555190968" lon="11.694452771120657" id="-89879">
		<tag k="historic" v="shieling" />
		<tag k="name" v="Stuskinvollen" />
		<tag k="place" v="isolated_dwelling" />
		<tag k="ssr:stedsnr" v="195577" />
	</node>
	<node lat="63.74841111352234" lon="11.472763890793573" id="-89887">
		<tag k="name" v="Storbakken" />
		<tag k="place" v="farm" />
		<tag k="ssr:stedsnr" v="195674" />
	</node>
	<node lat="63.81321642283726" lon="11.454331130620583" id="-89888">
		<tag k="alt_name" v="Sør-Holme" />
		<tag k="fixme" v="consider place=hamlet" />
		<tag k="name" v="Holme" />
		<tag k="place" v="farm" />
		<tag k="ssr:stedsnr" v="196200" />
	</node>
	<node lat="63.827069130687086" lon="11.503315669348376" id="-89889">
		<tag k="fixme" v="consider place=hamlet" />
		<tag k="name" v="Augla" />
		<tag k="place" v="farm" />
		<tag k="ssr:stedsnr" v="196218" />
	</node>
	<node lat="63.83150528614934" lon="11.502936298871273" id="-89890">
		<tag k="alt_name" v="Kvamme" />
		<tag k="fixme" v="consider place=hamlet" />
		<tag k="name" v="Kvam" />
		<tag k="place" v="farm" />
		<tag k="ssr:stedsnr" v="196222" />
	</node>
	<node lat="63.76449029603484" lon="11.578589944318255" id="-89891">
		<tag k="fixme" v="consider place=hamlet" />
		<tag k="name" v="Nes" />
		<tag k="place" v="farm" />
		<tag k="ssr:stedsnr" v="196321" />
	</node>
	<node lat="63.85742500423564" lon="11.638955548218965" id="-89893">
		<tag k="alt_name" v="Søre Aksnes;Aksnes søre" />
		<tag k="name" v="Aksnes" />
		<tag k="place" v="farm" />
		<tag k="ssr:stedsnr" v="196160" />
	</node>
	<node lat="63.782711106809934" lon="11.560463892440227" id="-89894">
		<tag k="name" v="Holmli" />
		<tag k="place" v="farm" />
		<tag k="ssr:stedsnr" v="196243" />
	</node>
	<node lat="63.78012500235267" lon="11.557844437168923" id="-89895">
		<tag k="name" v="Forset" />
		<tag k="place" v="farm" />
		<tag k="ssr:stedsnr" v="196247" />
	</node>
	<node lat="63.77657221806774" lon="11.655755558304145" id="-89896">
		<tag k="name" v="Hojem" />
		<tag k="place" v="farm" />
		<tag k="ssr:stedsnr" v="196251" />
	</node>
	<node lat="63.78397221975783" lon="11.687661107011731" id="-89897">
		<tag k="name" v="Heggås" />
		<tag k="place" v="farm" />
		<tag k="ssr:stedsnr" v="196254" />
	</node>
	<node lat="63.8028805544904" lon="11.578586102166277" id="-89898">
		<tag k="name" v="Myrvoll" />
		<tag k="place" v="farm" />
		<tag k="ssr:stedsnr" v="196272" />
	</node>
	<node lat="63.798038892354946" lon="11.592952777144712" id="-89899">
		<tag k="name" v="Hegge" />
		<tag k="place" v="farm" />
		<tag k="ssr:stedsnr" v="196273" />
	</node>
	<node lat="63.86198502528435" lon="12.043128768151789" id="-89903">
		<tag k="historic" v="shieling" />
		<tag k="name" v="Tinnseteren" />
		<tag k="place" v="isolated_dwelling" />
		<tag k="ssr:stedsnr" v="196484" />
	</node>
	<node lat="63.83707777619779" lon="12.0169444462421" id="-89908">
		<tag k="name" v="Tveitan" />
		<tag k="place" v="farm" />
		<tag k="ssr:stedsnr" v="196518" />
	</node>
	<node lat="63.823300838384654" lon="11.894659364918178" id="-89910">
		<tag k="fixme" v="consider place=hamlet" />
		<tag k="name" v="Kolstad" />
		<tag k="place" v="farm" />
		<tag k="ssr:stedsnr" v="196540" />
	</node>
	<node lat="63.78334999661421" lon="11.797355548893224" id="-89915">
		<tag k="name" v="Grunnan" />
		<tag k="place" v="farm" />
		<tag k="ssr:stedsnr" v="196621" />
	</node>
	<node lat="63.76713055304382" lon="11.758961116381151" id="-89916">
		<tag k="name" v="Litlenget" />
		<tag k="place" v="farm" />
		<tag k="ssr:stedsnr" v="196594" />
	</node>
	<node lat="63.76831110985609" lon="11.743275009662602" id="-89917">
		<tag k="name" v="Marka" />
		<tag k="place" v="farm" />
		<tag k="ssr:stedsnr" v="196595" />
	</node>
	<node lat="63.81128611058703" lon="11.956788895709472" id="-89926">
		<tag k="alt_name" v="Holmen østre" />
		<tag k="name" v="Østre Holmen" />
		<tag k="place" v="farm" />
		<tag k="ssr:stedsnr" v="206811" />
	</node>
	<node lat="63.80985833234234" lon="11.457294451433935" id="-89930">
		<tag k="name" v="Nordbergsveet" />
		<tag k="place" v="isolated_dwelling" />
		<tag k="ssr:stedsnr" v="207460" />
	</node>
	<node lat="63.781241670267036" lon="11.440558328988946" id="-89933">
		<tag k="name" v="Havfrua" />
		<tag k="ssr:stedsnr" v="207503" />
		<tag k="tourism" v="theme_park" />
	</node>
	<node lat="63.80886388777251" lon="11.86268612048771" id="-89935">
		<tag k="name" v="Fossmo" />
		<tag k="place" v="farm" />
		<tag k="ssr:stedsnr" v="207585" />
	</node>
	<node lat="63.76158055338848" lon="11.622247214797689" id="-89939">
		<tag k="fixme" v="consider place=suburb, village or hamlet" />
		<tag k="name" v="Lysthaugen" />
		<tag k="place" v="quarter" />
		<tag k="ssr:stedsnr" v="207674" />
	</node>
	<node lat="63.770894446386905" lon="11.754647220969668" id="-89940">
		<tag k="name" v="Innhaug" />
		<tag k="place" v="farm" />
		<tag k="ssr:stedsnr" v="208624" />
	</node>
	<node lat="63.77305555896836" lon="11.705899990333897" id="-89941">
		<tag k="name" v="Østre Bollgarden" />
		<tag k="place" v="farm" />
		<tag k="ssr:stedsnr" v="208629" />
	</node>
	<node lat="63.833755552550905" lon="11.426416657078363" id="-89962">
		<tag k="name" v="Bjørga" />
		<tag k="place" v="farm" />
		<tag k="ssr:stedsnr" v="291767" />
	</node>
	<node lat="63.84510833145239" lon="11.590725007404501" id="-89966">
		<tag k="name" v="Haukåa" />
		<tag k="place" v="farm" />
		<tag k="ssr:stedsnr" v="292000" />
	</node>
	<node lat="63.82306666918589" lon="11.502333331829684" id="-89970">
		<tag k="fixme" v="multiple name tags, choose one and add the other to alt_name" />
		<tag k="name" v="Hesgreia;Austre Hesgreia" />
		<tag k="place" v="farm" />
		<tag k="ssr:stedsnr" v="299493" />
	</node>
	<node lat="63.78264166912976" lon="12.377477777428178" id="-89971">
		<tag k="alt_name" v="Væren;Søndre Væren" />
		<tag k="name" v="Vera" />
		<tag k="place" v="farm" />
		<tag k="ssr:stedsnr" v="300052" />
	</node>
	<node lat="63.73964167038799" lon="11.532913898237082" id="-89972">
		<tag k="alt_name" v="Ravlo øystre" />
		<tag k="name" v="Øyster-Ravlo" />
		<tag k="place" v="farm" />
		<tag k="ssr:stedsnr" v="302183" />
	</node>
	<node lat="63.65178888783398" lon="12.250366661135779" id="-89974">
		<tag k="name" v="Sandvika" />
		<tag k="ssr:stedsnr" v="316153" />
		<tag k="tourism" v="hotel" />
	</node>
	<node lat="63.662658328952276" lon="11.760958332442803" id="-89978">
		<tag k="historic" v="shieling" />
		<tag k="name" v="Melbyvollen" />
		<tag k="place" v="isolated_dwelling" />
		<tag k="ssr:stedsnr" v="316376" />
	</node>
	<node lat="63.81830833504372" lon="11.88602499707145" id="-89980">
		<tag k="name" v="Bjørkhaugen" />
		<tag k="place" v="farm" />
		<tag k="ssr:stedsnr" v="317534" />
	</node>
	<node lat="63.861961113885336" lon="11.643741669761864" id="-89982">
		<tag k="name" v="Aksneshaugen" />
		<tag k="place" v="farm" />
		<tag k="ssr:stedsnr" v="317132" />
	</node>
	<node lat="63.84008888891292" lon="11.656686114725101" id="-89983">
		<tag k="name" v="Lundsbakken" />
		<tag k="place" v="farm" />
		<tag k="ssr:stedsnr" v="317235" />
	</node>
	<node lat="63.78445066901336" lon="11.563619379090994" id="-89984">
		<tag k="alt_name" v="Nordre Haga;Haga nordre" />
		<tag k="fixme" v="consider place=hamlet" />
		<tag k="name" v="Haga" />
		<tag k="place" v="farm" />
		<tag k="ssr:stedsnr" v="317242" />
	</node>
	<node lat="63.7796861078533" lon="11.608769446067036" id="-89985">
		<tag k="name" v="Lunnan" />
		<tag k="place" v="farm" />
		<tag k="ssr:stedsnr" v="317243" />
	</node>
	<node lat="63.7823277796659" lon="11.628363891946577" id="-89986">
		<tag k="name" v="Årset" />
		<tag k="place" v="farm" />
		<tag k="ssr:stedsnr" v="317245" />
	</node>
	<node lat="63.77201432664784" lon="11.499750400264672" id="-89987">
		<tag k="fixme" v="consider place=hamlet" />
		<tag k="name" v="Baglan" />
		<tag k="place" v="farm" />
		<tag k="ssr:stedsnr" v="317258" />
	</node>
	<node lat="63.80362500044208" lon="11.658372220216366" id="-89988">
		<tag k="name" v="Gran" />
		<tag k="place" v="farm" />
		<tag k="ssr:stedsnr" v="317261" />
	</node>
	<node lat="63.80856944510545" lon="11.497341665588033" id="-89990">
		<tag k="name" v="Bakkenget" />
		<tag k="place" v="farm" />
		<tag k="ssr:stedsnr" v="317189" />
	</node>
	<node lat="63.81136120396948" lon="11.514561682070832" id="-89991">
		<tag k="fixme" v="consider place=hamlet" />
		<tag k="name" v="Sørhaug" />
		<tag k="place" v="farm" />
		<tag k="ssr:stedsnr" v="317191" />
	</node>
	<node lat="63.76763375592804" lon="11.492952342113702" id="-89992">
		<tag k="name" v="Berg" />
		<tag k="place" v="hamlet" />
		<tag k="ssr:stedsnr" v="317314" />
	</node>
	<node lat="63.766452548515566" lon="11.552393761676116" id="-89993">
		<tag k="alt_name" v="Vestre Kålen" />
		<tag k="fixme" v="consider place=hamlet" />
		<tag k="name" v="Kålen" />
		<tag k="place" v="farm" />
		<tag k="ssr:stedsnr" v="317318" />
	</node>
	<node lat="63.761594446649326" lon="11.528883334425588" id="-89994">
		<tag k="fixme" v="multiple name tags, choose one and add the other to alt_name" />
		<tag k="name" v="Vallstadsvedjan;Søre Vallstad" />
		<tag k="place" v="farm" />
		<tag k="ssr:stedsnr" v="317321" />
	</node>
	<node lat="63.764308334505834" lon="11.628561105844796" id="-89995">
		<tag k="name" v="Grava" />
		<tag k="place" v="farm" />
		<tag k="ssr:stedsnr" v="317324" />
	</node>
	<node lat="63.82976402373639" lon="11.90688418873284" id="-90001">
		<tag k="fixme" v="consider place=hamlet" />
		<tag k="name" v="Leirhagan" />
		<tag k="place" v="farm" />
		<tag k="ssr:stedsnr" v="317489" />
	</node>
	<node lat="63.808591494643146" lon="11.798744102637338" id="-90006">
		<tag k="name" v="Kluken" />
		<tag k="place" v="farm" />
		<tag k="ssr:stedsnr" v="317571" />
	</node>
	<node lat="63.80222500437013" lon="11.812350007195452" id="-90007">
		<tag k="name" v="Rønningen" />
		<tag k="place" v="farm" />
		<tag k="ssr:stedsnr" v="317572" />
	</node>
	<node lat="63.838627780952606" lon="12.322879202733453" id="-90012">
		<tag k="name" v="Storvukuseteren" />
		<tag k="place" v="locality" />
		<tag k="ssr:stedsnr" v="317678" />
	</node>
	<node lat="63.79413888519324" lon="11.496397218452769" id="-90021">
		<tag k="alt_name" v="Reinsholmen" />
		<tag k="name" v="Reinsholm" />
		<tag k="place" v="farm" />
		<tag k="ssr:stedsnr" v="329491" />
	</node>
	<node lat="63.75216661368607" lon="11.50840290313754" id="-90024">
		<tag k="leisure" v="pitch" />
		<tag k="name" v="Vinne Skisenter" />
		<tag k="ssr:stedsnr" v="329532" />
	</node>
	<node lat="63.767105554729824" lon="11.521602779752909" id="-90025">
		<tag k="name" v="Vallstadmoen" />
		<tag k="place" v="farm" />
		<tag k="ssr:stedsnr" v="329533" />
	</node>
	<node lat="63.775361111653595" lon="11.689791670058208" id="-90027">
		<tag k="name" v="Eide" />
		<tag k="place" v="farm" />
		<tag k="ssr:stedsnr" v="329618" />
	</node>
	<node lat="63.78979444150559" lon="11.606472219336618" id="-90029">
		<tag k="name" v="Grønmyra" />
		<tag k="place" v="farm" />
		<tag k="ssr:stedsnr" v="329648" />
	</node>
	<node lat="63.76585555610084" lon="11.765538892080727" id="-90031">
		<tag k="name" v="Saga" />
		<tag k="old_name" v="Sagen" />
		<tag k="place" v="locality" />
		<tag k="ssr:stedsnr" v="329595" />
	</node>
	<node lat="63.822675003516174" lon="11.410177769134688" id="-90060">
		<tag k="name" v="Vestnes" />
		<tag k="place" v="farm" />
		<tag k="ssr:stedsnr" v="352744" />
	</node>
	<node lat="63.74089444543156" lon="11.686730563727512" id="-90065">
		<tag k="alt_name" v="Bjølloa" />
		<tag k="name" v="Bjøllo" />
		<tag k="place" v="farm" />
		<tag k="ssr:stedsnr" v="376686" />
	</node>
	<node lat="63.85106666377684" lon="11.707663886697684" id="-90066">
		<tag k="name" v="Fossum" />
		<tag k="place" v="farm" />
		<tag k="ssr:stedsnr" v="377122" />
	</node>
	<node lat="63.826304528192836" lon="11.511183007970068" id="-90069">
		<tag k="alt_name" v="Kjerkeråa;Kirkeråen" />
		<tag k="fixme" v="consider place=hamlet" />
		<tag k="name" v="Kjerkråa" />
		<tag k="place" v="farm" />
		<tag k="ssr:stedsnr" v="377210" />
	</node>
	<node lat="63.78241110683237" lon="11.61775833388107" id="-90073">
		<tag k="name" v="Krågset" />
		<tag k="place" v="farm" />
		<tag k="ssr:stedsnr" v="377249" />
	</node>
	<node lat="63.78148611219796" lon="11.613372216061643" id="-90075">
		<tag k="name" v="Eklosveet" />
		<tag k="place" v="farm" />
		<tag k="ssr:stedsnr" v="377254" />
	</node>
	<node lat="63.72754444152769" lon="11.77870832411299" id="-90076">
		<tag k="name" v="Høgli" />
		<tag k="place" v="farm" />
		<tag k="ssr:stedsnr" v="377257" />
	</node>
	<node lat="63.73592500242214" lon="11.758169436730507" id="-90077">
		<tag k="name" v="Granheim" />
		<tag k="place" v="farm" />
		<tag k="ssr:stedsnr" v="377260" />
	</node>
	<node lat="63.671631807699704" lon="12.016505204092919" id="-90081">
		<tag k="fixme" v="consider place=hamlet" />
		<tag k="name" v="Tømte" />
		<tag k="place" v="farm" />
		<tag k="ssr:stedsnr" v="377302" />
	</node>
	<node lat="63.8096482475145" lon="11.888014803439347" id="-90097">
		<tag k="fixme" v="consider place=hamlet" />
		<tag k="name" v="Rød" />
		<tag k="place" v="farm" />
		<tag k="ssr:stedsnr" v="377554" />
	</node>
	<node lat="63.814174813935296" lon="11.892187229762305" id="-90098">
		<tag k="name" v="Overholmen" />
		<tag k="place" v="hamlet" />
		<tag k="ssr:stedsnr" v="377555" />
	</node>
	<node lat="63.808812009420244" lon="12.138675000279003" id="-90099">
		<tag k="fixme" v="consider place=hamlet" />
		<tag k="name" v="Julneset" />
		<tag k="place" v="farm" />
		<tag k="ssr:stedsnr" v="377565" />
	</node>
	<node lat="63.79850833010405" lon="11.807450001819394" id="-90100">
		<tag k="name" v="Vangstadhaugen" />
		<tag k="place" v="farm" />
		<tag k="ssr:stedsnr" v="377588" />
	</node>
	<node lat="63.80997736054686" lon="12.168931645120402" id="-90102">
		<tag k="fixme" v="consider place=hamlet" />
		<tag k="name" v="Ottmoen" />
		<tag k="place" v="farm" />
		<tag k="ssr:stedsnr" v="377603" />
	</node>
	<node lat="63.77315000345621" lon="11.608363883149279" id="-90107">
		<tag k="name" v="Krågset" />
		<tag k="place" v="farm" />
		<tag k="ssr:stedsnr" v="378360" />
	</node>
	<node lat="63.76302688856392" lon="11.496013088490775" id="-90108">
		<tag k="fixme" v="consider place=hamlet" />
		<tag k="name" v="Søråkkan" />
		<tag k="place" v="farm" />
		<tag k="ssr:stedsnr" v="378361" />
	</node>
	<node lat="63.832407724457774" lon="11.917495345228206" id="-90112">
		<tag k="fixme" v="consider place=hamlet" />
		<tag k="name" v="Stor-Langdalen" />
		<tag k="place" v="farm" />
		<tag k="ssr:stedsnr" v="378568" />
	</node>
	<node lat="63.832199995685166" lon="12.039969440462913" id="-90115">
		<tag k="name" v="Skåkneset" />
		<tag k="place" v="farm" />
		<tag k="ssr:stedsnr" v="378583" />
	</node>
	<node lat="63.8211777747653" lon="11.911402779454734" id="-90117">
		<tag k="name" v="Vollset" />
		<tag k="place" v="farm" />
		<tag k="ssr:stedsnr" v="378623" />
	</node>
	<node lat="63.82254708860753" lon="11.91765980184568" id="-90118">
		<tag k="fixme" v="consider place=hamlet" />
		<tag k="name" v="Leirset" />
		<tag k="place" v="farm" />
		<tag k="ssr:stedsnr" v="378625" />
	</node>
	<node lat="63.77785833249537" lon="11.772702770184686" id="-90123">
		<tag k="name" v="Nordenget" />
		<tag k="place" v="quarter" />
		<tag k="ssr:stedsnr" v="388630" />
	</node>
	<node lat="63.81367777596142" lon="11.462850005880549" id="-90128">
		<tag k="name" v="Fagerheim" />
		<tag k="place" v="isolated_dwelling" />
		<tag k="ssr:stedsnr" v="389515" />
	</node>
	<node lat="63.79190555172583" lon="11.463816664693423" id="-90129">
		<tag k="fixme" v="consider place=suburb, village or hamlet" />
		<tag k="name" v="Ørmelen" />
		<tag k="place" v="quarter" />
		<tag k="ssr:stedsnr" v="389526" />
	</node>
	<node lat="63.80664999835477" lon="11.45056388414616" id="-90130">
		<tag k="name" v="Sandnes" />
		<tag k="place" v="farm" />
		<tag k="ssr:stedsnr" v="389527" />
	</node>
	<node lat="63.87589166851909" lon="11.62268888539601" id="-90139">
		<tag k="name" v="Tuset" />
		<tag k="place" v="farm" />
		<tag k="ssr:stedsnr" v="392346" />
	</node>
	<node lat="63.76951178319965" lon="11.534074065066866" id="-90143">
		<tag k="name" v="Øystre Leirfall" />
		<tag k="place" v="farm" />
		<tag k="ssr:stedsnr" v="411496" />
	</node>
	<node lat="63.76475555942901" lon="11.81085277966636" id="-90162">
		<tag k="name" v="Storhaugen" />
		<tag k="place" v="farm" />
		<tag k="ssr:stedsnr" v="439621" />
	</node>
	<node lat="63.73834722433659" lon="11.757983329884352" id="-90168">
		<tag k="fixme" v="consider place=hamlet" />
		<tag k="name" v="Garnes" />
		<tag k="place" v="village" />
		<tag k="ssr:stedsnr" v="437282" />
	</node>
	<node lat="63.851897393506654" lon="11.509285174992687" id="-90170">
		<tag k="name" v="Hestgreivollen" />
		<tag k="place" v="locality" />
		<tag k="ssr:stedsnr" v="438135" />
	</node>
	<node lat="63.8379378671701" lon="11.4892411243227" id="-90174">
		<tag k="fixme" v="consider place=hamlet" />
		<tag k="name" v="Huseby" />
		<tag k="place" v="farm" />
		<tag k="ssr:stedsnr" v="438231" />
	</node>
	<node lat="63.789355557259064" lon="11.69419443972061" id="-90175">
		<tag k="name" v="Bjørgåsen" />
		<tag k="place" v="farm" />
		<tag k="ssr:stedsnr" v="438242" />
	</node>
	<node lat="63.78131666807372" lon="11.531088895706436" id="-90176">
		<tag k="name" v="Haugdal" />
		<tag k="place" v="farm" />
		<tag k="ssr:stedsnr" v="438245" />
	</node>
	<node lat="63.781124997645584" lon="11.550863897411745" id="-90177">
		<tag k="name" v="Rossvoll" />
		<tag k="place" v="hamlet" />
		<tag k="ssr:stedsnr" v="438247" />
	</node>
	<node lat="63.68579101886526" lon="11.879178981639122" id="-90181">
		<tag k="name" v="Havervollen" />
		<tag k="place" v="locality" />
		<tag k="ssr:stedsnr" v="438273" />
	</node>
	<node lat="63.66637105776343" lon="12.009613303972943" id="-90184">
		<tag k="fixme" v="consider place=hamlet" />
		<tag k="name" v="Sul" />
		<tag k="place" v="village" />
		<tag k="ssr:stedsnr" v="438290" />
	</node>
	<node lat="63.6688277745924" lon="12.0257472169282" id="-90185">
		<tag k="name" v="Litlengåsen" />
		<tag k="place" v="farm" />
		<tag k="ssr:stedsnr" v="438292" />
	</node>
	<node lat="63.67042984476249" lon="12.027165542353636" id="-90186">
		<tag k="fixme" v="consider place=hamlet" />
		<tag k="name" v="Austgarden" />
		<tag k="place" v="farm" />
		<tag k="ssr:stedsnr" v="438293" />
	</node>
	<node lat="63.77631666941338" lon="11.607480557408747" id="-90189">
		<tag k="name" v="Kråg" />
		<tag k="place" v="farm" />
		<tag k="ssr:stedsnr" v="439328" />
	</node>
	<node lat="63.76931666381496" lon="11.558902780242853" id="-90190">
		<tag k="name" v="Øyan" />
		<tag k="place" v="farm" />
		<tag k="ssr:stedsnr" v="439330" />
	</node>
	<node lat="63.772420179707716" lon="11.593465046178956" id="-90191">
		<tag k="fixme" v="consider place=hamlet" />
		<tag k="name" v="Haga" />
		<tag k="place" v="farm" />
		<tag k="ssr:stedsnr" v="439331" />
	</node>
	<node lat="63.792874999603825" lon="11.61714999142006" id="-90192">
		<tag k="name" v="Hellem" />
		<tag k="place" v="farm" />
		<tag k="ssr:stedsnr" v="438308" />
	</node>
	<node lat="63.71900833281404" lon="11.608577772361691" id="-90196">
		<tag k="historic" v="shieling" />
		<tag k="name" v="Ramsåsvollen" />
		<tag k="place" v="isolated_dwelling" />
		<tag k="ssr:stedsnr" v="438590" />
	</node>
	<node lat="63.81387591488279" lon="11.622867875824967" id="-90198">
		<tag k="alt_name" v="Lyngås" />
		<tag k="fixme" v="consider place=hamlet" />
		<tag k="name" v="Lyngåsen" />
		<tag k="place" v="farm" />
		<tag k="ssr:stedsnr" v="439175" />
	</node>
	<node lat="63.81837500261896" lon="11.630208324394605" id="-90199">
		<tag k="name" v="Granli" />
		<tag k="place" v="farm" />
		<tag k="ssr:stedsnr" v="439179" />
	</node>
	<node lat="63.7750416693418" lon="11.495236118854358" id="-90200">
		<tag k="name" v="Norum" />
		<tag k="place" v="farm" />
		<tag k="ssr:stedsnr" v="439265" />
	</node>
	<node lat="63.77799722368267" lon="11.499044441905767" id="-90201">
		<tag k="name" v="Elverum" />
		<tag k="place" v="farm" />
		<tag k="ssr:stedsnr" v="439268" />
	</node>
	<node lat="63.843573496296514" lon="12.018494977692098" id="-90203">
		<tag k="fixme" v="consider place=hamlet" />
		<tag k="name" v="Åkran" />
		<tag k="place" v="farm" />
		<tag k="ssr:stedsnr" v="439540" />
	</node>
	<node lat="63.82290115126112" lon="11.971560891661115" id="-90205">
		<tag k="fixme" v="consider place=hamlet" />
		<tag k="name" v="Ørtugen" />
		<tag k="place" v="farm" />
		<tag k="ssr:stedsnr" v="439573" />
	</node>
	<node lat="63.81792500313324" lon="11.96481665838544" id="-90206">
		<tag k="name" v="Øyster-Elnes" />
		<tag k="place" v="farm" />
		<tag k="ssr:stedsnr" v="439578" />
	</node>
	<node lat="63.75972954367668" lon="11.803638495764057" id="-90207">
		<tag k="alt_name" v="Kvelnmoen" />
		<tag k="fixme" v="consider place=hamlet" />
		<tag k="name" v="Kvernmoen" />
		<tag k="place" v="farm" />
		<tag k="ssr:stedsnr" v="439683" />
	</node>
	<node lat="63.795761109142624" lon="12.311891656889724" id="-90209">
		<tag k="alt_name" v="Rydningen" />
		<tag k="name" v="Rønningen" />
		<tag k="place" v="farm" />
		<tag k="ssr:stedsnr" v="439763" />
	</node>
	<node lat="63.71464166943764" lon="11.739711102142163" id="-90216">
		<tag k="name" v="Austnesvollen" />
		<tag k="place" v="locality" />
		<tag k="ssr:stedsnr" v="498316" />
	</node>
	<node lat="63.73308889045124" lon="11.741052783872043" id="-90219">
		<tag k="name" v="Sneringen" />
		<tag k="place" v="farm" />
		<tag k="ssr:stedsnr" v="498329" />
	</node>
	<node lat="63.72449444257223" lon="11.75290276803479" id="-90220">
		<tag k="name" v="Nedre Fagerlia" />
		<tag k="place" v="farm" />
		<tag k="ssr:stedsnr" v="498330" />
	</node>
	<node lat="63.709480553453766" lon="11.879738882560487" id="-90221">
		<tag k="name" v="Vaterholmen" />
		<tag k="place" v="isolated_dwelling" />
		<tag k="ssr:stedsnr" v="498356" />
	</node>
	<node lat="63.81901666930771" lon="11.928613882698432" id="-90226">
		<tag k="name" v="Austlia" />
		<tag k="place" v="farm" />
		<tag k="ssr:stedsnr" v="499523" />
	</node>
	<node lat="63.819088220348505" lon="11.540507336269178" id="-90237">
		<tag k="fixme" v="consider place=hamlet" />
		<tag k="name" v="Vist" />
		<tag k="place" v="farm" />
		<tag k="ssr:stedsnr" v="499160" />
	</node>
	<node lat="63.82203333068644" lon="11.672166664824976" id="-90238">
		<tag k="name" v="Musemsvedjan" />
		<tag k="place" v="farm" />
		<tag k="ssr:stedsnr" v="499173" />
	</node>
	<node lat="63.824175000785516" lon="11.6552083325154" id="-90239">
		<tag k="name" v="Musemåsen" />
		<tag k="place" v="farm" />
		<tag k="ssr:stedsnr" v="499174" />
	</node>
	<node lat="63.82326495593163" lon="11.469154098559477" id="-90240">
		<tag k="fixme" v="consider place=hamlet" />
		<tag k="name" v="Skjerset" />
		<tag k="place" v="farm" />
		<tag k="ssr:stedsnr" v="499179" />
	</node>
	<node lat="63.83350794945347" lon="11.572409917735984" id="-90241">
		<tag k="alt_name" v="Sør-Skjørholmen" />
		<tag k="fixme" v="consider place=hamlet" />
		<tag k="name" v="Skjørholmen" />
		<tag k="place" v="farm" />
		<tag k="ssr:stedsnr" v="499181" />
	</node>
	<node lat="63.791344441716994" lon="11.513772229783331" id="-90242">
		<tag k="name" v="Holmen" />
		<tag k="place" v="farm" />
		<tag k="ssr:stedsnr" v="499241" />
	</node>
	<node lat="63.78526944385368" lon="11.628619453882456" id="-90243">
		<tag k="name" v="Tryggvoll" />
		<tag k="place" v="farm" />
		<tag k="ssr:stedsnr" v="499243" />
	</node>
	<node lat="63.755400281268784" lon="11.481376924169087" id="-90244">
		<tag k="alt_name" v="Balhald" />
		<tag k="fixme" v="consider place=hamlet" />
		<tag k="loc_name" v="Ballhallan" />
		<tag k="name" v="Balhall" />
		<tag k="place" v="farm" />
		<tag k="ssr:stedsnr" v="499245" />
	</node>
	<node lat="63.77166388897933" lon="11.700680565294151" id="-90246">
		<tag k="name" v="Neset" />
		<tag k="place" v="farm" />
		<tag k="ssr:stedsnr" v="499281" />
	</node>
	<node lat="63.77175827760064" lon="11.551986491106211" id="-90247">
		<tag k="fixme" v="consider place=hamlet" />
		<tag k="name" v="Lennes" />
		<tag k="place" v="farm" />
		<tag k="ssr:stedsnr" v="499284" />
	</node>
	<node lat="63.75024722137077" lon="11.719474992160368" id="-90252">
		<tag k="name" v="Stubbe" />
		<tag k="place" v="farm" />
		<tag k="ssr:stedsnr" v="499629" />
	</node>
	<node lat="63.81265000035852" lon="12.437449996610944" id="-90254">
		<tag k="name" v="Sessilvollvollen" />
		<tag k="place" v="locality" />
		<tag k="ssr:stedsnr" v="499711" />
	</node>
	<node lat="63.82810000426602" lon="11.923822223709465" id="-90262">
		<tag k="name" v="Blokhaugen" />
		<tag k="place" v="farm" />
		<tag k="ssr:stedsnr" v="499461" />
	</node>
	<node lat="63.77352777414443" lon="11.741305554676583" id="-90265">
		<tag k="name" v="Stor-Vuku" />
		<tag k="place" v="farm" />
		<tag k="ssr:stedsnr" v="499581" />
	</node>
	<node lat="63.76585555671164" lon="11.566338898780211" id="-90276">
		<tag k="alt_name" v="Nes mellom" />
		<tag k="name" v="Nes" />
		<tag k="place" v="farm" />
		<tag k="ssr:stedsnr" v="511519" />
	</node>
	<node lat="63.83514166319934" lon="11.442049990995844" id="-90277">
		<tag k="name" v="Heggli" />
		<tag k="place" v="farm" />
		<tag k="ssr:stedsnr" v="511525" />
	</node>
	<node lat="63.81563333352983" lon="11.459080559019844" id="-90278">
		<tag k="alt_name" v="Holme nordre" />
		<tag k="name" v="Nordre Holme" />
		<tag k="place" v="farm" />
		<tag k="ssr:stedsnr" v="511528" />
	</node>
	<node lat="63.830630551690945" lon="11.465486115385865" id="-90279">
		<tag k="name" v="Råsveet" />
		<tag k="place" v="farm" />
		<tag k="ssr:stedsnr" v="511529" />
	</node>
	<node lat="63.80056666587345" lon="11.561519450227062" id="-90285">
		<tag k="amenity" v="school" />
		<tag k="name" v="Stiklestad skole" />
		<tag k="ssr:stedsnr" v="527190" />
	</node>
	<node lat="63.80889999751486" lon="11.804697220133276" id="-90297">
		<tag k="name" v="Midtre Kluken" />
		<tag k="place" v="farm" />
		<tag k="ssr:stedsnr" v="534083" />
	</node>
	<node lat="63.853886107100976" lon="11.529861113852126" id="-90302">
		<tag k="name" v="Minsåsvollen" />
		<tag k="place" v="locality" />
		<tag k="ssr:stedsnr" v="534989" />
	</node>
	<node lat="63.73986476814104" lon="11.780987720074421" id="-90304">
		<tag k="name" v="Nedre Skavhaugg" />
		<tag k="place" v="farm" />
		<tag k="ssr:stedsnr" v="542052" />
	</node>
	<node lat="63.89877777971113" lon="11.767900001352963" id="-90312">
		<tag k="fixme" v="multiple name tags, choose one and add the other to alt_name" />
		<tag k="name" v="Musemsseteren;Nyseteren" />
		<tag k="place" v="isolated_dwelling" />
		<tag k="ssr:stedsnr" v="558490" />
	</node>
	<node lat="63.722022628676704" lon="11.645934523047247" id="-90313">
		<tag k="fixme" v="consider place=hamlet" />
		<tag k="name" v="Tromsdalen" />
		<tag k="place" v="farm" />
		<tag k="ssr:stedsnr" v="558630" />
	</node>
	<node lat="63.84642499883329" lon="11.591213883852802" id="-90314">
		<tag k="loc_name" v="Haukåa;Ner-Haukåa" />
		<tag k="name" v="Haukå" />
		<tag k="place" v="farm" />
		<tag k="ssr:stedsnr" v="559127" />
	</node>
	<node lat="63.77655458356731" lon="11.641122176621025" id="-90316">
		<tag k="fixme" v="consider place=hamlet" />
		<tag k="name" v="Landfall" />
		<tag k="place" v="farm" />
		<tag k="ssr:stedsnr" v="559250" />
	</node>
	<node lat="63.72010832889867" lon="11.753550008598838" id="-90317">
		<tag k="name" v="Øvre Fagerlia" />
		<tag k="place" v="farm" />
		<tag k="ssr:stedsnr" v="559256" />
	</node>
	<node lat="63.77633587913151" lon="11.461070770821713" id="-90318">
		<tag k="alt_name" v="Feta;Fætten" />
		<tag k="fixme" v="consider place=hamlet" />
		<tag k="name" v="Fætta" />
		<tag k="place" v="farm" />
		<tag k="ssr:stedsnr" v="559260" />
	</node>
	<node lat="63.72935090602561" lon="11.745448325660114" id="-90319">
		<tag k="alt_name" v="Åsan, vestre" />
		<tag k="fixme" v="consider place=hamlet" />
		<tag k="name" v="Vestre Åsan" />
		<tag k="place" v="farm" />
		<tag k="ssr:stedsnr" v="559261" />
	</node>
	<node lat="63.86862222514306" lon="11.922225004604899" id="-90330">
		<tag k="historic" v="shieling" />
		<tag k="name" v="Vangstadvollen" />
		<tag k="place" v="isolated_dwelling" />
		<tag k="ssr:stedsnr" v="559529" />
	</node>
	<node lat="63.63056666461695" lon="11.651419447818888" id="-90332">
		<tag k="alt_name" v="Haugsvollen, nedre" />
		<tag k="name" v="Nedre Haugsvollen" />
		<tag k="place" v="isolated_dwelling" />
		<tag k="ssr:stedsnr" v="559372" />
	</node>
	<node lat="63.88880555866261" lon="12.123650002565821" id="-90334">
		<tag k="name" v="Gravdalsstua" />
		<tag k="place" v="isolated_dwelling" />
		<tag k="ssr:stedsnr" v="559451" />
	</node>
	<node lat="63.81129259400424" lon="11.898336546380673" id="-90338">
		<tag k="fixme" v="consider place=hamlet" />
		<tag k="name" v="Overmoen" />
		<tag k="place" v="farm" />
		<tag k="ssr:stedsnr" v="559563" />
	</node>
	<node lat="63.811344440600955" lon="11.846444435497283" id="-90339">
		<tag k="name" v="Reitan" />
		<tag k="place" v="farm" />
		<tag k="ssr:stedsnr" v="559566" />
	</node>
	<node lat="63.811800049835306" lon="11.96760799474373" id="-90340">
		<tag k="fixme" v="consider place=hamlet" />
		<tag k="name" v="Melen" />
		<tag k="place" v="farm" />
		<tag k="ssr:stedsnr" v="559569" />
	</node>
	<node lat="63.78801944409446" lon="11.81465556112827" id="-90344">
		<tag k="name" v="Mikkelaunet" />
		<tag k="place" v="farm" />
		<tag k="ssr:stedsnr" v="559666" />
	</node>
	<node lat="63.75566388546668" lon="11.468375004957434" id="-90349">
		<tag k="alt_name" v="Hallan, midtre" />
		<tag k="name" v="Midtre Hallan" />
		<tag k="place" v="farm" />
		<tag k="ssr:stedsnr" v="560305" />
	</node>
	<node lat="63.80645277758906" lon="11.58319999091928" id="-90350">
		<tag k="alt_name" v="Hallem, østre" />
		<tag k="name" v="Østre Hallem" />
		<tag k="place" v="farm" />
		<tag k="ssr:stedsnr" v="560273" />
	</node>
	<node lat="63.80891111096148" lon="11.670655545923143" id="-90351">
		<tag k="name" v="Fikseaunet" />
		<tag k="place" v="farm" />
		<tag k="ssr:stedsnr" v="560277" />
	</node>
	<node lat="63.79297499977472" lon="11.480027784505845" id="-90352">
		<tag k="name" v="Verdal" />
		<tag k="place" v="town" />
		<tag k="ssr:stedsnr" v="560278" />
	</node>
	<node lat="63.76468589467057" lon="11.711352557217797" id="-90353">
		<tag k="alt_name" v="Vester-Jøssås" />
		<tag k="fixme" v="consider place=hamlet" />
		<tag k="name" v="Jøssås" />
		<tag k="place" v="farm" />
		<tag k="ssr:stedsnr" v="560361" />
	</node>
	<node lat="63.76336111391612" lon="11.688258331655945" id="-90354">
		<tag k="name" v="Kvellomoen" />
		<tag k="place" v="farm" />
		<tag k="ssr:stedsnr" v="560363" />
	</node>
	<node lat="63.789813948487144" lon="12.323105544689236" id="-90359">
		<tag k="fixme" v="consider place=hamlet" />
		<tag k="name" v="Tronsmoen" />
		<tag k="place" v="farm" />
		<tag k="ssr:stedsnr" v="560760" />
	</node>
	<node lat="63.781474426737354" lon="11.652803022700791" id="-90364">
		<tag k="fixme" v="consider place=hamlet" />
		<tag k="name" v="Steinslia" />
		<tag k="place" v="farm" />
		<tag k="ssr:stedsnr" v="571611" />
	</node>
	<node lat="63.835208329194856" lon="11.481433330353587" id="-90366">
		<tag k="name" v="Tokstadaunet" />
		<tag k="place" v="farm" />
		<tag k="ssr:stedsnr" v="571546" />
	</node>
	<node lat="63.77319993475197" lon="11.528608231488299" id="-90368">
		<tag k="fixme" v="consider place=hamlet" />
		<tag k="name" v="Vinne" />
		<tag k="place" v="farm" />
		<tag k="ssr:stedsnr" v="571645" />
	</node>
	<node lat="63.79506388818362" lon="11.56695000555714" id="-90370">
		<tag k="name" v="Øver-Stiklestad" />
		<tag k="place" v="farm" />
		<tag k="ssr:stedsnr" v="571654" />
	</node>
	<node lat="63.807894448232794" lon="11.59965000304694" id="-90371">
		<tag k="name" v="Øver-Hallem" />
		<tag k="place" v="farm" />
		<tag k="ssr:stedsnr" v="571658" />
	</node>
	<node lat="63.77543126263745" lon="11.738100277681534" id="-90378">
		<tag k="fixme" v="consider place=hamlet" />
		<tag k="name" v="Vuku" />
		<tag k="place" v="village" />
		<tag k="ssr:stedsnr" v="574824" />
	</node>
	<node lat="63.7733555550748" lon="11.662283340383668" id="-90386">
		<tag k="name" v="Nedre Vola" />
		<tag k="place" v="farm" />
		<tag k="ssr:stedsnr" v="593564" />
	</node>
	<node lat="63.844013885847495" lon="11.70788055766929" id="-90398">
		<tag k="name" v="Lunnan" />
		<tag k="place" v="farm" />
		<tag k="ssr:stedsnr" v="594244" />
	</node>
	<node lat="63.85630277940837" lon="11.512733335504524" id="-90411">
		<tag k="name" v="Åkerhusvollen" />
		<tag k="place" v="locality" />
		<tag k="ssr:stedsnr" v="594991" />
	</node>
	<node lat="63.85156667093101" lon="11.505191668240895" id="-90412">
		<tag k="name" v="Auglavollen" />
		<tag k="place" v="locality" />
		<tag k="ssr:stedsnr" v="594992" />
	</node>
	<node lat="63.7400694421909" lon="11.759549998757231" id="-90413">
		<tag k="amenity" v="school" />
		<tag k="name" v="Garnes oppvekstsenter" />
		<tag k="ssr:stedsnr" v="600191" />
	</node>
	<node lat="63.775205558718625" lon="11.629497228969582" id="-90416">
		<tag k="name" v="Eklo, s" />
		<tag k="place" v="farm" />
		<tag k="ssr:stedsnr" v="620250" />
	</node>
	<node lat="63.77537777395373" lon="11.466100008305178" id="-90417">
		<tag k="name" v="Øya" />
		<tag k="place" v="farm" />
		<tag k="ssr:stedsnr" v="620258" />
	</node>
	<node lat="63.80951363947143" lon="11.660916164795221" id="-90418">
		<tag k="fixme" v="consider place=hamlet" />
		<tag k="name" v="Fikse" />
		<tag k="place" v="farm" />
		<tag k="ssr:stedsnr" v="620267" />
	</node>
	<node lat="63.74098323308401" lon="11.529079122283948" id="-90422">
		<tag k="fixme" v="consider place=hamlet" />
		<tag k="name" v="Ravlo" />
		<tag k="place" v="farm" />
		<tag k="ssr:stedsnr" v="619669" />
	</node>
	<node lat="63.849725002186865" lon="11.58800278022339" id="-90425">
		<tag k="name" v="Haugdal" />
		<tag k="place" v="farm" />
		<tag k="ssr:stedsnr" v="620135" />
	</node>
	<node lat="63.850552779418685" lon="11.5901749951943" id="-90426">
		<tag k="name" v="Lademoen" />
		<tag k="place" v="farm" />
		<tag k="ssr:stedsnr" v="620136" />
	</node>
	<node lat="63.8521805540577" lon="11.643683342971809" id="-90427">
		<tag k="name" v="Tjelderenget" />
		<tag k="place" v="farm" />
		<tag k="ssr:stedsnr" v="620141" />
	</node>
	<node lat="63.673386655295594" lon="12.028843663187484" id="-90428">
		<tag k="alt_name" v="Karlgården" />
		<tag k="fixme" v="consider place=hamlet" />
		<tag k="name" v="Karlgarden" />
		<tag k="place" v="farm" />
		<tag k="ssr:stedsnr" v="620290" />
	</node>
	<node lat="63.81762499773675" lon="11.681625003943813" id="-90430">
		<tag k="name" v="Moan" />
		<tag k="place" v="farm" />
		<tag k="ssr:stedsnr" v="620198" />
	</node>
	<node lat="63.819589324468055" lon="11.64654250410289" id="-90431">
		<tag k="alt_name" v="Ner-Musem" />
		<tag k="name" v="Musem" />
		<tag k="place" v="farm" />
		<tag k="ssr:stedsnr" v="620203" />
	</node>
	<node lat="63.81654444081382" lon="11.505408327354244" id="-90432">
		<tag k="alt_name" v="Minsås, nordre" />
		<tag k="name" v="Nordre Minsås" />
		<tag k="place" v="farm" />
		<tag k="ssr:stedsnr" v="620206" />
	</node>
	<node lat="63.82099189394372" lon="11.526438275721347" id="-90433">
		<tag k="fixme" v="consider place=hamlet" />
		<tag k="name" v="Landstad" />
		<tag k="place" v="farm" />
		<tag k="ssr:stedsnr" v="620209" />
	</node>
	<node lat="63.825761106808606" lon="11.562525007234013" id="-90434">
		<tag k="name" v="Sandvika" />
		<tag k="place" v="farm" />
		<tag k="ssr:stedsnr" v="620217" />
	</node>
	<node lat="63.755602781927045" lon="11.575091665528875" id="-90439">
		<tag k="name" v="Øvrum" />
		<tag k="place" v="farm" />
		<tag k="ssr:stedsnr" v="620306" />
	</node>
	<node lat="63.75432915969262" lon="11.518486291310447" id="-90440">
		<tag k="fixme" v="consider place=hamlet" />
		<tag k="name" v="Hello" />
		<tag k="place" v="farm" />
		<tag k="ssr:stedsnr" v="620307" />
	</node>
	<node lat="63.75066944772386" lon="11.467900001904587" id="-90441">
		<tag k="name" v="Haugås" />
		<tag k="place" v="farm" />
		<tag k="ssr:stedsnr" v="620312" />
	</node>
	<node lat="63.63964444001442" lon="11.682458338596364" id="-90452">
		<tag k="alt_name" v="Haugsvollen, øvre" />
		<tag k="historic" v="shieling" />
		<tag k="name" v="Øvre Haugsvollen" />
		<tag k="place" v="isolated_dwelling" />
		<tag k="ssr:stedsnr" v="620498" />
	</node>
	<node lat="63.8099826249512" lon="12.304294776180432" id="-90458">
		<tag k="fixme" v="consider place=hamlet" />
		<tag k="name" v="Storlunet" />
		<tag k="place" v="farm" />
		<tag k="ssr:stedsnr" v="620706" />
	</node>
	<node lat="63.77920833629573" lon="11.766361108731392" id="-90472">
		<tag k="name" v="Skogheim" />
		<tag k="place" v="farm" />
		<tag k="ssr:stedsnr" v="631678" />
	</node>
	<node lat="63.814430554528215" lon="11.925330552181094" id="-90475">
		<tag k="alt_name" v="Kulsli søre" />
		<tag k="name" v="Søre Kulsli" />
		<tag k="place" v="farm" />
		<tag k="ssr:stedsnr" v="631822" />
	</node>
	<node lat="63.78723333742877" lon="11.492700004546581" id="-90476">
		<tag k="name" v="Estvoll" />
		<tag k="place" v="farm" />
		<tag k="ssr:stedsnr" v="632542" />
	</node>
	<node lat="63.781352773861705" lon="11.666724993596105" id="-90480">
		<tag k="fixme" v="multiple name tags, choose one and add the other to alt_name" />
		<tag k="name" v="Sundbyenget;Reppesaunet" />
		<tag k="place" v="farm" />
		<tag k="ssr:stedsnr" v="632622" />
	</node>
	<node lat="63.81036079348561" lon="11.579745883267153" id="-90484">
		<tag k="name" v="Hallem" />
		<tag k="place" v="hamlet" />
		<tag k="ssr:stedsnr" v="632677" />
	</node>
	<node lat="63.77927207471382" lon="11.695972930845095" id="-90485">
		<tag k="fixme" v="consider place=hamlet" />
		<tag k="name" v="Stuskin" />
		<tag k="old_name" v="Stubskin" />
		<tag k="place" v="farm" />
		<tag k="ssr:stedsnr" v="635322" />
	</node>
	<node lat="63.816533331123416" lon="12.258027778961083" id="-90507">
		<tag k="fixme" v="consider tourism=alpine_hut or tourism=chalet" />
		<tag k="name" v="Bringsåsen" />
		<tag k="ssr:stedsnr" v="663163" />
		<tag k="tourism" v="wilderness_hut" />
	</node>
	<node lat="63.80173313702458" lon="12.353907911594957" id="-90536">
		<tag k="fixme" v="consider place=hamlet" />
		<tag k="name" v="Nord-Vera" />
		<tag k="place" v="farm" />
		<tag k="ssr:stedsnr" v="724050" />
	</node>
	<node lat="63.72727499895848" lon="11.780363892598212" id="-90541">
		<tag k="name" v="Bruborg" />
		<tag k="place" v="farm" />
		<tag k="ssr:stedsnr" v="741327" />
	</node>
	<node lat="63.73695833387617" lon="11.765872226518464" id="-90542">
		<tag k="alt_name" v="Garnes, nedre;Garnes" />
		<tag k="name" v="Nedre Garnes" />
		<tag k="place" v="farm" />
		<tag k="ssr:stedsnr" v="741332" />
	</node>
	<node lat="63.7780972212916" lon="11.625444451903439" id="-90543">
		<tag k="name" v="Eklo, vestre" />
		<tag k="place" v="farm" />
		<tag k="ssr:stedsnr" v="742246" />
	</node>
	<node lat="63.8557694434598" lon="11.595866668208307" id="-90546">
		<tag k="name" v="Sjøvollen" />
		<tag k="place" v="farm" />
		<tag k="ssr:stedsnr" v="741183" />
	</node>
	<node lat="63.65456389256288" lon="12.13241110961283" id="-90549">
		<tag k="name" v="Nybygget" />
		<tag k="old_name" v="Kongsstuggu;Kongsstua" />
		<tag k="place" v="isolated_dwelling" />
		<tag k="ssr:stedsnr" v="741366" />
	</node>
	<node lat="63.81208610701014" lon="11.963105557775414" id="-90551">
		<tag k="name" v="Vollan" />
		<tag k="place" v="farm" />
		<tag k="ssr:stedsnr" v="741649" />
	</node>
	<node lat="63.87475436824115" lon="11.606544992355467" id="-90555">
		<tag k="fixme" v="consider place=hamlet" />
		<tag k="name" v="Vika" />
		<tag k="place" v="farm" />
		<tag k="ssr:stedsnr" v="742158" />
	</node>
	<node lat="63.848008336571766" lon="11.5869305620383" id="-90556">
		<tag k="alt_name" v="Øver-Haugset" />
		<tag k="name" v="Haugset" />
		<tag k="place" v="farm" />
		<tag k="ssr:stedsnr" v="742125" />
	</node>
	<node lat="63.79122504438782" lon="11.574242510631024" id="-90557">
		<tag k="fixme" v="consider place=hamlet" />
		<tag k="name" v="Heggstad" />
		<tag k="place" v="farm" />
		<tag k="ssr:stedsnr" v="742284" />
	</node>
	<node lat="63.81126666264121" lon="11.58573332373202" id="-90558">
		<tag k="alt_name" v="Hallem, nordre" />
		<tag k="loc_name" v="Hallem" />
		<tag k="name" v="Nordre Hallem" />
		<tag k="place" v="farm" />
		<tag k="ssr:stedsnr" v="742177" />
	</node>
	<node lat="63.771459295327375" lon="11.523674793154731" id="-90559">
		<tag k="fixme" v="multiple name tags, choose one and add the other to alt_name" />
		<tag k="name" v="Vestre Vallstad;Vallstad" />
		<tag k="place" v="farm" />
		<tag k="ssr:stedsnr" v="742256" />
	</node>
	<node lat="63.80428888632377" lon="11.677794445094507" id="-90561">
		<tag k="name" v="Myrenget" />
		<tag k="place" v="farm" />
		<tag k="ssr:stedsnr" v="742264" />
	</node>
	<node lat="63.79915649470074" lon="11.50046539985494" id="-90562">
		<tag k="fixme" v="consider place=hamlet" />
		<tag k="name" v="Borga" />
		<tag k="place" v="farm" />
		<tag k="ssr:stedsnr" v="742270" />
	</node>
	<node lat="63.797022816427884" lon="11.66839680706298" id="-90563">
		<tag k="fixme" v="consider place=hamlet" />
		<tag k="name" v="Snausa" />
		<tag k="place" v="farm" />
		<tag k="ssr:stedsnr" v="742280" />
	</node>
	<node lat="63.7569555562777" lon="11.46996944690298" id="-90564">
		<tag k="alt_name" v="Hallan, østre" />
		<tag k="name" v="Østre Hallan" />
		<tag k="place" v="farm" />
		<tag k="ssr:stedsnr" v="742291" />
	</node>
	<node lat="63.769400001128176" lon="11.564208328524611" id="-90565">
		<tag k="name" v="Solbu" />
		<tag k="place" v="farm" />
		<tag k="ssr:stedsnr" v="742320" />
	</node>
	<node lat="63.77386789793075" lon="11.714978046656311" id="-90566">
		<tag k="name" v="Slapgård" />
		<tag k="place" v="farm" />
		<tag k="ssr:stedsnr" v="742327" />
	</node>
	<node lat="63.83016104727831" lon="12.017685711416744" id="-90567">
		<tag k="fixme" v="consider place=hamlet" />
		<tag k="name" v="Hjellmoen" />
		<tag k="place" v="farm" />
		<tag k="ssr:stedsnr" v="742516" />
	</node>
	<node lat="63.81701786484213" lon="11.927584170631773" id="-90571">
		<tag k="fixme" v="consider place=hamlet" />
		<tag k="name" v="Kulslia" />
		<tag k="place" v="farm" />
		<tag k="ssr:stedsnr" v="742555" />
	</node>
	<node lat="63.75938055559421" lon="11.785150002130978" id="-90573">
		<tag k="name" v="Bjørsmoen" />
		<tag k="place" v="farm" />
		<tag k="ssr:stedsnr" v="742671" />
	</node>
	<node lat="63.856433331302135" lon="12.387452780040327" id="-90580">
		<tag k="name" v="Tverråholmen" />
		<tag k="place" v="locality" />
		<tag k="ssr:stedsnr" v="742726" />
	</node>
	<node lat="63.814966669344365" lon="11.462636120712508" id="-90587">
		<tag k="name" v="Jonsborg" />
		<tag k="place" v="farm" />
		<tag k="ssr:stedsnr" v="753483" />
	</node>
	<node lat="63.77756110729893" lon="11.778397219688095" id="-90593">
		<tag k="name" v="Midtholmen" />
		<tag k="place" v="farm" />
		<tag k="ssr:stedsnr" v="752636" />
	</node>
	<node lat="63.80889444582415" lon="11.881588887802689" id="-90597">
		<tag k="alt_name" v="Overholmen søre" />
		<tag k="name" v="Søre Overholmen" />
		<tag k="place" v="farm" />
		<tag k="ssr:stedsnr" v="753582" />
	</node>
	<node lat="63.762508334926196" lon="11.628072231765806" id="-90603">
		<tag k="name" v="Melbygrava" />
		<tag k="place" v="farm" />
		<tag k="ssr:stedsnr" v="753680" />
	</node>
	<node lat="63.82243055128271" lon="11.414686104985662" id="-90607">
		<tag k="fixme" v="consider place=suburb, village or hamlet" />
		<tag k="name" v="Nordskaget" />
		<tag k="place" v="quarter" />
		<tag k="ssr:stedsnr" v="753701" />
	</node>
	<node lat="63.81174281503326" lon="11.529231270859954" id="-90608">
		<tag k="fixme" v="consider place=hamlet" />
		<tag k="name" v="Lein" />
		<tag k="place" v="farm" />
		<tag k="ssr:stedsnr" v="754237" />
	</node>
	<node lat="63.766380557893456" lon="11.481933323515465" id="-90609">
		<tag k="name" v="Berg" />
		<tag k="place" v="farm" />
		<tag k="ssr:stedsnr" v="754539" />
	</node>
	<node lat="63.765572221866094" lon="11.46950833500542" id="-90610">
		<tag k="name" v="Valbekkmoen" />
		<tag k="place" v="farm" />
		<tag k="ssr:stedsnr" v="754540" />
	</node>
	<node lat="63.76702499928401" lon="11.500477779540624" id="-90611">
		<tag k="name" v="Solheim" />
		<tag k="place" v="isolated_dwelling" />
		<tag k="ssr:stedsnr" v="754544" />
	</node>
	<node lat="63.77690555603162" lon="11.520947220248335" id="-90612">
		<tag k="name" v="Vinnesmoen" />
		<tag k="place" v="quarter" />
		<tag k="ssr:stedsnr" v="754688" />
	</node>
	<node lat="63.792319184997126" lon="11.53393160184248" id="-90613">
		<tag k="fixme" v="consider place=hamlet" />
		<tag k="name" v="Bjartnes" />
		<tag k="place" v="farm" />
		<tag k="ssr:stedsnr" v="754690" />
	</node>
	<node lat="63.77459331700385" lon="11.717336468253018" id="-90617">
		<tag k="name" v="Slapgarden" />
		<tag k="place" v="hamlet" />
		<tag k="ssr:stedsnr" v="935566" />
	</node>
	<node lat="63.68286666796079" lon="12.261352788013149" id="-90622">
		<tag k="fixme" v="consider tourism=alpine_hut or tourism=chalet" />
		<tag k="name" v="Bellingstua" />
		<tag k="ssr:stedsnr" v="769895" />
		<tag k="tourism" v="wilderness_hut" />
	</node>
	<node lat="63.835133331243625" lon="12.266752787165107" id="-90624">
		<tag k="historic" v="shieling" />
		<tag k="name" v="Flyanseteren" />
		<tag k="place" v="isolated_dwelling" />
		<tag k="ssr:stedsnr" v="776429" />
	</node>
	<node lat="63.78992222113572" lon="11.671166671841556" id="-90642">
		<tag k="name" v="Grindberg" />
		<tag k="place" v="farm" />
		<tag k="ssr:stedsnr" v="802283" />
	</node>
	<node lat="63.74946388965752" lon="11.88153055342691" id="-90644">
		<tag k="historic" v="shieling" />
		<tag k="name" v="Skavhauggvollen" />
		<tag k="place" v="isolated_dwelling" />
		<tag k="ssr:stedsnr" v="802297" />
	</node>
	<node lat="63.65862222611313" lon="12.251711102628166" id="-90648">
		<tag k="historic" v="shieling" />
		<tag k="name" v="Øysterinnsvollen" />
		<tag k="place" v="isolated_dwelling" />
		<tag k="ssr:stedsnr" v="802164" />
	</node>
	<node lat="63.79974167062089" lon="11.517330564688601" id="-90649">
		<tag k="name" v="Svedjan" />
		<tag k="place" v="farm" />
		<tag k="ssr:stedsnr" v="802329" />
	</node>
	<node lat="63.665227448791" lon="12.005399274951838" id="-90651">
		<tag k="fixme" v="consider place=hamlet" />
		<tag k="name" v="Brenna" />
		<tag k="place" v="farm" />
		<tag k="ssr:stedsnr" v="802340" />
	</node>
	<node lat="63.66862872113349" lon="11.998570117039451" id="-90652">
		<tag k="fixme" v="consider place=hamlet" />
		<tag k="name" v="Litlmoen" />
		<tag k="place" v="farm" />
		<tag k="ssr:stedsnr" v="802342" />
	</node>
	<node lat="63.794222226252224" lon="11.682450000566194" id="-90653">
		<tag k="alt_name" v="Stinna;Nyby;Nybo" />
		<tag k="name" v="Stinne" />
		<tag k="place" v="farm" />
		<tag k="ssr:stedsnr" v="802344" />
	</node>
	<node lat="63.66382777592867" lon="12.031219444046855" id="-90655">
		<tag k="name" v="Skogset" />
		<tag k="place" v="farm" />
		<tag k="ssr:stedsnr" v="802351" />
	</node>
	<node lat="63.78707577850488" lon="11.645108954152047" id="-90656">
		<tag k="alt_name" v="Gjermstad, østre;Gjermstad" />
		<tag k="name" v="Østre Gjermstad" />
		<tag k="place" v="farm" />
		<tag k="ssr:stedsnr" v="802355" />
	</node>
	<node lat="63.877169666816556" lon="11.814530450275297" id="-90659">
		<tag k="fixme" v="multiple name tags, choose one and add the other to alt_name" />
		<tag k="historic" v="shieling" />
		<tag k="name" v="Skrovesvollen;Skrovoseteren" />
		<tag k="place" v="isolated_dwelling" />
		<tag k="ssr:stedsnr" v="802592" />
	</node>
	<node lat="63.73893332910748" lon="11.672316659374344" id="-90661">
		<tag k="alt_name" v="Kvellolia" />
		<tag k="name" v="Lia" />
		<tag k="place" v="farm" />
		<tag k="ssr:stedsnr" v="802701" />
	</node>
	<node lat="63.80615555725242" lon="11.57823611943607" id="-90667">
		<tag k="name" v="Haugli" />
		<tag k="place" v="farm" />
		<tag k="ssr:stedsnr" v="803193" />
	</node>
	<node lat="63.80775481212299" lon="11.489811952261935" id="-90668">
		<tag k="fixme" v="consider place=hamlet" />
		<tag k="name" v="Reitan" />
		<tag k="place" v="farm" />
		<tag k="ssr:stedsnr" v="803195" />
	</node>
	<node lat="63.81357499585535" lon="11.671116667849018" id="-90669">
		<tag k="name" v="Kjeldstad" />
		<tag k="place" v="farm" />
		<tag k="ssr:stedsnr" v="803201" />
	</node>
	<node lat="63.82696686367652" lon="11.444790586480861" id="-90670">
		<tag k="fixme" v="consider place=hamlet" />
		<tag k="name" v="Sem" />
		<tag k="place" v="farm" />
		<tag k="ssr:stedsnr" v="803230" />
	</node>
	<node lat="63.836657622895935" lon="11.47507508061574" id="-90671">
		<tag k="fixme" v="consider place=hamlet" />
		<tag k="name" v="Grøset" />
		<tag k="place" v="farm" />
		<tag k="ssr:stedsnr" v="803241" />
	</node>
	<node lat="63.84562500068186" lon="11.69621389796026" id="-90672">
		<tag k="alt_name" v="Vestre Marka" />
		<tag k="name" v="Marka" />
		<tag k="place" v="farm" />
		<tag k="ssr:stedsnr" v="803250" />
	</node>
	<node lat="63.77686388599903" lon="11.468319440654486" id="-90673">
		<tag k="name" v="Sandåker" />
		<tag k="place" v="farm" />
		<tag k="ssr:stedsnr" v="803284" />
	</node>
	<node lat="63.77786666592873" lon="11.507913881413877" id="-90674">
		<tag k="name" v="Myrbakken" />
		<tag k="place" v="farm" />
		<tag k="ssr:stedsnr" v="803288" />
	</node>
	<node lat="63.86439166331126" lon="11.779597231821256" id="-90675">
		<tag k="name" v="Hofstadseteren" />
		<tag k="place" v="isolated_dwelling" />
		<tag k="ssr:stedsnr" v="803518" />
	</node>
	<node lat="63.76111715483946" lon="11.598421140166778" id="-90677">
		<tag k="fixme" v="consider place=hamlet" />
		<tag k="name" v="Bjørka" />
		<tag k="place" v="farm" />
		<tag k="ssr:stedsnr" v="803357" />
	</node>
	<node lat="63.817663478587484" lon="11.881749364238356" id="-90678">
		<tag k="fixme" v="consider place=hamlet" />
		<tag k="name" v="Byna" />
		<tag k="place" v="farm" />
		<tag k="ssr:stedsnr" v="803589" />
	</node>
	<node lat="63.78122222512009" lon="11.750491664260139" id="-90682">
		<tag k="name" v="Nersveet" />
		<tag k="place" v="farm" />
		<tag k="ssr:stedsnr" v="803647" />
	</node>
	<node lat="63.84485277628724" lon="12.505338897577236" id="-90685">
		<tag k="name" v="Strådalseteren" />
		<tag k="place" v="isolated_dwelling" />
		<tag k="ssr:stedsnr" v="803738" />
	</node>
	<node lat="63.85122222425388" lon="12.301649999610865" id="-90686">
		<tag k="name" v="Tverråkroken" />
		<tag k="place" v="isolated_dwelling" />
		<tag k="ssr:stedsnr" v="803747" />
	</node>
	<node lat="63.774830555637116" lon="11.483338889614208" id="-90700">
		<tag k="name" v="Veimo" />
		<tag k="place" v="farm" />
		<tag k="ssr:stedsnr" v="814564" />
	</node>
	<node lat="63.77259166802758" lon="11.470141663925261" id="-90701">
		<tag k="alt_name" v="Graven" />
		<tag k="name" v="Grava" />
		<tag k="place" v="farm" />
		<tag k="ssr:stedsnr" v="814565" />
	</node>
	<node lat="63.82452777892714" lon="11.478972217276931" id="-90703">
		<tag k="alt_name" v="Haldås" />
		<tag k="name" v="Hallåsen" />
		<tag k="place" v="farm" />
		<tag k="ssr:stedsnr" v="814571" />
	</node>
	<node lat="63.82304444522211" lon="11.451455547149827" id="-90704">
		<tag k="alt_name" v="Fleskhus litle" />
		<tag k="name" v="Litle Fleskhus" />
		<tag k="place" v="farm" />
		<tag k="ssr:stedsnr" v="814573" />
	</node>
	<node lat="63.805422218587566" lon="11.581322214253772" id="-90706">
		<tag k="name" v="Hallemsaunet" />
		<tag k="place" v="farm" />
		<tag k="ssr:stedsnr" v="814697" />
	</node>
	<node lat="63.80488611451176" lon="11.847183337179613" id="-90707">
		<tag k="name" v="Øvre Holmlia" />
		<tag k="place" v="farm" />
		<tag k="ssr:stedsnr" v="814670" />
	</node>
	<node lat="63.78094166597889" lon="11.589375004764005" id="-90709">
		<tag k="name" v="Lyngsmoen" />
		<tag k="place" v="farm" />
		<tag k="ssr:stedsnr" v="814747" />
	</node>
	<node lat="63.76339722284999" lon="11.478913891113503" id="-90712">
		<tag k="name" v="Bakkenget" />
		<tag k="place" v="farm" />
		<tag k="ssr:stedsnr" v="815495" />
	</node>
	<node lat="63.78893611390197" lon="11.64602222446276" id="-90715">
		<tag k="name" v="Øver-Fåra" />
		<tag k="place" v="farm" />
		<tag k="ssr:stedsnr" v="815620" />
	</node>
	<node lat="63.80502777369381" lon="11.608711120886282" id="-90716">
		<tag k="name" v="Lyngåsen" />
		<tag k="place" v="locality" />
		<tag k="ssr:stedsnr" v="815685" />
	</node>
	<node lat="63.772899998370356" lon="11.665163894589888" id="-90721">
		<tag k="name" v="Østre Vola" />
		<tag k="place" v="farm" />
		<tag k="ssr:stedsnr" v="836523" />
	</node>
	<node lat="63.84365278014083" lon="11.650491663234586" id="-90736">
		<tag k="alt_name" v="Hofstad nedre" />
		<tag k="name" v="Nedre Hofstad" />
		<tag k="place" v="farm" />
		<tag k="ssr:stedsnr" v="838262" />
	</node>
	<node lat="63.85659166587056" lon="11.986908338090371" id="-90740">
		<tag k="name" v="Grenseteren" />
		<tag k="place" v="locality" />
		<tag k="ssr:stedsnr" v="838439" />
	</node>
	<node lat="63.78879722248545" lon="11.760633342327031" id="-90749">
		<tag k="name" v="Svedjan" />
		<tag k="place" v="farm" />
		<tag k="ssr:stedsnr" v="863673" />
	</node>
	<node lat="63.72952777505458" lon="11.757061101656237" id="-90753">
		<tag k="name" v="Setran" />
		<tag k="place" v="farm" />
		<tag k="ssr:stedsnr" v="863264" />
	</node>
	<node lat="63.83690278009991" lon="11.708741669842397" id="-90755">
		<tag k="alt_name" v="Setran" />
		<tag k="name" v="Sætran" />
		<tag k="place" v="farm" />
		<tag k="ssr:stedsnr" v="863229" />
	</node>
	<node lat="63.834069444189126" lon="11.670011109181496" id="-90756">
		<tag k="name" v="Høgvang" />
		<tag k="place" v="farm" />
		<tag k="ssr:stedsnr" v="863232" />
	</node>
	<node lat="63.79635641082095" lon="11.514848253419723" id="-90758">
		<tag k="fixme" v="consider place=hamlet" />
		<tag k="name" v="Haug" />
		<tag k="place" v="farm" />
		<tag k="ssr:stedsnr" v="863298" />
	</node>
	<node lat="63.79447386012425" lon="11.593935180609595" id="-90759">
		<tag k="fixme" v="consider place=hamlet" />
		<tag k="name" v="Augla" />
		<tag k="place" v="farm" />
		<tag k="ssr:stedsnr" v="863304" />
	</node>
	<node lat="63.794516670812556" lon="11.580380553582339" id="-90760">
		<tag k="name" v="Tune" />
		<tag k="place" v="farm" />
		<tag k="ssr:stedsnr" v="863306" />
	</node>
	<node lat="63.75637222212855" lon="11.688530546292887" id="-90763">
		<tag k="name" v="Grindgjardet" />
		<tag k="place" v="farm" />
		<tag k="ssr:stedsnr" v="863322" />
	</node>
	<node lat="63.80049057953344" lon="11.508475619661722" id="-90767">
		<tag k="alt_name" v="Gudmundshus" />
		<tag k="fixme" v="consider place=hamlet" />
		<tag k="name" v="Gudmundhus" />
		<tag k="place" v="farm" />
		<tag k="ssr:stedsnr" v="863282" />
	</node>
	<node lat="63.79951667121722" lon="11.602594441850478" id="-90769">
		<tag k="name" v="Åsly" />
		<tag k="place" v="farm" />
		<tag k="ssr:stedsnr" v="863289" />
	</node>
	<node lat="63.8947305546279" lon="12.183958337203162" id="-90772">
		<tag k="name" v="Gjermstadåskoia" />
		<tag k="place" v="isolated_dwelling" />
		<tag k="ssr:stedsnr" v="863469" />
	</node>
	<node lat="63.80685278066826" lon="11.836449998970595" id="-90777">
		<tag k="name" v="Plassen" />
		<tag k="place" v="farm" />
		<tag k="ssr:stedsnr" v="863634" />
	</node>
	<node lat="63.82358610858778" lon="11.64527221317738" id="-90783">
		<tag k="name" v="Bergan" />
		<tag k="place" v="farm" />
		<tag k="ssr:stedsnr" v="864230" />
	</node>
	<node lat="63.83066366587818" lon="11.513767738625484" id="-90785">
		<tag k="fixme" v="consider place=hamlet" />
		<tag k="name" v="Solberg" />
		<tag k="place" v="farm" />
		<tag k="ssr:stedsnr" v="864236" />
	</node>
	<node lat="63.87737398615289" lon="11.62085384581566" id="-90786">
		<tag k="fixme" v="consider place=hamlet" />
		<tag k="name" v="Tuset" />
		<tag k="place" v="farm" />
		<tag k="ssr:stedsnr" v="864172" />
	</node>
	<node lat="63.80925000280765" lon="11.585080557182396" id="-90787">
		<tag k="alt_name" v="Hallem, søre" />
		<tag k="name" v="Søre Hallem" />
		<tag k="place" v="farm" />
		<tag k="ssr:stedsnr" v="864182" />
	</node>
	<node lat="63.77075277496974" lon="11.46905832670686" id="-90788">
		<tag k="name" v="Berg" />
		<tag k="place" v="farm" />
		<tag k="ssr:stedsnr" v="864292" />
	</node>
	<node lat="63.812500004535245" lon="11.601169443612958" id="-90789">
		<tag k="name" v="Klinga" />
		<tag k="place" v="isolated_dwelling" />
		<tag k="ssr:stedsnr" v="864294" />
	</node>
	<node lat="63.806224998793944" lon="11.680477785391044" id="-90790">
		<tag k="name" v="Solås" />
		<tag k="place" v="farm" />
		<tag k="ssr:stedsnr" v="864298" />
	</node>
	<node lat="63.754679989881204" lon="11.490541302162736" id="-90792">
		<tag k="fixme" v="consider place=hamlet" />
		<tag k="name" v="Molberg" />
		<tag k="place" v="farm" />
		<tag k="ssr:stedsnr" v="864329" />
	</node>
	<node lat="63.76081860535285" lon="11.453352873863075" id="-90793">
		<tag k="alt_name" v="Rindsem nedre;Nedre Rindsem;Rindsem;Rinnsem" />
		<tag k="name" v="Nedre Rinnsem" />
		<tag k="place" v="farm" />
		<tag k="ssr:stedsnr" v="864333" />
	</node>
	<node lat="63.76747500113045" lon="11.553786115606556" id="-90795">
		<tag k="alt_name" v="Nes, midtre" />
		<tag k="name" v="Midtre Nes" />
		<tag k="place" v="farm" />
		<tag k="ssr:stedsnr" v="864390" />
	</node>
	<node lat="63.8152444485677" lon="11.946016664177291" id="-90798">
		<tag k="name" v="Modal" />
		<tag k="place" v="farm" />
		<tag k="ssr:stedsnr" v="864639" />
	</node>
	<node lat="63.7693611087927" lon="11.78726943986525" id="-90799">
		<tag k="fixme" v="multiple name tags, choose one and add the other to alt_name" />
		<tag k="name" v="Vestre Hjellen;Hjellen" />
		<tag k="place" v="farm" />
		<tag k="ssr:stedsnr" v="864680" />
	</node>
	<node lat="63.76455555132181" lon="11.767725006792473" id="-90801">
		<tag k="name" v="Sagmoen" />
		<tag k="place" v="farm" />
		<tag k="ssr:stedsnr" v="864719" />
	</node>
	<node lat="63.782131066430395" lon="12.378596428543613" id="-90808">
		<tag k="alt_name" v="Væren;Sør-Vera" />
		<tag k="fixme" v="consider place=hamlet" />
		<tag k="name" v="Vera" />
		<tag k="place" v="farm" />
		<tag k="ssr:stedsnr" v="864800" />
	</node>
	<node lat="63.698622218502365" lon="12.276802779980423" id="-90811">
		<tag k="historic" v="shieling" />
		<tag k="name" v="Strokkvollen" />
		<tag k="place" v="isolated_dwelling" />
		<tag k="ssr:stedsnr" v="870322" />
	</node>
	<node lat="63.78209166366248" lon="11.769280559400881" id="-90817">
		<tag k="name" v="Grunnenget" />
		<tag k="place" v="quarter" />
		<tag k="ssr:stedsnr" v="874671" />
	</node>
	<node lat="63.80954166687334" lon="11.478924994967382" id="-90823">
		<tag k="name" v="Melenget" />
		<tag k="place" v="farm" />
		<tag k="ssr:stedsnr" v="875507" />
	</node>
	<node lat="63.81034166827955" lon="11.553730554677335" id="-90825">
		<tag k="name" v="Forbregd/Lein" />
		<tag k="place" v="quarter" />
		<tag k="ssr:stedsnr" v="875688" />
	</node>
	<node lat="63.764765104397576" lon="11.570751309293746" id="-90826">
		<tag k="fixme" v="consider place=hamlet" />
		<tag k="name" v="Leirfallaunet" />
		<tag k="old_name" v="Leirfaldaunet" />
		<tag k="place" v="farm" />
		<tag k="ssr:stedsnr" v="875691" />
	</node>
	<node lat="63.79039166718245" lon="11.807258329504513" id="-90842">
		<tag k="name" v="Fossenget" />
		<tag k="place" v="quarter" />
		<tag k="ssr:stedsnr" v="935676" />
	</node>
	<node lat="63.76949999955307" lon="11.472774995858618" id="-90844">
		<tag k="alt_name" v="Løkken" />
		<tag k="name" v="Løkka" />
		<tag k="place" v="farm" />
		<tag k="ssr:stedsnr" v="936520" />
	</node>
	<node lat="63.76978888915233" lon="11.5195277840053" id="-90845">
		<tag k="name" v="Viaker" />
		<tag k="place" v="quarter" />
		<tag k="ssr:stedsnr" v="936529" />
	</node>
	<node lat="63.78919999862182" lon="11.672988885049628" id="-90846">
		<tag k="name" v="Vådal" />
		<tag k="place" v="farm" />
		<tag k="ssr:stedsnr" v="936639" />
	</node>
	<node lat="63.76692500372038" lon="11.526805551647357" id="-90851">
		<tag k="name" v="Slåttsveet" />
		<tag k="place" v="farm" />
		<tag k="ssr:stedsnr" v="936546" />
	</node>
	<node lat="63.76109722528322" lon="11.609869436621205" id="-90861">
		<tag k="amenity" v="school" />
		<tag k="name" v="Ness oppvekstsenter" />
		<tag k="ssr:stedsnr" v="952188" />
	</node>
	<node lat="63.82267221918572" lon="11.650272220928654" id="-90865">
		<tag k="fixme" v="consider place=hamlet" />
		<tag k="name" v="Musum" />
		<tag k="place" v="village" />
		<tag k="ssr:stedsnr" v="958929" />
	</node>
	<node lat="63.82129722666906" lon="11.650966670022717" id="-90866">
		<tag k="alt_name" v="Nygjardet" />
		<tag k="name" v="Nygård" />
		<tag k="place" v="farm" />
		<tag k="ssr:stedsnr" v="958930" />
	</node>
	<node lat="63.81666944836636" lon="11.416427784261655" id="-90881">
		<tag k="name" v="Bolling" />
		<tag k="place" v="farm" />
		<tag k="ssr:stedsnr" v="959756" />
	</node>
	<node lat="63.83680277838917" lon="11.450633327502807" id="-90883">
		<tag k="name" v="Kvernmoen" />
		<tag k="place" v="farm" />
		<tag k="ssr:stedsnr" v="959764" />
	</node>
	<node lat="63.776113886820696" lon="11.737600003936413" id="-90884">
		<tag k="amenity" v="school" />
		<tag k="name" v="Vuku oppvekstsenter" />
		<tag k="ssr:stedsnr" v="965182" />
	</node>
	<node lat="63.78180833312289" lon="11.54986943551078" id="-90885">
		<tag k="name" v="Nordre Rossvoll" />
		<tag k="place" v="farm" />
		<tag k="ssr:stedsnr" v="965973" />
	</node>
	<node lat="63.793093556348786" lon="11.67024077458881" id="-90889">
		<tag k="fixme" v="consider place=hamlet" />
		<tag k="name" v="Skrovemælen" />
		<tag k="place" v="farm" />
		<tag k="ssr:stedsnr" v="977329" />
	</node>
	<node lat="63.789446636888606" lon="11.667015198771885" id="-90890">
		<tag k="fixme" v="consider place=hamlet" />
		<tag k="name" v="Bjørkenget" />
		<tag k="place" v="farm" />
		<tag k="ssr:stedsnr" v="977330" />
	</node>
	<node lat="63.78624516284603" lon="11.652094799040785" id="-90891">
		<tag k="name" v="Fåra" />
		<tag k="place" v="hamlet" />
		<tag k="ssr:stedsnr" v="977331" />
	</node>
	<node lat="63.783525804048544" lon="11.663069649725655" id="-90892">
		<tag k="fixme" v="consider place=hamlet" />
		<tag k="name" v="Brannhaugen" />
		<tag k="place" v="farm" />
		<tag k="ssr:stedsnr" v="977332" />
	</node>
	<node lat="63.777428973746154" lon="11.629487133308169" id="-90893">
		<tag k="name" v="Eklo" />
		<tag k="place" v="hamlet" />
		<tag k="ssr:stedsnr" v="977333" />
	</node>
	<node lat="63.784332130705884" lon="11.645895219676444" id="-90894">
		<tag k="name" v="Trøgstad" />
		<tag k="place" v="locality" />
		<tag k="ssr:stedsnr" v="977335" />
	</node>
	<node lat="63.794217488691196" lon="11.631570556477158" id="-90895">
		<tag k="name" v="Gjermstad" />
		<tag k="place" v="hamlet" />
		<tag k="ssr:stedsnr" v="977341" />
	</node>
	<node lat="63.759390914681305" lon="11.58321480000886" id="-90896">
		<tag k="fixme" v="consider place=hamlet" />
		<tag k="name" v="Skjørdalen" />
		<tag k="place" v="farm" />
		<tag k="ssr:stedsnr" v="977367" />
	</node>
	<node lat="63.764855045677244" lon="11.606972687530714" id="-90897">
		<tag k="name" v="Lunden" />
		<tag k="place" v="locality" />
		<tag k="ssr:stedsnr" v="977368" />
	</node>
	<node lat="63.79651931180559" lon="11.815801881981976" id="-90898">
		<tag k="fixme" v="consider place=hamlet" />
		<tag k="name" v="Ulvilla" />
		<tag k="place" v="farm" />
		<tag k="ssr:stedsnr" v="977371" />
	</node>
	<node lat="63.80888059137404" lon="11.801902320279092" id="-90899">
		<tag k="name" v="Kluken" />
		<tag k="place" v="hamlet" />
		<tag k="ssr:stedsnr" v="977373" />
	</node>
	<node lat="63.81477340168531" lon="11.939113301906298" id="-90901">
		<tag k="fixme" v="consider place=hamlet" />
		<tag k="name" v="Elnes" />
		<tag k="place" v="farm" />
		<tag k="ssr:stedsnr" v="977380" />
	</node>
	<node lat="63.68629564642744" lon="11.950001866545126" id="-90902">
		<tag k="fixme" v="consider place=hamlet" />
		<tag k="name" v="Stormoen" />
		<tag k="place" v="farm" />
		<tag k="ssr:stedsnr" v="977384" />
	</node>
	<node lat="63.81010086022441" lon="11.459701060805946" id="-90903">
		<tag k="name" v="Nordberg" />
		<tag k="place" v="hamlet" />
		<tag k="ssr:stedsnr" v="977311" />
	</node>
	<node lat="63.81347293101837" lon="11.472552601590055" id="-90904">
		<tag k="name" v="Ysse" />
		<tag k="place" v="hamlet" />
		<tag k="ssr:stedsnr" v="977312" />
	</node>
	<node lat="63.81780911412267" lon="11.481176069395" id="-90905">
		<tag k="fixme" v="consider place=hamlet" />
		<tag k="name" v="Ysseaunet" />
		<tag k="place" v="farm" />
		<tag k="ssr:stedsnr" v="977315" />
	</node>
	<node lat="63.79832706359504" lon="11.50606651358356" id="-90906">
		<tag k="fixme" v="consider place=hamlet" />
		<tag k="name" v="Østvoll" />
		<tag k="place" v="farm" />
		<tag k="ssr:stedsnr" v="977318" />
	</node>
	<node lat="63.79492083542159" lon="11.553410802689699" id="-90907">
		<tag k="name" v="Stiklestad" />
		<tag k="place" v="hamlet" />
		<tag k="ssr:stedsnr" v="977319" />
	</node>
	<node lat="63.808803082012396" lon="11.581704199220201" id="-90908">
		<tag k="name" v="Hallem" />
		<tag k="place" v="hamlet" />
		<tag k="ssr:stedsnr" v="977320" />
	</node>
	<node lat="63.770053366054675" lon="11.6960799029998" id="-91305">
		<tag k="fixme" v="multiple name tags, choose one and add the other to alt_name" />
		<tag k="name" v="Vestre Kvellstad;Kvellstad" />
		<tag k="place" v="farm" />
		<tag k="ssr:stedsnr" v="1075855" />
	</node>
	<node lat="63.7921794952493" lon="11.594637124457696" id="-91306">
		<tag k="loc_name" v="Augla" />
		<tag k="name" v="Prestgården" />
		<tag k="place" v="farm" />
		<tag k="ssr:stedsnr" v="1075843" />
	</node>
	<node lat="63.82635748335286" lon="11.468340768604667" id="-91307">
		<tag k="name" v="Nordre Skjerset" />
		<tag k="place" v="farm" />
		<tag k="ssr:stedsnr" v="1075844" />
	</node>
	<node lat="63.82522599019667" lon="11.469697663320158" id="-91308">
		<tag k="name" v="Søre Skjerset" />
		<tag k="place" v="farm" />
		<tag k="ssr:stedsnr" v="1075845" />
	</node>
	<node lat="63.78423402595945" lon="11.700486243163999" id="-91309">
		<tag k="name" v="Helset" />
		<tag k="place" v="farm" />
		<tag k="ssr:stedsnr" v="1075847" />
	</node>
	<node lat="63.67331504675921" lon="12.014625646104973" id="-91310">
		<tag k="name" v="Vestgarden" />
		<tag k="place" v="farm" />
		<tag k="ssr:stedsnr" v="1075849" />
	</node>
	<node lat="63.688807029387355" lon="11.993391861888108" id="-91311">
		<tag k="name" v="Vestgarden skog" />
		<tag k="place" v="locality" />
		<tag k="ssr:stedsnr" v="1075850" />
	</node>
	<node lat="63.671326979187775" lon="12.022141601803458" id="-91312">
		<tag k="name" v="Austgarden" />
		<tag k="place" v="farm" />
		<tag k="ssr:stedsnr" v="1075851" />
	</node>
	<node lat="63.680087222096134" lon="12.053651847713157" id="-91313">
		<tag k="name" v="Østgård  skog" />
		<tag k="place" v="locality" />
		<tag k="ssr:stedsnr" v="1075854" />
	</node>
	<node lat="63.769928523439" lon="11.697498447032485" id="-91314">
		<tag k="fixme" v="multiple name tags, choose one and add the other to alt_name" />
		<tag k="name" v="Austre Kvellstad;Kvellstad" />
		<tag k="place" v="farm" />
		<tag k="ssr:stedsnr" v="1075856" />
	</node>
	<node lat="63.784516796648504" lon="11.68438621853723" id="-91315">
		<tag k="name" v="Kvellstadenget" />
		<tag k="place" v="locality" />
		<tag k="ssr:stedsnr" v="1076203" />
	</node>
	<node lat="63.769079120226024" lon="11.524646692446067" id="-91316">
		<tag k="name" v="Austre Vallstad" />
		<tag k="place" v="farm" />
		<tag k="ssr:stedsnr" v="1076207" />
	</node>
	<node lat="63.78430517258802" lon="11.683756928585506" id="-91317">
		<tag k="name" v="Kvellstadenget" />
		<tag k="place" v="locality" />
		<tag k="ssr:stedsnr" v="1076209" />
	</node>
	<node lat="63.68022691533025" lon="12.052789733582632" id="-91318">
		<tag k="loc_name" v="Austgarden skog" />
		<tag k="name" v="Østgård skog" />
		<tag k="place" v="locality" />
		<tag k="ssr:stedsnr" v="1076210" />
	</node>
	<node lat="63.74415043227387" lon="11.705811340801892" id="-91319">
		<tag k="name" v="Austre Levringan skog" />
		<tag k="place" v="locality" />
		<tag k="ssr:stedsnr" v="1076211" />
	</node>
	<node lat="63.74616356360089" lon="11.681640685398431" id="-91320">
		<tag k="name" v="Vestre Levringan skog" />
		<tag k="place" v="locality" />
		<tag k="ssr:stedsnr" v="1076212" />
	</node>
	<node lat="63.76431495894953" lon="11.498342235988025" id="-91321">
		<tag k="name" v="Søraker" />
		<tag k="place" v="farm" />
		<tag k="ssr:stedsnr" v="1076215" />
	</node>
	<node lat="63.76772130898091" lon="11.502511828237202" id="-91322">
		<tag k="name" v="Flotten" />
		<tag k="place" v="farm" />
		<tag k="ssr:stedsnr" v="1076216" />
	</node>
	<node lat="63.67285714361621" lon="12.023110995022641" id="-91323">
		<tag k="name" v="Karlgarden" />
		<tag k="place" v="farm" />
		<tag k="ssr:stedsnr" v="1076217" />
	</node>
	<node lat="63.729223316261" lon="11.783824279603563" id="-91325">
		<tag k="name" v="Vestre Inndalen" />
		<tag k="place" v="farm" />
		<tag k="ssr:stedsnr" v="1078174" />
	</node>
	<node lat="63.72875473156529" lon="11.791231097596775" id="-91326">
		<tag k="name" v="Østre Inndalen" />
		<tag k="place" v="farm" />
		<tag k="ssr:stedsnr" v="1078175" />
	</node>
	<node lat="63.79944617030931" lon="11.482592270324279" id="-91335">
		<tag k="amenity" v="school" />
		<tag k="name" v="Verdalsøra barne- og ungdomsskole " />
		<tag k="old_name" v="Verdalsøra barneskole;Verdalsøra ungdomsskole" />
		<tag k="ssr:stedsnr" v="1078978" />
	</node>
	<node lat="63.79558387460768" lon="11.496037246469577" id="-91338">
		<tag k="amenity" v="nursing_home" />
		<tag k="name" v="Verdal bo- og helsetun" />
		<tag k="ssr:stedsnr" v="1078984" />
	</node>
	<node lat="63.790063038965684" lon="11.469125486208457" id="-91339">
		<tag k="amenity" v="nursing_home" />
		<tag k="name" v="Ørmelen bo- og helsetun" />
		<tag k="ssr:stedsnr" v="1078986" />
	</node>
	<node lat="63.723933010617365" lon="12.053082653525381" id="-91343">
		<tag k="fixme" v="consider tourism=alpine_hut or tourism=chalet" />
		<tag k="name" v="Kvernfosshytta" />
		<tag k="ssr:stedsnr" v="1079985" />
		<tag k="tourism" v="wilderness_hut" />
	</node>
	<node lat="63.798805997453556" lon="11.509703344611449" id="-91344">
		<tag k="name" v="Gibbtun" />
		<tag k="place" v="farm" />
		<tag k="ssr:stedsnr" v="1081064" />
	</node>
</osm>
