<?xml version="1.0" encoding="UTF-8"?>
<osm generator="osmapis" version="0.6">
	<node changeset="58868279" id="25038877" lat="58.0826837" lon="7.3043807" timestamp="2018-05-11T06:10:29Z" uid="3842253" user="NKA_import" version="6">
		<tag k="is_in:municipality" v="Lindesnes kommune" />
		<tag k="name" v="Vigeland" />
		<tag k="name:ru" v="Вигеланд" />
		<tag k="place" v="village" />
		<tag k="population" v="1374" />
		<tag k="ssr:stedsnr" v="425591" />
		<tag k="ssr:type" v="tettsted" />
	</node>
	<node changeset="58868279" id="5174338918" lat="58.2190556" lon="7.41205" timestamp="2018-05-11T06:10:33Z" uid="3842253" user="NKA_import" version="2">
		<tag k="name" v="Røyseland" />
		<tag k="place" v="farm" />
		<tag k="ssr:stedsnr" v="203217" />
		<tag k="ssr:type" v="gard" />
	</node>
	<node changeset="58868279" id="5610773864" lat="58.2393667" lon="7.3008472" timestamp="2018-05-11T06:10:10Z" uid="3842253" user="NKA_import" version="1">
		<tag k="alt_name" v="Færås" />
		<tag k="name" v="Feråsen" />
		<tag k="place" v="farm" />
		<tag k="ssr:stedsnr" v="442" />
		<tag k="ssr:type" v="gard" />
	</node>
	<node changeset="58868279" id="5610773865" lat="58.0563417" lon="7.3278333" timestamp="2018-05-11T06:10:10Z" uid="3842253" user="NKA_import" version="1">
		<tag k="alt_name" v="Støle ytre;Støle" />
		<tag k="historic" v="shieling" />
		<tag k="name" v="Ytre Støle" />
		<tag k="place" v="farm" />
		<tag k="ssr:stedsnr" v="573" />
		<tag k="ssr:type" v="gard" />
	</node>
	<node changeset="58868279" id="5610773888" lat="58.0688556" lon="7.2949639" timestamp="2018-05-11T06:10:12Z" uid="3842253" user="NKA_import" version="1">
		<tag k="name" v="Hellekjær" />
		<tag k="place" v="farm" />
		<tag k="ssr:stedsnr" v="689765" />
		<tag k="ssr:type" v="bruk" />
	</node>
	<node changeset="58868279" id="5610774230" lat="58.1385806" lon="7.4583194" timestamp="2018-05-11T06:10:17Z" uid="3842253" user="NKA_import" version="1">
		<tag k="historic" v="shieling" />
		<tag k="name" v="Kårstøl" />
		<tag k="place" v="farm" />
		<tag k="ssr:stedsnr" v="932443" />
		<tag k="ssr:type" v="gard" />
	</node>
	<node changeset="58868279" id="5610774232" lat="58.2299944" lon="7.2997722" timestamp="2018-05-11T06:10:17Z" uid="3842253" user="NKA_import" version="1">
		<tag k="name" v="Brådland" />
		<tag k="place" v="hamlet" />
		<tag k="ssr:stedsnr" v="61415" />
		<tag k="ssr:type" v="gard" />
	</node>
	<node changeset="1953220" id="448888538" lat="58.0616106" lon="7.3732101" timestamp="2009-07-27T09:51:17Z" uid="1694" user="M E Menk" version="1" />
	<node changeset="1953220" id="448888540" lat="58.0612696" lon="7.3752512" timestamp="2009-07-27T09:51:17Z" uid="1694" user="M E Menk" version="1" />
	<node changeset="1953220" id="448888542" lat="58.0599624" lon="7.3749289" timestamp="2009-07-27T09:51:17Z" uid="1694" user="M E Menk" version="1" />
	<node changeset="58868279" id="5610774240" lat="58.1866018" lon="7.3972282" timestamp="2018-05-11T06:10:18Z" uid="3842253" user="NKA_import" version="1">
		<tag k="name" v="Håland" />
		<tag k="place" v="farm" />
		<tag k="ssr:stedsnr" v="61681" />
		<tag k="ssr:type" v="gard" />
	</node>
	<node changeset="1953220" id="448888546" lat="58.0588826" lon="7.376433" timestamp="2009-07-27T09:51:17Z" uid="1694" user="M E Menk" version="1" />
	<node changeset="58868279" id="5610774244" lat="58.1338056" lon="7.4262889" timestamp="2018-05-11T06:10:18Z" uid="3842253" user="NKA_import" version="1">
		<tag k="name" v="Bogstadlia" />
		<tag k="place" v="farm" />
		<tag k="ssr:stedsnr" v="61752" />
		<tag k="ssr:type" v="gard" />
	</node>
	<node changeset="58868279" id="5610774245" lat="58.1532806" lon="7.4109" timestamp="2018-05-11T06:10:18Z" uid="3842253" user="NKA_import" version="1">
		<tag k="alt_name" v="Eivenstad" />
		<tag k="name" v="Evenstad" />
		<tag k="place" v="farm" />
		<tag k="ssr:stedsnr" v="61772" />
		<tag k="ssr:type" v="gard" />
	</node>
	<node changeset="58868279" id="420112737" lat="58.0485061" lon="7.2010062" timestamp="2018-05-11T06:10:30Z" uid="3842253" user="NKA_import" version="5">
		<tag k="alt_name" v="Svenevig" />
		<tag k="name" v="Svennevik" />
		<tag k="place" v="village" />
		<tag k="population" v="235" />
		<tag k="ssr:stedsnr" v="546543" />
		<tag k="ssr:type" v="tettbebyggelse" />
	</node>
	<node changeset="58868279" id="5610774246" lat="58.1533139" lon="7.466675" timestamp="2018-05-11T06:10:18Z" uid="3842253" user="NKA_import" version="1">
		<tag k="name" v="Håland" />
		<tag k="place" v="farm" />
		<tag k="ssr:stedsnr" v="61784" />
		<tag k="ssr:type" v="gard" />
	</node>
	<node changeset="58868279" id="5610774247" lat="58.0563167" lon="7.2896278" timestamp="2018-05-11T06:10:19Z" uid="3842253" user="NKA_import" version="1">
		<tag k="alt_name" v="Løkka" />
		<tag k="name" v="Løkke" />
		<tag k="place" v="farm" />
		<tag k="ssr:stedsnr" v="567782" />
		<tag k="ssr:type" v="gard" />
	</node>
	<node changeset="1953220" id="448888552" lat="58.0603602" lon="7.3818044" timestamp="2009-07-27T09:51:17Z" uid="1694" user="M E Menk" version="1" />
	<node changeset="1953220" id="448888553" lat="58.0618947" lon="7.3828787" timestamp="2009-07-27T09:51:17Z" uid="1694" user="M E Menk" version="1" />
	<node changeset="58868279" id="1996384636" lat="58.0177921" lon="7.1066893" timestamp="2018-05-11T06:10:32Z" uid="3842253" user="NKA_import" version="2">
		<tag k="name" v="Høyland" />
		<tag k="place" v="neighbourhood" />
		<tag k="ssr:stedsnr" v="685" />
		<tag k="ssr:type" v="gard" />
	</node>
	<node changeset="1953220" id="448888555" lat="58.0608717" lon="7.3844902" timestamp="2009-07-27T09:51:17Z" uid="1694" user="M E Menk" version="1" />
	<node changeset="1953220" id="448888557" lat="58.0604739" lon="7.386209" timestamp="2009-07-27T09:51:17Z" uid="1694" user="M E Menk" version="1" />
	<node changeset="1953220" id="448888559" lat="58.0614969" lon="7.3869611" timestamp="2009-07-27T09:51:17Z" uid="1694" user="M E Menk" version="1" />
	<node changeset="58868279" id="5610774278" lat="58.0824073" lon="7.2113346" timestamp="2018-05-11T06:10:21Z" uid="3842253" user="NKA_import" version="1">
		<tag k="name" v="Vettesdalshei" />
		<tag k="place" v="farm" />
		<tag k="ssr:stedsnr" v="979268" />
		<tag k="ssr:type" v="gard" />
	</node>
	<node changeset="67601953" id="5597186531" lat="58.0565123" lon="7.3637179" timestamp="2019-02-27T01:28:29Z" uid="103253" user="gormur" version="2" />
	<node changeset="58868279" id="5610772980" lat="58.1297944" lon="7.3551889" timestamp="2018-05-11T06:10:02Z" uid="3842253" user="NKA_import" version="1">
		<tag k="name" v="Haga" />
		<tag k="place" v="farm" />
		<tag k="ssr:stedsnr" v="121739" />
		<tag k="ssr:type" v="gard" />
	</node>
	<node changeset="58868279" id="5610772981" lat="58.13595" lon="7.3302" timestamp="2018-05-11T06:10:02Z" uid="3842253" user="NKA_import" version="1">
		<tag k="name" v="Ytre Ødegård" />
		<tag k="place" v="isolated_dwelling" />
		<tag k="ssr:stedsnr" v="303867" />
		<tag k="ssr:type" v="eneboligMindreBoligbygg" />
	</node>
	<node changeset="58868279" id="5610772982" lat="58.1448306" lon="7.349725" timestamp="2018-05-11T06:10:02Z" uid="3842253" user="NKA_import" version="1">
		<tag k="historic" v="shieling" />
		<tag k="name" v="Hageskog" />
		<tag k="place" v="locality" />
		<tag k="ssr:stedsnr" v="121767" />
		<tag k="ssr:type" v="seterStøl" />
	</node>
	<node changeset="58868279" id="5610772983" lat="58.062125" lon="7.3674389" timestamp="2018-05-11T06:10:02Z" uid="3842253" user="NKA_import" version="1">
		<tag k="alt_name" v="Ramsdal" />
		<tag k="name" v="Ramsdalen" />
		<tag k="place" v="farm" />
		<tag k="ssr:stedsnr" v="303913" />
		<tag k="ssr:type" v="gard" />
	</node>
	<node changeset="58868279" id="5610772984" lat="58.0515389" lon="7.2002528" timestamp="2018-05-11T06:10:02Z" uid="3842253" user="NKA_import" version="1">
		<tag k="name" v="Remekollen" />
		<tag k="place" v="neighbourhood" />
		<tag k="ssr:stedsnr" v="360909" />
		<tag k="ssr:type" v="boligfelt" />
	</node>
	<node changeset="58868279" id="5610772985" lat="58.0311528" lon="7.0748139" timestamp="2018-05-11T06:10:02Z" uid="3842253" user="NKA_import" version="1">
		<tag k="name" v="Hauan" />
		<tag k="place" v="farm" />
		<tag k="ssr:stedsnr" v="810199" />
		<tag k="ssr:type" v="bruk" />
	</node>
	<node changeset="58868279" id="5610772986" lat="58.0872556" lon="7.3784889" timestamp="2018-05-11T06:10:02Z" uid="3842253" user="NKA_import" version="1">
		<tag k="name" v="Blørstad" />
		<tag k="place" v="farm" />
		<tag k="ssr:stedsnr" v="364845" />
		<tag k="ssr:type" v="gard" />
	</node>
	<node changeset="58868279" id="5610772987" lat="58.0945639" lon="7.3956333" timestamp="2018-05-11T06:10:03Z" uid="3842253" user="NKA_import" version="1">
		<tag k="historic" v="shieling" />
		<tag k="name" v="Midtstøle" />
		<tag k="place" v="farm" />
		<tag k="ssr:stedsnr" v="364859" />
		<tag k="ssr:type" v="gard" />
	</node>
	<node changeset="58868279" id="5610772988" lat="58.2141556" lon="7.2659306" timestamp="2018-05-11T06:10:03Z" uid="3842253" user="NKA_import" version="1">
		<tag k="alt_name" v="Støle østre;Støle" />
		<tag k="historic" v="shieling" />
		<tag k="name" v="Østre Støle" />
		<tag k="place" v="farm" />
		<tag k="ssr:stedsnr" v="364426" />
		<tag k="ssr:type" v="bruk" />
	</node>
	<node changeset="71744593" id="5610772989" lat="58.0494889" lon="7.1302861" timestamp="2019-06-29T21:52:04Z" uid="8796119" user="chrisklung" version="2">
		<tag k="alt_name" v="Præsthus" />
		<tag k="name" v="Presthus" />
		<tag k="place" v="neighbourhood" />
		<tag k="ssr:stedsnr" v="304604" />
		<tag k="ssr:type" v="gard" />
	</node>
	<node changeset="58868279" id="5610772990" lat="58.1152861" lon="7.3421056" timestamp="2018-05-11T06:10:03Z" uid="3842253" user="NKA_import" version="1">
		<tag k="alt_name" v="Monen" />
		<tag k="name" v="Moen" />
		<tag k="place" v="farm" />
		<tag k="ssr:stedsnr" v="364515" />
		<tag k="ssr:type" v="gard" />
	</node>
	<node changeset="58868279" id="5610772991" lat="58.1070639" lon="7.3195278" timestamp="2018-05-11T06:10:03Z" uid="3842253" user="NKA_import" version="1">
		<tag k="alt_name" v="Hogstøl;Hovstøl" />
		<tag k="historic" v="shieling" />
		<tag k="name" v="Hovsdøl" />
		<tag k="place" v="farm" />
		<tag k="ssr:stedsnr" v="364519" />
		<tag k="ssr:type" v="gard" />
	</node>
	<node changeset="58868279" id="5610772992" lat="58.1843417" lon="7.3979222" timestamp="2018-05-11T06:10:03Z" uid="3842253" user="NKA_import" version="1">
		<tag k="name" v="Bustøbakken" />
		<tag k="place" v="farm" />
		<tag k="ssr:stedsnr" v="142221" />
		<tag k="ssr:type" v="bruk" />
	</node>
	<node changeset="58868279" id="5610772993" lat="58.1257722" lon="7.3363444" timestamp="2018-05-11T06:10:03Z" uid="3842253" user="NKA_import" version="1">
		<tag k="alt_name" v="Foss, øvre" />
		<tag k="loc_name" v="Foss" />
		<tag k="name" v="Øvre Foss" />
		<tag k="place" v="farm" />
		<tag k="ssr:stedsnr" v="364573" />
		<tag k="ssr:type" v="bruk" />
	</node>
	<node changeset="58868279" id="5610772994" lat="58.0291194" lon="7.0772861" timestamp="2018-05-11T06:10:03Z" uid="3842253" user="NKA_import" version="1">
		<tag k="name" v="Lunden" />
		<tag k="place" v="farm" />
		<tag k="ssr:stedsnr" v="628161" />
		<tag k="ssr:type" v="bruk" />
	</node>
	<node changeset="58868279" id="5610772995" lat="58.0550006" lon="7.2248351" timestamp="2018-05-11T06:10:03Z" uid="3842253" user="NKA_import" version="1">
		<tag k="alt_name" v="Opshus store" />
		<tag k="name" v="Opshus" />
		<tag k="place" v="farm" />
		<tag k="ssr:stedsnr" v="364601" />
		<tag k="ssr:type" v="gard" />
	</node>
	<node changeset="58868279" id="5610772996" lat="58.0815583" lon="7.1708833" timestamp="2018-05-11T06:10:03Z" uid="3842253" user="NKA_import" version="1">
		<tag k="name" v="Lindland" />
		<tag k="place" v="farm" />
		<tag k="ssr:stedsnr" v="364621" />
		<tag k="ssr:type" v="gard" />
	</node>
	<node changeset="58868279" id="5610772997" lat="58.006575" lon="7.1065555" timestamp="2018-05-11T06:10:03Z" uid="3842253" user="NKA_import" version="1">
		<tag k="name" v="Gauksum" />
		<tag k="place" v="farm" />
		<tag k="ssr:stedsnr" v="364651" />
		<tag k="ssr:type" v="gard" />
	</node>
	<node changeset="58868279" id="5610772998" lat="58.1653139" lon="7.32625" timestamp="2018-05-11T06:10:04Z" uid="3842253" user="NKA_import" version="1">
		<tag k="name" v="Hestehei" />
		<tag k="place" v="farm" />
		<tag k="ssr:stedsnr" v="447462" />
		<tag k="ssr:type" v="gard" />
	</node>
	<node changeset="58868279" id="5610772999" lat="58.214675" lon="7.3921389" timestamp="2018-05-11T06:10:04Z" uid="3842253" user="NKA_import" version="1">
		<tag k="alt_name" v="Hægeland;Østre Hægeland" />
		<tag k="name" v="Hægland" />
		<tag k="place" v="farm" />
		<tag k="ssr:stedsnr" v="364743" />
		<tag k="ssr:type" v="gard" />
	</node>
	<node changeset="58868279" id="5610773000" lat="58.0770333" lon="7.4142" timestamp="2018-05-11T06:10:04Z" uid="3842253" user="NKA_import" version="1">
		<tag k="name" v="Romedalsli" />
		<tag k="place" v="locality" />
		<tag k="ssr:stedsnr" v="385156" />
		<tag k="ssr:type" v="gammelBosettingsplass" />
	</node>
	<node changeset="58868279" id="2564426249" lat="58.1530186" lon="7.2604196" timestamp="2018-05-11T06:10:33Z" uid="3842253" user="NKA_import" version="2">
		<tag k="name" v="Gåseland" />
		<tag k="place" v="farm" />
		<tag k="ssr:stedsnr" v="478" />
		<tag k="ssr:type" v="gard" />
	</node>
	<node changeset="58868279" id="5610773002" lat="58.1059639" lon="7.3447556" timestamp="2018-05-11T06:10:04Z" uid="3842253" user="NKA_import" version="1">
		<tag k="name" v="Skofteland øvre" />
		<tag k="place" v="farm" />
		<tag k="ssr:stedsnr" v="143444" />
		<tag k="ssr:type" v="gard" />
	</node>
	<node changeset="58868279" id="5610773003" lat="58.1880389" lon="7.2976667" timestamp="2018-05-11T06:10:04Z" uid="3842253" user="NKA_import" version="1">
		<tag k="name" v="Brådan" />
		<tag k="place" v="farm" />
		<tag k="ssr:stedsnr" v="628415" />
		<tag k="ssr:type" v="bruk" />
	</node>
	<node changeset="58868279" id="5610773004" lat="58.1917694" lon="7.3470778" timestamp="2018-05-11T06:10:04Z" uid="3842253" user="NKA_import" version="1">
		<tag k="name" v="Bjørkeneset" />
		<tag k="place" v="farm" />
		<tag k="ssr:stedsnr" v="385299" />
		<tag k="ssr:type" v="bruk" />
	</node>
	<node changeset="58868279" id="5610773005" lat="58.1420528" lon="7.3310278" timestamp="2018-05-11T06:10:04Z" uid="3842253" user="NKA_import" version="1">
		<tag k="name" v="Ødegård" />
		<tag k="place" v="farm" />
		<tag k="ssr:stedsnr" v="143561" />
		<tag k="ssr:type" v="bruk" />
	</node>
	<node changeset="58868279" id="5610773006" lat="58.1813778" lon="7.2920833" timestamp="2018-05-11T06:10:04Z" uid="3842253" user="NKA_import" version="1">
		<tag k="name" v="Fladen" />
		<tag k="place" v="isolated_dwelling" />
		<tag k="ssr:stedsnr" v="325628" />
		<tag k="ssr:type" v="eneboligMindreBoligbygg" />
	</node>
	<node changeset="58868279" id="5610773007" lat="58.079436" lon="7.3160184" timestamp="2018-05-11T06:10:04Z" uid="3842253" user="NKA_import" version="1">
		<tag k="alt_name" v="Tredalslia" />
		<tag k="name" v="Mørkelia" />
		<tag k="place" v="neighbourhood" />
		<tag k="ssr:stedsnr" v="143634" />
		<tag k="ssr:type" v="boligfelt" />
	</node>
	<node changeset="58868279" id="5610773008" lat="58.0401306" lon="7.3157833" timestamp="2018-05-11T06:10:04Z" uid="3842253" user="NKA_import" version="1">
		<tag k="name" v="Kåfjord vest" />
		<tag k="place" v="neighbourhood" />
		<tag k="ssr:stedsnr" v="829996" />
		<tag k="ssr:type" v="hyttefelt" />
	</node>
	<node changeset="58868279" id="5610773009" lat="58.0913389" lon="7.2658694" timestamp="2018-05-11T06:10:04Z" uid="3842253" user="NKA_import" version="1">
		<tag k="alt_name" v="Haukenes" />
		<tag k="name" v="Haugenes" />
		<tag k="place" v="farm" />
		<tag k="ssr:stedsnr" v="628725" />
		<tag k="ssr:type" v="gard" />
	</node>
	<node changeset="58868279" id="5610773010" lat="58.0139111" lon="7.098675" timestamp="2018-05-11T06:10:05Z" uid="3842253" user="NKA_import" version="1">
		<tag k="name" v="Flatebø" />
		<tag k="place" v="farm" />
		<tag k="ssr:stedsnr" v="849714" />
		<tag k="ssr:type" v="gard" />
	</node>
	<node changeset="58868279" id="5610773011" lat="58.104825" lon="7.3433528" timestamp="2018-05-11T06:10:05Z" uid="3842253" user="NKA_import" version="1">
		<tag k="name" v="Skofteland ytre" />
		<tag k="place" v="farm" />
		<tag k="ssr:stedsnr" v="386720" />
		<tag k="ssr:type" v="gard" />
	</node>
	<node changeset="58868279" id="5610773012" lat="58.2055611" lon="7.2882528" timestamp="2018-05-11T06:10:05Z" uid="3842253" user="NKA_import" version="1">
		<tag k="name" v="Øygard" />
		<tag k="place" v="locality" />
		<tag k="ssr:stedsnr" v="628784" />
		<tag k="ssr:type" v="gammelBosettingsplass" />
	</node>
	<node changeset="58868279" id="5610773013" lat="58.1397333" lon="7.3154778" timestamp="2018-05-11T06:10:05Z" uid="3842253" user="NKA_import" version="1">
		<tag k="name" v="Ytre Grisledal" />
		<tag k="place" v="farm" />
		<tag k="ssr:stedsnr" v="325569" />
		<tag k="ssr:type" v="bruk" />
	</node>
	<node changeset="58868279" id="5610773014" lat="58.1014889" lon="7.3378556" timestamp="2018-05-11T06:10:05Z" uid="3842253" user="NKA_import" version="1">
		<tag k="name" v="Lopsvollen" />
		<tag k="place" v="farm" />
		<tag k="ssr:stedsnr" v="386516" />
		<tag k="ssr:type" v="bruk" />
	</node>
	<node changeset="58868279" id="5610773015" lat="58.0652889" lon="7.3867056" timestamp="2018-05-11T06:10:05Z" uid="3842253" user="NKA_import" version="1">
		<tag k="name" v="Skogly" />
		<tag k="place" v="farm" />
		<tag k="ssr:stedsnr" v="485909" />
		<tag k="ssr:type" v="bruk" />
	</node>
	<node changeset="58868279" id="5610773016" lat="58.1011667" lon="7.3214056" timestamp="2018-05-11T06:10:05Z" uid="3842253" user="NKA_import" version="1">
		<tag k="alt_name" v="Nyland" />
		<tag k="name" v="Nylund" />
		<tag k="place" v="farm" />
		<tag k="ssr:stedsnr" v="850529" />
		<tag k="ssr:type" v="gard" />
	</node>
	<node changeset="58868279" id="5610773017" lat="58.0993806" lon="7.301025" timestamp="2018-05-11T06:10:05Z" uid="3842253" user="NKA_import" version="1">
		<tag k="alt_name" v="Hovsdal" />
		<tag k="name" v="Hovsdalen" />
		<tag k="place" v="farm" />
		<tag k="ssr:stedsnr" v="850531" />
		<tag k="ssr:type" v="gard" />
	</node>
	<node changeset="58868279" id="5610773018" lat="58.1856917" lon="7.294975" timestamp="2018-05-11T06:10:05Z" uid="3842253" user="NKA_import" version="1">
		<tag k="alt_name" v="Leland lille" />
		<tag k="name" v="Lille Leland" />
		<tag k="place" v="farm" />
		<tag k="ssr:stedsnr" v="485375" />
		<tag k="ssr:type" v="gard" />
	</node>
	<node changeset="58868279" id="5610773019" lat="58.1561889" lon="7.3089944" timestamp="2018-05-11T06:10:05Z" uid="3842253" user="NKA_import" version="1">
		<tag k="alt_name" v="Eigedal" />
		<tag k="name" v="Eikedal" />
		<tag k="place" v="farm" />
		<tag k="ssr:stedsnr" v="485415" />
		<tag k="ssr:type" v="gard" />
	</node>
	<node changeset="58868279" id="5610773020" lat="58.1678667" lon="7.3081306" timestamp="2018-05-11T06:10:06Z" uid="3842253" user="NKA_import" version="1">
		<tag k="alt_name" v="Risdal, l;Risdal lille" />
		<tag k="name" v="Lille Risdal" />
		<tag k="place" v="farm" />
		<tag k="ssr:stedsnr" v="485438" />
		<tag k="ssr:type" v="gard" />
	</node>
	<node changeset="58868279" id="5610774277" lat="58.1039752" lon="7.2308275" timestamp="2018-05-11T06:10:21Z" uid="3842253" user="NKA_import" version="1">
		<tag k="name" v="Østre Utland" />
		<tag k="place" v="farm" />
		<tag k="ssr:stedsnr" v="979267" />
		<tag k="ssr:type" v="gard" />
	</node>
	<node changeset="58868279" id="700244517" lat="58.1185735" lon="7.3344415" timestamp="2018-05-11T06:10:32Z" uid="3842253" user="NKA_import" version="2">
		<tag k="name" v="Foss" />
		<tag k="place" v="hamlet" />
		<tag k="ssr:stedsnr" v="979256" />
		<tag k="ssr:type" v="gard" />
	</node>
	<node changeset="67601953" id="4706692871" lat="58.0568004" lon="7.3635301" timestamp="2019-02-27T01:28:29Z" uid="103253" user="gormur" version="2" />
	<node changeset="58868279" id="5610774280" lat="58.0350997" lon="7.2170109" timestamp="2018-05-11T06:10:21Z" uid="3842253" user="NKA_import" version="1">
		<tag k="name" v="Åviken" />
		<tag k="place" v="farm" />
		<tag k="ssr:stedsnr" v="979279" />
		<tag k="ssr:type" v="gard" />
	</node>
	<node changeset="58868279" id="5610774281" lat="58.047009" lon="7.1987916" timestamp="2018-05-11T06:10:21Z" uid="3842253" user="NKA_import" version="1">
		<tag k="name" v="Øvre Svennevik" />
		<tag k="place" v="farm" />
		<tag k="ssr:stedsnr" v="979280" />
		<tag k="ssr:type" v="gard" />
	</node>
	<node changeset="58868279" id="246665852" lat="58.0752286" lon="7.346247" timestamp="2018-05-11T06:10:29Z" uid="3842253" user="NKA_import" version="4">
		<tag k="name" v="Trædal" />
		<tag k="place" v="hamlet" />
		<tag k="ssr:stedsnr" v="977265" />
		<tag k="ssr:type" v="gard" />
	</node>
	<node changeset="58868279" id="700244642" lat="58.1502726" lon="7.3317943" timestamp="2018-05-11T06:10:32Z" uid="3842253" user="NKA_import" version="2">
		<tag k="name" v="Røsstad" />
		<tag k="place" v="farm" />
		<tag k="ssr:stedsnr" v="303543" />
		<tag k="ssr:type" v="gard" />
	</node>
	<node changeset="58868279" id="527426272" lat="58.0355745" lon="7.1027219" timestamp="2018-05-11T06:10:30Z" uid="3842253" user="NKA_import" version="3">
		<tag k="alt_name" v="Ytre Ramsland" />
		<tag k="name" v="Ramsland" />
		<tag k="place" v="hamlet" />
		<tag k="ssr:stedsnr" v="425672" />
		<tag k="ssr:type" v="gard" />
	</node>
	<node changeset="73119841" id="527426276" lat="58.0460295" lon="7.1425006" timestamp="2019-08-07T16:19:36Z" uid="591877" user="RolfSteinar" version="7">
		<tag k="alt_name" v="Høllen;Lindesnes" />
		<tag k="name" v="Spangereid" />
		<tag k="place" v="village" />
		<tag k="population" v="465" />
		<tag k="ssr:stedsnr" v="698211" />
		<tag k="ssr:type" v="bygdelagBygd" />
		<tag k="wikidata" v="Q494847" />
		<tag k="wikipedia" v="no:Spangereid" />
	</node>
	<node changeset="4845172" id="757089023" lat="58.0594793" lon="7.3750806" timestamp="2010-05-29T18:16:00Z" uid="164049" user="kche" version="1" />
	<node changeset="58868279" id="700244736" lat="58.1920944" lon="7.2870056" timestamp="2018-05-11T06:10:32Z" uid="3842253" user="NKA_import" version="2">
		<tag k="alt_name" v="Leland store" />
		<tag k="name" v="Leland" />
		<tag k="place" v="farm" />
		<tag k="ssr:stedsnr" v="303449" />
		<tag k="ssr:type" v="gard" />
	</node>
	<node changeset="58868279" id="527426309" lat="58.0603233" lon="7.1788968" timestamp="2018-05-11T06:10:30Z" uid="3842253" user="NKA_import" version="3">
		<tag k="name" v="Remesvik" />
		<tag k="place" v="hamlet" />
		<tag k="ssr:stedsnr" v="182564" />
		<tag k="ssr:type" v="gard" />
	</node>
	<node changeset="58868279" id="31273739" lat="58.0339793" lon="7.2218067" timestamp="2018-05-11T06:10:29Z" uid="3842253" user="NKA_import" version="3">
		<tag k="description:no" v="Gammelt postnumer var 4513" />
		<tag k="loc_name" v="Åvig" />
		<tag k="name" v="Åvik" />
		<tag k="old_name" v="Aavigen" />
		<tag k="place" v="hamlet" />
		<tag k="ssr:stedsnr" v="182660" />
		<tag k="ssr:type" v="tettbebyggelse" />
	</node>
	<node changeset="58868279" id="700164884" lat="58.0060428" lon="7.040322" timestamp="2018-05-11T06:10:31Z" uid="3842253" user="NKA_import" version="2">
		<tag k="name" v="Stusvik" />
		<tag k="place" v="hamlet" />
		<tag k="ssr:stedsnr" v="57912" />
		<tag k="ssr:type" v="hyttefelt" />
	</node>
	<node changeset="58868279" id="527426335" lat="58.051046" lon="7.2474988" timestamp="2018-05-11T06:10:30Z" uid="3842253" user="NKA_import" version="2">
		<tag k="name" v="Lonestrand" />
		<tag k="place" v="hamlet" />
		<tag k="ssr:stedsnr" v="121585" />
		<tag k="ssr:type" v="grend" />
	</node>
	<node changeset="58868279" id="700171648" lat="58.0737515" lon="7.1718167" timestamp="2018-05-11T06:10:31Z" uid="3842253" user="NKA_import" version="2">
		<tag k="name" v="Møgedal" />
		<tag k="place" v="hamlet" />
		<tag k="ssr:stedsnr" v="849665" />
		<tag k="ssr:type" v="gard" />
	</node>
	<node changeset="58868279" id="527426386" lat="58.0342493" lon="7.288167" timestamp="2018-05-11T06:10:30Z" uid="3842253" user="NKA_import" version="2">
		<tag k="alt_name" v="Tjøm" />
		<tag k="name" v="Tjaum" />
		<tag k="place" v="hamlet" />
		<tag k="ssr:stedsnr" v="606678" />
		<tag k="ssr:type" v="gard" />
	</node>
	<node changeset="58868279" id="5094296456" lat="58.0450092" lon="7.2213394" timestamp="2018-05-11T06:10:33Z" uid="3842253" user="NKA_import" version="2">
		<tag k="name" v="Syrdal" />
		<tag k="place" v="farm" />
		<tag k="postal_code" v="4520" />
		<tag k="ssr:stedsnr" v="364604" />
		<tag k="ssr:type" v="gard" />
	</node>
	<node changeset="58868279" id="5094296457" lat="57.9971333" lon="7.0479083" timestamp="2018-05-11T06:10:33Z" uid="3842253" user="NKA_import" version="2">
		<tag k="name" v="Syrdal" />
		<tag k="place" v="farm" />
		<tag k="ssr:stedsnr" v="850004" />
		<tag k="ssr:type" v="gard" />
	</node>
	<node changeset="58868279" id="527426460" lat="58.0691916" lon="7.2845365" timestamp="2018-05-11T06:10:30Z" uid="3842253" user="NKA_import" version="2">
		<tag k="alt_name" v="Rødberg" />
		<tag k="name" v="Raudberg" />
		<tag k="place" v="hamlet" />
		<tag k="ssr:stedsnr" v="788549" />
		<tag k="ssr:type" v="bygdelagBygd" />
	</node>
	<node changeset="58868279" id="527426467" lat="58.0359367" lon="7.3138982" timestamp="2018-05-11T06:10:30Z" uid="3842253" user="NKA_import" version="2">
		<tag k="name" v="Ramsdalen" />
		<tag k="place" v="farm" />
		<tag k="ssr:stedsnr" v="364677" />
		<tag k="ssr:type" v="bruk" />
	</node>
	<node changeset="58868279" id="700244922" lat="58.2400556" lon="7.3161278" timestamp="2018-05-11T06:10:32Z" uid="3842253" user="NKA_import" version="2">
		<tag k="name" v="Røydland" />
		<tag k="place" v="hamlet" />
		<tag k="ssr:stedsnr" v="606415" />
		<tag k="ssr:type" v="gard" />
	</node>
	<node changeset="58868279" id="5610773001" lat="58.1561194" lon="7.3658333" timestamp="2018-05-11T06:10:04Z" uid="3842253" user="NKA_import" version="1">
		<tag k="name" v="Krogen" />
		<tag k="place" v="farm" />
		<tag k="ssr:stedsnr" v="811609" />
		<tag k="ssr:type" v="bruk" />
	</node>
	<node changeset="4845172" id="757089372" lat="58.0593767" lon="7.3752307" timestamp="2010-05-29T18:16:06Z" uid="164049" user="kche" version="1" />
	<node changeset="58868279" id="757089419" lat="58.078525" lon="7.319825" timestamp="2018-05-11T06:10:32Z" uid="3842253" user="NKA_import" version="2">
		<tag k="name" v="Trædalslia" />
		<tag k="place" v="neighbourhood" />
		<tag k="ssr:stedsnr" v="950996" />
		<tag k="ssr:type" v="boligfelt" />
	</node>
	<node changeset="58868279" id="31331537" lat="58.053421" lon="7.2710703" timestamp="2018-05-11T06:10:29Z" uid="3842253" user="NKA_import" version="5">
		<tag k="alt_name" v="Snik" />
		<tag k="loc_name" v="Snig" />
		<tag k="name" v="Snig" />
		<tag k="place" v="hamlet" />
		<tag k="ssr:stedsnr" v="61559" />
		<tag k="ssr:type" v="tettbebyggelse" />
	</node>
	<node changeset="58868279" id="25042204" lat="58.0685401" lon="7.3878809" timestamp="2018-05-11T06:10:29Z" uid="3842253" user="NKA_import" version="4">
		<tag k="name" v="Sjølingstad" />
		<tag k="place" v="hamlet" />
		<tag k="ssr:stedsnr" v="303918" />
		<tag k="ssr:type" v="bruk" />
	</node>
	<node changeset="67601953" id="6304742692" lat="58.0565749" lon="7.3653547" timestamp="2019-02-27T01:28:27Z" uid="103253" user="gormur" version="1" />
	<node changeset="67601953" id="6304742697" lat="58.0565634" lon="7.3653848" timestamp="2019-02-27T01:28:27Z" uid="103253" user="gormur" version="1" />
	<node changeset="67601953" id="6304742698" lat="58.0565896" lon="7.3653164" timestamp="2019-02-27T01:28:27Z" uid="103253" user="gormur" version="1" />
	<node changeset="67601953" id="6304742700" lat="58.0566949" lon="7.363641" timestamp="2019-02-27T01:28:27Z" uid="103253" user="gormur" version="1" />
	<node changeset="67601953" id="6304742701" lat="58.056833" lon="7.3643777" timestamp="2019-02-27T01:28:27Z" uid="103253" user="gormur" version="1" />
	<node changeset="67601953" id="6304742702" lat="58.0565988" lon="7.3651609" timestamp="2019-02-27T01:28:27Z" uid="103253" user="gormur" version="1" />
	<node changeset="67601953" id="6304742703" lat="58.0565364" lon="7.3653835" timestamp="2019-02-27T01:28:27Z" uid="103253" user="gormur" version="1" />
	<node changeset="67601953" id="6304742704" lat="58.0563704" lon="7.3653084" timestamp="2019-02-27T01:28:27Z" uid="103253" user="gormur" version="1" />
	<node changeset="67601953" id="6304742705" lat="58.0562185" lon="7.3654559" timestamp="2019-02-27T01:28:27Z" uid="103253" user="gormur" version="1" />
	<node changeset="67601953" id="6304742706" lat="58.0561078" lon="7.3652869" timestamp="2019-02-27T01:28:27Z" uid="103253" user="gormur" version="1" />
	<node changeset="67601953" id="6304742707" lat="58.0560922" lon="7.3646566" timestamp="2019-02-27T01:28:27Z" uid="103253" user="gormur" version="1" />
	<node changeset="58868279" id="5610773821" lat="58.0644694" lon="7.2339083" timestamp="2018-05-11T06:10:06Z" uid="3842253" user="NKA_import" version="1">
		<tag k="name" v="Skudevollen" />
		<tag k="place" v="locality" />
		<tag k="ssr:stedsnr" v="628939" />
		<tag k="ssr:type" v="gammelBosettingsplass" />
	</node>
	<node changeset="58868279" id="5610773822" lat="58.0738694" lon="7.2996528" timestamp="2018-05-11T06:10:06Z" uid="3842253" user="NKA_import" version="1">
		<tag k="alt_name" v="Kragestadmoen" />
		<tag k="name" v="Kragstadmoen" />
		<tag k="place" v="farm" />
		<tag k="ssr:stedsnr" v="143940" />
		<tag k="ssr:type" v="bruk" />
	</node>
	<node changeset="58868279" id="5610773823" lat="58.1496722" lon="7.3175611" timestamp="2018-05-11T06:10:06Z" uid="3842253" user="NKA_import" version="1">
		<tag k="alt_name" v="Furuheien" />
		<tag k="name" v="Furuhei" />
		<tag k="place" v="farm" />
		<tag k="ssr:stedsnr" v="386591" />
		<tag k="ssr:type" v="gard" />
	</node>
	<node changeset="58868279" id="5610773824" lat="58.11125" lon="7.2347361" timestamp="2018-05-11T06:10:06Z" uid="3842253" user="NKA_import" version="1">
		<tag k="alt_name" v="Støle vestre;Støle" />
		<tag k="historic" v="shieling" />
		<tag k="name" v="Vestre Støle" />
		<tag k="place" v="farm" />
		<tag k="ssr:stedsnr" v="485462" />
		<tag k="ssr:type" v="gard" />
	</node>
	<node changeset="58868279" id="5610773825" lat="58.0727505" lon="7.2745396" timestamp="2018-05-11T06:10:06Z" uid="3842253" user="NKA_import" version="1">
		<tag k="alt_name" v="Geiteland;Gjeiteland" />
		<tag k="name" v="Gjedeland" />
		<tag k="place" v="hamlet" />
		<tag k="ssr:stedsnr" v="485574" />
		<tag k="ssr:type" v="bygdelagBygd" />
	</node>
	<node changeset="58868279" id="5610773826" lat="58.0547167" lon="7.1552222" timestamp="2018-05-11T06:10:06Z" uid="3842253" user="NKA_import" version="1">
		<tag k="name" v="Skavika" />
		<tag k="place" v="locality" />
		<tag k="ssr:stedsnr" v="871041" />
		<tag k="ssr:type" v="gammelBosettingsplass" />
	</node>
	<node changeset="58868279" id="5610773827" lat="58.0345" lon="7.0854" timestamp="2018-05-11T06:10:06Z" uid="3842253" user="NKA_import" version="1">
		<tag k="alt_name" v="Hegeland" />
		<tag k="name" v="Hægeland" />
		<tag k="place" v="farm" />
		<tag k="ssr:stedsnr" v="485623" />
		<tag k="ssr:type" v="gard" />
	</node>
	<node changeset="58868279" id="5610773828" lat="58.0720972" lon="7.3148833" timestamp="2018-05-11T06:10:06Z" uid="3842253" user="NKA_import" version="1">
		<tag k="historic" v="shieling" />
		<tag k="name" v="Herstøl" />
		<tag k="place" v="locality" />
		<tag k="ssr:stedsnr" v="386642" />
		<tag k="ssr:type" v="gammelBosettingsplass" />
	</node>
	<node changeset="58868279" id="5610773829" lat="58.2227083" lon="7.3870611" timestamp="2018-05-11T06:10:06Z" uid="3842253" user="NKA_import" version="1">
		<tag k="name" v="Teland" />
		<tag k="place" v="farm" />
		<tag k="ssr:stedsnr" v="485667" />
		<tag k="ssr:type" v="gard" />
	</node>
	<node changeset="58868279" id="5610773830" lat="58.088828" lon="7.3374395" timestamp="2018-05-11T06:10:07Z" uid="3842253" user="NKA_import" version="1">
		<tag k="alt_name" v="Vallehei" />
		<tag k="name" v="Valleheia" />
		<tag k="place" v="farm" />
		<tag k="ssr:stedsnr" v="485671" />
		<tag k="ssr:type" v="gard" />
	</node>
	<node changeset="58868279" id="5610773831" lat="58.1325056" lon="7.444725" timestamp="2018-05-11T06:10:07Z" uid="3842253" user="NKA_import" version="1">
		<tag k="name" v="Engeland" />
		<tag k="place" v="farm" />
		<tag k="ssr:stedsnr" v="485716" />
		<tag k="ssr:type" v="gard" />
	</node>
	<node changeset="58868279" id="5610773832" lat="58.1464" lon="7.4021861" timestamp="2018-05-11T06:10:07Z" uid="3842253" user="NKA_import" version="1">
		<tag k="name" v="Hagen" />
		<tag k="place" v="farm" />
		<tag k="ssr:stedsnr" v="485718" />
		<tag k="ssr:type" v="gard" />
	</node>
	<node changeset="58868279" id="5610773833" lat="58.0905722" lon="7.2928306" timestamp="2018-05-11T06:10:07Z" uid="3842253" user="NKA_import" version="1">
		<tag k="name" v="Sølvberget" />
		<tag k="place" v="neighbourhood" />
		<tag k="ssr:stedsnr" v="161987" />
		<tag k="ssr:type" v="boligfelt" />
	</node>
	<node changeset="58868279" id="5610773834" lat="58.137225" lon="7.3470861" timestamp="2018-05-11T06:10:07Z" uid="3842253" user="NKA_import" version="1">
		<tag k="alt_name" v="Hagehei" />
		<tag k="name" v="Hageheia" />
		<tag k="place" v="farm" />
		<tag k="ssr:stedsnr" v="485729" />
		<tag k="ssr:type" v="gard" />
	</node>
	<node changeset="58868279" id="5610773835" lat="58.112" lon="7.3400861" timestamp="2018-05-11T06:10:07Z" uid="3842253" user="NKA_import" version="1">
		<tag k="alt_name" v="Bustadmoen" />
		<tag k="name" v="Bustadmonen" />
		<tag k="place" v="farm" />
		<tag k="ssr:stedsnr" v="386685" />
		<tag k="ssr:type" v="gard" />
	</node>
	<node changeset="58868279" id="5610773836" lat="58.1392639" lon="7.39505" timestamp="2018-05-11T06:10:07Z" uid="3842253" user="NKA_import" version="1">
		<tag k="alt_name" v="Mersland;Mærsland" />
		<tag k="name" v="Mæresland" />
		<tag k="place" v="farm" />
		<tag k="ssr:stedsnr" v="485732" />
		<tag k="ssr:type" v="gard" />
	</node>
	<node changeset="58868279" id="5610773837" lat="58.0495056" lon="7.2441028" timestamp="2018-05-11T06:10:08Z" uid="3842253" user="NKA_import" version="1">
		<tag k="name" v="Opshusstranda" />
		<tag k="place" v="farm" />
		<tag k="ssr:stedsnr" v="325868" />
		<tag k="ssr:type" v="bruk" />
	</node>
	<node changeset="58868279" id="5610773838" lat="58.0517694" lon="7.1841778" timestamp="2018-05-11T06:10:08Z" uid="3842253" user="NKA_import" version="1">
		<tag k="name" v="Skotberget" />
		<tag k="place" v="farm" />
		<tag k="ssr:stedsnr" v="177063" />
		<tag k="ssr:type" v="bruk" />
	</node>
	<node changeset="58868279" id="5610773839" lat="58.0360111" lon="7.207675" timestamp="2018-05-11T06:10:08Z" uid="3842253" user="NKA_import" version="1">
		<tag k="name" v="Lussevika" />
		<tag k="place" v="neighbourhood" />
		<tag k="ssr:stedsnr" v="664934" />
		<tag k="ssr:type" v="hyttefelt" />
	</node>
	<node changeset="58868279" id="5610773840" lat="58.0472778" lon="7.2060139" timestamp="2018-05-11T06:10:08Z" uid="3842253" user="NKA_import" version="1">
		<tag k="name" v="Krogen" />
		<tag k="place" v="farm" />
		<tag k="ssr:stedsnr" v="325919" />
		<tag k="ssr:type" v="bruk" />
	</node>
	<node changeset="58868279" id="5610773841" lat="58.1117583" lon="7.2471" timestamp="2018-05-11T06:10:08Z" uid="3842253" user="NKA_import" version="1">
		<tag k="alt_name" v="Stedjedal" />
		<tag k="name" v="Steggedalen" />
		<tag k="place" v="farm" />
		<tag k="ssr:stedsnr" v="182503" />
		<tag k="ssr:type" v="gard" />
	</node>
	<node changeset="58868279" id="5610773842" lat="58.123525" lon="7.2739111" timestamp="2018-05-11T06:10:08Z" uid="3842253" user="NKA_import" version="1">
		<tag k="alt_name" v="Stiland, østre;Stiland" />
		<tag k="name" v="Østre Stiland" />
		<tag k="place" v="farm" />
		<tag k="ssr:stedsnr" v="667526" />
		<tag k="ssr:type" v="bruk" />
	</node>
	<node changeset="58868279" id="5610773843" lat="58.1456778" lon="7.2806944" timestamp="2018-05-11T06:10:08Z" uid="3842253" user="NKA_import" version="1">
		<tag k="alt_name" v="Døble" />
		<tag k="name" v="Døbla" />
		<tag k="place" v="farm" />
		<tag k="ssr:stedsnr" v="182527" />
		<tag k="ssr:type" v="gard" />
	</node>
	<node changeset="58868279" id="5610773844" lat="58.0624528" lon="7.1592583" timestamp="2018-05-11T06:10:08Z" uid="3842253" user="NKA_import" version="1">
		<tag k="name" v="Våland" />
		<tag k="place" v="locality" />
		<tag k="ssr:stedsnr" v="667528" />
		<tag k="ssr:type" v="gammelBosettingsplass" />
	</node>
	<node changeset="58868279" id="5610773845" lat="58.0650528" lon="7.204125" timestamp="2018-05-11T06:10:08Z" uid="3842253" user="NKA_import" version="1">
		<tag k="alt_name" v="Bjerge" />
		<tag k="name" v="Bjerga" />
		<tag k="place" v="farm" />
		<tag k="ssr:stedsnr" v="667530" />
		<tag k="ssr:type" v="gard" />
	</node>
	<node changeset="58868279" id="5610773846" lat="58.0625806" lon="7.29435" timestamp="2018-05-11T06:10:08Z" uid="3842253" user="NKA_import" version="1">
		<tag k="name" v="Homme" />
		<tag k="place" v="farm" />
		<tag k="ssr:stedsnr" v="667538" />
		<tag k="ssr:type" v="gard" />
	</node>
	<node changeset="58868279" id="5610773847" lat="58.0625928" lon="7.3209761" timestamp="2018-05-11T06:10:08Z" uid="3842253" user="NKA_import" version="1">
		<tag k="building" v="cabin" />
		<tag k="name" v="Ponsen" />
		<tag k="place" v="isolated_dwelling" />
		<tag k="ssr:stedsnr" v="182568" />
		<tag k="ssr:type" v="fritidsbolig" />
	</node>
	<node changeset="58868279" id="5610773848" lat="58.0691139" lon="7.3178528" timestamp="2018-05-11T06:10:09Z" uid="3842253" user="NKA_import" version="1">
		<tag k="alt_name" v="Ytre Lian" />
		<tag k="name" v="Lian" />
		<tag k="place" v="farm" />
		<tag k="ssr:stedsnr" v="182572" />
		<tag k="ssr:type" v="gard" />
	</node>
	<node changeset="58868279" id="5610773849" lat="58.0602611" lon="7.312525" timestamp="2018-05-11T06:10:09Z" uid="3842253" user="NKA_import" version="1">
		<tag k="name" v="Skjeggestad" />
		<tag k="place" v="farm" />
		<tag k="ssr:stedsnr" v="667540" />
		<tag k="ssr:type" v="gard" />
	</node>
	<node changeset="58868279" id="5610773850" lat="58.0470536" lon="7.1570522" timestamp="2018-05-11T06:10:09Z" uid="3842253" user="NKA_import" version="1">
		<tag k="name" v="Njerve" />
		<tag k="place" v="farm" />
		<tag k="ssr:stedsnr" v="182583" />
		<tag k="ssr:type" v="gard" />
	</node>
	<node changeset="58868279" id="5610773851" lat="58.1892056" lon="7.4380778" timestamp="2018-05-11T06:10:09Z" uid="3842253" user="NKA_import" version="1">
		<tag k="alt_name" v="Knipe" />
		<tag k="name" v="Knipa" />
		<tag k="place" v="farm" />
		<tag k="ssr:stedsnr" v="667665" />
		<tag k="ssr:type" v="gard" />
	</node>
	<node changeset="58868279" id="5610773852" lat="58.0895967" lon="7.2912694" timestamp="2018-05-11T06:10:09Z" uid="3842253" user="NKA_import" version="1">
		<tag k="name" v="Livoll" />
		<tag k="place" v="neighbourhood" />
		<tag k="ssr:stedsnr" v="182598" />
		<tag k="ssr:type" v="bruk" />
	</node>
	<node changeset="58868279" id="5610773853" lat="58.1255139" lon="7.4161" timestamp="2018-05-11T06:10:09Z" uid="3842253" user="NKA_import" version="1">
		<tag k="name" v="Erland" />
		<tag k="place" v="farm" />
		<tag k="ssr:stedsnr" v="667831" />
		<tag k="ssr:type" v="gard" />
	</node>
	<node changeset="58868279" id="5610773854" lat="58.118525" lon="7.4342" timestamp="2018-05-11T06:10:09Z" uid="3842253" user="NKA_import" version="1">
		<tag k="name" v="Norum" />
		<tag k="place" v="farm" />
		<tag k="ssr:stedsnr" v="667838" />
		<tag k="ssr:type" v="gard" />
	</node>
	<node changeset="58868279" id="5610773855" lat="58.1171778" lon="7.4103167" timestamp="2018-05-11T06:10:09Z" uid="3842253" user="NKA_import" version="1">
		<tag k="name" v="Skarstad" />
		<tag k="place" v="hamlet" />
		<tag k="ssr:stedsnr" v="182851" />
		<tag k="ssr:type" v="gard" />
	</node>
	<node changeset="58868279" id="5610773856" lat="58.0725528" lon="7.3486528" timestamp="2018-05-11T06:10:09Z" uid="3842253" user="NKA_import" version="1">
		<tag k="name" v="Torp" />
		<tag k="place" v="farm" />
		<tag k="ssr:stedsnr" v="667918" />
		<tag k="ssr:type" v="gard" />
	</node>
	<node changeset="58868279" id="5610773857" lat="58.0453538" lon="7.1418621" timestamp="2018-05-11T06:10:09Z" uid="3842253" user="NKA_import" version="1">
		<tag k="name" v="Høllen" />
		<tag k="place" v="neighbourhood" />
		<tag k="ssr:stedsnr" v="668604" />
		<tag k="ssr:type" v="tettbebyggelse" />
	</node>
	<node changeset="58868279" id="5610773858" lat="58.0423788" lon="7.3152866" timestamp="2018-05-11T06:10:09Z" uid="3842253" user="NKA_import" version="1">
		<tag k="alt_name" v="Kåfjord" />
		<tag k="name" v="Kvåfjord" />
		<tag k="place" v="hamlet" />
		<tag k="ssr:stedsnr" v="668694" />
		<tag k="ssr:type" v="grend" />
	</node>
	<node changeset="71744593" id="5610773859" lat="58.0317556" lon="7.0725028" timestamp="2019-06-29T21:52:04Z" uid="8796119" user="chrisklung" version="2">
		<tag k="name" v="Haraldstad" />
		<tag k="place" v="hamlet" />
		<tag k="ssr:stedsnr" v="668697" />
		<tag k="ssr:type" v="gard" />
	</node>
	<node changeset="58868279" id="5610773860" lat="57.9922639" lon="7.0652917" timestamp="2018-05-11T06:10:10Z" uid="3842253" user="NKA_import" version="1">
		<tag k="name" v="Kilen" />
		<tag k="place" v="isolated_dwelling" />
		<tag k="ssr:stedsnr" v="16" />
		<tag k="ssr:type" v="eneboligMindreBoligbygg" />
	</node>
	<node changeset="58868279" id="5610773861" lat="58.0358139" lon="7.1208" timestamp="2018-05-11T06:10:10Z" uid="3842253" user="NKA_import" version="1">
		<tag k="name" v="Trones" />
		<tag k="place" v="farm" />
		<tag k="ssr:stedsnr" v="673" />
		<tag k="ssr:type" v="gard" />
	</node>
	<node changeset="58868279" id="5610773862" lat="58.1963861" lon="7.3459444" timestamp="2018-05-11T06:10:10Z" uid="3842253" user="NKA_import" version="1">
		<tag k="name" v="Tuen" />
		<tag k="place" v="farm" />
		<tag k="ssr:stedsnr" v="507269" />
		<tag k="ssr:type" v="bruk" />
	</node>
	<node changeset="58868279" id="5610773863" lat="58.2105639" lon="7.3082333" timestamp="2018-05-11T06:10:10Z" uid="3842253" user="NKA_import" version="1">
		<tag k="name" v="Landås" />
		<tag k="place" v="farm" />
		<tag k="ssr:stedsnr" v="420" />
		<tag k="ssr:type" v="gard" />
	</node>
	<node changeset="59949920" id="5699915112" lat="57.9919642" lon="7.0698309" timestamp="2018-06-18T15:56:34Z" uid="161619" user="FvGordon" version="1">
		<tag k="alt_name" v="Våga, øvre;Øvre Våga" />
		<tag k="name" v="Øvre Våge" />
		<tag k="place" v="neighbourhood" />
		<tag k="ssr:stedsnr" v="667025" />
		<tag k="ssr:type" v="grend" />
	</node>
	<node changeset="59949920" id="5699915113" lat="57.9912733" lon="7.0666198" timestamp="2018-06-18T15:56:34Z" uid="161619" user="FvGordon" version="1">
		<tag k="name" v="Våge" />
		<tag k="place" v="hamlet" />
		<tag k="ssr:stedsnr" v="979359" />
		<tag k="ssr:type" v="navnegard" />
	</node>
	<node changeset="58868279" id="5610773866" lat="58.1590361" lon="7.3372583" timestamp="2018-05-11T06:10:10Z" uid="3842253" user="NKA_import" version="1">
		<tag k="name" v="Trolldalen" />
		<tag k="place" v="farm" />
		<tag k="ssr:stedsnr" v="871497" />
		<tag k="ssr:type" v="gard" />
	</node>
	<node changeset="58868279" id="5610773867" lat="58.0480013" lon="7.2652194" timestamp="2018-05-11T06:10:10Z" uid="3842253" user="NKA_import" version="1">
		<tag k="name" v="Navarsund" />
		<tag k="place" v="hamlet" />
		<tag k="ssr:stedsnr" v="583" />
		<tag k="ssr:type" v="eneboligMindreBoligbygg" />
	</node>
	<node changeset="58868279" id="5610773868" lat="58.0885361" lon="7.2526056" timestamp="2018-05-11T06:10:10Z" uid="3842253" user="NKA_import" version="1">
		<tag k="alt_name" v="Rødland" />
		<tag k="name" v="Røydland" />
		<tag k="place" v="farm" />
		<tag k="ssr:stedsnr" v="587" />
		<tag k="ssr:type" v="gard" />
	</node>
	<node changeset="58868279" id="5610773869" lat="58.0778" lon="7.2590417" timestamp="2018-05-11T06:10:10Z" uid="3842253" user="NKA_import" version="1">
		<tag k="alt_name" v="Vaslien" />
		<tag k="name" v="Vasslia" />
		<tag k="place" v="farm" />
		<tag k="ssr:stedsnr" v="611" />
		<tag k="ssr:type" v="gard" />
	</node>
	<node changeset="58868279" id="5610773870" lat="58.0566611" lon="7.3583861" timestamp="2018-05-11T06:10:11Z" uid="3842253" user="NKA_import" version="1">
		<tag k="name" v="Ramsen" />
		<tag k="place" v="farm" />
		<tag k="ssr:stedsnr" v="908" />
		<tag k="ssr:type" v="gard" />
	</node>
	<node changeset="71744593" id="5610773871" lat="58.0099722" lon="7.0545833" timestamp="2019-06-29T21:52:04Z" uid="8796119" user="chrisklung" version="2">
		<tag k="name" v="Nydal" />
		<tag k="place" v="hamlet" />
		<tag k="ssr:stedsnr" v="507394" />
		<tag k="ssr:type" v="bruk" />
	</node>
	<node changeset="58868279" id="5610773872" lat="58.1286817" lon="7.3416398" timestamp="2018-05-11T06:10:11Z" uid="3842253" user="NKA_import" version="1">
		<tag k="name" v="Haga" />
		<tag k="place" v="farm" />
		<tag k="ssr:stedsnr" v="507565" />
		<tag k="ssr:type" v="bruk" />
	</node>
	<node changeset="58868279" id="5610773873" lat="58.1566389" lon="7.4304139" timestamp="2018-05-11T06:10:11Z" uid="3842253" user="NKA_import" version="1">
		<tag k="name" v="Esperås" />
		<tag k="place" v="locality" />
		<tag k="ssr:stedsnr" v="689406" />
		<tag k="ssr:type" v="gammelBosettingsplass" />
	</node>
	<node changeset="58868279" id="5610773874" lat="58.1687111" lon="7.2480056" timestamp="2018-05-11T06:10:11Z" uid="3842253" user="NKA_import" version="1">
		<tag k="name" v="Vestre Li" />
		<tag k="place" v="locality" />
		<tag k="ssr:stedsnr" v="507640" />
		<tag k="ssr:type" v="gammelBosettingsplass" />
	</node>
	<node changeset="58868279" id="5610773875" lat="58.1464944" lon="7.3858528" timestamp="2018-05-11T06:10:11Z" uid="3842253" user="NKA_import" version="1">
		<tag k="name" v="Smedsland" />
		<tag k="place" v="farm" />
		<tag k="ssr:stedsnr" v="872608" />
		<tag k="ssr:type" v="gard" />
	</node>
	<node changeset="58868279" id="5610773876" lat="58.0374444" lon="7.0626861" timestamp="2018-05-11T06:10:11Z" uid="3842253" user="NKA_import" version="1">
		<tag k="name" v="Haraldstadstrand" />
		<tag k="place" v="neighbourhood" />
		<tag k="ssr:stedsnr" v="907899" />
		<tag k="ssr:type" v="hyttefelt" />
	</node>
	<node changeset="58868279" id="5610773877" lat="57.996225" lon="7.086075" timestamp="2018-05-11T06:10:11Z" uid="3842253" user="NKA_import" version="1">
		<tag k="name" v="Myra" />
		<tag k="place" v="farm" />
		<tag k="ssr:stedsnr" v="910006" />
		<tag k="ssr:type" v="bruk" />
	</node>
	<node changeset="58868279" id="5610773878" lat="58.1217444" lon="7.2579028" timestamp="2018-05-11T06:10:11Z" uid="3842253" user="NKA_import" version="1">
		<tag k="name" v="Tjortenes" />
		<tag k="place" v="farm" />
		<tag k="ssr:stedsnr" v="204752" />
		<tag k="ssr:type" v="gard" />
	</node>
	<node changeset="58868279" id="5610773879" lat="58.1121389" lon="7.2119083" timestamp="2018-05-11T06:10:11Z" uid="3842253" user="NKA_import" version="1">
		<tag k="name" v="Stubakken" />
		<tag k="place" v="farm" />
		<tag k="ssr:stedsnr" v="507904" />
		<tag k="ssr:type" v="gard" />
	</node>
	<node changeset="58868279" id="5610773880" lat="58.097025" lon="7.3105361" timestamp="2018-05-11T06:10:11Z" uid="3842253" user="NKA_import" version="1">
		<tag k="name" v="Roland" />
		<tag k="place" v="farm" />
		<tag k="ssr:stedsnr" v="910540" />
		<tag k="ssr:type" v="gard" />
	</node>
	<node changeset="58868279" id="5610773881" lat="58.103475" lon="7.2470778" timestamp="2018-05-11T06:10:11Z" uid="3842253" user="NKA_import" version="1">
		<tag k="alt_name" v="Tveida;Tveiten" />
		<tag k="name" v="Tveita" />
		<tag k="place" v="farm" />
		<tag k="ssr:stedsnr" v="910542" />
		<tag k="ssr:type" v="gard" />
	</node>
	<node changeset="58868279" id="5610773882" lat="58.1343528" lon="7.304875" timestamp="2018-05-11T06:10:12Z" uid="3842253" user="NKA_import" version="1">
		<tag k="alt_name" v="Hedderåsen" />
		<tag k="name" v="Hellerås" />
		<tag k="place" v="farm" />
		<tag k="ssr:stedsnr" v="910553" />
		<tag k="ssr:type" v="gard" />
	</node>
	<node changeset="58868279" id="5610773883" lat="58.2024861" lon="7.3785667" timestamp="2018-05-11T06:10:12Z" uid="3842253" user="NKA_import" version="1">
		<tag k="name" v="Seland" />
		<tag k="place" v="farm" />
		<tag k="ssr:stedsnr" v="910682" />
		<tag k="ssr:type" v="bruk" />
	</node>
	<node changeset="58868279" id="5610773884" lat="58.2107603" lon="7.407306" timestamp="2018-05-11T06:10:12Z" uid="3842253" user="NKA_import" version="1">
		<tag k="name" v="Bjåstad" />
		<tag k="place" v="farm" />
		<tag k="ssr:stedsnr" v="910728" />
		<tag k="ssr:type" v="gard" />
	</node>
	<node changeset="58868279" id="5610773885" lat="58.0752639" lon="7.3051" timestamp="2018-05-11T06:10:12Z" uid="3842253" user="NKA_import" version="1">
		<tag k="name" v="Vallenes" />
		<tag k="place" v="farm" />
		<tag k="ssr:stedsnr" v="508657" />
		<tag k="ssr:type" v="bruk" />
	</node>
	<node changeset="58868279" id="5610773886" lat="58.1356954" lon="7.3700774" timestamp="2018-05-11T06:10:12Z" uid="3842253" user="NKA_import" version="1">
		<tag k="alt_name" v="Ertseid;Ertzeid" />
		<tag k="name" v="Erseid" />
		<tag k="place" v="hamlet" />
		<tag k="ssr:stedsnr" v="910769" />
		<tag k="ssr:type" v="gard" />
	</node>
	<node changeset="58868279" id="5610773887" lat="58.0344222" lon="7.2910659" timestamp="2018-05-11T06:10:12Z" uid="3842253" user="NKA_import" version="1">
		<tag k="name" v="Austgården" />
		<tag k="place" v="farm" />
		<tag k="ssr:stedsnr" v="204954" />
		<tag k="ssr:type" v="grend" />
	</node>
	<node changeset="58868279" id="2442521984" lat="58.0694278" lon="7.2098417" timestamp="2018-05-11T06:10:33Z" uid="3842253" user="NKA_import" version="2">
		<tag k="name" v="Gåsestein" />
		<tag k="place" v="farm" />
		<tag k="ssr:stedsnr" v="728552" />
		<tag k="ssr:type" v="gard" />
	</node>
	<node changeset="58868279" id="5610773889" lat="58.1648778" lon="7.438675" timestamp="2018-05-11T06:10:12Z" uid="3842253" user="NKA_import" version="1">
		<tag k="name" v="Vågestad" />
		<tag k="place" v="farm" />
		<tag k="ssr:stedsnr" v="910798" />
		<tag k="ssr:type" v="gard" />
	</node>
	<node changeset="58868279" id="5610773890" lat="58.102" lon="7.3655361" timestamp="2018-05-11T06:10:12Z" uid="3842253" user="NKA_import" version="1">
		<tag k="name" v="Vallerås" />
		<tag k="place" v="farm" />
		<tag k="ssr:stedsnr" v="910857" />
		<tag k="ssr:type" v="gard" />
	</node>
	<node changeset="58868279" id="5610773891" lat="58.114325" lon="7.3711806" timestamp="2018-05-11T06:10:12Z" uid="3842253" user="NKA_import" version="1">
		<tag k="alt_name" v="Rørseland" />
		<tag k="name" v="Røyseland" />
		<tag k="place" v="farm" />
		<tag k="ssr:stedsnr" v="910883" />
		<tag k="ssr:type" v="gard" />
	</node>
	<node changeset="58868279" id="5610773892" lat="58.0732" lon="7.4020861" timestamp="2018-05-11T06:10:12Z" uid="3842253" user="NKA_import" version="1">
		<tag k="name" v="Romedal" />
		<tag k="place" v="farm" />
		<tag k="ssr:stedsnr" v="910935" />
		<tag k="ssr:type" v="gard" />
	</node>
	<node changeset="58868279" id="5610773893" lat="58.09645" lon="7.3193667" timestamp="2018-05-11T06:10:13Z" uid="3842253" user="NKA_import" version="1">
		<tag k="name" v="Valle" />
		<tag k="place" v="farm" />
		<tag k="ssr:stedsnr" v="242562" />
		<tag k="ssr:type" v="bruk" />
	</node>
	<node changeset="58868279" id="5610773894" lat="58.0869806" lon="7.2982583" timestamp="2018-05-11T06:10:13Z" uid="3842253" user="NKA_import" version="1">
		<tag k="name" v="Trean" />
		<tag k="place" v="neighbourhood" />
		<tag k="ssr:stedsnr" v="526994" />
		<tag k="ssr:type" v="boligfelt" />
	</node>
	<node changeset="58868279" id="5610773895" lat="58.1198611" lon="7.3427028" timestamp="2018-05-11T06:10:13Z" uid="3842253" user="NKA_import" version="1">
		<tag k="name" v="Buhølen" />
		<tag k="place" v="hamlet" />
		<tag k="ssr:stedsnr" v="243504" />
		<tag k="ssr:type" v="tettbebyggelse" />
	</node>
	<node changeset="58868279" id="5610773896" lat="58.2277778" lon="7.3164556" timestamp="2018-05-11T06:10:13Z" uid="3842253" user="NKA_import" version="1">
		<tag k="alt_name" v="Bergstøl" />
		<tag k="historic" v="shieling" />
		<tag k="name" v="Barstøl" />
		<tag k="place" v="farm" />
		<tag k="ssr:stedsnr" v="546397" />
		<tag k="ssr:type" v="gard" />
	</node>
	<node changeset="58868279" id="5610773897" lat="58.1234778" lon="7.32095" timestamp="2018-05-11T06:10:13Z" uid="3842253" user="NKA_import" version="1">
		<tag k="name" v="Grasdal" />
		<tag k="place" v="farm" />
		<tag k="ssr:stedsnr" v="243570" />
		<tag k="ssr:type" v="bruk" />
	</node>
	<node changeset="58868279" id="5610773898" lat="58.0517248" lon="7.1925357" timestamp="2018-05-11T06:10:13Z" uid="3842253" user="NKA_import" version="1">
		<tag k="name" v="Reme" />
		<tag k="place" v="hamlet" />
		<tag k="ssr:stedsnr" v="243582" />
		<tag k="ssr:type" v="grend" />
	</node>
	<node changeset="58868279" id="5610773899" lat="58.1169367" lon="7.3352891" timestamp="2018-05-11T06:10:13Z" uid="3842253" user="NKA_import" version="1">
		<tag k="alt_name" v="Foss, nedre;Foss" />
		<tag k="name" v="Nedre Foss" />
		<tag k="place" v="farm" />
		<tag k="ssr:stedsnr" v="546469" />
		<tag k="ssr:type" v="grend" />
	</node>
	<node changeset="58868279" id="5610773900" lat="58.0393306" lon="7.0867694" timestamp="2018-05-11T06:10:13Z" uid="3842253" user="NKA_import" version="1">
		<tag k="name" v="Mønestad" />
		<tag k="place" v="farm" />
		<tag k="ssr:stedsnr" v="243588" />
		<tag k="ssr:type" v="gard" />
	</node>
	<node changeset="58868279" id="5610773901" lat="58.0473216" lon="7.1255797" timestamp="2018-05-11T06:10:13Z" uid="3842253" user="NKA_import" version="1">
		<tag k="alt_name" v="Gahre" />
		<tag k="name" v="Gare" />
		<tag k="place" v="neighbourhood" />
		<tag k="ssr:stedsnr" v="243595" />
		<tag k="ssr:type" v="grend" />
	</node>
	<node changeset="58868279" id="5610773902" lat="58.1233772" lon="7.3390972" timestamp="2018-05-11T06:10:13Z" uid="3842253" user="NKA_import" version="1">
		<tag k="name" v="Kristiansminde" />
		<tag k="place" v="farm" />
		<tag k="ssr:stedsnr" v="690762" />
		<tag k="ssr:type" v="gard" />
	</node>
	<node changeset="58868279" id="5610773903" lat="58.1604889" lon="7.412525" timestamp="2018-05-11T06:10:14Z" uid="3842253" user="NKA_import" version="1">
		<tag k="alt_name" v="Støle øvre;Støle" />
		<tag k="historic" v="shieling" />
		<tag k="name" v="Øvre Støle" />
		<tag k="place" v="farm" />
		<tag k="ssr:stedsnr" v="243782" />
		<tag k="ssr:type" v="gard" />
	</node>
	<node changeset="58868279" id="5610773904" lat="58.0896139" lon="7.3172111" timestamp="2018-05-11T06:10:14Z" uid="3842253" user="NKA_import" version="1">
		<tag k="name" v="Moen" />
		<tag k="place" v="farm" />
		<tag k="ssr:stedsnr" v="546558" />
		<tag k="ssr:type" v="bruk" />
	</node>
	<node changeset="58868279" id="5610773905" lat="58.1688639" lon="7.3590556" timestamp="2018-05-11T06:10:14Z" uid="3842253" user="NKA_import" version="1">
		<tag k="alt_name" v="Einarsmo" />
		<tag k="name" v="Einarsmonen" />
		<tag k="place" v="hamlet" />
		<tag k="ssr:stedsnr" v="243805" />
		<tag k="ssr:type" v="gard" />
	</node>
	<node changeset="58868279" id="5610773906" lat="58.16805" lon="7.3860361" timestamp="2018-05-11T06:10:14Z" uid="3842253" user="NKA_import" version="1">
		<tag k="alt_name" v="Heddan" />
		<tag k="name" v="Helland" />
		<tag k="place" v="farm" />
		<tag k="ssr:stedsnr" v="243809" />
		<tag k="ssr:type" v="gard" />
	</node>
	<node changeset="58868279" id="5610773907" lat="58.1229556" lon="7.4128417" timestamp="2018-05-11T06:10:14Z" uid="3842253" user="NKA_import" version="1">
		<tag k="alt_name" v="Goksem" />
		<tag k="name" v="Gauksum" />
		<tag k="place" v="farm" />
		<tag k="ssr:stedsnr" v="243852" />
		<tag k="ssr:type" v="gard" />
	</node>
	<node changeset="58868279" id="5610773908" lat="58.0227085" lon="7.0716725" timestamp="2018-05-11T06:10:14Z" uid="3842253" user="NKA_import" version="1">
		<tag k="alt_name" v="Jørgenstad" />
		<tag k="name" v="Jørenstad" />
		<tag k="place" v="hamlet" />
		<tag k="ssr:stedsnr" v="546617" />
		<tag k="ssr:type" v="grend" />
	</node>
	<node changeset="58868279" id="5610773909" lat="58.0952833" lon="7.2195889" timestamp="2018-05-11T06:10:15Z" uid="3842253" user="NKA_import" version="1">
		<tag k="name" v="Rymtelandsøygard" />
		<tag k="place" v="locality" />
		<tag k="ssr:stedsnr" v="932251" />
		<tag k="ssr:type" v="gammelBosettingsplass" />
	</node>
	<node changeset="58868279" id="5610773910" lat="58.1088167" lon="7.4008278" timestamp="2018-05-11T06:10:15Z" uid="3842253" user="NKA_import" version="1">
		<tag k="name" v="Birkeland" />
		<tag k="place" v="farm" />
		<tag k="ssr:stedsnr" v="243862" />
		<tag k="ssr:type" v="gard" />
	</node>
	<node changeset="58868279" id="5610773911" lat="58.0653056" lon="7.3176111" timestamp="2018-05-11T06:10:15Z" uid="3842253" user="NKA_import" version="1">
		<tag k="name" v="Skogen" />
		<tag k="place" v="locality" />
		<tag k="ssr:stedsnr" v="23728" />
		<tag k="ssr:type" v="gammelBosettingsplass" />
	</node>
	<node changeset="58868279" id="5610773912" lat="58.0035667" lon="7.0900028" timestamp="2018-05-11T06:10:15Z" uid="3842253" user="NKA_import" version="1">
		<tag k="name" v="Indre Fjellskår" />
		<tag k="place" v="farm" />
		<tag k="ssr:stedsnr" v="707421" />
		<tag k="ssr:type" v="gard" />
	</node>
	<node changeset="58868279" id="5610773913" lat="58.1753092" lon="7.3580795" timestamp="2018-05-11T06:10:15Z" uid="3842253" user="NKA_import" version="1">
		<tag k="alt_name" v="Hægebostadøygarden" />
		<tag k="name" v="Øygarden" />
		<tag k="place" v="hamlet" />
		<tag k="ssr:stedsnr" v="546676" />
		<tag k="ssr:type" v="bruk" />
	</node>
	<node changeset="58868279" id="5610773914" lat="58.1229667" lon="7.3908917" timestamp="2018-05-11T06:10:15Z" uid="3842253" user="NKA_import" version="1">
		<tag k="alt_name" v="Holmesland;Hålumsland" />
		<tag k="name" v="Holumsland" />
		<tag k="place" v="farm" />
		<tag k="ssr:stedsnr" v="546844" />
		<tag k="ssr:type" v="gard" />
	</node>
	<node changeset="58868279" id="5610773915" lat="58.0637472" lon="7.2037445" timestamp="2018-05-11T06:10:16Z" uid="3842253" user="NKA_import" version="1">
		<tag k="name" v="Gloppa" />
		<tag k="place" v="farm" />
		<tag k="ssr:stedsnr" v="264029" />
		<tag k="ssr:type" v="bruk" />
	</node>
	<node changeset="58868279" id="5610773916" lat="58.2005611" lon="7.3005583" timestamp="2018-05-11T06:10:16Z" uid="3842253" user="NKA_import" version="1">
		<tag k="name" v="Ådnebergli" />
		<tag k="place" v="farm" />
		<tag k="ssr:stedsnr" v="932301" />
		<tag k="ssr:type" v="gard" />
	</node>
	<node changeset="58868279" id="5610773917" lat="58.0633028" lon="7.1601639" timestamp="2018-05-11T06:10:16Z" uid="3842253" user="NKA_import" version="1">
		<tag k="alt_name" v="Våland" />
		<tag k="name" v="Valand" />
		<tag k="place" v="farm" />
		<tag k="ssr:stedsnr" v="724049" />
		<tag k="ssr:type" v="gard" />
	</node>
	<node changeset="58868279" id="5610773918" lat="58.049225" lon="7.2029444" timestamp="2018-05-11T06:10:16Z" uid="3842253" user="NKA_import" version="1">
		<tag k="name" v="Sollia" />
		<tag k="place" v="neighbourhood" />
		<tag k="ssr:stedsnr" v="724933" />
		<tag k="ssr:type" v="boligfelt" />
	</node>
	<node changeset="58868279" id="5610773919" lat="58.1629732" lon="7.3392567" timestamp="2018-05-11T06:10:16Z" uid="3842253" user="NKA_import" version="1">
		<tag k="alt_name" v="Esperås" />
		<tag k="building" v="cabin" />
		<tag k="name" v="Esperåsen" />
		<tag k="place" v="isolated_dwelling" />
		<tag k="ssr:stedsnr" v="728473" />
		<tag k="ssr:type" v="fritidsbolig" />
	</node>
	<node changeset="58868279" id="5610773920" lat="58.1174472" lon="7.232725" timestamp="2018-05-11T06:10:16Z" uid="3842253" user="NKA_import" version="1">
		<tag k="name" v="Høyland" />
		<tag k="place" v="farm" />
		<tag k="ssr:stedsnr" v="728496" />
		<tag k="ssr:type" v="gard" />
	</node>
	<node changeset="58868279" id="700171711" lat="58.078475" lon="7.18855" timestamp="2018-05-11T06:10:31Z" uid="3842253" user="NKA_import" version="2">
		<tag k="name" v="Hesteland" />
		<tag k="place" v="hamlet" />
		<tag k="ssr:stedsnr" v="602" />
		<tag k="ssr:type" v="gard" />
	</node>
	<node changeset="58868279" id="700177866" lat="58.1250027" lon="7.2710334" timestamp="2018-05-11T06:10:31Z" uid="3842253" user="NKA_import" version="2">
		<tag k="name" v="Stiland" />
		<tag k="place" v="hamlet" />
		<tag k="ssr:stedsnr" v="979265" />
		<tag k="ssr:type" v="gard" />
	</node>
	<node changeset="58868279" id="700171740" lat="58.0788305" lon="7.2181265" timestamp="2018-05-11T06:10:31Z" uid="3842253" user="NKA_import" version="2">
		<tag k="name" v="Vettesdal" />
		<tag k="place" v="farm" />
		<tag k="ssr:stedsnr" v="546569" />
		<tag k="ssr:type" v="gard" />
	</node>
	<node changeset="67601953" id="4706692868" lat="58.0568202" lon="7.3642462" timestamp="2019-02-27T01:28:29Z" uid="103253" user="gormur" version="2" />
	<node changeset="58868279" id="700171834" lat="58.0817917" lon="7.24565" timestamp="2018-05-11T06:10:31Z" uid="3842253" user="NKA_import" version="2">
		<tag k="name" v="Saudland" />
		<tag k="place" v="farm" />
		<tag k="ssr:stedsnr" v="303608" />
		<tag k="ssr:type" v="gard" />
	</node>
	<node changeset="58868279" id="700177990" lat="58.1168678" lon="7.2991495" timestamp="2018-05-11T06:10:32Z" uid="3842253" user="NKA_import" version="2">
		<tag k="alt_name" v="Øvre Ås" />
		<tag k="name" v="Ås" />
		<tag k="place" v="hamlet" />
		<tag k="ssr:stedsnr" v="689720" />
		<tag k="ssr:type" v="gard" />
	</node>
	<node changeset="58868279" id="527384254" lat="58.2009798" lon="7.3394475" timestamp="2018-05-11T06:10:30Z" uid="3842253" user="NKA_import" version="2">
		<tag k="alt_name" v="Nedre Vigmostad" />
		<tag k="name" v="Vigmostad" />
		<tag k="place" v="village" />
		<tag k="ssr:stedsnr" v="182458" />
		<tag k="ssr:type" v="gard" />
	</node>
	<node changeset="58868279" id="5610774221" lat="58.0559222" lon="7.11075" timestamp="2018-05-11T06:10:16Z" uid="3842253" user="NKA_import" version="1">
		<tag k="name" v="Øksnevik" />
		<tag k="place" v="neighbourhood" />
		<tag k="ssr:stedsnr" v="57911" />
		<tag k="ssr:type" v="hyttefelt" />
	</node>
	<node changeset="58868279" id="5610774222" lat="58.1113917" lon="7.1894556" timestamp="2018-05-11T06:10:16Z" uid="3842253" user="NKA_import" version="1">
		<tag k="name" v="Osestadstranda" />
		<tag k="place" v="farm" />
		<tag k="ssr:stedsnr" v="728507" />
		<tag k="ssr:type" v="gard" />
	</node>
	<node changeset="58868279" id="5610774223" lat="58.0487139" lon="7.2573278" timestamp="2018-05-11T06:10:16Z" uid="3842253" user="NKA_import" version="1">
		<tag k="name" v="Vardebakken" />
		<tag k="place" v="neighbourhood" />
		<tag k="ssr:stedsnr" v="57918" />
		<tag k="ssr:type" v="hyttefelt" />
	</node>
	<node changeset="58868279" id="5610774224" lat="58.12815" lon="7.2340667" timestamp="2018-05-11T06:10:16Z" uid="3842253" user="NKA_import" version="1">
		<tag k="name" v="Haugdal" />
		<tag k="place" v="farm" />
		<tag k="ssr:stedsnr" v="728533" />
		<tag k="ssr:type" v="gard" />
	</node>
	<node changeset="58868279" id="5610774225" lat="58.0530583" lon="7.2845611" timestamp="2018-05-11T06:10:16Z" uid="3842253" user="NKA_import" version="1">
		<tag k="alt_name" v="Voiland" />
		<tag k="name" v="Vøyland" />
		<tag k="place" v="farm" />
		<tag k="ssr:stedsnr" v="728559" />
		<tag k="ssr:type" v="bruk" />
	</node>
	<node changeset="58868279" id="5610774226" lat="58.0960806" lon="7.2874361" timestamp="2018-05-11T06:10:17Z" uid="3842253" user="NKA_import" version="1">
		<tag k="alt_name" v="Giskedal" />
		<tag k="name" v="Geiskedal" />
		<tag k="place" v="farm" />
		<tag k="ssr:stedsnr" v="60576" />
		<tag k="ssr:type" v="gard" />
	</node>
	<node changeset="58868279" id="5610774227" lat="58.0876528" lon="7.19295" timestamp="2018-05-11T06:10:17Z" uid="3842253" user="NKA_import" version="1">
		<tag k="historic" v="shieling" />
		<tag k="name" v="Støle" />
		<tag k="place" v="farm" />
		<tag k="ssr:stedsnr" v="60593" />
		<tag k="ssr:type" v="gard" />
	</node>
	<node changeset="58868279" id="5610774228" lat="58.1822917" lon="7.4012556" timestamp="2018-05-11T06:10:17Z" uid="3842253" user="NKA_import" version="1">
		<tag k="name" v="Nygård" />
		<tag k="place" v="farm" />
		<tag k="ssr:stedsnr" v="728665" />
		<tag k="ssr:type" v="bruk" />
	</node>
	<node changeset="58868279" id="5610774229" lat="58.17385" lon="7.3818111" timestamp="2018-05-11T06:10:17Z" uid="3842253" user="NKA_import" version="1">
		<tag k="alt_name" v="Josal" />
		<tag k="name" v="Jorsal" />
		<tag k="place" v="farm" />
		<tag k="ssr:stedsnr" v="728668" />
		<tag k="ssr:type" v="gard" />
	</node>
	<node changeset="1953220" id="448888534" lat="58.0638269" lon="7.3763255" timestamp="2009-07-27T09:51:17Z" uid="1694" user="M E Menk" version="1" />
	<node changeset="58868279" id="5610774231" lat="58.1126389" lon="7.3679111" timestamp="2018-05-11T06:10:17Z" uid="3842253" user="NKA_import" version="1">
		<tag k="name" v="Slettan" />
		<tag k="place" v="farm" />
		<tag k="ssr:stedsnr" v="728863" />
		<tag k="ssr:type" v="gard" />
	</node>
	<node changeset="1953220" id="448888536" lat="58.0625767" lon="7.3727804" timestamp="2009-07-27T09:51:17Z" uid="1694" user="M E Menk" version="1" />
	<node changeset="58868279" id="5610774233" lat="58.173975" lon="7.3309611" timestamp="2018-05-11T06:10:17Z" uid="3842253" user="NKA_import" version="1">
		<tag k="alt_name" v="Stølsås" />
		<tag k="historic" v="shieling" />
		<tag k="name" v="Stølsåsen" />
		<tag k="place" v="farm" />
		<tag k="ssr:stedsnr" v="61472" />
		<tag k="ssr:type" v="gard" />
	</node>
	<node changeset="58868279" id="5610774234" lat="58.1734694" lon="7.3058833" timestamp="2018-05-11T06:10:17Z" uid="3842253" user="NKA_import" version="1">
		<tag k="alt_name" v="Risdal, store" />
		<tag k="name" v="Store Risdal" />
		<tag k="place" v="farm" />
		<tag k="ssr:stedsnr" v="61476" />
		<tag k="ssr:type" v="gard" />
	</node>
	<node changeset="58868279" id="5610774235" lat="58.1081389" lon="7.1893167" timestamp="2018-05-11T06:10:17Z" uid="3842253" user="NKA_import" version="1">
		<tag k="alt_name" v="Molandslien" />
		<tag k="name" v="Molandsli" />
		<tag k="place" v="farm" />
		<tag k="ssr:stedsnr" v="61486" />
		<tag k="ssr:type" v="gard" />
	</node>
	<node changeset="58868279" id="5610774236" lat="58.1245056" lon="7.3197278" timestamp="2018-05-11T06:10:18Z" uid="3842253" user="NKA_import" version="1">
		<tag k="alt_name" v="Birkestøl" />
		<tag k="historic" v="shieling" />
		<tag k="name" v="Birkjestøl" />
		<tag k="place" v="farm" />
		<tag k="ssr:stedsnr" v="61530" />
		<tag k="ssr:type" v="gard" />
	</node>
	<node changeset="58868279" id="5610774237" lat="58.0501806" lon="7.1328333" timestamp="2018-05-11T06:10:18Z" uid="3842253" user="NKA_import" version="1">
		<tag k="name" v="Haugtuna" />
		<tag k="place" v="farm" />
		<tag k="ssr:stedsnr" v="749094" />
		<tag k="ssr:type" v="bruk" />
	</node>
	<node changeset="58868279" id="5610774238" lat="58.0511778" lon="7.1305889" timestamp="2018-05-11T06:10:18Z" uid="3842253" user="NKA_import" version="1">
		<tag k="alt_name" v="Midtbø" />
		<tag k="name" v="Midbø" />
		<tag k="place" v="farm" />
		<tag k="ssr:stedsnr" v="61556" />
		<tag k="ssr:type" v="gard" />
	</node>
	<node changeset="58868279" id="5610774239" lat="57.9937056" lon="7.0698139" timestamp="2018-05-11T06:10:18Z" uid="3842253" user="NKA_import" version="1">
		<tag k="name" v="Mikkelsbakken" />
		<tag k="place" v="farm" />
		<tag k="ssr:stedsnr" v="567366" />
		<tag k="ssr:type" v="bruk" />
	</node>
	<node changeset="4845172" id="448888544" lat="58.0591831" lon="7.376071" timestamp="2010-05-29T18:16:14Z" uid="164049" user="kche" version="2" />
	<node changeset="58868279" id="5610774241" lat="58.1950583" lon="7.4258278" timestamp="2018-05-11T06:10:18Z" uid="3842253" user="NKA_import" version="1">
		<tag k="name" v="Hennestad" />
		<tag k="place" v="farm" />
		<tag k="ssr:stedsnr" v="61682" />
		<tag k="ssr:type" v="gard" />
	</node>
	<node changeset="58868279" id="5610774242" lat="58.1750306" lon="7.3473389" timestamp="2018-05-11T06:10:18Z" uid="3842253" user="NKA_import" version="1">
		<tag k="name" v="Løland" />
		<tag k="place" v="hamlet" />
		<tag k="ssr:stedsnr" v="61697" />
		<tag k="ssr:type" v="gard" />
	</node>
	<node changeset="58868279" id="5610774243" lat="58.1610806" lon="7.3464361" timestamp="2018-05-11T06:10:18Z" uid="3842253" user="NKA_import" version="1">
		<tag k="alt_name" v="Kleiven;Kleven" />
		<tag k="name" v="Kleiva" />
		<tag k="place" v="farm" />
		<tag k="ssr:stedsnr" v="61722" />
		<tag k="ssr:type" v="gard" />
	</node>
	<node changeset="1953220" id="448888548" lat="58.0595077" lon="7.3778295" timestamp="2009-07-27T09:51:17Z" uid="1694" user="M E Menk" version="1" />
	<node changeset="1953220" id="448888549" lat="58.0593941" lon="7.3792261" timestamp="2009-07-27T09:51:17Z" uid="1694" user="M E Menk" version="1" />
	<node changeset="1953220" id="448888550" lat="58.0587121" lon="7.380945" timestamp="2009-07-27T09:51:17Z" uid="1694" user="M E Menk" version="1" />
	<node changeset="1953220" id="448888551" lat="58.0596214" lon="7.3828787" timestamp="2009-07-27T09:51:17Z" uid="1694" user="M E Menk" version="1" />
	<node changeset="58868279" id="5610774248" lat="58.1596056" lon="7.4563556" timestamp="2018-05-11T06:10:19Z" uid="3842253" user="NKA_import" version="1">
		<tag k="name" v="Mydland" />
		<tag k="place" v="farm" />
		<tag k="ssr:stedsnr" v="61786" />
		<tag k="ssr:type" v="gard" />
	</node>
	<node changeset="58868279" id="5610774249" lat="58.0718361" lon="7.2837389" timestamp="2018-05-11T06:10:19Z" uid="3842253" user="NKA_import" version="1">
		<tag k="name" v="Haven" />
		<tag k="place" v="farm" />
		<tag k="ssr:stedsnr" v="932764" />
		<tag k="ssr:type" v="bruk" />
	</node>
	<node changeset="58868279" id="5610774250" lat="58.1509694" lon="7.2576611" timestamp="2018-05-11T06:10:19Z" uid="3842253" user="NKA_import" version="1">
		<tag k="name" v="Gåselia" />
		<tag k="place" v="locality" />
		<tag k="ssr:stedsnr" v="567855" />
		<tag k="ssr:type" v="gammelBosettingsplass" />
	</node>
	<node changeset="58868279" id="5610774251" lat="58.0674778" lon="7.2874917" timestamp="2018-05-11T06:10:19Z" uid="3842253" user="NKA_import" version="1">
		<tag k="name" v="Vollan" />
		<tag k="place" v="farm" />
		<tag k="ssr:stedsnr" v="932767" />
		<tag k="ssr:type" v="bruk" />
	</node>
	<node changeset="58868279" id="5610774252" lat="58.0740722" lon="7.2941945" timestamp="2018-05-11T06:10:19Z" uid="3842253" user="NKA_import" version="1">
		<tag k="name" v="Hovan" />
		<tag k="place" v="farm" />
		<tag k="ssr:stedsnr" v="932773" />
		<tag k="ssr:type" v="bruk" />
	</node>
	<node changeset="58868279" id="5610774253" lat="57.9972916" lon="7.0882027" timestamp="2018-05-11T06:10:19Z" uid="3842253" user="NKA_import" version="1">
		<tag k="name" v="Ytre Fjellskår" />
		<tag k="place" v="farm" />
		<tag k="ssr:stedsnr" v="950410" />
		<tag k="ssr:type" v="gard" />
	</node>
	<node changeset="58868279" id="5610774254" lat="58.2021306" lon="7.3417639" timestamp="2018-05-11T06:10:19Z" uid="3842253" user="NKA_import" version="1">
		<tag k="name" v="Kyrehagen" />
		<tag k="place" v="neighbourhood" />
		<tag k="ssr:stedsnr" v="950988" />
		<tag k="ssr:type" v="boligfelt" />
	</node>
	<node changeset="58868279" id="5610774255" lat="58.0778471" lon="7.3088065" timestamp="2018-05-11T06:10:19Z" uid="3842253" user="NKA_import" version="1">
		<tag k="name" v="Hestehaven" />
		<tag k="place" v="neighbourhood" />
		<tag k="ssr:stedsnr" v="950992" />
		<tag k="ssr:type" v="industriområde" />
	</node>
	<node changeset="58868279" id="5610774256" lat="58.0523479" lon="7.1892966" timestamp="2018-05-11T06:10:19Z" uid="3842253" user="NKA_import" version="1">
		<tag k="name" v="Vestre Reme" />
		<tag k="place" v="farm" />
		<tag k="ssr:stedsnr" v="952432" />
		<tag k="ssr:type" v="gard" />
	</node>
	<node changeset="58868279" id="5610774257" lat="58.0764611" lon="7.3308194" timestamp="2018-05-11T06:10:19Z" uid="3842253" user="NKA_import" version="1">
		<tag k="name" v="Lian" />
		<tag k="place" v="hamlet" />
		<tag k="ssr:stedsnr" v="568626" />
		<tag k="ssr:type" v="grend" />
	</node>
	<node changeset="58868279" id="5610774258" lat="58.0737139" lon="7.3455167" timestamp="2018-05-11T06:10:19Z" uid="3842253" user="NKA_import" version="1">
		<tag k="name" v="Lysnes" />
		<tag k="place" v="farm" />
		<tag k="ssr:stedsnr" v="568628" />
		<tag k="ssr:type" v="bruk" />
	</node>
	<node changeset="58868279" id="5610774259" lat="58.0650389" lon="7.3714917" timestamp="2018-05-11T06:10:20Z" uid="3842253" user="NKA_import" version="1">
		<tag k="name" v="Hegrestad" />
		<tag k="place" v="locality" />
		<tag k="ssr:stedsnr" v="265756" />
		<tag k="ssr:type" v="gammelBosettingsplass" />
	</node>
	<node changeset="58868279" id="5610774260" lat="58.0913099" lon="7.3948141" timestamp="2018-05-11T06:10:20Z" uid="3842253" user="NKA_import" version="1">
		<tag k="name" v="Øvre Eikeland" />
		<tag k="place" v="farm" />
		<tag k="ssr:stedsnr" v="979194" />
		<tag k="ssr:type" v="gard" />
	</node>
	<node changeset="58868279" id="5610774261" lat="58.0698823" lon="7.3214976" timestamp="2018-05-11T06:10:20Z" uid="3842253" user="NKA_import" version="1">
		<tag k="name" v="Indre Lian" />
		<tag k="place" v="farm" />
		<tag k="ssr:stedsnr" v="979200" />
		<tag k="ssr:type" v="gard" />
	</node>
	<node changeset="58868279" id="5610774262" lat="58.0623717" lon="7.3241172" timestamp="2018-05-11T06:10:20Z" uid="3842253" user="NKA_import" version="1">
		<tag k="name" v="Ponsen" />
		<tag k="place" v="farm" />
		<tag k="ssr:stedsnr" v="979201" />
		<tag k="ssr:type" v="gard" />
	</node>
	<node changeset="58868279" id="5610774263" lat="58.0550399" lon="7.3272594" timestamp="2018-05-11T06:10:20Z" uid="3842253" user="NKA_import" version="1">
		<tag k="name" v="Engehaven" />
		<tag k="place" v="farm" />
		<tag k="ssr:stedsnr" v="979202" />
		<tag k="ssr:type" v="gard" />
	</node>
	<node changeset="58868279" id="5610774264" lat="58.0349176" lon="7.3134678" timestamp="2018-05-11T06:10:20Z" uid="3842253" user="NKA_import" version="1">
		<tag k="name" v="Ytre Ramsdalen" />
		<tag k="place" v="farm" />
		<tag k="ssr:stedsnr" v="979204" />
		<tag k="ssr:type" v="gard" />
	</node>
	<node changeset="58868279" id="5610774265" lat="58.0358384" lon="7.3100538" timestamp="2018-05-11T06:10:20Z" uid="3842253" user="NKA_import" version="1">
		<tag k="name" v="Kvåfjordneset" />
		<tag k="place" v="farm" />
		<tag k="ssr:stedsnr" v="979205" />
		<tag k="ssr:type" v="gard" />
	</node>
	<node changeset="58868279" id="5610774266" lat="58.0372769" lon="7.2616908" timestamp="2018-05-11T06:10:20Z" uid="3842253" user="NKA_import" version="1">
		<tag k="name" v="Underøy" />
		<tag k="place" v="farm" />
		<tag k="ssr:stedsnr" v="979225" />
		<tag k="ssr:type" v="gard" />
	</node>
	<node changeset="58868279" id="5610774267" lat="58.0842649" lon="7.298579" timestamp="2018-05-11T06:10:20Z" uid="3842253" user="NKA_import" version="1">
		<tag k="name" v="Øvre Vigeland" />
		<tag k="place" v="neighbourhood" />
		<tag k="ssr:stedsnr" v="979241" />
		<tag k="ssr:type" v="gard" />
	</node>
	<node changeset="58868279" id="5610774268" lat="58.0897128" lon="7.2875183" timestamp="2018-05-11T06:10:20Z" uid="3842253" user="NKA_import" version="1">
		<tag k="name" v="Nedre Vigeland" />
		<tag k="place" v="farm" />
		<tag k="ssr:stedsnr" v="979243" />
		<tag k="ssr:type" v="gard" />
	</node>
	<node changeset="58868279" id="5610774269" lat="58.0821649" lon="7.3092301" timestamp="2018-05-11T06:10:20Z" uid="3842253" user="NKA_import" version="1">
		<tag k="name" v="Valle prestegård" />
		<tag k="place" v="farm" />
		<tag k="ssr:stedsnr" v="979244" />
		<tag k="ssr:type" v="gard" />
	</node>
	<node changeset="58868279" id="5610774270" lat="58.1327778" lon="7.2970361" timestamp="2018-05-11T06:10:20Z" uid="3842253" user="NKA_import" version="1">
		<tag k="name" v="Hella" />
		<tag k="place" v="locality" />
		<tag k="ssr:stedsnr" v="750804" />
		<tag k="ssr:type" v="eiendom" />
	</node>
	<node changeset="58868279" id="5610774271" lat="58.1457559" lon="7.3483371" timestamp="2018-05-11T06:10:21Z" uid="3842253" user="NKA_import" version="1">
		<tag k="name" v="Hageskog" />
		<tag k="place" v="farm" />
		<tag k="ssr:stedsnr" v="979257" />
		<tag k="ssr:type" v="gard" />
	</node>
	<node changeset="58868279" id="5610774272" lat="58.1414539" lon="7.3289208" timestamp="2018-05-11T06:10:21Z" uid="3842253" user="NKA_import" version="1">
		<tag k="name" v="Grisledal ved vannet" />
		<tag k="place" v="farm" />
		<tag k="ssr:stedsnr" v="979258" />
		<tag k="ssr:type" v="gard" />
	</node>
	<node changeset="58868279" id="5610774273" lat="58.135593" lon="7.3342005" timestamp="2018-05-11T06:10:21Z" uid="3842253" user="NKA_import" version="1">
		<tag k="name" v="Hage-Ødegården" />
		<tag k="place" v="farm" />
		<tag k="ssr:stedsnr" v="979261" />
		<tag k="ssr:type" v="gard" />
	</node>
	<node changeset="58868279" id="5610774274" lat="58.1388318" lon="7.3154944" timestamp="2018-05-11T06:10:21Z" uid="3842253" user="NKA_import" version="1">
		<tag k="name" v="Lille Grisledal" />
		<tag k="place" v="farm" />
		<tag k="ssr:stedsnr" v="979263" />
		<tag k="ssr:type" v="gard" />
	</node>
	<node changeset="58868279" id="5610774275" lat="58.1581833" lon="7.2632364" timestamp="2018-05-11T06:10:21Z" uid="3842253" user="NKA_import" version="1">
		<tag k="name" v="Li" />
		<tag k="place" v="farm" />
		<tag k="ssr:stedsnr" v="979264" />
		<tag k="ssr:type" v="gard" />
	</node>
	<node changeset="58868279" id="5610774276" lat="58.0322722" lon="7.2805472" timestamp="2018-05-11T06:10:21Z" uid="3842253" user="NKA_import" version="1">
		<tag k="name" v="Vestgården" />
		<tag k="place" v="farm" />
		<tag k="ssr:stedsnr" v="568959" />
		<tag k="ssr:type" v="bruk" />
	</node>
	<node changeset="67601953" id="4706692869" lat="58.0568004" lon="7.3640934" timestamp="2019-02-27T01:28:29Z" uid="103253" user="gormur" version="2" />
	<node changeset="67601953" id="4706692870" lat="58.0567819" lon="7.3639753" timestamp="2019-02-27T01:28:29Z" uid="103253" user="gormur" version="2" />
	<node changeset="58868279" id="5610774279" lat="58.029662" lon="7.2249261" timestamp="2018-05-11T06:10:21Z" uid="3842253" user="NKA_import" version="1">
		<tag k="name" v="Svinø" />
		<tag k="place" v="farm" />
		<tag k="ssr:stedsnr" v="979278" />
		<tag k="ssr:type" v="gard" />
	</node>
	<node changeset="67601953" id="4706692872" lat="58.0567211" lon="7.3634417" timestamp="2019-02-27T01:28:29Z" uid="103253" user="gormur" version="2" />
	<node changeset="67601953" id="4706692873" lat="58.0566698" lon="7.3635618" timestamp="2019-02-27T01:28:29Z" uid="103253" user="gormur" version="2" />
	<node changeset="58868279" id="5610774282" lat="58.0509908" lon="7.1991874" timestamp="2018-05-11T06:10:22Z" uid="3842253" user="NKA_import" version="1">
		<tag k="name" v="Nedre Svennevik" />
		<tag k="place" v="farm" />
		<tag k="ssr:stedsnr" v="979281" />
		<tag k="ssr:type" v="gard" />
	</node>
	<node changeset="58868279" id="5610774283" lat="58.0372309" lon="7.1025439" timestamp="2018-05-11T06:10:22Z" uid="3842253" user="NKA_import" version="1">
		<tag k="name" v="Indre Ramsland" />
		<tag k="place" v="farm" />
		<tag k="ssr:stedsnr" v="979323" />
		<tag k="ssr:type" v="gard" />
	</node>
	<node changeset="58868279" id="5610774284" lat="57.9813253" lon="7.2087452" timestamp="2018-05-11T06:10:22Z" uid="3842253" user="NKA_import" version="1">
		<tag k="name" v="Utvåre" />
		<tag k="place" v="farm" />
		<tag k="ssr:stedsnr" v="979312" />
		<tag k="ssr:type" v="gard" />
	</node>
	<node changeset="58868279" id="5610774285" lat="58.034784" lon="7.175066" timestamp="2018-05-11T06:10:22Z" uid="3842253" user="NKA_import" version="1">
		<tag k="name" v="Vestre Imsa" />
		<tag k="place" v="farm" />
		<tag k="ssr:stedsnr" v="979315" />
		<tag k="ssr:type" v="gard" />
	</node>
	<node changeset="58868279" id="5610774286" lat="58.0346608" lon="7.1855116" timestamp="2018-05-11T06:10:22Z" uid="3842253" user="NKA_import" version="1">
		<tag k="name" v="Østre Imsa" />
		<tag k="place" v="farm" />
		<tag k="ssr:stedsnr" v="979317" />
		<tag k="ssr:type" v="gard" />
	</node>
	<node changeset="58868279" id="5610774287" lat="58.1243715" lon="7.3463306" timestamp="2018-05-11T06:10:22Z" uid="3842253" user="NKA_import" version="1">
		<tag k="name" v="Melhus" />
		<tag k="place" v="hamlet" />
		<tag k="ssr:stedsnr" v="596591" />
		<tag k="ssr:type" v="bruk" />
	</node>
	<node changeset="58868279" id="5610774288" lat="58.0213319" lon="7.0681619" timestamp="2018-05-11T06:10:22Z" uid="3842253" user="NKA_import" version="1">
		<tag k="name" v="Ytre Jørenstad" />
		<tag k="place" v="farm" />
		<tag k="ssr:stedsnr" v="979326" />
		<tag k="ssr:type" v="gard" />
	</node>
	<node changeset="58868279" id="5610774289" lat="58.2022167" lon="7.2873139" timestamp="2018-05-11T06:10:22Z" uid="3842253" user="NKA_import" version="1">
		<tag k="alt_name" v="Trondstad" />
		<tag k="name" v="Tronstad" />
		<tag k="place" v="farm" />
		<tag k="ssr:stedsnr" v="425447" />
		<tag k="ssr:type" v="gard" />
	</node>
	<node changeset="58868279" id="5610774290" lat="58.0251796" lon="7.0762742" timestamp="2018-05-11T06:10:22Z" uid="3842253" user="NKA_import" version="1">
		<tag k="name" v="Indre Jørenstad" />
		<tag k="place" v="farm" />
		<tag k="ssr:stedsnr" v="979327" />
		<tag k="ssr:type" v="gard" />
	</node>
	<node changeset="58868279" id="5610774291" lat="58.0212193" lon="7.0397011" timestamp="2018-05-11T06:10:22Z" uid="3842253" user="NKA_import" version="1">
		<tag k="name" v="Launes med sandviken" />
		<tag k="place" v="farm" />
		<tag k="ssr:stedsnr" v="979328" />
		<tag k="ssr:type" v="gard" />
	</node>
	<node changeset="58868279" id="5610774292" lat="58.0667593" lon="7.1331294" timestamp="2018-05-11T06:10:22Z" uid="3842253" user="NKA_import" version="1">
		<tag k="name" v="Lindalen" />
		<tag k="place" v="hamlet" />
		<tag k="ssr:stedsnr" v="979329" />
		<tag k="ssr:type" v="gard" />
	</node>
	<node changeset="58868279" id="5610774293" lat="58.0634472" lon="7.1869139" timestamp="2018-05-11T06:10:22Z" uid="3842253" user="NKA_import" version="1">
		<tag k="historic" v="shieling" />
		<tag k="name" v="Håvestøl" />
		<tag k="place" v="farm" />
		<tag k="ssr:stedsnr" v="425546" />
		<tag k="ssr:type" v="gard" />
	</node>
	<node changeset="58868279" id="5610774294" lat="58.2289168" lon="7.3788797" timestamp="2018-05-11T06:10:23Z" uid="3842253" user="NKA_import" version="1">
		<tag k="name" v="Naverdalen" />
		<tag k="place" v="farm" />
		<tag k="ssr:stedsnr" v="979332" />
		<tag k="ssr:type" v="gard" />
	</node>
	<node changeset="58868279" id="5610774295" lat="58.0678886" lon="7.3363637" timestamp="2018-05-11T06:10:23Z" uid="3842253" user="NKA_import" version="1">
		<tag k="name" v="Fasseland" />
		<tag k="place" v="hamlet" />
		<tag k="ssr:stedsnr" v="425551" />
		<tag k="ssr:type" v="gard" />
	</node>
	<node changeset="58868279" id="5610774296" lat="58.0597139" lon="7.2204306" timestamp="2018-05-11T06:10:23Z" uid="3842253" user="NKA_import" version="1">
		<tag k="alt_name" v="Lysestøl" />
		<tag k="historic" v="shieling" />
		<tag k="name" v="Ljosestøl" />
		<tag k="place" v="farm" />
		<tag k="ssr:stedsnr" v="425555" />
		<tag k="ssr:type" v="gard" />
	</node>
	<node changeset="58868279" id="5610774297" lat="58.2029262" lon="7.376182" timestamp="2018-05-11T06:10:23Z" uid="3842253" user="NKA_import" version="1">
		<tag k="name" v="Floge-Seland" />
		<tag k="place" v="farm" />
		<tag k="ssr:stedsnr" v="979338" />
		<tag k="ssr:type" v="gard" />
	</node>
	<node changeset="58868279" id="5610774298" lat="58.16687" lon="7.4088377" timestamp="2018-05-11T06:10:23Z" uid="3842253" user="NKA_import" version="1">
		<tag k="name" v="Østre Tjomsland" />
		<tag k="place" v="farm" />
		<tag k="ssr:stedsnr" v="979339" />
		<tag k="ssr:type" v="gard" />
	</node>
	<node changeset="58868279" id="5610774299" lat="58.0500278" lon="7.26455" timestamp="2018-05-11T06:10:23Z" uid="3842253" user="NKA_import" version="1">
		<tag k="name" v="Mørkesdal" />
		<tag k="place" v="farm" />
		<tag k="ssr:stedsnr" v="425573" />
		<tag k="ssr:type" v="bruk" />
	</node>
	<node changeset="58868279" id="5610774300" lat="58.0743389" lon="7.2802055" timestamp="2018-05-11T06:10:23Z" uid="3842253" user="NKA_import" version="1">
		<tag k="name" v="Haran" />
		<tag k="place" v="farm" />
		<tag k="ssr:stedsnr" v="83808" />
		<tag k="ssr:type" v="bruk" />
	</node>
	<node changeset="58868279" id="5610774301" lat="58.1687957" lon="7.3995917" timestamp="2018-05-11T06:10:23Z" uid="3842253" user="NKA_import" version="1">
		<tag k="name" v="Vestre Tjomsland" />
		<tag k="place" v="farm" />
		<tag k="ssr:stedsnr" v="979340" />
		<tag k="ssr:type" v="gard" />
	</node>
	<node changeset="58868279" id="5610774302" lat="58.092025" lon="7.2859" timestamp="2018-05-11T06:10:23Z" uid="3842253" user="NKA_import" version="1">
		<tag k="name" v="Brandsnes" />
		<tag k="place" v="farm" />
		<tag k="ssr:stedsnr" v="425577" />
		<tag k="ssr:type" v="bruk" />
	</node>
	<node changeset="58868279" id="5610774303" lat="58.1650383" lon="7.3519937" timestamp="2018-05-11T06:10:23Z" uid="3842253" user="NKA_import" version="1">
		<tag k="name" v="Kleivsfjellet" />
		<tag k="place" v="farm" />
		<tag k="ssr:stedsnr" v="979341" />
		<tag k="ssr:type" v="gard" />
	</node>
	<node changeset="58868279" id="5610774304" lat="57.9891575" lon="7.0615416" timestamp="2018-05-11T06:10:23Z" uid="3842253" user="NKA_import" version="1">
		<tag k="alt_name" v="Våga, nedre;Nedre Våga" />
		<tag k="name" v="Nedre Våge" />
		<tag k="place" v="farm" />
		<tag k="ssr:stedsnr" v="606007" />
		<tag k="ssr:type" v="gard" />
	</node>
	<node changeset="58868279" id="5610774305" lat="58.1260833" lon="7.2859361" timestamp="2018-05-11T06:10:24Z" uid="3842253" user="NKA_import" version="1">
		<tag k="name" v="Gamleøygard" />
		<tag k="place" v="locality" />
		<tag k="ssr:stedsnr" v="83826" />
		<tag k="ssr:type" v="gammelBosettingsplass" />
	</node>
	<node changeset="58868279" id="5610774306" lat="58.1805606" lon="7.360299" timestamp="2018-05-11T06:10:24Z" uid="3842253" user="NKA_import" version="1">
		<tag k="name" v="Hægebostad" />
		<tag k="place" v="farm" />
		<tag k="ssr:stedsnr" v="979342" />
		<tag k="ssr:type" v="gard" />
	</node>
	<node changeset="58868279" id="5610774307" lat="58.2019929" lon="7.33336" timestamp="2018-05-11T06:10:24Z" uid="3842253" user="NKA_import" version="1">
		<tag k="name" v="Vigmostad prestegård" />
		<tag k="place" v="farm" />
		<tag k="ssr:stedsnr" v="979343" />
		<tag k="ssr:type" v="gard" />
	</node>
	<node changeset="58868279" id="5610774308" lat="58.220575" lon="7.3272528" timestamp="2018-05-11T06:10:24Z" uid="3842253" user="NKA_import" version="1">
		<tag k="name" v="Akland" />
		<tag k="place" v="farm" />
		<tag k="ssr:stedsnr" v="606395" />
		<tag k="ssr:type" v="gard" />
	</node>
	<node changeset="58868279" id="5610774309" lat="58.2034092" lon="7.3346491" timestamp="2018-05-11T06:10:24Z" uid="3842253" user="NKA_import" version="1">
		<tag k="name" v="Øvre Vigmostad" />
		<tag k="place" v="farm" />
		<tag k="ssr:stedsnr" v="979344" />
		<tag k="ssr:type" v="gard" />
	</node>
	<node changeset="58868279" id="5610774310" lat="58.2151111" lon="7.33125" timestamp="2018-05-11T06:10:24Z" uid="3842253" user="NKA_import" version="1">
		<tag k="name" v="Lian" />
		<tag k="place" v="farm" />
		<tag k="ssr:stedsnr" v="606398" />
		<tag k="ssr:type" v="gard" />
	</node>
	<node changeset="58868279" id="5610774311" lat="58.2168967" lon="7.3425719" timestamp="2018-05-11T06:10:24Z" uid="3842253" user="NKA_import" version="1">
		<tag k="name" v="Nedre Tryland" />
		<tag k="place" v="farm" />
		<tag k="ssr:stedsnr" v="979345" />
		<tag k="ssr:type" v="gard" />
	</node>
	<node changeset="58868279" id="5610774312" lat="58.2216603" lon="7.3360414" timestamp="2018-05-11T06:10:24Z" uid="3842253" user="NKA_import" version="1">
		<tag k="name" v="Øvre Tryland" />
		<tag k="place" v="farm" />
		<tag k="ssr:stedsnr" v="979348" />
		<tag k="ssr:type" v="gard" />
	</node>
	<node changeset="58868279" id="5610774313" lat="58.1868778" lon="7.3592667" timestamp="2018-05-11T06:10:24Z" uid="3842253" user="NKA_import" version="1">
		<tag k="loc_name" v="Hægebostad" />
		<tag k="name" v="Hægbostad" />
		<tag k="place" v="hamlet" />
		<tag k="ssr:stedsnr" v="425698" />
		<tag k="ssr:type" v="bruk" />
	</node>
	<node changeset="58868279" id="5610774314" lat="58.2024778" lon="7.3959722" timestamp="2018-05-11T06:10:24Z" uid="3842253" user="NKA_import" version="1">
		<tag k="alt_name" v="Vasland" />
		<tag k="name" v="Vassland" />
		<tag k="place" v="farm" />
		<tag k="ssr:stedsnr" v="425715" />
		<tag k="ssr:type" v="gard" />
	</node>
	<node changeset="58868279" id="5610774315" lat="58.1178028" lon="7.1894083" timestamp="2018-05-11T06:10:24Z" uid="3842253" user="NKA_import" version="1">
		<tag k="name" v="Sandnes" />
		<tag k="place" v="farm" />
		<tag k="ssr:stedsnr" v="606496" />
		<tag k="ssr:type" v="gard" />
	</node>
	<node changeset="58868279" id="5610774316" lat="58.1697569" lon="7.3059729" timestamp="2018-05-11T06:10:24Z" uid="3842253" user="NKA_import" version="1">
		<tag k="name" v="Risdal" />
		<tag k="place" v="hamlet" />
		<tag k="ssr:stedsnr" v="979350" />
		<tag k="ssr:type" v="navnegard" />
	</node>
	<node changeset="58868279" id="5610774317" lat="58.059275" lon="7.2322722" timestamp="2018-05-11T06:10:25Z" uid="3842253" user="NKA_import" version="1">
		<tag k="name" v="Lone" />
		<tag k="place" v="hamlet" />
		<tag k="ssr:stedsnr" v="786512" />
		<tag k="ssr:type" v="bruk" />
	</node>
	<node changeset="58868279" id="5610774318" lat="58.105225" lon="7.2808528" timestamp="2018-05-11T06:10:25Z" uid="3842253" user="NKA_import" version="1">
		<tag k="alt_name" v="Solhelleren" />
		<tag k="name" v="Solhellaren" />
		<tag k="place" v="farm" />
		<tag k="ssr:stedsnr" v="606502" />
		<tag k="ssr:type" v="gard" />
	</node>
	<node changeset="58868279" id="5610774319" lat="58.1591329" lon="7.3631162" timestamp="2018-05-11T06:10:25Z" uid="3842253" user="NKA_import" version="1">
		<tag k="name" v="Spilling" />
		<tag k="place" v="hamlet" />
		<tag k="ssr:stedsnr" v="425822" />
		<tag k="ssr:type" v="gard" />
	</node>
	<node changeset="58868279" id="5610774320" lat="58.0910972" lon="7.1938944" timestamp="2018-05-11T06:10:25Z" uid="3842253" user="NKA_import" version="1">
		<tag k="name" v="Grennan" />
		<tag k="place" v="farm" />
		<tag k="ssr:stedsnr" v="83902" />
		<tag k="ssr:type" v="gard" />
	</node>
	<node changeset="58868279" id="559736634" lat="58.0959817" lon="7.266243" timestamp="2018-05-11T06:10:31Z" uid="3842253" user="NKA_import" version="2">
		<tag k="name" v="Fardal" />
		<tag k="place" v="hamlet" />
		<tag k="ssr:stedsnr" v="728519" />
		<tag k="ssr:type" v="gard" />
	</node>
	<node changeset="58868279" id="559736635" lat="58.1111689" lon="7.2111344" timestamp="2018-05-11T06:10:31Z" uid="3842253" user="NKA_import" version="2">
		<tag k="name" v="Osestad" />
		<tag k="place" v="farm" />
		<tag k="ssr:stedsnr" v="243518" />
		<tag k="ssr:type" v="gard" />
	</node>
	<node changeset="58868279" id="559736636" lat="58.1069758" lon="7.2262817" timestamp="2018-05-11T06:10:31Z" uid="3842253" user="NKA_import" version="2">
		<tag k="alt_name" v="Vestre Utland" />
		<tag k="name" v="Udland" />
		<tag k="place" v="hamlet" />
		<tag k="ssr:stedsnr" v="850516" />
		<tag k="ssr:type" v="gard" />
	</node>
	<node changeset="58868279" id="559736637" lat="58.1026741" lon="7.2475278" timestamp="2018-05-11T06:10:31Z" uid="3842253" user="NKA_import" version="2">
		<tag k="name" v="Steinsland" />
		<tag k="place" v="hamlet" />
		<tag k="ssr:stedsnr" v="425507" />
		<tag k="ssr:type" v="gard" />
	</node>
	<node changeset="58868279" id="5610774421" lat="58.0990083" lon="7.1899278" timestamp="2018-05-11T06:10:25Z" uid="3842253" user="NKA_import" version="1">
		<tag k="name" v="Moland" />
		<tag k="place" v="hamlet" />
		<tag k="ssr:stedsnr" v="606510" />
		<tag k="ssr:type" v="gard" />
	</node>
	<node changeset="58868279" id="5610774422" lat="58.0364184" lon="7.17871" timestamp="2018-05-11T06:10:25Z" uid="3842253" user="NKA_import" version="1">
		<tag k="name" v="Imsa" />
		<tag k="place" v="hamlet" />
		<tag k="ssr:stedsnr" v="979356" />
		<tag k="ssr:type" v="navnegard" />
	</node>
	<node changeset="58868279" id="5610774423" lat="58.0609861" lon="7.2086861" timestamp="2018-05-11T06:10:25Z" uid="3842253" user="NKA_import" version="1">
		<tag k="name" v="Feland" />
		<tag k="place" v="farm" />
		<tag k="ssr:stedsnr" v="788554" />
		<tag k="ssr:type" v="gard" />
	</node>
	<node changeset="58868279" id="5610774424" lat="58.0963028" lon="7.1934278" timestamp="2018-05-11T06:10:25Z" uid="3842253" user="NKA_import" version="1">
		<tag k="alt_name" v="Molandstveida;Molandstveiten" />
		<tag k="name" v="Molandstveit" />
		<tag k="place" v="farm" />
		<tag k="ssr:stedsnr" v="606525" />
		<tag k="ssr:type" v="gard" />
	</node>
	<node changeset="58868279" id="5610774425" lat="58.0854083" lon="7.1897028" timestamp="2018-05-11T06:10:25Z" uid="3842253" user="NKA_import" version="1">
		<tag k="name" v="Hægeland" />
		<tag k="place" v="farm" />
		<tag k="ssr:stedsnr" v="788596" />
		<tag k="ssr:type" v="gard" />
	</node>
	<node changeset="58868279" id="5610774426" lat="58.1456083" lon="7.331575" timestamp="2018-05-11T06:10:25Z" uid="3842253" user="NKA_import" version="1">
		<tag k="alt_name" v="Holen" />
		<tag k="name" v="Hola" />
		<tag k="place" v="farm" />
		<tag k="ssr:stedsnr" v="606526" />
		<tag k="ssr:type" v="gard" />
	</node>
	<node changeset="58868279" id="5610774427" lat="58.1429556" lon="7.3161028" timestamp="2018-05-11T06:10:26Z" uid="3842253" user="NKA_import" version="1">
		<tag k="alt_name" v="Vestre Grisledal" />
		<tag k="name" v="Grisledal" />
		<tag k="place" v="hamlet" />
		<tag k="ssr:stedsnr" v="606534" />
		<tag k="ssr:type" v="gard" />
	</node>
	<node changeset="71744593" id="5610774428" lat="58.0528611" lon="7.1029889" timestamp="2019-06-29T21:52:04Z" uid="8796119" user="chrisklung" version="2">
		<tag k="name" v="Grønsfjord" />
		<tag k="place" v="hamlet" />
		<tag k="ssr:stedsnr" v="606568" />
		<tag k="ssr:type" v="gard" />
	</node>
	<node changeset="58868279" id="5610774429" lat="58.0934" lon="7.1857528" timestamp="2018-05-11T06:10:26Z" uid="3842253" user="NKA_import" version="1">
		<tag k="name" v="Tjorteland" />
		<tag k="place" v="farm" />
		<tag k="ssr:stedsnr" v="606583" />
		<tag k="ssr:type" v="gard" />
	</node>
	<node changeset="58868279" id="5610774430" lat="58.0503694" lon="7.1936861" timestamp="2018-05-11T06:10:26Z" uid="3842253" user="NKA_import" version="1">
		<tag k="name" v="Østre Reme" />
		<tag k="place" v="farm" />
		<tag k="ssr:stedsnr" v="788922" />
		<tag k="ssr:type" v="bruk" />
	</node>
	<node changeset="58868279" id="5610774431" lat="58.1172778" lon="7.2496694" timestamp="2018-05-11T06:10:26Z" uid="3842253" user="NKA_import" version="1">
		<tag k="name" v="Banken" />
		<tag k="place" v="farm" />
		<tag k="ssr:stedsnr" v="789501" />
		<tag k="ssr:type" v="gard" />
	</node>
	<node changeset="58868279" id="5610774432" lat="58.1055525" lon="7.3429097" timestamp="2018-05-11T06:10:26Z" uid="3842253" user="NKA_import" version="1">
		<tag k="name" v="Skofteland" />
		<tag k="place" v="hamlet" />
		<tag k="ssr:stedsnr" v="979364" />
		<tag k="ssr:type" v="navnegard" />
	</node>
	<node changeset="58868279" id="5610774433" lat="58.1185611" lon="7.2721806" timestamp="2018-05-11T06:10:26Z" uid="3842253" user="NKA_import" version="1">
		<tag k="alt_name" v="Helland" />
		<tag k="name" v="Heddan" />
		<tag k="place" v="farm" />
		<tag k="ssr:stedsnr" v="789502" />
		<tag k="ssr:type" v="gard" />
	</node>
	<node changeset="58868279" id="5610774434" lat="58.1223639" lon="7.2280361" timestamp="2018-05-11T06:10:26Z" uid="3842253" user="NKA_import" version="1">
		<tag k="name" v="Bjelland" />
		<tag k="place" v="farm" />
		<tag k="ssr:stedsnr" v="789508" />
		<tag k="ssr:type" v="gard" />
	</node>
	<node changeset="58868279" id="5610774435" lat="58.1673097" lon="7.4036011" timestamp="2018-05-11T06:10:26Z" uid="3842253" user="NKA_import" version="1">
		<tag k="name" v="Tjomsland" />
		<tag k="place" v="hamlet" />
		<tag k="ssr:stedsnr" v="606797" />
		<tag k="ssr:type" v="navnegard" />
	</node>
	<node changeset="58868279" id="5610774436" lat="58.0878333" lon="7.3150639" timestamp="2018-05-11T06:10:26Z" uid="3842253" user="NKA_import" version="1">
		<tag k="name" v="Vallemoen øst" />
		<tag k="place" v="neighbourhood" />
		<tag k="ssr:stedsnr" v="101989" />
		<tag k="ssr:type" v="boligfelt" />
	</node>
	<node changeset="58868279" id="5610774437" lat="58.1261639" lon="7.2659722" timestamp="2018-05-11T06:10:26Z" uid="3842253" user="NKA_import" version="1">
		<tag k="alt_name" v="Stiland, vestre;Stiland" />
		<tag k="name" v="Vestre Stiland" />
		<tag k="place" v="farm" />
		<tag k="ssr:stedsnr" v="789561" />
		<tag k="ssr:type" v="bruk" />
	</node>
	<node changeset="58868279" id="5610774438" lat="58.08955" lon="7.2163194" timestamp="2018-05-11T06:10:27Z" uid="3842253" user="NKA_import" version="1">
		<tag k="name" v="Rymteland" />
		<tag k="place" v="farm" />
		<tag k="ssr:stedsnr" v="789585" />
		<tag k="ssr:type" v="gard" />
	</node>
	<node changeset="58868279" id="5610774439" lat="58.0675" lon="7.3490889" timestamp="2018-05-11T06:10:27Z" uid="3842253" user="NKA_import" version="1">
		<tag k="alt_name" v="Fasselandsnes" />
		<tag k="name" v="Neset" />
		<tag k="place" v="farm" />
		<tag k="ssr:stedsnr" v="606909" />
		<tag k="ssr:type" v="bruk" />
	</node>
	<node changeset="58868279" id="5610774440" lat="58.0279528" lon="7.0811778" timestamp="2018-05-11T06:10:27Z" uid="3842253" user="NKA_import" version="1">
		<tag k="name" v="Dammen" />
		<tag k="place" v="farm" />
		<tag k="ssr:stedsnr" v="789665" />
		<tag k="ssr:type" v="bruk" />
	</node>
	<node changeset="58868279" id="5610774441" lat="58.0676889" lon="7.3567778" timestamp="2018-05-11T06:10:27Z" uid="3842253" user="NKA_import" version="1">
		<tag k="alt_name" v="Bue" />
		<tag k="name" v="Bua" />
		<tag k="place" v="farm" />
		<tag k="ssr:stedsnr" v="606910" />
		<tag k="ssr:type" v="gard" />
	</node>
	<node changeset="58868279" id="5610774442" lat="58.2164708" lon="7.3357363" timestamp="2018-05-11T06:10:27Z" uid="3842253" user="NKA_import" version="1">
		<tag k="name" v="Tryland" />
		<tag k="place" v="hamlet" />
		<tag k="ssr:stedsnr" v="303420" />
		<tag k="ssr:type" v="navnegard" />
	</node>
	<node changeset="58868279" id="5610774443" lat="58.2190917" lon="7.3710917" timestamp="2018-05-11T06:10:27Z" uid="3842253" user="NKA_import" version="1">
		<tag k="alt_name" v="Augland" />
		<tag k="name" v="Aukland" />
		<tag k="place" v="farm" />
		<tag k="ssr:stedsnr" v="789731" />
		<tag k="ssr:type" v="gard" />
	</node>
	<node changeset="58868279" id="5610774444" lat="58.1048194" lon="7.3000833" timestamp="2018-05-11T06:10:27Z" uid="3842253" user="NKA_import" version="1">
		<tag k="name" v="Landås" />
		<tag k="place" v="farm" />
		<tag k="ssr:stedsnr" v="121529" />
		<tag k="ssr:type" v="gard" />
	</node>
	<node changeset="58868279" id="5610774445" lat="58.1071306" lon="7.31505" timestamp="2018-05-11T06:10:27Z" uid="3842253" user="NKA_import" version="1">
		<tag k="name" v="Bakken" />
		<tag k="place" v="farm" />
		<tag k="ssr:stedsnr" v="303514" />
		<tag k="ssr:type" v="bruk" />
	</node>
	<node changeset="58868279" id="5610774446" lat="58.1463778" lon="7.4162389" timestamp="2018-05-11T06:10:27Z" uid="3842253" user="NKA_import" version="1">
		<tag k="name" v="Røksland" />
		<tag k="place" v="farm" />
		<tag k="ssr:stedsnr" v="789772" />
		<tag k="ssr:type" v="gard" />
	</node>
	<node changeset="58868279" id="5610774447" lat="58.0489977" lon="7.2862713" timestamp="2018-05-11T06:10:27Z" uid="3842253" user="NKA_import" version="1">
		<tag k="alt_name" v="Eikeland;Egeland;Ytre Eigeland" />
		<tag k="name" v="Eigeland" />
		<tag k="place" v="hamlet" />
		<tag k="ssr:stedsnr" v="607588" />
		<tag k="ssr:type" v="grend" />
	</node>
	<node changeset="58868279" id="5610774448" lat="58.0506306" lon="7.140875" timestamp="2018-05-11T06:10:28Z" uid="3842253" user="NKA_import" version="1">
		<tag k="name" v="Stokke" />
		<tag k="place" v="farm" />
		<tag k="ssr:stedsnr" v="121574" />
		<tag k="ssr:type" v="gard" />
	</node>
	<node changeset="58868279" id="5610774449" lat="58.0523722" lon="7.2156278" timestamp="2018-05-11T06:10:28Z" uid="3842253" user="NKA_import" version="1">
		<tag k="alt_name" v="Opshus, l;Opshus lille" />
		<tag k="name" v="Lille Opshus" />
		<tag k="place" v="farm" />
		<tag k="ssr:stedsnr" v="303579" />
		<tag k="ssr:type" v="gard" />
	</node>
	<node changeset="58868279" id="5610774450" lat="58.176925" lon="7.4228056" timestamp="2018-05-11T06:10:28Z" uid="3842253" user="NKA_import" version="1">
		<tag k="alt_name" v="Ljosstøl;Ljosestøl" />
		<tag k="historic" v="shieling" />
		<tag k="name" v="Lysestøl" />
		<tag k="place" v="farm" />
		<tag k="ssr:stedsnr" v="789811" />
		<tag k="ssr:type" v="gard" />
	</node>
	<node changeset="58868279" id="5610774451" lat="58.1797" lon="7.3938278" timestamp="2018-05-11T06:10:28Z" uid="3842253" user="NKA_import" version="1">
		<tag k="name" v="Oppsal" />
		<tag k="place" v="hamlet" />
		<tag k="ssr:stedsnr" v="607702" />
		<tag k="ssr:type" v="gard" />
	</node>
	<node changeset="58868279" id="5610774452" lat="58.0922444" lon="7.391025" timestamp="2018-05-11T06:10:28Z" uid="3842253" user="NKA_import" version="1">
		<tag k="name" v="Eikeland" />
		<tag k="place" v="farm" />
		<tag k="ssr:stedsnr" v="789838" />
		<tag k="ssr:type" v="bruk" />
	</node>
	<node changeset="58868279" id="5610774453" lat="58.0770139" lon="7.2286917" timestamp="2018-05-11T06:10:28Z" uid="3842253" user="NKA_import" version="1">
		<tag k="alt_name" v="Fidje" />
		<tag k="name" v="Fidja" />
		<tag k="place" v="farm" />
		<tag k="ssr:stedsnr" v="121625" />
		<tag k="ssr:type" v="gard" />
	</node>
	<node changeset="58868279" id="5610774454" lat="58.0738528" lon="7.3393055" timestamp="2018-05-11T06:10:28Z" uid="3842253" user="NKA_import" version="1">
		<tag k="alt_name" v="Toreland" />
		<tag k="name" v="Torland" />
		<tag k="place" v="farm" />
		<tag k="ssr:stedsnr" v="303621" />
		<tag k="ssr:type" v="gard" />
	</node>
	<node changeset="58868279" id="5610774455" lat="58.0004748" lon="7.0880695" timestamp="2018-05-11T06:10:28Z" uid="3842253" user="NKA_import" version="1">
		<tag k="alt_name" v="Fjelskår;Fjeldskår" />
		<tag k="name" v="Fjellskår" />
		<tag k="place" v="hamlet" />
		<tag k="ssr:stedsnr" v="303637" />
		<tag k="ssr:type" v="grend" />
	</node>
	<node changeset="58868279" id="5610774456" lat="58.1317083" lon="7.38705" timestamp="2018-05-11T06:10:28Z" uid="3842253" user="NKA_import" version="1">
		<tag k="alt_name" v="Vasland" />
		<tag k="name" v="Vassland" />
		<tag k="place" v="farm" />
		<tag k="ssr:stedsnr" v="303747" />
		<tag k="ssr:type" v="gard" />
	</node>
	<node changeset="58868279" id="5610774457" lat="58.1865806" lon="7.3471861" timestamp="2018-05-11T06:10:28Z" uid="3842253" user="NKA_import" version="1">
		<tag k="alt_name" v="Lølandsmoen" />
		<tag k="name" v="Lølandsmonen" />
		<tag k="place" v="hamlet" />
		<tag k="ssr:stedsnr" v="121705" />
		<tag k="ssr:type" v="gard" />
	</node>
	<node changeset="58868279" id="5610774458" lat="58.1452639" lon="7.3730389" timestamp="2018-05-11T06:10:29Z" uid="3842253" user="NKA_import" version="1">
		<tag k="alt_name" v="Gaupedalen" />
		<tag k="name" v="Gaupedal" />
		<tag k="place" v="farm" />
		<tag k="ssr:stedsnr" v="303752" />
		<tag k="ssr:type" v="gard" />
	</node>
	<node changeset="58868279" id="5610774459" lat="58.098325" lon="7.38245" timestamp="2018-05-11T06:10:29Z" uid="3842253" user="NKA_import" version="1">
		<tag k="name" v="Grundeland" />
		<tag k="place" v="farm" />
		<tag k="ssr:stedsnr" v="303839" />
		<tag k="ssr:type" v="gard" />
	</node>
	<node changeset="58868279" id="5610774460" lat="58.2100083" lon="7.2585972" timestamp="2018-05-11T06:10:29Z" uid="3842253" user="NKA_import" version="1">
		<tag k="alt_name" v="Støle vestre" />
		<tag k="historic" v="shieling" />
		<tag k="loc_name" v="Støle ytre" />
		<tag k="name" v="Vestre Støle" />
		<tag k="place" v="farm" />
		<tag k="ssr:stedsnr" v="121720" />
		<tag k="ssr:type" v="gard" />
	</node>
	<node changeset="58868279" id="5610774461" lat="58.1072" lon="7.377125" timestamp="2018-05-11T06:10:29Z" uid="3842253" user="NKA_import" version="1">
		<tag k="name" v="Skogen" />
		<tag k="place" v="farm" />
		<tag k="ssr:stedsnr" v="121873" />
		<tag k="ssr:type" v="gard" />
	</node>
	<way changeset="67601953" id="477291012" timestamp="2019-02-27T01:28:32Z" uid="103253" user="gormur" version="2">
		<tag k="name" v="Ramsetroa" />
		<tag k="natural" v="water" />
		<tag k="ssr:stedsnr" v="752808" />
		<tag k="ssr:type" v="vik" />
		<nd ref="6304742697" />
		<nd ref="6304742703" />
		<nd ref="6304742704" />
		<nd ref="6304742705" />
		<nd ref="6304742706" />
		<nd ref="6304742707" />
		<nd ref="5597186531" />
		<nd ref="6304742700" />
		<nd ref="4706692873" />
		<nd ref="4706692872" />
		<nd ref="4706692871" />
		<nd ref="4706692870" />
		<nd ref="4706692869" />
		<nd ref="4706692868" />
		<nd ref="6304742701" />
		<nd ref="6304742702" />
		<nd ref="6304742698" />
		<nd ref="6304742692" />
		<nd ref="6304742697" />
	</way>
	<way changeset="58292791" id="38140654" timestamp="2018-04-21T15:33:44Z" uid="3842253" user="NKA_import" version="3">
		<tag k="loc_name" v="Hegrestadvannet" />
		<tag k="name" v="Hegrestadvatnet" />
		<tag k="natural" v="water" />
		<tag k="source" v="landsat" />
		<tag k="ssr:stedsnr" v="874805" />
		<tag k="ssr:type" v="vann" />
		<tag k="water" v="lake" />
		<nd ref="448888534" />
		<nd ref="448888559" />
		<nd ref="448888557" />
		<nd ref="448888555" />
		<nd ref="448888553" />
		<nd ref="448888552" />
		<nd ref="448888551" />
		<nd ref="448888550" />
		<nd ref="448888549" />
		<nd ref="448888548" />
		<nd ref="448888546" />
		<nd ref="448888544" />
		<nd ref="757089372" />
		<nd ref="757089023" />
		<nd ref="448888542" />
		<nd ref="448888540" />
		<nd ref="448888538" />
		<nd ref="448888536" />
		<nd ref="448888534" />
	</way>
</osm>
