<?xml version="1.0" encoding="UTF-8"?>
<osm version="0.6" generator="osmapis">
	<node lat="61.34917777845063" lon="5.554191672937879" id="-27788">
		<tag k="name" v="Lona" />
		<tag k="place" v="locality" />
		<tag k="ssr:stedsnr" v="8005" />
	</node>
	<node lat="61.337586107170445" lon="5.555636106828878" id="-27790">
		<tag k="name" v="Martinelva" />
		<tag k="ssr:stedsnr" v="8046" />
		<tag k="waterway" v="stream" />
	</node>
	<node lat="61.336238888513314" lon="5.49319444933334" id="-27791">
		<tag k="name" v="Dalelva" />
		<tag k="ssr:stedsnr" v="8063" />
		<tag k="waterway" v="stream" />
	</node>
	<node lat="61.31221054723001" lon="5.567383480312004" id="-27798">
		<tag k="alt_name" v="Settelandsvatnet" />
		<tag k="name" v="Slettelandsvatnet" />
		<tag k="natural" v="water" />
		<tag k="ssr:stedsnr" v="8161" />
	</node>
	<node lat="61.2627684964619" lon="5.6863998020612785" id="-27801">
		<tag k="name" v="Øyvatna" />
		<tag k="natural" v="water" />
		<tag k="ssr:stedsnr" v="8250" />
		<tag k="water" v="lake" />
	</node>
	<node lat="61.24144078586439" lon="5.426232187198149" id="-27807">
		<tag k="name" v="Synningeneset" />
		<tag k="natural" v="cape" />
		<tag k="ssr:stedsnr" v="9388" />
	</node>
	<node lat="61.247361114306266" lon="5.657083326447328" id="-27815">
		<tag k="alt_name" v="Litleelva" />
		<tag k="name" v="Litlelva" />
		<tag k="ssr:stedsnr" v="9949" />
		<tag k="waterway" v="stream" />
	</node>
	<node lat="61.22963333774565" lon="5.533561111636948" id="-27817">
		<tag k="alt_name" v="Engjeelva" />
		<tag k="name" v="Engjelva" />
		<tag k="ssr:stedsnr" v="9988" />
		<tag k="waterway" v="river" />
	</node>
	<node lat="61.18823055987343" lon="5.570491668311228" id="-27873">
		<tag k="name" v="Storevatnet" />
		<tag k="natural" v="water" />
		<tag k="ssr:stedsnr" v="70825" />
	</node>
	<node lat="61.199916663854786" lon="5.5926861113834425" id="-27874">
		<tag k="name" v="Svartefossvatnet" />
		<tag k="natural" v="water" />
		<tag k="ssr:stedsnr" v="70783" />
	</node>
	<node lat="61.30258610922027" lon="5.3279055466391085" id="-27882">
		<tag k="name" v="Bakketjørna" />
		<tag k="natural" v="water" />
		<tag k="ssr:stedsnr" v="94704" />
	</node>
	<node lat="61.28399721961788" lon="5.680166667727996" id="-27894">
		<tag k="name" v="Indrevatnet" />
		<tag k="natural" v="water" />
		<tag k="ssr:stedsnr" v="250186" />
	</node>
	<node lat="61.32396944217745" lon="5.219391663265593" id="-27898">
		<tag k="name" v="Storelva" />
		<tag k="ssr:stedsnr" v="250293" />
		<tag k="waterway" v="stream" />
	</node>
	<node lat="61.29032500330039" lon="5.1746305529659145" id="-27917">
		<tag k="name" v="Helleviktjørna" />
		<tag k="natural" v="water" />
		<tag k="ssr:stedsnr" v="250381" />
	</node>
	<node lat="61.32530277743382" lon="5.411780562697788" id="-27922">
		<tag k="alt_name" v="Stavtjørnet" />
		<tag k="name" v="Stavstjørna" />
		<tag k="natural" v="water" />
		<tag k="ssr:stedsnr" v="250445" />
	</node>
	<node lat="61.31622499897274" lon="5.287427786586399" id="-27923">
		<tag k="name" v="Storetjørna" />
		<tag k="natural" v="water" />
		<tag k="ssr:stedsnr" v="250450" />
	</node>
	<node lat="61.2900333333572" lon="5.293086118568377" id="-27926">
		<tag k="name" v="Sandvika" />
		<tag k="natural" v="bay" />
		<tag k="ssr:stedsnr" v="250416" />
	</node>
	<node lat="61.28914515714642" lon="5.24483806956755" id="-27927">
		<tag k="alt_name" v="Instetjerna;Instetjørn" />
		<tag k="name" v="Instetjørna" />
		<tag k="natural" v="water" />
		<tag k="ssr:stedsnr" v="250423" />
	</node>
	<node lat="61.269519440792706" lon="5.187491660686553" id="-27936">
		<tag k="name" v="Fossane" />
		<tag k="natural" v="waterfall" />
		<tag k="ssr:stedsnr" v="250590" />
	</node>
	<node lat="61.26265000320115" lon="5.26596943766088" id="-27939">
		<tag k="name" v="Litleskardtjørna" />
		<tag k="natural" v="water" />
		<tag k="ssr:stedsnr" v="250557" />
	</node>
	<node lat="61.29278055918411" lon="5.537949996325635" id="-27945">
		<tag k="name" v="Fjellsendetjørna" />
		<tag k="natural" v="water" />
		<tag k="ssr:stedsnr" v="251148" />
	</node>
	<node lat="61.311156764718504" lon="5.600618446353606" id="-27946">
		<tag k="name" v="Torvevatnet" />
		<tag k="natural" v="water" />
		<tag k="ssr:stedsnr" v="251157" />
	</node>
	<node lat="61.24671666541551" lon="5.462519436853962" id="-27948">
		<tag k="name" v="Espeneset" />
		<tag k="natural" v="cape" />
		<tag k="ssr:stedsnr" v="251413" />
	</node>
	<node lat="61.301611106916674" lon="5.301958340148579" id="-27951">
		<tag k="name" v="Storevika" />
		<tag k="natural" v="bay" />
		<tag k="ssr:stedsnr" v="251747" />
	</node>
	<node lat="61.367197222894035" lon="5.511988882015395" id="-27953">
		<tag k="alt_name" v="Grøvla" />
		<tag k="name" v="Gryvla" />
		<tag k="ssr:stedsnr" v="251946" />
		<tag k="waterway" v="stream" />
	</node>
	<node lat="61.246011114340796" lon="5.706200001626409" id="-27954">
		<tag k="name" v="Storefossen" />
		<tag k="natural" v="waterfall" />
		<tag k="ssr:stedsnr" v="251967" />
	</node>
	<node lat="61.27947777715052" lon="5.160508340330796" id="-27958">
		<tag k="alt_name" v="Veslevatnet" />
		<tag k="name" v="Litlevatnet" />
		<tag k="natural" v="water" />
		<tag k="ssr:stedsnr" v="129407" />
	</node>
	<node lat="61.283113890318994" lon="5.225638891076447" id="-27961">
		<tag k="alt_name" v="Grønstalitjørna" />
		<tag k="name" v="Grønstadlitjørna" />
		<tag k="natural" v="water" />
		<tag k="ssr:stedsnr" v="129432" />
	</node>
	<node lat="61.29537499662623" lon="5.281883339038673" id="-27966">
		<tag k="name" v="Eikevika" />
		<tag k="natural" v="bay" />
		<tag k="ssr:stedsnr" v="129390" />
	</node>
	<node lat="61.21963055610071" lon="5.5362499944447645" id="-27980">
		<tag k="name" v="Stølsfossen" />
		<tag k="natural" v="waterfall" />
		<tag k="ssr:stedsnr" v="252975" />
	</node>
	<node lat="61.268099999961514" lon="5.053180551224703" id="-27983">
		<tag k="name" v="Stegelva" />
		<tag k="ssr:stedsnr" v="154308" />
		<tag k="waterway" v="river" />
	</node>
	<node lat="61.21702222035566" lon="5.56736110455357" id="-27995">
		<tag k="name" v="Anderslona" />
		<tag k="ssr:stedsnr" v="154619" />
		<tag k="waterway" v="river" />
	</node>
	<node lat="61.24327500288016" lon="5.429002783308829" id="-27999">
		<tag k="name" v="Bøvika" />
		<tag k="natural" v="bay" />
		<tag k="ssr:stedsnr" v="154675" />
	</node>
	<node lat="61.24464390824434" lon="5.413438944718897" id="-28000">
		<tag k="name" v="Vikane" />
		<tag k="natural" v="bay" />
		<tag k="ssr:stedsnr" v="154677" />
	</node>
	<node lat="61.27398611415917" lon="5.657427779930578" id="-28003">
		<tag k="name" v="Langeneset" />
		<tag k="natural" v="cape" />
		<tag k="ssr:stedsnr" v="154898" />
	</node>
	<node lat="61.24395000086318" lon="5.7175111099336995" id="-28004">
		<tag k="name" v="Storefosstjørna" />
		<tag k="natural" v="water" />
		<tag k="ssr:stedsnr" v="313958" />
	</node>
	<node lat="61.23655277720295" lon="5.571272218887227" id="-28008">
		<tag k="name" v="Vieneset" />
		<tag k="natural" v="cape" />
		<tag k="ssr:stedsnr" v="154960" />
	</node>
	<node lat="61.246580552131284" lon="5.550044445007743" id="-28010">
		<tag k="name" v="Øyrafossen" />
		<tag k="natural" v="waterfall" />
		<tag k="ssr:stedsnr" v="154962" />
	</node>
	<node lat="61.281047218036946" lon="5.519108325608346" id="-28011">
		<tag k="name" v="Tverrelva" />
		<tag k="ssr:stedsnr" v="154965" />
		<tag k="waterway" v="river" />
	</node>
	<node lat="61.2688800602583" lon="5.610345837471481" id="-28022">
		<tag k="name" v="Auvotna" />
		<tag k="natural" v="water" />
		<tag k="ssr:stedsnr" v="189173" />
		<tag k="water" v="lake" />
	</node>
	<node lat="61.34701666522781" lon="5.5149305561083715" id="-28024">
		<tag k="name" v="Skodalstjørna" />
		<tag k="natural" v="water" />
		<tag k="ssr:stedsnr" v="190010" />
	</node>
	<node lat="61.32211410278058" lon="5.280409159847077" id="-28031">
		<tag k="alt_name" v="Bautetjerna" />
		<tag k="name" v="Bautetjørna" />
		<tag k="natural" v="water" />
		<tag k="ssr:stedsnr" v="190308" />
	</node>
	<node lat="61.294283333263884" lon="5.230730553964145" id="-28034">
		<tag k="alt_name" v="Johanstitjørna" />
		<tag k="name" v="Johansstigtjørna" />
		<tag k="natural" v="water" />
		<tag k="ssr:stedsnr" v="190411" />
	</node>
	<node lat="61.28176666703944" lon="5.154833326767861" id="-28036">
		<tag k="name" v="Kringlevatnet" />
		<tag k="natural" v="water" />
		<tag k="ssr:stedsnr" v="190421" />
	</node>
	<node lat="61.32630278003709" lon="5.426327773205532" id="-28040">
		<tag k="name" v="Strandavatnet" />
		<tag k="natural" v="water" />
		<tag k="ssr:stedsnr" v="190467" />
		<tag k="water" v="lake" />
	</node>
	<node lat="61.28051899155609" lon="5.409535115922531" id="-28047">
		<tag k="alt_name" v="Vikatjørn" />
		<tag k="name" v="Vikatjørna" />
		<tag k="natural" v="water" />
		<tag k="ssr:stedsnr" v="190579" />
	</node>
	<node lat="61.307244444680876" lon="5.249894453567526" id="-28049">
		<tag k="name" v="Ospeneset" />
		<tag k="natural" v="cape" />
		<tag k="ssr:stedsnr" v="191655" />
	</node>
	<node lat="61.23798332938477" lon="5.632899993723708" id="-28072">
		<tag k="name" v="Øyra" />
		<tag k="ssr:stedsnr" v="215914" />
		<tag k="waterway" v="stream" />
	</node>
	<node lat="61.27189444364845" lon="5.652536110481758" id="-28081">
		<tag k="name" v="Måseholmen" />
		<tag k="place" v="islet" />
		<tag k="ssr:stedsnr" v="457876" />
	</node>
	<node lat="61.26709722675102" lon="5.357400005484734" id="-28097">
		<tag k="name" v="Smørvik" />
		<tag k="natural" v="bay" />
		<tag k="ssr:stedsnr" v="458671" />
	</node>
	<node lat="61.27974999904588" lon="5.095638895713309" id="-28106">
		<tag k="name" v="Brendåstjørna" />
		<tag k="natural" v="water" />
		<tag k="ssr:stedsnr" v="458761" />
	</node>
	<node lat="61.25703611447217" lon="5.371316670826112" id="-28125">
		<tag k="name" v="Litletjørna" />
		<tag k="natural" v="water" />
		<tag k="ssr:stedsnr" v="276676" />
	</node>
	<node lat="61.238291668995586" lon="5.564041665414856" id="-28130">
		<tag k="name" v="Stroka" />
		<tag k="ssr:stedsnr" v="276970" />
		<tag k="waterway" v="river" />
	</node>
	<node lat="61.30273333255741" lon="5.350077768722403" id="-28144">
		<tag k="name" v="Rennestraumsvatnet" />
		<tag k="natural" v="water" />
		<tag k="ssr:stedsnr" v="311527" />
	</node>
	<node lat="61.267863892151226" lon="4.983919448444674" id="-28158">
		<tag k="name" v="Kvernhuselva" />
		<tag k="ssr:stedsnr" v="337249" />
		<tag k="waterway" v="river" />
	</node>
	<node lat="61.227188889841884" lon="5.586041672808927" id="-28159">
		<tag k="name" v="Bukkepøyla" />
		<tag k="place" v="locality" />
		<tag k="ssr:stedsnr" v="337000" />
	</node>
	<node lat="61.36226111250517" lon="5.395625008458723" id="-28164">
		<tag k="name" v="Dalselva" />
		<tag k="ssr:stedsnr" v="337547" />
		<tag k="waterway" v="river" />
	</node>
	<node lat="61.288788885980864" lon="5.020008333035727" id="-28172">
		<tag k="name" v="Steinholmen" />
		<tag k="place" v="islet" />
		<tag k="ssr:stedsnr" v="337696" />
	</node>
	<node lat="61.23546110930498" lon="5.568583339427729" id="-28176">
		<tag k="name" v="Boraviktjørna" />
		<tag k="natural" v="water" />
		<tag k="ssr:stedsnr" v="337949" />
	</node>
	<node lat="61.345427780340565" lon="5.494636106423427" id="-28185">
		<tag k="name" v="Norddalsvatnet" />
		<tag k="natural" v="water" />
		<tag k="ssr:stedsnr" v="371009" />
	</node>
	<node lat="61.34509444533058" lon="5.484308341989424" id="-28186">
		<tag k="alt_name" v="Nyksdalstjørna" />
		<tag k="name" v="Nykksdalstjørna" />
		<tag k="natural" v="water" />
		<tag k="ssr:stedsnr" v="371005" />
	</node>
	<node lat="61.32380277995971" lon="5.548269437166517" id="-28187">
		<tag k="name" v="Langevatnet" />
		<tag k="natural" v="water" />
		<tag k="ssr:stedsnr" v="371071" />
	</node>
	<node lat="61.30617777633223" lon="5.433188891778495" id="-28196">
		<tag k="name" v="Lonene" />
		<tag k="place" v="locality" />
		<tag k="ssr:stedsnr" v="371369" />
	</node>
	<node lat="61.29471666634607" lon="5.300044451080927" id="-28198">
		<tag k="alt_name" v="Jyttavatnet" />
		<tag k="fixme" v="multiple name tags, choose one and add the other to alt_name" />
		<tag k="name" v="Fuglevatnet;Gyttavatnet" />
		<tag k="natural" v="water" />
		<tag k="ssr:stedsnr" v="371372" />
		<tag k="water" v="lake" />
	</node>
	<node lat="61.30785000211317" lon="5.343783329956623" id="-28206">
		<tag k="name" v="Fløsjøen" />
		<tag k="natural" v="water" />
		<tag k="ssr:stedsnr" v="371468" />
	</node>
	<node lat="61.29072970785907" lon="5.40958642055037" id="-28207">
		<tag k="alt_name" v="Langevatn" />
		<tag k="name" v="Langevatna" />
		<tag k="natural" v="water" />
		<tag k="ssr:stedsnr" v="371602" />
		<tag k="water" v="lake" />
	</node>
	<node lat="61.28669999934699" lon="5.339822222572594" id="-28208">
		<tag k="name" v="Kjosen" />
		<tag k="place" v="locality" />
		<tag k="ssr:stedsnr" v="371608" />
	</node>
	<node lat="61.26837857801766" lon="5.363870973000833" id="-28210">
		<tag k="name" v="Hovlandsvatnet" />
		<tag k="natural" v="water" />
		<tag k="ssr:stedsnr" v="371560" />
		<tag k="water" v="lake" />
	</node>
	<node lat="61.278419447953546" lon="5.304838893475229" id="-28216">
		<tag k="name" v="Kusæltjørna" />
		<tag k="natural" v="water" />
		<tag k="ssr:stedsnr" v="372612" />
	</node>
	<node lat="61.24369567854367" lon="5.437610192702264" id="-28219">
		<tag k="name" v="Siritåna" />
		<tag k="natural" v="cape" />
		<tag k="ssr:stedsnr" v="373397" />
	</node>
	<node lat="61.209322225735185" lon="5.638275006725279" id="-28221">
		<tag k="name" v="Krokevatnet" />
		<tag k="natural" v="water" />
		<tag k="ssr:stedsnr" v="373801" />
	</node>
	<node lat="61.23223333304847" lon="5.5311499998253595" id="-28223">
		<tag k="name" v="Lona" />
		<tag k="place" v="locality" />
		<tag k="ssr:stedsnr" v="373996" />
	</node>
	<node lat="61.2319194432341" lon="5.661722214217757" id="-28224">
		<tag k="name" v="Sørebøfossen" />
		<tag k="natural" v="waterfall" />
		<tag k="ssr:stedsnr" v="373999" />
	</node>
	<node lat="61.25131944446994" lon="5.065824995352058" id="-28249">
		<tag k="name" v="Lomtjørna" />
		<tag k="natural" v="water" />
		<tag k="ssr:stedsnr" v="432018" />
	</node>
	<node lat="61.27580555182983" lon="5.6703638837591654" id="-28264">
		<tag k="name" v="Sandvikelva" />
		<tag k="ssr:stedsnr" v="433201" />
		<tag k="waterway" v="stream" />
	</node>
	<node lat="61.26375277848462" lon="5.529111116657325" id="-28266">
		<tag k="alt_name" v="Storelva" />
		<tag k="name" v="Bogelva" />
		<tag k="ssr:stedsnr" v="433211" />
		<tag k="waterway" v="stream" />
	</node>
	<node lat="61.298777778618565" lon="5.442675007755117" id="-28270">
		<tag k="name" v="Stongatjørna" />
		<tag k="natural" v="water" />
		<tag k="ssr:stedsnr" v="433388" />
	</node>
	<node lat="61.26313611202158" lon="5.57800000579959" id="-28282">
		<tag k="name" v="Kalstadvatnet" />
		<tag k="natural" v="water" />
		<tag k="ssr:stedsnr" v="493200" />
	</node>
	<node lat="61.25868920408298" lon="5.677944498532477" id="-28285">
		<tag k="name" v="Hyttefossen" />
		<tag k="natural" v="waterfall" />
		<tag k="ssr:stedsnr" v="493255" />
	</node>
	<node lat="61.28929444587685" lon="5.134866672170802" id="-28296">
		<tag k="alt_name" v="Sagaelva" />
		<tag k="name" v="Sagelva" />
		<tag k="ssr:stedsnr" v="493363" />
		<tag k="waterway" v="stream" />
	</node>
	<node lat="61.31419505963339" lon="5.295524939329449" id="-28303">
		<tag k="alt_name" v="Småtjørna" />
		<tag k="name" v="Småtjørnane" />
		<tag k="natural" v="water" />
		<tag k="ssr:stedsnr" v="493443" />
		<tag k="water" v="lake" />
	</node>
	<node lat="61.31059052506264" lon="5.329836783269297" id="-28304">
		<tag k="alt_name" v="Dyttingetjerna" />
		<tag k="name" v="Dyttingstjørna" />
		<tag k="natural" v="water" />
		<tag k="ssr:stedsnr" v="493448" />
	</node>
	<node lat="61.27554166817134" lon="5.166380562278279" id="-28306">
		<tag k="name" v="Eidet" />
		<tag k="place" v="locality" />
		<tag k="ssr:stedsnr" v="493622" />
	</node>
	<node lat="61.23777695559454" lon="5.558317923643598" id="-28324">
		<tag k="name" v="Langevatnet" />
		<tag k="natural" v="water" />
		<tag k="ssr:stedsnr" v="458959" />
		<tag k="water" v="lake" />
	</node>
	<node lat="61.2795361146152" lon="5.578713886247436" id="-28329">
		<tag k="name" v="Svelandstjørna" />
		<tag k="natural" v="water" />
		<tag k="ssr:stedsnr" v="675210" />
	</node>
	<node lat="61.26041666670174" lon="5.620819444987113" id="-28332">
		<tag k="alt_name" v="Grøvlevatnet" />
		<tag k="name" v="Gryvlevatnet" />
		<tag k="natural" v="water" />
		<tag k="ssr:stedsnr" v="675278" />
	</node>
	<node lat="61.25847222664286" lon="5.644911119212197" id="-28333">
		<tag k="name" v="Storelva" />
		<tag k="ssr:stedsnr" v="675281" />
		<tag k="waterway" v="river" />
	</node>
	<node lat="61.25855555289342" lon="5.4118083303636375" id="-28344">
		<tag k="name" v="Tjørna" />
		<tag k="natural" v="water" />
		<tag k="ssr:stedsnr" v="675537" />
	</node>
	<node lat="61.26605833395339" lon="5.655858331902013" id="-28346">
		<tag k="name" v="Langeneset" />
		<tag k="natural" v="cape" />
		<tag k="ssr:stedsnr" v="675571" />
	</node>
	<node lat="61.28101944729065" lon="5.351763880451574" id="-28349">
		<tag k="name" v="Hellebostfossen" />
		<tag k="natural" v="waterfall" />
		<tag k="ssr:stedsnr" v="675618" />
	</node>
	<node lat="61.24921389302842" lon="5.542133333848624" id="-28357">
		<tag k="alt_name" v="Kallstadelva" />
		<tag k="name" v="Kalstadelva" />
		<tag k="ssr:stedsnr" v="676962" />
		<tag k="waterway" v="stream" />
	</node>
	<node lat="61.250466670561195" lon="5.395477769121228" id="-28380">
		<tag k="name" v="Nautsundet" />
		<tag k="natural" v="strait" />
		<tag k="ssr:stedsnr" v="493510" />
	</node>
	<node lat="61.268171957527535" lon="5.396000169944379" id="-28383">
		<tag k="alt_name" v="Svartetjørn" />
		<tag k="name" v="Svartetjørna" />
		<tag k="natural" v="water" />
		<tag k="ssr:stedsnr" v="493568" />
	</node>
	<node lat="61.26542500315349" lon="5.367630552444861" id="-28384">
		<tag k="name" v="Stutteneset" />
		<tag k="natural" v="cape" />
		<tag k="ssr:stedsnr" v="493573" />
	</node>
	<node lat="61.243794443865156" lon="5.477055564148199" id="-28396">
		<tag k="name" v="Storevika" />
		<tag k="natural" v="bay" />
		<tag k="ssr:stedsnr" v="494917" />
	</node>
	<node lat="61.24315277574299" lon="5.539663885307915" id="-28398">
		<tag k="name" v="Vaulevatnet" />
		<tag k="natural" v="water" />
		<tag k="ssr:stedsnr" v="495963" />
	</node>
	<node lat="61.285188888165884" lon="4.996833332264572" id="-28413">
		<tag k="name" v="Vikaskjeret" />
		<tag k="place" v="islet" />
		<tag k="ssr:stedsnr" v="519702" />
	</node>
	<node lat="61.25188333673256" lon="5.400391668955384" id="-28419">
		<tag k="name" v="Flekke- og Guddalsvassdraget" />
		<tag k="natural" v="water" />
		<tag k="ssr:stedsnr" v="532788" />
		<tag k="water" v="lake" />
	</node>
	<node lat="61.3122861087505" lon="5.548077785968479" id="-28421">
		<tag k="name" v="Steiestølselva" />
		<tag k="ssr:stedsnr" v="553133" />
		<tag k="waterway" v="stream" />
	</node>
	<node lat="61.30585049139076" lon="5.536140653213875" id="-28422">
		<tag k="name" v="Furebotntjørna" />
		<tag k="natural" v="water" />
		<tag k="ssr:stedsnr" v="553134" />
	</node>
	<node lat="61.299603755279385" lon="5.608777796542633" id="-28429">
		<tag k="name" v="Namnlausvatna" />
		<tag k="natural" v="water" />
		<tag k="ssr:stedsnr" v="553099" />
		<tag k="water" v="lake" />
	</node>
	<node lat="61.33354444430557" lon="5.415497226069007" id="-28431">
		<tag k="name" v="Hålandstjørna" />
		<tag k="natural" v="water" />
		<tag k="ssr:stedsnr" v="553279" />
	</node>
	<node lat="61.28583574126181" lon="5.485549029369603" id="-28442">
		<tag k="name" v="Ulvdalsvatnet" />
		<tag k="natural" v="water" />
		<tag k="ssr:stedsnr" v="554132" />
	</node>
	<node lat="61.29226944844355" lon="5.575513890991561" id="-28443">
		<tag k="name" v="Holmevatnet" />
		<tag k="natural" v="water" />
		<tag k="ssr:stedsnr" v="554137" />
	</node>
	<node lat="61.25151148461185" lon="5.453163292717567" id="-28473">
		<tag k="name" v="Blanketjørn" />
		<tag k="natural" v="water" />
		<tag k="ssr:stedsnr" v="579590" />
	</node>
	<node lat="61.257386106574025" lon="4.973805547170737" id="-28486">
		<tag k="name" v="Kvernhuselva" />
		<tag k="ssr:stedsnr" v="700934" />
		<tag k="waterway" v="river" />
	</node>
	<node lat="61.32605555827207" lon="5.433199996245198" id="-28500">
		<tag k="name" v="Brendeneset" />
		<tag k="natural" v="cape" />
		<tag k="ssr:stedsnr" v="614458" />
	</node>
	<node lat="61.29869999854327" lon="5.26132776940469" id="-28502">
		<tag k="name" v="Langholmen" />
		<tag k="place" v="islet" />
		<tag k="ssr:stedsnr" v="614501" />
	</node>
	<node lat="61.26626110868443" lon="5.174650004407833" id="-28504">
		<tag k="name" v="Kråholmen" />
		<tag k="place" v="islet" />
		<tag k="ssr:stedsnr" v="614611" />
	</node>
	<node lat="61.27479999653072" lon="5.276008340810021" id="-28506">
		<tag k="name" v="Langetjørna" />
		<tag k="natural" v="water" />
		<tag k="ssr:stedsnr" v="614617" />
	</node>
	<node lat="61.23489444674971" lon="5.678558328391601" id="-28518">
		<tag k="name" v="Sørebøelva" />
		<tag k="ssr:stedsnr" v="615987" />
		<tag k="waterway" v="stream" />
	</node>
	<node lat="61.22857499820708" lon="5.58846666615823" id="-28519">
		<tag k="name" v="Haugatjørna" />
		<tag k="natural" v="water" />
		<tag k="ssr:stedsnr" v="615997" />
	</node>
	<node lat="61.30811944726234" lon="5.258980562009838" id="-28520">
		<tag k="name" v="Kjøneset" />
		<tag k="natural" v="cape" />
		<tag k="ssr:stedsnr" v="701647" />
	</node>
	<node lat="61.20511944546586" lon="5.524361106187246" id="-28525">
		<tag k="name" v="Litleskilbreia" />
		<tag k="natural" v="water" />
		<tag k="ssr:stedsnr" v="616822" />
	</node>
	<node lat="61.28847222518458" lon="5.283344447089962" id="-28528">
		<tag k="name" v="Storegrova" />
		<tag k="ssr:stedsnr" v="701694" />
		<tag k="waterway" v="stream" />
	</node>
	<node lat="61.3128472227854" lon="5.466286102589385" id="-28534">
		<tag k="name" v="Bjørndalselva" />
		<tag k="ssr:stedsnr" v="701948" />
		<tag k="waterway" v="river" />
	</node>
	<node lat="61.255684418274406" lon="4.972593831763379" id="-28546">
		<tag k="name" v="Kringlevatnet" />
		<tag k="natural" v="water" />
		<tag k="ssr:stedsnr" v="640213" />
		<tag k="water" v="lake" />
	</node>
	<node lat="61.23138611333714" lon="5.446833340927926" id="-28549">
		<tag k="name" v="Øvre Fossen" />
		<tag k="natural" v="waterfall" />
		<tag k="ssr:stedsnr" v="640606" />
	</node>
	<node lat="61.23388332929753" lon="5.4447055561971975" id="-28550">
		<tag k="name" v="Nedre Fossen" />
		<tag k="natural" v="waterfall" />
		<tag k="ssr:stedsnr" v="640608" />
	</node>
	<node lat="61.24701110765247" lon="5.4141333264946745" id="-28552">
		<tag k="name" v="Lassevikneset" />
		<tag k="natural" v="cape" />
		<tag k="ssr:stedsnr" v="640615" />
	</node>
	<node lat="61.30524426043608" lon="5.590402005010743" id="-28565">
		<tag k="name" v="Botnavatnet" />
		<tag k="natural" v="water" />
		<tag k="ssr:stedsnr" v="675124" />
	</node>
	<node lat="61.34789166874009" lon="5.545650002879427" id="-28569">
		<tag k="name" v="Ivartjørna" />
		<tag k="natural" v="water" />
		<tag k="ssr:stedsnr" v="675006" />
	</node>
	<node lat="61.25826666784435" lon="5.566383333035245" id="-28574">
		<tag k="alt_name" v="Brekkeelva" />
		<tag k="name" v="Kalstadelva" />
		<tag k="ssr:stedsnr" v="675297" />
		<tag k="waterway" v="stream" />
	</node>
	<node lat="61.304616665858624" lon="5.407580561307073" id="-28577">
		<tag k="name" v="Fossane" />
		<tag k="natural" v="waterfall" />
		<tag k="ssr:stedsnr" v="675417" />
	</node>
	<node lat="61.284993605983644" lon="5.279151120615459" id="-28578">
		<tag k="name" v="Holmetjørnane" />
		<tag k="natural" v="water" />
		<tag k="ssr:stedsnr" v="675446" />
		<tag k="water" v="lake" />
	</node>
	<node lat="61.303725001223064" lon="5.286219438938287" id="-28588">
		<tag k="name" v="Nordavikholmen" />
		<tag k="place" v="islet" />
		<tag k="ssr:stedsnr" v="675510" />
	</node>
	<node lat="61.260611113733866" lon="5.458805549417705" id="-28591">
		<tag k="alt_name" v="Vokselva" />
		<tag k="name" v="Vågselva" />
		<tag k="ssr:stedsnr" v="675546" />
		<tag k="waterway" v="stream" />
	</node>
	<node lat="61.24907385829846" lon="5.4249760168491585" id="-28598">
		<tag k="name" v="Storåstjørna" />
		<tag k="natural" v="water" />
		<tag k="ssr:stedsnr" v="676398" />
	</node>
	<node lat="61.2845388885311" lon="5.343733329504087" id="-28600">
		<tag k="name" v="Sandvika" />
		<tag k="natural" v="bay" />
		<tag k="ssr:stedsnr" v="676694" />
	</node>
	<node lat="61.19524166977482" lon="5.592002770909191" id="-28607">
		<tag k="name" v="Strifossen" />
		<tag k="natural" v="waterfall" />
		<tag k="ssr:stedsnr" v="700881" />
	</node>
	<node lat="61.23749166795448" lon="5.422191672687927" id="-28619">
		<tag k="name" v="Synninga" />
		<tag k="natural" v="bay" />
		<tag k="ssr:stedsnr" v="701614" />
	</node>
	<node lat="61.24569166716813" lon="5.426344452816188" id="-28620">
		<tag k="name" v="Djupevik" />
		<tag k="natural" v="bay" />
		<tag k="ssr:stedsnr" v="701615" />
	</node>
	<node lat="61.313658331983106" lon="5.451405555378499" id="-28623">
		<tag k="name" v="Bjordalselva" />
		<tag k="ssr:stedsnr" v="701562" />
		<tag k="waterway" v="river" />
	</node>
	<node lat="61.29635833454277" lon="5.447402784197506" id="-28651">
		<tag k="name" v="Grønelifossen" />
		<tag k="natural" v="waterfall" />
		<tag k="ssr:stedsnr" v="736405" />
	</node>
	<node lat="61.291452775405475" lon="5.443055549628176" id="-28656">
		<tag k="name" v="Saukerstjørna" />
		<tag k="natural" v="water" />
		<tag k="ssr:stedsnr" v="736610" />
	</node>
	<node lat="61.18668888882957" lon="5.635777782498897" id="-28664">
		<tag k="alt_name" v="Gjelona" />
		<tag k="name" v="Gillona" />
		<tag k="natural" v="water" />
		<tag k="ssr:stedsnr" v="737841" />
	</node>
</osm>
