<?xml version="1.0" encoding="UTF-8"?>
<osm version="0.6" generator="osmapis">
	<node lat="61.30164166834006" lon="5.140716664625055" id="-78858">
		<tag k="alt_name" v="Stipollen" />
		<tag k="name" v="Stigpollen" />
		<tag k="natural" v="bay" />
		<tag k="ssr:stedsnr" v="7457" />
	</node>
	<node lat="61.27584166288898" lon="4.92211944599515" id="-78864">
		<tag k="name" v="Ytstetaren" />
		<tag k="natural" v="shoal" />
		<tag k="place" v="locality" />
		<tag k="ssr:stedsnr" v="8117" />
	</node>
	<node lat="61.345086115605156" lon="5.225302784083526" id="-78877">
		<tag k="name" v="Åsnesvika" />
		<tag k="natural" v="bay" />
		<tag k="ssr:stedsnr" v="8354" />
	</node>
	<node lat="61.37699166546806" lon="5.4249583418583684" id="-78883">
		<tag k="name" v="Storevikneset" />
		<tag k="natural" v="cape" />
		<tag k="ssr:stedsnr" v="9690" />
	</node>
	<node lat="61.24847778215719" lon="5.4795000025208" id="-78885">
		<tag k="name" v="Langeneset" />
		<tag k="natural" v="cape" />
		<tag k="ssr:stedsnr" v="9907" />
	</node>
	<node lat="61.3057166700826" lon="5.131655561941385" id="-78893">
		<tag k="name" v="Seljevika" />
		<tag k="natural" v="bay" />
		<tag k="ssr:stedsnr" v="235707" />
	</node>
	<node lat="61.32247221954634" lon="5.444305554787715" id="-78896">
		<tag k="name" v="Kleiveneset" />
		<tag k="natural" v="cape" />
		<tag k="ssr:stedsnr" v="33573" />
	</node>
	<node lat="61.308336109129606" lon="5.176719447283236" id="-78909">
		<tag k="alt_name" v="Sveskjeret;Svedskjera" />
		<tag k="fixme" v="consider seamark:type=rock or natural=shoal" />
		<tag k="name" v="Sveskjera" />
		<tag k="place" v="islet" />
		<tag k="ssr:stedsnr" v="33761" />
	</node>
	<node lat="61.268333332381914" lon="4.976516659954605" id="-78912">
		<tag k="name" v="Strokeneset" />
		<tag k="natural" v="cape" />
		<tag k="ssr:stedsnr" v="33922" />
	</node>
	<node lat="61.37958610788177" lon="5.420563882185314" id="-78918">
		<tag k="alt_name" v="Setenesfjorden" />
		<tag k="bay" v="fjord" />
		<tag k="name" v="Sætenesfjorden" />
		<tag k="natural" v="bay" />
		<tag k="ssr:stedsnr" v="53277" />
	</node>
	<node lat="61.34686110766603" lon="5.295644448532198" id="-78923">
		<tag k="alt_name" v="Angholmen" />
		<tag k="name" v="Ungholmen" />
		<tag k="place" v="islet" />
		<tag k="ssr:stedsnr" v="68355" />
	</node>
	<node lat="61.37610278115547" lon="5.434594453329624" id="-78936">
		<tag k="alt_name" v="Melkevika" />
		<tag k="name" v="Mjelkevika" />
		<tag k="natural" v="bay" />
		<tag k="ssr:stedsnr" v="69133" />
	</node>
	<node lat="61.31315277619684" lon="5.3500666713089915" id="-78940">
		<tag k="name" v="Trollevika" />
		<tag k="natural" v="bay" />
		<tag k="ssr:stedsnr" v="69499" />
	</node>
	<node lat="61.332769442560455" lon="5.1996472222595855" id="-78943">
		<tag k="alt_name" v="Tjeldingsneset" />
		<tag k="name" v="Kjellingneset" />
		<tag k="natural" v="cape" />
		<tag k="ssr:stedsnr" v="69505" />
	</node>
	<node lat="61.25589722038795" lon="4.985050008409983" id="-78952">
		<tag k="alt_name" v="Nota-holmen" />
		<tag k="name" v="Notaholmen" />
		<tag k="place" v="islet" />
		<tag k="ssr:stedsnr" v="94292" />
	</node>
	<node lat="61.26984166669324" lon="5.02712499844194" id="-78953">
		<tag k="name" v="Sponga" />
		<tag k="place" v="island" />
		<tag k="ssr:stedsnr" v="94306" />
	</node>
	<node lat="61.24233610939137" lon="5.490472218612998" id="-78956">
		<tag k="name" v="Yndestadvika" />
		<tag k="natural" v="bay" />
		<tag k="ssr:stedsnr" v="94954" />
	</node>
	<node lat="61.26998333536995" lon="4.962747230915913" id="-78959">
		<tag k="name" v="Lammetu" />
		<tag k="place" v="island" />
		<tag k="ssr:stedsnr" v="250101" />
	</node>
	<node lat="61.26950555538507" lon="4.980247215022791" id="-78960">
		<tag k="name" v="Stroka" />
		<tag k="natural" v="bay" />
		<tag k="ssr:stedsnr" v="250102" />
	</node>
	<node lat="61.289830557284" lon="5.012752783605948" id="-78969">
		<tag k="name" v="Grytøyrflua" />
		<tag k="natural" v="shoal" />
		<tag k="place" v="locality" />
		<tag k="ssr:stedsnr" v="113529" />
	</node>
	<node lat="61.316674996057394" lon="5.137072228987363" id="-78970">
		<tag k="name" v="Indre Kjøssneset" />
		<tag k="natural" v="cape" />
		<tag k="ssr:stedsnr" v="113646" />
	</node>
	<node lat="61.323161112863176" lon="5.214180551731242" id="-78972">
		<tag k="name" v="Storeviksanden" />
		<tag k="natural" v="beach" />
		<tag k="ssr:stedsnr" v="250295" />
	</node>
	<node lat="61.353875003481235" lon="5.36347499182244" id="-78980">
		<tag k="name" v="Bergståna" />
		<tag k="natural" v="cape" />
		<tag k="ssr:stedsnr" v="250352" />
	</node>
	<node lat="61.29234999997699" lon="5.131711114501426" id="-78991">
		<tag k="alt_name" v="Sagapollen" />
		<tag k="name" v="Sagepollen" />
		<tag k="natural" v="bay" />
		<tag k="ssr:stedsnr" v="250383" />
	</node>
	<node lat="61.30605833164561" lon="5.187402779446635" id="-79001">
		<tag k="name" v="Geiteneset" />
		<tag k="natural" v="cape" />
		<tag k="ssr:stedsnr" v="250438" />
	</node>
	<node lat="61.298352779422814" lon="5.124974997461307" id="-79003">
		<tag k="name" v="Strokehavet" />
		<tag k="natural" v="bay" />
		<tag k="ssr:stedsnr" v="250464" />
	</node>
	<node lat="61.29319444417325" lon="5.063297222038441" id="-79016">
		<tag k="name" v="Furevågen" />
		<tag k="natural" v="bay" />
		<tag k="ssr:stedsnr" v="251078" />
	</node>
	<node lat="61.2455055529072" lon="5.479797217216481" id="-79044">
		<tag k="alt_name" v="Vesleholmen" />
		<tag k="name" v="Litleholmen" />
		<tag k="place" v="islet" />
		<tag k="ssr:stedsnr" v="130913" />
	</node>
	<node lat="61.261999996511285" lon="5.009391663313069" id="-79060">
		<tag k="name" v="Tytebærholmen" />
		<tag k="place" v="islet" />
		<tag k="ssr:stedsnr" v="154329" />
	</node>
	<node lat="61.27276111450854" lon="4.938819444489869" id="-79064">
		<tag k="name" v="Kastet" />
		<tag k="natural" v="bay" />
		<tag k="ssr:stedsnr" v="154272" />
	</node>
	<node lat="61.35210833353476" lon="5.3186111110115375" id="-79094">
		<tag k="name" v="Lyngneset" />
		<tag k="natural" v="cape" />
		<tag k="ssr:stedsnr" v="175364" />
	</node>
	<node lat="61.354622222313665" lon="5.28843889783911" id="-79096">
		<tag k="name" v="Solbakkeneset" />
		<tag k="natural" v="cape" />
		<tag k="ssr:stedsnr" v="189286" />
	</node>
	<node lat="61.285716667356446" lon="4.998661102568661" id="-79100">
		<tag k="name" v="Bøneset" />
		<tag k="natural" v="cape" />
		<tag k="ssr:stedsnr" v="190084" />
	</node>
	<node lat="61.31865000426067" lon="5.346994442684301" id="-79114">
		<tag k="alt_name" v="Gunnhildvika" />
		<tag k="name" v="Gunnhildevika" />
		<tag k="natural" v="bay" />
		<tag k="ssr:stedsnr" v="190473" />
	</node>
	<node lat="61.318038773324545" lon="5.353941231704127" id="-79115">
		<tag k="alt_name" v="Hua" />
		<tag k="name" v="Huva" />
		<tag k="natural" v="cape" />
		<tag k="ssr:stedsnr" v="190480" />
	</node>
	<node lat="61.372141665392256" lon="5.47168055025643" id="-79121">
		<tag k="name" v="Vika" />
		<tag k="natural" v="bay" />
		<tag k="ssr:stedsnr" v="190961" />
	</node>
	<node lat="61.29642499763614" lon="5.143152781607042" id="-79141">
		<tag k="name" v="Kaggeneset" />
		<tag k="natural" v="cape" />
		<tag k="ssr:stedsnr" v="215776" />
	</node>
	<node lat="61.29669166265247" lon="5.123688890567587" id="-79142">
		<tag k="name" v="Austnes" />
		<tag k="natural" v="cape" />
		<tag k="ssr:stedsnr" v="215779" />
	</node>
	<node lat="61.26190555358558" lon="4.952827779749524" id="-79146">
		<tag k="name" v="Følsundet" />
		<tag k="natural" v="strait" />
		<tag k="ssr:stedsnr" v="215931" />
	</node>
	<node lat="61.27488888818961" lon="4.95261944804452" id="-79164">
		<tag k="name" v="Lakseverpvika" />
		<tag k="natural" v="bay" />
		<tag k="ssr:stedsnr" v="458281" />
	</node>
	<node lat="61.27462222384755" lon="4.979027781155662" id="-79188">
		<tag k="name" v="Hellarshamnen" />
		<tag k="natural" v="bay" />
		<tag k="ssr:stedsnr" v="276273" />
	</node>
	<node lat="61.256372225898986" lon="5.027669435245093" id="-79191">
		<tag k="name" v="Bøholmen" />
		<tag k="place" v="islet" />
		<tag k="ssr:stedsnr" v="276303" />
	</node>
	<node lat="61.32075000304865" lon="5.354791669033108" id="-79204">
		<tag k="name" v="Vikahamrane" />
		<tag k="natural" v="cape" />
		<tag k="ssr:stedsnr" v="296281" />
	</node>
	<node lat="61.29565555668026" lon="5.102227775285036" id="-79205">
		<tag k="name" v="Håvågssundet" />
		<tag k="natural" v="strait" />
		<tag k="ssr:stedsnr" v="310491" />
	</node>
	<node lat="61.370091662140595" lon="5.511366662712552" id="-79228">
		<tag k="alt_name" v="Grøvlevika" />
		<tag k="name" v="Gryvlevika" />
		<tag k="natural" v="bay" />
		<tag k="ssr:stedsnr" v="311978" />
	</node>
	<node lat="61.253338891482265" lon="4.990677768672279" id="-79231">
		<tag k="alt_name" v="Korssund-holet" />
		<tag k="name" v="Korssundholet" />
		<tag k="natural" v="strait" />
		<tag k="ssr:stedsnr" v="337242" />
	</node>
	<node lat="61.31796110777338" lon="5.446630564724608" id="-79235">
		<tag k="name" v="Melkevik" />
		<tag k="natural" v="bay" />
		<tag k="ssr:stedsnr" v="337496" />
	</node>
	<node lat="61.251444443422585" lon="5.003216673058938" id="-79253">
		<tag k="name" v="Åmundsholmflua" />
		<tag k="natural" v="shoal" />
		<tag k="place" v="locality" />
		<tag k="ssr:stedsnr" v="355969" />
	</node>
	<node lat="61.30054999636878" lon="5.131730548222833" id="-79256">
		<tag k="name" v="Geitneset" />
		<tag k="natural" v="cape" />
		<tag k="ssr:stedsnr" v="356657" />
	</node>
	<node lat="61.27958055140119" lon="4.956527776919632" id="-79259">
		<tag k="fixme" v="consider seamark:type=rock or natural=shoal" />
		<tag k="name" v="Brattholmen" />
		<tag k="place" v="islet" />
		<tag k="ssr:stedsnr" v="477996" />
	</node>
	<node lat="61.35991111062279" lon="5.334688897855816" id="-79265">
		<tag k="name" v="Dalsøyna" />
		<tag k="place" v="islet" />
		<tag k="ssr:stedsnr" v="371310" />
	</node>
	<node lat="61.34819722055677" lon="5.268780551129934" id="-79267">
		<tag k="name" v="Leitaneset" />
		<tag k="natural" v="cape" />
		<tag k="ssr:stedsnr" v="371323" />
	</node>
	<node lat="61.34760638611348" lon="5.281211316322874" id="-79269">
		<tag k="name" v="Badeneset" />
		<tag k="natural" v="cape" />
		<tag k="ssr:stedsnr" v="371327" />
	</node>
	<node lat="61.34103055882102" lon="5.294613879456386" id="-79289">
		<tag k="name" v="Eldevika" />
		<tag k="natural" v="bay" />
		<tag k="ssr:stedsnr" v="372273" />
	</node>
	<node lat="61.25618333290804" lon="4.951513895099223" id="-79301">
		<tag k="name" v="Raudalsneset" />
		<tag k="natural" v="cape" />
		<tag k="ssr:stedsnr" v="396907" />
	</node>
	<node lat="61.31400555340546" lon="5.212875008592749" id="-79313">
		<tag k="name" v="Balsarvika" />
		<tag k="natural" v="bay" />
		<tag k="ssr:stedsnr" v="397732" />
	</node>
	<node lat="61.276591664064334" lon="4.946733340201809" id="-79320">
		<tag k="name" v="Langøyflua" />
		<tag k="natural" v="shoal" />
		<tag k="place" v="locality" />
		<tag k="ssr:stedsnr" v="416988" />
	</node>
	<node lat="61.253080554685404" lon="4.950305550197688" id="-79322">
		<tag k="name" v="Tjuvholmen" />
		<tag k="place" v="islet" />
		<tag k="ssr:stedsnr" v="432015" />
	</node>
	<node lat="61.26768055335473" lon="5.018269453926347" id="-79326">
		<tag k="alt_name" v="Pirneset" />
		<tag k="name" v="Perneset" />
		<tag k="natural" v="cape" />
		<tag k="ssr:stedsnr" v="432088" />
	</node>
	<node lat="61.25927500133805" lon="5.024394452263064" id="-79331">
		<tag k="alt_name" v="Bygdavågen" />
		<tag k="name" v="Bygdevågen" />
		<tag k="natural" v="bay" />
		<tag k="ssr:stedsnr" v="432101" />
	</node>
	<node lat="61.27688610996611" lon="4.976258329496089" id="-79338">
		<tag k="alt_name" v="Vardeholmen" />
		<tag k="name" v="Vardholmen" />
		<tag k="place" v="islet" />
		<tag k="ssr:stedsnr" v="433124" />
	</node>
	<node lat="61.311088885035886" lon="5.132052784244351" id="-79343">
		<tag k="alt_name" v="Klenevåg" />
		<tag k="name" v="Klenevågen" />
		<tag k="natural" v="bay" />
		<tag k="ssr:stedsnr" v="433425" />
	</node>
	<node lat="61.30578888531904" lon="5.19128333405712" id="-79344">
		<tag k="name" v="Tjohola" />
		<tag k="natural" v="bay" />
		<tag k="ssr:stedsnr" v="433434" />
	</node>
	<node lat="61.30490555267422" lon="5.156894441046851" id="-79353">
		<tag k="alt_name" v="Verpingsvågen" />
		<tag k="name" v="Vågen" />
		<tag k="natural" v="bay" />
		<tag k="ssr:stedsnr" v="492444" />
	</node>
	<node lat="61.35938333738211" lon="5.312902776052526" id="-79364">
		<tag k="name" v="Tangane" />
		<tag k="natural" v="cape" />
		<tag k="ssr:stedsnr" v="493325" />
	</node>
	<node lat="61.30690000024519" lon="5.144027771769315" id="-79369">
		<tag k="alt_name" v="Kjøsneset" />
		<tag k="name" v="Kysneset" />
		<tag k="natural" v="cape" />
		<tag k="ssr:stedsnr" v="493429" />
	</node>
	<node lat="61.30918333648055" lon="5.205047229570203" id="-79380">
		<tag k="name" v="Gjølangen" />
		<tag k="natural" v="bay" />
		<tag k="ssr:stedsnr" v="493454" />
	</node>
	<node lat="61.31090832907828" lon="5.220611105681022" id="-79387">
		<tag k="name" v="Selvika" />
		<tag k="natural" v="bay" />
		<tag k="ssr:stedsnr" v="494685" />
	</node>
	<node lat="61.35346389313537" lon="5.311991660795933" id="-79415">
		<tag k="alt_name" v="Leitavika" />
		<tag k="name" v="Leitevika" />
		<tag k="natural" v="bay" />
		<tag k="ssr:stedsnr" v="675376" />
	</node>
	<node lat="61.35988610861047" lon="5.321347226292562" id="-79435">
		<tag k="name" v="Øyavika" />
		<tag k="natural" v="bay" />
		<tag k="ssr:stedsnr" v="478478" />
	</node>
	<node lat="61.24582462474243" lon="4.971971783072907" id="-79440">
		<tag k="name" v="Velevågane" />
		<tag k="natural" v="bay" />
		<tag k="ssr:stedsnr" v="677993" />
	</node>
	<node lat="61.3002527742311" lon="5.0875138803240905" id="-79444">
		<tag k="alt_name" v="Snekkeholmen" />
		<tag k="name" v="Snekkevågholmen" />
		<tag k="place" v="islet" />
		<tag k="ssr:stedsnr" v="493080" />
	</node>
	<node lat="61.26484444376736" lon="4.947780562282042" id="-79446">
		<tag k="alt_name" v="Ramsøya" />
		<tag k="name" v="Ramsøyna" />
		<tag k="place" v="islet" />
		<tag k="ssr:stedsnr" v="493107" />
	</node>
	<node lat="61.3050305522695" lon="5.122575006546282" id="-79461">
		<tag k="alt_name" v="Skrivarøy" />
		<tag k="name" v="Skrivarøyna" />
		<tag k="place" v="islet" />
		<tag k="ssr:stedsnr" v="493427" />
	</node>
	<node lat="61.371625003202986" lon="5.502333330547619" id="-79478">
		<tag k="name" v="Gnareneset" />
		<tag k="natural" v="cape" />
		<tag k="ssr:stedsnr" v="518970" />
	</node>
	<node lat="61.24213611005035" lon="5.4160694515514445" id="-79483">
		<tag k="name" v="Vesleholmen" />
		<tag k="place" v="islet" />
		<tag k="ssr:stedsnr" v="519615" />
	</node>
	<node lat="61.37415277720386" lon="5.41900554917454" id="-79487">
		<tag k="name" v="Gjelet" />
		<tag k="natural" v="bay" />
		<tag k="ssr:stedsnr" v="519564" />
	</node>
	<node lat="61.34505277713292" lon="5.200641669522304" id="-79502">
		<tag k="alt_name" v="Straumsnes" />
		<tag k="name" v="Straumsneset" />
		<tag k="natural" v="cape" />
		<tag k="ssr:stedsnr" v="553320" />
	</node>
	<node lat="61.31176389289872" lon="5.160091675134327" id="-79511">
		<tag k="alt_name" v="Barholmen" />
		<tag k="name" v="Bardholmen" />
		<tag k="place" v="islet" />
		<tag k="ssr:stedsnr" v="553434" />
	</node>
	<node lat="61.24751944390679" lon="5.007352774688922" id="-79536">
		<tag k="name" v="Brennevinsvika" />
		<tag k="natural" v="bay" />
		<tag k="ssr:stedsnr" v="555988" />
	</node>
	<node lat="61.25159722170386" lon="5.008750006253712" id="-79537">
		<tag k="name" v="Åmundsholmen" />
		<tag k="place" v="islet" />
		<tag k="ssr:stedsnr" v="578214" />
	</node>
	<node lat="61.25719722649392" lon="5.004816671319794" id="-79538">
		<tag k="name" v="Djupevika" />
		<tag k="natural" v="bay" />
		<tag k="ssr:stedsnr" v="578216" />
	</node>
	<node lat="61.274466667438375" lon="4.973663884561166" id="-79542">
		<tag k="name" v="Lammetusundet" />
		<tag k="natural" v="strait" />
		<tag k="ssr:stedsnr" v="579208" />
	</node>
	<node lat="61.354561115234404" lon="5.322197217330928" id="-79557">
		<tag k="name" v="Hegrenesvika" />
		<tag k="natural" v="bay" />
		<tag k="ssr:stedsnr" v="599354" />
	</node>
	<node lat="61.300922220354906" lon="5.122677783700735" id="-79558">
		<tag k="name" v="Svinøyhopen" />
		<tag k="natural" v="bay" />
		<tag k="ssr:stedsnr" v="599660" />
	</node>
	<node lat="61.284975003763265" lon="5.003777768805352" id="-79597">
		<tag k="name" v="Verpetåna" />
		<tag k="natural" v="cape" />
		<tag k="ssr:stedsnr" v="701737" />
	</node>
	<node lat="61.29576944499923" lon="5.1059361045716285" id="-79601">
		<tag k="name" v="Notaneset" />
		<tag k="natural" v="cape" />
		<tag k="ssr:stedsnr" v="701759" />
	</node>
	<node lat="61.29088333369363" lon="5.051425003536784" id="-79607">
		<tag k="name" v="Slåttholmen" />
		<tag k="place" v="islet" />
		<tag k="ssr:stedsnr" v="701708" />
	</node>
	<node lat="61.273777775295855" lon="4.94377777094644" id="-79623">
		<tag k="name" v="Grisevika" />
		<tag k="natural" v="bay" />
		<tag k="ssr:stedsnr" v="640226" />
	</node>
	<node lat="61.27943889110552" lon="4.982405556676293" id="-79630">
		<tag k="name" v="Båtevikane" />
		<tag k="natural" v="bay" />
		<tag k="ssr:stedsnr" v="640707" />
	</node>
	<node lat="61.286105555095844" lon="5.0356166735720445" id="-79631">
		<tag k="name" v="Hopen" />
		<tag k="natural" v="bay" />
		<tag k="ssr:stedsnr" v="640712" />
	</node>
	<node lat="61.29125555616346" lon="5.130802775781867" id="-79636">
		<tag k="name" v="Slipollen" />
		<tag k="natural" v="bay" />
		<tag k="ssr:stedsnr" v="660658" />
	</node>
	<node lat="61.26081388777732" lon="4.941319452361006" id="-79638">
		<tag k="name" v="Bollen" />
		<tag k="natural" v="shoal" />
		<tag k="place" v="locality" />
		<tag k="ssr:stedsnr" v="675110" />
	</node>
	<node lat="61.26168055979572" lon="5.0199638952641825" id="-79641">
		<tag k="name" v="Kibergneset" />
		<tag k="natural" v="cape" />
		<tag k="ssr:stedsnr" v="675125" />
	</node>
	<node lat="61.29022777868431" lon="4.963597214949077" id="-79646">
		<tag k="bay" v="fjord" />
		<tag k="name" v="Vilnesfjorden" />
		<tag k="natural" v="bay" />
		<tag k="ssr:stedsnr" v="675096" />
	</node>
	<node lat="61.31084722429724" lon="5.158202775796635" id="-79656">
		<tag k="name" v="Flatholmen" />
		<tag k="place" v="islet" />
		<tag k="ssr:stedsnr" v="675464" />
	</node>
	<node lat="61.2446777804828" lon="5.490630551890217" id="-79677">
		<tag k="name" v="Elvemoneset" />
		<tag k="natural" v="cape" />
		<tag k="ssr:stedsnr" v="676917" />
	</node>
	<node lat="61.368783334417486" lon="5.556241665731428" id="-79687">
		<tag k="name" v="Nistadneset" />
		<tag k="natural" v="cape" />
		<tag k="ssr:stedsnr" v="700986" />
	</node>
	<node lat="61.372224999571124" lon="5.519136105215967" id="-79688">
		<tag k="name" v="Holmen" />
		<tag k="place" v="islet" />
		<tag k="ssr:stedsnr" v="700989" />
	</node>
	<node lat="61.277711106685295" lon="4.968880553103005" id="-79689">
		<tag k="name" v="Hamnaneset" />
		<tag k="natural" v="cape" />
		<tag k="ssr:stedsnr" v="701229" />
	</node>
	<node lat="61.25983610840208" lon="5.005869438185747" id="-79692">
		<tag k="name" v="Stølsvika" />
		<tag k="natural" v="bay" />
		<tag k="ssr:stedsnr" v="701303" />
	</node>
	<node lat="61.336291666189894" lon="5.318852779905293" id="-79693">
		<tag k="name" v="Trulsneset" />
		<tag k="natural" v="cape" />
		<tag k="ssr:stedsnr" v="701610" />
	</node>
	<node lat="61.249299998841146" lon="5.458319440426132" id="-79700">
		<tag k="name" v="Gaddeneset" />
		<tag k="natural" v="cape" />
		<tag k="ssr:stedsnr" v="701565" />
	</node>
	<node lat="61.289713884767174" lon="5.043169442258292" id="-79702">
		<tag k="name" v="Roparneset" />
		<tag k="natural" v="cape" />
		<tag k="ssr:stedsnr" v="701711" />
	</node>
	<node lat="61.250897226204955" lon="4.954769448731656" id="-79712">
		<tag k="name" v="Lutevågen" />
		<tag k="natural" v="bay" />
		<tag k="ssr:stedsnr" v="720980" />
	</node>
	<node lat="61.270105552177434" lon="4.922097223060164" id="-79713">
		<tag k="fixme" v="consider seamark:type=rock or natural=shoal" />
		<tag k="name" v="Morpølsa" />
		<tag k="place" v="islet" />
		<tag k="ssr:stedsnr" v="735109" />
	</node>
	<node lat="61.26999722498578" lon="5.023058335686008" id="-79716">
		<tag k="name" v="Vågsvågen" />
		<tag k="natural" v="bay" />
		<tag k="ssr:stedsnr" v="735102" />
	</node>
	<node lat="61.25379444390872" lon="5.011838897323781" id="-79722">
		<tag k="alt_name" v="Sudgardsholmen" />
		<tag k="name" v="Sørgardsholmen" />
		<tag k="place" v="islet" />
		<tag k="ssr:stedsnr" v="736021" />
	</node>
	<node lat="61.30838055826017" lon="5.22585555646845" id="-79743">
		<tag k="name" v="Lyngnesholmane" />
		<tag k="place" v="islet" />
		<tag k="ssr:stedsnr" v="902551" />
	</node>
	<node lat="61.26721666933196" lon="5.028133334892062" id="-79744">
		<tag k="name" v="Djupevika" />
		<tag k="natural" v="bay" />
		<tag k="ssr:stedsnr" v="902591" />
	</node>
	<node lat="61.332377774987364" lon="5.3334249922952495" id="-79745">
		<tag k="name" v="Ekravika" />
		<tag k="natural" v="bay" />
		<tag k="ssr:stedsnr" v="903316" />
	</node>
	<node lat="61.34850832976272" lon="5.277158335981748" id="-79753">
		<tag k="name" v="Oksebåsen" />
		<tag k="natural" v="bay" />
		<tag k="ssr:stedsnr" v="761691" />
	</node>
	<node lat="61.23621110820126" lon="5.581616663714997" id="-79757">
		<tag k="name" v="Holmane" />
		<tag k="place" v="islet" />
		<tag k="ssr:stedsnr" v="761912" />
	</node>
	<node lat="61.26950833219877" lon="4.927591667404034" id="-79763">
		<tag k="name" v="Kyrkjeflua" />
		<tag k="natural" v="shoal" />
		<tag k="place" v="locality" />
		<tag k="ssr:stedsnr" v="780807" />
	</node>
	<node lat="61.35850278031442" lon="5.322908324359434" id="-79773">
		<tag k="alt_name" v="Sletet" />
		<tag k="name" v="Slitet" />
		<tag k="place" v="locality" />
		<tag k="ssr:stedsnr" v="796316" />
	</node>
	<node lat="61.24037777902693" lon="4.952372225623589" id="-79792">
		<tag k="name" v="Korssundosen" />
		<tag k="natural" v="bay" />
		<tag k="ssr:stedsnr" v="798991" />
	</node>
	<node lat="61.26831111063467" lon="4.945522227440706" id="-79799">
		<tag k="alt_name" v="Persøyna" />
		<tag k="name" v="Perholmen" />
		<tag k="place" v="islet" />
		<tag k="ssr:stedsnr" v="918100" />
	</node>
	<node lat="61.326334905641076" lon="5.340995012659131" id="-79811">
		<tag k="name" v="Løykevika" />
		<tag k="natural" v="bay" />
		<tag k="ssr:stedsnr" v="918356" />
	</node>
	<node lat="61.30588333029174" lon="5.175069449801569" id="-79817">
		<tag k="name" v="Nybøneset" />
		<tag k="natural" v="cape" />
		<tag k="ssr:stedsnr" v="918501" />
	</node>
	<node lat="61.373016666444144" lon="5.530497227306104" id="-79824">
		<tag k="name" v="Rekevika" />
		<tag k="natural" v="bay" />
		<tag k="ssr:stedsnr" v="918596" />
	</node>
	<node lat="61.27802499960764" lon="4.967894448869667" id="-79840">
		<tag k="name" v="Kulten" />
		<tag k="place" v="island" />
		<tag k="ssr:stedsnr" v="822220" />
	</node>
	<node lat="61.27232499664585" lon="4.94533055675543" id="-79841">
		<tag k="name" v="Sundet" />
		<tag k="natural" v="strait" />
		<tag k="ssr:stedsnr" v="822227" />
	</node>
	<node lat="61.250355557602276" lon="5.4884305488678615" id="-79854">
		<tag k="name" v="Båthellarvika" />
		<tag k="natural" v="bay" />
		<tag k="ssr:stedsnr" v="822585" />
	</node>
	<node lat="61.298616670900586" lon="5.084652768301541" id="-79856">
		<tag k="name" v="Gardsholmen" />
		<tag k="place" v="islet" />
		<tag k="ssr:stedsnr" v="822726" />
	</node>
	<node lat="61.317052777546856" lon="5.150394447953521" id="-79860">
		<tag k="name" v="Ytre Kjøssneset" />
		<tag k="natural" v="cape" />
		<tag k="ssr:stedsnr" v="842689" />
	</node>
	<node lat="61.26378332938906" lon="4.973027769436971" id="-79863">
		<tag k="name" v="Søreneset" />
		<tag k="natural" v="cape" />
		<tag k="ssr:stedsnr" v="857109" />
	</node>
	<node lat="61.329949999501565" lon="5.319775006577527" id="-79867">
		<tag k="name" v="Djupevika" />
		<tag k="natural" v="bay" />
		<tag k="ssr:stedsnr" v="857307" />
	</node>
	<node lat="61.30118055934951" lon="5.227244444085175" id="-79881">
		<tag k="name" v="Trodvika" />
		<tag k="natural" v="bay" />
		<tag k="ssr:stedsnr" v="857505" />
	</node>
	<node lat="61.26272777780187" lon="4.962897219882974" id="-79905">
		<tag k="name" v="Brendeholmen" />
		<tag k="place" v="islet" />
		<tag k="ssr:stedsnr" v="882905" />
	</node>
	<node lat="61.2651527799081" lon="5.020672213467188" id="-79911">
		<tag k="name" v="Langeneset" />
		<tag k="natural" v="cape" />
		<tag k="ssr:stedsnr" v="883300" />
	</node>
	<node lat="61.35792778028517" lon="5.316127770583007" id="-79925">
		<tag k="name" v="Ytre Øyna" />
		<tag k="natural" v="cape" />
		<tag k="ssr:stedsnr" v="903370" />
	</node>
	<node lat="61.35664450520919" lon="5.310115379583177" id="-79926">
		<tag k="name" v="Hegrenessundet" />
		<tag k="natural" v="strait" />
		<tag k="ssr:stedsnr" v="903375" />
	</node>
	<node lat="61.33971666828507" lon="5.303808334802298" id="-79927">
		<tag k="name" v="Eldesund" />
		<tag k="natural" v="strait" />
		<tag k="ssr:stedsnr" v="903377" />
	</node>
	<node lat="61.29803888714216" lon="5.208355558543605" id="-79933">
		<tag k="alt_name" v="Melkevika" />
		<tag k="name" v="Mekevika" />
		<tag k="natural" v="bay" />
		<tag k="ssr:stedsnr" v="917471" />
	</node>
	<node lat="61.246050001349126" lon="4.9858777767293905" id="-79953">
		<tag k="alt_name" v="Stampevågen" />
		<tag k="name" v="Stamparvågen" />
		<tag k="natural" v="bay" />
		<tag k="ssr:stedsnr" v="920989" />
	</node>
	<node lat="61.32081110947573" lon="5.349263885095507" id="-79969">
		<tag k="fixme" v="consider seamark:type=rock or natural=shoal" />
		<tag k="name" v="Kobbeskjeret" />
		<tag k="place" v="islet" />
		<tag k="ssr:stedsnr" v="944535" />
	</node>
	<node lat="61.35651666301077" lon="5.291977782490241" id="-79979">
		<tag k="name" v="Livra" />
		<tag k="natural" v="cape" />
		<tag k="ssr:stedsnr" v="963413" />
	</node>
	<node lat="61.304708024412555" lon="5.179711154706376" id="-80004">
		<tag k="alt_name" v="Breivika" />
		<tag k="name" v="Breidvika" />
		<tag k="natural" v="bay" />
		<tag k="ssr:stedsnr" v="7462" />
	</node>
	<node lat="61.299913887662576" lon="5.070919451312504" id="-80014">
		<tag k="name" v="Furevika" />
		<tag k="natural" v="bay" />
		<tag k="ssr:stedsnr" v="8072" />
	</node>
	<node lat="61.287755558561564" lon="5.040702785112267" id="-80015">
		<tag k="name" v="Klubben" />
		<tag k="natural" v="cape" />
		<tag k="ssr:stedsnr" v="8079" />
	</node>
	<node lat="61.28601388966078" lon="5.05188889510392" id="-80016">
		<tag k="name" v="Fursetvågen" />
		<tag k="natural" v="bay" />
		<tag k="ssr:stedsnr" v="8080" />
	</node>
	<node lat="61.247811106572094" lon="4.9459833256029" id="-80043">
		<tag k="name" v="Øyatåholmane" />
		<tag k="place" v="islet" />
		<tag k="ssr:stedsnr" v="9978" />
	</node>
	<node lat="61.29431944627913" lon="5.10241666591267" id="-80058">
		<tag k="name" v="Svinevika" />
		<tag k="natural" v="bay" />
		<tag k="ssr:stedsnr" v="33757" />
	</node>
	<node lat="61.258852775814994" lon="4.98263611433163" id="-80075">
		<tag k="name" v="Sakseneset" />
		<tag k="natural" v="cape" />
		<tag k="ssr:stedsnr" v="68108" />
	</node>
	<node lat="61.357488885229984" lon="5.333530561675668" id="-80077">
		<tag k="name" v="Sletteneset" />
		<tag k="natural" v="cape" />
		<tag k="ssr:stedsnr" v="68326" />
	</node>
	<node lat="61.33607499865512" lon="5.309658327090662" id="-80086">
		<tag k="bay" v="fjord" />
		<tag k="name" v="Flekkefjorden" />
		<tag k="natural" v="bay" />
		<tag k="ssr:stedsnr" v="68277" />
	</node>
	<node lat="61.3518666638835" lon="5.347066667695873" id="-80089">
		<tag k="name" v="Rørneset" />
		<tag k="natural" v="cape" />
		<tag k="ssr:stedsnr" v="68362" />
	</node>
	<node lat="61.30822777484738" lon="5.122516667965248" id="-80092">
		<tag k="name" v="Risholmane" />
		<tag k="place" v="islet" />
		<tag k="ssr:stedsnr" v="68462" />
	</node>
	<node lat="61.273861115431764" lon="4.935786117260475" id="-80102">
		<tag k="alt_name" v="Langøya" />
		<tag k="name" v="Langøyna" />
		<tag k="place" v="islet" />
		<tag k="ssr:stedsnr" v="69113" />
	</node>
	<node lat="61.272466670453404" lon="4.931838887841442" id="-80103">
		<tag k="fixme" v="consider seamark:type=rock or natural=shoal" />
		<tag k="name" v="Langøyskjeret" />
		<tag k="place" v="islet" />
		<tag k="ssr:stedsnr" v="69114" />
	</node>
	<node lat="61.2990166633414" lon="5.1474444384248015" id="-80112">
		<tag k="alt_name" v="Breivågen" />
		<tag k="name" v="Breidvågen" />
		<tag k="natural" v="bay" />
		<tag k="ssr:stedsnr" v="69750" />
	</node>
	<node lat="61.26283610804702" lon="4.950350009063857" id="-80135">
		<tag k="name" v="Litle Ramsøyna" />
		<tag k="place" v="island" />
		<tag k="ssr:stedsnr" v="94236" />
	</node>
	<node lat="61.27870000186615" lon="4.973805559489497" id="-80136">
		<tag k="name" v="Vardeholmskjeret" />
		<tag k="place" v="island" />
		<tag k="ssr:stedsnr" v="94244" />
	</node>
	<node lat="61.35594721972604" lon="5.3127888921008095" id="-80151">
		<tag k="name" v="Linda" />
		<tag k="natural" v="cape" />
		<tag k="ssr:stedsnr" v="94693" />
	</node>
	<node lat="61.297536111195505" lon="5.092411114290853" id="-80157">
		<tag k="name" v="Snekkevågen" />
		<tag k="natural" v="bay" />
		<tag k="ssr:stedsnr" v="94736" />
	</node>
	<node lat="61.2993666690838" lon="5.081519438180813" id="-80158">
		<tag k="name" v="Steinneset" />
		<tag k="natural" v="cape" />
		<tag k="ssr:stedsnr" v="94739" />
	</node>
	<node lat="61.296633330082685" lon="5.116488892117507" id="-80163">
		<tag k="name" v="Pollahopen" />
		<tag k="natural" v="bay" />
		<tag k="ssr:stedsnr" v="94785" />
	</node>
	<node lat="61.346380555514024" lon="5.227172219565457" id="-80170">
		<tag k="name" v="Sylvsteinvika" />
		<tag k="natural" v="bay" />
		<tag k="ssr:stedsnr" v="113437" />
	</node>
	<node lat="61.30133888953521" lon="5.102497214162084" id="-80171">
		<tag k="name" v="Svinøyflua" />
		<tag k="natural" v="shoal" />
		<tag k="place" v="locality" />
		<tag k="ssr:stedsnr" v="113493" />
	</node>
	<node lat="61.314077774842445" lon="5.1367361051488585" id="-80176">
		<tag k="name" v="Selvika" />
		<tag k="natural" v="bay" />
		<tag k="ssr:stedsnr" v="128261" />
	</node>
	<node lat="61.29759444720209" lon="5.135833333183298" id="-80179">
		<tag k="name" v="Landøyna" />
		<tag k="place" v="islet" />
		<tag k="ssr:stedsnr" v="128447" />
	</node>
	<node lat="61.25006666254493" lon="4.853600001468152" id="-80183">
		<tag k="alt_name" v="Myrbærskjera" />
		<tag k="fixme" v="consider seamark:type=rock or natural=shoal" />
		<tag k="name" v="Myrebærskjera" />
		<tag k="place" v="islet" />
		<tag k="ssr:stedsnr" v="129026" />
	</node>
	<node lat="61.30854992838009" lon="5.131407712948422" id="-80190">
		<tag k="name" v="Talgavika" />
		<tag k="natural" v="bay" />
		<tag k="ssr:stedsnr" v="129444" />
	</node>
	<node lat="61.333825003260046" lon="5.32986111266501" id="-80227">
		<tag k="name" v="Hauglandsholmane" />
		<tag k="place" v="island" />
		<tag k="ssr:stedsnr" v="154654" />
	</node>
	<node lat="61.306786114573036" lon="5.114263885827448" id="-80244">
		<tag k="fixme" v="consider seamark:type=rock or natural=shoal" />
		<tag k="name" v="Tretteskjeret" />
		<tag k="place" v="islet" />
		<tag k="ssr:stedsnr" v="155725" />
	</node>
	<node lat="61.30044166829356" lon="5.120741669817728" id="-80245">
		<tag k="name" v="Kobbeholmen" />
		<tag k="natural" v="cape" />
		<tag k="ssr:stedsnr" v="155726" />
	</node>
	<node lat="61.32628333011743" lon="5.216180547374748" id="-80247">
		<tag k="name" v="Storevikneset" />
		<tag k="natural" v="cape" />
		<tag k="ssr:stedsnr" v="173423" />
	</node>
	<node lat="61.255883330611645" lon="4.987049996052011" id="-80249">
		<tag k="name" v="Saueholmen" />
		<tag k="place" v="islet" />
		<tag k="ssr:stedsnr" v="173961" />
	</node>
	<node lat="61.24886389065772" lon="4.8472277815127995" id="-80250">
		<tag k="fixme" v="consider seamark:type=rock or natural=shoal" />
		<tag k="name" v="Myrbærskjerskolten" />
		<tag k="place" v="islet" />
		<tag k="ssr:stedsnr" v="174852" />
	</node>
	<node lat="61.28493055492927" lon="5.010869436819729" id="-80285">
		<tag k="name" v="Djupevika" />
		<tag k="natural" v="bay" />
		<tag k="ssr:stedsnr" v="190754" />
	</node>
	<node lat="61.24578055914252" lon="4.948447218223267" id="-80290">
		<tag k="name" v="Øyatåna" />
		<tag k="natural" v="cape" />
		<tag k="ssr:stedsnr" v="191980" />
	</node>
	<node lat="61.26575277566804" lon="5.009616667928342" id="-80296">
		<tag k="name" v="Lakseverpneset" />
		<tag k="natural" v="cape" />
		<tag k="ssr:stedsnr" v="215265" />
	</node>
	<node lat="61.34845555149472" lon="5.25241110422222" id="-80309">
		<tag k="name" v="Raudenebben" />
		<tag k="natural" v="cape" />
		<tag k="ssr:stedsnr" v="215734" />
	</node>
	<node lat="61.28982500174091" lon="5.038341665589213" id="-80311">
		<tag k="name" v="Steinneset" />
		<tag k="natural" v="cape" />
		<tag k="ssr:stedsnr" v="215742" />
	</node>
	<node lat="61.30112778045667" lon="5.065508339531463" id="-80314">
		<tag k="name" v="Sandvika" />
		<tag k="natural" v="bay" />
		<tag k="ssr:stedsnr" v="215753" />
	</node>
	<node lat="61.25288055468929" lon="4.9568944441635185" id="-80323">
		<tag k="name" v="Ytstelutvågane" />
		<tag k="natural" v="bay" />
		<tag k="ssr:stedsnr" v="215936" />
	</node>
	<node lat="61.266508334660486" lon="4.942927769570596" id="-80335">
		<tag k="name" v="Oksen" />
		<tag k="place" v="island" />
		<tag k="ssr:stedsnr" v="275914" />
	</node>
	<node lat="61.245975001884446" lon="5.491566669895402" id="-80349">
		<tag k="name" v="Snorrevika" />
		<tag k="natural" v="bay" />
		<tag k="ssr:stedsnr" v="276962" />
	</node>
	<node lat="61.25438333393271" lon="5.005205557057832" id="-80393">
		<tag k="name" v="Jyttaholmen" />
		<tag k="place" v="islet" />
		<tag k="ssr:stedsnr" v="336242" />
	</node>
	<node lat="61.252966662577236" lon="4.947561107080568" id="-80395">
		<tag k="name" v="Goskjeret" />
		<tag k="place" v="islet" />
		<tag k="ssr:stedsnr" v="336926" />
	</node>
	<node lat="61.328383337289715" lon="5.331977776041522" id="-80404">
		<tag k="name" v="Litlevikholmen" />
		<tag k="place" v="islet" />
		<tag k="ssr:stedsnr" v="337575" />
	</node>
	<node lat="61.30782499654136" lon="5.2244166652004935" id="-80407">
		<tag k="name" v="Storeholmen" />
		<tag k="natural" v="cape" />
		<tag k="ssr:stedsnr" v="337609" />
	</node>
	<node lat="61.300358329447015" lon="5.106358330538905" id="-80412">
		<tag k="fixme" v="consider seamark:type=rock or natural=shoal" />
		<tag k="name" v="Øynaskjeret" />
		<tag k="place" v="islet" />
		<tag k="ssr:stedsnr" v="337723" />
	</node>
	<node lat="61.301080555291186" lon="5.113519436762392" id="-80413">
		<tag k="name" v="Kringla" />
		<tag k="natural" v="bay" />
		<tag k="ssr:stedsnr" v="337732" />
	</node>
	<node lat="61.24422777606375" lon="5.48192499354526" id="-80415">
		<tag k="name" v="Eidet" />
		<tag k="place" v="locality" />
		<tag k="ssr:stedsnr" v="337935" />
	</node>
	<node lat="61.36428888538959" lon="5.330286117196425" id="-80421">
		<tag k="name" v="Hovdeneset" />
		<tag k="natural" v="cape" />
		<tag k="ssr:stedsnr" v="356476" />
	</node>
	<node lat="61.35186251377162" lon="5.320313557572681" id="-80437">
		<tag k="alt_name" v="Esstølvika" />
		<tag k="name" v="Stigvika" />
		<tag k="natural" v="bay" />
		<tag k="ssr:stedsnr" v="371331" />
	</node>
	<node lat="61.29998390566909" lon="5.118199358679052" id="-80439">
		<tag k="name" v="Kringlesundet" />
		<tag k="natural" v="strait" />
		<tag k="ssr:stedsnr" v="371445" />
	</node>
	<node lat="61.2596694456829" lon="4.988183335339699" id="-80468">
		<tag k="alt_name" v="Skitnepøyla" />
		<tag k="name" v="Skitnepollen" />
		<tag k="natural" v="bay" />
		<tag k="ssr:stedsnr" v="397259" />
	</node>
	<node lat="61.304522226046736" lon="5.055841667832156" id="-80477">
		<tag k="name" v="Sandvikeneset" />
		<tag k="natural" v="cape" />
		<tag k="ssr:stedsnr" v="397721" />
	</node>
	<node lat="61.30243056014548" lon="5.129527783329456" id="-80484">
		<tag k="name" v="Rotekastet" />
		<tag k="natural" v="strait" />
		<tag k="ssr:stedsnr" v="397756" />
	</node>
	<node lat="61.30595277615403" lon="5.062405554515526" id="-80518">
		<tag k="name" v="Fureholmen" />
		<tag k="place" v="islet" />
		<tag k="ssr:stedsnr" v="433096" />
	</node>
	<node lat="61.309033335691346" lon="5.220616669723803" id="-80525">
		<tag k="name" v="Lyngneset" />
		<tag k="natural" v="cape" />
		<tag k="ssr:stedsnr" v="433454" />
	</node>
	<node lat="61.2983138887012" lon="5.091561112417826" id="-80553">
		<tag k="name" v="Kyraneset" />
		<tag k="natural" v="cape" />
		<tag k="ssr:stedsnr" v="518685" />
	</node>
	<node lat="61.29185278151578" lon="5.057005547701464" id="-80568">
		<tag k="name" v="Kyraneset" />
		<tag k="natural" v="cape" />
		<tag k="ssr:stedsnr" v="519692" />
	</node>
	<node lat="61.29561111164888" lon="5.125605563881389" id="-80575">
		<tag k="name" v="Løvikneset" />
		<tag k="natural" v="cape" />
		<tag k="ssr:stedsnr" v="519747" />
	</node>
	<node lat="61.360940080495986" lon="5.355250161866146" id="-80582">
		<tag k="name" v="Øyaholmen" />
		<tag k="place" v="islet" />
		<tag k="ssr:stedsnr" v="539463" />
	</node>
	<node lat="61.304769442780696" lon="5.1666861122622825" id="-80583">
		<tag k="alt_name" v="Ovisteholmen;Uvisteholmen" />
		<tag k="name" v="Oberstholmen" />
		<tag k="place" v="islet" />
		<tag k="ssr:stedsnr" v="539638" />
	</node>
	<node lat="61.31637777419958" lon="5.201500009760737" id="-80596">
		<tag k="name" v="Brynhildevika" />
		<tag k="natural" v="bay" />
		<tag k="ssr:stedsnr" v="553274" />
	</node>
	<node lat="61.292655551705735" lon="5.03096666734626" id="-80602">
		<tag k="name" v="Spruteneset" />
		<tag k="natural" v="cape" />
		<tag k="ssr:stedsnr" v="554062" />
	</node>
	<node lat="61.28379722056193" lon="4.980783328398225" id="-80603">
		<tag k="name" v="Einingsneset" />
		<tag k="natural" v="cape" />
		<tag k="ssr:stedsnr" v="554070" />
	</node>
	<node lat="61.332288892708156" lon="5.204005561228984" id="-80610">
		<tag k="name" v="Askvika" />
		<tag k="natural" v="bay" />
		<tag k="ssr:stedsnr" v="554740" />
	</node>
	<node lat="61.305114058449014" lon="5.058727148205345" id="-80612">
		<tag k="name" v="Fureneset" />
		<tag k="natural" v="cape" />
		<tag k="ssr:stedsnr" v="554768" />
	</node>
	<node lat="61.25522500031848" lon="4.963319447975777" id="-80621">
		<tag k="name" v="Lutelandet" />
		<tag k="place" v="island" />
		<tag k="ssr:stedsnr" v="555979" />
	</node>
	<node lat="61.248241670312815" lon="4.9900583365957525" id="-80622">
		<tag k="name" v="Toppaneset" />
		<tag k="natural" v="cape" />
		<tag k="ssr:stedsnr" v="555981" />
	</node>
	<node lat="61.24549714853744" lon="4.975768417413037" id="-80623">
		<tag k="name" v="Fløholmen" />
		<tag k="natural" v="cape" />
		<tag k="ssr:stedsnr" v="555983" />
	</node>
	<node lat="61.352219443184325" lon="5.335199994757599" id="-80632">
		<tag k="name" v="Kviteneset" />
		<tag k="natural" v="cape" />
		<tag k="ssr:stedsnr" v="579582" />
	</node>
	<node lat="61.291277777302234" lon="5.134719450009351" id="-80640">
		<tag k="name" v="Kyraholmen" />
		<tag k="natural" v="cape" />
		<tag k="ssr:stedsnr" v="579758" />
	</node>
	<node lat="61.3510527774664" lon="5.3493916657864915" id="-80650">
		<tag k="name" v="Rørnesstranda" />
		<tag k="natural" v="beach" />
		<tag k="ssr:stedsnr" v="599294" />
	</node>
	<node lat="61.374813885422505" lon="5.438580564419602" id="-80651">
		<tag k="name" v="Verpingsneset" />
		<tag k="natural" v="cape" />
		<tag k="ssr:stedsnr" v="614127" />
	</node>
	<node lat="61.347824996502446" lon="5.230305546636952" id="-80656">
		<tag k="name" v="Stellet" />
		<tag k="natural" v="cape" />
		<tag k="ssr:stedsnr" v="614332" />
	</node>
	<node lat="61.34725833640213" lon="5.264044436973524" id="-80657">
		<tag k="name" v="Fjæra" />
		<tag k="natural" v="bay" />
		<tag k="ssr:stedsnr" v="614333" />
	</node>
	<node lat="61.29062222437893" lon="5.020777775588088" id="-80661">
		<tag k="name" v="Grytøyrholmen" />
		<tag k="place" v="islet" />
		<tag k="ssr:stedsnr" v="614077" />
	</node>
	<node lat="61.35227778136524" lon="5.20811665694326" id="-80663">
		<tag k="bay" v="fjord" />
		<tag k="name" v="Dalsfjorden" />
		<tag k="natural" v="bay" />
		<tag k="ssr:stedsnr" v="614084" />
	</node>
	<node lat="61.24600555230726" lon="5.469783337265778" id="-80704">
		<tag k="name" v="Ånjeneset" />
		<tag k="natural" v="cape" />
		<tag k="ssr:stedsnr" v="640543" />
	</node>
	<node lat="61.31579722229591" lon="5.1518999950136095" id="-80720">
		<tag k="name" v="Kyravika" />
		<tag k="natural" v="bay" />
		<tag k="ssr:stedsnr" v="640654" />
	</node>
	<node lat="61.35809722647042" lon="5.3073250031248795" id="-80723">
		<tag k="name" v="Loteneset" />
		<tag k="natural" v="cape" />
		<tag k="ssr:stedsnr" v="640667" />
	</node>
	<node lat="61.294463887332654" lon="5.136347226393151" id="-80726">
		<tag k="name" v="Hatlevika" />
		<tag k="natural" v="bay" />
		<tag k="ssr:stedsnr" v="640735" />
	</node>
	<node lat="61.3736055524707" lon="5.495619440138574" id="-80737">
		<tag k="name" v="Strandaflua" />
		<tag k="natural" v="shoal" />
		<tag k="place" v="locality" />
		<tag k="ssr:stedsnr" v="659256" />
	</node>
	<node lat="61.28053611417101" lon="4.9659305587604345" id="-80738">
		<tag k="fixme" v="consider seamark:type=rock or natural=shoal" />
		<tag k="name" v="Bleikeskjeret" />
		<tag k="place" v="islet" />
		<tag k="ssr:stedsnr" v="659965" />
	</node>
	<node lat="61.28340833315709" lon="4.965802776799994" id="-80740">
		<tag k="name" v="Einingsflua" />
		<tag k="natural" v="shoal" />
		<tag k="place" v="locality" />
		<tag k="ssr:stedsnr" v="720963" />
	</node>
	<node lat="61.29577777918811" lon="5.124547220667606" id="-80741">
		<tag k="name" v="Strokeneset" />
		<tag k="natural" v="cape" />
		<tag k="ssr:stedsnr" v="721632" />
	</node>
	<node lat="61.32880278202389" lon="5.206880555441171" id="-80747">
		<tag k="alt_name" v="Andalsvik" />
		<tag k="name" v="Agnalsvika" />
		<tag k="natural" v="bay" />
		<tag k="ssr:stedsnr" v="735258" />
	</node>
	<node lat="61.331155559963335" lon="5.3319000071566816" id="-80754">
		<tag k="alt_name" v="Hestneset" />
		<tag k="name" v="Hesteneset" />
		<tag k="natural" v="cape" />
		<tag k="ssr:stedsnr" v="735279" />
	</node>
	<node lat="61.31720807426742" lon="5.2014317133561985" id="-80778">
		<tag k="name" v="Langeneset" />
		<tag k="natural" v="cape" />
		<tag k="ssr:stedsnr" v="737702" />
	</node>
	<node lat="61.26637221940199" lon="5.0261833384652075" id="-80785">
		<tag k="name" v="Bøneset" />
		<tag k="natural" v="cape" />
		<tag k="ssr:stedsnr" v="761282" />
	</node>
	<node lat="61.253847222081966" lon="5.019227781006246" id="-80786">
		<tag k="name" v="Brendeneset" />
		<tag k="natural" v="cape" />
		<tag k="ssr:stedsnr" v="761284" />
	</node>
	<node lat="61.298666664470716" lon="5.110699999569648" id="-80798">
		<tag k="name" v="Skotehamnholmen" />
		<tag k="place" v="islet" />
		<tag k="ssr:stedsnr" v="761776" />
	</node>
	<node lat="61.37427499732049" lon="5.474799996486188" id="-80802">
		<tag k="name" v="Bernneset" />
		<tag k="natural" v="cape" />
		<tag k="ssr:stedsnr" v="761987" />
	</node>
	<node lat="61.268505559433805" lon="4.951547220363814" id="-80804">
		<tag k="alt_name" v="Skibuvågen" />
		<tag k="name" v="Sjøbuvågen" />
		<tag k="natural" v="bay" />
		<tag k="ssr:stedsnr" v="761939" />
	</node>
	<node lat="61.31595555659591" lon="5.129358326510693" id="-80814">
		<tag k="alt_name" v="Solbeden;Selbinen" />
		<tag k="fixme" v="consider seamark:type=rock or natural=shoal" />
		<tag k="name" v="Selbeden" />
		<tag k="place" v="islet" />
		<tag k="ssr:stedsnr" v="796292" />
	</node>
	<node lat="61.30100833308084" lon="5.115541660382136" id="-80818">
		<tag k="alt_name" v="Svinøya" />
		<tag k="name" v="Svinøyna" />
		<tag k="place" v="islet" />
		<tag k="ssr:stedsnr" v="796469" />
	</node>
	<node lat="61.35009444434638" lon="5.351505562179828" id="-80821">
		<tag k="alt_name" v="Bortheimsstranda" />
		<tag k="fixme" v="multiple name tags, choose one and add the other to alt_name" />
		<tag k="name" v="Bortneimsstranda;Bortnheimsstranda" />
		<tag k="natural" v="beach" />
		<tag k="ssr:stedsnr" v="796350" />
	</node>
	<node lat="61.33540833544968" lon="5.199550008870115" id="-80834">
		<tag k="name" v="Nedgardsvika" />
		<tag k="natural" v="bay" />
		<tag k="ssr:stedsnr" v="797355" />
	</node>
	<node lat="61.30585277384875" lon="5.216199991855871" id="-80852">
		<tag k="fixme" v="consider seamark:type=rock or natural=shoal" />
		<tag k="name" v="Lakseskjeret" />
		<tag k="place" v="islet" />
		<tag k="ssr:stedsnr" v="822662" />
	</node>
	<node lat="61.303955553835856" lon="5.201172230180383" id="-80854">
		<tag k="name" v="Kringla" />
		<tag k="natural" v="bay" />
		<tag k="ssr:stedsnr" v="822740" />
	</node>
	<node lat="61.281013884811856" lon="5.162000005000074" id="-80855">
		<tag k="name" v="Kringlevassneset" />
		<tag k="natural" v="cape" />
		<tag k="ssr:stedsnr" v="822748" />
	</node>
	<node lat="61.297627775721" lon="5.099705556466113" id="-80856">
		<tag k="fixme" v="consider seamark:type=rock or natural=shoal" />
		<tag k="name" v="Jensskjeret" />
		<tag k="place" v="islet" />
		<tag k="ssr:stedsnr" v="822753" />
	</node>
	<node lat="61.29408611507349" lon="5.034741665926987" id="-80857">
		<tag k="name" v="Kårlaupvika" />
		<tag k="natural" v="bay" />
		<tag k="ssr:stedsnr" v="822255" />
	</node>
	<node lat="61.268880558318926" lon="5.022977771167376" id="-80861">
		<tag k="name" v="Pomberen" />
		<tag k="place" v="islet" />
		<tag k="ssr:stedsnr" v="822287" />
	</node>
	<node lat="61.34591666504827" lon="5.302422217592555" id="-80866">
		<tag k="name" v="Mækevika" />
		<tag k="natural" v="bay" />
		<tag k="ssr:stedsnr" v="822689" />
	</node>
	<node lat="61.24606666785984" lon="5.484488889838235" id="-80878">
		<tag k="name" v="Yndestadsundet" />
		<tag k="natural" v="strait" />
		<tag k="ssr:stedsnr" v="822957" />
	</node>
	<node lat="61.25084444673478" lon="5.0157416731085105" id="-80882">
		<tag k="name" v="Bygdehamna" />
		<tag k="natural" v="bay" />
		<tag k="ssr:stedsnr" v="841960" />
	</node>
	<node lat="61.342863887698456" lon="5.2954249910293925" id="-80888">
		<tag k="name" v="Langeneset" />
		<tag k="natural" v="cape" />
		<tag k="ssr:stedsnr" v="858748" />
	</node>
	<node lat="61.25880277787227" lon="4.942305554897446" id="-80896">
		<tag k="fixme" v="consider seamark:type=rock or natural=shoal" />
		<tag k="name" v="Bekla" />
		<tag k="place" v="islet" />
		<tag k="ssr:stedsnr" v="857102" />
	</node>
	<node lat="61.298294447506414" lon="5.093549996388095" id="-80904">
		<tag k="alt_name" v="Strand" />
		<tag k="name" v="Stranda" />
		<tag k="natural" v="cape" />
		<tag k="ssr:stedsnr" v="857480" />
	</node>
	<node lat="61.3029194444127" lon="5.170402784022695" id="-80905">
		<tag k="name" v="Hellevika" />
		<tag k="natural" v="bay" />
		<tag k="ssr:stedsnr" v="857483" />
	</node>
	<node lat="61.29532777581287" lon="5.031600003060569" id="-80916">
		<tag k="alt_name" v="Kårlaupet;Kårlaupeneset" />
		<tag k="name" v="Korlaup" />
		<tag k="natural" v="cape" />
		<tag k="ssr:stedsnr" v="858065" />
	</node>
	<node lat="61.24931110767836" lon="4.935524999430802" id="-80935">
		<tag k="name" v="Brattholmane" />
		<tag k="place" v="islet" />
		<tag k="ssr:stedsnr" v="859981" />
	</node>
	<node lat="61.36323888594568" lon="5.351291674370523" id="-80939">
		<tag k="name" v="Nesjane" />
		<tag k="natural" v="cape" />
		<tag k="ssr:stedsnr" v="883590" />
	</node>
	<node lat="61.26983333449215" lon="4.945775001880493" id="-80949">
		<tag k="name" v="Jaktevika" />
		<tag k="natural" v="bay" />
		<tag k="ssr:stedsnr" v="882893" />
	</node>
	<node lat="61.274572222752674" lon="4.947658326668242" id="-80952">
		<tag k="name" v="Skjelgeneset" />
		<tag k="natural" v="cape" />
		<tag k="ssr:stedsnr" v="883240" />
	</node>
	<node lat="61.348824998524144" lon="5.23202222850316" id="-80964">
		<tag k="alt_name" v="Sølvsteintåa" />
		<tag k="name" v="Sylvsteintåa" />
		<tag k="natural" v="cape" />
		<tag k="ssr:stedsnr" v="883733" />
	</node>
	<node lat="61.30361944324514" lon="5.2059638966156205" id="-80968">
		<tag k="name" v="Aurevågen" />
		<tag k="natural" v="bay" />
		<tag k="ssr:stedsnr" v="883772" />
	</node>
	<node lat="61.29749166913333" lon="5.106911102775787" id="-80970">
		<tag k="name" v="Veirvikneset" />
		<tag k="natural" v="cape" />
		<tag k="ssr:stedsnr" v="883785" />
	</node>
	<node lat="61.25041110931603" lon="5.519575002546873" id="-80976">
		<tag k="name" v="Nøstet" />
		<tag k="natural" v="bay" />
		<tag k="ssr:stedsnr" v="883974" />
	</node>
	<node lat="61.25489166666197" lon="5.0170500039060855" id="-80980">
		<tag k="alt_name" v="Grunneholmen" />
		<tag k="name" v="Haugaholmen" />
		<tag k="place" v="islet" />
		<tag k="ssr:stedsnr" v="943259" />
	</node>
	<node lat="61.30131666470844" lon="5.227458330743547" id="-80981">
		<tag k="name" v="Trovika" />
		<tag k="natural" v="bay" />
		<tag k="ssr:stedsnr" v="943216" />
	</node>
	<node lat="61.249711110791985" lon="5.46526111874639" id="-80984">
		<tag k="name" v="Storeholmen" />
		<tag k="place" v="islet" />
		<tag k="ssr:stedsnr" v="944554" />
	</node>
	<node lat="61.26043055662405" lon="4.953638883356774" id="-80996">
		<tag k="name" v="Britevika" />
		<tag k="natural" v="bay" />
		<tag k="ssr:stedsnr" v="943910" />
	</node>
	<node lat="61.264300001591245" lon="4.964736107757526" id="-80997">
		<tag k="name" v="Lendingeholmen" />
		<tag k="place" v="islet" />
		<tag k="ssr:stedsnr" v="943913" />
	</node>
	<node lat="61.22470000345938" lon="5.657774993765293" id="-80999">
		<tag k="name" v="Båtstøa" />
		<tag k="natural" v="beach" />
		<tag k="ssr:stedsnr" v="943863" />
	</node>
	<node lat="61.35078333209184" lon="5.291683336911571" id="-81004">
		<tag k="alt_name" v="Timberneset" />
		<tag k="name" v="Timreneset" />
		<tag k="natural" v="cape" />
		<tag k="ssr:stedsnr" v="944670" />
	</node>
	<node lat="61.294575002349376" lon="5.130486104397312" id="-81005">
		<tag k="name" v="Straumholmen" />
		<tag k="place" v="islet" />
		<tag k="ssr:stedsnr" v="944749" />
	</node>
	<node lat="61.356249998599075" lon="5.370913883715023" id="-81012">
		<tag k="alt_name" v="Indre Bortheimsvika;Indre Bortneimsvika;Bortneimsvika" />
		<tag k="name" v="Bortnheimsvika" />
		<tag k="natural" v="bay" />
		<tag k="ssr:stedsnr" v="962308" />
	</node>
	<node lat="61.30546666784319" lon="5.069552782119867" id="-81013">
		<tag k="name" v="Fureholmflua" />
		<tag k="natural" v="shoal" />
		<tag k="place" v="locality" />
		<tag k="ssr:stedsnr" v="963562" />
	</node>
	<node lat="61.255510467739775" lon="4.9903010587937064" id="-81094">
		<tag k="name" v="Klubben" />
		<tag k="natural" v="cape" />
		<tag k="ssr:stedsnr" v="1072877" />
	</node>
	<node lat="61.254365486445906" lon="4.9884494139788345" id="-81095">
		<tag k="name" v="Røysaneset" />
		<tag k="natural" v="cape" />
		<tag k="ssr:stedsnr" v="1072878" />
	</node>
	<node lat="61.25505723274791" lon="4.988980676063202" id="-81096">
		<tag k="name" v="Røysa" />
		<tag k="natural" v="shoal" />
		<tag k="place" v="locality" />
		<tag k="ssr:stedsnr" v="1072879" />
	</node>
	<node lat="61.25150926633455" lon="4.992404181058588" id="-81097">
		<tag k="name" v="Korssundholmen" />
		<tag k="place" v="islet" />
		<tag k="ssr:stedsnr" v="1072880" />
	</node>
	<node lat="61.32263725916393" lon="5.351851258819517" id="-81098">
		<tag k="name" v="Lendingsvika" />
		<tag k="natural" v="bay" />
		<tag k="ssr:stedsnr" v="1072949" />
	</node>
	<node lat="61.25703266193211" lon="4.986426072099956" id="-81099">
		<tag k="name" v="Notaneset" />
		<tag k="natural" v="cape" />
		<tag k="ssr:stedsnr" v="1072873" />
	</node>
</osm>
