<?xml version="1.0" encoding="UTF-8"?>
<osm version="0.6" generator="osmapis">
	<node lat="61.26817610249188" lon="5.011856301317" id="-78713">
		<tag k="fixme" v="consider place=hamlet" />
		<tag k="name" v="Holstad" />
		<tag k="place" v="farm" />
		<tag k="ssr:stedsnr" v="7110" />
	</node>
	<node lat="61.27279548544929" lon="4.951371297663" id="-78714">
		<tag k="alt_name" v="Lammetu" />
		<tag k="fixme" v="consider place=hamlet" />
		<tag k="name" v="Lammetun" />
		<tag k="place" v="farm" />
		<tag k="ssr:stedsnr" v="7113" />
	</node>
	<node lat="61.25596389130639" lon="5.6245277718615" id="-78716">
		<tag k="alt_name" v="Grøvlestølen" />
		<tag k="historic" v="shieling" />
		<tag k="name" v="Gryvlestølen" />
		<tag k="place" v="isolated_dwelling" />
		<tag k="ssr:stedsnr" v="7259" />
	</node>
	<node lat="61.35795377397979" lon="5.393337668432269" id="-78718">
		<tag k="alt_name" v="Steien" />
		<tag k="fixme" v="consider place=hamlet" />
		<tag k="name" v="Steia" />
		<tag k="place" v="farm" />
		<tag k="ssr:stedsnr" v="7323" />
	</node>
	<node lat="61.29501388549518" lon="5.136805548806935" id="-78720">
		<tag k="alt_name" v="Hatlevik" />
		<tag k="name" v="Haslevika" />
		<tag k="place" v="farm" />
		<tag k="ssr:stedsnr" v="7370" />
	</node>
	<node lat="61.29380145208491" lon="5.109237527842494" id="-78721">
		<tag k="alt_name" v="Håvåg" />
		<tag k="fixme" v="consider place=hamlet" />
		<tag k="name" v="Håvågen" />
		<tag k="place" v="farm" />
		<tag k="ssr:stedsnr" v="7371" />
	</node>
	<node lat="61.34571388899326" lon="5.538519452834844" id="-78724">
		<tag k="historic" v="shieling" />
		<tag k="name" v="Sagevikstølen" />
		<tag k="place" v="isolated_dwelling" />
		<tag k="ssr:stedsnr" v="8004" />
	</node>
	<node lat="61.312666869578166" lon="5.514129916848655" id="-78733">
		<tag k="alt_name" v="Tømmerbakk" />
		<tag k="fixme" v="consider place=hamlet" />
		<tag k="name" v="Timrebakken" />
		<tag k="place" v="farm" />
		<tag k="ssr:stedsnr" v="8153" />
	</node>
	<node lat="61.28632198678229" lon="5.18749501795502" id="-78739">
		<tag k="fixme" v="consider place=hamlet" />
		<tag k="name" v="Lone" />
		<tag k="place" v="farm" />
		<tag k="ssr:stedsnr" v="8468" />
	</node>
	<node lat="61.28108610737098" lon="5.516833332071614" id="-78741">
		<tag k="historic" v="shieling" />
		<tag k="name" v="Bogestølen" />
		<tag k="place" v="isolated_dwelling" />
		<tag k="ssr:stedsnr" v="8193" />
	</node>
	<node lat="61.31739722684197" lon="5.466269449689838" id="-78743">
		<tag k="alt_name" v="Buttedal" />
		<tag k="name" v="Buttedalen" />
		<tag k="place" v="farm" />
		<tag k="ssr:stedsnr" v="8506" />
	</node>
	<node lat="61.24825555621706" lon="5.6906333354197365" id="-78751">
		<tag k="alt_name" v="Heggeimsstølen" />
		<tag k="historic" v="shieling" />
		<tag k="name" v="Heggheimsstølen" />
		<tag k="place" v="isolated_dwelling" />
		<tag k="ssr:stedsnr" v="9948" />
	</node>
	<node lat="61.354611109840675" lon="5.400508325304536" id="-78764">
		<tag k="fixme" v="consider place=hamlet" />
		<tag k="name" v="Dingemoen" />
		<tag k="place" v="village" />
		<tag k="ssr:stedsnr" v="33589" />
	</node>
	<node lat="61.29493581560375" lon="5.102004053914048" id="-78782">
		<tag k="name" v="Svinevik" />
		<tag k="place" v="farm" />
		<tag k="ssr:stedsnr" v="53515" />
	</node>
	<node lat="61.26297760024648" lon="5.0347794880333065" id="-78784">
		<tag k="fixme" v="consider place=hamlet" />
		<tag k="name" v="Hovland" />
		<tag k="place" v="farm" />
		<tag k="ssr:stedsnr" v="68101" />
	</node>
	<node lat="61.29251110768046" lon="5.138605563229376" id="-78790">
		<tag k="name" v="Kleiva" />
		<tag k="place" v="farm" />
		<tag k="ssr:stedsnr" v="68400" />
	</node>
	<node lat="61.30837500381621" lon="5.352691675273027" id="-78794">
		<tag k="name" v="Eikeskogen" />
		<tag k="place" v="farm" />
		<tag k="ssr:stedsnr" v="68408" />
	</node>
	<node lat="61.296805551064764" lon="5.088688880842893" id="-78800">
		<tag k="alt_name" v="Snekkevåg" />
		<tag k="name" v="Snekkevågen" />
		<tag k="place" v="farm" />
		<tag k="ssr:stedsnr" v="69073" />
	</node>
	<node lat="61.27479444257822" lon="5.668669438304635" id="-78802">
		<tag k="name" v="Engjeneset" />
		<tag k="place" v="farm" />
		<tag k="ssr:stedsnr" v="69212" />
	</node>
	<node lat="61.278277926699424" lon="5.12623879064776" id="-78803">
		<tag k="alt_name" v="Kviteblik" />
		<tag k="fixme" v="consider place=hamlet" />
		<tag k="name" v="Kvitebliket" />
		<tag k="place" v="farm" />
		<tag k="ssr:stedsnr" v="69435" />
	</node>
	<node lat="61.32147499575109" lon="5.468913891235398" id="-78806">
		<tag k="name" v="Myklebost" />
		<tag k="place" v="farm" />
		<tag k="ssr:stedsnr" v="69601" />
	</node>
	<node lat="61.25980277911697" lon="5.047305551127081" id="-78826">
		<tag k="alt_name" v="Folkestad, s" />
		<tag k="name" v="Søre Folkestad" />
		<tag k="place" v="farm" />
		<tag k="ssr:stedsnr" v="250105" />
	</node>
	<node lat="61.320639826300955" lon="5.5097145392737366" id="-78827">
		<tag k="fixme" v="consider place=hamlet" />
		<tag k="name" v="Åse" />
		<tag k="place" v="farm" />
		<tag k="ssr:stedsnr" v="250071" />
	</node>
	<node lat="61.31598665066981" lon="5.505204929187439" id="-78828">
		<tag k="alt_name" v="Sunndalen, øvre;Sundal" />
		<tag k="name" v="Øvre Sunndalen" />
		<tag k="place" v="farm" />
		<tag k="ssr:stedsnr" v="250072" />
	</node>
	<node lat="61.313269448626365" lon="5.562116672932162" id="-78829">
		<tag k="historic" v="shieling" />
		<tag k="name" v="Slettelandsstølen" />
		<tag k="old_name" v="Slottelandsstølen" />
		<tag k="place" v="isolated_dwelling" />
		<tag k="ssr:stedsnr" v="250152" />
	</node>
	<node lat="61.25754402997429" lon="5.5058673767512945" id="-78839">
		<tag k="fixme" v="consider place=hamlet" />
		<tag k="name" v="Nova" />
		<tag k="place" v="farm" />
		<tag k="ssr:stedsnr" v="250255" />
	</node>
	<node lat="61.349488701136714" lon="5.40012722873937" id="-78840">
		<tag k="alt_name" v="Refsnes" />
		<tag k="fixme" v="consider place=hamlet" />
		<tag k="name" v="Revsneset" />
		<tag k="place" v="farm" />
		<tag k="ssr:stedsnr" v="250268" />
	</node>
	<node lat="61.33403610892096" lon="5.3367250006513585" id="-78841">
		<tag k="name" v="Ekra" />
		<tag k="place" v="farm" />
		<tag k="ssr:stedsnr" v="250280" />
	</node>
	<node lat="61.34486955195014" lon="5.267233468700419" id="-78842">
		<tag k="name" v="Tysse" />
		<tag k="place" v="farm" />
		<tag k="ssr:stedsnr" v="250343" />
	</node>
	<node lat="61.347584242242206" lon="5.277624469892612" id="-78843">
		<tag k="name" v="Fagervik" />
		<tag k="place" v="farm" />
		<tag k="ssr:stedsnr" v="250344" />
	</node>
	<node lat="61.360763505137136" lon="5.3538896714450335" id="-78847">
		<tag k="name" v="Holmen" />
		<tag k="place" v="farm" />
		<tag k="ssr:stedsnr" v="250323" />
	</node>
	<node lat="61.289158328927236" lon="5.182574995474995" id="-78848">
		<tag k="name" v="Smillhaugen" />
		<tag k="place" v="farm" />
		<tag k="ssr:stedsnr" v="250396" />
	</node>
	<node lat="61.293844440132624" lon="5.388644442698385" id="-78849">
		<tag k="historic" v="shieling" />
		<tag k="name" v="Rennestraumsstølen" />
		<tag k="place" v="isolated_dwelling" />
		<tag k="ssr:stedsnr" v="250408" />
	</node>
	<node lat="61.33800555564275" lon="5.2160138855385325" id="-78850">
		<tag k="name" v="Jonstad" />
		<tag k="place" v="farm" />
		<tag k="ssr:stedsnr" v="250368" />
	</node>
	<node lat="61.29208233640311" lon="5.146079299159306" id="-78853">
		<tag k="alt_name" v="Brennehaugen;Brendehaug" />
		<tag k="fixme" v="consider place=hamlet" />
		<tag k="name" v="Brendehaugen" />
		<tag k="place" v="farm" />
		<tag k="ssr:stedsnr" v="250378" />
	</node>
	<node lat="61.28779024689779" lon="5.142225321691086" id="-78854">
		<tag k="alt_name" v="Teinås" />
		<tag k="fixme" v="consider place=hamlet" />
		<tag k="name" v="Teinåsen" />
		<tag k="place" v="farm" />
		<tag k="ssr:stedsnr" v="250379" />
	</node>
	<node lat="61.327569446531044" lon="5.411874995953744" id="-78859">
		<tag k="alt_name" v="Lyngje" />
		<tag k="name" v="Lynge" />
		<tag k="place" v="farm" />
		<tag k="ssr:stedsnr" v="250443" />
	</node>
	<node lat="61.29766110712976" lon="5.117436103578774" id="-78862">
		<tag k="name" v="Pollen" />
		<tag k="place" v="farm" />
		<tag k="ssr:stedsnr" v="114668" />
	</node>
	<node lat="61.313252777226815" lon="5.217074994895399" id="-78867">
		<tag k="alt_name" v="Selvik" />
		<tag k="name" v="Solvika" />
		<tag k="place" v="farm" />
		<tag k="ssr:stedsnr" v="250459" />
	</node>
	<node lat="61.28405169025004" lon="4.999378016325743" id="-78882">
		<tag k="fixme" v="consider place=hamlet" />
		<tag k="name" v="Eina" />
		<tag k="place" v="farm" />
		<tag k="ssr:stedsnr" v="251084" />
	</node>
	<node lat="61.2762694466987" lon="5.603266659633413" id="-78885">
		<tag k="historic" v="shieling" />
		<tag k="name" v="Torestølen" />
		<tag k="place" v="isolated_dwelling" />
		<tag k="ssr:stedsnr" v="251227" />
	</node>
	<node lat="61.36158611443946" lon="5.348833324835951" id="-78901">
		<tag k="name" v="Pollen" />
		<tag k="place" v="farm" />
		<tag k="ssr:stedsnr" v="129324" />
	</node>
	<node lat="61.24156177539676" lon="5.550936684103577" id="-78915">
		<tag k="fixme" v="consider place=hamlet" />
		<tag k="name" v="Tuland" />
		<tag k="place" v="farm" />
		<tag k="ssr:stedsnr" v="252946" />
	</node>
	<node lat="61.34569140370053" lon="5.266166782279745" id="-78940">
		<tag k="fixme" v="consider place=hamlet" />
		<tag k="name" v="Tysse" />
		<tag k="place" v="farm" />
		<tag k="ssr:stedsnr" v="154724" />
	</node>
	<node lat="61.25385695584005" lon="4.994690500450873" id="-78963">
		<tag k="alt_name" v="Korssund" />
		<tag k="fixme" v="consider place=hamlet" />
		<tag k="name" v="Korssundet" />
		<tag k="place" v="farm" />
		<tag k="ssr:stedsnr" v="190014" />
	</node>
	<node lat="61.32144166908296" lon="5.354127785621381" id="-78971">
		<tag k="name" v="Litlevika" />
		<tag k="place" v="farm" />
		<tag k="ssr:stedsnr" v="190315" />
	</node>
	<node lat="61.296100004081595" lon="5.215466660018633" id="-78973">
		<tag k="alt_name" v="Sørdal" />
		<tag k="name" v="Saurdalen" />
		<tag k="place" v="farm" />
		<tag k="ssr:stedsnr" v="190419" />
	</node>
	<node lat="61.27559999580539" lon="5.405791675338315" id="-78984">
		<tag k="alt_name" v="Selkråa" />
		<tag k="historic" v="shieling" />
		<tag k="name" v="Lonelandsstølen" />
		<tag k="place" v="isolated_dwelling" />
		<tag k="ssr:stedsnr" v="190574" />
	</node>
	<node lat="61.239809222500554" lon="5.621658960812282" id="-78988">
		<tag k="alt_name" v="Grøvlen" />
		<tag k="fixme" v="consider place=hamlet" />
		<tag k="name" v="Gryvla" />
		<tag k="place" v="farm" />
		<tag k="ssr:stedsnr" v="191917" />
	</node>
	<node lat="61.31353333386584" lon="5.147027773470257" id="-79005">
		<tag k="name" v="Brunn" />
		<tag k="place" v="farm" />
		<tag k="ssr:stedsnr" v="215774" />
	</node>
	<node lat="61.3456444411103" lon="5.554933341023768" id="-79013">
		<tag k="historic" v="shieling" />
		<tag k="name" v="Gamle Nistadstølen" />
		<tag k="place" v="isolated_dwelling" />
		<tag k="ssr:stedsnr" v="215981" />
	</node>
	<node lat="61.20409999682583" lon="5.583191672832739" id="-79018">
		<tag k="historic" v="shieling" />
		<tag k="name" v="Gamlestølen" />
		<tag k="place" v="isolated_dwelling" />
		<tag k="ssr:stedsnr" v="457865" />
	</node>
	<node lat="61.3458505766436" lon="5.26080874706748" id="-79078">
		<tag k="alt_name" v="Eikerol" />
		<tag k="fixme" v="consider place=hamlet" />
		<tag k="name" v="Eikarol" />
		<tag k="place" v="farm" />
		<tag k="ssr:stedsnr" v="311402" />
	</node>
	<node lat="61.35851225928731" lon="5.343644889920129" id="-79079">
		<tag k="alt_name" v="Indre Øyna" />
		<tag k="fixme" v="consider place=hamlet" />
		<tag k="name" v="Øyna" />
		<tag k="place" v="farm" />
		<tag k="ssr:stedsnr" v="311381" />
	</node>
	<node lat="61.315352774856386" lon="5.363363889643381" id="-79089">
		<tag k="fixme" v="consider place=hamlet" />
		<tag k="name" v="Flekke" />
		<tag k="place" v="village" />
		<tag k="ssr:stedsnr" v="311490" />
	</node>
	<node lat="61.26936834943854" lon="5.34496976488546" id="-79090">
		<tag k="alt_name" v="Espedalen, nedre;Nedre Espedal" />
		<tag k="name" v="Nedre Espedalen" />
		<tag k="place" v="locality" />
		<tag k="ssr:stedsnr" v="311603" />
	</node>
	<node lat="61.36971666653159" lon="5.539477785630199" id="-79092">
		<tag k="name" v="Nistadlia" />
		<tag k="place" v="farm" />
		<tag k="ssr:stedsnr" v="311974" />
	</node>
	<node lat="61.23271944205174" lon="5.437244448371571" id="-79095">
		<tag k="name" v="Bakkane" />
		<tag k="place" v="farm" />
		<tag k="ssr:stedsnr" v="312623" />
	</node>
	<node lat="61.32809444232747" lon="5.237466666795267" id="-79109">
		<tag k="historic" v="shieling" />
		<tag k="name" v="Stølen" />
		<tag k="place" v="isolated_dwelling" />
		<tag k="ssr:stedsnr" v="337647" />
	</node>
	<node lat="61.36224166542814" lon="5.377874996060775" id="-79117">
		<tag k="name" v="Ytre Bjerga" />
		<tag k="place" v="farm" />
		<tag k="ssr:stedsnr" v="355323" />
	</node>
	<node lat="61.294066670354745" lon="5.077466659980605" id="-79119">
		<tag k="name" v="Fureteigen" />
		<tag k="place" v="farm" />
		<tag k="ssr:stedsnr" v="356511" />
	</node>
	<node lat="61.26021666684061" lon="5.429777781964021" id="-79122">
		<tag k="alt_name" v="Nedre Bjordal;Bjordalen, nedre" />
		<tag k="name" v="Nedre Bjordalen" />
		<tag k="place" v="farm" />
		<tag k="ssr:stedsnr" v="359554" />
	</node>
	<node lat="61.26326110764372" lon="5.006680553653942" id="-79123">
		<tag k="name" v="Stølen" />
		<tag k="place" v="farm" />
		<tag k="ssr:stedsnr" v="477985" />
	</node>
	<node lat="61.25316111089555" lon="5.621358324539213" id="-79128">
		<tag k="historic" v="shieling" />
		<tag k="name" v="Fosstølen" />
		<tag k="place" v="isolated_dwelling" />
		<tag k="ssr:stedsnr" v="371216" />
	</node>
	<node lat="61.28831111032453" lon="5.132916660021489" id="-79135">
		<tag k="name" v="Saga" />
		<tag k="place" v="farm" />
		<tag k="ssr:stedsnr" v="371368" />
	</node>
	<node lat="61.288155559434465" lon="5.180016665485074" id="-79139">
		<tag k="alt_name" v="Leite" />
		<tag k="name" v="Leitet" />
		<tag k="place" v="farm" />
		<tag k="ssr:stedsnr" v="371381" />
	</node>
	<node lat="61.256613729961586" lon="5.411725461084927" id="-79140">
		<tag k="name" v="Naustet" />
		<tag k="place" v="locality" />
		<tag k="ssr:stedsnr" v="371505" />
	</node>
	<node lat="61.269558330877366" lon="5.465991658263326" id="-79143">
		<tag k="historic" v="shieling" />
		<tag k="name" v="Gygrestølen" />
		<tag k="place" v="isolated_dwelling" />
		<tag k="ssr:stedsnr" v="371528" />
	</node>
	<node lat="61.298599996452694" lon="5.351344449204874" id="-79145">
		<tag k="name" v="Hjellen" />
		<tag k="place" v="farm" />
		<tag k="ssr:stedsnr" v="371402" />
	</node>
	<node lat="61.35347508763643" lon="5.420528011993598" id="-79155">
		<tag k="fixme" v="consider place=hamlet" />
		<tag k="name" v="Torset" />
		<tag k="place" v="farm" />
		<tag k="ssr:stedsnr" v="372372" />
	</node>
	<node lat="61.275438889330445" lon="5.4362055589424365" id="-79186">
		<tag k="alt_name" v="Øvre Bjordal;Bjørdalen, øvre" />
		<tag k="name" v="Øvre Bjordalen" />
		<tag k="place" v="farm" />
		<tag k="ssr:stedsnr" v="420614" />
	</node>
	<node lat="61.25707226927781" lon="5.031748308909529" id="-79194">
		<tag k="fixme" v="consider place=hamlet" />
		<tag k="name" v="Haugen" />
		<tag k="place" v="farm" />
		<tag k="ssr:stedsnr" v="432095" />
	</node>
	<node lat="61.2530426032832" lon="5.560516573732122" id="-79197">
		<tag k="fixme" v="consider place=hamlet" />
		<tag k="name" v="Kalstad" />
		<tag k="old_name" v="Karlstad" />
		<tag k="place" v="farm" />
		<tag k="ssr:stedsnr" v="432234" />
	</node>
	<node lat="61.34392778183007" lon="5.403191671897849" id="-79199">
		<tag k="name" v="Haugen" />
		<tag k="place" v="farm" />
		<tag k="ssr:stedsnr" v="432243" />
	</node>
	<node lat="61.244354656915554" lon="5.651933343575116" id="-79216">
		<tag k="alt_name" v="Sørebø" />
		<tag k="fixme" v="consider place=hamlet" />
		<tag k="name" v="Sørebøen" />
		<tag k="place" v="farm" />
		<tag k="ssr:stedsnr" v="434934" />
	</node>
	<node lat="61.29577822781042" lon="5.1221833145719815" id="-79217">
		<tag k="name" v="Stroka" />
		<tag k="place" v="farm" />
		<tag k="ssr:stedsnr" v="492439" />
	</node>
	<node lat="61.25669845920834" lon="5.4753481893979465" id="-79224">
		<tag k="alt_name" v="Hatlebrekke" />
		<tag k="fixme" v="consider place=hamlet" />
		<tag k="name" v="Hatlebrekka" />
		<tag k="place" v="farm" />
		<tag k="ssr:stedsnr" v="493248" />
	</node>
	<node lat="61.33044484765158" lon="5.324418560317688" id="-79230">
		<tag k="fixme" v="consider place=hamlet" />
		<tag k="name" v="Hernes" />
		<tag k="place" v="farm" />
		<tag k="ssr:stedsnr" v="493295" />
	</node>
	<node lat="61.279736542303816" lon="5.362003912451763" id="-79238">
		<tag k="alt_name" v="Hellebust" />
		<tag k="fixme" v="consider place=hamlet" />
		<tag k="name" v="Hellebost" />
		<tag k="place" v="farm" />
		<tag k="ssr:stedsnr" v="493581" />
	</node>
	<node lat="61.321819987789084" lon="5.432583835853798" id="-79241">
		<tag k="fixme" v="consider place=hamlet" />
		<tag k="name" v="Strand" />
		<tag k="place" v="farm" />
		<tag k="ssr:stedsnr" v="493437" />
	</node>
	<node lat="61.36245277527831" lon="5.527138892380196" id="-79268">
		<tag k="historic" v="shieling" />
		<tag k="name" v="Sundsstølen" />
		<tag k="place" v="isolated_dwelling" />
		<tag k="ssr:stedsnr" v="675933" />
	</node>
	<node lat="61.316412825296155" lon="5.345540519779009" id="-79285">
		<tag k="alt_name" v="Soleim" />
		<tag k="fixme" v="consider place=hamlet" />
		<tag k="name" v="Solheim" />
		<tag k="place" v="farm" />
		<tag k="ssr:stedsnr" v="675484" />
	</node>
	<node lat="61.371513892853784" lon="5.492747231080326" id="-79293">
		<tag k="name" v="Heimtunet" />
		<tag k="place" v="farm" />
		<tag k="ssr:stedsnr" v="675975" />
	</node>
	<node lat="61.232027022683354" lon="5.605551887712256" id="-79296">
		<tag k="fixme" v="consider place=hamlet" />
		<tag k="name" v="Langeland" />
		<tag k="place" v="farm" />
		<tag k="ssr:stedsnr" v="677000" />
	</node>
	<node lat="61.34328610948092" lon="5.409386110038248" id="-79306">
		<tag k="alt_name" v="Vosseteig" />
		<tag k="fixme" v="consider place=hamlet" />
		<tag k="name" v="Vosseteigen" />
		<tag k="place" v="farm" />
		<tag k="ssr:stedsnr" v="492220" />
	</node>
	<node lat="61.29701989248196" lon="5.071770449907895" id="-79308">
		<tag k="fixme" v="consider place=hamlet" />
		<tag k="name" v="Fure" />
		<tag k="place" v="farm" />
		<tag k="ssr:stedsnr" v="493076" />
	</node>
	<node lat="61.32222215985265" lon="5.492012533629936" id="-79310">
		<tag k="fixme" v="consider place=hamlet" />
		<tag k="name" v="Brattelia" />
		<tag k="place" v="farm" />
		<tag k="ssr:stedsnr" v="493083" />
	</node>
	<node lat="61.30810555693346" lon="5.444736119594367" id="-79318">
		<tag k="historic" v="shieling" />
		<tag k="name" v="Buttedalsstølen" />
		<tag k="place" v="isolated_dwelling" />
		<tag k="ssr:stedsnr" v="493376" />
	</node>
	<node lat="61.305636108752616" lon="5.398480559765236" id="-79319">
		<tag k="historic" v="shieling" />
		<tag k="name" v="Flekkestølen" />
		<tag k="place" v="isolated_dwelling" />
		<tag k="ssr:stedsnr" v="493382" />
	</node>
	<node lat="61.251883333903606" lon="5.396433331601508" id="-79321">
		<tag k="name" v="Sandneset" />
		<tag k="place" v="farm" />
		<tag k="ssr:stedsnr" v="493511" />
	</node>
	<node lat="61.36718401861348" lon="5.558458430911153" id="-79331">
		<tag k="fixme" v="consider place=hamlet" />
		<tag k="name" v="Nistad" />
		<tag k="place" v="farm" />
		<tag k="ssr:stedsnr" v="493936" />
	</node>
	<node lat="61.3697583305323" lon="5.506086118583105" id="-79332">
		<tag k="name" v="Kviene" />
		<tag k="place" v="farm" />
		<tag k="ssr:stedsnr" v="493963" />
	</node>
	<node lat="61.24379722311593" lon="5.345416662432195" id="-79333">
		<tag k="alt_name" v="Sveigen" />
		<tag k="name" v="Sveien" />
		<tag k="place" v="farm" />
		<tag k="ssr:stedsnr" v="494370" />
	</node>
	<node lat="61.316714367443055" lon="5.258880019693992" id="-79372">
		<tag k="name" v="Stranda" />
		<tag k="place" v="farm" />
		<tag k="ssr:stedsnr" v="553285" />
	</node>
	<node lat="61.34198736574628" lon="5.214926436022941" id="-79385">
		<tag k="alt_name" v="Åsnes, in;Åsnes Indre;Åsnes" />
		<tag k="fixme" v="consider place=hamlet" />
		<tag k="name" v="Indre Åsnes" />
		<tag k="place" v="farm" />
		<tag k="ssr:stedsnr" v="554381" />
	</node>
	<node lat="61.311891664554686" lon="5.301872228807503" id="-79390">
		<tag k="alt_name" v="Svoene" />
		<tag k="name" v="Svodene" />
		<tag k="place" v="locality" />
		<tag k="ssr:stedsnr" v="554476" />
	</node>
	<node lat="61.232238888634804" lon="5.465266672486782" id="-79394">
		<tag k="name" v="Espenesstølen" />
		<tag k="place" v="locality" />
		<tag k="ssr:stedsnr" v="555602" />
	</node>
	<node lat="61.2286138914874" lon="5.428519441209796" id="-79395">
		<tag k="name" v="Kviene" />
		<tag k="place" v="farm" />
		<tag k="ssr:stedsnr" v="555623" />
	</node>
	<node lat="61.24926331803541" lon="5.647314745965227" id="-79398">
		<tag k="alt_name" v="Heggeim" />
		<tag k="name" v="Ytre Heggheim" />
		<tag k="place" v="farm" />
		<tag k="ssr:stedsnr" v="555931" />
	</node>
	<node lat="61.33556111439913" lon="5.272902774779917" id="-79430">
		<tag k="alt_name" v="Engeset" />
		<tag k="name" v="Engset" />
		<tag k="place" v="farm" />
		<tag k="ssr:stedsnr" v="614265" />
	</node>
	<node lat="61.35695526913343" lon="5.305400526973353" id="-79432">
		<tag k="alt_name" v="Hegreneset, indre;Indre Hegnes;Hegrenes" />
		<tag k="name" v="Indre Hegreneset" />
		<tag k="place" v="farm" />
		<tag k="ssr:stedsnr" v="614308" />
	</node>
	<node lat="61.33752412648914" lon="5.203983601637451" id="-79433">
		<tag k="fixme" v="consider place=hamlet" />
		<tag k="name" v="Bakkebø" />
		<tag k="place" v="farm" />
		<tag k="ssr:stedsnr" v="614362" />
	</node>
	<node lat="61.29666111016619" lon="5.352561114251286" id="-79439">
		<tag k="name" v="Sørum" />
		<tag k="place" v="farm" />
		<tag k="ssr:stedsnr" v="614423" />
	</node>
	<node lat="61.31849949667946" lon="5.467840496841929" id="-79447">
		<tag k="alt_name" v="Bottedal" />
		<tag k="fixme" v="consider place=hamlet" />
		<tag k="name" v="Buttedalen" />
		<tag k="place" v="farm" />
		<tag k="ssr:stedsnr" v="614558" />
	</node>
	<node lat="61.2479719259242" lon="5.436194293486372" id="-79455">
		<tag k="alt_name" v="Porsemyra" />
		<tag k="name" v="Myrane" />
		<tag k="place" v="farm" />
		<tag k="ssr:stedsnr" v="701558" />
	</node>
	<node lat="61.25502499745313" lon="4.9822888876274485" id="-79500">
		<tag k="name" v="Litletu" />
		<tag k="place" v="isolated_dwelling" />
		<tag k="ssr:stedsnr" v="659984" />
	</node>
	<node lat="61.31144945906412" lon="5.5113274080769585" id="-79508">
		<tag k="fixme" v="consider place=hamlet" />
		<tag k="name" v="Herstad" />
		<tag k="place" v="farm" />
		<tag k="ssr:stedsnr" v="675160" />
	</node>
	<node lat="61.33904999994654" lon="5.513008332116521" id="-79510">
		<tag k="alt_name" v="Norddalen, in;Indre Nordal" />
		<tag k="name" v="Indre Norddalen" />
		<tag k="place" v="farm" />
		<tag k="ssr:stedsnr" v="675065" />
	</node>
	<node lat="61.33168034202974" lon="5.220518824858732" id="-79515">
		<tag k="alt_name" v="Andalsvik" />
		<tag k="fixme" v="consider place=hamlet" />
		<tag k="name" v="Agnalsvika" />
		<tag k="place" v="farm" />
		<tag k="ssr:stedsnr" v="675300" />
	</node>
	<node lat="61.34226902929311" lon="5.439878103798242" id="-79522">
		<tag k="alt_name" v="Løseth" />
		<tag k="fixme" v="consider place=hamlet" />
		<tag k="name" v="Løset" />
		<tag k="place" v="farm" />
		<tag k="ssr:stedsnr" v="675304" />
	</node>
	<node lat="61.36257687637599" lon="5.380670415177079" id="-79523">
		<tag k="fixme" v="consider place=hamlet" />
		<tag k="name" v="Bjerga" />
		<tag k="place" v="farm" />
		<tag k="ssr:stedsnr" v="675346" />
	</node>
	<node lat="61.36167777587487" lon="5.43026666796984" id="-79524">
		<tag k="name" v="Ysteinstad" />
		<tag k="place" v="locality" />
		<tag k="ssr:stedsnr" v="675350" />
	</node>
	<node lat="61.343678685488136" lon="5.20476512392744" id="-79525">
		<tag k="fixme" v="consider place=hamlet" />
		<tag k="name" v="Arstein" />
		<tag k="place" v="farm" />
		<tag k="ssr:stedsnr" v="675363" />
	</node>
	<node lat="61.23267777129214" lon="5.595379360909134" id="-79544">
		<tag k="fixme" v="consider place=hamlet" />
		<tag k="name" v="Gallefoss" />
		<tag k="place" v="farm" />
		<tag k="ssr:stedsnr" v="676989" />
	</node>
	<node lat="61.19635555878072" lon="5.578927779787155" id="-79545">
		<tag k="name" v="Svartefosstølen" />
		<tag k="place" v="locality" />
		<tag k="ssr:stedsnr" v="677808" />
	</node>
	<node lat="61.35360000150047" lon="5.29108888316184" id="-79562">
		<tag k="name" v="Solbakken" />
		<tag k="place" v="farm" />
		<tag k="ssr:stedsnr" v="701673" />
	</node>
	<node lat="61.3538138879814" lon="5.291188881410273" id="-79582">
		<tag k="name" v="Kaldeklova" />
		<tag k="place" v="farm" />
		<tag k="ssr:stedsnr" v="735322" />
	</node>
	<node lat="61.270588555419806" lon="5.49665443186391" id="-79589">
		<tag k="alt_name" v="Ulvedal" />
		<tag k="fixme" v="consider place=hamlet" />
		<tag k="name" v="Ulvdal" />
		<tag k="place" v="farm" />
		<tag k="ssr:stedsnr" v="736172" />
	</node>
	<node lat="61.275169085468995" lon="5.650211383317747" id="-79590">
		<tag k="fixme" v="consider place=hamlet" />
		<tag k="name" v="Steinset" />
		<tag k="place" v="farm" />
		<tag k="ssr:stedsnr" v="736223" />
	</node>
	<node lat="61.37266303137655" lon="5.478697780688634" id="-79599">
		<tag k="alt_name" v="Strandenes" />
		<tag k="fixme" v="consider place=hamlet" />
		<tag k="name" v="Strandanes" />
		<tag k="place" v="farm" />
		<tag k="ssr:stedsnr" v="736966" />
	</node>
	<node lat="61.242391586440505" lon="5.454304839408679" id="-79603">
		<tag k="fixme" v="consider place=hamlet" />
		<tag k="name" v="Espenes" />
		<tag k="place" v="farm" />
		<tag k="ssr:stedsnr" v="737375" />
	</node>
	<node lat="61.24395878901787" lon="5.49722356489681" id="-79605">
		<tag k="fixme" v="consider place=hamlet" />
		<tag k="name" v="Yndestad" />
		<tag k="place" v="farm" />
		<tag k="ssr:stedsnr" v="737927" />
	</node>
	<node lat="61.24773888465235" lon="5.649005552269655" id="-79606">
		<tag k="fixme" v="consider place=hamlet" />
		<tag k="name" v="Botnen" />
		<tag k="place" v="village" />
		<tag k="ssr:stedsnr" v="737962" />
	</node>
	<node lat="61.252605678347265" lon="4.988034127564269" id="-79629">
		<tag k="alt_name" v="Lutentun" />
		<tag k="fixme" v="consider place=hamlet" />
		<tag k="name" v="Luten" />
		<tag k="place" v="farm" />
		<tag k="ssr:stedsnr" v="796016" />
	</node>
	<node lat="61.29557052590699" lon="5.222076884945874" id="-79633">
		<tag k="alt_name" v="Kviene;Libø" />
		<tag k="name" v="Kvia" />
		<tag k="place" v="farm" />
		<tag k="ssr:stedsnr" v="796407" />
	</node>
	<node lat="61.32412706994893" lon="5.34800323687897" id="-79637">
		<tag k="fixme" v="consider place=hamlet" />
		<tag k="name" v="Lendinga" />
		<tag k="place" v="farm" />
		<tag k="ssr:stedsnr" v="796307" />
	</node>
	<node lat="61.36021666483496" lon="5.347083332393636" id="-79639">
		<tag k="name" v="Neset" />
		<tag k="place" v="farm" />
		<tag k="ssr:stedsnr" v="796321" />
	</node>
	<node lat="61.363530557068266" lon="5.400363882429318" id="-79640">
		<tag k="name" v="Dale" />
		<tag k="place" v="village" />
		<tag k="ssr:stedsnr" v="796326" />
	</node>
	<node lat="61.27089722634532" lon="5.586077776152302" id="-79645">
		<tag k="historic" v="shieling" />
		<tag k="name" v="Kalstadstølen" />
		<tag k="place" v="isolated_dwelling" />
		<tag k="ssr:stedsnr" v="797172" />
	</node>
	<node lat="61.31240833319343" lon="5.343550005435191" id="-79649">
		<tag k="name" v="Fossen" />
		<tag k="place" v="farm" />
		<tag k="ssr:stedsnr" v="797453" />
	</node>
	<node lat="61.3247666668235" lon="5.215108338960109" id="-79659">
		<tag k="alt_name" v="Storevik" />
		<tag k="name" v="Storevika" />
		<tag k="place" v="farm" />
		<tag k="ssr:stedsnr" v="917235" />
	</node>
	<node lat="61.299094444693445" lon="5.1537000073699835" id="-79660">
		<tag k="alt_name" v="Breivåg" />
		<tag k="name" v="Breidvågen" />
		<tag k="place" v="farm" />
		<tag k="ssr:stedsnr" v="917451" />
	</node>
	<node lat="61.27367460936498" lon="5.023677713558621" id="-79661">
		<tag k="fixme" v="consider place=hamlet" />
		<tag k="name" v="Våge" />
		<tag k="place" v="farm" />
		<tag k="ssr:stedsnr" v="918132" />
	</node>
	<node lat="61.314320902295336" lon="5.509788278583015" id="-79663">
		<tag k="alt_name" v="Sunndalen, nedre;Sunndalen" />
		<tag k="name" v="Nedre Sunndalen" />
		<tag k="place" v="farm" />
		<tag k="ssr:stedsnr" v="918072" />
	</node>
	<node lat="61.25284722382164" lon="5.514627784474775" id="-79666">
		<tag k="name" v="Solnes" />
		<tag k="place" v="farm" />
		<tag k="ssr:stedsnr" v="918268" />
	</node>
	<node lat="61.25686331061454" lon="5.525711084842208" id="-79667">
		<tag k="alt_name" v="Boge" />
		<tag k="fixme" v="consider place=hamlet" />
		<tag k="name" v="Boga" />
		<tag k="place" v="farm" />
		<tag k="ssr:stedsnr" v="918270" />
	</node>
	<node lat="61.31506093793738" lon="5.149941780355989" id="-79672">
		<tag k="alt_name" v="Kjøsnes;Kjøssnes" />
		<tag k="name" v="Kysneset" />
		<tag k="place" v="farm" />
		<tag k="ssr:stedsnr" v="918331" />
	</node>
	<node lat="61.33402777725549" lon="5.417608337188237" id="-79673">
		<tag k="name" v="Vollesteinen" />
		<tag k="place" v="farm" />
		<tag k="ssr:stedsnr" v="918340" />
	</node>
	<node lat="61.32130911595809" lon="5.3332403419905345" id="-79678">
		<tag k="alt_name" v="Leirpoll" />
		<tag k="fixme" v="consider place=hamlet" />
		<tag k="name" v="Leirpollen" />
		<tag k="place" v="farm" />
		<tag k="ssr:stedsnr" v="918362" />
	</node>
	<node lat="61.25456944068251" lon="5.39537777327556" id="-79685">
		<tag k="name" v="Vårdal" />
		<tag k="place" v="farm" />
		<tag k="ssr:stedsnr" v="918578" />
	</node>
	<node lat="61.25881756243596" lon="5.464717213063599" id="-79686">
		<tag k="alt_name" v="Eikeli" />
		<tag k="fixme" v="consider place=hamlet" />
		<tag k="name" v="Eikelia" />
		<tag k="place" v="farm" />
		<tag k="ssr:stedsnr" v="918584" />
	</node>
	<node lat="61.36972499808207" lon="5.538072231170749" id="-79697">
		<tag k="name" v="Nybø" />
		<tag k="place" v="farm" />
		<tag k="ssr:stedsnr" v="918970" />
	</node>
	<node lat="61.36242909173915" lon="5.558509453818084" id="-79698">
		<tag k="alt_name" v="Sagevik" />
		<tag k="fixme" v="consider place=hamlet" />
		<tag k="name" v="Sagevika" />
		<tag k="place" v="farm" />
		<tag k="ssr:stedsnr" v="918941" />
	</node>
	<node lat="61.25462222041333" lon="5.394877778026089" id="-79713">
		<tag k="name" v="Myrvang" />
		<tag k="place" v="farm" />
		<tag k="ssr:stedsnr" v="822649" />
	</node>
	<node lat="61.33429444915845" lon="5.2008416751488316" id="-79724">
		<tag k="alt_name" v="Åsnes Ytre" />
		<tag k="fixme" v="consider place=hamlet" />
		<tag k="name" v="Ytre Åsnes" />
		<tag k="place" v="farm" />
		<tag k="ssr:stedsnr" v="840817" />
	</node>
	<node lat="61.32462777420541" lon="5.33279444067691" id="-79737">
		<tag k="alt_name" v="Grottehaug" />
		<tag k="name" v="Grottehaugen" />
		<tag k="place" v="farm" />
		<tag k="ssr:stedsnr" v="857329" />
	</node>
	<node lat="61.35708346851528" lon="5.294619503296474" id="-79738">
		<tag k="alt_name" v="Hegreneset, ytre;Ytre Hegnes" />
		<tag k="name" v="Ytre Hegreneset" />
		<tag k="place" v="farm" />
		<tag k="ssr:stedsnr" v="857334" />
	</node>
	<node lat="61.34079436255037" lon="5.5004898888928535" id="-79739">
		<tag k="fixme" v="consider place=hamlet" />
		<tag k="name" v="Norddalen" />
		<tag k="place" v="farm" />
		<tag k="ssr:stedsnr" v="974093" />
	</node>
	<node lat="61.2501336085155" lon="5.534203995831221" id="-79740">
		<tag k="fixme" v="consider place=hamlet" />
		<tag k="name" v="Øyra" />
		<tag k="old_name" v="Guddal" />
		<tag k="place" v="farm" />
		<tag k="ssr:stedsnr" v="857284" />
	</node>
	<node lat="61.304502780807645" lon="5.3466777855394065" id="-79741">
		<tag k="name" v="Trollefossen" />
		<tag k="place" v="farm" />
		<tag k="ssr:stedsnr" v="857415" />
	</node>
	<node lat="61.270487736847635" lon="5.379098499221361" id="-79747">
		<tag k="alt_name" v="Sande" />
		<tag k="fixme" v="consider place=hamlet" />
		<tag k="name" v="Svinevika" />
		<tag k="place" v="farm" />
		<tag k="ssr:stedsnr" v="857594" />
	</node>
	<node lat="61.2809694423049" lon="5.523880546905886" id="-79750">
		<tag k="name" v="Løyna" />
		<tag k="place" v="locality" />
		<tag k="ssr:stedsnr" v="858185" />
	</node>
	<node lat="61.2480017247046" lon="5.3964051123296315" id="-79756">
		<tag k="alt_name" v="Nautsund" />
		<tag k="fixme" v="consider place=hamlet" />
		<tag k="name" v="Nautsundet" />
		<tag k="place" v="farm" />
		<tag k="ssr:stedsnr" v="858409" />
	</node>
	<node lat="61.31522670494714" lon="5.507691010540405" id="-79768">
		<tag k="fixme" v="consider place=hamlet" />
		<tag k="name" v="Sunndalen" />
		<tag k="place" v="farm" />
		<tag k="ssr:stedsnr" v="974094" />
	</node>
	<node lat="61.3432200416383" lon="5.4042324161380275" id="-79794">
		<tag k="fixme" v="consider place=hamlet" />
		<tag k="name" v="Berge" />
		<tag k="place" v="farm" />
		<tag k="ssr:stedsnr" v="917213" />
	</node>
	<node lat="61.348417635255025" lon="5.429461958217691" id="-79795">
		<tag k="alt_name" v="Ormehaug;Ormehaugane" />
		<tag k="fixme" v="multiple name tags, choose one and add the other to alt_name; consider place=hamlet" />
		<tag k="loc_name" v="Ormhaugane" />
		<tag k="name" v="Ormhaugen;Ormehaugen" />
		<tag k="place" v="farm" />
		<tag k="ssr:stedsnr" v="917216" />
	</node>
	<node lat="61.308300002457905" lon="5.266274997990075" id="-79810">
		<tag k="name" v="Fagerhaug" />
		<tag k="place" v="farm" />
		<tag k="ssr:stedsnr" v="918527" />
	</node>
	<node lat="61.24638698680288" lon="5.526624901067642" id="-79816">
		<tag k="fixme" v="consider place=hamlet" />
		<tag k="name" v="Engja" />
		<tag k="place" v="farm" />
		<tag k="ssr:stedsnr" v="919951" />
	</node>
	<node lat="61.34033714412813" lon="5.217141176846646" id="-79859">
		<tag k="name" v="Storekleiva" />
		<tag k="place" v="isolated_dwelling" />
		<tag k="ssr:stedsnr" v="989593" />
	</node>
	<node lat="61.26499167029847" lon="5.6472777709803275" id="-79862">
		<tag k="name" v="Nordheim" />
		<tag k="place" v="isolated_dwelling" />
		<tag k="ssr:stedsnr" v="7187" />
	</node>
	<node lat="61.330671092371546" lon="5.400739505489842" id="-79866">
		<tag k="alt_name" v="Rakneberg" />
		<tag k="fixme" v="consider place=hamlet" />
		<tag k="name" v="Rakneberget" />
		<tag k="place" v="farm" />
		<tag k="ssr:stedsnr" v="7282" />
	</node>
	<node lat="61.33461388533588" lon="5.413558336285699" id="-79868">
		<tag k="name" v="Selbakken" />
		<tag k="place" v="farm" />
		<tag k="ssr:stedsnr" v="7291" />
	</node>
	<node lat="61.27026388532651" lon="5.481613891566548" id="-79883">
		<tag k="historic" v="shieling" />
		<tag k="name" v="Brekkestølen" />
		<tag k="place" v="isolated_dwelling" />
		<tag k="ssr:stedsnr" v="8179" />
	</node>
	<node lat="61.271752779718796" lon="5.57655555228606" id="-79885">
		<tag k="alt_name" v="Fjellestølen" />
		<tag k="historic" v="shieling" />
		<tag k="name" v="Fjellsstølen" />
		<tag k="place" v="isolated_dwelling" />
		<tag k="ssr:stedsnr" v="8185" />
	</node>
	<node lat="61.315608335326516" lon="5.358583331915887" id="-79894">
		<tag k="name" v="Haugen" />
		<tag k="place" v="farm" />
		<tag k="ssr:stedsnr" v="8489" />
	</node>
	<node lat="61.262343211903826" lon="5.372741916346657" id="-79895">
		<tag k="fixme" v="consider place=hamlet" />
		<tag k="name" v="Loneland" />
		<tag k="place" v="farm" />
		<tag k="ssr:stedsnr" v="8542" />
	</node>
	<node lat="61.36110000197403" lon="5.549866665365241" id="-79901">
		<tag k="name" v="Sagevikråsa" />
		<tag k="place" v="locality" />
		<tag k="ssr:stedsnr" v="8931" />
	</node>
	<node lat="61.37093657520438" lon="5.485557731556885" id="-79903">
		<tag k="fixme" v="consider place=hamlet" />
		<tag k="name" v="Strand" />
		<tag k="place" v="farm" />
		<tag k="ssr:stedsnr" v="8970" />
	</node>
	<node lat="61.345569445565204" lon="5.53848888264315" id="-79938">
		<tag k="historic" v="shieling" />
		<tag k="name" v="Nistadstølen" />
		<tag k="place" v="isolated_dwelling" />
		<tag k="ssr:stedsnr" v="68016" />
	</node>
	<node lat="61.31621674110848" lon="5.363900876196819" id="-79941">
		<tag k="fixme" v="consider place=hamlet" />
		<tag k="name" v="Flekke" />
		<tag k="place" v="farm" />
		<tag k="ssr:stedsnr" v="68309" />
	</node>
	<node lat="61.36900833384404" lon="5.434636119748839" id="-79945">
		<tag k="name" v="Lemmane" />
		<tag k="place" v="locality" />
		<tag k="ssr:stedsnr" v="68169" />
	</node>
	<node lat="61.34650889932011" lon="5.4210542466818294" id="-79947">
		<tag k="alt_name" v="Rising;Risting" />
		<tag k="fixme" v="consider place=hamlet" />
		<tag k="name" v="Ristinga" />
		<tag k="place" v="farm" />
		<tag k="ssr:stedsnr" v="68265" />
	</node>
	<node lat="61.32983888541524" lon="5.273324996223798" id="-79952">
		<tag k="name" v="Botnen" />
		<tag k="place" v="farm" />
		<tag k="ssr:stedsnr" v="68279" />
	</node>
	<node lat="61.33310833176048" lon="5.363769452282467" id="-79953">
		<tag k="name" v="Øvrestølen" />
		<tag k="place" v="locality" />
		<tag k="ssr:stedsnr" v="68282" />
	</node>
	<node lat="61.35549167052031" lon="5.389133333395733" id="-79955">
		<tag k="name" v="Steiegjerdet" />
		<tag k="place" v="farm" />
		<tag k="ssr:stedsnr" v="68364" />
	</node>
	<node lat="61.37091430005058" lon="5.5215114737328" id="-79961">
		<tag k="fixme" v="consider place=hamlet" />
		<tag k="name" v="Holmeli" />
		<tag k="place" v="farm" />
		<tag k="ssr:stedsnr" v="68955" />
	</node>
	<node lat="61.34070288712287" lon="5.2672127664204895" id="-79970">
		<tag k="fixme" v="consider place=hamlet" />
		<tag k="name" v="Hauge" />
		<tag k="place" v="farm" />
		<tag k="ssr:stedsnr" v="69266" />
	</node>
	<node lat="61.338709351479544" lon="5.300930330601769" id="-79971">
		<tag k="fixme" v="consider place=hamlet" />
		<tag k="name" v="Elde" />
		<tag k="place" v="farm" />
		<tag k="ssr:stedsnr" v="69267" />
	</node>
	<node lat="61.34075555846383" lon="5.292250005341723" id="-79972">
		<tag k="alt_name" v="Indre Eldevik" />
		<tag k="name" v="Eldevika" />
		<tag k="place" v="farm" />
		<tag k="ssr:stedsnr" v="69271" />
	</node>
	<node lat="61.30237763077951" lon="5.158214297628986" id="-80025">
		<tag k="name" v="Høgtun" />
		<tag k="place" v="farm" />
		<tag k="ssr:stedsnr" v="94756" />
	</node>
	<node lat="61.33620278025427" lon="5.202522226600182" id="-80034">
		<tag k="fixme" v="consider place=hamlet" />
		<tag k="name" v="Åsnes" />
		<tag k="place" v="village" />
		<tag k="ssr:stedsnr" v="111365" />
	</node>
	<node lat="61.30625277818455" lon="5.530672218648114" id="-80050">
		<tag k="historic" v="shieling" />
		<tag k="name" v="Mykleboststølen" />
		<tag k="place" v="isolated_dwelling" />
		<tag k="ssr:stedsnr" v="129170" />
	</node>
	<node lat="61.347968560569804" lon="5.41166917086334" id="-80052">
		<tag k="alt_name" v="Sletteland" />
		<tag k="fixme" v="consider place=hamlet" />
		<tag k="name" v="Slætteland" />
		<tag k="place" v="farm" />
		<tag k="ssr:stedsnr" v="129356" />
	</node>
	<node lat="61.277144445639266" lon="5.528511112705917" id="-80057">
		<tag k="historic" v="shieling" />
		<tag k="name" v="Husekleppstølen" />
		<tag k="place" v="isolated_dwelling" />
		<tag k="ssr:stedsnr" v="129187" />
	</node>
	<node lat="61.2613563699179" lon="5.494322922912713" id="-80059">
		<tag k="alt_name" v="Løbrot" />
		<tag k="fixme" v="consider place=hamlet" />
		<tag k="name" v="Løbrotet" />
		<tag k="place" v="farm" />
		<tag k="ssr:stedsnr" v="129233" />
	</node>
	<node lat="61.31674166254336" lon="5.373088883658255" id="-80064">
		<tag k="name" v="Vellene" />
		<tag k="place" v="farm" />
		<tag k="ssr:stedsnr" v="129465" />
	</node>
	<node lat="61.21015000142535" lon="5.454291663771575" id="-80075">
		<tag k="historic" v="shieling" />
		<tag k="name" v="Hovlandsdalsstølen" />
		<tag k="place" v="isolated_dwelling" />
		<tag k="ssr:stedsnr" v="130635" />
	</node>
	<node lat="61.25979444508473" lon="5.0040777784319" id="-80113">
		<tag k="name" v="Stølsvik" />
		<tag k="place" v="locality" />
		<tag k="ssr:stedsnr" v="173959" />
	</node>
	<node lat="61.32771190348597" lon="5.490262118906417" id="-80119">
		<tag k="fixme" v="consider place=hamlet" />
		<tag k="name" v="Hauge" />
		<tag k="place" v="farm" />
		<tag k="ssr:stedsnr" v="189082" />
	</node>
	<node lat="61.26282140646226" lon="5.0482234684503835" id="-80120">
		<tag k="alt_name" v="Folkestad, nordre" />
		<tag k="fixme" v="consider place=hamlet" />
		<tag k="name" v="Nordre Folkestad" />
		<tag k="place" v="farm" />
		<tag k="ssr:stedsnr" v="189093" />
	</node>
	<node lat="61.29582499637898" lon="5.2048666754314015" id="-80125">
		<tag k="alt_name" v="Melkevik" />
		<tag k="name" v="Mekevika" />
		<tag k="place" v="farm" />
		<tag k="ssr:stedsnr" v="189462" />
	</node>
	<node lat="61.341955553044436" lon="5.419658326475958" id="-80126">
		<tag k="name" v="Fristad" />
		<tag k="place" v="farm" />
		<tag k="ssr:stedsnr" v="189232" />
	</node>
	<node lat="61.301662610499214" lon="5.2053275028921355" id="-80132">
		<tag k="alt_name" v="Aurevåg" />
		<tag k="name" v="Aurevågen" />
		<tag k="place" v="farm" />
		<tag k="ssr:stedsnr" v="189463" />
	</node>
	<node lat="61.3243061098385" lon="5.46358343221399" id="-80147">
		<tag k="alt_name" v="Myklebust" />
		<tag k="fixme" v="consider place=hamlet" />
		<tag k="name" v="Myklebost" />
		<tag k="place" v="farm" />
		<tag k="ssr:stedsnr" v="190455" />
	</node>
	<node lat="61.19373205925364" lon="5.621782966113052" id="-80151">
		<tag k="fixme" v="consider place=hamlet" />
		<tag k="name" v="Røyrbotnen" />
		<tag k="place" v="farm" />
		<tag k="ssr:stedsnr" v="191760" />
	</node>
	<node lat="61.23426685313254" lon="5.580833232331633" id="-80157">
		<tag k="alt_name" v="Dingsøyr" />
		<tag k="fixme" v="consider place=hamlet" />
		<tag k="name" v="Dyngsøyra" />
		<tag k="place" v="farm" />
		<tag k="ssr:stedsnr" v="191987" />
	</node>
	<node lat="61.247283337904406" lon="5.3495805628477715" id="-80169">
		<tag k="historic" v="shieling" />
		<tag k="name" v="Gamlestølen" />
		<tag k="place" v="isolated_dwelling" />
		<tag k="ssr:stedsnr" v="215653" />
	</node>
	<node lat="61.27526388958028" lon="5.518616669300055" id="-80217">
		<tag k="historic" v="shieling" />
		<tag k="name" v="Novastølen" />
		<tag k="place" v="isolated_dwelling" />
		<tag k="ssr:stedsnr" v="311217" />
	</node>
	<node lat="61.329936111482894" lon="5.36941111748375" id="-80219">
		<tag k="name" v="Stølen" />
		<tag k="place" v="locality" />
		<tag k="ssr:stedsnr" v="311350" />
	</node>
	<node lat="61.33810150774311" lon="5.417087377209115" id="-80221">
		<tag k="fixme" v="consider place=hamlet" />
		<tag k="name" v="Håland" />
		<tag k="place" v="farm" />
		<tag k="ssr:stedsnr" v="311359" />
	</node>
	<node lat="61.32373055950308" lon="5.473483342102415" id="-80223">
		<tag k="name" v="Haugane" />
		<tag k="place" v="farm" />
		<tag k="ssr:stedsnr" v="311113" />
	</node>
	<node lat="61.300985666509526" lon="5.357689522896875" id="-80233">
		<tag k="fixme" v="consider place=hamlet" />
		<tag k="name" v="Rennestraum" />
		<tag k="place" v="farm" />
		<tag k="ssr:stedsnr" v="311462" />
	</node>
	<node lat="61.356383337027324" lon="5.317280563698861" id="-80235">
		<tag k="name" v="Ytrøyna" />
		<tag k="place" v="farm" />
		<tag k="ssr:stedsnr" v="311382" />
	</node>
	<node lat="61.36398145509321" lon="5.337116477667947" id="-80236">
		<tag k="alt_name" v="Storevik" />
		<tag k="name" v="Storevika" />
		<tag k="place" v="farm" />
		<tag k="ssr:stedsnr" v="311383" />
	</node>
	<node lat="61.36153610921332" lon="5.3684249935999855" id="-80237">
		<tag k="alt_name" v="Bjerganeset" />
		<tag k="name" v="Bjergeneset" />
		<tag k="place" v="farm" />
		<tag k="ssr:stedsnr" v="311386" />
	</node>
	<node lat="61.27251545295312" lon="5.310606848416966" id="-80240">
		<tag k="fixme" v="consider place=hamlet" />
		<tag k="name" v="Kusælen" />
		<tag k="place" v="farm" />
		<tag k="ssr:stedsnr" v="311599" />
	</node>
	<node lat="61.26345642464267" lon="5.407907893350137" id="-80242">
		<tag k="alt_name" v="Lindeli" />
		<tag k="fixme" v="consider place=hamlet" />
		<tag k="name" v="Lindelia" />
		<tag k="place" v="farm" />
		<tag k="ssr:stedsnr" v="311559" />
	</node>
	<node lat="61.228016664486255" lon="5.584183325700056" id="-80254">
		<tag k="name" v="Skogly" />
		<tag k="place" v="farm" />
		<tag k="ssr:stedsnr" v="312989" />
	</node>
	<node lat="61.24788332893149" lon="4.990458329651741" id="-80257">
		<tag k="alt_name" v="Dyrtopp" />
		<tag k="name" v="Dyrtoppen" />
		<tag k="place" v="farm" />
		<tag k="ssr:stedsnr" v="313986" />
	</node>
	<node lat="61.33398256435556" lon="5.207014054993776" id="-80276">
		<tag k="fixme" v="consider place=hamlet" />
		<tag k="name" v="Kalhagen" />
		<tag k="place" v="farm" />
		<tag k="ssr:stedsnr" v="337632" />
	</node>
	<node lat="61.30433611260755" lon="5.2230333401594145" id="-80285">
		<tag k="name" v="Bergheim" />
		<tag k="place" v="farm" />
		<tag k="ssr:stedsnr" v="356531" />
	</node>
	<node lat="61.32469444665453" lon="5.240999999094779" id="-80296">
		<tag k="alt_name" v="Nedgardstølane" />
		<tag k="historic" v="shieling" />
		<tag k="name" v="Nedgardsstølen" />
		<tag k="place" v="isolated_dwelling" />
		<tag k="ssr:stedsnr" v="371284" />
	</node>
	<node lat="61.34213387718787" lon="5.412588696964482" id="-80298">
		<tag k="alt_name" v="Haugsbakke" />
		<tag k="fixme" v="consider place=hamlet" />
		<tag k="name" v="Gota" />
		<tag k="old_name" v="Haugsbakk" />
		<tag k="place" v="farm" />
		<tag k="ssr:stedsnr" v="371249" />
	</node>
	<node lat="61.34582499835539" lon="5.4430361108389125" id="-80299">
		<tag k="alt_name" v="Løsetvollen" />
		<tag k="name" v="Vollen" />
		<tag k="place" v="farm" />
		<tag k="ssr:stedsnr" v="371252" />
	</node>
	<node lat="61.32408122640454" lon="5.404697727000796" id="-80303">
		<tag k="fixme" v="consider place=hamlet" />
		<tag k="name" v="Stav" />
		<tag k="place" v="farm" />
		<tag k="ssr:stedsnr" v="371430" />
	</node>
	<node lat="61.30399444738833" lon="5.216661117394594" id="-80306">
		<tag k="alt_name" v="Nausta" />
		<tag k="name" v="Naustane" />
		<tag k="place" v="isolated_dwelling" />
		<tag k="ssr:stedsnr" v="371482" />
	</node>
	<node lat="61.2707499629165" lon="5.428766588308537" id="-80308">
		<tag k="alt_name" v="Bjordalen, midtre;Midtre Bjordal" />
		<tag k="name" v="Midtre Bjordalen" />
		<tag k="place" v="farm" />
		<tag k="ssr:stedsnr" v="371531" />
	</node>
	<node lat="61.27203611269885" lon="5.578933341457561" id="-80309">
		<tag k="historic" v="shieling" />
		<tag k="name" v="Øyrastølen" />
		<tag k="place" v="isolated_dwelling" />
		<tag k="ssr:stedsnr" v="372178" />
	</node>
	<node lat="61.28261666331322" lon="5.643397227486568" id="-80311">
		<tag k="alt_name" v="Stølen" />
		<tag k="historic" v="shieling" />
		<tag k="name" v="Steinsetstølen" />
		<tag k="place" v="isolated_dwelling" />
		<tag k="ssr:stedsnr" v="372193" />
	</node>
	<node lat="61.3557750022351" lon="5.4218416575755555" id="-80314">
		<tag k="name" v="Torsetgjerdet" />
		<tag k="place" v="farm" />
		<tag k="ssr:stedsnr" v="372378" />
	</node>
	<node lat="61.34800442434082" lon="5.451887402925483" id="-80315">
		<tag k="alt_name" v="Skadal" />
		<tag k="fixme" v="consider place=hamlet" />
		<tag k="name" v="Skaddalen" />
		<tag k="place" v="farm" />
		<tag k="ssr:stedsnr" v="372381" />
	</node>
	<node lat="61.28975555383257" lon="5.339708324253501" id="-80319">
		<tag k="name" v="Vassliåsen" />
		<tag k="place" v="farm" />
		<tag k="ssr:stedsnr" v="372443" />
	</node>
	<node lat="61.242794441203834" lon="5.485030550695244" id="-80324">
		<tag k="name" v="Nyborg" />
		<tag k="place" v="farm" />
		<tag k="ssr:stedsnr" v="373929" />
	</node>
	<node lat="61.22058055456995" lon="5.539758336142939" id="-80327">
		<tag k="historic" v="shieling" />
		<tag k="name" v="Engjestølen" />
		<tag k="place" v="isolated_dwelling" />
		<tag k="ssr:stedsnr" v="373983" />
	</node>
	<node lat="61.233102776080045" lon="5.428938895023672" id="-80338">
		<tag k="name" v="Nygård" />
		<tag k="place" v="farm" />
		<tag k="ssr:stedsnr" v="397625" />
	</node>
	<node lat="61.344311115392344" lon="5.288052773135056" id="-80356">
		<tag k="name" v="Ytre Eldevik" />
		<tag k="place" v="farm" />
		<tag k="ssr:stedsnr" v="417426" />
	</node>
	<node lat="61.342882385743685" lon="5.495876728622362" id="-80360">
		<tag k="alt_name" v="Norddalen, yt;Ytre Norddal" />
		<tag k="name" v="Ytre Norddalen" />
		<tag k="place" v="farm" />
		<tag k="ssr:stedsnr" v="433022" />
	</node>
	<node lat="61.32102777788213" lon="5.321938890565802" id="-80366">
		<tag k="alt_name" v="Grottehaug;Kvia" />
		<tag k="name" v="Grottehaugkvia" />
		<tag k="place" v="isolated_dwelling" />
		<tag k="ssr:stedsnr" v="432292" />
	</node>
	<node lat="61.29806944302547" lon="5.36144721573608" id="-80368">
		<tag k="name" v="Kvia" />
		<tag k="place" v="farm" />
		<tag k="ssr:stedsnr" v="432399" />
	</node>
	<node lat="61.29850833629213" lon="5.224483336782833" id="-80373">
		<tag k="alt_name" v="Myrstad" />
		<tag k="name" v="Myra" />
		<tag k="place" v="farm" />
		<tag k="ssr:stedsnr" v="432473" />
	</node>
	<node lat="61.32350323114331" lon="5.265591941153215" id="-80374">
		<tag k="alt_name" v="Tyssedal" />
		<tag k="fixme" v="consider place=hamlet" />
		<tag k="name" v="Tyssedalen" />
		<tag k="place" v="farm" />
		<tag k="ssr:stedsnr" v="432277" />
	</node>
	<node lat="61.29611944699971" lon="5.2796611134526925" id="-80378">
		<tag k="fixme" v="consider place=hamlet" />
		<tag k="name" v="Eikevika" />
		<tag k="place" v="farm" />
		<tag k="ssr:stedsnr" v="432370" />
	</node>
	<node lat="61.28344367607073" lon="5.045541964590163" id="-80382">
		<tag k="fixme" v="consider place=hamlet" />
		<tag k="name" v="Furset" />
		<tag k="place" v="farm" />
		<tag k="ssr:stedsnr" v="433087" />
	</node>
	<node lat="61.28409902809445" lon="5.179425994431432" id="-80384">
		<tag k="fixme" v="consider place=hamlet" />
		<tag k="name" v="Holt" />
		<tag k="place" v="farm" />
		<tag k="ssr:stedsnr" v="433422" />
	</node>
	<node lat="61.282602779962716" lon="5.400508336811901" id="-80388">
		<tag k="historic" v="shieling" />
		<tag k="name" v="Vikastølen" />
		<tag k="place" v="isolated_dwelling" />
		<tag k="ssr:stedsnr" v="433562" />
	</node>
	<node lat="61.31045925622402" lon="5.268797361943044" id="-80392">
		<tag k="alt_name" v="Tyssekvam" />
		<tag k="fixme" v="consider place=hamlet" />
		<tag k="name" v="Tyssekvammen" />
		<tag k="place" v="farm" />
		<tag k="ssr:stedsnr" v="433462" />
	</node>
	<node lat="61.23715555681159" lon="5.616627779766302" id="-80402">
		<tag k="name" v="Nyland" />
		<tag k="place" v="farm" />
		<tag k="ssr:stedsnr" v="434938" />
	</node>
	<node lat="61.23237500415586" lon="5.575116667404462" id="-80408">
		<tag k="name" v="Runnane" />
		<tag k="place" v="isolated_dwelling" />
		<tag k="ssr:stedsnr" v="434984" />
	</node>
	<node lat="61.20597500254924" lon="5.596930562578989" id="-80411">
		<tag k="name" v="Lia" />
		<tag k="place" v="farm" />
		<tag k="ssr:stedsnr" v="495833" />
	</node>
	<node lat="61.243905552702586" lon="5.592005556497827" id="-80414">
		<tag k="historic" v="shieling" />
		<tag k="name" v="Gamlestølen" />
		<tag k="place" v="isolated_dwelling" />
		<tag k="ssr:stedsnr" v="495950" />
	</node>
	<node lat="61.335905686465495" lon="5.332914870011697" id="-80454">
		<tag k="alt_name" v="Hovland" />
		<tag k="fixme" v="consider place=hamlet" />
		<tag k="name" v="Haugland" />
		<tag k="place" v="farm" />
		<tag k="ssr:stedsnr" v="553240" />
	</node>
	<node lat="61.25548611112161" lon="5.453616670455016" id="-80457">
		<tag k="name" v="Vågen" />
		<tag k="place" v="farm" />
		<tag k="ssr:stedsnr" v="553517" />
	</node>
	<node lat="61.268040858560425" lon="5.326278447848093" id="-80462">
		<tag k="alt_name" v="Espedal" />
		<tag k="fixme" v="consider place=hamlet" />
		<tag k="name" v="Espedalen" />
		<tag k="place" v="farm" />
		<tag k="ssr:stedsnr" v="553573" />
	</node>
	<node lat="61.24848323203341" lon="5.650427129175967" id="-80471">
		<tag k="alt_name" v="Heggeim" />
		<tag k="name" v="Heggheim" />
		<tag k="place" v="hamlet" />
		<tag k="ssr:stedsnr" v="554600" />
	</node>
	<node lat="61.2820694435483" lon="5.222574993084888" id="-80472">
		<tag k="name" v="Fremstemarka" />
		<tag k="place" v="locality" />
		<tag k="ssr:stedsnr" v="554454" />
	</node>
	<node lat="61.2777083356102" lon="5.268602777746145" id="-80473">
		<tag k="historic" v="shieling" />
		<tag k="name" v="Gamlestølen" />
		<tag k="place" v="isolated_dwelling" />
		<tag k="ssr:stedsnr" v="554650" />
	</node>
	<node lat="61.36616388744916" lon="5.539691663170374" id="-80479">
		<tag k="name" v="Nygard" />
		<tag k="place" v="farm" />
		<tag k="ssr:stedsnr" v="554940" />
	</node>
	<node lat="61.20636389215954" lon="5.518016669156231" id="-80482">
		<tag k="historic" v="shieling" />
		<tag k="name" v="Dyngsøyrstølen" />
		<tag k="place" v="isolated_dwelling" />
		<tag k="ssr:stedsnr" v="555753" />
	</node>
	<node lat="61.31522777705965" lon="5.140238886177906" id="-80507">
		<tag k="name" v="Selvik" />
		<tag k="place" v="farm" />
		<tag k="ssr:stedsnr" v="579765" />
	</node>
	<node lat="61.2575512959423" lon="5.4937952978283295" id="-80519">
		<tag k="alt_name" v="Maros" />
		<tag k="fixme" v="multiple name tags, choose one and add the other to alt_name; consider place=hamlet" />
		<tag k="name" v="Floten;Marosen" />
		<tag k="place" v="farm" />
		<tag k="ssr:stedsnr" v="614247" />
	</node>
	<node lat="61.347128839086956" lon="5.270569169413408" id="-80523">
		<tag k="name" v="Leitet" />
		<tag k="place" v="farm" />
		<tag k="ssr:stedsnr" v="614336" />
	</node>
	<node lat="61.28663253635325" lon="5.023897199110954" id="-80527">
		<tag k="fixme" v="consider place=hamlet" />
		<tag k="name" v="Grytøyra" />
		<tag k="place" v="farm" />
		<tag k="ssr:stedsnr" v="614080" />
	</node>
	<node lat="61.27202778222721" lon="5.647197223277833" id="-80532">
		<tag k="name" v="Haugen" />
		<tag k="place" v="farm" />
		<tag k="ssr:stedsnr" v="614191" />
	</node>
	<node lat="61.32719023130189" lon="5.35357047110123" id="-80535">
		<tag k="alt_name" v="Igelkjøn" />
		<tag k="fixme" v="consider place=hamlet" />
		<tag k="name" v="Igeltjern" />
		<tag k="place" v="farm" />
		<tag k="ssr:stedsnr" v="614293" />
	</node>
	<node lat="61.30008648064467" lon="5.171902386902761" id="-80536">
		<tag k="alt_name" v="Hellevik" />
		<tag k="fixme" v="consider place=hamlet" />
		<tag k="name" v="Hellevika" />
		<tag k="place" v="farm" />
		<tag k="ssr:stedsnr" v="614483" />
	</node>
	<node lat="61.297306437791676" lon="5.241832316971681" id="-80539">
		<tag k="fixme" v="consider place=hamlet" />
		<tag k="name" v="Eika" />
		<tag k="place" v="farm" />
		<tag k="ssr:stedsnr" v="614397" />
	</node>
	<node lat="61.21509999680524" lon="5.647891672685245" id="-80551">
		<tag k="historic" v="shieling" />
		<tag k="name" v="Langelandsstølen" />
		<tag k="place" v="isolated_dwelling" />
		<tag k="ssr:stedsnr" v="616765" />
	</node>
	<node lat="61.30433888831705" lon="5.155858339600646" id="-80592">
		<tag k="name" v="Vågen" />
		<tag k="place" v="farm" />
		<tag k="ssr:stedsnr" v="640737" />
	</node>
	<node lat="61.269193991337936" lon="5.644541211280395" id="-80607">
		<tag k="name" v="Lia" />
		<tag k="place" v="isolated_dwelling" />
		<tag k="ssr:stedsnr" v="735185" />
	</node>
	<node lat="61.270586113738474" lon="5.60591388816401" id="-80608">
		<tag k="historic" v="shieling" />
		<tag k="name" v="Auvasstølen" />
		<tag k="place" v="isolated_dwelling" />
		<tag k="ssr:stedsnr" v="735189" />
	</node>
	<node lat="61.264508329347755" lon="5.586863881667327" id="-80610">
		<tag k="alt_name" v="Tulandstølane" />
		<tag k="historic" v="shieling" />
		<tag k="name" v="Tuvelandsstølen" />
		<tag k="place" v="isolated_dwelling" />
		<tag k="ssr:stedsnr" v="735191" />
	</node>
	<node lat="61.36612329587039" lon="5.4099608549617315" id="-80618">
		<tag k="alt_name" v="Øksenberg;Yksnebjørg" />
		<tag k="fixme" v="consider place=hamlet" />
		<tag k="name" v="Yksnebjør" />
		<tag k="place" v="farm" />
		<tag k="ssr:stedsnr" v="735159" />
	</node>
	<node lat="61.37615080084067" lon="5.431893912584759" id="-80620">
		<tag k="alt_name" v="Setenes" />
		<tag k="fixme" v="consider place=hamlet" />
		<tag k="name" v="Sætenes" />
		<tag k="place" v="farm" />
		<tag k="ssr:stedsnr" v="736137" />
	</node>
	<node lat="61.312911220614644" lon="5.55025499590724" id="-80622">
		<tag k="fixme" v="consider place=hamlet" />
		<tag k="name" v="Steiestølen" />
		<tag k="place" v="farm" />
		<tag k="ssr:stedsnr" v="736150" />
	</node>
	<node lat="61.339761112166535" lon="5.275550006333632" id="-80626">
		<tag k="alt_name" v="Årevoll" />
		<tag k="name" v="Årevollen" />
		<tag k="place" v="farm" />
		<tag k="ssr:stedsnr" v="736267" />
	</node>
	<node lat="61.346325004014574" lon="5.284477778634959" id="-80627">
		<tag k="name" v="Bjellehaugen" />
		<tag k="place" v="farm" />
		<tag k="ssr:stedsnr" v="736326" />
	</node>
	<node lat="61.34561944729708" lon="5.335713895297077" id="-80629">
		<tag k="historic" v="shieling" />
		<tag k="name" v="Liastølen" />
		<tag k="place" v="isolated_dwelling" />
		<tag k="ssr:stedsnr" v="736329" />
	</node>
	<node lat="61.350113776273915" lon="5.411786472168466" id="-80631">
		<tag k="fixme" v="consider place=hamlet" />
		<tag k="name" v="Haugen" />
		<tag k="place" v="farm" />
		<tag k="ssr:stedsnr" v="736336" />
	</node>
	<node lat="61.3504419739771" lon="5.393357975250364" id="-80632">
		<tag k="fixme" v="consider place=hamlet" />
		<tag k="name" v="Jarstad" />
		<tag k="place" v="farm" />
		<tag k="ssr:stedsnr" v="736337" />
	</node>
	<node lat="61.23275822367165" lon="5.4338296527195915" id="-80640">
		<tag k="alt_name" v="Hovlandsdal" />
		<tag k="fixme" v="consider place=hamlet" />
		<tag k="name" v="Hovlandsdalen" />
		<tag k="place" v="farm" />
		<tag k="ssr:stedsnr" v="737638" />
	</node>
	<node lat="61.21054751494855" lon="5.589564782053648" id="-80644">
		<tag k="alt_name" v="Svartefoss" />
		<tag k="fixme" v="consider place=hamlet" />
		<tag k="name" v="Svartefossen" />
		<tag k="place" v="farm" />
		<tag k="ssr:stedsnr" v="737753" />
	</node>
	<node lat="61.23252500469089" lon="5.668000008406363" id="-80646">
		<tag k="historic" v="shieling" />
		<tag k="name" v="Sørebøstølen" />
		<tag k="place" v="isolated_dwelling" />
		<tag k="ssr:stedsnr" v="737996" />
	</node>
	<node lat="61.341999078830106" lon="5.271319394079178" id="-80648">
		<tag k="name" v="Setane" />
		<tag k="place" v="locality" />
		<tag k="ssr:stedsnr" v="761221" />
	</node>
	<node lat="61.37372480260837" lon="5.530773321878929" id="-80672">
		<tag k="fixme" v="consider place=hamlet" />
		<tag k="name" v="Halsnes" />
		<tag k="place" v="farm" />
		<tag k="ssr:stedsnr" v="797956" />
	</node>
	<node lat="61.25585701793198" lon="5.533651046854064" id="-80674">
		<tag k="fixme" v="consider place=hamlet" />
		<tag k="name" v="Huseklepp" />
		<tag k="place" v="farm" />
		<tag k="ssr:stedsnr" v="796238" />
	</node>
	<node lat="61.32553966823624" lon="5.4966765847349395" id="-80675">
		<tag k="fixme" v="consider place=hamlet" />
		<tag k="name" v="Øye" />
		<tag k="place" v="farm" />
		<tag k="ssr:stedsnr" v="796080" />
	</node>
	<node lat="61.264263162356606" lon="5.028131654783488" id="-80676">
		<tag k="alt_name" v="Skår" />
		<tag k="fixme" v="consider place=hamlet" />
		<tag k="name" v="Skor" />
		<tag k="place" v="farm" />
		<tag k="ssr:stedsnr" v="796089" />
	</node>
	<node lat="61.36747777438111" lon="5.42170000932549" id="-80678">
		<tag k="historic" v="shieling" />
		<tag k="name" v="Nitterstølen" />
		<tag k="place" v="isolated_dwelling" />
		<tag k="ssr:stedsnr" v="796166" />
	</node>
	<node lat="61.287924999103" lon="5.176977775775934" id="-80680">
		<tag k="name" v="Myra" />
		<tag k="place" v="farm" />
		<tag k="ssr:stedsnr" v="796382" />
	</node>
	<node lat="61.256797218266485" lon="5.502583337040882" id="-80684">
		<tag k="name" v="Åsane" />
		<tag k="place" v="farm" />
		<tag k="ssr:stedsnr" v="796242" />
	</node>
	<node lat="61.352361895513944" lon="5.3669280535596275" id="-80685">
		<tag k="alt_name" v="Bortneim;Bortheim" />
		<tag k="fixme" v="consider place=hamlet" />
		<tag k="name" v="Bortnheim" />
		<tag k="place" v="farm" />
		<tag k="ssr:stedsnr" v="796349" />
	</node>
	<node lat="61.30651389176951" lon="5.231819448050592" id="-80691">
		<tag k="name" v="Gjølanger" />
		<tag k="place" v="hamlet" />
		<tag k="ssr:stedsnr" v="796494" />
	</node>
	<node lat="61.29456110963605" lon="5.040180559173538" id="-80697">
		<tag k="name" v="Furnes" />
		<tag k="place" v="farm" />
		<tag k="ssr:stedsnr" v="797076" />
	</node>
	<node lat="61.370569442633915" lon="5.43028888147134" id="-80729">
		<tag k="historic" v="shieling" />
		<tag k="name" v="Sætenesstølen" />
		<tag k="place" v="isolated_dwelling" />
		<tag k="ssr:stedsnr" v="822601" />
	</node>
	<node lat="61.37197778190982" lon="5.473980549590625" id="-80738">
		<tag k="name" v="Bakkane" />
		<tag k="place" v="farm" />
		<tag k="ssr:stedsnr" v="822984" />
	</node>
	<node lat="61.2591649883515" lon="5.046958111664244" id="-80740">
		<tag k="fixme" v="consider place=hamlet" />
		<tag k="name" v="Søre Folkestad" />
		<tag k="place" v="farm" />
		<tag k="ssr:stedsnr" v="822948" />
	</node>
	<node lat="61.250961107900245" lon="4.986538892701603" id="-80748">
		<tag k="name" v="Nybø" />
		<tag k="place" v="farm" />
		<tag k="ssr:stedsnr" v="841964" />
	</node>
	<node lat="61.33420797525922" lon="5.273110281924014" id="-80752">
		<tag k="alt_name" v="Engebøhaug" />
		<tag k="name" v="Engjabøhaugane" />
		<tag k="place" v="farm" />
		<tag k="ssr:stedsnr" v="857300" />
	</node>
	<node lat="61.32489722058438" lon="5.501194447772434" id="-80760">
		<tag k="name" v="Grønlia" />
		<tag k="place" v="farm" />
		<tag k="ssr:stedsnr" v="857090" />
	</node>
	<node lat="61.30436666303908" lon="5.484930561848761" id="-80762">
		<tag k="historic" v="shieling" />
		<tag k="name" v="Haugsstølen" />
		<tag k="place" v="isolated_dwelling" />
		<tag k="ssr:stedsnr" v="857121" />
	</node>
	<node lat="61.37011944724368" lon="5.425088889080027" id="-80763">
		<tag k="alt_name" v="Øststølen" />
		<tag k="historic" v="shieling" />
		<tag k="name" v="Øvstestølen" />
		<tag k="place" v="isolated_dwelling" />
		<tag k="ssr:stedsnr" v="857180" />
	</node>
	<node lat="61.30250555748055" lon="5.135486113138089" id="-80768">
		<tag k="name" v="Vågane" />
		<tag k="place" v="farm" />
		<tag k="ssr:stedsnr" v="857478" />
	</node>
	<node lat="61.303018805821765" lon="5.178277887717673" id="-80771">
		<tag k="name" v="Nybø" />
		<tag k="place" v="farm" />
		<tag k="ssr:stedsnr" v="857484" />
	</node>
	<node lat="61.30828055285054" lon="5.323358335957606" id="-80773">
		<tag k="alt_name" v="Mjelltene" />
		<tag k="name" v="Mjeltene" />
		<tag k="place" v="locality" />
		<tag k="ssr:stedsnr" v="857499" />
	</node>
	<node lat="61.266663885358376" lon="5.460063894020517" id="-80774">
		<tag k="alt_name" v="Bjordalstølen" />
		<tag k="historic" v="shieling" />
		<tag k="name" v="Bjordalsflorane" />
		<tag k="place" v="isolated_dwelling" />
		<tag k="ssr:stedsnr" v="857539" />
	</node>
	<node lat="61.258805682790694" lon="5.355608949740569" id="-80776">
		<tag k="fixme" v="consider place=hamlet" />
		<tag k="name" v="Hovland" />
		<tag k="place" v="farm" />
		<tag k="ssr:stedsnr" v="857564" />
	</node>
	<node lat="61.37356666764745" lon="5.448838893886403" id="-80782">
		<tag k="name" v="Fløgarden" />
		<tag k="place" v="farm" />
		<tag k="ssr:stedsnr" v="858130" />
	</node>
	<node lat="61.26318888670179" lon="5.530547216713486" id="-80786">
		<tag k="name" v="Gjerdet" />
		<tag k="place" v="locality" />
		<tag k="ssr:stedsnr" v="858219" />
	</node>
	<node lat="61.289704917277625" lon="5.30323760930988" id="-80788">
		<tag k="alt_name" v="Jytten" />
		<tag k="fixme" v="multiple name tags, choose one and add the other to alt_name; consider place=hamlet" />
		<tag k="name" v="Fuglevatn;Gytten" />
		<tag k="place" v="farm" />
		<tag k="ssr:stedsnr" v="858442" />
	</node>
	<node lat="61.36679444638625" lon="5.484883331998326" id="-80792">
		<tag k="alt_name" v="Rabbegjerdet" />
		<tag k="name" v="Rabbagjerdet" />
		<tag k="place" v="locality" />
		<tag k="ssr:stedsnr" v="858934" />
	</node>
	<node lat="61.23956647189489" lon="5.568330934179646" id="-80795">
		<tag k="alt_name" v="Ødemark;Øydemarka" />
		<tag k="fixme" v="consider place=hamlet" />
		<tag k="name" v="Fjellet" />
		<tag k="place" v="farm" />
		<tag k="ssr:stedsnr" v="859941" />
	</node>
	<node lat="61.23367777776879" lon="5.48574166390508" id="-80797">
		<tag k="historic" v="shieling" />
		<tag k="name" v="Yndestadstølen" />
		<tag k="place" v="isolated_dwelling" />
		<tag k="ssr:stedsnr" v="859949" />
	</node>
	<node lat="61.26134444758963" lon="5.046294434753961" id="-80863">
		<tag k="name" v="Nordre Folkestad" />
		<tag k="place" v="farm" />
		<tag k="ssr:stedsnr" v="943921" />
	</node>
	<node lat="61.36491401809111" lon="5.415993177510594" id="-80879">
		<tag k="fixme" v="consider place=hamlet" />
		<tag k="name" v="Einehaugane" />
		<tag k="place" v="farm" />
		<tag k="ssr:stedsnr" v="971481" />
	</node>
	<node lat="61.24867777966721" lon="5.651427089054551" id="-80880">
		<tag k="fixme" v="consider place=hamlet" />
		<tag k="name" v="Indre Heggheim" />
		<tag k="place" v="farm" />
		<tag k="ssr:stedsnr" v="971482" />
	</node>
	<node lat="61.2605578170432" lon="5.045434367732661" id="-80881">
		<tag k="name" v="Folkestad" />
		<tag k="place" v="hamlet" />
		<tag k="ssr:stedsnr" v="971431" />
	</node>
	<node lat="61.36394001634589" lon="5.396646505182096" id="-80925">
		<tag k="fixme" v="consider place=hamlet" />
		<tag k="name" v="Dale" />
		<tag k="place" v="farm" />
		<tag k="ssr:stedsnr" v="974002" />
	</node>
	<node lat="61.30881409834112" lon="5.234687790087004" id="-80926">
		<tag k="fixme" v="consider place=hamlet" />
		<tag k="name" v="Gjølanger" />
		<tag k="place" v="farm" />
		<tag k="ssr:stedsnr" v="973945" />
	</node>
	<node lat="61.3143254156356" lon="5.2051682728427435" id="-80927">
		<tag k="alt_name" v="Langenes" />
		<tag k="fixme" v="consider place=hamlet" />
		<tag k="name" v="Langeneset" />
		<tag k="place" v="farm" />
		<tag k="ssr:stedsnr" v="973947" />
	</node>
	<node lat="61.356781826788264" lon="5.298216709550954" id="-80928">
		<tag k="fixme" v="consider place=hamlet" />
		<tag k="name" v="Hegreneset" />
		<tag k="place" v="farm" />
		<tag k="ssr:stedsnr" v="973948" />
	</node>
	<node lat="61.31781759335541" lon="5.352426085701465" id="-80929">
		<tag k="name" v="Ytsteneset" />
		<tag k="place" v="farm" />
		<tag k="ssr:stedsnr" v="974046" />
	</node>
	<node lat="61.26867708486786" lon="5.431840917296435" id="-80935">
		<tag k="fixme" v="consider place=hamlet" />
		<tag k="name" v="Bjordalen" />
		<tag k="place" v="farm" />
		<tag k="ssr:stedsnr" v="974131" />
	</node>
	<node lat="61.32412734939289" lon="5.348013620374549" id="-80970">
		<tag k="alt_name" v="Lendingen" />
		<tag k="name" v="Lendinga" />
		<tag k="place" v="farm" />
		<tag k="ssr:stedsnr" v="1078154" />
	</node>
</osm>
