<?xml version="1.0" encoding="UTF-8"?>
<osm version="0.6" generator="osmapis">
	<node lat="61.37184166535217" lon="5.408349994066753" id="-79082">
		<tag k="name" v="Nyhamarsmyra" />
		<tag k="natural" v="wetland" />
		<tag k="ssr:stedsnr" v="33575" />
	</node>
	<node lat="61.233372221258705" lon="5.6819750060262235" id="-79087">
		<tag k="name" v="Myrbærmyra" />
		<tag k="natural" v="wetland" />
		<tag k="ssr:stedsnr" v="33905" />
	</node>
	<node lat="61.28020278168113" lon="5.118344435286984" id="-79146">
		<tag k="name" v="Storemyra" />
		<tag k="natural" v="wetland" />
		<tag k="ssr:stedsnr" v="129410" />
	</node>
	<node lat="61.29656666815146" lon="5.0452805564753715" id="-79161">
		<tag k="name" v="Vilnesmyra" />
		<tag k="natural" v="wetland" />
		<tag k="ssr:stedsnr" v="154309" />
	</node>
	<node lat="61.25357777954765" lon="5.066574994794018" id="-79162">
		<tag k="name" v="Gjiljane" />
		<tag k="natural" v="wetland" />
		<tag k="ssr:stedsnr" v="154311" />
	</node>
	<node lat="61.3515499981159" lon="5.3271694507947185" id="-79211">
		<tag k="historic" v="shieling" />
		<tag k="loc_name" v="Eidsstølen" />
		<tag k="name" v="Stølen" />
		<tag k="place" v="locality" />
		<tag k="ssr:stedsnr" v="250348" />
	</node>
	<node lat="61.337436109804074" lon="5.501291672357259" id="-79232">
		<tag k="alt_name" v="Løykemyra" />
		<tag k="name" v="Løykjemyra" />
		<tag k="natural" v="wetland" />
		<tag k="ssr:stedsnr" v="190060" />
	</node>
	<node lat="61.2739083340641" lon="4.9654722258005854" id="-79364">
		<tag k="name" v="Trollhamremyra" />
		<tag k="natural" v="wetland" />
		<tag k="ssr:stedsnr" v="458237" />
	</node>
	<node lat="61.302636113350765" lon="5.168300005352843" id="-79367">
		<tag k="name" v="Ura" />
		<tag k="natural" v="scree" />
		<tag k="ssr:stedsnr" v="458740" />
	</node>
	<node lat="61.34714166412422" lon="5.488688882332797" id="-79389">
		<tag k="name" v="Olamyra" />
		<tag k="natural" v="wetland" />
		<tag k="ssr:stedsnr" v="458971" />
	</node>
	<node lat="61.32538055592969" lon="5.466044435931839" id="-79390">
		<tag k="name" v="Balemyra" />
		<tag k="natural" v="wetland" />
		<tag k="ssr:stedsnr" v="336968" />
	</node>
	<node lat="61.22108055962011" lon="5.420488889858021" id="-79446">
		<tag k="name" v="Moltemyrane" />
		<tag k="natural" v="wetland" />
		<tag k="ssr:stedsnr" v="397602" />
	</node>
	<node lat="61.29268611480444" lon="5.116666664474069" id="-79448">
		<tag k="name" v="Grønene" />
		<tag k="natural" v="wetland" />
		<tag k="ssr:stedsnr" v="397740" />
	</node>
	<node lat="61.371472219277" lon="5.4678944397401725" id="-79490">
		<tag k="name" v="Kattasteinen" />
		<tag k="natural" v="stone" />
		<tag k="ssr:stedsnr" v="457979" />
	</node>
	<node lat="61.36851666322211" lon="5.518097230222867" id="-79491">
		<tag k="name" v="Storemyra" />
		<tag k="natural" v="wetland" />
		<tag k="ssr:stedsnr" v="457988" />
	</node>
	<node lat="61.23920277822732" lon="5.6030972166555175" id="-79542">
		<tag k="name" v="Storura" />
		<tag k="natural" v="scree" />
		<tag k="ssr:stedsnr" v="518883" />
	</node>
	<node lat="61.28662777938181" lon="5.065722215504743" id="-79566">
		<tag k="name" v="Fursetmyra" />
		<tag k="natural" v="wetland" />
		<tag k="ssr:stedsnr" v="675081" />
	</node>
	<node lat="61.27324722655037" lon="5.410580563078351" id="-79589">
		<tag k="alt_name" v="Løyklemyra" />
		<tag k="name" v="Løykemyra" />
		<tag k="natural" v="wetland" />
		<tag k="ssr:stedsnr" v="675586" />
	</node>
	<node lat="61.22621389097324" lon="5.619833341526594" id="-79645">
		<tag k="alt_name" v="Moldura" />
		<tag k="name" v="Moldurda" />
		<tag k="natural" v="scree" />
		<tag k="ssr:stedsnr" v="555972" />
	</node>
	<node lat="61.24575277924937" lon="5.506633326611989" id="-79666">
		<tag k="name" v="Hellemyrane" />
		<tag k="natural" v="wetland" />
		<tag k="ssr:stedsnr" v="579950" />
	</node>
	<node lat="61.34115278081147" lon="5.329380563427088" id="-79674">
		<tag k="name" v="Storemyra" />
		<tag k="natural" v="wetland" />
		<tag k="ssr:stedsnr" v="614260" />
	</node>
	<node lat="61.2691916640636" lon="4.970611105142369" id="-79692">
		<tag k="name" v="Storemyra" />
		<tag k="natural" v="wetland" />
		<tag k="ssr:stedsnr" v="639940" />
	</node>
	<node lat="61.272299997050595" lon="5.015088882460338" id="-79709">
		<tag k="name" v="Tranemyra" />
		<tag k="natural" v="wetland" />
		<tag k="ssr:stedsnr" v="640713" />
	</node>
	<node lat="61.273225001108536" lon="5.648674998500803" id="-79980">
		<tag k="name" v="Øyra" />
		<tag k="place" v="locality" />
		<tag k="ssr:stedsnr" v="883218" />
	</node>
	<node lat="61.26897499971816" lon="5.535594442412597" id="-79995">
		<tag k="name" v="Styggemarka" />
		<tag k="place" v="locality" />
		<tag k="ssr:stedsnr" v="883618" />
	</node>
	<node lat="61.34453055221568" lon="5.450594435973815" id="-80107">
		<tag k="alt_name" v="Løsethmyrane" />
		<tag k="name" v="Løsetmyrane" />
		<tag k="natural" v="wetland" />
		<tag k="ssr:stedsnr" v="7273" />
	</node>
	<node lat="61.254133330823386" lon="5.04352778084443" id="-80160">
		<tag k="name" v="Føllingemyra" />
		<tag k="natural" v="wetland" />
		<tag k="ssr:stedsnr" v="33253" />
	</node>
	<node lat="61.2416166709475" lon="5.414527781176145" id="-80169">
		<tag k="name" v="Slåttemyra" />
		<tag k="natural" v="wetland" />
		<tag k="ssr:stedsnr" v="33654" />
	</node>
	<node lat="61.22757777912575" lon="5.649986102122188" id="-80173">
		<tag k="name" v="Myrane" />
		<tag k="natural" v="wetland" />
		<tag k="ssr:stedsnr" v="33994" />
	</node>
	<node lat="61.237166662617575" lon="5.623594448849054" id="-80239">
		<tag k="name" v="Storøyra" />
		<tag k="place" v="locality" />
		<tag k="ssr:stedsnr" v="70941" />
	</node>
	<node lat="61.26263610666379" lon="5.647505553907776" id="-80292">
		<tag k="name" v="Kvernhusøyra" />
		<tag k="place" v="locality" />
		<tag k="ssr:stedsnr" v="128176" />
	</node>
	<node lat="61.247453349325525" lon="5.441279530371119" id="-80325">
		<tag k="name" v="Porsemyra" />
		<tag k="natural" v="wetland" />
		<tag k="ssr:stedsnr" v="130364" />
	</node>
	<node lat="61.27289166906353" lon="5.528636104566303" id="-80332">
		<tag k="name" v="Jota" />
		<tag k="natural" v="scree" />
		<tag k="ssr:stedsnr" v="154614" />
	</node>
	<node lat="61.24493889096974" lon="5.314725006101912" id="-80361">
		<tag k="name" v="Tjukkeskogen" />
		<tag k="place" v="locality" />
		<tag k="ssr:stedsnr" v="155590" />
	</node>
	<node lat="61.30756944288913" lon="5.507052783459985" id="-80396">
		<tag k="name" v="Brekkemyrane" />
		<tag k="natural" v="wetland" />
		<tag k="ssr:stedsnr" v="190147" />
	</node>
	<node lat="61.263119445856695" lon="4.996172230080348" id="-80418">
		<tag k="name" v="Følsmyra" />
		<tag k="natural" v="wetland" />
		<tag k="ssr:stedsnr" v="215267" />
	</node>
	<node lat="61.26856388700506" lon="4.987275006293114" id="-80419">
		<tag k="name" v="Langedalsmyra" />
		<tag k="natural" v="wetland" />
		<tag k="ssr:stedsnr" v="215273" />
	</node>
	<node lat="61.22091110723917" lon="5.572027770720205" id="-80420">
		<tag k="name" v="Seltuftemyrane" />
		<tag k="natural" v="wetland" />
		<tag k="ssr:stedsnr" v="215221" />
	</node>
	<node lat="61.26634444036496" lon="5.067383330932733" id="-80622">
		<tag k="name" v="Hyljemyra" />
		<tag k="natural" v="wetland" />
		<tag k="ssr:stedsnr" v="397255" />
	</node>
	<node lat="61.279583329364414" lon="5.104991669392458" id="-80635">
		<tag k="name" v="Mosebergmyra" />
		<tag k="natural" v="wetland" />
		<tag k="ssr:stedsnr" v="397733" />
	</node>
	<node lat="61.23204721786669" lon="5.674422223575406" id="-80696">
		<tag k="name" v="Myrane" />
		<tag k="natural" v="wetland" />
		<tag k="ssr:stedsnr" v="434989" />
	</node>
	<node lat="61.29928332907484" lon="5.490263891097772" id="-80714">
		<tag k="name" v="Herstadmyrane" />
		<tag k="natural" v="wetland" />
		<tag k="ssr:stedsnr" v="493121" />
	</node>
	<node lat="61.34463611366633" lon="5.310186112633142" id="-80723">
		<tag k="alt_name" v="Løykemyra" />
		<tag k="name" v="Løkemyra" />
		<tag k="natural" v="wetland" />
		<tag k="ssr:stedsnr" v="493264" />
	</node>
	<node lat="61.268194448819386" lon="5.0468777728198875" id="-80743">
		<tag k="name" v="Langemyra" />
		<tag k="natural" v="wetland" />
		<tag k="ssr:stedsnr" v="519236" />
	</node>
	<node lat="61.2696083297761" lon="5.081952779446425" id="-80745">
		<tag k="name" v="Dyremyra" />
		<tag k="natural" v="wetland" />
		<tag k="ssr:stedsnr" v="519244" />
	</node>
	<node lat="61.29783055721595" lon="5.190727770648542" id="-80869">
		<tag k="name" v="Myrane" />
		<tag k="natural" v="wetland" />
		<tag k="ssr:stedsnr" v="614499" />
	</node>
	<node lat="61.32693333703819" lon="5.337508334545137" id="-80897">
		<tag k="name" v="Jennura" />
		<tag k="natural" v="scree" />
		<tag k="ssr:stedsnr" v="640519" />
	</node>
	<node lat="61.247702775918555" lon="5.663566659160386" id="-80903">
		<tag k="name" v="Furemyra" />
		<tag k="natural" v="wetland" />
		<tag k="ssr:stedsnr" v="639920" />
	</node>
	<node lat="61.24469444610046" lon="5.6591916720561235" id="-80904">
		<tag k="name" v="Kjøldemyra" />
		<tag k="natural" v="wetland" />
		<tag k="ssr:stedsnr" v="639921" />
	</node>
	<node lat="61.269358335979824" lon="5.064530550550531" id="-80940">
		<tag k="name" v="Stølshaugmyra" />
		<tag k="natural" v="wetland" />
		<tag k="ssr:stedsnr" v="701286" />
	</node>
	<node lat="61.352569442313566" lon="5.46720277512846" id="-81012">
		<tag k="name" v="Fonna" />
		<tag k="place" v="locality" />
		<tag k="ssr:stedsnr" v="736339" />
	</node>
	<node lat="61.25044166228303" lon="5.452980548832317" id="-81035">
		<tag k="name" v="Gaddenesmyrane" />
		<tag k="natural" v="wetland" />
		<tag k="ssr:stedsnr" v="761583" />
	</node>
	<node lat="61.26114721916557" lon="4.994369452559711" id="-81192">
		<tag k="name" v="Kvernhustjørna" />
		<tag k="natural" v="wetland" />
		<tag k="ssr:stedsnr" v="944225" />
	</node>
	<node lat="61.253977782356586" lon="5.649522225175808" id="-81194">
		<tag k="name" v="Svortningssteinen" />
		<tag k="natural" v="stone" />
		<tag k="ssr:stedsnr" v="943871" />
	</node>
	<node lat="61.26231388867861" lon="5.07940000022848" id="-81196">
		<tag k="name" v="Breimyra" />
		<tag k="natural" v="wetland" />
		<tag k="ssr:stedsnr" v="944247" />
	</node>
	<node lat="61.31069444218707" lon="5.150619451189854" id="-81210">
		<tag k="name" v="Storemyra" />
		<tag k="natural" v="wetland" />
		<tag k="ssr:stedsnr" v="944753" />
	</node>
</osm>
