<?xml version="1.0" encoding="UTF-8"?>
<osm version="0.6" generator="osmapis">
	<node lat="61.34463055967894" lon="5.28761944147577" id="-30489">
		<tag k="alt_name" v="Havnen" />
		<tag k="man_made" v="quay" />
		<tag k="name" v="Hamnen" />
		<tag k="place" v="locality" />
		<tag k="ssr:stedsnr" v="68357" />
	</node>
	<node lat="61.241150001788135" lon="5.6513111171232575" id="-30657">
		<tag k="bridge" v="yes" />
		<tag k="layer" v="1" />
		<tag k="name" v="Sørebødalen" />
		<tag k="ssr:stedsnr" v="168355" />
	</node>
	<node lat="61.30638611133547" lon="5.231858332241821" id="-30658">
		<tag k="bridge" v="yes" />
		<tag k="layer" v="1" />
		<tag k="name" v="Gjølanger" />
		<tag k="ssr:stedsnr" v="168358" />
	</node>
	<node lat="61.259519443978604" lon="5.340544448563628" id="-30784">
		<tag k="fixme" v="consider highway=path" />
		<tag k="highway" v="track" />
		<tag k="name" v="Gamlevegen" />
		<tag k="ssr:stedsnr" v="311582" />
	</node>
	<node lat="61.36506388996169" lon="5.4042222286973685" id="-30879">
		<tag k="bridge" v="yes" />
		<tag k="layer" v="1" />
		<tag k="name" v="Dale" />
		<tag k="ssr:stedsnr" v="411245" />
	</node>
	<node lat="61.289372222905115" lon="5.071933336617" id="-30880">
		<tag k="bridge" v="yes" />
		<tag k="layer" v="1" />
		<tag k="name" v="Fursetmyrane kulvert" />
		<tag k="ssr:stedsnr" v="411340" />
	</node>
	<node lat="61.31119999912297" lon="5.3449000058784515" id="-30881">
		<tag k="bridge" v="yes" />
		<tag k="layer" v="1" />
		<tag k="name" v="Flekkeelva" />
		<tag k="ssr:stedsnr" v="411343" />
	</node>
	<node lat="61.35676944499951" lon="5.4012083375464774" id="-31119">
		<tag k="bridge" v="yes" />
		<tag k="layer" v="1" />
		<tag k="name" v="Hatledal" />
		<tag k="ssr:stedsnr" v="593323" />
	</node>
	<node lat="61.256777781336304" lon="5.5303972178305285" id="-31197">
		<tag k="bridge" v="yes" />
		<tag k="layer" v="1" />
		<tag k="name" v="Boge" />
		<tag k="ssr:stedsnr" v="653231" />
	</node>
	<node lat="61.37127500164499" lon="5.403283330095369" id="-31269">
		<tag k="bridge" v="yes" />
		<tag k="layer" v="1" />
		<tag k="name" v="Paradisbukta" />
		<tag k="ssr:stedsnr" v="897341" />
	</node>
	<node lat="61.250519447108495" lon="5.396144451182632" id="-31270">
		<tag k="bridge" v="yes" />
		<tag k="layer" v="1" />
		<tag k="name" v="Nautsund Store" />
		<tag k="ssr:stedsnr" v="897342" />
	</node>
	<node lat="61.36192500213155" lon="5.561355553833076" id="-31271">
		<tag k="bridge" v="yes" />
		<tag k="layer" v="1" />
		<tag k="name" v="Sagevik" />
		<tag k="ssr:stedsnr" v="897343" />
	</node>
	<node lat="61.35732499703512" lon="5.400341658633385" id="-31272">
		<tag k="bridge" v="yes" />
		<tag k="layer" v="1" />
		<tag k="name" v="Hatledal kulvert" />
		<tag k="ssr:stedsnr" v="897348" />
	</node>
	<node lat="61.34448889195855" lon="5.412558337627342" id="-31273">
		<tag k="bridge" v="yes" />
		<tag k="layer" v="1" />
		<tag k="name" v="Vassåna" />
		<tag k="ssr:stedsnr" v="714315" />
	</node>
	<node lat="61.24013332995915" lon="5.6254388956759005" id="-31274">
		<tag k="bridge" v="yes" />
		<tag k="layer" v="1" />
		<tag k="name" v="Grøvlen" />
		<tag k="ssr:stedsnr" v="715383" />
	</node>
</osm>
