<?xml version="1.0" encoding="UTF-8"?>
<osm version="0.6" generator="osmapis">
	<node lat="61.25798610833887" lon="4.996502771099888" id="-27778">
		<tag k="name" v="Kråkehaugen" />
		<tag k="natural" v="hill" />
		<tag k="place" v="locality" />
		<tag k="ssr:stedsnr" v="7121" />
	</node>
	<node lat="61.357305554176776" lon="5.377674999887651" id="-27782">
		<tag k="name" v="Vikakletten" />
		<tag k="natural" v="hill" />
		<tag k="place" v="locality" />
		<tag k="ssr:stedsnr" v="7324" />
	</node>
	<node lat="61.25427221809016" lon="5.351233325254876" id="-27785">
		<tag k="name" v="Smørhaugane" />
		<tag k="natural" v="hill" />
		<tag k="place" v="locality" />
		<tag k="ssr:stedsnr" v="7526" />
	</node>
	<node lat="61.34351666492314" lon="5.483455551144142" id="-27789">
		<tag k="alt_name" v="Nyksdalen" />
		<tag k="name" v="Nykksdalen" />
		<tag k="natural" v="valley" />
		<tag k="place" v="locality" />
		<tag k="ssr:stedsnr" v="8014" />
	</node>
	<node lat="61.293713885315086" lon="5.50362499848962" id="-27793">
		<tag k="name" v="Otresmettet" />
		<tag k="natural" v="valley" />
		<tag k="place" v="locality" />
		<tag k="ssr:stedsnr" v="8143" />
	</node>
	<node lat="61.291133336857065" lon="5.530866659155484" id="-27794">
		<tag k="name" v="Myrebærhaugen" />
		<tag k="natural" v="hill" />
		<tag k="place" v="locality" />
		<tag k="ssr:stedsnr" v="8144" />
	</node>
	<node lat="61.29322222567308" lon="5.615236117567412" id="-27795">
		<tag k="fixme" v="consider natural=peak for the most distinct mountains in the district" />
		<tag k="name" v="Høgevarden" />
		<tag k="natural" v="hill" />
		<tag k="place" v="locality" />
		<tag k="ssr:stedsnr" v="8149" />
	</node>
	<node lat="61.30863180545552" lon="5.511726633020485" id="-27797">
		<tag k="name" v="Herstadbotnen" />
		<tag k="natural" v="valley" />
		<tag k="place" v="locality" />
		<tag k="ssr:stedsnr" v="8154" />
	</node>
	<node lat="61.26293888684631" lon="5.488408342641699" id="-27799">
		<tag k="name" v="Olanova" />
		<tag k="natural" v="hill" />
		<tag k="place" v="locality" />
		<tag k="ssr:stedsnr" v="8242" />
	</node>
	<node lat="61.260688886003024" lon="5.702986118266128" id="-27800">
		<tag k="fixme" v="consider natural=peak for the most distinct mountains in the district" />
		<tag k="name" v="Trollenova" />
		<tag k="natural" v="hill" />
		<tag k="place" v="locality" />
		<tag k="ssr:stedsnr" v="8249" />
	</node>
	<node lat="61.28089999880824" lon="5.478930553704968" id="-27803">
		<tag k="fixme" v="consider natural=peak for the most distinct mountains in the district" />
		<tag k="name" v="Slettheia" />
		<tag k="natural" v="hill" />
		<tag k="place" v="locality" />
		<tag k="ssr:stedsnr" v="8192" />
	</node>
	<node lat="61.271677781512174" lon="5.3210166613122665" id="-27808">
		<tag k="fixme" v="consider natural=peak for the most distinct mountains in the district" />
		<tag k="name" v="Åsen" />
		<tag k="natural" v="hill" />
		<tag k="place" v="locality" />
		<tag k="ssr:stedsnr" v="9708" />
	</node>
	<node lat="61.30571666509654" lon="5.14684999849251" id="-27809">
		<tag k="alt_name" v="Litleåsen" />
		<tag k="fixme" v="consider natural=peak for the most distinct mountains in the district" />
		<tag k="name" v="Litlåsen" />
		<tag k="natural" v="hill" />
		<tag k="place" v="locality" />
		<tag k="ssr:stedsnr" v="9719" />
	</node>
	<node lat="61.313244441498625" lon="5.392874991206691" id="-27810">
		<tag k="alt_name" v="Furekammane" />
		<tag k="fixme" v="consider natural=peak for the most distinct mountains in the district" />
		<tag k="name" v="Furekambane" />
		<tag k="natural" v="hill" />
		<tag k="place" v="locality" />
		<tag k="ssr:stedsnr" v="9720" />
	</node>
	<node lat="61.20628055732846" lon="5.555786104051191" id="-27812">
		<tag k="name" v="Såteskardet" />
		<tag k="natural" v="valley" />
		<tag k="place" v="locality" />
		<tag k="ssr:stedsnr" v="9798" />
	</node>
	<node lat="61.24791111239386" lon="5.6119999963978096" id="-27816">
		<tag k="fixme" v="consider natural=peak for the most distinct mountains in the district" />
		<tag k="name" v="Smettefjellet" />
		<tag k="natural" v="hill" />
		<tag k="place" v="locality" />
		<tag k="ssr:stedsnr" v="9954" />
	</node>
	<node lat="61.22814166601573" lon="5.534266672392355" id="-27818">
		<tag k="name" v="Engjedalen" />
		<tag k="natural" v="valley" />
		<tag k="place" v="locality" />
		<tag k="ssr:stedsnr" v="9991" />
	</node>
	<node lat="61.23023333484518" lon="5.681477786340721" id="-27819">
		<tag k="fixme" v="consider natural=peak for the most distinct mountains in the district" />
		<tag k="name" v="Storeskora" />
		<tag k="natural" v="hill" />
		<tag k="place" v="locality" />
		<tag k="ssr:stedsnr" v="9996" />
	</node>
	<node lat="61.23305000096756" lon="5.662983337338853" id="-27820">
		<tag k="alt_name" v="Veslebotnen" />
		<tag k="name" v="Litlebotnen" />
		<tag k="natural" v="valley" />
		<tag k="place" v="locality" />
		<tag k="ssr:stedsnr" v="9998" />
	</node>
	<node lat="61.261000000179436" lon="4.97154721536477" id="-27822">
		<tag k="name" v="Hylkjemyrknolten" />
		<tag k="natural" v="hill" />
		<tag k="place" v="locality" />
		<tag k="ssr:stedsnr" v="33212" />
	</node>
	<node lat="61.25458055436732" lon="5.0788388808082265" id="-27823">
		<tag k="name" v="Skitnedalen" />
		<tag k="natural" v="valley" />
		<tag k="place" v="locality" />
		<tag k="ssr:stedsnr" v="33262" />
	</node>
	<node lat="61.32126666452228" lon="5.418436114545054" id="-27826">
		<tag k="name" v="Olahaugen" />
		<tag k="natural" v="hill" />
		<tag k="place" v="locality" />
		<tag k="ssr:stedsnr" v="33581" />
	</node>
	<node lat="61.2958388901293" lon="5.349491664490079" id="-27828">
		<tag k="name" v="Vesleskaret" />
		<tag k="natural" v="valley" />
		<tag k="place" v="locality" />
		<tag k="ssr:stedsnr" v="33590" />
	</node>
	<node lat="61.26412777749591" lon="5.280024998930849" id="-27829">
		<tag k="name" v="Kråkeskaret" />
		<tag k="natural" v="valley" />
		<tag k="place" v="locality" />
		<tag k="ssr:stedsnr" v="33703" />
	</node>
	<node lat="61.22237222650678" lon="5.545347217798004" id="-27830">
		<tag k="name" v="Stølsbotnen" />
		<tag k="natural" v="valley" />
		<tag k="place" v="locality" />
		<tag k="ssr:stedsnr" v="33616" />
	</node>
	<node lat="61.21024722035756" lon="5.5444000051170566" id="-27831">
		<tag k="name" v="Leliusskora" />
		<tag k="place" v="locality" />
		<tag k="ssr:stedsnr" v="33618" />
	</node>
	<node lat="61.229325003536395" lon="5.44549999254425" id="-27832">
		<tag k="name" v="Plasset" />
		<tag k="natural" v="hill" />
		<tag k="place" v="locality" />
		<tag k="ssr:stedsnr" v="33624" />
	</node>
	<node lat="61.21620833743745" lon="5.42896389772136" id="-27833">
		<tag k="fixme" v="consider natural=peak for the most distinct mountains in the district" />
		<tag k="name" v="Høgelauten" />
		<tag k="natural" v="hill" />
		<tag k="place" v="locality" />
		<tag k="ssr:stedsnr" v="33626" />
	</node>
	<node lat="61.24574722224829" lon="5.401133338401428" id="-27835">
		<tag k="fixme" v="consider natural=peak for the most distinct mountains in the district" />
		<tag k="name" v="Hundefjellet" />
		<tag k="natural" v="hill" />
		<tag k="place" v="locality" />
		<tag k="ssr:stedsnr" v="33655" />
	</node>
	<node lat="61.24021388614622" lon="5.338411119061124" id="-27836">
		<tag k="name" v="Litlebotnen" />
		<tag k="natural" v="valley" />
		<tag k="place" v="locality" />
		<tag k="ssr:stedsnr" v="33662" />
	</node>
	<node lat="61.26750277739516" lon="4.965566675376602" id="-27839">
		<tag k="name" v="Fløpelhaugen" />
		<tag k="natural" v="hill" />
		<tag k="place" v="locality" />
		<tag k="ssr:stedsnr" v="33917" />
	</node>
	<node lat="61.365247224334304" lon="5.55019443547669" id="-27841">
		<tag k="name" v="Rognehaugen" />
		<tag k="natural" v="hill" />
		<tag k="place" v="locality" />
		<tag k="ssr:stedsnr" v="33988" />
	</node>
	<node lat="61.28561110796464" lon="5.094455550456643" id="-27843">
		<tag k="name" v="Austre Skogahaugen" />
		<tag k="natural" v="hill" />
		<tag k="place" v="locality" />
		<tag k="ssr:stedsnr" v="51568" />
	</node>
	<node lat="61.32169999820908" lon="5.25806111458453" id="-27847">
		<tag k="name" v="Blåfjellet" />
		<tag k="natural" v="slope" />
		<tag k="place" v="locality" />
		<tag k="ssr:stedsnr" v="68301" />
	</node>
	<node lat="61.317505558623445" lon="5.238947226246791" id="-27848">
		<tag k="alt_name" v="Kallastølfjellet" />
		<tag k="fixme" v="consider natural=peak for the most distinct mountains in the district" />
		<tag k="name" v="Kalvhagstølfjellet" />
		<tag k="natural" v="hill" />
		<tag k="place" v="locality" />
		<tag k="ssr:stedsnr" v="68306" />
	</node>
	<node lat="61.34245833395998" lon="5.236250005326876" id="-27849">
		<tag k="fixme" v="consider natural=peak for the most distinct mountains in the district" />
		<tag k="name" v="Sylvsteinheia" />
		<tag k="natural" v="hill" />
		<tag k="place" v="locality" />
		<tag k="ssr:stedsnr" v="68352" />
	</node>
	<node lat="61.3070194403246" lon="5.328313896423771" id="-27853">
		<tag k="alt_name" v="Neverliskaret" />
		<tag k="name" v="Nevreliskardet" />
		<tag k="natural" v="valley" />
		<tag k="place" v="locality" />
		<tag k="ssr:stedsnr" v="68508" />
	</node>
	<node lat="61.332213891801224" lon="5.462708336710023" id="-27854">
		<tag k="alt_name" v="Store Furekammen" />
		<tag k="fixme" v="consider natural=peak for the most distinct mountains in the district" />
		<tag k="name" v="Storefurekamben" />
		<tag k="natural" v="hill" />
		<tag k="place" v="locality" />
		<tag k="ssr:stedsnr" v="68293" />
	</node>
	<node lat="61.33622499889439" lon="5.454961113191437" id="-27855">
		<tag k="alt_name" v="Løseth - Heia" />
		<tag k="fixme" v="consider natural=peak for the most distinct mountains in the district" />
		<tag k="name" v="Løsetheia" />
		<tag k="natural" v="hill" />
		<tag k="place" v="locality" />
		<tag k="ssr:stedsnr" v="68294" />
	</node>
	<node lat="61.2941527766022" lon="5.380933333291105" id="-27857">
		<tag k="alt_name" v="Glenjelia" />
		<tag k="name" v="Glennelia" />
		<tag k="natural" v="slope" />
		<tag k="place" v="locality" />
		<tag k="ssr:stedsnr" v="68433" />
	</node>
	<node lat="61.29141110869406" lon="5.341405547286781" id="-27858">
		<tag k="fixme" v="consider natural=peak for the most distinct mountains in the district" />
		<tag k="name" v="Vassliåsen" />
		<tag k="natural" v="hill" />
		<tag k="place" v="locality" />
		<tag k="ssr:stedsnr" v="68442" />
	</node>
	<node lat="61.269258335475506" lon="5.406869451862971" id="-27859">
		<tag k="alt_name" v="Slehaugen" />
		<tag k="name" v="Stehaugen" />
		<tag k="natural" v="hill" />
		<tag k="place" v="locality" />
		<tag k="ssr:stedsnr" v="68582" />
	</node>
	<node lat="61.3512290921305" lon="5.520634275834198" id="-27860">
		<tag k="fixme" v="consider natural=peak for the most distinct mountains in the district" />
		<tag k="name" v="Sundsheia" />
		<tag k="natural" v="hill" />
		<tag k="place" v="locality" />
		<tag k="ssr:stedsnr" v="68888" />
	</node>
	<node lat="61.33275277351433" lon="5.490049998954221" id="-27861">
		<tag k="alt_name" v="Lingkletten" />
		<tag k="name" v="Linkletten" />
		<tag k="natural" v="hill" />
		<tag k="place" v="locality" />
		<tag k="ssr:stedsnr" v="69050" />
	</node>
	<node lat="61.313708335924886" lon="5.329863896594464" id="-27866">
		<tag k="alt_name" v="Magnhildskaret" />
		<tag k="name" v="Magnhildeskardet" />
		<tag k="natural" v="valley" />
		<tag k="place" v="locality" />
		<tag k="ssr:stedsnr" v="69494" />
	</node>
	<node lat="61.33601388538976" lon="5.25370278606758" id="-27869">
		<tag k="alt_name" v="Glenjene" />
		<tag k="fixme" v="consider natural=peak for the most distinct mountains in the district" />
		<tag k="name" v="Glengene" />
		<tag k="natural" v="hill" />
		<tag k="place" v="locality" />
		<tag k="ssr:stedsnr" v="69384" />
	</node>
	<node lat="61.27751666610396" lon="5.365894446858649" id="-27871">
		<tag k="fixme" v="consider natural=peak for the most distinct mountains in the district" />
		<tag k="name" v="Nova" />
		<tag k="natural" v="hill" />
		<tag k="place" v="locality" />
		<tag k="ssr:stedsnr" v="69737" />
	</node>
	<node lat="61.36300555387688" lon="5.551447220456671" id="-27872">
		<tag k="name" v="Nymarkhaugen" />
		<tag k="natural" v="hill" />
		<tag k="place" v="locality" />
		<tag k="ssr:stedsnr" v="69935" />
	</node>
	<node lat="61.22752499646945" lon="5.524063882797798" id="-27875">
		<tag k="name" v="Brunene" />
		<tag k="natural" v="slope" />
		<tag k="place" v="locality" />
		<tag k="ssr:stedsnr" v="70994" />
	</node>
	<node lat="61.27999444415096" lon="5.648930552444964" id="-27876">
		<tag k="name" v="Tverrlia" />
		<tag k="natural" v="slope" />
		<tag k="place" v="locality" />
		<tag k="ssr:stedsnr" v="93873" />
	</node>
	<node lat="61.25600555604646" lon="4.9642027805265725" id="-27877">
		<tag k="fixme" v="consider natural=peak for the most distinct mountains in the district" />
		<tag k="name" v="Fjellet" />
		<tag k="natural" v="hill" />
		<tag k="place" v="locality" />
		<tag k="ssr:stedsnr" v="93879" />
	</node>
	<node lat="61.36210277840829" lon="5.549750004488396" id="-27878">
		<tag k="name" v="Novene" />
		<tag k="place" v="locality" />
		<tag k="ssr:stedsnr" v="93979" />
	</node>
	<node lat="61.22114166964354" lon="5.411588889703698" id="-27881">
		<tag k="name" v="Setane" />
		<tag k="place" v="locality" />
		<tag k="ssr:stedsnr" v="94614" />
	</node>
	<node lat="61.34767777404924" lon="5.473313890605929" id="-27884">
		<tag k="fixme" v="consider natural=peak for the most distinct mountains in the district" />
		<tag k="name" v="Nova" />
		<tag k="natural" v="hill" />
		<tag k="place" v="locality" />
		<tag k="ssr:stedsnr" v="250009" />
	</node>
	<node lat="61.325527773602666" lon="5.4921305511739" id="-27885">
		<tag k="name" v="Vassdalen" />
		<tag k="natural" v="valley" />
		<tag k="place" v="locality" />
		<tag k="ssr:stedsnr" v="250096" />
	</node>
	<node lat="61.27646944639062" lon="5.018213885301526" id="-27892">
		<tag k="alt_name" v="Fløygen" />
		<tag k="fixme" v="consider natural=peak for the most distinct mountains in the district" />
		<tag k="name" v="Fløyen" />
		<tag k="natural" v="hill" />
		<tag k="place" v="locality" />
		<tag k="ssr:stedsnr" v="250126" />
	</node>
	<node lat="61.286183332825395" lon="5.608691665737534" id="-27893">
		<tag k="fixme" v="consider natural=peak for the most distinct mountains in the district" />
		<tag k="name" v="Haraldefjellet" />
		<tag k="natural" v="hill" />
		<tag k="place" v="locality" />
		<tag k="ssr:stedsnr" v="250182" />
	</node>
	<node lat="61.27025277980304" lon="5.6872750016068165" id="-27895">
		<tag k="fixme" v="consider natural=peak for the most distinct mountains in the district" />
		<tag k="name" v="Steinsetfjellet" />
		<tag k="natural" v="hill" />
		<tag k="place" v="locality" />
		<tag k="ssr:stedsnr" v="250207" />
	</node>
	<node lat="61.25383888447323" lon="5.548788880236958" id="-27900">
		<tag k="fixme" v="consider natural=peak for the most distinct mountains in the district" />
		<tag k="name" v="Øyrafjellet" />
		<tag k="natural" v="hill" />
		<tag k="place" v="locality" />
		<tag k="ssr:stedsnr" v="250248" />
	</node>
	<node lat="61.31711110879834" lon="5.279399999422" id="-27908">
		<tag k="alt_name" v="Nervedalen" />
		<tag k="name" v="Nevredalen" />
		<tag k="natural" v="valley" />
		<tag k="place" v="locality" />
		<tag k="ssr:stedsnr" v="250305" />
	</node>
	<node lat="61.33410277509766" lon="5.243200008775661" id="-27913">
		<tag k="alt_name" v="Arnsteinsheia;Arsteinsheia" />
		<tag k="fixme" v="consider natural=peak for the most distinct mountains in the district" />
		<tag k="name" v="Arsteinheia" />
		<tag k="natural" v="hill" />
		<tag k="place" v="locality" />
		<tag k="ssr:stedsnr" v="250373" />
	</node>
	<node lat="61.338965975775444" lon="5.234016142696137" id="-27914">
		<tag k="alt_name" v="Nipa" />
		<tag k="fixme" v="consider natural=peak for the most distinct mountains in the district" />
		<tag k="name" v="Arsteinnipa" />
		<tag k="natural" v="hill" />
		<tag k="place" v="locality" />
		<tag k="ssr:stedsnr" v="250376" />
	</node>
	<node lat="61.31151388844803" lon="5.447100003570372" id="-27919">
		<tag k="name" v="Selhaugen" />
		<tag k="natural" v="hill" />
		<tag k="place" v="locality" />
		<tag k="ssr:stedsnr" v="250384" />
	</node>
	<node lat="61.28992500223418" lon="5.25500833193577" id="-27920">
		<tag k="fixme" v="consider natural=peak for the most distinct mountains in the district" />
		<tag k="name" v="Eikeskolten" />
		<tag k="natural" v="hill" />
		<tag k="place" v="locality" />
		<tag k="ssr:stedsnr" v="250388" />
	</node>
	<node lat="61.28150832977164" lon="5.281394452208283" id="-27925">
		<tag k="alt_name" v="Breiheia" />
		<tag k="fixme" v="consider natural=peak for the most distinct mountains in the district" />
		<tag k="name" v="Breidheia" />
		<tag k="natural" v="hill" />
		<tag k="place" v="locality" />
		<tag k="ssr:stedsnr" v="250414" />
	</node>
	<node lat="61.30640555164729" lon="5.264669436883724" id="-27931">
		<tag k="name" v="Skolten" />
		<tag k="natural" v="hill" />
		<tag k="place" v="locality" />
		<tag k="ssr:stedsnr" v="250480" />
	</node>
	<node lat="61.26171666254431" lon="5.3889444443400825" id="-27932">
		<tag k="name" v="Botnen" />
		<tag k="natural" v="valley" />
		<tag k="place" v="locality" />
		<tag k="ssr:stedsnr" v="250511" />
	</node>
	<node lat="61.262466667633234" lon="5.325252780681123" id="-27933">
		<tag k="name" v="Husebotnen" />
		<tag k="natural" v="valley" />
		<tag k="place" v="locality" />
		<tag k="ssr:stedsnr" v="250526" />
	</node>
	<node lat="61.25559722382117" lon="5.319938879546215" id="-27934">
		<tag k="fixme" v="consider natural=peak for the most distinct mountains in the district" />
		<tag k="name" v="Espedalsheia" />
		<tag k="natural" v="hill" />
		<tag k="place" v="locality" />
		<tag k="ssr:stedsnr" v="250528" />
	</node>
	<node lat="61.25067222533827" lon="5.339594441990115" id="-27935">
		<tag k="name" v="Storedalen" />
		<tag k="natural" v="valley" />
		<tag k="place" v="locality" />
		<tag k="ssr:stedsnr" v="250529" />
	</node>
	<node lat="61.27316111293462" lon="5.192461101843768" id="-27937">
		<tag k="fixme" v="consider natural=peak for the most distinct mountains in the district" />
		<tag k="name" v="Heia" />
		<tag k="natural" v="hill" />
		<tag k="place" v="locality" />
		<tag k="ssr:stedsnr" v="250592" />
	</node>
	<node lat="61.27950833670751" lon="5.332538889612321" id="-27938">
		<tag k="name" v="Kroken" />
		<tag k="place" v="locality" />
		<tag k="ssr:stedsnr" v="250597" />
	</node>
	<node lat="61.274844444049656" lon="5.127199998006414" id="-27940">
		<tag k="name" v="Middagsknolten" />
		<tag k="natural" v="hill" />
		<tag k="place" v="locality" />
		<tag k="ssr:stedsnr" v="250620" />
	</node>
	<node lat="61.291566664040865" lon="5.4542111173377865" id="-27941">
		<tag k="name" v="Polldalen" />
		<tag k="natural" v="valley" />
		<tag k="place" v="locality" />
		<tag k="ssr:stedsnr" v="250625" />
	</node>
	<node lat="61.28900833714726" lon="5.440552772058536" id="-27942">
		<tag k="fixme" v="consider natural=peak for the most distinct mountains in the district" />
		<tag k="name" v="Saukersholten" />
		<tag k="natural" v="hill" />
		<tag k="place" v="locality" />
		<tag k="ssr:stedsnr" v="250626" />
	</node>
	<node lat="61.23171944499733" lon="5.620730563750699" id="-27949">
		<tag k="fixme" v="consider natural=peak for the most distinct mountains in the district" />
		<tag k="name" v="Storåsen" />
		<tag k="natural" v="hill" />
		<tag k="place" v="locality" />
		<tag k="ssr:stedsnr" v="251527" />
	</node>
	<node lat="61.33219444222869" lon="5.23490000026719" id="-27950">
		<tag k="name" v="Bjørndalen" />
		<tag k="natural" v="valley" />
		<tag k="place" v="locality" />
		<tag k="ssr:stedsnr" v="251743" />
	</node>
	<node lat="61.24612221820607" lon="5.510677786691256" id="-27952">
		<tag k="name" v="Furehaugen" />
		<tag k="natural" v="hill" />
		<tag k="place" v="locality" />
		<tag k="ssr:stedsnr" v="251944" />
	</node>
	<node lat="61.23276388668408" lon="5.637005558928704" id="-27955">
		<tag k="fixme" v="consider natural=peak for the most distinct mountains in the district" />
		<tag k="name" v="Langelandssåta" />
		<tag k="natural" v="hill" />
		<tag k="place" v="locality" />
		<tag k="ssr:stedsnr" v="252000" />
	</node>
	<node lat="61.2699361087155" lon="5.632508342502169" id="-27956">
		<tag k="fixme" v="consider natural=peak for the most distinct mountains in the district" />
		<tag k="name" v="Fløyen" />
		<tag k="natural" v="hill" />
		<tag k="place" v="locality" />
		<tag k="ssr:stedsnr" v="128158" />
	</node>
	<node lat="61.329491664770124" lon="5.23758056466376" id="-27957">
		<tag k="fixme" v="consider natural=peak for the most distinct mountains in the district" />
		<tag k="name" v="Stølsfjellet" />
		<tag k="natural" v="hill" />
		<tag k="place" v="locality" />
		<tag k="ssr:stedsnr" v="128251" />
	</node>
	<node lat="61.286116668121316" lon="5.269138891191741" id="-27960">
		<tag k="name" v="Grasdalen" />
		<tag k="natural" v="valley" />
		<tag k="place" v="locality" />
		<tag k="ssr:stedsnr" v="129429" />
	</node>
	<node lat="61.321124998800215" lon="5.2886583304563874" id="-27962">
		<tag k="name" v="Skogadalen" />
		<tag k="natural" v="valley" />
		<tag k="place" v="locality" />
		<tag k="ssr:stedsnr" v="129315" />
	</node>
	<node lat="61.346499997236904" lon="5.346549999695158" id="-27964">
		<tag k="alt_name" v="Bortneimsheia;Bortheimsheia" />
		<tag k="fixme" v="consider natural=peak for the most distinct mountains in the district" />
		<tag k="name" v="Bortnheimsheia" />
		<tag k="natural" v="hill" />
		<tag k="place" v="locality" />
		<tag k="ssr:stedsnr" v="129351" />
	</node>
	<node lat="61.298155556943605" lon="5.290261108572562" id="-27965">
		<tag k="name" v="Gyttahaugen" />
		<tag k="natural" v="hill" />
		<tag k="place" v="locality" />
		<tag k="ssr:stedsnr" v="129388" />
	</node>
	<node lat="61.29666666551874" lon="5.3158083268716565" id="-27967">
		<tag k="alt_name" v="Jyttakleiva" />
		<tag k="name" v="Gyttakleiva" />
		<tag k="natural" v="hill" />
		<tag k="place" v="locality" />
		<tag k="ssr:stedsnr" v="129391" />
	</node>
	<node lat="61.293352779932896" lon="5.192144444923727" id="-27968">
		<tag k="name" v="Liane" />
		<tag k="natural" v="slope" />
		<tag k="place" v="locality" />
		<tag k="ssr:stedsnr" v="129400" />
	</node>
	<node lat="61.2379722218439" lon="5.394636119519484" id="-27969">
		<tag k="name" v="Dyregrova" />
		<tag k="natural" v="hill" />
		<tag k="place" v="locality" />
		<tag k="ssr:stedsnr" v="130609" />
	</node>
	<node lat="61.20835833532194" lon="5.570425004046675" id="-27970">
		<tag k="name" v="Fintegjota" />
		<tag k="natural" v="valley" />
		<tag k="place" v="locality" />
		<tag k="ssr:stedsnr" v="130725" />
	</node>
	<node lat="61.21456389077083" lon="5.606641665792824" id="-27972">
		<tag k="fixme" v="consider natural=peak for the most distinct mountains in the district" />
		<tag k="name" v="Storefjellet" />
		<tag k="natural" v="hill" />
		<tag k="place" v="locality" />
		<tag k="ssr:stedsnr" v="252737" />
	</node>
	<node lat="61.2165333311665" lon="5.587030547514546" id="-27973">
		<tag k="fixme" v="consider natural=peak for the most distinct mountains in the district" />
		<tag k="name" v="Bjørnanosa" />
		<tag k="natural" v="hill" />
		<tag k="place" v="locality" />
		<tag k="ssr:stedsnr" v="252748" />
	</node>
	<node lat="61.222183334152604" lon="5.6531388816714605" id="-27974">
		<tag k="name" v="Kjøgrovlia" />
		<tag k="natural" v="slope" />
		<tag k="place" v="locality" />
		<tag k="ssr:stedsnr" v="252758" />
	</node>
	<node lat="61.21701666309718" lon="5.548666665378396" id="-27975">
		<tag k="name" v="Smørklunken" />
		<tag k="natural" v="hill" />
		<tag k="place" v="locality" />
		<tag k="ssr:stedsnr" v="252976" />
	</node>
	<node lat="61.223305559262336" lon="5.553922218748363" id="-27976">
		<tag k="fixme" v="consider natural=peak for the most distinct mountains in the district" />
		<tag k="name" v="Dyrstallane" />
		<tag k="natural" v="hill" />
		<tag k="place" v="locality" />
		<tag k="ssr:stedsnr" v="252977" />
	</node>
	<node lat="61.22296944873812" lon="5.490105564227751" id="-27978">
		<tag k="fixme" v="consider natural=peak for the most distinct mountains in the district" />
		<tag k="name" v="Høgevarden" />
		<tag k="natural" v="hill" />
		<tag k="place" v="locality" />
		<tag k="ssr:stedsnr" v="252955" />
	</node>
	<node lat="61.222816669783825" lon="5.601986118336641" id="-27979">
		<tag k="name" v="Ospelia" />
		<tag k="natural" v="slope" />
		<tag k="place" v="locality" />
		<tag k="ssr:stedsnr" v="252971" />
	</node>
	<node lat="61.27101944212743" lon="5.055997227222525" id="-27982">
		<tag k="name" v="Helmingehaugen" />
		<tag k="natural" v="hill" />
		<tag k="place" v="locality" />
		<tag k="ssr:stedsnr" v="154307" />
	</node>
	<node lat="61.27023055675956" lon="4.999813893640001" id="-27986">
		<tag k="fixme" v="consider natural=peak for the most distinct mountains in the district" />
		<tag k="name" v="Drevåna" />
		<tag k="natural" v="hill" />
		<tag k="place" v="locality" />
		<tag k="ssr:stedsnr" v="154317" />
	</node>
	<node lat="61.2752388914827" lon="5.209477777915521" id="-27988">
		<tag k="name" v="Rørlikleiva" />
		<tag k="natural" v="valley" />
		<tag k="place" v="locality" />
		<tag k="ssr:stedsnr" v="154257" />
	</node>
	<node lat="61.27251666575626" lon="4.976305564202628" id="-27989">
		<tag k="name" v="Hamnahaugen" />
		<tag k="natural" v="hill" />
		<tag k="place" v="locality" />
		<tag k="ssr:stedsnr" v="154264" />
	</node>
	<node lat="61.274455556137" lon="4.96544721724868" id="-27990">
		<tag k="name" v="Trollhammaren" />
		<tag k="natural" v="hill" />
		<tag k="place" v="locality" />
		<tag k="ssr:stedsnr" v="154265" />
	</node>
	<node lat="61.24277777597399" lon="5.459069444303392" id="-27992">
		<tag k="fixme" v="consider natural=peak for the most distinct mountains in the district" />
		<tag k="name" v="Espenesåsen" />
		<tag k="natural" v="hill" />
		<tag k="place" v="locality" />
		<tag k="ssr:stedsnr" v="154607" />
	</node>
	<node lat="61.265277776035745" lon="5.5121833354844325" id="-27993">
		<tag k="name" v="Tjørehjellen" />
		<tag k="place" v="locality" />
		<tag k="ssr:stedsnr" v="154611" />
	</node>
	<node lat="61.26348055546575" lon="5.497536105272628" id="-27996">
		<tag k="name" v="Grasdalen" />
		<tag k="natural" v="valley" />
		<tag k="place" v="locality" />
		<tag k="ssr:stedsnr" v="154625" />
	</node>
	<node lat="61.21840000026127" lon="5.428452772681874" id="-27997">
		<tag k="fixme" v="consider natural=peak for the most distinct mountains in the district" />
		<tag k="name" v="Rånelauten" />
		<tag k="natural" v="hill" />
		<tag k="place" v="locality" />
		<tag k="ssr:stedsnr" v="154638" />
	</node>
	<node lat="61.3313638922934" lon="5.2625194409060025" id="-27998">
		<tag k="fixme" v="consider natural=peak for the most distinct mountains in the district" />
		<tag k="name" v="Tjørnaåsen" />
		<tag k="natural" v="hill" />
		<tag k="place" v="locality" />
		<tag k="ssr:stedsnr" v="154665" />
	</node>
	<node lat="61.25154444831373" lon="5.404011111898199" id="-28001">
		<tag k="name" v="Nautsundberget" />
		<tag k="natural" v="hill" />
		<tag k="place" v="locality" />
		<tag k="ssr:stedsnr" v="154599" />
	</node>
	<node lat="61.23730833619981" lon="5.588913897344295" id="-28005">
		<tag k="name" v="Dalen" />
		<tag k="natural" v="valley" />
		<tag k="place" v="locality" />
		<tag k="ssr:stedsnr" v="154904" />
	</node>
	<node lat="61.239549999684854" lon="5.635091669050833" id="-28006">
		<tag k="name" v="Brendehaug" />
		<tag k="natural" v="hill" />
		<tag k="place" v="locality" />
		<tag k="ssr:stedsnr" v="154912" />
	</node>
	<node lat="61.25018055745435" lon="4.965463895095938" id="-28007">
		<tag k="name" v="Ørnehaugen" />
		<tag k="natural" v="hill" />
		<tag k="place" v="locality" />
		<tag k="ssr:stedsnr" v="154923" />
	</node>
	<node lat="61.2405277766396" lon="5.542869448101992" id="-28009">
		<tag k="name" v="Hopen" />
		<tag k="place" v="locality" />
		<tag k="ssr:stedsnr" v="154961" />
	</node>
	<node lat="61.28788611211663" lon="5.125694453008413" id="-28012">
		<tag k="name" v="Storehaugen" />
		<tag k="natural" v="hill" />
		<tag k="place" v="locality" />
		<tag k="ssr:stedsnr" v="155706" />
	</node>
	<node lat="61.27153888702468" lon="5.151747229780655" id="-28013">
		<tag k="name" v="Brendene" />
		<tag k="place" v="locality" />
		<tag k="ssr:stedsnr" v="155720" />
	</node>
	<node lat="61.27785000417901" lon="5.17639721370574" id="-28014">
		<tag k="name" v="Sveien" />
		<tag k="place" v="locality" />
		<tag k="ssr:stedsnr" v="155604" />
	</node>
	<node lat="61.2753916637906" lon="5.043908331808734" id="-28015">
		<tag k="name" v="Furekammen" />
		<tag k="natural" v="hill" />
		<tag k="place" v="locality" />
		<tag k="ssr:stedsnr" v="155653" />
	</node>
	<node lat="61.27868333761297" lon="5.039308330423565" id="-28016">
		<tag k="name" v="Brendene" />
		<tag k="place" v="locality" />
		<tag k="ssr:stedsnr" v="155655" />
	</node>
	<node lat="61.27446667033175" lon="5.060891669298379" id="-28017">
		<tag k="name" v="Brennenothamrane" />
		<tag k="natural" v="hill" />
		<tag k="place" v="locality" />
		<tag k="ssr:stedsnr" v="155664" />
	</node>
	<node lat="61.28754444806256" lon="5.1520027767851335" id="-28018">
		<tag k="name" v="Skoltane" />
		<tag k="natural" v="hill" />
		<tag k="place" v="locality" />
		<tag k="ssr:stedsnr" v="155697" />
	</node>
	<node lat="61.2812999959198" lon="5.635130552711095" id="-28028">
		<tag k="name" v="Sørdalsnova" />
		<tag k="natural" v="hill" />
		<tag k="place" v="locality" />
		<tag k="ssr:stedsnr" v="190212" />
	</node>
	<node lat="61.278913890478044" lon="5.6206416578465195" id="-28029">
		<tag k="fixme" v="consider natural=peak for the most distinct mountains in the district" />
		<tag k="name" v="Steinsetheia" />
		<tag k="natural" v="hill" />
		<tag k="place" v="locality" />
		<tag k="ssr:stedsnr" v="190214" />
	</node>
	<node lat="61.25286666559553" lon="5.6106638828531175" id="-28030">
		<tag k="name" v="Storehola" />
		<tag k="natural" v="valley" />
		<tag k="place" v="locality" />
		<tag k="ssr:stedsnr" v="190236" />
	</node>
	<node lat="61.320986112788304" lon="5.273663890153301" id="-28032">
		<tag k="fixme" v="consider natural=peak for the most distinct mountains in the district" />
		<tag k="name" v="Storebauten" />
		<tag k="natural" v="hill" />
		<tag k="place" v="locality" />
		<tag k="ssr:stedsnr" v="190309" />
	</node>
	<node lat="61.28488333113039" lon="5.165958328483011" id="-28037">
		<tag k="name" v="Ormedalsberga" />
		<tag k="natural" v="hill" />
		<tag k="place" v="locality" />
		<tag k="ssr:stedsnr" v="190423" />
	</node>
	<node lat="61.32601111369118" lon="5.3858777853613695" id="-28039">
		<tag k="name" v="Dyttingehaugen" />
		<tag k="natural" v="hill" />
		<tag k="place" v="locality" />
		<tag k="ssr:stedsnr" v="190462" />
	</node>
	<node lat="61.309883333058195" lon="5.2767611124092415" id="-28043">
		<tag k="name" v="Geitefjellet" />
		<tag k="natural" v="hill" />
		<tag k="place" v="locality" />
		<tag k="ssr:stedsnr" v="190486" />
	</node>
	<node lat="61.29028055936109" lon="5.369058337369272" id="-28044">
		<tag k="fixme" v="consider natural=peak for the most distinct mountains in the district" />
		<tag k="name" v="Heggevikhammaren" />
		<tag k="natural" v="hill" />
		<tag k="place" v="locality" />
		<tag k="ssr:stedsnr" v="190613" />
	</node>
	<node lat="61.35182500401671" lon="5.436741672388032" id="-28045">
		<tag k="alt_name" v="Holten" />
		<tag k="fixme" v="consider natural=peak for the most distinct mountains in the district" />
		<tag k="name" v="Grønholten" />
		<tag k="natural" v="hill" />
		<tag k="place" v="locality" />
		<tag k="ssr:stedsnr" v="190363" />
	</node>
	<node lat="61.26638611007962" lon="4.952227784332083" id="-28051">
		<tag k="name" v="Vaulahaugen" />
		<tag k="natural" v="hill" />
		<tag k="place" v="locality" />
		<tag k="ssr:stedsnr" v="215209" />
	</node>
	<node lat="61.23717222375535" lon="5.475897228920584" id="-28053">
		<tag k="name" v="Nonvarden" />
		<tag k="natural" v="hill" />
		<tag k="place" v="locality" />
		<tag k="ssr:stedsnr" v="215592" />
	</node>
	<node lat="61.33853333060079" lon="5.325102776417144" id="-28054">
		<tag k="name" v="Holten" />
		<tag k="natural" v="hill" />
		<tag k="place" v="locality" />
		<tag k="ssr:stedsnr" v="215702" />
	</node>
	<node lat="61.32297222652392" lon="5.221686118792298" id="-28055">
		<tag k="name" v="Vikabrekka" />
		<tag k="natural" v="slope" />
		<tag k="place" v="locality" />
		<tag k="ssr:stedsnr" v="215705" />
	</node>
	<node lat="61.33473332883618" lon="5.218961106924537" id="-28056">
		<tag k="name" v="Vollen" />
		<tag k="place" v="locality" />
		<tag k="ssr:stedsnr" v="215707" />
	</node>
	<node lat="61.34419722629454" lon="5.2330944424396755" id="-28057">
		<tag k="fixme" v="consider natural=peak for the most distinct mountains in the district" />
		<tag k="name" v="Storaksla" />
		<tag k="natural" v="hill" />
		<tag k="place" v="locality" />
		<tag k="ssr:stedsnr" v="215729" />
	</node>
	<node lat="61.227391663802905" lon="5.5407083401435395" id="-28058">
		<tag k="name" v="Almbotnen" />
		<tag k="natural" v="valley" />
		<tag k="place" v="locality" />
		<tag k="ssr:stedsnr" v="215604" />
	</node>
	<node lat="61.2295277807235" lon="5.441838879289403" id="-28059">
		<tag k="name" v="Skorane" />
		<tag k="natural" v="hill" />
		<tag k="place" v="locality" />
		<tag k="ssr:stedsnr" v="215608" />
	</node>
	<node lat="61.23036944487326" lon="5.442125005822259" id="-28060">
		<tag k="name" v="Haugen" />
		<tag k="natural" v="hill" />
		<tag k="place" v="locality" />
		<tag k="ssr:stedsnr" v="215609" />
	</node>
	<node lat="61.224266669206" lon="5.427194451632397" id="-28061">
		<tag k="name" v="Halsane" />
		<tag k="natural" v="slope" />
		<tag k="place" v="locality" />
		<tag k="ssr:stedsnr" v="215610" />
	</node>
	<node lat="61.220086115562836" lon="5.420097220325088" id="-28062">
		<tag k="name" v="Kleiva" />
		<tag k="natural" v="valley" />
		<tag k="place" v="locality" />
		<tag k="ssr:stedsnr" v="215611" />
	</node>
	<node lat="61.228525000563394" lon="5.4220305479577195" id="-28063">
		<tag k="name" v="Leitehaugen" />
		<tag k="natural" v="hill" />
		<tag k="place" v="locality" />
		<tag k="ssr:stedsnr" v="215613" />
	</node>
	<node lat="61.304716665671776" lon="5.309822222082903" id="-28064">
		<tag k="name" v="Jordeide" />
		<tag k="place" v="locality" />
		<tag k="ssr:stedsnr" v="215673" />
	</node>
	<node lat="61.31011944442578" lon="5.277622217971858" id="-28065">
		<tag k="name" v="Storebotnen" />
		<tag k="natural" v="valley" />
		<tag k="place" v="locality" />
		<tag k="ssr:stedsnr" v="215677" />
	</node>
	<node lat="61.274458335547045" lon="5.183836117771238" id="-28066">
		<tag k="name" v="Langedalsstrupen" />
		<tag k="natural" v="hill" />
		<tag k="place" v="locality" />
		<tag k="ssr:stedsnr" v="215682" />
	</node>
	<node lat="61.23390555215492" lon="5.605622227193658" id="-28070">
		<tag k="name" v="Byttingsøyra" />
		<tag k="place" v="locality" />
		<tag k="ssr:stedsnr" v="215911" />
	</node>
	<node lat="61.245797218244434" lon="5.626080564381979" id="-28071">
		<tag k="name" v="Stien" />
		<tag k="natural" v="hill" />
		<tag k="place" v="locality" />
		<tag k="ssr:stedsnr" v="215913" />
	</node>
	<node lat="61.35298888566258" lon="5.541833332856597" id="-28074">
		<tag k="name" v="Olastølsholene" />
		<tag k="natural" v="valley" />
		<tag k="place" v="locality" />
		<tag k="ssr:stedsnr" v="215979" />
	</node>
	<node lat="61.22503611333308" lon="5.575747221922245" id="-28076">
		<tag k="name" v="Fureplass" />
		<tag k="place" v="locality" />
		<tag k="ssr:stedsnr" v="215990" />
	</node>
	<node lat="61.24100000145879" lon="5.664077774361226" id="-28077">
		<tag k="fixme" v="consider natural=peak for the most distinct mountains in the district" />
		<tag k="name" v="Sørebøfjellet" />
		<tag k="natural" v="hill" />
		<tag k="place" v="locality" />
		<tag k="ssr:stedsnr" v="252917" />
	</node>
	<node lat="61.238494448009796" lon="5.652166670596673" id="-28078">
		<tag k="name" v="Sørebødalen" />
		<tag k="natural" v="valley" />
		<tag k="place" v="locality" />
		<tag k="ssr:stedsnr" v="252920" />
	</node>
	<node lat="61.225569447696884" lon="5.653755558715144" id="-28079">
		<tag k="name" v="Øykegarden" />
		<tag k="place" v="locality" />
		<tag k="ssr:stedsnr" v="457860" />
	</node>
	<node lat="61.24155278037585" lon="5.588474996929558" id="-28082">
		<tag k="name" v="Fessene" />
		<tag k="natural" v="slope" />
		<tag k="place" v="locality" />
		<tag k="ssr:stedsnr" v="457881" />
	</node>
	<node lat="61.23815833365213" lon="5.655980550485806" id="-28083">
		<tag k="name" v="Hamrane" />
		<tag k="natural" v="hill" />
		<tag k="place" v="locality" />
		<tag k="ssr:stedsnr" v="457899" />
	</node>
	<node lat="61.3644333340369" lon="5.509855556534367" id="-28086">
		<tag k="name" v="Kjølvarreset" />
		<tag k="natural" v="hill" />
		<tag k="place" v="locality" />
		<tag k="ssr:stedsnr" v="457990" />
	</node>
	<node lat="61.22867222418324" lon="5.578752785116412" id="-28087">
		<tag k="name" v="Leitet" />
		<tag k="place" v="locality" />
		<tag k="ssr:stedsnr" v="457998" />
	</node>
	<node lat="61.231005557607546" lon="5.581808326733189" id="-28088">
		<tag k="fixme" v="consider natural=peak for the most distinct mountains in the district" />
		<tag k="name" v="Åsen" />
		<tag k="natural" v="hill" />
		<tag k="place" v="locality" />
		<tag k="ssr:stedsnr" v="458000" />
	</node>
	<node lat="61.27343610809648" lon="4.952566666410698" id="-28090">
		<tag k="name" v="Haugen" />
		<tag k="natural" v="hill" />
		<tag k="place" v="locality" />
		<tag k="ssr:stedsnr" v="458241" />
	</node>
	<node lat="61.26683333447437" lon="5.038625001005593" id="-28092">
		<tag k="fixme" v="consider natural=peak for the most distinct mountains in the district" />
		<tag k="name" v="Blåfjell" />
		<tag k="natural" v="hill" />
		<tag k="place" v="locality" />
		<tag k="ssr:stedsnr" v="458288" />
	</node>
	<node lat="61.21991110858764" lon="5.432963889255671" id="-28093">
		<tag k="name" v="Morva" />
		<tag k="place" v="locality" />
		<tag k="ssr:stedsnr" v="458627" />
	</node>
	<node lat="61.263041669896936" lon="5.561763897065266" id="-28094">
		<tag k="name" v="Skoralia" />
		<tag k="natural" v="slope" />
		<tag k="place" v="locality" />
		<tag k="ssr:stedsnr" v="458597" />
	</node>
	<node lat="61.2541916692054" lon="5.560249991441177" id="-28095">
		<tag k="name" v="Senga" />
		<tag k="place" v="locality" />
		<tag k="ssr:stedsnr" v="458598" />
	</node>
	<node lat="61.25317500133335" lon="5.5282305598198205" id="-28096">
		<tag k="name" v="Haugane" />
		<tag k="natural" v="hill" />
		<tag k="place" v="locality" />
		<tag k="ssr:stedsnr" v="458601" />
	</node>
	<node lat="61.31236389237994" lon="5.241322222301525" id="-28098">
		<tag k="name" v="Svarthammaren" />
		<tag k="natural" v="hill" />
		<tag k="place" v="locality" />
		<tag k="ssr:stedsnr" v="458677" />
	</node>
	<node lat="61.30102500000582" lon="5.289330558277856" id="-28099">
		<tag k="name" v="Saga" />
		<tag k="place" v="locality" />
		<tag k="ssr:stedsnr" v="458680" />
	</node>
	<node lat="61.32608333467503" lon="5.330008325667896" id="-28100">
		<tag k="name" v="Tytebærhaugen" />
		<tag k="natural" v="hill" />
		<tag k="place" v="locality" />
		<tag k="ssr:stedsnr" v="458644" />
	</node>
	<node lat="61.32510833730099" lon="5.319616670171572" id="-28101">
		<tag k="name" v="Stølsdalen" />
		<tag k="natural" v="valley" />
		<tag k="place" v="locality" />
		<tag k="ssr:stedsnr" v="458645" />
	</node>
	<node lat="61.33239038983522" lon="5.294911143863992" id="-28102">
		<tag k="fixme" v="consider natural=peak for the most distinct mountains in the district" />
		<tag k="name" v="Tyrvåsen" />
		<tag k="natural" v="hill" />
		<tag k="place" v="locality" />
		<tag k="ssr:stedsnr" v="458646" />
	</node>
	<node lat="61.23086110684517" lon="5.421855547438839" id="-28103">
		<tag k="name" v="Krossen" />
		<tag k="natural" v="hill" />
		<tag k="place" v="locality" />
		<tag k="ssr:stedsnr" v="458655" />
	</node>
	<node lat="61.27224166927482" lon="5.057972217685121" id="-28104">
		<tag k="name" v="Helmingedalen" />
		<tag k="natural" v="valley" />
		<tag k="place" v="locality" />
		<tag k="ssr:stedsnr" v="458722" />
	</node>
	<node lat="61.343791667509045" lon="5.264647224117174" id="-28105">
		<tag k="name" v="Skaret" />
		<tag k="natural" v="valley" />
		<tag k="place" v="locality" />
		<tag k="ssr:stedsnr" v="458699" />
	</node>
	<node lat="61.27580833209692" lon="5.009361113422786" id="-28107">
		<tag k="name" v="Mjåskarknolten" />
		<tag k="natural" v="hill" />
		<tag k="place" v="locality" />
		<tag k="ssr:stedsnr" v="458734" />
	</node>
	<node lat="61.291633329401535" lon="5.17184167390357" id="-28109">
		<tag k="name" v="Tjørnahamrane" />
		<tag k="natural" v="hill" />
		<tag k="place" v="locality" />
		<tag k="ssr:stedsnr" v="458748" />
	</node>
	<node lat="61.29249166554913" lon="5.11099165772715" id="-28110">
		<tag k="name" v="Håvåghaugen" />
		<tag k="natural" v="hill" />
		<tag k="place" v="locality" />
		<tag k="ssr:stedsnr" v="458752" />
	</node>
	<node lat="61.240841668935445" lon="5.517202774143616" id="-28111">
		<tag k="fixme" v="consider natural=peak for the most distinct mountains in the district" />
		<tag k="name" v="Dyreknolten" />
		<tag k="natural" v="hill" />
		<tag k="place" v="locality" />
		<tag k="ssr:stedsnr" v="458956" />
	</node>
	<node lat="61.251397220979996" lon="5.68300000935352" id="-28112">
		<tag k="name" v="Skaret" />
		<tag k="natural" v="valley" />
		<tag k="place" v="locality" />
		<tag k="ssr:stedsnr" v="275903" />
	</node>
	<node lat="61.237136106676445" lon="5.608063883075088" id="-28113">
		<tag k="name" v="Kjoeskaret" />
		<tag k="natural" v="valley" />
		<tag k="place" v="locality" />
		<tag k="ssr:stedsnr" v="275870" />
	</node>
	<node lat="61.22891110826402" lon="5.645422229933639" id="-28114">
		<tag k="name" v="Berget" />
		<tag k="natural" v="hill" />
		<tag k="place" v="locality" />
		<tag k="ssr:stedsnr" v="275993" />
	</node>
	<node lat="61.25590277440838" lon="5.039836106944203" id="-28116">
		<tag k="name" v="Tvergjelhaugen" />
		<tag k="natural" v="hill" />
		<tag k="place" v="locality" />
		<tag k="ssr:stedsnr" v="276279" />
	</node>
	<node lat="61.26733333479454" lon="4.993641669805984" id="-28117">
		<tag k="name" v="Langedalshaugen" />
		<tag k="natural" v="hill" />
		<tag k="place" v="locality" />
		<tag k="ssr:stedsnr" v="276294" />
	</node>
	<node lat="61.32856666945368" lon="5.432591670821593" id="-28119">
		<tag k="name" v="Rognehaugen" />
		<tag k="natural" v="hill" />
		<tag k="place" v="locality" />
		<tag k="ssr:stedsnr" v="276572" />
	</node>
	<node lat="61.36220277342042" lon="5.4089999922969865" id="-28120">
		<tag k="name" v="Storehaugen" />
		<tag k="natural" v="hill" />
		<tag k="place" v="locality" />
		<tag k="ssr:stedsnr" v="276573" />
	</node>
	<node lat="61.32282777390759" lon="5.344755550776315" id="-28121">
		<tag k="name" v="Nausthaugen" />
		<tag k="natural" v="hill" />
		<tag k="place" v="locality" />
		<tag k="ssr:stedsnr" v="276577" />
	</node>
	<node lat="61.2600611076877" lon="5.5680388969353185" id="-28122">
		<tag k="name" v="Brekka" />
		<tag k="natural" v="slope" />
		<tag k="place" v="locality" />
		<tag k="ssr:stedsnr" v="276605" />
	</node>
	<node lat="61.264586113680515" lon="5.538038894275698" id="-28123">
		<tag k="name" v="Ellingeskora" />
		<tag k="natural" v="hill" />
		<tag k="place" v="locality" />
		<tag k="ssr:stedsnr" v="276615" />
	</node>
	<node lat="61.25058333342402" lon="5.377741672115968" id="-28124">
		<tag k="name" v="Eikeskogen" />
		<tag k="natural" v="slope" />
		<tag k="place" v="locality" />
		<tag k="ssr:stedsnr" v="276672" />
	</node>
	<node lat="61.343141669404595" lon="5.269130552313946" id="-28126">
		<tag k="name" v="Tyssegjelet" />
		<tag k="natural" v="gorge" />
		<tag k="ssr:stedsnr" v="276709" />
	</node>
	<node lat="61.333616665910355" lon="5.262313883715581" id="-28127">
		<tag k="fixme" v="consider natural=peak for the most distinct mountains in the district" />
		<tag k="name" v="Vesleåsen" />
		<tag k="natural" v="hill" />
		<tag k="place" v="locality" />
		<tag k="ssr:stedsnr" v="276723" />
	</node>
	<node lat="61.28019444468943" lon="5.077947216945294" id="-28128">
		<tag k="name" v="Bjørkelia" />
		<tag k="natural" v="slope" />
		<tag k="place" v="locality" />
		<tag k="ssr:stedsnr" v="276776" />
	</node>
	<node lat="61.28942500085985" lon="5.084944445361309" id="-28129">
		<tag k="name" v="Ørnereiret" />
		<tag k="place" v="locality" />
		<tag k="ssr:stedsnr" v="276779" />
	</node>
	<node lat="61.343258329926186" lon="5.521502773636743" id="-28133">
		<tag k="fixme" v="consider natural=peak for the most distinct mountains in the district" />
		<tag k="name" v="Norddalsheia" />
		<tag k="natural" v="hill" />
		<tag k="place" v="locality" />
		<tag k="ssr:stedsnr" v="311015" />
	</node>
	<node lat="61.263141662115935" lon="5.001533328351505" id="-28134">
		<tag k="fixme" v="consider natural=peak for the most distinct mountains in the district" />
		<tag k="name" v="Kletten" />
		<tag k="natural" v="hill" />
		<tag k="place" v="locality" />
		<tag k="ssr:stedsnr" v="311131" />
	</node>
	<node lat="61.25924999703675" lon="5.575063890908784" id="-28135">
		<tag k="fixme" v="consider natural=peak for the most distinct mountains in the district" />
		<tag k="name" v="Stauren" />
		<tag k="natural" v="hill" />
		<tag k="place" v="locality" />
		<tag k="ssr:stedsnr" v="311316" />
	</node>
	<node lat="61.34087499585593" lon="5.325972217490292" id="-28136">
		<tag k="name" v="Liasteinen" />
		<tag k="place" v="locality" />
		<tag k="ssr:stedsnr" v="311320" />
	</node>
	<node lat="61.31974444618905" lon="5.516802779424146" id="-28137">
		<tag k="fixme" v="consider natural=peak for the most distinct mountains in the district" />
		<tag k="name" v="Skardsteinane" />
		<tag k="natural" v="hill" />
		<tag k="place" v="locality" />
		<tag k="ssr:stedsnr" v="311080" />
	</node>
	<node lat="61.31555832910825" lon="5.469822224936548" id="-28138">
		<tag k="alt_name" v="Klettene" />
		<tag k="name" v="Klettane" />
		<tag k="natural" v="hill" />
		<tag k="place" v="locality" />
		<tag k="ssr:stedsnr" v="311082" />
	</node>
	<node lat="61.28704166575668" lon="5.08764443525917" id="-28139">
		<tag k="alt_name" v="Vestre Skogahaugen" />
		<tag k="name" v="Skogahaugen" />
		<tag k="natural" v="hill" />
		<tag k="place" v="locality" />
		<tag k="ssr:stedsnr" v="311084" />
	</node>
	<node lat="61.30975277708479" lon="5.279650004307907" id="-28142">
		<tag k="name" v="Rabben" />
		<tag k="natural" v="hill" />
		<tag k="place" v="locality" />
		<tag k="ssr:stedsnr" v="311511" />
	</node>
	<node lat="61.31135278074731" lon="5.3726861120925555" id="-28143">
		<tag k="fixme" v="consider natural=peak for the most distinct mountains in the district" />
		<tag k="name" v="Flekkenipa" />
		<tag k="natural" v="hill" />
		<tag k="place" v="locality" />
		<tag k="ssr:stedsnr" v="311520" />
	</node>
	<node lat="61.29974444320001" lon="5.333169452272255" id="-28145">
		<tag k="alt_name" v="Solheimsbotnen" />
		<tag k="name" v="Botnen" />
		<tag k="natural" v="valley" />
		<tag k="place" v="locality" />
		<tag k="ssr:stedsnr" v="311528" />
	</node>
	<node lat="61.25125555904996" lon="5.365761104497111" id="-28147">
		<tag k="name" v="Gaddehaugen" />
		<tag k="natural" v="hill" />
		<tag k="place" v="locality" />
		<tag k="ssr:stedsnr" v="311585" />
	</node>
	<node lat="61.27602500218532" lon="5.459199994552593" id="-28148">
		<tag k="fixme" v="consider natural=peak for the most distinct mountains in the district" />
		<tag k="name" v="Hesten" />
		<tag k="natural" v="hill" />
		<tag k="place" v="locality" />
		<tag k="ssr:stedsnr" v="311588" />
	</node>
	<node lat="61.29374444126462" lon="5.25857221605046" id="-28149">
		<tag k="alt_name" v="Jota" />
		<tag k="name" v="Gjota" />
		<tag k="place" v="locality" />
		<tag k="ssr:stedsnr" v="311440" />
	</node>
	<node lat="61.27398333400309" lon="5.213025003885005" id="-28152">
		<tag k="alt_name" v="Rørlia" />
		<tag k="name" v="Røyrlia" />
		<tag k="natural" v="slope" />
		<tag k="place" v="locality" />
		<tag k="ssr:stedsnr" v="311628" />
	</node>
	<node lat="61.24047221806661" lon="5.324838880143398" id="-28155">
		<tag k="name" v="Vestdalen" />
		<tag k="natural" v="valley" />
		<tag k="place" v="locality" />
		<tag k="ssr:stedsnr" v="312617" />
	</node>
	<node lat="61.281608329355116" lon="5.124774992434661" id="-28161">
		<tag k="fixme" v="consider natural=peak for the most distinct mountains in the district" />
		<tag k="name" v="Åsane" />
		<tag k="natural" v="hill" />
		<tag k="place" v="locality" />
		<tag k="ssr:stedsnr" v="337719" />
	</node>
	<node lat="61.288394443984686" lon="5.3439527843708134" id="-28162">
		<tag k="name" v="Branden" />
		<tag k="natural" v="hill" />
		<tag k="place" v="locality" />
		<tag k="ssr:stedsnr" v="337521" />
	</node>
	<node lat="61.255897225120606" lon="5.493736114311082" id="-28163">
		<tag k="name" v="Kjeskora" />
		<tag k="place" v="locality" />
		<tag k="ssr:stedsnr" v="337544" />
	</node>
	<node lat="61.21649166243203" lon="5.543086117303507" id="-28165">
		<tag k="name" v="Brekkegjerdet" />
		<tag k="place" v="locality" />
		<tag k="ssr:stedsnr" v="337550" />
	</node>
	<node lat="61.242297219418" lon="5.404655550520653" id="-28166">
		<tag k="name" v="Rabbane" />
		<tag k="natural" v="hill" />
		<tag k="place" v="locality" />
		<tag k="ssr:stedsnr" v="337593" />
	</node>
	<node lat="61.24703889256944" lon="5.365638885027948" id="-28167">
		<tag k="fixme" v="consider natural=peak for the most distinct mountains in the district" />
		<tag k="name" v="Høgerimma" />
		<tag k="natural" v="hill" />
		<tag k="place" v="locality" />
		<tag k="ssr:stedsnr" v="337596" />
	</node>
	<node lat="61.333591665544965" lon="5.226002777615123" id="-28168">
		<tag k="name" v="Brendehaugane" />
		<tag k="natural" v="hill" />
		<tag k="place" v="locality" />
		<tag k="ssr:stedsnr" v="337644" />
	</node>
	<node lat="61.29168332925599" lon="5.232024999176718" id="-28170">
		<tag k="name" v="Trodalen" />
		<tag k="natural" v="valley" />
		<tag k="place" v="locality" />
		<tag k="ssr:stedsnr" v="337652" />
	</node>
	<node lat="61.276041667432835" lon="5.2275138808412756" id="-28171">
		<tag k="fixme" v="consider natural=peak for the most distinct mountains in the district" />
		<tag k="name" v="Betnafjell" />
		<tag k="natural" v="hill" />
		<tag k="place" v="locality" />
		<tag k="ssr:stedsnr" v="337653" />
	</node>
	<node lat="61.27260833593996" lon="4.997125005222859" id="-28173">
		<tag k="name" v="Drevåna" />
		<tag k="natural" v="hill" />
		<tag k="place" v="locality" />
		<tag k="ssr:stedsnr" v="337697" />
	</node>
	<node lat="61.28719166574217" lon="5.102577775953067" id="-28174">
		<tag k="name" v="Langedalshaugen" />
		<tag k="natural" v="hill" />
		<tag k="place" v="locality" />
		<tag k="ssr:stedsnr" v="337700" />
	</node>
	<node lat="61.249977776994974" lon="5.516172223620745" id="-28175">
		<tag k="name" v="Mørkedalen" />
		<tag k="natural" v="valley" />
		<tag k="place" v="locality" />
		<tag k="ssr:stedsnr" v="337942" />
	</node>
	<node lat="61.257322222694654" lon="5.5471750042508035" id="-28189">
		<tag k="fixme" v="consider natural=peak for the most distinct mountains in the district" />
		<tag k="name" v="Husekleppfjellet" />
		<tag k="natural" v="hill" />
		<tag k="place" v="locality" />
		<tag k="ssr:stedsnr" v="371224" />
	</node>
	<node lat="61.35849999740782" lon="5.465933334691135" id="-28191">
		<tag k="fixme" v="consider natural=peak for the most distinct mountains in the district" />
		<tag k="name" v="Høgefjellet" />
		<tag k="natural" v="hill" />
		<tag k="place" v="locality" />
		<tag k="ssr:stedsnr" v="371316" />
	</node>
	<node lat="61.346036114037354" lon="5.274241657441374" id="-28193">
		<tag k="fixme" v="consider natural=peak for the most distinct mountains in the district" />
		<tag k="name" v="Leitaåsen" />
		<tag k="natural" v="hill" />
		<tag k="place" v="locality" />
		<tag k="ssr:stedsnr" v="371325" />
	</node>
	<node lat="61.3068805570926" lon="5.366866662495717" id="-28197">
		<tag k="fixme" v="consider natural=peak for the most distinct mountains in the district" />
		<tag k="name" v="Dauremålsnipa" />
		<tag k="natural" v="hill" />
		<tag k="place" v="locality" />
		<tag k="ssr:stedsnr" v="371371" />
	</node>
	<node lat="61.26081110867707" lon="5.309663897881332" id="-28201">
		<tag k="name" v="Botnen" />
		<tag k="natural" v="valley" />
		<tag k="place" v="locality" />
		<tag k="ssr:stedsnr" v="371514" />
	</node>
	<node lat="61.25131666995065" lon="5.358716668343868" id="-28202">
		<tag k="fixme" v="consider natural=peak for the most distinct mountains in the district" />
		<tag k="name" v="Høgenova" />
		<tag k="natural" v="hill" />
		<tag k="place" v="locality" />
		<tag k="ssr:stedsnr" v="371520" />
	</node>
	<node lat="61.33161944342522" lon="5.267069440385313" id="-28204">
		<tag k="fixme" v="consider natural=peak for the most distinct mountains in the district" />
		<tag k="name" v="Tjernaåsen" />
		<tag k="natural" v="hill" />
		<tag k="place" v="locality" />
		<tag k="ssr:stedsnr" v="371260" />
	</node>
	<node lat="61.269688887276864" lon="5.146544448007333" id="-28209">
		<tag k="alt_name" v="Godalsheia" />
		<tag k="fixme" v="consider natural=peak for the most distinct mountains in the district" />
		<tag k="name" v="Goddalsheia" />
		<tag k="natural" v="hill" />
		<tag k="place" v="locality" />
		<tag k="ssr:stedsnr" v="371612" />
	</node>
	<node lat="61.2702722205408" lon="5.398311108088219" id="-28211">
		<tag k="fixme" v="consider natural=peak for the most distinct mountains in the district" />
		<tag k="name" v="Gamlestølsfjellet" />
		<tag k="natural" v="hill" />
		<tag k="place" v="locality" />
		<tag k="ssr:stedsnr" v="371562" />
	</node>
	<node lat="61.27478333234995" lon="5.535622222651751" id="-28212">
		<tag k="name" v="Bjørndalen" />
		<tag k="natural" v="valley" />
		<tag k="place" v="locality" />
		<tag k="ssr:stedsnr" v="372173" />
	</node>
	<node lat="61.342486112958284" lon="5.313583332980895" id="-28213">
		<tag k="alt_name" v="Reset" />
		<tag k="name" v="Riset" />
		<tag k="place" v="locality" />
		<tag k="ssr:stedsnr" v="372263" />
	</node>
	<node lat="61.27693055326623" lon="5.311497215018348" id="-28217">
		<tag k="name" v="Brendeknolten" />
		<tag k="natural" v="hill" />
		<tag k="place" v="locality" />
		<tag k="ssr:stedsnr" v="372614" />
	</node>
	<node lat="61.36076111058783" lon="5.493836111949197" id="-28218">
		<tag k="name" v="Nyfjellslia" />
		<tag k="natural" v="slope" />
		<tag k="place" v="locality" />
		<tag k="ssr:stedsnr" v="372948" />
	</node>
	<node lat="61.191080552887975" lon="5.596544444220085" id="-28220">
		<tag k="name" v="Storebotnen" />
		<tag k="natural" v="valley" />
		<tag k="place" v="locality" />
		<tag k="ssr:stedsnr" v="373832" />
	</node>
	<node lat="61.22936388748574" lon="5.573391666735168" id="-28222">
		<tag k="name" v="Rusta" />
		<tag k="natural" v="slope" />
		<tag k="place" v="locality" />
		<tag k="ssr:stedsnr" v="373991" />
	</node>
	<node lat="61.23184999734089" lon="5.652616663565176" id="-28225">
		<tag k="alt_name" v="Rånehaug" />
		<tag k="name" v="Raunehaugen" />
		<tag k="natural" v="hill" />
		<tag k="place" v="locality" />
		<tag k="ssr:stedsnr" v="374000" />
	</node>
	<node lat="61.23541944021691" lon="5.596469447937101" id="-28227">
		<tag k="name" v="Brendegjerdet" />
		<tag k="place" v="locality" />
		<tag k="ssr:stedsnr" v="396878" />
	</node>
	<node lat="61.23227500216403" lon="5.644638885767023" id="-28228">
		<tag k="name" v="Såtelia" />
		<tag k="natural" v="slope" />
		<tag k="place" v="locality" />
		<tag k="ssr:stedsnr" v="396888" />
	</node>
	<node lat="61.368427778426025" lon="5.5052916664656095" id="-28229">
		<tag k="name" v="Heimtunslia" />
		<tag k="natural" v="slope" />
		<tag k="place" v="locality" />
		<tag k="ssr:stedsnr" v="396978" />
	</node>
	<node lat="61.36716666646627" lon="5.524008333317457" id="-28230">
		<tag k="name" v="Middagshaugen" />
		<tag k="natural" v="hill" />
		<tag k="place" v="locality" />
		<tag k="ssr:stedsnr" v="396990" />
	</node>
	<node lat="61.211183335457086" lon="5.555202773223478" id="-28231">
		<tag k="name" v="Tverrlia" />
		<tag k="natural" v="slope" />
		<tag k="place" v="locality" />
		<tag k="ssr:stedsnr" v="397583" />
	</node>
	<node lat="61.23069166370872" lon="5.57042778562845" id="-28232">
		<tag k="name" v="Gullmannshammaren" />
		<tag k="natural" v="hill" />
		<tag k="place" v="locality" />
		<tag k="ssr:stedsnr" v="397586" />
	</node>
	<node lat="61.228533331261076" lon="5.553838889836964" id="-28233">
		<tag k="fixme" v="consider natural=peak for the most distinct mountains in the district" />
		<tag k="name" v="Småsnorene" />
		<tag k="natural" v="hill" />
		<tag k="place" v="locality" />
		<tag k="ssr:stedsnr" v="397597" />
	</node>
	<node lat="61.22970277679112" lon="5.417800007853972" id="-28235">
		<tag k="name" v="Oksla" />
		<tag k="natural" v="hill" />
		<tag k="place" v="locality" />
		<tag k="ssr:stedsnr" v="397607" />
	</node>
	<node lat="61.25381111388524" lon="5.366249995443228" id="-28236">
		<tag k="name" v="Slættene" />
		<tag k="place" v="locality" />
		<tag k="ssr:stedsnr" v="397634" />
	</node>
	<node lat="61.27456666489598" lon="5.015836117554342" id="-28237">
		<tag k="name" v="Flatekletten" />
		<tag k="natural" v="hill" />
		<tag k="place" v="locality" />
		<tag k="ssr:stedsnr" v="397726" />
	</node>
	<node lat="61.28728611410305" lon="5.689341673734268" id="-28240">
		<tag k="fixme" v="consider natural=peak for the most distinct mountains in the district" />
		<tag k="name" v="Dyrlaupholten" />
		<tag k="natural" v="hill" />
		<tag k="place" v="locality" />
		<tag k="ssr:stedsnr" v="397933" />
	</node>
	<node lat="61.32936944689218" lon="5.236663896758009" id="-28244">
		<tag k="fixme" v="consider natural=peak for the most distinct mountains in the district" />
		<tag k="name" v="Kyra" />
		<tag k="natural" v="hill" />
		<tag k="place" v="locality" />
		<tag k="ssr:stedsnr" v="416416" />
	</node>
	<node lat="61.25367778036198" lon="5.079352773908276" id="-28248">
		<tag k="fixme" v="consider natural=peak for the most distinct mountains in the district" />
		<tag k="name" v="Vardeheia" />
		<tag k="natural" v="hill" />
		<tag k="place" v="locality" />
		<tag k="ssr:stedsnr" v="432017" />
	</node>
	<node lat="61.277230554661706" lon="5.038274992117137" id="-28250">
		<tag k="fixme" v="consider natural=peak for the most distinct mountains in the district" />
		<tag k="name" v="Marikletten" />
		<tag k="natural" v="hill" />
		<tag k="place" v="locality" />
		<tag k="ssr:stedsnr" v="432115" />
	</node>
	<node lat="61.272383332119446" lon="5.044024999768104" id="-28252">
		<tag k="fixme" v="consider natural=peak for the most distinct mountains in the district" />
		<tag k="name" v="Bygdeheia" />
		<tag k="natural" v="hill" />
		<tag k="place" v="locality" />
		<tag k="ssr:stedsnr" v="432089" />
	</node>
	<node lat="61.26498611505363" lon="5.079097225103215" id="-28253">
		<tag k="fixme" v="consider natural=peak for the most distinct mountains in the district" />
		<tag k="name" v="Grimshammaren" />
		<tag k="natural" v="hill" />
		<tag k="place" v="locality" />
		<tag k="ssr:stedsnr" v="432091" />
	</node>
	<node lat="61.26463468427032" lon="5.065173222913578" id="-28255">
		<tag k="fixme" v="consider natural=peak for the most distinct mountains in the district" />
		<tag k="name" v="Nova" />
		<tag k="natural" v="hill" />
		<tag k="place" v="locality" />
		<tag k="ssr:stedsnr" v="432097" />
	</node>
	<node lat="61.253463887545806" lon="5.577858332434468" id="-28258">
		<tag k="name" v="Trollebotnen" />
		<tag k="natural" v="valley" />
		<tag k="place" v="locality" />
		<tag k="ssr:stedsnr" v="432236" />
	</node>
	<node lat="61.26020000274487" lon="5.269641665471568" id="-28260">
		<tag k="alt_name" v="Løykjene" />
		<tag k="name" v="Løykene" />
		<tag k="place" v="locality" />
		<tag k="ssr:stedsnr" v="432506" />
	</node>
	<node lat="61.25703611274" lon="5.386752786673756" id="-28261">
		<tag k="fixme" v="consider natural=peak for the most distinct mountains in the district" />
		<tag k="name" v="Mofjellet" />
		<tag k="natural" v="hill" />
		<tag k="place" v="locality" />
		<tag k="ssr:stedsnr" v="432514" />
	</node>
	<node lat="61.26507500100457" lon="5.37851389616409" id="-28262">
		<tag k="fixme" v="consider natural=peak for the most distinct mountains in the district" />
		<tag k="name" v="Rustene" />
		<tag k="natural" v="hill" />
		<tag k="place" v="locality" />
		<tag k="ssr:stedsnr" v="432487" />
	</node>
	<node lat="61.279733333733496" lon="5.614505550212655" id="-28265">
		<tag k="name" v="Haraldedalen" />
		<tag k="natural" v="valley" />
		<tag k="place" v="locality" />
		<tag k="ssr:stedsnr" v="433207" />
	</node>
	<node lat="61.28249999811752" lon="5.3066750075822275" id="-28267">
		<tag k="fixme" v="consider natural=peak for the most distinct mountains in the district" />
		<tag k="name" v="Nova" />
		<tag k="natural" v="hill" />
		<tag k="place" v="locality" />
		<tag k="ssr:stedsnr" v="433404" />
	</node>
	<node lat="61.31370555620853" lon="5.531791659941862" id="-28271">
		<tag k="alt_name" v="Tverrfjell" />
		<tag k="fixme" v="consider natural=peak for the most distinct mountains in the district" />
		<tag k="name" v="Tverrfjellet" />
		<tag k="natural" v="hill" />
		<tag k="place" v="locality" />
		<tag k="ssr:stedsnr" v="433533" />
	</node>
	<node lat="61.30850555270581" lon="5.518463898466245" id="-28272">
		<tag k="fixme" v="consider natural=peak for the most distinct mountains in the district" />
		<tag k="name" v="Nova" />
		<tag k="natural" v="hill" />
		<tag k="place" v="locality" />
		<tag k="ssr:stedsnr" v="433534" />
	</node>
	<node lat="61.27853333487908" lon="5.191925001451765" id="-28273">
		<tag k="name" v="Sletteholene" />
		<tag k="natural" v="valley" />
		<tag k="place" v="locality" />
		<tag k="ssr:stedsnr" v="433577" />
	</node>
	<node lat="61.280336113368556" lon="5.323683332400231" id="-28274">
		<tag k="alt_name" v="Kolbeinsdalen;Kolbergsdalen" />
		<tag k="name" v="Kolbeindalen" />
		<tag k="natural" v="valley" />
		<tag k="place" v="locality" />
		<tag k="ssr:stedsnr" v="433584" />
	</node>
	<node lat="61.34606389115713" lon="5.459366672148103" id="-28275">
		<tag k="alt_name" v="Garvollane" />
		<tag k="name" v="Gardvollane" />
		<tag k="place" v="locality" />
		<tag k="ssr:stedsnr" v="492241" />
	</node>
	<node lat="61.27316666421577" lon="5.002766658712609" id="-28279">
		<tag k="fixme" v="consider natural=peak for the most distinct mountains in the district" />
		<tag k="name" v="Einingsfjellet" />
		<tag k="natural" v="hill" />
		<tag k="place" v="locality" />
		<tag k="ssr:stedsnr" v="493133" />
	</node>
	<node lat="61.290577780999584" lon="5.508477783480644" id="-28280">
		<tag k="name" v="Guddalsbotnen" />
		<tag k="natural" v="valley" />
		<tag k="place" v="locality" />
		<tag k="ssr:stedsnr" v="493144" />
	</node>
	<node lat="61.292291665339896" lon="5.554722226595154" id="-28281">
		<tag k="fixme" v="consider natural=peak for the most distinct mountains in the district" />
		<tag k="name" v="Taket" />
		<tag k="natural" v="hill" />
		<tag k="place" v="locality" />
		<tag k="ssr:stedsnr" v="493151" />
	</node>
	<node lat="61.33329444497021" lon="5.292644449587545" id="-28283">
		<tag k="alt_name" v="Nervedalen" />
		<tag k="name" v="Rattaskardet" />
		<tag k="natural" v="valley" />
		<tag k="place" v="locality" />
		<tag k="ssr:stedsnr" v="493282" />
	</node>
	<node lat="61.339766668045506" lon="5.308027773194944" id="-28286">
		<tag k="name" v="Nabben" />
		<tag k="natural" v="hill" />
		<tag k="place" v="locality" />
		<tag k="ssr:stedsnr" v="493261" />
	</node>
	<node lat="61.319336109649605" lon="5.293347223279668" id="-28288">
		<tag k="alt_name" v="Tortnelia" />
		<tag k="name" v="Turtnelia" />
		<tag k="natural" v="slope" />
		<tag k="place" v="locality" />
		<tag k="ssr:stedsnr" v="493322" />
	</node>
	<node lat="61.31991388523554" lon="5.208325002535846" id="-28291">
		<tag k="name" v="Lendinga" />
		<tag k="place" v="locality" />
		<tag k="ssr:stedsnr" v="493298" />
	</node>
	<node lat="61.33234999988189" lon="5.4490194377143455" id="-28292">
		<tag k="fixme" v="consider natural=peak for the most distinct mountains in the district" />
		<tag k="name" v="Hålandsheia" />
		<tag k="natural" v="hill" />
		<tag k="place" v="locality" />
		<tag k="ssr:stedsnr" v="493301" />
	</node>
	<node lat="61.320961107077885" lon="5.21652222766189" id="-28293">
		<tag k="fixme" v="consider natural=peak for the most distinct mountains in the district" />
		<tag k="name" v="Vikaheia" />
		<tag k="natural" v="hill" />
		<tag k="place" v="locality" />
		<tag k="ssr:stedsnr" v="493308" />
	</node>
	<node lat="61.35057778174085" lon="5.315888894947147" id="-28295">
		<tag k="fixme" v="consider natural=peak for the most distinct mountains in the district" />
		<tag k="name" v="Nipa" />
		<tag k="natural" v="hill" />
		<tag k="place" v="locality" />
		<tag k="ssr:stedsnr" v="493347" />
	</node>
	<node lat="61.27704999628852" lon="5.423344450988756" id="-28297">
		<tag k="alt_name" v="Namnlausehøgda" />
		<tag k="fixme" v="consider natural=peak for the most distinct mountains in the district" />
		<tag k="name" v="Rundeheia" />
		<tag k="natural" v="hill" />
		<tag k="place" v="locality" />
		<tag k="ssr:stedsnr" v="493578" />
	</node>
	<node lat="61.27823611405302" lon="5.380019435637664" id="-28299">
		<tag k="alt_name" v="Skåknolten" />
		<tag k="name" v="Skåkknolten" />
		<tag k="natural" v="hill" />
		<tag k="place" v="locality" />
		<tag k="ssr:stedsnr" v="493582" />
	</node>
	<node lat="61.32272222159822" lon="5.379819453857493" id="-28300">
		<tag k="name" v="Fjellsenden" />
		<tag k="natural" v="hill" />
		<tag k="place" v="locality" />
		<tag k="ssr:stedsnr" v="493435" />
	</node>
	<node lat="61.3088638883605" lon="5.306300007363389" id="-28302">
		<tag k="name" v="Håheienden" />
		<tag k="natural" v="hill" />
		<tag k="place" v="locality" />
		<tag k="ssr:stedsnr" v="493440" />
	</node>
	<node lat="61.28894999611329" lon="5.448572220580612" id="-28307">
		<tag k="name" v="Rimma" />
		<tag k="natural" v="hill" />
		<tag k="place" v="locality" />
		<tag k="ssr:stedsnr" v="493591" />
	</node>
	<node lat="61.28184167080176" lon="5.44485554970994" id="-28308">
		<tag k="name" v="Støldalen" />
		<tag k="natural" v="valley" />
		<tag k="place" v="locality" />
		<tag k="ssr:stedsnr" v="493593" />
	</node>
	<node lat="61.370077777798464" lon="5.465419437611529" id="-28309">
		<tag k="name" v="Novene" />
		<tag k="natural" v="hill" />
		<tag k="place" v="locality" />
		<tag k="ssr:stedsnr" v="493966" />
	</node>
	<node lat="61.23776944636509" lon="5.4636916642298905" id="-28310">
		<tag k="fixme" v="consider natural=peak for the most distinct mountains in the district" />
		<tag k="name" v="Espenesheia" />
		<tag k="natural" v="hill" />
		<tag k="place" v="locality" />
		<tag k="ssr:stedsnr" v="494611" />
	</node>
	<node lat="61.2591305575077" lon="5.346469448006382" id="-28311">
		<tag k="name" v="Eikelia" />
		<tag k="natural" v="slope" />
		<tag k="place" v="locality" />
		<tag k="ssr:stedsnr" v="494681" />
	</node>
	<node lat="61.23908333062715" lon="5.687922223931085" id="-28313">
		<tag k="name" v="Fessebotnen" />
		<tag k="natural" v="valley" />
		<tag k="place" v="locality" />
		<tag k="ssr:stedsnr" v="457903" />
	</node>
	<node lat="61.24035278114415" lon="5.4758611044317735" id="-28314">
		<tag k="fixme" v="consider natural=peak for the most distinct mountains in the district" />
		<tag k="name" v="Storevikfjellet" />
		<tag k="natural" v="hill" />
		<tag k="place" v="locality" />
		<tag k="ssr:stedsnr" v="458605" />
	</node>
	<node lat="61.2591055531007" lon="5.5191000047237155" id="-28315">
		<tag k="name" v="Hamrane" />
		<tag k="natural" v="hill" />
		<tag k="place" v="locality" />
		<tag k="ssr:stedsnr" v="458607" />
	</node>
	<node lat="61.22419721976082" lon="5.552852787093088" id="-28316">
		<tag k="fixme" v="consider natural=peak for the most distinct mountains in the district" />
		<tag k="name" v="Votnejørnholten" />
		<tag k="natural" v="hill" />
		<tag k="place" v="locality" />
		<tag k="ssr:stedsnr" v="458611" />
	</node>
	<node lat="61.27270555686025" lon="5.494438894805005" id="-28317">
		<tag k="fixme" v="consider natural=peak for the most distinct mountains in the district" />
		<tag k="name" v="Åsen" />
		<tag k="natural" v="hill" />
		<tag k="place" v="locality" />
		<tag k="ssr:stedsnr" v="458616" />
	</node>
	<node lat="61.260486111283406" lon="5.503652776526751" id="-28318">
		<tag k="name" v="Klanten" />
		<tag k="natural" v="hill" />
		<tag k="place" v="locality" />
		<tag k="ssr:stedsnr" v="458618" />
	</node>
	<node lat="61.21792500234148" lon="5.545394439725942" id="-28319">
		<tag k="name" v="Dingsøyrbotnen" />
		<tag k="natural" v="valley" />
		<tag k="place" v="locality" />
		<tag k="ssr:stedsnr" v="458625" />
	</node>
	<node lat="61.34121388879623" lon="5.427588897104866" id="-28320">
		<tag k="name" v="Kyrarognen" />
		<tag k="place" v="locality" />
		<tag k="ssr:stedsnr" v="458577" />
	</node>
	<node lat="61.33428055250408" lon="5.216358325763788" id="-28321">
		<tag k="name" v="Grimeskaret" />
		<tag k="natural" v="valley" />
		<tag k="place" v="locality" />
		<tag k="ssr:stedsnr" v="458706" />
	</node>
	<node lat="61.27711388513285" lon="5.227813890301714" id="-28322">
		<tag k="name" v="Betnagjota" />
		<tag k="natural" v="hill" />
		<tag k="place" v="locality" />
		<tag k="ssr:stedsnr" v="458711" />
	</node>
	<node lat="61.235841668042355" lon="5.584891670193859" id="-28323">
		<tag k="name" v="Flatebotnen" />
		<tag k="natural" v="valley" />
		<tag k="place" v="locality" />
		<tag k="ssr:stedsnr" v="458911" />
	</node>
	<node lat="61.35297499656427" lon="5.491444453905932" id="-28325">
		<tag k="name" v="Nordregjerdet" />
		<tag k="natural" v="valley" />
		<tag k="place" v="locality" />
		<tag k="ssr:stedsnr" v="458970" />
	</node>
	<node lat="61.28626388595334" lon="5.629263880869667" id="-28330">
		<tag k="name" v="Mosehaugen" />
		<tag k="natural" v="hill" />
		<tag k="place" v="locality" />
		<tag k="ssr:stedsnr" v="675213" />
	</node>
	<node lat="61.270802779739604" lon="5.529630563705799" id="-28331">
		<tag k="alt_name" v="Lonefjell" />
		<tag k="fixme" v="consider natural=peak for the most distinct mountains in the district" />
		<tag k="name" v="Lonefjellet" />
		<tag k="natural" v="hill" />
		<tag k="place" v="locality" />
		<tag k="ssr:stedsnr" v="675192" />
	</node>
	<node lat="61.25673055165163" lon="5.655433330466964" id="-28334">
		<tag k="fixme" v="consider natural=peak for the most distinct mountains in the district" />
		<tag k="name" v="Nipa" />
		<tag k="natural" v="hill" />
		<tag k="place" v="locality" />
		<tag k="ssr:stedsnr" v="675282" />
	</node>
	<node lat="61.27888080035179" lon="5.690245775326508" id="-28335">
		<tag k="name" v="Senga" />
		<tag k="natural" v="valley" />
		<tag k="place" v="locality" />
		<tag k="ssr:stedsnr" v="675235" />
	</node>
	<node lat="61.26843055983817" lon="5.559869447428088" id="-28336">
		<tag k="name" v="Betnene" />
		<tag k="natural" v="valley" />
		<tag k="place" v="locality" />
		<tag k="ssr:stedsnr" v="675244" />
	</node>
	<node lat="61.26094999565652" lon="5.590824997508954" id="-28337">
		<tag k="alt_name" v="Skitneskaret" />
		<tag k="name" v="Skitneskardet" />
		<tag k="natural" v="valley" />
		<tag k="place" v="locality" />
		<tag k="ssr:stedsnr" v="675289" />
	</node>
	<node lat="61.335744446506375" lon="5.432883325560726" id="-28338">
		<tag k="fixme" v="consider natural=peak for the most distinct mountains in the district" />
		<tag k="name" v="Hålandsnipa" />
		<tag k="natural" v="hill" />
		<tag k="place" v="locality" />
		<tag k="ssr:stedsnr" v="675323" />
	</node>
	<node lat="61.277795552182205" lon="5.103605958692774" id="-28339">
		<tag k="fixme" v="consider natural=peak for the most distinct mountains in the district" />
		<tag k="name" v="Grønåsen" />
		<tag k="natural" v="hill" />
		<tag k="place" v="locality" />
		<tag k="ssr:stedsnr" v="675427" />
	</node>
	<node lat="61.35299722034083" lon="5.4246333346286475" id="-28341">
		<tag k="name" v="Brendehaugen" />
		<tag k="natural" v="hill" />
		<tag k="place" v="locality" />
		<tag k="ssr:stedsnr" v="675392" />
	</node>
	<node lat="61.32053611156322" lon="5.376375001445297" id="-28342">
		<tag k="alt_name" v="Knolten" />
		<tag k="name" v="Knotten" />
		<tag k="natural" v="hill" />
		<tag k="place" v="locality" />
		<tag k="ssr:stedsnr" v="675467" />
	</node>
	<node lat="61.28803888886956" lon="5.3273916585736405" id="-28343">
		<tag k="fixme" v="consider natural=peak for the most distinct mountains in the district" />
		<tag k="name" v="Holten" />
		<tag k="natural" v="hill" />
		<tag k="place" v="locality" />
		<tag k="ssr:stedsnr" v="675438" />
	</node>
	<node lat="61.27732222643583" lon="5.23575000752913" id="-28348">
		<tag k="alt_name" v="Halskardholten" />
		<tag k="fixme" v="consider natural=peak for the most distinct mountains in the district" />
		<tag k="name" v="Kaldskardholten" />
		<tag k="natural" v="hill" />
		<tag k="place" v="locality" />
		<tag k="ssr:stedsnr" v="675615" />
	</node>
	<node lat="61.27927777369198" lon="5.294469450201297" id="-28350">
		<tag k="alt_name" v="Rognegjelet" />
		<tag k="name" v="Rognegilet" />
		<tag k="natural" v="valley" />
		<tag k="place" v="locality" />
		<tag k="ssr:stedsnr" v="675621" />
	</node>
	<node lat="61.287266670183996" lon="5.3833472241533755" id="-28351">
		<tag k="alt_name" v="Kringletefjell" />
		<tag k="fixme" v="consider natural=peak for the most distinct mountains in the district" />
		<tag k="name" v="Kringletefjellet" />
		<tag k="natural" v="hill" />
		<tag k="place" v="locality" />
		<tag k="ssr:stedsnr" v="675630" />
	</node>
	<node lat="61.28711944822202" lon="5.458449999513134" id="-28352">
		<tag k="fixme" v="consider natural=peak for the most distinct mountains in the district" />
		<tag k="name" v="Nipa" />
		<tag k="natural" v="hill" />
		<tag k="place" v="locality" />
		<tag k="ssr:stedsnr" v="675639" />
	</node>
	<node lat="61.367999998209086" lon="5.490872214591495" id="-28354">
		<tag k="name" v="Knoltren" />
		<tag k="natural" v="hill" />
		<tag k="place" v="locality" />
		<tag k="ssr:stedsnr" v="675976" />
	</node>
	<node lat="61.22383610666163" lon="5.4947249987154" id="-28355">
		<tag k="fixme" v="consider natural=peak for the most distinct mountains in the district" />
		<tag k="name" v="Skoraheia" />
		<tag k="natural" v="hill" />
		<tag k="place" v="locality" />
		<tag k="ssr:stedsnr" v="676991" />
	</node>
	<node lat="61.24561111371304" lon="5.547508338778557" id="-28358">
		<tag k="fixme" v="consider natural=peak for the most distinct mountains in the district" />
		<tag k="name" v="Høgåsen" />
		<tag k="natural" v="hill" />
		<tag k="place" v="locality" />
		<tag k="ssr:stedsnr" v="676964" />
	</node>
	<node lat="61.21780833192629" lon="5.52340276932278" id="-28359">
		<tag k="name" v="Seltuftene" />
		<tag k="natural" v="slope" />
		<tag k="place" v="locality" />
		<tag k="ssr:stedsnr" v="676975" />
	</node>
	<node lat="61.232983335926534" lon="5.598277783905305" id="-28361">
		<tag k="name" v="Guddalen" />
		<tag k="natural" v="valley" />
		<tag k="place" v="locality" />
		<tag k="ssr:stedsnr" v="677958" />
	</node>
	<node lat="61.242794442137445" lon="5.692569439017484" id="-28362">
		<tag k="name" v="Rimmane" />
		<tag k="natural" v="slope" />
		<tag k="place" v="locality" />
		<tag k="ssr:stedsnr" v="677964" />
	</node>
	<node lat="61.24158333019805" lon="5.696388894999966" id="-28363">
		<tag k="fixme" v="consider natural=peak for the most distinct mountains in the district" />
		<tag k="name" v="Ulvsnova" />
		<tag k="natural" v="hill" />
		<tag k="place" v="locality" />
		<tag k="ssr:stedsnr" v="677965" />
	</node>
	<node lat="61.24553332972887" lon="5.622641665117722" id="-28364">
		<tag k="alt_name" v="Grøvlegjelet" />
		<tag k="name" v="Gryvlegilet" />
		<tag k="natural" v="valley" />
		<tag k="place" v="locality" />
		<tag k="ssr:stedsnr" v="677970" />
	</node>
	<node lat="61.34466666856433" lon="5.544677776174308" id="-28367">
		<tag k="name" v="Nistadholten" />
		<tag k="natural" v="hill" />
		<tag k="place" v="locality" />
		<tag k="ssr:stedsnr" v="493005" />
	</node>
	<node lat="61.30202777877461" lon="5.530277768920508" id="-28372">
		<tag k="name" v="Skorane" />
		<tag k="natural" v="slope" />
		<tag k="place" v="locality" />
		<tag k="ssr:stedsnr" v="493115" />
	</node>
	<node lat="61.30159444902891" lon="5.52388056391274" id="-28373">
		<tag k="name" v="Storedalen" />
		<tag k="natural" v="valley" />
		<tag k="place" v="locality" />
		<tag k="ssr:stedsnr" v="493119" />
	</node>
	<node lat="61.292408332512004" lon="5.098824995681948" id="-28375">
		<tag k="alt_name" v="Håvågnova;Nova" />
		<tag k="fixme" v="consider natural=peak for the most distinct mountains in the district" />
		<tag k="name" v="Håvågsnova" />
		<tag k="natural" v="hill" />
		<tag k="place" v="locality" />
		<tag k="ssr:stedsnr" v="493366" />
	</node>
	<node lat="61.289594445749756" lon="5.122344446510241" id="-28376">
		<tag k="alt_name" v="Åldalen" />
		<tag k="name" v="Åledalen" />
		<tag k="natural" v="valley" />
		<tag k="place" v="locality" />
		<tag k="ssr:stedsnr" v="493371" />
	</node>
	<node lat="61.30318889008157" lon="5.4290166732948615" id="-28377">
		<tag k="fixme" v="consider natural=peak for the most distinct mountains in the district" />
		<tag k="name" v="Tverrfjellet" />
		<tag k="natural" v="hill" />
		<tag k="place" v="locality" />
		<tag k="ssr:stedsnr" v="493375" />
	</node>
	<node lat="61.24790155484031" lon="5.42152654432967" id="-28382">
		<tag k="name" v="Blåfjellet" />
		<tag k="place" v="locality" />
		<tag k="ssr:stedsnr" v="493518" />
	</node>
	<node lat="61.32853333302662" lon="5.453400005778331" id="-28385">
		<tag k="alt_name" v="Nyakletten" />
		<tag k="fixme" v="consider natural=peak for the most distinct mountains in the district" />
		<tag k="name" v="Nyekletten" />
		<tag k="natural" v="hill" />
		<tag k="place" v="locality" />
		<tag k="ssr:stedsnr" v="493424" />
	</node>
	<node lat="61.275508330850286" lon="5.31203055331225" id="-28387">
		<tag k="alt_name" v="Fjellet" />
		<tag k="fixme" v="consider natural=peak for the most distinct mountains in the district" />
		<tag k="name" v="Kusælfjellet" />
		<tag k="natural" v="hill" />
		<tag k="place" v="locality" />
		<tag k="ssr:stedsnr" v="493605" />
	</node>
	<node lat="61.288697219787224" lon="5.435208328274906" id="-28388">
		<tag k="name" v="Grønelia" />
		<tag k="natural" v="slope" />
		<tag k="place" v="locality" />
		<tag k="ssr:stedsnr" v="493609" />
	</node>
	<node lat="61.290497221075974" lon="5.401922217718943" id="-28389">
		<tag k="name" v="Strokedalen" />
		<tag k="natural" v="valley" />
		<tag k="place" v="locality" />
		<tag k="ssr:stedsnr" v="493611" />
	</node>
	<node lat="61.350200001495054" lon="5.496852779329001" id="-28390">
		<tag k="name" v="Botnen" />
		<tag k="natural" v="valley" />
		<tag k="place" v="locality" />
		<tag k="ssr:stedsnr" v="493913" />
	</node>
	<node lat="61.346427778993316" lon="5.316727769560799" id="-28394">
		<tag k="fixme" v="consider natural=peak for the most distinct mountains in the district" />
		<tag k="name" v="Storåsen" />
		<tag k="natural" v="hill" />
		<tag k="place" v="locality" />
		<tag k="ssr:stedsnr" v="494663" />
	</node>
	<node lat="61.18895000307586" lon="5.602844438507727" id="-28395">
		<tag k="fixme" v="consider natural=peak for the most distinct mountains in the district" />
		<tag k="name" v="Høgeheia" />
		<tag k="natural" v="hill" />
		<tag k="place" v="locality" />
		<tag k="ssr:stedsnr" v="494824" />
	</node>
	<node lat="61.199180558540874" lon="5.599805560270345" id="-28397">
		<tag k="alt_name" v="Albotnaknolten" />
		<tag k="fixme" v="consider natural=peak for the most distinct mountains in the district" />
		<tag k="name" v="Almbotneknolten" />
		<tag k="natural" v="hill" />
		<tag k="place" v="locality" />
		<tag k="ssr:stedsnr" v="495812" />
	</node>
	<node lat="61.22750833119201" lon="5.657549999033373" id="-28399">
		<tag k="fixme" v="consider natural=peak for the most distinct mountains in the district" />
		<tag k="name" v="Åsen" />
		<tag k="natural" v="hill" />
		<tag k="place" v="locality" />
		<tag k="ssr:stedsnr" v="518860" />
	</node>
	<node lat="61.26633333681859" lon="5.659524995159729" id="-28400">
		<tag k="name" v="Nyegarden" />
		<tag k="place" v="locality" />
		<tag k="ssr:stedsnr" v="518873" />
	</node>
	<node lat="61.25015000363273" lon="5.663552786468254" id="-28402">
		<tag k="name" v="Guddalskletten" />
		<tag k="natural" v="hill" />
		<tag k="place" v="locality" />
		<tag k="ssr:stedsnr" v="518904" />
	</node>
	<node lat="61.23105555912027" lon="5.439711107412509" id="-28404">
		<tag k="name" v="Småhamrane" />
		<tag k="natural" v="hill" />
		<tag k="place" v="locality" />
		<tag k="ssr:stedsnr" v="519203" />
	</node>
	<node lat="61.36165555805559" lon="5.3864222312417525" id="-28405">
		<tag k="loc_name" v="Svehogen" />
		<tag k="name" v="Svehaugen" />
		<tag k="natural" v="hill" />
		<tag k="place" v="locality" />
		<tag k="ssr:stedsnr" v="519511" />
	</node>
	<node lat="61.37029722399648" lon="5.403613897992561" id="-28406">
		<tag k="name" v="Selja" />
		<tag k="natural" v="hill" />
		<tag k="place" v="locality" />
		<tag k="ssr:stedsnr" v="519512" />
	</node>
	<node lat="61.31899722581203" lon="5.268283328407135" id="-28407">
		<tag k="name" v="Seten" />
		<tag k="natural" v="hill" />
		<tag k="place" v="locality" />
		<tag k="ssr:stedsnr" v="519607" />
	</node>
	<node lat="61.24174722067582" lon="5.386780550495271" id="-28409">
		<tag k="name" v="Røyrlia" />
		<tag k="natural" v="slope" />
		<tag k="place" v="locality" />
		<tag k="ssr:stedsnr" v="519619" />
	</node>
	<node lat="61.345133337169294" lon="5.306713886905553" id="-28410">
		<tag k="name" v="Nabben" />
		<tag k="natural" v="hill" />
		<tag k="place" v="locality" />
		<tag k="ssr:stedsnr" v="519665" />
	</node>
	<node lat="61.268080555852904" lon="5.4684361064981495" id="-28411">
		<tag k="name" v="Ystehellaren" />
		<tag k="place" v="locality" />
		<tag k="ssr:stedsnr" v="519559" />
	</node>
	<node lat="61.278172225527015" lon="4.992425001557352" id="-28414">
		<tag k="name" v="Tytebærhaugen" />
		<tag k="natural" v="hill" />
		<tag k="place" v="locality" />
		<tag k="ssr:stedsnr" v="519703" />
	</node>
	<node lat="61.283894448613836" lon="4.9871972245543414" id="-28415">
		<tag k="name" v="Reinene" />
		<tag k="place" v="locality" />
		<tag k="ssr:stedsnr" v="519705" />
	</node>
	<node lat="61.29684166559654" lon="5.210008336289061" id="-28416">
		<tag k="name" v="Sørdalshaugen" />
		<tag k="natural" v="hill" />
		<tag k="place" v="locality" />
		<tag k="ssr:stedsnr" v="519722" />
	</node>
	<node lat="61.24863610874838" lon="5.516602777608158" id="-28417">
		<tag k="name" v="Fløytedalen" />
		<tag k="natural" v="valley" />
		<tag k="place" v="locality" />
		<tag k="ssr:stedsnr" v="519960" />
	</node>
	<node lat="61.233066670522305" lon="5.548005545886714" id="-28418">
		<tag k="name" v="Tåtneskorane" />
		<tag k="natural" v="hill" />
		<tag k="place" v="locality" />
		<tag k="ssr:stedsnr" v="519973" />
	</node>
	<node lat="61.253519441270285" lon="5.062513894572009" id="-28420">
		<tag k="fixme" v="consider natural=peak for the most distinct mountains in the district" />
		<tag k="name" v="Sletteheia" />
		<tag k="natural" v="hill" />
		<tag k="place" v="locality" />
		<tag k="ssr:stedsnr" v="553018" />
	</node>
	<node lat="61.37359722381324" lon="5.428497222991919" id="-28423">
		<tag k="name" v="Høgebakken" />
		<tag k="natural" v="slope" />
		<tag k="place" v="locality" />
		<tag k="ssr:stedsnr" v="553147" />
	</node>
	<node lat="61.357691665756306" lon="5.415555552640378" id="-28424">
		<tag k="alt_name" v="Furekammane" />
		<tag k="fixme" v="consider natural=peak for the most distinct mountains in the district" />
		<tag k="name" v="Furekambane" />
		<tag k="natural" v="hill" />
		<tag k="place" v="locality" />
		<tag k="ssr:stedsnr" v="553310" />
	</node>
	<node lat="61.35991944317472" lon="5.447577783775759" id="-28425">
		<tag k="alt_name" v="Bjørnaskaret" />
		<tag k="name" v="Bjørnaskardet" />
		<tag k="natural" v="valley" />
		<tag k="place" v="locality" />
		<tag k="ssr:stedsnr" v="553312" />
	</node>
	<node lat="61.3602027804685" lon="5.440616674086595" id="-28426">
		<tag k="fixme" v="consider natural=peak for the most distinct mountains in the district" />
		<tag k="name" v="Nyfjellet" />
		<tag k="natural" v="hill" />
		<tag k="place" v="locality" />
		<tag k="ssr:stedsnr" v="553313" />
	</node>
	<node lat="61.349458333072604" lon="5.236491659038374" id="-28428">
		<tag k="alt_name" v="Merraberget" />
		<tag k="name" v="Merra" />
		<tag k="natural" v="hill" />
		<tag k="place" v="locality" />
		<tag k="ssr:stedsnr" v="553324" />
	</node>
	<node lat="61.25389389872687" lon="5.653517389964166" id="-28430">
		<tag k="fixme" v="consider natural=peak for the most distinct mountains in the district" />
		<tag k="name" v="Stølsnova" />
		<tag k="natural" v="hill" />
		<tag k="place" v="locality" />
		<tag k="ssr:stedsnr" v="553208" />
	</node>
	<node lat="61.25912222537624" lon="5.572447213065332" id="-28433">
		<tag k="name" v="Oksla" />
		<tag k="natural" v="hill" />
		<tag k="place" v="locality" />
		<tag k="ssr:stedsnr" v="553234" />
	</node>
	<node lat="61.29681388467836" lon="5.4026694483131665" id="-28434">
		<tag k="alt_name" v="Storurfjellet" />
		<tag k="fixme" v="consider natural=peak for the most distinct mountains in the district" />
		<tag k="name" v="Storurdfjellet" />
		<tag k="natural" v="hill" />
		<tag k="place" v="locality" />
		<tag k="ssr:stedsnr" v="553405" />
	</node>
	<node lat="61.300069447686056" lon="5.338880553519058" id="-28435">
		<tag k="fixme" v="consider natural=peak for the most distinct mountains in the district" />
		<tag k="name" v="Haukåsen" />
		<tag k="natural" v="hill" />
		<tag k="place" v="locality" />
		<tag k="ssr:stedsnr" v="553411" />
	</node>
	<node lat="61.26303055173423" lon="5.42242777129158" id="-28437">
		<tag k="alt_name" v="Lindeliskaret" />
		<tag k="name" v="Lindeliskardet" />
		<tag k="natural" v="valley" />
		<tag k="place" v="locality" />
		<tag k="ssr:stedsnr" v="553513" />
	</node>
	<node lat="61.258608329149446" lon="5.279402777465374" id="-28438">
		<tag k="name" v="Vardebotnen" />
		<tag k="natural" v="valley" />
		<tag k="place" v="locality" />
		<tag k="ssr:stedsnr" v="553530" />
	</node>
	<node lat="61.256291668406476" lon="5.358163893408207" id="-28439">
		<tag k="name" v="Litlenova" />
		<tag k="natural" v="hill" />
		<tag k="place" v="locality" />
		<tag k="ssr:stedsnr" v="553535" />
	</node>
	<node lat="61.26483333176747" lon="5.344105563605156" id="-28440">
		<tag k="fixme" v="consider natural=peak for the most distinct mountains in the district" />
		<tag k="name" v="Vassfjellet" />
		<tag k="natural" v="hill" />
		<tag k="place" v="locality" />
		<tag k="ssr:stedsnr" v="553538" />
	</node>
	<node lat="61.287574996784606" lon="5.425002784889601" id="-28441">
		<tag k="name" v="Raudeheia" />
		<tag k="natural" v="hill" />
		<tag k="place" v="locality" />
		<tag k="ssr:stedsnr" v="553609" />
	</node>
	<node lat="61.28879722256932" lon="5.543527784547505" id="-28444">
		<tag k="fixme" v="consider natural=peak for the most distinct mountains in the district" />
		<tag k="name" v="Bergheia" />
		<tag k="natural" v="hill" />
		<tag k="place" v="locality" />
		<tag k="ssr:stedsnr" v="554140" />
	</node>
	<node lat="61.31767499585423" lon="5.406019448974325" id="-28446">
		<tag k="alt_name" v="Sveene" />
		<tag k="name" v="Svædene" />
		<tag k="place" v="locality" />
		<tag k="ssr:stedsnr" v="554515" />
	</node>
	<node lat="61.3121694470627" lon="5.418372215411191" id="-28447">
		<tag k="name" v="Turvedalsriset" />
		<tag k="natural" v="hill" />
		<tag k="place" v="locality" />
		<tag k="ssr:stedsnr" v="554521" />
	</node>
	<node lat="61.26175833207184" lon="5.506683329439474" id="-28448">
		<tag k="fixme" v="consider natural=peak for the most distinct mountains in the district" />
		<tag k="name" v="Legdene" />
		<tag k="natural" v="hill" />
		<tag k="place" v="locality" />
		<tag k="ssr:stedsnr" v="554226" />
	</node>
	<node lat="61.30183055575459" lon="5.446008342332907" id="-28449">
		<tag k="name" v="Labbersberget" />
		<tag k="natural" v="hill" />
		<tag k="place" v="locality" />
		<tag k="ssr:stedsnr" v="554427" />
	</node>
	<node lat="61.266030558604996" lon="5.596944439908072" id="-28451">
		<tag k="name" v="Storedalen" />
		<tag k="natural" v="valley" />
		<tag k="place" v="locality" />
		<tag k="ssr:stedsnr" v="554603" />
	</node>
	<node lat="61.27527499615421" lon="5.495988882470271" id="-28452">
		<tag k="fixme" v="consider natural=peak for the most distinct mountains in the district" />
		<tag k="name" v="Høgåsen" />
		<tag k="natural" v="hill" />
		<tag k="place" v="locality" />
		<tag k="ssr:stedsnr" v="554604" />
	</node>
	<node lat="61.275311111488826" lon="5.385555548475155" id="-28453">
		<tag k="name" v="Betneliane" />
		<tag k="natural" v="slope" />
		<tag k="place" v="locality" />
		<tag k="ssr:stedsnr" v="554620" />
	</node>
	<node lat="61.23818055324247" lon="5.675583326076344" id="-28456">
		<tag k="name" v="Storebotnen" />
		<tag k="natural" v="valley" />
		<tag k="place" v="locality" />
		<tag k="ssr:stedsnr" v="555917" />
	</node>
	<node lat="61.23588888450009" lon="5.607380551144827" id="-28457">
		<tag k="name" v="Åsane" />
		<tag k="natural" v="slope" />
		<tag k="place" v="locality" />
		<tag k="ssr:stedsnr" v="555920" />
	</node>
	<node lat="61.23601110889712" lon="5.552755547989838" id="-28459">
		<tag k="name" v="Tulandsbotnen" />
		<tag k="natural" v="valley" />
		<tag k="place" v="locality" />
		<tag k="ssr:stedsnr" v="555948" />
	</node>
	<node lat="61.24936388533264" lon="5.717450003006941" id="-28460">
		<tag k="fixme" v="consider natural=peak for the most distinct mountains in the district" />
		<tag k="name" v="Bjørnalifjellet" />
		<tag k="natural" v="hill" />
		<tag k="place" v="locality" />
		<tag k="ssr:stedsnr" v="555953" />
	</node>
	<node lat="61.275161108612295" lon="5.653541661356149" id="-28464">
		<tag k="name" v="Storåkeren" />
		<tag k="place" v="locality" />
		<tag k="ssr:stedsnr" v="578905" />
	</node>
	<node lat="61.27978333635004" lon="5.668766674311012" id="-28465">
		<tag k="fixme" v="consider natural=peak for the most distinct mountains in the district" />
		<tag k="name" v="Dryftegardåsen" />
		<tag k="natural" v="hill" />
		<tag k="place" v="locality" />
		<tag k="ssr:stedsnr" v="578906" />
	</node>
	<node lat="61.26992778026647" lon="4.96739999977872" id="-28466">
		<tag k="name" v="Storehaugane" />
		<tag k="natural" v="hill" />
		<tag k="place" v="locality" />
		<tag k="ssr:stedsnr" v="578914" />
	</node>
	<node lat="61.27108611128909" lon="4.944141664091041" id="-28468">
		<tag k="name" v="Neset" />
		<tag k="place" v="locality" />
		<tag k="ssr:stedsnr" v="579254" />
	</node>
	<node lat="61.259450000482204" lon="5.533588897361621" id="-28469">
		<tag k="name" v="Tytebærhaugane" />
		<tag k="natural" v="hill" />
		<tag k="place" v="locality" />
		<tag k="ssr:stedsnr" v="579607" />
	</node>
	<node lat="61.22037222334994" lon="5.556191672002863" id="-28470">
		<tag k="name" v="Jota" />
		<tag k="natural" v="hill" />
		<tag k="place" v="locality" />
		<tag k="ssr:stedsnr" v="579614" />
	</node>
	<node lat="61.22545277626168" lon="5.532597216987001" id="-28471">
		<tag k="name" v="Laksen" />
		<tag k="natural" v="hill" />
		<tag k="place" v="locality" />
		<tag k="ssr:stedsnr" v="579621" />
	</node>
	<node lat="61.21478888855793" lon="5.43737222962526" id="-28472">
		<tag k="fixme" v="consider natural=peak for the most distinct mountains in the district" />
		<tag k="name" v="Påfjellet" />
		<tag k="natural" v="hill" />
		<tag k="place" v="locality" />
		<tag k="ssr:stedsnr" v="579627" />
	</node>
	<node lat="61.30935277395816" lon="5.3762027726722215" id="-28474">
		<tag k="name" v="Bjørnadalen" />
		<tag k="natural" v="valley" />
		<tag k="place" v="locality" />
		<tag k="ssr:stedsnr" v="579593" />
	</node>
	<node lat="61.30747222305751" lon="5.358036115460944" id="-28475">
		<tag k="name" v="Kjørelereset" />
		<tag k="natural" v="hill" />
		<tag k="place" v="locality" />
		<tag k="ssr:stedsnr" v="579594" />
	</node>
	<node lat="61.33692499970288" lon="5.236613891240871" id="-28476">
		<tag k="loc_name" v="Bondalen" />
		<tag k="name" v="Bondedalen" />
		<tag k="natural" v="valley" />
		<tag k="place" v="locality" />
		<tag k="ssr:stedsnr" v="579703" />
	</node>
	<node lat="61.343849998446764" lon="5.261469436957966" id="-28477">
		<tag k="name" v="Einehaugen" />
		<tag k="natural" v="hill" />
		<tag k="place" v="locality" />
		<tag k="ssr:stedsnr" v="579717" />
	</node>
	<node lat="61.25891944547565" lon="5.28258054646859" id="-28478">
		<tag k="name" v="Varebotnnova" />
		<tag k="natural" v="hill" />
		<tag k="place" v="locality" />
		<tag k="ssr:stedsnr" v="579693" />
	</node>
	<node lat="61.23490555300322" lon="5.49071944109045" id="-28480">
		<tag k="name" v="Bjørneleina" />
		<tag k="place" v="locality" />
		<tag k="ssr:stedsnr" v="579955" />
	</node>
	<node lat="61.25465832992819" lon="5.646152774114416" id="-28484">
		<tag k="name" v="Vollane" />
		<tag k="place" v="locality" />
		<tag k="ssr:stedsnr" v="700887" />
	</node>
	<node lat="61.23340555782191" lon="5.596988890997543" id="-28485">
		<tag k="name" v="Haugen" />
		<tag k="natural" v="hill" />
		<tag k="place" v="locality" />
		<tag k="ssr:stedsnr" v="700900" />
	</node>
	<node lat="61.31870555239051" lon="5.562047229711275" id="-28487">
		<tag k="alt_name" v="Hoksdalen" />
		<tag k="name" v="Haugsdalen" />
		<tag k="natural" v="valley" />
		<tag k="place" v="locality" />
		<tag k="ssr:stedsnr" v="614069" />
	</node>
	<node lat="61.31556667004724" lon="5.489566672487133" id="-28488">
		<tag k="alt_name" v="Grøvleholten" />
		<tag k="name" v="Gryvleholten" />
		<tag k="natural" v="hill" />
		<tag k="place" v="locality" />
		<tag k="ssr:stedsnr" v="614075" />
	</node>
	<node lat="61.32331389292491" lon="5.3609972173778635" id="-28491">
		<tag k="name" v="Kletten" />
		<tag k="natural" v="hill" />
		<tag k="place" v="locality" />
		<tag k="ssr:stedsnr" v="614302" />
	</node>
	<node lat="61.33896111113861" lon="5.241611110560826" id="-28494">
		<tag k="fixme" v="consider natural=peak for the most distinct mountains in the district" />
		<tag k="name" v="Botnafjellet" />
		<tag k="natural" v="hill" />
		<tag k="place" v="locality" />
		<tag k="ssr:stedsnr" v="614366" />
	</node>
	<node lat="61.270458331836174" lon="5.043319436406379" id="-28495">
		<tag k="name" v="Klypehaugen" />
		<tag k="natural" v="hill" />
		<tag k="place" v="locality" />
		<tag k="ssr:stedsnr" v="701297" />
	</node>
	<node lat="61.283666663805704" lon="5.113241668736698" id="-28496">
		<tag k="name" v="Baselia" />
		<tag k="natural" v="slope" />
		<tag k="place" v="locality" />
		<tag k="ssr:stedsnr" v="614407" />
	</node>
	<node lat="61.28426944083392" lon="5.123916673738114" id="-28497">
		<tag k="alt_name" v="Sagabotnen" />
		<tag k="name" v="Sagebotnen" />
		<tag k="natural" v="valley" />
		<tag k="place" v="locality" />
		<tag k="ssr:stedsnr" v="614409" />
	</node>
	<node lat="61.282266669972415" lon="5.097016661087827" id="-28498">
		<tag k="alt_name" v="Brandeåsen" />
		<tag k="fixme" v="consider natural=peak for the most distinct mountains in the district" />
		<tag k="name" v="Brendåsen" />
		<tag k="natural" v="hill" />
		<tag k="place" v="locality" />
		<tag k="ssr:stedsnr" v="614414" />
	</node>
	<node lat="61.27820555803442" lon="5.246713895705248" id="-28503">
		<tag k="name" v="Hoselia" />
		<tag k="natural" v="slope" />
		<tag k="place" v="locality" />
		<tag k="ssr:stedsnr" v="614608" />
	</node>
	<node lat="61.27629166855627" lon="5.179605554846683" id="-28505">
		<tag k="fixme" v="consider natural=peak for the most distinct mountains in the district" />
		<tag k="name" v="Holtanova" />
		<tag k="natural" v="hill" />
		<tag k="place" v="locality" />
		<tag k="ssr:stedsnr" v="614613" />
	</node>
	<node lat="61.252388890615876" lon="5.425200006267235" id="-28508">
		<tag k="fixme" v="consider natural=peak for the most distinct mountains in the district" />
		<tag k="name" v="Nonfjellet" />
		<tag k="natural" v="hill" />
		<tag k="place" v="locality" />
		<tag k="ssr:stedsnr" v="701630" />
	</node>
	<node lat="61.23098610959092" lon="5.559999996486738" id="-28509">
		<tag k="name" v="Mørkedalen" />
		<tag k="natural" v="valley" />
		<tag k="place" v="locality" />
		<tag k="ssr:stedsnr" v="701577" />
	</node>
	<node lat="61.25340833772809" lon="5.49346110620231" id="-28510">
		<tag k="name" v="Båthelleren" />
		<tag k="natural" v="hill" />
		<tag k="place" v="locality" />
		<tag k="ssr:stedsnr" v="701580" />
	</node>
	<node lat="61.325383333986956" lon="5.3481694426393" id="-28511">
		<tag k="name" v="Tjørnahaugen" />
		<tag k="natural" v="hill" />
		<tag k="place" v="locality" />
		<tag k="ssr:stedsnr" v="701544" />
	</node>
	<node lat="61.32318333057836" lon="5.416886111563088" id="-28512">
		<tag k="name" v="Seghaugane" />
		<tag k="natural" v="hill" />
		<tag k="place" v="locality" />
		<tag k="ssr:stedsnr" v="701546" />
	</node>
	<node lat="61.31847499831416" lon="5.374638888475174" id="-28513">
		<tag k="name" v="Håhaugen" />
		<tag k="natural" v="hill" />
		<tag k="place" v="locality" />
		<tag k="ssr:stedsnr" v="701550" />
	</node>
	<node lat="61.353166663689045" lon="5.4140750020793" id="-28514">
		<tag k="name" v="Torsetbotnen" />
		<tag k="natural" v="valley" />
		<tag k="place" v="locality" />
		<tag k="ssr:stedsnr" v="701554" />
	</node>
	<node lat="61.225736114577565" lon="5.54283332557468" id="-28516">
		<tag k="fixme" v="consider natural=peak for the most distinct mountains in the district" />
		<tag k="name" v="Vågarimma" />
		<tag k="natural" v="hill" />
		<tag k="place" v="locality" />
		<tag k="ssr:stedsnr" v="701588" />
	</node>
	<node lat="61.21578611550009" lon="5.445361114326731" id="-28517">
		<tag k="name" v="Strupen" />
		<tag k="natural" v="slope" />
		<tag k="place" v="locality" />
		<tag k="ssr:stedsnr" v="701594" />
	</node>
	<node lat="61.27810833266248" lon="5.008372227365783" id="-28521">
		<tag k="name" v="Litlevasslia" />
		<tag k="natural" v="slope" />
		<tag k="place" v="locality" />
		<tag k="ssr:stedsnr" v="701735" />
	</node>
	<node lat="61.29451111343833" lon="5.2057888947122235" id="-28523">
		<tag k="name" v="Strupen" />
		<tag k="natural" v="valley" />
		<tag k="place" v="locality" />
		<tag k="ssr:stedsnr" v="701740" />
	</node>
	<node lat="61.19354167021355" lon="5.632719437152097" id="-28524">
		<tag k="name" v="Espegilet" />
		<tag k="natural" v="valley" />
		<tag k="place" v="locality" />
		<tag k="ssr:stedsnr" v="616812" />
	</node>
	<node lat="61.30504166655718" lon="5.331333330996173" id="-28527">
		<tag k="name" v="Stuhogget" />
		<tag k="natural" v="hill" />
		<tag k="place" v="locality" />
		<tag k="ssr:stedsnr" v="701686" />
	</node>
	<node lat="61.3474805592575" lon="5.265230553328517" id="-28529">
		<tag k="name" v="Tysseberget" />
		<tag k="natural" v="hill" />
		<tag k="place" v="locality" />
		<tag k="ssr:stedsnr" v="701702" />
	</node>
	<node lat="61.27800555706124" lon="5.0522805550457495" id="-28530">
		<tag k="name" v="Svarthamrane" />
		<tag k="natural" v="hill" />
		<tag k="place" v="locality" />
		<tag k="ssr:stedsnr" v="701705" />
	</node>
	<node lat="61.27941111170582" lon="5.050102786099535" id="-28531">
		<tag k="name" v="Tytebærhaugen" />
		<tag k="natural" v="hill" />
		<tag k="place" v="locality" />
		<tag k="ssr:stedsnr" v="701706" />
	</node>
	<node lat="61.243427775016286" lon="5.516802774338297" id="-28533">
		<tag k="name" v="Rimmane" />
		<tag k="natural" v="slope" />
		<tag k="place" v="locality" />
		<tag k="ssr:stedsnr" v="701945" />
	</node>
	<node lat="61.28105277364371" lon="5.253533340596104" id="-28535">
		<tag k="name" v="Langhammaren" />
		<tag k="natural" v="hill" />
		<tag k="place" v="locality" />
		<tag k="ssr:stedsnr" v="639694" />
	</node>
	<node lat="61.288666666356505" lon="5.271163882650626" id="-28536">
		<tag k="name" v="Varden" />
		<tag k="natural" v="hill" />
		<tag k="place" v="locality" />
		<tag k="ssr:stedsnr" v="639695" />
	</node>
	<node lat="61.27978333705451" lon="5.062380552393098" id="-28537">
		<tag k="name" v="Dyrekletten" />
		<tag k="natural" v="hill" />
		<tag k="place" v="locality" />
		<tag k="ssr:stedsnr" v="639713" />
	</node>
	<node lat="61.23475555554384" lon="5.58549444204641" id="-28538">
		<tag k="fixme" v="consider natural=peak for the most distinct mountains in the district" />
		<tag k="name" v="Bruafjellet" />
		<tag k="natural" v="hill" />
		<tag k="place" v="locality" />
		<tag k="ssr:stedsnr" v="639905" />
	</node>
	<node lat="61.252136113022374" lon="5.642527785709203" id="-28539">
		<tag k="name" v="Nova" />
		<tag k="natural" v="hill" />
		<tag k="place" v="locality" />
		<tag k="ssr:stedsnr" v="639913" />
	</node>
	<node lat="61.252283333659236" lon="5.689350002330743" id="-28542">
		<tag k="name" v="Grø" />
		<tag k="natural" v="valley" />
		<tag k="place" v="locality" />
		<tag k="ssr:stedsnr" v="639923" />
	</node>
	<node lat="61.26620832935467" lon="4.960386119119239" id="-28543">
		<tag k="fixme" v="consider natural=peak for the most distinct mountains in the district" />
		<tag k="name" v="Gulenakkenl" />
		<tag k="natural" v="hill" />
		<tag k="place" v="locality" />
		<tag k="ssr:stedsnr" v="639925" />
	</node>
	<node lat="61.25872778077728" lon="4.949030552972264" id="-28544">
		<tag k="name" v="Arehaugen" />
		<tag k="natural" v="hill" />
		<tag k="place" v="locality" />
		<tag k="ssr:stedsnr" v="639931" />
	</node>
	<node lat="61.27459999860617" lon="4.956411119322068" id="-28547">
		<tag k="name" v="Gardsendehaugane" />
		<tag k="natural" v="hill" />
		<tag k="place" v="locality" />
		<tag k="ssr:stedsnr" v="640222" />
	</node>
	<node lat="61.252196393167424" lon="5.44850617841252" id="-28551">
		<tag k="loc_name" v="Ospehaugen;Ospehogen" />
		<tag k="name" v="Ospehaug" />
		<tag k="natural" v="hill" />
		<tag k="place" v="locality" />
		<tag k="ssr:stedsnr" v="640612" />
	</node>
	<node lat="61.24104166604507" lon="5.414933338479115" id="-28553">
		<tag k="name" v="Lelushaugen" />
		<tag k="natural" v="hill" />
		<tag k="place" v="locality" />
		<tag k="ssr:stedsnr" v="640618" />
	</node>
	<node lat="61.24886389094078" lon="5.353975008438644" id="-28554">
		<tag k="name" v="Gamlestølkråna" />
		<tag k="natural" v="hill" />
		<tag k="place" v="locality" />
		<tag k="ssr:stedsnr" v="640625" />
	</node>
	<node lat="61.24826388909346" lon="5.507736115186672" id="-28558">
		<tag k="name" v="Mørkedalen" />
		<tag k="natural" v="valley" />
		<tag k="place" v="locality" />
		<tag k="ssr:stedsnr" v="640927" />
	</node>
	<node lat="61.26857500064974" lon="5.0676722305073225" id="-28562">
		<tag k="fixme" v="consider natural=peak for the most distinct mountains in the district" />
		<tag k="name" v="Stølshaugen" />
		<tag k="natural" v="hill" />
		<tag k="place" v="locality" />
		<tag k="ssr:stedsnr" v="675106" />
	</node>
	<node lat="61.300997220911874" lon="5.63961944655214" id="-28564">
		<tag k="name" v="Kvitevassskardet" />
		<tag k="natural" v="valley" />
		<tag k="place" v="locality" />
		<tag k="ssr:stedsnr" v="675115" />
	</node>
	<node lat="61.37486666298959" lon="5.406241673136861" id="-28567">
		<tag k="alt_name" v="Rysjebakane" />
		<tag k="name" v="Rysjebakkane" />
		<tag k="place" v="locality" />
		<tag k="ssr:stedsnr" v="675150" />
	</node>
	<node lat="61.2654055561299" lon="5.48206665816936" id="-28572">
		<tag k="alt_name" v="Gaupefjell" />
		<tag k="fixme" v="consider natural=peak for the most distinct mountains in the district" />
		<tag k="name" v="Gaupefjellet" />
		<tag k="natural" v="hill" />
		<tag k="place" v="locality" />
		<tag k="ssr:stedsnr" v="675246" />
	</node>
	<node lat="61.251124998474076" lon="5.576377772449503" id="-28573">
		<tag k="name" v="Overranda" />
		<tag k="natural" v="slope" />
		<tag k="place" v="locality" />
		<tag k="ssr:stedsnr" v="675259" />
	</node>
	<node lat="61.307633329596015" lon="5.454116658364172" id="-28576">
		<tag k="alt_name" v="Høgefjell" />
		<tag k="fixme" v="consider natural=peak for the most distinct mountains in the district" />
		<tag k="name" v="Høgefjellet" />
		<tag k="natural" v="hill" />
		<tag k="place" v="locality" />
		<tag k="ssr:stedsnr" v="675409" />
	</node>
	<node lat="61.2818999968032" lon="5.2657138985793885" id="-28579">
		<tag k="alt_name" v="Klipperen" />
		<tag k="fixme" v="consider natural=peak for the most distinct mountains in the district" />
		<tag k="name" v="Klibberen" />
		<tag k="natural" v="hill" />
		<tag k="place" v="locality" />
		<tag k="ssr:stedsnr" v="675449" />
	</node>
	<node lat="61.32671944542236" lon="5.44543333672267" id="-28580">
		<tag k="alt_name" v="Stien" />
		<tag k="name" v="Stigen" />
		<tag k="natural" v="valley" />
		<tag k="place" v="locality" />
		<tag k="ssr:stedsnr" v="675458" />
	</node>
	<node lat="61.34974166882291" lon="5.467336116997983" id="-28586">
		<tag k="name" v="Kvelvet" />
		<tag k="place" v="locality" />
		<tag k="ssr:stedsnr" v="675395" />
	</node>
	<node lat="61.32084166931355" lon="5.424149993375971" id="-28587">
		<tag k="name" v="Fjellsnova" />
		<tag k="natural" v="hill" />
		<tag k="place" v="locality" />
		<tag k="ssr:stedsnr" v="675507" />
	</node>
	<node lat="61.298538889723325" lon="5.233727771946765" id="-28589">
		<tag k="alt_name" v="Lia" />
		<tag k="name" v="Eikelia" />
		<tag k="natural" v="slope" />
		<tag k="place" v="locality" />
		<tag k="ssr:stedsnr" v="675518" />
	</node>
	<node lat="61.26294722630133" lon="5.4663083283392995" id="-28590">
		<tag k="fixme" v="consider natural=peak for the most distinct mountains in the district" />
		<tag k="name" v="Eikeliåsen" />
		<tag k="natural" v="hill" />
		<tag k="place" v="locality" />
		<tag k="ssr:stedsnr" v="675545" />
	</node>
	<node lat="61.2836999956573" lon="5.577458337535201" id="-28592">
		<tag k="name" v="Tverrlia" />
		<tag k="natural" v="slope" />
		<tag k="place" v="locality" />
		<tag k="ssr:stedsnr" v="675558" />
	</node>
	<node lat="61.31079999950748" lon="5.292205547983605" id="-28593">
		<tag k="name" v="Bjørnaholten" />
		<tag k="natural" v="hill" />
		<tag k="place" v="locality" />
		<tag k="ssr:stedsnr" v="675494" />
	</node>
	<node lat="61.27943611436294" lon="5.405766657080329" id="-28594">
		<tag k="fixme" v="consider natural=peak for the most distinct mountains in the district" />
		<tag k="name" v="Bruna" />
		<tag k="natural" v="hill" />
		<tag k="place" v="locality" />
		<tag k="ssr:stedsnr" v="675597" />
	</node>
	<node lat="61.28113888935729" lon="5.414108333809033" id="-28595">
		<tag k="alt_name" v="Hylkjehaugen" />
		<tag k="name" v="Hylkehaugen" />
		<tag k="natural" v="hill" />
		<tag k="place" v="locality" />
		<tag k="ssr:stedsnr" v="675598" />
	</node>
	<node lat="61.35490833245354" lon="5.54740277352822" id="-28596">
		<tag k="alt_name" v="Kvitleholten" />
		<tag k="name" v="Kvisleholten" />
		<tag k="natural" v="hill" />
		<tag k="place" v="locality" />
		<tag k="ssr:stedsnr" v="675894" />
	</node>
	<node lat="61.2460083311308" lon="5.332772222759118" id="-28597">
		<tag k="alt_name" v="Gjeskelirabben" />
		<tag k="fixme" v="consider natural=peak for the most distinct mountains in the district" />
		<tag k="name" v="Geiskelirabben" />
		<tag k="natural" v="hill" />
		<tag k="place" v="locality" />
		<tag k="ssr:stedsnr" v="676393" />
	</node>
	<node lat="61.24813274047987" lon="5.451113134023486" id="-28599">
		<tag k="alt_name" v="Roparhaug" />
		<tag k="name" v="Roparhaugen" />
		<tag k="natural" v="hill" />
		<tag k="place" v="locality" />
		<tag k="ssr:stedsnr" v="676402" />
	</node>
	<node lat="61.28265555966653" lon="5.452661102605087" id="-28601">
		<tag k="alt_name" v="Polldalen" />
		<tag k="name" v="Grasdalen" />
		<tag k="natural" v="valley" />
		<tag k="place" v="locality" />
		<tag k="ssr:stedsnr" v="676699" />
	</node>
	<node lat="61.22351666898756" lon="5.57535278648202" id="-28603">
		<tag k="name" v="Florsgjerdet" />
		<tag k="place" v="locality" />
		<tag k="ssr:stedsnr" v="676981" />
	</node>
	<node lat="61.23373610695897" lon="5.511613885330427" id="-28606">
		<tag k="fixme" v="consider natural=peak for the most distinct mountains in the district" />
		<tag k="name" v="Nonheia" />
		<tag k="natural" v="hill" />
		<tag k="place" v="locality" />
		<tag k="ssr:stedsnr" v="677977" />
	</node>
	<node lat="61.24100555544656" lon="5.648247218639282" id="-28608">
		<tag k="name" v="Kletten" />
		<tag k="natural" v="hill" />
		<tag k="place" v="locality" />
		<tag k="ssr:stedsnr" v="700916" />
	</node>
	<node lat="61.237033337057355" lon="5.645894438344649" id="-28609">
		<tag k="name" v="Høgekletten" />
		<tag k="natural" v="hill" />
		<tag k="place" v="locality" />
		<tag k="ssr:stedsnr" v="700917" />
	</node>
	<node lat="61.25143611398123" lon="5.657702785663105" id="-28610">
		<tag k="name" v="Joterabben" />
		<tag k="natural" v="hill" />
		<tag k="place" v="locality" />
		<tag k="ssr:stedsnr" v="700921" />
	</node>
	<node lat="61.358627777468286" lon="5.544286109934155" id="-28611">
		<tag k="name" v="Svoa" />
		<tag k="natural" v="slope" />
		<tag k="place" v="locality" />
		<tag k="ssr:stedsnr" v="700961" />
	</node>
	<node lat="61.26077777591598" lon="5.076858335778823" id="-28615">
		<tag k="name" v="Grovgjelheia" />
		<tag k="natural" v="hill" />
		<tag k="place" v="locality" />
		<tag k="ssr:stedsnr" v="701277" />
	</node>
	<node lat="61.23685555725997" lon="5.412091667792029" id="-28621">
		<tag k="name" v="Furapåla" />
		<tag k="natural" v="hill" />
		<tag k="place" v="locality" />
		<tag k="ssr:stedsnr" v="701622" />
	</node>
	<node lat="61.298877777615154" lon="5.356447219668554" id="-28624">
		<tag k="name" v="Strokeberget" />
		<tag k="natural" v="hill" />
		<tag k="place" v="locality" />
		<tag k="ssr:stedsnr" v="701564" />
	</node>
	<node lat="61.21398610864969" lon="5.557233342079609" id="-28626">
		<tag k="name" v="Ræpelen" />
		<tag k="natural" v="ridge" />
		<tag k="place" v="locality" />
		<tag k="ssr:stedsnr" v="701575" />
	</node>
	<node lat="61.27688333689986" lon="5.073283329249389" id="-28628">
		<tag k="name" v="Elvagjelet" />
		<tag k="natural" v="valley" />
		<tag k="place" v="locality" />
		<tag k="ssr:stedsnr" v="701713" />
	</node>
	<node lat="61.275833333990576" lon="5.07145833316922" id="-28629">
		<tag k="name" v="Elvagjelhaugen" />
		<tag k="natural" v="hill" />
		<tag k="place" v="locality" />
		<tag k="ssr:stedsnr" v="701714" />
	</node>
	<node lat="61.35058611485923" lon="5.494063890018663" id="-28630">
		<tag k="name" v="Seten" />
		<tag k="place" v="locality" />
		<tag k="ssr:stedsnr" v="701962" />
	</node>
	<node lat="61.32959166283342" lon="5.508638889817277" id="-28639">
		<tag k="fixme" v="consider natural=peak for the most distinct mountains in the district" />
		<tag k="name" v="Øyefjellet" />
		<tag k="natural" v="hill" />
		<tag k="place" v="locality" />
		<tag k="ssr:stedsnr" v="735083" />
	</node>
	<node lat="61.26797222484837" lon="5.059252781271449" id="-28640">
		<tag k="fixme" v="consider natural=peak for the most distinct mountains in the district" />
		<tag k="name" v="Brekka" />
		<tag k="natural" v="hill" />
		<tag k="place" v="locality" />
		<tag k="ssr:stedsnr" v="735099" />
	</node>
	<node lat="61.36163610784502" lon="5.4045305541365485" id="-28643">
		<tag k="alt_name" v="Smefjellet" />
		<tag k="fixme" v="consider natural=peak for the most distinct mountains in the district" />
		<tag k="name" v="Smedfjellet" />
		<tag k="natural" v="hill" />
		<tag k="place" v="locality" />
		<tag k="ssr:stedsnr" v="735328" />
	</node>
	<node lat="61.36238610841673" lon="5.424233333647243" id="-28644">
		<tag k="name" v="Brokabakkane" />
		<tag k="natural" v="slope" />
		<tag k="place" v="locality" />
		<tag k="ssr:stedsnr" v="735332" />
	</node>
	<node lat="61.30303889267843" lon="5.365052783693725" id="-28645">
		<tag k="name" v="Kvernhusdalen" />
		<tag k="natural" v="valley" />
		<tag k="place" v="locality" />
		<tag k="ssr:stedsnr" v="735379" />
	</node>
	<node lat="61.3393222193187" lon="5.480708334422315" id="-28646">
		<tag k="name" v="Mjåbotnen" />
		<tag k="natural" v="valley" />
		<tag k="place" v="locality" />
		<tag k="ssr:stedsnr" v="736020" />
	</node>
	<node lat="61.25041111371473" lon="4.967480559239776" id="-28648">
		<tag k="alt_name" v="Såta" />
		<tag k="fixme" v="consider natural=peak for the most distinct mountains in the district" />
		<tag k="name" v="Lutesåta" />
		<tag k="natural" v="hill" />
		<tag k="place" v="locality" />
		<tag k="ssr:stedsnr" v="736023" />
	</node>
	<node lat="61.29403610942815" lon="5.427125008781433" id="-28652">
		<tag k="fixme" v="consider natural=peak for the most distinct mountains in the district" />
		<tag k="name" v="Klibberdalsfjellet" />
		<tag k="natural" v="hill" />
		<tag k="place" v="locality" />
		<tag k="ssr:stedsnr" v="736411" />
	</node>
	<node lat="61.28409166755166" lon="5.237105550349188" id="-28653">
		<tag k="name" v="Høgehesjane" />
		<tag k="natural" v="hill" />
		<tag k="place" v="locality" />
		<tag k="ssr:stedsnr" v="736425" />
	</node>
	<node lat="61.28165278141518" lon="5.1905277755551245" id="-28654">
		<tag k="name" v="Kringlehaugen" />
		<tag k="natural" v="hill" />
		<tag k="place" v="locality" />
		<tag k="ssr:stedsnr" v="736427" />
	</node>
	<node lat="61.29256666266708" lon="5.32032777104367" id="-28655">
		<tag k="name" v="Styggehammaren" />
		<tag k="natural" v="hill" />
		<tag k="place" v="locality" />
		<tag k="ssr:stedsnr" v="736390" />
	</node>
	<node lat="61.36075277838535" lon="5.530172217633651" id="-28657">
		<tag k="name" v="Langedalen" />
		<tag k="natural" v="valley" />
		<tag k="place" v="locality" />
		<tag k="ssr:stedsnr" v="736922" />
	</node>
	<node lat="61.368591662908116" lon="5.529997223758236" id="-28658">
		<tag k="name" v="Ospehaugen" />
		<tag k="natural" v="hill" />
		<tag k="place" v="locality" />
		<tag k="ssr:stedsnr" v="736962" />
	</node>
	<node lat="61.24540000239816" lon="5.377911102732157" id="-28660">
		<tag k="name" v="Svarteskåla" />
		<tag k="natural" v="valley" />
		<tag k="place" v="locality" />
		<tag k="ssr:stedsnr" v="737371" />
	</node>
	<node lat="61.24743611415028" lon="5.371761105179362" id="-28661">
		<tag k="name" v="Løypa" />
		<tag k="natural" v="valley" />
		<tag k="place" v="locality" />
		<tag k="ssr:stedsnr" v="737372" />
	</node>
	<node lat="61.24195832917652" lon="5.402308335726497" id="-28662">
		<tag k="alt_name" v="Lønnebotnfjellet" />
		<tag k="fixme" v="consider natural=peak for the most distinct mountains in the district" />
		<tag k="name" v="Lønebotnfjellet" />
		<tag k="natural" v="hill" />
		<tag k="place" v="locality" />
		<tag k="ssr:stedsnr" v="737373" />
	</node>
	<node lat="61.215544445600834" lon="5.497602782532395" id="-28667">
		<tag k="fixme" v="consider natural=peak for the most distinct mountains in the district" />
		<tag k="name" v="Tveraheia" />
		<tag k="natural" v="hill" />
		<tag k="place" v="locality" />
		<tag k="ssr:stedsnr" v="737971" />
	</node>
	<node lat="61.25715556016737" lon="5.0539777835777135" id="-28671">
		<tag k="fixme" v="consider natural=peak for the most distinct mountains in the district" />
		<tag k="name" v="Halsen" />
		<tag k="natural" v="hill" />
		<tag k="place" v="locality" />
		<tag k="ssr:stedsnr" v="761254" />
	</node>
	<node lat="61.36825833055798" lon="5.407299996723791" id="-28672">
		<tag k="name" v="Vikabakkane" />
		<tag k="natural" v="slope" />
		<tag k="place" v="locality" />
		<tag k="ssr:stedsnr" v="761556" />
	</node>
	<node lat="61.22605555197139" lon="5.566950000228201" id="-28673">
		<tag k="name" v="Bjørnasethamrane" />
		<tag k="natural" v="hill" />
		<tag k="place" v="locality" />
		<tag k="ssr:stedsnr" v="761597" />
	</node>
	<node lat="61.29188055568777" lon="5.269613884919905" id="-28674">
		<tag k="name" v="Myrbærdalen" />
		<tag k="natural" v="valley" />
		<tag k="place" v="locality" />
		<tag k="ssr:stedsnr" v="761715" />
	</node>
	<node lat="61.29247777558963" lon="5.253666674617769" id="-28675">
		<tag k="fixme" v="consider natural=peak for the most distinct mountains in the district" />
		<tag k="name" v="Skorafjellet" />
		<tag k="natural" v="hill" />
		<tag k="place" v="locality" />
		<tag k="ssr:stedsnr" v="761716" />
	</node>
	<node lat="61.225461115520936" lon="5.43070556122079" id="-28676">
		<tag k="name" v="Blom-bakkane" />
		<tag k="natural" v="slope" />
		<tag k="place" v="locality" />
		<tag k="ssr:stedsnr" v="761607" />
	</node>
	<node lat="61.25023055507557" lon="5.35329722303286" id="-28677">
		<tag k="fixme" v="consider natural=peak for the most distinct mountains in the district" />
		<tag k="name" v="Gamlestølrusta" />
		<tag k="natural" v="hill" />
		<tag k="place" v="locality" />
		<tag k="ssr:stedsnr" v="761643" />
	</node>
</osm>
