<?xml version="1.0" encoding="UTF-8"?>
<osm version="0.6" generator="osmapis">
	<node lat="61.677122315658956" lon="12.005827223840868" id="-38444">
		<tag k="name" v="Heggerisgutua" />
		<tag k="ssr:date" v="2019-12-27" />
		<tag k="ssr:gruppe" v="veg" />
		<tag k="ssr:hovedgruppe" v="infrastruktur" />
		<tag k="ssr:stedsnr" v="60905" />
		<tag k="ssr:type" v="adressenavn" />
	</node>
	<node lat="61.819555650745365" lon="11.926770601240515" id="-38445">
		<tag k="name" v="Hovdbekkdalen" />
		<tag k="ssr:date" v="2019-12-27" />
		<tag k="ssr:gruppe" v="veg" />
		<tag k="ssr:hovedgruppe" v="infrastruktur" />
		<tag k="ssr:stedsnr" v="60914" />
		<tag k="ssr:type" v="adressenavn" />
	</node>
	<node lat="61.87752024411279" lon="12.024036717321016" id="-38446">
		<tag k="name" v="Hyttveien" />
		<tag k="ssr:date" v="2019-12-27" />
		<tag k="ssr:gruppe" v="veg" />
		<tag k="ssr:hovedgruppe" v="infrastruktur" />
		<tag k="ssr:stedsnr" v="60924" />
		<tag k="ssr:type" v="adressenavn" />
	</node>
	<node lat="62.15405311042903" lon="11.948625558414209" id="-38448">
		<tag k="name" v="Tjønnoddveien" />
		<tag k="ssr:date" v="2019-12-27" />
		<tag k="ssr:gruppe" v="veg" />
		<tag k="ssr:hovedgruppe" v="infrastruktur" />
		<tag k="ssr:stedsnr" v="60992" />
		<tag k="ssr:type" v="adressenavn" />
	</node>
	<node lat="61.755608711769575" lon="11.96175684787794" id="-38452">
		<tag k="name" v="Nystedgutua" />
		<tag k="ssr:date" v="2019-12-27" />
		<tag k="ssr:gruppe" v="veg" />
		<tag k="ssr:hovedgruppe" v="infrastruktur" />
		<tag k="ssr:stedsnr" v="242887" />
		<tag k="ssr:type" v="adressenavn" />
	</node>
	<node lat="61.79772687515265" lon="11.958368050284065" id="-38464">
		<tag k="name" v="Midttoppen" />
		<tag k="ssr:date" v="2019-12-27" />
		<tag k="ssr:gruppe" v="veg" />
		<tag k="ssr:hovedgruppe" v="infrastruktur" />
		<tag k="ssr:stedsnr" v="242905" />
		<tag k="ssr:type" v="adressenavn" />
	</node>
	<node lat="61.89684257088749" lon="12.038566722514263" id="-38468">
		<tag k="name" v="Blæsterveien" />
		<tag k="ssr:date" v="2019-12-27" />
		<tag k="ssr:gruppe" v="veg" />
		<tag k="ssr:hovedgruppe" v="infrastruktur" />
		<tag k="ssr:stedsnr" v="242970" />
		<tag k="ssr:type" v="adressenavn" />
	</node>
	<node lat="61.84077144279947" lon="12.015397551263627" id="-38496">
		<tag k="name" v="Røstveien" />
		<tag k="ssr:date" v="2019-12-27" />
		<tag k="ssr:gruppe" v="veg" />
		<tag k="ssr:hovedgruppe" v="infrastruktur" />
		<tag k="ssr:stedsnr" v="120917" />
		<tag k="ssr:type" v="adressenavn" />
	</node>
	<node lat="62.16719923385155" lon="11.941677997539601" id="-38497">
		<tag k="name" v="Båtstøa" />
		<tag k="ssr:date" v="2019-12-27" />
		<tag k="ssr:gruppe" v="veg" />
		<tag k="ssr:hovedgruppe" v="infrastruktur" />
		<tag k="ssr:stedsnr" v="120973" />
		<tag k="ssr:type" v="adressenavn" />
	</node>
	<node lat="61.83767137437557" lon="11.862319853155046" id="-38587">
		<tag k="name" v="Volskarvveien" />
		<tag k="ssr:date" v="2019-12-27" />
		<tag k="ssr:gruppe" v="veg" />
		<tag k="ssr:hovedgruppe" v="infrastruktur" />
		<tag k="ssr:stedsnr" v="181519" />
		<tag k="ssr:type" v="adressenavn" />
	</node>
	<node lat="61.79141421708426" lon="11.957287159809042" id="-38589">
		<tag k="name" v="Myrsvingen" />
		<tag k="ssr:date" v="2019-12-27" />
		<tag k="ssr:gruppe" v="veg" />
		<tag k="ssr:hovedgruppe" v="infrastruktur" />
		<tag k="ssr:stedsnr" v="181935" />
		<tag k="ssr:type" v="adressenavn" />
	</node>
	<node lat="61.81935703710307" lon="11.91025915638392" id="-38624">
		<tag k="name" v="Vanglia" />
		<tag k="ssr:date" v="2019-12-27" />
		<tag k="ssr:gruppe" v="veg" />
		<tag k="ssr:hovedgruppe" v="infrastruktur" />
		<tag k="ssr:stedsnr" v="242482" />
		<tag k="ssr:type" v="adressenavn" />
	</node>
	<node lat="62.164066666078604" lon="12.245294435472154" id="-38625">
		<tag k="name" v="Sylen" />
		<tag k="ssr:date" v="2019-12-27" />
		<tag k="ssr:gruppe" v="veg" />
		<tag k="ssr:hovedgruppe" v="infrastruktur" />
		<tag k="ssr:stedsnr" v="242508" />
		<tag k="ssr:type" v="adressenavn" />
	</node>
	<node lat="61.723916027988146" lon="11.974799374291317" id="-38648">
		<tag k="name" v="Tuvbekkveien" />
		<tag k="ssr:date" v="2019-12-27" />
		<tag k="ssr:gruppe" v="veg" />
		<tag k="ssr:hovedgruppe" v="infrastruktur" />
		<tag k="ssr:stedsnr" v="282869" />
		<tag k="ssr:type" v="adressenavn" />
	</node>
	<node lat="61.70461879331197" lon="11.725653457578867" id="-38673">
		<tag k="name" v="Granlia" />
		<tag k="ssr:date" v="2019-12-27" />
		<tag k="ssr:gruppe" v="veg" />
		<tag k="ssr:hovedgruppe" v="infrastruktur" />
		<tag k="ssr:stedsnr" v="302508" />
		<tag k="ssr:type" v="adressenavn" />
	</node>
	<node lat="61.80886752035272" lon="11.94282027357044" id="-38674">
		<tag k="name" v="Langegga" />
		<tag k="ssr:date" v="2019-12-27" />
		<tag k="ssr:gruppe" v="veg" />
		<tag k="ssr:hovedgruppe" v="infrastruktur" />
		<tag k="ssr:stedsnr" v="302905" />
		<tag k="ssr:type" v="adressenavn" />
	</node>
	<node lat="61.77341646563862" lon="11.956862370984878" id="-38678">
		<tag k="name" v="Hundskampveien" />
		<tag k="ssr:date" v="2019-12-27" />
		<tag k="ssr:gruppe" v="veg" />
		<tag k="ssr:hovedgruppe" v="infrastruktur" />
		<tag k="ssr:stedsnr" v="464892" />
		<tag k="ssr:type" v="adressenavn" />
	</node>
	<node lat="61.98597499587443" lon="11.887113897628856" id="-38728">
		<tag k="name" v="Veslbuvika" />
		<tag k="ssr:date" v="2019-12-27" />
		<tag k="ssr:gruppe" v="veg" />
		<tag k="ssr:hovedgruppe" v="infrastruktur" />
		<tag k="ssr:stedsnr" v="363503" />
		<tag k="ssr:type" v="adressenavn" />
	</node>
	<node lat="62.095841229245636" lon="11.651347366237905" id="-38757">
		<tag k="name" v="Langsjøveien" />
		<tag k="ssr:date" v="2019-12-27" />
		<tag k="ssr:gruppe" v="veg" />
		<tag k="ssr:hovedgruppe" v="infrastruktur" />
		<tag k="ssr:stedsnr" v="480034" />
		<tag k="ssr:type" v="adressenavn" />
	</node>
	<node lat="61.63646225644686" lon="12.070676720343616" id="-38801">
		<tag k="name" v="Kjeldmyrvegen" />
		<tag k="ssr:date" v="2019-12-27" />
		<tag k="ssr:gruppe" v="veg" />
		<tag k="ssr:hovedgruppe" v="infrastruktur" />
		<tag k="ssr:stedsnr" v="484350" />
		<tag k="ssr:type" v="adressenavn" />
	</node>
	<node lat="61.64687074313458" lon="11.846089648488975" id="-38802">
		<tag k="name" v="Husflolia" />
		<tag k="ssr:date" v="2019-12-27" />
		<tag k="ssr:gruppe" v="veg" />
		<tag k="ssr:hovedgruppe" v="infrastruktur" />
		<tag k="ssr:stedsnr" v="484494" />
		<tag k="ssr:type" v="adressenavn" />
	</node>
	<node lat="61.797267633469914" lon="11.953646159630459" id="-38803">
		<tag k="name" v="Nordskarven" />
		<tag k="ssr:date" v="2019-12-27" />
		<tag k="ssr:gruppe" v="veg" />
		<tag k="ssr:hovedgruppe" v="infrastruktur" />
		<tag k="ssr:stedsnr" v="484934" />
		<tag k="ssr:type" v="adressenavn" />
	</node>
	<node lat="61.67842209885037" lon="12.000588255224176" id="-38804">
		<tag k="name" v="Grasbekkvegen" />
		<tag k="ssr:date" v="2019-12-27" />
		<tag k="ssr:gruppe" v="veg" />
		<tag k="ssr:hovedgruppe" v="infrastruktur" />
		<tag k="ssr:stedsnr" v="484887" />
		<tag k="ssr:type" v="adressenavn" />
	</node>
	<node lat="61.81467054825789" lon="11.921831343240331" id="-38805">
		<tag k="name" v="Hovdveien" />
		<tag k="ssr:date" v="2019-12-27" />
		<tag k="ssr:gruppe" v="veg" />
		<tag k="ssr:hovedgruppe" v="infrastruktur" />
		<tag k="ssr:stedsnr" v="484899" />
		<tag k="ssr:type" v="adressenavn" />
	</node>
	<node lat="61.922870109428146" lon="11.913356145848429" id="-38806">
		<tag k="name" v="Femundsenden" />
		<tag k="ssr:date" v="2019-12-27" />
		<tag k="ssr:gruppe" v="veg" />
		<tag k="ssr:hovedgruppe" v="infrastruktur" />
		<tag k="ssr:stedsnr" v="484938" />
		<tag k="ssr:type" v="adressenavn" />
	</node>
	<node lat="62.233947219115784" lon="11.869680550013571" id="-38807">
		<tag k="name" v="Femundshytta" />
		<tag k="ssr:date" v="2019-12-27" />
		<tag k="ssr:gruppe" v="veg" />
		<tag k="ssr:hovedgruppe" v="infrastruktur" />
		<tag k="ssr:stedsnr" v="484939" />
		<tag k="ssr:type" v="adressenavn" />
	</node>
	<node lat="61.761069957420546" lon="11.955104301332522" id="-38812">
		<tag k="name" v="Østfjellveien" />
		<tag k="ssr:date" v="2019-12-27" />
		<tag k="ssr:gruppe" v="veg" />
		<tag k="ssr:hovedgruppe" v="infrastruktur" />
		<tag k="ssr:stedsnr" v="405989" />
		<tag k="ssr:type" v="adressenavn" />
	</node>
	<node lat="61.78571187668547" lon="11.973179374164236" id="-38831">
		<tag k="name" v="Semingslia" />
		<tag k="ssr:date" v="2019-12-27" />
		<tag k="ssr:gruppe" v="veg" />
		<tag k="ssr:hovedgruppe" v="infrastruktur" />
		<tag k="ssr:stedsnr" v="424913" />
		<tag k="ssr:type" v="adressenavn" />
	</node>
	<node lat="61.60531324315762" lon="12.042116346095678" id="-38940">
		<tag k="name" v="Engerdalsveien" />
		<tag k="ssr:date" v="2019-12-27" />
		<tag k="ssr:gruppe" v="veg" />
		<tag k="ssr:hovedgruppe" v="infrastruktur" />
		<tag k="ssr:stedsnr" v="484359" />
		<tag k="ssr:type" v="adressenavn" />
	</node>
	<node lat="61.701535734312465" lon="11.728618466918023" id="-38941">
		<tag k="name" v="Høgegga" />
		<tag k="ssr:date" v="2019-12-27" />
		<tag k="ssr:gruppe" v="veg" />
		<tag k="ssr:hovedgruppe" v="infrastruktur" />
		<tag k="ssr:stedsnr" v="484503" />
		<tag k="ssr:type" v="adressenavn" />
	</node>
	<node lat="61.78404556648914" lon="11.964624353765391" id="-38942">
		<tag k="name" v="Ørnholveien" />
		<tag k="ssr:date" v="2019-12-27" />
		<tag k="ssr:gruppe" v="veg" />
		<tag k="ssr:hovedgruppe" v="infrastruktur" />
		<tag k="ssr:stedsnr" v="484921" />
		<tag k="ssr:type" v="adressenavn" />
	</node>
	<node lat="62.16409999821344" lon="11.93178888960264" id="-39017">
		<tag k="name" v="Mælen" />
		<tag k="ssr:date" v="2019-12-27" />
		<tag k="ssr:gruppe" v="veg" />
		<tag k="ssr:hovedgruppe" v="infrastruktur" />
		<tag k="ssr:stedsnr" v="545513" />
		<tag k="ssr:type" v="adressenavn" />
	</node>
	<node lat="61.76364264229121" lon="11.647880606927695" id="-39018">
		<tag k="name" v="Elvbruveien" />
		<tag k="ssr:date" v="2019-12-27" />
		<tag k="ssr:gruppe" v="veg" />
		<tag k="ssr:hovedgruppe" v="infrastruktur" />
		<tag k="ssr:stedsnr" v="545470" />
		<tag k="ssr:type" v="adressenavn" />
	</node>
	<node lat="61.66500905204621" lon="11.982240997068395" id="-39020">
		<tag k="name" v="Gnollsætervegen" />
		<tag k="ssr:date" v="2019-12-27" />
		<tag k="ssr:gruppe" v="veg" />
		<tag k="ssr:hovedgruppe" v="infrastruktur" />
		<tag k="ssr:stedsnr" v="545884" />
		<tag k="ssr:type" v="adressenavn" />
	</node>
	<node lat="61.64866111421156" lon="11.84969444887252" id="-39098">
		<tag k="name" v="Mælbekkveien" />
		<tag k="ssr:date" v="2019-12-27" />
		<tag k="ssr:gruppe" v="veg" />
		<tag k="ssr:hovedgruppe" v="infrastruktur" />
		<tag k="ssr:stedsnr" v="605551" />
		<tag k="ssr:type" v="adressenavn" />
	</node>
	<node lat="62.1552750009329" lon="11.902127779030561" id="-39100">
		<tag k="name" v="Hølbekken" />
		<tag k="ssr:date" v="2019-12-27" />
		<tag k="ssr:gruppe" v="veg" />
		<tag k="ssr:hovedgruppe" v="infrastruktur" />
		<tag k="ssr:stedsnr" v="605968" />
		<tag k="ssr:type" v="adressenavn" />
	</node>
	<node lat="61.7708696409" lon="11.96445604083942" id="-39147">
		<tag k="name" v="Falkveien" />
		<tag k="ssr:date" v="2019-12-27" />
		<tag k="ssr:gruppe" v="veg" />
		<tag k="ssr:hovedgruppe" v="infrastruktur" />
		<tag k="ssr:stedsnr" v="707886" />
		<tag k="ssr:type" v="adressenavn" />
	</node>
	<node lat="61.84675171281267" lon="12.016758731439353" id="-39179">
		<tag k="name" v="Kvilten sør" />
		<tag k="ssr:date" v="2019-12-27" />
		<tag k="ssr:gruppe" v="veg" />
		<tag k="ssr:hovedgruppe" v="infrastruktur" />
		<tag k="ssr:stedsnr" v="666904" />
		<tag k="ssr:type" v="adressenavn" />
	</node>
	<node lat="61.6083530231493" lon="12.0395766023426" id="-39228">
		<tag k="name" v="Røsætervegen" />
		<tag k="ssr:date" v="2019-12-27" />
		<tag k="ssr:gruppe" v="veg" />
		<tag k="ssr:hovedgruppe" v="infrastruktur" />
		<tag k="ssr:stedsnr" v="721610" />
		<tag k="ssr:type" v="adressenavn" />
	</node>
	<node lat="61.8391941025622" lon="11.864652309025244" id="-39241">
		<tag k="name" v="Kartveien" />
		<tag k="ssr:date" v="2019-12-27" />
		<tag k="ssr:gruppe" v="veg" />
		<tag k="ssr:hovedgruppe" v="infrastruktur" />
		<tag k="ssr:stedsnr" v="727508" />
		<tag k="ssr:type" v="adressenavn" />
	</node>
	<node lat="61.67641309838328" lon="12.00663819764767" id="-39242">
		<tag k="name" v="Nordberget" />
		<tag k="ssr:date" v="2019-12-27" />
		<tag k="ssr:gruppe" v="veg" />
		<tag k="ssr:hovedgruppe" v="infrastruktur" />
		<tag k="ssr:stedsnr" v="727884" />
		<tag k="ssr:type" v="adressenavn" />
	</node>
	<node lat="62.163144549578035" lon="11.944519873292267" id="-39243">
		<tag k="name" v="Egga" />
		<tag k="ssr:date" v="2019-12-27" />
		<tag k="ssr:gruppe" v="veg" />
		<tag k="ssr:hovedgruppe" v="infrastruktur" />
		<tag k="ssr:stedsnr" v="727970" />
		<tag k="ssr:type" v="adressenavn" />
	</node>
	<node lat="61.971355160863894" lon="11.944566753800332" id="-39246">
		<tag k="name" v="Sorken" />
		<tag k="ssr:date" v="2019-12-27" />
		<tag k="ssr:gruppe" v="veg" />
		<tag k="ssr:hovedgruppe" v="infrastruktur" />
		<tag k="ssr:stedsnr" v="727985" />
		<tag k="ssr:type" v="adressenavn" />
	</node>
	<node lat="61.786368198310434" lon="11.966710011501947" id="-39313">
		<tag k="name" v="Vinterveien" />
		<tag k="ssr:date" v="2019-12-27" />
		<tag k="ssr:gruppe" v="veg" />
		<tag k="ssr:hovedgruppe" v="infrastruktur" />
		<tag k="ssr:stedsnr" v="909934" />
		<tag k="ssr:type" v="adressenavn" />
	</node>
	<node lat="61.97871630296984" lon="11.944912954328556" id="-39316">
		<tag k="name" v="Svartodden" />
		<tag k="ssr:date" v="2019-12-27" />
		<tag k="ssr:gruppe" v="veg" />
		<tag k="ssr:hovedgruppe" v="infrastruktur" />
		<tag k="ssr:stedsnr" v="909983" />
		<tag k="ssr:type" v="adressenavn" />
	</node>
	<node lat="61.60965897461269" lon="12.038059007643538" id="-39332">
		<tag k="name" v="Røneset nord" />
		<tag k="ssr:date" v="2019-12-27" />
		<tag k="ssr:gruppe" v="veg" />
		<tag k="ssr:hovedgruppe" v="infrastruktur" />
		<tag k="ssr:stedsnr" v="788355" />
		<tag k="ssr:type" v="adressenavn" />
	</node>
	<node lat="62.15700030227732" lon="11.907823489975408" id="-39458">
		<tag k="name" v="Elvodden" />
		<tag k="ssr:date" v="2019-12-27" />
		<tag k="ssr:gruppe" v="veg" />
		<tag k="ssr:hovedgruppe" v="infrastruktur" />
		<tag k="ssr:stedsnr" v="849979" />
		<tag k="ssr:type" v="adressenavn" />
	</node>
	<node lat="61.70461879331197" lon="11.725653457578867" id="-39513">
		<tag k="name" v="Furuegga" />
		<tag k="ssr:date" v="2019-12-27" />
		<tag k="ssr:gruppe" v="veg" />
		<tag k="ssr:hovedgruppe" v="infrastruktur" />
		<tag k="ssr:stedsnr" v="909515" />
		<tag k="ssr:type" v="adressenavn" />
	</node>
	<node lat="61.70301767098773" lon="11.725981005737207" id="-39514">
		<tag k="name" v="Elvegga" />
		<tag k="ssr:date" v="2019-12-27" />
		<tag k="ssr:gruppe" v="veg" />
		<tag k="ssr:hovedgruppe" v="infrastruktur" />
		<tag k="ssr:stedsnr" v="909527" />
		<tag k="ssr:type" v="adressenavn" />
	</node>
	<node lat="61.745578237211284" lon="11.75002311774407" id="-39515">
		<tag k="name" v="Granveien" />
		<tag k="ssr:date" v="2019-12-27" />
		<tag k="ssr:gruppe" v="veg" />
		<tag k="ssr:hovedgruppe" v="infrastruktur" />
		<tag k="ssr:stedsnr" v="909531" />
		<tag k="ssr:type" v="adressenavn" />
	</node>
	<node lat="61.70083991596058" lon="11.726591652186373" id="-39516">
		<tag k="name" v="Granbergveien" />
		<tag k="ssr:date" v="2019-12-27" />
		<tag k="ssr:gruppe" v="veg" />
		<tag k="ssr:hovedgruppe" v="infrastruktur" />
		<tag k="ssr:stedsnr" v="909533" />
		<tag k="ssr:type" v="adressenavn" />
	</node>
	<node lat="61.666146345243725" lon="12.066125034155919" id="-39583">
		<tag k="name" v="Storkjølvegen" />
		<tag k="ssr:date" v="2019-12-27" />
		<tag k="ssr:gruppe" v="veg" />
		<tag k="ssr:hovedgruppe" v="infrastruktur" />
		<tag k="ssr:stedsnr" v="970542" />
		<tag k="ssr:type" v="adressenavn" />
	</node>
	<node lat="61.93328734086429" lon="12.13339520637082" id="-39584">
		<tag k="name" v="Gunnarsjøveien" />
		<tag k="ssr:date" v="2019-12-27" />
		<tag k="ssr:gruppe" v="veg" />
		<tag k="ssr:hovedgruppe" v="infrastruktur" />
		<tag k="ssr:stedsnr" v="970759" />
		<tag k="ssr:type" v="adressenavn" />
	</node>
	<node lat="61.61243600799259" lon="12.006544043545249" id="-39585">
		<tag k="name" v="Tverrfjellsætervegen" />
		<tag k="ssr:date" v="2019-12-27" />
		<tag k="ssr:gruppe" v="veg" />
		<tag k="ssr:hovedgruppe" v="infrastruktur" />
		<tag k="ssr:stedsnr" v="970605" />
		<tag k="ssr:type" v="adressenavn" />
	</node>
	<node lat="61.80290494896717" lon="11.917221815559897" id="-39586">
		<tag k="name" v="Storøya" />
		<tag k="ssr:date" v="2019-12-27" />
		<tag k="ssr:gruppe" v="veg" />
		<tag k="ssr:hovedgruppe" v="infrastruktur" />
		<tag k="ssr:stedsnr" v="973464" />
		<tag k="ssr:type" v="adressenavn" />
	</node>
	<node lat="61.652261843302576" lon="12.157320031889245" id="-39587">
		<tag k="name" v="Vakkerhaugen" />
		<tag k="ssr:date" v="2019-12-27" />
		<tag k="ssr:gruppe" v="veg" />
		<tag k="ssr:hovedgruppe" v="infrastruktur" />
		<tag k="ssr:stedsnr" v="973466" />
		<tag k="ssr:type" v="adressenavn" />
	</node>
	<node lat="61.830982645587675" lon="11.95316523795929" id="-39680">
		<tag k="name" v="Risbakken" />
		<tag k="ssr:date" v="2019-12-27" />
		<tag k="ssr:gruppe" v="veg" />
		<tag k="ssr:hovedgruppe" v="infrastruktur" />
		<tag k="ssr:stedsnr" v="60920" />
		<tag k="ssr:type" v="adressenavn" />
	</node>
	<node lat="61.9096917023053" lon="11.947657507970524" id="-39681">
		<tag k="name" v="Femundgropa" />
		<tag k="ssr:date" v="2019-12-27" />
		<tag k="ssr:gruppe" v="veg" />
		<tag k="ssr:hovedgruppe" v="infrastruktur" />
		<tag k="ssr:stedsnr" v="60948" />
		<tag k="ssr:type" v="adressenavn" />
	</node>
	<node lat="61.69943382139549" lon="11.727127944098125" id="-39774">
		<tag k="name" v="Snerta" />
		<tag k="ssr:date" v="2019-12-27" />
		<tag k="ssr:gruppe" v="veg" />
		<tag k="ssr:hovedgruppe" v="infrastruktur" />
		<tag k="ssr:stedsnr" v="120487" />
		<tag k="ssr:type" v="adressenavn" />
	</node>
	<node lat="61.81122025373182" lon="11.942430461484777" id="-39775">
		<tag k="name" v="Tømmerveien" />
		<tag k="ssr:date" v="2019-12-27" />
		<tag k="ssr:gruppe" v="veg" />
		<tag k="ssr:hovedgruppe" v="infrastruktur" />
		<tag k="ssr:stedsnr" v="120909" />
		<tag k="ssr:type" v="adressenavn" />
	</node>
	<node lat="61.890023796815086" lon="12.029962681367534" id="-39777">
		<tag k="name" v="Moalia" />
		<tag k="ssr:date" v="2019-12-27" />
		<tag k="ssr:gruppe" v="veg" />
		<tag k="ssr:hovedgruppe" v="infrastruktur" />
		<tag k="ssr:stedsnr" v="120946" />
		<tag k="ssr:type" v="adressenavn" />
	</node>
	<node lat="61.638043624535285" lon="12.061415739657708" id="-39871">
		<tag k="name" v="Tørrgnollvegen" />
		<tag k="ssr:date" v="2019-12-27" />
		<tag k="ssr:gruppe" v="veg" />
		<tag k="ssr:hovedgruppe" v="infrastruktur" />
		<tag k="ssr:stedsnr" v="181375" />
		<tag k="ssr:type" v="adressenavn" />
	</node>
	<node lat="61.68068151642828" lon="12.035804134847673" id="-39872">
		<tag k="name" v="Gamle Hyllsjøvegen" />
		<tag k="ssr:date" v="2019-12-27" />
		<tag k="ssr:gruppe" v="veg" />
		<tag k="ssr:hovedgruppe" v="infrastruktur" />
		<tag k="ssr:stedsnr" v="181894" />
		<tag k="ssr:type" v="adressenavn" />
	</node>
	<node lat="61.88263259423366" lon="12.030362775457101" id="-39874">
		<tag k="name" v="Nilstrøa" />
		<tag k="ssr:date" v="2019-12-27" />
		<tag k="ssr:gruppe" v="veg" />
		<tag k="ssr:hovedgruppe" v="infrastruktur" />
		<tag k="ssr:stedsnr" v="181954" />
		<tag k="ssr:type" v="adressenavn" />
	</node>
	<node lat="61.608045595190596" lon="12.038771790079835" id="-39983">
		<tag k="name" v="Røneset sør" />
		<tag k="ssr:date" v="2019-12-27" />
		<tag k="ssr:gruppe" v="veg" />
		<tag k="ssr:hovedgruppe" v="infrastruktur" />
		<tag k="ssr:stedsnr" v="302406" />
		<tag k="ssr:type" v="adressenavn" />
	</node>
	<node lat="61.6319294352598" lon="12.035342283408683" id="-39984">
		<tag k="name" v="Litlrøåsvegen" />
		<tag k="ssr:date" v="2019-12-27" />
		<tag k="ssr:gruppe" v="veg" />
		<tag k="ssr:hovedgruppe" v="infrastruktur" />
		<tag k="ssr:stedsnr" v="302409" />
		<tag k="ssr:type" v="adressenavn" />
	</node>
	<node lat="61.633069402850055" lon="12.03641686455814" id="-39985">
		<tag k="name" v="Hylleråsvegen" />
		<tag k="ssr:date" v="2019-12-27" />
		<tag k="ssr:gruppe" v="veg" />
		<tag k="ssr:hovedgruppe" v="infrastruktur" />
		<tag k="ssr:stedsnr" v="302411" />
		<tag k="ssr:type" v="adressenavn" />
	</node>
	<node lat="62.297352775065306" lon="11.962261104620078" id="-39987">
		<tag k="name" v="Haugen" />
		<tag k="ssr:date" v="2019-12-27" />
		<tag k="ssr:gruppe" v="veg" />
		<tag k="ssr:hovedgruppe" v="infrastruktur" />
		<tag k="ssr:stedsnr" v="302552" />
		<tag k="ssr:type" v="adressenavn" />
	</node>
	<node lat="62.014552773495446" lon="12.174025005140898" id="-39988">
		<tag k="name" v="Gutulivollen" />
		<tag k="ssr:date" v="2019-12-27" />
		<tag k="ssr:gruppe" v="veg" />
		<tag k="ssr:hovedgruppe" v="infrastruktur" />
		<tag k="ssr:stedsnr" v="302554" />
		<tag k="ssr:type" v="adressenavn" />
	</node>
	<node lat="61.89979306699869" lon="12.003997732608024" id="-39991">
		<tag k="name" v="Moaveien" />
		<tag k="ssr:date" v="2019-12-27" />
		<tag k="ssr:gruppe" v="veg" />
		<tag k="ssr:hovedgruppe" v="infrastruktur" />
		<tag k="ssr:stedsnr" v="302938" />
		<tag k="ssr:type" v="adressenavn" />
	</node>
	<node lat="61.887173318003875" lon="12.036320186776008" id="-39992">
		<tag k="name" v="Solumveien" />
		<tag k="ssr:date" v="2019-12-27" />
		<tag k="ssr:gruppe" v="veg" />
		<tag k="ssr:hovedgruppe" v="infrastruktur" />
		<tag k="ssr:stedsnr" v="302952" />
		<tag k="ssr:type" v="adressenavn" />
	</node>
	<node lat="61.917870580664484" lon="11.959347039777033" id="-39993">
		<tag k="name" v="Femundveien" />
		<tag k="ssr:date" v="2019-12-27" />
		<tag k="ssr:gruppe" v="veg" />
		<tag k="ssr:hovedgruppe" v="infrastruktur" />
		<tag k="ssr:stedsnr" v="302988" />
		<tag k="ssr:type" v="adressenavn" />
	</node>
	<node lat="61.988442876716014" lon="11.925632872681069" id="-39994">
		<tag k="name" v="Gjermundsvika" />
		<tag k="ssr:date" v="2019-12-27" />
		<tag k="ssr:gruppe" v="veg" />
		<tag k="ssr:hovedgruppe" v="infrastruktur" />
		<tag k="ssr:stedsnr" v="302997" />
		<tag k="ssr:type" v="adressenavn" />
	</node>
	<node lat="61.75893888903289" lon="11.96026666100624" id="-40043">
		<tag k="name" v="Engerdal kommune" />
		<tag k="ssr:date" v="2019-12-27" />
		<tag k="ssr:gruppe" v="administrativeIndelinger" />
		<tag k="ssr:hovedgruppe" v="offentligAdministrasjon" />
		<tag k="ssr:stedsnr" v="328330" />
		<tag k="ssr:type" v="kommune" />
	</node>
	<node lat="61.72322436023535" lon="11.975043509542804" id="-40045">
		<tag k="name" v="Hestbekkveien" />
		<tag k="ssr:date" v="2019-12-27" />
		<tag k="ssr:gruppe" v="veg" />
		<tag k="ssr:hovedgruppe" v="infrastruktur" />
		<tag k="ssr:stedsnr" v="343923" />
		<tag k="ssr:type" v="adressenavn" />
	</node>
	<node lat="61.700583599449274" lon="11.985223270009714" id="-40092">
		<tag k="name" v="Blakkstøtlandet" />
		<tag k="ssr:date" v="2019-12-27" />
		<tag k="ssr:gruppe" v="veg" />
		<tag k="ssr:hovedgruppe" v="infrastruktur" />
		<tag k="ssr:stedsnr" v="363878" />
		<tag k="ssr:type" v="adressenavn" />
	</node>
	<node lat="61.785949909514024" lon="11.972631887887145" id="-40093">
		<tag k="name" v="Bekkfaret" />
		<tag k="ssr:date" v="2019-12-27" />
		<tag k="ssr:gruppe" v="veg" />
		<tag k="ssr:hovedgruppe" v="infrastruktur" />
		<tag k="ssr:stedsnr" v="363907" />
		<tag k="ssr:type" v="adressenavn" />
	</node>
	<node lat="61.89566810934484" lon="12.03770844896147" id="-40096">
		<tag k="name" v="Vollveien" />
		<tag k="ssr:date" v="2019-12-27" />
		<tag k="ssr:gruppe" v="veg" />
		<tag k="ssr:hovedgruppe" v="infrastruktur" />
		<tag k="ssr:stedsnr" v="363960" />
		<tag k="ssr:type" v="adressenavn" />
	</node>
	<node lat="62.15427571788805" lon="11.899411761476147" id="-40097">
		<tag k="name" v="Strandbakken" />
		<tag k="ssr:date" v="2019-12-27" />
		<tag k="ssr:gruppe" v="veg" />
		<tag k="ssr:hovedgruppe" v="infrastruktur" />
		<tag k="ssr:stedsnr" v="363972" />
		<tag k="ssr:type" v="adressenavn" />
	</node>
	<node lat="61.829710033253264" lon="11.728981176611299" id="-40098">
		<tag k="name" v="Blåbærstien" />
		<tag k="ssr:date" v="2019-12-27" />
		<tag k="ssr:gruppe" v="veg" />
		<tag k="ssr:hovedgruppe" v="infrastruktur" />
		<tag k="ssr:stedsnr" v="363974" />
		<tag k="ssr:type" v="adressenavn" />
	</node>
	<node lat="61.670850584120146" lon="11.783545232385723" id="-40168">
		<tag k="name" v="Høybergveien" />
		<tag k="ssr:date" v="2019-12-27" />
		<tag k="ssr:gruppe" v="veg" />
		<tag k="ssr:hovedgruppe" v="infrastruktur" />
		<tag k="ssr:stedsnr" v="420811" />
		<tag k="ssr:type" v="adressenavn" />
	</node>
	<node lat="61.79418391140008" lon="11.955317653911255" id="-40187">
		<tag k="name" v="Bergknausen" />
		<tag k="ssr:date" v="2019-12-27" />
		<tag k="ssr:gruppe" v="veg" />
		<tag k="ssr:hovedgruppe" v="infrastruktur" />
		<tag k="ssr:stedsnr" v="424923" />
		<tag k="ssr:type" v="adressenavn" />
	</node>
	<node lat="61.79034465083091" lon="11.97245487300821" id="-40188">
		<tag k="name" v="Myrbakken" />
		<tag k="ssr:date" v="2019-12-27" />
		<tag k="ssr:gruppe" v="veg" />
		<tag k="ssr:hovedgruppe" v="infrastruktur" />
		<tag k="ssr:stedsnr" v="424924" />
		<tag k="ssr:type" v="adressenavn" />
	</node>
	<node lat="62.15142585225921" lon="11.789495043491144" id="-40189">
		<tag k="name" v="Nålodden" />
		<tag k="ssr:date" v="2019-12-27" />
		<tag k="ssr:gruppe" v="veg" />
		<tag k="ssr:hovedgruppe" v="infrastruktur" />
		<tag k="ssr:stedsnr" v="424931" />
		<tag k="ssr:type" v="adressenavn" />
	</node>
	<node lat="61.671430274031856" lon="11.999784235754609" id="-40190">
		<tag k="name" v="Heggeriset vest" />
		<tag k="ssr:date" v="2019-12-27" />
		<tag k="ssr:gruppe" v="veg" />
		<tag k="ssr:hovedgruppe" v="infrastruktur" />
		<tag k="ssr:stedsnr" v="424885" />
		<tag k="ssr:type" v="adressenavn" />
	</node>
	<node lat="61.76937306898725" lon="11.9541659018651" id="-40191">
		<tag k="name" v="Vesle-Engeren" />
		<tag k="ssr:date" v="2019-12-27" />
		<tag k="ssr:gruppe" v="veg" />
		<tag k="ssr:hovedgruppe" v="infrastruktur" />
		<tag k="ssr:stedsnr" v="424895" />
		<tag k="ssr:type" v="adressenavn" />
	</node>
	<node lat="61.81118822039253" lon="11.707770537300398" id="-40193">
		<tag k="name" v="Sundveien" />
		<tag k="ssr:date" v="2019-12-27" />
		<tag k="ssr:gruppe" v="veg" />
		<tag k="ssr:hovedgruppe" v="infrastruktur" />
		<tag k="ssr:stedsnr" v="424982" />
		<tag k="ssr:type" v="adressenavn" />
	</node>
	<node lat="61.83689274431096" lon="11.7721932532271" id="-40298">
		<tag k="name" v="Sundsæterveien" />
		<tag k="ssr:date" v="2019-12-27" />
		<tag k="ssr:gruppe" v="veg" />
		<tag k="ssr:hovedgruppe" v="infrastruktur" />
		<tag k="ssr:stedsnr" v="541856" />
		<tag k="ssr:type" v="adressenavn" />
	</node>
	<node lat="62.12714194284899" lon="11.702918196744099" id="-40310">
		<tag k="name" v="Buvika" />
		<tag k="ssr:date" v="2019-12-27" />
		<tag k="ssr:gruppe" v="veg" />
		<tag k="ssr:hovedgruppe" v="infrastruktur" />
		<tag k="ssr:stedsnr" v="545936" />
		<tag k="ssr:type" v="adressenavn" />
	</node>
	<node lat="61.67509916605724" lon="12.008336530581133" id="-40405">
		<tag k="name" v="Lisætervegen" />
		<tag k="ssr:date" v="2019-12-27" />
		<tag k="ssr:gruppe" v="veg" />
		<tag k="ssr:hovedgruppe" v="infrastruktur" />
		<tag k="ssr:stedsnr" v="605390" />
		<tag k="ssr:type" v="adressenavn" />
	</node>
	<node lat="61.63280348036725" lon="12.064186235871482" id="-40406">
		<tag k="name" v="Stenåsvegen" />
		<tag k="ssr:date" v="2019-12-27" />
		<tag k="ssr:gruppe" v="veg" />
		<tag k="ssr:hovedgruppe" v="infrastruktur" />
		<tag k="ssr:stedsnr" v="605397" />
		<tag k="ssr:type" v="adressenavn" />
	</node>
	<node lat="61.83059133946662" lon="11.887121328281184" id="-40409">
		<tag k="name" v="Nordre Vollen" />
		<tag k="ssr:date" v="2019-12-27" />
		<tag k="ssr:gruppe" v="veg" />
		<tag k="ssr:hovedgruppe" v="infrastruktur" />
		<tag k="ssr:stedsnr" v="605515" />
		<tag k="ssr:type" v="adressenavn" />
	</node>
	<node lat="61.75466348421215" lon="11.935353314442429" id="-40457">
		<tag k="name" v="Bergesæterveien" />
		<tag k="ssr:date" v="2019-12-27" />
		<tag k="ssr:gruppe" v="veg" />
		<tag k="ssr:hovedgruppe" v="infrastruktur" />
		<tag k="ssr:stedsnr" v="646861" />
		<tag k="ssr:type" v="adressenavn" />
	</node>
	<node lat="61.76285960198668" lon="11.957477980771033" id="-40458">
		<tag k="name" v="Solheimveien" />
		<tag k="ssr:date" v="2019-12-27" />
		<tag k="ssr:gruppe" v="veg" />
		<tag k="ssr:hovedgruppe" v="infrastruktur" />
		<tag k="ssr:stedsnr" v="646863" />
		<tag k="ssr:type" v="adressenavn" />
	</node>
	<node lat="61.65337293855859" lon="12.150548490226628" id="-40500">
		<tag k="name" v="Hemtjønnvegen" />
		<tag k="ssr:date" v="2019-12-27" />
		<tag k="ssr:gruppe" v="veg" />
		<tag k="ssr:hovedgruppe" v="infrastruktur" />
		<tag k="ssr:stedsnr" v="666396" />
		<tag k="ssr:type" v="adressenavn" />
	</node>
	<node lat="61.8456394887592" lon="12.011068291080845" id="-40501">
		<tag k="name" v="Skoglyveien" />
		<tag k="ssr:date" v="2019-12-27" />
		<tag k="ssr:gruppe" v="veg" />
		<tag k="ssr:hovedgruppe" v="infrastruktur" />
		<tag k="ssr:stedsnr" v="666890" />
		<tag k="ssr:type" v="adressenavn" />
	</node>
	<node lat="61.789250091189885" lon="11.97276566984368" id="-40502">
		<tag k="name" v="Blåbæråsen" />
		<tag k="ssr:date" v="2019-12-27" />
		<tag k="ssr:gruppe" v="veg" />
		<tag k="ssr:hovedgruppe" v="infrastruktur" />
		<tag k="ssr:stedsnr" v="666926" />
		<tag k="ssr:type" v="adressenavn" />
	</node>
	<node lat="61.6564583307314" lon="11.83543055628037" id="-40504">
		<tag k="name" v="Kvennbekkveien" />
		<tag k="ssr:date" v="2019-12-27" />
		<tag k="ssr:gruppe" v="veg" />
		<tag k="ssr:hovedgruppe" v="infrastruktur" />
		<tag k="ssr:stedsnr" v="666536" />
		<tag k="ssr:type" v="adressenavn" />
	</node>
	<node lat="62.166649022008315" lon="11.728300156586075" id="-40505">
		<tag k="name" v="Kvennvika" />
		<tag k="ssr:date" v="2019-12-27" />
		<tag k="ssr:gruppe" v="veg" />
		<tag k="ssr:hovedgruppe" v="infrastruktur" />
		<tag k="ssr:stedsnr" v="666933" />
		<tag k="ssr:type" v="adressenavn" />
	</node>
	<node lat="61.892622458688635" lon="12.024066351592014" id="-40506">
		<tag k="name" v="Brennaveien" />
		<tag k="ssr:date" v="2019-12-27" />
		<tag k="ssr:gruppe" v="veg" />
		<tag k="ssr:hovedgruppe" v="infrastruktur" />
		<tag k="ssr:stedsnr" v="666937" />
		<tag k="ssr:type" v="adressenavn" />
	</node>
	<node lat="62.163598180523685" lon="11.944310602651962" id="-40508">
		<tag k="name" v="Risveien" />
		<tag k="ssr:date" v="2019-12-27" />
		<tag k="ssr:gruppe" v="veg" />
		<tag k="ssr:hovedgruppe" v="infrastruktur" />
		<tag k="ssr:stedsnr" v="666965" />
		<tag k="ssr:type" v="adressenavn" />
	</node>
	<node lat="61.897263441879076" lon="12.03961008749345" id="-40546">
		<tag k="name" v="Moatoppen" />
		<tag k="ssr:date" v="2019-12-27" />
		<tag k="ssr:gruppe" v="veg" />
		<tag k="ssr:hovedgruppe" v="infrastruktur" />
		<tag k="ssr:stedsnr" v="727965" />
		<tag k="ssr:type" v="adressenavn" />
	</node>
	<node lat="61.75855017312668" lon="11.956084272731848" id="-40632">
		<tag k="name" v="Utsikten" />
		<tag k="ssr:date" v="2019-12-27" />
		<tag k="ssr:gruppe" v="veg" />
		<tag k="ssr:hovedgruppe" v="infrastruktur" />
		<tag k="ssr:stedsnr" v="788888" />
		<tag k="ssr:type" v="adressenavn" />
	</node>
	<node lat="61.769304718309364" lon="11.963963529144367" id="-40676">
		<tag k="name" v="Ørneveien" />
		<tag k="ssr:date" v="2019-12-27" />
		<tag k="ssr:gruppe" v="veg" />
		<tag k="ssr:hovedgruppe" v="infrastruktur" />
		<tag k="ssr:stedsnr" v="889882" />
		<tag k="ssr:type" v="adressenavn" />
	</node>
	<node lat="61.60898476762322" lon="12.042207132349752" id="-40713">
		<tag k="name" v="Røa" />
		<tag k="ssr:date" v="2019-12-27" />
		<tag k="ssr:gruppe" v="veg" />
		<tag k="ssr:hovedgruppe" v="infrastruktur" />
		<tag k="ssr:stedsnr" v="849387" />
		<tag k="ssr:type" v="adressenavn" />
	</node>
	<node lat="61.629992409978016" lon="12.065866909895583" id="-40714">
		<tag k="name" v="Gammelsætervegen" />
		<tag k="ssr:date" v="2019-12-27" />
		<tag k="ssr:gruppe" v="veg" />
		<tag k="ssr:hovedgruppe" v="infrastruktur" />
		<tag k="ssr:stedsnr" v="849389" />
		<tag k="ssr:type" v="adressenavn" />
	</node>
	<node lat="61.83667621692578" lon="11.86536682861787" id="-40823">
		<tag k="name" v="Kjøllandbakken" />
		<tag k="ssr:date" v="2019-12-27" />
		<tag k="ssr:gruppe" v="veg" />
		<tag k="ssr:hovedgruppe" v="infrastruktur" />
		<tag k="ssr:stedsnr" v="970015" />
		<tag k="ssr:type" v="adressenavn" />
	</node>
	<node lat="61.83839590822188" lon="11.862156435555498" id="-40824">
		<tag k="name" v="Gløtveien" />
		<tag k="ssr:date" v="2019-12-27" />
		<tag k="ssr:gruppe" v="veg" />
		<tag k="ssr:hovedgruppe" v="infrastruktur" />
		<tag k="ssr:stedsnr" v="970018" />
		<tag k="ssr:type" v="adressenavn" />
	</node>
	<node lat="62.23139270245989" lon="11.874725521446479" id="-40825">
		<tag k="name" v="Jonasvollen" />
		<tag k="ssr:date" v="2019-12-27" />
		<tag k="ssr:gruppe" v="veg" />
		<tag k="ssr:hovedgruppe" v="infrastruktur" />
		<tag k="ssr:stedsnr" v="970672" />
		<tag k="ssr:type" v="adressenavn" />
	</node>
	<node lat="61.667908045690936" lon="12.058210636995726" id="-40826">
		<tag k="name" v="Hyllsjøvegen" />
		<tag k="ssr:date" v="2019-12-27" />
		<tag k="ssr:gruppe" v="veg" />
		<tag k="ssr:hovedgruppe" v="infrastruktur" />
		<tag k="ssr:stedsnr" v="970540" />
		<tag k="ssr:type" v="adressenavn" />
	</node>
	<node lat="61.84889467262186" lon="12.020399411083446" id="-40828">
		<tag k="name" v="Kvilten nord" />
		<tag k="ssr:date" v="2019-12-27" />
		<tag k="ssr:gruppe" v="veg" />
		<tag k="ssr:hovedgruppe" v="infrastruktur" />
		<tag k="ssr:stedsnr" v="970639" />
		<tag k="ssr:type" v="adressenavn" />
	</node>
</osm>
