<?xml version="1.0" encoding="UTF-8"?>
<osm version="0.6" generator="osmapis">
	<node lat="61.6402426504628" lon="12.275628462162366" id="-21329">
		<tag k="historic" v="boundary_stone" />
		<tag k="loc_name" v="Litlfjellsrøysa" />
		<tag k="man_made" v="cairn" />
		<tag k="name" v="Lillefjellsrøysa" />
		<tag k="old_name" v="Lislefjelds Røset" />
		<tag k="place" v="locality" />
		<tag k="ssr:date" v="2020-07-10" />
		<tag k="ssr:gruppe" v="administrativeIndelinger" />
		<tag k="ssr:hovedgruppe" v="offentligAdministrasjon" />
		<tag k="ssr:stedsnr" v="231013" />
		<tag k="ssr:type" v="grensemerke" />
	</node>
	<node lat="62.01741943783689" lon="12.224728562661731" id="-21330">
		<tag k="historic" v="boundary_stone" />
		<tag k="man_made" v="cairn" />
		<tag k="name" v="Fjellgutuskaftrøysa" />
		<tag k="old_name" v="Fieldgutuskaft Røset" />
		<tag k="place" v="locality" />
		<tag k="ssr:date" v="2020-07-10" />
		<tag k="ssr:gruppe" v="administrativeIndelinger" />
		<tag k="ssr:hovedgruppe" v="offentligAdministrasjon" />
		<tag k="ssr:stedsnr" v="231067" />
		<tag k="ssr:type" v="grensemerke" />
	</node>
	<node lat="62.12005277514157" lon="12.16911388741509" id="-21331">
		<tag k="fixme" v="consider natural=peak for the most distinct mountains in the district" />
		<tag k="name" v="Digerhogna - Goebletjahke" />
		<tag k="name:no" v="Digerhogna" />
		<tag k="name:sma" v="Goebletjahke" />
		<tag k="natural" v="hill" />
		<tag k="place" v="locality" />
		<tag k="ssr:date" v="2019-12-27" />
		<tag k="ssr:gruppe" v="høyder" />
		<tag k="ssr:hovedgruppe" v="terreng" />
		<tag k="ssr:stedsnr" v="10248" />
		<tag k="ssr:type" v="fjell" />
	</node>
	<node lat="61.646205558970564" lon="11.709288887422215" id="-21332">
		<tag k="fixme" v="consider natural=peak for the most distinct mountains in the district" />
		<tag k="name" v="Gråhøgda" />
		<tag k="natural" v="hill" />
		<tag k="place" v="locality" />
		<tag k="ssr:date" v="2019-12-27" />
		<tag k="ssr:gruppe" v="høyder" />
		<tag k="ssr:hovedgruppe" v="terreng" />
		<tag k="ssr:stedsnr" v="10305" />
		<tag k="ssr:type" v="ås" />
	</node>
	<node lat="61.64966110810628" lon="11.77931389082067" id="-21333">
		<tag k="name" v="Tanggjota" />
		<tag k="natural" v="valley" />
		<tag k="place" v="locality" />
		<tag k="ssr:date" v="2019-12-27" />
		<tag k="ssr:gruppe" v="senkninger" />
		<tag k="ssr:hovedgruppe" v="terreng" />
		<tag k="ssr:stedsnr" v="10307" />
		<tag k="ssr:type" v="søkk" />
	</node>
	<node lat="61.68621666811629" lon="11.787327774122714" id="-21334">
		<tag k="name" v="Sætertjønna" />
		<tag k="natural" v="water" />
		<tag k="ssr:date" v="2019-12-27" />
		<tag k="ssr:gruppe" v="stilleståendeVann" />
		<tag k="ssr:hovedgruppe" v="ferskvann" />
		<tag k="ssr:stedsnr" v="10329" />
		<tag k="ssr:type" v="tjern" />
	</node>
	<node lat="61.646366668552304" lon="11.760094446114916" id="-21335">
		<tag k="alt_name" v="Skjærbekkdalen" />
		<tag k="name" v="Skjerbekkdalen" />
		<tag k="natural" v="valley" />
		<tag k="place" v="locality" />
		<tag k="ssr:date" v="2019-12-27" />
		<tag k="ssr:gruppe" v="senkninger" />
		<tag k="ssr:hovedgruppe" v="terreng" />
		<tag k="ssr:stedsnr" v="10339" />
		<tag k="ssr:type" v="dal" />
	</node>
	<node lat="61.64019999629772" lon="12.275388897330066" id="-21336">
		<tag k="fixme" v="consider natural=peak for the most distinct mountains in the district" />
		<tag k="name" v="Litlfjellet" />
		<tag k="natural" v="hill" />
		<tag k="place" v="locality" />
		<tag k="ssr:date" v="2020-07-10" />
		<tag k="ssr:gruppe" v="høyder" />
		<tag k="ssr:hovedgruppe" v="terreng" />
		<tag k="ssr:stedsnr" v="10484" />
		<tag k="ssr:type" v="ås" />
	</node>
	<node lat="61.68754444048054" lon="12.060374997141114" id="-21337">
		<tag k="name" v="Lebladtjønna" />
		<tag k="natural" v="water" />
		<tag k="ssr:date" v="2019-12-27" />
		<tag k="ssr:gruppe" v="stilleståendeVann" />
		<tag k="ssr:hovedgruppe" v="ferskvann" />
		<tag k="ssr:stedsnr" v="10733" />
		<tag k="ssr:type" v="tjern" />
	</node>
	<node lat="61.76235833732236" lon="12.112991659975393" id="-21338">
		<tag k="alt_name" v="Fuglebekken, s" />
		<tag k="name" v="Søndre Fuglebekken" />
		<tag k="ssr:date" v="2019-12-27" />
		<tag k="ssr:gruppe" v="rennendeVann" />
		<tag k="ssr:hovedgruppe" v="ferskvann" />
		<tag k="ssr:stedsnr" v="10737" />
		<tag k="ssr:type" v="bekk" />
		<tag k="waterway" v="stream" />
	</node>
	<node lat="61.78595000348236" lon="11.714461109946912" id="-21339">
		<tag k="name" v="Bjørbekktjønna" />
		<tag k="natural" v="water" />
		<tag k="ssr:date" v="2019-12-27" />
		<tag k="ssr:gruppe" v="stilleståendeVann" />
		<tag k="ssr:hovedgruppe" v="ferskvann" />
		<tag k="ssr:stedsnr" v="10933" />
		<tag k="ssr:type" v="tjern" />
	</node>
	<node lat="61.7806003669271" lon="11.777412396604083" id="-21340">
		<tag k="name" v="Flåtjønnan" />
		<tag k="natural" v="water" />
		<tag k="ssr:date" v="2020-04-30" />
		<tag k="ssr:gruppe" v="stilleståendeVann" />
		<tag k="ssr:hovedgruppe" v="ferskvann" />
		<tag k="ssr:stedsnr" v="10936" />
		<tag k="ssr:type" v="gruppeAvTjern" />
		<tag k="water" v="lake" />
	</node>
	<node lat="61.79000000332171" lon="11.799761116287923" id="-21341">
		<tag k="name" v="Varmsbekkroa" />
		<tag k="natural" v="valley" />
		<tag k="place" v="locality" />
		<tag k="ssr:date" v="2019-12-27" />
		<tag k="ssr:gruppe" v="senkninger" />
		<tag k="ssr:hovedgruppe" v="terreng" />
		<tag k="ssr:stedsnr" v="10941" />
		<tag k="ssr:type" v="botn" />
	</node>
	<node lat="61.87232500369602" lon="12.160255555373908" id="-21342">
		<tag k="alt_name" v="Vestre Lillebo" />
		<tag k="name" v="Veslbu" />
		<tag k="place" v="locality" />
		<tag k="ssr:date" v="2019-12-27" />
		<tag k="ssr:gruppe" v="gardsbebyggelse" />
		<tag k="ssr:hovedgruppe" v="bebyggelse" />
		<tag k="ssr:stedsnr" v="11110" />
		<tag k="ssr:type" v="eiendom" />
	</node>
	<node lat="62.05737777597415" lon="12.023850007464395" id="-21343">
		<tag k="name" v="Storsjøberget" />
		<tag k="natural" v="hill" />
		<tag k="place" v="locality" />
		<tag k="ssr:date" v="2019-12-27" />
		<tag k="ssr:gruppe" v="høyder" />
		<tag k="ssr:hovedgruppe" v="terreng" />
		<tag k="ssr:stedsnr" v="11282" />
		<tag k="ssr:type" v="berg" />
	</node>
	<node lat="62.03192499892022" lon="11.818658334013685" id="-21344">
		<tag k="name" v="Risbekken" />
		<tag k="ssr:date" v="2019-12-27" />
		<tag k="ssr:gruppe" v="rennendeVann" />
		<tag k="ssr:hovedgruppe" v="ferskvann" />
		<tag k="ssr:stedsnr" v="11290" />
		<tag k="ssr:type" v="bekk" />
		<tag k="waterway" v="stream" />
	</node>
	<node lat="62.052513889192106" lon="11.790708338326363" id="-21345">
		<tag k="name" v="Bjørnfjordvika" />
		<tag k="natural" v="bay" />
		<tag k="ssr:date" v="2019-12-27" />
		<tag k="ssr:gruppe" v="ferskvannskontur" />
		<tag k="ssr:hovedgruppe" v="ferskvann" />
		<tag k="ssr:stedsnr" v="11294" />
		<tag k="ssr:type" v="vik" />
	</node>
	<node lat="62.123650004176945" lon="11.66470555742844" id="-21346">
		<tag k="fixme" v="consider natural=peak for the most distinct mountains in the district" />
		<tag k="name" v="Mikkelsbrenna" />
		<tag k="natural" v="hill" />
		<tag k="place" v="locality" />
		<tag k="ssr:date" v="2021-06-08" />
		<tag k="ssr:gruppe" v="høyder" />
		<tag k="ssr:hovedgruppe" v="terreng" />
		<tag k="ssr:stedsnr" v="11394" />
		<tag k="ssr:type" v="ås" />
	</node>
	<node lat="62.12273333384109" lon="11.624383335213082" id="-21347">
		<tag k="fixme" v="consider natural=peak for the most distinct mountains in the district" />
		<tag k="name" v="Langsjøåsen" />
		<tag k="natural" v="hill" />
		<tag k="place" v="locality" />
		<tag k="ssr:date" v="2019-12-27" />
		<tag k="ssr:gruppe" v="høyder" />
		<tag k="ssr:hovedgruppe" v="terreng" />
		<tag k="ssr:stedsnr" v="11396" />
		<tag k="ssr:type" v="ås" />
	</node>
	<node lat="62.197622224619714" lon="11.943630560395162" id="-21348">
		<tag k="name" v="Langodden" />
		<tag k="natural" v="cape" />
		<tag k="ssr:date" v="2019-12-27" />
		<tag k="ssr:gruppe" v="ferskvannskontur" />
		<tag k="ssr:hovedgruppe" v="ferskvann" />
		<tag k="ssr:stedsnr" v="11678" />
		<tag k="ssr:type" v="nes" />
	</node>
	<node lat="61.83545555956305" lon="12.050027785503861" id="-21349">
		<tag k="name" v="Kvannjota" />
		<tag k="place" v="locality" />
		<tag k="ssr:date" v="2019-12-27" />
		<tag k="ssr:gruppe" v="flater" />
		<tag k="ssr:hovedgruppe" v="terreng" />
		<tag k="ssr:stedsnr" v="11812" />
		<tag k="ssr:type" v="slette" />
	</node>
	<node lat="61.830566664417766" lon="11.97944165741932" id="-21350">
		<tag k="alt_name" v="Hovdkjølen, østre;Hovdkjølen" />
		<tag k="name" v="Østre Hovdkjølen" />
		<tag k="natural" v="wetland" />
		<tag k="ssr:date" v="2019-12-27" />
		<tag k="ssr:gruppe" v="våtmark" />
		<tag k="ssr:hovedgruppe" v="markslag" />
		<tag k="ssr:stedsnr" v="11813" />
		<tag k="ssr:type" v="myr" />
	</node>
	<node lat="61.830819440903646" lon="12.121149998493221" id="-21351">
		<tag k="name" v="Stortjønna" />
		<tag k="natural" v="water" />
		<tag k="ssr:date" v="2019-12-27" />
		<tag k="ssr:gruppe" v="stilleståendeVann" />
		<tag k="ssr:hovedgruppe" v="ferskvann" />
		<tag k="ssr:stedsnr" v="11822" />
		<tag k="ssr:type" v="tjern" />
	</node>
	<node lat="61.826505555275745" lon="12.149758338713648" id="-21352">
		<tag k="alt_name" v="Tollåa, nordre" />
		<tag k="name" v="Nordre Tollåa" />
		<tag k="ssr:date" v="2019-12-27" />
		<tag k="ssr:gruppe" v="rennendeVann" />
		<tag k="ssr:hovedgruppe" v="ferskvann" />
		<tag k="ssr:stedsnr" v="11825" />
		<tag k="ssr:type" v="bekk" />
		<tag k="waterway" v="stream" />
	</node>
	<node lat="61.850550003017055" lon="12.016580554294267" id="-21353">
		<tag k="name" v="Åsheim" />
		<tag k="place" v="farm" />
		<tag k="ssr:date" v="2019-12-27" />
		<tag k="ssr:gruppe" v="gardsbebyggelse" />
		<tag k="ssr:hovedgruppe" v="bebyggelse" />
		<tag k="ssr:stedsnr" v="11828" />
		<tag k="ssr:type" v="bruk" />
	</node>
	<node lat="61.7792802469319" lon="11.977373064330822" id="-21354">
		<tag k="alt_name" v="Ørnhølet" />
		<tag k="name" v="Ørnholet" />
		<tag k="natural" v="valley" />
		<tag k="place" v="locality" />
		<tag k="ssr:date" v="2021-05-19" />
		<tag k="ssr:gruppe" v="senkninger" />
		<tag k="ssr:hovedgruppe" v="terreng" />
		<tag k="ssr:stedsnr" v="11773" />
		<tag k="ssr:type" v="søkk" />
	</node>
	<node lat="61.81342222396997" lon="11.919236107895092" id="-21355">
		<tag k="name" v="Gammeljordet" />
		<tag k="place" v="farm" />
		<tag k="ssr:date" v="2019-12-27" />
		<tag k="ssr:gruppe" v="gardsbebyggelse" />
		<tag k="ssr:hovedgruppe" v="bebyggelse" />
		<tag k="ssr:stedsnr" v="11780" />
		<tag k="ssr:type" v="bruk" />
	</node>
	<node lat="61.98570555201117" lon="11.87390555265628" id="-21356">
		<tag k="name" v="Veslbuvikmyra" />
		<tag k="natural" v="wetland" />
		<tag k="ssr:date" v="2019-12-27" />
		<tag k="ssr:gruppe" v="våtmark" />
		<tag k="ssr:hovedgruppe" v="markslag" />
		<tag k="ssr:stedsnr" v="11902" />
		<tag k="ssr:type" v="myr" />
	</node>
	<node lat="61.989952779078116" lon="11.989638880192436" id="-21357">
		<tag k="alt_name" v="Tolgebekken" />
		<tag k="name" v="Tolgesbekken" />
		<tag k="ssr:date" v="2019-12-27" />
		<tag k="ssr:gruppe" v="rennendeVann" />
		<tag k="ssr:hovedgruppe" v="ferskvann" />
		<tag k="ssr:stedsnr" v="11922" />
		<tag k="ssr:type" v="bekk" />
		<tag k="waterway" v="stream" />
	</node>
	<node lat="61.890358336950925" lon="11.758413898438132" id="-21358">
		<tag k="alt_name" v="Øvre Galten" />
		<tag k="name" v="Galten" />
		<tag k="place" v="farm" />
		<tag k="ssr:date" v="2019-12-27" />
		<tag k="ssr:gruppe" v="gardsbebyggelse" />
		<tag k="ssr:hovedgruppe" v="bebyggelse" />
		<tag k="ssr:stedsnr" v="11986" />
		<tag k="ssr:type" v="bruk" />
	</node>
	<node lat="62.00688332907755" lon="11.750480553266772" id="-21359">
		<tag k="name" v="Stongholmsundet" />
		<tag k="natural" v="strait" />
		<tag k="ssr:date" v="2021-06-08" />
		<tag k="ssr:gruppe" v="ferskvannskontur" />
		<tag k="ssr:hovedgruppe" v="ferskvann" />
		<tag k="ssr:stedsnr" v="20748" />
		<tag k="ssr:type" v="sund" />
	</node>
	<node lat="61.63563055153429" lon="11.850952781139684" id="-21360">
		<tag k="name" v="Vikholmen" />
		<tag k="natural" v="cape" />
		<tag k="ssr:date" v="2019-12-27" />
		<tag k="ssr:gruppe" v="ferskvannskontur" />
		<tag k="ssr:hovedgruppe" v="ferskvann" />
		<tag k="ssr:stedsnr" v="235045" />
		<tag k="ssr:type" v="nes" />
	</node>
	<node lat="62.18311666596373" lon="11.85928334032902" id="-21361">
		<tag k="name" v="Rotvikholmen" />
		<tag k="place" v="islet" />
		<tag k="ssr:date" v="2019-12-27" />
		<tag k="ssr:gruppe" v="ferskvannskontur" />
		<tag k="ssr:hovedgruppe" v="ferskvann" />
		<tag k="ssr:stedsnr" v="236167" />
		<tag k="ssr:type" v="holme" />
	</node>
	<node lat="62.191544440404925" lon="11.867800000847287" id="-21362">
		<tag k="name" v="Stalloddrøstan" />
		<tag k="natural" v="hill" />
		<tag k="place" v="locality" />
		<tag k="ssr:date" v="2019-12-27" />
		<tag k="ssr:gruppe" v="høyder" />
		<tag k="ssr:hovedgruppe" v="terreng" />
		<tag k="ssr:stedsnr" v="236172" />
		<tag k="ssr:type" v="haug" />
	</node>
	<node lat="62.17172777367794" lon="11.864883335788033" id="-21363">
		<tag k="name" v="Svartskvampen" />
		<tag k="natural" v="shoal" />
		<tag k="place" v="locality" />
		<tag k="ssr:date" v="2019-12-27" />
		<tag k="ssr:gruppe" v="grunnerIFerskvann" />
		<tag k="ssr:hovedgruppe" v="ferskvann" />
		<tag k="ssr:stedsnr" v="236223" />
		<tag k="ssr:type" v="grunne" />
	</node>
	<node lat="61.60924722170634" lon="12.035430553633432" id="-21364">
		<tag k="name" v="Røneset" />
		<tag k="natural" v="cape" />
		<tag k="ssr:date" v="2019-12-27" />
		<tag k="ssr:gruppe" v="ferskvannskontur" />
		<tag k="ssr:hovedgruppe" v="ferskvann" />
		<tag k="ssr:stedsnr" v="236581" />
		<tag k="ssr:type" v="nes" />
	</node>
	<node lat="61.83514166676282" lon="12.038269448978685" id="-21365">
		<tag k="name" v="Storbekken" />
		<tag k="ssr:date" v="2019-12-27" />
		<tag k="ssr:gruppe" v="rennendeVann" />
		<tag k="ssr:hovedgruppe" v="ferskvann" />
		<tag k="ssr:stedsnr" v="237017" />
		<tag k="ssr:type" v="bekk" />
		<tag k="waterway" v="stream" />
	</node>
	<node lat="61.881649997179714" lon="11.804463883773998" id="-21366">
		<tag k="name" v="Gråndalen" />
		<tag k="natural" v="valley" />
		<tag k="place" v="locality" />
		<tag k="ssr:date" v="2019-12-27" />
		<tag k="ssr:gruppe" v="senkninger" />
		<tag k="ssr:hovedgruppe" v="terreng" />
		<tag k="ssr:stedsnr" v="41116" />
		<tag k="ssr:type" v="dal" />
	</node>
	<node lat="61.64677499986509" lon="11.762075008823597" id="-21367">
		<tag k="historic" v="shieling" />
		<tag k="name" v="Nymosætra" />
		<tag k="place" v="isolated_dwelling" />
		<tag k="ssr:date" v="2019-12-27" />
		<tag k="ssr:gruppe" v="gardsbebyggelse" />
		<tag k="ssr:hovedgruppe" v="bebyggelse" />
		<tag k="ssr:stedsnr" v="237133" />
		<tag k="ssr:type" v="seterStøl" />
	</node>
	<node lat="61.69713055867176" lon="11.720441660973602" id="-21368">
		<tag k="name" v="Hundsholmen" />
		<tag k="place" v="islet" />
		<tag k="ssr:date" v="2019-12-27" />
		<tag k="ssr:gruppe" v="ferskvannskontur" />
		<tag k="ssr:hovedgruppe" v="ferskvann" />
		<tag k="ssr:stedsnr" v="237160" />
		<tag k="ssr:type" v="holme" />
	</node>
	<node lat="62.05941388633562" lon="12.002763889919585" id="-21369">
		<tag k="name" v="Kjøråa" />
		<tag k="ssr:date" v="2019-12-27" />
		<tag k="ssr:gruppe" v="rennendeVann" />
		<tag k="ssr:hovedgruppe" v="ferskvann" />
		<tag k="ssr:stedsnr" v="237174" />
		<tag k="ssr:type" v="bekk" />
		<tag k="waterway" v="stream" />
	</node>
	<node lat="61.77392500321797" lon="11.932177768916997" id="-21370">
		<tag k="name" v="Nygårdsjota" />
		<tag k="place" v="locality" />
		<tag k="ssr:date" v="2019-12-27" />
		<tag k="ssr:gruppe" v="dyrkamark" />
		<tag k="ssr:hovedgruppe" v="markslag" />
		<tag k="ssr:stedsnr" v="41983" />
		<tag k="ssr:type" v="jorde" />
	</node>
	<node lat="62.0381333352564" lon="11.668177780252973" id="-21371">
		<tag k="name" v="Granhullet" />
		<tag k="natural" v="water" />
		<tag k="ssr:date" v="2019-12-27" />
		<tag k="ssr:gruppe" v="stilleståendeVann" />
		<tag k="ssr:hovedgruppe" v="ferskvann" />
		<tag k="ssr:stedsnr" v="237355" />
		<tag k="ssr:type" v="tjern" />
	</node>
	<node lat="61.84088611444132" lon="11.88807221463831" id="-21372">
		<tag k="name" v="Jakobsbekken" />
		<tag k="ssr:date" v="2019-12-27" />
		<tag k="ssr:gruppe" v="rennendeVann" />
		<tag k="ssr:hovedgruppe" v="ferskvann" />
		<tag k="ssr:stedsnr" v="237372" />
		<tag k="ssr:type" v="bekk" />
		<tag k="waterway" v="stream" />
	</node>
	<node lat="61.6542194424327" lon="12.16127778342121" id="-21373">
		<tag k="fixme" v="consider natural=peak for the most distinct mountains in the district" />
		<tag k="name" v="Gaukåsen" />
		<tag k="natural" v="hill" />
		<tag k="place" v="locality" />
		<tag k="ssr:date" v="2019-12-27" />
		<tag k="ssr:gruppe" v="høyder" />
		<tag k="ssr:hovedgruppe" v="terreng" />
		<tag k="ssr:stedsnr" v="237755" />
		<tag k="ssr:type" v="ås" />
	</node>
	<node lat="61.64805277994716" lon="12.153638882060912" id="-21374">
		<tag k="name" v="Vidammen" />
		<tag k="natural" v="water" />
		<tag k="ssr:date" v="2019-12-27" />
		<tag k="ssr:gruppe" v="stilleståendeVann" />
		<tag k="ssr:hovedgruppe" v="ferskvann" />
		<tag k="ssr:stedsnr" v="237757" />
		<tag k="ssr:type" v="pytt" />
		<tag k="water" v="pond" />
	</node>
	<node lat="61.644061108479455" lon="12.177447229524022" id="-21375">
		<tag k="name" v="Storvien" />
		<tag k="natural" v="wetland" />
		<tag k="ssr:date" v="2019-12-27" />
		<tag k="ssr:gruppe" v="våtmark" />
		<tag k="ssr:hovedgruppe" v="markslag" />
		<tag k="ssr:stedsnr" v="237760" />
		<tag k="ssr:type" v="myr" />
	</node>
	<node lat="61.82974166758095" lon="11.728972228109042" id="-21376">
		<tag k="name" v="Ulvåberget" />
		<tag k="place" v="neighbourhood" />
		<tag k="ssr:date" v="2019-12-27" />
		<tag k="ssr:gruppe" v="bebyggelsesområder" />
		<tag k="ssr:hovedgruppe" v="bebyggelse" />
		<tag k="ssr:stedsnr" v="43925" />
		<tag k="ssr:type" v="hyttefelt" />
	</node>
	<node lat="62.13875278061073" lon="11.933769435924377" id="-21377">
		<tag k="fixme" v="consider natural=peak for the most distinct mountains in the district" />
		<tag k="name" v="Stygglandet" />
		<tag k="natural" v="hill" />
		<tag k="place" v="locality" />
		<tag k="ssr:date" v="2019-12-27" />
		<tag k="ssr:gruppe" v="høyder" />
		<tag k="ssr:hovedgruppe" v="terreng" />
		<tag k="ssr:stedsnr" v="237919" />
		<tag k="ssr:type" v="ås" />
	</node>
	<node lat="62.152599997217465" lon="11.956811111210001" id="-21378">
		<tag k="name" v="Jensloken" />
		<tag k="natural" v="water" />
		<tag k="ssr:date" v="2019-12-27" />
		<tag k="ssr:gruppe" v="stilleståendeVann" />
		<tag k="ssr:hovedgruppe" v="ferskvann" />
		<tag k="ssr:stedsnr" v="238100" />
		<tag k="ssr:type" v="pytt" />
		<tag k="water" v="pond" />
	</node>
	<node lat="62.115980554295476" lon="11.655961103996177" id="-21379">
		<tag k="name" v="Storholmen" />
		<tag k="place" v="islet" />
		<tag k="ssr:date" v="2019-12-27" />
		<tag k="ssr:gruppe" v="ferskvannskontur" />
		<tag k="ssr:hovedgruppe" v="ferskvann" />
		<tag k="ssr:stedsnr" v="238026" />
		<tag k="ssr:type" v="holme" />
	</node>
	<node lat="61.87176944852867" lon="11.98773055925832" id="-21380">
		<tag k="name" v="Hansbakktjønna" />
		<tag k="natural" v="water" />
		<tag k="ssr:date" v="2019-12-27" />
		<tag k="ssr:gruppe" v="stilleståendeVann" />
		<tag k="ssr:hovedgruppe" v="ferskvann" />
		<tag k="ssr:stedsnr" v="238124" />
		<tag k="ssr:type" v="tjern" />
	</node>
	<node lat="61.675747221774884" lon="11.702491673734347" id="-21381">
		<tag k="fixme" v="consider natural=peak for the most distinct mountains in the district" />
		<tag k="name" v="Hølbekkåsen" />
		<tag k="natural" v="hill" />
		<tag k="place" v="locality" />
		<tag k="ssr:date" v="2019-12-27" />
		<tag k="ssr:gruppe" v="høyder" />
		<tag k="ssr:hovedgruppe" v="terreng" />
		<tag k="ssr:stedsnr" v="238198" />
		<tag k="ssr:type" v="ås" />
	</node>
	<node lat="61.92423927975446" lon="11.918889271957843" id="-21382">
		<tag k="name" v="Østre Femundsenden" />
		<tag k="place" v="farm" />
		<tag k="ssr:date" v="2019-12-27" />
		<tag k="ssr:gruppe" v="gardsbebyggelse" />
		<tag k="ssr:hovedgruppe" v="bebyggelse" />
		<tag k="ssr:stedsnr" v="238587" />
		<tag k="ssr:type" v="bruk" />
	</node>
	<node lat="62.01184722336789" lon="12.179077781761945" id="-21383">
		<tag k="name" v="Kølmilmyra" />
		<tag k="natural" v="wetland" />
		<tag k="ssr:date" v="2019-12-27" />
		<tag k="ssr:gruppe" v="våtmark" />
		<tag k="ssr:hovedgruppe" v="markslag" />
		<tag k="ssr:stedsnr" v="238763" />
		<tag k="ssr:type" v="myr" />
	</node>
	<node lat="62.01522500269112" lon="12.181055547434857" id="-21384">
		<tag k="name" v="Hammeren" />
		<tag k="natural" v="hill" />
		<tag k="place" v="locality" />
		<tag k="ssr:date" v="2019-12-27" />
		<tag k="ssr:gruppe" v="høyder" />
		<tag k="ssr:hovedgruppe" v="terreng" />
		<tag k="ssr:stedsnr" v="238764" />
		<tag k="ssr:type" v="høyde" />
	</node>
	<node lat="62.08789999701647" lon="12.133475005239525" id="-21385">
		<tag k="name" v="Rismyra" />
		<tag k="natural" v="wetland" />
		<tag k="ssr:date" v="2019-12-27" />
		<tag k="ssr:gruppe" v="våtmark" />
		<tag k="ssr:hovedgruppe" v="markslag" />
		<tag k="ssr:stedsnr" v="238767" />
		<tag k="ssr:type" v="myr" />
	</node>
	<node lat="61.79376944307967" lon="11.717486104058995" id="-21386">
		<tag k="name" v="Litløenget" />
		<tag k="place" v="locality" />
		<tag k="ssr:date" v="2019-12-27" />
		<tag k="ssr:gruppe" v="dyrkamark" />
		<tag k="ssr:hovedgruppe" v="markslag" />
		<tag k="ssr:stedsnr" v="238848" />
		<tag k="ssr:type" v="utmark" />
	</node>
	<node lat="61.70743611380374" lon="12.041472214692654" id="-21387">
		<tag k="name" v="Fantkjerringmyra" />
		<tag k="natural" v="wetland" />
		<tag k="ssr:date" v="2019-12-27" />
		<tag k="ssr:gruppe" v="våtmark" />
		<tag k="ssr:hovedgruppe" v="markslag" />
		<tag k="ssr:stedsnr" v="239200" />
		<tag k="ssr:type" v="myr" />
	</node>
	<node lat="61.73515000446601" lon="12.019583335674021" id="-21388">
		<tag k="name" v="Svingslåtten" />
		<tag k="place" v="locality" />
		<tag k="ssr:date" v="2019-12-27" />
		<tag k="ssr:gruppe" v="flater" />
		<tag k="ssr:hovedgruppe" v="terreng" />
		<tag k="ssr:stedsnr" v="239201" />
		<tag k="ssr:type" v="slette" />
	</node>
	<node lat="61.60926111494886" lon="12.017563881019873" id="-21389">
		<tag k="name" v="Tverrfjellia" />
		<tag k="natural" v="slope" />
		<tag k="place" v="locality" />
		<tag k="ssr:date" v="2019-12-27" />
		<tag k="ssr:gruppe" v="skråninger" />
		<tag k="ssr:hovedgruppe" v="terreng" />
		<tag k="ssr:stedsnr" v="53421" />
		<tag k="ssr:type" v="li" />
	</node>
	<node lat="61.60363777554021" lon="11.990027631264558" id="-21390">
		<tag k="name" v="Litlskora" />
		<tag k="natural" v="valley" />
		<tag k="place" v="locality" />
		<tag k="ssr:date" v="2021-08-12" />
		<tag k="ssr:gruppe" v="senkninger" />
		<tag k="ssr:hovedgruppe" v="terreng" />
		<tag k="ssr:stedsnr" v="53423" />
		<tag k="ssr:type" v="skar" />
	</node>
	<node lat="61.631719441690535" lon="12.133638885576683" id="-21391">
		<tag k="name" v="Karitjønnan" />
		<tag k="natural" v="water" />
		<tag k="ssr:date" v="2020-05-05" />
		<tag k="ssr:gruppe" v="stilleståendeVann" />
		<tag k="ssr:hovedgruppe" v="ferskvann" />
		<tag k="ssr:stedsnr" v="53567" />
		<tag k="ssr:type" v="gruppeAvTjern" />
		<tag k="water" v="lake" />
	</node>
	<node lat="61.624016663228865" lon="12.195997222701578" id="-21392">
		<tag k="name" v="Støta" />
		<tag k="natural" v="hill" />
		<tag k="place" v="locality" />
		<tag k="ssr:date" v="2019-12-27" />
		<tag k="ssr:gruppe" v="høyder" />
		<tag k="ssr:hovedgruppe" v="terreng" />
		<tag k="ssr:stedsnr" v="53570" />
		<tag k="ssr:type" v="høyde" />
	</node>
	<node lat="61.80156666565599" lon="12.107319453612645" id="-21393">
		<tag k="name" v="Litlsvarttjønna" />
		<tag k="natural" v="water" />
		<tag k="ssr:date" v="2019-12-27" />
		<tag k="ssr:gruppe" v="stilleståendeVann" />
		<tag k="ssr:hovedgruppe" v="ferskvann" />
		<tag k="ssr:stedsnr" v="55053" />
		<tag k="ssr:type" v="tjern" />
	</node>
	<node lat="62.073088886346" lon="11.72256945112034" id="-21394">
		<tag k="name" v="Bekkjølen" />
		<tag k="natural" v="wetland" />
		<tag k="ssr:date" v="2019-12-27" />
		<tag k="ssr:gruppe" v="våtmark" />
		<tag k="ssr:hovedgruppe" v="markslag" />
		<tag k="ssr:stedsnr" v="55367" />
		<tag k="ssr:type" v="myr" />
	</node>
	<node lat="61.862744445798675" lon="11.99014165775376" id="-21395">
		<tag k="name" v="Bjørbekktjønna" />
		<tag k="natural" v="water" />
		<tag k="ssr:date" v="2019-12-27" />
		<tag k="ssr:gruppe" v="stilleståendeVann" />
		<tag k="ssr:hovedgruppe" v="ferskvann" />
		<tag k="ssr:stedsnr" v="56105" />
		<tag k="ssr:type" v="tjern" />
	</node>
	<node lat="62.10783333603793" lon="11.67382500711886" id="-21396">
		<tag k="name" v="Måsåegga" />
		<tag k="natural" v="hill" />
		<tag k="place" v="locality" />
		<tag k="ssr:date" v="2019-12-27" />
		<tag k="ssr:gruppe" v="høyder" />
		<tag k="ssr:hovedgruppe" v="terreng" />
		<tag k="ssr:stedsnr" v="56042" />
		<tag k="ssr:type" v="høyde" />
	</node>
	<node lat="61.80078610872168" lon="11.92375000779062" id="-21397">
		<tag k="name" v="Nordre Sollitjønna" />
		<tag k="natural" v="water" />
		<tag k="ssr:date" v="2019-12-27" />
		<tag k="ssr:gruppe" v="stilleståendeVann" />
		<tag k="ssr:hovedgruppe" v="ferskvann" />
		<tag k="ssr:stedsnr" v="56490" />
		<tag k="ssr:type" v="tjern" />
	</node>
	<node lat="61.67912777616236" lon="11.745663880266507" id="-21398">
		<tag k="name" v="Rankvika" />
		<tag k="natural" v="bay" />
		<tag k="ssr:date" v="2019-12-27" />
		<tag k="ssr:gruppe" v="ferskvannskontur" />
		<tag k="ssr:hovedgruppe" v="ferskvann" />
		<tag k="ssr:stedsnr" v="56818" />
		<tag k="ssr:type" v="vik" />
	</node>
	<node lat="61.808733337539714" lon="11.786569442012249" id="-21399">
		<tag k="name" v="Myrburøsta" />
		<tag k="natural" v="wetland" />
		<tag k="ssr:date" v="2019-12-27" />
		<tag k="ssr:gruppe" v="våtmark" />
		<tag k="ssr:hovedgruppe" v="markslag" />
		<tag k="ssr:stedsnr" v="56821" />
		<tag k="ssr:type" v="myr" />
	</node>
	<node lat="61.673183731574696" lon="11.998127570542351" id="-21400">
		<tag k="landuse" v="meadow" />
		<tag k="name" v="Gjermundskvea" />
		<tag k="ssr:date" v="2019-12-27" />
		<tag k="ssr:gruppe" v="dyrkamark" />
		<tag k="ssr:hovedgruppe" v="markslag" />
		<tag k="ssr:stedsnr" v="56706" />
		<tag k="ssr:type" v="eng" />
	</node>
	<node lat="61.72458333444424" lon="11.72119443998798" id="-21401">
		<tag k="name" v="Sveinmyra" />
		<tag k="natural" v="wetland" />
		<tag k="ssr:date" v="2019-12-27" />
		<tag k="ssr:gruppe" v="våtmark" />
		<tag k="ssr:hovedgruppe" v="markslag" />
		<tag k="ssr:stedsnr" v="56785" />
		<tag k="ssr:type" v="myr" />
	</node>
	<node lat="61.72548333625982" lon="11.939047219541411" id="-21402">
		<tag k="name" v="Jonsæterdalen" />
		<tag k="natural" v="valley" />
		<tag k="place" v="locality" />
		<tag k="ssr:date" v="2019-12-27" />
		<tag k="ssr:gruppe" v="senkninger" />
		<tag k="ssr:hovedgruppe" v="terreng" />
		<tag k="ssr:stedsnr" v="56981" />
		<tag k="ssr:type" v="dal" />
	</node>
	<node lat="62.00126944504899" lon="12.073888882256192" id="-21403">
		<tag k="name" v="Lørjemåsåmyra" />
		<tag k="natural" v="wetland" />
		<tag k="ssr:date" v="2019-12-27" />
		<tag k="ssr:gruppe" v="våtmark" />
		<tag k="ssr:hovedgruppe" v="markslag" />
		<tag k="ssr:stedsnr" v="57091" />
		<tag k="ssr:type" v="myr" />
	</node>
	<node lat="61.82119444167681" lon="11.714500000347202" id="-21404">
		<tag k="name" v="Langbakkmyra" />
		<tag k="natural" v="wetland" />
		<tag k="ssr:date" v="2019-12-27" />
		<tag k="ssr:gruppe" v="våtmark" />
		<tag k="ssr:hovedgruppe" v="markslag" />
		<tag k="ssr:stedsnr" v="58385" />
		<tag k="ssr:type" v="myr" />
	</node>
	<node lat="61.886486113399656" lon="12.007516669792862" id="-21405">
		<tag k="name" v="Blokkodden" />
		<tag k="natural" v="cape" />
		<tag k="ssr:date" v="2019-12-27" />
		<tag k="ssr:gruppe" v="ferskvannskontur" />
		<tag k="ssr:hovedgruppe" v="ferskvann" />
		<tag k="ssr:stedsnr" v="59025" />
		<tag k="ssr:type" v="nes" />
	</node>
	<node lat="61.72156110778875" lon="11.685077770034626" id="-21406">
		<tag k="name" v="Sæterbuvika" />
		<tag k="natural" v="bay" />
		<tag k="ssr:date" v="2019-12-27" />
		<tag k="ssr:gruppe" v="ferskvannskontur" />
		<tag k="ssr:hovedgruppe" v="ferskvann" />
		<tag k="ssr:stedsnr" v="58921" />
		<tag k="ssr:type" v="vik" />
	</node>
	<node lat="61.87638888571357" lon="11.727633339826577" id="-21407">
		<tag k="name" v="Øvre Fallet" />
		<tag k="ssr:date" v="2019-12-27" />
		<tag k="ssr:gruppe" v="rennendeVann" />
		<tag k="ssr:hovedgruppe" v="ferskvann" />
		<tag k="ssr:stedsnr" v="240414" />
		<tag k="ssr:type" v="stryk" />
		<tag k="waterway" v="rapids" />
	</node>
	<node lat="61.86843333253892" lon="11.729236110816807" id="-21408">
		<tag k="name" v="Stengarden" />
		<tag k="natural" v="beach" />
		<tag k="ssr:date" v="2019-12-27" />
		<tag k="ssr:gruppe" v="ferskvannskontur" />
		<tag k="ssr:hovedgruppe" v="ferskvann" />
		<tag k="ssr:stedsnr" v="240416" />
		<tag k="ssr:type" v="strand" />
	</node>
	<node lat="61.63606388605438" lon="12.099583328817287" id="-21409">
		<tag k="name" v="Bjørkrusttjønna" />
		<tag k="natural" v="water" />
		<tag k="ssr:date" v="2019-12-27" />
		<tag k="ssr:gruppe" v="stilleståendeVann" />
		<tag k="ssr:hovedgruppe" v="ferskvann" />
		<tag k="ssr:stedsnr" v="59202" />
		<tag k="ssr:type" v="tjern" />
	</node>
	<node lat="61.629022225223956" lon="12.094347219110608" id="-21410">
		<tag k="name" v="Storkjellmyra" />
		<tag k="natural" v="wetland" />
		<tag k="ssr:date" v="2019-12-27" />
		<tag k="ssr:gruppe" v="våtmark" />
		<tag k="ssr:hovedgruppe" v="markslag" />
		<tag k="ssr:stedsnr" v="59205" />
		<tag k="ssr:type" v="myr" />
	</node>
	<node lat="61.885094447188806" lon="12.007380555599129" id="-21411">
		<tag k="name" v="Blokka" />
		<tag k="natural" v="bay" />
		<tag k="ssr:date" v="2019-12-27" />
		<tag k="ssr:gruppe" v="ferskvannskontur" />
		<tag k="ssr:hovedgruppe" v="ferskvann" />
		<tag k="ssr:stedsnr" v="241022" />
		<tag k="ssr:type" v="vik" />
	</node>
	<node lat="61.63806388735662" lon="12.03244443814777" id="-21412">
		<tag k="name" v="Lund" />
		<tag k="place" v="farm" />
		<tag k="ssr:date" v="2019-12-27" />
		<tag k="ssr:gruppe" v="gardsbebyggelse" />
		<tag k="ssr:hovedgruppe" v="bebyggelse" />
		<tag k="ssr:stedsnr" v="241243" />
		<tag k="ssr:type" v="bruk" />
	</node>
	<node lat="61.64178888864068" lon="12.027369453314275" id="-21413">
		<tag k="name" v="Tytlingneset" />
		<tag k="natural" v="cape" />
		<tag k="ssr:date" v="2019-12-27" />
		<tag k="ssr:gruppe" v="ferskvannskontur" />
		<tag k="ssr:hovedgruppe" v="ferskvann" />
		<tag k="ssr:stedsnr" v="241249" />
		<tag k="ssr:type" v="nes" />
	</node>
	<node lat="61.659588887930916" lon="12.045477783592121" id="-21414">
		<tag k="historic" v="shieling" />
		<tag k="name" v="Svartåssætra" />
		<tag k="place" v="isolated_dwelling" />
		<tag k="ssr:date" v="2019-12-27" />
		<tag k="ssr:gruppe" v="gardsbebyggelse" />
		<tag k="ssr:hovedgruppe" v="bebyggelse" />
		<tag k="ssr:stedsnr" v="70641" />
		<tag k="ssr:type" v="seterStøl" />
	</node>
	<node lat="61.65288333275039" lon="11.829755558150824" id="-21415">
		<tag k="alt_name" v="Husfloen, s" />
		<tag k="name" v="Søndre Husfloen" />
		<tag k="place" v="farm" />
		<tag k="ssr:date" v="2019-12-27" />
		<tag k="ssr:gruppe" v="gardsbebyggelse" />
		<tag k="ssr:hovedgruppe" v="bebyggelse" />
		<tag k="ssr:stedsnr" v="71403" />
		<tag k="ssr:type" v="bruk" />
	</node>
	<node lat="61.84306760093018" lon="12.002497563079011" id="-21416">
		<tag k="alt_name" v="Nybo" />
		<tag k="name" v="Nybø" />
		<tag k="place" v="farm" />
		<tag k="ssr:date" v="2021-06-16" />
		<tag k="ssr:gruppe" v="gardsbebyggelse" />
		<tag k="ssr:hovedgruppe" v="bebyggelse" />
		<tag k="ssr:stedsnr" v="71839" />
		<tag k="ssr:type" v="bruk" />
	</node>
	<node lat="61.84485277866226" lon="11.94631110737924" id="-21417">
		<tag k="name" v="Strandvoll" />
		<tag k="place" v="farm" />
		<tag k="ssr:date" v="2019-12-27" />
		<tag k="ssr:gruppe" v="gardsbebyggelse" />
		<tag k="ssr:hovedgruppe" v="bebyggelse" />
		<tag k="ssr:stedsnr" v="71843" />
		<tag k="ssr:type" v="bruk" />
	</node>
	<node lat="61.978347914962534" lon="11.969472414807415" id="-21418">
		<tag k="name" v="Stenbekktjønnan" />
		<tag k="natural" v="water" />
		<tag k="ssr:date" v="2020-04-30" />
		<tag k="ssr:gruppe" v="stilleståendeVann" />
		<tag k="ssr:hovedgruppe" v="ferskvann" />
		<tag k="ssr:stedsnr" v="71914" />
		<tag k="ssr:type" v="gruppeAvTjern" />
		<tag k="water" v="lake" />
	</node>
	<node lat="61.97994999540516" lon="11.86607500688129" id="-21419">
		<tag k="name" v="Harrbekken" />
		<tag k="ssr:date" v="2019-12-27" />
		<tag k="ssr:gruppe" v="rennendeVann" />
		<tag k="ssr:hovedgruppe" v="ferskvann" />
		<tag k="ssr:stedsnr" v="71916" />
		<tag k="ssr:type" v="bekk" />
		<tag k="waterway" v="stream" />
	</node>
	<node lat="61.99715000204252" lon="12.029277784937992" id="-21420">
		<tag k="name" v="Storflomyra" />
		<tag k="natural" v="wetland" />
		<tag k="ssr:date" v="2019-12-27" />
		<tag k="ssr:gruppe" v="våtmark" />
		<tag k="ssr:hovedgruppe" v="markslag" />
		<tag k="ssr:stedsnr" v="71928" />
		<tag k="ssr:type" v="myr" />
	</node>
	<node lat="61.997083335064254" lon="11.924272223117447" id="-21422">
		<tag k="alt_name" v="Gjermundstjønna" />
		<tag k="name" v="Gjermundtjønna" />
		<tag k="natural" v="water" />
		<tag k="ssr:date" v="2019-12-27" />
		<tag k="ssr:gruppe" v="stilleståendeVann" />
		<tag k="ssr:hovedgruppe" v="ferskvann" />
		<tag k="ssr:stedsnr" v="71940" />
		<tag k="ssr:type" v="tjern" />
	</node>
	<node lat="61.781086107337366" lon="11.729699993519056" id="-21423">
		<tag k="name" v="Volltjønna" />
		<tag k="natural" v="water" />
		<tag k="ssr:date" v="2019-12-27" />
		<tag k="ssr:gruppe" v="stilleståendeVann" />
		<tag k="ssr:hovedgruppe" v="ferskvann" />
		<tag k="ssr:stedsnr" v="71953" />
		<tag k="ssr:type" v="tjern" />
	</node>
	<node lat="61.97916389329331" lon="11.732180561267041" id="-21424">
		<tag k="fixme" v="consider natural=peak for the most distinct mountains in the district" />
		<tag k="name" v="Svalåsen" />
		<tag k="natural" v="hill" />
		<tag k="place" v="locality" />
		<tag k="ssr:date" v="2019-12-27" />
		<tag k="ssr:gruppe" v="høyder" />
		<tag k="ssr:hovedgruppe" v="terreng" />
		<tag k="ssr:stedsnr" v="72079" />
		<tag k="ssr:type" v="ås" />
	</node>
	<node lat="62.169074996829416" lon="12.176533330848327" id="-21425">
		<tag k="name" v="Varga" />
		<tag k="ssr:date" v="2019-12-27" />
		<tag k="ssr:gruppe" v="rennendeVann" />
		<tag k="ssr:hovedgruppe" v="ferskvann" />
		<tag k="ssr:stedsnr" v="72330" />
		<tag k="ssr:type" v="bekk" />
		<tag k="waterway" v="stream" />
	</node>
	<node lat="62.16795833441936" lon="11.943550007919063" id="-21426">
		<tag k="alt_name" v="Søndre Elgåen" />
		<tag k="name" v="Elgåa" />
		<tag k="place" v="farm" />
		<tag k="ssr:date" v="2019-12-27" />
		<tag k="ssr:gruppe" v="gardsbebyggelse" />
		<tag k="ssr:hovedgruppe" v="bebyggelse" />
		<tag k="ssr:stedsnr" v="72331" />
		<tag k="ssr:type" v="bruk" />
	</node>
	<node lat="62.27470832954041" lon="12.032333324672605" id="-21428">
		<tag k="name" v="Falkfangarhøgda" />
		<tag k="natural" v="hill" />
		<tag k="place" v="locality" />
		<tag k="ssr:date" v="2019-12-27" />
		<tag k="ssr:gruppe" v="høyder" />
		<tag k="ssr:hovedgruppe" v="terreng" />
		<tag k="ssr:stedsnr" v="72641" />
		<tag k="ssr:type" v="haug" />
	</node>
	<node lat="62.25663333377811" lon="11.900891673458036" id="-21429">
		<tag k="name" v="Munkfoten" />
		<tag k="natural" v="cape" />
		<tag k="ssr:date" v="2019-12-27" />
		<tag k="ssr:gruppe" v="ferskvannskontur" />
		<tag k="ssr:hovedgruppe" v="ferskvann" />
		<tag k="ssr:stedsnr" v="72646" />
		<tag k="ssr:type" v="nes" />
	</node>
	<node lat="62.30658611018341" lon="11.85490832839902" id="-21430">
		<tag k="name" v="Smålokan" />
		<tag k="natural" v="water" />
		<tag k="ssr:date" v="2019-12-27" />
		<tag k="ssr:gruppe" v="stilleståendeVann" />
		<tag k="ssr:hovedgruppe" v="ferskvann" />
		<tag k="ssr:stedsnr" v="72568" />
		<tag k="ssr:type" v="tjern" />
	</node>
	<node lat="61.77098055667738" lon="11.942594446709373" id="-21431">
		<tag k="name" v="Nordgård" />
		<tag k="place" v="farm" />
		<tag k="ssr:date" v="2019-12-27" />
		<tag k="ssr:gruppe" v="gardsbebyggelse" />
		<tag k="ssr:hovedgruppe" v="bebyggelse" />
		<tag k="ssr:stedsnr" v="72730" />
		<tag k="ssr:type" v="bruk" />
	</node>
	<node lat="61.78047222244823" lon="12.13419444581194" id="-21432">
		<tag k="name" v="Langtjønna" />
		<tag k="natural" v="water" />
		<tag k="ssr:date" v="2019-12-27" />
		<tag k="ssr:gruppe" v="stilleståendeVann" />
		<tag k="ssr:hovedgruppe" v="ferskvann" />
		<tag k="ssr:stedsnr" v="72731" />
		<tag k="ssr:type" v="tjern" />
	</node>
	<node lat="61.77204444771235" lon="11.874158324683647" id="-21433">
		<tag k="alt_name" v="Kvitvordaknappen, s" />
		<tag k="fixme" v="consider natural=peak for the most distinct mountains in the district" />
		<tag k="name" v="Søndre Kvitvolaknappen" />
		<tag k="natural" v="hill" />
		<tag k="place" v="locality" />
		<tag k="ssr:date" v="2019-12-27" />
		<tag k="ssr:gruppe" v="høyder" />
		<tag k="ssr:hovedgruppe" v="terreng" />
		<tag k="ssr:stedsnr" v="72732" />
		<tag k="ssr:type" v="topp" />
	</node>
	<node lat="61.951011110548606" lon="11.883977771073715" id="-21434">
		<tag k="name" v="Gløtbekken" />
		<tag k="ssr:date" v="2019-12-27" />
		<tag k="ssr:gruppe" v="rennendeVann" />
		<tag k="ssr:hovedgruppe" v="ferskvann" />
		<tag k="ssr:stedsnr" v="72867" />
		<tag k="ssr:type" v="bekk" />
		<tag k="waterway" v="stream" />
	</node>
	<node lat="61.90383055139554" lon="12.003908333606189" id="-21435">
		<tag k="building" v="industrial" />
		<tag k="name" v="Drevsjø trelast" />
		<tag k="ssr:date" v="2019-12-27" />
		<tag k="ssr:gruppe" v="næring" />
		<tag k="ssr:hovedgruppe" v="bebyggelse" />
		<tag k="ssr:stedsnr" v="100004" />
		<tag k="ssr:type" v="annenIndustri-OgLagerbygning" />
	</node>
	<node lat="61.89257221913469" lon="12.027327769004856" id="-21436">
		<tag k="name" v="Flaten" />
		<tag k="place" v="farm" />
		<tag k="ssr:date" v="2019-12-27" />
		<tag k="ssr:gruppe" v="gardsbebyggelse" />
		<tag k="ssr:hovedgruppe" v="bebyggelse" />
		<tag k="ssr:stedsnr" v="100022" />
		<tag k="ssr:type" v="bruk" />
	</node>
	<node lat="62.03913333651583" lon="11.73819999414614" id="-21437">
		<tag k="name" v="Orderrøsta" />
		<tag k="natural" v="slope" />
		<tag k="place" v="locality" />
		<tag k="ssr:date" v="2019-12-27" />
		<tag k="ssr:gruppe" v="skråninger" />
		<tag k="ssr:hovedgruppe" v="terreng" />
		<tag k="ssr:stedsnr" v="101078" />
		<tag k="ssr:type" v="li" />
	</node>
	<node lat="61.765527780733656" lon="11.951344444947551" id="-21438">
		<tag k="name" v="Brenneset" />
		<tag k="natural" v="cape" />
		<tag k="ssr:date" v="2019-12-27" />
		<tag k="ssr:gruppe" v="ferskvannskontur" />
		<tag k="ssr:hovedgruppe" v="ferskvann" />
		<tag k="ssr:stedsnr" v="101984" />
		<tag k="ssr:type" v="nes" />
	</node>
	<node lat="61.723819442512685" lon="12.137658332889632" id="-21439">
		<tag k="historic" v="boundary_stone" />
		<tag k="man_made" v="cairn" />
		<tag k="name" v="Herjehognarøysa" />
		<tag k="old_name" v="Herjehaagna Røset" />
		<tag k="place" v="locality" />
		<tag k="ssr:date" v="2019-12-27" />
		<tag k="ssr:gruppe" v="administrativeIndelinger" />
		<tag k="ssr:hovedgruppe" v="offentligAdministrasjon" />
		<tag k="ssr:stedsnr" v="110011" />
		<tag k="ssr:type" v="grensemerke" />
	</node>
	<node lat="61.851083329221304" lon="11.850663882702987" id="-21440">
		<tag k="highway" v="path" />
		<tag k="name" v="Femundsætervegen" />
		<tag k="ssr:date" v="2019-12-27" />
		<tag k="ssr:gruppe" v="veg" />
		<tag k="ssr:hovedgruppe" v="infrastruktur" />
		<tag k="ssr:stedsnr" v="116477" />
		<tag k="ssr:type" v="sti" />
	</node>
	<node lat="62.090566663629915" lon="11.648719453439924" id="-21441">
		<tag k="name" v="Rybekken" />
		<tag k="ssr:date" v="2019-12-27" />
		<tag k="ssr:gruppe" v="rennendeVann" />
		<tag k="ssr:hovedgruppe" v="ferskvann" />
		<tag k="ssr:stedsnr" v="116482" />
		<tag k="ssr:type" v="bekk" />
		<tag k="waterway" v="stream" />
	</node>
	<node lat="61.97703055904032" lon="11.94285278029676" id="-21442">
		<tag k="alt_name" v="Langmyra" />
		<tag k="name" v="Nordstad" />
		<tag k="place" v="farm" />
		<tag k="ssr:date" v="2019-12-27" />
		<tag k="ssr:gruppe" v="gardsbebyggelse" />
		<tag k="ssr:hovedgruppe" v="bebyggelse" />
		<tag k="ssr:stedsnr" v="116614" />
		<tag k="ssr:type" v="bruk" />
	</node>
	<node lat="61.973711114763766" lon="11.947286111310245" id="-21443">
		<tag k="name" v="Østheim" />
		<tag k="old_name" v="Kjellmyra" />
		<tag k="place" v="farm" />
		<tag k="ssr:date" v="2019-12-27" />
		<tag k="ssr:gruppe" v="gardsbebyggelse" />
		<tag k="ssr:hovedgruppe" v="bebyggelse" />
		<tag k="ssr:stedsnr" v="116615" />
		<tag k="ssr:type" v="bruk" />
	</node>
	<node lat="61.67711388607866" lon="12.004455557997908" id="-21444">
		<tag k="name" v="Gjermunds" />
		<tag k="place" v="farm" />
		<tag k="ssr:date" v="2019-12-27" />
		<tag k="ssr:gruppe" v="gardsbebyggelse" />
		<tag k="ssr:hovedgruppe" v="bebyggelse" />
		<tag k="ssr:stedsnr" v="116671" />
		<tag k="ssr:type" v="bruk" />
	</node>
	<node lat="61.679488889209594" lon="12.003533331247125" id="-21445">
		<tag k="landuse" v="meadow" />
		<tag k="name" v="Lortstranda" />
		<tag k="ssr:date" v="2019-12-27" />
		<tag k="ssr:gruppe" v="dyrkamark" />
		<tag k="ssr:hovedgruppe" v="markslag" />
		<tag k="ssr:stedsnr" v="116674" />
		<tag k="ssr:type" v="eng" />
	</node>
	<node lat="61.67668889027972" lon="12.006738883003283" id="-21446">
		<tag k="name" v="Oppgård" />
		<tag k="place" v="farm" />
		<tag k="ssr:date" v="2019-12-27" />
		<tag k="ssr:gruppe" v="gardsbebyggelse" />
		<tag k="ssr:hovedgruppe" v="bebyggelse" />
		<tag k="ssr:stedsnr" v="116678" />
		<tag k="ssr:type" v="bruk" />
	</node>
	<node lat="61.833241669213535" lon="11.827288881671372" id="-21447">
		<tag k="name" v="Tørrbrenna" />
		<tag k="place" v="locality" />
		<tag k="ssr:date" v="2019-12-27" />
		<tag k="ssr:gruppe" v="flater" />
		<tag k="ssr:hovedgruppe" v="terreng" />
		<tag k="ssr:stedsnr" v="116367" />
		<tag k="ssr:type" v="slette" />
	</node>
	<node lat="61.84013888679824" lon="11.816805545924572" id="-21448">
		<tag k="name" v="Eggen" />
		<tag k="natural" v="water" />
		<tag k="ssr:date" v="2019-12-27" />
		<tag k="ssr:gruppe" v="stilleståendeVann" />
		<tag k="ssr:hovedgruppe" v="ferskvann" />
		<tag k="ssr:stedsnr" v="116372" />
		<tag k="ssr:type" v="pytt" />
		<tag k="water" v="pond" />
	</node>
	<node lat="62.07179166768395" lon="11.816058331670922" id="-21449">
		<tag k="name" v="Joneset" />
		<tag k="natural" v="cape" />
		<tag k="ssr:date" v="2019-12-27" />
		<tag k="ssr:gruppe" v="ferskvannskontur" />
		<tag k="ssr:hovedgruppe" v="ferskvann" />
		<tag k="ssr:stedsnr" v="116380" />
		<tag k="ssr:type" v="nes" />
	</node>
	<node lat="61.85599999912571" lon="11.820811113770722" id="-21450">
		<tag k="name" v="Veslemyra" />
		<tag k="natural" v="wetland" />
		<tag k="ssr:date" v="2019-12-27" />
		<tag k="ssr:gruppe" v="våtmark" />
		<tag k="ssr:hovedgruppe" v="markslag" />
		<tag k="ssr:stedsnr" v="116386" />
		<tag k="ssr:type" v="myr" />
	</node>
	<node lat="61.93562500173912" lon="11.869030559984738" id="-21451">
		<tag k="name" v="Gløtfossdammen" />
		<tag k="ssr:date" v="2019-12-27" />
		<tag k="ssr:gruppe" v="stilleståendeVann" />
		<tag k="ssr:hovedgruppe" v="ferskvann" />
		<tag k="ssr:stedsnr" v="116522" />
		<tag k="ssr:type" v="dam" />
		<tag k="waterway" v="dam" />
	</node>
	<node lat="62.09924999970378" lon="12.014583338591574" id="-21452">
		<tag k="name" v="Rognrusta" />
		<tag k="natural" v="slope" />
		<tag k="place" v="locality" />
		<tag k="ssr:date" v="2019-12-27" />
		<tag k="ssr:gruppe" v="skråninger" />
		<tag k="ssr:hovedgruppe" v="terreng" />
		<tag k="ssr:stedsnr" v="116768" />
		<tag k="ssr:type" v="li" />
	</node>
	<node lat="61.821966663602794" lon="11.724391665054211" id="-21453">
		<tag k="highway" v="path" />
		<tag k="name" v="Sætervegen" />
		<tag k="ssr:date" v="2019-12-27" />
		<tag k="ssr:gruppe" v="veg" />
		<tag k="ssr:hovedgruppe" v="infrastruktur" />
		<tag k="ssr:stedsnr" v="119378" />
		<tag k="ssr:type" v="sti" />
	</node>
	<node lat="61.74824166564472" lon="11.74928055030204" id="-21454">
		<tag k="alt_name" v="Åsgård" />
		<tag k="name" v="Åsgard" />
		<tag k="place" v="farm" />
		<tag k="ssr:date" v="2019-12-27" />
		<tag k="ssr:gruppe" v="gardsbebyggelse" />
		<tag k="ssr:hovedgruppe" v="bebyggelse" />
		<tag k="ssr:stedsnr" v="252233" />
		<tag k="ssr:type" v="bruk" />
	</node>
	<node lat="61.72766111201316" lon="11.75284444736095" id="-21455">
		<tag k="name" v="Snertøya" />
		<tag k="place" v="isolated_dwelling" />
		<tag k="ssr:date" v="2019-12-27" />
		<tag k="ssr:gruppe" v="bolighus" />
		<tag k="ssr:hovedgruppe" v="bebyggelse" />
		<tag k="ssr:stedsnr" v="252250" />
		<tag k="ssr:type" v="fritidsbolig" />
	</node>
	<node lat="61.655230554952546" lon="12.20761111623771" id="-21456">
		<tag k="name" v="Trangjota" />
		<tag k="natural" v="valley" />
		<tag k="old_name" v="Tronggjota" />
		<tag k="place" v="locality" />
		<tag k="ssr:date" v="2019-12-27" />
		<tag k="ssr:gruppe" v="senkninger" />
		<tag k="ssr:hovedgruppe" v="terreng" />
		<tag k="ssr:stedsnr" v="252584" />
		<tag k="ssr:type" v="søkk" />
	</node>
	<node lat="61.64201666991086" lon="11.784894437344322" id="-21457">
		<tag k="name" v="Svarttjønna" />
		<tag k="natural" v="water" />
		<tag k="ssr:date" v="2019-12-27" />
		<tag k="ssr:gruppe" v="stilleståendeVann" />
		<tag k="ssr:hovedgruppe" v="ferskvann" />
		<tag k="ssr:stedsnr" v="131308" />
		<tag k="ssr:type" v="tjern" />
	</node>
	<node lat="61.66412778068803" lon="11.978491673109085" id="-21458">
		<tag k="historic" v="shieling" />
		<tag k="name" v="Gnollsætra" />
		<tag k="place" v="isolated_dwelling" />
		<tag k="ssr:date" v="2019-12-27" />
		<tag k="ssr:gruppe" v="gardsbebyggelse" />
		<tag k="ssr:hovedgruppe" v="bebyggelse" />
		<tag k="ssr:stedsnr" v="252594" />
		<tag k="ssr:type" v="seterStøl" />
	</node>
	<node lat="61.66416110713301" lon="12.187016668931946" id="-21459">
		<tag k="name" v="Krokbekkjølen" />
		<tag k="natural" v="wetland" />
		<tag k="ssr:date" v="2019-12-27" />
		<tag k="ssr:gruppe" v="våtmark" />
		<tag k="ssr:hovedgruppe" v="markslag" />
		<tag k="ssr:stedsnr" v="252598" />
		<tag k="ssr:type" v="myr" />
	</node>
	<node lat="61.67139722214145" lon="12.139383329953848" id="-21460">
		<tag k="name" v="Grøttjønna" />
		<tag k="natural" v="water" />
		<tag k="ssr:date" v="2019-12-27" />
		<tag k="ssr:gruppe" v="stilleståendeVann" />
		<tag k="ssr:hovedgruppe" v="ferskvann" />
		<tag k="ssr:stedsnr" v="252604" />
		<tag k="ssr:type" v="tjern" />
	</node>
	<node lat="62.09624134995338" lon="11.813681235175286" id="-21461">
		<tag k="alt_name" v="Sollerøya, l;Lille Sollerøya" />
		<tag k="loc_name" v="Litlsoldera;Veslsoldera" />
		<tag k="name" v="Litle Sollerøya" />
		<tag k="place" v="islet" />
		<tag k="ssr:date" v="2020-09-24" />
		<tag k="ssr:gruppe" v="ferskvannskontur" />
		<tag k="ssr:hovedgruppe" v="ferskvann" />
		<tag k="ssr:stedsnr" v="131269" />
		<tag k="ssr:type" v="holme" />
	</node>
	<node lat="61.72977222585432" lon="11.772897227434832" id="-21462">
		<tag k="name" v="Snertådalen" />
		<tag k="natural" v="valley" />
		<tag k="place" v="locality" />
		<tag k="ssr:date" v="2019-12-27" />
		<tag k="ssr:gruppe" v="senkninger" />
		<tag k="ssr:hovedgruppe" v="terreng" />
		<tag k="ssr:stedsnr" v="131270" />
		<tag k="ssr:type" v="dal" />
	</node>
	<node lat="61.64560278211969" lon="12.165608333798419" id="-21463">
		<tag k="name" v="Hoptjønna" />
		<tag k="natural" v="water" />
		<tag k="ssr:date" v="2019-12-27" />
		<tag k="ssr:gruppe" v="stilleståendeVann" />
		<tag k="ssr:hovedgruppe" v="ferskvann" />
		<tag k="ssr:stedsnr" v="252647" />
		<tag k="ssr:type" v="tjern" />
	</node>
	<node lat="62.05901944584359" lon="11.605027779626353" id="-21464">
		<tag k="name" v="Litlebuvatnet" />
		<tag k="natural" v="water" />
		<tag k="ssr:date" v="2019-12-27" />
		<tag k="ssr:gruppe" v="stilleståendeVann" />
		<tag k="ssr:hovedgruppe" v="ferskvann" />
		<tag k="ssr:stedsnr" v="131381" />
		<tag k="ssr:type" v="tjern" />
	</node>
	<node lat="61.62022222285831" lon="12.05275834199743" id="-21465">
		<tag k="name" v="Basdalen" />
		<tag k="natural" v="valley" />
		<tag k="place" v="locality" />
		<tag k="ssr:date" v="2019-12-27" />
		<tag k="ssr:gruppe" v="senkninger" />
		<tag k="ssr:hovedgruppe" v="terreng" />
		<tag k="ssr:stedsnr" v="252651" />
		<tag k="ssr:type" v="dal" />
	</node>
	<node lat="61.77067222556605" lon="12.02281944373641" id="-21466">
		<tag k="name" v="Røskalhøgda" />
		<tag k="natural" v="hill" />
		<tag k="place" v="locality" />
		<tag k="ssr:date" v="2019-12-27" />
		<tag k="ssr:gruppe" v="høyder" />
		<tag k="ssr:hovedgruppe" v="terreng" />
		<tag k="ssr:stedsnr" v="131763" />
		<tag k="ssr:type" v="høyde" />
	</node>
	<node lat="61.75586111476292" lon="11.981294450300409" id="-21467">
		<tag k="name" v="Sagbekken" />
		<tag k="ssr:date" v="2019-12-27" />
		<tag k="ssr:gruppe" v="rennendeVann" />
		<tag k="ssr:hovedgruppe" v="ferskvann" />
		<tag k="ssr:stedsnr" v="132102" />
		<tag k="ssr:type" v="bekk" />
		<tag k="waterway" v="stream" />
	</node>
	<node lat="62.192113884731675" lon="11.873630558485175" id="-21468">
		<tag k="name" v="Stalloddan" />
		<tag k="natural" v="cape" />
		<tag k="ssr:date" v="2021-06-08" />
		<tag k="ssr:gruppe" v="ferskvannskontur" />
		<tag k="ssr:hovedgruppe" v="ferskvann" />
		<tag k="ssr:stedsnr" v="132309" />
		<tag k="ssr:type" v="nes" />
	</node>
	<node lat="62.314780554183066" lon="11.876941661147299" id="-21469">
		<tag k="name" v="Hyttbekken" />
		<tag k="ssr:date" v="2019-12-27" />
		<tag k="ssr:gruppe" v="rennendeVann" />
		<tag k="ssr:hovedgruppe" v="ferskvann" />
		<tag k="ssr:stedsnr" v="132561" />
		<tag k="ssr:type" v="bekk" />
		<tag k="waterway" v="stream" />
	</node>
	<node lat="61.7524409060963" lon="11.967051419945536" id="-21470">
		<tag k="fixme" v="consider place=hamlet" />
		<tag k="name" v="Semings" />
		<tag k="old_name" v="Slettmoen" />
		<tag k="place" v="farm" />
		<tag k="ssr:date" v="2020-04-28" />
		<tag k="ssr:gruppe" v="gardsbebyggelse" />
		<tag k="ssr:hovedgruppe" v="bebyggelse" />
		<tag k="ssr:stedsnr" v="132721" />
		<tag k="ssr:type" v="gard" />
	</node>
	<node lat="62.00777777597452" lon="12.06560000590154" id="-21471">
		<tag k="historic" v="shieling" />
		<tag k="loc_name" v="Bekkedalssætra" />
		<tag k="name" v="Bekkdalssætra" />
		<tag k="place" v="isolated_dwelling" />
		<tag k="ssr:date" v="2019-12-27" />
		<tag k="ssr:gruppe" v="gardsbebyggelse" />
		<tag k="ssr:hovedgruppe" v="bebyggelse" />
		<tag k="ssr:stedsnr" v="132737" />
		<tag k="ssr:type" v="seterStøl" />
	</node>
	<node lat="61.77111944089442" lon="12.124688880436267" id="-21472">
		<tag k="name" v="Bjørntjønna" />
		<tag k="natural" v="water" />
		<tag k="ssr:date" v="2019-12-27" />
		<tag k="ssr:gruppe" v="stilleståendeVann" />
		<tag k="ssr:hovedgruppe" v="ferskvann" />
		<tag k="ssr:stedsnr" v="132749" />
		<tag k="ssr:type" v="tjern" />
	</node>
	<node lat="61.8418166644531" lon="11.900666666977454" id="-21473">
		<tag k="alt_name" v="Vordskaftet" />
		<tag k="name" v="Volskaftet" />
		<tag k="natural" v="hill" />
		<tag k="place" v="locality" />
		<tag k="ssr:date" v="2019-12-27" />
		<tag k="ssr:gruppe" v="høyder" />
		<tag k="ssr:hovedgruppe" v="terreng" />
		<tag k="ssr:stedsnr" v="132823" />
		<tag k="ssr:type" v="haug" />
	</node>
	<node lat="61.84405277357691" lon="11.881694437326694" id="-21474">
		<tag k="name" v="Halamyra" />
		<tag k="natural" v="wetland" />
		<tag k="ssr:date" v="2019-12-27" />
		<tag k="ssr:gruppe" v="våtmark" />
		<tag k="ssr:hovedgruppe" v="markslag" />
		<tag k="ssr:stedsnr" v="132826" />
		<tag k="ssr:type" v="myr" />
	</node>
	<node lat="61.99775278079746" lon="11.878524992658603" id="-21475">
		<tag k="alt_name" v="Storbufloen" />
		<tag k="name" v="Storbuvikfloen" />
		<tag k="natural" v="wetland" />
		<tag k="ssr:date" v="2019-12-27" />
		<tag k="ssr:gruppe" v="våtmark" />
		<tag k="ssr:hovedgruppe" v="markslag" />
		<tag k="ssr:stedsnr" v="132915" />
		<tag k="ssr:type" v="myr" />
	</node>
	<node lat="61.779511111417385" lon="11.81984444215608" id="-21476">
		<tag k="name" v="Gråhøgda" />
		<tag k="natural" v="hill" />
		<tag k="place" v="locality" />
		<tag k="ssr:date" v="2019-12-27" />
		<tag k="ssr:gruppe" v="høyder" />
		<tag k="ssr:hovedgruppe" v="terreng" />
		<tag k="ssr:stedsnr" v="132918" />
		<tag k="ssr:type" v="haug" />
	</node>
	<node lat="61.76840000169429" lon="11.696586112231008" id="-21477">
		<tag k="name" v="Stormyra" />
		<tag k="natural" v="wetland" />
		<tag k="ssr:date" v="2019-12-27" />
		<tag k="ssr:gruppe" v="våtmark" />
		<tag k="ssr:hovedgruppe" v="markslag" />
		<tag k="ssr:stedsnr" v="132921" />
		<tag k="ssr:type" v="myr" />
	</node>
	<node lat="61.76315555530726" lon="11.65487499713784" id="-21478">
		<tag k="name" v="Elvsætra" />
		<tag k="place" v="farm" />
		<tag k="ssr:date" v="2019-12-27" />
		<tag k="ssr:gruppe" v="gardsbebyggelse" />
		<tag k="ssr:hovedgruppe" v="bebyggelse" />
		<tag k="ssr:stedsnr" v="132925" />
		<tag k="ssr:type" v="bruk" />
	</node>
	<node lat="61.85029999828432" lon="11.758174996620436" id="-21479">
		<tag k="name" v="Søndre Holtjønna" />
		<tag k="natural" v="water" />
		<tag k="ssr:date" v="2021-06-08" />
		<tag k="ssr:gruppe" v="stilleståendeVann" />
		<tag k="ssr:hovedgruppe" v="ferskvann" />
		<tag k="ssr:stedsnr" v="132965" />
		<tag k="ssr:type" v="tjern" />
	</node>
	<node lat="61.89563075162251" lon="12.010977959269887" id="-21480">
		<tag k="name" v="Drevsjømoen" />
		<tag k="place" v="locality" />
		<tag k="ssr:date" v="2020-04-28" />
		<tag k="ssr:gruppe" v="gardsbebyggelse" />
		<tag k="ssr:hovedgruppe" v="bebyggelse" />
		<tag k="ssr:stedsnr" v="132859" />
		<tag k="ssr:type" v="eiendom" />
	</node>
	<node lat="61.92225277625217" lon="12.173341665362047" id="-21481">
		<tag k="name" v="Skjervagtjønna" />
		<tag k="natural" v="water" />
		<tag k="ssr:date" v="2019-12-27" />
		<tag k="ssr:gruppe" v="stilleståendeVann" />
		<tag k="ssr:hovedgruppe" v="ferskvann" />
		<tag k="ssr:stedsnr" v="132862" />
		<tag k="ssr:type" v="tjern" />
	</node>
	<node lat="61.94550277705814" lon="12.094269440810526" id="-21482">
		<tag k="name" v="Kornandermyra" />
		<tag k="natural" v="wetland" />
		<tag k="ssr:date" v="2019-12-27" />
		<tag k="ssr:gruppe" v="våtmark" />
		<tag k="ssr:hovedgruppe" v="markslag" />
		<tag k="ssr:stedsnr" v="132868" />
		<tag k="ssr:type" v="myr" />
	</node>
	<node lat="62.18435277646241" lon="12.054677776432285" id="-21483">
		<tag k="name" v="Sandtjønna" />
		<tag k="natural" v="water" />
		<tag k="ssr:date" v="2019-12-27" />
		<tag k="ssr:gruppe" v="stilleståendeVann" />
		<tag k="ssr:hovedgruppe" v="ferskvann" />
		<tag k="ssr:stedsnr" v="253392" />
		<tag k="ssr:type" v="tjern" />
	</node>
	<node lat="62.22070555151795" lon="11.868016668860438" id="-21484">
		<tag k="name" v="Bergvika" />
		<tag k="natural" v="bay" />
		<tag k="ssr:date" v="2021-06-08" />
		<tag k="ssr:gruppe" v="ferskvannskontur" />
		<tag k="ssr:hovedgruppe" v="ferskvann" />
		<tag k="ssr:stedsnr" v="253367" />
		<tag k="ssr:type" v="vik" />
	</node>
	<node lat="62.16341389011555" lon="11.951047229783265" id="-21485">
		<tag k="name" v="Egga" />
		<tag k="place" v="farm" />
		<tag k="ssr:date" v="2019-12-27" />
		<tag k="ssr:gruppe" v="gardsbebyggelse" />
		<tag k="ssr:hovedgruppe" v="bebyggelse" />
		<tag k="ssr:stedsnr" v="253409" />
		<tag k="ssr:type" v="bruk" />
	</node>
	<node lat="61.696008332483125" lon="11.75456110612467" id="-21486">
		<tag k="name" v="Ås" />
		<tag k="place" v="farm" />
		<tag k="ssr:date" v="2019-12-27" />
		<tag k="ssr:gruppe" v="gardsbebyggelse" />
		<tag k="ssr:hovedgruppe" v="bebyggelse" />
		<tag k="ssr:stedsnr" v="253412" />
		<tag k="ssr:type" v="bruk" />
	</node>
	<node lat="62.172088890398015" lon="11.93846111050327" id="-21487">
		<tag k="name" v="Hansodden" />
		<tag k="natural" v="cape" />
		<tag k="ssr:date" v="2019-12-27" />
		<tag k="ssr:gruppe" v="ferskvannskontur" />
		<tag k="ssr:hovedgruppe" v="ferskvann" />
		<tag k="ssr:stedsnr" v="253416" />
		<tag k="ssr:type" v="nes" />
	</node>
	<node lat="62.05280383610658" lon="11.694808162246323" id="-21488">
		<tag k="name" v="Sømå" />
		<tag k="old_name" v="Sømåa" />
		<tag k="place" v="locality" />
		<tag k="ssr:date" v="2020-04-29" />
		<tag k="ssr:gruppe" v="gardsbebyggelse" />
		<tag k="ssr:hovedgruppe" v="bebyggelse" />
		<tag k="ssr:stedsnr" v="253470" />
		<tag k="ssr:type" v="eiendom" />
	</node>
	<node lat="62.05250555971573" lon="11.688574994238786" id="-21489">
		<tag k="name" v="Vesterheim" />
		<tag k="place" v="farm" />
		<tag k="ssr:date" v="2019-12-27" />
		<tag k="ssr:gruppe" v="gardsbebyggelse" />
		<tag k="ssr:hovedgruppe" v="bebyggelse" />
		<tag k="ssr:stedsnr" v="253471" />
		<tag k="ssr:type" v="bruk" />
	</node>
	<node lat="62.04262777518573" lon="11.7129750077153" id="-21490">
		<tag k="name" v="Hovden" />
		<tag k="place" v="farm" />
		<tag k="ssr:date" v="2019-12-27" />
		<tag k="ssr:gruppe" v="gardsbebyggelse" />
		<tag k="ssr:hovedgruppe" v="bebyggelse" />
		<tag k="ssr:stedsnr" v="253473" />
		<tag k="ssr:type" v="bruk" />
	</node>
	<node lat="61.633813893239214" lon="12.244900003331074" id="-21491">
		<tag k="name" v="Skagatjønna" />
		<tag k="natural" v="water" />
		<tag k="ssr:date" v="2019-12-27" />
		<tag k="ssr:gruppe" v="stilleståendeVann" />
		<tag k="ssr:hovedgruppe" v="ferskvann" />
		<tag k="ssr:stedsnr" v="253533" />
		<tag k="ssr:type" v="tjern" />
	</node>
	<node lat="61.70657612267375" lon="11.925507726078106" id="-21492">
		<tag k="alt_name" v="Bjønnskåra" />
		<tag k="name" v="Bjørnskora" />
		<tag k="natural" v="valley" />
		<tag k="place" v="locality" />
		<tag k="ssr:date" v="2021-08-12" />
		<tag k="ssr:gruppe" v="senkninger" />
		<tag k="ssr:hovedgruppe" v="terreng" />
		<tag k="ssr:stedsnr" v="253757" />
		<tag k="ssr:type" v="skar" />
	</node>
	<node lat="61.70180000074483" lon="11.870999996133762" id="-21493">
		<tag k="name" v="Tuvflået" />
		<tag k="natural" v="wetland" />
		<tag k="ssr:date" v="2019-12-27" />
		<tag k="ssr:gruppe" v="våtmark" />
		<tag k="ssr:hovedgruppe" v="markslag" />
		<tag k="ssr:stedsnr" v="253760" />
		<tag k="ssr:type" v="myr" />
	</node>
	<node lat="61.731750002339425" lon="12.042691673363427" id="-21494">
		<tag k="name" v="Blakkmoen" />
		<tag k="place" v="locality" />
		<tag k="ssr:date" v="2019-12-27" />
		<tag k="ssr:gruppe" v="flater" />
		<tag k="ssr:hovedgruppe" v="terreng" />
		<tag k="ssr:stedsnr" v="253699" />
		<tag k="ssr:type" v="mo" />
	</node>
	<node lat="61.83616666811453" lon="11.952452773606488" id="-21495">
		<tag k="alt_name" v="Østgård" />
		<tag k="name" v="Nygård" />
		<tag k="place" v="farm" />
		<tag k="ssr:date" v="2019-12-27" />
		<tag k="ssr:gruppe" v="gardsbebyggelse" />
		<tag k="ssr:hovedgruppe" v="bebyggelse" />
		<tag k="ssr:stedsnr" v="253820" />
		<tag k="ssr:type" v="bruk" />
	</node>
	<node lat="61.833397222587806" lon="11.882447217832063" id="-21496">
		<tag k="alt_name" v="Nordre Vollen" />
		<tag k="historic" v="shieling" />
		<tag k="name" v="Nordrevollen" />
		<tag k="place" v="isolated_dwelling" />
		<tag k="ssr:date" v="2019-12-27" />
		<tag k="ssr:gruppe" v="gardsbebyggelse" />
		<tag k="ssr:hovedgruppe" v="bebyggelse" />
		<tag k="ssr:stedsnr" v="253821" />
		<tag k="ssr:type" v="seterStøl" />
	</node>
	<node lat="61.95519999640465" lon="11.955133324541425" id="-21497">
		<tag k="fixme" v="consider natural=peak for the most distinct mountains in the district" />
		<tag k="name" v="Kvemsjøåsen" />
		<tag k="natural" v="hill" />
		<tag k="place" v="locality" />
		<tag k="ssr:date" v="2019-12-27" />
		<tag k="ssr:gruppe" v="høyder" />
		<tag k="ssr:hovedgruppe" v="terreng" />
		<tag k="ssr:stedsnr" v="253899" />
		<tag k="ssr:type" v="ås" />
	</node>
	<node lat="62.01234444648797" lon="11.740227785122332" id="-21498">
		<tag k="name" v="Drukningsodden" />
		<tag k="natural" v="cape" />
		<tag k="ssr:date" v="2019-12-27" />
		<tag k="ssr:gruppe" v="ferskvannskontur" />
		<tag k="ssr:hovedgruppe" v="ferskvann" />
		<tag k="ssr:stedsnr" v="253766" />
		<tag k="ssr:type" v="nes" />
	</node>
	<node lat="62.00541667100393" lon="11.838561104733275" id="-21499">
		<tag k="name" v="Gullsmedtjønna" />
		<tag k="natural" v="water" />
		<tag k="ssr:date" v="2019-12-27" />
		<tag k="ssr:gruppe" v="stilleståendeVann" />
		<tag k="ssr:hovedgruppe" v="ferskvann" />
		<tag k="ssr:stedsnr" v="253771" />
		<tag k="ssr:type" v="tjern" />
	</node>
	<node lat="61.84155000431738" lon="11.998036107286183" id="-21500">
		<tag k="name" v="Borg" />
		<tag k="place" v="farm" />
		<tag k="ssr:date" v="2019-12-27" />
		<tag k="ssr:gruppe" v="gardsbebyggelse" />
		<tag k="ssr:hovedgruppe" v="bebyggelse" />
		<tag k="ssr:stedsnr" v="253837" />
		<tag k="ssr:type" v="bruk" />
	</node>
	<node lat="61.87810000398602" lon="12.136161113804464" id="-21501">
		<tag k="name" v="Nordli" />
		<tag k="place" v="farm" />
		<tag k="ssr:date" v="2019-12-27" />
		<tag k="ssr:gruppe" v="gardsbebyggelse" />
		<tag k="ssr:hovedgruppe" v="bebyggelse" />
		<tag k="ssr:stedsnr" v="253849" />
		<tag k="ssr:type" v="bruk" />
	</node>
	<node lat="61.855977782177746" lon="12.020594450025152" id="-21502">
		<tag k="name" v="Liheim" />
		<tag k="place" v="farm" />
		<tag k="ssr:date" v="2019-12-27" />
		<tag k="ssr:gruppe" v="gardsbebyggelse" />
		<tag k="ssr:hovedgruppe" v="bebyggelse" />
		<tag k="ssr:stedsnr" v="253853" />
		<tag k="ssr:type" v="bruk" />
	</node>
	<node lat="61.99306944207407" lon="12.017888897194702" id="-21503">
		<tag k="name" v="Stormyra" />
		<tag k="natural" v="wetland" />
		<tag k="ssr:date" v="2019-12-27" />
		<tag k="ssr:gruppe" v="våtmark" />
		<tag k="ssr:hovedgruppe" v="markslag" />
		<tag k="ssr:stedsnr" v="253925" />
		<tag k="ssr:type" v="myr" />
	</node>
	<node lat="62.14847500079956" lon="11.710541659582923" id="-21504">
		<tag k="name" v="Tangbekken" />
		<tag k="ssr:date" v="2019-12-27" />
		<tag k="ssr:gruppe" v="rennendeVann" />
		<tag k="ssr:hovedgruppe" v="ferskvann" />
		<tag k="ssr:stedsnr" v="254359" />
		<tag k="ssr:type" v="bekk" />
		<tag k="waterway" v="stream" />
	</node>
	<node lat="62.13054999991433" lon="11.63862777727399" id="-21505">
		<tag k="name" v="Langsjøen" />
		<tag k="place" v="farm" />
		<tag k="ssr:date" v="2019-12-27" />
		<tag k="ssr:gruppe" v="gardsbebyggelse" />
		<tag k="ssr:hovedgruppe" v="bebyggelse" />
		<tag k="ssr:stedsnr" v="254360" />
		<tag k="ssr:type" v="bruk" />
	</node>
	<node lat="62.11051110698739" lon="11.660041666296104" id="-21506">
		<tag k="name" v="Langhåen" />
		<tag k="natural" v="water" />
		<tag k="ssr:date" v="2019-12-27" />
		<tag k="ssr:gruppe" v="rennendeVann" />
		<tag k="ssr:hovedgruppe" v="ferskvann" />
		<tag k="ssr:stedsnr" v="254368" />
		<tag k="ssr:type" v="lon" />
		<tag k="water" v="lake" />
	</node>
	<node lat="62.31279999933041" lon="12.150580563861153" id="-21507">
		<tag k="name" v="Storbuddhåen" />
		<tag k="name:no" v="Storbuddhåen" />
		<tag k="place" v="locality" />
		<tag k="ssr:date" v="2021-06-08" />
		<tag k="ssr:gruppe" v="rennendeVann" />
		<tag k="ssr:hovedgruppe" v="ferskvann" />
		<tag k="ssr:stedsnr" v="254540" />
		<tag k="ssr:type" v="høl" />
	</node>
	<node lat="62.28540833710699" lon="11.947758332571878" id="-21508">
		<tag k="alt_name" v="Kuneset, l" />
		<tag k="name" v="Litle Kuneset" />
		<tag k="natural" v="cape" />
		<tag k="ssr:date" v="2019-12-27" />
		<tag k="ssr:gruppe" v="ferskvannskontur" />
		<tag k="ssr:hovedgruppe" v="ferskvann" />
		<tag k="ssr:stedsnr" v="254553" />
		<tag k="ssr:type" v="nes" />
	</node>
	<node lat="62.26873333516526" lon="11.970949992102183" id="-21509">
		<tag k="historic" v="shieling" />
		<tag k="name" v="Kuvolsætra" />
		<tag k="place" v="isolated_dwelling" />
		<tag k="ssr:date" v="2019-12-27" />
		<tag k="ssr:gruppe" v="gardsbebyggelse" />
		<tag k="ssr:hovedgruppe" v="bebyggelse" />
		<tag k="ssr:stedsnr" v="254631" />
		<tag k="ssr:type" v="seterStøl" />
	</node>
	<node lat="62.273869443084294" lon="12.225511101470683" id="-21510">
		<tag k="name" v="Rundtjønna" />
		<tag k="natural" v="water" />
		<tag k="ssr:date" v="2019-12-27" />
		<tag k="ssr:gruppe" v="stilleståendeVann" />
		<tag k="ssr:hovedgruppe" v="ferskvann" />
		<tag k="ssr:stedsnr" v="254642" />
		<tag k="ssr:type" v="tjern" />
	</node>
	<node lat="61.79633055405848" lon="11.875094440380273" id="-21511">
		<tag k="name" v="Kartmyra" />
		<tag k="natural" v="wetland" />
		<tag k="ssr:date" v="2019-12-27" />
		<tag k="ssr:gruppe" v="våtmark" />
		<tag k="ssr:hovedgruppe" v="markslag" />
		<tag k="ssr:stedsnr" v="254734" />
		<tag k="ssr:type" v="myr" />
	</node>
	<node lat="61.79099999582897" lon="11.993691669696583" id="-21512">
		<tag k="name" v="Nysæterskarven" />
		<tag k="natural" v="hill" />
		<tag k="place" v="locality" />
		<tag k="ssr:date" v="2019-12-27" />
		<tag k="ssr:gruppe" v="høyder" />
		<tag k="ssr:hovedgruppe" v="terreng" />
		<tag k="ssr:stedsnr" v="254740" />
		<tag k="ssr:type" v="haug" />
	</node>
	<node lat="61.78685833430176" lon="11.88337499687941" id="-21513">
		<tag k="name" v="Bujotskarven" />
		<tag k="natural" v="hill" />
		<tag k="place" v="locality" />
		<tag k="ssr:date" v="2019-12-27" />
		<tag k="ssr:gruppe" v="høyder" />
		<tag k="ssr:hovedgruppe" v="terreng" />
		<tag k="ssr:stedsnr" v="254745" />
		<tag k="ssr:type" v="haug" />
	</node>
	<node lat="62.24958518318701" lon="12.235184754848213" id="-21514">
		<tag k="name" v="Stormyrtjønnan" />
		<tag k="natural" v="water" />
		<tag k="ssr:date" v="2020-05-04" />
		<tag k="ssr:gruppe" v="stilleståendeVann" />
		<tag k="ssr:hovedgruppe" v="ferskvann" />
		<tag k="ssr:stedsnr" v="254700" />
		<tag k="ssr:type" v="gruppeAvTjern" />
		<tag k="water" v="lake" />
	</node>
	<node lat="61.92393888597743" lon="11.879899993593492" id="-21515">
		<tag k="name" v="Stormyra" />
		<tag k="natural" v="wetland" />
		<tag k="ssr:date" v="2019-12-27" />
		<tag k="ssr:gruppe" v="våtmark" />
		<tag k="ssr:hovedgruppe" v="markslag" />
		<tag k="ssr:stedsnr" v="254852" />
		<tag k="ssr:type" v="myr" />
	</node>
	<node lat="61.91417777852829" lon="12.164499996325132" id="-21516">
		<tag k="name" v="Knertmyra" />
		<tag k="natural" v="wetland" />
		<tag k="ssr:date" v="2019-12-27" />
		<tag k="ssr:gruppe" v="våtmark" />
		<tag k="ssr:hovedgruppe" v="markslag" />
		<tag k="ssr:stedsnr" v="254863" />
		<tag k="ssr:type" v="myr" />
	</node>
	<node lat="61.9161916626935" lon="12.049019445193595" id="-21517">
		<tag k="fixme" v="consider natural=peak for the most distinct mountains in the district" />
		<tag k="name" v="Brattmyråsen" />
		<tag k="natural" v="hill" />
		<tag k="place" v="locality" />
		<tag k="ssr:date" v="2019-12-27" />
		<tag k="ssr:gruppe" v="høyder" />
		<tag k="ssr:hovedgruppe" v="terreng" />
		<tag k="ssr:stedsnr" v="254865" />
		<tag k="ssr:type" v="ås" />
	</node>
	<node lat="61.85703888911201" lon="11.815674992760226" id="-21518">
		<tag k="name" v="Galtåsbekken" />
		<tag k="ssr:date" v="2019-12-27" />
		<tag k="ssr:gruppe" v="rennendeVann" />
		<tag k="ssr:hovedgruppe" v="ferskvann" />
		<tag k="ssr:stedsnr" v="254956" />
		<tag k="ssr:type" v="bekk" />
		<tag k="waterway" v="stream" />
	</node>
	<node lat="61.720772219994366" lon="11.980383341524478" id="-21519">
		<tag k="name" v="Halvmilbekken" />
		<tag k="ssr:date" v="2019-12-27" />
		<tag k="ssr:gruppe" v="rennendeVann" />
		<tag k="ssr:hovedgruppe" v="ferskvann" />
		<tag k="ssr:stedsnr" v="145668" />
		<tag k="ssr:type" v="bekk" />
		<tag k="waterway" v="stream" />
	</node>
	<node lat="61.894180557605296" lon="11.776483336900672" id="-21520">
		<tag k="name" v="Tjukkrøsta" />
		<tag k="natural" v="slope" />
		<tag k="place" v="locality" />
		<tag k="ssr:date" v="2019-12-27" />
		<tag k="ssr:gruppe" v="skråninger" />
		<tag k="ssr:hovedgruppe" v="terreng" />
		<tag k="ssr:stedsnr" v="162113" />
		<tag k="ssr:type" v="li" />
	</node>
	<node lat="61.787427776522414" lon="11.953122213037359" id="-21521">
		<tag k="name" v="Nedre Knulmyra" />
		<tag k="natural" v="wetland" />
		<tag k="ssr:date" v="2019-12-27" />
		<tag k="ssr:gruppe" v="våtmark" />
		<tag k="ssr:hovedgruppe" v="markslag" />
		<tag k="ssr:stedsnr" v="162147" />
		<tag k="ssr:type" v="myr" />
	</node>
	<node lat="61.953611107343455" lon="12.048752770271655" id="-21522">
		<tag k="name" v="Nordpåtjønnan" />
		<tag k="natural" v="wetland" />
		<tag k="ssr:date" v="2019-12-27" />
		<tag k="ssr:gruppe" v="våtmark" />
		<tag k="ssr:hovedgruppe" v="markslag" />
		<tag k="ssr:stedsnr" v="162097" />
		<tag k="ssr:type" v="myr" />
	</node>
	<node lat="61.65083888890001" lon="11.83089166243066" id="-21523">
		<tag k="name" v="Øybrøstet" />
		<tag k="natural" v="water" />
		<tag k="ssr:date" v="2019-12-27" />
		<tag k="ssr:gruppe" v="rennendeVann" />
		<tag k="ssr:hovedgruppe" v="ferskvann" />
		<tag k="ssr:stedsnr" v="177114" />
		<tag k="ssr:type" v="lon" />
		<tag k="water" v="lake" />
	</node>
	<node lat="61.656625000528194" lon="11.815663887913965" id="-21524">
		<tag k="name" v="Øvre Embretsholmen" />
		<tag k="place" v="islet" />
		<tag k="ssr:date" v="2019-12-27" />
		<tag k="ssr:gruppe" v="ferskvannskontur" />
		<tag k="ssr:hovedgruppe" v="ferskvann" />
		<tag k="ssr:stedsnr" v="177117" />
		<tag k="ssr:type" v="holme" />
	</node>
	<node lat="62.09690555192755" lon="11.650688895278234" id="-21525">
		<tag k="amenity" v="community_centre" />
		<tag k="name" v="Skogtun" />
		<tag k="ssr:date" v="2019-12-27" />
		<tag k="ssr:gruppe" v="kulturinstitusjoner" />
		<tag k="ssr:hovedgruppe" v="kultur" />
		<tag k="ssr:stedsnr" v="177055" />
		<tag k="ssr:type" v="forsamlingshusKulturhus" />
	</node>
	<node lat="62.12787778083618" lon="11.984408333014205" id="-21526">
		<tag k="landuse" v="meadow" />
		<tag k="name" v="Fetthåen" />
		<tag k="ssr:date" v="2019-12-27" />
		<tag k="ssr:gruppe" v="dyrkamark" />
		<tag k="ssr:hovedgruppe" v="markslag" />
		<tag k="ssr:stedsnr" v="177210" />
		<tag k="ssr:type" v="eng" />
	</node>
	<node lat="61.81919722051039" lon="11.921475001137914" id="-21527">
		<tag k="amenity" v="school" />
		<tag k="name" v="Engerdal barne- og ungdomsskole" />
		<tag k="ssr:date" v="2019-12-27" />
		<tag k="ssr:gruppe" v="institusjoner" />
		<tag k="ssr:hovedgruppe" v="bebyggelse" />
		<tag k="ssr:stedsnr" v="177278" />
		<tag k="ssr:type" v="skole" />
	</node>
	<node lat="62.07728055802883" lon="11.73688888189367" id="-21528">
		<tag k="fixme" v="consider natural=peak for the most distinct mountains in the district" />
		<tag k="name" v="Trolltjønnåstangen" />
		<tag k="natural" v="hill" />
		<tag k="place" v="locality" />
		<tag k="ssr:date" v="2019-12-27" />
		<tag k="ssr:gruppe" v="høyder" />
		<tag k="ssr:hovedgruppe" v="terreng" />
		<tag k="ssr:stedsnr" v="177410" />
		<tag k="ssr:type" v="ås" />
	</node>
	<node lat="61.69535833363405" lon="11.990263891130805" id="-21529">
		<tag k="landuse" v="meadow" />
		<tag k="name" v="Krokmyra" />
		<tag k="ssr:date" v="2019-12-27" />
		<tag k="ssr:gruppe" v="dyrkamark" />
		<tag k="ssr:hovedgruppe" v="markslag" />
		<tag k="ssr:stedsnr" v="177702" />
		<tag k="ssr:type" v="eng" />
	</node>
	<node lat="61.67627221944795" lon="12.003163881717134" id="-21530">
		<tag k="name" v="Vestgård" />
		<tag k="place" v="farm" />
		<tag k="ssr:date" v="2019-12-27" />
		<tag k="ssr:gruppe" v="gardsbebyggelse" />
		<tag k="ssr:hovedgruppe" v="bebyggelse" />
		<tag k="ssr:stedsnr" v="177703" />
		<tag k="ssr:type" v="bruk" />
	</node>
	<node lat="61.67565290061444" lon="11.998521751515568" id="-21531">
		<tag k="name" v="Nordre Kveen" />
		<tag k="place" v="farm" />
		<tag k="ssr:date" v="2019-12-27" />
		<tag k="ssr:gruppe" v="gardsbebyggelse" />
		<tag k="ssr:hovedgruppe" v="bebyggelse" />
		<tag k="ssr:stedsnr" v="177710" />
		<tag k="ssr:type" v="bruk" />
	</node>
	<node lat="61.67490833706235" lon="12.00592499754119" id="-21532">
		<tag k="name" v="Nothangvarpet" />
		<tag k="natural" v="bay" />
		<tag k="ssr:date" v="2019-12-27" />
		<tag k="ssr:gruppe" v="ferskvannskontur" />
		<tag k="ssr:hovedgruppe" v="ferskvann" />
		<tag k="ssr:stedsnr" v="177711" />
		<tag k="ssr:type" v="vik" />
	</node>
	<node lat="61.67556667074235" lon="12.003738888211453" id="-21533">
		<tag k="name" v="Tuvodden" />
		<tag k="natural" v="cape" />
		<tag k="ssr:date" v="2019-12-27" />
		<tag k="ssr:gruppe" v="ferskvannskontur" />
		<tag k="ssr:hovedgruppe" v="ferskvann" />
		<tag k="ssr:stedsnr" v="177712" />
		<tag k="ssr:type" v="nes" />
	</node>
	<node lat="62.04849444043555" lon="12.060247215163747" id="-21534">
		<tag k="name" v="Egga" />
		<tag k="place" v="locality" />
		<tag k="ssr:date" v="2019-12-27" />
		<tag k="ssr:gruppe" v="flater" />
		<tag k="ssr:hovedgruppe" v="terreng" />
		<tag k="ssr:stedsnr" v="177866" />
		<tag k="ssr:type" v="slette" />
	</node>
	<node lat="61.997683334861755" lon="12.069111105052622" id="-21535">
		<tag k="name" v="Vatningsloken" />
		<tag k="natural" v="water" />
		<tag k="ssr:date" v="2019-12-27" />
		<tag k="ssr:gruppe" v="stilleståendeVann" />
		<tag k="ssr:hovedgruppe" v="ferskvann" />
		<tag k="ssr:stedsnr" v="178109" />
		<tag k="ssr:type" v="pytt" />
		<tag k="water" v="pond" />
	</node>
	<node lat="61.81966944216367" lon="11.722097229275406" id="-21536">
		<tag k="name" v="Litltangen" />
		<tag k="natural" v="hill" />
		<tag k="place" v="locality" />
		<tag k="ssr:date" v="2019-12-27" />
		<tag k="ssr:gruppe" v="høyder" />
		<tag k="ssr:hovedgruppe" v="terreng" />
		<tag k="ssr:stedsnr" v="179361" />
		<tag k="ssr:type" v="haug" />
	</node>
	<node lat="61.62921666952003" lon="12.075827783275333" id="-21537">
		<tag k="name" v="Kjerringmyra" />
		<tag k="natural" v="wetland" />
		<tag k="ssr:date" v="2019-12-27" />
		<tag k="ssr:gruppe" v="våtmark" />
		<tag k="ssr:hovedgruppe" v="markslag" />
		<tag k="ssr:stedsnr" v="180202" />
		<tag k="ssr:type" v="myr" />
	</node>
	<node lat="62.32962500364771" lon="11.980700003806062" id="-21539">
		<tag k="name" v="Røvolbekken" />
		<tag k="ssr:date" v="2021-06-08" />
		<tag k="ssr:gruppe" v="rennendeVann" />
		<tag k="ssr:hovedgruppe" v="ferskvann" />
		<tag k="ssr:stedsnr" v="263857" />
		<tag k="ssr:type" v="bekk" />
		<tag k="waterway" v="stream" />
	</node>
	<node lat="62.316058329620084" lon="12.103350001339921" id="-21540">
		<tag k="name" v="Roastbuan" />
		<tag k="place" v="isolated_dwelling" />
		<tag k="ssr:date" v="2021-06-08" />
		<tag k="ssr:gruppe" v="bolighus" />
		<tag k="ssr:hovedgruppe" v="bebyggelse" />
		<tag k="ssr:stedsnr" v="263859" />
		<tag k="ssr:type" v="fritidsbolig" />
	</node>
	<node lat="61.69401944176176" lon="11.987391660937412" id="-21541">
		<tag k="alt_name" v="Olderskogen Camping" />
		<tag k="name" v="Olderskogen" />
		<tag k="ssr:date" v="2019-12-27" />
		<tag k="ssr:gruppe" v="næring" />
		<tag k="ssr:hovedgruppe" v="bebyggelse" />
		<tag k="ssr:stedsnr" v="266668" />
		<tag k="ssr:type" v="campingplass" />
		<tag k="tourism" v="camp_site" />
	</node>
	<node lat="61.704647223984225" lon="11.97371389638033" id="-21542">
		<tag k="alt_name" v="Engerdal" />
		<tag k="name" v="Engerdalen" />
		<tag k="natural" v="valley" />
		<tag k="place" v="locality" />
		<tag k="ssr:date" v="2019-12-27" />
		<tag k="ssr:gruppe" v="senkninger" />
		<tag k="ssr:hovedgruppe" v="terreng" />
		<tag k="ssr:stedsnr" v="207403" />
		<tag k="ssr:type" v="dal" />
	</node>
	<node lat="61.872558335241806" lon="12.162200003891348" id="-21543">
		<tag k="name" v="Søndre Lillebo" />
		<tag k="place" v="farm" />
		<tag k="ssr:date" v="2019-12-27" />
		<tag k="ssr:gruppe" v="gardsbebyggelse" />
		<tag k="ssr:hovedgruppe" v="bebyggelse" />
		<tag k="ssr:stedsnr" v="208203" />
		<tag k="ssr:type" v="bruk" />
	</node>
	<node lat="61.98750277482622" lon="11.719186103853147" id="-21544">
		<tag k="fixme" v="consider natural=peak for the most distinct mountains in the district" />
		<tag k="name" v="Svalåsen" />
		<tag k="natural" v="hill" />
		<tag k="place" v="locality" />
		<tag k="ssr:date" v="2019-12-27" />
		<tag k="ssr:gruppe" v="høyder" />
		<tag k="ssr:hovedgruppe" v="terreng" />
		<tag k="ssr:stedsnr" v="222072" />
		<tag k="ssr:type" v="ås" />
	</node>
	<node lat="61.69396110712615" lon="12.102311103066105" id="-21545">
		<tag k="name" v="Norderlægret" />
		<tag k="place" v="locality" />
		<tag k="ssr:date" v="2019-12-27" />
		<tag k="ssr:gruppe" v="kulturminner" />
		<tag k="ssr:hovedgruppe" v="kultur" />
		<tag k="ssr:stedsnr" v="224221" />
		<tag k="ssr:type" v="annenKulturdetalj" />
	</node>
	<node lat="61.67799722589792" lon="12.04133610796609" id="-21546">
		<tag k="fixme" v="consider natural=peak for the most distinct mountains in the district" />
		<tag k="name" v="Sæteråsen" />
		<tag k="natural" v="hill" />
		<tag k="place" v="locality" />
		<tag k="ssr:date" v="2019-12-27" />
		<tag k="ssr:gruppe" v="høyder" />
		<tag k="ssr:hovedgruppe" v="terreng" />
		<tag k="ssr:stedsnr" v="224235" />
		<tag k="ssr:type" v="ås" />
	</node>
	<node lat="62.0498444452636" lon="11.77757222710129" id="-21547">
		<tag k="name" v="Trolltjønnsundet" />
		<tag k="natural" v="strait" />
		<tag k="ssr:date" v="2019-12-27" />
		<tag k="ssr:gruppe" v="ferskvannskontur" />
		<tag k="ssr:hovedgruppe" v="ferskvann" />
		<tag k="ssr:stedsnr" v="224102" />
		<tag k="ssr:type" v="sund" />
	</node>
	<node lat="62.19627777740831" lon="12.277719441025697" id="-21548">
		<tag k="historic" v="boundary_stone" />
		<tag k="man_made" v="cairn" />
		<tag k="name" v="Grøtåarøysa" />
		<tag k="old_name" v="Grøtaa Røset" />
		<tag k="place" v="locality" />
		<tag k="ssr:date" v="2019-12-27" />
		<tag k="ssr:gruppe" v="administrativeIndelinger" />
		<tag k="ssr:hovedgruppe" v="offentligAdministrasjon" />
		<tag k="ssr:stedsnr" v="231034" />
		<tag k="ssr:type" v="grensemerke" />
	</node>
	<node lat="61.8904388903318" lon="11.759391658877936" id="-21549">
		<tag k="name" v="Galten Gård og Pensjonat" />
		<tag k="ssr:date" v="2019-12-27" />
		<tag k="ssr:gruppe" v="næring" />
		<tag k="ssr:hovedgruppe" v="bebyggelse" />
		<tag k="ssr:stedsnr" v="232808" />
		<tag k="ssr:type" v="pensjonat" />
		<tag k="tourism" v="guest_house" />
	</node>
	<node lat="61.655255556844345" lon="11.795250001258431" id="-21550">
		<tag k="name" v="Kanalen" />
		<tag k="natural" v="shoal" />
		<tag k="place" v="locality" />
		<tag k="ssr:date" v="2019-12-27" />
		<tag k="ssr:gruppe" v="grunnerIFerskvann" />
		<tag k="ssr:hovedgruppe" v="ferskvann" />
		<tag k="ssr:stedsnr" v="237097" />
		<tag k="ssr:type" v="grunne" />
	</node>
	<node lat="61.817263892863096" lon="11.916847213484735" id="-21551">
		<tag k="building" v="industrial" />
		<tag k="name" v="Risbakken sag" />
		<tag k="ssr:date" v="2019-12-27" />
		<tag k="ssr:gruppe" v="næring" />
		<tag k="ssr:hovedgruppe" v="bebyggelse" />
		<tag k="ssr:stedsnr" v="237281" />
		<tag k="ssr:type" v="annenIndustri-OgLagerbygning" />
	</node>
	<node lat="61.69903055872703" lon="11.746355562219005" id="-21552">
		<tag k="historic" v="shieling" />
		<tag k="name" v="Nordgardsætra" />
		<tag k="place" v="isolated_dwelling" />
		<tag k="ssr:date" v="2019-12-27" />
		<tag k="ssr:gruppe" v="gardsbebyggelse" />
		<tag k="ssr:hovedgruppe" v="bebyggelse" />
		<tag k="ssr:stedsnr" v="237176" />
		<tag k="ssr:type" v="seterStøl" />
	</node>
	<node lat="61.688244446846134" lon="11.767994453698423" id="-21553">
		<tag k="name" v="Kalvhammeren" />
		<tag k="natural" v="hill" />
		<tag k="place" v="locality" />
		<tag k="ssr:date" v="2019-12-27" />
		<tag k="ssr:gruppe" v="høyder" />
		<tag k="ssr:hovedgruppe" v="terreng" />
		<tag k="ssr:stedsnr" v="237179" />
		<tag k="ssr:type" v="haug" />
	</node>
	<node lat="61.62186666667719" lon="12.031594437165072" id="-21554">
		<tag k="name" v="Storrotneset" />
		<tag k="natural" v="cape" />
		<tag k="ssr:date" v="2019-12-27" />
		<tag k="ssr:gruppe" v="ferskvannskontur" />
		<tag k="ssr:hovedgruppe" v="ferskvann" />
		<tag k="ssr:stedsnr" v="237196" />
		<tag k="ssr:type" v="nes" />
	</node>
	<node lat="62.0129361117664" lon="11.751061108488223" id="-21555">
		<tag k="name" v="Gottodden" />
		<tag k="natural" v="cape" />
		<tag k="ssr:date" v="2019-12-27" />
		<tag k="ssr:gruppe" v="ferskvannskontur" />
		<tag k="ssr:hovedgruppe" v="ferskvann" />
		<tag k="ssr:stedsnr" v="237380" />
		<tag k="ssr:type" v="nes" />
	</node>
	<node lat="61.83844444497918" lon="11.81577777426882" id="-21556">
		<tag k="fixme" v="consider highway=path" />
		<tag k="highway" v="track" />
		<tag k="name" v="Eggvegen" />
		<tag k="ssr:date" v="2019-12-27" />
		<tag k="ssr:gruppe" v="veg" />
		<tag k="ssr:hovedgruppe" v="infrastruktur" />
		<tag k="ssr:stedsnr" v="237387" />
		<tag k="ssr:type" v="traktorveg" />
	</node>
	<node lat="62.01427777686465" lon="11.776888883955523" id="-21557">
		<tag k="name" v="Måsåbekkholmen" />
		<tag k="place" v="islet" />
		<tag k="ssr:date" v="2019-12-27" />
		<tag k="ssr:gruppe" v="ferskvannskontur" />
		<tag k="ssr:hovedgruppe" v="ferskvann" />
		<tag k="ssr:stedsnr" v="237395" />
		<tag k="ssr:type" v="holme" />
	</node>
	<node lat="61.848716668468484" lon="11.845197224918778" id="-21558">
		<tag k="name" v="Tøsbekken" />
		<tag k="ssr:date" v="2019-12-27" />
		<tag k="ssr:gruppe" v="rennendeVann" />
		<tag k="ssr:hovedgruppe" v="ferskvann" />
		<tag k="ssr:stedsnr" v="237491" />
		<tag k="ssr:type" v="bekk" />
		<tag k="waterway" v="stream" />
	</node>
	<node lat="61.77599722026356" lon="12.144855553686499" id="-21559">
		<tag k="name" v="Midtjønnbekken" />
		<tag k="ssr:date" v="2019-12-27" />
		<tag k="ssr:gruppe" v="rennendeVann" />
		<tag k="ssr:hovedgruppe" v="ferskvann" />
		<tag k="ssr:stedsnr" v="237602" />
		<tag k="ssr:type" v="bekk" />
		<tag k="waterway" v="stream" />
	</node>
	<node lat="61.97206666546572" lon="11.942816672744808" id="-21560">
		<tag k="name" v="Nordre Sorken" />
		<tag k="place" v="farm" />
		<tag k="ssr:date" v="2019-12-27" />
		<tag k="ssr:gruppe" v="gardsbebyggelse" />
		<tag k="ssr:hovedgruppe" v="bebyggelse" />
		<tag k="ssr:stedsnr" v="237606" />
		<tag k="ssr:type" v="bruk" />
	</node>
	<node lat="62.09242222549985" lon="11.6484583300052" id="-21561">
		<tag k="name" v="Åkeregga" />
		<tag k="natural" v="hill" />
		<tag k="place" v="locality" />
		<tag k="ssr:date" v="2019-12-27" />
		<tag k="ssr:gruppe" v="høyder" />
		<tag k="ssr:hovedgruppe" v="terreng" />
		<tag k="ssr:stedsnr" v="238079" />
		<tag k="ssr:type" v="høyde" />
	</node>
	<node lat="62.085313893279974" lon="11.648222216170167" id="-21562">
		<tag k="highway" v="path" />
		<tag k="name" v="Rendalsvegen" />
		<tag k="ssr:date" v="2019-12-27" />
		<tag k="ssr:gruppe" v="veg" />
		<tag k="ssr:hovedgruppe" v="infrastruktur" />
		<tag k="ssr:stedsnr" v="238511" />
		<tag k="ssr:type" v="sti" />
	</node>
	<node lat="62.08987777435605" lon="11.659369446373406" id="-21563">
		<tag k="name" v="Nordstuhaugen" />
		<tag k="natural" v="hill" />
		<tag k="place" v="locality" />
		<tag k="ssr:date" v="2019-12-27" />
		<tag k="ssr:gruppe" v="høyder" />
		<tag k="ssr:hovedgruppe" v="terreng" />
		<tag k="ssr:stedsnr" v="238525" />
		<tag k="ssr:type" v="haug" />
	</node>
	<node lat="61.86871944478044" lon="12.13842221646454" id="-21564">
		<tag k="name" v="Kviltsand" />
		<tag k="natural" v="beach" />
		<tag k="ssr:date" v="2019-12-27" />
		<tag k="ssr:gruppe" v="ferskvannskontur" />
		<tag k="ssr:hovedgruppe" v="ferskvann" />
		<tag k="ssr:stedsnr" v="238606" />
		<tag k="ssr:type" v="strand" />
	</node>
	<node lat="61.98288888769515" lon="11.891119444505403" id="-21565">
		<tag k="name" v="Litlbuvika" />
		<tag k="natural" v="bay" />
		<tag k="ssr:date" v="2019-12-27" />
		<tag k="ssr:gruppe" v="ferskvannskontur" />
		<tag k="ssr:hovedgruppe" v="ferskvann" />
		<tag k="ssr:stedsnr" v="238727" />
		<tag k="ssr:type" v="vik" />
	</node>
	<node lat="61.65341666325761" lon="11.977366658102707" id="-21566">
		<tag k="name" v="Skaftesletta" />
		<tag k="place" v="locality" />
		<tag k="ssr:date" v="2019-12-27" />
		<tag k="ssr:gruppe" v="flater" />
		<tag k="ssr:hovedgruppe" v="terreng" />
		<tag k="ssr:stedsnr" v="238732" />
		<tag k="ssr:type" v="slette" />
	</node>
	<node lat="62.040427774065414" lon="12.194577778266416" id="-21567">
		<tag k="name" v="Valsjølia" />
		<tag k="natural" v="slope" />
		<tag k="place" v="locality" />
		<tag k="ssr:date" v="2019-12-27" />
		<tag k="ssr:gruppe" v="skråninger" />
		<tag k="ssr:hovedgruppe" v="terreng" />
		<tag k="ssr:stedsnr" v="238734" />
		<tag k="ssr:type" v="li" />
	</node>
	<node lat="61.73261944479784" lon="11.762205550992375" id="-21568">
		<tag k="name" v="Sagbekkdalsbekken" />
		<tag k="ssr:date" v="2019-12-27" />
		<tag k="ssr:gruppe" v="rennendeVann" />
		<tag k="ssr:hovedgruppe" v="ferskvann" />
		<tag k="ssr:stedsnr" v="238788" />
		<tag k="ssr:type" v="bekk" />
		<tag k="waterway" v="stream" />
	</node>
	<node lat="61.77460832971381" lon="11.629311109443968" id="-21569">
		<tag k="name" v="Elvbrufossen" />
		<tag k="natural" v="waterfall" />
		<tag k="ssr:date" v="2019-12-27" />
		<tag k="ssr:gruppe" v="rennendeVann" />
		<tag k="ssr:hovedgruppe" v="ferskvann" />
		<tag k="ssr:stedsnr" v="238795" />
		<tag k="ssr:type" v="foss" />
	</node>
	<node lat="61.926427776167024" lon="12.116494442315478" id="-21570">
		<tag k="name" v="Svarttjønnbekken" />
		<tag k="ssr:date" v="2019-12-27" />
		<tag k="ssr:gruppe" v="rennendeVann" />
		<tag k="ssr:hovedgruppe" v="ferskvann" />
		<tag k="ssr:stedsnr" v="239106" />
		<tag k="ssr:type" v="bekk" />
		<tag k="waterway" v="stream" />
	</node>
	<node lat="61.81213333625446" lon="11.711852782887872" id="-21571">
		<tag k="name" v="Brattbekken" />
		<tag k="ssr:date" v="2019-12-27" />
		<tag k="ssr:gruppe" v="rennendeVann" />
		<tag k="ssr:hovedgruppe" v="ferskvann" />
		<tag k="ssr:stedsnr" v="240386" />
		<tag k="ssr:type" v="bekk" />
		<tag k="waterway" v="stream" />
	</node>
	<node lat="62.0915305543883" lon="11.6551444358975" id="-21574">
		<tag k="alt_name" v="Nordre Joten" />
		<tag k="name" v="Nordre Gjota" />
		<tag k="place" v="farm" />
		<tag k="ssr:date" v="2019-12-27" />
		<tag k="ssr:gruppe" v="gardsbebyggelse" />
		<tag k="ssr:hovedgruppe" v="bebyggelse" />
		<tag k="ssr:stedsnr" v="480069" />
		<tag k="ssr:type" v="bruk" />
	</node>
	<node lat="61.93162778064474" lon="11.731363888630304" id="-21575">
		<tag k="name" v="Sæterbekken" />
		<tag k="ssr:date" v="2019-12-27" />
		<tag k="ssr:gruppe" v="rennendeVann" />
		<tag k="ssr:hovedgruppe" v="ferskvann" />
		<tag k="ssr:stedsnr" v="253131" />
		<tag k="ssr:type" v="bekk" />
		<tag k="waterway" v="stream" />
	</node>
	<node lat="62.08743610989603" lon="12.062349999614357" id="-21576">
		<tag k="name" v="Elgådalen" />
		<tag k="place" v="farm" />
		<tag k="ssr:date" v="2019-12-27" />
		<tag k="ssr:gruppe" v="gardsbebyggelse" />
		<tag k="ssr:hovedgruppe" v="bebyggelse" />
		<tag k="ssr:stedsnr" v="253303" />
		<tag k="ssr:type" v="bruk" />
	</node>
	<node lat="61.721950001920895" lon="11.762247217138485" id="-21577">
		<tag k="name" v="Svartlia" />
		<tag k="natural" v="slope" />
		<tag k="place" v="locality" />
		<tag k="ssr:date" v="2019-12-27" />
		<tag k="ssr:gruppe" v="skråninger" />
		<tag k="ssr:hovedgruppe" v="terreng" />
		<tag k="ssr:stedsnr" v="253305" />
		<tag k="ssr:type" v="li" />
	</node>
	<node lat="62.063388953303644" lon="11.758305604794362" id="-21578">
		<tag k="name" v="Smårøsttjønnan" />
		<tag k="natural" v="water" />
		<tag k="ssr:date" v="2021-06-08" />
		<tag k="ssr:gruppe" v="stilleståendeVann" />
		<tag k="ssr:hovedgruppe" v="ferskvann" />
		<tag k="ssr:stedsnr" v="253327" />
		<tag k="ssr:type" v="gruppeAvTjern" />
		<tag k="water" v="lake" />
	</node>
	<node lat="62.05754444243318" lon="12.091805563311295" id="-21579">
		<tag k="name" v="Yttersjøen" />
		<tag k="natural" v="water" />
		<tag k="ssr:date" v="2019-12-27" />
		<tag k="ssr:gruppe" v="stilleståendeVann" />
		<tag k="ssr:hovedgruppe" v="ferskvann" />
		<tag k="ssr:stedsnr" v="253332" />
		<tag k="ssr:type" v="vann" />
		<tag k="water" v="lake" />
	</node>
	<node lat="62.07341111054487" lon="12.044230548250683" id="-21580">
		<tag k="name" v="Storsjøen" />
		<tag k="natural" v="water" />
		<tag k="ssr:date" v="2019-12-27" />
		<tag k="ssr:gruppe" v="stilleståendeVann" />
		<tag k="ssr:hovedgruppe" v="ferskvann" />
		<tag k="ssr:stedsnr" v="253336" />
		<tag k="ssr:type" v="vann" />
		<tag k="water" v="lake" />
	</node>
	<node lat="62.07072500079941" lon="11.935013894321399" id="-21581">
		<tag k="name" v="Tovbergan" />
		<tag k="natural" v="hill" />
		<tag k="place" v="locality" />
		<tag k="ssr:date" v="2021-06-08" />
		<tag k="ssr:gruppe" v="høyder" />
		<tag k="ssr:hovedgruppe" v="terreng" />
		<tag k="ssr:stedsnr" v="253343" />
		<tag k="ssr:type" v="berg" />
	</node>
	<node lat="61.665477780155726" lon="11.792527768753297" id="-21582">
		<tag k="alt_name" v="Rusta" />
		<tag k="name" v="Røsta" />
		<tag k="old_name" v="Røstad" />
		<tag k="place" v="isolated_dwelling" />
		<tag k="ssr:date" v="2019-12-27" />
		<tag k="ssr:gruppe" v="bolighus" />
		<tag k="ssr:hovedgruppe" v="bebyggelse" />
		<tag k="ssr:stedsnr" v="253427" />
		<tag k="ssr:type" v="eneboligMindreBoligbygg" />
	</node>
	<node lat="61.74300277984043" lon="11.95160556250964" id="-21583">
		<tag k="name" v="Messeltkampen" />
		<tag k="natural" v="hill" />
		<tag k="place" v="locality" />
		<tag k="ssr:date" v="2019-12-27" />
		<tag k="ssr:gruppe" v="høyder" />
		<tag k="ssr:hovedgruppe" v="terreng" />
		<tag k="ssr:stedsnr" v="253702" />
		<tag k="ssr:type" v="haug" />
	</node>
	<node lat="61.67693888614618" lon="11.99893610334545" id="-21584">
		<tag k="name" v="Fonnås" />
		<tag k="place" v="farm" />
		<tag k="ssr:date" v="2019-12-27" />
		<tag k="ssr:gruppe" v="gardsbebyggelse" />
		<tag k="ssr:hovedgruppe" v="bebyggelse" />
		<tag k="ssr:stedsnr" v="253732" />
		<tag k="ssr:type" v="bruk" />
	</node>
	<node lat="61.75498067229698" lon="12.048510582551462" id="-21585">
		<tag k="name" v="Blakksjøen" />
		<tag k="natural" v="water" />
		<tag k="ssr:date" v="2019-12-27" />
		<tag k="ssr:gruppe" v="stilleståendeVann" />
		<tag k="ssr:hovedgruppe" v="ferskvann" />
		<tag k="ssr:stedsnr" v="253736" />
		<tag k="ssr:type" v="vann" />
		<tag k="water" v="lake" />
	</node>
	<node lat="61.69142499749109" lon="11.938480550196928" id="-21586">
		<tag k="name" v="Kansbekken" />
		<tag k="ssr:date" v="2019-12-27" />
		<tag k="ssr:gruppe" v="rennendeVann" />
		<tag k="ssr:hovedgruppe" v="ferskvann" />
		<tag k="ssr:stedsnr" v="253740" />
		<tag k="ssr:type" v="bekk" />
		<tag k="waterway" v="stream" />
	</node>
	<node lat="61.75266388634087" lon="11.938416659912116" id="-21587">
		<tag k="name" v="Bergesætra" />
		<tag k="place" v="hamlet" />
		<tag k="ssr:date" v="2019-12-27" />
		<tag k="ssr:gruppe" v="bebyggelsesområder" />
		<tag k="ssr:hovedgruppe" v="bebyggelse" />
		<tag k="ssr:stedsnr" v="253744" />
		<tag k="ssr:type" v="grend" />
	</node>
	<node lat="62.02517221884152" lon="11.720080554084841" id="-21588">
		<tag k="name" v="Lørjefloan" />
		<tag k="natural" v="wetland" />
		<tag k="ssr:date" v="2021-06-08" />
		<tag k="ssr:gruppe" v="våtmark" />
		<tag k="ssr:hovedgruppe" v="markslag" />
		<tag k="ssr:stedsnr" v="253749" />
		<tag k="ssr:type" v="myr" />
	</node>
	<node lat="61.833372222632015" lon="12.11715000138686" id="-21589">
		<tag k="name" v="Røkketjønnan" />
		<tag k="natural" v="water" />
		<tag k="ssr:date" v="2020-04-30" />
		<tag k="ssr:gruppe" v="stilleståendeVann" />
		<tag k="ssr:hovedgruppe" v="ferskvann" />
		<tag k="ssr:stedsnr" v="253823" />
		<tag k="ssr:type" v="gruppeAvTjern" />
		<tag k="water" v="lake" />
	</node>
	<node lat="61.8229694418326" lon="11.982469438873474" id="-21590">
		<tag k="name" v="Kuholkjølen" />
		<tag k="natural" v="wetland" />
		<tag k="ssr:date" v="2019-12-27" />
		<tag k="ssr:gruppe" v="våtmark" />
		<tag k="ssr:hovedgruppe" v="markslag" />
		<tag k="ssr:stedsnr" v="253826" />
		<tag k="ssr:type" v="myr" />
	</node>
	<node lat="61.85788610966338" lon="12.149713892524936" id="-21591">
		<tag k="name" v="Flåtåberget" />
		<tag k="natural" v="hill" />
		<tag k="old_name" v="Flataberget" />
		<tag k="place" v="locality" />
		<tag k="ssr:date" v="2019-12-27" />
		<tag k="ssr:gruppe" v="høyder" />
		<tag k="ssr:hovedgruppe" v="terreng" />
		<tag k="ssr:stedsnr" v="253830" />
		<tag k="ssr:type" v="berg" />
	</node>
	<node lat="61.89001944579707" lon="12.151038882356916" id="-21592">
		<tag k="alt_name" v="Vordåa" />
		<tag k="name" v="Vålåa" />
		<tag k="ssr:date" v="2019-12-27" />
		<tag k="ssr:gruppe" v="rennendeVann" />
		<tag k="ssr:hovedgruppe" v="ferskvann" />
		<tag k="ssr:stedsnr" v="253878" />
		<tag k="ssr:type" v="elv" />
		<tag k="waterway" v="river" />
	</node>
	<node lat="61.90233333433326" lon="11.779958330676662" id="-21593">
		<tag k="name" v="Håbu" />
		<tag k="place" v="isolated_dwelling" />
		<tag k="ssr:date" v="2019-12-27" />
		<tag k="ssr:gruppe" v="bolighus" />
		<tag k="ssr:hovedgruppe" v="bebyggelse" />
		<tag k="ssr:stedsnr" v="253992" />
		<tag k="ssr:type" v="fritidsbolig" />
	</node>
	<node lat="61.90594166974615" lon="11.80029167487876" id="-21594">
		<tag k="alt_name" v="Kvernhusbekken, s" />
		<tag k="name" v="Søndre Kvernhusbekken" />
		<tag k="ssr:date" v="2019-12-27" />
		<tag k="ssr:gruppe" v="rennendeVann" />
		<tag k="ssr:hovedgruppe" v="ferskvann" />
		<tag k="ssr:stedsnr" v="253997" />
		<tag k="ssr:type" v="bekk" />
		<tag k="waterway" v="stream" />
	</node>
	<node lat="61.8302305532372" lon="11.797080555492725" id="-21595">
		<tag k="name" v="Ulvåkjølen" />
		<tag k="natural" v="wetland" />
		<tag k="ssr:date" v="2019-12-27" />
		<tag k="ssr:gruppe" v="våtmark" />
		<tag k="ssr:hovedgruppe" v="markslag" />
		<tag k="ssr:stedsnr" v="254941" />
		<tag k="ssr:type" v="myr" />
	</node>
	<node lat="61.88722221883468" lon="12.041399995244989" id="-21596">
		<tag k="name" v="Fredheim" />
		<tag k="place" v="farm" />
		<tag k="ssr:date" v="2019-12-27" />
		<tag k="ssr:gruppe" v="gardsbebyggelse" />
		<tag k="ssr:hovedgruppe" v="bebyggelse" />
		<tag k="ssr:stedsnr" v="283016" />
		<tag k="ssr:type" v="bruk" />
	</node>
	<node lat="61.894311108149495" lon="11.760291671290698" id="-21597">
		<tag k="fixme" v="consider boundary=protected_area and relevant protect_class if not nature reserve" />
		<tag k="leisure" v="nature_reserve" />
		<tag k="name" v="Galten naturreservat" />
		<tag k="ssr:date" v="2019-12-27" />
		<tag k="ssr:gruppe" v="verne-OgBruksområder" />
		<tag k="ssr:hovedgruppe" v="offentligAdministrasjon" />
		<tag k="ssr:stedsnr" v="284079" />
		<tag k="ssr:type" v="verneområde" />
	</node>
	<node lat="62.13611231802893" lon="12.261239648015865" id="-21598">
		<tag k="historic" v="boundary_stone" />
		<tag k="man_made" v="cairn" />
		<tag k="name" v="Greflingsvolarøysa" />
		<tag k="old_name" v="Greflingsvola Røset;Græflings Walla Røset" />
		<tag k="place" v="locality" />
		<tag k="ssr:date" v="2020-07-08" />
		<tag k="ssr:gruppe" v="administrativeIndelinger" />
		<tag k="ssr:hovedgruppe" v="offentligAdministrasjon" />
		<tag k="ssr:stedsnr" v="292032" />
		<tag k="ssr:type" v="grensemerke" />
	</node>
	<node lat="61.75401111113793" lon="11.786469448542938" id="-21599">
		<tag k="name" v="Vestgårdsmyra" />
		<tag k="natural" v="wetland" />
		<tag k="ssr:date" v="2019-12-27" />
		<tag k="ssr:gruppe" v="våtmark" />
		<tag k="ssr:hovedgruppe" v="markslag" />
		<tag k="ssr:stedsnr" v="298173" />
		<tag k="ssr:type" v="myr" />
	</node>
	<node lat="62.02744773582964" lon="12.108239632037591" id="-21600">
		<tag k="name" v="Stygglandet" />
		<tag k="place" v="locality" />
		<tag k="ssr:date" v="2021-07-26" />
		<tag k="ssr:gruppe" v="terrengdetaljer" />
		<tag k="ssr:hovedgruppe" v="terreng" />
		<tag k="ssr:stedsnr" v="298175" />
		<tag k="ssr:type" v="annenTerrengdetalj" />
	</node>
	<node lat="62.01969166417761" lon="12.061138882769786" id="-21601">
		<tag k="name" v="Øvste Floen" />
		<tag k="natural" v="wetland" />
		<tag k="ssr:date" v="2019-12-27" />
		<tag k="ssr:gruppe" v="våtmark" />
		<tag k="ssr:hovedgruppe" v="markslag" />
		<tag k="ssr:stedsnr" v="298176" />
		<tag k="ssr:type" v="myr" />
	</node>
	<node lat="62.09284166350518" lon="11.64063888472547" id="-21602">
		<tag k="name" v="Vangstjønna" />
		<tag k="natural" v="water" />
		<tag k="ssr:date" v="2019-12-27" />
		<tag k="ssr:gruppe" v="stilleståendeVann" />
		<tag k="ssr:hovedgruppe" v="ferskvann" />
		<tag k="ssr:stedsnr" v="298082" />
		<tag k="ssr:type" v="tjern" />
	</node>
	<node lat="62.08853055264609" lon="11.651433330228341" id="-21603">
		<tag k="name" v="Eggen" />
		<tag k="place" v="farm" />
		<tag k="ssr:date" v="2019-12-27" />
		<tag k="ssr:gruppe" v="gardsbebyggelse" />
		<tag k="ssr:hovedgruppe" v="bebyggelse" />
		<tag k="ssr:stedsnr" v="298476" />
		<tag k="ssr:type" v="bruk" />
	</node>
	<node lat="61.90773055960259" lon="11.878169444925504" id="-21604">
		<tag k="name" v="Kløftebekken" />
		<tag k="ssr:date" v="2019-12-27" />
		<tag k="ssr:gruppe" v="rennendeVann" />
		<tag k="ssr:hovedgruppe" v="ferskvann" />
		<tag k="ssr:stedsnr" v="298392" />
		<tag k="ssr:type" v="bekk" />
		<tag k="waterway" v="stream" />
	</node>
	<node lat="61.933225001548095" lon="11.818725006916727" id="-21605">
		<tag k="name" v="Tjønnholmen" />
		<tag k="place" v="islet" />
		<tag k="ssr:date" v="2019-12-27" />
		<tag k="ssr:gruppe" v="ferskvannskontur" />
		<tag k="ssr:hovedgruppe" v="ferskvann" />
		<tag k="ssr:stedsnr" v="298505" />
		<tag k="ssr:type" v="holme" />
	</node>
	<node lat="61.93177777527519" lon="11.863180564334304" id="-21606">
		<tag k="name" v="Fosseng" />
		<tag k="place" v="farm" />
		<tag k="ssr:date" v="2019-12-27" />
		<tag k="ssr:gruppe" v="gardsbebyggelse" />
		<tag k="ssr:hovedgruppe" v="bebyggelse" />
		<tag k="ssr:stedsnr" v="298506" />
		<tag k="ssr:type" v="bruk" />
	</node>
	<node lat="61.9202361125743" lon="11.91568611292604" id="-21607">
		<tag k="name" v="Enbekken" />
		<tag k="ssr:date" v="2019-12-27" />
		<tag k="ssr:gruppe" v="rennendeVann" />
		<tag k="ssr:hovedgruppe" v="ferskvann" />
		<tag k="ssr:stedsnr" v="298529" />
		<tag k="ssr:type" v="bekk" />
		<tag k="waterway" v="stream" />
	</node>
	<node lat="61.97228611347272" lon="11.938866660289484" id="-21608">
		<tag k="name" v="Vestre Sorken" />
		<tag k="place" v="farm" />
		<tag k="ssr:date" v="2019-12-27" />
		<tag k="ssr:gruppe" v="gardsbebyggelse" />
		<tag k="ssr:hovedgruppe" v="bebyggelse" />
		<tag k="ssr:stedsnr" v="298585" />
		<tag k="ssr:type" v="bruk" />
	</node>
	<node lat="62.14859444759066" lon="11.890372230789493" id="-21609">
		<tag k="name" v="Tjønnoddtjønna" />
		<tag k="natural" v="water" />
		<tag k="ssr:date" v="2019-12-27" />
		<tag k="ssr:gruppe" v="stilleståendeVann" />
		<tag k="ssr:hovedgruppe" v="ferskvann" />
		<tag k="ssr:stedsnr" v="298895" />
		<tag k="ssr:type" v="tjern" />
	</node>
	<node lat="61.765791670441665" lon="11.718183324778355" id="-21610">
		<tag k="name" v="Skjærbuloka" />
		<tag k="natural" v="water" />
		<tag k="ssr:date" v="2019-12-27" />
		<tag k="ssr:gruppe" v="stilleståendeVann" />
		<tag k="ssr:hovedgruppe" v="ferskvann" />
		<tag k="ssr:stedsnr" v="299205" />
		<tag k="ssr:type" v="tjern" />
	</node>
	<node lat="61.72795277437" lon="12.02866944238386" id="-21611">
		<tag k="name" v="Hestbekkkjølen" />
		<tag k="natural" v="wetland" />
		<tag k="ssr:date" v="2019-12-27" />
		<tag k="ssr:gruppe" v="våtmark" />
		<tag k="ssr:hovedgruppe" v="markslag" />
		<tag k="ssr:stedsnr" v="299225" />
		<tag k="ssr:type" v="myr" />
	</node>
	<node lat="61.86933333720853" lon="12.163372218786577" id="-21612">
		<tag k="name" v="Langsand" />
		<tag k="natural" v="beach" />
		<tag k="ssr:date" v="2019-12-27" />
		<tag k="ssr:gruppe" v="ferskvannskontur" />
		<tag k="ssr:hovedgruppe" v="ferskvann" />
		<tag k="ssr:stedsnr" v="299591" />
		<tag k="ssr:type" v="strand" />
	</node>
	<node lat="61.73824722578627" lon="11.971994439576571" id="-21613">
		<tag k="name" v="Nordre Svingen" />
		<tag k="place" v="farm" />
		<tag k="ssr:date" v="2019-12-27" />
		<tag k="ssr:gruppe" v="gardsbebyggelse" />
		<tag k="ssr:hovedgruppe" v="bebyggelse" />
		<tag k="ssr:stedsnr" v="299704" />
		<tag k="ssr:type" v="bruk" />
	</node>
	<node lat="61.903738887656914" lon="12.152127779870066" id="-21614">
		<tag k="name" v="Røskåsremme" />
		<tag k="natural" v="wetland" />
		<tag k="ssr:date" v="2019-12-27" />
		<tag k="ssr:gruppe" v="våtmark" />
		<tag k="ssr:hovedgruppe" v="markslag" />
		<tag k="ssr:stedsnr" v="299611" />
		<tag k="ssr:type" v="myr" />
	</node>
	<node lat="61.69441944199302" lon="11.983797213560884" id="-21615">
		<tag k="name" v="Nordeng" />
		<tag k="place" v="farm" />
		<tag k="ssr:date" v="2019-12-27" />
		<tag k="ssr:gruppe" v="gardsbebyggelse" />
		<tag k="ssr:hovedgruppe" v="bebyggelse" />
		<tag k="ssr:stedsnr" v="299681" />
		<tag k="ssr:type" v="bruk" />
	</node>
	<node lat="61.920572218571316" lon="12.072483327004063" id="-21616">
		<tag k="name" v="Rakstvegskardet" />
		<tag k="natural" v="valley" />
		<tag k="place" v="locality" />
		<tag k="ssr:date" v="2019-12-27" />
		<tag k="ssr:gruppe" v="senkninger" />
		<tag k="ssr:hovedgruppe" v="terreng" />
		<tag k="ssr:stedsnr" v="300104" />
		<tag k="ssr:type" v="skar" />
	</node>
	<node lat="61.813324995721025" lon="11.708422213373256" id="-21617">
		<tag k="name" v="Strand" />
		<tag k="place" v="isolated_dwelling" />
		<tag k="ssr:date" v="2019-12-27" />
		<tag k="ssr:gruppe" v="bolighus" />
		<tag k="ssr:hovedgruppe" v="bebyggelse" />
		<tag k="ssr:stedsnr" v="300383" />
		<tag k="ssr:type" v="eneboligMindreBoligbygg" />
	</node>
	<node lat="61.8295250037226" lon="11.720594449811797" id="-21618">
		<tag k="name" v="Ulvåoset" />
		<tag k="natural" v="bay" />
		<tag k="ssr:date" v="2019-12-27" />
		<tag k="ssr:gruppe" v="rennendeVann" />
		<tag k="ssr:hovedgruppe" v="ferskvann" />
		<tag k="ssr:stedsnr" v="300386" />
		<tag k="ssr:type" v="os" />
	</node>
	<node lat="61.75084444337877" lon="12.112436107288927" id="-21619">
		<tag k="name" v="Hognsjøhøgda" />
		<tag k="natural" v="hill" />
		<tag k="place" v="locality" />
		<tag k="ssr:date" v="2019-12-27" />
		<tag k="ssr:gruppe" v="høyder" />
		<tag k="ssr:hovedgruppe" v="terreng" />
		<tag k="ssr:stedsnr" v="464037" />
		<tag k="ssr:type" v="haug" />
	</node>
	<node lat="61.72387761330061" lon="12.137039808361946" id="-21621">
		<tag k="alt_name" v="Härjehogna;Østrehogna" />
		<tag k="fixme" v="multiple name tags, choose one and add the other to alt_name; consider natural=peak for the most distinct mountains in the district" />
		<tag k="name" v="Østerhogna;Herjehogna" />
		<tag k="natural" v="hill" />
		<tag k="place" v="locality" />
		<tag k="ssr:date" v="2019-12-27" />
		<tag k="ssr:gruppe" v="høyder" />
		<tag k="ssr:hovedgruppe" v="terreng" />
		<tag k="ssr:stedsnr" v="309733" />
		<tag k="ssr:type" v="fjell" />
	</node>
	<node lat="61.68399444555473" lon="11.947958328433595" id="-21622">
		<tag k="fixme" v="consider natural=peak for the most distinct mountains in the district" />
		<tag k="name" v="Løvåsen" />
		<tag k="natural" v="hill" />
		<tag k="place" v="locality" />
		<tag k="ssr:date" v="2019-12-27" />
		<tag k="ssr:gruppe" v="høyder" />
		<tag k="ssr:hovedgruppe" v="terreng" />
		<tag k="ssr:stedsnr" v="465998" />
		<tag k="ssr:type" v="ås" />
	</node>
	<node lat="61.67286388492609" lon="12.01839165739516" id="-21623">
		<tag k="name" v="Tallbusdalen" />
		<tag k="natural" v="valley" />
		<tag k="place" v="locality" />
		<tag k="ssr:date" v="2019-12-27" />
		<tag k="ssr:gruppe" v="senkninger" />
		<tag k="ssr:hovedgruppe" v="terreng" />
		<tag k="ssr:stedsnr" v="466239" />
		<tag k="ssr:type" v="dal" />
	</node>
	<node lat="61.676780558012695" lon="12.033047214253429" id="-21624">
		<tag k="name" v="Skjærhøa" />
		<tag k="natural" v="hill" />
		<tag k="place" v="locality" />
		<tag k="ssr:date" v="2019-12-27" />
		<tag k="ssr:gruppe" v="høyder" />
		<tag k="ssr:hovedgruppe" v="terreng" />
		<tag k="ssr:stedsnr" v="466240" />
		<tag k="ssr:type" v="høyde" />
	</node>
	<node lat="61.65646111240503" lon="11.81959722828297" id="-21625">
		<tag k="alt_name" v="Husfloen, nordre" />
		<tag k="name" v="Nordre Husfloen" />
		<tag k="place" v="farm" />
		<tag k="ssr:date" v="2019-12-27" />
		<tag k="ssr:gruppe" v="gardsbebyggelse" />
		<tag k="ssr:hovedgruppe" v="bebyggelse" />
		<tag k="ssr:stedsnr" v="313365" />
		<tag k="ssr:type" v="bruk" />
	</node>
	<node lat="61.66023888772194" lon="11.789252771826488" id="-21626">
		<tag k="name" v="Bekkslåtten" />
		<tag k="place" v="locality" />
		<tag k="ssr:date" v="2019-12-27" />
		<tag k="ssr:gruppe" v="dyrkamark" />
		<tag k="ssr:hovedgruppe" v="markslag" />
		<tag k="ssr:stedsnr" v="313366" />
		<tag k="ssr:type" v="utmark" />
	</node>
	<node lat="61.71331666240856" lon="11.697319438340788" id="-21627">
		<tag k="name" v="Kastfloen" />
		<tag k="natural" v="water" />
		<tag k="ssr:date" v="2019-12-27" />
		<tag k="ssr:gruppe" v="rennendeVann" />
		<tag k="ssr:hovedgruppe" v="ferskvann" />
		<tag k="ssr:stedsnr" v="313273" />
		<tag k="ssr:type" v="lon" />
		<tag k="water" v="lake" />
	</node>
	<node lat="61.73105555183648" lon="11.754208335361335" id="-21628">
		<tag k="name" v="Dammen" />
		<tag k="ssr:date" v="2019-12-27" />
		<tag k="ssr:gruppe" v="stilleståendeVann" />
		<tag k="ssr:hovedgruppe" v="ferskvann" />
		<tag k="ssr:stedsnr" v="313276" />
		<tag k="ssr:type" v="dam" />
		<tag k="waterway" v="dam" />
	</node>
	<node lat="61.62109999957752" lon="12.020375001552617" id="-21629">
		<tag k="name" v="Engeren" />
		<tag k="natural" v="water" />
		<tag k="ssr:date" v="2019-12-27" />
		<tag k="ssr:gruppe" v="stilleståendeVann" />
		<tag k="ssr:hovedgruppe" v="ferskvann" />
		<tag k="ssr:stedsnr" v="313672" />
		<tag k="ssr:type" v="innsjø" />
		<tag k="water" v="lake" />
	</node>
	<node lat="61.62220278057523" lon="12.033513891257263" id="-21630">
		<tag k="name" v="Nylund" />
		<tag k="place" v="farm" />
		<tag k="ssr:date" v="2019-12-27" />
		<tag k="ssr:gruppe" v="gardsbebyggelse" />
		<tag k="ssr:hovedgruppe" v="bebyggelse" />
		<tag k="ssr:stedsnr" v="313679" />
		<tag k="ssr:type" v="bruk" />
	</node>
	<node lat="61.64287777633873" lon="12.20812222460058" id="-21631">
		<tag k="name" v="Sørmyra" />
		<tag k="natural" v="wetland" />
		<tag k="ssr:date" v="2019-12-27" />
		<tag k="ssr:gruppe" v="våtmark" />
		<tag k="ssr:hovedgruppe" v="markslag" />
		<tag k="ssr:stedsnr" v="313685" />
		<tag k="ssr:type" v="myr" />
	</node>
	<node lat="61.63382499678906" lon="12.127163880123923" id="-21632">
		<tag k="name" v="Stormerramyra" />
		<tag k="natural" v="wetland" />
		<tag k="ssr:date" v="2019-12-27" />
		<tag k="ssr:gruppe" v="våtmark" />
		<tag k="ssr:hovedgruppe" v="markslag" />
		<tag k="ssr:stedsnr" v="313687" />
		<tag k="ssr:type" v="myr" />
	</node>
	<node lat="61.981577778201505" lon="11.782675008465883" id="-21633">
		<tag k="name" v="Storholmen" />
		<tag k="place" v="islet" />
		<tag k="ssr:date" v="2019-12-27" />
		<tag k="ssr:gruppe" v="ferskvannskontur" />
		<tag k="ssr:hovedgruppe" v="ferskvann" />
		<tag k="ssr:stedsnr" v="314077" />
		<tag k="ssr:type" v="holme" />
	</node>
	<node lat="61.93708889180195" lon="11.800183325518226" id="-21634">
		<tag k="name" v="Barnholmen" />
		<tag k="place" v="islet" />
		<tag k="ssr:date" v="2019-12-27" />
		<tag k="ssr:gruppe" v="ferskvannskontur" />
		<tag k="ssr:hovedgruppe" v="ferskvann" />
		<tag k="ssr:stedsnr" v="314122" />
		<tag k="ssr:type" v="holme" />
	</node>
	<node lat="62.0660805556299" lon="12.1635277852196" id="-21635">
		<tag k="name" v="Abbortjønna" />
		<tag k="natural" v="water" />
		<tag k="ssr:date" v="2019-12-27" />
		<tag k="ssr:gruppe" v="stilleståendeVann" />
		<tag k="ssr:hovedgruppe" v="ferskvann" />
		<tag k="ssr:stedsnr" v="314323" />
		<tag k="ssr:type" v="tjern" />
	</node>
	<node lat="62.039011108594764" lon="12.108499990835872" id="-21636">
		<tag k="name" v="Småsjøelva" />
		<tag k="ssr:date" v="2019-12-27" />
		<tag k="ssr:gruppe" v="rennendeVann" />
		<tag k="ssr:hovedgruppe" v="ferskvann" />
		<tag k="ssr:stedsnr" v="314325" />
		<tag k="ssr:type" v="bekk" />
		<tag k="waterway" v="stream" />
	</node>
	<node lat="62.04762568320933" lon="11.659129066687743" id="-21637">
		<tag k="name" v="Skåran" />
		<tag k="natural" v="valley" />
		<tag k="place" v="locality" />
		<tag k="ssr:date" v="2021-08-12" />
		<tag k="ssr:gruppe" v="senkninger" />
		<tag k="ssr:hovedgruppe" v="terreng" />
		<tag k="ssr:stedsnr" v="314458" />
		<tag k="ssr:type" v="skar" />
	</node>
	<node lat="62.036449999953184" lon="11.71613056505516" id="-21638">
		<tag k="name" v="Åsli" />
		<tag k="place" v="farm" />
		<tag k="ssr:date" v="2019-12-27" />
		<tag k="ssr:gruppe" v="gardsbebyggelse" />
		<tag k="ssr:hovedgruppe" v="bebyggelse" />
		<tag k="ssr:stedsnr" v="314466" />
		<tag k="ssr:type" v="bruk" />
	</node>
	<node lat="62.02297222068896" lon="11.639627777110393" id="-21639">
		<tag k="name" v="Hopparbekken" />
		<tag k="ssr:date" v="2019-12-27" />
		<tag k="ssr:gruppe" v="rennendeVann" />
		<tag k="ssr:hovedgruppe" v="ferskvann" />
		<tag k="ssr:stedsnr" v="314472" />
		<tag k="ssr:type" v="bekk" />
		<tag k="waterway" v="stream" />
	</node>
	<node lat="62.200657773694154" lon="12.16817594120038" id="-21640">
		<tag k="name" v="Rønsjøen" />
		<tag k="natural" v="water" />
		<tag k="ssr:date" v="2019-12-27" />
		<tag k="ssr:gruppe" v="stilleståendeVann" />
		<tag k="ssr:hovedgruppe" v="ferskvann" />
		<tag k="ssr:stedsnr" v="314366" />
		<tag k="ssr:type" v="vann" />
		<tag k="water" v="lake" />
	</node>
	<node lat="61.827425000665215" lon="12.037958339129839" id="-21641">
		<tag k="name" v="Storbekkmyra" />
		<tag k="natural" v="wetland" />
		<tag k="ssr:date" v="2019-12-27" />
		<tag k="ssr:gruppe" v="våtmark" />
		<tag k="ssr:hovedgruppe" v="markslag" />
		<tag k="ssr:stedsnr" v="314808" />
		<tag k="ssr:type" v="myr" />
	</node>
	<node lat="61.82404444534883" lon="12.098913895278915" id="-21642">
		<tag k="name" v="Stubbanetjønna" />
		<tag k="natural" v="water" />
		<tag k="ssr:date" v="2019-12-27" />
		<tag k="ssr:gruppe" v="stilleståendeVann" />
		<tag k="ssr:hovedgruppe" v="ferskvann" />
		<tag k="ssr:stedsnr" v="314813" />
		<tag k="ssr:type" v="tjern" />
	</node>
	<node lat="61.87098889322411" lon="12.022702776780257" id="-21643">
		<tag k="name" v="Åsvang" />
		<tag k="place" v="farm" />
		<tag k="ssr:date" v="2019-12-27" />
		<tag k="ssr:gruppe" v="gardsbebyggelse" />
		<tag k="ssr:hovedgruppe" v="bebyggelse" />
		<tag k="ssr:stedsnr" v="314825" />
		<tag k="ssr:type" v="bruk" />
	</node>
	<node lat="61.88029166809187" lon="12.16539721810882" id="-21644">
		<tag k="alt_name" v="Vordsjøen" />
		<tag k="name" v="Vålsjøen" />
		<tag k="natural" v="water" />
		<tag k="ssr:date" v="2019-12-27" />
		<tag k="ssr:gruppe" v="stilleståendeVann" />
		<tag k="ssr:hovedgruppe" v="ferskvann" />
		<tag k="ssr:stedsnr" v="314829" />
		<tag k="ssr:type" v="tjern" />
	</node>
	<node lat="61.880520084832405" lon="12.056269370479315" id="-21645">
		<tag k="name" v="Brennodden" />
		<tag k="place" v="locality" />
		<tag k="ssr:date" v="2020-04-28" />
		<tag k="ssr:gruppe" v="gardsbebyggelse" />
		<tag k="ssr:hovedgruppe" v="bebyggelse" />
		<tag k="ssr:stedsnr" v="314832" />
		<tag k="ssr:type" v="eiendom" />
	</node>
	<node lat="61.78074166285443" lon="11.6384555536395" id="-21646">
		<tag k="name" v="Fløta" />
		<tag k="place" v="locality" />
		<tag k="ssr:date" v="2019-12-27" />
		<tag k="ssr:gruppe" v="rennendeVann" />
		<tag k="ssr:hovedgruppe" v="ferskvann" />
		<tag k="ssr:stedsnr" v="314911" />
		<tag k="ssr:type" v="høl" />
	</node>
	<node lat="61.77356666280785" lon="11.754308325603665" id="-21647">
		<tag k="alt_name" v="Granbergtangen" />
		<tag k="fixme" v="consider natural=peak for the most distinct mountains in the district" />
		<tag k="name" v="Granberget" />
		<tag k="natural" v="hill" />
		<tag k="place" v="locality" />
		<tag k="ssr:date" v="2019-12-27" />
		<tag k="ssr:gruppe" v="høyder" />
		<tag k="ssr:hovedgruppe" v="terreng" />
		<tag k="ssr:stedsnr" v="314912" />
		<tag k="ssr:type" v="ås" />
	</node>
	<node lat="61.79825833018004" lon="11.708219453413221" id="-21648">
		<tag k="name" v="Bjørbekken" />
		<tag k="ssr:date" v="2019-12-27" />
		<tag k="ssr:gruppe" v="rennendeVann" />
		<tag k="ssr:hovedgruppe" v="ferskvann" />
		<tag k="ssr:stedsnr" v="314914" />
		<tag k="ssr:type" v="bekk" />
		<tag k="waterway" v="stream" />
	</node>
	<node lat="62.26186612601502" lon="12.156697842769995" id="-21649">
		<tag k="name" v="Finnvolltjønnan" />
		<tag k="natural" v="water" />
		<tag k="ssr:date" v="2021-06-08" />
		<tag k="ssr:gruppe" v="stilleståendeVann" />
		<tag k="ssr:hovedgruppe" v="ferskvann" />
		<tag k="ssr:stedsnr" v="315667" />
		<tag k="ssr:type" v="gruppeAvTjern" />
		<tag k="water" v="lake" />
	</node>
	<node lat="62.072125003966924" lon="11.623388889874649" id="-21650">
		<tag k="name" v="Litlbuhøgda" />
		<tag k="natural" v="hill" />
		<tag k="place" v="locality" />
		<tag k="ssr:date" v="2021-06-08" />
		<tag k="ssr:gruppe" v="høyder" />
		<tag k="ssr:hovedgruppe" v="terreng" />
		<tag k="ssr:stedsnr" v="324406" />
		<tag k="ssr:type" v="haug" />
	</node>
	<node lat="62.090766667115474" lon="11.960027769315104" id="-21651">
		<tag k="name" v="Midttjønna" />
		<tag k="natural" v="water" />
		<tag k="ssr:date" v="2021-06-08" />
		<tag k="ssr:gruppe" v="stilleståendeVann" />
		<tag k="ssr:hovedgruppe" v="ferskvann" />
		<tag k="ssr:stedsnr" v="324412" />
		<tag k="ssr:type" v="vann" />
		<tag k="water" v="lake" />
	</node>
	<node lat="61.75453333706918" lon="11.96498055226421" id="-21653">
		<tag k="name" v="Nordi" />
		<tag k="place" v="farm" />
		<tag k="ssr:date" v="2019-12-27" />
		<tag k="ssr:gruppe" v="gardsbebyggelse" />
		<tag k="ssr:hovedgruppe" v="bebyggelse" />
		<tag k="ssr:stedsnr" v="341042" />
		<tag k="ssr:type" v="bruk" />
	</node>
	<node lat="61.89651666912511" lon="12.01012222476836" id="-21654">
		<tag k="alt_name" v="Drevsjømoen mellom" />
		<tag k="name" v="Midtre Drevsjømoen" />
		<tag k="place" v="farm" />
		<tag k="ssr:date" v="2019-12-27" />
		<tag k="ssr:gruppe" v="gardsbebyggelse" />
		<tag k="ssr:hovedgruppe" v="bebyggelse" />
		<tag k="ssr:stedsnr" v="342002" />
		<tag k="ssr:type" v="bruk" />
	</node>
	<node lat="61.91364444070251" lon="12.088933325773418" id="-21655">
		<tag k="name" v="Vintervegskardet" />
		<tag k="natural" v="valley" />
		<tag k="place" v="locality" />
		<tag k="ssr:date" v="2019-12-27" />
		<tag k="ssr:gruppe" v="senkninger" />
		<tag k="ssr:hovedgruppe" v="terreng" />
		<tag k="ssr:stedsnr" v="342018" />
		<tag k="ssr:type" v="skar" />
	</node>
	<node lat="61.90083889286401" lon="12.101050006324472" id="-21656">
		<tag k="name" v="Hallsteinsskardet" />
		<tag k="natural" v="valley" />
		<tag k="place" v="locality" />
		<tag k="ssr:date" v="2019-12-27" />
		<tag k="ssr:gruppe" v="senkninger" />
		<tag k="ssr:hovedgruppe" v="terreng" />
		<tag k="ssr:stedsnr" v="342019" />
		<tag k="ssr:type" v="skar" />
	</node>
	<node lat="61.83460277947028" lon="11.727541668006568" id="-21657">
		<tag k="fixme" v="consider tourism=alpine_hut or tourism=chalet" />
		<tag k="name" v="Femundsundet turisthytte" />
		<tag k="ssr:date" v="2019-12-27" />
		<tag k="ssr:gruppe" v="næring" />
		<tag k="ssr:hovedgruppe" v="bebyggelse" />
		<tag k="ssr:stedsnr" v="344046" />
		<tag k="ssr:type" v="turisthytte" />
		<tag k="tourism" v="wilderness_hut" />
	</node>
	<node lat="61.647347223586024" lon="11.832441670372486" id="-21658">
		<tag k="name" v="Strikåsa" />
		<tag k="ssr:date" v="2019-12-27" />
		<tag k="ssr:gruppe" v="rennendeVann" />
		<tag k="ssr:hovedgruppe" v="ferskvann" />
		<tag k="ssr:stedsnr" v="473142" />
		<tag k="ssr:type" v="stryk" />
		<tag k="waterway" v="rapids" />
	</node>
	<node lat="61.83505278205216" lon="11.731058336694874" id="-21659">
		<tag k="fixme" v="consider tourism=alpine_hut or tourism=chalet" />
		<tag k="name" v="Sølenstua Camp &amp; Hytter" />
		<tag k="ssr:date" v="2019-12-27" />
		<tag k="ssr:gruppe" v="næring" />
		<tag k="ssr:hovedgruppe" v="bebyggelse" />
		<tag k="ssr:stedsnr" v="346106" />
		<tag k="ssr:type" v="turisthytte" />
		<tag k="tourism" v="wilderness_hut" />
	</node>
	<node lat="61.65314166935871" lon="12.024588897085605" id="-21660">
		<tag k="name" v="Hyllneset" />
		<tag k="natural" v="cape" />
		<tag k="ssr:date" v="2019-12-27" />
		<tag k="ssr:gruppe" v="ferskvannskontur" />
		<tag k="ssr:hovedgruppe" v="ferskvann" />
		<tag k="ssr:stedsnr" v="358206" />
		<tag k="ssr:type" v="nes" />
	</node>
	<node lat="62.02481944761228" lon="11.73888333545159" id="-21661">
		<tag k="name" v="Storkroken" />
		<tag k="place" v="locality" />
		<tag k="ssr:date" v="2019-12-27" />
		<tag k="ssr:gruppe" v="detaljerIFerskvann" />
		<tag k="ssr:hovedgruppe" v="ferskvann" />
		<tag k="ssr:stedsnr" v="358362" />
		<tag k="ssr:type" v="annenVanndetalj" />
	</node>
	<node lat="62.16071944320525" lon="11.731269444566209" id="-21662">
		<tag k="alt_name" v="Tyldalsvika" />
		<tag k="name" v="Tylldalsvika" />
		<tag k="natural" v="bay" />
		<tag k="ssr:date" v="2019-12-27" />
		<tag k="ssr:gruppe" v="ferskvannskontur" />
		<tag k="ssr:hovedgruppe" v="ferskvann" />
		<tag k="ssr:stedsnr" v="358906" />
		<tag k="ssr:type" v="vik" />
	</node>
	<node lat="62.10168333037776" lon="11.6465055612436" id="-21663">
		<tag k="name" v="Gråegga" />
		<tag k="natural" v="hill" />
		<tag k="place" v="locality" />
		<tag k="ssr:date" v="2019-12-27" />
		<tag k="ssr:gruppe" v="høyder" />
		<tag k="ssr:hovedgruppe" v="terreng" />
		<tag k="ssr:stedsnr" v="359054" />
		<tag k="ssr:type" v="høyde" />
	</node>
	<node lat="62.0946222255386" lon="11.65087221347932" id="-21664">
		<tag k="name" v="Bakosegga" />
		<tag k="natural" v="hill" />
		<tag k="place" v="locality" />
		<tag k="ssr:date" v="2019-12-27" />
		<tag k="ssr:gruppe" v="høyder" />
		<tag k="ssr:hovedgruppe" v="terreng" />
		<tag k="ssr:stedsnr" v="359060" />
		<tag k="ssr:type" v="høyde" />
	</node>
	<node lat="62.16287222407039" lon="11.985822219504188" id="-21665">
		<tag k="name" v="Rundmyrloken" />
		<tag k="natural" v="water" />
		<tag k="ssr:date" v="2019-12-27" />
		<tag k="ssr:gruppe" v="stilleståendeVann" />
		<tag k="ssr:hovedgruppe" v="ferskvann" />
		<tag k="ssr:stedsnr" v="359210" />
		<tag k="ssr:type" v="tjern" />
	</node>
	<node lat="61.772752774021676" lon="12.132347214248297" id="-21666">
		<tag k="name" v="Kvisflået" />
		<tag k="natural" v="wetland" />
		<tag k="ssr:date" v="2019-12-27" />
		<tag k="ssr:gruppe" v="våtmark" />
		<tag k="ssr:hovedgruppe" v="markslag" />
		<tag k="ssr:stedsnr" v="359606" />
		<tag k="ssr:type" v="myr" />
	</node>
	<node lat="61.716713885352085" lon="11.74781667545212" id="-21667">
		<tag k="name" v="Haradalen" />
		<tag k="natural" v="valley" />
		<tag k="place" v="locality" />
		<tag k="ssr:date" v="2019-12-27" />
		<tag k="ssr:gruppe" v="senkninger" />
		<tag k="ssr:hovedgruppe" v="terreng" />
		<tag k="ssr:stedsnr" v="359862" />
		<tag k="ssr:type" v="dal" />
	</node>
	<node lat="61.63514166316382" lon="11.83733610537966" id="-21668">
		<tag k="name" v="Andvikbekken" />
		<tag k="ssr:date" v="2019-12-27" />
		<tag k="ssr:gruppe" v="rennendeVann" />
		<tag k="ssr:hovedgruppe" v="ferskvann" />
		<tag k="ssr:stedsnr" v="477241" />
		<tag k="ssr:type" v="bekk" />
		<tag k="waterway" v="stream" />
	</node>
	<node lat="61.611786109867346" lon="12.046869451543444" id="-21670">
		<tag k="name" v="Høgtun" />
		<tag k="place" v="farm" />
		<tag k="ssr:date" v="2019-12-27" />
		<tag k="ssr:gruppe" v="gardsbebyggelse" />
		<tag k="ssr:hovedgruppe" v="bebyggelse" />
		<tag k="ssr:stedsnr" v="478639" />
		<tag k="ssr:type" v="bruk" />
	</node>
	<node lat="61.61050555944333" lon="12.044938894545517" id="-21671">
		<tag k="name" v="Rødalen" />
		<tag k="place" v="farm" />
		<tag k="ssr:date" v="2019-12-27" />
		<tag k="ssr:gruppe" v="gardsbebyggelse" />
		<tag k="ssr:hovedgruppe" v="bebyggelse" />
		<tag k="ssr:stedsnr" v="478641" />
		<tag k="ssr:type" v="bruk" />
	</node>
	<node lat="62.14251111547862" lon="11.612900002627361" id="-21672">
		<tag k="historic" v="shieling" />
		<tag k="name" v="Langoddvollen" />
		<tag k="place" v="isolated_dwelling" />
		<tag k="ssr:date" v="2019-12-27" />
		<tag k="ssr:gruppe" v="gardsbebyggelse" />
		<tag k="ssr:hovedgruppe" v="bebyggelse" />
		<tag k="ssr:stedsnr" v="478881" />
		<tag k="ssr:type" v="seterStøl" />
	</node>
	<node lat="62.145319441731495" lon="11.632274995923844" id="-21673">
		<tag k="name" v="Nordre Langvika" />
		<tag k="natural" v="bay" />
		<tag k="ssr:date" v="2019-12-27" />
		<tag k="ssr:gruppe" v="ferskvannskontur" />
		<tag k="ssr:hovedgruppe" v="ferskvann" />
		<tag k="ssr:stedsnr" v="478883" />
		<tag k="ssr:type" v="vik" />
	</node>
	<node lat="62.21126666618035" lon="11.866641676207394" id="-21674">
		<tag k="name" v="Berga" />
		<tag k="natural" v="hill" />
		<tag k="place" v="locality" />
		<tag k="ssr:date" v="2019-12-27" />
		<tag k="ssr:gruppe" v="høyder" />
		<tag k="ssr:hovedgruppe" v="terreng" />
		<tag k="ssr:stedsnr" v="479176" />
		<tag k="ssr:type" v="haug" />
	</node>
	<node lat="61.63957500351672" lon="12.182699994306503" id="-21675">
		<tag k="name" v="Gjotmarka" />
		<tag k="natural" v="slope" />
		<tag k="place" v="locality" />
		<tag k="ssr:date" v="2019-12-27" />
		<tag k="ssr:gruppe" v="skråninger" />
		<tag k="ssr:hovedgruppe" v="terreng" />
		<tag k="ssr:stedsnr" v="373697" />
		<tag k="ssr:type" v="bakke" />
	</node>
	<node lat="61.65308055558167" lon="11.858261115199415" id="-21676">
		<tag k="name" v="Mælbekken" />
		<tag k="ssr:date" v="2019-12-27" />
		<tag k="ssr:gruppe" v="rennendeVann" />
		<tag k="ssr:hovedgruppe" v="ferskvann" />
		<tag k="ssr:stedsnr" v="373647" />
		<tag k="ssr:type" v="bekk" />
		<tag k="waterway" v="stream" />
	</node>
	<node lat="61.659464706965885" lon="12.226414706334754" id="-21677">
		<tag k="alt_name" v="Østrefjellet" />
		<tag k="fixme" v="consider natural=peak for the most distinct mountains in the district" />
		<tag k="name" v="Østerfjellet" />
		<tag k="natural" v="hill" />
		<tag k="place" v="locality" />
		<tag k="ssr:date" v="2019-12-27" />
		<tag k="ssr:gruppe" v="høyder" />
		<tag k="ssr:hovedgruppe" v="terreng" />
		<tag k="ssr:stedsnr" v="373651" />
		<tag k="ssr:type" v="fjell" />
	</node>
	<node lat="61.654813891336026" lon="12.152211118526083" id="-21678">
		<tag k="name" v="Karttjønna" />
		<tag k="natural" v="water" />
		<tag k="ssr:date" v="2019-12-27" />
		<tag k="ssr:gruppe" v="stilleståendeVann" />
		<tag k="ssr:hovedgruppe" v="ferskvann" />
		<tag k="ssr:stedsnr" v="373656" />
		<tag k="ssr:type" v="tjern" />
	</node>
	<node lat="62.05804444831606" lon="11.973433337907181" id="-21679">
		<tag k="name" v="Skogtjønna" />
		<tag k="natural" v="water" />
		<tag k="ssr:date" v="2021-06-08" />
		<tag k="ssr:gruppe" v="stilleståendeVann" />
		<tag k="ssr:hovedgruppe" v="ferskvann" />
		<tag k="ssr:stedsnr" v="374302" />
		<tag k="ssr:type" v="tjern" />
	</node>
	<node lat="62.06472642197768" lon="12.127124995062438" id="-21680">
		<tag k="fixme" v="multiple name tags, choose one and add the other to alt_name" />
		<tag k="name" v="Bjørnholbekken;Brunnhølbekken" />
		<tag k="ssr:date" v="2019-12-27" />
		<tag k="ssr:gruppe" v="rennendeVann" />
		<tag k="ssr:hovedgruppe" v="ferskvann" />
		<tag k="ssr:stedsnr" v="374303" />
		<tag k="ssr:type" v="bekk" />
		<tag k="waterway" v="stream" />
	</node>
	<node lat="62.07590833365807" lon="12.171508331367672" id="-21681">
		<tag k="fixme" v="consider tourism=alpine_hut or tourism=chalet" />
		<tag k="name" v="Valdalen gård" />
		<tag k="ssr:date" v="2019-12-27" />
		<tag k="ssr:gruppe" v="næring" />
		<tag k="ssr:hovedgruppe" v="bebyggelse" />
		<tag k="ssr:stedsnr" v="374308" />
		<tag k="ssr:type" v="turisthytte" />
		<tag k="tourism" v="wilderness_hut" />
	</node>
	<node lat="62.069200004190364" lon="12.106994451489445" id="-21682">
		<tag k="historic" v="shieling" />
		<tag k="name" v="Yttervollen" />
		<tag k="place" v="isolated_dwelling" />
		<tag k="ssr:date" v="2019-12-27" />
		<tag k="ssr:gruppe" v="gardsbebyggelse" />
		<tag k="ssr:hovedgruppe" v="bebyggelse" />
		<tag k="ssr:stedsnr" v="374319" />
		<tag k="ssr:type" v="seterStøl" />
	</node>
	<node lat="62.07181111199207" lon="11.819213881944327" id="-21683">
		<tag k="name" v="Jonasodden" />
		<tag k="natural" v="cape" />
		<tag k="ssr:date" v="2019-12-27" />
		<tag k="ssr:gruppe" v="ferskvannskontur" />
		<tag k="ssr:hovedgruppe" v="ferskvann" />
		<tag k="ssr:stedsnr" v="374321" />
		<tag k="ssr:type" v="nes" />
	</node>
	<node lat="61.6486499964834" lon="11.834561113569588" id="-21684">
		<tag k="name" v="Kviløya" />
		<tag k="place" v="island" />
		<tag k="ssr:date" v="2019-12-27" />
		<tag k="ssr:gruppe" v="ferskvannskontur" />
		<tag k="ssr:hovedgruppe" v="ferskvann" />
		<tag k="ssr:stedsnr" v="374350" />
		<tag k="ssr:type" v="øy" />
	</node>
	<node lat="61.715708331563846" lon="11.802199994753806" id="-21685">
		<tag k="name" v="Storbekken" />
		<tag k="ssr:date" v="2019-12-27" />
		<tag k="ssr:gruppe" v="rennendeVann" />
		<tag k="ssr:hovedgruppe" v="ferskvann" />
		<tag k="ssr:stedsnr" v="374289" />
		<tag k="ssr:type" v="bekk" />
		<tag k="waterway" v="stream" />
	</node>
	<node lat="62.10405277896368" lon="12.207005546465448" id="-21686">
		<tag k="alt_name" v="Olåa, l" />
		<tag k="name" v="Litle Olåa" />
		<tag k="ssr:date" v="2019-12-27" />
		<tag k="ssr:gruppe" v="rennendeVann" />
		<tag k="ssr:hovedgruppe" v="ferskvann" />
		<tag k="ssr:stedsnr" v="374295" />
		<tag k="ssr:type" v="bekk" />
		<tag k="waterway" v="stream" />
	</node>
	<node lat="62.09849722283052" lon="12.140050001284944" id="-21687">
		<tag k="name" v="Rundhøgda" />
		<tag k="natural" v="hill" />
		<tag k="place" v="locality" />
		<tag k="ssr:date" v="2019-12-27" />
		<tag k="ssr:gruppe" v="høyder" />
		<tag k="ssr:hovedgruppe" v="terreng" />
		<tag k="ssr:stedsnr" v="374296" />
		<tag k="ssr:type" v="haug" />
	</node>
	<node lat="62.0592522633857" lon="11.88674655251473" id="-21688">
		<tag k="alt_name" v="Gråsneset, store" />
		<tag k="name" v="Store Gråsneset" />
		<tag k="natural" v="cape" />
		<tag k="ssr:date" v="2019-12-27" />
		<tag k="ssr:gruppe" v="ferskvannskontur" />
		<tag k="ssr:hovedgruppe" v="ferskvann" />
		<tag k="ssr:stedsnr" v="374301" />
		<tag k="ssr:type" v="nes" />
	</node>
	<node lat="61.693699998059" lon="12.018527770589458" id="-21689">
		<tag k="name" v="Vetbekkmyrene" />
		<tag k="natural" v="wetland" />
		<tag k="ssr:date" v="2019-12-27" />
		<tag k="ssr:gruppe" v="våtmark" />
		<tag k="ssr:hovedgruppe" v="markslag" />
		<tag k="ssr:stedsnr" v="374731" />
		<tag k="ssr:type" v="myr" />
	</node>
	<node lat="61.697180552219216" lon="11.940041667868845" id="-21690">
		<tag k="alt_name" v="Grønnhulubekken" />
		<tag k="name" v="Grønholbekken" />
		<tag k="ssr:date" v="2019-12-27" />
		<tag k="ssr:gruppe" v="rennendeVann" />
		<tag k="ssr:hovedgruppe" v="ferskvann" />
		<tag k="ssr:stedsnr" v="374733" />
		<tag k="ssr:type" v="bekk" />
		<tag k="waterway" v="stream" />
	</node>
	<node lat="61.7021972243195" lon="12.053758334784156" id="-21691">
		<tag k="name" v="Nystorbekken" />
		<tag k="ssr:date" v="2019-12-27" />
		<tag k="ssr:gruppe" v="rennendeVann" />
		<tag k="ssr:hovedgruppe" v="ferskvann" />
		<tag k="ssr:stedsnr" v="374737" />
		<tag k="ssr:type" v="bekk" />
		<tag k="waterway" v="stream" />
	</node>
	<node lat="61.70761944273187" lon="11.963822220035691" id="-21692">
		<tag k="name" v="Grasbekken" />
		<tag k="ssr:date" v="2019-12-27" />
		<tag k="ssr:gruppe" v="rennendeVann" />
		<tag k="ssr:hovedgruppe" v="ferskvann" />
		<tag k="ssr:stedsnr" v="374740" />
		<tag k="ssr:type" v="bekk" />
		<tag k="waterway" v="stream" />
	</node>
	<node lat="61.72286388454106" lon="11.973050000704205" id="-21693">
		<tag k="name" v="Brustad" />
		<tag k="place" v="farm" />
		<tag k="ssr:date" v="2019-12-27" />
		<tag k="ssr:gruppe" v="gardsbebyggelse" />
		<tag k="ssr:hovedgruppe" v="bebyggelse" />
		<tag k="ssr:stedsnr" v="374750" />
		<tag k="ssr:type" v="bruk" />
	</node>
	<node lat="61.844052720159766" lon="11.84436913517936" id="-21694">
		<tag k="name" v="Gløtvola" />
		<tag k="old_name" v="Gløtvorda" />
		<tag k="place" v="hamlet" />
		<tag k="ssr:date" v="2020-04-28" />
		<tag k="ssr:gruppe" v="bebyggelsesområder" />
		<tag k="ssr:hovedgruppe" v="bebyggelse" />
		<tag k="ssr:stedsnr" v="374835" />
		<tag k="ssr:type" v="grend" />
	</node>
	<node lat="61.850222226254516" lon="12.003200009723654" id="-21695">
		<tag k="alt_name" v="Skau" />
		<tag k="name" v="Skog" />
		<tag k="place" v="farm" />
		<tag k="ssr:date" v="2019-12-27" />
		<tag k="ssr:gruppe" v="gardsbebyggelse" />
		<tag k="ssr:hovedgruppe" v="bebyggelse" />
		<tag k="ssr:stedsnr" v="374842" />
		<tag k="ssr:type" v="bruk" />
	</node>
	<node lat="61.84808610680415" lon="11.93983055129256" id="-21696">
		<tag k="alt_name" v="Hovdbekken, nordre" />
		<tag k="name" v="Nordre Hovdbekken" />
		<tag k="ssr:date" v="2019-12-27" />
		<tag k="ssr:gruppe" v="rennendeVann" />
		<tag k="ssr:hovedgruppe" v="ferskvann" />
		<tag k="ssr:stedsnr" v="374847" />
		<tag k="ssr:type" v="bekk" />
		<tag k="waterway" v="stream" />
	</node>
	<node lat="61.98342500028525" lon="11.891583327157692" id="-21697">
		<tag k="name" v="Veslbuvika" />
		<tag k="natural" v="bay" />
		<tag k="ssr:date" v="2019-12-27" />
		<tag k="ssr:gruppe" v="ferskvannskontur" />
		<tag k="ssr:hovedgruppe" v="ferskvann" />
		<tag k="ssr:stedsnr" v="374908" />
		<tag k="ssr:type" v="vik" />
	</node>
	<node lat="62.12793888884806" lon="11.64841388968259" id="-21698">
		<tag k="name" v="Håen" />
		<tag k="natural" v="water" />
		<tag k="ssr:date" v="2019-12-27" />
		<tag k="ssr:gruppe" v="rennendeVann" />
		<tag k="ssr:hovedgruppe" v="ferskvann" />
		<tag k="ssr:stedsnr" v="480039" />
		<tag k="ssr:type" v="lon" />
		<tag k="water" v="lake" />
	</node>
	<node lat="61.97666944470546" lon="11.79795555759737" id="-21699">
		<tag k="name" v="Nysandvika" />
		<tag k="natural" v="bay" />
		<tag k="ssr:date" v="2019-12-27" />
		<tag k="ssr:gruppe" v="ferskvannskontur" />
		<tag k="ssr:hovedgruppe" v="ferskvann" />
		<tag k="ssr:stedsnr" v="375086" />
		<tag k="ssr:type" v="vik" />
	</node>
	<node lat="62.13160833616557" lon="12.060913888655913" id="-21700">
		<tag k="name" v="Storslågskardet" />
		<tag k="natural" v="valley" />
		<tag k="place" v="locality" />
		<tag k="ssr:date" v="2019-12-27" />
		<tag k="ssr:gruppe" v="senkninger" />
		<tag k="ssr:hovedgruppe" v="terreng" />
		<tag k="ssr:stedsnr" v="375210" />
		<tag k="ssr:type" v="skar" />
	</node>
	<node lat="62.16385278198831" lon="11.87305555239167" id="-21701">
		<tag k="name" v="Storholmen" />
		<tag k="place" v="islet" />
		<tag k="ssr:date" v="2019-12-27" />
		<tag k="ssr:gruppe" v="ferskvannskontur" />
		<tag k="ssr:hovedgruppe" v="ferskvann" />
		<tag k="ssr:stedsnr" v="375308" />
		<tag k="ssr:type" v="holme" />
	</node>
	<node lat="62.163966668627346" lon="11.963338891372372" id="-21702">
		<tag k="name" v="Røstbekken" />
		<tag k="ssr:date" v="2019-12-27" />
		<tag k="ssr:gruppe" v="rennendeVann" />
		<tag k="ssr:hovedgruppe" v="ferskvann" />
		<tag k="ssr:stedsnr" v="375312" />
		<tag k="ssr:type" v="bekk" />
		<tag k="waterway" v="stream" />
	</node>
	<node lat="62.15731111448402" lon="11.90028056028104" id="-21703">
		<tag k="name" v="Elvodden" />
		<tag k="natural" v="cape" />
		<tag k="ssr:date" v="2019-12-27" />
		<tag k="ssr:gruppe" v="ferskvannskontur" />
		<tag k="ssr:hovedgruppe" v="ferskvann" />
		<tag k="ssr:stedsnr" v="375336" />
		<tag k="ssr:type" v="nes" />
	</node>
	<node lat="62.27340555360433" lon="12.160402768398859" id="-21704">
		<tag k="name" v="Stortjønna" />
		<tag k="natural" v="water" />
		<tag k="ssr:date" v="2021-06-08" />
		<tag k="ssr:gruppe" v="stilleståendeVann" />
		<tag k="ssr:hovedgruppe" v="ferskvann" />
		<tag k="ssr:stedsnr" v="375631" />
		<tag k="ssr:type" v="tjern" />
	</node>
	<node lat="62.26905555384695" lon="11.84750000610941" id="-21705">
		<tag k="name" v="Falkfangarhøgda" />
		<tag k="natural" v="hill" />
		<tag k="place" v="locality" />
		<tag k="ssr:date" v="2019-12-27" />
		<tag k="ssr:gruppe" v="høyder" />
		<tag k="ssr:hovedgruppe" v="terreng" />
		<tag k="ssr:stedsnr" v="375634" />
		<tag k="ssr:type" v="haug" />
	</node>
	<node lat="62.16841999305156" lon="12.239275079946022" id="-21706">
		<tag k="fixme" v="consider place=hamlet" />
		<tag k="name" v="Sylen" />
		<tag k="old_name" v="Sylset" />
		<tag k="place" v="farm" />
		<tag k="ssr:date" v="2020-04-29" />
		<tag k="ssr:gruppe" v="gardsbebyggelse" />
		<tag k="ssr:hovedgruppe" v="bebyggelse" />
		<tag k="ssr:stedsnr" v="375702" />
		<tag k="ssr:type" v="gard" />
	</node>
	<node lat="62.02471389003288" lon="11.945819445382146" id="-21707">
		<tag k="fixme" v="consider natural=peak for the most distinct mountains in the district" />
		<tag k="name" v="Stenvikåsen" />
		<tag k="natural" v="hill" />
		<tag k="place" v="locality" />
		<tag k="ssr:date" v="2021-06-08" />
		<tag k="ssr:gruppe" v="høyder" />
		<tag k="ssr:hovedgruppe" v="terreng" />
		<tag k="ssr:stedsnr" v="375719" />
		<tag k="ssr:type" v="ås" />
	</node>
	<node lat="61.772036114076116" lon="11.942750005335016" id="-21708">
		<tag k="name" v="Haugen" />
		<tag k="place" v="farm" />
		<tag k="ssr:date" v="2019-12-27" />
		<tag k="ssr:gruppe" v="gardsbebyggelse" />
		<tag k="ssr:hovedgruppe" v="bebyggelse" />
		<tag k="ssr:stedsnr" v="375725" />
		<tag k="ssr:type" v="bruk" />
	</node>
	<node lat="61.7936694456036" lon="12.010841673405018" id="-21709">
		<tag k="alt_name" v="Rundjotskarven" />
		<tag k="name" v="Rundgjotskarven" />
		<tag k="natural" v="hill" />
		<tag k="place" v="locality" />
		<tag k="ssr:date" v="2019-12-27" />
		<tag k="ssr:gruppe" v="høyder" />
		<tag k="ssr:hovedgruppe" v="terreng" />
		<tag k="ssr:stedsnr" v="375777" />
		<tag k="ssr:type" v="haug" />
	</node>
	<node lat="61.814394446060916" lon="11.914902780238041" id="-21710">
		<tag k="name" v="Pers" />
		<tag k="place" v="farm" />
		<tag k="ssr:date" v="2019-12-27" />
		<tag k="ssr:gruppe" v="gardsbebyggelse" />
		<tag k="ssr:hovedgruppe" v="bebyggelse" />
		<tag k="ssr:stedsnr" v="375789" />
		<tag k="ssr:type" v="bruk" />
	</node>
	<node lat="61.96467777670095" lon="12.124119445024766" id="-21711">
		<tag k="name" v="Skarpabbortjønna" />
		<tag k="natural" v="water" />
		<tag k="ssr:date" v="2019-12-27" />
		<tag k="ssr:gruppe" v="stilleståendeVann" />
		<tag k="ssr:hovedgruppe" v="ferskvann" />
		<tag k="ssr:stedsnr" v="375877" />
		<tag k="ssr:type" v="tjern" />
	</node>
	<node lat="61.97142301504661" lon="11.944534207228887" id="-21712">
		<tag k="fixme" v="consider place=hamlet" />
		<tag k="name" v="Sorken" />
		<tag k="place" v="village" />
		<tag k="ssr:date" v="2020-04-29" />
		<tag k="ssr:gruppe" v="bebyggelsesområder" />
		<tag k="ssr:hovedgruppe" v="bebyggelse" />
		<tag k="ssr:stedsnr" v="375885" />
		<tag k="ssr:type" v="bygdelagBygd" />
	</node>
	<node lat="61.968246372798575" lon="11.886942332186713" id="-21713">
		<tag k="name" v="Furuoddtjønnan" />
		<tag k="natural" v="water" />
		<tag k="ssr:date" v="2020-04-30" />
		<tag k="ssr:gruppe" v="stilleståendeVann" />
		<tag k="ssr:hovedgruppe" v="ferskvann" />
		<tag k="ssr:stedsnr" v="375897" />
		<tag k="ssr:type" v="gruppeAvTjern" />
		<tag k="water" v="lake" />
	</node>
	<node lat="61.90743333274356" lon="11.825550002467118" id="-21714">
		<tag k="fixme" v="consider natural=peak for the most distinct mountains in the district" />
		<tag k="name" v="Snauåsen" />
		<tag k="natural" v="hill" />
		<tag k="place" v="locality" />
		<tag k="ssr:date" v="2019-12-27" />
		<tag k="ssr:gruppe" v="høyder" />
		<tag k="ssr:hovedgruppe" v="terreng" />
		<tag k="ssr:stedsnr" v="375996" />
		<tag k="ssr:type" v="ås" />
	</node>
	<node lat="62.10278332892872" lon="11.667341670775016" id="-21715">
		<tag k="name" v="Brustad" />
		<tag k="place" v="farm" />
		<tag k="ssr:date" v="2019-12-27" />
		<tag k="ssr:gruppe" v="gardsbebyggelse" />
		<tag k="ssr:hovedgruppe" v="bebyggelse" />
		<tag k="ssr:stedsnr" v="480046" />
		<tag k="ssr:type" v="bruk" />
	</node>
</osm>
