<?xml version="1.0" encoding="UTF-8"?>
<osm version="0.6" generator="osmapis">
	<node id="60877941" lat="61.3469491" lon="5.0638033" version="6" timestamp="2022-08-21T17:05:36Z" changeset="125191964" uid="3497659" user="NKA">
		<tag k="name" v="Askvoll" />
		<tag k="place" v="village" />
		<tag k="population" v="718" />
		<tag k="population:date" v="2021-01-01" />
		<tag k="ref:ssb_tettsted" v="5611" />
		<tag k="source:population" v="SSB - befolkning i tettstedet" />
		<tag k="ssr:stedsnr" v="918246" />
	</node>
	<node id="126452458" lat="61.3661801" lon="5.2879596" version="5" timestamp="2022-08-21T17:05:36Z" changeset="125191964" uid="3497659" user="NKA">
		<tag k="alt_name" v="Eikenes" />
		<tag k="name" v="Eikeneset" />
		<tag k="place" v="hamlet" />
		<tag k="ssr:stedsnr" v="250171" />
	</node>
	<node id="2292001084" lat="61.3534296" lon="4.8942806" version="2" timestamp="2022-08-21T17:05:36Z" changeset="125191964" uid="3497659" user="NKA">
		<tag k="name" v="Herland" />
		<tag k="place" v="village" />
		<tag k="ssr:stedsnr" v="68246" />
	</node>
	<node id="3801255600" lat="61.4325038" lon="5.31515" version="2" timestamp="2022-08-21T17:05:36Z" changeset="125191964" uid="3497659" user="NKA">
		<tag k="alt_name" v="Skjerlid" />
		<tag k="name" v="Skjerlia" />
		<tag k="place" v="farm" />
		<tag k="ssr:stedsnr" v="128044" />
	</node>
	<node id="3801273982" lat="61.3821381" lon="5.3975098" version="3" timestamp="2022-08-21T17:05:36Z" changeset="125191964" uid="3497659" user="NKA">
		<tag k="name" v="Fossevik" />
		<tag k="place" v="isolated_dwelling" />
		<tag k="ssr:stedsnr" v="963300" />
	</node>
	<node id="4902095271" lat="61.3730311" lon="5.2661804" version="3" timestamp="2022-08-21T17:05:36Z" changeset="125191964" uid="3497659" user="NKA">
		<tag k="name" v="Vagstad" />
		<tag k="place" v="hamlet" />
		<tag k="ssr:stedsnr" v="69145" />
	</node>
	<node id="4938517712" lat="61.3737892" lon="5.2366488" version="2" timestamp="2022-08-21T17:05:36Z" changeset="125191964" uid="3497659" user="NKA">
		<tag k="alt_name" v="Flatabø" />
		<tag k="name" v="Flatebøen" />
		<tag k="place" v="farm" />
		<tag k="ssr:stedsnr" v="311171" />
	</node>
	<node id="4938517713" lat="61.3737667" lon="5.2422395" version="2" timestamp="2022-08-21T17:05:36Z" changeset="125191964" uid="3497659" user="NKA">
		<tag k="name" v="Fossheim" />
		<tag k="place" v="farm" />
		<tag k="ssr:stedsnr" v="493155" />
	</node>
	<node id="4938517714" lat="61.3643788" lon="5.2717085" version="2" timestamp="2022-08-21T17:05:36Z" changeset="125191964" uid="3497659" user="NKA">
		<tag k="name" v="Fagerheim" />
		<tag k="place" v="farm" />
		<tag k="ssr:stedsnr" v="218998" />
	</node>
	<node id="4938517715" lat="61.3610836" lon="5.2476544" version="2" timestamp="2022-08-21T17:05:36Z" changeset="125191964" uid="3497659" user="NKA">
		<tag k="name" v="Liset" />
		<tag k="place" v="farm" />
		<tag k="ssr:stedsnr" v="857186" />
	</node>
	<node id="4938517716" lat="61.3581017" lon="5.2085995" version="2" timestamp="2022-08-21T17:05:36Z" changeset="125191964" uid="3497659" user="NKA">
		<tag k="alt_name" v="Kleppenes" />
		<tag k="name" v="Kleppeneset" />
		<tag k="place" v="hamlet" />
		<tag k="ssr:stedsnr" v="918365" />
	</node>
	<node id="4938517717" lat="61.3602939" lon="5.2143874" version="2" timestamp="2022-08-21T17:05:36Z" changeset="125191964" uid="3497659" user="NKA">
		<tag k="name" v="Boge" />
		<tag k="place" v="farm" />
		<tag k="ssr:stedsnr" v="371173" />
	</node>
	<node id="4938517718" lat="61.3556361" lon="5.1736145" version="2" timestamp="2022-08-21T17:05:36Z" changeset="125191964" uid="3497659" user="NKA">
		<tag k="name" v="Lia" />
		<tag k="place" v="farm" />
		<tag k="ssr:stedsnr" v="129181" />
	</node>
	<node id="4938517719" lat="61.3569944" lon="5.1726811" version="2" timestamp="2022-08-21T17:05:36Z" changeset="125191964" uid="3497659" user="NKA">
		<tag k="name" v="Solbakken" />
		<tag k="place" v="farm" />
		<tag k="ssr:stedsnr" v="796162" />
	</node>
	<node id="4938517720" lat="61.3632373" lon="5.116315" version="2" timestamp="2022-08-21T17:05:36Z" changeset="125191964" uid="3497659" user="NKA">
		<tag k="name" v="Ringstad" />
		<tag k="place" v="hamlet" />
		<tag k="ssr:stedsnr" v="736193" />
	</node>
	<node id="4938517721" lat="61.3637745" lon="5.1436812" version="2" timestamp="2022-08-21T17:05:36Z" changeset="125191964" uid="3497659" user="NKA">
		<tag k="name" v="Mork" />
		<tag k="place" v="hamlet" />
		<tag k="ssr:stedsnr" v="372197" />
	</node>
	<node id="4938517722" lat="61.3645899" lon="5.1605185" version="2" timestamp="2022-08-21T17:05:36Z" changeset="125191964" uid="3497659" user="NKA">
		<tag k="alt_name" v="Blakstad" />
		<tag k="name" v="Blakkstad" />
		<tag k="place" v="farm" />
		<tag k="ssr:stedsnr" v="190189" />
	</node>
	<node id="4938517723" lat="61.3643066" lon="5.168428" version="2" timestamp="2022-08-21T17:05:36Z" changeset="125191964" uid="3497659" user="NKA">
		<tag k="alt_name" v="Tveit" />
		<tag k="name" v="Tveita" />
		<tag k="place" v="farm" />
		<tag k="ssr:stedsnr" v="68186" />
	</node>
	<node id="4938517733" lat="61.3275167" lon="5.1004757" version="2" timestamp="2022-08-21T17:05:36Z" changeset="125191964" uid="3497659" user="NKA">
		<tag k="name" v="Stuven" />
		<tag k="place" v="farm" />
		<tag k="ssr:stedsnr" v="371253" />
	</node>
	<node id="4938517734" lat="61.3263265" lon="5.1003613" version="2" timestamp="2022-08-21T17:05:36Z" changeset="125191964" uid="3497659" user="NKA">
		<tag k="name" v="Torsheim" />
		<tag k="place" v="farm" />
		<tag k="ssr:stedsnr" v="598672" />
	</node>
	<node id="4938517735" lat="61.3240345" lon="5.0969492" version="2" timestamp="2022-08-21T17:05:36Z" changeset="125191964" uid="3497659" user="NKA">
		<tag k="name" v="Dørhella" />
		<tag k="place" v="hamlet" />
		<tag k="ssr:stedsnr" v="68272" />
	</node>
	<node id="4938517736" lat="61.3347635" lon="5.0999348" version="2" timestamp="2022-08-21T17:05:36Z" changeset="125191964" uid="3497659" user="NKA">
		<tag k="name" v="Nes" />
		<tag k="place" v="hamlet" />
		<tag k="ssr:stedsnr" v="190367" />
	</node>
	<node id="4938517737" lat="61.3478584" lon="5.1127618" version="2" timestamp="2022-08-21T17:05:36Z" changeset="125191964" uid="3497659" user="NKA">
		<tag k="name" v="Melen" />
		<tag k="place" v="hamlet" />
		<tag k="ssr:stedsnr" v="250165" />
	</node>
	<node id="4938517738" lat="61.3432854" lon="5.1171209" version="2" timestamp="2022-08-21T17:05:36Z" changeset="125191964" uid="3497659" user="NKA">
		<tag k="name" v="Straumen" />
		<tag k="place" v="hamlet" />
		<tag k="ssr:stedsnr" v="251722" />
	</node>
	<node id="4938517739" lat="61.3449386" lon="5.1086136" version="2" timestamp="2022-08-21T17:05:36Z" changeset="125191964" uid="3497659" user="NKA">
		<tag k="name" v="Brunn" />
		<tag k="place" v="farm" />
		<tag k="ssr:stedsnr" v="397836" />
	</node>
	<node id="4938517740" lat="61.3433" lon="5.1111201" version="2" timestamp="2022-08-21T17:05:36Z" changeset="125191964" uid="3497659" user="NKA">
		<tag k="name" v="Tunet" />
		<tag k="place" v="farm" />
		<tag k="ssr:stedsnr" v="553314" />
	</node>
	<node id="4938517741" lat="61.3448059" lon="5.1202263" version="2" timestamp="2022-08-21T17:05:36Z" changeset="125191964" uid="3497659" user="NKA">
		<tag k="alt_name" v="Lofteim" />
		<tag k="name" v="Loftheim" />
		<tag k="place" v="farm" />
		<tag k="ssr:stedsnr" v="190333" />
	</node>
	<node id="4938517743" lat="61.3344" lon="5.1224033" version="2" timestamp="2022-08-21T17:05:36Z" changeset="125191964" uid="3497659" user="NKA">
		<tag k="alt_name" v="Flatbø" />
		<tag k="name" v="Flatebø" />
		<tag k="place" v="farm" />
		<tag k="ssr:stedsnr" v="675399" />
	</node>
	<node id="4938517745" lat="61.3286527" lon="5.1108644" version="2" timestamp="2022-08-21T17:05:36Z" changeset="125191964" uid="3497659" user="NKA">
		<tag k="name" v="Tangen" />
		<tag k="place" v="isolated_dwelling" />
		<tag k="ssr:stedsnr" v="735256" />
	</node>
	<node id="4938517746" lat="61.3287118" lon="5.1049078" version="2" timestamp="2022-08-21T17:05:36Z" changeset="125191964" uid="3497659" user="NKA">
		<tag k="alt_name" v="Myrane" />
		<tag k="name" v="Flaten" />
		<tag k="place" v="farm" />
		<tag k="ssr:stedsnr" v="310260" />
	</node>
	<node id="4938517747" lat="61.3316366" lon="5.077537" version="2" timestamp="2022-08-21T17:05:36Z" changeset="125191964" uid="3497659" user="NKA">
		<tag k="name" v="Olset" />
		<tag k="place" v="hamlet" />
		<tag k="ssr:stedsnr" v="553124" />
	</node>
	<node id="4938517748" lat="61.339325" lon="5.1034174" version="2" timestamp="2022-08-21T17:05:36Z" changeset="125191964" uid="3497659" user="NKA">
		<tag k="name" v="Festarvollen" />
		<tag k="place" v="farm" />
		<tag k="ssr:stedsnr" v="129359" />
	</node>
	<node id="4938517749" lat="61.3374732" lon="5.1073137" version="2" timestamp="2022-08-21T17:05:36Z" changeset="125191964" uid="3497659" user="NKA">
		<tag k="name" v="Vollen" />
		<tag k="place" v="farm" />
		<tag k="ssr:stedsnr" v="94867" />
	</node>
	<node id="4938518011" lat="61.3298083" lon="5.1255022" version="2" timestamp="2022-08-21T17:05:36Z" changeset="125191964" uid="3497659" user="NKA">
		<tag k="name" v="Helle" />
		<tag k="place" v="village" />
		<tag k="ssr:stedsnr" v="858371" />
	</node>
	<node id="4938518012" lat="61.3418205" lon="5.1686655" version="2" timestamp="2022-08-21T17:05:36Z" changeset="125191964" uid="3497659" user="NKA">
		<tag k="name" v="Åsen" />
		<tag k="place" v="farm" />
		<tag k="ssr:stedsnr" v="640652" />
	</node>
	<node id="4938518068" lat="61.3397334" lon="5.1735173" version="2" timestamp="2022-08-21T17:05:36Z" changeset="125191964" uid="3497659" user="NKA">
		<tag k="name" v="Vårneset" />
		<tag k="place" v="farm" />
		<tag k="ssr:stedsnr" v="918411" />
	</node>
	<node id="4938518163" lat="61.349714" lon="5.1628525" version="2" timestamp="2022-08-21T17:05:36Z" changeset="125191964" uid="3497659" user="NKA">
		<tag k="name" v="Nyheim" />
		<tag k="place" v="farm" />
		<tag k="ssr:stedsnr" v="250161" />
	</node>
	<node id="4938518164" lat="61.3488389" lon="5.1696757" version="2" timestamp="2022-08-21T17:05:36Z" changeset="125191964" uid="3497659" user="NKA">
		<tag k="name" v="Haugen" />
		<tag k="place" v="farm" />
		<tag k="ssr:stedsnr" v="493339" />
	</node>
	<node id="4938518165" lat="61.3334556" lon="5.166634" version="2" timestamp="2022-08-21T17:05:36Z" changeset="125191964" uid="3497659" user="NKA">
		<tag k="alt_name" v="Sandviken" />
		<tag k="name" v="Sandvika" />
		<tag k="place" v="farm" />
		<tag k="ssr:stedsnr" v="190377" />
	</node>
	<node id="4938518166" lat="61.3355034" lon="5.1542977" version="2" timestamp="2022-08-21T17:05:36Z" changeset="125191964" uid="3497659" user="NKA">
		<tag k="alt_name" v="Vårdal, ytre;Vårdal" />
		<tag k="name" v="Ytre Vårdal" />
		<tag k="place" v="farm" />
		<tag k="ssr:stedsnr" v="554379" />
	</node>
	<node id="4938518168" lat="61.3395934" lon="5.1626636" version="2" timestamp="2022-08-21T17:05:36Z" changeset="125191964" uid="3497659" user="NKA">
		<tag k="alt_name" v="Vårdal, in" />
		<tag k="name" v="Indre Vårdal" />
		<tag k="place" v="farm" />
		<tag k="ssr:stedsnr" v="405356" />
	</node>
	<node id="4938518169" lat="61.3524553" lon="5.1742257" version="2" timestamp="2022-08-21T17:05:36Z" changeset="125191964" uid="3497659" user="NKA">
		<tag k="name" v="Hammaren" />
		<tag k="place" v="farm" />
		<tag k="ssr:stedsnr" v="356760" />
	</node>
	<node id="4938518170" lat="61.3481919" lon="5.1742592" version="2" timestamp="2022-08-21T17:05:36Z" changeset="125191964" uid="3497659" user="NKA">
		<tag k="name" v="Vik" />
		<tag k="place" v="hamlet" />
		<tag k="ssr:stedsnr" v="7170" />
	</node>
	<node id="4938518171" lat="61.3644455" lon="5.2574361" version="2" timestamp="2022-08-21T17:05:36Z" changeset="125191964" uid="3497659" user="NKA">
		<tag k="name" v="Midttun" />
		<tag k="place" v="farm" />
		<tag k="ssr:stedsnr" v="416420" />
	</node>
	<node id="4938518172" lat="61.3677166" lon="5.2612672" version="2" timestamp="2022-08-21T17:05:36Z" changeset="125191964" uid="3497659" user="NKA">
		<tag k="name" v="Åsen" />
		<tag k="place" v="farm" />
		<tag k="ssr:stedsnr" v="582996" />
	</node>
	<node id="4938518173" lat="61.3689888" lon="5.2624256" version="2" timestamp="2022-08-21T17:05:36Z" changeset="125191964" uid="3497659" user="NKA">
		<tag k="name" v="Kleiva" />
		<tag k="place" v="farm" />
		<tag k="ssr:stedsnr" v="173428" />
	</node>
	<node id="4938518174" lat="61.367821" lon="5.2654433" version="2" timestamp="2022-08-21T17:05:36Z" changeset="125191964" uid="3497659" user="NKA">
		<tag k="name" v="Hyllset" />
		<tag k="place" v="hamlet" />
		<tag k="ssr:stedsnr" v="189147" />
	</node>
	<node id="4938518175" lat="61.3619811" lon="5.1903941" version="2" timestamp="2022-08-21T17:05:36Z" changeset="125191964" uid="3497659" user="NKA">
		<tag k="name" v="Bakke" />
		<tag k="place" v="hamlet" />
		<tag k="ssr:stedsnr" v="68174" />
	</node>
	<node id="4938518177" lat="61.3653562" lon="5.1873703" version="2" timestamp="2022-08-21T17:05:36Z" changeset="125191964" uid="3497659" user="NKA">
		<tag k="name" v="Fosshamar" />
		<tag k="place" v="farm" />
		<tag k="ssr:stedsnr" v="311238" />
	</node>
	<node id="4938518178" lat="61.3671028" lon="5.1775803" version="2" timestamp="2022-08-21T17:05:36Z" changeset="125191964" uid="3497659" user="NKA">
		<tag k="name" v="Håland" />
		<tag k="place" v="farm" />
		<tag k="ssr:stedsnr" v="190149" />
	</node>
	<node id="4938518179" lat="61.3704239" lon="5.1929706" version="2" timestamp="2022-08-21T17:05:36Z" changeset="125191964" uid="3497659" user="NKA">
		<tag k="alt_name" v="Engebø" />
		<tag k="name" v="Engjabøen" />
		<tag k="place" v="farm" />
		<tag k="ssr:stedsnr" v="250145" />
	</node>
	<node id="4938518180" lat="61.3737028" lon="5.2519506" version="2" timestamp="2022-08-21T17:05:36Z" changeset="125191964" uid="3497659" user="NKA">
		<tag k="name" v="Midtbø" />
		<tag k="place" v="farm" />
		<tag k="ssr:stedsnr" v="129161" />
	</node>
	<node id="4938518181" lat="61.3748237" lon="5.2627287" version="2" timestamp="2022-08-21T17:05:36Z" changeset="125191964" uid="3497659" user="NKA">
		<tag k="name" v="Ura" />
		<tag k="place" v="farm" />
		<tag k="ssr:stedsnr" v="947000" />
	</node>
	<node id="4938518182" lat="61.3737331" lon="5.2759319" version="2" timestamp="2022-08-21T17:05:36Z" changeset="125191964" uid="3497659" user="NKA">
		<tag k="alt_name" v="Vindeim" />
		<tag k="name" v="Vindheim" />
		<tag k="place" v="hamlet" />
		<tag k="ssr:stedsnr" v="8145" />
	</node>
	<node id="5097716600" lat="61.3155998" lon="4.7710059" version="2" timestamp="2022-08-21T17:05:36Z" changeset="125191964" uid="3497659" user="NKA">
		<tag k="name" v="Alden" />
		<tag k="place" v="farm" />
		<tag k="ssr:stedsnr" v="68185" />
	</node>
	<node id="5098096412" lat="61.3572235" lon="5.1855136" version="2" timestamp="2022-08-21T17:05:36Z" changeset="125191964" uid="3497659" user="NKA">
		<tag k="name" v="Holmedal" />
		<tag k="place" v="village" />
		<tag k="ssr:stedsnr" v="190191" />
	</node>
	<node id="6214191507" lat="61.3274232" lon="5.0281356" version="2" timestamp="2022-08-21T17:05:36Z" changeset="125191964" uid="3497659" user="NKA">
		<tag k="alt_name" v="Atløy;Sauesund" />
		<tag k="name" v="Sauesundet" />
		<tag k="place" v="village" />
		<tag k="ssr:stedsnr" v="311226" />
	</node>
	<node id="6216715385" lat="61.4279739" lon="5.1679702" version="2" timestamp="2022-08-21T17:05:36Z" changeset="125191964" uid="3497659" user="NKA">
		<tag k="name" v="Stongfjorden" />
		<tag k="place" v="village" />
		<tag k="ssr:stedsnr" v="7017" />
	</node>
	<node id="6216715407" lat="61.4598072" lon="5.416193" version="2" timestamp="2022-08-21T17:05:36Z" changeset="125191964" uid="3497659" user="NKA">
		<tag k="name" v="Kvammen" />
		<tag k="place" v="village" />
		<tag k="ssr:stedsnr" v="311107" />
	</node>
	<node id="9968210415" lat="61.3895111" lon="5.2532033" version="1" timestamp="2022-08-21T17:05:36Z" changeset="125191964" uid="3497659" user="NKA">
		<tag k="alt_name" v="Nedgard - Liset - stølen" />
		<tag k="historic" v="shieling" />
		<tag k="name" v="Lisetstølen" />
		<tag k="place" v="isolated_dwelling" />
		<tag k="ssr:stedsnr" v="918298" />
	</node>
	<node id="9968210416" lat="61.445025" lon="5.2838951" version="1" timestamp="2022-08-21T17:05:36Z" changeset="125191964" uid="3497659" user="NKA">
		<tag k="alt_name" v="Nervikstølen" />
		<tag k="name" v="Nærvikstølen" />
		<tag k="place" v="locality" />
		<tag k="ssr:stedsnr" v="7112" />
	</node>
	<node id="9968236017" lat="61.4554277" lon="5.1680006" version="1" timestamp="2022-08-21T17:05:36Z" changeset="125191964" uid="3497659" user="NKA">
		<tag k="alt_name" v="Stavestrand" />
		<tag k="name" v="Stavestranda" />
		<tag k="place" v="hamlet" />
		<tag k="ssr:stedsnr" v="796061" />
	</node>
	<node id="9968236018" lat="61.4520056" lon="5.334495" version="1" timestamp="2022-08-21T17:05:36Z" changeset="125191964" uid="3497659" user="NKA">
		<tag k="name" v="Øyra" />
		<tag k="place" v="farm" />
		<tag k="ssr:stedsnr" v="675112" />
	</node>
	<node id="9968236019" lat="61.4432834" lon="5.0707951" version="1" timestamp="2022-08-21T17:05:36Z" changeset="125191964" uid="3497659" user="NKA">
		<tag k="name" v="Grimelia" />
		<tag k="place" v="hamlet" />
		<tag k="ssr:stedsnr" v="829870" />
	</node>
	<node id="9968236020" lat="61.4329162" lon="5.1021069" version="1" timestamp="2022-08-21T17:05:36Z" changeset="125191964" uid="3497659" user="NKA">
		<tag k="alt_name" v="Fjeldet;Fjellet" />
		<tag k="name" v="Fjella" />
		<tag k="place" v="farm" />
		<tag k="ssr:stedsnr" v="857023" />
	</node>
	<node id="9968236021" lat="61.3872388" lon="5.3876255" version="1" timestamp="2022-08-21T17:05:36Z" changeset="125191964" uid="3497659" user="NKA">
		<tag k="alt_name" v="Fossdal, nedre" />
		<tag k="name" v="Nedre Fossedal" />
		<tag k="old_name" v="Nedre - Fossedal" />
		<tag k="place" v="farm" />
		<tag k="ssr:stedsnr" v="587174" />
	</node>
	<node id="9968236022" lat="61.4422639" lon="5.3835227" version="1" timestamp="2022-08-21T17:05:36Z" changeset="125191964" uid="3497659" user="NKA">
		<tag k="alt_name" v="Selvikstølen" />
		<tag k="historic" v="shieling" />
		<tag k="name" v="Selvikestølen" />
		<tag k="place" v="isolated_dwelling" />
		<tag k="ssr:stedsnr" v="7013" />
	</node>
	<node id="9968236023" lat="61.4181694" lon="5.1679256" version="1" timestamp="2022-08-21T17:05:36Z" changeset="125191964" uid="3497659" user="NKA">
		<tag k="name" v="Gjerdestølen" />
		<tag k="place" v="locality" />
		<tag k="ssr:stedsnr" v="885442" />
	</node>
	<node id="9968236024" lat="61.4565667" lon="5.3292616" version="1" timestamp="2022-08-21T17:05:36Z" changeset="125191964" uid="3497659" user="NKA">
		<tag k="name" v="Solbakken" />
		<tag k="place" v="farm" />
		<tag k="ssr:stedsnr" v="493120" />
	</node>
	<node id="9968236025" lat="61.2822861" lon="4.6277557" version="1" timestamp="2022-08-21T17:05:36Z" changeset="125191964" uid="3497659" user="NKA">
		<tag k="name" v="Kjempenes" />
		<tag k="place" v="hamlet" />
		<tag k="ssr:stedsnr" v="462178" />
	</node>
	<node id="9968236026" lat="61.3447728" lon="5.1740937" version="1" timestamp="2022-08-21T17:05:36Z" changeset="125191964" uid="3497659" user="NKA">
		<tag k="name" v="Gjerdet" />
		<tag k="place" v="farm" />
		<tag k="ssr:stedsnr" v="675360" />
	</node>
	<node id="9968236027" lat="61.373825" lon="5.1749672" version="1" timestamp="2022-08-21T17:05:36Z" changeset="125191964" uid="3497659" user="NKA">
		<tag k="alt_name" v="Blakstadstølen" />
		<tag k="historic" v="shieling" />
		<tag k="name" v="Blakkstadstølen" />
		<tag k="place" v="isolated_dwelling" />
		<tag k="ssr:stedsnr" v="918151" />
	</node>
	<node id="9968236028" lat="61.4429588" lon="5.0646242" version="1" timestamp="2022-08-21T17:05:36Z" changeset="125191964" uid="3497659" user="NKA">
		<tag k="alt_name" v="Grimelid nedre;Grimelia, nedre" />
		<tag k="name" v="Nedre Grimelia" />
		<tag k="place" v="farm" />
		<tag k="ssr:stedsnr" v="433351" />
	</node>
	<node id="9968236029" lat="61.4415992" lon="5.4973784" version="1" timestamp="2022-08-21T17:05:36Z" changeset="125191964" uid="3497659" user="NKA">
		<tag k="alt_name" v="Hestvik" />
		<tag k="name" v="Hestvika" />
		<tag k="place" v="farm" />
		<tag k="ssr:stedsnr" v="917846" />
	</node>
	<node id="9968236030" lat="61.4558694" lon="5.1760811" version="1" timestamp="2022-08-21T17:05:36Z" changeset="125191964" uid="3497659" user="NKA">
		<tag k="name" v="Garen" />
		<tag k="place" v="farm" />
		<tag k="ssr:stedsnr" v="461981" />
	</node>
	<node id="9968236031" lat="61.4091263" lon="5.0274179" version="1" timestamp="2022-08-21T17:05:36Z" changeset="125191964" uid="3497659" user="NKA">
		<tag k="name" v="Unneset" />
		<tag k="place" v="farm" />
		<tag k="ssr:stedsnr" v="493289" />
	</node>
	<node id="9968236032" lat="61.3566361" lon="5.1795811" version="1" timestamp="2022-08-21T17:05:36Z" changeset="125191964" uid="3497659" user="NKA">
		<tag k="name" v="Haugane" />
		<tag k="place" v="neighbourhood" />
		<tag k="ssr:stedsnr" v="770446" />
	</node>
	<node id="9968236033" lat="61.4019861" lon="5.2307284" version="1" timestamp="2022-08-21T17:05:36Z" changeset="125191964" uid="3497659" user="NKA">
		<tag k="historic" v="shieling" />
		<tag k="name" v="Morkstølen" />
		<tag k="place" v="isolated_dwelling" />
		<tag k="ssr:stedsnr" v="311247" />
	</node>
	<node id="9968236034" lat="61.3070445" lon="4.734201" version="1" timestamp="2022-08-21T17:05:36Z" changeset="125191964" uid="3497659" user="NKA">
		<tag k="name" v="Hittun" />
		<tag k="place" v="farm" />
		<tag k="ssr:stedsnr" v="371167" />
	</node>
	<node id="9968236035" lat="61.4161027" lon="5.1483201" version="1" timestamp="2022-08-21T17:05:36Z" changeset="125191964" uid="3497659" user="NKA">
		<tag k="name" v="Slettestølen" />
		<tag k="place" v="locality" />
		<tag k="ssr:stedsnr" v="400434" />
	</node>
	<node id="9968236036" lat="61.3614849" lon="5.1520677" version="1" timestamp="2022-08-21T17:05:36Z" changeset="125191964" uid="3497659" user="NKA">
		<tag k="name" v="Nedre Mork" />
		<tag k="place" v="farm" />
		<tag k="ssr:stedsnr" v="521379" />
	</node>
	<node id="9968236037" lat="61.4260639" lon="5.0374089" version="1" timestamp="2022-08-21T17:05:36Z" changeset="125191964" uid="3497659" user="NKA">
		<tag k="alt_name" v="Lien" />
		<tag k="name" v="Lia" />
		<tag k="place" v="farm" />
		<tag k="ssr:stedsnr" v="190267" />
	</node>
	<node id="9968236038" lat="61.459499" lon="5.2385009" version="1" timestamp="2022-08-21T17:05:36Z" changeset="125191964" uid="3497659" user="NKA">
		<tag k="name" v="Urda" />
		<tag k="place" v="isolated_dwelling" />
		<tag k="ssr:stedsnr" v="234754" />
	</node>
	<node id="9968236039" lat="61.4286194" lon="5.049498" version="1" timestamp="2022-08-21T17:05:36Z" changeset="125191964" uid="3497659" user="NKA">
		<tag k="name" v="Gunnhildstølen" />
		<tag k="place" v="locality" />
		<tag k="ssr:stedsnr" v="98659" />
	</node>
	<node id="9968236040" lat="61.350345" lon="5.0515512" version="1" timestamp="2022-08-21T17:05:36Z" changeset="125191964" uid="3497659" user="NKA">
		<tag k="name" v="Røyset" />
		<tag k="place" v="farm" />
		<tag k="ssr:stedsnr" v="614226" />
	</node>
	<node id="9968236041" lat="61.4102778" lon="5.0308784" version="1" timestamp="2022-08-21T17:05:36Z" changeset="125191964" uid="3497659" user="NKA">
		<tag k="name" v="Steinset" />
		<tag k="place" v="farm" />
		<tag k="ssr:stedsnr" v="69306" />
	</node>
	<node id="9968236042" lat="61.4206626" lon="4.9941683" version="1" timestamp="2022-08-21T17:05:36Z" changeset="125191964" uid="3497659" user="NKA">
		<tag k="alt_name" v="Holevik" />
		<tag k="name" v="Holevika" />
		<tag k="place" v="hamlet" />
		<tag k="ssr:stedsnr" v="8294" />
	</node>
	<node id="9968236043" lat="61.423375" lon="5.359356" version="1" timestamp="2022-08-21T17:05:36Z" changeset="125191964" uid="3497659" user="NKA">
		<tag k="alt_name" v="Krokavasstølen;Svortevikstølane" />
		<tag k="name" v="Svortevikstølen" />
		<tag k="place" v="locality" />
		<tag k="ssr:stedsnr" v="918049" />
	</node>
	<node id="9968236044" lat="61.3089861" lon="4.7344814" version="1" timestamp="2022-08-21T17:05:36Z" changeset="125191964" uid="3497659" user="NKA">
		<tag k="name" v="Nybø" />
		<tag k="place" v="farm" />
		<tag k="ssr:stedsnr" v="129188" />
	</node>
	<node id="9968236045" lat="61.4267577" lon="5.1086135" version="1" timestamp="2022-08-21T17:05:36Z" changeset="125191964" uid="3497659" user="NKA">
		<tag k="alt_name" v="Fauskevik" />
		<tag k="name" v="Fauskevika" />
		<tag k="place" v="farm" />
		<tag k="ssr:stedsnr" v="7006" />
	</node>
	<node id="9968236046" lat="61.3844548" lon="5.0373742" version="1" timestamp="2022-08-21T17:05:36Z" changeset="125191964" uid="3497659" user="NKA">
		<tag k="alt_name" v="Eimind nordre;Eidmind, nordre" />
		<tag k="name" v="Nordre Eidmind" />
		<tag k="place" v="farm" />
		<tag k="ssr:stedsnr" v="250225" />
	</node>
	<node id="9968236047" lat="61.3320666" lon="5.1428646" version="1" timestamp="2022-08-21T17:05:36Z" changeset="125191964" uid="3497659" user="NKA">
		<tag k="name" v="Hellegjerdet" />
		<tag k="place" v="neighbourhood" />
		<tag k="ssr:stedsnr" v="527443" />
	</node>
	<node id="9968236048" lat="61.4572671" lon="5.4349621" version="1" timestamp="2022-08-21T17:05:36Z" changeset="125191964" uid="3497659" user="NKA">
		<tag k="name" v="Lauvvik" />
		<tag k="place" v="farm" />
		<tag k="ssr:stedsnr" v="296649" />
	</node>
	<node id="9968236049" lat="61.3193902" lon="4.9596013" version="1" timestamp="2022-08-21T17:05:36Z" changeset="125191964" uid="3497659" user="NKA">
		<tag k="name" v="Vilnes" />
		<tag k="place" v="hamlet" />
		<tag k="ssr:stedsnr" v="461549" />
	</node>
	<node id="9968236050" lat="61.4197197" lon="5.0649241" version="1" timestamp="2022-08-21T17:05:36Z" changeset="125191964" uid="3497659" user="NKA">
		<tag k="name" v="Mjåset" />
		<tag k="place" v="hamlet" />
		<tag k="ssr:stedsnr" v="69287" />
	</node>
	<node id="9968236051" lat="61.3692702" lon="4.9889122" version="1" timestamp="2022-08-21T17:05:36Z" changeset="125191964" uid="3497659" user="NKA">
		<tag k="alt_name" v="Sellevoll" />
		<tag k="name" v="Seljevoll" />
		<tag k="place" v="hamlet" />
		<tag k="ssr:stedsnr" v="918213" />
	</node>
	<node id="9968236052" lat="61.3816305" lon="5.2345172" version="1" timestamp="2022-08-21T17:05:36Z" changeset="125191964" uid="3497659" user="NKA">
		<tag k="alt_name" v="Rivedalstølen" />
		<tag k="historic" v="shieling" />
		<tag k="name" v="Rivedalsstølen" />
		<tag k="old_name" v="Rivdalsstølen" />
		<tag k="place" v="isolated_dwelling" />
		<tag k="ssr:stedsnr" v="311278" />
	</node>
	<node id="9968236053" lat="61.3332311" lon="5.0207597" version="1" timestamp="2022-08-21T17:05:36Z" changeset="125191964" uid="3497659" user="NKA">
		<tag k="name" v="Kumle" />
		<tag k="place" v="hamlet" />
		<tag k="ssr:stedsnr" v="68124" />
	</node>
	<node id="9968236054" lat="61.291465" lon="4.6189427" version="1" timestamp="2022-08-21T17:05:36Z" changeset="125191964" uid="3497659" user="NKA">
		<tag k="name" v="Fedøy" />
		<tag k="place" v="hamlet" />
		<tag k="ssr:stedsnr" v="825145" />
	</node>
	<node id="9968236055" lat="61.4015472" lon="5.0744924" version="1" timestamp="2022-08-21T17:05:36Z" changeset="125191964" uid="3497659" user="NKA">
		<tag k="name" v="Halsane" />
		<tag k="place" v="farm" />
		<tag k="ssr:stedsnr" v="735308" />
	</node>
	<node id="9968236056" lat="61.4445848" lon="5.0687782" version="1" timestamp="2022-08-21T17:05:36Z" changeset="125191964" uid="3497659" user="NKA">
		<tag k="name" v="Nytun" />
		<tag k="place" v="farm" />
		<tag k="ssr:stedsnr" v="401560" />
	</node>
	<node id="9968236057" lat="61.3698694" lon="5.0653174" version="1" timestamp="2022-08-21T17:05:36Z" changeset="125191964" uid="3497659" user="NKA">
		<tag k="name" v="Stølen" />
		<tag k="place" v="locality" />
		<tag k="ssr:stedsnr" v="886902" />
	</node>
	<node id="9968236058" lat="61.3560972" lon="5.0996812" version="1" timestamp="2022-08-21T17:05:36Z" changeset="125191964" uid="3497659" user="NKA">
		<tag k="name" v="Øyrane" />
		<tag k="place" v="farm" />
		<tag k="ssr:stedsnr" v="155810" />
	</node>
	<node id="9968236059" lat="61.3499572" lon="5.067835" version="1" timestamp="2022-08-21T17:05:36Z" changeset="125191964" uid="3497659" user="NKA">
		<tag k="alt_name" v="Øvreaskvoll;Askvoll øvre" />
		<tag k="name" v="Øvre Askvoll" />
		<tag k="place" v="farm" />
		<tag k="ssr:stedsnr" v="797219" />
	</node>
	<node id="9968236060" lat="61.2919553" lon="4.6271844" version="1" timestamp="2022-08-21T17:05:36Z" changeset="125191964" uid="3497659" user="NKA">
		<tag k="name" v="Hågøy" />
		<tag k="place" v="hamlet" />
		<tag k="ssr:stedsnr" v="158251" />
	</node>
	<node id="9968236061" lat="61.3516665" lon="5.0766941" version="1" timestamp="2022-08-21T17:05:36Z" changeset="125191964" uid="3497659" user="NKA">
		<tag k="alt_name" v="Nedreaskvoll;Askvoll nedre" />
		<tag k="name" v="Nedre Askvoll" />
		<tag k="place" v="farm" />
		<tag k="ssr:stedsnr" v="433215" />
	</node>
	<node id="9968236062" lat="61.3599546" lon="5.2402845" version="1" timestamp="2022-08-21T17:05:36Z" changeset="125191964" uid="3497659" user="NKA">
		<tag k="name" v="Lisetvollen" />
		<tag k="place" v="farm" />
		<tag k="ssr:stedsnr" v="400984" />
	</node>
	<node id="9968236063" lat="61.4387589" lon="5.0542355" version="1" timestamp="2022-08-21T17:05:36Z" changeset="125191964" uid="3497659" user="NKA">
		<tag k="alt_name" v="Vågen" />
		<tag k="name" v="Stubseidvågen" />
		<tag k="place" v="hamlet" />
		<tag k="ssr:stedsnr" v="8397" />
	</node>
	<node id="9968236064" lat="61.4146055" lon="5.2327312" version="1" timestamp="2022-08-21T17:05:36Z" changeset="125191964" uid="3497659" user="NKA">
		<tag k="alt_name" v="Storestølen" />
		<tag k="historic" v="shieling" />
		<tag k="name" v="Skorestølen" />
		<tag k="place" v="isolated_dwelling" />
		<tag k="ssr:stedsnr" v="493045" />
	</node>
	<node id="9968236065" lat="61.3743236" lon="5.3898894" version="1" timestamp="2022-08-21T17:05:36Z" changeset="125191964" uid="3497659" user="NKA">
		<tag k="alt_name" v="Otterstein" />
		<tag k="name" v="Ottersteinen" />
		<tag k="place" v="farm" />
		<tag k="ssr:stedsnr" v="311164" />
	</node>
	<node id="9968236066" lat="61.3468834" lon="5.0823395" version="1" timestamp="2022-08-21T17:05:36Z" changeset="125191964" uid="3497659" user="NKA">
		<tag k="name" v="Haugen" />
		<tag k="place" v="farm" />
		<tag k="ssr:stedsnr" v="397899" />
	</node>
	<node id="9968236067" lat="61.42765" lon="5.1204645" version="1" timestamp="2022-08-21T17:05:36Z" changeset="125191964" uid="3497659" user="NKA">
		<tag k="name" v="Haugane" />
		<tag k="place" v="farm" />
		<tag k="ssr:stedsnr" v="857001" />
	</node>
	<node id="9968236068" lat="61.4332917" lon="5.12747" version="1" timestamp="2022-08-21T17:05:36Z" changeset="125191964" uid="3497659" user="NKA">
		<tag k="historic" v="shieling" />
		<tag k="name" v="Solheimsstølen" />
		<tag k="place" v="isolated_dwelling" />
		<tag k="ssr:stedsnr" v="826483" />
	</node>
	<node id="9968236069" lat="61.461991" lon="5.4243488" version="1" timestamp="2022-08-21T17:05:36Z" changeset="125191964" uid="3497659" user="NKA">
		<tag k="name" v="Ytre Ålen" />
		<tag k="place" v="farm" />
		<tag k="ssr:stedsnr" v="972594" />
	</node>
	<node id="9968236070" lat="61.4552516" lon="5.1823955" version="1" timestamp="2022-08-21T17:05:36Z" changeset="125191964" uid="3497659" user="NKA">
		<tag k="name" v="Sund" />
		<tag k="place" v="farm" />
		<tag k="ssr:stedsnr" v="432061" />
	</node>
	<node id="9968236071" lat="61.399249" lon="5.0670145" version="1" timestamp="2022-08-21T17:05:36Z" changeset="125191964" uid="3497659" user="NKA">
		<tag k="name" v="Follevåg" />
		<tag k="place" v="hamlet" />
		<tag k="ssr:stedsnr" v="918352" />
	</node>
	<node id="9968236072" lat="61.3264386" lon="4.9612976" version="1" timestamp="2022-08-21T17:05:36Z" changeset="125191964" uid="3497659" user="NKA">
		<tag k="name" v="Sætre" />
		<tag k="place" v="farm" />
		<tag k="ssr:stedsnr" v="432131" />
	</node>
	<node id="9968236073" lat="61.3870805" lon="5.1784422" version="1" timestamp="2022-08-21T17:05:36Z" changeset="125191964" uid="3497659" user="NKA">
		<tag k="alt_name" v="Holmedalstølen" />
		<tag k="name" v="Holmedalsstølen" />
		<tag k="place" v="locality" />
		<tag k="ssr:stedsnr" v="129266" />
	</node>
	<node id="9968236074" lat="61.4148378" lon="4.9791225" version="1" timestamp="2022-08-21T17:05:36Z" changeset="125191964" uid="3497659" user="NKA">
		<tag k="name" v="Stavenes" />
		<tag k="place" v="farm" />
		<tag k="ssr:stedsnr" v="753854" />
	</node>
	<node id="9968236075" lat="61.3225472" lon="4.9812646" version="1" timestamp="2022-08-21T17:05:36Z" changeset="125191964" uid="3497659" user="NKA">
		<tag k="name" v="Gardvika" />
		<tag k="place" v="farm" />
		<tag k="ssr:stedsnr" v="614173" />
	</node>
	<node id="9968236076" lat="61.4253441" lon="5.0879332" version="1" timestamp="2022-08-21T17:05:36Z" changeset="125191964" uid="3497659" user="NKA">
		<tag k="name" v="Skjolden" />
		<tag k="place" v="isolated_dwelling" />
		<tag k="ssr:stedsnr" v="598433" />
	</node>
	<node id="9968236077" lat="61.3273075" lon="5.0050004" version="1" timestamp="2022-08-21T17:05:36Z" changeset="125191964" uid="3497659" user="NKA">
		<tag k="name" v="Spor" />
		<tag k="place" v="hamlet" />
		<tag k="ssr:stedsnr" v="7142" />
	</node>
	<node id="9968236078" lat="61.3309926" lon="5.0189502" version="1" timestamp="2022-08-21T17:05:36Z" changeset="125191964" uid="3497659" user="NKA">
		<tag k="name" v="Skaret" />
		<tag k="old_name" v="Skarheim" />
		<tag k="place" v="farm" />
		<tag k="ssr:stedsnr" v="1071895" />
	</node>
	<node id="9968236079" lat="61.4559097" lon="5.2395482" version="1" timestamp="2022-08-21T17:05:36Z" changeset="125191964" uid="3497659" user="NKA">
		<tag k="name" v="Havsjå" />
		<tag k="place" v="farm" />
		<tag k="ssr:stedsnr" v="1085381" />
	</node>
	<node id="9968236080" lat="61.3627834" lon="5.1280256" version="1" timestamp="2022-08-21T17:05:36Z" changeset="125191964" uid="3497659" user="NKA">
		<tag k="name" v="Brun" />
		<tag k="place" v="locality" />
		<tag k="ssr:stedsnr" v="218374" />
	</node>
	<node id="9968236081" lat="61.4052556" lon="5.1368424" version="1" timestamp="2022-08-21T17:05:36Z" changeset="125191964" uid="3497659" user="NKA">
		<tag k="name" v="Selbøen" />
		<tag k="place" v="locality" />
		<tag k="ssr:stedsnr" v="189192" />
	</node>
	<node id="9968236082" lat="61.3571542" lon="5.1982409" version="1" timestamp="2022-08-21T17:05:36Z" changeset="125191964" uid="3497659" user="NKA">
		<tag k="name" v="Bakkenes" />
		<tag k="place" v="farm" />
		<tag k="ssr:stedsnr" v="640656" />
	</node>
	<node id="9968236083" lat="61.3651573" lon="5.2603505" version="1" timestamp="2022-08-21T17:05:36Z" changeset="125191964" uid="3497659" user="NKA">
		<tag k="name" v="Rivedal" />
		<tag k="place" v="hamlet" />
		<tag k="ssr:stedsnr" v="68172" />
	</node>
	<node id="9968236084" lat="61.2947336" lon="4.6292149" version="1" timestamp="2022-08-21T17:05:36Z" changeset="125191964" uid="3497659" user="NKA">
		<tag k="name" v="Gjørøy" />
		<tag k="place" v="hamlet" />
		<tag k="ssr:stedsnr" v="947236" />
	</node>
	<node id="9968236085" lat="61.3713528" lon="5.1967757" version="1" timestamp="2022-08-21T17:05:36Z" changeset="125191964" uid="3497659" user="NKA">
		<tag k="name" v="Solbakken" />
		<tag k="place" v="farm" />
		<tag k="ssr:stedsnr" v="554149" />
	</node>
	<node id="9968236086" lat="61.4445212" lon="5.0756837" version="1" timestamp="2022-08-21T17:05:36Z" changeset="125191964" uid="3497659" user="NKA">
		<tag k="alt_name" v="Grimelid øvre" />
		<tag k="name" v="Øvre Grimelia" />
		<tag k="old_name" v="Grimeli, øvre" />
		<tag k="place" v="farm" />
		<tag k="ssr:stedsnr" v="675401" />
	</node>
	<node id="9968236087" lat="61.2862347" lon="4.6311892" version="1" timestamp="2022-08-21T17:05:36Z" changeset="125191964" uid="3497659" user="NKA">
		<tag k="name" v="Nikøy" />
		<tag k="place" v="hamlet" />
		<tag k="ssr:stedsnr" v="462179" />
	</node>
	<node id="9968236088" lat="61.3774055" lon="5.0075479" version="1" timestamp="2022-08-21T17:05:36Z" changeset="125191964" uid="3497659" user="NKA">
		<tag k="name" v="Nordre Grane" />
		<tag k="place" v="locality" />
		<tag k="ssr:stedsnr" v="355113" />
	</node>
	<node id="9968236089" lat="61.3877361" lon="5.1957923" version="1" timestamp="2022-08-21T17:05:36Z" changeset="125191964" uid="3497659" user="NKA">
		<tag k="alt_name" v="Bakke - Engebøstølen" />
		<tag k="historic" v="shieling" />
		<tag k="name" v="Bakkestølen" />
		<tag k="place" v="isolated_dwelling" />
		<tag k="ssr:stedsnr" v="371236" />
	</node>
	<node id="9968236090" lat="61.3480723" lon="5.0131772" version="1" timestamp="2022-08-21T17:05:36Z" changeset="125191964" uid="3497659" user="NKA">
		<tag k="name" v="Gjervik" />
		<tag k="place" v="hamlet" />
		<tag k="ssr:stedsnr" v="371142" />
	</node>
	<node id="9968236091" lat="61.3772445" lon="5.0345414" version="1" timestamp="2022-08-21T17:05:36Z" changeset="125191964" uid="3497659" user="NKA">
		<tag k="alt_name" v="Eimind søndre;Eidmind, s;Søndre Eimind" />
		<tag k="name" v="Søre Eidmind" />
		<tag k="place" v="farm" />
		<tag k="ssr:stedsnr" v="250208" />
	</node>
	<node id="9968236092" lat="61.2816511" lon="4.6236056" version="1" timestamp="2022-08-21T17:05:36Z" changeset="125191964" uid="3497659" user="NKA">
		<tag k="name" v="Hellersøyna" />
		<tag k="place" v="hamlet" />
		<tag k="ssr:stedsnr" v="643232" />
	</node>
	<node id="9968236093" lat="61.4275647" lon="5.1323263" version="1" timestamp="2022-08-21T17:05:36Z" changeset="125191964" uid="3497659" user="NKA">
		<tag k="name" v="Yndestad" />
		<tag k="place" v="hamlet" />
		<tag k="ssr:stedsnr" v="796001" />
	</node>
	<node id="9968236094" lat="61.3719076" lon="5.1072086" version="1" timestamp="2022-08-21T17:05:36Z" changeset="125191964" uid="3497659" user="NKA">
		<tag k="alt_name" v="Eidet søndre" />
		<tag k="name" v="Søreidet" />
		<tag k="place" v="farm" />
		<tag k="ssr:stedsnr" v="68154" />
	</node>
	<node id="9968236095" lat="61.3295768" lon="5.0147333" version="1" timestamp="2022-08-21T17:05:36Z" changeset="125191964" uid="3497659" user="NKA">
		<tag k="alt_name" v="Grov nedre" />
		<tag k="name" v="Nedre Grov" />
		<tag k="place" v="farm" />
		<tag k="ssr:stedsnr" v="68126" />
	</node>
	<node id="9968236096" lat="61.3998998" lon="5.0712534" version="1" timestamp="2022-08-21T17:05:36Z" changeset="125191964" uid="3497659" user="NKA">
		<tag k="name" v="Steinebakken" />
		<tag k="place" v="farm" />
		<tag k="ssr:stedsnr" v="974181" />
	</node>
	<node id="9968236097" lat="61.3775444" lon="4.9919036" version="1" timestamp="2022-08-21T17:05:36Z" changeset="125191964" uid="3497659" user="NKA">
		<tag k="name" v="Kalvvika" />
		<tag k="place" v="farm" />
		<tag k="ssr:stedsnr" v="250211" />
	</node>
	<node id="9968236098" lat="61.4211326" lon="4.9841153" version="1" timestamp="2022-08-21T17:05:36Z" changeset="125191964" uid="3497659" user="NKA">
		<tag k="name" v="Dalen" />
		<tag k="place" v="farm" />
		<tag k="ssr:stedsnr" v="858260" />
	</node>
	<node id="9968236099" lat="61.4395033" lon="5.0694746" version="1" timestamp="2022-08-21T17:05:36Z" changeset="125191964" uid="3497659" user="NKA">
		<tag k="alt_name" v="Urda" />
		<tag k="name" v="Myra" />
		<tag k="place" v="farm" />
		<tag k="ssr:stedsnr" v="780396" />
	</node>
	<node id="9968236100" lat="61.3744277" lon="5.0122027" version="1" timestamp="2022-08-21T17:05:36Z" changeset="125191964" uid="3497659" user="NKA">
		<tag k="alt_name" v="Søre Grane" />
		<tag k="name" v="Grane" />
		<tag k="place" v="farm" />
		<tag k="ssr:stedsnr" v="68205" />
	</node>
	<node id="9968236101" lat="61.3350383" lon="5.0198119" version="1" timestamp="2022-08-21T17:05:36Z" changeset="125191964" uid="3497659" user="NKA">
		<tag k="name" v="England" />
		<tag k="place" v="farm" />
		<tag k="ssr:stedsnr" v="735117" />
	</node>
	<node id="9968236102" lat="61.4307743" lon="5.1462022" version="1" timestamp="2022-08-21T17:05:36Z" changeset="125191964" uid="3497659" user="NKA">
		<tag k="alt_name" v="Stang" />
		<tag k="name" v="Stong" />
		<tag k="place" v="hamlet" />
		<tag k="ssr:stedsnr" v="796017" />
	</node>
	<node id="9968236103" lat="61.3795515" lon="5.1089529" version="1" timestamp="2022-08-21T17:05:36Z" changeset="125191964" uid="3497659" user="NKA">
		<tag k="alt_name" v="Eidet nordre" />
		<tag k="name" v="Nordeidet" />
		<tag k="place" v="hamlet" />
		<tag k="ssr:stedsnr" v="614231" />
	</node>
	<node id="9968236104" lat="61.3567215" lon="4.9006144" version="1" timestamp="2022-08-21T17:05:36Z" changeset="125191964" uid="3497659" user="NKA">
		<tag k="name" v="Nordheim" />
		<tag k="place" v="farm" />
		<tag k="ssr:stedsnr" v="841120" />
	</node>
	<node id="9968236105" lat="61.3247291" lon="4.9998878" version="1" timestamp="2022-08-21T17:05:36Z" changeset="125191964" uid="3497659" user="NKA">
		<tag k="name" v="Leirvåg" />
		<tag k="place" v="farm" />
		<tag k="ssr:stedsnr" v="796175" />
	</node>
	<node id="9968236106" lat="61.3718093" lon="5.1859102" version="1" timestamp="2022-08-21T17:05:36Z" changeset="125191964" uid="3497659" user="NKA">
		<tag k="name" v="Fossheim" />
		<tag k="place" v="locality" />
		<tag k="ssr:stedsnr" v="675164" />
	</node>
	<node id="9968236107" lat="61.3676229" lon="4.9841085" version="1" timestamp="2022-08-21T17:05:36Z" changeset="125191964" uid="3497659" user="NKA">
		<tag k="alt_name" v="Høyvik" />
		<tag k="name" v="Høyvika" />
		<tag k="place" v="hamlet" />
		<tag k="ssr:stedsnr" v="614194" />
	</node>
	<node id="9968236108" lat="61.3450646" lon="5.0983884" version="1" timestamp="2022-08-21T17:05:36Z" changeset="125191964" uid="3497659" user="NKA">
		<tag k="name" v="Ask" />
		<tag k="place" v="hamlet" />
		<tag k="ssr:stedsnr" v="106780" />
	</node>
	<node id="9968236109" lat="61.3547472" lon="5.0529173" version="1" timestamp="2022-08-21T17:05:36Z" changeset="125191964" uid="3497659" user="NKA">
		<tag k="name" v="Røysheim" />
		<tag k="place" v="farm" />
		<tag k="ssr:stedsnr" v="8251" />
	</node>
	<node id="9968236110" lat="61.3888083" lon="5.2812839" version="1" timestamp="2022-08-21T17:05:36Z" changeset="125191964" uid="3497659" user="NKA">
		<tag k="alt_name" v="Vindeimsstølen;Vindheimstølen" />
		<tag k="historic" v="shieling" />
		<tag k="name" v="Vindheimsstølen" />
		<tag k="place" v="isolated_dwelling" />
		<tag k="ssr:stedsnr" v="311285" />
	</node>
	<node id="9968236111" lat="61.413763" lon="5.1169668" version="1" timestamp="2022-08-21T17:05:36Z" changeset="125191964" uid="3497659" user="NKA">
		<tag k="name" v="Størdal" />
		<tag k="place" v="hamlet" />
		<tag k="ssr:stedsnr" v="493072" />
	</node>
	<node id="9968236112" lat="61.3811976" lon="5.0359502" version="1" timestamp="2022-08-21T17:05:36Z" changeset="125191964" uid="3497659" user="NKA">
		<tag k="alt_name" v="Eimind" />
		<tag k="name" v="Eidmind" />
		<tag k="place" v="hamlet" />
		<tag k="ssr:stedsnr" v="606068" />
	</node>
	<node id="9968236113" lat="61.3762972" lon="4.9285091" version="1" timestamp="2022-08-21T17:05:36Z" changeset="125191964" uid="3497659" user="NKA">
		<tag k="alt_name" v="Kjørvik;Kjørrvik" />
		<tag k="name" v="Kjørrvika" />
		<tag k="place" v="farm" />
		<tag k="ssr:stedsnr" v="614214" />
	</node>
	<node id="9968236114" lat="61.3528223" lon="5.0658368" version="1" timestamp="2022-08-21T17:05:36Z" changeset="125191964" uid="3497659" user="NKA">
		<tag k="name" v="Storehaugen" />
		<tag k="place" v="neighbourhood" />
		<tag k="ssr:stedsnr" v="285454" />
	</node>
	<node id="9968236115" lat="61.4384385" lon="5.3229456" version="1" timestamp="2022-08-21T17:05:36Z" changeset="125191964" uid="3497659" user="NKA">
		<tag k="alt_name" v="Hatlelid" />
		<tag k="name" v="Haslelia" />
		<tag k="place" v="farm" />
		<tag k="ssr:stedsnr" v="189016" />
	</node>
	<node id="9968236116" lat="61.4118905" lon="5.0352787" version="1" timestamp="2022-08-21T17:05:36Z" changeset="125191964" uid="3497659" user="NKA">
		<tag k="name" v="Åreskog" />
		<tag k="place" v="farm" />
		<tag k="ssr:stedsnr" v="841313" />
	</node>
	<node id="9968236117" lat="61.396075" lon="5.2843755" version="1" timestamp="2022-08-21T17:05:36Z" changeset="125191964" uid="3497659" user="NKA">
		<tag k="historic" v="shieling" />
		<tag k="name" v="Hyllsetstølen" />
		<tag k="place" v="isolated_dwelling" />
		<tag k="ssr:stedsnr" v="432223" />
	</node>
	<node id="9968236118" lat="61.3437175" lon="5.1728127" version="1" timestamp="2022-08-21T17:05:36Z" changeset="125191964" uid="3497659" user="NKA">
		<tag k="name" v="Under fjella" />
		<tag k="place" v="farm" />
		<tag k="ssr:stedsnr" v="857354" />
	</node>
	<node id="9968236119" lat="61.3780888" lon="5.1713756" version="1" timestamp="2022-08-21T17:05:36Z" changeset="125191964" uid="3497659" user="NKA">
		<tag k="historic" v="shieling" />
		<tag k="name" v="Vikastølen" />
		<tag k="place" v="isolated_dwelling" />
		<tag k="ssr:stedsnr" v="857256" />
	</node>
	<node id="9968236120" lat="61.362007" lon="5.1301895" version="1" timestamp="2022-08-21T17:05:36Z" changeset="125191964" uid="3497659" user="NKA">
		<tag k="name" v="Helleset" />
		<tag k="place" v="farm" />
		<tag k="ssr:stedsnr" v="493193" />
	</node>
	<node id="9968236121" lat="61.4411" lon="5.4420144" version="1" timestamp="2022-08-21T17:05:36Z" changeset="125191964" uid="3497659" user="NKA">
		<tag k="historic" v="shieling" />
		<tag k="name" v="Nesskogstølen" />
		<tag k="place" v="isolated_dwelling" />
		<tag k="ssr:stedsnr" v="675007" />
	</node>
	<node id="9968236122" lat="61.4387223" lon="5.4438005" version="1" timestamp="2022-08-21T17:05:36Z" changeset="125191964" uid="3497659" user="NKA">
		<tag k="historic" v="shieling" />
		<tag k="name" v="Ålastølen" />
		<tag k="place" v="isolated_dwelling" />
		<tag k="ssr:stedsnr" v="493003" />
	</node>
	<node id="9968236123" lat="61.3238265" lon="4.9904119" version="1" timestamp="2022-08-21T17:05:36Z" changeset="125191964" uid="3497659" user="NKA">
		<tag k="name" v="Leitet" />
		<tag k="place" v="farm" />
		<tag k="ssr:stedsnr" v="780705" />
	</node>
	<node id="9968236124" lat="61.471475" lon="5.2769617" version="1" timestamp="2022-08-21T17:05:36Z" changeset="125191964" uid="3497659" user="NKA">
		<tag k="name" v="Fredheim" />
		<tag k="place" v="farm" />
		<tag k="ssr:stedsnr" v="311047" />
	</node>
	<node id="9968236125" lat="61.4758517" lon="5.2493195" version="1" timestamp="2022-08-21T17:05:36Z" changeset="125191964" uid="3497659" user="NKA">
		<tag k="name" v="Nyland" />
		<tag k="place" v="farm" />
		<tag k="ssr:stedsnr" v="492027" />
	</node>
	<node id="9968236126" lat="61.4142184" lon="4.8941112" version="1" timestamp="2022-08-21T17:05:36Z" changeset="125191964" uid="3497659" user="NKA">
		<tag k="name" v="Smelvær" />
		<tag k="place" v="farm" />
		<tag k="ssr:stedsnr" v="973900" />
	</node>
	<node id="9968236127" lat="61.4251461" lon="5.2299877" version="1" timestamp="2022-08-21T17:05:36Z" changeset="125191964" uid="3497659" user="NKA">
		<tag k="alt_name" v="Oslandsbotten" />
		<tag k="name" v="Oslandsbotnen" />
		<tag k="place" v="farm" />
		<tag k="ssr:stedsnr" v="614015" />
	</node>
	<node id="9968236128" lat="61.314421" lon="4.7316671" version="1" timestamp="2022-08-21T17:05:36Z" changeset="125191964" uid="3497659" user="NKA">
		<tag k="name" v="Hamnen" />
		<tag k="place" v="village" />
		<tag k="ssr:stedsnr" v="735123" />
	</node>
	<node id="9968236129" lat="61.4573876" lon="5.2398073" version="1" timestamp="2022-08-21T17:05:36Z" changeset="125191964" uid="3497659" user="NKA">
		<tag k="alt_name" v="Nervik" />
		<tag k="name" v="Nærvika" />
		<tag k="place" v="farm" />
		<tag k="ssr:stedsnr" v="128057" />
	</node>
	<node id="9968236130" lat="61.4264727" lon="5.1685792" version="1" timestamp="2022-08-21T17:05:36Z" changeset="125191964" uid="3497659" user="NKA">
		<tag k="name" v="Gjerde" />
		<tag k="place" v="farm" />
		<tag k="ssr:stedsnr" v="7020" />
	</node>
	<node id="9968236131" lat="61.4325449" lon="5.2192643" version="1" timestamp="2022-08-21T17:05:36Z" changeset="125191964" uid="3497659" user="NKA">
		<tag k="name" v="Osland" />
		<tag k="place" v="farm" />
		<tag k="ssr:stedsnr" v="918026" />
	</node>
	<node id="9968236132" lat="61.328648" lon="5.0140149" version="1" timestamp="2022-08-21T17:05:36Z" changeset="125191964" uid="3497659" user="NKA">
		<tag k="name" v="Grov" />
		<tag k="place" v="hamlet" />
		<tag k="ssr:stedsnr" v="1080311" />
	</node>
	<node id="9968236133" lat="61.4727666" lon="5.2602423" version="1" timestamp="2022-08-21T17:05:36Z" changeset="125191964" uid="3497659" user="NKA">
		<tag k="name" v="Skaret" />
		<tag k="place" v="farm" />
		<tag k="ssr:stedsnr" v="643787" />
	</node>
	<node id="9968236134" lat="61.4641895" lon="5.2574114" version="1" timestamp="2022-08-21T17:05:36Z" changeset="125191964" uid="3497659" user="NKA">
		<tag k="name" v="Solheim" />
		<tag k="place" v="farm" />
		<tag k="ssr:stedsnr" v="598711" />
	</node>
	<node id="9968236135" lat="61.395375" lon="5.2853393" version="1" timestamp="2022-08-21T17:05:36Z" changeset="125191964" uid="3497659" user="NKA">
		<tag k="historic" v="shieling" />
		<tag k="name" v="Vagstadstølen" />
		<tag k="place" v="isolated_dwelling" />
		<tag k="ssr:stedsnr" v="553219" />
	</node>
	<node id="9968236136" lat="61.3145798" lon="4.7076343" version="1" timestamp="2022-08-21T17:05:36Z" changeset="125191964" uid="3497659" user="NKA">
		<tag k="name" v="Kalvøy" />
		<tag k="place" v="hamlet" />
		<tag k="ssr:stedsnr" v="279267" />
	</node>
	<node id="9968236137" lat="61.3112515" lon="4.7338534" version="1" timestamp="2022-08-21T17:05:36Z" changeset="125191964" uid="3497659" user="NKA">
		<tag k="name" v="Værøy" />
		<tag k="place" v="hamlet" />
		<tag k="ssr:stedsnr" v="553120" />
	</node>
	<node id="9968236138" lat="61.3609335" lon="5.0977873" version="1" timestamp="2022-08-21T17:05:36Z" changeset="125191964" uid="3497659" user="NKA">
		<tag k="name" v="Fristad" />
		<tag k="place" v="hamlet" />
		<tag k="ssr:stedsnr" v="493191" />
	</node>
	<node id="9968236139" lat="61.3865265" lon="5.0958347" version="1" timestamp="2022-08-21T17:05:36Z" changeset="125191964" uid="3497659" user="NKA">
		<tag k="name" v="Fisma" />
		<tag k="place" v="farm" />
		<tag k="ssr:stedsnr" v="493199" />
	</node>
	<node id="9968236140" lat="61.3880667" lon="5.1764673" version="1" timestamp="2022-08-21T17:05:36Z" changeset="125191964" uid="3497659" user="NKA">
		<tag k="alt_name" v="Tveit - Hålandstølen" />
		<tag k="historic" v="shieling" />
		<tag k="name" v="Hålandsstølen" />
		<tag k="place" v="isolated_dwelling" />
		<tag k="ssr:stedsnr" v="311312" />
	</node>
	<node id="9968236141" lat="61.4300893" lon="5.1675664" version="1" timestamp="2022-08-21T17:05:36Z" changeset="125191964" uid="3497659" user="NKA">
		<tag k="alt_name" v="Stang" />
		<tag k="name" v="Stong" />
		<tag k="place" v="farm" />
		<tag k="ssr:stedsnr" v="432013" />
	</node>
	<node id="9968236142" lat="61.4205833" lon="5.1365893" version="1" timestamp="2022-08-21T17:05:36Z" changeset="125191964" uid="3497659" user="NKA">
		<tag k="alt_name" v="Stafsnes;Stavnes" />
		<tag k="name" v="Stavsnes" />
		<tag k="place" v="farm" />
		<tag k="ssr:stedsnr" v="311069" />
	</node>
	<node id="9968236143" lat="61.2855788" lon="4.6168742" version="1" timestamp="2022-08-21T17:05:36Z" changeset="125191964" uid="3497659" user="NKA">
		<tag k="name" v="Halsøy" />
		<tag k="place" v="hamlet" />
		<tag k="ssr:stedsnr" v="37205" />
	</node>
	<node id="9968236144" lat="61.4022573" lon="5.3899918" version="1" timestamp="2022-08-21T17:05:36Z" changeset="125191964" uid="3497659" user="NKA">
		<tag k="name" v="Fossedal" />
		<tag k="place" v="farm" />
		<tag k="ssr:stedsnr" v="973951" />
	</node>
	<node id="9968236145" lat="61.3632611" lon="5.1976811" version="1" timestamp="2022-08-21T17:05:36Z" changeset="125191964" uid="3497659" user="NKA">
		<tag k="alt_name" v="Rondane" />
		<tag k="name" v="Rundane" />
		<tag k="place" v="locality" />
		<tag k="ssr:stedsnr" v="311224" />
	</node>
	<node id="9968236146" lat="61.2929413" lon="4.593578" version="1" timestamp="2022-08-21T17:05:36Z" changeset="125191964" uid="3497659" user="NKA">
		<tag k="name" v="Sandøy" />
		<tag k="place" v="hamlet" />
		<tag k="ssr:stedsnr" v="947158" />
	</node>
	<node id="9968236147" lat="61.4166048" lon="5.2468981" version="1" timestamp="2022-08-21T17:05:36Z" changeset="125191964" uid="3497659" user="NKA">
		<tag k="historic" v="shieling" />
		<tag k="name" v="Litlestølen" />
		<tag k="place" v="isolated_dwelling" />
		<tag k="ssr:stedsnr" v="189027" />
	</node>
	<node id="9968236148" lat="61.3759556" lon="5.1747256" version="1" timestamp="2022-08-21T17:05:36Z" changeset="125191964" uid="3497659" user="NKA">
		<tag k="historic" v="shieling" />
		<tag k="name" v="Morkastølen" />
		<tag k="place" v="isolated_dwelling" />
		<tag k="ssr:stedsnr" v="129165" />
	</node>
	<node id="9968236149" lat="61.3262553" lon="4.9462374" version="1" timestamp="2022-08-21T17:05:36Z" changeset="125191964" uid="3497659" user="NKA">
		<tag k="name" v="Eidet" />
		<tag k="place" v="farm" />
		<tag k="ssr:stedsnr" v="157508" />
	</node>
	<node id="9968236150" lat="61.3105439" lon="4.7011341" version="1" timestamp="2022-08-21T17:05:36Z" changeset="125191964" uid="3497659" user="NKA">
		<tag k="name" v="Landøy" />
		<tag k="place" v="hamlet" />
		<tag k="ssr:stedsnr" v="765262" />
	</node>
	<node id="9968236151" lat="61.3385734" lon="4.9111359" version="1" timestamp="2022-08-21T17:05:36Z" changeset="125191964" uid="3497659" user="NKA">
		<tag k="alt_name" v="Laukeland" />
		<tag k="name" v="Laukland" />
		<tag k="place" v="hamlet" />
		<tag k="ssr:stedsnr" v="69161" />
	</node>
	<node id="9968236152" lat="61.3050527" lon="4.7383425" version="1" timestamp="2022-08-21T17:05:36Z" changeset="125191964" uid="3497659" user="NKA">
		<tag k="name" v="Vika" />
		<tag k="place" v="farm" />
		<tag k="ssr:stedsnr" v="311215" />
	</node>
	<node id="9968236153" lat="61.3457603" lon="4.8563685" version="1" timestamp="2022-08-21T17:05:36Z" changeset="125191964" uid="3497659" user="NKA">
		<tag k="alt_name" v="Tvibyrgje" />
		<tag k="name" v="Tvibyrge" />
		<tag k="place" v="farm" />
		<tag k="ssr:stedsnr" v="372235" />
	</node>
	<node id="9968236154" lat="61.392525" lon="5.3637172" version="1" timestamp="2022-08-21T17:05:36Z" changeset="125191964" uid="3497659" user="NKA">
		<tag k="historic" v="shieling" />
		<tag k="name" v="Dalsstølen" />
		<tag k="place" v="isolated_dwelling" />
		<tag k="ssr:stedsnr" v="675273" />
	</node>
	<node id="9968236155" lat="61.4040196" lon="5.3910442" version="1" timestamp="2022-08-21T17:05:36Z" changeset="125191964" uid="3497659" user="NKA">
		<tag k="alt_name" v="Fossdalen, øvre;Øvre Fossdalen" />
		<tag k="name" v="Øvre Fossedal" />
		<tag k="place" v="farm" />
		<tag k="ssr:stedsnr" v="405207" />
	</node>
	<node id="9968236156" lat="61.3853778" lon="5.1959506" version="1" timestamp="2022-08-21T17:05:36Z" changeset="125191964" uid="3497659" user="NKA">
		<tag k="alt_name" v="Kleppenes - Bogestølen" />
		<tag k="historic" v="shieling" />
		<tag k="name" v="Bogestølen" />
		<tag k="place" v="isolated_dwelling" />
		<tag k="ssr:stedsnr" v="371222" />
	</node>
	<node id="9968236157" lat="61.3285025" lon="5.0117311" version="1" timestamp="2022-08-21T17:05:36Z" changeset="125191964" uid="3497659" user="NKA">
		<tag k="alt_name" v="Grov øvre" />
		<tag k="name" v="Øvre Grov" />
		<tag k="place" v="farm" />
		<tag k="ssr:stedsnr" v="458712" />
	</node>
	<node id="9968236158" lat="61.3678804" lon="4.8825667" version="1" timestamp="2022-08-21T17:05:36Z" changeset="125191964" uid="3497659" user="NKA">
		<tag k="name" v="Hindøy" />
		<tag k="place" v="farm" />
		<tag k="ssr:stedsnr" v="883728" />
	</node>
	<node id="9968236159" lat="61.3736167" lon="4.9407729" version="1" timestamp="2022-08-21T17:05:36Z" changeset="125191964" uid="3497659" user="NKA">
		<tag k="alt_name" v="Tevik" />
		<tag k="name" v="Tevika" />
		<tag k="place" v="farm" />
		<tag k="ssr:stedsnr" v="371189" />
	</node>
	<node id="9968236160" lat="61.3531738" lon="5.0779189" version="1" timestamp="2022-08-21T17:05:36Z" changeset="125191964" uid="3497659" user="NKA">
		<tag k="name" v="Solheim" />
		<tag k="place" v="farm" />
		<tag k="ssr:stedsnr" v="537078" />
	</node>
	<node id="9968236161" lat="61.2791124" lon="4.8764931" version="1" timestamp="2022-08-21T17:05:36Z" changeset="125191964" uid="3497659" user="NKA">
		<tag k="name" v="Aralden" />
		<tag k="place" v="farm" />
		<tag k="ssr:stedsnr" v="973901" />
	</node>
	<node id="9968236162" lat="61.4605103" lon="5.3871076" version="1" timestamp="2022-08-21T17:05:36Z" changeset="125191964" uid="3497659" user="NKA">
		<tag k="alt_name" v="Gjelsvik;Søre Gjelsvik" />
		<tag k="name" v="Gjelsvika" />
		<tag k="place" v="hamlet" />
		<tag k="ssr:stedsnr" v="553107" />
	</node>
	<node id="9968236163" lat="61.3002286" lon="4.6662061" version="1" timestamp="2022-08-21T17:05:36Z" changeset="125191964" uid="3497659" user="NKA">
		<tag k="alt_name" v="Melvær" />
		<tag k="name" v="Melværet" />
		<tag k="place" v="hamlet" />
		<tag k="ssr:stedsnr" v="68456" />
	</node>
	<node id="9968236164" lat="61.4601861" lon="5.3234478" version="1" timestamp="2022-08-21T17:05:36Z" changeset="125191964" uid="3497659" user="NKA">
		<tag k="name" v="Botnen" />
		<tag k="place" v="locality" />
		<tag k="ssr:stedsnr" v="917092" />
	</node>
	<node id="9968236165" lat="61.3157972" lon="4.9588674" version="1" timestamp="2022-08-21T17:05:36Z" changeset="125191964" uid="3497659" user="NKA">
		<tag k="name" v="Bardsnes" />
		<tag k="place" v="farm" />
		<tag k="ssr:stedsnr" v="857171" />
	</node>
	<node id="9968236166" lat="61.2892603" lon="4.6224101" version="1" timestamp="2022-08-21T17:05:36Z" changeset="125191964" uid="3497659" user="NKA">
		<tag k="name" v="Gjelsa" />
		<tag k="place" v="hamlet" />
		<tag k="ssr:stedsnr" v="643235" />
	</node>
	<node id="9968236167" lat="61.3746055" lon="5.3194617" version="1" timestamp="2022-08-21T17:05:36Z" changeset="125191964" uid="3497659" user="NKA">
		<tag k="historic" v="shieling" />
		<tag k="name" v="Eikenesstølen" />
		<tag k="place" v="isolated_dwelling" />
		<tag k="ssr:stedsnr" v="372141" />
	</node>
	<node id="9968236168" lat="61.4629745" lon="5.3185649" version="1" timestamp="2022-08-21T17:05:36Z" changeset="125191964" uid="3497659" user="NKA">
		<tag k="alt_name" v="Skorven;Skarven" />
		<tag k="name" v="Skorva" />
		<tag k="place" v="farm" />
		<tag k="ssr:stedsnr" v="476097" />
	</node>
	<node id="9968236169" lat="61.4384444" lon="5.4380728" version="1" timestamp="2022-08-21T17:05:36Z" changeset="125191964" uid="3497659" user="NKA">
		<tag k="historic" v="shieling" />
		<tag k="name" v="Åsastølen" />
		<tag k="place" v="isolated_dwelling" />
		<tag k="ssr:stedsnr" v="68052" />
	</node>
	<node id="9968236170" lat="61.4545998" lon="5.2344114" version="1" timestamp="2022-08-21T17:05:36Z" changeset="125191964" uid="3497659" user="NKA">
		<tag k="alt_name" v="Nerheim" />
		<tag k="name" v="Nærheim" />
		<tag k="place" v="farm" />
		<tag k="ssr:stedsnr" v="355711" />
	</node>
	<node id="9968236171" lat="61.4490886" lon="5.4490013" version="1" timestamp="2022-08-21T17:05:36Z" changeset="125191964" uid="3497659" user="NKA">
		<tag k="alt_name" v="Løvik" />
		<tag k="name" v="Løvika" />
		<tag k="place" v="farm" />
		<tag k="ssr:stedsnr" v="371103" />
	</node>
	<node id="9968236172" lat="61.2919967" lon="4.6973606" version="1" timestamp="2022-08-21T17:05:36Z" changeset="125191964" uid="3497659" user="NKA">
		<tag k="name" v="Myrevågen" />
		<tag k="place" v="farm" />
		<tag k="ssr:stedsnr" v="190323" />
	</node>
	<node id="9968236173" lat="61.4421944" lon="5.4402171" version="1" timestamp="2022-08-21T17:05:36Z" changeset="125191964" uid="3497659" user="NKA">
		<tag k="name" v="Løvikestølen" />
		<tag k="place" v="locality" />
		<tag k="ssr:stedsnr" v="614008" />
	</node>
	<node id="9968236174" lat="61.4719354" lon="5.2691515" version="1" timestamp="2022-08-21T17:05:36Z" changeset="125191964" uid="3497659" user="NKA">
		<tag k="name" v="Storevika" />
		<tag k="place" v="farm" />
		<tag k="ssr:stedsnr" v="614047" />
	</node>
	<node id="9968236175" lat="61.451547" lon="5.4503975" version="1" timestamp="2022-08-21T17:05:36Z" changeset="125191964" uid="3497659" user="NKA">
		<tag k="name" v="Åsen" />
		<tag k="place" v="farm" />
		<tag k="ssr:stedsnr" v="68109" />
	</node>
	<node id="9968236176" lat="61.4581446" lon="5.4272098" version="1" timestamp="2022-08-21T17:05:36Z" changeset="125191964" uid="3497659" user="NKA">
		<tag k="name" v="Indre Ålen" />
		<tag k="place" v="farm" />
		<tag k="ssr:stedsnr" v="218817" />
	</node>
	<node id="9968236177" lat="61.4366032" lon="5.3156763" version="1" timestamp="2022-08-21T17:05:36Z" changeset="125191964" uid="3497659" user="NKA">
		<tag k="alt_name" v="Mandelid" />
		<tag k="name" v="Mandelia" />
		<tag k="place" v="farm" />
		<tag k="ssr:stedsnr" v="128018" />
	</node>
	<node id="9968236178" lat="61.4747081" lon="5.2543586" version="1" timestamp="2022-08-21T17:05:36Z" changeset="125191964" uid="3497659" user="NKA">
		<tag k="alt_name" v="Flokenes" />
		<tag k="name" v="Flokeneset" />
		<tag k="place" v="hamlet" />
		<tag k="ssr:stedsnr" v="250036" />
	</node>
	<node id="9968236179" lat="61.4710788" lon="5.3514035" version="1" timestamp="2022-08-21T17:05:36Z" changeset="125191964" uid="3497659" user="NKA">
		<tag k="name" v="Bakken" />
		<tag k="place" v="farm" />
		<tag k="ssr:stedsnr" v="780673" />
	</node>
	<node id="9968236180" lat="61.4741741" lon="5.4164625" version="1" timestamp="2022-08-21T17:05:36Z" changeset="125191964" uid="3497659" user="NKA">
		<tag k="name" v="Leknes" />
		<tag k="place" v="hamlet" />
		<tag k="ssr:stedsnr" v="796078" />
	</node>
	<node id="9968236181" lat="61.3556528" lon="5.1111783" version="1" timestamp="2022-08-21T17:05:36Z" changeset="125191964" uid="3497659" user="NKA">
		<tag k="name" v="Litlestraumen" />
		<tag k="place" v="farm" />
		<tag k="ssr:stedsnr" v="675188" />
	</node>
	<node id="9968236182" lat="61.4573" lon="5.2483256" version="1" timestamp="2022-08-21T17:05:36Z" changeset="125191964" uid="3497659" user="NKA">
		<tag k="alt_name" v="Nygård" />
		<tag k="name" v="Nygard" />
		<tag k="place" v="farm" />
		<tag k="ssr:stedsnr" v="857077" />
	</node>
	<node id="9968236183" lat="61.3773138" lon="5.3831865" version="1" timestamp="2022-08-21T17:05:36Z" changeset="125191964" uid="3497659" user="NKA">
		<tag k="alt_name" v="Bjergestølen" />
		<tag k="historic" v="shieling" />
		<tag k="name" v="Bjergastølen" />
		<tag k="place" v="isolated_dwelling" />
		<tag k="ssr:stedsnr" v="69137" />
	</node>
	<node id="9968236184" lat="61.3966361" lon="5.3265006" version="1" timestamp="2022-08-21T17:05:36Z" changeset="125191964" uid="3497659" user="NKA">
		<tag k="historic" v="shieling" />
		<tag k="name" v="Vårdalsstølen" />
		<tag k="place" v="isolated_dwelling" />
		<tag k="ssr:stedsnr" v="675270" />
	</node>
	<node id="9968236185" lat="61.4684692" lon="5.3926061" version="1" timestamp="2022-08-21T17:05:36Z" changeset="125191964" uid="3497659" user="NKA">
		<tag k="alt_name" v="Bjørndal" />
		<tag k="name" v="Bjørndalen" />
		<tag k="place" v="farm" />
		<tag k="ssr:stedsnr" v="614091" />
	</node>
	<node id="9968236186" lat="61.437425" lon="5.1226089" version="1" timestamp="2022-08-21T17:05:36Z" changeset="125191964" uid="3497659" user="NKA">
		<tag k="name" v="Yndestadstølen" />
		<tag k="place" v="locality" />
		<tag k="ssr:stedsnr" v="7028" />
	</node>
	<node id="9968236187" lat="61.4392974" lon="5.216143" version="1" timestamp="2022-08-21T17:05:36Z" changeset="125191964" uid="3497659" user="NKA">
		<tag k="alt_name" v="Lien" />
		<tag k="name" v="Lia" />
		<tag k="place" v="farm" />
		<tag k="ssr:stedsnr" v="675037" />
	</node>
	<node id="9968236188" lat="61.4617634" lon="5.2474445" version="1" timestamp="2022-08-21T17:05:36Z" changeset="125191964" uid="3497659" user="NKA">
		<tag k="alt_name" v="Merkesvik" />
		<tag k="name" v="Merkesvika" />
		<tag k="place" v="hamlet" />
		<tag k="ssr:stedsnr" v="614082" />
	</node>
	<node id="9968236189" lat="61.4737052" lon="5.3463575" version="1" timestamp="2022-08-21T17:05:36Z" changeset="125191964" uid="3497659" user="NKA">
		<tag k="alt_name" v="Hegrenes" />
		<tag k="name" v="Hegreneset" />
		<tag k="place" v="hamlet" />
		<tag k="ssr:stedsnr" v="614055" />
	</node>
	<node id="9968236190" lat="61.4259805" lon="5.2199672" version="1" timestamp="2022-08-21T17:05:36Z" changeset="125191964" uid="3497659" user="NKA">
		<tag k="name" v="Botnaplassen" />
		<tag k="place" v="locality" />
		<tag k="ssr:stedsnr" v="796007" />
	</node>
	<node id="9968236191" lat="61.4206361" lon="5.1890645" version="1" timestamp="2022-08-21T17:05:36Z" changeset="125191964" uid="3497659" user="NKA">
		<tag k="name" v="Slettestølen" />
		<tag k="place" v="locality" />
		<tag k="ssr:stedsnr" v="736042" />
	</node>
	<node id="9968236192" lat="61.4166958" lon="5.057765" version="1" timestamp="2022-08-21T17:05:36Z" changeset="125191964" uid="3497659" user="NKA">
		<tag k="name" v="Steinset" />
		<tag k="place" v="farm" />
		<tag k="ssr:stedsnr" v="764749" />
	</node>
	<node id="9968236193" lat="61.4441665" lon="5.4664059" version="1" timestamp="2022-08-21T17:05:36Z" changeset="125191964" uid="3497659" user="NKA">
		<tag k="name" v="Rørvika" />
		<tag k="place" v="hamlet" />
		<tag k="ssr:stedsnr" v="857002" />
	</node>
	<node id="9968236194" lat="61.393335" lon="4.924797" version="1" timestamp="2022-08-21T17:05:36Z" changeset="125191964" uid="3497659" user="NKA">
		<tag k="alt_name" v="Heggøy" />
		<tag k="name" v="Heggøyna" />
		<tag k="place" v="farm" />
		<tag k="ssr:stedsnr" v="250297" />
	</node>
	<node id="9968236195" lat="61.4757386" lon="5.354761" version="1" timestamp="2022-08-21T17:05:36Z" changeset="125191964" uid="3497659" user="NKA">
		<tag k="name" v="Liset" />
		<tag k="place" v="farm" />
		<tag k="ssr:stedsnr" v="128031" />
	</node>
	<node id="9968236196" lat="61.4755216" lon="5.2617515" version="1" timestamp="2022-08-21T17:05:36Z" changeset="125191964" uid="3497659" user="NKA">
		<tag k="name" v="Solbakken" />
		<tag k="place" v="farm" />
		<tag k="ssr:stedsnr" v="417549" />
	</node>
	<node id="9968236197" lat="61.4419583" lon="5.0728063" version="1" timestamp="2022-08-21T17:05:36Z" changeset="125191964" uid="3497659" user="NKA">
		<tag k="name" v="Plassen" />
		<tag k="place" v="farm" />
		<tag k="ssr:stedsnr" v="433352" />
	</node>
	<node id="9968236198" lat="61.4155611" lon="5.17227" version="1" timestamp="2022-08-21T17:05:36Z" changeset="125191964" uid="3497659" user="NKA">
		<tag k="name" v="Mosestølen" />
		<tag k="place" v="locality" />
		<tag k="ssr:stedsnr" v="764440" />
	</node>
	<node id="9968236199" lat="61.4462694" lon="5.3608117" version="1" timestamp="2022-08-21T17:05:36Z" changeset="125191964" uid="3497659" user="NKA">
		<tag k="name" v="Skorvestølen" />
		<tag k="place" v="locality" />
		<tag k="ssr:stedsnr" v="7116" />
	</node>
	<node id="9968236200" lat="61.4606834" lon="5.4277761" version="1" timestamp="2022-08-21T17:05:36Z" changeset="125191964" uid="3497659" user="NKA">
		<tag k="name" v="Åla" />
		<tag k="place" v="hamlet" />
		<tag k="ssr:stedsnr" v="68118" />
	</node>
	<node id="9968236201" lat="61.3624139" lon="5.1636506" version="1" timestamp="2022-08-21T17:05:36Z" changeset="125191964" uid="3497659" user="NKA">
		<tag k="alt_name" v="Klongrehaugen" />
		<tag k="name" v="Klungrehaugen" />
		<tag k="place" v="farm" />
		<tag k="ssr:stedsnr" v="735176" />
	</node>
	<node id="9968236202" lat="61.4206414" lon="4.9824093" version="1" timestamp="2022-08-21T17:05:36Z" changeset="125191964" uid="3497659" user="NKA">
		<tag k="name" v="Holevik" />
		<tag k="place" v="farm" />
		<tag k="ssr:stedsnr" v="886746" />
	</node>
	<node id="9968236203" lat="61.3787784" lon="4.907647" version="1" timestamp="2022-08-21T17:05:36Z" changeset="125191964" uid="3497659" user="NKA">
		<tag k="name" v="Avløyp" />
		<tag k="place" v="farm" />
		<tag k="ssr:stedsnr" v="643443" />
	</node>
	<node id="9968236204" lat="61.4202111" lon="5.2064284" version="1" timestamp="2022-08-21T17:05:36Z" changeset="125191964" uid="3497659" user="NKA">
		<tag k="alt_name" v="Stangstølen" />
		<tag k="historic" v="shieling" />
		<tag k="name" v="Stongsstølen" />
		<tag k="place" v="isolated_dwelling" />
		<tag k="ssr:stedsnr" v="311048" />
	</node>
	<node id="9968236205" lat="61.4239051" lon="5.1515713" version="1" timestamp="2022-08-21T17:05:36Z" changeset="125191964" uid="3497659" user="NKA">
		<tag k="name" v="Urdaneset" />
		<tag k="place" v="hamlet" />
		<tag k="ssr:stedsnr" v="311016" />
	</node>
	<node id="9968236206" lat="61.3214722" lon="4.9710396" version="1" timestamp="2022-08-21T17:05:36Z" changeset="125191964" uid="3497659" user="NKA">
		<tag k="name" v="Gjerdet" />
		<tag k="place" v="farm" />
		<tag k="ssr:stedsnr" v="553160" />
	</node>
	<node id="9968236207" lat="61.4510111" lon="5.3435671" version="1" timestamp="2022-08-21T17:05:36Z" changeset="125191964" uid="3497659" user="NKA">
		<tag k="name" v="Øyraplassen" />
		<tag k="place" v="locality" />
		<tag k="ssr:stedsnr" v="857112" />
	</node>
	<node id="9968236208" lat="61.4543979" lon="5.2209664" version="1" timestamp="2022-08-21T17:05:36Z" changeset="125191964" uid="3497659" user="NKA">
		<tag k="name" v="Vågane" />
		<tag k="place" v="hamlet" />
		<tag k="ssr:stedsnr" v="189063" />
	</node>
	<node id="9968236209" lat="61.4607518" lon="5.357529" version="1" timestamp="2022-08-21T17:05:36Z" changeset="125191964" uid="3497659" user="NKA">
		<tag k="alt_name" v="Selvik" />
		<tag k="name" v="Selvika" />
		<tag k="place" v="hamlet" />
		<tag k="ssr:stedsnr" v="189105" />
	</node>
	<node id="9968236210" lat="61.4296722" lon="5.30117" version="1" timestamp="2022-08-21T17:05:36Z" changeset="125191964" uid="3497659" user="NKA">
		<tag k="name" v="Kvamsstølen" />
		<tag k="place" v="locality" />
		<tag k="ssr:stedsnr" v="189047" />
	</node>
	<node id="9968236211" lat="61.4515413" lon="5.460288" version="1" timestamp="2022-08-21T17:05:36Z" changeset="125191964" uid="3497659" user="NKA">
		<tag k="name" v="Nesskog" />
		<tag k="place" v="farm" />
		<tag k="ssr:stedsnr" v="371018" />
	</node>
	<node id="9968236212" lat="61.4405556" lon="5.0716117" version="1" timestamp="2022-08-21T17:05:36Z" changeset="125191964" uid="3497659" user="NKA">
		<tag k="name" v="Haugen" />
		<tag k="place" v="farm" />
		<tag k="ssr:stedsnr" v="129378" />
	</node>
	<node id="9968236213" lat="61.4254872" lon="5.0826757" version="1" timestamp="2022-08-21T17:05:36Z" changeset="125191964" uid="3497659" user="NKA">
		<tag k="alt_name" v="Stubbseid" />
		<tag k="name" v="Stubseid" />
		<tag k="place" v="farm" />
		<tag k="ssr:stedsnr" v="69288" />
	</node>
	<node id="9968236214" lat="61.4754646" lon="5.3574883" version="1" timestamp="2022-08-21T17:05:36Z" changeset="125191964" uid="3497659" user="NKA">
		<tag k="name" v="Øvrebø" />
		<tag k="place" v="farm" />
		<tag k="ssr:stedsnr" v="53690" />
	</node>
	<node id="9968236215" lat="61.4629973" lon="5.3852826" version="1" timestamp="2022-08-21T17:05:36Z" changeset="125191964" uid="3497659" user="NKA">
		<tag k="name" v="Nordre Gjelsvik" />
		<tag k="place" v="farm" />
		<tag k="ssr:stedsnr" v="356672" />
	</node>
	<node id="9968236216" lat="61.4337166" lon="5.0329257" version="1" timestamp="2022-08-21T17:05:36Z" changeset="125191964" uid="3497659" user="NKA">
		<tag k="alt_name" v="Liavik" />
		<tag k="name" v="Liavika" />
		<tag k="place" v="farm" />
		<tag k="ssr:stedsnr" v="918300" />
	</node>
</osm>
