<?xml version="1.0" encoding="UTF-8"?>
<osm version="0.6" generator="osmapis">
	<node lat="69.77191110833222" lon="21.75784162234871" id="-38940">
		<tag k="name" v="Mittreporten" />
		<tag k="natural" v="slope" />
		<tag k="place" v="locality" />
		<tag k="ssr:stedsnr" v="229727" />
	</node>
	<node lat="70.10252778243262" lon="22.02142772635758" id="-38942">
		<tag k="name" v="Urberget" />
		<tag k="natural" v="hill" />
		<tag k="place" v="locality" />
		<tag k="ssr:stedsnr" v="229800" />
	</node>
	<node lat="70.09307221999862" lon="21.98538050479668" id="-38943">
		<tag k="name" v="Gamberget" />
		<tag k="natural" v="hill" />
		<tag k="place" v="locality" />
		<tag k="ssr:stedsnr" v="229838" />
	</node>
	<node lat="70.07978333276827" lon="21.606288864199165" id="-38948">
		<tag k="name" v="Jorborrit" />
		<tag k="name:se" v="Jorborrit" />
		<tag k="natural" v="hill" />
		<tag k="place" v="locality" />
		<tag k="ssr:stedsnr" v="230888" />
	</node>
	<node lat="69.54667222192566" lon="22.271091623787438" id="-38950">
		<tag k="fixme" v="consider natural=peak for the most distinct mountains in the district" />
		<tag k="name" v="Bearaloaivvit" />
		<tag k="name:se" v="Bearaloaivvit" />
		<tag k="natural" v="hill" />
		<tag k="old_name:se" v="Bæraloaivit" />
		<tag k="place" v="locality" />
		<tag k="ssr:stedsnr" v="18803" />
	</node>
	<node lat="69.72208055919482" lon="22.341169399201853" id="-38951">
		<tag k="name" v="Gearbbehat" />
		<tag k="name:se" v="Gearbbehat" />
		<tag k="natural" v="plateau" />
		<tag k="old_name:se" v="Gærbehat" />
		<tag k="ssr:stedsnr" v="18810" />
	</node>
	<node lat="69.59075833606148" lon="22.430255494407636" id="-38952">
		<tag k="name" v="Goddevággi" />
		<tag k="name:se" v="Goddevággi" />
		<tag k="natural" v="valley" />
		<tag k="old_name:se" v="Gåddevaggi" />
		<tag k="place" v="locality" />
		<tag k="ssr:stedsnr" v="18788" />
	</node>
	<node lat="70.18818055966258" lon="21.56697220149308" id="-38958">
		<tag k="fixme" v="consider natural=peak for the most distinct mountains in the district" />
		<tag k="name" v="Kjerringfjellet" />
		<tag k="natural" v="hill" />
		<tag k="place" v="locality" />
		<tag k="ssr:stedsnr" v="19160" />
	</node>
	<node lat="70.14218333816432" lon="21.543619415193927" id="-38961">
		<tag k="name" v="Reinfjorddalen - Boazovuonvággi" />
		<tag k="name:no" v="Reinfjorddalen" />
		<tag k="name:se" v="Boazovuonvággi" />
		<tag k="natural" v="valley" />
		<tag k="old_name:se" v="Boazuvuonvaggi" />
		<tag k="place" v="locality" />
		<tag k="ssr:stedsnr" v="19293" />
	</node>
	<node lat="69.8846611148729" lon="22.34474161562461" id="-38962">
		<tag k="name" v="Storelvdalen" />
		<tag k="natural" v="valley" />
		<tag k="place" v="locality" />
		<tag k="ssr:stedsnr" v="19441" />
	</node>
	<node lat="69.71693333806715" lon="21.87072218008904" id="-38963">
		<tag k="name" v="Govdavággi" />
		<tag k="name:se" v="Govdavággi" />
		<tag k="natural" v="valley" />
		<tag k="place" v="locality" />
		<tag k="ssr:stedsnr" v="19445" />
	</node>
	<node lat="69.85708055753189" lon="22.281908291849252" id="-38965">
		<tag k="fixme" v="consider natural=peak for the most distinct mountains in the district" />
		<tag k="name" v="Blåfjellet" />
		<tag k="natural" v="hill" />
		<tag k="place" v="locality" />
		<tag k="ssr:stedsnr" v="19452" />
	</node>
	<node lat="69.92665277585195" lon="21.62821108522988" id="-38967">
		<tag k="name" v="Skorpa" />
		<tag k="natural" v="slope" />
		<tag k="place" v="locality" />
		<tag k="ssr:stedsnr" v="235063" />
	</node>
	<node lat="69.93005555911188" lon="21.718333288892683" id="-38969">
		<tag k="name" v="Slotta" />
		<tag k="natural" v="slope" />
		<tag k="place" v="locality" />
		<tag k="ssr:stedsnr" v="235215" />
	</node>
	<node lat="69.83114722609496" lon="21.840305529003256" id="-38977">
		<tag k="fixme" v="consider natural=peak for the most distinct mountains in the district" />
		<tag k="name" v="Leirafjellet" />
		<tag k="natural" v="hill" />
		<tag k="place" v="locality" />
		<tag k="ssr:stedsnr" v="236163" />
	</node>
	<node lat="70.01533888804124" lon="21.709052738680732" id="-38978">
		<tag k="fixme" v="consider natural=peak for the most distinct mountains in the district" />
		<tag k="name" v="Vaddas" />
		<tag k="name:se" v="Vaddas" />
		<tag k="natural" v="hill" />
		<tag k="place" v="locality" />
		<tag k="ssr:stedsnr" v="236174" />
	</node>
	<node lat="69.72378333033285" lon="22.253436064175585" id="-38982">
		<tag k="fixme" v="consider natural=peak for the most distinct mountains in the district" />
		<tag k="name" v="Rassegurrafjellet" />
		<tag k="natural" v="hill" />
		<tag k="place" v="locality" />
		<tag k="ssr:stedsnr" v="236536" />
	</node>
	<node lat="69.7184194431739" lon="22.21777773766174" id="-38984">
		<tag k="name" v="Rundvannsflata" />
		<tag k="place" v="locality" />
		<tag k="ssr:stedsnr" v="236541" />
	</node>
	<node lat="69.9583444502385" lon="21.90931940361613" id="-38987">
		<tag k="name" v="Skorra" />
		<tag k="natural" v="valley" />
		<tag k="place" v="locality" />
		<tag k="ssr:stedsnr" v="236576" />
	</node>
	<node lat="69.90286111571483" lon="22.04695828855776" id="-38988">
		<tag k="name" v="Pekkavollen" />
		<tag k="place" v="locality" />
		<tag k="ssr:stedsnr" v="236582" />
	</node>
	<node lat="69.94328056029688" lon="21.91025830508554" id="-38989">
		<tag k="name" v="Heggebakken" />
		<tag k="natural" v="slope" />
		<tag k="place" v="locality" />
		<tag k="ssr:stedsnr" v="236603" />
	</node>
	<node lat="69.94708611086921" lon="21.92208052676275" id="-38991">
		<tag k="name" v="Daumannsberget" />
		<tag k="natural" v="hill" />
		<tag k="place" v="locality" />
		<tag k="ssr:stedsnr" v="236609" />
	</node>
	<node lat="69.72033889035248" lon="22.06257495335121" id="-38992">
		<tag k="name" v="Gardelvågbergan" />
		<tag k="natural" v="hill" />
		<tag k="place" v="locality" />
		<tag k="ssr:stedsnr" v="236615" />
	</node>
	<node lat="70.02718055844805" lon="21.988797177520325" id="-38995">
		<tag k="name" v="Andreberget" />
		<tag k="natural" v="hill" />
		<tag k="place" v="locality" />
		<tag k="ssr:stedsnr" v="236692" />
	</node>
	<node lat="69.72343611601666" lon="22.067744401036325" id="-38996">
		<tag k="name" v="Gardelvågflata" />
		<tag k="place" v="locality" />
		<tag k="ssr:stedsnr" v="236617" />
	</node>
	<node lat="70.02621111006998" lon="21.801472196542132" id="-38998">
		<tag k="name" v="Storlinova" />
		<tag k="natural" v="hill" />
		<tag k="place" v="locality" />
		<tag k="ssr:stedsnr" v="236771" />
	</node>
	<node lat="69.76649444160205" lon="21.983091633190263" id="-38999">
		<tag k="name" v="Båtberget" />
		<tag k="natural" v="hill" />
		<tag k="place" v="locality" />
		<tag k="ssr:stedsnr" v="236970" />
	</node>
	<node lat="69.91521668243706" lon="21.816796632257393" id="-39004">
		<tag k="name" v="Rotskaret - Ruohttaskoarru" />
		<tag k="name:no" v="Rotskaret" />
		<tag k="name:se" v="Ruohttaskoarru" />
		<tag k="natural" v="valley" />
		<tag k="place" v="locality" />
		<tag k="ssr:stedsnr" v="46288" />
	</node>
	<node lat="70.0014194478518" lon="21.658483294754777" id="-39007">
		<tag k="name" v="Geiaberget" />
		<tag k="natural" v="hill" />
		<tag k="place" v="locality" />
		<tag k="ssr:stedsnr" v="54101" />
	</node>
	<node lat="70.01391666571118" lon="21.71513885296783" id="-39008">
		<tag k="name" v="Brannhaugen" />
		<tag k="natural" v="hill" />
		<tag k="place" v="locality" />
		<tag k="ssr:stedsnr" v="54171" />
	</node>
	<node lat="70.01753055433106" lon="21.706188849388454" id="-39009">
		<tag k="name" v="Buktebakken" />
		<tag k="natural" v="slope" />
		<tag k="place" v="locality" />
		<tag k="ssr:stedsnr" v="54181" />
	</node>
	<node lat="69.88986111084733" lon="21.913363846770007" id="-39013">
		<tag k="name" v="Jonasaksla" />
		<tag k="place" v="locality" />
		<tag k="ssr:stedsnr" v="54609" />
	</node>
	<node lat="69.75603055194361" lon="22.102541629180614" id="-39015">
		<tag k="name" v="Isberget" />
		<tag k="natural" v="hill" />
		<tag k="place" v="locality" />
		<tag k="ssr:stedsnr" v="54668" />
	</node>
	<node lat="69.8970138876799" lon="22.13591383943834" id="-39017">
		<tag k="alt_name" v="Grubehompen" />
		<tag k="name" v="Grubehumpen" />
		<tag k="natural" v="hill" />
		<tag k="place" v="locality" />
		<tag k="ssr:stedsnr" v="54518" />
	</node>
	<node lat="70.02608333579951" lon="22.00876107621103" id="-39021">
		<tag k="name" v="Kusletta" />
		<tag k="place" v="locality" />
		<tag k="ssr:stedsnr" v="54701" />
	</node>
	<node lat="70.03132778013955" lon="22.02297496703719" id="-39022">
		<tag k="name" v="Storuraksla" />
		<tag k="place" v="locality" />
		<tag k="ssr:stedsnr" v="54706" />
	</node>
	<node lat="69.82923611013065" lon="22.096563839396175" id="-39029">
		<tag k="fixme" v="consider natural=peak for the most distinct mountains in the district" />
		<tag k="name" v="Lausfjellet" />
		<tag k="natural" v="hill" />
		<tag k="place" v="locality" />
		<tag k="ssr:stedsnr" v="80106" />
	</node>
	<node lat="69.83494166741137" lon="21.989827741465152" id="-39030">
		<tag k="fixme" v="consider natural=peak for the most distinct mountains in the district" />
		<tag k="name" v="Klubbefjellet" />
		<tag k="natural" v="hill" />
		<tag k="place" v="locality" />
		<tag k="ssr:stedsnr" v="80108" />
	</node>
	<node lat="70.08565000382538" lon="21.924330526429667" id="-39034">
		<tag k="name" v="Sotnesdalen" />
		<tag k="natural" v="valley" />
		<tag k="place" v="locality" />
		<tag k="ssr:stedsnr" v="80308" />
	</node>
	<node lat="69.66018055414796" lon="21.844572175843165" id="-39037">
		<tag k="name" v="Goneldatvággi" />
		<tag k="name:se" v="Goneldatvággi" />
		<tag k="natural" v="valley" />
		<tag k="place" v="locality" />
		<tag k="ssr:stedsnr" v="80440" />
	</node>
	<node lat="70.0702444474562" lon="21.69144442221072" id="-39039">
		<tag k="name" v="Vuolanvággi" />
		<tag k="name:se" v="Vuolanvággi" />
		<tag k="natural" v="valley" />
		<tag k="old_name:se" v="Vuolanvaggi" />
		<tag k="place" v="locality" />
		<tag k="ssr:stedsnr" v="80443" />
	</node>
	<node lat="69.74572500325127" lon="21.9368277342778" id="-39056">
		<tag k="name" v="Alalinka" />
		<tag k="name:fkv" v="Alalinka" />
		<tag k="natural" v="slope" />
		<tag k="place" v="locality" />
		<tag k="ssr:stedsnr" v="114807" />
	</node>
	<node lat="69.7469166727904" lon="21.99111384076834" id="-39057">
		<tag k="fixme" v="consider natural=peak for the most distinct mountains in the district" />
		<tag k="name" v="Kjølfjellet" />
		<tag k="natural" v="hill" />
		<tag k="place" v="locality" />
		<tag k="ssr:stedsnr" v="114812" />
	</node>
	<node lat="70.05485555853885" lon="21.717122198210404" id="-39058">
		<tag k="name" v="Slettbergan" />
		<tag k="natural" v="hill" />
		<tag k="place" v="locality" />
		<tag k="ssr:stedsnr" v="115104" />
	</node>
	<node lat="69.9220277801074" lon="21.704297185413985" id="-39061">
		<tag k="name" v="Storbakken" />
		<tag k="natural" v="slope" />
		<tag k="place" v="locality" />
		<tag k="ssr:stedsnr" v="115068" />
	</node>
	<node lat="70.01679722690683" lon="21.60555830609964" id="-39062">
		<tag k="name" v="Soberoggi" />
		<tag k="name:se" v="Soberoggi" />
		<tag k="natural" v="valley" />
		<tag k="place" v="locality" />
		<tag k="ssr:stedsnr" v="115075" />
	</node>
	<node lat="69.99363611579176" lon="21.69121107679577" id="-39063">
		<tag k="name" v="Linkhammaren" />
		<tag k="natural" v="hill" />
		<tag k="place" v="locality" />
		<tag k="ssr:stedsnr" v="115089" />
	</node>
	<node lat="70.01718055758703" lon="21.647049967719703" id="-39064">
		<tag k="name" v="Sulločielgi" />
		<tag k="name:se" v="Sulločielgi" />
		<tag k="natural" v="ridge" />
		<tag k="place" v="locality" />
		<tag k="ssr:stedsnr" v="115203" />
	</node>
	<node lat="69.7126999980441" lon="22.076794397475624" id="-39069">
		<tag k="name" v="Raset" />
		<tag k="natural" v="cliff" />
		<tag k="ssr:stedsnr" v="115610" />
	</node>
	<node lat="69.95416111088913" lon="21.93083606230477" id="-39070">
		<tag k="name" v="Hampabergan" />
		<tag k="natural" v="hill" />
		<tag k="place" v="locality" />
		<tag k="ssr:stedsnr" v="115612" />
	</node>
	<node lat="69.95072777767331" lon="21.93389717693765" id="-39071">
		<tag k="name" v="Revbuktberget" />
		<tag k="natural" v="hill" />
		<tag k="place" v="locality" />
		<tag k="ssr:stedsnr" v="115613" />
	</node>
	<node lat="69.72209444359615" lon="22.0479499624336" id="-39072">
		<tag k="name" v="Gardelvågmoen" />
		<tag k="place" v="locality" />
		<tag k="ssr:stedsnr" v="115617" />
	</node>
	<node lat="70.01979722783628" lon="21.972999960790087" id="-39078">
		<tag k="name" v="Leirsletta" />
		<tag k="place" v="locality" />
		<tag k="ssr:stedsnr" v="115671" />
	</node>
	<node lat="69.73908333528398" lon="22.131469405059022" id="-39080">
		<tag k="name" v="Nordbotnflata" />
		<tag k="place" v="locality" />
		<tag k="ssr:stedsnr" v="115685" />
	</node>
	<node lat="69.61752222698487" lon="22.539927717165845" id="-39081">
		<tag k="fixme" v="consider natural=peak for the most distinct mountains in the district" />
		<tag k="name" v="Rássegálvákkegierratčohkat" />
		<tag k="name:se" v="Rássegálvákkegierratčohkat" />
		<tag k="natural" v="hill" />
		<tag k="old_name:se" v="Rassegalvaggegieračåkkat" />
		<tag k="place" v="locality" />
		<tag k="ssr:stedsnr" v="139802" />
	</node>
	<node lat="69.74282499756694" lon="22.269902733729324" id="-39082">
		<tag k="fixme" v="consider natural=peak for the most distinct mountains in the district" />
		<tag k="name" v="Oaivvoščohkka" />
		<tag k="name:se" v="Oaivvoščohkka" />
		<tag k="natural" v="hill" />
		<tag k="old_name:se" v="Oaivuščåkka" />
		<tag k="place" v="locality" />
		<tag k="ssr:stedsnr" v="139886" />
	</node>
	<node lat="69.88981111307893" lon="22.372483274043706" id="-39084">
		<tag k="fixme" v="consider natural=peak for the most distinct mountains in the district" />
		<tag k="name" v="Elvehumpen" />
		<tag k="natural" v="hill" />
		<tag k="place" v="locality" />
		<tag k="ssr:stedsnr" v="140044" />
	</node>
	<node lat="69.83225974777827" lon="22.071234764525666" id="-39086">
		<tag k="alt_name:no" v="Jens-hompen" />
		<tag k="fixme" v="consider natural=peak for the most distinct mountains in the district" />
		<tag k="name" v="Jenshumpen - Ruovddáš" />
		<tag k="name:no" v="Jenshumpen" />
		<tag k="name:se" v="Ruovddáš" />
		<tag k="natural" v="hill" />
		<tag k="place" v="locality" />
		<tag k="ssr:stedsnr" v="140092" />
	</node>
	<node lat="70.21637500291241" lon="21.191697206923532" id="-39098">
		<tag k="name" v="Gáhkkogurra" />
		<tag k="name:se" v="Gáhkkogurra" />
		<tag k="natural" v="valley" />
		<tag k="place" v="locality" />
		<tag k="ssr:stedsnr" v="167215" />
	</node>
	<node lat="70.09046944329012" lon="21.970599950221033" id="-39102">
		<tag k="name" v="Finnhaugen" />
		<tag k="natural" v="hill" />
		<tag k="place" v="locality" />
		<tag k="ssr:stedsnr" v="169822" />
	</node>
	<node lat="69.88651666888651" lon="21.674099958390652" id="-39108">
		<tag k="name" v="Forramoen" />
		<tag k="place" v="locality" />
		<tag k="ssr:stedsnr" v="175010" />
	</node>
	<node lat="69.92448333748699" lon="21.635813857135773" id="-39110">
		<tag k="name" v="Kuberget" />
		<tag k="natural" v="hill" />
		<tag k="place" v="locality" />
		<tag k="ssr:stedsnr" v="175036" />
	</node>
	<node lat="69.90065833525478" lon="22.130999952183412" id="-39114">
		<tag k="name" v="Gruban" />
		<tag k="natural" v="valley" />
		<tag k="place" v="locality" />
		<tag k="ssr:stedsnr" v="175517" />
	</node>
	<node lat="69.89596666811788" lon="21.644391634885434" id="-39119">
		<tag k="name" v="Helleren" />
		<tag k="natural" v="hill" />
		<tag k="place" v="locality" />
		<tag k="ssr:stedsnr" v="176056" />
	</node>
	<node lat="69.64897777642233" lon="21.877611060699742" id="-39120">
		<tag k="fixme" v="consider natural=peak for the most distinct mountains in the district" />
		<tag k="name" v="Skáiderášša" />
		<tag k="name:se" v="Skáiderášša" />
		<tag k="natural" v="hill" />
		<tag k="place" v="locality" />
		<tag k="ssr:stedsnr" v="261458" />
	</node>
	<node lat="69.64993055732485" lon="21.789722182142704" id="-39121">
		<tag k="fixme" v="consider natural=peak for the most distinct mountains in the district" />
		<tag k="name" v="Goneldatvárri" />
		<tag k="name:se" v="Goneldatvárri" />
		<tag k="natural" v="hill" />
		<tag k="place" v="locality" />
		<tag k="ssr:stedsnr" v="261459" />
	</node>
	<node lat="69.7272888939341" lon="22.17168052091337" id="-39125">
		<tag k="name" v="Nedre Knutevannsflata" />
		<tag k="place" v="locality" />
		<tag k="ssr:stedsnr" v="176618" />
	</node>
	<node lat="69.72088055405808" lon="22.10867494017379" id="-39126">
		<tag k="name" v="Vangenstorbakken" />
		<tag k="natural" v="slope" />
		<tag k="place" v="locality" />
		<tag k="ssr:stedsnr" v="176619" />
	</node>
	<node lat="69.74011944625916" lon="22.1390832832288" id="-39127">
		<tag k="name" v="Trastevollen" />
		<tag k="place" v="locality" />
		<tag k="ssr:stedsnr" v="176720" />
	</node>
	<node lat="69.52113611203666" lon="22.532108272824498" id="-39129">
		<tag k="name" v="Baikaláhku" />
		<tag k="name:se" v="Baikaláhku" />
		<tag k="old_name:se" v="Baikalakko" />
		<tag k="place" v="locality" />
		<tag k="ssr:stedsnr" v="261768" />
	</node>
	<node lat="69.56746945125792" lon="22.306649940029438" id="-39132">
		<tag k="fixme" v="consider natural=peak for the most distinct mountains in the district" />
		<tag k="name" v="Várdoaivi" />
		<tag k="name:se" v="Várdoaivi" />
		<tag k="natural" v="hill" />
		<tag k="old_name:se" v="Vardoaivi" />
		<tag k="place" v="locality" />
		<tag k="ssr:stedsnr" v="261802" />
	</node>
	<node lat="69.54868889504573" lon="22.623349928348585" id="-39133">
		<tag k="fixme" v="consider natural=peak for the most distinct mountains in the district" />
		<tag k="name" v="Heisoráhppát" />
		<tag k="name:se" v="Heisoráhppát" />
		<tag k="natural" v="hill" />
		<tag k="old_name:se" v="Heisurappat" />
		<tag k="place" v="locality" />
		<tag k="ssr:stedsnr" v="261806" />
	</node>
	<node lat="69.55208611230702" lon="22.4678249443028" id="-39135">
		<tag k="fixme" v="consider natural=peak for the most distinct mountains in the district" />
		<tag k="name" v="Ruossa-Nábár" />
		<tag k="name:se" v="Ruossa-Nábár" />
		<tag k="natural" v="hill" />
		<tag k="old_name:se" v="Ruossanabar;Ruossonábár" />
		<tag k="place" v="locality" />
		<tag k="ssr:stedsnr" v="261811" />
	</node>
	<node lat="69.92629166869152" lon="22.28394995436802" id="-39138">
		<tag k="name" v="Kratthaugen - Rohtoaivi" />
		<tag k="name:no" v="Kratthaugen" />
		<tag k="name:se" v="Rohtoaivi" />
		<tag k="natural" v="hill" />
		<tag k="old_name:se" v="Råttoaivi" />
		<tag k="place" v="locality" />
		<tag k="ssr:stedsnr" v="262058" />
	</node>
	<node lat="70.1862305608203" lon="21.36174719015664" id="-39147">
		<tag k="alt_name" v="Vassbergtinden" />
		<tag k="name" v="Vassbergtind" />
		<tag k="natural" v="hill" />
		<tag k="place" v="locality" />
		<tag k="ssr:stedsnr" v="262164" />
	</node>
	<node lat="70.19728055516491" lon="21.346405525684954" id="-39150">
		<tag k="fixme" v="consider natural=peak for the most distinct mountains in the district" />
		<tag k="name" v="Jievjarášša" />
		<tag k="name:se" v="Jievjarášša" />
		<tag k="natural" v="hill" />
		<tag k="old_name:se" v="Jeivjarašša" />
		<tag k="place" v="locality" />
		<tag k="ssr:stedsnr" v="262170" />
	</node>
	<node lat="69.86912778126717" lon="21.632308304553042" id="-39151">
		<tag k="fixme" v="consider natural=peak for the most distinct mountains in the district" />
		<tag k="name" v="Bunkersgielas" />
		<tag k="name:se" v="Bunkersgielas" />
		<tag k="natural" v="hill" />
		<tag k="place" v="locality" />
		<tag k="ssr:stedsnr" v="262181" />
	</node>
	<node lat="70.12995000236836" lon="21.86974717549708" id="-39158">
		<tag k="fixme" v="consider natural=peak for the most distinct mountains in the district" />
		<tag k="name" v="Stuoravuončahca" />
		<tag k="name:se" v="Stuoravuončahca" />
		<tag k="natural" v="hill" />
		<tag k="old_name:se" v="Stuoravuončacca" />
		<tag k="place" v="locality" />
		<tag k="ssr:stedsnr" v="262274" />
	</node>
	<node lat="69.73743888675219" lon="21.76628052013263" id="-39160">
		<tag k="fixme" v="consider natural=peak for the most distinct mountains in the district" />
		<tag k="name" v="Vuovdenjunni" />
		<tag k="name:se" v="Vuovdenjunni" />
		<tag k="natural" v="hill" />
		<tag k="place" v="locality" />
		<tag k="ssr:stedsnr" v="262290" />
	</node>
	<node lat="69.70668333394846" lon="21.854877737615972" id="-39172">
		<tag k="fixme" v="consider natural=peak for the most distinct mountains in the district" />
		<tag k="name" v="Veattoaivi" />
		<tag k="name:se" v="Veattoaivi" />
		<tag k="natural" v="hill" />
		<tag k="place" v="locality" />
		<tag k="ssr:stedsnr" v="262490" />
	</node>
	<node lat="69.99651389079679" lon="21.238724960757686" id="-39173">
		<tag k="fixme" v="multiple name tags, choose one and add the other to alt_name" />
		<tag k="name" v="Peraksla;Pålsaaksla" />
		<tag k="natural" v="hill" />
		<tag k="place" v="locality" />
		<tag k="ssr:stedsnr" v="262914" />
	</node>
	<node lat="69.9035833362271" lon="21.560116639150028" id="-39174">
		<tag k="name" v="Dihpesroggi" />
		<tag k="name:se" v="Dihpesroggi" />
		<tag k="natural" v="valley" />
		<tag k="place" v="locality" />
		<tag k="ssr:stedsnr" v="262873" />
	</node>
	<node lat="69.53664722144653" lon="22.28223882487799" id="-39176">
		<tag k="name" v="Čáhppesvággi" />
		<tag k="name:se" v="Čáhppesvággi" />
		<tag k="natural" v="valley" />
		<tag k="old_name:se" v="Čappesvaggi" />
		<tag k="place" v="locality" />
		<tag k="ssr:stedsnr" v="200760" />
	</node>
	<node lat="69.76512778221095" lon="21.942708292952563" id="-39178">
		<tag k="fixme" v="consider natural=peak for the most distinct mountains in the district" />
		<tag k="loc_name:fkv" v="Mukkunainen" />
		<tag k="name" v="Mokkonainen - Muhkkonaš" />
		<tag k="name:no" v="Mokkonainen" />
		<tag k="name:se" v="Muhkkonaš" />
		<tag k="natural" v="hill" />
		<tag k="place" v="locality" />
		<tag k="ssr:stedsnr" v="201005" />
	</node>
	<node lat="69.84843888835144" lon="22.209019395250444" id="-39179">
		<tag k="fixme" v="consider natural=peak for the most distinct mountains in the district" />
		<tag k="name" v="Šáikavárri" />
		<tag k="name:se" v="Šáikavárri" />
		<tag k="natural" v="hill" />
		<tag k="place" v="locality" />
		<tag k="ssr:stedsnr" v="201051" />
	</node>
	<node lat="69.86596111009412" lon="21.704322172550093" id="-39180">
		<tag k="name" v="Vuommi" />
		<tag k="name:se" v="Vuommi" />
		<tag k="natural" v="valley" />
		<tag k="place" v="locality" />
		<tag k="ssr:stedsnr" v="201056" />
	</node>
	<node lat="69.79302222024891" lon="21.761541623255976" id="-39182">
		<tag k="fixme" v="consider natural=peak for the most distinct mountains in the district" />
		<tag k="name" v="Gáiccavárri" />
		<tag k="name:se" v="Gáiccavárri" />
		<tag k="natural" v="hill" />
		<tag k="place" v="locality" />
		<tag k="ssr:stedsnr" v="201100" />
	</node>
	<node lat="69.9120435684951" lon="22.10503439398233" id="-39184">
		<tag k="alt_name" v="Storhompen" />
		<tag k="fixme" v="consider natural=peak for the most distinct mountains in the district" />
		<tag k="name" v="Storhumpen" />
		<tag k="natural" v="hill" />
		<tag k="place" v="locality" />
		<tag k="ssr:stedsnr" v="201151" />
	</node>
	<node lat="70.10457500005458" lon="21.556305525334466" id="-39186">
		<tag k="fixme" v="consider natural=peak for the most distinct mountains in the district" />
		<tag k="name" v="Slettatinden" />
		<tag k="natural" v="hill" />
		<tag k="place" v="locality" />
		<tag k="ssr:stedsnr" v="201300" />
	</node>
	<node lat="69.5586027794323" lon="21.91737494590819" id="-39190">
		<tag k="fixme" v="consider natural=peak for the most distinct mountains in the district" />
		<tag k="name" v="Mávnnarášša" />
		<tag k="name:se" v="Mávnnarášša" />
		<tag k="natural" v="hill" />
		<tag k="place" v="locality" />
		<tag k="ssr:stedsnr" v="201449" />
	</node>
	<node lat="70.02588056005179" lon="21.811033311262424" id="-39191">
		<tag k="name" v="Storlia" />
		<tag k="natural" v="slope" />
		<tag k="place" v="locality" />
		<tag k="ssr:stedsnr" v="201450" />
	</node>
	<node lat="69.92763888777509" lon="21.490238847857757" id="-39192">
		<tag k="fixme" v="consider natural=peak for the most distinct mountains in the district" />
		<tag k="name" v="Čuvččagáisá" />
		<tag k="name:se" v="Čuvččagáisá" />
		<tag k="natural" v="hill" />
		<tag k="place" v="locality" />
		<tag k="ssr:stedsnr" v="201846" />
	</node>
	<node lat="69.99300555215991" lon="21.476883301083717" id="-39196">
		<tag k="name" v="Vannberget" />
		<tag k="natural" v="hill" />
		<tag k="place" v="locality" />
		<tag k="ssr:stedsnr" v="201896" />
	</node>
	<node lat="70.01263055949438" lon="21.664736070809543" id="-39211">
		<tag k="name" v="Nisčorru" />
		<tag k="name:se" v="Nisčorru" />
		<tag k="natural" v="hill" />
		<tag k="place" v="locality" />
		<tag k="ssr:stedsnr" v="236098" />
	</node>
	<node lat="69.93370000284278" lon="21.654422195683246" id="-39213">
		<tag k="name" v="Storgrøfta" />
		<tag k="natural" v="valley" />
		<tag k="place" v="locality" />
		<tag k="ssr:stedsnr" v="236111" />
	</node>
	<node lat="69.79926388644849" lon="21.883436080101557" id="-39216">
		<tag k="fixme" v="consider natural=peak for the most distinct mountains in the district" />
		<tag k="name" v="Svarttoppen" />
		<tag k="natural" v="hill" />
		<tag k="place" v="locality" />
		<tag k="ssr:stedsnr" v="236481" />
	</node>
	<node lat="69.88941389118503" lon="22.210722164250967" id="-39217">
		<tag k="name" v="Sivertsgrube" />
		<tag k="natural" v="valley" />
		<tag k="place" v="locality" />
		<tag k="ssr:stedsnr" v="236484" />
	</node>
	<node lat="69.97461111131966" lon="21.938863841762803" id="-39219">
		<tag k="fixme" v="consider natural=peak for the most distinct mountains in the district" />
		<tag k="name" v="Kviteberget" />
		<tag k="natural" v="hill" />
		<tag k="place" v="locality" />
		<tag k="ssr:stedsnr" v="236636" />
	</node>
	<node lat="69.58246111146012" lon="22.550224947338776" id="-39228">
		<tag k="name" v="Nábárvággi" />
		<tag k="name:se" v="Nábárvággi" />
		<tag k="natural" v="valley" />
		<tag k="old_name:se" v="Nabarvaggi" />
		<tag k="place" v="locality" />
		<tag k="ssr:stedsnr" v="261799" />
	</node>
	<node lat="69.75792778179108" lon="21.98848883661451" id="-39229">
		<tag k="fixme" v="consider natural=peak for the most distinct mountains in the district" />
		<tag k="name" v="Kjølfjellet" />
		<tag k="natural" v="hill" />
		<tag k="place" v="locality" />
		<tag k="ssr:stedsnr" v="262021" />
	</node>
	<node lat="70.08329166621185" lon="21.783524958188906" id="-39232">
		<tag k="name" v="Latterdalen" />
		<tag k="natural" v="valley" />
		<tag k="place" v="locality" />
		<tag k="ssr:stedsnr" v="262293" />
	</node>
	<node lat="70.07867778124627" lon="22.07106661796363" id="-39233">
		<tag k="alt_name:no" v="Jonslettinden" />
		<tag k="fixme" v="consider natural=peak for the most distinct mountains in the district" />
		<tag k="name" v="Jonslettind - Vieksevárri" />
		<tag k="name:no" v="Jonslettind" />
		<tag k="name:se" v="Vieksevárri" />
		<tag k="natural" v="hill" />
		<tag k="old_name:se" v="Vieksevarri" />
		<tag k="place" v="locality" />
		<tag k="ssr:stedsnr" v="262294" />
	</node>
	<node lat="69.83954444317365" lon="22.40541105261676" id="-39238">
		<tag k="fixme" v="consider natural=peak for the most distinct mountains in the district" />
		<tag k="name" v="Mittavárri" />
		<tag k="name:se" v="Mittavárri" />
		<tag k="natural" v="hill" />
		<tag k="old_name:se" v="Middavarri" />
		<tag k="place" v="locality" />
		<tag k="ssr:stedsnr" v="262452" />
	</node>
	<node lat="69.59009999820448" lon="22.24453049852111" id="-39241">
		<tag k="fixme" v="consider natural=peak for the most distinct mountains in the district" />
		<tag k="name" v="Njuolggorášša" />
		<tag k="name:se" v="Njuolggorášša" />
		<tag k="natural" v="hill" />
		<tag k="old_name:se" v="Njuoggorášša" />
		<tag k="place" v="locality" />
		<tag k="ssr:stedsnr" v="262496" />
	</node>
	<node lat="69.93637778161634" lon="21.55493329084631" id="-39243">
		<tag k="name" v="Falkeberget" />
		<tag k="natural" v="hill" />
		<tag k="place" v="locality" />
		<tag k="ssr:stedsnr" v="262893" />
	</node>
	<node lat="69.99126110953584" lon="21.397344418547405" id="-39247">
		<tag k="fixme" v="consider natural=peak for the most distinct mountains in the district" />
		<tag k="loc_name:no" v="Valantindan" />
		<tag k="name" v="Kvænangstindan - Návuongáissát" />
		<tag k="name:no" v="Kvænangstindan" />
		<tag k="name:se" v="Návuongáissát" />
		<tag k="natural" v="hill" />
		<tag k="place" v="locality" />
		<tag k="ssr:stedsnr" v="270908" />
	</node>
	<node lat="70.21468889236625" lon="21.22738331196147" id="-39252">
		<tag k="name" v="Strupen" />
		<tag k="natural" v="valley" />
		<tag k="place" v="locality" />
		<tag k="ssr:stedsnr" v="288212" />
	</node>
	<node lat="69.70879750222714" lon="22.297620214121306" id="-39260">
		<tag k="alt_name" v="Dalhompen" />
		<tag k="name" v="Dalhumpen" />
		<tag k="natural" v="hill" />
		<tag k="place" v="locality" />
		<tag k="ssr:stedsnr" v="290702" />
	</node>
	<node lat="69.69745555425166" lon="22.283752724291677" id="-39261">
		<tag k="name" v="Øverdalen" />
		<tag k="natural" v="valley" />
		<tag k="place" v="locality" />
		<tag k="ssr:stedsnr" v="290705" />
	</node>
	<node lat="69.76144444578745" lon="21.816266633756253" id="-39264">
		<tag k="fixme" v="consider natural=peak for the most distinct mountains in the district" />
		<tag k="name" v="Spalca" />
		<tag k="name:se" v="Spalca" />
		<tag k="natural" v="hill" />
		<tag k="place" v="locality" />
		<tag k="ssr:stedsnr" v="290690" />
	</node>
	<node lat="70.12158333682342" lon="21.591594405348815" id="-39265">
		<tag k="name" v="Svartbergan" />
		<tag k="natural" v="hill" />
		<tag k="place" v="locality" />
		<tag k="ssr:stedsnr" v="290885" />
	</node>
	<node lat="69.88300833627194" lon="21.71873052274833" id="-39266">
		<tag k="name" v="Rakkeneslia" />
		<tag k="natural" v="slope" />
		<tag k="place" v="locality" />
		<tag k="ssr:stedsnr" v="296108" />
	</node>
	<node lat="69.93218056092688" lon="21.697541624485357" id="-39268">
		<tag k="fixme" v="consider natural=peak for the most distinct mountains in the district" />
		<tag k="name" v="Geitfjellet" />
		<tag k="natural" v="hill" />
		<tag k="place" v="locality" />
		<tag k="ssr:stedsnr" v="296085" />
	</node>
	<node lat="69.9842861163561" lon="21.50781662794894" id="-39270">
		<tag k="fixme" v="consider natural=peak for the most distinct mountains in the district" />
		<tag k="name" v="Prestlahøgda" />
		<tag k="natural" v="hill" />
		<tag k="place" v="locality" />
		<tag k="ssr:stedsnr" v="296448" />
	</node>
	<node lat="69.90712777804546" lon="21.58995275004433" id="-39278">
		<tag k="name" v="Vassbergan" />
		<tag k="natural" v="hill" />
		<tag k="place" v="locality" />
		<tag k="ssr:stedsnr" v="297072" />
	</node>
	<node lat="69.92671666401688" lon="21.700188849076657" id="-39280">
		<tag k="fixme" v="consider natural=peak for the most distinct mountains in the district" />
		<tag k="name" v="Rundfjellet" />
		<tag k="natural" v="hill" />
		<tag k="place" v="locality" />
		<tag k="ssr:stedsnr" v="297082" />
	</node>
	<node lat="70.04078611183967" lon="22.179197168524865" id="-39282">
		<tag k="name" v="Mosterlia" />
		<tag k="natural" v="slope" />
		<tag k="place" v="locality" />
		<tag k="ssr:stedsnr" v="297514" />
	</node>
	<node lat="70.04146389425777" lon="22.19036662135167" id="-39284">
		<tag k="name" v="Sebanlia" />
		<tag k="natural" v="slope" />
		<tag k="place" v="locality" />
		<tag k="ssr:stedsnr" v="297525" />
	</node>
	<node lat="69.89082500526865" lon="21.98781661425529" id="-39287">
		<tag k="name" v="Toppen" />
		<tag k="natural" v="hill" />
		<tag k="place" v="locality" />
		<tag k="ssr:stedsnr" v="297602" />
	</node>
	<node lat="69.9446222261399" lon="21.907755526657308" id="-39289">
		<tag k="name" v="Navsteroggičohkka" />
		<tag k="name:se" v="Navsteroggičohkka" />
		<tag k="natural" v="hill" />
		<tag k="place" v="locality" />
		<tag k="ssr:stedsnr" v="297625" />
	</node>
	<node lat="69.94471111166662" lon="21.91468328908216" id="-39290">
		<tag k="name" v="Geithammaren" />
		<tag k="natural" v="hill" />
		<tag k="place" v="locality" />
		<tag k="ssr:stedsnr" v="297628" />
	</node>
	<node lat="69.62209167211024" lon="22.722966598890473" id="-39293">
		<tag k="name" v="Čuidnárláhku" />
		<tag k="name:se" v="Čuidnárláhku" />
		<tag k="old_name:se" v="Čuidnarlakko;Čuidárláhku" />
		<tag k="place" v="locality" />
		<tag k="ssr:stedsnr" v="321803" />
	</node>
	<node lat="70.14165555443353" lon="21.428377751333613" id="-39296">
		<tag k="alt_name:no" v="Nersokk" />
		<tag k="fixme" v="consider natural=peak for the most distinct mountains in the district" />
		<tag k="name" v="Nærsokk - Njárgaceahkki" />
		<tag k="name:no" v="Nærsokk" />
		<tag k="name:se" v="Njárgaceahkki" />
		<tag k="natural" v="hill" />
		<tag k="old_name:se" v="Njargacækki" />
		<tag k="place" v="locality" />
		<tag k="ssr:stedsnr" v="322284" />
	</node>
	<node lat="70.1569999992012" lon="21.478966642130295" id="-39297">
		<tag k="fixme" v="consider natural=peak for the most distinct mountains in the district" />
		<tag k="name" v="Middagsfjellet" />
		<tag k="natural" v="hill" />
		<tag k="place" v="locality" />
		<tag k="ssr:stedsnr" v="322290" />
	</node>
	<node lat="69.52633055455048" lon="22.456133266228097" id="-39302">
		<tag k="name" v="Skerttegat" />
		<tag k="name:se" v="Skerttegat" />
		<tag k="natural" v="hill" />
		<tag k="old_name:se" v="Skertegat" />
		<tag k="place" v="locality" />
		<tag k="ssr:stedsnr" v="322776" />
	</node>
	<node lat="69.84763055957973" lon="22.38860827461009" id="-39304">
		<tag k="fixme" v="consider natural=peak for the most distinct mountains in the district" />
		<tag k="name" v="Flintfjellet - Dinnuidrášša" />
		<tag k="name:no" v="Flintfjellet" />
		<tag k="name:se" v="Dinnuidrášša" />
		<tag k="natural" v="hill" />
		<tag k="old_name:se" v="Didnoidrašša" />
		<tag k="place" v="locality" />
		<tag k="ssr:stedsnr" v="323475" />
	</node>
	<node lat="69.70564722729091" lon="22.123486069000215" id="-39305">
		<tag k="fixme" v="consider natural=peak for the most distinct mountains in the district" />
		<tag k="name" v="Čorrovárri" />
		<tag k="name:se" v="Čorrovárri" />
		<tag k="natural" v="hill" />
		<tag k="place" v="locality" />
		<tag k="ssr:stedsnr" v="323476" />
	</node>
	<node lat="70.12017778104565" lon="22.01033329623399" id="-39310">
		<tag k="alt_name:no" v="Skalsatinden" />
		<tag k="fixme" v="consider natural=peak for the most distinct mountains in the district" />
		<tag k="name" v="Skalsatind - Skálžagahpir" />
		<tag k="name:no" v="Skalsatind" />
		<tag k="name:se" v="Skálžagahpir" />
		<tag k="natural" v="hill" />
		<tag k="old_name:se" v="Skalžagappir" />
		<tag k="place" v="locality" />
		<tag k="ssr:stedsnr" v="330307" />
	</node>
	<node lat="69.73122500169774" lon="21.843866617812584" id="-39314">
		<tag k="name" v="Elveskaret" />
		<tag k="natural" v="valley" />
		<tag k="place" v="locality" />
		<tag k="ssr:stedsnr" v="471726" />
	</node>
	<node lat="70.17065833203809" lon="21.475611086273776" id="-39317">
		<tag k="name" v="Sjøberget" />
		<tag k="natural" v="hill" />
		<tag k="place" v="locality" />
		<tag k="ssr:stedsnr" v="471998" />
	</node>
	<node lat="70.09095833129749" lon="22.03714716653511" id="-39318">
		<tag k="name" v="Rundhaugen" />
		<tag k="natural" v="hill" />
		<tag k="place" v="locality" />
		<tag k="ssr:stedsnr" v="472339" />
	</node>
	<node lat="70.06666111556974" lon="22.032624953751913" id="-39319">
		<tag k="name" v="Hestehaugen" />
		<tag k="natural" v="hill" />
		<tag k="place" v="locality" />
		<tag k="ssr:stedsnr" v="472533" />
	</node>
	<node lat="70.06911666975033" lon="22.0097971722243" id="-39320">
		<tag k="name" v="Finnhaugen" />
		<tag k="natural" v="hill" />
		<tag k="place" v="locality" />
		<tag k="ssr:stedsnr" v="472537" />
	</node>
	<node lat="70.10858333239422" lon="21.29818886356054" id="-39321">
		<tag k="name" v="Storlia" />
		<tag k="natural" v="slope" />
		<tag k="place" v="locality" />
		<tag k="ssr:stedsnr" v="472673" />
	</node>
	<node lat="70.098516669249" lon="21.475616649825533" id="-39323">
		<tag k="name" v="Storhaugen" />
		<tag k="natural" v="hill" />
		<tag k="place" v="locality" />
		<tag k="ssr:stedsnr" v="472683" />
	</node>
	<node lat="70.08338055584905" lon="21.91876106310967" id="-39326">
		<tag k="name" v="Langnesdalen" />
		<tag k="natural" v="valley" />
		<tag k="place" v="locality" />
		<tag k="ssr:stedsnr" v="472836" />
	</node>
	<node lat="70.09118333683614" lon="21.61830551212999" id="-39328">
		<tag k="fixme" v="consider natural=peak for the most distinct mountains in the district" />
		<tag k="name" v="Innernestoppen" />
		<tag k="natural" v="hill" />
		<tag k="place" v="locality" />
		<tag k="ssr:stedsnr" v="472890" />
	</node>
	<node lat="70.12043055263322" lon="21.584922181381177" id="-39335">
		<tag k="name" v="Fjordbotndalen" />
		<tag k="natural" v="valley" />
		<tag k="place" v="locality" />
		<tag k="ssr:stedsnr" v="351902" />
	</node>
	<node lat="69.88969166495454" lon="21.646377745336803" id="-39337">
		<tag k="name" v="Middagshaugen" />
		<tag k="natural" v="hill" />
		<tag k="place" v="locality" />
		<tag k="ssr:stedsnr" v="357017" />
	</node>
	<node lat="70.0087388869719" lon="21.70922217496292" id="-39339">
		<tag k="name" v="Barsluohkká" />
		<tag k="name:se" v="Barsluohkká" />
		<tag k="natural" v="slope" />
		<tag k="place" v="locality" />
		<tag k="ssr:stedsnr" v="357103" />
	</node>
	<node lat="69.98277777581393" lon="21.5172332987105" id="-39340">
		<tag k="name" v="Storskorra" />
		<tag k="natural" v="valley" />
		<tag k="place" v="locality" />
		<tag k="ssr:stedsnr" v="357453" />
	</node>
	<node lat="70.03816667161982" lon="22.150541611734475" id="-39341">
		<tag k="name" v="Rennarhaugen" />
		<tag k="natural" v="hill" />
		<tag k="place" v="locality" />
		<tag k="ssr:stedsnr" v="357499" />
	</node>
	<node lat="70.03379444833777" lon="22.193549958106534" id="-39342">
		<tag k="name" v="Giæverhaugen" />
		<tag k="natural" v="hill" />
		<tag k="place" v="locality" />
		<tag k="ssr:stedsnr" v="357504" />
	</node>
	<node lat="70.04261666800534" lon="22.1980194110129" id="-39343">
		<tag k="name" v="Kristofferlia" />
		<tag k="natural" v="slope" />
		<tag k="place" v="locality" />
		<tag k="ssr:stedsnr" v="357506" />
	</node>
	<node lat="70.01683333229775" lon="21.959094395226366" id="-39346">
		<tag k="name" v="Rapet" />
		<tag k="natural" v="hill" />
		<tag k="place" v="locality" />
		<tag k="ssr:stedsnr" v="357651" />
	</node>
	<node lat="69.86117500046898" lon="21.806994409343062" id="-39351">
		<tag k="name" v="Skiferbergan" />
		<tag k="natural" v="hill" />
		<tag k="place" v="locality" />
		<tag k="ssr:stedsnr" v="478242" />
	</node>
	<node lat="69.88075555428816" lon="21.65720552969453" id="-39357">
		<tag k="name" v="Myrdalen" />
		<tag k="natural" v="valley" />
		<tag k="place" v="locality" />
		<tag k="ssr:stedsnr" v="478430" />
	</node>
	<node lat="69.92070000578032" lon="21.700538843746923" id="-39360">
		<tag k="name" v="Småsletta" />
		<tag k="place" v="locality" />
		<tag k="ssr:stedsnr" v="479031" />
	</node>
	<node lat="70.00448889067049" lon="21.704044400505794" id="-39364">
		<tag k="name" v="Donluohkká" />
		<tag k="name:se" v="Donluohkká" />
		<tag k="natural" v="slope" />
		<tag k="place" v="locality" />
		<tag k="ssr:stedsnr" v="479114" />
	</node>
	<node lat="70.00611388734383" lon="21.70839719187955" id="-39365">
		<tag k="name" v="Sandgurra" />
		<tag k="natural" v="valley" />
		<tag k="place" v="locality" />
		<tag k="ssr:stedsnr" v="479115" />
	</node>
	<node lat="69.82800833827139" lon="21.870011064676333" id="-39367">
		<tag k="name" v="Jernberget" />
		<tag k="natural" v="hill" />
		<tag k="place" v="locality" />
		<tag k="ssr:stedsnr" v="479153" />
	</node>
	<node lat="69.8221722204699" lon="21.974883284445887" id="-39369">
		<tag k="name" v="Kviteberget" />
		<tag k="natural" v="hill" />
		<tag k="place" v="locality" />
		<tag k="ssr:stedsnr" v="479490" />
	</node>
	<node lat="69.8896333385067" lon="22.196974962762326" id="-39370">
		<tag k="name" v="Storskjæringa" />
		<tag k="natural" v="valley" />
		<tag k="place" v="locality" />
		<tag k="ssr:stedsnr" v="479499" />
	</node>
	<node lat="69.90150278183894" lon="22.08921661203594" id="-39371">
		<tag k="name" v="Rastusvollen" />
		<tag k="place" v="locality" />
		<tag k="ssr:stedsnr" v="479507" />
	</node>
	<node lat="69.89730277948098" lon="22.09262218378187" id="-39372">
		<tag k="name" v="Stein" />
		<tag k="natural" v="hill" />
		<tag k="place" v="locality" />
		<tag k="ssr:stedsnr" v="479513" />
	</node>
	<node lat="69.91892222580952" lon="22.042411063329602" id="-39373">
		<tag k="name" v="Eineberget" />
		<tag k="natural" v="hill" />
		<tag k="place" v="locality" />
		<tag k="ssr:stedsnr" v="479592" />
	</node>
	<node lat="69.94311111632159" lon="21.918952743360634" id="-39374">
		<tag k="name" v="Vedlia" />
		<tag k="natural" v="slope" />
		<tag k="place" v="locality" />
		<tag k="ssr:stedsnr" v="479633" />
	</node>
	<node lat="69.88826389197466" lon="22.094002735149186" id="-39375">
		<tag k="name" v="Grønnliene" />
		<tag k="natural" v="slope" />
		<tag k="place" v="locality" />
		<tag k="ssr:stedsnr" v="479515" />
	</node>
	<node lat="70.04196388904187" lon="22.18144160973346" id="-39376">
		<tag k="name" v="Mosterlihaugen" />
		<tag k="natural" v="hill" />
		<tag k="place" v="locality" />
		<tag k="ssr:stedsnr" v="479524" />
	</node>
	<node lat="69.71781667071521" lon="22.18227217512923" id="-39382">
		<tag k="alt_name" v="Limpahompen" />
		<tag k="name" v="Limpahumpen" />
		<tag k="natural" v="hill" />
		<tag k="place" v="locality" />
		<tag k="ssr:stedsnr" v="479684" />
	</node>
	<node lat="69.71105000256517" lon="22.172461069979708" id="-39383">
		<tag k="alt_name" v="Bergvannshompen" />
		<tag k="name" v="Bergvannshumpen" />
		<tag k="natural" v="hill" />
		<tag k="place" v="locality" />
		<tag k="ssr:stedsnr" v="479685" />
	</node>
	<node lat="69.90762221972912" lon="22.093161061908244" id="-39384">
		<tag k="name" v="Badarhollet" />
		<tag k="natural" v="valley" />
		<tag k="place" v="locality" />
		<tag k="ssr:stedsnr" v="479720" />
	</node>
	<node lat="69.90724444279671" lon="22.072949963644632" id="-39385">
		<tag k="name" v="Bjerkeplassen" />
		<tag k="place" v="locality" />
		<tag k="ssr:stedsnr" v="479722" />
	</node>
	<node lat="69.56815833977751" lon="22.460424932616224" id="-39391">
		<tag k="fixme" v="consider natural=peak for the most distinct mountains in the district" />
		<tag k="name" v="Nábár" />
		<tag k="name:se" v="Nábár" />
		<tag k="natural" v="hill" />
		<tag k="old_name:se" v="Nabar" />
		<tag k="place" v="locality" />
		<tag k="ssr:stedsnr" v="382811" />
	</node>
	<node lat="69.64469999836902" lon="22.591352704844716" id="-39395">
		<tag k="loc_name:se" v="Sneđetláhku" />
		<tag k="name" v="Sneđđetláhku" />
		<tag k="name:se" v="Sneđđetláhku" />
		<tag k="old_name:se" v="Sneđđetlakko" />
		<tag k="place" v="locality" />
		<tag k="ssr:stedsnr" v="382866" />
	</node>
	<node lat="69.65057222126603" lon="22.4270638317488" id="-39396">
		<tag k="name" v="Rássegálvággi" />
		<tag k="name:se" v="Rássegálvággi" />
		<tag k="natural" v="valley" />
		<tag k="old_name:se" v="Rassegalvaggi" />
		<tag k="place" v="locality" />
		<tag k="ssr:stedsnr" v="382869" />
	</node>
	<node lat="69.76832222164649" lon="21.8487944046023" id="-39400">
		<tag k="name" v="Sappisdalen - Sáhppevuommi" />
		<tag k="name:no" v="Sappisdalen" />
		<tag k="name:se" v="Sáhppevuommi" />
		<tag k="natural" v="valley" />
		<tag k="place" v="locality" />
		<tag k="ssr:stedsnr" v="383012" />
	</node>
	<node lat="69.9070583353595" lon="22.332802734703044" id="-39405">
		<tag k="fixme" v="consider natural=peak for the most distinct mountains in the district" />
		<tag k="name" v="Krattfjellet - Rohtovárri" />
		<tag k="name:no" v="Krattfjellet" />
		<tag k="name:se" v="Rohtovárri" />
		<tag k="natural" v="hill" />
		<tag k="old_name:se" v="Råttuvarri" />
		<tag k="place" v="locality" />
		<tag k="ssr:stedsnr" v="383057" />
	</node>
	<node lat="69.99082499702425" lon="21.978927744599407" id="-39406">
		<tag k="alt_name" v="Vedhøggan" />
		<tag k="name" v="Vedhogga" />
		<tag k="natural" v="slope" />
		<tag k="place" v="locality" />
		<tag k="ssr:stedsnr" v="383254" />
	</node>
	<node lat="69.78811389493802" lon="22.268622170794895" id="-39414">
		<tag k="fixme" v="consider natural=peak for the most distinct mountains in the district" />
		<tag k="name" v="Bierdnačohkka" />
		<tag k="name:se" v="Bierdnačohkka" />
		<tag k="natural" v="hill" />
		<tag k="old_name:se" v="Bierdnačåkka" />
		<tag k="place" v="locality" />
		<tag k="ssr:stedsnr" v="383513" />
	</node>
	<node lat="69.79093333152613" lon="22.45121660965431" id="-39415">
		<tag k="fixme" v="consider natural=peak for the most distinct mountains in the district" />
		<tag k="loc_name:se" v="Čohkkápmil" />
		<tag k="name" v="Knausfjellet" />
		<tag k="name:no" v="Knausfjellet" />
		<tag k="natural" v="hill" />
		<tag k="place" v="locality" />
		<tag k="ssr:stedsnr" v="383514" />
	</node>
	<node lat="69.67774999982502" lon="21.677924952037085" id="-39416">
		<tag k="fixme" v="consider natural=peak for the most distinct mountains in the district" />
		<tag k="name" v="Meastogáisá" />
		<tag k="name:se" v="Meastogáisá" />
		<tag k="natural" v="hill" />
		<tag k="old_name:se" v="Meastagáisá" />
		<tag k="place" v="locality" />
		<tag k="ssr:stedsnr" v="383458" />
	</node>
	<node lat="69.57903333273681" lon="21.921830510282295" id="-39417">
		<tag k="name" v="Vuostáláhku" />
		<tag k="name:se" v="Vuostáláhku" />
		<tag k="natural" v="valley" />
		<tag k="place" v="locality" />
		<tag k="ssr:stedsnr" v="383499" />
	</node>
	<node lat="70.06147222500209" lon="22.22651661107263" id="-39419">
		<tag k="fixme" v="consider natural=peak for the most distinct mountains in the district" />
		<tag k="name" v="Russelvfjellet" />
		<tag k="natural" v="hill" />
		<tag k="place" v="locality" />
		<tag k="ssr:stedsnr" v="394309" />
	</node>
	<node lat="70.21551667097376" lon="21.225969417307745" id="-39422">
		<tag k="name" v="Gollečohkka" />
		<tag k="name:se" v="Gollečohkka" />
		<tag k="natural" v="hill" />
		<tag k="place" v="locality" />
		<tag k="ssr:stedsnr" v="410206" />
	</node>
	<node lat="69.9300611096574" lon="21.69626940055807" id="-39424">
		<tag k="name" v="Bakmarkdalen" />
		<tag k="natural" v="valley" />
		<tag k="place" v="locality" />
		<tag k="ssr:stedsnr" v="418103" />
	</node>
	<node lat="69.92750278206445" lon="21.680519406155348" id="-39425">
		<tag k="name" v="Rundhaugen" />
		<tag k="natural" v="hill" />
		<tag k="place" v="locality" />
		<tag k="ssr:stedsnr" v="418112" />
	</node>
	<node lat="70.01171388895801" lon="21.291002742759144" id="-39427">
		<tag k="name" v="Storberget" />
		<tag k="natural" v="hill" />
		<tag k="place" v="locality" />
		<tag k="ssr:stedsnr" v="418410" />
	</node>
	<node lat="69.98491111538466" lon="21.24694719855291" id="-39428">
		<tag k="name" v="Volladalen" />
		<tag k="natural" v="valley" />
		<tag k="place" v="locality" />
		<tag k="ssr:stedsnr" v="418401" />
	</node>
	<node lat="70.0315750035756" lon="22.094597166971674" id="-39430">
		<tag k="name" v="Inger-Marjahaugen" />
		<tag k="natural" v="hill" />
		<tag k="place" v="locality" />
		<tag k="ssr:stedsnr" v="418558" />
	</node>
	<node lat="69.94080277982255" lon="21.930005514927178" id="-39432">
		<tag k="name" v="Samuelhaugskaret" />
		<tag k="natural" v="valley" />
		<tag k="place" v="locality" />
		<tag k="ssr:stedsnr" v="418607" />
	</node>
	<node lat="69.94698333195404" lon="21.941649961780637" id="-39433">
		<tag k="name" v="Torvhaugen" />
		<tag k="natural" v="hill" />
		<tag k="place" v="locality" />
		<tag k="ssr:stedsnr" v="418608" />
	</node>
	<node lat="69.94207778149638" lon="21.936541617965844" id="-39434">
		<tag k="name" v="Samuelhaugen" />
		<tag k="natural" v="hill" />
		<tag k="place" v="locality" />
		<tag k="ssr:stedsnr" v="418609" />
	</node>
	<node lat="69.77073056047358" lon="21.910622172895597" id="-39435">
		<tag k="name" v="Aslakskaret" />
		<tag k="natural" v="valley" />
		<tag k="place" v="locality" />
		<tag k="ssr:stedsnr" v="418908" />
	</node>
	<node lat="69.91605555479968" lon="22.098480509921124" id="-39437">
		<tag k="name" v="Heinberget" />
		<tag k="natural" v="hill" />
		<tag k="place" v="locality" />
		<tag k="ssr:stedsnr" v="418702" />
	</node>
	<node lat="69.74860277714343" lon="22.037766616629128" id="-39439">
		<tag k="name" v="Lauttakuru" />
		<tag k="name:fkv" v="Lauttakuru" />
		<tag k="natural" v="valley" />
		<tag k="place" v="locality" />
		<tag k="ssr:stedsnr" v="418790" />
	</node>
	<node lat="69.75771666985068" lon="21.762549972730046" id="-39446">
		<tag k="name" v="Guolban" />
		<tag k="name:se" v="Guolban" />
		<tag k="place" v="locality" />
		<tag k="ssr:stedsnr" v="444016" />
	</node>
	<node lat="70.04043055398112" lon="22.10637494208877" id="-39457">
		<tag k="alt_name:no" v="Mikaltind" />
		<tag k="fixme" v="consider natural=peak for the most distinct mountains in the district" />
		<tag k="name" v="Mikkaltinden - Rihtovárri" />
		<tag k="name:no" v="Mikkaltinden" />
		<tag k="name:se" v="Rihtovárri" />
		<tag k="natural" v="hill" />
		<tag k="old_name:se" v="Rittuvarri" />
		<tag k="place" v="locality" />
		<tag k="ssr:stedsnr" v="444435" />
	</node>
	<node lat="69.94233333588248" lon="21.565213867676086" id="-39459">
		<tag k="name" v="Torveberget" />
		<tag k="natural" v="hill" />
		<tag k="place" v="locality" />
		<tag k="ssr:stedsnr" v="444877" />
	</node>
	<node lat="70.16610833327576" lon="21.431272188133043" id="-39469">
		<tag k="name" v="Hamnebergan" />
		<tag k="natural" v="hill" />
		<tag k="place" v="locality" />
		<tag k="ssr:stedsnr" v="469977" />
	</node>
	<node lat="69.86508889155593" lon="21.798213849722647" id="-39474">
		<tag k="name" v="Gihcegárdi" />
		<tag k="name:se" v="Gihcegárdi" />
		<tag k="place" v="locality" />
		<tag k="ssr:stedsnr" v="478120" />
	</node>
	<node lat="69.94315833379505" lon="21.6972527541911" id="-39475">
		<tag k="name" v="Molla" />
		<tag k="natural" v="valley" />
		<tag k="place" v="locality" />
		<tag k="ssr:stedsnr" v="478011" />
	</node>
	<node lat="69.71715000163327" lon="22.243816628862856" id="-39484">
		<tag k="alt_name" v="Rassegurrahompen" />
		<tag k="name" v="Rassegurrahumpen" />
		<tag k="natural" v="hill" />
		<tag k="place" v="locality" />
		<tag k="ssr:stedsnr" v="479568" />
	</node>
	<node lat="69.62593611496358" lon="22.471441598606127" id="-39487">
		<tag k="fixme" v="consider natural=peak for the most distinct mountains in the district" />
		<tag k="name" v="Rássegálvárri" />
		<tag k="name:se" v="Rássegálvárri" />
		<tag k="natural" v="hill" />
		<tag k="old_name:se" v="Rassegalvarri" />
		<tag k="place" v="locality" />
		<tag k="ssr:stedsnr" v="503774" />
	</node>
	<node lat="69.61872500526222" lon="22.279227737208608" id="-39489">
		<tag k="fixme" v="consider natural=peak for the most distinct mountains in the district" />
		<tag k="name" v="Lássavárri" />
		<tag k="name:se" v="Lássavárri" />
		<tag k="natural" v="hill" />
		<tag k="old_name:se" v="Lassavarri;Lássávárri" />
		<tag k="place" v="locality" />
		<tag k="ssr:stedsnr" v="503777" />
	</node>
	<node lat="69.61541111532533" lon="22.67760548194737" id="-39490">
		<tag k="name" v="Čuidnárdievát" />
		<tag k="name:se" v="Čuidnárdievát" />
		<tag k="natural" v="valley" />
		<tag k="old_name:se" v="Čuidnardievat" />
		<tag k="place" v="locality" />
		<tag k="ssr:stedsnr" v="503779" />
	</node>
	<node lat="69.82575555451389" lon="21.82767218811221" id="-39496">
		<tag k="fixme" v="consider natural=peak for the most distinct mountains in the district" />
		<tag k="name" v="Leirafjellet" />
		<tag k="natural" v="hill" />
		<tag k="place" v="locality" />
		<tag k="ssr:stedsnr" v="504071" />
	</node>
	<node lat="70.09050277987242" lon="21.5343999562584" id="-39500">
		<tag k="name" v="Pilvågberget" />
		<tag k="natural" v="hill" />
		<tag k="place" v="locality" />
		<tag k="ssr:stedsnr" v="504302" />
	</node>
	<node lat="69.7364333372635" lon="22.29841661144368" id="-39505">
		<tag k="fixme" v="consider natural=peak for the most distinct mountains in the district" />
		<tag k="name" v="Vuovdegarpevárri" />
		<tag k="name:se" v="Vuovdegarpevárri" />
		<tag k="natural" v="hill" />
		<tag k="old_name:se" v="Vuovdegarpevarri" />
		<tag k="place" v="locality" />
		<tag k="ssr:stedsnr" v="504904" />
	</node>
	<node lat="69.7452750005356" lon="22.378080506084505" id="-39506">
		<tag k="fixme" v="consider natural=peak for the most distinct mountains in the district" />
		<tag k="name" v="Mágredačohkka" />
		<tag k="name:se" v="Mágredačohkka" />
		<tag k="natural" v="hill" />
		<tag k="old_name:se" v="Magredačåkka" />
		<tag k="place" v="locality" />
		<tag k="ssr:stedsnr" v="504908" />
	</node>
	<node lat="69.6928333355031" lon="21.81920273044284" id="-39510">
		<tag k="name" v="Sarvvesgorsa" />
		<tag k="name:se" v="Sarvvesgorsa" />
		<tag k="natural" v="valley" />
		<tag k="place" v="locality" />
		<tag k="ssr:stedsnr" v="505476" />
	</node>
	<node lat="70.11142778104734" lon="21.8761916339446" id="-39512">
		<tag k="fixme" v="multiple name tags, choose one and add the other to alt_name; consider natural=peak for the most distinct mountains in the district" />
		<tag k="name" v="Svartfjellet - Odcavonacharje;Riššagáisá" />
		<tag k="name:no" v="Svartfjellet" />
		<tag k="name:se" v="Odcavonacharje;Riššagáisá" />
		<tag k="natural" v="hill" />
		<tag k="old_name:se" v="Riššagaisa" />
		<tag k="place" v="locality" />
		<tag k="ssr:stedsnr" v="512519" />
	</node>
	<node lat="70.11517499976087" lon="21.538861083317045" id="-39527">
		<tag k="fixme" v="consider natural=peak for the most distinct mountains in the district" />
		<tag k="name" v="Gárasnjunni" />
		<tag k="name:se" v="Gárasnjunni" />
		<tag k="natural" v="hill" />
		<tag k="old_name:se" v="Garasnjunni" />
		<tag k="place" v="locality" />
		<tag k="ssr:stedsnr" v="686291" />
	</node>
	<node lat="69.69688889065097" lon="22.243308280022692" id="-39534">
		<tag k="name" v="Jeaggilokta" />
		<tag k="name:se" v="Jeaggilokta" />
		<tag k="place" v="locality" />
		<tag k="ssr:stedsnr" v="533767" />
	</node>
	<node lat="70.09800555344836" lon="21.55883607638046" id="-39535">
		<tag k="name" v="Rundbakken" />
		<tag k="natural" v="slope" />
		<tag k="place" v="locality" />
		<tag k="ssr:stedsnr" v="533905" />
	</node>
	<node lat="70.0644638865472" lon="21.6787971971784" id="-39536">
		<tag k="name" v="Nappen" />
		<tag k="natural" v="hill" />
		<tag k="place" v="locality" />
		<tag k="ssr:stedsnr" v="533908" />
	</node>
	<node lat="69.94453055431623" lon="21.683527743650494" id="-39541">
		<tag k="name" v="Vedbergan" />
		<tag k="natural" v="hill" />
		<tag k="place" v="locality" />
		<tag k="ssr:stedsnr" v="539013" />
	</node>
	<node lat="69.99826666443823" lon="22.066808287398015" id="-39545">
		<tag k="fixme" v="consider natural=peak for the most distinct mountains in the district" />
		<tag k="name" v="Tretakkan" />
		<tag k="natural" v="hill" />
		<tag k="place" v="locality" />
		<tag k="ssr:stedsnr" v="539531" />
	</node>
	<node lat="69.91720833858835" lon="22.01977772720064" id="-39548">
		<tag k="fixme" v="consider natural=peak for the most distinct mountains in the district" />
		<tag k="name" v="Langnesen" />
		<tag k="natural" v="hill" />
		<tag k="place" v="locality" />
		<tag k="ssr:stedsnr" v="539576" />
	</node>
	<node lat="69.51725278048997" lon="22.461124940601735" id="-39549">
		<tag k="name" v="Skerttetvággi" />
		<tag k="name:se" v="Skerttetvággi" />
		<tag k="natural" v="valley" />
		<tag k="old_name:se" v="Skertetvaggi" />
		<tag k="place" v="locality" />
		<tag k="ssr:stedsnr" v="686776" />
	</node>
	<node lat="69.81445000576772" lon="21.882619401437204" id="-39550">
		<tag k="name" v="Brudesløret" />
		<tag k="natural" v="slope" />
		<tag k="place" v="locality" />
		<tag k="ssr:stedsnr" v="539483" />
	</node>
	<node lat="69.89536111302576" lon="21.93184996580338" id="-39551">
		<tag k="name" v="Gárdak" />
		<tag k="name:se" v="Gárdak" />
		<tag k="natural" v="valley" />
		<tag k="place" v="locality" />
		<tag k="ssr:stedsnr" v="539616" />
	</node>
	<node lat="69.92021944507242" lon="22.06301661027084" id="-39554">
		<tag k="name" v="Jonasmila" />
		<tag k="place" v="locality" />
		<tag k="ssr:stedsnr" v="539709" />
	</node>
	<node lat="70.00049444214662" lon="21.675116625486716" id="-39559">
		<tag k="name" v="Fugleberget" />
		<tag k="natural" v="hill" />
		<tag k="place" v="locality" />
		<tag k="ssr:stedsnr" v="540105" />
	</node>
	<node lat="70.02550833069593" lon="21.633249956710213" id="-39560">
		<tag k="name" v="Stornaskskorra" />
		<tag k="natural" v="valley" />
		<tag k="place" v="locality" />
		<tag k="ssr:stedsnr" v="540108" />
	</node>
	<node lat="70.01026110753824" lon="21.716611086085923" id="-39561">
		<tag k="name" v="Nasken" />
		<tag k="natural" v="slope" />
		<tag k="place" v="locality" />
		<tag k="ssr:stedsnr" v="540117" />
	</node>
	<node lat="70.01099166386778" lon="21.703897193348187" id="-39562">
		<tag k="name" v="Geirhammaren" />
		<tag k="natural" v="hill" />
		<tag k="place" v="locality" />
		<tag k="ssr:stedsnr" v="540121" />
	</node>
	<node lat="69.83946666877782" lon="21.8203055056074" id="-39563">
		<tag k="name" v="Tømmerbuktskaret" />
		<tag k="natural" v="valley" />
		<tag k="place" v="locality" />
		<tag k="ssr:stedsnr" v="540170" />
	</node>
	<node lat="69.89138889148543" lon="21.649197178226817" id="-39566">
		<tag k="name" v="Sennaberget" />
		<tag k="natural" v="hill" />
		<tag k="place" v="locality" />
		<tag k="ssr:stedsnr" v="540069" />
	</node>
	<node lat="69.956447223694" lon="21.476247192427216" id="-39574">
		<tag k="fixme" v="consider natural=peak for the most distinct mountains in the district" />
		<tag k="name" v="Valantinden" />
		<tag k="natural" v="hill" />
		<tag k="place" v="locality" />
		<tag k="ssr:stedsnr" v="686874" />
	</node>
	<node lat="69.89086667093622" lon="21.96983885344181" id="-39580">
		<tag k="fixme" v="consider natural=peak for the most distinct mountains in the district" />
		<tag k="name" v="Lille Riidevárri - Unna Riideváráš" />
		<tag k="name:no" v="Lille Riidevárri" />
		<tag k="name:se" v="Unna Riideváráš" />
		<tag k="natural" v="hill" />
		<tag k="old_name:se" v="Unna Riideváraš" />
		<tag k="place" v="locality" />
		<tag k="ssr:stedsnr" v="687173" />
	</node>
	<node lat="70.00668333451709" lon="22.149433287809735" id="-39581">
		<tag k="loc_name:no" v="Langedalen" />
		<tag k="name" v="Langdalen - Guhkesvággi" />
		<tag k="name:no" v="Langdalen" />
		<tag k="name:se" v="Guhkesvággi" />
		<tag k="natural" v="valley" />
		<tag k="old_name:se" v="Gukkesvaggi" />
		<tag k="place" v="locality" />
		<tag k="ssr:stedsnr" v="687226" />
	</node>
	<node lat="69.68329722393723" lon="21.99979995921978" id="-39587">
		<tag k="fixme" v="consider natural=peak for the most distinct mountains in the district" />
		<tag k="name" v="Šleađuidvárri" />
		<tag k="name:se" v="Šleađuidvárri" />
		<tag k="natural" v="hill" />
		<tag k="old_name:se" v="Sleađuivárri" />
		<tag k="place" v="locality" />
		<tag k="ssr:stedsnr" v="687434" />
	</node>
	<node lat="69.86965556107717" lon="22.29989440090417" id="-39589">
		<tag k="fixme" v="consider natural=peak for the most distinct mountains in the district" />
		<tag k="name" v="Doaresvárri" />
		<tag k="name:se" v="Doaresvárri" />
		<tag k="natural" v="hill" />
		<tag k="old_name:se" v="Doaresvarri" />
		<tag k="place" v="locality" />
		<tag k="ssr:stedsnr" v="687450" />
	</node>
	<node lat="70.15521388976947" lon="21.55721662198469" id="-39599">
		<tag k="fixme" v="consider natural=peak for the most distinct mountains in the district" />
		<tag k="name" v="Fjelltinden" />
		<tag k="natural" v="hill" />
		<tag k="place" v="locality" />
		<tag k="ssr:stedsnr" v="565305" />
	</node>
	<node lat="70.13873611695936" lon="21.450747183887707" id="-39601">
		<tag k="name" v="Mađđiluokta" />
		<tag k="name:se" v="Mađđiluokta" />
		<tag k="natural" v="valley" />
		<tag k="place" v="locality" />
		<tag k="ssr:stedsnr" v="565313" />
	</node>
	<node lat="69.54700277743176" lon="21.80499718216378" id="-39602">
		<tag k="fixme" v="consider natural=peak for the most distinct mountains in the district" />
		<tag k="name" v="Sálbmečohkka" />
		<tag k="name:se" v="Sálbmečohkka" />
		<tag k="natural" v="hill" />
		<tag k="place" v="locality" />
		<tag k="ssr:stedsnr" v="565464" />
	</node>
	<node lat="70.06086944930178" lon="21.940155517749623" id="-39614">
		<tag k="name" v="Torvmyrbakken" />
		<tag k="natural" v="hill" />
		<tag k="place" v="locality" />
		<tag k="ssr:stedsnr" v="593353" />
	</node>
	<node lat="70.06002777505505" lon="21.937752747306693" id="-39615">
		<tag k="name" v="Ravneberget" />
		<tag k="natural" v="hill" />
		<tag k="place" v="locality" />
		<tag k="ssr:stedsnr" v="593356" />
	</node>
	<node lat="70.07810833534899" lon="22.00392216854878" id="-39616">
		<tag k="name" v="Rottoberget" />
		<tag k="natural" v="hill" />
		<tag k="place" v="locality" />
		<tag k="ssr:stedsnr" v="593361" />
	</node>
	<node lat="70.07111945098876" lon="22.043597171022796" id="-39617">
		<tag k="name" v="Øvre Jonsletten" />
		<tag k="place" v="locality" />
		<tag k="ssr:stedsnr" v="593517" />
	</node>
	<node lat="70.10877222093858" lon="21.452308308109483" id="-39619">
		<tag k="name" v="Revhula" />
		<tag k="natural" v="hill" />
		<tag k="place" v="locality" />
		<tag k="ssr:stedsnr" v="593614" />
	</node>
	<node lat="70.10681111460266" lon="21.59506941297444" id="-39620">
		<tag k="name" v="Tyttebærlia" />
		<tag k="natural" v="slope" />
		<tag k="place" v="locality" />
		<tag k="ssr:stedsnr" v="593804" />
	</node>
	<node lat="70.10770277687948" lon="21.61829718826249" id="-39621">
		<tag k="name" v="Vannberget" />
		<tag k="natural" v="hill" />
		<tag k="place" v="locality" />
		<tag k="ssr:stedsnr" v="593809" />
	</node>
	<node lat="70.05904167073211" lon="21.706180515368512" id="-39625">
		<tag k="name" v="Hanselia" />
		<tag k="natural" v="slope" />
		<tag k="place" v="locality" />
		<tag k="ssr:stedsnr" v="593857" />
	</node>
	<node lat="69.87548056021762" lon="21.696808287551836" id="-39630">
		<tag k="name" v="Sandnesdalen" />
		<tag k="natural" v="valley" />
		<tag k="place" v="locality" />
		<tag k="ssr:stedsnr" v="599454" />
	</node>
	<node lat="69.77777222407626" lon="21.884041636122923" id="-39632">
		<tag k="name" v="Øvrelia" />
		<tag k="natural" v="slope" />
		<tag k="place" v="locality" />
		<tag k="ssr:stedsnr" v="599848" />
	</node>
	<node lat="69.92386944588395" lon="21.686099959085272" id="-39635">
		<tag k="name" v="Langbakken" />
		<tag k="natural" v="slope" />
		<tag k="place" v="locality" />
		<tag k="ssr:stedsnr" v="600063" />
	</node>
	<node lat="69.90198889445995" lon="22.10478328717723" id="-39636">
		<tag k="name" v="Bjatavollen" />
		<tag k="place" v="locality" />
		<tag k="ssr:stedsnr" v="600497" />
	</node>
	<node lat="69.71144167072262" lon="22.100352719332655" id="-39637">
		<tag k="name" v="Järviriidi" />
		<tag k="name:se" v="Järviriidi" />
		<tag k="natural" v="slope" />
		<tag k="place" v="locality" />
		<tag k="ssr:stedsnr" v="600617" />
	</node>
	<node lat="69.94626110994635" lon="21.927347185045672" id="-39640">
		<tag k="name" v="Eidbakken" />
		<tag k="natural" v="slope" />
		<tag k="place" v="locality" />
		<tag k="ssr:stedsnr" v="600601" />
	</node>
	<node lat="69.91062777836514" lon="22.075574961048407" id="-39642">
		<tag k="name" v="Lyngmo" />
		<tag k="place" v="locality" />
		<tag k="ssr:stedsnr" v="600708" />
	</node>
	<node lat="69.78609722660886" lon="22.141147175600967" id="-39648">
		<tag k="name" v="Elvedalen" />
		<tag k="natural" v="valley" />
		<tag k="place" v="locality" />
		<tag k="ssr:stedsnr" v="625010" />
	</node>
	<node lat="69.58618611148339" lon="21.678930525916357" id="-39649">
		<tag k="fixme" v="consider natural=peak for the most distinct mountains in the district" />
		<tag k="name" v="Sitnovárri" />
		<tag k="name:se" v="Sitnovárri" />
		<tag k="natural" v="hill" />
		<tag k="place" v="locality" />
		<tag k="ssr:stedsnr" v="625461" />
	</node>
	<node lat="69.97778055638831" lon="21.35145831212374" id="-39652">
		<tag k="fixme" v="consider natural=peak for the most distinct mountains in the district" />
		<tag k="name" v="Čorrovárri" />
		<tag k="name:se" v="Čorrovárri" />
		<tag k="natural" v="hill" />
		<tag k="place" v="locality" />
		<tag k="ssr:stedsnr" v="625904" />
	</node>
	<node lat="69.71836667038117" lon="21.764844403628516" id="-39655">
		<tag k="name" v="Rohtogorsa" />
		<tag k="name:se" v="Rohtogorsa" />
		<tag k="natural" v="valley" />
		<tag k="place" v="locality" />
		<tag k="ssr:stedsnr" v="626306" />
	</node>
	<node lat="69.73301388733796" lon="21.874619404932538" id="-39660">
		<tag k="fixme" v="consider natural=peak for the most distinct mountains in the district" />
		<tag k="name" v="Ellenčohkka" />
		<tag k="name:se" v="Ellenčohkka" />
		<tag k="natural" v="hill" />
		<tag k="place" v="locality" />
		<tag k="ssr:stedsnr" v="626320" />
	</node>
	<node lat="69.92348333762033" lon="21.73504996960701" id="-39672">
		<tag k="name" v="Moanberget" />
		<tag k="natural" v="hill" />
		<tag k="place" v="locality" />
		<tag k="ssr:stedsnr" v="660238" />
	</node>
	<node lat="69.97639166919373" lon="21.872705514473125" id="-39673">
		<tag k="name" v="Brentan" />
		<tag k="natural" v="slope" />
		<tag k="place" v="locality" />
		<tag k="ssr:stedsnr" v="660733" />
	</node>
	<node lat="69.92072222301627" lon="21.706841638948536" id="-39678">
		<tag k="name" v="Čohkka" />
		<tag k="name:se" v="Čohkka" />
		<tag k="natural" v="hill" />
		<tag k="place" v="locality" />
		<tag k="ssr:stedsnr" v="661037" />
	</node>
	<node lat="69.83973611751131" lon="21.839088839782942" id="-39680">
		<tag k="name" v="Storbakken" />
		<tag k="natural" v="slope" />
		<tag k="place" v="locality" />
		<tag k="ssr:stedsnr" v="661141" />
	</node>
	<node lat="70.03299166780374" lon="22.16161663358967" id="-39681">
		<tag k="name" v="Polkebakken" />
		<tag k="natural" v="slope" />
		<tag k="place" v="locality" />
		<tag k="ssr:stedsnr" v="661508" />
	</node>
	<node lat="70.0425166655726" lon="22.191213838072706" id="-39682">
		<tag k="name" v="Kvannlihaugen" />
		<tag k="natural" v="hill" />
		<tag k="place" v="locality" />
		<tag k="ssr:stedsnr" v="661509" />
	</node>
	<node lat="69.78075278425887" lon="22.075622169732206" id="-39685">
		<tag k="loc_name:no" v="Gentæberget" />
		<tag k="name" v="Kenttäberget - Kenttäpahta" />
		<tag k="name:fkv" v="Kenttäpahta" />
		<tag k="name:no" v="Kenttäberget" />
		<tag k="natural" v="hill" />
		<tag k="place" v="locality" />
		<tag k="ssr:stedsnr" v="661639" />
	</node>
	<node lat="69.90553333257171" lon="22.120333282415274" id="-39686">
		<tag k="name" v="Tøndergropa" />
		<tag k="natural" v="valley" />
		<tag k="place" v="locality" />
		<tag k="ssr:stedsnr" v="661688" />
	</node>
	<node lat="69.91838333726895" lon="22.109277734001694" id="-39687">
		<tag k="alt_name" v="Sarahompen" />
		<tag k="fixme" v="consider natural=peak for the most distinct mountains in the district" />
		<tag k="name" v="Sarahumpen" />
		<tag k="natural" v="hill" />
		<tag k="place" v="locality" />
		<tag k="ssr:stedsnr" v="661704" />
	</node>
	<node lat="69.65204999768633" lon="22.031749961021482" id="-39691">
		<tag k="fixme" v="consider natural=peak for the most distinct mountains in the district" />
		<tag k="name" v="Náránašrášša" />
		<tag k="name:se" v="Náránašrášša" />
		<tag k="natural" v="hill" />
		<tag k="place" v="locality" />
		<tag k="ssr:stedsnr" v="686454" />
	</node>
	<node lat="69.55022778279864" lon="22.21765828769672" id="-39693">
		<tag k="fixme" v="consider natural=peak for the most distinct mountains in the district" />
		<tag k="name" v="Čuonjáoaivi" />
		<tag k="name:se" v="Čuonjáoaivi" />
		<tag k="natural" v="hill" />
		<tag k="old_name:se" v="Čuonjoaivi;Čuonajoaivi" />
		<tag k="place" v="locality" />
		<tag k="ssr:stedsnr" v="686491" />
	</node>
	<node lat="69.60253055376505" lon="22.56471660370562" id="-39694">
		<tag k="name" v="Luovččavággi" />
		<tag k="name:se" v="Luovččavággi" />
		<tag k="natural" v="valley" />
		<tag k="old_name:se" v="Luovčavaggi" />
		<tag k="place" v="locality" />
		<tag k="ssr:stedsnr" v="686805" />
	</node>
	<node lat="69.84037777773483" lon="21.70886663881042" id="-39696">
		<tag k="fixme" v="consider natural=peak for the most distinct mountains in the district" />
		<tag k="name" v="Goahtegielas" />
		<tag k="name:se" v="Goahtegielas" />
		<tag k="natural" v="hill" />
		<tag k="place" v="locality" />
		<tag k="ssr:stedsnr" v="687093" />
	</node>
	<node lat="70.07967222708207" lon="22.00657496429668" id="-39709">
		<tag k="name" v="Satter" />
		<tag k="natural" v="slope" />
		<tag k="place" v="locality" />
		<tag k="ssr:stedsnr" v="897378" />
	</node>
	<node lat="70.05958333746675" lon="22.04246662748761" id="-39710">
		<tag k="name" v="Svartberget" />
		<tag k="natural" v="hill" />
		<tag k="place" v="locality" />
		<tag k="ssr:stedsnr" v="897523" />
	</node>
	<node lat="70.07414722569213" lon="22.000074969519776" id="-39711">
		<tag k="name" v="Perjorda" />
		<tag k="place" v="locality" />
		<tag k="ssr:stedsnr" v="897529" />
	</node>
	<node lat="70.03654722129134" lon="22.13596107525673" id="-39712">
		<tag k="name" v="Bruna" />
		<tag k="natural" v="slope" />
		<tag k="place" v="locality" />
		<tag k="ssr:stedsnr" v="897531" />
	</node>
	<node lat="70.07398333747007" lon="21.63669718544661" id="-39715">
		<tag k="name" v="Gappelien" />
		<tag k="natural" v="slope" />
		<tag k="place" v="locality" />
		<tag k="ssr:stedsnr" v="897856" />
	</node>
	<node lat="70.16977221996147" lon="21.504408297389226" id="-39718">
		<tag k="name" v="Lillehaugen" />
		<tag k="natural" v="hill" />
		<tag k="place" v="locality" />
		<tag k="ssr:stedsnr" v="897997" />
	</node>
	<node lat="70.17115833108876" lon="21.47969163071829" id="-39720">
		<tag k="name" v="Botnbakken" />
		<tag k="natural" v="slope" />
		<tag k="place" v="locality" />
		<tag k="ssr:stedsnr" v="714999" />
	</node>
	<node lat="69.9289944423988" lon="21.8691388412242" id="-39729">
		<tag k="name" v="Vilgesorrit" />
		<tag k="name:se" v="Vilgesorrit" />
		<tag k="natural" v="hill" />
		<tag k="place" v="locality" />
		<tag k="ssr:stedsnr" v="721721" />
	</node>
	<node lat="69.78586667001642" lon="21.884433302056944" id="-39730">
		<tag k="name" v="Heinagurro" />
		<tag k="name:fkv" v="Heinagurro" />
		<tag k="natural" v="valley" />
		<tag k="place" v="locality" />
		<tag k="ssr:stedsnr" v="721818" />
	</node>
	<node lat="69.78437778295952" lon="21.90083606636438" id="-39731">
		<tag k="name" v="Røykfossflata" />
		<tag k="place" v="locality" />
		<tag k="ssr:stedsnr" v="721819" />
	</node>
	<node lat="69.83729722485634" lon="21.82786384736567" id="-39735">
		<tag k="name" v="Lillehammaren" />
		<tag k="natural" v="hill" />
		<tag k="place" v="locality" />
		<tag k="ssr:stedsnr" v="722178" />
	</node>
	<node lat="70.02091666673847" lon="21.683749960897998" id="-39736">
		<tag k="name" v="Searhaugen" />
		<tag k="natural" v="hill" />
		<tag k="place" v="locality" />
		<tag k="ssr:stedsnr" v="722183" />
	</node>
	<node lat="70.01891110961405" lon="21.97133050304172" id="-39739">
		<tag k="name" v="Mannfolksteinen" />
		<tag k="natural" v="hill" />
		<tag k="place" v="locality" />
		<tag k="ssr:stedsnr" v="722671" />
	</node>
	<node lat="69.92695555359221" lon="21.561372196974624" id="-39742">
		<tag k="name" v="Sletta" />
		<tag k="place" v="locality" />
		<tag k="ssr:stedsnr" v="903047" />
	</node>
	<node lat="69.93019721885612" lon="21.727008304231497" id="-39744">
		<tag k="name" v="Skolevollen" />
		<tag k="place" v="locality" />
		<tag k="ssr:stedsnr" v="903179" />
	</node>
	<node lat="69.94052221824757" lon="21.719894417298065" id="-39745">
		<tag k="name" v="Ørnhaugen" />
		<tag k="natural" v="hill" />
		<tag k="place" v="locality" />
		<tag k="ssr:stedsnr" v="903189" />
	</node>
	<node lat="69.97690833808288" lon="21.517763862966774" id="-39748">
		<tag k="name" v="Johannesvollen" />
		<tag k="place" v="locality" />
		<tag k="ssr:stedsnr" v="903448" />
	</node>
	<node lat="69.93588888732344" lon="21.86406941549477" id="-39749">
		<tag k="alt_name" v="Hompen" />
		<tag k="name" v="Humpen" />
		<tag k="natural" v="hill" />
		<tag k="place" v="locality" />
		<tag k="ssr:stedsnr" v="903742" />
	</node>
	<node lat="69.94573888950858" lon="21.87649716968793" id="-39750">
		<tag k="name" v="Bálddisorrit" />
		<tag k="name:se" v="Bálddisorrit" />
		<tag k="natural" v="hill" />
		<tag k="place" v="locality" />
		<tag k="ssr:stedsnr" v="903745" />
	</node>
	<node lat="69.59924722129112" lon="22.598838827278122" id="-39752">
		<tag k="fixme" v="consider natural=peak for the most distinct mountains in the district" />
		<tag k="name" v="Luovččavárri" />
		<tag k="name:se" v="Luovččavárri" />
		<tag k="natural" v="hill" />
		<tag k="old_name:se" v="Luovčavarri" />
		<tag k="place" v="locality" />
		<tag k="ssr:stedsnr" v="746776" />
	</node>
	<node lat="69.72865833693012" lon="22.141727718485598" id="-39757">
		<tag k="fixme" v="consider natural=peak for the most distinct mountains in the district" />
		<tag k="name" v="Čeabetčorru" />
		<tag k="name:se" v="Čeabetčorru" />
		<tag k="natural" v="hill" />
		<tag k="place" v="locality" />
		<tag k="ssr:stedsnr" v="747272" />
	</node>
	<node lat="70.12293611155755" lon="22.032455526709885" id="-39760">
		<tag k="name" v="Čearretriidi" />
		<tag k="name:se" v="Čearretriidi" />
		<tag k="natural" v="valley" />
		<tag k="old_name:se" v="Čærretriidi" />
		<tag k="place" v="locality" />
		<tag k="ssr:stedsnr" v="747278" />
	</node>
	<node lat="69.78717582887714" lon="21.92076651840134" id="-39761">
		<tag k="name" v="Kjelleren" />
		<tag k="place" v="locality" />
		<tag k="ssr:stedsnr" v="903848" />
	</node>
	<node lat="69.75885833328272" lon="21.91889161588317" id="-39762">
		<tag k="name" v="Brennmoen" />
		<tag k="place" v="locality" />
		<tag k="ssr:stedsnr" v="903929" />
	</node>
	<node lat="69.76965000099001" lon="21.920266630452318" id="-39763">
		<tag k="alt_name" v="Solskinnshompen" />
		<tag k="name" v="Solskinnshumpen" />
		<tag k="natural" v="hill" />
		<tag k="place" v="locality" />
		<tag k="ssr:stedsnr" v="903933" />
	</node>
	<node lat="70.00535833169273" lon="21.690552740045806" id="-39765">
		<tag k="name" v="Langhammaren" />
		<tag k="natural" v="hill" />
		<tag k="place" v="locality" />
		<tag k="ssr:stedsnr" v="904111" />
	</node>
	<node lat="69.89359166545682" lon="22.20567216303057" id="-39769">
		<tag k="name" v="Lia" />
		<tag k="natural" v="slope" />
		<tag k="place" v="locality" />
		<tag k="ssr:stedsnr" v="904491" />
	</node>
	<node lat="69.81731944987366" lon="21.882558283038374" id="-39770">
		<tag k="name" v="Kjerringberget" />
		<tag k="natural" v="hill" />
		<tag k="place" v="locality" />
		<tag k="ssr:stedsnr" v="904494" />
	</node>
	<node lat="69.95990555437136" lon="21.91234161462758" id="-39771">
		<tag k="name" v="Vedlia" />
		<tag k="natural" v="slope" />
		<tag k="place" v="locality" />
		<tag k="ssr:stedsnr" v="904577" />
	</node>
	<node lat="69.71777222365472" lon="22.046363842119423" id="-39775">
		<tag k="name" v="Gardelvåglia" />
		<tag k="natural" v="slope" />
		<tag k="place" v="locality" />
		<tag k="ssr:stedsnr" v="904617" />
	</node>
	<node lat="69.9531638903846" lon="21.958238850303374" id="-39776">
		<tag k="name" v="Mørkholla" />
		<tag k="natural" v="valley" />
		<tag k="place" v="locality" />
		<tag k="ssr:stedsnr" v="904620" />
	</node>
	<node lat="69.95357500192783" lon="21.93501940157485" id="-39777">
		<tag k="name" v="Hampaskaret" />
		<tag k="natural" v="valley" />
		<tag k="place" v="locality" />
		<tag k="ssr:stedsnr" v="904621" />
	</node>
	<node lat="69.72799722350692" lon="22.107911064961858" id="-39779">
		<tag k="name" v="Paloutabakken" />
		<tag k="natural" v="slope" />
		<tag k="place" v="locality" />
		<tag k="ssr:stedsnr" v="904629" />
	</node>
	<node lat="69.91496667173261" lon="22.053436073145363" id="-39780">
		<tag k="alt_name" v="Svanehompen" />
		<tag k="fixme" v="consider natural=peak for the most distinct mountains in the district" />
		<tag k="name" v="Svanehumpen" />
		<tag k="natural" v="hill" />
		<tag k="place" v="locality" />
		<tag k="ssr:stedsnr" v="904644" />
	</node>
	<node lat="69.83081110948392" lon="22.074669384505324" id="-39781">
		<tag k="name" v="Bjørnebakken - Ájjáfjerrahahka" />
		<tag k="name:fkv" v="Ájjáfjerrahahka" />
		<tag k="name:no" v="Bjørnebakken" />
		<tag k="natural" v="slope" />
		<tag k="place" v="locality" />
		<tag k="ssr:stedsnr" v="904646" />
	</node>
	<node lat="70.0156277806627" lon="22.01643607876175" id="-39782">
		<tag k="name" v="Svartberget" />
		<tag k="natural" v="hill" />
		<tag k="place" v="locality" />
		<tag k="ssr:stedsnr" v="904677" />
	</node>
	<node lat="69.12083889130932" lon="23.74499986683183" id="-39784">
		<tag k="name" v="Finnmarksvidda" />
		<tag k="name:no" v="Finnmarksvidda" />
		<tag k="natural" v="plateau" />
		<tag k="ssr:stedsnr" v="754051" />
	</node>
	<node lat="70.22066944904883" lon="21.19559720573212" id="-39789">
		<tag k="fixme" v="consider natural=peak for the most distinct mountains in the district" />
		<tag k="name" v="Roaldvikfjellet" />
		<tag k="natural" v="hill" />
		<tag k="place" v="locality" />
		<tag k="ssr:stedsnr" v="774207" />
	</node>
	<node lat="70.1229361160218" lon="21.608658295914232" id="-39792">
		<tag k="name" v="Geinnodatvuopmi" />
		<tag k="name:se" v="Geinnodatvuopmi" />
		<tag k="natural" v="valley" />
		<tag k="place" v="locality" />
		<tag k="ssr:stedsnr" v="776903" />
	</node>
	<node lat="70.13219444335733" lon="21.612147190298092" id="-39793">
		<tag k="name" v="Isdalen" />
		<tag k="natural" v="valley" />
		<tag k="place" v="locality" />
		<tag k="ssr:stedsnr" v="776910" />
	</node>
	<node lat="69.97907222442326" lon="21.212961077009734" id="-39797">
		<tag k="name" v="Vollan" />
		<tag k="place" v="locality" />
		<tag k="ssr:stedsnr" v="782298" />
	</node>
	<node lat="69.83756666970699" lon="21.833152730640638" id="-39799">
		<tag k="name" v="Elvebakken" />
		<tag k="natural" v="slope" />
		<tag k="place" v="locality" />
		<tag k="ssr:stedsnr" v="782147" />
	</node>
	<node lat="70.02326111165479" lon="21.682805507512946" id="-39800">
		<tag k="name" v="Varthammaren" />
		<tag k="natural" v="hill" />
		<tag k="place" v="locality" />
		<tag k="ssr:stedsnr" v="782151" />
	</node>
	<node lat="69.7940083366453" lon="21.906280514491787" id="-39803">
		<tag k="name" v="Hesteskaret" />
		<tag k="natural" v="valley" />
		<tag k="place" v="locality" />
		<tag k="ssr:stedsnr" v="782811" />
	</node>
	<node lat="69.78417778360675" lon="21.925255506062125" id="-39804">
		<tag k="name" v="Navitbakken" />
		<tag k="natural" v="slope" />
		<tag k="place" v="locality" />
		<tag k="ssr:stedsnr" v="782819" />
	</node>
	<node lat="70.14562777717543" lon="21.60583051694859" id="-39808">
		<tag k="fixme" v="consider natural=peak for the most distinct mountains in the district" />
		<tag k="name" v="Stuora Roahkastat" />
		<tag k="name:se" v="Stuora Roahkastat" />
		<tag k="natural" v="hill" />
		<tag k="old_name:se" v="Roakkastat, stuora" />
		<tag k="place" v="locality" />
		<tag k="ssr:stedsnr" v="808306" />
	</node>
	<node lat="70.14970555512257" lon="21.559227744620156" id="-39809">
		<tag k="fixme" v="consider natural=peak for the most distinct mountains in the district" />
		<tag k="name" v="Ørnstolen" />
		<tag k="natural" v="hill" />
		<tag k="place" v="locality" />
		<tag k="ssr:stedsnr" v="808307" />
	</node>
	<node lat="70.06442500488569" lon="22.169861066851993" id="-39813">
		<tag k="alt_name" v="Tverrelvtind, øvre" />
		<tag k="fixme" v="consider natural=peak for the most distinct mountains in the district" />
		<tag k="name" v="Øvre Tverrelvtind" />
		<tag k="natural" v="hill" />
		<tag k="place" v="locality" />
		<tag k="ssr:stedsnr" v="808443" />
	</node>
	<node lat="70.07265833150979" lon="21.73869162860055" id="-39821">
		<tag k="fixme" v="consider natural=peak for the most distinct mountains in the district" />
		<tag k="name" v="Nevernesfjellet - Beašvárri" />
		<tag k="name:no" v="Nevernesfjellet" />
		<tag k="name:se" v="Beašvárri" />
		<tag k="natural" v="hill" />
		<tag k="old_name:se" v="Bæšvárri" />
		<tag k="place" v="locality" />
		<tag k="ssr:stedsnr" v="816482" />
	</node>
	<node lat="70.22134722101507" lon="21.2053555257018" id="-39823">
		<tag k="name" v="Roaldvikheia" />
		<tag k="natural" v="slope" />
		<tag k="place" v="locality" />
		<tag k="ssr:stedsnr" v="835204" />
	</node>
</osm>
