<?xml version="1.0" encoding="UTF-8"?>
<osm version="0.6" generator="osmapis">
	<node lat="69.94643610844379" lon="21.93637218614254" id="-37472">
		<tag k="highway" v="path" />
		<tag k="name" v="Stigavegen" />
		<tag k="ssr:stedsnr" v="54628" />
	</node>
	<node lat="69.74152777633353" lon="22.0065694007102" id="-37482">
		<tag k="highway" v="path" />
		<tag k="name" v="Lillestraumveien" />
		<tag k="ssr:stedsnr" v="54817" />
	</node>
	<node lat="69.83571388590615" lon="21.82858051804126" id="-37523">
		<tag k="highway" v="path" />
		<tag k="name" v="Hesteveien" />
		<tag k="ssr:stedsnr" v="115179" />
	</node>
	<node lat="69.73787222730589" lon="22.161863832822316" id="-37537">
		<tag k="highway" v="path" />
		<tag k="name" v="Gearbbetveien" />
		<tag k="ssr:stedsnr" v="115683" />
	</node>
	<node lat="70.00243055446967" lon="21.678008284948405" id="-37820">
		<tag k="highway" v="path" />
		<tag k="name" v="Sennaveien" />
		<tag k="ssr:stedsnr" v="479095" />
	</node>
	<node lat="69.78345555657265" lon="22.107138833308532" id="-38029">
		<tag k="highway" v="path" />
		<tag k="name" v="Gruveveg" />
		<tag k="ssr:stedsnr" v="540669" />
	</node>
	<node lat="70.06118056070696" lon="21.91628330046058" id="-38166">
		<tag k="man_made" v="cairn" />
		<tag k="name" v="Sandstein" />
		<tag k="place" v="locality" />
		<tag k="ssr:stedsnr" v="897373" />
	</node>
	<node lat="69.94555556024605" lon="21.931602752209987" id="-38260">
		<tag k="highway" v="path" />
		<tag k="name" v="Steinhaugvegen" />
		<tag k="ssr:stedsnr" v="782605" />
	</node>
</osm>
