<?xml version="1.0" encoding="UTF-8"?>
<osm version="0.6" generator="osmapis">
	<node lat="69.70368333406567" lon="21.76599441441865" id="-41219">
		<tag k="name" v="Gamneset" />
		<tag k="natural" v="cape" />
		<tag k="ssr:stedsnr" v="229743" />
	</node>
	<node lat="70.07599722715484" lon="21.794188849108245" id="-41225">
		<tag k="name" v="Trastelva" />
		<tag k="ssr:stedsnr" v="230847" />
		<tag k="waterway" v="stream" />
	</node>
	<node lat="70.0660194501812" lon="21.684969405111012" id="-41229">
		<tag k="name" v="Bjørnvikelva" />
		<tag k="ssr:stedsnr" v="230868" />
		<tag k="waterway" v="stream" />
	</node>
	<node lat="69.56570000554954" lon="22.71711937258657" id="-41233">
		<tag k="name" v="Ballanjávri" />
		<tag k="name:se" v="Ballanjávri" />
		<tag k="natural" v="water" />
		<tag k="old_name:se" v="Ballanjavri" />
		<tag k="ssr:stedsnr" v="18796" />
	</node>
	<node lat="69.56457500443146" lon="22.508722159529395" id="-41234">
		<tag k="name" v="Nábárgobejávrrit" />
		<tag k="name:se" v="Nábárgobejávrrit" />
		<tag k="natural" v="water" />
		<tag k="old_name:se" v="Nabargåbejavrit" />
		<tag k="ssr:stedsnr" v="18798" />
	</node>
	<node lat="69.90479166479551" lon="22.05571384468977" id="-41236">
		<tag k="alt_name" v="Båtvatnet" />
		<tag k="name" v="Båtvannet" />
		<tag k="natural" v="water" />
		<tag k="ssr:stedsnr" v="19152" />
	</node>
	<node lat="69.79204722692322" lon="22.20803327947336" id="-41237">
		<tag k="name" v="Gammelva" />
		<tag k="ssr:stedsnr" v="19101" />
		<tag k="waterway" v="stream" />
	</node>
	<node lat="70.19633055253894" lon="21.611905515991314" id="-41239">
		<tag k="alt_name" v="Bjørnevannet" />
		<tag k="name" v="Bjørnvatna" />
		<tag k="natural" v="water" />
		<tag k="ssr:stedsnr" v="19161" />
		<tag k="water" v="lake" />
	</node>
	<node lat="70.05966111416824" lon="22.071883292776448" id="-41244">
		<tag k="name" v="Vikselva" />
		<tag k="ssr:stedsnr" v="19450" />
		<tag k="waterway" v="river" />
	</node>
	<node lat="69.88650833936566" lon="21.664824957645397" id="-41252">
		<tag k="name" v="Fossen" />
		<tag k="natural" v="waterfall" />
		<tag k="ssr:stedsnr" v="236020" />
	</node>
	<node lat="69.85183333438825" lon="21.812202747189428" id="-41259">
		<tag k="name" v="Guobijohka" />
		<tag k="name:se" v="Guobijohka" />
		<tag k="ssr:stedsnr" v="236251" />
		<tag k="waterway" v="stream" />
	</node>
	<node lat="69.88652222780738" lon="22.12578327700409" id="-41260">
		<tag k="name" v="Steinelva" />
		<tag k="ssr:stedsnr" v="236499" />
		<tag k="waterway" v="stream" />
	</node>
	<node lat="69.72116111420479" lon="22.22983050411151" id="-41263">
		<tag k="name" v="Rassegurrabekken" />
		<tag k="ssr:stedsnr" v="236537" />
		<tag k="waterway" v="stream" />
	</node>
	<node lat="69.96915277780504" lon="21.899874947084093" id="-41266">
		<tag k="name" v="Hellovuovdivannet" />
		<tag k="natural" v="water" />
		<tag k="ssr:stedsnr" v="236575" />
	</node>
	<node lat="69.8970861177804" lon="22.150911056151102" id="-41273">
		<tag k="name" v="Botnlausvannet" />
		<tag k="natural" v="water" />
		<tag k="ssr:stedsnr" v="236472" />
	</node>
	<node lat="69.70859444167884" lon="22.156872182893192" id="-41286">
		<tag k="name" v="Storgropa - Isokuoppa" />
		<tag k="name:fkv" v="Isokuoppa" />
		<tag k="name:no" v="Storgropa" />
		<tag k="place" v="locality" />
		<tag k="ssr:stedsnr" v="48707" />
	</node>
	<node lat="69.90784166818055" lon="22.040424947779076" id="-41298">
		<tag k="name" v="Rappelva" />
		<tag k="ssr:stedsnr" v="54570" />
		<tag k="waterway" v="stream" />
	</node>
	<node lat="69.76280833684469" lon="21.9719110616941" id="-41308">
		<tag k="alt_name:no" v="Bjørnebuktvatnet" />
		<tag k="name" v="Bjørnebuktvannet - Äijäsenjärvi" />
		<tag k="name:fkv" v="Äijäsenjärvi" />
		<tag k="name:no" v="Bjørnebuktvannet" />
		<tag k="natural" v="water" />
		<tag k="ssr:stedsnr" v="80009" />
	</node>
	<node lat="70.10979166646912" lon="21.76886385970014" id="-41313">
		<tag k="name" v="Jiehkkejávri" />
		<tag k="name:se" v="Jiehkkejávri" />
		<tag k="natural" v="water" />
		<tag k="old_name:se" v="Jiekkejavri;Jiekkejávri" />
		<tag k="ssr:stedsnr" v="80304" />
		<tag k="water" v="lake" />
	</node>
	<node lat="69.76935833635063" lon="22.338352732113435" id="-41320">
		<tag k="name" v="Ribatjávri" />
		<tag k="name:se" v="Ribatjávri" />
		<tag k="natural" v="water" />
		<tag k="old_name:se" v="Ribatjavri" />
		<tag k="ssr:stedsnr" v="80492" />
	</node>
	<node lat="70.1778083382757" lon="21.29400829782497" id="-41328">
		<tag k="name" v="Nedre Tauselvvannet" />
		<tag k="natural" v="water" />
		<tag k="ssr:stedsnr" v="106927" />
	</node>
	<node lat="70.07563055593232" lon="21.837244412453202" id="-41333">
		<tag k="name" v="Sommarsetelva" />
		<tag k="ssr:stedsnr" v="108809" />
		<tag k="waterway" v="stream" />
	</node>
	<node lat="70.0785138894084" lon="21.88072774540032" id="-41334">
		<tag k="name" v="Kågelva" />
		<tag k="ssr:stedsnr" v="108810" />
		<tag k="waterway" v="stream" />
	</node>
	<node lat="69.7969361133338" lon="21.85719161872985" id="-41367">
		<tag k="name" v="Svartvatnet - Čáhppesjávri - Mustajärvi" />
		<tag k="name:fkv" v="Mustajärvi" />
		<tag k="name:no" v="Svartvatnet" />
		<tag k="name:se" v="Čáhppesjávri" />
		<tag k="natural" v="water" />
		<tag k="ssr:stedsnr" v="140094" />
	</node>
	<node lat="69.64994722036894" lon="22.101177729515232" id="-41369">
		<tag k="name" v="Oaivvošjohka" />
		<tag k="name:se" v="Oaivvošjohka" />
		<tag k="ssr:stedsnr" v="140468" />
		<tag k="waterway" v="stream" />
	</node>
	<node lat="70.10028055806987" lon="21.609047189216316" id="-41383">
		<tag k="name" v="Bonnikelva" />
		<tag k="ssr:stedsnr" v="169886" />
		<tag k="waterway" v="river" />
	</node>
	<node lat="69.95878888756495" lon="22.103847169971107" id="-41386">
		<tag k="name" v="Kainovatnet" />
		<tag k="natural" v="water" />
		<tag k="ssr:stedsnr" v="262123" />
	</node>
	<node lat="69.9174444463433" lon="21.566827740116842" id="-41389">
		<tag k="name" v="Vaddaselva" />
		<tag k="ssr:stedsnr" v="175031" />
		<tag k="waterway" v="stream" />
	</node>
	<node lat="69.8825972250138" lon="21.67908053191234" id="-41391">
		<tag k="name" v="Lillefossen" />
		<tag k="natural" v="waterfall" />
		<tag k="ssr:stedsnr" v="175465" />
	</node>
	<node lat="69.76306389289789" lon="21.91044717511929" id="-41397">
		<tag k="name" v="Tørrvannet" />
		<tag k="natural" v="water" />
		<tag k="ssr:stedsnr" v="175923" />
	</node>
	<node lat="69.75880833629468" lon="21.912905514931463" id="-41398">
		<tag k="name" v="Tredjevannet" />
		<tag k="natural" v="water" />
		<tag k="ssr:stedsnr" v="175924" />
	</node>
	<node lat="69.73284722088655" lon="22.171780515073703" id="-41408">
		<tag k="name" v="Sæterholmen" />
		<tag k="place" v="islet" />
		<tag k="ssr:stedsnr" v="176723" />
	</node>
	<node lat="69.62630277868969" lon="22.79518049636934" id="-41410">
		<tag k="name" v="Hoalloluoppal" />
		<tag k="name:se" v="Hoalloluoppal" />
		<tag k="natural" v="water" />
		<tag k="old_name:se" v="Hoalluluobbal" />
		<tag k="ssr:stedsnr" v="261783" />
	</node>
	<node lat="69.62117222526032" lon="22.620702720127735" id="-41411">
		<tag k="name" v="Čuidnárjohka" />
		<tag k="name:se" v="Čuidnárjohka" />
		<tag k="old_name:se" v="Čuidnarjåkka" />
		<tag k="ssr:stedsnr" v="261786" />
		<tag k="waterway" v="stream" />
	</node>
	<node lat="69.71874722386741" lon="22.44883328904541" id="-41414">
		<tag k="name" v="Čuoigalanjávri" />
		<tag k="name:se" v="Čuoigalanjávri" />
		<tag k="natural" v="water" />
		<tag k="old_name:se" v="Čuoigalanjavri" />
		<tag k="ssr:stedsnr" v="261855" />
		<tag k="water" v="lake" />
	</node>
	<node lat="69.71209722428533" lon="22.419616600073727" id="-41416">
		<tag k="name" v="Čuoigalanluoppal" />
		<tag k="name:se" v="Čuoigalanluoppal" />
		<tag k="natural" v="water" />
		<tag k="old_name:se" v="Čuoigalanluobbal" />
		<tag k="ssr:stedsnr" v="261813" />
	</node>
	<node lat="69.74370555593647" lon="22.256380513314078" id="-41417">
		<tag k="name" v="Ruossalanjajohka" />
		<tag k="name:se" v="Ruossalanjajohka" />
		<tag k="old_name:se" v="Ruossalanjajåkka" />
		<tag k="ssr:stedsnr" v="261843" />
		<tag k="waterway" v="stream" />
	</node>
	<node lat="69.91348889313797" lon="22.116141626229997" id="-41429">
		<tag k="alt_name" v="Litleelvvatnet" />
		<tag k="name" v="Lilleelvvannet" />
		<tag k="natural" v="water" />
		<tag k="ssr:stedsnr" v="262166" />
	</node>
	<node lat="69.68475000435144" lon="22.0596055059762" id="-41441">
		<tag k="name" v="Olbmájohka" />
		<tag k="name:se" v="Olbmájohka" />
		<tag k="ssr:stedsnr" v="262457" />
		<tag k="waterway" v="stream" />
	</node>
	<node lat="69.89732500544987" lon="22.185391624743456" id="-41442">
		<tag k="name" v="Storelva - Burovuonjohka" />
		<tag k="name:no" v="Storelva" />
		<tag k="name:se" v="Burovuonjohka" />
		<tag k="ssr:stedsnr" v="262462" />
		<tag k="waterway" v="river" />
	</node>
	<node lat="69.80077222880425" lon="22.400430495561363" id="-41443">
		<tag k="name" v="Nihkeláddot" />
		<tag k="name:se" v="Nihkeláddot" />
		<tag k="natural" v="water" />
		<tag k="old_name:se" v="Nikkeladdut" />
		<tag k="ssr:stedsnr" v="262464" />
	</node>
	<node lat="70.04733889007176" lon="22.025783287988403" id="-41445">
		<tag k="fixme" v="multiple name tags, choose one and add the other to alt_name" />
		<tag k="name" v="Gryta;Trollvatnet" />
		<tag k="natural" v="water" />
		<tag k="ssr:stedsnr" v="262473" />
	</node>
	<node lat="69.98971388611338" lon="21.445924970833456" id="-41446">
		<tag k="fixme" v="multiple name tags, choose one and add the other to alt_name" />
		<tag k="name" v="Langvasselva;Gammelgårdselva" />
		<tag k="ssr:stedsnr" v="262478" />
		<tag k="waterway" v="stream" />
	</node>
	<node lat="70.05307499789444" lon="21.880413853485972" id="-41448">
		<tag k="name" v="Golpeelva - Gulpejohka" />
		<tag k="name:no" v="Golpeelva" />
		<tag k="name:se" v="Gulpejohka" />
		<tag k="ssr:stedsnr" v="262482" />
		<tag k="waterway" v="river" />
	</node>
	<node lat="69.69562222355874" lon="21.693902748936736" id="-41449">
		<tag k="name" v="Meastojohka" />
		<tag k="name:se" v="Meastojohka" />
		<tag k="ssr:stedsnr" v="262484" />
		<tag k="waterway" v="stream" />
	</node>
	<node lat="69.70357222045932" lon="22.066047173154352" id="-41450">
		<tag k="name" v="Čorrojohka" />
		<tag k="name:se" v="Čorrojohka" />
		<tag k="ssr:stedsnr" v="262487" />
		<tag k="waterway" v="stream" />
	</node>
	<node lat="69.7062805591085" lon="22.206383282589957" id="-41451">
		<tag k="alt_name:no" v="Gåsvannet" />
		<tag k="name" v="Gåsevatnet - Hanhijärvi" />
		<tag k="name:fkv" v="Hanhijärvi" />
		<tag k="name:no" v="Gåsevatnet" />
		<tag k="natural" v="water" />
		<tag k="ssr:stedsnr" v="262489" />
	</node>
	<node lat="69.54063611104735" lon="22.647280494722946" id="-41455">
		<tag k="name" v="Heisoluoppal" />
		<tag k="name:se" v="Heisoluoppal" />
		<tag k="natural" v="water" />
		<tag k="old_name:se" v="Heisuluobbal" />
		<tag k="ssr:stedsnr" v="200756" />
	</node>
	<node lat="69.61068333143251" lon="22.41236384033431" id="-41457">
		<tag k="name" v="Goddejohka" />
		<tag k="name:se" v="Goddejohka" />
		<tag k="old_name:se" v="Gåddejåkka" />
		<tag k="ssr:stedsnr" v="200801" />
		<tag k="waterway" v="stream" />
	</node>
	<node lat="69.90507777558214" lon="22.045244399138202" id="-41463">
		<tag k="alt_name" v="Ellenvatnet" />
		<tag k="name" v="Ellenvannet" />
		<tag k="natural" v="water" />
		<tag k="ssr:stedsnr" v="201148" />
	</node>
	<node lat="70.14682222236776" lon="21.490866631693248" id="-41465">
		<tag k="name" v="Storelva - Dolejohka" />
		<tag k="name:no" v="Storelva" />
		<tag k="name:se" v="Dolejohka" />
		<tag k="old_name:se" v="Dålejåkka" />
		<tag k="ssr:stedsnr" v="201294" />
		<tag k="waterway" v="river" />
	</node>
	<node lat="69.58677499716498" lon="22.195802731884285" id="-41468">
		<tag k="name" v="Njuolggojohka" />
		<tag k="name:se" v="Njuolggojohka" />
		<tag k="ssr:stedsnr" v="201446" />
		<tag k="waterway" v="stream" />
	</node>
	<node lat="70.01233888576074" lon="21.64682218515328" id="-41469">
		<tag k="alt_name:no" v="Holmvatnet" />
		<tag k="name" v="Holmvannet - Suolojávri" />
		<tag k="name:no" v="Holmvannet" />
		<tag k="name:se" v="Suolojávri" />
		<tag k="natural" v="water" />
		<tag k="old_name:se" v="Suolujavri" />
		<tag k="ssr:stedsnr" v="201447" />
	</node>
	<node lat="69.99144444151918" lon="21.351402755031344" id="-41474">
		<tag k="alt_name" v="Storvannet" />
		<tag k="name" v="Storvatnet" />
		<tag k="natural" v="water" />
		<tag k="ssr:stedsnr" v="201893" />
		<tag k="water" v="lake" />
	</node>
	<node lat="69.99437499921878" lon="21.45346386705376" id="-41475">
		<tag k="fixme" v="multiple name tags, choose one and add the other to alt_name" />
		<tag k="name" v="Skarvikvannet;Skardvatnet" />
		<tag k="natural" v="water" />
		<tag k="ssr:stedsnr" v="201894" />
	</node>
	<node lat="70.14413055973345" lon="21.521616626454428" id="-41485">
		<tag k="name" v="Trangaste" />
		<tag k="ssr:stedsnr" v="227899" />
		<tag k="waterway" v="rapids" />
	</node>
	<node lat="70.00230833491324" lon="21.69786663024096" id="-41490">
		<tag k="name" v="Underskjærelva" />
		<tag k="ssr:stedsnr" v="236082" />
		<tag k="waterway" v="stream" />
	</node>
	<node lat="69.914683332831" lon="22.07056383647558" id="-41501">
		<tag k="name" v="Øverlanes" />
		<tag k="natural" v="cape" />
		<tag k="ssr:stedsnr" v="236705" />
	</node>
	<node lat="69.78281666770376" lon="21.916511066768543" id="-41503">
		<tag k="name" v="Holmen - Návetjohsuolu" />
		<tag k="name:no" v="Holmen" />
		<tag k="name:se" v="Návetjohsuolu" />
		<tag k="place" v="islet" />
		<tag k="ssr:stedsnr" v="236827" />
	</node>
	<node lat="69.750138890877" lon="21.939638857408127" id="-41505">
		<tag k="name" v="Førstevannet" />
		<tag k="natural" v="water" />
		<tag k="ssr:stedsnr" v="236779" />
	</node>
	<node lat="69.6415555548132" lon="21.675799958939344" id="-41506">
		<tag k="name" v="Lulle-Iŋggájávri" />
		<tag k="name:se" v="Lulle-Iŋggájávri" />
		<tag k="natural" v="water" />
		<tag k="old_name:se" v="Iŋggájávri, lulle" />
		<tag k="ssr:stedsnr" v="261504" />
	</node>
	<node lat="69.57909167076052" lon="22.270455515713003" id="-41507">
		<tag k="name" v="Biedjojávri" />
		<tag k="name:se" v="Biedjojávri" />
		<tag k="natural" v="water" />
		<tag k="old_name:se" v="Bieddjujavri" />
		<tag k="ssr:stedsnr" v="261798" />
	</node>
	<node lat="69.74825000496804" lon="21.923374963270277" id="-41514">
		<tag k="name" v="Sáhppejohka" />
		<tag k="name:se" v="Sáhppejohka" />
		<tag k="ssr:stedsnr" v="262297" />
		<tag k="waterway" v="stream" />
	</node>
	<node lat="69.81927777811423" lon="22.384958285821114" id="-41516">
		<tag k="alt_name:no" v="Nikkevatnet, vestre" />
		<tag k="name" v="Vestre Nikkevatnet - Nihkeluobbalat" />
		<tag k="name:no" v="Vestre Nikkevatnet" />
		<tag k="name:se" v="Nihkeluobbalat" />
		<tag k="natural" v="water" />
		<tag k="old_name:se" v="Nikkeluobbalat" />
		<tag k="ssr:stedsnr" v="262449" />
	</node>
	<node lat="69.83264167231181" lon="22.227133275904908" id="-41519">
		<tag k="name" v="Stuoragiettejávri" />
		<tag k="name:se" v="Stuoragiettejávri" />
		<tag k="natural" v="water" />
		<tag k="old_name:se" v="Stuoragieddejavri" />
		<tag k="ssr:stedsnr" v="262454" />
	</node>
	<node lat="69.5857611087592" lon="21.90567495436322" id="-41520">
		<tag k="name" v="Vuostáluoppal" />
		<tag k="name:se" v="Vuostáluoppal" />
		<tag k="natural" v="water" />
		<tag k="ssr:stedsnr" v="262495" />
	</node>
	<node lat="69.59967222249065" lon="21.715033288547236" id="-41522">
		<tag k="name" v="Sitnojávri" />
		<tag k="name:se" v="Sitnojávri" />
		<tag k="natural" v="water" />
		<tag k="ssr:stedsnr" v="262498" />
	</node>
	<node lat="70.18254167094986" lon="21.26029997543932" id="-41542">
		<tag k="name" v="Instevikelva" />
		<tag k="ssr:stedsnr" v="290731" />
		<tag k="waterway" v="stream" />
	</node>
	<node lat="70.1234500027892" lon="21.459691628584416" id="-41543">
		<tag k="name" v="Nersokkvannan" />
		<tag k="natural" v="water" />
		<tag k="ssr:stedsnr" v="290602" />
	</node>
	<node lat="69.78294444215615" lon="21.898544394691193" id="-41553">
		<tag k="name" v="Røykfossen" />
		<tag k="natural" v="waterfall" />
		<tag k="ssr:stedsnr" v="296843" />
	</node>
	<node lat="69.93002500100441" lon="21.558558300186736" id="-41557">
		<tag k="name" v="Falkebergelva" />
		<tag k="ssr:stedsnr" v="297033" />
		<tag k="waterway" v="stream" />
	</node>
	<node lat="70.02417778171342" lon="22.18664717895672" id="-41572">
		<tag k="loc_name:se" v="Čohkkápirjohka" />
		<tag k="name" v="Čohkkápmirelva" />
		<tag k="name:no" v="Čohkkápmirelva" />
		<tag k="ssr:stedsnr" v="464548" />
		<tag k="waterway" v="stream" />
	</node>
	<node lat="70.16886666472467" lon="21.284427750413627" id="-41580">
		<tag k="name" v="Tauselva" />
		<tag k="ssr:stedsnr" v="322140" />
		<tag k="waterway" v="stream" />
	</node>
	<node lat="69.5784638934052" lon="22.312686063638697" id="-41581">
		<tag k="name" v="Várdajávri" />
		<tag k="name:se" v="Várdajávri" />
		<tag k="natural" v="water" />
		<tag k="old_name:se" v="Vardajavri" />
		<tag k="ssr:stedsnr" v="322824" />
	</node>
	<node lat="69.52819444865403" lon="22.680908267240124" id="-41583">
		<tag k="name" v="Geatkkášluoppal" />
		<tag k="name:se" v="Geatkkášluoppal" />
		<tag k="natural" v="water" />
		<tag k="old_name:se" v="Gætkašluobbal" />
		<tag k="ssr:stedsnr" v="322778" />
	</node>
	<node lat="70.00973333339573" lon="22.186430512033873" id="-41588">
		<tag k="alt_name:no" v="Kavringvatnet, nedre" />
		<tag k="loc_name:se" v="Vuolit Gavrinjávri" />
		<tag k="name" v="Nedre Kavringvatnet" />
		<tag k="name:no" v="Nedre Kavringvatnet" />
		<tag k="natural" v="water" />
		<tag k="ssr:stedsnr" v="323504" />
	</node>
	<node lat="70.07231666390273" lon="21.70074163400142" id="-41611">
		<tag k="name" v="Bjørnvikvannet" />
		<tag k="natural" v="water" />
		<tag k="ssr:stedsnr" v="472922" />
		<tag k="water" v="lake" />
	</node>
	<node lat="70.10753333493884" lon="21.569336069896863" id="-41614">
		<tag k="name" v="Seljeelva" />
		<tag k="ssr:stedsnr" v="351853" />
		<tag k="waterway" v="stream" />
	</node>
	<node lat="69.89607777859943" lon="21.907819410521604" id="-41624">
		<tag k="name" v="Loustu" />
		<tag k="name:fkv" v="Loustu" />
		<tag k="natural" v="water" />
		<tag k="ssr:stedsnr" v="357550" />
	</node>
	<node lat="69.92396944984927" lon="22.072944398517187" id="-41625">
		<tag k="name" v="Mellafossen" />
		<tag k="natural" v="waterfall" />
		<tag k="ssr:stedsnr" v="357713" />
	</node>
	<node lat="69.7788166704187" lon="21.92183328908526" id="-41627">
		<tag k="name" v="Kråkebergvannet" />
		<tag k="natural" v="water" />
		<tag k="ssr:stedsnr" v="357848" />
	</node>
	<node lat="69.85940555460787" lon="21.787694403613468" id="-41632">
		<tag k="name" v="Bukteelva - Luoktejohka" />
		<tag k="name:no" v="Bukteelva" />
		<tag k="name:se" v="Luoktejohka" />
		<tag k="ssr:stedsnr" v="478243" />
		<tag k="waterway" v="stream" />
	</node>
	<node lat="69.78310833460137" lon="21.920955503800172" id="-41639">
		<tag k="name" v="Lilleholmen" />
		<tag k="place" v="islet" />
		<tag k="ssr:stedsnr" v="478849" />
	</node>
	<node lat="70.0156277819581" lon="21.6741638581348" id="-41643">
		<tag k="name" v="Sennavannan" />
		<tag k="natural" v="water" />
		<tag k="ssr:stedsnr" v="479182" />
		<tag k="water" v="lake" />
	</node>
	<node lat="69.94462222506014" lon="21.924949960060296" id="-41659">
		<tag k="name" v="Samuelhaugelva" />
		<tag k="ssr:stedsnr" v="479634" />
		<tag k="waterway" v="stream" />
	</node>
	<node lat="69.54226944928222" lon="22.635374938827372" id="-41670">
		<tag k="name" v="Heisojohka" />
		<tag k="name:se" v="Heisojohka" />
		<tag k="old_name:se" v="Heisujåkka" />
		<tag k="ssr:stedsnr" v="382760" />
		<tag k="waterway" v="stream" />
	</node>
	<node lat="69.57147778195922" lon="22.716519366699377" id="-41672">
		<tag k="name" v="Ballanjárnjárga" />
		<tag k="name:se" v="Ballanjárnjárga" />
		<tag k="natural" v="cape" />
		<tag k="old_name:se" v="Ballanjarnjarga" />
		<tag k="ssr:stedsnr" v="382816" />
	</node>
	<node lat="69.68169999893871" lon="22.564647157911995" id="-41673">
		<tag k="name" v="Doaresčazajohka" />
		<tag k="name:se" v="Doaresčazajohka" />
		<tag k="old_name:se" v="Doaresčaccajåkka" />
		<tag k="ssr:stedsnr" v="382855" />
		<tag k="waterway" v="stream" />
	</node>
	<node lat="69.68018611602868" lon="22.450961060986508" id="-41674">
		<tag k="name" v="Botnelva" />
		<tag k="ssr:stedsnr" v="382857" />
		<tag k="waterway" v="river" />
	</node>
	<node lat="69.83501666917034" lon="21.804647175114283" id="-41682">
		<tag k="name" v="Sørstraumelva - Árresjohka" />
		<tag k="name:no" v="Sørstraumelva" />
		<tag k="name:se" v="Árresjohka" />
		<tag k="ssr:stedsnr" v="383106" />
		<tag k="waterway" v="river" />
	</node>
	<node lat="69.97705833913153" lon="21.99024439241792" id="-41687">
		<tag k="name" v="Rundelva" />
		<tag k="ssr:stedsnr" v="383257" />
		<tag k="waterway" v="river" />
	</node>
	<node lat="69.5645583350017" lon="21.853866612734542" id="-41693">
		<tag k="name" v="Mávnnaskáidi" />
		<tag k="name:se" v="Mávnnaskáidi" />
		<tag k="natural" v="cape" />
		<tag k="ssr:stedsnr" v="383511" />
	</node>
	<node lat="70.09812222086742" lon="21.33781108366554" id="-41700">
		<tag k="name" v="Solbukt" />
		<tag k="natural" v="beach" />
		<tag k="ssr:stedsnr" v="396738" />
	</node>
	<node lat="70.0397555537915" lon="22.180580509848753" id="-41709">
		<tag k="name" v="Brødskiftelva" />
		<tag k="ssr:stedsnr" v="418511" />
		<tag k="waterway" v="stream" />
	</node>
	<node lat="70.01906667253124" lon="22.058902731294832" id="-41711">
		<tag k="name" v="Labuktelva" />
		<tag k="ssr:stedsnr" v="418564" />
		<tag k="waterway" v="stream" />
	</node>
	<node lat="69.91630000318317" lon="22.079024965653744" id="-41718">
		<tag k="name" v="Øra" />
		<tag k="natural" v="cape" />
		<tag k="ssr:stedsnr" v="418706" />
	</node>
	<node lat="69.78321944955124" lon="21.887016619272337" id="-41721">
		<tag k="name" v="Lillefossen" />
		<tag k="natural" v="waterfall" />
		<tag k="ssr:stedsnr" v="418834" />
	</node>
	<node lat="69.5930111093631" lon="22.63798882262728" id="-41722">
		<tag k="name" v="Nábárjoknjálbmi" />
		<tag k="name:se" v="Nábárjoknjálbmi" />
		<tag k="natural" v="bay" />
		<tag k="old_name:se" v="Nabarjåknjalbmi" />
		<tag k="ssr:stedsnr" v="443802" />
	</node>
	<node lat="69.75636111131831" lon="21.98316383478494" id="-41727">
		<tag k="alt_name" v="Nilsvatnet" />
		<tag k="name" v="Nils-vannet" />
		<tag k="natural" v="water" />
		<tag k="ssr:stedsnr" v="444021" />
	</node>
	<node lat="69.95651389017522" lon="22.073569405347342" id="-41729">
		<tag k="name" v="Kainoelva" />
		<tag k="ssr:stedsnr" v="444115" />
		<tag k="waterway" v="river" />
	</node>
	<node lat="70.08854444223667" lon="22.076991624039344" id="-41733">
		<tag k="name" v="Ragnarvatnet" />
		<tag k="natural" v="water" />
		<tag k="ssr:stedsnr" v="444283" />
	</node>
	<node lat="70.04710000256715" lon="22.134902741665975" id="-41738">
		<tag k="alt_name" v="Gohppevannet" />
		<tag k="name" v="Koppivatnet" />
		<tag k="natural" v="water" />
		<tag k="ssr:stedsnr" v="444437" />
	</node>
	<node lat="70.01436944175086" lon="21.700577736531717" id="-41761">
		<tag k="name" v="Buktevannet" />
		<tag k="natural" v="water" />
		<tag k="ssr:stedsnr" v="479168" />
	</node>
	<node lat="69.90862222299538" lon="22.047769397858" id="-41763">
		<tag k="name" v="Nervannet" />
		<tag k="natural" v="water" />
		<tag k="ssr:stedsnr" v="479567" />
	</node>
	<node lat="69.68790000179692" lon="22.45934715284673" id="-41766">
		<tag k="name" v="Doaresjohka" />
		<tag k="name:se" v="Doaresjohka" />
		<tag k="old_name:se" v="Doaresjåkka" />
		<tag k="ssr:stedsnr" v="503807" />
		<tag k="waterway" v="stream" />
	</node>
	<node lat="69.63153055982659" lon="22.68700548800622" id="-41768">
		<tag k="name" v="Sneđđetjokgiera" />
		<tag k="name:se" v="Sneđđetjokgiera" />
		<tag k="old_name:se" v="Sneđđetjåkgiera" />
		<tag k="ssr:stedsnr" v="503775" />
		<tag k="waterway" v="stream" />
	</node>
	<node lat="69.78710682288724" lon="21.920382771122174" id="-41772">
		<tag k="fixme" v="multiple name tags, choose one and add the other to alt_name" />
		<tag k="name" v="Navitfossen;Fossen - Návetgorži - Navetankurkkia" />
		<tag k="name:fkv" v="Navetankurkkia" />
		<tag k="name:no" v="Navitfossen;Fossen" />
		<tag k="name:se" v="Návetgorži" />
		<tag k="natural" v="waterfall" />
		<tag k="ssr:stedsnr" v="504007" />
	</node>
	<node lat="69.94405556041073" lon="21.964094394182542" id="-41777">
		<tag k="alt_name" v="Sørkjosvatnet" />
		<tag k="name" v="Sørkjosvannet" />
		<tag k="natural" v="water" />
		<tag k="ssr:stedsnr" v="504106" />
	</node>
	<node lat="69.57561111046851" lon="21.7681332982314" id="-41782">
		<tag k="name" v="Stuorahanjohka" />
		<tag k="name:se" v="Stuorahanjohka" />
		<tag k="ssr:stedsnr" v="504471" />
		<tag k="waterway" v="stream" />
	</node>
	<node lat="69.59997222135803" lon="22.020805516548293" id="-41783">
		<tag k="name" v="Golggotjávri" />
		<tag k="name:se" v="Golggotjávri" />
		<tag k="natural" v="water" />
		<tag k="ssr:stedsnr" v="504474" />
		<tag k="water" v="lake" />
	</node>
	<node lat="69.60886389434344" lon="22.7616082597701" id="-41784">
		<tag k="name" v="Hoallojohka" />
		<tag k="name:se" v="Hoallojohka" />
		<tag k="old_name:se" v="Hoallujåkka" />
		<tag k="ssr:stedsnr" v="504812" />
		<tag k="waterway" v="river" />
	</node>
	<node lat="69.71600676456086" lon="22.2023567235352" id="-41789">
		<tag k="alt_name:no" v="Rundvatnet" />
		<tag k="name" v="Rundvannet - Jorbajávri" />
		<tag k="name:no" v="Rundvannet" />
		<tag k="name:se" v="Jorbajávri" />
		<tag k="natural" v="water" />
		<tag k="ssr:stedsnr" v="505466" />
	</node>
	<node lat="69.84815000129899" lon="22.249241604625148" id="-41791">
		<tag k="name" v="Flintvatna - Ráššavuolesjávri" />
		<tag k="name:no" v="Flintvatna" />
		<tag k="name:se" v="Ráššavuolesjávri" />
		<tag k="natural" v="water" />
		<tag k="old_name:se" v="Raššavuolesjavri" />
		<tag k="ssr:stedsnr" v="505480" />
		<tag k="water" v="lake" />
	</node>
	<node lat="69.92960555501163" lon="21.684661085067365" id="-41802">
		<tag k="alt_name" v="Rundvatnet" />
		<tag k="name" v="Rundvannet" />
		<tag k="natural" v="water" />
		<tag k="ssr:stedsnr" v="686133" />
	</node>
	<node lat="70.21846389287438" lon="21.218174969202973" id="-41805">
		<tag k="name" v="Storvannet" />
		<tag k="natural" v="water" />
		<tag k="ssr:stedsnr" v="686179" />
	</node>
	<node lat="70.12875833954116" lon="21.91092217502469" id="-41810">
		<tag k="alt_name" v="Ternevannet" />
		<tag k="name" v="Ternvatnet" />
		<tag k="natural" v="water" />
		<tag k="ssr:stedsnr" v="686272" />
	</node>
	<node lat="69.89374444579363" lon="21.911549953123796" id="-41826">
		<tag k="name" v="Trollhollvannet" />
		<tag k="natural" v="water" />
		<tag k="ssr:stedsnr" v="539551" />
	</node>
	<node lat="69.50548888780453" lon="22.398422149542863" id="-41832">
		<tag k="name" v="Hárvvesjohka" />
		<tag k="name:se" v="Hárvvesjohka" />
		<tag k="old_name:se" v="Harvesjåkka" />
		<tag k="ssr:stedsnr" v="686785" />
		<tag k="waterway" v="stream" />
	</node>
	<node lat="69.90638889279097" lon="22.071811059386803" id="-41833">
		<tag k="name" v="Eliasholmen" />
		<tag k="place" v="islet" />
		<tag k="ssr:stedsnr" v="539706" />
	</node>
	<node lat="69.75291111299714" lon="21.930983293137498" id="-41836">
		<tag k="name" v="Andrevannet" />
		<tag k="natural" v="water" />
		<tag k="ssr:stedsnr" v="539781" />
	</node>
	<node lat="69.571752782456" lon="22.397997160854835" id="-41838">
		<tag k="name" v="Nábárvákkejávri" />
		<tag k="name:se" v="Nábárvákkejávri" />
		<tag k="natural" v="water" />
		<tag k="old_name:se" v="Nabarvaggejavri" />
		<tag k="ssr:stedsnr" v="686814" />
		<tag k="water" v="lake" />
	</node>
	<node lat="69.55079166700024" lon="22.3683805052281" id="-41844">
		<tag k="loc_name:fkv" v="Sueikkajärvi" />
		<tag k="name" v="Šuoikkátjávri - Hyttysenjärvi" />
		<tag k="name:fkv" v="Hyttysenjärvi" />
		<tag k="name:se" v="Šuoikkátjávri" />
		<tag k="natural" v="water" />
		<tag k="old_name:se" v="Šuoikatjavri;Šuoikkatjávri" />
		<tag k="ssr:stedsnr" v="686829" />
		<tag k="water" v="lake" />
	</node>
	<node lat="69.91381944377433" lon="21.572452749503437" id="-41847">
		<tag k="name" v="Ytre Sommersetelva" />
		<tag k="ssr:stedsnr" v="540074" />
		<tag k="waterway" v="stream" />
	</node>
	<node lat="69.9250916656911" lon="21.66111939615654" id="-41848">
		<tag k="name" v="Gammelgårdelva" />
		<tag k="ssr:stedsnr" v="540081" />
		<tag k="waterway" v="stream" />
	</node>
	<node lat="69.73366667215099" lon="22.156380513578284" id="-41849">
		<tag k="name" v="Elveneset" />
		<tag k="natural" v="cape" />
		<tag k="ssr:stedsnr" v="540708" />
	</node>
	<node lat="69.71515833494333" lon="22.39194717559745" id="-41855">
		<tag k="name" v="Gearbbetjávrrit" />
		<tag k="name:se" v="Gearbbetjávrrit" />
		<tag k="natural" v="water" />
		<tag k="old_name:se" v="Gærbetjavrit" />
		<tag k="ssr:stedsnr" v="686879" />
		<tag k="water" v="lake" />
	</node>
	<node lat="69.91613610926296" lon="22.375408287699344" id="-41856">
		<tag k="name" v="Suorregeađggeluobbalat" />
		<tag k="name:se" v="Suorregeađggeluobbalat" />
		<tag k="natural" v="water" />
		<tag k="old_name:se" v="Suorregæđgeluobbalat" />
		<tag k="ssr:stedsnr" v="687057" />
		<tag k="water" v="lake" />
	</node>
	<node lat="69.8615583383085" lon="22.019702731836826" id="-41857">
		<tag k="name" v="Oterelva" />
		<tag k="ssr:stedsnr" v="687078" />
		<tag k="waterway" v="stream" />
	</node>
	<node lat="69.98763055253846" lon="21.949155512221243" id="-41864">
		<tag k="name" v="Iselva" />
		<tag k="ssr:stedsnr" v="687236" />
		<tag k="waterway" v="stream" />
	</node>
	<node lat="69.70503055734687" lon="21.986908284728546" id="-41872">
		<tag k="name" v="Buollánjohka" />
		<tag k="name:se" v="Buollánjohka" />
		<tag k="ssr:stedsnr" v="687468" />
		<tag k="waterway" v="stream" />
	</node>
	<node lat="70.01199097039827" lon="21.63835586629761" id="-41873">
		<tag k="alt_name:no" v="Steinvatnet" />
		<tag k="name" v="Steinvannet - Geađgejávri" />
		<tag k="name:no" v="Steinvannet" />
		<tag k="name:se" v="Geađgejávri" />
		<tag k="natural" v="water" />
		<tag k="old_name:se" v="Gæđgejavri" />
		<tag k="ssr:stedsnr" v="687471" />
	</node>
	<node lat="69.63842500183424" lon="22.00702494623143" id="-41876">
		<tag k="name" v="Náránašjávrrit" />
		<tag k="name:se" v="Náránašjávrrit" />
		<tag k="natural" v="water" />
		<tag k="ssr:stedsnr" v="564507" />
		<tag k="water" v="lake" />
	</node>
	<node lat="69.84443055838594" lon="22.11061663447079" id="-41878">
		<tag k="name" v="Ringvatnet - Hoaŋkajávri" />
		<tag k="name:no" v="Ringvatnet" />
		<tag k="name:se" v="Hoaŋkajávri" />
		<tag k="natural" v="water" />
		<tag k="ssr:stedsnr" v="565077" />
	</node>
	<node lat="70.13702499660991" lon="21.48209996687314" id="-41880">
		<tag k="name" v="Svartvatna" />
		<tag k="natural" v="water" />
		<tag k="ssr:stedsnr" v="565310" />
	</node>
	<node lat="69.98815833615127" lon="21.46032495804703" id="-41884">
		<tag k="alt_name" v="Laksevannet" />
		<tag k="name" v="Laksvatnet" />
		<tag k="natural" v="water" />
		<tag k="ssr:stedsnr" v="565911" />
	</node>
	<node lat="69.98385555305822" lon="21.480983311241932" id="-41885">
		<tag k="fixme" v="multiple name tags, choose one and add the other to alt_name" />
		<tag k="name" v="Laksvasselva;Valabotnelva" />
		<tag k="ssr:stedsnr" v="565912" />
		<tag k="waterway" v="stream" />
	</node>
	<node lat="70.11092222312045" lon="21.57501385771044" id="-41904">
		<tag k="name" v="Badevannan" />
		<tag k="natural" v="water" />
		<tag k="ssr:stedsnr" v="593814" />
	</node>
	<node lat="69.90571389359248" lon="22.05304718403308" id="-41921">
		<tag k="name" v="Skjeftekjosen" />
		<tag k="natural" v="bay" />
		<tag k="ssr:stedsnr" v="600703" />
	</node>
	<node lat="69.7515250051405" lon="22.138455500025753" id="-41923">
		<tag k="name" v="Pekkajávri" />
		<tag k="name:se" v="Pekkajávri" />
		<tag k="natural" v="water" />
		<tag k="ssr:stedsnr" v="600710" />
	</node>
	<node lat="69.92023611578509" lon="22.067430524472513" id="-41924">
		<tag k="name" v="Jonasvannet" />
		<tag k="natural" v="water" />
		<tag k="ssr:stedsnr" v="600712" />
	</node>
	<node lat="69.74847777463381" lon="21.75544719254487" id="-41930">
		<tag k="name" v="Áibmejohka" />
		<tag k="name:se" v="Áibmejohka" />
		<tag k="ssr:stedsnr" v="625304" />
		<tag k="waterway" v="stream" />
	</node>
	<node lat="69.5144805613213" lon="22.349977721400958" id="-41931">
		<tag k="name" v="Biennajohka" />
		<tag k="name:se" v="Biennajohka" />
		<tag k="old_name:se" v="Bienna jåkka" />
		<tag k="ssr:stedsnr" v="625801" />
		<tag k="waterway" v="stream" />
	</node>
	<node lat="69.72475555784555" lon="21.837169415661236" id="-41936">
		<tag k="alt_name:se" v="Govdajohka" />
		<tag k="name" v="Govdavággejohka" />
		<tag k="name:se" v="Govdavággejohka" />
		<tag k="old_name:se" v="Govdavággijohka" />
		<tag k="ssr:stedsnr" v="626307" />
		<tag k="waterway" v="river" />
	</node>
	<node lat="69.72196666851248" lon="22.164894404445416" id="-41938">
		<tag k="name" v="Knutevannet - Salmijärvi" />
		<tag k="name:fkv" v="Salmijärvi" />
		<tag k="name:no" v="Knutevannet" />
		<tag k="natural" v="water" />
		<tag k="ssr:stedsnr" v="626312" />
	</node>
	<node lat="69.7309305567812" lon="21.838241618102106" id="-41939">
		<tag k="name" v="Fárppaljohka" />
		<tag k="name:se" v="Fárppaljohka" />
		<tag k="ssr:stedsnr" v="626317" />
		<tag k="waterway" v="stream" />
	</node>
	<node lat="69.69591945014483" lon="21.854599953094883" id="-41941">
		<tag k="name" v="Veattoaivvejávri" />
		<tag k="name:se" v="Veattoaivvejávri" />
		<tag k="natural" v="water" />
		<tag k="ssr:stedsnr" v="626499" />
		<tag k="water" v="lake" />
	</node>
	<node lat="70.16805000442224" lon="21.53830553262065" id="-41947">
		<tag k="name" v="Kanastindvannet" />
		<tag k="natural" v="water" />
		<tag k="ssr:stedsnr" v="653785" />
	</node>
	<node lat="69.9349500014109" lon="21.691130516527426" id="-41951">
		<tag k="name" v="Lomvannet" />
		<tag k="natural" v="water" />
		<tag k="ssr:stedsnr" v="660109" />
	</node>
	<node lat="69.89964444703436" lon="21.552269417945872" id="-41957">
		<tag k="name" v="Storbukteidet" />
		<tag k="place" v="locality" />
		<tag k="ssr:stedsnr" v="661035" />
	</node>
	<node lat="70.03790833357573" lon="21.625488856128104" id="-41959">
		<tag k="name" v="Gambuktvannet" />
		<tag k="natural" v="water" />
		<tag k="ssr:stedsnr" v="661084" />
	</node>
	<node lat="70.01775555890583" lon="21.899297176389318" id="-41963">
		<tag k="name" v="Vassneselva" />
		<tag k="ssr:stedsnr" v="661630" />
		<tag k="waterway" v="stream" />
	</node>
	<node lat="69.70636692785514" lon="22.32338792564599" id="-41968">
		<tag k="name" v="Ørretvannet - Dámmotjávri - Tammukkajärvi" />
		<tag k="name:fkv" v="Tammukkajärvi" />
		<tag k="name:no" v="Ørretvannet" />
		<tag k="name:se" v="Dámmotjávri" />
		<tag k="natural" v="water" />
		<tag k="old_name:se" v="Dabmutjavri" />
		<tag k="ssr:stedsnr" v="685842" />
	</node>
	<node lat="69.9187166652234" lon="22.047047177499554" id="-41969">
		<tag k="alt_name" v="Svanevatnet" />
		<tag k="name" v="Svanevannet" />
		<tag k="natural" v="water" />
		<tag k="ssr:stedsnr" v="686139" />
	</node>
	<node lat="69.6068250053183" lon="22.066599952548692" id="-41972">
		<tag k="name" v="Bajimus Mollešjávri" />
		<tag k="name:se" v="Bajimus Mollešjávri" />
		<tag k="natural" v="water" />
		<tag k="old_name:se" v="Mollešjávri, bajimus" />
		<tag k="ssr:stedsnr" v="686487" />
	</node>
	<node lat="69.73223888876029" lon="22.173347164029447" id="-41978">
		<tag k="name" v="Sæterholet" />
		<tag k="place" v="locality" />
		<tag k="ssr:stedsnr" v="687295" />
	</node>
	<node lat="70.16620832978873" lon="21.48007775111178" id="-41996">
		<tag k="name" v="Bukta" />
		<tag k="natural" v="bay" />
		<tag k="ssr:stedsnr" v="897993" />
	</node>
	<node lat="70.17542222430545" lon="21.4813222060059" id="-41997">
		<tag k="name" v="Elveneset" />
		<tag k="natural" v="cape" />
		<tag k="ssr:stedsnr" v="897995" />
	</node>
	<node lat="70.06648889008702" lon="21.972633305100956" id="-42001">
		<tag k="name" v="Plasselva" />
		<tag k="ssr:stedsnr" v="715413" />
		<tag k="waterway" v="stream" />
	</node>
	<node lat="70.13791667057254" lon="21.57388884795988" id="-42005">
		<tag k="name" v="Eidevannan" />
		<tag k="natural" v="water" />
		<tag k="ssr:stedsnr" v="715907" />
		<tag k="water" v="lake" />
	</node>
	<node lat="69.92521388562837" lon="21.68414441746153" id="-42013">
		<tag k="name" v="Gussaláttu" />
		<tag k="name:se" v="Gussaláttu" />
		<tag k="natural" v="water" />
		<tag k="ssr:stedsnr" v="722081" />
	</node>
	<node lat="69.83498056065822" lon="21.80908329193437" id="-42014">
		<tag k="name" v="Duomasnjárga" />
		<tag k="name:se" v="Duomasnjárga" />
		<tag k="natural" v="cape" />
		<tag k="ssr:stedsnr" v="722170" />
	</node>
	<node lat="69.92739444293548" lon="22.058263838880123" id="-42018">
		<tag k="name" v="Bergstilla" />
		<tag k="natural" v="water" />
		<tag k="ssr:stedsnr" v="722576" />
		<tag k="water" v="lake" />
	</node>
	<node lat="70.03114444825347" lon="22.05177773477769" id="-42021">
		<tag k="name" v="Lillelva" />
		<tag k="ssr:stedsnr" v="722717" />
		<tag k="waterway" v="stream" />
	</node>
	<node lat="69.84179722698514" lon="21.865330519377356" id="-42026">
		<tag k="name" v="Tørrelva" />
		<tag k="ssr:stedsnr" v="903223" />
		<tag k="waterway" v="stream" />
	</node>
	<node lat="69.76075833903731" lon="21.992022181634468" id="-42035">
		<tag k="alt_name" v="Lomvatnet" />
		<tag k="name" v="Lomvannet" />
		<tag k="natural" v="water" />
		<tag k="ssr:stedsnr" v="747013" />
	</node>
	<node lat="69.56996110866928" lon="21.806666634799818" id="-42044">
		<tag k="name" v="Sálbmejohka" />
		<tag k="name:se" v="Sálbmejohka" />
		<tag k="old_name:se" v="Salbmejohka" />
		<tag k="ssr:stedsnr" v="747466" />
		<tag k="waterway" v="stream" />
	</node>
	<node lat="70.01232222003559" lon="21.696313848599623" id="-42046">
		<tag k="name" v="Gamvannet" />
		<tag k="natural" v="water" />
		<tag k="ssr:stedsnr" v="904114" />
	</node>
	<node lat="70.11441111691872" lon="21.62321384769798" id="-42075">
		<tag k="name" v="Småvannan" />
		<tag k="natural" v="water" />
		<tag k="ssr:stedsnr" v="776859" />
	</node>
	<node lat="70.12305278207086" lon="21.603258315025634" id="-42076">
		<tag k="name" v="Geinnodatjávri" />
		<tag k="name:se" v="Geinnodatjávri" />
		<tag k="natural" v="water" />
		<tag k="ssr:stedsnr" v="776901" />
		<tag k="water" v="lake" />
	</node>
	<node lat="69.83468055368273" lon="22.013258294268375" id="-42078">
		<tag k="name" v="Øvre Klubbvannet" />
		<tag k="natural" v="water" />
		<tag k="ssr:stedsnr" v="782472" />
	</node>
	<node lat="70.08184444192555" lon="21.919588846943224" id="-42091">
		<tag k="name" v="Langneselva" />
		<tag k="ssr:stedsnr" v="808291" />
		<tag k="waterway" v="stream" />
	</node>
	<node lat="70.06490000112862" lon="22.083288838762343" id="-42092">
		<tag k="alt_name" v="Tverrelva, nedre" />
		<tag k="name" v="Nedre Tverrelva" />
		<tag k="ssr:stedsnr" v="808440" />
		<tag k="waterway" v="stream" />
	</node>
	<node lat="69.75086944712656" lon="22.343797158390032" id="-42095">
		<tag k="name" v="Brottvatna - Ruossavákkejávrrit" />
		<tag k="name:no" v="Brottvatna" />
		<tag k="name:se" v="Ruossavákkejávrrit" />
		<tag k="natural" v="water" />
		<tag k="old_name:se" v="Ruossavaggejavrit" />
		<tag k="ssr:stedsnr" v="808454" />
		<tag k="water" v="lake" />
	</node>
	<node lat="69.60890000133264" lon="21.90681106409928" id="-42096">
		<tag k="name" v="Njárgajávri" />
		<tag k="name:se" v="Njárgajávri" />
		<tag k="natural" v="water" />
		<tag k="ssr:stedsnr" v="808456" />
		<tag k="water" v="lake" />
	</node>
	<node lat="69.84075833767012" lon="21.612705532883464" id="-42099">
		<tag k="name" v="Goahtejávri" />
		<tag k="name:se" v="Goahtejávri" />
		<tag k="natural" v="water" />
		<tag k="ssr:stedsnr" v="808786" />
	</node>
	<node lat="69.72991944456318" lon="22.423194387517878" id="-42100">
		<tag k="name" v="Áideguračohkajávri" />
		<tag k="name:se" v="Áideguračohkajávri" />
		<tag k="natural" v="water" />
		<tag k="old_name:se" v="Aideguračåkkajavri" />
		<tag k="ssr:stedsnr" v="808904" />
	</node>
</osm>
