<?xml version="1.0" encoding="UTF-8"?>
<osm version="0.6" generator="osmapis">
	<node lat="69.78870833420883" lon="22.058666624942443" id="-100068">
		<tag k="alt_name" v="Storbukta, in" />
		<tag k="fixme" v="multiple name tags, choose one and add the other to alt_name" />
		<tag k="name" v="Storbukt;Indre Storbukta" />
		<tag k="place" v="farm" />
		<tag k="ssr:stedsnr" v="19010" />
	</node>
	<node lat="69.997972664894" lon="21.456824422221125" id="-100074">
		<tag k="alt_name" v="Djupanvik" />
		<tag k="name" v="Djupanvika" />
		<tag k="old_name" v="Jupervik indre" />
		<tag k="place" v="farm" />
		<tag k="ssr:stedsnr" v="19894" />
	</node>
	<node lat="70.0126416693176" lon="21.300355525790682" id="-100077">
		<tag k="name" v="Sand" />
		<tag k="place" v="locality" />
		<tag k="ssr:stedsnr" v="45001" />
	</node>
	<node lat="70.00833611344285" lon="21.253563852477768" id="-100078">
		<tag k="name" v="Sørvoll" />
		<tag k="place" v="locality" />
		<tag k="ssr:stedsnr" v="45024" />
	</node>
	<node lat="69.95355000642004" lon="21.92903050539016" id="-100082">
		<tag k="name" v="Hampland" />
		<tag k="place" v="farm" />
		<tag k="ssr:stedsnr" v="46279" />
	</node>
	<node lat="69.89440833772817" lon="21.8939305041113" id="-100101">
		<tag k="name" v="Bankenes" />
		<tag k="place" v="farm" />
		<tag k="ssr:stedsnr" v="54583" />
	</node>
	<node lat="70.01498611445768" lon="21.56725551348766" id="-100113">
		<tag k="name" v="Skagen" />
		<tag k="place" v="locality" />
		<tag k="ssr:stedsnr" v="229730" />
	</node>
	<node lat="69.95324207833805" lon="21.99783284324659" id="-100135">
		<tag k="name" v="Buktenes" />
		<tag k="place" v="hamlet" />
		<tag k="ssr:stedsnr" v="86925" />
	</node>
	<node lat="69.91325272925812" lon="22.087952389215392" id="-100136">
		<tag k="alt_name" v="Kåsen" />
		<tag k="name" v="Kaasen" />
		<tag k="place" v="farm" />
		<tag k="ssr:stedsnr" v="232725" />
	</node>
	<node lat="69.98573830725108" lon="22.04430800341689" id="-100173">
		<tag k="name" v="Steinhjemmet" />
		<tag k="place" v="locality" />
		<tag k="ssr:stedsnr" v="236629" />
	</node>
	<node lat="69.77820278070313" lon="21.91200550218022" id="-100183">
		<tag k="historic" v="shieling" />
		<tag k="name" v="Sommerseter" />
		<tag k="place" v="isolated_dwelling" />
		<tag k="ssr:stedsnr" v="236828" />
	</node>
	<node lat="69.96755833213281" lon="22.040938847390695" id="-100190">
		<tag k="name" v="Småland" />
		<tag k="place" v="farm" />
		<tag k="ssr:stedsnr" v="115609" />
	</node>
	<node lat="70.05317222150224" lon="21.847294393260306" id="-100198">
		<tag k="name" v="Trettestykket" />
		<tag k="place" v="farm" />
		<tag k="ssr:stedsnr" v="236759" />
	</node>
	<node lat="69.75393826664805" lon="22.113081080956867" id="-100212">
		<tag k="loc_name:fkv" v="Tanganen" />
		<tag k="name" v="Tangneslandet - Daŋasgáddi" />
		<tag k="name:no" v="Tangneslandet" />
		<tag k="name:se" v="Daŋasgáddi" />
		<tag k="place" v="hamlet" />
		<tag k="ssr:stedsnr" v="140018" />
	</node>
	<node lat="69.83872500175829" lon="21.937677730721447" id="-100214">
		<tag k="name" v="Bakkeli" />
		<tag k="place" v="farm" />
		<tag k="ssr:stedsnr" v="140085" />
	</node>
	<node lat="69.82318611530886" lon="21.957097184892103" id="-100215">
		<tag k="name" v="Litlebakken" />
		<tag k="place" v="farm" />
		<tag k="ssr:stedsnr" v="140086" />
	</node>
	<node lat="70.06717778318796" lon="21.988522177160707" id="-100219">
		<tag k="name" v="Bergli" />
		<tag k="place" v="farm" />
		<tag k="ssr:stedsnr" v="140438" />
	</node>
	<node lat="70.09308888795462" lon="21.980591628357896" id="-100223">
		<tag k="name" v="Gambukta" />
		<tag k="place" v="isolated_dwelling" />
		<tag k="ssr:stedsnr" v="154801" />
	</node>
	<node lat="69.8391361130521" lon="21.888672177454502" id="-100236">
		<tag k="name" v="Strømstad" />
		<tag k="place" v="farm" />
		<tag k="ssr:stedsnr" v="175512" />
	</node>
	<node lat="70.03685555487975" lon="22.201099956739196" id="-100238">
		<tag k="name" v="Fjellstad" />
		<tag k="place" v="farm" />
		<tag k="ssr:stedsnr" v="175533" />
	</node>
	<node lat="69.93428333799466" lon="22.044247184677687" id="-100249">
		<tag k="name" v="Stormo" />
		<tag k="place" v="farm" />
		<tag k="ssr:stedsnr" v="176612" />
	</node>
	<node lat="69.96782362307094" lon="22.039411082762875" id="-100257">
		<tag k="name" v="Småland" />
		<tag k="place" v="farm" />
		<tag k="ssr:stedsnr" v="201217" />
	</node>
	<node lat="69.76366944272091" lon="22.002002739204706" id="-100268">
		<tag k="name" v="Ytre Lillestraumen" />
		<tag k="place" v="farm" />
		<tag k="ssr:stedsnr" v="208893" />
	</node>
	<node lat="69.83220000270033" lon="21.867399948342868" id="-100315">
		<tag k="name" v="Skyggedal" />
		<tag k="place" v="farm" />
		<tag k="ssr:stedsnr" v="444079" />
	</node>
	<node lat="69.94825555948522" lon="21.98966662097225" id="-100316">
		<tag k="name" v="Kilenga" />
		<tag k="place" v="farm" />
		<tag k="ssr:stedsnr" v="444121" />
	</node>
	<node lat="69.94666399116363" lon="21.916759530456968" id="-100317">
		<tag k="name" v="Kviteberg" />
		<tag k="place" v="farm" />
		<tag k="ssr:stedsnr" v="444132" />
	</node>
	<node lat="69.97556666447332" lon="22.038116633303325" id="-100323">
		<tag k="name" v="Grånes" />
		<tag k="place" v="farm" />
		<tag k="ssr:stedsnr" v="444223" />
	</node>
	<node lat="70.06383611590192" lon="21.960769417697055" id="-100334">
		<tag k="name" v="Olderbakken" />
		<tag k="place" v="farm" />
		<tag k="ssr:stedsnr" v="444422" />
	</node>
	<node lat="70.0728916671781" lon="21.998752736624382" id="-100337">
		<tag k="name" v="Elvegård" />
		<tag k="place" v="farm" />
		<tag k="ssr:stedsnr" v="444429" />
	</node>
	<node lat="69.91417048680393" lon="22.086533817903277" id="-100357">
		<tag k="name" v="Kaasen gård" />
		<tag k="ssr:stedsnr" v="262159" />
		<tag k="tourism" v="guest_house" />
	</node>
	<node lat="69.73995278376348" lon="22.03766106592331" id="-100368">
		<tag k="name" v="Toppelbukt" />
		<tag k="place" v="hamlet" />
		<tag k="ssr:stedsnr" v="270990" />
	</node>
	<node lat="69.87054388439901" lon="21.939436552309775" id="-100372">
		<tag k="name" v="Ravelsnes" />
		<tag k="place" v="farm" />
		<tag k="ssr:stedsnr" v="450608" />
	</node>
	<node lat="69.91455070163667" lon="22.0850815135379" id="-100382">
		<tag k="name" v="Kåsen" />
		<tag k="place" v="hamlet" />
		<tag k="ssr:stedsnr" v="294646" />
	</node>
	<node lat="70.0045972244837" lon="21.713455520555264" id="-100394">
		<tag k="name" v="Dalan" />
		<tag k="place" v="farm" />
		<tag k="ssr:stedsnr" v="297106" />
	</node>
	<node lat="69.91078888810193" lon="21.803197173271926" id="-100410">
		<tag k="name" v="Nøkkeleidet - Muotkádat" />
		<tag k="name:no" v="Nøkkeleidet" />
		<tag k="name:se" v="Muotkádat" />
		<tag k="place" v="farm" />
		<tag k="ssr:stedsnr" v="322139" />
	</node>
	<node lat="69.84108611244196" lon="21.926247177831648" id="-100423">
		<tag k="name" v="Myrstad" />
		<tag k="place" v="farm" />
		<tag k="ssr:stedsnr" v="323109" />
	</node>
	<node lat="69.83455555987621" lon="21.857783297102642" id="-100424">
		<tag k="name" v="Leira" />
		<tag k="place" v="farm" />
		<tag k="ssr:stedsnr" v="323092" />
	</node>
	<node lat="69.89695832471256" lon="21.64358127054058" id="-100430">
		<tag k="name" v="Berg" />
		<tag k="place" v="farm" />
		<tag k="ssr:stedsnr" v="348273" />
	</node>
	<node lat="69.83134722146546" lon="21.958174945374044" id="-100456">
		<tag k="name" v="Heimstad" />
		<tag k="place" v="farm" />
		<tag k="ssr:stedsnr" v="383102" />
	</node>
	<node lat="69.79505000518009" lon="22.041113837006243" id="-100458">
		<tag k="name" v="Perten" />
		<tag k="place" v="farm" />
		<tag k="ssr:stedsnr" v="383115" />
	</node>
	<node lat="69.76243611078226" lon="22.007513845715412" id="-100462">
		<tag k="alt_name" v="Indre Lillestraumen;Litlestraumen" />
		<tag k="name" v="Indre Straumen" />
		<tag k="place" v="farm" />
		<tag k="ssr:stedsnr" v="383005" />
	</node>
	<node lat="69.76615000174428" lon="22.079055513198337" id="-100463">
		<tag k="name" v="Geasseorrit" />
		<tag k="name:se" v="Geasseorrit" />
		<tag k="place" v="farm" />
		<tag k="ssr:stedsnr" v="383008" />
	</node>
	<node lat="69.84366468457021" lon="21.898812403470107" id="-100466">
		<tag k="name" v="Nordstraumen" />
		<tag k="place" v="farm" />
		<tag k="ssr:stedsnr" v="383072" />
	</node>
	<node lat="69.73430278139548" lon="22.0831555164336" id="-100468">
		<tag k="name" v="Njemenjáiku - Niemenaikku" />
		<tag k="name:fkv" v="Niemenaikku" />
		<tag k="name:se" v="Njemenjáiku" />
		<tag k="place" v="hamlet" />
		<tag k="ssr:stedsnr" v="383308" />
	</node>
	<node lat="70.02899722509733" lon="22.09431661726179" id="-100471">
		<tag k="loc_name:se" v="Duikkáš" />
		<tag k="name" v="Alteidet" />
		<tag k="name:no" v="Alteidet" />
		<tag k="place" v="quarter" />
		<tag k="ssr:stedsnr" v="383508" />
	</node>
	<node lat="69.84891984930765" lon="22.028119302858947" id="-100482">
		<tag k="name" v="Badderbotn - Báttárbahta - Paattarinperä" />
		<tag k="name:fkv" v="Paattarinperä" />
		<tag k="name:no" v="Badderbotn" />
		<tag k="name:se" v="Báttárbahta" />
		<tag k="place" v="farm" />
		<tag k="ssr:stedsnr" v="470060" />
	</node>
	<node lat="69.874641671166" lon="21.913169408061613" id="-100485">
		<tag k="name" v="Steinnes" />
		<tag k="place" v="farm" />
		<tag k="ssr:stedsnr" v="470964" />
	</node>
	<node lat="70.09968055542875" lon="21.601480525188588" id="-100499">
		<tag k="name" v="Løkeng" />
		<tag k="place" v="farm" />
		<tag k="ssr:stedsnr" v="472841" />
	</node>
	<node lat="70.01437773667311" lon="22.054019773837698" id="-100518">
		<tag k="name" v="Søndre Alteidet" />
		<tag k="place" v="farm" />
		<tag k="ssr:stedsnr" v="418665" />
	</node>
	<node lat="69.76437325437291" lon="22.0628331210086" id="-100550">
		<tag k="alt_name:no" v="Laukvika;Løkvik" />
		<tag k="name" v="Løkvika - Kesori" />
		<tag k="name:fkv" v="Kesori" />
		<tag k="name:no" v="Løkvika" />
		<tag k="place" v="farm" />
		<tag k="ssr:stedsnr" v="444003" />
	</node>
	<node lat="69.81899999998309" lon="21.9837777458192" id="-100551">
		<tag k="loc_name:fkv" v="Vuorenranta" />
		<tag k="name" v="Årøylandet" />
		<tag k="name:no" v="Årøylandet" />
		<tag k="place" v="farm" />
		<tag k="ssr:stedsnr" v="444098" />
	</node>
	<node lat="69.99890277917117" lon="22.03543051439645" id="-100552">
		<tag k="name" v="Storsletta" />
		<tag k="place" v="farm" />
		<tag k="ssr:stedsnr" v="444202" />
	</node>
	<node lat="69.99635277472112" lon="21.684177741088632" id="-100554">
		<tag k="alt_name" v="Dunvika" />
		<tag k="name" v="Dunvik" />
		<tag k="place" v="farm" />
		<tag k="ssr:stedsnr" v="444206" />
	</node>
	<node lat="70.10683273022086" lon="21.361848769971747" id="-100560">
		<tag k="name" v="Været - Vearra" />
		<tag k="name:no" v="Været" />
		<tag k="name:se" v="Vearra" />
		<tag k="old_name:se" v="Værra" />
		<tag k="place" v="locality" />
		<tag k="ssr:stedsnr" v="444291" />
	</node>
	<node lat="70.04298917934167" lon="21.817404544564056" id="-100562">
		<tag k="alt_name" v="Hamnebukta, yt" />
		<tag k="name" v="Ytre Hamnebukta" />
		<tag k="old_name" v="Hamnebukta" />
		<tag k="place" v="farm" />
		<tag k="ssr:stedsnr" v="444442" />
	</node>
	<node lat="69.81455555717277" lon="21.947080512684146" id="-100613">
		<tag k="name" v="Gåsnes" />
		<tag k="place" v="farm" />
		<tag k="ssr:stedsnr" v="504084" />
	</node>
	<node lat="69.86836213928294" lon="21.992261795350085" id="-100625">
		<tag k="name" v="Undereidet" />
		<tag k="place" v="farm" />
		<tag k="ssr:stedsnr" v="511567" />
	</node>
	<node lat="70.00863333194657" lon="21.619344402910155" id="-100628">
		<tag k="fixme" v="multiple name tags, choose one and add the other to alt_name" />
		<tag k="name" v="Bakkevoll;Nymoen" />
		<tag k="place" v="farm" />
		<tag k="ssr:stedsnr" v="532732" />
	</node>
	<node lat="70.01247777985044" lon="21.591172197356045" id="-100629">
		<tag k="name" v="Solberg" />
		<tag k="place" v="locality" />
		<tag k="ssr:stedsnr" v="532734" />
	</node>
	<node lat="69.742647226663" lon="21.952063857106115" id="-100644">
		<tag k="name" v="Sørfjord" />
		<tag k="place" v="farm" />
		<tag k="ssr:stedsnr" v="539782" />
	</node>
	<node lat="69.76495000564618" lon="21.906083291203824" id="-100653">
		<tag k="name" v="Solli" />
		<tag k="place" v="farm" />
		<tag k="ssr:stedsnr" v="565005" />
	</node>
	<node lat="70.00107222520585" lon="21.668277747874736" id="-100661">
		<tag k="name" v="Hønsebukta" />
		<tag k="place" v="farm" />
		<tag k="ssr:stedsnr" v="565474" />
	</node>
	<node lat="69.96706389158886" lon="21.514913857038" id="-100664">
		<tag k="name" v="Bergheim" />
		<tag k="place" v="farm" />
		<tag k="ssr:stedsnr" v="565885" />
	</node>
	<node lat="69.89678289375551" lon="21.64920053957747" id="-100667">
		<tag k="name" v="Sandnes" />
		<tag k="place" v="farm" />
		<tag k="ssr:stedsnr" v="571871" />
	</node>
	<node lat="69.84208056152293" lon="21.851533287050845" id="-100672">
		<tag k="name" v="Lyngsletta" />
		<tag k="place" v="locality" />
		<tag k="ssr:stedsnr" v="591069" />
	</node>
	<node lat="69.95872500196721" lon="22.037936063145036" id="-100692">
		<tag k="name" v="Skogeng" />
		<tag k="place" v="farm" />
		<tag k="ssr:stedsnr" v="686115" />
	</node>
	<node lat="69.94102314386004" lon="21.992942493558886" id="-100693">
		<tag k="alt_name" v="Sørkjos" />
		<tag k="name" v="Sørkjosen" />
		<tag k="place" v="farm" />
		<tag k="ssr:stedsnr" v="686116" />
	</node>
	<node lat="69.94935833756143" lon="21.921161070051674" id="-100695">
		<tag k="name" v="Solhaug" />
		<tag k="place" v="farm" />
		<tag k="ssr:stedsnr" v="686124" />
	</node>
	<node lat="69.92978888964996" lon="22.029888855180488" id="-100696">
		<tag k="name" v="Skoglund" />
		<tag k="place" v="farm" />
		<tag k="ssr:stedsnr" v="686130" />
	</node>
	<node lat="69.97028055830268" lon="21.512747194360465" id="-100725">
		<tag k="name" v="Bakke" />
		<tag k="place" v="farm" />
		<tag k="ssr:stedsnr" v="686866" />
	</node>
	<node lat="69.9645250040852" lon="21.51783329735454" id="-100726">
		<tag k="name" v="Moen" />
		<tag k="place" v="farm" />
		<tag k="ssr:stedsnr" v="686868" />
	</node>
	<node lat="69.85541388748742" lon="22.02133329634673" id="-100731">
		<tag k="name" v="Bakken" />
		<tag k="place" v="farm" />
		<tag k="ssr:stedsnr" v="687083" />
	</node>
	<node lat="69.84773889025786" lon="22.02851105637546" id="-100732">
		<tag k="name" v="Gieddenjárga" />
		<tag k="name:se" v="Gieddenjárga" />
		<tag k="place" v="farm" />
		<tag k="ssr:stedsnr" v="687091" />
	</node>
	<node lat="69.98401944883874" lon="22.048147176246207" id="-100736">
		<tag k="alt_name" v="Storslett" />
		<tag k="name" v="Storsletta" />
		<tag k="place" v="farm" />
		<tag k="ssr:stedsnr" v="687233" />
	</node>
	<node lat="69.98037698499665" lon="22.00790730765896" id="-100737">
		<tag k="alt_name" v="Laukeng" />
		<tag k="name" v="Løkeng" />
		<tag k="place" v="farm" />
		<tag k="ssr:stedsnr" v="687235" />
	</node>
	<node lat="69.73026389420579" lon="22.06886661725723" id="-100740">
		<tag k="name" v="Ørstad" />
		<tag k="place" v="farm" />
		<tag k="ssr:stedsnr" v="687289" />
	</node>
	<node lat="69.7157444417096" lon="22.126502734789554" id="-100745">
		<tag k="name" v="Vangen" />
		<tag k="place" v="farm" />
		<tag k="ssr:stedsnr" v="687454" />
	</node>
	<node lat="70.00711944364289" lon="21.62661108617921" id="-100749">
		<tag k="alt_name" v="Rappvik" />
		<tag k="name" v="Rappvika" />
		<tag k="place" v="farm" />
		<tag k="ssr:stedsnr" v="687473" />
	</node>
	<node lat="70.02314166791007" lon="21.990577739536104" id="-100750">
		<tag k="name" v="Låvan" />
		<tag k="place" v="hamlet" />
		<tag k="ssr:stedsnr" v="687481" />
	</node>
	<node lat="69.96395861848508" lon="22.039871652048" id="-100761">
		<tag k="name" v="Boberg" />
		<tag k="place" v="farm" />
		<tag k="ssr:stedsnr" v="626260" />
	</node>
	<node lat="69.72601111539997" lon="22.010855514400784" id="-100765">
		<tag k="name" v="Brennbukt" />
		<tag k="place" v="farm" />
		<tag k="ssr:stedsnr" v="626308" />
	</node>
	<node lat="70.09681088884932" lon="21.560813712721767" id="-100769">
		<tag k="name" v="Reinfjord" />
		<tag k="place" v="farm" />
		<tag k="ssr:stedsnr" v="639405" />
	</node>
	<node lat="69.98448611556583" lon="22.044791636762216" id="-100786">
		<tag k="name" v="Jørstad" />
		<tag k="place" v="locality" />
		<tag k="ssr:stedsnr" v="661635" />
	</node>
	<node lat="70.06936944613649" lon="22.02965550968709" id="-100796">
		<tag k="name" v="Lund" />
		<tag k="place" v="farm" />
		<tag k="ssr:stedsnr" v="687445" />
	</node>
	<node lat="70.03324166949807" lon="21.59042219159635" id="-100801">
		<tag k="name" v="Skjåvik" />
		<tag k="place" v="locality" />
		<tag k="ssr:stedsnr" v="714708" />
	</node>
	<node lat="70.01354444985682" lon="21.90524995217248" id="-100812">
		<tag k="name" v="Vassnes" />
		<tag k="place" v="farm" />
		<tag k="ssr:stedsnr" v="722706" />
	</node>
	<node lat="69.72959494175429" lon="22.268686842852937" id="-100817">
		<tag k="fixme" v="consider tourism=alpine_hut or tourism=chalet" />
		<tag k="name" v="Gærbikkhytta - Gearbbetbarta - Kärpikäntupa" />
		<tag k="name:fkv" v="Kärpikäntupa" />
		<tag k="name:no" v="Gærbikkhytta" />
		<tag k="name:se" v="Gearbbetbarta" />
		<tag k="ssr:stedsnr" v="889790" />
		<tag k="tourism" v="wilderness_hut" />
	</node>
	<node lat="69.78053055203763" lon="22.098488850674553" id="-100820">
		<tag k="name" v="Vangen" />
		<tag k="place" v="farm" />
		<tag k="ssr:stedsnr" v="747007" />
	</node>
	<node lat="69.95155000256284" lon="21.926141616807175" id="-100821">
		<tag k="name" v="Bjerkås" />
		<tag k="place" v="farm" />
		<tag k="ssr:stedsnr" v="747122" />
	</node>
	<node lat="69.97798451468317" lon="22.009457087521355" id="-100827">
		<tag k="name" v="Rundelv" />
		<tag k="place" v="farm" />
		<tag k="ssr:stedsnr" v="747233" />
	</node>
	<node lat="69.726869443793" lon="22.07999716909549" id="-100829">
		<tag k="name" v="Furulund" />
		<tag k="place" v="farm" />
		<tag k="ssr:stedsnr" v="747275" />
	</node>
	<node lat="69.73406111041464" lon="22.141319382379045" id="-100830">
		<tag k="name" v="Bjørkenes" />
		<tag k="place" v="farm" />
		<tag k="ssr:stedsnr" v="747277" />
	</node>
	<node lat="70.09141666776549" lon="21.553080537391168" id="-100846">
		<tag k="name" v="Steinvoll" />
		<tag k="place" v="isolated_dwelling" />
		<tag k="ssr:stedsnr" v="897641" />
	</node>
	<node lat="69.88917500188583" lon="21.828111077028407" id="-100857">
		<tag k="name" v="Stålvoll" />
		<tag k="place" v="locality" />
		<tag k="ssr:stedsnr" v="774319" />
	</node>
	<node lat="70.0378611160164" lon="22.17548607530034" id="-100892">
		<tag k="name" v="Rydningen" />
		<tag k="place" v="farm" />
		<tag k="ssr:stedsnr" v="904517" />
	</node>
	<node lat="69.86531388946065" lon="21.99492217805583" id="-100900">
		<tag k="name" v="Solbakken" />
		<tag k="place" v="farm" />
		<tag k="ssr:stedsnr" v="904519" />
	</node>
	<node lat="70.2105916646261" lon="21.212816627804383" id="-100948">
		<tag k="name" v="Vågen" />
		<tag k="place" v="hamlet" />
		<tag k="ssr:stedsnr" v="846614" />
	</node>
	<node lat="69.7709055539301" lon="21.9010360802141" id="-100952">
		<tag k="name" v="Naviteidet" />
		<tag k="place" v="farm" />
		<tag k="ssr:stedsnr" v="869007" />
	</node>
	<node lat="69.78063354502872" lon="21.924496080560683" id="-100953">
		<tag k="alt_name:no" v="Navit, in" />
		<tag k="loc_name:fkv" v="Sisä-Navetta" />
		<tag k="loc_name:se" v="Sis-Návet" />
		<tag k="name" v="Indre Navit - Siskkit Návet" />
		<tag k="name:no" v="Indre Navit" />
		<tag k="name:se" v="Siskkit Návet" />
		<tag k="old_name:se" v="Navet siskkit" />
		<tag k="place" v="hamlet" />
		<tag k="ssr:stedsnr" v="869010" />
	</node>
	<node lat="69.77864715839014" lon="22.089319792662916" id="-100954">
		<tag k="loc_name:fkv" v="Kätkänen" />
		<tag k="name" v="Kjækan" />
		<tag k="name:no" v="Kjækan" />
		<tag k="place" v="farm" />
		<tag k="ssr:stedsnr" v="869011" />
	</node>
	<node lat="69.84999166633033" lon="22.02710550164239" id="-100956">
		<tag k="name" v="Engenes" />
		<tag k="place" v="farm" />
		<tag k="ssr:stedsnr" v="869073" />
	</node>
	<node lat="69.73173333319349" lon="22.15016940453081" id="-100960">
		<tag k="name" v="Myrdal" />
		<tag k="place" v="farm" />
		<tag k="ssr:stedsnr" v="869319" />
	</node>
	<node lat="69.85829076932262" lon="21.805558306682276" id="-100966">
		<tag k="name" v="Bukta" />
		<tag k="place" v="farm" />
		<tag k="ssr:stedsnr" v="875870" />
	</node>
	<node lat="69.66831111383183" lon="22.403894380156558" id="-100968">
		<tag k="fixme" v="consider tourism=alpine_hut or tourism=chalet" />
		<tag k="name" v="Lappasridi" />
		<tag k="ssr:stedsnr" v="889857" />
		<tag k="tourism" v="wilderness_hut" />
	</node>
	<node lat="70.01877218136298" lon="21.705140127985807" id="-100973">
		<tag k="name" v="Spilderbukta" />
		<tag k="old_name" v="Spildrebugten" />
		<tag k="place" v="farm" />
		<tag k="ssr:stedsnr" v="895724" />
	</node>
	<node lat="69.92388888629576" lon="21.652888854143484" id="-100984">
		<tag k="name" v="Solvang" />
		<tag k="place" v="farm" />
		<tag k="ssr:stedsnr" v="904055" />
	</node>
	<node lat="69.80092777749692" lon="22.028402734041673" id="-101001">
		<tag k="alt_name" v="Storbukta, yt" />
		<tag k="name" v="Ytre Storbukta" />
		<tag k="place" v="farm" />
		<tag k="ssr:stedsnr" v="929096" />
	</node>
	<node lat="69.99696677386024" lon="21.68453754550387" id="-101008">
		<tag k="name" v="Spildra" />
		<tag k="place" v="farm" />
		<tag k="ssr:stedsnr" v="956752" />
	</node>
	<node lat="69.83643889353756" lon="21.903922175341815" id="-101022">
		<tag k="name" v="Øvergård" />
		<tag k="place" v="farm" />
		<tag k="ssr:stedsnr" v="964503" />
	</node>
	<node lat="70.0302283210497" lon="22.089973253728953" id="-101048">
		<tag k="name" v="Nordre Alteidet - Duikkáš" />
		<tag k="name:no" v="Nordre Alteidet" />
		<tag k="name:se" v="Duikkáš" />
		<tag k="place" v="farm" />
		<tag k="ssr:stedsnr" v="984570" />
	</node>
	<node lat="69.91153355542122" lon="22.08436368611478" id="-101049">
		<tag k="loc_name:se" v="Burovuonvággi" />
		<tag k="name" v="Burfjordvatnet - Burovuonvuovdi" />
		<tag k="name:no" v="Burfjordvatnet" />
		<tag k="name:se" v="Burovuonvuovdi" />
		<tag k="place" v="farm" />
		<tag k="ssr:stedsnr" v="984572" />
	</node>
	<node lat="69.84515278350042" lon="22.026138836386703" id="-101089">
		<tag k="loc_name:fkv" v="Paattari" />
		<tag k="loc_name:se" v="Báttár" />
		<tag k="name" v="Badderen" />
		<tag k="name:no" v="Badderen" />
		<tag k="place" v="quarter" />
		<tag k="ssr:stedsnr" v="19057" />
	</node>
	<node lat="69.81726111543288" lon="21.959330521236698" id="-101091">
		<tag k="name" v="Solstad" />
		<tag k="place" v="farm" />
		<tag k="ssr:stedsnr" v="19104" />
	</node>
	<node lat="69.81540277579398" lon="21.942136077111805" id="-101092">
		<tag k="name" v="Skjelbukta" />
		<tag k="place" v="farm" />
		<tag k="ssr:stedsnr" v="19108" />
	</node>
	<node lat="69.83199166901022" lon="21.90116661610945" id="-101099">
		<tag k="name" v="Nordstraumen" />
		<tag k="place" v="farm" />
		<tag k="ssr:stedsnr" v="19076" />
	</node>
	<node lat="69.84556389320218" lon="22.02811383740385" id="-101100">
		<tag k="name" v="Sætra" />
		<tag k="place" v="farm" />
		<tag k="ssr:stedsnr" v="19077" />
	</node>
	<node lat="69.73217500483072" lon="22.077272178169878" id="-101107">
		<tag k="name" v="Skoglund" />
		<tag k="place" v="farm" />
		<tag k="ssr:stedsnr" v="19270" />
	</node>
	<node lat="69.73421944941556" lon="22.106708290169998" id="-101108">
		<tag k="name" v="Bergli" />
		<tag k="place" v="farm" />
		<tag k="ssr:stedsnr" v="19271" />
	</node>
	<node lat="69.93484167097019" lon="21.728049962628543" id="-101111">
		<tag k="name" v="Sandøyra" />
		<tag k="place" v="farm" />
		<tag k="ssr:stedsnr" v="19133" />
	</node>
	<node lat="69.70389167286386" lon="21.786844397390567" id="-101114">
		<tag k="loc_name:se" v="Návetvuopmi;Návetvuommi" />
		<tag k="name" v="Navitdalen - Navetanvuoma" />
		<tag k="name:fkv" v="Navetanvuoma" />
		<tag k="name:no" v="Navitdalen" />
		<tag k="place" v="locality" />
		<tag k="ssr:stedsnr" v="19440" />
	</node>
	<node lat="69.89808783228925" lon="21.60529156843343" id="-101118">
		<tag k="name" v="Gildetun" />
		<tag k="ssr:stedsnr" v="19830" />
		<tag k="tourism" v="hotel" />
	</node>
	<node lat="70.01223055628905" lon="21.891591632051657" id="-101128">
		<tag k="alt_name:no" v="Vassnes, yt" />
		<tag k="name" v="Ytre Vassnes - Ceiccanválat" />
		<tag k="name:no" v="Ytre Vassnes" />
		<tag k="name:se" v="Ceiccanválat" />
		<tag k="old_name:no" v="Vassnes" />
		<tag k="old_name:se" v="Ceicanvalat" />
		<tag k="place" v="locality" />
		<tag k="ssr:stedsnr" v="19456" />
	</node>
	<node lat="70.00645776809448" lon="22.026765138015925" id="-101130">
		<tag k="alt_name" v="Storslett" />
		<tag k="name" v="Storsletta" />
		<tag k="place" v="farm" />
		<tag k="ssr:stedsnr" v="19460" />
	</node>
	<node lat="69.83810833448493" lon="21.956788847366816" id="-101138">
		<tag k="loc_name:fkv" v="Säkkimukka" />
		<tag k="name" v="Sekkemo" />
		<tag k="name:no" v="Sekkemo" />
		<tag k="place" v="hamlet" />
		<tag k="ssr:stedsnr" v="28584" />
	</node>
	<node lat="70.06463610824427" lon="21.683191636153534" id="-101140">
		<tag k="name" v="Bjørnvik" />
		<tag k="place" v="isolated_dwelling" />
		<tag k="ssr:stedsnr" v="33846" />
	</node>
	<node lat="69.8933166682993" lon="22.159644386933422" id="-101169">
		<tag k="name" v="Direktørboligen" />
		<tag k="place" v="locality" />
		<tag k="ssr:stedsnr" v="54516" />
	</node>
	<node lat="69.73371666593722" lon="22.17348328986293" id="-101178">
		<tag k="historic" v="shieling" />
		<tag k="name" v="Sætra" />
		<tag k="place" v="isolated_dwelling" />
		<tag k="ssr:stedsnr" v="54726" />
	</node>
	<node lat="70.04798889377365" lon="21.83030274485353" id="-101187">
		<tag k="name" v="Vidje" />
		<tag k="place" v="farm" />
		<tag k="ssr:stedsnr" v="54781" />
	</node>
	<node lat="69.83933055977033" lon="21.892722177085282" id="-101203">
		<tag k="name" v="Nordstraumen" />
		<tag k="place" v="hamlet" />
		<tag k="ssr:stedsnr" v="80090" />
	</node>
	<node lat="69.9553694426708" lon="22.00226385057703" id="-101208">
		<tag k="name" v="Nyland" />
		<tag k="place" v="farm" />
		<tag k="ssr:stedsnr" v="80135" />
	</node>
	<node lat="69.97112777805737" lon="22.011419412883132" id="-101209">
		<tag k="name" v="Leirvoll" />
		<tag k="place" v="farm" />
		<tag k="ssr:stedsnr" v="80259" />
	</node>
	<node lat="70.05577499654366" lon="21.852994411254237" id="-101213">
		<tag k="name" v="Slettnes" />
		<tag k="place" v="farm" />
		<tag k="ssr:stedsnr" v="80456" />
	</node>
	<node lat="69.95483055393852" lon="21.532683310222616" id="-101230">
		<tag k="name" v="Ytrevalan - Olggut Válát" />
		<tag k="name:no" v="Ytrevalan" />
		<tag k="name:se" v="Olggut Válát" />
		<tag k="old_name:se" v="Válát, olggut" />
		<tag k="place" v="farm" />
		<tag k="ssr:stedsnr" v="80895" />
	</node>
	<node lat="69.72036667060098" lon="22.047372180786734" id="-101278">
		<tag k="historic" v="shieling" />
		<tag k="name" v="Gardelvågsæter" />
		<tag k="place" v="isolated_dwelling" />
		<tag k="ssr:stedsnr" v="115621" />
	</node>
	<node lat="69.81711388622648" lon="21.94155829441828" id="-101287">
		<tag k="alt_name" v="Nordgard" />
		<tag k="name" v="Nordgård" />
		<tag k="place" v="farm" />
		<tag k="ssr:stedsnr" v="140098" />
	</node>
	<node lat="69.85958888629519" lon="22.01117773411284" id="-101292">
		<tag k="name" v="Oterelv" />
		<tag k="place" v="farm" />
		<tag k="ssr:stedsnr" v="140069" />
	</node>
	<node lat="69.91970278200002" lon="21.685447192177605" id="-101296">
		<tag k="alt_name" v="Amorslett" />
		<tag k="loc_name" v="Amosletta" />
		<tag k="name" v="Amorsletta" />
		<tag k="place" v="farm" />
		<tag k="ssr:stedsnr" v="140142" />
	</node>
	<node lat="69.99362777989938" lon="22.04118883848353" id="-101299">
		<tag k="name" v="Sjøtun" />
		<tag k="place" v="farm" />
		<tag k="ssr:stedsnr" v="140228" />
	</node>
	<node lat="69.98094444410765" lon="22.041788856338158" id="-101300">
		<tag k="name" v="Elvedal" />
		<tag k="place" v="farm" />
		<tag k="ssr:stedsnr" v="140231" />
	</node>
	<node lat="69.9453504419957" lon="21.91572138442417" id="-101301">
		<tag k="alt_name" v="Gammelheimen" />
		<tag k="name" v="Gammelgard" />
		<tag k="place" v="isolated_dwelling" />
		<tag k="ssr:stedsnr" v="140118" />
	</node>
	<node lat="69.89639999823387" lon="21.84035829828026" id="-101306">
		<tag k="name" v="Singelbukta" />
		<tag k="place" v="farm" />
		<tag k="ssr:stedsnr" v="140158" />
	</node>
	<node lat="69.87265277539916" lon="21.92303052350012" id="-101307">
		<tag k="name" v="Nyland" />
		<tag k="place" v="farm" />
		<tag k="ssr:stedsnr" v="140166" />
	</node>
	<node lat="69.87375000497326" lon="21.689916627347895" id="-101309">
		<tag k="name" v="Sandnesdalen" />
		<tag k="place" v="farm" />
		<tag k="ssr:stedsnr" v="140171" />
	</node>
	<node lat="69.96400011631368" lon="21.518600573153115" id="-101322">
		<tag k="name" v="Valanhamn" />
		<tag k="place" v="quarter" />
		<tag k="ssr:stedsnr" v="140888" />
	</node>
	<node lat="69.7407416663168" lon="22.03846938845253" id="-101329">
		<tag k="name" v="Toppelbukt" />
		<tag k="place" v="farm" />
		<tag k="ssr:stedsnr" v="147767" />
	</node>
	<node lat="69.8970583301363" lon="21.820419414952266" id="-101334">
		<tag k="name" v="Blomsterbukt" />
		<tag k="place" v="locality" />
		<tag k="ssr:stedsnr" v="167300" />
	</node>
	<node lat="69.84161944851158" lon="21.89144718262474" id="-101382">
		<tag k="name" v="Straumbukta" />
		<tag k="place" v="farm" />
		<tag k="ssr:stedsnr" v="201075" />
	</node>
	<node lat="69.8263333347872" lon="21.928111056492092" id="-101383">
		<tag k="name" v="Grasbakken" />
		<tag k="place" v="farm" />
		<tag k="ssr:stedsnr" v="201089" />
	</node>
	<node lat="69.74947221898708" lon="22.134338845429795" id="-101399">
		<tag k="name" v="Tangesland" />
		<tag k="place" v="farm" />
		<tag k="ssr:stedsnr" v="201278" />
	</node>
	<node lat="70.02879166700016" lon="22.045911080342396" id="-101427">
		<tag k="fixme" v="multiple name tags, choose one and add the other to alt_name" />
		<tag k="name" v="Laslett;Larssletta" />
		<tag k="place" v="farm" />
		<tag k="ssr:stedsnr" v="201454" />
	</node>
	<node lat="69.77908888746161" lon="22.083599960586284" id="-101436">
		<tag k="loc_name:fkv" v="Kätkänen" />
		<tag k="name" v="Kjækan" />
		<tag k="name:no" v="Kjækan" />
		<tag k="place" v="hamlet" />
		<tag k="ssr:stedsnr" v="208985" />
	</node>
	<node lat="69.79003000076031" lon="22.054674272081925" id="-101437">
		<tag k="alt_name:no" v="Storbukt" />
		<tag k="loc_name:se" v="Geahkkán" />
		<tag k="name" v="Storbukta" />
		<tag k="name:no" v="Storbukta" />
		<tag k="place" v="farm" />
		<tag k="ssr:stedsnr" v="208877" />
	</node>
	<node lat="69.84221666347769" lon="21.875072190224145" id="-101449">
		<tag k="name" v="Strand" />
		<tag k="place" v="farm" />
		<tag k="ssr:stedsnr" v="262082" />
	</node>
	<node lat="69.8406805560931" lon="21.91999994967339" id="-101450">
		<tag k="name" v="Skogmo" />
		<tag k="place" v="farm" />
		<tag k="ssr:stedsnr" v="262085" />
	</node>
	<node lat="69.83741666686011" lon="21.924538858620682" id="-101451">
		<tag k="name" v="Øvrestua" />
		<tag k="place" v="farm" />
		<tag k="ssr:stedsnr" v="262087" />
	</node>
	<node lat="69.81805000411968" lon="21.938016620639335" id="-101452">
		<tag k="name" v="Jonsnes" />
		<tag k="place" v="farm" />
		<tag k="ssr:stedsnr" v="262091" />
	</node>
	<node lat="69.82814444728803" lon="21.960038854385576" id="-101454">
		<tag k="name" v="Skogvoll" />
		<tag k="place" v="farm" />
		<tag k="ssr:stedsnr" v="262095" />
	</node>
	<node lat="69.94838055820321" lon="21.99442773717266" id="-101461">
		<tag k="name" v="Seljeenga" />
		<tag k="place" v="farm" />
		<tag k="ssr:stedsnr" v="262135" />
	</node>
	<node lat="69.93911944704459" lon="22.008330510477986" id="-101463">
		<tag k="name" v="Engstad" />
		<tag k="place" v="farm" />
		<tag k="ssr:stedsnr" v="262144" />
	</node>
	<node lat="70.00766972199726" lon="21.26392643860114" id="-101466">
		<tag k="name" v="Meiland" />
		<tag k="place" v="farm" />
		<tag k="ssr:stedsnr" v="262337" />
	</node>
	<node lat="69.73755458779635" lon="22.08964745583359" id="-101467">
		<tag k="name" v="Cirggastat - Sirkastakka" />
		<tag k="name:fkv" v="Sirkastakka" />
		<tag k="name:se" v="Cirggastat" />
		<tag k="place" v="locality" />
		<tag k="ssr:stedsnr" v="262286" />
	</node>
	<node lat="70.09521388545745" lon="21.479911086766812" id="-101492">
		<tag k="name" v="Spitnes" />
		<tag k="place" v="isolated_dwelling" />
		<tag k="ssr:stedsnr" v="269083" />
	</node>
	<node lat="70.00684722580361" lon="22.024077738514034" id="-101493">
		<tag k="fixme" v="multiple name tags, choose one and add the other to alt_name" />
		<tag k="name" v="Stuoragieddi;Storeng" />
		<tag k="place" v="hamlet" />
		<tag k="ssr:stedsnr" v="269874" />
	</node>
	<node lat="70.06116111099779" lon="21.928763836176227" id="-101496">
		<tag k="name" v="Nymo" />
		<tag k="place" v="farm" />
		<tag k="ssr:stedsnr" v="275821" />
	</node>
	<node lat="69.89383889383319" lon="22.134386072043533" id="-101500">
		<tag k="name" v="Dalen" />
		<tag k="place" v="isolated_dwelling" />
		<tag k="ssr:stedsnr" v="479489" />
	</node>
	<node lat="69.8329305604226" lon="21.89909162035427" id="-101503">
		<tag k="name" v="Sandbakken" />
		<tag k="place" v="farm" />
		<tag k="ssr:stedsnr" v="479506" />
	</node>
	<node lat="69.91072222028848" lon="21.877591621763205" id="-101507">
		<tag k="name" v="Fjellbukt" />
		<tag k="place" v="isolated_dwelling" />
		<tag k="ssr:stedsnr" v="288273" />
	</node>
	<node lat="70.03235306619966" lon="22.076997737187405" id="-101512">
		<tag k="name" v="Bukta" />
		<tag k="place" v="farm" />
		<tag k="ssr:stedsnr" v="288688" />
	</node>
	<node lat="70.03818611076377" lon="22.16419161612857" id="-101547">
		<tag k="name" v="Kveldro" />
		<tag k="place" v="farm" />
		<tag k="ssr:stedsnr" v="297521" />
	</node>
	<node lat="69.93695833296616" lon="21.86523885760839" id="-101570">
		<tag k="alt_name" v="Raudberg;Røberg" />
		<tag k="name" v="Rødberg" />
		<tag k="place" v="farm" />
		<tag k="ssr:stedsnr" v="322130" />
	</node>
	<node lat="69.81827222719615" lon="21.960616623977636" id="-101573">
		<tag k="name" v="Olanes" />
		<tag k="place" v="farm" />
		<tag k="ssr:stedsnr" v="322088" />
	</node>
	<node lat="69.74178600713681" lon="22.16118492877257" id="-101579">
		<tag k="name" v="Nordbotn" />
		<tag k="place" v="farm" />
		<tag k="ssr:stedsnr" v="322276" />
	</node>
	<node lat="70.06318706060485" lon="21.941866933615152" id="-101582">
		<tag k="alt_name" v="Hamnebukta, in" />
		<tag k="name" v="Indre Hamnebukta" />
		<tag k="place" v="farm" />
		<tag k="ssr:stedsnr" v="322437" />
	</node>
	<node lat="70.01307222299909" lon="21.921238853575847" id="-101613">
		<tag k="alt_name:no" v="Vassnes, in" />
		<tag k="name" v="Indre Vassnes - Vuolbenjárga" />
		<tag k="name:no" v="Indre Vassnes" />
		<tag k="name:se" v="Vuolbenjárga" />
		<tag k="old_name:se" v="Vuolbenjarga" />
		<tag k="place" v="locality" />
		<tag k="ssr:stedsnr" v="323484" />
	</node>
	<node lat="69.73671389121525" lon="22.0111388445823" id="-101615">
		<tag k="name" v="Leirbukt" />
		<tag k="place" v="hamlet" />
		<tag k="ssr:stedsnr" v="329746" />
	</node>
	<node lat="69.78887500550671" lon="21.918797185028563" id="-101617">
		<tag k="loc_name:fkv" v="Ulko-Navetta" />
		<tag k="loc_name:se" v="Olgo-Návet" />
		<tag k="name" v="Ytre Navit" />
		<tag k="name:no" v="Ytre Navit" />
		<tag k="place" v="hamlet" />
		<tag k="ssr:stedsnr" v="348080" />
	</node>
	<node lat="70.21981667089169" lon="21.212466650423714" id="-101622">
		<tag k="name" v="Myrvoll" />
		<tag k="place" v="isolated_dwelling" />
		<tag k="ssr:stedsnr" v="349229" />
	</node>
	<node lat="69.9380249969555" lon="22.052027739006768" id="-101669">
		<tag k="loc_name:fkv" v="Puruvuono" />
		<tag k="loc_name:se" v="Burovuonna" />
		<tag k="name" v="Burfjord" />
		<tag k="name:no" v="Burfjord" />
		<tag k="place" v="quarter" />
		<tag k="ssr:stedsnr" v="383132" />
	</node>
	<node lat="69.83772222589461" lon="21.966580525543918" id="-101680">
		<tag k="name" v="Nordmo" />
		<tag k="place" v="farm" />
		<tag k="ssr:stedsnr" v="383086" />
	</node>
	<node lat="69.9224194443036" lon="21.732191625114147" id="-101686">
		<tag k="name" v="Moan" />
		<tag k="place" v="farm" />
		<tag k="ssr:stedsnr" v="383168" />
	</node>
	<node lat="69.82592544383704" lon="21.97003399416908" id="-101690">
		<tag k="alt_name" v="Kjøllefjord" />
		<tag k="name" v="Kjøllefjorden" />
		<tag k="place" v="farm" />
		<tag k="ssr:stedsnr" v="383097" />
	</node>
	<node lat="69.82032499952464" lon="21.934111067411397" id="-101691">
		<tag k="name" v="Nordstraumen" />
		<tag k="place" v="farm" />
		<tag k="ssr:stedsnr" v="383099" />
	</node>
	<node lat="69.96580000315426" lon="22.011344412383284" id="-101693">
		<tag k="name" v="Nålelv" />
		<tag k="place" v="farm" />
		<tag k="ssr:stedsnr" v="383275" />
	</node>
	<node lat="69.92454444550988" lon="21.656247184514584" id="-101694">
		<tag k="alt_name" v="Gamlegård;Gammelgård" />
		<tag k="name" v="Gammelgården" />
		<tag k="place" v="farm" />
		<tag k="ssr:stedsnr" v="383151" />
	</node>
	<node lat="70.04851110861942" lon="21.83163606464909" id="-101717">
		<tag k="name" v="Bratteng" />
		<tag k="place" v="farm" />
		<tag k="ssr:stedsnr" v="383493" />
	</node>
	<node lat="69.97259444509689" lon="21.520813851006988" id="-101721">
		<tag k="name" v="Langstrand" />
		<tag k="place" v="farm" />
		<tag k="ssr:stedsnr" v="383888" />
	</node>
	<node lat="69.84570518337878" lon="21.823835095884238" id="-101723">
		<tag k="alt_name" v="Karvik" />
		<tag k="name" v="Karvika" />
		<tag k="place" v="farm" />
		<tag k="ssr:stedsnr" v="389935" />
	</node>
	<node lat="69.74438889269145" lon="22.143427733321424" id="-101733">
		<tag k="name" v="Mikku" />
		<tag k="name:fkv" v="Mikku" />
		<tag k="place" v="farm" />
		<tag k="ssr:stedsnr" v="479730" />
	</node>
	<node lat="69.97006388839134" lon="21.511933291073845" id="-101734">
		<tag k="name" v="Gammelgården" />
		<tag k="place" v="locality" />
		<tag k="ssr:stedsnr" v="409015" />
	</node>
	<node lat="69.92384722154432" lon="21.800477734211224" id="-101737">
		<tag k="name" v="Nes" />
		<tag k="place" v="locality" />
		<tag k="ssr:stedsnr" v="409733" />
	</node>
	<node lat="69.97629444199252" lon="22.00957494937414" id="-101764">
		<tag k="name" v="Åsheim" />
		<tag k="place" v="farm" />
		<tag k="ssr:stedsnr" v="418636" />
	</node>
	<node lat="69.83090556071105" lon="21.906127731405064" id="-101771">
		<tag k="name" v="Tandsten" />
		<tag k="place" v="farm" />
		<tag k="ssr:stedsnr" v="418496" />
	</node>
	<node lat="70.03861666529606" lon="22.17379716563921" id="-101774">
		<tag k="name" v="Minde" />
		<tag k="place" v="farm" />
		<tag k="ssr:stedsnr" v="418516" />
	</node>
	<node lat="69.84098055296492" lon="21.90336385301624" id="-101775">
		<tag k="name" v="Nordstrøm" />
		<tag k="place" v="farm" />
		<tag k="ssr:stedsnr" v="418517" />
	</node>
	<node lat="70.00884444724127" lon="22.020036081160693" id="-101787">
		<tag k="name" v="Nyheim" />
		<tag k="place" v="farm" />
		<tag k="ssr:stedsnr" v="419682" />
	</node>
	<node lat="69.75182421850131" lon="21.933341754695135" id="-101801">
		<tag k="name" v="Rydheim" />
		<tag k="place" v="locality" />
		<tag k="ssr:stedsnr" v="504018" />
	</node>
	<node lat="69.92978972662847" lon="21.7230948942706" id="-101810">
		<tag k="name" v="Skorpa" />
		<tag k="place" v="farm" />
		<tag k="ssr:stedsnr" v="504120" />
	</node>
	<node lat="70.16539166572797" lon="21.486422188058132" id="-101811">
		<tag k="name" v="Bukta" />
		<tag k="place" v="farm" />
		<tag k="ssr:stedsnr" v="504121" />
	</node>
	<node lat="69.8235972217925" lon="21.973077745493647" id="-101812">
		<tag k="name" v="Nyheim" />
		<tag k="place" v="farm" />
		<tag k="ssr:stedsnr" v="504067" />
	</node>
	<node lat="69.83029444246735" lon="21.959799950486886" id="-101813">
		<tag k="name" v="Furulund" />
		<tag k="place" v="farm" />
		<tag k="ssr:stedsnr" v="504069" />
	</node>
	<node lat="69.88284166405627" lon="21.904041635402695" id="-101816">
		<tag k="alt_name" v="Myreng" />
		<tag k="name" v="Myrenga" />
		<tag k="place" v="farm" />
		<tag k="ssr:stedsnr" v="504146" />
	</node>
	<node lat="70.19331111339474" lon="21.240744424139972" id="-101817">
		<tag k="name" v="Slaberg" />
		<tag k="place" v="locality" />
		<tag k="ssr:stedsnr" v="504147" />
	</node>
	<node lat="69.72007246991859" lon="22.052418056261626" id="-101824">
		<tag k="name" v="Seljevoll" />
		<tag k="place" v="farm" />
		<tag k="ssr:stedsnr" v="504261" />
	</node>
	<node lat="69.83044722333563" lon="21.905344412503716" id="-101841">
		<tag k="name" v="Slettvollen" />
		<tag k="place" v="farm" />
		<tag k="ssr:stedsnr" v="505087" />
	</node>
	<node lat="69.83753234643225" lon="21.954731973383925" id="-101850">
		<tag k="alt_name" v="Sekkemoen" />
		<tag k="name" v="Sekkemo" />
		<tag k="place" v="farm" />
		<tag k="ssr:stedsnr" v="505075" />
	</node>
	<node lat="69.99679722712919" lon="21.707924955823128" id="-101864">
		<tag k="name" v="Kalvenes" />
		<tag k="place" v="farm" />
		<tag k="ssr:stedsnr" v="531746" />
	</node>
	<node lat="69.88653055580674" lon="21.835666614743655" id="-101881">
		<tag k="name" v="Undervoll" />
		<tag k="place" v="farm" />
		<tag k="ssr:stedsnr" v="539186" />
	</node>
	<node lat="69.89714999840344" lon="21.646049958709884" id="-101900">
		<tag k="name" v="Lyngvoll" />
		<tag k="place" v="farm" />
		<tag k="ssr:stedsnr" v="540066" />
	</node>
	<node lat="69.92066389237254" lon="21.690058295565542" id="-101915">
		<tag k="name" v="Storsletta" />
		<tag k="place" v="farm" />
		<tag k="ssr:stedsnr" v="565142" />
	</node>
	<node lat="69.95397631098736" lon="21.925044837573765" id="-101930">
		<tag k="name" v="Hampabukta" />
		<tag k="place" v="locality" />
		<tag k="ssr:stedsnr" v="565235" />
	</node>
	<node lat="69.7456527808668" lon="21.94679161660538" id="-101932">
		<tag k="name" v="Øvermo" />
		<tag k="place" v="farm" />
		<tag k="ssr:stedsnr" v="565296" />
	</node>
	<node lat="69.74200000335792" lon="21.958924957992732" id="-101933">
		<tag k="name" v="Sørfjordbotn" />
		<tag k="place" v="farm" />
		<tag k="ssr:stedsnr" v="565297" />
	</node>
	<node lat="69.92585277567225" lon="21.78940829772818" id="-101955">
		<tag k="name" v="Askebukt" />
		<tag k="place" v="locality" />
		<tag k="ssr:stedsnr" v="591723" />
	</node>
	<node lat="69.84594722559939" lon="21.834316626179408" id="-101974">
		<tag k="name" v="Birgen" />
		<tag k="place" v="farm" />
		<tag k="ssr:stedsnr" v="599230" />
	</node>
	<node lat="70.04320833871328" lon="21.806511079071054" id="-101982">
		<tag k="name" v="Østgård" />
		<tag k="place" v="farm" />
		<tag k="ssr:stedsnr" v="599800" />
	</node>
	<node lat="69.93339461790433" lon="22.02794836611008" id="-102013">
		<tag k="alt_name" v="Nordkjos" />
		<tag k="name" v="Nordkjosen" />
		<tag k="place" v="farm" />
		<tag k="ssr:stedsnr" v="625140" />
	</node>
	<node lat="69.82698333323596" lon="21.961858279149492" id="-102016">
		<tag k="name" v="Myreng" />
		<tag k="place" v="farm" />
		<tag k="ssr:stedsnr" v="625102" />
	</node>
	<node lat="69.97733610787759" lon="21.51984441359462" id="-102028">
		<tag k="name" v="Prestla" />
		<tag k="place" v="farm" />
		<tag k="ssr:stedsnr" v="625880" />
	</node>
	<node lat="69.86302163096485" lon="22.00481538713823" id="-102035">
		<tag k="name" v="Nappen - Náhppi" />
		<tag k="name:no" v="Nappen" />
		<tag k="name:se" v="Náhppi" />
		<tag k="place" v="farm" />
		<tag k="ssr:stedsnr" v="626100" />
	</node>
	<node lat="69.98444543862726" lon="22.0071066546746" id="-102040">
		<tag k="name" v="Utheim" />
		<tag k="place" v="farm" />
		<tag k="ssr:stedsnr" v="626249" />
	</node>
	<node lat="70.07373894300535" lon="22.0060795265131" id="-102044">
		<tag k="alt_name" v="Jøkelfjord" />
		<tag k="name" v="Jøkelfjordeidet" />
		<tag k="place" v="farm" />
		<tag k="ssr:stedsnr" v="626486" />
	</node>
	<node lat="70.08280357597066" lon="22.00849238255115" id="-102052">
		<tag k="name" v="Saltnes" />
		<tag k="place" v="farm" />
		<tag k="ssr:stedsnr" v="633865" />
	</node>
	<node lat="70.07327221992902" lon="22.004424963806063" id="-102066">
		<tag k="name" v="Minde" />
		<tag k="place" v="farm" />
		<tag k="ssr:stedsnr" v="654563" />
	</node>
	<node lat="69.73790555522518" lon="21.982799963375133" id="-102108">
		<tag k="name" v="Hustomta" />
		<tag k="place" v="farm" />
		<tag k="ssr:stedsnr" v="721782" />
	</node>
	<node lat="69.87010338525405" lon="21.95485881639531" id="-102142">
		<tag k="name" v="Ravelsvika" />
		<tag k="place" v="farm" />
		<tag k="ssr:stedsnr" v="747053" />
	</node>
	<node lat="69.79726510629844" lon="21.987306024210138" id="-102147">
		<tag k="name" v="Årøya" />
		<tag k="place" v="farm" />
		<tag k="ssr:stedsnr" v="747095" />
	</node>
	<node lat="69.84185278114549" lon="21.933538844048012" id="-102148">
		<tag k="name" v="Berg" />
		<tag k="place" v="farm" />
		<tag k="ssr:stedsnr" v="747069" />
	</node>
	<node lat="70.20621111069566" lon="21.216716642120527" id="-102152">
		<tag k="name" v="Seglvik" />
		<tag k="place" v="hamlet" />
		<tag k="ssr:stedsnr" v="747165" />
	</node>
	<node lat="69.9516527782963" lon="22.002869403306" id="-102154">
		<tag k="name" v="Myreng" />
		<tag k="place" v="farm" />
		<tag k="ssr:stedsnr" v="747118" />
	</node>
	<node lat="70.0609666673232" lon="21.863411073703816" id="-102159">
		<tag k="name" v="Nygård" />
		<tag k="place" v="farm" />
		<tag k="ssr:stedsnr" v="747423" />
	</node>
	<node lat="70.07078660298637" lon="21.997933801452795" id="-102173">
		<tag k="alt_name" v="Jøkelfjord" />
		<tag k="name" v="Jøkelfjorden" />
		<tag k="place" v="quarter" />
		<tag k="ssr:stedsnr" v="755983" />
	</node>
	<node lat="70.18857778259157" lon="21.258736083924344" id="-102174">
		<tag k="name" v="Indrevika" />
		<tag k="place" v="locality" />
		<tag k="ssr:stedsnr" v="761156" />
	</node>
	<node lat="70.03155807878132" lon="22.072305506846853" id="-102177">
		<tag k="name" v="Molnelva" />
		<tag k="place" v="farm" />
		<tag k="ssr:stedsnr" v="773695" />
	</node>
	<node lat="69.84185011463357" lon="21.859377796706642" id="-102241">
		<tag k="loc_name:se" v="Árres" />
		<tag k="name" v="Sørstraumen" />
		<tag k="name:no" v="Sørstraumen" />
		<tag k="place" v="quarter" />
		<tag k="ssr:stedsnr" v="808052" />
	</node>
	<node lat="69.78024721904188" lon="21.914116633956176" id="-102243">
		<tag k="alt_name" v="Øvergard" />
		<tag k="name" v="Øvergård" />
		<tag k="place" v="farm" />
		<tag k="ssr:stedsnr" v="808005" />
	</node>
	<node lat="69.84310000080993" lon="21.841669401700862" id="-102248">
		<tag k="name" v="Tømmerbukta" />
		<tag k="place" v="farm" />
		<tag k="ssr:stedsnr" v="808074" />
	</node>
	<node lat="70.21002778016125" lon="21.21438330172169" id="-102256">
		<tag k="name" v="Vågen" />
		<tag k="place" v="farm" />
		<tag k="ssr:stedsnr" v="808165" />
	</node>
	<node lat="69.97339896464551" lon="22.008090544333637" id="-102262">
		<tag k="name" v="Stajord" />
		<tag k="place" v="farm" />
		<tag k="ssr:stedsnr" v="808223" />
	</node>
	<node lat="70.0628694421381" lon="21.941374960046875" id="-102269">
		<tag k="name" v="Litlevik" />
		<tag k="place" v="farm" />
		<tag k="ssr:stedsnr" v="808418" />
	</node>
	<node lat="70.03688462586273" lon="22.17079295054281" id="-102272">
		<tag k="alt_name" v="Brødskift" />
		<tag k="name" v="Brødskifte" />
		<tag k="place" v="farm" />
		<tag k="ssr:stedsnr" v="808429" />
	</node>
	<node lat="69.7303416633637" lon="22.07715829559007" id="-102276">
		<tag k="alt_name:no" v="Kvænangsbotnen" />
		<tag k="loc_name:se" v="Návuonbahta;Njemenjáiku" />
		<tag k="name" v="Kvænangsbotn" />
		<tag k="name:no" v="Kvænangsbotn" />
		<tag k="place" v="quarter" />
		<tag k="ssr:stedsnr" v="808280" />
	</node>
	<node lat="69.9382333377324" lon="21.561124974605256" id="-102294">
		<tag k="alt_name:no" v="Indrevalan" />
		<tag k="name" v="Indre Valan - Sis-Válát" />
		<tag k="name:no" v="Indre Valan" />
		<tag k="name:se" v="Sis-Válát" />
		<tag k="place" v="farm" />
		<tag k="ssr:stedsnr" v="808859" />
	</node>
	<node lat="69.94287500323166" lon="21.984761061372783" id="-102301">
		<tag k="name" v="Storstein" />
		<tag k="place" v="farm" />
		<tag k="ssr:stedsnr" v="834722" />
	</node>
	<node lat="70.02991782480402" lon="22.09439410394551" id="-102302">
		<tag k="name" v="Bakken" />
		<tag k="place" v="farm" />
		<tag k="ssr:stedsnr" v="834726" />
	</node>
	<node lat="70.08381111313977" lon="22.008641614241604" id="-102310">
		<tag k="name" v="Solheim" />
		<tag k="place" v="farm" />
		<tag k="ssr:stedsnr" v="837395" />
	</node>
	<node lat="70.08316666338074" lon="22.006822183976126" id="-102311">
		<tag k="name" v="Vang" />
		<tag k="place" v="farm" />
		<tag k="ssr:stedsnr" v="837397" />
	</node>
	<node lat="69.92288888981436" lon="21.693894407833874" id="-102324">
		<tag k="historic" v="shieling" />
		<tag k="name" v="Sommerseter" />
		<tag k="place" v="isolated_dwelling" />
		<tag k="ssr:stedsnr" v="843025" />
	</node>
	<node lat="70.04750555919499" lon="21.82813050808013" id="-102358">
		<tag k="name" v="Øvergård" />
		<tag k="place" v="farm" />
		<tag k="ssr:stedsnr" v="843801" />
	</node>
	<node lat="69.95757499754082" lon="22.005427739090543" id="-102363">
		<tag k="name" v="Buktenes" />
		<tag k="place" v="farm" />
		<tag k="ssr:stedsnr" v="868122" />
	</node>
	<node lat="69.95523889161616" lon="22.036838844072022" id="-102364">
		<tag k="name" v="Leirbukta" />
		<tag k="place" v="farm" />
		<tag k="ssr:stedsnr" v="868124" />
	</node>
	<node lat="69.81561666609586" lon="21.990655519070827" id="-102378">
		<tag k="name" v="Barvoll" />
		<tag k="place" v="farm" />
		<tag k="ssr:stedsnr" v="869125" />
	</node>
	<node lat="69.8281361154449" lon="21.913708286663606" id="-102388">
		<tag k="name" v="Sandvika" />
		<tag k="place" v="farm" />
		<tag k="ssr:stedsnr" v="869093" />
	</node>
	<node lat="69.79776389203863" lon="21.90854441046051" id="-102390">
		<tag k="name" v="Sæter" />
		<tag k="place" v="farm" />
		<tag k="ssr:stedsnr" v="869115" />
	</node>
	<node lat="69.7822285307245" lon="21.920621344802374" id="-102391">
		<tag k="loc_name:fkv" v="Navetat" />
		<tag k="name" v="Navit - Návet" />
		<tag k="name:no" v="Navit" />
		<tag k="name:se" v="Návet" />
		<tag k="place" v="hamlet" />
		<tag k="ssr:stedsnr" v="869120" />
	</node>
	<node lat="70.15445673472608" lon="21.458202352817295" id="-102393">
		<tag k="name" v="Storelv" />
		<tag k="place" v="farm" />
		<tag k="ssr:stedsnr" v="869176" />
	</node>
	<node lat="70.17568177302518" lon="21.477789008869685" id="-102396">
		<tag k="name" v="Olderfjord" />
		<tag k="place" v="farm" />
		<tag k="ssr:stedsnr" v="869180" />
	</node>
	<node lat="69.89111944978342" lon="21.82638884664864" id="-102398">
		<tag k="name" v="Myrvoll" />
		<tag k="place" v="farm" />
		<tag k="ssr:stedsnr" v="869192" />
	</node>
	<node lat="69.88007414835695" lon="21.74508031665123" id="-102399">
		<tag k="name" v="Rakkenes - Ráhkkonjárga" />
		<tag k="name:no" v="Rakkenes" />
		<tag k="name:se" v="Ráhkkonjárga" />
		<tag k="place" v="farm" />
		<tag k="ssr:stedsnr" v="869194" />
	</node>
	<node lat="69.87762853198328" lon="21.904669147690868" id="-102401">
		<tag k="name" v="Bankenes" />
		<tag k="place" v="farm" />
		<tag k="ssr:stedsnr" v="869202" />
	</node>
	<node lat="70.1505021355352" lon="21.448276841282365" id="-102403">
		<tag k="name" v="Gambukt" />
		<tag k="place" v="farm" />
		<tag k="ssr:stedsnr" v="869348" />
	</node>
	<node lat="70.07112222672717" lon="21.99108330727157" id="-102405">
		<tag k="name" v="Vika" />
		<tag k="place" v="farm" />
		<tag k="ssr:stedsnr" v="869496" />
	</node>
	<node lat="69.90315555582656" lon="21.892816636034304" id="-102416">
		<tag k="fixme" v="multiple name tags, choose one and add the other to alt_name" />
		<tag k="name" v="Moldforvik;Fjellbukta" />
		<tag k="place" v="isolated_dwelling" />
		<tag k="ssr:stedsnr" v="929159" />
	</node>
	<node lat="69.92990833631063" lon="22.039666637474426" id="-102422">
		<tag k="name" v="Skaug" />
		<tag k="place" v="farm" />
		<tag k="ssr:stedsnr" v="929137" />
	</node>
	<node lat="69.9231138857062" lon="21.661955517559946" id="-102423">
		<tag k="alt_name" v="Skjernes" />
		<tag k="name" v="Skjærnes" />
		<tag k="place" v="locality" />
		<tag k="ssr:stedsnr" v="929140" />
	</node>
	<node lat="69.82436667249249" lon="21.954627727506168" id="-102426">
		<tag k="name" v="Ytrevoll" />
		<tag k="place" v="farm" />
		<tag k="ssr:stedsnr" v="929081" />
	</node>
	<node lat="69.82373333603026" lon="21.925911060258386" id="-102427">
		<tag k="name" v="Skogstad" />
		<tag k="place" v="farm" />
		<tag k="ssr:stedsnr" v="929084" />
	</node>
	<node lat="70.10265000018062" lon="21.59823328940572" id="-102445">
		<tag k="name" v="Reinfjord" />
		<tag k="place" v="quarter" />
		<tag k="ssr:stedsnr" v="929295" />
	</node>
	<node lat="69.86821666298903" lon="21.98073885365785" id="-102451">
		<tag k="name" v="Undereidet - Muotkkevuolli" />
		<tag k="name:no" v="Undereidet" />
		<tag k="name:se" v="Muotkkevuolli" />
		<tag k="place" v="hamlet" />
		<tag k="ssr:stedsnr" v="930076" />
	</node>
	<node lat="69.8409500015717" lon="21.861383288254192" id="-102454">
		<tag k="name" v="Bakketun" />
		<tag k="place" v="farm" />
		<tag k="ssr:stedsnr" v="930094" />
	</node>
	<node lat="70.0224695663864" lon="21.69798383382461" id="-102465">
		<tag k="name" v="Ravelsnes" />
		<tag k="place" v="farm" />
		<tag k="ssr:stedsnr" v="937048" />
	</node>
	<node lat="70.02384722828899" lon="21.99320273148256" id="-102466">
		<tag k="name" v="Låvan" />
		<tag k="place" v="farm" />
		<tag k="ssr:stedsnr" v="937084" />
	</node>
	<node lat="70.00643611085678" lon="21.7222194010746" id="-102467">
		<tag k="name" v="Fjellnes" />
		<tag k="place" v="farm" />
		<tag k="ssr:stedsnr" v="937333" />
	</node>
	<node lat="69.91609323083799" lon="21.878899511838295" id="-102476">
		<tag k="name" v="Moldvik" />
		<tag k="place" v="farm" />
		<tag k="ssr:stedsnr" v="956304" />
	</node>
	<node lat="69.95349103130796" lon="21.52609593125207" id="-102479">
		<tag k="name" v="Valan" />
		<tag k="place" v="farm" />
		<tag k="ssr:stedsnr" v="956732" />
	</node>
	<node lat="70.03531389380248" lon="22.21279717366443" id="-102522">
		<tag k="name" v="Øvremo" />
		<tag k="place" v="farm" />
		<tag k="ssr:stedsnr" v="964526" />
	</node>
	<node lat="70.04590277663216" lon="21.823577741982238" id="-102530">
		<tag k="name" v="Steinnes" />
		<tag k="place" v="farm" />
		<tag k="ssr:stedsnr" v="964756" />
	</node>
	<node lat="69.87877727215816" lon="21.743212906972786" id="-102536">
		<tag k="name" v="Rakkenes - Ráhkkonjárga - Rakkuniemi" />
		<tag k="name:fkv" v="Rakkuniemi" />
		<tag k="name:no" v="Rakkenes" />
		<tag k="name:se" v="Ráhkkonjárga" />
		<tag k="place" v="farm" />
		<tag k="ssr:stedsnr" v="972428" />
	</node>
	<node lat="70.03106103376088" lon="22.091277896063364" id="-102537">
		<tag k="name" v="Sollia" />
		<tag k="place" v="farm" />
		<tag k="ssr:stedsnr" v="979072" />
	</node>
	<node lat="69.84537259061486" lon="21.898845078739285" id="-102541">
		<tag k="name" v="Olgula - Olgul - Olkula" />
		<tag k="name:fkv" v="Olkula" />
		<tag k="name:no" v="Olgula" />
		<tag k="name:se" v="Olgul" />
		<tag k="place" v="hamlet" />
		<tag k="ssr:stedsnr" v="979080" />
	</node>
	<node lat="69.8405454714482" lon="21.86416578424889" id="-102546">
		<tag k="name" v="Sørstraumen - Árres" />
		<tag k="name:no" v="Sørstraumen" />
		<tag k="name:se" v="Árres" />
		<tag k="place" v="farm" />
		<tag k="ssr:stedsnr" v="984588" />
	</node>
	<node lat="69.73343099290223" lon="22.089602384071974" id="-102547">
		<tag k="name" v="Kvenangsbotn - Návuonbahta" />
		<tag k="name:no" v="Kvenangsbotn" />
		<tag k="name:se" v="Návuonbahta" />
		<tag k="place" v="farm" />
		<tag k="ssr:stedsnr" v="984595" />
	</node>
	<node lat="69.65483861708206" lon="18.954055597917613" id="-102599">
		<tag k="amenity" v="school" />
		<tag k="name" v="Ishavsbyen videregående skole" />
		<tag k="ssr:stedsnr" v="1075695" />
	</node>
	<node lat="69.73166613733714" lon="22.089416289542783" id="-102603">
		<tag k="name" v="Kvænangsbotn" />
		<tag k="place" v="farm" />
		<tag k="ssr:stedsnr" v="1078237" />
	</node>
	<node lat="69.76204136475663" lon="22.00342165593933" id="-102605">
		<tag k="alt_name" v="Indre Strømmen" />
		<tag k="name" v="Indre Straumen" />
		<tag k="place" v="farm" />
		<tag k="ssr:stedsnr" v="1078240" />
	</node>
	<node lat="69.89095545633293" lon="21.831086451995155" id="-102606">
		<tag k="alt_name" v="Nøkland" />
		<tag k="name" v="Nøklan" />
		<tag k="place" v="farm" />
		<tag k="ssr:stedsnr" v="1078241" />
	</node>
	<node lat="70.01583985892773" lon="21.358101999989906" id="-102607">
		<tag k="name" v="Mannskarvik" />
		<tag k="place" v="farm" />
		<tag k="ssr:stedsnr" v="1078242" />
	</node>
	<node lat="70.20504287259365" lon="21.222298840166964" id="-102608">
		<tag k="name" v="Seglvik" />
		<tag k="place" v="farm" />
		<tag k="ssr:stedsnr" v="1078218" />
	</node>
	<node lat="70.08997599681865" lon="21.80924612452927" id="-102609">
		<tag k="name" v="Tverfjord" />
		<tag k="place" v="locality" />
		<tag k="ssr:stedsnr" v="1078219" />
	</node>
	<node lat="70.07749592399934" lon="21.90926867088461" id="-102610">
		<tag k="name" v="Langnes" />
		<tag k="place" v="locality" />
		<tag k="ssr:stedsnr" v="1078220" />
	</node>
	<node lat="70.07202832463229" lon="22.001505602697886" id="-102611">
		<tag k="alt_name" v="Jøkelfjord" />
		<tag k="name" v="Jøkelfjorden" />
		<tag k="place" v="farm" />
		<tag k="ssr:stedsnr" v="1078221" />
	</node>
	<node lat="69.73781779153434" lon="22.08808727831099" id="-102612">
		<tag k="name" v="Sirkastakka" />
		<tag k="name:fkv" v="Sirkastakka" />
		<tag k="place" v="farm" />
		<tag k="ssr:stedsnr" v="1080148" />
	</node>
</osm>
