<?xml version="1.0" encoding="UTF-8"?>
<osm version="0.6" generator="osmapis">
	<node lat="70.02691389140192" lon="21.54055830419858" id="-38941">
		<tag k="fixme" v="consider seamark:type=rock or natural=shoal" />
		<tag k="name" v="Skagskjæret" />
		<tag k="place" v="islet" />
		<tag k="ssr:stedsnr" v="229728" />
	</node>
	<node lat="70.07258610871975" lon="21.808755505916896" id="-38944">
		<tag k="name" v="Skarveladdo" />
		<tag k="natural" v="bay" />
		<tag k="ssr:stedsnr" v="230844" />
	</node>
	<node lat="70.09717778302584" lon="21.462819415340274" id="-38946">
		<tag k="name" v="Bismarbukta" />
		<tag k="natural" v="cape" />
		<tag k="ssr:stedsnr" v="230668" />
	</node>
	<node lat="70.06383055742802" lon="21.67843331113291" id="-38947">
		<tag k="name" v="Innernappen" />
		<tag k="natural" v="cape" />
		<tag k="ssr:stedsnr" v="230884" />
	</node>
	<node lat="69.77576388991417" lon="22.081361069697838" id="-38960">
		<tag k="name" v="Geahkkánmohkki - Kätkäsenmukka" />
		<tag k="name:fkv" v="Kätkäsenmukka" />
		<tag k="name:se" v="Geahkkánmohkki" />
		<tag k="natural" v="bay" />
		<tag k="ssr:stedsnr" v="19007" />
	</node>
	<node lat="69.92876111620495" lon="21.73442495349748" id="-38968">
		<tag k="name" v="Hestevika" />
		<tag k="natural" v="bay" />
		<tag k="ssr:stedsnr" v="235212" />
	</node>
	<node lat="69.9434083331049" lon="21.868952728018545" id="-38970">
		<tag k="name" v="Oterbukta" />
		<tag k="natural" v="bay" />
		<tag k="ssr:stedsnr" v="235770" />
	</node>
	<node lat="69.77951111069213" lon="21.927591618026486" id="-38971">
		<tag k="name" v="Bukta - Návetmohkki - Sisä-Navetan mukka" />
		<tag k="name:fkv" v="Sisä-Navetan mukka" />
		<tag k="name:no" v="Bukta" />
		<tag k="name:se" v="Návetmohkki" />
		<tag k="natural" v="bay" />
		<tag k="ssr:stedsnr" v="236843" />
	</node>
	<node lat="70.01280000123019" lon="21.586436085215045" id="-38973">
		<tag k="name" v="Gildenluokta" />
		<tag k="name:se" v="Gildenluokta" />
		<tag k="natural" v="bay" />
		<tag k="ssr:stedsnr" v="236118" />
	</node>
	<node lat="70.013894445918" lon="21.577527743889732" id="-38974">
		<tag k="name" v="Sandbukta" />
		<tag k="natural" v="bay" />
		<tag k="ssr:stedsnr" v="236069" />
	</node>
	<node lat="69.83963333512217" lon="21.87686108320292" id="-38975">
		<tag k="name" v="Båtneset" />
		<tag k="natural" v="cape" />
		<tag k="ssr:stedsnr" v="236140" />
	</node>
	<node lat="69.83887500515458" lon="21.867158283159913" id="-38976">
		<tag k="alt_name" v="Strømsnes" />
		<tag k="name" v="Straumsnes" />
		<tag k="natural" v="cape" />
		<tag k="ssr:stedsnr" v="236155" />
	</node>
	<node lat="69.8002083322186" lon="22.025641609520143" id="-38981">
		<tag k="alt_name" v="Ytre Storbukt" />
		<tag k="name" v="Ytre Storbukta" />
		<tag k="natural" v="bay" />
		<tag k="ssr:stedsnr" v="236524" />
	</node>
	<node lat="69.94644167192783" lon="21.897094401371316" id="-38990">
		<tag k="name" v="Sørbukteidet" />
		<tag k="place" v="locality" />
		<tag k="ssr:stedsnr" v="236605" />
	</node>
	<node lat="70.01586389439896" lon="21.940694408072257" id="-38994">
		<tag k="name" v="Kopparelvbukt" />
		<tag k="natural" v="bay" />
		<tag k="ssr:stedsnr" v="236686" />
	</node>
	<node lat="69.95719444447867" lon="22.03401662967621" id="-39001">
		<tag k="name" v="Gråneset" />
		<tag k="natural" v="cape" />
		<tag k="ssr:stedsnr" v="45721" />
	</node>
	<node lat="69.92823889444696" lon="21.841874959257808" id="-39003">
		<tag k="name" v="Sortvikgrunnen" />
		<tag k="natural" v="shoal" />
		<tag k="place" v="locality" />
		<tag k="ssr:stedsnr" v="46282" />
	</node>
	<node lat="69.9347833299736" lon="21.65257497149667" id="-39010">
		<tag k="name" v="Steinnes" />
		<tag k="natural" v="cape" />
		<tag k="ssr:stedsnr" v="54019" />
	</node>
	<node lat="70.01788888793601" lon="21.55385553236447" id="-39011">
		<tag k="name" v="Rottenbukta" />
		<tag k="natural" v="bay" />
		<tag k="ssr:stedsnr" v="54067" />
	</node>
	<node lat="69.79184444638173" lon="21.94100273860438" id="-39025">
		<tag k="bay" v="fjord" />
		<tag k="name" v="Navitfjorden - Návetfávli - Navetanvuono" />
		<tag k="name:fkv" v="Navetanvuono" />
		<tag k="name:no" v="Navitfjorden" />
		<tag k="name:se" v="Návetfávli" />
		<tag k="natural" v="bay" />
		<tag k="ssr:stedsnr" v="54851" />
	</node>
	<node lat="69.76505000056939" lon="22.045777743152968" id="-39027">
		<tag k="name" v="Skjerbukta" />
		<tag k="natural" v="bay" />
		<tag k="ssr:stedsnr" v="80003" />
	</node>
	<node lat="69.74350000101768" lon="22.035844402258906" id="-39035">
		<tag k="alt_name:no" v="Toppelbukta" />
		<tag k="name" v="Toppelbukt - Duoppalmohkki" />
		<tag k="name:no" v="Toppelbukt" />
		<tag k="name:se" v="Duoppalmohkki" />
		<tag k="natural" v="bay" />
		<tag k="ssr:stedsnr" v="80312" />
	</node>
	<node lat="70.01261389416354" lon="21.43832497051657" id="-39036">
		<tag k="name" v="Reinnes - Boazonjárga" />
		<tag k="name:no" v="Reinnes" />
		<tag k="name:se" v="Boazonjárga" />
		<tag k="natural" v="cape" />
		<tag k="old_name:se" v="Boazunjarga" />
		<tag k="ssr:stedsnr" v="80354" />
	</node>
	<node lat="70.07937500324664" lon="21.818602737408636" id="-39038">
		<tag k="alt_name" v="Nappen, in" />
		<tag k="fixme" v="multiple name tags, choose one and add the other to alt_name" />
		<tag k="name" v="Stornappen;Indre Nappen" />
		<tag k="natural" v="cape" />
		<tag k="ssr:stedsnr" v="80441" />
	</node>
	<node lat="69.91614999997094" lon="21.732261068288835" id="-39041">
		<tag k="name" v="Neset" />
		<tag k="natural" v="cape" />
		<tag k="ssr:stedsnr" v="80496" />
	</node>
	<node lat="70.18075277407749" lon="21.166172204844028" id="-39043">
		<tag k="name" v="Sørskallen" />
		<tag k="natural" v="shoal" />
		<tag k="place" v="locality" />
		<tag k="ssr:stedsnr" v="90003" />
	</node>
	<node lat="70.01189722340514" lon="21.282577760000486" id="-39044">
		<tag k="alt_name" v="Lilleøyra" />
		<tag k="name" v="Lilleøra" />
		<tag k="natural" v="shoal" />
		<tag k="place" v="locality" />
		<tag k="ssr:stedsnr" v="106003" />
	</node>
	<node lat="69.97903889181843" lon="21.21389718789116" id="-39045">
		<tag k="alt_name" v="Ytter-Avløysinga" />
		<tag k="name" v="Ytre Avløysinga" />
		<tag k="natural" v="cape" />
		<tag k="ssr:stedsnr" v="106014" />
	</node>
	<node lat="69.9093444413086" lon="21.7619444179821" id="-39046">
		<tag k="name" v="Nesskallen" />
		<tag k="natural" v="shoal" />
		<tag k="place" v="locality" />
		<tag k="ssr:stedsnr" v="106299" />
	</node>
	<node lat="70.02245555998375" lon="22.067913836997125" id="-39047">
		<tag k="name" v="Stranda" />
		<tag k="natural" v="beach" />
		<tag k="ssr:stedsnr" v="106728" />
	</node>
	<node lat="69.93862222600305" lon="21.79730828624245" id="-39049">
		<tag k="fixme" v="consider seamark:type=rock or natural=shoal" />
		<tag k="name" v="Seibåen" />
		<tag k="place" v="islet" />
		<tag k="ssr:stedsnr" v="107274" />
	</node>
	<node lat="69.94242222573084" lon="21.801658294789302" id="-39050">
		<tag k="fixme" v="consider seamark:type=rock or natural=shoal" />
		<tag k="name" v="Skagskjæret" />
		<tag k="place" v="islet" />
		<tag k="ssr:stedsnr" v="107275" />
	</node>
	<node lat="70.09080833474985" lon="22.019244397479675" id="-39051">
		<tag k="name" v="Gurramohkki" />
		<tag k="name:se" v="Gurramohkki" />
		<tag k="natural" v="bay" />
		<tag k="ssr:stedsnr" v="108371" />
	</node>
	<node lat="70.12696944470157" lon="22.0652860665018" id="-39052">
		<tag k="fixme" v="consider seamark:type=rock or natural=shoal" />
		<tag k="name" v="Revet" />
		<tag k="place" v="islet" />
		<tag k="ssr:stedsnr" v="108786" />
	</node>
	<node lat="70.09295277816845" lon="21.560252754360185" id="-39055">
		<tag k="name" v="Neset" />
		<tag k="natural" v="cape" />
		<tag k="ssr:stedsnr" v="109880" />
	</node>
	<node lat="70.03441111144332" lon="21.572822199966453" id="-39059">
		<tag k="name" v="Skjåvikholmen" />
		<tag k="place" v="islet" />
		<tag k="ssr:stedsnr" v="115106" />
	</node>
	<node lat="69.9931944438901" lon="21.680066620471052" id="-39060">
		<tag k="name" v="Nesodden" />
		<tag k="natural" v="cape" />
		<tag k="ssr:stedsnr" v="115126" />
	</node>
	<node lat="69.84271111337475" lon="21.89116383616869" id="-39066">
		<tag k="name" v="Strømbukt" />
		<tag k="natural" v="bay" />
		<tag k="ssr:stedsnr" v="115523" />
	</node>
	<node lat="69.73974328957922" lon="22.04888437235772" id="-39075">
		<tag k="alt_name:fkv" v="Baurakkanjemi" />
		<tag k="name" v="Villreinneset - Peurakkaniemi" />
		<tag k="name:fkv" v="Peurakkaniemi" />
		<tag k="name:no" v="Villreinneset" />
		<tag k="natural" v="cape" />
		<tag k="ssr:stedsnr" v="115704" />
	</node>
	<node lat="69.74628171286284" lon="22.116705713073216" id="-39077">
		<tag k="fixme" v="consider seamark:type=rock or natural=shoal" />
		<tag k="name" v="Lensmannsskjæret" />
		<tag k="place" v="islet" />
		<tag k="ssr:stedsnr" v="115708" />
	</node>
	<node lat="69.76916666757397" lon="22.072388850383465" id="-39083">
		<tag k="name" v="Rekbukta" />
		<tag k="natural" v="bay" />
		<tag k="ssr:stedsnr" v="140005" />
	</node>
	<node lat="70.06265833669529" lon="21.902605522678336" id="-39091">
		<tag k="name" v="Hjellnesgrunnen" />
		<tag k="natural" v="shoal" />
		<tag k="place" v="locality" />
		<tag k="ssr:stedsnr" v="154864" />
	</node>
	<node lat="69.97531667000774" lon="21.522188849626467" id="-39093">
		<tag k="name" v="Prestlaneset" />
		<tag k="natural" v="cape" />
		<tag k="ssr:stedsnr" v="167006" />
	</node>
	<node lat="70.01479722269029" lon="21.22401941547819" id="-39094">
		<tag k="name" v="Skallen" />
		<tag k="natural" v="shoal" />
		<tag k="place" v="locality" />
		<tag k="ssr:stedsnr" v="167014" />
	</node>
	<node lat="70.1512694403995" lon="21.44492220233623" id="-39095">
		<tag k="name" v="Gambukta" />
		<tag k="natural" v="bay" />
		<tag k="ssr:stedsnr" v="166904" />
	</node>
	<node lat="70.14585277979015" lon="21.40705275008386" id="-39096">
		<tag k="name" v="Nersokkodden" />
		<tag k="natural" v="cape" />
		<tag k="ssr:stedsnr" v="166905" />
	</node>
	<node lat="69.96488888878275" lon="21.81306108554764" id="-39100">
		<tag k="name" v="Bankenesklubbgrunnen" />
		<tag k="natural" v="shoal" />
		<tag k="place" v="locality" />
		<tag k="ssr:stedsnr" v="167762" />
	</node>
	<node lat="70.20431667188188" lon="21.201838860681736" id="-39101">
		<tag k="name" v="Per-Larsabukta" />
		<tag k="natural" v="bay" />
		<tag k="ssr:stedsnr" v="168765" />
	</node>
	<node lat="69.82029999971111" lon="21.969366617426033" id="-39104">
		<tag k="bay" v="fjord" />
		<tag k="name" v="Kjøllefjorden" />
		<tag k="natural" v="bay" />
		<tag k="ssr:stedsnr" v="262093" />
	</node>
	<node lat="69.94561666865198" lon="21.791511086808477" id="-39107">
		<tag k="alt_name" v="Skarvskjeret;Skarvskjær" />
		<tag k="fixme" v="consider seamark:type=rock or natural=shoal" />
		<tag k="name" v="Skarvskjæret" />
		<tag k="place" v="islet" />
		<tag k="ssr:stedsnr" v="262125" />
	</node>
	<node lat="70.02066944415849" lon="21.33052219765108" id="-39112">
		<tag k="name" v="Håmannsvika" />
		<tag k="natural" v="bay" />
		<tag k="ssr:stedsnr" v="175367" />
	</node>
	<node lat="69.73611944771429" lon="21.987477741164376" id="-39115">
		<tag k="name" v="Paloniemi" />
		<tag k="name:fkv" v="Paloniemi" />
		<tag k="natural" v="cape" />
		<tag k="ssr:stedsnr" v="175806" />
	</node>
	<node lat="70.00965833237464" lon="21.864555511250384" id="-39116">
		<tag k="fixme" v="consider seamark:type=rock or natural=shoal" />
		<tag k="name" v="Vassnesskjæret" />
		<tag k="place" v="islet" />
		<tag k="ssr:stedsnr" v="175754" />
	</node>
	<node lat="69.93938333905314" lon="22.015686063240775" id="-39123">
		<tag k="name" v="Sjurbukta" />
		<tag k="natural" v="bay" />
		<tag k="ssr:stedsnr" v="176610" />
	</node>
	<node lat="70.17354167145145" lon="21.47435830766869" id="-39140">
		<tag k="alt_name" v="Samuelsnes" />
		<tag k="name" v="Samuelsneset" />
		<tag k="natural" v="cape" />
		<tag k="ssr:stedsnr" v="262162" />
	</node>
	<node lat="69.94950000225063" lon="21.8936444038652" id="-39142">
		<tag k="fixme" v="multiple name tags, choose one and add the other to alt_name" />
		<tag k="name" v="Lille Dinganeset;Dingalneset" />
		<tag k="natural" v="cape" />
		<tag k="ssr:stedsnr" v="262137" />
	</node>
	<node lat="69.97767777625714" lon="21.871738847909196" id="-39152">
		<tag k="fixme" v="multiple name tags, choose one and add the other to alt_name" />
		<tag k="name" v="Klubbodden;Klubben" />
		<tag k="natural" v="cape" />
		<tag k="ssr:stedsnr" v="262235" />
	</node>
	<node lat="70.10798333357772" lon="21.295902744071775" id="-39153">
		<tag k="name" v="Johan-Ellabukta" />
		<tag k="natural" v="bay" />
		<tag k="ssr:stedsnr" v="262310" />
	</node>
	<node lat="70.09842500251547" lon="21.31973608064828" id="-39154">
		<tag k="name" v="Målsnes" />
		<tag k="natural" v="cape" />
		<tag k="ssr:stedsnr" v="262317" />
	</node>
	<node lat="70.01893333592437" lon="21.3191138623417" id="-39155">
		<tag k="name" v="Sauvika" />
		<tag k="natural" v="bay" />
		<tag k="ssr:stedsnr" v="262334" />
	</node>
	<node lat="70.01377777599754" lon="21.418322204249208" id="-39157">
		<tag k="alt_name" v="Skittenbergvika" />
		<tag k="name" v="Skitbergvika" />
		<tag k="natural" v="bay" />
		<tag k="old_name" v="Skilbergvika" />
		<tag k="ssr:stedsnr" v="262341" />
	</node>
	<node lat="70.03598056123703" lon="21.877769395900824" id="-39167">
		<tag k="name" v="Dusnjárga" />
		<tag k="name:se" v="Dusnjárga" />
		<tag k="natural" v="cape" />
		<tag k="old_name:se" v="Dusnjarga" />
		<tag k="ssr:stedsnr" v="262480" />
	</node>
	<node lat="69.79812222617002" lon="21.977352749423268" id="-39181">
		<tag k="fixme" v="multiple name tags, choose one and add the other to alt_name" />
		<tag k="name" v="Årøya;Store Årøya;Årøya, store - Vuorri - Iso Vuori;Vuori" />
		<tag k="name:fkv" v="Iso Vuori;Vuori" />
		<tag k="name:no" v="Årøya;Store Årøya;Årøya, store" />
		<tag k="name:se" v="Vuorri" />
		<tag k="place" v="island" />
		<tag k="ssr:stedsnr" v="201098" />
	</node>
	<node lat="70.09686667038305" lon="21.582163862310924" id="-39187">
		<tag k="bay" v="fjord" />
		<tag k="name" v="Reinfjorden - Boazovuonna" />
		<tag k="name:no" v="Reinfjorden" />
		<tag k="name:se" v="Boazovuonna" />
		<tag k="natural" v="bay" />
		<tag k="old_name:se" v="Boazuvuodna" />
		<tag k="ssr:stedsnr" v="201301" />
	</node>
	<node lat="69.99396666650537" lon="21.22338329860007" id="-39193">
		<tag k="alt_name" v="Pålsavika" />
		<tag k="name" v="Pålsabukta" />
		<tag k="natural" v="bay" />
		<tag k="ssr:stedsnr" v="201892" />
	</node>
	<node lat="70.16928888879347" lon="21.240747187395975" id="-39199">
		<tag k="name" v="Torskenesbakken" />
		<tag k="natural" v="shoal" />
		<tag k="place" v="locality" />
		<tag k="ssr:stedsnr" v="272638" />
	</node>
	<node lat="69.84854722772556" lon="21.905769400198793" id="-39200">
		<tag k="name" v="Teistflua" />
		<tag k="place" v="locality" />
		<tag k="seamark:type" v="rock" />
		<tag k="ssr:stedsnr" v="227090" />
	</node>
	<node lat="69.84403055921291" lon="21.845005510833857" id="-39202">
		<tag k="alt_name" v="Tømmervikbukta" />
		<tag k="name" v="Tømmerbukta" />
		<tag k="natural" v="bay" />
		<tag k="ssr:stedsnr" v="227094" />
	</node>
	<node lat="70.01948333324216" lon="21.380302752033167" id="-39203">
		<tag k="name" v="Øyrbukta" />
		<tag k="natural" v="bay" />
		<tag k="ssr:stedsnr" v="227101" />
	</node>
	<node lat="69.9091472240719" lon="21.611447201577267" id="-39204">
		<tag k="name" v="Ytre Hjellberggrunnen" />
		<tag k="natural" v="shoal" />
		<tag k="place" v="locality" />
		<tag k="ssr:stedsnr" v="227292" />
	</node>
	<node lat="70.09958333307509" lon="22.002722191117137" id="-39207">
		<tag k="fixme" v="consider seamark:type=rock or natural=shoal" />
		<tag k="name" v="Skalsaskjæret" />
		<tag k="place" v="islet" />
		<tag k="ssr:stedsnr" v="229806" />
	</node>
	<node lat="70.0984666707471" lon="21.320127744465054" id="-39208">
		<tag k="name" v="Avløsninga" />
		<tag k="natural" v="cape" />
		<tag k="ssr:stedsnr" v="230705" />
	</node>
	<node lat="70.02616110728779" lon="21.682216638903636" id="-39212">
		<tag k="name" v="Gaskkasbihttá" />
		<tag k="name:se" v="Gaskkasbihttá" />
		<tag k="natural" v="bay" />
		<tag k="ssr:stedsnr" v="236204" />
	</node>
	<node lat="69.87476111587567" lon="21.77295550960479" id="-39214">
		<tag k="name" v="Ruossmohkki" />
		<tag k="name:se" v="Ruossmohkki" />
		<tag k="natural" v="bay" />
		<tag k="ssr:stedsnr" v="236132" />
	</node>
	<node lat="70.01744189863162" lon="21.55152018732962" id="-39215">
		<tag k="name" v="Skageklubben" />
		<tag k="natural" v="cape" />
		<tag k="ssr:stedsnr" v="236408" />
	</node>
	<node lat="69.81414166788637" lon="21.95381384954218" id="-39230">
		<tag k="alt_name" v="Kjøllefjordnes" />
		<tag k="name" v="Kjøllefjordneset" />
		<tag k="natural" v="cape" />
		<tag k="ssr:stedsnr" v="262114" />
	</node>
	<node lat="69.96116111082198" lon="21.891969399187403" id="-39235">
		<tag k="alt_name" v="Kvænbukta" />
		<tag k="name" v="Kvenbukta" />
		<tag k="natural" v="bay" />
		<tag k="ssr:stedsnr" v="262244" />
	</node>
	<node lat="70.07158055692518" lon="21.87419440561889" id="-39237">
		<tag k="bay" v="fjord" />
		<tag k="name" v="Jøkelfjorden - Jiehkkervuonna" />
		<tag k="name:no" v="Jøkelfjorden" />
		<tag k="name:se" v="Jiehkkervuonna" />
		<tag k="natural" v="bay" />
		<tag k="old_name:se" v="Jiekkervuodna" />
		<tag k="ssr:stedsnr" v="262450" />
	</node>
	<node lat="69.97355833733974" lon="21.511324970737213" id="-39244">
		<tag k="alt_name" v="Valanbotnen;Valabotn" />
		<tag k="name" v="Valabotnen" />
		<tag k="natural" v="bay" />
		<tag k="ssr:stedsnr" v="262899" />
	</node>
	<node lat="70.19685555436816" lon="21.21128885043257" id="-39249">
		<tag k="name" v="Bøttnesbåen" />
		<tag k="natural" v="shoal" />
		<tag k="place" v="locality" />
		<tag k="ssr:stedsnr" v="272006" />
	</node>
	<node lat="70.1172166632437" lon="21.197936085230882" id="-39250">
		<tag k="name" v="Råvasten" />
		<tag k="natural" v="shoal" />
		<tag k="place" v="locality" />
		<tag k="ssr:stedsnr" v="272692" />
	</node>
	<node lat="70.02162500388688" lon="21.376083317254963" id="-39251">
		<tag k="alt_name" v="Mannskarvikøyra" />
		<tag k="name" v="Mannskarvikøra" />
		<tag k="natural" v="shoal" />
		<tag k="place" v="locality" />
		<tag k="ssr:stedsnr" v="288087" />
	</node>
	<node lat="69.88646111581515" lon="21.816174968517405" id="-39253">
		<tag k="name" v="Stålvollgrunnen" />
		<tag k="natural" v="shoal" />
		<tag k="place" v="locality" />
		<tag k="ssr:stedsnr" v="288276" />
	</node>
	<node lat="69.89372222578592" lon="21.812519420519056" id="-39254">
		<tag k="name" v="Buktebåen" />
		<tag k="natural" v="shoal" />
		<tag k="place" v="locality" />
		<tag k="ssr:stedsnr" v="288277" />
	</node>
	<node lat="69.94217500308872" lon="21.63451662274828" id="-39255">
		<tag k="name" v="Sørråsa" />
		<tag k="natural" v="shoal" />
		<tag k="place" v="locality" />
		<tag k="ssr:stedsnr" v="288285" />
	</node>
	<node lat="70.15989999759968" lon="21.30111940675375" id="-39256">
		<tag k="name" v="Nils-Ivarneset" />
		<tag k="natural" v="cape" />
		<tag k="ssr:stedsnr" v="288926" />
	</node>
	<node lat="70.05356666591993" lon="21.810430524109133" id="-39258">
		<tag k="name" v="Seigrunnen" />
		<tag k="natural" v="shoal" />
		<tag k="place" v="locality" />
		<tag k="ssr:stedsnr" v="289778" />
	</node>
	<node lat="70.03942778134284" lon="21.59028330662444" id="-39259">
		<tag k="alt_name" v="Avløysinga" />
		<tag k="fixme" v="consider seamark:type=rock or natural=shoal" />
		<tag k="name" v="Avløsningen" />
		<tag k="place" v="islet" />
		<tag k="ssr:stedsnr" v="289787" />
	</node>
	<node lat="69.97171944313283" lon="21.525288851279484" id="-39269">
		<tag k="name" v="Langstrandneset" />
		<tag k="natural" v="cape" />
		<tag k="ssr:stedsnr" v="296435" />
	</node>
	<node lat="69.78946389471261" lon="21.917938839878822" id="-39272">
		<tag k="name" v="Ytre Navit - Olggut Návet" />
		<tag k="name:no" v="Ytre Navit" />
		<tag k="name:se" v="Olggut Návet" />
		<tag k="natural" v="bay" />
		<tag k="ssr:stedsnr" v="296832" />
	</node>
	<node lat="69.99829166984415" lon="21.709311079893673" id="-39275">
		<tag k="name" v="Underskjærbukta" />
		<tag k="natural" v="bay" />
		<tag k="ssr:stedsnr" v="297113" />
	</node>
	<node lat="69.88466388851091" lon="21.704963863595363" id="-39276">
		<tag k="name" v="Indre Klokkarsteinen" />
		<tag k="natural" v="cape" />
		<tag k="ssr:stedsnr" v="297023" />
	</node>
	<node lat="69.907308336317" lon="21.602541644951582" id="-39279">
		<tag k="name" v="Hjellbergbukta" />
		<tag k="natural" v="bay" />
		<tag k="ssr:stedsnr" v="297074" />
	</node>
	<node lat="69.91886944138861" lon="21.707663858410324" id="-39281">
		<tag k="name" v="Smånessan" />
		<tag k="natural" v="cape" />
		<tag k="ssr:stedsnr" v="297084" />
	</node>
	<node lat="70.02902500505319" lon="22.059908294894377" id="-39285">
		<tag k="name" v="Laslettneset" />
		<tag k="natural" v="cape" />
		<tag k="ssr:stedsnr" v="297527" />
	</node>
	<node lat="69.74162777754916" lon="22.044827734731076" id="-39291">
		<tag k="name" v="Hjellnes" />
		<tag k="natural" v="cape" />
		<tag k="ssr:stedsnr" v="297730" />
	</node>
	<node lat="70.08260278049332" lon="22.004588839751392" id="-39295">
		<tag k="name" v="Saltnes - Sáltenjárga" />
		<tag k="name:no" v="Saltnes" />
		<tag k="name:se" v="Sáltenjárga" />
		<tag k="natural" v="cape" />
		<tag k="old_name:se" v="Saltenjarga" />
		<tag k="ssr:stedsnr" v="322279" />
	</node>
	<node lat="70.01761596220281" lon="22.030153110972115" id="-39306">
		<tag k="name" v="Peterbukta - Biehtámohkki" />
		<tag k="name:no" v="Peterbukta" />
		<tag k="name:se" v="Biehtámohkki" />
		<tag k="natural" v="bay" />
		<tag k="old_name:se" v="Biettamåkki" />
		<tag k="ssr:stedsnr" v="323480" />
	</node>
	<node lat="69.94034722005487" lon="21.86025829827849" id="-39309">
		<tag k="name" v="Rastenesgrunnen" />
		<tag k="natural" v="shoal" />
		<tag k="place" v="locality" />
		<tag k="ssr:stedsnr" v="470252" />
	</node>
	<node lat="70.00948055747776" lon="21.864236071113126" id="-39311">
		<tag k="name" v="Vassnesgrunnen" />
		<tag k="natural" v="shoal" />
		<tag k="place" v="locality" />
		<tag k="ssr:stedsnr" v="470732" />
	</node>
	<node lat="69.99083333367633" lon="21.649874958664054" id="-39312">
		<tag k="name" v="Garnsgrunnen" />
		<tag k="natural" v="shoal" />
		<tag k="place" v="locality" />
		<tag k="ssr:stedsnr" v="470745" />
	</node>
	<node lat="70.18531666755291" lon="21.157327761474303" id="-39313">
		<tag k="name" v="Ytterskallen" />
		<tag k="natural" v="shoal" />
		<tag k="place" v="locality" />
		<tag k="ssr:stedsnr" v="333016" />
	</node>
	<node lat="70.00160833576038" lon="21.56639162300738" id="-39316">
		<tag k="name" v="Darupgrunnen" />
		<tag k="natural" v="shoal" />
		<tag k="place" v="locality" />
		<tag k="ssr:stedsnr" v="471736" />
	</node>
	<node lat="70.12028055330761" lon="21.322705518907526" id="-39322">
		<tag k="name" v="Småseikeila" />
		<tag k="natural" v="bay" />
		<tag k="ssr:stedsnr" v="472675" />
	</node>
	<node lat="70.2018000040606" lon="21.199883316025836" id="-39325">
		<tag k="name" v="Ramneset" />
		<tag k="natural" v="cape" />
		<tag k="ssr:stedsnr" v="472753" />
	</node>
	<node lat="70.09018611128188" lon="21.555941641906358" id="-39329">
		<tag k="fixme" v="consider seamark:type=rock or natural=shoal" />
		<tag k="name" v="Nesseskjæret" />
		<tag k="place" v="islet" />
		<tag k="ssr:stedsnr" v="472892" />
	</node>
	<node lat="69.79139444850233" lon="21.993824948603404" id="-39348">
		<tag k="name" v="Tirrunniemi" />
		<tag k="name:fkv" v="Tirrunniemi" />
		<tag k="natural" v="cape" />
		<tag k="ssr:stedsnr" v="357906" />
	</node>
	<node lat="69.77164167073465" lon="21.95526385554591" id="-39349">
		<tag k="name" v="Oterbukta" />
		<tag k="natural" v="bay" />
		<tag k="ssr:stedsnr" v="357919" />
	</node>
	<node lat="69.75681110831978" lon="22.02340828607469" id="-39350">
		<tag k="name" v="Gambukta - Kotamukka" />
		<tag k="name:fkv" v="Kotamukka" />
		<tag k="name:no" v="Gambukta" />
		<tag k="natural" v="bay" />
		<tag k="old_name:no" v="Kåtebukta" />
		<tag k="ssr:stedsnr" v="357998" />
	</node>
	<node lat="69.97528333484482" lon="21.528141644119128" id="-39353">
		<tag k="fixme" v="consider seamark:type=rock or natural=shoal" />
		<tag k="name" v="Prestlaskjeret" />
		<tag k="place" v="islet" />
		<tag k="ssr:stedsnr" v="478476" />
	</node>
	<node lat="69.98737222493912" lon="21.504730527701035" id="-39356">
		<tag k="name" v="Pompefjæra" />
		<tag k="natural" v="beach" />
		<tag k="ssr:stedsnr" v="478486" />
	</node>
	<node lat="70.044430555425" lon="21.619569413248342" id="-39361">
		<tag k="name" v="Kvalen" />
		<tag k="natural" v="bay" />
		<tag k="ssr:stedsnr" v="479084" />
	</node>
	<node lat="69.82526667271321" lon="21.871561063761085" id="-39366">
		<tag k="name" v="Gálbemohkki" />
		<tag k="name:se" v="Gálbemohkki" />
		<tag k="natural" v="bay" />
		<tag k="ssr:stedsnr" v="479152" />
	</node>
	<node lat="69.77551388755691" lon="22.08759161716367" id="-39378">
		<tag k="fixme" v="consider seamark:type=rock or natural=shoal" />
		<tag k="name" v="Kjækanskjæret" />
		<tag k="place" v="islet" />
		<tag k="ssr:stedsnr" v="479671" />
	</node>
	<node lat="69.7385722241187" lon="22.094905522145428" id="-39389">
		<tag k="name" v="Rompeneset" />
		<tag k="natural" v="cape" />
		<tag k="ssr:stedsnr" v="479740" />
	</node>
	<node lat="69.76811111575361" lon="21.979488842159714" id="-39397">
		<tag k="name" v="Bjørnebukta - Äijäsenmukka" />
		<tag k="name:fkv" v="Äijäsenmukka" />
		<tag k="name:no" v="Bjørnebukta" />
		<tag k="natural" v="bay" />
		<tag k="ssr:stedsnr" v="383003" />
	</node>
	<node lat="69.92658333573725" lon="21.801008289429753" id="-39404">
		<tag k="fixme" v="consider seamark:type=rock or natural=shoal" />
		<tag k="name" v="Ytrenøklan" />
		<tag k="place" v="islet" />
		<tag k="ssr:stedsnr" v="383161" />
	</node>
	<node lat="69.97438055305358" lon="21.782291634648328" id="-39408">
		<tag k="name" v="Flatholmen" />
		<tag k="place" v="islet" />
		<tag k="ssr:stedsnr" v="383263" />
	</node>
	<node lat="70.01845277543678" lon="21.292049960933927" id="-39409">
		<tag k="alt_name" v="Haukøysundet, l" />
		<tag k="name" v="Lille Haukøysundet" />
		<tag k="natural" v="strait" />
		<tag k="ssr:stedsnr" v="383351" />
	</node>
	<node lat="70.01717499790345" lon="21.55187497428043" id="-39411">
		<tag k="name" v="Skaga - Skáktá" />
		<tag k="name:no" v="Skaga" />
		<tag k="name:se" v="Skáktá" />
		<tag k="natural" v="cape" />
		<tag k="old_name:se" v="Skakta" />
		<tag k="ssr:stedsnr" v="383357" />
	</node>
	<node lat="69.99093611333987" lon="21.905316637813446" id="-39421">
		<tag k="name" v="Klakken" />
		<tag k="natural" v="shoal" />
		<tag k="ssr:stedsnr" v="409715" />
	</node>
	<node lat="69.93891388900703" lon="21.6583971773751" id="-39423">
		<tag k="name" v="Småseigrunnen" />
		<tag k="natural" v="shoal" />
		<tag k="place" v="locality" />
		<tag k="ssr:stedsnr" v="410308" />
	</node>
	<node lat="69.89085833602334" lon="21.888227744464952" id="-39436">
		<tag k="name" v="Bankenesbukta" />
		<tag k="natural" v="bay" />
		<tag k="ssr:stedsnr" v="418585" />
	</node>
	<node lat="69.73875555958213" lon="21.971477738745293" id="-39440">
		<tag k="name" v="Silliplana" />
		<tag k="name:fkv" v="Silliplana" />
		<tag k="natural" v="beach" />
		<tag k="ssr:stedsnr" v="418803" />
	</node>
	<node lat="69.75270000386271" lon="22.092330520606136" id="-39445">
		<tag k="name" v="Tangnesholmen - Daŋassuolu - Tangasensaari" />
		<tag k="name:fkv" v="Tangasensaari" />
		<tag k="name:no" v="Tangnesholmen" />
		<tag k="name:se" v="Daŋassuolu" />
		<tag k="old_name:se" v="Daŋasgaddi" />
		<tag k="place" v="islet" />
		<tag k="ssr:stedsnr" v="444014" />
	</node>
	<node lat="69.80355833378134" lon="21.906430505092295" id="-39448">
		<tag k="name" v="Storneset" />
		<tag k="natural" v="cape" />
		<tag k="ssr:stedsnr" v="444113" />
	</node>
	<node lat="70.09505833256138" lon="21.477222201931276" id="-39450">
		<tag k="alt_name:no" v="Spitneset" />
		<tag k="name" v="Spitnes - Áhpenjárga" />
		<tag k="name:no" v="Spitnes" />
		<tag k="name:se" v="Áhpenjárga" />
		<tag k="natural" v="cape" />
		<tag k="old_name:se" v="Appenjarga" />
		<tag k="ssr:stedsnr" v="444302" />
	</node>
	<node lat="70.01925833846887" lon="21.346136079066934" id="-39451">
		<tag k="alt_name" v="Mannskardvika" />
		<tag k="name" v="Mannskarvika" />
		<tag k="natural" v="bay" />
		<tag k="ssr:stedsnr" v="444309" />
	</node>
	<node lat="69.74882434057031" lon="22.052315827511116" id="-39454">
		<tag k="alt_name:fkv" v="Morsonjemi" />
		<tag k="fixme" v="multiple name tags, choose one and add the other to alt_name" />
		<tag k="name" v="Morsoneset;Hvalrossneset - Moršanjárga - Mursuniemi" />
		<tag k="name:fkv" v="Mursuniemi" />
		<tag k="name:no" v="Morsoneset;Hvalrossneset" />
		<tag k="name:se" v="Moršanjárga" />
		<tag k="natural" v="cape" />
		<tag k="ssr:stedsnr" v="444285" />
	</node>
	<node lat="70.17474722336203" lon="21.162766654100835" id="-39461">
		<tag k="name" v="Vannbergskallen" />
		<tag k="natural" v="shoal" />
		<tag k="place" v="locality" />
		<tag k="ssr:stedsnr" v="454002" />
	</node>
	<node lat="70.0705972200299" lon="21.82050552928796" id="-39462">
		<tag k="name" v="Tverfjordgrunnen" />
		<tag k="natural" v="shoal" />
		<tag k="place" v="locality" />
		<tag k="ssr:stedsnr" v="457839" />
	</node>
	<node lat="69.97983055382718" lon="21.523819418963296" id="-39464">
		<tag k="name" v="Vandebergneset" />
		<tag k="natural" v="cape" />
		<tag k="ssr:stedsnr" v="470013" />
	</node>
	<node lat="70.00957777956452" lon="21.241302738594396" id="-39465">
		<tag k="alt_name" v="Meilandsøyra" />
		<tag k="name" v="Meilandsøra" />
		<tag k="natural" v="shoal" />
		<tag k="place" v="locality" />
		<tag k="ssr:stedsnr" v="470021" />
	</node>
	<node lat="69.87018610931814" lon="21.930058289135683" id="-39467">
		<tag k="name" v="Hjellnesbukta" />
		<tag k="natural" v="bay" />
		<tag k="ssr:stedsnr" v="469971" />
	</node>
	<node lat="69.88969722313905" lon="21.824119395344372" id="-39476">
		<tag k="name" v="Indre Nøkland" />
		<tag k="natural" v="bay" />
		<tag k="ssr:stedsnr" v="478208" />
	</node>
	<node lat="70.01656666912035" lon="21.724958311904064" id="-39479">
		<tag k="name" v="Fattnjárga" />
		<tag k="name:se" v="Fattnjárga" />
		<tag k="natural" v="cape" />
		<tag k="ssr:stedsnr" v="478789" />
	</node>
	<node lat="70.01466111238463" lon="21.728011080324393" id="-39480">
		<tag k="name" v="Guiveluokta" />
		<tag k="name:se" v="Guiveluokta" />
		<tag k="natural" v="bay" />
		<tag k="ssr:stedsnr" v="478791" />
	</node>
	<node lat="69.94316667013479" lon="21.67240552906472" id="-39482">
		<tag k="name" v="Avløsningen" />
		<tag k="natural" v="bay" />
		<tag k="ssr:stedsnr" v="479006" />
	</node>
	<node lat="69.76990000255024" lon="22.038802744835888" id="-39491">
		<tag k="alt_name:no" v="Litlestraumen" />
		<tag k="name" v="Lillestraumen - Pikkuvirta" />
		<tag k="name:fkv" v="Pikkuvirta" />
		<tag k="name:no" v="Lillestraumen" />
		<tag k="natural" v="strait" />
		<tag k="ssr:stedsnr" v="504002" />
	</node>
	<node lat="70.033266663791" lon="21.584913848665607" id="-39501">
		<tag k="name" v="Skjåvika" />
		<tag k="natural" v="bay" />
		<tag k="ssr:stedsnr" v="504310" />
	</node>
	<node lat="69.85267222316311" lon="21.867055507026024" id="-39507">
		<tag k="name" v="Storstraumen - Stuora Rávdnji - Isovirta" />
		<tag k="name:fkv" v="Isovirta" />
		<tag k="name:no" v="Storstraumen" />
		<tag k="name:se" v="Stuora Rávdnji" />
		<tag k="natural" v="strait" />
		<tag k="old_name:se" v="Ravdnji, stuora" />
		<tag k="ssr:stedsnr" v="505067" />
	</node>
	<node lat="70.223119444226" lon="21.15976108515965" id="-39513">
		<tag k="name" v="Grunneskallen" />
		<tag k="natural" v="shoal" />
		<tag k="place" v="locality" />
		<tag k="ssr:stedsnr" v="515237" />
	</node>
	<node lat="69.77111389371552" lon="22.025369388949528" id="-39514">
		<tag k="alt_name:no" v="Ytterneset" />
		<tag k="name" v="Ytreneset - Pikkuvirranniemi" />
		<tag k="name:fkv" v="Pikkuvirranniemi" />
		<tag k="name:no" v="Ytreneset" />
		<tag k="natural" v="cape" />
		<tag k="ssr:stedsnr" v="686006" />
	</node>
	<node lat="69.90361111601018" lon="21.82251108157212" id="-39515">
		<tag k="name" v="Nøklan - Lohkkalsuolu" />
		<tag k="name:no" v="Nøklan" />
		<tag k="name:se" v="Lohkkalsuolu" />
		<tag k="place" v="island" />
		<tag k="ssr:stedsnr" v="686150" />
	</node>
	<node lat="69.9068638916775" lon="21.842430515080824" id="-39516">
		<tag k="name" v="Lohkkalnuorri" />
		<tag k="name:se" v="Lohkkalnuorri" />
		<tag k="natural" v="strait" />
		<tag k="ssr:stedsnr" v="686154" />
	</node>
	<node lat="69.95122778109852" lon="22.03764162973191" id="-39519">
		<tag k="name" v="Engenes" />
		<tag k="natural" v="cape" />
		<tag k="ssr:stedsnr" v="686119" />
	</node>
	<node lat="69.91059167003091" lon="21.81831385328657" id="-39523">
		<tag k="alt_name" v="Nøklanhamn" />
		<tag k="name" v="Nøkkelhamn" />
		<tag k="natural" v="bay" />
		<tag k="ssr:stedsnr" v="686136" />
	</node>
	<node lat="70.18361944149372" lon="21.25362774257554" id="-39524">
		<tag k="name" v="Lille Torskeneset" />
		<tag k="natural" v="cape" />
		<tag k="ssr:stedsnr" v="530904" />
	</node>
	<node lat="69.91430555749886" lon="21.733683298825447" id="-39526">
		<tag k="name" v="Nesbåen" />
		<tag k="natural" v="shoal" />
		<tag k="place" v="locality" />
		<tag k="ssr:stedsnr" v="531320" />
	</node>
	<node lat="70.01992222462619" lon="21.57011662607718" id="-39528">
		<tag k="name" v="Skardevågen - Rávdnjeluokta" />
		<tag k="name:no" v="Skardevågen" />
		<tag k="name:se" v="Rávdnjeluokta" />
		<tag k="natural" v="bay" />
		<tag k="old_name:se" v="Ravdnjeluokta" />
		<tag k="ssr:stedsnr" v="686325" />
	</node>
	<node lat="70.09729166457802" lon="21.362802747936975" id="-39531">
		<tag k="name" v="Innerenden" />
		<tag k="natural" v="cape" />
		<tag k="ssr:stedsnr" v="533711" />
	</node>
	<node lat="70.11230278367046" lon="22.044588846414552" id="-39532">
		<tag k="name" v="Álleláttu" />
		<tag k="name:se" v="Álleláttu" />
		<tag k="natural" v="bay" />
		<tag k="ssr:stedsnr" v="533804" />
	</node>
	<node lat="70.10011944274821" lon="21.571633288310668" id="-39533">
		<tag k="name" v="Sauhamna" />
		<tag k="natural" v="bay" />
		<tag k="ssr:stedsnr" v="533872" />
	</node>
	<node lat="70.09770000318991" lon="21.56764442017848" id="-39537">
		<tag k="name" v="Slettaneset" />
		<tag k="natural" v="cape" />
		<tag k="ssr:stedsnr" v="533910" />
	</node>
	<node lat="70.09588611390893" lon="22.029997177946484" id="-39538">
		<tag k="name" v="Sjolmen - Šalbmi" />
		<tag k="name:no" v="Sjolmen" />
		<tag k="name:se" v="Šalbmi" />
		<tag k="natural" v="cape" />
		<tag k="ssr:stedsnr" v="686278" />
	</node>
	<node lat="70.08073055318813" lon="21.810386082128108" id="-39539">
		<tag k="bay" v="fjord" />
		<tag k="name" v="Tverrfjorden - Uhcavuonaš" />
		<tag k="name:no" v="Tverrfjorden" />
		<tag k="name:se" v="Uhcavuonaš" />
		<tag k="natural" v="bay" />
		<tag k="old_name:se" v="Uccavuonaš" />
		<tag k="ssr:stedsnr" v="686280" />
	</node>
	<node lat="69.8433750035642" lon="21.863702749568034" id="-39542">
		<tag k="name" v="Tørrelvneset" />
		<tag k="natural" v="cape" />
		<tag k="ssr:stedsnr" v="539204" />
	</node>
	<node lat="69.84734444583799" lon="21.830599961666234" id="-39543">
		<tag k="name" v="Báktenjárga" />
		<tag k="name:se" v="Báktenjárga" />
		<tag k="natural" v="cape" />
		<tag k="ssr:stedsnr" v="539209" />
	</node>
	<node lat="69.89403333125635" lon="21.88622495208483" id="-39547">
		<tag k="name" v="Kabelbukta" />
		<tag k="natural" v="bay" />
		<tag k="ssr:stedsnr" v="539553" />
	</node>
	<node lat="70.01923333394559" lon="22.04569441121274" id="-39572">
		<tag k="name" v="Hansnes" />
		<tag k="natural" v="cape" />
		<tag k="ssr:stedsnr" v="540685" />
	</node>
	<node lat="69.88620145207304" lon="21.83788309448133" id="-39579">
		<tag k="name" v="Indrenøklan" />
		<tag k="natural" v="cape" />
		<tag k="ssr:stedsnr" v="687171" />
	</node>
	<node lat="70.0091722260929" lon="21.59571662854642" id="-39585">
		<tag k="alt_name" v="Vapsgeddholmen" />
		<tag k="fixme" v="multiple name tags, choose one and add the other to alt_name; consider seamark:type=rock or natural=shoal" />
		<tag k="name" v="Vapseholmen;Systerholmen" />
		<tag k="place" v="islet" />
		<tag k="ssr:stedsnr" v="687359" />
	</node>
	<node lat="70.06406666610513" lon="21.686719401982376" id="-39586">
		<tag k="name" v="Bjørnvika - Vuolanluokta" />
		<tag k="name:no" v="Bjørnvika" />
		<tag k="name:se" v="Vuolanluokta" />
		<tag k="natural" v="bay" />
		<tag k="old_name:no" v="Bjørnvik" />
		<tag k="ssr:stedsnr" v="687432" />
	</node>
	<node lat="69.92376110871602" lon="21.109422207309226" id="-39591">
		<tag k="bay" v="fjord" />
		<tag k="name" v="Reisafjorden - Ráisavuotna - Raisinvuono" />
		<tag k="name:fkv" v="Raisinvuono" />
		<tag k="name:no" v="Reisafjorden" />
		<tag k="name:se" v="Ráisavuotna" />
		<tag k="natural" v="bay" />
		<tag k="ssr:stedsnr" v="687462" />
	</node>
	<node lat="69.98621666382243" lon="21.215563868123326" id="-39603">
		<tag k="alt_name" v="Skjeret" />
		<tag k="fixme" v="consider seamark:type=rock or natural=shoal" />
		<tag k="name" v="Skjæret" />
		<tag k="place" v="islet" />
		<tag k="ssr:stedsnr" v="565907" />
	</node>
	<node lat="70.17696944147686" lon="21.1206416518274" id="-39606">
		<tag k="name" v="Inner-Tomasen" />
		<tag k="natural" v="shoal" />
		<tag k="place" v="locality" />
		<tag k="ssr:stedsnr" v="575003" />
	</node>
	<node lat="70.20355278129598" lon="21.21898887243151" id="-39607">
		<tag k="name" v="Seglvika" />
		<tag k="natural" v="bay" />
		<tag k="ssr:stedsnr" v="575009" />
	</node>
	<node lat="70.20079999824864" lon="21.195905537422366" id="-39608">
		<tag k="name" v="Ramnnesodden" />
		<tag k="natural" v="cape" />
		<tag k="ssr:stedsnr" v="575010" />
	</node>
	<node lat="70.23282777631002" lon="21.03242774578307" id="-39609">
		<tag k="fixme" v="multiple name tags, choose one and add the other to alt_name" />
		<tag k="name" v="Larven;Ryggen" />
		<tag k="natural" v="shoal" />
		<tag k="place" v="locality" />
		<tag k="ssr:stedsnr" v="575208" />
	</node>
	<node lat="69.86819722247022" lon="21.959805506072136" id="-39610">
		<tag k="name" v="Einebukta" />
		<tag k="natural" v="bay" />
		<tag k="ssr:stedsnr" v="590960" />
	</node>
	<node lat="70.22272777903083" lon="21.17481385247821" id="-39611">
		<tag k="name" v="Lille-Brynnilsundet" />
		<tag k="natural" v="strait" />
		<tag k="ssr:stedsnr" v="591205" />
	</node>
	<node lat="70.16093055689589" lon="21.47126941143095" id="-39613">
		<tag k="name" v="Storsteinneset" />
		<tag k="natural" v="cape" />
		<tag k="ssr:stedsnr" v="591914" />
	</node>
	<node lat="70.128166665367" lon="21.430930523719567" id="-39618">
		<tag k="name" v="Atterstokken" />
		<tag k="natural" v="cape" />
		<tag k="ssr:stedsnr" v="593613" />
	</node>
	<node lat="70.10915555351576" lon="21.5775721755344" id="-39622">
		<tag k="name" v="Hamneneset" />
		<tag k="natural" v="cape" />
		<tag k="ssr:stedsnr" v="593811" />
	</node>
	<node lat="70.08514722034215" lon="21.589766641172446" id="-39627">
		<tag k="name" v="Innerneset" />
		<tag k="natural" v="cape" />
		<tag k="ssr:stedsnr" v="593863" />
	</node>
	<node lat="69.96447500559198" lon="21.522333296136733" id="-39628">
		<tag k="name" v="Henda" />
		<tag k="natural" v="cape" />
		<tag k="ssr:stedsnr" v="599355" />
	</node>
	<node lat="70.00190277999192" lon="21.23286663478852" id="-39629">
		<tag k="fixme" v="consider seamark:type=rock or natural=shoal" />
		<tag k="name" v="Oterstokkene" />
		<tag k="place" v="islet" />
		<tag k="ssr:stedsnr" v="599414" />
	</node>
	<node lat="69.92713333528997" lon="21.801858291088962" id="-39631">
		<tag k="fixme" v="consider seamark:type=rock or natural=shoal" />
		<tag k="name" v="Skjæret" />
		<tag k="place" v="islet" />
		<tag k="ssr:stedsnr" v="599754" />
	</node>
	<node lat="69.91921110911638" lon="21.685316617222583" id="-39634">
		<tag k="name" v="Amorslettneset" />
		<tag k="natural" v="cape" />
		<tag k="ssr:stedsnr" v="600058" />
	</node>
	<node lat="69.99252222193962" lon="21.981627731911363" id="-39638">
		<tag k="name" v="Djupbukt" />
		<tag k="natural" v="bay" />
		<tag k="ssr:stedsnr" v="600656" />
	</node>
	<node lat="70.16969722085295" lon="21.448066643562417" id="-39646">
		<tag k="name" v="Hamna" />
		<tag k="natural" v="bay" />
		<tag k="ssr:stedsnr" v="625161" />
	</node>
	<node lat="69.7699055561758" lon="22.049049952705325" id="-39647">
		<tag k="name" v="Lohkasnjárga - Lokkasniemi" />
		<tag k="name:fkv" v="Lokkasniemi" />
		<tag k="name:se" v="Lohkasnjárga" />
		<tag k="natural" v="cape" />
		<tag k="ssr:stedsnr" v="625003" />
	</node>
	<node lat="69.85765842662728" lon="21.807836594917905" id="-39654">
		<tag k="fixme" v="multiple name tags, choose one and add the other to alt_name" />
		<tag k="name" v="Bukta - Gárbeluotmohkki;Luokta" />
		<tag k="name:no" v="Bukta" />
		<tag k="name:se" v="Gárbeluotmohkki;Luokta" />
		<tag k="natural" v="bay" />
		<tag k="ssr:stedsnr" v="626101" />
	</node>
	<node lat="69.85483333597045" lon="21.811199972664923" id="-39663">
		<tag k="name" v="Lakseberget" />
		<tag k="natural" v="cape" />
		<tag k="ssr:stedsnr" v="651098" />
	</node>
	<node lat="70.01229166444519" lon="21.288608313919067" id="-39664">
		<tag k="name" v="Storbukta" />
		<tag k="natural" v="bay" />
		<tag k="ssr:stedsnr" v="652002" />
	</node>
	<node lat="69.94933332994272" lon="21.808274967895617" id="-39665">
		<tag k="name" v="Vestre Høgholman" />
		<tag k="place" v="islet" />
		<tag k="ssr:stedsnr" v="652240" />
	</node>
	<node lat="70.06124722054614" lon="21.86543884843721" id="-39666">
		<tag k="alt_name" v="Slettnesodden" />
		<tag k="name" v="Slettnes" />
		<tag k="natural" v="cape" />
		<tag k="ssr:stedsnr" v="653746" />
	</node>
	<node lat="70.1648805513137" lon="21.479861091353097" id="-39668">
		<tag k="name" v="Bukteneset" />
		<tag k="natural" v="cape" />
		<tag k="ssr:stedsnr" v="653989" />
	</node>
	<node lat="70.16747499888984" lon="21.479130526560702" id="-39669">
		<tag k="name" v="Nils-Ivarneset" />
		<tag k="natural" v="cape" />
		<tag k="ssr:stedsnr" v="654000" />
	</node>
	<node lat="69.93276111568268" lon="21.863836063225772" id="-39674">
		<tag k="name" v="Svartbukta" />
		<tag k="natural" v="bay" />
		<tag k="ssr:stedsnr" v="660734" />
	</node>
	<node lat="69.73961667246952" lon="21.963599957420584" id="-39676">
		<tag k="name" v="Sørfjordbotn" />
		<tag k="natural" v="bay" />
		<tag k="ssr:stedsnr" v="660798" />
	</node>
	<node lat="70.06149444607547" lon="21.91763607067737" id="-39699">
		<tag k="name" v="Varneset" />
		<tag k="natural" v="cape" />
		<tag k="ssr:stedsnr" v="687436" />
	</node>
	<node lat="70.19614722424384" lon="21.194249965072192" id="-39701">
		<tag k="name" v="Ramnnesbakken" />
		<tag k="natural" v="shoal" />
		<tag k="place" v="locality" />
		<tag k="ssr:stedsnr" v="697067" />
	</node>
	<node lat="69.97351944217904" lon="21.646063864024843" id="-39702">
		<tag k="name" v="Nygrunnen" />
		<tag k="natural" v="shoal" />
		<tag k="place" v="locality" />
		<tag k="ssr:stedsnr" v="895277" />
	</node>
	<node lat="69.9705277792059" lon="21.81158051590438" id="-39705">
		<tag k="name" v="Flatholmgrunnen" />
		<tag k="natural" v="shoal" />
		<tag k="place" v="locality" />
		<tag k="ssr:stedsnr" v="895727" />
	</node>
	<node lat="70.20621111150513" lon="21.216941643782427" id="-39706">
		<tag k="name" v="Lallaneset" />
		<tag k="natural" v="cape" />
		<tag k="ssr:stedsnr" v="897730" />
	</node>
	<node lat="70.2024138910437" lon="21.188461085314543" id="-39714">
		<tag k="name" v="Ramnnesbukta" />
		<tag k="natural" v="bay" />
		<tag k="ssr:stedsnr" v="897732" />
	</node>
	<node lat="69.95225555667477" lon="21.839677737061674" id="-39719">
		<tag k="name" v="Høgholmgrunnen" />
		<tag k="natural" v="shoal" />
		<tag k="place" v="locality" />
		<tag k="ssr:stedsnr" v="713279" />
	</node>
	<node lat="70.07967500285562" lon="22.002683294459782" id="-39722">
		<tag k="name" v="Sáttonjárga" />
		<tag k="name:se" v="Sáttonjárga" />
		<tag k="natural" v="cape" />
		<tag k="ssr:stedsnr" v="715415" />
	</node>
	<node lat="70.09326111520224" lon="21.50183886047043" id="-39723">
		<tag k="name" v="Hårnasbukta" />
		<tag k="natural" v="cape" />
		<tag k="ssr:stedsnr" v="715708" />
	</node>
	<node lat="70.09539166671198" lon="21.470255521510477" id="-39724">
		<tag k="name" v="Grindeskorra" />
		<tag k="natural" v="bay" />
		<tag k="ssr:stedsnr" v="715710" />
	</node>
	<node lat="70.15673888860411" lon="21.32797218607795" id="-39726">
		<tag k="name" v="Nakkeneset" />
		<tag k="natural" v="cape" />
		<tag k="ssr:stedsnr" v="715924" />
	</node>
	<node lat="69.9208888937602" lon="21.733677735508703" id="-39727">
		<tag k="fixme" v="consider seamark:type=rock or natural=shoal" />
		<tag k="name" v="Moanskjæret" />
		<tag k="place" v="islet" />
		<tag k="ssr:stedsnr" v="721216" />
	</node>
	<node lat="69.84133055813957" lon="21.86946939511766" id="-39728">
		<tag k="name" v="Árresnjárga" />
		<tag k="name:se" v="Árresnjárga" />
		<tag k="natural" v="cape" />
		<tag k="ssr:stedsnr" v="721218" />
	</node>
	<node lat="69.92355277672894" lon="21.64380831006796" id="-39732">
		<tag k="name" v="Kubukta" />
		<tag k="natural" v="bay" />
		<tag k="ssr:stedsnr" v="722072" />
	</node>
	<node lat="69.92709999972199" lon="21.734913858771947" id="-39743">
		<tag k="name" v="Kirkegårdsvika" />
		<tag k="natural" v="bay" />
		<tag k="ssr:stedsnr" v="903177" />
	</node>
	<node lat="69.84308333312434" lon="21.85352495593557" id="-39747">
		<tag k="name" v="Hávgamohkki" />
		<tag k="name:se" v="Hávgamohkki" />
		<tag k="natural" v="bay" />
		<tag k="ssr:stedsnr" v="903225" />
	</node>
	<node lat="69.94126111003574" lon="22.033699953990297" id="-39773">
		<tag k="name" v="Nordkjosen" />
		<tag k="natural" v="bay" />
		<tag k="ssr:stedsnr" v="904592" />
	</node>
	<node lat="69.95460833943679" lon="21.920869397804996" id="-39778">
		<tag k="name" v="Hampabukta" />
		<tag k="natural" v="bay" />
		<tag k="ssr:stedsnr" v="904628" />
	</node>
	<node lat="70.01460277647276" lon="21.931305524215187" id="-39783">
		<tag k="name" v="Molla" />
		<tag k="natural" v="bay" />
		<tag k="ssr:stedsnr" v="904693" />
	</node>
	<node lat="70.00988889050357" lon="21.22608887385314" id="-39787">
		<tag k="name" v="Småseigrunnen" />
		<tag k="natural" v="shoal" />
		<tag k="place" v="locality" />
		<tag k="ssr:stedsnr" v="774012" />
	</node>
	<node lat="70.07065277557471" lon="21.98187217727158" id="-39790">
		<tag k="name" v="Vika" />
		<tag k="natural" v="bay" />
		<tag k="ssr:stedsnr" v="775351" />
	</node>
	<node lat="70.0873638862993" lon="22.014841634347444" id="-39791">
		<tag k="name" v="Leaibinjárga" />
		<tag k="name:se" v="Leaibinjárga" />
		<tag k="natural" v="cape" />
		<tag k="ssr:stedsnr" v="776357" />
	</node>
	<node lat="70.0802972266777" lon="21.956211075187575" id="-39794">
		<tag k="name" v="Innersotnes" />
		<tag k="natural" v="cape" />
		<tag k="ssr:stedsnr" v="776806" />
	</node>
	<node lat="70.0141166678581" lon="21.29262774323363" id="-39801">
		<tag k="fixme" v="consider seamark:type=rock or natural=shoal" />
		<tag k="name" v="Sandskjæret" />
		<tag k="place" v="islet" />
		<tag k="ssr:stedsnr" v="782363" />
	</node>
	<node lat="70.02668333409598" lon="22.07615829164919" id="-39805">
		<tag k="name" v="Holmen" />
		<tag k="place" v="islet" />
		<tag k="ssr:stedsnr" v="782553" />
	</node>
	<node lat="70.1291833358966" lon="21.357113850421282" id="-39807">
		<tag k="alt_name" v="Rødøysund" />
		<tag k="name" v="Rødøysundet" />
		<tag k="natural" v="strait" />
		<tag k="ssr:stedsnr" v="808305" />
	</node>
	<node lat="70.02067778315761" lon="22.060688842383737" id="-39814">
		<tag k="alt_name" v="Labukt" />
		<tag k="name" v="Labukta" />
		<tag k="natural" v="bay" />
		<tag k="ssr:stedsnr" v="808451" />
	</node>
	<node lat="70.01289879312068" lon="22.011162722727835" id="-39817">
		<tag k="name" v="Storengneset - Okšnjárga" />
		<tag k="name:no" v="Storengneset" />
		<tag k="name:se" v="Okšnjárga" />
		<tag k="natural" v="cape" />
		<tag k="old_name:se" v="Åkšnjarga" />
		<tag k="ssr:stedsnr" v="808457" />
	</node>
	<node lat="69.91805555844664" lon="21.569444408780374" id="-39818">
		<tag k="name" v="Storbukta" />
		<tag k="natural" v="bay" />
		<tag k="ssr:stedsnr" v="808844" />
	</node>
</osm>
