<?xml version="1.0" encoding="UTF-8"?>
<osm version="0.6" generator="osmapis">
	<node lat="69.91071667153112" lon="21.872919402406588" id="-37413">
		<tag k="alt_name" v="Moldvikøra;Moldvikøyra" />
		<tag k="name" v="Molvikøyra" />
		<tag k="place" v="locality" />
		<tag k="ssr:stedsnr" v="19146" />
	</node>
	<node lat="70.02339722760068" lon="22.078533291179916" id="-37443">
		<tag k="name" v="Skomakermyra" />
		<tag k="natural" v="wetland" />
		<tag k="ssr:stedsnr" v="236550" />
	</node>
	<node lat="70.07701666636234" lon="21.93878328186421" id="-37463">
		<tag k="name" v="Sotnes" />
		<tag k="place" v="locality" />
		<tag k="ssr:stedsnr" v="47823" />
	</node>
	<node lat="70.03840833795506" lon="22.107611073286638" id="-37470">
		<tag k="name" v="Rødura" />
		<tag k="natural" v="scree" />
		<tag k="ssr:stedsnr" v="54283" />
	</node>
	<node lat="69.90286389164427" lon="21.89747218703058" id="-37477">
		<tag k="name" v="Simonmyra" />
		<tag k="natural" v="wetland" />
		<tag k="ssr:stedsnr" v="54579" />
	</node>
	<node lat="69.78878055932219" lon="21.921488843363313" id="-37484">
		<tag k="name" v="Elveøra" />
		<tag k="place" v="locality" />
		<tag k="ssr:stedsnr" v="54855" />
	</node>
	<node lat="69.94428333382547" lon="21.707847192484646" id="-37489">
		<tag k="name" v="Trollhamnøyra" />
		<tag k="place" v="locality" />
		<tag k="ssr:stedsnr" v="80126" />
	</node>
	<node lat="69.71934444532815" lon="22.10898328289117" id="-37525">
		<tag k="name" v="Sandmelen" />
		<tag k="place" v="locality" />
		<tag k="ssr:stedsnr" v="115607" />
	</node>
	<node lat="69.94835833231238" lon="21.90297774745719" id="-37531">
		<tag k="landuse" v="meadow" />
		<tag k="name" v="Mortengieddi" />
		<tag k="name:se" v="Mortengieddi" />
		<tag k="ssr:stedsnr" v="115620" />
	</node>
	<node lat="69.91703056067544" lon="22.087336077639026" id="-37534">
		<tag k="name" v="Lilleskogen" />
		<tag k="place" v="locality" />
		<tag k="ssr:stedsnr" v="115705" />
	</node>
	<node lat="70.17243055377892" lon="21.456658312781077" id="-37555">
		<tag k="name" v="Store Garnsteinen" />
		<tag k="natural" v="stone" />
		<tag k="ssr:stedsnr" v="166969" />
	</node>
	<node lat="69.92873333030363" lon="21.625172186317055" id="-37557">
		<tag k="name" v="Skorpøyra" />
		<tag k="place" v="locality" />
		<tag k="ssr:stedsnr" v="167316" />
	</node>
	<node lat="69.72797499858919" lon="22.185580500763724" id="-37580">
		<tag k="name" v="Ruossa" />
		<tag k="name:se" v="Ruossa" />
		<tag k="natural" v="scree" />
		<tag k="ssr:stedsnr" v="176608" />
	</node>
	<node lat="69.90267777970605" lon="22.05380827754369" id="-37606">
		<tag k="name" v="Pekkamyra" />
		<tag k="natural" v="wetland" />
		<tag k="ssr:stedsnr" v="262165" />
	</node>
	<node lat="69.70940555340988" lon="21.842330517774307" id="-37622">
		<tag k="name" v="Stein" />
		<tag k="natural" v="stone" />
		<tag k="ssr:stedsnr" v="262472" />
	</node>
	<node lat="70.03431389047734" lon="22.16628327999223" id="-37678">
		<tag k="name" v="Giævermyren" />
		<tag k="natural" v="wetland" />
		<tag k="ssr:stedsnr" v="236507" />
	</node>
	<node lat="69.73572777666736" lon="22.11206662411812" id="-37680">
		<tag k="name" v="Niemenpahtamyra" />
		<tag k="natural" v="wetland" />
		<tag k="ssr:stedsnr" v="236708" />
	</node>
	<node lat="70.20744166995406" lon="21.206447202883226" id="-37703">
		<tag k="name" v="Bukta" />
		<tag k="place" v="locality" />
		<tag k="ssr:stedsnr" v="458142" />
	</node>
	<node lat="69.94360277913157" lon="21.719136082288937" id="-37725">
		<tag k="name" v="Trollhamnøra" />
		<tag k="place" v="locality" />
		<tag k="ssr:stedsnr" v="296174" />
	</node>
	<node lat="69.74026667044475" lon="22.01085828498125" id="-37729">
		<tag k="name" v="Lillemyra" />
		<tag k="natural" v="wetland" />
		<tag k="ssr:stedsnr" v="296811" />
	</node>
	<node lat="69.79884166466621" lon="21.972013848936907" id="-37744">
		<tag k="name" v="Stormyra" />
		<tag k="natural" v="wetland" />
		<tag k="ssr:stedsnr" v="297533" />
	</node>
	<node lat="69.72009166671197" lon="22.159749953445246" id="-37746">
		<tag k="name" v="Sørmyra - Orjajänkkä" />
		<tag k="name:fkv" v="Orjajänkkä" />
		<tag k="name:no" v="Sørmyra" />
		<tag k="natural" v="wetland" />
		<tag k="ssr:stedsnr" v="297622" />
	</node>
	<node lat="69.76379722218871" lon="21.76117773654426" id="-37773">
		<tag k="name" v="Stormyra" />
		<tag k="natural" v="wetland" />
		<tag k="ssr:stedsnr" v="471728" />
	</node>
	<node lat="70.09626388931207" lon="21.476063853806735" id="-37782">
		<tag k="name" v="Prekestolen" />
		<tag k="natural" v="stone" />
		<tag k="ssr:stedsnr" v="472691" />
	</node>
	<node lat="70.12555277558378" lon="22.072908277767862" id="-37785">
		<tag k="name" v="Hattesteinen" />
		<tag k="natural" v="stone" />
		<tag k="ssr:stedsnr" v="472783" />
	</node>
	<node lat="70.0271027787671" lon="21.824513843502313" id="-37791">
		<tag k="alt_name" v="Simalango" />
		<tag k="name" v="Simalangu" />
		<tag k="natural" v="stone" />
		<tag k="ssr:stedsnr" v="348716" />
	</node>
	<node lat="69.89344444858018" lon="21.65920274066715" id="-37794">
		<tag k="name" v="Torvemyra" />
		<tag k="natural" v="wetland" />
		<tag k="ssr:stedsnr" v="357016" />
	</node>
	<node lat="69.92319722540698" lon="21.565280525323004" id="-37796">
		<tag k="name" v="Storsteinen" />
		<tag k="natural" v="stone" />
		<tag k="ssr:stedsnr" v="357056" />
	</node>
	<node lat="69.97430833217861" lon="21.49977773812928" id="-37812">
		<tag k="name" v="Stormyra" />
		<tag k="natural" v="wetland" />
		<tag k="ssr:stedsnr" v="478477" />
	</node>
	<node lat="69.97818889111954" lon="21.482869425323067" id="-37813">
		<tag k="name" v="Sennamyra" />
		<tag k="natural" v="wetland" />
		<tag k="ssr:stedsnr" v="478479" />
	</node>
	<node lat="69.77718333706576" lon="21.893816630859714" id="-37816">
		<tag k="name" v="Stormyra" />
		<tag k="natural" v="wetland" />
		<tag k="ssr:stedsnr" v="478847" />
	</node>
	<node lat="70.02961111425658" lon="22.081741636528978" id="-37835">
		<tag k="name" v="Leira" />
		<tag k="place" v="locality" />
		<tag k="ssr:stedsnr" v="479537" />
	</node>
	<node lat="69.72338333517119" lon="22.202883276269283" id="-37838">
		<tag k="name" v="Hans Johan si slåtta" />
		<tag k="place" v="locality" />
		<tag k="ssr:stedsnr" v="479635" />
	</node>
	<node lat="69.72521389003252" lon="22.09514439628337" id="-37839">
		<tag k="name" v="Leirmelen" />
		<tag k="place" v="locality" />
		<tag k="ssr:stedsnr" v="479637" />
	</node>
	<node lat="69.91522222320131" lon="22.121530517639457" id="-37844">
		<tag k="name" v="Mattismyra" />
		<tag k="natural" v="wetland" />
		<tag k="ssr:stedsnr" v="479727" />
	</node>
	<node lat="69.88908055628656" lon="21.6575249625583" id="-37884">
		<tag k="name" v="Kvilarsteinen" />
		<tag k="natural" v="stone" />
		<tag k="ssr:stedsnr" v="418039" />
	</node>
	<node lat="69.59097222842814" lon="22.768836037943277" id="-37901">
		<tag k="name" v="Hoallojokmohkki" />
		<tag k="name:se" v="Hoallojokmohkki" />
		<tag k="natural" v="wetland" />
		<tag k="old_name:se" v="Hoallujåkmåkki" />
		<tag k="ssr:stedsnr" v="443804" />
	</node>
	<node lat="70.15393611545049" lon="21.454694409218124" id="-37921">
		<tag k="name" v="Olderfjord" />
		<tag k="place" v="locality" />
		<tag k="ssr:stedsnr" v="458818" />
	</node>
	<node lat="70.17130000052983" lon="21.453277736754128" id="-37926">
		<tag k="name" v="Lille Garnsteinen" />
		<tag k="natural" v="stone" />
		<tag k="ssr:stedsnr" v="469975" />
	</node>
	<node lat="69.70400555375706" lon="22.28102493934695" id="-37929">
		<tag k="name" v="Mellomslåtta" />
		<tag k="place" v="locality" />
		<tag k="ssr:stedsnr" v="472712" />
	</node>
	<node lat="69.70101111243063" lon="22.280791604985303" id="-37930">
		<tag k="name" v="Kollerslåtta" />
		<tag k="place" v="locality" />
		<tag k="ssr:stedsnr" v="472714" />
	</node>
	<node lat="69.92754722087133" lon="21.683183305327105" id="-37931">
		<tag k="name" v="Gussajeaggi" />
		<tag k="name:se" v="Gussajeaggi" />
		<tag k="natural" v="wetland" />
		<tag k="ssr:stedsnr" v="478105" />
	</node>
	<node lat="69.86723610894768" lon="21.687472190954804" id="-37935">
		<tag k="name" v="Sluskeskogen" />
		<tag k="place" v="locality" />
		<tag k="ssr:stedsnr" v="478471" />
	</node>
	<node lat="69.7405000045059" lon="21.97733052377284" id="-37936">
		<tag k="name" v="Haapajänkkä" />
		<tag k="name:fkv" v="Haapajänkkä" />
		<tag k="natural" v="wetland" />
		<tag k="ssr:stedsnr" v="478809" />
	</node>
	<node lat="69.7000694433944" lon="22.212411061386707" id="-37987">
		<tag k="name" v="Bjørnmyra" />
		<tag k="natural" v="wetland" />
		<tag k="ssr:stedsnr" v="532725" />
	</node>
	<node lat="69.93880000120674" lon="21.704474974900823" id="-37998">
		<tag k="name" v="Mollaskogen" />
		<tag k="place" v="locality" />
		<tag k="ssr:stedsnr" v="539011" />
	</node>
	<node lat="69.75226111535314" lon="21.933855503483944" id="-38013">
		<tag k="name" v="Järviruto" />
		<tag k="name:fkv" v="Järviruto" />
		<tag k="place" v="locality" />
		<tag k="ssr:stedsnr" v="539768" />
	</node>
	<node lat="70.11204722470383" lon="21.57946940090304" id="-38081">
		<tag k="name" v="Hilmaråkeren" />
		<tag k="place" v="locality" />
		<tag k="ssr:stedsnr" v="593812" />
	</node>
	<node lat="70.090105559782" lon="21.590038858645666" id="-38084">
		<tag k="name" v="Kvitsteinen" />
		<tag k="natural" v="stone" />
		<tag k="ssr:stedsnr" v="593859" />
	</node>
	<node lat="70.029480561095" lon="22.12602494464471" id="-38097">
		<tag k="name" v="Bakkemyrene" />
		<tag k="natural" v="wetland" />
		<tag k="ssr:stedsnr" v="600551" />
	</node>
	<node lat="70.10289999919067" lon="22.060916627483177" id="-38103">
		<tag k="name" v="Lille Ramnestein" />
		<tag k="natural" v="stone" />
		<tag k="ssr:stedsnr" v="700757" />
	</node>
	<node lat="70.13762777741869" lon="21.568844399619195" id="-38128">
		<tag k="name" v="Kaffesteinen" />
		<tag k="natural" v="stone" />
		<tag k="ssr:stedsnr" v="654912" />
	</node>
	<node lat="69.75109722134974" lon="21.953508280751127" id="-38133">
		<tag k="name" v="Juovajänkkä" />
		<tag k="name:fkv" v="Juovajänkkä" />
		<tag k="natural" v="wetland" />
		<tag k="ssr:stedsnr" v="660771" />
	</node>
	<node lat="69.90216944157719" lon="21.637661077300546" id="-38148">
		<tag k="alt_name" v="Sandøyra" />
		<tag k="name" v="Sandøra" />
		<tag k="place" v="locality" />
		<tag k="ssr:stedsnr" v="686149" />
	</node>
	<node lat="70.21477777998902" lon="21.217116636998142" id="-38158">
		<tag k="name" v="Resset" />
		<tag k="place" v="locality" />
		<tag k="ssr:stedsnr" v="895210" />
	</node>
	<node lat="70.09269444960889" lon="22.029733298281105" id="-38165">
		<tag k="name" v="Olderskogen" />
		<tag k="place" v="locality" />
		<tag k="ssr:stedsnr" v="897359" />
	</node>
	<node lat="69.89539444625319" lon="22.13504440976283" id="-38195">
		<tag k="name" v="Øvermyra" />
		<tag k="natural" v="wetland" />
		<tag k="ssr:stedsnr" v="722510" />
	</node>
	<node lat="69.73756666779782" lon="21.961202722612153" id="-38209">
		<tag k="name" v="Sommersetbukta" />
		<tag k="natural" v="wetland" />
		<tag k="ssr:stedsnr" v="903804" />
	</node>
	<node lat="69.7511444440777" lon="21.97116663012482" id="-38211">
		<tag k="name" v="Revhimyra" />
		<tag k="natural" v="wetland" />
		<tag k="ssr:stedsnr" v="903784" />
	</node>
	<node lat="69.8934916650774" lon="22.19549993909368" id="-38226">
		<tag k="name" v="Kula" />
		<tag k="natural" v="stone" />
		<tag k="ssr:stedsnr" v="904488" />
	</node>
	<node lat="70.03029721893212" lon="22.114236076383488" id="-38230">
		<tag k="name" v="Moltebærmyra" />
		<tag k="natural" v="wetland" />
		<tag k="ssr:stedsnr" v="904546" />
	</node>
	<node lat="69.71040000270959" lon="22.14022495197411" id="-38232">
		<tag k="name" v="Henrikslåtta" />
		<tag k="place" v="locality" />
		<tag k="ssr:stedsnr" v="904593" />
	</node>
	<node lat="69.7699055591417" lon="22.014219403043846" id="-38264">
		<tag k="name" v="Ørnsteinen" />
		<tag k="natural" v="stone" />
		<tag k="ssr:stedsnr" v="782958" />
	</node>
	<node lat="70.10587222383438" lon="22.063069409882438" id="-38268">
		<tag k="alt_name" v="Ramnstein, store" />
		<tag k="fixme" v="multiple name tags, choose one and add the other to alt_name" />
		<tag k="name" v="Ramnsteinen;Store Ramnestein" />
		<tag k="natural" v="stone" />
		<tag k="ssr:stedsnr" v="808288" />
	</node>
</osm>
