<?xml version="1.0" encoding="UTF-8"?>
<<<<<<< HEAD
<osm version="0.6" generator="osmapis">
	<node lat="63.12680277378054" lon="8.212747227166343" id="-35159">
=======
<osm generator="osmapis" version="0.6">
	<node id="-803968" lat="63.0814388908" lon="8.23199999311">
		<tag k="fixme" v="consider highway=path" />
		<tag k="highway" v="track" />
		<tag k="name" v="Bjønnavassvegen" />
		<tag k="ssr:stedsnr" v="714661" />
	</node>
	<node id="-803453" lat="63.1165861095" lon="8.17968054702">
		<tag k="highway" v="path" />
		<tag k="name" v="Tverrstien" />
		<tag k="ssr:stedsnr" v="411420" />
	</node>
	<node id="-802555" lat="63.2880777759" lon="9.15816944781">
		<tag k="ford" v="yes" />
		<tag k="name" v="Storlivadet" />
		<tag k="place" v="locality" />
		<tag k="ssr:stedsnr" v="272027" />
	</node>
	<node id="-804346" lat="63.0952972193" lon="8.379788896">
		<tag k="highway" v="path" />
		<tag k="name" v="Utistustigan" />
		<tag k="ssr:stedsnr" v="715040" />
	</node>
	<node id="-806006" lat="63.1478055519" lon="8.56804444765">
		<tag k="bridge" v="yes" />
		<tag k="layer" v="1" />
		<tag k="name" v="Stokkelvbrua" />
		<tag k="ssr:stedsnr" v="334445" />
	</node>
	<node id="-806005" lat="63.1733472187" lon="8.6448499909">
		<tag k="bridge" v="yes" />
		<tag k="layer" v="1" />
		<tag k="name" v="Rodalsbrua" />
		<tag k="ssr:stedsnr" v="334443" />
	</node>
	<node id="-803444" lat="63.2135944471" lon="9.10305556291">
		<tag k="highway" v="path" />
		<tag k="name" v="Kleivan" />
		<tag k="ssr:stedsnr" v="394267" />
	</node>
	<node id="-805363" lat="63.1307777787" lon="8.21331666227">
		<tag k="highway" v="path" />
		<tag k="name" v="Raudstien" />
		<tag k="ssr:stedsnr" v="108307" />
	</node>
	<node id="-802802" lat="63.4171111071" lon="8.6823777841">
		<tag k="name" v="Trondheimsleia" />
		<tag k="place" v="locality" />
		<tag k="ssr:stedsnr" v="195235" />
	</node>
	<node id="-803304" lat="63.1815805573" lon="8.7419499983">
		<tag k="bridge" v="yes" />
		<tag k="layer" v="1" />
		<tag k="name" v="Engdalsbrua" />
		<tag k="ssr:stedsnr" v="334416" />
	</node>
	<node id="-806254" lat="63.1404444471" lon="8.53220556199">
		<tag k="bridge" v="yes" />
		<tag k="layer" v="1" />
		<tag k="name" v="Hestholmbrua" />
		<tag k="ssr:stedsnr" v="394376" />
	</node>
	<node id="-804870" lat="63.1366750041" lon="8.43659722325">
		<tag k="amenity" v="ferry_terminal" />
		<tag k="name" v="Hennset ferjekai" />
		<tag k="ssr:stedsnr" v="217336" />
	</node>
	<node id="-804331" lat="63.144336109" lon="8.55967222825">
		<tag k="bridge" v="yes" />
		<tag k="layer" v="1" />
		<tag k="name" v="Valsøybrua" />
		<tag k="ssr:stedsnr" v="699353" />
	</node>
	<node id="-803946" lat="63.0812944462" lon="8.33826944537">
		<tag k="bridge" v="yes" />
		<tag k="layer" v="1" />
		<tag k="name" v="Gammelsagbrua" />
		<tag k="ssr:stedsnr" v="576658" />
	</node>
	<node id="-805481" lat="63.2736999989" lon="9.19729999143">
		<tag k="highway" v="path" />
		<tag k="name" v="Litlkleiva" />
		<tag k="ssr:stedsnr" v="147729" />
	</node>
	<node id="-805608" lat="63.1246166635" lon="8.55833055535">
		<tag k="bridge" v="yes" />
		<tag k="layer" v="1" />
		<tag k="name" v="Engebrua" />
		<tag k="ssr:stedsnr" v="152219" />
	</node>
	<node id="-804455" lat="63.1778000036" lon="8.85307778386">
		<tag k="highway" v="path" />
		<tag k="name" v="Eldhusholten" />
		<tag k="ssr:stedsnr" v="757912" />
	</node>
	<node id="-803302" lat="63.0969222256" lon="8.62631943558">
		<tag k="bridge" v="yes" />
		<tag k="layer" v="1" />
		<tag k="name" v="Sandåbrua" />
		<tag k="ssr:stedsnr" v="334225" />
	</node>
	<node id="-805605" lat="63.1337972238" lon="8.47594722775">
		<tag k="bridge" v="yes" />
		<tag k="layer" v="1" />
		<tag k="name" v="Otnesbrua" />
		<tag k="ssr:stedsnr" v="151363" />
	</node>
	<node id="-805604" lat="63.1300083325" lon="8.51671111798">
		<tag k="bridge" v="yes" />
		<tag k="layer" v="1" />
		<tag k="name" v="Hestnesbrua" />
		<tag k="ssr:stedsnr" v="151329" />
	</node>
	<node id="-803170" lat="63.1345194428" lon="8.25346111908">
		<tag k="highway" v="path" />
		<tag k="name" v="Sollistien" />
		<tag k="ssr:stedsnr" v="472392" />
	</node>
	<node id="-803579" lat="63.1054916695" lon="8.62595556081">
		<tag k="bridge" v="yes" />
		<tag k="layer" v="1" />
		<tag k="name" v="Kalviktunnelen" />
		<tag k="ssr:stedsnr" v="516245" />
	</node>
	<node id="-805854" lat="63.132594445" lon="8.46406388987">
		<tag k="bridge" v="yes" />
		<tag k="layer" v="1" />
		<tag k="name" v="Hammarelvbrua" />
		<tag k="ssr:stedsnr" v="213357" />
	</node>
	<node id="-804827" lat="63.1693916632" lon="8.74847221659">
		<tag k="highway" v="path" />
		<tag k="name" v="Stigan" />
		<tag k="ssr:stedsnr" v="897507" />
	</node>
	<node id="-802777" lat="63.0764166642" lon="8.25953055316">
		<tag k="highway" v="path" />
		<tag k="name" v="Bustigan" />
		<tag k="ssr:stedsnr" v="291252" />
	</node>
	<node id="-804301" lat="63.2627138885" lon="9.0029722198">
		<tag k="highway" v="path" />
		<tag k="name" v="Kvernhusvegen" />
		<tag k="ssr:stedsnr" v="697115" />
	</node>
	<node id="-803657" lat="63.1905777801" lon="8.81752500036">
		<tag k="man_made" v="quay" />
		<tag k="name" v="Kråka" />
		<tag k="place" v="locality" />
		<tag k="ssr:stedsnr" v="454983" />
	</node>
	<node id="-803654" lat="63.3175666674" lon="9.00839165866">
		<tag k="ford" v="yes" />
		<tag k="name" v="Tåvadet" />
		<tag k="place" v="locality" />
		<tag k="ssr:stedsnr" v="454970" />
	</node>
	<node id="-803010" lat="63.1857777806" lon="8.73536944699">
		<tag k="bridge" v="yes" />
		<tag k="layer" v="1" />
		<tag k="name" v="Ytterbekkbrua" />
		<tag k="ssr:stedsnr" v="455444" />
	</node>
	<node id="-802880" lat="63.1268027738" lon="8.21274722717">
>>>>>>> e1d4bc35ff8a6074a6f2e91616a996b547c36f15
		<tag k="highway" v="path" />
		<tag k="name" v="Moldstien" />
		<tag k="ssr:stedsnr" v="230464" />
	</node>
<<<<<<< HEAD
	<node lat="63.07335277776356" lon="8.299072230139451" id="-35242">
=======
	<node id="-805310" lat="63.0940194489" lon="8.61778332846">
>>>>>>> e1d4bc35ff8a6074a6f2e91616a996b547c36f15
		<tag k="bridge" v="yes" />
		<tag k="layer" v="1" />
		<tag k="name" v="Stavåbrua" />
		<tag k="ssr:stedsnr" v="30640" />
	</node>
<<<<<<< HEAD
	<node lat="63.13077777869962" lon="8.213316662265116" id="-35384">
=======
	<node id="-805621" lat="63.1300166632" lon="8.31459722677">
		<tag k="ford" v="yes" />
		<tag k="name" v="Gammelvaet" />
		<tag k="place" v="locality" />
		<tag k="ssr:stedsnr" v="166993" />
	</node>
	<node id="-805820" lat="63.313922223" lon="9.16630832616">
>>>>>>> e1d4bc35ff8a6074a6f2e91616a996b547c36f15
		<tag k="highway" v="path" />
		<tag k="name" v="Raudstien" />
		<tag k="ssr:stedsnr" v="108307" />
	</node>
<<<<<<< HEAD
	<node lat="63.13379722375061" lon="8.475947227754899" id="-35540">
		<tag k="bridge" v="yes" />
		<tag k="layer" v="1" />
		<tag k="name" v="Otnesbrua" />
		<tag k="ssr:stedsnr" v="151363" />
	</node>
	<node lat="63.31392222303167" lon="9.166308326162481" id="-35631">
		<tag k="highway" v="path" />
		<tag k="name" v="Korsvegen" />
		<tag k="ssr:stedsnr" v="211885" />
	</node>
	<node lat="63.076747221592534" lon="8.322113881426288" id="-35654">
=======
	<node id="-804794" lat="63.1686500015" lon="8.61035277764">
		<tag k="bridge" v="yes" />
		<tag k="layer" v="1" />
		<tag k="name" v="Renndalsbrua" />
		<tag k="ssr:stedsnr" v="941464" />
	</node>
	<node id="-806329" lat="63.0786388856" lon="8.33857222979">
		<tag k="bridge" v="yes" />
		<tag k="layer" v="1" />
		<tag k="name" v="Steinbrua" />
		<tag k="ssr:stedsnr" v="412217" />
	</node>
	<node id="-804023" lat="63.1645805541" lon="8.6642638879">
		<tag k="highway" v="path" />
		<tag k="name" v="Steinstigan" />
		<tag k="ssr:stedsnr" v="716229" />
	</node>
	<node id="-805042" lat="63.0681555596" lon="8.22771945203">
		<tag k="amenity" v="ferry_terminal" />
		<tag k="name" v="Halsa ferjekai" />
		<tag k="ssr:stedsnr" v="34280" />
	</node>
	<node id="-802991" lat="63.3494416709" lon="8.91876667217">
		<tag k="highway" v="path" />
		<tag k="name" v="Stigan" />
		<tag k="ssr:stedsnr" v="454871" />
	</node>
	<node id="-806954" lat="63.320280555" lon="9.25783334229">
		<tag k="highway" v="path" />
		<tag k="name" v="Stien" />
		<tag k="ssr:stedsnr" v="639833" />
	</node>
	<node id="-803113" lat="63.1258555531" lon="8.2149527809">
		<tag k="highway" v="path" />
		<tag k="name" v="Trollstien" />
		<tag k="ssr:stedsnr" v="291509" />
	</node>
	<node id="-802852" lat="63.0767472216" lon="8.32211388143">
>>>>>>> e1d4bc35ff8a6074a6f2e91616a996b547c36f15
		<tag k="bridge" v="yes" />
		<tag k="layer" v="1" />
		<tag k="name" v="Sagelvbrua" />
		<tag k="ssr:stedsnr" v="213328" />
	</node>
<<<<<<< HEAD
	<node lat="63.19057778014282" lon="8.817525000361831" id="-35799">
		<tag k="man_made" v="quay" />
		<tag k="name" v="Kråka" />
		<tag k="place" v="locality" />
		<tag k="ssr:stedsnr" v="454983" />
	</node>
	<node lat="63.18395366896962" lon="8.735411680888097" id="-35803">
		<tag k="bridge" v="yes" />
		<tag k="layer" v="1" />
		<tag k="name" v="Ytterbekkbrua" />
		<tag k="ssr:stedsnr" v="455444" />
	</node>
	<node lat="63.28807777586906" lon="9.15816944781365" id="-35850">
		<tag k="ford" v="yes" />
		<tag k="name" v="Storlivadet" />
		<tag k="place" v="locality" />
		<tag k="ssr:stedsnr" v="272027" />
	</node>
	<node lat="63.12585555306946" lon="8.214952780899724" id="-35931">
		<tag k="highway" v="path" />
		<tag k="name" v="Trollstien" />
		<tag k="ssr:stedsnr" v="291509" />
	</node>
	<node lat="63.13377222411396" lon="8.404344454021864" id="-36034">
		<tag k="bridge" v="yes" />
		<tag k="layer" v="1" />
		<tag k="name" v="Hennabrua" />
		<tag k="ssr:stedsnr" v="334313" />
	</node>
	<node lat="63.147805551939186" lon="8.568044447652888" id="-36035">
		<tag k="bridge" v="yes" />
		<tag k="layer" v="1" />
		<tag k="name" v="Stokkelvbrua" />
		<tag k="ssr:stedsnr" v="334445" />
	</node>
	<node lat="63.134519442756975" lon="8.253461119082194" id="-36062">
		<tag k="highway" v="path" />
		<tag k="name" v="Sollistien" />
		<tag k="ssr:stedsnr" v="472392" />
	</node>
	<node lat="63.277658333346274" lon="8.940183330440727" id="-36200">
=======
	<node id="-804422" lat="63.0566000026" lon="8.25283610639">
		<tag k="highway" v="path" />
		<tag k="name" v="Moldsti" />
		<tag k="ssr:stedsnr" v="898648" />
	</node>
	<node id="-803746" lat="63.2987722234" lon="8.97058889383">
		<tag k="highway" v="path" />
		<tag k="name" v="Seterkleiva" />
		<tag k="ssr:stedsnr" v="514936" />
	</node>
	<node id="-804256" lat="63.1409277774" lon="8.5662361053">
		<tag k="bridge" v="yes" />
		<tag k="layer" v="1" />
		<tag k="name" v="Leirvikbrua" />
		<tag k="ssr:stedsnr" v="880218" />
	</node>
	<node id="-803303" lat="63.1337722241" lon="8.40434445402">
		<tag k="bridge" v="yes" />
		<tag k="layer" v="1" />
		<tag k="name" v="Hennabrua" />
		<tag k="ssr:stedsnr" v="334313" />
	</node>
	<node id="-805019" lat="63.0733527778" lon="8.29907223014">
		<tag k="bridge" v="yes" />
		<tag k="layer" v="1" />
		<tag k="name" v="Stavåbrua" />
		<tag k="ssr:stedsnr" v="30640" />
	</node>
	<node id="-805018" lat="63.1272277777" lon="8.37563332547">
		<tag k="bridge" v="yes" />
		<tag k="layer" v="1" />
		<tag k="name" v="Klettabrua" />
		<tag k="ssr:stedsnr" v="30352" />
	</node>
	<node id="-806681" lat="63.0950194463" lon="8.61610833285">
		<tag k="bridge" v="yes" />
		<tag k="layer" v="1" />
		<tag k="name" v="Storelvbrua" />
		<tag k="ssr:stedsnr" v="576200" />
	</node>
	<node id="-804632" lat="63.0846638902" lon="8.34932499547">
		<tag k="bridge" v="yes" />
		<tag k="layer" v="1" />
		<tag k="name" v="Betnabrua" />
		<tag k="ssr:stedsnr" v="819363" />
	</node>
	<node id="-805017" lat="63.1334555579" lon="8.52316944949">
		<tag k="bridge" v="yes" />
		<tag k="layer" v="1" />
		<tag k="name" v="Kjøløybrua" />
		<tag k="ssr:stedsnr" v="30344" />
	</node>
	<node id="-806028" lat="63.1104694435" lon="8.17530832975">
		<tag k="highway" v="path" />
		<tag k="name" v="Fagerstien" />
		<tag k="ssr:stedsnr" v="350379" />
	</node>
	<node id="-804490" lat="63.1681111082" lon="8.74339721265">
		<tag k="highway" v="path" />
		<tag k="name" v="Hestveien" />
		<tag k="ssr:stedsnr" v="776512" />
	</node>
	<node id="-803463" lat="63.2851444415" lon="9.1609194524">
		<tag k="ford" v="yes" />
		<tag k="name" v="Setervadet" />
		<tag k="place" v="locality" />
		<tag k="ssr:stedsnr" v="514026" />
	</node>
	<node id="-802566" lat="63.2776583333" lon="8.94018333044">
>>>>>>> e1d4bc35ff8a6074a6f2e91616a996b547c36f15
		<tag k="alt_name" v="Setervegen" />
		<tag k="fixme" v="consider highway=path" />
		<tag k="highway" v="track" />
		<tag k="name" v="Bjørksetervegen" />
		<tag k="ssr:stedsnr" v="272081" />
	</node>
<<<<<<< HEAD
	<node lat="63.07863888559539" lon="8.338572229793202" id="-36231">
		<tag k="bridge" v="yes" />
		<tag k="layer" v="1" />
		<tag k="name" v="Steinbrua" />
		<tag k="ssr:stedsnr" v="412217" />
	</node>
	<node lat="63.3494416708915" lon="8.918766672170001" id="-36337">
		<tag k="highway" v="path" />
		<tag k="name" v="Stigan" />
		<tag k="ssr:stedsnr" v="454871" />
	</node>
	<node lat="63.317566667373704" lon="9.008391658658253" id="-36353">
		<tag k="ford" v="yes" />
		<tag k="name" v="Tåvadet" />
		<tag k="place" v="locality" />
		<tag k="ssr:stedsnr" v="454970" />
	</node>
	<node lat="63.081294446223154" lon="8.33826944537405" id="-36670">
		<tag k="bridge" v="yes" />
		<tag k="layer" v="1" />
		<tag k="name" v="Gammelsagbrua" />
		<tag k="ssr:stedsnr" v="576658" />
	</node>
	<node lat="63.144336108966606" lon="8.559672228250589" id="-36804">
		<tag k="bridge" v="yes" />
		<tag k="layer" v="1" />
		<tag k="name" v="Valsøybrua" />
		<tag k="ssr:stedsnr" v="699353" />
	</node>
	<node lat="63.32028055501784" lon="9.257833342292122" id="-36907">
		<tag k="highway" v="path" />
		<tag k="name" v="Stien" />
		<tag k="ssr:stedsnr" v="639833" />
	</node>
	<node lat="63.26271388852003" lon="9.002972219803956" id="-36990">
		<tag k="highway" v="path" />
		<tag k="name" v="Kvernhusvegen" />
		<tag k="ssr:stedsnr" v="697115" />
	</node>
	<node lat="63.05660000257521" lon="8.252836106387155" id="-37063">
		<tag k="highway" v="path" />
		<tag k="name" v="Moldsti" />
		<tag k="ssr:stedsnr" v="898648" />
	</node>
	<node lat="63.164580554113265" lon="8.664263887895558" id="-37091">
		<tag k="highway" v="path" />
		<tag k="name" v="Steinstigan" />
		<tag k="ssr:stedsnr" v="716229" />
	</node>
	<node lat="63.17780000358271" lon="8.853077783860057" id="-37161">
		<tag k="highway" v="path" />
		<tag k="name" v="Eldhusholten" />
		<tag k="ssr:stedsnr" v="757912" />
	</node>
	<node lat="63.04667222480512" lon="8.238138892700531" id="-37171">
		<tag k="bridge" v="yes" />
		<tag k="layer" v="1" />
		<tag k="name" v="Innreitenbrua" />
		<tag k="ssr:stedsnr" v="759458" />
	</node>
	<node lat="63.168111108177065" lon="8.74339721264892" id="-37200">
		<tag k="highway" v="path" />
		<tag k="name" v="Hestveien" />
		<tag k="ssr:stedsnr" v="776512" />
	</node>
	<node lat="63.064880558976704" lon="8.234583333690166" id="-37258">
		<tag k="bridge" v="yes" />
		<tag k="layer" v="1" />
		<tag k="name" v="Rødbrua" />
		<tag k="ssr:stedsnr" v="819521" />
	</node>
	<node lat="63.12065277773493" lon="8.489541661895624" id="-37335">
		<tag k="highway" v="path" />
		<tag k="name" v="Brakstigan" />
		<tag k="ssr:stedsnr" v="837689" />
	</node>
	<node lat="63.14092777739964" lon="8.566236105303924" id="-37418">
		<tag k="bridge" v="yes" />
		<tag k="layer" v="1" />
		<tag k="name" v="Leirvikbrua" />
		<tag k="ssr:stedsnr" v="880218" />
	</node>
	<node lat="63.1693916632063" lon="8.748472216585014" id="-37436">
		<tag k="highway" v="path" />
		<tag k="name" v="Stigan" />
		<tag k="ssr:stedsnr" v="897507" />
	</node>
	<node lat="63.133455557946284" lon="8.523169449485444" id="-37702">
		<tag k="bridge" v="yes" />
		<tag k="layer" v="1" />
		<tag k="name" v="Kjøløybrua" />
		<tag k="ssr:stedsnr" v="30344" />
	</node>
	<node lat="63.12722777769723" lon="8.3756333254652" id="-37703">
		<tag k="bridge" v="yes" />
		<tag k="layer" v="1" />
		<tag k="name" v="Klettabrua" />
		<tag k="ssr:stedsnr" v="30352" />
	</node>
	<node lat="63.06815555956673" lon="8.227719452029035" id="-37716">
		<tag k="amenity" v="ferry_terminal" />
		<tag k="name" v="Halsa ferjekai" />
		<tag k="ssr:stedsnr" v="34280" />
	</node>
=======
	<node id="-805252" lat="63.167741665" lon="8.85823610811">
		<tag k="highway" v="path" />
		<tag k="name" v="Kleivan" />
		<tag k="ssr:stedsnr" v="90595" />
	</node>
>>>>>>> e1d4bc35ff8a6074a6f2e91616a996b547c36f15
</osm>
