<?xml version="1.0" encoding="UTF-8"?>
<osm version="0.6" generator="osmapis">
	<node lat="63.05942777338712" lon="8.334097219909927" id="-88942">
		<tag k="name" v="Vassdalselva" />
		<tag k="ssr:stedsnr" v="230178" />
		<tag k="waterway" v="river" />
	</node>
	<node lat="63.129077779540395" lon="8.208649995853092" id="-88947">
		<tag k="name" v="Hyllstibekken" />
		<tag k="ssr:stedsnr" v="230293" />
		<tag k="waterway" v="stream" />
	</node>
	<node lat="63.16023055144478" lon="8.581672213935413" id="-88958">
		<tag k="name" v="Røstgråtlibekken" />
		<tag k="ssr:stedsnr" v="230701" />
		<tag k="waterway" v="stream" />
	</node>
	<node lat="63.14121666827042" lon="8.326544444805752" id="-88966">
		<tag k="name" v="Taknesbekken" />
		<tag k="ssr:stedsnr" v="230921" />
		<tag k="waterway" v="stream" />
	</node>
	<node lat="63.4191000032289" lon="8.800938885249208" id="-88975">
		<tag k="name" v="Yttervatnet" />
		<tag k="natural" v="water" />
		<tag k="ssr:stedsnr" v="12417" />
	</node>
	<node lat="63.07955277974934" lon="8.554522213770701" id="-88982">
		<tag k="name" v="Lomtjørna" />
		<tag k="natural" v="water" />
		<tag k="ssr:stedsnr" v="12913" />
	</node>
	<node lat="63.25842778190633" lon="9.247069441686119" id="-88983">
		<tag k="name" v="Strenggardsvatnet" />
		<tag k="natural" v="water" />
		<tag k="ssr:stedsnr" v="13008" />
	</node>
	<node lat="63.299830556712394" lon="9.29727221851588" id="-88984">
		<tag k="name" v="Blåbærvatnet" />
		<tag k="natural" v="water" />
		<tag k="ssr:stedsnr" v="13203" />
	</node>
	<node lat="63.29381666477408" lon="9.028213881313444" id="-88988">
		<tag k="name" v="Dalemselva" />
		<tag k="ssr:stedsnr" v="13575" />
		<tag k="waterway" v="river" />
	</node>
	<node lat="63.27080000284692" lon="8.894224999237624" id="-88992">
		<tag k="name" v="Dyrlitjønnin" />
		<tag k="natural" v="water" />
		<tag k="ssr:stedsnr" v="13915" />
	</node>
	<node lat="63.264977775474186" lon="8.984719450441535" id="-88999">
		<tag k="name" v="Rumpliskardbekken" />
		<tag k="ssr:stedsnr" v="29117" />
		<tag k="waterway" v="stream" />
	</node>
	<node lat="63.16446666806114" lon="9.073027771583904" id="-89006">
		<tag k="name" v="Freksbakkbekken" />
		<tag k="ssr:stedsnr" v="29378" />
		<tag k="waterway" v="stream" />
	</node>
	<node lat="63.1390833306325" lon="9.12594165850446" id="-89007">
		<tag k="name" v="Seterbekken" />
		<tag k="ssr:stedsnr" v="29410" />
		<tag k="waterway" v="stream" />
	</node>
	<node lat="63.23031666723862" lon="9.20893055953426" id="-89012">
		<tag k="name" v="Damtjønna" />
		<tag k="natural" v="water" />
		<tag k="ssr:stedsnr" v="29485" />
	</node>
	<node lat="63.137427781560014" lon="9.05963888636648" id="-89013">
		<tag k="name" v="Anderslibekken" />
		<tag k="ssr:stedsnr" v="29490" />
		<tag k="waterway" v="stream" />
	</node>
	<node lat="63.40363333464139" lon="9.003802775877624" id="-89025">
		<tag k="name" v="Midtøra" />
		<tag k="place" v="islet" />
		<tag k="ssr:stedsnr" v="29667" />
	</node>
	<node lat="63.314441668806666" lon="9.004886106921596" id="-89032">
		<tag k="name" v="Nessaseterbekken" />
		<tag k="ssr:stedsnr" v="29967" />
		<tag k="waterway" v="stream" />
	</node>
	<node lat="63.202077777999584" lon="9.155599998449034" id="-89036">
		<tag k="name" v="Hoggbekken" />
		<tag k="ssr:stedsnr" v="30321" />
		<tag k="waterway" v="stream" />
	</node>
	<node lat="63.12709722470964" lon="8.295913892761007" id="-89052">
		<tag k="name" v="Litlvatnet" />
		<tag k="natural" v="water" />
		<tag k="ssr:stedsnr" v="47071" />
	</node>
	<node lat="63.13799166950657" lon="8.617555549171826" id="-89059">
		<tag k="name" v="Gaddtjønna" />
		<tag k="natural" v="water" />
		<tag k="ssr:stedsnr" v="47828" />
	</node>
	<node lat="63.32117777709353" lon="8.863586106248869" id="-89074">
		<tag k="name" v="Paradistjønna" />
		<tag k="natural" v="water" />
		<tag k="ssr:stedsnr" v="50517" />
	</node>
	<node lat="63.36406110869113" lon="9.382444438320988" id="-89075">
		<tag k="name" v="Skårillelva" />
		<tag k="ssr:stedsnr" v="51105" />
		<tag k="waterway" v="stream" />
	</node>
	<node lat="63.28931389289054" lon="8.881275003756485" id="-89089">
		<tag k="name" v="Stormorrovatnet" />
		<tag k="natural" v="water" />
		<tag k="ssr:stedsnr" v="73601" />
	</node>
	<node lat="63.20803333263931" lon="9.307047221985409" id="-89092">
		<tag k="name" v="Svarttjønna" />
		<tag k="natural" v="water" />
		<tag k="ssr:stedsnr" v="73622" />
	</node>
	<node lat="63.41329444310825" lon="8.815438882546806" id="-89094">
		<tag k="name" v="Grønlitjønna" />
		<tag k="natural" v="water" />
		<tag k="ssr:stedsnr" v="73659" />
	</node>
	<node lat="63.411536110566914" lon="8.803394440188915" id="-89095">
		<tag k="name" v="Flyddtjønna" />
		<tag k="natural" v="water" />
		<tag k="ssr:stedsnr" v="73660" />
	</node>
	<node lat="63.13397222335472" lon="8.878361113008268" id="-89098">
		<tag k="name" v="Heimre Langvatnet" />
		<tag k="natural" v="water" />
		<tag k="ssr:stedsnr" v="73721" />
	</node>
	<node lat="63.241172224271914" lon="9.036886101499622" id="-89102">
		<tag k="name" v="Hunnesodden" />
		<tag k="natural" v="cape" />
		<tag k="ssr:stedsnr" v="73771" />
	</node>
	<node lat="63.07229167064005" lon="8.321483339426656" id="-89105">
		<tag k="name" v="Sagelva" />
		<tag k="ssr:stedsnr" v="73914" />
		<tag k="waterway" v="stream" />
	</node>
	<node lat="63.30983610694584" lon="9.2944416577708" id="-89106">
		<tag k="name" v="Drakevatnet" />
		<tag k="natural" v="water" />
		<tag k="ssr:stedsnr" v="74159" />
	</node>
	<node lat="63.1246777741638" lon="8.776947217215794" id="-89112">
		<tag k="name" v="Engdalstjønna" />
		<tag k="natural" v="water" />
		<tag k="ssr:stedsnr" v="86154" />
	</node>
	<node lat="63.38512500209913" lon="8.996000009072278" id="-89113">
		<tag k="alt_name" v="Åelva" />
		<tag k="name" v="Røsta" />
		<tag k="ssr:stedsnr" v="87702" />
		<tag k="waterway" v="river" />
	</node>
	<node lat="63.28202500121183" lon="9.2439888879482" id="-89117">
		<tag k="name" v="Fremmer Furunesbekken" />
		<tag k="ssr:stedsnr" v="90015" />
		<tag k="waterway" v="stream" />
	</node>
	<node lat="63.24071388661028" lon="8.97339999565202" id="-89123">
		<tag k="name" v="Rognlibekken" />
		<tag k="ssr:stedsnr" v="90131" />
		<tag k="waterway" v="stream" />
	</node>
	<node lat="63.23635832971523" lon="9.052422218790415" id="-89134">
		<tag k="name" v="Leirvassbukta" />
		<tag k="natural" v="bay" />
		<tag k="ssr:stedsnr" v="90505" />
	</node>
	<node lat="63.243511108694605" lon="9.043888881589734" id="-89135">
		<tag k="name" v="Sinnesodden" />
		<tag k="natural" v="cape" />
		<tag k="ssr:stedsnr" v="90506" />
	</node>
	<node lat="63.33754722079492" lon="9.010272212994625" id="-89145">
		<tag k="name" v="Krokbekken" />
		<tag k="ssr:stedsnr" v="90819" />
		<tag k="waterway" v="stream" />
	</node>
	<node lat="63.176111110711695" lon="8.861966672736287" id="-89149">
		<tag k="name" v="Tortdalsbekken" />
		<tag k="ssr:stedsnr" v="90831" />
		<tag k="waterway" v="stream" />
	</node>
	<node lat="63.4408250001514" lon="9.059444436693665" id="-89151">
		<tag k="name" v="Kvernavikbekken" />
		<tag k="ssr:stedsnr" v="90566" />
		<tag k="waterway" v="stream" />
	</node>
	<node lat="63.194111112133186" lon="8.884908342615391" id="-89156">
		<tag k="name" v="Grønsetelva" />
		<tag k="ssr:stedsnr" v="90581" />
		<tag k="waterway" v="stream" />
	</node>
	<node lat="63.183166664017506" lon="8.963047230080145" id="-89159">
		<tag k="name" v="Skardbekken" />
		<tag k="ssr:stedsnr" v="90782" />
		<tag k="waterway" v="stream" />
	</node>
	<node lat="63.177994445761236" lon="8.979702786381793" id="-89160">
		<tag k="name" v="Geitadalsbekken" />
		<tag k="ssr:stedsnr" v="90785" />
		<tag k="waterway" v="stream" />
	</node>
	<node lat="63.32468333107123" lon="9.252997229837364" id="-89170">
		<tag k="name" v="Kvernbekkfossen" />
		<tag k="natural" v="waterfall" />
		<tag k="ssr:stedsnr" v="93769" />
	</node>
	<node lat="63.33437777815753" lon="9.334477777150527" id="-89175">
		<tag k="name" v="Tverrlitjørna" />
		<tag k="natural" v="water" />
		<tag k="ssr:stedsnr" v="94815" />
	</node>
	<node lat="63.0770055536554" lon="8.521624995304371" id="-89189">
		<tag k="name" v="Bjørkøya" />
		<tag k="place" v="island" />
		<tag k="ssr:stedsnr" v="108303" />
	</node>
	<node lat="63.14416666473216" lon="8.728527782557183" id="-89195">
		<tag k="name" v="Klompholbekken" />
		<tag k="ssr:stedsnr" v="108717" />
		<tag k="waterway" v="stream" />
	</node>
	<node lat="63.068275003460855" lon="8.383630559519238" id="-89203">
		<tag k="name" v="Hundhaugvatnet" />
		<tag k="natural" v="water" />
		<tag k="ssr:stedsnr" v="109223" />
		<tag k="water" v="lake" />
	</node>
	<node lat="63.09433055834937" lon="8.651305554274263" id="-89206">
		<tag k="name" v="Holmen" />
		<tag k="place" v="islet" />
		<tag k="ssr:stedsnr" v="109131" />
	</node>
	<node lat="63.155544444005905" lon="8.569974999116122" id="-89209">
		<tag k="name" v="Øygardsbekken" />
		<tag k="ssr:stedsnr" v="109486" />
		<tag k="waterway" v="stream" />
	</node>
	<node lat="63.32470277674223" lon="9.21407499569768" id="-89224">
		<tag k="name" v="Sperillvatna" />
		<tag k="natural" v="water" />
		<tag k="ssr:stedsnr" v="133467" />
		<tag k="water" v="lake" />
	</node>
	<node lat="63.35852500448288" lon="8.956883334256132" id="-89229">
		<tag k="name" v="Sagfossen" />
		<tag k="natural" v="waterfall" />
		<tag k="ssr:stedsnr" v="133667" />
	</node>
	<node lat="63.13516575687166" lon="8.97486277610878" id="-89230">
		<tag k="alt_name" v="Fossdalfjellvatnet;Holavatnet" />
		<tag k="name" v="Fossdalsfjellvatnet" />
		<tag k="natural" v="water" />
		<tag k="ssr:stedsnr" v="133671" />
		<tag k="water" v="lake" />
	</node>
	<node lat="63.32300278162365" lon="9.276011112414103" id="-89235">
		<tag k="alt_name" v="Berdalssetertjørna" />
		<tag k="name" v="Berdalsætertjørna" />
		<tag k="natural" v="water" />
		<tag k="ssr:stedsnr" v="134213" />
	</node>
	<node lat="63.344063892762286" lon="9.286761104226455" id="-89245">
		<tag k="alt_name" v="Vennaelva" />
		<tag k="name" v="Venelva" />
		<tag k="ssr:stedsnr" v="134172" />
		<tag k="waterway" v="stream" />
	</node>
	<node lat="63.28990278185427" lon="9.156766670676586" id="-89246">
		<tag k="name" v="Hagaelva" />
		<tag k="ssr:stedsnr" v="134613" />
		<tag k="waterway" v="river" />
	</node>
	<node lat="63.262880559875406" lon="9.193538890940053" id="-89247">
		<tag k="name" v="Kanortjønna" />
		<tag k="natural" v="water" />
		<tag k="ssr:stedsnr" v="134921" />
	</node>
	<node lat="63.34504721995344" lon="9.040355554210215" id="-89255">
		<tag k="name" v="Almlitjønna" />
		<tag k="natural" v="water" />
		<tag k="ssr:stedsnr" v="255530" />
	</node>
	<node lat="63.364605552445674" lon="8.939761111100205" id="-89272">
		<tag k="alt_name" v="Sengsdalsvatnet;Djupsætervatnet" />
		<tag k="fixme" v="multiple name tags, choose one and add the other to alt_name" />
		<tag k="name" v="Setervatnet;Djupsetervatnet" />
		<tag k="natural" v="water" />
		<tag k="ssr:stedsnr" v="255758" />
		<tag k="water" v="lake" />
	</node>
	<node lat="63.24834166830292" lon="9.139997217175676" id="-89275">
		<tag k="name" v="Tevatnet" />
		<tag k="natural" v="water" />
		<tag k="ssr:stedsnr" v="255891" />
	</node>
	<node lat="63.07896666461207" lon="8.398000005354364" id="-89279">
		<tag k="name" v="Rognskogvatnet" />
		<tag k="natural" v="water" />
		<tag k="ssr:stedsnr" v="255934" />
		<tag k="water" v="lake" />
	</node>
	<node lat="63.241569441964934" lon="9.156983324293396" id="-89295">
		<tag k="name" v="Fjellslættbekken" />
		<tag k="ssr:stedsnr" v="150222" />
		<tag k="waterway" v="stream" />
	</node>
	<node lat="63.21588333195288" lon="9.226450009286598" id="-89297">
		<tag k="name" v="Tritjønnan" />
		<tag k="natural" v="water" />
		<tag k="ssr:stedsnr" v="150254" />
	</node>
	<node lat="63.258150002339256" lon="8.905566662814369" id="-89304">
		<tag k="name" v="Ivalitjønnin" />
		<tag k="natural" v="water" />
		<tag k="ssr:stedsnr" v="150123" />
	</node>
	<node lat="63.191661108185734" lon="9.06655278222459" id="-89309">
		<tag k="name" v="Djupdalsbekken" />
		<tag k="ssr:stedsnr" v="150304" />
		<tag k="waterway" v="stream" />
	</node>
	<node lat="63.19174722553079" lon="9.011491664766877" id="-89328">
		<tag k="name" v="Spjøto" />
		<tag k="ssr:stedsnr" v="150910" />
		<tag k="waterway" v="river" />
	</node>
	<node lat="63.317502774509514" lon="8.973200003012705" id="-89332">
		<tag k="name" v="Lomtjønna" />
		<tag k="natural" v="water" />
		<tag k="ssr:stedsnr" v="150926" />
	</node>
	<node lat="63.31068055326555" lon="8.982227783606575" id="-89333">
		<tag k="name" v="Bærhaugbekken" />
		<tag k="ssr:stedsnr" v="150955" />
		<tag k="waterway" v="stream" />
	</node>
	<node lat="63.313366671051995" lon="9.08139999261898" id="-89334">
		<tag k="name" v="Alstadbekken" />
		<tag k="ssr:stedsnr" v="150966" />
		<tag k="waterway" v="stream" />
	</node>
	<node lat="63.2026694406254" lon="9.148911118114837" id="-89348">
		<tag k="name" v="Damtjønnbekken" />
		<tag k="ssr:stedsnr" v="151318" />
		<tag k="waterway" v="stream" />
	</node>
	<node lat="63.261069440032195" lon="9.072983342791995" id="-89354">
		<tag k="name" v="Vinddalsvatnet" />
		<tag k="natural" v="water" />
		<tag k="ssr:stedsnr" v="256880" />
		<tag k="water" v="lake" />
	</node>
	<node lat="63.32518055538771" lon="9.244780547287995" id="-89359">
		<tag k="name" v="Bukta" />
		<tag k="natural" v="bay" />
		<tag k="ssr:stedsnr" v="154850" />
	</node>
	<node lat="63.15108055291036" lon="8.861261107654462" id="-89360">
		<tag k="name" v="Vassbukta" />
		<tag k="natural" v="bay" />
		<tag k="ssr:stedsnr" v="272549" />
	</node>
	<node lat="63.153205556281065" lon="8.864311120221116" id="-89361">
		<tag k="name" v="Vassbukta" />
		<tag k="natural" v="bay" />
		<tag k="ssr:stedsnr" v="272550" />
	</node>
	<node lat="63.107102780485384" lon="8.370255559627655" id="-89365">
		<tag k="name" v="Kjekkelbekken" />
		<tag k="ssr:stedsnr" v="168077" />
		<tag k="waterway" v="stream" />
	</node>
	<node lat="63.095399998809185" lon="8.548180560672598" id="-89379">
		<tag k="name" v="Kvennhusbekken" />
		<tag k="ssr:stedsnr" v="169476" />
		<tag k="waterway" v="stream" />
	</node>
	<node lat="63.17785832908308" lon="8.936969441828442" id="-89404">
		<tag k="name" v="Holmtåa" />
		<tag k="natural" v="cape" />
		<tag k="ssr:stedsnr" v="272713" />
	</node>
	<node lat="63.34408610695405" lon="8.970908343120124" id="-89407">
		<tag k="name" v="Stortjønna" />
		<tag k="natural" v="water" />
		<tag k="ssr:stedsnr" v="195705" />
	</node>
	<node lat="63.29840000316487" lon="9.195369439847058" id="-89409">
		<tag k="alt_name" v="Setersetervatnet" />
		<tag k="name" v="Sætersætervatnet" />
		<tag k="natural" v="water" />
		<tag k="ssr:stedsnr" v="195629" />
	</node>
	<node lat="63.42551111336298" lon="9.0448111017649" id="-89413">
		<tag k="name" v="Ramnurdsbekken" />
		<tag k="ssr:stedsnr" v="272635" />
		<tag k="waterway" v="stream" />
	</node>
	<node lat="63.25885833252107" lon="9.042633326048533" id="-89418">
		<tag k="name" v="Hundholet" />
		<tag k="natural" v="cape" />
		<tag k="ssr:stedsnr" v="211117" />
	</node>
	<node lat="63.24578075745209" lon="9.047215848340192" id="-89422">
		<tag k="name" v="Sinnesvika" />
		<tag k="natural" v="bay" />
		<tag k="ssr:stedsnr" v="211179" />
	</node>
	<node lat="63.23438055683002" lon="9.052030565441708" id="-89423">
		<tag k="name" v="Langmyrbekken" />
		<tag k="ssr:stedsnr" v="211192" />
		<tag k="waterway" v="stream" />
	</node>
	<node lat="63.27065833714885" lon="9.014452774853416" id="-89435">
		<tag k="name" v="Fiskåberget" />
		<tag k="natural" v="cape" />
		<tag k="ssr:stedsnr" v="211474" />
	</node>
	<node lat="63.3696694417625" lon="9.031116665736002" id="-89447">
		<tag k="name" v="Killingholmen" />
		<tag k="place" v="islet" />
		<tag k="ssr:stedsnr" v="211724" />
	</node>
	<node lat="63.34967499639514" lon="9.104063879995927" id="-89448">
		<tag k="name" v="Kalvslåbekken" />
		<tag k="ssr:stedsnr" v="211775" />
		<tag k="waterway" v="stream" />
	</node>
	<node lat="63.2283000044631" lon="9.023019451578996" id="-89452">
		<tag k="name" v="Steinvegbekken" />
		<tag k="ssr:stedsnr" v="212524" />
		<tag k="waterway" v="stream" />
	</node>
	<node lat="63.16610000029719" lon="8.839313886287032" id="-89454">
		<tag k="name" v="Prekstolbekken" />
		<tag k="ssr:stedsnr" v="212605" />
		<tag k="waterway" v="stream" />
	</node>
	<node lat="63.337327779124216" lon="9.034469435885633" id="-89460">
		<tag k="name" v="Økselvassbekken" />
		<tag k="ssr:stedsnr" v="212925" />
		<tag k="waterway" v="stream" />
	</node>
	<node lat="63.17334999959177" lon="8.929280545916132" id="-89465">
		<tag k="name" v="Øyatåa" />
		<tag k="natural" v="cape" />
		<tag k="ssr:stedsnr" v="212824" />
	</node>
	<node lat="63.39889722223382" lon="8.838216665210286" id="-89467">
		<tag k="name" v="Osmarkbekken" />
		<tag k="ssr:stedsnr" v="212892" />
		<tag k="waterway" v="stream" />
	</node>
	<node lat="63.21274999833528" lon="8.873513879559598" id="-89472">
		<tag k="name" v="Sollielva" />
		<tag k="ssr:stedsnr" v="269897" />
		<tag k="waterway" v="stream" />
	</node>
	<node lat="63.220047221466125" lon="9.04063610526948" id="-89491">
		<tag k="name" v="Gravdalsbekken" />
		<tag k="ssr:stedsnr" v="272735" />
		<tag k="waterway" v="stream" />
	</node>
	<node lat="63.17931111399893" lon="8.71241666921949" id="-89504">
		<tag k="name" v="Ytterbønbekken" />
		<tag k="ssr:stedsnr" v="229987" />
		<tag k="waterway" v="stream" />
	</node>
	<node lat="63.1130583316953" lon="8.581322229792328" id="-89512">
		<tag k="name" v="Dvergdalsbekken" />
		<tag k="ssr:stedsnr" v="230496" />
		<tag k="waterway" v="stream" />
	</node>
	<node lat="63.21638333684061" lon="8.940327783946485" id="-89523">
		<tag k="name" v="Småtjønnin" />
		<tag k="natural" v="water" />
		<tag k="ssr:stedsnr" v="451938" />
	</node>
	<node lat="63.22790833767184" lon="9.034322223273115" id="-89524">
		<tag k="name" v="Eidsfossen" />
		<tag k="ssr:stedsnr" v="451939" />
		<tag k="waterway" v="rapids" />
	</node>
	<node lat="63.22218888741964" lon="9.00279723189588" id="-89528">
		<tag k="name" v="Skardbekken" />
		<tag k="ssr:stedsnr" v="454788" />
		<tag k="waterway" v="stream" />
	</node>
	<node lat="63.29881388524377" lon="9.219877784751432" id="-89534">
		<tag k="name" v="Kvitfossen" />
		<tag k="natural" v="waterfall" />
		<tag k="ssr:stedsnr" v="454907" />
	</node>
	<node lat="63.17644444615386" lon="9.075505554873065" id="-89538">
		<tag k="name" v="Rørlibekken" />
		<tag k="ssr:stedsnr" v="454330" />
		<tag k="waterway" v="stream" />
	</node>
	<node lat="63.14143055401439" lon="9.080655556054227" id="-89544">
		<tag k="name" v="Kårbekken" />
		<tag k="ssr:stedsnr" v="454415" />
		<tag k="waterway" v="stream" />
	</node>
	<node lat="63.144330559799734" lon="9.141349991922628" id="-89549">
		<tag k="name" v="Gravbekken" />
		<tag k="ssr:stedsnr" v="454427" />
		<tag k="waterway" v="stream" />
	</node>
	<node lat="63.29682500389241" lon="9.20981389850739" id="-89551">
		<tag k="name" v="Djupholstjønna" />
		<tag k="natural" v="water" />
		<tag k="ssr:stedsnr" v="454437" />
	</node>
	<node lat="63.26236667083188" lon="8.908730561494362" id="-89553">
		<tag k="name" v="Tverrlibekken" />
		<tag k="ssr:stedsnr" v="454132" />
		<tag k="waterway" v="stream" />
	</node>
	<node lat="63.23114722154492" lon="9.040288894984823" id="-89573">
		<tag k="name" v="Geitaklauvbekken" />
		<tag k="ssr:stedsnr" v="454536" />
		<tag k="waterway" v="stream" />
	</node>
	<node lat="63.20657222087468" lon="8.863952771241175" id="-89579">
		<tag k="name" v="Hagabekken" />
		<tag k="ssr:stedsnr" v="454606" />
		<tag k="waterway" v="stream" />
	</node>
	<node lat="63.381586114931594" lon="8.95142778061017" id="-89590">
		<tag k="name" v="Yttereidet" />
		<tag k="place" v="locality" />
		<tag k="ssr:stedsnr" v="454629" />
	</node>
	<node lat="63.36957222239858" lon="9.125536120105073" id="-89601">
		<tag k="name" v="Seterneset" />
		<tag k="natural" v="cape" />
		<tag k="ssr:stedsnr" v="454736" />
	</node>
	<node lat="63.3170805526682" lon="8.96232777764779" id="-89609">
		<tag k="name" v="Langbekken" />
		<tag k="ssr:stedsnr" v="454942" />
		<tag k="waterway" v="stream" />
	</node>
	<node lat="63.41198888784528" lon="8.85471667585913" id="-89610">
		<tag k="name" v="Kråtjønna" />
		<tag k="natural" v="water" />
		<tag k="ssr:stedsnr" v="454945" />
	</node>
	<node lat="63.332677776938155" lon="9.062475006542336" id="-89619">
		<tag k="name" v="Skardsbekken" />
		<tag k="ssr:stedsnr" v="455936" />
		<tag k="waterway" v="stream" />
	</node>
	<node lat="63.29505000133015" lon="8.99018333588359" id="-89626">
		<tag k="name" v="Skårbekken" />
		<tag k="ssr:stedsnr" v="255564" />
		<tag k="waterway" v="stream" />
	</node>
	<node lat="63.363369443273946" lon="8.96129165938975" id="-89633">
		<tag k="name" v="Øyabukta" />
		<tag k="natural" v="bay" />
		<tag k="ssr:stedsnr" v="255762" />
	</node>
	<node lat="63.13215277497838" lon="8.712136104574613" id="-89640">
		<tag k="name" v="Blåvatnet" />
		<tag k="natural" v="water" />
		<tag k="ssr:stedsnr" v="255974" />
	</node>
	<node lat="63.128524999136374" lon="8.68582777224453" id="-89641">
		<tag k="name" v="Litlvatnet" />
		<tag k="natural" v="water" />
		<tag k="ssr:stedsnr" v="255975" />
	</node>
	<node lat="63.368755559085805" lon="9.41740277762103" id="-89647">
		<tag k="name" v="Trobekken" />
		<tag k="ssr:stedsnr" v="457397" />
		<tag k="waterway" v="stream" />
	</node>
	<node lat="63.316699998771206" lon="9.24799443896153" id="-89660">
		<tag k="name" v="Middagsbekken" />
		<tag k="ssr:stedsnr" v="458825" />
		<tag k="waterway" v="stream" />
	</node>
	<node lat="63.22808611311628" lon="9.323955563414826" id="-89670">
		<tag k="name" v="Sluppsundet" />
		<tag k="natural" v="strait" />
		<tag k="ssr:stedsnr" v="272229" />
	</node>
	<node lat="63.204305552153734" lon="9.165058337663915" id="-89675">
		<tag k="name" v="Fossholet" />
		<tag k="place" v="locality" />
		<tag k="ssr:stedsnr" v="272305" />
	</node>
	<node lat="63.14547222530608" lon="9.106833329059015" id="-89679">
		<tag k="name" v="Damtjønna" />
		<tag k="natural" v="water" />
		<tag k="ssr:stedsnr" v="272378" />
	</node>
	<node lat="63.1514388932101" lon="9.145613887138884" id="-89680">
		<tag k="name" v="Rutbekken" />
		<tag k="ssr:stedsnr" v="272390" />
		<tag k="waterway" v="stream" />
	</node>
	<node lat="63.39450000348868" lon="8.820519445567282" id="-89694">
		<tag k="name" v="Langneset" />
		<tag k="natural" v="cape" />
		<tag k="ssr:stedsnr" v="272809" />
	</node>
	<node lat="63.18770000440025" lon="9.009099994788967" id="-89701">
		<tag k="name" v="Storlibekken" />
		<tag k="ssr:stedsnr" v="272774" />
		<tag k="waterway" v="stream" />
	</node>
	<node lat="63.320399999605904" lon="9.090602772177553" id="-89703">
		<tag k="name" v="Sørstubekken" />
		<tag k="ssr:stedsnr" v="272797" />
		<tag k="waterway" v="stream" />
	</node>
	<node lat="63.185291665291416" lon="8.8525833339621" id="-89705">
		<tag k="name" v="Staursetelva" />
		<tag k="ssr:stedsnr" v="272906" />
		<tag k="waterway" v="river" />
	</node>
	<node lat="63.3415583303909" lon="9.289980560464274" id="-89723">
		<tag k="name" v="Løntjørna" />
		<tag k="natural" v="water" />
		<tag k="ssr:stedsnr" v="275998" />
	</node>
	<node lat="63.36311389281904" lon="9.38632499939592" id="-89724">
		<tag k="name" v="Vørferdalsbekken" />
		<tag k="ssr:stedsnr" v="276281" />
		<tag k="waterway" v="stream" />
	</node>
	<node lat="63.08021667041688" lon="8.458808332062107" id="-89729">
		<tag k="name" v="Klomptjønna" />
		<tag k="natural" v="water" />
		<tag k="ssr:stedsnr" v="288936" />
	</node>
	<node lat="63.09397778053908" lon="8.697155548923464" id="-89733">
		<tag k="name" v="Pullbekken" />
		<tag k="ssr:stedsnr" v="290175" />
		<tag k="waterway" v="stream" />
	</node>
	<node lat="63.04078055351347" lon="8.345083332295117" id="-89759">
		<tag k="name" v="Skreåbekken" />
		<tag k="ssr:stedsnr" v="315507" />
		<tag k="waterway" v="stream" />
	</node>
	<node lat="63.144386113346705" lon="9.10711666394863" id="-89761">
		<tag k="name" v="Kårbekken" />
		<tag k="ssr:stedsnr" v="315720" />
		<tag k="waterway" v="stream" />
	</node>
	<node lat="63.239386110931065" lon="8.904730551169148" id="-89763">
		<tag k="name" v="Leiråvatnet" />
		<tag k="natural" v="water" />
		<tag k="ssr:stedsnr" v="315759" />
		<tag k="water" v="lake" />
	</node>
	<node lat="63.087852775833454" lon="8.521197216888314" id="-89767">
		<tag k="name" v="Ljøsvasselva" />
		<tag k="ssr:stedsnr" v="315899" />
		<tag k="waterway" v="stream" />
	</node>
	<node lat="63.08788055270472" lon="8.585213898056137" id="-89768">
		<tag k="name" v="Tvillingelva" />
		<tag k="ssr:stedsnr" v="315909" />
		<tag k="waterway" v="stream" />
	</node>
	<node lat="63.07304722277127" lon="8.678024993447517" id="-89769">
		<tag k="name" v="Tjørnslættjørna" />
		<tag k="natural" v="water" />
		<tag k="ssr:stedsnr" v="315911" />
	</node>
	<node lat="63.074525000502085" lon="8.279449999076721" id="-89770">
		<tag k="name" v="Vågåa" />
		<tag k="ssr:stedsnr" v="315914" />
		<tag k="waterway" v="stream" />
	</node>
	<node lat="63.131319443478176" lon="8.31130000531589" id="-89772">
		<tag k="name" v="Storvatnet" />
		<tag k="natural" v="water" />
		<tag k="ssr:stedsnr" v="315954" />
	</node>
	<node lat="63.2210194413948" lon="9.008213892334535" id="-89782">
		<tag k="name" v="Grytbekken" />
		<tag k="ssr:stedsnr" v="316817" />
		<tag k="waterway" v="stream" />
	</node>
	<node lat="63.344627776576004" lon="8.942422226268503" id="-89784">
		<tag k="name" v="Lægdafossen" />
		<tag k="natural" v="waterfall" />
		<tag k="ssr:stedsnr" v="316752" />
	</node>
	<node lat="63.23567500133449" lon="8.932327773014201" id="-89791">
		<tag k="name" v="Skratlhaugdalsbekken" />
		<tag k="ssr:stedsnr" v="330955" />
		<tag k="waterway" v="stream" />
	</node>
	<node lat="63.27873055161856" lon="9.245855563915928" id="-89797">
		<tag k="name" v="Inner Furunesbekken" />
		<tag k="ssr:stedsnr" v="332012" />
		<tag k="waterway" v="stream" />
	</node>
	<node lat="63.277311110934946" lon="9.11912222718211" id="-89800">
		<tag k="name" v="Gåstjønna" />
		<tag k="natural" v="water" />
		<tag k="ssr:stedsnr" v="332016" />
	</node>
	<node lat="63.15953055546628" lon="9.045597221057614" id="-89809">
		<tag k="name" v="Rørbekken" />
		<tag k="ssr:stedsnr" v="332360" />
		<tag k="waterway" v="stream" />
	</node>
	<node lat="63.153011107857914" lon="9.029802773695147" id="-89810">
		<tag k="name" v="Botnbekken" />
		<tag k="ssr:stedsnr" v="332363" />
		<tag k="waterway" v="stream" />
	</node>
	<node lat="63.12830000316617" lon="8.297216664018153" id="-89811">
		<tag k="alt_name" v="Ytre Våglandselva" />
		<tag k="name" v="Ytter-Våglandselva" />
		<tag k="ssr:stedsnr" v="470998" />
		<tag k="waterway" v="stream" />
	</node>
	<node lat="63.31825833546902" lon="8.980974997511975" id="-89817">
		<tag k="name" v="Kleivholbekken" />
		<tag k="ssr:stedsnr" v="332955" />
		<tag k="waterway" v="stream" />
	</node>
	<node lat="63.265494443985425" lon="9.004069453565988" id="-89820">
		<tag k="name" v="Bekkadalsbekken" />
		<tag k="ssr:stedsnr" v="333108" />
		<tag k="waterway" v="stream" />
	</node>
	<node lat="63.26197777785396" lon="8.927969439986008" id="-89821">
		<tag k="name" v="Litlskogsjøen" />
		<tag k="natural" v="water" />
		<tag k="ssr:stedsnr" v="333153" />
	</node>
	<node lat="63.37273333771544" lon="9.154505551832326" id="-89839">
		<tag k="name" v="Litlbugbekken" />
		<tag k="ssr:stedsnr" v="333807" />
		<tag k="waterway" v="stream" />
	</node>
	<node lat="63.32549166353678" lon="8.974836110497494" id="-89841">
		<tag k="name" v="Tverrdalsbekken" />
		<tag k="ssr:stedsnr" v="333821" />
		<tag k="waterway" v="stream" />
	</node>
	<node lat="63.336941668059474" lon="9.002449994439202" id="-89842">
		<tag k="name" v="Kverhusbekken" />
		<tag k="ssr:stedsnr" v="333824" />
		<tag k="waterway" v="stream" />
	</node>
	<node lat="63.10954166740534" lon="8.167608340490858" id="-89853">
		<tag k="name" v="Storvikbekken" />
		<tag k="ssr:stedsnr" v="471443" />
		<tag k="waterway" v="stream" />
	</node>
	<node lat="63.10711666821749" lon="8.630444439665803" id="-89855">
		<tag k="name" v="Skredbekken" />
		<tag k="ssr:stedsnr" v="471528" />
		<tag k="waterway" v="stream" />
	</node>
	<node lat="63.0806111110485" lon="8.395205564924497" id="-89867">
		<tag k="name" v="Storvatnet" />
		<tag k="natural" v="water" />
		<tag k="ssr:stedsnr" v="471821" />
		<tag k="water" v="lake" />
	</node>
	<node lat="63.109083332793105" lon="8.33107221381039" id="-89874">
		<tag k="name" v="Inner-Våglandselva" />
		<tag k="ssr:stedsnr" v="472114" />
		<tag k="waterway" v="stream" />
	</node>
	<node lat="63.135827779592326" lon="8.225916663830413" id="-89876">
		<tag k="name" v="Vikabekken" />
		<tag k="ssr:stedsnr" v="472272" />
		<tag k="waterway" v="stream" />
	</node>
	<node lat="63.08698333088624" lon="8.434022230813628" id="-89888">
		<tag k="name" v="Mellomelva" />
		<tag k="ssr:stedsnr" v="472649" />
		<tag k="waterway" v="stream" />
	</node>
	<node lat="63.044730555883476" lon="8.284419446745055" id="-89919">
		<tag k="name" v="Volemstjønna" />
		<tag k="natural" v="water" />
		<tag k="ssr:stedsnr" v="350117" />
	</node>
	<node lat="63.093330552329725" lon="8.663375008093343" id="-89925">
		<tag k="name" v="Ørnhammarbukta" />
		<tag k="natural" v="bay" />
		<tag k="ssr:stedsnr" v="351153" />
	</node>
	<node lat="63.27334722490445" lon="9.070522227032974" id="-89949">
		<tag k="name" v="Gjerstadlibekken" />
		<tag k="ssr:stedsnr" v="393111" />
		<tag k="waterway" v="stream" />
	</node>
	<node lat="63.26261388840257" lon="8.914324999705425" id="-89951">
		<tag k="name" v="Kubekken" />
		<tag k="ssr:stedsnr" v="393143" />
		<tag k="waterway" v="stream" />
	</node>
	<node lat="63.2605083361284" lon="9.205225008112095" id="-89953">
		<tag k="name" v="Hestskotjønna" />
		<tag k="natural" v="water" />
		<tag k="ssr:stedsnr" v="393087" />
	</node>
	<node lat="63.38907500051054" lon="8.94997499047632" id="-89967">
		<tag k="name" v="Stokkdalstjønna" />
		<tag k="natural" v="water" />
		<tag k="ssr:stedsnr" v="393610" />
	</node>
	<node lat="63.36783889122693" lon="8.919138892459992" id="-89971">
		<tag k="name" v="Singsdalsbukta" />
		<tag k="natural" v="bay" />
		<tag k="ssr:stedsnr" v="393621" />
	</node>
	<node lat="63.17842500386223" lon="8.834422231568091" id="-89980">
		<tag k="name" v="Bilobekken" />
		<tag k="ssr:stedsnr" v="393912" />
		<tag k="waterway" v="stream" />
	</node>
	<node lat="63.17327222428011" lon="8.837936107599004" id="-89981">
		<tag k="name" v="Djupdalsbekken" />
		<tag k="ssr:stedsnr" v="393913" />
		<tag k="waterway" v="stream" />
	</node>
	<node lat="63.42374444789022" lon="8.853863892678122" id="-89990">
		<tag k="name" v="Stavneselva" />
		<tag k="ssr:stedsnr" v="393940" />
		<tag k="waterway" v="stream" />
	</node>
	<node lat="63.164319445038764" lon="8.918077775172724" id="-89992">
		<tag k="name" v="Litlseterbekken" />
		<tag k="ssr:stedsnr" v="393954" />
		<tag k="waterway" v="stream" />
	</node>
	<node lat="63.340169447875965" lon="8.997583329196459" id="-89997">
		<tag k="name" v="Slabukta" />
		<tag k="natural" v="water" />
		<tag k="ssr:stedsnr" v="393833" />
		<tag k="water" v="lake" />
	</node>
	<node lat="63.30739444390839" lon="9.078258328122656" id="-90002">
		<tag k="name" v="Nessabekken" />
		<tag k="ssr:stedsnr" v="393982" />
		<tag k="waterway" v="stream" />
	</node>
	<node lat="63.32510555763585" lon="9.049527781382169" id="-90008">
		<tag k="name" v="Litlvasslikrokan" />
		<tag k="ssr:stedsnr" v="394912" />
		<tag k="waterway" v="stream" />
	</node>
	<node lat="63.239174997519214" lon="9.035536120820142" id="-90028">
		<tag k="name" v="Hunnesbugen" />
		<tag k="natural" v="bay" />
		<tag k="ssr:stedsnr" v="272186" />
	</node>
	<node lat="63.15029166750054" lon="8.58728055396666" id="-90035">
		<tag k="name" v="Stokkeelva" />
		<tag k="ssr:stedsnr" v="411638" />
		<tag k="waterway" v="river" />
	</node>
	<node lat="63.059880551454334" lon="8.241669448671948" id="-90038">
		<tag k="name" v="Rødelva" />
		<tag k="ssr:stedsnr" v="411654" />
		<tag k="waterway" v="stream" />
	</node>
	<node lat="63.13013611338298" lon="8.626116672474156" id="-90041">
		<tag k="name" v="Kvenndalselva" />
		<tag k="ssr:stedsnr" v="411827" />
		<tag k="waterway" v="stream" />
	</node>
	<node lat="63.09741944168708" lon="8.24331944507527" id="-90044">
		<tag k="name" v="Bjønnavasselva" />
		<tag k="ssr:stedsnr" v="411711" />
		<tag k="waterway" v="stream" />
	</node>
	<node lat="63.05348333576321" lon="8.346563880599861" id="-90052">
		<tag k="name" v="Ytre Vassdalsvatnet" />
		<tag k="natural" v="water" />
		<tag k="ssr:stedsnr" v="412146" />
		<tag k="water" v="lake" />
	</node>
	<node lat="63.128686111057334" lon="8.427702777348891" id="-90055">
		<tag k="name" v="Kroknessetra" />
		<tag k="natural" v="cape" />
		<tag k="ssr:stedsnr" v="412540" />
	</node>
	<node lat="63.13295000250059" lon="8.405761113342093" id="-90057">
		<tag k="name" v="Hennaelva" />
		<tag k="ssr:stedsnr" v="412545" />
		<tag k="waterway" v="stream" />
	</node>
	<node lat="63.10469444679565" lon="8.562391673432797" id="-90062">
		<tag k="name" v="Sletthølen" />
		<tag k="place" v="locality" />
		<tag k="ssr:stedsnr" v="412447" />
	</node>
	<node lat="63.41630277912653" lon="8.802922220725558" id="-90077">
		<tag k="name" v="Innervatnet" />
		<tag k="natural" v="water" />
		<tag k="ssr:stedsnr" v="437457" />
	</node>
	<node lat="63.15295000347479" lon="8.863100004297934" id="-90082">
		<tag k="name" v="Setervatnet" />
		<tag k="natural" v="water" />
		<tag k="ssr:stedsnr" v="437704" />
	</node>
	<node lat="63.39205555186188" lon="9.038538894718634" id="-90087">
		<tag k="name" v="Simonstjønna" />
		<tag k="natural" v="water" />
		<tag k="ssr:stedsnr" v="437648" />
	</node>
	<node lat="63.414169446928" lon="8.854322212623707" id="-90088">
		<tag k="name" v="Litlvatnet" />
		<tag k="natural" v="water" />
		<tag k="ssr:stedsnr" v="437660" />
	</node>
	<node lat="63.1280888885006" lon="8.469800005349919" id="-90091">
		<tag k="name" v="Tverrbekken" />
		<tag k="ssr:stedsnr" v="437960" />
		<tag k="waterway" v="stream" />
	</node>
	<node lat="63.43415555998047" lon="9.063886111428523" id="-90098">
		<tag k="name" v="Oternesvatnet" />
		<tag k="natural" v="water" />
		<tag k="ssr:stedsnr" v="438383" />
		<tag k="water" v="lake" />
	</node>
	<node lat="63.2534805515162" lon="8.869191672378522" id="-90104">
		<tag k="name" v="Erklibekken" />
		<tag k="ssr:stedsnr" v="438899" />
		<tag k="waterway" v="stream" />
	</node>
	<node lat="63.397586106757835" lon="8.826869450471568" id="-90105">
		<tag k="name" v="Novika" />
		<tag k="natural" v="bay" />
		<tag k="ssr:stedsnr" v="451714" />
	</node>
	<node lat="63.139222221328204" lon="9.079841668679842" id="-90113">
		<tag k="name" v="Fjellbekken" />
		<tag k="ssr:stedsnr" v="272397" />
		<tag k="waterway" v="stream" />
	</node>
	<node lat="63.247405557970055" lon="9.099705564268334" id="-90128">
		<tag k="name" v="Elvakroken" />
		<tag k="natural" v="water" />
		<tag k="ssr:stedsnr" v="454202" />
		<tag k="water" v="lake" />
	</node>
	<node lat="63.24177226885616" lon="9.049885087028645" id="-90133">
		<tag k="name" v="Libukta" />
		<tag k="natural" v="bay" />
		<tag k="ssr:stedsnr" v="454185" />
	</node>
	<node lat="63.35618333251343" lon="9.081022230780565" id="-90165">
		<tag k="name" v="Krålitjønna" />
		<tag k="natural" v="water" />
		<tag k="ssr:stedsnr" v="454783" />
	</node>
	<node lat="63.36302222630127" lon="9.39904999096617" id="-90180">
		<tag k="name" v="Skottstødalsbekken" />
		<tag k="ssr:stedsnr" v="458264" />
		<tag k="waterway" v="stream" />
	</node>
	<node lat="63.32455000189619" lon="9.24987500227362" id="-90181">
		<tag k="name" v="Kvernbekken" />
		<tag k="ssr:stedsnr" v="458510" />
		<tag k="waterway" v="stream" />
	</node>
	<node lat="63.22511666683319" lon="9.35185555196443" id="-90187">
		<tag k="name" v="Svartvikbukta" />
		<tag k="natural" v="bay" />
		<tag k="ssr:stedsnr" v="466714" />
	</node>
	<node lat="63.11785555207489" lon="8.196097212430441" id="-90192">
		<tag k="name" v="Stokklibekken" />
		<tag k="ssr:stedsnr" v="471462" />
		<tag k="waterway" v="stream" />
	</node>
	<node lat="63.116613891711296" lon="8.532205554682443" id="-90196">
		<tag k="name" v="Ormdalsbekken" />
		<tag k="ssr:stedsnr" v="471611" />
		<tag k="waterway" v="stream" />
	</node>
	<node lat="63.057519448200246" lon="8.343791668236891" id="-90202">
		<tag k="name" v="Fossan" />
		<tag k="natural" v="waterfall" />
		<tag k="ssr:stedsnr" v="472161" />
	</node>
	<node lat="63.094155555499945" lon="8.372561116439087" id="-90212">
		<tag k="name" v="Blekkatjønna" />
		<tag k="natural" v="water" />
		<tag k="ssr:stedsnr" v="472965" />
	</node>
	<node lat="63.173797222024845" lon="8.755019447827802" id="-90214">
		<tag k="name" v="Langbekken" />
		<tag k="ssr:stedsnr" v="472977" />
		<tag k="waterway" v="stream" />
	</node>
	<node lat="63.16180555875789" lon="8.67423888583852" id="-90216">
		<tag k="name" v="Seterøya" />
		<tag k="place" v="island" />
		<tag k="ssr:stedsnr" v="473220" />
	</node>
	<node lat="63.1631027739859" lon="8.566549995491828" id="-90222">
		<tag k="name" v="Røstgråtlibekken" />
		<tag k="ssr:stedsnr" v="473711" />
		<tag k="waterway" v="stream" />
	</node>
	<node lat="63.16149721918448" lon="8.993111106858139" id="-90233">
		<tag k="name" v="Middagslivatnet" />
		<tag k="natural" v="water" />
		<tag k="ssr:stedsnr" v="679759" />
		<tag k="water" v="lake" />
	</node>
	<node lat="63.25342222416695" lon="9.137772213130134" id="-90234">
		<tag k="name" v="Svorttjønna" />
		<tag k="natural" v="water" />
		<tag k="ssr:stedsnr" v="679887" />
	</node>
	<node lat="63.10723055884686" lon="8.389588896725126" id="-90235">
		<tag k="name" v="Klettaelva" />
		<tag k="ssr:stedsnr" v="679989" />
		<tag k="waterway" v="river" />
	</node>
	<node lat="63.43846944561027" lon="9.00294443857064" id="-90243">
		<tag k="name" v="Ålførvatnet" />
		<tag k="natural" v="water" />
		<tag k="ssr:stedsnr" v="680447" />
	</node>
	<node lat="63.348947221323314" lon="9.073288895568583" id="-90245">
		<tag k="name" v="Hundholtjønna" />
		<tag k="natural" v="water" />
		<tag k="ssr:stedsnr" v="680598" />
	</node>
	<node lat="63.0444694458416" lon="8.285550004078395" id="-90253">
		<tag k="name" v="Gammeltjørna" />
		<tag k="natural" v="water" />
		<tag k="ssr:stedsnr" v="680852" />
	</node>
	<node lat="63.25356997010803" lon="9.04013924489863" id="-90254">
		<tag k="name" v="Rovatnet" />
		<tag k="natural" v="water" />
		<tag k="ssr:stedsnr" v="680900" />
		<tag k="water" v="lake" />
	</node>
	<node lat="63.08239166460406" lon="8.702291675302126" id="-90255">
		<tag k="name" v="Svarthammarvatnet" />
		<tag k="natural" v="water" />
		<tag k="ssr:stedsnr" v="680922" />
	</node>
	<node lat="63.071474998778896" lon="8.612455553059917" id="-90257">
		<tag k="name" v="Tverrlitjørna" />
		<tag k="natural" v="water" />
		<tag k="ssr:stedsnr" v="680957" />
	</node>
	<node lat="63.381238887757426" lon="8.961527773100178" id="-90261">
		<tag k="name" v="Svanemsvatnet" />
		<tag k="natural" v="water" />
		<tag k="ssr:stedsnr" v="497617" />
		<tag k="water" v="lake" />
	</node>
	<node lat="63.37384722241537" lon="9.066133327975075" id="-90263">
		<tag k="name" v="Smogslitjønna" />
		<tag k="natural" v="water" />
		<tag k="ssr:stedsnr" v="497711" />
	</node>
	<node lat="63.24199721782023" lon="8.937847218640423" id="-90266">
		<tag k="name" v="Svorttjønna" />
		<tag k="natural" v="water" />
		<tag k="ssr:stedsnr" v="497754" />
	</node>
	<node lat="63.28004999820879" lon="9.284749996984814" id="-90277">
		<tag k="name" v="Fisktjønna" />
		<tag k="natural" v="water" />
		<tag k="ssr:stedsnr" v="681218" />
	</node>
	<node lat="63.20054166949535" lon="9.137044449171254" id="-90280">
		<tag k="name" v="Kattatjønna" />
		<tag k="natural" v="water" />
		<tag k="ssr:stedsnr" v="272301" />
	</node>
	<node lat="63.182308335666065" lon="8.826041659528249" id="-90287">
		<tag k="name" v="Kvernhusbekken" />
		<tag k="ssr:stedsnr" v="272843" />
		<tag k="waterway" v="stream" />
	</node>
	<node lat="63.14376666496505" lon="8.865650004329094" id="-90302">
		<tag k="name" v="Staursetfossen" />
		<tag k="natural" v="waterfall" />
		<tag k="ssr:stedsnr" v="272435" />
	</node>
	<node lat="63.237420383083624" lon="9.07355466750173" id="-90311">
		<tag k="name" v="Lielva" />
		<tag k="ssr:stedsnr" v="514202" />
		<tag k="waterway" v="river" />
	</node>
	<node lat="63.26791111377526" lon="9.063252770953676" id="-90313">
		<tag k="name" v="Roøyelva" />
		<tag k="ssr:stedsnr" v="514115" />
		<tag k="waterway" v="river" />
	</node>
	<node lat="63.23202222672517" lon="9.109247216732879" id="-90316">
		<tag k="name" v="Seterbekken" />
		<tag k="ssr:stedsnr" v="514307" />
		<tag k="waterway" v="stream" />
	</node>
	<node lat="63.36351389009702" lon="8.936366668237207" id="-90333">
		<tag k="name" v="Jonsmyrneset" />
		<tag k="natural" v="cape" />
		<tag k="ssr:stedsnr" v="515624" />
	</node>
	<node lat="63.17737222221235" lon="8.988527775032557" id="-90346">
		<tag k="name" v="Gammel-seterbekken" />
		<tag k="ssr:stedsnr" v="515810" />
		<tag k="waterway" v="stream" />
	</node>
	<node lat="63.32932222253289" lon="9.314916669508957" id="-90354">
		<tag k="name" v="Vardelva" />
		<tag k="ssr:stedsnr" v="519206" />
		<tag k="waterway" v="river" />
	</node>
	<node lat="63.319322221435456" lon="9.232722220030876" id="-90355">
		<tag k="name" v="Hundtjønna" />
		<tag k="natural" v="water" />
		<tag k="ssr:stedsnr" v="519212" />
	</node>
	<node lat="63.1351694415397" lon="8.306475000528957" id="-90357">
		<tag k="name" v="Bekkekroken" />
		<tag k="natural" v="water" />
		<tag k="ssr:stedsnr" v="529959" />
		<tag k="water" v="lake" />
	</node>
	<node lat="63.12125555308302" lon="8.196630546679556" id="-90365">
		<tag k="name" v="Kallbergselva" />
		<tag k="ssr:stedsnr" v="532423" />
		<tag k="waterway" v="river" />
	</node>
	<node lat="63.10955555316954" lon="8.720219450673499" id="-90371">
		<tag k="name" v="Einarbekken" />
		<tag k="ssr:stedsnr" v="533106" />
		<tag k="waterway" v="stream" />
	</node>
	<node lat="63.08535000023997" lon="8.655836102582516" id="-90372">
		<tag k="name" v="Sagdalsbekken" />
		<tag k="ssr:stedsnr" v="533117" />
		<tag k="waterway" v="stream" />
	</node>
	<node lat="63.09037777466817" lon="8.58859723177999" id="-90377">
		<tag k="name" v="Storsteinskogbekken" />
		<tag k="ssr:stedsnr" v="533420" />
		<tag k="waterway" v="stream" />
	</node>
	<node lat="63.08006111073121" lon="8.587852781072426" id="-90378">
		<tag k="name" v="Langvasselva" />
		<tag k="ssr:stedsnr" v="533477" />
		<tag k="waterway" v="river" />
	</node>
	<node lat="63.07808055397922" lon="8.586669450420885" id="-90379">
		<tag k="name" v="Fossan" />
		<tag k="natural" v="waterfall" />
		<tag k="ssr:stedsnr" v="533478" />
	</node>
	<node lat="63.151955554584006" lon="8.570091667693998" id="-90384">
		<tag k="name" v="Øygardsbekken" />
		<tag k="ssr:stedsnr" v="533532" />
		<tag k="waterway" v="stream" />
	</node>
	<node lat="63.092869445663" lon="8.432072228245826" id="-90386">
		<tag k="name" v="Nedre Snerlitjønna" />
		<tag k="natural" v="water" />
		<tag k="ssr:stedsnr" v="533702" />
	</node>
	<node lat="63.187461114113404" lon="9.073258324282758" id="-90397">
		<tag k="name" v="Gråfjelltjønna" />
		<tag k="natural" v="water" />
		<tag k="ssr:stedsnr" v="557798" />
	</node>
	<node lat="63.17269722287105" lon="8.675319448493482" id="-90398">
		<tag k="name" v="Tverråa" />
		<tag k="ssr:stedsnr" v="558107" />
		<tag k="waterway" v="stream" />
	</node>
	<node lat="63.25527221962311" lon="9.296555561794973" id="-90399">
		<tag k="name" v="Grøndalsvatna" />
		<tag k="natural" v="water" />
		<tag k="ssr:stedsnr" v="558009" />
	</node>
	<node lat="63.23669444634349" lon="8.861647214007597" id="-90407">
		<tag k="name" v="Raudbekken" />
		<tag k="ssr:stedsnr" v="558807" />
		<tag k="waterway" v="stream" />
	</node>
	<node lat="63.04291944189904" lon="8.271649991088278" id="-90408">
		<tag k="name" v="Innreitselva" />
		<tag k="ssr:stedsnr" v="558852" />
		<tag k="waterway" v="stream" />
	</node>
	<node lat="63.080927776060186" lon="8.429558332466918" id="-90415">
		<tag k="name" v="Bekkerelva" />
		<tag k="ssr:stedsnr" v="558906" />
		<tag k="waterway" v="river" />
	</node>
	<node lat="63.086624999888535" lon="8.466138894071221" id="-90416">
		<tag k="name" v="Klumptjørna" />
		<tag k="natural" v="water" />
		<tag k="ssr:stedsnr" v="558908" />
	</node>
	<node lat="63.069352775819524" lon="8.591386116430396" id="-90418">
		<tag k="name" v="Langvatnet" />
		<tag k="natural" v="water" />
		<tag k="ssr:stedsnr" v="558942" />
		<tag k="water" v="lake" />
	</node>
	<node lat="63.29710555677782" lon="9.321138883409718" id="-90420">
		<tag k="name" v="Skaftskåla" />
		<tag k="natural" v="water" />
		<tag k="ssr:stedsnr" v="559190" />
	</node>
	<node lat="63.25013611544695" lon="8.920583324133277" id="-90423">
		<tag k="name" v="Ålmustjønnin" />
		<tag k="natural" v="water" />
		<tag k="ssr:stedsnr" v="559900" />
	</node>
	<node lat="63.22088333096995" lon="9.025861109227922" id="-90428">
		<tag k="name" v="Dammen" />
		<tag k="natural" v="water" />
		<tag k="ssr:stedsnr" v="572903" />
	</node>
	<node lat="63.23122222502442" lon="9.334336108079823" id="-90438">
		<tag k="name" v="Kvernabekken" />
		<tag k="ssr:stedsnr" v="575211" />
		<tag k="waterway" v="stream" />
	</node>
	<node lat="63.296297222638096" lon="9.165530545798708" id="-90440">
		<tag k="name" v="Skardtjønna" />
		<tag k="natural" v="water" />
		<tag k="ssr:stedsnr" v="575001" />
	</node>
	<node lat="63.27224721862048" lon="8.967061115629804" id="-90442">
		<tag k="name" v="Klokkarbekken" />
		<tag k="ssr:stedsnr" v="575115" />
		<tag k="waterway" v="stream" />
	</node>
	<node lat="63.205438884716" lon="9.034416667136965" id="-90443">
		<tag k="name" v="Holbekken" />
		<tag k="ssr:stedsnr" v="575302" />
		<tag k="waterway" v="stream" />
	</node>
	<node lat="63.31874444407398" lon="9.232341662547066" id="-90445">
		<tag k="name" v="Hundtjønna" />
		<tag k="natural" v="water" />
		<tag k="ssr:stedsnr" v="575413" />
	</node>
	<node lat="63.16519722579267" lon="8.851686114770734" id="-90461">
		<tag k="name" v="Hyllbekken" />
		<tag k="ssr:stedsnr" v="575749" />
		<tag k="waterway" v="stream" />
	</node>
	<node lat="63.170388886892965" lon="8.852741675017853" id="-90465">
		<tag k="name" v="Heimseter-bekken" />
		<tag k="ssr:stedsnr" v="575903" />
		<tag k="waterway" v="stream" />
	</node>
	<node lat="63.2049472266065" lon="9.01704166977601" id="-90469">
		<tag k="name" v="Mjøkstadbekken" />
		<tag k="ssr:stedsnr" v="575913" />
		<tag k="waterway" v="stream" />
	</node>
	<node lat="63.30236666587558" lon="9.052877773333442" id="-90472">
		<tag k="name" v="Klosterbekken" />
		<tag k="ssr:stedsnr" v="575949" />
		<tag k="waterway" v="stream" />
	</node>
	<node lat="63.15236666293796" lon="8.949483325266433" id="-90475">
		<tag k="name" v="Skittenhols-elva" />
		<tag k="ssr:stedsnr" v="575954" />
		<tag k="waterway" v="stream" />
	</node>
	<node lat="63.33116111379045" lon="8.968183338587552" id="-90480">
		<tag k="name" v="Kvernhusbekken" />
		<tag k="ssr:stedsnr" v="575808" />
		<tag k="waterway" v="stream" />
	</node>
	<node lat="63.339938886040365" lon="8.9894999985335" id="-90481">
		<tag k="name" v="Skarfossbekken" />
		<tag k="ssr:stedsnr" v="575812" />
		<tag k="waterway" v="stream" />
	</node>
	<node lat="63.276922220624506" lon="8.874433341292239" id="-90494">
		<tag k="name" v="Rundvatnet" />
		<tag k="natural" v="water" />
		<tag k="ssr:stedsnr" v="694747" />
	</node>
	<node lat="63.22850832938584" lon="9.235580553030607" id="-90509">
		<tag k="name" v="Dumpbekken" />
		<tag k="ssr:stedsnr" v="696246" />
		<tag k="waterway" v="stream" />
	</node>
	<node lat="63.224591665755156" lon="9.238211109387903" id="-90510">
		<tag k="name" v="Stordalabekken" />
		<tag k="ssr:stedsnr" v="696248" />
		<tag k="waterway" v="stream" />
	</node>
	<node lat="63.21684999900686" lon="9.359274998466011" id="-90516">
		<tag k="name" v="Kvithylla" />
		<tag k="place" v="islet" />
		<tag k="ssr:stedsnr" v="587711" />
	</node>
	<node lat="63.25320555373855" lon="9.005086118683343" id="-90529">
		<tag k="name" v="Bjørnalibekken" />
		<tag k="ssr:stedsnr" v="697171" />
		<tag k="waterway" v="stream" />
	</node>
	<node lat="63.27576111073907" lon="8.93438889450979" id="-90532">
		<tag k="name" v="Rognlibekken" />
		<tag k="ssr:stedsnr" v="697133" />
		<tag k="waterway" v="stream" />
	</node>
	<node lat="63.27132500156769" lon="8.922816672770317" id="-90533">
		<tag k="name" v="Kudalstjønna" />
		<tag k="natural" v="water" />
		<tag k="ssr:stedsnr" v="697135" />
	</node>
	<node lat="63.204044446338635" lon="9.303919439498351" id="-90542">
		<tag k="name" v="Flakalitjønna" />
		<tag k="natural" v="water" />
		<tag k="ssr:stedsnr" v="697282" />
	</node>
	<node lat="63.19903055648971" lon="9.296555551073697" id="-90544">
		<tag k="name" v="Litlhaugtjønna" />
		<tag k="natural" v="water" />
		<tag k="ssr:stedsnr" v="697287" />
	</node>
	<node lat="63.20064722130375" lon="9.169627770335811" id="-90550">
		<tag k="name" v="Borstadbekken" />
		<tag k="ssr:stedsnr" v="697331" />
		<tag k="waterway" v="stream" />
	</node>
	<node lat="63.12794166354849" lon="8.519397225489149" id="-90552">
		<tag k="name" v="Hestneselva" />
		<tag k="ssr:stedsnr" v="592656" />
		<tag k="waterway" v="stream" />
	</node>
	<node lat="63.14291666387529" lon="8.25268888437207" id="-90558">
		<tag k="name" v="Storvikbekken" />
		<tag k="ssr:stedsnr" v="593266" />
		<tag k="waterway" v="stream" />
	</node>
	<node lat="63.23933889217395" lon="9.0443527796972" id="-90560">
		<tag k="name" v="Eidsneset" />
		<tag k="natural" v="cape" />
		<tag k="ssr:stedsnr" v="697502" />
	</node>
	<node lat="63.443341670711085" lon="9.044566664916035" id="-90567">
		<tag k="name" v="Tverrbekken" />
		<tag k="ssr:stedsnr" v="697577" />
		<tag k="waterway" v="stream" />
	</node>
	<node lat="63.171891667233744" lon="8.930424991786447" id="-90570">
		<tag k="name" v="Litlseterbekken" />
		<tag k="ssr:stedsnr" v="697833" />
		<tag k="waterway" v="stream" />
	</node>
	<node lat="63.16323889070625" lon="8.740380556815943" id="-90574">
		<tag k="name" v="Instibekken" />
		<tag k="ssr:stedsnr" v="593622" />
		<tag k="waterway" v="stream" />
	</node>
	<node lat="63.39774722053528" lon="9.020913885099006" id="-90584">
		<tag k="name" v="Kvernhusdalsbekken" />
		<tag k="ssr:stedsnr" v="697635" />
		<tag k="waterway" v="stream" />
	</node>
	<node lat="63.17487222420039" lon="8.730552776304744" id="-90589">
		<tag k="name" v="Skvallerråa" />
		<tag k="ssr:stedsnr" v="593971" />
		<tag k="waterway" v="stream" />
	</node>
	<node lat="63.36760000141582" lon="9.060916662802956" id="-90593">
		<tag k="name" v="Røylibekken" />
		<tag k="ssr:stedsnr" v="697730" />
		<tag k="waterway" v="stream" />
	</node>
	<node lat="63.16353889339862" lon="8.650897225862195" id="-90594">
		<tag k="name" v="Øykvassbekken" />
		<tag k="ssr:stedsnr" v="594212" />
		<tag k="waterway" v="stream" />
	</node>
	<node lat="63.07906111511296" lon="8.346583341476054" id="-90595">
		<tag k="name" v="Asøya" />
		<tag k="natural" v="cape" />
		<tag k="ssr:stedsnr" v="594255" />
	</node>
	<node lat="63.41315555161044" lon="9.087222219435498" id="-90601">
		<tag k="name" v="Glennbekken" />
		<tag k="ssr:stedsnr" v="697654" />
		<tag k="waterway" v="stream" />
	</node>
	<node lat="63.232180551604166" lon="9.034244443670302" id="-90608">
		<tag k="name" v="Vollbekken" />
		<tag k="ssr:stedsnr" v="697759" />
		<tag k="waterway" v="stream" />
	</node>
	<node lat="63.18105555459535" lon="8.693969451026554" id="-90612">
		<tag k="name" v="Saltrøbekken" />
		<tag k="ssr:stedsnr" v="594861" />
		<tag k="waterway" v="stream" />
	</node>
	<node lat="63.18985555423612" lon="8.977244446498075" id="-90615">
		<tag k="name" v="Skardbekken" />
		<tag k="ssr:stedsnr" v="697801" />
		<tag k="waterway" v="stream" />
	</node>
	<node lat="63.191566666680785" lon="8.860111107749004" id="-90617">
		<tag k="name" v="Staursetelva" />
		<tag k="ssr:stedsnr" v="697861" />
		<tag k="waterway" v="river" />
	</node>
	<node lat="63.32454722096093" lon="9.067719436553919" id="-90618">
		<tag k="name" v="Kvernhuslifossen" />
		<tag k="natural" v="waterfall" />
		<tag k="ssr:stedsnr" v="697924" />
	</node>
	<node lat="63.211119448647246" lon="8.983202778181667" id="-90621">
		<tag k="name" v="Bakkabekken" />
		<tag k="ssr:stedsnr" v="697928" />
		<tag k="waterway" v="stream" />
	</node>
	<node lat="63.379144442235024" lon="8.840988882104456" id="-90624">
		<tag k="name" v="Seterneset" />
		<tag k="natural" v="cape" />
		<tag k="ssr:stedsnr" v="698000" />
	</node>
	<node lat="63.330608336577775" lon="9.335252781698104" id="-90632">
		<tag k="name" v="Blåheidalstjørna" />
		<tag k="natural" v="water" />
		<tag k="ssr:stedsnr" v="700775" />
	</node>
	<node lat="63.35154166249584" lon="9.326797221683936" id="-90635">
		<tag k="name" v="Gråtarbekken" />
		<tag k="ssr:stedsnr" v="700992" />
		<tag k="waterway" v="stream" />
	</node>
	<node lat="63.36861666285206" lon="9.4285138956037" id="-90636">
		<tag k="name" v="Jevnungbekken" />
		<tag k="ssr:stedsnr" v="701294" />
		<tag k="waterway" v="stream" />
	</node>
	<node lat="63.37921944746723" lon="8.910869441534885" id="-90644">
		<tag k="name" v="Steinholtjønna" />
		<tag k="natural" v="water" />
		<tag k="ssr:stedsnr" v="618628" />
	</node>
	<node lat="63.09407221830926" lon="8.640136118211444" id="-90647">
		<tag k="name" v="Tverråa" />
		<tag k="ssr:stedsnr" v="618871" />
		<tag k="waterway" v="stream" />
	</node>
	<node lat="63.09574722206065" lon="8.443252778864313" id="-90648">
		<tag k="name" v="Snerlitjørnin" />
		<tag k="natural" v="water" />
		<tag k="ssr:stedsnr" v="618876" />
	</node>
	<node lat="63.28643333510601" lon="8.924391660867004" id="-90660">
		<tag k="name" v="Blomstadvatnet" />
		<tag k="natural" v="water" />
		<tag k="ssr:stedsnr" v="619603" />
	</node>
	<node lat="63.35458055768474" lon="9.04880000474067" id="-90666">
		<tag k="name" v="Dalabekken" />
		<tag k="ssr:stedsnr" v="619713" />
		<tag k="waterway" v="stream" />
	</node>
	<node lat="63.28279722586697" lon="9.081858328619981" id="-90673">
		<tag k="name" v="Vassvollbekken" />
		<tag k="ssr:stedsnr" v="635029" />
		<tag k="waterway" v="stream" />
	</node>
	<node lat="63.254561106798555" lon="8.934966672348125" id="-90677">
		<tag k="name" v="Fremmer Ålmustjønna" />
		<tag k="natural" v="water" />
		<tag k="ssr:stedsnr" v="635130" />
	</node>
	<node lat="63.21721111464017" lon="9.257336103284608" id="-90679">
		<tag k="name" v="Vika" />
		<tag k="natural" v="bay" />
		<tag k="ssr:stedsnr" v="635231" />
	</node>
	<node lat="63.21675277895159" lon="9.15082776806497" id="-90680">
		<tag k="alt_name" v="Springarbekken" />
		<tag k="name" v="Springaren" />
		<tag k="ssr:stedsnr" v="635282" />
		<tag k="waterway" v="stream" />
	</node>
	<node lat="63.24551944884896" lon="9.103427781149923" id="-90686">
		<tag k="name" v="Kattatjønna" />
		<tag k="natural" v="water" />
		<tag k="ssr:stedsnr" v="635187" />
	</node>
	<node lat="63.15280833148105" lon="9.074075008644664" id="-90691">
		<tag k="name" v="Husbekken" />
		<tag k="ssr:stedsnr" v="635386" />
		<tag k="waterway" v="stream" />
	</node>
	<node lat="63.36067221972595" lon="8.949508341155239" id="-90700">
		<tag k="name" v="Olderosen" />
		<tag k="natural" v="bay" />
		<tag k="ssr:stedsnr" v="635828" />
	</node>
	<node lat="63.30773888983618" lon="9.137830548418906" id="-90713">
		<tag k="name" v="Kvernhusfossen" />
		<tag k="natural" v="waterfall" />
		<tag k="ssr:stedsnr" v="635996" />
	</node>
	<node lat="63.25013611544695" lon="8.920583324133277" id="-90715">
		<tag k="name" v="Ytter Ålmustjønna" />
		<tag k="natural" v="water" />
		<tag k="ssr:stedsnr" v="636506" />
	</node>
	<node lat="63.180169447496816" lon="8.969780550788863" id="-90719">
		<tag k="name" v="Spjøto" />
		<tag k="ssr:stedsnr" v="636805" />
		<tag k="waterway" v="river" />
	</node>
	<node lat="63.17220277586731" lon="8.95840277014938" id="-90720">
		<tag k="name" v="Skytnes-bekken" />
		<tag k="ssr:stedsnr" v="636808" />
		<tag k="waterway" v="stream" />
	</node>
	<node lat="63.23267778041252" lon="9.347233339142456" id="-90736">
		<tag k="name" v="Kvernhusbekken" />
		<tag k="ssr:stedsnr" v="648689" />
		<tag k="waterway" v="stream" />
	</node>
	<node lat="63.09353333477223" lon="8.6555555556192" id="-90748">
		<tag k="name" v="Storneset" />
		<tag k="natural" v="cape" />
		<tag k="ssr:stedsnr" v="654136" />
	</node>
	<node lat="63.09744999743864" lon="8.692975000263347" id="-90749">
		<tag k="name" v="Kariholmen" />
		<tag k="place" v="islet" />
		<tag k="ssr:stedsnr" v="654143" />
	</node>
	<node lat="63.105116662948994" lon="8.673308338022897" id="-90751">
		<tag k="name" v="Oselva" />
		<tag k="ssr:stedsnr" v="654012" />
		<tag k="waterway" v="stream" />
	</node>
	<node lat="63.15360833344922" lon="8.613630557622376" id="-90760">
		<tag k="name" v="Seterbekken" />
		<tag k="ssr:stedsnr" v="654697" />
		<tag k="waterway" v="stream" />
	</node>
	<node lat="63.43702221933503" lon="9.044927773456903" id="-90767">
		<tag k="name" v="Litlvatnet" />
		<tag k="natural" v="water" />
		<tag k="ssr:stedsnr" v="272533" />
		<tag k="water" v="lake" />
	</node>
	<node lat="63.105641669123195" lon="8.413313886445497" id="-90774">
		<tag k="name" v="Svarthammartjørna" />
		<tag k="natural" v="water" />
		<tag k="ssr:stedsnr" v="679869" />
	</node>
	<node lat="63.08934444834793" lon="8.48761388027404" id="-90775">
		<tag k="name" v="Ljøsvatnet" />
		<tag k="natural" v="water" />
		<tag k="ssr:stedsnr" v="679876" />
	</node>
	<node lat="63.29125555957143" lon="9.201502782126362" id="-90782">
		<tag k="fixme" v="multiple name tags, choose one and add the other to alt_name" />
		<tag k="name" v="Litlvatnet;Inner Setersetervatnet" />
		<tag k="natural" v="water" />
		<tag k="ssr:stedsnr" v="680624" />
	</node>
	<node lat="63.31014999752767" lon="9.211630554395999" id="-90784">
		<tag k="name" v="Hollaelva" />
		<tag k="ssr:stedsnr" v="680662" />
		<tag k="waterway" v="river" />
	</node>
	<node lat="63.30499166807491" lon="9.027008331338886" id="-90786">
		<tag k="fixme" v="multiple name tags, choose one and add the other to alt_name" />
		<tag k="name" v="Kjølbekken;Aunbekken" />
		<tag k="ssr:stedsnr" v="680674" />
		<tag k="waterway" v="stream" />
	</node>
	<node lat="63.24187499839254" lon="9.10343611170381" id="-90789">
		<tag k="name" v="Seterelva" />
		<tag k="ssr:stedsnr" v="680810" />
		<tag k="waterway" v="stream" />
	</node>
	<node lat="63.20991388798193" lon="9.090416670620366" id="-90790">
		<tag k="name" v="Søo" />
		<tag k="ssr:stedsnr" v="680817" />
		<tag k="waterway" v="river" />
	</node>
	<node lat="63.40944166814728" lon="9.07516389710234" id="-90793">
		<tag k="name" v="Gaupdalsbekken" />
		<tag k="ssr:stedsnr" v="680722" />
		<tag k="waterway" v="stream" />
	</node>
	<node lat="63.20687221901029" lon="8.923072229509877" id="-90803">
		<tag k="name" v="Migaren" />
		<tag k="ssr:stedsnr" v="694921" />
		<tag k="waterway" v="stream" />
	</node>
	<node lat="63.21013055356083" lon="9.055705558523833" id="-90809">
		<tag k="name" v="Steinøra" />
		<tag k="natural" v="beach" />
		<tag k="ssr:stedsnr" v="696370" />
	</node>
	<node lat="63.23573602329327" lon="9.041422072658145" id="-90814">
		<tag k="name" v="Djuphølen" />
		<tag k="place" v="locality" />
		<tag k="ssr:stedsnr" v="697208" />
	</node>
	<node lat="63.41434166326636" lon="9.033172226460053" id="-90818">
		<tag k="name" v="Belsvikbekken" />
		<tag k="ssr:stedsnr" v="697665" />
		<tag k="waterway" v="stream" />
	</node>
	<node lat="63.16320555766906" lon="8.86560554753001" id="-90826">
		<tag k="name" v="Knebblibekken" />
		<tag k="ssr:stedsnr" v="697775" />
		<tag k="waterway" v="stream" />
	</node>
	<node lat="63.17612222427405" lon="8.967733329690768" id="-90828">
		<tag k="name" v="Kudals-bekken" />
		<tag k="ssr:stedsnr" v="697803" />
		<tag k="waterway" v="stream" />
	</node>
	<node lat="63.07001110845784" lon="8.507527770996155" id="-90837">
		<tag k="name" v="Hjelmåa" />
		<tag k="natural" v="water" />
		<tag k="ssr:stedsnr" v="895925" />
	</node>
	<node lat="63.080680554646115" lon="8.526349996711751" id="-90842">
		<tag k="name" v="Fagerøya" />
		<tag k="place" v="island" />
		<tag k="ssr:stedsnr" v="896314" />
	</node>
	<node lat="63.134119442986325" lon="8.475549996268983" id="-90859">
		<tag k="name" v="Otneselva" />
		<tag k="ssr:stedsnr" v="897528" />
		<tag k="waterway" v="stream" />
	</node>
	<node lat="63.16223055794443" lon="8.710738894521402" id="-90861">
		<tag k="name" v="Jamdalstjønna" />
		<tag k="natural" v="water" />
		<tag k="ssr:stedsnr" v="897634" />
	</node>
	<node lat="63.16777222125409" lon="8.70861665733872" id="-90862">
		<tag k="name" v="Tverråa" />
		<tag k="ssr:stedsnr" v="897640" />
		<tag k="waterway" v="stream" />
	</node>
	<node lat="63.169088890589606" lon="8.712958330863257" id="-90863">
		<tag k="name" v="Kronskarbekken" />
		<tag k="ssr:stedsnr" v="897642" />
		<tag k="waterway" v="stream" />
	</node>
	<node lat="63.09286667109014" lon="8.475288883401417" id="-90887">
		<tag k="name" v="Dursmunnvatnet" />
		<tag k="natural" v="water" />
		<tag k="ssr:stedsnr" v="898638" />
	</node>
	<node lat="63.09421944129169" lon="8.70983055037179" id="-90894">
		<tag k="name" v="Rånnaelva" />
		<tag k="ssr:stedsnr" v="715072" />
		<tag k="waterway" v="river" />
	</node>
	<node lat="63.11096666996731" lon="8.711380562967284" id="-90898">
		<tag k="name" v="Grønlibekken" />
		<tag k="ssr:stedsnr" v="715103" />
		<tag k="waterway" v="stream" />
	</node>
	<node lat="63.11844722135429" lon="8.323683337395087" id="-90899">
		<tag k="name" v="Nertrøbekken" />
		<tag k="ssr:stedsnr" v="715114" />
		<tag k="waterway" v="stream" />
	</node>
	<node lat="63.091799997303816" lon="8.651402779076443" id="-90900">
		<tag k="name" v="Kutrøholmen" />
		<tag k="place" v="islet" />
		<tag k="ssr:stedsnr" v="715124" />
	</node>
	<node lat="63.078733329195806" lon="8.219113896129796" id="-90906">
		<tag k="name" v="Skiftesbekken" />
		<tag k="ssr:stedsnr" v="715677" />
		<tag k="waterway" v="stream" />
	</node>
	<node lat="63.09576388823747" lon="8.443302771961562" id="-90907">
		<tag k="name" v="Øvre Snerlitjønna" />
		<tag k="natural" v="water" />
		<tag k="ssr:stedsnr" v="715679" />
	</node>
	<node lat="63.14988055652506" lon="8.812463888785262" id="-90911">
		<tag k="name" v="Tverrbekken" />
		<tag k="ssr:stedsnr" v="715836" />
		<tag k="waterway" v="river" />
	</node>
	<node lat="63.3933694467833" lon="8.794422219882916" id="-90922">
		<tag k="name" v="Suner Langvågneset" />
		<tag k="natural" v="cape" />
		<tag k="ssr:stedsnr" v="900765" />
	</node>
	<node lat="63.41833610728812" lon="9.05531667240276" id="-90924">
		<tag k="name" v="Heimsvatnet" />
		<tag k="natural" v="water" />
		<tag k="ssr:stedsnr" v="740399" />
		<tag k="water" v="lake" />
	</node>
	<node lat="63.34586111084741" lon="9.084630561236986" id="-90926">
		<tag k="name" v="Kynnsvikvatnet" />
		<tag k="natural" v="water" />
		<tag k="ssr:stedsnr" v="740511" />
	</node>
	<node lat="63.3154277760735" lon="8.93208054634576" id="-90929">
		<tag k="name" v="Hestlitjønna" />
		<tag k="natural" v="water" />
		<tag k="ssr:stedsnr" v="740497" />
	</node>
	<node lat="63.36057500073728" lon="8.950861107241085" id="-90935">
		<tag k="name" v="Vassvika" />
		<tag k="natural" v="bay" />
		<tag k="ssr:stedsnr" v="740739" />
	</node>
	<node lat="63.30383611036174" lon="9.264897212793274" id="-90946">
		<tag k="alt_name" v="Knubbtjørna;Dyrbeinlivatn, øvre" />
		<tag k="fixme" v="multiple name tags, choose one and add the other to alt_name" />
		<tag k="name" v="Øvre Dyrbeinlivatn;Knubbtjønna" />
		<tag k="natural" v="water" />
		<tag k="ssr:stedsnr" v="741234" />
	</node>
	<node lat="63.27781666649013" lon="9.228238894513202" id="-90947">
		<tag k="name" v="Storfjellvatnet" />
		<tag k="natural" v="water" />
		<tag k="ssr:stedsnr" v="741289" />
	</node>
	<node lat="63.268601017534394" lon="9.11216400400648" id="-90953">
		<tag k="name" v="Ånnavatnet" />
		<tag k="natural" v="water" />
		<tag k="ssr:stedsnr" v="741937" />
		<tag k="water" v="lake" />
	</node>
	<node lat="63.21067778023185" lon="9.308586106777074" id="-90954">
		<tag k="name" v="Kvernatjønna" />
		<tag k="natural" v="water" />
		<tag k="ssr:stedsnr" v="748176" />
	</node>
	<node lat="63.263438886894676" lon="8.936002786609237" id="-90960">
		<tag k="name" v="Skogsjølifossen" />
		<tag k="natural" v="waterfall" />
		<tag k="ssr:stedsnr" v="757116" />
	</node>
	<node lat="63.26690277884836" lon="9.179452787042594" id="-90963">
		<tag k="name" v="Tverrfjellbekken" />
		<tag k="ssr:stedsnr" v="757054" />
		<tag k="waterway" v="stream" />
	</node>
	<node lat="63.21236388498276" lon="9.32370277014579" id="-90967">
		<tag k="name" v="Fiskbekken" />
		<tag k="ssr:stedsnr" v="757218" />
		<tag k="waterway" v="stream" />
	</node>
	<node lat="63.2173861098356" lon="9.225163886239176" id="-90968">
		<tag k="name" v="Stetbekken" />
		<tag k="ssr:stedsnr" v="757246" />
		<tag k="waterway" v="stream" />
	</node>
	<node lat="63.34333055111983" lon="8.996672218046363" id="-90981">
		<tag k="name" v="Skardsfossen" />
		<tag k="natural" v="waterfall" />
		<tag k="ssr:stedsnr" v="757861" />
	</node>
	<node lat="63.201550002139896" lon="8.986583331031762" id="-90987">
		<tag k="name" v="Sagholmen" />
		<tag k="place" v="islet" />
		<tag k="ssr:stedsnr" v="757921" />
	</node>
	<node lat="63.21019444821107" lon="9.151441669239922" id="-90994">
		<tag k="name" v="Neset" />
		<tag k="natural" v="cape" />
		<tag k="ssr:stedsnr" v="758356" />
	</node>
	<node lat="63.19722222161312" lon="9.151663887763457" id="-90995">
		<tag k="name" v="Svatjønna" />
		<tag k="natural" v="water" />
		<tag k="ssr:stedsnr" v="758360" />
	</node>
	<node lat="63.345372224514605" lon="9.265211112428679" id="-90997">
		<tag k="name" v="Litlbekken" />
		<tag k="ssr:stedsnr" v="761197" />
		<tag k="waterway" v="stream" />
	</node>
	<node lat="63.13159167073575" lon="8.428697215495598" id="-91026">
		<tag k="name" v="Torbugbekken" />
		<tag k="ssr:stedsnr" v="776554" />
		<tag k="waterway" v="stream" />
	</node>
	<node lat="63.141383333302066" lon="8.688952776478725" id="-91027">
		<tag k="name" v="Slettfjellbekken" />
		<tag k="ssr:stedsnr" v="776461" />
		<tag k="waterway" v="stream" />
	</node>
	<node lat="63.08260277964827" lon="8.220694437227335" id="-91029">
		<tag k="name" v="Akeleietjønna" />
		<tag k="natural" v="water" />
		<tag k="ssr:stedsnr" v="776658" />
	</node>
	<node lat="63.41442222641145" lon="8.819738883389643" id="-91039">
		<tag k="name" v="Lomtjønna" />
		<tag k="natural" v="water" />
		<tag k="ssr:stedsnr" v="801424" />
	</node>
	<node lat="63.32671666808355" lon="9.042563880728434" id="-91040">
		<tag k="name" v="Litlvatnet" />
		<tag k="natural" v="water" />
		<tag k="ssr:stedsnr" v="801489" />
	</node>
	<node lat="63.36686388867793" lon="9.043005560832597" id="-91041">
		<tag k="alt_name" v="Sollibekk" />
		<tag k="name" v="Sollibekken" />
		<tag k="ssr:stedsnr" v="801720" />
		<tag k="waterway" v="stream" />
	</node>
	<node lat="63.17550277792626" lon="8.923113887201902" id="-91042">
		<tag k="fixme" v="multiple name tags, choose one and add the other to alt_name" />
		<tag k="name" v="Grønsetsetervatnet;Oppsalvatnet" />
		<tag k="natural" v="water" />
		<tag k="ssr:stedsnr" v="801775" />
		<tag k="water" v="lake" />
	</node>
	<node lat="63.068547224612594" lon="8.564941657384368" id="-91044">
		<tag k="name" v="Pikholavatnet" />
		<tag k="natural" v="water" />
		<tag k="ssr:stedsnr" v="801922" />
	</node>
	<node lat="63.147291670486325" lon="8.607155550902387" id="-91060">
		<tag k="name" v="Stokkelva" />
		<tag k="ssr:stedsnr" v="802963" />
		<tag k="waterway" v="river" />
	</node>
	<node lat="63.144647219908634" lon="8.653163895720926" id="-91061">
		<tag k="name" v="Dennåvatnet" />
		<tag k="natural" v="water" />
		<tag k="ssr:stedsnr" v="802966" />
		<tag k="water" v="lake" />
	</node>
	<node lat="63.290769445782495" lon="9.21620277746236" id="-91067">
		<tag k="name" v="Grashaugtjønna" />
		<tag k="natural" v="water" />
		<tag k="ssr:stedsnr" v="818007" />
	</node>
	<node lat="63.24231944889295" lon="9.194961119340697" id="-91071">
		<tag k="name" v="Kringelbekken" />
		<tag k="ssr:stedsnr" v="818213" />
		<tag k="waterway" v="stream" />
	</node>
	<node lat="63.22586111299952" lon="9.299061113678578" id="-91074">
		<tag k="name" v="Kvernabekken" />
		<tag k="ssr:stedsnr" v="818238" />
		<tag k="waterway" v="stream" />
	</node>
	<node lat="63.24507777333025" lon="8.919891661821056" id="-91075">
		<tag k="name" v="Steinholmen" />
		<tag k="place" v="islet" />
		<tag k="ssr:stedsnr" v="818121" />
	</node>
	<node lat="63.24853333356179" lon="9.06231666397147" id="-91078">
		<tag k="name" v="Rønningsbekken" />
		<tag k="ssr:stedsnr" v="818175" />
		<tag k="waterway" v="stream" />
	</node>
	<node lat="63.320797225392084" lon="9.041933333956212" id="-91088">
		<tag k="name" v="Tollneset" />
		<tag k="natural" v="cape" />
		<tag k="ssr:stedsnr" v="819909" />
	</node>
	<node lat="63.29555833622349" lon="8.907036116593096" id="-91101">
		<tag k="name" v="Kløftbekken" />
		<tag k="ssr:stedsnr" v="922532" />
		<tag k="waterway" v="stream" />
	</node>
	<node lat="63.239336114945495" lon="9.231758343034766" id="-91103">
		<tag k="name" v="Karitjønna" />
		<tag k="natural" v="water" />
		<tag k="ssr:stedsnr" v="922554" />
	</node>
	<node lat="63.26166389193065" lon="9.1827111156385" id="-91118">
		<tag k="name" v="Tverrfjellvatnet" />
		<tag k="natural" v="water" />
		<tag k="ssr:stedsnr" v="923925" />
	</node>
	<node lat="63.05367222325559" lon="8.347394439001802" id="-91120">
		<tag k="name" v="Vassdalsvatna" />
		<tag k="natural" v="water" />
		<tag k="ssr:stedsnr" v="923946" />
	</node>
	<node lat="63.272238892083955" lon="8.958086104797397" id="-91122">
		<tag k="name" v="Lonin" />
		<tag k="place" v="locality" />
		<tag k="ssr:stedsnr" v="923950" />
	</node>
	<node lat="63.283725001079304" lon="9.395472221972444" id="-91123">
		<tag k="name" v="Nordre Jonstjønna" />
		<tag k="natural" v="water" />
		<tag k="ssr:stedsnr" v="923257" />
	</node>
	<node lat="63.27430000244067" lon="8.853652784139646" id="-91136">
		<tag k="name" v="Svartvatnet" />
		<tag k="natural" v="water" />
		<tag k="ssr:stedsnr" v="923952" />
	</node>
	<node lat="63.136600001909486" lon="8.714677774260691" id="-91141">
		<tag k="name" v="Vasshalsen" />
		<tag k="ssr:stedsnr" v="836708" />
		<tag k="waterway" v="stream" />
	</node>
	<node lat="63.13287222377897" lon="8.71231667588359" id="-91142">
		<tag k="name" v="Storvatnet" />
		<tag k="natural" v="water" />
		<tag k="ssr:stedsnr" v="836710" />
		<tag k="water" v="lake" />
	</node>
	<node lat="63.134647218372805" lon="8.732361120479348" id="-91143">
		<tag k="name" v="Blåfjellbekken" />
		<tag k="ssr:stedsnr" v="836714" />
		<tag k="waterway" v="stream" />
	</node>
	<node lat="63.137905551217266" lon="8.342969451666558" id="-91144">
		<tag k="name" v="Indre Mebekk" />
		<tag k="ssr:stedsnr" v="836906" />
		<tag k="waterway" v="stream" />
	</node>
	<node lat="63.087880551360065" lon="8.655544453558813" id="-91147">
		<tag k="name" v="Sagdalshaugen" />
		<tag k="ssr:stedsnr" v="837131" />
		<tag k="waterway" v="stream" />
	</node>
	<node lat="63.157275000392765" lon="8.651058330376268" id="-91150">
		<tag k="name" v="Lomtjønna" />
		<tag k="natural" v="water" />
		<tag k="ssr:stedsnr" v="837203" />
	</node>
	<node lat="63.142652773402816" lon="8.715677776377264" id="-91170">
		<tag k="name" v="Rodalselva" />
		<tag k="ssr:stedsnr" v="862076" />
		<tag k="waterway" v="river" />
	</node>
	<node lat="63.31867777622662" lon="9.219161120520873" id="-91171">
		<tag k="alt_name" v="Øver Sperillvatnet;Sperillvatnet øvre" />
		<tag k="name" v="Øvre Sperillvatnet" />
		<tag k="natural" v="water" />
		<tag k="old_name" v="Sperillen" />
		<tag k="ssr:stedsnr" v="862214" />
	</node>
	<node lat="63.27457500309157" lon="9.342113893064004" id="-91174">
		<tag k="name" v="Nybudalstjønna" />
		<tag k="natural" v="water" />
		<tag k="ssr:stedsnr" v="862252" />
	</node>
	<node lat="63.291883334169874" lon="8.875122222462178" id="-91178">
		<tag k="name" v="Fjellørelva" />
		<tag k="ssr:stedsnr" v="862553" />
		<tag k="waterway" v="stream" />
	</node>
	<node lat="63.1079083317141" lon="8.663194442302517" id="-91188">
		<tag k="name" v="Sandåa" />
		<tag k="ssr:stedsnr" v="862880" />
		<tag k="waterway" v="stream" />
	</node>
	<node lat="63.136036114618236" lon="8.681750008881783" id="-91191">
		<tag k="name" v="Skottjørna" />
		<tag k="natural" v="water" />
		<tag k="ssr:stedsnr" v="862961" />
	</node>
	<node lat="63.32343333264291" lon="9.338622220418825" id="-91195">
		<tag k="name" v="Langtjørna" />
		<tag k="natural" v="water" />
		<tag k="ssr:stedsnr" v="863190" />
	</node>
	<node lat="63.173474997747114" lon="9.054619438371628" id="-91219">
		<tag k="name" v="Storbotnbekken" />
		<tag k="ssr:stedsnr" v="879369" />
		<tag k="waterway" v="stream" />
	</node>
	<node lat="63.34740000141078" lon="9.101919439588832" id="-91236">
		<tag k="name" v="Kynnsvikelva" />
		<tag k="ssr:stedsnr" v="879764" />
		<tag k="waterway" v="stream" />
	</node>
	<node lat="63.18242777684784" lon="8.863716665303915" id="-91248">
		<tag k="name" v="Holbekken" />
		<tag k="ssr:stedsnr" v="879914" />
		<tag k="waterway" v="stream" />
	</node>
	<node lat="63.2527972250111" lon="8.895925006325118" id="-91257">
		<tag k="name" v="Melslættelva" />
		<tag k="ssr:stedsnr" v="891704" />
		<tag k="waterway" v="river" />
	</node>
	<node lat="63.14849166701468" lon="8.609266660778578" id="-91273">
		<tag k="name" v="Lomtjønna" />
		<tag k="natural" v="water" />
		<tag k="ssr:stedsnr" v="897804" />
	</node>
	<node lat="63.09763333167439" lon="8.590922227718357" id="-91279">
		<tag k="name" v="Langstibekken" />
		<tag k="ssr:stedsnr" v="898418" />
		<tag k="waterway" v="stream" />
	</node>
	<node lat="63.171116663174466" lon="8.99447778068195" id="-91297">
		<tag k="name" v="Storlivatnet" />
		<tag k="natural" v="water" />
		<tag k="ssr:stedsnr" v="922776" />
	</node>
	<node lat="63.12849722109129" lon="8.878819439214167" id="-91300">
		<tag k="name" v="Øvre Langvatnet" />
		<tag k="natural" v="water" />
		<tag k="ssr:stedsnr" v="922679" />
		<tag k="water" v="lake" />
	</node>
	<node lat="63.09138333118744" lon="8.658394452763956" id="-91301">
		<tag k="name" v="Reinslivatnet" />
		<tag k="natural" v="water" />
		<tag k="ssr:stedsnr" v="922873" />
		<tag k="water" v="lake" />
	</node>
	<node lat="63.26536111415162" lon="9.227544447596367" id="-91305">
		<tag k="name" v="Svarthammartjønna" />
		<tag k="natural" v="water" />
		<tag k="ssr:stedsnr" v="923008" />
	</node>
	<node lat="63.301213888124266" lon="8.941088883638306" id="-91314">
		<tag k="name" v="Skjerlivatnet" />
		<tag k="natural" v="water" />
		<tag k="ssr:stedsnr" v="923636" />
	</node>
	<node lat="63.08660555324968" lon="8.58993611909347" id="-91320">
		<tag k="name" v="Storelva" />
		<tag k="ssr:stedsnr" v="923914" />
		<tag k="waterway" v="stream" />
	</node>
	<node lat="63.2468277793743" lon="9.169636113600237" id="-91323">
		<tag k="name" v="Hagaelva" />
		<tag k="ssr:stedsnr" v="923876" />
		<tag k="waterway" v="stream" />
	</node>
	<node lat="63.23254444627366" lon="9.041788893536735" id="-91325">
		<tag k="name" v="Eidselva" />
		<tag k="ssr:stedsnr" v="937914" />
		<tag k="waterway" v="river" />
	</node>
	<node lat="63.24238055371747" lon="9.09116944796224" id="-91329">
		<tag k="name" v="Tverrelva" />
		<tag k="ssr:stedsnr" v="939223" />
		<tag k="waterway" v="river" />
	</node>
	<node lat="63.25797778069142" lon="8.922661114477632" id="-91330">
		<tag k="name" v="Joslættbekken" />
		<tag k="ssr:stedsnr" v="939133" />
		<tag k="waterway" v="stream" />
	</node>
	<node lat="63.16465833236069" lon="9.06803611863639" id="-91332">
		<tag k="name" v="Høylolibekken" />
		<tag k="ssr:stedsnr" v="939388" />
		<tag k="waterway" v="stream" />
	</node>
	<node lat="63.14463888584043" lon="8.31136666064128" id="-91367">
		<tag k="name" v="Kvennabekken" />
		<tag k="ssr:stedsnr" v="954944" />
		<tag k="waterway" v="stream" />
	</node>
	<node lat="63.07646944107213" lon="8.529022226554853" id="-91371">
		<tag k="name" v="Lomtjønna" />
		<tag k="natural" v="water" />
		<tag k="ssr:stedsnr" v="957297" />
	</node>
	<node lat="63.06668889326791" lon="8.304674991085422" id="-91372">
		<tag k="name" v="Stavråa" />
		<tag k="ssr:stedsnr" v="957187" />
		<tag k="waterway" v="river" />
	</node>
	<node lat="63.075336108516694" lon="8.401872217878525" id="-91373">
		<tag k="name" v="Litlneset" />
		<tag k="natural" v="cape" />
		<tag k="ssr:stedsnr" v="957808" />
	</node>
	<node lat="63.07748055446324" lon="8.400013880936731" id="-91374">
		<tag k="name" v="Storneset" />
		<tag k="natural" v="cape" />
		<tag k="ssr:stedsnr" v="957809" />
	</node>
	<node lat="63.07896111441138" lon="8.389763892969311" id="-91376">
		<tag k="name" v="Blekkabukta" />
		<tag k="natural" v="bay" />
		<tag k="ssr:stedsnr" v="957812" />
	</node>
	<node lat="63.09568333762299" lon="8.514363895939745" id="-91395">
		<tag k="name" v="Bjørknesbekken" />
		<tag k="ssr:stedsnr" v="958685" />
		<tag k="waterway" v="stream" />
	</node>
	<node lat="63.1556527773471" lon="8.731102772499527" id="-91396">
		<tag k="name" v="Dyrskartjønna" />
		<tag k="natural" v="water" />
		<tag k="ssr:stedsnr" v="958697" />
	</node>
	<node lat="63.08010555568175" lon="8.22791111379921" id="-91397">
		<tag k="name" v="Fossbekken" />
		<tag k="ssr:stedsnr" v="958699" />
		<tag k="waterway" v="stream" />
	</node>
	<node lat="63.10943055180896" lon="8.704113893944232" id="-91422">
		<tag k="name" v="Botnavatnet" />
		<tag k="natural" v="water" />
		<tag k="ssr:stedsnr" v="12878" />
		<tag k="water" v="lake" />
	</node>
	<node lat="63.09890833685756" lon="8.64820277212327" id="-91423">
		<tag k="name" v="Seterbekken" />
		<tag k="ssr:stedsnr" v="12887" />
		<tag k="waterway" v="stream" />
	</node>
	<node lat="63.08470833510268" lon="8.35481667575344" id="-91426">
		<tag k="name" v="Betnelva" />
		<tag k="ssr:stedsnr" v="12896" />
		<tag k="waterway" v="stream" />
	</node>
	<node lat="63.38977465619587" lon="8.813449187265777" id="-91435">
		<tag k="name" v="Rennsjøen" />
		<tag k="natural" v="water" />
		<tag k="ssr:stedsnr" v="12636" />
		<tag k="water" v="lake" />
	</node>
	<node lat="63.409199997538735" lon="8.82765833418839" id="-91437">
		<tag k="name" v="Høgbruntjønna" />
		<tag k="natural" v="water" />
		<tag k="ssr:stedsnr" v="12659" />
	</node>
	<node lat="63.33919444595853" lon="8.907255562653127" id="-91438">
		<tag k="name" v="Oldervatnet" />
		<tag k="natural" v="water" />
		<tag k="ssr:stedsnr" v="12544" />
		<tag k="water" v="lake" />
	</node>
	<node lat="63.326336107426386" lon="8.895838886108338" id="-91441">
		<tag k="name" v="Botnvatnet" />
		<tag k="natural" v="water" />
		<tag k="ssr:stedsnr" v="12565" />
	</node>
	<node lat="63.22258889303135" lon="9.289255560534652" id="-91442">
		<tag k="name" v="Flaugelva" />
		<tag k="ssr:stedsnr" v="12579" />
		<tag k="waterway" v="stream" />
	</node>
	<node lat="63.248844445954624" lon="9.246291657076384" id="-91446">
		<tag k="name" v="Nedre Middagslitjønna" />
		<tag k="natural" v="water" />
		<tag k="ssr:stedsnr" v="12675" />
	</node>
	<node lat="63.37548333181696" lon="8.948616676151062" id="-91449">
		<tag k="name" v="Valan" />
		<tag k="natural" v="cape" />
		<tag k="ssr:stedsnr" v="12720" />
	</node>
	<node lat="63.241172225578765" lon="8.966494442074804" id="-91454">
		<tag k="name" v="Leneselva" />
		<tag k="ssr:stedsnr" v="12758" />
		<tag k="waterway" v="river" />
	</node>
	<node lat="63.11767777722512" lon="8.224441675739008" id="-91464">
		<tag k="name" v="Løvikvatnet" />
		<tag k="natural" v="water" />
		<tag k="ssr:stedsnr" v="12973" />
	</node>
	<node lat="63.27431111423587" lon="8.87706943964263" id="-91468">
		<tag k="name" v="Litlvatnet" />
		<tag k="natural" v="water" />
		<tag k="ssr:stedsnr" v="13936" />
	</node>
	<node lat="63.256683334966986" lon="9.095558343228028" id="-91478">
		<tag k="name" v="Langvassbekken" />
		<tag k="ssr:stedsnr" v="29081" />
		<tag k="waterway" v="stream" />
	</node>
	<node lat="63.265155557619295" lon="9.110466675700657" id="-91479">
		<tag k="name" v="Berget" />
		<tag k="natural" v="cape" />
		<tag k="ssr:stedsnr" v="29087" />
	</node>
	<node lat="63.25303611136968" lon="8.947963888308752" id="-91481">
		<tag k="name" v="Leiråvasslibekken" />
		<tag k="ssr:stedsnr" v="29144" />
		<tag k="waterway" v="stream" />
	</node>
	<node lat="63.28898889000982" lon="9.049552768339195" id="-91484">
		<tag k="name" v="Øygardsbekken" />
		<tag k="ssr:stedsnr" v="29063" />
		<tag k="waterway" v="stream" />
	</node>
	<node lat="63.2166083315167" lon="9.121022214272317" id="-91495">
		<tag k="name" v="Dyrgrovbekken" />
		<tag k="ssr:stedsnr" v="29290" />
		<tag k="waterway" v="stream" />
	</node>
	<node lat="63.22410000389486" lon="9.140436107740982" id="-91496">
		<tag k="name" v="Hammartjønna" />
		<tag k="natural" v="water" />
		<tag k="ssr:stedsnr" v="29296" />
	</node>
	<node lat="63.237222217809276" lon="8.957783340787206" id="-91497">
		<tag k="name" v="Seterlibekken" />
		<tag k="ssr:stedsnr" v="29347" />
		<tag k="waterway" v="stream" />
	</node>
	<node lat="63.145113893081415" lon="8.862955546823265" id="-91501">
		<tag k="name" v="Staursetelva" />
		<tag k="ssr:stedsnr" v="29463" />
		<tag k="waterway" v="river" />
	</node>
	<node lat="63.24202499732919" lon="9.039536118215027" id="-91502">
		<tag k="name" v="Hunnesodden" />
		<tag k="natural" v="cape" />
		<tag k="ssr:stedsnr" v="29532" />
	</node>
	<node lat="63.3915194477704" lon="9.1460638824016" id="-91511">
		<tag k="name" v="Hestbekken" />
		<tag k="ssr:stedsnr" v="29638" />
		<tag k="waterway" v="stream" />
	</node>
	<node lat="63.189058329001604" lon="8.88001388809398" id="-91524">
		<tag k="name" v="Trongdalsbekken" />
		<tag k="ssr:stedsnr" v="29836" />
		<tag k="waterway" v="stream" />
	</node>
	<node lat="63.149199997465004" lon="8.87323055211278" id="-91525">
		<tag k="name" v="Hattlibekken" />
		<tag k="ssr:stedsnr" v="29839" />
		<tag k="waterway" v="stream" />
	</node>
	<node lat="63.20932222628003" lon="8.895980563490559" id="-91526">
		<tag k="name" v="Hammar-elva" />
		<tag k="ssr:stedsnr" v="29841" />
		<tag k="waterway" v="stream" />
	</node>
	<node lat="63.367072221034746" lon="8.870158339516012" id="-91528">
		<tag k="name" v="Tverrbekktjønna" />
		<tag k="natural" v="water" />
		<tag k="ssr:stedsnr" v="29853" />
	</node>
	<node lat="63.32715277430302" lon="9.070308335055518" id="-91533">
		<tag k="name" v="Seterbekken" />
		<tag k="ssr:stedsnr" v="29923" />
		<tag k="waterway" v="stream" />
	</node>
	<node lat="63.42248333242909" lon="8.865880555714407" id="-91535">
		<tag k="name" v="Kvolven" />
		<tag k="ssr:stedsnr" v="29941" />
		<tag k="waterway" v="stream" />
	</node>
	<node lat="63.327355554147104" lon="9.244922231766008" id="-91548">
		<tag k="name" v="Storneset" />
		<tag k="natural" v="cape" />
		<tag k="ssr:stedsnr" v="33849" />
	</node>
	<node lat="63.33202499682957" lon="9.295161116251762" id="-91552">
		<tag k="name" v="Vassendan" />
		<tag k="natural" v="water" />
		<tag k="ssr:stedsnr" v="33782" />
		<tag k="water" v="lake" />
	</node>
	<node lat="63.141272220624145" lon="8.569905548425892" id="-91580">
		<tag k="alt_name" v="Lervikelva" />
		<tag k="name" v="Leirvikelva" />
		<tag k="ssr:stedsnr" v="47663" />
		<tag k="waterway" v="stream" />
	</node>
	<node lat="63.15127500365884" lon="8.749280548099007" id="-91597">
		<tag k="name" v="Middagstjønna" />
		<tag k="natural" v="water" />
		<tag k="ssr:stedsnr" v="48500" />
	</node>
	<node lat="63.12620277916946" lon="8.199036117132286" id="-91604">
		<tag k="name" v="Slettabekken" />
		<tag k="ssr:stedsnr" v="48445" />
		<tag k="waterway" v="stream" />
	</node>
	<node lat="63.12249722316112" lon="8.220858340754216" id="-91606">
		<tag k="name" v="Setertjønna" />
		<tag k="natural" v="water" />
		<tag k="ssr:stedsnr" v="48455" />
	</node>
	<node lat="63.11497500310363" lon="8.486252777168518" id="-91612">
		<tag k="name" v="Nonsfjellbekken" />
		<tag k="ssr:stedsnr" v="48691" />
		<tag k="waterway" v="stream" />
	</node>
	<node lat="63.125511110844194" lon="8.365033340866175" id="-91631">
		<tag k="name" v="Holbekken" />
		<tag k="ssr:stedsnr" v="73982" />
		<tag k="waterway" v="stream" />
	</node>
	<node lat="63.386736114713976" lon="8.928708323350703" id="-91640">
		<tag k="name" v="Øydalsvatnet" />
		<tag k="natural" v="water" />
		<tag k="ssr:stedsnr" v="73636" />
		<tag k="water" v="lake" />
	</node>
	<node lat="63.230500003548265" lon="8.959663889175063" id="-91645">
		<tag k="name" v="Seterlibekken" />
		<tag k="ssr:stedsnr" v="73754" />
		<tag k="waterway" v="stream" />
	</node>
	<node lat="63.18558333094467" lon="8.986705558808342" id="-91653">
		<tag k="name" v="Spjøta" />
		<tag k="ssr:stedsnr" v="73788" />
		<tag k="waterway" v="river" />
	</node>
	<node lat="63.202466668326295" lon="9.123036117077604" id="-91654">
		<tag k="name" v="Rørovatnet" />
		<tag k="natural" v="water" />
		<tag k="ssr:stedsnr" v="73795" />
	</node>
	<node lat="63.186525001124124" lon="8.852869440417791" id="-91657">
		<tag k="name" v="Staursetelva" />
		<tag k="ssr:stedsnr" v="73803" />
		<tag k="waterway" v="river" />
	</node>
	<node lat="63.105474998652575" lon="8.45439999728546" id="-91658">
		<tag k="name" v="Hennaelva" />
		<tag k="ssr:stedsnr" v="73874" />
		<tag k="waterway" v="river" />
	</node>
	<node lat="63.06616110771543" lon="8.386411120704034" id="-91665">
		<tag k="name" v="Hundhaugvatnet" />
		<tag k="natural" v="water" />
		<tag k="ssr:stedsnr" v="73917" />
	</node>
	<node lat="63.14400555417818" lon="8.681502778333577" id="-91668">
		<tag k="name" v="Skottjørnbekken" />
		<tag k="ssr:stedsnr" v="73952" />
		<tag k="waterway" v="stream" />
	</node>
	<node lat="63.278583330991665" lon="9.157825001088131" id="-91676">
		<tag k="name" v="Dyrlibekken" />
		<tag k="ssr:stedsnr" v="74924" />
		<tag k="waterway" v="stream" />
	</node>
	<node lat="63.21203055299575" lon="9.29083889381261" id="-91680">
		<tag k="name" v="Buneset" />
		<tag k="natural" v="cape" />
		<tag k="ssr:stedsnr" v="81184" />
	</node>
	<node lat="63.173944443325496" lon="9.065597222297525" id="-91692">
		<tag k="name" v="Rørlibekken" />
		<tag k="ssr:stedsnr" v="90303" />
		<tag k="waterway" v="stream" />
	</node>
	<node lat="63.17276111095904" lon="9.077938884894944" id="-91693">
		<tag k="name" v="Seterdalsbekken" />
		<tag k="ssr:stedsnr" v="90305" />
		<tag k="waterway" v="stream" />
	</node>
	<node lat="63.19348333051067" lon="9.033686114851507" id="-91694">
		<tag k="name" v="Seterbekken" />
		<tag k="ssr:stedsnr" v="90309" />
		<tag k="waterway" v="stream" />
	</node>
	<node lat="63.249119444299204" lon="8.96808056192068" id="-91701">
		<tag k="name" v="Hovleksbekken" />
		<tag k="ssr:stedsnr" v="90140" />
		<tag k="waterway" v="stream" />
	</node>
	<node lat="63.40985278085639" lon="8.8600861031415" id="-91704">
		<tag k="name" v="Budalstjønna" />
		<tag k="natural" v="water" />
		<tag k="ssr:stedsnr" v="90930" />
	</node>
	<node lat="63.14512778087782" lon="9.138013887277769" id="-91723">
		<tag k="name" v="Snipmyrbekken" />
		<tag k="ssr:stedsnr" v="90402" />
		<tag k="waterway" v="stream" />
	</node>
	<node lat="63.44418610771229" lon="8.997869446354851" id="-91730">
		<tag k="name" v="Ålførbekken" />
		<tag k="ssr:stedsnr" v="90594" />
		<tag k="waterway" v="stream" />
	</node>
	<node lat="63.38323889178584" lon="9.111811115342165" id="-91733">
		<tag k="name" v="Røylitjønna" />
		<tag k="natural" v="water" />
		<tag k="ssr:stedsnr" v="90694" />
	</node>
	<node lat="63.34486111378807" lon="8.997636117962434" id="-91740">
		<tag k="name" v="Silaren" />
		<tag k="ssr:stedsnr" v="90860" />
		<tag k="waterway" v="stream" />
	</node>
	<node lat="63.35484722030582" lon="9.0755250046695" id="-91754">
		<tag k="name" v="Krålibekken" />
		<tag k="ssr:stedsnr" v="90743" />
		<tag k="waterway" v="stream" />
	</node>
	<node lat="63.3758944460695" lon="8.83887777282213" id="-91763">
		<tag k="name" v="Rennsjøbotnen" />
		<tag k="natural" v="bay" />
		<tag k="ssr:stedsnr" v="91000" />
	</node>
	<node lat="63.19921388671308" lon="9.00231110621833" id="-91767">
		<tag k="name" v="Ørstadbekken" />
		<tag k="ssr:stedsnr" v="90912" />
		<tag k="waterway" v="stream" />
	</node>
	<node lat="63.207863887960436" lon="9.17381110394464" id="-91768">
		<tag k="name" v="Søylifossen" />
		<tag k="natural" v="waterfall" />
		<tag k="ssr:stedsnr" v="91336" />
	</node>
	<node lat="63.32816389071507" lon="9.303011120544593" id="-91771">
		<tag k="name" v="Vassbotnelva" />
		<tag k="ssr:stedsnr" v="93692" />
		<tag k="waterway" v="river" />
	</node>
	<node lat="63.34503055533435" lon="9.24539167487378" id="-91774">
		<tag k="name" v="Forratjørna" />
		<tag k="natural" v="water" />
		<tag k="ssr:stedsnr" v="94187" />
	</node>
	<node lat="63.35672500258966" lon="9.40207222999897" id="-91776">
		<tag k="name" v="Neverdalsbekken" />
		<tag k="ssr:stedsnr" v="94352" />
		<tag k="waterway" v="stream" />
	</node>
	<node lat="63.08607222093299" lon="8.48322777779015" id="-91784">
		<tag k="name" v="Blåfjellbekken" />
		<tag k="ssr:stedsnr" v="106936" />
		<tag k="waterway" v="stream" />
	</node>
	<node lat="63.1261111067991" lon="8.173030548818332" id="-91787">
		<tag k="name" v="Slettabekken" />
		<tag k="ssr:stedsnr" v="107459" />
		<tag k="waterway" v="stream" />
	</node>
	<node lat="63.13217222356568" lon="8.201016659981905" id="-91793">
		<tag k="name" v="Storvikbekken" />
		<tag k="ssr:stedsnr" v="108291" />
		<tag k="waterway" v="stream" />
	</node>
	<node lat="63.070011110242824" lon="8.528594437686026" id="-91796">
		<tag k="name" v="Krokvassbekken" />
		<tag k="ssr:stedsnr" v="108301" />
		<tag k="waterway" v="stream" />
	</node>
	<node lat="63.17047499790686" lon="8.694652781529875" id="-91797">
		<tag k="name" v="Fossan" />
		<tag k="natural" v="waterfall" />
		<tag k="ssr:stedsnr" v="109197" />
	</node>
	<node lat="63.046130552540475" lon="8.245158337396443" id="-91819">
		<tag k="name" v="Innreitselva" />
		<tag k="ssr:stedsnr" v="109584" />
		<tag k="waterway" v="stream" />
	</node>
	<node lat="63.13214444106208" lon="8.40687222679998" id="-91823">
		<tag k="name" v="Tronsvabekken" />
		<tag k="ssr:stedsnr" v="109537" />
		<tag k="waterway" v="stream" />
	</node>
	<node lat="63.09165555511614" lon="8.404275003830852" id="-91826">
		<tag k="name" v="Kvennhusbekken" />
		<tag k="ssr:stedsnr" v="109640" />
		<tag k="waterway" v="stream" />
	</node>
	<node lat="63.30337500422241" lon="8.893605552932152" id="-91837">
		<tag k="alt_name" v="Storbubekken" />
		<tag k="name" v="Storrbubekken" />
		<tag k="ssr:stedsnr" v="133569" />
		<tag k="waterway" v="stream" />
	</node>
	<node lat="63.38307777671338" lon="8.87874999226206" id="-91841">
		<tag k="name" v="Jonstjønna" />
		<tag k="natural" v="water" />
		<tag k="ssr:stedsnr" v="133615" />
	</node>
	<node lat="63.3214499996073" lon="8.877388889552059" id="-91843">
		<tag k="name" v="Steinvatnet" />
		<tag k="natural" v="water" />
		<tag k="ssr:stedsnr" v="133454" />
	</node>
	<node lat="63.148722218137976" lon="9.10540554620068" id="-91849">
		<tag k="name" v="Kårvatnet" />
		<tag k="natural" v="water" />
		<tag k="ssr:stedsnr" v="133693" />
	</node>
	<node lat="63.1396972237312" lon="9.18154999693525" id="-91850">
		<tag k="name" v="Nedre Gravtjønna" />
		<tag k="natural" v="water" />
		<tag k="ssr:stedsnr" v="133695" />
	</node>
	<node lat="63.13897777463301" lon="8.930094438615455" id="-91852">
		<tag k="name" v="Storbekkdalstjønna" />
		<tag k="natural" v="water" />
		<tag k="ssr:stedsnr" v="133700" />
	</node>
	<node lat="63.11380555426107" lon="8.670200007496165" id="-91866">
		<tag k="name" v="Fjærlielva" />
		<tag k="ssr:stedsnr" v="133995" />
		<tag k="waterway" v="stream" />
	</node>
	<node lat="63.0957055574301" lon="8.702877772593993" id="-91870">
		<tag k="name" v="Rånnavatnet" />
		<tag k="natural" v="water" />
		<tag k="ssr:stedsnr" v="133883" />
	</node>
	<node lat="63.05838055907093" lon="8.250491675137534" id="-91873">
		<tag k="name" v="Fossbekken" />
		<tag k="ssr:stedsnr" v="133929" />
		<tag k="waterway" v="stream" />
	</node>
	<node lat="63.299197218955975" lon="9.248694443846235" id="-91875">
		<tag k="alt_name" v="Dyrbendlivatnet;Dyrbeinlivatn, nedre" />
		<tag k="name" v="Nedre Dyrbeinlivatn" />
		<tag k="natural" v="water" />
		<tag k="ssr:stedsnr" v="134225" />
	</node>
	<node lat="63.30531388722678" lon="9.33491666583784" id="-91876">
		<tag k="alt_name" v="Gråurdtjørna, nedre" />
		<tag k="name" v="Nedre Gråurdtjørna" />
		<tag k="natural" v="water" />
		<tag k="ssr:stedsnr" v="134228" />
	</node>
	<node lat="63.33370277817658" lon="9.296883330440652" id="-91878">
		<tag k="alt_name" v="Setervatnet" />
		<tag k="name" v="Sætervatnet" />
		<tag k="natural" v="water" />
		<tag k="ssr:stedsnr" v="134189" />
	</node>
	<node lat="63.28273333141442" lon="9.314322217154212" id="-91879">
		<tag k="name" v="Knubbslettbekken" />
		<tag k="ssr:stedsnr" v="134262" />
		<tag k="waterway" v="stream" />
	</node>
	<node lat="63.21898889150643" lon="9.170072224870452" id="-91893">
		<tag k="name" v="Storbekkvatnet" />
		<tag k="natural" v="water" />
		<tag k="ssr:stedsnr" v="146734" />
	</node>
	<node lat="63.243624998179605" lon="9.052608331827603" id="-91899">
		<tag k="name" v="Seljurdbukta" />
		<tag k="natural" v="bay" />
		<tag k="ssr:stedsnr" v="150526" />
	</node>
	<node lat="63.28416666796633" lon="9.111783329552782" id="-91905">
		<tag k="name" v="Gaupbekken" />
		<tag k="ssr:stedsnr" v="150044" />
		<tag k="waterway" v="stream" />
	</node>
	<node lat="63.252213888118426" lon="8.895130551246078" id="-91909">
		<tag k="name" v="Melslættfossen" />
		<tag k="natural" v="waterfall" />
		<tag k="ssr:stedsnr" v="150141" />
	</node>
	<node lat="63.23733055555462" lon="8.900641669002477" id="-91910">
		<tag k="name" v="Fiskarodden" />
		<tag k="natural" v="cape" />
		<tag k="ssr:stedsnr" v="150142" />
	</node>
	<node lat="63.23577778112884" lon="9.05850556541318" id="-91920">
		<tag k="name" v="Sommarfjøsbekken" />
		<tag k="ssr:stedsnr" v="150198" />
		<tag k="waterway" v="stream" />
	</node>
	<node lat="63.21593888938378" lon="9.167080563085756" id="-91925">
		<tag k="name" v="Seterbekken" />
		<tag k="ssr:stedsnr" v="150295" />
		<tag k="waterway" v="stream" />
	</node>
	<node lat="63.20181110826921" lon="9.140919446334994" id="-91931">
		<tag k="name" v="Damtjønna" />
		<tag k="natural" v="water" />
		<tag k="ssr:stedsnr" v="150324" />
	</node>
	<node lat="63.14791944832596" lon="9.091505551286792" id="-91935">
		<tag k="name" v="Skardtjønna" />
		<tag k="natural" v="water" />
		<tag k="ssr:stedsnr" v="150432" />
	</node>
	<node lat="63.14352500343927" lon="8.856375003873689" id="-91936">
		<tag k="name" v="Tortlibekken" />
		<tag k="ssr:stedsnr" v="150442" />
		<tag k="waterway" v="stream" />
	</node>
	<node lat="63.15910555405172" lon="8.870758338363242" id="-91940">
		<tag k="name" v="Torkallbekken" />
		<tag k="ssr:stedsnr" v="150581" />
		<tag k="waterway" v="stream" />
	</node>
	<node lat="63.42172499939482" lon="9.044638886247679" id="-91950">
		<tag k="name" v="Kvitsanden" />
		<tag k="natural" v="beach" />
		<tag k="ssr:stedsnr" v="150661" />
	</node>
	<node lat="63.406002776010055" lon="9.134874993903736" id="-91951">
		<tag k="name" v="Kattavikbekken" />
		<tag k="ssr:stedsnr" v="150662" />
		<tag k="waterway" v="stream" />
	</node>
	<node lat="63.417847222643125" lon="9.109249999043637" id="-91955">
		<tag k="name" v="Kvernbekken" />
		<tag k="ssr:stedsnr" v="150670" />
		<tag k="waterway" v="stream" />
	</node>
	<node lat="63.4229888925108" lon="8.789111119365927" id="-91959">
		<tag k="name" v="Fløosen" />
		<tag k="natural" v="bay" />
		<tag k="ssr:stedsnr" v="150688" />
	</node>
	<node lat="63.37327222571584" lon="9.022297215490044" id="-91964">
		<tag k="name" v="Dalabekken" />
		<tag k="ssr:stedsnr" v="150719" />
		<tag k="waterway" v="stream" />
	</node>
	<node lat="63.35657499951412" lon="9.098316674591722" id="-91968">
		<tag k="name" v="Lomtjønna" />
		<tag k="natural" v="water" />
		<tag k="ssr:stedsnr" v="150740" />
	</node>
	<node lat="63.1885527738228" lon="8.898477784140129" id="-91973">
		<tag k="name" v="Litllibekken" />
		<tag k="ssr:stedsnr" v="150796" />
		<tag k="waterway" v="stream" />
	</node>
	<node lat="63.361075000444096" lon="8.94155555520231" id="-91983">
		<tag k="name" v="Vassvika" />
		<tag k="natural" v="bay" />
		<tag k="ssr:stedsnr" v="150832" />
	</node>
	<node lat="63.21116666945385" lon="8.952330560012179" id="-91985">
		<tag k="name" v="Bergsåa" />
		<tag k="ssr:stedsnr" v="150836" />
		<tag k="waterway" v="stream" />
	</node>
	<node lat="63.31437222105743" lon="9.14840277586797" id="-91999">
		<tag k="name" v="Ravaneset" />
		<tag k="natural" v="cape" />
		<tag k="ssr:stedsnr" v="150995" />
	</node>
	<node lat="63.38209722052588" lon="8.83731388668949" id="-92000">
		<tag k="name" v="Engdalsneset" />
		<tag k="natural" v="cape" />
		<tag k="ssr:stedsnr" v="151000" />
	</node>
	<node lat="63.03379166494138" lon="8.249052784651422" id="-92011">
		<tag k="name" v="Kvalnesvikelva" />
		<tag k="ssr:stedsnr" v="229567" />
		<tag k="waterway" v="stream" />
	</node>
	<node lat="63.1601166704187" lon="8.92683333417579" id="-92020">
		<tag k="name" v="Storøybekken" />
		<tag k="ssr:stedsnr" v="272956" />
		<tag k="waterway" v="stream" />
	</node>
	<node lat="63.142933332514716" lon="8.285291660425287" id="-92028">
		<tag k="name" v="Skarbekken" />
		<tag k="ssr:stedsnr" v="166946" />
		<tag k="waterway" v="stream" />
	</node>
	<node lat="63.11717777594109" lon="8.16788611216963" id="-92035">
		<tag k="name" v="Andersåkerbekken" />
		<tag k="ssr:stedsnr" v="168445" />
		<tag k="waterway" v="stream" />
	</node>
	<node lat="63.10681944106842" lon="8.73878888554371" id="-92039">
		<tag k="name" v="Øranfossen" />
		<tag k="natural" v="waterfall" />
		<tag k="ssr:stedsnr" v="169001" />
	</node>
	<node lat="63.10219444237541" lon="8.70688889575938" id="-92040">
		<tag k="name" v="Litlvatnet" />
		<tag k="natural" v="water" />
		<tag k="ssr:stedsnr" v="169079" />
	</node>
	<node lat="63.159161109032574" lon="8.682149991164003" id="-92041">
		<tag k="name" v="Yssingøyan" />
		<tag k="place" v="island" />
		<tag k="ssr:stedsnr" v="169197" />
	</node>
	<node lat="63.09762500061976" lon="8.687097223648934" id="-92043">
		<tag k="name" v="Fiskarneset" />
		<tag k="natural" v="cape" />
		<tag k="ssr:stedsnr" v="169138" />
	</node>
	<node lat="63.16006944634227" lon="8.729883337042274" id="-92057">
		<tag k="name" v="Instibekktjønna" />
		<tag k="natural" v="water" />
		<tag k="ssr:stedsnr" v="169668" />
	</node>
	<node lat="63.09680277593929" lon="8.419208324388297" id="-92058">
		<tag k="name" v="Gaukholtjønna" />
		<tag k="natural" v="water" />
		<tag k="ssr:stedsnr" v="169675" />
	</node>
	<node lat="63.122969448137" lon="8.452033326996723" id="-92064">
		<tag k="name" v="Seterbekken" />
		<tag k="ssr:stedsnr" v="169693" />
		<tag k="waterway" v="stream" />
	</node>
	<node lat="63.31967777989815" lon="8.94925556239303" id="-92087">
		<tag k="name" v="Flatvatnet" />
		<tag k="natural" v="water" />
		<tag k="ssr:stedsnr" v="194450" />
	</node>
	<node lat="63.319499918080986" lon="9.044415629670148" id="-92088">
		<tag k="fixme" v="multiple name tags, choose one and add the other to alt_name" />
		<tag k="name" v="Alstadvatnet;Setervatnet" />
		<tag k="natural" v="water" />
		<tag k="ssr:stedsnr" v="194456" />
	</node>
	<node lat="63.34142150326965" lon="8.890394948323358" id="-92093">
		<tag k="fixme" v="multiple name tags, choose one and add the other to alt_name" />
		<tag k="name" v="Litlbutjønna;Sør Svartvasstjønna" />
		<tag k="natural" v="water" />
		<tag k="ssr:stedsnr" v="194483" />
	</node>
	<node lat="63.32598611285197" lon="8.92638332455218" id="-92094">
		<tag k="name" v="Hundsvatna" />
		<tag k="natural" v="water" />
		<tag k="ssr:stedsnr" v="194504" />
	</node>
	<node lat="63.21153332930174" lon="9.279558325180993" id="-92095">
		<tag k="name" v="Vasslivatnet" />
		<tag k="natural" v="water" />
		<tag k="ssr:stedsnr" v="194516" />
		<tag k="water" v="lake" />
	</node>
	<node lat="63.377236108877796" lon="8.935233339360426" id="-92100">
		<tag k="name" v="Langvatnet" />
		<tag k="natural" v="water" />
		<tag k="ssr:stedsnr" v="194702" />
		<tag k="water" v="lake" />
	</node>
	<node lat="63.22717222645487" lon="9.162816669373967" id="-92105">
		<tag k="name" v="Frosttjønna" />
		<tag k="natural" v="water" />
		<tag k="ssr:stedsnr" v="194733" />
	</node>
	<node lat="63.36416389331531" lon="9.01630833618368" id="-92111">
		<tag k="name" v="Nesvatnet" />
		<tag k="natural" v="water" />
		<tag k="ssr:stedsnr" v="194715" />
		<tag k="water" v="lake" />
	</node>
	<node lat="63.36694166382174" lon="8.98544443764618" id="-92112">
		<tag k="name" v="Åstadtjønna" />
		<tag k="natural" v="water" />
		<tag k="ssr:stedsnr" v="194721" />
	</node>
	<node lat="63.09273888568839" lon="8.228355553796918" id="-92115">
		<tag k="name" v="Bjørnavatnet" />
		<tag k="natural" v="water" />
		<tag k="ssr:stedsnr" v="194861" />
	</node>
	<node lat="63.11340555930638" lon="8.556697213234852" id="-92116">
		<tag k="name" v="Grytåa" />
		<tag k="ssr:stedsnr" v="194864" />
		<tag k="waterway" v="stream" />
	</node>
	<node lat="63.086463890888545" lon="8.629758323761747" id="-92119">
		<tag k="name" v="Dalaelva" />
		<tag k="ssr:stedsnr" v="194901" />
		<tag k="waterway" v="stream" />
	</node>
	<node lat="63.0726777758922" lon="8.440269451104115" id="-92120">
		<tag k="name" v="Bekkervatnet" />
		<tag k="natural" v="water" />
		<tag k="ssr:stedsnr" v="194908" />
	</node>
	<node lat="63.066236106998055" lon="8.305299993012955" id="-92121">
		<tag k="name" v="Storåa" />
		<tag k="ssr:stedsnr" v="194912" />
		<tag k="waterway" v="stream" />
	</node>
	<node lat="63.09753333056755" lon="8.222422231484835" id="-92126">
		<tag k="name" v="Lomtjørna" />
		<tag k="natural" v="water" />
		<tag k="ssr:stedsnr" v="195000" />
	</node>
	<node lat="63.28099444081658" lon="8.917272228106073" id="-92155">
		<tag k="name" v="Sollitjønna" />
		<tag k="natural" v="water" />
		<tag k="ssr:stedsnr" v="208759" />
	</node>
	<node lat="63.229983335938606" lon="9.32316666037307" id="-92158">
		<tag k="name" v="Badstubekken" />
		<tag k="ssr:stedsnr" v="211237" />
		<tag k="waterway" v="stream" />
	</node>
	<node lat="63.24353333498499" lon="9.019344443663098" id="-92161">
		<tag k="name" v="Langtrøbekken" />
		<tag k="ssr:stedsnr" v="211151" />
		<tag k="waterway" v="stream" />
	</node>
	<node lat="63.2881638923075" lon="9.010555560073504" id="-92169">
		<tag k="name" v="Strandaøyan" />
		<tag k="place" v="island" />
		<tag k="ssr:stedsnr" v="211054" />
	</node>
	<node lat="63.2828027751142" lon="9.039780545789851" id="-92170">
		<tag k="name" v="Sersjantstubekken" />
		<tag k="ssr:stedsnr" v="211056" />
		<tag k="waterway" v="stream" />
	</node>
	<node lat="63.27330833534911" lon="9.108158334879525" id="-92173">
		<tag k="name" v="Ånnavassdammen" />
		<tag k="ssr:stedsnr" v="211089" />
		<tag k="waterway" v="dam" />
	</node>
	<node lat="63.20316944588586" lon="9.293638890736908" id="-92179">
		<tag k="name" v="Merkesbekken" />
		<tag k="ssr:stedsnr" v="212253" />
		<tag k="waterway" v="stream" />
	</node>
	<node lat="63.147849995932745" lon="9.02740833029109" id="-92183">
		<tag k="name" v="Botntjønna" />
		<tag k="natural" v="water" />
		<tag k="ssr:stedsnr" v="211372" />
	</node>
	<node lat="63.153180551967004" lon="9.088361109932082" id="-92188">
		<tag k="name" v="Kårlibekken" />
		<tag k="ssr:stedsnr" v="211456" />
		<tag k="waterway" v="stream" />
	</node>
	<node lat="63.365772221200636" lon="8.917722224781008" id="-92198">
		<tag k="name" v="Stakkmyrneset" />
		<tag k="natural" v="cape" />
		<tag k="ssr:stedsnr" v="211620" />
	</node>
	<node lat="63.34481666740677" lon="8.975230560880549" id="-92205">
		<tag k="name" v="Libekken" />
		<tag k="ssr:stedsnr" v="211869" />
		<tag k="waterway" v="stream" />
	</node>
	<node lat="63.340233333622805" lon="9.101116667184913" id="-92209">
		<tag k="name" v="Litlliskardsbekken" />
		<tag k="ssr:stedsnr" v="211819" />
		<tag k="waterway" v="stream" />
	</node>
	<node lat="63.29992778008218" lon="8.972208331772915" id="-92215">
		<tag k="name" v="Gorrtjønnbekken" />
		<tag k="ssr:stedsnr" v="211946" />
		<tag k="waterway" v="stream" />
	</node>
	<node lat="63.292355554758345" lon="9.235344440014318" id="-92216">
		<tag k="name" v="Rørneset" />
		<tag k="natural" v="cape" />
		<tag k="ssr:stedsnr" v="211949" />
	</node>
	<node lat="63.18733610779369" lon="8.996141667009622" id="-92226">
		<tag k="name" v="Spjøto" />
		<tag k="ssr:stedsnr" v="212810" />
		<tag k="waterway" v="river" />
	</node>
	<node lat="63.17629721797966" lon="8.929813892381988" id="-92228">
		<tag k="name" v="Holmen" />
		<tag k="place" v="islet" />
		<tag k="ssr:stedsnr" v="212763" />
	</node>
	<node lat="63.208891670979746" lon="8.958111106822072" id="-92232">
		<tag k="name" v="Bergsåa" />
		<tag k="ssr:stedsnr" v="212936" />
		<tag k="waterway" v="stream" />
	</node>
	<node lat="63.20578333418049" lon="8.997522212365968" id="-92233">
		<tag k="name" v="Klokkarbekken" />
		<tag k="ssr:stedsnr" v="212941" />
		<tag k="waterway" v="stream" />
	</node>
	<node lat="63.35946666859591" lon="9.423866672880807" id="-92243">
		<tag k="name" v="Svarttjørna" />
		<tag k="natural" v="water" />
		<tag k="ssr:stedsnr" v="215434" />
	</node>
	<node lat="63.126672222906706" lon="8.988788897180063" id="-92252">
		<tag k="name" v="Erktjønna" />
		<tag k="natural" v="water" />
		<tag k="ssr:stedsnr" v="219094" />
	</node>
	<node lat="63.33463888565499" lon="9.312530550693193" id="-92261">
		<tag k="name" v="Gåstjørna" />
		<tag k="natural" v="water" />
		<tag k="ssr:stedsnr" v="275728" />
	</node>
	<node lat="63.359883332471405" lon="9.30069167076021" id="-92264">
		<tag k="name" v="Plassabekken" />
		<tag k="ssr:stedsnr" v="275955" />
		<tag k="waterway" v="stream" />
	</node>
	<node lat="63.1188555569105" lon="8.317083339681522" id="-92273">
		<tag k="name" v="Nertrøbekken" />
		<tag k="ssr:stedsnr" v="290092" />
		<tag k="waterway" v="stream" />
	</node>
	<node lat="63.22067777344968" lon="9.365211105362953" id="-92276">
		<tag k="name" v="Vettajøodden" />
		<tag k="natural" v="cape" />
		<tag k="ssr:stedsnr" v="289056" />
	</node>
	<node lat="63.11927499823521" lon="8.330675008556284" id="-92285">
		<tag k="name" v="Skjennstøbekken" />
		<tag k="ssr:stedsnr" v="290131" />
		<tag k="waterway" v="stream" />
	</node>
	<node lat="63.11682500048458" lon="8.331769448563042" id="-92286">
		<tag k="name" v="Ådalsbekken" />
		<tag k="ssr:stedsnr" v="290132" />
		<tag k="waterway" v="stream" />
	</node>
	<node lat="63.04589444708782" lon="8.294319449402819" id="-92290">
		<tag k="name" v="Stavråa" />
		<tag k="ssr:stedsnr" v="290167" />
		<tag k="waterway" v="stream" />
	</node>
	<node lat="63.12815555778845" lon="8.718705546375988" id="-92294">
		<tag k="name" v="Elvan" />
		<tag k="ssr:stedsnr" v="290669" />
		<tag k="waterway" v="river" />
	</node>
	<node lat="63.16561944166549" lon="8.660861114180946" id="-92303">
		<tag k="name" v="Gjevabekkbakken" />
		<tag k="ssr:stedsnr" v="291223" />
		<tag k="waterway" v="stream" />
	</node>
	<node lat="63.09052500411219" lon="8.478766668314316" id="-92311">
		<tag k="name" v="Jøsvassråa" />
		<tag k="natural" v="cape" />
		<tag k="ssr:stedsnr" v="291643" />
	</node>
	<node lat="63.087722219277495" lon="8.423355545854825" id="-92313">
		<tag k="name" v="Snerlibekken" />
		<tag k="ssr:stedsnr" v="291669" />
		<tag k="waterway" v="stream" />
	</node>
	<node lat="63.31645833085475" lon="8.886275002686416" id="-92326">
		<tag k="name" v="Hesttjønnin" />
		<tag k="natural" v="water" />
		<tag k="ssr:stedsnr" v="315489" />
	</node>
	<node lat="63.39451110747252" lon="8.826102768509179" id="-92333">
		<tag k="name" v="Sandbukta" />
		<tag k="natural" v="bay" />
		<tag k="ssr:stedsnr" v="315599" />
	</node>
	<node lat="63.15924999848257" lon="8.943344434704636" id="-92340">
		<tag k="name" v="Skjettenholvatnet" />
		<tag k="natural" v="water" />
		<tag k="ssr:stedsnr" v="315791" />
		<tag k="water" v="lake" />
	</node>
	<node lat="63.10074444368516" lon="8.523808332727173" id="-92343">
		<tag k="name" v="Englivatnet" />
		<tag k="natural" v="water" />
		<tag k="ssr:stedsnr" v="315892" />
		<tag k="water" v="lake" />
	</node>
	<node lat="63.3645305600632" lon="9.118150007702882" id="-92345">
		<tag k="name" v="Tverrbekken" />
		<tag k="ssr:stedsnr" v="316740" />
		<tag k="waterway" v="stream" />
	</node>
	<node lat="63.19866666627743" lon="9.092150008963108" id="-92346">
		<tag k="name" v="Setervatnet" />
		<tag k="natural" v="water" />
		<tag k="ssr:stedsnr" v="316829" />
	</node>
	<node lat="63.310016663529844" lon="8.938158343009226" id="-92361">
		<tag k="name" v="Lona" />
		<tag k="place" v="locality" />
		<tag k="ssr:stedsnr" v="316584" />
	</node>
	<node lat="63.05020277814635" lon="8.367683328150722" id="-92363">
		<tag k="name" v="Måsvatnet" />
		<tag k="natural" v="water" />
		<tag k="ssr:stedsnr" v="316864" />
	</node>
	<node lat="63.28646388847827" lon="9.188313887943092" id="-92365">
		<tag k="name" v="Aspdalstjønna" />
		<tag k="natural" v="water" />
		<tag k="ssr:stedsnr" v="316964" />
	</node>
	<node lat="63.136152781563126" lon="8.463780557823457" id="-92370">
		<tag k="name" v="Hammarholmen" />
		<tag k="place" v="islet" />
		<tag k="ssr:stedsnr" v="323762" />
	</node>
	<node lat="63.24044999730492" lon="8.894077773663764" id="-92380">
		<tag k="name" v="Hyllo" />
		<tag k="natural" v="cape" />
		<tag k="ssr:stedsnr" v="332135" />
	</node>
	<node lat="63.244683329033805" lon="8.903311120352036" id="-92381">
		<tag k="name" v="Prestslættbukta" />
		<tag k="natural" v="bay" />
		<tag k="ssr:stedsnr" v="332136" />
	</node>
	<node lat="63.22364444296647" lon="9.28575556256938" id="-92384">
		<tag k="name" v="Flaugbekken" />
		<tag k="ssr:stedsnr" v="332233" />
		<tag k="waterway" v="stream" />
	</node>
	<node lat="63.209752775580625" lon="9.081886108881976" id="-92395">
		<tag k="name" v="Seterbekken" />
		<tag k="ssr:stedsnr" v="332289" />
		<tag k="waterway" v="stream" />
	</node>
	<node lat="63.20914167088062" lon="9.090200002385194" id="-92396">
		<tag k="name" v="Holbekken" />
		<tag k="ssr:stedsnr" v="332290" />
		<tag k="waterway" v="stream" />
	</node>
	<node lat="63.17593055410413" lon="9.058874999526843" id="-92399">
		<tag k="name" v="Bjørnabuslættbekken" />
		<tag k="ssr:stedsnr" v="332327" />
		<tag k="waterway" v="stream" />
	</node>
	<node lat="63.433686108365535" lon="9.065102770020832" id="-92412">
		<tag k="name" v="Langneset" />
		<tag k="natural" v="cape" />
		<tag k="ssr:stedsnr" v="332581" />
	</node>
	<node lat="63.39334444285633" lon="9.135605561148004" id="-92416">
		<tag k="name" v="Sponlandsbekken" />
		<tag k="ssr:stedsnr" v="332635" />
		<tag k="waterway" v="stream" />
	</node>
	<node lat="63.39169721960927" lon="9.130041665010053" id="-92417">
		<tag k="name" v="Jøbergsbekken" />
		<tag k="ssr:stedsnr" v="332645" />
		<tag k="waterway" v="stream" />
	</node>
	<node lat="63.21395000011737" lon="9.314591666880677" id="-92433">
		<tag k="name" v="Litllitjønna" />
		<tag k="natural" v="water" />
		<tag k="ssr:stedsnr" v="333265" />
	</node>
	<node lat="63.15626111212884" lon="8.854738894566523" id="-92436">
		<tag k="name" v="Hornfjellbekken" />
		<tag k="ssr:stedsnr" v="333575" />
		<tag k="waterway" v="stream" />
	</node>
	<node lat="63.1556333323065" lon="8.870858325950785" id="-92437">
		<tag k="name" v="Gammelseterbekken" />
		<tag k="ssr:stedsnr" v="333581" />
		<tag k="waterway" v="stream" />
	</node>
	<node lat="63.364850002648915" lon="8.871841661744405" id="-92445">
		<tag k="name" v="Øver Tverrbekken" />
		<tag k="ssr:stedsnr" v="333874" />
		<tag k="waterway" v="stream" />
	</node>
	<node lat="63.176972226376286" lon="8.95025833016981" id="-92446">
		<tag k="name" v="Litlslettelva" />
		<tag k="ssr:stedsnr" v="333879" />
		<tag k="waterway" v="river" />
	</node>
	<node lat="63.3503638894123" lon="9.021874993638782" id="-92447">
		<tag k="name" v="Kattatjønna" />
		<tag k="natural" v="water" />
		<tag k="ssr:stedsnr" v="333883" />
	</node>
	<node lat="63.38695000366396" lon="8.831552783957289" id="-92451">
		<tag k="name" v="Haukarneset" />
		<tag k="natural" v="cape" />
		<tag k="ssr:stedsnr" v="333837" />
	</node>
	<node lat="63.14510833294707" lon="8.862969441857024" id="-92452">
		<tag k="name" v="Staurset-elva" />
		<tag k="ssr:stedsnr" v="333845" />
		<tag k="waterway" v="river" />
	</node>
	<node lat="63.190788887044015" lon="8.998458339072432" id="-92455">
		<tag k="name" v="Svartdalsbekken" />
		<tag k="ssr:stedsnr" v="333895" />
		<tag k="waterway" v="stream" />
	</node>
	<node lat="63.397155553398065" lon="8.869561117884185" id="-92456">
		<tag k="name" v="Storholtjønna" />
		<tag k="natural" v="water" />
		<tag k="ssr:stedsnr" v="333964" />
	</node>
	<node lat="63.34630833775255" lon="9.254019441188726" id="-92477">
		<tag k="name" v="Hommelbekken" />
		<tag k="ssr:stedsnr" v="337185" />
		<tag k="waterway" v="stream" />
	</node>
	<node lat="63.35331111419113" lon="9.38708889250891" id="-92479">
		<tag k="name" v="Småbrudals bekken" />
		<tag k="ssr:stedsnr" v="337295" />
		<tag k="waterway" v="stream" />
	</node>
	<node lat="63.16103889014257" lon="8.744838896522324" id="-92492">
		<tag k="name" v="Olderbekken" />
		<tag k="ssr:stedsnr" v="350657" />
		<tag k="waterway" v="stream" />
	</node>
	<node lat="63.15837222356566" lon="8.719127774798825" id="-92494">
		<tag k="name" v="Brontjønna" />
		<tag k="natural" v="water" />
		<tag k="ssr:stedsnr" v="350641" />
	</node>
	<node lat="63.140399995632244" lon="8.802847218942455" id="-92496">
		<tag k="name" v="Myrbekken" />
		<tag k="ssr:stedsnr" v="350725" />
		<tag k="waterway" v="stream" />
	</node>
	<node lat="63.07995000262033" lon="8.431558334327391" id="-92499">
		<tag k="name" v="Skallelva" />
		<tag k="ssr:stedsnr" v="350769" />
		<tag k="waterway" v="stream" />
	</node>
	<node lat="63.08512222059632" lon="8.379930551585495" id="-92503">
		<tag k="name" v="Litlvatnet" />
		<tag k="natural" v="water" />
		<tag k="ssr:stedsnr" v="351238" />
		<tag k="water" v="lake" />
	</node>
	<node lat="63.10223888664426" lon="8.468088884939686" id="-92509">
		<tag k="name" v="Tverrdalsbekken" />
		<tag k="ssr:stedsnr" v="351628" />
		<tag k="waterway" v="stream" />
	</node>
	<node lat="63.133936109460016" lon="8.447158333008673" id="-92516">
		<tag k="name" v="Ekkerberget" />
		<tag k="ssr:stedsnr" v="351590" />
		<tag k="waterway" v="stream" />
	</node>
	<node lat="63.07483055990792" lon="8.494230560099469" id="-92527">
		<tag k="name" v="Hjelmseterbekken" />
		<tag k="ssr:stedsnr" v="351928" />
		<tag k="waterway" v="stream" />
	</node>
	<node lat="63.418674882599596" lon="8.856354744699667" id="-92542">
		<tag k="fixme" v="multiple name tags, choose one and add the other to alt_name" />
		<tag k="name" v="Stavnesvatnet;Kvernavatnet" />
		<tag k="natural" v="water" />
		<tag k="ssr:stedsnr" v="376448" />
	</node>
	<node lat="63.41230000354157" lon="9.124133333087157" id="-92555">
		<tag k="name" v="Silarbekken" />
		<tag k="ssr:stedsnr" v="376701" />
		<tag k="waterway" v="stream" />
	</node>
	<node lat="63.11701944325575" lon="8.763322212716641" id="-92562">
		<tag k="name" v="Hardbakktjønna" />
		<tag k="natural" v="water" />
		<tag k="ssr:stedsnr" v="376721" />
	</node>
	<node lat="63.34612500383025" lon="8.972308327995174" id="-92563">
		<tag k="name" v="Lomtjønna" />
		<tag k="natural" v="water" />
		<tag k="ssr:stedsnr" v="376727" />
	</node>
	<node lat="63.37614166426696" lon="9.11038055351868" id="-92567">
		<tag k="name" v="Bugaelva" />
		<tag k="ssr:stedsnr" v="376741" />
		<tag k="waterway" v="river" />
	</node>
	<node lat="63.16245278107996" lon="9.027713892612173" id="-92572">
		<tag k="name" v="Kvernabekken" />
		<tag k="ssr:stedsnr" v="376822" />
		<tag k="waterway" v="stream" />
	</node>
	<node lat="63.16987222208011" lon="9.045652768233287" id="-92573">
		<tag k="name" v="Kulbekken" />
		<tag k="ssr:stedsnr" v="376828" />
		<tag k="waterway" v="stream" />
	</node>
	<node lat="63.16913611269655" lon="8.753866675516825" id="-92575">
		<tag k="name" v="Engdalselva" />
		<tag k="ssr:stedsnr" v="376832" />
		<tag k="waterway" v="river" />
	</node>
	<node lat="63.21570000268914" lon="8.965688884034911" id="-92576">
		<tag k="name" v="Grytvatnet" />
		<tag k="natural" v="water" />
		<tag k="ssr:stedsnr" v="376799" />
	</node>
	<node lat="63.178563890588585" lon="9.022644436796863" id="-92583">
		<tag k="name" v="Fjelna" />
		<tag k="ssr:stedsnr" v="376834" />
		<tag k="waterway" v="river" />
	</node>
	<node lat="63.063133337008935" lon="8.326544440874711" id="-92585">
		<tag k="name" v="Megardsvatnet" />
		<tag k="natural" v="water" />
		<tag k="ssr:stedsnr" v="376939" />
	</node>
	<node lat="63.067208329018804" lon="8.547288882326312" id="-92588">
		<tag k="name" v="Krokvatnet" />
		<tag k="natural" v="water" />
		<tag k="ssr:stedsnr" v="376947" />
	</node>
	<node lat="63.30669166745144" lon="9.347702778358094" id="-92595">
		<tag k="alt_name" v="Gråurdtjørna, øvre" />
		<tag k="name" v="Øvre Gråurdtjørna" />
		<tag k="natural" v="water" />
		<tag k="ssr:stedsnr" v="377174" />
	</node>
	<node lat="63.31501667022267" lon="9.314633341870232" id="-92596">
		<tag k="name" v="Vassbotnvatnet" />
		<tag k="natural" v="water" />
		<tag k="ssr:stedsnr" v="377176" />
	</node>
	<node lat="63.262558332529395" lon="8.844927769445638" id="-92607">
		<tag k="name" v="Erklipollen" />
		<tag k="natural" v="water" />
		<tag k="ssr:stedsnr" v="377905" />
	</node>
	<node lat="63.26933611112925" lon="8.838833335601551" id="-92609">
		<tag k="name" v="Nyvatnet" />
		<tag k="natural" v="water" />
		<tag k="ssr:stedsnr" v="377911" />
	</node>
	<node lat="63.10950833238246" lon="8.756136104379456" id="-92612">
		<tag k="name" v="Litlgrøndalstjønna" />
		<tag k="natural" v="water" />
		<tag k="ssr:stedsnr" v="389772" />
	</node>
	<node lat="63.20574444621395" lon="8.839311103022663" id="-92616">
		<tag k="name" v="Bølielva" />
		<tag k="ssr:stedsnr" v="390872" />
		<tag k="waterway" v="stream" />
	</node>
	<node lat="63.1571749968023" lon="8.835447215262356" id="-92621">
		<tag k="name" v="Gammelseterbekken" />
		<tag k="ssr:stedsnr" v="393586" />
		<tag k="waterway" v="stream" />
	</node>
	<node lat="63.283447219813745" lon="9.090955564011965" id="-92627">
		<tag k="name" v="Bugabekken" />
		<tag k="ssr:stedsnr" v="393053" />
		<tag k="waterway" v="stream" />
	</node>
	<node lat="63.244127774167396" lon="8.92834722543116" id="-92634">
		<tag k="name" v="Leneselva" />
		<tag k="ssr:stedsnr" v="393147" />
		<tag k="waterway" v="river" />
	</node>
	<node lat="63.152458329202204" lon="9.023722213148718" id="-92640">
		<tag k="name" v="Kneppelfjellbekken" />
		<tag k="ssr:stedsnr" v="393359" />
		<tag k="waterway" v="stream" />
	</node>
	<node lat="63.17525277657177" lon="9.03751944812219" id="-92644">
		<tag k="name" v="Trodalsbekken" />
		<tag k="ssr:stedsnr" v="393379" />
		<tag k="waterway" v="stream" />
	</node>
	<node lat="63.24137221932618" lon="9.17253332852246" id="-92645">
		<tag k="name" v="Frostbekken" />
		<tag k="ssr:stedsnr" v="393218" />
		<tag k="waterway" v="stream" />
	</node>
	<node lat="63.2312361115999" lon="9.304611102263909" id="-92646">
		<tag k="name" v="Gjerdabekken" />
		<tag k="ssr:stedsnr" v="393230" />
		<tag k="waterway" v="stream" />
	</node>
	<node lat="63.220527778571004" lon="9.207002769102974" id="-92648">
		<tag k="name" v="Kvernbekken" />
		<tag k="ssr:stedsnr" v="393289" />
		<tag k="waterway" v="stream" />
	</node>
	<node lat="63.3299805600242" lon="9.219752786909494" id="-92656">
		<tag k="name" v="Stelltjønna" />
		<tag k="natural" v="water" />
		<tag k="ssr:stedsnr" v="393429" />
	</node>
	<node lat="63.212577776436014" lon="9.037505560149954" id="-92659">
		<tag k="name" v="Søa" />
		<tag k="ssr:stedsnr" v="393749" />
		<tag k="waterway" v="river" />
	</node>
	<node lat="63.367866669786" lon="8.899433343224631" id="-92661">
		<tag k="name" v="Singsdalselva" />
		<tag k="ssr:stedsnr" v="393756" />
		<tag k="waterway" v="river" />
	</node>
	<node lat="63.4036777800685" lon="8.905330555497583" id="-92662">
		<tag k="name" v="Litlvatnet" />
		<tag k="natural" v="water" />
		<tag k="ssr:stedsnr" v="393759" />
	</node>
	<node lat="63.399047224705335" lon="8.820291659955995" id="-92666">
		<tag k="name" v="Urdbukta" />
		<tag k="natural" v="bay" />
		<tag k="ssr:stedsnr" v="393847" />
	</node>
	<node lat="63.35098333636211" lon="8.916669440574259" id="-92667">
		<tag k="name" v="Kleivabekken" />
		<tag k="ssr:stedsnr" v="393859" />
		<tag k="waterway" v="stream" />
	</node>
	<node lat="63.411249996077196" lon="9.06505832776346" id="-92679">
		<tag k="name" v="Heimsdalsbekken" />
		<tag k="ssr:stedsnr" v="393669" />
		<tag k="waterway" v="stream" />
	</node>
	<node lat="63.15948888635689" lon="8.860463880290006" id="-92687">
		<tag k="name" v="Staursetelva" />
		<tag k="ssr:stedsnr" v="393589" />
		<tag k="waterway" v="river" />
	</node>
	<node lat="63.34753611302993" lon="9.018730553476662" id="-92697">
		<tag k="name" v="Dalabekken" />
		<tag k="ssr:stedsnr" v="393874" />
		<tag k="waterway" v="stream" />
	</node>
	<node lat="63.367633334950455" lon="8.879122215761333" id="-92702">
		<tag k="name" v="Ner Tverrbekken" />
		<tag k="ssr:stedsnr" v="393965" />
		<tag k="waterway" v="stream" />
	</node>
	<node lat="63.20951111223464" lon="9.310180558956443" id="-92706">
		<tag k="name" v="Svarttjønnbekken" />
		<tag k="ssr:stedsnr" v="394254" />
		<tag k="waterway" v="stream" />
	</node>
	<node lat="63.201452775065796" lon="9.310524996637204" id="-92707">
		<tag k="name" v="Stoen" />
		<tag k="natural" v="water" />
		<tag k="ssr:stedsnr" v="394258" />
		<tag k="water" v="lake" />
	</node>
	<node lat="63.22610833170365" lon="9.353800003432552" id="-92728">
		<tag k="name" v="Svartvikodden" />
		<tag k="natural" v="cape" />
		<tag k="ssr:stedsnr" v="405718" />
	</node>
	<node lat="63.23592222011861" lon="9.345499998011796" id="-92729">
		<tag k="name" v="Stobekken" />
		<tag k="ssr:stedsnr" v="405724" />
		<tag k="waterway" v="stream" />
	</node>
	<node lat="63.158800002507554" lon="8.731891658434304" id="-92744">
		<tag k="name" v="Olderbekktjønna" />
		<tag k="natural" v="water" />
		<tag k="ssr:stedsnr" v="411659" />
	</node>
	<node lat="63.1584888846877" lon="8.758994449358418" id="-92750">
		<tag k="name" v="Indre Skarbekken" />
		<tag k="ssr:stedsnr" v="412494" />
		<tag k="waterway" v="stream" />
	</node>
	<node lat="63.175591663186815" lon="8.729411108369083" id="-92752">
		<tag k="name" v="Sjursbekken" />
		<tag k="ssr:stedsnr" v="411978" />
		<tag k="waterway" v="stream" />
	</node>
	<node lat="63.11466666484304" lon="8.318025008695379" id="-92755">
		<tag k="name" v="Ådalselva" />
		<tag k="ssr:stedsnr" v="412077" />
		<tag k="waterway" v="stream" />
	</node>
	<node lat="63.16451388738882" lon="8.62675833113992" id="-92775">
		<tag k="name" v="Dennåa" />
		<tag k="ssr:stedsnr" v="437080" />
		<tag k="waterway" v="river" />
	</node>
	<node lat="63.318461109797084" lon="9.257063893459364" id="-92778">
		<tag k="name" v="Berdalselva" />
		<tag k="ssr:stedsnr" v="437205" />
		<tag k="waterway" v="stream" />
	</node>
	<node lat="63.31297777731387" lon="8.9219499921784" id="-92783">
		<tag k="name" v="Huslibekken" />
		<tag k="ssr:stedsnr" v="437540" />
		<tag k="waterway" v="stream" />
	</node>
	<node lat="63.39251111200395" lon="8.819591663406836" id="-92785">
		<tag k="alt_name" v="Skogholman" />
		<tag k="name" v="Skogholmen" />
		<tag k="place" v="islet" />
		<tag k="ssr:stedsnr" v="437636" />
	</node>
	<node lat="63.27792777889927" lon="8.887899997484798" id="-92792">
		<tag k="alt_name" v="Hyllvatnet, store" />
		<tag k="name" v="Store Hyllvatnet" />
		<tag k="natural" v="water" />
		<tag k="ssr:stedsnr" v="437588" />
		<tag k="water" v="lake" />
	</node>
	<node lat="63.34972777528129" lon="8.951602779948958" id="-92798">
		<tag k="name" v="Lægdelva" />
		<tag k="ssr:stedsnr" v="437688" />
		<tag k="waterway" v="river" />
	</node>
	<node lat="63.102455558235214" lon="8.235608335596233" id="-92808">
		<tag k="name" v="Kaldbergsvatnet" />
		<tag k="natural" v="water" />
		<tag k="ssr:stedsnr" v="437985" />
		<tag k="water" v="lake" />
	</node>
	<node lat="63.272724999960566" lon="9.122177787538726" id="-92813">
		<tag k="name" v="Høglitjønna" />
		<tag k="natural" v="water" />
		<tag k="ssr:stedsnr" v="438926" />
	</node>
	<node lat="63.12865833235479" lon="9.044455563961705" id="-92815">
		<tag k="name" v="Storbekken" />
		<tag k="ssr:stedsnr" v="497667" />
		<tag k="waterway" v="stream" />
	</node>
	<node lat="63.38460833314285" lon="8.796813896934214" id="-92827">
		<tag k="name" v="Rapbekken" />
		<tag k="ssr:stedsnr" v="497631" />
		<tag k="waterway" v="stream" />
	</node>
	<node lat="63.25136388619054" lon="9.205666675185139" id="-92830">
		<tag k="name" v="Strengvatnet" />
		<tag k="natural" v="water" />
		<tag k="ssr:stedsnr" v="497890" />
	</node>
	<node lat="63.124399997055214" lon="8.660305553929424" id="-92832">
		<tag k="name" v="Fjærlivatnet" />
		<tag k="natural" v="water" />
		<tag k="ssr:stedsnr" v="497986" />
	</node>
	<node lat="63.32008610771847" lon="9.314469448578976" id="-92833">
		<tag k="alt_name" v="Litletjørna" />
		<tag k="name" v="Litltjørna" />
		<tag k="natural" v="water" />
		<tag k="ssr:stedsnr" v="498216" />
	</node>
	<node lat="63.36451389160619" lon="9.057252787173017" id="-92835">
		<tag k="alt_name" v="Odd-dalsbekken" />
		<tag k="name" v="Oddalsbekken" />
		<tag k="ssr:stedsnr" v="498760" />
		<tag k="waterway" v="stream" />
	</node>
	<node lat="63.36477222043318" lon="8.931886109755961" id="-92837">
		<tag k="name" v="Seterneset" />
		<tag k="natural" v="cape" />
		<tag k="ssr:stedsnr" v="498765" />
	</node>
	<node lat="63.29209999772013" lon="9.346288897961902" id="-92840">
		<tag k="name" v="Svavatnet" />
		<tag k="natural" v="water" />
		<tag k="ssr:stedsnr" v="498266" />
	</node>
	<node lat="63.28236111134642" lon="9.23210277325161" id="-92841">
		<tag k="alt_name" v="Novbubekken" />
		<tag k="name" v="Nogbubekken" />
		<tag k="ssr:stedsnr" v="498276" />
		<tag k="waterway" v="stream" />
	</node>
	<node lat="63.26406944124244" lon="8.988241673173414" id="-92855">
		<tag k="name" v="Fiskåa" />
		<tag k="ssr:stedsnr" v="498924" />
		<tag k="waterway" v="stream" />
	</node>
	<node lat="63.23680378505359" lon="9.061274578802097" id="-92868">
		<tag k="name" v="Vollbekken" />
		<tag k="ssr:stedsnr" v="514200" />
		<tag k="waterway" v="stream" />
	</node>
	<node lat="63.2185694400731" lon="9.11481388384856" id="-92869">
		<tag k="name" v="Djupdalsbekken" />
		<tag k="ssr:stedsnr" v="514301" />
		<tag k="waterway" v="stream" />
	</node>
	<node lat="63.26102221834405" lon="8.924258335787954" id="-92875">
		<tag k="name" v="Skogsjøelva" />
		<tag k="ssr:stedsnr" v="514155" />
		<tag k="waterway" v="river" />
	</node>
	<node lat="63.23612500307176" lon="9.053541673801533" id="-92876">
		<tag k="name" v="Leirvassbukta" />
		<tag k="natural" v="bay" />
		<tag k="ssr:stedsnr" v="514218" />
	</node>
	<node lat="63.249794443364586" lon="9.206022226805288" id="-92880">
		<tag k="name" v="Fiskberget" />
		<tag k="natural" v="cape" />
		<tag k="ssr:stedsnr" v="514236" />
	</node>
	<node lat="63.248913892003365" lon="9.152786110799624" id="-92881">
		<tag k="name" v="Litltevatnet" />
		<tag k="natural" v="water" />
		<tag k="ssr:stedsnr" v="514246" />
	</node>
	<node lat="63.19940555733469" lon="9.096633331567569" id="-92886">
		<tag k="name" v="Seterbekken" />
		<tag k="ssr:stedsnr" v="514339" />
		<tag k="waterway" v="stream" />
	</node>
	<node lat="63.20419444894469" lon="9.117338894305764" id="-92887">
		<tag k="name" v="Rørobekken" />
		<tag k="ssr:stedsnr" v="514342" />
		<tag k="waterway" v="stream" />
	</node>
	<node lat="63.29902222542406" lon="8.968761107793998" id="-92892">
		<tag k="name" v="Gorrtjønna" />
		<tag k="natural" v="water" />
		<tag k="ssr:stedsnr" v="514447" />
	</node>
	<node lat="63.15008333706875" lon="9.116577771393063" id="-92896">
		<tag k="name" v="Vassråbekken" />
		<tag k="ssr:stedsnr" v="514458" />
		<tag k="waterway" v="stream" />
	</node>
	<node lat="63.152705554947325" lon="9.069591674019188" id="-92899">
		<tag k="name" v="Låvøya" />
		<tag k="place" v="island" />
		<tag k="ssr:stedsnr" v="514397" />
	</node>
	<node lat="63.42456944862787" lon="9.084172212421679" id="-92906">
		<tag k="name" v="Kringelbekken" />
		<tag k="ssr:stedsnr" v="514683" />
		<tag k="waterway" v="stream" />
	</node>
	<node lat="63.410447220120105" lon="9.020238893608418" id="-92910">
		<tag k="name" v="Bjørndalsbekken" />
		<tag k="ssr:stedsnr" v="514621" />
		<tag k="waterway" v="stream" />
	</node>
	<node lat="63.39887500187703" lon="9.02971945410693" id="-92921">
		<tag k="name" v="Simonsbekken" />
		<tag k="ssr:stedsnr" v="515656" />
		<tag k="waterway" v="stream" />
	</node>
	<node lat="63.365211111333366" lon="9.071322228936024" id="-92923">
		<tag k="name" v="Kleivslættbekken" />
		<tag k="ssr:stedsnr" v="515743" />
		<tag k="waterway" v="stream" />
	</node>
	<node lat="63.32231388464076" lon="9.093850002386992" id="-92924">
		<tag k="name" v="Langbekken" />
		<tag k="ssr:stedsnr" v="515826" />
		<tag k="waterway" v="stream" />
	</node>
	<node lat="63.209572226512705" lon="9.307800000691115" id="-92933">
		<tag k="name" v="Midttjønna" />
		<tag k="natural" v="water" />
		<tag k="ssr:stedsnr" v="515260" />
	</node>
	<node lat="63.18677500111267" lon="8.811530552165502" id="-92951">
		<tag k="name" v="Seterbekken" />
		<tag k="ssr:stedsnr" v="515901" />
		<tag k="waterway" v="stream" />
	</node>
	<node lat="63.20931666669327" lon="9.018647217545052" id="-92954">
		<tag k="name" v="Tjønnan" />
		<tag k="natural" v="water" />
		<tag k="ssr:stedsnr" v="515859" />
	</node>
	<node lat="63.32352499627685" lon="9.056902773054437" id="-92955">
		<tag k="name" v="Litlvasslibekken" />
		<tag k="ssr:stedsnr" v="515918" />
		<tag k="waterway" v="stream" />
	</node>
	<node lat="63.321519447059686" lon="9.056077768762638" id="-92956">
		<tag k="name" v="Seterbekken" />
		<tag k="ssr:stedsnr" v="515919" />
		<tag k="waterway" v="stream" />
	</node>
	<node lat="63.32701666776112" lon="9.244813890927471" id="-92970">
		<tag k="name" v="Litlnesbukta" />
		<tag k="natural" v="bay" />
		<tag k="ssr:stedsnr" v="518826" />
	</node>
	<node lat="63.14682222336364" lon="8.289325000014152" id="-92976">
		<tag k="name" v="Strandabekken" />
		<tag k="ssr:stedsnr" v="529965" />
		<tag k="waterway" v="stream" />
	</node>
	<node lat="63.325447222031094" lon="9.212427781502527" id="-92979">
		<tag k="alt_name" v="Sperillvatnet nedre" />
		<tag k="fixme" v="multiple name tags, choose one and add the other to alt_name" />
		<tag k="name" v="Sperillvatnet;Nedre Sperillvatnet" />
		<tag k="natural" v="water" />
		<tag k="ssr:stedsnr" v="531943" />
		<tag k="water" v="lake" />
	</node>
	<node lat="63.07383055582811" lon="8.56276111446148" id="-92986">
		<tag k="name" v="Pikholabekken" />
		<tag k="ssr:stedsnr" v="532267" />
		<tag k="waterway" v="stream" />
	</node>
	<node lat="63.11498333766756" lon="8.70861111185701" id="-92997">
		<tag k="name" v="Seterbekken" />
		<tag k="ssr:stedsnr" v="533101" />
		<tag k="waterway" v="stream" />
	</node>
	<node lat="63.04539999635314" lon="8.34665554956452" id="-93014">
		<tag k="name" v="Indre Vassdalsvatnet" />
		<tag k="natural" v="water" />
		<tag k="ssr:stedsnr" v="533159" />
		<tag k="water" v="lake" />
	</node>
	<node lat="63.1329694436557" lon="8.4925361196997" id="-93018">
		<tag k="name" v="Trollhaugbekken" />
		<tag k="ssr:stedsnr" v="533591" />
		<tag k="waterway" v="stream" />
	</node>
	<node lat="63.15954722444922" lon="8.755555554289012" id="-93023">
		<tag k="name" v="Ytre Skarbekken" />
		<tag k="ssr:stedsnr" v="533542" />
		<tag k="waterway" v="stream" />
	</node>
	<node lat="63.08046388770672" lon="8.219458337726767" id="-93024">
		<tag k="name" v="Skartjønna" />
		<tag k="natural" v="water" />
		<tag k="ssr:stedsnr" v="533698" />
	</node>
	<node lat="63.09062221921408" lon="8.25445833845416" id="-93027">
		<tag k="name" v="Seterbekken" />
		<tag k="ssr:stedsnr" v="533664" />
		<tag k="waterway" v="stream" />
	</node>
	<node lat="63.12496666431603" lon="8.391430564835739" id="-93029">
		<tag k="name" v="Randbekken" />
		<tag k="ssr:stedsnr" v="533751" />
		<tag k="waterway" v="stream" />
	</node>
	<node lat="63.13830555394711" lon="8.336308339429971" id="-93036">
		<tag k="name" v="Ytre Mebekk" />
		<tag k="ssr:stedsnr" v="533932" />
		<tag k="waterway" v="stream" />
	</node>
	<node lat="63.13360833676817" lon="8.620752778515191" id="-93037">
		<tag k="name" v="Fjærlielva" />
		<tag k="ssr:stedsnr" v="533848" />
		<tag k="waterway" v="stream" />
	</node>
	<node lat="63.09558611168973" lon="8.350108324509867" id="-93040">
		<tag k="name" v="Vollabekken" />
		<tag k="ssr:stedsnr" v="533990" />
		<tag k="waterway" v="stream" />
	</node>
	<node lat="63.16659721960376" lon="9.130072223101225" id="-93050">
		<tag k="name" v="Ruttjønna" />
		<tag k="natural" v="water" />
		<tag k="ssr:stedsnr" v="557785" />
	</node>
	<node lat="63.159241670236355" lon="8.601477774933388" id="-93056">
		<tag k="name" v="Rennhaugtjørna" />
		<tag k="natural" v="water" />
		<tag k="ssr:stedsnr" v="558087" />
	</node>
	<node lat="63.37788055633961" lon="8.865130546900811" id="-93058">
		<tag k="alt_name" v="Styggdalstjønna" />
		<tag k="name" v="Litl-Rennsjøen" />
		<tag k="natural" v="water" />
		<tag k="ssr:stedsnr" v="558759" />
	</node>
	<node lat="63.378000004261494" lon="8.898888892413368" id="-93059">
		<tag k="name" v="Vakkerdalstjønna" />
		<tag k="natural" v="water" />
		<tag k="ssr:stedsnr" v="558760" />
	</node>
	<node lat="63.36881111517712" lon="9.034150000609872" id="-93061">
		<tag k="alt_name" v="Køylo" />
		<tag k="name" v="Køyla" />
		<tag k="place" v="locality" />
		<tag k="ssr:stedsnr" v="558769" />
	</node>
	<node lat="63.36745000269797" lon="9.117363892245658" id="-93063">
		<tag k="name" v="Seterbekken" />
		<tag k="ssr:stedsnr" v="558775" />
		<tag k="waterway" v="stream" />
	</node>
	<node lat="63.36646111051642" lon="9.09128610836275" id="-93064">
		<tag k="name" v="Oddvatnet" />
		<tag k="natural" v="water" />
		<tag k="ssr:stedsnr" v="558777" />
	</node>
	<node lat="63.24778333713935" lon="8.87646944303446" id="-93065">
		<tag k="name" v="Skardsetervatnet" />
		<tag k="natural" v="water" />
		<tag k="ssr:stedsnr" v="558883" />
	</node>
	<node lat="63.28185555802471" lon="8.855627773829244" id="-93072">
		<tag k="name" v="Kristoffertjønnin" />
		<tag k="natural" v="water" />
		<tag k="ssr:stedsnr" v="558618" />
	</node>
	<node lat="63.33201944635313" lon="8.955425008270597" id="-93080">
		<tag k="name" v="Stengvatnet" />
		<tag k="natural" v="water" />
		<tag k="ssr:stedsnr" v="558583" />
		<tag k="water" v="lake" />
	</node>
	<node lat="63.297586109172975" lon="9.046772226495916" id="-93081">
		<tag k="name" v="Haugaelva" />
		<tag k="ssr:stedsnr" v="558588" />
		<tag k="waterway" v="river" />
	</node>
	<node lat="63.39263888806386" lon="9.106036113156186" id="-93082">
		<tag k="fixme" v="multiple name tags, choose one and add the other to alt_name" />
		<tag k="name" v="Djupdalsvatnet;Djupdalstjønna" />
		<tag k="natural" v="water" />
		<tag k="ssr:stedsnr" v="558671" />
	</node>
	<node lat="63.3853388871774" lon="8.86685277289552" id="-93083">
		<tag k="name" v="Svarttjønna" />
		<tag k="natural" v="water" />
		<tag k="ssr:stedsnr" v="558674" />
	</node>
	<node lat="63.08088055305621" lon="8.669186102749634" id="-93086">
		<tag k="name" v="Litlreinslivatnet" />
		<tag k="natural" v="water" />
		<tag k="ssr:stedsnr" v="558915" />
	</node>
	<node lat="63.08176388944949" lon="8.603586114746262" id="-93088">
		<tag k="name" v="Smedhaugbekken" />
		<tag k="ssr:stedsnr" v="558919" />
		<tag k="waterway" v="stream" />
	</node>
	<node lat="63.05488889027307" lon="8.427019442674402" id="-93090">
		<tag k="name" v="Haugavatnet" />
		<tag k="natural" v="water" />
		<tag k="ssr:stedsnr" v="558936" />
	</node>
	<node lat="63.3541000002346" lon="9.36840000634441" id="-93092">
		<tag k="name" v="Svarttjørna" />
		<tag k="natural" v="water" />
		<tag k="ssr:stedsnr" v="559122" />
	</node>
	<node lat="63.2974944468805" lon="9.28588055974557" id="-93096">
		<tag k="name" v="Grønlivatnet" />
		<tag k="natural" v="water" />
		<tag k="ssr:stedsnr" v="559172" />
	</node>
	<node lat="63.2783583361577" lon="9.295555561424797" id="-93097">
		<tag k="name" v="Kvernabekken" />
		<tag k="ssr:stedsnr" v="559223" />
		<tag k="waterway" v="stream" />
	</node>
	<node lat="63.267988892985706" lon="9.205269447055267" id="-93104">
		<tag k="name" v="Svarttjønna" />
		<tag k="natural" v="water" />
		<tag k="ssr:stedsnr" v="559910" />
	</node>
	<node lat="63.36078055891222" lon="9.12745833576691" id="-93111">
		<tag k="name" v="Storbekken" />
		<tag k="ssr:stedsnr" v="575777" />
		<tag k="waterway" v="stream" />
	</node>
	<node lat="63.18849166407324" lon="8.950261103429284" id="-93113">
		<tag k="name" v="Berhalsbekken" />
		<tag k="ssr:stedsnr" v="575785" />
		<tag k="waterway" v="stream" />
	</node>
	<node lat="63.177902781381626" lon="8.94419999132413" id="-93114">
		<tag k="name" v="Brannhaugsanden" />
		<tag k="natural" v="bay" />
		<tag k="ssr:stedsnr" v="575788" />
	</node>
	<node lat="63.289519441165325" lon="9.246813881251283" id="-93116">
		<tag k="name" v="Bjørnbettbekken" />
		<tag k="ssr:stedsnr" v="575929" />
		<tag k="waterway" v="stream" />
	</node>
	<node lat="63.2948250043321" lon="9.067352768176903" id="-93118">
		<tag k="name" v="Haugafossen" />
		<tag k="natural" v="waterfall" />
		<tag k="ssr:stedsnr" v="575050" />
	</node>
	<node lat="63.23975555712842" lon="8.958416668728935" id="-93121">
		<tag k="name" v="Nyseterlona" />
		<tag k="natural" v="water" />
		<tag k="ssr:stedsnr" v="575152" />
		<tag k="water" v="lake" />
	</node>
	<node lat="63.22541111404592" lon="9.256644446700463" id="-93126">
		<tag k="name" v="Kvernabekken" />
		<tag k="ssr:stedsnr" v="575237" />
		<tag k="waterway" v="stream" />
	</node>
	<node lat="63.19162499872415" lon="9.061269436634326" id="-93134">
		<tag k="name" v="Jamdalsbekken" />
		<tag k="ssr:stedsnr" v="575271" />
		<tag k="waterway" v="stream" />
	</node>
	<node lat="63.18114722504681" lon="9.030850006804291" id="-93142">
		<tag k="name" v="Larsdalsbekken" />
		<tag k="ssr:stedsnr" v="575338" />
		<tag k="waterway" v="stream" />
	</node>
	<node lat="63.395886113843865" lon="9.021322214057479" id="-93148">
		<tag k="name" v="Langdalsbekken" />
		<tag k="ssr:stedsnr" v="575628" />
		<tag k="waterway" v="stream" />
	</node>
	<node lat="63.39756666891731" lon="9.012930562989549" id="-93150">
		<tag k="name" v="Køylo" />
		<tag k="ssr:stedsnr" v="575630" />
		<tag k="waterway" v="stream" />
	</node>
	<node lat="63.14945000051969" lon="8.863633335163204" id="-93158">
		<tag k="name" v="Litlvatnet" />
		<tag k="natural" v="water" />
		<tag k="ssr:stedsnr" v="575581" />
		<tag k="water" v="lake" />
	</node>
	<node lat="63.35633888891739" lon="8.962994437387703" id="-93184">
		<tag k="name" v="Dalabekken" />
		<tag k="ssr:stedsnr" v="575837" />
		<tag k="waterway" v="stream" />
	</node>
	<node lat="63.3423138911379" lon="9.25621667207221" id="-93190">
		<tag k="name" v="Storbekken" />
		<tag k="ssr:stedsnr" v="579161" />
		<tag k="waterway" v="stream" />
	</node>
	<node lat="63.33529721879967" lon="9.25548611281399" id="-93196">
		<tag k="name" v="Vikabekken" />
		<tag k="ssr:stedsnr" v="579837" />
		<tag k="waterway" v="stream" />
	</node>
	<node lat="63.14054166423773" lon="8.300847225619716" id="-93200">
		<tag k="name" v="Bjønndalsbekken" />
		<tag k="ssr:stedsnr" v="589957" />
		<tag k="waterway" v="stream" />
	</node>
	<node lat="63.09233055721481" lon="8.259419447006685" id="-93202">
		<tag k="name" v="Seterbekken" />
		<tag k="ssr:stedsnr" v="592001" />
		<tag k="waterway" v="stream" />
	</node>
	<node lat="63.08225833768798" lon="8.418400005026138" id="-93215">
		<tag k="name" v="Tunga" />
		<tag k="natural" v="cape" />
		<tag k="ssr:stedsnr" v="592837" />
	</node>
	<node lat="63.088116662282395" lon="8.262486114572972" id="-93223">
		<tag k="name" v="Trollhaugbekken" />
		<tag k="ssr:stedsnr" v="593666" />
		<tag k="waterway" v="stream" />
	</node>
	<node lat="63.11349166971054" lon="8.401930565178116" id="-93225">
		<tag k="name" v="Svarthammarbekken" />
		<tag k="ssr:stedsnr" v="593680" />
		<tag k="waterway" v="stream" />
	</node>
	<node lat="63.05311389323517" lon="8.239724993219141" id="-93231">
		<tag k="name" v="Langbekken" />
		<tag k="ssr:stedsnr" v="594623" />
		<tag k="waterway" v="stream" />
	</node>
	<node lat="63.09940555342163" lon="8.340022215035564" id="-93233">
		<tag k="name" v="Bakktjønna" />
		<tag k="natural" v="water" />
		<tag k="ssr:stedsnr" v="593973" />
	</node>
	<node lat="63.072877776785965" lon="8.65237777708183" id="-93250">
		<tag k="name" v="Fingerklevtjønna" />
		<tag k="natural" v="water" />
		<tag k="ssr:stedsnr" v="594887" />
	</node>
	<node lat="63.101933333434076" lon="8.353086106436884" id="-93263">
		<tag k="name" v="Dalabekken" />
		<tag k="ssr:stedsnr" v="618995" />
		<tag k="waterway" v="stream" />
	</node>
	<node lat="63.10187777864973" lon="8.39558610166753" id="-93264">
		<tag k="name" v="Steinsetertjørna" />
		<tag k="natural" v="water" />
		<tag k="ssr:stedsnr" v="618996" />
	</node>
	<node lat="63.21228055675651" lon="9.245063883188198" id="-93269">
		<tag k="name" v="Vikatjønna" />
		<tag k="natural" v="water" />
		<tag k="ssr:stedsnr" v="619594" />
	</node>
	<node lat="63.29919999731188" lon="8.875288891741011" id="-93273">
		<tag k="name" v="Skottjønna" />
		<tag k="natural" v="water" />
		<tag k="ssr:stedsnr" v="619630" />
	</node>
	<node lat="63.35853365090966" lon="9.027497714675878" id="-93278">
		<tag k="fixme" v="multiple name tags, choose one and add the other to alt_name" />
		<tag k="name" v="Liaelva;Røsta" />
		<tag k="ssr:stedsnr" v="619663" />
		<tag k="waterway" v="river" />
	</node>
	<node lat="63.08684166399511" lon="8.528458329316841" id="-93283">
		<tag k="name" v="Hjelmåa" />
		<tag k="ssr:stedsnr" v="619927" />
		<tag k="waterway" v="river" />
	</node>
	<node lat="63.07677500424893" lon="8.3510333392093" id="-93284">
		<tag k="name" v="Gammelsagelva" />
		<tag k="ssr:stedsnr" v="619928" />
		<tag k="waterway" v="stream" />
	</node>
	<node lat="63.27317777655146" lon="8.832116670312594" id="-93287">
		<tag k="name" v="Storlivatnet" />
		<tag k="natural" v="water" />
		<tag k="ssr:stedsnr" v="619945" />
	</node>
	<node lat="63.24744999960616" lon="8.9079944349198" id="-93294">
		<tag k="name" v="Prestslættbekken" />
		<tag k="ssr:stedsnr" v="635139" />
		<tag k="waterway" v="stream" />
	</node>
	<node lat="63.2485833293477" lon="8.905888893727417" id="-93295">
		<tag k="name" v="Prestslættjønna" />
		<tag k="natural" v="water" />
		<tag k="ssr:stedsnr" v="635140" />
	</node>
	<node lat="63.20416388559564" lon="9.055477778932588" id="-93304">
		<tag k="name" v="Kleivbekken" />
		<tag k="ssr:stedsnr" v="635352" />
		<tag k="waterway" v="stream" />
	</node>
	<node lat="63.141302780395336" lon="9.054400007501387" id="-93305">
		<tag k="name" v="Anderslifjelltjønna" />
		<tag k="natural" v="water" />
		<tag k="ssr:stedsnr" v="635429" />
	</node>
	<node lat="63.278900001597655" lon="9.173494443782275" id="-93308">
		<tag k="name" v="Hyllbekken" />
		<tag k="ssr:stedsnr" v="635021" />
		<tag k="waterway" v="stream" />
	</node>
	<node lat="63.256808337515814" lon="9.13738332621736" id="-93311">
		<tag k="name" v="Mårtjønnholet" />
		<tag k="natural" v="water" />
		<tag k="ssr:stedsnr" v="635082" />
	</node>
	<node lat="63.26589721964499" lon="9.10491388038432" id="-93312">
		<tag k="name" v="Grønodden" />
		<tag k="natural" v="cape" />
		<tag k="ssr:stedsnr" v="635085" />
	</node>
	<node lat="63.138358331244184" lon="9.078277782302342" id="-93322">
		<tag k="name" v="Steinbuøya" />
		<tag k="place" v="island" />
		<tag k="ssr:stedsnr" v="635422" />
	</node>
	<node lat="63.22479166543855" lon="9.239013890400493" id="-93325">
		<tag k="name" v="Litldalabekken" />
		<tag k="ssr:stedsnr" v="635245" />
		<tag k="waterway" v="stream" />
	</node>
	<node lat="63.347216664065314" lon="9.04785000269397" id="-93339">
		<tag k="name" v="Almlibekken" />
		<tag k="ssr:stedsnr" v="635750" />
		<tag k="waterway" v="stream" />
	</node>
	<node lat="63.38163888657416" lon="9.139338883953286" id="-93347">
		<tag k="name" v="Liabekken" />
		<tag k="ssr:stedsnr" v="635700" />
		<tag k="waterway" v="stream" />
	</node>
	<node lat="63.31047222203429" lon="9.062577779868807" id="-93355">
		<tag k="name" v="Fanabekken" />
		<tag k="ssr:stedsnr" v="635972" />
		<tag k="waterway" v="stream" />
	</node>
	<node lat="63.183397223460055" lon="8.785008340340335" id="-93371">
		<tag k="name" v="Gammelelva" />
		<tag k="ssr:stedsnr" v="636861" />
		<tag k="waterway" v="stream" />
	</node>
	<node lat="63.33009166996482" lon="9.05787778426263" id="-93373">
		<tag k="name" v="Flessbekken" />
		<tag k="ssr:stedsnr" v="636937" />
		<tag k="waterway" v="stream" />
	</node>
	<node lat="63.180649999626105" lon="8.85608334051434" id="-93380">
		<tag k="name" v="Djupdalsbekken" />
		<tag k="ssr:stedsnr" v="636918" />
		<tag k="waterway" v="stream" />
	</node>
	<node lat="63.373708332833566" lon="8.883563898053499" id="-93382">
		<tag k="name" v="Djuptjønna" />
		<tag k="natural" v="water" />
		<tag k="ssr:stedsnr" v="636973" />
	</node>
	<node lat="63.05958888960908" lon="8.363977772866946" id="-93387">
		<tag k="name" v="Måsvasselva" />
		<tag k="ssr:stedsnr" v="654155" />
		<tag k="waterway" v="stream" />
	</node>
	<node lat="63.08891110908432" lon="8.719266673651813" id="-93391">
		<tag k="name" v="Bekkjakroktjønna" />
		<tag k="natural" v="water" />
		<tag k="ssr:stedsnr" v="641958" />
	</node>
	<node lat="63.10837500147508" lon="8.367305559343702" id="-93401">
		<tag k="name" v="Stigabekken" />
		<tag k="ssr:stedsnr" v="654050" />
		<tag k="waterway" v="stream" />
	</node>
	<node lat="63.09115555950238" lon="8.704491669441898" id="-93403">
		<tag k="name" v="Rånnabekken" />
		<tag k="ssr:stedsnr" v="654062" />
		<tag k="waterway" v="stream" />
	</node>
	<node lat="63.117616664846516" lon="8.299313885720263" id="-93405">
		<tag k="name" v="Trøbekken" />
		<tag k="ssr:stedsnr" v="654068" />
		<tag k="waterway" v="stream" />
	</node>
	<node lat="63.089622217955295" lon="8.607733339810858" id="-93410">
		<tag k="name" v="Fagerlibekken" />
		<tag k="ssr:stedsnr" v="654431" />
		<tag k="waterway" v="stream" />
	</node>
	<node lat="63.075808330967256" lon="8.59468889194028" id="-93415">
		<tag k="name" v="Lomtjønna" />
		<tag k="natural" v="water" />
		<tag k="ssr:stedsnr" v="654476" />
	</node>
	<node lat="63.081038890075455" lon="8.587325003408191" id="-93416">
		<tag k="name" v="Rånan" />
		<tag k="natural" v="bay" />
		<tag k="ssr:stedsnr" v="654477" />
	</node>
	<node lat="63.16232778110608" lon="8.71945276977478" id="-93417">
		<tag k="name" v="Krontjønna" />
		<tag k="natural" v="water" />
		<tag k="ssr:stedsnr" v="654657" />
	</node>
	<node lat="63.1282833309097" lon="8.794686120331686" id="-93422">
		<tag k="name" v="Dalafjelltjønna" />
		<tag k="natural" v="water" />
		<tag k="ssr:stedsnr" v="654756" />
	</node>
	<node lat="63.12912222242514" lon="8.267422221306154" id="-93434">
		<tag k="name" v="Skålvikselva" />
		<tag k="ssr:stedsnr" v="654924" />
		<tag k="waterway" v="stream" />
	</node>
	<node lat="63.02877777872202" lon="8.259486102138707" id="-93449">
		<tag k="name" v="Ringabekken" />
		<tag k="ssr:stedsnr" v="714170" />
		<tag k="waterway" v="stream" />
	</node>
	<node lat="63.122355559371776" lon="8.551538884636747" id="-93458">
		<tag k="name" v="Tverrfjellbekken" />
		<tag k="ssr:stedsnr" v="714552" />
		<tag k="waterway" v="stream" />
	</node>
	<node lat="63.103266668769855" lon="8.723833339775258" id="-93473">
		<tag k="name" v="Grønelva" />
		<tag k="ssr:stedsnr" v="715084" />
		<tag k="waterway" v="stream" />
	</node>
	<node lat="63.15146666613281" lon="8.772255563804912" id="-93479">
		<tag k="name" v="Høgsvadalbekken" />
		<tag k="ssr:stedsnr" v="715556" />
		<tag k="waterway" v="stream" />
	</node>
	<node lat="63.079674996266164" lon="8.581061113524497" id="-93487">
		<tag k="name" v="Nonsfjellbekken" />
		<tag k="ssr:stedsnr" v="715487" />
		<tag k="waterway" v="stream" />
	</node>
	<node lat="63.082100004496304" lon="8.580761119463459" id="-93488">
		<tag k="name" v="Stordalsbekken" />
		<tag k="ssr:stedsnr" v="715488" />
		<tag k="waterway" v="stream" />
	</node>
	<node lat="63.1584972249974" lon="8.596305549848012" id="-93491">
		<tag k="name" v="Litl Reinhaugtjønna" />
		<tag k="natural" v="water" />
		<tag k="ssr:stedsnr" v="715745" />
	</node>
	<node lat="63.16403888595869" lon="8.609186105720314" id="-93493">
		<tag k="name" v="Rendalselva" />
		<tag k="ssr:stedsnr" v="715754" />
		<tag k="waterway" v="stream" />
	</node>
	<node lat="63.13689444031468" lon="8.783047227959754" id="-93501">
		<tag k="name" v="Årøya" />
		<tag k="place" v="island" />
		<tag k="ssr:stedsnr" v="715840" />
	</node>
	<node lat="63.090900003337715" lon="8.364883331245817" id="-93503">
		<tag k="name" v="Pestubekken" />
		<tag k="ssr:stedsnr" v="715975" />
		<tag k="waterway" v="stream" />
	</node>
	<node lat="63.173411111342524" lon="8.741297217682824" id="-93504">
		<tag k="name" v="Fonnvegbekken" />
		<tag k="ssr:stedsnr" v="715979" />
		<tag k="waterway" v="stream" />
	</node>
	<node lat="63.07941666998088" lon="8.657622223355286" id="-93509">
		<tag k="name" v="Vabekken" />
		<tag k="ssr:stedsnr" v="715901" />
		<tag k="waterway" v="stream" />
	</node>
	<node lat="63.3392916647773" lon="9.041702782238023" id="-93519">
		<tag k="alt_name" v="Stor Økselvatnet" />
		<tag k="name" v="Økselvatnet" />
		<tag k="natural" v="water" />
		<tag k="ssr:stedsnr" v="740533" />
		<tag k="water" v="lake" />
	</node>
	<node lat="63.339349998711256" lon="9.103905553100711" id="-93520">
		<tag k="alt_name" v="Seterelva" />
		<tag k="name" v="Lerneselva" />
		<tag k="ssr:stedsnr" v="740536" />
		<tag k="waterway" v="stream" />
	</node>
	<node lat="63.244627779696096" lon="9.234627769681548" id="-93521">
		<tag k="name" v="Øvre Middagslitjønna" />
		<tag k="natural" v="water" />
		<tag k="ssr:stedsnr" v="740659" />
	</node>
	<node lat="63.26539167049717" lon="9.339136111542299" id="-93541">
		<tag k="name" v="Pollen" />
		<tag k="natural" v="water" />
		<tag k="ssr:stedsnr" v="741002" />
	</node>
	<node lat="63.31227499792047" lon="9.299355548944662" id="-93544">
		<tag k="name" v="Grastjørna" />
		<tag k="natural" v="water" />
		<tag k="ssr:stedsnr" v="741242" />
	</node>
	<node lat="63.28418889278316" lon="9.274922226475733" id="-93547">
		<tag k="name" v="Kjellsvatnet" />
		<tag k="natural" v="water" />
		<tag k="ssr:stedsnr" v="741276" />
	</node>
	<node lat="63.28466111124062" lon="8.8997555563773" id="-93554">
		<tag k="name" v="Litlmorrovatnet" />
		<tag k="natural" v="water" />
		<tag k="ssr:stedsnr" v="741660" />
	</node>
	<node lat="63.25927499776555" lon="8.919525007985472" id="-93556">
		<tag k="alt_name" v="Storskogsjøen" />
		<tag k="name" v="Skogsjøen" />
		<tag k="natural" v="water" />
		<tag k="ssr:stedsnr" v="741927" />
	</node>
	<node lat="63.26848888783597" lon="8.861930556480239" id="-93562">
		<tag k="name" v="Erklivatnet" />
		<tag k="natural" v="water" />
		<tag k="ssr:stedsnr" v="741943" />
	</node>
	<node lat="63.265786109066156" lon="8.910838888047614" id="-93563">
		<tag k="name" v="Tjønnslættjønna" />
		<tag k="natural" v="water" />
		<tag k="ssr:stedsnr" v="741946" />
	</node>
	<node lat="63.286849997135725" lon="8.982055552873687" id="-93567">
		<tag k="name" v="Bjørkseterbekken" />
		<tag k="ssr:stedsnr" v="754741" />
		<tag k="waterway" v="stream" />
	</node>
	<node lat="63.282074998448785" lon="9.106388887964359" id="-93570">
		<tag k="name" v="Seterbekken" />
		<tag k="ssr:stedsnr" v="757036" />
		<tag k="waterway" v="stream" />
	</node>
	<node lat="63.4095805520773" lon="8.83628333112357" id="-93575">
		<tag k="name" v="Svarthammartjønna" />
		<tag k="natural" v="water" />
		<tag k="ssr:stedsnr" v="757944" />
	</node>
	<node lat="63.26153055809995" lon="9.020069451581387" id="-93582">
		<tag k="name" v="Lenesodden" />
		<tag k="natural" v="cape" />
		<tag k="ssr:stedsnr" v="757094" />
	</node>
	<node lat="63.2417916673911" lon="9.059283337456806" id="-93587">
		<tag k="name" v="Rørbekken" />
		<tag k="ssr:stedsnr" v="757177" />
		<tag k="waterway" v="stream" />
	</node>
	<node lat="63.2438972221599" lon="9.053869440952184" id="-93588">
		<tag k="name" v="Seljurdbukta" />
		<tag k="natural" v="bay" />
		<tag k="ssr:stedsnr" v="757184" />
	</node>
	<node lat="63.21475555391363" lon="9.25238333941355" id="-93593">
		<tag k="name" v="Vikabekken" />
		<tag k="ssr:stedsnr" v="757233" />
		<tag k="waterway" v="stream" />
	</node>
	<node lat="63.19262499950999" lon="9.028577772283889" id="-93596">
		<tag k="name" v="Baklibekken" />
		<tag k="ssr:stedsnr" v="757331" />
		<tag k="waterway" v="stream" />
	</node>
	<node lat="63.27687499751963" lon="9.109413892270402" id="-93600">
		<tag k="name" v="Kattatjønna" />
		<tag k="natural" v="water" />
		<tag k="ssr:stedsnr" v="757427" />
	</node>
	<node lat="63.22628888629688" lon="9.02560000138156" id="-93601">
		<tag k="name" v="Storstavåsbekken" />
		<tag k="ssr:stedsnr" v="757520" />
		<tag k="waterway" v="stream" />
	</node>
	<node lat="63.22358610725842" lon="9.307844451752757" id="-93607">
		<tag k="name" v="Svabergdalsbekken" />
		<tag k="ssr:stedsnr" v="757473" />
		<tag k="waterway" v="stream" />
	</node>
	<node lat="63.201894443999045" lon="9.070141658885337" id="-93608">
		<tag k="name" v="Djupdalsbekken" />
		<tag k="ssr:stedsnr" v="757479" />
		<tag k="waterway" v="stream" />
	</node>
	<node lat="63.40650278019642" lon="8.99966388332425" id="-93620">
		<tag k="name" v="Åosen" />
		<tag k="natural" v="bay" />
		<tag k="ssr:stedsnr" v="757644" />
	</node>
	<node lat="63.42259166409375" lon="8.799900001088682" id="-93623">
		<tag k="name" v="Taftøyelva" />
		<tag k="ssr:stedsnr" v="757733" />
		<tag k="waterway" v="stream" />
	</node>
	<node lat="63.356905553013505" lon="9.053191676569291" id="-93625">
		<tag k="name" v="Kringel-libekken" />
		<tag k="ssr:stedsnr" v="757737" />
		<tag k="waterway" v="stream" />
	</node>
	<node lat="63.1706111121931" lon="8.912733332926436" id="-93629">
		<tag k="name" v="Seter-bekken" />
		<tag k="ssr:stedsnr" v="757796" />
		<tag k="waterway" v="stream" />
	</node>
	<node lat="63.172752778587984" lon="8.948566657557343" id="-93630">
		<tag k="name" v="Innerelva" />
		<tag k="ssr:stedsnr" v="757799" />
		<tag k="waterway" v="river" />
	</node>
	<node lat="63.17403055476398" lon="8.952124993193376" id="-93643">
		<tag k="name" v="Skiftnes-bekken" />
		<tag k="ssr:stedsnr" v="757780" />
		<tag k="waterway" v="stream" />
	</node>
	<node lat="63.3723722192604" lon="9.102822229097493" id="-93645">
		<tag k="name" v="Tverrelva" />
		<tag k="ssr:stedsnr" v="757782" />
		<tag k="waterway" v="stream" />
	</node>
	<node lat="63.18606388970963" lon="8.928902770753659" id="-93648">
		<tag k="alt_name" v="Haukvik-elva" />
		<tag k="name" v="Haukvikelva" />
		<tag k="ssr:stedsnr" v="757793" />
		<tag k="waterway" v="stream" />
	</node>
	<node lat="63.362597219012045" lon="8.94985833921842" id="-93651">
		<tag k="name" v="Kalvtrøneset" />
		<tag k="natural" v="cape" />
		<tag k="ssr:stedsnr" v="757833" />
	</node>
	<node lat="63.19258888582219" lon="8.949288883652976" id="-93653">
		<tag k="name" v="Berhalsbekken" />
		<tag k="ssr:stedsnr" v="757866" />
		<tag k="waterway" v="stream" />
	</node>
	<node lat="63.301774995692256" lon="9.233036107112678" id="-93657">
		<tag k="name" v="Dyrbendlibekken" />
		<tag k="ssr:stedsnr" v="757888" />
		<tag k="waterway" v="stream" />
	</node>
	<node lat="63.156302777985495" lon="8.931622216410053" id="-93663">
		<tag k="name" v="Perslættbekken" />
		<tag k="ssr:stedsnr" v="757976" />
		<tag k="waterway" v="stream" />
	</node>
	<node lat="63.18339166678291" lon="8.773650007686648" id="-93667">
		<tag k="name" v="Sommar-fjøsbekken" />
		<tag k="ssr:stedsnr" v="757990" />
		<tag k="waterway" v="stream" />
	</node>
	<node lat="63.20725278143231" lon="9.195483330747429" id="-93669">
		<tag k="name" v="Kambekken" />
		<tag k="ssr:stedsnr" v="758366" />
		<tag k="waterway" v="stream" />
	</node>
	<node lat="63.09861389308439" lon="8.33592499937137" id="-93695">
		<tag k="name" v="Hamnabekken" />
		<tag k="ssr:stedsnr" v="775979" />
		<tag k="waterway" v="stream" />
	</node>
	<node lat="63.14627777758004" lon="8.726686118511847" id="-93705">
		<tag k="name" v="Storvassbekken" />
		<tag k="ssr:stedsnr" v="775696" />
		<tag k="waterway" v="stream" />
	</node>
	<node lat="63.102080555449305" lon="8.512272213927755" id="-93716">
		<tag k="name" v="Ådalselva" />
		<tag k="ssr:stedsnr" v="776430" />
		<tag k="waterway" v="river" />
	</node>
	<node lat="63.16556666788174" lon="8.597011102677017" id="-93722">
		<tag k="name" v="Orbekken" />
		<tag k="ssr:stedsnr" v="776731" />
		<tag k="waterway" v="stream" />
	</node>
	<node lat="63.10030833445077" lon="8.431408336441072" id="-93725">
		<tag k="name" v="Rundtjønna" />
		<tag k="natural" v="water" />
		<tag k="ssr:stedsnr" v="776661" />
	</node>
	<node lat="63.12303889157049" lon="8.490361108180343" id="-93726">
		<tag k="name" v="Otneselva" />
		<tag k="ssr:stedsnr" v="776669" />
		<tag k="waterway" v="stream" />
	</node>
	<node lat="63.17614722240669" lon="8.653988894664307" id="-93731">
		<tag k="name" v="Hamnasanden" />
		<tag k="natural" v="beach" />
		<tag k="ssr:stedsnr" v="776889" />
	</node>
	<node lat="63.387733331853106" lon="8.972086118417987" id="-93740">
		<tag k="name" v="Svanemselva" />
		<tag k="ssr:stedsnr" v="801631" />
		<tag k="waterway" v="river" />
	</node>
	<node lat="63.12063611033413" lon="8.919472218981964" id="-93753">
		<tag k="name" v="Vardfjelltjønna" />
		<tag k="natural" v="water" />
		<tag k="ssr:stedsnr" v="801667" />
	</node>
	<node lat="63.238030553403775" lon="9.148505554129228" id="-93755">
		<tag k="name" v="Fjellslættvatnet" />
		<tag k="natural" v="water" />
		<tag k="ssr:stedsnr" v="801743" />
	</node>
	<node lat="63.22451388846026" lon="9.064199993069348" id="-93757">
		<tag k="name" v="Seterdalsbekken" />
		<tag k="ssr:stedsnr" v="801757" />
		<tag k="waterway" v="stream" />
	</node>
	<node lat="63.27942777355831" lon="8.988077770008687" id="-93760">
		<tag k="name" v="Seterelva" />
		<tag k="ssr:stedsnr" v="802161" />
		<tag k="waterway" v="river" />
	</node>
	<node lat="63.29926111293303" lon="9.346775008284771" id="-93761">
		<tag k="name" v="Litlegråurdtjørna" />
		<tag k="natural" v="water" />
		<tag k="ssr:stedsnr" v="802225" />
	</node>
	<node lat="63.255283336602666" lon="9.075700001293178" id="-93772">
		<tag k="name" v="Vinddalstjønna" />
		<tag k="natural" v="water" />
		<tag k="ssr:stedsnr" v="802928" />
	</node>
	<node lat="63.2574777808846" lon="9.126294451391779" id="-93773">
		<tag k="name" v="Langvatnet" />
		<tag k="natural" v="water" />
		<tag k="ssr:stedsnr" v="802929" />
	</node>
	<node lat="63.16208610954376" lon="9.075261105340926" id="-93787">
		<tag k="name" v="Øverlibekken" />
		<tag k="ssr:stedsnr" v="818374" />
		<tag k="waterway" v="stream" />
	</node>
	<node lat="63.260274999582805" lon="8.909400001019176" id="-93796">
		<tag k="name" v="Kopparbekken" />
		<tag k="ssr:stedsnr" v="818110" />
		<tag k="waterway" v="stream" />
	</node>
	<node lat="63.34139444350561" lon="9.054772215748466" id="-93807">
		<tag k="name" v="Litl Økselvatnet" />
		<tag k="natural" v="water" />
		<tag k="ssr:stedsnr" v="818761" />
		<tag k="water" v="lake" />
	</node>
	<node lat="63.14525277890354" lon="9.119186110226343" id="-93816">
		<tag k="name" v="Gammelbutjønna" />
		<tag k="natural" v="water" />
		<tag k="ssr:stedsnr" v="818415" />
	</node>
	<node lat="63.14761388682943" lon="9.134308340759427" id="-93822">
		<tag k="name" v="Kløftbekken" />
		<tag k="ssr:stedsnr" v="818448" />
		<tag k="waterway" v="stream" />
	</node>
	<node lat="63.399572226360384" lon="9.122566656988544" id="-93845">
		<tag k="name" v="Kattaviktjønna" />
		<tag k="natural" v="water" />
		<tag k="ssr:stedsnr" v="818660" />
	</node>
	<node lat="63.366502782185236" lon="9.14764445052949" id="-93854">
		<tag k="name" v="Langbekken" />
		<tag k="ssr:stedsnr" v="818716" />
		<tag k="waterway" v="stream" />
	</node>
	<node lat="63.241780552019065" lon="9.059272226386014" id="-93857">
		<tag k="name" v="Rølbekken" />
		<tag k="ssr:stedsnr" v="818779" />
		<tag k="waterway" v="stream" />
	</node>
	<node lat="63.37810278083057" lon="8.954038896246066" id="-93858">
		<tag k="name" v="Midteidet" />
		<tag k="place" v="locality" />
		<tag k="ssr:stedsnr" v="818785" />
	</node>
	<node lat="63.19812222663787" lon="8.97832499927923" id="-93874">
		<tag k="name" v="Vollabekken" />
		<tag k="ssr:stedsnr" v="818895" />
		<tag k="waterway" v="stream" />
	</node>
	<node lat="63.30143888746749" lon="8.930486112764829" id="-93883">
		<tag k="name" v="Litlskjerlivatnet" />
		<tag k="natural" v="water" />
		<tag k="ssr:stedsnr" v="818947" />
	</node>
	<node lat="63.18285277700038" lon="8.980597222504628" id="-93884">
		<tag k="name" v="Spjøtstoen" />
		<tag k="natural" v="water" />
		<tag k="ssr:stedsnr" v="818958" />
		<tag k="water" v="lake" />
	</node>
	<node lat="63.231238892593154" lon="9.344527767960466" id="-93899">
		<tag k="name" v="Sagbekken" />
		<tag k="ssr:stedsnr" v="831620" />
		<tag k="waterway" v="stream" />
	</node>
	<node lat="63.13088055979354" lon="8.306149990628375" id="-93903">
		<tag k="name" v="Kvilarneset" />
		<tag k="natural" v="cape" />
		<tag k="ssr:stedsnr" v="834996" />
	</node>
	<node lat="63.13267222592093" lon="8.319249996137883" id="-93904">
		<tag k="name" v="Rausand" />
		<tag k="natural" v="beach" />
		<tag k="ssr:stedsnr" v="835000" />
	</node>
	<node lat="63.123980552532416" lon="8.290791661438206" id="-93905">
		<tag k="name" v="Ytre-Våglandelva" />
		<tag k="ssr:stedsnr" v="836055" />
		<tag k="waterway" v="stream" />
	</node>
	<node lat="63.079030555422285" lon="8.534672230258083" id="-93907">
		<tag k="name" v="Svartdalsbekken" />
		<tag k="ssr:stedsnr" v="836250" />
		<tag k="waterway" v="stream" />
	</node>
	<node lat="63.16425832976845" lon="8.607461112447876" id="-93950">
		<tag k="name" v="Rendalsetra" />
		<tag k="natural" v="cape" />
		<tag k="ssr:stedsnr" v="837745" />
	</node>
	<node lat="63.326816663915956" lon="9.241405556672005" id="-93960">
		<tag k="name" v="Berdalsvatnet" />
		<tag k="natural" v="water" />
		<tag k="ssr:stedsnr" v="862192" />
		<tag k="water" v="lake" />
	</node>
	<node lat="63.368016665961235" lon="8.928836110433714" id="-93974">
		<tag k="name" v="Storneset" />
		<tag k="natural" v="cape" />
		<tag k="ssr:stedsnr" v="862747" />
	</node>
	<node lat="63.0908444458709" lon="8.718922218683627" id="-93976">
		<tag k="name" v="Bekkjakrokan" />
		<tag k="natural" v="water" />
		<tag k="ssr:stedsnr" v="862754" />
	</node>
	<node lat="63.39461944170609" lon="8.812394451011293" id="-93979">
		<tag k="name" v="Storholmen" />
		<tag k="place" v="islet" />
		<tag k="ssr:stedsnr" v="862621" />
	</node>
	<node lat="63.37100277563566" lon="8.871299999678724" id="-93982">
		<tag k="name" v="Flattjønna" />
		<tag k="natural" v="water" />
		<tag k="ssr:stedsnr" v="862727" />
	</node>
	<node lat="63.05097500193198" lon="8.31946945199562" id="-93998">
		<tag k="name" v="Tjørnråa" />
		<tag k="natural" v="water" />
		<tag k="ssr:stedsnr" v="862940" />
	</node>
	<node lat="63.27893055471086" lon="8.874100004609518" id="-94016">
		<tag k="name" v="Blankvatnet" />
		<tag k="natural" v="water" />
		<tag k="ssr:stedsnr" v="863929" />
	</node>
	<node lat="63.208319441361525" lon="8.982105562800257" id="-94017">
		<tag k="name" v="Vaultjønna" />
		<tag k="natural" v="water" />
		<tag k="ssr:stedsnr" v="875742" />
	</node>
	<node lat="63.27741388671837" lon="8.936219436856481" id="-94018">
		<tag k="name" v="Sollibekken" />
		<tag k="ssr:stedsnr" v="876775" />
		<tag k="waterway" v="stream" />
	</node>
	<node lat="63.31116111281822" lon="8.97437777528486" id="-94023">
		<tag k="name" v="Røstlielva" />
		<tag k="ssr:stedsnr" v="876983" />
		<tag k="waterway" v="river" />
	</node>
	<node lat="63.277011111226706" lon="9.179630549182173" id="-94037">
		<tag k="name" v="Svartholbekken" />
		<tag k="ssr:stedsnr" v="879036" />
		<tag k="waterway" v="stream" />
	</node>
	<node lat="63.27872499556738" lon="9.104741672878204" id="-94038">
		<tag k="name" v="Karlsneselva" />
		<tag k="ssr:stedsnr" v="879052" />
		<tag k="waterway" v="river" />
	</node>
	<node lat="63.27224166774128" lon="8.955347215513827" id="-94047">
		<tag k="name" v="Seterbekken" />
		<tag k="ssr:stedsnr" v="879107" />
		<tag k="waterway" v="stream" />
	</node>
	<node lat="63.263347219139824" lon="8.970563887458383" id="-94049">
		<tag k="name" v="Gammelbudalsbekken" />
		<tag k="ssr:stedsnr" v="879125" />
		<tag k="waterway" v="stream" />
	</node>
	<node lat="63.24404721821999" lon="9.126780552282286" id="-94054">
		<tag k="name" v="Hopslættbekken" />
		<tag k="ssr:stedsnr" v="879185" />
		<tag k="waterway" v="stream" />
	</node>
	<node lat="63.151558333824234" lon="9.112594445660541" id="-94060">
		<tag k="name" v="Kårfjellbekken" />
		<tag k="ssr:stedsnr" v="879425" />
		<tag k="waterway" v="stream" />
	</node>
	<node lat="63.21576944892515" lon="9.105908327349344" id="-94063">
		<tag k="name" v="Klokkarbekken" />
		<tag k="ssr:stedsnr" v="879274" />
		<tag k="waterway" v="stream" />
	</node>
	<node lat="63.220849998926575" lon="9.106125002049314" id="-94065">
		<tag k="name" v="Kjerringtjønna" />
		<tag k="natural" v="water" />
		<tag k="ssr:stedsnr" v="879278" />
	</node>
	<node lat="63.21943333689219" lon="9.314430555210974" id="-94073">
		<tag k="name" v="Svabergdalstjønna" />
		<tag k="natural" v="water" />
		<tag k="ssr:stedsnr" v="879446" />
	</node>
	<node lat="63.3727416664172" lon="9.164205564405691" id="-94091">
		<tag k="name" v="Nordlibekken" />
		<tag k="ssr:stedsnr" v="879796" />
		<tag k="waterway" v="stream" />
	</node>
	<node lat="63.36538333587179" lon="8.886277782369035" id="-94092">
		<tag k="name" v="Singsdalselva" />
		<tag k="ssr:stedsnr" v="879862" />
		<tag k="waterway" v="river" />
	</node>
	<node lat="63.3116222263218" lon="9.168999998594435" id="-94095">
		<tag k="name" v="Kvernhusdalsbekken" />
		<tag k="ssr:stedsnr" v="879878" />
		<tag k="waterway" v="stream" />
	</node>
	<node lat="63.40946110762673" lon="9.129747219441251" id="-94103">
		<tag k="name" v="Klovobekken" />
		<tag k="ssr:stedsnr" v="879669" />
		<tag k="waterway" v="stream" />
	</node>
	<node lat="63.368583331007954" lon="9.018763889913329" id="-94105">
		<tag k="name" v="Hestneset" />
		<tag k="natural" v="cape" />
		<tag k="ssr:stedsnr" v="879732" />
	</node>
	<node lat="63.181447224156585" lon="8.913486105133876" id="-94107">
		<tag k="name" v="Gammelseterelva" />
		<tag k="ssr:stedsnr" v="879801" />
		<tag k="waterway" v="stream" />
	</node>
	<node lat="63.19795555369221" lon="8.992708340623903" id="-94110">
		<tag k="name" v="Skardbekken" />
		<tag k="ssr:stedsnr" v="879923" />
		<tag k="waterway" v="stream" />
	</node>
	<node lat="63.425761111857796" lon="8.857383340193492" id="-94113">
		<tag k="name" v="Stavnestjønna" />
		<tag k="natural" v="water" />
		<tag k="ssr:stedsnr" v="879940" />
	</node>
	<node lat="63.163047221430865" lon="8.925022228747322" id="-94117">
		<tag k="name" v="Litløybekken" />
		<tag k="ssr:stedsnr" v="879960" />
		<tag k="waterway" v="stream" />
	</node>
	<node lat="63.15431388790276" lon="8.935633331889768" id="-94118">
		<tag k="name" v="Bjørnadals-bekken" />
		<tag k="ssr:stedsnr" v="879961" />
		<tag k="waterway" v="stream" />
	</node>
	<node lat="63.3118972221586" lon="9.079488892389543" id="-94121">
		<tag k="name" v="Grøtbekken" />
		<tag k="ssr:stedsnr" v="879973" />
		<tag k="waterway" v="stream" />
	</node>
	<node lat="63.182930551720396" lon="8.77836943977962" id="-94122">
		<tag k="name" v="Tortlibekken" />
		<tag k="ssr:stedsnr" v="879979" />
		<tag k="waterway" v="stream" />
	</node>
	<node lat="63.23283055296571" lon="9.315916668704343" id="-94140">
		<tag k="name" v="Kjerringbekken" />
		<tag k="ssr:stedsnr" v="939241" />
		<tag k="waterway" v="stream" />
	</node>
	<node lat="63.28554722528829" lon="9.201055563483054" id="-94142">
		<tag k="name" v="Mårtjønna" />
		<tag k="natural" v="water" />
		<tag k="ssr:stedsnr" v="939002" />
	</node>
	<node lat="63.239502774191436" lon="9.047472218254589" id="-94149">
		<tag k="name" v="Eidsosen" />
		<tag k="natural" v="bay" />
		<tag k="ssr:stedsnr" v="939198" />
	</node>
	<node lat="63.250647226715074" lon="9.130363890451655" id="-94150">
		<tag k="name" v="Litlsvorttjønna" />
		<tag k="natural" v="water" />
		<tag k="ssr:stedsnr" v="939201" />
	</node>
	<node lat="63.2467583368926" lon="9.010194439944309" id="-94157">
		<tag k="name" v="Buktabekken" />
		<tag k="ssr:stedsnr" v="939146" />
		<tag k="waterway" v="stream" />
	</node>
	<node lat="63.215116666257735" lon="9.29661666754999" id="-94159">
		<tag k="name" v="Langdalsbukta" />
		<tag k="natural" v="bay" />
		<tag k="ssr:stedsnr" v="939249" />
	</node>
	<node lat="63.21889166495575" lon="9.279966661398921" id="-94161">
		<tag k="name" v="Flaugtangen" />
		<tag k="natural" v="cape" />
		<tag k="ssr:stedsnr" v="939251" />
	</node>
	<node lat="63.14818333152096" lon="9.098083326706751" id="-94165">
		<tag k="name" v="Kattatjønna" />
		<tag k="natural" v="water" />
		<tag k="ssr:stedsnr" v="939456" />
	</node>
	<node lat="63.214644448615076" lon="9.085141667894286" id="-94188">
		<tag k="name" v="Seterbekken" />
		<tag k="ssr:stedsnr" v="940269" />
		<tag k="waterway" v="stream" />
	</node>
	<node lat="63.21275555759391" lon="9.006097220084243" id="-94197">
		<tag k="name" v="Stokkdalsbekken" />
		<tag k="ssr:stedsnr" v="940534" />
		<tag k="waterway" v="stream" />
	</node>
	<node lat="63.215888889172064" lon="9.017597213277462" id="-94198">
		<tag k="name" v="Holbekken" />
		<tag k="ssr:stedsnr" v="940536" />
		<tag k="waterway" v="stream" />
	</node>
	<node lat="63.189752776705106" lon="8.988883324656012" id="-94204">
		<tag k="name" v="Svartdalsbekken" />
		<tag k="ssr:stedsnr" v="940795" />
		<tag k="waterway" v="stream" />
	</node>
	<node lat="63.375280559269704" lon="9.072572228432216" id="-94220">
		<tag k="name" v="Krokbekken" />
		<tag k="ssr:stedsnr" v="940727" />
		<tag k="waterway" v="stream" />
	</node>
	<node lat="63.178702778282684" lon="8.913475002306273" id="-94223">
		<tag k="name" v="Gammelseterbekken" />
		<tag k="ssr:stedsnr" v="940829" />
		<tag k="waterway" v="stream" />
	</node>
	<node lat="63.19611944890319" lon="8.96381944993712" id="-94226">
		<tag k="name" v="Tjørrhjellbekken" />
		<tag k="ssr:stedsnr" v="940898" />
		<tag k="waterway" v="stream" />
	</node>
	<node lat="63.16475555701517" lon="8.933666658216632" id="-94238">
		<tag k="name" v="Litløyvatnet" />
		<tag k="natural" v="water" />
		<tag k="ssr:stedsnr" v="940973" />
		<tag k="water" v="lake" />
	</node>
	<node lat="63.31264722331673" lon="9.254936108408062" id="-94246">
		<tag k="name" v="Ristjørna" />
		<tag k="natural" v="water" />
		<tag k="ssr:stedsnr" v="943768" />
	</node>
	<node lat="63.13278055356699" lon="8.290166670508656" id="-94254">
		<tag k="name" v="Lomtjønna" />
		<tag k="natural" v="water" />
		<tag k="ssr:stedsnr" v="955997" />
	</node>
	<node lat="63.09509722273443" lon="8.654302779524576" id="-94256">
		<tag k="name" v="Båtvika" />
		<tag k="natural" v="bay" />
		<tag k="ssr:stedsnr" v="958126" />
	</node>
	<node lat="63.15768333229196" lon="8.673127781733115" id="-94270">
		<tag k="name" v="Mørkdalsbekken" />
		<tag k="ssr:stedsnr" v="958216" />
		<tag k="waterway" v="stream" />
	</node>
	<node lat="63.149141670286966" lon="8.68665278437446" id="-94277">
		<tag k="name" v="Mårfella" />
		<tag k="natural" v="cape" />
		<tag k="ssr:stedsnr" v="958238" />
	</node>
	<node lat="63.09873889228062" lon="8.42938611794047" id="-94283">
		<tag k="name" v="Stakkstongtjønna" />
		<tag k="natural" v="water" />
		<tag k="ssr:stedsnr" v="958706" />
	</node>
	<node lat="63.15343888802911" lon="8.72238611379338" id="-94285">
		<tag k="name" v="Dyrskarbekken" />
		<tag k="ssr:stedsnr" v="958711" />
		<tag k="waterway" v="stream" />
	</node>
	<node lat="63.175411109212014" lon="8.673361112664526" id="-94293">
		<tag k="name" v="Ragnhilddalsbekken" />
		<tag k="ssr:stedsnr" v="958868" />
		<tag k="waterway" v="stream" />
	</node>
	<node lat="63.07694444224086" lon="8.498333337839703" id="-94295">
		<tag k="name" v="Ljøsvassbekken" />
		<tag k="ssr:stedsnr" v="958950" />
		<tag k="waterway" v="stream" />
	</node>
	<node lat="63.079458334789244" lon="8.495633323896786" id="-94296">
		<tag k="name" v="Ljøsvatnet" />
		<tag k="natural" v="water" />
		<tag k="ssr:stedsnr" v="958951" />
	</node>
</osm>
