<?xml version="1.0" encoding="UTF-8"?>
<osm generator="osmapis" version="0.6">
	<node id="-803253" lat="63.2510486933" lon="9.06781746735">
		<tag k="name" v="Lunnrommet" />
		<tag k="place" v="locality" />
		<tag k="ssr:stedsnr" v="330930" />
	</node>
	<node id="-804284" lat="63.4237526635" lon="9.09324674163">
		<tag k="amenity" v="place_of_worship" />
		<tag k="denomination" v="lutheran" />
		<tag k="name" v="Heim kirke" />
		<tag k="religion" v="christian" />
		<tag k="ssr:stedsnr" v="681407" />
	</node>
	<node id="-805690" lat="63.3513749994" lon="9.27618333726">
		<tag k="amenity" v="community_centre" />
		<tag k="name" v="Ven flerbrukshus" />
		<tag k="ssr:stedsnr" v="180535" />
	</node>
	<node id="-805146" lat="63.2069057211" lon="8.99694021477">
		<tag k="alt_name" v="Vinje" />
		<tag k="amenity" v="place_of_worship" />
		<tag k="denomination" v="lutheran" />
		<tag k="name" v="Vinje kirke" />
		<tag k="religion" v="christian" />
		<tag k="ssr:stedsnr" v="73781" />
	</node>
	<node id="-804085" lat="63.0768027749" lon="8.25262222073">
		<tag k="amenity" v="community_centre" />
		<tag k="name" v="Fredheim" />
		<tag k="ssr:stedsnr" v="653695" />
	</node>
	<node id="-803122" lat="63.3524166712" lon="9.27557499246">
		<tag k="cemetery" v="grave" />
		<tag k="name" v="Ven kirkegård" />
		<tag k="place" v="locality" />
		<tag k="ssr:stedsnr" v="301554" />
	</node>
	<node id="-805745" lat="63.137830555" lon="8.49088610198">
		<tag k="amenity" v="place_of_worship" />
		<tag k="denomination" v="lutheran" />
		<tag k="name" v="Valsøyfjord kirke" />
		<tag k="religion" v="christian" />
		<tag k="ssr:stedsnr" v="195961" />
	</node>
	<node id="-806576" lat="63.2670027772" lon="9.06574999778">
		<tag k="name" v="Vinddalssaga" />
		<tag k="place" v="locality" />
		<tag k="ssr:stedsnr" v="572766" />
	</node>
	<node id="-806539" lat="63.287293589" lon="9.07929342104">
		<tag k="alt_name" v="Hemne" />
		<tag k="amenity" v="place_of_worship" />
		<tag k="denomination" v="lutheran" />
		<tag k="name" v="Hemne kirke" />
		<tag k="religion" v="christian" />
		<tag k="ssr:stedsnr" v="558626" />
	</node>
	<node id="-802914" lat="63.4370999978" lon="9.02713333147">
		<tag k="amenity" v="community_centre" />
		<tag k="name" v="Vårtun" />
		<tag k="ssr:stedsnr" v="256358" />
	</node>
	<node id="-804257" lat="63.075697221" lon="8.24667777263">
		<tag k="amenity" v="place_of_worship" />
		<tag k="denomination" v="lutheran" />
		<tag k="name" v="Halsa" />
		<tag k="religion" v="christian" />
		<tag k="ssr:stedsnr" v="880569" />
	</node>
</osm>
