<?xml version="1.0" encoding="UTF-8"?>
<osm generator="osmapis" version="0.6">
	<node id="-81920" lat="63.1151416711" lon="8.28834443987">
		<tag k="name" v="Våglandholmen" />
		<tag k="place" v="islet" />
		<tag k="ssr:stedsnr" v="897075" />
	</node>
	<node id="-81919" lat="63.1217944427" lon="8.26866111866">
		<tag k="name" v="Brunsvika" />
		<tag k="natural" v="bay" />
		<tag k="ssr:stedsnr" v="897074" />
	</node>
	<node id="-81917" lat="63.1151277764" lon="8.15896666571">
		<tag k="name" v="Silarvika" />
		<tag k="natural" v="bay" />
		<tag k="ssr:stedsnr" v="896763" />
	</node>
	<node id="-81915" lat="63.1431194461" lon="8.37018611521">
		<tag k="name" v="Klettagrunnen" />
		<tag k="natural" v="shoal" />
		<tag k="place" v="locality" />
		<tag k="ssr:stedsnr" v="887814" />
	</node>
	<node id="-79865" lat="63.1053777809" lon="8.3295944407">
		<tag k="name" v="Indervåglandsneset" />
		<tag k="natural" v="cape" />
		<tag k="ssr:stedsnr" v="290986" />
	</node>
	<node id="-81911" lat="63.4314194485" lon="8.94076111014">
		<tag k="alt_name" v="Grønskjera" />
		<tag k="fixme" v="consider seamark:type=rock or natural=shoal" />
		<tag k="name" v="Grønskjæret" />
		<tag k="place" v="islet" />
		<tag k="ssr:stedsnr" v="879502" />
	</node>
	<node id="-81910" lat="63.4303833317" lon="8.9185194383">
		<tag k="name" v="Ausa" />
		<tag k="place" v="islet" />
		<tag k="ssr:stedsnr" v="879501" />
	</node>
	<node id="-83625" lat="63.0883555582" lon="8.17862500838">
		<tag k="alt_name" v="Urdneset" />
		<tag k="name" v="Orneset" />
		<tag k="natural" v="cape" />
		<tag k="ssr:stedsnr" v="558339" />
	</node>
	<node id="-81900" lat="63.3629722255" lon="9.36508611423">
		<tag k="name" v="Skårillbukta" />
		<tag k="natural" v="bay" />
		<tag k="ssr:stedsnr" v="944308" />
	</node>
	<node id="-79850" lat="63.143194445" lon="8.49455554596">
		<tag k="alt_name" v="Skarvskjeret" />
		<tag k="fixme" v="consider seamark:type=rock or natural=shoal" />
		<tag k="name" v="Skarvskjæret" />
		<tag k="place" v="islet" />
		<tag k="ssr:stedsnr" v="290507" />
	</node>
	<node id="-83623" lat="63.1239500033" lon="8.13982778309">
		<tag k="name" v="Hattholmen" />
		<tag k="place" v="islet" />
		<tag k="ssr:stedsnr" v="558285" />
	</node>
	<node id="-81888" lat="63.1900333378" lon="8.80812222322">
		<tag k="name" v="Keipsteinen" />
		<tag k="natural" v="cape" />
		<tag k="ssr:stedsnr" v="940985" />
	</node>
	<node id="-80549" lat="63.1400499985" lon="8.22379166251">
		<tag k="name" v="Geilneset" />
		<tag k="natural" v="cape" />
		<tag k="ssr:stedsnr" v="412255" />
	</node>
	<node id="-83930" lat="63.4266861114" lon="8.97283333935">
		<tag k="name" v="Gussøya" />
		<tag k="place" v="island" />
		<tag k="ssr:stedsnr" v="620377" />
	</node>
	<node id="-79831" lat="63.4299027735" lon="8.83260555831">
		<tag k="name" v="Avlesflua" />
		<tag k="natural" v="shoal" />
		<tag k="place" v="locality" />
		<tag k="ssr:stedsnr" v="169916" />
	</node>
	<node id="-79827" lat="63.1415638933" lon="8.53213056134">
		<tag k="name" v="Hestholmen" />
		<tag k="place" v="islet" />
		<tag k="ssr:stedsnr" v="168815" />
	</node>
	<node id="-81570" lat="63.3478222186" lon="9.24066111437">
		<tag k="name" v="Hammarneset" />
		<tag k="natural" v="cape" />
		<tag k="ssr:stedsnr" v="761232" />
	</node>
	<node id="-81862" lat="63.1915305519" lon="8.82631945344">
		<tag k="name" v="Hovdsanden" />
		<tag k="natural" v="beach" />
		<tag k="place" v="locality" />
		<tag k="ssr:stedsnr" v="940764" />
	</node>
	<node id="-79813" lat="63.3528444433" lon="9.26809999441">
		<tag k="alt_name" v="Skjeret" />
		<tag k="fixme" v="consider seamark:type=rock or natural=shoal" />
		<tag k="name" v="Vennagalten" />
		<tag k="place" v="islet" />
		<tag k="ssr:stedsnr" v="154207" />
	</node>
	<node id="-79812" lat="63.349852776" lon="9.27095277961">
		<tag k="name" v="Einbukta" />
		<tag k="natural" v="bay" />
		<tag k="ssr:stedsnr" v="154202" />
	</node>
	<node id="-81854" lat="63.4244027735" lon="8.79395832833">
		<tag k="name" v="Fløoskaget" />
		<tag k="natural" v="cape" />
		<tag k="ssr:stedsnr" v="940698" />
	</node>
	<node id="-81853" lat="63.4278416635" lon="8.78623333878">
		<tag k="name" v="Prestneset" />
		<tag k="natural" v="cape" />
		<tag k="ssr:stedsnr" v="940689" />
	</node>
	<node id="-83900" lat="63.4523416692" lon="9.03910276848">
		<tag k="name" v="Stamnessundet" />
		<tag k="natural" v="strait" />
		<tag k="ssr:stedsnr" v="619423" />
	</node>
	<node id="-83899" lat="63.4470083296" lon="8.96769999228">
		<tag k="name" v="Purkholmen" />
		<tag k="place" v="islet" />
		<tag k="ssr:stedsnr" v="619415" />
	</node>
	<node id="-81850" lat="63.3902055578" lon="8.90455000302">
		<tag k="name" v="Olfinnbukta" />
		<tag k="natural" v="bay" />
		<tag k="ssr:stedsnr" v="940591" />
	</node>
	<node id="-83897" lat="63.1669555546" lon="8.57224166662">
		<tag k="name" v="Kvithylla" />
		<tag k="natural" v="cape" />
		<tag k="ssr:stedsnr" v="619067" />
	</node>
	<node id="-79792" lat="63.38822222" lon="9.15011666722">
		<tag k="name" v="Djupvikneset" />
		<tag k="natural" v="cape" />
		<tag k="ssr:stedsnr" v="150613" />
	</node>
	<node id="-83882" lat="63.1103111068" lon="8.27747500834">
		<tag k="name" v="Bårsetøya" />
		<tag k="place" v="islet" />
		<tag k="ssr:stedsnr" v="618979" />
	</node>
	<node id="-82247" lat="63.0198583367" lon="8.26039445083">
		<tag k="name" v="Kråka" />
		<tag k="natural" v="cape" />
		<tag k="ssr:stedsnr" v="73826" />
	</node>
	<node id="-83879" lat="63.0637999995" lon="8.22124722799">
		<tag k="name" v="Rødklakken" />
		<tag k="natural" v="shoal" />
		<tag k="place" v="locality" />
		<tag k="ssr:stedsnr" v="595198" />
	</node>
	<node id="-81824" lat="63.3763472212" lon="9.15250277652">
		<tag k="name" v="Oddbugen" />
		<tag k="natural" v="bay" />
		<tag k="ssr:stedsnr" v="939809" />
	</node>
	<node id="-83870" lat="63.1537250017" lon="8.52828055616">
		<tag k="name" v="Lervågskaget" />
		<tag k="natural" v="cape" />
		<tag k="ssr:stedsnr" v="594684" />
	</node>
	<node id="-81816" lat="63.4199138886" lon="8.97211111562">
		<tag k="name" v="Bjørknesodden" />
		<tag k="natural" v="cape" />
		<tag k="ssr:stedsnr" v="939680" />
	</node>
	<node id="-81814" lat="63.4181361134" lon="8.94688333774">
		<tag k="name" v="Valholmen" />
		<tag k="place" v="islet" />
		<tag k="ssr:stedsnr" v="939613" />
	</node>
	<node id="-81813" lat="63.4198805582" lon="8.9367472192">
		<tag k="name" v="Koabukta" />
		<tag k="natural" v="bay" />
		<tag k="ssr:stedsnr" v="939612" />
	</node>
	<node id="-81812" lat="63.4249027786" lon="8.92582776889">
		<tag k="fixme" v="consider seamark:type=rock or natural=shoal" />
		<tag k="name" v="Kastnotskjeret" />
		<tag k="place" v="islet" />
		<tag k="ssr:stedsnr" v="939608" />
	</node>
	<node id="-79761" lat="63.4138388849" lon="8.96194999235">
		<tag k="name" v="Yttervågen" />
		<tag k="natural" v="bay" />
		<tag k="ssr:stedsnr" v="147709" />
	</node>
	<node id="-83850" lat="63.0744166702" lon="8.29784445346">
		<tag k="name" v="Stavråberget" />
		<tag k="natural" v="cape" />
		<tag k="ssr:stedsnr" v="594193" />
	</node>
	<node id="-83848" lat="63.1858666705" lon="8.72470555354">
		<tag k="fixme" v="consider seamark:type=rock or natural=shoal" />
		<tag k="name" v="Baggeskjeret" />
		<tag k="place" v="islet" />
		<tag k="ssr:stedsnr" v="593998" />
	</node>
	<node id="-80193" lat="63.1053722183" lon="8.60104721892">
		<tag k="name" v="Kleivaneset" />
		<tag k="natural" v="cape" />
		<tag k="ssr:stedsnr" v="462462" />
	</node>
	<node id="-79730" lat="63.1895583327" lon="8.80767778401">
		<tag k="name" v="Seineset" />
		<tag k="natural" v="cape" />
		<tag k="ssr:stedsnr" v="272977" />
	</node>
	<node id="-83824" lat="63.1359083335" lon="8.24338334219">
		<tag k="name" v="Tjuvnebben" />
		<tag k="natural" v="cape" />
		<tag k="ssr:stedsnr" v="593262" />
	</node>
	<node id="-83822" lat="63.1223611133" lon="8.58546945186">
		<tag k="name" v="Gilderhammaren" />
		<tag k="natural" v="cape" />
		<tag k="ssr:stedsnr" v="593161" />
	</node>
	<node id="-81773" lat="63.0850805522" lon="8.17200832982">
		<tag k="name" v="Åkvikgrunnen" />
		<tag k="natural" v="shoal" />
		<tag k="place" v="locality" />
		<tag k="ssr:stedsnr" v="837611" />
	</node>
	<node id="-83816" lat="63.1090333307" lon="8.31736389429">
		<tag k="name" v="Sjøbuholmen" />
		<tag k="place" v="islet" />
		<tag k="ssr:stedsnr" v="593097" />
	</node>
	<node id="-83815" lat="63.1117361125" lon="8.28189721864">
		<tag k="name" v="Bjønnasundet" />
		<tag k="natural" v="strait" />
		<tag k="ssr:stedsnr" v="593086" />
	</node>
	<node id="-83814" lat="63.1164305573" lon="8.29480000301">
		<tag k="name" v="Kuneset" />
		<tag k="natural" v="cape" />
		<tag k="ssr:stedsnr" v="593080" />
	</node>
	<node id="-79717" lat="63.343850001" lon="9.13011112034">
		<tag k="name" v="Nothusbukta" />
		<tag k="natural" v="bay" />
		<tag k="ssr:stedsnr" v="272765" />
	</node>
	<node id="-81763" lat="63.1049388893" lon="8.30659722694">
		<tag k="name" v="Skiftesholmen" />
		<tag k="place" v="islet" />
		<tag k="ssr:stedsnr" v="837160" />
	</node>
	<node id="-83806" lat="63.1284583377" lon="8.55577221935">
		<tag k="alt_name" v="Salbuneset" />
		<tag k="name" v="Saltbuneset" />
		<tag k="natural" v="cape" />
		<tag k="ssr:stedsnr" v="592711" />
	</node>
	<node id="-79701" lat="63.4592694469" lon="9.03417778694">
		<tag k="name" v="Kuskaget" />
		<tag k="natural" v="cape" />
		<tag k="ssr:stedsnr" v="272547" />
	</node>
	<node id="-83796" lat="63.3938916665" lon="9.15483611136">
		<tag k="fixme" v="consider seamark:type=rock or natural=shoal" />
		<tag k="name" v="Sponlandskjæret" />
		<tag k="place" v="islet" />
		<tag k="ssr:stedsnr" v="591543" />
	</node>
	<node id="-79699" lat="63.4431305596" lon="9.06719721241">
		<tag k="name" v="Litlneset" />
		<tag k="natural" v="cape" />
		<tag k="ssr:stedsnr" v="272536" />
	</node>
	<node id="-81745" lat="63.3886111133" lon="9.15700833724">
		<tag k="name" v="Grasneset" />
		<tag k="natural" v="cape" />
		<tag k="ssr:stedsnr" v="834574" />
	</node>
	<node id="-83789" lat="63.3394527788" lon="9.24397500974">
		<tag k="name" v="Slåttavika" />
		<tag k="natural" v="bay" />
		<tag k="ssr:stedsnr" v="579838" />
	</node>
	<node id="-79687" lat="63.4629361125" lon="9.06134999219">
		<tag k="fixme" v="consider seamark:type=rock or natural=shoal" />
		<tag k="name" v="Kobbskjera" />
		<tag k="place" v="islet" />
		<tag k="ssr:stedsnr" v="272577" />
	</node>
	<node id="-83782" lat="63.3516333319" lon="9.26627500037">
		<tag k="fixme" v="consider seamark:type=rock or natural=shoal" />
		<tag k="name" v="Galten" />
		<tag k="place" v="islet" />
		<tag k="ssr:stedsnr" v="579168" />
	</node>
	<node id="-81732" lat="63.3350333291" lon="9.1953277772">
		<tag k="name" v="Sperillbugen" />
		<tag k="natural" v="bay" />
		<tag k="ssr:stedsnr" v="819917" />
	</node>
	<node id="-81726" lat="63.3020833338" lon="9.13122777237">
		<tag k="name" v="Jevikbukta" />
		<tag k="natural" v="bay" />
		<tag k="ssr:stedsnr" v="818975" />
	</node>
	<node id="-83773" lat="63.4226666703" lon="8.87837778674">
		<tag k="name" v="Bakkneset" />
		<tag k="natural" v="cape" />
		<tag k="ssr:stedsnr" v="575989" />
	</node>
	<node id="-83769" lat="63.3053499992" lon="9.13195276893">
		<tag k="name" v="Spjøtvollbukta" />
		<tag k="natural" v="bay" />
		<tag k="ssr:stedsnr" v="575968" />
	</node>
	<node id="-81719" lat="63.3754611143" lon="9.17462222729">
		<tag k="name" v="Klauva" />
		<tag k="natural" v="bay" />
		<tag k="ssr:stedsnr" v="818812" />
	</node>
	<node id="-83758" lat="63.3772055526" lon="9.16656667625">
		<tag k="name" v="Kistvika" />
		<tag k="natural" v="bay" />
		<tag k="ssr:stedsnr" v="575782" />
	</node>
	<node id="-81705" lat="63.194052782" lon="8.86480276863">
		<tag k="name" v="Hofsetneset" />
		<tag k="natural" v="cape" />
		<tag k="ssr:stedsnr" v="818622" />
	</node>
	<node id="-81704" lat="63.4157638918" lon="8.91783056021">
		<tag k="name" v="Urdnesbukta" />
		<tag k="natural" v="bay" />
		<tag k="ssr:stedsnr" v="818616" />
	</node>
	<node id="-81700" lat="63.4666611144" lon="9.03706666951">
		<tag k="name" v="Ytterøybukta" />
		<tag k="natural" v="bay" />
		<tag k="ssr:stedsnr" v="818603" />
	</node>
	<node id="-83736" lat="63.1989638921" lon="8.9433500051">
		<tag k="name" v="Berhalsnesset" />
		<tag k="natural" v="cape" />
		<tag k="ssr:stedsnr" v="575869" />
	</node>
	<node id="-79636" lat="63.1900444487" lon="8.78373610766">
		<tag k="bay" v="fjord" />
		<tag k="name" v="Vinjefjorden" />
		<tag k="natural" v="bay" />
		<tag k="ssr:stedsnr" v="133404" />
	</node>
	<node id="-79635" lat="63.102588893" lon="8.60754443908">
		<tag k="name" v="Vollaflua" />
		<tag k="natural" v="shoal" />
		<tag k="place" v="locality" />
		<tag k="ssr:stedsnr" v="110524" />
	</node>
	<node id="-79634" lat="63.1013444436" lon="8.62905555877">
		<tag k="name" v="Ørabukta" />
		<tag k="natural" v="bay" />
		<tag k="ssr:stedsnr" v="110522" />
	</node>
	<node id="-81680" lat="63.1505416644" lon="8.4185861114">
		<tag k="bay" v="fjord" />
		<tag k="name" v="Arasvikfjorden" />
		<tag k="natural" v="bay" />
		<tag k="ssr:stedsnr" v="802953" />
	</node>
	<node id="-81679" lat="63.4636472221" lon="8.99729166196">
		<tag k="fixme" v="consider seamark:type=rock or natural=shoal" />
		<tag k="name" v="Kråka" />
		<tag k="place" v="islet" />
		<tag k="ssr:stedsnr" v="802562" />
	</node>
	<node id="-81678" lat="63.4624638919" lon="9.05702778178">
		<tag k="name" v="Hamna" />
		<tag k="natural" v="cape" />
		<tag k="ssr:stedsnr" v="802554" />
	</node>
	<node id="-79629" lat="63.1410075145" lon="8.43218299028">
		<tag k="name" v="Kråknes laksevorpe" />
		<tag k="place" v="locality" />
		<tag k="ssr:stedsnr" v="109526" />
	</node>
	<node id="-79628" lat="63.1082888884" lon="8.59888054885">
		<tag k="name" v="Naustvollen" />
		<tag k="natural" v="cape" />
		<tag k="ssr:stedsnr" v="109506" />
	</node>
	<node id="-83927" lat="63.1487777753" lon="8.5317694517">
		<tag k="name" v="Valsøya" />
		<tag k="place" v="island" />
		<tag k="ssr:stedsnr" v="619962" />
	</node>
	<node id="-81669" lat="63.3096394608" lon="9.0924271262">
		<tag k="name" v="Grøtneset" />
		<tag k="natural" v="cape" />
		<tag k="ssr:stedsnr" v="801580" />
	</node>
	<node id="-79618" lat="63.1291694445" lon="8.57561944187">
		<tag k="name" v="Furuneset" />
		<tag k="natural" v="cape" />
		<tag k="ssr:stedsnr" v="108834" />
	</node>
	<node id="-81664" lat="63.4185888918" lon="8.88428611866">
		<tag k="name" v="Fårroholmen" />
		<tag k="place" v="islet" />
		<tag k="ssr:stedsnr" v="801404" />
	</node>
	<node id="-81663" lat="63.14483333" lon="8.4985222265">
		<tag k="name" v="Helgeneset" />
		<tag k="natural" v="cape" />
		<tag k="ssr:stedsnr" v="923957" />
	</node>
	<node id="-83710" lat="63.3885916679" lon="9.14978332901">
		<tag k="name" v="Djupvika" />
		<tag k="natural" v="bay" />
		<tag k="ssr:stedsnr" v="575620" />
	</node>
	<node id="-79985" lat="63.0936638904" lon="8.17619722466">
		<tag k="name" v="Langneset" />
		<tag k="natural" v="cape" />
		<tag k="ssr:stedsnr" v="255323" />
	</node>
	<node id="-79607" lat="63.4327055545" lon="8.92140555082">
		<tag k="name" v="Marøysundet" />
		<tag k="natural" v="strait" />
		<tag k="ssr:stedsnr" v="256385" />
	</node>
	<node id="-79606" lat="63.4436749992" lon="8.94330556415">
		<tag k="name" v="Fårroholmen" />
		<tag k="place" v="islet" />
		<tag k="ssr:stedsnr" v="256348" />
	</node>
	<node id="-79601" lat="63.0507333346" lon="8.23522223122">
		<tag k="name" v="Volemsstranda" />
		<tag k="natural" v="beach" />
		<tag k="place" v="locality" />
		<tag k="ssr:stedsnr" v="100422" />
	</node>
	<node id="-79594" lat="63.3734583376" lon="9.17894165989">
		<tag k="alt_name" v="Oddlitangen" />
		<tag k="name" v="Innerodden" />
		<tag k="natural" v="cape" />
		<tag k="ssr:stedsnr" v="255776" />
	</node>
	<node id="-79589" lat="63.3611749997" lon="9.1809277845">
		<tag k="name" v="Næløya" />
		<tag k="place" v="islet" />
		<tag k="ssr:stedsnr" v="255731" />
	</node>
	<node id="-81636" lat="63.4258944482" lon="8.924908334">
		<tag k="fixme" v="consider seamark:type=rock or natural=shoal" />
		<tag k="name" v="Tannskjæra" />
		<tag k="place" v="islet" />
		<tag k="ssr:stedsnr" v="923460" />
	</node>
	<node id="-81635" lat="63.4263694484" lon="8.91322499499">
		<tag k="name" v="Hansholmen" />
		<tag k="place" v="islet" />
		<tag k="ssr:stedsnr" v="923459" />
	</node>
	<node id="-81634" lat="63.4374111089" lon="8.90002499453">
		<tag k="alt_name" v="Stabburvika;Stabbursvika" />
		<tag k="name" v="Stabbursvikan" />
		<tag k="natural" v="bay" />
		<tag k="ssr:stedsnr" v="923448" />
	</node>
	<node id="-79577" lat="63.1324916693" lon="8.14985000735">
		<tag k="fixme" v="consider seamark:type=rock or natural=shoal" />
		<tag k="name" v="Småholman" />
		<tag k="place" v="islet" />
		<tag k="ssr:stedsnr" v="255278" />
	</node>
	<node id="-79575" lat="63.1583499969" lon="8.54670277549">
		<tag k="name" v="Oddan" />
		<tag k="natural" v="cape" />
		<tag k="ssr:stedsnr" v="255080" />
	</node>
	<node id="-81622" lat="63.028763885" lon="8.22075834306">
		<tag k="name" v="Kvalneset" />
		<tag k="natural" v="cape" />
		<tag k="ssr:stedsnr" v="922820" />
	</node>
	<node id="-79572" lat="63.1228861094" lon="8.5838555635">
		<tag k="name" v="Hjellnes" />
		<tag k="natural" v="cape" />
		<tag k="ssr:stedsnr" v="254975" />
	</node>
	<node id="-82187" lat="63.1382666625" lon="8.2418638989">
		<tag k="name" v="Notholmen" />
		<tag k="natural" v="cape" />
		<tag k="ssr:stedsnr" v="48272" />
	</node>
	<node id="-79567" lat="63.4664972221" lon="9.0222277798">
		<tag k="fixme" v="consider seamark:type=rock or natural=shoal" />
		<tag k="name" v="Kastnotskjeret" />
		<tag k="place" v="islet" />
		<tag k="ssr:stedsnr" v="90610" />
	</node>
	<node id="-79566" lat="63.4652055513" lon="9.05438333495">
		<tag k="name" v="Skaflua" />
		<tag k="natural" v="cape" />
		<tag k="ssr:stedsnr" v="90602" />
	</node>
	<node id="-83661" lat="63.4254361147" lon="8.92638889809">
		<tag k="name" v="Tannsundet" />
		<tag k="natural" v="strait" />
		<tag k="ssr:stedsnr" v="559401" />
	</node>
	<node id="-79564" lat="63.420113892" lon="8.93990833792">
		<tag k="name" v="Aunbukta" />
		<tag k="natural" v="bay" />
		<tag k="ssr:stedsnr" v="87739" />
	</node>
	<node id="-79563" lat="63.4515250015" lon="8.93382500817">
		<tag k="name" v="Nordlandet" />
		<tag k="natural" v="cape" />
		<tag k="ssr:stedsnr" v="87707" />
	</node>
	<node id="-79558" lat="63.1137861135" lon="8.27613889728">
		<tag k="bay" v="fjord" />
		<tag k="name" v="Skålvikfjorden" />
		<tag k="natural" v="bay" />
		<tag k="ssr:stedsnr" v="73987" />
	</node>
	<node id="-79557" lat="63.1211805562" lon="8.59650832758">
		<tag k="bay" v="fjord" />
		<tag k="name" v="Valsøyfjorden" />
		<tag k="natural" v="bay" />
		<tag k="ssr:stedsnr" v="73985" />
	</node>
	<node id="-81599" lat="63.0348166622" lon="8.21646387932">
		<tag k="alt_name" v="Saksnes" />
		<tag k="name" v="Saksneset" />
		<tag k="natural" v="cape" />
		<tag k="ssr:stedsnr" v="922200" />
	</node>
	<node id="-81596" lat="63.1298111147" lon="8.56796943556">
		<tag k="name" v="Langskjæret" />
		<tag k="natural" v="cape" />
		<tag k="ssr:stedsnr" v="922960" />
	</node>
	<node id="-79544" lat="63.310199999" lon="9.08713610188">
		<tag k="name" v="Grøtvågen" />
		<tag k="natural" v="bay" />
		<tag k="ssr:stedsnr" v="73614" />
	</node>
	<node id="-83632" lat="63.4117222262" lon="8.96939999251">
		<tag k="name" v="Vågneset" />
		<tag k="natural" v="cape" />
		<tag k="ssr:stedsnr" v="558686" />
	</node>
	<node id="-79534" lat="63.3257055576" lon="9.15484444033">
		<tag k="name" v="Husholmen" />
		<tag k="place" v="islet" />
		<tag k="ssr:stedsnr" v="73527" />
	</node>
	<node id="-79532" lat="63.2934361074" lon="9.11678612082">
		<tag k="name" v="Øvre Merkeneset" />
		<tag k="natural" v="cape" />
		<tag k="ssr:stedsnr" v="237574" />
	</node>
	<node id="-81579" lat="63.090091671" lon="8.17955555173">
		<tag k="name" v="Slettabukta" />
		<tag k="natural" v="bay" />
		<tag k="ssr:stedsnr" v="775726" />
	</node>
	<node id="-83626" lat="63.3434444482" lon="9.1216000029">
		<tag k="name" v="Fitjavågen" />
		<tag k="natural" v="bay" />
		<tag k="ssr:stedsnr" v="558562" />
	</node>
	<node id="-79529" lat="63.15193056" lon="8.49776389234">
		<tag k="name" v="Nordgrunnen" />
		<tag k="natural" v="shoal" />
		<tag k="place" v="locality" />
		<tag k="ssr:stedsnr" v="231827" />
	</node>
	<node id="-79528" lat="63.2076194466" lon="8.98156667004">
		<tag k="name" v="Vågen" />
		<tag k="natural" v="bay" />
		<tag k="ssr:stedsnr" v="231735" />
	</node>
	<node id="-79527" lat="63.1946833313" lon="8.87083333343">
		<tag k="name" v="Staursetbukta" />
		<tag k="natural" v="bay" />
		<tag k="ssr:stedsnr" v="231687" />
	</node>
	<node id="-81574" lat="63.1479888863" lon="8.2893805529">
		<tag k="name" v="Laksvorpa" />
		<tag k="natural" v="bay" />
		<tag k="ssr:stedsnr" v="772948" />
	</node>
	<node id="-79525" lat="63.1732166627" lon="8.6415749912">
		<tag k="name" v="Vollabukta" />
		<tag k="natural" v="bay" />
		<tag k="ssr:stedsnr" v="230895" />
	</node>
	<node id="-81572" lat="63.1541777773" lon="8.54444722148">
		<tag k="name" v="Ytterneset" />
		<tag k="natural" v="cape" />
		<tag k="ssr:stedsnr" v="764498" />
	</node>
	<node id="-81571" lat="63.3770527777" lon="9.43868889652">
		<tag k="name" v="Jevikøra" />
		<tag k="natural" v="beach" />
		<tag k="place" v="locality" />
		<tag k="ssr:stedsnr" v="761467" />
	</node>
	<node id="-79522" lat="63.1519972197" lon="8.54297221997">
		<tag k="name" v="Ytterneset" />
		<tag k="natural" v="cape" />
		<tag k="ssr:stedsnr" v="230681" />
	</node>
	<node id="-81568" lat="63.3257833354" lon="9.18065278454">
		<tag k="name" v="Naustbukta" />
		<tag k="natural" v="bay" />
		<tag k="ssr:stedsnr" v="758919" />
	</node>
	<node id="-83609" lat="63.1407222178" lon="8.18321666098">
		<tag k="name" v="Kallbergskallen" />
		<tag k="natural" v="shoal" />
		<tag k="place" v="locality" />
		<tag k="ssr:stedsnr" v="534484" />
	</node>
	<node id="-83601" lat="63.0922972266" lon="8.33005832338">
		<tag k="fixme" v="consider seamark:type=rock or natural=shoal" />
		<tag k="name" v="Hyttaskjeret" />
		<tag k="place" v="islet" />
		<tag k="ssr:stedsnr" v="533992" />
	</node>
	<node id="-83598" lat="63.1010361141" lon="8.33103056455">
		<tag k="name" v="Bekkneset" />
		<tag k="natural" v="cape" />
		<tag k="ssr:stedsnr" v="533988" />
	</node>
	<node id="-79501" lat="63.0956222232" lon="8.32547777496">
		<tag k="name" v="Hamnaholmen" />
		<tag k="place" v="islet" />
		<tag k="ssr:stedsnr" v="229982" />
	</node>
	<node id="-83596" lat="63.1640750007" lon="8.56389445319">
		<tag k="alt_name" v="Kvithyllbukta" />
		<tag k="name" v="Sørkvithyllbukta" />
		<tag k="natural" v="bay" />
		<tag k="ssr:stedsnr" v="533730" />
	</node>
	<node id="-79499" lat="63.1821833334" lon="8.74499722144">
		<tag k="name" v="Vollbukta" />
		<tag k="natural" v="bay" />
		<tag k="ssr:stedsnr" v="229958" />
	</node>
	<node id="-79495" lat="63.1085361101" lon="8.16145555253">
		<tag k="name" v="Storvika" />
		<tag k="natural" v="bay" />
		<tag k="ssr:stedsnr" v="229721" />
	</node>
	<node id="-83585" lat="63.1241250001" lon="8.58460554934">
		<tag k="name" v="Nessaøra" />
		<tag k="natural" v="cape" />
		<tag k="ssr:stedsnr" v="533525" />
	</node>
	<node id="-83584" lat="63.1143194474" lon="8.62564999682">
		<tag k="name" v="Ramsvika" />
		<tag k="natural" v="bay" />
		<tag k="ssr:stedsnr" v="533523" />
	</node>
	<node id="-79487" lat="63.1169250027" lon="8.15580277371">
		<tag k="alt_name" v="Purkholmen" />
		<tag k="name" v="Porkholmen" />
		<tag k="place" v="islet" />
		<tag k="ssr:stedsnr" v="229445" />
	</node>
	<node id="-79482" lat="63.43516111" lon="8.98609722786">
		<tag k="name" v="Våtvikskaget" />
		<tag k="natural" v="cape" />
		<tag k="ssr:stedsnr" v="29608" />
	</node>
	<node id="-79480" lat="63.4128555572" lon="8.91767499267">
		<tag k="name" v="Sørvågen" />
		<tag k="natural" v="bay" />
		<tag k="ssr:stedsnr" v="29596" />
	</node>
	<node id="-83573" lat="63.0759083351" lon="8.28666111306">
		<tag k="name" v="Reitholmen" />
		<tag k="place" v="islet" />
		<tag k="ssr:stedsnr" v="533195" />
	</node>
	<node id="-81524" lat="63.160030555" lon="8.5305583356">
		<tag k="name" v="Ternholmgrunnen" />
		<tag k="natural" v="shoal" />
		<tag k="place" v="locality" />
		<tag k="ssr:stedsnr" v="899796" />
	</node>
	<node id="-81523" lat="63.1222388863" lon="8.2615944534">
		<tag k="name" v="Bakkeflua" />
		<tag k="natural" v="shoal" />
		<tag k="place" v="locality" />
		<tag k="ssr:stedsnr" v="899148" />
	</node>
	<node id="-79472" lat="63.3894388907" lon="8.89193055319">
		<tag k="name" v="Raplibukta" />
		<tag k="natural" v="bay" />
		<tag k="ssr:stedsnr" v="227184" />
	</node>
	<node id="-79471" lat="63.3455833363" lon="9.15028055679">
		<tag k="name" v="Lernesgrunnen" />
		<tag k="natural" v="shoal" />
		<tag k="place" v="locality" />
		<tag k="ssr:stedsnr" v="226970" />
	</node>
	<node id="-83566" lat="63.1110305541" lon="8.31113889654">
		<tag k="name" v="Hestholmen" />
		<tag k="place" v="islet" />
		<tag k="ssr:stedsnr" v="533080" />
	</node>
	<node id="-83565" lat="63.1133722256" lon="8.31244167564">
		<tag k="fixme" v="consider seamark:type=rock or natural=shoal" />
		<tag k="name" v="Hundskjeret" />
		<tag k="place" v="islet" />
		<tag k="ssr:stedsnr" v="533078" />
	</node>
	<node id="-83557" lat="63.110972221" lon="8.15876111939">
		<tag k="name" v="Ramsvikan" />
		<tag k="natural" v="bay" />
		<tag k="ssr:stedsnr" v="532718" />
	</node>
	<node id="-79459" lat="63.4477833325" lon="9.00236111604">
		<tag k="name" v="Aunbugen" />
		<tag k="natural" v="bay" />
		<tag k="ssr:stedsnr" v="13413" />
	</node>
	<node id="-81506" lat="63.0766999988" lon="8.20550278137">
		<tag k="name" v="Hagabukta" />
		<tag k="natural" v="bay" />
		<tag k="ssr:stedsnr" v="898600" />
	</node>
	<node id="-83553" lat="63.1114083294" lon="8.62335000341">
		<tag k="fixme" v="consider seamark:type=rock or natural=shoal" />
		<tag k="name" v="Ånskjeret" />
		<tag k="place" v="islet" />
		<tag k="ssr:stedsnr" v="532513" />
	</node>
	<node id="-83549" lat="63.123711108" lon="8.24709165795">
		<tag k="name" v="Staurhusberget" />
		<tag k="natural" v="cape" />
		<tag k="ssr:stedsnr" v="532466" />
	</node>
	<node id="-83547" lat="63.1446749962" lon="8.55265278208">
		<tag k="name" v="Langstranda" />
		<tag k="natural" v="beach" />
		<tag k="place" v="locality" />
		<tag k="ssr:stedsnr" v="532652" />
	</node>
	<node id="-83546" lat="63.1498166628" lon="8.33424444305">
		<tag k="alt_name" v="Flatfjørå" />
		<tag k="name" v="Flatfjøra" />
		<tag k="natural" v="shoal" />
		<tag k="place" v="locality" />
		<tag k="ssr:stedsnr" v="532597" />
	</node>
	<node id="-81496" lat="63.1857694436" lon="8.73542777848">
		<tag k="fixme" v="consider seamark:type=rock or natural=shoal" />
		<tag k="name" v="Engdalskjeret" />
		<tag k="place" v="islet" />
		<tag k="ssr:stedsnr" v="897986" />
	</node>
	<node id="-79444" lat="63.1402361079" lon="8.41359443693">
		<tag k="name" v="Storsteingrunnen" />
		<tag k="natural" v="shoal" />
		<tag k="place" v="locality" />
		<tag k="ssr:stedsnr" v="219821" />
	</node>
	<node id="-81488" lat="63.1012499984" lon="8.17783054762">
		<tag k="name" v="Vikaneset" />
		<tag k="natural" v="cape" />
		<tag k="ssr:stedsnr" v="897720" />
	</node>
	<node id="-81487" lat="63.085424998" lon="8.18394166692">
		<tag k="name" v="Geilneset" />
		<tag k="natural" v="cape" />
		<tag k="ssr:stedsnr" v="897703" />
	</node>
	<node id="-83531" lat="63.4336305595" lon="8.96554999455">
		<tag k="name" v="Rognholmflua" />
		<tag k="natural" v="shoal" />
		<tag k="place" v="locality" />
		<tag k="ssr:stedsnr" v="530385" />
	</node>
	<node id="-83527" lat="63.1388416645" lon="8.47746111606">
		<tag k="name" v="Karterflua" />
		<tag k="natural" v="shoal" />
		<tag k="place" v="locality" />
		<tag k="ssr:stedsnr" v="522778" />
	</node>
	<node id="-83526" lat="63.1172944479" lon="8.61533333734">
		<tag k="name" v="Indre Fjærlibukta" />
		<tag k="natural" v="bay" />
		<tag k="ssr:stedsnr" v="522530" />
	</node>
	<node id="-81474" lat="63.1458472259" lon="8.24975833059">
		<tag k="name" v="Storvika" />
		<tag k="natural" v="bay" />
		<tag k="ssr:stedsnr" v="897287" />
	</node>
	<node id="-83521" lat="63.3623027768" lon="9.32374443953">
		<tag k="name" v="Kalvtrøneset" />
		<tag k="natural" v="cape" />
		<tag k="ssr:stedsnr" v="438818" />
	</node>
	<node id="-81472" lat="63.1454111071" lon="8.24412776822">
		<tag k="fixme" v="consider seamark:type=rock or natural=shoal" />
		<tag k="name" v="Islandsskjera" />
		<tag k="place" v="islet" />
		<tag k="ssr:stedsnr" v="897273" />
	</node>
	<node id="-83517" lat="63.4304277778" lon="8.79256387955">
		<tag k="name" v="Kjeholmen" />
		<tag k="place" v="islet" />
		<tag k="ssr:stedsnr" v="438385" />
	</node>
	<node id="-81466" lat="63.1098388866" lon="8.31397499906">
		<tag k="fixme" v="consider seamark:type=rock or natural=shoal" />
		<tag k="name" v="Kobbskjeret" />
		<tag k="place" v="islet" />
		<tag k="ssr:stedsnr" v="897087" />
	</node>
	<node id="-81465" lat="63.1089944482" lon="8.31199722729">
		<tag k="name" v="Valan" />
		<tag k="natural" v="bay" />
		<tag k="ssr:stedsnr" v="897086" />
	</node>
	<node id="-83512" lat="63.4285777771" lon="9.09427222893">
		<tag k="alt_name" v="Ytter Heimsvågen" />
		<tag k="name" v="Yttervågen" />
		<tag k="natural" v="bay" />
		<tag k="ssr:stedsnr" v="438121" />
	</node>
	<node id="-83501" lat="63.0682416673" lon="8.22787499257">
		<tag k="name" v="Halsanausta" />
		<tag k="natural" v="cape" />
		<tag k="ssr:stedsnr" v="437881" />
	</node>
	<node id="-81449" lat="63.1400222254" lon="8.51241111711">
		<tag k="name" v="Lamholmen" />
		<tag k="place" v="islet" />
		<tag k="ssr:stedsnr" v="715571" />
	</node>
	<node id="-81443" lat="63.0961166643" lon="8.62498889054">
		<tag k="name" v="Sanden" />
		<tag k="natural" v="beach" />
		<tag k="place" v="locality" />
		<tag k="ssr:stedsnr" v="715439" />
	</node>
	<node id="-81442" lat="63.128011109" lon="8.14838056072">
		<tag k="name" v="Hamna" />
		<tag k="natural" v="bay" />
		<tag k="ssr:stedsnr" v="715394" />
	</node>
	<node id="-81437" lat="63.4759750012" lon="9.01912776867">
		<tag k="name" v="Mefjordgrunnan" />
		<tag k="natural" v="shoal" />
		<tag k="place" v="locality" />
		<tag k="ssr:stedsnr" v="895356" />
	</node>
	<node id="-81434" lat="63.1263138891" lon="8.24796944658">
		<tag k="name" v="Løvikneset" />
		<tag k="natural" v="cape" />
		<tag k="ssr:stedsnr" v="714434" />
	</node>
	<node id="-83660" lat="63.4392944457" lon="8.87758611278">
		<tag k="name" v="Røstøytangen" />
		<tag k="natural" v="cape" />
		<tag k="ssr:stedsnr" v="559385" />
	</node>
	<node id="-83466" lat="63.4148638898" lon="8.96657222548">
		<tag k="name" v="Hesthagaskjæra" />
		<tag k="place" v="islet" />
		<tag k="ssr:stedsnr" v="437448" />
	</node>
	<node id="-83462" lat="63.3389277787" lon="9.22908332732">
		<tag k="alt_name" v="Berdalsbugen" />
		<tag k="name" v="Berdalsbogen" />
		<tag k="natural" v="bay" />
		<tag k="ssr:stedsnr" v="437169" />
	</node>
	<node id="-83461" lat="63.1834555595" lon="8.69996389331">
		<tag k="alt_name" v="Saltrøneset" />
		<tag k="name" v="Neset" />
		<tag k="natural" v="cape" />
		<tag k="ssr:stedsnr" v="437102" />
	</node>
	<node id="-83460" lat="63.1544888891" lon="8.54930277589">
		<tag k="name" v="Stokksundet" />
		<tag k="natural" v="strait" />
		<tag k="ssr:stedsnr" v="437089" />
	</node>
	<node id="-83459" lat="63.1480833327" lon="8.2966583424">
		<tag k="bay" v="fjord" />
		<tag k="name" v="Korsnesfjorden" />
		<tag k="natural" v="bay" />
		<tag k="ssr:stedsnr" v="437084" />
	</node>
	<node id="-83455" lat="63.1326138903" lon="8.50472223002">
		<tag k="name" v="Otnessvaet" />
		<tag k="natural" v="bay" />
		<tag k="ssr:stedsnr" v="413801" />
	</node>
	<node id="-83453" lat="63.1731027803" lon="8.6354666662">
		<tag k="name" v="Neset" />
		<tag k="natural" v="cape" />
		<tag k="ssr:stedsnr" v="413608" />
	</node>
	<node id="-81403" lat="63.4290416675" lon="8.79168611865">
		<tag k="fixme" v="consider seamark:type=rock or natural=shoal" />
		<tag k="name" v="Finnskjeret" />
		<tag k="place" v="islet" />
		<tag k="ssr:stedsnr" v="697511" />
	</node>
	<node id="-82175" lat="63.0961944437" lon="8.32143610996">
		<tag k="name" v="Bollotholman" />
		<tag k="place" v="islet" />
		<tag k="ssr:stedsnr" v="47988" />
	</node>
	<node id="-83441" lat="63.1420250037" lon="8.42678887905">
		<tag k="name" v="Sørtangen" />
		<tag k="natural" v="cape" />
		<tag k="ssr:stedsnr" v="412541" />
	</node>
	<node id="-83439" lat="63.1114388877" lon="8.59699999048">
		<tag k="name" v="Sandnesgalten" />
		<tag k="natural" v="cape" />
		<tag k="ssr:stedsnr" v="412504" />
	</node>
	<node id="-81385" lat="63.1039416631" lon="8.62311944854">
		<tag k="name" v="Kalvikflua" />
		<tag k="natural" v="shoal" />
		<tag k="place" v="locality" />
		<tag k="ssr:stedsnr" v="887484" />
	</node>
	<node id="-81384" lat="63.1338333336" lon="8.37068611033">
		<tag k="name" v="Einbukta" />
		<tag k="natural" v="bay" />
		<tag k="ssr:stedsnr" v="886801" />
	</node>
	<node id="-81383" lat="63.1296333377" lon="8.56166666021">
		<tag k="name" v="Langskjærrevet" />
		<tag k="natural" v="shoal" />
		<tag k="place" v="locality" />
		<tag k="ssr:stedsnr" v="886479" />
	</node>
	<node id="-81378" lat="63.4299888926" lon="8.95653332348">
		<tag k="name" v="Rognholmen" />
		<tag k="place" v="islet" />
		<tag k="ssr:stedsnr" v="681404" />
	</node>
	<node id="-81369" lat="63.3591055541" lon="9.32111389368">
		<tag k="alt_name" v="Vågslibugen" />
		<tag k="name" v="Vågslivågen" />
		<tag k="natural" v="bay" />
		<tag k="ssr:stedsnr" v="882963" />
	</node>
	<node id="-83414" lat="63.1076833366" lon="8.27268055127">
		<tag k="name" v="Kalvhusbukta" />
		<tag k="natural" v="bay" />
		<tag k="ssr:stedsnr" v="412076" />
	</node>
	<node id="-83413" lat="63.0994749972" lon="8.28382499977">
		<tag k="name" v="Skjelvågan" />
		<tag k="natural" v="bay" />
		<tag k="ssr:stedsnr" v="412005" />
	</node>
	<node id="-81361" lat="63.3902856296" lon="9.1622887374">
		<tag k="name" v="Bjørkøya" />
		<tag k="place" v="island" />
		<tag k="ssr:stedsnr" v="679620" />
	</node>
	<node id="-83401" lat="63.0948444432" lon="8.17738055416">
		<tag k="name" v="Bekkevika" />
		<tag k="natural" v="bay" />
		<tag k="ssr:stedsnr" v="411746" />
	</node>
	<node id="-81350" lat="63.4082805589" lon="8.87202778393">
		<tag k="name" v="Rørstranda" />
		<tag k="natural" v="beach" />
		<tag k="place" v="locality" />
		<tag k="ssr:stedsnr" v="879994" />
	</node>
	<node id="-81349" lat="63.3063611079" lon="9.12052500523">
		<tag k="name" v="Svaet" />
		<tag k="place" v="locality" />
		<tag k="ssr:stedsnr" v="879993" />
	</node>
	<node id="-83383" lat="63.1002222246" lon="8.3176638817">
		<tag k="name" v="Kjeholmen" />
		<tag k="place" v="islet" />
		<tag k="ssr:stedsnr" v="411006" />
	</node>
	<node id="-83382" lat="63.0932638891" lon="8.30772221536">
		<tag k="name" v="Gjerstadgalten" />
		<tag k="natural" v="cape" />
		<tag k="ssr:stedsnr" v="411005" />
	</node>
	<node id="-83378" lat="63.4357138845" lon="8.9079083397">
		<tag k="name" v="Geitbergbukta" />
		<tag k="natural" v="bay" />
		<tag k="ssr:stedsnr" v="409020" />
	</node>
	<node id="-83377" lat="63.1472666698" lon="8.31443333889">
		<tag k="name" v="Furuneset" />
		<tag k="natural" v="cape" />
		<tag k="ssr:stedsnr" v="408960" />
	</node>
	<node id="-83373" lat="63.1266694451" lon="8.5973638794">
		<tag k="name" v="Ytre Fjærlibukta" />
		<tag k="natural" v="bay" />
		<tag k="ssr:stedsnr" v="400516" />
	</node>
	<node id="-83372" lat="63.1413750042" lon="8.53443055081">
		<tag k="name" v="Valsøysundet" />
		<tag k="natural" v="strait" />
		<tag k="ssr:stedsnr" v="400514" />
	</node>
	<node id="-83370" lat="63.3588805593" lon="9.31918611053">
		<tag k="name" v="Skjertåa" />
		<tag k="natural" v="cape" />
		<tag k="ssr:stedsnr" v="397977" />
	</node>
	<node id="-83365" lat="63.3351194422" lon="9.24221667136">
		<tag k="name" v="Vikahyllan" />
		<tag k="natural" v="cape" />
		<tag k="ssr:stedsnr" v="397825" />
	</node>
	<node id="-83363" lat="63.3370138872" lon="9.22426111881">
		<tag k="name" v="Skjulberget" />
		<tag k="natural" v="cape" />
		<tag k="ssr:stedsnr" v="397810" />
	</node>
	<node id="-81314" lat="63.3531694413" lon="9.12411943508">
		<tag k="name" v="Storvika" />
		<tag k="natural" v="bay" />
		<tag k="ssr:stedsnr" v="879774" />
	</node>
	<node id="-83355" lat="63.3519722216" lon="9.27323333379">
		<tag k="name" v="Vennaøran" />
		<tag k="natural" v="cape" />
		<tag k="ssr:stedsnr" v="397200" />
	</node>
	<node id="-81299" lat="63.4600722214" lon="9.02328610569">
		<tag k="name" v="Bekkaneset" />
		<tag k="natural" v="cape" />
		<tag k="ssr:stedsnr" v="879602" />
	</node>
	<node id="-81298" lat="63.4619777807" lon="9.02061110861">
		<tag k="name" v="Kvervosbukta" />
		<tag k="natural" v="bay" />
		<tag k="ssr:stedsnr" v="879600" />
	</node>
	<node id="-81296" lat="63.4582805562" lon="8.99829999394">
		<tag k="name" v="Malvika" />
		<tag k="natural" v="bay" />
		<tag k="ssr:stedsnr" v="879597" />
	</node>
	<node id="-83864" lat="63.1373194415" lon="8.44460832457">
		<tag k="name" v="Storklubben" />
		<tag k="natural" v="cape" />
		<tag k="ssr:stedsnr" v="594584" />
	</node>
	<node id="-81291" lat="63.3889861104" lon="8.90460833701">
		<tag k="name" v="Seterneset" />
		<tag k="natural" v="cape" />
		<tag k="ssr:stedsnr" v="879583" />
	</node>
	<node id="-81288" lat="63.4358222224" lon="8.98683333998">
		<tag k="name" v="Våtvika" />
		<tag k="natural" v="bay" />
		<tag k="ssr:stedsnr" v="879577" />
	</node>
	<node id="-81287" lat="63.4292305527" lon="8.9994916587">
		<tag k="name" v="Snekkvikbugen" />
		<tag k="natural" v="bay" />
		<tag k="ssr:stedsnr" v="879573" />
	</node>
	<node id="-81282" lat="63.4469805567" lon="9.05338889298">
		<tag k="name" v="Litlfuruneset" />
		<tag k="natural" v="cape" />
		<tag k="ssr:stedsnr" v="879546" />
	</node>
	<node id="-83329" lat="63.4044555524" lon="8.88036943782">
		<tag k="name" v="Kuvikhammaren" />
		<tag k="natural" v="cape" />
		<tag k="ssr:stedsnr" v="393934" />
	</node>
	<node id="-83310" lat="63.378355556" lon="9.14947777048">
		<tag k="name" v="Buganeset" />
		<tag k="natural" v="cape" />
		<tag k="ssr:stedsnr" v="393684" />
	</node>
	<node id="-83306" lat="63.4370833342" lon="8.87916388388">
		<tag k="name" v="Litlaunskaget" />
		<tag k="natural" v="cape" />
		<tag k="ssr:stedsnr" v="393529" />
	</node>
	<node id="-83296" lat="63.4104527772" lon="8.89788888267">
		<tag k="name" v="Bekkabukta" />
		<tag k="natural" v="bay" />
		<tag k="ssr:stedsnr" v="393585" />
	</node>
	<node id="-83294" lat="63.4464777806" lon="9.05401944518">
		<tag k="name" v="Furunesbukta" />
		<tag k="natural" v="bay" />
		<tag k="ssr:stedsnr" v="393575" />
	</node>
	<node id="-82489" lat="63.1797972267" lon="8.66474444824">
		<tag k="name" v="Bergtåa" />
		<tag k="natural" v="cape" />
		<tag k="ssr:stedsnr" v="109850" />
	</node>
	<node id="-83168" lat="63.1372638921" lon="8.40651389503">
		<tag k="alt_name" v="Galten" />
		<tag k="fixme" v="consider seamark:type=rock or natural=shoal" />
		<tag k="name" v="Hennagalten" />
		<tag k="place" v="islet" />
		<tag k="ssr:stedsnr" v="351571" />
	</node>
	<node id="-83253" lat="63.4512361151" lon="9.09977777566">
		<tag k="bay" v="fjord" />
		<tag k="name" v="Hemnfjorden" />
		<tag k="natural" v="bay" />
		<tag k="ssr:stedsnr" v="377480" />
	</node>
	<node id="-83252" lat="63.4486611068" lon="8.91086944502">
		<tag k="name" v="Røstøyhamna" />
		<tag k="natural" v="bay" />
		<tag k="ssr:stedsnr" v="377479" />
	</node>
	<node id="-83251" lat="63.4294055551" lon="8.81493611746">
		<tag k="name" v="Taftøysundet" />
		<tag k="natural" v="strait" />
		<tag k="ssr:stedsnr" v="377406" />
	</node>
	<node id="-81201" lat="63.4059305597" lon="8.88832499441">
		<tag k="name" v="Bjellvika" />
		<tag k="natural" v="bay" />
		<tag k="ssr:stedsnr" v="876756" />
	</node>
	<node id="-83248" lat="63.4417194431" lon="9.09531389007">
		<tag k="name" v="Oterneset" />
		<tag k="natural" v="cape" />
		<tag k="ssr:stedsnr" v="377390" />
	</node>
	<node id="-81192" lat="63.1555777803" lon="8.54227777815">
		<tag k="name" v="Munkhamna" />
		<tag k="natural" v="bay" />
		<tag k="ssr:stedsnr" v="654726" />
	</node>
	<node id="-83239" lat="63.1280055543" lon="8.57941945095">
		<tag k="name" v="Grasneset" />
		<tag k="natural" v="cape" />
		<tag k="ssr:stedsnr" v="376972" />
	</node>
	<node id="-84402" lat="63.1535666662" lon="8.52238610712">
		<tag k="name" v="Risholmen" />
		<tag k="place" v="islet" />
		<tag k="ssr:stedsnr" v="802104" />
	</node>
	<node id="-83233" lat="63.0803277776" lon="8.29956111713">
		<tag k="name" v="Reitvågen" />
		<tag k="natural" v="bay" />
		<tag k="ssr:stedsnr" v="376908" />
	</node>
	<node id="-83232" lat="63.0955805541" lon="8.30402499228">
		<tag k="name" v="Gjerstadneset" />
		<tag k="natural" v="cape" />
		<tag k="ssr:stedsnr" v="376896" />
	</node>
	<node id="-81178" lat="63.146077778" lon="8.5502416583">
		<tag k="name" v="Innerneset" />
		<tag k="natural" v="cape" />
		<tag k="ssr:stedsnr" v="653681" />
	</node>
	<node id="-82478" lat="63.131233335" lon="8.18905833758">
		<tag k="name" v="Elvaneset" />
		<tag k="natural" v="cape" />
		<tag k="ssr:stedsnr" v="109553" />
	</node>
	<node id="-83211" lat="63.4127111098" lon="9.02100554634">
		<tag k="name" v="Bellsvikleiret" />
		<tag k="natural" v="bay" />
		<tag k="ssr:stedsnr" v="376699" />
	</node>
	<node id="-82188" lat="63.1379000024" lon="8.20453056474">
		<tag k="name" v="Kippervikneset" />
		<tag k="natural" v="cape" />
		<tag k="ssr:stedsnr" v="48284" />
	</node>
	<node id="-81154" lat="63.3436361129" lon="9.13502777119">
		<tag k="name" v="Kalvtrøneset" />
		<tag k="natural" v="cape" />
		<tag k="ssr:stedsnr" v="635773" />
	</node>
	<node id="-82475" lat="63.1092750015" lon="8.32029722533">
		<tag k="name" v="Brynholmen" />
		<tag k="place" v="islet" />
		<tag k="ssr:stedsnr" v="109088" />
	</node>
	<node id="-83200" lat="63.2925135634" lon="9.11606439053">
		<tag k="alt_name" v="Merkeneset" />
		<tag k="name" v="Merkesneset" />
		<tag k="natural" v="cape" />
		<tag k="ssr:stedsnr" v="376587" />
	</node>
	<node id="-81147" lat="63.3224194414" lon="9.10546944059">
		<tag k="name" v="Bergsneset" />
		<tag k="natural" v="cape" />
		<tag k="ssr:stedsnr" v="635803" />
	</node>
	<node id="-82784" lat="63.1485611086" lon="8.4796055654">
		<tag k="name" v="Langgrunnen" />
		<tag k="natural" v="shoal" />
		<tag k="place" v="locality" />
		<tag k="ssr:stedsnr" v="170809" />
	</node>
	<node id="-83188" lat="63.2037416628" lon="8.86516665806">
		<tag k="name" v="Haganeset" />
		<tag k="natural" v="cape" />
		<tag k="ssr:stedsnr" v="352611" />
	</node>
	<node id="-81134" lat="63.4599999969" lon="9.04831667469">
		<tag k="name" v="Stamnesøya" />
		<tag k="place" v="island" />
		<tag k="ssr:stedsnr" v="619527" />
	</node>
	<node id="-83181" lat="63.1278194435" lon="8.58498611444">
		<tag k="name" v="Apalneset" />
		<tag k="natural" v="cape" />
		<tag k="ssr:stedsnr" v="351845" />
	</node>
	<node id="-83176" lat="63.1507111121" lon="8.51898332913">
		<tag k="name" v="Buholmskaget" />
		<tag k="natural" v="cape" />
		<tag k="ssr:stedsnr" v="351695" />
	</node>
	<node id="-81127" lat="63.3932583297" lon="8.90188056466">
		<tag k="name" v="Tindneset" />
		<tag k="natural" v="cape" />
		<tag k="ssr:stedsnr" v="618610" />
	</node>
	<node id="-81126" lat="63.4190888846" lon="8.94443332438">
		<tag k="fixme" v="multiple name tags, choose one and add the other to alt_name" />
		<tag k="name" v="Storholmen;Vågholmen" />
		<tag k="place" v="islet" />
		<tag k="ssr:stedsnr" v="618406" />
	</node>
	<node id="-81125" lat="63.4209019379" lon="8.97798022497">
		<tag k="name" v="Bjørkneset" />
		<tag k="natural" v="cape" />
		<tag k="ssr:stedsnr" v="618405" />
	</node>
	<node id="-81121" lat="63.1405638917" lon="8.49399443472">
		<tag k="name" v="Otnessundet" />
		<tag k="natural" v="strait" />
		<tag k="ssr:stedsnr" v="716791" />
	</node>
	<node id="-81120" lat="63.201408334" lon="8.92501388591">
		<tag k="name" v="Haukvikhølen" />
		<tag k="place" v="locality" />
		<tag k="ssr:stedsnr" v="716707" />
	</node>
	<node id="-81119" lat="63.0962694415" lon="8.61077777657">
		<tag k="name" v="Litlneset" />
		<tag k="natural" v="cape" />
		<tag k="ssr:stedsnr" v="716509" />
	</node>
	<node id="-81116" lat="63.1253555556" lon="8.15275556279">
		<tag k="name" v="Volungøysundet" />
		<tag k="natural" v="strait" />
		<tag k="ssr:stedsnr" v="716637" />
	</node>
	<node id="-81112" lat="63.435269448" lon="8.81834444411">
		<tag k="name" v="Nørflua" />
		<tag k="natural" v="shoal" />
		<tag k="place" v="locality" />
		<tag k="ssr:stedsnr" v="715925" />
	</node>
	<node id="-81109" lat="63.1835027761" lon="8.69909722978">
		<tag k="name" v="Nessaskaget" />
		<tag k="natural" v="cape" />
		<tag k="ssr:stedsnr" v="715877" />
	</node>
	<node id="-81105" lat="63.1576916659" lon="8.54528610705">
		<tag k="name" v="Sauraua" />
		<tag k="place" v="islet" />
		<tag k="ssr:stedsnr" v="715713" />
	</node>
	<node id="-83146" lat="63.138275002" lon="8.14876945047">
		<tag k="name" v="Storgrunnen" />
		<tag k="natural" v="shoal" />
		<tag k="place" v="locality" />
		<tag k="ssr:stedsnr" v="351467" />
	</node>
	<node id="-81093" lat="63.1210750043" lon="8.59181944652">
		<tag k="fixme" v="consider seamark:type=rock or natural=shoal" />
		<tag k="name" v="Klubba" />
		<tag k="place" v="islet" />
		<tag k="ssr:stedsnr" v="715534" />
	</node>
	<node id="-81085" lat="63.0791277811" lon="8.28423611925">
		<tag k="name" v="Reitsjøen" />
		<tag k="natural" v="bay" />
		<tag k="ssr:stedsnr" v="715247" />
	</node>
	<node id="-81076" lat="63.1188250029" lon="8.28232778628">
		<tag k="name" v="Grindneset" />
		<tag k="natural" v="cape" />
		<tag k="ssr:stedsnr" v="715075" />
	</node>
	<node id="-81073" lat="63.1246749962" lon="8.25949445382">
		<tag k="name" v="Stolsmoholmen" />
		<tag k="place" v="islet" />
		<tag k="ssr:stedsnr" v="715068" />
	</node>
	<node id="-81067" lat="63.0203555586" lon="8.25344167333">
		<tag k="name" v="Hjelpingneset" />
		<tag k="natural" v="cape" />
		<tag k="ssr:stedsnr" v="714534" />
	</node>
	<node id="-83107" lat="63.3625666659" lon="9.32610277193">
		<tag k="name" v="Neståa" />
		<tag k="natural" v="cape" />
		<tag k="ssr:stedsnr" v="336944" />
	</node>
	<node id="-81053" lat="63.1021027823" lon="8.28359722074">
		<tag k="name" v="Skjelvågneset" />
		<tag k="natural" v="cape" />
		<tag k="ssr:stedsnr" v="594011" />
	</node>
	<node id="-81051" lat="63.3749305552" lon="9.17435277512">
		<tag k="name" v="Holmstrand" />
		<tag k="natural" v="beach" />
		<tag k="place" v="locality" />
		<tag k="ssr:stedsnr" v="712947" />
	</node>
	<node id="-81043" lat="63.3633944433" lon="9.3127055578">
		<tag k="name" v="Ørtangen" />
		<tag k="natural" v="cape" />
		<tag k="ssr:stedsnr" v="578915" />
	</node>
	<node id="-81028" lat="63.4285349339" lon="8.78275216696">
		<tag k="name" v="Valøya" />
		<tag k="place" v="islet" />
		<tag k="ssr:stedsnr" v="575669" />
	</node>
	<node id="-83075" lat="63.4276944454" lon="8.77791944691">
		<tag k="name" v="Valøya" />
		<tag k="place" v="islet" />
		<tag k="ssr:stedsnr" v="333686" />
	</node>
	<node id="-81026" lat="63.4268303402" lon="9.11568089506">
		<tag k="name" v="Hannasteinsundet" />
		<tag k="natural" v="strait" />
		<tag k="ssr:stedsnr" v="575659" />
	</node>
	<node id="-83697" lat="63.4467861127" lon="9.02759721725">
		<tag k="name" v="Stamnesbugen" />
		<tag k="natural" v="bay" />
		<tag k="ssr:stedsnr" v="575582" />
	</node>
	<node id="-83054" lat="63.3093333337" lon="9.12768333838">
		<tag k="name" v="Hollaneset" />
		<tag k="natural" v="cape" />
		<tag k="ssr:stedsnr" v="332996" />
	</node>
	<node id="-79895" lat="63.1706138902" lon="8.61121110807">
		<tag k="name" v="Renndalsholmen" />
		<tag k="natural" v="bay" />
		<tag k="ssr:stedsnr" v="292622" />
	</node>
	<node id="-82450" lat="63.1083888929" lon="8.70447778605">
		<tag k="name" v="Napparneset" />
		<tag k="natural" v="cape" />
		<tag k="ssr:stedsnr" v="108114" />
	</node>
	<node id="-80999" lat="63.1353861073" lon="8.40018611605">
		<tag k="name" v="Skjerjebukta" />
		<tag k="natural" v="bay" />
		<tag k="ssr:stedsnr" v="704779" />
	</node>
	<node id="-83046" lat="63.408291669" lon="8.96659999786">
		<tag k="name" v="Slomphusneset" />
		<tag k="natural" v="cape" />
		<tag k="ssr:stedsnr" v="332670" />
	</node>
	<node id="-80997" lat="63.4325638922" lon="8.93250277911">
		<tag k="name" v="Storholmen" />
		<tag k="place" v="islet" />
		<tag k="ssr:stedsnr" v="559404" />
	</node>
	<node id="-83042" lat="63.4682222218" lon="9.02405276929">
		<tag k="fixme" v="consider seamark:type=rock or natural=shoal" />
		<tag k="name" v="Storskjeret" />
		<tag k="place" v="islet" />
		<tag k="ssr:stedsnr" v="332625" />
	</node>
	<node id="-80972" lat="63.4548472267" lon="8.92631666072">
		<tag k="name" v="Hamnaholman" />
		<tag k="place" v="islet" />
		<tag k="ssr:stedsnr" v="558511" />
	</node>
	<node id="-82103" lat="63.4268000024" lon="8.85471666882">
		<tag k="name" v="Øykvika" />
		<tag k="natural" v="bay" />
		<tag k="ssr:stedsnr" v="29948" />
	</node>
	<node id="-80959" lat="63.3387361083" lon="9.21890277846">
		<tag k="name" v="Hylltangen" />
		<tag k="natural" v="cape" />
		<tag k="ssr:stedsnr" v="700790" />
	</node>
	<node id="-83576" lat="63.1340722189" lon="8.19938056299">
		<tag k="name" v="Storvika" />
		<tag k="natural" v="bay" />
		<tag k="ssr:stedsnr" v="533300" />
	</node>
	<node id="-83005" lat="63.1429055514" lon="8.55874721732">
		<tag k="name" v="Storneset" />
		<tag k="natural" v="cape" />
		<tag k="ssr:stedsnr" v="316973" />
	</node>
	<node id="-80952" lat="63.1911194429" lon="8.81668055033">
		<tag k="name" v="Kråktåa" />
		<tag k="natural" v="cape" />
		<tag k="ssr:stedsnr" v="697976" />
	</node>
	<node id="-82994" lat="63.1265944404" lon="8.14351666408">
		<tag k="name" v="Volungøya" />
		<tag k="place" v="island" />
		<tag k="ssr:stedsnr" v="316300" />
	</node>
	<node id="-80941" lat="63.40778889" lon="9.00850278322">
		<tag k="name" v="Djupvika" />
		<tag k="natural" v="bay" />
		<tag k="ssr:stedsnr" v="697648" />
	</node>
	<node id="-82988" lat="63.4454638849" lon="8.9037027762">
		<tag k="name" v="Røstøya" />
		<tag k="place" v="island" />
		<tag k="ssr:stedsnr" v="316440" />
	</node>
	<node id="-82986" lat="63.4417444456" lon="8.95315000908">
		<tag k="name" v="Svelungen" />
		<tag k="place" v="islet" />
		<tag k="ssr:stedsnr" v="316432" />
	</node>
	<node id="-82971" lat="63.3773750018" lon="9.15494444945">
		<tag k="name" v="Bugaholmen" />
		<tag k="place" v="islet" />
		<tag k="ssr:stedsnr" v="315749" />
	</node>
	<node id="-80920" lat="63.4226555597" lon="8.92422776923">
		<tag k="name" v="Kuskjelbukta" />
		<tag k="natural" v="bay" />
		<tag k="ssr:stedsnr" v="697571" />
	</node>
	<node id="-82956" lat="63.3611472221" lon="9.32463332348">
		<tag k="name" v="Skjelneset" />
		<tag k="natural" v="cape" />
		<tag k="ssr:stedsnr" v="215975" />
	</node>
	<node id="-82944" lat="63.410602779" lon="8.87481110247">
		<tag k="fixme" v="consider seamark:type=rock or natural=shoal" />
		<tag k="name" v="Tigardsskjeret" />
		<tag k="place" v="islet" />
		<tag k="ssr:stedsnr" v="212997" />
	</node>
	<node id="-82943" lat="63.4177083306" lon="8.88049722068">
		<tag k="name" v="Vikaneset" />
		<tag k="natural" v="cape" />
		<tag k="ssr:stedsnr" v="212989" />
	</node>
	<node id="-80877" lat="63.1058388886" lon="8.27316666607">
		<tag k="name" v="Kløvsetbukta" />
		<tag k="natural" v="bay" />
		<tag k="ssr:stedsnr" v="534170" />
	</node>
	<node id="-80875" lat="63.1846027772" lon="8.76347777543">
		<tag k="name" v="Svadalsbukta" />
		<tag k="natural" v="bay" />
		<tag k="ssr:stedsnr" v="533976" />
	</node>
	<node id="-82910" lat="63.4241361087" lon="8.97841665861">
		<tag k="name" v="Gussøysundet" />
		<tag k="natural" v="strait" />
		<tag k="ssr:stedsnr" v="211664" />
	</node>
	<node id="-82902" lat="63.4641444455" lon="8.99969444303">
		<tag k="name" v="Kråkneset" />
		<tag k="natural" v="cape" />
		<tag k="ssr:stedsnr" v="211624" />
	</node>
	<node id="-80853" lat="63.3928777791" lon="8.90892776791">
		<tag k="name" v="Bjørndalsbukta" />
		<tag k="natural" v="bay" />
		<tag k="ssr:stedsnr" v="530207" />
	</node>
	<node id="-82896" lat="63.4420305598" lon="9.09519444727">
		<tag k="name" v="Oternesodden" />
		<tag k="natural" v="cape" />
		<tag k="ssr:stedsnr" v="211596" />
	</node>
	<node id="-82895" lat="63.4146666666" lon="8.92267777896">
		<tag k="name" v="Urdbukta" />
		<tag k="natural" v="bay" />
		<tag k="ssr:stedsnr" v="211594" />
	</node>
	<node id="-82894" lat="63.4077888931" lon="8.90170278457">
		<tag k="fixme" v="multiple name tags, choose one and add the other to alt_name" />
		<tag k="name" v="Bjellvikbukta;Småbukta" />
		<tag k="natural" v="bay" />
		<tag k="ssr:stedsnr" v="211589" />
	</node>
	<node id="-82893" lat="63.4514777812" lon="9.02832222577">
		<tag k="name" v="Svarthammaren" />
		<tag k="natural" v="cape" />
		<tag k="ssr:stedsnr" v="211585" />
	</node>
	<node id="-82891" lat="63.4335416623" lon="8.82023332928">
		<tag k="fixme" v="consider seamark:type=rock or natural=shoal" />
		<tag k="name" v="Nordfluskjea" />
		<tag k="place" v="islet" />
		<tag k="ssr:stedsnr" v="211547" />
	</node>
	<node id="-80817" lat="63.4060666703" lon="9.14592777468">
		<tag k="name" v="Kattavikneset" />
		<tag k="natural" v="cape" />
		<tag k="ssr:stedsnr" v="498718" />
	</node>
	<node id="-80796" lat="63.4137833375" lon="8.9061333377">
		<tag k="name" v="Veøya" />
		<tag k="place" v="islet" />
		<tag k="ssr:stedsnr" v="680703" />
	</node>
	<node id="-82074" lat="63.4287944453" lon="8.81354721647">
		<tag k="name" v="Holmen" />
		<tag k="place" v="islet" />
		<tag k="ssr:stedsnr" v="29708" />
	</node>
	<node id="-80792" lat="63.3407861099" lon="9.13629167014">
		<tag k="name" v="Lernesodden" />
		<tag k="natural" v="cape" />
		<tag k="ssr:stedsnr" v="497528" />
	</node>
	<node id="-83780" lat="63.353686113" lon="9.28219167018">
		<tag k="name" v="Vollabukta" />
		<tag k="natural" v="bay" />
		<tag k="ssr:stedsnr" v="578971" />
	</node>
	<node id="-82838" lat="63.1460666654" lon="8.33986110161">
		<tag k="name" v="Taknesholmen" />
		<tag k="place" v="islet" />
		<tag k="ssr:stedsnr" v="195949" />
	</node>
	<node id="-80783" lat="63.4555194427" lon="8.91993610331">
		<tag k="fixme" v="consider seamark:type=rock or natural=shoal" />
		<tag k="name" v="Langskjæra" />
		<tag k="place" v="islet" />
		<tag k="ssr:stedsnr" v="680543" />
	</node>
	<node id="-82829" lat="63.4003388887" lon="8.89466666863">
		<tag k="name" v="Mistfjorden" />
		<tag k="natural" v="bay" />
		<tag k="ssr:stedsnr" v="195683" />
	</node>
	<node id="-80768" lat="63.4211111108" lon="9.10089444156">
		<tag k="alt_name" v="Inner Heimsvågen" />
		<tag k="name" v="Innervågen" />
		<tag k="natural" v="bay" />
		<tag k="ssr:stedsnr" v="679634" />
	</node>
	<node id="-80767" lat="63.1157694402" lon="8.14610278055">
		<tag k="bay" v="fjord" />
		<tag k="name" v="Halsafjorden" />
		<tag k="natural" v="bay" />
		<tag k="ssr:stedsnr" v="679286" />
	</node>
	<node id="-80764" lat="63.1922944461" lon="8.82145833672">
		<tag k="name" v="Hovdebukta" />
		<tag k="natural" v="bay" />
		<tag k="ssr:stedsnr" v="473613" />
	</node>
	<node id="-83774" lat="63.4068277795" lon="8.88197222884">
		<tag k="fixme" v="consider seamark:type=rock or natural=shoal" />
		<tag k="name" v="Skjelskjeret" />
		<tag k="place" v="islet" />
		<tag k="ssr:stedsnr" v="575995" />
	</node>
	<node id="-80743" lat="63.4104805589" lon="9.00732500646">
		<tag k="name" v="Kalvneset" />
		<tag k="natural" v="cape" />
		<tag k="ssr:stedsnr" v="454676" />
	</node>
	<node id="-82788" lat="63.4171527823" lon="9.0100916671">
		<tag k="name" v="Oldervika" />
		<tag k="natural" v="bay" />
		<tag k="ssr:stedsnr" v="194378" />
	</node>
	<node id="-82787" lat="63.4265166692" lon="8.85564721775">
		<tag k="name" v="Stranda" />
		<tag k="natural" v="bay" />
		<tag k="ssr:stedsnr" v="194239" />
	</node>
	<node id="-82786" lat="63.0800666709" lon="8.19182778619">
		<tag k="name" v="Skårneset" />
		<tag k="natural" v="cape" />
		<tag k="ssr:stedsnr" v="194176" />
	</node>
	<node id="-80736" lat="63.4584694458" lon="9.06572222235">
		<tag k="name" v="Brannhus-skaget" />
		<tag k="natural" v="cape" />
		<tag k="ssr:stedsnr" v="454628" />
	</node>
	<node id="-82783" lat="63.204205555" lon="8.96844721438">
		<tag k="name" v="Fjelnsetbukta" />
		<tag k="natural" v="bay" />
		<tag k="ssr:stedsnr" v="170701" />
	</node>
	<node id="-82782" lat="63.1706499972" lon="8.60478056033">
		<tag k="name" v="Buneset" />
		<tag k="natural" v="cape" />
		<tag k="ssr:stedsnr" v="170596" />
	</node>
	<node id="-82781" lat="63.1852666648" lon="8.72783610623">
		<tag k="name" v="Kalvtrøbukta" />
		<tag k="natural" v="bay" />
		<tag k="ssr:stedsnr" v="169999" />
	</node>
	<node id="-82780" lat="63.1850361154" lon="8.73474444171">
		<tag k="name" v="Nesset" />
		<tag k="natural" v="cape" />
		<tag k="ssr:stedsnr" v="169989" />
	</node>
	<node id="-82778" lat="63.1350416702" lon="8.19438611811">
		<tag k="name" v="Taren" />
		<tag k="natural" v="shoal" />
		<tag k="place" v="locality" />
		<tag k="ssr:stedsnr" v="170487" />
	</node>
	<node id="-80727" lat="63.4311250041" lon="8.81610555421">
		<tag k="name" v="Taftøya" />
		<tag k="place" v="islet" />
		<tag k="ssr:stedsnr" v="454535" />
	</node>
	<node id="-82774" lat="63.1781472252" lon="8.65913055317">
		<tag k="name" v="Gammelhamna" />
		<tag k="natural" v="bay" />
		<tag k="ssr:stedsnr" v="169865" />
	</node>
	<node id="-82769" lat="63.1348083352" lon="8.46682222999">
		<tag k="name" v="Kanalbukta" />
		<tag k="natural" v="bay" />
		<tag k="ssr:stedsnr" v="169793" />
	</node>
	<node id="-82747" lat="63.1397361084" lon="8.49954167608">
		<tag k="name" v="Galten" />
		<tag k="natural" v="cape" />
		<tag k="ssr:stedsnr" v="169571" />
	</node>
	<node id="-82746" lat="63.13422723" lon="8.46074620088">
		<tag k="name" v="Kane laksevorpe" />
		<tag k="place" v="locality" />
		<tag k="ssr:stedsnr" v="169559" />
	</node>
	<node id="-80691" lat="63.4284611114" lon="8.87060277238">
		<tag k="name" v="Stavnesskaget" />
		<tag k="natural" v="cape" />
		<tag k="ssr:stedsnr" v="658759" />
	</node>
	<node id="-80688" lat="63.4425249983" lon="8.97648333745">
		<tag k="fixme" v="consider seamark:type=rock or natural=shoal" />
		<tag k="name" v="Ausa" />
		<tag k="place" v="islet" />
		<tag k="ssr:stedsnr" v="438367" />
	</node>
	<node id="-80008" lat="63.4437499975" lon="8.9273888975">
		<tag k="name" v="Røstøybugan" />
		<tag k="natural" v="bay" />
		<tag k="ssr:stedsnr" v="256355" />
	</node>
	<node id="-82728" lat="63.1497777762" lon="8.33168334136">
		<tag k="name" v="Vikaholet" />
		<tag k="natural" v="bay" />
		<tag k="ssr:stedsnr" v="168599" />
	</node>
	<node id="-80677" lat="63.3337972251" lon="9.24157499766">
		<tag k="name" v="Grønvika" />
		<tag k="natural" v="bay" />
		<tag k="ssr:stedsnr" v="518795" />
	</node>
	<node id="-84768" lat="63.3917316878" lon="9.15617517713">
		<tag k="name" v="Bjørkøysundet" />
		<tag k="natural" v="strait" />
		<tag k="ssr:stedsnr" v="1078150" />
	</node>
	<node id="-82714" lat="63.4367694459" lon="8.95596667261">
		<tag k="name" v="Indre Svelungflua" />
		<tag k="natural" v="shoal" />
		<tag k="place" v="locality" />
		<tag k="ssr:stedsnr" v="166374" />
	</node>
	<node id="-81027" lat="63.4331277747" lon="8.80461667287">
		<tag k="name" v="Ytterøya" />
		<tag k="place" v="island" />
		<tag k="ssr:stedsnr" v="575668" />
	</node>
	<node id="-80653" lat="63.3312694473" lon="9.11451944234">
		<tag k="name" v="Bjørklibukta" />
		<tag k="natural" v="bay" />
		<tag k="ssr:stedsnr" v="515830" />
	</node>
	<node id="-84746" lat="63.1216168809" lon="8.26872240512">
		<tag k="name" v="Brunsvikholmen" />
		<tag k="place" v="islet" />
		<tag k="ssr:stedsnr" v="976113" />
	</node>
	<node id="-84735" lat="63.1040444484" lon="8.31297777762">
		<tag k="name" v="Kuneset" />
		<tag k="natural" v="cape" />
		<tag k="ssr:stedsnr" v="960384" />
	</node>
	<node id="-84734" lat="63.1842166697" lon="8.73590555835">
		<tag k="name" v="Engdalsbukta" />
		<tag k="natural" v="bay" />
		<tag k="ssr:stedsnr" v="958996" />
	</node>
	<node id="-80637" lat="63.1958527789" lon="8.87873888625">
		<tag k="name" v="Grønsetneset" />
		<tag k="natural" v="cape" />
		<tag k="ssr:stedsnr" v="515600" />
	</node>
	<node id="-82681" lat="63.4263611092" lon="8.83778610994">
		<tag k="name" v="Langneset" />
		<tag k="natural" v="cape" />
		<tag k="ssr:stedsnr" v="150935" />
	</node>
	<node id="-80615" lat="63.3037638893" lon="9.12876389689">
		<tag k="name" v="Trøneset" />
		<tag k="natural" v="cape" />
		<tag k="ssr:stedsnr" v="514972" />
	</node>
	<node id="-82657" lat="63.4280750027" lon="8.82336944529">
		<tag k="name" v="Leirvika" />
		<tag k="natural" v="bay" />
		<tag k="ssr:stedsnr" v="150690" />
	</node>
	<node id="-80606" lat="63.4613166684" lon="8.99565554557">
		<tag k="name" v="Kråkdalsneset" />
		<tag k="natural" v="cape" />
		<tag k="ssr:stedsnr" v="514646" />
	</node>
	<node id="-80600" lat="63.4484833303" lon="8.88455832776">
		<tag k="name" v="Strauman" />
		<tag k="place" v="locality" />
		<tag k="ssr:stedsnr" v="514558" />
	</node>
	<node id="-82643" lat="63.3992222182" lon="8.90219166621">
		<tag k="name" v="Svarthammarneset" />
		<tag k="natural" v="cape" />
		<tag k="ssr:stedsnr" v="150599" />
	</node>
	<node id="-84687" lat="63.0982249987" lon="8.32349722567">
		<tag k="name" v="Bakkabukta" />
		<tag k="natural" v="bay" />
		<tag k="ssr:stedsnr" v="958194" />
	</node>
	<node id="-82637" lat="63.4245027772" lon="8.93539723115">
		<tag k="name" v="Tannabukta" />
		<tag k="natural" v="bay" />
		<tag k="ssr:stedsnr" v="150586" />
	</node>
	<node id="-82624" lat="63.4269305592" lon="9.11713888326">
		<tag k="name" v="Hannasteinklumpen" />
		<tag k="place" v="islet" />
		<tag k="ssr:stedsnr" v="150666" />
	</node>
	<node id="-84670" lat="63.1464166704" lon="8.54181389459">
		<tag k="name" v="Roksvågen" />
		<tag k="natural" v="bay" />
		<tag k="ssr:stedsnr" v="957647" />
	</node>
	<node id="-84669" lat="63.1422472183" lon="8.54845556472">
		<tag k="name" v="Joholmen" />
		<tag k="place" v="islet" />
		<tag k="ssr:stedsnr" v="957646" />
	</node>
	<node id="-84666" lat="63.1269166636" lon="8.24869999801">
		<tag k="name" v="Løvikstraumen" />
		<tag k="natural" v="strait" />
		<tag k="ssr:stedsnr" v="957477" />
	</node>
	<node id="-82614" lat="63.4288138855" lon="8.81461110832">
		<tag k="name" v="Holmen" />
		<tag k="natural" v="cape" />
		<tag k="ssr:stedsnr" v="150534" />
	</node>
	<node id="-84660" lat="63.4640194437" lon="8.96613610527">
		<tag k="name" v="Magerøygrunnen" />
		<tag k="natural" v="shoal" />
		<tag k="place" v="locality" />
		<tag k="ssr:stedsnr" v="955391" />
	</node>
	<node id="-84659" lat="63.4662194464" lon="8.97708889031">
		<tag k="name" v="Kråkgrunnen" />
		<tag k="natural" v="shoal" />
		<tag k="place" v="locality" />
		<tag k="ssr:stedsnr" v="955388" />
	</node>
	<node id="-84658" lat="63.3588944406" lon="9.33530278413">
		<tag k="name" v="Vågslibugen" />
		<tag k="natural" v="bay" />
		<tag k="ssr:stedsnr" v="955203" />
	</node>
	<node id="-84657" lat="63.3610333345" lon="9.16405555972">
		<tag k="name" v="Klakken" />
		<tag k="natural" v="shoal" />
		<tag k="place" v="locality" />
		<tag k="ssr:stedsnr" v="954965" />
	</node>
	<node id="-80553" lat="63.3127499971" lon="9.1365194491">
		<tag k="name" v="Hollabugen" />
		<tag k="natural" v="bay" />
		<tag k="ssr:stedsnr" v="511709" />
	</node>
	<node id="-80552" lat="63.3387472203" lon="9.21272499467">
		<tag k="name" v="Austre Buvika" />
		<tag k="natural" v="bay" />
		<tag k="ssr:stedsnr" v="511707" />
	</node>
	<node id="-84645" lat="63.4287638867" lon="8.9070444385">
		<tag k="name" v="Gaddholmen" />
		<tag k="place" v="islet" />
		<tag k="ssr:stedsnr" v="863427" />
	</node>
	<node id="-84644" lat="63.4283583297" lon="8.87061944541">
		<tag k="name" v="Stavneset" />
		<tag k="natural" v="cape" />
		<tag k="ssr:stedsnr" v="863424" />
	</node>
	<node id="-84643" lat="63.4262694429" lon="8.85424165857">
		<tag k="name" v="Stranda" />
		<tag k="natural" v="beach" />
		<tag k="place" v="locality" />
		<tag k="ssr:stedsnr" v="863423" />
	</node>
	<node id="-84641" lat="63.4266845948" lon="9.11480650585">
		<tag k="name" v="Hannasteinen" />
		<tag k="natural" v="cape" />
		<tag k="ssr:stedsnr" v="863416" />
	</node>
	<node id="-84640" lat="63.4358805527" lon="8.86419166983">
		<tag k="name" v="Soløya" />
		<tag k="place" v="islet" />
		<tag k="ssr:stedsnr" v="863406" />
	</node>
	<node id="-84639" lat="63.4306296705" lon="8.8229710503">
		<tag k="name" v="Taftøyan" />
		<tag k="place" v="island" />
		<tag k="ssr:stedsnr" v="863397" />
	</node>
	<node id="-84638" lat="63.4496499986" lon="8.94064722678">
		<tag k="fixme" v="consider seamark:type=rock or natural=shoal" />
		<tag k="name" v="Nordlandsskjæra" />
		<tag k="place" v="islet" />
		<tag k="ssr:stedsnr" v="863380" />
	</node>
	<node id="-84634" lat="63.4476666688" lon="8.98054722243">
		<tag k="name" v="Magerøya" />
		<tag k="place" v="island" />
		<tag k="ssr:stedsnr" v="863368" />
	</node>
	<node id="-84629" lat="63.3490370279" lon="9.25524743225">
		<tag k="name" v="Forraneset" />
		<tag k="natural" v="cape" />
		<tag k="ssr:stedsnr" v="863149" />
	</node>
	<node id="-82266" lat="63.4428388873" lon="8.87464722041">
		<tag k="fixme" v="consider seamark:type=rock or natural=shoal" />
		<tag k="name" v="Myraurskjæra" />
		<tag k="place" v="islet" />
		<tag k="ssr:stedsnr" v="74384" />
	</node>
	<node id="-84620" lat="63.1402999978" lon="8.23014722646">
		<tag k="name" v="Korsneset" />
		<tag k="natural" v="cape" />
		<tag k="ssr:stedsnr" v="862952" />
	</node>
	<node id="-82569" lat="63.363105559" lon="9.31019999722">
		<tag k="alt_name" v="Stangneset" />
		<tag k="name" v="Selnestangen" />
		<tag k="natural" v="cape" />
		<tag k="ssr:stedsnr" v="134846" />
	</node>
	<node id="-82560" lat="63.1292472206" lon="8.17025278478">
		<tag k="fixme" v="multiple name tags, choose one and add the other to alt_name" />
		<tag k="name" v="Varpneset;Vorpneset" />
		<tag k="natural" v="cape" />
		<tag k="ssr:stedsnr" v="134314" />
	</node>
	<node id="-82558" lat="63.4300750009" lon="8.92409165717">
		<tag k="name" v="Marøya" />
		<tag k="place" v="island" />
		<tag k="ssr:stedsnr" v="134469" />
	</node>
	<node id="-80505" lat="63.456655555" lon="8.99734166114">
		<tag k="fixme" v="consider seamark:type=rock or natural=shoal" />
		<tag k="name" v="Malvikskjeret" />
		<tag k="place" v="islet" />
		<tag k="ssr:stedsnr" v="393619" />
	</node>
	<node id="-80503" lat="63.3883694462" lon="8.90391666419">
		<tag k="name" v="Seterleiet" />
		<tag k="natural" v="bay" />
		<tag k="ssr:stedsnr" v="393612" />
	</node>
	<node id="-82544" lat="63.1117305558" lon="8.30639444557">
		<tag k="name" v="Storøya" />
		<tag k="place" v="islet" />
		<tag k="ssr:stedsnr" v="133982" />
	</node>
	<node id="-82540" lat="63.1329638882" lon="8.52946665858">
		<tag k="name" v="Hestnes" />
		<tag k="natural" v="cape" />
		<tag k="ssr:stedsnr" v="133963" />
	</node>
	<node id="-82527" lat="63.1909916687" lon="8.81552500652">
		<tag k="name" v="Kråka" />
		<tag k="natural" v="cape" />
		<tag k="ssr:stedsnr" v="133778" />
	</node>
	<node id="-83901" lat="63.4547583296" lon="8.97757778679">
		<tag k="name" v="Kapellskaget" />
		<tag k="natural" v="cape" />
		<tag k="ssr:stedsnr" v="619428" />
	</node>
	<node id="-84565" lat="63.1546333304" lon="8.27756389459">
		<tag k="bay" v="fjord" />
		<tag k="name" v="Strandafjorden" />
		<tag k="natural" v="bay" />
		<tag k="ssr:stedsnr" v="839018" />
	</node>
	<node id="-84563" lat="63.1706611078" lon="8.61115832669">
		<tag k="name" v="Sørhylla" />
		<tag k="place" v="islet" />
		<tag k="ssr:stedsnr" v="838616" />
	</node>
	<node id="-82514" lat="63.4069333361" lon="9.14096666509">
		<tag k="name" v="Kattavika" />
		<tag k="natural" v="bay" />
		<tag k="ssr:stedsnr" v="133659" />
	</node>
	<node id="-84561" lat="63.1826388861" lon="8.69198055471">
		<tag k="name" v="Saltrøskaget" />
		<tag k="natural" v="cape" />
		<tag k="ssr:stedsnr" v="837879" />
	</node>
	<node id="-80463" lat="63.1483138856" lon="8.32863888147">
		<tag k="alt_name" v="Takneset" />
		<tag k="name" v="Taknes" />
		<tag k="natural" v="cape" />
		<tag k="ssr:stedsnr" v="498967" />
	</node>
	<node id="-82506" lat="63.4060833318" lon="8.96700000182">
		<tag k="alt_name" v="Slomphusbukta" />
		<tag k="name" v="Slumphusbukta" />
		<tag k="natural" v="bay" />
		<tag k="ssr:stedsnr" v="133629" />
	</node>
	<node id="-82501" lat="63.321449996" lon="9.13793332635">
		<tag k="name" v="Skogholmen" />
		<tag k="place" v="islet" />
		<tag k="ssr:stedsnr" v="133463" />
	</node>
	<node id="-82498" lat="63.3340333292" lon="9.19119999435">
		<tag k="name" v="Purkvikneset" />
		<tag k="natural" v="cape" />
		<tag k="ssr:stedsnr" v="133451" />
	</node>
	<node id="-80447" lat="63.4667527813" lon="9.03115556469">
		<tag k="name" v="Ytterøya" />
		<tag k="place" v="island" />
		<tag k="ssr:stedsnr" v="498550" />
	</node>
	<node id="-84542" lat="63.1338722243" lon="8.23351944046">
		<tag k="name" v="Naustvikbukta" />
		<tag k="natural" v="bay" />
		<tag k="ssr:stedsnr" v="837286" />
	</node>
	<node id="-82493" lat="63.1703222197" lon="8.60404444495">
		<tag k="name" v="Renndalshamna" />
		<tag k="natural" v="cape" />
		<tag k="ssr:stedsnr" v="133083" />
	</node>
	<node id="-80443" lat="63.4544638893" lon="9.00112222319">
		<tag k="name" v="Dalabugen" />
		<tag k="natural" v="bay" />
		<tag k="ssr:stedsnr" v="498446" />
	</node>
	<node id="-82490" lat="63.1996555523" lon="8.86299999438">
		<tag k="name" v="Hofsethølen" />
		<tag k="place" v="locality" />
		<tag k="ssr:stedsnr" v="110651" />
	</node>
	<node id="-80441" lat="63.4439500027" lon="8.93614721865">
		<tag k="name" v="Slåttaholmen" />
		<tag k="place" v="islet" />
		<tag k="ssr:stedsnr" v="498439" />
	</node>
	<node id="-82487" lat="63.1667416627" lon="8.56992500227">
		<tag k="alt_name" v="Norkvithyllbukta" />
		<tag k="name" v="Nordkvithyllbukta" />
		<tag k="natural" v="bay" />
		<tag k="ssr:stedsnr" v="109676" />
	</node>
	<node id="-84534" lat="63.0936972189" lon="8.33155833114">
		<tag k="name" v="Gjengstøbukta" />
		<tag k="natural" v="bay" />
		<tag k="ssr:stedsnr" v="836994" />
	</node>
	<node id="-84532" lat="63.1130138894" lon="8.28500277182">
		<tag k="alt_name" v="Litle Bårsetøya" />
		<tag k="name" v="Knudtzonøya" />
		<tag k="place" v="island" />
		<tag k="ssr:stedsnr" v="837076" />
	</node>
	<node id="-80433" lat="63.0984416643" lon="8.18129166364">
		<tag k="name" v="Vikabukta" />
		<tag k="natural" v="bay" />
		<tag k="ssr:stedsnr" v="376321" />
	</node>
	<node id="-84526" lat="63.126641663" lon="8.25280556059">
		<tag k="name" v="Skålvikholmen" />
		<tag k="place" v="islet" />
		<tag k="ssr:stedsnr" v="836440" />
	</node>
	<node id="-84525" lat="63.1206638924" lon="8.2501194359">
		<tag k="name" v="Kalvgeilneset" />
		<tag k="natural" v="cape" />
		<tag k="ssr:stedsnr" v="836427" />
	</node>
	<node id="-84524" lat="63.0272416629" lon="8.2241944459">
		<tag k="name" v="Vorpneset" />
		<tag k="natural" v="cape" />
		<tag k="ssr:stedsnr" v="836520" />
	</node>
	<node id="-80427" lat="63.4205472248" lon="8.94890000867">
		<tag k="alt_name" v="Slåttaholmen" />
		<tag k="name" v="Olaholmen" />
		<tag k="place" v="islet" />
		<tag k="ssr:stedsnr" v="498147" />
	</node>
	<node id="-82472" lat="63.1855305515" lon="8.72277500556">
		<tag k="name" v="Svartholet" />
		<tag k="natural" v="bay" />
		<tag k="ssr:stedsnr" v="108999" />
	</node>
	<node id="-84513" lat="63.1461333352" lon="8.47081945108">
		<tag k="name" v="Hennsetgrunnen" />
		<tag k="natural" v="shoal" />
		<tag k="place" v="locality" />
		<tag k="ssr:stedsnr" v="826793" />
	</node>
	<node id="-84512" lat="63.1386194471" lon="8.4334249951">
		<tag k="name" v="Kråknesbukta" />
		<tag k="natural" v="bay" />
		<tag k="ssr:stedsnr" v="826789" />
	</node>
	<node id="-80415" lat="63.3780861147" lon="9.17388888981">
		<tag k="name" v="Ytterodden" />
		<tag k="natural" v="cape" />
		<tag k="ssr:stedsnr" v="497741" />
	</node>
	<node id="-82462" lat="63.1525388874" lon="8.55483888534">
		<tag k="name" v="Slettneset" />
		<tag k="natural" v="cape" />
		<tag k="ssr:stedsnr" v="108558" />
	</node>
	<node id="-82459" lat="63.1305916641" lon="8.25456944159">
		<tag k="name" v="Skålvikbukta" />
		<tag k="natural" v="bay" />
		<tag k="ssr:stedsnr" v="108403" />
	</node>
	<node id="-80404" lat="63.1091083359" lon="8.32276667041">
		<tag k="name" v="Sagbukta" />
		<tag k="natural" v="bay" />
		<tag k="ssr:stedsnr" v="352142" />
	</node>
	<node id="-80402" lat="63.4584583318" lon="8.98269166982">
		<tag k="name" v="Yre Klakken" />
		<tag k="natural" v="shoal" />
		<tag k="place" v="locality" />
		<tag k="ssr:stedsnr" v="348376" />
	</node>
	<node id="-82441" lat="63.1490194487" lon="8.33610834043">
		<tag k="name" v="Tangen" />
		<tag k="natural" v="cape" />
		<tag k="ssr:stedsnr" v="107631" />
	</node>
	<node id="-84486" lat="63.4200277783" lon="8.87847499959">
		<tag k="name" v="Vikan" />
		<tag k="natural" v="bay" />
		<tag k="ssr:stedsnr" v="818987" />
	</node>
	<node id="-82433" lat="63.420022226" lon="8.91554999564">
		<tag k="fixme" v="consider seamark:type=rock or natural=shoal" />
		<tag k="name" v="Sørvågskjæret" />
		<tag k="place" v="islet" />
		<tag k="ssr:stedsnr" v="106229" />
	</node>
	<node id="-82432" lat="63.3943277749" lon="8.89154999719">
		<tag k="name" v="Skjærgrunnen" />
		<tag k="natural" v="shoal" />
		<tag k="place" v="locality" />
		<tag k="ssr:stedsnr" v="106167" />
	</node>
	<node id="-82431" lat="63.3530972257" lon="9.17350278459">
		<tag k="name" v="Næløygrunnen" />
		<tag k="natural" v="shoal" />
		<tag k="place" v="locality" />
		<tag k="ssr:stedsnr" v="105964" />
	</node>
	<node id="-84475" lat="63.4166611142" lon="8.9994166749">
		<tag k="name" v="Bytvika" />
		<tag k="natural" v="bay" />
		<tag k="ssr:stedsnr" v="818676" />
	</node>
	<node id="-82425" lat="63.144241666" lon="8.55503888461">
		<tag k="name" v="Leirvikstraumen" />
		<tag k="natural" v="strait" />
		<tag k="ssr:stedsnr" v="98592" />
	</node>
	<node id="-84468" lat="63.4481805518" lon="8.99813888682">
		<tag k="name" v="Notklakken" />
		<tag k="natural" v="cape" />
		<tag k="ssr:stedsnr" v="818634" />
	</node>
	<node id="-84466" lat="63.1952527819" lon="8.82939721486">
		<tag k="name" v="Straumsnesset" />
		<tag k="natural" v="cape" />
		<tag k="ssr:stedsnr" v="818628" />
	</node>
	<node id="-80368" lat="63.4289916637" lon="8.79420555516">
		<tag k="fixme" v="consider seamark:type=rock or natural=shoal" />
		<tag k="name" v="Steinskjeret" />
		<tag k="place" v="islet" />
		<tag k="ssr:stedsnr" v="332522" />
	</node>
	<node id="-84461" lat="63.4462472182" lon="8.8871166638">
		<tag k="name" v="Stongbugen" />
		<tag k="natural" v="bay" />
		<tag k="ssr:stedsnr" v="818451" />
	</node>
	<node id="-84451" lat="63.4207416624" lon="9.13250278021">
		<tag k="fixme" v="consider seamark:type=rock or natural=shoal" />
		<tag k="name" v="Flesso" />
		<tag k="place" v="islet" />
		<tag k="ssr:stedsnr" v="818422" />
	</node>
	<node id="-80345" lat="63.4488472222" lon="8.99298333868">
		<tag k="name" v="Magerøysundet" />
		<tag k="natural" v="strait" />
		<tag k="ssr:stedsnr" v="330803" />
	</node>
	<node id="-82391" lat="63.4018583299" lon="8.88158611983">
		<tag k="name" v="Tjuvholmen" />
		<tag k="place" v="islet" />
		<tag k="ssr:stedsnr" v="90926" />
	</node>
	<node id="-80336" lat="63.4141305569" lon="8.9805749932">
		<tag k="name" v="Røstkvervet" />
		<tag k="natural" v="bay" />
		<tag k="ssr:stedsnr" v="316709" />
	</node>
	<node id="-80334" lat="63.4397972263" lon="8.97662776971">
		<tag k="name" v="Ålførskaget" />
		<tag k="natural" v="cape" />
		<tag k="ssr:stedsnr" v="316463" />
	</node>
	<node id="-82377" lat="63.411952775" lon="8.88147777151">
		<tag k="name" v="Halsnesholmen" />
		<tag k="place" v="islet" />
		<tag k="ssr:stedsnr" v="90851" />
	</node>
	<node id="-84423" lat="63.3356222208" lon="9.20171667303">
		<tag k="name" v="Vestre Buvika" />
		<tag k="natural" v="bay" />
		<tag k="ssr:stedsnr" v="815744" />
	</node>
	<node id="-84421" lat="63.1411138923" lon="8.42887222608">
		<tag k="name" v="Kråkneset" />
		<tag k="natural" v="cape" />
		<tag k="ssr:stedsnr" v="802968" />
	</node>
	<node id="-83702" lat="63.4001305585" lon="8.89894444735">
		<tag k="name" v="Svarthammarbukta" />
		<tag k="natural" v="bay" />
		<tag k="ssr:stedsnr" v="575600" />
	</node>
	<node id="-84417" lat="63.1469166699" lon="8.39123611875">
		<tag k="alt_name" v="Ytre Hennagrunnen" />
		<tag k="name" v="Hennagrunnen" />
		<tag k="natural" v="shoal" />
		<tag k="place" v="locality" />
		<tag k="ssr:stedsnr" v="802956" />
	</node>
	<node id="-80316" lat="63.348052781" lon="9.11998332969">
		<tag k="name" v="Kynnsvikbugen" />
		<tag k="natural" v="bay" />
		<tag k="ssr:stedsnr" v="315524" />
	</node>
	<node id="-82360" lat="63.376719447" lon="9.15603054772">
		<tag k="name" v="Litlbugen" />
		<tag k="natural" v="bay" />
		<tag k="ssr:stedsnr" v="90789" />
	</node>
	<node id="-80310" lat="63.1540499988" lon="8.53667500919">
		<tag k="name" v="Tobbholmen" />
		<tag k="place" v="islet" />
		<tag k="ssr:stedsnr" v="473714" />
	</node>
	<node id="-80308" lat="63.199750002" lon="8.95298888319">
		<tag k="name" v="Bogaberget" />
		<tag k="natural" v="cape" />
		<tag k="ssr:stedsnr" v="473687" />
	</node>
	<node id="-80306" lat="63.0983333373" lon="8.62023889729">
		<tag k="name" v="Sandågrunnen" />
		<tag k="natural" v="shoal" />
		<tag k="place" v="locality" />
		<tag k="ssr:stedsnr" v="473499" />
	</node>
	<node id="-84398" lat="63.1111222241" lon="8.59706389034">
		<tag k="alt_name" v="Sundneset" />
		<tag k="name" v="Sandnes" />
		<tag k="natural" v="cape" />
		<tag k="ssr:stedsnr" v="801996" />
	</node>
	<node id="-82333" lat="63.4379722215" lon="8.89256389096">
		<tag k="fixme" v="consider seamark:type=rock or natural=shoal" />
		<tag k="name" v="Stabbursvikskjera" />
		<tag k="place" v="islet" />
		<tag k="ssr:stedsnr" v="90513" />
	</node>
	<node id="-81649" lat="63.3690027778" lon="9.35951388597">
		<tag k="bay" v="fjord" />
		<tag k="name" v="Snillfjorden" />
		<tag k="natural" v="bay" />
		<tag k="ssr:stedsnr" v="923836" />
	</node>
	<node id="-82339" lat="63.4536527803" lon="9.04677499899">
		<tag k="alt_name" v="Øyaskjeret" />
		<tag k="fixme" v="consider seamark:type=rock or natural=shoal" />
		<tag k="name" v="Øyaskjæret" />
		<tag k="place" v="islet" />
		<tag k="ssr:stedsnr" v="90574" />
	</node>
	<node id="-84384" lat="63.3622277744" lon="9.17033610365">
		<tag k="name" v="Litlnæløya" />
		<tag k="place" v="islet" />
		<tag k="ssr:stedsnr" v="801683" />
	</node>
	<node id="-84381" lat="63.4054555542" lon="9.16312499334">
		<tag k="bay" v="fjord" />
		<tag k="name" v="Bjørkøyfjorden" />
		<tag k="natural" v="bay" />
		<tag k="ssr:stedsnr" v="801656" />
	</node>
	<node id="-82332" lat="63.4464805521" lon="8.88118611956">
		<tag k="fixme" v="multiple name tags, choose one and add the other to alt_name" />
		<tag k="name" v="Røstøystonga;Stongskaget" />
		<tag k="natural" v="cape" />
		<tag k="ssr:stedsnr" v="90510" />
	</node>
	<node id="-84377" lat="63.0993805526" lon="8.62642500145">
		<tag k="name" v="Botnaøra" />
		<tag k="natural" v="cape" />
		<tag k="ssr:stedsnr" v="801855" />
	</node>
	<node id="-84374" lat="63.3396388902" lon="9.20713333101">
		<tag k="name" v="Sperillneset" />
		<tag k="natural" v="cape" />
		<tag k="ssr:stedsnr" v="801543" />
	</node>
	<node id="-84372" lat="63.3274388923" lon="9.18462500731">
		<tag k="name" v="Stokkvika" />
		<tag k="natural" v="bay" />
		<tag k="ssr:stedsnr" v="801494" />
	</node>
	<node id="-82322" lat="63.42651389" lon="8.76726665765">
		<tag k="name" v="Litlbølskaget" />
		<tag k="natural" v="cape" />
		<tag k="ssr:stedsnr" v="90388" />
	</node>
	<node id="-80271" lat="63.133844441" lon="8.47124721897">
		<tag k="name" v="Fættatangen" />
		<tag k="natural" v="cape" />
		<tag k="ssr:stedsnr" v="472536" />
	</node>
	<node id="-80246" lat="63.0968111105" lon="8.17913056428">
		<tag k="name" v="Gaddvika" />
		<tag k="natural" v="bay" />
		<tag k="ssr:stedsnr" v="471758" />
	</node>
	<node id="-80245" lat="63.0921777765" lon="8.17641111014">
		<tag k="name" v="Plassvika" />
		<tag k="natural" v="bay" />
		<tag k="ssr:stedsnr" v="471757" />
	</node>
	<node id="-80958" lat="63.4054472184" lon="8.88969443616">
		<tag k="name" v="Bjellvikneset" />
		<tag k="natural" v="cape" />
		<tag k="ssr:stedsnr" v="697943" />
	</node>
	<node id="-84338" lat="63.1839999972" lon="8.7055194542">
		<tag k="name" v="Busteinbukta" />
		<tag k="natural" v="bay" />
		<tag k="ssr:stedsnr" v="775999" />
	</node>
	<node id="-83347" lat="63.4232999988" lon="8.87422500861">
		<tag k="name" v="Blomvika" />
		<tag k="natural" v="bay" />
		<tag k="ssr:stedsnr" v="393990" />
	</node>
	<node id="-84335" lat="63.1072111153" lon="8.31695278166">
		<tag k="name" v="Litlkuneset" />
		<tag k="natural" v="cape" />
		<tag k="ssr:stedsnr" v="776086" />
	</node>
	<node id="-84334" lat="63.1092055566" lon="8.30722222271">
		<tag k="alt_name" v="Øyholmen" />
		<tag k="name" v="Litlholmen" />
		<tag k="place" v="islet" />
		<tag k="ssr:stedsnr" v="776082" />
	</node>
	<node id="-83346" lat="63.423713888" lon="8.87401110248">
		<tag k="fixme" v="consider seamark:type=rock or natural=shoal" />
		<tag k="name" v="Blomvikskjeret" />
		<tag k="place" v="islet" />
		<tag k="ssr:stedsnr" v="393989" />
	</node>
	<node id="-84330" lat="63.1425416688" lon="8.54191111373">
		<tag k="name" v="Marivika" />
		<tag k="natural" v="bay" />
		<tag k="ssr:stedsnr" v="775641" />
	</node>
	<node id="-80233" lat="63.1192388906" lon="8.15525000401">
		<tag k="name" v="Høgholmen" />
		<tag k="place" v="islet" />
		<tag k="ssr:stedsnr" v="471475" />
	</node>
	<node id="-84328" lat="63.1185500025" lon="8.15602776818">
		<tag k="alt_name" v="Småholmane" />
		<tag k="name" v="Småholman" />
		<tag k="place" v="islet" />
		<tag k="ssr:stedsnr" v="775434" />
	</node>
	<node id="-84327" lat="63.1261055571" lon="8.14074444456">
		<tag k="name" v="Ballvågen" />
		<tag k="natural" v="bay" />
		<tag k="ssr:stedsnr" v="775429" />
	</node>
	<node id="-84326" lat="63.1189444439" lon="8.16186944576">
		<tag k="name" v="Sannan" />
		<tag k="natural" v="beach" />
		<tag k="place" v="locality" />
		<tag k="ssr:stedsnr" v="775422" />
	</node>
	<node id="-84324" lat="63.1285665851" lon="8.25257427767">
		<tag k="name" v="Revhusholmen" />
		<tag k="place" v="islet" />
		<tag k="ssr:stedsnr" v="775360" />
	</node>
	<node id="-83344" lat="63.4194027764" lon="8.88046667126">
		<tag k="fixme" v="consider seamark:type=rock or natural=shoal" />
		<tag k="name" v="Vikaskjeret" />
		<tag k="place" v="islet" />
		<tag k="ssr:stedsnr" v="393985" />
	</node>
	<node id="-81637" lat="63.4545638847" lon="8.93349721522">
		<tag k="fixme" v="consider seamark:type=rock or natural=shoal" />
		<tag k="name" v="Treskoskjæra" />
		<tag k="place" v="islet" />
		<tag k="ssr:stedsnr" v="923534" />
	</node>
	<node id="-82268" lat="63.462138886" lon="9.0361027681">
		<tag k="name" v="Tverrsundet" />
		<tag k="natural" v="strait" />
		<tag k="ssr:stedsnr" v="74491" />
	</node>
	<node id="-80219" lat="63.4559888902" lon="8.98590000473">
		<tag k="name" v="Indre Klakken" />
		<tag k="natural" v="shoal" />
		<tag k="place" v="locality" />
		<tag k="ssr:stedsnr" v="470394" />
	</node>
	<node id="-80218" lat="63.3776972223" lon="9.44646944793">
		<tag k="name" v="Gjevika" />
		<tag k="natural" v="bay" />
		<tag k="ssr:stedsnr" v="469803" />
	</node>
	<node id="-81295" lat="63.4555777737" lon="8.9965083339">
		<tag k="name" v="Svarthylla" />
		<tag k="natural" v="cape" />
		<tag k="ssr:stedsnr" v="879595" />
	</node>
	<node id="-80216" lat="63.1466416638" lon="8.30181944284">
		<tag k="name" v="Vorpvika" />
		<tag k="natural" v="bay" />
		<tag k="ssr:stedsnr" v="468933" />
	</node>
	<node id="-84310" lat="63.143230557" lon="8.39978610215">
		<tag k="name" v="Indre Hennagrunnen" />
		<tag k="natural" v="shoal" />
		<tag k="place" v="locality" />
		<tag k="ssr:stedsnr" v="765792" />
	</node>
	<node id="-82258" lat="63.1488833358" lon="8.54760556006">
		<tag k="name" v="Stokkbukta" />
		<tag k="natural" v="bay" />
		<tag k="ssr:stedsnr" v="73946" />
	</node>
	<node id="-84301" lat="63.3704972242" lon="9.40820554594">
		<tag k="fixme" v="consider seamark:type=rock or natural=shoal" />
		<tag k="name" v="Åkertrøskjæret" />
		<tag k="place" v="islet" />
		<tag k="ssr:stedsnr" v="761476" />
	</node>
	<node id="-84299" lat="63.3536805538" lon="9.27614999822">
		<tag k="name" v="Lykjneset" />
		<tag k="natural" v="cape" />
		<tag k="ssr:stedsnr" v="761188" />
	</node>
	<node id="-80199" lat="63.1409333378" lon="8.54404444073">
		<tag k="name" v="Engholmen" />
		<tag k="place" v="islet" />
		<tag k="ssr:stedsnr" v="289721" />
	</node>
	<node id="-80195" lat="63.4620111156" lon="9.07699166717">
		<tag k="name" v="Kjørsvikgrunnen" />
		<tag k="natural" v="shoal" />
		<tag k="place" v="locality" />
		<tag k="ssr:stedsnr" v="288357" />
	</node>
	<node id="-80194" lat="63.1371861082" lon="8.3926305541">
		<tag k="name" v="Skjerjegrunnen" />
		<tag k="natural" v="shoal" />
		<tag k="place" v="locality" />
		<tag k="ssr:stedsnr" v="462800" />
	</node>
	<node id="-84289" lat="63.4183027768" lon="8.87932500322">
		<tag k="name" v="Vikan" />
		<tag k="natural" v="bay" />
		<tag k="ssr:stedsnr" v="757995" />
	</node>
	<node id="-84288" lat="63.4109916697" lon="8.88174167506">
		<tag k="name" v="Halsnesset" />
		<tag k="natural" v="cape" />
		<tag k="ssr:stedsnr" v="757991" />
	</node>
	<node id="-82226" lat="63.4174305572" lon="8.99066112035">
		<tag k="name" v="Naustneset" />
		<tag k="natural" v="cape" />
		<tag k="ssr:stedsnr" v="73436" />
	</node>
	<node id="-83335" lat="63.3474805567" lon="9.12415555386">
		<tag k="name" v="Fitjaneset" />
		<tag k="natural" v="cape" />
		<tag k="ssr:stedsnr" v="393785" />
	</node>
	<node id="-82213" lat="63.1524305567" lon="8.53123055662">
		<tag k="name" v="Lervågen" />
		<tag k="natural" v="bay" />
		<tag k="ssr:stedsnr" v="48688" />
	</node>
	<node id="-80156" lat="63.4280666643" lon="8.81401666859">
		<tag k="name" v="Holmbukta" />
		<tag k="natural" v="bay" />
		<tag k="ssr:stedsnr" v="272672" />
	</node>
	<node id="-84246" lat="63.4089194477" lon="9.00251111577">
		<tag k="name" v="Åneset" />
		<tag k="natural" v="cape" />
		<tag k="ssr:stedsnr" v="757643" />
	</node>
	<node id="-80145" lat="63.391027774" lon="8.90572500939">
		<tag k="name" v="Olfinn-nesset" />
		<tag k="natural" v="cape" />
		<tag k="ssr:stedsnr" v="272572" />
	</node>
	<node id="-80142" lat="63.4261972212" lon="8.93602221494">
		<tag k="name" v="Skaffaren" />
		<tag k="natural" v="cape" />
		<tag k="ssr:stedsnr" v="272555" />
	</node>
	<node id="-80141" lat="63.4148638857" lon="8.91852222799">
		<tag k="name" v="Urdneset" />
		<tag k="natural" v="cape" />
		<tag k="ssr:stedsnr" v="272552" />
	</node>
	<node id="-84236" lat="63.4528555554" lon="9.02628056471">
		<tag k="name" v="Vikavågen" />
		<tag k="natural" v="bay" />
		<tag k="ssr:stedsnr" v="757571" />
	</node>
	<node id="-83330" lat="63.4042777787" lon="8.87518332839">
		<tag k="name" v="Kuvika" />
		<tag k="natural" v="bay" />
		<tag k="ssr:stedsnr" v="393936" />
	</node>
	<node id="-84231" lat="63.4443472257" lon="9.06128333377">
		<tag k="name" v="Kvernavikbukta" />
		<tag k="natural" v="bay" />
		<tag k="ssr:stedsnr" v="757561" />
	</node>
	<node id="-82180" lat="63.1121638878" lon="8.31603054567">
		<tag k="name" v="Jælneset" />
		<tag k="natural" v="cape" />
		<tag k="ssr:stedsnr" v="48083" />
	</node>
	<node id="-82179" lat="63.1183277792" lon="8.27697776785">
		<tag k="name" v="Våglandneset" />
		<tag k="natural" v="cape" />
		<tag k="ssr:stedsnr" v="48072" />
	</node>
	<node id="-82178" lat="63.1087722181" lon="8.26675555731">
		<tag k="name" v="Klubbsundet" />
		<tag k="natural" v="strait" />
		<tag k="ssr:stedsnr" v="48071" />
	</node>
	<node id="-84223" lat="63.4436277796" lon="8.88626388403">
		<tag k="name" v="Gammelostholet" />
		<tag k="natural" v="bay" />
		<tag k="ssr:stedsnr" v="757518" />
	</node>
	<node id="-80120" lat="63.3635499963" lon="9.34814721608">
		<tag k="alt_name" v="Vorpnessa" />
		<tag k="name" v="Vorpneset" />
		<tag k="natural" v="cape" />
		<tag k="ssr:stedsnr" v="458308" />
	</node>
	<node id="-83668" lat="63.1856194486" lon="8.7194583413">
		<tag k="name" v="Dyrvikan" />
		<tag k="natural" v="bay" />
		<tag k="ssr:stedsnr" v="655000" />
	</node>
	<node id="-80113" lat="63.3476000029" lon="9.25885556274">
		<tag k="name" v="Forrabukta" />
		<tag k="natural" v="bay" />
		<tag k="ssr:stedsnr" v="458186" />
	</node>
	<node id="-82158" lat="63.0241777763" lon="8.24362778649">
		<tag k="name" v="Kuvika" />
		<tag k="natural" v="bay" />
		<tag k="ssr:stedsnr" v="47575" />
	</node>
	<node id="-81959" lat="63.1220916687" lon="8.56996945357">
		<tag k="name" v="Sliperibukta" />
		<tag k="natural" v="bay" />
		<tag k="ssr:stedsnr" v="947464" />
	</node>
	<node id="-82141" lat="63.386925004" lon="9.1654638874">
		<tag k="fixme" v="consider seamark:type=rock or natural=shoal" />
		<tag k="name" v="Haugaskjæret" />
		<tag k="place" v="islet" />
		<tag k="ssr:stedsnr" v="45538" />
	</node>
	<node id="-82639" lat="63.4460777757" lon="9.0351611171">
		<tag k="name" v="Litlvikneset" />
		<tag k="natural" v="cape" />
		<tag k="ssr:stedsnr" v="150592" />
	</node>
	<node id="-82133" lat="63.336250004" lon="9.24060834261">
		<tag k="name" v="Vikaskjæret" />
		<tag k="natural" v="cape" />
		<tag k="ssr:stedsnr" v="33832" />
	</node>
	<node id="-82132" lat="63.334888891" lon="9.22666944527">
		<tag k="name" v="Lakshylla" />
		<tag k="natural" v="cape" />
		<tag k="ssr:stedsnr" v="33827" />
	</node>
	<node id="-80071" lat="63.4122361082" lon="8.90936388395">
		<tag k="name" v="Trongsundet" />
		<tag k="natural" v="strait" />
		<tag k="ssr:stedsnr" v="454595" />
	</node>
	<node id="-80058" lat="63.3919361129" lon="9.15221944502">
		<tag k="name" v="Bakkabukta" />
		<tag k="natural" v="bay" />
		<tag k="ssr:stedsnr" v="454649" />
	</node>
	<node id="-82104" lat="63.426744442" lon="8.84744443781">
		<tag k="fixme" v="consider seamark:type=rock or natural=shoal" />
		<tag k="name" v="Strandskjera" />
		<tag k="place" v="islet" />
		<tag k="ssr:stedsnr" v="29950" />
	</node>
	<node id="-84151" lat="63.4253416667" lon="8.94105277528">
		<tag k="name" v="Tanna" />
		<tag k="natural" v="cape" />
		<tag k="ssr:stedsnr" v="741478" />
	</node>
	<node id="-84149" lat="63.1231833335" lon="8.15868610351">
		<tag k="name" v="Aspneset" />
		<tag k="natural" v="cape" />
		<tag k="ssr:stedsnr" v="741333" />
	</node>
	<node id="-80051" lat="63.4401055517" lon="8.87727777047">
		<tag k="fixme" v="consider seamark:type=rock or natural=shoal" />
		<tag k="name" v="Kastnotskjera" />
		<tag k="place" v="islet" />
		<tag k="ssr:stedsnr" v="454541" />
	</node>
	<node id="-80050" lat="63.4284944412" lon="8.86310000946">
		<tag k="name" v="Slyngstenen" />
		<tag k="natural" v="cape" />
		<tag k="ssr:stedsnr" v="454539" />
	</node>
	<node id="-82095" lat="63.2028861124" lon="8.98044999486">
		<tag k="name" v="Øran" />
		<tag k="place" v="islet" />
		<tag k="ssr:stedsnr" v="29872" />
	</node>
	<node id="-82083" lat="63.3444472245" lon="9.129736112">
		<tag k="name" v="Nothusneset" />
		<tag k="natural" v="cape" />
		<tag k="ssr:stedsnr" v="29795" />
	</node>
	<node id="-83995" lat="63.4200305575" lon="8.98546111095">
		<tag k="name" v="Bjørknesbukta" />
		<tag k="natural" v="bay" />
		<tag k="ssr:stedsnr" v="635644" />
	</node>
	<node id="-84124" lat="63.4084361132" lon="8.98395833835">
		<tag k="name" v="Hellandsholmen" />
		<tag k="place" v="islet" />
		<tag k="ssr:stedsnr" v="740645" />
	</node>
	<node id="-84122" lat="63.3992305517" lon="8.90720555449">
		<tag k="name" v="Langskjærøyan" />
		<tag k="natural" v="cape" />
		<tag k="ssr:stedsnr" v="740664" />
	</node>
	<node id="-82072" lat="63.4140972195" lon="9.14083054827">
		<tag k="fixme" v="consider seamark:type=rock or natural=shoal" />
		<tag k="name" v="Kattavikskjeret" />
		<tag k="place" v="islet" />
		<tag k="ssr:stedsnr" v="29695" />
	</node>
	<node id="-82070" lat="63.4267388846" lon="9.11333055582">
		<tag k="name" v="Kjerringvika" />
		<tag k="natural" v="bay" />
		<tag k="ssr:stedsnr" v="29692" />
	</node>
	<node id="-82062" lat="63.4443472178" lon="8.92089999744">
		<tag k="name" v="Åmholmen" />
		<tag k="place" v="islet" />
		<tag k="ssr:stedsnr" v="29539" />
	</node>
	<node id="-84109" lat="63.1764444481" lon="8.65469166129">
		<tag k="name" v="Hamnaskaget" />
		<tag k="natural" v="cape" />
		<tag k="ssr:stedsnr" v="655622" />
	</node>
	<node id="-80011" lat="63.4468916634" lon="9.06006389115">
		<tag k="name" v="Furuneset" />
		<tag k="natural" v="cape" />
		<tag k="ssr:stedsnr" v="256368" />
	</node>
	<node id="-84105" lat="63.1749500033" lon="8.65066389695">
		<tag k="name" v="Øra" />
		<tag k="natural" v="cape" />
		<tag k="ssr:stedsnr" v="654900" />
	</node>
	<node id="-84104" lat="63.1802944472" lon="8.6661194487">
		<tag k="name" v="Gåsa" />
		<tag k="natural" v="cape" />
		<tag k="ssr:stedsnr" v="654889" />
	</node>
	<node id="-84103" lat="63.1805916693" lon="8.67537777025">
		<tag k="name" v="Litlgåsvika" />
		<tag k="natural" v="bay" />
		<tag k="ssr:stedsnr" v="654881" />
	</node>
	<node id="-84102" lat="63.1805805569" lon="8.67239721969">
		<tag k="name" v="Gåsvikmulen" />
		<tag k="natural" v="cape" />
		<tag k="ssr:stedsnr" v="654876" />
	</node>
	<node id="-80005" lat="63.1401611124" lon="8.55996111369">
		<tag k="name" v="Leirvika" />
		<tag k="natural" v="bay" />
		<tag k="ssr:stedsnr" v="255959" />
	</node>
	<node id="-80004" lat="63.1368999993" lon="8.5224222152">
		<tag k="name" v="Kjøløya" />
		<tag k="place" v="islet" />
		<tag k="ssr:stedsnr" v="255957" />
	</node>
	<node id="-80001" lat="63.0845861112" lon="8.32854444103">
		<tag k="name" v="Betnneset" />
		<tag k="natural" v="cape" />
		<tag k="ssr:stedsnr" v="255920" />
	</node>
	<node id="-82038" lat="63.444463893" lon="8.96994167072">
		<tag k="name" v="Kuskaget" />
		<tag k="natural" v="cape" />
		<tag k="ssr:stedsnr" v="29634" />
	</node>
	<node id="-82036" lat="63.4637777792" lon="9.01559167176">
		<tag k="name" v="Håmannvik" />
		<tag k="natural" v="bay" />
		<tag k="ssr:stedsnr" v="29629" />
	</node>
	<node id="-84081" lat="63.1333861102" lon="8.19619166493">
		<tag k="name" v="Sauvika" />
		<tag k="natural" v="cape" />
		<tag k="ssr:stedsnr" v="654307" />
	</node>
	<node id="-84080" lat="63.1371194401" lon="8.24270277983">
		<tag k="name" v="Vikaholmen" />
		<tag k="place" v="islet" />
		<tag k="ssr:stedsnr" v="654298" />
	</node>
	<node id="-79981" lat="63.1410722238" lon="8.23790554904">
		<tag k="name" v="Korsnesflua" />
		<tag k="natural" v="shoal" />
		<tag k="place" v="locality" />
		<tag k="ssr:stedsnr" v="231153" />
	</node>
	<node id="-82021" lat="63.4106972266" lon="8.95995277908">
		<tag k="name" v="Innervågen" />
		<tag k="natural" v="bay" />
		<tag k="ssr:stedsnr" v="26700" />
	</node>
	<node id="-82015" lat="63.1377638852" lon="8.46527777462">
		<tag k="name" v="Hennsetholmen" />
		<tag k="place" v="islet" />
		<tag k="ssr:stedsnr" v="13955" />
	</node>
	<node id="-82012" lat="63.4423333301" lon="8.92213611261">
		<tag k="name" v="Valholmen" />
		<tag k="place" v="islet" />
		<tag k="ssr:stedsnr" v="13424" />
	</node>
	<node id="-84059" lat="63.1069805549" lon="8.62494166279">
		<tag k="name" v="Kalvikbukta" />
		<tag k="natural" v="bay" />
		<tag k="ssr:stedsnr" v="643442" />
	</node>
	<node id="-82276" lat="63.4151527808" lon="8.89585834274">
		<tag k="name" v="Slåttaholmen" />
		<tag k="place" v="islet" />
		<tag k="ssr:stedsnr" v="87757" />
	</node>
	<node id="-79958" lat="63.0964305565" lon="8.30607222949">
		<tag k="name" v="Småsteinneset" />
		<tag k="natural" v="cape" />
		<tag k="ssr:stedsnr" v="229011" />
	</node>
	<node id="-84053" lat="63.3595749978" lon="9.32876666114">
		<tag k="name" v="Skivedberget" />
		<tag k="natural" v="cape" />
		<tag k="ssr:stedsnr" v="639976" />
	</node>
	<node id="-84052" lat="63.3573194464" lon="9.28466944317">
		<tag k="name" v="Vollaneset" />
		<tag k="natural" v="cape" />
		<tag k="ssr:stedsnr" v="639970" />
	</node>
	<node id="-82002" lat="63.0844583318" lon="8.34329722084">
		<tag k="name" v="Betnvågen" />
		<tag k="natural" v="bay" />
		<tag k="ssr:stedsnr" v="12894" />
	</node>
	<node id="-79948" lat="63.3611361097" lon="9.29528333557">
		<tag k="name" v="Petterneset" />
		<tag k="natural" v="cape" />
		<tag k="ssr:stedsnr" v="215222" />
	</node>
	<node id="-81992" lat="63.4122027787" lon="9.00023888085">
		<tag k="name" v="Bellsvikholmen" />
		<tag k="place" v="islet" />
		<tag k="ssr:stedsnr" v="12685" />
	</node>
	<node id="-81932" lat="63.2930944408" lon="9.11568610238">
		<tag k="name" v="Nedre Merkeneset" />
		<tag k="natural" v="cape" />
		<tag k="ssr:stedsnr" v="904653" />
	</node>
	<node id="-79940" lat="63.1970277793" lon="8.89986111742">
		<tag k="name" v="Storneset" />
		<tag k="natural" v="cape" />
		<tag k="ssr:stedsnr" v="212915" />
	</node>
	<node id="-81984" lat="63.3720583334" lon="9.16108334209">
		<tag k="alt_name" v="Storoddan" />
		<tag k="name" v="Storodden" />
		<tag k="natural" v="cape" />
		<tag k="ssr:stedsnr" v="12745" />
	</node>
	<node id="-79931" lat="63.4266805582" lon="8.77169722088">
		<tag k="name" v="Litlbølet" />
		<tag k="place" v="islet" />
		<tag k="ssr:stedsnr" v="212702" />
	</node>
	<node id="-81970" lat="63.3501222221" lon="9.13315833294">
		<tag k="name" v="Gardsholman" />
		<tag k="place" v="islet" />
		<tag k="ssr:stedsnr" v="12533" />
	</node>
	<node id="-81968" lat="63.1320611097" lon="8.13931111279">
		<tag k="fixme" v="consider seamark:type=rock or natural=shoal" />
		<tag k="name" v="Langskjæret" />
		<tag k="place" v="islet" />
		<tag k="ssr:stedsnr" v="12261" />
	</node>
	<node id="-81966" lat="63.1625027736" lon="8.55721945141">
		<tag k="name" v="Skattå" />
		<tag k="natural" v="cape" />
		<tag k="ssr:stedsnr" v="12071" />
	</node>
	<node id="-82269" lat="63.4650305565" lon="9.02264999309">
		<tag k="name" v="Straumen" />
		<tag k="natural" v="strait" />
		<tag k="ssr:stedsnr" v="74499" />
	</node>
	<node id="-81960" lat="63.4506083375" lon="9.06811666154">
		<tag k="name" v="Furunesgrunnen" />
		<tag k="natural" v="shoal" />
		<tag k="place" v="locality" />
		<tag k="ssr:stedsnr" v="955514" />
	</node>
	<node id="-80220" lat="63.1476666686" lon="8.2797805457">
		<tag k="name" v="Strandatrøa" />
		<tag k="natural" v="beach" />
		<tag k="place" v="locality" />
		<tag k="ssr:stedsnr" v="470953" />
	</node>
	<node id="-79907" lat="63.1509611146" lon="8.50794166369">
		<tag k="name" v="Klubbholmgrunnen" />
		<tag k="natural" v="shoal" />
		<tag k="place" v="locality" />
		<tag k="ssr:stedsnr" v="292781" />
	</node>
	<node id="-79906" lat="63.1550944445" lon="8.51724167084">
		<tag k="name" v="Risholmflua" />
		<tag k="natural" v="shoal" />
		<tag k="place" v="locality" />
		<tag k="ssr:stedsnr" v="292780" />
	</node>
	<node id="-82267" lat="63.4310166679" lon="8.80253889791">
		<tag k="name" v="Ytterøya" />
		<tag k="place" v="islet" />
		<tag k="ssr:stedsnr" v="74400" />
	</node>
	<node id="-84314" lat="63.4462583302" lon="9.10638055939">
		<tag k="name" v="Oternesgrunnen" />
		<tag k="natural" v="shoal" />
		<tag k="place" v="locality" />
		<tag k="ssr:stedsnr" v="773492" />
	</node>
	<node id="-79898" lat="63.1311722221" lon="8.18806666975">
		<tag k="name" v="Kallbergsnausta" />
		<tag k="natural" v="cape" />
		<tag k="ssr:stedsnr" v="195321" />
	</node>
	<node id="-83993" lat="63.4259555557" lon="9.09470277835">
		<tag k="name" v="Fagervika" />
		<tag k="natural" v="bay" />
		<tag k="ssr:stedsnr" v="635618" />
	</node>
	<node id="-83991" lat="63.4647444427" lon="9.00812777286">
		<tag k="name" v="Bårneset" />
		<tag k="natural" v="cape" />
		<tag k="ssr:stedsnr" v="635610" />
	</node>
	<node id="-84313" lat="63.3559638933" lon="9.25404444525">
		<tag k="name" v="Forraflua" />
		<tag k="natural" v="shoal" />
		<tag k="place" v="locality" />
		<tag k="ssr:stedsnr" v="772971" />
	</node>
	<node id="-83988" lat="63.4469583336" lon="8.98878611921">
		<tag k="name" v="Hamnaneset" />
		<tag k="natural" v="cape" />
		<tag k="ssr:stedsnr" v="635598" />
	</node>
	<node id="-79884" lat="63.1562055522" lon="8.5495638988">
		<tag k="name" v="Kobbneset" />
		<tag k="natural" v="cape" />
		<tag k="ssr:stedsnr" v="291713" />
	</node>
</osm>
