<?xml version="1.0" encoding="UTF-8"?>
<osm generator="osmapis" version="0.6">
	<node id="-794624" lat="63.3463861149" lon="9.2706583293">
		<tag k="name" v="Myran" />
		<tag k="natural" v="wetland" />
		<tag k="ssr:stedsnr" v="276217" />
	</node>
	<node id="-794621" lat="63.3309388892" lon="9.30751111608">
		<tag k="name" v="Skala" />
		<tag k="natural" v="wetland" />
		<tag k="ssr:stedsnr" v="275737" />
	</node>
	<node id="-796666" lat="63.2268055554" lon="9.01843056375">
		<tag k="name" v="Stavåsmyra" />
		<tag k="natural" v="wetland" />
		<tag k="ssr:stedsnr" v="940679" />
	</node>
	<node id="-796665" lat="63.376177774" lon="8.96849999036">
		<tag k="name" v="Gråurda" />
		<tag k="natural" v="scree" />
		<tag k="ssr:stedsnr" v="940678" />
	</node>
	<node id="-796663" lat="63.1686555539" lon="8.84201389498">
		<tag k="name" v="Løkkenholet" />
		<tag k="place" v="locality" />
		<tag k="ssr:stedsnr" v="940589" />
	</node>
	<node id="-796656" lat="63.229197226" lon="9.08241388175">
		<tag k="name" v="Grønurda" />
		<tag k="natural" v="scree" />
		<tag k="ssr:stedsnr" v="940513" />
	</node>
	<node id="-796655" lat="63.2313305597" lon="9.05324166749">
		<tag k="name" v="Føllmyra" />
		<tag k="natural" v="wetland" />
		<tag k="ssr:stedsnr" v="940512" />
	</node>
	<node id="-796654" lat="63.2382805592" lon="9.05001943516">
		<tag k="name" v="Gåsøran" />
		<tag k="place" v="locality" />
		<tag k="ssr:stedsnr" v="940491" />
	</node>
	<node id="-796652" lat="63.2072138914" lon="9.17497221631">
		<tag k="name" v="Litlborstad" />
		<tag k="place" v="locality" />
		<tag k="ssr:stedsnr" v="940320" />
	</node>
	<node id="-796651" lat="63.2054333315" lon="9.32762778172">
		<tag k="name" v="Øyan" />
		<tag k="place" v="locality" />
		<tag k="ssr:stedsnr" v="940272" />
	</node>
	<node id="-794602" lat="63.2896083331" lon="9.15022499255">
		<tag k="name" v="Johanslættet" />
		<tag k="place" v="locality" />
		<tag k="ssr:stedsnr" v="150421" />
	</node>
	<node id="-794601" lat="63.419002776" lon="9.03570000617">
		<tag k="name" v="Stormyra" />
		<tag k="natural" v="wetland" />
		<tag k="ssr:stedsnr" v="150420" />
	</node>
	<node id="-796646" lat="63.3338611082" lon="9.0817805533">
		<tag k="name" v="Olamyra" />
		<tag k="natural" v="wetland" />
		<tag k="ssr:stedsnr" v="939941" />
	</node>
	<node id="-798691" lat="63.0725083378" lon="8.64743054746">
		<tag k="name" v="Steinen" />
		<tag k="natural" v="stone" />
		<tag k="ssr:stedsnr" v="594890" />
	</node>
	<node id="-794594" lat="63.2201499975" lon="9.22048610182">
		<tag k="name" v="Kjerringøya" />
		<tag k="place" v="locality" />
		<tag k="ssr:stedsnr" v="150256" />
	</node>
	<node id="-798688" lat="63.1783305543" lon="8.67120555479">
		<tag k="name" v="Gåsviktrøa" />
		<tag k="place" v="locality" />
		<tag k="ssr:stedsnr" v="594855" />
	</node>
	<node id="-796639" lat="63.3290361149" lon="9.09487777162">
		<tag k="name" v="Dikmyra" />
		<tag k="natural" v="wetland" />
		<tag k="ssr:stedsnr" v="939820" />
	</node>
	<node id="-798685" lat="63.108688885" lon="8.50619721927">
		<tag k="name" v="Hælsingfjellura" />
		<tag k="natural" v="scree" />
		<tag k="ssr:stedsnr" v="594693" />
	</node>
	<node id="-794587" lat="63.2980666696" lon="8.97251944637">
		<tag k="name" v="Vesseseterkleiva" />
		<tag k="natural" v="wetland" />
		<tag k="ssr:stedsnr" v="150063" />
	</node>
	<node id="-794585" lat="63.2932472249" lon="9.20254166204">
		<tag k="name" v="Sjølgjetsla" />
		<tag k="place" v="locality" />
		<tag k="ssr:stedsnr" v="150008" />
	</node>
	<node id="-798680" lat="63.1007194417" lon="8.45396666346">
		<tag k="alt_name" v="Sørmyrane" />
		<tag k="name" v="Sørmyran" />
		<tag k="natural" v="wetland" />
		<tag k="ssr:stedsnr" v="594631" />
	</node>
	<node id="-796631" lat="63.4249361104" lon="9.04729166867">
		<tag k="name" v="Vasshalsen" />
		<tag k="place" v="locality" />
		<tag k="ssr:stedsnr" v="939688" />
	</node>
	<node id="-794581" lat="63.2754361112" lon="8.96081666781">
		<tag k="name" v="Storbuslættet" />
		<tag k="place" v="locality" />
		<tag k="ssr:stedsnr" v="150117" />
	</node>
	<node id="-794580" lat="63.2762555581" lon="8.94255556368">
		<tag k="name" v="Setermyran" />
		<tag k="natural" v="wetland" />
		<tag k="ssr:stedsnr" v="150108" />
	</node>
	<node id="-794579" lat="63.2725055523" lon="8.93984166631">
		<tag k="name" v="Blomholet" />
		<tag k="place" v="locality" />
		<tag k="ssr:stedsnr" v="150107" />
	</node>
	<node id="-798670" lat="63.0913416686" lon="8.63158056235">
		<tag k="name" v="Trommyra" />
		<tag k="natural" v="wetland" />
		<tag k="ssr:stedsnr" v="594448" />
	</node>
	<node id="-798669" lat="63.0948527816" lon="8.58443055487">
		<tag k="name" v="Skjennstimyran" />
		<tag k="natural" v="wetland" />
		<tag k="ssr:stedsnr" v="594418" />
	</node>
	<node id="-796620" lat="63.1383027804" lon="9.08502499384">
		<tag k="name" v="Merkbergøya" />
		<tag k="place" v="locality" />
		<tag k="ssr:stedsnr" v="939415" />
	</node>
	<node id="-794566" lat="63.1788027747" lon="9.01468888035">
		<tag k="name" v="Erikenga" />
		<tag k="place" v="locality" />
		<tag k="ssr:stedsnr" v="272949" />
	</node>
	<node id="-798661" lat="63.0883861122" lon="8.33392499612">
		<tag k="name" v="Langlimyra" />
		<tag k="natural" v="wetland" />
		<tag k="ssr:stedsnr" v="593980" />
	</node>
	<node id="-796611" lat="63.2153388868" lon="9.1865611027">
		<tag k="name" v="Gammelbuslættet" />
		<tag k="place" v="locality" />
		<tag k="ssr:stedsnr" v="939292" />
	</node>
	<node id="-794559" lat="63.3037777756" lon="8.96097221441">
		<tag k="name" v="Kariholet" />
		<tag k="place" v="locality" />
		<tag k="ssr:stedsnr" v="272932" />
	</node>
	<node id="-794555" lat="63.196436109" lon="8.90463889467">
		<tag k="name" v="Håkkotrøa" />
		<tag k="place" v="locality" />
		<tag k="ssr:stedsnr" v="272885" />
	</node>
	<node id="-794554" lat="63.1866499989" lon="8.8085111209">
		<tag k="name" v="Seterholet" />
		<tag k="place" v="locality" />
		<tag k="ssr:stedsnr" v="272883" />
	</node>
	<node id="-794553" lat="63.1822222204" lon="8.79385000769">
		<tag k="name" v="Geitholet" />
		<tag k="place" v="locality" />
		<tag k="ssr:stedsnr" v="272877" />
	</node>
	<node id="-794549" lat="63.3722666655" lon="9.02603611246">
		<tag k="name" v="Bumyra" />
		<tag k="natural" v="wetland" />
		<tag k="ssr:stedsnr" v="272701" />
	</node>
	<node id="-794547" lat="63.3026861138" lon="9.06615278194">
		<tag k="name" v="Klostermyran" />
		<tag k="natural" v="wetland" />
		<tag k="ssr:stedsnr" v="272981" />
	</node>
	<node id="-796590" lat="63.0780638857" lon="8.64617222904">
		<tag k="name" v="Stormyra" />
		<tag k="natural" v="wetland" />
		<tag k="ssr:stedsnr" v="837904" />
	</node>
	<node id="-798637" lat="63.1375333332" lon="8.22681944896">
		<tag k="historic" v="shieling" />
		<tag k="name" v="Gammelgarden" />
		<tag k="place" v="locality" />
		<tag k="ssr:stedsnr" v="593258" />
	</node>
	<node id="-796586" lat="63.1101500035" lon="8.22590278709">
		<tag k="historic" v="shieling" />
		<tag k="name" v="Løviksetra" />
		<tag k="place" v="locality" />
		<tag k="ssr:stedsnr" v="837475" />
	</node>
	<node id="-795975" lat="63.228697219" lon="9.06726387932">
		<tag k="name" v="Vargholon" />
		<tag k="place" v="locality" />
		<tag k="ssr:stedsnr" v="636553" />
	</node>
	<node id="-796584" lat="63.1170916668" lon="8.20164999155">
		<tag k="alt_name" v="Kaldbergsmyrane" />
		<tag k="name" v="Kaldbergsmyran" />
		<tag k="natural" v="wetland" />
		<tag k="ssr:stedsnr" v="837469" />
	</node>
	<node id="-796581" lat="63.0870444477" lon="8.59152222733">
		<tag k="historic" v="shieling" />
		<tag k="name" v="Heimsetra" />
		<tag k="place" v="locality" />
		<tag k="ssr:stedsnr" v="837420" />
	</node>
	<node id="-796579" lat="63.1329888921" lon="8.22343333113">
		<tag k="name" v="Stormyra" />
		<tag k="natural" v="wetland" />
		<tag k="ssr:stedsnr" v="837306" />
	</node>
	<node id="-798621" lat="63.0824805529" lon="8.43007777648">
		<tag k="alt_name" v="Husmannsmyrane" />
		<tag k="name" v="Husmannsmyran" />
		<tag k="natural" v="wetland" />
		<tag k="ssr:stedsnr" v="592835" />
	</node>
	<node id="-794522" lat="63.3949666709" lon="9.13317500309">
		<tag k="name" v="Ratet" />
		<tag k="place" v="locality" />
		<tag k="ssr:stedsnr" v="272597" />
	</node>
	<node id="-796569" lat="63.1395083345" lon="8.33503612067">
		<tag k="name" v="Revora" />
		<tag k="natural" v="scree" />
		<tag k="ssr:stedsnr" v="836918" />
	</node>
	<node id="-796564" lat="63.1232416624" lon="8.52500555567">
		<tag k="name" v="Nedre Trøa" />
		<tag k="place" v="locality" />
		<tag k="ssr:stedsnr" v="836564" />
	</node>
	<node id="-794511" lat="63.4278444428" lon="9.05938610835">
		<tag k="name" v="Hesthagan" />
		<tag k="place" v="locality" />
		<tag k="ssr:stedsnr" v="272530" />
	</node>
	<node id="-794510" lat="63.2289861143" lon="9.07640277808">
		<tag k="historic" v="shieling" />
		<tag k="name" v="Øver Buvollen" />
		<tag k="place" v="locality" />
		<tag k="ssr:stedsnr" v="272524" />
	</node>
	<node id="-794509" lat="63.2311611118" lon="9.08081110674">
		<tag k="historic" v="shieling" />
		<tag k="name" v="Sjursetra" />
		<tag k="place" v="locality" />
		<tag k="ssr:stedsnr" v="272523" />
	</node>
	<node id="-796556" lat="63.3223666683" lon="9.2413138924">
		<tag k="name" v="Øran" />
		<tag k="place" v="locality" />
		<tag k="ssr:stedsnr" v="822870" />
	</node>
	<node id="-798601" lat="63.3297305556" lon="9.23542499034">
		<tag k="name" v="Rølen" />
		<tag k="place" v="locality" />
		<tag k="ssr:stedsnr" v="579824" />
	</node>
	<node id="-796548" lat="63.319369443" lon="9.20649167098">
		<tag k="name" v="Sperillholan" />
		<tag k="place" v="locality" />
		<tag k="ssr:stedsnr" v="819923" />
	</node>
	<node id="-798593" lat="63.3317833317" lon="9.05938888563">
		<tag k="name" v="Seterstoan" />
		<tag k="place" v="locality" />
		<tag k="ssr:stedsnr" v="576949" />
	</node>
	<node id="-798591" lat="63.2047083311" lon="9.32352777425">
		<tag k="name" v="Staurøya" />
		<tag k="place" v="locality" />
		<tag k="ssr:stedsnr" v="576249" />
	</node>
	<node id="-798586" lat="63.1813499976" lon="8.76613611836">
		<tag k="name" v="Rabbmyran" />
		<tag k="natural" v="wetland" />
		<tag k="ssr:stedsnr" v="575985" />
	</node>
	<node id="-794489" lat="63.2101722247" lon="9.04348054607">
		<tag k="name" v="Øyan" />
		<tag k="place" v="locality" />
		<tag k="ssr:stedsnr" v="272326" />
	</node>
	<node id="-798584" lat="63.1806249971" lon="8.77476388963">
		<tag k="historic" v="shieling" />
		<tag k="name" v="Gammelsetra" />
		<tag k="place" v="locality" />
		<tag k="ssr:stedsnr" v="575974" />
	</node>
	<node id="-798582" lat="63.3580250031" lon="8.99232221473">
		<tag k="name" v="Flomyra" />
		<tag k="natural" v="wetland" />
		<tag k="ssr:stedsnr" v="575845" />
	</node>
	<node id="-794482" lat="63.2664416675" lon="8.97887221387">
		<tag k="name" v="Orrleikmyra" />
		<tag k="natural" v="wetland" />
		<tag k="ssr:stedsnr" v="272125" />
	</node>
	<node id="-798577" lat="63.1832444473" lon="8.91770833938">
		<tag k="historic" v="shieling" />
		<tag k="name" v="Gammelsetra" />
		<tag k="place" v="locality" />
		<tag k="ssr:stedsnr" v="575800" />
	</node>
	<node id="-794479" lat="63.2582611084" lon="9.08644167102">
		<tag k="name" v="Stormyra" />
		<tag k="natural" v="wetland" />
		<tag k="ssr:stedsnr" v="272096" />
	</node>
	<node id="-796306" lat="63.1350694471" lon="8.34039722631">
		<tag k="name" v="Hjellora" />
		<tag k="natural" v="scree" />
		<tag k="ssr:stedsnr" v="897870" />
	</node>
	<node id="-796522" lat="63.2273388895" lon="9.00688611277">
		<tag k="historic" v="shieling" />
		<tag k="name" v="Hattsetra" />
		<tag k="place" v="locality" />
		<tag k="ssr:stedsnr" v="818705" />
	</node>
	<node id="-794472" lat="63.2456083316" lon="9.11586665807">
		<tag k="name" v="Stormyra" />
		<tag k="natural" v="wetland" />
		<tag k="ssr:stedsnr" v="272195" />
	</node>
	<node id="-794470" lat="63.2369611079" lon="9.04743333595">
		<tag k="name" v="Nessaskogen" />
		<tag k="place" v="locality" />
		<tag k="ssr:stedsnr" v="272182" />
	</node>
	<node id="-794469" lat="63.2499249988" lon="9.06441944504">
		<tag k="name" v="Tjørrhjellmyra" />
		<tag k="natural" v="wetland" />
		<tag k="ssr:stedsnr" v="272179" />
	</node>
	<node id="-798564" lat="63.1579249984" lon="8.93907499786">
		<tag k="name" v="Perslættet" />
		<tag k="place" v="locality" />
		<tag k="ssr:stedsnr" v="575960" />
	</node>
	<node id="-798562" lat="63.3090972218" lon="9.01088888265">
		<tag k="historic" v="shieling" />
		<tag k="name" v="Ringsetra" />
		<tag k="place" v="locality" />
		<tag k="ssr:stedsnr" v="575956" />
	</node>
	<node id="-796513" lat="63.1585194434" lon="9.0836111187">
		<tag k="name" v="Øverlimyran" />
		<tag k="natural" v="wetland" />
		<tag k="ssr:stedsnr" v="818458" />
	</node>
	<node id="-798555" lat="63.1917138865" lon="9.00851111266">
		<tag k="name" v="Spjøtmelan" />
		<tag k="place" v="locality" />
		<tag k="ssr:stedsnr" v="575895" />
	</node>
	<node id="-798553" lat="63.3034444409" lon="9.15236944894">
		<tag k="name" v="Kvolvet" />
		<tag k="place" v="locality" />
		<tag k="ssr:stedsnr" v="575877" />
	</node>
	<node id="-798552" lat="63.3066722261" lon="9.16767222475">
		<tag k="name" v="Storøya" />
		<tag k="place" v="locality" />
		<tag k="ssr:stedsnr" v="575873" />
	</node>
	<node id="-798551" lat="63.3074777782" lon="9.18241666779">
		<tag k="name" v="Kåsan" />
		<tag k="place" v="locality" />
		<tag k="ssr:stedsnr" v="575870" />
	</node>
	<node id="-796499" lat="63.2641499991" lon="9.15238611813">
		<tag k="name" v="Myrhaugenga" />
		<tag k="place" v="locality" />
		<tag k="ssr:stedsnr" v="818060" />
	</node>
	<node id="-794441" lat="63.0751638852" lon="8.33418611409">
		<tag k="alt_name" v="Olstumyrane" />
		<tag k="name" v="Olstumyran" />
		<tag k="natural" v="wetland" />
		<tag k="ssr:stedsnr" v="109240" />
	</node>
	<node id="-794439" lat="63.0729361133" lon="8.27137777683">
		<tag k="name" v="Langmyra" />
		<tag k="natural" v="wetland" />
		<tag k="ssr:stedsnr" v="109232" />
	</node>
	<node id="-798534" lat="63.1459138857" lon="9.10551944474">
		<tag k="name" v="Damtjønnslættet" />
		<tag k="natural" v="wetland" />
		<tag k="ssr:stedsnr" v="575363" />
	</node>
	<node id="-798533" lat="63.1855249963" lon="9.03517221607">
		<tag k="name" v="Kåran" />
		<tag k="place" v="locality" />
		<tag k="ssr:stedsnr" v="575340" />
	</node>
	<node id="-798528" lat="63.2116722223" lon="9.06984999414">
		<tag k="name" v="Lastrommet" />
		<tag k="place" v="locality" />
		<tag k="ssr:stedsnr" v="575318" />
	</node>
	<node id="-794431" lat="63.1477527807" lon="8.59364999634">
		<tag k="historic" v="shieling" />
		<tag k="name" v="Gammelsetra" />
		<tag k="place" v="locality" />
		<tag k="ssr:stedsnr" v="108824" />
	</node>
	<node id="-798526" lat="63.3941194421" lon="8.99868332983">
		<tag k="name" v="Jordbærøya" />
		<tag k="place" v="locality" />
		<tag k="ssr:stedsnr" v="575629" />
	</node>
	<node id="-798523" lat="63.4193777743" lon="9.09784166917">
		<tag k="name" v="Oldervika" />
		<tag k="place" v="locality" />
		<tag k="ssr:stedsnr" v="575613" />
	</node>
	<node id="-797746" lat="63.2277861154" lon="9.05127221582">
		<tag k="name" v="Stormyra" />
		<tag k="natural" v="wetland" />
		<tag k="ssr:stedsnr" v="212542" />
	</node>
	<node id="-798509" lat="63.1877305597" lon="8.84729721547">
		<tag k="name" v="Hofset-øyan" />
		<tag k="place" v="locality" />
		<tag k="ssr:stedsnr" v="575562" />
	</node>
	<node id="-798507" lat="63.431483336" lon="9.04823610246">
		<tag k="name" v="Storramnurda" />
		<tag k="natural" v="scree" />
		<tag k="ssr:stedsnr" v="575558" />
	</node>
	<node id="-798505" lat="63.2228527786" lon="9.21260833632">
		<tag k="name" v="Haraflottflata" />
		<tag k="place" v="locality" />
		<tag k="ssr:stedsnr" v="575247" />
	</node>
	<node id="-796452" lat="63.2884499998" lon="9.02543888331">
		<tag k="name" v="Strandamyra" />
		<tag k="natural" v="wetland" />
		<tag k="ssr:stedsnr" v="923608" />
	</node>
	<node id="-798498" lat="63.2459555566" lon="9.11879444953">
		<tag k="name" v="Stormyrholten" />
		<tag k="place" v="locality" />
		<tag k="ssr:stedsnr" v="575193" />
	</node>
	<node id="-796635" lat="63.3542694401" lon="9.02422223137">
		<tag k="name" v="Røstdalan" />
		<tag k="place" v="locality" />
		<tag k="ssr:stedsnr" v="939758" />
	</node>
	<node id="-798493" lat="63.2055194439" lon="9.12015276986">
		<tag k="name" v="Rørovassmyran" />
		<tag k="natural" v="wetland" />
		<tag k="ssr:stedsnr" v="575284" />
	</node>
	<node id="-796443" lat="63.3085527742" lon="9.24696110347">
		<tag k="alt_name" v="Gammelsetermyran" />
		<tag k="name" v="Gammelsætermyran" />
		<tag k="natural" v="wetland" />
		<tag k="ssr:stedsnr" v="923213" />
	</node>
	<node id="-794394" lat="63.2954305555" lon="9.08745554962">
		<tag k="name" v="Vessøra" />
		<tag k="place" v="locality" />
		<tag k="ssr:stedsnr" v="255579" />
	</node>
	<node id="-796633" lat="63.3744916688" lon="9.03281111488">
		<tag k="name" v="Slakkaslættet" />
		<tag k="place" v="locality" />
		<tag k="ssr:stedsnr" v="939749" />
	</node>
	<node id="-796632" lat="63.4131611144" lon="9.0933222266">
		<tag k="name" v="Kråkvollen" />
		<tag k="place" v="locality" />
		<tag k="ssr:stedsnr" v="939699" />
	</node>
	<node id="-794379" lat="63.2764055557" lon="9.18934444155">
		<tag k="name" v="Rabbmyran" />
		<tag k="natural" v="wetland" />
		<tag k="ssr:stedsnr" v="87744" />
	</node>
	<node id="-796417" lat="63.3429944451" lon="8.93998610865">
		<tag k="name" v="Lægdamyran" />
		<tag k="natural" v="wetland" />
		<tag k="ssr:stedsnr" v="922509" />
	</node>
	<node id="-798456" lat="63.2048361125" lon="9.01964166359">
		<tag k="name" v="Stormyra" />
		<tag k="natural" v="wetland" />
		<tag k="ssr:stedsnr" v="558835" />
	</node>
	<node id="-796397" lat="63.1342888909" lon="8.22180278395">
		<tag k="name" v="Rågrassmyra" />
		<tag k="natural" v="wetland" />
		<tag k="ssr:stedsnr" v="776277" />
	</node>
	<node id="-795086" lat="63.1328083331" lon="8.47493054922">
		<tag k="name" v="Kvennhusmyra" />
		<tag k="natural" v="wetland" />
		<tag k="ssr:stedsnr" v="472549" />
	</node>
	<node id="-796392" lat="63.1411722192" lon="8.71159721284">
		<tag k="name" v="Slettfjellmyra" />
		<tag k="natural" v="wetland" />
		<tag k="ssr:stedsnr" v="775706" />
	</node>
	<node id="-796391" lat="63.1254361104" lon="8.63115277604">
		<tag k="historic" v="shieling" />
		<tag k="name" v="Heimsetra" />
		<tag k="place" v="locality" />
		<tag k="ssr:stedsnr" v="775508" />
	</node>
	<node id="-794338" lat="63.0797305539" lon="8.66203888788">
		<tag k="historic" v="shieling" />
		<tag k="name" v="Mjølkplassen" />
		<tag k="place" v="locality" />
		<tag k="ssr:stedsnr" v="230894" />
	</node>
	<node id="-796374" lat="63.2977250032" lon="9.18712499704">
		<tag k="name" v="Hyllan" />
		<tag k="place" v="locality" />
		<tag k="ssr:stedsnr" v="757868" />
	</node>
	<node id="-794322" lat="63.0452250018" lon="8.32873056321">
		<tag k="name" v="Håkkåsteinen" />
		<tag k="natural" v="stone" />
		<tag k="ssr:stedsnr" v="230180" />
	</node>
	<node id="-798416" lat="63.1852194424" lon="8.71750832587">
		<tag k="name" v="Tobakksteinholet" />
		<tag k="natural" v="stone" />
		<tag k="ssr:stedsnr" v="533999" />
	</node>
	<node id="-794319" lat="63.080816666" lon="8.37804721312">
		<tag k="name" v="Danielmyra" />
		<tag k="natural" v="wetland" />
		<tag k="ssr:stedsnr" v="230227" />
	</node>
	<node id="-794311" lat="63.0906277764" lon="8.19018055181">
		<tag k="name" v="Myran" />
		<tag k="natural" v="wetland" />
		<tag k="ssr:stedsnr" v="229746" />
	</node>
	<node id="-798391" lat="63.1349916638" lon="8.21799165924">
		<tag k="name" v="Stortøfta" />
		<tag k="place" v="locality" />
		<tag k="ssr:stedsnr" v="533302" />
	</node>
	<node id="-794292" lat="63.1797749961" lon="8.84919721578">
		<tag k="name" v="Åshaugmyra" />
		<tag k="natural" v="wetland" />
		<tag k="ssr:stedsnr" v="29585" />
	</node>
	<node id="-794290" lat="63.4419555591" lon="9.04325554732">
		<tag k="name" v="Svemyra" />
		<tag k="natural" v="wetland" />
		<tag k="ssr:stedsnr" v="29579" />
	</node>
	<node id="-794288" lat="63.2384361135" lon="9.10464165787">
		<tag k="name" v="Svaskarddalsmyra" />
		<tag k="natural" v="wetland" />
		<tag k="ssr:stedsnr" v="29213" />
	</node>
	<node id="-794881" lat="63.2208944484" lon="9.01575555599">
		<tag k="name" v="Hovdslættet" />
		<tag k="place" v="locality" />
		<tag k="ssr:stedsnr" v="454569" />
	</node>
	<node id="-796322" lat="63.11112222" lon="8.58119166705">
		<tag k="name" v="Nonssteinen" />
		<tag k="natural" v="stone" />
		<tag k="ssr:stedsnr" v="898506" />
	</node>
	<node id="-794266" lat="63.3474166657" lon="9.01330278681">
		<tag k="name" v="Grønmyra" />
		<tag k="natural" v="wetland" />
		<tag k="ssr:stedsnr" v="12707" />
	</node>
	<node id="-798354" lat="63.1221111074" lon="8.17298333898">
		<tag k="historic" v="shieling" />
		<tag k="name" v="Mjølkplassen" />
		<tag k="place" v="locality" />
		<tag k="ssr:stedsnr" v="532420" />
	</node>
	<node id="-798353" lat="63.0490944469" lon="8.27819721637">
		<tag k="name" v="Kvilarsteinen" />
		<tag k="natural" v="stone" />
		<tag k="ssr:stedsnr" v="532103" />
	</node>
	<node id="-798763" lat="63.260294445" lon="9.00267221621">
		<tag k="name" v="Lenesholten" />
		<tag k="place" v="locality" />
		<tag k="ssr:stedsnr" v="635093" />
	</node>
	<node id="-796292" lat="63.1445472207" lon="8.50757221643">
		<tag k="name" v="Trøa" />
		<tag k="place" v="locality" />
		<tag k="ssr:stedsnr" v="897537" />
	</node>
	<node id="-798338" lat="63.143402782" lon="8.58612222861">
		<tag k="name" v="Nedre Kartmyra" />
		<tag k="natural" v="wetland" />
		<tag k="ssr:stedsnr" v="654852" />
	</node>
	<node id="-798328" lat="63.2883528755" lon="9.24257480638">
		<tag k="alt_name" v="Novbuslættet" />
		<tag k="landuse" v="meadow" />
		<tag k="name" v="Nogbuslettet" />
		<tag k="ssr:stedsnr" v="438207" />
	</node>
	<node id="-796278" lat="63.1146749977" lon="8.54224167309">
		<tag k="name" v="Søre Langmyra" />
		<tag k="natural" v="wetland" />
		<tag k="ssr:stedsnr" v="896697" />
	</node>
	<node id="-798316" lat="63.0578416643" lon="8.39449999535">
		<tag k="name" v="Tussurda" />
		<tag k="natural" v="scree" />
		<tag k="ssr:stedsnr" v="437894" />
	</node>
	<node id="-796260" lat="63.1120805574" lon="8.58795278359">
		<tag k="name" v="Stakkora" />
		<tag k="natural" v="scree" />
		<tag k="ssr:stedsnr" v="715555" />
	</node>
	<node id="-796602" lat="63.246802776" lon="9.13520276962">
		<tag k="name" v="Tverrheimyra" />
		<tag k="natural" v="wetland" />
		<tag k="ssr:stedsnr" v="939202" />
	</node>
	<node id="-796238" lat="63.1612527745" lon="8.93215277338">
		<tag k="name" v="Storøya" />
		<tag k="natural" v="wetland" />
		<tag k="ssr:stedsnr" v="697966" />
	</node>
	<node id="-795917" lat="63.1251499999" lon="8.48664165803">
		<tag k="historic" v="shieling" />
		<tag k="name" v="Heimsetra" />
		<tag k="place" v="locality" />
		<tag k="ssr:stedsnr" v="715689" />
	</node>
	<node id="-794891" lat="63.377499996" lon="9.00768888444">
		<tag k="name" v="Røstvollmyran" />
		<tag k="natural" v="wetland" />
		<tag k="ssr:stedsnr" v="454715" />
	</node>
	<node id="-796597" lat="63.2790388896" lon="9.16571389653">
		<tag k="name" v="Dyrlimyran" />
		<tag k="natural" v="wetland" />
		<tag k="ssr:stedsnr" v="939028" />
	</node>
	<node id="-798268" lat="63.2038500038" lon="8.88554444821">
		<tag k="name" v="Storurda" />
		<tag k="natural" v="scree" />
		<tag k="ssr:stedsnr" v="413641" />
	</node>
	<node id="-794890" lat="63.4233555576" lon="9.0756305623">
		<tag k="name" v="Tomta" />
		<tag k="place" v="locality" />
		<tag k="ssr:stedsnr" v="454693" />
	</node>
	<node id="-796212" lat="63.2943999995" lon="9.22441388098">
		<tag k="name" v="Småslætta" />
		<tag k="place" v="locality" />
		<tag k="ssr:stedsnr" v="697011" />
	</node>
	<node id="-798258" lat="63.1048083316" lon="8.50049721823">
		<tag k="name" v="Teigane" />
		<tag k="place" v="locality" />
		<tag k="ssr:stedsnr" v="412618" />
	</node>
	<node id="-796205" lat="63.2448722214" lon="9.13243333819">
		<tag k="name" v="Bekkakroken" />
		<tag k="natural" v="wetland" />
		<tag k="ssr:stedsnr" v="696204" />
	</node>
	<node id="-796204" lat="63.2074749972" lon="9.04863611085">
		<tag k="name" v="Stølbruna" />
		<tag k="place" v="locality" />
		<tag k="ssr:stedsnr" v="696358" />
	</node>
	<node id="-796203" lat="63.2009833334" lon="9.11200833773">
		<tag k="historic" v="shieling" />
		<tag k="name" v="Gammelsetra" />
		<tag k="place" v="locality" />
		<tag k="ssr:stedsnr" v="696313" />
	</node>
	<node id="-796201" lat="63.2902333358" lon="9.17492222361">
		<tag k="name" v="Flyddmyran" />
		<tag k="natural" v="wetland" />
		<tag k="ssr:stedsnr" v="696007" />
	</node>
	<node id="-798299" lat="63.4043138872" lon="8.83639444914">
		<tag k="name" v="Tjønnmyrin" />
		<tag k="natural" v="wetland" />
		<tag k="ssr:stedsnr" v="437674" />
	</node>
	<node id="-798232" lat="63.0754722226" lon="8.28011389515">
		<tag k="name" v="Reitfætta" />
		<tag k="natural" v="wetland" />
		<tag k="ssr:stedsnr" v="412184" />
	</node>
	<node id="-798226" lat="63.1819194483" lon="8.71296388809">
		<tag k="name" v="Stormyra" />
		<tag k="natural" v="wetland" />
		<tag k="ssr:stedsnr" v="411994" />
	</node>
	<node id="-798222" lat="63.131480552" lon="8.34115832391">
		<tag k="name" v="Stormyra" />
		<tag k="natural" v="wetland" />
		<tag k="ssr:stedsnr" v="411920" />
	</node>
	<node id="-794541" lat="63.1892055532" lon="8.96737778379">
		<tag k="name" v="Rolimyran" />
		<tag k="natural" v="wetland" />
		<tag k="ssr:stedsnr" v="272845" />
	</node>
	<node id="-796171" lat="63.328947218" lon="9.2546361112">
		<tag k="name" v="Eshaugmyran" />
		<tag k="natural" v="wetland" />
		<tag k="ssr:stedsnr" v="882732" />
	</node>
	<node id="-798217" lat="63.0775222237" lon="8.42043333574">
		<tag k="historic" v="shieling" />
		<tag k="name" v="Melkeplassen" />
		<tag k="place" v="locality" />
		<tag k="ssr:stedsnr" v="411813" />
	</node>
	<node id="-798216" lat="63.0725416664" lon="8.42713611002">
		<tag k="name" v="Kisteteigen" />
		<tag k="place" v="locality" />
		<tag k="ssr:stedsnr" v="411812" />
	</node>
	<node id="-798213" lat="63.1407055566" lon="8.79273612051">
		<tag k="name" v="Vollmyran" />
		<tag k="natural" v="wetland" />
		<tag k="ssr:stedsnr" v="411723" />
	</node>
	<node id="-798205" lat="63.1255694449" lon="8.520891672">
		<tag k="name" v="Orøyan" />
		<tag k="place" v="locality" />
		<tag k="ssr:stedsnr" v="411581" />
	</node>
	<node id="-798200" lat="63.1111694476" lon="8.68460000684">
		<tag k="name" v="Dugnadsmyra" />
		<tag k="natural" v="wetland" />
		<tag k="ssr:stedsnr" v="411042" />
	</node>
	<node id="-796151" lat="63.2032222205" lon="8.99888055933">
		<tag k="name" v="Ørstad" />
		<tag k="place" v="locality" />
		<tag k="ssr:stedsnr" v="879927" />
	</node>
	<node id="-796148" lat="63.1780249983" lon="8.86336665813">
		<tag k="name" v="Storslættmyra" />
		<tag k="natural" v="wetland" />
		<tag k="ssr:stedsnr" v="879911" />
	</node>
	<node id="-796147" lat="63.1770472194" lon="8.85560833885">
		<tag k="name" v="Sjøl-gjetsla" />
		<tag k="place" v="locality" />
		<tag k="ssr:stedsnr" v="879910" />
	</node>
	<node id="-796145" lat="63.3040750032" lon="9.15812778663">
		<tag k="name" v="Skivedstolen" />
		<tag k="place" v="locality" />
		<tag k="ssr:stedsnr" v="879884" />
	</node>
	<node id="-796142" lat="63.3160305521" lon="9.18994166436">
		<tag k="name" v="Klumpmyra" />
		<tag k="natural" v="wetland" />
		<tag k="ssr:stedsnr" v="879877" />
	</node>
	<node id="-796136" lat="63.4031305577" lon="8.81507500006">
		<tag k="name" v="Oslimarka" />
		<tag k="place" v="locality" />
		<tag k="ssr:stedsnr" v="879825" />
	</node>
	<node id="-798182" lat="63.3226500037" lon="9.2521583421">
		<tag k="name" v="Reitan" />
		<tag k="place" v="locality" />
		<tag k="ssr:stedsnr" v="397845" />
	</node>
	<node id="-796131" lat="63.1707027775" lon="8.91722222708">
		<tag k="name" v="Randa-myran" />
		<tag k="natural" v="wetland" />
		<tag k="ssr:stedsnr" v="879792" />
	</node>
	<node id="-798176" lat="63.3261638865" lon="9.31097221823">
		<tag k="historic" v="shieling" />
		<tag k="name" v="Kleivsetra" />
		<tag k="place" v="locality" />
		<tag k="ssr:stedsnr" v="397809" />
	</node>
	<node id="-796123" lat="63.4161000022" lon="8.81091666987">
		<tag k="name" v="Sandskråa" />
		<tag k="place" v="locality" />
		<tag k="ssr:stedsnr" v="879701" />
	</node>
	<node id="-796122" lat="63.4238611148" lon="8.7785888975">
		<tag k="name" v="Sagstillingan" />
		<tag k="natural" v="wetland" />
		<tag k="ssr:stedsnr" v="879690" />
	</node>
	<node id="-796119" lat="63.424111111" lon="9.08124999795">
		<tag k="name" v="Kringla" />
		<tag k="place" v="locality" />
		<tag k="ssr:stedsnr" v="879657" />
	</node>
	<node id="-796114" lat="63.4049833322" lon="9.12750000395">
		<tag k="historic" v="shieling" />
		<tag k="name" v="Stokkmannsetra" />
		<tag k="place" v="locality" />
		<tag k="ssr:stedsnr" v="879617" />
	</node>
	<node id="-796104" lat="63.4386888908" lon="9.01988055452">
		<tag k="name" v="Løftet" />
		<tag k="place" v="locality" />
		<tag k="ssr:stedsnr" v="879580" />
	</node>
	<node id="-798147" lat="63.1863416704" lon="9.01856389406">
		<tag k="name" v="Stølen" />
		<tag k="place" v="locality" />
		<tag k="ssr:stedsnr" v="393949" />
	</node>
	<node id="-798142" lat="63.1898944446" lon="8.82111111487">
		<tag k="name" v="Kalvtrøhola" />
		<tag k="place" v="locality" />
		<tag k="ssr:stedsnr" v="393899" />
	</node>
	<node id="-798136" lat="63.3530944426" lon="9.01554722609">
		<tag k="name" v="Flatmyran" />
		<tag k="natural" v="wetland" />
		<tag k="ssr:stedsnr" v="393880" />
	</node>
	<node id="-796085" lat="63.1462666694" lon="9.07359167052">
		<tag k="name" v="Sjølgjetslan" />
		<tag k="natural" v="wetland" />
		<tag k="ssr:stedsnr" v="879399" />
	</node>
	<node id="-798131" lat="63.3479027739" lon="9.07853611423">
		<tag k="name" v="Bærmyra" />
		<tag k="natural" v="wetland" />
		<tag k="ssr:stedsnr" v="393751" />
	</node>
	<node id="-798129" lat="63.2265805519" lon="9.05565834049">
		<tag k="name" v="Seterdalsmyra" />
		<tag k="natural" v="wetland" />
		<tag k="ssr:stedsnr" v="393739" />
	</node>
	<node id="-796078" lat="63.1550694474" lon="9.0689361129">
		<tag k="name" v="Bruøyan" />
		<tag k="place" v="locality" />
		<tag k="ssr:stedsnr" v="879366" />
	</node>
	<node id="-796077" lat="63.1834944436" lon="9.02125555975">
		<tag k="historic" v="shieling" />
		<tag k="name" v="Kudikvollen" />
		<tag k="place" v="locality" />
		<tag k="ssr:stedsnr" v="879362" />
	</node>
	<node id="-796073" lat="63.1740777756" lon="9.07243612039">
		<tag k="name" v="Seterdalslættet" />
		<tag k="place" v="locality" />
		<tag k="ssr:stedsnr" v="879322" />
	</node>
	<node id="-796069" lat="63.2051111088" lon="9.07407778545">
		<tag k="name" v="Merramyra" />
		<tag k="natural" v="wetland" />
		<tag k="ssr:stedsnr" v="879296" />
	</node>
	<node id="-798109" lat="63.1895138892" lon="8.89055000744">
		<tag k="name" v="Spåmyra" />
		<tag k="natural" v="wetland" />
		<tag k="ssr:stedsnr" v="393582" />
	</node>
	<node id="-798106" lat="63.3637888844" lon="9.05148610824">
		<tag k="name" v="Småsletturdin" />
		<tag k="natural" v="scree" />
		<tag k="ssr:stedsnr" v="393423" />
	</node>
	<node id="-798103" lat="63.2948388904" lon="9.00018888724">
		<tag k="name" v="Sersjantslættet" />
		<tag k="place" v="locality" />
		<tag k="ssr:stedsnr" v="393462" />
	</node>
	<node id="-796054" lat="63.2508305561" lon="9.09579166365">
		<tag k="name" v="Gurimyra" />
		<tag k="natural" v="wetland" />
		<tag k="ssr:stedsnr" v="879207" />
	</node>
	<node id="-796053" lat="63.2357916687" lon="9.11479167315">
		<tag k="name" v="Setermyra" />
		<tag k="natural" v="wetland" />
		<tag k="ssr:stedsnr" v="879197" />
	</node>
	<node id="-796052" lat="63.2335972223" lon="9.09882500795">
		<tag k="name" v="Lægda" />
		<tag k="place" v="locality" />
		<tag k="ssr:stedsnr" v="879196" />
	</node>
	<node id="-796049" lat="63.2455305587" lon="8.98324167093">
		<tag k="name" v="Holtan" />
		<tag k="place" v="locality" />
		<tag k="ssr:stedsnr" v="879159" />
	</node>
	<node id="-798096" lat="63.1373888883" lon="9.08975000392">
		<tag k="name" v="Ragnhildøya" />
		<tag k="place" v="locality" />
		<tag k="ssr:stedsnr" v="393399" />
	</node>
	<node id="-796047" lat="63.2376166703" lon="8.98181388172">
		<tag k="name" v="Hunnesmyran" />
		<tag k="natural" v="wetland" />
		<tag k="ssr:stedsnr" v="879150" />
	</node>
	<node id="-798093" lat="63.1706388866" lon="9.03152500019">
		<tag k="name" v="Blautmyra" />
		<tag k="natural" v="wetland" />
		<tag k="ssr:stedsnr" v="393381" />
	</node>
	<node id="-798091" lat="63.2280388887" lon="9.25818889415">
		<tag k="name" v="Litlslættet" />
		<tag k="place" v="locality" />
		<tag k="ssr:stedsnr" v="393244" />
	</node>
	<node id="-794860" lat="63.1785111096" lon="9.02509444791">
		<tag k="name" v="Røytet" />
		<tag k="place" v="locality" />
		<tag k="ssr:stedsnr" v="454396" />
	</node>
	<node id="-798086" lat="63.2565222206" lon="8.98575276841">
		<tag k="name" v="Steinskogen" />
		<tag k="place" v="locality" />
		<tag k="ssr:stedsnr" v="393136" />
	</node>
	<node id="-796032" lat="63.2810194453" lon="9.10022777616">
		<tag k="name" v="Gammelbuslættet" />
		<tag k="place" v="locality" />
		<tag k="ssr:stedsnr" v="879056" />
	</node>
	<node id="-796016" lat="63.2630277791" lon="8.89441389471">
		<tag k="name" v="Melslættet" />
		<tag k="natural" v="wetland" />
		<tag k="ssr:stedsnr" v="876767" />
	</node>
	<node id="-796012" lat="63.1292333362" lon="8.3633444368">
		<tag k="name" v="Tjønnmyran" />
		<tag k="natural" v="wetland" />
		<tag k="ssr:stedsnr" v="654922" />
	</node>
	<node id="-796000" lat="63.0878500037" lon="8.57990833905">
		<tag k="name" v="Gropmyran" />
		<tag k="natural" v="wetland" />
		<tag k="ssr:stedsnr" v="654426" />
	</node>
	<node id="-795534" lat="63.1437472255" lon="9.12967778652">
		<tag k="name" v="Grønveggen" />
		<tag k="place" v="locality" />
		<tag k="ssr:stedsnr" v="454421" />
	</node>
	<node id="-795983" lat="63.19701389" lon="9.01736667546">
		<tag k="name" v="Brekkplassen" />
		<tag k="place" v="locality" />
		<tag k="ssr:stedsnr" v="636905" />
	</node>
	<node id="-795982" lat="63.3201972235" lon="9.05612222573">
		<tag k="name" v="Bærholet" />
		<tag k="natural" v="wetland" />
		<tag k="ssr:stedsnr" v="636904" />
	</node>
	<node id="-795976" lat="63.2215166633" lon="9.04088611676">
		<tag k="name" v="Gammelgarden" />
		<tag k="place" v="locality" />
		<tag k="ssr:stedsnr" v="636555" />
	</node>
	<node id="-794508" lat="63.2451999987" lon="9.05923334188">
		<tag k="name" v="Litlhatten" />
		<tag k="place" v="locality" />
		<tag k="ssr:stedsnr" v="272495" />
	</node>
	<node id="-795970" lat="63.3424361117" lon="9.12475276787">
		<tag k="name" v="Håkkomyra" />
		<tag k="natural" v="wetland" />
		<tag k="ssr:stedsnr" v="635789" />
	</node>
	<node id="-795965" lat="63.4286944431" lon="9.04751666386">
		<tag k="name" v="Slættet" />
		<tag k="place" v="locality" />
		<tag k="ssr:stedsnr" v="635564" />
	</node>
	<node id="-795962" lat="63.3430083353" lon="8.89187223067">
		<tag k="name" v="Seterslættet" />
		<tag k="place" v="locality" />
		<tag k="ssr:stedsnr" v="635823" />
	</node>
	<node id="-795957" lat="63.2732277782" lon="8.95163055849">
		<tag k="historic" v="shieling" />
		<tag k="name" v="Blomstadbuvollen" />
		<tag k="place" v="locality" />
		<tag k="ssr:stedsnr" v="635104" />
	</node>
	<node id="-797997" lat="63.1370444462" lon="8.58495000599">
		<tag k="name" v="Rapora" />
		<tag k="natural" v="scree" />
		<tag k="ssr:stedsnr" v="351848" />
	</node>
	<node id="-797996" lat="63.1736416665" lon="8.68287222658">
		<tag k="name" v="Krokan" />
		<tag k="natural" v="wetland" />
		<tag k="ssr:stedsnr" v="351846" />
	</node>
	<node id="-797988" lat="63.1261888874" lon="8.48948055377">
		<tag k="name" v="Heimseterura" />
		<tag k="natural" v="scree" />
		<tag k="ssr:stedsnr" v="351682" />
	</node>
	<node id="-797978" lat="63.0780749999" lon="8.26985277829">
		<tag k="name" v="Stormyra" />
		<tag k="natural" v="wetland" />
		<tag k="ssr:stedsnr" v="351249" />
	</node>
	<node id="-797977" lat="63.0720583336" lon="8.36115556075">
		<tag k="alt_name" v="Svartmyrane" />
		<tag k="name" v="Svartmyran" />
		<tag k="natural" v="wetland" />
		<tag k="ssr:stedsnr" v="351242" />
	</node>
	<node id="-795922" lat="63.1774055582" lon="8.68821111553">
		<tag k="name" v="Furuhjellmyra" />
		<tag k="natural" v="wetland" />
		<tag k="ssr:stedsnr" v="715875" />
	</node>
	<node id="-797969" lat="63.118927777" lon="8.37973889662">
		<tag k="historic" v="shieling" />
		<tag k="name" v="Klettasetra" />
		<tag k="place" v="locality" />
		<tag k="ssr:stedsnr" v="351112" />
	</node>
	<node id="-797965" lat="63.1712944423" lon="8.71744999337">
		<tag k="historic" v="shieling" />
		<tag k="name" v="Fjellsetra" />
		<tag k="place" v="locality" />
		<tag k="ssr:stedsnr" v="350967" />
	</node>
	<node id="-797957" lat="63.0913833318" lon="8.57569443944">
		<tag k="name" v="Litltverliora" />
		<tag k="natural" v="scree" />
		<tag k="ssr:stedsnr" v="351410" />
	</node>
	<node id="-797955" lat="63.093013891" lon="8.18345278208">
		<tag k="name" v="Plassmyra" />
		<tag k="natural" v="wetland" />
		<tag k="ssr:stedsnr" v="350734" />
	</node>
	<node id="-797946" lat="63.1189055572" lon="8.24963055684">
		<tag k="landuse" v="meadow" />
		<tag k="name" v="Geilen" />
		<tag k="ssr:stedsnr" v="350437" />
	</node>
	<node id="-797936" lat="63.1363666647" lon="8.25367222693">
		<tag k="historic" v="shieling" />
		<tag k="name" v="Gammelsetra" />
		<tag k="place" v="locality" />
		<tag k="ssr:stedsnr" v="350353" />
	</node>
	<node id="-795875" lat="63.1402027811" lon="8.57053333685">
		<tag k="name" v="Stormyra" />
		<tag k="natural" v="wetland" />
		<tag k="ssr:stedsnr" v="714643" />
	</node>
	<node id="-797922" lat="63.3541250015" lon="9.33870278036">
		<tag k="name" v="Tiurleiken" />
		<tag k="place" v="locality" />
		<tag k="ssr:stedsnr" v="336997" />
	</node>
	<node id="-797919" lat="63.3245527752" lon="9.24237499472">
		<tag k="name" v="Elvaøran" />
		<tag k="place" v="locality" />
		<tag k="ssr:stedsnr" v="336822" />
	</node>
	<node id="-797912" lat="63.4137444404" lon="8.87169999348">
		<tag k="name" v="Urdknubben" />
		<tag k="natural" v="scree" />
		<tag k="ssr:stedsnr" v="333987" />
	</node>
	<node id="-798585" lat="63.1841305566" lon="8.78903055586">
		<tag k="name" v="Seterglenna" />
		<tag k="place" v="locality" />
		<tag k="ssr:stedsnr" v="575978" />
	</node>
	<node id="-797907" lat="63.1867666662" lon="9.01174167456">
		<tag k="name" v="Manan" />
		<tag k="place" v="locality" />
		<tag k="ssr:stedsnr" v="333951" />
	</node>
	<node id="-797906" lat="63.1788805511" lon="8.95817776976">
		<tag k="name" v="Litlslættet" />
		<tag k="natural" v="wetland" />
		<tag k="ssr:stedsnr" v="333794" />
	</node>
	<node id="-797905" lat="63.1818444465" lon="9.00263888209">
		<tag k="name" v="Øvermyran" />
		<tag k="natural" v="wetland" />
		<tag k="ssr:stedsnr" v="333786" />
	</node>
	<node id="-797904" lat="63.187397221" lon="9.00468333596">
		<tag k="name" v="Gammelseter-skogan" />
		<tag k="place" v="locality" />
		<tag k="ssr:stedsnr" v="333782" />
	</node>
	<node id="-796536" lat="63.3030083307" lon="9.21836111105">
		<tag k="name" v="Kambustolen" />
		<tag k="place" v="locality" />
		<tag k="ssr:stedsnr" v="818907" />
	</node>
	<node id="-797899" lat="63.3760777782" lon="9.00931944936">
		<tag k="name" v="Åstadmyran" />
		<tag k="natural" v="wetland" />
		<tag k="ssr:stedsnr" v="333737" />
	</node>
	<node id="-797898" lat="63.372411115" lon="9.00541944615">
		<tag k="historic" v="shieling" />
		<tag k="name" v="Åstadsetra" />
		<tag k="place" v="locality" />
		<tag k="ssr:stedsnr" v="333736" />
	</node>
	<node id="-795848" lat="63.2103444415" lon="8.96682500549">
		<tag k="name" v="Torthola" />
		<tag k="natural" v="scree" />
		<tag k="ssr:stedsnr" v="575918" />
	</node>
	<node id="-795846" lat="63.1975305554" lon="9.01000554575">
		<tag k="name" v="Tjønnmyrholtan" />
		<tag k="natural" v="wetland" />
		<tag k="ssr:stedsnr" v="575912" />
	</node>
	<node id="-795845" lat="63.2116194448" lon="9.00955278532">
		<tag k="name" v="Vettahaugmyran" />
		<tag k="natural" v="wetland" />
		<tag k="ssr:stedsnr" v="575909" />
	</node>
	<node id="-795844" lat="63.2037861149" lon="8.98633056178">
		<tag k="name" v="Fjelnsetøyan" />
		<tag k="place" v="locality" />
		<tag k="ssr:stedsnr" v="575908" />
	</node>
	<node id="-795839" lat="63.3430250028" lon="9.01486666401">
		<tag k="name" v="Knøkskardmyra" />
		<tag k="natural" v="wetland" />
		<tag k="ssr:stedsnr" v="575722" />
	</node>
	<node id="-797885" lat="63.2032027757" lon="8.86511111389">
		<tag k="name" v="Hagan" />
		<tag k="place" v="locality" />
		<tag k="ssr:stedsnr" v="333585" />
	</node>
	<node id="-797881" lat="63.211730553" lon="9.00023889661">
		<tag k="name" v="Leitmyra" />
		<tag k="natural" v="wetland" />
		<tag k="ssr:stedsnr" v="333556" />
	</node>
	<node id="-797879" lat="63.4149444443" lon="9.09880000087">
		<tag k="name" v="Pallan" />
		<tag k="place" v="locality" />
		<tag k="ssr:stedsnr" v="333619" />
	</node>
	<node id="-797878" lat="63.2476250039" lon="8.9904388882">
		<tag k="name" v="Smedenga" />
		<tag k="place" v="locality" />
		<tag k="ssr:stedsnr" v="333193" />
	</node>
	<node id="-795821" lat="63.2708527815" lon="9.20164999893">
		<tag k="historic" v="shieling" />
		<tag k="name" v="Smågardssetrin" />
		<tag k="place" v="locality" />
		<tag k="ssr:stedsnr" v="575060" />
	</node>
	<node id="-795820" lat="63.2955388919" lon="9.04990833108">
		<tag k="name" v="Slabukta" />
		<tag k="place" v="locality" />
		<tag k="ssr:stedsnr" v="575052" />
	</node>
	<node id="-797863" lat="63.3120833309" lon="9.19598333039">
		<tag k="name" v="Aneset" />
		<tag k="place" v="locality" />
		<tag k="ssr:stedsnr" v="332864" />
	</node>
	<node id="-797862" lat="63.300438887" lon="9.20402223032">
		<tag k="name" v="Almurda" />
		<tag k="natural" v="scree" />
		<tag k="ssr:stedsnr" v="332860" />
	</node>
	<node id="-797851" lat="63.1406083331" lon="9.10740556158">
		<tag k="name" v="Langhaugmyra" />
		<tag k="natural" v="wetland" />
		<tag k="ssr:stedsnr" v="332387" />
	</node>
	<node id="-798575" lat="63.3413250008" lon="9.12391387943">
		<tag k="name" v="Slåttamyran" />
		<tag k="natural" v="wetland" />
		<tag k="ssr:stedsnr" v="575790" />
	</node>
	<node id="-796184" lat="63.3579277789" lon="9.33592499181">
		<tag k="historic" v="shieling" />
		<tag k="name" v="Setra" />
		<tag k="place" v="locality" />
		<tag k="ssr:stedsnr" v="882967" />
	</node>
	<node id="-797834" lat="63.2433833368" lon="9.11242778671">
		<tag k="name" v="Dalbuslættet" />
		<tag k="place" v="locality" />
		<tag k="ssr:stedsnr" v="332187" />
	</node>
	<node id="-797833" lat="63.2450805517" lon="8.96867222787">
		<tag k="name" v="Hovleksmyran" />
		<tag k="natural" v="wetland" />
		<tag k="ssr:stedsnr" v="332162" />
	</node>
	<node id="-795777" lat="63.3624972208" lon="9.32169445008">
		<tag k="name" v="Presthusvika" />
		<tag k="place" v="locality" />
		<tag k="ssr:stedsnr" v="700930" />
	</node>
	<node id="-795769" lat="63.1826194462" lon="8.82082500954">
		<tag k="name" v="Fururanda" />
		<tag k="place" v="locality" />
		<tag k="ssr:stedsnr" v="697900" />
	</node>
	<node id="-795762" lat="63.1859694457" lon="8.90369721728">
		<tag k="name" v="Tjønnmyran" />
		<tag k="natural" v="wetland" />
		<tag k="ssr:stedsnr" v="697830" />
	</node>
	<node id="-795761" lat="63.3737027805" lon="9.16375278652">
		<tag k="name" v="Høgmyran" />
		<tag k="natural" v="wetland" />
		<tag k="ssr:stedsnr" v="697824" />
	</node>
	<node id="-797807" lat="63.2808083954" lon="9.25055794199">
		<tag k="alt_name" v="Furuneset" />
		<tag k="landuse" v="meadow" />
		<tag k="name" v="Furunesslettet" />
		<tag k="ssr:stedsnr" v="316244" />
	</node>
	<node id="-795752" lat="63.1739722261" lon="8.91108889205">
		<tag k="name" v="Vasslibotnen" />
		<tag k="place" v="locality" />
		<tag k="ssr:stedsnr" v="697820" />
	</node>
	<node id="-795749" lat="63.1711000013" lon="8.94019721427">
		<tag k="historic" v="shieling" />
		<tag k="name" v="Gammel Oppigardssetra" />
		<tag k="place" v="locality" />
		<tag k="ssr:stedsnr" v="697811" />
	</node>
	<node id="-795746" lat="63.1767444406" lon="8.9713000064">
		<tag k="name" v="Bjørnahiet" />
		<tag k="place" v="locality" />
		<tag k="ssr:stedsnr" v="697792" />
	</node>
	<node id="-795744" lat="63.1821805526" lon="8.98461389182">
		<tag k="name" v="Nermyran" />
		<tag k="natural" v="wetland" />
		<tag k="ssr:stedsnr" v="697783" />
	</node>
	<node id="-795742" lat="63.1457361141" lon="8.86026111233">
		<tag k="name" v="Seterøyan" />
		<tag k="natural" v="wetland" />
		<tag k="ssr:stedsnr" v="697550" />
	</node>
	<node id="-795740" lat="63.25465556" lon="9.04983611413">
		<tag k="name" v="Sjølgjetsla" />
		<tag k="place" v="locality" />
		<tag k="ssr:stedsnr" v="697520" />
	</node>
	<node id="-795738" lat="63.3946305531" lon="9.13684445136">
		<tag k="name" v="Glenna" />
		<tag k="place" v="locality" />
		<tag k="ssr:stedsnr" v="697614" />
	</node>
	<node id="-797776" lat="63.3312944408" lon="9.23190278146">
		<tag k="name" v="Øran" />
		<tag k="place" v="locality" />
		<tag k="ssr:stedsnr" v="215841" />
	</node>
	<node id="-796971" lat="63.0272277784" lon="8.25471388752">
		<tag k="historic" v="shieling" />
		<tag k="name" v="Ringasetra" />
		<tag k="place" v="locality" />
		<tag k="ssr:stedsnr" v="47571" />
	</node>
	<node id="-795724" lat="63.2446305575" lon="9.19456111184">
		<tag k="name" v="Rutmyra" />
		<tag k="natural" v="wetland" />
		<tag k="ssr:stedsnr" v="697231" />
	</node>
	<node id="-797767" lat="63.322308336" lon="9.32155278273">
		<tag k="name" v="Rolimyran" />
		<tag k="natural" v="wetland" />
		<tag k="ssr:stedsnr" v="215814" />
	</node>
	<node id="-795718" lat="63.2416833313" lon="8.98886110454">
		<tag k="name" v="Navarsholet" />
		<tag k="natural" v="wetland" />
		<tag k="ssr:stedsnr" v="697190" />
	</node>
	<node id="-797762" lat="63.1841194489" lon="8.99267778637">
		<tag k="name" v="Nermyran" />
		<tag k="natural" v="wetland" />
		<tag k="ssr:stedsnr" v="212895" />
	</node>
	<node id="-797760" lat="63.1913194425" lon="8.90228334272">
		<tag k="name" v="Åsmyra" />
		<tag k="natural" v="wetland" />
		<tag k="ssr:stedsnr" v="212874" />
	</node>
	<node id="-795711" lat="63.3000416697" lon="9.14794999051">
		<tag k="name" v="Brustoltrøa" />
		<tag k="place" v="locality" />
		<tag k="ssr:stedsnr" v="696988" />
	</node>
	<node id="-795709" lat="63.1404361134" lon="9.07589999802">
		<tag k="name" v="Lintjønnmyra" />
		<tag k="natural" v="wetland" />
		<tag k="ssr:stedsnr" v="696436" />
	</node>
	<node id="-797755" lat="63.1837805512" lon="8.76952499667">
		<tag k="name" v="Sjølgjetsla" />
		<tag k="place" v="locality" />
		<tag k="ssr:stedsnr" v="212981" />
	</node>
	<node id="-795703" lat="63.2069277807" lon="9.03763054897">
		<tag k="name" v="Gammelsetermyra" />
		<tag k="natural" v="wetland" />
		<tag k="ssr:stedsnr" v="696334" />
	</node>
	<node id="-795700" lat="63.2874555513" lon="9.07076945132">
		<tag k="name" v="Åneset" />
		<tag k="place" v="locality" />
		<tag k="ssr:stedsnr" v="696045" />
	</node>
	<node id="-795698" lat="63.2783833327" lon="9.1499999917">
		<tag k="name" v="Skograndslætta" />
		<tag k="place" v="locality" />
		<tag k="ssr:stedsnr" v="696035" />
	</node>
	<node id="-797743" lat="63.307599999" lon="9.14143611883">
		<tag k="name" v="Hagaslættet" />
		<tag k="place" v="locality" />
		<tag k="ssr:stedsnr" v="211995" />
	</node>
	<node id="-795485" lat="63.2002055557" lon="9.00360556039">
		<tag k="name" v="Ørstadholtan" />
		<tag k="place" v="locality" />
		<tag k="ssr:stedsnr" v="515942" />
	</node>
	<node id="-795687" lat="63.1625194454" lon="8.62810555222">
		<tag k="historic" v="shieling" />
		<tag k="name" v="Gammelsetra" />
		<tag k="place" v="locality" />
		<tag k="ssr:stedsnr" v="533759" />
	</node>
	<node id="-795679" lat="63.0670916687" lon="8.34066944157">
		<tag k="alt_name" v="Blautmyrane" />
		<tag k="name" v="Blautmyran" />
		<tag k="natural" v="wetland" />
		<tag k="ssr:stedsnr" v="533225" />
	</node>
	<node id="-797725" lat="63.2181972255" lon="8.99440278665">
		<tag k="name" v="Jotjørrhjellen" />
		<tag k="place" v="locality" />
		<tag k="ssr:stedsnr" v="211683" />
	</node>
	<node id="-795674" lat="63.1184083306" lon="8.66170832742">
		<tag k="name" v="Handkleteigen" />
		<tag k="place" v="locality" />
		<tag k="ssr:stedsnr" v="533013" />
	</node>
	<node id="-797720" lat="63.4005944447" lon="9.07239722066">
		<tag k="name" v="Gaupdalsmyran" />
		<tag k="natural" v="wetland" />
		<tag k="ssr:stedsnr" v="211644" />
	</node>
	<node id="-796504" lat="63.2215833351" lon="9.2617666669">
		<tag k="name" v="Grønøya" />
		<tag k="place" v="locality" />
		<tag k="ssr:stedsnr" v="818254" />
	</node>
	<node id="-795661" lat="63.4061861131" lon="8.89911112005">
		<tag k="historic" v="shieling" />
		<tag k="name" v="Stølen" />
		<tag k="place" v="locality" />
		<tag k="ssr:stedsnr" v="515626" />
	</node>
	<node id="-797706" lat="63.1957861116" lon="8.84198054867">
		<tag k="name" v="Oksbåsen" />
		<tag k="place" v="locality" />
		<tag k="ssr:stedsnr" v="211577" />
	</node>
	<node id="-797704" lat="63.1697722185" lon="9.03321667384">
		<tag k="name" v="Kulbekk-øyan" />
		<tag k="place" v="locality" />
		<tag k="ssr:stedsnr" v="211401" />
	</node>
	<node id="-797700" lat="63.1527999971" lon="9.09116111812">
		<tag k="name" v="Kårlimyran" />
		<tag k="natural" v="wetland" />
		<tag k="ssr:stedsnr" v="211452" />
	</node>
	<node id="-798537" lat="63.1435666655" lon="9.0818166613">
		<tag k="name" v="Solmyran" />
		<tag k="natural" v="wetland" />
		<tag k="ssr:stedsnr" v="575379" />
	</node>
	<node id="-797698" lat="63.3819805566" lon="9.08182500837">
		<tag k="name" v="Kjølan" />
		<tag k="natural" v="wetland" />
		<tag k="ssr:stedsnr" v="211434" />
	</node>
	<node id="-797697" lat="63.1423166709" lon="9.0807583417">
		<tag k="name" v="Holmen" />
		<tag k="place" v="locality" />
		<tag k="ssr:stedsnr" v="211417" />
	</node>
	<node id="-797693" lat="63.1567527787" lon="9.04594999925">
		<tag k="name" v="Storhaugmyran" />
		<tag k="natural" v="wetland" />
		<tag k="ssr:stedsnr" v="211369" />
	</node>
	<node id="-797691" lat="63.1967666701" lon="9.04114721864">
		<tag k="name" v="Skavdalsmyra" />
		<tag k="natural" v="wetland" />
		<tag k="ssr:stedsnr" v="211358" />
	</node>
	<node id="-795639" lat="63.2619083353" lon="9.1573250033">
		<tag k="name" v="Trongan" />
		<tag k="place" v="locality" />
		<tag k="ssr:stedsnr" v="514085" />
	</node>
	<node id="-797686" lat="63.2102055582" lon="9.09534999435">
		<tag k="name" v="Sjølgjetsla" />
		<tag k="place" v="locality" />
		<tag k="ssr:stedsnr" v="211314" />
	</node>
	<node id="-795635" lat="63.264408331" lon="9.08530278351">
		<tag k="name" v="Litlmyra" />
		<tag k="natural" v="wetland" />
		<tag k="ssr:stedsnr" v="514118" />
	</node>
	<node id="-795381" lat="63.2504472237" lon="8.98533332438">
		<tag k="name" v="Litlbuslættet" />
		<tag k="place" v="locality" />
		<tag k="ssr:stedsnr" v="514186" />
	</node>
	<node id="-794792" lat="63.1108416643" lon="8.44883611372">
		<tag k="name" v="Tomteigan" />
		<tag k="place" v="locality" />
		<tag k="ssr:stedsnr" v="230660" />
	</node>
	<node id="-797672" lat="63.296275002" lon="9.03699444458">
		<tag k="name" v="Storsteinholten" />
		<tag k="place" v="locality" />
		<tag k="ssr:stedsnr" v="211061" />
	</node>
	<node id="-797661" lat="63.2711416665" lon="8.97409445332">
		<tag k="name" v="Mokjølen" />
		<tag k="natural" v="wetland" />
		<tag k="ssr:stedsnr" v="208762" />
	</node>
	<node id="-795468" lat="63.337833331" lon="9.00579445434">
		<tag k="name" v="Aunan" />
		<tag k="place" v="locality" />
		<tag k="ssr:stedsnr" v="515837" />
	</node>
	<node id="-797625" lat="63.0889499961" lon="8.40076388534">
		<tag k="name" v="Rognskogan" />
		<tag k="place" v="locality" />
		<tag k="ssr:stedsnr" v="194883" />
	</node>
	<node id="-795573" lat="63.1050138879" lon="8.45944167477">
		<tag k="name" v="Stormyra" />
		<tag k="natural" v="wetland" />
		<tag k="ssr:stedsnr" v="472626" />
	</node>
	<node id="-795571" lat="63.1244138859" lon="8.54786388375">
		<tag k="historic" v="shieling" />
		<tag k="name" v="Heimesetra" />
		<tag k="place" v="locality" />
		<tag k="ssr:stedsnr" v="471609" />
	</node>
	<node id="-795564" lat="63.16433333" lon="8.93105832622">
		<tag k="name" v="Litløya" />
		<tag k="natural" v="wetland" />
		<tag k="ssr:stedsnr" v="454972" />
	</node>
	<node id="-795562" lat="63.298205556" lon="9.05351111596">
		<tag k="name" v="Brustolen" />
		<tag k="place" v="locality" />
		<tag k="ssr:stedsnr" v="454963" />
	</node>
	<node id="-795559" lat="63.3759416704" lon="9.15298610634">
		<tag k="name" v="Oddstranda" />
		<tag k="place" v="locality" />
		<tag k="ssr:stedsnr" v="454824" />
	</node>
	<node id="-795558" lat="63.3412749956" lon="9.11319444605">
		<tag k="name" v="Sagmyra" />
		<tag k="natural" v="wetland" />
		<tag k="ssr:stedsnr" v="454802" />
	</node>
	<node id="-795553" lat="63.403299996" lon="9.05505277295">
		<tag k="name" v="Nerslætta" />
		<tag k="place" v="locality" />
		<tag k="ssr:stedsnr" v="454661" />
	</node>
	<node id="-795552" lat="63.377588891" lon="8.94831111726">
		<tag k="name" v="Lauvsalen" />
		<tag k="place" v="locality" />
		<tag k="ssr:stedsnr" v="454630" />
	</node>
	<node id="-795544" lat="63.2163027768" lon="8.97986944939">
		<tag k="landuse" v="meadow" />
		<tag k="name" v="Jo-enga" />
		<tag k="ssr:stedsnr" v="454710" />
	</node>
	<node id="-797591" lat="63.0694916655" lon="8.66308889631">
		<tag k="historic" v="shieling" />
		<tag k="name" v="Båssetra" />
		<tag k="place" v="locality" />
		<tag k="ssr:stedsnr" v="169892" />
	</node>
	<node id="-795540" lat="63.3199305589" lon="9.08005833395">
		<tag k="name" v="Ul-limyran" />
		<tag k="natural" v="wetland" />
		<tag k="ssr:stedsnr" v="454441" />
	</node>
	<node id="-795538" lat="63.4389027767" lon="8.98077777813">
		<tag k="name" v="Ålførtrøa" />
		<tag k="place" v="locality" />
		<tag k="ssr:stedsnr" v="454434" />
	</node>
	<node id="-797582" lat="63.1548138928" lon="8.60510832884">
		<tag k="name" v="Blautkrokan" />
		<tag k="natural" v="wetland" />
		<tag k="ssr:stedsnr" v="169749" />
	</node>
	<node id="-795530" lat="63.1438333315" lon="9.08661667593">
		<tag k="name" v="Skjelhøylømyran" />
		<tag k="natural" v="wetland" />
		<tag k="ssr:stedsnr" v="454403" />
	</node>
	<node id="-795529" lat="63.2108000045" lon="9.10074723047">
		<tag k="name" v="Sisselholet" />
		<tag k="place" v="locality" />
		<tag k="ssr:stedsnr" v="454309" />
	</node>
	<node id="-797573" lat="63.0879027803" lon="8.49566389668">
		<tag k="name" v="Fagermyra" />
		<tag k="natural" v="wetland" />
		<tag k="ssr:stedsnr" v="169655" />
	</node>
	<node id="-797570" lat="63.1045972197" lon="8.35783889815">
		<tag k="name" v="Stormyra" />
		<tag k="natural" v="wetland" />
		<tag k="ssr:stedsnr" v="169983" />
	</node>
	<node id="-795521" lat="63.2737138904" lon="8.96058055127">
		<tag k="name" v="Storbumyra" />
		<tag k="natural" v="wetland" />
		<tag k="ssr:stedsnr" v="454126" />
	</node>
	<node id="-795516" lat="63.2964083299" lon="9.15082221413">
		<tag k="name" v="Mjølkøya" />
		<tag k="place" v="locality" />
		<tag k="ssr:stedsnr" v="454025" />
	</node>
	<node id="-797558" lat="63.1164472254" lon="8.59049721328">
		<tag k="name" v="Høgora" />
		<tag k="natural" v="scree" />
		<tag k="ssr:stedsnr" v="169531" />
	</node>
	<node id="-797553" lat="63.0737888889" lon="8.35003610477">
		<tag k="alt_name" v="Bonsetermyrane" />
		<tag k="name" v="Bonsetermyran" />
		<tag k="natural" v="wetland" />
		<tag k="ssr:stedsnr" v="169229" />
	</node>
	<node id="-797551" lat="63.0782138926" lon="8.27566943764">
		<tag k="name" v="Spellmyra" />
		<tag k="natural" v="wetland" />
		<tag k="ssr:stedsnr" v="169220" />
	</node>
	<node id="-795500" lat="63.3580250007" lon="9.38058056264">
		<tag k="name" v="Lykkja" />
		<tag k="place" v="locality" />
		<tag k="ssr:stedsnr" v="519342" />
	</node>
	<node id="-795499" lat="63.3531555538" lon="9.39160555637">
		<tag k="name" v="Høgbrumana" />
		<tag k="place" v="locality" />
		<tag k="ssr:stedsnr" v="519299" />
	</node>
	<node id="-795494" lat="63.358508332" lon="9.30862778161">
		<tag k="name" v="Rubbesmyra" />
		<tag k="natural" v="wetland" />
		<tag k="ssr:stedsnr" v="518975" />
	</node>
	<node id="-797541" lat="63.1222083371" lon="8.55492499168">
		<tag k="name" v="Gropmyra" />
		<tag k="natural" v="wetland" />
		<tag k="ssr:stedsnr" v="168588" />
	</node>
	<node id="-797538" lat="63.1039749962" lon="8.17713611559">
		<tag k="name" v="Geilmyra" />
		<tag k="natural" v="wetland" />
		<tag k="ssr:stedsnr" v="168691" />
	</node>
	<node id="-797534" lat="63.049516668" lon="8.26761667186">
		<tag k="name" v="Rompesteinen" />
		<tag k="natural" v="stone" />
		<tag k="ssr:stedsnr" v="168129" />
	</node>
	<node id="-797533" lat="63.0412444442" lon="8.27048611348">
		<tag k="historic" v="shieling" />
		<tag k="name" v="Innervolemssetra" />
		<tag k="place" v="locality" />
		<tag k="ssr:stedsnr" v="168199" />
	</node>
	<node id="-795483" lat="63.1998277774" lon="9.01367222277">
		<tag k="name" v="Lintjønnmyra" />
		<tag k="natural" v="wetland" />
		<tag k="ssr:stedsnr" v="515934" />
	</node>
	<node id="-795482" lat="63.2005583347" lon="9.00246111977">
		<tag k="name" v="Ørstadmyran" />
		<tag k="natural" v="wetland" />
		<tag k="ssr:stedsnr" v="515931" />
	</node>
	<node id="-795474" lat="63.1851749975" lon="8.95230277608">
		<tag k="name" v="Bærholet" />
		<tag k="natural" v="wetland" />
		<tag k="ssr:stedsnr" v="515878" />
	</node>
	<node id="-797519" lat="63.3568722202" lon="9.35123611414">
		<tag k="name" v="Velte" />
		<tag k="place" v="locality" />
		<tag k="ssr:stedsnr" v="154419" />
	</node>
	<node id="-797518" lat="63.3204194418" lon="9.24906111998">
		<tag k="name" v="Myran" />
		<tag k="place" v="locality" />
		<tag k="ssr:stedsnr" v="154274" />
	</node>
	<node id="-797516" lat="63.3298722185" lon="9.19384722728">
		<tag k="name" v="Stokkvikmyra" />
		<tag k="natural" v="wetland" />
		<tag k="ssr:stedsnr" v="151918" />
	</node>
	<node id="-795462" lat="63.3527222183" lon="9.11578611482">
		<tag k="name" v="Buslættet" />
		<tag k="place" v="locality" />
		<tag k="ssr:stedsnr" v="515794" />
	</node>
	<node id="-797505" lat="63.3168611121" lon="9.16152778481">
		<tag k="name" v="Stormyra" />
		<tag k="natural" v="wetland" />
		<tag k="ssr:stedsnr" v="150983" />
	</node>
	<node id="-795456" lat="63.373513891" lon="9.15055277652">
		<tag k="name" v="Grønmyra" />
		<tag k="natural" v="wetland" />
		<tag k="ssr:stedsnr" v="515706" />
	</node>
	<node id="-795453" lat="63.3977277746" lon="9.04283332393">
		<tag k="name" v="Øverslættet" />
		<tag k="place" v="locality" />
		<tag k="ssr:stedsnr" v="515657" />
	</node>
	<node id="-797499" lat="63.3085638847" lon="9.03328056477">
		<tag k="historic" v="shieling" />
		<tag k="name" v="Grøtsetra" />
		<tag k="place" v="locality" />
		<tag k="ssr:stedsnr" v="150944" />
	</node>
	<node id="-795450" lat="63.1608888887" lon="8.85828332971">
		<tag k="historic" v="shieling" />
		<tag k="name" v="Gammelsetra" />
		<tag k="place" v="locality" />
		<tag k="ssr:stedsnr" v="515592" />
	</node>
	<node id="-795445" lat="63.216255558" lon="9.01778332441">
		<tag k="name" v="Stormyra" />
		<tag k="natural" v="wetland" />
		<tag k="ssr:stedsnr" v="515560" />
	</node>
	<node id="-797492" lat="63.3363666638" lon="9.08056944268">
		<tag k="historic" v="shieling" />
		<tag k="name" v="Lernessetra" />
		<tag k="place" v="locality" />
		<tag k="ssr:stedsnr" v="150920" />
	</node>
	<node id="-797491" lat="63.3328611125" lon="9.07443334177">
		<tag k="historic" v="shieling" />
		<tag k="name" v="Bjørklisetra" />
		<tag k="place" v="locality" />
		<tag k="ssr:stedsnr" v="150919" />
	</node>
	<node id="-795439" lat="63.1952444403" lon="9.01790278233">
		<tag k="name" v="Tommelskogen" />
		<tag k="place" v="locality" />
		<tag k="ssr:stedsnr" v="515920" />
	</node>
	<node id="-797030" lat="63.1149333346" lon="8.44628888846">
		<tag k="name" v="Eistenslettet" />
		<tag k="natural" v="wetland" />
		<tag k="ssr:stedsnr" v="48761" />
	</node>
	<node id="-797483" lat="63.3015888853" lon="9.24814165726">
		<tag k="name" v="Råslættet" />
		<tag k="place" v="locality" />
		<tag k="ssr:stedsnr" v="150877" />
	</node>
	<node id="-797482" lat="63.1827777749" lon="8.81284444681">
		<tag k="name" v="Svartbergshola" />
		<tag k="place" v="locality" />
		<tag k="ssr:stedsnr" v="150873" />
	</node>
	<node id="-795431" lat="63.3117361104" lon="9.13132221799">
		<tag k="name" v="Pilan" />
		<tag k="place" v="locality" />
		<tag k="ssr:stedsnr" v="514984" />
	</node>
	<node id="-797475" lat="63.3435500039" lon="9.10640834234">
		<tag k="name" v="Åsmyra" />
		<tag k="natural" v="wetland" />
		<tag k="ssr:stedsnr" v="150762" />
	</node>
	<node id="-798171" lat="63.3592638926" lon="9.38208611866">
		<tag k="name" v="Tømmeråstrøa" />
		<tag k="place" v="locality" />
		<tag k="ssr:stedsnr" v="397363" />
	</node>
	<node id="-795416" lat="63.4368833307" lon="9.0367027752">
		<tag k="name" v="Litlramnurda" />
		<tag k="natural" v="scree" />
		<tag k="ssr:stedsnr" v="514610" />
	</node>
	<node id="-797462" lat="63.3020222193" lon="9.18623332674">
		<tag k="name" v="Kalvtrøa" />
		<tag k="place" v="locality" />
		<tag k="ssr:stedsnr" v="150855" />
	</node>
	<node id="-795410" lat="63.1412916708" lon="9.09884444841">
		<tag k="name" v="Kåsmyran" />
		<tag k="natural" v="wetland" />
		<tag k="ssr:stedsnr" v="514423" />
	</node>
	<node id="-795409" lat="63.1412333293" lon="9.08789166677">
		<tag k="name" v="Trøhaugmyran" />
		<tag k="natural" v="wetland" />
		<tag k="ssr:stedsnr" v="514421" />
	</node>
	<node id="-795407" lat="63.1406888929" lon="9.11919167097">
		<tag k="historic" v="shieling" />
		<tag k="name" v="Setra" />
		<tag k="place" v="locality" />
		<tag k="ssr:stedsnr" v="514411" />
	</node>
	<node id="-797454" lat="63.3882916664" lon="8.93653888057">
		<tag k="name" v="Tømmerholet" />
		<tag k="place" v="locality" />
		<tag k="ssr:stedsnr" v="150595" />
	</node>
	<node id="-797449" lat="63.4165027761" lon="8.94911944656">
		<tag k="name" v="Hesthagan" />
		<tag k="place" v="locality" />
		<tag k="ssr:stedsnr" v="150582" />
	</node>
	<node id="-795400" lat="63.1622055514" lon="9.04626388332">
		<tag k="name" v="Rørbekkøyan" />
		<tag k="natural" v="wetland" />
		<tag k="ssr:stedsnr" v="514381" />
	</node>
	<node id="-797447" lat="63.1605166701" lon="8.86226667323">
		<tag k="historic" v="shieling" />
		<tag k="name" v="Seterøyan" />
		<tag k="place" v="locality" />
		<tag k="ssr:stedsnr" v="150578" />
	</node>
	<node id="-795398" lat="63.1985027819" lon="9.14282499517">
		<tag k="name" v="Neverøyan" />
		<tag k="natural" v="wetland" />
		<tag k="ssr:stedsnr" v="514345" />
	</node>
	<node id="-794753" lat="63.1855083362" lon="8.79640000933">
		<tag k="name" v="Bjørknesurda" />
		<tag k="natural" v="scree" />
		<tag k="ssr:stedsnr" v="212911" />
	</node>
	<node id="-795395" lat="63.2077277775" lon="9.07839722587">
		<tag k="name" v="Doverslættmyra" />
		<tag k="natural" v="wetland" />
		<tag k="ssr:stedsnr" v="514334" />
	</node>
	<node id="-795394" lat="63.1946972199" lon="9.07718889154">
		<tag k="name" v="Peterslættet" />
		<tag k="place" v="locality" />
		<tag k="ssr:stedsnr" v="514326" />
	</node>
	<node id="-795392" lat="63.2125611112" lon="9.33033889018">
		<tag k="name" v="Floan" />
		<tag k="natural" v="wetland" />
		<tag k="ssr:stedsnr" v="514249" />
	</node>
	<node id="-795434" lat="63.202583337" lon="9.30348611034">
		<tag k="name" v="Flakalimyran" />
		<tag k="natural" v="wetland" />
		<tag k="ssr:stedsnr" v="515258" />
	</node>
	<node id="-797433" lat="63.1408861126" lon="9.11643332741">
		<tag k="name" v="Melslættet" />
		<tag k="place" v="locality" />
		<tag k="ssr:stedsnr" v="150396" />
	</node>
	<node id="-797432" lat="63.1376833337" lon="9.1204972171">
		<tag k="name" v="Skoglimyran" />
		<tag k="natural" v="wetland" />
		<tag k="ssr:stedsnr" v="150392" />
	</node>
	<node id="-797429" lat="63.233027782" lon="9.05632500964">
		<tag k="name" v="Postmyra" />
		<tag k="natural" v="wetland" />
		<tag k="ssr:stedsnr" v="150542" />
	</node>
	<node id="-795380" lat="63.2491722178" lon="9.01080000596">
		<tag k="name" v="Urdin" />
		<tag k="place" v="locality" />
		<tag k="ssr:stedsnr" v="514170" />
	</node>
	<node id="-795375" lat="63.2135527767" lon="9.18477777248">
		<tag k="name" v="Nybuslættet" />
		<tag k="place" v="locality" />
		<tag k="ssr:stedsnr" v="514318" />
	</node>
	<node id="-797421" lat="63.2246027822" lon="9.26303888727">
		<tag k="name" v="Vasslikjølen" />
		<tag k="natural" v="wetland" />
		<tag k="ssr:stedsnr" v="150249" />
	</node>
	<node id="-797414" lat="63.2179694449" lon="9.1037722231">
		<tag k="name" v="Standarrommet" />
		<tag k="place" v="locality" />
		<tag k="ssr:stedsnr" v="150283" />
	</node>
	<node id="-797406" lat="63.2276055572" lon="9.29921666812">
		<tag k="name" v="Karislættet" />
		<tag k="place" v="locality" />
		<tag k="ssr:stedsnr" v="150234" />
	</node>
	<node id="-797403" lat="63.2549055581" lon="8.89871944967">
		<tag k="name" v="Melslættøyan" />
		<tag k="place" v="locality" />
		<tag k="ssr:stedsnr" v="150136" />
	</node>
	<node id="-797398" lat="63.2904027735" lon="9.07196665709">
		<tag k="name" v="Ånesøyan" />
		<tag k="place" v="locality" />
		<tag k="ssr:stedsnr" v="150024" />
	</node>
	<node id="-797395" lat="63.2387749983" lon="8.95935833508">
		<tag k="historic" v="shieling" />
		<tag k="name" v="Nysetra" />
		<tag k="place" v="locality" />
		<tag k="ssr:stedsnr" v="150161" />
	</node>
	<node id="-797394" lat="63.2381694453" lon="8.98674167368">
		<tag k="name" v="Slettmyran" />
		<tag k="natural" v="wetland" />
		<tag k="ssr:stedsnr" v="150160" />
	</node>
	<node id="-795344" lat="63.3180583326" lon="9.01026111759">
		<tag k="name" v="Tåvadslættet" />
		<tag k="place" v="locality" />
		<tag k="ssr:stedsnr" v="393960" />
	</node>
	<node id="-795343" lat="63.3150722189" lon="9.00601666012">
		<tag k="name" v="Skjeftmyran" />
		<tag k="natural" v="wetland" />
		<tag k="ssr:stedsnr" v="393958" />
	</node>
	<node id="-795341" lat="63.3295305584" lon="9.0689666715">
		<tag k="name" v="Setermyran" />
		<tag k="natural" v="wetland" />
		<tag k="ssr:stedsnr" v="393924" />
	</node>
	<node id="-795339" lat="63.3287583372" lon="9.07419999089">
		<tag k="name" v="Gulltjønnmyra" />
		<tag k="natural" v="wetland" />
		<tag k="ssr:stedsnr" v="393920" />
	</node>
	<node id="-795334" lat="63.1933916672" lon="9.0169694516">
		<tag k="name" v="Olderøyan" />
		<tag k="place" v="locality" />
		<tag k="ssr:stedsnr" v="393905" />
	</node>
	<node id="-795425" lat="63.2906277766" lon="9.24450276933">
		<tag k="name" v="Aunslættet" />
		<tag k="place" v="locality" />
		<tag k="ssr:stedsnr" v="514941" />
	</node>
	<node id="-795323" lat="63.4233000008" lon="9.08187777888">
		<tag k="name" v="Tomtmyran" />
		<tag k="natural" v="wetland" />
		<tag k="ssr:stedsnr" v="393661" />
	</node>
	<node id="-795322" lat="63.4257583299" lon="9.0631888825">
		<tag k="name" v="Moan" />
		<tag k="place" v="locality" />
		<tag k="ssr:stedsnr" v="393657" />
	</node>
	<node id="-795321" lat="63.4565888919" lon="9.01615834028">
		<tag k="name" v="Stormyra" />
		<tag k="natural" v="wetland" />
		<tag k="ssr:stedsnr" v="393622" />
	</node>
	<node id="-795314" lat="63.4441722226" lon="9.00354721223">
		<tag k="name" v="Gjengstømyran" />
		<tag k="natural" v="wetland" />
		<tag k="ssr:stedsnr" v="393605" />
	</node>
	<node id="-798835" lat="63.2111000013" lon="9.14812776876">
		<tag k="name" v="Søylislættet" />
		<tag k="place" v="locality" />
		<tag k="ssr:stedsnr" v="636325" />
	</node>
	<node id="-795312" lat="63.2144083331" lon="9.03752499475">
		<tag k="name" v="Øybuvollen" />
		<tag k="place" v="locality" />
		<tag k="ssr:stedsnr" v="393553" />
	</node>
	<node id="-795638" lat="63.2664666684" lon="9.17471666151">
		<tag k="name" v="Gråurda" />
		<tag k="natural" v="scree" />
		<tag k="ssr:stedsnr" v="514076" />
	</node>
	<node id="-798834" lat="63.2089972186" lon="9.14801944291">
		<tag k="name" v="Helvetet" />
		<tag k="place" v="locality" />
		<tag k="ssr:stedsnr" v="636323" />
	</node>
	<node id="-795306" lat="63.2086805591" lon="9.05636388762">
		<tag k="name" v="Sagvelta" />
		<tag k="place" v="locality" />
		<tag k="ssr:stedsnr" v="393354" />
	</node>
	<node id="-795305" lat="63.2104666645" lon="9.06278056324">
		<tag k="name" v="Holbuslættet" />
		<tag k="place" v="locality" />
		<tag k="ssr:stedsnr" v="393352" />
	</node>
	<node id="-795304" lat="63.2100833358" lon="9.10173610456">
		<tag k="name" v="Fagerhaugmyra" />
		<tag k="natural" v="wetland" />
		<tag k="ssr:stedsnr" v="393308" />
	</node>
	<node id="-795294" lat="63.2442000042" lon="9.11921388644">
		<tag k="name" v="Hopslættet" />
		<tag k="place" v="locality" />
		<tag k="ssr:stedsnr" v="393202" />
	</node>
	<node id="-795293" lat="63.2918416627" lon="9.05033056517">
		<tag k="name" v="Stormyra" />
		<tag k="natural" v="wetland" />
		<tag k="ssr:stedsnr" v="393075" />
	</node>
	<node id="-794735" lat="63.3773194442" lon="9.10875833686">
		<tag k="name" v="Mortenslættet" />
		<tag k="place" v="locality" />
		<tag k="ssr:stedsnr" v="211702" />
	</node>
	<node id="-795286" lat="63.2931611121" lon="9.22280277192">
		<tag k="name" v="Storslættet" />
		<tag k="place" v="locality" />
		<tag k="ssr:stedsnr" v="393010" />
	</node>
	<node id="-795285" lat="63.2922138894" lon="9.16508888623">
		<tag k="name" v="Bjørnaliurdin" />
		<tag k="natural" v="scree" />
		<tag k="ssr:stedsnr" v="393003" />
	</node>
	<node id="-797311" lat="63.3271138932" lon="8.97351944863">
		<tag k="alt_name" v="Tverrdalsmyran" />
		<tag k="name" v="Tverrdalsmyra" />
		<tag k="natural" v="wetland" />
		<tag k="ssr:stedsnr" v="133523" />
	</node>
	<node id="-795259" lat="63.3062833348" lon="9.04658611206">
		<tag k="name" v="Klostermyra" />
		<tag k="natural" v="wetland" />
		<tag k="ssr:stedsnr" v="376606" />
	</node>
	<node id="-797281" lat="63.076533334" lon="8.22490277488">
		<tag k="historic" v="shieling" />
		<tag k="name" v="Mjølkeplassen" />
		<tag k="place" v="locality" />
		<tag k="ssr:stedsnr" v="108681" />
	</node>
	<node id="-795214" lat="63.3576527753" lon="9.33168889751">
		<tag k="name" v="Seterkleiva" />
		<tag k="place" v="locality" />
		<tag k="ssr:stedsnr" v="336970" />
	</node>
	<node id="-797256" lat="63.117977777" lon="8.52347499676">
		<tag k="name" v="Stormyra" />
		<tag k="natural" v="wetland" />
		<tag k="ssr:stedsnr" v="107636" />
	</node>
	<node id="-795206" lat="63.3709972242" lon="9.15384443879">
		<tag k="name" v="Flatmyra" />
		<tag k="natural" v="wetland" />
		<tag k="ssr:stedsnr" v="333808" />
	</node>
	<node id="-795202" lat="63.3319722202" lon="9.07595555383">
		<tag k="name" v="Seterøyan" />
		<tag k="natural" v="wetland" />
		<tag k="ssr:stedsnr" v="333924" />
	</node>
	<node id="-795201" lat="63.1911944422" lon="9.00389167568">
		<tag k="name" v="Dikmyra" />
		<tag k="natural" v="wetland" />
		<tag k="ssr:stedsnr" v="333923" />
	</node>
	<node id="-795198" lat="63.1724666653" lon="8.87026388488">
		<tag k="name" v="Knebburda" />
		<tag k="natural" v="scree" />
		<tag k="ssr:stedsnr" v="333915" />
	</node>
	<node id="-795197" lat="63.1941027771" lon="8.91192778603">
		<tag k="name" v="Tjørrhjellen" />
		<tag k="place" v="locality" />
		<tag k="ssr:stedsnr" v="333906" />
	</node>
	<node id="-795196" lat="63.2120249976" lon="9.06991666985">
		<tag k="name" v="Lassrommet" />
		<tag k="place" v="locality" />
		<tag k="ssr:stedsnr" v="333546" />
	</node>
	<node id="-795195" lat="63.225536113" lon="9.04127499023">
		<tag k="name" v="Gravdalsmyra" />
		<tag k="natural" v="wetland" />
		<tag k="ssr:stedsnr" v="333545" />
	</node>
	<node id="-797241" lat="63.3584111138" lon="9.34257222405">
		<tag k="alt_name" v="Hartinnmyra" />
		<tag k="name" v="Hardtindmyra" />
		<tag k="natural" v="wetland" />
		<tag k="ssr:stedsnr" v="101103" />
	</node>
	<node id="-797234" lat="63.3442861148" lon="9.38119445082">
		<tag k="name" v="Skårillsvartholet" />
		<tag k="place" v="locality" />
		<tag k="ssr:stedsnr" v="94409" />
	</node>
	<node id="-797233" lat="63.3622138896" lon="9.37222499882">
		<tag k="name" v="Storrønningan" />
		<tag k="place" v="locality" />
		<tag k="ssr:stedsnr" v="94361" />
	</node>
	<node id="-795183" lat="63.4365111122" lon="9.01685832651">
		<tag k="name" v="Løftmyra" />
		<tag k="natural" v="wetland" />
		<tag k="ssr:stedsnr" v="332610" />
	</node>
	<node id="-795179" lat="63.3481666659" lon="9.00988334087">
		<tag k="name" v="Postmyra" />
		<tag k="natural" v="wetland" />
		<tag k="ssr:stedsnr" v="332424" />
	</node>
	<node id="-797225" lat="63.3275777751" lon="9.30614166632">
		<tag k="name" v="Skeftmyra" />
		<tag k="natural" v="wetland" />
		<tag k="ssr:stedsnr" v="93715" />
	</node>
	<node id="-797224" lat="63.3325805567" lon="9.31256665778">
		<tag k="name" v="Røte" />
		<tag k="natural" v="wetland" />
		<tag k="ssr:stedsnr" v="93696" />
	</node>
	<node id="-796081" lat="63.185902778" lon="9.04233332899">
		<tag k="name" v="Bærmyra" />
		<tag k="natural" v="wetland" />
		<tag k="ssr:stedsnr" v="879371" />
	</node>
	<node id="-797217" lat="63.3092111133" lon="9.13964999964">
		<tag k="name" v="Hollakleiva" />
		<tag k="place" v="locality" />
		<tag k="ssr:stedsnr" v="90999" />
	</node>
	<node id="-797214" lat="63.3031444437" lon="9.14526110403">
		<tag k="name" v="Brustolen" />
		<tag k="place" v="locality" />
		<tag k="ssr:stedsnr" v="90980" />
	</node>
	<node id="-797213" lat="63.3093638908" lon="9.14522222715">
		<tag k="name" v="Hollamyran" />
		<tag k="natural" v="wetland" />
		<tag k="ssr:stedsnr" v="90977" />
	</node>
	<node id="-795164" lat="63.2898611123" lon="9.20443333824">
		<tag k="name" v="Skjennstøa" />
		<tag k="place" v="locality" />
		<tag k="ssr:stedsnr" v="332009" />
	</node>
	<node id="-797211" lat="63.186127779" lon="8.98693888857">
		<tag k="name" v="Spjøturda" />
		<tag k="natural" v="scree" />
		<tag k="ssr:stedsnr" v="90951" />
	</node>
	<node id="-797210" lat="63.1807166678" lon="9.01234722104">
		<tag k="name" v="Storglenna" />
		<tag k="place" v="locality" />
		<tag k="ssr:stedsnr" v="90945" />
	</node>
	<node id="-795160" lat="63.2289027772" lon="8.8686722166">
		<tag k="name" v="Grønurda" />
		<tag k="natural" v="scree" />
		<tag k="ssr:stedsnr" v="330921" />
	</node>
	<node id="-797204" lat="63.3068694474" lon="8.96048056279">
		<tag k="name" v="Timannslættet" />
		<tag k="place" v="locality" />
		<tag k="ssr:stedsnr" v="90925" />
	</node>
	<node id="-797201" lat="63.1947611077" lon="9.00953055443">
		<tag k="name" v="Tjønnmyra" />
		<tag k="natural" v="wetland" />
		<tag k="ssr:stedsnr" v="90911" />
	</node>
	<node id="-797198" lat="63.3074611084" lon="9.24489999326">
		<tag k="name" v="Dalslættet" />
		<tag k="place" v="locality" />
		<tag k="ssr:stedsnr" v="90885" />
	</node>
	<node id="-797194" lat="63.3061361119" lon="9.1804249931">
		<tag k="name" v="Øverøyan" />
		<tag k="place" v="locality" />
		<tag k="ssr:stedsnr" v="90875" />
	</node>
	<node id="-797193" lat="63.1932638847" lon="8.94387778423">
		<tag k="name" v="Geilhaugmyra" />
		<tag k="natural" v="wetland" />
		<tag k="ssr:stedsnr" v="90871" />
	</node>
	<node id="-797189" lat="63.2065500014" lon="9.00733611326">
		<tag k="name" v="Lubbahaugmyra" />
		<tag k="natural" v="wetland" />
		<tag k="ssr:stedsnr" v="90846" />
	</node>
	<node id="-797185" lat="63.1900666672" lon="8.84671944334">
		<tag k="name" v="Skittenråa" />
		<tag k="place" v="locality" />
		<tag k="ssr:stedsnr" v="90827" />
	</node>
	<node id="-797180" lat="63.3402388921" lon="9.11249166206">
		<tag k="name" v="Stormyra" />
		<tag k="natural" v="wetland" />
		<tag k="ssr:stedsnr" v="90811" />
	</node>
	<node id="-794708" lat="63.0662083369" lon="8.25232777533">
		<tag k="name" v="Rødmyran" />
		<tag k="natural" v="wetland" />
		<tag k="ssr:stedsnr" v="194914" />
	</node>
	<node id="-797169" lat="63.3518444447" lon="9.07918611001">
		<tag k="name" v="Gabrielslættet" />
		<tag k="place" v="locality" />
		<tag k="ssr:stedsnr" v="90747" />
	</node>
	<node id="-797166" lat="63.4069916623" lon="8.78622778057">
		<tag k="name" v="Skymlingen" />
		<tag k="natural" v="wetland" />
		<tag k="ssr:stedsnr" v="90742" />
	</node>
	<node id="-795115" lat="63.063774996" lon="8.34801389433">
		<tag k="historic" v="shieling" />
		<tag k="name" v="Stølan" />
		<tag k="place" v="locality" />
		<tag k="ssr:stedsnr" v="473240" />
	</node>
	<node id="-797149" lat="63.2195749972" lon="9.07973888237">
		<tag k="name" v="Kviturda" />
		<tag k="natural" v="scree" />
		<tag k="ssr:stedsnr" v="90535" />
	</node>
	<node id="-797148" lat="63.2300638902" lon="9.02592222333">
		<tag k="name" v="Høgreitmyra" />
		<tag k="natural" v="wetland" />
		<tag k="ssr:stedsnr" v="90517" />
	</node>
	<node id="-795098" lat="63.1252972204" lon="8.41190278549">
		<tag k="name" v="Trømyra" />
		<tag k="natural" v="wetland" />
		<tag k="ssr:stedsnr" v="472727" />
	</node>
	<node id="-795093" lat="63.1271222192" lon="8.50167222732">
		<tag k="name" v="Reinsliura" />
		<tag k="natural" v="scree" />
		<tag k="ssr:stedsnr" v="472666" />
	</node>
	<node id="-797138" lat="63.1420611117" lon="9.07459444456">
		<tag k="name" v="Lassengmyra" />
		<tag k="natural" v="wetland" />
		<tag k="ssr:stedsnr" v="90393" />
	</node>
	<node id="-797134" lat="63.1613333339" lon="9.05043333493">
		<tag k="name" v="Rørbekkmyra" />
		<tag k="natural" v="wetland" />
		<tag k="ssr:stedsnr" v="90351" />
	</node>
	<node id="-797132" lat="63.2020249966" lon="9.04503055968">
		<tag k="name" v="Tjønnmyran" />
		<tag k="natural" v="wetland" />
		<tag k="ssr:stedsnr" v="90324" />
	</node>
	<node id="-797131" lat="63.2025944453" lon="9.03640833058">
		<tag k="name" v="Skalsbrekka" />
		<tag k="place" v="locality" />
		<tag k="ssr:stedsnr" v="90314" />
	</node>
	<node id="-795080" lat="63.0909000035" lon="8.60033889514">
		<tag k="name" v="Raumyra" />
		<tag k="natural" v="wetland" />
		<tag k="ssr:stedsnr" v="472410" />
	</node>
	<node id="-797127" lat="63.2063444431" lon="9.02675556309">
		<tag k="name" v="Holbekk-krokan" />
		<tag k="natural" v="wetland" />
		<tag k="ssr:stedsnr" v="90302" />
	</node>
	<node id="-797125" lat="63.2072916685" lon="9.12215833034">
		<tag k="name" v="Stakkmyran" />
		<tag k="natural" v="wetland" />
		<tag k="ssr:stedsnr" v="90284" />
	</node>
	<node id="-797122" lat="63.2194944449" lon="9.21268610198">
		<tag k="name" v="Øver Rapkleiva" />
		<tag k="place" v="locality" />
		<tag k="ssr:stedsnr" v="90227" />
	</node>
	<node id="-795072" lat="63.1053194472" lon="8.34492500524">
		<tag k="name" v="Håkkågarn" />
		<tag k="place" v="locality" />
		<tag k="ssr:stedsnr" v="472117" />
	</node>
	<node id="-797117" lat="63.2465361155" lon="9.17467776944">
		<tag k="historic" v="shieling" />
		<tag k="name" v="Hollbuvollen" />
		<tag k="place" v="locality" />
		<tag k="ssr:stedsnr" v="90174" />
	</node>
	<node id="-797115" lat="63.2433555585" lon="9.0975611019">
		<tag k="name" v="Matroslættmyra" />
		<tag k="natural" v="wetland" />
		<tag k="ssr:stedsnr" v="90168" />
	</node>
	<node id="-797113" lat="63.2424249996" lon="9.10714167294">
		<tag k="name" v="Skreddarslættet" />
		<tag k="place" v="locality" />
		<tag k="ssr:stedsnr" v="90164" />
	</node>
	<node id="-795063" lat="63.0718361134" lon="8.39672777217">
		<tag k="historic" v="shieling" />
		<tag k="name" v="Mjølkplassen" />
		<tag k="place" v="locality" />
		<tag k="ssr:stedsnr" v="471823" />
	</node>
	<node id="-797107" lat="63.2573777793" lon="8.92394722573">
		<tag k="name" v="Joslættet" />
		<tag k="place" v="locality" />
		<tag k="ssr:stedsnr" v="90113" />
	</node>
	<node id="-795057" lat="63.0877944462" lon="8.19125000801">
		<tag k="name" v="Haugmyra" />
		<tag k="natural" v="wetland" />
		<tag k="ssr:stedsnr" v="471739" />
	</node>
	<node id="-795055" lat="63.1037194425" lon="8.18028889232">
		<tag k="name" v="Teigan" />
		<tag k="place" v="locality" />
		<tag k="ssr:stedsnr" v="471701" />
	</node>
	<node id="-797101" lat="63.2858611105" lon="9.11347222163">
		<tag k="name" v="Kvitsvaet" />
		<tag k="place" v="locality" />
		<tag k="ssr:stedsnr" v="90044" />
	</node>
	<node id="-795719" lat="63.2465944467" lon="8.97823056343">
		<tag k="name" v="Gammelbuslættet" />
		<tag k="place" v="locality" />
		<tag k="ssr:stedsnr" v="697191" />
	</node>
	<node id="-795048" lat="63.1172138888" lon="8.1795583334">
		<tag k="name" v="Sommerfjøsora" />
		<tag k="natural" v="scree" />
		<tag k="ssr:stedsnr" v="471476" />
	</node>
	<node id="-797094" lat="63.3737333339" lon="8.97805277962">
		<tag k="name" v="Espet" />
		<tag k="place" v="locality" />
		<tag k="ssr:stedsnr" v="90672" />
	</node>
	<node id="-795036" lat="63.095841664" lon="8.27251110199">
		<tag k="name" v="Eidet" />
		<tag k="place" v="locality" />
		<tag k="ssr:stedsnr" v="471001" />
	</node>
	<node id="-795373" lat="63.2912777823" lon="9.00746388462">
		<tag k="name" v="Stormyra" />
		<tag k="natural" v="wetland" />
		<tag k="ssr:stedsnr" v="514051" />
	</node>
	<node id="-796055" lat="63.2490666623" lon="9.0926277871">
		<tag k="name" v="Hjortholet" />
		<tag k="place" v="locality" />
		<tag k="ssr:stedsnr" v="879208" />
	</node>
	<node id="-795010" lat="63.1467055542" lon="8.26794444021">
		<tag k="name" v="Strandamyra" />
		<tag k="natural" v="wetland" />
		<tag k="old_name" v="Strannamyra" />
		<tag k="ssr:stedsnr" v="288953" />
	</node>
	<node id="-795712" lat="63.3030805514" lon="9.2019611129">
		<tag k="name" v="Stolan" />
		<tag k="place" v="locality" />
		<tag k="ssr:stedsnr" v="696886" />
	</node>
	<node id="-795005" lat="63.3584194403" lon="9.32355832443">
		<tag k="name" v="Grønholet" />
		<tag k="place" v="locality" />
		<tag k="ssr:stedsnr" v="458982" />
	</node>
	<node id="-795000" lat="63.3202833307" lon="9.24653889166">
		<tag k="name" v="Rabban" />
		<tag k="place" v="locality" />
		<tag k="ssr:stedsnr" v="458856" />
	</node>
	<node id="-794999" lat="63.3196250003" lon="9.24935834303">
		<tag k="name" v="Skogrølen" />
		<tag k="place" v="locality" />
		<tag k="ssr:stedsnr" v="458854" />
	</node>
	<node id="-794994" lat="63.3329888888" lon="9.29925278143">
		<tag k="name" v="Øyan" />
		<tag k="place" v="locality" />
		<tag k="ssr:stedsnr" v="458768" />
	</node>
	<node id="-797038" lat="63.321797222" lon="9.19708889053">
		<tag k="name" v="Tjønnmyran" />
		<tag k="natural" v="wetland" />
		<tag k="ssr:stedsnr" v="73540" />
	</node>
	<node id="-794989" lat="63.3359972216" lon="9.07531389146">
		<tag k="name" v="Rasmustrøa" />
		<tag k="place" v="locality" />
		<tag k="ssr:stedsnr" v="272923" />
	</node>
	<node id="-797032" lat="63.141322221" lon="8.77410555938">
		<tag k="name" v="Breimyra" />
		<tag k="natural" v="wetland" />
		<tag k="ssr:stedsnr" v="48824" />
	</node>
	<node id="-794982" lat="63.1833305554" lon="8.96235554913">
		<tag k="name" v="Fagerhaug-myran" />
		<tag k="natural" v="wetland" />
		<tag k="ssr:stedsnr" v="272761" />
	</node>
	<node id="-794981" lat="63.3492999983" lon="9.10364722962">
		<tag k="historic" v="shieling" />
		<tag k="name" v="Kynnsviksetra" />
		<tag k="place" v="locality" />
		<tag k="ssr:stedsnr" v="272753" />
	</node>
	<node id="-794980" lat="63.3451583311" lon="9.09313888095">
		<tag k="name" v="Damvassmyran" />
		<tag k="natural" v="wetland" />
		<tag k="ssr:stedsnr" v="272752" />
	</node>
	<node id="-794979" lat="63.1941333355" lon="8.97556110258">
		<tag k="name" v="Nonshaugmyra" />
		<tag k="natural" v="wetland" />
		<tag k="ssr:stedsnr" v="272871" />
	</node>
	<node id="-796048" lat="63.2432861096" lon="8.97541666021">
		<tag k="name" v="Ulvslættet" />
		<tag k="place" v="locality" />
		<tag k="ssr:stedsnr" v="879157" />
	</node>
	<node id="-797020" lat="63.1351555515" lon="8.42424167133">
		<tag k="name" v="Flatmyra" />
		<tag k="natural" v="wetland" />
		<tag k="ssr:stedsnr" v="48544" />
	</node>
	<node id="-794965" lat="63.3757611116" lon="9.1477638962">
		<tag k="name" v="Sjøvoll" />
		<tag k="place" v="locality" />
		<tag k="ssr:stedsnr" v="272656" />
	</node>
	<node id="-794961" lat="63.186430554" lon="8.9312138875">
		<tag k="name" v="Osbakkmyra" />
		<tag k="natural" v="wetland" />
		<tag k="ssr:stedsnr" v="272718" />
	</node>
	<node id="-794680" lat="63.0927500015" lon="8.37923610559">
		<tag k="name" v="Huslimyran" />
		<tag k="natural" v="wetland" />
		<tag k="ssr:stedsnr" v="291037" />
	</node>
	<node id="-797006" lat="63.0894472257" lon="8.62831943656">
		<tag k="name" v="Treppen" />
		<tag k="natural" v="wetland" />
		<tag k="ssr:stedsnr" v="48417" />
	</node>
	<node id="-797005" lat="63.0977583377" lon="8.5836777779">
		<tag k="name" v="Langstimyran" />
		<tag k="natural" v="wetland" />
		<tag k="ssr:stedsnr" v="48388" />
	</node>
	<node id="-797000" lat="63.0821222203" lon="8.34943055484">
		<tag k="name" v="Heimlymyra" />
		<tag k="natural" v="wetland" />
		<tag k="ssr:stedsnr" v="48221" />
	</node>
	<node id="-796997" lat="63.1555694431" lon="8.68368056282">
		<tag k="name" v="Randamyra" />
		<tag k="natural" v="wetland" />
		<tag k="ssr:stedsnr" v="48202" />
	</node>
	<node id="-796995" lat="63.0946500009" lon="8.64792222777">
		<tag k="name" v="Hyllmyra" />
		<tag k="natural" v="wetland" />
		<tag k="ssr:stedsnr" v="48117" />
	</node>
	<node id="-794943" lat="63.2731805566" lon="9.16618610568">
		<tag k="name" v="Nerbuslættet" />
		<tag k="place" v="locality" />
		<tag k="ssr:stedsnr" v="272073" />
	</node>
	<node id="-794939" lat="63.2862000032" lon="8.99513332716">
		<tag k="name" v="Strandslættet" />
		<tag k="place" v="locality" />
		<tag k="ssr:stedsnr" v="272052" />
	</node>
	<node id="-795017" lat="63.1130972252" lon="8.63186111867">
		<tag k="name" v="Grytvollen" />
		<tag k="natural" v="scree" />
		<tag k="ssr:stedsnr" v="290457" />
	</node>
	<node id="-794925" lat="63.3580833327" lon="9.2980694454">
		<tag k="landuse" v="meadow" />
		<tag k="name" v="Plassen" />
		<tag k="ssr:stedsnr" v="457959" />
	</node>
	<node id="-794923" lat="63.3636805549" lon="9.42747222524">
		<tag k="historic" v="shieling" />
		<tag k="name" v="Sandviksetra" />
		<tag k="place" v="locality" />
		<tag k="ssr:stedsnr" v="457398" />
	</node>
	<node id="-796967" lat="63.1451111093" lon="8.69579443759">
		<tag k="name" v="Slettfjellmyran" />
		<tag k="natural" v="wetland" />
		<tag k="ssr:stedsnr" v="47465" />
	</node>
	<node id="-796964" lat="63.0534499961" lon="8.31147500351">
		<tag k="historic" v="shieling" />
		<tag k="name" v="Fjellsetra" />
		<tag k="place" v="locality" />
		<tag k="ssr:stedsnr" v="47155" />
	</node>
	<node id="-794913" lat="63.3311416635" lon="9.06526665997">
		<tag k="historic" v="shieling" />
		<tag k="name" v="Bergsetra" />
		<tag k="place" v="locality" />
		<tag k="ssr:stedsnr" v="454934" />
	</node>
	<node id="-796959" lat="63.1243972244" lon="8.35387222735">
		<tag k="name" v="Kletten" />
		<tag k="place" v="locality" />
		<tag k="ssr:stedsnr" v="47060" />
	</node>
	<node id="-794908" lat="63.19304167" lon="8.92198056284">
		<tag k="name" v="Vollan" />
		<tag k="place" v="locality" />
		<tag k="ssr:stedsnr" v="454911" />
	</node>
	<node id="-794903" lat="63.1952250031" lon="8.92356945225">
		<tag k="name" v="Sandmyran" />
		<tag k="place" v="locality" />
		<tag k="ssr:stedsnr" v="454894" />
	</node>
	<node id="-796950" lat="63.3246222193" lon="9.23869445209">
		<tag k="name" v="Øyan" />
		<tag k="place" v="locality" />
		<tag k="ssr:stedsnr" v="33851" />
	</node>
	<node id="-794896" lat="63.4208388884" lon="8.77814722263">
		<tag k="name" v="Fløosmyra" />
		<tag k="natural" v="wetland" />
		<tag k="ssr:stedsnr" v="454727" />
	</node>
	<node id="-797741" lat="63.3047249973" lon="9.14703888175">
		<tag k="name" v="Sandgrova" />
		<tag k="place" v="locality" />
		<tag k="ssr:stedsnr" v="211983" />
	</node>
	<node id="-794892" lat="63.3633499984" lon="9.14290278127">
		<tag k="name" v="Slåtten" />
		<tag k="place" v="locality" />
		<tag k="ssr:stedsnr" v="454720" />
	</node>
	<node id="-796939" lat="63.3506638902" lon="9.37858888083">
		<tag k="name" v="Sagbruholet" />
		<tag k="place" v="locality" />
		<tag k="ssr:stedsnr" v="33376" />
	</node>
	<node id="-796938" lat="63.3217361132" lon="9.2595333292">
		<tag k="name" v="Stigmyra" />
		<tag k="natural" v="wetland" />
		<tag k="ssr:stedsnr" v="33230" />
	</node>
	<node id="-794889" lat="63.4238527788" lon="9.06761666642">
		<tag k="name" v="Haløymyra" />
		<tag k="natural" v="wetland" />
		<tag k="ssr:stedsnr" v="454690" />
	</node>
	<node id="-794884" lat="63.4577250014" lon="9.04302221656">
		<tag k="name" v="Fetten" />
		<tag k="place" v="locality" />
		<tag k="ssr:stedsnr" v="454594" />
	</node>
	<node id="-796931" lat="63.3308277822" lon="9.20810000258">
		<tag k="name" v="Haugen" />
		<tag k="place" v="locality" />
		<tag k="ssr:stedsnr" v="30912" />
	</node>
	<node id="-796929" lat="63.3214502449" lon="9.22942201136">
		<tag k="name" v="Stormyra" />
		<tag k="natural" v="wetland" />
		<tag k="ssr:stedsnr" v="30888" />
	</node>
	<node id="-794879" lat="63.3377638874" lon="8.99071110303">
		<tag k="name" v="Lonkrona" />
		<tag k="place" v="locality" />
		<tag k="ssr:stedsnr" v="454845" />
	</node>
	<node id="-796922" lat="63.3100277822" lon="9.12902223188">
		<tag k="name" v="Brurasteinen" />
		<tag k="place" v="locality" />
		<tag k="ssr:stedsnr" v="30000" />
	</node>
	<node id="-796920" lat="63.3034638884" lon="9.01992499299">
		<tag k="name" v="Snøglennurda" />
		<tag k="natural" v="scree" />
		<tag k="ssr:stedsnr" v="29972" />
	</node>
	<node id="-796913" lat="63.2056750022" lon="8.9496611039">
		<tag k="name" v="Urdgarden" />
		<tag k="natural" v="scree" />
		<tag k="ssr:stedsnr" v="29899" />
	</node>
	<node id="-796911" lat="63.1846499987" lon="8.82006111655">
		<tag k="name" v="Klova" />
		<tag k="place" v="locality" />
		<tag k="ssr:stedsnr" v="29884" />
	</node>
	<node id="-794862" lat="63.144141669" lon="9.10642222694">
		<tag k="name" v="Slettmyra" />
		<tag k="natural" v="wetland" />
		<tag k="ssr:stedsnr" v="454400" />
	</node>
	<node id="-796908" lat="63.3595027757" lon="9.02009166529">
		<tag k="name" v="Storhaugmyra" />
		<tag k="natural" v="wetland" />
		<tag k="ssr:stedsnr" v="29860" />
	</node>
	<node id="-794855" lat="63.2089277773" lon="9.06280832788">
		<tag k="name" v="Litlbakkmyran" />
		<tag k="natural" v="wetland" />
		<tag k="ssr:stedsnr" v="454367" />
	</node>
	<node id="-794854" lat="63.2106638912" lon="9.06827223088">
		<tag k="name" v="Hesttrøa" />
		<tag k="place" v="locality" />
		<tag k="ssr:stedsnr" v="454364" />
	</node>
	<node id="-794852" lat="63.2042083295" lon="9.06441944212">
		<tag k="name" v="Stormyra" />
		<tag k="natural" v="wetland" />
		<tag k="ssr:stedsnr" v="454360" />
	</node>
	<node id="-794850" lat="63.1935694447" lon="9.06597499247">
		<tag k="name" v="Vinimyran" />
		<tag k="natural" v="wetland" />
		<tag k="ssr:stedsnr" v="454354" />
	</node>
	<node id="-798944" lat="63.4053916706" lon="9.04252222229">
		<tag k="name" v="Åmyran" />
		<tag k="natural" v="wetland" />
		<tag k="ssr:stedsnr" v="740677" />
	</node>
	<node id="-794320" lat="63.0795777793" lon="8.36969721893">
		<tag k="name" v="Silhaugmyra" />
		<tag k="natural" v="wetland" />
		<tag k="ssr:stedsnr" v="230228" />
	</node>
	<node id="-794844" lat="63.2092944404" lon="9.02861111685">
		<tag k="name" v="Åsan" />
		<tag k="place" v="locality" />
		<tag k="ssr:stedsnr" v="454332" />
	</node>
	<node id="-796367" lat="63.212005557" lon="8.98598333933">
		<tag k="name" v="Kjøysan" />
		<tag k="place" v="locality" />
		<tag k="ssr:stedsnr" v="757940" />
	</node>
	<node id="-794839" lat="63.2548277746" lon="9.00925278182">
		<tag k="name" v="Småmyran" />
		<tag k="natural" v="wetland" />
		<tag k="ssr:stedsnr" v="454153" />
	</node>
	<node id="-794838" lat="63.2248500042" lon="9.24707221961">
		<tag k="name" v="Kleiva" />
		<tag k="place" v="locality" />
		<tag k="ssr:stedsnr" v="454253" />
	</node>
	<node id="-796885" lat="63.4207388907" lon="9.1141444505">
		<tag k="name" v="Kalvvika" />
		<tag k="place" v="locality" />
		<tag k="ssr:stedsnr" v="29693" />
	</node>
	<node id="-794828" lat="63.2671444482" lon="9.15569167197">
		<tag k="name" v="Øverbuslættet" />
		<tag k="place" v="locality" />
		<tag k="ssr:stedsnr" v="454060" />
	</node>
	<node id="-796941" lat="63.3328583311" lon="9.30797777534">
		<tag k="name" v="Latræva" />
		<tag k="place" v="locality" />
		<tag k="ssr:stedsnr" v="33776" />
	</node>
	<node id="-796868" lat="63.3152472262" lon="9.01949444056">
		<tag k="name" v="Kjekkelmyra" />
		<tag k="natural" v="wetland" />
		<tag k="ssr:stedsnr" v="29438" />
	</node>
	<node id="-796865" lat="63.1384805555" lon="9.07336944227">
		<tag k="name" v="Anderslimyra" />
		<tag k="natural" v="wetland" />
		<tag k="ssr:stedsnr" v="29416" />
	</node>
	<node id="-798910" lat="63.1659055599" lon="8.57793889107">
		<tag k="historic" v="shieling" />
		<tag k="name" v="Trøsetra" />
		<tag k="place" v="locality" />
		<tag k="ssr:stedsnr" v="654750" />
	</node>
	<node id="-798905" lat="63.1457916671" lon="8.68828332564">
		<tag k="name" v="Jakta" />
		<tag k="natural" v="wetland" />
		<tag k="ssr:stedsnr" v="654484" />
	</node>
	<node id="-798901" lat="63.0800916702" lon="8.33809443753">
		<tag k="historic" v="shieling" />
		<tag k="name" v="Melkplassen" />
		<tag k="place" v="locality" />
		<tag k="ssr:stedsnr" v="654252" />
	</node>
	<node id="-794654" lat="63.1204972189" lon="8.52612221328">
		<tag k="name" v="Øver Trøa" />
		<tag k="place" v="locality" />
		<tag k="ssr:stedsnr" v="289679" />
	</node>
	<node id="-796849" lat="63.1662749984" lon="8.86819721565">
		<tag k="name" v="Knebblimyran" />
		<tag k="natural" v="wetland" />
		<tag k="ssr:stedsnr" v="29599" />
	</node>
	<node id="-796843" lat="63.2865916636" lon="8.9313638853">
		<tag k="name" v="Ellingkrokan" />
		<tag k="natural" v="wetland" />
		<tag k="ssr:stedsnr" v="29073" />
	</node>
	<node id="-796840" lat="63.2896361105" lon="8.9987694532">
		<tag k="historic" v="shieling" />
		<tag k="name" v="Strandasetra" />
		<tag k="place" v="locality" />
		<tag k="ssr:stedsnr" v="29052" />
	</node>
	<node id="-794790" lat="63.0419944455" lon="8.25239166684">
		<tag k="name" v="Dammen" />
		<tag k="natural" v="wetland" />
		<tag k="ssr:stedsnr" v="230606" />
	</node>
	<node id="-798875" lat="63.2167138926" lon="9.35318610627">
		<tag k="name" v="Nordgjerdet" />
		<tag k="place" v="locality" />
		<tag k="ssr:stedsnr" v="648682" />
	</node>
	<node id="-794767" lat="63.108236108" lon="8.34313611638">
		<tag k="historic" v="shieling" />
		<tag k="name" v="Mjølkplassen" />
		<tag k="place" v="locality" />
		<tag k="ssr:stedsnr" v="229112" />
	</node>
	<node id="-794893" lat="63.4131500035" lon="8.77496110269">
		<tag k="name" v="Brannlimyra" />
		<tag k="natural" v="wetland" />
		<tag k="ssr:stedsnr" v="454722" />
	</node>
	<node id="-794759" lat="63.2112611141" lon="8.99248888841">
		<tag k="name" v="Rønningen" />
		<tag k="place" v="locality" />
		<tag k="ssr:stedsnr" v="212944" />
	</node>
	<node id="-798849" lat="63.195494442" lon="8.99706667393">
		<tag k="name" v="Haukreiret" />
		<tag k="place" v="locality" />
		<tag k="ssr:stedsnr" v="636902" />
	</node>
	<node id="-798848" lat="63.2122388901" lon="8.96861388605">
		<tag k="historic" v="shieling" />
		<tag k="name" v="Brunsetra" />
		<tag k="place" v="locality" />
		<tag k="ssr:stedsnr" v="636901" />
	</node>
	<node id="-798843" lat="63.4135361131" lon="8.78793888328">
		<tag k="name" v="Vasslimyra" />
		<tag k="natural" v="wetland" />
		<tag k="ssr:stedsnr" v="636720" />
	</node>
	<node id="-798836" lat="63.2330111088" lon="9.03090000651">
		<tag k="name" v="Eidsdal" />
		<tag k="place" v="locality" />
		<tag k="ssr:stedsnr" v="636541" />
	</node>
	<node id="-796787" lat="63.3333916711" lon="8.91206666781">
		<tag k="name" v="Hundsvassmyrin" />
		<tag k="natural" v="wetland" />
		<tag k="ssr:stedsnr" v="12563" />
	</node>
	<node id="-796786" lat="63.3364361099" lon="9.01411944659">
		<tag k="name" v="Knøksmyran" />
		<tag k="natural" v="wetland" />
		<tag k="ssr:stedsnr" v="12546" />
	</node>
	<node id="-798833" lat="63.2140249957" lon="9.09000554936">
		<tag k="name" v="Tømmerholan" />
		<tag k="place" v="locality" />
		<tag k="ssr:stedsnr" v="636272" />
	</node>
	<node id="-798831" lat="63.3079499977" lon="9.21441945158">
		<tag k="name" v="Kambuøyan" />
		<tag k="place" v="locality" />
		<tag k="ssr:stedsnr" v="635885" />
	</node>
	<node id="-798826" lat="63.3008416691" lon="9.1479999926">
		<tag k="name" v="Halsen" />
		<tag k="place" v="locality" />
		<tag k="ssr:stedsnr" v="635991" />
	</node>
	<node id="-796771" lat="63.1555249985" lon="8.86284166944">
		<tag k="historic" v="shieling" />
		<tag k="name" v="Gammelsetra" />
		<tag k="place" v="locality" />
		<tag k="ssr:stedsnr" v="940564" />
	</node>
	<node id="-798818" lat="63.3618500044" lon="9.01258333511">
		<tag k="name" v="Kartsjømyra" />
		<tag k="natural" v="wetland" />
		<tag k="ssr:stedsnr" v="635845" />
	</node>
	<node id="-798814" lat="63.4079916692" lon="9.07262778268">
		<tag k="name" v="Stengdamsøyan" />
		<tag k="place" v="locality" />
		<tag k="ssr:stedsnr" v="635647" />
	</node>
	<node id="-796764" lat="63.2987194408" lon="8.98019999605">
		<tag k="alt_name" v="Skjerliurdin" />
		<tag k="name" v="Skjerliura" />
		<tag k="natural" v="scree" />
		<tag k="ssr:stedsnr" v="939954" />
	</node>
	<node id="-796761" lat="63.1542277739" lon="9.08846388931">
		<tag k="name" v="Kasperslættet" />
		<tag k="place" v="locality" />
		<tag k="ssr:stedsnr" v="939466" />
	</node>
	<node id="-796756" lat="63.255377782" lon="9.16617500517">
		<tag k="name" v="Klokkarenga" />
		<tag k="place" v="locality" />
		<tag k="ssr:stedsnr" v="939066" />
	</node>
	<node id="-798798" lat="63.2855111138" lon="9.17085556232">
		<tag k="name" v="Seterstolen" />
		<tag k="place" v="locality" />
		<tag k="ssr:stedsnr" v="635438" />
	</node>
	<node id="-798797" lat="63.351408335" lon="9.11446389467">
		<tag k="name" v="Kleivavollen" />
		<tag k="place" v="locality" />
		<tag k="ssr:stedsnr" v="635432" />
	</node>
	<node id="-798793" lat="63.1437666705" lon="9.09776111394">
		<tag k="name" v="Tjørrhjellmyra" />
		<tag k="natural" v="wetland" />
		<tag k="ssr:stedsnr" v="635412" />
	</node>
	<node id="-794693" lat="63.0991611087" lon="8.46881389594">
		<tag k="name" v="Gråora" />
		<tag k="natural" v="scree" />
		<tag k="ssr:stedsnr" v="291646" />
	</node>
	<node id="-798788" lat="63.2114500021" lon="9.09280834194">
		<tag k="name" v="Sødalsmyra" />
		<tag k="natural" v="wetland" />
		<tag k="ssr:stedsnr" v="635300" />
	</node>
	<node id="-794689" lat="63.0815249969" lon="8.59882778396">
		<tag k="historic" v="shieling" />
		<tag k="name" v="Gammelsetra" />
		<tag k="place" v="locality" />
		<tag k="ssr:stedsnr" v="291293" />
	</node>
	<node id="-794687" lat="63.0708194463" lon="8.3564694451">
		<tag k="historic" v="shieling" />
		<tag k="name" v="Bonsetra" />
		<tag k="place" v="locality" />
		<tag k="ssr:stedsnr" v="291255" />
	</node>
	<node id="-798780" lat="63.2269333378" lon="9.24463056521">
		<tag k="name" v="Hovlekslættet" />
		<tag k="place" v="locality" />
		<tag k="ssr:stedsnr" v="635243" />
	</node>
	<node id="-796728" lat="63.3514999976" lon="9.4001638951">
		<tag k="name" v="Myran" />
		<tag k="natural" v="wetland" />
		<tag k="ssr:stedsnr" v="883357" />
	</node>
	<node id="-796727" lat="63.3468416669" lon="9.26383610358">
		<tag k="name" v="Stranda" />
		<tag k="place" v="locality" />
		<tag k="ssr:stedsnr" v="883210" />
	</node>
	<node id="-798774" lat="63.240425002" lon="9.14233055917">
		<tag k="name" v="Tempelmyra" />
		<tag k="natural" v="wetland" />
		<tag k="ssr:stedsnr" v="635184" />
	</node>
	<node id="-794677" lat="63.1766805588" lon="8.72060832941">
		<tag k="name" v="Såtmyrteigen" />
		<tag k="natural" v="wetland" />
		<tag k="ssr:stedsnr" v="290982" />
	</node>
	<node id="-794676" lat="63.0925472184" lon="8.35794999439">
		<tag k="name" v="Hollåteigen" />
		<tag k="place" v="locality" />
		<tag k="ssr:stedsnr" v="290981" />
	</node>
	<node id="-798771" lat="63.2420138868" lon="8.96341943795">
		<tag k="name" v="Bjørkaholtan" />
		<tag k="place" v="locality" />
		<tag k="ssr:stedsnr" v="635150" />
	</node>
	<node id="-794672" lat="63.1084166704" lon="8.43320278189">
		<tag k="alt_name" v="Sørmyrane" />
		<tag k="name" v="Sørmyran" />
		<tag k="natural" v="wetland" />
		<tag k="ssr:stedsnr" v="290738" />
	</node>
	<node id="-798765" lat="63.2668333306" lon="9.05926666254">
		<tag k="name" v="Robergsmyra" />
		<tag k="natural" v="wetland" />
		<tag k="ssr:stedsnr" v="635101" />
	</node>
	<node id="-796716" lat="63.3544333294" lon="9.34758333128">
		<tag k="historic" v="shieling" />
		<tag k="name" v="Buvollen" />
		<tag k="place" v="locality" />
		<tag k="ssr:stedsnr" v="944367" />
	</node>
	<node id="-798386" lat="63.0894277764" lon="8.60616944528">
		<tag k="name" v="Stormyra" />
		<tag k="natural" v="wetland" />
		<tag k="ssr:stedsnr" v="533426" />
	</node>
	<node id="-796712" lat="63.321236115" lon="9.25000000717">
		<tag k="name" v="Bakkan" />
		<tag k="place" v="locality" />
		<tag k="ssr:stedsnr" v="944212" />
	</node>
	<node id="-798758" lat="63.271091663" lon="9.08734444545">
		<tag k="name" v="Rognlibruna" />
		<tag k="place" v="locality" />
		<tag k="ssr:stedsnr" v="635075" />
	</node>
	<node id="-798754" lat="63.2848305546" lon="9.15284721415">
		<tag k="name" v="Storligrova" />
		<tag k="place" v="locality" />
		<tag k="ssr:stedsnr" v="635020" />
	</node>
	<node id="-794655" lat="63.1140083354" lon="8.5472916675">
		<tag k="name" v="Nordre Langmyra" />
		<tag k="natural" v="wetland" />
		<tag k="ssr:stedsnr" v="289696" />
	</node>
	<node id="-798750" lat="63.2548944413" lon="9.16530555207">
		<tag k="name" v="Hollbumyran" />
		<tag k="natural" v="wetland" />
		<tag k="ssr:stedsnr" v="633740" />
	</node>
	<node id="-797208" lat="63.2824083375" lon="9.25632500584">
		<tag k="name" v="Bjørnaliholet" />
		<tag k="natural" v="wetland" />
		<tag k="ssr:stedsnr" v="90936" />
	</node>
	<node id="-796697" lat="63.1776027776" lon="9.01660834023">
		<tag k="name" v="Baugen" />
		<tag k="place" v="locality" />
		<tag k="ssr:stedsnr" v="940967" />
	</node>
	<node id="-796696" lat="63.2041666708" lon="8.9813305492">
		<tag k="name" v="Ekserplassen" />
		<tag k="place" v="locality" />
		<tag k="ssr:stedsnr" v="940949" />
	</node>
	<node id="-796695" lat="63.1706472267" lon="8.84813889751">
		<tag k="name" v="Rabban" />
		<tag k="place" v="locality" />
		<tag k="ssr:stedsnr" v="940931" />
	</node>
	<node id="-796692" lat="63.1969305581" lon="8.92320555061">
		<tag k="alt_name" v="Flesan" />
		<tag k="name" v="Flessan" />
		<tag k="place" v="locality" />
		<tag k="ssr:stedsnr" v="940918" />
	</node>
	<node id="-795310" lat="63.1574777795" lon="9.0742388877">
		<tag k="name" v="Asphola" />
		<tag k="place" v="locality" />
		<tag k="ssr:stedsnr" v="393365" />
	</node>
	<node id="-796689" lat="63.195452779" lon="8.97096111458">
		<tag k="name" v="Tjuvholet" />
		<tag k="natural" v="wetland" />
		<tag k="ssr:stedsnr" v="940906" />
	</node>
	<node id="-798735" lat="63.3508361141" lon="9.02375554845">
		<tag k="name" v="Fossmyra" />
		<tag k="natural" v="wetland" />
		<tag k="ssr:stedsnr" v="619739" />
	</node>
	<node id="-798733" lat="63.3581250032" lon="8.9649388923">
		<tag k="alt_name" v="Valåsmyra" />
		<tag k="name" v="Valåsmyrin" />
		<tag k="natural" v="wetland" />
		<tag k="ssr:stedsnr" v="619714" />
	</node>
	<node id="-796684" lat="63.1722055554" lon="8.86209999974">
		<tag k="name" v="Setermyra" />
		<tag k="natural" v="wetland" />
		<tag k="ssr:stedsnr" v="940855" />
	</node>
	<node id="-796681" lat="63.1706833326" lon="8.92740556234">
		<tag k="historic" v="shieling" />
		<tag k="name" v="Litlsetra" />
		<tag k="place" v="locality" />
		<tag k="ssr:stedsnr" v="940816" />
	</node>
	<node id="-794625" lat="63.3197777755" lon="9.25450278491">
		<tag k="name" v="Rølen" />
		<tag k="place" v="locality" />
		<tag k="ssr:stedsnr" v="276866" />
	</node>
</osm>
