<?xml version="1.0" encoding="UTF-8"?>
<osm version="0.6" generator="osmapis">
	<node lat="63.130644441486595" lon="8.52486111436619" id="-90288">
		<tag k="name" v="Bjørkvang" />
		<tag k="place" v="farm" />
		<tag k="ssr:stedsnr" v="229673" />
	</node>
	<node lat="63.13668055872698" lon="8.227836110558838" id="-90307">
		<tag k="name" v="Korsnesvika" />
		<tag k="place" v="farm" />
		<tag k="ssr:stedsnr" v="230273" />
	</node>
	<node lat="63.281424996663326" lon="9.078277771779423" id="-90342">
		<tag k="name" v="Haugen" />
		<tag k="place" v="farm" />
		<tag k="ssr:stedsnr" v="13609" />
	</node>
	<node lat="63.27080833259692" lon="9.01023889330646" id="-90349">
		<tag k="name" v="Saga" />
		<tag k="place" v="farm" />
		<tag k="ssr:stedsnr" v="13923" />
	</node>
	<node lat="63.19812777403877" lon="9.303274990801334" id="-90390">
		<tag k="name" v="Litlhaugen" />
		<tag k="place" v="locality" />
		<tag k="ssr:stedsnr" v="30277" />
	</node>
	<node lat="63.403936110650086" lon="8.98096111589058" id="-90404">
		<tag k="name" v="Hellandsjøen" />
		<tag k="place" v="hamlet" />
		<tag k="ssr:stedsnr" v="45170" />
	</node>
	<node lat="63.07388889045657" lon="8.264130553300411" id="-90419">
		<tag k="name" v="Avlset" />
		<tag k="place" v="farm" />
		<tag k="ssr:stedsnr" v="48216" />
	</node>
	<node lat="63.30990555985097" lon="9.180041665270704" id="-90445">
		<tag k="alt_name" v="Stølhaugen" />
		<tag k="name" v="Stølan" />
		<tag k="place" v="farm" />
		<tag k="ssr:stedsnr" v="73613" />
	</node>
	<node lat="63.31913055396498" lon="9.268688891444267" id="-90463">
		<tag k="historic" v="shieling" />
		<tag k="name" v="Berdalsætra" />
		<tag k="place" v="isolated_dwelling" />
		<tag k="ssr:stedsnr" v="74170" />
	</node>
	<node lat="63.26603332945773" lon="8.983838894947182" id="-90466">
		<tag k="name" v="Myra" />
		<tag k="place" v="farm" />
		<tag k="ssr:stedsnr" v="74913" />
	</node>
	<node lat="63.25070555402223" lon="9.196463884138172" id="-90483">
		<tag k="name" v="Kjørsestrengen" />
		<tag k="place" v="isolated_dwelling" />
		<tag k="ssr:stedsnr" v="90172" />
	</node>
	<node lat="63.19226666928433" lon="8.853824999352904" id="-90505">
		<tag k="name" v="Hansstua" />
		<tag k="place" v="farm" />
		<tag k="ssr:stedsnr" v="90564" />
	</node>
	<node lat="63.3102861110133" lon="9.080800008636897" id="-90519">
		<tag k="name" v="Grøtslættet" />
		<tag k="place" v="farm" />
		<tag k="ssr:stedsnr" v="90967" />
	</node>
	<node lat="63.35526388474856" lon="9.29199443883948" id="-90526">
		<tag k="name" v="Vollahaugen" />
		<tag k="place" v="farm" />
		<tag k="ssr:stedsnr" v="93963" />
	</node>
	<node lat="63.1337527756231" lon="8.529197221448348" id="-90536">
		<tag k="name" v="Hestnestrøa" />
		<tag k="place" v="farm" />
		<tag k="ssr:stedsnr" v="107688" />
	</node>
	<node lat="63.10916111361263" lon="8.665127771017817" id="-90542">
		<tag k="historic" v="shieling" />
		<tag k="name" v="Bårdbakken" />
		<tag k="place" v="isolated_dwelling" />
		<tag k="ssr:stedsnr" v="108024" />
	</node>
	<node lat="63.06737777996711" lon="8.238188892798597" id="-90553">
		<tag k="name" v="Myra" />
		<tag k="place" v="farm" />
		<tag k="ssr:stedsnr" v="108673" />
	</node>
	<node lat="63.32356944680046" lon="9.178030555214939" id="-90580">
		<tag k="name" v="Nordvika" />
		<tag k="place" v="farm" />
		<tag k="ssr:stedsnr" v="133469" />
	</node>
	<node lat="63.322687900556254" lon="9.245483244029538" id="-90591">
		<tag k="fixme" v="consider place=hamlet" />
		<tag k="name" v="Berdal" />
		<tag k="place" v="farm" />
		<tag k="ssr:stedsnr" v="134218" />
	</node>
	<node lat="63.13275248228222" lon="8.358353940375205" id="-90592">
		<tag k="fixme" v="consider place=hamlet" />
		<tag k="name" v="Kletten" />
		<tag k="place" v="farm" />
		<tag k="ssr:stedsnr" v="133959" />
	</node>
	<node lat="63.13063889040756" lon="8.404527770962618" id="-90593">
		<tag k="name" v="Haugen" />
		<tag k="place" v="farm" />
		<tag k="ssr:stedsnr" v="133960" />
	</node>
	<node lat="63.12434444352968" lon="8.335358335650106" id="-90596">
		<tag k="name" v="Lyngstad" />
		<tag k="place" v="farm" />
		<tag k="ssr:stedsnr" v="133970" />
	</node>
	<node lat="63.136713892669775" lon="8.417672217840051" id="-90605">
		<tag k="name" v="Myrstad" />
		<tag k="place" v="farm" />
		<tag k="ssr:stedsnr" v="134964" />
	</node>
	<node lat="63.145922417914925" lon="8.28739617363704" id="-90609">
		<tag k="fixme" v="consider place=hamlet" />
		<tag k="name" v="Strand" />
		<tag k="place" v="farm" />
		<tag k="ssr:stedsnr" v="255087" />
	</node>
	<node lat="63.28775833476577" lon="9.067691672467404" id="-90611">
		<tag k="fixme" v="consider place=suburb, village or hamlet" />
		<tag k="name" v="Støa" />
		<tag k="place" v="quarter" />
		<tag k="ssr:stedsnr" v="255599" />
	</node>
	<node lat="63.399486113978895" lon="8.985308334769565" id="-90615">
		<tag k="name" v="Helland" />
		<tag k="place" v="farm" />
		<tag k="ssr:stedsnr" v="255699" />
	</node>
	<node lat="63.337980556510246" lon="9.125552771541967" id="-90616">
		<tag k="alt_name" v="Lernes" />
		<tag k="name" v="Sørgarden" />
		<tag k="place" v="farm" />
		<tag k="ssr:stedsnr" v="255550" />
	</node>
	<node lat="63.30280833573682" lon="8.906233339413085" id="-90617">
		<tag k="historic" v="shieling" />
		<tag k="name" v="Huslia" />
		<tag k="place" v="isolated_dwelling" />
		<tag k="ssr:stedsnr" v="255618" />
	</node>
	<node lat="63.29993332940707" lon="9.051100001579075" id="-90618">
		<tag k="name" v="Lund" />
		<tag k="place" v="farm" />
		<tag k="ssr:stedsnr" v="255622" />
	</node>
	<node lat="63.29875000425309" lon="9.077849997548576" id="-90619">
		<tag k="name" v="Haugen" />
		<tag k="place" v="quarter" />
		<tag k="ssr:stedsnr" v="255623" />
	</node>
	<node lat="63.300066662287236" lon="9.036802784131167" id="-90620">
		<tag k="fixme" v="consider place=hamlet" />
		<tag k="name" v="Dalem" />
		<tag k="place" v="farm" />
		<tag k="ssr:stedsnr" v="255626" />
	</node>
	<node lat="63.19083191430004" lon="8.875431372052917" id="-90628">
		<tag k="fixme" v="consider place=hamlet" />
		<tag k="name" v="Oppsal" />
		<tag k="place" v="farm" />
		<tag k="ssr:stedsnr" v="255825" />
	</node>
	<node lat="63.07376317484673" lon="8.247593314226586" id="-90633">
		<tag k="fixme" v="consider place=hamlet" />
		<tag k="name" v="Megarden" />
		<tag k="place" v="farm" />
		<tag k="ssr:stedsnr" v="255923" />
	</node>
	<node lat="63.18889444401129" lon="8.875700004101803" id="-90677">
		<tag k="name" v="Nyvoll" />
		<tag k="place" v="farm" />
		<tag k="ssr:stedsnr" v="150573" />
	</node>
	<node lat="63.3961027756207" lon="8.98097777416352" id="-90678">
		<tag k="name" v="Nydal" />
		<tag k="place" v="farm" />
		<tag k="ssr:stedsnr" v="150704" />
	</node>
	<node lat="63.40080555985789" lon="8.822916663818342" id="-90692">
		<tag k="name" v="Novika" />
		<tag k="place" v="locality" />
		<tag k="ssr:stedsnr" v="150815" />
	</node>
	<node lat="63.39847777986405" lon="8.828394438563599" id="-90693">
		<tag k="name" v="Osmarka" />
		<tag k="place" v="locality" />
		<tag k="ssr:stedsnr" v="150817" />
	</node>
	<node lat="63.125852781492874" lon="8.335141670152659" id="-90718">
		<tag k="name" v="Rannheim" />
		<tag k="place" v="farm" />
		<tag k="ssr:stedsnr" v="168073" />
	</node>
	<node lat="63.128544444672116" lon="8.284591667725497" id="-90726">
		<tag k="historic" v="shieling" />
		<tag k="name" v="Våglandssetra" />
		<tag k="place" v="isolated_dwelling" />
		<tag k="ssr:stedsnr" v="168917" />
	</node>
	<node lat="63.08295277665147" lon="8.265874993892995" id="-90730">
		<tag k="name" v="Rønningen" />
		<tag k="place" v="farm" />
		<tag k="ssr:stedsnr" v="169218" />
	</node>
	<node lat="63.07948055989221" lon="8.27671389728417" id="-90732">
		<tag k="name" v="Solvåg" />
		<tag k="place" v="farm" />
		<tag k="ssr:stedsnr" v="169221" />
	</node>
	<node lat="63.17566111047846" lon="8.660158324756692" id="-90739">
		<tag k="name" v="Bjerklund" />
		<tag k="place" v="farm" />
		<tag k="ssr:stedsnr" v="169887" />
	</node>
	<node lat="63.20726389041691" lon="9.073774996748982" id="-90780">
		<tag k="historic" v="shieling" />
		<tag k="name" v="Klemenslættvollen" />
		<tag k="place" v="isolated_dwelling" />
		<tag k="ssr:stedsnr" v="211308" />
	</node>
	<node lat="63.360627776725295" lon="9.297847228618938" id="-90829">
		<tag k="name" v="Moen" />
		<tag k="place" v="farm" />
		<tag k="ssr:stedsnr" v="215223" />
	</node>
	<node lat="63.32632499854445" lon="9.298558325466061" id="-90832">
		<tag k="name" v="Middagslibua" />
		<tag k="place" v="locality" />
		<tag k="ssr:stedsnr" v="215825" />
	</node>
	<node lat="63.44511944499003" lon="9.029572225976347" id="-90851">
		<tag k="name" v="Skoglund" />
		<tag k="place" v="farm" />
		<tag k="ssr:stedsnr" v="228503" />
	</node>
	<node lat="63.12158889023692" lon="8.575527776394997" id="-90866">
		<tag k="fixme" v="consider place=hamlet" />
		<tag k="name" v="Hjellnes" />
		<tag k="place" v="village" />
		<tag k="ssr:stedsnr" v="230495" />
	</node>
	<node lat="63.35096944437209" lon="9.276719441073368" id="-90875">
		<tag k="leisure" v="pitch" />
		<tag k="name" v="Vennastranda fotballbane" />
		<tag k="ssr:stedsnr" v="241536" />
	</node>
	<node lat="63.257702779590254" lon="9.013583324812592" id="-90880">
		<tag k="name" v="Nygarden" />
		<tag k="place" v="farm" />
		<tag k="ssr:stedsnr" v="454092" />
	</node>
	<node lat="63.25973611120367" lon="9.0001083423026" id="-90881">
		<tag k="name" v="Leneshaugen" />
		<tag k="place" v="farm" />
		<tag k="ssr:stedsnr" v="454096" />
	</node>
	<node lat="63.14689999562855" lon="9.105233331636185" id="-90925">
		<tag k="name" v="Kårvasshytta" />
		<tag k="place" v="isolated_dwelling" />
		<tag k="ssr:stedsnr" v="454397" />
	</node>
	<node lat="63.30081111395868" lon="9.084916671947433" id="-90970">
		<tag k="name" v="Skogrand øvre" />
		<tag k="place" v="farm" />
		<tag k="ssr:stedsnr" v="454987" />
	</node>
	<node lat="63.31990000193084" lon="9.092694441395132" id="-90979">
		<tag k="name" v="Skogly" />
		<tag k="place" v="farm" />
		<tag k="ssr:stedsnr" v="255514" />
	</node>
	<node lat="63.294144443562246" lon="9.001949992991637" id="-90980">
		<tag k="name" v="Skjerlihytta" />
		<tag k="place" v="isolated_dwelling" />
		<tag k="ssr:stedsnr" v="255562" />
	</node>
	<node lat="63.29782499864852" lon="9.124758341854815" id="-90982">
		<tag k="name" v="Myra" />
		<tag k="place" v="farm" />
		<tag k="ssr:stedsnr" v="255577" />
	</node>
	<node lat="63.218501886475345" lon="9.204815050709712" id="-90986">
		<tag k="name" v="Rapet" />
		<tag k="place" v="locality" />
		<tag k="ssr:stedsnr" v="255805" />
	</node>
	<node lat="63.089965196216646" lon="8.295521139347148" id="-90990">
		<tag k="fixme" v="consider place=hamlet" />
		<tag k="name" v="Gjerstad" />
		<tag k="place" v="farm" />
		<tag k="ssr:stedsnr" v="255907" />
	</node>
	<node lat="63.09217778211035" lon="8.271883342704017" id="-90991">
		<tag k="name" v="Åsbøen" />
		<tag k="place" v="farm" />
		<tag k="ssr:stedsnr" v="255908" />
	</node>
	<node lat="63.11660277526136" lon="8.249802776297548" id="-90994">
		<tag k="name" v="Øra" />
		<tag k="place" v="farm" />
		<tag k="ssr:stedsnr" v="255970" />
	</node>
	<node lat="63.11752500021458" lon="8.307602774947691" id="-90997">
		<tag k="name" v="Moen" />
		<tag k="place" v="farm" />
		<tag k="ssr:stedsnr" v="255976" />
	</node>
	<node lat="63.358105557596005" lon="9.305644449219121" id="-91005">
		<tag k="name" v="Myra" />
		<tag k="place" v="farm" />
		<tag k="ssr:stedsnr" v="457983" />
	</node>
	<node lat="63.34768055426284" lon="9.251602781967756" id="-91008">
		<tag k="name" v="Høgberget" />
		<tag k="place" v="farm" />
		<tag k="ssr:stedsnr" v="458240" />
	</node>
	<node lat="63.26089722542506" lon="9.011222215456824" id="-91021">
		<tag k="name" v="Synnestua" />
		<tag k="place" v="farm" />
		<tag k="ssr:stedsnr" v="272111" />
	</node>
	<node lat="63.23566666333563" lon="8.91484444995909" id="-91023">
		<tag k="historic" v="shieling" />
		<tag k="name" v="Lenessetra" />
		<tag k="place" v="isolated_dwelling" />
		<tag k="ssr:stedsnr" v="272137" />
	</node>
	<node lat="63.24059440035482" lon="9.033839116300573" id="-91038">
		<tag k="name" v="Hunnes" />
		<tag k="place" v="farm" />
		<tag k="ssr:stedsnr" v="272487" />
	</node>
	<node lat="63.395352773869874" lon="9.007297213925586" id="-91041">
		<tag k="name" v="Å" />
		<tag k="place" v="farm" />
		<tag k="ssr:stedsnr" v="272610" />
	</node>
	<node lat="63.42749999792413" lon="8.999361115435876" id="-91043">
		<tag k="name" v="Snekkvikhaugen" />
		<tag k="place" v="farm" />
		<tag k="ssr:stedsnr" v="272615" />
	</node>
	<node lat="63.39445555698831" lon="8.981624999487545" id="-91046">
		<tag k="name" v="Liahagan" />
		<tag k="place" v="farm" />
		<tag k="ssr:stedsnr" v="272681" />
	</node>
	<node lat="63.22748888970178" lon="9.026183338196233" id="-91054">
		<tag k="name" v="Myrset" />
		<tag k="place" v="farm" />
		<tag k="ssr:stedsnr" v="272731" />
	</node>
	<node lat="63.42757453582022" lon="8.866930068088077" id="-91075">
		<tag k="fixme" v="consider place=hamlet" />
		<tag k="name" v="Stavnes" />
		<tag k="place" v="farm" />
		<tag k="ssr:stedsnr" v="272987" />
	</node>
	<node lat="63.36020833338022" lon="9.313908331301556" id="-91077">
		<tag k="name" v="Selnes" />
		<tag k="place" v="farm" />
		<tag k="ssr:stedsnr" v="275982" />
	</node>
	<node lat="63.18434721886375" lon="9.011394440228628" id="-91081">
		<tag k="fixme" v="consider tourism=alpine_hut or tourism=chalet" />
		<tag k="name" v="Storlisetra" />
		<tag k="ssr:stedsnr" v="280939" />
		<tag k="tourism" v="wilderness_hut" />
	</node>
	<node lat="63.33066111152874" lon="9.005480564458132" id="-91083">
		<tag k="name" v="Nestu" />
		<tag k="place" v="farm" />
		<tag k="ssr:stedsnr" v="287230" />
	</node>
	<node lat="63.07778332942564" lon="8.206691671825855" id="-91090">
		<tag k="name" v="Midta" />
		<tag k="place" v="locality" />
		<tag k="ssr:stedsnr" v="290625" />
	</node>
	<node lat="63.09372222273179" lon="8.203544450542628" id="-91094">
		<tag k="historic" v="shieling" />
		<tag k="name" v="Aakviksetra" />
		<tag k="place" v="isolated_dwelling" />
		<tag k="ssr:stedsnr" v="290695" />
	</node>
	<node lat="63.143252883322205" lon="8.32799229946531" id="-91108">
		<tag k="alt_name" v="Taknes indre" />
		<tag k="name" v="Indre Taknes" />
		<tag k="place" v="farm" />
		<tag k="ssr:stedsnr" v="291926" />
	</node>
	<node lat="63.123811114689104" lon="8.618777775220718" id="-91110">
		<tag k="name" v="Fjærlia" />
		<tag k="place" v="quarter" />
		<tag k="ssr:stedsnr" v="299289" />
	</node>
	<node lat="63.41683055692636" lon="9.035972215490828" id="-91113">
		<tag k="alt_name" v="Moen" />
		<tag k="name" v="Øvermoen" />
		<tag k="place" v="farm" />
		<tag k="ssr:stedsnr" v="315402" />
	</node>
	<node lat="63.4191805587988" lon="9.088669452982373" id="-91120">
		<tag k="name" v="Myran" />
		<tag k="place" v="farm" />
		<tag k="ssr:stedsnr" v="315662" />
	</node>
	<node lat="63.24848055322125" lon="9.016505546059186" id="-91121">
		<tag k="name" v="Lenesbukta" />
		<tag k="place" v="farm" />
		<tag k="ssr:stedsnr" v="315856" />
	</node>
	<node lat="63.12385720195899" lon="8.26698880635539" id="-91129">
		<tag k="name" v="Våglandsbakken" />
		<tag k="place" v="farm" />
		<tag k="ssr:stedsnr" v="315969" />
	</node>
	<node lat="63.426180559254746" lon="8.803994442677464" id="-91136">
		<tag k="name" v="Taftøysjøen" />
		<tag k="place" v="farm" />
		<tag k="ssr:stedsnr" v="316452" />
	</node>
	<node lat="63.42293611141514" lon="8.803658333485293" id="-91144">
		<tag k="loc_name" v="Taftøyan" />
		<tag k="name" v="Taftøya" />
		<tag k="place" v="hamlet" />
		<tag k="ssr:stedsnr" v="328767" />
	</node>
	<node lat="63.271952773704356" lon="8.950902772040829" id="-91148">
		<tag k="historic" v="shieling" />
		<tag k="name" v="Flatstølen" />
		<tag k="place" v="isolated_dwelling" />
		<tag k="ssr:stedsnr" v="332103" />
	</node>
	<node lat="63.28516666958067" lon="9.086713883376984" id="-91157">
		<tag k="name" v="Tevassvollen" />
		<tag k="place" v="farm" />
		<tag k="ssr:stedsnr" v="332037" />
	</node>
	<node lat="63.28647777755241" lon="9.08930555239326" id="-91158">
		<tag k="name" v="Vollan" />
		<tag k="place" v="farm" />
		<tag k="ssr:stedsnr" v="332041" />
	</node>
	<node lat="63.14638055965628" lon="9.130363884710738" id="-91161">
		<tag k="name" v="Nyhøyløslættet" />
		<tag k="place" v="locality" />
		<tag k="ssr:stedsnr" v="332409" />
	</node>
	<node lat="63.44276944711807" lon="9.014936112209043" id="-91168">
		<tag k="name" v="Sollia" />
		<tag k="place" v="farm" />
		<tag k="ssr:stedsnr" v="332612" />
	</node>
	<node lat="63.44371111246613" lon="9.023480547912186" id="-91169">
		<tag k="name" v="Stamnes nedre" />
		<tag k="place" v="farm" />
		<tag k="ssr:stedsnr" v="332617" />
	</node>
	<node lat="63.246716666279006" lon="9.075866669611889" id="-91177">
		<tag k="historic" v="shieling" />
		<tag k="name" v="Gammelsetra" />
		<tag k="place" v="isolated_dwelling" />
		<tag k="ssr:stedsnr" v="333517" />
	</node>
	<node lat="63.38697222127138" lon="8.989719453152299" id="-91182">
		<tag k="name" v="Saglia" />
		<tag k="place" v="farm" />
		<tag k="ssr:stedsnr" v="333707" />
	</node>
	<node lat="63.22368055897449" lon="9.021086110534531" id="-91184">
		<tag k="name" v="Stavåsen" />
		<tag k="place" v="farm" />
		<tag k="ssr:stedsnr" v="333764" />
	</node>
	<node lat="63.192247220944395" lon="8.849355559287538" id="-91198">
		<tag k="name" v="Mestua" />
		<tag k="place" v="farm" />
		<tag k="ssr:stedsnr" v="333851" />
	</node>
	<node lat="63.191797222270516" lon="8.878969442640777" id="-91199">
		<tag k="name" v="Nygarden" />
		<tag k="place" v="farm" />
		<tag k="ssr:stedsnr" v="333852" />
	</node>
	<node lat="63.06943611496142" lon="8.241638879501563" id="-91212">
		<tag k="name" v="Vollan" />
		<tag k="place" v="farm" />
		<tag k="ssr:stedsnr" v="471684" />
	</node>
	<node lat="63.07665833265286" lon="8.210697215309796" id="-91240">
		<tag k="name" v="Hagaplassen" />
		<tag k="place" v="locality" />
		<tag k="ssr:stedsnr" v="472659" />
	</node>
	<node lat="63.09723333297481" lon="8.398736117163176" id="-91245">
		<tag k="historic" v="shieling" />
		<tag k="name" v="Blekkasetra" />
		<tag k="place" v="isolated_dwelling" />
		<tag k="ssr:stedsnr" v="472655" />
	</node>
	<node lat="63.0719555511549" lon="8.224177768795958" id="-91246">
		<tag k="name" v="Midland" />
		<tag k="place" v="farm" />
		<tag k="ssr:stedsnr" v="472657" />
	</node>
	<node lat="63.12921389138915" lon="8.353827776577072" id="-91254">
		<tag k="name" v="Myra" />
		<tag k="place" v="farm" />
		<tag k="ssr:stedsnr" v="472900" />
	</node>
	<node lat="63.087586108393424" lon="8.354572224517115" id="-91276">
		<tag k="name" v="Betten" />
		<tag k="place" v="farm" />
		<tag k="ssr:stedsnr" v="350966" />
	</node>
	<node lat="63.063413887929414" lon="8.234533338308928" id="-91290">
		<tag k="name" v="Rød" />
		<tag k="place" v="farm" />
		<tag k="ssr:stedsnr" v="363239" />
	</node>
	<node lat="63.32482500126155" lon="9.104769442305953" id="-91295">
		<tag k="name" v="Nerstua" />
		<tag k="place" v="farm" />
		<tag k="ssr:stedsnr" v="376518" />
	</node>
	<node lat="63.276411108151635" lon="9.05881665827846" id="-91302">
		<tag k="name" v="Sandbukta" />
		<tag k="place" v="farm" />
		<tag k="ssr:stedsnr" v="393104" />
	</node>
	<node lat="63.389508037911995" lon="9.164763278510174" id="-91328">
		<tag k="fixme" v="consider place=hamlet" />
		<tag k="name" v="Bjørkøya" />
		<tag k="place" v="farm" />
		<tag k="ssr:stedsnr" v="393634" />
	</node>
	<node lat="63.40062777639809" lon="8.988991667545916" id="-91331">
		<tag k="fixme" v="consider place=hamlet" />
		<tag k="name" v="Helland" />
		<tag k="place" v="farm" />
		<tag k="ssr:stedsnr" v="393648" />
	</node>
	<node lat="63.20445555515249" lon="9.002244444047491" id="-91337">
		<tag k="name" v="Skeisbakkan" />
		<tag k="place" v="farm" />
		<tag k="ssr:stedsnr" v="393914" />
	</node>
	<node lat="63.329630551647305" lon="9.11164722437572" id="-91350">
		<tag k="name" v="Bjørklia" />
		<tag k="place" v="farm" />
		<tag k="ssr:stedsnr" v="393823" />
	</node>
	<node lat="63.33685833773437" lon="9.242608340200167" id="-91368">
		<tag k="name" v="Oterhaugen" />
		<tag k="place" v="farm" />
		<tag k="ssr:stedsnr" v="397827" />
	</node>
	<node lat="63.13776266406736" lon="9.099934784733897" id="-91372">
		<tag k="fixme" v="consider tourism=alpine_hut or tourism=chalet" />
		<tag k="name" v="Kårøyan" />
		<tag k="ssr:stedsnr" v="402000" />
		<tag k="tourism" v="wilderness_hut" />
	</node>
	<node lat="63.147750543014716" lon="8.57116522409602" id="-91391">
		<tag k="fixme" v="consider place=hamlet" />
		<tag k="name" v="Stokke" />
		<tag k="place" v="farm" />
		<tag k="ssr:stedsnr" v="411639" />
	</node>
	<node lat="63.13314722387332" lon="8.533377775757168" id="-91392">
		<tag k="name" v="Engtrøa" />
		<tag k="place" v="farm" />
		<tag k="ssr:stedsnr" v="411644" />
	</node>
	<node lat="63.16878333041779" lon="8.685144444847294" id="-91403">
		<tag k="historic" v="shieling" />
		<tag k="name" v="Gåsviksetra" />
		<tag k="place" v="isolated_dwelling" />
		<tag k="ssr:stedsnr" v="412204" />
	</node>
	<node lat="63.08797778189058" lon="8.347122221401152" id="-91428">
		<tag k="name" v="Betna boligfelt" />
		<tag k="place" v="quarter" />
		<tag k="ssr:stedsnr" v="421245" />
	</node>
	<node lat="63.36865886549604" lon="9.146051320936667" id="-91436">
		<tag k="name" v="Oddan" />
		<tag k="place" v="farm" />
		<tag k="ssr:stedsnr" v="437703" />
	</node>
	<node lat="63.353641668374124" lon="9.121102772064098" id="-91440">
		<tag k="name" v="Steinvika" />
		<tag k="place" v="farm" />
		<tag k="ssr:stedsnr" v="437717" />
	</node>
	<node lat="63.312461110708206" lon="9.204747223080563" id="-91441">
		<tag k="name" v="Asplia" />
		<tag k="place" v="farm" />
		<tag k="ssr:stedsnr" v="437602" />
	</node>
	<node lat="63.10596666647216" lon="8.266922218550626" id="-91448">
		<tag k="name" v="Kleiva" />
		<tag k="place" v="farm" />
		<tag k="ssr:stedsnr" v="437999" />
	</node>
	<node lat="63.44559722246731" lon="9.004411119680753" id="-91451">
		<tag k="alt_name" v="Gjengstøa" />
		<tag k="name" v="Gjengstø" />
		<tag k="place" v="farm" />
		<tag k="ssr:stedsnr" v="438373" />
	</node>
	<node lat="63.450644440258486" lon="9.024861116949332" id="-91452">
		<tag k="name" v="Nyland" />
		<tag k="place" v="farm" />
		<tag k="ssr:stedsnr" v="438379" />
	</node>
	<node lat="63.42436111256706" lon="8.842330550980543" id="-91455">
		<tag k="name" v="Stavneslia" />
		<tag k="place" v="farm" />
		<tag k="ssr:stedsnr" v="438404" />
	</node>
	<node lat="63.42765000186684" lon="8.821475007380451" id="-91456">
		<tag k="name" v="Leirvik" />
		<tag k="place" v="farm" />
		<tag k="ssr:stedsnr" v="438400" />
	</node>
	<node lat="63.29295555669531" lon="9.062486116395476" id="-91465">
		<tag k="name" v="Stølan" />
		<tag k="place" v="farm" />
		<tag k="ssr:stedsnr" v="272058" />
	</node>
	<node lat="63.44752778144231" lon="8.985161117073368" id="-91472">
		<tag k="name" v="Magerøy" />
		<tag k="place" v="locality" />
		<tag k="ssr:stedsnr" v="272589" />
	</node>
	<node lat="63.423141662711025" lon="9.093411109498753" id="-91473">
		<tag k="fixme" v="consider place=hamlet" />
		<tag k="name" v="Heimsjøen" />
		<tag k="place" v="farm" />
		<tag k="ssr:stedsnr" v="272594" />
	</node>
	<node lat="63.23610278009386" lon="9.036911106223505" id="-91487">
		<tag k="name" v="Eidet" />
		<tag k="place" v="farm" />
		<tag k="ssr:stedsnr" v="454184" />
	</node>
	<node lat="63.20608333141056" lon="9.061991665918155" id="-91494">
		<tag k="name" v="Stølen" />
		<tag k="place" v="farm" />
		<tag k="ssr:stedsnr" v="454362" />
	</node>
	<node lat="63.40552778025183" lon="8.983827786855977" id="-91506">
		<tag k="name" v="Hellandsjøberget" />
		<tag k="place" v="farm" />
		<tag k="ssr:stedsnr" v="454670" />
	</node>
	<node lat="63.18689202868384" lon="8.788994411092032" id="-91508">
		<tag k="fixme" v="consider place=hamlet" />
		<tag k="name" v="Bjørknes" />
		<tag k="place" v="farm" />
		<tag k="ssr:stedsnr" v="454681" />
	</node>
	<node lat="63.419944440266725" lon="9.085719437269493" id="-91509">
		<tag k="name" v="Klokkargarden" />
		<tag k="place" v="farm" />
		<tag k="ssr:stedsnr" v="454685" />
	</node>
	<node lat="63.2054083329219" lon="9.001727780298914" id="-91513">
		<tag k="name" v="Skeishaugen" />
		<tag k="place" v="farm" />
		<tag k="ssr:stedsnr" v="454878" />
	</node>
	<node lat="63.34843889156609" lon="9.266705562330404" id="-91531">
		<tag k="name" v="Vennatrøa" />
		<tag k="place" v="quarter" />
		<tag k="ssr:stedsnr" v="458217" />
	</node>
	<node lat="63.118411108879286" lon="8.623427773376859" id="-91539">
		<tag k="name" v="Indre Fjærlia" />
		<tag k="place" v="farm" />
		<tag k="ssr:stedsnr" v="462459" />
	</node>
	<node lat="63.12025833041495" lon="8.304922232045175" id="-91541">
		<tag k="name" v="Liabøen" />
		<tag k="place" v="quarter" />
		<tag k="ssr:stedsnr" v="464371" />
	</node>
	<node lat="63.027580554123475" lon="8.266761117362943" id="-91545">
		<tag k="historic" v="shieling" />
		<tag k="name" v="Øvre Ringasetra" />
		<tag k="place" v="isolated_dwelling" />
		<tag k="ssr:stedsnr" v="471205" />
	</node>
	<node lat="63.13951111065954" lon="8.22193056006068" id="-91555">
		<tag k="name" v="Sørnes" />
		<tag k="place" v="farm" />
		<tag k="ssr:stedsnr" v="472269" />
	</node>
	<node lat="63.13874444760164" lon="8.218702776519418" id="-91556">
		<tag k="name" v="Sørheim" />
		<tag k="place" v="farm" />
		<tag k="ssr:stedsnr" v="472271" />
	</node>
	<node lat="63.28323333687882" lon="9.076075009334843" id="-91581">
		<tag k="name" v="Vassvollen" />
		<tag k="place" v="farm" />
		<tag k="ssr:stedsnr" v="272256" />
	</node>
	<node lat="63.05692777494311" lon="8.23693888058411" id="-91585">
		<tag k="name" v="Blåbærhaugen" />
		<tag k="place" v="neighbourhood" />
		<tag k="ssr:stedsnr" v="481270" />
	</node>
	<node lat="63.12928055264226" lon="8.333322222266037" id="-91593">
		<tag k="name" v="Nyvoll" />
		<tag k="place" v="farm" />
		<tag k="ssr:stedsnr" v="679953" />
	</node>
	<node lat="63.29690833244625" lon="9.259347227711162" id="-91595">
		<tag k="alt_name" v="Stølsetra" />
		<tag k="name" v="Stølsætra" />
		<tag k="place" v="isolated_dwelling" />
		<tag k="ssr:stedsnr" v="680221" />
	</node>
	<node lat="63.29678055802567" lon="9.234652783847103" id="-91596">
		<tag k="alt_name" v="Aunsetra" />
		<tag k="historic" v="shieling" />
		<tag k="name" v="Aunsætra" />
		<tag k="place" v="isolated_dwelling" />
		<tag k="ssr:stedsnr" v="680224" />
	</node>
	<node lat="63.366413891974034" lon="9.155163887100436" id="-91603">
		<tag k="name" v="Gjengstøa" />
		<tag k="place" v="farm" />
		<tag k="ssr:stedsnr" v="680746" />
	</node>
	<node lat="63.31156389241134" lon="9.159916674404348" id="-91604">
		<tag k="alt_name" v="Aunåsen" />
		<tag k="name" v="Åsen" />
		<tag k="place" v="farm" />
		<tag k="ssr:stedsnr" v="680645" />
	</node>
	<node lat="63.392850001064616" lon="8.99321111925768" id="-91615">
		<tag k="name" v="Svanem" />
		<tag k="place" v="farm" />
		<tag k="ssr:stedsnr" v="497612" />
	</node>
	<node lat="63.23551388471439" lon="8.91423611076332" id="-91622">
		<tag k="historic" v="shieling" />
		<tag k="name" v="Sophaugen" />
		<tag k="place" v="isolated_dwelling" />
		<tag k="ssr:stedsnr" v="497759" />
	</node>
	<node lat="63.33108333651791" lon="9.239066673346725" id="-91627">
		<tag k="alt_name" v="Einan" />
		<tag k="name" v="Berdal" />
		<tag k="place" v="farm" />
		<tag k="ssr:stedsnr" v="498195" />
	</node>
	<node lat="63.44368610918322" lon="9.011627778714168" id="-91630">
		<tag k="name" v="Nylund" />
		<tag k="place" v="farm" />
		<tag k="ssr:stedsnr" v="498440" />
	</node>
	<node lat="63.19923611117934" lon="8.951761121028383" id="-91646">
		<tag k="name" v="Bugen" />
		<tag k="place" v="isolated_dwelling" />
		<tag k="ssr:stedsnr" v="272857" />
	</node>
	<node lat="63.042261254706204" lon="8.237512082464963" id="-91648">
		<tag k="fixme" v="consider place=hamlet" />
		<tag k="name" v="Innreitan" />
		<tag k="place" v="farm" />
		<tag k="ssr:stedsnr" v="498848" />
	</node>
	<node lat="63.39517500173183" lon="8.980800009288206" id="-91681">
		<tag k="name" v="Seterdalen" />
		<tag k="place" v="farm" />
		<tag k="ssr:stedsnr" v="514725" />
	</node>
	<node lat="63.207725003323205" lon="9.270802787579033" id="-91687">
		<tag k="name" v="Olaråa" />
		<tag k="place" v="isolated_dwelling" />
		<tag k="ssr:stedsnr" v="515321" />
	</node>
	<node lat="63.42576110887744" lon="8.782841664400927" id="-91694">
		<tag k="name" v="Taftøybukta" />
		<tag k="place" v="isolated_dwelling" />
		<tag k="ssr:stedsnr" v="515704" />
	</node>
	<node lat="63.228705557171445" lon="9.030427783267989" id="-91700">
		<tag k="name" v="Eidsfossen" />
		<tag k="place" v="farm" />
		<tag k="ssr:stedsnr" v="515783" />
	</node>
	<node lat="63.36738055730888" lon="9.153600006456156" id="-91702">
		<tag k="fixme" v="consider place=hamlet" />
		<tag k="name" v="Oddan" />
		<tag k="place" v="farm" />
		<tag k="ssr:stedsnr" v="515817" />
	</node>
	<node lat="63.122913890246906" lon="8.322780557835925" id="-91714">
		<tag k="name" v="Holten" />
		<tag k="place" v="farm" />
		<tag k="ssr:stedsnr" v="532099" />
	</node>
	<node lat="63.027113891319" lon="8.265241666199652" id="-91715">
		<tag k="historic" v="shieling" />
		<tag k="name" v="Nedre Ringasetra" />
		<tag k="place" v="isolated_dwelling" />
		<tag k="ssr:stedsnr" v="532183" />
	</node>
	<node lat="63.10544721973336" lon="8.268630559641705" id="-91723">
		<tag k="name" v="Birkelund" />
		<tag k="place" v="farm" />
		<tag k="ssr:stedsnr" v="533003" />
	</node>
	<node lat="63.102053957948016" lon="8.269794543264402" id="-91724">
		<tag k="fixme" v="consider place=hamlet" />
		<tag k="name" v="Klevset" />
		<tag k="place" v="farm" />
		<tag k="ssr:stedsnr" v="533004" />
	</node>
	<node lat="63.17142222592577" lon="8.642174996809393" id="-91745">
		<tag k="name" v="Ruten" />
		<tag k="place" v="farm" />
		<tag k="ssr:stedsnr" v="533914" />
	</node>
	<node lat="63.12684722422032" lon="8.261933326978852" id="-91749">
		<tag k="name" v="Indre Stolsmoen" />
		<tag k="place" v="farm" />
		<tag k="ssr:stedsnr" v="534179" />
	</node>
	<node lat="63.171811111976744" lon="8.630030558328754" id="-91750">
		<tag k="name" v="Bergheim" />
		<tag k="place" v="farm" />
		<tag k="ssr:stedsnr" v="534576" />
	</node>
	<node lat="63.146505556964904" lon="8.259191656792247" id="-91755">
		<tag k="name" v="Moen" />
		<tag k="place" v="farm" />
		<tag k="ssr:stedsnr" v="558094" />
	</node>
	<node lat="63.39312499890067" lon="8.979502784960454" id="-91760">
		<tag k="name" v="Hellandslia" />
		<tag k="place" v="farm" />
		<tag k="ssr:stedsnr" v="558652" />
	</node>
	<node lat="63.375143289311545" lon="9.145459965097118" id="-91766">
		<tag k="fixme" v="consider place=hamlet" />
		<tag k="name" v="Oddbugen" />
		<tag k="place" v="farm" />
		<tag k="ssr:stedsnr" v="558751" />
	</node>
	<node lat="63.372722225646754" lon="9.174455556588146" id="-91767">
		<tag k="name" v="Oddlia" />
		<tag k="place" v="farm" />
		<tag k="ssr:stedsnr" v="558790" />
	</node>
	<node lat="63.1451431444426" lon="8.328070261527085" id="-91779">
		<tag k="alt_name" v="Taknes, ytre" />
		<tag k="name" v="Taknes" />
		<tag k="place" v="hamlet" />
		<tag k="ssr:stedsnr" v="571128" />
	</node>
	<node lat="63.08490402247891" lon="8.40205066275868" id="-91780">
		<tag k="fixme" v="consider place=hamlet" />
		<tag k="name" v="Rognskog" />
		<tag k="place" v="farm" />
		<tag k="ssr:stedsnr" v="571164" />
	</node>
	<node lat="63.26344999775694" lon="9.017677783253138" id="-91801">
		<tag k="name" v="Lenesøyan" />
		<tag k="place" v="farm" />
		<tag k="ssr:stedsnr" v="575444" />
	</node>
	<node lat="63.34926389161823" lon="9.00294999928098" id="-91838">
		<tag k="name" v="Myra" />
		<tag k="place" v="farm" />
		<tag k="ssr:stedsnr" v="575852" />
	</node>
	<node lat="63.35140493484612" lon="9.00635542846226" id="-91839">
		<tag k="fixme" v="consider place=hamlet" />
		<tag k="name" v="Lian" />
		<tag k="place" v="farm" />
		<tag k="ssr:stedsnr" v="575854" />
	</node>
	<node lat="63.132586109023144" lon="8.383266671348645" id="-91855">
		<tag k="name" v="Nygård" />
		<tag k="place" v="farm" />
		<tag k="ssr:stedsnr" v="582807" />
	</node>
	<node lat="63.20787511994964" lon="8.871948090434033" id="-91856">
		<tag k="fixme" v="consider tourism=alpine_hut or tourism=chalet" />
		<tag k="name" v="Sollia" />
		<tag k="ssr:stedsnr" v="583197" />
		<tag k="tourism" v="wilderness_hut" />
	</node>
	<node lat="63.14656388777544" lon="8.295405551920446" id="-91862">
		<tag k="name" v="Strand" />
		<tag k="place" v="neighbourhood" />
		<tag k="ssr:stedsnr" v="585319" />
	</node>
	<node lat="63.29854166859865" lon="9.056255554038655" id="-91876">
		<tag k="name" v="Solheim" />
		<tag k="place" v="farm" />
		<tag k="ssr:stedsnr" v="696963" />
	</node>
	<node lat="63.27243055534168" lon="8.944569449202895" id="-91886">
		<tag k="historic" v="shieling" />
		<tag k="name" v="Hammarbuvollen" />
		<tag k="place" v="isolated_dwelling" />
		<tag k="ssr:stedsnr" v="697130" />
	</node>
	<node lat="63.241402780464476" lon="9.183830550716065" id="-91896">
		<tag k="historic" v="shieling" />
		<tag k="name" v="Solåsen" />
		<tag k="place" v="isolated_dwelling" />
		<tag k="ssr:stedsnr" v="697236" />
	</node>
	<node lat="63.088666667869994" lon="8.287763888282283" id="-91900">
		<tag k="name" v="Skogly" />
		<tag k="place" v="farm" />
		<tag k="ssr:stedsnr" v="592010" />
	</node>
	<node lat="63.08794444637856" lon="8.282619445754477" id="-91901">
		<tag k="name" v="Åsbøøra" />
		<tag k="place" v="farm" />
		<tag k="ssr:stedsnr" v="592011" />
	</node>
	<node lat="63.22338611450651" lon="9.288472215179393" id="-91903">
		<tag k="fixme" v="consider place=hamlet" />
		<tag k="name" v="Flauget" />
		<tag k="place" v="farm" />
		<tag k="ssr:stedsnr" v="697257" />
	</node>
	<node lat="63.06856111008484" lon="8.236955554936198" id="-91927">
		<tag k="name" v="Torstad" />
		<tag k="place" v="farm" />
		<tag k="ssr:stedsnr" v="593617" />
	</node>
	<node lat="63.19284166297785" lon="8.8570527703334" id="-91933">
		<tag k="name" v="Grova" />
		<tag k="place" v="farm" />
		<tag k="ssr:stedsnr" v="697558" />
	</node>
	<node lat="63.10396666533736" lon="8.269786118482347" id="-91937">
		<tag k="name" v="Gammelgarden" />
		<tag k="place" v="farm" />
		<tag k="ssr:stedsnr" v="594006" />
	</node>
	<node lat="63.18069444202931" lon="8.744761120087155" id="-91942">
		<tag k="name" v="Hagen" />
		<tag k="place" v="farm" />
		<tag k="ssr:stedsnr" v="593957" />
	</node>
	<node lat="63.184063891156384" lon="9.011980560251484" id="-91958">
		<tag k="historic" v="shieling" />
		<tag k="name" v="Storlia" />
		<tag k="place" v="isolated_dwelling" />
		<tag k="ssr:stedsnr" v="697781" />
	</node>
	<node lat="63.094395854026686" lon="8.628206667461187" id="-91981">
		<tag k="alt_name" v="Botten" />
		<tag k="fixme" v="consider place=hamlet" />
		<tag k="name" v="Botn" />
		<tag k="place" v="farm" />
		<tag k="ssr:stedsnr" v="604030" />
	</node>
	<node lat="63.20559167005671" lon="8.984372218563601" id="-91983">
		<tag k="amenity" v="school" />
		<tag k="name" v="Vinjeøra skole" />
		<tag k="ssr:stedsnr" v="605568" />
	</node>
	<node lat="63.2183583302736" lon="9.093238884970878" id="-91985">
		<tag k="historic" v="shieling" />
		<tag k="name" v="Gammelsetra" />
		<tag k="place" v="isolated_dwelling" />
		<tag k="ssr:stedsnr" v="272458" />
	</node>
	<node lat="63.39060833071068" lon="8.978088879911077" id="-91997">
		<tag k="name" v="Svanem" />
		<tag k="place" v="farm" />
		<tag k="ssr:stedsnr" v="618613" />
	</node>
	<node lat="63.39340833118082" lon="9.002261109728025" id="-91998">
		<tag k="fixme" v="consider place=hamlet" />
		<tag k="name" v="Å" />
		<tag k="place" v="farm" />
		<tag k="ssr:stedsnr" v="618614" />
	</node>
	<node lat="63.0872595532087" lon="8.34891588932026" id="-92006">
		<tag k="fixme" v="consider place=hamlet" />
		<tag k="name" v="Betna" />
		<tag k="place" v="farm" />
		<tag k="ssr:stedsnr" v="618891" />
	</node>
	<node lat="63.30706111297212" lon="9.14826111193522" id="-92016">
		<tag k="name" v="Nygard" />
		<tag k="place" v="farm" />
		<tag k="ssr:stedsnr" v="619624" />
	</node>
	<node lat="63.411074999930726" lon="8.871238882320977" id="-92017">
		<tag k="alt_name" v="Tigarden" />
		<tag k="name" v="Tegarden" />
		<tag k="place" v="isolated_dwelling" />
		<tag k="ssr:stedsnr" v="619675" />
	</node>
	<node lat="63.40885000287239" lon="8.906388896109023" id="-92018">
		<tag k="name" v="Nervika" />
		<tag k="place" v="farm" />
		<tag k="ssr:stedsnr" v="619676" />
	</node>
	<node lat="63.073898351972424" lon="8.237208655827132" id="-92023">
		<tag k="fixme" v="consider place=hamlet" />
		<tag k="name" v="Halsa" />
		<tag k="place" v="farm" />
		<tag k="ssr:stedsnr" v="619915" />
	</node>
	<node lat="63.427827776143936" lon="8.983130545816744" id="-92025">
		<tag k="alt_name" v="Gussøya" />
		<tag k="name" v="Skaget" />
		<tag k="place" v="farm" />
		<tag k="ssr:stedsnr" v="620374" />
	</node>
	<node lat="63.42745000225147" lon="9.00596665892165" id="-92027">
		<tag k="name" v="Vollan" />
		<tag k="place" v="farm" />
		<tag k="ssr:stedsnr" v="620381" />
	</node>
	<node lat="63.20445555672697" lon="9.321616666454137" id="-92047">
		<tag k="name" v="Øyan" />
		<tag k="place" v="farm" />
		<tag k="ssr:stedsnr" v="635479" />
	</node>
	<node lat="63.402930553139065" lon="8.968288887978227" id="-92056">
		<tag k="name" v="Vika" />
		<tag k="place" v="farm" />
		<tag k="ssr:stedsnr" v="635711" />
	</node>
	<node lat="63.239216665461186" lon="9.071988896573794" id="-92071">
		<tag k="name" v="Stolsmo" />
		<tag k="place" v="hamlet" />
		<tag k="ssr:stedsnr" v="636516" />
	</node>
	<node lat="63.21691389126204" lon="8.966102770408446" id="-92072">
		<tag k="name" v="Grytvasshytta" />
		<tag k="place" v="isolated_dwelling" />
		<tag k="ssr:stedsnr" v="636580" />
	</node>
	<node lat="63.17951944772302" lon="8.943852770002362" id="-92077">
		<tag k="historic" v="shieling" />
		<tag k="name" v="Oppigards-setra" />
		<tag k="place" v="isolated_dwelling" />
		<tag k="ssr:stedsnr" v="636813" />
	</node>
	<node lat="63.33126111228093" lon="9.236194441507655" id="-92088">
		<tag k="name" v="Naustvollen" />
		<tag k="place" v="farm" />
		<tag k="ssr:stedsnr" v="640223" />
	</node>
	<node lat="63.144730823782176" lon="8.560988269612468" id="-92089">
		<tag k="name" v="Skogan" />
		<tag k="place" v="isolated_dwelling" />
		<tag k="ssr:stedsnr" v="643536" />
	</node>
	<node lat="63.11911111470849" lon="8.30508889486905" id="-92092">
		<tag k="name" v="Haugan" />
		<tag k="place" v="quarter" />
		<tag k="ssr:stedsnr" v="707376" />
	</node>
	<node lat="63.071133333184065" lon="8.251838883761165" id="-92100">
		<tag k="name" v="Åsletten" />
		<tag k="old_name" v="Aasletten" />
		<tag k="place" v="farm" />
		<tag k="ssr:stedsnr" v="653691" />
	</node>
	<node lat="63.10522777586529" lon="8.173622222941024" id="-92102">
		<tag k="name" v="Solvang" />
		<tag k="place" v="farm" />
		<tag k="ssr:stedsnr" v="653716" />
	</node>
	<node lat="63.076741666334634" lon="8.424747228675363" id="-92105">
		<tag k="historic" v="shieling" />
		<tag k="name" v="Tavergardsetra" />
		<tag k="place" v="isolated_dwelling" />
		<tag k="ssr:stedsnr" v="653837" />
	</node>
	<node lat="63.17145000441807" lon="8.623661111071108" id="-92119">
		<tag k="name" v="Skogly" />
		<tag k="place" v="farm" />
		<tag k="ssr:stedsnr" v="655583" />
	</node>
	<node lat="63.10658610943189" lon="8.164716668162399" id="-92124">
		<tag k="name" v="Haltbakken" />
		<tag k="place" v="farm" />
		<tag k="ssr:stedsnr" v="679320" />
	</node>
	<node lat="63.44936110805604" lon="9.027144454179126" id="-92133">
		<tag k="name" v="Stamnestrøa" />
		<tag k="place" v="farm" />
		<tag k="ssr:stedsnr" v="680419" />
	</node>
	<node lat="63.22238611014036" lon="9.23874165770503" id="-92136">
		<tag k="fixme" v="multiple name tags, choose one and add the other to alt_name" />
		<tag k="name" v="Vasslia;Haugen" />
		<tag k="place" v="farm" />
		<tag k="ssr:stedsnr" v="680623" />
	</node>
	<node lat="63.39956944439537" lon="9.016269441676535" id="-92147">
		<tag k="name" v="Åbukta" />
		<tag k="place" v="farm" />
		<tag k="ssr:stedsnr" v="680718" />
	</node>
	<node lat="63.14072222448599" lon="8.243347221931026" id="-92152">
		<tag k="name" v="Steinstien" />
		<tag k="place" v="farm" />
		<tag k="ssr:stedsnr" v="680972" />
	</node>
	<node lat="63.136527572835035" lon="8.451110286241219" id="-92153">
		<tag k="fixme" v="consider place=hamlet" />
		<tag k="name" v="Hennset" />
		<tag k="place" v="farm" />
		<tag k="ssr:stedsnr" v="680977" />
	</node>
	<node lat="63.404655559251275" lon="8.964369437738517" id="-92179">
		<tag k="name" v="Myrhaugen" />
		<tag k="place" v="farm" />
		<tag k="ssr:stedsnr" v="697724" />
	</node>
	<node lat="63.3679972254293" lon="9.165133342335022" id="-92186">
		<tag k="name" v="Bukkvika" />
		<tag k="place" v="farm" />
		<tag k="ssr:stedsnr" v="697815" />
	</node>
	<node lat="63.34884722177623" lon="9.256591667815266" id="-92195">
		<tag k="name" v="Forraneset" />
		<tag k="place" v="farm" />
		<tag k="ssr:stedsnr" v="701172" />
	</node>
	<node lat="63.124338884887344" lon="8.322222215743615" id="-92204">
		<tag k="name" v="Solbakken" />
		<tag k="place" v="farm" />
		<tag k="ssr:stedsnr" v="897121" />
	</node>
	<node lat="63.17530833361164" lon="8.753033334344574" id="-92226">
		<tag k="name" v="Almli" />
		<tag k="place" v="farm" />
		<tag k="ssr:stedsnr" v="897979" />
	</node>
	<node lat="63.10861090472135" lon="8.595678850885292" id="-92234">
		<tag k="name" v="Sandnes" />
		<tag k="place" v="hamlet" />
		<tag k="ssr:stedsnr" v="898531" />
	</node>
	<node lat="63.04682778053642" lon="8.233236113477906" id="-92241">
		<tag k="name" v="Sagsjøen" />
		<tag k="place" v="isolated_dwelling" />
		<tag k="ssr:stedsnr" v="898630" />
	</node>
	<node lat="63.078452782262865" lon="8.202927785807772" id="-92263">
		<tag k="name" v="Hamna" />
		<tag k="place" v="locality" />
		<tag k="ssr:stedsnr" v="715682" />
	</node>
	<node lat="63.17088333501283" lon="8.620811101707295" id="-92272">
		<tag k="name" v="Skogtun" />
		<tag k="place" v="farm" />
		<tag k="ssr:stedsnr" v="716597" />
	</node>
	<node lat="63.13357500416152" lon="9.045213882567356" id="-92275">
		<tag k="name" v="Mushaug" />
		<tag k="place" v="isolated_dwelling" />
		<tag k="ssr:stedsnr" v="718603" />
	</node>
	<node lat="63.31394731421091" lon="8.973070713141123" id="-92280">
		<tag k="alt_name" v="Røstlia øvre" />
		<tag k="name" v="Røstlia" />
		<tag k="place" v="farm" />
		<tag k="ssr:stedsnr" v="740507" />
	</node>
	<node lat="63.351311114745506" lon="9.117713883678359" id="-92282">
		<tag k="name" v="Myran" />
		<tag k="place" v="farm" />
		<tag k="ssr:stedsnr" v="740517" />
	</node>
	<node lat="63.40615833188851" lon="8.947319443814179" id="-92285">
		<tag k="name" v="Vågan" />
		<tag k="place" v="farm" />
		<tag k="ssr:stedsnr" v="740643" />
	</node>
	<node lat="63.068055558588085" lon="8.420566665397141" id="-92294">
		<tag k="name" v="Fjellåsen" />
		<tag k="place" v="farm" />
		<tag k="ssr:stedsnr" v="740914" />
	</node>
	<node lat="63.0799446770633" lon="8.264473949197653" id="-92296">
		<tag k="fixme" v="consider place=hamlet" />
		<tag k="name" v="Reitan" />
		<tag k="place" v="farm" />
		<tag k="ssr:stedsnr" v="740890" />
	</node>
	<node lat="63.147197221880546" lon="8.276674990224596" id="-92297">
		<tag k="name" v="Vesttun" />
		<tag k="place" v="farm" />
		<tag k="ssr:stedsnr" v="741095" />
	</node>
	<node lat="63.40559166431623" lon="8.987722220232218" id="-92306">
		<tag k="name" v="Kobbsteinbukta" />
		<tag k="place" v="farm" />
		<tag k="ssr:stedsnr" v="741738" />
	</node>
	<node lat="63.13127398210451" lon="8.527623573868642" id="-92310">
		<tag k="fixme" v="consider place=hamlet" />
		<tag k="name" v="Hestnes" />
		<tag k="place" v="farm" />
		<tag k="ssr:stedsnr" v="754222" />
	</node>
	<node lat="63.2359916645091" lon="9.071116656888623" id="-92325">
		<tag k="name" v="Lihaugen" />
		<tag k="place" v="farm" />
		<tag k="ssr:stedsnr" v="757505" />
	</node>
	<node lat="63.19361388905671" lon="8.851324998247419" id="-92328">
		<tag k="name" v="Hofset" />
		<tag k="place" v="farm" />
		<tag k="ssr:stedsnr" v="757560" />
	</node>
	<node lat="63.36355832976753" lon="8.916963884851569" id="-92334">
		<tag k="name" v="Øravollen" />
		<tag k="place" v="isolated_dwelling" />
		<tag k="ssr:stedsnr" v="757603" />
	</node>
	<node lat="63.41560277506302" lon="9.026036109730173" id="-92335">
		<tag k="alt_name" v="Belsvik nordre" />
		<tag k="name" v="Nordre Bellsvika" />
		<tag k="place" v="farm" />
		<tag k="ssr:stedsnr" v="757658" />
	</node>
	<node lat="63.08215278112918" lon="8.535897212972605" id="-92364">
		<tag k="historic" v="shieling" />
		<tag k="name" v="Nysetra" />
		<tag k="place" v="isolated_dwelling" />
		<tag k="ssr:stedsnr" v="775268" />
	</node>
	<node lat="63.076363884803676" lon="8.252961106816864" id="-92369">
		<tag k="name" v="Megard" />
		<tag k="place" v="farm" />
		<tag k="ssr:stedsnr" v="775665" />
	</node>
	<node lat="63.05862777868575" lon="8.330877774819598" id="-92374">
		<tag k="historic" v="shieling" />
		<tag k="name" v="Megardsetra" />
		<tag k="place" v="isolated_dwelling" />
		<tag k="ssr:stedsnr" v="776162" />
	</node>
	<node lat="63.4175333359775" lon="9.042536119401674" id="-92393">
		<tag k="name" v="Nordgjerdet" />
		<tag k="place" v="farm" />
		<tag k="ssr:stedsnr" v="801413" />
	</node>
	<node lat="63.364155557445024" lon="9.148319445671042" id="-92400">
		<tag k="alt_name" v="Fitjan" />
		<tag k="name" v="Oddfitjan" />
		<tag k="old_name" v="Oddfitjørnan" />
		<tag k="place" v="isolated_dwelling" />
		<tag k="ssr:stedsnr" v="801678" />
	</node>
	<node lat="63.09351110712491" lon="8.616361119064907" id="-92402">
		<tag k="alt_name" v="Botten" />
		<tag k="fixme" v="consider place=hamlet" />
		<tag k="loc_name" v="Botnen" />
		<tag k="name" v="Botn" />
		<tag k="place" v="farm" />
		<tag k="ssr:stedsnr" v="801868" />
	</node>
	<node lat="63.134619444258185" lon="8.410375001575828" id="-92405">
		<tag k="name" v="Nordvoll" />
		<tag k="place" v="farm" />
		<tag k="ssr:stedsnr" v="801968" />
	</node>
	<node lat="63.42600833701291" lon="8.816036104401578" id="-92411">
		<tag k="name" v="Nordheim" />
		<tag k="place" v="farm" />
		<tag k="ssr:stedsnr" v="802480" />
	</node>
	<node lat="63.42340120697941" lon="8.868517546027398" id="-92412">
		<tag k="alt_name" v="Bakken" />
		<tag k="fixme" v="consider place=hamlet" />
		<tag k="name" v="Bakkan" />
		<tag k="place" v="farm" />
		<tag k="ssr:stedsnr" v="802483" />
	</node>
	<node lat="63.29133611405012" lon="9.044563886683532" id="-92414">
		<tag k="fixme" v="multiple name tags, choose one and add the other to alt_name" />
		<tag k="name" v="Haugen;Lia" />
		<tag k="place" v="farm" />
		<tag k="ssr:stedsnr" v="802628" />
	</node>
	<node lat="63.24550833296565" lon="9.179077776826297" id="-92427">
		<tag k="name" v="Jordmorslættet" />
		<tag k="place" v="isolated_dwelling" />
		<tag k="ssr:stedsnr" v="818224" />
	</node>
	<node lat="63.331072218151405" lon="9.236286108179465" id="-92451">
		<tag k="name" v="Berdalssjøen" />
		<tag k="place" v="farm" />
		<tag k="ssr:stedsnr" v="822822" />
	</node>
	<node lat="63.07845833435321" lon="8.258605558439642" id="-92453">
		<tag k="name" v="Reitan" />
		<tag k="place" v="farm" />
		<tag k="ssr:stedsnr" v="922422" />
	</node>
	<node lat="63.23026944225271" lon="9.348077773683528" id="-92457">
		<tag k="name" v="Slupphaugen" />
		<tag k="place" v="farm" />
		<tag k="ssr:stedsnr" v="922545" />
	</node>
	<node lat="63.12843431532958" lon="8.261822178433766" id="-92469">
		<tag k="alt_name" v="Ytre Stolsmoen" />
		<tag k="fixme" v="consider place=hamlet" />
		<tag k="name" v="Stolsmo" />
		<tag k="place" v="farm" />
		<tag k="ssr:stedsnr" v="922946" />
	</node>
	<node lat="63.11943055284216" lon="8.28250277927647" id="-92471">
		<tag k="fixme" v="consider place=hamlet" />
		<tag k="name" v="Vågland" />
		<tag k="place" v="village" />
		<tag k="ssr:stedsnr" v="922967" />
	</node>
	<node lat="63.424730552235005" lon="8.781886105146299" id="-92479">
		<tag k="name" v="Taftøybukta" />
		<tag k="place" v="farm" />
		<tag k="ssr:stedsnr" v="923430" />
	</node>
	<node lat="63.36090000359113" lon="9.028480561323079" id="-92488">
		<tag k="name" v="Øverland" />
		<tag k="place" v="farm" />
		<tag k="ssr:stedsnr" v="923754" />
	</node>
	<node lat="63.080200000397525" lon="8.195319452925682" id="-92518">
		<tag k="name" v="Innergård" />
		<tag k="place" v="farm" />
		<tag k="ssr:stedsnr" v="837688" />
	</node>
	<node lat="63.31550555788155" lon="9.153577771604855" id="-92528">
		<tag k="alt_name" v="Aune" />
		<tag k="name" v="Aunet" />
		<tag k="place" v="farm" />
		<tag k="ssr:stedsnr" v="862506" />
	</node>
	<node lat="63.371350583562254" lon="8.949319886323572" id="-92536">
		<tag k="fixme" v="consider place=hamlet" />
		<tag k="name" v="Valåsen" />
		<tag k="place" v="farm" />
		<tag k="ssr:stedsnr" v="862719" />
	</node>
	<node lat="63.09216111530223" lon="8.535871341223686" id="-92545">
		<tag k="alt_name" v="Øydegard" />
		<tag k="historic" v="shieling" />
		<tag k="name" v="Øygarden" />
		<tag k="place" v="isolated_dwelling" />
		<tag k="ssr:stedsnr" v="862888" />
	</node>
	<node lat="63.13182778118685" lon="8.374297225429723" id="-92547">
		<tag k="name" v="Einen" />
		<tag k="place" v="farm" />
		<tag k="ssr:stedsnr" v="862967" />
	</node>
	<node lat="63.31439166658278" lon="9.222741666379072" id="-92549">
		<tag k="alt_name" v="Sperillsetrin" />
		<tag k="historic" v="shieling" />
		<tag k="name" v="Sperillsætra" />
		<tag k="place" v="isolated_dwelling" />
		<tag k="ssr:stedsnr" v="863177" />
	</node>
	<node lat="63.302022224212365" lon="9.222627778696905" id="-92551">
		<tag k="alt_name" v="Asplisetra" />
		<tag k="historic" v="shieling" />
		<tag k="name" v="Asplisætra" />
		<tag k="place" v="isolated_dwelling" />
		<tag k="ssr:stedsnr" v="863196" />
	</node>
	<node lat="63.292324999165146" lon="9.114288890866447" id="-92562">
		<tag k="name" v="Merkeneset" />
		<tag k="place" v="hamlet" />
		<tag k="ssr:stedsnr" v="879022" />
	</node>
	<node lat="63.191069440884995" lon="8.876730560431499" id="-92589">
		<tag k="name" v="Oppsal" />
		<tag k="place" v="farm" />
		<tag k="ssr:stedsnr" v="879552" />
	</node>
	<node lat="63.342119443940945" lon="9.115419451503548" id="-92592">
		<tag k="building" v="industrial" />
		<tag k="name" v="Lernessaga" />
		<tag k="ssr:stedsnr" v="879771" />
	</node>
	<node lat="63.233413892399824" lon="9.037116661341798" id="-92593">
		<tag k="name" v="Eidsvollan" />
		<tag k="place" v="farm" />
		<tag k="ssr:stedsnr" v="879500" />
	</node>
	<node lat="63.356327777125365" lon="8.978611118956245" id="-92597">
		<tag k="historic" v="shieling" />
		<tag k="name" v="Hellandsetra" />
		<tag k="place" v="isolated_dwelling" />
		<tag k="ssr:stedsnr" v="879854" />
	</node>
	<node lat="63.061541664823736" lon="8.235197215733862" id="-92644">
		<tag k="name" v="Rød" />
		<tag k="place" v="farm" />
		<tag k="ssr:stedsnr" v="910255" />
	</node>
	<node lat="63.42386667054346" lon="8.807961117514258" id="-92645">
		<tag k="name" v="Taftøy" />
		<tag k="place" v="farm" />
		<tag k="ssr:stedsnr" v="922395" />
	</node>
	<node lat="63.37328113724331" lon="9.011206765601754" id="-92649">
		<tag k="fixme" v="consider place=hamlet" />
		<tag k="name" v="Åstad" />
		<tag k="place" v="farm" />
		<tag k="ssr:stedsnr" v="922715" />
	</node>
	<node lat="63.08736748078494" lon="8.37441234065367" id="-92657">
		<tag k="fixme" v="consider place=hamlet" />
		<tag k="name" v="Blekkan" />
		<tag k="place" v="farm" />
		<tag k="ssr:stedsnr" v="922886" />
	</node>
	<node lat="63.26987777448217" lon="9.286563879515324" id="-92659">
		<tag k="historic" v="shieling" />
		<tag k="name" v="Hammarkleiva" />
		<tag k="place" v="isolated_dwelling" />
		<tag k="ssr:stedsnr" v="923007" />
	</node>
	<node lat="63.35897777518251" lon="9.305677777620273" id="-92661">
		<tag k="name" v="Myra" />
		<tag k="place" v="farm" />
		<tag k="ssr:stedsnr" v="923168" />
	</node>
	<node lat="63.30362222164718" lon="8.866927787010539" id="-92666">
		<tag k="name" v="Valhaugan" />
		<tag k="place" v="locality" />
		<tag k="ssr:stedsnr" v="923625" />
	</node>
	<node lat="63.30404444893184" lon="9.132944444639424" id="-92668">
		<tag k="name" v="Trøan" />
		<tag k="place" v="farm" />
		<tag k="ssr:stedsnr" v="923635" />
	</node>
	<node lat="63.259830555241145" lon="8.980752774458848" id="-92673">
		<tag k="alt_name" v="Momyr" />
		<tag k="name" v="Momyra" />
		<tag k="place" v="farm" />
		<tag k="ssr:stedsnr" v="923909" />
	</node>
	<node lat="63.259294444615364" lon="9.000213892603465" id="-92674">
		<tag k="name" v="Holten" />
		<tag k="place" v="farm" />
		<tag k="ssr:stedsnr" v="923910" />
	</node>
	<node lat="63.24463627721601" lon="9.04982390800427" id="-92679">
		<tag k="name" v="Sinnes" />
		<tag k="place" v="farm" />
		<tag k="ssr:stedsnr" v="923879" />
	</node>
	<node lat="63.32999444089463" lon="9.006136109361702" id="-92703">
		<tag k="name" v="Oppistu" />
		<tag k="place" v="farm" />
		<tag k="ssr:stedsnr" v="939840" />
	</node>
	<node lat="63.30398610760359" lon="9.184830561547313" id="-92704">
		<tag k="name" v="Saghaugen" />
		<tag k="place" v="farm" />
		<tag k="ssr:stedsnr" v="939885" />
	</node>
	<node lat="63.308524997024605" lon="9.132583329193533" id="-92709">
		<tag k="name" v="Øyan" />
		<tag k="place" v="farm" />
		<tag k="ssr:stedsnr" v="939992" />
	</node>
	<node lat="63.363769443879136" lon="9.381272222677206" id="-92711">
		<tag k="name" v="Heimtun" />
		<tag k="place" v="farm" />
		<tag k="ssr:stedsnr" v="944306" />
	</node>
	<node lat="63.173822226458" lon="8.752677787641908" id="-92755">
		<tag k="name" v="Linvollen" />
		<tag k="place" v="farm" />
		<tag k="ssr:stedsnr" v="958988" />
	</node>
	<node lat="63.13638611418909" lon="8.480380551660396" id="-92757">
		<tag k="name" v="Otnes hyttefelt" />
		<tag k="place" v="neighbourhood" />
		<tag k="ssr:stedsnr" v="967210" />
	</node>
	<node lat="63.42027977987848" lon="9.079992431945389" id="-92762">
		<tag k="fixme" v="consider place=hamlet" />
		<tag k="name" v="Heim" />
		<tag k="place" v="farm" />
		<tag k="ssr:stedsnr" v="971108" />
	</node>
	<node lat="63.13285135656179" lon="8.401741085051931" id="-92773">
		<tag k="fixme" v="consider place=hamlet" />
		<tag k="name" v="Henna" />
		<tag k="place" v="farm" />
		<tag k="ssr:stedsnr" v="977668" />
	</node>
	<node lat="63.13924483948966" lon="8.428844491098811" id="-92774">
		<tag k="fixme" v="consider place=hamlet" />
		<tag k="name" v="Kråknes" />
		<tag k="place" v="farm" />
		<tag k="ssr:stedsnr" v="977670" />
	</node>
	<node lat="63.120384587033854" lon="8.584425783671495" id="-92775">
		<tag k="fixme" v="consider place=hamlet" />
		<tag k="name" v="Hjellnes" />
		<tag k="place" v="farm" />
		<tag k="ssr:stedsnr" v="977671" />
	</node>
	<node lat="63.12813611219922" lon="8.330294453331646" id="-92782">
		<tag k="alt_name" v="Klettalia" />
		<tag k="name" v="Sollia" />
		<tag k="place" v="farm" />
		<tag k="ssr:stedsnr" v="12963" />
	</node>
	<node lat="63.08412782112576" lon="8.193317120517515" id="-92783">
		<tag k="alt_name" v="Åkvik" />
		<tag k="fixme" v="consider place=hamlet" />
		<tag k="name" v="Åkvika" />
		<tag k="old_name" v="Aakvik" />
		<tag k="place" v="farm" />
		<tag k="ssr:stedsnr" v="12336" />
	</node>
	<node lat="63.37757499845392" lon="8.994675006019904" id="-92805">
		<tag k="name" v="Litlhaugen" />
		<tag k="place" v="farm" />
		<tag k="ssr:stedsnr" v="12721" />
	</node>
	<node lat="63.058980553528464" lon="8.237816676294102" id="-92813">
		<tag k="name" v="Rød" />
		<tag k="place" v="farm" />
		<tag k="ssr:stedsnr" v="12931" />
	</node>
	<node lat="63.13778326830424" lon="8.495131432471839" id="-92815">
		<tag k="fixme" v="consider place=hamlet" />
		<tag k="name" v="Otnes" />
		<tag k="place" v="farm" />
		<tag k="ssr:stedsnr" v="12952" />
	</node>
	<node lat="63.13544084499037" lon="8.565310183391004" id="-92816">
		<tag k="fixme" v="consider place=hamlet" />
		<tag k="name" v="Høgset" />
		<tag k="place" v="farm" />
		<tag k="ssr:stedsnr" v="12955" />
	</node>
	<node lat="63.29105833350652" lon="9.076938881461516" id="-92830">
		<tag k="amenity" v="school" />
		<tag k="name" v="Sodin skule" />
		<tag k="ssr:stedsnr" v="29034" />
	</node>
	<node lat="63.28608055278346" lon="9.099369440494012" id="-92831">
		<tag k="name" v="Karlsneset" />
		<tag k="place" v="quarter" />
		<tag k="ssr:stedsnr" v="29039" />
	</node>
	<node lat="63.3917166682943" lon="8.979830548087012" id="-92846">
		<tag k="name" v="Liabakkan" />
		<tag k="place" v="farm" />
		<tag k="ssr:stedsnr" v="29733" />
	</node>
	<node lat="63.22337778103082" lon="9.243013886931253" id="-92849">
		<tag k="name" v="Rabben" />
		<tag k="place" v="farm" />
		<tag k="ssr:stedsnr" v="29274" />
	</node>
	<node lat="63.245820787388354" lon="9.051680898424786" id="-92860">
		<tag k="fixme" v="consider place=hamlet" />
		<tag k="name" v="Sinnes" />
		<tag k="place" v="farm" />
		<tag k="ssr:stedsnr" v="29543" />
	</node>
	<node lat="63.24461553423427" lon="9.04667866980499" id="-92861">
		<tag k="name" v="Sinnes" />
		<tag k="place" v="farm" />
		<tag k="ssr:stedsnr" v="29544" />
	</node>
	<node lat="63.317191669751004" lon="9.148702783744653" id="-92893">
		<tag k="building" v="industrial" />
		<tag k="name" v="Saga" />
		<tag k="ssr:stedsnr" v="29998" />
	</node>
	<node lat="63.35134722485633" lon="9.27666388229836" id="-92911">
		<tag k="alt_name" v="Ven skole;Ven barnehage" />
		<tag k="amenity" v="school" />
		<tag k="name" v="Ven  oppvekstsenter" />
		<tag k="ssr:stedsnr" v="42720" />
	</node>
	<node lat="63.06987777896522" lon="8.243416662192734" id="-92928">
		<tag k="name" v="Slettet" />
		<tag k="place" v="farm" />
		<tag k="ssr:stedsnr" v="47673" />
	</node>
	<node lat="63.10833333034717" lon="8.580141665374684" id="-92950">
		<tag k="historic" v="shieling" />
		<tag k="name" v="Kroksetra" />
		<tag k="place" v="isolated_dwelling" />
		<tag k="ssr:stedsnr" v="48485" />
	</node>
	<node lat="63.1696416641463" lon="8.600255561489274" id="-92969">
		<tag k="name" v="Sjøheim" />
		<tag k="place" v="farm" />
		<tag k="ssr:stedsnr" v="48735" />
	</node>
	<node lat="63.14197499761485" lon="8.788511115811835" id="-92971">
		<tag k="name" v="Myrbua" />
		<tag k="place" v="locality" />
		<tag k="ssr:stedsnr" v="48823" />
	</node>
	<node lat="63.175611115429355" lon="8.697883330332767" id="-92973">
		<tag k="historic" v="shieling" />
		<tag k="name" v="Saltrøsetra" />
		<tag k="place" v="isolated_dwelling" />
		<tag k="ssr:stedsnr" v="48829" />
	</node>
	<node lat="63.285872222043245" lon="9.087247218870107" id="-92977">
		<tag k="fixme" v="consider place=hamlet" />
		<tag k="name" v="Kjørse" />
		<tag k="place" v="farm" />
		<tag k="ssr:stedsnr" v="59864" />
	</node>
	<node lat="63.31354999691841" lon="9.083533342431016" id="-92984">
		<tag k="alt_name" v="Alstadplassen" />
		<tag k="name" v="Alstad" />
		<tag k="place" v="farm" />
		<tag k="ssr:stedsnr" v="73548" />
	</node>
	<node lat="63.12254721785432" lon="8.619961110161936" id="-92987">
		<tag k="name" v="Fjærlihalsen" />
		<tag k="place" v="farm" />
		<tag k="ssr:stedsnr" v="73983" />
	</node>
	<node lat="63.39233610882632" lon="8.981425000102348" id="-92996">
		<tag k="name" v="Sagøya" />
		<tag k="place" v="farm" />
		<tag k="ssr:stedsnr" v="73643" />
	</node>
	<node lat="63.38207053422463" lon="9.003445808863622" id="-92997">
		<tag k="name" v="Rønningen" />
		<tag k="place" v="farm" />
		<tag k="ssr:stedsnr" v="73651" />
	</node>
	<node lat="63.201801371858174" lon="8.984523559090276" id="-93010">
		<tag k="fixme" v="consider place=hamlet" />
		<tag k="name" v="Fjelnset" />
		<tag k="place" v="farm" />
		<tag k="ssr:stedsnr" v="73797" />
	</node>
	<node lat="63.20637323623271" lon="8.984732809564878" id="-93011">
		<tag k="name" v="Vinjeøra" />
		<tag k="place" v="village" />
		<tag k="ssr:stedsnr" v="73799" />
	</node>
	<node lat="63.352919443406684" lon="9.284230549043784" id="-93016">
		<tag k="name" v="Vollasanden" />
		<tag k="place" v="farm" />
		<tag k="ssr:stedsnr" v="74129" />
	</node>
	<node lat="63.09607839633759" lon="8.3430260750851" id="-93017">
		<tag k="fixme" v="consider place=hamlet" />
		<tag k="name" v="Gjengstøa" />
		<tag k="place" v="farm" />
		<tag k="ssr:stedsnr" v="73885" />
	</node>
	<node lat="63.086917558372775" lon="8.276317297604143" id="-93018">
		<tag k="fixme" v="consider place=hamlet" />
		<tag k="name" v="Åsbøen" />
		<tag k="place" v="farm" />
		<tag k="ssr:stedsnr" v="73890" />
	</node>
	<node lat="63.06071296195352" lon="8.424018819179823" id="-93021">
		<tag k="fixme" v="consider place=hamlet" />
		<tag k="name" v="Haugen" />
		<tag k="place" v="farm" />
		<tag k="ssr:stedsnr" v="73925" />
	</node>
	<node lat="63.44858333287691" lon="9.009038882961061" id="-93026">
		<tag k="name" v="Aunet" />
		<tag k="place" v="farm" />
		<tag k="ssr:stedsnr" v="74375" />
	</node>
	<node lat="63.37066308899243" lon="9.414638808294226" id="-93032">
		<tag k="alt_name" v="Sandvika" />
		<tag k="fixme" v="consider place=hamlet" />
		<tag k="name" v="Sandvik" />
		<tag k="place" v="farm" />
		<tag k="ssr:stedsnr" v="74791" />
	</node>
	<node lat="63.26022069165552" lon="9.016262812918013" id="-93033">
		<tag k="alt_name" v="Lenes" />
		<tag k="name" v="Nystua" />
		<tag k="place" v="farm" />
		<tag k="ssr:stedsnr" v="74895" />
	</node>
	<node lat="63.295933333996985" lon="9.07499167032395" id="-93053">
		<tag k="fixme" v="consider place=suburb, village or hamlet" />
		<tag k="name" v="Haugen" />
		<tag k="place" v="quarter" />
		<tag k="ssr:stedsnr" v="90059" />
	</node>
	<node lat="63.23760542960571" lon="9.066610468651561" id="-93073">
		<tag k="name" v="Lihaugen" />
		<tag k="place" v="farm" />
		<tag k="ssr:stedsnr" v="90493" />
	</node>
	<node lat="63.31327221884107" lon="9.153700006159434" id="-93098">
		<tag k="name" v="Holten" />
		<tag k="place" v="farm" />
		<tag k="ssr:stedsnr" v="90877" />
	</node>
	<node lat="63.189249999611896" lon="8.818022226450806" id="-93100">
		<tag k="name" v="Hovdtrøa" />
		<tag k="place" v="farm" />
		<tag k="ssr:stedsnr" v="90884" />
	</node>
	<node lat="63.25932500325549" lon="9.01422221995663" id="-93102">
		<tag k="name" v="Bakkan" />
		<tag k="place" v="farm" />
		<tag k="ssr:stedsnr" v="90628" />
	</node>
	<node lat="63.36961666554891" lon="9.168252776983492" id="-93112">
		<tag k="name" v="Sandvika" />
		<tag k="place" v="farm" />
		<tag k="ssr:stedsnr" v="90800" />
	</node>
	<node lat="63.30781111039096" lon="9.130536108420243" id="-93116">
		<tag k="name" v="Hagaøra" />
		<tag k="place" v="farm" />
		<tag k="ssr:stedsnr" v="90989" />
	</node>
	<node lat="63.337780556016064" lon="9.240811114418358" id="-93128">
		<tag k="name" v="Slåttavikhaugen" />
		<tag k="place" v="isolated_dwelling" />
		<tag k="ssr:stedsnr" v="93757" />
	</node>
	<node lat="63.11774167049444" lon="8.589083324393979" id="-93133">
		<tag k="name" v="Vikan" />
		<tag k="place" v="farm" />
		<tag k="ssr:stedsnr" v="98488" />
	</node>
	<node lat="63.14656388777544" lon="8.295405551920446" id="-93135">
		<tag k="loc_name" v="Henda" />
		<tag k="name" v="Henna" />
		<tag k="place" v="neighbourhood" />
		<tag k="ssr:stedsnr" v="100334" />
	</node>
	<node lat="63.13982500096947" lon="8.290361112581222" id="-93141">
		<tag k="historic" v="shieling" />
		<tag k="name" v="Nordigardsetra" />
		<tag k="place" v="isolated_dwelling" />
		<tag k="ssr:stedsnr" v="106949" />
	</node>
	<node lat="63.0721972210762" lon="8.266927770299585" id="-93171">
		<tag k="name" v="Myran" />
		<tag k="place" v="farm" />
		<tag k="ssr:stedsnr" v="109233" />
	</node>
	<node lat="63.04761944448848" lon="8.236591672194178" id="-93175">
		<tag k="name" v="Vikan" />
		<tag k="place" v="farm" />
		<tag k="ssr:stedsnr" v="109589" />
	</node>
	<node lat="63.35197777700686" lon="9.27427222646583" id="-93189">
		<tag k="name" v="Ven camping" />
		<tag k="ssr:stedsnr" v="119563" />
		<tag k="tourism" v="camp_site" />
	</node>
	<node lat="63.181274053668346" lon="8.69279623603065" id="-93194">
		<tag k="fixme" v="consider place=hamlet" />
		<tag k="name" v="Salttrøa" />
		<tag k="place" v="farm" />
		<tag k="ssr:stedsnr" v="133085" />
	</node>
	<node lat="63.13768661143772" lon="9.100983799416865" id="-93206">
		<tag k="fixme" v="consider place=hamlet" />
		<tag k="name" v="Kårøyan" />
		<tag k="place" v="farm" />
		<tag k="ssr:stedsnr" v="133697" />
	</node>
	<node lat="63.11120654945291" lon="8.25345179536436" id="-93219">
		<tag k="fixme" v="consider place=hamlet" />
		<tag k="name" v="Rabben" />
		<tag k="place" v="farm" />
		<tag k="ssr:stedsnr" v="133987" />
	</node>
	<node lat="63.328205551910564" lon="9.307769436071872" id="-93232">
		<tag k="alt_name" v="Myrsetra" />
		<tag k="historic" v="shieling" />
		<tag k="name" v="Myrsætra" />
		<tag k="place" v="isolated_dwelling" />
		<tag k="ssr:stedsnr" v="134186" />
	</node>
	<node lat="63.45026110849337" lon="8.99963611997144" id="-93236">
		<tag k="name" v="Stranda" />
		<tag k="place" v="farm" />
		<tag k="ssr:stedsnr" v="134434" />
	</node>
	<node lat="63.428536107523875" lon="8.819125002853497" id="-93238">
		<tag k="name" v="Sjøtun" />
		<tag k="place" v="farm" />
		<tag k="ssr:stedsnr" v="134463" />
	</node>
	<node lat="63.46400000445545" lon="9.020358325064729" id="-93240">
		<tag k="name" v="Kvervosen" />
		<tag k="place" v="farm" />
		<tag k="ssr:stedsnr" v="134542" />
	</node>
	<node lat="63.368952780483085" lon="9.404641664454546" id="-93244">
		<tag k="alt_name" v="Sandmoen" />
		<tag k="name" v="Sandmo" />
		<tag k="place" v="farm" />
		<tag k="ssr:stedsnr" v="134837" />
	</node>
	<node lat="63.27378834136768" lon="9.012722432148406" id="-93246">
		<tag k="fixme" v="consider place=hamlet" />
		<tag k="name" v="Bjørkan" />
		<tag k="place" v="farm" />
		<tag k="ssr:stedsnr" v="134932" />
	</node>
	<node lat="63.17176823533499" lon="8.658429467696868" id="-93249">
		<tag k="fixme" v="consider place=hamlet" />
		<tag k="name" v="Rodal" />
		<tag k="place" v="village" />
		<tag k="ssr:stedsnr" v="147189" />
	</node>
	<node lat="63.29393610680724" lon="9.077300004556868" id="-93259">
		<tag k="leisure" v="pitch" />
		<tag k="name" v="Idrettsplassen" />
		<tag k="ssr:stedsnr" v="150025" />
	</node>
	<node lat="63.24728160067809" lon="9.053474021067347" id="-93272">
		<tag k="name" v="Sinnes" />
		<tag k="place" v="farm" />
		<tag k="ssr:stedsnr" v="150180" />
	</node>
	<node lat="63.23457222536153" lon="9.035233328595769" id="-93274">
		<tag k="name" v="Eidsvoll" />
		<tag k="place" v="farm" />
		<tag k="ssr:stedsnr" v="150190" />
	</node>
	<node lat="63.21298889003567" lon="9.136780564994144" id="-93279">
		<tag k="historic" v="shieling" />
		<tag k="name" v="Litlslættet" />
		<tag k="place" v="isolated_dwelling" />
		<tag k="ssr:stedsnr" v="150292" />
	</node>
	<node lat="63.40646111410184" lon="8.935616663754221" id="-93297">
		<tag k="name" v="Halsen" />
		<tag k="place" v="farm" />
		<tag k="ssr:stedsnr" v="150584" />
	</node>
	<node lat="63.44556388846899" lon="9.040122214563867" id="-93299">
		<tag k="name" v="Litlvika" />
		<tag k="place" v="farm" />
		<tag k="ssr:stedsnr" v="150587" />
	</node>
	<node lat="63.44318055237948" lon="8.98963333303859" id="-93302">
		<tag k="alt_name" v="Årførstranda" />
		<tag k="name" v="Ålførstranda" />
		<tag k="place" v="farm" />
		<tag k="ssr:stedsnr" v="150596" />
	</node>
	<node lat="63.22460555369943" lon="9.018541671392962" id="-93311">
		<tag k="name" v="Øvre Stavås" />
		<tag k="place" v="farm" />
		<tag k="ssr:stedsnr" v="150671" />
	</node>
	<node lat="63.42173333657049" lon="8.788994443541423" id="-93315">
		<tag k="name" v="Oterøteret" />
		<tag k="place" v="isolated_dwelling" />
		<tag k="ssr:stedsnr" v="150689" />
	</node>
	<node lat="63.37125277539569" lon="9.16955277735535" id="-93325">
		<tag k="name" v="Vollan" />
		<tag k="place" v="farm" />
		<tag k="ssr:stedsnr" v="150788" />
	</node>
	<node lat="63.42511388857964" lon="8.849280551512877" id="-93344">
		<tag k="name" v="Langstranda" />
		<tag k="place" v="farm" />
		<tag k="ssr:stedsnr" v="150938" />
	</node>
	<node lat="63.29870555591526" lon="9.05018332375361" id="-93348">
		<tag k="name" v="Lund" />
		<tag k="place" v="farm" />
		<tag k="ssr:stedsnr" v="150951" />
	</node>
	<node lat="63.30711944525939" lon="9.131625006161263" id="-93351">
		<tag k="name" v="Hagan" />
		<tag k="place" v="farm" />
		<tag k="ssr:stedsnr" v="150989" />
	</node>
	<node lat="63.12746388910249" lon="8.605502768277058" id="-93365">
		<tag k="name" v="Teigen" />
		<tag k="place" v="isolated_dwelling" />
		<tag k="ssr:stedsnr" v="158523" />
	</node>
	<node lat="63.146775002184114" lon="8.26958332764591" id="-93377">
		<tag k="loc_name" v="Strandvågen" />
		<tag k="name" v="Strandavågen" />
		<tag k="place" v="neighbourhood" />
		<tag k="ssr:stedsnr" v="161354" />
	</node>
	<node lat="63.34828888839661" lon="9.275394442817555" id="-93380">
		<tag k="name" v="Øvereinan" />
		<tag k="place" v="farm" />
		<tag k="ssr:stedsnr" v="165986" />
	</node>
	<node lat="63.18352008283003" lon="8.701327892305406" id="-93424">
		<tag k="fixme" v="consider place=hamlet" />
		<tag k="name" v="Saltrønes" />
		<tag k="place" v="farm" />
		<tag k="ssr:stedsnr" v="169861" />
	</node>
	<node lat="63.09177778177414" lon="8.622405546102861" id="-93431">
		<tag k="name" v="Lian" />
		<tag k="place" v="farm" />
		<tag k="ssr:stedsnr" v="170498" />
	</node>
	<node lat="63.34615277942789" lon="9.112919443243719" id="-93445">
		<tag k="name" v="Rønningen" />
		<tag k="place" v="farm" />
		<tag k="ssr:stedsnr" v="194473" />
	</node>
	<node lat="63.34572777522622" lon="9.258127777545404" id="-93483">
		<tag k="alt_name" v="Forren" />
		<tag k="name" v="Forra" />
		<tag k="place" v="farm" />
		<tag k="ssr:stedsnr" v="195142" />
	</node>
	<node lat="63.36034166630864" lon="9.2929805546109" id="-93484">
		<tag k="name" v="Berget" />
		<tag k="place" v="farm" />
		<tag k="ssr:stedsnr" v="195149" />
	</node>
	<node lat="63.34834444515626" lon="9.255036108950607" id="-93486">
		<tag k="alt_name" v="Forren" />
		<tag k="fixme" v="consider place=hamlet" />
		<tag k="name" v="Forra" />
		<tag k="place" v="farm" />
		<tag k="ssr:stedsnr" v="195172" />
	</node>
	<node lat="63.4063948615906" lon="8.904943980426376" id="-93494">
		<tag k="name" v="Stølen" />
		<tag k="place" v="farm" />
		<tag k="ssr:stedsnr" v="195687" />
	</node>
	<node lat="63.21234721790347" lon="9.051524993558033" id="-93499">
		<tag k="name" v="Myrvang" />
		<tag k="place" v="farm" />
		<tag k="ssr:stedsnr" v="195775" />
	</node>
	<node lat="63.147705553174475" lon="8.569866668379463" id="-93503">
		<tag k="name" v="Stokkan" />
		<tag k="place" v="farm" />
		<tag k="ssr:stedsnr" v="195950" />
	</node>
	<node lat="63.22739444052087" lon="9.308141668450856" id="-93507">
		<tag k="name" v="Flauglia" />
		<tag k="place" v="farm" />
		<tag k="ssr:stedsnr" v="202176" />
	</node>
	<node lat="63.28382777621768" lon="9.089850006883854" id="-93519">
		<tag k="name" v="Hagan" />
		<tag k="place" v="farm" />
		<tag k="ssr:stedsnr" v="211039" />
	</node>
	<node lat="63.43135555333286" lon="8.995669440966008" id="-93551">
		<tag k="name" v="Snekkvikneset" />
		<tag k="place" v="farm" />
		<tag k="ssr:stedsnr" v="211604" />
	</node>
	<node lat="63.40225555216728" lon="8.983911103414595" id="-93554">
		<tag k="name" v="Grindbakken" />
		<tag k="place" v="farm" />
		<tag k="ssr:stedsnr" v="211654" />
	</node>
	<node lat="63.406799998237574" lon="8.990527770446706" id="-93555">
		<tag k="name" v="Kobbsteinbukta" />
		<tag k="place" v="farm" />
		<tag k="ssr:stedsnr" v="211661" />
	</node>
	<node lat="63.29935833140625" lon="9.031380559711064" id="-93572">
		<tag k="name" v="Aune" />
		<tag k="place" v="isolated_dwelling" />
		<tag k="ssr:stedsnr" v="211954" />
	</node>
	<node lat="63.31445555678456" lon="8.980741670752558" id="-93573">
		<tag k="name" v="Røstlia nedre" />
		<tag k="place" v="farm" />
		<tag k="ssr:stedsnr" v="211957" />
	</node>
	<node lat="63.31443055721774" lon="9.089369434847335" id="-93575">
		<tag k="fixme" v="consider place=hamlet" />
		<tag k="name" v="Alstad" />
		<tag k="place" v="farm" />
		<tag k="ssr:stedsnr" v="211967" />
	</node>
	<node lat="63.229447219082864" lon="9.033447212671529" id="-93577">
		<tag k="name" v="Sagtrøan" />
		<tag k="place" v="farm" />
		<tag k="ssr:stedsnr" v="212521" />
	</node>
	<node lat="63.42271674882105" lon="8.803683712983299" id="-93578">
		<tag k="fixme" v="consider place=hamlet" />
		<tag k="name" v="Taftøya" />
		<tag k="place" v="farm" />
		<tag k="ssr:stedsnr" v="212717" />
	</node>
	<node lat="63.20058611204748" lon="8.973011107450684" id="-93586">
		<tag k="name" v="Fjelnsetneset" />
		<tag k="place" v="farm" />
		<tag k="ssr:stedsnr" v="212870" />
	</node>
	<node lat="63.32017499589197" lon="9.276977778899806" id="-93601">
		<tag k="historic" v="shieling" />
		<tag k="name" v="Inner Berdalssetra" />
		<tag k="place" v="isolated_dwelling" />
		<tag k="ssr:stedsnr" v="215854" />
	</node>
	<node lat="63.3330222182626" lon="9.207686111020136" id="-93614">
		<tag k="name" v="Sperilla" />
		<tag k="place" v="farm" />
		<tag k="ssr:stedsnr" v="273933" />
	</node>
	<node lat="63.330961114976596" lon="9.23086112022353" id="-93622">
		<tag k="name" v="Fagervollen" />
		<tag k="place" v="farm" />
		<tag k="ssr:stedsnr" v="276842" />
	</node>
	<node lat="63.33185000406421" lon="9.229377781331358" id="-93623">
		<tag k="name" v="Litlaunet" />
		<tag k="place" v="locality" />
		<tag k="ssr:stedsnr" v="276844" />
	</node>
	<node lat="63.079058330274314" lon="8.408444441773844" id="-93635">
		<tag k="name" v="Øver Seter" />
		<tag k="place" v="hamlet" />
		<tag k="ssr:stedsnr" v="289855" />
	</node>
	<node lat="63.07007499779226" lon="8.227294443467962" id="-93651">
		<tag k="name" v="Nedregård" />
		<tag k="place" v="farm" />
		<tag k="ssr:stedsnr" v="290621" />
	</node>
	<node lat="63.174950003280976" lon="8.650663896950073" id="-93671">
		<tag k="historic" v="shieling" />
		<tag k="name" v="Naustberga" />
		<tag k="place" v="isolated_dwelling" />
		<tag k="ssr:stedsnr" v="291899" />
	</node>
	<node lat="63.175666668996534" lon="8.666194436653296" id="-93674">
		<tag k="name" v="Høyvang" />
		<tag k="place" v="farm" />
		<tag k="ssr:stedsnr" v="291865" />
	</node>
	<node lat="63.17151110984201" lon="8.626208332240873" id="-93676">
		<tag k="name" v="Sjøli" />
		<tag k="place" v="farm" />
		<tag k="ssr:stedsnr" v="292565" />
	</node>
	<node lat="63.06090277391078" lon="8.236894439660896" id="-93680">
		<tag k="fixme" v="consider place=hamlet" />
		<tag k="name" v="Rød" />
		<tag k="place" v="farm" />
		<tag k="ssr:stedsnr" v="315920" />
	</node>
	<node lat="63.41531110683114" lon="9.039072214088238" id="-93683">
		<tag k="name" v="Sørheim" />
		<tag k="place" v="farm" />
		<tag k="ssr:stedsnr" v="315400" />
	</node>
	<node lat="63.343063890255046" lon="9.125891668220682" id="-93686">
		<tag k="name" v="Leirvågen" />
		<tag k="place" v="farm" />
		<tag k="ssr:stedsnr" v="315537" />
	</node>
	<node lat="63.17419722602818" lon="8.752869446244647" id="-93691">
		<tag k="name" v="Vollhaugen" />
		<tag k="place" v="farm" />
		<tag k="ssr:stedsnr" v="315810" />
	</node>
	<node lat="63.19872222049223" lon="8.969327777733625" id="-93702">
		<tag k="name" v="Fjelnsetåsen" />
		<tag k="place" v="farm" />
		<tag k="ssr:stedsnr" v="316834" />
	</node>
	<node lat="63.349538892311024" lon="9.273430561599596" id="-93703">
		<tag k="name" v="Einan" />
		<tag k="place" v="farm" />
		<tag k="ssr:stedsnr" v="316163" />
	</node>
	<node lat="63.454399995963904" lon="9.024241676059463" id="-93708">
		<tag k="name" v="Vikan" />
		<tag k="place" v="farm" />
		<tag k="ssr:stedsnr" v="316438" />
	</node>
	<node lat="63.428930559357006" lon="9.083969448192006" id="-93711">
		<tag k="name" v="Nordheim" />
		<tag k="place" v="isolated_dwelling" />
		<tag k="ssr:stedsnr" v="316472" />
	</node>
	<node lat="63.424980552139516" lon="8.837963883271422" id="-93712">
		<tag k="name" v="Avlesbugen" />
		<tag k="place" v="farm" />
		<tag k="ssr:stedsnr" v="316474" />
	</node>
	<node lat="63.28094412321535" lon="9.033757990338964" id="-93714">
		<tag k="fixme" v="consider place=hamlet" />
		<tag k="name" v="Stranda" />
		<tag k="place" v="farm" />
		<tag k="ssr:stedsnr" v="316630" />
	</node>
	<node lat="63.36043733769683" lon="9.311268274240584" id="-93719">
		<tag k="fixme" v="consider place=hamlet" />
		<tag k="name" v="Selnes" />
		<tag k="place" v="farm" />
		<tag k="ssr:stedsnr" v="316872" />
	</node>
	<node lat="63.2723388880812" lon="8.890688898761278" id="-93721">
		<tag k="name" v="Nysætra" />
		<tag k="place" v="isolated_dwelling" />
		<tag k="ssr:stedsnr" v="316967" />
	</node>
	<node lat="63.195433333207056" lon="9.069741675159356" id="-93748">
		<tag k="historic" v="shieling" />
		<tag k="name" v="Slættet" />
		<tag k="place" v="isolated_dwelling" />
		<tag k="ssr:stedsnr" v="332283" />
	</node>
	<node lat="63.44865555484823" lon="9.025719446060066" id="-93769">
		<tag k="name" v="Skultrøa" />
		<tag k="place" v="farm" />
		<tag k="ssr:stedsnr" v="332620" />
	</node>
	<node lat="63.422069448342604" lon="8.983155564925413" id="-93773">
		<tag k="alt_name" v="Bjørknes" />
		<tag k="name" v="Bjørkneset" />
		<tag k="place" v="farm" />
		<tag k="ssr:stedsnr" v="332669" />
	</node>
	<node lat="63.40723335733195" lon="8.946212511102972" id="-93794">
		<tag k="fixme" v="consider place=hamlet" />
		<tag k="name" v="Vågan" />
		<tag k="place" v="farm" />
		<tag k="ssr:stedsnr" v="333592" />
	</node>
	<node lat="63.38917777792826" lon="8.982602780417695" id="-93803">
		<tag k="fixme" v="consider place=hamlet" />
		<tag k="name" v="Svanem" />
		<tag k="place" v="farm" />
		<tag k="ssr:stedsnr" v="333710" />
	</node>
	<node lat="63.36611666574957" lon="9.382769442399555" id="-93821">
		<tag k="name" v="Nordaunet" />
		<tag k="place" v="hamlet" />
		<tag k="ssr:stedsnr" v="337235" />
	</node>
	<node lat="63.34568055368823" lon="9.261144453934035" id="-93828">
		<tag k="fixme" v="multiple name tags, choose one and add the other to alt_name" />
		<tag k="name" v="Storaunet;Forragrinda" />
		<tag k="place" v="farm" />
		<tag k="ssr:stedsnr" v="337162" />
	</node>
	<node lat="63.34830832894091" lon="9.269422215487523" id="-93829">
		<tag k="name" v="Hyllberget" />
		<tag k="place" v="quarter" />
		<tag k="ssr:stedsnr" v="337175" />
	</node>
	<node lat="63.073086113069465" lon="8.283486109890163" id="-93836">
		<tag k="name" v="Knarrbukta" />
		<tag k="place" v="neighbourhood" />
		<tag k="ssr:stedsnr" v="342338" />
	</node>
	<node lat="63.16928333248066" lon="8.593880554219687" id="-93874">
		<tag k="name" v="Valen" />
		<tag k="place" v="farm" />
		<tag k="ssr:stedsnr" v="351744" />
	</node>
	<node lat="63.33529444688416" lon="9.308702773117567" id="-93892">
		<tag k="alt_name" v="Vollsetren" />
		<tag k="historic" v="shieling" />
		<tag k="name" v="Vollsætra" />
		<tag k="place" v="isolated_dwelling" />
		<tag k="ssr:stedsnr" v="376140" />
	</node>
	<node lat="63.4190277743173" lon="9.082363879365312" id="-93896">
		<tag k="name" v="Heim" />
		<tag k="place" v="farm" />
		<tag k="ssr:stedsnr" v="376440" />
	</node>
	<node lat="63.306255554272845" lon="9.158994449296165" id="-93900">
		<tag k="alt_name" v="Lauvåslia" />
		<tag k="name" v="Lia" />
		<tag k="place" v="farm" />
		<tag k="ssr:stedsnr" v="376626" />
	</node>
	<node lat="63.28886666980515" lon="9.06013888606919" id="-93903">
		<tag k="name" v="Bukta" />
		<tag k="place" v="farm" />
		<tag k="ssr:stedsnr" v="376589" />
	</node>
	<node lat="63.416163884771755" lon="9.088258334342038" id="-93906">
		<tag k="name" v="Heimstrøa" />
		<tag k="place" v="farm" />
		<tag k="ssr:stedsnr" v="376678" />
	</node>
	<node lat="63.40028610890089" lon="8.972913892698696" id="-93907">
		<tag k="name" v="Solhaugen" />
		<tag k="place" v="farm" />
		<tag k="ssr:stedsnr" v="376694" />
	</node>
	<node lat="63.35971111189311" lon="9.024702781687768" id="-93911">
		<tag k="name" v="Neshaugen" />
		<tag k="place" v="farm" />
		<tag k="ssr:stedsnr" v="376708" />
	</node>
	<node lat="63.144038887780255" lon="9.089497228615114" id="-93920">
		<tag k="name" v="Pallan" />
		<tag k="place" v="farm" />
		<tag k="ssr:stedsnr" v="376733" />
	</node>
	<node lat="63.38106486069714" lon="9.144404926492154" id="-93925">
		<tag k="fixme" v="consider place=hamlet" />
		<tag k="name" v="Bjørkøylia" />
		<tag k="old_name" v="Bjørøylia" />
		<tag k="place" v="farm" />
		<tag k="ssr:stedsnr" v="376758" />
	</node>
	<node lat="63.07679167081828" lon="8.319894441717079" id="-93939">
		<tag k="name" v="Sagan" />
		<tag k="place" v="farm" />
		<tag k="ssr:stedsnr" v="376927" />
	</node>
	<node lat="63.07182222108325" lon="8.250919435964322" id="-93941">
		<tag k="fixme" v="consider place=hamlet" />
		<tag k="name" v="Halsa" />
		<tag k="place" v="village" />
		<tag k="ssr:stedsnr" v="376940" />
	</node>
	<node lat="63.10352221880295" lon="8.267975004382807" id="-93949">
		<tag k="alt_name" v="Kløvset" />
		<tag k="fixme" v="consider place=hamlet" />
		<tag k="name" v="Klevset" />
		<tag k="place" v="village" />
		<tag k="ssr:stedsnr" v="377000" />
	</node>
	<node lat="63.42642500205059" lon="9.044294439931948" id="-93955">
		<tag k="name" v="Myrvang" />
		<tag k="place" v="farm" />
		<tag k="ssr:stedsnr" v="377401" />
	</node>
	<node lat="63.29110833650243" lon="9.060980547140304" id="-93986">
		<tag k="name" v="Hagan" />
		<tag k="place" v="farm" />
		<tag k="ssr:stedsnr" v="393072" />
	</node>
	<node lat="63.412716662276715" lon="8.891161102311855" id="-94023">
		<tag k="name" v="Husvikstranda" />
		<tag k="place" v="farm" />
		<tag k="ssr:stedsnr" v="393865" />
	</node>
	<node lat="63.23198055420102" lon="9.036408338202516" id="-94026">
		<tag k="name" v="Sørvollan" />
		<tag k="place" v="farm" />
		<tag k="ssr:stedsnr" v="393530" />
	</node>
	<node lat="63.41619444491156" lon="9.031274991205349" id="-94035">
		<tag k="name" v="Lia" />
		<tag k="place" v="farm" />
		<tag k="ssr:stedsnr" v="393675" />
	</node>
	<node lat="63.31044167023951" lon="9.186463886945983" id="-94038">
		<tag k="name" v="Stølan" />
		<tag k="place" v="farm" />
		<tag k="ssr:stedsnr" v="393884" />
	</node>
	<node lat="63.30808611399397" lon="9.07771389371196" id="-94040">
		<tag k="name" v="Grøtvang" />
		<tag k="place" v="farm" />
		<tag k="ssr:stedsnr" v="393980" />
	</node>
	<node lat="63.44519721833196" lon="9.035966659073193" id="-94044">
		<tag k="name" v="Vikhals" />
		<tag k="place" v="hamlet" />
		<tag k="ssr:stedsnr" v="393600" />
	</node>
	<node lat="63.42283055529224" lon="8.806891672927192" id="-94048">
		<tag k="name" v="Selihaugen" />
		<tag k="place" v="isolated_dwelling" />
		<tag k="ssr:stedsnr" v="393698" />
	</node>
	<node lat="63.30990833192278" lon="9.08266111431492" id="-94058">
		<tag k="name" v="Grøtvågen" />
		<tag k="place" v="hamlet" />
		<tag k="ssr:stedsnr" v="393966" />
	</node>
	<node lat="63.30324166929323" lon="9.082891662562288" id="-94059">
		<tag k="fixme" v="consider place=suburb, village or hamlet" />
		<tag k="name" v="Kristentrøa" />
		<tag k="place" v="quarter" />
		<tag k="ssr:stedsnr" v="393968" />
	</node>
	<node lat="63.18524444335721" lon="8.781836102754038" id="-94060">
		<tag k="name" v="Slættet" />
		<tag k="place" v="farm" />
		<tag k="ssr:stedsnr" v="393976" />
	</node>
	<node lat="63.40247222357176" lon="8.97379722699018" id="-94065">
		<tag k="name" v="Brandhaugen" />
		<tag k="place" v="farm" />
		<tag k="ssr:stedsnr" v="394401" />
	</node>
	<node lat="63.32943888843138" lon="9.24986667250136" id="-94071">
		<tag k="name" v="Eshaugen" />
		<tag k="place" v="isolated_dwelling" />
		<tag k="ssr:stedsnr" v="397817" />
	</node>
	<node lat="63.133063892916034" lon="8.594813893247226" id="-94094">
		<tag k="historic" v="shieling" />
		<tag k="name" v="Nedre Høgsetsetra" />
		<tag k="place" v="isolated_dwelling" />
		<tag k="ssr:stedsnr" v="411846" />
	</node>
	<node lat="63.174880552151464" lon="8.6547722224759" id="-94124">
		<tag k="historic" v="shieling" />
		<tag k="name" v="Nygård" />
		<tag k="place" v="isolated_dwelling" />
		<tag k="ssr:stedsnr" v="412871" />
	</node>
	<node lat="63.303074996812605" lon="9.176852784596012" id="-94139">
		<tag k="alt_name" v="Lauvåsen" />
		<tag k="name" v="Lauvåsgjerdet" />
		<tag k="place" v="farm" />
		<tag k="ssr:stedsnr" v="437622" />
	</node>
	<node lat="63.40208333353447" lon="9.00642499045612" id="-94151">
		<tag k="name" v="Reitan" />
		<tag k="place" v="isolated_dwelling" />
		<tag k="ssr:stedsnr" v="437678" />
	</node>
	<node lat="63.20654335471616" lon="9.163081951377201" id="-94156">
		<tag k="fixme" v="consider place=hamlet" />
		<tag k="loc_name" v="Bordstad" />
		<tag k="name" v="Borstad" />
		<tag k="old_name" v="Borstadsetra" />
		<tag k="place" v="farm" />
		<tag k="ssr:stedsnr" v="437787" />
	</node>
	<node lat="63.20570990724686" lon="9.055450637158067" id="-94157">
		<tag k="fixme" v="consider place=hamlet" />
		<tag k="name" v="Stølen" />
		<tag k="place" v="farm" />
		<tag k="ssr:stedsnr" v="437794" />
	</node>
	<node lat="63.083249998797974" lon="8.369638882494296" id="-94158">
		<tag k="name" v="Travollen" />
		<tag k="place" v="farm" />
		<tag k="ssr:stedsnr" v="437866" />
	</node>
	<node lat="63.142933331034456" lon="8.339397229293757" id="-94161">
		<tag k="name" v="Kroklia" />
		<tag k="place" v="farm" />
		<tag k="ssr:stedsnr" v="437944" />
	</node>
	<node lat="63.188809542963824" lon="8.862647089607107" id="-94175">
		<tag k="name" v="Staurset" />
		<tag k="place" v="farm" />
		<tag k="ssr:stedsnr" v="497780" />
	</node>
	<node lat="63.416013884643036" lon="8.931980549382954" id="-94177">
		<tag k="name" v="Vågaunet" />
		<tag k="place" v="farm" />
		<tag k="ssr:stedsnr" v="497406" />
	</node>
	<node lat="63.3114861076835" lon="8.96104443870614" id="-94189">
		<tag k="name" v="Sørgarden" />
		<tag k="place" v="isolated_dwelling" />
		<tag k="ssr:stedsnr" v="498584" />
	</node>
	<node lat="63.36128333086582" lon="8.923475007501333" id="-94191">
		<tag k="name" v="Baklia" />
		<tag k="place" v="farm" />
		<tag k="ssr:stedsnr" v="498762" />
	</node>
	<node lat="63.44288611441591" lon="9.020227785431613" id="-94198">
		<tag k="alt_name" v="Stamnes øvre" />
		<tag k="name" v="Stamnes" />
		<tag k="place" v="farm" />
		<tag k="ssr:stedsnr" v="498468" />
	</node>
	<node lat="63.30737500312207" lon="9.076138888784106" id="-94201">
		<tag k="name" v="Solberg" />
		<tag k="place" v="farm" />
		<tag k="ssr:stedsnr" v="498630" />
	</node>
	<node lat="63.308724156872664" lon="9.072906374381224" id="-94202">
		<tag k="fixme" v="consider place=hamlet" />
		<tag k="name" v="Grøtan" />
		<tag k="place" v="farm" />
		<tag k="ssr:stedsnr" v="498632" />
	</node>
	<node lat="63.308544440739425" lon="9.132549996860389" id="-94203">
		<tag k="alt_name" v="Prøvesteinen;Prøvesten" />
		<tag k="name" v="Prøvsteinen" />
		<tag k="place" v="farm" />
		<tag k="ssr:stedsnr" v="498634" />
	</node>
	<node lat="63.19457831229635" lon="8.883262308116706" id="-94208">
		<tag k="fixme" v="consider place=hamlet" />
		<tag k="name" v="Grønset" />
		<tag k="place" v="farm" />
		<tag k="ssr:stedsnr" v="498818" />
	</node>
	<node lat="63.22981944798396" lon="9.325141669179096" id="-94238">
		<tag k="fixme" v="consider place=hamlet" />
		<tag k="name" v="Sluppen" />
		<tag k="place" v="farm" />
		<tag k="ssr:stedsnr" v="514254" />
	</node>
	<node lat="63.14504999799649" lon="9.120997226298552" id="-94246">
		<tag k="name" v="Gammelhøyløslættet" />
		<tag k="place" v="isolated_dwelling" />
		<tag k="ssr:stedsnr" v="514433" />
	</node>
	<node lat="63.404552777129474" lon="8.971250000545076" id="-94269">
		<tag k="name" v="Kvernbukta" />
		<tag k="place" v="farm" />
		<tag k="ssr:stedsnr" v="514729" />
	</node>
	<node lat="63.36094444708181" lon="9.025986109761112" id="-94270">
		<tag k="name" v="Nes" />
		<tag k="place" v="hamlet" />
		<tag k="ssr:stedsnr" v="514745" />
	</node>
	<node lat="63.306394444796894" lon="9.145097224564546" id="-94271">
		<tag k="name" v="Sagdalen" />
		<tag k="place" v="farm" />
		<tag k="ssr:stedsnr" v="514982" />
	</node>
	<node lat="63.33918611395809" lon="9.00763333421446" id="-94282">
		<tag k="name" v="Knøkstrøa" />
		<tag k="place" v="isolated_dwelling" />
		<tag k="ssr:stedsnr" v="515839" />
	</node>
	<node lat="63.415772220978944" lon="9.024913890449715" id="-94289">
		<tag k="alt_name" v="Belsvik" />
		<tag k="name" v="Bellsvika" />
		<tag k="place" v="farm" />
		<tag k="ssr:stedsnr" v="515445" />
	</node>
	<node lat="63.24573889245025" lon="9.058647223105854" id="-94291">
		<tag k="name" v="Sinneshaugen" />
		<tag k="place" v="isolated_dwelling" />
		<tag k="ssr:stedsnr" v="515530" />
	</node>
	<node lat="63.19045555524446" lon="8.872647220935344" id="-94299">
		<tag k="name" v="Oppsal" />
		<tag k="place" v="farm" />
		<tag k="ssr:stedsnr" v="515584" />
	</node>
	<node lat="63.1927500011166" lon="8.935383337701213" id="-94304">
		<tag k="name" v="Oppigarden" />
		<tag k="place" v="farm" />
		<tag k="ssr:stedsnr" v="515891" />
	</node>
	<node lat="63.35818055563033" lon="9.303944444183415" id="-94323">
		<tag k="name" v="Larshaugen" />
		<tag k="place" v="farm" />
		<tag k="ssr:stedsnr" v="518983" />
	</node>
	<node lat="63.11665555719029" lon="8.356616660041025" id="-94335">
		<tag k="historic" v="shieling" />
		<tag k="name" v="Kalvhusvollen" />
		<tag k="place" v="isolated_dwelling" />
		<tag k="ssr:stedsnr" v="532058" />
	</node>
	<node lat="63.07960555348352" lon="8.192591673100615" id="-94338">
		<tag k="name" v="Skårneset" />
		<tag k="place" v="farm" />
		<tag k="ssr:stedsnr" v="532501" />
	</node>
	<node lat="63.11161666824198" lon="8.559322227167709" id="-94340">
		<tag k="historic" v="shieling" />
		<tag k="name" v="Hjellnessetra" />
		<tag k="place" v="isolated_dwelling" />
		<tag k="ssr:stedsnr" v="532615" />
	</node>
	<node lat="63.12495278078005" lon="8.65469444126883" id="-94349">
		<tag k="historic" v="shieling" />
		<tag k="name" v="Fjellbusetra" />
		<tag k="place" v="isolated_dwelling" />
		<tag k="ssr:stedsnr" v="533030" />
	</node>
	<node lat="63.06489444179647" lon="8.341622219342252" id="-94361">
		<tag k="historic" v="shieling" />
		<tag k="name" v="Brattbakken" />
		<tag k="place" v="isolated_dwelling" />
		<tag k="ssr:stedsnr" v="533224" />
	</node>
	<node lat="63.13426666453064" lon="8.498030558676472" id="-94398">
		<tag k="name" v="Otnes" />
		<tag k="place" v="farm" />
		<tag k="ssr:stedsnr" v="534796" />
	</node>
	<node lat="63.333155556482616" lon="9.305505556805985" id="-94408">
		<tag k="historic" v="shieling" />
		<tag k="name" v="Einansætra" />
		<tag k="place" v="isolated_dwelling" />
		<tag k="ssr:stedsnr" v="558177" />
	</node>
	<node lat="63.07437221796796" lon="8.21504444323144" id="-94410">
		<tag k="name" v="Bukta" />
		<tag k="place" v="farm" />
		<tag k="ssr:stedsnr" v="558190" />
	</node>
	<node lat="63.3115361100546" lon="9.073930564350201" id="-94424">
		<tag k="fixme" v="multiple name tags, choose one and add the other to alt_name" />
		<tag k="name" v="Skiftet;Bakkheim" />
		<tag k="place" v="farm" />
		<tag k="ssr:stedsnr" v="558556" />
	</node>
	<node lat="63.33130277700031" lon="8.891563882252125" id="-94434">
		<tag k="name" v="Heian" />
		<tag k="place" v="isolated_dwelling" />
		<tag k="ssr:stedsnr" v="558582" />
	</node>
	<node lat="63.35248746308028" lon="9.290216195505684" id="-94446">
		<tag k="fixme" v="consider place=hamlet" />
		<tag k="name" v="Vollen" />
		<tag k="place" v="farm" />
		<tag k="ssr:stedsnr" v="559117" />
	</node>
	<node lat="63.35884722120714" lon="9.29024722069899" id="-94448">
		<tag k="alt_name" v="Myran" />
		<tag k="name" v="Myrvoll" />
		<tag k="place" v="farm" />
		<tag k="ssr:stedsnr" v="559129" />
	</node>
	<node lat="63.1218972246048" lon="8.324650003421032" id="-94449">
		<tag k="name" v="Nygard" />
		<tag k="place" v="farm" />
		<tag k="ssr:stedsnr" v="558980" />
	</node>
	<node lat="63.260788893023225" lon="9.010336120596074" id="-94475">
		<tag k="name" v="Steinan" />
		<tag k="place" v="farm" />
		<tag k="ssr:stedsnr" v="575088" />
	</node>
	<node lat="63.24663055565315" lon="9.077705557670301" id="-94484">
		<tag k="historic" v="shieling" />
		<tag k="name" v="Gammelsetra" />
		<tag k="place" v="isolated_dwelling" />
		<tag k="ssr:stedsnr" v="575170" />
	</node>
	<node lat="63.40332777740059" lon="8.98098888509639" id="-94506">
		<tag k="alt_name" v="Hellandsjøen øvre" />
		<tag k="name" v="Øvre Hellandsjøen" />
		<tag k="place" v="farm" />
		<tag k="ssr:stedsnr" v="575634" />
	</node>
	<node lat="63.446163884520224" lon="9.002125006708242" id="-94518">
		<tag k="alt_name" v="Gjengstø" />
		<tag k="name" v="Gjengstøa" />
		<tag k="place" v="hamlet" />
		<tag k="ssr:stedsnr" v="575592" />
	</node>
	<node lat="63.42499166746243" lon="8.80696111484498" id="-94522">
		<tag k="name" v="Kråkhaugen" />
		<tag k="place" v="isolated_dwelling" />
		<tag k="ssr:stedsnr" v="575690" />
	</node>
	<node lat="63.198225002813004" lon="8.955277776481239" id="-94525">
		<tag k="name" v="Åsbakkan" />
		<tag k="place" v="farm" />
		<tag k="ssr:stedsnr" v="575866" />
	</node>
	<node lat="63.3649749978263" lon="9.027830565005825" id="-94536">
		<tag k="name" v="Hestneset" />
		<tag k="place" v="farm" />
		<tag k="ssr:stedsnr" v="575712" />
	</node>
	<node lat="63.358324995841954" lon="9.382052787236036" id="-94547">
		<tag k="name" v="Vollan" />
		<tag k="place" v="isolated_dwelling" />
		<tag k="ssr:stedsnr" v="579359" />
	</node>
	<node lat="63.07402221782138" lon="8.508494439856804" id="-94559">
		<tag k="historic" v="shieling" />
		<tag k="name" v="Hjelmsetra" />
		<tag k="place" v="isolated_dwelling" />
		<tag k="ssr:stedsnr" v="591938" />
	</node>
	<node lat="63.12835950048919" lon="8.178718751877255" id="-94599">
		<tag k="name" v="Kallbergsnausta" />
		<tag k="place" v="farm" />
		<tag k="ssr:stedsnr" v="594587" />
	</node>
	<node lat="63.3454000025422" lon="9.117316657924148" id="-94614">
		<tag k="name" v="Fitjan" />
		<tag k="old_name" v="Fitjørnan" />
		<tag k="place" v="farm" />
		<tag k="ssr:stedsnr" v="618521" />
	</node>
	<node lat="63.18943966328021" lon="8.82720778441472" id="-94615">
		<tag k="fixme" v="consider place=hamlet" />
		<tag k="name" v="Hovdan" />
		<tag k="place" v="farm" />
		<tag k="ssr:stedsnr" v="618751" />
	</node>
	<node lat="63.1295472190896" lon="8.344441661363502" id="-94620">
		<tag k="name" v="Myran" />
		<tag k="place" v="farm" />
		<tag k="ssr:stedsnr" v="618948" />
	</node>
	<node lat="63.16595833319491" lon="8.662280564194704" id="-94622">
		<tag k="name" v="Høgmyra" />
		<tag k="place" v="farm" />
		<tag k="ssr:stedsnr" v="619069" />
	</node>
	<node lat="63.31891111243121" lon="9.156105557685322" id="-94627">
		<tag k="name" v="Aunlia" />
		<tag k="place" v="isolated_dwelling" />
		<tag k="ssr:stedsnr" v="619559" />
	</node>
	<node lat="63.29723333298887" lon="9.064080559856087" id="-94629">
		<tag k="name" v="Øyan" />
		<tag k="place" v="farm" />
		<tag k="ssr:stedsnr" v="619635" />
	</node>
	<node lat="63.30332499690216" lon="9.182713895062896" id="-94632">
		<tag k="name" v="Myrvang" />
		<tag k="place" v="farm" />
		<tag k="ssr:stedsnr" v="619646" />
	</node>
	<node lat="63.369113892558" lon="9.164355557399187" id="-94634">
		<tag k="name" v="Skardet" />
		<tag k="place" v="farm" />
		<tag k="ssr:stedsnr" v="619736" />
	</node>
	<node lat="63.27501666905742" lon="9.054702784162295" id="-94641">
		<tag k="name" v="Roøyan" />
		<tag k="place" v="farm" />
		<tag k="ssr:stedsnr" v="619938" />
	</node>
	<node lat="63.26417941876635" lon="9.004593073099498" id="-94647">
		<tag k="fixme" v="consider place=hamlet" />
		<tag k="name" v="Mo" />
		<tag k="place" v="farm" />
		<tag k="ssr:stedsnr" v="620885" />
	</node>
	<node lat="63.25147499819631" lon="9.015619436698175" id="-94648">
		<tag k="name" v="Einan" />
		<tag k="place" v="farm" />
		<tag k="ssr:stedsnr" v="635138" />
	</node>
	<node lat="63.24574722598104" lon="9.05861389092414" id="-94652">
		<tag k="name" v="Sinneshaugen" />
		<tag k="place" v="farm" />
		<tag k="ssr:stedsnr" v="635167" />
	</node>
	<node lat="63.27002222259519" lon="9.00951944319115" id="-94668">
		<tag k="name" v="Bjørkslættet" />
		<tag k="place" v="farm" />
		<tag k="ssr:stedsnr" v="635087" />
	</node>
	<node lat="63.25913611251055" lon="9.006888885695483" id="-94669">
		<tag k="name" v="Lenes" />
		<tag k="place" v="hamlet" />
		<tag k="ssr:stedsnr" v="635090" />
	</node>
	<node lat="63.22322500360197" lon="9.238144438777198" id="-94681">
		<tag k="name" v="Vasslia" />
		<tag k="place" v="hamlet" />
		<tag k="ssr:stedsnr" v="635247" />
	</node>
	<node lat="63.22281666410614" lon="9.240338894548131" id="-94682">
		<tag k="name" v="Garden" />
		<tag k="place" v="farm" />
		<tag k="ssr:stedsnr" v="635249" />
	</node>
	<node lat="63.445524999703956" lon="8.994463890536032" id="-94687">
		<tag k="name" v="Vesterberg" />
		<tag k="place" v="farm" />
		<tag k="ssr:stedsnr" v="635588" />
	</node>
	<node lat="63.23906899410433" lon="9.064178085848054" id="-94712">
		<tag k="name" v="Lian" />
		<tag k="place" v="farm" />
		<tag k="ssr:stedsnr" v="636520" />
	</node>
	<node lat="63.18886388663708" lon="8.820580561719476" id="-94725">
		<tag k="name" v="Breilivoll" />
		<tag k="place" v="farm" />
		<tag k="ssr:stedsnr" v="636857" />
	</node>
	<node lat="63.33581389107242" lon="9.31003056381913" id="-94740">
		<tag k="name" v="Kleivan" />
		<tag k="place" v="farm" />
		<tag k="ssr:stedsnr" v="639754" />
	</node>
	<node lat="63.36543888803055" lon="9.38270556533176" id="-94745">
		<tag k="name" v="Trøhaugen" />
		<tag k="place" v="farm" />
		<tag k="ssr:stedsnr" v="640302" />
	</node>
	<node lat="63.07794721779359" lon="8.411444442483866" id="-94754">
		<tag k="name" v="Inner Seter" />
		<tag k="place" v="hamlet" />
		<tag k="ssr:stedsnr" v="653828" />
	</node>
	<node lat="63.07394722637964" lon="8.218936112899744" id="-94797">
		<tag k="name" v="Halsahagen" />
		<tag k="place" v="quarter" />
		<tag k="ssr:stedsnr" v="663253" />
	</node>
	<node lat="63.394477781704865" lon="8.983488883754381" id="-94798">
		<tag k="amenity" v="school" />
		<tag k="name" v="Svanem skole" />
		<tag k="ssr:stedsnr" v="666561" />
	</node>
	<node lat="63.06262499580295" lon="8.280833331947374" id="-94803">
		<tag k="historic" v="shieling" />
		<tag k="name" v="Røsetra" />
		<tag k="place" v="isolated_dwelling" />
		<tag k="ssr:stedsnr" v="714100" />
	</node>
	<node lat="63.07357777366424" lon="8.301547222646317" id="-94831">
		<tag k="name" v="Stavråa" />
		<tag k="place" v="farm" />
		<tag k="ssr:stedsnr" v="715201" />
	</node>
	<node lat="63.168283335616294" lon="8.591908329057844" id="-94849">
		<tag k="name" v="Rendalshamn" />
		<tag k="place" v="farm" />
		<tag k="ssr:stedsnr" v="715757" />
	</node>
	<node lat="63.17679166400404" lon="8.6553250041048" id="-94863">
		<tag k="name" v="Rodalshamn" />
		<tag k="place" v="farm" />
		<tag k="ssr:stedsnr" v="715894" />
	</node>
	<node lat="63.33794722557736" lon="9.220208335331373" id="-94871">
		<tag k="name" v="Vestre Berdal" />
		<tag k="place" v="neighbourhood" />
		<tag k="ssr:stedsnr" v="723102" />
	</node>
	<node lat="63.375699998316506" lon="9.168113885277748" id="-94879">
		<tag k="name" v="Nordlia" />
		<tag k="place" v="farm" />
		<tag k="ssr:stedsnr" v="740748" />
	</node>
	<node lat="63.32085555498195" lon="9.095675009883626" id="-94884">
		<tag k="name" v="Sørstua" />
		<tag k="place" v="farm" />
		<tag k="ssr:stedsnr" v="740486" />
	</node>
	<node lat="63.354236113607975" lon="9.285544434814108" id="-94897">
		<tag k="fixme" v="consider place=hamlet" />
		<tag k="name" v="Ytre Snillfjord" />
		<tag k="place" v="village" />
		<tag k="ssr:stedsnr" v="741164" />
	</node>
	<node lat="63.3561194467453" lon="9.289419442309667" id="-94898">
		<tag k="name" v="Vollen" />
		<tag k="place" v="farm" />
		<tag k="ssr:stedsnr" v="741168" />
	</node>
	<node lat="63.458724197741205" lon="9.04839712133024" id="-94903">
		<tag k="fixme" v="consider place=hamlet" />
		<tag k="name" v="Stamnesøya" />
		<tag k="place" v="farm" />
		<tag k="ssr:stedsnr" v="741449" />
	</node>
	<node lat="63.42985277826421" lon="9.044758330654638" id="-94905">
		<tag k="name" v="Furuly" />
		<tag k="place" v="farm" />
		<tag k="ssr:stedsnr" v="741479" />
	</node>
	<node lat="63.28875832918146" lon="9.105899992265341" id="-94910">
		<tag k="name" v="Sagneset" />
		<tag k="place" v="farm" />
		<tag k="ssr:stedsnr" v="741669" />
	</node>
	<node lat="63.119785759081" lon="8.354005076204928" id="-94912">
		<tag k="fixme" v="consider place=hamlet" />
		<tag k="name" v="Glåmen" />
		<tag k="place" v="farm" />
		<tag k="ssr:stedsnr" v="741987" />
	</node>
	<node lat="63.35110078336965" lon="9.006999364133335" id="-94914">
		<tag k="alt_name" v="Lihaugen" />
		<tag k="name" v="Lian" />
		<tag k="place" v="farm" />
		<tag k="ssr:stedsnr" v="741757" />
	</node>
	<node lat="63.36042949980157" lon="9.37366514708351" id="-94916">
		<tag k="fixme" v="consider place=hamlet" />
		<tag k="name" v="Åsen" />
		<tag k="place" v="farm" />
		<tag k="ssr:stedsnr" v="741860" />
	</node>
	<node lat="63.27761944421508" lon="9.022519452155974" id="-94920">
		<tag k="name" v="Bjørkåsen" />
		<tag k="place" v="farm" />
		<tag k="ssr:stedsnr" v="741953" />
	</node>
	<node lat="63.14748055893319" lon="8.634238887988312" id="-94921">
		<tag k="name" v="Leirviksetra" />
		<tag k="place" v="isolated_dwelling" />
		<tag k="ssr:stedsnr" v="741973" />
	</node>
	<node lat="63.28463888671589" lon="9.083027773932471" id="-94924">
		<tag k="name" v="Kirksæter" />
		<tag k="place" v="farm" />
		<tag k="ssr:stedsnr" v="757035" />
	</node>
	<node lat="63.26955555182623" lon="9.108049995711797" id="-94935">
		<tag k="name" v="Tollstøa" />
		<tag k="place" v="isolated_dwelling" />
		<tag k="ssr:stedsnr" v="757088" />
	</node>
	<node lat="63.27116111218736" lon="9.118408337624302" id="-94936">
		<tag k="name" v="Monsslættsanden" />
		<tag k="place" v="isolated_dwelling" />
		<tag k="ssr:stedsnr" v="757089" />
	</node>
	<node lat="63.23999362096981" lon="9.074756601194926" id="-94938">
		<tag k="fixme" v="consider place=hamlet" />
		<tag k="name" v="Stolsmo" />
		<tag k="place" v="farm" />
		<tag k="ssr:stedsnr" v="757165" />
	</node>
	<node lat="63.24370277473806" lon="9.057483325852509" id="-94941">
		<tag k="name" v="Sinnes" />
		<tag k="place" v="farm" />
		<tag k="ssr:stedsnr" v="757176" />
	</node>
	<node lat="63.19028333276511" lon="8.865533326955578" id="-94967">
		<tag k="name" v="Reitan" />
		<tag k="place" v="farm" />
		<tag k="ssr:stedsnr" v="757568" />
	</node>
	<node lat="63.39498055830381" lon="8.97985277348016" id="-94973">
		<tag k="alt_name" v="Sæterdal øvre" />
		<tag k="name" v="Øvre Sæterdal" />
		<tag k="place" v="farm" />
		<tag k="ssr:stedsnr" v="757638" />
	</node>
	<node lat="63.213284177185805" lon="9.060326079042994" id="-94981">
		<tag k="name" v="Sødalen" />
		<tag k="place" v="farm" />
		<tag k="ssr:stedsnr" v="757739" />
	</node>
	<node lat="63.445386110873116" lon="9.00196111361107" id="-94989">
		<tag k="name" v="Gjengstø vestre" />
		<tag k="place" v="farm" />
		<tag k="ssr:stedsnr" v="757591" />
	</node>
	<node lat="63.22354722564863" lon="9.020786101963912" id="-94991">
		<tag k="name" v="Nedre Stavås" />
		<tag k="place" v="farm" />
		<tag k="ssr:stedsnr" v="757668" />
	</node>
	<node lat="63.30306110923582" lon="9.16694167539157" id="-95010">
		<tag k="name" v="Per-Lauvåsen" />
		<tag k="place" v="farm" />
		<tag k="ssr:stedsnr" v="757874" />
	</node>
	<node lat="63.18721367050556" lon="8.78850651301091" id="-95021">
		<tag k="alt_name" v="Bjørkneset" />
		<tag k="name" v="Bjørknes" />
		<tag k="place" v="farm" />
		<tag k="ssr:stedsnr" v="757988" />
	</node>
	<node lat="63.31981110893757" lon="9.268491670020962" id="-95033">
		<tag k="historic" v="shieling" />
		<tag k="name" v="Ytter Berdalssetra" />
		<tag k="place" v="isolated_dwelling" />
		<tag k="ssr:stedsnr" v="761451" />
	</node>
	<node lat="63.087783334140354" lon="8.269872221525867" id="-95044">
		<tag k="name" v="Lyngmo" />
		<tag k="place" v="farm" />
		<tag k="ssr:stedsnr" v="775014" />
	</node>
	<node lat="63.11887778052606" lon="8.35516667536009" id="-95045">
		<tag k="name" v="Gjere" />
		<tag k="place" v="farm" />
		<tag k="ssr:stedsnr" v="775066" />
	</node>
	<node lat="63.03407500423986" lon="8.220619446194773" id="-95055">
		<tag k="name" v="Saksen" />
		<tag k="place" v="farm" />
		<tag k="ssr:stedsnr" v="775530" />
	</node>
	<node lat="63.131633337715286" lon="8.322622214338246" id="-95061">
		<tag k="historic" v="shieling" />
		<tag k="name" v="Taknessetra" />
		<tag k="place" v="isolated_dwelling" />
		<tag k="ssr:stedsnr" v="775914" />
	</node>
	<node lat="63.115686107459055" lon="8.310016666024444" id="-95062">
		<tag k="name" v="Saltrøa" />
		<tag k="place" v="farm" />
		<tag k="ssr:stedsnr" v="776080" />
	</node>
	<node lat="63.09108333362426" lon="8.608174998970583" id="-95087">
		<tag k="name" v="Smedhaugen" />
		<tag k="place" v="farm" />
		<tag k="ssr:stedsnr" v="777498" />
	</node>
	<node lat="63.079344442076234" lon="8.275550004843588" id="-95101">
		<tag k="name" v="Reitsjøen" />
		<tag k="place" v="farm" />
		<tag k="ssr:stedsnr" v="801895" />
	</node>
	<node lat="63.123974302143644" lon="8.559109672278527" id="-95104">
		<tag k="alt_name" v="Engjan" />
		<tag k="fixme" v="consider place=suburb, village or hamlet" />
		<tag k="name" v="Engan" />
		<tag k="place" v="quarter" />
		<tag k="ssr:stedsnr" v="801989" />
	</node>
	<node lat="63.105513890149545" lon="8.173147214089608" id="-95120">
		<tag k="name" v="Hønsvikgeilen" />
		<tag k="place" v="farm" />
		<tag k="ssr:stedsnr" v="802433" />
	</node>
	<node lat="63.28866110730034" lon="9.04866944484379" id="-95123">
		<tag k="name" v="Åsheim" />
		<tag k="place" v="farm" />
		<tag k="ssr:stedsnr" v="802630" />
	</node>
	<node lat="63.2847527794238" lon="9.045155557874043" id="-95125">
		<tag k="fixme" v="consider place=hamlet" />
		<tag k="name" v="Øygarden" />
		<tag k="place" v="farm" />
		<tag k="ssr:stedsnr" v="802643" />
	</node>
	<node lat="63.28638889047253" lon="9.051055552753484" id="-95126">
		<tag k="name" v="Rolia" />
		<tag k="place" v="farm" />
		<tag k="ssr:stedsnr" v="802644" />
	</node>
	<node lat="63.2880750019148" lon="9.081138895944475" id="-95146">
		<tag k="name" v="Holstgarden" />
		<tag k="place" v="farm" />
		<tag k="ssr:stedsnr" v="818033" />
	</node>
	<node lat="63.2408160951156" lon="9.08050334679708" id="-95156">
		<tag k="name" v="Stolsmolia" />
		<tag k="place" v="farm" />
		<tag k="ssr:stedsnr" v="818153" />
	</node>
	<node lat="63.23613611193228" lon="9.071502777415105" id="-95166">
		<tag k="name" v="Lihagen" />
		<tag k="place" v="farm" />
		<tag k="ssr:stedsnr" v="818163" />
	</node>
	<node lat="63.32390555840177" lon="9.105369448793725" id="-95174">
		<tag k="name" v="Berg" />
		<tag k="place" v="hamlet" />
		<tag k="ssr:stedsnr" v="818430" />
	</node>
	<node lat="63.39271111288527" lon="8.998141659317382" id="-95202">
		<tag k="name" v="Å" />
		<tag k="place" v="farm" />
		<tag k="ssr:stedsnr" v="818669" />
	</node>
	<node lat="63.39637499994184" lon="8.977525006123761" id="-95203">
		<tag k="name" v="Myrvang" />
		<tag k="place" v="farm" />
		<tag k="ssr:stedsnr" v="818675" />
	</node>
	<node lat="63.42292777504475" lon="9.087613886467238" id="-95205">
		<tag k="name" v="Kvilsteinen" />
		<tag k="place" v="isolated_dwelling" />
		<tag k="ssr:stedsnr" v="818683" />
	</node>
	<node lat="63.38165555466247" lon="9.005297224044277" id="-95208">
		<tag k="name" v="Røstvollen" />
		<tag k="place" v="farm" />
		<tag k="ssr:stedsnr" v="818710" />
	</node>
	<node lat="63.18997777796072" lon="8.826858334066673" id="-95221">
		<tag k="name" v="Hovdan" />
		<tag k="place" v="farm" />
		<tag k="ssr:stedsnr" v="818873" />
	</node>
	<node lat="63.31448611562265" lon="9.158661114945213" id="-95223">
		<tag k="name" v="Aune" />
		<tag k="place" v="farm" />
		<tag k="ssr:stedsnr" v="818993" />
	</node>
	<node lat="63.20764166859152" lon="8.987105559145638" id="-95228">
		<tag k="name" v="Gammeløra" />
		<tag k="place" v="farm" />
		<tag k="ssr:stedsnr" v="818892" />
	</node>
	<node lat="63.33800277480581" lon="9.243549992379569" id="-95246">
		<tag k="name" v="Vikan" />
		<tag k="place" v="farm" />
		<tag k="ssr:stedsnr" v="822840" />
	</node>
	<node lat="63.32330833313391" lon="9.246302780960068" id="-95247">
		<tag k="name" v="Ramberget" />
		<tag k="place" v="farm" />
		<tag k="ssr:stedsnr" v="822860" />
	</node>
	<node lat="63.30905277686253" lon="9.155138885306265" id="-95255">
		<tag k="name" v="Svarthaugen" />
		<tag k="place" v="farm" />
		<tag k="ssr:stedsnr" v="833254" />
	</node>
	<node lat="63.15199444859261" lon="8.560291667417676" id="-95270">
		<tag k="name" v="Sollia" />
		<tag k="place" v="farm" />
		<tag k="ssr:stedsnr" v="836496" />
	</node>
	<node lat="63.07386666906999" lon="8.258869451784976" id="-95294">
		<tag k="name" v="Stavråa" />
		<tag k="place" v="farm" />
		<tag k="ssr:stedsnr" v="837238" />
	</node>
	<node lat="63.09600833570489" lon="8.501594434742621" id="-95300">
		<tag k="historic" v="shieling" />
		<tag k="name" v="Gammelsetra" />
		<tag k="place" v="isolated_dwelling" />
		<tag k="ssr:stedsnr" v="837662" />
	</node>
	<node lat="63.336738884608046" lon="9.254391661733495" id="-95313">
		<tag k="alt_name" v="Forrasetra" />
		<tag k="historic" v="shieling" />
		<tag k="name" v="Forrasætra" />
		<tag k="place" v="isolated_dwelling" />
		<tag k="ssr:stedsnr" v="862167" />
	</node>
	<node lat="63.33396716103669" lon="9.305437992869164" id="-95314">
		<tag k="alt_name" v="Vennasetren" />
		<tag k="historic" v="shieling" />
		<tag k="name" v="Vennasætra" />
		<tag k="place" v="isolated_dwelling" />
		<tag k="ssr:stedsnr" v="862170" />
	</node>
	<node lat="63.41485000217134" lon="9.041952780925543" id="-95316">
		<tag k="name" v="Sørgjerdet" />
		<tag k="place" v="farm" />
		<tag k="ssr:stedsnr" v="862425" />
	</node>
	<node lat="63.290559171032655" lon="9.089029814366855" id="-95321">
		<tag k="loc_name" v="Kyrkseterøra" />
		<tag k="name" v="Kyrksæterøra" />
		<tag k="place" v="village" />
		<tag k="ssr:stedsnr" v="862565" />
	</node>
	<node lat="63.40254999936247" lon="8.9849249952074" id="-95324">
		<tag k="name" v="Nerland" />
		<tag k="place" v="farm" />
		<tag k="ssr:stedsnr" v="862668" />
	</node>
	<node lat="63.400288887614565" lon="8.981641665966164" id="-95325">
		<tag k="fixme" v="multiple name tags, choose one and add the other to alt_name" />
		<tag k="name" v="Solstad;Hellandsrønningen" />
		<tag k="place" v="farm" />
		<tag k="ssr:stedsnr" v="862671" />
	</node>
	<node lat="63.41448910980607" lon="8.875441205094564" id="-95336">
		<tag k="name" v="Almlia" />
		<tag k="place" v="farm" />
		<tag k="ssr:stedsnr" v="862643" />
	</node>
	<node lat="63.13346238490358" lon="8.404464370957422" id="-95349">
		<tag k="fixme" v="consider place=hamlet" />
		<tag k="name" v="Henna" />
		<tag k="place" v="village" />
		<tag k="ssr:stedsnr" v="862956" />
	</node>
	<node lat="63.11864722004978" lon="8.31483332899502" id="-95350">
		<tag k="name" v="Liabøtrøa" />
		<tag k="place" v="farm" />
		<tag k="ssr:stedsnr" v="862980" />
	</node>
	<node lat="63.35011597768867" lon="9.280676040559037" id="-95355">
		<tag k="alt_name" v="Venn" />
		<tag k="fixme" v="consider place=hamlet" />
		<tag k="name" v="Venna" />
		<tag k="place" v="farm" />
		<tag k="ssr:stedsnr" v="863148" />
	</node>
	<node lat="63.446816664962384" lon="9.02181387896685" id="-95359">
		<tag k="name" v="Fagervika" />
		<tag k="place" v="farm" />
		<tag k="ssr:stedsnr" v="863369" />
	</node>
	<node lat="63.450133336149584" lon="9.013311108114106" id="-95360">
		<tag k="name" v="Fagerheim" />
		<tag k="place" v="farm" />
		<tag k="ssr:stedsnr" v="863373" />
	</node>
	<node lat="63.44156944285008" lon="8.998236116667607" id="-95361">
		<tag k="name" v="Solvang" />
		<tag k="place" v="farm" />
		<tag k="ssr:stedsnr" v="863375" />
	</node>
	<node lat="63.2582361152064" lon="8.998163893438901" id="-95368">
		<tag k="alt_name" v="Lenesstølan" />
		<tag k="name" v="Stølan" />
		<tag k="place" v="farm" />
		<tag k="ssr:stedsnr" v="863886" />
	</node>
	<node lat="63.1898666690022" lon="8.85563610999779" id="-95382">
		<tag k="name" v="Skogan" />
		<tag k="place" v="farm" />
		<tag k="ssr:stedsnr" v="879543" />
	</node>
	<node lat="63.18876388976826" lon="8.860841667160424" id="-95383">
		<tag k="fixme" v="consider place=hamlet" />
		<tag k="name" v="Staurset" />
		<tag k="place" v="farm" />
		<tag k="ssr:stedsnr" v="879544" />
	</node>
	<node lat="63.296444443131904" lon="9.124755565107392" id="-95395">
		<tag k="name" v="Myra" />
		<tag k="place" v="farm" />
		<tag k="ssr:stedsnr" v="879058" />
	</node>
	<node lat="63.278561115577354" lon="9.026944445933331" id="-95398">
		<tag k="name" v="Strandgjerdet" />
		<tag k="place" v="farm" />
		<tag k="ssr:stedsnr" v="879072" />
	</node>
	<node lat="63.441086108752835" lon="8.996327785604924" id="-95433">
		<tag k="name" v="Skoglia" />
		<tag k="place" v="isolated_dwelling" />
		<tag k="ssr:stedsnr" v="879579" />
	</node>
	<node lat="63.3124583337286" lon="9.154741661090004" id="-95451">
		<tag k="name" v="Aunemo" />
		<tag k="place" v="farm" />
		<tag k="ssr:stedsnr" v="879882" />
	</node>
	<node lat="63.18513610671432" lon="8.856313882717844" id="-95463">
		<tag k="name" v="Bakkan" />
		<tag k="place" v="farm" />
		<tag k="ssr:stedsnr" v="879837" />
	</node>
	<node lat="63.299975003451245" lon="9.12881389281192" id="-95475">
		<tag k="name" v="Myrahagan" />
		<tag k="place" v="farm" />
		<tag k="ssr:stedsnr" v="879972" />
	</node>
	<node lat="63.28309166808551" lon="8.990972227360663" id="-95499">
		<tag k="historic" v="shieling" />
		<tag k="name" v="Bjørksetra" />
		<tag k="place" v="isolated_dwelling" />
		<tag k="ssr:stedsnr" v="939055" />
	</node>
	<node lat="63.30215833716178" lon="8.970069446397245" id="-95534">
		<tag k="historic" v="shieling" />
		<tag k="name" v="Haugasetra" />
		<tag k="place" v="isolated_dwelling" />
		<tag k="ssr:stedsnr" v="939951" />
	</node>
	<node lat="63.24046666689644" lon="9.073530562328957" id="-95545">
		<tag k="name" v="Stolsmo" />
		<tag k="place" v="farm" />
		<tag k="ssr:stedsnr" v="940488" />
	</node>
	<node lat="63.221583332229216" lon="9.020425001797534" id="-95571">
		<tag k="name" v="Slettheim" />
		<tag k="place" v="farm" />
		<tag k="ssr:stedsnr" v="940772" />
	</node>
	<node lat="63.18556667098049" lon="8.807700004589199" id="-95583">
		<tag k="historic" v="shieling" />
		<tag k="name" v="Hovdsetrin" />
		<tag k="place" v="isolated_dwelling" />
		<tag k="ssr:stedsnr" v="940912" />
	</node>
	<node lat="63.161683331149405" lon="8.950319448796373" id="-95595">
		<tag k="historic" v="shieling" />
		<tag k="name" v="Haukviksetra" />
		<tag k="place" v="isolated_dwelling" />
		<tag k="ssr:stedsnr" v="940979" />
	</node>
	<node lat="63.12553889325145" lon="8.165322231829224" id="-95653">
		<tag k="loc_name" v="Fjærvika hytteområde" />
		<tag k="name" v="Fjærvikan hytteområde" />
		<tag k="place" v="neighbourhood" />
		<tag k="ssr:stedsnr" v="967212" />
	</node>
	<node lat="63.127667602599786" lon="8.185139401407762" id="-95656">
		<tag k="fixme" v="consider place=hamlet" />
		<tag k="name" v="Kaldberget" />
		<tag k="place" v="farm" />
		<tag k="ssr:stedsnr" v="977651" />
	</node>
	<node lat="63.13868845561057" lon="8.227985215844303" id="-95657">
		<tag k="fixme" v="consider place=hamlet" />
		<tag k="name" v="Korsnes" />
		<tag k="place" v="farm" />
		<tag k="ssr:stedsnr" v="977652" />
	</node>
	<node lat="63.11982208293602" lon="8.277391665208176" id="-95658">
		<tag k="fixme" v="consider place=hamlet" />
		<tag k="name" v="Vågland" />
		<tag k="place" v="farm" />
		<tag k="ssr:stedsnr" v="977654" />
	</node>
	<node lat="63.18722994924857" lon="8.78992120231487" id="-95660">
		<tag k="name" v="Bjørknes" />
		<tag k="place" v="farm" />
		<tag k="ssr:stedsnr" v="991129" />
	</node>
	<node lat="63.42035268329656" lon="8.976678777615486" id="-95661">
		<tag k="alt_name" v="Bjørknes" />
		<tag k="name" v="Bjørkneset" />
		<tag k="place" v="farm" />
		<tag k="ssr:stedsnr" v="991130" />
	</node>
	<node lat="63.29040063425792" lon="9.076420345561582" id="-95823">
		<tag k="amenity" v="school" />
		<tag k="name" v="Kyrksæterøra videregående skole" />
		<tag k="old_name" v="Hemne videregående skole" />
		<tag k="ssr:stedsnr" v="1071968" />
	</node>
	<node lat="63.12001571707096" lon="8.32262972062555" id="-95832">
		<tag k="amenity" v="school" />
		<tag k="name" v="Halsa barne- og ungdomsskole" />
		<tag k="ssr:stedsnr" v="1076304" />
	</node>
	<node lat="63.123539433696685" lon="8.555657628789673" id="-95834">
		<tag k="name" v="Engsaga" />
		<tag k="place" v="farm" />
		<tag k="ssr:stedsnr" v="1078522" />
	</node>
</osm>
