<?xml version="1.0" encoding="UTF-8"?>
<osm version="0.6" generator="osmapis">
	<node id="181883715" lat="69.2707384" lon="19.9598646" version="5" timestamp="2022-07-07T12:04:40Z" changeset="123317359" uid="3497659" user="NKA">
		<tag k="name" v="Hatteng - Háhtta - Hattu" />
		<tag k="name:fi" v="Hattu" />
		<tag k="name:fkv" v="Hattu" />
		<tag k="name:no" v="Hatteng" />
		<tag k="name:se" v="Háhtta" />
		<tag k="place" v="village" />
		<tag k="ssr:stedsnr" v="504395" />
	</node>
	<node id="181883716" lat="69.3907984" lon="20.2678449" version="10" timestamp="2022-07-07T12:04:40Z" changeset="123317359" uid="3497659" user="NKA">
		<tag k="name" v="Skibotn - Ivgobahta - Yykeänperä" />
		<tag k="name:fi" v="Markkina" />
		<tag k="name:fkv" v="Yykeänperä" />
		<tag k="name:no" v="Skibotn" />
		<tag k="name:ru" v="Шиботн" />
		<tag k="name:se" v="Ivgobahta" />
		<tag k="place" v="village" />
		<tag k="population" v="538" />
		<tag k="population:date" v="2021-01-01" />
		<tag k="ref:ssb_tettsted" v="8251" />
		<tag k="source:population" v="SSB - befolkning i tettstedet" />
		<tag k="ssr:stedsnr" v="443485" />
	</node>
	<node id="321387313" lat="69.2554589" lon="19.8834164" version="6" timestamp="2022-07-07T12:04:40Z" changeset="123317359" uid="3497659" user="NKA">
		<tag k="name" v="Oteren - Čávkkus - Saukkonen" />
		<tag k="name:fi" v="Saukkonen" />
		<tag k="name:fkv" v="Saukkonen" />
		<tag k="name:no" v="Oteren" />
		<tag k="name:se" v="Čávkkus" />
		<tag k="place" v="village" />
		<tag k="ssr:stedsnr" v="382568" />
	</node>
	<node id="1720501163" lat="69.3392211" lon="20.0559031" version="4" timestamp="2022-07-07T12:04:40Z" changeset="123317359" uid="3497659" user="NKA">
		<tag k="loc_name:se" v="Juomvággi" />
		<tag k="name" v="Elsnes" />
		<tag k="name:no" v="Elsnes" />
		<tag k="place" v="hamlet" />
		<tag k="ssr:stedsnr" v="633909" />
	</node>
	<node id="1720501165" lat="69.3246434" lon="20.0181" version="5" timestamp="2022-07-07T12:04:40Z" changeset="123317359" uid="3497659" user="NKA">
		<tag k="name" v="Horsnes - Čohkkugieddi" />
		<tag k="name:no" v="Horsnes" />
		<tag k="name:se" v="Čohkkugieddi" />
		<tag k="place" v="hamlet" />
		<tag k="ssr:stedsnr" v="139431" />
	</node>
	<node id="1849645920" lat="69.3001962" lon="19.982536" version="4" timestamp="2022-07-07T12:04:40Z" changeset="123317359" uid="3497659" user="NKA">
		<tag k="alt_name:no" v="Berg, in;Inberg" />
		<tag k="name" v="Indre Berg - Guolbanvággi" />
		<tag k="name:no" v="Indre Berg" />
		<tag k="name:se" v="Guolbanvággi" />
		<tag k="name:smi" v="Guolbanvággi" />
		<tag k="place" v="hamlet" />
		<tag k="ssr:stedsnr" v="746376" />
	</node>
	<node id="1849645921" lat="69.3400004" lon="19.9628472" version="2" timestamp="2022-07-07T12:04:40Z" changeset="123317359" uid="3497659" user="NKA">
		<tag k="alt_name:no" v="Elvevollen" />
		<tag k="name" v="Elvevoll - Stállovággi - Staaluvankka" />
		<tag k="name:fkv" v="Staaluvankka" />
		<tag k="name:no" v="Elvevoll" />
		<tag k="name:se" v="Stállovággi" />
		<tag k="place" v="hamlet" />
		<tag k="ssr:stedsnr" v="87126" />
	</node>
	<node id="1849645922" lat="69.2845607" lon="19.9581761" version="4" timestamp="2022-07-07T12:04:40Z" changeset="123317359" uid="3497659" user="NKA">
		<tag k="name" v="Kvesmenes - Vieksegieddi - Vieksikenttä" />
		<tag k="name:fkv" v="Vieksikenttä" />
		<tag k="name:no" v="Kvesmenes" />
		<tag k="name:se" v="Vieksegieddi" />
		<tag k="name:smi" v="Vieksegieddi" />
		<tag k="place" v="hamlet" />
		<tag k="ssr:stedsnr" v="625396" />
	</node>
	<node id="1849645923" lat="69.2692647" lon="19.8970127" version="2" timestamp="2022-07-07T12:04:40Z" changeset="123317359" uid="3497659" user="NKA">
		<tag k="name" v="Melen - Mielli" />
		<tag k="name:no" v="Melen" />
		<tag k="name:se" v="Mielli" />
		<tag k="place" v="hamlet" />
		<tag k="ssr:stedsnr" v="382397" />
	</node>
	<node id="1849692883" lat="69.3841534" lon="20.2007416" version="3" timestamp="2022-07-07T12:04:40Z" changeset="123317359" uid="3497659" user="NKA">
		<tag k="name" v="Falsnes" />
		<tag k="place" v="farm" />
		<tag k="ssr:stedsnr" v="929476" />
	</node>
	<node id="2464398461" lat="69.2597877" lon="19.9192195" version="3" timestamp="2022-07-07T12:04:40Z" changeset="123317359" uid="3497659" user="NKA">
		<tag k="name" v="Kirkenes" />
		<tag k="name:fkv" v="Kirkkoniemi" />
		<tag k="name:no" v="Kirkenes" />
		<tag k="name:se" v="Girkonjárga" />
		<tag k="place" v="farm" />
		<tag k="ssr:stedsnr" v="660441" />
	</node>
	<node id="2464398602" lat="69.2594004" lon="19.915701" version="2" timestamp="2022-07-07T12:04:40Z" changeset="123317359" uid="3497659" user="NKA">
		<tag k="name" v="Solstad" />
		<tag k="place" v="farm" />
		<tag k="ssr:stedsnr" v="868558" />
	</node>
	<node id="2464398620" lat="69.2587771" lon="19.9184229" version="3" timestamp="2022-07-07T12:04:40Z" changeset="123317359" uid="3497659" user="NKA">
		<tag k="alt_name:no" v="Kjerkenes" />
		<tag k="name" v="Kjerkeneset - Girkonjárga" />
		<tag k="name:no" v="Kjerkeneset" />
		<tag k="name:se" v="Girkonjárga" />
		<tag k="place" v="hamlet" />
		<tag k="ssr:stedsnr" v="504583" />
	</node>
	<node id="2469415351" lat="69.3176028" lon="20.0103528" version="3" timestamp="2022-07-07T12:04:40Z" changeset="123317359" uid="3497659" user="NKA">
		<tag k="name" v="Slettås" />
		<tag k="name:no" v="Slettås" />
		<tag k="place" v="farm" />
		<tag k="ssr:stedsnr" v="79404" />
	</node>
	<node id="2469415370" lat="69.3212149" lon="20.0152053" version="4" timestamp="2022-07-07T12:04:40Z" changeset="123317359" uid="3497659" user="NKA">
		<tag k="name" v="Slettnes" />
		<tag k="name:no" v="Slettneset" />
		<tag k="name:se" v="Gossal" />
		<tag k="place" v="hamlet" />
		<tag k="ssr:stedsnr" v="18388" />
	</node>
	<node id="2469415379" lat="69.3130995" lon="19.9996166" version="4" timestamp="2022-07-07T12:04:40Z" changeset="123317359" uid="3497659" user="NKA">
		<tag k="name" v="Solstrand - Beaivegieddi" />
		<tag k="name:no" v="Solstrand" />
		<tag k="name:se" v="Beaivegieddi" />
		<tag k="place" v="farm" />
		<tag k="ssr:stedsnr" v="382432" />
	</node>
	<node id="2469415390" lat="69.3149822" lon="20.002839" version="4" timestamp="2022-07-07T12:04:40Z" changeset="123317359" uid="3497659" user="NKA">
		<tag k="alt_name:no" v="Berg, ytre" />
		<tag k="name" v="Ytre Berg - Sisgeahči" />
		<tag k="name:no" v="Ytre Berg" />
		<tag k="name:se" v="Sisgeahči" />
		<tag k="place" v="hamlet" />
		<tag k="ssr:stedsnr" v="443445" />
	</node>
	<node id="2472659577" lat="69.335775" lon="20.0457861" version="4" timestamp="2022-07-07T12:04:40Z" changeset="123317359" uid="3497659" user="NKA">
		<tag k="name" v="Bukta - Luokta" />
		<tag k="name:no" v="Bukta" />
		<tag k="name:se" v="Luokta" />
		<tag k="place" v="farm" />
		<tag k="ssr:stedsnr" v="564420" />
	</node>
	<node id="2472659644" lat="69.332925" lon="20.0398361" version="3" timestamp="2022-07-07T12:04:40Z" changeset="123317359" uid="3497659" user="NKA">
		<tag k="name" v="Salmenes" />
		<tag k="place" v="farm" />
		<tag k="ssr:stedsnr" v="868415" />
	</node>
	<node id="2475051356" lat="69.3611916" lon="20.104714" version="2" timestamp="2022-07-07T12:04:40Z" changeset="123317359" uid="3497659" user="NKA">
		<tag k="name" v="Strandvoll" />
		<tag k="name:no" v="Strandvoll" />
		<tag k="place" v="farm" />
		<tag k="ssr:stedsnr" v="139468" />
	</node>
	<node id="2475051544" lat="69.3601608" lon="20.1018566" version="3" timestamp="2022-07-07T12:04:40Z" changeset="123317359" uid="3497659" user="NKA">
		<tag k="alt_name:no" v="Bentsjord" />
		<tag k="name" v="Bentsjorda - Suollatvággi" />
		<tag k="name:no" v="Bentsjorda" />
		<tag k="name:se" v="Suollatvággi" />
		<tag k="place" v="hamlet" />
		<tag k="ssr:stedsnr" v="201420" />
	</node>
	<node id="2475051625" lat="69.3594611" lon="20.0994196" version="2" timestamp="2022-07-07T12:04:40Z" changeset="123317359" uid="3497659" user="NKA">
		<tag k="name" v="Bentsnes" />
		<tag k="name:no" v="Bentsnes" />
		<tag k="place" v="farm" />
		<tag k="ssr:stedsnr" v="237746" />
	</node>
	<node id="2478785287" lat="69.3756" lon="20.2303999" version="2" timestamp="2022-07-07T12:04:40Z" changeset="123317359" uid="3497659" user="NKA">
		<tag k="name" v="Skogtun" />
		<tag k="name:no" v="Skogtun" />
		<tag k="place" v="farm" />
		<tag k="ssr:stedsnr" v="261450" />
	</node>
	<node id="5329234837" lat="69.3369952" lon="20.3492826" version="2" timestamp="2022-07-07T12:04:40Z" changeset="123317359" uid="3497659" user="NKA">
		<tag k="name" v="Brennfjell Leir" />
		<tag k="place" v="hamlet" />
		<tag k="ssr:stedsnr" v="149682" />
	</node>
	<node id="9872242747" lat="69.2502" lon="20.0255528" version="1" timestamp="2022-07-07T12:04:40Z" changeset="123317359" uid="3497659" user="NKA">
		<tag k="name" v="Fagerli" />
		<tag k="place" v="farm" />
		<tag k="ssr:stedsnr" v="868552" />
	</node>
	<node id="9872242748" lat="69.2540778" lon="19.8819499" version="1" timestamp="2022-07-07T12:04:40Z" changeset="123317359" uid="3497659" user="NKA">
		<tag k="loc_name:se" v="Čávkosdievvá" />
		<tag k="name" v="Oterbakken" />
		<tag k="name:no" v="Oterbakken" />
		<tag k="place" v="farm" />
		<tag k="ssr:stedsnr" v="200586" />
	</node>
	<node id="9872242749" lat="69.3683611" lon="20.2543334" version="1" timestamp="2022-07-07T12:04:40Z" changeset="123317359" uid="3497659" user="NKA">
		<tag k="name" v="Myrslett" />
		<tag k="place" v="farm" />
		<tag k="ssr:stedsnr" v="746444" />
	</node>
	<node id="9872242750" lat="69.2361417" lon="20.0996528" version="1" timestamp="2022-07-07T12:04:40Z" changeset="123317359" uid="3497659" user="NKA">
		<tag k="name" v="Myrhaug" />
		<tag k="place" v="farm" />
		<tag k="ssr:stedsnr" v="868358" />
	</node>
	<node id="9872242751" lat="69.2408361" lon="20.0834806" version="1" timestamp="2022-07-07T12:04:40Z" changeset="123317359" uid="3497659" user="NKA">
		<tag k="name" v="Steinbakken" />
		<tag k="place" v="farm" />
		<tag k="ssr:stedsnr" v="868357" />
	</node>
	<node id="9872242752" lat="69.3782702" lon="20.2277671" version="1" timestamp="2022-07-07T12:04:40Z" changeset="123317359" uid="3497659" user="NKA">
		<tag k="name" v="Nállovuohppi - Nalluvuopio" />
		<tag k="name:fkv" v="Nalluvuopio" />
		<tag k="name:se" v="Nállovuohppi" />
		<tag k="place" v="locality" />
		<tag k="ssr:stedsnr" v="929477" />
	</node>
	<node id="9872242753" lat="69.257487" lon="19.8918457" version="1" timestamp="2022-07-07T12:04:40Z" changeset="123317359" uid="3497659" user="NKA">
		<tag k="name" v="Hauge" />
		<tag k="place" v="farm" />
		<tag k="ssr:stedsnr" v="721398" />
	</node>
	<node id="9872242754" lat="69.262025" lon="19.8841695" version="1" timestamp="2022-07-07T12:04:40Z" changeset="123317359" uid="3497659" user="NKA">
		<tag k="loc_name:se" v="Márttadievvá" />
		<tag k="name" v="Martabakken" />
		<tag k="name:no" v="Martabakken" />
		<tag k="place" v="farm" />
		<tag k="ssr:stedsnr" v="843421" />
	</node>
	<node id="9872242755" lat="69.3749055" lon="20.0440556" version="1" timestamp="2022-07-07T12:04:40Z" changeset="123317359" uid="3497659" user="NKA">
		<tag k="name" v="Elvestrand" />
		<tag k="place" v="farm" />
		<tag k="ssr:stedsnr" v="844719" />
	</node>
	<node id="9872242756" lat="69.24395" lon="19.84775" version="1" timestamp="2022-07-07T12:04:40Z" changeset="123317359" uid="3497659" user="NKA">
		<tag k="name" v="Daleng" />
		<tag k="place" v="farm" />
		<tag k="ssr:stedsnr" v="504358" />
	</node>
	<node id="9872242757" lat="69.3634555" lon="20.0141251" version="1" timestamp="2022-07-07T12:04:40Z" changeset="123317359" uid="3497659" user="NKA">
		<tag k="alt_name" v="Steinslund" />
		<tag k="name" v="Steinlund" />
		<tag k="place" v="farm" />
		<tag k="ssr:stedsnr" v="868448" />
	</node>
	<node id="9872242758" lat="69.2934424" lon="19.9146011" version="1" timestamp="2022-07-07T12:04:40Z" changeset="123317359" uid="3497659" user="NKA">
		<tag k="name" v="Kileng" />
		<tag k="place" v="farm" />
		<tag k="ssr:stedsnr" v="783608" />
	</node>
	<node id="9872242759" lat="69.2507833" lon="19.854975" version="1" timestamp="2022-07-07T12:04:40Z" changeset="123317359" uid="3497659" user="NKA">
		<tag k="name" v="Bakke" />
		<tag k="place" v="farm" />
		<tag k="ssr:stedsnr" v="564576" />
	</node>
	<node id="9872242760" lat="69.3758538" lon="20.2946362" version="1" timestamp="2022-07-07T12:04:40Z" changeset="123317359" uid="3497659" user="NKA">
		<tag k="name" v="Åsli" />
		<tag k="place" v="farm" />
		<tag k="ssr:stedsnr" v="904991" />
	</node>
	<node id="9872242761" lat="69.3976153" lon="20.1372816" version="1" timestamp="2022-07-07T12:04:40Z" changeset="123317359" uid="3497659" user="NKA">
		<tag k="name" v="Rastebynes" />
		<tag k="place" v="farm" />
		<tag k="ssr:stedsnr" v="935816" />
	</node>
	<node id="9872242762" lat="69.2491666" lon="20.0085389" version="1" timestamp="2022-07-07T12:04:40Z" changeset="123317359" uid="3497659" user="NKA">
		<tag k="loc_name:se" v="Beassefállas" />
		<tag k="name" v="Nevermo" />
		<tag k="name:no" v="Nevermo" />
		<tag k="place" v="farm" />
		<tag k="ssr:stedsnr" v="564378" />
	</node>
	<node id="9872242763" lat="69.2352444" lon="20.0981999" version="1" timestamp="2022-07-07T12:04:40Z" changeset="123317359" uid="3497659" user="NKA">
		<tag k="alt_name" v="Bjørkelund" />
		<tag k="name" v="Bjørklund" />
		<tag k="place" v="farm" />
		<tag k="ssr:stedsnr" v="564371" />
	</node>
	<node id="9872242764" lat="69.3932084" lon="20.2716334" version="1" timestamp="2022-07-07T12:04:40Z" changeset="123317359" uid="3497659" user="NKA">
		<tag k="name" v="Storsanden" />
		<tag k="place" v="neighbourhood" />
		<tag k="ssr:stedsnr" v="904100" />
	</node>
	<node id="9872242765" lat="69.24525" lon="20.0544001" version="1" timestamp="2022-07-07T12:04:40Z" changeset="123317359" uid="3497659" user="NKA">
		<tag k="name" v="Slettvoll" />
		<tag k="place" v="farm" />
		<tag k="ssr:stedsnr" v="625382" />
	</node>
	<node id="9872242766" lat="69.2655304" lon="19.9514928" version="1" timestamp="2022-07-07T12:04:40Z" changeset="123317359" uid="3497659" user="NKA">
		<tag k="name" v="Åsheim" />
		<tag k="place" v="farm" />
		<tag k="ssr:stedsnr" v="625573" />
	</node>
	<node id="9872242767" lat="69.4009083" lon="20.268439" version="1" timestamp="2022-07-07T12:04:40Z" changeset="123317359" uid="3497659" user="NKA">
		<tag k="name" v="Furuli" />
		<tag k="place" v="farm" />
		<tag k="ssr:stedsnr" v="322466" />
	</node>
	<node id="9872242768" lat="69.29705" lon="19.9198612" version="1" timestamp="2022-07-07T12:04:40Z" changeset="123317359" uid="3497659" user="NKA">
		<tag k="name" v="Bjørkåker" />
		<tag k="place" v="farm" />
		<tag k="ssr:stedsnr" v="746364" />
	</node>
	<node id="9872242769" lat="69.2544565" lon="19.8863758" version="1" timestamp="2022-07-07T12:04:40Z" changeset="123317359" uid="3497659" user="NKA">
		<tag k="name" v="Oterodden" />
		<tag k="place" v="farm" />
		<tag k="ssr:stedsnr" v="418384" />
	</node>
	<node id="9872242770" lat="69.3055482" lon="20.4016987" version="1" timestamp="2022-07-07T12:04:40Z" changeset="123317359" uid="3497659" user="NKA">
		<tag k="name" v="Lullenes" />
		<tag k="place" v="farm" />
		<tag k="ssr:stedsnr" v="746381" />
	</node>
	<node id="9872242771" lat="69.2744733" lon="19.9590051" version="1" timestamp="2022-07-07T12:04:40Z" changeset="123317359" uid="3497659" user="NKA">
		<tag k="name" v="Hatten" />
		<tag k="place" v="farm" />
		<tag k="ssr:stedsnr" v="355465" />
	</node>
	<node id="9872242772" lat="69.3963" lon="20.2775333" version="1" timestamp="2022-07-07T12:04:40Z" changeset="123317359" uid="3497659" user="NKA">
		<tag k="historic" v="shieling" />
		<tag k="name" v="Yttersætra" />
		<tag k="place" v="isolated_dwelling" />
		<tag k="ssr:stedsnr" v="479086" />
	</node>
	<node id="9872242773" lat="69.1550083" lon="20.0566249" version="1" timestamp="2022-07-07T12:04:40Z" changeset="123317359" uid="3497659" user="NKA">
		<tag k="name" v="Løvland" />
		<tag k="place" v="farm" />
		<tag k="ssr:stedsnr" v="443303" />
	</node>
	<node id="9872242774" lat="69.2444273" lon="20.0631634" version="1" timestamp="2022-07-07T12:04:40Z" changeset="123317359" uid="3497659" user="NKA">
		<tag k="name" v="Kitdalen" />
		<tag k="place" v="farm" />
		<tag k="ssr:stedsnr" v="686381" />
	</node>
	<node id="9872242775" lat="69.2424" lon="20.0398499" version="1" timestamp="2022-07-07T12:04:40Z" changeset="123317359" uid="3497659" user="NKA">
		<tag k="name" v="Mo" />
		<tag k="place" v="farm" />
		<tag k="ssr:stedsnr" v="200366" />
	</node>
	<node id="9872242776" lat="69.2396103" lon="20.0843439" version="1" timestamp="2022-07-07T12:04:40Z" changeset="123317359" uid="3497659" user="NKA">
		<tag k="loc_name:se" v="Vuovdesiida" />
		<tag k="name" v="Kitdalen" />
		<tag k="name:no" v="Kitdalen" />
		<tag k="place" v="farm" />
		<tag k="ssr:stedsnr" v="322362" />
	</node>
	<node id="9872242777" lat="69.1440445" lon="20.7641833" version="1" timestamp="2022-07-07T12:04:40Z" changeset="123317359" uid="3497659" user="NKA">
		<tag k="name" v="Gálggogobba" />
		<tag k="name:se" v="Gálggogobba" />
		<tag k="place" v="locality" />
		<tag k="ssr:stedsnr" v="383963" />
	</node>
	<node id="9872242778" lat="69.233075" lon="20.1087528" version="1" timestamp="2022-07-07T12:04:40Z" changeset="123317359" uid="3497659" user="NKA">
		<tag k="name" v="Tindstad" />
		<tag k="place" v="farm" />
		<tag k="ssr:stedsnr" v="176714" />
	</node>
	<node id="9872242779" lat="69.2377" lon="19.8381446" version="1" timestamp="2022-07-07T12:04:40Z" changeset="123317359" uid="3497659" user="NKA">
		<tag k="name" v="Krokan" />
		<tag k="place" v="farm" />
		<tag k="ssr:stedsnr" v="443376" />
	</node>
	<node id="9872242780" lat="69.2383334" lon="20.0600751" version="1" timestamp="2022-07-07T12:04:40Z" changeset="123317359" uid="3497659" user="NKA">
		<tag k="name" v="Olderlund" />
		<tag k="place" v="farm" />
		<tag k="ssr:stedsnr" v="929338" />
	</node>
	<node id="9872242781" lat="69.1848387" lon="19.9912415" version="1" timestamp="2022-07-07T12:04:40Z" changeset="123317359" uid="3497659" user="NKA">
		<tag k="name" v="Signaldalen - Čiekŋalvuovdi - Singalanouta" />
		<tag k="name:fkv" v="Singalanouta" />
		<tag k="name:no" v="Signaldalen" />
		<tag k="name:se" v="Čiekŋalvuovdi" />
		<tag k="place" v="hamlet" />
		<tag k="ssr:stedsnr" v="601353" />
	</node>
	<node id="9872242782" lat="69.2299278" lon="19.82415" version="1" timestamp="2022-07-07T12:04:40Z" changeset="123317359" uid="3497659" user="NKA">
		<tag k="name" v="Elvebakken" />
		<tag k="place" v="farm" />
		<tag k="ssr:stedsnr" v="686365" />
	</node>
	<node id="9872242783" lat="69.2357611" lon="19.8319222" version="1" timestamp="2022-07-07T12:04:40Z" changeset="123317359" uid="3497659" user="NKA">
		<tag k="name" v="Molund" />
		<tag k="place" v="farm" />
		<tag k="ssr:stedsnr" v="79346" />
	</node>
	<node id="9872242784" lat="69.2604472" lon="19.8788362" version="1" timestamp="2022-07-07T12:04:40Z" changeset="123317359" uid="3497659" user="NKA">
		<tag k="loc_name:se" v="Geassesadji" />
		<tag k="name" v="Sommarset" />
		<tag k="name:no" v="Sommarset" />
		<tag k="place" v="farm" />
		<tag k="ssr:stedsnr" v="115419" />
	</node>
	<node id="9872242785" lat="69.2509218" lon="19.8721249" version="1" timestamp="2022-07-07T12:04:40Z" changeset="123317359" uid="3497659" user="NKA">
		<tag k="name" v="Sáiserohtu" />
		<tag k="name:se" v="Sáiserohtu" />
		<tag k="place" v="farm" />
		<tag k="ssr:stedsnr" v="115404" />
	</node>
	<node id="9872242786" lat="69.3775695" lon="20.3023834" version="1" timestamp="2022-07-07T12:04:40Z" changeset="123317359" uid="3497659" user="NKA">
		<tag k="name" v="Bakken" />
		<tag k="place" v="farm" />
		<tag k="ssr:stedsnr" v="807424" />
	</node>
	<node id="9872242787" lat="69.1911889" lon="20.9831" version="1" timestamp="2022-07-07T12:04:40Z" changeset="123317359" uid="3497659" user="NKA">
		<tag k="name" v="Loassuhytta" />
		<tag k="place" v="isolated_dwelling" />
		<tag k="ssr:stedsnr" v="140968" />
	</node>
	<node id="9872242788" lat="69.2414222" lon="19.8421165" version="1" timestamp="2022-07-07T12:04:40Z" changeset="123317359" uid="3497659" user="NKA">
		<tag k="name" v="Solvoll" />
		<tag k="place" v="farm" />
		<tag k="ssr:stedsnr" v="139384" />
	</node>
	<node id="9872242789" lat="69.3087111" lon="19.9400833" version="1" timestamp="2022-07-07T12:04:40Z" changeset="123317359" uid="3497659" user="NKA">
		<tag k="name" v="Nyvoll" />
		<tag k="place" v="farm" />
		<tag k="ssr:stedsnr" v="685410" />
	</node>
	<node id="9872242790" lat="69.2313139" lon="19.9830973" version="1" timestamp="2022-07-07T12:04:40Z" changeset="123317359" uid="3497659" user="NKA">
		<tag k="name" v="Nyli" />
		<tag k="place" v="farm" />
		<tag k="ssr:stedsnr" v="139354" />
	</node>
	<node id="9872242791" lat="69.3118652" lon="19.9450061" version="1" timestamp="2022-07-07T12:04:40Z" changeset="123317359" uid="3497659" user="NKA">
		<tag k="alt_name:no" v="Oldernes" />
		<tag k="loc_name:se" v="Ruššugieddi" />
		<tag k="name" v="Oldereng - Russugieddi" />
		<tag k="name:no" v="Oldereng" />
		<tag k="name:se" v="Russugieddi" />
		<tag k="place" v="farm" />
		<tag k="ssr:stedsnr" v="685406" />
	</node>
	<node id="9872242792" lat="69.388575" lon="20.1089" version="1" timestamp="2022-07-07T12:04:40Z" changeset="123317359" uid="3497659" user="NKA">
		<tag k="name" v="Rasteby" />
		<tag k="place" v="farm" />
		<tag k="ssr:stedsnr" v="503069" />
	</node>
	<node id="9872242793" lat="69.2496836" lon="20.0322561" version="1" timestamp="2022-07-07T12:04:40Z" changeset="123317359" uid="3497659" user="NKA">
		<tag k="name" v="Moen" />
		<tag k="place" v="farm" />
		<tag k="ssr:stedsnr" v="929358" />
	</node>
	<node id="9872242794" lat="69.2718889" lon="19.950111" version="1" timestamp="2022-07-07T12:04:40Z" changeset="123317359" uid="3497659" user="NKA">
		<tag k="name" v="Hatten søndre" />
		<tag k="place" v="farm" />
		<tag k="ssr:stedsnr" v="52464" />
	</node>
	<node id="9872242795" lat="69.3927833" lon="20.1229556" version="1" timestamp="2022-07-07T12:04:40Z" changeset="123317359" uid="3497659" user="NKA">
		<tag k="loc_name:se" v="Sildegieddi" />
		<tag k="name" v="Bruvoll" />
		<tag k="name:no" v="Bruvoll" />
		<tag k="place" v="farm" />
		<tag k="ssr:stedsnr" v="783730" />
	</node>
	<node id="9872242796" lat="69.397175" lon="20.1332695" version="1" timestamp="2022-07-07T12:04:40Z" changeset="123317359" uid="3497659" user="NKA">
		<tag k="name" v="Blomli" />
		<tag k="place" v="farm" />
		<tag k="ssr:stedsnr" v="965743" />
	</node>
	<node id="9872242797" lat="69.1098417" lon="20.7959389" version="1" timestamp="2022-07-07T12:04:40Z" changeset="123317359" uid="3497659" user="NKA">
		<tag k="name" v="Gálggonjárga" />
		<tag k="name:se" v="Gálggonjárga" />
		<tag k="place" v="farm" />
		<tag k="ssr:stedsnr" v="565535" />
	</node>
	<node id="9872242798" lat="69.3715528" lon="20.2541832" version="1" timestamp="2022-07-07T12:04:40Z" changeset="123317359" uid="3497659" user="NKA">
		<tag k="name" v="Furustad" />
		<tag k="place" v="farm" />
		<tag k="ssr:stedsnr" v="868436" />
	</node>
	<node id="9872242799" lat="69.3912263" lon="20.1196622" version="1" timestamp="2022-07-07T12:04:40Z" changeset="123317359" uid="3497659" user="NKA">
		<tag k="name" v="Elvegård" />
		<tag k="place" v="farm" />
		<tag k="ssr:stedsnr" v="868475" />
	</node>
	<node id="9872242800" lat="69.3046778" lon="19.931339" version="1" timestamp="2022-07-07T12:04:40Z" changeset="123317359" uid="3497659" user="NKA">
		<tag k="name" v="Bukta - Luokta" />
		<tag k="name:no" v="Bukta" />
		<tag k="name:se" v="Luokta" />
		<tag k="place" v="farm" />
		<tag k="ssr:stedsnr" v="686380" />
	</node>
	<node id="9872242801" lat="69.3661055" lon="20.0215833" version="1" timestamp="2022-07-07T12:04:40Z" changeset="123317359" uid="3497659" user="NKA">
		<tag k="name" v="Steinvik" />
		<tag k="place" v="farm" />
		<tag k="ssr:stedsnr" v="844645" />
	</node>
	<node id="9872242802" lat="69.3973" lon="20.1368804" version="1" timestamp="2022-07-07T12:04:40Z" changeset="123317359" uid="3497659" user="NKA">
		<tag k="name" v="Nymoen" />
		<tag k="place" v="farm" />
		<tag k="ssr:stedsnr" v="321441" />
	</node>
	<node id="9872242803" lat="69.3625666" lon="20.0126666" version="1" timestamp="2022-07-07T12:04:40Z" changeset="123317359" uid="3497659" user="NKA">
		<tag k="name" v="Strand" />
		<tag k="place" v="farm" />
		<tag k="ssr:stedsnr" v="965635" />
	</node>
	<node id="9872242804" lat="69.4036805" lon="20.1465083" version="1" timestamp="2022-07-07T12:04:40Z" changeset="123317359" uid="3497659" user="NKA">
		<tag k="alt_name:no" v="Yttergård" />
		<tag k="loc_name:se" v="Davvesiida" />
		<tag k="name" v="Yttergården" />
		<tag k="name:no" v="Yttergården" />
		<tag k="place" v="farm" />
		<tag k="ssr:stedsnr" v="382473" />
	</node>
	<node id="9872242805" lat="69.2341046" lon="20.0995867" version="1" timestamp="2022-07-07T12:04:40Z" changeset="123317359" uid="3497659" user="NKA">
		<tag k="name" v="Søreng" />
		<tag k="place" v="hamlet" />
		<tag k="ssr:stedsnr" v="929324" />
	</node>
	<node id="9872242806" lat="69.3986" lon="20.1364805" version="1" timestamp="2022-07-07T12:04:40Z" changeset="123317359" uid="3497659" user="NKA">
		<tag k="name" v="Tuevoll" />
		<tag k="place" v="farm" />
		<tag k="ssr:stedsnr" v="382467" />
	</node>
	<node id="9872242807" lat="69.2940361" lon="19.9164501" version="1" timestamp="2022-07-07T12:04:40Z" changeset="123317359" uid="3497659" user="NKA">
		<tag k="name" v="Nordli" />
		<tag k="place" v="farm" />
		<tag k="ssr:stedsnr" v="322377" />
	</node>
	<node id="9872242808" lat="69.3173468" lon="19.9544917" version="1" timestamp="2022-07-07T12:04:40Z" changeset="123317359" uid="3497659" user="NKA">
		<tag k="name" v="Nordnes" />
		<tag k="place" v="farm" />
		<tag k="ssr:stedsnr" v="755025" />
	</node>
	<node id="9872242809" lat="69.2567145" lon="19.9946883" version="1" timestamp="2022-07-07T12:04:40Z" changeset="123317359" uid="3497659" user="NKA">
		<tag k="name" v="Kitdalen - Čoaigedanvuovdi - Soiketanouta" />
		<tag k="name:fkv" v="Soiketanouta" />
		<tag k="name:no" v="Kitdalen" />
		<tag k="name:se" v="Čoaigedanvuovdi" />
		<tag k="place" v="hamlet" />
		<tag k="ssr:stedsnr" v="905362" />
	</node>
	<node id="9872242810" lat="69.227075" lon="20.6718749" version="1" timestamp="2022-07-07T12:04:40Z" changeset="123317359" uid="3497659" user="NKA">
		<tag k="name" v="Steinbakken" />
		<tag k="place" v="locality" />
		<tag k="ssr:stedsnr" v="19982" />
	</node>
	<node id="9872242811" lat="69.3679722" lon="20.0230499" version="1" timestamp="2022-07-07T12:04:40Z" changeset="123317359" uid="3497659" user="NKA">
		<tag k="name" v="Teigen" />
		<tag k="place" v="farm" />
		<tag k="ssr:stedsnr" v="686459" />
	</node>
	<node id="9872242812" lat="69.3737283" lon="20.0454339" version="1" timestamp="2022-07-07T12:04:40Z" changeset="123317359" uid="3497659" user="NKA">
		<tag k="name" v="Steindalen - Gievdanvággi - Kivetänlahti" />
		<tag k="name:fkv" v="Kivetänlahti" />
		<tag k="name:no" v="Steindalen" />
		<tag k="name:se" v="Gievdanvággi" />
		<tag k="place" v="hamlet" />
		<tag k="ssr:stedsnr" v="116355" />
	</node>
	<node id="9872242813" lat="69.1170306" lon="20.105789" version="1" timestamp="2022-07-07T12:04:40Z" changeset="123317359" uid="3497659" user="NKA">
		<tag k="name" v="Paras" />
		<tag k="place" v="farm" />
		<tag k="ssr:stedsnr" v="686270" />
	</node>
	<node id="9872242814" lat="69.3674984" lon="20.0264303" version="1" timestamp="2022-07-07T12:04:40Z" changeset="123317359" uid="3497659" user="NKA">
		<tag k="loc_name:se" v="Gieddegeahči" />
		<tag k="name" v="Strandeng" />
		<tag k="name:no" v="Strandeng" />
		<tag k="place" v="farm" />
		<tag k="ssr:stedsnr" v="79427" />
	</node>
	<node id="9872242815" lat="69.321182" lon="19.9601378" version="1" timestamp="2022-07-07T12:04:40Z" changeset="123317359" uid="3497659" user="NKA">
		<tag k="name" v="Sandøra" />
		<tag k="place" v="hamlet" />
		<tag k="ssr:stedsnr" v="18384" />
	</node>
	<node id="9872242816" lat="69.3782606" lon="20.0627978" version="1" timestamp="2022-07-07T12:04:40Z" changeset="123317359" uid="3497659" user="NKA">
		<tag k="alt_name" v="Indre Selnes" />
		<tag k="name" v="Selnes" />
		<tag k="place" v="farm" />
		<tag k="ssr:stedsnr" v="79465" />
	</node>
	<node id="9872278417" lat="69.3396694" lon="19.9251471" version="1" timestamp="2022-07-07T12:04:40Z" changeset="123317359" uid="3497659" user="NKA">
		<tag k="name" v="Finnstua" />
		<tag k="place" v="isolated_dwelling" />
		<tag k="ssr:stedsnr" v="479521" />
	</node>
	<node id="9872278418" lat="69.4004944" lon="20.1386861" version="1" timestamp="2022-07-07T12:04:40Z" changeset="123317359" uid="3497659" user="NKA">
		<tag k="name" v="Bjørklund" />
		<tag k="place" v="farm" />
		<tag k="ssr:stedsnr" v="503444" />
	</node>
	<node id="9872278419" lat="69.3865863" lon="20.1026066" version="1" timestamp="2022-07-07T12:04:40Z" changeset="123317359" uid="3497659" user="NKA">
		<tag k="alt_name" v="Nybrot" />
		<tag k="name" v="Nybrott" />
		<tag k="place" v="farm" />
		<tag k="ssr:stedsnr" v="868481" />
	</node>
	<node id="9872278420" lat="69.3476527" lon="19.9735612" version="1" timestamp="2022-07-07T12:04:40Z" changeset="123317359" uid="3497659" user="NKA">
		<tag k="name" v="Storeng - Muorjenjárga" />
		<tag k="name:no" v="Storeng" />
		<tag k="name:se" v="Muorjenjárga" />
		<tag k="place" v="farm" />
		<tag k="ssr:stedsnr" v="201445" />
	</node>
	<node id="9872278421" lat="69.45103" lon="20.3087267" version="1" timestamp="2022-07-07T12:04:40Z" changeset="123317359" uid="3497659" user="NKA">
		<tag k="name" v="Røykenes" />
		<tag k="place" v="farm" />
		<tag k="ssr:stedsnr" v="1078050" />
	</node>
	<node id="9872278422" lat="69.3724389" lon="20.0424612" version="1" timestamp="2022-07-07T12:04:40Z" changeset="123317359" uid="3497659" user="NKA">
		<tag k="name" v="Nyheim" />
		<tag k="place" v="farm" />
		<tag k="ssr:stedsnr" v="844716" />
	</node>
	<node id="9872278423" lat="69.2908778" lon="20.4047332" version="1" timestamp="2022-07-07T12:04:40Z" changeset="123317359" uid="3497659" user="NKA">
		<tag k="loc_name:fkv" v="Mätämukka" />
		<tag k="name" v="Mätämutka" />
		<tag k="name:fkv" v="Mätämutka" />
		<tag k="place" v="farm" />
		<tag k="ssr:stedsnr" v="400136" />
	</node>
	<node id="9872278424" lat="69.3674111" lon="20.0206861" version="1" timestamp="2022-07-07T12:04:40Z" changeset="123317359" uid="3497659" user="NKA">
		<tag k="name" v="Haug" />
		<tag k="place" v="farm" />
		<tag k="ssr:stedsnr" v="237566" />
	</node>
	<node id="9872278425" lat="69.1236778" lon="20.1043362" version="1" timestamp="2022-07-07T12:04:40Z" changeset="123317359" uid="3497659" user="NKA">
		<tag k="alt_name" v="Olsborgsæter" />
		<tag k="historic" v="shieling" />
		<tag k="name" v="Olsborgsætra" />
		<tag k="place" v="isolated_dwelling" />
		<tag k="ssr:stedsnr" v="928250" />
	</node>
	<node id="9872278426" lat="69.2887472" lon="19.912975" version="1" timestamp="2022-07-07T12:04:40Z" changeset="123317359" uid="3497659" user="NKA">
		<tag k="name" v="Dállu" />
		<tag k="name:se" v="Dállu" />
		<tag k="place" v="farm" />
		<tag k="ssr:stedsnr" v="564404" />
	</node>
	<node id="9872278427" lat="69.1191" lon="20.1193112" version="1" timestamp="2022-07-07T12:04:40Z" changeset="123317359" uid="3497659" user="NKA">
		<tag k="name" v="Dalheim" />
		<tag k="place" v="farm" />
		<tag k="ssr:stedsnr" v="746279" />
	</node>
	<node id="9872278428" lat="69.1674588" lon="20.048676" version="1" timestamp="2022-07-07T12:04:40Z" changeset="123317359" uid="3497659" user="NKA">
		<tag k="name" v="Mannfjell" />
		<tag k="place" v="farm" />
		<tag k="ssr:stedsnr" v="261332" />
	</node>
	<node id="9872278429" lat="69.2411666" lon="20.0465527" version="1" timestamp="2022-07-07T12:04:40Z" changeset="123317359" uid="3497659" user="NKA">
		<tag k="name" v="Sørli" />
		<tag k="place" v="farm" />
		<tag k="ssr:stedsnr" v="686351" />
	</node>
	<node id="9872278430" lat="69.3800278" lon="20.0791721" version="1" timestamp="2022-07-07T12:04:40Z" changeset="123317359" uid="3497659" user="NKA">
		<tag k="name" v="Steinmoen" />
		<tag k="place" v="farm" />
		<tag k="ssr:stedsnr" v="200505" />
	</node>
	<node id="9872278431" lat="69.257975" lon="19.9838971" version="1" timestamp="2022-07-07T12:04:40Z" changeset="123317359" uid="3497659" user="NKA">
		<tag k="name" v="Ryeng" />
		<tag k="place" v="farm" />
		<tag k="ssr:stedsnr" v="504590" />
	</node>
	<node id="9872278432" lat="69.3730833" lon="20.0453555" version="1" timestamp="2022-07-07T12:04:40Z" changeset="123317359" uid="3497659" user="NKA">
		<tag k="name" v="Elvenes" />
		<tag k="place" v="farm" />
		<tag k="ssr:stedsnr" v="139465" />
	</node>
	<node id="9872278433" lat="69.3031515" lon="20.413451" version="1" timestamp="2022-07-07T12:04:40Z" changeset="123317359" uid="3497659" user="NKA">
		<tag k="alt_name" v="Lullestova" />
		<tag k="name" v="Lullestua" />
		<tag k="place" v="isolated_dwelling" />
		<tag k="ssr:stedsnr" v="443406" />
	</node>
	<node id="9872278434" lat="69.2976512" lon="20.4839313" version="1" timestamp="2022-07-07T12:04:40Z" changeset="123317359" uid="3497659" user="NKA">
		<tag k="name" v="Skibotns allmenning" />
		<tag k="old_name" v="Skibottens almenning" />
		<tag k="place" v="locality" />
		<tag k="ssr:stedsnr" v="1078012" />
	</node>
	<node id="9872278435" lat="69.3775445" lon="20.2787473" version="1" timestamp="2022-07-07T12:04:40Z" changeset="123317359" uid="3497659" user="NKA">
		<tag k="name" v="Bekkevoll" />
		<tag k="place" v="farm" />
		<tag k="ssr:stedsnr" v="904135" />
	</node>
	<node id="9872278436" lat="69.2032944" lon="19.9591388" version="1" timestamp="2022-07-07T12:04:40Z" changeset="123317359" uid="3497659" user="NKA">
		<tag k="alt_name" v="Sollisæter" />
		<tag k="historic" v="shieling" />
		<tag k="name" v="Sollisætra" />
		<tag k="place" v="isolated_dwelling" />
		<tag k="ssr:stedsnr" v="382326" />
	</node>
	<node id="9872278437" lat="69.3174111" lon="20.3640583" version="1" timestamp="2022-07-07T12:04:40Z" changeset="123317359" uid="3497659" user="NKA">
		<tag k="name" v="Kavelnes" />
		<tag k="place" v="farm" />
		<tag k="ssr:stedsnr" v="685404" />
	</node>
	<node id="9872278438" lat="69.3075389" lon="20.4275416" version="1" timestamp="2022-07-07T12:04:40Z" changeset="123317359" uid="3497659" user="NKA">
		<tag k="name" v="Lullevárri" />
		<tag k="name:se" v="Lullevárri" />
		<tag k="place" v="isolated_dwelling" />
		<tag k="ssr:stedsnr" v="261562" />
	</node>
	<node id="9872278439" lat="69.2184223" lon="19.9719527" version="1" timestamp="2022-07-07T12:04:40Z" changeset="123317359" uid="3497659" user="NKA">
		<tag k="name" v="Fossmo" />
		<tag k="place" v="farm" />
		<tag k="ssr:stedsnr" v="904471" />
	</node>
	<node id="9872278440" lat="69.3705556" lon="20.2825167" version="1" timestamp="2022-07-07T12:04:40Z" changeset="123317359" uid="3497659" user="NKA">
		<tag k="name" v="Seljestad" />
		<tag k="place" v="farm" />
		<tag k="ssr:stedsnr" v="297152" />
	</node>
	<node id="9872278441" lat="69.1720417" lon="20.0334695" version="1" timestamp="2022-07-07T12:04:40Z" changeset="123317359" uid="3497659" user="NKA">
		<tag k="name" v="Løkstad" />
		<tag k="place" v="farm" />
		<tag k="ssr:stedsnr" v="929299" />
	</node>
	<node id="9872278442" lat="69.3713389" lon="20.2605251" version="1" timestamp="2022-07-07T12:04:40Z" changeset="123317359" uid="3497659" user="NKA">
		<tag k="name" v="Skogvoll" />
		<tag k="place" v="farm" />
		<tag k="ssr:stedsnr" v="382437" />
	</node>
	<node id="9872278443" lat="69.365175" lon="20.2697028" version="1" timestamp="2022-07-07T12:04:40Z" changeset="123317359" uid="3497659" user="NKA">
		<tag k="name" v="Fossmo" />
		<tag k="place" v="farm" />
		<tag k="ssr:stedsnr" v="261457" />
	</node>
	<node id="9872278444" lat="69.3744611" lon="20.2576611" version="1" timestamp="2022-07-07T12:04:40Z" changeset="123317359" uid="3497659" user="NKA">
		<tag k="alt_name" v="Mellomjord" />
		<tag k="name" v="Mellomjorda" />
		<tag k="place" v="farm" />
		<tag k="ssr:stedsnr" v="746431" />
	</node>
	<node id="9872278445" lat="69.3850278" lon="20.2669945" version="1" timestamp="2022-07-07T12:04:40Z" changeset="123317359" uid="3497659" user="NKA">
		<tag k="name" v="Myrgjerdet" />
		<tag k="place" v="farm" />
		<tag k="ssr:stedsnr" v="200522" />
	</node>
	<node id="9872278446" lat="69.3924806" lon="20.2685999" version="1" timestamp="2022-07-07T12:04:40Z" changeset="123317359" uid="3497659" user="NKA">
		<tag k="name" v="Marketsplassen" />
		<tag k="place" v="square" />
		<tag k="ssr:stedsnr" v="297120" />
	</node>
	<node id="9872278447" lat="69.3744055" lon="20.2535418" version="1" timestamp="2022-07-07T12:04:40Z" changeset="123317359" uid="3497659" user="NKA">
		<tag k="alt_name" v="Sommarset" />
		<tag k="name" v="Sommerset" />
		<tag k="place" v="farm" />
		<tag k="ssr:stedsnr" v="200446" />
	</node>
	<node id="9872278448" lat="69.3922185" lon="20.2713494" version="1" timestamp="2022-07-07T12:04:40Z" changeset="123317359" uid="3497659" user="NKA">
		<tag k="name" v="Skibotn" />
		<tag k="old_name" v="Skibotten" />
		<tag k="place" v="locality" />
		<tag k="ssr:stedsnr" v="1078010" />
	</node>
	<node id="9872278449" lat="69.2845915" lon="19.9038484" version="1" timestamp="2022-07-07T12:04:40Z" changeset="123317359" uid="3497659" user="NKA">
		<tag k="name" v="Kileng" />
		<tag k="place" v="hamlet" />
		<tag k="ssr:stedsnr" v="504383" />
	</node>
	<node id="9872278450" lat="69.3943" lon="20.2701972" version="1" timestamp="2022-07-07T12:04:40Z" changeset="123317359" uid="3497659" user="NKA">
		<tag k="name" v="Solbakken" />
		<tag k="place" v="farm" />
		<tag k="ssr:stedsnr" v="868476" />
	</node>
	<node id="9872278451" lat="69.2935333" lon="19.9166306" version="1" timestamp="2022-07-07T12:04:40Z" changeset="123317359" uid="3497659" user="NKA">
		<tag k="name" v="Kvalnes - Bossonjárga" />
		<tag k="name:no" v="Kvalnes" />
		<tag k="name:se" v="Bossonjárga" />
		<tag k="place" v="farm" />
		<tag k="ssr:stedsnr" v="929366" />
	</node>
	<node id="9872278452" lat="69.3944388" lon="20.1277251" version="1" timestamp="2022-07-07T12:04:40Z" changeset="123317359" uid="3497659" user="NKA">
		<tag k="name" v="Steinberg" />
		<tag k="place" v="farm" />
		<tag k="ssr:stedsnr" v="443480" />
	</node>
	<node id="9872278453" lat="69.3729389" lon="20.2645555" version="1" timestamp="2022-07-07T12:04:40Z" changeset="123317359" uid="3497659" user="NKA">
		<tag k="name" v="Holmen" />
		<tag k="place" v="farm" />
		<tag k="ssr:stedsnr" v="722139" />
	</node>
	<node id="9872278454" lat="69.2534428" lon="19.9211804" version="1" timestamp="2022-07-07T12:04:40Z" changeset="123317359" uid="3497659" user="NKA">
		<tag k="loc_name:se" v="Stuoranjárga" />
		<tag k="name" v="Stornes" />
		<tag k="name:no" v="Stornes" />
		<tag k="place" v="farm" />
		<tag k="ssr:stedsnr" v="807566" />
	</node>
	<node id="9872278455" lat="69.3614611" lon="20.2718111" version="1" timestamp="2022-07-07T12:04:40Z" changeset="123317359" uid="3497659" user="NKA">
		<tag k="name" v="Ballones" />
		<tag k="place" v="farm" />
		<tag k="ssr:stedsnr" v="358004" />
	</node>
	<node id="9872278456" lat="69.3638901" lon="20.0156381" version="1" timestamp="2022-07-07T12:04:40Z" changeset="123317359" uid="3497659" user="NKA">
		<tag k="name" v="Storeng" />
		<tag k="place" v="hamlet" />
		<tag k="ssr:stedsnr" v="807442" />
	</node>
	<node id="9872278457" lat="69.2328917" lon="20.1059805" version="1" timestamp="2022-07-07T12:04:40Z" changeset="123317359" uid="3497659" user="NKA">
		<tag k="name" v="Moskkagáisi" />
		<tag k="name:se" v="Moskkagáisi" />
		<tag k="place" v="farm" />
		<tag k="ssr:stedsnr" v="443361" />
	</node>
	<node id="9872278458" lat="69.1190297" lon="20.0946659" version="1" timestamp="2022-07-07T12:04:40Z" changeset="123317359" uid="3497659" user="NKA">
		<tag k="name" v="Lundeng" />
		<tag k="place" v="farm" />
		<tag k="ssr:stedsnr" v="382274" />
	</node>
	<node id="9872278459" lat="69.3957167" lon="20.1302471" version="1" timestamp="2022-07-07T12:04:40Z" changeset="123317359" uid="3497659" user="NKA">
		<tag k="name" v="Moberg" />
		<tag k="place" v="farm" />
		<tag k="ssr:stedsnr" v="722765" />
	</node>
	<node id="9872278460" lat="69.09045" lon="20.4446499" version="1" timestamp="2022-07-07T12:04:40Z" changeset="123317359" uid="3497659" user="NKA">
		<tag k="name" v="Doggehytta" />
		<tag k="place" v="isolated_dwelling" />
		<tag k="ssr:stedsnr" v="869575" />
	</node>
	<node id="9872278461" lat="69.40095" lon="20.1436001" version="1" timestamp="2022-07-07T12:04:40Z" changeset="123317359" uid="3497659" user="NKA">
		<tag k="name" v="Gunnarberg" />
		<tag k="place" v="farm" />
		<tag k="ssr:stedsnr" v="79448" />
	</node>
	<node id="9872278462" lat="69.2336477" lon="19.8221824" version="1" timestamp="2022-07-07T12:04:40Z" changeset="123317359" uid="3497659" user="NKA">
		<tag k="loc_name:se" v="Riehppi" />
		<tag k="name" v="Skogli" />
		<tag k="name:no" v="Skogli" />
		<tag k="place" v="farm" />
		<tag k="ssr:stedsnr" v="686359" />
	</node>
	<node id="9872278463" lat="69.4418925" lon="20.3028317" version="1" timestamp="2022-07-07T12:04:40Z" changeset="123317359" uid="3497659" user="NKA">
		<tag k="loc_name" v="Larsberget" />
		<tag k="name" v="Larsberg" />
		<tag k="place" v="farm" />
		<tag k="ssr:stedsnr" v="990664" />
	</node>
	<node id="9872278464" lat="69.3393277" lon="19.9605527" version="1" timestamp="2022-07-07T12:04:40Z" changeset="123317359" uid="3497659" user="NKA">
		<tag k="name" v="Brustad" />
		<tag k="place" v="farm" />
		<tag k="ssr:stedsnr" v="564419" />
	</node>
	<node id="9872278465" lat="69.3748666" lon="20.0522223" version="1" timestamp="2022-07-07T12:04:40Z" changeset="123317359" uid="3497659" user="NKA">
		<tag k="name" v="Steindalen" />
		<tag k="place" v="farm" />
		<tag k="ssr:stedsnr" v="504440" />
	</node>
	<node id="9872278466" lat="69.345438" lon="19.9694448" version="1" timestamp="2022-07-07T12:04:40Z" changeset="123317359" uid="3497659" user="NKA">
		<tag k="name" v="Borge" />
		<tag k="place" v="farm" />
		<tag k="ssr:stedsnr" v="261477" />
	</node>
	<node id="9872278467" lat="69.2475806" lon="20.0439195" version="1" timestamp="2022-07-07T12:04:40Z" changeset="123317359" uid="3497659" user="NKA">
		<tag k="name" v="Heggeblom" />
		<tag k="place" v="farm" />
		<tag k="ssr:stedsnr" v="139387" />
	</node>
	<node id="9872278468" lat="69.3926784" lon="20.1193562" version="1" timestamp="2022-07-07T12:04:40Z" changeset="123317359" uid="3497659" user="NKA">
		<tag k="name" v="Rasteby" />
		<tag k="place" v="farm" />
		<tag k="ssr:stedsnr" v="261488" />
	</node>
	<node id="9872278469" lat="69.2341167" lon="19.9624417" version="1" timestamp="2022-07-07T12:04:40Z" changeset="123317359" uid="3497659" user="NKA">
		<tag k="loc_name:se" v="Boarrenjárga" />
		<tag k="name" v="Borrenes" />
		<tag k="name:no" v="Borrenes" />
		<tag k="place" v="farm" />
		<tag k="ssr:stedsnr" v="443372" />
	</node>
	<node id="9872278470" lat="69.3157832" lon="19.9499579" version="1" timestamp="2022-07-07T12:04:40Z" changeset="123317359" uid="3497659" user="NKA">
		<tag k="alt_name" v="Nygard" />
		<tag k="name" v="Nygård" />
		<tag k="place" v="farm" />
		<tag k="ssr:stedsnr" v="261427" />
	</node>
	<node id="9872278471" lat="69.1733028" lon="20.0309499" version="1" timestamp="2022-07-07T12:04:40Z" changeset="123317359" uid="3497659" user="NKA">
		<tag k="name" v="Fredheim" />
		<tag k="place" v="farm" />
		<tag k="ssr:stedsnr" v="443338" />
	</node>
	<node id="9872278472" lat="69.1285083" lon="20.3781307" version="1" timestamp="2022-07-07T12:04:40Z" changeset="123317359" uid="3497659" user="NKA">
		<tag k="name" v="Stoarbmagieddi" />
		<tag k="name:se" v="Stoarbmagieddi" />
		<tag k="place" v="locality" />
		<tag k="ssr:stedsnr" v="261281" />
	</node>
	<node id="9872278473" lat="69.1362555" lon="20.0709083" version="1" timestamp="2022-07-07T12:04:40Z" changeset="123317359" uid="3497659" user="NKA">
		<tag k="loc_name:se" v="Čáhcevággi" />
		<tag k="name" v="Vassdal" />
		<tag k="name:no" v="Vassdal" />
		<tag k="place" v="farm" />
		<tag k="ssr:stedsnr" v="382306" />
	</node>
	<node id="9872278474" lat="69.2092416" lon="19.9815027" version="1" timestamp="2022-07-07T12:04:40Z" changeset="123317359" uid="3497659" user="NKA">
		<tag k="name" v="Fjellstad" />
		<tag k="place" v="farm" />
		<tag k="ssr:stedsnr" v="322330" />
	</node>
	<node id="9872278475" lat="69.2869261" lon="20.7152741" version="1" timestamp="2022-07-07T12:04:40Z" changeset="123317359" uid="3497659" user="NKA">
		<tag k="name" v="Rovvehytta" />
		<tag k="name:se" v="Rovvehytta" />
		<tag k="place" v="locality" />
		<tag k="ssr:stedsnr" v="974627" />
	</node>
	<node id="9872278476" lat="69.2628457" lon="19.9641083" version="1" timestamp="2022-07-07T12:04:40Z" changeset="123317359" uid="3497659" user="NKA">
		<tag k="name" v="Veibakken" />
		<tag k="place" v="farm" />
		<tag k="ssr:stedsnr" v="980322" />
	</node>
	<node id="9872278477" lat="69.1786084" lon="20.017825" version="1" timestamp="2022-07-07T12:04:40Z" changeset="123317359" uid="3497659" user="NKA">
		<tag k="name" v="Lund" />
		<tag k="place" v="farm" />
		<tag k="ssr:stedsnr" v="322289" />
	</node>
	<node id="9872278478" lat="69.1822972" lon="19.9874001" version="1" timestamp="2022-07-07T12:04:40Z" changeset="123317359" uid="3497659" user="NKA">
		<tag k="loc_name:se" v="Luhpposiida" />
		<tag k="name" v="Heggelund" />
		<tag k="name:no" v="Heggelund" />
		<tag k="place" v="farm" />
		<tag k="ssr:stedsnr" v="201316" />
	</node>
	<node id="9872278479" lat="69.1250833" lon="20.1022138" version="1" timestamp="2022-07-07T12:04:40Z" changeset="123317359" uid="3497659" user="NKA">
		<tag k="alt_name" v="Fredheimsæter" />
		<tag k="historic" v="shieling" />
		<tag k="name" v="Fredheimsætra" />
		<tag k="place" v="isolated_dwelling" />
		<tag k="ssr:stedsnr" v="200286" />
	</node>
	<node id="9872278480" lat="69.1506" lon="20.0635999" version="1" timestamp="2022-07-07T12:04:40Z" changeset="123317359" uid="3497659" user="NKA">
		<tag k="name" v="Solvang" />
		<tag k="place" v="farm" />
		<tag k="ssr:stedsnr" v="868289" />
	</node>
	<node id="9872278481" lat="69.3429777" lon="19.9649917" version="1" timestamp="2022-07-07T12:04:40Z" changeset="123317359" uid="3497659" user="NKA">
		<tag k="name" v="Letto" />
		<tag k="place" v="farm" />
		<tag k="ssr:stedsnr" v="661511" />
	</node>
	<node id="9872278482" lat="69.1522555" lon="20.0593751" version="1" timestamp="2022-07-07T12:04:40Z" changeset="123317359" uid="3497659" user="NKA">
		<tag k="name" v="Skogstad" />
		<tag k="place" v="farm" />
		<tag k="ssr:stedsnr" v="868288" />
	</node>
	<node id="9872278483" lat="69.2363395" lon="19.8378862" version="1" timestamp="2022-07-07T12:04:40Z" changeset="123317359" uid="3497659" user="NKA">
		<tag k="name" v="Fjelldal" />
		<tag k="place" v="farm" />
		<tag k="ssr:stedsnr" v="686356" />
	</node>
	<node id="9872278484" lat="69.1892778" lon="19.9683611" version="1" timestamp="2022-07-07T12:04:40Z" changeset="123317359" uid="3497659" user="NKA">
		<tag k="alt_name" v="Skogly" />
		<tag k="name" v="Skogli" />
		<tag k="place" v="farm" />
		<tag k="ssr:stedsnr" v="686318" />
	</node>
	<node id="9872278485" lat="69.2198722" lon="19.9727445" version="1" timestamp="2022-07-07T12:04:40Z" changeset="123317359" uid="3497659" user="NKA">
		<tag k="name" v="Fossli" />
		<tag k="place" v="farm" />
		<tag k="ssr:stedsnr" v="868329" />
	</node>
	<node id="9872278486" lat="69.1878331" lon="19.9748001" version="1" timestamp="2022-07-07T12:04:40Z" changeset="123317359" uid="3497659" user="NKA">
		<tag k="name" v="Frydenlund" />
		<tag k="place" v="farm" />
		<tag k="ssr:stedsnr" v="868318" />
	</node>
	<node id="9872278487" lat="69.3688055" lon="20.0280472" version="1" timestamp="2022-07-07T12:04:40Z" changeset="123317359" uid="3497659" user="NKA">
		<tag k="name" v="Lillemo" />
		<tag k="place" v="farm" />
		<tag k="ssr:stedsnr" v="600520" />
	</node>
	<node id="9872278488" lat="69.1480889" lon="20.0684917" version="1" timestamp="2022-07-07T12:04:40Z" changeset="123317359" uid="3497659" user="NKA">
		<tag k="name" v="Eggen" />
		<tag k="place" v="farm" />
		<tag k="ssr:stedsnr" v="868295" />
	</node>
	<node id="9872278489" lat="69.1746055" lon="20.0269777" version="1" timestamp="2022-07-07T12:04:40Z" changeset="123317359" uid="3497659" user="NKA">
		<tag k="name" v="Olsborg" />
		<tag k="place" v="farm" />
		<tag k="ssr:stedsnr" v="868308" />
	</node>
	<node id="9872278490" lat="69.201275" lon="19.9787749" version="1" timestamp="2022-07-07T12:04:40Z" changeset="123317359" uid="3497659" user="NKA">
		<tag k="name" v="Solli" />
		<tag k="place" v="farm" />
		<tag k="ssr:stedsnr" v="504306" />
	</node>
	<node id="9872278491" lat="69.2118083" lon="19.9789333" version="1" timestamp="2022-07-07T12:04:40Z" changeset="123317359" uid="3497659" user="NKA">
		<tag k="name" v="Brorstad" />
		<tag k="place" v="farm" />
		<tag k="ssr:stedsnr" v="479480" />
	</node>
	<node id="9872278492" lat="69.4051306" lon="20.2659778" version="1" timestamp="2022-07-07T12:04:40Z" changeset="123317359" uid="3497659" user="NKA">
		<tag k="name" v="Kvalberg" />
		<tag k="place" v="farm" />
		<tag k="ssr:stedsnr" v="382470" />
	</node>
	<node id="9872278493" lat="69.3963834" lon="20.1313696" version="1" timestamp="2022-07-07T12:04:40Z" changeset="123317359" uid="3497659" user="NKA">
		<tag k="name" v="Årland" />
		<tag k="place" v="farm" />
		<tag k="ssr:stedsnr" v="261482" />
	</node>
	<node id="9872278494" lat="69.2229139" lon="19.9716166" version="1" timestamp="2022-07-07T12:04:40Z" changeset="123317359" uid="3497659" user="NKA">
		<tag k="loc_name:se" v="Gurti" />
		<tag k="name" v="Fossen" />
		<tag k="name:no" v="Fossen" />
		<tag k="place" v="farm" />
		<tag k="ssr:stedsnr" v="564341" />
	</node>
	<node id="9872278495" lat="69.3796084" lon="20.2698028" version="1" timestamp="2022-07-07T12:04:40Z" changeset="123317359" uid="3497659" user="NKA">
		<tag k="name" v="Grønslett" />
		<tag k="place" v="farm" />
		<tag k="ssr:stedsnr" v="504502" />
	</node>
	<node id="9872278496" lat="69.1830472" lon="20.0052695" version="1" timestamp="2022-07-07T12:04:40Z" changeset="123317359" uid="3497659" user="NKA">
		<tag k="name" v="Fosshaug" />
		<tag k="place" v="farm" />
		<tag k="ssr:stedsnr" v="564306" />
	</node>
	<node id="9872278497" lat="69.3112627" lon="19.9405444" version="1" timestamp="2022-07-07T12:04:40Z" changeset="123317359" uid="3497659" user="NKA">
		<tag k="name" v="Stubbeng - Láđugieddi" />
		<tag k="name:no" v="Stubbeng" />
		<tag k="name:se" v="Láđugieddi" />
		<tag k="place" v="hamlet" />
		<tag k="ssr:stedsnr" v="261438" />
	</node>
	<node id="9872278498" lat="69.3170439" lon="20.3768477" version="1" timestamp="2022-07-07T12:04:40Z" changeset="123317359" uid="3497659" user="NKA">
		<tag k="name" v="Ivarvollen" />
		<tag k="place" v="locality" />
		<tag k="ssr:stedsnr" v="503356" />
	</node>
	<node id="9872278499" lat="69.1878361" lon="19.9898666" version="1" timestamp="2022-07-07T12:04:40Z" changeset="123317359" uid="3497659" user="NKA">
		<tag k="name" v="Solstad" />
		<tag k="place" v="farm" />
		<tag k="ssr:stedsnr" v="418350" />
	</node>
	<node id="9872278500" lat="69.243275" lon="20.1902" version="1" timestamp="2022-07-07T12:04:40Z" changeset="123317359" uid="3497659" user="NKA">
		<tag k="name" v="Stuoragieddi" />
		<tag k="name:se" v="Stuoragieddi" />
		<tag k="place" v="locality" />
		<tag k="ssr:stedsnr" v="443377" />
	</node>
	<node id="9872278501" lat="69.1523555" lon="20.0434557" version="1" timestamp="2022-07-07T12:04:40Z" changeset="123317359" uid="3497659" user="NKA">
		<tag k="name" v="Innset" />
		<tag k="place" v="farm" />
		<tag k="ssr:stedsnr" v="782347" />
	</node>
	<node id="9872278502" lat="69.260025" lon="19.9740444" version="1" timestamp="2022-07-07T12:04:40Z" changeset="123317359" uid="3497659" user="NKA">
		<tag k="loc_name:se" v="Biertnagieddi" />
		<tag k="name" v="Bjørnevoll" />
		<tag k="name:no" v="Bjørnevoll" />
		<tag k="place" v="farm" />
		<tag k="ssr:stedsnr" v="746579" />
	</node>
	<node id="9872278503" lat="69.3793583" lon="20.2851112" version="1" timestamp="2022-07-07T12:04:40Z" changeset="123317359" uid="3497659" user="NKA">
		<tag k="name" v="Tu" />
		<tag k="place" v="farm" />
		<tag k="ssr:stedsnr" v="443497" />
	</node>
	<node id="9872278504" lat="69.381442" lon="20.3019096" version="1" timestamp="2022-07-07T12:04:40Z" changeset="123317359" uid="3497659" user="NKA">
		<tag k="name" v="Sommarset" />
		<tag k="place" v="farm" />
		<tag k="ssr:stedsnr" v="322487" />
	</node>
	<node id="9872278505" lat="69.3976239" lon="20.1357683" version="1" timestamp="2022-07-07T12:04:40Z" changeset="123317359" uid="3497659" user="NKA">
		<tag k="name" v="Rasteby - Čuollonjárga - Sulluniemi" />
		<tag k="name:fkv" v="Sulluniemi" />
		<tag k="name:no" v="Rasteby" />
		<tag k="name:se" v="Čuollonjárga" />
		<tag k="place" v="hamlet" />
		<tag k="ssr:stedsnr" v="261490" />
	</node>
	<node id="9872278506" lat="69.362875" lon="20.3071056" version="1" timestamp="2022-07-07T12:04:40Z" changeset="123317359" uid="3497659" user="NKA">
		<tag k="name" v="Nyheim" />
		<tag k="place" v="farm" />
		<tag k="ssr:stedsnr" v="261470" />
	</node>
	<node id="9872278507" lat="69.2378" lon="20.179936" version="1" timestamp="2022-07-07T12:04:40Z" changeset="123317359" uid="3497659" user="NKA">
		<tag k="name" v="Jorbagieddi - Jorbmakenttä" />
		<tag k="name:fkv" v="Jorbmakenttä" />
		<tag k="name:se" v="Jorbagieddi" />
		<tag k="place" v="locality" />
		<tag k="ssr:stedsnr" v="79352" />
	</node>
	<node id="9872278508" lat="69.3758805" lon="20.28445" version="1" timestamp="2022-07-07T12:04:40Z" changeset="123317359" uid="3497659" user="NKA">
		<tag k="alt_name" v="Skibotn, s" />
		<tag k="name" v="Søre Skibotn" />
		<tag k="place" v="farm" />
		<tag k="ssr:stedsnr" v="79419" />
	</node>
	<node id="9872278509" lat="69.150325" lon="20.0543473" version="1" timestamp="2022-07-07T12:04:40Z" changeset="123317359" uid="3497659" user="NKA">
		<tag k="name" v="Elverum" />
		<tag k="place" v="farm" />
		<tag k="ssr:stedsnr" v="79292" />
	</node>
	<node id="9872278510" lat="69.1676533" lon="20.0296677" version="1" timestamp="2022-07-07T12:04:40Z" changeset="123317359" uid="3497659" user="NKA">
		<tag k="name" v="Signalnes - Čiekŋalnjárga" />
		<tag k="name:no" v="Signalnes" />
		<tag k="name:se" v="Čiekŋalnjárga" />
		<tag k="place" v="farm" />
		<tag k="ssr:stedsnr" v="140339" />
	</node>
	<node id="9872278511" lat="69.1151194" lon="20.1021223" version="1" timestamp="2022-07-07T12:04:40Z" changeset="123317359" uid="3497659" user="NKA">
		<tag k="name" v="Rognli" />
		<tag k="place" v="farm" />
		<tag k="ssr:stedsnr" v="139291" />
	</node>
	<node id="9872278512" lat="69.1317528" lon="20.0696666" version="1" timestamp="2022-07-07T12:04:40Z" changeset="123317359" uid="3497659" user="NKA">
		<tag k="name" v="Nymo" />
		<tag k="place" v="farm" />
		<tag k="ssr:stedsnr" v="139316" />
	</node>
	<node id="9872278513" lat="69.3876223" lon="20.2868112" version="1" timestamp="2022-07-07T12:04:40Z" changeset="123317359" uid="3497659" user="NKA">
		<tag k="alt_name" v="Lillevoll" />
		<tag k="name" v="Litlevollen" />
		<tag k="place" v="farm" />
		<tag k="ssr:stedsnr" v="200523" />
	</node>
	<node id="9872278514" lat="69.3671556" lon="20.3036306" version="1" timestamp="2022-07-07T12:04:40Z" changeset="123317359" uid="3497659" user="NKA">
		<tag k="name" v="Nedstevatn" />
		<tag k="place" v="farm" />
		<tag k="ssr:stedsnr" v="201435" />
	</node>
	<node id="9872278515" lat="69.3229028" lon="20.015339" version="1" timestamp="2022-07-07T12:04:40Z" changeset="123317359" uid="3497659" user="NKA">
		<tag k="name" v="Lundheim" />
		<tag k="place" v="farm" />
		<tag k="ssr:stedsnr" v="18387" />
	</node>
	<node id="9872278516" lat="69.3184361" lon="19.9539334" version="1" timestamp="2022-07-07T12:04:40Z" changeset="123317359" uid="3497659" user="NKA">
		<tag k="name" v="Nyborg" />
		<tag k="place" v="farm" />
		<tag k="ssr:stedsnr" v="200420" />
	</node>
	<node id="9872278517" lat="69.3256361" lon="19.9642221" version="1" timestamp="2022-07-07T12:04:40Z" changeset="123317359" uid="3497659" user="NKA">
		<tag k="loc_name:se" v="Dimbbarnjárga" />
		<tag k="name" v="Tømmernes" />
		<tag k="name:no" v="Tømmernes" />
		<tag k="place" v="farm" />
		<tag k="ssr:stedsnr" v="564426" />
	</node>
	<node id="9872278518" lat="69.3244944" lon="19.9620694" version="1" timestamp="2022-07-07T12:04:40Z" changeset="123317359" uid="3497659" user="NKA">
		<tag k="name" v="Fagerhaug" />
		<tag k="place" v="farm" />
		<tag k="ssr:stedsnr" v="844564" />
	</node>
	<node id="9872278519" lat="69.3925889" lon="20.277714" version="1" timestamp="2022-07-07T12:04:40Z" changeset="123317359" uid="3497659" user="NKA">
		<tag k="name" v="Gustavgjerdet" />
		<tag k="place" v="neighbourhood" />
		<tag k="ssr:stedsnr" v="722111" />
	</node>
	<node id="9872278520" lat="69.30595" lon="20.4335306" version="1" timestamp="2022-07-07T12:04:40Z" changeset="123317359" uid="3497659" user="NKA">
		<tag k="name" v="Lulleborg" />
		<tag k="place" v="farm" />
		<tag k="ssr:stedsnr" v="844988" />
	</node>
	<node id="9872278521" lat="69.2839027" lon="19.9071" version="1" timestamp="2022-07-07T12:04:40Z" changeset="123317359" uid="3497659" user="NKA">
		<tag k="name" v="Geitstein - Gáicageađgi" />
		<tag k="name:no" v="Geitstein" />
		<tag k="name:se" v="Gáicageađgi" />
		<tag k="place" v="farm" />
		<tag k="ssr:stedsnr" v="504391" />
	</node>
	<node id="9872278522" lat="69.34268" lon="20.3523373" version="1" timestamp="2022-07-07T12:04:40Z" changeset="123317359" uid="3497659" user="NKA">
		<tag k="name" v="Haskihytta" />
		<tag k="place" v="isolated_dwelling" />
		<tag k="ssr:stedsnr" v="844038" />
	</node>
	<node id="9872278523" lat="69.3013583" lon="19.9260723" version="1" timestamp="2022-07-07T12:04:40Z" changeset="123317359" uid="3497659" user="NKA">
		<tag k="name" v="Brattvoll" />
		<tag k="place" v="farm" />
		<tag k="ssr:stedsnr" v="503361" />
	</node>
	<node id="9872278524" lat="69.3757583" lon="20.2829528" version="1" timestamp="2022-07-07T12:04:40Z" changeset="123317359" uid="3497659" user="NKA">
		<tag k="name" v="Skibotn" />
		<tag k="place" v="farm" />
		<tag k="ssr:stedsnr" v="844134" />
	</node>
	<node id="9872278525" lat="69.2630333" lon="19.8805751" version="1" timestamp="2022-07-07T12:04:40Z" changeset="123317359" uid="3497659" user="NKA">
		<tag k="name" v="Slåtten" />
		<tag k="place" v="farm" />
		<tag k="ssr:stedsnr" v="443418" />
	</node>
	<node id="9872278526" lat="69.3958987" lon="20.2799564" version="1" timestamp="2022-07-07T12:04:40Z" changeset="123317359" uid="3497659" user="NKA">
		<tag k="name" v="Solli" />
		<tag k="place" v="farm" />
		<tag k="ssr:stedsnr" v="625467" />
	</node>
	<node id="9872278527" lat="69.2491111" lon="19.8509973" version="1" timestamp="2022-07-07T12:04:40Z" changeset="123317359" uid="3497659" user="NKA">
		<tag k="name" v="Solvoll" />
		<tag k="place" v="farm" />
		<tag k="ssr:stedsnr" v="443401" />
	</node>
	<node id="9872278528" lat="69.2229139" lon="20.2546943" version="1" timestamp="2022-07-07T12:04:40Z" changeset="123317359" uid="3497659" user="NKA">
		<tag k="name" v="Brakke" />
		<tag k="place" v="isolated_dwelling" />
		<tag k="ssr:stedsnr" v="382342" />
	</node>
	<node id="9872278529" lat="69.3777671" lon="20.2910832" version="1" timestamp="2022-07-07T12:04:40Z" changeset="123317359" uid="3497659" user="NKA">
		<tag k="loc_name" v="Olderelva" />
		<tag k="name" v="Olderelv" />
		<tag k="place" v="farm" />
		<tag k="ssr:stedsnr" v="625437" />
	</node>
	<node id="9872278530" lat="69.37205" lon="20.3006499" version="1" timestamp="2022-07-07T12:04:40Z" changeset="123317359" uid="3497659" user="NKA">
		<tag k="name" v="Myreng" />
		<tag k="place" v="farm" />
		<tag k="ssr:stedsnr" v="625448" />
	</node>
	<node id="9872278531" lat="69.2964444" lon="19.9190778" version="1" timestamp="2022-07-07T12:04:40Z" changeset="123317359" uid="3497659" user="NKA">
		<tag k="name" v="Láiregieddi" />
		<tag k="name:se" v="Láiregieddi" />
		<tag k="place" v="farm" />
		<tag k="ssr:stedsnr" v="844625" />
	</node>
	<node id="9872278532" lat="69.2802192" lon="19.903808" version="1" timestamp="2022-07-07T12:04:40Z" changeset="123317359" uid="3497659" user="NKA">
		<tag k="alt_name:no" v="Oldernes;Olderbakk" />
		<tag k="loc_name:se" v="Leaibečorru" />
		<tag k="name" v="Olderbakken" />
		<tag k="name:no" v="Olderbakken" />
		<tag k="place" v="farm" />
		<tag k="ssr:stedsnr" v="868383" />
	</node>
	<node id="9872278533" lat="69.3313111" lon="19.9718361" version="1" timestamp="2022-07-07T12:04:40Z" changeset="123317359" uid="3497659" user="NKA">
		<tag k="name" v="Sandøra - Stálugárgu" />
		<tag k="name:no" v="Sandøra" />
		<tag k="name:se" v="Stálugárgu" />
		<tag k="place" v="farm" />
		<tag k="ssr:stedsnr" v="564424" />
	</node>
	<node id="9872278534" lat="69.3763139" lon="20.2871583" version="1" timestamp="2022-07-07T12:04:40Z" changeset="123317359" uid="3497659" user="NKA">
		<tag k="name" v="Huggenhull" />
		<tag k="place" v="farm" />
		<tag k="ssr:stedsnr" v="540139" />
	</node>
	<node id="9872278535" lat="69.2930694" lon="19.8765861" version="1" timestamp="2022-07-07T12:04:40Z" changeset="123317359" uid="3497659" user="NKA">
		<tag k="name" v="Geassegieddi" />
		<tag k="name:se" v="Geassegieddi" />
		<tag k="place" v="locality" />
		<tag k="ssr:stedsnr" v="625390" />
	</node>
	<node id="9872278536" lat="69.3349528" lon="20.2982473" version="1" timestamp="2022-07-07T12:04:40Z" changeset="123317359" uid="3497659" user="NKA">
		<tag k="name" v="Leppäveräjä" />
		<tag k="name:fkv" v="Leppäveräjä" />
		<tag k="place" v="farm" />
		<tag k="ssr:stedsnr" v="36042" />
	</node>
	<node id="9872278537" lat="69.2517083" lon="19.9961362" version="1" timestamp="2022-07-07T12:04:40Z" changeset="123317359" uid="3497659" user="NKA">
		<tag k="name" v="Åsvang" />
		<tag k="place" v="farm" />
		<tag k="ssr:stedsnr" v="79558" />
	</node>
	<node id="9872278538" lat="69.2517617" lon="19.8744486" version="1" timestamp="2022-07-07T12:04:40Z" changeset="123317359" uid="3497659" user="NKA">
		<tag k="name" v="Øverli" />
		<tag k="place" v="farm" />
		<tag k="ssr:stedsnr" v="79556" />
	</node>
	<node id="9872278539" lat="69.323325" lon="19.9606862" version="1" timestamp="2022-07-07T12:04:40Z" changeset="123317359" uid="3497659" user="NKA">
		<tag k="name" v="Solås" />
		<tag k="place" v="farm" />
		<tag k="ssr:stedsnr" v="624427" />
	</node>
	<node id="9872278540" lat="69.376" lon="20.3015833" version="1" timestamp="2022-07-07T12:04:40Z" changeset="123317359" uid="3497659" user="NKA">
		<tag k="name" v="Fagerli" />
		<tag k="place" v="farm" />
		<tag k="ssr:stedsnr" v="79415" />
	</node>
	<node id="9872278541" lat="69.3142266" lon="19.9483766" version="1" timestamp="2022-07-07T12:04:40Z" changeset="123317359" uid="3497659" user="NKA">
		<tag k="name" v="Myrvoll" />
		<tag k="place" v="farm" />
		<tag k="ssr:stedsnr" v="661552" />
	</node>
	<node id="9872278542" lat="69.3090806" lon="19.940564" version="1" timestamp="2022-07-07T12:04:40Z" changeset="123317359" uid="3497659" user="NKA">
		<tag k="name" v="Lavoll" />
		<tag k="place" v="farm" />
		<tag k="ssr:stedsnr" v="540591" />
	</node>
	<node id="9872278543" lat="69.2371056" lon="20.0684196" version="1" timestamp="2022-07-07T12:04:40Z" changeset="123317359" uid="3497659" user="NKA">
		<tag k="alt_name:no" v="Heggemo" />
		<tag k="loc_name:se" v="Ávžáfállas" />
		<tag k="name" v="Heggemoen" />
		<tag k="name:no" v="Heggemoen" />
		<tag k="place" v="farm" />
		<tag k="ssr:stedsnr" v="807366" />
	</node>
	<node id="9872278544" lat="69.3812055" lon="20.2685223" version="1" timestamp="2022-07-07T12:04:40Z" changeset="123317359" uid="3497659" user="NKA">
		<tag k="alt_name" v="Furuholm" />
		<tag k="name" v="Furuholmen" />
		<tag k="place" v="farm" />
		<tag k="ssr:stedsnr" v="261514" />
	</node>
	<node id="9872278545" lat="69.259325" lon="19.8927862" version="1" timestamp="2022-07-07T12:04:40Z" changeset="123317359" uid="3497659" user="NKA">
		<tag k="name" v="Roland" />
		<tag k="place" v="farm" />
		<tag k="ssr:stedsnr" v="478397" />
	</node>
	<node id="9872278546" lat="69.2431639" lon="19.9328029" version="1" timestamp="2022-07-07T12:04:40Z" changeset="123317359" uid="3497659" user="NKA">
		<tag k="name" v="Fjellset" />
		<tag k="place" v="farm" />
		<tag k="ssr:stedsnr" v="686376" />
	</node>
	<node id="9872278547" lat="69.25825" lon="19.894286" version="1" timestamp="2022-07-07T12:04:40Z" changeset="123317359" uid="3497659" user="NKA">
		<tag k="name" v="Åsgården" />
		<tag k="place" v="farm" />
		<tag k="ssr:stedsnr" v="443579" />
	</node>
	<node id="9872278548" lat="69.2505362" lon="19.8495308" version="1" timestamp="2022-07-07T12:04:40Z" changeset="123317359" uid="3497659" user="NKA">
		<tag k="alt_name" v="Tverrdal" />
		<tag k="name" v="Tverrdalen" />
		<tag k="place" v="hamlet" />
		<tag k="ssr:stedsnr" v="382559" />
	</node>
	<node id="9872278549" lat="69.2755553" lon="19.9601398" version="1" timestamp="2022-07-07T12:04:40Z" changeset="123317359" uid="3497659" user="NKA">
		<tag k="alt_name" v="Hatteng nordre" />
		<tag k="name" v="Nordre Hatteng" />
		<tag k="place" v="farm" />
		<tag k="ssr:stedsnr" v="443417" />
	</node>
	<node id="9872278550" lat="69.2247306" lon="20.1750833" version="1" timestamp="2022-07-07T12:04:40Z" changeset="123317359" uid="3497659" user="NKA">
		<tag k="name" v="Midtdalsvollen" />
		<tag k="place" v="locality" />
		<tag k="ssr:stedsnr" v="382341" />
	</node>
	<node id="9872278551" lat="69.2464111" lon="20.0495584" version="1" timestamp="2022-07-07T12:04:40Z" changeset="123317359" uid="3497659" user="NKA">
		<tag k="name" v="Heggeli" />
		<tag k="place" v="farm" />
		<tag k="ssr:stedsnr" v="261387" />
	</node>
	<node id="9872278552" lat="69.2471696" lon="20.0179219" version="1" timestamp="2022-07-07T12:04:40Z" changeset="123317359" uid="3497659" user="NKA">
		<tag k="name" v="Elvemo" />
		<tag k="place" v="farm" />
		<tag k="ssr:stedsnr" v="261381" />
	</node>
	<node id="9872278553" lat="69.2366889" lon="20.0777138" version="1" timestamp="2022-07-07T12:04:40Z" changeset="123317359" uid="3497659" user="NKA">
		<tag k="loc_name:se" v="Ruodnesluohkká" />
		<tag k="name" v="Grønli" />
		<tag k="name:no" v="Grønli" />
		<tag k="place" v="farm" />
		<tag k="ssr:stedsnr" v="261377" />
	</node>
	<node id="9872278554" lat="69.2638278" lon="19.8857971" version="1" timestamp="2022-07-07T12:04:40Z" changeset="123317359" uid="3497659" user="NKA">
		<tag k="name" v="Skogeng" />
		<tag k="place" v="farm" />
		<tag k="ssr:stedsnr" v="236389" />
	</node>
	<node id="9872278555" lat="69.3062777" lon="19.9340333" version="1" timestamp="2022-07-07T12:04:40Z" changeset="123317359" uid="3497659" user="NKA">
		<tag k="name" v="Jernoll" />
		<tag k="place" v="farm" />
		<tag k="ssr:stedsnr" v="139453" />
	</node>
	<node id="9872278556" lat="69.2996725" lon="19.92523" version="1" timestamp="2022-07-07T12:04:40Z" changeset="123317359" uid="3497659" user="NKA">
		<tag k="name" v="Tillnes" />
		<tag k="place" v="farm" />
		<tag k="ssr:stedsnr" v="55573" />
	</node>
	<node id="9872278557" lat="69.2499195" lon="20.0131777" version="1" timestamp="2022-07-07T12:04:40Z" changeset="123317359" uid="3497659" user="NKA">
		<tag k="name" v="Bakkely" />
		<tag k="place" v="farm" />
		<tag k="ssr:stedsnr" v="79553" />
	</node>
	<node id="9872278558" lat="69.2566445" lon="19.8740582" version="1" timestamp="2022-07-07T12:04:40Z" changeset="123317359" uid="3497659" user="NKA">
		<tag k="name" v="Seljeli" />
		<tag k="place" v="farm" />
		<tag k="ssr:stedsnr" v="686598" />
	</node>
	<node id="9872278559" lat="69.2615111" lon="19.9115222" version="1" timestamp="2022-07-07T12:04:40Z" changeset="123317359" uid="3497659" user="NKA">
		<tag k="name" v="Strand" />
		<tag k="place" v="farm" />
		<tag k="ssr:stedsnr" v="79561" />
	</node>
	<node id="9872278560" lat="69.2499" lon="20.0282723" version="1" timestamp="2022-07-07T12:04:40Z" changeset="123317359" uid="3497659" user="NKA">
		<tag k="name" v="Bjørkeli" />
		<tag k="place" v="farm" />
		<tag k="ssr:stedsnr" v="79551" />
	</node>
	<node id="9872278561" lat="69.3078139" lon="19.9385194" version="1" timestamp="2022-07-07T12:04:40Z" changeset="123317359" uid="3497659" user="NKA">
		<tag k="name" v="Stubbeng" />
		<tag k="place" v="farm" />
		<tag k="ssr:stedsnr" v="965609" />
	</node>
	<node id="9872278562" lat="69.2577" lon="19.8775001" version="1" timestamp="2022-07-07T12:04:40Z" changeset="123317359" uid="3497659" user="NKA">
		<tag k="name" v="Sommerlund" />
		<tag k="place" v="farm" />
		<tag k="ssr:stedsnr" v="18553" />
	</node>
	<node id="9872278563" lat="69.3783861" lon="20.2785166" version="1" timestamp="2022-07-07T12:04:40Z" changeset="123317359" uid="3497659" user="NKA">
		<tag k="loc_name" v="Skoggårdan" />
		<tag k="name" v="Skoggård" />
		<tag k="place" v="hamlet" />
		<tag k="ssr:stedsnr" v="55130" />
	</node>
	<node id="9872278564" lat="69.2489056" lon="19.8576778" version="1" timestamp="2022-07-07T12:04:40Z" changeset="123317359" uid="3497659" user="NKA">
		<tag k="name" v="Furumo" />
		<tag k="place" v="farm" />
		<tag k="ssr:stedsnr" v="18336" />
	</node>
	<node id="9872278565" lat="69.3223134" lon="19.9592576" version="1" timestamp="2022-07-07T12:04:40Z" changeset="123317359" uid="3497659" user="NKA">
		<tag k="name" v="Myrbakken" />
		<tag k="place" v="farm" />
		<tag k="ssr:stedsnr" v="139443" />
	</node>
	<node id="9872278566" lat="69.260575" lon="19.8798471" version="1" timestamp="2022-07-07T12:04:40Z" changeset="123317359" uid="3497659" user="NKA">
		<tag k="name" v="Sætersletta" />
		<tag k="place" v="farm" />
		<tag k="ssr:stedsnr" v="18358" />
	</node>
	<node id="9872278567" lat="69.23665" lon="20.0739722" version="1" timestamp="2022-07-07T12:04:40Z" changeset="123317359" uid="3497659" user="NKA">
		<tag k="name" v="Lauvset" />
		<tag k="place" v="farm" />
		<tag k="ssr:stedsnr" v="18328" />
	</node>
	<node id="9872278568" lat="69.3800305" lon="20.3034223" version="1" timestamp="2022-07-07T12:04:40Z" changeset="123317359" uid="3497659" user="NKA">
		<tag k="name" v="Grindholmen" />
		<tag k="place" v="farm" />
		<tag k="ssr:stedsnr" v="55115" />
	</node>
	<node id="9872278569" lat="69.252625" lon="20.0077749" version="1" timestamp="2022-07-07T12:04:40Z" changeset="123317359" uid="3497659" user="NKA">
		<tag k="loc_name:se" v="Njáimmet" />
		<tag k="name" v="Naimakka" />
		<tag k="name:fkv" v="Naimakka" />
		<tag k="place" v="farm" />
		<tag k="ssr:stedsnr" v="201534" />
	</node>
	<node id="9872278570" lat="69.257719" lon="19.9814385" version="1" timestamp="2022-07-07T12:04:40Z" changeset="123317359" uid="3497659" user="NKA">
		<tag k="name" v="Ryddestad" />
		<tag k="place" v="farm" />
		<tag k="ssr:stedsnr" v="807571" />
	</node>
	<node id="9872278571" lat="69.2058583" lon="19.9797333" version="1" timestamp="2022-07-07T12:04:40Z" changeset="123317359" uid="3497659" user="NKA">
		<tag k="name" v="Nystad" />
		<tag k="place" v="farm" />
		<tag k="ssr:stedsnr" v="807312" />
	</node>
	<node id="9872278572" lat="69.3436555" lon="19.9645922" version="1" timestamp="2022-07-07T12:04:40Z" changeset="123317359" uid="3497659" user="NKA">
		<tag k="name" v="Skredvollen - Riđđogieddi" />
		<tag k="name:no" v="Skredvollen" />
		<tag k="name:se" v="Riđđogieddi" />
		<tag k="place" v="farm" />
		<tag k="ssr:stedsnr" v="807455" />
	</node>
	<node id="9872278573" lat="69.3512667" lon="20.2745418" version="1" timestamp="2022-07-07T12:04:40Z" changeset="123317359" uid="3497659" user="NKA">
		<tag k="name" v="Paskaput" />
		<tag k="place" v="locality" />
		<tag k="ssr:stedsnr" v="31204" />
	</node>
	<node id="9872278574" lat="69.2551556" lon="19.8667444" version="1" timestamp="2022-07-07T12:04:40Z" changeset="123317359" uid="3497659" user="NKA">
		<tag k="name" v="Myra" />
		<tag k="place" v="farm" />
		<tag k="ssr:stedsnr" v="200601" />
	</node>
	<node id="9872278575" lat="69.2523945" lon="19.8762721" version="1" timestamp="2022-07-07T12:04:40Z" changeset="123317359" uid="3497659" user="NKA">
		<tag k="name" v="Skogtun" />
		<tag k="place" v="farm" />
		<tag k="ssr:stedsnr" v="200589" />
	</node>
	<node id="9872278576" lat="69.2533528" lon="19.8624777" version="1" timestamp="2022-07-07T12:04:40Z" changeset="123317359" uid="3497659" user="NKA">
		<tag k="name" v="Myreng" />
		<tag k="place" v="farm" />
		<tag k="ssr:stedsnr" v="200600" />
	</node>
	<node id="9872278577" lat="69.2597973" lon="19.9948943" version="1" timestamp="2022-07-07T12:04:40Z" changeset="123317359" uid="3497659" user="NKA">
		<tag k="name" v="Lien" />
		<tag k="place" v="farm" />
		<tag k="ssr:stedsnr" v="540434" />
	</node>
	<node id="9872278578" lat="69.25355" lon="19.9955723" version="1" timestamp="2022-07-07T12:04:40Z" changeset="123317359" uid="3497659" user="NKA">
		<tag k="loc_name:se" v="Soahkefállas" />
		<tag k="name" v="Bjørkemo" />
		<tag k="name:no" v="Bjørkemo" />
		<tag k="place" v="farm" />
		<tag k="ssr:stedsnr" v="200594" />
	</node>
</osm>
