<?xml version="1.0" encoding="UTF-8"?>
<osm version="0.6" generator="osmapis">
	<node id="5773039588" lat="61.1562514" lon="9.8295051" version="3" timestamp="2022-02-01T16:51:09Z" changeset="116876628" uid="3497659" user="NKA">
		<tag k="junction" v="yes" />
		<tag k="name" v="Oppsjøkrysset" />
		<tag k="ssr:stedsnr" v="664358" />
	</node>
	<node id="5862805636" lat="60.848543" lon="9.9272916" version="3" timestamp="2022-02-01T16:51:09Z" changeset="116876628" uid="3497659" user="NKA">
		<tag k="junction" v="yes" />
		<tag k="name" v="Endrerudresset" />
		<tag k="ssr:stedsnr" v="542868" />
	</node>
	<node id="5862891471" lat="60.834864" lon="9.9663861" version="3" timestamp="2022-02-01T16:51:09Z" changeset="116876628" uid="3497659" user="NKA">
		<tag k="junction" v="yes" />
		<tag k="name" v="Kveumskrysset" />
		<tag k="ssr:stedsnr" v="543626" />
	</node>
	<node id="9099940080" lat="61.0770722" lon="9.7894333" version="1" timestamp="2021-09-17T06:22:09Z" changeset="111320456" uid="435265" user="Ansgar G Grimsrud">
		<tag k="fixme" v="consider natural=peak for the most distinct mountains in the district" />
		<tag k="name" v="Spåtind" />
		<tag k="natural" v="hill" />
		<tag k="place" v="locality" />
		<tag k="ssr:date" v="2019-12-27" />
		<tag k="ssr:gruppe" v="høyder" />
		<tag k="ssr:hovedgruppe" v="terreng" />
		<tag k="ssr:stedsnr" v="432609" />
		<tag k="ssr:type" v="fjell" />
	</node>
</osm>
