<?xml version="1.0" encoding="UTF-8"?>
<osm generator="osmapis" version="0.6">
	<node id="-796671" lat="70.7524527865" lon="25.7477053273">
		<tag k="name" v="Keila" />
		<tag k="natural" v="bay" />
		<tag k="ssr:stedsnr" v="453575" />
	</node>
	<node id="-796661" lat="71.1025194535" lon="25.4465303626">
		<tag k="name" v="Lille Finnstø" />
		<tag k="natural" v="bay" />
		<tag k="ssr:stedsnr" v="450263" />
	</node>
	<node id="-796660" lat="70.8752194541" lon="25.9034886424">
		<tag k="name" v="Hans Hansakeila" />
		<tag k="natural" v="bay" />
		<tag k="ssr:stedsnr" v="449966" />
	</node>
	<node id="-796659" lat="71.1244444516" lon="25.3950636979">
		<tag k="name" v="Revsholmbåen" />
		<tag k="natural" v="shoal" />
		<tag k="place" v="locality" />
		<tag k="ssr:stedsnr" v="449822" />
	</node>
	<node id="-796652" lat="71.0934194488" lon="25.3564081565">
		<tag k="name" v="Vasslibukta" />
		<tag k="natural" v="bay" />
		<tag k="ssr:stedsnr" v="449301" />
	</node>
	<node id="-796651" lat="71.1487472255" lon="25.5326525937">
		<tag k="fixme" v="consider seamark:type=rock or natural=shoal" />
		<tag k="name" v="Laukvikskjæret" />
		<tag k="place" v="islet" />
		<tag k="ssr:stedsnr" v="445753" />
	</node>
	<node id="-796649" lat="71.1547611139" lon="25.5229025954">
		<tag k="name" v="Likholmen" />
		<tag k="place" v="islet" />
		<tag k="ssr:stedsnr" v="445720" />
	</node>
	<node id="-796648" lat="71.1709388895" lon="25.6734303506">
		<tag k="name" v="Knivskjelvika" />
		<tag k="natural" v="bay" />
		<tag k="ssr:stedsnr" v="445710" />
	</node>
	<node id="-796647" lat="71.1758500018" lon="25.6562470112">
		<tag k="alt_name" v="Skarholmen" />
		<tag k="name" v="Skardholmen" />
		<tag k="place" v="islet" />
		<tag k="ssr:stedsnr" v="445708" />
	</node>
	<node id="-796644" lat="71.0433138933" lon="26.2232247433">
		<tag k="name" v="Avløysinga" />
		<tag k="natural" v="cape" />
		<tag k="ssr:stedsnr" v="445414" />
	</node>
	<node id="-796638" lat="71.1395055589" lon="26.2174997501">
		<tag k="name" v="Grevet" />
		<tag k="natural" v="shoal" />
		<tag k="place" v="locality" />
		<tag k="ssr:stedsnr" v="445352" />
	</node>
	<node id="-796637" lat="71.1378000059" lon="25.9958747637">
		<tag k="name" v="Bærviknæringen" />
		<tag k="natural" v="cape" />
		<tag k="ssr:stedsnr" v="445350" />
	</node>
	<node id="-796636" lat="71.1342583381" lon="25.9005525652">
		<tag k="name" v="Lille-Skikka" />
		<tag k="place" v="islet" />
		<tag k="ssr:stedsnr" v="445347" />
	</node>
	<node id="-796631" lat="71.094175004" lon="25.9916997488">
		<tag k="name" v="Trollvika" />
		<tag k="natural" v="bay" />
		<tag k="ssr:stedsnr" v="445304" />
	</node>
	<node id="-796630" lat="71.0099666761" lon="25.9089581052">
		<tag k="name" v="Seibukta" />
		<tag k="natural" v="bay" />
		<tag k="ssr:stedsnr" v="445271" />
	</node>
	<node id="-796628" lat="70.9529500069" lon="26.5792441167">
		<tag k="name" v="Mjåvika - Čielkaluokta" />
		<tag k="name:no" v="Mjåvika" />
		<tag k="name:se" v="Čielkaluokta" />
		<tag k="natural" v="bay" />
		<tag k="old_name:se" v="Čielkalvuokta" />
		<tag k="ssr:stedsnr" v="445146" />
	</node>
	<node id="-796620" lat="70.7602166687" lon="25.6051636767">
		<tag k="name" v="Dážagávva" />
		<tag k="name:se" v="Dážagávva" />
		<tag k="natural" v="bay" />
		<tag k="old_name:se" v="Dazagavva" />
		<tag k="ssr:stedsnr" v="445082" />
	</node>
	<node id="-796619" lat="70.898030559" lon="25.5211414581">
		<tag k="name" v="Miššavuonnjárga" />
		<tag k="name:se" v="Miššavuonnjárga" />
		<tag k="natural" v="cape" />
		<tag k="old_name:se" v="Miššavuonnjarga" />
		<tag k="ssr:stedsnr" v="445031" />
	</node>
	<node id="-796618" lat="70.8528638964" lon="25.4483831243">
		<tag k="name" v="Lafjordbotn - Námmi" />
		<tag k="name:no" v="Lafjordbotn" />
		<tag k="name:se" v="Námmi" />
		<tag k="natural" v="bay" />
		<tag k="old_name:se" v="Nammi" />
		<tag k="ssr:stedsnr" v="445009" />
	</node>
	<node id="-796617" lat="70.7137333352" lon="25.5689997802">
		<tag k="name" v="Svabergan - Šleađut" />
		<tag k="name:no" v="Svabergan" />
		<tag k="name:se" v="Šleađut" />
		<tag k="natural" v="beach" />
		<tag k="old_name:se" v="Šlæđot" />
		<tag k="place" v="locality" />
		<tag k="ssr:stedsnr" v="444948" />
	</node>
	<node id="-796616" lat="70.7195000025" lon="25.5829081134">
		<tag k="name" v="Siskkit Ádjastatnjárga" />
		<tag k="name:se" v="Siskkit Ádjastatnjárga" />
		<tag k="natural" v="cape" />
		<tag k="old_name:se" v="Addjastatnjarga, siskit" />
		<tag k="ssr:stedsnr" v="444946" />
	</node>
	<node id="-796615" lat="71.1121944512" lon="25.5641692401">
		<tag k="name" v="Risfjordkneet" />
		<tag k="natural" v="cape" />
		<tag k="ssr:stedsnr" v="444723" />
	</node>
	<node id="-796614" lat="71.090488892" lon="25.2235053725">
		<tag k="name" v="Næringsgrunnen" />
		<tag k="natural" v="shoal" />
		<tag k="place" v="locality" />
		<tag k="ssr:stedsnr" v="444628" />
	</node>
	<node id="-796612" lat="71.0894194488" lon="25.2714331659">
		<tag k="alt_name" v="Langneset, yt" />
		<tag k="name" v="Ytre Langneset" />
		<tag k="natural" v="cape" />
		<tag k="ssr:stedsnr" v="444318" />
	</node>
	<node id="-796610" lat="70.9489166742" lon="25.786674777">
		<tag k="alt_name" v="Grunnen, midtre" />
		<tag k="name" v="Midtre Grunnen" />
		<tag k="natural" v="shoal" />
		<tag k="place" v="locality" />
		<tag k="ssr:stedsnr" v="444053" />
	</node>
	<node id="-796609" lat="70.9288805575" lon="25.5052248064">
		<tag k="name" v="Sáidenjárga" />
		<tag k="name:se" v="Sáidenjárga" />
		<tag k="natural" v="cape" />
		<tag k="old_name:se" v="Saidenjarga" />
		<tag k="ssr:stedsnr" v="444041" />
	</node>
	<node id="-796608" lat="71.0225138948" lon="25.9450858825">
		<tag k="name" v="Finnvika" />
		<tag k="natural" v="bay" />
		<tag k="ssr:stedsnr" v="444238" />
	</node>
	<node id="-796607" lat="71.0207805633" lon="25.9079247624">
		<tag k="name" v="Indre Stappen" />
		<tag k="natural" v="cape" />
		<tag k="old_name" v="Stappen, in" />
		<tag k="ssr:stedsnr" v="444237" />
	</node>
	<node id="-796606" lat="71.0423138943" lon="26.0999969593">
		<tag k="name" v="Avløysingsbukta" />
		<tag k="natural" v="bay" />
		<tag k="ssr:stedsnr" v="444231" />
	</node>
	<node id="-796604" lat="71.0888888983" lon="27.0166663008">
		<tag k="name" v="Sværholthavet" />
		<tag k="place" v="sea" />
		<tag k="ssr:stedsnr" v="424403" />
	</node>
	<node id="-796600" lat="71.0545333403" lon="25.9197692094">
		<tag k="name" v="Oksen" />
		<tag k="natural" v="cape" />
		<tag k="ssr:stedsnr" v="268265" />
	</node>
	<node id="-796599" lat="71.0473472276" lon="25.9090775487">
		<tag k="name" v="Vika" />
		<tag k="natural" v="bay" />
		<tag k="ssr:stedsnr" v="268245" />
	</node>
	<node id="-796598" lat="71.1169444525" lon="25.416666481">
		<tag k="name" v="Sandholmbåen" />
		<tag k="natural" v="shoal" />
		<tag k="place" v="locality" />
		<tag k="ssr:stedsnr" v="267869" />
	</node>
	<node id="-796596" lat="71.0948416753" lon="25.3277470352">
		<tag k="name" v="Langnesbukta" />
		<tag k="natural" v="bay" />
		<tag k="ssr:stedsnr" v="267268" />
	</node>
	<node id="-796595" lat="71.0963138929" lon="25.3567803673">
		<tag k="fixme" v="consider seamark:type=rock or natural=shoal" />
		<tag k="name" v="Oddeskjæret" />
		<tag k="place" v="islet" />
		<tag k="ssr:stedsnr" v="267267" />
	</node>
	<node id="-796594" lat="71.1020777863" lon="25.3775498247">
		<tag k="name" v="Walsøneset" />
		<tag k="natural" v="cape" />
		<tag k="ssr:stedsnr" v="267264" />
	</node>
	<node id="-796591" lat="71.119191671" lon="25.2670748282">
		<tag k="name" v="Ramnholmskalven" />
		<tag k="natural" v="shoal" />
		<tag k="place" v="locality" />
		<tag k="ssr:stedsnr" v="263755" />
	</node>
	<node id="-796590" lat="71.1231250062" lon="25.3719637088">
		<tag k="fixme" v="consider seamark:type=rock or natural=shoal" />
		<tag k="name" v="Bukkstappskjæran" />
		<tag k="place" v="islet" />
		<tag k="ssr:stedsnr" v="263754" />
	</node>
	<node id="-796589" lat="71.1645194457" lon="25.5447331391">
		<tag k="name" v="Vesterkeila" />
		<tag k="natural" v="bay" />
		<tag k="ssr:stedsnr" v="263707" />
	</node>
	<node id="-796588" lat="71.1653888909" lon="25.5522942489">
		<tag k="name" v="Kjerkeneset" />
		<tag k="natural" v="cape" />
		<tag k="ssr:stedsnr" v="263701" />
	</node>
	<node id="-796587" lat="70.9808416707" lon="25.722149786">
		<tag k="name" v="Ole Arntsavika" />
		<tag k="natural" v="bay" />
		<tag k="ssr:stedsnr" v="263474" />
	</node>
	<node id="-796586" lat="70.9764722288" lon="25.7368386557">
		<tag k="name" v="Ole Arntsagrunnen" />
		<tag k="natural" v="shoal" />
		<tag k="place" v="locality" />
		<tag k="ssr:stedsnr" v="263472" />
	</node>
	<node id="-796584" lat="71.0335166766" lon="25.8264497689">
		<tag k="alt_name:no" v="Magerøy" />
		<tag k="name" v="Magerøya - Máhkarávju" />
		<tag k="name:no" v="Magerøya" />
		<tag k="name:se" v="Máhkarávju" />
		<tag k="old_name:se" v="Makkaravjo" />
		<tag k="place" v="island" />
		<tag k="ssr:stedsnr" v="263465" />
	</node>
	<node id="-796582" lat="71.0351250041" lon="25.3191942689">
		<tag k="name" v="Vearaidnjárga" />
		<tag k="name:se" v="Vearaidnjárga" />
		<tag k="natural" v="cape" />
		<tag k="old_name:se" v="Væraidnjarga" />
		<tag k="ssr:stedsnr" v="263358" />
	</node>
	<node id="-796577" lat="70.8079777885" lon="25.7566025385">
		<tag k="name" v="Langstranda - Lorttá" />
		<tag k="name:no" v="Langstranda" />
		<tag k="name:se" v="Lorttá" />
		<tag k="natural" v="beach" />
		<tag k="old_name:se" v="Lårta" />
		<tag k="place" v="locality" />
		<tag k="ssr:stedsnr" v="263109" />
	</node>
	<node id="-796574" lat="70.8959361175" lon="25.5749803595">
		<tag k="name" v="Lilleholmen" />
		<tag k="place" v="islet" />
		<tag k="ssr:stedsnr" v="263054" />
	</node>
	<node id="-796573" lat="70.8908833376" lon="25.565180341">
		<tag k="name" v="Storholmen" />
		<tag k="place" v="islet" />
		<tag k="ssr:stedsnr" v="263051" />
	</node>
	<node id="-796566" lat="71.0904000035" lon="25.4516859364">
		<tag k="name" v="Gullholmen" />
		<tag k="place" v="islet" />
		<tag k="ssr:stedsnr" v="262346" />
	</node>
	<node id="-796565" lat="71.1026000096" lon="25.4252470316">
		<tag k="alt_name" v="Store Melkøy" />
		<tag k="fixme" v="multiple name tags, choose one and add the other to alt_name" />
		<tag k="name" v="Melkøya;Store Melkøya" />
		<tag k="place" v="island" />
		<tag k="ssr:stedsnr" v="262338" />
	</node>
	<node id="-796564" lat="71.0564000094" lon="25.8960497776">
		<tag k="alt_name" v="Krikkenes" />
		<tag k="fixme" v="multiple name tags, choose one and add the other to alt_name" />
		<tag k="name" v="Krikenes;Krykjeneset" />
		<tag k="natural" v="cape" />
		<tag k="ssr:stedsnr" v="262285" />
	</node>
	<node id="-796562" lat="71.0260472267" lon="26.0316108578">
		<tag k="fixme" v="consider seamark:type=rock or natural=shoal" />
		<tag k="name" v="Selvågskjæret" />
		<tag k="place" v="islet" />
		<tag k="ssr:stedsnr" v="262261" />
	</node>
	<node id="-796561" lat="71.0416194504" lon="25.9332664197">
		<tag k="name" v="Snørvikneset" />
		<tag k="natural" v="cape" />
		<tag k="ssr:stedsnr" v="262249" />
	</node>
	<node id="-796560" lat="71.0453166735" lon="26.3139108429">
		<tag k="name" v="Storegrunnen" />
		<tag k="natural" v="shoal" />
		<tag k="place" v="locality" />
		<tag k="ssr:stedsnr" v="262246" />
	</node>
	<node id="-796559" lat="70.873897224" lon="25.9035108751">
		<tag k="name" v="Hjellneset" />
		<tag k="natural" v="cape" />
		<tag k="ssr:stedsnr" v="262189" />
	</node>
	<node id="-796558" lat="70.8961138997" lon="25.8802969755">
		<tag k="name" v="Finnroran" />
		<tag k="natural" v="cape" />
		<tag k="ssr:stedsnr" v="262180" />
	</node>
	<node id="-796557" lat="70.9691777848" lon="25.8212525428">
		<tag k="name" v="Lille Altsula" />
		<tag k="place" v="islet" />
		<tag k="ssr:stedsnr" v="262176" />
	</node>
	<node id="-796556" lat="70.8267861131" lon="25.869724756">
		<tag k="name" v="Tipsen" />
		<tag k="natural" v="shoal" />
		<tag k="place" v="locality" />
		<tag k="ssr:stedsnr" v="262157" />
	</node>
	<node id="-796551" lat="70.9401888941" lon="25.4986192352">
		<tag k="name" v="Magerøysundet - Máhkarainuorri" />
		<tag k="name:no" v="Magerøysundet" />
		<tag k="name:se" v="Máhkarainuorri" />
		<tag k="natural" v="strait" />
		<tag k="old_name:se" v="Makkarajnuorri" />
		<tag k="ssr:stedsnr" v="262060" />
	</node>
	<node id="-796545" lat="70.7225000038" lon="25.6238886706">
		<tag k="name" v="Innerbuktgrunnen" />
		<tag k="natural" v="shoal" />
		<tag k="place" v="locality" />
		<tag k="ssr:stedsnr" v="230448" />
	</node>
	<node id="-796540" lat="70.7611972309" lon="25.6016997765">
		<tag k="name" v="Gammelstranda" />
		<tag k="natural" v="beach" />
		<tag k="place" v="locality" />
		<tag k="ssr:stedsnr" v="211704" />
	</node>
	<node id="-796537" lat="70.7517805649" lon="25.6752136505">
		<tag k="name" v="Storøra" />
		<tag k="natural" v="cape" />
		<tag k="ssr:stedsnr" v="211558" />
	</node>
	<node id="-796535" lat="70.7529388914" lon="25.664471991">
		<tag k="name" v="Fortunabukta" />
		<tag k="natural" v="bay" />
		<tag k="ssr:stedsnr" v="211554" />
	</node>
	<node id="-796534" lat="70.8908055598" lon="25.5281942388">
		<tag k="bay" v="fjord" />
		<tag k="name" v="Lafjorden" />
		<tag k="natural" v="bay" />
		<tag k="ssr:stedsnr" v="210906" />
	</node>
	<node id="-796533" lat="71.1341666725" lon="26.4666663747">
		<tag k="name" v="Øvergrunnen" />
		<tag k="natural" v="shoal" />
		<tag k="place" v="locality" />
		<tag k="ssr:stedsnr" v="210879" />
	</node>
	<node id="-796532" lat="71.0501833372" lon="25.2413720518">
		<tag k="name" v="Møljeholet" />
		<tag k="natural" v="strait" />
		<tag k="ssr:stedsnr" v="210875" />
	</node>
	<node id="-796531" lat="70.8131472294" lon="25.8424136397">
		<tag k="name" v="Spira" />
		<tag k="natural" v="cape" />
		<tag k="ssr:stedsnr" v="210560" />
	</node>
	<node id="-796530" lat="70.813572231" lon="25.8152608849">
		<tag k="name" v="Salen" />
		<tag k="place" v="locality" />
		<tag k="ssr:stedsnr" v="210557" />
	</node>
	<node id="-796528" lat="70.8682861204" lon="25.8385525414">
		<tag k="name" v="Lille Risvika" />
		<tag k="natural" v="bay" />
		<tag k="ssr:stedsnr" v="208560" />
	</node>
	<node id="-796526" lat="70.9789361154" lon="26.0322469673">
		<tag k="name" v="Neset" />
		<tag k="natural" v="cape" />
		<tag k="ssr:stedsnr" v="208482" />
	</node>
	<node id="-796525" lat="70.9808555598" lon="26.0379914274">
		<tag k="name" v="Vika" />
		<tag k="natural" v="bay" />
		<tag k="ssr:stedsnr" v="208479" />
	</node>
	<node id="-796522" lat="70.9720666672" lon="25.799166447">
		<tag k="name" v="Smineset" />
		<tag k="natural" v="cape" />
		<tag k="ssr:stedsnr" v="207825" />
	</node>
	<node id="-796520" lat="70.8791500078" lon="25.7291442164">
		<tag k="name" v="Innersaris" />
		<tag k="natural" v="bay" />
		<tag k="ssr:stedsnr" v="207566" />
	</node>
	<node id="-796515" lat="71.0974666692" lon="25.4020109367">
		<tag k="name" v="Kobbeneset" />
		<tag k="natural" v="cape" />
		<tag k="ssr:stedsnr" v="207305" />
	</node>
	<node id="-796512" lat="70.738391669" lon="25.6587692255">
		<tag k="name" v="Postkeila" />
		<tag k="natural" v="bay" />
		<tag k="ssr:stedsnr" v="202977" />
	</node>
	<node id="-796510" lat="71.1419694513" lon="25.3371609381">
		<tag k="name" v="Storstappen" />
		<tag k="place" v="island" />
		<tag k="ssr:stedsnr" v="202749" />
	</node>
	<node id="-796509" lat="71.1079611131" lon="25.4836803503">
		<tag k="name" v="Gampollen" />
		<tag k="natural" v="bay" />
		<tag k="ssr:stedsnr" v="202741" />
	</node>
	<node id="-796507" lat="71.1658611186" lon="25.7102803479">
		<tag k="bay" v="fjord" />
		<tag k="name" v="Knivskjelbukta" />
		<tag k="natural" v="bay" />
		<tag k="ssr:stedsnr" v="202709" />
	</node>
	<node id="-796503" lat="70.9748472258" lon="25.7101053501">
		<tag k="name" v="Studentervika" />
		<tag k="natural" v="bay" />
		<tag k="ssr:stedsnr" v="202454" />
	</node>
	<node id="-796501" lat="71.1577166719" lon="25.5715387013">
		<tag k="alt_name" v="Sandfjorden" />
		<tag k="bay" v="fjord" />
		<tag k="name" v="Sandstrandfjorden" />
		<tag k="natural" v="bay" />
		<tag k="ssr:stedsnr" v="202405" />
	</node>
	<node id="-796498" lat="71.0982472311" lon="25.6878470111">
		<tag k="name" v="Elvevika" />
		<tag k="natural" v="bay" />
		<tag k="ssr:stedsnr" v="202354" />
	</node>
	<node id="-796497" lat="71.0918777799" lon="25.2731553778">
		<tag k="name" v="Bukkelibukta" />
		<tag k="natural" v="bay" />
		<tag k="ssr:stedsnr" v="202351" />
	</node>
	<node id="-796496" lat="71.1076250042" lon="25.4608998004">
		<tag k="name" v="Oarjjit Čuvgesnjárga" />
		<tag k="name:se" v="Oarjjit Čuvgesnjárga" />
		<tag k="natural" v="cape" />
		<tag k="old_name:se" v="Čuvgesnjarga, oarjit" />
		<tag k="ssr:stedsnr" v="202346" />
	</node>
	<node id="-796495" lat="71.1269777808" lon="26.0290358637">
		<tag k="name" v="Fuglenæringen" />
		<tag k="natural" v="cape" />
		<tag k="ssr:stedsnr" v="202345" />
	</node>
	<node id="-796494" lat="71.1448611167" lon="25.9653303156">
		<tag k="name" v="Skinnstakkgrunnen" />
		<tag k="natural" v="shoal" />
		<tag k="place" v="locality" />
		<tag k="ssr:stedsnr" v="202337" />
	</node>
	<node id="-796493" lat="71.0279027823" lon="25.5356359032">
		<tag k="name" v="Austerbotn - Skadjagohppi" />
		<tag k="name:no" v="Austerbotn" />
		<tag k="name:se" v="Skadjagohppi" />
		<tag k="natural" v="bay" />
		<tag k="old_name:se" v="Skaddijagåppi" />
		<tag k="ssr:stedsnr" v="202326" />
	</node>
	<node id="-796491" lat="71.0345555595" lon="25.4262720473">
		<tag k="name" v="Kobbholet" />
		<tag k="natural" v="bay" />
		<tag k="ssr:stedsnr" v="202321" />
	</node>
	<node id="-796490" lat="71.0958833434" lon="26.0872997528">
		<tag k="name" v="Vesterryggen" />
		<tag k="natural" v="shoal" />
		<tag k="place" v="locality" />
		<tag k="ssr:stedsnr" v="202299" />
	</node>
	<node id="-796489" lat="71.0967111129" lon="26.0104108663">
		<tag k="name" v="Reinviknæringen" />
		<tag k="natural" v="cape" />
		<tag k="ssr:stedsnr" v="202298" />
	</node>
	<node id="-796488" lat="70.8893583423" lon="25.8291664274">
		<tag k="name" v="Vesterneset - Urluovtnjárga" />
		<tag k="name:no" v="Vesterneset" />
		<tag k="name:se" v="Urluovtnjárga" />
		<tag k="natural" v="cape" />
		<tag k="old_name:se" v="Urluovtnjarga" />
		<tag k="ssr:stedsnr" v="202177" />
	</node>
	<node id="-796487" lat="70.7583083431" lon="26.1396997236">
		<tag k="name" v="Sinkelvika" />
		<tag k="natural" v="bay" />
		<tag k="ssr:stedsnr" v="202169" />
	</node>
	<node id="-796485" lat="70.9623000043" lon="26.6556274467">
		<tag k="alt_name" v="Eidbukta" />
		<tag k="name" v="Eidsbukta" />
		<tag k="natural" v="bay" />
		<tag k="ssr:stedsnr" v="202142" />
	</node>
	<node id="-796483" lat="70.7516861138" lon="25.6127525567">
		<tag k="name" v="Strandneset" />
		<tag k="natural" v="cape" />
		<tag k="ssr:stedsnr" v="202079" />
	</node>
	<node id="-796479" lat="70.9944138963" lon="25.9622747714">
		<tag k="name" v="Storbukta" />
		<tag k="natural" v="bay" />
		<tag k="ssr:stedsnr" v="202067" />
	</node>
	<node id="-796478" lat="70.934972223" lon="25.5575886845">
		<tag k="name" v="Skattøra - Skáhternjárga" />
		<tag k="name:no" v="Skattøra" />
		<tag k="name:se" v="Skáhternjárga" />
		<tag k="natural" v="cape" />
		<tag k="old_name:se" v="Skatternjarga;Skatternjárga" />
		<tag k="ssr:stedsnr" v="202060" />
	</node>
	<node id="-796477" lat="70.9399166694" lon="25.6182331135">
		<tag k="fixme" v="multiple name tags, choose one and add the other to alt_name" />
		<tag k="name" v="Helleneset;Hollaneset" />
		<tag k="natural" v="cape" />
		<tag k="ssr:stedsnr" v="202041" />
	</node>
	<node id="-796476" lat="70.9072500095" lon="25.6984219928">
		<tag k="name" v="Kåfjordnova - Šlimmenjárga" />
		<tag k="name:no" v="Kåfjordnova" />
		<tag k="name:se" v="Šlimmenjárga" />
		<tag k="natural" v="cape" />
		<tag k="old_name:se" v="Slimmenjarga" />
		<tag k="ssr:stedsnr" v="202029" />
	</node>
	<node id="-796475" lat="70.8718805616" lon="25.4375386898">
		<tag k="alt_name" v="Storebukta" />
		<tag k="name" v="Storvika" />
		<tag k="natural" v="bay" />
		<tag k="ssr:stedsnr" v="202014" />
	</node>
	<node id="-796472" lat="70.7572361166" lon="25.6060164455">
		<tag k="name" v="Kvalneset" />
		<tag k="natural" v="cape" />
		<tag k="ssr:stedsnr" v="174749" />
	</node>
	<node id="-796470" lat="71.1558416673" lon="25.7169303507">
		<tag k="name" v="Mosesholet" />
		<tag k="natural" v="bay" />
		<tag k="ssr:stedsnr" v="169967" />
	</node>
	<node id="-796469" lat="70.9507583378" lon="25.8289108652">
		<tag k="name" v="Austre Grunnen" />
		<tag k="natural" v="shoal" />
		<tag k="place" v="locality" />
		<tag k="ssr:stedsnr" v="169703" />
	</node>
	<node id="-796468" lat="71.0756583384" lon="25.9070164307">
		<tag k="name" v="Trevikneset" />
		<tag k="natural" v="cape" />
		<tag k="ssr:stedsnr" v="169354" />
	</node>
	<node id="-796467" lat="71.1097166681" lon="25.3155998251">
		<tag k="fixme" v="consider seamark:type=rock or natural=shoal" />
		<tag k="name" v="Hompskjæret" />
		<tag k="place" v="islet" />
		<tag k="ssr:stedsnr" v="169104" />
	</node>
	<node id="-796466" lat="70.759847227" lon="25.6418386585">
		<tag k="name" v="Austre Strandgrunnen" />
		<tag k="natural" v="shoal" />
		<tag k="place" v="locality" />
		<tag k="ssr:stedsnr" v="169014" />
	</node>
	<node id="-796462" lat="70.742386112" lon="25.667294225">
		<tag k="name" v="Kjosen" />
		<tag k="natural" v="bay" />
		<tag k="ssr:stedsnr" v="150680" />
	</node>
	<node id="-796458" lat="70.7505861156" lon="25.6657108763">
		<tag k="name" v="Fiskebukta" />
		<tag k="natural" v="bay" />
		<tag k="ssr:stedsnr" v="150554" />
	</node>
	<node id="-796456" lat="70.8290194473" lon="25.7853192065">
		<tag k="name" v="Skipsvika" />
		<tag k="natural" v="bay" />
		<tag k="ssr:stedsnr" v="149557" />
	</node>
	<node id="-796454" lat="71.1215666696" lon="25.8166303352">
		<tag k="alt_name" v="Vestfjordgrunnen" />
		<tag k="name" v="Storflua" />
		<tag k="place" v="locality" />
		<tag k="seamark:type" v="rock" />
		<tag k="ssr:stedsnr" v="147456" />
	</node>
	<node id="-796448" lat="70.8820694493" lon="25.8628136573">
		<tag k="name" v="Mola" />
		<tag k="natural" v="cape" />
		<tag k="ssr:stedsnr" v="145979" />
	</node>
	<node id="-796446" lat="71.1332305607" lon="25.5901470246">
		<tag k="name" v="Njálbmenjárga" />
		<tag k="name:se" v="Njálbmenjárga" />
		<tag k="natural" v="cape" />
		<tag k="old_name:se" v="Njalbmenjarga" />
		<tag k="ssr:stedsnr" v="141722" />
	</node>
	<node id="-796445" lat="71.1241083324" lon="25.3386609438">
		<tag k="name" v="Seingsholmen" />
		<tag k="place" v="islet" />
		<tag k="ssr:stedsnr" v="141716" />
	</node>
	<node id="-796444" lat="71.1199388944" lon="25.3095359397">
		<tag k="fixme" v="multiple name tags, choose one and add the other to alt_name" />
		<tag k="name" v="Austre Ramnholman;Ramnholman" />
		<tag k="place" v="islet" />
		<tag k="ssr:stedsnr" v="141717" />
	</node>
	<node id="-796443" lat="71.1399722285" lon="25.3365942608">
		<tag k="name" v="Gjesværstappan" />
		<tag k="place" v="island" />
		<tag k="ssr:stedsnr" v="141712" />
	</node>
	<node id="-796439" lat="71.0968055596" lon="25.6136386822">
		<tag k="name" v="Ráktinjárga" />
		<tag k="name:se" v="Ráktinjárga" />
		<tag k="natural" v="cape" />
		<tag k="old_name:se" v="Raktinjarga" />
		<tag k="ssr:stedsnr" v="141372" />
	</node>
	<node id="-796437" lat="71.0369138907" lon="25.2501887147">
		<tag k="name" v="Sølvnasa" />
		<tag k="natural" v="cape" />
		<tag k="ssr:stedsnr" v="141336" />
	</node>
	<node id="-796436" lat="71.0794111136" lon="25.9149914348">
		<tag k="alt_name" v="Trevika, in" />
		<tag k="name" v="Indre Trevika" />
		<tag k="natural" v="bay" />
		<tag k="ssr:stedsnr" v="141311" />
	</node>
	<node id="-796431" lat="70.7721750057" lon="26.091316392">
		<tag k="name" v="Boiet" />
		<tag k="natural" v="shoal" />
		<tag k="place" v="locality" />
		<tag k="ssr:stedsnr" v="141174" />
	</node>
	<node id="-796430" lat="70.889411119" lon="26.4160552531">
		<tag k="alt_name:no" v="Rekvika, in" />
		<tag k="name" v="Indre Rekvika - Siskkit Golgadeapmi" />
		<tag k="name:no" v="Indre Rekvika" />
		<tag k="name:se" v="Siskkit Golgadeapmi" />
		<tag k="natural" v="bay" />
		<tag k="old_name:se" v="Gålgadæbmi siskit" />
		<tag k="ssr:stedsnr" v="141166" />
	</node>
	<node id="-796429" lat="70.9658333459" lon="26.6643107776">
		<tag k="name" v="Vesterneset" />
		<tag k="natural" v="cape" />
		<tag k="ssr:stedsnr" v="141146" />
	</node>
	<node id="-796428" lat="70.8407694539" lon="25.5717636732">
		<tag k="name" v="Skuohtanjárga" />
		<tag k="name:se" v="Skuohtanjárga" />
		<tag k="natural" v="cape" />
		<tag k="old_name:se" v="Skuottanjarga" />
		<tag k="ssr:stedsnr" v="141126" />
	</node>
	<node id="-796426" lat="70.9083250068" lon="25.5369831413">
		<tag k="name" v="Vassvika - Skálžoluokta" />
		<tag k="name:no" v="Vassvika" />
		<tag k="name:se" v="Skálžoluokta" />
		<tag k="natural" v="bay" />
		<tag k="old_name:se" v="Skalžuluokta" />
		<tag k="ssr:stedsnr" v="141049" />
	</node>
	<node id="-796425" lat="70.8913833408" lon="25.6921442213">
		<tag k="name" v="Vesterpollen - Skuohtavuotna" />
		<tag k="name:no" v="Vesterpollen" />
		<tag k="name:se" v="Skuohtavuotna" />
		<tag k="natural" v="bay" />
		<tag k="old_name:se" v="Skuottavuodna" />
		<tag k="ssr:stedsnr" v="141046" />
	</node>
	<node id="-796417" lat="71.0100861213" lon="25.9769830835">
		<tag k="name" v="Nordmannset" />
		<tag k="natural" v="cape" />
		<tag k="ssr:stedsnr" v="141275" />
	</node>
	<node id="-796414" lat="70.7399472255" lon="25.6501914496">
		<tag k="name" v="Innerbukta - Boktu" />
		<tag k="name:no" v="Innerbukta" />
		<tag k="name:se" v="Boktu" />
		<tag k="natural" v="bay" />
		<tag k="old_name:se" v="Båkto" />
		<tag k="ssr:stedsnr" v="140949" />
	</node>
	<node id="-796413" lat="71.0990611119" lon="25.273530384">
		<tag k="name" v="Gjesværnæringen" />
		<tag k="natural" v="cape" />
		<tag k="ssr:stedsnr" v="140728" />
	</node>
	<node id="-796412" lat="71.1152555609" lon="25.3452970432">
		<tag k="alt_name" v="Lyngøya, l" />
		<tag k="name" v="Lille Lyngøya" />
		<tag k="place" v="islet" />
		<tag k="ssr:stedsnr" v="140716" />
	</node>
	<node id="-796411" lat="71.119177784" lon="25.6227136841">
		<tag k="name" v="Brygga" />
		<tag k="natural" v="cape" />
		<tag k="ssr:stedsnr" v="140712" />
	</node>
	<node id="-796410" lat="71.1170888942" lon="25.5206886848">
		<tag k="fixme" v="consider seamark:type=rock or natural=shoal" />
		<tag k="name" v="Kaka" />
		<tag k="place" v="islet" />
		<tag k="ssr:stedsnr" v="140709" />
	</node>
	<node id="-796409" lat="71.0629750027" lon="26.1208580809">
		<tag k="name" v="Austerryggen" />
		<tag k="natural" v="shoal" />
		<tag k="place" v="locality" />
		<tag k="ssr:stedsnr" v="140307" />
	</node>
	<node id="-796408" lat="71.0594527792" lon="25.8734747698">
		<tag k="name" v="Kvalvika" />
		<tag k="natural" v="bay" />
		<tag k="ssr:stedsnr" v="140305" />
	</node>
	<node id="-796406" lat="70.8412388938" lon="25.8296192137">
		<tag k="name" v="Ytter-Rasskeila - Olggut Bahtaváhki" />
		<tag k="name:no" v="Ytter-Rasskeila" />
		<tag k="name:se" v="Olggut Bahtaváhki" />
		<tag k="natural" v="bay" />
		<tag k="old_name:se" v="Battavakki ålgot" />
		<tag k="ssr:stedsnr" v="140173" />
	</node>
	<node id="-796405" lat="70.8675222312" lon="25.8511191978">
		<tag k="name" v="Risvika" />
		<tag k="natural" v="bay" />
		<tag k="ssr:stedsnr" v="140169" />
	</node>
	<node id="-796404" lat="70.9534250094" lon="25.8654580924">
		<tag k="name" v="Austernova" />
		<tag k="natural" v="cape" />
		<tag k="ssr:stedsnr" v="140159" />
	</node>
	<node id="-796403" lat="71.0198944466" lon="25.9490080883">
		<tag k="fixme" v="consider seamark:type=rock or natural=shoal" />
		<tag k="name" v="Finnvikskjæret" />
		<tag k="place" v="islet" />
		<tag k="ssr:stedsnr" v="140267" />
	</node>
	<node id="-796398" lat="71.1003000108" lon="26.410616379">
		<tag k="name" v="Klakken" />
		<tag k="natural" v="shoal" />
		<tag k="place" v="locality" />
		<tag k="ssr:stedsnr" v="109516" />
	</node>
	<node id="-796397" lat="71.1046250012" lon="25.3817942625">
		<tag k="name" v="Avløysingen" />
		<tag k="place" v="islet" />
		<tag k="ssr:stedsnr" v="109144" />
	</node>
	<node id="-796396" lat="70.7644333424" lon="25.6492803358">
		<tag k="name" v="Strandgrunnen" />
		<tag k="natural" v="shoal" />
		<tag k="place" v="locality" />
		<tag k="ssr:stedsnr" v="109013" />
	</node>
	<node id="-796392" lat="70.7861833367" lon="25.7044636499">
		<tag k="name" v="Seivikneset" />
		<tag k="natural" v="cape" />
		<tag k="ssr:stedsnr" v="90693" />
	</node>
	<node id="-796388" lat="70.7492027818" lon="25.7431664326">
		<tag k="name" v="Spira" />
		<tag k="natural" v="cape" />
		<tag k="ssr:stedsnr" v="89567" />
	</node>
	<node id="-796387" lat="70.9763000093" lon="25.9716192069">
		<tag k="name" v="Menesbukta" />
		<tag k="natural" v="bay" />
		<tag k="ssr:stedsnr" v="88860" />
	</node>
	<node id="-796386" lat="70.974500007" lon="25.8024358767">
		<tag k="name" v="Sætervågen" />
		<tag k="natural" v="bay" />
		<tag k="ssr:stedsnr" v="88742" />
	</node>
	<node id="-796382" lat="70.976647224" lon="25.8195497652">
		<tag k="name" v="Alfbaklia" />
		<tag k="natural" v="bay" />
		<tag k="ssr:stedsnr" v="86828" />
	</node>
	<node id="-796380" lat="70.8330611137" lon="25.8094553296">
		<tag k="name" v="Husvikklubben" />
		<tag k="natural" v="cape" />
		<tag k="ssr:stedsnr" v="86527" />
	</node>
	<node id="-796379" lat="70.8322444551" lon="25.8096886494">
		<tag k="name" v="Husvika" />
		<tag k="natural" v="bay" />
		<tag k="ssr:stedsnr" v="86526" />
	</node>
	<node id="-796374" lat="71.0531055655" lon="25.8907275436">
		<tag k="name" v="Krikkbukta" />
		<tag k="natural" v="bay" />
		<tag k="ssr:stedsnr" v="86245" />
	</node>
	<node id="-796373" lat="71.184722226" lon="25.2166664992">
		<tag k="name" v="Solen" />
		<tag k="natural" v="shoal" />
		<tag k="place" v="locality" />
		<tag k="ssr:stedsnr" v="85832" />
	</node>
	<node id="-796372" lat="71.184722226" lon="25.2166664992">
		<tag k="name" v="Leira" />
		<tag k="natural" v="shoal" />
		<tag k="place" v="locality" />
		<tag k="ssr:stedsnr" v="85829" />
	</node>
	<node id="-796370" lat="70.8962055627" lon="25.7830692245">
		<tag k="name" v="Ytre Gargo" />
		<tag k="natural" v="bay" />
		<tag k="ssr:stedsnr" v="85384" />
	</node>
	<node id="-796369" lat="71.1332916682" lon="25.7879831098">
		<tag k="name" v="Indre Brødsteinbukta" />
		<tag k="natural" v="bay" />
		<tag k="old_name" v="Brødsteinbukta, in" />
		<tag k="ssr:stedsnr" v="81750" />
	</node>
	<node id="-796368" lat="71.1562444533" lon="25.8037220064">
		<tag k="name" v="Hornvika" />
		<tag k="natural" v="bay" />
		<tag k="ssr:stedsnr" v="81721" />
	</node>
	<node id="-796366" lat="71.1032250094" lon="25.5765914689">
		<tag k="bay" v="fjord" />
		<tag k="name" v="Risfjorden - Rissevuotna" />
		<tag k="name:no" v="Risfjorden" />
		<tag k="name:se" v="Rissevuotna" />
		<tag k="natural" v="bay" />
		<tag k="old_name:se" v="Rissevuodna" />
		<tag k="ssr:stedsnr" v="81417" />
	</node>
	<node id="-796364" lat="71.0739333351" lon="25.312088701">
		<tag k="fixme" v="multiple name tags, choose one and add the other to alt_name; consider seamark:type=rock or natural=shoal" />
		<tag k="name" v="Hollenderskjæret;Hollendarskjæran" />
		<tag k="place" v="islet" />
		<tag k="ssr:stedsnr" v="81396" />
	</node>
	<node id="-796362" lat="71.0228361159" lon="25.5470775853">
		<tag k="name" v="Svarthola - Nealgesoggi" />
		<tag k="name:no" v="Svarthola" />
		<tag k="name:se" v="Nealgesoggi" />
		<tag k="natural" v="bay" />
		<tag k="old_name:se" v="Nælgesåggi" />
		<tag k="ssr:stedsnr" v="81356" />
	</node>
	<node id="-796361" lat="71.0537138917" lon="25.2546637116">
		<tag k="name" v="Valsevika" />
		<tag k="natural" v="bay" />
		<tag k="ssr:stedsnr" v="81340" />
	</node>
	<node id="-796358" lat="71.0888138976" lon="25.9929664321">
		<tag k="name" v="Trollviknæringen" />
		<tag k="natural" v="cape" />
		<tag k="ssr:stedsnr" v="81316" />
	</node>
	<node id="-796357" lat="71.1277777854" lon="26.0628497523">
		<tag k="name" v="Jarnsteinbåen" />
		<tag k="natural" v="shoal" />
		<tag k="place" v="locality" />
		<tag k="ssr:stedsnr" v="81308" />
	</node>
	<node id="-796355" lat="71.0134916718" lon="26.1836858551">
		<tag k="name" v="Hundvikneset" />
		<tag k="natural" v="cape" />
		<tag k="ssr:stedsnr" v="81297" />
	</node>
	<node id="-796354" lat="71.0073861189" lon="26.1614747496">
		<tag k="name" v="Russelva" />
		<tag k="natural" v="cape" />
		<tag k="ssr:stedsnr" v="81292" />
	</node>
	<node id="-796352" lat="70.7794027852" lon="25.6569803293">
		<tag k="name" v="Lomholet" />
		<tag k="natural" v="bay" />
		<tag k="ssr:stedsnr" v="81094" />
	</node>
	<node id="-796348" lat="70.7533972291" lon="25.7449192235">
		<tag k="name" v="Skjåholmen - Skadjasuolu" />
		<tag k="name:no" v="Skjåholmen" />
		<tag k="name:se" v="Skadjasuolu" />
		<tag k="old_name:se" v="Skaddjasuolo" />
		<tag k="place" v="islet" />
		<tag k="ssr:stedsnr" v="80971" />
	</node>
	<node id="-796347" lat="71.1045027783" lon="25.3000665015">
		<tag k="name" v="Molvikholman" />
		<tag k="place" v="islet" />
		<tag k="ssr:stedsnr" v="80731" />
	</node>
	<node id="-796344" lat="70.9691777857" lon="25.4736748145">
		<tag k="name" v="Springneset" />
		<tag k="natural" v="cape" />
		<tag k="ssr:stedsnr" v="80447" />
	</node>
	<node id="-796341" lat="71.0555361154" lon="25.9098886549">
		<tag k="name" v="Lille Kamøya" />
		<tag k="old_name" v="Kamøya, l" />
		<tag k="place" v="island" />
		<tag k="ssr:stedsnr" v="80317" />
	</node>
	<node id="-796340" lat="71.0537638923" lon="25.9777192111">
		<tag k="name" v="Snaget" />
		<tag k="natural" v="cape" />
		<tag k="ssr:stedsnr" v="80315" />
	</node>
	<node id="-796339" lat="71.0573111217" lon="26.160624733">
		<tag k="name" v="Røykholneset" />
		<tag k="natural" v="cape" />
		<tag k="ssr:stedsnr" v="80313" />
	</node>
	<node id="-796338" lat="71.0697638977" lon="25.8796386735">
		<tag k="bay" v="fjord" />
		<tag k="name" v="Duksfjorden - Diksovuotna" />
		<tag k="name:no" v="Duksfjorden" />
		<tag k="name:se" v="Diksovuotna" />
		<tag k="natural" v="bay" />
		<tag k="old_name:se" v="Diksuvuodna" />
		<tag k="ssr:stedsnr" v="80305" />
	</node>
	<node id="-796337" lat="71.062075005" lon="25.8706442132">
		<tag k="fixme" v="multiple name tags, choose one and add the other to alt_name" />
		<tag k="name" v="Kvalvikneset;Troneset" />
		<tag k="natural" v="cape" />
		<tag k="ssr:stedsnr" v="80301" />
	</node>
	<node id="-796336" lat="71.042611114" lon="26.1027497445">
		<tag k="name" v="Avløysinga" />
		<tag k="natural" v="cape" />
		<tag k="ssr:stedsnr" v="80268" />
	</node>
	<node id="-796335" lat="71.0372027841" lon="25.935008105">
		<tag k="name" v="Snørvika" />
		<tag k="natural" v="bay" />
		<tag k="ssr:stedsnr" v="80267" />
	</node>
	<node id="-796332" lat="70.9567472314" lon="25.7047470039">
		<tag k="name" v="Kobbholneset" />
		<tag k="natural" v="cape" />
		<tag k="ssr:stedsnr" v="80455" />
	</node>
	<node id="-796331" lat="70.8741361142" lon="25.8613303032">
		<tag k="name" v="Porsangvika - Gihcádat" />
		<tag k="name:no" v="Porsangvika" />
		<tag k="name:se" v="Gihcádat" />
		<tag k="natural" v="bay" />
		<tag k="old_name:se" v="Giccadat" />
		<tag k="ssr:stedsnr" v="80193" />
	</node>
	<node id="-796328" lat="70.7908388964" lon="26.2245191492">
		<tag k="name" v="Djupvika" />
		<tag k="natural" v="bay" />
		<tag k="ssr:stedsnr" v="80182" />
	</node>
	<node id="-796324" lat="70.9075861171" lon="25.6163859083">
		<tag k="name" v="Gamneset" />
		<tag k="natural" v="cape" />
		<tag k="ssr:stedsnr" v="80038" />
	</node>
	<node id="-796322" lat="71.1190388954" lon="25.3009776084">
		<tag k="name" v="Vestre Ramnholman" />
		<tag k="place" v="islet" />
		<tag k="ssr:stedsnr" v="49587" />
	</node>
	<node id="-796320" lat="71.0050166694" lon="26.120688629">
		<tag k="name" v="Øra" />
		<tag k="natural" v="beach" />
		<tag k="place" v="locality" />
		<tag k="ssr:stedsnr" v="48496" />
	</node>
	<node id="-796318" lat="71.1584222314" lon="25.5266470232">
		<tag k="name" v="Hella" />
		<tag k="natural" v="shoal" />
		<tag k="place" v="locality" />
		<tag k="ssr:stedsnr" v="48211" />
	</node>
	<node id="-796315" lat="70.7841111195" lon="25.6859025575">
		<tag k="name" v="Revmola" />
		<tag k="natural" v="beach" />
		<tag k="place" v="locality" />
		<tag k="ssr:stedsnr" v="29715" />
	</node>
	<node id="-796313" lat="70.7582194483" lon="25.6933219801">
		<tag k="name" v="Skarvskjetta" />
		<tag k="natural" v="beach" />
		<tag k="place" v="locality" />
		<tag k="ssr:stedsnr" v="29558" />
	</node>
	<node id="-796312" lat="70.7512500044" lon="25.6698386557">
		<tag k="name" v="Reiffváhkki" />
		<tag k="name:se" v="Reiffváhkki" />
		<tag k="natural" v="bay" />
		<tag k="ssr:stedsnr" v="29556" />
	</node>
	<node id="-796308" lat="71.1699055602" lon="25.8020247919">
		<tag k="name" v="Lars Gunnersenvika" />
		<tag k="natural" v="bay" />
		<tag k="ssr:stedsnr" v="26485" />
	</node>
	<node id="-796307" lat="71.0991972291" lon="25.4340192727">
		<tag k="fixme" v="multiple name tags, choose one and add the other to alt_name" />
		<tag k="name" v="Lille Melkøya;Melkøya" />
		<tag k="place" v="islet" />
		<tag k="ssr:stedsnr" v="26316" />
	</node>
	<node id="-796306" lat="71.1060361109" lon="25.4460498159">
		<tag k="name" v="Store Finnstø" />
		<tag k="natural" v="bay" />
		<tag k="ssr:stedsnr" v="26310" />
	</node>
	<node id="-796305" lat="71.1050000027" lon="25.4851553614">
		<tag k="name" v="Indre Gampollen" />
		<tag k="natural" v="bay" />
		<tag k="ssr:stedsnr" v="26306" />
	</node>
	<node id="-796300" lat="70.8905305645" lon="25.7608164391">
		<tag k="name" v="Indre Gargo" />
		<tag k="natural" v="bay" />
		<tag k="ssr:stedsnr" v="25492" />
	</node>
	<node id="-796299" lat="71.0956555587" lon="25.3656942597">
		<tag k="name" v="Lille Skankeholmen" />
		<tag k="place" v="islet" />
		<tag k="ssr:stedsnr" v="25341" />
	</node>
	<node id="-796296" lat="71.1833583387" lon="25.6751970099">
		<tag k="name" v="Knivskjelodden" />
		<tag k="natural" v="cape" />
		<tag k="ssr:stedsnr" v="20745" />
	</node>
	<node id="-796295" lat="71.1524861183" lon="25.0908637298">
		<tag k="alt_name" v="Stabbegrunnen, yt" />
		<tag k="name" v="Ytre Stabbegrunnen" />
		<tag k="natural" v="shoal" />
		<tag k="place" v="locality" />
		<tag k="ssr:stedsnr" v="20679" />
	</node>
	<node id="-796292" lat="70.974288898" lon="25.4735359095">
		<tag k="name" v="Finnvika" />
		<tag k="natural" v="bay" />
		<tag k="ssr:stedsnr" v="20439" />
	</node>
	<node id="-796290" lat="71.1131555626" lon="25.789269224">
		<tag k="bay" v="fjord" />
		<tag k="name" v="Mefjorden" />
		<tag k="natural" v="bay" />
		<tag k="ssr:stedsnr" v="20401" />
	</node>
	<node id="-796286" lat="71.1068722284" lon="25.529497023">
		<tag k="name" v="Nuorttat Čuvgesnjárga" />
		<tag k="name:se" v="Nuorttat Čuvgesnjárga" />
		<tag k="natural" v="cape" />
		<tag k="old_name:se" v="Čuvgesnjarga, nuortat;Čuvgesnjárga" />
		<tag k="ssr:stedsnr" v="20337" />
	</node>
	<node id="-796285" lat="71.1298277865" lon="25.8962747628">
		<tag k="fixme" v="consider seamark:type=rock or natural=shoal" />
		<tag k="name" v="Barden" />
		<tag k="place" v="islet" />
		<tag k="ssr:stedsnr" v="20333" />
	</node>
	<node id="-796284" lat="71.129836117" lon="25.9189525616">
		<tag k="name" v="Reinskinneset" />
		<tag k="natural" v="cape" />
		<tag k="ssr:stedsnr" v="20332" />
	</node>
	<node id="-796283" lat="71.1381000071" lon="25.9776247579">
		<tag k="name" v="Skinnstakknæringen" />
		<tag k="natural" v="cape" />
		<tag k="ssr:stedsnr" v="20331" />
	</node>
	<node id="-796282" lat="71.1528666746" lon="25.9226525573">
		<tag k="name" v="Stor-Skikka" />
		<tag k="place" v="islet" />
		<tag k="ssr:stedsnr" v="20330" />
	</node>
	<node id="-796281" lat="71.0099888907" lon="25.3882192586">
		<tag k="bay" v="fjord" />
		<tag k="name" v="Vannfjorden - Váttavuotna" />
		<tag k="name:no" v="Vannfjorden" />
		<tag k="name:se" v="Váttavuotna" />
		<tag k="natural" v="bay" />
		<tag k="old_name:se" v="Vaddavuodna" />
		<tag k="ssr:stedsnr" v="20326" />
	</node>
	<node id="-796280" lat="71.0372055641" lon="25.4676525805">
		<tag k="fixme" v="multiple name tags, choose one and add the other to alt_name" />
		<tag k="name" v="Stillbukta;Vesterbotn" />
		<tag k="natural" v="bay" />
		<tag k="ssr:stedsnr" v="20324" />
	</node>
	<node id="-796277" lat="71.0514750109" lon="25.9503636438">
		<tag k="fixme" v="multiple name tags, choose one and add the other to alt_name" />
		<tag k="name" v="Kamøya;Store Kamøya - Gáhpesuolu" />
		<tag k="name:no" v="Kamøya;Store Kamøya" />
		<tag k="name:se" v="Gáhpesuolu" />
		<tag k="old_name:no" v="Kamøya, store" />
		<tag k="old_name:se" v="Gappesuolo" />
		<tag k="place" v="island" />
		<tag k="ssr:stedsnr" v="20311" />
	</node>
	<node id="-796273" lat="71.1139138941" lon="26.0400997644">
		<tag k="name" v="Opnan" />
		<tag k="natural" v="cape" />
		<tag k="ssr:stedsnr" v="20291" />
	</node>
	<node id="-796271" lat="71.0143194479" lon="26.0504025375">
		<tag k="name" v="Falkbergbukta" />
		<tag k="natural" v="bay" />
		<tag k="ssr:stedsnr" v="20275" />
	</node>
	<node id="-796267" lat="70.9761555614" lon="26.0243802978">
		<tag k="name" v="Nordvågholmen" />
		<tag k="place" v="islet" />
		<tag k="ssr:stedsnr" v="20173" />
	</node>
	<node id="-796266" lat="70.7551055591" lon="25.8258775242">
		<tag k="name" v="Sørneset" />
		<tag k="natural" v="cape" />
		<tag k="ssr:stedsnr" v="20170" />
	</node>
	<node id="-796259" lat="70.7599694542" lon="25.6910275501">
		<tag k="name" v="Hamnneskeila" />
		<tag k="natural" v="bay" />
		<tag k="ssr:stedsnr" v="20052" />
	</node>
	<node id="-796254" lat="70.8979805633" lon="25.5146164707">
		<tag k="name" v="Miššavuotna" />
		<tag k="name:se" v="Miššavuotna" />
		<tag k="natural" v="bay" />
		<tag k="old_name:se" v="Miššavuodna" />
		<tag k="ssr:stedsnr" v="20033" />
	</node>
	<node id="-796251" lat="70.8441055613" lon="25.8391997518">
		<tag k="name" v="Fjellfinnbukta" />
		<tag k="natural" v="bay" />
		<tag k="ssr:stedsnr" v="267443" />
	</node>
	<node id="-796249" lat="71.0964083385" lon="25.3727359265">
		<tag k="name" v="Valen" />
		<tag k="natural" v="bay" />
		<tag k="ssr:stedsnr" v="267277" />
	</node>
	<node id="-796248" lat="71.0966861135" lon="25.3620970312">
		<tag k="name" v="Store Skankeholmen" />
		<tag k="place" v="islet" />
		<tag k="ssr:stedsnr" v="267274" />
	</node>
	<node id="-796247" lat="70.8847833389" lon="25.7499525631">
		<tag k="name" v="Langøra" />
		<tag k="natural" v="cape" />
		<tag k="ssr:stedsnr" v="389596" />
	</node>
	<node id="-796242" lat="70.9471111201" lon="25.6398442254">
		<tag k="name" v="Lomholneset" />
		<tag k="natural" v="cape" />
		<tag k="ssr:stedsnr" v="898865" />
	</node>
	<node id="-796241" lat="70.9901611197" lon="25.9647636544">
		<tag k="name" v="Svanneset" />
		<tag k="natural" v="cape" />
		<tag k="ssr:stedsnr" v="897765" />
	</node>
	<node id="-796239" lat="71.0153777807" lon="25.964871975">
		<tag k="name" v="Nordmannsetflua" />
		<tag k="natural" v="shoal" />
		<tag k="place" v="locality" />
		<tag k="ssr:stedsnr" v="897687" />
	</node>
	<node id="-796238" lat="71.0021888928" lon="25.2150331656">
		<tag k="name" v="Vannfjordryggen" />
		<tag k="place" v="locality" />
		<tag k="ssr:stedsnr" v="899204" />
	</node>
	<node id="-796237" lat="70.8780583358" lon="25.5020886791">
		<tag k="name" v="Lafjordneset" />
		<tag k="natural" v="cape" />
		<tag k="ssr:stedsnr" v="473167" />
	</node>
	<node id="-796236" lat="71.1645555591" lon="25.570349793">
		<tag k="fixme" v="consider seamark:type=rock or natural=shoal" />
		<tag k="name" v="Svartskjæret" />
		<tag k="place" v="islet" />
		<tag k="ssr:stedsnr" v="412981" />
	</node>
	<node id="-796235" lat="71.0238916694" lon="25.9166108853">
		<tag k="name" v="Torvhamna" />
		<tag k="natural" v="bay" />
		<tag k="ssr:stedsnr" v="412661" />
	</node>
	<node id="-796213" lat="70.7866416702" lon="25.6996386704">
		<tag k="name" v="Seivika" />
		<tag k="natural" v="bay" />
		<tag k="ssr:stedsnr" v="393700" />
	</node>
	<node id="-796207" lat="70.8139500064" lon="25.8060914379">
		<tag k="name" v="Klubben" />
		<tag k="natural" v="cape" />
		<tag k="ssr:stedsnr" v="392637" />
	</node>
	<node id="-796206" lat="70.8127527858" lon="25.8156581004">
		<tag k="name" v="Innersalen" />
		<tag k="natural" v="bay" />
		<tag k="ssr:stedsnr" v="392619" />
	</node>
	<node id="-796204" lat="71.1010777828" lon="25.948785864">
		<tag k="name" v="Ohppannjárga" />
		<tag k="name:se" v="Ohppannjárga" />
		<tag k="natural" v="cape" />
		<tag k="old_name:se" v="Ohppanjárga;Åppannjarga;Åppanjarga" />
		<tag k="ssr:stedsnr" v="391671" />
	</node>
	<node id="-796194" lat="71.0969611129" lon="25.3697359252">
		<tag k="name" v="Skankebukta" />
		<tag k="natural" v="bay" />
		<tag k="ssr:stedsnr" v="388285" />
	</node>
	<node id="-796192" lat="71.1048333367" lon="25.3826220341">
		<tag k="name" v="Kalven" />
		<tag k="place" v="islet" />
		<tag k="ssr:stedsnr" v="388272" />
	</node>
	<node id="-796189" lat="71.160061112" lon="25.36995537">
		<tag k="name" v="Stukebåen" />
		<tag k="natural" v="shoal" />
		<tag k="place" v="locality" />
		<tag k="ssr:stedsnr" v="384700" />
	</node>
	<node id="-796188" lat="71.1765777819" lon="25.5699136932">
		<tag k="name" v="Storegrunnen" />
		<tag k="natural" v="shoal" />
		<tag k="place" v="locality" />
		<tag k="ssr:stedsnr" v="384696" />
	</node>
	<node id="-796187" lat="71.1339277805" lon="25.5839025764">
		<tag k="name" v="Storkjeftnova" />
		<tag k="natural" v="cape" />
		<tag k="ssr:stedsnr" v="384741" />
	</node>
	<node id="-796186" lat="71.1506333343" lon="25.7017525732">
		<tag k="name" v="Movssesnjárga" />
		<tag k="name:se" v="Movssesnjárga" />
		<tag k="natural" v="cape" />
		<tag k="old_name:se" v="Måvsesnjarga;Måvsesnjárga" />
		<tag k="ssr:stedsnr" v="384738" />
	</node>
	<node id="-796182" lat="71.0754944541" lon="25.3274053685">
		<tag k="name" v="Lyngpollen" />
		<tag k="natural" v="bay" />
		<tag k="ssr:stedsnr" v="384375" />
	</node>
	<node id="-796181" lat="71.1356055571" lon="25.9976219926">
		<tag k="name" v="Bærvika" />
		<tag k="natural" v="bay" />
		<tag k="ssr:stedsnr" v="384366" />
	</node>
	<node id="-796180" lat="71.1404416762" lon="25.9348247637">
		<tag k="alt_name" v="Storseiskolten" />
		<tag k="name" v="Storsteinskolten" />
		<tag k="natural" v="shoal" />
		<tag k="place" v="locality" />
		<tag k="ssr:stedsnr" v="384362" />
	</node>
	<node id="-796179" lat="71.0128333392" lon="25.4887525887">
		<tag k="name" v="Gjerdvika" />
		<tag k="natural" v="bay" />
		<tag k="ssr:stedsnr" v="384355" />
	</node>
	<node id="-796178" lat="71.0253638937" lon="25.225802596">
		<tag k="name" v="Svartoksgrunnen" />
		<tag k="natural" v="shoal" />
		<tag k="place" v="locality" />
		<tag k="ssr:stedsnr" v="384347" />
	</node>
	<node id="-796177" lat="71.1015444537" lon="26.2770275215">
		<tag k="name" v="Sveet" />
		<tag k="natural" v="shoal" />
		<tag k="place" v="locality" />
		<tag k="ssr:stedsnr" v="384312" />
	</node>
	<node id="-796171" lat="70.7877805595" lon="25.7296942128">
		<tag k="name" v="Ytre Mannskarvika - Olggut Máskaviika" />
		<tag k="name:no" v="Ytre Mannskarvika" />
		<tag k="name:se" v="Olggut Máskaviika" />
		<tag k="natural" v="bay" />
		<tag k="old_name:se" v="Maskaviika ålgot" />
		<tag k="ssr:stedsnr" v="384116" />
	</node>
	<node id="-796169" lat="70.7506361154" lon="25.5969025629">
		<tag k="name" v="Strandbotn - Stránddagohppi" />
		<tag k="name:no" v="Strandbotn" />
		<tag k="name:se" v="Stránddagohppi" />
		<tag k="natural" v="bay" />
		<tag k="old_name:se" v="Strandagåppi;Strandagohppi" />
		<tag k="ssr:stedsnr" v="384091" />
	</node>
	<node id="-796167" lat="70.9856305626" lon="25.9583247653">
		<tag k="name" v="Holmegrunnen" />
		<tag k="natural" v="shoal" />
		<tag k="place" v="locality" />
		<tag k="ssr:stedsnr" v="384079" />
	</node>
	<node id="-796164" lat="70.8703555642" lon="25.4905720302">
		<tag k="name" v="Nordkroken - Nuortaroahkki" />
		<tag k="name:no" v="Nordkroken" />
		<tag k="name:se" v="Nuortaroahkki" />
		<tag k="natural" v="bay" />
		<tag k="old_name:se" v="Nuortaroakki" />
		<tag k="ssr:stedsnr" v="384023" />
	</node>
	<node id="-796163" lat="70.8636722252" lon="25.473255342">
		<tag k="name" v="Kuøra" />
		<tag k="natural" v="bay" />
		<tag k="ssr:stedsnr" v="384024" />
	</node>
	<node id="-796162" lat="70.7262722285" lon="25.6682969872">
		<tag k="fixme" v="multiple name tags, choose one and add the other to alt_name" />
		<tag k="name" v="Innerneset;Repvågneset - Sisnjárga" />
		<tag k="name:no" v="Innerneset;Repvågneset" />
		<tag k="name:se" v="Sisnjárga" />
		<tag k="natural" v="cape" />
		<tag k="old_name:se" v="Sisnjarga" />
		<tag k="ssr:stedsnr" v="383955" />
	</node>
	<node id="-796159" lat="70.7250000047" lon="26.0703719599">
		<tag k="name" v="Hårvikneset - Vuohppenjárga" />
		<tag k="name:no" v="Hårvikneset" />
		<tag k="name:se" v="Vuohppenjárga" />
		<tag k="natural" v="cape" />
		<tag k="old_name:se" v="Vuoppenjarga" />
		<tag k="ssr:stedsnr" v="383556" />
	</node>
	<node id="-796157" lat="70.5593361163" lon="25.9340358344">
		<tag k="name" v="Spierttanjárga - Sværholthalvøya" />
		<tag k="name:no" v="Sværholthalvøya" />
		<tag k="name:se" v="Spierttanjárga" />
		<tag k="natural" v="cape" />
		<tag k="old_name:se" v="Spiertanjarga" />
		<tag k="ssr:stedsnr" v="383525" />
	</node>
	<node id="-796154" lat="71.0460388925" lon="25.9176053186">
		<tag k="name" v="Vassvika" />
		<tag k="natural" v="bay" />
		<tag k="ssr:stedsnr" v="383324" />
	</node>
	<node id="-796153" lat="71.0304333437" lon="26.0370358615">
		<tag k="alt_name" v="Selvåggrunnen, s" />
		<tag k="name" v="Søre Selvåggrunnen" />
		<tag k="natural" v="shoal" />
		<tag k="place" v="locality" />
		<tag k="ssr:stedsnr" v="383278" />
	</node>
	<node id="-796151" lat="70.9559250106" lon="25.848746987">
		<tag k="name" v="Store Altsula - Álpesuolu" />
		<tag k="name:no" v="Store Altsula" />
		<tag k="name:se" v="Álpesuolu" />
		<tag k="old_name:se" v="Alpesuolo" />
		<tag k="place" v="island" />
		<tag k="ssr:stedsnr" v="383189" />
	</node>
	<node id="-796149" lat="70.836150006" lon="26.3072108294">
		<tag k="name" v="Russevika" />
		<tag k="natural" v="bay" />
		<tag k="ssr:stedsnr" v="383166" />
	</node>
	<node id="-796148" lat="70.9861111153" lon="26.0815830673">
		<tag k="name" v="Kjerringkeila" />
		<tag k="natural" v="bay" />
		<tag k="ssr:stedsnr" v="383074" />
	</node>
	<node id="-796147" lat="70.970791674" lon="25.9005525354">
		<tag k="name" v="Steinviknæringen" />
		<tag k="natural" v="cape" />
		<tag k="ssr:stedsnr" v="383068" />
	</node>
	<node id="-796146" lat="70.9767166728" lon="25.9165025363">
		<tag k="name" v="Breivika" />
		<tag k="natural" v="bay" />
		<tag k="ssr:stedsnr" v="383067" />
	</node>
	<node id="-796145" lat="70.9511055601" lon="25.6907275474">
		<tag k="name" v="Guvllanjárga" />
		<tag k="name:se" v="Guvllanjárga" />
		<tag k="natural" v="cape" />
		<tag k="old_name:se" v="Guvlanjarga" />
		<tag k="ssr:stedsnr" v="383060" />
	</node>
	<node id="-796143" lat="70.8653611216" lon="25.7433247721">
		<tag k="name" v="Tømmerneset" />
		<tag k="natural" v="cape" />
		<tag k="ssr:stedsnr" v="383017" />
	</node>
	<node id="-796140" lat="70.9678583337" lon="25.3768331497">
		<tag k="name" v="Østerneset" />
		<tag k="natural" v="cape" />
		<tag k="ssr:stedsnr" v="352868" />
	</node>
	<node id="-796139" lat="70.9495666688" lon="25.5001109225">
		<tag k="name" v="Omnan" />
		<tag k="natural" v="cape" />
		<tag k="ssr:stedsnr" v="352866" />
	</node>
	<node id="-796138" lat="71.167044451" lon="25.7653025652">
		<tag k="name" v="Røykholet" />
		<tag k="natural" v="bay" />
		<tag k="ssr:stedsnr" v="352381" />
	</node>
	<node id="-796137" lat="71.1419750087" lon="25.3905220362">
		<tag k="fixme" v="consider seamark:type=rock or natural=shoal" />
		<tag k="name" v="Stabben" />
		<tag k="place" v="islet" />
		<tag k="ssr:stedsnr" v="351191" />
	</node>
	<node id="-796136" lat="71.0598722236" lon="26.2143358508">
		<tag k="name" v="Helneset" />
		<tag k="natural" v="cape" />
		<tag k="ssr:stedsnr" v="350683" />
	</node>
	<node id="-796134" lat="71.056719445" lon="25.2912887065">
		<tag k="name" v="Ártihkalnjárga" />
		<tag k="name:se" v="Ártihkalnjárga" />
		<tag k="natural" v="cape" />
		<tag k="old_name:se" v="Artikkalnjarga" />
		<tag k="ssr:stedsnr" v="332914" />
	</node>
	<node id="-796133" lat="70.7775583433" lon="25.6374858799">
		<tag k="name" v="Indre Lomhola" />
		<tag k="natural" v="bay" />
		<tag k="ssr:stedsnr" v="332707" />
	</node>
	<node id="-796131" lat="70.985030563" lon="25.9359331015">
		<tag k="name" v="Rossmola" />
		<tag k="natural" v="bay" />
		<tag k="ssr:stedsnr" v="331880" />
	</node>
	<node id="-796130" lat="70.9757527822" lon="25.961385872">
		<tag k="fixme" v="consider seamark:type=rock or natural=shoal" />
		<tag k="name" v="Klubbskjæran" />
		<tag k="place" v="islet" />
		<tag k="ssr:stedsnr" v="331878" />
	</node>
	<node id="-796127" lat="71.0398833424" lon="25.8889497656">
		<tag k="name" v="Båtbukta" />
		<tag k="natural" v="bay" />
		<tag k="ssr:stedsnr" v="329304" />
	</node>
	<node id="-796121" lat="71.1170305626" lon="25.3537109394">
		<tag k="alt_name" v="Sandholmen, l" />
		<tag k="name" v="Lille Sandholmen" />
		<tag k="place" v="islet" />
		<tag k="ssr:stedsnr" v="323752" />
	</node>
	<node id="-796120" lat="71.1389083409" lon="25.2883692634">
		<tag k="fixme" v="consider seamark:type=rock or natural=shoal" />
		<tag k="name" v="Staurskjæret" />
		<tag k="place" v="islet" />
		<tag k="ssr:stedsnr" v="323745" />
	</node>
	<node id="-796119" lat="71.1374305596" lon="25.3833387052">
		<tag k="fixme" v="consider seamark:type=rock or natural=shoal" />
		<tag k="name" v="Brødskjæran" />
		<tag k="place" v="islet" />
		<tag k="ssr:stedsnr" v="323743" />
	</node>
	<node id="-796118" lat="71.1476388926" lon="25.3363498215">
		<tag k="name" v="Stukan" />
		<tag k="natural" v="cape" />
		<tag k="ssr:stedsnr" v="323739" />
	</node>
	<node id="-796116" lat="71.1037305634" lon="25.3953914841">
		<tag k="name" v="Lille Nordøya" />
		<tag k="old_name" v="Nordøya, l" />
		<tag k="place" v="island" />
		<tag k="ssr:stedsnr" v="323725" />
	</node>
	<node id="-796115" lat="71.1191000007" lon="25.4465609329">
		<tag k="name" v="Lysøya" />
		<tag k="place" v="islet" />
		<tag k="ssr:stedsnr" v="323720" />
	</node>
	<node id="-796112" lat="71.1736916728" lon="25.5613636838">
		<tag k="name" v="Mellomgrunnen" />
		<tag k="natural" v="shoal" />
		<tag k="place" v="locality" />
		<tag k="ssr:stedsnr" v="323694" />
	</node>
	<node id="-796111" lat="71.0507250045" lon="25.2097776192">
		<tag k="fixme" v="multiple name tags, choose one and add the other to alt_name; consider seamark:type=rock or natural=shoal" />
		<tag k="name" v="Kråka;Kråkskjæret" />
		<tag k="place" v="islet" />
		<tag k="ssr:stedsnr" v="323678" />
	</node>
	<node id="-796110" lat="70.9885027849" lon="25.7427192363">
		<tag k="fixme" v="multiple name tags, choose one and add the other to alt_name" />
		<tag k="name" v="Pollen;Sarnespollen" />
		<tag k="natural" v="bay" />
		<tag k="ssr:stedsnr" v="323464" />
	</node>
	<node id="-796109" lat="70.9856388968" lon="25.4273470361">
		<tag k="alt_name" v="Finnvika, l" />
		<tag k="name" v="Lille Finnvika" />
		<tag k="natural" v="bay" />
		<tag k="ssr:stedsnr" v="323458" />
	</node>
	<node id="-796107" lat="71.1102305623" lon="25.6192331292">
		<tag k="bay" v="fjord" />
		<tag k="name" v="Tufjorden - Irevuotna" />
		<tag k="name:no" v="Tufjorden" />
		<tag k="name:se" v="Irevuotna" />
		<tag k="natural" v="bay" />
		<tag k="old_name:se" v="Irevuodna" />
		<tag k="ssr:stedsnr" v="323395" />
	</node>
	<node id="-796103" lat="71.0991194493" lon="25.4208581574">
		<tag k="name" v="Store Nordøya" />
		<tag k="old_name" v="Nordøya, store" />
		<tag k="place" v="island" />
		<tag k="ssr:stedsnr" v="323343" />
	</node>
	<node id="-796102" lat="71.1004694522" lon="25.6083859229">
		<tag k="name" v="Lillekneet" />
		<tag k="natural" v="cape" />
		<tag k="ssr:stedsnr" v="323340" />
	</node>
	<node id="-796101" lat="71.0266944474" lon="25.2621109355">
		<tag k="name" v="Kobbevika" />
		<tag k="natural" v="bay" />
		<tag k="ssr:stedsnr" v="323321" />
	</node>
	<node id="-796099" lat="71.0460027831" lon="25.2869359383">
		<tag k="name" v="Inner-Gråkollen" />
		<tag k="natural" v="bay" />
		<tag k="ssr:stedsnr" v="323315" />
	</node>
	<node id="-796098" lat="71.0802750025" lon="25.93716643">
		<tag k="name" v="Midternæringen" />
		<tag k="natural" v="cape" />
		<tag k="ssr:stedsnr" v="323303" />
	</node>
	<node id="-796097" lat="71.0112527836" lon="26.1771080803">
		<tag k="name" v="Hundvika" />
		<tag k="natural" v="bay" />
		<tag k="ssr:stedsnr" v="323277" />
	</node>
	<node id="-796095" lat="71.0104583389" lon="25.9237414353">
		<tag k="name" v="Stornakken" />
		<tag k="natural" v="cape" />
		<tag k="ssr:stedsnr" v="323267" />
	</node>
	<node id="-796094" lat="70.849075007" lon="25.8640275421">
		<tag k="name" v="Mortholneset" />
		<tag k="natural" v="cape" />
		<tag k="ssr:stedsnr" v="323202" />
	</node>
	<node id="-796093" lat="70.8547888957" lon="25.8806108597">
		<tag k="fixme" v="multiple name tags, choose one and add the other to alt_name" />
		<tag k="name" v="Albertkeila;Indre Albertkeila" />
		<tag k="natural" v="bay" />
		<tag k="ssr:stedsnr" v="323200" />
	</node>
	<node id="-796092" lat="70.9579194542" lon="25.8596803118">
		<tag k="name" v="Tofta" />
		<tag k="natural" v="cape" />
		<tag k="ssr:stedsnr" v="323188" />
	</node>
	<node id="-796091" lat="70.9812888918" lon="25.9692414115">
		<tag k="name" v="Sørvågen" />
		<tag k="natural" v="cape" />
		<tag k="ssr:stedsnr" v="323182" />
	</node>
	<node id="-796084" lat="70.7797555623" lon="25.6628192328">
		<tag k="name" v="Nova" />
		<tag k="natural" v="cape" />
		<tag k="ssr:stedsnr" v="323096" />
	</node>
	<node id="-796083" lat="70.9823750046" lon="26.0219414233">
		<tag k="name" v="Botn" />
		<tag k="natural" v="bay" />
		<tag k="ssr:stedsnr" v="323079" />
	</node>
	<node id="-796082" lat="70.9895972294" lon="26.0995164094">
		<tag k="name" v="Kjekeila" />
		<tag k="natural" v="bay" />
		<tag k="ssr:stedsnr" v="323078" />
	</node>
	<node id="-796080" lat="70.9291861134" lon="25.5089470075">
		<tag k="name" v="Seineset" />
		<tag k="natural" v="cape" />
		<tag k="ssr:stedsnr" v="323059" />
	</node>
	<node id="-796079" lat="70.9011555619" lon="25.5930025637">
		<tag k="name" v="Kvitneset" />
		<tag k="natural" v="cape" />
		<tag k="ssr:stedsnr" v="323039" />
	</node>
	<node id="-796078" lat="70.8885055633" lon="25.7529803413">
		<tag k="name" v="Maritneset" />
		<tag k="natural" v="cape" />
		<tag k="ssr:stedsnr" v="323033" />
	</node>
	<node id="-796076" lat="70.9719944518" lon="25.3577998176">
		<tag k="name" v="Kjerkeneset" />
		<tag k="natural" v="cape" />
		<tag k="ssr:stedsnr" v="291895" />
	</node>
	<node id="-796073" lat="70.7729861146" lon="25.6170803414">
		<tag k="name" v="Øra" />
		<tag k="natural" v="cape" />
		<tag k="ssr:stedsnr" v="272660" />
	</node>
	<node id="-796072" lat="70.7324722329" lon="25.6586581064">
		<tag k="name" v="Reidarkeila" />
		<tag k="natural" v="bay" />
		<tag k="ssr:stedsnr" v="272654" />
	</node>
	<node id="-796071" lat="70.8051555596" lon="25.7599192163">
		<tag k="name" v="Laukvika" />
		<tag k="natural" v="bay" />
		<tag k="ssr:stedsnr" v="272521" />
	</node>
	<node id="-796070" lat="70.7598361193" lon="25.6886303247">
		<tag k="name" v="Likkista" />
		<tag k="natural" v="bay" />
		<tag k="ssr:stedsnr" v="272508" />
	</node>
	<node id="-796069" lat="70.8145638943" lon="25.8155775488">
		<tag k="name" v="Yttersalen" />
		<tag k="natural" v="bay" />
		<tag k="ssr:stedsnr" v="271617" />
	</node>
	<node id="-797203" lat="71.0192833377" lon="25.9984164175">
		<tag k="name" v="Jakthunden" />
		<tag k="natural" v="shoal" />
		<tag k="place" v="locality" />
		<tag k="ssr:stedsnr" v="958740" />
	</node>
	<node id="-797201" lat="70.7862611193" lon="25.738516438">
		<tag k="name" v="Mannskarvikneset" />
		<tag k="natural" v="cape" />
		<tag k="ssr:stedsnr" v="939720" />
	</node>
	<node id="-797200" lat="70.7762194499" lon="25.6291942172">
		<tag k="name" v="Reinelvneset" />
		<tag k="natural" v="cape" />
		<tag k="ssr:stedsnr" v="939719" />
	</node>
	<node id="-797197" lat="70.9822694514" lon="25.9342664221">
		<tag k="name" v="Rossmålneset" />
		<tag k="natural" v="cape" />
		<tag k="ssr:stedsnr" v="938876" />
	</node>
	<node id="-797196" lat="71.1833333432" lon="26.7666663378">
		<tag k="name" v="Sleppen" />
		<tag k="natural" v="shoal" />
		<tag k="place" v="locality" />
		<tag k="ssr:stedsnr" v="938864" />
	</node>
	<node id="-797195" lat="70.8149388936" lon="25.8000580828">
		<tag k="name" v="Landinga" />
		<tag k="natural" v="bay" />
		<tag k="ssr:stedsnr" v="938547" />
	</node>
	<node id="-797190" lat="70.9753833366" lon="25.7941553399">
		<tag k="name" v="Sætervågen" />
		<tag k="natural" v="bay" />
		<tag k="ssr:stedsnr" v="935822" />
	</node>
	<node id="-797184" lat="70.8702416748" lon="25.7306525627">
		<tag k="name" v="Båtneset" />
		<tag k="natural" v="cape" />
		<tag k="ssr:stedsnr" v="935620" />
	</node>
	<node id="-797183" lat="70.8638139" lon="25.7327025432">
		<tag k="name" v="Leira" />
		<tag k="natural" v="bay" />
		<tag k="ssr:stedsnr" v="935603" />
	</node>
	<node id="-797181" lat="70.7330527837" lon="25.6866914477">
		<tag k="name" v="Juhkkingáddi" />
		<tag k="name:se" v="Juhkkingáddi" />
		<tag k="natural" v="beach" />
		<tag k="old_name:se" v="Jukkingaddi" />
		<tag k="place" v="locality" />
		<tag k="ssr:stedsnr" v="930942" />
	</node>
	<node id="-797180" lat="71.1253166688" lon="25.7942414342">
		<tag k="bay" v="fjord" />
		<tag k="name" v="Vestfjorden" />
		<tag k="natural" v="bay" />
		<tag k="ssr:stedsnr" v="930779" />
	</node>
	<node id="-797179" lat="71.133888895" lon="25.5305553714">
		<tag k="name" v="Ryggen" />
		<tag k="natural" v="shoal" />
		<tag k="place" v="locality" />
		<tag k="ssr:stedsnr" v="930774" />
	</node>
	<node id="-797178" lat="71.1355638911" lon="25.3611109321">
		<tag k="name" v="Kjerkestappen" />
		<tag k="place" v="island" />
		<tag k="ssr:stedsnr" v="930770" />
	</node>
	<node id="-797177" lat="71.1073944488" lon="25.6696803504">
		<tag k="name" v="Småkjeftan" />
		<tag k="natural" v="bay" />
		<tag k="ssr:stedsnr" v="930767" />
	</node>
	<node id="-797176" lat="71.0943333397" lon="25.2620775966">
		<tag k="fixme" v="consider seamark:type=rock or natural=shoal" />
		<tag k="name" v="Næringskjæret" />
		<tag k="place" v="islet" />
		<tag k="ssr:stedsnr" v="930764" />
	</node>
	<node id="-797175" lat="71.1786472255" lon="25.6645053514">
		<tag k="name" v="Kjerringreva" />
		<tag k="natural" v="cape" />
		<tag k="ssr:stedsnr" v="930743" />
	</node>
	<node id="-797173" lat="71.1676166728" lon="25.764694238">
		<tag k="name" v="Skånvika" />
		<tag k="natural" v="bay" />
		<tag k="ssr:stedsnr" v="930716" />
	</node>
	<node id="-797172" lat="71.1690944499" lon="25.7851081144">
		<tag k="name" v="Nordkapp" />
		<tag k="natural" v="cape" />
		<tag k="ssr:stedsnr" v="930710" />
	</node>
	<node id="-797171" lat="70.7184250039" lon="26.0388497315">
		<tag k="name" v="Breivika" />
		<tag k="natural" v="bay" />
		<tag k="ssr:stedsnr" v="930559" />
	</node>
	<node id="-797168" lat="70.9543500051" lon="25.720855342">
		<tag k="name" v="Veidneset" />
		<tag k="natural" v="cape" />
		<tag k="ssr:stedsnr" v="930480" />
	</node>
	<node id="-797165" lat="70.9966027813" lon="25.3965359235">
		<tag k="name" v="Straumsvika - Gazzagohppi" />
		<tag k="name:no" v="Straumsvika" />
		<tag k="name:se" v="Gazzagohppi" />
		<tag k="natural" v="bay" />
		<tag k="old_name:se" v="Gazzagåppi" />
		<tag k="ssr:stedsnr" v="930459" />
	</node>
	<node id="-797161" lat="71.0797750023" lon="25.2936887018">
		<tag k="name" v="Trollklubben" />
		<tag k="natural" v="cape" />
		<tag k="ssr:stedsnr" v="930378" />
	</node>
	<node id="-797159" lat="71.1060527804" lon="25.6700525819">
		<tag k="name" v="Småkjeftneset" />
		<tag k="natural" v="cape" />
		<tag k="ssr:stedsnr" v="930370" />
	</node>
	<node id="-797158" lat="71.124775004" lon="25.9022914439">
		<tag k="alt_name" v="Skarsvåg, l" />
		<tag k="name" v="Lille Skarsvåg" />
		<tag k="natural" v="cape" />
		<tag k="ssr:stedsnr" v="930365" />
	</node>
	<node id="-797157" lat="71.1282666747" lon="25.8671136782">
		<tag k="name" v="Børneskeila" />
		<tag k="natural" v="bay" />
		<tag k="ssr:stedsnr" v="930361" />
	</node>
	<node id="-797156" lat="71.0309305574" lon="25.2528887016">
		<tag k="name" v="Svartoksen" />
		<tag k="natural" v="cape" />
		<tag k="ssr:stedsnr" v="930347" />
	</node>
	<node id="-797154" lat="71.0509000031" lon="26.058174738">
		<tag k="name" v="Avløysingsgrunnen" />
		<tag k="natural" v="shoal" />
		<tag k="place" v="locality" />
		<tag k="ssr:stedsnr" v="930325" />
	</node>
	<node id="-797152" lat="71.1227055612" lon="26.3724247104">
		<tag k="name" v="Tuva" />
		<tag k="natural" v="shoal" />
		<tag k="place" v="locality" />
		<tag k="ssr:stedsnr" v="930298" />
	</node>
	<node id="-797149" lat="70.7618194467" lon="25.8564914267">
		<tag k="fixme" v="multiple name tags, choose one and add the other to alt_name" />
		<tag k="name" v="Tareneset;Tarodden" />
		<tag k="natural" v="cape" />
		<tag k="ssr:stedsnr" v="930166" />
	</node>
	<node id="-797147" lat="70.7787527879" lon="26.1916858268">
		<tag k="name" v="Slåttsvika" />
		<tag k="natural" v="bay" />
		<tag k="ssr:stedsnr" v="930159" />
	</node>
	<node id="-797146" lat="70.9521027866" lon="26.568483029">
		<tag k="name" v="Mjåvikneset - Čielkaluovtnjárga" />
		<tag k="name:no" v="Mjåvikneset" />
		<tag k="name:se" v="Čielkaluovtnjárga" />
		<tag k="natural" v="cape" />
		<tag k="old_name:se" v="Čielkaluovtnjarga" />
		<tag k="ssr:stedsnr" v="930148" />
	</node>
	<node id="-797143" lat="70.8257000106" lon="25.7806969833">
		<tag k="name" v="Sandvika - Skiipaluokta" />
		<tag k="name:no" v="Sandvika" />
		<tag k="name:se" v="Skiipaluokta" />
		<tag k="natural" v="bay" />
		<tag k="ssr:stedsnr" v="930119" />
	</node>
	<node id="-797142" lat="70.8292055614" lon="25.8060580856">
		<tag k="alt_name" v="Skardtangen" />
		<tag k="name" v="Skartangen" />
		<tag k="natural" v="cape" />
		<tag k="ssr:stedsnr" v="930112" />
	</node>
	<node id="-797140" lat="70.9939166748" lon="26.1231358474">
		<tag k="name" v="Sekkekeila" />
		<tag k="natural" v="bay" />
		<tag k="ssr:stedsnr" v="930072" />
	</node>
	<node id="-797138" lat="70.9520527814" lon="25.7203859022">
		<tag k="name" v="Veidnesbukta" />
		<tag k="natural" v="bay" />
		<tag k="ssr:stedsnr" v="930060" />
	</node>
	<node id="-797134" lat="70.8593027854" lon="25.4084803675">
		<tag k="name" v="Straumen - Rivdnjevuotna" />
		<tag k="name:no" v="Straumen" />
		<tag k="name:se" v="Rivdnjevuotna" />
		<tag k="natural" v="bay" />
		<tag k="old_name:se" v="Rivdnjevuodna" />
		<tag k="ssr:stedsnr" v="930013" />
	</node>
	<node id="-797129" lat="70.7564388967" lon="25.6866192117">
		<tag k="name" v="Repvåghalvøya" />
		<tag k="natural" v="cape" />
		<tag k="ssr:stedsnr" v="878733" />
	</node>
	<node id="-797125" lat="70.881605561" lon="25.7252553421">
		<tag k="name" v="Sarisbukta" />
		<tag k="natural" v="bay" />
		<tag k="ssr:stedsnr" v="875579" />
	</node>
	<node id="-797121" lat="71.0477833372" lon="25.9214553341">
		<tag k="name" v="Østersundet" />
		<tag k="natural" v="strait" />
		<tag k="ssr:stedsnr" v="875284" />
	</node>
	<node id="-797120" lat="71.0487666696" lon="25.9052053128">
		<tag k="name" v="Eidet" />
		<tag k="place" v="locality" />
		<tag k="ssr:stedsnr" v="875275" />
	</node>
	<node id="-797119" lat="71.0479138908" lon="25.9090497772">
		<tag k="name" v="Lille Russeklubben" />
		<tag k="natural" v="cape" />
		<tag k="ssr:stedsnr" v="875270" />
	</node>
	<node id="-797116" lat="71.184722226" lon="25.2166664992">
		<tag k="name" v="Råsa" />
		<tag k="natural" v="shoal" />
		<tag k="place" v="locality" />
		<tag k="ssr:stedsnr" v="874862" />
	</node>
	<node id="-797112" lat="71.095877779" lon="25.3442192529">
		<tag k="name" v="Leirpollholmen" />
		<tag k="place" v="islet" />
		<tag k="ssr:stedsnr" v="874318" />
	</node>
	<node id="-797111" lat="71.1046472253" lon="25.3853026086">
		<tag k="name" v="Kalossundet" />
		<tag k="natural" v="strait" />
		<tag k="ssr:stedsnr" v="874315" />
	</node>
	<node id="-797109" lat="71.1195638959" lon="25.3297303752">
		<tag k="name" v="Flathella" />
		<tag k="place" v="islet" />
		<tag k="ssr:stedsnr" v="870748" />
	</node>
	<node id="-797108" lat="71.1362111141" lon="25.2824859477">
		<tag k="name" v="Seigrunnen" />
		<tag k="natural" v="shoal" />
		<tag k="place" v="locality" />
		<tag k="ssr:stedsnr" v="870744" />
	</node>
	<node id="-797107" lat="71.1431194455" lon="25.3094442581">
		<tag k="name" v="Stauren" />
		<tag k="natural" v="cape" />
		<tag k="ssr:stedsnr" v="870708" />
	</node>
	<node id="-797106" lat="71.175136112" lon="25.5168414766">
		<tag k="name" v="Langskjærgrunnen" />
		<tag k="natural" v="shoal" />
		<tag k="place" v="locality" />
		<tag k="ssr:stedsnr" v="870694" />
	</node>
	<node id="-797103" lat="71.0406750047" lon="25.2685609308">
		<tag k="name" v="Silbanjárga" />
		<tag k="name:se" v="Silbanjárga" />
		<tag k="natural" v="cape" />
		<tag k="old_name:se" v="Silbanjarga" />
		<tag k="ssr:stedsnr" v="870344" />
	</node>
	<node id="-797102" lat="71.0868666743" lon="26.1012803099">
		<tag k="name" v="Mellomryggen" />
		<tag k="natural" v="shoal" />
		<tag k="place" v="locality" />
		<tag k="ssr:stedsnr" v="870321" />
	</node>
	<node id="-797101" lat="71.1111055577" lon="25.8281581109">
		<tag k="name" v="Skutneset" />
		<tag k="natural" v="cape" />
		<tag k="ssr:stedsnr" v="870317" />
	</node>
	<node id="-797100" lat="70.7534805625" lon="25.5965414397">
		<tag k="name" v="Albertneset - Álbertnjárga" />
		<tag k="name:no" v="Albertneset" />
		<tag k="name:se" v="Álbertnjárga" />
		<tag k="natural" v="cape" />
		<tag k="old_name:se" v="Albertnjarga" />
		<tag k="ssr:stedsnr" v="870092" />
	</node>
	<node id="-797095" lat="71.1180805593" lon="25.3778776027">
		<tag k="name" v="Revsholmen" />
		<tag k="place" v="islet" />
		<tag k="ssr:stedsnr" v="869751" />
	</node>
	<node id="-797094" lat="70.9893305651" lon="25.9309636579">
		<tag k="name" v="Kobbhola" />
		<tag k="natural" v="bay" />
		<tag k="ssr:stedsnr" v="869555" />
	</node>
	<node id="-797093" lat="70.7362694554" lon="26.0425552859">
		<tag k="name" v="Hårvikgrunnen" />
		<tag k="natural" v="shoal" />
		<tag k="place" v="locality" />
		<tag k="ssr:stedsnr" v="869535" />
	</node>
	<node id="-797091" lat="71.0616805584" lon="25.2595776163">
		<tag k="fixme" v="multiple name tags, choose one and add the other to alt_name" />
		<tag k="name" v="Daudmann-neset;Mannvikneset" />
		<tag k="natural" v="cape" />
		<tag k="ssr:stedsnr" v="869400" />
	</node>
	<node id="-797089" lat="71.0577500045" lon="26.1698580576">
		<tag k="name" v="Røykholbukta" />
		<tag k="natural" v="bay" />
		<tag k="ssr:stedsnr" v="869345" />
	</node>
	<node id="-797085" lat="70.764361118" lon="25.8319775272">
		<tag k="name" v="Garnkeila" />
		<tag k="natural" v="bay" />
		<tag k="ssr:stedsnr" v="869184" />
	</node>
	<node id="-797084" lat="70.7657833393" lon="25.843094213">
		<tag k="name" v="Temmaneset" />
		<tag k="natural" v="cape" />
		<tag k="ssr:stedsnr" v="869185" />
	</node>
	<node id="-797082" lat="70.9774694473" lon="25.9653247642">
		<tag k="name" v="Klubben" />
		<tag k="natural" v="cape" />
		<tag k="ssr:stedsnr" v="869069" />
	</node>
	<node id="-797081" lat="70.9497194464" lon="25.6149414575">
		<tag k="name" v="Store Svartholet" />
		<tag k="natural" v="bay" />
		<tag k="ssr:stedsnr" v="869060" />
	</node>
	<node id="-797079" lat="70.8596083414" lon="25.4795692527">
		<tag k="name" v="Lávvárnjárga" />
		<tag k="name:se" v="Lávvárnjárga" />
		<tag k="natural" v="cape" />
		<tag k="old_name:se" v="Lavvarnjarga" />
		<tag k="ssr:stedsnr" v="869014" />
	</node>
	<node id="-797076" lat="71.0097972282" lon="25.9610330877">
		<tag k="name" v="Stormbukta" />
		<tag k="natural" v="bay" />
		<tag k="ssr:stedsnr" v="837718" />
	</node>
	<node id="-797073" lat="70.9735416754" lon="25.7783303375">
		<tag k="name" v="Sarneset - Sárranjárga" />
		<tag k="name:no" v="Sarneset" />
		<tag k="name:se" v="Sárranjárga" />
		<tag k="natural" v="cape" />
		<tag k="ssr:stedsnr" v="837484" />
	</node>
	<node id="-797072" lat="71.1129916697" lon="25.2859692833">
		<tag k="name" v="Storegrunnen" />
		<tag k="natural" v="shoal" />
		<tag k="place" v="locality" />
		<tag k="ssr:stedsnr" v="837105" />
	</node>
	<node id="-797070" lat="70.9809250055" lon="25.971283098">
		<tag k="name" v="Vågen" />
		<tag k="natural" v="bay" />
		<tag k="ssr:stedsnr" v="836792" />
	</node>
	<node id="-797067" lat="70.7542889" lon="25.5987081061">
		<tag k="name" v="Albertsbukta" />
		<tag k="natural" v="bay" />
		<tag k="ssr:stedsnr" v="818730" />
	</node>
	<node id="-797063" lat="70.8558611197" lon="25.8826441977">
		<tag k="name" v="Ytre Albertkeila" />
		<tag k="natural" v="bay" />
		<tag k="ssr:stedsnr" v="815529" />
	</node>
	<node id="-797061" lat="70.9756416767" lon="25.8496997601">
		<tag k="name" v="Strømbaklia" />
		<tag k="natural" v="bay" />
		<tag k="ssr:stedsnr" v="814835" />
	</node>
	<node id="-797058" lat="70.8605472325" lon="25.4135081321">
		<tag k="name" v="Straumholmen" />
		<tag k="place" v="islet" />
		<tag k="ssr:stedsnr" v="813844" />
	</node>
	<node id="-797055" lat="70.8710305646" lon="25.5136609015">
		<tag k="bay" v="fjord" />
		<tag k="name" v="Auster-Lafjorden - Beavža-Lávvár" />
		<tag k="name:no" v="Auster-Lafjorden" />
		<tag k="name:se" v="Beavža-Lávvár" />
		<tag k="natural" v="bay" />
		<tag k="old_name:se" v="Bævža-Lavvar" />
		<tag k="ssr:stedsnr" v="813026" />
	</node>
	<node id="-797052" lat="71.0709611142" lon="25.7126886689">
		<tag k="alt_name" v="Sørbotn" />
		<tag k="name" v="Sørhamna" />
		<tag k="natural" v="bay" />
		<tag k="ssr:stedsnr" v="809397" />
	</node>
	<node id="-797050" lat="71.0941888944" lon="25.6461525724">
		<tag k="name" v="Langstranda" />
		<tag k="natural" v="beach" />
		<tag k="place" v="locality" />
		<tag k="ssr:stedsnr" v="809380" />
	</node>
	<node id="-797049" lat="71.1267666727" lon="25.9016469882">
		<tag k="name" v="Rusholmen" />
		<tag k="place" v="islet" />
		<tag k="ssr:stedsnr" v="809367" />
	</node>
	<node id="-797047" lat="71.0493638931" lon="25.2360664915">
		<tag k="name" v="Vannholmen" />
		<tag k="place" v="islet" />
		<tag k="ssr:stedsnr" v="809337" />
	</node>
	<node id="-797045" lat="71.0259972305" lon="25.9618025418">
		<tag k="alt_name" v="Ytre Stappan" />
		<tag k="name" v="Ytre Stappen" />
		<tag k="natural" v="cape" />
		<tag k="old_name" v="Stappen, yt" />
		<tag k="ssr:stedsnr" v="809278" />
	</node>
	<node id="-797044" lat="70.7647583367" lon="25.8483442048">
		<tag k="name" v="Laukvika" />
		<tag k="natural" v="bay" />
		<tag k="ssr:stedsnr" v="809165" />
	</node>
	<node id="-797042" lat="70.834758338" lon="25.8110608806">
		<tag k="name" v="Inner-Rasskeila - Siskkit Bahtaváhki" />
		<tag k="name:no" v="Inner-Rasskeila" />
		<tag k="name:se" v="Siskkit Bahtaváhki" />
		<tag k="natural" v="bay" />
		<tag k="old_name:se" v="Battavakki, siskit" />
		<tag k="ssr:stedsnr" v="809129" />
	</node>
	<node id="-797036" lat="70.7663416707" lon="25.6151192168">
		<tag k="fixme" v="multiple name tags, choose one and add the other to alt_name" />
		<tag k="name" v="Summarsetneset;Sommerseterneset - Čillenjárga" />
		<tag k="name:no" v="Summarsetneset;Sommerseterneset" />
		<tag k="name:se" v="Čillenjárga" />
		<tag k="natural" v="cape" />
		<tag k="old_name:se" v="Čillenjarga" />
		<tag k="ssr:stedsnr" v="809089" />
	</node>
	<node id="-797033" lat="70.8847138961" lon="25.7209470072">
		<tag k="name" v="Sáđešnjárga" />
		<tag k="name:se" v="Sáđešnjárga" />
		<tag k="natural" v="cape" />
		<tag k="old_name:se" v="Sadešnjarga" />
		<tag k="ssr:stedsnr" v="809035" />
	</node>
	<node id="-797031" lat="71.1062583415" lon="25.2701165015">
		<tag k="fixme" v="consider seamark:type=rock or natural=shoal" />
		<tag k="name" v="Leikua" />
		<tag k="place" v="islet" />
		<tag k="ssr:stedsnr" v="808726" />
	</node>
	<node id="-797029" lat="70.881594454" lon="25.7408358936">
		<tag k="bay" v="fjord" />
		<tag k="name" v="Kåfjorden - Gávkevuotna" />
		<tag k="name:no" v="Kåfjorden" />
		<tag k="name:se" v="Gávkevuotna" />
		<tag k="natural" v="bay" />
		<tag k="old_name:se" v="Gavkevuodna" />
		<tag k="ssr:stedsnr" v="808507" />
	</node>
	<node id="-797028" lat="71.0855638919" lon="25.2750637027">
		<tag k="alt_name" v="Langneset, in" />
		<tag k="fixme" v="multiple name tags, choose one and add the other to alt_name" />
		<tag k="name" v="Langneset;Indre Langneset" />
		<tag k="natural" v="cape" />
		<tag k="ssr:stedsnr" v="808342" />
	</node>
	<node id="-797026" lat="71.0488472301" lon="26.1339053077">
		<tag k="name" v="Laukvika" />
		<tag k="natural" v="bay" />
		<tag k="ssr:stedsnr" v="808293" />
	</node>
	<node id="-797025" lat="71.0677527828" lon="26.3834135906">
		<tag k="name" v="Austersve" />
		<tag k="natural" v="shoal" />
		<tag k="place" v="locality" />
		<tag k="ssr:stedsnr" v="808284" />
	</node>
	<node id="-797024" lat="70.8897611194" lon="25.8778886424">
		<tag k="name" v="Finnrorneset" />
		<tag k="natural" v="cape" />
		<tag k="ssr:stedsnr" v="808166" />
	</node>
	<node id="-797023" lat="70.9920972308" lon="26.1180025214">
		<tag k="name" v="Korneliuskeila" />
		<tag k="natural" v="bay" />
		<tag k="ssr:stedsnr" v="808049" />
	</node>
	<node id="-797021" lat="71.1681777809" lon="25.5631442453">
		<tag k="name" v="Vakeren" />
		<tag k="natural" v="shoal" />
		<tag k="place" v="locality" />
		<tag k="ssr:stedsnr" v="776985" />
	</node>
	<node id="-797019" lat="70.7691194519" lon="25.7013664358">
		<tag k="name" v="Hamnnesgrunnen" />
		<tag k="natural" v="shoal" />
		<tag k="place" v="locality" />
		<tag k="ssr:stedsnr" v="776002" />
	</node>
	<node id="-797017" lat="70.7420527829" lon="25.6195664562">
		<tag k="name" v="Kvalbukta" />
		<tag k="natural" v="bay" />
		<tag k="ssr:stedsnr" v="757718" />
	</node>
	<node id="-797016" lat="70.7791138975" lon="25.6470414405">
		<tag k="name" v="Ytre Lomhola" />
		<tag k="natural" v="bay" />
		<tag k="ssr:stedsnr" v="757689" />
	</node>
	<node id="-797014" lat="70.7720833367" lon="25.6165553394">
		<tag k="name" v="Brennelvstrand" />
		<tag k="natural" v="beach" />
		<tag k="place" v="locality" />
		<tag k="ssr:stedsnr" v="757683" />
	</node>
	<node id="-797012" lat="70.7487166765" lon="25.6729997787">
		<tag k="name" v="Brenneriøra" />
		<tag k="natural" v="beach" />
		<tag k="place" v="locality" />
		<tag k="ssr:stedsnr" v="757531" />
	</node>
	<node id="-797011" lat="71.1361611173" lon="25.7014386711">
		<tag k="name" v="Nordkapphalvøya" />
		<tag k="natural" v="cape" />
		<tag k="ssr:stedsnr" v="756910" />
	</node>
	<node id="-797010" lat="70.7494888929" lon="25.7413025453">
		<tag k="name" v="Lenninga" />
		<tag k="natural" v="bay" />
		<tag k="ssr:stedsnr" v="756567" />
	</node>
	<node id="-797004" lat="70.7520972314" lon="25.6586497781">
		<tag k="fixme" v="multiple name tags, choose one and add the other to alt_name" />
		<tag k="name" v="Steinskjærodden;Steinskjærneset - Durenjárga" />
		<tag k="name:no" v="Steinskjærodden;Steinskjærneset" />
		<tag k="name:se" v="Durenjárga" />
		<tag k="natural" v="cape" />
		<tag k="old_name:se" v="Durenjarga" />
		<tag k="ssr:stedsnr" v="753950" />
	</node>
	<node id="-796996" lat="70.9928083392" lon="25.9531247539">
		<tag k="name" v="Hammerneset" />
		<tag k="natural" v="cape" />
		<tag k="ssr:stedsnr" v="752295" />
	</node>
	<node id="-796995" lat="71.12365" lon="25.6097109186">
		<tag k="name" v="Bryggebukta" />
		<tag k="natural" v="bay" />
		<tag k="ssr:stedsnr" v="748757" />
	</node>
	<node id="-796994" lat="71.1494027786" lon="25.5448136897">
		<tag k="name" v="Laukvika" />
		<tag k="natural" v="bay" />
		<tag k="ssr:stedsnr" v="748754" />
	</node>
	<node id="-796993" lat="71.1685611178" lon="25.5219803678">
		<tag k="fixme" v="consider seamark:type=rock or natural=shoal" />
		<tag k="name" v="Langskjæret" />
		<tag k="place" v="islet" />
		<tag k="ssr:stedsnr" v="748740" />
	</node>
	<node id="-796991" lat="70.7254750088" lon="26.1098024911">
		<tag k="name" v="Rekvika" />
		<tag k="natural" v="bay" />
		<tag k="ssr:stedsnr" v="748547" />
	</node>
	<node id="-796987" lat="71.10456389" lon="25.3613609267">
		<tag k="name" v="Springneset" />
		<tag k="natural" v="cape" />
		<tag k="ssr:stedsnr" v="748390" />
	</node>
	<node id="-796983" lat="70.8185000102" lon="26.2698830336">
		<tag k="name" v="Flatvika" />
		<tag k="natural" v="bay" />
		<tag k="ssr:stedsnr" v="748159" />
	</node>
	<node id="-796979" lat="70.7851611209" lon="25.7082053215">
		<tag k="name" v="Indre Mannskarvika - Siskkit Máskaviika" />
		<tag k="name:no" v="Indre Mannskarvika" />
		<tag k="name:se" v="Siskkit Máskaviika" />
		<tag k="natural" v="bay" />
		<tag k="old_name:se" v="Maskaviika siskit" />
		<tag k="ssr:stedsnr" v="748099" />
	</node>
	<node id="-796976" lat="70.7599694489" lon="25.6940164344">
		<tag k="name" v="Hamnneset - Reaiponjárga" />
		<tag k="name:no" v="Hamnneset" />
		<tag k="name:se" v="Reaiponjárga" />
		<tag k="natural" v="cape" />
		<tag k="old_name:se" v="Ræipunjarga" />
		<tag k="ssr:stedsnr" v="748079" />
	</node>
	<node id="-796975" lat="70.7690000034" lon="25.6431108958">
		<tag k="bay" v="fjord" />
		<tag k="name" v="Strandbukta - Stránddavuotna" />
		<tag k="name:no" v="Strandbukta" />
		<tag k="name:se" v="Stránddavuotna" />
		<tag k="natural" v="bay" />
		<tag k="old_name:se" v="Strandavuodna" />
		<tag k="ssr:stedsnr" v="748077" />
	</node>
	<node id="-796974" lat="70.7607805656" lon="25.8319164153">
		<tag k="name" v="Lille-Tamsøya - Ávačuohttu" />
		<tag k="name:no" v="Lille-Tamsøya" />
		<tag k="name:se" v="Ávačuohttu" />
		<tag k="old_name:se" v="Avačuotto" />
		<tag k="place" v="island" />
		<tag k="ssr:stedsnr" v="748076" />
	</node>
	<node id="-796973" lat="70.9420888976" lon="25.6936136861">
		<tag k="name" v="Tagganeset" />
		<tag k="natural" v="cape" />
		<tag k="ssr:stedsnr" v="748047" />
	</node>
	<node id="-796971" lat="70.8994638937" lon="25.7663525391">
		<tag k="name" v="Yttergrunnen" />
		<tag k="natural" v="shoal" />
		<tag k="place" v="locality" />
		<tag k="ssr:stedsnr" v="748034" />
	</node>
	<node id="-796966" lat="71.1052944466" lon="25.4215886924">
		<tag k="alt_name" v="Bukkøya" />
		<tag k="name" v="Bukkholmen" />
		<tag k="place" v="islet" />
		<tag k="ssr:stedsnr" v="747727" />
	</node>
	<node id="-796964" lat="71.1253500079" lon="25.7770525674">
		<tag k="name" v="Kobbneset" />
		<tag k="natural" v="cape" />
		<tag k="ssr:stedsnr" v="747721" />
	</node>
	<node id="-796963" lat="71.1154638892" lon="25.4530664882">
		<tag k="name" v="Lysøynæringen" />
		<tag k="natural" v="cape" />
		<tag k="ssr:stedsnr" v="747712" />
	</node>
	<node id="-796961" lat="70.9466222289" lon="25.5076914554">
		<tag k="name" v="Omnanbukta" />
		<tag k="natural" v="bay" />
		<tag k="ssr:stedsnr" v="747449" />
	</node>
	<node id="-796959" lat="70.960002788" lon="25.8316164309">
		<tag k="name" v="Vesternova" />
		<tag k="natural" v="cape" />
		<tag k="ssr:stedsnr" v="747164" />
	</node>
	<node id="-796958" lat="70.9630666719" lon="25.8288414441">
		<tag k="name" v="Revet" />
		<tag k="natural" v="shoal" />
		<tag k="place" v="locality" />
		<tag k="ssr:stedsnr" v="747161" />
	</node>
	<node id="-796957" lat="71.0667833382" lon="25.8430580991">
		<tag k="name" v="Fiskevikneset" />
		<tag k="natural" v="cape" />
		<tag k="ssr:stedsnr" v="747286" />
	</node>
	<node id="-796956" lat="71.065769453" lon="25.9075136715">
		<tag k="name" v="Duksfjordgrunnen" />
		<tag k="natural" v="shoal" />
		<tag k="place" v="locality" />
		<tag k="ssr:stedsnr" v="747280" />
	</node>
	<node id="-796954" lat="71.0422138977" lon="26.0463608589">
		<tag k="alt_name" v="Selvåggrunnen, nordre" />
		<tag k="name" v="Nordre Selvåggrunnen" />
		<tag k="natural" v="shoal" />
		<tag k="place" v="locality" />
		<tag k="ssr:stedsnr" v="747248" />
	</node>
	<node id="-796953" lat="71.1197222226" lon="25.3069442752">
		<tag k="name" v="Ramnholman" />
		<tag k="place" v="islet" />
		<tag k="ssr:stedsnr" v="728215" />
	</node>
	<node id="-796950" lat="70.9611361191" lon="25.4295859177">
		<tag k="name" v="Risvikneset" />
		<tag k="natural" v="cape" />
		<tag k="ssr:stedsnr" v="716861" />
	</node>
	<node id="-796949" lat="70.9551138932" lon="25.4439331528">
		<tag k="name" v="Gåsviknakken" />
		<tag k="natural" v="cape" />
		<tag k="ssr:stedsnr" v="716862" />
	</node>
	<node id="-796948" lat="71.054447225" lon="25.2531914805">
		<tag k="fixme" v="consider seamark:type=rock or natural=shoal" />
		<tag k="name" v="Langskjæret" />
		<tag k="place" v="islet" />
		<tag k="ssr:stedsnr" v="716223" />
	</node>
	<node id="-796946" lat="71.1317416738" lon="25.3999248237">
		<tag k="name" v="Bukkspeltaren" />
		<tag k="natural" v="shoal" />
		<tag k="place" v="locality" />
		<tag k="ssr:stedsnr" v="715126" />
	</node>
	<node id="-796944" lat="71.0211500061" lon="26.069152514">
		<tag k="name" v="Helneslandet" />
		<tag k="natural" v="beach" />
		<tag k="place" v="locality" />
		<tag k="ssr:stedsnr" v="696569" />
	</node>
	<node id="-796943" lat="70.817925004" lon="25.788935887">
		<tag k="name" v="Jernøysundet" />
		<tag k="natural" v="strait" />
		<tag k="ssr:stedsnr" v="696563" />
	</node>
	<node id="-796942" lat="70.8896138991" lon="25.7536358774">
		<tag k="name" v="Lille Sandbukta" />
		<tag k="natural" v="bay" />
		<tag k="ssr:stedsnr" v="693604" />
	</node>
	<node id="-796940" lat="70.7461277826" lon="25.688647005">
		<tag k="name" v="Båtmola" />
		<tag k="natural" v="bay" />
		<tag k="ssr:stedsnr" v="692863" />
	</node>
	<node id="-796938" lat="70.972486118" lon="25.8769136592">
		<tag k="name" v="Ytre Bakli" />
		<tag k="natural" v="bay" />
		<tag k="ssr:stedsnr" v="692829" />
	</node>
	<node id="-796934" lat="71.1256000076" lon="25.319985926">
		<tag k="name" v="Seivakta" />
		<tag k="place" v="islet" />
		<tag k="ssr:stedsnr" v="688752" />
	</node>
	<node id="-796933" lat="71.1264472305" lon="25.3812859244">
		<tag k="fixme" v="consider seamark:type=rock or natural=shoal" />
		<tag k="name" v="Bukkspelen" />
		<tag k="place" v="islet" />
		<tag k="ssr:stedsnr" v="688748" />
	</node>
	<node id="-796932" lat="71.1435194516" lon="25.4043359397">
		<tag k="name" v="Brødskjærfallan" />
		<tag k="natural" v="shoal" />
		<tag k="place" v="locality" />
		<tag k="ssr:stedsnr" v="688742" />
	</node>
	<node id="-796931" lat="70.9943166748" lon="25.3964025876">
		<tag k="name" v="Straumsnæringen" />
		<tag k="natural" v="cape" />
		<tag k="ssr:stedsnr" v="688447" />
	</node>
	<node id="-796930" lat="71.1583194515" lon="25.6877970116">
		<tag k="bay" v="fjord" />
		<tag k="name" v="Sandfjorden" />
		<tag k="natural" v="bay" />
		<tag k="ssr:stedsnr" v="688417" />
	</node>
	<node id="-796929" lat="71.0399888954" lon="25.8840497833">
		<tag k="alt_name" v="Risfjord" />
		<tag k="bay" v="fjord" />
		<tag k="name" v="Risfjorden" />
		<tag k="natural" v="bay" />
		<tag k="ssr:stedsnr" v="688412" />
	</node>
	<node id="-796928" lat="71.1283055646" lon="25.8619275571">
		<tag k="alt_name" v="Børnes, vestre" />
		<tag k="name" v="Vestre Børnes" />
		<tag k="natural" v="cape" />
		<tag k="ssr:stedsnr" v="688360" />
	</node>
	<node id="-796927" lat="71.0818944512" lon="25.9514080959">
		<tag k="alt_name" v="Trevika, yt" />
		<tag k="name" v="Ytre Trevika" />
		<tag k="natural" v="bay" />
		<tag k="ssr:stedsnr" v="688326" />
	</node>
	<node id="-796926" lat="71.0999305566" lon="26.0229469821">
		<tag k="name" v="Reinvika" />
		<tag k="natural" v="bay" />
		<tag k="ssr:stedsnr" v="688317" />
	</node>
	<node id="-796925" lat="71.1141305648" lon="25.8344969925">
		<tag k="name" v="Sildvika" />
		<tag k="natural" v="bay" />
		<tag k="ssr:stedsnr" v="688312" />
	</node>
	<node id="-796919" lat="70.7247305626" lon="25.5985581008">
		<tag k="name" v="Olggut Ádjastatnjárga" />
		<tag k="name:se" v="Olggut Ádjastatnjárga" />
		<tag k="natural" v="cape" />
		<tag k="old_name:se" v="Addjastatnjarga, ålogt" />
		<tag k="ssr:stedsnr" v="687941" />
	</node>
	<node id="-796918" lat="71.1102027812" lon="25.5750359207">
		<tag k="fixme" v="consider seamark:type=rock or natural=shoal" />
		<tag k="name" v="Risfjordskjæret" />
		<tag k="place" v="islet" />
		<tag k="ssr:stedsnr" v="687744" />
	</node>
	<node id="-796916" lat="71.1844694496" lon="25.6711692461">
		<tag k="name" v="Krokreva" />
		<tag k="natural" v="cape" />
		<tag k="ssr:stedsnr" v="687728" />
	</node>
	<node id="-796913" lat="70.7233277867" lon="26.1107552921">
		<tag k="name" v="Skjåneset" />
		<tag k="natural" v="cape" />
		<tag k="ssr:stedsnr" v="687526" />
	</node>
	<node id="-796912" lat="70.6989666761" lon="26.0361025125">
		<tag k="name" v="Inner-Hårvika - Guhkesluokta" />
		<tag k="name:no" v="Inner-Hårvika" />
		<tag k="name:se" v="Guhkesluokta" />
		<tag k="natural" v="bay" />
		<tag k="old_name:se" v="Gukkesluokta" />
		<tag k="ssr:stedsnr" v="687519" />
	</node>
	<node id="-796911" lat="70.9673861144" lon="25.7271330978">
		<tag k="name" v="Kobbholgrunnen" />
		<tag k="natural" v="shoal" />
		<tag k="place" v="locality" />
		<tag k="ssr:stedsnr" v="687452" />
	</node>
	<node id="-796909" lat="70.9628944491" lon="25.4864664554">
		<tag k="name" v="Girsavákkegohppi" />
		<tag k="name:se" v="Girsavákkegohppi" />
		<tag k="natural" v="bay" />
		<tag k="old_name:se" v="Girsavaggegåppi" />
		<tag k="ssr:stedsnr" v="687449" />
	</node>
	<node id="-796906" lat="71.0160638926" lon="25.2845442794">
		<tag k="name" v="Skálžoluovttat" />
		<tag k="name:se" v="Skálžoluovttat" />
		<tag k="natural" v="bay" />
		<tag k="old_name:se" v="Skalžuluovtat" />
		<tag k="ssr:stedsnr" v="687334" />
	</node>
	<node id="-796904" lat="71.0493833395" lon="25.274360924">
		<tag k="name" v="Gråkollen" />
		<tag k="natural" v="bay" />
		<tag k="ssr:stedsnr" v="687312" />
	</node>
	<node id="-796903" lat="71.0555666698" lon="25.2315775928">
		<tag k="fixme" v="multiple name tags, choose one and add the other to alt_name; consider seamark:type=rock or natural=shoal" />
		<tag k="name" v="Skarvskjæret;Skarveskjæret" />
		<tag k="place" v="islet" />
		<tag k="ssr:stedsnr" v="687309" />
	</node>
	<node id="-796901" lat="71.0460027851" lon="25.874746985">
		<tag k="name" v="Skálbmenjárga" />
		<tag k="name:se" v="Skálbmenjárga" />
		<tag k="natural" v="cape" />
		<tag k="old_name:se" v="Skalbenjarga" />
		<tag k="ssr:stedsnr" v="687304" />
	</node>
	<node id="-796899" lat="71.0144388948" lon="26.0197719733">
		<tag k="name" v="Selvågen" />
		<tag k="natural" v="bay" />
		<tag k="ssr:stedsnr" v="687263" />
	</node>
	<node id="-796898" lat="71.0016472247" lon="26.1210275207">
		<tag k="name" v="Kjelen" />
		<tag k="place" v="islet" />
		<tag k="ssr:stedsnr" v="687259" />
	</node>
	<node id="-796897" lat="71.0107083363" lon="26.0019608712">
		<tag k="name" v="Valan" />
		<tag k="natural" v="bay" />
		<tag k="ssr:stedsnr" v="687255" />
	</node>
	<node id="-796896" lat="71.0291416705" lon="25.9481775367">
		<tag k="name" v="Skipsfjordneset - Skiipavuonnjárga" />
		<tag k="name:no" v="Skipsfjordneset" />
		<tag k="name:se" v="Skiipavuonnjárga" />
		<tag k="natural" v="cape" />
		<tag k="old_name:se" v="Skiipavuonnjarga" />
		<tag k="ssr:stedsnr" v="687244" />
	</node>
	<node id="-796895" lat="70.8668361179" lon="25.884802548">
		<tag k="name" v="Porsangneset - Čavččanjárga" />
		<tag k="name:no" v="Porsangneset" />
		<tag k="name:se" v="Čavččanjárga" />
		<tag k="natural" v="cape" />
		<tag k="old_name:se" v="Čavčanjarga" />
		<tag k="ssr:stedsnr" v="687179" />
	</node>
	<node id="-796889" lat="70.8224000075" lon="25.7769497629">
		<tag k="name" v="Sandvikneset" />
		<tag k="natural" v="cape" />
		<tag k="ssr:stedsnr" v="687107" />
	</node>
	<node id="-796886" lat="71.0213416756" lon="26.0315136487">
		<tag k="name" v="Storegrunnen" />
		<tag k="natural" v="shoal" />
		<tag k="place" v="locality" />
		<tag k="ssr:stedsnr" v="654725" />
	</node>
	<node id="-796884" lat="71.1174472317" lon="25.8722081146">
		<tag k="name" v="Molvikgrunnen" />
		<tag k="natural" v="shoal" />
		<tag k="place" v="locality" />
		<tag k="ssr:stedsnr" v="654261" />
	</node>
	<node id="-796883" lat="71.1268111181" lon="25.8665442175">
		<tag k="name" v="Børneset" />
		<tag k="natural" v="cape" />
		<tag k="ssr:stedsnr" v="654256" />
	</node>
	<node id="-796882" lat="71.1220861119" lon="25.4278331419">
		<tag k="name" v="Lysøybåen" />
		<tag k="natural" v="shoal" />
		<tag k="place" v="locality" />
		<tag k="ssr:stedsnr" v="654132" />
	</node>
	<node id="-796879" lat="70.7826055583" lon="25.7125108832">
		<tag k="name" v="Dauingsbukta" />
		<tag k="natural" v="bay" />
		<tag k="ssr:stedsnr" v="635708" />
	</node>
	<node id="-796875" lat="71.111813889" lon="25.3763526062">
		<tag k="name" v="Sandholmen" />
		<tag k="place" v="islet" />
		<tag k="ssr:stedsnr" v="634856" />
	</node>
	<node id="-796871" lat="70.9774472325" lon="26.027955305">
		<tag k="name" v="Østerleia" />
		<tag k="natural" v="strait" />
		<tag k="ssr:stedsnr" v="632486" />
	</node>
	<node id="-796866" lat="70.876788894" lon="25.7336108987">
		<tag k="name" v="Mattisøra" />
		<tag k="natural" v="cape" />
		<tag k="ssr:stedsnr" v="631552" />
	</node>
	<node id="-796864" lat="71.0950444506" lon="25.3558664801">
		<tag k="name" v="Leirpollodden" />
		<tag k="natural" v="cape" />
		<tag k="ssr:stedsnr" v="631285" />
	</node>
	<node id="-796863" lat="71.1025916734" lon="25.4063776095">
		<tag k="name" v="Bukkholmsundet" />
		<tag k="natural" v="strait" />
		<tag k="ssr:stedsnr" v="631275" />
	</node>
	<node id="-796862" lat="71.0993583359" lon="25.3789748267">
		<tag k="name" v="Kjosen" />
		<tag k="natural" v="bay" />
		<tag k="ssr:stedsnr" v="631269" />
	</node>
	<node id="-796859" lat="71.1151638905" lon="25.306597036">
		<tag k="fixme" v="consider seamark:type=rock or natural=shoal" />
		<tag k="name" v="Kvalbeinskjæran" />
		<tag k="place" v="islet" />
		<tag k="ssr:stedsnr" v="627763" />
	</node>
	<node id="-796857" lat="71.1159472264" lon="25.7756497737">
		<tag k="name" v="Støvelneset" />
		<tag k="natural" v="cape" />
		<tag k="ssr:stedsnr" v="626744" />
	</node>
	<node id="-796855" lat="71.1155916662" lon="25.362377607">
		<tag k="name" v="Grønholmen" />
		<tag k="place" v="islet" />
		<tag k="ssr:stedsnr" v="626740" />
	</node>
	<node id="-796848" lat="71.0834555633" lon="25.7199970056">
		<tag k="name" v="Andneset" />
		<tag k="natural" v="cape" />
		<tag k="ssr:stedsnr" v="626397" />
	</node>
	<node id="-796846" lat="71.0962444495" lon="25.437933136">
		<tag k="name" v="Russepollen" />
		<tag k="natural" v="strait" />
		<tag k="ssr:stedsnr" v="626384" />
	</node>
	<node id="-796845" lat="71.1256194526" lon="25.8456914541">
		<tag k="name" v="Reinkeila" />
		<tag k="natural" v="bay" />
		<tag k="ssr:stedsnr" v="626372" />
	</node>
	<node id="-796844" lat="71.0159805566" lon="25.3075248147">
		<tag k="alt_name" v="Vassfjordnæringen" />
		<tag k="name" v="Vannfjordnæringen" />
		<tag k="natural" v="cape" />
		<tag k="ssr:stedsnr" v="626366" />
	</node>
	<node id="-796841" lat="71.0462194461" lon="25.2666859392">
		<tag k="name" v="Gråkollholmen" />
		<tag k="place" v="islet" />
		<tag k="ssr:stedsnr" v="626348" />
	</node>
	<node id="-796839" lat="71.0205666702" lon="26.0151136382">
		<tag k="name" v="Selvågklubben" />
		<tag k="natural" v="cape" />
		<tag k="ssr:stedsnr" v="626276" />
	</node>
	<node id="-796838" lat="71.0219888968" lon="26.2021552944">
		<tag k="fixme" v="consider seamark:type=rock or natural=shoal" />
		<tag k="name" v="Skarvbergskjæret" />
		<tag k="place" v="islet" />
		<tag k="ssr:stedsnr" v="626269" />
	</node>
	<node id="-796836" lat="70.9025305654" lon="25.8643108821">
		<tag k="name" v="Svabergneset - Spáppirnjárga" />
		<tag k="name:no" v="Svabergneset" />
		<tag k="name:se" v="Spáppirnjárga" />
		<tag k="natural" v="cape" />
		<tag k="old_name:se" v="Spabbirnjarga" />
		<tag k="ssr:stedsnr" v="626201" />
	</node>
	<node id="-796828" lat="70.7929083363" lon="25.7490914198">
		<tag k="name" v="Máskaviikknjárga" />
		<tag k="name:se" v="Máskaviikknjárga" />
		<tag k="natural" v="cape" />
		<tag k="old_name:se" v="Maskaviiknjarga;Maskaviikknjárga" />
		<tag k="ssr:stedsnr" v="626133" />
	</node>
	<node id="-796827" lat="70.7740388929" lon="25.6217886635">
		<tag k="name" v="Reinelvbukta" />
		<tag k="natural" v="bay" />
		<tag k="ssr:stedsnr" v="626111" />
	</node>
	<node id="-796823" lat="70.9472722291" lon="25.7653497819">
		<tag k="alt_name" v="Grunnen, vestre" />
		<tag k="name" v="Vestre Grunnen" />
		<tag k="natural" v="shoal" />
		<tag k="place" v="locality" />
		<tag k="ssr:stedsnr" v="626082" />
	</node>
	<node id="-796822" lat="70.9248250066" lon="25.5104275729">
		<tag k="fixme" v="multiple name tags, choose one and add the other to alt_name" />
		<tag k="name" v="Gåsvika, store;Indre Gåsvika;Store Gåsvika - Nuorttat Goalseluokta" />
		<tag k="name:no" v="Gåsvika, store;Indre Gåsvika;Store Gåsvika" />
		<tag k="name:se" v="Nuorttat Goalseluokta" />
		<tag k="natural" v="bay" />
		<tag k="old_name:se" v="Goalseluokta nuortat" />
		<tag k="ssr:stedsnr" v="626046" />
	</node>
	<node id="-796815" lat="71.1549111169" lon="25.5135942619">
		<tag k="name" v="Likholmbåen" />
		<tag k="natural" v="shoal" />
		<tag k="place" v="locality" />
		<tag k="ssr:stedsnr" v="594240" />
	</node>
	<node id="-796814" lat="71.1180694485" lon="25.2920331567">
		<tag k="fixme" v="consider seamark:type=rock or natural=shoal" />
		<tag k="name" v="Ramnholmskjæran" />
		<tag k="place" v="islet" />
		<tag k="ssr:stedsnr" v="594134" />
	</node>
	<node id="-796809" lat="70.7907527796" lon="25.7558053222">
		<tag k="name" v="Hundneset" />
		<tag k="natural" v="cape" />
		<tag k="ssr:stedsnr" v="575544" />
	</node>
	<node id="-796808" lat="70.7507888904" lon="25.6869108832">
		<tag k="name" v="Nordavindskroken" />
		<tag k="natural" v="cape" />
		<tag k="ssr:stedsnr" v="575521" />
	</node>
	<node id="-796806" lat="70.8839583403" lon="25.724149779">
		<tag k="name" v="Sarisneset" />
		<tag k="natural" v="cape" />
		<tag k="ssr:stedsnr" v="571576" />
	</node>
	<node id="-796803" lat="71.0489722292" lon="25.8889442156">
		<tag k="alt_name" v="Risehamna" />
		<tag k="name" v="Rishamn" />
		<tag k="natural" v="bay" />
		<tag k="ssr:stedsnr" v="571254" />
	</node>
	<node id="-796799" lat="71.0952055632" lon="25.4061275857">
		<tag k="name" v="Magerøyneset" />
		<tag k="natural" v="cape" />
		<tag k="ssr:stedsnr" v="570254" />
	</node>
	<node id="-796797" lat="71.1429666736" lon="25.7913858926">
		<tag k="name" v="Ytre Brødsteinbukta" />
		<tag k="natural" v="bay" />
		<tag k="old_name" v="Brødsteinbukta, yt" />
		<tag k="ssr:stedsnr" v="566751" />
	</node>
	<node id="-796796" lat="71.1588194476" lon="25.7677636716">
		<tag k="name" v="Davvenjárga" />
		<tag k="name:se" v="Davvenjárga" />
		<tag k="natural" v="cape" />
		<tag k="old_name:se" v="Davvenjarga" />
		<tag k="ssr:stedsnr" v="566710" />
	</node>
	<node id="-796793" lat="71.1147166673" lon="25.9369469982">
		<tag k="bay" v="fjord" />
		<tag k="name" v="Kaldfjorden" />
		<tag k="natural" v="bay" />
		<tag k="ssr:stedsnr" v="566405" />
	</node>
	<node id="-796792" lat="71.0138166748" lon="25.9280469792">
		<tag k="bay" v="fjord" />
		<tag k="name" v="Skipsfjorden - Skiipavuotna" />
		<tag k="name:no" v="Skipsfjorden" />
		<tag k="name:se" v="Skiipavuotna" />
		<tag k="natural" v="bay" />
		<tag k="old_name:se" v="Skiipavuodna" />
		<tag k="ssr:stedsnr" v="566399" />
	</node>
	<node id="-796791" lat="71.1607277789" lon="25.9401220023">
		<tag k="name" v="Skallen" />
		<tag k="natural" v="shoal" />
		<tag k="place" v="locality" />
		<tag k="ssr:stedsnr" v="566344" />
	</node>
	<node id="-796790" lat="71.1666083342" lon="25.830783114">
		<tag k="name" v="Horngrunnen" />
		<tag k="natural" v="shoal" />
		<tag k="place" v="locality" />
		<tag k="ssr:stedsnr" v="566340" />
	</node>
	<node id="-796785" lat="71.08400556" lon="25.9848997478">
		<tag k="name" v="Bryggemola" />
		<tag k="natural" v="cape" />
		<tag k="ssr:stedsnr" v="566309" />
	</node>
	<node id="-796784" lat="71.1102861197" lon="25.8735247865">
		<tag k="name" v="Molvika" />
		<tag k="natural" v="bay" />
		<tag k="ssr:stedsnr" v="566306" />
	</node>
	<node id="-796781" lat="70.8156222298" lon="25.8060831032">
		<tag k="name" v="Jernøya - Ruovdesuolu" />
		<tag k="name:no" v="Jernøya" />
		<tag k="name:se" v="Ruovdesuolu" />
		<tag k="old_name:se" v="Ruovdesuolo" />
		<tag k="place" v="island" />
		<tag k="ssr:stedsnr" v="566104" />
	</node>
	<node id="-796776" lat="70.744144452" lon="25.6187470029">
		<tag k="name" v="Vedbotn" />
		<tag k="natural" v="bay" />
		<tag k="ssr:stedsnr" v="565970" />
	</node>
	<node id="-796771" lat="70.6939777841" lon="26.0441247315">
		<tag k="name" v="Láttatluokta" />
		<tag k="name:se" v="Láttatluokta" />
		<tag k="natural" v="bay" />
		<tag k="old_name:se" v="Laddatluokta" />
		<tag k="ssr:stedsnr" v="565507" />
	</node>
	<node id="-796770" lat="70.6777055662" lon="26.0218552954">
		<tag k="name" v="Brennvika - Ánddešgohppi" />
		<tag k="name:no" v="Brennvika" />
		<tag k="name:se" v="Ánddešgohppi" />
		<tag k="natural" v="bay" />
		<tag k="old_name:se" v="Andešgåppi" />
		<tag k="ssr:stedsnr" v="565505" />
	</node>
	<node id="-796769" lat="70.7269833399" lon="26.0948691548">
		<tag k="name" v="Ytter-Hårvika - Vuohppegohppi" />
		<tag k="name:no" v="Ytter-Hårvika" />
		<tag k="name:se" v="Vuohppegohppi" />
		<tag k="natural" v="bay" />
		<tag k="old_name:se" v="Vuoppegåppi" />
		<tag k="ssr:stedsnr" v="565479" />
	</node>
	<node id="-796766" lat="71.0951222274" lon="25.3445692695">
		<tag k="name" v="Leirpollen" />
		<tag k="natural" v="strait" />
		<tag k="ssr:stedsnr" v="565342" />
	</node>
	<node id="-796763" lat="71.0450388922" lon="26.2244608363">
		<tag k="name" v="Finnhola" />
		<tag k="natural" v="bay" />
		<tag k="ssr:stedsnr" v="565292" />
	</node>
	<node id="-796762" lat="71.0640027803" lon="25.849358094">
		<tag k="name" v="Fiskevika" />
		<tag k="natural" v="bay" />
		<tag k="ssr:stedsnr" v="565289" />
	</node>
	<node id="-796761" lat="71.0574833376" lon="25.9007442035">
		<tag k="fixme" v="multiple name tags, choose one and add the other to alt_name; consider seamark:type=rock or natural=shoal" />
		<tag k="name" v="Krikkeskjæret;Kollskæeret" />
		<tag k="place" v="islet" />
		<tag k="ssr:stedsnr" v="565284" />
	</node>
	<node id="-796759" lat="71.0159555593" lon="25.8871164277">
		<tag k="name" v="Trollholmen" />
		<tag k="place" v="islet" />
		<tag k="ssr:stedsnr" v="565253" />
	</node>
	<node id="-796758" lat="70.8641944489" lon="25.9013414335">
		<tag k="name" v="Alterkeila - Áltárkeailu" />
		<tag k="name:no" v="Alterkeila" />
		<tag k="name:se" v="Áltárkeailu" />
		<tag k="natural" v="bay" />
		<tag k="old_name:se" v="Altarkæilo" />
		<tag k="ssr:stedsnr" v="565165" />
	</node>
	<node id="-796756" lat="70.9664416742" lon="26.0023192022">
		<tag k="name" v="Seigrunnen" />
		<tag k="natural" v="shoal" />
		<tag k="place" v="locality" />
		<tag k="ssr:stedsnr" v="565160" />
	</node>
	<node id="-796755" lat="70.9728611173" lon="25.9893247573">
		<tag k="name" v="Juldagsneset" />
		<tag k="natural" v="cape" />
		<tag k="ssr:stedsnr" v="565157" />
	</node>
	<node id="-796752" lat="70.7894250038" lon="26.0126747235">
		<tag k="name" v="Ryggen" />
		<tag k="natural" v="shoal" />
		<tag k="place" v="locality" />
		<tag k="ssr:stedsnr" v="565143" />
	</node>
	<node id="-796751" lat="70.7955750109" lon="25.8209691961">
		<tag k="name" v="Tullskallen" />
		<tag k="natural" v="shoal" />
		<tag k="place" v="locality" />
		<tag k="ssr:stedsnr" v="565139" />
	</node>
	<node id="-796750" lat="70.8376388957" lon="25.8307441933">
		<tag k="name" v="Kvalneset" />
		<tag k="natural" v="cape" />
		<tag k="ssr:stedsnr" v="565137" />
	</node>
	<node id="-796746" lat="70.9751416716" lon="25.9770469644">
		<tag k="name" v="Meneset" />
		<tag k="natural" v="cape" />
		<tag k="ssr:stedsnr" v="565059" />
	</node>
	<node id="-796745" lat="70.9365416692" lon="25.6025220062">
		<tag k="name" v="Lille Svartholet" />
		<tag k="natural" v="bay" />
		<tag k="ssr:stedsnr" v="565043" />
	</node>
	<node id="-796744" lat="70.9414694525" lon="25.6110581294">
		<tag k="name" v="Ráktonjárga" />
		<tag k="name:se" v="Ráktonjárga" />
		<tag k="natural" v="cape" />
		<tag k="old_name:se" v="Raktunjarga" />
		<tag k="ssr:stedsnr" v="565041" />
	</node>
	<node id="-796743" lat="70.9729194498" lon="25.7653942323">
		<tag k="name" v="Sarnesspira" />
		<tag k="natural" v="shoal" />
		<tag k="place" v="locality" />
		<tag k="ssr:stedsnr" v="533496" />
	</node>
	<node id="-796741" lat="71.0824194519" lon="25.9682775359">
		<tag k="name" v="Bryggenæringen" />
		<tag k="natural" v="cape" />
		<tag k="ssr:stedsnr" v="533355" />
	</node>
	<node id="-796740" lat="70.9738388916" lon="25.7794497827">
		<tag k="name" v="Sarnesøra" />
		<tag k="natural" v="cape" />
		<tag k="ssr:stedsnr" v="527176" />
	</node>
	<node id="-796736" lat="70.7495611199" lon="25.6662414325">
		<tag k="name" v="Fiskebuktneset" />
		<tag k="natural" v="cape" />
		<tag k="ssr:stedsnr" v="514589" />
	</node>
	<node id="-796735" lat="70.7521361169" lon="25.6506358848">
		<tag k="name" v="Garnkeila" />
		<tag k="natural" v="bay" />
		<tag k="ssr:stedsnr" v="514586" />
	</node>
	<node id="-796732" lat="70.9762833406" lon="26.0204692026">
		<tag k="name" v="Vesterleia" />
		<tag k="natural" v="strait" />
		<tag k="ssr:stedsnr" v="511464" />
	</node>
	<node id="-796731" lat="71.0545333403" lon="25.9197692094">
		<tag k="name" v="Vestersundet" />
		<tag k="natural" v="strait" />
		<tag k="ssr:stedsnr" v="511281" />
	</node>
	<node id="-796730" lat="71.048336118" lon="25.9003858826">
		<tag k="name" v="Bullvika" />
		<tag k="natural" v="bay" />
		<tag k="ssr:stedsnr" v="511277" />
	</node>
	<node id="-796729" lat="71.0502916712" lon="25.9066358837">
		<tag k="name" v="Hjalmarneset" />
		<tag k="natural" v="cape" />
		<tag k="ssr:stedsnr" v="511276" />
	</node>
	<node id="-796726" lat="71.0560111157" lon="25.9034553176">
		<tag k="name" v="Lille Kamøysundet" />
		<tag k="natural" v="strait" />
		<tag k="ssr:stedsnr" v="511257" />
	</node>
	<node id="-796724" lat="70.8892444497" lon="25.7519775396">
		<tag k="name" v="Store Sandbukta" />
		<tag k="natural" v="bay" />
		<tag k="ssr:stedsnr" v="510580" />
	</node>
	<node id="-796722" lat="71.0930361184" lon="25.3629498135">
		<tag k="name" v="Vasslineset" />
		<tag k="natural" v="cape" />
		<tag k="ssr:stedsnr" v="510304" />
	</node>
	<node id="-796721" lat="71.0949972247" lon="25.3312914772">
		<tag k="name" v="Lilleholmen" />
		<tag k="place" v="islet" />
		<tag k="ssr:stedsnr" v="510298" />
	</node>
	<node id="-796720" lat="71.1038611153" lon="25.3780081535">
		<tag k="name" v="Storhamnkjæften" />
		<tag k="natural" v="strait" />
		<tag k="ssr:stedsnr" v="510294" />
	</node>
	<node id="-796719" lat="70.9037472292" lon="25.8590053189">
		<tag k="name" v="Svabergbukta" />
		<tag k="natural" v="bay" />
		<tag k="ssr:stedsnr" v="509449" />
	</node>
	<node id="-796718" lat="70.9930916759" lon="25.9473914222">
		<tag k="name" v="Even Hansen-bukta" />
		<tag k="natural" v="bay" />
		<tag k="ssr:stedsnr" v="509309" />
	</node>
	<node id="-796717" lat="70.7455638923" lon="25.688783088">
		<tag k="name" v="Nuortaroahkki" />
		<tag k="name:se" v="Nuortaroahkki" />
		<tag k="natural" v="cape" />
		<tag k="old_name:se" v="Nuortaroakki" />
		<tag k="ssr:stedsnr" v="505957" />
	</node>
	<node id="-796716" lat="70.7286916678" lon="25.6112247827">
		<tag k="name" v="Grunnbergan" />
		<tag k="natural" v="beach" />
		<tag k="place" v="locality" />
		<tag k="ssr:stedsnr" v="505936" />
	</node>
	<node id="-796714" lat="71.1293527833" lon="25.3751637065">
		<tag k="name" v="Bukkstappen" />
		<tag k="place" v="island" />
		<tag k="ssr:stedsnr" v="505757" />
	</node>
	<node id="-796713" lat="71.1369000053" lon="25.5887303666">
		<tag k="name" v="Storkjeftan" />
		<tag k="natural" v="bay" />
		<tag k="ssr:stedsnr" v="505755" />
	</node>
	<node id="-796711" lat="71.0963472265" lon="25.3249692616">
		<tag k="name" v="Langneset" />
		<tag k="natural" v="cape" />
		<tag k="ssr:stedsnr" v="505748" />
	</node>
	<node id="-796710" lat="71.1074527837" lon="25.3485081591">
		<tag k="name" v="Lyngøya" />
		<tag k="place" v="island" />
		<tag k="ssr:stedsnr" v="505742" />
	</node>
	<node id="-796709" lat="71.1164750017" lon="25.475352587">
		<tag k="fixme" v="consider seamark:type=rock or natural=shoal" />
		<tag k="name" v="Kavringen" />
		<tag k="place" v="islet" />
		<tag k="ssr:stedsnr" v="505736" />
	</node>
	<node id="-796707" lat="71.1584083415" lon="25.7060275749">
		<tag k="alt_name" v="Avløysningen" />
		<tag k="name" v="Avløysa" />
		<tag k="natural" v="cape" />
		<tag k="ssr:stedsnr" v="505720" />
	</node>
	<node id="-796706" lat="71.072641667" lon="25.186547057">
		<tag k="name" v="Kågrunnen" />
		<tag k="natural" v="shoal" />
		<tag k="place" v="locality" />
		<tag k="ssr:stedsnr" v="505694" />
	</node>
	<node id="-796704" lat="70.6896666713" lon="26.0310358418">
		<tag k="name" v="Sáluokta" />
		<tag k="name:se" v="Sáluokta" />
		<tag k="natural" v="bay" />
		<tag k="old_name:se" v="Saluokta" />
		<tag k="ssr:stedsnr" v="505526" />
	</node>
	<node id="-796703" lat="70.6855750082" lon="26.0318414092">
		<tag k="name" v="Buollánnjárga" />
		<tag k="name:se" v="Buollánnjárga" />
		<tag k="natural" v="cape" />
		<tag k="old_name:se" v="Buollannjarga" />
		<tag k="ssr:stedsnr" v="505524" />
	</node>
	<node id="-796701" lat="70.9703944523" lon="25.7550358985">
		<tag k="bay" v="fjord" />
		<tag k="name" v="Sarnesfjorden - Sárravuotna" />
		<tag k="name:no" v="Sarnesfjorden" />
		<tag k="name:se" v="Sárravuotna" />
		<tag k="natural" v="bay" />
		<tag k="ssr:stedsnr" v="505479" />
	</node>
	<node id="-796698" lat="71.1124000063" lon="25.8617136771">
		<tag k="bay" v="fjord" />
		<tag k="name" v="Risfjorden" />
		<tag k="natural" v="bay" />
		<tag k="ssr:stedsnr" v="505404" />
	</node>
	<node id="-796694" lat="71.0926277817" lon="25.4237025817">
		<tag k="name" v="Storbukta" />
		<tag k="natural" v="bay" />
		<tag k="ssr:stedsnr" v="505364" />
	</node>
	<node id="-796692" lat="71.0021861195" lon="25.4302081331">
		<tag k="name" v="Skittenvika" />
		<tag k="natural" v="bay" />
		<tag k="ssr:stedsnr" v="505349" />
	</node>
	<node id="-796691" lat="71.0597944549" lon="26.0099553063">
		<tag k="bay" v="fjord" />
		<tag k="name" v="Kamøyfjorden - Gáhpevuotna" />
		<tag k="name:no" v="Kamøyfjorden" />
		<tag k="name:se" v="Gáhpevuotna" />
		<tag k="natural" v="bay" />
		<tag k="old_name:se" v="Cappevuodna" />
		<tag k="ssr:stedsnr" v="505310" />
	</node>
	<node id="-796688" lat="70.897200003" lon="25.8601608823">
		<tag k="name" v="Lille-Porsangvika - Uhca Gihcádat" />
		<tag k="name:no" v="Lille-Porsangvika" />
		<tag k="name:se" v="Uhca Gihcádat" />
		<tag k="natural" v="bay" />
		<tag k="old_name:se" v="Giccadat ucca" />
		<tag k="ssr:stedsnr" v="505192" />
	</node>
	<node id="-796687" lat="70.9042888954" lon="26.4513302491">
		<tag k="alt_name:no" v="Rekvika, yt" />
		<tag k="name" v="Ytre Rekvika - Olggut Golgadeapmi" />
		<tag k="name:no" v="Ytre Rekvika" />
		<tag k="name:se" v="Olggut Golgadeapmi" />
		<tag k="natural" v="bay" />
		<tag k="old_name:se" v="Gålgadæbmi ålgot" />
		<tag k="ssr:stedsnr" v="505159" />
	</node>
	<node id="-796684" lat="70.9028972282" lon="25.5306331301">
		<tag k="name" v="Skjellvika - Bealjáidluokta" />
		<tag k="name:no" v="Skjellvika" />
		<tag k="name:se" v="Bealjáidluokta" />
		<tag k="natural" v="bay" />
		<tag k="old_name:se" v="Bælljaidluokta" />
		<tag k="ssr:stedsnr" v="505045" />
	</node>
	<node id="-796683" lat="70.8920472241" lon="25.7524275566">
		<tag k="name" v="Seigrunnen" />
		<tag k="natural" v="shoal" />
		<tag k="place" v="locality" />
		<tag k="ssr:stedsnr" v="505040" />
	</node>
	<node id="-796682" lat="70.9065083345" lon="25.6439331232">
		<tag k="name" v="Storvika" />
		<tag k="natural" v="bay" />
		<tag k="ssr:stedsnr" v="505034" />
	</node>
	<node id="-796680" lat="70.8731555642" lon="25.4726303474">
		<tag k="bay" v="fjord" />
		<tag k="name" v="Vester-Lafjorden - Lávvárvuotna" />
		<tag k="name:no" v="Vester-Lafjorden" />
		<tag k="name:se" v="Lávvárvuotna" />
		<tag k="natural" v="bay" />
		<tag k="old_name:se" v="Lavvarvuodna" />
		<tag k="ssr:stedsnr" v="505028" />
	</node>
	<node id="-796679" lat="70.8679611136" lon="25.4271525739">
		<tag k="name" v="Laukvika" />
		<tag k="natural" v="bay" />
		<tag k="ssr:stedsnr" v="505023" />
	</node>
	<node id="-796674" lat="70.7826833357" lon="25.7149608787">
		<tag k="fixme" v="multiple name tags, choose one and add the other to alt_name" />
		<tag k="name" v="Mannskarviknakken;Nakken" />
		<tag k="natural" v="cape" />
		<tag k="ssr:stedsnr" v="454738" />
	</node>
</osm>
