<?xml version="1.0" encoding="UTF-8"?>
<osm generator="osmapis" version="0.6">
	<node id="-795261" lat="70.9778250076" lon="25.7150775592">
		<tag k="layer" v="-1" />
		<tag k="name" v="Sarnestunnelen" />
		<tag k="ssr:stedsnr" v="408777" />
		<tag k="tunnel" v="yes" />
	</node>
	<node id="-796218" lat="70.9251083374" lon="25.6970858983">
		<tag k="layer" v="-1" />
		<tag k="name" v="Nordkapptunnelen" />
		<tag k="ssr:stedsnr" v="935938" />
		<tag k="tunnel" v="yes" />
	</node>
	<node id="-795320" lat="70.9607472296" lon="25.680058124">
		<tag k="landuse" v="harbour" />
		<tag k="name" v="Kobbholet" />
		<tag k="seamark:type" v="harbour" />
		<tag k="ssr:stedsnr" v="20454" />
	</node>
	<node id="-795895" lat="70.9850527869" lon="25.8696469992">
		<tag k="layer" v="-1" />
		<tag k="name" v="Honningsvågtunnelen" />
		<tag k="ssr:stedsnr" v="631780" />
		<tag k="tunnel" v="yes" />
	</node>
	<node id="-795540" lat="71.0089916716" lon="25.9779830759">
		<tag k="aeroway" v="aerodrome" />
		<tag k="alt_name" v="Valan" />
		<tag k="name" v="Honningsvåg lufthavn, Valan" />
		<tag k="old_name" v="Honningsvåg lufthavn" />
		<tag k="ssr:stedsnr" v="206315" />
	</node>
	<node id="-795218" lat="71.1011111181" lon="25.3933692697">
		<tag k="landuse" v="harbour" />
		<tag k="name" v="Gjesværhamna" />
		<tag k="seamark:type" v="harbour" />
		<tag k="ssr:stedsnr" v="388271" />
	</node>
	<node id="-795755" lat="71.0484444503" lon="25.907258104">
		<tag k="leisure" v="marina" />
		<tag k="name" v="Russehamn" />
		<tag k="ssr:stedsnr" v="511270" />
	</node>
	<node id="-795620" lat="71.1015611128" lon="25.3621609312">
		<tag k="name" v="Nordhamn" />
		<tag k="place" v="locality" />
		<tag k="ssr:stedsnr" v="267263" />
	</node>
	<node id="-795235" lat="71.0992638897" lon="25.3843359328">
		<tag k="man_made" v="quay" />
		<tag k="name" v="Nygård" />
		<tag k="place" v="locality" />
		<tag k="ssr:stedsnr" v="393110" />
	</node>
</osm>
