<?xml version="1.0" encoding="UTF-8"?>
<osm generator="osmapis" version="0.6">
	<node id="-795392" lat="71.0786583374" lon="25.740994227">
		<tag k="name" v="Tufjorden" />
		<tag k="place" v="isolated_dwelling" />
		<tag k="ssr:stedsnr" v="81399" />
	</node>
	<node id="-796159" lat="70.8447805596" lon="25.4426581212">
		<tag k="name" v="Námmegieddi" />
		<tag k="name:se" v="Námmegieddi" />
		<tag k="old_name:se" v="Nammegieddi" />
		<tag k="place" v="locality" />
		<tag k="ssr:stedsnr" v="930007" />
	</node>
	<node id="-795769" lat="70.6967388933" lon="26.0496524971">
		<tag k="name" v="Inner-Hårvika" />
		<tag k="place" v="locality" />
		<tag k="ssr:stedsnr" v="533467" />
	</node>
	<node id="-795638" lat="71.0983194502" lon="25.3760775993">
		<tag k="name" v="Gjesvær" />
		<tag k="place" v="village" />
		<tag k="ssr:stedsnr" v="444315" />
	</node>
	<node id="-795892" lat="70.9960777825" lon="25.9702441902">
		<tag k="name" v="Storbukt" />
		<tag k="place" v="quarter" />
		<tag k="ssr:stedsnr" v="631301" />
	</node>
	<node id="-795123" lat="71.0021777867" lon="26.1124719751">
		<tag k="name" v="Kjelvik" />
		<tag k="place" v="hamlet" />
		<tag k="ssr:stedsnr" v="323274" />
	</node>
	<node id="-795376" lat="70.8926000056" lon="25.7697081013">
		<tag k="fixme" v="consider place=hamlet" />
		<tag k="name" v="Ytre Kåfjord" />
		<tag k="old_name" v="Kåfjord, yt" />
		<tag k="place" v="village" />
		<tag k="ssr:stedsnr" v="81031" />
	</node>
	<node id="-795574" lat="70.8638416748" lon="25.7199997665">
		<tag k="alt_name" v="Kåfjord, in" />
		<tag k="name" v="Indre Kåfjord" />
		<tag k="place" v="farm" />
		<tag k="ssr:stedsnr" v="262006" />
	</node>
	<node id="-796011" lat="71.0242722286" lon="25.3876692572">
		<tag k="name" v="Innerværet" />
		<tag k="place" v="locality" />
		<tag k="ssr:stedsnr" v="748333" />
	</node>
	<node id="-795498" lat="70.8672777805" lon="25.4944220103">
		<tag k="name" v="Austre Lafjord" />
		<tag k="place" v="isolated_dwelling" />
		<tag k="ssr:stedsnr" v="170154" />
	</node>
	<node id="-795303" lat="71.0754388943" lon="25.8703803312">
		<tag k="name" v="Duksfjord" />
		<tag k="place" v="isolated_dwelling" />
		<tag k="ssr:stedsnr" v="20295" />
	</node>
	<node id="-795619" lat="71.1003972275" lon="25.3619109323">
		<tag k="name" v="Gammelvær" />
		<tag k="place" v="locality" />
		<tag k="ssr:stedsnr" v="267262" />
	</node>
	<node id="-795102" lat="70.7233111183" lon="26.0892691681">
		<tag k="name" v="Vesterjordet" />
		<tag k="place" v="isolated_dwelling" />
		<tag k="ssr:stedsnr" v="291570" />
	</node>
	<node id="-795612" lat="70.9739027861" lon="25.4786025737">
		<tag k="name" v="Finnvika" />
		<tag k="place" v="locality" />
		<tag k="ssr:stedsnr" v="263470" />
	</node>
	<node id="-795867" lat="71.0486555634" lon="25.9054053329">
		<tag k="name" v="Kamøyvær" />
		<tag k="place" v="village" />
		<tag k="ssr:stedsnr" v="626342" />
	</node>
	<node id="-795610" lat="71.0370944493" lon="25.4843497995">
		<tag k="name" v="Gammelvær" />
		<tag k="place" v="isolated_dwelling" />
		<tag k="ssr:stedsnr" v="263363" />
	</node>
	<node id="-795356" lat="70.978872233" lon="25.9767914169">
		<tag k="alt_name" v="Sørvågen" />
		<tag k="name" v="Honningsvåg" />
		<tag k="place" v="town" />
		<tag k="ssr:stedsnr" v="80187" />
	</node>
	<node id="-795987" lat="70.8763916726" lon="25.8451914263">
		<tag k="name" v="Hjellnes" />
		<tag k="place" v="locality" />
		<tag k="ssr:stedsnr" v="747170" />
	</node>
	<node id="-795427" lat="70.97721667" lon="25.7742608918">
		<tag k="name" v="Sarnes" />
		<tag k="place" v="farm" />
		<tag k="ssr:stedsnr" v="120433" />
	</node>
	<node id="-795344" lat="70.7512166715" lon="25.5890914353">
		<tag k="name" v="Stranda" />
		<tag k="place" v="hamlet" />
		<tag k="ssr:stedsnr" v="29724" />
	</node>
	<node id="-795599" lat="70.7470277821" lon="25.6731997817">
		<tag k="fixme" v="consider place=hamlet" />
		<tag k="name" v="Repvåg - Reiffváhki" />
		<tag k="name:no" v="Repvåg" />
		<tag k="name:se" v="Reiffváhki" />
		<tag k="old_name:se" v="Reifvakki" />
		<tag k="place" v="village" />
		<tag k="ssr:stedsnr" v="262979" />
	</node>
	<node id="-795982" lat="71.0241371194" lon="25.8967901392">
		<tag k="name" v="Skipsfjord" />
		<tag k="place" v="isolated_dwelling" />
		<tag k="ssr:stedsnr" v="747250" />
	</node>
	<node id="-795852" lat="70.9758361139" lon="25.8544664402">
		<tag k="alt_name" v="Baklia, midtre" />
		<tag k="name" v="Midtre Baklia" />
		<tag k="place" v="isolated_dwelling" />
		<tag k="ssr:stedsnr" v="626092" />
	</node>
	<node id="-795851" lat="70.9735833427" lon="25.856388656">
		<tag k="alt_name" v="Baklia, yt" />
		<tag k="name" v="Ytre Baklia" />
		<tag k="place" v="locality" />
		<tag k="ssr:stedsnr" v="626091" />
	</node>
	<node id="-796104" lat="70.8973305595" lon="25.5176136942">
		<tag k="name" v="Misjona" />
		<tag k="place" v="isolated_dwelling" />
		<tag k="ssr:stedsnr" v="838185" />
	</node>
	<node id="-795343" lat="70.7765833416" lon="25.6274386605">
		<tag k="name" v="Reinelv" />
		<tag k="place" v="hamlet" />
		<tag k="ssr:stedsnr" v="29721" />
	</node>
	<node id="-796102" lat="70.7175805647" lon="26.1001136143">
		<tag k="name" v="Gamjordet" />
		<tag k="place" v="locality" />
		<tag k="ssr:stedsnr" v="837564" />
	</node>
	<node id="-796101" lat="70.7557388996" lon="26.1386413845">
		<tag k="name" v="Sinkelvika" />
		<tag k="place" v="isolated_dwelling" />
		<tag k="ssr:stedsnr" v="837549" />
	</node>
	<node id="-795716" lat="71.0423888925" lon="25.8972080997">
		<tag k="name" v="Kuvika" />
		<tag k="place" v="isolated_dwelling" />
		<tag k="ssr:stedsnr" v="505263" />
	</node>
	<node id="-795843" lat="70.8669527796" lon="25.7279831104">
		<tag k="name" v="Sarrisvik" />
		<tag k="place" v="locality" />
		<tag k="ssr:stedsnr" v="594857" />
	</node>
	<node id="-795839" lat="70.756966671" lon="25.8113553221">
		<tag k="name" v="Lille-Tamsøya" />
		<tag k="place" v="isolated_dwelling" />
		<tag k="ssr:stedsnr" v="594528" />
	</node>
	<node id="-795966" lat="70.8734861174" lon="25.7503914308">
		<tag k="name" v="Montejorda" />
		<tag k="place" v="farm" />
		<tag k="ssr:stedsnr" v="692860" />
	</node>
	<node id="-796093" lat="70.766597229" lon="25.6049636699">
		<tag k="historic" v="shieling" />
		<tag k="name" v="Setran" />
		<tag k="place" v="locality" />
		<tag k="ssr:stedsnr" v="818724" />
	</node>
	<node id="-795962" lat="70.9889361221" lon="25.9670553031">
		<tag k="name" v="Holmbukt" />
		<tag k="place" v="hamlet" />
		<tag k="ssr:stedsnr" v="691676" />
	</node>
	<node id="-795576" lat="70.8691055638" lon="25.5240414645">
		<tag k="historic" v="shieling" />
		<tag k="name" v="Sætra" />
		<tag k="place" v="locality" />
		<tag k="ssr:stedsnr" v="262016" />
	</node>
	<node id="-795703" lat="70.9742500055" lon="25.7801775616">
		<tag k="name" v="Sarnes" />
		<tag k="place" v="farm" />
		<tag k="ssr:stedsnr" v="484421" />
	</node>
	<node id="-795702" lat="70.7003000096" lon="26.0447386303">
		<tag k="name" v="Langbukta" />
		<tag k="place" v="locality" />
		<tag k="ssr:stedsnr" v="472447" />
	</node>
	<node id="-795829" lat="70.8698823725" lon="25.7508705719">
		<tag k="name" v="Bårdjorda" />
		<tag k="place" v="locality" />
		<tag k="ssr:stedsnr" v="570843" />
	</node>
	<node id="-796212" lat="70.9820777796" lon="25.9702747573">
		<tag k="name" v="Holmen" />
		<tag k="place" v="quarter" />
		<tag k="ssr:stedsnr" v="934302" />
	</node>
	<node id="-795443" lat="71.0086611178" lon="25.8902886562">
		<tag k="name" v="Austerelva" />
		<tag k="place" v="isolated_dwelling" />
		<tag k="ssr:stedsnr" v="141270" />
	</node>
	<node id="-795694" lat="71.0291916717" lon="25.5876609206">
		<tag k="fixme" v="consider tourism=alpine_hut or tourism=chalet" />
		<tag k="name" v="Vannfjordhytta" />
		<tag k="ssr:stedsnr" v="450805" />
		<tag k="tourism" v="wilderness_hut" />
	</node>
	<node id="-795949" lat="70.7651500024" lon="25.6116553314">
		<tag k="fixme" v="consider place=hamlet" />
		<tag k="loc_name:no" v="Stranda" />
		<tag k="loc_name:se" v="Strándá" />
		<tag k="name" v="Repvågstranda" />
		<tag k="name:no" v="Repvågstranda" />
		<tag k="place" v="village" />
		<tag k="ssr:stedsnr" v="688083" />
	</node>
	<node id="-795948" lat="70.7512472298" lon="25.6765331147">
		<tag k="name" v="Repvåg" />
		<tag k="place" v="isolated_dwelling" />
		<tag k="ssr:stedsnr" v="688075" />
	</node>
	<node id="-795563" lat="70.7524527789" lon="25.6817331142">
		<tag k="name" v="Nystykket" />
		<tag k="place" v="locality" />
		<tag k="ssr:stedsnr" v="211556" />
	</node>
	<node id="-796201" lat="71.1625750028" lon="25.7422053471">
		<tag k="alt_name" v="Kappa, l" />
		<tag k="name" v="Lille Kappa" />
		<tag k="place" v="locality" />
		<tag k="ssr:stedsnr" v="930719" />
	</node>
	<node id="-795815" lat="71.019608339" lon="25.362788713">
		<tag k="name" v="Ytterværet" />
		<tag k="place" v="locality" />
		<tag k="ssr:stedsnr" v="566336" />
	</node>
	<node id="-795942" lat="71.164088893" lon="25.5580498109">
		<tag k="name" v="Tunes" />
		<tag k="place" v="locality" />
		<tag k="ssr:stedsnr" v="687705" />
	</node>
	<node id="-795301" lat="71.1131944496" lon="25.8269914596">
		<tag k="name" v="Skarsvåg" />
		<tag k="place" v="village" />
		<tag k="ssr:stedsnr" v="20292" />
	</node>
	<node id="-795556" lat="71.0613111151" lon="26.2209636327">
		<tag k="name" v="Helnes fyr/Fyrmesterboligen" />
		<tag k="place" v="isolated_dwelling" />
		<tag k="ssr:stedsnr" v="209469" />
	</node>
	<node id="-795974" lat="71.0932305619" lon="25.3627359205">
		<tag k="name" v="Vasslia" />
		<tag k="place" v="isolated_dwelling" />
		<tag k="ssr:stedsnr" v="715153" />
	</node>
	<node id="-795426" lat="70.9593944451" lon="25.4357692556">
		<tag k="name" v="Risvika" />
		<tag k="place" v="isolated_dwelling" />
		<tag k="ssr:stedsnr" v="109854" />
	</node>
	<node id="-795551" lat="71.0261750019" lon="25.8932914325">
		<tag k="name" v="Skipsfjord" />
		<tag k="place" v="hamlet" />
		<tag k="ssr:stedsnr" v="208309" />
	</node>
	<node id="-795422" lat="70.7574722265" lon="25.5965886616">
		<tag k="name" v="Strand" />
		<tag k="place" v="farm" />
		<tag k="ssr:stedsnr" v="109002" />
	</node>
	<node id="-795717" lat="71.0108416735" lon="26.0379469639">
		<tag k="alt_name" v="Falkebergbukta" />
		<tag k="name" v="Falkbergbukta" />
		<tag k="place" v="isolated_dwelling" />
		<tag k="ssr:stedsnr" v="505277" />
	</node>
	<node id="-795845" lat="70.9734777846" lon="25.778944234">
		<tag k="name" v="Sarnes" />
		<tag k="place" v="farm" />
		<tag k="ssr:stedsnr" v="605441" />
	</node>
	<node id="-795162" lat="71.0075611169" lon="25.961335882">
		<tag k="name" v="Nordmannset" />
		<tag k="place" v="hamlet" />
		<tag k="ssr:stedsnr" v="345169" />
	</node>
	<node id="-795545" lat="70.875005562" lon="25.7530553258">
		<tag k="name" v="Nilsplass" />
		<tag k="place" v="farm" />
		<tag k="ssr:stedsnr" v="207550" />
	</node>
	<node id="-795192" lat="70.8635166722" lon="25.4075525794">
		<tag k="fixme" v="multiple name tags, choose one and add the other to alt_name" />
		<tag k="loc_name" v="Lafjord" />
		<tag k="name" v="Lafjorden;Vestre Lafjord" />
		<tag k="place" v="isolated_dwelling" />
		<tag k="ssr:stedsnr" v="384027" />
	</node>
	<node id="-795794" lat="71.0930055633" lon="25.5520664755">
		<tag k="name" v="Risfjorden" />
		<tag k="place" v="isolated_dwelling" />
		<tag k="ssr:stedsnr" v="565347" />
	</node>
	<node id="-796049" lat="70.9458138976" lon="25.6501025658">
		<tag k="name" v="Gullgammen - Guvla" />
		<tag k="name:no" v="Gullgammen" />
		<tag k="name:se" v="Guvla" />
		<tag k="place" v="locality" />
		<tag k="ssr:stedsnr" v="808040" />
	</node>
	<node id="-795280" lat="70.8762000092" lon="25.7554081066">
		<tag k="name" v="Kåfjord" />
		<tag k="place" v="hamlet" />
		<tag k="ssr:stedsnr" v="20017" />
	</node>
	<node id="-796047" lat="70.8222861154" lon="25.7749442202">
		<tag k="name" v="Sandvik" />
		<tag k="place" v="isolated_dwelling" />
		<tag k="ssr:stedsnr" v="776523" />
	</node>
	<node id="-795693" lat="70.8645361185" lon="25.724071989">
		<tag k="name" v="Solvang" />
		<tag k="place" v="farm" />
		<tag k="ssr:stedsnr" v="450619" />
	</node>
	<node id="-795915" lat="70.895994451" lon="25.5827886728">
		<tag k="name" v="Laholmen - Sullovuolli" />
		<tag k="name:no" v="Laholmen" />
		<tag k="name:se" v="Sullovuolli" />
		<tag k="old_name:se" v="Sulluvuolli" />
		<tag k="place" v="locality" />
		<tag k="ssr:stedsnr" v="687029" />
	</node>
	<node id="-795914" lat="70.905588893" lon="25.6084997906">
		<tag k="name" v="Gamnes" />
		<tag k="place" v="locality" />
		<tag k="ssr:stedsnr" v="655856" />
	</node>
	<node id="-796166" lat="70.97661945" lon="25.8238747594">
		<tag k="alt_name" v="Baklia, in" />
		<tag k="name" v="Indre Baklia" />
		<tag k="place" v="isolated_dwelling" />
		<tag k="ssr:stedsnr" v="930068" />
	</node>
	<node id="-795781" lat="70.9804527827" lon="26.0320608475">
		<tag k="name" v="Nordvågen" />
		<tag k="place" v="village" />
		<tag k="ssr:stedsnr" v="565155" />
	</node>
	<node id="-795394" lat="70.9735583435" lon="25.7953830971">
		<tag k="loc_name:se" v="Sárranjárga" />
		<tag k="name" v="Sarnes" />
		<tag k="name:no" v="Sarnes" />
		<tag k="place" v="hamlet" />
		<tag k="ssr:stedsnr" v="81489" />
	</node>
</osm>
