<?xml version="1.0" encoding="UTF-8"?>
<<<<<<< HEAD
<osm version="0.6" generator="osmapis">
	<node lat="59.75752499561934" lon="10.745433341336964" id="-14402">
		<tag k="name" v="Fålemyra" />
		<tag k="natural" v="wetland" />
		<tag k="ssr:stedsnr" v="22809" />
	</node>
	<node lat="59.60953611106463" lon="10.848691668912936" id="-14411">
		<tag k="name" v="Tierudmåsan" />
		<tag k="natural" v="wetland" />
		<tag k="ssr:stedsnr" v="64367" />
	</node>
	<node lat="59.75060833076676" lon="10.810180552194765" id="-14428">
		<tag k="name" v="Dogga" />
		<tag k="place" v="locality" />
		<tag k="ssr:stedsnr" v="248373" />
	</node>
	<node lat="59.67035555156805" lon="10.787844444736242" id="-14468">
		<tag k="name" v="Åsmåsan" />
		<tag k="natural" v="wetland" />
		<tag k="ssr:stedsnr" v="246416" />
	</node>
	<node lat="59.6726555589765" lon="10.737949997932022" id="-14482">
		<tag k="name" v="Flyern" />
=======
<osm generator="osmapis" version="0.6">
	<node id="-245760" lat="59.7333388921" lon="10.7794916683">
		<tag k="name" v="Lasthol" />
>>>>>>> e1d4bc35ff8a6074a6f2e91616a996b547c36f15
		<tag k="place" v="locality" />
		<tag k="ssr:stedsnr" v="265732" />
	</node>
<<<<<<< HEAD
	<node lat="59.666552779892434" lon="10.751841664991334" id="-14496">
		<tag k="name" v="Brønnerudteigen" />
=======
	<node id="-246142" lat="59.6779027778" lon="10.8108694492">
		<tag k="name" v="Skuterudløkka" />
>>>>>>> e1d4bc35ff8a6074a6f2e91616a996b547c36f15
		<tag k="place" v="locality" />
		<tag k="ssr:stedsnr" v="326702" />
	</node>
<<<<<<< HEAD
	<node lat="59.750663892595625" lon="10.772138882344523" id="-14514">
		<tag k="name" v="Langmyr" />
=======
	<node id="-245756" lat="59.6593583304" lon="10.7401805584">
		<tag k="name" v="Korsegårdsmåsan" />
>>>>>>> e1d4bc35ff8a6074a6f2e91616a996b547c36f15
		<tag k="natural" v="wetland" />
		<tag k="ssr:stedsnr" v="386815" />
	</node>
<<<<<<< HEAD
	<node lat="59.72668055638069" lon="10.76889721525189" id="-14531">
		<tag k="name" v="Kirkerudmåsan" />
=======
	<node id="-246267" lat="59.713597222" lon="10.7984305601">
		<tag k="name" v="Rismyra" />
>>>>>>> e1d4bc35ff8a6074a6f2e91616a996b547c36f15
		<tag k="natural" v="wetland" />
		<tag k="ssr:stedsnr" v="447424" />
	</node>
<<<<<<< HEAD
	<node lat="59.740977777963884" lon="10.728730552530797" id="-14560">
		<tag k="name" v="Skorva" />
		<tag k="place" v="locality" />
		<tag k="ssr:stedsnr" v="508497" />
	</node>
	<node lat="59.72709444733575" lon="10.787166658510621" id="-14567">
		<tag k="name" v="Verket" />
=======
	<node id="-246137" lat="59.6630055582" lon="10.7674472162">
		<tag k="name" v="Kjerringjordet" />
>>>>>>> e1d4bc35ff8a6074a6f2e91616a996b547c36f15
		<tag k="place" v="locality" />
		<tag k="ssr:stedsnr" v="690019" />
	</node>
<<<<<<< HEAD
	<node lat="59.66723888487957" lon="10.696516659822805" id="-14576">
		<tag k="name" v="Follemyra" />
=======
	<node id="-245876" lat="59.6764694468" lon="10.7601777727">
		<tag k="name" v="Halebrenna" />
>>>>>>> e1d4bc35ff8a6074a6f2e91616a996b547c36f15
		<tag k="place" v="locality" />
		<tag k="ssr:stedsnr" v="690859" />
	</node>
<<<<<<< HEAD
	<node lat="59.747855557061904" lon="10.76836666719907" id="-14585">
		<tag k="name" v="Hestehagemyr" />
=======
	<node id="-246259" lat="59.7526999969" lon="10.7653861168">
		<tag k="name" v="Fløytemyr" />
>>>>>>> e1d4bc35ff8a6074a6f2e91616a996b547c36f15
		<tag k="natural" v="wetland" />
		<tag k="ssr:stedsnr" v="568805" />
	</node>
<<<<<<< HEAD
	<node lat="59.75345277516082" lon="10.747847225265007" id="-14600">
		<tag k="name" v="Bjønnemyra" />
		<tag k="natural" v="wetland" />
		<tag k="ssr:stedsnr" v="629809" />
	</node>
	<node lat="59.67285000173319" lon="10.757383334658932" id="-14610">
		<tag k="name" v="Nordskogen" />
=======
	<node id="-246256" lat="59.6753444443" lon="10.7686416675">
		<tag k="landuse" v="meadow" />
		<tag k="name" v="Nordbyenga" />
		<tag k="ssr:stedsnr" v="811673" />
	</node>
	<node id="-245743" lat="59.672655559" lon="10.7379499979">
		<tag k="name" v="Flyern" />
>>>>>>> e1d4bc35ff8a6074a6f2e91616a996b547c36f15
		<tag k="place" v="locality" />
		<tag k="ssr:stedsnr" v="690724" />
	</node>
<<<<<<< HEAD
	<node lat="59.676469446777986" lon="10.760177772653012" id="-14611">
		<tag k="name" v="Halebrenna" />
=======
	<node id="-245863" lat="59.7270944473" lon="10.7871666585">
		<tag k="name" v="Verket" />
>>>>>>> e1d4bc35ff8a6074a6f2e91616a996b547c36f15
		<tag k="place" v="locality" />
		<tag k="ssr:stedsnr" v="690725" />
	</node>
	<node lat="59.74801110811458" lon="10.803999995611841" id="-14627">
		<tag k="name" v="Prærien" />
		<tag k="place" v="locality" />
		<tag k="ssr:stedsnr" v="750911" />
	</node>
<<<<<<< HEAD
	<node lat="59.66482222480875" lon="10.831922218319805" id="-14634">
		<tag k="name" v="Rustadmåsan" />
		<tag k="natural" v="wetland" />
		<tag k="ssr:stedsnr" v="791449" />
	</node>
	<node lat="59.650047218021996" lon="10.72500555849576" id="-14656">
=======
	<node id="-246245" lat="59.650047218" lon="10.7250055585">
>>>>>>> e1d4bc35ff8a6074a6f2e91616a996b547c36f15
		<tag k="name" v="Iversrudmåsan" />
		<tag k="natural" v="wetland" />
		<tag k="ssr:stedsnr" v="811280" />
	</node>
<<<<<<< HEAD
	<node lat="59.75269999690617" lon="10.765386116788981" id="-14668">
		<tag k="name" v="Fløytemyr" />
		<tag k="natural" v="wetland" />
		<tag k="ssr:stedsnr" v="811785" />
	</node>
	<node lat="59.7616305599376" lon="10.727669447976517" id="-14687">
=======
	<node id="-245859" lat="59.740977778" lon="10.7287305525">
		<tag k="name" v="Skorva" />
		<tag k="place" v="locality" />
		<tag k="ssr:stedsnr" v="508497" />
	</node>
	<node id="-246242" lat="59.6326000025" lon="10.770066674">
		<tag k="name" v="Nylenda" />
		<tag k="place" v="locality" />
		<tag k="ssr:stedsnr" v="811233" />
	</node>
	<node id="-245984" lat="59.7616305599" lon="10.727669448">
>>>>>>> e1d4bc35ff8a6074a6f2e91616a996b547c36f15
		<tag k="name" v="Tomta" />
		<tag k="place" v="locality" />
		<tag k="ssr:stedsnr" v="933836" />
	</node>
<<<<<<< HEAD
	<node lat="59.67400833741437" lon="10.744872222476795" id="-14693">
		<tag k="landuse" v="meadow" />
		<tag k="name" v="Vassenga" />
		<tag k="ssr:stedsnr" v="933726" />
	</node>
	<node lat="59.712594441359535" lon="10.780969449812591" id="-14762">
		<tag k="name" v="Rissletta" />
=======
	<node id="-246224" lat="59.628483333" lon="10.8257944454">
		<tag k="landuse" v="meadow" />
		<tag k="name" v="Pålenga" />
		<tag k="ssr:stedsnr" v="750689" />
	</node>
	<node id="-245975" lat="59.7059944473" lon="10.8087777789">
		<tag k="name" v="Kjølstadskogen" />
		<tag k="place" v="locality" />
		<tag k="ssr:stedsnr" v="873355" />
	</node>
	<node id="-245973" lat="59.7523777756" lon="10.7930416709">
		<tag k="name" v="Ilestykket" />
>>>>>>> e1d4bc35ff8a6074a6f2e91616a996b547c36f15
		<tag k="place" v="locality" />
		<tag k="ssr:stedsnr" v="84353" />
	</node>
<<<<<<< HEAD
	<node lat="59.69406111255234" lon="10.759530547657413" id="-14774">
		<tag k="name" v="Prestegårdsskogen" />
		<tag k="place" v="locality" />
		<tag k="ssr:stedsnr" v="143373" />
	</node>
	<node lat="59.72862222659012" lon="10.777183335485432" id="-14790">
=======
	<node id="-245712" lat="59.7506083308" lon="10.8101805522">
		<tag k="name" v="Dogga" />
		<tag k="place" v="locality" />
		<tag k="ssr:stedsnr" v="248373" />
	</node>
	<node id="-246084" lat="59.7286222266" lon="10.7771833355">
>>>>>>> e1d4bc35ff8a6074a6f2e91616a996b547c36f15
		<tag k="name" v="Bråten" />
		<tag k="place" v="locality" />
		<tag k="ssr:stedsnr" v="204014" />
	</node>
<<<<<<< HEAD
	<node lat="59.65935833039368" lon="10.740180558417698" id="-14791">
		<tag k="name" v="Korsegårdsmåsan" />
=======
	<node id="-245824" lat="59.7506638926" lon="10.7721388823">
		<tag k="name" v="Langmyr" />
>>>>>>> e1d4bc35ff8a6074a6f2e91616a996b547c36f15
		<tag k="natural" v="wetland" />
		<tag k="ssr:stedsnr" v="204255" />
	</node>
<<<<<<< HEAD
	<node lat="59.677902777763585" lon="10.8108694491547" id="-14842">
		<tag k="name" v="Skuterudløkka" />
		<tag k="place" v="locality" />
		<tag k="ssr:stedsnr" v="386641" />
	</node>
	<node lat="59.66300555821801" lon="10.767447216239843" id="-14848">
		<tag k="name" v="Kjerringjordet" />
		<tag k="place" v="locality" />
		<tag k="ssr:stedsnr" v="386689" />
	</node>
	<node lat="59.7333388921442" lon="10.779491668310104" id="-14858">
		<tag k="name" v="Lasthol" />
		<tag k="place" v="locality" />
		<tag k="ssr:stedsnr" v="447019" />
	</node>
	<node lat="59.64128888794897" lon="10.81180000712547" id="-14905">
=======
	<node id="-245951" lat="59.6740083374" lon="10.7448722225">
		<tag k="landuse" v="meadow" />
		<tag k="name" v="Vassenga" />
		<tag k="ssr:stedsnr" v="933726" />
	</node>
	<node id="-245694" lat="59.7575249956" lon="10.7454333413">
		<tag k="name" v="Fålemyra" />
		<tag k="natural" v="wetland" />
		<tag k="ssr:stedsnr" v="22809" />
	</node>
	<node id="-245938" lat="59.6648222248" lon="10.8319222183">
		<tag k="name" v="Rustadmåsan" />
		<tag k="natural" v="wetland" />
		<tag k="ssr:stedsnr" v="791449" />
	</node>
	<node id="-245875" lat="59.6728500017" lon="10.7573833347">
		<tag k="name" v="Nordskogen" />
		<tag k="place" v="locality" />
		<tag k="ssr:stedsnr" v="690724" />
	</node>
	<node id="-246190" lat="59.6412888879" lon="10.8118000071">
>>>>>>> e1d4bc35ff8a6074a6f2e91616a996b547c36f15
		<tag k="name" v="Hogstvetmyra" />
		<tag k="natural" v="wetland" />
		<tag k="ssr:stedsnr" v="609269" />
	</node>
<<<<<<< HEAD
	<node lat="59.676930556728514" lon="10.804627777293204" id="-14910">
		<tag k="name" v="Askjumskogen" />
=======
	<node id="-246059" lat="59.6940611126" lon="10.7595305477">
		<tag k="name" v="Prestegårdsskogen" />
>>>>>>> e1d4bc35ff8a6074a6f2e91616a996b547c36f15
		<tag k="place" v="locality" />
		<tag k="ssr:stedsnr" v="629657" />
	</node>
<<<<<<< HEAD
	<node lat="59.62848333303767" lon="10.825794445373456" id="-14950">
		<tag k="landuse" v="meadow" />
		<tag k="name" v="Pålenga" />
		<tag k="ssr:stedsnr" v="750689" />
	</node>
	<node lat="59.63260000253291" lon="10.770066674007204" id="-14961">
		<tag k="name" v="Nylenda" />
		<tag k="place" v="locality" />
		<tag k="ssr:stedsnr" v="811233" />
	</node>
	<node lat="59.67534444430012" lon="10.768641667466126" id="-14967">
		<tag k="landuse" v="meadow" />
		<tag k="name" v="Nordbyenga" />
		<tag k="ssr:stedsnr" v="811673" />
	</node>
	<node lat="59.713597221964" lon="10.798430560066018" id="-14973">
		<tag k="name" v="Rismyra" />
		<tag k="natural" v="wetland" />
		<tag k="ssr:stedsnr" v="812354" />
	</node>
	<node lat="59.752377775589714" lon="10.793041670855297" id="-14997">
		<tag k="name" v="Ilestykket" />
		<tag k="place" v="locality" />
		<tag k="ssr:stedsnr" v="872931" />
	</node>
	<node lat="59.72103889150119" lon="10.7892527716064" id="-14998">
=======
	<node id="-245797" lat="59.6665527799" lon="10.751841665">
		<tag k="name" v="Brønnerudteigen" />
		<tag k="place" v="locality" />
		<tag k="ssr:stedsnr" v="326702" />
	</node>
	<node id="-246180" lat="59.7478555571" lon="10.7683666672">
		<tag k="name" v="Hestehagemyr" />
		<tag k="natural" v="wetland" />
		<tag k="ssr:stedsnr" v="568805" />
	</node>
	<node id="-245921" lat="59.7480111081" lon="10.8039999956">
		<tag k="name" v="Prærien" />
		<tag k="place" v="locality" />
		<tag k="ssr:stedsnr" v="750911" />
	</node>
	<node id="-246045" lat="59.7125944414" lon="10.7809694498">
		<tag k="name" v="Rissletta" />
		<tag k="place" v="locality" />
		<tag k="ssr:stedsnr" v="84353" />
	</node>
	<node id="-245916" lat="59.6672388849" lon="10.6965166598">
		<tag k="name" v="Follemyra" />
		<tag k="place" v="locality" />
		<tag k="ssr:stedsnr" v="690859" />
	</node>
	<node id="-245781" lat="59.6703555516" lon="10.7878444447">
		<tag k="name" v="Åsmåsan" />
		<tag k="natural" v="wetland" />
		<tag k="ssr:stedsnr" v="246416" />
	</node>
	<node id="-246291" lat="59.7210388915" lon="10.7892527716">
>>>>>>> e1d4bc35ff8a6074a6f2e91616a996b547c36f15
		<tag k="name" v="Nordvang" />
		<tag k="place" v="locality" />
		<tag k="ssr:stedsnr" v="873367" />
	</node>
<<<<<<< HEAD
	<node lat="59.70599444727817" lon="10.808777778857685" id="-15001">
		<tag k="name" v="Kjølstadskogen" />
		<tag k="place" v="locality" />
		<tag k="ssr:stedsnr" v="873355" />
=======
	<node id="-246028" lat="59.6095361111" lon="10.8486916689">
		<tag k="name" v="Tierudmåsan" />
		<tag k="natural" v="wetland" />
		<tag k="ssr:stedsnr" v="64367" />
>>>>>>> e1d4bc35ff8a6074a6f2e91616a996b547c36f15
	</node>
	<node id="-245895" lat="59.7534527752" lon="10.7478472253">
		<tag k="name" v="Bjønnemyra" />
		<tag k="natural" v="wetland" />
		<tag k="ssr:stedsnr" v="629809" />
	</node>
	<node id="-245894" lat="59.6769305567" lon="10.8046277773">
		<tag k="name" v="Askjumskogen" />
		<tag k="place" v="locality" />
		<tag k="ssr:stedsnr" v="629657" />
	</node>
	<node id="-245764" lat="59.7266805564" lon="10.7688972153">
		<tag k="name" v="Kirkerudmåsan" />
		<tag k="natural" v="wetland" />
		<tag k="ssr:stedsnr" v="447424" />
	</node>
</osm>
