<?xml version="1.0" encoding="UTF-8"?>
<<<<<<< HEAD
<osm version="0.6" generator="osmapis">
	<node lat="59.667113888790155" lon="10.777275001159365" id="-14420">
		<tag k="name" v="Sørhellinga" />
		<tag k="place" v="locality" />
		<tag k="ssr:stedsnr" v="83640" />
	</node>
	<node lat="59.71980555951396" lon="10.773827775822095" id="-14429">
		<tag k="alt_name" v="Nordby" />
=======
<osm generator="osmapis" version="0.6">
	<node id="-245922" lat="59.7505000036" lon="10.7879472215">
		<tag k="name" v="Utsikten" />
		<tag k="ssr:stedsnr" v="750918" />
		<tag k="tourism" v="viewpoint" />
	</node>
	<node id="-246264" lat="59.6640027795" lon="10.8041333386">
		<tag k="name" v="Åslund" />
		<tag k="place" v="locality" />
		<tag k="ssr:stedsnr" v="812284" />
	</node>
	<node id="-245812" lat="59.6715166688" lon="10.7686722137">
		<tag k="alt_name" v="Ås" />
		<tag k="amenity" v="place_of_worship" />
		<tag k="denomination" v="lutheran" />
		<tag k="name" v="Ås kirke" />
		<tag k="religion" v="christian" />
		<tag k="ssr:stedsnr" v="489486" />
	</node>
	<node id="-246036" lat="59.6671138888" lon="10.7772750012">
		<tag k="name" v="Sørhellinga" />
		<tag k="place" v="locality" />
		<tag k="ssr:stedsnr" v="83640" />
	</node>
	<node id="-245839" lat="59.6646027816" lon="10.777538895">
		<tag k="amenity" v="community_centre" />
		<tag k="name" v="Stud. samfunnet" />
		<tag k="ssr:stedsnr" v="447613" />
	</node>
	<node id="-246123" lat="59.6380861087" lon="10.8470527796">
		<tag k="alt_name" v="Kroer" />
		<tag k="amenity" v="place_of_worship" />
		<tag k="denomination" v="lutheran" />
		<tag k="name" v="Kroer kirke" />
		<tag k="religion" v="christian" />
		<tag k="ssr:stedsnr" v="367247" />
	</node>
	<node id="-245783" lat="59.7217138912" lon="10.7689361038">
		<tag k="amenity" v="community_centre" />
		<tag k="name" v="Liahøy" />
		<tag k="ssr:stedsnr" v="448399" />
	</node>
	<node id="-245988" lat="59.6660531176" lon="10.8094730474">
>>>>>>> e1d4bc35ff8a6074a6f2e91616a996b547c36f15
		<tag k="amenity" v="place_of_worship" />
		<tag k="denomination" v="lutheran" />
		<tag k="name" v="Nordby kirke" />
		<tag k="religion" v="christian" />
		<tag k="ssr:stedsnr" v="124501" />
	</node>
<<<<<<< HEAD
	<node lat="59.70675833560056" lon="10.785730555299226" id="-14476">
=======
	<node id="-245731" lat="59.7067583356" lon="10.7857305553">
>>>>>>> e1d4bc35ff8a6074a6f2e91616a996b547c36f15
		<tag k="amenity" v="community_centre" />
		<tag k="name" v="Betania" />
		<tag k="ssr:stedsnr" v="265404" />
	</node>
<<<<<<< HEAD
	<node lat="59.671516668796585" lon="10.768672213729571" id="-14522">
		<tag k="alt_name" v="Ås" />
		<tag k="amenity" v="place_of_worship" />
		<tag k="denomination" v="lutheran" />
		<tag k="name" v="Ås kirke" />
		<tag k="religion" v="christian" />
		<tag k="ssr:stedsnr" v="489486" />
	</node>
	<node lat="59.664602781580534" lon="10.77753889499477" id="-14540">
		<tag k="amenity" v="community_centre" />
		<tag k="name" v="Studentsamfunnet" />
		<tag k="ssr:stedsnr" v="447613" />
	</node>
	<node lat="59.7505000035572" lon="10.787947221534964" id="-14628">
		<tag k="name" v="Utsikten" />
		<tag k="ssr:stedsnr" v="750918" />
		<tag k="tourism" v="viewpoint" />
	</node>
	<node lat="59.66605311764768" lon="10.809473047403698" id="-14712">
		<tag k="amenity" v="place_of_worship" />
		<tag k="denomination" v="lutheran" />
		<tag k="name" v="Ås arbeidskirke" />
		<tag k="religion" v="christian" />
		<tag k="ssr:stedsnr" v="989310" />
	</node>
	<node lat="59.63808610872251" lon="10.847052779618624" id="-14826">
		<tag k="alt_name" v="Kroer" />
		<tag k="amenity" v="place_of_worship" />
		<tag k="denomination" v="lutheran" />
		<tag k="name" v="Kroer kirke" />
		<tag k="religion" v="christian" />
		<tag k="ssr:stedsnr" v="367247" />
	</node>
	<node lat="59.721713891206235" lon="10.76893610378963" id="-14864">
		<tag k="amenity" v="community_centre" />
		<tag k="name" v="Liahøy" />
		<tag k="ssr:stedsnr" v="448399" />
	</node>
	<node lat="59.66400277949095" lon="10.804133338640716" id="-14970">
		<tag k="name" v="Åslund" />
		<tag k="place" v="locality" />
		<tag k="ssr:stedsnr" v="812284" />
=======
	<node id="-246050" lat="59.7198055595" lon="10.7738277758">
		<tag k="alt_name" v="Nordby" />
		<tag k="amenity" v="place_of_worship" />
		<tag k="denomination" v="lutheran" />
		<tag k="name" v="Nordby kirke" />
		<tag k="religion" v="christian" />
		<tag k="ssr:stedsnr" v="124501" />
>>>>>>> e1d4bc35ff8a6074a6f2e91616a996b547c36f15
	</node>
</osm>
