<?xml version="1.0" encoding="UTF-8"?>
<<<<<<< HEAD
<osm version="0.6" generator="osmapis">
	<node lat="59.75834166234922" lon="10.726044438702868" id="-14404">
		<tag k="alt_name" v="Nebba" />
		<tag k="man_made" v="quay" />
		<tag k="name" v="Nebba brygge" />
		<tag k="place" v="locality" />
		<tag k="ssr:stedsnr" v="22825" />
	</node>
	<node lat="59.666761114836355" lon="10.80551388400139" id="-14434">
		<tag k="junction" v="yes" />
		<tag k="name" v="Sentralholtet" />
		<tag k="place" v="locality" />
		<tag k="ssr:stedsnr" v="143632" />
	</node>
	<node lat="59.75596388977666" lon="10.783186119419204" id="-14439">
		<tag k="junction" v="yes" />
		<tag k="name" v="Ringneskrysset" />
		<tag k="place" v="locality" />
		<tag k="ssr:stedsnr" v="143918" />
	</node>
	<node lat="59.66287222131008" lon="10.746130561353814" id="-14440">
		<tag k="bridge" v="yes" />
		<tag k="layer" v="1" />
		<tag k="name" v="Treider" />
		<tag k="ssr:stedsnr" v="167164" />
	</node>
	<node lat="59.73231667001824" lon="10.740499997145564" id="-14461">
		<tag k="highway" v="bus_stop" />
		<tag k="name" v="Askehaug" />
		<tag k="ssr:stedsnr" v="204429" />
	</node>
	<node lat="59.71734444430646" lon="10.776369438546176" id="-14477">
		<tag k="junction" v="yes" />
		<tag k="name" v="Nordby" />
		<tag k="place" v="locality" />
		<tag k="ssr:stedsnr" v="265418" />
	</node>
	<node lat="59.736705551088576" lon="10.75545000794582" id="-14480">
		<tag k="highway" v="bus_stop" />
		<tag k="name" v="Tohellinga" />
		<tag k="ssr:stedsnr" v="265506" />
	</node>
	<node lat="59.753247222977635" lon="10.811694439718744" id="-14487">
=======
<osm generator="osmapis" version="0.6">
	<node id="-246144" lat="59.6883527795" lon="10.8153138823">
		<tag k="bridge" v="yes" />
		<tag k="layer" v="1" />
		<tag k="name" v="Holstad" />
		<tag k="ssr:stedsnr" v="410131" />
	</node>
	<node id="-245759" lat="59.7554666667" lon="10.7827805524">
>>>>>>> e1d4bc35ff8a6074a6f2e91616a996b547c36f15
		<tag k="bridge" v="yes" />
		<tag k="layer" v="1" />
		<tag k="name" v="Prestebroen" />
		<tag k="ssr:stedsnr" v="265916" />
	</node>
<<<<<<< HEAD
	<node lat="59.7197222217901" lon="10.728558340568926" id="-14506">
		<tag k="bridge" v="yes" />
		<tag k="layer" v="1" />
		<tag k="name" v="Bekkevoll" />
		<tag k="ssr:stedsnr" v="471132" />
	</node>
	<node lat="59.63190833333855" lon="10.831424997422992" id="-14512">
=======
	<node id="-245885" lat="59.6648000022" lon="10.7565083386">
>>>>>>> e1d4bc35ff8a6074a6f2e91616a996b547c36f15
		<tag k="junction" v="yes" />
		<tag k="name" v="Rød" />
		<tag k="place" v="locality" />
		<tag k="ssr:stedsnr" v="386694" />
	</node>
<<<<<<< HEAD
	<node lat="59.65145000035925" lon="10.820200007758142" id="-14583">
		<tag k="ford" v="yes" />
		<tag k="name" v="Bjørnebekkvadet" />
		<tag k="place" v="locality" />
		<tag k="ssr:stedsnr" v="568362" />
	</node>
	<node lat="59.66323633456831" lon="10.794329149697987" id="-14589">
		<tag k="alt_name" v="Ås" />
		<tag k="name" v="Ås stasjon" />
		<tag k="railway" v="station" />
		<tag k="ssr:stedsnr" v="609445" />
		<tag k="train" v="yes" />
	</node>
	<node lat="59.71926944748952" lon="10.784430559637993" id="-14594">
		<tag k="junction" v="yes" />
		<tag k="name" v="Nygårdskrysset" />
		<tag k="place" v="locality" />
		<tag k="ssr:stedsnr" v="629411" />
	</node>
	<node lat="59.64514444777503" lon="10.833063883736852" id="-14655">
		<tag k="junction" v="yes" />
		<tag k="name" v="Revhaug" />
		<tag k="place" v="locality" />
		<tag k="ssr:stedsnr" v="811041" />
	</node>
	<node lat="59.68863783633045" lon="10.815084137943042" id="-14676">
		<tag k="alt_name" v="Holstad" />
		<tag k="name" v="Holstad stasjon" />
		<tag k="railway" v="station" />
		<tag k="ssr:stedsnr" v="853410" />
		<tag k="train" v="yes" />
	</node>
	<node lat="59.6636249985131" lon="10.817358329240435" id="-14689">
		<tag k="junction" v="yes" />
		<tag k="name" v="Rustadporten" />
		<tag k="place" v="locality" />
		<tag k="ssr:stedsnr" v="933266" />
	</node>
	<node lat="59.662711110443205" lon="10.746072229131665" id="-14733">
=======
	<node id="-246268" lat="59.7070361096" lon="10.7713555521">
		<tag k="highway" v="bus_stop" />
		<tag k="name" v="Melby" />
		<tag k="ssr:stedsnr" v="812362" />
	</node>
	<node id="-245755" lat="59.6628722213" lon="10.7461305614">
		<tag k="bridge" v="yes" />
		<tag k="layer" v="1" />
		<tag k="name" v="Treider" />
		<tag k="ssr:stedsnr" v="167164" />
	</node>
	<node id="-246010" lat="59.6627111104" lon="10.7460722291">
>>>>>>> e1d4bc35ff8a6074a6f2e91616a996b547c36f15
		<tag k="junction" v="yes" />
		<tag k="name" v="Korsegården" />
		<tag k="place" v="locality" />
		<tag k="ssr:stedsnr" v="22660" />
	</node>
<<<<<<< HEAD
	<node lat="59.76004166710956" lon="10.807708328020661" id="-14742">
		<tag k="bridge" v="yes" />
		<tag k="layer" v="1" />
		<tag k="name" v="Dalsbekken" />
		<tag k="ssr:stedsnr" v="46140" />
	</node>
	<node lat="59.72325277720497" lon="10.729247228410493" id="-14764">
		<tag k="bridge" v="yes" />
		<tag k="layer" v="1" />
		<tag k="name" v="Bekk" />
		<tag k="ssr:stedsnr" v="107104" />
	</node>
	<node lat="59.71972777381785" lon="10.72886389295747" id="-14796">
=======
	<node id="-245737" lat="59.7367055511" lon="10.7554500079">
		<tag k="highway" v="bus_stop" />
		<tag k="name" v="Tohellinga" />
		<tag k="ssr:stedsnr" v="265506" />
	</node>
	<node id="-246118" lat="59.6600333363" lon="10.6798138857">
>>>>>>> e1d4bc35ff8a6074a6f2e91616a996b547c36f15
		<tag k="junction" v="yes" />
		<tag k="name" v="Bekkevoll" />
		<tag k="place" v="locality" />
		<tag k="ssr:stedsnr" v="205398" />
	</node>
<<<<<<< HEAD
	<node lat="59.755466666723514" lon="10.78278055244454" id="-14798">
=======
	<node id="-245861" lat="59.7620194486" lon="10.7863388907">
>>>>>>> e1d4bc35ff8a6074a6f2e91616a996b547c36f15
		<tag k="bridge" v="yes" />
		<tag k="layer" v="1" />
		<tag k="name" v="Ringnes" />
		<tag k="ssr:stedsnr" v="228152" />
	</node>
<<<<<<< HEAD
	<node lat="59.66003333630136" lon="10.679813885745942" id="-14819">
=======
	<node id="-245732" lat="59.7173444443" lon="10.7763694385">
>>>>>>> e1d4bc35ff8a6074a6f2e91616a996b547c36f15
		<tag k="junction" v="yes" />
		<tag k="name" v="Fjøser" />
		<tag k="place" v="locality" />
		<tag k="ssr:stedsnr" v="326865" />
	</node>
<<<<<<< HEAD
	<node lat="59.733277776862316" lon="10.739738884946497" id="-14821">
=======
	<node id="-246139" lat="59.6319083333" lon="10.8314249974">
		<tag k="junction" v="yes" />
		<tag k="name" v="Rød" />
		<tag k="place" v="locality" />
		<tag k="ssr:stedsnr" v="386694" />
	</node>
	<node id="-245720" lat="59.7232527772" lon="10.7292472284">
>>>>>>> e1d4bc35ff8a6074a6f2e91616a996b547c36f15
		<tag k="bridge" v="yes" />
		<tag k="layer" v="1" />
		<tag k="name" v="Kjærnesvegen" />
		<tag k="ssr:stedsnr" v="349164" />
	</node>
<<<<<<< HEAD
	<node lat="59.68835277952044" lon="10.815313882295358" id="-14849">
=======
	<node id="-246230" lat="59.7592277811" lon="10.7755861199">
>>>>>>> e1d4bc35ff8a6074a6f2e91616a996b547c36f15
		<tag k="bridge" v="yes" />
		<tag k="layer" v="1" />
		<tag k="name" v="Holstad" />
		<tag k="ssr:stedsnr" v="410131" />
	</node>
<<<<<<< HEAD
	<node lat="59.69417222160693" lon="10.827749991684934" id="-14850">
=======
	<node id="-246229" lat="59.7624638887" lon="10.7951583378">
>>>>>>> e1d4bc35ff8a6074a6f2e91616a996b547c36f15
		<tag k="bridge" v="yes" />
		<tag k="layer" v="1" />
		<tag k="name" v="Holstad kulvert" />
		<tag k="ssr:stedsnr" v="410136" />
	</node>
<<<<<<< HEAD
	<node lat="59.65766388551412" lon="10.683872222685116" id="-14877">
=======
	<node id="-246225" lat="59.6480888916" lon="10.6833666689">
>>>>>>> e1d4bc35ff8a6074a6f2e91616a996b547c36f15
		<tag k="junction" v="yes" />
		<tag k="name" v="Klommestein" />
		<tag k="place" v="locality" />
		<tag k="ssr:stedsnr" v="508832" />
	</node>
<<<<<<< HEAD
	<node lat="59.76201944858841" lon="10.786338890693623" id="-14880">
		<tag k="bridge" v="yes" />
		<tag k="layer" v="1" />
		<tag k="name" v="Tyvedalen" />
		<tag k="ssr:stedsnr" v="531152" />
	</node>
	<node lat="59.75032222234819" lon="10.724288887096852" id="-14892">
		<tag k="alt_name" v="Kjærnes brygge" />
		<tag k="man_made" v="quay" />
		<tag k="name" v="Kjernesbrygge" />
=======
	<node id="-246092" lat="59.7197277738" lon="10.728863893">
		<tag k="junction" v="yes" />
		<tag k="name" v="Bekkevoll" />
		<tag k="place" v="locality" />
		<tag k="ssr:stedsnr" v="205398" />
	</node>
	<node id="-246219" lat="59.6813666709" lon="10.7547527734">
		<tag k="junction" v="yes" />
		<tag k="name" v="Kinn" />
>>>>>>> e1d4bc35ff8a6074a6f2e91616a996b547c36f15
		<tag k="place" v="locality" />
		<tag k="ssr:stedsnr" v="551369" />
	</node>
<<<<<<< HEAD
	<node lat="59.642311112976174" lon="10.796027785629125" id="-14894">
		<tag k="highway" v="bus_stop" />
		<tag k="name" v="Hogstvet" />
		<tag k="ssr:stedsnr" v="568336" />
	</node>
	<node lat="59.64898055319453" lon="10.797191661065082" id="-14895">
		<tag k="name" v="Liersvingen" />
=======
	<node id="-245962" lat="59.6886378363" lon="10.8150841379">
		<tag k="alt_name" v="Holstad" />
		<tag k="name" v="Holstad stasjon" />
		<tag k="railway" v="station" />
		<tag k="ssr:stedsnr" v="853410" />
		<tag k="train" v="yes" />
	</node>
	<node id="-246087" lat="59.73231667" lon="10.7404999971">
		<tag k="highway" v="bus_stop" />
		<tag k="name" v="Askehaug" />
		<tag k="ssr:stedsnr" v="204429" />
	</node>
	<node id="-245835" lat="59.6576638855" lon="10.6838722227">
		<tag k="junction" v="yes" />
		<tag k="name" v="Klommestein" />
		<tag k="place" v="locality" />
		<tag k="ssr:stedsnr" v="508832" />
	</node>
	<node id="-245696" lat="59.7583416623" lon="10.7260444387">
		<tag k="alt_name" v="Nebba" />
		<tag k="man_made" v="quay" />
		<tag k="name" v="Nebba brygge" />
>>>>>>> e1d4bc35ff8a6074a6f2e91616a996b547c36f15
		<tag k="place" v="locality" />
		<tag k="ssr:stedsnr" v="568340" />
	</node>
<<<<<<< HEAD
	<node lat="59.664800002241684" lon="10.756508338610828" id="-14899">
		<tag k="junction" v="yes" />
		<tag k="name" v="Vollebekk" />
		<tag k="place" v="locality" />
		<tag k="ssr:stedsnr" v="568632" />
	</node>
	<node lat="59.75082778042878" lon="10.783899994692248" id="-14922">
		<tag k="alt_name" v="Nøstvedt" />
		<tag k="bridge" v="yes" />
		<tag k="layer" v="1" />
		<tag k="name" v="Nøstvet" />
		<tag k="ssr:stedsnr" v="652127" />
	</node>
	<node lat="59.74422778074646" lon="10.781972230567266" id="-14926">
		<tag k="bridge" v="yes" />
		<tag k="layer" v="1" />
		<tag k="name" v="Vinterbru" />
		<tag k="ssr:stedsnr" v="713157" />
	</node>
	<node lat="59.68136667089545" lon="10.754752773353909" id="-14951">
=======
	<node id="-245947" lat="59.6636249985" lon="10.8173583292">
		<tag k="junction" v="yes" />
		<tag k="name" v="Rustadporten" />
		<tag k="place" v="locality" />
		<tag k="ssr:stedsnr" v="933266" />
	</node>
	<node id="-245791" lat="59.7197222218" lon="10.7285583406">
		<tag k="bridge" v="yes" />
		<tag k="layer" v="1" />
		<tag k="name" v="Bekkevoll" />
		<tag k="ssr:stedsnr" v="471132" />
	</node>
	<node id="-245943" lat="59.6451444478" lon="10.8330638837">
		<tag k="junction" v="yes" />
		<tag k="name" v="Revhaug" />
		<tag k="place" v="locality" />
		<tag k="ssr:stedsnr" v="811041" />
	</node>
	<node id="-246069" lat="59.7559638898" lon="10.7831861194">
>>>>>>> e1d4bc35ff8a6074a6f2e91616a996b547c36f15
		<tag k="junction" v="yes" />
		<tag k="name" v="Kinn" />
		<tag k="place" v="locality" />
		<tag k="ssr:stedsnr" v="750636" />
	</node>
<<<<<<< HEAD
	<node lat="59.648088891627935" lon="10.683366668946144" id="-14952">
=======
	<node id="-246062" lat="59.6667611148" lon="10.805513884">
>>>>>>> e1d4bc35ff8a6074a6f2e91616a996b547c36f15
		<tag k="junction" v="yes" />
		<tag k="name" v="Linnestad" />
		<tag k="place" v="locality" />
<<<<<<< HEAD
		<tag k="ssr:stedsnr" v="750797" />
	</node>
	<node lat="59.7624638887011" lon="10.79515833781976" id="-14954">
		<tag k="bridge" v="yes" />
		<tag k="layer" v="1" />
		<tag k="name" v="Langslordalen" />
		<tag k="ssr:stedsnr" v="774149" />
	</node>
	<node lat="59.75922778113538" lon="10.775586119926865" id="-14955">
=======
		<tag k="ssr:stedsnr" v="143632" />
	</node>
	<node id="-246188" lat="59.6632363346" lon="10.7943291497">
		<tag k="alt_name" v="Ås" />
		<tag k="name" v="Ås stasjon" />
		<tag k="railway" v="station" />
		<tag k="ssr:stedsnr" v="609445" />
		<tag k="train" v="yes" />
	</node>
	<node id="-245800" lat="59.7332777769" lon="10.7397388849">
>>>>>>> e1d4bc35ff8a6074a6f2e91616a996b547c36f15
		<tag k="bridge" v="yes" />
		<tag k="layer" v="1" />
		<tag k="name" v="Lovise" />
		<tag k="ssr:stedsnr" v="774151" />
	</node>
<<<<<<< HEAD
	<node lat="59.70703610961125" lon="10.77135555212523" id="-14974">
		<tag k="highway" v="bus_stop" />
		<tag k="name" v="Melby" />
		<tag k="ssr:stedsnr" v="812362" />
	</node>
	<node lat="59.66116389187656" lon="10.738577770167021" id="-14992">
		<tag k="junction" v="yes" />
		<tag k="name" v="Treider" />
=======
	<node id="-246177" lat="59.6514500004" lon="10.8202000078">
		<tag k="ford" v="yes" />
		<tag k="name" v="Bjørnebekkvadet" />
		<tag k="place" v="locality" />
		<tag k="ssr:stedsnr" v="568362" />
	</node>
	<node id="-246176" lat="59.6489805532" lon="10.7971916611">
		<tag k="name" v="Liersvingen" />
>>>>>>> e1d4bc35ff8a6074a6f2e91616a996b547c36f15
		<tag k="place" v="locality" />
		<tag k="ssr:stedsnr" v="872676" />
	</node>
<<<<<<< HEAD
	<node lat="59.673130560140244" lon="10.7472888831372" id="-14993">
		<tag k="junction" v="yes" />
		<tag k="name" v="Fosterud" />
		<tag k="place" v="locality" />
		<tag k="ssr:stedsnr" v="872688" />
	</node>
	<node lat="59.747816670443015" lon="10.770794453370605" id="-14995">
		<tag k="fixme" v="consider highway=path" />
		<tag k="highway" v="track" />
		<tag k="name" v="Ulveleina" />
		<tag k="ssr:stedsnr" v="872833" />
	</node>
	<node lat="59.611161315399166" lon="10.887308053139028" id="-15002">
		<tag k="bridge" v="yes" />
		<tag k="layer" v="1" />
		<tag k="name" v="Bakk" />
		<tag k="ssr:stedsnr" v="956152" />
	</node>
	<node lat="59.75802777417783" lon="10.77716388416505" id="-15003">
=======
	<node id="-246175" lat="59.642311113" lon="10.7960277856">
		<tag k="highway" v="bus_stop" />
		<tag k="name" v="Hogstvet" />
		<tag k="ssr:stedsnr" v="568336" />
	</node>
	<node id="-245917" lat="59.7442277807" lon="10.7819722306">
		<tag k="bridge" v="yes" />
		<tag k="layer" v="1" />
		<tag k="name" v="Vinterbru" />
		<tag k="ssr:stedsnr" v="713157" />
	</node>
	<node id="-245787" lat="59.753247223" lon="10.8116944397">
		<tag k="bridge" v="yes" />
		<tag k="layer" v="1" />
		<tag k="name" v="Prestebroen" />
		<tag k="ssr:stedsnr" v="265916" />
	</node>
	<node id="-246168" lat="59.7503222223" lon="10.7242888871">
		<tag k="alt_name" v="Kjærnes brygge" />
		<tag k="man_made" v="quay" />
		<tag k="name" v="Kjernesbrygge" />
		<tag k="place" v="locality" />
		<tag k="ssr:stedsnr" v="551369" />
	</node>
	<node id="-246294" lat="59.7580277742" lon="10.7771638842">
>>>>>>> e1d4bc35ff8a6074a6f2e91616a996b547c36f15
		<tag k="bridge" v="yes" />
		<tag k="layer" v="1" />
		<tag k="name" v="Seiersten" />
		<tag k="ssr:stedsnr" v="956158" />
	</node>
<<<<<<< HEAD
=======
	<node id="-246293" lat="59.6114083292" lon="10.8854972179">
		<tag k="bridge" v="yes" />
		<tag k="layer" v="1" />
		<tag k="name" v="Bakk" />
		<tag k="ssr:stedsnr" v="956152" />
	</node>
	<node id="-246289" lat="59.7478166704" lon="10.7707944534">
		<tag k="fixme" v="consider highway=path" />
		<tag k="highway" v="track" />
		<tag k="name" v="Ulveleina" />
		<tag k="ssr:stedsnr" v="872833" />
	</node>
	<node id="-246287" lat="59.6731305601" lon="10.7472888831">
		<tag k="junction" v="yes" />
		<tag k="name" v="Fosterud" />
		<tag k="place" v="locality" />
		<tag k="ssr:stedsnr" v="872688" />
	</node>
	<node id="-246286" lat="59.6611638919" lon="10.7385777702">
		<tag k="junction" v="yes" />
		<tag k="name" v="Treider" />
		<tag k="place" v="locality" />
		<tag k="ssr:stedsnr" v="872676" />
	</node>
	<node id="-246208" lat="59.7508277804" lon="10.7838999947">
		<tag k="alt_name" v="Nøstvedt" />
		<tag k="bridge" v="yes" />
		<tag k="layer" v="1" />
		<tag k="name" v="Nøstvet" />
		<tag k="ssr:stedsnr" v="652127" />
	</node>
	<node id="-245891" lat="59.7192694475" lon="10.7844305596">
		<tag k="junction" v="yes" />
		<tag k="name" v="Nygårdskrysset" />
		<tag k="place" v="locality" />
		<tag k="ssr:stedsnr" v="629411" />
	</node>
	<node id="-246018" lat="59.7600416671" lon="10.807708328">
		<tag k="bridge" v="yes" />
		<tag k="layer" v="1" />
		<tag k="name" v="Dalsbekken" />
		<tag k="ssr:stedsnr" v="46140" />
	</node>
	<node id="-246145" lat="59.6941722216" lon="10.8277499917">
		<tag k="bridge" v="yes" />
		<tag k="layer" v="1" />
		<tag k="name" v="Holstad kulvert" />
		<tag k="ssr:stedsnr" v="410136" />
	</node>
>>>>>>> e1d4bc35ff8a6074a6f2e91616a996b547c36f15
</osm>
