<?xml version="1.0" encoding="UTF-8"?>
<<<<<<< HEAD
<osm version="0.6" generator="osmapis">
	<node lat="59.78490555355819" lon="10.780972227280955" id="-14392">
		<tag k="name" v="Gjersjøen" />
		<tag k="natural" v="water" />
		<tag k="ssr:stedsnr" v="4314" />
		<tag k="water" v="lake" />
	</node>
	<node lat="59.72018333056343" lon="10.737488890802219" id="-14408">
		<tag k="name" v="Bekkelva" />
		<tag k="ssr:stedsnr" v="58505" />
		<tag k="waterway" v="stream" />
	</node>
	<node lat="59.72478611294276" lon="10.75086389023795" id="-14442">
		<tag k="name" v="Askehaugtjernet" />
=======
<osm generator="osmapis" version="0.6">
	<node id="-245823" lat="59.7500055547" lon="10.7571111109">
		<tag k="name" v="Storekleivbekken" />
		<tag k="ssr:stedsnr" v="386811" />
		<tag k="waterway" v="stream" />
	</node>
	<node id="-245878" lat="59.7566805593" lon="10.7332444465">
		<tag k="alt_name" v="Kjærnesdammen" />
		<tag k="name" v="Feilingdammen" />
>>>>>>> e1d4bc35ff8a6074a6f2e91616a996b547c36f15
		<tag k="natural" v="water" />
		<tag k="ssr:stedsnr" v="185547" />
	</node>
<<<<<<< HEAD
	<node lat="59.61425833652326" lon="10.883927775906235" id="-14445">
=======
	<node id="-245748" lat="59.6142583365" lon="10.8839277759">
>>>>>>> e1d4bc35ff8a6074a6f2e91616a996b547c36f15
		<tag k="name" v="Kroerbekken" />
		<tag k="ssr:stedsnr" v="265957" />
		<tag k="waterway" v="stream" />
	</node>
<<<<<<< HEAD
	<node lat="59.73670278070733" lon="10.783472223923775" id="-14472">
		<tag k="name" v="Vassflobekken" />
		<tag k="ssr:stedsnr" v="265018" />
		<tag k="waterway" v="stream" />
	</node>
	<node lat="59.76398333709041" lon="10.785080554540569" id="-14486">
		<tag k="name" v="Tyvdalsbukta" />
		<tag k="natural" v="bay" />
		<tag k="ssr:stedsnr" v="265905" />
	</node>
	<node lat="59.750005554723764" lon="10.757111110933305" id="-14513">
		<tag k="name" v="Storekleivbekken" />
		<tag k="ssr:stedsnr" v="386811" />
		<tag k="waterway" v="stream" />
	</node>
	<node lat="59.74080833478182" lon="10.75675555257951" id="-14530">
		<tag k="name" v="Skinnervika" />
		<tag k="natural" v="bay" />
		<tag k="ssr:stedsnr" v="447423" />
	</node>
	<node lat="59.689425000809344" lon="10.783472221493454" id="-14539">
		<tag k="name" v="Bølstadbekken" />
		<tag k="ssr:stedsnr" v="447398" />
		<tag k="waterway" v="stream" />
	</node>
	<node lat="59.66448562232594" lon="10.77525672883206" id="-14565">
		<tag k="name" v="Skogsdammen" />
=======
	<node id="-246258" lat="59.6758499979" lon="10.7499888938">
		<tag k="name" v="Morteberget" />
		<tag k="natural" v="cape" />
		<tag k="ssr:stedsnr" v="811680" />
	</node>
	<node id="-246257" lat="59.6671027751" lon="10.7693999914">
		<tag k="name" v="Andedammen" />
		<tag k="natural" v="water" />
		<tag k="ssr:stedsnr" v="811676" />
	</node>
	<node id="-245871" lat="59.7338666666" lon="10.7412194507">
		<tag k="fixme" v="multiple name tags, choose one and add the other to alt_name" />
		<tag k="name" v="Fålebekken;Nesebekken" />
		<tag k="ssr:stedsnr" v="690490" />
		<tag k="waterway" v="stream" />
	</node>
	<node id="-246244" lat="59.6474861141" lon="10.747838883">
		<tag k="name" v="Beverdalsbekken" />
		<tag k="ssr:stedsnr" v="811279" />
		<tag k="waterway" v="stream" />
	</node>
	<node id="-245858" lat="59.6898777801" lon="10.825591666">
		<tag k="name" v="Tangen" />
		<tag k="natural" v="cape" />
		<tag k="ssr:stedsnr" v="508470" />
	</node>
	<node id="-245776" lat="59.763911107" lon="10.7940166744">
		<tag k="name" v="Langslora" />
		<tag k="natural" v="shoal" />
		<tag k="place" v="locality" />
		<tag k="ssr:stedsnr" v="447900" />
	</node>
	<node id="-246236" lat="59.6893146341" lon="10.744510114">
		<tag k="name" v="Årungen" />
>>>>>>> e1d4bc35ff8a6074a6f2e91616a996b547c36f15
		<tag k="natural" v="water" />
		<tag k="ssr:stedsnr" v="690685" />
	</node>
<<<<<<< HEAD
	<node lat="59.756680559338086" lon="10.733244446480821" id="-14575">
		<tag k="alt_name" v="Kjærnesdammen" />
		<tag k="name" v="Feilingdammen" />
		<tag k="natural" v="water" />
		<tag k="ssr:stedsnr" v="690847" />
	</node>
	<node lat="59.693330556929666" lon="10.83407221489944" id="-14582">
		<tag k="name" v="Østensjøbekken" />
		<tag k="ssr:stedsnr" v="568081" />
		<tag k="waterway" v="stream" />
	</node>
	<node lat="59.67866944081196" lon="10.766102781476896" id="-14599">
		<tag k="name" v="Norderåsbekken" />
		<tag k="ssr:stedsnr" v="629702" />
		<tag k="waterway" v="stream" />
	</node>
	<node lat="59.73386666656628" lon="10.741219450660271" id="-14608">
		<tag k="fixme" v="multiple name tags, choose one and add the other to alt_name" />
		<tag k="name" v="Fålebekken;Nesebekken" />
		<tag k="ssr:stedsnr" v="690490" />
		<tag k="waterway" v="stream" />
	</node>
	<node lat="59.76256944402864" lon="10.780772227499675" id="-14626">
=======
	<node id="-245723" lat="59.7367027807" lon="10.7834722239">
		<tag k="name" v="Vassflobekken" />
		<tag k="ssr:stedsnr" v="265018" />
		<tag k="waterway" v="stream" />
	</node>
	<node id="-245719" lat="59.7170787607" lon="10.7320868016">
		<tag k="fixme" v="multiple name tags, choose one and add the other to alt_name" />
		<tag k="name" v="Bekkevollelva;Kaksrudbekken" />
		<tag k="ssr:stedsnr" v="85264" />
		<tag k="waterway" v="stream" />
	</node>
	<node id="-246227" lat="59.762569444" lon="10.7807722275">
>>>>>>> e1d4bc35ff8a6074a6f2e91616a996b547c36f15
		<tag k="name" v="Amundsneset" />
		<tag k="natural" v="cape" />
		<tag k="ssr:stedsnr" v="750898" />
	</node>
<<<<<<< HEAD
	<node lat="59.664427777036174" lon="10.886924997588954" id="-14635">
		<tag k="name" v="Kråkstadelva" />
		<tag k="ssr:stedsnr" v="791487" />
		<tag k="waterway" v="stream" />
	</node>
	<node lat="59.689314634070584" lon="10.744510114016146" id="-14638">
		<tag k="name" v="Årungen" />
		<tag k="natural" v="water" />
		<tag k="ssr:stedsnr" v="792399" />
		<tag k="water" v="lake" />
	</node>
	<node lat="59.675849997929134" lon="10.749988893817175" id="-14664">
		<tag k="name" v="Morteberget" />
=======
	<node id="-246094" lat="59.7618416659" lon="10.8012666698">
		<tag k="name" v="Ringneset" />
>>>>>>> e1d4bc35ff8a6074a6f2e91616a996b547c36f15
		<tag k="natural" v="cape" />
		<tag k="ssr:stedsnr" v="811680" />
	</node>
<<<<<<< HEAD
	<node lat="59.81796388860528" lon="10.771363889277035" id="-14678">
		<tag k="name" v="Gjersjøelva" />
		<tag k="old_name" v="Hvitebjørnselv" />
		<tag k="ssr:stedsnr" v="854251" />
		<tag k="waterway" v="stream" />
	</node>
	<node lat="59.732266664551844" lon="10.798833337401678" id="-14729">
		<tag k="name" v="Svartbekk" />
		<tag k="ssr:stedsnr" v="22022" />
		<tag k="waterway" v="stream" />
	</node>
	<node lat="59.74030000275748" lon="10.752583329035904" id="-14749">
		<tag k="name" v="Pollevannet" />
		<tag k="natural" v="water" />
		<tag k="ssr:stedsnr" v="63529" />
	</node>
	<node lat="59.76149722212518" lon="10.805250008552594" id="-14760">
		<tag k="name" v="Vinebergslora" />
		<tag k="natural" v="shoal" />
		<tag k="place" v="locality" />
		<tag k="ssr:stedsnr" v="83925" />
	</node>
	<node lat="59.71707876065989" lon="10.732086801565048" id="-14763">
		<tag k="fixme" v="multiple name tags, choose one and add the other to alt_name" />
		<tag k="name" v="Kaksrudbekken;Bekkevollelva" />
		<tag k="ssr:stedsnr" v="85264" />
		<tag k="waterway" v="stream" />
	</node>
	<node lat="59.67548889271012" lon="10.73399443671883" id="-14795">
		<tag k="name" v="Smedbølbekken" />
		<tag k="ssr:stedsnr" v="204664" />
		<tag k="waterway" v="stream" />
	</node>
	<node lat="59.76184166587356" lon="10.801266669837966" id="-14797">
		<tag k="name" v="Ringneset" />
		<tag k="natural" v="cape" />
		<tag k="ssr:stedsnr" v="205917" />
	</node>
	<node lat="59.76391110698988" lon="10.794016674354527" id="-14861">
		<tag k="name" v="Langslora" />
		<tag k="natural" v="shoal" />
		<tag k="place" v="locality" />
		<tag k="ssr:stedsnr" v="447900" />
	</node>
	<node lat="59.6898777801218" lon="10.82559166602381" id="-14874">
		<tag k="name" v="Tangen" />
		<tag k="natural" v="cape" />
		<tag k="ssr:stedsnr" v="508470" />
	</node>
	<node lat="59.72429999782239" lon="10.766702772983841" id="-14882">
		<tag k="name" v="Kirkerudtjernet" />
		<tag k="natural" v="water" />
		<tag k="ssr:stedsnr" v="549583" />
	</node>
	<node lat="59.75771111353511" lon="10.783247217056758" id="-14900">
=======
	<node id="-246218" lat="59.6985194409" lon="10.7439083323">
		<tag k="name" v="Skuggebukta" />
		<tag k="natural" v="bay" />
		<tag k="ssr:stedsnr" v="750387" />
	</node>
	<node id="-246089" lat="59.6754888927" lon="10.7339944367">
		<tag k="name" v="Smedbølbekken" />
		<tag k="ssr:stedsnr" v="204664" />
		<tag k="waterway" v="stream" />
	</node>
	<node id="-245772" lat="59.6894250008" lon="10.7834722215">
		<tag k="name" v="Bølstadbekken" />
		<tag k="ssr:stedsnr" v="447398" />
		<tag k="waterway" v="stream" />
	</node>
	<node id="-245702" lat="59.7403000028" lon="10.752583329">
		<tag k="name" v="Pollevannet" />
		<tag k="natural" v="water" />
		<tag k="ssr:stedsnr" v="63529" />
	</node>
	<node id="-246207" lat="59.6786694408" lon="10.7661027815">
		<tag k="name" v="Norderåsbekken" />
		<tag k="ssr:stedsnr" v="629702" />
		<tag k="waterway" v="stream" />
	</node>
	<node id="-246076" lat="59.7247861129" lon="10.7508638902">
		<tag k="name" v="Askehaugtjernet" />
		<tag k="natural" v="water" />
		<tag k="ssr:stedsnr" v="185547" />
	</node>
	<node id="-245689" lat="59.7322666646" lon="10.7988333374">
		<tag k="name" v="Svartbekk" />
		<tag k="ssr:stedsnr" v="22022" />
		<tag k="waterway" v="stream" />
	</node>
	<node id="-246194" lat="59.6888972241" lon="10.8286250054">
		<tag k="name" v="Østensjøvannet" />
		<tag k="natural" v="water" />
		<tag k="ssr:stedsnr" v="610440" />
	</node>
	<node id="-246182" lat="59.7577111135" lon="10.7832472171">
>>>>>>> e1d4bc35ff8a6074a6f2e91616a996b547c36f15
		<tag k="name" v="Fåleslora" />
		<tag k="place" v="locality" />
		<tag k="ssr:stedsnr" v="568914" />
	</node>
<<<<<<< HEAD
	<node lat="59.68889722413224" lon="10.828625005378212" id="-14908">
		<tag k="name" v="Østensjøvannet" />
		<tag k="natural" v="water" />
		<tag k="ssr:stedsnr" v="610440" />
	</node>
	<node lat="59.76064444573616" lon="10.776336103206235" id="-14941">
=======
	<node id="-245873" lat="59.6645416641" lon="10.775469445">
		<tag k="name" v="Skogsdammen" />
		<tag k="natural" v="water" />
		<tag k="ssr:stedsnr" v="690685" />
	</node>
	<node id="-246306" lat="59.8179638886" lon="10.7713638893">
		<tag k="name" v="Gjersjøelva" />
		<tag k="old_name" v="Hvitebjørnselv" />
		<tag k="ssr:stedsnr" v="854251" />
		<tag k="waterway" v="stream" />
	</node>
	<node id="-246173" lat="59.6933305569" lon="10.8340722149">
		<tag k="name" v="Østensjøbekken" />
		<tag k="ssr:stedsnr" v="568081" />
		<tag k="waterway" v="stream" />
	</node>
	<node id="-245786" lat="59.7639833371" lon="10.7850805545">
		<tag k="name" v="Tyvdalsbukta" />
		<tag k="natural" v="bay" />
		<tag k="ssr:stedsnr" v="265905" />
	</node>
	<node id="-245914" lat="59.7606444457" lon="10.7763361032">
>>>>>>> e1d4bc35ff8a6074a6f2e91616a996b547c36f15
		<tag k="name" v="Tangen" />
		<tag k="natural" v="cape" />
		<tag k="ssr:stedsnr" v="733500" />
	</node>
<<<<<<< HEAD
	<node lat="59.69851944085584" lon="10.743908332265654" id="-14946">
		<tag k="name" v="Skuggebukta" />
		<tag k="natural" v="bay" />
		<tag k="ssr:stedsnr" v="750387" />
	</node>
	<node lat="59.64748611414667" lon="10.747838883013912" id="-14963">
		<tag k="name" v="Beverdalsbekken" />
		<tag k="ssr:stedsnr" v="811279" />
		<tag k="waterway" v="stream" />
	</node>
	<node lat="59.6671027750887" lon="10.769399991447882" id="-14968">
		<tag k="name" v="Andedammen" />
		<tag k="natural" v="water" />
		<tag k="ssr:stedsnr" v="811676" />
	</node>
	<node lat="59.68867500276417" lon="10.761227775999469" id="-14984">
=======
	<node id="-246041" lat="59.7614972221" lon="10.8052500086">
		<tag k="name" v="Vinebergslora" />
		<tag k="natural" v="shoal" />
		<tag k="place" v="locality" />
		<tag k="ssr:stedsnr" v="83925" />
	</node>
	<node id="-246165" lat="59.7242999978" lon="10.766702773">
		<tag k="name" v="Kirkerudtjernet" />
		<tag k="natural" v="water" />
		<tag k="ssr:stedsnr" v="549583" />
	</node>
	<node id="-246288" lat="59.6262833291" lon="10.7442111032">
		<tag k="name" v="Revlingbekken" />
		<tag k="ssr:stedsnr" v="872740" />
		<tag k="waterway" v="stream" />
	</node>
	<node id="-246284" lat="59.6886750028" lon="10.761227776">
>>>>>>> e1d4bc35ff8a6074a6f2e91616a996b547c36f15
		<tag k="name" v="Syverudbekken" />
		<tag k="ssr:stedsnr" v="872448" />
		<tag k="waterway" v="stream" />
	</node>
<<<<<<< HEAD
	<node lat="59.62628332914394" lon="10.744211103177252" id="-14994">
		<tag k="name" v="Revlingbekken" />
		<tag k="ssr:stedsnr" v="872740" />
		<tag k="waterway" v="stream" />
	</node>
=======
	<node id="-246231" lat="59.664427777" lon="10.8869249976">
		<tag k="name" v="Kråkstadelva" />
		<tag k="ssr:stedsnr" v="791487" />
		<tag k="waterway" v="stream" />
	</node>
	<node id="-246021" lat="59.7201833306" lon="10.7374888908">
		<tag k="name" v="Bekkelva" />
		<tag k="ssr:stedsnr" v="58505" />
		<tag k="waterway" v="stream" />
	</node>
	<node id="-245763" lat="59.7408083348" lon="10.7567555526">
		<tag k="name" v="Skinnervika" />
		<tag k="natural" v="bay" />
		<tag k="ssr:stedsnr" v="447423" />
	</node>
>>>>>>> e1d4bc35ff8a6074a6f2e91616a996b547c36f15
</osm>
