<?xml version="1.0" encoding="UTF-8"?>
<osm version="0.6" generator="osmapis">
	<node lat="59.73270555138557" lon="10.727055553288693" id="-15549">
		<tag k="name" v="Svartlagodden" />
		<tag k="natural" v="cape" />
		<tag k="ssr:stedsnr" v="58502" />
	</node>
	<node lat="59.733916667962056" lon="10.725208338765638" id="-15596">
		<tag k="name" v="Sundet" />
		<tag k="natural" v="strait" />
		<tag k="ssr:stedsnr" v="265463" />
	</node>
	<node lat="59.72292221783174" lon="10.728738885381215" id="-15607">
		<tag k="name" v="Sørlistranda" />
		<tag k="natural" v="beach" />
		<tag k="ssr:stedsnr" v="240487" />
	</node>
	<node lat="59.75609166363851" lon="10.72713610274972" id="-15630">
		<tag k="name" v="Kjøyabukta" />
		<tag k="natural" v="bay" />
		<tag k="ssr:stedsnr" v="265836" />
	</node>
	<node lat="59.744008337309026" lon="10.724011104312444" id="-15637">
		<tag k="fixme" v="consider seamark:type=rock or natural=shoal" />
		<tag k="name" v="Tuskjær" />
		<tag k="place" v="islet" />
		<tag k="ssr:stedsnr" v="326484" />
	</node>
	<node lat="59.74463333364277" lon="10.722119444469184" id="-15663">
		<tag k="bay" v="fjord" />
		<tag k="name" v="Bunnefjorden" />
		<tag k="natural" v="bay" />
		<tag k="ssr:stedsnr" v="488471" />
	</node>
	<node lat="59.756461111600345" lon="10.72476665886602" id="-15683">
		<tag k="name" v="Speilodden" />
		<tag k="natural" v="cape" />
		<tag k="ssr:stedsnr" v="447816" />
	</node>
	<node lat="59.73491943988173" lon="10.726691674684467" id="-15729">
		<tag k="name" v="Søndre Breivollodden" />
		<tag k="natural" v="cape" />
		<tag k="ssr:stedsnr" v="603452" />
	</node>
	<node lat="59.74692500364468" lon="10.7243194460184" id="-15886">
		<tag k="name" v="Strandengnebba" />
		<tag k="natural" v="cape" />
		<tag k="ssr:stedsnr" v="58463" />
	</node>
	<node lat="59.73235833319007" lon="10.727291669189434" id="-15900">
		<tag k="name" v="Svartlaget" />
		<tag k="natural" v="bay" />
		<tag k="ssr:stedsnr" v="83449" />
	</node>
	<node lat="59.74782320387718" lon="10.725889831755676" id="-15901">
		<tag k="alt_name" v="Bogenbukta" />
		<tag k="name" v="Bogen" />
		<tag k="natural" v="bay" />
		<tag k="ssr:stedsnr" v="83820" />
	</node>
	<node lat="59.74098055877789" lon="10.725591670049948" id="-15954">
		<tag k="fixme" v="consider seamark:type=rock or natural=shoal" />
		<tag k="name" v="Flatskjær" />
		<tag k="place" v="islet" />
		<tag k="ssr:stedsnr" v="326486" />
	</node>
	<node lat="59.73869444370616" lon="10.726530558553728" id="-15965">
		<tag k="name" v="Nordre Breivollodden" />
		<tag k="natural" v="cape" />
		<tag k="ssr:stedsnr" v="361498" />
	</node>
	<node lat="59.73036389115044" lon="10.731080548084805" id="-15993">
		<tag k="name" v="Neslaget" />
		<tag k="natural" v="cape" />
		<tag k="ssr:stedsnr" v="422463" />
	</node>
	<node lat="59.751833328938964" lon="10.724591672080804" id="-16045">
		<tag k="name" v="Kjærneslandet" />
		<tag k="natural" v="cape" />
		<tag k="ssr:stedsnr" v="571243" />
	</node>
	<node lat="59.75805000278063" lon="10.726133337644184" id="-16081">
		<tag k="name" v="Nebba" />
		<tag k="natural" v="cape" />
		<tag k="ssr:stedsnr" v="733360" />
	</node>
	<node lat="59.73062499649492" lon="10.728888893944161" id="-16089">
		<tag k="name" v="Nerslagodden" />
		<tag k="natural" v="cape" />
		<tag k="ssr:stedsnr" v="750434" />
	</node>
</osm>
