<?xml version="1.0" encoding="UTF-8"?>
<<<<<<< HEAD
<osm version="0.6" generator="osmapis">
	<node lat="59.758730557424535" lon="10.779919437156412" id="-14393">
		<tag k="building" v="commercial" />
		<tag k="name" v="Ringnes" />
		<tag k="ssr:stedsnr" v="4408" />
	</node>
	<node lat="59.69198610853183" lon="10.763455547231686" id="-14394">
		<tag k="name" v="Sagstua" />
		<tag k="place" v="farm" />
		<tag k="ssr:stedsnr" v="4412" />
	</node>
	<node lat="59.68046396090126" lon="10.737475319064272" id="-14395">
		<tag k="fixme" v="consider place=hamlet" />
		<tag k="name" v="Trosterud" />
		<tag k="place" v="farm" />
		<tag k="ssr:stedsnr" v="4419" />
	</node>
	<node lat="59.75130496617885" lon="10.799949286705877" id="-14396">
		<tag k="fixme" v="consider place=hamlet" />
		<tag k="name" v="Nøstvet" />
=======
<osm generator="osmapis" version="0.6">
	<node id="-245758" lat="59.6869611099" lon="10.7656305574">
		<tag k="name" v="Dylterud" />
		<tag k="place" v="farm" />
		<tag k="ssr:stedsnr" v="204359" />
	</node>
	<node id="-245757" lat="59.6438722248" lon="10.779069441">
		<tag k="name" v="Lillerød" />
		<tag k="place" v="farm" />
		<tag k="ssr:stedsnr" v="204283" />
	</node>
	<node id="-245754" lat="59.7520994727" lon="10.7238907121">
		<tag k="name" v="Bratli" />
		<tag k="place" v="isolated_dwelling" />
		<tag k="ssr:stedsnr" v="326811" />
	</node>
	<node id="-245750" lat="59.7231455905" lon="10.7305726996">
		<tag k="name" v="Bekk" />
		<tag k="place" v="farm" />
		<tag k="ssr:stedsnr" v="267293" />
	</node>
	<node id="-245746" lat="59.6347972249" lon="10.8090527844">
		<tag k="name" v="Tangen" />
		<tag k="place" v="farm" />
		<tag k="ssr:stedsnr" v="265750" />
	</node>
	<node id="-245745" lat="59.619644449" lon="10.8208166585">
		<tag k="name" v="Dammyra" />
		<tag k="place" v="farm" />
		<tag k="ssr:stedsnr" v="265748" />
	</node>
	<node id="-245744" lat="59.6202944448" lon="10.8273277744">
		<tag k="name" v="Kølabonn" />
		<tag k="place" v="farm" />
		<tag k="ssr:stedsnr" v="265747" />
	</node>
	<node id="-245742" lat="59.6800805597" lon="10.7373666607">
		<tag k="alt_name" v="Trosterud søndre" />
		<tag k="name" v="Søndre Trosterud" />
		<tag k="place" v="farm" />
		<tag k="ssr:stedsnr" v="265717" />
	</node>
	<node id="-245740" lat="59.6804583301" lon="10.7659083315">
		<tag k="leisure" v="pitch" />
		<tag k="name" v="Norderåsbakken" />
		<tag k="ssr:stedsnr" v="265688" />
	</node>
	<node id="-245739" lat="59.6636777754" lon="10.7864083243">
		<tag k="amenity" v="school" />
		<tag k="name" v="Åsgård skole" />
		<tag k="ssr:stedsnr" v="265680" />
	</node>
	<node id="-245738" lat="59.6805138879" lon="10.8129333249">
		<tag k="name" v="Sandli" />
		<tag k="place" v="isolated_dwelling" />
		<tag k="ssr:stedsnr" v="265675" />
	</node>
	<node id="-245736" lat="59.7316916664" lon="10.7374333377">
		<tag k="name" v="Sundet" />
		<tag k="place" v="locality" />
		<tag k="ssr:stedsnr" v="265504" />
	</node>
	<node id="-245734" lat="59.6998722194" lon="10.7799611168">
		<tag k="alt_name" v="Sneis vestre" />
		<tag k="name" v="Vestre Sneis" />
		<tag k="place" v="farm" />
		<tag k="ssr:stedsnr" v="265452" />
	</node>
	<node id="-245733" lat="59.6987777798" lon="10.7814916606">
		<tag k="alt_name" v="Sneis søndre" />
		<tag k="name" v="Søndre Sneis" />
		<tag k="place" v="farm" />
		<tag k="ssr:stedsnr" v="265449" />
	</node>
	<node id="-245730" lat="59.6483749957" lon="10.7604277847">
		<tag k="alt_name" v="Børsum midtre" />
		<tag k="name" v="Midtre Børsum" />
		<tag k="place" v="farm" />
		<tag k="ssr:stedsnr" v="265330" />
	</node>
	<node id="-245729" lat="59.6541527816" lon="10.8023888833">
		<tag k="name" v="Blåfjellet" />
		<tag k="place" v="hamlet" />
		<tag k="ssr:stedsnr" v="265328" />
	</node>
	<node id="-245728" lat="59.6434527776" lon="10.7217222295">
		<tag k="alt_name" v="Iversrud nordre" />
		<tag k="name" v="Nordre Iversrud" />
		<tag k="place" v="farm" />
		<tag k="ssr:stedsnr" v="265308" />
	</node>
	<node id="-245727" lat="59.7026666674" lon="10.841024996">
		<tag k="name" v="Grønlund" />
		<tag k="place" v="farm" />
		<tag k="ssr:stedsnr" v="265088" />
	</node>
	<node id="-245726" lat="59.6144277781" lon="10.8732527723">
		<tag k="name" v="Østby" />
		<tag k="place" v="farm" />
		<tag k="ssr:stedsnr" v="265040" />
	</node>
	<node id="-245725" lat="59.6515027749" lon="10.839088883">
		<tag k="alt_name" v="Sørli (nedl.)" />
		<tag k="name" v="Sørli" />
		<tag k="place" v="locality" />
		<tag k="ssr:stedsnr" v="265028" />
	</node>
	<node id="-245721" lat="59.6241638911" lon="10.8361277719">
		<tag k="name" v="Sennebråte" />
		<tag k="place" v="farm" />
		<tag k="ssr:stedsnr" v="124273" />
	</node>
	<node id="-245717" lat="59.7027666651" lon="10.7480111132">
		<tag k="name" v="Sundbyødegården" />
		<tag k="place" v="farm" />
		<tag k="ssr:stedsnr" v="83416" />
	</node>
	<node id="-245716" lat="59.6669805529" lon="10.7833583318">
		<tag k="name" v="Kaia" />
		<tag k="place" v="locality" />
		<tag k="ssr:stedsnr" v="83265" />
	</node>
	<node id="-245715" lat="59.6521527738" lon="10.7898361033">
		<tag k="name" v="Moer" />
		<tag k="place" v="quarter" />
		<tag k="ssr:stedsnr" v="83308" />
	</node>
	<node id="-245714" lat="59.7257444461" lon="10.7943750064">
		<tag k="name" v="Lilleby" />
		<tag k="place" v="isolated_dwelling" />
		<tag k="ssr:stedsnr" v="83020" />
	</node>
	<node id="-245713" lat="59.6317694434" lon="10.853863895">
		<tag k="name" v="Eng" />
		<tag k="place" v="farm" />
		<tag k="ssr:stedsnr" v="83005" />
	</node>
	<node id="-245711" lat="59.7352138883" lon="10.7544194363">
		<tag k="name" v="To" />
		<tag k="place" v="farm" />
		<tag k="ssr:stedsnr" v="246583" />
	</node>
	<node id="-245710" lat="59.696350004" lon="10.8510777762">
		<tag k="alt_name" v="Hagalund" />
		<tag k="name" v="Hagelund" />
		<tag k="place" v="farm" />
		<tag k="ssr:stedsnr" v="246386" />
	</node>
	<node id="-245709" lat="59.6614027761" lon="10.7741861137">
		<tag k="name" v="Sørås" />
		<tag k="place" v="farm" />
		<tag k="ssr:stedsnr" v="245451" />
	</node>
	<node id="-245708" lat="59.6394313908" lon="10.795718581">
		<tag k="fixme" v="consider place=hamlet" />
		<tag k="name" v="Hogstvet" />
		<tag k="place" v="farm" />
		<tag k="ssr:stedsnr" v="245285" />
	</node>
	<node id="-245707" lat="59.6516499993" lon="10.7721472151">
		<tag k="name" v="Herumhagen" />
		<tag k="place" v="farm" />
		<tag k="ssr:stedsnr" v="245237" />
	</node>
	<node id="-245706" lat="59.6432123516" lon="10.7003110721">
		<tag k="fixme" v="consider place=hamlet" />
		<tag k="name" v="Gultvet" />
		<tag k="place" v="farm" />
		<tag k="ssr:stedsnr" v="242185" />
	</node>
	<node id="-245705" lat="59.6263500007" lon="10.8241777816">
		<tag k="fixme" v="multiple name tags, choose one and add the other to alt_name" />
		<tag k="name" v="Østbråta;Bråte, nordre;Nordre Bråte" />
		<tag k="place" v="farm" />
		<tag k="ssr:stedsnr" v="64326" />
	</node>
	<node id="-245703" lat="59.6966813932" lon="10.8295957211">
		<tag k="name" v="Kjølstad" />
		<tag k="place" v="hamlet" />
		<tag k="ssr:stedsnr" v="64015" />
	</node>
	<node id="-245700" lat="59.7609833356" lon="10.7267722156">
		<tag k="name" v="Granum" />
		<tag k="place" v="isolated_dwelling" />
		<tag k="ssr:stedsnr" v="56760" />
	</node>
	<node id="-245699" lat="59.6478499965" lon="10.6867972249">
		<tag k="alt_name" v="Kinn søndre" />
		<tag k="name" v="Søndre Kinn" />
		<tag k="place" v="farm" />
		<tag k="ssr:stedsnr" v="22853" />
	</node>
	<node id="-245698" lat="59.6445916674" lon="10.7164583335">
		<tag k="alt_name" v="Myrer østre" />
		<tag k="name" v="Østre Myrer" />
		<tag k="place" v="farm" />
		<tag k="ssr:stedsnr" v="22849" />
	</node>
	<node id="-245697" lat="59.653019442" lon="10.7044305607">
		<tag k="alt_name" v="Vennersgård vestre;Vestre Vennersgård" />
		<tag k="name" v="Vestre Venneskål" />
		<tag k="place" v="farm" />
		<tag k="ssr:stedsnr" v="22844" />
	</node>
	<node id="-245693" lat="59.7444583303" lon="10.7400944456">
		<tag k="name" v="Ekeberg" />
		<tag k="place" v="isolated_dwelling" />
		<tag k="ssr:stedsnr" v="22442" />
	</node>
	<node id="-245692" lat="59.7259472217" lon="10.7591666651">
		<tag k="name" v="Sporret" />
		<tag k="place" v="quarter" />
		<tag k="ssr:stedsnr" v="22440" />
	</node>
	<node id="-245688" lat="59.7259000004" lon="10.796869447">
		<tag k="alt_name" v="Solberg nordre" />
		<tag k="name" v="Nordre Solberg" />
		<tag k="place" v="farm" />
		<tag k="ssr:stedsnr" v="22014" />
	</node>
	<node id="-246296" lat="59.637492562" lon="10.7418061866">
		<tag k="name" v="Støkken" />
		<tag k="place" v="hamlet" />
		<tag k="ssr:stedsnr" v="977365" />
	</node>
	<node id="-246292" lat="59.7093194408" lon="10.7601500007">
		<tag k="name" v="Sundbyhagen" />
		<tag k="place" v="farm" />
		<tag k="ssr:stedsnr" v="873345" />
	</node>
	<node id="-246290" lat="59.7117972241" lon="10.7611694525">
		<tag k="alt_name" v="Risplass midtre" />
		<tag k="name" v="Midtre Risplass" />
		<tag k="place" v="locality" />
		<tag k="ssr:stedsnr" v="873343" />
	</node>
	<node id="-246285" lat="59.7382472223" lon="10.7608972176">
		<tag k="name" v="Nordskogen" />
		<tag k="place" v="quarter" />
		<tag k="ssr:stedsnr" v="872500" />
	</node>
	<node id="-246282" lat="59.659719449" lon="10.725874992">
		<tag k="alt_name" v="Haug nordre" />
		<tag k="name" v="Nordre Haug" />
		<tag k="place" v="farm" />
		<tag k="ssr:stedsnr" v="872300" />
	</node>
	<node id="-246281" lat="59.6642083362" lon="10.7909444477">
		<tag k="amenity" v="townhall" />
		<tag k="name" v="Ås rådhus" />
		<tag k="ssr:stedsnr" v="872281" />
	</node>
	<node id="-246280" lat="59.6526944483" lon="10.8390111025">
		<tag k="name" v="Østli" />
		<tag k="place" v="isolated_dwelling" />
		<tag k="ssr:stedsnr" v="872033" />
	</node>
	<node id="-246279" lat="59.7422944452" lon="10.7631972281">
		<tag k="name" v="Nøstvet" />
		<tag k="place" v="locality" />
		<tag k="ssr:stedsnr" v="872026" />
	</node>
	<node id="-246278" lat="59.739419445" lon="10.7768611103">
		<tag k="name" v="Myrås" />
		<tag k="place" v="isolated_dwelling" />
		<tag k="ssr:stedsnr" v="872020" />
	</node>
	<node id="-246277" lat="59.7260500011" lon="10.7965749935">
		<tag k="name" v="Solberg" />
>>>>>>> e1d4bc35ff8a6074a6f2e91616a996b547c36f15
		<tag k="place" v="farm" />
		<tag k="ssr:stedsnr" v="5370" />
	</node>
<<<<<<< HEAD
	<node lat="59.64939444218207" lon="10.795686117226358" id="-14397">
		<tag k="name" v="Brekkeskog" />
		<tag k="place" v="quarter" />
		<tag k="ssr:stedsnr" v="22283" />
	</node>
	<node lat="59.65121388948225" lon="10.752708338652608" id="-14398">
		<tag k="name" v="Lund" />
		<tag k="place" v="isolated_dwelling" />
		<tag k="ssr:stedsnr" v="22291" />
	</node>
	<node lat="59.64934166399011" lon="10.80314999382031" id="-14399">
		<tag k="name" v="Nylenna" />
=======
	<node id="-246276" lat="59.6151527735" lon="10.8324083305">
		<tag k="name" v="Kaksrud" />
		<tag k="place" v="farm" />
		<tag k="ssr:stedsnr" v="853351" />
	</node>
	<node id="-246274" lat="59.7294027761" lon="10.7336999914">
		<tag k="alt_name" v="Nesset" />
		<tag k="name" v="Neset" />
		<tag k="place" v="hamlet" />
		<tag k="ssr:stedsnr" v="853581" />
	</node>
	<node id="-246273" lat="59.6612166703" lon="10.6859416606">
		<tag k="alt_name" v="Fjøser;Fjøser søndre" />
		<tag k="name" v="Søndre Fjøser" />
>>>>>>> e1d4bc35ff8a6074a6f2e91616a996b547c36f15
		<tag k="place" v="farm" />
		<tag k="ssr:stedsnr" v="22298" />
	</node>
<<<<<<< HEAD
	<node lat="59.725947221698" lon="10.759166665137583" id="-14400">
		<tag k="name" v="Sporret" />
		<tag k="place" v="quarter" />
		<tag k="ssr:stedsnr" v="22440" />
	</node>
	<node lat="59.74445833027426" lon="10.740094445587987" id="-14401">
		<tag k="name" v="Ekeberg" />
		<tag k="place" v="isolated_dwelling" />
		<tag k="ssr:stedsnr" v="22442" />
	</node>
	<node lat="59.70513611435924" lon="10.76671388551556" id="-14405">
		<tag k="alt_name" v="Sundby østre" />
		<tag k="name" v="Østre Sundby" />
=======
	<node id="-246272" lat="59.6356504829" lon="10.7405066654">
		<tag k="alt_name" v="Støkken, vestre;Støkken vestre" />
		<tag k="fixme" v="consider place=hamlet" />
		<tag k="name" v="Vestre Støkken" />
		<tag k="place" v="farm" />
		<tag k="ssr:stedsnr" v="853284" />
	</node>
	<node id="-246271" lat="59.6445305521" lon="10.7744361085">
		<tag k="alt_name" v="Rød;Rød nordre" />
		<tag k="name" v="Nordre Rød" />
		<tag k="place" v="farm" />
		<tag k="ssr:stedsnr" v="852280" />
	</node>
	<node id="-246270" lat="59.6549444457" lon="10.7256472236">
		<tag k="alt_name" v="Haug, søndre;Haug søndre" />
		<tag k="name" v="Søndre Haug" />
>>>>>>> e1d4bc35ff8a6074a6f2e91616a996b547c36f15
		<tag k="place" v="farm" />
		<tag k="ssr:stedsnr" v="23398" />
	</node>
<<<<<<< HEAD
	<node lat="59.68438889082228" lon="10.80505278109999" id="-14406">
		<tag k="name" v="Bjerklund" />
=======
	<node id="-246269" lat="59.7536555539" lon="10.7302194424">
		<tag k="name" v="Øvre Kjøye" />
>>>>>>> e1d4bc35ff8a6074a6f2e91616a996b547c36f15
		<tag k="place" v="isolated_dwelling" />
		<tag k="ssr:stedsnr" v="23490" />
	</node>
<<<<<<< HEAD
	<node lat="59.654236254707584" lon="10.831513238121332" id="-14409">
		<tag k="fixme" v="consider place=hamlet" />
		<tag k="name" v="Bjørnebekk" />
=======
	<node id="-246266" lat="59.7043555592" lon="10.7618194462">
		<tag k="alt_name" v="Sundby vestre" />
		<tag k="name" v="Vestre Sundby" />
>>>>>>> e1d4bc35ff8a6074a6f2e91616a996b547c36f15
		<tag k="place" v="farm" />
		<tag k="ssr:stedsnr" v="63279" />
	</node>
<<<<<<< HEAD
	<node lat="59.696681393201196" lon="10.8295957211442" id="-14410">
		<tag k="name" v="Kjølstad" />
		<tag k="place" v="hamlet" />
		<tag k="ssr:stedsnr" v="64015" />
	</node>
	<node lat="59.64294942394736" lon="10.700675180819129" id="-14412">
		<tag k="name" v="Gultvedt" />
=======
	<node id="-246265" lat="59.7110861134" lon="10.7603777743">
		<tag k="alt_name" v="Risplass søndre" />
		<tag k="name" v="Søndre Risplass" />
		<tag k="place" v="locality" />
		<tag k="ssr:stedsnr" v="812344" />
	</node>
	<node id="-246262" lat="59.6439666664" lon="10.7133555595">
		<tag k="alt_name" v="Myrer søndre" />
		<tag k="name" v="Søndre Myrer" />
>>>>>>> e1d4bc35ff8a6074a6f2e91616a996b547c36f15
		<tag k="place" v="farm" />
		<tag k="ssr:stedsnr" v="64855" />
	</node>
<<<<<<< HEAD
	<node lat="59.63176944342842" lon="10.853863895026983" id="-14413">
		<tag k="name" v="Eng" />
		<tag k="place" v="farm" />
		<tag k="ssr:stedsnr" v="83005" />
	</node>
	<node lat="59.725744446075495" lon="10.794375006394391" id="-14414">
		<tag k="name" v="Lilleby" />
=======
	<node id="-246261" lat="59.6679611097" lon="10.6895111192">
		<tag k="alt_name" v="Torp østre" />
		<tag k="name" v="Østre Torp" />
		<tag k="place" v="farm" />
		<tag k="ssr:stedsnr" v="811819" />
	</node>
	<node id="-246260" lat="59.7509527808" lon="10.7252888842">
		<tag k="name" v="Skrekken" />
		<tag k="place" v="isolated_dwelling" />
		<tag k="ssr:stedsnr" v="811805" />
	</node>
	<node id="-246255" lat="59.674058329" lon="10.7637666678">
		<tag k="name" v="Gullberg" />
>>>>>>> e1d4bc35ff8a6074a6f2e91616a996b547c36f15
		<tag k="place" v="isolated_dwelling" />
		<tag k="ssr:stedsnr" v="83020" />
	</node>
<<<<<<< HEAD
	<node lat="59.63275555237162" lon="10.848213891358606" id="-14416">
		<tag k="amenity" v="school" />
		<tag k="name" v="Kroer skole" />
		<tag k="ssr:stedsnr" v="83050" />
	</node>
	<node lat="59.70276666505772" lon="10.748011113183937" id="-14417">
		<tag k="name" v="Sundbyødegården" />
=======
	<node id="-246254" lat="59.6659944449" lon="10.8109611185">
		<tag k="amenity" v="school" />
		<tag k="name" v="Rustad skole" />
		<tag k="ssr:stedsnr" v="811635" />
	</node>
	<node id="-246253" lat="59.7315666681" lon="10.7344833249">
		<tag k="name" v="Kjerkeløkka" />
		<tag k="place" v="locality" />
		<tag k="ssr:stedsnr" v="811465" />
	</node>
	<node id="-246252" lat="59.7421388883" lon="10.7308055546">
		<tag k="name" v="Strandenga" />
>>>>>>> e1d4bc35ff8a6074a6f2e91616a996b547c36f15
		<tag k="place" v="farm" />
		<tag k="ssr:stedsnr" v="83416" />
	</node>
<<<<<<< HEAD
	<node lat="59.6521527738201" lon="10.789836103279479" id="-14419">
		<tag k="name" v="Moer" />
=======
	<node id="-246251" lat="59.7017166633" lon="10.82871944">
		<tag k="name" v="Kjølstadhøgda" />
>>>>>>> e1d4bc35ff8a6074a6f2e91616a996b547c36f15
		<tag k="place" v="quarter" />
		<tag k="ssr:stedsnr" v="83308" />
	</node>
<<<<<<< HEAD
	<node lat="59.67355555967266" lon="10.730911104311877" id="-14421">
		<tag k="name" v="Apaltun" />
		<tag k="place" v="isolated_dwelling" />
		<tag k="ssr:stedsnr" v="83687" />
	</node>
	<node lat="59.669655557253904" lon="10.729086113374564" id="-14422">
		<tag k="alt_name" v="Tokerud søndre" />
		<tag k="name" v="Søndre Tokerud" />
=======
	<node id="-246250" lat="59.6972472211" lon="10.7608111164">
		<tag k="alt_name" v="Skau" />
		<tag k="name" v="Skaug" />
		<tag k="place" v="farm" />
		<tag k="ssr:stedsnr" v="811400" />
	</node>
	<node id="-246249" lat="59.7000499962" lon="10.7437833349">
		<tag k="name" v="Sollia" />
>>>>>>> e1d4bc35ff8a6074a6f2e91616a996b547c36f15
		<tag k="place" v="farm" />
		<tag k="ssr:stedsnr" v="83697" />
	</node>
<<<<<<< HEAD
	<node lat="59.71433889182163" lon="10.769138883982981" id="-14424">
		<tag k="name" v="Rislunden" />
		<tag k="place" v="isolated_dwelling" />
		<tag k="ssr:stedsnr" v="84338" />
	</node>
	<node lat="59.639431390765395" lon="10.79571858102867" id="-14425">
		<tag k="name" v="Hogstvet" />
		<tag k="place" v="hamlet" />
		<tag k="ssr:stedsnr" v="245285" />
	</node>
	<node lat="59.65164999932298" lon="10.77214721506571" id="-14426">
		<tag k="name" v="Herumhagen" />
=======
	<node id="-246248" lat="59.6494444463" lon="10.8092944363">
		<tag k="name" v="Ødegården" />
		<tag k="place" v="farm" />
		<tag k="ssr:stedsnr" v="811308" />
	</node>
	<node id="-246247" lat="59.6540833318" lon="10.7434138964">
		<tag k="name" v="Dalen" />
>>>>>>> e1d4bc35ff8a6074a6f2e91616a996b547c36f15
		<tag k="place" v="farm" />
		<tag k="ssr:stedsnr" v="245237" />
	</node>
<<<<<<< HEAD
	<node lat="59.708196451565925" lon="10.787406775592043" id="-14427">
		<tag k="name" v="Sørli" />
		<tag k="place" v="farm" />
		<tag k="ssr:stedsnr" v="245363" />
	</node>
	<node lat="59.6977055565261" lon="10.772913882929316" id="-14430">
		<tag k="alt_name" v="Egge" />
		<tag k="name" v="Egget" />
=======
	<node id="-246246" lat="59.6575638873" lon="10.7809111115">
		<tag k="name" v="Landås" />
		<tag k="place" v="quarter" />
		<tag k="ssr:stedsnr" v="811284" />
	</node>
	<node id="-246243" lat="59.6405638875" lon="10.7623694423">
		<tag k="name" v="Østli" />
>>>>>>> e1d4bc35ff8a6074a6f2e91616a996b547c36f15
		<tag k="place" v="farm" />
		<tag k="ssr:stedsnr" v="125422" />
	</node>
<<<<<<< HEAD
	<node lat="59.68606024819226" lon="10.806691648070009" id="-14431">
		<tag k="fixme" v="consider place=hamlet" />
		<tag k="name" v="Haugerud" />
=======
	<node id="-246241" lat="59.6688138909" lon="10.7168249961">
		<tag k="name" v="Hogsmørk" />
>>>>>>> e1d4bc35ff8a6074a6f2e91616a996b547c36f15
		<tag k="place" v="farm" />
		<tag k="ssr:stedsnr" v="125425" />
	</node>
<<<<<<< HEAD
	<node lat="59.60575555226928" lon="10.864450007289019" id="-14432">
		<tag k="name" v="Piskenhus" />
		<tag k="place" v="locality" />
		<tag k="ssr:stedsnr" v="143034" />
	</node>
	<node lat="59.6816638871189" lon="10.778333336843838" id="-14433">
		<tag k="name" v="Lund" />
=======
	<node id="-246240" lat="59.7583194438" lon="10.774786105">
		<tag k="alt_name" v="Seiersten" />
		<tag k="name" v="Seierstein" />
>>>>>>> e1d4bc35ff8a6074a6f2e91616a996b547c36f15
		<tag k="place" v="farm" />
		<tag k="ssr:stedsnr" v="143430" />
	</node>
<<<<<<< HEAD
	<node lat="59.747336112777965" lon="10.741463880608881" id="-14435">
		<tag k="name" v="Libråten" />
=======
	<node id="-246239" lat="59.7610999969" lon="10.7565000031">
		<tag k="name" v="Østli" />
>>>>>>> e1d4bc35ff8a6074a6f2e91616a996b547c36f15
		<tag k="place" v="farm" />
		<tag k="ssr:stedsnr" v="143813" />
	</node>
<<<<<<< HEAD
	<node lat="59.759616664476425" lon="10.728441668947784" id="-14436">
		<tag k="name" v="Linneflauet" />
=======
	<node id="-246238" lat="59.7310305591" lon="10.7834055563">
		<tag k="name" v="Kveldro" />
>>>>>>> e1d4bc35ff8a6074a6f2e91616a996b547c36f15
		<tag k="place" v="isolated_dwelling" />
		<tag k="ssr:stedsnr" v="143814" />
	</node>
<<<<<<< HEAD
	<node lat="59.657794445086196" lon="10.713688892665429" id="-14437">
		<tag k="alt_name" v="Holstad søndre" />
		<tag k="name" v="Søndre Holstad" />
=======
	<node id="-246237" lat="59.616525002" lon="10.8644999934">
		<tag k="name" v="Toverud" />
>>>>>>> e1d4bc35ff8a6074a6f2e91616a996b547c36f15
		<tag k="place" v="farm" />
		<tag k="ssr:stedsnr" v="143838" />
	</node>
<<<<<<< HEAD
	<node lat="59.65666666942512" lon="10.773122222030173" id="-14441">
		<tag k="name" v="Tomter" />
		<tag k="place" v="farm" />
		<tag k="ssr:stedsnr" v="185239" />
	</node>
	<node lat="59.67985357795766" lon="10.768733656444292" id="-14443">
=======
	<node id="-246234" lat="59.6415944449" lon="10.7522833359">
		<tag k="name" v="Bjerkeskau" />
		<tag k="place" v="isolated_dwelling" />
		<tag k="ssr:stedsnr" v="791291" />
	</node>
	<node id="-246233" lat="59.6397126512" lon="10.744283763">
		<tag k="alt_name" v="Støkken, nordre;Støkken nordre" />
>>>>>>> e1d4bc35ff8a6074a6f2e91616a996b547c36f15
		<tag k="fixme" v="consider place=hamlet" />
		<tag k="name" v="Norderås" />
		<tag k="place" v="farm" />
		<tag k="ssr:stedsnr" v="186504" />
	</node>
<<<<<<< HEAD
	<node lat="59.68109134366078" lon="10.744307379038368" id="-14444">
		<tag k="fixme" v="consider place=hamlet" />
		<tag k="name" v="Fosterud" />
=======
	<node id="-246232" lat="59.7400166692" lon="10.7447999967">
		<tag k="alt_name" v="Fåle, m;Fåle mellom;Mellom Fåle" />
		<tag k="fixme" v="multiple name tags, choose one and add the other to alt_name" />
		<tag k="name" v="Søndre Fåle;Mellom-Fåle" />
>>>>>>> e1d4bc35ff8a6074a6f2e91616a996b547c36f15
		<tag k="place" v="farm" />
		<tag k="ssr:stedsnr" v="186476" />
	</node>
<<<<<<< HEAD
	<node lat="59.657691670774675" lon="10.705852777929818" id="-14446">
		<tag k="name" v="Skogstad" />
=======
	<node id="-246226" lat="59.668400004" lon="10.6875972286">
		<tag k="alt_name" v="Torp vestre" />
		<tag k="name" v="Vestre Torp" />
>>>>>>> e1d4bc35ff8a6074a6f2e91616a996b547c36f15
		<tag k="place" v="farm" />
		<tag k="ssr:stedsnr" v="265866" />
	</node>
<<<<<<< HEAD
	<node lat="59.651502774887355" lon="10.839088883001462" id="-14447">
		<tag k="alt_name" v="Sørli (nedl.)" />
		<tag k="name" v="Sørli" />
		<tag k="place" v="locality" />
		<tag k="ssr:stedsnr" v="265028" />
	</node>
	<node lat="59.65415278162737" lon="10.802388883319278" id="-14448">
		<tag k="name" v="Blåfjellet" />
		<tag k="place" v="hamlet" />
		<tag k="ssr:stedsnr" v="265328" />
	</node>
	<node lat="59.64837499565641" lon="10.760427784676342" id="-14449">
		<tag k="alt_name" v="Børsum midtre" />
		<tag k="name" v="Midtre Børsum" />
=======
	<node id="-246223" lat="59.615222221" lon="10.8217499986">
		<tag k="name" v="Dammen" />
		<tag k="place" v="farm" />
		<tag k="ssr:stedsnr" v="750679" />
	</node>
	<node id="-246222" lat="59.6813666637" lon="10.7372722252">
		<tag k="alt_name" v="Trosterud nordre" />
		<tag k="name" v="Nordre Trosterud" />
		<tag k="place" v="farm" />
		<tag k="ssr:stedsnr" v="750662" />
	</node>
	<node id="-246221" lat="59.661036107" lon="10.7342499918">
		<tag k="alt_name" v="Treider østre" />
		<tag k="name" v="Østre Treider" />
>>>>>>> e1d4bc35ff8a6074a6f2e91616a996b547c36f15
		<tag k="place" v="farm" />
		<tag k="ssr:stedsnr" v="265330" />
	</node>
<<<<<<< HEAD
	<node lat="59.69877777981382" lon="10.781491660581557" id="-14450">
		<tag k="alt_name" v="Sneis søndre" />
		<tag k="name" v="Søndre Sneis" />
=======
	<node id="-246220" lat="59.66515278" lon="10.7253444451">
		<tag k="name" v="Haughagen" />
>>>>>>> e1d4bc35ff8a6074a6f2e91616a996b547c36f15
		<tag k="place" v="farm" />
		<tag k="ssr:stedsnr" v="265449" />
	</node>
<<<<<<< HEAD
	<node lat="59.69987221939413" lon="10.779961116825705" id="-14451">
		<tag k="alt_name" v="Sneis vestre" />
		<tag k="name" v="Vestre Sneis" />
=======
	<node id="-246217" lat="59.7230472242" lon="10.787077769">
		<tag k="name" v="Nordeng" />
>>>>>>> e1d4bc35ff8a6074a6f2e91616a996b547c36f15
		<tag k="place" v="farm" />
		<tag k="ssr:stedsnr" v="265452" />
	</node>
<<<<<<< HEAD
	<node lat="59.680458330109154" lon="10.76590833148523" id="-14452">
		<tag k="leisure" v="pitch" />
		<tag k="name" v="Norderåsbakken" />
		<tag k="ssr:stedsnr" v="265688" />
	</node>
	<node lat="59.680513887854026" lon="10.812933324852748" id="-14455">
		<tag k="name" v="Sandli" />
		<tag k="place" v="isolated_dwelling" />
		<tag k="ssr:stedsnr" v="265675" />
	</node>
	<node lat="59.66367777540516" lon="10.786408324341705" id="-14456">
		<tag k="amenity" v="school" />
		<tag k="name" v="Åsgård skole" />
		<tag k="ssr:stedsnr" v="265680" />
	</node>
	<node lat="59.724526243833964" lon="10.732732525025154" id="-14457">
		<tag k="fixme" v="consider place=hamlet" />
		<tag k="name" v="Bekk" />
		<tag k="place" v="farm" />
		<tag k="ssr:stedsnr" v="267293" />
	</node>
	<node lat="59.68696110991409" lon="10.76563055737764" id="-14459">
		<tag k="name" v="Dylterud" />
=======
	<node id="-246216" lat="59.7242111087" lon="10.7912083348">
		<tag k="name" v="Olasbråten" />
		<tag k="place" v="farm" />
		<tag k="ssr:stedsnr" v="750358" />
	</node>
	<node id="-246215" lat="59.645619447" lon="10.8289888947">
		<tag k="name" v="Berget" />
		<tag k="place" v="locality" />
		<tag k="ssr:stedsnr" v="750324" />
	</node>
	<node id="-246214" lat="59.6575333371" lon="10.8285055561">
		<tag k="amenity" v="nursing_home" />
		<tag k="name" v="Bjørnebekk kursted" />
		<tag k="ssr:stedsnr" v="750286" />
	</node>
	<node id="-246213" lat="59.6597055539" lon="10.7274722158">
		<tag k="alt_name" v="Haug østre" />
		<tag k="name" v="Østre Haug" />
		<tag k="place" v="farm" />
		<tag k="ssr:stedsnr" v="750254" />
	</node>
	<node id="-246212" lat="59.742219446" lon="10.7620861195">
		<tag k="name" v="Pollenga" />
		<tag k="place" v="quarter" />
		<tag k="ssr:stedsnr" v="750440" />
	</node>
	<node id="-246210" lat="59.6258472183" lon="10.8421777725">
		<tag k="name" v="Brantløkka" />
>>>>>>> e1d4bc35ff8a6074a6f2e91616a996b547c36f15
		<tag k="place" v="farm" />
		<tag k="ssr:stedsnr" v="204359" />
	</node>
<<<<<<< HEAD
	<node lat="59.75622500287363" lon="10.743263889223924" id="-14463">
		<tag k="name" v="Stormannsbråten" />
		<tag k="place" v="locality" />
		<tag k="ssr:stedsnr" v="204806" />
	</node>
	<node lat="59.72258055545212" lon="10.728583340786267" id="-14464">
		<tag k="name" v="Paris" />
		<tag k="place" v="locality" />
		<tag k="ssr:stedsnr" v="205409" />
	</node>
	<node lat="59.64321235161548" lon="10.700311072112465" id="-14466">
		<tag k="fixme" v="consider place=hamlet" />
		<tag k="name" v="Gultvet" />
=======
	<node id="-246209" lat="59.7253944441" lon="10.7922444468">
		<tag k="name" v="Verken" />
		<tag k="place" v="farm" />
		<tag k="ssr:stedsnr" v="750012" />
	</node>
	<node id="-246206" lat="59.6609888926" lon="10.7701583289">
		<tag k="name" v="Pentagon" />
		<tag k="place" v="quarter" />
		<tag k="ssr:stedsnr" v="629698" />
	</node>
	<node id="-246205" lat="59.6786583315" lon="10.7527055532">
		<tag k="name" v="Hale" />
>>>>>>> e1d4bc35ff8a6074a6f2e91616a996b547c36f15
		<tag k="place" v="farm" />
		<tag k="ssr:stedsnr" v="242185" />
	</node>
<<<<<<< HEAD
	<node lat="59.6614027760607" lon="10.77418611365242" id="-14467">
		<tag k="name" v="Sørås" />
=======
	<node id="-246203" lat="59.6819861087" lon="10.8000249945">
		<tag k="name" v="Lefsrud" />
>>>>>>> e1d4bc35ff8a6074a6f2e91616a996b547c36f15
		<tag k="place" v="farm" />
		<tag k="ssr:stedsnr" v="245451" />
	</node>
<<<<<<< HEAD
	<node lat="59.69635000400092" lon="10.85107777620392" id="-14469">
		<tag k="alt_name" v="Hagalund" />
		<tag k="name" v="Hagelund" />
=======
	<node id="-246202" lat="59.639419445" lon="10.8041777722">
		<tag k="name" v="Kølabonn" />
>>>>>>> e1d4bc35ff8a6074a6f2e91616a996b547c36f15
		<tag k="place" v="farm" />
		<tag k="ssr:stedsnr" v="246386" />
	</node>
<<<<<<< HEAD
	<node lat="59.7350519697916" lon="10.754995383874325" id="-14470">
		<tag k="fixme" v="consider place=hamlet" />
		<tag k="name" v="To" />
=======
	<node id="-246201" lat="59.6500055579" lon="10.7612583373">
		<tag k="alt_name" v="Børsum søndre" />
		<tag k="name" v="Søndre Børsum" />
>>>>>>> e1d4bc35ff8a6074a6f2e91616a996b547c36f15
		<tag k="place" v="farm" />
		<tag k="ssr:stedsnr" v="246583" />
	</node>
<<<<<<< HEAD
	<node lat="59.61442777809828" lon="10.873252772344118" id="-14474">
		<tag k="name" v="Østby" />
		<tag k="place" v="farm" />
		<tag k="ssr:stedsnr" v="265040" />
	</node>
	<node lat="59.702666667380235" lon="10.841024995958678" id="-14475">
		<tag k="name" v="Grønlund" />
		<tag k="place" v="farm" />
		<tag k="ssr:stedsnr" v="265088" />
	</node>
	<node lat="59.643452777584024" lon="10.721722229516894" id="-14478">
		<tag k="alt_name" v="Iversrud nordre" />
		<tag k="name" v="Nordre Iversrud" />
		<tag k="place" v="farm" />
		<tag k="ssr:stedsnr" v="265308" />
	</node>
	<node lat="59.73169166635873" lon="10.737433337696261" id="-14479">
		<tag k="name" v="Sundet" />
		<tag k="place" v="locality" />
		<tag k="ssr:stedsnr" v="265504" />
	</node>
	<node lat="59.680080559669015" lon="10.737366660707485" id="-14481">
		<tag k="alt_name" v="Trosterud søndre" />
		<tag k="name" v="Søndre Trosterud" />
=======
	<node id="-246200" lat="59.6906166645" lon="10.8167083413">
		<tag k="building" v="commercial" />
		<tag k="name" v="Felleskjøpet" />
		<tag k="ssr:stedsnr" v="629443" />
	</node>
	<node id="-246199" lat="59.6865861151" lon="10.8113277692">
		<tag k="amenity" v="school" />
		<tag k="name" v="Holstad skole" />
		<tag k="ssr:stedsnr" v="629442" />
	</node>
	<node id="-246198" lat="59.6985805526" lon="10.7457833293">
		<tag k="name" v="Skuggen" />
		<tag k="place" v="isolated_dwelling" />
		<tag k="ssr:stedsnr" v="629428" />
	</node>
	<node id="-246197" lat="59.7190249979" lon="10.803952779">
		<tag k="amenity" v="nursing_home" />
		<tag k="name" v="Nordby sykehjem" />
		<tag k="ssr:stedsnr" v="629386" />
	</node>
	<node id="-246196" lat="59.656727777" lon="10.6828027788">
		<tag k="name" v="Klommestein" />
>>>>>>> e1d4bc35ff8a6074a6f2e91616a996b547c36f15
		<tag k="place" v="farm" />
		<tag k="ssr:stedsnr" v="265717" />
	</node>
<<<<<<< HEAD
	<node lat="59.62029444482067" lon="10.827327774437757" id="-14483">
		<tag k="name" v="Kølabonn" />
=======
	<node id="-246195" lat="59.6858027812" lon="10.8184666691">
		<tag k="name" v="Askjum" />
>>>>>>> e1d4bc35ff8a6074a6f2e91616a996b547c36f15
		<tag k="place" v="farm" />
		<tag k="ssr:stedsnr" v="265747" />
	</node>
<<<<<<< HEAD
	<node lat="59.61964444898544" lon="10.820816658455726" id="-14484">
		<tag k="name" v="Dammyra" />
=======
	<node id="-246193" lat="59.7099527792" lon="10.7516250061">
		<tag k="name" v="Grøterud" />
>>>>>>> e1d4bc35ff8a6074a6f2e91616a996b547c36f15
		<tag k="place" v="farm" />
		<tag k="ssr:stedsnr" v="265748" />
	</node>
<<<<<<< HEAD
	<node lat="59.63479722486256" lon="10.809052784353021" id="-14485">
		<tag k="name" v="Tangen" />
=======
	<node id="-246192" lat="59.7351055518" lon="10.737944453">
		<tag k="alt_name" v="Fåle, søndre" />
		<tag k="name" v="Søndre Fåle" />
>>>>>>> e1d4bc35ff8a6074a6f2e91616a996b547c36f15
		<tag k="place" v="farm" />
		<tag k="ssr:stedsnr" v="265750" />
	</node>
<<<<<<< HEAD
	<node lat="59.70387499956002" lon="10.785374992035557" id="-14490">
		<tag k="name" v="Skremma" />
		<tag k="place" v="locality" />
		<tag k="ssr:stedsnr" v="508438" />
	</node>
	<node lat="59.663963888658564" lon="10.75089999495325" id="-14491">
		<tag k="amenity" v="school" />
		<tag k="name" v="Brønnerud skole" />
		<tag k="ssr:stedsnr" v="508680" />
	</node>
	<node lat="59.62643702037509" lon="10.820721600105362" id="-14492">
		<tag k="name" v="Bråta" />
		<tag k="old_name" v="Braate" />
		<tag k="place" v="hamlet" />
		<tag k="ssr:stedsnr" v="465082" />
	</node>
	<node lat="59.69943333467254" lon="10.783191657920934" id="-14494">
		<tag k="alt_name" v="Sneis østre" />
		<tag k="name" v="Østre Sneis" />
=======
	<node id="-246191" lat="59.6364615826" lon="10.7443114696">
		<tag k="alt_name" v="Støkken, østre;Støkken" />
		<tag k="fixme" v="consider place=hamlet" />
		<tag k="name" v="Østre Støkken" />
		<tag k="place" v="farm" />
		<tag k="ssr:stedsnr" v="609283" />
	</node>
	<node id="-246189" lat="59.65319722" lon="10.7487638926">
		<tag k="name" v="Linnestad" />
>>>>>>> e1d4bc35ff8a6074a6f2e91616a996b547c36f15
		<tag k="place" v="farm" />
		<tag k="ssr:stedsnr" v="326465" />
	</node>
<<<<<<< HEAD
	<node lat="59.661580551715645" lon="10.772905555511388" id="-14497">
		<tag k="name" v="Sørås" />
		<tag k="place" v="quarter" />
		<tag k="ssr:stedsnr" v="326704" />
	</node>
	<node lat="59.66187222458552" lon="10.804452773867837" id="-14498">
		<tag k="amenity" v="nursing_home" />
		<tag k="name" v="Follo helseheim" />
		<tag k="ssr:stedsnr" v="326659" />
	</node>
	<node lat="59.672997224471985" lon="10.81526389342709" id="-14499">
		<tag k="name" v="Kampenhaug" />
		<tag k="place" v="isolated_dwelling" />
		<tag k="ssr:stedsnr" v="326665" />
	</node>
	<node lat="59.662891662241606" lon="10.826675001351788" id="-14500">
		<tag k="name" v="Monsrud" />
=======
	<node id="-246187" lat="59.6634222217" lon="10.7338777817">
		<tag k="name" v="Haugsten" />
		<tag k="place" v="quarter" />
		<tag k="ssr:stedsnr" v="609442" />
	</node>
	<node id="-246184" lat="59.7176777783" lon="10.7909333392">
		<tag k="name" v="Solberg" />
		<tag k="place" v="hamlet" />
		<tag k="ssr:stedsnr" v="569357" />
	</node>
	<node id="-246183" lat="59.7490166653" lon="10.7782666591">
		<tag k="name" v="Tusenfryd" />
		<tag k="old_name" v="Dyreparken" />
		<tag k="ssr:stedsnr" v="568920" />
		<tag k="tourism" v="theme_park" />
	</node>
	<node id="-246181" lat="59.6514783087" lon="10.692888884">
		<tag k="name" v="Solheim" />
		<tag k="place" v="isolated_dwelling" />
		<tag k="ssr:stedsnr" v="568809" />
	</node>
	<node id="-246179" lat="59.6765277818" lon="10.7455777818">
		<tag k="alt_name" v="Fosterud søndre" />
		<tag k="name" v="Søndre Fosterud" />
		<tag k="place" v="farm" />
		<tag k="ssr:stedsnr" v="568658" />
	</node>
	<node id="-246178" lat="59.7320916636" lon="10.7507722269">
		<tag k="name" v="Askehaugbråten" />
>>>>>>> e1d4bc35ff8a6074a6f2e91616a996b547c36f15
		<tag k="place" v="farm" />
		<tag k="ssr:stedsnr" v="326666" />
	</node>
<<<<<<< HEAD
	<node lat="59.6720500014415" lon="10.798708328221506" id="-14501">
		<tag k="name" v="Grønnslett" />
		<tag k="place" v="quarter" />
		<tag k="ssr:stedsnr" v="326669" />
	</node>
	<node lat="59.6627222214159" lon="10.81740000360626" id="-14502">
		<tag k="name" v="Kjetilsrud" />
		<tag k="place" v="quarter" />
		<tag k="ssr:stedsnr" v="326671" />
	</node>
	<node lat="59.66424166809604" lon="10.80892500809989" id="-14503">
		<tag k="name" v="Dysterlia" />
		<tag k="place" v="quarter" />
		<tag k="ssr:stedsnr" v="326672" />
	</node>
	<node lat="59.752099472660646" lon="10.723890712095404" id="-14505">
		<tag k="name" v="Bratli" />
		<tag k="place" v="isolated_dwelling" />
		<tag k="ssr:stedsnr" v="326811" />
	</node>
	<node lat="59.71776883365566" lon="10.760192642196072" id="-14507">
		<tag k="fixme" v="consider place=hamlet" />
		<tag k="name" v="Kaksrud" />
=======
	<node id="-246174" lat="59.6588666657" lon="10.7735611086">
		<tag k="name" v="Kilehagen" />
		<tag k="place" v="quarter" />
		<tag k="ssr:stedsnr" v="568297" />
	</node>
	<node id="-246171" lat="59.7282888904" lon="10.7984444521">
		<tag k="name" v="Nystuen" />
		<tag k="place" v="isolated_dwelling" />
		<tag k="ssr:stedsnr" v="568016" />
	</node>
	<node id="-246170" lat="59.7394027765" lon="10.7886166672">
		<tag k="name" v="Tremannsdelet" />
		<tag k="place" v="locality" />
		<tag k="ssr:stedsnr" v="568006" />
	</node>
	<node id="-246167" lat="59.6837305528" lon="10.7931555617">
		<tag k="alt_name" v="Slørstad, m;Slørstad;Slørstad søndre" />
		<tag k="name" v="Midtre Slørstad" />
		<tag k="place" v="farm" />
		<tag k="ssr:stedsnr" v="550441" />
	</node>
	<node id="-246166" lat="59.6900027806" lon="10.8086805607">
		<tag k="alt_name" v="Holstad, nedre;Holstad;Hoelstad" />
		<tag k="name" v="Nedre Holstad" />
		<tag k="place" v="farm" />
		<tag k="ssr:stedsnr" v="550397" />
	</node>
	<node id="-246164" lat="59.7206138855" lon="10.773177776">
		<tag k="name" v="Nordby" />
		<tag k="place" v="hamlet" />
		<tag k="ssr:stedsnr" v="549535" />
	</node>
	<node id="-246163" lat="59.6666885473" lon="10.8224236692">
		<tag k="fixme" v="consider place=hamlet" />
		<tag k="name" v="Rustad" />
		<tag k="place" v="farm" />
		<tag k="ssr:stedsnr" v="549431" />
	</node>
	<node id="-246162" lat="59.6302749989" lon="10.8476333276">
		<tag k="name" v="Moer" />
>>>>>>> e1d4bc35ff8a6074a6f2e91616a996b547c36f15
		<tag k="place" v="farm" />
		<tag k="ssr:stedsnr" v="367505" />
	</node>
<<<<<<< HEAD
	<node lat="59.74342168005425" lon="10.80645027919591" id="-14508">
		<tag k="name" v="Stuene" />
		<tag k="place" v="locality" />
		<tag k="ssr:stedsnr" v="367431" />
	</node>
	<node lat="59.64560832933161" lon="10.802652781339903" id="-14509">
		<tag k="alt_name" v="Eldor søndre" />
		<tag k="name" v="Søndre Eldor" />
=======
	<node id="-246161" lat="59.6368694451" lon="10.8522222155">
		<tag k="alt_name" v="Kroer, s;Kroer søndre;Sør-Kroer" />
		<tag k="name" v="Søndre Kroer" />
		<tag k="place" v="farm" />
		<tag k="ssr:stedsnr" v="549307" />
	</node>
	<node id="-246160" lat="59.6390791093" lon="10.778547957">
		<tag k="name" v="Rud" />
>>>>>>> e1d4bc35ff8a6074a6f2e91616a996b547c36f15
		<tag k="place" v="farm" />
		<tag k="ssr:stedsnr" v="386307" />
	</node>
<<<<<<< HEAD
	<node lat="59.69762222369682" lon="10.770638890403102" id="-14510">
		<tag k="name" v="Kølabonn" />
		<tag k="place" v="isolated_dwelling" />
		<tag k="ssr:stedsnr" v="386397" />
	</node>
	<node lat="59.614077781604614" lon="10.828197220874486" id="-14511">
		<tag k="name" v="Nordskau" />
=======
	<node id="-246159" lat="59.647216669" lon="10.8305555502">
		<tag k="name" v="Danskerud" />
		<tag k="place" v="quarter" />
		<tag k="ssr:stedsnr" v="549283" />
	</node>
	<node id="-246158" lat="59.6536777821" lon="10.7768305491">
		<tag k="name" v="Burum" />
>>>>>>> e1d4bc35ff8a6074a6f2e91616a996b547c36f15
		<tag k="place" v="farm" />
		<tag k="ssr:stedsnr" v="386693" />
	</node>
<<<<<<< HEAD
	<node lat="59.634691668184445" lon="10.814830562659337" id="-14516">
		<tag k="name" v="Ommen" />
=======
	<node id="-246157" lat="59.6682666677" lon="10.7380083337">
		<tag k="name" v="Stensrud" />
>>>>>>> e1d4bc35ff8a6074a6f2e91616a996b547c36f15
		<tag k="place" v="farm" />
		<tag k="ssr:stedsnr" v="488267" />
	</node>
<<<<<<< HEAD
	<node lat="59.630946645412806" lon="10.835049953460006" id="-14517">
		<tag k="fixme" v="consider place=hamlet" />
		<tag k="name" v="Rød" />
=======
	<node id="-246156" lat="59.6623416702" lon="10.7510333281">
		<tag k="name" v="Vollebekk" />
>>>>>>> e1d4bc35ff8a6074a6f2e91616a996b547c36f15
		<tag k="place" v="farm" />
		<tag k="ssr:stedsnr" v="488292" />
	</node>
<<<<<<< HEAD
	<node lat="59.65830346344189" lon="10.80221388261455" id="-14518">
		<tag k="fixme" v="consider place=hamlet" />
		<tag k="name" v="Dyster" />
=======
	<node id="-246155" lat="59.6706138914" lon="10.7010972253">
		<tag k="alt_name" v="Furu søndre" />
		<tag k="name" v="Søndre Furu" />
>>>>>>> e1d4bc35ff8a6074a6f2e91616a996b547c36f15
		<tag k="place" v="farm" />
		<tag k="ssr:stedsnr" v="488224" />
	</node>
<<<<<<< HEAD
	<node lat="59.64701389117014" lon="10.788513891617017" id="-14519">
		<tag k="alt_name" v="Brekka, m;Brekke mellom;Brekken mellem" />
		<tag k="name" v="Mellom-Brekke" />
=======
	<node id="-246154" lat="59.652566668" lon="10.686733329">
		<tag k="alt_name" v="Skoftestad, søndre;Skoftestad søndre" />
		<tag k="name" v="Søndre Skoftestad" />
>>>>>>> e1d4bc35ff8a6074a6f2e91616a996b547c36f15
		<tag k="place" v="farm" />
		<tag k="ssr:stedsnr" v="488239" />
	</node>
<<<<<<< HEAD
	<node lat="59.642896292738655" lon="10.82965932539739" id="-14520">
=======
	<node id="-246153" lat="59.6483221033" lon="10.6876143382">
>>>>>>> e1d4bc35ff8a6074a6f2e91616a996b547c36f15
		<tag k="fixme" v="consider place=hamlet" />
		<tag k="name" v="Revhaug" />
		<tag k="place" v="farm" />
		<tag k="ssr:stedsnr" v="488245" />
	</node>
<<<<<<< HEAD
	<node lat="59.75303333325739" lon="10.753822219235841" id="-14523">
		<tag k="alt_name" v="Nybråtan" />
		<tag k="name" v="Nybråten" />
		<tag k="place" v="isolated_dwelling" />
		<tag k="ssr:stedsnr" v="490369" />
	</node>
	<node lat="59.70322061219912" lon="10.827339903401002" id="-14524">
=======
	<node id="-246152" lat="59.7206416636" lon="10.7624388957">
		<tag k="name" v="Kirkerud" />
		<tag k="place" v="farm" />
		<tag k="ssr:stedsnr" v="428521" />
	</node>
	<node id="-246151" lat="59.7032206122" lon="10.8273399034">
>>>>>>> e1d4bc35ff8a6074a6f2e91616a996b547c36f15
		<tag k="name" v="Sjønhaug" />
		<tag k="place" v="farm" />
		<tag k="ssr:stedsnr" v="428363" />
	</node>
<<<<<<< HEAD
	<node lat="59.72087019354095" lon="10.762926789165977" id="-14525">
		<tag k="fixme" v="consider place=hamlet" />
		<tag k="name" v="Kirkerud" />
=======
	<node id="-246150" lat="59.7066055537" lon="10.7695111079">
		<tag k="name" v="Øvre Melby" />
>>>>>>> e1d4bc35ff8a6074a6f2e91616a996b547c36f15
		<tag k="place" v="farm" />
		<tag k="ssr:stedsnr" v="428521" />
	</node>
<<<<<<< HEAD
	<node lat="59.670714439785975" lon="10.701217149031352" id="-14526">
		<tag k="name" v="Furu" />
		<tag k="place" v="hamlet" />
		<tag k="ssr:stedsnr" v="428870" />
	</node>
	<node lat="59.65256666802806" lon="10.686733328951885" id="-14527">
		<tag k="alt_name" v="Skoftestad, søndre;Skoftestad søndre" />
		<tag k="name" v="Søndre Skoftestad" />
=======
	<node id="-246149" lat="59.6311277779" lon="10.7739249956">
		<tag k="name" v="Fjellet" />
		<tag k="place" v="farm" />
		<tag k="ssr:stedsnr" v="428299" />
	</node>
	<node id="-246148" lat="59.6218749974" lon="10.8703277744">
		<tag k="name" v="Gåvim" />
>>>>>>> e1d4bc35ff8a6074a6f2e91616a996b547c36f15
		<tag k="place" v="farm" />
		<tag k="ssr:stedsnr" v="429828" />
	</node>
<<<<<<< HEAD
	<node lat="59.64268333184208" lon="10.858986112270228" id="-14528">
		<tag k="name" v="Steinbråten" />
		<tag k="place" v="isolated_dwelling" />
		<tag k="ssr:stedsnr" v="447027" />
	</node>
	<node lat="59.68630832926832" lon="10.805802771515454" id="-14529">
		<tag k="alt_name" v="Haugerud vestre" />
		<tag k="name" v="Vestre Haugerud" />
=======
	<node id="-246147" lat="59.6492305583" lon="10.7420805518">
		<tag k="name" v="Kongstein" />
>>>>>>> e1d4bc35ff8a6074a6f2e91616a996b547c36f15
		<tag k="place" v="farm" />
		<tag k="ssr:stedsnr" v="447402" />
	</node>
<<<<<<< HEAD
	<node lat="59.734305554058054" lon="10.756066657804654" id="-14534">
		<tag k="name" v="Togrenda" />
		<tag k="place" v="quarter" />
		<tag k="ssr:stedsnr" v="447435" />
	</node>
	<node lat="59.68555555555448" lon="10.773277774946969" id="-14535">
		<tag k="name" v="Stein" />
=======
	<node id="-246140" lat="59.6704222243" lon="10.7998111144">
		<tag k="alt_name" v="Ås ungd. skole" />
		<tag k="amenity" v="school" />
		<tag k="name" v="Ås ungdomsskole" />
		<tag k="ssr:stedsnr" v="386637" />
	</node>
	<node id="-246138" lat="59.6140777816" lon="10.8281972209">
		<tag k="name" v="Nordskau" />
>>>>>>> e1d4bc35ff8a6074a6f2e91616a996b547c36f15
		<tag k="place" v="farm" />
		<tag k="ssr:stedsnr" v="447378" />
	</node>
<<<<<<< HEAD
	<node lat="59.69097500250798" lon="10.766186109581966" id="-14536">
		<tag k="name" v="Kjærsrud" />
=======
	<node id="-246136" lat="59.668613889" lon="10.7258499935">
		<tag k="name" v="Tokerudbakken" />
>>>>>>> e1d4bc35ff8a6074a6f2e91616a996b547c36f15
		<tag k="place" v="isolated_dwelling" />
		<tag k="ssr:stedsnr" v="447379" />
	</node>
<<<<<<< HEAD
	<node lat="59.6960364838834" lon="10.744769772612063" id="-14537">
		<tag k="name" v="Lurenga" />
=======
	<node id="-246135" lat="59.6612249978" lon="10.7356111081">
		<tag k="name" v="Vangensten" />
>>>>>>> e1d4bc35ff8a6074a6f2e91616a996b547c36f15
		<tag k="place" v="isolated_dwelling" />
		<tag k="ssr:stedsnr" v="447384" />
	</node>
<<<<<<< HEAD
	<node lat="59.72135833375329" lon="10.77242499276064" id="-14544">
		<tag k="alt_name" v="Nordby nordre" />
		<tag k="name" v="Nordre Nordby" />
		<tag k="place" v="farm" />
		<tag k="ssr:stedsnr" v="448371" />
	</node>
	<node lat="59.59514262577186" lon="10.857539835346302" id="-14545">
		<tag k="fixme" v="consider place=hamlet" />
		<tag k="name" v="Bjørnstad" />
=======
	<node id="-246134" lat="59.6976222237" lon="10.7706388904">
		<tag k="name" v="Kølabonn" />
		<tag k="place" v="isolated_dwelling" />
		<tag k="ssr:stedsnr" v="386397" />
	</node>
	<node id="-246133" lat="59.6492916655" lon="10.833650004">
		<tag k="name" v="Danskerud" />
>>>>>>> e1d4bc35ff8a6074a6f2e91616a996b547c36f15
		<tag k="place" v="farm" />
		<tag k="ssr:stedsnr" v="671179" />
	</node>
<<<<<<< HEAD
	<node lat="59.74626944523995" lon="10.728291670614714" id="-14546">
		<tag k="name" v="Bogen" />
		<tag k="place" v="isolated_dwelling" />
		<tag k="ssr:stedsnr" v="450247" />
	</node>
	<node lat="59.70070278141359" lon="10.774261108206566" id="-14547">
		<tag k="name" v="Verpet" />
=======
	<node id="-246132" lat="59.6824749956" lon="10.7538611198">
		<tag k="name" v="Kinn" />
>>>>>>> e1d4bc35ff8a6074a6f2e91616a996b547c36f15
		<tag k="place" v="farm" />
		<tag k="ssr:stedsnr" v="671394" />
	</node>
<<<<<<< HEAD
	<node lat="59.645474738827076" lon="10.805289808103868" id="-14550">
		<tag k="fixme" v="consider place=hamlet" />
		<tag k="name" v="Eldor" />
=======
	<node id="-246131" lat="59.6860861145" lon="10.7660583358">
		<tag k="alt_name" v="Fagerlien" />
		<tag k="name" v="Fagerli" />
>>>>>>> e1d4bc35ff8a6074a6f2e91616a996b547c36f15
		<tag k="place" v="farm" />
		<tag k="ssr:stedsnr" v="488247" />
	</node>
<<<<<<< HEAD
	<node lat="59.665790331165965" lon="10.742992417686386" id="-14551">
		<tag k="fixme" v="consider place=hamlet" />
		<tag k="name" v="Kvestad" />
=======
	<node id="-246130" lat="59.6817694488" lon="10.7928194503">
		<tag k="alt_name" v="Slørstad, søndre;Slørstad søndre" />
		<tag k="name" v="Søndre Slørstad" />
>>>>>>> e1d4bc35ff8a6074a6f2e91616a996b547c36f15
		<tag k="place" v="farm" />
		<tag k="ssr:stedsnr" v="488441" />
	</node>
<<<<<<< HEAD
	<node lat="59.66545068956517" lon="10.720790201379325" id="-14552">
=======
	<node id="-246129" lat="59.6875856759" lon="10.8460031506">
>>>>>>> e1d4bc35ff8a6074a6f2e91616a996b547c36f15
		<tag k="fixme" v="consider place=hamlet" />
		<tag k="name" v="Rustad" />
		<tag k="place" v="farm" />
		<tag k="ssr:stedsnr" v="488443" />
	</node>
<<<<<<< HEAD
	<node lat="59.611470857811376" lon="10.856524876610525" id="-14553">
		<tag k="fixme" v="consider place=hamlet" />
		<tag k="name" v="Tierud" />
=======
	<node id="-246128" lat="59.7166750009" lon="10.7458527817">
		<tag k="name" v="Kaksrudødegården" />
>>>>>>> e1d4bc35ff8a6074a6f2e91616a996b547c36f15
		<tag k="place" v="farm" />
		<tag k="ssr:stedsnr" v="488351" />
	</node>
<<<<<<< HEAD
	<node lat="59.699084187209145" lon="10.781421358544536" id="-14554">
		<tag k="fixme" v="consider place=hamlet" />
		<tag k="name" v="Sneis" />
=======
	<node id="-246127" lat="59.7084250036" lon="10.7573527715">
		<tag k="alt_name" v="Orskau" />
		<tag k="name" v="Orskog" />
>>>>>>> e1d4bc35ff8a6074a6f2e91616a996b547c36f15
		<tag k="place" v="farm" />
		<tag k="ssr:stedsnr" v="489418" />
	</node>
<<<<<<< HEAD
	<node lat="59.65553994745155" lon="10.690911654059962" id="-14555">
		<tag k="name" v="Skoftestad" />
		<tag k="place" v="hamlet" />
		<tag k="ssr:stedsnr" v="489829" />
	</node>
	<node lat="59.65098888567262" lon="10.760333335182768" id="-14556">
		<tag k="alt_name" v="Børsum øvre" />
		<tag k="name" v="Øvre Børsum" />
=======
	<node id="-246126" lat="59.7177000027" lon="10.7599222191">
		<tag k="name" v="Kaksrud" />
>>>>>>> e1d4bc35ff8a6074a6f2e91616a996b547c36f15
		<tag k="place" v="farm" />
		<tag k="ssr:stedsnr" v="508308" />
	</node>
<<<<<<< HEAD
	<node lat="59.64171121702429" lon="10.76354383254421" id="-14557">
		<tag k="name" v="Børsumbråten" />
=======
	<node id="-246125" lat="59.7434216801" lon="10.8064502792">
		<tag k="fixme" v="consider place=hamlet" />
		<tag k="name" v="Stuene" />
>>>>>>> e1d4bc35ff8a6074a6f2e91616a996b547c36f15
		<tag k="place" v="farm" />
		<tag k="ssr:stedsnr" v="508312" />
	</node>
<<<<<<< HEAD
	<node lat="59.645138889083555" lon="10.80732777004047" id="-14558">
		<tag k="alt_name" v="Eldor østre" />
		<tag k="name" v="Østre Eldor" />
=======
	<node id="-246124" lat="59.6214888891" lon="10.8741249944">
		<tag k="name" v="Østby" />
>>>>>>> e1d4bc35ff8a6074a6f2e91616a996b547c36f15
		<tag k="place" v="farm" />
		<tag k="ssr:stedsnr" v="508328" />
	</node>
<<<<<<< HEAD
	<node lat="59.709049999519394" lon="10.785202774155083" id="-14559">
		<tag k="name" v="Langli" />
=======
	<node id="-246122" lat="59.6363972227" lon="10.8314805525">
		<tag k="alt_name" v="Helgestad;Helgestad øvre" />
		<tag k="name" v="Øvre Helgestad" />
>>>>>>> e1d4bc35ff8a6074a6f2e91616a996b547c36f15
		<tag k="place" v="farm" />
		<tag k="ssr:stedsnr" v="508410" />
	</node>
<<<<<<< HEAD
	<node lat="59.67649444544792" lon="10.778475003179281" id="-14561">
		<tag k="alt_name" v="Østby østre" />
		<tag k="name" v="Østre Østby" />
=======
	<node id="-246121" lat="59.6350250009" lon="10.7867750028">
		<tag k="name" v="Høyås" />
>>>>>>> e1d4bc35ff8a6074a6f2e91616a996b547c36f15
		<tag k="place" v="farm" />
		<tag k="ssr:stedsnr" v="508663" />
	</node>
<<<<<<< HEAD
	<node lat="59.670613891398496" lon="10.701097225343043" id="-14562">
		<tag k="alt_name" v="Furu søndre" />
		<tag k="name" v="Søndre Furu" />
		<tag k="place" v="farm" />
		<tag k="ssr:stedsnr" v="543571" />
	</node>
	<node lat="59.63907910932835" lon="10.778547956973922" id="-14563">
		<tag k="name" v="Rud" />
=======
	<node id="-246119" lat="59.7549611134" lon="10.7300222297">
		<tag k="name" v="Nedre Kjøye" />
		<tag k="place" v="isolated_dwelling" />
		<tag k="ssr:stedsnr" v="359741" />
	</node>
	<node id="-246117" lat="59.7473222209" lon="10.7302833301">
		<tag k="alt_name" v="Kjærnes nedre" />
		<tag k="name" v="Nedre Kjærnes" />
>>>>>>> e1d4bc35ff8a6074a6f2e91616a996b547c36f15
		<tag k="place" v="farm" />
		<tag k="ssr:stedsnr" v="549303" />
	</node>
<<<<<<< HEAD
	<node lat="59.636869445110605" lon="10.852222215503843" id="-14564">
		<tag k="alt_name" v="Kroer, s;Kroer søndre;Sør-Kroer" />
		<tag k="name" v="Søndre Kroer" />
		<tag k="place" v="farm" />
		<tag k="ssr:stedsnr" v="549307" />
	</node>
	<node lat="59.74209444022689" lon="10.782602772185337" id="-14566">
		<tag k="name" v="Vinterbro" />
		<tag k="place" v="hamlet" />
		<tag k="ssr:stedsnr" v="690018" />
	</node>
	<node lat="59.74065555253261" lon="10.806199997716567" id="-14568">
		<tag k="name" v="Øverstuene" />
		<tag k="place" v="farm" />
		<tag k="ssr:stedsnr" v="690023" />
	</node>
	<node lat="59.659380558911145" lon="10.73102221734466" id="-14569">
		<tag k="alt_name" v="Treider vestre" />
		<tag k="name" v="Vestre Treider" />
=======
	<node id="-246115" lat="59.6642416681" lon="10.8089250081">
		<tag k="name" v="Dysterlia" />
		<tag k="place" v="quarter" />
		<tag k="ssr:stedsnr" v="326672" />
	</node>
	<node id="-246114" lat="59.6627222214" lon="10.8174000036">
		<tag k="name" v="Kjetilsrud" />
		<tag k="place" v="quarter" />
		<tag k="ssr:stedsnr" v="326671" />
	</node>
	<node id="-246113" lat="59.6720500014" lon="10.7987083282">
		<tag k="name" v="Grønnslett" />
		<tag k="place" v="quarter" />
		<tag k="ssr:stedsnr" v="326669" />
	</node>
	<node id="-246112" lat="59.6628916622" lon="10.8266750014">
		<tag k="name" v="Monsrud" />
>>>>>>> e1d4bc35ff8a6074a6f2e91616a996b547c36f15
		<tag k="place" v="farm" />
		<tag k="ssr:stedsnr" v="690324" />
	</node>
<<<<<<< HEAD
	<node lat="59.6945472237541" lon="10.766652771952245" id="-14570">
		<tag k="name" v="Sundbyteigen" />
		<tag k="place" v="farm" />
		<tag k="ssr:stedsnr" v="690448" />
	</node>
	<node lat="59.71845555114959" lon="10.774705555073913" id="-14571">
		<tag k="alt_name" v="Nordby vestre" />
		<tag k="name" v="Vestre Nordby" />
		<tag k="place" v="farm" />
		<tag k="ssr:stedsnr" v="690421" />
	</node>
	<node lat="59.71879166750193" lon="10.793097216346453" id="-14572">
=======
	<node id="-246111" lat="59.6729972245" lon="10.8152638934">
		<tag k="name" v="Kampenhaug" />
		<tag k="place" v="isolated_dwelling" />
		<tag k="ssr:stedsnr" v="326665" />
	</node>
	<node id="-246110" lat="59.6618722246" lon="10.8044527739">
		<tag k="amenity" v="nursing_home" />
		<tag k="name" v="Follo helseheim" />
		<tag k="ssr:stedsnr" v="326659" />
	</node>
	<node id="-246109" lat="59.7250666625" lon="10.7624833336">
>>>>>>> e1d4bc35ff8a6074a6f2e91616a996b547c36f15
		<tag k="amenity" v="school" />
		<tag k="name" v="Solberg skole" />
		<tag k="ssr:stedsnr" v="690425" />
	</node>
<<<<<<< HEAD
	<node lat="59.6635138879626" lon="10.78860277678116" id="-14573">
		<tag k="name" v="Åsgård" />
		<tag k="place" v="farm" />
		<tag k="ssr:stedsnr" v="690674" />
	</node>
	<node lat="59.62721671285211" lon="10.81937990511325" id="-14574">
		<tag k="fixme" v="consider place=hamlet" />
		<tag k="name" v="Vestbråta" />
=======
	<node id="-246106" lat="59.6994333347" lon="10.7831916579">
		<tag k="alt_name" v="Sneis østre" />
		<tag k="name" v="Østre Sneis" />
		<tag k="place" v="farm" />
		<tag k="ssr:stedsnr" v="326465" />
	</node>
	<node id="-246105" lat="59.6584555511" lon="10.7727444512">
		<tag k="name" v="Landås" />
		<tag k="place" v="isolated_dwelling" />
		<tag k="ssr:stedsnr" v="326287" />
	</node>
	<node id="-246104" lat="59.6428972244" lon="10.7236805582">
		<tag k="alt_name" v="Iversrud søndre" />
		<tag k="name" v="Søndre Iversrud" />
>>>>>>> e1d4bc35ff8a6074a6f2e91616a996b547c36f15
		<tag k="place" v="farm" />
		<tag k="ssr:stedsnr" v="690744" />
	</node>
<<<<<<< HEAD
	<node lat="59.65337499880643" lon="10.706133331380173" id="-14577">
		<tag k="alt_name" v="Vennersgård østre;Østre Vennersgård" />
		<tag k="name" v="Østre Venneskål" />
=======
	<node id="-246103" lat="59.6856611156" lon="10.847600001">
		<tag k="alt_name" v="Hauger vestre" />
		<tag k="name" v="Vestre Hauger" />
>>>>>>> e1d4bc35ff8a6074a6f2e91616a996b547c36f15
		<tag k="place" v="farm" />
		<tag k="ssr:stedsnr" v="690874" />
	</node>
<<<<<<< HEAD
	<node lat="59.739402776488525" lon="10.78861666723184" id="-14579">
		<tag k="name" v="Tremannsdelet" />
		<tag k="place" v="locality" />
		<tag k="ssr:stedsnr" v="568006" />
	</node>
	<node lat="59.72828889038002" lon="10.798444452102258" id="-14580">
		<tag k="name" v="Nystuen" />
		<tag k="place" v="isolated_dwelling" />
		<tag k="ssr:stedsnr" v="568016" />
	</node>
	<node lat="59.676527781764804" lon="10.745577781801387" id="-14584">
		<tag k="alt_name" v="Fosterud søndre" />
		<tag k="name" v="Søndre Fosterud" />
=======
	<node id="-246101" lat="59.7294361127" lon="10.7917333262">
		<tag k="name" v="Gårdmannsbråten" />
		<tag k="place" v="farm" />
		<tag k="ssr:stedsnr" v="306574" />
	</node>
	<node id="-246100" lat="59.7416888884" lon="10.7847083289">
		<tag k="name" v="Vinterdalen" />
>>>>>>> e1d4bc35ff8a6074a6f2e91616a996b547c36f15
		<tag k="place" v="farm" />
		<tag k="ssr:stedsnr" v="568658" />
	</node>
<<<<<<< HEAD
	<node lat="59.65147830868073" lon="10.692888883962443" id="-14586">
		<tag k="name" v="Solheim" />
=======
	<node id="-246099" lat="59.6518361136" lon="10.8451805557">
		<tag k="name" v="Krosser" />
>>>>>>> e1d4bc35ff8a6074a6f2e91616a996b547c36f15
		<tag k="place" v="isolated_dwelling" />
		<tag k="ssr:stedsnr" v="568809" />
	</node>
<<<<<<< HEAD
	<node lat="59.663422221731324" lon="10.733877781705322" id="-14588">
		<tag k="name" v="Haugsten" />
		<tag k="place" v="quarter" />
		<tag k="ssr:stedsnr" v="609442" />
	</node>
	<node lat="59.70989453369942" lon="10.752045641734366" id="-14590">
		<tag k="fixme" v="consider place=hamlet" />
		<tag k="name" v="Grøterud" />
=======
	<node id="-246098" lat="59.6407500036" lon="10.769830548">
		<tag k="name" v="Fjellsenga" />
>>>>>>> e1d4bc35ff8a6074a6f2e91616a996b547c36f15
		<tag k="place" v="farm" />
		<tag k="ssr:stedsnr" v="609540" />
	</node>
<<<<<<< HEAD
	<node lat="59.68565534721446" lon="10.818290713799952" id="-14591">
		<tag k="fixme" v="consider place=hamlet" />
		<tag k="name" v="Askjum" />
=======
	<node id="-246097" lat="59.6326361123" lon="10.7586388849">
		<tag k="name" v="Torsnes" />
>>>>>>> e1d4bc35ff8a6074a6f2e91616a996b547c36f15
		<tag k="place" v="farm" />
		<tag k="ssr:stedsnr" v="610490" />
	</node>
<<<<<<< HEAD
	<node lat="59.65685806205361" lon="10.680443645990394" id="-14592">
		<tag k="name" v="Klommestein" />
		<tag k="place" v="hamlet" />
		<tag k="ssr:stedsnr" v="610833" />
	</node>
	<node lat="59.65000555792477" lon="10.761258337328572" id="-14593">
		<tag k="alt_name" v="Børsum søndre" />
		<tag k="name" v="Søndre Børsum" />
=======
	<node id="-246096" lat="59.6431777746" lon="10.7569361123">
		<tag k="alt_name" v="Fjærdinghagen" />
		<tag k="name" v="Fjerdinghagen" />
>>>>>>> e1d4bc35ff8a6074a6f2e91616a996b547c36f15
		<tag k="place" v="farm" />
		<tag k="ssr:stedsnr" v="629300" />
	</node>
<<<<<<< HEAD
	<node lat="59.68658611514038" lon="10.811327769179295" id="-14595">
		<tag k="amenity" v="school" />
		<tag k="name" v="Holstad skole" />
		<tag k="ssr:stedsnr" v="629442" />
	</node>
	<node lat="59.69061666445545" lon="10.816708341334198" id="-14596">
		<tag k="building" v="commercial" />
		<tag k="name" v="Felleskjøpet" />
		<tag k="ssr:stedsnr" v="629443" />
	</node>
	<node lat="59.681986108733426" lon="10.800024994520204" id="-14597">
		<tag k="name" v="Lefsrud" />
=======
	<node id="-246095" lat="59.6212138879" lon="10.8548500055">
		<tag k="name" v="Gulli" />
>>>>>>> e1d4bc35ff8a6074a6f2e91616a996b547c36f15
		<tag k="place" v="farm" />
		<tag k="ssr:stedsnr" v="629450" />
	</node>
<<<<<<< HEAD
	<node lat="59.66098889256573" lon="10.77015832888742" id="-14598">
		<tag k="name" v="Pentagon" />
		<tag k="place" v="quarter" />
		<tag k="ssr:stedsnr" v="629698" />
	</node>
	<node lat="59.628620397358105" lon="10.87348994545667" id="-14602">
		<tag k="fixme" v="consider place=hamlet" />
		<tag k="name" v="Stensrud" />
		<tag k="place" v="farm" />
		<tag k="ssr:stedsnr" v="670321" />
	</node>
	<node lat="59.641675000496754" lon="10.775688894531058" id="-14603">
		<tag k="alt_name" v="Rød søndre" />
		<tag k="name" v="Søndre Rød" />
=======
	<node id="-246093" lat="59.7225805555" lon="10.7285833408">
		<tag k="name" v="Paris" />
		<tag k="place" v="locality" />
		<tag k="ssr:stedsnr" v="205409" />
	</node>
	<node id="-246090" lat="59.7562250029" lon="10.7432638892">
		<tag k="name" v="Stormannsbråten" />
		<tag k="place" v="locality" />
		<tag k="ssr:stedsnr" v="204806" />
	</node>
	<node id="-246088" lat="59.6601666684" lon="10.7328750033">
		<tag k="alt_name" v="Treider vestre" />
		<tag k="name" v="Vestre Treider" />
>>>>>>> e1d4bc35ff8a6074a6f2e91616a996b547c36f15
		<tag k="place" v="farm" />
		<tag k="ssr:stedsnr" v="671029" />
	</node>
<<<<<<< HEAD
	<node lat="59.64911389055448" lon="10.81423332828215" id="-14604">
		<tag k="alt_name" v="Eldor;Eldor nordre" />
		<tag k="name" v="Nordre Eldor" />
=======
	<node id="-246085" lat="59.6899611076" lon="10.8434111114">
		<tag k="alt_name" v="Hauger østre" />
		<tag k="name" v="Østre Hauger" />
>>>>>>> e1d4bc35ff8a6074a6f2e91616a996b547c36f15
		<tag k="place" v="farm" />
		<tag k="ssr:stedsnr" v="671032" />
	</node>
<<<<<<< HEAD
	<node lat="59.66227737254065" lon="10.701305937777478" id="-14605">
		<tag k="fixme" v="consider place=hamlet" />
		<tag k="name" v="Børsumrud" />
=======
	<node id="-246083" lat="59.7437249998" lon="10.8075444382">
		<tag k="name" v="Nordstuene" />
>>>>>>> e1d4bc35ff8a6074a6f2e91616a996b547c36f15
		<tag k="place" v="farm" />
		<tag k="ssr:stedsnr" v="671874" />
	</node>
<<<<<<< HEAD
	<node lat="59.69781388629864" lon="10.830522217343068" id="-14607">
		<tag k="alt_name" v="Kjølstad nordre" />
		<tag k="name" v="Nordre Kjølstad" />
=======
	<node id="-246082" lat="59.6796249971" lon="10.7690583396">
		<tag k="name" v="Norderås" />
>>>>>>> e1d4bc35ff8a6074a6f2e91616a996b547c36f15
		<tag k="place" v="farm" />
		<tag k="ssr:stedsnr" v="690478" />
	</node>
<<<<<<< HEAD
	<node lat="59.67180833743132" lon="10.728694438761327" id="-14609">
		<tag k="alt_name" v="Tokerud nordre" />
		<tag k="name" v="Nordre Tokerud" />
=======
	<node id="-246081" lat="59.681338885" lon="10.7436055641">
		<tag k="name" v="Fosterud" />
>>>>>>> e1d4bc35ff8a6074a6f2e91616a996b547c36f15
		<tag k="place" v="farm" />
		<tag k="ssr:stedsnr" v="690723" />
	</node>
<<<<<<< HEAD
	<node lat="59.658147217846235" lon="10.678941667201983" id="-14612">
		<tag k="alt_name" v="Klommestein søndre" />
		<tag k="name" v="Søndre Klommestein" />
=======
	<node id="-246080" lat="59.681916663" lon="10.7272611166">
		<tag k="name" v="Nordstrand" />
>>>>>>> e1d4bc35ff8a6074a6f2e91616a996b547c36f15
		<tag k="place" v="farm" />
		<tag k="ssr:stedsnr" v="690886" />
	</node>
<<<<<<< HEAD
	<node lat="59.66625277544789" lon="10.80816389191931" id="-14613">
		<tag k="name" v="Søndre Rustad" />
		<tag k="place" v="quarter" />
		<tag k="ssr:stedsnr" v="691634" />
	</node>
	<node lat="59.65413898273684" lon="10.70522645369109" id="-14614">
		<tag k="alt_name" v="Vennersgård" />
		<tag k="fixme" v="consider place=hamlet" />
		<tag k="name" v="Venneskål" />
=======
	<node id="-246079" lat="59.6912722179" lon="10.801269439">
		<tag k="alt_name" v="Holstad, øvre;Holstad øvre" />
		<tag k="name" v="Øvre Holstad" />
>>>>>>> e1d4bc35ff8a6074a6f2e91616a996b547c36f15
		<tag k="place" v="farm" />
		<tag k="ssr:stedsnr" v="725137" />
	</node>
<<<<<<< HEAD
	<node lat="59.66066997673363" lon="10.732190372558891" id="-14615">
		<tag k="name" v="Treider" />
		<tag k="place" v="hamlet" />
		<tag k="ssr:stedsnr" v="731206" />
	</node>
	<node lat="59.651313892946725" lon="10.801924992935197" id="-14616">
		<tag k="name" v="Solli" />
=======
	<node id="-246078" lat="59.6944388866" lon="10.7814583415">
		<tag k="name" v="Grøstad" />
>>>>>>> e1d4bc35ff8a6074a6f2e91616a996b547c36f15
		<tag k="place" v="farm" />
		<tag k="ssr:stedsnr" v="731209" />
	</node>
<<<<<<< HEAD
	<node lat="59.6437708612951" lon="10.723485748179739" id="-14617">
=======
	<node id="-246077" lat="59.6440490906" lon="10.7142118747">
>>>>>>> e1d4bc35ff8a6074a6f2e91616a996b547c36f15
		<tag k="fixme" v="consider place=hamlet" />
		<tag k="name" v="Iversrud" />
		<tag k="place" v="farm" />
		<tag k="ssr:stedsnr" v="731219" />
	</node>
<<<<<<< HEAD
	<node lat="59.7375055550452" lon="10.729186106704887" id="-14618">
		<tag k="name" v="Breivoll" />
=======
	<node id="-246075" lat="59.7280666676" lon="10.7588277772">
		<tag k="name" v="Bølstad" />
>>>>>>> e1d4bc35ff8a6074a6f2e91616a996b547c36f15
		<tag k="place" v="farm" />
		<tag k="ssr:stedsnr" v="731570" />
	</node>
<<<<<<< HEAD
	<node lat="59.708152774805065" lon="10.799274994768593" id="-14619">
		<tag k="alt_name" v="Salstein (nedl.)" />
		<tag k="name" v="Salstein" />
		<tag k="place" v="locality" />
		<tag k="ssr:stedsnr" v="732406" />
	</node>
	<node lat="59.72539444413377" lon="10.792244446773685" id="-14620">
		<tag k="name" v="Verken" />
=======
	<node id="-246074" lat="59.7441777781" lon="10.767455563">
		<tag k="name" v="Sjøskogen" />
		<tag k="place" v="quarter" />
		<tag k="ssr:stedsnr" v="185460" />
	</node>
	<node id="-246073" lat="59.6098472229" lon="10.8800749934">
		<tag k="fixme" v="consider place=hamlet" />
		<tag k="name" v="Ålerud" />
>>>>>>> e1d4bc35ff8a6074a6f2e91616a996b547c36f15
		<tag k="place" v="farm" />
		<tag k="ssr:stedsnr" v="750012" />
	</node>
<<<<<<< HEAD
	<node lat="59.645619446988306" lon="10.8289888946938" id="-14621">
		<tag k="name" v="Berget" />
		<tag k="place" v="locality" />
		<tag k="ssr:stedsnr" v="750324" />
	</node>
	<node lat="59.723047224174756" lon="10.787077769023707" id="-14622">
		<tag k="name" v="Nordeng" />
=======
	<node id="-246072" lat="59.6404250019" lon="10.8555416627">
		<tag k="alt_name" v="Kroer, nordre;Nord-Kroer;Kroer nordre" />
		<tag k="name" v="Nordre Kroer" />
		<tag k="place" v="farm" />
		<tag k="ssr:stedsnr" v="185290" />
	</node>
	<node id="-246071" lat="59.6566666694" lon="10.773122222">
		<tag k="name" v="Tomter" />
>>>>>>> e1d4bc35ff8a6074a6f2e91616a996b547c36f15
		<tag k="place" v="farm" />
		<tag k="ssr:stedsnr" v="750364" />
	</node>
<<<<<<< HEAD
	<node lat="59.66515277999359" lon="10.725344445062614" id="-14623">
		<tag k="name" v="Haughagen" />
		<tag k="place" v="farm" />
		<tag k="ssr:stedsnr" v="750657" />
	</node>
	<node lat="59.661036106979985" lon="10.734249991795322" id="-14624">
		<tag k="alt_name" v="Treider østre" />
		<tag k="name" v="Østre Treider" />
=======
	<node id="-246070" lat="59.7629055515" lon="10.7287944485">
		<tag k="name" v="Sjøstrand" />
		<tag k="place" v="isolated_dwelling" />
		<tag k="ssr:stedsnr" v="146201" />
	</node>
	<node id="-246068" lat="59.6577944451" lon="10.7136888927">
		<tag k="alt_name" v="Holstad søndre" />
		<tag k="name" v="Søndre Holstad" />
>>>>>>> e1d4bc35ff8a6074a6f2e91616a996b547c36f15
		<tag k="place" v="farm" />
		<tag k="ssr:stedsnr" v="750659" />
	</node>
<<<<<<< HEAD
	<node lat="59.6813666636836" lon="10.737272225226716" id="-14625">
		<tag k="alt_name" v="Trosterud nordre" />
		<tag k="name" v="Nordre Trosterud" />
=======
	<node id="-246067" lat="59.6693111156" lon="10.7170111112">
		<tag k="alt_name" v="Hogsmark nordre" />
		<tag k="name" v="Nordre Hogsmark" />
>>>>>>> e1d4bc35ff8a6074a6f2e91616a996b547c36f15
		<tag k="place" v="farm" />
		<tag k="ssr:stedsnr" v="750662" />
	</node>
<<<<<<< HEAD
	<node lat="59.72278888547375" lon="10.729961111422686" id="-14630">
		<tag k="name" v="Paris" />
=======
	<node id="-246066" lat="59.7596166645" lon="10.7284416689">
		<tag k="name" v="Linneflauet" />
>>>>>>> e1d4bc35ff8a6074a6f2e91616a996b547c36f15
		<tag k="place" v="isolated_dwelling" />
		<tag k="ssr:stedsnr" v="908492" />
	</node>
<<<<<<< HEAD
	<node lat="59.721380552734935" lon="10.729050002063547" id="-14631">
		<tag k="name" v="Elva" />
		<tag k="place" v="isolated_dwelling" />
		<tag k="ssr:stedsnr" v="908495" />
	</node>
	<node lat="59.63971265115782" lon="10.744283763017634" id="-14632">
		<tag k="alt_name" v="Støkken, nordre;Støkken nordre" />
		<tag k="fixme" v="consider place=hamlet" />
		<tag k="name" v="Nordre Støkken" />
=======
	<node id="-246065" lat="59.7473361128" lon="10.7414638806">
		<tag k="name" v="Libråten" />
>>>>>>> e1d4bc35ff8a6074a6f2e91616a996b547c36f15
		<tag k="place" v="farm" />
		<tag k="ssr:stedsnr" v="791290" />
	</node>
<<<<<<< HEAD
	<node lat="59.641594444909714" lon="10.752283335949674" id="-14633">
		<tag k="name" v="Bjerkeskau" />
=======
	<node id="-246064" lat="59.6802277812" lon="10.7224611088">
		<tag k="name" v="Bakkelund" />
>>>>>>> e1d4bc35ff8a6074a6f2e91616a996b547c36f15
		<tag k="place" v="isolated_dwelling" />
		<tag k="ssr:stedsnr" v="791291" />
	</node>
<<<<<<< HEAD
	<node lat="59.740016669161285" lon="10.744799996709387" id="-14636">
		<tag k="alt_name" v="Fåle, m;Fåle mellom;Mellom Fåle;Søndre Fåle" />
		<tag k="name" v="Mellom-Fåle" />
=======
	<node id="-246063" lat="59.6604361095" lon="10.755697225">
		<tag k="alt_name" v="Voll østre" />
		<tag k="name" v="Østre Voll" />
>>>>>>> e1d4bc35ff8a6074a6f2e91616a996b547c36f15
		<tag k="place" v="farm" />
		<tag k="ssr:stedsnr" v="791491" />
	</node>
<<<<<<< HEAD
	<node lat="59.61647661553374" lon="10.864998008047758" id="-14637">
		<tag k="fixme" v="consider place=hamlet" />
		<tag k="name" v="Toverud" />
=======
	<node id="-246061" lat="59.6816638871" lon="10.7783333368">
		<tag k="name" v="Lund" />
>>>>>>> e1d4bc35ff8a6074a6f2e91616a996b547c36f15
		<tag k="place" v="farm" />
		<tag k="ssr:stedsnr" v="792336" />
	</node>
<<<<<<< HEAD
	<node lat="59.71588610963554" lon="10.775488896963441" id="-14639">
		<tag k="name" v="Ris" />
=======
	<node id="-246060" lat="59.6952988604" lon="10.828349713">
		<tag k="alt_name" v="Kjølstad østre" />
		<tag k="name" v="Østre Kjølstad" />
>>>>>>> e1d4bc35ff8a6074a6f2e91616a996b547c36f15
		<tag k="place" v="farm" />
		<tag k="ssr:stedsnr" v="792538" />
	</node>
<<<<<<< HEAD
	<node lat="59.7310305591313" lon="10.783405556283721" id="-14640">
		<tag k="name" v="Kveldro" />
		<tag k="place" v="isolated_dwelling" />
		<tag k="ssr:stedsnr" v="792602" />
	</node>
	<node lat="59.610124462093744" lon="10.886316003996868" id="-14641">
		<tag k="fixme" v="consider place=hamlet" />
		<tag k="name" v="Bakk" />
=======
	<node id="-246058" lat="59.649297218" lon="10.7970416722">
		<tag k="name" v="Lier" />
		<tag k="place" v="hamlet" />
		<tag k="ssr:stedsnr" v="143273" />
	</node>
	<node id="-246057" lat="59.6105138868" lon="10.8887138903">
		<tag k="name" v="Bakkenga" />
>>>>>>> e1d4bc35ff8a6074a6f2e91616a996b547c36f15
		<tag k="place" v="farm" />
		<tag k="ssr:stedsnr" v="913360" />
	</node>
<<<<<<< HEAD
	<node lat="59.709511112750434" lon="10.772433337606392" id="-14643">
		<tag k="name" v="Østenga" />
		<tag k="place" v="farm" />
		<tag k="ssr:stedsnr" v="913373" />
	</node>
	<node lat="59.72696223681523" lon="10.748989114966951" id="-14644">
		<tag k="fixme" v="consider place=hamlet" />
		<tag k="name" v="Askehaug" />
=======
	<node id="-246056" lat="59.6143416692" lon="10.8771861042">
		<tag k="name" v="Ålerudneset" />
		<tag k="place" v="farm" />
		<tag k="ssr:stedsnr" v="143045" />
	</node>
	<node id="-246055" lat="59.6057555523" lon="10.8644500073">
		<tag k="name" v="Piskenhus" />
		<tag k="place" v="locality" />
		<tag k="ssr:stedsnr" v="143034" />
	</node>
	<node id="-246054" lat="59.6472166699" lon="10.8319388898">
		<tag k="name" v="Høgda" />
>>>>>>> e1d4bc35ff8a6074a6f2e91616a996b547c36f15
		<tag k="place" v="farm" />
		<tag k="ssr:stedsnr" v="913580" />
	</node>
<<<<<<< HEAD
	<node lat="59.65425833694384" lon="10.794063897340394" id="-14645">
		<tag k="alt_name" v="Moer søndre" />
		<tag k="name" v="Søndre Moer" />
		<tag k="place" v="farm" />
		<tag k="ssr:stedsnr" v="914020" />
	</node>
	<node lat="59.68300545814159" lon="10.834875948894275" id="-14646">
=======
	<node id="-246053" lat="59.6406055582" lon="10.8348250036">
		<tag k="amenity" v="nursing_home" />
		<tag k="name" v="Granås sykehjem" />
		<tag k="ssr:stedsnr" v="143023" />
	</node>
	<node id="-246052" lat="59.6862461823" lon="10.8064430606">
>>>>>>> e1d4bc35ff8a6074a6f2e91616a996b547c36f15
		<tag k="fixme" v="consider place=hamlet" />
		<tag k="name" v="Hol" />
		<tag k="place" v="farm" />
		<tag k="ssr:stedsnr" v="914455" />
	</node>
<<<<<<< HEAD
	<node lat="59.6768972215249" lon="10.823033340475401" id="-14647">
		<tag k="alt_name" v="Skuterud, søndre;Skuterud søndre" />
		<tag k="name" v="Søndre Skuterud" />
=======
	<node id="-246051" lat="59.6977055565" lon="10.7729138829">
		<tag k="alt_name" v="Egge" />
		<tag k="name" v="Egget" />
>>>>>>> e1d4bc35ff8a6074a6f2e91616a996b547c36f15
		<tag k="place" v="farm" />
		<tag k="ssr:stedsnr" v="914458" />
	</node>
<<<<<<< HEAD
	<node lat="59.65817017191135" lon="10.712519543081923" id="-14648">
		<tag k="fixme" v="consider place=hamlet" />
		<tag k="name" v="Holstad" />
		<tag k="place" v="farm" />
		<tag k="ssr:stedsnr" v="914820" />
	</node>
	<node lat="59.75386388794932" lon="10.729963888913563" id="-14649">
		<tag k="alt_name" v="Øvre Køya;Kjøye" />
		<tag k="name" v="Kjøya" />
		<tag k="place" v="hamlet" />
		<tag k="ssr:stedsnr" v="915360" />
	</node>
	<node lat="59.75077500352118" lon="10.780361111744153" id="-14651">
		<tag k="name" v="Høyungen" />
=======
	<node id="-246049" lat="59.6715444469" lon="10.7545944374">
		<tag k="alt_name" v="Lopphullet" />
		<tag k="name" v="Loppholet" />
		<tag k="place" v="locality" />
		<tag k="ssr:stedsnr" v="124398" />
	</node>
	<node id="-246048" lat="59.6219111146" lon="10.8223388831">
		<tag k="name" v="Sørbråta" />
>>>>>>> e1d4bc35ff8a6074a6f2e91616a996b547c36f15
		<tag k="place" v="farm" />
		<tag k="ssr:stedsnr" v="915366" />
	</node>
<<<<<<< HEAD
	<node lat="59.63414444317417" lon="10.847977773628786" id="-14652">
		<tag k="name" v="Vollholen" />
		<tag k="place" v="hamlet" />
		<tag k="ssr:stedsnr" v="811003" />
	</node>
	<node lat="59.657563887292746" lon="10.780911111462592" id="-14657">
		<tag k="name" v="Landås" />
		<tag k="place" v="quarter" />
		<tag k="ssr:stedsnr" v="811284" />
	</node>
	<node lat="59.65421235093235" lon="10.743496623220175" id="-14658">
		<tag k="fixme" v="consider place=hamlet" />
		<tag k="name" v="Dalen" />
=======
	<node id="-246047" lat="59.6483388864" lon="10.8011749939">
		<tag k="name" v="Eldorhagen" />
>>>>>>> e1d4bc35ff8a6074a6f2e91616a996b547c36f15
		<tag k="place" v="farm" />
		<tag k="ssr:stedsnr" v="811294" />
	</node>
<<<<<<< HEAD
	<node lat="59.70171666334755" lon="10.828719440005061" id="-14659">
		<tag k="name" v="Kjølstadhøgda" />
		<tag k="place" v="quarter" />
		<tag k="ssr:stedsnr" v="811418" />
	</node>
	<node lat="59.74213888832264" lon="10.730805554592422" id="-14660">
		<tag k="name" v="Strandenga" />
=======
	<node id="-246046" lat="59.640830558" lon="10.8467055569">
		<tag k="name" v="Krosser" />
>>>>>>> e1d4bc35ff8a6074a6f2e91616a996b547c36f15
		<tag k="place" v="farm" />
		<tag k="ssr:stedsnr" v="811442" />
	</node>
<<<<<<< HEAD
	<node lat="59.64944444629047" lon="10.809294436283912" id="-14661">
		<tag k="name" v="Ødegården" />
		<tag k="place" v="farm" />
		<tag k="ssr:stedsnr" v="811308" />
	</node>
	<node lat="59.70004999620636" lon="10.743783334934339" id="-14662">
		<tag k="name" v="Sollia" />
		<tag k="place" v="farm" />
		<tag k="ssr:stedsnr" v="811398" />
	</node>
	<node lat="59.697247221143236" lon="10.760811116406945" id="-14663">
		<tag k="alt_name" v="Skau" />
		<tag k="name" v="Skaug" />
=======
	<node id="-246044" lat="59.7129333298" lon="10.7639249969">
		<tag k="alt_name" v="Risplass nordre" />
		<tag k="name" v="Nordre Risplass" />
		<tag k="place" v="locality" />
		<tag k="ssr:stedsnr" v="84344" />
	</node>
	<node id="-246043" lat="59.7143388918" lon="10.769138884">
		<tag k="name" v="Rislunden" />
		<tag k="place" v="isolated_dwelling" />
		<tag k="ssr:stedsnr" v="84338" />
	</node>
	<node id="-246040" lat="59.6696555573" lon="10.7290861134">
		<tag k="alt_name" v="Tokerud søndre" />
		<tag k="name" v="Søndre Tokerud" />
>>>>>>> e1d4bc35ff8a6074a6f2e91616a996b547c36f15
		<tag k="place" v="farm" />
		<tag k="ssr:stedsnr" v="811400" />
	</node>
<<<<<<< HEAD
	<node lat="59.75095278079898" lon="10.725288884191446" id="-14665">
		<tag k="name" v="Skrekken" />
		<tag k="place" v="isolated_dwelling" />
		<tag k="ssr:stedsnr" v="811805" />
	</node>
	<node lat="59.66796110967557" lon="10.689511119233115" id="-14666">
		<tag k="alt_name" v="Torp østre" />
		<tag k="name" v="Østre Torp" />
=======
	<node id="-246039" lat="59.6735555597" lon="10.7309111043">
		<tag k="name" v="Apaltun" />
		<tag k="place" v="isolated_dwelling" />
		<tag k="ssr:stedsnr" v="83687" />
	</node>
	<node id="-246035" lat="59.6327555524" lon="10.8482138914">
		<tag k="amenity" v="school" />
		<tag k="name" v="Kroer skole" />
		<tag k="ssr:stedsnr" v="83050" />
	</node>
	<node id="-246033" lat="59.6685805557" lon="10.6879055628">
		<tag k="name" v="Torp" />
>>>>>>> e1d4bc35ff8a6074a6f2e91616a996b547c36f15
		<tag k="place" v="farm" />
		<tag k="ssr:stedsnr" v="811819" />
	</node>
<<<<<<< HEAD
	<node lat="59.643966666360974" lon="10.713355559456515" id="-14667">
		<tag k="alt_name" v="Myrer søndre" />
		<tag k="name" v="Søndre Myrer" />
=======
	<node id="-246032" lat="59.6429494239" lon="10.7006751808">
		<tag k="name" v="Gultvedt" />
>>>>>>> e1d4bc35ff8a6074a6f2e91616a996b547c36f15
		<tag k="place" v="farm" />
		<tag k="ssr:stedsnr" v="811832" />
	</node>
<<<<<<< HEAD
	<node lat="59.75365555385604" lon="10.730219442433228" id="-14669">
		<tag k="name" v="Øvre Kjøye" />
		<tag k="place" v="isolated_dwelling" />
		<tag k="ssr:stedsnr" v="845777" />
	</node>
	<node lat="59.65494444565366" lon="10.72564722361725" id="-14670">
		<tag k="alt_name" v="Haug, søndre;Haug søndre" />
		<tag k="name" v="Søndre Haug" />
=======
	<node id="-246031" lat="59.6933083297" lon="10.8425416666">
		<tag k="name" v="Haga" />
		<tag k="place" v="farm" />
		<tag k="ssr:stedsnr" v="64399" />
	</node>
	<node id="-246030" lat="59.6877027764" lon="10.836624995">
		<tag k="alt_name" v="Østensjø, søndre;Østensjø søndre" />
		<tag k="name" v="Søndre Østensjø" />
>>>>>>> e1d4bc35ff8a6074a6f2e91616a996b547c36f15
		<tag k="place" v="farm" />
		<tag k="ssr:stedsnr" v="852261" />
	</node>
<<<<<<< HEAD
	<node lat="59.64453055206468" lon="10.774436108483409" id="-14671">
		<tag k="alt_name" v="Rød;Rød nordre" />
		<tag k="name" v="Nordre Rød" />
=======
	<node id="-246029" lat="59.6964427367" lon="10.8221970307">
		<tag k="alt_name" v="Kjølstad;Kjølstad vestre (nedl.)" />
		<tag k="name" v="Vestre Kjølstad" />
>>>>>>> e1d4bc35ff8a6074a6f2e91616a996b547c36f15
		<tag k="place" v="farm" />
		<tag k="ssr:stedsnr" v="852280" />
	</node>
	<node lat="59.6589048568419" lon="10.7261530538264" id="-14672">
		<tag k="name" v="Haug" />
		<tag k="place" v="hamlet" />
		<tag k="ssr:stedsnr" v="852461" />
	</node>
<<<<<<< HEAD
	<node lat="59.66121667027675" lon="10.685941660615217" id="-14673">
		<tag k="alt_name" v="Fjøser;Fjøser søndre" />
		<tag k="name" v="Søndre Fjøser" />
		<tag k="place" v="farm" />
		<tag k="ssr:stedsnr" v="853019" />
	</node>
	<node lat="59.6874472226374" lon="10.792677769447756" id="-14674">
		<tag k="alt_name" v="Slørstad;Slørstad nordre" />
		<tag k="name" v="Nordre Slørstad" />
=======
	<node id="-246027" lat="59.6760051774" lon="10.7786983606">
		<tag k="fixme" v="consider place=hamlet" />
		<tag k="name" v="Østby" />
		<tag k="place" v="farm" />
		<tag k="ssr:stedsnr" v="64449" />
	</node>
	<node id="-246026" lat="59.6709388882" lon="10.8125111117">
		<tag k="name" v="Nyborg" />
		<tag k="place" v="isolated_dwelling" />
		<tag k="ssr:stedsnr" v="64447" />
	</node>
	<node id="-246025" lat="59.6732583315" lon="10.8222583381">
		<tag k="name" v="Torderud" />
>>>>>>> e1d4bc35ff8a6074a6f2e91616a996b547c36f15
		<tag k="place" v="farm" />
		<tag k="ssr:stedsnr" v="853407" />
	</node>
<<<<<<< HEAD
	<node lat="59.69157502647003" lon="10.78003842577003" id="-14675">
		<tag k="fixme" v="consider place=hamlet" />
		<tag k="name" v="Bølstad" />
=======
	<node id="-246024" lat="59.7056394762" lon="10.7859745271">
		<tag k="name" v="Nordenga" />
>>>>>>> e1d4bc35ff8a6074a6f2e91616a996b547c36f15
		<tag k="place" v="farm" />
		<tag k="ssr:stedsnr" v="853408" />
	</node>
<<<<<<< HEAD
	<node lat="59.690325001217545" lon="10.83865278110503" id="-14677">
		<tag k="alt_name" v="Østensjø, nordre;Østensjø nordre" />
		<tag k="name" v="Nordre Østensjø" />
=======
	<node id="-246023" lat="59.6500527769" lon="10.7909666729">
		<tag k="alt_name" v="Brekka, nordre;Brekke nordre;Brekken nordre" />
		<tag k="name" v="Nordre Brekke" />
>>>>>>> e1d4bc35ff8a6074a6f2e91616a996b547c36f15
		<tag k="place" v="farm" />
		<tag k="ssr:stedsnr" v="853411" />
	</node>
<<<<<<< HEAD
	<node lat="59.68600575204466" lon="10.753253488393245" id="-14679">
		<tag k="fixme" v="consider place=hamlet" />
		<tag k="name" v="Berg" />
=======
	<node id="-246022" lat="59.6542500037" lon="10.8315249915">
		<tag k="name" v="Bjørnebekk" />
>>>>>>> e1d4bc35ff8a6074a6f2e91616a996b547c36f15
		<tag k="place" v="farm" />
		<tag k="ssr:stedsnr" v="854415" />
	</node>
<<<<<<< HEAD
	<node lat="59.739419445032425" lon="10.776861110329573" id="-14681">
		<tag k="name" v="Myrås" />
=======
	<node id="-246017" lat="59.6843888908" lon="10.8050527811">
		<tag k="name" v="Bjerklund" />
>>>>>>> e1d4bc35ff8a6074a6f2e91616a996b547c36f15
		<tag k="place" v="isolated_dwelling" />
		<tag k="ssr:stedsnr" v="872020" />
	</node>
<<<<<<< HEAD
	<node lat="59.65890555437157" lon="10.747169441396029" id="-14683">
		<tag k="name" v="Nygård" />
		<tag k="place" v="quarter" />
		<tag k="ssr:stedsnr" v="933299" />
	</node>
	<node lat="59.65662222536097" lon="10.744725001804705" id="-14684">
		<tag k="name" v="Beverdalen" />
		<tag k="place" v="quarter" />
		<tag k="ssr:stedsnr" v="933300" />
	</node>
	<node lat="59.63955555265924" lon="10.797911103695812" id="-14686">
		<tag k="alt_name" v="Hogstvet østre" />
		<tag k="name" v="Østre Hogstvet" />
=======
	<node id="-246016" lat="59.7051361144" lon="10.7667138855">
		<tag k="alt_name" v="Sundby østre" />
		<tag k="name" v="Østre Sundby" />
		<tag k="place" v="farm" />
		<tag k="ssr:stedsnr" v="23398" />
	</node>
	<node id="-246015" lat="59.6662757334" lon="10.7634714364">
		<tag k="leisure" v="park" />
		<tag k="name" v="Fougnerhaugen" />
		<tag k="ssr:stedsnr" v="22676" />
	</node>
	<node id="-246014" lat="59.6743388851" lon="10.7264111167">
		<tag k="name" v="Bekkevang" />
>>>>>>> e1d4bc35ff8a6074a6f2e91616a996b547c36f15
		<tag k="place" v="farm" />
		<tag k="ssr:stedsnr" v="933334" />
	</node>
<<<<<<< HEAD
	<node lat="59.65430920225009" lon="10.68641161230454" id="-14688">
		<tag k="name" v="Knapmyra" />
=======
	<node id="-246013" lat="59.677608337" lon="10.7310055525">
		<tag k="name" v="Hønserud" />
>>>>>>> e1d4bc35ff8a6074a6f2e91616a996b547c36f15
		<tag k="place" v="farm" />
		<tag k="ssr:stedsnr" v="933838" />
	</node>
<<<<<<< HEAD
	<node lat="59.66806944389319" lon="10.798861119047684" id="-14690">
		<tag k="leisure" v="pitch" />
		<tag k="name" v="Ås stadion" />
		<tag k="ssr:stedsnr" v="933271" />
	</node>
	<node lat="59.64127222331767" lon="10.790738893433817" id="-14691">
		<tag k="name" v="Sand" />
=======
	<node id="-246012" lat="59.6732972242" lon="10.7475722164">
		<tag k="name" v="Fagernes" />
		<tag k="place" v="isolated_dwelling" />
		<tag k="ssr:stedsnr" v="22669" />
	</node>
	<node id="-246011" lat="59.6811305526" lon="10.7507194412">
		<tag k="name" v="Kinnåsen" />
>>>>>>> e1d4bc35ff8a6074a6f2e91616a996b547c36f15
		<tag k="place" v="isolated_dwelling" />
		<tag k="ssr:stedsnr" v="933346" />
	</node>
<<<<<<< HEAD
	<node lat="59.66032777773945" lon="10.810569438679861" id="-14692">
		<tag k="name" v="Dysterbråten" />
		<tag k="place" v="locality" />
		<tag k="ssr:stedsnr" v="933677" />
	</node>
	<node lat="59.76459444406721" lon="10.788758331900286" id="-14695">
		<tag k="name" v="Flauenberg" />
		<tag k="place" v="locality" />
		<tag k="ssr:stedsnr" v="933943" />
	</node>
	<node lat="59.66864999684672" lon="10.715838881377685" id="-14696">
		<tag k="alt_name" v="Hogsmark søndre" />
		<tag k="name" v="Søndre Hogsmark" />
		<tag k="place" v="farm" />
		<tag k="ssr:stedsnr" v="933875" />
	</node>
	<node lat="59.65488888709986" lon="10.79397500877846" id="-14697">
		<tag k="alt_name" v="Moer;Moer nordre" />
		<tag k="name" v="Nordre Moer" />
		<tag k="place" v="farm" />
		<tag k="ssr:stedsnr" v="913244" />
	</node>
	<node lat="59.700816670054905" lon="10.756613882535769" id="-14698">
		<tag k="name" v="Ødemark" />
		<tag k="place" v="farm" />
		<tag k="ssr:stedsnr" v="914403" />
	</node>
	<node lat="59.690933954845164" lon="10.753597975929322" id="-14699">
		<tag k="alt_name" v="Syverud (nedl.)" />
		<tag k="fixme" v="consider place=hamlet" />
		<tag k="name" v="Syverrud" />
=======
	<node id="-246009" lat="59.7200861151" lon="10.7980750073">
		<tag k="alt_name" v="Solberg østre" />
		<tag k="name" v="Østre Solberg" />
		<tag k="place" v="farm" />
		<tag k="ssr:stedsnr" v="22367" />
	</node>
	<node id="-246008" lat="59.7200138854" lon="10.7864222211">
		<tag k="name" v="Nygård" />
		<tag k="place" v="farm" />
		<tag k="ssr:stedsnr" v="22363" />
	</node>
	<node id="-246007" lat="59.649341664" lon="10.8031499938">
		<tag k="name" v="Nylenna" />
		<tag k="place" v="farm" />
		<tag k="ssr:stedsnr" v="22298" />
	</node>
	<node id="-246006" lat="59.6512138895" lon="10.7527083387">
		<tag k="name" v="Lund" />
		<tag k="place" v="isolated_dwelling" />
		<tag k="ssr:stedsnr" v="22291" />
	</node>
	<node id="-246005" lat="59.6493944422" lon="10.7956861172">
		<tag k="name" v="Brekkeskog" />
		<tag k="place" v="quarter" />
		<tag k="ssr:stedsnr" v="22283" />
	</node>
	<node id="-246004" lat="59.6635694426" lon="10.778141658">
		<tag k="leisure" v="pitch" />
		<tag k="name" v="Storebrand stadion" />
		<tag k="ssr:stedsnr" v="22256" />
	</node>
	<node id="-246003" lat="59.7510888885" lon="10.7995999951">
		<tag k="name" v="Nøstvet" />
>>>>>>> e1d4bc35ff8a6074a6f2e91616a996b547c36f15
		<tag k="place" v="farm" />
		<tag k="ssr:stedsnr" v="914415" />
	</node>
<<<<<<< HEAD
	<node lat="59.6715025605533" lon="10.727429125419766" id="-14700">
		<tag k="fixme" v="consider place=hamlet" />
		<tag k="name" v="Tokerud" />
=======
	<node id="-246002" lat="59.6526055534" lon="10.6903499934">
		<tag k="name" v="Kantebakke" />
>>>>>>> e1d4bc35ff8a6074a6f2e91616a996b547c36f15
		<tag k="place" v="farm" />
		<tag k="ssr:stedsnr" v="914478" />
	</node>
<<<<<<< HEAD
	<node lat="59.63939166425223" lon="10.835249991039339" id="-14701">
		<tag k="name" v="Furumoen" />
=======
	<node id="-246001" lat="59.6815388876" lon="10.7365638803">
		<tag k="name" v="Trosterud" />
>>>>>>> e1d4bc35ff8a6074a6f2e91616a996b547c36f15
		<tag k="place" v="farm" />
		<tag k="ssr:stedsnr" v="933044" />
	</node>
<<<<<<< HEAD
	<node lat="59.725486110109706" lon="10.763833331229824" id="-14702">
		<tag k="alt_name" v="Nordbytun ungd. skole" />
		<tag k="amenity" v="school" />
		<tag k="name" v="Nordbytun ungdomsskole" />
		<tag k="ssr:stedsnr" v="933506" />
	</node>
	<node lat="59.7326805541444" lon="10.745719443123113" id="-14703">
		<tag k="name" v="Enerhaugen" />
=======
	<node id="-246000" lat="59.6919861085" lon="10.7634555472">
		<tag k="name" v="Sagstua" />
>>>>>>> e1d4bc35ff8a6074a6f2e91616a996b547c36f15
		<tag k="place" v="farm" />
		<tag k="ssr:stedsnr" v="933510" />
	</node>
<<<<<<< HEAD
	<node lat="59.745066666025544" lon="10.756830552253472" id="-14704">
		<tag k="name" v="Pollen" />
		<tag k="place" v="locality" />
		<tag k="ssr:stedsnr" v="933529" />
	</node>
	<node lat="59.695711112875365" lon="10.764969437134837" id="-14705">
		<tag k="name" v="Teigen" />
=======
	<node id="-245999" lat="59.7587305574" lon="10.7799194372">
		<tag k="building" v="commercial" />
		<tag k="name" v="Ringnes" />
		<tag k="ssr:stedsnr" v="4408" />
	</node>
	<node id="-245998" lat="59.691500004" lon="10.7865611103">
		<tag k="name" v="Pukstad" />
>>>>>>> e1d4bc35ff8a6074a6f2e91616a996b547c36f15
		<tag k="place" v="farm" />
		<tag k="ssr:stedsnr" v="933445" />
	</node>
<<<<<<< HEAD
	<node lat="59.613811110211245" lon="10.822786106187166" id="-14706">
		<tag k="name" v="Myrvoll" />
=======
	<node id="-245996" lat="59.7425027797" lon="10.7435055507">
		<tag k="alt_name" v="Fåle, nordre;Fåle nordre" />
		<tag k="name" v="Nordre Fåle" />
>>>>>>> e1d4bc35ff8a6074a6f2e91616a996b547c36f15
		<tag k="place" v="farm" />
		<tag k="ssr:stedsnr" v="933736" />
	</node>
<<<<<<< HEAD
	<node lat="59.676000001154314" lon="10.776772226923852" id="-14707">
		<tag k="alt_name" v="Østby vestre" />
		<tag k="name" v="Vestre Østby" />
=======
	<node id="-245995" lat="59.7040638864" lon="10.7921722188">
		<tag k="name" v="Bjerkeskau" />
>>>>>>> e1d4bc35ff8a6074a6f2e91616a996b547c36f15
		<tag k="place" v="farm" />
		<tag k="ssr:stedsnr" v="933688" />
	</node>
<<<<<<< HEAD
	<node lat="59.65623333465217" lon="10.682680550376713" id="-14709">
		<tag k="alt_name" v="Klommestein østre" />
		<tag k="name" v="Østre Klommestein" />
=======
	<node id="-245994" lat="59.7056999964" lon="10.7739944438">
		<tag k="name" v="Melby" />
>>>>>>> e1d4bc35ff8a6074a6f2e91616a996b547c36f15
		<tag k="place" v="farm" />
		<tag k="ssr:stedsnr" v="933886" />
	</node>
<<<<<<< HEAD
	<node lat="59.64666944104786" lon="10.712894450602542" id="-14710">
		<tag k="alt_name" v="Myrer vestre" />
		<tag k="name" v="Vestre Myrer" />
		<tag k="place" v="farm" />
		<tag k="ssr:stedsnr" v="933889" />
	</node>
	<node lat="59.62711742765105" lon="10.812438183514297" id="-14716">
=======
	<node id="-245993" lat="59.6271222222" lon="10.8124500042">
>>>>>>> e1d4bc35ff8a6074a6f2e91616a996b547c36f15
		<tag k="name" v="Granerud" />
		<tag k="place" v="farm" />
		<tag k="ssr:stedsnr" v="3293" />
	</node>
<<<<<<< HEAD
	<node lat="59.65274166394691" lon="10.72938056158315" id="-14717">
		<tag k="name" v="Spornes" />
=======
	<node id="-245992" lat="59.6500166686" lon="10.7733000056">
		<tag k="name" v="Herum" />
>>>>>>> e1d4bc35ff8a6074a6f2e91616a996b547c36f15
		<tag k="place" v="farm" />
		<tag k="ssr:stedsnr" v="3223" />
	</node>
<<<<<<< HEAD
	<node lat="59.64418916448217" lon="10.793447209879986" id="-14718">
=======
	<node id="-245991" lat="59.644283333" lon="10.7931055476">
>>>>>>> e1d4bc35ff8a6074a6f2e91616a996b547c36f15
		<tag k="alt_name" v="Brekka, s;Brekke søndre;Brekken søndre" />
		<tag k="fixme" v="consider place=hamlet" />
		<tag k="name" v="Søndre Brekke" />
		<tag k="place" v="farm" />
		<tag k="ssr:stedsnr" v="3245" />
	</node>
<<<<<<< HEAD
	<node lat="59.64989351624802" lon="10.773659467612099" id="-14719">
		<tag k="fixme" v="consider place=hamlet" />
		<tag k="name" v="Herum" />
		<tag k="place" v="farm" />
		<tag k="ssr:stedsnr" v="3249" />
	</node>
	<node lat="59.74250277968728" lon="10.743505550729555" id="-14720">
		<tag k="alt_name" v="Fåle, nordre;Fåle nordre" />
		<tag k="name" v="Nordre Fåle" />
		<tag k="place" v="farm" />
		<tag k="ssr:stedsnr" v="3453" />
	</node>
	<node lat="59.70756085946771" lon="10.771515394709768" id="-14721">
		<tag k="fixme" v="consider place=hamlet" />
		<tag k="name" v="Melby" />
=======
	<node id="-245990" lat="59.6527416639" lon="10.7293805616">
		<tag k="name" v="Spornes" />
		<tag k="place" v="farm" />
		<tag k="ssr:stedsnr" v="3223" />
	</node>
	<node id="-245987" lat="59.7645944441" lon="10.7887583319">
		<tag k="name" v="Flauenberg" />
		<tag k="place" v="locality" />
		<tag k="ssr:stedsnr" v="933943" />
	</node>
	<node id="-245985" lat="59.6543092023" lon="10.6864116123">
		<tag k="name" v="Knapmyra" />
		<tag k="place" v="farm" />
		<tag k="ssr:stedsnr" v="933838" />
	</node>
	<node id="-245983" lat="59.745066666" lon="10.7568305523">
		<tag k="name" v="Pollen" />
		<tag k="place" v="locality" />
		<tag k="ssr:stedsnr" v="933529" />
	</node>
	<node id="-245982" lat="59.7326805541" lon="10.7457194431">
		<tag k="name" v="Enerhaugen" />
>>>>>>> e1d4bc35ff8a6074a6f2e91616a996b547c36f15
		<tag k="place" v="farm" />
		<tag k="ssr:stedsnr" v="3339" />
	</node>
<<<<<<< HEAD
	<node lat="59.70406388637608" lon="10.7921722187893" id="-14722">
		<tag k="name" v="Bjerkeskau" />
		<tag k="place" v="farm" />
		<tag k="ssr:stedsnr" v="3345" />
	</node>
	<node lat="59.691779606878065" lon="10.78750185553638" id="-14724">
		<tag k="fixme" v="consider place=hamlet" />
		<tag k="name" v="Pukstad" />
=======
	<node id="-245981" lat="59.7254861101" lon="10.7638333312">
		<tag k="alt_name" v="Nordbytun ungd. skole" />
		<tag k="amenity" v="school" />
		<tag k="name" v="Nordbytun ungdomsskole" />
		<tag k="ssr:stedsnr" v="933506" />
	</node>
	<node id="-245980" lat="59.6957111129" lon="10.7649694371">
		<tag k="name" v="Teigen" />
>>>>>>> e1d4bc35ff8a6074a6f2e91616a996b547c36f15
		<tag k="place" v="farm" />
		<tag k="ssr:stedsnr" v="4398" />
	</node>
<<<<<<< HEAD
	<node lat="59.65260555344336" lon="10.690349993355099" id="-14725">
		<tag k="name" v="Kantebakke" />
=======
	<node id="-245979" lat="59.6393916643" lon="10.835249991">
		<tag k="name" v="Furumoen" />
>>>>>>> e1d4bc35ff8a6074a6f2e91616a996b547c36f15
		<tag k="place" v="farm" />
		<tag k="ssr:stedsnr" v="4845" />
	</node>
<<<<<<< HEAD
	<node lat="59.72590000035104" lon="10.796869447012188" id="-14728">
		<tag k="alt_name" v="Solberg nordre" />
		<tag k="name" v="Nordre Solberg" />
=======
	<node id="-245978" lat="59.7507750035" lon="10.7803611117">
		<tag k="name" v="Høyungen" />
>>>>>>> e1d4bc35ff8a6074a6f2e91616a996b547c36f15
		<tag k="place" v="farm" />
		<tag k="ssr:stedsnr" v="22014" />
	</node>
<<<<<<< HEAD
	<node lat="59.6635694425736" lon="10.778141657980235" id="-14730">
		<tag k="leisure" v="pitch" />
		<tag k="name" v="Storebrand stadion" />
		<tag k="ssr:stedsnr" v="22256" />
	</node>
	<node lat="59.7198217069088" lon="10.786488544477862" id="-14731">
		<tag k="fixme" v="consider place=hamlet" />
		<tag k="name" v="Nygård" />
		<tag k="place" v="farm" />
		<tag k="ssr:stedsnr" v="22363" />
	</node>
	<node lat="59.720086115111634" lon="10.798075007334727" id="-14732">
		<tag k="alt_name" v="Solberg østre" />
		<tag k="name" v="Østre Solberg" />
=======
	<node id="-245976" lat="59.7538638879" lon="10.7299638889">
		<tag k="alt_name" v="Øvre Køya;Kjøye" />
		<tag k="name" v="Kjøya" />
		<tag k="place" v="hamlet" />
		<tag k="ssr:stedsnr" v="915360" />
	</node>
	<node id="-245974" lat="59.660005646" lon="10.7092493668">
		<tag k="name" v="Holstadkulen" />
		<tag k="place" v="isolated_dwelling" />
		<tag k="ssr:stedsnr" v="872873" />
	</node>
	<node id="-245972" lat="59.738833333" lon="10.7556166722">
		<tag k="alt_name" v="Toødegård (nedl.)" />
		<tag k="name" v="Toødegård" />
>>>>>>> e1d4bc35ff8a6074a6f2e91616a996b547c36f15
		<tag k="place" v="farm" />
		<tag k="ssr:stedsnr" v="22367" />
	</node>
<<<<<<< HEAD
	<node lat="59.681130552594766" lon="10.750719441178731" id="-14734">
		<tag k="name" v="Kinnåsen" />
		<tag k="place" v="isolated_dwelling" />
		<tag k="ssr:stedsnr" v="22664" />
	</node>
	<node lat="59.673297224175315" lon="10.74757221641762" id="-14735">
		<tag k="name" v="Fagernes" />
		<tag k="place" v="isolated_dwelling" />
		<tag k="ssr:stedsnr" v="22669" />
	</node>
	<node lat="59.67760833699082" lon="10.731005552475851" id="-14736">
		<tag k="name" v="Hønserud" />
=======
	<node id="-245971" lat="59.7314138912" lon="10.7385444496">
		<tag k="name" v="Markusløkka" />
		<tag k="place" v="isolated_dwelling" />
		<tag k="ssr:stedsnr" v="872505" />
	</node>
	<node id="-245970" lat="59.6625027794" lon="10.7977666695">
		<tag k="amenity" v="sports_centre" />
		<tag k="name" v="Åshallen" />
		<tag k="ssr:stedsnr" v="872657" />
	</node>
	<node id="-245969" lat="59.6864027749" lon="10.8076000073">
		<tag k="alt_name" v="Haugerud østre" />
		<tag k="name" v="Østre Haugerud" />
		<tag k="place" v="farm" />
		<tag k="ssr:stedsnr" v="872468" />
	</node>
	<node id="-245967" lat="59.6851555511" lon="10.7621194473">
		<tag k="name" v="Bjerklund" />
>>>>>>> e1d4bc35ff8a6074a6f2e91616a996b547c36f15
		<tag k="place" v="farm" />
		<tag k="ssr:stedsnr" v="22670" />
	</node>
<<<<<<< HEAD
	<node lat="59.67433888511761" lon="10.726411116663883" id="-14737">
		<tag k="name" v="Bekkevang" />
=======
	<node id="-245966" lat="59.7232444475" lon="10.7976333327">
		<tag k="alt_name" v="Solberg nordre" />
		<tag k="name" v="Nordre Solberg" />
>>>>>>> e1d4bc35ff8a6074a6f2e91616a996b547c36f15
		<tag k="place" v="farm" />
		<tag k="ssr:stedsnr" v="22674" />
	</node>
<<<<<<< HEAD
	<node lat="59.66627573341382" lon="10.763471436383519" id="-14738">
		<tag k="leisure" v="park" />
		<tag k="name" v="Fougnerhaugen" />
		<tag k="ssr:stedsnr" v="22676" />
	</node>
	<node lat="59.65301944203913" lon="10.704430560714457" id="-14739">
		<tag k="alt_name" v="Vennersgård vestre;Vestre Vennersgård" />
		<tag k="name" v="Vestre Venneskål" />
=======
	<node id="-245964" lat="59.6859527809" lon="10.7526749955">
		<tag k="name" v="Berg" />
		<tag k="place" v="farm" />
		<tag k="ssr:stedsnr" v="854415" />
	</node>
	<node id="-245963" lat="59.6903250012" lon="10.8386527811">
		<tag k="alt_name" v="Østensjø, nordre;Østensjø nordre" />
		<tag k="name" v="Nordre Østensjø" />
>>>>>>> e1d4bc35ff8a6074a6f2e91616a996b547c36f15
		<tag k="place" v="farm" />
		<tag k="ssr:stedsnr" v="22844" />
	</node>
<<<<<<< HEAD
	<node lat="59.644591667399936" lon="10.716458333528912" id="-14740">
		<tag k="alt_name" v="Myrer østre" />
		<tag k="name" v="Østre Myrer" />
=======
	<node id="-245961" lat="59.6910972243" lon="10.7790472253">
		<tag k="name" v="Bølstad" />
>>>>>>> e1d4bc35ff8a6074a6f2e91616a996b547c36f15
		<tag k="place" v="farm" />
		<tag k="ssr:stedsnr" v="22849" />
	</node>
<<<<<<< HEAD
	<node lat="59.64784999650864" lon="10.686797224915825" id="-14741">
		<tag k="alt_name" v="Kinn søndre" />
		<tag k="name" v="Søndre Kinn" />
=======
	<node id="-245960" lat="59.6874472226" lon="10.7926777694">
		<tag k="alt_name" v="Slørstad;Slørstad nordre" />
		<tag k="name" v="Nordre Slørstad" />
>>>>>>> e1d4bc35ff8a6074a6f2e91616a996b547c36f15
		<tag k="place" v="farm" />
		<tag k="ssr:stedsnr" v="22853" />
	</node>
<<<<<<< HEAD
	<node lat="59.76098333562592" lon="10.726772215640093" id="-14743">
		<tag k="name" v="Granum" />
		<tag k="place" v="isolated_dwelling" />
		<tag k="ssr:stedsnr" v="56760" />
	</node>
	<node lat="59.62635000071997" lon="10.824177781575077" id="-14746">
		<tag k="fixme" v="multiple name tags, choose one and add the other to alt_name" />
		<tag k="name" v="Østbråta;Bråte, nordre;Nordre Bråte" />
=======
	<node id="-245959" lat="59.6600499988" lon="10.7269166635">
		<tag k="name" v="Haug" />
		<tag k="place" v="farm" />
		<tag k="ssr:stedsnr" v="852461" />
	</node>
	<node id="-245958" lat="59.646669441" lon="10.7128944506">
		<tag k="alt_name" v="Myrer vestre" />
		<tag k="name" v="Vestre Myrer" />
>>>>>>> e1d4bc35ff8a6074a6f2e91616a996b547c36f15
		<tag k="place" v="farm" />
		<tag k="ssr:stedsnr" v="64326" />
	</node>
<<<<<<< HEAD
	<node lat="59.65004846874594" lon="10.791292606023386" id="-14747">
		<tag k="alt_name" v="Brekka, nordre;Brekke nordre;Brekken nordre" />
		<tag k="fixme" v="consider place=hamlet" />
		<tag k="name" v="Nordre Brekke" />
=======
	<node id="-245957" lat="59.6562333347" lon="10.6826805504">
		<tag k="alt_name" v="Klommestein østre" />
		<tag k="name" v="Østre Klommestein" />
>>>>>>> e1d4bc35ff8a6074a6f2e91616a996b547c36f15
		<tag k="place" v="farm" />
		<tag k="ssr:stedsnr" v="63298" />
	</node>
<<<<<<< HEAD
	<node lat="59.70563947623386" lon="10.78597452714495" id="-14748">
		<tag k="name" v="Nordenga" />
=======
	<node id="-245956" lat="59.6686499968" lon="10.7158388814">
		<tag k="alt_name" v="Hogsmark søndre" />
		<tag k="name" v="Søndre Hogsmark" />
>>>>>>> e1d4bc35ff8a6074a6f2e91616a996b547c36f15
		<tag k="place" v="farm" />
		<tag k="ssr:stedsnr" v="63400" />
	</node>
<<<<<<< HEAD
	<node lat="59.6964427367134" lon="10.822197030707361" id="-14750">
		<tag k="alt_name" v="Kjølstad;Kjølstad vestre (nedl.)" />
		<tag k="name" v="Vestre Kjølstad" />
		<tag k="place" v="farm" />
		<tag k="ssr:stedsnr" v="64394" />
	</node>
	<node lat="59.68770277642696" lon="10.836624995039275" id="-14751">
		<tag k="alt_name" v="Østensjø, søndre;Østensjø søndre" />
		<tag k="name" v="Søndre Østensjø" />
		<tag k="place" v="farm" />
		<tag k="ssr:stedsnr" v="64398" />
	</node>
	<node lat="59.693202093384485" lon="10.843399242039986" id="-14752">
		<tag k="fixme" v="consider place=hamlet" />
		<tag k="name" v="Haga" />
		<tag k="place" v="farm" />
		<tag k="ssr:stedsnr" v="64399" />
	</node>
	<node lat="59.67326113834476" lon="10.822262539299384" id="-14753">
		<tag k="fixme" v="consider place=hamlet" />
		<tag k="name" v="Torderud" />
		<tag k="place" v="farm" />
		<tag k="ssr:stedsnr" v="64446" />
	</node>
	<node lat="59.670938888237956" lon="10.81251111169315" id="-14754">
		<tag k="name" v="Nyborg" />
=======
	<node id="-245954" lat="59.6760000012" lon="10.7767722269">
		<tag k="alt_name" v="Østby vestre" />
		<tag k="name" v="Vestre Østby" />
		<tag k="place" v="farm" />
		<tag k="ssr:stedsnr" v="933688" />
	</node>
	<node id="-245953" lat="59.6603277777" lon="10.8105694387">
		<tag k="name" v="Dysterbråten" />
		<tag k="place" v="locality" />
		<tag k="ssr:stedsnr" v="933677" />
	</node>
	<node id="-245952" lat="59.6138111102" lon="10.8227861062">
		<tag k="name" v="Myrvoll" />
		<tag k="place" v="farm" />
		<tag k="ssr:stedsnr" v="933736" />
	</node>
	<node id="-245950" lat="59.6566222254" lon="10.7447250018">
		<tag k="name" v="Beverdalen" />
		<tag k="place" v="quarter" />
		<tag k="ssr:stedsnr" v="933300" />
	</node>
	<node id="-245949" lat="59.6589055544" lon="10.7471694414">
		<tag k="name" v="Nygård" />
		<tag k="place" v="quarter" />
		<tag k="ssr:stedsnr" v="933299" />
	</node>
	<node id="-245948" lat="59.6680694439" lon="10.798861119">
		<tag k="leisure" v="pitch" />
		<tag k="name" v="Ås stadion" />
		<tag k="ssr:stedsnr" v="933271" />
	</node>
	<node id="-245946" lat="59.6412722233" lon="10.7907388934">
		<tag k="name" v="Sand" />
>>>>>>> e1d4bc35ff8a6074a6f2e91616a996b547c36f15
		<tag k="place" v="isolated_dwelling" />
		<tag k="ssr:stedsnr" v="64447" />
	</node>
<<<<<<< HEAD
	<node lat="59.67600517737556" lon="10.778698360616932" id="-14755">
		<tag k="fixme" v="consider place=hamlet" />
		<tag k="name" v="Østby" />
		<tag k="place" v="farm" />
		<tag k="ssr:stedsnr" v="64449" />
	</node>
	<node lat="59.668250308291846" lon="10.688748764185544" id="-14756">
		<tag k="fixme" v="consider place=hamlet" />
		<tag k="name" v="Torp" />
=======
	<node id="-245945" lat="59.6395555527" lon="10.7979111037">
		<tag k="alt_name" v="Hogstvet østre" />
		<tag k="name" v="Østre Hogstvet" />
		<tag k="place" v="farm" />
		<tag k="ssr:stedsnr" v="933334" />
	</node>
	<node id="-245940" lat="59.6341444432" lon="10.8479777736">
		<tag k="name" v="Vollholen" />
		<tag k="place" v="hamlet" />
		<tag k="ssr:stedsnr" v="811003" />
	</node>
	<node id="-245939" lat="59.7158861096" lon="10.775488897">
		<tag k="name" v="Ris" />
>>>>>>> e1d4bc35ff8a6074a6f2e91616a996b547c36f15
		<tag k="place" v="farm" />
		<tag k="ssr:stedsnr" v="65891" />
	</node>
<<<<<<< HEAD
	<node lat="59.66698055289472" lon="10.78335833180395" id="-14757">
		<tag k="name" v="Kaia" />
		<tag k="place" v="locality" />
		<tag k="ssr:stedsnr" v="83265" />
	</node>
	<node lat="59.71293332976618" lon="10.763924996864757" id="-14761">
		<tag k="alt_name" v="Risplass nordre" />
		<tag k="name" v="Nordre Risplass" />
		<tag k="place" v="locality" />
		<tag k="ssr:stedsnr" v="84344" />
	</node>
	<node lat="59.62394295101077" lon="10.836975815477453" id="-14765">
		<tag k="fixme" v="consider place=hamlet" />
		<tag k="name" v="Sennebråte" />
=======
	<node id="-245937" lat="59.7045377409" lon="10.7655341679">
		<tag k="name" v="Sundby" />
		<tag k="place" v="farm" />
		<tag k="ssr:stedsnr" v="791363" />
	</node>
	<node id="-245936" lat="59.6575499985" lon="10.7137611187">
		<tag k="name" v="Holstad" />
		<tag k="place" v="farm" />
		<tag k="ssr:stedsnr" v="914820" />
	</node>
	<node id="-245935" lat="59.6715027747" lon="10.727433327">
		<tag k="name" v="Tokerud" />
>>>>>>> e1d4bc35ff8a6074a6f2e91616a996b547c36f15
		<tag k="place" v="farm" />
		<tag k="ssr:stedsnr" v="124273" />
	</node>
<<<<<<< HEAD
	<node lat="59.64088947836472" lon="10.847447794261283" id="-14766">
		<tag k="fixme" v="consider place=hamlet" />
		<tag k="name" v="Krosser" />
=======
	<node id="-245934" lat="59.6768972215" lon="10.8230333405">
		<tag k="alt_name" v="Skuterud, søndre;Skuterud søndre" />
		<tag k="name" v="Søndre Skuterud" />
>>>>>>> e1d4bc35ff8a6074a6f2e91616a996b547c36f15
		<tag k="place" v="farm" />
		<tag k="ssr:stedsnr" v="124229" />
	</node>
<<<<<<< HEAD
	<node lat="59.648338886448805" lon="10.80117499388638" id="-14767">
		<tag k="name" v="Eldorhagen" />
=======
	<node id="-245933" lat="59.6829500024" lon="10.8350083421">
		<tag k="name" v="Hol" />
>>>>>>> e1d4bc35ff8a6074a6f2e91616a996b547c36f15
		<tag k="place" v="farm" />
		<tag k="ssr:stedsnr" v="124230" />
	</node>
<<<<<<< HEAD
	<node lat="59.621911114559275" lon="10.822338883133359" id="-14768">
		<tag k="name" v="Sørbråta" />
=======
	<node id="-245932" lat="59.6909527754" lon="10.753486104">
		<tag k="alt_name" v="Syverud (nedl.)" />
		<tag k="name" v="Syverrud" />
>>>>>>> e1d4bc35ff8a6074a6f2e91616a996b547c36f15
		<tag k="place" v="farm" />
		<tag k="ssr:stedsnr" v="124300" />
	</node>
<<<<<<< HEAD
	<node lat="59.67175770152392" lon="10.753340819221588" id="-14769">
		<tag k="alt_name" v="Lopphullet" />
		<tag k="name" v="Loppholet" />
		<tag k="place" v="locality" />
		<tag k="ssr:stedsnr" v="124398" />
	</node>
	<node lat="59.614341669224046" lon="10.877186104158357" id="-14770">
		<tag k="name" v="Ålerudneset" />
=======
	<node id="-245931" lat="59.7008166701" lon="10.7566138825">
		<tag k="name" v="Ødemark" />
>>>>>>> e1d4bc35ff8a6074a6f2e91616a996b547c36f15
		<tag k="place" v="farm" />
		<tag k="ssr:stedsnr" v="143045" />
	</node>
<<<<<<< HEAD
	<node lat="59.610513886803744" lon="10.888713890334813" id="-14771">
		<tag k="name" v="Bakkenga" />
=======
	<node id="-245930" lat="59.6542583369" lon="10.7940638973">
		<tag k="alt_name" v="Moer;Moer søndre" />
		<tag k="name" v="Søndre Moer" />
>>>>>>> e1d4bc35ff8a6074a6f2e91616a996b547c36f15
		<tag k="place" v="farm" />
		<tag k="ssr:stedsnr" v="143073" />
	</node>
<<<<<<< HEAD
	<node lat="59.640605558168396" lon="10.834825003638938" id="-14772">
		<tag k="amenity" v="nursing_home" />
		<tag k="name" v="Granås sykehjem" />
		<tag k="ssr:stedsnr" v="143023" />
	</node>
	<node lat="59.647216669929634" lon="10.83193888982695" id="-14773">
		<tag k="name" v="Høgda" />
=======
	<node id="-245929" lat="59.7266999972" lon="10.7493499923">
		<tag k="name" v="Askehaug" />
>>>>>>> e1d4bc35ff8a6074a6f2e91616a996b547c36f15
		<tag k="place" v="farm" />
		<tag k="ssr:stedsnr" v="143025" />
	</node>
<<<<<<< HEAD
	<node lat="59.649297217965895" lon="10.797041672229774" id="-14775">
		<tag k="name" v="Lier" />
		<tag k="place" v="hamlet" />
		<tag k="ssr:stedsnr" v="143273" />
	</node>
	<node lat="59.695298860400925" lon="10.828349713023833" id="-14776">
		<tag k="alt_name" v="Kjølstad østre" />
		<tag k="name" v="Østre Kjølstad" />
=======
	<node id="-245928" lat="59.7095111128" lon="10.7724333376">
		<tag k="name" v="Østenga" />
>>>>>>> e1d4bc35ff8a6074a6f2e91616a996b547c36f15
		<tag k="place" v="farm" />
		<tag k="ssr:stedsnr" v="143426" />
	</node>
<<<<<<< HEAD
	<node lat="59.66931111555376" lon="10.717011111166237" id="-14777">
		<tag k="alt_name" v="Hogsmark nordre" />
		<tag k="name" v="Nordre Hogsmark" />
=======
	<node id="-245926" lat="59.6102472236" lon="10.8864499921">
		<tag k="name" v="Bakk" />
>>>>>>> e1d4bc35ff8a6074a6f2e91616a996b547c36f15
		<tag k="place" v="farm" />
		<tag k="ssr:stedsnr" v="143822" />
	</node>
<<<<<<< HEAD
	<node lat="59.66043610952479" lon="10.755697225002194" id="-14778">
		<tag k="alt_name" v="Voll østre" />
		<tag k="name" v="Østre Voll" />
=======
	<node id="-245925" lat="59.6548888871" lon="10.7939750088">
		<tag k="alt_name" v="Moer;Moer nordre" />
		<tag k="name" v="Nordre Moer" />
>>>>>>> e1d4bc35ff8a6074a6f2e91616a996b547c36f15
		<tag k="place" v="farm" />
		<tag k="ssr:stedsnr" v="143673" />
	</node>
<<<<<<< HEAD
	<node lat="59.68022778115877" lon="10.722461108783401" id="-14779">
		<tag k="name" v="Bakkelund" />
=======
	<node id="-245924" lat="59.7213805527" lon="10.7290500021">
		<tag k="name" v="Elva" />
>>>>>>> e1d4bc35ff8a6074a6f2e91616a996b547c36f15
		<tag k="place" v="isolated_dwelling" />
		<tag k="ssr:stedsnr" v="143677" />
	</node>
<<<<<<< HEAD
	<node lat="59.76290555145532" lon="10.728794448479256" id="-14780">
		<tag k="name" v="Sjøstrand" />
=======
	<node id="-245923" lat="59.7227888855" lon="10.7299611114">
		<tag k="name" v="Paris" />
>>>>>>> e1d4bc35ff8a6074a6f2e91616a996b547c36f15
		<tag k="place" v="isolated_dwelling" />
		<tag k="ssr:stedsnr" v="146201" />
	</node>
<<<<<<< HEAD
	<node lat="59.72785769371204" lon="10.759641531228835" id="-14781">
		<tag k="fixme" v="consider place=hamlet" />
		<tag k="name" v="Bølstad" />
		<tag k="place" v="farm" />
		<tag k="ssr:stedsnr" v="185524" />
	</node>
	<node lat="59.6404250019247" lon="10.855541662664274" id="-14782">
		<tag k="alt_name" v="Kroer, nordre;Nord-Kroer;Kroer nordre" />
		<tag k="name" v="Nordre Kroer" />
=======
	<node id="-245920" lat="59.6647166694" lon="10.7946361077">
		<tag k="name" v="Ås" />
		<tag k="place" v="village" />
		<tag k="ssr:stedsnr" v="731438" />
	</node>
	<node id="-245919" lat="59.7118999998" lon="10.7734638831">
		<tag k="name" v="Skyssjordet" />
>>>>>>> e1d4bc35ff8a6074a6f2e91616a996b547c36f15
		<tag k="place" v="farm" />
		<tag k="ssr:stedsnr" v="185290" />
	</node>
<<<<<<< HEAD
	<node lat="59.610162795804705" lon="10.88003661552393" id="-14783">
		<tag k="fixme" v="consider place=hamlet" />
		<tag k="name" v="Ålerud" />
=======
	<node id="-245918" lat="59.6136777812" lon="10.8248305642">
		<tag k="name" v="Svaheim" />
>>>>>>> e1d4bc35ff8a6074a6f2e91616a996b547c36f15
		<tag k="place" v="farm" />
		<tag k="ssr:stedsnr" v="185356" />
	</node>
<<<<<<< HEAD
	<node lat="59.74417777812815" lon="10.767455562955702" id="-14784">
		<tag k="name" v="Sjøskogen" />
		<tag k="place" v="quarter" />
		<tag k="ssr:stedsnr" v="185460" />
	</node>
	<node lat="59.64462512863741" lon="10.714101593032145" id="-14785">
		<tag k="fixme" v="consider place=hamlet" />
		<tag k="name" v="Myrer" />
=======
	<node id="-245915" lat="59.628405557" lon="10.8735111024">
		<tag k="name" v="Stensrud" />
>>>>>>> e1d4bc35ff8a6074a6f2e91616a996b547c36f15
		<tag k="place" v="farm" />
		<tag k="ssr:stedsnr" v="185825" />
	</node>
<<<<<<< HEAD
	<node lat="59.69440180209864" lon="10.78152176119722" id="-14786">
		<tag k="fixme" v="consider place=hamlet" />
		<tag k="name" v="Grøstad" />
		<tag k="place" v="farm" />
		<tag k="ssr:stedsnr" v="186439" />
	</node>
	<node lat="59.6912722179352" lon="10.801269439018538" id="-14787">
		<tag k="alt_name" v="Holstad, øvre;Holstad øvre" />
		<tag k="name" v="Øvre Holstad" />
		<tag k="place" v="farm" />
		<tag k="ssr:stedsnr" v="186451" />
	</node>
	<node lat="59.68191666295032" lon="10.72726111656072" id="-14788">
		<tag k="name" v="Nordstrand" />
=======
	<node id="-245913" lat="59.7551805534" lon="10.7509416583">
		<tag k="alt_name" v="Labråtan" />
		<tag k="name" v="Labråten" />
		<tag k="place" v="isolated_dwelling" />
		<tag k="ssr:stedsnr" v="733361" />
	</node>
	<node id="-245911" lat="59.7569305586" lon="10.7362527719">
		<tag k="name" v="Brenningsmyra" />
		<tag k="place" v="isolated_dwelling" />
		<tag k="ssr:stedsnr" v="733358" />
	</node>
	<node id="-245910" lat="59.660916667" lon="10.6888166587">
		<tag k="alt_name" v="Ekeberg" />
		<tag k="name" v="Eikeberg" />
>>>>>>> e1d4bc35ff8a6074a6f2e91616a996b547c36f15
		<tag k="place" v="farm" />
		<tag k="ssr:stedsnr" v="186473" />
	</node>
<<<<<<< HEAD
	<node lat="59.74372499980724" lon="10.807544438224337" id="-14789">
		<tag k="name" v="Nordstuene" />
=======
	<node id="-245909" lat="59.6803527776" lon="10.7828999919">
		<tag k="name" v="Østli" />
>>>>>>> e1d4bc35ff8a6074a6f2e91616a996b547c36f15
		<tag k="place" v="farm" />
		<tag k="ssr:stedsnr" v="204013" />
	</node>
<<<<<<< HEAD
	<node lat="59.68996110757515" lon="10.843411111396088" id="-14792">
		<tag k="alt_name" v="Hauger østre" />
		<tag k="name" v="Østre Hauger" />
=======
	<node id="-245908" lat="59.6794944437" lon="10.8255916647">
		<tag k="alt_name" v="Skuterud, nordre" />
		<tag k="name" v="Nordre Skuterud" />
>>>>>>> e1d4bc35ff8a6074a6f2e91616a996b547c36f15
		<tag k="place" v="farm" />
		<tag k="ssr:stedsnr" v="204073" />
	</node>
<<<<<<< HEAD
	<node lat="59.64387222483769" lon="10.779069440975185" id="-14793">
		<tag k="name" v="Lillerød" />
=======
	<node id="-245907" lat="59.6874666644" lon="10.7594944422">
		<tag k="alt_name" v="Dylterud;Dylterud vestre" />
		<tag k="name" v="Vestre Dylterud" />
>>>>>>> e1d4bc35ff8a6074a6f2e91616a996b547c36f15
		<tag k="place" v="farm" />
		<tag k="ssr:stedsnr" v="204283" />
	</node>
<<<<<<< HEAD
	<node lat="59.6601666683551" lon="10.732875003261443" id="-14794">
		<tag k="alt_name" v="Treider vestre" />
		<tag k="name" v="Vestre Treider" />
		<tag k="place" v="farm" />
		<tag k="ssr:stedsnr" v="204654" />
	</node>
	<node lat="59.64317777456146" lon="10.756936112270042" id="-14799">
		<tag k="alt_name" v="Fjærdinghagen" />
		<tag k="name" v="Fjerdinghagen" />
=======
	<node id="-245906" lat="59.7081527748" lon="10.7992749948">
		<tag k="alt_name" v="Salstein (nedl.)" />
		<tag k="name" v="Salstein" />
		<tag k="place" v="locality" />
		<tag k="ssr:stedsnr" v="732406" />
	</node>
	<node id="-245905" lat="59.737505555" lon="10.7291861067">
		<tag k="name" v="Breivoll" />
>>>>>>> e1d4bc35ff8a6074a6f2e91616a996b547c36f15
		<tag k="place" v="farm" />
		<tag k="ssr:stedsnr" v="306257" />
	</node>
<<<<<<< HEAD
	<node lat="59.63263611229779" lon="10.75863888490743" id="-14800">
		<tag k="name" v="Torsnes" />
		<tag k="place" v="farm" />
		<tag k="ssr:stedsnr" v="306289" />
	</node>
	<node lat="59.6407500036107" lon="10.769830548000717" id="-14801">
		<tag k="name" v="Fjellsenga" />
=======
	<node id="-245904" lat="59.6392166649" lon="10.8520694521">
		<tag k="alt_name" v="Kroer, m;Mellom Kroer;Kroer mellom" />
		<tag k="name" v="Mellom-Kroer" />
>>>>>>> e1d4bc35ff8a6074a6f2e91616a996b547c36f15
		<tag k="place" v="farm" />
		<tag k="ssr:stedsnr" v="306290" />
	</node>
<<<<<<< HEAD
	<node lat="59.651836113608866" lon="10.845180555659578" id="-14802">
		<tag k="name" v="Krosser" />
		<tag k="place" v="isolated_dwelling" />
		<tag k="ssr:stedsnr" v="306295" />
	</node>
	<node lat="59.62112949897007" lon="10.855013259998936" id="-14803">
		<tag k="fixme" v="consider place=hamlet" />
		<tag k="name" v="Gulli" />
=======
	<node id="-245903" lat="59.6343250036" lon="10.7927638913">
		<tag k="name" v="Abberud" />
>>>>>>> e1d4bc35ff8a6074a6f2e91616a996b547c36f15
		<tag k="place" v="farm" />
		<tag k="ssr:stedsnr" v="306338" />
	</node>
<<<<<<< HEAD
	<node lat="59.74168888844906" lon="10.784708328879583" id="-14804">
		<tag k="name" v="Vinterdalen" />
=======
	<node id="-245902" lat="59.6421983366" lon="10.7378924283">
		<tag k="name" v="Støkkenbråten" />
>>>>>>> e1d4bc35ff8a6074a6f2e91616a996b547c36f15
		<tag k="place" v="farm" />
		<tag k="ssr:stedsnr" v="306468" />
	</node>
<<<<<<< HEAD
	<node lat="59.66247110319313" lon="10.746656851131522" id="-14805">
		<tag k="fixme" v="consider place=hamlet" />
		<tag k="name" v="Korsegården" />
=======
	<node id="-245901" lat="59.6437388889" lon="10.7214111123">
		<tag k="name" v="Iversrud" />
>>>>>>> e1d4bc35ff8a6074a6f2e91616a996b547c36f15
		<tag k="place" v="farm" />
		<tag k="ssr:stedsnr" v="306441" />
	</node>
<<<<<<< HEAD
	<node lat="59.729436112719135" lon="10.79173332618107" id="-14806">
		<tag k="name" v="Gårdmannsbråten" />
=======
	<node id="-245900" lat="59.6513138929" lon="10.8019249929">
		<tag k="name" v="Solli" />
>>>>>>> e1d4bc35ff8a6074a6f2e91616a996b547c36f15
		<tag k="place" v="farm" />
		<tag k="ssr:stedsnr" v="306574" />
	</node>
<<<<<<< HEAD
	<node lat="59.608724999437335" lon="10.87244722233938" id="-14807">
		<tag k="name" v="Ålerudmyra" />
=======
	<node id="-245899" lat="59.659147224" lon="10.7300500012">
		<tag k="name" v="Treider" />
>>>>>>> e1d4bc35ff8a6074a6f2e91616a996b547c36f15
		<tag k="place" v="farm" />
		<tag k="ssr:stedsnr" v="326044" />
	</node>
<<<<<<< HEAD
	<node lat="59.65130555805604" lon="10.759408341836128" id="-14808">
		<tag k="alt_name" v="Børsum nedre" />
		<tag k="name" v="Nedre Børsum" />
=======
	<node id="-245898" lat="59.7468888855" lon="10.7353500014">
		<tag k="name" v="Kjærnes" />
>>>>>>> e1d4bc35ff8a6074a6f2e91616a996b547c36f15
		<tag k="place" v="farm" />
		<tag k="ssr:stedsnr" v="326315" />
	</node>
<<<<<<< HEAD
	<node lat="59.63845555978028" lon="10.820780552678416" id="-14809">
		<tag k="alt_name" v="Kjetterud" />
		<tag k="amenity" v="cafe" />
		<tag k="name" v="Trampen" />
		<tag k="ssr:stedsnr" v="326321" />
	</node>
	<node lat="59.64771666447733" lon="10.786838890589262" id="-14810">
		<tag k="name" v="Fjellvang" />
=======
	<node id="-245897" lat="59.6489249957" lon="10.6877916699">
		<tag k="alt_name" v="Kinn nordre" />
		<tag k="name" v="Nordre Kinn" />
>>>>>>> e1d4bc35ff8a6074a6f2e91616a996b547c36f15
		<tag k="place" v="farm" />
		<tag k="ssr:stedsnr" v="326329" />
	</node>
<<<<<<< HEAD
	<node lat="59.64620555516927" lon="10.804902785079628" id="-14811">
		<tag k="alt_name" v="Eldor vestre" />
		<tag k="name" v="Vestre Eldor" />
=======
	<node id="-245896" lat="59.6591499995" lon="10.7159222297">
		<tag k="alt_name" v="Holstad nordre" />
		<tag k="name" v="Nordre Holstad" />
>>>>>>> e1d4bc35ff8a6074a6f2e91616a996b547c36f15
		<tag k="place" v="farm" />
		<tag k="ssr:stedsnr" v="326338" />
	</node>
<<<<<<< HEAD
	<node lat="59.72506666248959" lon="10.762483333596352" id="-14813">
=======
	<node id="-245893" lat="59.6631138865" lon="10.7972805555">
>>>>>>> e1d4bc35ff8a6074a6f2e91616a996b547c36f15
		<tag k="amenity" v="school" />
		<tag k="name" v="Nordby skole" />
		<tag k="ssr:stedsnr" v="326492" />
	</node>
<<<<<<< HEAD
	<node lat="59.68566111557664" lon="10.847600000967086" id="-14814">
		<tag k="alt_name" v="Hauger vestre" />
		<tag k="name" v="Vestre Hauger" />
=======
	<node id="-245890" lat="59.7226277741" lon="10.7907055484">
		<tag k="name" v="Haugen" />
>>>>>>> e1d4bc35ff8a6074a6f2e91616a996b547c36f15
		<tag k="place" v="farm" />
		<tag k="ssr:stedsnr" v="326077" />
	</node>
<<<<<<< HEAD
	<node lat="59.64289722443141" lon="10.723680558220325" id="-14815">
		<tag k="alt_name" v="Iversrud søndre" />
		<tag k="name" v="Søndre Iversrud" />
=======
	<node id="-245889" lat="59.7055111143" lon="10.7891138928">
		<tag k="name" v="Østreng" />
>>>>>>> e1d4bc35ff8a6074a6f2e91616a996b547c36f15
		<tag k="place" v="farm" />
		<tag k="ssr:stedsnr" v="326285" />
	</node>
<<<<<<< HEAD
	<node lat="59.658455551061316" lon="10.772744451208926" id="-14816">
		<tag k="name" v="Landås" />
		<tag k="place" v="isolated_dwelling" />
		<tag k="ssr:stedsnr" v="326287" />
	</node>
	<node lat="59.63788333071458" lon="10.794149991306131" id="-14817">
		<tag k="alt_name" v="Hogstvet vestre" />
		<tag k="name" v="Vestre Hogstvet" />
		<tag k="place" v="farm" />
		<tag k="ssr:stedsnr" v="326723" />
	</node>
	<node lat="59.747322220870736" lon="10.730283330123545" id="-14818">
		<tag k="alt_name" v="Kjærnes nedre" />
		<tag k="name" v="Nedre Kjærnes" />
=======
	<node id="-245888" lat="59.7190249966" lon="10.7789861132">
		<tag k="alt_name" v="Nordby østre" />
		<tag k="name" v="Østre Nordby" />
		<tag k="place" v="farm" />
		<tag k="ssr:stedsnr" v="629378" />
	</node>
	<node id="-245887" lat="59.7220416652" lon="10.8047194355">
		<tag k="name" v="Solbergskogen" />
		<tag k="place" v="quarter" />
		<tag k="ssr:stedsnr" v="629377" />
	</node>
	<node id="-245886" lat="59.6541389827" lon="10.7052264537">
		<tag k="alt_name" v="Vennersgård" />
		<tag k="fixme" v="consider place=hamlet" />
		<tag k="name" v="Venneskål" />
>>>>>>> e1d4bc35ff8a6074a6f2e91616a996b547c36f15
		<tag k="place" v="farm" />
		<tag k="ssr:stedsnr" v="326829" />
	</node>
<<<<<<< HEAD
	<node lat="59.75496111336527" lon="10.730022229740904" id="-14822">
		<tag k="name" v="Nedre Kjøye" />
		<tag k="place" v="isolated_dwelling" />
		<tag k="ssr:stedsnr" v="359741" />
	</node>
	<node lat="59.63502500092567" lon="10.786775002778183" id="-14824">
		<tag k="name" v="Høyås" />
		<tag k="place" v="farm" />
		<tag k="ssr:stedsnr" v="367245" />
	</node>
	<node lat="59.63639722272247" lon="10.831480552531422" id="-14825">
		<tag k="alt_name" v="Helgestad øvre" />
		<tag k="name" v="Øvre Helgestad" />
=======
	<node id="-245884" lat="59.6687777782" lon="10.7962972266">
		<tag k="name" v="Langbakken industriområde" />
		<tag k="place" v="quarter" />
		<tag k="ssr:stedsnr" v="568629" />
	</node>
	<node id="-245882" lat="59.6662527754" lon="10.8081638919">
		<tag k="name" v="Søndre Rustad" />
		<tag k="place" v="quarter" />
		<tag k="ssr:stedsnr" v="691634" />
	</node>
	<node id="-245880" lat="59.6581472178" lon="10.6789416672">
		<tag k="alt_name" v="Klommestein søndre" />
		<tag k="name" v="Søndre Klommestein" />
>>>>>>> e1d4bc35ff8a6074a6f2e91616a996b547c36f15
		<tag k="place" v="farm" />
		<tag k="ssr:stedsnr" v="367246" />
	</node>
<<<<<<< HEAD
	<node lat="59.6215181457361" lon="10.87405703106584" id="-14827">
		<tag k="fixme" v="consider place=hamlet" />
		<tag k="name" v="Østby" />
=======
	<node id="-245879" lat="59.6533749988" lon="10.7061333314">
		<tag k="alt_name" v="Vennersgård østre;Østre Vennersgård" />
		<tag k="name" v="Østre Venneskål" />
>>>>>>> e1d4bc35ff8a6074a6f2e91616a996b547c36f15
		<tag k="place" v="farm" />
		<tag k="ssr:stedsnr" v="367288" />
	</node>
<<<<<<< HEAD
	<node lat="59.7166750008978" lon="10.745852781732896" id="-14828">
		<tag k="name" v="Kaksrudødegården" />
=======
	<node id="-245877" lat="59.6270583353" lon="10.8190555549">
		<tag k="name" v="Granerud" />
		<tag k="old_name" v="Vest-Bråte;Bråte vestre;Vestre Bråte" />
>>>>>>> e1d4bc35ff8a6074a6f2e91616a996b547c36f15
		<tag k="place" v="farm" />
		<tag k="ssr:stedsnr" v="367540" />
	</node>
<<<<<<< HEAD
	<node lat="59.70842500364205" lon="10.757352771538674" id="-14829">
		<tag k="alt_name" v="Orskau" />
		<tag k="name" v="Orskog" />
=======
	<node id="-245874" lat="59.6718083374" lon="10.7286944388">
		<tag k="alt_name" v="Tokerud nordre" />
		<tag k="name" v="Nordre Tokerud" />
>>>>>>> e1d4bc35ff8a6074a6f2e91616a996b547c36f15
		<tag k="place" v="farm" />
		<tag k="ssr:stedsnr" v="367517" />
	</node>
<<<<<<< HEAD
	<node lat="59.68758567593392" lon="10.846003150622316" id="-14830">
		<tag k="fixme" v="consider place=hamlet" />
		<tag k="name" v="Hauger" />
=======
	<node id="-245872" lat="59.663513888" lon="10.7886027768">
		<tag k="name" v="Åsgård" />
>>>>>>> e1d4bc35ff8a6074a6f2e91616a996b547c36f15
		<tag k="place" v="farm" />
		<tag k="ssr:stedsnr" v="368439" />
	</node>
<<<<<<< HEAD
	<node lat="59.68176944875632" lon="10.792819450347547" id="-14831">
		<tag k="alt_name" v="Slørstad, søndre;Slørstad søndre" />
		<tag k="name" v="Søndre Slørstad" />
=======
	<node id="-245870" lat="59.6978138863" lon="10.8305222173">
		<tag k="alt_name" v="Kjølstad nordre" />
		<tag k="name" v="Nordre Kjølstad" />
>>>>>>> e1d4bc35ff8a6074a6f2e91616a996b547c36f15
		<tag k="place" v="farm" />
		<tag k="ssr:stedsnr" v="368481" />
	</node>
<<<<<<< HEAD
	<node lat="59.68608611451205" lon="10.766058335814954" id="-14832">
		<tag k="alt_name" v="Fagerlien" />
		<tag k="name" v="Fagerli" />
=======
	<node id="-245869" lat="59.6945472238" lon="10.766652772">
		<tag k="name" v="Sundbyteigen" />
>>>>>>> e1d4bc35ff8a6074a6f2e91616a996b547c36f15
		<tag k="place" v="farm" />
		<tag k="ssr:stedsnr" v="368482" />
	</node>
<<<<<<< HEAD
	<node lat="59.6824811154269" lon="10.753850124946032" id="-14833">
		<tag k="fixme" v="consider place=hamlet" />
		<tag k="name" v="Kinn" />
		<tag k="place" v="farm" />
		<tag k="ssr:stedsnr" v="368483" />
	</node>
	<node lat="59.6193833366074" lon="10.833874991512847" id="-14834">
		<tag k="name" v="Tørkopp" />
=======
	<node id="-245868" lat="59.7187916675" lon="10.7930972163">
		<tag k="amenity" v="school" />
		<tag k="name" v="Solberg skole" />
		<tag k="ssr:stedsnr" v="690425" />
	</node>
	<node id="-245867" lat="59.7184555511" lon="10.7747055551">
		<tag k="alt_name" v="Nordby vestre" />
		<tag k="name" v="Vestre Nordby" />
>>>>>>> e1d4bc35ff8a6074a6f2e91616a996b547c36f15
		<tag k="place" v="farm" />
		<tag k="ssr:stedsnr" v="386010" />
	</node>
<<<<<<< HEAD
	<node lat="59.74306944446552" lon="10.80687777757075" id="-14835">
		<tag k="name" v="Mellomstuene" />
=======
	<node id="-245866" lat="59.6593805589" lon="10.7310222173">
		<tag k="alt_name" v="Treider vestre" />
		<tag k="name" v="Vestre Treider" />
>>>>>>> e1d4bc35ff8a6074a6f2e91616a996b547c36f15
		<tag k="place" v="farm" />
		<tag k="ssr:stedsnr" v="386022" />
	</node>
<<<<<<< HEAD
	<node lat="59.726919442473516" lon="10.795188895561854" id="-14836">
		<tag k="name" v="Bråtehaugen" />
=======
	<node id="-245864" lat="59.7406555525" lon="10.8061999977">
		<tag k="name" v="Øverstuene" />
>>>>>>> e1d4bc35ff8a6074a6f2e91616a996b547c36f15
		<tag k="place" v="farm" />
		<tag k="ssr:stedsnr" v="386023" />
	</node>
<<<<<<< HEAD
	<node lat="59.74157777753849" lon="10.77138332947106" id="-14837">
		<tag k="name" v="Grimsrud" />
		<tag k="place" v="locality" />
		<tag k="ssr:stedsnr" v="386026" />
	</node>
	<node lat="59.649291665488256" lon="10.833650004039699" id="-14838">
		<tag k="name" v="Danskerud" />
=======
	<node id="-245862" lat="59.7420944402" lon="10.7826027722">
		<tag k="name" v="Vinterbro" />
		<tag k="place" v="hamlet" />
		<tag k="ssr:stedsnr" v="690018" />
	</node>
	<node id="-245860" lat="59.6587833304" lon="10.7109527794">
		<tag k="alt_name" v="Holstad vestre" />
		<tag k="name" v="Vestre Holstad" />
>>>>>>> e1d4bc35ff8a6074a6f2e91616a996b547c36f15
		<tag k="place" v="farm" />
		<tag k="ssr:stedsnr" v="386041" />
	</node>
<<<<<<< HEAD
	<node lat="59.67042222433075" lon="10.799811114438059" id="-14840">
		<tag k="alt_name" v="Ås ungd. skole" />
		<tag k="amenity" v="school" />
		<tag k="name" v="Ås ungdomsskole" />
		<tag k="ssr:stedsnr" v="386637" />
	</node>
	<node lat="59.746608332263115" lon="10.734766660941897" id="-14843">
		<tag k="alt_name" v="Kjærnes øvre" />
		<tag k="name" v="Øvre Kjærnes" />
=======
	<node id="-245857" lat="59.6451388891" lon="10.80732777">
		<tag k="alt_name" v="Eldor østre" />
		<tag k="name" v="Østre Eldor" />
		<tag k="place" v="farm" />
		<tag k="ssr:stedsnr" v="508328" />
	</node>
	<node id="-245856" lat="59.641711217" lon="10.7635438325">
		<tag k="name" v="Børsumbråten" />
>>>>>>> e1d4bc35ff8a6074a6f2e91616a996b547c36f15
		<tag k="place" v="farm" />
		<tag k="ssr:stedsnr" v="386828" />
	</node>
<<<<<<< HEAD
	<node lat="59.67693333138121" lon="10.761519439641988" id="-14844">
		<tag k="name" v="Einarstua" />
		<tag k="place" v="locality" />
		<tag k="ssr:stedsnr" v="386662" />
	</node>
	<node lat="59.665977778208486" lon="10.72975833984829" id="-14845">
		<tag k="name" v="Holtet" />
=======
	<node id="-245855" lat="59.6509888857" lon="10.7603333352">
		<tag k="alt_name" v="Børsum øvre" />
		<tag k="name" v="Øvre Børsum" />
		<tag k="place" v="farm" />
		<tag k="ssr:stedsnr" v="508308" />
	</node>
	<node id="-245854" lat="59.6355194486" lon="10.8476472169">
		<tag k="name" v="Vestereng" />
>>>>>>> e1d4bc35ff8a6074a6f2e91616a996b547c36f15
		<tag k="place" v="farm" />
		<tag k="ssr:stedsnr" v="386667" />
	</node>
<<<<<<< HEAD
	<node lat="59.661224997816106" lon="10.7356111081114" id="-14846">
		<tag k="name" v="Vangensten" />
		<tag k="place" v="isolated_dwelling" />
		<tag k="ssr:stedsnr" v="386674" />
	</node>
	<node lat="59.66861388902937" lon="10.725849993476185" id="-14847">
		<tag k="name" v="Tokerudbakken" />
		<tag k="place" v="isolated_dwelling" />
		<tag k="ssr:stedsnr" v="386675" />
	</node>
	<node lat="59.62179183306238" lon="10.870673833133132" id="-14852">
		<tag k="fixme" v="consider place=hamlet" />
		<tag k="name" v="Gåvim" />
=======
	<node id="-245851" lat="59.6619666648" lon="10.7013305626">
		<tag k="name" v="Børsumrud" />
		<tag k="place" v="farm" />
		<tag k="ssr:stedsnr" v="671874" />
	</node>
	<node id="-245850" lat="59.7007027814" lon="10.7742611082">
		<tag k="name" v="Verpet" />
		<tag k="place" v="farm" />
		<tag k="ssr:stedsnr" v="671394" />
	</node>
	<node id="-245849" lat="59.5948833295" lon="10.8575499964">
		<tag k="name" v="Bjørnstad" />
>>>>>>> e1d4bc35ff8a6074a6f2e91616a996b547c36f15
		<tag k="place" v="farm" />
		<tag k="ssr:stedsnr" v="428297" />
	</node>
<<<<<<< HEAD
	<node lat="59.6311277779346" lon="10.773924995622853" id="-14853">
		<tag k="name" v="Fjellet" />
=======
	<node id="-245848" lat="59.6491138906" lon="10.8142333283">
		<tag k="alt_name" v="Eldor;Eldor nordre" />
		<tag k="name" v="Nordre Eldor" />
>>>>>>> e1d4bc35ff8a6074a6f2e91616a996b547c36f15
		<tag k="place" v="farm" />
		<tag k="ssr:stedsnr" v="428299" />
	</node>
<<<<<<< HEAD
	<node lat="59.70660555374508" lon="10.769511107945387" id="-14854">
		<tag k="name" v="Øvre Melby" />
=======
	<node id="-245847" lat="59.6416750005" lon="10.7756888945">
		<tag k="alt_name" v="Rød;Rød søndre" />
		<tag k="name" v="Søndre Rød" />
>>>>>>> e1d4bc35ff8a6074a6f2e91616a996b547c36f15
		<tag k="place" v="farm" />
		<tag k="ssr:stedsnr" v="428343" />
	</node>
<<<<<<< HEAD
	<node lat="59.67693266742689" lon="10.721370889165925" id="-14855">
		<tag k="fixme" v="consider place=hamlet" />
		<tag k="name" v="Smedbøl" />
=======
	<node id="-245846" lat="59.705391669" lon="10.748997216">
		<tag k="name" v="Fjellstad" />
>>>>>>> e1d4bc35ff8a6074a6f2e91616a996b547c36f15
		<tag k="place" v="farm" />
		<tag k="ssr:stedsnr" v="428422" />
	</node>
<<<<<<< HEAD
	<node lat="59.64923055834174" lon="10.742080551813217" id="-14856">
		<tag k="name" v="Kongstein" />
=======
	<node id="-245845" lat="59.6498805595" lon="10.7593111058">
		<tag k="name" v="Børsum" />
>>>>>>> e1d4bc35ff8a6074a6f2e91616a996b547c36f15
		<tag k="place" v="farm" />
		<tag k="ssr:stedsnr" v="428256" />
	</node>
<<<<<<< HEAD
	<node lat="59.64832210326397" lon="10.687614338171963" id="-14857">
=======
	<node id="-245844" lat="59.6599111081" lon="10.7528416685">
>>>>>>> e1d4bc35ff8a6074a6f2e91616a996b547c36f15
		<tag k="fixme" v="consider place=hamlet" />
		<tag k="name" v="Kinn" />
		<tag k="place" v="farm" />
<<<<<<< HEAD
		<tag k="ssr:stedsnr" v="428837" />
	</node>
	<node lat="59.6466500012918" lon="10.831994441167884" id="-14859">
		<tag k="name" v="Stigen" />
=======
		<tag k="ssr:stedsnr" v="670247" />
	</node>
	<node id="-245843" lat="59.7462694452" lon="10.7282916706">
		<tag k="name" v="Bogen" />
		<tag k="place" v="isolated_dwelling" />
		<tag k="ssr:stedsnr" v="450247" />
	</node>
	<node id="-245842" lat="59.6495361152" lon="10.7899388831">
		<tag k="name" v="Sandsgård" />
>>>>>>> e1d4bc35ff8a6074a6f2e91616a996b547c36f15
		<tag k="place" v="farm" />
		<tag k="ssr:stedsnr" v="447045" />
	</node>
<<<<<<< HEAD
	<node lat="59.66604932500923" lon="10.766287592042572" id="-14860">
=======
	<node id="-245840" lat="59.666049325" lon="10.766287592">
>>>>>>> e1d4bc35ff8a6074a6f2e91616a996b547c36f15
		<tag k="amenity" v="university" />
		<tag k="fixme" v="multiple name tags, choose one and add the other to alt_name" />
		<tag k="name" v="Norges miljø- og biovitenskapelige universitet;NMBU" />
		<tag k="old_name" v="UMB;Norges landbrukshøgskole;Universitetet for miljø- og biovitenskap;NLH" />
		<tag k="ssr:stedsnr" v="447634" />
	</node>
<<<<<<< HEAD
	<node lat="59.7036111114145" lon="10.765813895461047" id="-14862">
		<tag k="alt_name" v="Sundby søndre" />
		<tag k="name" v="Søndre Sundby" />
		<tag k="place" v="farm" />
		<tag k="ssr:stedsnr" v="448380" />
	</node>
	<node lat="59.714502776098435" lon="10.74597777694933" id="-14863">
		<tag k="name" v="Nordli" />
		<tag k="place" v="farm" />
		<tag k="ssr:stedsnr" v="448381" />
	</node>
	<node lat="59.71925277743932" lon="10.805030556108578" id="-14865">
		<tag k="name" v="Solhaug" />
		<tag k="place" v="hamlet" />
		<tag k="ssr:stedsnr" v="448400" />
	</node>
	<node lat="59.658341724361506" lon="10.679370276461635" id="-14866">
		<tag k="alt_name" v="Klommestein nordre" />
		<tag k="name" v="Nordre Klommestein" />
		<tag k="place" v="farm" />
		<tag k="ssr:stedsnr" v="447848" />
	</node>
	<node lat="59.649536115154405" lon="10.789938883108206" id="-14867">
		<tag k="name" v="Sandsgård" />
=======
	<node id="-245838" lat="59.6863083293" lon="10.8058027715">
		<tag k="alt_name" v="Haugerud vestre" />
		<tag k="name" v="Vestre Haugerud" />
>>>>>>> e1d4bc35ff8a6074a6f2e91616a996b547c36f15
		<tag k="place" v="farm" />
		<tag k="ssr:stedsnr" v="448351" />
	</node>
<<<<<<< HEAD
	<node lat="59.720833334613715" lon="10.772786110445475" id="-14868">
		<tag k="alt_name" v="Nordby østre" />
		<tag k="name" v="Østre Nordby" />
=======
	<node id="-245837" lat="59.6768805525" lon="10.7202555549">
		<tag k="name" v="Smedbøl" />
>>>>>>> e1d4bc35ff8a6074a6f2e91616a996b547c36f15
		<tag k="place" v="farm" />
		<tag k="ssr:stedsnr" v="448368" />
	</node>
<<<<<<< HEAD
	<node lat="59.6692111081605" lon="10.806741664432943" id="-14869">
		<tag k="name" v="Rustadskog" />
		<tag k="place" v="quarter" />
		<tag k="ssr:stedsnr" v="448684" />
	</node>
	<node lat="59.63551944858919" lon="10.847647216913767" id="-14871">
		<tag k="name" v="Vestereng" />
		<tag k="place" v="farm" />
		<tag k="ssr:stedsnr" v="508054" />
	</node>
	<node lat="59.631367517144724" lon="10.84472043784318" id="-14872">
		<tag k="fixme" v="consider place=hamlet" />
		<tag k="name" v="Sutterhol" />
=======
	<node id="-245833" lat="59.6639638887" lon="10.750899995">
		<tag k="amenity" v="school" />
		<tag k="name" v="Brønnerud skole" />
		<tag k="ssr:stedsnr" v="508680" />
	</node>
	<node id="-245831" lat="59.6764944454" lon="10.7784750032">
		<tag k="alt_name" v="Østby østre" />
		<tag k="name" v="Østre Østby" />
		<tag k="place" v="farm" />
		<tag k="ssr:stedsnr" v="508663" />
	</node>
	<node id="-245830" lat="59.7038749996" lon="10.785374992">
		<tag k="name" v="Skremma" />
		<tag k="place" v="locality" />
		<tag k="ssr:stedsnr" v="508438" />
	</node>
	<node id="-245829" lat="59.7090499995" lon="10.7852027742">
		<tag k="name" v="Langli" />
>>>>>>> e1d4bc35ff8a6074a6f2e91616a996b547c36f15
		<tag k="place" v="farm" />
		<tag k="ssr:stedsnr" v="508005" />
	</node>
<<<<<<< HEAD
	<node lat="59.64053889283657" lon="10.833336111767702" id="-14873">
=======
	<node id="-245828" lat="59.6405388928" lon="10.8333361118">
>>>>>>> e1d4bc35ff8a6074a6f2e91616a996b547c36f15
		<tag k="name" v="Heia" />
		<tag k="place" v="farm" />
		<tag k="ssr:stedsnr" v="508041" />
	</node>
<<<<<<< HEAD
	<node lat="59.6587833304321" lon="10.710952779420932" id="-14879">
		<tag k="alt_name" v="Holstad vestre" />
		<tag k="name" v="Vestre Holstad" />
=======
	<node id="-245827" lat="59.631675" lon="10.8442888885">
		<tag k="name" v="Sutterhol" />
>>>>>>> e1d4bc35ff8a6074a6f2e91616a996b547c36f15
		<tag k="place" v="farm" />
		<tag k="ssr:stedsnr" v="508865" />
	</node>
<<<<<<< HEAD
	<node lat="59.72049107507362" lon="10.772803457224352" id="-14881">
		<tag k="name" v="Nordby" />
		<tag k="place" v="hamlet" />
		<tag k="ssr:stedsnr" v="549535" />
	</node>
	<node lat="59.66225326025139" lon="10.75179495602952" id="-14883">
		<tag k="fixme" v="consider place=hamlet" />
		<tag k="name" v="Vollebekk" />
=======
	<node id="-245825" lat="59.7466083323" lon="10.7347666609">
		<tag k="alt_name" v="Kjærnes øvre" />
		<tag k="name" v="Øvre Kjærnes" />
		<tag k="place" v="farm" />
		<tag k="ssr:stedsnr" v="386828" />
	</node>
	<node id="-245822" lat="59.6659777782" lon="10.7297583398">
		<tag k="name" v="Holtet" />
>>>>>>> e1d4bc35ff8a6074a6f2e91616a996b547c36f15
		<tag k="place" v="farm" />
		<tag k="ssr:stedsnr" v="548475" />
	</node>
<<<<<<< HEAD
	<node lat="59.66836184518074" lon="10.739111139197368" id="-14884">
		<tag k="fixme" v="consider place=hamlet" />
		<tag k="name" v="Stensrud" />
		<tag k="place" v="farm" />
		<tag k="ssr:stedsnr" v="548482" />
	</node>
	<node lat="59.65417096551678" lon="10.777124946542001" id="-14886">
		<tag k="fixme" v="consider place=hamlet" />
		<tag k="name" v="Burum" />
=======
	<node id="-245821" lat="59.6769333314" lon="10.7615194396">
		<tag k="name" v="Einarstua" />
		<tag k="place" v="locality" />
		<tag k="ssr:stedsnr" v="386662" />
	</node>
	<node id="-245819" lat="59.6456083293" lon="10.8026527813">
		<tag k="alt_name" v="Eldor søndre" />
		<tag k="name" v="Søndre Eldor" />
>>>>>>> e1d4bc35ff8a6074a6f2e91616a996b547c36f15
		<tag k="place" v="farm" />
		<tag k="ssr:stedsnr" v="549257" />
	</node>
<<<<<<< HEAD
	<node lat="59.647216669024694" lon="10.830555550222124" id="-14887">
		<tag k="name" v="Danskerud" />
		<tag k="place" v="quarter" />
		<tag k="ssr:stedsnr" v="549283" />
	</node>
	<node lat="59.63029290053788" lon="10.846160077021569" id="-14888">
		<tag k="fixme" v="consider place=hamlet" />
		<tag k="name" v="Moer" />
=======
	<node id="-245818" lat="59.7415777775" lon="10.7713833295">
		<tag k="name" v="Grimsrud" />
		<tag k="place" v="locality" />
		<tag k="ssr:stedsnr" v="386026" />
	</node>
	<node id="-245817" lat="59.7269194425" lon="10.7951888956">
		<tag k="name" v="Bråtehaugen" />
>>>>>>> e1d4bc35ff8a6074a6f2e91616a996b547c36f15
		<tag k="place" v="farm" />
		<tag k="ssr:stedsnr" v="549328" />
	</node>
<<<<<<< HEAD
	<node lat="59.666688547291564" lon="10.822423669242795" id="-14889">
		<tag k="fixme" v="consider place=hamlet" />
		<tag k="name" v="Rustad" />
=======
	<node id="-245816" lat="59.7430694445" lon="10.8068777776">
		<tag k="name" v="Mellomstuene" />
>>>>>>> e1d4bc35ff8a6074a6f2e91616a996b547c36f15
		<tag k="place" v="farm" />
		<tag k="ssr:stedsnr" v="549431" />
	</node>
<<<<<<< HEAD
	<node lat="59.69000278059787" lon="10.808680560660978" id="-14890">
		<tag k="alt_name" v="Holstad, nedre" />
		<tag k="name" v="Nedre Holstad" />
		<tag k="place" v="farm" />
		<tag k="ssr:stedsnr" v="550397" />
	</node>
	<node lat="59.68373055276452" lon="10.79315556168329" id="-14891">
		<tag k="alt_name" v="Slørstad, m;Slørstad søndre" />
		<tag k="name" v="Midtre Slørstad" />
=======
	<node id="-245815" lat="59.6193833366" lon="10.8338749915">
		<tag k="name" v="Tørkopp" />
		<tag k="place" v="farm" />
		<tag k="ssr:stedsnr" v="386010" />
	</node>
	<node id="-245814" lat="59.7530333333" lon="10.7538222192">
		<tag k="alt_name" v="Nybråtan" />
		<tag k="name" v="Nybråten" />
		<tag k="place" v="isolated_dwelling" />
		<tag k="ssr:stedsnr" v="490369" />
	</node>
	<node id="-245813" lat="59.6576444421" lon="10.6917944479">
		<tag k="name" v="Skoftestad" />
>>>>>>> e1d4bc35ff8a6074a6f2e91616a996b547c36f15
		<tag k="place" v="farm" />
		<tag k="ssr:stedsnr" v="550441" />
	</node>
<<<<<<< HEAD
	<node lat="59.73209166364459" lon="10.750772226896952" id="-14896">
		<tag k="name" v="Askehaugbråten" />
=======
	<node id="-245811" lat="59.6993111088" lon="10.7817750022">
		<tag k="name" v="Sneis" />
>>>>>>> e1d4bc35ff8a6074a6f2e91616a996b547c36f15
		<tag k="place" v="farm" />
		<tag k="ssr:stedsnr" v="568449" />
	</node>
<<<<<<< HEAD
	<node lat="59.65886666568021" lon="10.77356110862978" id="-14897">
		<tag k="name" v="Kilehagen" />
		<tag k="place" v="quarter" />
		<tag k="ssr:stedsnr" v="568297" />
	</node>
	<node lat="59.668777778204074" lon="10.796297226619188" id="-14898">
		<tag k="name" v="Langbakken industriområde" />
		<tag k="place" v="quarter" />
		<tag k="ssr:stedsnr" v="568629" />
	</node>
	<node lat="59.749016665277885" lon="10.778266659099309" id="-14901">
		<tag k="name" v="Tusenfryd" />
		<tag k="old_name" v="Dyreparken" />
		<tag k="ssr:stedsnr" v="568920" />
		<tag k="tourism" v="theme_park" />
	</node>
	<node lat="59.720380805298156" lon="10.797869268512867" id="-14902">
		<tag k="fixme" v="consider place=hamlet" />
		<tag k="name" v="Solberg" />
=======
	<node id="-245809" lat="59.6658999979" lon="10.7203999976">
		<tag k="name" v="Rustad" />
		<tag k="place" v="farm" />
		<tag k="ssr:stedsnr" v="488443" />
	</node>
	<node id="-245808" lat="59.6659555519" lon="10.7427361098">
		<tag k="name" v="Kvestad" />
		<tag k="place" v="farm" />
		<tag k="ssr:stedsnr" v="488441" />
	</node>
	<node id="-245807" lat="59.611625004" lon="10.8569777799">
		<tag k="name" v="Tierud" />
		<tag k="place" v="locality" />
		<tag k="ssr:stedsnr" v="488351" />
	</node>
	<node id="-245806" lat="59.6308250033" lon="10.8347527696">
		<tag k="name" v="Rød" />
>>>>>>> e1d4bc35ff8a6074a6f2e91616a996b547c36f15
		<tag k="place" v="farm" />
		<tag k="ssr:stedsnr" v="569357" />
	</node>
<<<<<<< HEAD
	<node lat="59.653233330790414" lon="10.749665262151124" id="-14904">
		<tag k="fixme" v="consider place=hamlet" />
		<tag k="name" v="Linnestad" />
=======
	<node id="-245805" lat="59.6346916682" lon="10.8148305627">
		<tag k="name" v="Ommen" />
>>>>>>> e1d4bc35ff8a6074a6f2e91616a996b547c36f15
		<tag k="place" v="farm" />
		<tag k="ssr:stedsnr" v="609244" />
	</node>
<<<<<<< HEAD
	<node lat="59.636250735900596" lon="10.744036621960412" id="-14906">
		<tag k="alt_name" v="Støkken, østre;Støkken" />
		<tag k="fixme" v="consider place=hamlet" />
		<tag k="name" v="Østre Støkken" />
=======
	<node id="-245804" lat="59.6453138866" lon="10.8066249925">
		<tag k="name" v="Eldor" />
>>>>>>> e1d4bc35ff8a6074a6f2e91616a996b547c36f15
		<tag k="place" v="farm" />
		<tag k="ssr:stedsnr" v="609283" />
	</node>
<<<<<<< HEAD
	<node lat="59.735105551754444" lon="10.737944452983683" id="-14907">
		<tag k="alt_name" v="Fåle, søndre" />
		<tag k="name" v="Søndre Fåle" />
=======
	<node id="-245803" lat="59.6428472262" lon="10.8296611071">
		<tag k="name" v="Revhaug" />
>>>>>>> e1d4bc35ff8a6074a6f2e91616a996b547c36f15
		<tag k="place" v="farm" />
		<tag k="ssr:stedsnr" v="609579" />
	</node>
<<<<<<< HEAD
	<node lat="59.66311388645761" lon="10.797280555544722" id="-14909">
		<tag k="amenity" v="school" />
		<tag k="name" v="Ås videregående skole" />
		<tag k="ssr:stedsnr" v="629653" />
	</node>
	<node lat="59.67849925122511" lon="10.752984216729299" id="-14911">
=======
	<node id="-245802" lat="59.6470138912" lon="10.7885138916">
		<tag k="alt_name" v="Brekka, m;Brekke mellom;Brekken mellem" />
		<tag k="name" v="Mellom-Brekke" />
		<tag k="place" v="farm" />
		<tag k="ssr:stedsnr" v="488239" />
	</node>
	<node id="-245801" lat="59.658147223" lon="10.8022250053">
>>>>>>> e1d4bc35ff8a6074a6f2e91616a996b547c36f15
		<tag k="fixme" v="consider place=hamlet" />
		<tag k="name" v="Hale" />
		<tag k="place" v="farm" />
		<tag k="ssr:stedsnr" v="629688" />
	</node>
<<<<<<< HEAD
	<node lat="59.72204166517471" lon="10.804719435504355" id="-14912">
		<tag k="name" v="Solbergskogen" />
		<tag k="place" v="quarter" />
		<tag k="ssr:stedsnr" v="629377" />
	</node>
	<node lat="59.71902499662694" lon="10.778986113151001" id="-14913">
		<tag k="alt_name" v="Nordby østre" />
		<tag k="name" v="Østre Nordby" />
=======
	<node id="-245799" lat="59.6378833307" lon="10.7941499913">
		<tag k="alt_name" v="Hogstvet vestre" />
		<tag k="name" v="Vestre Hogstvet" />
>>>>>>> e1d4bc35ff8a6074a6f2e91616a996b547c36f15
		<tag k="place" v="farm" />
		<tag k="ssr:stedsnr" v="629378" />
	</node>
<<<<<<< HEAD
	<node lat="59.70551111432029" lon="10.789113892778019" id="-14914">
		<tag k="name" v="Østreng" />
		<tag k="place" v="farm" />
		<tag k="ssr:stedsnr" v="629379" />
	</node>
	<node lat="59.72262777406642" lon="10.790705548410921" id="-14915">
		<tag k="name" v="Haugen" />
=======
	<node id="-245798" lat="59.6615805517" lon="10.7729055555">
		<tag k="name" v="Sørås" />
		<tag k="place" v="quarter" />
		<tag k="ssr:stedsnr" v="326704" />
	</node>
	<node id="-245796" lat="59.6462055552" lon="10.8049027851">
		<tag k="alt_name" v="Eldor vestre" />
		<tag k="name" v="Vestre Eldor" />
>>>>>>> e1d4bc35ff8a6074a6f2e91616a996b547c36f15
		<tag k="place" v="farm" />
		<tag k="ssr:stedsnr" v="629381" />
	</node>
<<<<<<< HEAD
	<node lat="59.719024997858305" lon="10.803952779016457" id="-14916">
		<tag k="amenity" v="nursing_home" />
		<tag k="name" v="Nordby sykehjem" />
		<tag k="ssr:stedsnr" v="629386" />
	</node>
	<node lat="59.639419444972496" lon="10.804177772177267" id="-14918">
		<tag k="name" v="Kølabonn" />
=======
	<node id="-245795" lat="59.6477166645" lon="10.7868388906">
		<tag k="name" v="Fjellvang" />
>>>>>>> e1d4bc35ff8a6074a6f2e91616a996b547c36f15
		<tag k="place" v="farm" />
		<tag k="ssr:stedsnr" v="629319" />
	</node>
<<<<<<< HEAD
	<node lat="59.69858055255856" lon="10.745783329317392" id="-14919">
		<tag k="name" v="Skuggen" />
		<tag k="place" v="isolated_dwelling" />
		<tag k="ssr:stedsnr" v="629428" />
	</node>
	<node lat="59.65914999951143" lon="10.715922229709852" id="-14920">
		<tag k="alt_name" v="Holstad nordre" />
		<tag k="name" v="Nordre Holstad" />
=======
	<node id="-245794" lat="59.6384555598" lon="10.8207805527">
		<tag k="alt_name" v="Kjetterud" />
		<tag k="amenity" v="cafe" />
		<tag k="name" v="Trampen" />
		<tag k="ssr:stedsnr" v="326321" />
	</node>
	<node id="-245793" lat="59.6513055581" lon="10.7594083418">
		<tag k="alt_name" v="Børsum nedre" />
		<tag k="name" v="Nedre Børsum" />
>>>>>>> e1d4bc35ff8a6074a6f2e91616a996b547c36f15
		<tag k="place" v="farm" />
		<tag k="ssr:stedsnr" v="629875" />
	</node>
<<<<<<< HEAD
	<node lat="59.64892499567231" lon="10.687791669887536" id="-14921">
		<tag k="alt_name" v="Kinn nordre" />
		<tag k="name" v="Nordre Kinn" />
=======
	<node id="-245792" lat="59.6087249994" lon="10.8724472223">
		<tag k="name" v="Ålerudmyra" />
>>>>>>> e1d4bc35ff8a6074a6f2e91616a996b547c36f15
		<tag k="place" v="farm" />
		<tag k="ssr:stedsnr" v="629879" />
	</node>
<<<<<<< HEAD
	<node lat="59.659626705937406" lon="10.753705966314188" id="-14923">
		<tag k="fixme" v="consider place=hamlet" />
		<tag k="name" v="Voll" />
=======
	<node id="-245790" lat="59.6627114078" lon="10.7471918461">
		<tag k="name" v="Korsegården" />
>>>>>>> e1d4bc35ff8a6074a6f2e91616a996b547c36f15
		<tag k="place" v="farm" />
		<tag k="ssr:stedsnr" v="670247" />
	</node>
<<<<<<< HEAD
	<node lat="59.65033465359963" lon="10.760612741698594" id="-14924">
		<tag k="name" v="Børsum" />
=======
	<node id="-245789" lat="59.6249337848" lon="10.8226906981">
		<tag k="name" v="Bråta" />
		<tag k="old_name" v="Braate" />
>>>>>>> e1d4bc35ff8a6074a6f2e91616a996b547c36f15
		<tag k="place" v="hamlet" />
		<tag k="ssr:stedsnr" v="670268" />
	</node>
<<<<<<< HEAD
	<node lat="59.70558182016144" lon="10.749752182907349" id="-14925">
		<tag k="alt_name" v="Fuglenebbet" />
		<tag k="fixme" v="consider place=hamlet" />
		<tag k="loc_name" v="Fuglenebba" />
		<tag k="name" v="Fjellstad" />
=======
	<node id="-245788" lat="59.6576916708" lon="10.7058527779">
		<tag k="name" v="Skogstad" />
>>>>>>> e1d4bc35ff8a6074a6f2e91616a996b547c36f15
		<tag k="place" v="farm" />
		<tag k="ssr:stedsnr" v="670545" />
	</node>
<<<<<<< HEAD
	<node lat="59.64219833664592" lon="10.737892428328456" id="-14927">
		<tag k="name" v="Støkkenbråten" />
		<tag k="place" v="farm" />
		<tag k="ssr:stedsnr" v="731243" />
	</node>
	<node lat="59.634375013108986" lon="10.792591278800131" id="-14928">
		<tag k="fixme" v="consider place=hamlet" />
		<tag k="name" v="Abberud" />
		<tag k="place" v="farm" />
		<tag k="ssr:stedsnr" v="731249" />
	</node>
	<node lat="59.639216664896544" lon="10.852069452069596" id="-14929">
		<tag k="alt_name" v="Kroer, m;Mellom Kroer;Kroer mellom" />
		<tag k="name" v="Mellom-Kroer" />
=======
	<node id="-245785" lat="59.6692111082" lon="10.8067416644">
		<tag k="name" v="Rustadskog" />
		<tag k="place" v="quarter" />
		<tag k="ssr:stedsnr" v="448684" />
	</node>
	<node id="-245784" lat="59.7192527774" lon="10.8050305561">
		<tag k="name" v="Solhaug" />
		<tag k="place" v="hamlet" />
		<tag k="ssr:stedsnr" v="448400" />
	</node>
	<node id="-245782" lat="59.7145027761" lon="10.7459777769">
		<tag k="name" v="Nordli" />
>>>>>>> e1d4bc35ff8a6074a6f2e91616a996b547c36f15
		<tag k="place" v="farm" />
		<tag k="ssr:stedsnr" v="731250" />
	</node>
<<<<<<< HEAD
	<node lat="59.613677781192145" lon="10.824830564241141" id="-14930">
		<tag k="name" v="Svaheim" />
=======
	<node id="-245780" lat="59.7036111114" lon="10.7658138955">
		<tag k="alt_name" v="Sundby søndre" />
		<tag k="name" v="Søndre Sundby" />
>>>>>>> e1d4bc35ff8a6074a6f2e91616a996b547c36f15
		<tag k="place" v="farm" />
		<tag k="ssr:stedsnr" v="731338" />
	</node>
<<<<<<< HEAD
	<node lat="59.7121219807596" lon="10.773739407339994" id="-14931">
		<tag k="fixme" v="consider place=hamlet" />
		<tag k="name" v="Skyssjordet" />
=======
	<node id="-245779" lat="59.7213583338" lon="10.7724249928">
		<tag k="alt_name" v="Nordby nordre" />
		<tag k="name" v="Nordre Nordby" />
>>>>>>> e1d4bc35ff8a6074a6f2e91616a996b547c36f15
		<tag k="place" v="farm" />
		<tag k="ssr:stedsnr" v="731350" />
	</node>
<<<<<<< HEAD
	<node lat="59.66471666943866" lon="10.794636107691177" id="-14932">
		<tag k="name" v="Ås" />
		<tag k="place" v="village" />
		<tag k="ssr:stedsnr" v="731438" />
	</node>
	<node lat="59.746584917354795" lon="10.735871691512488" id="-14933">
		<tag k="fixme" v="consider place=hamlet" />
		<tag k="name" v="Kjærnes" />
=======
	<node id="-245778" lat="59.7208333346" lon="10.7727861104">
		<tag k="alt_name" v="Nordby østre" />
		<tag k="name" v="Østre Nordby" />
>>>>>>> e1d4bc35ff8a6074a6f2e91616a996b547c36f15
		<tag k="place" v="farm" />
		<tag k="ssr:stedsnr" v="731466" />
	</node>
<<<<<<< HEAD
	<node lat="59.68746666444816" lon="10.759494442177166" id="-14934">
		<tag k="alt_name" v="Dylterud;Dylterud vestre" />
		<tag k="name" v="Vestre Dylterud" />
=======
	<node id="-245777" lat="59.7081964516" lon="10.7874067756">
		<tag k="name" v="Sørli" />
>>>>>>> e1d4bc35ff8a6074a6f2e91616a996b547c36f15
		<tag k="place" v="farm" />
		<tag k="ssr:stedsnr" v="732436" />
	</node>
	<node lat="59.67949444370986" lon="10.825591664688856" id="-14935">
		<tag k="alt_name" v="Skuterud, nordre" />
		<tag k="name" v="Nordre Skuterud" />
		<tag k="place" v="farm" />
		<tag k="ssr:stedsnr" v="732472" />
	</node>
	<node lat="59.680352777639264" lon="10.782899991882097" id="-14936">
		<tag k="name" v="Østli" />
		<tag k="place" v="farm" />
		<tag k="ssr:stedsnr" v="732474" />
	</node>
<<<<<<< HEAD
	<node lat="59.660851827499805" lon="10.688586525399733" id="-14937">
		<tag k="alt_name" v="Ekeberg" />
		<tag k="fixme" v="consider place=hamlet" />
		<tag k="name" v="Eikeberg" />
=======
	<node id="-245775" lat="59.6583417244" lon="10.6793702765">
		<tag k="alt_name" v="Klommestein nordre" />
		<tag k="name" v="Nordre Klommestein" />
>>>>>>> e1d4bc35ff8a6074a6f2e91616a996b547c36f15
		<tag k="place" v="farm" />
		<tag k="ssr:stedsnr" v="732861" />
	</node>
<<<<<<< HEAD
	<node lat="59.756930558566005" lon="10.736252771941398" id="-14938">
		<tag k="name" v="Brenningsmyra" />
=======
	<node id="-245770" lat="59.6960364839" lon="10.7447697726">
		<tag k="name" v="Lurenga" />
>>>>>>> e1d4bc35ff8a6074a6f2e91616a996b547c36f15
		<tag k="place" v="isolated_dwelling" />
		<tag k="ssr:stedsnr" v="733358" />
	</node>
<<<<<<< HEAD
	<node lat="59.75518055337458" lon="10.750941658306436" id="-14940">
		<tag k="alt_name" v="Labråtan" />
		<tag k="name" v="Labråten" />
=======
	<node id="-245769" lat="59.6909750025" lon="10.7661861096">
		<tag k="name" v="Kjærsrud" />
>>>>>>> e1d4bc35ff8a6074a6f2e91616a996b547c36f15
		<tag k="place" v="isolated_dwelling" />
		<tag k="ssr:stedsnr" v="733361" />
	</node>
<<<<<<< HEAD
	<node lat="59.625847218269456" lon="10.842177772529874" id="-14942">
		<tag k="name" v="Brantløkka" />
		<tag k="place" v="farm" />
		<tag k="ssr:stedsnr" v="750037" />
	</node>
	<node lat="59.659705553901084" lon="10.727472215775336" id="-14943">
		<tag k="alt_name" v="Haug østre" />
		<tag k="name" v="Østre Haug" />
=======
	<node id="-245768" lat="59.6855555556" lon="10.7732777749">
		<tag k="name" v="Stein" />
		<tag k="place" v="farm" />
		<tag k="ssr:stedsnr" v="447378" />
	</node>
	<node id="-245767" lat="59.7343055541" lon="10.7560666578">
		<tag k="name" v="Togrenda" />
		<tag k="place" v="quarter" />
		<tag k="ssr:stedsnr" v="447435" />
	</node>
	<node id="-245762" lat="59.6466500013" lon="10.8319944412">
		<tag k="name" v="Stigen" />
>>>>>>> e1d4bc35ff8a6074a6f2e91616a996b547c36f15
		<tag k="place" v="farm" />
		<tag k="ssr:stedsnr" v="750254" />
	</node>
<<<<<<< HEAD
	<node lat="59.65753333708616" lon="10.828505556130782" id="-14944">
		<tag k="amenity" v="nursing_home" />
		<tag k="name" v="Bjørnebekk kursted" />
		<tag k="ssr:stedsnr" v="750286" />
	</node>
	<node lat="59.72421110868767" lon="10.791208334754009" id="-14945">
		<tag k="name" v="Olasbråten" />
		<tag k="place" v="farm" />
		<tag k="ssr:stedsnr" v="750358" />
	</node>
	<node lat="59.74221944599079" lon="10.7620861194627" id="-14948">
		<tag k="name" v="Pollenga" />
		<tag k="place" v="quarter" />
		<tag k="ssr:stedsnr" v="750440" />
	</node>
	<node lat="59.61522222097988" lon="10.821749998561106" id="-14949">
		<tag k="name" v="Dammen" />
		<tag k="place" v="farm" />
		<tag k="ssr:stedsnr" v="750679" />
	</node>
	<node lat="59.66840000402836" lon="10.687597228619168" id="-14953">
		<tag k="alt_name" v="Torp vestre" />
		<tag k="name" v="Vestre Torp" />
		<tag k="place" v="farm" />
		<tag k="ssr:stedsnr" v="750822" />
	</node>
	<node lat="59.70430607961981" lon="10.763077776643648" id="-14956">
		<tag k="name" v="Sundby" />
		<tag k="place" v="hamlet" />
		<tag k="ssr:stedsnr" v="791363" />
	</node>
	<node lat="59.76109999691452" lon="10.756500003103138" id="-14958">
		<tag k="name" v="Østli" />
		<tag k="place" v="farm" />
		<tag k="ssr:stedsnr" v="793443" />
	</node>
	<node lat="59.75831944384095" lon="10.774786104970794" id="-14959">
		<tag k="alt_name" v="Seiersten" />
		<tag k="name" v="Seierstein" />
		<tag k="place" v="farm" />
		<tag k="ssr:stedsnr" v="793444" />
	</node>
	<node lat="59.66894594734992" lon="10.717050191472893" id="-14960">
		<tag k="fixme" v="consider place=hamlet" />
		<tag k="name" v="Hogsmørk" />
		<tag k="place" v="farm" />
		<tag k="ssr:stedsnr" v="793880" />
	</node>
	<node lat="59.6405638875198" lon="10.762369442253362" id="-14962">
		<tag k="name" v="Østli" />
		<tag k="place" v="farm" />
		<tag k="ssr:stedsnr" v="811268" />
	</node>
	<node lat="59.73156666814359" lon="10.734483324945732" id="-14964">
		<tag k="name" v="Kjerkeløkka" />
		<tag k="place" v="locality" />
		<tag k="ssr:stedsnr" v="811465" />
	</node>
	<node lat="59.665994444852956" lon="10.810961118485476" id="-14965">
		<tag k="amenity" v="school" />
		<tag k="name" v="Rustad skole" />
		<tag k="ssr:stedsnr" v="811635" />
	</node>
	<node lat="59.67405832900221" lon="10.76376666781327" id="-14966">
		<tag k="name" v="Gullberg" />
		<tag k="place" v="isolated_dwelling" />
		<tag k="ssr:stedsnr" v="811661" />
	</node>
	<node lat="59.71108611340282" lon="10.760377774321256" id="-14971">
		<tag k="alt_name" v="Risplass søndre" />
		<tag k="name" v="Søndre Risplass" />
		<tag k="place" v="locality" />
		<tag k="ssr:stedsnr" v="812344" />
	</node>
	<node lat="59.70435555923644" lon="10.761819446247289" id="-14972">
		<tag k="alt_name" v="Sundby vestre" />
		<tag k="name" v="Vestre Sundby" />
		<tag k="place" v="farm" />
		<tag k="ssr:stedsnr" v="812349" />
	</node>
	<node lat="59.63565048286725" lon="10.740506665359588" id="-14975">
		<tag k="alt_name" v="Støkken, vestre;Støkken vestre" />
		<tag k="fixme" v="consider place=hamlet" />
		<tag k="name" v="Vestre Støkken" />
		<tag k="place" v="farm" />
		<tag k="ssr:stedsnr" v="853284" />
	</node>
	<node lat="59.61401107731223" lon="10.83255918547109" id="-14976">
		<tag k="fixme" v="consider place=hamlet" />
		<tag k="name" v="Kaksrud" />
		<tag k="place" v="farm" />
		<tag k="ssr:stedsnr" v="853351" />
	</node>
	<node lat="59.72940277610474" lon="10.733699991443238" id="-14977">
		<tag k="alt_name" v="Nesset" />
		<tag k="name" v="Neset" />
		<tag k="place" v="hamlet" />
		<tag k="ssr:stedsnr" v="853581" />
	</node>
	<node lat="59.74229444517313" lon="10.763197228125089" id="-14979">
		<tag k="name" v="Nøstvet" />
		<tag k="place" v="locality" />
		<tag k="ssr:stedsnr" v="872026" />
	</node>
	<node lat="59.65269444828843" lon="10.839011102541374" id="-14980">
		<tag k="name" v="Østli" />
		<tag k="place" v="isolated_dwelling" />
		<tag k="ssr:stedsnr" v="872033" />
	</node>
	<node lat="59.66420833615379" lon="10.790944447661214" id="-14981">
		<tag k="amenity" v="townhall" />
		<tag k="name" v="Ås rådhus" />
		<tag k="ssr:stedsnr" v="872281" />
	</node>
	<node lat="59.65971944903641" lon="10.725874991979419" id="-14982">
		<tag k="alt_name" v="Haug nordre" />
		<tag k="name" v="Nordre Haug" />
		<tag k="place" v="farm" />
		<tag k="ssr:stedsnr" v="872300" />
	</node>
	<node lat="59.72324444750551" lon="10.79763333265621" id="-14983">
		<tag k="alt_name" v="Solberg nordre" />
		<tag k="name" v="Nordre Solberg" />
		<tag k="place" v="farm" />
		<tag k="ssr:stedsnr" v="872412" />
	</node>
	<node lat="59.686402774888435" lon="10.807600007342588" id="-14986">
		<tag k="alt_name" v="Haugerud østre" />
		<tag k="name" v="Østre Haugerud" />
		<tag k="place" v="farm" />
		<tag k="ssr:stedsnr" v="872468" />
	</node>
	<node lat="59.73824722233379" lon="10.760897217642661" id="-14987">
		<tag k="name" v="Nordskogen" />
		<tag k="place" v="quarter" />
		<tag k="ssr:stedsnr" v="872500" />
	</node>
	<node lat="59.7314138912252" lon="10.738544449605724" id="-14988">
		<tag k="name" v="Markusløkka" />
		<tag k="place" v="isolated_dwelling" />
		<tag k="ssr:stedsnr" v="872505" />
	</node>
	<node lat="59.73883333299153" lon="10.755616672241596" id="-14989">
		<tag k="alt_name" v="Toødegård (nedl.)" />
		<tag k="name" v="Toødegård" />
		<tag k="place" v="farm" />
		<tag k="ssr:stedsnr" v="872507" />
	</node>
	<node lat="59.685155551147425" lon="10.762119447281448" id="-14990">
		<tag k="name" v="Bjerklund" />
		<tag k="place" v="farm" />
		<tag k="ssr:stedsnr" v="872453" />
	</node>
	<node lat="59.66250277942234" lon="10.797766669510864" id="-14991">
		<tag k="amenity" v="sports_centre" />
		<tag k="name" v="Åshallen" />
		<tag k="ssr:stedsnr" v="872657" />
	</node>
	<node lat="59.660005646028715" lon="10.709249366840835" id="-14996">
		<tag k="name" v="Holstadkulen" />
		<tag k="place" v="isolated_dwelling" />
		<tag k="ssr:stedsnr" v="872873" />
	</node>
	<node lat="59.711797224087654" lon="10.761169452497203" id="-14999">
		<tag k="alt_name" v="Risplass midtre" />
		<tag k="name" v="Midtre Risplass" />
		<tag k="place" v="locality" />
		<tag k="ssr:stedsnr" v="873343" />
	</node>
	<node lat="59.709319440806134" lon="10.760150000690654" id="-15000">
		<tag k="name" v="Sundbyhagen" />
		<tag k="place" v="farm" />
		<tag k="ssr:stedsnr" v="873345" />
	</node>
	<node lat="59.63774078711998" lon="10.743040561275551" id="-15005">
		<tag k="name" v="Støkken" />
		<tag k="place" v="hamlet" />
		<tag k="ssr:stedsnr" v="977365" />
	</node>
	<node lat="59.740653899458664" lon="10.745504590230835" id="-15011">
		<tag k="name" v="Fåle" />
		<tag k="place" v="hamlet" />
		<tag k="ssr:stedsnr" v="1077946" />
	</node>
	<node lat="59.64303433196759" lon="10.775885979158824" id="-15014">
		<tag k="fixme" v="consider place=hamlet" />
		<tag k="name" v="Rød" />
		<tag k="place" v="farm" />
		<tag k="ssr:stedsnr" v="1078663" />
	</node>
	<node lat="59.647333399248595" lon="10.78862419802563" id="-15015">
		<tag k="fixme" v="consider place=hamlet" />
		<tag k="name" v="Østre Brekke" />
		<tag k="place" v="farm" />
		<tag k="ssr:stedsnr" v="1078664" />
	</node>
	<node lat="59.65464025936793" lon="10.794275708740269" id="-15016">
		<tag k="fixme" v="consider place=hamlet" />
		<tag k="name" v="Moer" />
		<tag k="place" v="farm" />
		<tag k="ssr:stedsnr" v="1078665" />
	</node>
	<node lat="59.684080116763205" lon="10.792323301168185" id="-15017">
		<tag k="fixme" v="consider place=hamlet" />
		<tag k="name" v="Slørstad" />
		<tag k="place" v="farm" />
		<tag k="ssr:stedsnr" v="1078669" />
	</node>
	<node lat="59.68863623272983" lon="10.83863539491483" id="-15018">
		<tag k="fixme" v="consider place=hamlet" />
		<tag k="name" v="Østensjø" />
		<tag k="place" v="farm" />
		<tag k="ssr:stedsnr" v="1078670" />
	</node>
	<node lat="59.67841486906593" lon="10.824641166755557" id="-15019">
		<tag k="fixme" v="consider place=hamlet" />
		<tag k="name" v="Skuterud" />
		<tag k="place" v="farm" />
		<tag k="ssr:stedsnr" v="1078671" />
	</node>
	<node lat="59.63716516159754" lon="10.853157126628009" id="-15020">
		<tag k="name" v="Kroer" />
		<tag k="place" v="hamlet" />
		<tag k="ssr:stedsnr" v="1078748" />
	</node>
	<node lat="59.63710872002531" lon="10.83202012569412" id="-15021">
		<tag k="fixme" v="consider place=hamlet" />
		<tag k="name" v="Helgestad" />
		<tag k="place" v="farm" />
		<tag k="ssr:stedsnr" v="1078753" />
	</node>
	<node lat="59.69079007406037" lon="10.805399723171044" id="-15022">
		<tag k="alt_name" v="Hoelstad" />
		<tag k="name" v="Holstad" />
		<tag k="place" v="locality" />
		<tag k="ssr:stedsnr" v="1080621" />
	</node>
=======
	<node id="-245761" lat="59.6426833318" lon="10.8589861123">
		<tag k="name" v="Steinbråten" />
		<tag k="place" v="isolated_dwelling" />
		<tag k="ssr:stedsnr" v="447027" />
	</node>
>>>>>>> e1d4bc35ff8a6074a6f2e91616a996b547c36f15
</osm>
