<?xml version="1.0" encoding="UTF-8"?>
<osm version="0.6" generator="osmapis">
	<node lat="59.78490555355819" lon="10.780972227280955" id="-17079">
		<tag k="name" v="Gjersjøen" />
		<tag k="natural" v="water" />
		<tag k="ssr:stedsnr" v="4314" />
		<tag k="water" v="lake" />
	</node>
	<node lat="59.758730557424535" lon="10.779919437156412" id="-17080">
		<tag k="building" v="commercial" />
		<tag k="name" v="Ringnes" />
		<tag k="ssr:stedsnr" v="4408" />
	</node>
	<node lat="59.69198610853183" lon="10.763455547231686" id="-17081">
		<tag k="name" v="Sagstua" />
		<tag k="place" v="farm" />
		<tag k="ssr:stedsnr" v="4412" />
	</node>
	<node lat="59.68046396090126" lon="10.737475319064272" id="-17082">
		<tag k="fixme" v="consider place=hamlet" />
		<tag k="name" v="Trosterud" />
		<tag k="place" v="farm" />
		<tag k="ssr:stedsnr" v="4419" />
	</node>
	<node lat="59.75130496617885" lon="10.799949286705877" id="-17083">
		<tag k="fixme" v="consider place=hamlet" />
		<tag k="name" v="Nøstvet" />
		<tag k="place" v="farm" />
		<tag k="ssr:stedsnr" v="5370" />
	</node>
	<node lat="59.64939444218207" lon="10.795686117226358" id="-17084">
		<tag k="name" v="Brekkeskog" />
		<tag k="place" v="quarter" />
		<tag k="ssr:stedsnr" v="22283" />
	</node>
	<node lat="59.65121388948225" lon="10.752708338652608" id="-17085">
		<tag k="name" v="Lund" />
		<tag k="place" v="isolated_dwelling" />
		<tag k="ssr:stedsnr" v="22291" />
	</node>
	<node lat="59.64934166399011" lon="10.80314999382031" id="-17086">
		<tag k="name" v="Nylenna" />
		<tag k="place" v="farm" />
		<tag k="ssr:stedsnr" v="22298" />
	</node>
	<node lat="59.725947221698" lon="10.759166665137583" id="-17087">
		<tag k="name" v="Sporret" />
		<tag k="place" v="quarter" />
		<tag k="ssr:stedsnr" v="22440" />
	</node>
	<node lat="59.74445833027426" lon="10.740094445587987" id="-17088">
		<tag k="name" v="Ekeberg" />
		<tag k="place" v="isolated_dwelling" />
		<tag k="ssr:stedsnr" v="22442" />
	</node>
	<node lat="59.75752499561934" lon="10.745433341336964" id="-17089">
		<tag k="name" v="Fålemyra" />
		<tag k="natural" v="wetland" />
		<tag k="ssr:stedsnr" v="22809" />
	</node>
	<node lat="59.75449999740665" lon="10.766777782715403" id="-17090">
		<tag k="fixme" v="consider natural=peak for the most distinct mountains in the district" />
		<tag k="name" v="Midtåsen" />
		<tag k="natural" v="hill" />
		<tag k="place" v="locality" />
		<tag k="ssr:stedsnr" v="22811" />
	</node>
	<node lat="59.75834166234922" lon="10.726044438702868" id="-17091">
		<tag k="alt_name" v="Nebba" />
		<tag k="man_made" v="quay" />
		<tag k="name" v="Nebba brygge" />
		<tag k="place" v="locality" />
		<tag k="ssr:stedsnr" v="22825" />
	</node>
	<node lat="59.70513611435924" lon="10.76671388551556" id="-17092">
		<tag k="alt_name" v="Sundby østre" />
		<tag k="name" v="Østre Sundby" />
		<tag k="place" v="farm" />
		<tag k="ssr:stedsnr" v="23398" />
	</node>
	<node lat="59.68438889082228" lon="10.80505278109999" id="-17093">
		<tag k="name" v="Bjerklund" />
		<tag k="place" v="isolated_dwelling" />
		<tag k="ssr:stedsnr" v="23490" />
	</node>
	<node lat="59.73270555138557" lon="10.727055553288693" id="-17094">
		<tag k="name" v="Svartlagodden" />
		<tag k="natural" v="cape" />
		<tag k="ssr:stedsnr" v="58502" />
	</node>
	<node lat="59.72018333056343" lon="10.737488890802219" id="-17095">
		<tag k="name" v="Bekkelva" />
		<tag k="ssr:stedsnr" v="58505" />
		<tag k="waterway" v="stream" />
	</node>
	<node lat="59.654236254707584" lon="10.831513238121332" id="-17096">
		<tag k="fixme" v="consider place=hamlet" />
		<tag k="name" v="Bjørnebekk" />
		<tag k="place" v="farm" />
		<tag k="ssr:stedsnr" v="63279" />
	</node>
	<node lat="59.696681393201196" lon="10.8295957211442" id="-17097">
		<tag k="name" v="Kjølstad" />
		<tag k="place" v="hamlet" />
		<tag k="ssr:stedsnr" v="64015" />
	</node>
	<node lat="59.60953611106463" lon="10.848691668912936" id="-17098">
		<tag k="name" v="Tierudmåsan" />
		<tag k="natural" v="wetland" />
		<tag k="ssr:stedsnr" v="64367" />
	</node>
	<node lat="59.64294942394736" lon="10.700675180819129" id="-17099">
		<tag k="name" v="Gultvedt" />
		<tag k="place" v="farm" />
		<tag k="ssr:stedsnr" v="64855" />
	</node>
	<node lat="59.63176944342842" lon="10.853863895026983" id="-17100">
		<tag k="name" v="Eng" />
		<tag k="place" v="farm" />
		<tag k="ssr:stedsnr" v="83005" />
	</node>
	<node lat="59.725744446075495" lon="10.794375006394391" id="-17101">
		<tag k="name" v="Lilleby" />
		<tag k="place" v="isolated_dwelling" />
		<tag k="ssr:stedsnr" v="83020" />
	</node>
	<node lat="59.64288333386437" lon="10.837625001540726" id="-17102">
		<tag k="name" v="Revhaugbakken" />
		<tag k="natural" v="slope" />
		<tag k="place" v="locality" />
		<tag k="ssr:stedsnr" v="83034" />
	</node>
	<node lat="59.63275555237162" lon="10.848213891358606" id="-17103">
		<tag k="amenity" v="school" />
		<tag k="name" v="Kroer skole" />
		<tag k="ssr:stedsnr" v="83050" />
	</node>
	<node lat="59.70276666505772" lon="10.748011113183937" id="-17104">
		<tag k="name" v="Sundbyødegården" />
		<tag k="place" v="farm" />
		<tag k="ssr:stedsnr" v="83416" />
	</node>
	<node lat="59.73487221963182" lon="10.750097225555109" id="-17105">
		<tag k="name" v="Katteberget" />
		<tag k="natural" v="hill" />
		<tag k="place" v="locality" />
		<tag k="ssr:stedsnr" v="83444" />
	</node>
	<node lat="59.6521527738201" lon="10.789836103279479" id="-17106">
		<tag k="name" v="Moer" />
		<tag k="place" v="quarter" />
		<tag k="ssr:stedsnr" v="83308" />
	</node>
	<node lat="59.667113888790155" lon="10.777275001159365" id="-17107">
		<tag k="name" v="Sørhellinga" />
		<tag k="place" v="locality" />
		<tag k="ssr:stedsnr" v="83640" />
	</node>
	<node lat="59.67355555967266" lon="10.730911104311877" id="-17108">
		<tag k="name" v="Apaltun" />
		<tag k="place" v="isolated_dwelling" />
		<tag k="ssr:stedsnr" v="83687" />
	</node>
	<node lat="59.669655557253904" lon="10.729086113374564" id="-17109">
		<tag k="alt_name" v="Tokerud søndre" />
		<tag k="name" v="Søndre Tokerud" />
		<tag k="place" v="farm" />
		<tag k="ssr:stedsnr" v="83697" />
	</node>
	<node lat="59.754597220242" lon="10.812225000399225" id="-17110">
		<tag k="name" v="Rytterbenken" />
		<tag k="place" v="locality" />
		<tag k="ssr:stedsnr" v="83931" />
	</node>
	<node lat="59.71433889182163" lon="10.769138883982981" id="-17111">
		<tag k="name" v="Rislunden" />
		<tag k="place" v="isolated_dwelling" />
		<tag k="ssr:stedsnr" v="84338" />
	</node>
	<node lat="59.639431390765395" lon="10.79571858102867" id="-17112">
		<tag k="name" v="Hogstvet" />
		<tag k="place" v="hamlet" />
		<tag k="ssr:stedsnr" v="245285" />
	</node>
	<node lat="59.65164999932298" lon="10.77214721506571" id="-17113">
		<tag k="name" v="Herumhagen" />
		<tag k="place" v="farm" />
		<tag k="ssr:stedsnr" v="245237" />
	</node>
	<node lat="59.708196451565925" lon="10.787406775592043" id="-17114">
		<tag k="name" v="Sørli" />
		<tag k="place" v="farm" />
		<tag k="ssr:stedsnr" v="245363" />
	</node>
	<node lat="59.75060833076676" lon="10.810180552194765" id="-17115">
		<tag k="name" v="Dogga" />
		<tag k="place" v="locality" />
		<tag k="ssr:stedsnr" v="248373" />
	</node>
	<node lat="59.71980555951396" lon="10.773827775822095" id="-17116">
		<tag k="alt_name" v="Nordby" />
		<tag k="amenity" v="place_of_worship" />
		<tag k="denomination" v="lutheran" />
		<tag k="name" v="Nordby kirke" />
		<tag k="religion" v="christian" />
		<tag k="ssr:stedsnr" v="124501" />
	</node>
	<node lat="59.6977055565261" lon="10.772913882929316" id="-17117">
		<tag k="alt_name" v="Egge" />
		<tag k="name" v="Egget" />
		<tag k="place" v="farm" />
		<tag k="ssr:stedsnr" v="125422" />
	</node>
	<node lat="59.68606024819226" lon="10.806691648070009" id="-17118">
		<tag k="fixme" v="consider place=hamlet" />
		<tag k="name" v="Haugerud" />
		<tag k="place" v="farm" />
		<tag k="ssr:stedsnr" v="125425" />
	</node>
	<node lat="59.60575555226928" lon="10.864450007289019" id="-17119">
		<tag k="name" v="Piskenhus" />
		<tag k="place" v="locality" />
		<tag k="ssr:stedsnr" v="143034" />
	</node>
	<node lat="59.6816638871189" lon="10.778333336843838" id="-17120">
		<tag k="name" v="Lund" />
		<tag k="place" v="farm" />
		<tag k="ssr:stedsnr" v="143430" />
	</node>
	<node lat="59.666761114836355" lon="10.80551388400139" id="-17121">
		<tag k="junction" v="yes" />
		<tag k="name" v="Sentralholtet" />
		<tag k="place" v="locality" />
		<tag k="ssr:stedsnr" v="143632" />
	</node>
	<node lat="59.747336112777965" lon="10.741463880608881" id="-17122">
		<tag k="name" v="Libråten" />
		<tag k="place" v="farm" />
		<tag k="ssr:stedsnr" v="143813" />
	</node>
	<node lat="59.759616664476425" lon="10.728441668947784" id="-17123">
		<tag k="name" v="Linneflauet" />
		<tag k="place" v="isolated_dwelling" />
		<tag k="ssr:stedsnr" v="143814" />
	</node>
	<node lat="59.657794445086196" lon="10.713688892665429" id="-17124">
		<tag k="alt_name" v="Holstad søndre" />
		<tag k="name" v="Søndre Holstad" />
		<tag k="place" v="farm" />
		<tag k="ssr:stedsnr" v="143838" />
	</node>
	<node lat="59.75756388816898" lon="10.800250002699608" id="-17125">
		<tag k="fixme" v="consider natural=peak for the most distinct mountains in the district" />
		<tag k="name" v="Vinebergåsen" />
		<tag k="natural" v="hill" />
		<tag k="place" v="locality" />
		<tag k="ssr:stedsnr" v="143904" />
	</node>
	<node lat="59.75596388977666" lon="10.783186119419204" id="-17126">
		<tag k="junction" v="yes" />
		<tag k="name" v="Ringneskrysset" />
		<tag k="place" v="locality" />
		<tag k="ssr:stedsnr" v="143918" />
	</node>
	<node lat="59.66287222131008" lon="10.746130561353814" id="-17127">
		<tag k="bridge" v="yes" />
		<tag k="layer" v="1" />
		<tag k="name" v="Treider" />
		<tag k="ssr:stedsnr" v="167164" />
	</node>
	<node lat="59.65666666942512" lon="10.773122222030173" id="-17128">
		<tag k="name" v="Tomter" />
		<tag k="place" v="farm" />
		<tag k="ssr:stedsnr" v="185239" />
	</node>
	<node lat="59.72478611294276" lon="10.75086389023795" id="-17129">
		<tag k="name" v="Askehaugtjernet" />
		<tag k="natural" v="water" />
		<tag k="ssr:stedsnr" v="185547" />
	</node>
	<node lat="59.67985357795766" lon="10.768733656444292" id="-17130">
		<tag k="fixme" v="consider place=hamlet" />
		<tag k="name" v="Norderås" />
		<tag k="place" v="farm" />
		<tag k="ssr:stedsnr" v="186504" />
	</node>
	<node lat="59.68109134366078" lon="10.744307379038368" id="-17131">
		<tag k="fixme" v="consider place=hamlet" />
		<tag k="name" v="Fosterud" />
		<tag k="place" v="farm" />
		<tag k="ssr:stedsnr" v="186476" />
	</node>
	<node lat="59.61425833652326" lon="10.883927775906235" id="-17132">
		<tag k="name" v="Kroerbekken" />
		<tag k="ssr:stedsnr" v="265957" />
		<tag k="waterway" v="stream" />
	</node>
	<node lat="59.657691670774675" lon="10.705852777929818" id="-17133">
		<tag k="name" v="Skogstad" />
		<tag k="place" v="farm" />
		<tag k="ssr:stedsnr" v="265866" />
	</node>
	<node lat="59.651502774887355" lon="10.839088883001462" id="-17134">
		<tag k="alt_name" v="Sørli (nedl.)" />
		<tag k="name" v="Sørli" />
		<tag k="place" v="locality" />
		<tag k="ssr:stedsnr" v="265028" />
	</node>
	<node lat="59.65415278162737" lon="10.802388883319278" id="-17135">
		<tag k="name" v="Blåfjellet" />
		<tag k="place" v="hamlet" />
		<tag k="ssr:stedsnr" v="265328" />
	</node>
	<node lat="59.64837499565641" lon="10.760427784676342" id="-17136">
		<tag k="alt_name" v="Børsum midtre" />
		<tag k="name" v="Midtre Børsum" />
		<tag k="place" v="farm" />
		<tag k="ssr:stedsnr" v="265330" />
	</node>
	<node lat="59.69877777981382" lon="10.781491660581557" id="-17137">
		<tag k="alt_name" v="Sneis søndre" />
		<tag k="name" v="Søndre Sneis" />
		<tag k="place" v="farm" />
		<tag k="ssr:stedsnr" v="265449" />
	</node>
	<node lat="59.69987221939413" lon="10.779961116825705" id="-17138">
		<tag k="alt_name" v="Sneis vestre" />
		<tag k="name" v="Vestre Sneis" />
		<tag k="place" v="farm" />
		<tag k="ssr:stedsnr" v="265452" />
	</node>
	<node lat="59.680458330109154" lon="10.76590833148523" id="-17139">
		<tag k="leisure" v="pitch" />
		<tag k="name" v="Norderåsbakken" />
		<tag k="ssr:stedsnr" v="265688" />
	</node>
	<node lat="59.669183337677396" lon="10.777219437465728" id="-17140">
		<tag k="name" v="Frydenhaug" />
		<tag k="natural" v="hill" />
		<tag k="place" v="locality" />
		<tag k="ssr:stedsnr" v="265693" />
	</node>
	<node lat="59.733916667962056" lon="10.725208338765638" id="-17141">
		<tag k="name" v="Sundet" />
		<tag k="natural" v="strait" />
		<tag k="ssr:stedsnr" v="265463" />
	</node>
	<node lat="59.680513887854026" lon="10.812933324852748" id="-17142">
		<tag k="name" v="Sandli" />
		<tag k="place" v="isolated_dwelling" />
		<tag k="ssr:stedsnr" v="265675" />
	</node>
	<node lat="59.66367777540516" lon="10.786408324341705" id="-17143">
		<tag k="amenity" v="school" />
		<tag k="name" v="Åsgård skole" />
		<tag k="ssr:stedsnr" v="265680" />
	</node>
	<node lat="59.724526243833964" lon="10.732732525025154" id="-17144">
		<tag k="fixme" v="consider place=hamlet" />
		<tag k="name" v="Bekk" />
		<tag k="place" v="farm" />
		<tag k="ssr:stedsnr" v="267293" />
	</node>
	<node lat="59.68696110991409" lon="10.76563055737764" id="-17146">
		<tag k="name" v="Dylterud" />
		<tag k="place" v="farm" />
		<tag k="ssr:stedsnr" v="204359" />
	</node>
	<node lat="59.739527777961165" lon="10.758963885951262" id="-17147">
		<tag k="name" v="Homannskollen" />
		<tag k="natural" v="hill" />
		<tag k="place" v="locality" />
		<tag k="ssr:stedsnr" v="204393" />
	</node>
	<node lat="59.73231667001824" lon="10.740499997145564" id="-17148">
		<tag k="highway" v="bus_stop" />
		<tag k="name" v="Askehaug" />
		<tag k="ssr:stedsnr" v="204429" />
	</node>
	<node lat="59.759841666576776" lon="10.801324997615106" id="-17149">
		<tag k="name" v="Vinebergdalen" />
		<tag k="natural" v="valley" />
		<tag k="place" v="locality" />
		<tag k="ssr:stedsnr" v="204902" />
	</node>
	<node lat="59.75622500287363" lon="10.743263889223924" id="-17150">
		<tag k="name" v="Stormannsbråten" />
		<tag k="place" v="locality" />
		<tag k="ssr:stedsnr" v="204806" />
	</node>
	<node lat="59.72258055545212" lon="10.728583340786267" id="-17151">
		<tag k="name" v="Paris" />
		<tag k="place" v="locality" />
		<tag k="ssr:stedsnr" v="205409" />
	</node>
	<node lat="59.72292221783174" lon="10.728738885381215" id="-17152">
		<tag k="name" v="Sørlistranda" />
		<tag k="natural" v="beach" />
		<tag k="ssr:stedsnr" v="240487" />
	</node>
	<node lat="59.64321235161548" lon="10.700311072112465" id="-17153">
		<tag k="fixme" v="consider place=hamlet" />
		<tag k="name" v="Gultvet" />
		<tag k="place" v="farm" />
		<tag k="ssr:stedsnr" v="242185" />
	</node>
	<node lat="59.6614027760607" lon="10.77418611365242" id="-17154">
		<tag k="name" v="Sørås" />
		<tag k="place" v="farm" />
		<tag k="ssr:stedsnr" v="245451" />
	</node>
	<node lat="59.67035555156805" lon="10.787844444736242" id="-17155">
		<tag k="name" v="Åsmåsan" />
		<tag k="natural" v="wetland" />
		<tag k="ssr:stedsnr" v="246416" />
	</node>
	<node lat="59.69635000400092" lon="10.85107777620392" id="-17156">
		<tag k="alt_name" v="Hagalund" />
		<tag k="name" v="Hagelund" />
		<tag k="place" v="farm" />
		<tag k="ssr:stedsnr" v="246386" />
	</node>
	<node lat="59.7350519697916" lon="10.754995383874325" id="-17157">
		<tag k="fixme" v="consider place=hamlet" />
		<tag k="name" v="To" />
		<tag k="place" v="farm" />
		<tag k="ssr:stedsnr" v="246583" />
	</node>
	<node lat="59.74445000323352" lon="10.796744444387018" id="-17158">
		<tag k="name" v="Haretorvet" />
		<tag k="place" v="locality" />
		<tag k="ssr:stedsnr" v="265011" />
	</node>
	<node lat="59.73670278070733" lon="10.783472223923775" id="-17159">
		<tag k="name" v="Vassflobekken" />
		<tag k="ssr:stedsnr" v="265018" />
		<tag k="waterway" v="stream" />
	</node>
	<node lat="59.73315833053569" lon="10.79921388898669" id="-17160">
		<tag k="name" v="Firsprangsletta" />
		<tag k="place" v="locality" />
		<tag k="ssr:stedsnr" v="265021" />
	</node>
	<node lat="59.61442777809828" lon="10.873252772344118" id="-17161">
		<tag k="name" v="Østby" />
		<tag k="place" v="farm" />
		<tag k="ssr:stedsnr" v="265040" />
	</node>
	<node lat="59.702666667380235" lon="10.841024995958678" id="-17162">
		<tag k="name" v="Grønlund" />
		<tag k="place" v="farm" />
		<tag k="ssr:stedsnr" v="265088" />
	</node>
	<node lat="59.70675833560056" lon="10.785730555299226" id="-17163">
		<tag k="amenity" v="community_centre" />
		<tag k="name" v="Betania" />
		<tag k="ssr:stedsnr" v="265404" />
	</node>
	<node lat="59.71734444430646" lon="10.776369438546176" id="-17164">
		<tag k="junction" v="yes" />
		<tag k="name" v="Nordby" />
		<tag k="place" v="locality" />
		<tag k="ssr:stedsnr" v="265418" />
	</node>
	<node lat="59.643452777584024" lon="10.721722229516894" id="-17165">
		<tag k="alt_name" v="Iversrud nordre" />
		<tag k="name" v="Nordre Iversrud" />
		<tag k="place" v="farm" />
		<tag k="ssr:stedsnr" v="265308" />
	</node>
	<node lat="59.73169166635873" lon="10.737433337696261" id="-17166">
		<tag k="name" v="Sundet" />
		<tag k="place" v="locality" />
		<tag k="ssr:stedsnr" v="265504" />
	</node>
	<node lat="59.736705551088576" lon="10.75545000794582" id="-17167">
		<tag k="highway" v="bus_stop" />
		<tag k="name" v="Tohellinga" />
		<tag k="ssr:stedsnr" v="265506" />
	</node>
	<node lat="59.680080559669015" lon="10.737366660707485" id="-17168">
		<tag k="alt_name" v="Trosterud søndre" />
		<tag k="name" v="Søndre Trosterud" />
		<tag k="place" v="farm" />
		<tag k="ssr:stedsnr" v="265717" />
	</node>
	<node lat="59.6726555589765" lon="10.737949997932022" id="-17169">
		<tag k="name" v="Flyern" />
		<tag k="place" v="locality" />
		<tag k="ssr:stedsnr" v="265732" />
	</node>
	<node lat="59.62029444482067" lon="10.827327774437757" id="-17170">
		<tag k="name" v="Kølabonn" />
		<tag k="place" v="farm" />
		<tag k="ssr:stedsnr" v="265747" />
	</node>
	<node lat="59.61964444898544" lon="10.820816658455726" id="-17171">
		<tag k="name" v="Dammyra" />
		<tag k="place" v="farm" />
		<tag k="ssr:stedsnr" v="265748" />
	</node>
	<node lat="59.63479722486256" lon="10.809052784353021" id="-17172">
		<tag k="name" v="Tangen" />
		<tag k="place" v="farm" />
		<tag k="ssr:stedsnr" v="265750" />
	</node>
	<node lat="59.76398333709041" lon="10.785080554540569" id="-17173">
		<tag k="name" v="Tyvdalsbukta" />
		<tag k="natural" v="bay" />
		<tag k="ssr:stedsnr" v="265905" />
	</node>
	<node lat="59.753247222977635" lon="10.811694439718744" id="-17174">
		<tag k="bridge" v="yes" />
		<tag k="layer" v="1" />
		<tag k="name" v="Prestebroen" />
		<tag k="ssr:stedsnr" v="265916" />
	</node>
	<node lat="59.75609166363851" lon="10.72713610274972" id="-17175">
		<tag k="name" v="Kjøyabukta" />
		<tag k="natural" v="bay" />
		<tag k="ssr:stedsnr" v="265836" />
	</node>
	<node lat="59.70428055436032" lon="10.789019438694682" id="-17176">
		<tag k="name" v="Sneissletta" />
		<tag k="place" v="locality" />
		<tag k="ssr:stedsnr" v="266339" />
	</node>
	<node lat="59.70387499956002" lon="10.785374992035557" id="-17177">
		<tag k="name" v="Skremma" />
		<tag k="place" v="locality" />
		<tag k="ssr:stedsnr" v="508438" />
	</node>
	<node lat="59.663963888658564" lon="10.75089999495325" id="-17178">
		<tag k="amenity" v="school" />
		<tag k="name" v="Brønnerud skole" />
		<tag k="ssr:stedsnr" v="508680" />
	</node>
	<node lat="59.62643702037509" lon="10.820721600105362" id="-17179">
		<tag k="name" v="Bråta" />
		<tag k="old_name" v="Braate" />
		<tag k="place" v="hamlet" />
		<tag k="ssr:stedsnr" v="465082" />
	</node>
	<node lat="59.7574027787621" lon="10.789561111341921" id="-17180">
		<tag k="fixme" v="consider natural=peak for the most distinct mountains in the district" />
		<tag k="name" v="Lauvåsen" />
		<tag k="natural" v="hill" />
		<tag k="place" v="locality" />
		<tag k="ssr:stedsnr" v="308501" />
	</node>
	<node lat="59.69943333467254" lon="10.783191657920934" id="-17181">
		<tag k="alt_name" v="Sneis østre" />
		<tag k="name" v="Østre Sneis" />
		<tag k="place" v="farm" />
		<tag k="ssr:stedsnr" v="326465" />
	</node>
	<node lat="59.744008337309026" lon="10.724011104312444" id="-17182">
		<tag k="fixme" v="consider seamark:type=rock or natural=shoal" />
		<tag k="name" v="Tuskjær" />
		<tag k="place" v="islet" />
		<tag k="ssr:stedsnr" v="326484" />
	</node>
	<node lat="59.666552779892434" lon="10.751841664991334" id="-17183">
		<tag k="name" v="Brønnerudteigen" />
		<tag k="place" v="locality" />
		<tag k="ssr:stedsnr" v="326702" />
	</node>
	<node lat="59.661580551715645" lon="10.772905555511388" id="-17184">
		<tag k="name" v="Sørås" />
		<tag k="place" v="quarter" />
		<tag k="ssr:stedsnr" v="326704" />
	</node>
	<node lat="59.66187222458552" lon="10.804452773867837" id="-17185">
		<tag k="amenity" v="nursing_home" />
		<tag k="name" v="Follo helseheim" />
		<tag k="ssr:stedsnr" v="326659" />
	</node>
	<node lat="59.672997224471985" lon="10.81526389342709" id="-17186">
		<tag k="name" v="Kampenhaug" />
		<tag k="place" v="isolated_dwelling" />
		<tag k="ssr:stedsnr" v="326665" />
	</node>
	<node lat="59.662891662241606" lon="10.826675001351788" id="-17187">
		<tag k="name" v="Monsrud" />
		<tag k="place" v="farm" />
		<tag k="ssr:stedsnr" v="326666" />
	</node>
	<node lat="59.6720500014415" lon="10.798708328221506" id="-17188">
		<tag k="name" v="Grønnslett" />
		<tag k="place" v="quarter" />
		<tag k="ssr:stedsnr" v="326669" />
	</node>
	<node lat="59.6627222214159" lon="10.81740000360626" id="-17189">
		<tag k="name" v="Kjetilsrud" />
		<tag k="place" v="quarter" />
		<tag k="ssr:stedsnr" v="326671" />
	</node>
	<node lat="59.66424166809604" lon="10.80892500809989" id="-17190">
		<tag k="name" v="Dysterlia" />
		<tag k="place" v="quarter" />
		<tag k="ssr:stedsnr" v="326672" />
	</node>
	<node lat="59.75831944346963" lon="10.753047230031784" id="-17191">
		<tag k="fixme" v="consider natural=peak for the most distinct mountains in the district" />
		<tag k="name" v="Lauvåsen" />
		<tag k="natural" v="hill" />
		<tag k="place" v="locality" />
		<tag k="ssr:stedsnr" v="326809" />
	</node>
	<node lat="59.752099472660646" lon="10.723890712095404" id="-17192">
		<tag k="name" v="Bratli" />
		<tag k="place" v="isolated_dwelling" />
		<tag k="ssr:stedsnr" v="326811" />
	</node>
	<node lat="59.7197222217901" lon="10.728558340568926" id="-17193">
		<tag k="bridge" v="yes" />
		<tag k="layer" v="1" />
		<tag k="name" v="Bekkevoll" />
		<tag k="ssr:stedsnr" v="471132" />
	</node>
	<node lat="59.71776883365566" lon="10.760192642196072" id="-17194">
		<tag k="fixme" v="consider place=hamlet" />
		<tag k="name" v="Kaksrud" />
		<tag k="place" v="farm" />
		<tag k="ssr:stedsnr" v="367505" />
	</node>
	<node lat="59.74342168005425" lon="10.80645027919591" id="-17195">
		<tag k="name" v="Stuene" />
		<tag k="place" v="locality" />
		<tag k="ssr:stedsnr" v="367431" />
	</node>
	<node lat="59.64560832933161" lon="10.802652781339903" id="-17196">
		<tag k="alt_name" v="Eldor søndre" />
		<tag k="name" v="Søndre Eldor" />
		<tag k="place" v="farm" />
		<tag k="ssr:stedsnr" v="386307" />
	</node>
	<node lat="59.69762222369682" lon="10.770638890403102" id="-17197">
		<tag k="name" v="Kølabonn" />
		<tag k="place" v="isolated_dwelling" />
		<tag k="ssr:stedsnr" v="386397" />
	</node>
	<node lat="59.614077781604614" lon="10.828197220874486" id="-17198">
		<tag k="name" v="Nordskau" />
		<tag k="place" v="farm" />
		<tag k="ssr:stedsnr" v="386693" />
	</node>
	<node lat="59.63190833333855" lon="10.831424997422992" id="-17199">
		<tag k="junction" v="yes" />
		<tag k="name" v="Rød" />
		<tag k="place" v="locality" />
		<tag k="ssr:stedsnr" v="386694" />
	</node>
	<node lat="59.750005554723764" lon="10.757111110933305" id="-17200">
		<tag k="name" v="Storekleivbekken" />
		<tag k="ssr:stedsnr" v="386811" />
		<tag k="waterway" v="stream" />
	</node>
	<node lat="59.750663892595625" lon="10.772138882344523" id="-17201">
		<tag k="name" v="Langmyr" />
		<tag k="natural" v="wetland" />
		<tag k="ssr:stedsnr" v="386815" />
	</node>
	<node lat="59.634691668184445" lon="10.814830562659337" id="-17203">
		<tag k="name" v="Ommen" />
		<tag k="place" v="farm" />
		<tag k="ssr:stedsnr" v="488267" />
	</node>
	<node lat="59.630946645412806" lon="10.835049953460006" id="-17204">
		<tag k="fixme" v="consider place=hamlet" />
		<tag k="name" v="Rød" />
		<tag k="place" v="farm" />
		<tag k="ssr:stedsnr" v="488292" />
	</node>
	<node lat="59.65830346344189" lon="10.80221388261455" id="-17205">
		<tag k="fixme" v="consider place=hamlet" />
		<tag k="name" v="Dyster" />
		<tag k="place" v="farm" />
		<tag k="ssr:stedsnr" v="488224" />
	</node>
	<node lat="59.64701389117014" lon="10.788513891617017" id="-17206">
		<tag k="alt_name" v="Brekka, m;Brekke mellom;Brekken mellem" />
		<tag k="name" v="Mellom-Brekke" />
		<tag k="place" v="farm" />
		<tag k="ssr:stedsnr" v="488239" />
	</node>
	<node lat="59.642896292738655" lon="10.82965932539739" id="-17207">
		<tag k="fixme" v="consider place=hamlet" />
		<tag k="name" v="Revhaug" />
		<tag k="place" v="farm" />
		<tag k="ssr:stedsnr" v="488245" />
	</node>
	<node lat="59.74463333364277" lon="10.722119444469184" id="-17208">
		<tag k="bay" v="fjord" />
		<tag k="name" v="Bunnefjorden" />
		<tag k="natural" v="bay" />
		<tag k="ssr:stedsnr" v="488471" />
	</node>
	<node lat="59.671516668796585" lon="10.768672213729571" id="-17209">
		<tag k="alt_name" v="Ås" />
		<tag k="amenity" v="place_of_worship" />
		<tag k="denomination" v="lutheran" />
		<tag k="name" v="Ås kirke" />
		<tag k="religion" v="christian" />
		<tag k="ssr:stedsnr" v="489486" />
	</node>
	<node lat="59.75303333325739" lon="10.753822219235841" id="-17210">
		<tag k="alt_name" v="Nybråtan" />
		<tag k="name" v="Nybråten" />
		<tag k="place" v="isolated_dwelling" />
		<tag k="ssr:stedsnr" v="490369" />
	</node>
	<node lat="59.70322061219912" lon="10.827339903401002" id="-17211">
		<tag k="name" v="Sjønhaug" />
		<tag k="place" v="farm" />
		<tag k="ssr:stedsnr" v="428363" />
	</node>
	<node lat="59.72087019354095" lon="10.762926789165977" id="-17212">
		<tag k="fixme" v="consider place=hamlet" />
		<tag k="name" v="Kirkerud" />
		<tag k="place" v="farm" />
		<tag k="ssr:stedsnr" v="428521" />
	</node>
	<node lat="59.670714439785975" lon="10.701217149031352" id="-17213">
		<tag k="name" v="Furu" />
		<tag k="place" v="hamlet" />
		<tag k="ssr:stedsnr" v="428870" />
	</node>
	<node lat="59.65256666802806" lon="10.686733328951885" id="-17214">
		<tag k="alt_name" v="Skoftestad, søndre;Skoftestad søndre" />
		<tag k="name" v="Søndre Skoftestad" />
		<tag k="place" v="farm" />
		<tag k="ssr:stedsnr" v="429828" />
	</node>
	<node lat="59.64268333184208" lon="10.858986112270228" id="-17215">
		<tag k="name" v="Steinbråten" />
		<tag k="place" v="isolated_dwelling" />
		<tag k="ssr:stedsnr" v="447027" />
	</node>
	<node lat="59.68630832926832" lon="10.805802771515454" id="-17216">
		<tag k="alt_name" v="Haugerud vestre" />
		<tag k="name" v="Vestre Haugerud" />
		<tag k="place" v="farm" />
		<tag k="ssr:stedsnr" v="447402" />
	</node>
	<node lat="59.74080833478182" lon="10.75675555257951" id="-17217">
		<tag k="name" v="Skinnervika" />
		<tag k="natural" v="bay" />
		<tag k="ssr:stedsnr" v="447423" />
	</node>
	<node lat="59.72668055638069" lon="10.76889721525189" id="-17218">
		<tag k="name" v="Kirkerudmåsan" />
		<tag k="natural" v="wetland" />
		<tag k="ssr:stedsnr" v="447424" />
	</node>
	<node lat="59.736950003465495" lon="10.74338888375359" id="-17219">
		<tag k="name" v="Kjonebakken" />
		<tag k="natural" v="slope" />
		<tag k="place" v="locality" />
		<tag k="ssr:stedsnr" v="447429" />
	</node>
	<node lat="59.72515833261807" lon="10.773222220135153" id="-17220">
		<tag k="fixme" v="consider natural=peak for the most distinct mountains in the district" />
		<tag k="name" v="Vardåsen" />
		<tag k="natural" v="hill" />
		<tag k="place" v="locality" />
		<tag k="ssr:stedsnr" v="447430" />
	</node>
	<node lat="59.734305554058054" lon="10.756066657804654" id="-17221">
		<tag k="name" v="Togrenda" />
		<tag k="place" v="quarter" />
		<tag k="ssr:stedsnr" v="447435" />
	</node>
	<node lat="59.68555555555448" lon="10.773277774946969" id="-17222">
		<tag k="name" v="Stein" />
		<tag k="place" v="farm" />
		<tag k="ssr:stedsnr" v="447378" />
	</node>
	<node lat="59.69097500250798" lon="10.766186109581966" id="-17223">
		<tag k="name" v="Kjærsrud" />
		<tag k="place" v="isolated_dwelling" />
		<tag k="ssr:stedsnr" v="447379" />
	</node>
	<node lat="59.6960364838834" lon="10.744769772612063" id="-17224">
		<tag k="name" v="Lurenga" />
		<tag k="place" v="isolated_dwelling" />
		<tag k="ssr:stedsnr" v="447384" />
	</node>
	<node lat="59.69604444510659" lon="10.79834722523317" id="-17225">
		<tag k="name" v="Sneissletta" />
		<tag k="place" v="locality" />
		<tag k="ssr:stedsnr" v="447392" />
	</node>
	<node lat="59.689425000809344" lon="10.783472221493454" id="-17226">
		<tag k="name" v="Bølstadbekken" />
		<tag k="ssr:stedsnr" v="447398" />
		<tag k="waterway" v="stream" />
	</node>
	<node lat="59.664602781580534" lon="10.77753889499477" id="-17227">
		<tag k="amenity" v="community_centre" />
		<tag k="name" v="Studentsamfunnet" />
		<tag k="ssr:stedsnr" v="447613" />
	</node>
	<node lat="59.756461111600345" lon="10.72476665886602" id="-17228">
		<tag k="name" v="Speilodden" />
		<tag k="natural" v="cape" />
		<tag k="ssr:stedsnr" v="447816" />
	</node>
	<node lat="59.74859722570853" lon="10.742572215504493" id="-17229">
		<tag k="name" v="Kjærneshøgda" />
		<tag k="natural" v="hill" />
		<tag k="place" v="locality" />
		<tag k="ssr:stedsnr" v="447785" />
	</node>
	<node lat="59.75863610722977" lon="10.792202779343135" id="-17230">
		<tag k="name" v="Haretorvet" />
		<tag k="place" v="locality" />
		<tag k="ssr:stedsnr" v="447905" />
	</node>
	<node lat="59.72135833375329" lon="10.77242499276064" id="-17231">
		<tag k="alt_name" v="Nordby nordre" />
		<tag k="name" v="Nordre Nordby" />
		<tag k="place" v="farm" />
		<tag k="ssr:stedsnr" v="448371" />
	</node>
	<node lat="59.59514262577186" lon="10.857539835346302" id="-17232">
		<tag k="fixme" v="consider place=hamlet" />
		<tag k="name" v="Bjørnstad" />
		<tag k="place" v="farm" />
		<tag k="ssr:stedsnr" v="671179" />
	</node>
	<node lat="59.74626944523995" lon="10.728291670614714" id="-17233">
		<tag k="name" v="Bogen" />
		<tag k="place" v="isolated_dwelling" />
		<tag k="ssr:stedsnr" v="450247" />
	</node>
	<node lat="59.70070278141359" lon="10.774261108206566" id="-17234">
		<tag k="name" v="Verpet" />
		<tag k="place" v="farm" />
		<tag k="ssr:stedsnr" v="671394" />
	</node>
	<node lat="59.75395833250219" lon="10.764666660745744" id="-17235">
		<tag k="alt_name" v="Torvet" />
		<tag k="name" v="Torget" />
		<tag k="place" v="locality" />
		<tag k="ssr:stedsnr" v="672352" />
	</node>
	<node lat="59.76191388804097" lon="10.786172225508475" id="-17236">
		<tag k="alt_name" v="Tyvdalen" />
		<tag k="name" v="Tjuvedalen" />
		<tag k="natural" v="valley" />
		<tag k="place" v="locality" />
		<tag k="ssr:stedsnr" v="672402" />
	</node>
	<node lat="59.645474738827076" lon="10.805289808103868" id="-17237">
		<tag k="fixme" v="consider place=hamlet" />
		<tag k="name" v="Eldor" />
		<tag k="place" v="farm" />
		<tag k="ssr:stedsnr" v="488247" />
	</node>
	<node lat="59.665790331165965" lon="10.742992417686386" id="-17238">
		<tag k="fixme" v="consider place=hamlet" />
		<tag k="name" v="Kvestad" />
		<tag k="place" v="farm" />
		<tag k="ssr:stedsnr" v="488441" />
	</node>
	<node lat="59.66545068956517" lon="10.720790201379325" id="-17239">
		<tag k="fixme" v="consider place=hamlet" />
		<tag k="name" v="Rustad" />
		<tag k="place" v="farm" />
		<tag k="ssr:stedsnr" v="488443" />
	</node>
	<node lat="59.611470857811376" lon="10.856524876610525" id="-17240">
		<tag k="fixme" v="consider place=hamlet" />
		<tag k="name" v="Tierud" />
		<tag k="place" v="farm" />
		<tag k="ssr:stedsnr" v="488351" />
	</node>
	<node lat="59.699084187209145" lon="10.781421358544536" id="-17241">
		<tag k="fixme" v="consider place=hamlet" />
		<tag k="name" v="Sneis" />
		<tag k="place" v="farm" />
		<tag k="ssr:stedsnr" v="489418" />
	</node>
	<node lat="59.65553994745155" lon="10.690911654059962" id="-17242">
		<tag k="name" v="Skoftestad" />
		<tag k="place" v="hamlet" />
		<tag k="ssr:stedsnr" v="489829" />
	</node>
	<node lat="59.65098888567262" lon="10.760333335182768" id="-17243">
		<tag k="alt_name" v="Børsum øvre" />
		<tag k="name" v="Øvre Børsum" />
		<tag k="place" v="farm" />
		<tag k="ssr:stedsnr" v="508308" />
	</node>
	<node lat="59.64171121702429" lon="10.76354383254421" id="-17244">
		<tag k="name" v="Børsumbråten" />
		<tag k="place" v="farm" />
		<tag k="ssr:stedsnr" v="508312" />
	</node>
	<node lat="59.645138889083555" lon="10.80732777004047" id="-17245">
		<tag k="alt_name" v="Eldor østre" />
		<tag k="name" v="Østre Eldor" />
		<tag k="place" v="farm" />
		<tag k="ssr:stedsnr" v="508328" />
	</node>
	<node lat="59.709049999519394" lon="10.785202774155083" id="-17246">
		<tag k="name" v="Langli" />
		<tag k="place" v="farm" />
		<tag k="ssr:stedsnr" v="508410" />
	</node>
	<node lat="59.740977777963884" lon="10.728730552530797" id="-17247">
		<tag k="name" v="Skorva" />
		<tag k="place" v="locality" />
		<tag k="ssr:stedsnr" v="508497" />
	</node>
	<node lat="59.67649444544792" lon="10.778475003179281" id="-17248">
		<tag k="alt_name" v="Østby østre" />
		<tag k="name" v="Østre Østby" />
		<tag k="place" v="farm" />
		<tag k="ssr:stedsnr" v="508663" />
	</node>
	<node lat="59.670613891398496" lon="10.701097225343043" id="-17249">
		<tag k="alt_name" v="Furu søndre" />
		<tag k="name" v="Søndre Furu" />
		<tag k="place" v="farm" />
		<tag k="ssr:stedsnr" v="543571" />
	</node>
	<node lat="59.63907910932835" lon="10.778547956973922" id="-17250">
		<tag k="name" v="Rud" />
		<tag k="place" v="farm" />
		<tag k="ssr:stedsnr" v="549303" />
	</node>
	<node lat="59.636869445110605" lon="10.852222215503843" id="-17251">
		<tag k="alt_name" v="Kroer, s;Kroer søndre;Sør-Kroer" />
		<tag k="name" v="Søndre Kroer" />
		<tag k="place" v="farm" />
		<tag k="ssr:stedsnr" v="549307" />
	</node>
	<node lat="59.66448562232594" lon="10.77525672883206" id="-17252">
		<tag k="name" v="Skogsdammen" />
		<tag k="natural" v="water" />
		<tag k="ssr:stedsnr" v="690685" />
	</node>
	<node lat="59.74209444022689" lon="10.782602772185337" id="-17253">
		<tag k="name" v="Vinterbro" />
		<tag k="place" v="hamlet" />
		<tag k="ssr:stedsnr" v="690018" />
	</node>
	<node lat="59.72709444733575" lon="10.787166658510621" id="-17254">
		<tag k="name" v="Verket" />
		<tag k="place" v="locality" />
		<tag k="ssr:stedsnr" v="690019" />
	</node>
	<node lat="59.74065555253261" lon="10.806199997716567" id="-17255">
		<tag k="name" v="Øverstuene" />
		<tag k="place" v="farm" />
		<tag k="ssr:stedsnr" v="690023" />
	</node>
	<node lat="59.659380558911145" lon="10.73102221734466" id="-17256">
		<tag k="alt_name" v="Treider vestre" />
		<tag k="name" v="Vestre Treider" />
		<tag k="place" v="farm" />
		<tag k="ssr:stedsnr" v="690324" />
	</node>
	<node lat="59.6945472237541" lon="10.766652771952245" id="-17257">
		<tag k="name" v="Sundbyteigen" />
		<tag k="place" v="farm" />
		<tag k="ssr:stedsnr" v="690448" />
	</node>
	<node lat="59.71845555114959" lon="10.774705555073913" id="-17258">
		<tag k="alt_name" v="Nordby vestre" />
		<tag k="name" v="Vestre Nordby" />
		<tag k="place" v="farm" />
		<tag k="ssr:stedsnr" v="690421" />
	</node>
	<node lat="59.71879166750193" lon="10.793097216346453" id="-17259">
		<tag k="amenity" v="school" />
		<tag k="name" v="Solberg skole" />
		<tag k="ssr:stedsnr" v="690425" />
	</node>
	<node lat="59.6635138879626" lon="10.78860277678116" id="-17260">
		<tag k="name" v="Åsgård" />
		<tag k="place" v="farm" />
		<tag k="ssr:stedsnr" v="690674" />
	</node>
	<node lat="59.62721671285211" lon="10.81937990511325" id="-17261">
		<tag k="fixme" v="consider place=hamlet" />
		<tag k="name" v="Vestbråta" />
		<tag k="place" v="farm" />
		<tag k="ssr:stedsnr" v="690744" />
	</node>
	<node lat="59.756680559338086" lon="10.733244446480821" id="-17262">
		<tag k="alt_name" v="Kjærnesdammen" />
		<tag k="name" v="Feilingdammen" />
		<tag k="natural" v="water" />
		<tag k="ssr:stedsnr" v="690847" />
	</node>
	<node lat="59.66723888487957" lon="10.696516659822805" id="-17263">
		<tag k="name" v="Follemyra" />
		<tag k="place" v="locality" />
		<tag k="ssr:stedsnr" v="690859" />
	</node>
	<node lat="59.65337499880643" lon="10.706133331380173" id="-17264">
		<tag k="alt_name" v="Vennersgård østre;Østre Vennersgård" />
		<tag k="name" v="Østre Venneskål" />
		<tag k="place" v="farm" />
		<tag k="ssr:stedsnr" v="690874" />
	</node>
	<node lat="59.76084166409492" lon="10.796780550586297" id="-17265">
		<tag k="name" v="Langslordalen" />
		<tag k="natural" v="valley" />
		<tag k="place" v="locality" />
		<tag k="ssr:stedsnr" v="690922" />
	</node>
	<node lat="59.739402776488525" lon="10.78861666723184" id="-17266">
		<tag k="name" v="Tremannsdelet" />
		<tag k="place" v="locality" />
		<tag k="ssr:stedsnr" v="568006" />
	</node>
	<node lat="59.72828889038002" lon="10.798444452102258" id="-17267">
		<tag k="name" v="Nystuen" />
		<tag k="place" v="isolated_dwelling" />
		<tag k="ssr:stedsnr" v="568016" />
	</node>
	<node lat="59.743222221864414" lon="10.7906111039712" id="-17268">
		<tag k="name" v="Vinterdalen" />
		<tag k="natural" v="valley" />
		<tag k="place" v="locality" />
		<tag k="ssr:stedsnr" v="568022" />
	</node>
	<node lat="59.693330556929666" lon="10.83407221489944" id="-17269">
		<tag k="name" v="Østensjøbekken" />
		<tag k="ssr:stedsnr" v="568081" />
		<tag k="waterway" v="stream" />
	</node>
	<node lat="59.65145000035925" lon="10.820200007758142" id="-17270">
		<tag k="ford" v="yes" />
		<tag k="name" v="Bjørnebekkvadet" />
		<tag k="place" v="locality" />
		<tag k="ssr:stedsnr" v="568362" />
	</node>
	<node lat="59.676527781764804" lon="10.745577781801387" id="-17271">
		<tag k="alt_name" v="Fosterud søndre" />
		<tag k="name" v="Søndre Fosterud" />
		<tag k="place" v="farm" />
		<tag k="ssr:stedsnr" v="568658" />
	</node>
	<node lat="59.747855557061904" lon="10.76836666719907" id="-17272">
		<tag k="name" v="Hestehagemyr" />
		<tag k="natural" v="wetland" />
		<tag k="ssr:stedsnr" v="568805" />
	</node>
	<node lat="59.65147830868073" lon="10.692888883962443" id="-17273">
		<tag k="name" v="Solheim" />
		<tag k="place" v="isolated_dwelling" />
		<tag k="ssr:stedsnr" v="568809" />
	</node>
	<node lat="59.73491943988173" lon="10.726691674684467" id="-17274">
		<tag k="name" v="Søndre Breivollodden" />
		<tag k="natural" v="cape" />
		<tag k="ssr:stedsnr" v="603452" />
	</node>
	<node lat="59.663422221731324" lon="10.733877781705322" id="-17275">
		<tag k="name" v="Haugsten" />
		<tag k="place" v="quarter" />
		<tag k="ssr:stedsnr" v="609442" />
	</node>
	<node lat="59.66323633456831" lon="10.794329149697987" id="-17276">
		<tag k="alt_name" v="Ås" />
		<tag k="name" v="Ås stasjon" />
		<tag k="railway" v="station" />
		<tag k="ssr:stedsnr" v="609445" />
		<tag k="train" v="yes" />
	</node>
	<node lat="59.70989453369942" lon="10.752045641734366" id="-17277">
		<tag k="fixme" v="consider place=hamlet" />
		<tag k="name" v="Grøterud" />
		<tag k="place" v="farm" />
		<tag k="ssr:stedsnr" v="609540" />
	</node>
	<node lat="59.68565534721446" lon="10.818290713799952" id="-17278">
		<tag k="fixme" v="consider place=hamlet" />
		<tag k="name" v="Askjum" />
		<tag k="place" v="farm" />
		<tag k="ssr:stedsnr" v="610490" />
	</node>
	<node lat="59.65685806205361" lon="10.680443645990394" id="-17279">
		<tag k="name" v="Klommestein" />
		<tag k="place" v="hamlet" />
		<tag k="ssr:stedsnr" v="610833" />
	</node>
	<node lat="59.65000555792477" lon="10.761258337328572" id="-17280">
		<tag k="alt_name" v="Børsum søndre" />
		<tag k="name" v="Søndre Børsum" />
		<tag k="place" v="farm" />
		<tag k="ssr:stedsnr" v="629300" />
	</node>
	<node lat="59.71926944748952" lon="10.784430559637993" id="-17281">
		<tag k="junction" v="yes" />
		<tag k="name" v="Nygårdskrysset" />
		<tag k="place" v="locality" />
		<tag k="ssr:stedsnr" v="629411" />
	</node>
	<node lat="59.68658611514038" lon="10.811327769179295" id="-17282">
		<tag k="amenity" v="school" />
		<tag k="name" v="Holstad skole" />
		<tag k="ssr:stedsnr" v="629442" />
	</node>
	<node lat="59.69061666445545" lon="10.816708341334198" id="-17283">
		<tag k="building" v="commercial" />
		<tag k="name" v="Felleskjøpet" />
		<tag k="ssr:stedsnr" v="629443" />
	</node>
	<node lat="59.681986108733426" lon="10.800024994520204" id="-17284">
		<tag k="name" v="Lefsrud" />
		<tag k="place" v="farm" />
		<tag k="ssr:stedsnr" v="629450" />
	</node>
	<node lat="59.66098889256573" lon="10.77015832888742" id="-17285">
		<tag k="name" v="Pentagon" />
		<tag k="place" v="quarter" />
		<tag k="ssr:stedsnr" v="629698" />
	</node>
	<node lat="59.67866944081196" lon="10.766102781476896" id="-17286">
		<tag k="name" v="Norderåsbekken" />
		<tag k="ssr:stedsnr" v="629702" />
		<tag k="waterway" v="stream" />
	</node>
	<node lat="59.75345277516082" lon="10.747847225265007" id="-17287">
		<tag k="name" v="Bjønnemyra" />
		<tag k="natural" v="wetland" />
		<tag k="ssr:stedsnr" v="629809" />
	</node>
	<node lat="59.628620397358105" lon="10.87348994545667" id="-17289">
		<tag k="fixme" v="consider place=hamlet" />
		<tag k="name" v="Stensrud" />
		<tag k="place" v="farm" />
		<tag k="ssr:stedsnr" v="670321" />
	</node>
	<node lat="59.641675000496754" lon="10.775688894531058" id="-17290">
		<tag k="alt_name" v="Rød søndre" />
		<tag k="name" v="Søndre Rød" />
		<tag k="place" v="farm" />
		<tag k="ssr:stedsnr" v="671029" />
	</node>
	<node lat="59.64911389055448" lon="10.81423332828215" id="-17291">
		<tag k="alt_name" v="Eldor;Eldor nordre" />
		<tag k="name" v="Nordre Eldor" />
		<tag k="place" v="farm" />
		<tag k="ssr:stedsnr" v="671032" />
	</node>
	<node lat="59.66227737254065" lon="10.701305937777478" id="-17292">
		<tag k="fixme" v="consider place=hamlet" />
		<tag k="name" v="Børsumrud" />
		<tag k="place" v="farm" />
		<tag k="ssr:stedsnr" v="671874" />
	</node>
	<node lat="59.745477776612525" lon="10.794891664504897" id="-17293">
		<tag k="fixme" v="consider natural=peak for the most distinct mountains in the district" />
		<tag k="name" v="Flyflauåsen" />
		<tag k="natural" v="hill" />
		<tag k="place" v="locality" />
		<tag k="ssr:stedsnr" v="690031" />
	</node>
	<node lat="59.69781388629864" lon="10.830522217343068" id="-17294">
		<tag k="alt_name" v="Kjølstad nordre" />
		<tag k="name" v="Nordre Kjølstad" />
		<tag k="place" v="farm" />
		<tag k="ssr:stedsnr" v="690478" />
	</node>
	<node lat="59.73386666656628" lon="10.741219450660271" id="-17295">
		<tag k="fixme" v="multiple name tags, choose one and add the other to alt_name" />
		<tag k="name" v="Fålebekken;Nesebekken" />
		<tag k="ssr:stedsnr" v="690490" />
		<tag k="waterway" v="stream" />
	</node>
	<node lat="59.67180833743132" lon="10.728694438761327" id="-17296">
		<tag k="alt_name" v="Tokerud nordre" />
		<tag k="name" v="Nordre Tokerud" />
		<tag k="place" v="farm" />
		<tag k="ssr:stedsnr" v="690723" />
	</node>
	<node lat="59.67285000173319" lon="10.757383334658932" id="-17297">
		<tag k="name" v="Nordskogen" />
		<tag k="place" v="locality" />
		<tag k="ssr:stedsnr" v="690724" />
	</node>
	<node lat="59.676469446777986" lon="10.760177772653012" id="-17298">
		<tag k="name" v="Halebrenna" />
		<tag k="place" v="locality" />
		<tag k="ssr:stedsnr" v="690725" />
	</node>
	<node lat="59.658147217846235" lon="10.678941667201983" id="-17299">
		<tag k="alt_name" v="Klommestein søndre" />
		<tag k="name" v="Søndre Klommestein" />
		<tag k="place" v="farm" />
		<tag k="ssr:stedsnr" v="690886" />
	</node>
	<node lat="59.66625277544789" lon="10.80816389191931" id="-17300">
		<tag k="name" v="Søndre Rustad" />
		<tag k="place" v="quarter" />
		<tag k="ssr:stedsnr" v="691634" />
	</node>
	<node lat="59.65413898273684" lon="10.70522645369109" id="-17301">
		<tag k="alt_name" v="Vennersgård" />
		<tag k="fixme" v="consider place=hamlet" />
		<tag k="name" v="Venneskål" />
		<tag k="place" v="farm" />
		<tag k="ssr:stedsnr" v="725137" />
	</node>
	<node lat="59.66066997673363" lon="10.732190372558891" id="-17302">
		<tag k="name" v="Treider" />
		<tag k="place" v="hamlet" />
		<tag k="ssr:stedsnr" v="731206" />
	</node>
	<node lat="59.651313892946725" lon="10.801924992935197" id="-17303">
		<tag k="name" v="Solli" />
		<tag k="place" v="farm" />
		<tag k="ssr:stedsnr" v="731209" />
	</node>
	<node lat="59.6437708612951" lon="10.723485748179739" id="-17304">
		<tag k="fixme" v="consider place=hamlet" />
		<tag k="name" v="Iversrud" />
		<tag k="place" v="farm" />
		<tag k="ssr:stedsnr" v="731219" />
	</node>
	<node lat="59.7375055550452" lon="10.729186106704887" id="-17305">
		<tag k="name" v="Breivoll" />
		<tag k="place" v="farm" />
		<tag k="ssr:stedsnr" v="731570" />
	</node>
	<node lat="59.708152774805065" lon="10.799274994768593" id="-17306">
		<tag k="alt_name" v="Salstein (nedl.)" />
		<tag k="name" v="Salstein" />
		<tag k="place" v="locality" />
		<tag k="ssr:stedsnr" v="732406" />
	</node>
	<node lat="59.72539444413377" lon="10.792244446773685" id="-17307">
		<tag k="name" v="Verken" />
		<tag k="place" v="farm" />
		<tag k="ssr:stedsnr" v="750012" />
	</node>
	<node lat="59.645619446988306" lon="10.8289888946938" id="-17308">
		<tag k="name" v="Berget" />
		<tag k="place" v="locality" />
		<tag k="ssr:stedsnr" v="750324" />
	</node>
	<node lat="59.723047224174756" lon="10.787077769023707" id="-17309">
		<tag k="name" v="Nordeng" />
		<tag k="place" v="farm" />
		<tag k="ssr:stedsnr" v="750364" />
	</node>
	<node lat="59.66515277999359" lon="10.725344445062614" id="-17310">
		<tag k="name" v="Haughagen" />
		<tag k="place" v="farm" />
		<tag k="ssr:stedsnr" v="750657" />
	</node>
	<node lat="59.661036106979985" lon="10.734249991795322" id="-17311">
		<tag k="alt_name" v="Treider østre" />
		<tag k="name" v="Østre Treider" />
		<tag k="place" v="farm" />
		<tag k="ssr:stedsnr" v="750659" />
	</node>
	<node lat="59.6813666636836" lon="10.737272225226716" id="-17312">
		<tag k="alt_name" v="Trosterud nordre" />
		<tag k="name" v="Nordre Trosterud" />
		<tag k="place" v="farm" />
		<tag k="ssr:stedsnr" v="750662" />
	</node>
	<node lat="59.76256944402864" lon="10.780772227499675" id="-17313">
		<tag k="name" v="Amundsneset" />
		<tag k="natural" v="cape" />
		<tag k="ssr:stedsnr" v="750898" />
	</node>
	<node lat="59.74801110811458" lon="10.803999995611841" id="-17314">
		<tag k="name" v="Prærien" />
		<tag k="place" v="locality" />
		<tag k="ssr:stedsnr" v="750911" />
	</node>
	<node lat="59.7505000035572" lon="10.787947221534964" id="-17315">
		<tag k="name" v="Utsikten" />
		<tag k="ssr:stedsnr" v="750918" />
		<tag k="tourism" v="viewpoint" />
	</node>
	<node lat="59.72278888547375" lon="10.729961111422686" id="-17317">
		<tag k="name" v="Paris" />
		<tag k="place" v="isolated_dwelling" />
		<tag k="ssr:stedsnr" v="908492" />
	</node>
	<node lat="59.721380552734935" lon="10.729050002063547" id="-17318">
		<tag k="name" v="Elva" />
		<tag k="place" v="isolated_dwelling" />
		<tag k="ssr:stedsnr" v="908495" />
	</node>
	<node lat="59.63971265115782" lon="10.744283763017634" id="-17319">
		<tag k="alt_name" v="Støkken, nordre;Støkken nordre" />
		<tag k="fixme" v="consider place=hamlet" />
		<tag k="name" v="Nordre Støkken" />
		<tag k="place" v="farm" />
		<tag k="ssr:stedsnr" v="791290" />
	</node>
	<node lat="59.641594444909714" lon="10.752283335949674" id="-17320">
		<tag k="name" v="Bjerkeskau" />
		<tag k="place" v="isolated_dwelling" />
		<tag k="ssr:stedsnr" v="791291" />
	</node>
	<node lat="59.66482222480875" lon="10.831922218319805" id="-17321">
		<tag k="name" v="Rustadmåsan" />
		<tag k="natural" v="wetland" />
		<tag k="ssr:stedsnr" v="791449" />
	</node>
	<node lat="59.664427777036174" lon="10.886924997588954" id="-17322">
		<tag k="name" v="Kråkstadelva" />
		<tag k="ssr:stedsnr" v="791487" />
		<tag k="waterway" v="stream" />
	</node>
	<node lat="59.740016669161285" lon="10.744799996709387" id="-17323">
		<tag k="alt_name" v="Fåle, m;Fåle mellom;Mellom Fåle;Søndre Fåle" />
		<tag k="name" v="Mellom-Fåle" />
		<tag k="place" v="farm" />
		<tag k="ssr:stedsnr" v="791491" />
	</node>
	<node lat="59.61647661553374" lon="10.864998008047758" id="-17324">
		<tag k="fixme" v="consider place=hamlet" />
		<tag k="name" v="Toverud" />
		<tag k="place" v="farm" />
		<tag k="ssr:stedsnr" v="792336" />
	</node>
	<node lat="59.689314634070584" lon="10.744510114016146" id="-17325">
		<tag k="name" v="Årungen" />
		<tag k="natural" v="water" />
		<tag k="ssr:stedsnr" v="792399" />
		<tag k="water" v="lake" />
	</node>
	<node lat="59.71588610963554" lon="10.775488896963441" id="-17326">
		<tag k="name" v="Ris" />
		<tag k="place" v="farm" />
		<tag k="ssr:stedsnr" v="792538" />
	</node>
	<node lat="59.7310305591313" lon="10.783405556283721" id="-17327">
		<tag k="name" v="Kveldro" />
		<tag k="place" v="isolated_dwelling" />
		<tag k="ssr:stedsnr" v="792602" />
	</node>
	<node lat="59.610124462093744" lon="10.886316003996868" id="-17328">
		<tag k="fixme" v="consider place=hamlet" />
		<tag k="name" v="Bakk" />
		<tag k="place" v="farm" />
		<tag k="ssr:stedsnr" v="913360" />
	</node>
	<node lat="59.711850001419364" lon="10.794758328352117" id="-17329">
		<tag k="fixme" v="consider natural=peak for the most distinct mountains in the district" />
		<tag k="name" v="Sørliåsen" />
		<tag k="natural" v="hill" />
		<tag k="place" v="locality" />
		<tag k="ssr:stedsnr" v="913372" />
	</node>
	<node lat="59.709511112750434" lon="10.772433337606392" id="-17330">
		<tag k="name" v="Østenga" />
		<tag k="place" v="farm" />
		<tag k="ssr:stedsnr" v="913373" />
	</node>
	<node lat="59.72696223681523" lon="10.748989114966951" id="-17331">
		<tag k="fixme" v="consider place=hamlet" />
		<tag k="name" v="Askehaug" />
		<tag k="place" v="farm" />
		<tag k="ssr:stedsnr" v="913580" />
	</node>
	<node lat="59.65425833694384" lon="10.794063897340394" id="-17332">
		<tag k="alt_name" v="Moer søndre" />
		<tag k="name" v="Søndre Moer" />
		<tag k="place" v="farm" />
		<tag k="ssr:stedsnr" v="914020" />
	</node>
	<node lat="59.68300545814159" lon="10.834875948894275" id="-17333">
		<tag k="fixme" v="consider place=hamlet" />
		<tag k="name" v="Hol" />
		<tag k="place" v="farm" />
		<tag k="ssr:stedsnr" v="914455" />
	</node>
	<node lat="59.6768972215249" lon="10.823033340475401" id="-17334">
		<tag k="alt_name" v="Skuterud, søndre;Skuterud søndre" />
		<tag k="name" v="Søndre Skuterud" />
		<tag k="place" v="farm" />
		<tag k="ssr:stedsnr" v="914458" />
	</node>
	<node lat="59.65817017191135" lon="10.712519543081923" id="-17335">
		<tag k="fixme" v="consider place=hamlet" />
		<tag k="name" v="Holstad" />
		<tag k="place" v="farm" />
		<tag k="ssr:stedsnr" v="914820" />
	</node>
	<node lat="59.75386388794932" lon="10.729963888913563" id="-17336">
		<tag k="alt_name" v="Øvre Køya;Kjøye" />
		<tag k="name" v="Kjøya" />
		<tag k="place" v="hamlet" />
		<tag k="ssr:stedsnr" v="915360" />
	</node>
	<node lat="59.75152500183196" lon="10.763883327415854" id="-17337">
		<tag k="alt_name" v="Pollefløyten" />
		<tag k="name" v="Fløyta" />
		<tag k="place" v="locality" />
		<tag k="ssr:stedsnr" v="915361" />
	</node>
	<node lat="59.75077500352118" lon="10.780361111744153" id="-17338">
		<tag k="name" v="Høyungen" />
		<tag k="place" v="farm" />
		<tag k="ssr:stedsnr" v="915366" />
	</node>
	<node lat="59.63414444317417" lon="10.847977773628786" id="-17339">
		<tag k="name" v="Vollholen" />
		<tag k="place" v="hamlet" />
		<tag k="ssr:stedsnr" v="811003" />
	</node>
	<node lat="59.73701666868244" lon="10.793922225213114" id="-17340">
		<tag k="fixme" v="consider natural=peak for the most distinct mountains in the district" />
		<tag k="name" v="Nordbyåsen" />
		<tag k="natural" v="hill" />
		<tag k="place" v="locality" />
		<tag k="ssr:stedsnr" v="811033" />
	</node>
	<node lat="59.735847225463594" lon="10.775930561008048" id="-17341">
		<tag k="name" v="Myråsdalen" />
		<tag k="natural" v="valley" />
		<tag k="place" v="locality" />
		<tag k="ssr:stedsnr" v="811035" />
	</node>
	<node lat="59.64514444777503" lon="10.833063883736852" id="-17342">
		<tag k="junction" v="yes" />
		<tag k="name" v="Revhaug" />
		<tag k="place" v="locality" />
		<tag k="ssr:stedsnr" v="811041" />
	</node>
	<node lat="59.650047218021996" lon="10.72500555849576" id="-17343">
		<tag k="name" v="Iversrudmåsan" />
		<tag k="natural" v="wetland" />
		<tag k="ssr:stedsnr" v="811280" />
	</node>
	<node lat="59.657563887292746" lon="10.780911111462592" id="-17344">
		<tag k="name" v="Landås" />
		<tag k="place" v="quarter" />
		<tag k="ssr:stedsnr" v="811284" />
	</node>
	<node lat="59.65421235093235" lon="10.743496623220175" id="-17345">
		<tag k="fixme" v="consider place=hamlet" />
		<tag k="name" v="Dalen" />
		<tag k="place" v="farm" />
		<tag k="ssr:stedsnr" v="811294" />
	</node>
	<node lat="59.70171666334755" lon="10.828719440005061" id="-17346">
		<tag k="name" v="Kjølstadhøgda" />
		<tag k="place" v="quarter" />
		<tag k="ssr:stedsnr" v="811418" />
	</node>
	<node lat="59.74213888832264" lon="10.730805554592422" id="-17347">
		<tag k="name" v="Strandenga" />
		<tag k="place" v="farm" />
		<tag k="ssr:stedsnr" v="811442" />
	</node>
	<node lat="59.64944444629047" lon="10.809294436283912" id="-17348">
		<tag k="name" v="Ødegården" />
		<tag k="place" v="farm" />
		<tag k="ssr:stedsnr" v="811308" />
	</node>
	<node lat="59.70004999620636" lon="10.743783334934339" id="-17349">
		<tag k="name" v="Sollia" />
		<tag k="place" v="farm" />
		<tag k="ssr:stedsnr" v="811398" />
	</node>
	<node lat="59.697247221143236" lon="10.760811116406945" id="-17350">
		<tag k="alt_name" v="Skau" />
		<tag k="name" v="Skaug" />
		<tag k="place" v="farm" />
		<tag k="ssr:stedsnr" v="811400" />
	</node>
	<node lat="59.675849997929134" lon="10.749988893817175" id="-17351">
		<tag k="name" v="Morteberget" />
		<tag k="natural" v="cape" />
		<tag k="ssr:stedsnr" v="811680" />
	</node>
	<node lat="59.75095278079898" lon="10.725288884191446" id="-17352">
		<tag k="name" v="Skrekken" />
		<tag k="place" v="isolated_dwelling" />
		<tag k="ssr:stedsnr" v="811805" />
	</node>
	<node lat="59.66796110967557" lon="10.689511119233115" id="-17353">
		<tag k="alt_name" v="Torp østre" />
		<tag k="name" v="Østre Torp" />
		<tag k="place" v="farm" />
		<tag k="ssr:stedsnr" v="811819" />
	</node>
	<node lat="59.643966666360974" lon="10.713355559456515" id="-17354">
		<tag k="alt_name" v="Myrer søndre" />
		<tag k="name" v="Søndre Myrer" />
		<tag k="place" v="farm" />
		<tag k="ssr:stedsnr" v="811832" />
	</node>
	<node lat="59.75269999690617" lon="10.765386116788981" id="-17355">
		<tag k="name" v="Fløytemyr" />
		<tag k="natural" v="wetland" />
		<tag k="ssr:stedsnr" v="811785" />
	</node>
	<node lat="59.75365555385604" lon="10.730219442433228" id="-17356">
		<tag k="name" v="Øvre Kjøye" />
		<tag k="place" v="isolated_dwelling" />
		<tag k="ssr:stedsnr" v="845777" />
	</node>
	<node lat="59.65494444565366" lon="10.72564722361725" id="-17357">
		<tag k="alt_name" v="Haug, søndre;Haug søndre" />
		<tag k="name" v="Søndre Haug" />
		<tag k="place" v="farm" />
		<tag k="ssr:stedsnr" v="852261" />
	</node>
	<node lat="59.64453055206468" lon="10.774436108483409" id="-17358">
		<tag k="alt_name" v="Rød;Rød nordre" />
		<tag k="name" v="Nordre Rød" />
		<tag k="place" v="farm" />
		<tag k="ssr:stedsnr" v="852280" />
	</node>
	<node lat="59.6589048568419" lon="10.7261530538264" id="-17359">
		<tag k="name" v="Haug" />
		<tag k="place" v="hamlet" />
		<tag k="ssr:stedsnr" v="852461" />
	</node>
	<node lat="59.66121667027675" lon="10.685941660615217" id="-17360">
		<tag k="alt_name" v="Fjøser;Fjøser søndre" />
		<tag k="name" v="Søndre Fjøser" />
		<tag k="place" v="farm" />
		<tag k="ssr:stedsnr" v="853019" />
	</node>
	<node lat="59.6874472226374" lon="10.792677769447756" id="-17361">
		<tag k="alt_name" v="Slørstad;Slørstad nordre" />
		<tag k="name" v="Nordre Slørstad" />
		<tag k="place" v="farm" />
		<tag k="ssr:stedsnr" v="853407" />
	</node>
	<node lat="59.69157502647003" lon="10.78003842577003" id="-17362">
		<tag k="fixme" v="consider place=hamlet" />
		<tag k="name" v="Bølstad" />
		<tag k="place" v="farm" />
		<tag k="ssr:stedsnr" v="853408" />
	</node>
	<node lat="59.68863783633045" lon="10.815084137943042" id="-17363">
		<tag k="alt_name" v="Holstad" />
		<tag k="name" v="Holstad stasjon" />
		<tag k="railway" v="station" />
		<tag k="ssr:stedsnr" v="853410" />
		<tag k="train" v="yes" />
	</node>
	<node lat="59.690325001217545" lon="10.83865278110503" id="-17364">
		<tag k="alt_name" v="Østensjø, nordre;Østensjø nordre" />
		<tag k="name" v="Nordre Østensjø" />
		<tag k="place" v="farm" />
		<tag k="ssr:stedsnr" v="853411" />
	</node>
	<node lat="59.81796388860528" lon="10.771363889277035" id="-17365">
		<tag k="name" v="Gjersjøelva" />
		<tag k="old_name" v="Hvitebjørnselv" />
		<tag k="ssr:stedsnr" v="854251" />
		<tag k="waterway" v="stream" />
	</node>
	<node lat="59.68600575204466" lon="10.753253488393245" id="-17366">
		<tag k="fixme" v="consider place=hamlet" />
		<tag k="name" v="Berg" />
		<tag k="place" v="farm" />
		<tag k="ssr:stedsnr" v="854415" />
	</node>
	<node lat="59.755180555018065" lon="10.807688895544864" id="-17367">
		<tag k="alt_name" v="Haugbroåsen" />
		<tag k="fixme" v="consider natural=peak for the most distinct mountains in the district" />
		<tag k="name" v="Haugbruåsen" />
		<tag k="natural" v="hill" />
		<tag k="place" v="locality" />
		<tag k="ssr:stedsnr" v="855379" />
	</node>
	<node lat="59.739419445032425" lon="10.776861110329573" id="-17368">
		<tag k="name" v="Myrås" />
		<tag k="place" v="isolated_dwelling" />
		<tag k="ssr:stedsnr" v="872020" />
	</node>
	<node lat="59.64851944368026" lon="10.821016667553684" id="-17369">
		<tag k="fixme" v="consider natural=peak for the most distinct mountains in the district" />
		<tag k="name" v="Tiuråsen" />
		<tag k="natural" v="hill" />
		<tag k="place" v="locality" />
		<tag k="ssr:stedsnr" v="872318" />
	</node>
	<node lat="59.65890555437157" lon="10.747169441396029" id="-17370">
		<tag k="name" v="Nygård" />
		<tag k="place" v="quarter" />
		<tag k="ssr:stedsnr" v="933299" />
	</node>
	<node lat="59.65662222536097" lon="10.744725001804705" id="-17371">
		<tag k="name" v="Beverdalen" />
		<tag k="place" v="quarter" />
		<tag k="ssr:stedsnr" v="933300" />
	</node>
	<node lat="59.64698333551751" lon="10.800422216547906" id="-17372">
		<tag k="name" v="Granheimlia" />
		<tag k="natural" v="slope" />
		<tag k="place" v="locality" />
		<tag k="ssr:stedsnr" v="933320" />
	</node>
	<node lat="59.63955555265924" lon="10.797911103695812" id="-17373">
		<tag k="alt_name" v="Hogstvet østre" />
		<tag k="name" v="Østre Hogstvet" />
		<tag k="place" v="farm" />
		<tag k="ssr:stedsnr" v="933334" />
	</node>
	<node lat="59.7616305599376" lon="10.727669447976517" id="-17374">
		<tag k="name" v="Tomta" />
		<tag k="place" v="locality" />
		<tag k="ssr:stedsnr" v="933836" />
	</node>
	<node lat="59.65430920225009" lon="10.68641161230454" id="-17375">
		<tag k="name" v="Knapmyra" />
		<tag k="place" v="farm" />
		<tag k="ssr:stedsnr" v="933838" />
	</node>
	<node lat="59.6636249985131" lon="10.817358329240435" id="-17376">
		<tag k="junction" v="yes" />
		<tag k="name" v="Rustadporten" />
		<tag k="place" v="locality" />
		<tag k="ssr:stedsnr" v="933266" />
	</node>
	<node lat="59.66806944389319" lon="10.798861119047684" id="-17377">
		<tag k="leisure" v="pitch" />
		<tag k="name" v="Ås stadion" />
		<tag k="ssr:stedsnr" v="933271" />
	</node>
	<node lat="59.64127222331767" lon="10.790738893433817" id="-17378">
		<tag k="name" v="Sand" />
		<tag k="place" v="isolated_dwelling" />
		<tag k="ssr:stedsnr" v="933346" />
	</node>
	<node lat="59.66032777773945" lon="10.810569438679861" id="-17379">
		<tag k="name" v="Dysterbråten" />
		<tag k="place" v="locality" />
		<tag k="ssr:stedsnr" v="933677" />
	</node>
	<node lat="59.67400833741437" lon="10.744872222476795" id="-17380">
		<tag k="landuse" v="meadow" />
		<tag k="name" v="Vassenga" />
		<tag k="ssr:stedsnr" v="933726" />
	</node>
	<node lat="59.75976666558847" lon="10.784549993428069" id="-17381">
		<tag k="fixme" v="consider natural=peak for the most distinct mountains in the district" />
		<tag k="name" v="Tømmeråsen" />
		<tag k="natural" v="hill" />
		<tag k="place" v="locality" />
		<tag k="ssr:stedsnr" v="933925" />
	</node>
	<node lat="59.76459444406721" lon="10.788758331900286" id="-17382">
		<tag k="name" v="Flauenberg" />
		<tag k="place" v="locality" />
		<tag k="ssr:stedsnr" v="933943" />
	</node>
	<node lat="59.66864999684672" lon="10.715838881377685" id="-17383">
		<tag k="alt_name" v="Hogsmark søndre" />
		<tag k="name" v="Søndre Hogsmark" />
		<tag k="place" v="farm" />
		<tag k="ssr:stedsnr" v="933875" />
	</node>
	<node lat="59.65488888709986" lon="10.79397500877846" id="-17384">
		<tag k="alt_name" v="Moer;Moer nordre" />
		<tag k="name" v="Nordre Moer" />
		<tag k="place" v="farm" />
		<tag k="ssr:stedsnr" v="913244" />
	</node>
	<node lat="59.700816670054905" lon="10.756613882535769" id="-17385">
		<tag k="name" v="Ødemark" />
		<tag k="place" v="farm" />
		<tag k="ssr:stedsnr" v="914403" />
	</node>
	<node lat="59.690933954845164" lon="10.753597975929322" id="-17386">
		<tag k="alt_name" v="Syverud (nedl.)" />
		<tag k="fixme" v="consider place=hamlet" />
		<tag k="name" v="Syverrud" />
		<tag k="place" v="farm" />
		<tag k="ssr:stedsnr" v="914415" />
	</node>
	<node lat="59.6715025605533" lon="10.727429125419766" id="-17387">
		<tag k="fixme" v="consider place=hamlet" />
		<tag k="name" v="Tokerud" />
		<tag k="place" v="farm" />
		<tag k="ssr:stedsnr" v="914478" />
	</node>
	<node lat="59.63939166425223" lon="10.835249991039339" id="-17388">
		<tag k="name" v="Furumoen" />
		<tag k="place" v="farm" />
		<tag k="ssr:stedsnr" v="933044" />
	</node>
	<node lat="59.725486110109706" lon="10.763833331229824" id="-17389">
		<tag k="alt_name" v="Nordbytun ungd. skole" />
		<tag k="amenity" v="school" />
		<tag k="name" v="Nordbytun ungdomsskole" />
		<tag k="ssr:stedsnr" v="933506" />
	</node>
	<node lat="59.7326805541444" lon="10.745719443123113" id="-17390">
		<tag k="name" v="Enerhaugen" />
		<tag k="place" v="farm" />
		<tag k="ssr:stedsnr" v="933510" />
	</node>
	<node lat="59.745066666025544" lon="10.756830552253472" id="-17391">
		<tag k="name" v="Pollen" />
		<tag k="place" v="locality" />
		<tag k="ssr:stedsnr" v="933529" />
	</node>
	<node lat="59.695711112875365" lon="10.764969437134837" id="-17392">
		<tag k="name" v="Teigen" />
		<tag k="place" v="farm" />
		<tag k="ssr:stedsnr" v="933445" />
	</node>
	<node lat="59.613811110211245" lon="10.822786106187166" id="-17393">
		<tag k="name" v="Myrvoll" />
		<tag k="place" v="farm" />
		<tag k="ssr:stedsnr" v="933736" />
	</node>
	<node lat="59.676000001154314" lon="10.776772226923852" id="-17394">
		<tag k="alt_name" v="Østby vestre" />
		<tag k="name" v="Vestre Østby" />
		<tag k="place" v="farm" />
		<tag k="ssr:stedsnr" v="933688" />
	</node>
	<node lat="59.67441666839931" lon="10.788569447344392" id="-17395">
		<tag k="fixme" v="consider natural=peak for the most distinct mountains in the district" />
		<tag k="name" v="Hellerudåsen" />
		<tag k="natural" v="hill" />
		<tag k="place" v="locality" />
		<tag k="ssr:stedsnr" v="933696" />
	</node>
	<node lat="59.65623333465217" lon="10.682680550376713" id="-17396">
		<tag k="alt_name" v="Klommestein østre" />
		<tag k="name" v="Østre Klommestein" />
		<tag k="place" v="farm" />
		<tag k="ssr:stedsnr" v="933886" />
	</node>
	<node lat="59.64666944104786" lon="10.712894450602542" id="-17397">
		<tag k="alt_name" v="Myrer vestre" />
		<tag k="name" v="Vestre Myrer" />
		<tag k="place" v="farm" />
		<tag k="ssr:stedsnr" v="933889" />
	</node>
	<node lat="59.66605311764768" lon="10.809473047403698" id="-17399">
		<tag k="amenity" v="place_of_worship" />
		<tag k="denomination" v="lutheran" />
		<tag k="name" v="Ås arbeidskirke" />
		<tag k="religion" v="christian" />
		<tag k="ssr:stedsnr" v="989310" />
	</node>
	<node lat="59.62711742765105" lon="10.812438183514297" id="-17403">
		<tag k="name" v="Granerud" />
		<tag k="place" v="farm" />
		<tag k="ssr:stedsnr" v="3293" />
	</node>
	<node lat="59.65274166394691" lon="10.72938056158315" id="-17404">
		<tag k="name" v="Spornes" />
		<tag k="place" v="farm" />
		<tag k="ssr:stedsnr" v="3223" />
	</node>
	<node lat="59.64418916448217" lon="10.793447209879986" id="-17405">
		<tag k="alt_name" v="Brekka, s;Brekke søndre;Brekken søndre" />
		<tag k="fixme" v="consider place=hamlet" />
		<tag k="name" v="Søndre Brekke" />
		<tag k="place" v="farm" />
		<tag k="ssr:stedsnr" v="3245" />
	</node>
	<node lat="59.64989351624802" lon="10.773659467612099" id="-17406">
		<tag k="fixme" v="consider place=hamlet" />
		<tag k="name" v="Herum" />
		<tag k="place" v="farm" />
		<tag k="ssr:stedsnr" v="3249" />
	</node>
	<node lat="59.74250277968728" lon="10.743505550729555" id="-17407">
		<tag k="alt_name" v="Fåle, nordre;Fåle nordre" />
		<tag k="name" v="Nordre Fåle" />
		<tag k="place" v="farm" />
		<tag k="ssr:stedsnr" v="3453" />
	</node>
	<node lat="59.70756085946771" lon="10.771515394709768" id="-17408">
		<tag k="fixme" v="consider place=hamlet" />
		<tag k="name" v="Melby" />
		<tag k="place" v="farm" />
		<tag k="ssr:stedsnr" v="3339" />
	</node>
	<node lat="59.70406388637608" lon="10.7921722187893" id="-17409">
		<tag k="name" v="Bjerkeskau" />
		<tag k="place" v="farm" />
		<tag k="ssr:stedsnr" v="3345" />
	</node>
	<node lat="59.72716666908565" lon="10.774183326417203" id="-17410">
		<tag k="fixme" v="consider natural=peak for the most distinct mountains in the district" />
		<tag k="name" v="Kirkerudåsen" />
		<tag k="natural" v="hill" />
		<tag k="place" v="locality" />
		<tag k="ssr:stedsnr" v="3537" />
	</node>
	<node lat="59.691779606878065" lon="10.78750185553638" id="-17411">
		<tag k="fixme" v="consider place=hamlet" />
		<tag k="name" v="Pukstad" />
		<tag k="place" v="farm" />
		<tag k="ssr:stedsnr" v="4398" />
	</node>
	<node lat="59.65260555344336" lon="10.690349993355099" id="-17412">
		<tag k="name" v="Kantebakke" />
		<tag k="place" v="farm" />
		<tag k="ssr:stedsnr" v="4845" />
	</node>
	<node lat="59.73530277953999" lon="10.774194439393778" id="-17413">
		<tag k="name" v="Furukollen" />
		<tag k="natural" v="hill" />
		<tag k="place" v="locality" />
		<tag k="ssr:stedsnr" v="22424" />
	</node>
	<node lat="59.74469722066001" lon="10.726922217942782" id="-17414">
		<tag k="name" v="Strandengkollen" />
		<tag k="natural" v="hill" />
		<tag k="place" v="locality" />
		<tag k="ssr:stedsnr" v="22426" />
	</node>
	<node lat="59.72590000035104" lon="10.796869447012188" id="-17415">
		<tag k="alt_name" v="Solberg nordre" />
		<tag k="name" v="Nordre Solberg" />
		<tag k="place" v="farm" />
		<tag k="ssr:stedsnr" v="22014" />
	</node>
	<node lat="59.732266664551844" lon="10.798833337401678" id="-17416">
		<tag k="name" v="Svartbekk" />
		<tag k="ssr:stedsnr" v="22022" />
		<tag k="waterway" v="stream" />
	</node>
	<node lat="59.6635694425736" lon="10.778141657980235" id="-17417">
		<tag k="leisure" v="pitch" />
		<tag k="name" v="Storebrand stadion" />
		<tag k="ssr:stedsnr" v="22256" />
	</node>
	<node lat="59.7198217069088" lon="10.786488544477862" id="-17418">
		<tag k="fixme" v="consider place=hamlet" />
		<tag k="name" v="Nygård" />
		<tag k="place" v="farm" />
		<tag k="ssr:stedsnr" v="22363" />
	</node>
	<node lat="59.720086115111634" lon="10.798075007334727" id="-17419">
		<tag k="alt_name" v="Solberg østre" />
		<tag k="name" v="Østre Solberg" />
		<tag k="place" v="farm" />
		<tag k="ssr:stedsnr" v="22367" />
	</node>
	<node lat="59.662711110443205" lon="10.746072229131665" id="-17420">
		<tag k="junction" v="yes" />
		<tag k="name" v="Korsegården" />
		<tag k="place" v="locality" />
		<tag k="ssr:stedsnr" v="22660" />
	</node>
	<node lat="59.681130552594766" lon="10.750719441178731" id="-17421">
		<tag k="name" v="Kinnåsen" />
		<tag k="place" v="isolated_dwelling" />
		<tag k="ssr:stedsnr" v="22664" />
	</node>
	<node lat="59.673297224175315" lon="10.74757221641762" id="-17422">
		<tag k="name" v="Fagernes" />
		<tag k="place" v="isolated_dwelling" />
		<tag k="ssr:stedsnr" v="22669" />
	</node>
	<node lat="59.67760833699082" lon="10.731005552475851" id="-17423">
		<tag k="name" v="Hønserud" />
		<tag k="place" v="farm" />
		<tag k="ssr:stedsnr" v="22670" />
	</node>
	<node lat="59.67433888511761" lon="10.726411116663883" id="-17424">
		<tag k="name" v="Bekkevang" />
		<tag k="place" v="farm" />
		<tag k="ssr:stedsnr" v="22674" />
	</node>
	<node lat="59.66627573341382" lon="10.763471436383519" id="-17425">
		<tag k="leisure" v="park" />
		<tag k="name" v="Fougnerhaugen" />
		<tag k="ssr:stedsnr" v="22676" />
	</node>
	<node lat="59.65301944203913" lon="10.704430560714457" id="-17426">
		<tag k="alt_name" v="Vennersgård vestre;Vestre Vennersgård" />
		<tag k="name" v="Vestre Venneskål" />
		<tag k="place" v="farm" />
		<tag k="ssr:stedsnr" v="22844" />
	</node>
	<node lat="59.644591667399936" lon="10.716458333528912" id="-17427">
		<tag k="alt_name" v="Myrer østre" />
		<tag k="name" v="Østre Myrer" />
		<tag k="place" v="farm" />
		<tag k="ssr:stedsnr" v="22849" />
	</node>
	<node lat="59.64784999650864" lon="10.686797224915825" id="-17428">
		<tag k="alt_name" v="Kinn søndre" />
		<tag k="name" v="Søndre Kinn" />
		<tag k="place" v="farm" />
		<tag k="ssr:stedsnr" v="22853" />
	</node>
	<node lat="59.76004166710956" lon="10.807708328020661" id="-17429">
		<tag k="bridge" v="yes" />
		<tag k="layer" v="1" />
		<tag k="name" v="Dalsbekken" />
		<tag k="ssr:stedsnr" v="46140" />
	</node>
	<node lat="59.76098333562592" lon="10.726772215640093" id="-17430">
		<tag k="name" v="Granum" />
		<tag k="place" v="isolated_dwelling" />
		<tag k="ssr:stedsnr" v="56760" />
	</node>
	<node lat="59.74692500364468" lon="10.7243194460184" id="-17431">
		<tag k="name" v="Strandengnebba" />
		<tag k="natural" v="cape" />
		<tag k="ssr:stedsnr" v="58463" />
	</node>
	<node lat="59.62651388544185" lon="10.86248333756848" id="-17432">
		<tag k="fixme" v="consider natural=peak for the most distinct mountains in the district" />
		<tag k="name" v="Gulliåsen" />
		<tag k="natural" v="hill" />
		<tag k="place" v="locality" />
		<tag k="ssr:stedsnr" v="64322" />
	</node>
	<node lat="59.62635000071997" lon="10.824177781575077" id="-17433">
		<tag k="fixme" v="multiple name tags, choose one and add the other to alt_name" />
		<tag k="name" v="Østbråta;Bråte, nordre;Nordre Bråte" />
		<tag k="place" v="farm" />
		<tag k="ssr:stedsnr" v="64326" />
	</node>
	<node lat="59.65004846874594" lon="10.791292606023386" id="-17434">
		<tag k="alt_name" v="Brekka, nordre;Brekke nordre;Brekken nordre" />
		<tag k="fixme" v="consider place=hamlet" />
		<tag k="name" v="Nordre Brekke" />
		<tag k="place" v="farm" />
		<tag k="ssr:stedsnr" v="63298" />
	</node>
	<node lat="59.70563947623386" lon="10.78597452714495" id="-17435">
		<tag k="name" v="Nordenga" />
		<tag k="place" v="farm" />
		<tag k="ssr:stedsnr" v="63400" />
	</node>
	<node lat="59.74030000275748" lon="10.752583329035904" id="-17436">
		<tag k="name" v="Pollevannet" />
		<tag k="natural" v="water" />
		<tag k="ssr:stedsnr" v="63529" />
	</node>
	<node lat="59.6964427367134" lon="10.822197030707361" id="-17437">
		<tag k="alt_name" v="Kjølstad;Kjølstad vestre (nedl.)" />
		<tag k="name" v="Vestre Kjølstad" />
		<tag k="place" v="farm" />
		<tag k="ssr:stedsnr" v="64394" />
	</node>
	<node lat="59.68770277642696" lon="10.836624995039275" id="-17438">
		<tag k="alt_name" v="Østensjø, søndre;Østensjø søndre" />
		<tag k="name" v="Søndre Østensjø" />
		<tag k="place" v="farm" />
		<tag k="ssr:stedsnr" v="64398" />
	</node>
	<node lat="59.693202093384485" lon="10.843399242039986" id="-17439">
		<tag k="fixme" v="consider place=hamlet" />
		<tag k="name" v="Haga" />
		<tag k="place" v="farm" />
		<tag k="ssr:stedsnr" v="64399" />
	</node>
	<node lat="59.67326113834476" lon="10.822262539299384" id="-17440">
		<tag k="fixme" v="consider place=hamlet" />
		<tag k="name" v="Torderud" />
		<tag k="place" v="farm" />
		<tag k="ssr:stedsnr" v="64446" />
	</node>
	<node lat="59.670938888237956" lon="10.81251111169315" id="-17441">
		<tag k="name" v="Nyborg" />
		<tag k="place" v="isolated_dwelling" />
		<tag k="ssr:stedsnr" v="64447" />
	</node>
	<node lat="59.67600517737556" lon="10.778698360616932" id="-17442">
		<tag k="fixme" v="consider place=hamlet" />
		<tag k="name" v="Østby" />
		<tag k="place" v="farm" />
		<tag k="ssr:stedsnr" v="64449" />
	</node>
	<node lat="59.668250308291846" lon="10.688748764185544" id="-17443">
		<tag k="fixme" v="consider place=hamlet" />
		<tag k="name" v="Torp" />
		<tag k="place" v="farm" />
		<tag k="ssr:stedsnr" v="65891" />
	</node>
	<node lat="59.66698055289472" lon="10.78335833180395" id="-17444">
		<tag k="name" v="Kaia" />
		<tag k="place" v="locality" />
		<tag k="ssr:stedsnr" v="83265" />
	</node>
	<node lat="59.73235833319007" lon="10.727291669189434" id="-17445">
		<tag k="name" v="Svartlaget" />
		<tag k="natural" v="bay" />
		<tag k="ssr:stedsnr" v="83449" />
	</node>
	<node lat="59.74782320387718" lon="10.725889831755676" id="-17446">
		<tag k="alt_name" v="Bogenbukta" />
		<tag k="name" v="Bogen" />
		<tag k="natural" v="bay" />
		<tag k="ssr:stedsnr" v="83820" />
	</node>
	<node lat="59.76149722212518" lon="10.805250008552594" id="-17447">
		<tag k="name" v="Vinebergslora" />
		<tag k="natural" v="shoal" />
		<tag k="place" v="locality" />
		<tag k="ssr:stedsnr" v="83925" />
	</node>
	<node lat="59.71293332976618" lon="10.763924996864757" id="-17448">
		<tag k="alt_name" v="Risplass nordre" />
		<tag k="name" v="Nordre Risplass" />
		<tag k="place" v="locality" />
		<tag k="ssr:stedsnr" v="84344" />
	</node>
	<node lat="59.712594441359535" lon="10.780969449812591" id="-17449">
		<tag k="name" v="Rissletta" />
		<tag k="place" v="locality" />
		<tag k="ssr:stedsnr" v="84353" />
	</node>
	<node lat="59.71707876065989" lon="10.732086801565048" id="-17450">
		<tag k="fixme" v="multiple name tags, choose one and add the other to alt_name" />
		<tag k="name" v="Kaksrudbekken;Bekkevollelva" />
		<tag k="ssr:stedsnr" v="85264" />
		<tag k="waterway" v="stream" />
	</node>
	<node lat="59.72325277720497" lon="10.729247228410493" id="-17451">
		<tag k="bridge" v="yes" />
		<tag k="layer" v="1" />
		<tag k="name" v="Bekk" />
		<tag k="ssr:stedsnr" v="107104" />
	</node>
	<node lat="59.62394295101077" lon="10.836975815477453" id="-17452">
		<tag k="fixme" v="consider place=hamlet" />
		<tag k="name" v="Sennebråte" />
		<tag k="place" v="farm" />
		<tag k="ssr:stedsnr" v="124273" />
	</node>
	<node lat="59.64088947836472" lon="10.847447794261283" id="-17453">
		<tag k="fixme" v="consider place=hamlet" />
		<tag k="name" v="Krosser" />
		<tag k="place" v="farm" />
		<tag k="ssr:stedsnr" v="124229" />
	</node>
	<node lat="59.648338886448805" lon="10.80117499388638" id="-17454">
		<tag k="name" v="Eldorhagen" />
		<tag k="place" v="farm" />
		<tag k="ssr:stedsnr" v="124230" />
	</node>
	<node lat="59.621911114559275" lon="10.822338883133359" id="-17455">
		<tag k="name" v="Sørbråta" />
		<tag k="place" v="farm" />
		<tag k="ssr:stedsnr" v="124300" />
	</node>
	<node lat="59.67175770152392" lon="10.753340819221588" id="-17456">
		<tag k="alt_name" v="Lopphullet" />
		<tag k="name" v="Loppholet" />
		<tag k="place" v="locality" />
		<tag k="ssr:stedsnr" v="124398" />
	</node>
	<node lat="59.614341669224046" lon="10.877186104158357" id="-17457">
		<tag k="name" v="Ålerudneset" />
		<tag k="place" v="farm" />
		<tag k="ssr:stedsnr" v="143045" />
	</node>
	<node lat="59.610513886803744" lon="10.888713890334813" id="-17458">
		<tag k="name" v="Bakkenga" />
		<tag k="place" v="farm" />
		<tag k="ssr:stedsnr" v="143073" />
	</node>
	<node lat="59.640605558168396" lon="10.834825003638938" id="-17459">
		<tag k="amenity" v="nursing_home" />
		<tag k="name" v="Granås sykehjem" />
		<tag k="ssr:stedsnr" v="143023" />
	</node>
	<node lat="59.647216669929634" lon="10.83193888982695" id="-17460">
		<tag k="name" v="Høgda" />
		<tag k="place" v="farm" />
		<tag k="ssr:stedsnr" v="143025" />
	</node>
	<node lat="59.69406111255234" lon="10.759530547657413" id="-17461">
		<tag k="name" v="Prestegårdsskogen" />
		<tag k="place" v="locality" />
		<tag k="ssr:stedsnr" v="143373" />
	</node>
	<node lat="59.649297217965895" lon="10.797041672229774" id="-17462">
		<tag k="name" v="Lier" />
		<tag k="place" v="hamlet" />
		<tag k="ssr:stedsnr" v="143273" />
	</node>
	<node lat="59.695298860400925" lon="10.828349713023833" id="-17463">
		<tag k="alt_name" v="Kjølstad østre" />
		<tag k="name" v="Østre Kjølstad" />
		<tag k="place" v="farm" />
		<tag k="ssr:stedsnr" v="143426" />
	</node>
	<node lat="59.66931111555376" lon="10.717011111166237" id="-17464">
		<tag k="alt_name" v="Hogsmark nordre" />
		<tag k="name" v="Nordre Hogsmark" />
		<tag k="place" v="farm" />
		<tag k="ssr:stedsnr" v="143822" />
	</node>
	<node lat="59.66043610952479" lon="10.755697225002194" id="-17465">
		<tag k="alt_name" v="Voll østre" />
		<tag k="name" v="Østre Voll" />
		<tag k="place" v="farm" />
		<tag k="ssr:stedsnr" v="143673" />
	</node>
	<node lat="59.68022778115877" lon="10.722461108783401" id="-17466">
		<tag k="name" v="Bakkelund" />
		<tag k="place" v="isolated_dwelling" />
		<tag k="ssr:stedsnr" v="143677" />
	</node>
	<node lat="59.76290555145532" lon="10.728794448479256" id="-17467">
		<tag k="name" v="Sjøstrand" />
		<tag k="place" v="isolated_dwelling" />
		<tag k="ssr:stedsnr" v="146201" />
	</node>
	<node lat="59.72785769371204" lon="10.759641531228835" id="-17468">
		<tag k="fixme" v="consider place=hamlet" />
		<tag k="name" v="Bølstad" />
		<tag k="place" v="farm" />
		<tag k="ssr:stedsnr" v="185524" />
	</node>
	<node lat="59.6404250019247" lon="10.855541662664274" id="-17469">
		<tag k="alt_name" v="Kroer, nordre;Nord-Kroer;Kroer nordre" />
		<tag k="name" v="Nordre Kroer" />
		<tag k="place" v="farm" />
		<tag k="ssr:stedsnr" v="185290" />
	</node>
	<node lat="59.610162795804705" lon="10.88003661552393" id="-17470">
		<tag k="fixme" v="consider place=hamlet" />
		<tag k="name" v="Ålerud" />
		<tag k="place" v="farm" />
		<tag k="ssr:stedsnr" v="185356" />
	</node>
	<node lat="59.74417777812815" lon="10.767455562955702" id="-17471">
		<tag k="name" v="Sjøskogen" />
		<tag k="place" v="quarter" />
		<tag k="ssr:stedsnr" v="185460" />
	</node>
	<node lat="59.64462512863741" lon="10.714101593032145" id="-17472">
		<tag k="fixme" v="consider place=hamlet" />
		<tag k="name" v="Myrer" />
		<tag k="place" v="farm" />
		<tag k="ssr:stedsnr" v="185825" />
	</node>
	<node lat="59.69440180209864" lon="10.78152176119722" id="-17473">
		<tag k="fixme" v="consider place=hamlet" />
		<tag k="name" v="Grøstad" />
		<tag k="place" v="farm" />
		<tag k="ssr:stedsnr" v="186439" />
	</node>
	<node lat="59.6912722179352" lon="10.801269439018538" id="-17474">
		<tag k="alt_name" v="Holstad, øvre;Holstad øvre" />
		<tag k="name" v="Øvre Holstad" />
		<tag k="place" v="farm" />
		<tag k="ssr:stedsnr" v="186451" />
	</node>
	<node lat="59.68191666295032" lon="10.72726111656072" id="-17475">
		<tag k="name" v="Nordstrand" />
		<tag k="place" v="farm" />
		<tag k="ssr:stedsnr" v="186473" />
	</node>
	<node lat="59.74372499980724" lon="10.807544438224337" id="-17476">
		<tag k="name" v="Nordstuene" />
		<tag k="place" v="farm" />
		<tag k="ssr:stedsnr" v="204013" />
	</node>
	<node lat="59.72862222659012" lon="10.777183335485432" id="-17477">
		<tag k="name" v="Bråten" />
		<tag k="place" v="locality" />
		<tag k="ssr:stedsnr" v="204014" />
	</node>
	<node lat="59.65935833039368" lon="10.740180558417698" id="-17478">
		<tag k="name" v="Korsegårdsmåsan" />
		<tag k="natural" v="wetland" />
		<tag k="ssr:stedsnr" v="204255" />
	</node>
	<node lat="59.68996110757515" lon="10.843411111396088" id="-17479">
		<tag k="alt_name" v="Hauger østre" />
		<tag k="name" v="Østre Hauger" />
		<tag k="place" v="farm" />
		<tag k="ssr:stedsnr" v="204073" />
	</node>
	<node lat="59.64387222483769" lon="10.779069440975185" id="-17480">
		<tag k="name" v="Lillerød" />
		<tag k="place" v="farm" />
		<tag k="ssr:stedsnr" v="204283" />
	</node>
	<node lat="59.6601666683551" lon="10.732875003261443" id="-17481">
		<tag k="alt_name" v="Treider vestre" />
		<tag k="name" v="Vestre Treider" />
		<tag k="place" v="farm" />
		<tag k="ssr:stedsnr" v="204654" />
	</node>
	<node lat="59.67548889271012" lon="10.73399443671883" id="-17482">
		<tag k="name" v="Smedbølbekken" />
		<tag k="ssr:stedsnr" v="204664" />
		<tag k="waterway" v="stream" />
	</node>
	<node lat="59.71972777381785" lon="10.72886389295747" id="-17483">
		<tag k="junction" v="yes" />
		<tag k="name" v="Bekkevoll" />
		<tag k="place" v="locality" />
		<tag k="ssr:stedsnr" v="205398" />
	</node>
	<node lat="59.76184166587356" lon="10.801266669837966" id="-17484">
		<tag k="name" v="Ringneset" />
		<tag k="natural" v="cape" />
		<tag k="ssr:stedsnr" v="205917" />
	</node>
	<node lat="59.755466666723514" lon="10.78278055244454" id="-17485">
		<tag k="bridge" v="yes" />
		<tag k="layer" v="1" />
		<tag k="name" v="Ringnes" />
		<tag k="ssr:stedsnr" v="228152" />
	</node>
	<node lat="59.64317777456146" lon="10.756936112270042" id="-17486">
		<tag k="alt_name" v="Fjærdinghagen" />
		<tag k="name" v="Fjerdinghagen" />
		<tag k="place" v="farm" />
		<tag k="ssr:stedsnr" v="306257" />
	</node>
	<node lat="59.63263611229779" lon="10.75863888490743" id="-17487">
		<tag k="name" v="Torsnes" />
		<tag k="place" v="farm" />
		<tag k="ssr:stedsnr" v="306289" />
	</node>
	<node lat="59.6407500036107" lon="10.769830548000717" id="-17488">
		<tag k="name" v="Fjellsenga" />
		<tag k="place" v="farm" />
		<tag k="ssr:stedsnr" v="306290" />
	</node>
	<node lat="59.651836113608866" lon="10.845180555659578" id="-17489">
		<tag k="name" v="Krosser" />
		<tag k="place" v="isolated_dwelling" />
		<tag k="ssr:stedsnr" v="306295" />
	</node>
	<node lat="59.62112949897007" lon="10.855013259998936" id="-17490">
		<tag k="fixme" v="consider place=hamlet" />
		<tag k="name" v="Gulli" />
		<tag k="place" v="farm" />
		<tag k="ssr:stedsnr" v="306338" />
	</node>
	<node lat="59.74168888844906" lon="10.784708328879583" id="-17491">
		<tag k="name" v="Vinterdalen" />
		<tag k="place" v="farm" />
		<tag k="ssr:stedsnr" v="306468" />
	</node>
	<node lat="59.66247110319313" lon="10.746656851131522" id="-17492">
		<tag k="fixme" v="consider place=hamlet" />
		<tag k="name" v="Korsegården" />
		<tag k="place" v="farm" />
		<tag k="ssr:stedsnr" v="306441" />
	</node>
	<node lat="59.729436112719135" lon="10.79173332618107" id="-17493">
		<tag k="name" v="Gårdmannsbråten" />
		<tag k="place" v="farm" />
		<tag k="ssr:stedsnr" v="306574" />
	</node>
	<node lat="59.608724999437335" lon="10.87244722233938" id="-17494">
		<tag k="name" v="Ålerudmyra" />
		<tag k="place" v="farm" />
		<tag k="ssr:stedsnr" v="326044" />
	</node>
	<node lat="59.65130555805604" lon="10.759408341836128" id="-17495">
		<tag k="alt_name" v="Børsum nedre" />
		<tag k="name" v="Nedre Børsum" />
		<tag k="place" v="farm" />
		<tag k="ssr:stedsnr" v="326315" />
	</node>
	<node lat="59.63845555978028" lon="10.820780552678416" id="-17496">
		<tag k="alt_name" v="Kjetterud" />
		<tag k="amenity" v="cafe" />
		<tag k="name" v="Trampen" />
		<tag k="ssr:stedsnr" v="326321" />
	</node>
	<node lat="59.64771666447733" lon="10.786838890589262" id="-17497">
		<tag k="name" v="Fjellvang" />
		<tag k="place" v="farm" />
		<tag k="ssr:stedsnr" v="326329" />
	</node>
	<node lat="59.64620555516927" lon="10.804902785079628" id="-17498">
		<tag k="alt_name" v="Eldor vestre" />
		<tag k="name" v="Vestre Eldor" />
		<tag k="place" v="farm" />
		<tag k="ssr:stedsnr" v="326338" />
	</node>
	<node lat="59.74098055877789" lon="10.725591670049948" id="-17499">
		<tag k="fixme" v="consider seamark:type=rock or natural=shoal" />
		<tag k="name" v="Flatskjær" />
		<tag k="place" v="islet" />
		<tag k="ssr:stedsnr" v="326486" />
	</node>
	<node lat="59.72506666248959" lon="10.762483333596352" id="-17500">
		<tag k="amenity" v="school" />
		<tag k="name" v="Nordby skole" />
		<tag k="ssr:stedsnr" v="326492" />
	</node>
	<node lat="59.68566111557664" lon="10.847600000967086" id="-17501">
		<tag k="alt_name" v="Hauger vestre" />
		<tag k="name" v="Vestre Hauger" />
		<tag k="place" v="farm" />
		<tag k="ssr:stedsnr" v="326077" />
	</node>
	<node lat="59.64289722443141" lon="10.723680558220325" id="-17502">
		<tag k="alt_name" v="Iversrud søndre" />
		<tag k="name" v="Søndre Iversrud" />
		<tag k="place" v="farm" />
		<tag k="ssr:stedsnr" v="326285" />
	</node>
	<node lat="59.658455551061316" lon="10.772744451208926" id="-17503">
		<tag k="name" v="Landås" />
		<tag k="place" v="isolated_dwelling" />
		<tag k="ssr:stedsnr" v="326287" />
	</node>
	<node lat="59.63788333071458" lon="10.794149991306131" id="-17504">
		<tag k="alt_name" v="Hogstvet vestre" />
		<tag k="name" v="Vestre Hogstvet" />
		<tag k="place" v="farm" />
		<tag k="ssr:stedsnr" v="326723" />
	</node>
	<node lat="59.747322220870736" lon="10.730283330123545" id="-17505">
		<tag k="alt_name" v="Kjærnes nedre" />
		<tag k="name" v="Nedre Kjærnes" />
		<tag k="place" v="farm" />
		<tag k="ssr:stedsnr" v="326829" />
	</node>
	<node lat="59.66003333630136" lon="10.679813885745942" id="-17506">
		<tag k="junction" v="yes" />
		<tag k="name" v="Fjøser" />
		<tag k="place" v="locality" />
		<tag k="ssr:stedsnr" v="326865" />
	</node>
	<node lat="59.75412222267212" lon="10.78682777104139" id="-17507">
		<tag k="alt_name" v="Fålesloråsen østre" />
		<tag k="fixme" v="consider natural=peak for the most distinct mountains in the district" />
		<tag k="name" v="Østre Fålesloråsen" />
		<tag k="natural" v="hill" />
		<tag k="place" v="locality" />
		<tag k="ssr:stedsnr" v="326923" />
	</node>
	<node lat="59.733277776862316" lon="10.739738884946497" id="-17508">
		<tag k="bridge" v="yes" />
		<tag k="layer" v="1" />
		<tag k="name" v="Kjærnesvegen" />
		<tag k="ssr:stedsnr" v="349164" />
	</node>
	<node lat="59.75496111336527" lon="10.730022229740904" id="-17509">
		<tag k="name" v="Nedre Kjøye" />
		<tag k="place" v="isolated_dwelling" />
		<tag k="ssr:stedsnr" v="359741" />
	</node>
	<node lat="59.73869444370616" lon="10.726530558553728" id="-17510">
		<tag k="name" v="Nordre Breivollodden" />
		<tag k="natural" v="cape" />
		<tag k="ssr:stedsnr" v="361498" />
	</node>
	<node lat="59.63502500092567" lon="10.786775002778183" id="-17511">
		<tag k="name" v="Høyås" />
		<tag k="place" v="farm" />
		<tag k="ssr:stedsnr" v="367245" />
	</node>
	<node lat="59.63639722272247" lon="10.831480552531422" id="-17512">
		<tag k="alt_name" v="Helgestad øvre" />
		<tag k="name" v="Øvre Helgestad" />
		<tag k="place" v="farm" />
		<tag k="ssr:stedsnr" v="367246" />
	</node>
	<node lat="59.63808610872251" lon="10.847052779618624" id="-17513">
		<tag k="alt_name" v="Kroer" />
		<tag k="amenity" v="place_of_worship" />
		<tag k="denomination" v="lutheran" />
		<tag k="name" v="Kroer kirke" />
		<tag k="religion" v="christian" />
		<tag k="ssr:stedsnr" v="367247" />
	</node>
	<node lat="59.6215181457361" lon="10.87405703106584" id="-17514">
		<tag k="fixme" v="consider place=hamlet" />
		<tag k="name" v="Østby" />
		<tag k="place" v="farm" />
		<tag k="ssr:stedsnr" v="367288" />
	</node>
	<node lat="59.7166750008978" lon="10.745852781732896" id="-17515">
		<tag k="name" v="Kaksrudødegården" />
		<tag k="place" v="farm" />
		<tag k="ssr:stedsnr" v="367540" />
	</node>
	<node lat="59.70842500364205" lon="10.757352771538674" id="-17516">
		<tag k="alt_name" v="Orskau" />
		<tag k="name" v="Orskog" />
		<tag k="place" v="farm" />
		<tag k="ssr:stedsnr" v="367517" />
	</node>
	<node lat="59.68758567593392" lon="10.846003150622316" id="-17517">
		<tag k="fixme" v="consider place=hamlet" />
		<tag k="name" v="Hauger" />
		<tag k="place" v="farm" />
		<tag k="ssr:stedsnr" v="368439" />
	</node>
	<node lat="59.68176944875632" lon="10.792819450347547" id="-17518">
		<tag k="alt_name" v="Slørstad, søndre;Slørstad søndre" />
		<tag k="name" v="Søndre Slørstad" />
		<tag k="place" v="farm" />
		<tag k="ssr:stedsnr" v="368481" />
	</node>
	<node lat="59.68608611451205" lon="10.766058335814954" id="-17519">
		<tag k="alt_name" v="Fagerlien" />
		<tag k="name" v="Fagerli" />
		<tag k="place" v="farm" />
		<tag k="ssr:stedsnr" v="368482" />
	</node>
	<node lat="59.6824811154269" lon="10.753850124946032" id="-17520">
		<tag k="fixme" v="consider place=hamlet" />
		<tag k="name" v="Kinn" />
		<tag k="place" v="farm" />
		<tag k="ssr:stedsnr" v="368483" />
	</node>
	<node lat="59.6193833366074" lon="10.833874991512847" id="-17521">
		<tag k="name" v="Tørkopp" />
		<tag k="place" v="farm" />
		<tag k="ssr:stedsnr" v="386010" />
	</node>
	<node lat="59.74306944446552" lon="10.80687777757075" id="-17522">
		<tag k="name" v="Mellomstuene" />
		<tag k="place" v="farm" />
		<tag k="ssr:stedsnr" v="386022" />
	</node>
	<node lat="59.726919442473516" lon="10.795188895561854" id="-17523">
		<tag k="name" v="Bråtehaugen" />
		<tag k="place" v="farm" />
		<tag k="ssr:stedsnr" v="386023" />
	</node>
	<node lat="59.74157777753849" lon="10.77138332947106" id="-17524">
		<tag k="name" v="Grimsrud" />
		<tag k="place" v="locality" />
		<tag k="ssr:stedsnr" v="386026" />
	</node>
	<node lat="59.649291665488256" lon="10.833650004039699" id="-17525">
		<tag k="name" v="Danskerud" />
		<tag k="place" v="farm" />
		<tag k="ssr:stedsnr" v="386041" />
	</node>
	<node lat="59.72782778188229" lon="10.741122217528188" id="-17526">
		<tag k="fixme" v="consider natural=peak for the most distinct mountains in the district" />
		<tag k="name" v="Askehaugåsen" />
		<tag k="natural" v="hill" />
		<tag k="place" v="locality" />
		<tag k="ssr:stedsnr" v="386427" />
	</node>
	<node lat="59.67042222433075" lon="10.799811114438059" id="-17527">
		<tag k="alt_name" v="Ås ungd. skole" />
		<tag k="amenity" v="school" />
		<tag k="name" v="Ås ungdomsskole" />
		<tag k="ssr:stedsnr" v="386637" />
	</node>
	<node lat="59.67965277387561" lon="10.813177782365278" id="-17528">
		<tag k="name" v="Skuterudsletta" />
		<tag k="place" v="locality" />
		<tag k="ssr:stedsnr" v="386639" />
	</node>
	<node lat="59.677902777763585" lon="10.8108694491547" id="-17529">
		<tag k="name" v="Skuterudløkka" />
		<tag k="place" v="locality" />
		<tag k="ssr:stedsnr" v="386641" />
	</node>
	<node lat="59.746608332263115" lon="10.734766660941897" id="-17530">
		<tag k="alt_name" v="Kjærnes øvre" />
		<tag k="name" v="Øvre Kjærnes" />
		<tag k="place" v="farm" />
		<tag k="ssr:stedsnr" v="386828" />
	</node>
	<node lat="59.67693333138121" lon="10.761519439641988" id="-17531">
		<tag k="name" v="Einarstua" />
		<tag k="place" v="locality" />
		<tag k="ssr:stedsnr" v="386662" />
	</node>
	<node lat="59.665977778208486" lon="10.72975833984829" id="-17532">
		<tag k="name" v="Holtet" />
		<tag k="place" v="farm" />
		<tag k="ssr:stedsnr" v="386667" />
	</node>
	<node lat="59.661224997816106" lon="10.7356111081114" id="-17533">
		<tag k="name" v="Vangensten" />
		<tag k="place" v="isolated_dwelling" />
		<tag k="ssr:stedsnr" v="386674" />
	</node>
	<node lat="59.66861388902937" lon="10.725849993476185" id="-17534">
		<tag k="name" v="Tokerudbakken" />
		<tag k="place" v="isolated_dwelling" />
		<tag k="ssr:stedsnr" v="386675" />
	</node>
	<node lat="59.66300555821801" lon="10.767447216239843" id="-17535">
		<tag k="name" v="Kjerringjordet" />
		<tag k="place" v="locality" />
		<tag k="ssr:stedsnr" v="386689" />
	</node>
	<node lat="59.68835277952044" lon="10.815313882295358" id="-17536">
		<tag k="bridge" v="yes" />
		<tag k="layer" v="1" />
		<tag k="name" v="Holstad" />
		<tag k="ssr:stedsnr" v="410131" />
	</node>
	<node lat="59.69417222160693" lon="10.827749991684934" id="-17537">
		<tag k="bridge" v="yes" />
		<tag k="layer" v="1" />
		<tag k="name" v="Holstad kulvert" />
		<tag k="ssr:stedsnr" v="410136" />
	</node>
	<node lat="59.73036389115044" lon="10.731080548084805" id="-17538">
		<tag k="name" v="Neslaget" />
		<tag k="natural" v="cape" />
		<tag k="ssr:stedsnr" v="422463" />
	</node>
	<node lat="59.62179183306238" lon="10.870673833133132" id="-17539">
		<tag k="fixme" v="consider place=hamlet" />
		<tag k="name" v="Gåvim" />
		<tag k="place" v="farm" />
		<tag k="ssr:stedsnr" v="428297" />
	</node>
	<node lat="59.6311277779346" lon="10.773924995622853" id="-17540">
		<tag k="name" v="Fjellet" />
		<tag k="place" v="farm" />
		<tag k="ssr:stedsnr" v="428299" />
	</node>
	<node lat="59.70660555374508" lon="10.769511107945387" id="-17541">
		<tag k="name" v="Øvre Melby" />
		<tag k="place" v="farm" />
		<tag k="ssr:stedsnr" v="428343" />
	</node>
	<node lat="59.67693266742689" lon="10.721370889165925" id="-17542">
		<tag k="fixme" v="consider place=hamlet" />
		<tag k="name" v="Smedbøl" />
		<tag k="place" v="farm" />
		<tag k="ssr:stedsnr" v="428422" />
	</node>
	<node lat="59.64923055834174" lon="10.742080551813217" id="-17543">
		<tag k="name" v="Kongstein" />
		<tag k="place" v="farm" />
		<tag k="ssr:stedsnr" v="428256" />
	</node>
	<node lat="59.64832210326397" lon="10.687614338171963" id="-17544">
		<tag k="fixme" v="consider place=hamlet" />
		<tag k="name" v="Kinn" />
		<tag k="place" v="farm" />
		<tag k="ssr:stedsnr" v="428837" />
	</node>
	<node lat="59.7333388921442" lon="10.779491668310104" id="-17545">
		<tag k="name" v="Lasthol" />
		<tag k="place" v="locality" />
		<tag k="ssr:stedsnr" v="447019" />
	</node>
	<node lat="59.6466500012918" lon="10.831994441167884" id="-17546">
		<tag k="name" v="Stigen" />
		<tag k="place" v="farm" />
		<tag k="ssr:stedsnr" v="447045" />
	</node>
	<node lat="59.66604932500923" lon="10.766287592042572" id="-17547">
		<tag k="amenity" v="university" />
		<tag k="fixme" v="multiple name tags, choose one and add the other to alt_name" />
		<tag k="name" v="Norges miljø- og biovitenskapelige universitet;NMBU" />
		<tag k="old_name" v="UMB;Norges landbrukshøgskole;Universitetet for miljø- og biovitenskap;NLH" />
		<tag k="ssr:stedsnr" v="447634" />
	</node>
	<node lat="59.76391110698988" lon="10.794016674354527" id="-17548">
		<tag k="name" v="Langslora" />
		<tag k="natural" v="shoal" />
		<tag k="place" v="locality" />
		<tag k="ssr:stedsnr" v="447900" />
	</node>
	<node lat="59.7036111114145" lon="10.765813895461047" id="-17549">
		<tag k="alt_name" v="Sundby søndre" />
		<tag k="name" v="Søndre Sundby" />
		<tag k="place" v="farm" />
		<tag k="ssr:stedsnr" v="448380" />
	</node>
	<node lat="59.714502776098435" lon="10.74597777694933" id="-17550">
		<tag k="name" v="Nordli" />
		<tag k="place" v="farm" />
		<tag k="ssr:stedsnr" v="448381" />
	</node>
	<node lat="59.721713891206235" lon="10.76893610378963" id="-17551">
		<tag k="amenity" v="community_centre" />
		<tag k="name" v="Liahøy" />
		<tag k="ssr:stedsnr" v="448399" />
	</node>
	<node lat="59.71925277743932" lon="10.805030556108578" id="-17552">
		<tag k="name" v="Solhaug" />
		<tag k="place" v="hamlet" />
		<tag k="ssr:stedsnr" v="448400" />
	</node>
	<node lat="59.658341724361506" lon="10.679370276461635" id="-17553">
		<tag k="alt_name" v="Klommestein nordre" />
		<tag k="name" v="Nordre Klommestein" />
		<tag k="place" v="farm" />
		<tag k="ssr:stedsnr" v="447848" />
	</node>
	<node lat="59.649536115154405" lon="10.789938883108206" id="-17554">
		<tag k="name" v="Sandsgård" />
		<tag k="place" v="farm" />
		<tag k="ssr:stedsnr" v="448351" />
	</node>
	<node lat="59.720833334613715" lon="10.772786110445475" id="-17555">
		<tag k="alt_name" v="Nordby østre" />
		<tag k="name" v="Østre Nordby" />
		<tag k="place" v="farm" />
		<tag k="ssr:stedsnr" v="448368" />
	</node>
	<node lat="59.6692111081605" lon="10.806741664432943" id="-17556">
		<tag k="name" v="Rustadskog" />
		<tag k="place" v="quarter" />
		<tag k="ssr:stedsnr" v="448684" />
	</node>
	<node lat="59.63753333342121" lon="10.869452784983261" id="-17557">
		<tag k="name" v="Kongehøgda" />
		<tag k="natural" v="hill" />
		<tag k="place" v="locality" />
		<tag k="ssr:stedsnr" v="508003" />
	</node>
	<node lat="59.63551944858919" lon="10.847647216913767" id="-17558">
		<tag k="name" v="Vestereng" />
		<tag k="place" v="farm" />
		<tag k="ssr:stedsnr" v="508054" />
	</node>
	<node lat="59.631367517144724" lon="10.84472043784318" id="-17559">
		<tag k="fixme" v="consider place=hamlet" />
		<tag k="name" v="Sutterhol" />
		<tag k="place" v="farm" />
		<tag k="ssr:stedsnr" v="508005" />
	</node>
	<node lat="59.64053889283657" lon="10.833336111767702" id="-17560">
		<tag k="name" v="Heia" />
		<tag k="place" v="farm" />
		<tag k="ssr:stedsnr" v="508041" />
	</node>
	<node lat="59.6898777801218" lon="10.82559166602381" id="-17561">
		<tag k="name" v="Tangen" />
		<tag k="natural" v="cape" />
		<tag k="ssr:stedsnr" v="508470" />
	</node>
	<node lat="59.73364444673126" lon="10.729269446956087" id="-17562">
		<tag k="fixme" v="consider boundary=protected_area and relevant protect_class if not nature reserve" />
		<tag k="leisure" v="nature_reserve" />
		<tag k="name" v="Breivoll friområde" />
		<tag k="ssr:stedsnr" v="508544" />
	</node>
	<node lat="59.75298055762753" lon="10.725474991279842" id="-17563">
		<tag k="name" v="Vestnebba" />
		<tag k="natural" v="hill" />
		<tag k="place" v="locality" />
		<tag k="ssr:stedsnr" v="508829" />
	</node>
	<node lat="59.65766388551412" lon="10.683872222685116" id="-17564">
		<tag k="junction" v="yes" />
		<tag k="name" v="Klommestein" />
		<tag k="place" v="locality" />
		<tag k="ssr:stedsnr" v="508832" />
	</node>
	<node lat="59.75461666746471" lon="10.77761944869758" id="-17565">
		<tag k="alt_name" v="Fålesloråsen vestre" />
		<tag k="fixme" v="consider natural=peak for the most distinct mountains in the district" />
		<tag k="name" v="Vestre Fålesloråsen" />
		<tag k="natural" v="hill" />
		<tag k="place" v="locality" />
		<tag k="ssr:stedsnr" v="508842" />
	</node>
	<node lat="59.6587833304321" lon="10.710952779420932" id="-17566">
		<tag k="alt_name" v="Holstad vestre" />
		<tag k="name" v="Vestre Holstad" />
		<tag k="place" v="farm" />
		<tag k="ssr:stedsnr" v="508865" />
	</node>
	<node lat="59.76201944858841" lon="10.786338890693623" id="-17567">
		<tag k="bridge" v="yes" />
		<tag k="layer" v="1" />
		<tag k="name" v="Tyvedalen" />
		<tag k="ssr:stedsnr" v="531152" />
	</node>
	<node lat="59.72049107507362" lon="10.772803457224352" id="-17568">
		<tag k="name" v="Nordby" />
		<tag k="place" v="hamlet" />
		<tag k="ssr:stedsnr" v="549535" />
	</node>
	<node lat="59.72429999782239" lon="10.766702772983841" id="-17569">
		<tag k="name" v="Kirkerudtjernet" />
		<tag k="natural" v="water" />
		<tag k="ssr:stedsnr" v="549583" />
	</node>
	<node lat="59.66225326025139" lon="10.75179495602952" id="-17570">
		<tag k="fixme" v="consider place=hamlet" />
		<tag k="name" v="Vollebekk" />
		<tag k="place" v="farm" />
		<tag k="ssr:stedsnr" v="548475" />
	</node>
	<node lat="59.66836184518074" lon="10.739111139197368" id="-17571">
		<tag k="fixme" v="consider place=hamlet" />
		<tag k="name" v="Stensrud" />
		<tag k="place" v="farm" />
		<tag k="ssr:stedsnr" v="548482" />
	</node>
	<node lat="59.64238055881191" lon="10.786597218543474" id="-17572">
		<tag k="fixme" v="consider natural=peak for the most distinct mountains in the district" />
		<tag k="name" v="Vardåsen" />
		<tag k="natural" v="hill" />
		<tag k="place" v="locality" />
		<tag k="ssr:stedsnr" v="549045" />
	</node>
	<node lat="59.65417096551678" lon="10.777124946542001" id="-17573">
		<tag k="fixme" v="consider place=hamlet" />
		<tag k="name" v="Burum" />
		<tag k="place" v="farm" />
		<tag k="ssr:stedsnr" v="549257" />
	</node>
	<node lat="59.647216669024694" lon="10.830555550222124" id="-17574">
		<tag k="name" v="Danskerud" />
		<tag k="place" v="quarter" />
		<tag k="ssr:stedsnr" v="549283" />
	</node>
	<node lat="59.63029290053788" lon="10.846160077021569" id="-17575">
		<tag k="fixme" v="consider place=hamlet" />
		<tag k="name" v="Moer" />
		<tag k="place" v="farm" />
		<tag k="ssr:stedsnr" v="549328" />
	</node>
	<node lat="59.666688547291564" lon="10.822423669242795" id="-17576">
		<tag k="fixme" v="consider place=hamlet" />
		<tag k="name" v="Rustad" />
		<tag k="place" v="farm" />
		<tag k="ssr:stedsnr" v="549431" />
	</node>
	<node lat="59.69000278059787" lon="10.808680560660978" id="-17577">
		<tag k="alt_name" v="Holstad, nedre" />
		<tag k="name" v="Nedre Holstad" />
		<tag k="place" v="farm" />
		<tag k="ssr:stedsnr" v="550397" />
	</node>
	<node lat="59.68373055276452" lon="10.79315556168329" id="-17578">
		<tag k="alt_name" v="Slørstad, m;Slørstad søndre" />
		<tag k="name" v="Midtre Slørstad" />
		<tag k="place" v="farm" />
		<tag k="ssr:stedsnr" v="550441" />
	</node>
	<node lat="59.75032222234819" lon="10.724288887096852" id="-17579">
		<tag k="alt_name" v="Kjærnes brygge" />
		<tag k="man_made" v="quay" />
		<tag k="name" v="Kjernesbrygge" />
		<tag k="place" v="locality" />
		<tag k="ssr:stedsnr" v="551369" />
	</node>
	<node lat="59.75200833091939" lon="10.771386118022553" id="-17580">
		<tag k="fixme" v="consider natural=peak for the most distinct mountains in the district" />
		<tag k="name" v="Eikeholen" />
		<tag k="natural" v="hill" />
		<tag k="place" v="locality" />
		<tag k="ssr:stedsnr" v="551373" />
	</node>
	<node lat="59.642311112976174" lon="10.796027785629125" id="-17581">
		<tag k="highway" v="bus_stop" />
		<tag k="name" v="Hogstvet" />
		<tag k="ssr:stedsnr" v="568336" />
	</node>
	<node lat="59.64898055319453" lon="10.797191661065082" id="-17582">
		<tag k="name" v="Liersvingen" />
		<tag k="place" v="locality" />
		<tag k="ssr:stedsnr" v="568340" />
	</node>
	<node lat="59.73209166364459" lon="10.750772226896952" id="-17583">
		<tag k="name" v="Askehaugbråten" />
		<tag k="place" v="farm" />
		<tag k="ssr:stedsnr" v="568449" />
	</node>
	<node lat="59.65886666568021" lon="10.77356110862978" id="-17584">
		<tag k="name" v="Kilehagen" />
		<tag k="place" v="quarter" />
		<tag k="ssr:stedsnr" v="568297" />
	</node>
	<node lat="59.668777778204074" lon="10.796297226619188" id="-17585">
		<tag k="name" v="Langbakken industriområde" />
		<tag k="place" v="quarter" />
		<tag k="ssr:stedsnr" v="568629" />
	</node>
	<node lat="59.664800002241684" lon="10.756508338610828" id="-17586">
		<tag k="junction" v="yes" />
		<tag k="name" v="Vollebekk" />
		<tag k="place" v="locality" />
		<tag k="ssr:stedsnr" v="568632" />
	</node>
	<node lat="59.75771111353511" lon="10.783247217056758" id="-17587">
		<tag k="name" v="Fåleslora" />
		<tag k="place" v="locality" />
		<tag k="ssr:stedsnr" v="568914" />
	</node>
	<node lat="59.749016665277885" lon="10.778266659099309" id="-17588">
		<tag k="name" v="Tusenfryd" />
		<tag k="old_name" v="Dyreparken" />
		<tag k="ssr:stedsnr" v="568920" />
		<tag k="tourism" v="theme_park" />
	</node>
	<node lat="59.720380805298156" lon="10.797869268512867" id="-17589">
		<tag k="fixme" v="consider place=hamlet" />
		<tag k="name" v="Solberg" />
		<tag k="place" v="farm" />
		<tag k="ssr:stedsnr" v="569357" />
	</node>
	<node lat="59.751833328938964" lon="10.724591672080804" id="-17590">
		<tag k="name" v="Kjærneslandet" />
		<tag k="natural" v="cape" />
		<tag k="ssr:stedsnr" v="571243" />
	</node>
	<node lat="59.653233330790414" lon="10.749665262151124" id="-17591">
		<tag k="fixme" v="consider place=hamlet" />
		<tag k="name" v="Linnestad" />
		<tag k="place" v="farm" />
		<tag k="ssr:stedsnr" v="609244" />
	</node>
	<node lat="59.64128888794897" lon="10.81180000712547" id="-17592">
		<tag k="name" v="Hogstvetmyra" />
		<tag k="natural" v="wetland" />
		<tag k="ssr:stedsnr" v="609269" />
	</node>
	<node lat="59.636250735900596" lon="10.744036621960412" id="-17593">
		<tag k="alt_name" v="Støkken, østre;Støkken" />
		<tag k="fixme" v="consider place=hamlet" />
		<tag k="name" v="Østre Støkken" />
		<tag k="place" v="farm" />
		<tag k="ssr:stedsnr" v="609283" />
	</node>
	<node lat="59.735105551754444" lon="10.737944452983683" id="-17594">
		<tag k="alt_name" v="Fåle, søndre" />
		<tag k="name" v="Søndre Fåle" />
		<tag k="place" v="farm" />
		<tag k="ssr:stedsnr" v="609579" />
	</node>
	<node lat="59.68889722413224" lon="10.828625005378212" id="-17595">
		<tag k="name" v="Østensjøvannet" />
		<tag k="natural" v="water" />
		<tag k="ssr:stedsnr" v="610440" />
	</node>
	<node lat="59.66311388645761" lon="10.797280555544722" id="-17596">
		<tag k="amenity" v="school" />
		<tag k="name" v="Ås videregående skole" />
		<tag k="ssr:stedsnr" v="629653" />
	</node>
	<node lat="59.676930556728514" lon="10.804627777293204" id="-17597">
		<tag k="name" v="Askjumskogen" />
		<tag k="place" v="locality" />
		<tag k="ssr:stedsnr" v="629657" />
	</node>
	<node lat="59.67849925122511" lon="10.752984216729299" id="-17598">
		<tag k="fixme" v="consider place=hamlet" />
		<tag k="name" v="Hale" />
		<tag k="place" v="farm" />
		<tag k="ssr:stedsnr" v="629688" />
	</node>
	<node lat="59.72204166517471" lon="10.804719435504355" id="-17599">
		<tag k="name" v="Solbergskogen" />
		<tag k="place" v="quarter" />
		<tag k="ssr:stedsnr" v="629377" />
	</node>
	<node lat="59.71902499662694" lon="10.778986113151001" id="-17600">
		<tag k="alt_name" v="Nordby østre" />
		<tag k="name" v="Østre Nordby" />
		<tag k="place" v="farm" />
		<tag k="ssr:stedsnr" v="629378" />
	</node>
	<node lat="59.70551111432029" lon="10.789113892778019" id="-17601">
		<tag k="name" v="Østreng" />
		<tag k="place" v="farm" />
		<tag k="ssr:stedsnr" v="629379" />
	</node>
	<node lat="59.72262777406642" lon="10.790705548410921" id="-17602">
		<tag k="name" v="Haugen" />
		<tag k="place" v="farm" />
		<tag k="ssr:stedsnr" v="629381" />
	</node>
	<node lat="59.719024997858305" lon="10.803952779016457" id="-17603">
		<tag k="amenity" v="nursing_home" />
		<tag k="name" v="Nordby sykehjem" />
		<tag k="ssr:stedsnr" v="629386" />
	</node>
	<node lat="59.745891666601636" lon="10.745644441651072" id="-17604">
		<tag k="fixme" v="consider natural=peak for the most distinct mountains in the district" />
		<tag k="name" v="Kopåsen" />
		<tag k="natural" v="hill" />
		<tag k="place" v="locality" />
		<tag k="ssr:stedsnr" v="629462" />
	</node>
	<node lat="59.639419444972496" lon="10.804177772177267" id="-17605">
		<tag k="name" v="Kølabonn" />
		<tag k="place" v="farm" />
		<tag k="ssr:stedsnr" v="629319" />
	</node>
	<node lat="59.69858055255856" lon="10.745783329317392" id="-17606">
		<tag k="name" v="Skuggen" />
		<tag k="place" v="isolated_dwelling" />
		<tag k="ssr:stedsnr" v="629428" />
	</node>
	<node lat="59.65914999951143" lon="10.715922229709852" id="-17607">
		<tag k="alt_name" v="Holstad nordre" />
		<tag k="name" v="Nordre Holstad" />
		<tag k="place" v="farm" />
		<tag k="ssr:stedsnr" v="629875" />
	</node>
	<node lat="59.64892499567231" lon="10.687791669887536" id="-17608">
		<tag k="alt_name" v="Kinn nordre" />
		<tag k="name" v="Nordre Kinn" />
		<tag k="place" v="farm" />
		<tag k="ssr:stedsnr" v="629879" />
	</node>
	<node lat="59.75082778042878" lon="10.783899994692248" id="-17609">
		<tag k="alt_name" v="Nøstvedt" />
		<tag k="bridge" v="yes" />
		<tag k="layer" v="1" />
		<tag k="name" v="Nøstvet" />
		<tag k="ssr:stedsnr" v="652127" />
	</node>
	<node lat="59.659626705937406" lon="10.753705966314188" id="-17610">
		<tag k="fixme" v="consider place=hamlet" />
		<tag k="name" v="Voll" />
		<tag k="place" v="farm" />
		<tag k="ssr:stedsnr" v="670247" />
	</node>
	<node lat="59.65033465359963" lon="10.760612741698594" id="-17611">
		<tag k="name" v="Børsum" />
		<tag k="place" v="hamlet" />
		<tag k="ssr:stedsnr" v="670268" />
	</node>
	<node lat="59.70558182016144" lon="10.749752182907349" id="-17612">
		<tag k="alt_name" v="Fuglenebbet" />
		<tag k="fixme" v="consider place=hamlet" />
		<tag k="loc_name" v="Fuglenebba" />
		<tag k="name" v="Fjellstad" />
		<tag k="place" v="farm" />
		<tag k="ssr:stedsnr" v="670545" />
	</node>
	<node lat="59.74422778074646" lon="10.781972230567266" id="-17613">
		<tag k="bridge" v="yes" />
		<tag k="layer" v="1" />
		<tag k="name" v="Vinterbru" />
		<tag k="ssr:stedsnr" v="713157" />
	</node>
	<node lat="59.64219833664592" lon="10.737892428328456" id="-17614">
		<tag k="name" v="Støkkenbråten" />
		<tag k="place" v="farm" />
		<tag k="ssr:stedsnr" v="731243" />
	</node>
	<node lat="59.634375013108986" lon="10.792591278800131" id="-17615">
		<tag k="fixme" v="consider place=hamlet" />
		<tag k="name" v="Abberud" />
		<tag k="place" v="farm" />
		<tag k="ssr:stedsnr" v="731249" />
	</node>
	<node lat="59.639216664896544" lon="10.852069452069596" id="-17616">
		<tag k="alt_name" v="Kroer, m;Mellom Kroer;Kroer mellom" />
		<tag k="name" v="Mellom-Kroer" />
		<tag k="place" v="farm" />
		<tag k="ssr:stedsnr" v="731250" />
	</node>
	<node lat="59.613677781192145" lon="10.824830564241141" id="-17617">
		<tag k="name" v="Svaheim" />
		<tag k="place" v="farm" />
		<tag k="ssr:stedsnr" v="731338" />
	</node>
	<node lat="59.7121219807596" lon="10.773739407339994" id="-17618">
		<tag k="fixme" v="consider place=hamlet" />
		<tag k="name" v="Skyssjordet" />
		<tag k="place" v="farm" />
		<tag k="ssr:stedsnr" v="731350" />
	</node>
	<node lat="59.66471666943866" lon="10.794636107691177" id="-17619">
		<tag k="name" v="Ås" />
		<tag k="place" v="village" />
		<tag k="ssr:stedsnr" v="731438" />
	</node>
	<node lat="59.746584917354795" lon="10.735871691512488" id="-17620">
		<tag k="fixme" v="consider place=hamlet" />
		<tag k="name" v="Kjærnes" />
		<tag k="place" v="farm" />
		<tag k="ssr:stedsnr" v="731466" />
	</node>
	<node lat="59.68746666444816" lon="10.759494442177166" id="-17621">
		<tag k="alt_name" v="Dylterud;Dylterud vestre" />
		<tag k="name" v="Vestre Dylterud" />
		<tag k="place" v="farm" />
		<tag k="ssr:stedsnr" v="732436" />
	</node>
	<node lat="59.67949444370986" lon="10.825591664688856" id="-17622">
		<tag k="alt_name" v="Skuterud, nordre" />
		<tag k="name" v="Nordre Skuterud" />
		<tag k="place" v="farm" />
		<tag k="ssr:stedsnr" v="732472" />
	</node>
	<node lat="59.680352777639264" lon="10.782899991882097" id="-17623">
		<tag k="name" v="Østli" />
		<tag k="place" v="farm" />
		<tag k="ssr:stedsnr" v="732474" />
	</node>
	<node lat="59.660851827499805" lon="10.688586525399733" id="-17624">
		<tag k="alt_name" v="Ekeberg" />
		<tag k="fixme" v="consider place=hamlet" />
		<tag k="name" v="Eikeberg" />
		<tag k="place" v="farm" />
		<tag k="ssr:stedsnr" v="732861" />
	</node>
	<node lat="59.756930558566005" lon="10.736252771941398" id="-17625">
		<tag k="name" v="Brenningsmyra" />
		<tag k="place" v="isolated_dwelling" />
		<tag k="ssr:stedsnr" v="733358" />
	</node>
	<node lat="59.75805000278063" lon="10.726133337644184" id="-17626">
		<tag k="name" v="Nebba" />
		<tag k="natural" v="cape" />
		<tag k="ssr:stedsnr" v="733360" />
	</node>
	<node lat="59.75518055337458" lon="10.750941658306436" id="-17627">
		<tag k="alt_name" v="Labråtan" />
		<tag k="name" v="Labråten" />
		<tag k="place" v="isolated_dwelling" />
		<tag k="ssr:stedsnr" v="733361" />
	</node>
	<node lat="59.76064444573616" lon="10.776336103206235" id="-17628">
		<tag k="name" v="Tangen" />
		<tag k="natural" v="cape" />
		<tag k="ssr:stedsnr" v="733500" />
	</node>
	<node lat="59.625847218269456" lon="10.842177772529874" id="-17629">
		<tag k="name" v="Brantløkka" />
		<tag k="place" v="farm" />
		<tag k="ssr:stedsnr" v="750037" />
	</node>
	<node lat="59.659705553901084" lon="10.727472215775336" id="-17630">
		<tag k="alt_name" v="Haug østre" />
		<tag k="name" v="Østre Haug" />
		<tag k="place" v="farm" />
		<tag k="ssr:stedsnr" v="750254" />
	</node>
	<node lat="59.65753333708616" lon="10.828505556130782" id="-17631">
		<tag k="amenity" v="nursing_home" />
		<tag k="name" v="Bjørnebekk kursted" />
		<tag k="ssr:stedsnr" v="750286" />
	</node>
	<node lat="59.72421110868767" lon="10.791208334754009" id="-17632">
		<tag k="name" v="Olasbråten" />
		<tag k="place" v="farm" />
		<tag k="ssr:stedsnr" v="750358" />
	</node>
	<node lat="59.69851944085584" lon="10.743908332265654" id="-17633">
		<tag k="name" v="Skuggebukta" />
		<tag k="natural" v="bay" />
		<tag k="ssr:stedsnr" v="750387" />
	</node>
	<node lat="59.73062499649492" lon="10.728888893944161" id="-17634">
		<tag k="name" v="Nerslagodden" />
		<tag k="natural" v="cape" />
		<tag k="ssr:stedsnr" v="750434" />
	</node>
	<node lat="59.74221944599079" lon="10.7620861194627" id="-17635">
		<tag k="name" v="Pollenga" />
		<tag k="place" v="quarter" />
		<tag k="ssr:stedsnr" v="750440" />
	</node>
	<node lat="59.61522222097988" lon="10.821749998561106" id="-17636">
		<tag k="name" v="Dammen" />
		<tag k="place" v="farm" />
		<tag k="ssr:stedsnr" v="750679" />
	</node>
	<node lat="59.62848333303767" lon="10.825794445373456" id="-17637">
		<tag k="landuse" v="meadow" />
		<tag k="name" v="Pålenga" />
		<tag k="ssr:stedsnr" v="750689" />
	</node>
	<node lat="59.68136667089545" lon="10.754752773353909" id="-17638">
		<tag k="junction" v="yes" />
		<tag k="name" v="Kinn" />
		<tag k="place" v="locality" />
		<tag k="ssr:stedsnr" v="750636" />
	</node>
	<node lat="59.648088891627935" lon="10.683366668946144" id="-17639">
		<tag k="junction" v="yes" />
		<tag k="name" v="Linnestad" />
		<tag k="place" v="locality" />
		<tag k="ssr:stedsnr" v="750797" />
	</node>
	<node lat="59.66840000402836" lon="10.687597228619168" id="-17640">
		<tag k="alt_name" v="Torp vestre" />
		<tag k="name" v="Vestre Torp" />
		<tag k="place" v="farm" />
		<tag k="ssr:stedsnr" v="750822" />
	</node>
	<node lat="59.7624638887011" lon="10.79515833781976" id="-17641">
		<tag k="bridge" v="yes" />
		<tag k="layer" v="1" />
		<tag k="name" v="Langslordalen" />
		<tag k="ssr:stedsnr" v="774149" />
	</node>
	<node lat="59.75922778113538" lon="10.775586119926865" id="-17642">
		<tag k="bridge" v="yes" />
		<tag k="layer" v="1" />
		<tag k="name" v="Lovise" />
		<tag k="ssr:stedsnr" v="774151" />
	</node>
	<node lat="59.70430607961981" lon="10.763077776643648" id="-17643">
		<tag k="name" v="Sundby" />
		<tag k="place" v="hamlet" />
		<tag k="ssr:stedsnr" v="791363" />
	</node>
	<node lat="59.611024997418724" lon="10.865850002986303" id="-17644">
		<tag k="fixme" v="consider natural=peak for the most distinct mountains in the district" />
		<tag k="name" v="Korpåsen" />
		<tag k="natural" v="hill" />
		<tag k="place" v="locality" />
		<tag k="ssr:stedsnr" v="792360" />
	</node>
	<node lat="59.76109999691452" lon="10.756500003103138" id="-17645">
		<tag k="name" v="Østli" />
		<tag k="place" v="farm" />
		<tag k="ssr:stedsnr" v="793443" />
	</node>
	<node lat="59.75831944384095" lon="10.774786104970794" id="-17646">
		<tag k="alt_name" v="Seiersten" />
		<tag k="name" v="Seierstein" />
		<tag k="place" v="farm" />
		<tag k="ssr:stedsnr" v="793444" />
	</node>
	<node lat="59.66894594734992" lon="10.717050191472893" id="-17647">
		<tag k="fixme" v="consider place=hamlet" />
		<tag k="name" v="Hogsmørk" />
		<tag k="place" v="farm" />
		<tag k="ssr:stedsnr" v="793880" />
	</node>
	<node lat="59.63260000253291" lon="10.770066674007204" id="-17648">
		<tag k="name" v="Nylenda" />
		<tag k="place" v="locality" />
		<tag k="ssr:stedsnr" v="811233" />
	</node>
	<node lat="59.6405638875198" lon="10.762369442253362" id="-17649">
		<tag k="name" v="Østli" />
		<tag k="place" v="farm" />
		<tag k="ssr:stedsnr" v="811268" />
	</node>
	<node lat="59.64748611414667" lon="10.747838883013912" id="-17650">
		<tag k="name" v="Beverdalsbekken" />
		<tag k="ssr:stedsnr" v="811279" />
		<tag k="waterway" v="stream" />
	</node>
	<node lat="59.73156666814359" lon="10.734483324945732" id="-17651">
		<tag k="name" v="Kjerkeløkka" />
		<tag k="place" v="locality" />
		<tag k="ssr:stedsnr" v="811465" />
	</node>
	<node lat="59.665994444852956" lon="10.810961118485476" id="-17652">
		<tag k="amenity" v="school" />
		<tag k="name" v="Rustad skole" />
		<tag k="ssr:stedsnr" v="811635" />
	</node>
	<node lat="59.67405832900221" lon="10.76376666781327" id="-17653">
		<tag k="name" v="Gullberg" />
		<tag k="place" v="isolated_dwelling" />
		<tag k="ssr:stedsnr" v="811661" />
	</node>
	<node lat="59.67534444430012" lon="10.768641667466126" id="-17654">
		<tag k="landuse" v="meadow" />
		<tag k="name" v="Nordbyenga" />
		<tag k="ssr:stedsnr" v="811673" />
	</node>
	<node lat="59.6671027750887" lon="10.769399991447882" id="-17655">
		<tag k="name" v="Andedammen" />
		<tag k="natural" v="water" />
		<tag k="ssr:stedsnr" v="811676" />
	</node>
	<node lat="59.75464444829776" lon="10.79470833761015" id="-17656">
		<tag k="fixme" v="consider natural=peak for the most distinct mountains in the district" />
		<tag k="name" v="Langsloråsen" />
		<tag k="natural" v="hill" />
		<tag k="place" v="locality" />
		<tag k="ssr:stedsnr" v="811892" />
	</node>
	<node lat="59.66400277949095" lon="10.804133338640716" id="-17657">
		<tag k="name" v="Åslund" />
		<tag k="place" v="locality" />
		<tag k="ssr:stedsnr" v="812284" />
	</node>
	<node lat="59.71108611340282" lon="10.760377774321256" id="-17658">
		<tag k="alt_name" v="Risplass søndre" />
		<tag k="name" v="Søndre Risplass" />
		<tag k="place" v="locality" />
		<tag k="ssr:stedsnr" v="812344" />
	</node>
	<node lat="59.70435555923644" lon="10.761819446247289" id="-17659">
		<tag k="alt_name" v="Sundby vestre" />
		<tag k="name" v="Vestre Sundby" />
		<tag k="place" v="farm" />
		<tag k="ssr:stedsnr" v="812349" />
	</node>
	<node lat="59.713597221964" lon="10.798430560066018" id="-17660">
		<tag k="name" v="Rismyra" />
		<tag k="natural" v="wetland" />
		<tag k="ssr:stedsnr" v="812354" />
	</node>
	<node lat="59.70703610961125" lon="10.77135555212523" id="-17661">
		<tag k="highway" v="bus_stop" />
		<tag k="name" v="Melby" />
		<tag k="ssr:stedsnr" v="812362" />
	</node>
	<node lat="59.63565048286725" lon="10.740506665359588" id="-17662">
		<tag k="alt_name" v="Støkken, vestre;Støkken vestre" />
		<tag k="fixme" v="consider place=hamlet" />
		<tag k="name" v="Vestre Støkken" />
		<tag k="place" v="farm" />
		<tag k="ssr:stedsnr" v="853284" />
	</node>
	<node lat="59.61401107731223" lon="10.83255918547109" id="-17663">
		<tag k="fixme" v="consider place=hamlet" />
		<tag k="name" v="Kaksrud" />
		<tag k="place" v="farm" />
		<tag k="ssr:stedsnr" v="853351" />
	</node>
	<node lat="59.72940277610474" lon="10.733699991443238" id="-17664">
		<tag k="alt_name" v="Nesset" />
		<tag k="name" v="Neset" />
		<tag k="place" v="hamlet" />
		<tag k="ssr:stedsnr" v="853581" />
	</node>
	<node lat="59.73344166806175" lon="10.74966388690741" id="-17665">
		<tag k="fixme" v="consider natural=peak for the most distinct mountains in the district" />
		<tag k="name" v="Toåsen" />
		<tag k="natural" v="hill" />
		<tag k="place" v="locality" />
		<tag k="ssr:stedsnr" v="853596" />
	</node>
	<node lat="59.74229444517313" lon="10.763197228125089" id="-17666">
		<tag k="name" v="Nøstvet" />
		<tag k="place" v="locality" />
		<tag k="ssr:stedsnr" v="872026" />
	</node>
	<node lat="59.65269444828843" lon="10.839011102541374" id="-17667">
		<tag k="name" v="Østli" />
		<tag k="place" v="isolated_dwelling" />
		<tag k="ssr:stedsnr" v="872033" />
	</node>
	<node lat="59.66420833615379" lon="10.790944447661214" id="-17668">
		<tag k="amenity" v="townhall" />
		<tag k="name" v="Ås rådhus" />
		<tag k="ssr:stedsnr" v="872281" />
	</node>
	<node lat="59.65971944903641" lon="10.725874991979419" id="-17669">
		<tag k="alt_name" v="Haug nordre" />
		<tag k="name" v="Nordre Haug" />
		<tag k="place" v="farm" />
		<tag k="ssr:stedsnr" v="872300" />
	</node>
	<node lat="59.72324444750551" lon="10.79763333265621" id="-17670">
		<tag k="alt_name" v="Solberg nordre" />
		<tag k="name" v="Nordre Solberg" />
		<tag k="place" v="farm" />
		<tag k="ssr:stedsnr" v="872412" />
	</node>
	<node lat="59.68867500276417" lon="10.761227775999469" id="-17671">
		<tag k="name" v="Syverudbekken" />
		<tag k="ssr:stedsnr" v="872448" />
		<tag k="waterway" v="stream" />
	</node>
	<node lat="59.68276944479663" lon="10.788880547627446" id="-17672">
		<tag k="name" v="Slørstadhøgda" />
		<tag k="natural" v="hill" />
		<tag k="place" v="locality" />
		<tag k="ssr:stedsnr" v="872465" />
	</node>
	<node lat="59.686402774888435" lon="10.807600007342588" id="-17673">
		<tag k="alt_name" v="Haugerud østre" />
		<tag k="name" v="Østre Haugerud" />
		<tag k="place" v="farm" />
		<tag k="ssr:stedsnr" v="872468" />
	</node>
	<node lat="59.73824722233379" lon="10.760897217642661" id="-17674">
		<tag k="name" v="Nordskogen" />
		<tag k="place" v="quarter" />
		<tag k="ssr:stedsnr" v="872500" />
	</node>
	<node lat="59.7314138912252" lon="10.738544449605724" id="-17675">
		<tag k="name" v="Markusløkka" />
		<tag k="place" v="isolated_dwelling" />
		<tag k="ssr:stedsnr" v="872505" />
	</node>
	<node lat="59.73883333299153" lon="10.755616672241596" id="-17676">
		<tag k="alt_name" v="Toødegård (nedl.)" />
		<tag k="name" v="Toødegård" />
		<tag k="place" v="farm" />
		<tag k="ssr:stedsnr" v="872507" />
	</node>
	<node lat="59.685155551147425" lon="10.762119447281448" id="-17677">
		<tag k="name" v="Bjerklund" />
		<tag k="place" v="farm" />
		<tag k="ssr:stedsnr" v="872453" />
	</node>
	<node lat="59.66250277942234" lon="10.797766669510864" id="-17678">
		<tag k="amenity" v="sports_centre" />
		<tag k="name" v="Åshallen" />
		<tag k="ssr:stedsnr" v="872657" />
	</node>
	<node lat="59.66116389187656" lon="10.738577770167021" id="-17679">
		<tag k="junction" v="yes" />
		<tag k="name" v="Treider" />
		<tag k="place" v="locality" />
		<tag k="ssr:stedsnr" v="872676" />
	</node>
	<node lat="59.673130560140244" lon="10.7472888831372" id="-17680">
		<tag k="junction" v="yes" />
		<tag k="name" v="Fosterud" />
		<tag k="place" v="locality" />
		<tag k="ssr:stedsnr" v="872688" />
	</node>
	<node lat="59.62628332914394" lon="10.744211103177252" id="-17681">
		<tag k="name" v="Revlingbekken" />
		<tag k="ssr:stedsnr" v="872740" />
		<tag k="waterway" v="stream" />
	</node>
	<node lat="59.747816670443015" lon="10.770794453370605" id="-17682">
		<tag k="fixme" v="consider highway=path" />
		<tag k="highway" v="track" />
		<tag k="name" v="Ulveleina" />
		<tag k="ssr:stedsnr" v="872833" />
	</node>
	<node lat="59.660005646028715" lon="10.709249366840835" id="-17683">
		<tag k="name" v="Holstadkulen" />
		<tag k="place" v="isolated_dwelling" />
		<tag k="ssr:stedsnr" v="872873" />
	</node>
	<node lat="59.752377775589714" lon="10.793041670855297" id="-17684">
		<tag k="name" v="Ilestykket" />
		<tag k="place" v="locality" />
		<tag k="ssr:stedsnr" v="872931" />
	</node>
	<node lat="59.72103889150119" lon="10.7892527716064" id="-17685">
		<tag k="name" v="Nordvang" />
		<tag k="place" v="locality" />
		<tag k="ssr:stedsnr" v="873367" />
	</node>
	<node lat="59.711797224087654" lon="10.761169452497203" id="-17686">
		<tag k="alt_name" v="Risplass midtre" />
		<tag k="name" v="Midtre Risplass" />
		<tag k="place" v="locality" />
		<tag k="ssr:stedsnr" v="873343" />
	</node>
	<node lat="59.709319440806134" lon="10.760150000690654" id="-17687">
		<tag k="name" v="Sundbyhagen" />
		<tag k="place" v="farm" />
		<tag k="ssr:stedsnr" v="873345" />
	</node>
	<node lat="59.70599444727817" lon="10.808777778857685" id="-17688">
		<tag k="name" v="Kjølstadskogen" />
		<tag k="place" v="locality" />
		<tag k="ssr:stedsnr" v="873355" />
	</node>
	<node lat="59.611161315399166" lon="10.887308053139028" id="-17689">
		<tag k="bridge" v="yes" />
		<tag k="layer" v="1" />
		<tag k="name" v="Bakk" />
		<tag k="ssr:stedsnr" v="956152" />
	</node>
	<node lat="59.75802777417783" lon="10.77716388416505" id="-17690">
		<tag k="bridge" v="yes" />
		<tag k="layer" v="1" />
		<tag k="name" v="Seiersten" />
		<tag k="ssr:stedsnr" v="956158" />
	</node>
	<node lat="59.63774078711998" lon="10.743040561275551" id="-17692">
		<tag k="name" v="Støkken" />
		<tag k="place" v="hamlet" />
		<tag k="ssr:stedsnr" v="977365" />
	</node>
	<node lat="59.740653899458664" lon="10.745504590230835" id="-17698">
		<tag k="name" v="Fåle" />
		<tag k="place" v="hamlet" />
		<tag k="ssr:stedsnr" v="1077946" />
	</node>
	<node lat="59.64303433196759" lon="10.775885979158824" id="-17701">
		<tag k="fixme" v="consider place=hamlet" />
		<tag k="name" v="Rød" />
		<tag k="place" v="farm" />
		<tag k="ssr:stedsnr" v="1078663" />
	</node>
	<node lat="59.647333399248595" lon="10.78862419802563" id="-17702">
		<tag k="fixme" v="consider place=hamlet" />
		<tag k="name" v="Østre Brekke" />
		<tag k="place" v="farm" />
		<tag k="ssr:stedsnr" v="1078664" />
	</node>
	<node lat="59.65464025936793" lon="10.794275708740269" id="-17703">
		<tag k="fixme" v="consider place=hamlet" />
		<tag k="name" v="Moer" />
		<tag k="place" v="farm" />
		<tag k="ssr:stedsnr" v="1078665" />
	</node>
	<node lat="59.684080116763205" lon="10.792323301168185" id="-17704">
		<tag k="fixme" v="consider place=hamlet" />
		<tag k="name" v="Slørstad" />
		<tag k="place" v="farm" />
		<tag k="ssr:stedsnr" v="1078669" />
	</node>
	<node lat="59.68863623272983" lon="10.83863539491483" id="-17705">
		<tag k="fixme" v="consider place=hamlet" />
		<tag k="name" v="Østensjø" />
		<tag k="place" v="farm" />
		<tag k="ssr:stedsnr" v="1078670" />
	</node>
	<node lat="59.67841486906593" lon="10.824641166755557" id="-17706">
		<tag k="fixme" v="consider place=hamlet" />
		<tag k="name" v="Skuterud" />
		<tag k="place" v="farm" />
		<tag k="ssr:stedsnr" v="1078671" />
	</node>
	<node lat="59.63716516159754" lon="10.853157126628009" id="-17707">
		<tag k="name" v="Kroer" />
		<tag k="place" v="hamlet" />
		<tag k="ssr:stedsnr" v="1078748" />
	</node>
	<node lat="59.63710872002531" lon="10.83202012569412" id="-17708">
		<tag k="fixme" v="consider place=hamlet" />
		<tag k="name" v="Helgestad" />
		<tag k="place" v="farm" />
		<tag k="ssr:stedsnr" v="1078753" />
	</node>
	<node lat="59.69079007406037" lon="10.805399723171044" id="-17709">
		<tag k="alt_name" v="Hoelstad" />
		<tag k="name" v="Holstad" />
		<tag k="place" v="locality" />
		<tag k="ssr:stedsnr" v="1080621" />
	</node>
</osm>
