<?xml version="1.0" encoding="UTF-8"?>
<<<<<<< HEAD
<osm version="0.6" generator="osmapis">
	<node lat="70.63001944946896" lon="21.975041630502698" id="-37307">
		<tag k="landuse" v="harbour" />
		<tag k="name" v="Sørværhamna" />
		<tag k="seamark:type" v="harbour" />
		<tag k="ssr:stedsnr" v="146035" />
	</node>
	<node lat="70.6346527827478" lon="21.972186075537195" id="-37558">
=======
<osm generator="osmapis" version="0.6">
	<node id="-901150" lat="70.6057472222" lon="22.2767527452">
		<tag k="fixme" v="verify maritime location" />
		<tag k="mooring" v="yes" />
		<tag k="name" v="Havna" />
		<tag k="place" v="locality" />
		<tag k="ssr:stedsnr" v="516832" />
	</node>
	<node id="-901299" lat="70.6346527827" lon="21.9721860755">
>>>>>>> e1d4bc35ff8a6074a6f2e91616a996b547c36f15
		<tag k="landuse" v="harbour" />
		<tag k="name" v="Sållbu" />
		<tag k="seamark:type" v="harbour" />
		<tag k="ssr:stedsnr" v="693057" />
	</node>
<<<<<<< HEAD
	<node lat="70.48243889164216" lon="22.139447170506596" id="-37604">
=======
	<node id="-901905" lat="70.4824388916" lon="22.1394471705">
>>>>>>> e1d4bc35ff8a6074a6f2e91616a996b547c36f15
		<tag k="highway" v="path" />
		<tag k="name" v="Sommervegen" />
		<tag k="ssr:stedsnr" v="636489" />
	</node>
<<<<<<< HEAD
	<node lat="70.4861749980754" lon="22.147377724219762" id="-37834">
		<tag k="aeroway" v="aerodrome" />
		<tag k="alt_name" v="Hasvik" />
		<tag k="name" v="Hasvik lufthavn" />
		<tag k="ssr:stedsnr" v="87800" />
	</node>
	<node lat="70.5898666704228" lon="22.283947173759678" id="-37893">
=======
	<node id="-901580" lat="70.6300194495" lon="21.9750416305">
		<tag k="landuse" v="harbour" />
		<tag k="name" v="Sørværhamna" />
		<tag k="seamark:type" v="harbour" />
		<tag k="ssr:stedsnr" v="146035" />
	</node>
	<node id="-901604" lat="70.5898666704" lon="22.2839471738">
>>>>>>> e1d4bc35ff8a6074a6f2e91616a996b547c36f15
		<tag k="landuse" v="harbour" />
		<tag k="name" v="Gammelvær" />
		<tag k="seamark:type" v="harbour" />
		<tag k="ssr:stedsnr" v="152866" />
	</node>
<<<<<<< HEAD
	<node lat="70.60574722216363" lon="22.276752745228837" id="-38108">
		<tag k="fixme" v="verify maritime location" />
		<tag k="mooring" v="yes" />
		<tag k="name" v="Havna" />
		<tag k="place" v="locality" />
		<tag k="ssr:stedsnr" v="516832" />
=======
	<node id="-901523" lat="70.4861749981" lon="22.1473777242">
		<tag k="aeroway" v="aerodrome" />
		<tag k="alt_name" v="Hasvik" />
		<tag k="name" v="Hasvik lufthavn" />
		<tag k="ssr:stedsnr" v="87800" />
>>>>>>> e1d4bc35ff8a6074a6f2e91616a996b547c36f15
	</node>
</osm>
