<?xml version="1.0" encoding="UTF-8"?>
<osm version="0.6" generator="osmapis">
	<node lat="70.63087777964024" lon="22.646186054618965" id="-101983">
		<tag k="name" v="Næringvatnet" />
		<tag k="natural" v="water" />
		<tag k="ssr:stedsnr" v="20700" />
	</node>
	<node lat="70.53076944682712" lon="22.1829860819801" id="-101984">
		<tag k="name" v="Kvithellvatnan" />
		<tag k="natural" v="water" />
		<tag k="ssr:stedsnr" v="30274" />
		<tag k="water" v="lake" />
	</node>
	<node lat="70.59810833236368" lon="22.31296107238503" id="-101987">
		<tag k="name" v="Trollelva" />
		<tag k="ssr:stedsnr" v="31824" />
		<tag k="waterway" v="stream" />
	</node>
	<node lat="70.29743611448734" lon="22.581458271661678" id="-101993">
		<tag k="name" v="Muotki" />
		<tag k="name:se" v="Muotki" />
		<tag k="place" v="locality" />
		<tag k="ssr:stedsnr" v="80117" />
	</node>
	<node lat="70.2841250012321" lon="22.557613824370822" id="-102016">
		<tag k="name" v="Storbuktvatnet" />
		<tag k="natural" v="water" />
		<tag k="ssr:stedsnr" v="140090" />
	</node>
	<node lat="70.66598610964586" lon="22.38898607621662" id="-102042">
		<tag k="name" v="Ytterelva" />
		<tag k="ssr:stedsnr" v="155662" />
		<tag k="waterway" v="river" />
	</node>
	<node lat="70.30718333848839" lon="22.492955506263932" id="-102060">
		<tag k="name" v="Sørdalsvatnet" />
		<tag k="natural" v="water" />
		<tag k="ssr:stedsnr" v="263139" />
	</node>
	<node lat="70.56483055470545" lon="22.324805517180643" id="-102062">
		<tag k="name" v="Steinvatnet" />
		<tag k="natural" v="water" />
		<tag k="ssr:stedsnr" v="263371" />
		<tag k="water" v="lake" />
	</node>
	<node lat="70.6545333340707" lon="22.855169373012526" id="-102065">
		<tag k="name" v="Geitvatnan" />
		<tag k="natural" v="water" />
		<tag k="ssr:stedsnr" v="263460" />
		<tag k="water" v="lake" />
	</node>
	<node lat="70.53740833356207" lon="22.35333051809754" id="-102073">
		<tag k="name" v="Steinvatnet" />
		<tag k="natural" v="water" />
		<tag k="ssr:stedsnr" v="202318" />
	</node>
	<node lat="70.56216389347392" lon="22.336236054706983" id="-102091">
		<tag k="name" v="Moldvatnet" />
		<tag k="natural" v="water" />
		<tag k="ssr:stedsnr" v="213811" />
	</node>
	<node lat="70.51175555292073" lon="22.15487219011422" id="-102103">
		<tag k="name" v="Risdalelva" />
		<tag k="ssr:stedsnr" v="455428" />
		<tag k="waterway" v="stream" />
	</node>
	<node lat="70.59130278338097" lon="22.431099944801534" id="-102114">
		<tag k="name" v="Nedre Korsvatnet" />
		<tag k="natural" v="water" />
		<tag k="ssr:stedsnr" v="456854" />
		<tag k="water" v="lake" />
	</node>
	<node lat="70.49278888785193" lon="22.209608282686283" id="-102117">
		<tag k="name" v="Lomvatnet" />
		<tag k="natural" v="water" />
		<tag k="ssr:stedsnr" v="261320" />
	</node>
	<node lat="70.57916666439935" lon="22.26723050582951" id="-102131">
		<tag k="name" v="Kollarvatnet" />
		<tag k="natural" v="water" />
		<tag k="ssr:stedsnr" v="274810" />
	</node>
	<node lat="70.56530833599845" lon="22.577333272626145" id="-102148">
		<tag k="name" v="Gjertrudvatnelva" />
		<tag k="ssr:stedsnr" v="323324" />
		<tag k="waterway" v="stream" />
	</node>
	<node lat="70.61553055872575" lon="22.865427730688566" id="-102149">
		<tag k="name" v="Langvatnet" />
		<tag k="natural" v="water" />
		<tag k="ssr:stedsnr" v="323414" />
		<tag k="water" v="lake" />
	</node>
	<node lat="70.61088055459476" lon="22.75757495076266" id="-102150">
		<tag k="name" v="Løvelva" />
		<tag k="ssr:stedsnr" v="323373" />
		<tag k="waterway" v="river" />
	</node>
	<node lat="70.55640555313295" lon="22.29344439127191" id="-102163">
		<tag k="name" v="Hasfjordvatnet" />
		<tag k="natural" v="water" />
		<tag k="ssr:stedsnr" v="383352" />
		<tag k="water" v="lake" />
	</node>
	<node lat="70.61640833455387" lon="22.07343606764886" id="-102168">
		<tag k="name" v="Årvikvatnan" />
		<tag k="natural" v="water" />
		<tag k="ssr:stedsnr" v="384719" />
		<tag k="water" v="lake" />
	</node>
	<node lat="70.57409166355977" lon="22.21596107176451" id="-102178">
		<tag k="name" v="Saltkeilvatnet" />
		<tag k="natural" v="water" />
		<tag k="ssr:stedsnr" v="394230" />
	</node>
	<node lat="70.55072500364967" lon="22.603672158084684" id="-102189">
		<tag k="name" v="Lakselva" />
		<tag k="ssr:stedsnr" v="398696" />
		<tag k="waterway" v="stream" />
	</node>
	<node lat="70.5506083332" lon="22.543849957988343" id="-102190">
		<tag k="name" v="Glitterspeilvatnet" />
		<tag k="natural" v="water" />
		<tag k="ssr:stedsnr" v="444310" />
	</node>
	<node lat="70.62917777688628" lon="22.05501106233949" id="-102197">
		<tag k="name" v="Fossbakkvatnan" />
		<tag k="natural" v="water" />
		<tag k="ssr:stedsnr" v="445707" />
		<tag k="water" v="lake" />
	</node>
	<node lat="70.66353055322118" lon="22.396036053626272" id="-102201">
		<tag k="name" v="Ytterelvvatnan" />
		<tag k="natural" v="water" />
		<tag k="ssr:stedsnr" v="445690" />
		<tag k="water" v="lake" />
	</node>
	<node lat="70.51704999669697" lon="22.317641628317755" id="-102218">
		<tag k="name" v="Reinelvvatnet" />
		<tag k="natural" v="water" />
		<tag k="ssr:stedsnr" v="505316" />
	</node>
	<node lat="70.51343333555788" lon="22.524077736140786" id="-102243">
		<tag k="name" v="Grunnfjordvatnet" />
		<tag k="natural" v="water" />
		<tag k="ssr:stedsnr" v="687284" />
	</node>
	<node lat="70.55802222533194" lon="22.579288830812576" id="-102244">
		<tag k="name" v="Offervatnet - Sieidejávri" />
		<tag k="name:no" v="Offervatnet" />
		<tag k="name:se" v="Sieidejávri" />
		<tag k="natural" v="water" />
		<tag k="old_name:se" v="Sieidejavri" />
		<tag k="ssr:stedsnr" v="687350" />
		<tag k="water" v="lake" />
	</node>
	<node lat="70.60520000214755" lon="22.813530492406848" id="-102245">
		<tag k="name" v="Storfjellvatnet" />
		<tag k="natural" v="water" />
		<tag k="ssr:stedsnr" v="687351" />
	</node>
	<node lat="70.61527500138065" lon="22.672480490311624" id="-102248">
		<tag k="name" v="Kanonvatnet" />
		<tag k="natural" v="water" />
		<tag k="ssr:stedsnr" v="687376" />
	</node>
	<node lat="70.63198611710195" lon="22.805519380085844" id="-102259">
		<tag k="name" v="Storbuktvatnet" />
		<tag k="natural" v="water" />
		<tag k="ssr:stedsnr" v="687683" />
		<tag k="water" v="lake" />
	</node>
	<node lat="70.58257499653968" lon="22.59516384704544" id="-102264">
		<tag k="name" v="Gjertrudvatnet - Gearddošjávri" />
		<tag k="name:no" v="Gjertrudvatnet" />
		<tag k="name:se" v="Gearddošjávri" />
		<tag k="natural" v="water" />
		<tag k="old_name:se" v="Gærdušjavri" />
		<tag k="ssr:stedsnr" v="688374" />
		<tag k="water" v="lake" />
	</node>
	<node lat="70.53770833965808" lon="22.47387216789524" id="-102270">
		<tag k="name" v="Kipparfjordvatnet" />
		<tag k="natural" v="water" />
		<tag k="old_name" v="Klipparfjordvatnet" />
		<tag k="ssr:stedsnr" v="565308" />
		<tag k="water" v="lake" />
	</node>
	<node lat="70.31465000492841" lon="22.517186058580783" id="-102274">
		<tag k="name" v="Nervatnet" />
		<tag k="natural" v="water" />
		<tag k="ssr:stedsnr" v="566122" />
	</node>
	<node lat="70.62494167106063" lon="22.506083289130757" id="-102311">
		<tag k="name" v="Bollevatnet" />
		<tag k="natural" v="water" />
		<tag k="ssr:stedsnr" v="626399" />
	</node>
	<node lat="70.56538611009212" lon="22.73522493231614" id="-102317">
		<tag k="name" v="Nordbotnvatnet" />
		<tag k="natural" v="water" />
		<tag k="ssr:stedsnr" v="627358" />
	</node>
	<node lat="70.6154055574197" lon="22.193044403129537" id="-102318">
		<tag k="name" v="Høgdevatnet" />
		<tag k="natural" v="water" />
		<tag k="ssr:stedsnr" v="636203" />
	</node>
	<node lat="70.53606945124729" lon="22.60582215992968" id="-102328">
		<tag k="name" v="Fosselva" />
		<tag k="ssr:stedsnr" v="640706" />
		<tag k="waterway" v="stream" />
	</node>
	<node lat="70.53198333413495" lon="22.19904440403594" id="-102338">
		<tag k="name" v="Svartbergvatnet" />
		<tag k="natural" v="water" />
		<tag k="ssr:stedsnr" v="687739" />
	</node>
	<node lat="70.51326111311754" lon="22.187274946420015" id="-102345">
		<tag k="name" v="Risdalvatnet" />
		<tag k="natural" v="water" />
		<tag k="ssr:stedsnr" v="697466" />
	</node>
	<node lat="70.50691388831122" lon="22.571497182384803" id="-102354">
		<tag k="name" v="Urelva" />
		<tag k="ssr:stedsnr" v="701724" />
		<tag k="waterway" v="stream" />
	</node>
	<node lat="70.60850000536611" lon="22.63597494401634" id="-102362">
		<tag k="name" v="Kristianvatnet" />
		<tag k="natural" v="water" />
		<tag k="ssr:stedsnr" v="748369" />
	</node>
	<node lat="70.63346111141983" lon="22.246402742880107" id="-102369">
		<tag k="name" v="Nordsandfjordvatnet" />
		<tag k="natural" v="water" />
		<tag k="ssr:stedsnr" v="758262" />
		<tag k="water" v="lake" />
	</node>
	<node lat="70.54755833282645" lon="22.331452744964206" id="-102392">
		<tag k="name" v="Sørvatnet" />
		<tag k="natural" v="water" />
		<tag k="ssr:stedsnr" v="808302" />
	</node>
	<node lat="70.61776666706061" lon="22.65625272955227" id="-102398">
		<tag k="name" v="Djupvatnet" />
		<tag k="natural" v="water" />
		<tag k="ssr:stedsnr" v="809391" />
	</node>
	<node lat="70.52078889558891" lon="22.569099938717187" id="-102412">
		<tag k="name" v="Karkefjordvatnet" />
		<tag k="natural" v="water" />
		<tag k="ssr:stedsnr" v="869312" />
	</node>
	<node lat="70.59093055757347" lon="22.43025272512658" id="-102419">
		<tag k="name" v="Korsvatnan" />
		<tag k="natural" v="water" />
		<tag k="ssr:stedsnr" v="930373" />
		<tag k="water" v="lake" />
	</node>
	<node lat="70.5242777758437" lon="22.326733291884718" id="-102421">
		<tag k="name" v="Slettnesvatnet" />
		<tag k="natural" v="water" />
		<tag k="ssr:stedsnr" v="930312" />
	</node>
	<node lat="70.62031666429255" lon="22.60535273460422" id="-102425">
		<tag k="name" v="Krokvatnan" />
		<tag k="natural" v="water" />
		<tag k="ssr:stedsnr" v="930379" />
		<tag k="water" v="lake" />
	</node>
	<node lat="70.69828333945631" lon="22.827222158063783" id="-102427">
		<tag k="name" v="Koppardalvatnet" />
		<tag k="natural" v="water" />
		<tag k="ssr:stedsnr" v="930518" />
	</node>
	<node lat="70.62702500045353" lon="22.10774719330066" id="-102429">
		<tag k="name" v="Sandfjordvatnet" />
		<tag k="natural" v="water" />
		<tag k="ssr:stedsnr" v="930708" />
	</node>
	<node lat="70.49621111513171" lon="22.138233300061028" id="-102449">
		<tag k="name" v="Stangnesvatnet" />
		<tag k="natural" v="water" />
		<tag k="ssr:stedsnr" v="880356" />
	</node>
	<node lat="70.56955833435009" lon="22.289661065235578" id="-102452">
		<tag k="name" v="Lensmannsfjellvatnet" />
		<tag k="natural" v="water" />
		<tag k="ssr:stedsnr" v="881853" />
	</node>
	<node lat="70.57538611489905" lon="22.533463851303345" id="-102454">
		<tag k="name" v="Mattisvatnet - Máhtosnjunjávri" />
		<tag k="name:no" v="Mattisvatnet" />
		<tag k="name:se" v="Máhtosnjunjávri" />
		<tag k="natural" v="water" />
		<tag k="old_name:se" v="Mattusnjunjavri" />
		<tag k="ssr:stedsnr" v="930354" />
		<tag k="water" v="lake" />
	</node>
	<node lat="70.71135555468847" lon="22.78979994576394" id="-102456">
		<tag k="name" v="Sandvikvatnet" />
		<tag k="natural" v="water" />
		<tag k="ssr:stedsnr" v="930650" />
	</node>
	<node lat="70.48635000282374" lon="22.17588330169527" id="-102463">
		<tag k="alt_name" v="Bårselva;Bårdselva" />
		<tag k="name" v="Bårselv" />
		<tag k="ssr:stedsnr" v="19285" />
		<tag k="waterway" v="stream" />
	</node>
	<node lat="70.62185000329772" lon="22.548311071348593" id="-102475">
		<tag k="name" v="Geitvatnet" />
		<tag k="natural" v="water" />
		<tag k="ssr:stedsnr" v="20355" />
	</node>
	<node lat="70.6023666636247" lon="22.767444395002375" id="-102477">
		<tag k="name" v="Storelvvatnet" />
		<tag k="natural" v="water" />
		<tag k="ssr:stedsnr" v="20368" />
	</node>
	<node lat="70.69067778001606" lon="22.78649993481616" id="-102481">
		<tag k="name" v="Pompervikvatnet" />
		<tag k="natural" v="water" />
		<tag k="ssr:stedsnr" v="20664" />
	</node>
	<node lat="70.63659444350259" lon="22.549238828064347" id="-102492">
		<tag k="name" v="Storvatnet" />
		<tag k="natural" v="water" />
		<tag k="ssr:stedsnr" v="20709" />
		<tag k="water" v="lake" />
	</node>
	<node lat="70.6330111118158" lon="22.059052746089503" id="-102507">
		<tag k="name" v="Øvervatnet" />
		<tag k="natural" v="water" />
		<tag k="ssr:stedsnr" v="30405" />
		<tag k="water" v="lake" />
	</node>
	<node lat="70.56323889243762" lon="22.299358288975426" id="-102510">
		<tag k="name" v="Øvre Hasfjordvatnet" />
		<tag k="natural" v="water" />
		<tag k="ssr:stedsnr" v="31781" />
		<tag k="water" v="lake" />
	</node>
	<node lat="70.60303333047875" lon="22.35947773378923" id="-102511">
		<tag k="name" v="Nedre Dalvatnet" />
		<tag k="natural" v="water" />
		<tag k="ssr:stedsnr" v="31827" />
		<tag k="water" v="lake" />
	</node>
	<node lat="70.60206111051902" lon="22.369449960964992" id="-102512">
		<tag k="name" v="Øvre Dalvatnet" />
		<tag k="natural" v="water" />
		<tag k="ssr:stedsnr" v="31829" />
		<tag k="water" v="lake" />
	</node>
	<node lat="70.53062500021993" lon="22.195255523667473" id="-102523">
		<tag k="name" v="Tungebakkvatnan" />
		<tag k="natural" v="water" />
		<tag k="ssr:stedsnr" v="53897" />
		<tag k="water" v="lake" />
	</node>
	<node lat="70.55243333330056" lon="22.27658051447415" id="-102526">
		<tag k="name" v="Flogavatnan" />
		<tag k="natural" v="water" />
		<tag k="ssr:stedsnr" v="80318" />
		<tag k="water" v="lake" />
	</node>
	<node lat="70.54681110840463" lon="22.57473606281881" id="-102527">
		<tag k="name" v="Tverrelva" />
		<tag k="ssr:stedsnr" v="80325" />
		<tag k="waterway" v="stream" />
	</node>
	<node lat="70.56221110963754" lon="22.56836106427261" id="-102528">
		<tag k="name" v="Mikkelvatnet" />
		<tag k="natural" v="water" />
		<tag k="ssr:stedsnr" v="80337" />
	</node>
	<node lat="70.66310000551567" lon="22.49569438809118" id="-102531">
		<tag k="name" v="Kanonvatnet" />
		<tag k="natural" v="water" />
		<tag k="ssr:stedsnr" v="80668" />
		<tag k="water" v="lake" />
	</node>
	<node lat="70.59806944791396" lon="22.604027732032556" id="-102539">
		<tag k="name" v="Vegvatnet" />
		<tag k="natural" v="water" />
		<tag k="ssr:stedsnr" v="81373" />
	</node>
	<node lat="70.59999167116821" lon="22.63122493793157" id="-102540">
		<tag k="name" v="Jarlvatnet" />
		<tag k="natural" v="water" />
		<tag k="ssr:stedsnr" v="81374" />
	</node>
	<node lat="70.6446555574948" lon="22.397113831425195" id="-102547">
		<tag k="name" v="Innerelva" />
		<tag k="ssr:stedsnr" v="81687" />
		<tag k="waterway" v="stream" />
	</node>
	<node lat="70.64085000127133" lon="22.81207494052987" id="-102548">
		<tag k="name" v="Storbuktelva" />
		<tag k="ssr:stedsnr" v="81704" />
		<tag k="waterway" v="stream" />
	</node>
	<node lat="70.51374166972002" lon="22.147330511258833" id="-102561">
		<tag k="name" v="Laksevatnet" />
		<tag k="natural" v="water" />
		<tag k="ssr:stedsnr" v="91481" />
	</node>
	<node lat="70.55106666684404" lon="22.672141620519465" id="-102573">
		<tag k="name" v="Oterelva" />
		<tag k="ssr:stedsnr" v="140329" />
		<tag k="waterway" v="stream" />
	</node>
	<node lat="70.55478889379415" lon="22.52496107249336" id="-102574">
		<tag k="name" v="Ensomheten" />
		<tag k="natural" v="water" />
		<tag k="ssr:stedsnr" v="140358" />
		<tag k="water" v="lake" />
	</node>
	<node lat="70.59252222594245" lon="22.3409416324578" id="-102577">
		<tag k="fixme" v="multiple name tags, choose one and add the other to alt_name" />
		<tag k="name" v="Nedre Eggevatn;Lille Eggevatnet" />
		<tag k="natural" v="water" />
		<tag k="old_name" v="Eggevatnet, l" />
		<tag k="ssr:stedsnr" v="141357" />
		<tag k="water" v="lake" />
	</node>
	<node lat="70.63193611527686" lon="22.49265827431239" id="-102595">
		<tag k="name" v="Brennhaugvatnet" />
		<tag k="natural" v="water" />
		<tag k="ssr:stedsnr" v="141662" />
	</node>
	<node lat="70.62954166950182" lon="22.17499719354592" id="-102597">
		<tag k="alt_name" v="Stupavatna" />
		<tag k="name" v="Stupanvatnan" />
		<tag k="natural" v="water" />
		<tag k="ssr:stedsnr" v="141667" />
		<tag k="water" v="lake" />
	</node>
	<node lat="70.62339167085942" lon="22.178686086197498" id="-102602">
		<tag k="name" v="Kvanlivatnan" />
		<tag k="natural" v="water" />
		<tag k="ssr:stedsnr" v="151242" />
	</node>
	<node lat="70.60803889506394" lon="22.29525272459262" id="-102611">
		<tag k="name" v="Fossen - Gorži" />
		<tag k="name:no" v="Fossen" />
		<tag k="name:se" v="Gorži" />
		<tag k="natural" v="waterfall" />
		<tag k="ssr:stedsnr" v="152839" />
	</node>
	<node lat="70.58387222502986" lon="22.289497176492134" id="-102612">
		<tag k="name" v="Lilleelva" />
		<tag k="ssr:stedsnr" v="152862" />
		<tag k="waterway" v="stream" />
	</node>
	<node lat="70.52751111405853" lon="22.420322170395824" id="-102632">
		<tag k="name" v="Meltefjordvatnet" />
		<tag k="natural" v="water" />
		<tag k="ssr:stedsnr" v="202301" />
		<tag k="water" v="lake" />
	</node>
	<node lat="70.57159167272816" lon="22.626780503020132" id="-102634">
		<tag k="name" v="Øvrevatnet" />
		<tag k="natural" v="water" />
		<tag k="ssr:stedsnr" v="202328" />
	</node>
	<node lat="70.57358333888163" lon="22.600349955155796" id="-102635">
		<tag k="name" v="Langvatnet" />
		<tag k="natural" v="water" />
		<tag k="ssr:stedsnr" v="202329" />
	</node>
	<node lat="70.6099861158945" lon="22.798066598462295" id="-102642">
		<tag k="name" v="Fjellstuvatnet" />
		<tag k="natural" v="water" />
		<tag k="ssr:stedsnr" v="202373" />
	</node>
	<node lat="70.64672778143421" lon="22.50831105501264" id="-102646">
		<tag k="name" v="Storvatnet" />
		<tag k="natural" v="water" />
		<tag k="ssr:stedsnr" v="202700" />
	</node>
	<node lat="70.67124166633064" lon="22.54628882682326" id="-102656">
		<tag k="name" v="Langkeilvatnet" />
		<tag k="natural" v="water" />
		<tag k="ssr:stedsnr" v="202678" />
	</node>
	<node lat="70.62881666586709" lon="22.139044411833293" id="-102661">
		<tag k="name" v="Sandelva" />
		<tag k="ssr:stedsnr" v="212223" />
		<tag k="waterway" v="river" />
	</node>
	<node lat="70.62371110807248" lon="22.25981940460277" id="-102676">
		<tag k="name" v="Storvatnet" />
		<tag k="natural" v="water" />
		<tag k="ssr:stedsnr" v="273209" />
	</node>
	<node lat="70.58284444414117" lon="22.25179996115213" id="-102678">
		<tag k="name" v="Løkelva" />
		<tag k="ssr:stedsnr" v="273255" />
		<tag k="waterway" v="stream" />
	</node>
	<node lat="70.57455833032422" lon="22.27222496245018" id="-102682">
		<tag k="name" v="Bikkokajavatnet" />
		<tag k="natural" v="water" />
		<tag k="ssr:stedsnr" v="274842" />
	</node>
	<node lat="70.68301111600496" lon="22.78327215661594" id="-102685">
		<tag k="name" v="Klemmetelva" />
		<tag k="ssr:stedsnr" v="276567" />
		<tag k="waterway" v="river" />
	</node>
	<node lat="70.49836389018886" lon="22.214013847642644" id="-102690">
		<tag k="name" v="Korsvikvatnet" />
		<tag k="natural" v="water" />
		<tag k="ssr:stedsnr" v="322253" />
		<tag k="water" v="lake" />
	</node>
	<node lat="70.33166666930981" lon="22.43296106483376" id="-102693">
		<tag k="name" v="Vagnedalsvatnet" />
		<tag k="natural" v="water" />
		<tag k="ssr:stedsnr" v="323145" />
	</node>
	<node lat="70.56372778458031" lon="22.630824937978048" id="-102699">
		<tag k="name" v="Tomasvatnet" />
		<tag k="natural" v="water" />
		<tag k="ssr:stedsnr" v="323330" />
	</node>
	<node lat="70.69822222555715" lon="22.792338847520526" id="-102711">
		<tag k="name" v="Makkvikvatnan" />
		<tag k="natural" v="water" />
		<tag k="ssr:stedsnr" v="323658" />
		<tag k="water" v="lake" />
	</node>
	<node lat="70.67580278089345" lon="22.78288883521405" id="-102712">
		<tag k="fixme" v="multiple name tags, choose one and add the other to alt_name" />
		<tag k="name" v="Auskarelva;Oskarelva" />
		<tag k="ssr:stedsnr" v="323660" />
		<tag k="waterway" v="stream" />
	</node>
	<node lat="70.6025916698504" lon="22.041994407605188" id="-102716">
		<tag k="fixme" v="multiple name tags, choose one and add the other to alt_name" />
		<tag k="name" v="Finnkonvatnet;Lillevatnet" />
		<tag k="natural" v="water" />
		<tag k="ssr:stedsnr" v="323710" />
	</node>
	<node lat="70.62541388720304" lon="22.237505525482362" id="-102724">
		<tag k="name" v="Sarsetvatnan" />
		<tag k="natural" v="water" />
		<tag k="ssr:stedsnr" v="333226" />
		<tag k="water" v="lake" />
	</node>
	<node lat="70.49556111552677" lon="22.18253608104631" id="-102736">
		<tag k="name" v="Kvannlivatnet" />
		<tag k="natural" v="water" />
		<tag k="ssr:stedsnr" v="383327" />
	</node>
	<node lat="70.51547777857344" lon="22.303558284560797" id="-102745">
		<tag k="name" v="Reinelva" />
		<tag k="ssr:stedsnr" v="384328" />
		<tag k="waterway" v="stream" />
	</node>
	<node lat="70.5911166698305" lon="22.69097772727419" id="-102752">
		<tag k="name" v="Midtertrinnvatnan" />
		<tag k="natural" v="water" />
		<tag k="ssr:stedsnr" v="384373" />
		<tag k="water" v="lake" />
	</node>
	<node lat="70.61031110843017" lon="22.557633293311557" id="-102753">
		<tag k="name" v="Brunsidevatnet" />
		<tag k="natural" v="water" />
		<tag k="ssr:stedsnr" v="384383" />
	</node>
	<node lat="70.6722611122519" lon="22.819333276253033" id="-102754">
		<tag k="name" v="Skáiddejávri" />
		<tag k="name:se" v="Skáiddejávri" />
		<tag k="natural" v="water" />
		<tag k="old_name:se" v="Skaidijavri" />
		<tag k="ssr:stedsnr" v="384465" />
	</node>
	<node lat="70.5887472231481" lon="22.003263859063843" id="-102763">
		<tag k="name" v="Sjørbisen" />
		<tag k="natural" v="waterfall" />
		<tag k="ssr:stedsnr" v="394665" />
	</node>
	<node lat="70.57918888728014" lon="22.298605508335516" id="-102765">
		<tag k="name" v="Øvre Lilleelvvatnet" />
		<tag k="natural" v="water" />
		<tag k="ssr:stedsnr" v="395858" />
	</node>
	<node lat="70.60200000238254" lon="22.07694162318917" id="-102776">
		<tag k="name" v="Breivikvatnan" />
		<tag k="natural" v="water" />
		<tag k="ssr:stedsnr" v="444697" />
	</node>
	<node lat="70.60396944397625" lon="22.014544410887197" id="-102777">
		<tag k="fixme" v="multiple name tags, choose one and add the other to alt_name" />
		<tag k="name" v="Andottvatnet;Markeilvatnet" />
		<tag k="natural" v="water" />
		<tag k="ssr:stedsnr" v="444698" />
		<tag k="water" v="lake" />
	</node>
	<node lat="70.60672222214845" lon="22.73523051289679" id="-102781">
		<tag k="name" v="Storelva" />
		<tag k="ssr:stedsnr" v="445024" />
		<tag k="waterway" v="river" />
	</node>
	<node lat="70.51903888882848" lon="22.234449969973102" id="-102784">
		<tag k="name" v="Barbosstadvatnet" />
		<tag k="natural" v="water" />
		<tag k="ssr:stedsnr" v="445322" />
	</node>
	<node lat="70.60707499659225" lon="22.317280514540425" id="-102785">
		<tag k="fixme" v="multiple name tags, choose one and add the other to alt_name" />
		<tag k="name" v="Høyvikvatnet;Nedre Høyvikvatn" />
		<tag k="natural" v="water" />
		<tag k="ssr:stedsnr" v="445389" />
	</node>
	<node lat="70.5957194486179" lon="22.75176106948057" id="-102788">
		<tag k="name" v="Steinfjellvatnan" />
		<tag k="natural" v="water" />
		<tag k="ssr:stedsnr" v="445365" />
		<tag k="water" v="lake" />
	</node>
	<node lat="70.5901083361887" lon="22.37842496167323" id="-102789">
		<tag k="fixme" v="multiple name tags, choose one and add the other to alt_name" />
		<tag k="name" v="Øvre Eggevatn;Store Eggevatnet" />
		<tag k="natural" v="water" />
		<tag k="old_name" v="Eggevatnet, store" />
		<tag k="ssr:stedsnr" v="445368" />
		<tag k="water" v="lake" />
	</node>
	<node lat="70.629416665078" lon="22.872333282069558" id="-102790">
		<tag k="name" v="Rundvatnet" />
		<tag k="natural" v="water" />
		<tag k="ssr:stedsnr" v="445451" />
	</node>
	<node lat="70.34178333183651" lon="22.446605510698422" id="-102801">
		<tag k="name" v="Urdelva" />
		<tag k="ssr:stedsnr" v="505154" />
		<tag k="waterway" v="stream" />
	</node>
	<node lat="70.5700388897014" lon="22.63609995954039" id="-102804">
		<tag k="name" v="Mebotnvatnan" />
		<tag k="natural" v="water" />
		<tag k="ssr:stedsnr" v="505351" />
		<tag k="water" v="lake" />
	</node>
	<node lat="70.64026667199114" lon="22.52729995888213" id="-102811">
		<tag k="name" v="Gammegårdvatnet" />
		<tag k="natural" v="water" />
		<tag k="ssr:stedsnr" v="505697" />
	</node>
	<node lat="70.64198611499572" lon="22.41118883691038" id="-102840">
		<tag k="name" v="Innerelvvatnet" />
		<tag k="natural" v="water" />
		<tag k="ssr:stedsnr" v="565670" />
	</node>
	<node lat="70.50104444213676" lon="22.214694407406736" id="-102847">
		<tag k="name" v="Korsvikvatnet" />
		<tag k="natural" v="water" />
		<tag k="ssr:stedsnr" v="565766" />
	</node>
	<node lat="70.62889166677449" lon="22.05472773305763" id="-102867">
		<tag k="name" v="Nervatnet" />
		<tag k="natural" v="water" />
		<tag k="ssr:stedsnr" v="576406" />
		<tag k="water" v="lake" />
	</node>
	<node lat="70.59486667179274" lon="22.314772183785763" id="-102879">
		<tag k="name" v="Storelva" />
		<tag k="ssr:stedsnr" v="577849" />
		<tag k="waterway" v="river" />
	</node>
	<node lat="70.60094721931797" lon="22.330952736458247" id="-102880">
		<tag k="name" v="Mollvatnet" />
		<tag k="natural" v="water" />
		<tag k="ssr:stedsnr" v="577857" />
	</node>
	<node lat="70.67635555502926" lon="22.52192773944337" id="-102888">
		<tag k="name" v="Langkeilvatnet" />
		<tag k="natural" v="water" />
		<tag k="ssr:stedsnr" v="597830" />
	</node>
	<node lat="70.34195555495911" lon="22.484286045810784" id="-102891">
		<tag k="name" v="Loddejohka" />
		<tag k="name:se" v="Loddejohka" />
		<tag k="old_name:se" v="Låddejåkka" />
		<tag k="ssr:stedsnr" v="626176" />
		<tag k="waterway" v="stream" />
	</node>
	<node lat="70.29290000136822" lon="22.583863838451155" id="-102895">
		<tag k="name" v="Finnvatnet - Sárajávri" />
		<tag k="name:no" v="Finnvatnet" />
		<tag k="name:se" v="Sárajávri" />
		<tag k="natural" v="water" />
		<tag k="old_name:se" v="Sarajavri" />
		<tag k="ssr:stedsnr" v="626143" />
	</node>
	<node lat="70.50905278217098" lon="22.571424937425792" id="-102896">
		<tag k="name" v="Stavsnesvatnet" />
		<tag k="natural" v="water" />
		<tag k="ssr:stedsnr" v="626327" />
	</node>
	<node lat="70.65891945101424" lon="22.839811048495854" id="-102898">
		<tag k="name" v="Kalvelandvatnet" />
		<tag k="natural" v="water" />
		<tag k="ssr:stedsnr" v="626474" />
	</node>
	<node lat="70.66472778080029" lon="22.548180500945247" id="-102910">
		<tag k="name" v="Sandvatnet" />
		<tag k="natural" v="water" />
		<tag k="ssr:stedsnr" v="626693" />
	</node>
	<node lat="70.6095722228681" lon="22.33735274287452" id="-102925">
		<tag k="name" v="Middagshaugvatnet" />
		<tag k="natural" v="water" />
		<tag k="ssr:stedsnr" v="637835" />
	</node>
	<node lat="70.52162778052232" lon="22.230524969441" id="-102930">
		<tag k="name" v="Barbostavatnan" />
		<tag k="natural" v="water" />
		<tag k="ssr:stedsnr" v="720890" />
		<tag k="water" v="lake" />
	</node>
	<node lat="70.30521666981272" lon="22.53868328248585" id="-102934">
		<tag k="name" v="Finndalsvatnet - Goahtejávri" />
		<tag k="name:no" v="Finndalsvatnet" />
		<tag k="name:se" v="Goahtejávri" />
		<tag k="natural" v="water" />
		<tag k="old_name:se" v="Goattejavri" />
		<tag k="ssr:stedsnr" v="747090" />
		<tag k="water" v="lake" />
	</node>
	<node lat="70.60615555800852" lon="22.329947166899505" id="-102966">
		<tag k="name" v="Øvre Høyvikvatnet" />
		<tag k="natural" v="water" />
		<tag k="ssr:stedsnr" v="759827" />
	</node>
	<node lat="70.58021944339339" lon="22.296380503256092" id="-102967">
		<tag k="name" v="Nedre Lilleelvvatnet" />
		<tag k="natural" v="water" />
		<tag k="ssr:stedsnr" v="759829" />
	</node>
	<node lat="70.53791389126367" lon="22.591099959349833" id="-102978">
		<tag k="name" v="Flogvatnan" />
		<tag k="natural" v="water" />
		<tag k="ssr:stedsnr" v="808316" />
		<tag k="water" v="lake" />
	</node>
	<node lat="70.3483222208309" lon="22.52058049585683" id="-102983">
		<tag k="name" v="Purkvatnet - Nuortavuonjávri" />
		<tag k="name:no" v="Purkvatnet" />
		<tag k="name:se" v="Nuortavuonjávri" />
		<tag k="natural" v="water" />
		<tag k="old_name:se" v="Nuortovuonjavri" />
		<tag k="ssr:stedsnr" v="809147" />
	</node>
	<node lat="70.58849999705964" lon="22.574608286687482" id="-102990">
		<tag k="name" v="Jutulvatnet" />
		<tag k="natural" v="water" />
		<tag k="ssr:stedsnr" v="809377" />
	</node>
	<node lat="70.63475000179592" lon="22.844422157173536" id="-102992">
		<tag k="name" v="Seljevatnet" />
		<tag k="natural" v="water" />
		<tag k="ssr:stedsnr" v="809450" />
	</node>
	<node lat="70.6217583343723" lon="22.25032496215686" id="-103005">
		<tag k="name" v="Stuorasjohka" />
		<tag k="name:se" v="Stuorasjohka" />
		<tag k="ssr:stedsnr" v="819215" />
		<tag k="waterway" v="stream" />
	</node>
	<node lat="70.52257222412607" lon="22.381708283731136" id="-103028">
		<tag k="name" v="Djupvikvatnet" />
		<tag k="natural" v="water" />
		<tag k="ssr:stedsnr" v="869323" />
		<tag k="water" v="lake" />
	</node>
	<node lat="70.64230833740835" lon="22.769502725868346" id="-103039">
		<tag k="name" v="Seinesbuktvatnet" />
		<tag k="natural" v="water" />
		<tag k="ssr:stedsnr" v="869712" />
	</node>
	<node lat="70.33767500324817" lon="22.53854439460941" id="-103040">
		<tag k="name" v="Fuglelvvatnan" />
		<tag k="natural" v="water" />
		<tag k="ssr:stedsnr" v="870140" />
		<tag k="water" v="lake" />
	</node>
	<node lat="70.59953611019813" lon="22.379158297969035" id="-103043">
		<tag k="name" v="Smalvatnet" />
		<tag k="natural" v="water" />
		<tag k="ssr:stedsnr" v="870371" />
	</node>
	<node lat="70.61728888936148" lon="22.779683268268275" id="-103044">
		<tag k="name" v="Moltebærvatnan" />
		<tag k="natural" v="water" />
		<tag k="ssr:stedsnr" v="870388" />
		<tag k="water" v="lake" />
	</node>
	<node lat="70.56630278035708" lon="22.70674161061626" id="-103046">
		<tag k="name" v="Stillheten" />
		<tag k="natural" v="water" />
		<tag k="ssr:stedsnr" v="870356" />
	</node>
	<node lat="70.56032778142928" lon="22.557138835013337" id="-103047">
		<tag k="name" v="Rundvatnet" />
		<tag k="natural" v="water" />
		<tag k="ssr:stedsnr" v="870359" />
	</node>
	<node lat="70.61574722370773" lon="22.197194390121517" id="-103059">
		<tag k="name" v="Sarsetvatnet" />
		<tag k="natural" v="water" />
		<tag k="ssr:stedsnr" v="880188" />
	</node>
	<node lat="70.57367500019599" lon="22.23137495992876" id="-103070">
		<tag k="name" v="Mikalhaugvatnet" />
		<tag k="natural" v="water" />
		<tag k="ssr:stedsnr" v="940240" />
	</node>
	<node lat="70.62098610920064" lon="22.221244413771526" id="-103073">
		<tag k="name" v="Lomvatnet" />
		<tag k="natural" v="water" />
		<tag k="ssr:stedsnr" v="940198" />
	</node>
	<node lat="70.49020277970119" lon="22.146591628666823" id="-103079">
		<tag k="name" v="Mevikvatnet" />
		<tag k="natural" v="water" />
		<tag k="ssr:stedsnr" v="940331" />
	</node>
	<node lat="70.60072499980554" lon="22.051477734906992" id="-103085">
		<tag k="name" v="Elvefossen" />
		<tag k="natural" v="waterfall" />
		<tag k="ssr:stedsnr" v="940660" />
	</node>
	<node lat="70.61117777921312" lon="22.30144717389233" id="-103088">
		<tag k="name" v="Fossvatnet" />
		<tag k="natural" v="water" />
		<tag k="ssr:stedsnr" v="941838" />
	</node>
</osm>
