<?xml version="1.0" encoding="UTF-8"?>
<<<<<<< HEAD
<osm version="0.6" generator="osmapis">
	<node lat="70.6321222266333" lon="22.040441633616563" id="-37316">
		<tag k="name" v="Hespervika" />
		<tag k="place" v="quarter" />
		<tag k="ssr:stedsnr" v="151419" />
	</node>
	<node lat="70.60006944765063" lon="22.115463844142223" id="-37320">
		<tag k="name" v="Nygardene" />
		<tag k="place" v="hamlet" />
		<tag k="ssr:stedsnr" v="155598" />
	</node>
	<node lat="70.55388889491613" lon="22.6152582725241" id="-37323">
		<tag k="name" v="Øyfjord" />
		<tag k="place" v="isolated_dwelling" />
		<tag k="ssr:stedsnr" v="155699" />
	</node>
	<node lat="70.64800833516662" lon="22.563838840377628" id="-37331">
		<tag k="name" v="Gammelgård" />
		<tag k="place" v="farm" />
		<tag k="ssr:stedsnr" v="262660" />
	</node>
	<node lat="70.63458333644398" lon="22.037611077378656" id="-37346">
		<tag k="name" v="Nes-Pervik" />
		<tag k="place" v="locality" />
		<tag k="ssr:stedsnr" v="263711" />
	</node>
	<node lat="70.54123804104034" lon="22.224389174695368" id="-37354">
		<tag k="name" v="Bårvik" />
		<tag k="place" v="farm" />
		<tag k="ssr:stedsnr" v="202323" />
	</node>
	<node lat="70.58876944248851" lon="22.287119388767863" id="-37357">
		<tag k="name" v="Breivikbotn" />
		<tag k="place" v="village" />
		<tag k="ssr:stedsnr" v="202353" />
	</node>
	<node lat="70.63539166516823" lon="22.577019378667423" id="-37360">
		<tag k="name" v="Dønnesfjordbotn" />
		<tag k="place" v="farm" />
		<tag k="ssr:stedsnr" v="202691" />
	</node>
	<node lat="70.59498889277235" lon="22.301947167397312" id="-37365">
		<tag k="alt_name" v="Søndre Hansvoll" />
		<tag k="fixme" v="consider place=hamlet" />
		<tag k="name" v="Hansvoll" />
		<tag k="place" v="village" />
		<tag k="ssr:stedsnr" v="208302" />
	</node>
	<node lat="70.61051388654573" lon="22.2318555130469" id="-37376">
		<tag k="name" v="Kvitberg" />
		<tag k="place" v="farm" />
		<tag k="ssr:stedsnr" v="239909" />
	</node>
	<node lat="70.62806111100087" lon="22.714422176203254" id="-37405">
		<tag k="name" v="Solvang" />
		<tag k="place" v="locality" />
		<tag k="ssr:stedsnr" v="459020" />
	</node>
	<node lat="70.72220278298285" lon="22.718394402671922" id="-37417">
		<tag k="name" v="Galten" />
		<tag k="place" v="farm" />
		<tag k="ssr:stedsnr" v="283587" />
	</node>
	<node lat="70.33792499757797" lon="22.4596221770156" id="-37419">
		<tag k="name" v="Hammarbukta" />
		<tag k="place" v="farm" />
		<tag k="ssr:stedsnr" v="464899" />
	</node>
	<node lat="70.5021638874404" lon="22.146369409936874" id="-37420">
		<tag k="name" v="Hasvåg" />
		<tag k="place" v="farm" />
		<tag k="ssr:stedsnr" v="465573" />
	</node>
	<node lat="70.52026944942881" lon="22.252855502863397" id="-37427">
		<tag k="name" v="Hasfjord" />
		<tag k="place" v="farm" />
		<tag k="ssr:stedsnr" v="323309" />
	</node>
	<node lat="70.61676389299095" lon="22.712705502302583" id="-37442">
		<tag k="name" v="Børfjord" />
=======
<osm generator="osmapis" version="0.6">
	<node id="-901120" lat="70.5157361139" lon="22.2438332991">
		<tag k="name" v="Hofset" />
		<tag k="place" v="locality" />
		<tag k="ssr:stedsnr" v="505319" />
	</node>
	<node id="-901631" lat="70.5418805543" lon="22.2228221666">
		<tag k="name" v="Bårvik" />
		<tag k="place" v="isolated_dwelling" />
		<tag k="ssr:stedsnr" v="202323" />
	</node>
	<node id="-901757" lat="70.6541111145" lon="21.9931832935">
		<tag k="name" v="Darup" />
>>>>>>> e1d4bc35ff8a6074a6f2e91616a996b547c36f15
		<tag k="place" v="isolated_dwelling" />
		<tag k="ssr:stedsnr" v="337197" />
	</node>
<<<<<<< HEAD
	<node lat="70.67157519012046" lon="22.59512600026807" id="-37449">
		<tag k="name" v="Gamnes" />
		<tag k="place" v="farm" />
		<tag k="ssr:stedsnr" v="384652" />
	</node>
	<node lat="70.32819166607261" lon="22.480869380534273" id="-37454">
		<tag k="name" v="Stjernvåg" />
		<tag k="place" v="locality" />
		<tag k="ssr:stedsnr" v="388049" />
	</node>
	<node lat="70.59017935537466" lon="22.289468437213507" id="-37468">
		<tag k="name" v="Leirkjosen" />
		<tag k="place" v="farm" />
		<tag k="ssr:stedsnr" v="398608" />
	</node>
	<node lat="70.52320555408359" lon="22.65838883529262" id="-37493">
		<tag k="name" v="Øyfjordholmen" />
		<tag k="place" v="farm" />
		<tag k="ssr:stedsnr" v="466631" />
	</node>
	<node lat="70.4860111128769" lon="22.2011110564959" id="-37494">
		<tag k="name" v="Vestre Korsvika" />
		<tag k="place" v="quarter" />
		<tag k="ssr:stedsnr" v="483919" />
	</node>
	<node lat="70.49782500063229" lon="22.35651660996024" id="-37500">
=======
	<node id="-901113" lat="70.4978250006" lon="22.35651661">
>>>>>>> e1d4bc35ff8a6074a6f2e91616a996b547c36f15
		<tag k="alt_name" v="Meltefjorden, nordre" />
		<tag k="name" v="Nordre Meltefjorden" />
		<tag k="place" v="isolated_dwelling" />
		<tag k="ssr:stedsnr" v="505202" />
	</node>
<<<<<<< HEAD
	<node lat="70.34618611614506" lon="22.47492773807305" id="-37506">
		<tag k="name" v="Inner-Sommarset" />
		<tag k="place" v="locality" />
		<tag k="ssr:stedsnr" v="510056" />
	</node>
	<node lat="70.59733611106431" lon="22.10892219334168" id="-37534">
		<tag k="fixme" v="consider place=hamlet" />
		<tag k="name" v="Breivik" />
		<tag k="place" v="village" />
		<tag k="ssr:stedsnr" v="687714" />
	</node>
	<node lat="70.62151023734981" lon="22.71658705882466" id="-37556">
		<tag k="name" v="Børstrand" />
		<tag k="place" v="farm" />
		<tag k="ssr:stedsnr" v="566369" />
	</node>
	<node lat="70.6069835839145" lon="22.30683158492199" id="-37588">
=======
	<node id="-901751" lat="70.5200749965" lon="22.2554749611">
		<tag k="name" v="Myrenga" />
		<tag k="place" v="isolated_dwelling" />
		<tag k="ssr:stedsnr" v="384335" />
	</node>
	<node id="-901878" lat="70.6063277748" lon="22.3071499577">
>>>>>>> e1d4bc35ff8a6074a6f2e91616a996b547c36f15
		<tag k="loc_name" v="Høyvika" />
		<tag k="name" v="Høyvik" />
		<tag k="place" v="farm" />
		<tag k="ssr:stedsnr" v="626413" />
	</node>
<<<<<<< HEAD
	<node lat="70.59930277848407" lon="22.12148885231561" id="-37601">
		<tag k="name" v="Nygård" />
		<tag k="place" v="farm" />
		<tag k="ssr:stedsnr" v="636277" />
	</node>
	<node lat="70.50369721998725" lon="22.1458999633208" id="-37639">
		<tag k="name" v="Risvåg" />
		<tag k="place" v="hamlet" />
		<tag k="ssr:stedsnr" v="747717" />
	</node>
	<node lat="70.67264779535869" lon="22.592625366373486" id="-37644">
		<tag k="name" v="Bergli" />
		<tag k="place" v="farm" />
		<tag k="ssr:stedsnr" v="748665" />
	</node>
	<node lat="70.55826111689967" lon="22.651958277332938" id="-37667">
		<tag k="name" v="Midbotn" />
		<tag k="place" v="locality" />
		<tag k="ssr:stedsnr" v="762712" />
	</node>
	<node lat="70.48640556055601" lon="22.161097170086844" id="-37671">
		<tag k="loc_name:fkv" v="Hasviika" />
		<tag k="name" v="Hasvik" />
		<tag k="name:no" v="Hasvik" />
		<tag k="place" v="village" />
		<tag k="ssr:stedsnr" v="808300" />
	</node>
	<node lat="70.6301777757803" lon="22.403813849626452" id="-37680">
=======
	<node id="-902004" lat="70.5158777768" lon="22.2439055158">
		<tag k="name" v="Sverresborg" />
		<tag k="place" v="farm" />
		<tag k="ssr:stedsnr" v="819383" />
	</node>
	<node id="-901843" lat="70.4998194426" lon="22.1432944085">
		<tag k="name" v="Toften" />
		<tag k="place" v="locality" />
		<tag k="ssr:stedsnr" v="576384" />
	</node>
	<node id="-901360" lat="70.6096944466" lon="22.178938851">
		<tag k="alt_name" v="Sandvik" />
		<tag k="name" v="Sandvika" />
		<tag k="place" v="isolated_dwelling" />
		<tag k="ssr:stedsnr" v="930735" />
	</node>
	<node id="-901103" lat="70.6713805545" lon="22.595263825">
		<tag k="name" v="Gamnes" />
		<tag k="place" v="isolated_dwelling" />
		<tag k="ssr:stedsnr" v="384652" />
	</node>
	<node id="-901358" lat="70.6416916676" lon="22.5638416061">
		<tag k="name" v="Elvestrand" />
		<tag k="place" v="isolated_dwelling" />
		<tag k="ssr:stedsnr" v="930695" />
	</node>
	<node id="-901997" lat="70.6301777758" lon="22.4038138496">
>>>>>>> e1d4bc35ff8a6074a6f2e91616a996b547c36f15
		<tag k="alt_name" v="Åfjord" />
		<tag k="name" v="Ofjord" />
		<tag k="place" v="isolated_dwelling" />
		<tag k="ssr:stedsnr" v="809703" />
	</node>
<<<<<<< HEAD
	<node lat="70.51587777684269" lon="22.243905515766798" id="-37688">
		<tag k="name" v="Sverresborg" />
		<tag k="place" v="farm" />
		<tag k="ssr:stedsnr" v="819383" />
	</node>
	<node lat="70.61184977367984" lon="22.20066566444247" id="-37697">
		<tag k="name" v="Sarset" />
		<tag k="place" v="farm" />
		<tag k="ssr:stedsnr" v="870715" />
	</node>
	<node lat="70.60965171143361" lon="22.17912553663299" id="-37712">
		<tag k="alt_name" v="Sandvik" />
		<tag k="name" v="Sandvika" />
=======
	<node id="-901612" lat="70.5195472225" lon="22.5955360632">
		<tag k="name" v="Karkfjord" />
>>>>>>> e1d4bc35ff8a6074a6f2e91616a996b547c36f15
		<tag k="place" v="locality" />
		<tag k="ssr:stedsnr" v="930735" />
	</node>
<<<<<<< HEAD
	<node lat="70.67354167063111" lon="22.602208272458913" id="-37714">
		<tag k="name" v="Gammelheim" />
		<tag k="place" v="farm" />
		<tag k="ssr:stedsnr" v="930660" />
	</node>
	<node lat="70.64170313126185" lon="22.563712000927577" id="-37737">
		<tag k="name" v="Elvestrand" />
=======
	<node id="-901610" lat="70.6000694477" lon="22.1154638441">
		<tag k="name" v="Nygardene" />
		<tag k="place" v="hamlet" />
		<tag k="ssr:stedsnr" v="155598" />
	</node>
	<node id="-901737" lat="70.4996416698" lon="22.5691082709">
		<tag k="name" v="Klasnes" />
>>>>>>> e1d4bc35ff8a6074a6f2e91616a996b547c36f15
		<tag k="place" v="locality" />
		<tag k="ssr:stedsnr" v="930695" />
	</node>
<<<<<<< HEAD
	<node lat="70.67926111011863" lon="22.517683269846156" id="-37766">
		<tag k="name" v="Langkeila" />
		<tag k="place" v="farm" />
		<tag k="ssr:stedsnr" v="20685" />
	</node>
	<node lat="70.50155000396596" lon="22.150961078389468" id="-37767">
		<tag k="name" v="Hasvåg" />
		<tag k="place" v="farm" />
		<tag k="ssr:stedsnr" v="20751" />
	</node>
	<node lat="70.59817499807458" lon="22.31185549888135" id="-37794">
=======
	<node id="-902025" lat="70.4956027828" lon="22.3535471714">
		<tag k="alt_name" v="Meltefjorden, s" />
		<tag k="fixme" v="multiple name tags, choose one and add the other to alt_name" />
		<tag k="name" v="Meltefjord;Søre Meltefjorden" />
		<tag k="place" v="isolated_dwelling" />
		<tag k="ssr:stedsnr" v="869210" />
	</node>
	<node id="-901734" lat="70.616763893" lon="22.7127055023">
		<tag k="name" v="Børfjord" />
		<tag k="place" v="isolated_dwelling" />
		<tag k="ssr:stedsnr" v="337197" />
	</node>
	<node id="-901475" lat="70.5981749981" lon="22.3118554989">
>>>>>>> e1d4bc35ff8a6074a6f2e91616a996b547c36f15
		<tag k="name" v="Nordre Hansvoll" />
		<tag k="place" v="hamlet" />
		<tag k="ssr:stedsnr" v="31831" />
	</node>
<<<<<<< HEAD
	<node lat="70.34005000104659" lon="22.47988882959148" id="-37800">
		<tag k="name" v="Fuglelv" />
		<tag k="place" v="locality" />
		<tag k="ssr:stedsnr" v="34753" />
	</node>
	<node lat="70.36131111434462" lon="22.5518805163286" id="-37817">
		<tag k="name" v="Midtbukta" />
		<tag k="place" v="isolated_dwelling" />
		<tag k="ssr:stedsnr" v="81152" />
	</node>
	<node lat="70.3548833371229" lon="22.41471384497352" id="-37818">
		<tag k="name" v="Roren" />
		<tag k="place" v="locality" />
		<tag k="ssr:stedsnr" v="81162" />
	</node>
	<node lat="70.49216678926429" lon="22.141136572297533" id="-37843">
		<tag k="name" v="Kobbevåg" />
=======
	<node id="-901986" lat="70.5683305521" lon="22.2389694042">
		<tag k="name" v="Haraldseng" />
		<tag k="place" v="isolated_dwelling" />
		<tag k="ssr:stedsnr" v="809382" />
	</node>
	<node id="-901089" lat="70.5232055541" lon="22.6583888353">
		<tag k="name" v="Øyfjordholmen" />
		<tag k="place" v="farm" />
		<tag k="ssr:stedsnr" v="466631" />
	</node>
	<node id="-901088" lat="70.3379249976" lon="22.459622177">
		<tag k="name" v="Hammarbukta" />
		<tag k="place" v="farm" />
		<tag k="ssr:stedsnr" v="464899" />
	</node>
	<node id="-900959" lat="70.6480083352" lon="22.5638388404">
		<tag k="name" v="Gammelgård" />
>>>>>>> e1d4bc35ff8a6074a6f2e91616a996b547c36f15
		<tag k="place" v="farm" />
		<tag k="ssr:stedsnr" v="93918" />
	</node>
<<<<<<< HEAD
	<node lat="70.63279444813756" lon="21.983674973701422" id="-37879">
=======
	<node id="-901597" lat="70.6327944481" lon="21.9836749737">
>>>>>>> e1d4bc35ff8a6074a6f2e91616a996b547c36f15
		<tag k="building" v="industrial" />
		<tag k="industrial" v="factory" />
		<tag k="name" v="Fabrikken" />
		<tag k="ssr:stedsnr" v="151441" />
	</node>
<<<<<<< HEAD
	<node lat="70.51954722247432" lon="22.595536063178386" id="-37897">
		<tag k="name" v="Karkfjord" />
		<tag k="place" v="locality" />
		<tag k="ssr:stedsnr" v="155669" />
	</node>
	<node lat="70.6387111074387" lon="22.59291384656206" id="-37900">
		<tag k="name" v="Dønnesfjordbotn" />
=======
	<node id="-901596" lat="70.6321222266" lon="22.0404416336">
		<tag k="name" v="Hespervika" />
		<tag k="place" v="quarter" />
		<tag k="ssr:stedsnr" v="151419" />
	</node>
	<node id="-901081" lat="70.628061111" lon="22.7144221762">
		<tag k="name" v="Solvang" />
		<tag k="place" v="locality" />
		<tag k="ssr:stedsnr" v="459020" />
	</node>
	<node id="-901971" lat="70.4864055606" lon="22.1610971701">
		<tag k="loc_name:fkv" v="Hasviika" />
		<tag k="name" v="Hasvik" />
		<tag k="name:no" v="Hasvik" />
		<tag k="place" v="village" />
		<tag k="ssr:stedsnr" v="808300" />
	</node>
	<node id="-902097" lat="69.6807751959" lon="19.0868014399">
		<tag k="fixme" v="consider place=hamlet" />
		<tag k="name" v="Krokelv" />
		<tag k="place" v="farm" />
		<tag k="ssr:stedsnr" v="1076826" />
	</node>
	<node id="-902096" lat="69.6548386171" lon="18.9540555979">
		<tag k="amenity" v="school" />
		<tag k="name" v="Ishavsbyen videregående skole" />
		<tag k="ssr:stedsnr" v="1075695" />
	</node>
	<node id="-900941" lat="70.6105138865" lon="22.231855513">
		<tag k="name" v="Kvitberg" />
>>>>>>> e1d4bc35ff8a6074a6f2e91616a996b547c36f15
		<tag k="place" v="farm" />
		<tag k="ssr:stedsnr" v="161874" />
	</node>
<<<<<<< HEAD
	<node lat="70.63240555817443" lon="22.704633274205413" id="-37901">
		<tag k="name" v="Tomasnes" />
		<tag k="place" v="farm" />
		<tag k="ssr:stedsnr" v="161879" />
	</node>
	<node lat="70.35332778322217" lon="22.46282772797344" id="-37905">
		<tag k="fixme" v="multiple name tags, choose one and add the other to alt_name" />
		<tag k="name" v="Sommarset;Ytter Sommarset" />
=======
	<node id="-901708" lat="70.6581555564" lon="22.8239916106">
		<tag k="name" v="Kalveland" />
		<tag k="place" v="locality" />
		<tag k="ssr:stedsnr" v="323447" />
	</node>
	<node id="-900939" lat="70.340050001" lon="22.4798888296">
		<tag k="name" v="Fuglelv" />
>>>>>>> e1d4bc35ff8a6074a6f2e91616a996b547c36f15
		<tag k="place" v="locality" />
		<tag k="ssr:stedsnr" v="202163" />
	</node>
<<<<<<< HEAD
	<node lat="70.50460833570253" lon="22.536702731642457" id="-37968">
		<tag k="name" v="Grunnfjord" />
		<tag k="place" v="isolated_dwelling" />
		<tag k="ssr:stedsnr" v="277698" />
	</node>
	<node lat="70.6581555564288" lon="22.82399161063245" id="-37987">
		<tag k="name" v="Kalveland" />
		<tag k="place" v="locality" />
		<tag k="ssr:stedsnr" v="323447" />
	</node>
	<node lat="70.49964166978043" lon="22.569108270932325" id="-38010">
		<tag k="name" v="Klasnes" />
=======
	<node id="-901065" lat="70.6345833364" lon="22.0376110774">
		<tag k="name" v="Nes-Pervik" />
		<tag k="place" v="locality" />
		<tag k="ssr:stedsnr" v="263711" />
	</node>
	<node id="-901448" lat="70.6792611101" lon="22.5176832698">
		<tag k="name" v="Langkeila" />
		<tag k="place" v="farm" />
		<tag k="ssr:stedsnr" v="20685" />
	</node>
	<node id="-901697" lat="70.5202694494" lon="22.2528555029">
		<tag k="name" v="Hasfjord" />
		<tag k="place" v="farm" />
		<tag k="ssr:stedsnr" v="323309" />
	</node>
	<node id="-901958" lat="70.4865388931" lon="22.1320305166">
		<tag k="name" v="Seivåg" />
>>>>>>> e1d4bc35ff8a6074a6f2e91616a996b547c36f15
		<tag k="place" v="locality" />
		<tag k="ssr:stedsnr" v="337690" />
	</node>
<<<<<<< HEAD
	<node lat="70.65373840627565" lon="22.548582352613987" id="-38015">
		<tag k="name" v="Brattli" />
		<tag k="place" v="farm" />
		<tag k="ssr:stedsnr" v="384684" />
	</node>
	<node lat="70.52005138592384" lon="22.255215725674624" id="-38028">
		<tag k="name" v="Myrenga" />
=======
	<node id="-901957" lat="70.5175388868" lon="22.2462610653">
		<tag k="name" v="Hofseth" />
		<tag k="place" v="isolated_dwelling" />
		<tag k="ssr:stedsnr" v="760369" />
	</node>
	<node id="-901316" lat="70.6721555556" lon="22.5903443835">
		<tag k="name" v="Bergli" />
>>>>>>> e1d4bc35ff8a6074a6f2e91616a996b547c36f15
		<tag k="place" v="isolated_dwelling" />
		<tag k="ssr:stedsnr" v="384335" />
	</node>
<<<<<<< HEAD
	<node lat="70.65411111454027" lon="21.99318329347974" id="-38030">
		<tag k="name" v="Darup" />
		<tag k="place" v="isolated_dwelling" />
		<tag k="ssr:stedsnr" v="384539" />
	</node>
	<node lat="70.63230833701458" lon="21.985624976028557" id="-38035">
		<tag k="name" v="Sørvær" />
=======
	<node id="-901441" lat="70.501550004" lon="22.1509610784">
		<tag k="name" v="Hasvåg" />
		<tag k="place" v="farm" />
		<tag k="ssr:stedsnr" v="20751" />
	</node>
	<node id="-901824" lat="70.6218444426" lon="22.7160499354">
		<tag k="name" v="Børstrand" />
		<tag k="place" v="farm" />
		<tag k="ssr:stedsnr" v="566369" />
	</node>
	<node id="-901664" lat="70.5949888928" lon="22.3019471674">
		<tag k="alt_name" v="Søndre Hansvoll" />
		<tag k="fixme" v="consider place=hamlet" />
		<tag k="name" v="Hansvoll" />
		<tag k="place" v="village" />
		<tag k="ssr:stedsnr" v="208302" />
	</node>
	<node id="-901350" lat="70.6735416706" lon="22.6022082725">
		<tag k="name" v="Gammelheim" />
		<tag k="place" v="farm" />
		<tag k="ssr:stedsnr" v="930660" />
	</node>
	<node id="-901002" lat="70.6387111074" lon="22.5929138466">
		<tag k="name" v="Dønnesfjordbotn" />
		<tag k="place" v="farm" />
		<tag k="ssr:stedsnr" v="161874" />
	</node>
	<node id="-901177" lat="70.3461861161" lon="22.4749277381">
		<tag k="name" v="Inner-Sommarset" />
		<tag k="place" v="locality" />
		<tag k="ssr:stedsnr" v="510056" />
	</node>
	<node id="-901174" lat="70.4860111129" lon="22.2011110565">
		<tag k="name" v="Vestre Korsvika" />
		<tag k="place" v="quarter" />
		<tag k="ssr:stedsnr" v="483919" />
	</node>
	<node id="-901961" lat="70.5582611169" lon="22.6519582773">
		<tag k="name" v="Midbotn" />
		<tag k="place" v="locality" />
		<tag k="ssr:stedsnr" v="762712" />
	</node>
	<node id="-901172" lat="70.5021638874" lon="22.1463694099">
		<tag k="name" v="Hasvåg" />
		<tag k="place" v="farm" />
		<tag k="ssr:stedsnr" v="465573" />
	</node>
	<node id="-901406" lat="70.611505558" lon="22.2010999726">
		<tag k="name" v="Sarset" />
		<tag k="place" v="isolated_dwelling" />
		<tag k="ssr:stedsnr" v="870715" />
	</node>
	<node id="-901298" lat="70.5973361111" lon="22.1089221933">
		<tag k="fixme" v="consider place=hamlet" />
		<tag k="name" v="Breivik" />
>>>>>>> e1d4bc35ff8a6074a6f2e91616a996b547c36f15
		<tag k="place" v="village" />
		<tag k="ssr:stedsnr" v="384697" />
	</node>
<<<<<<< HEAD
	<node lat="70.49567222132518" lon="22.458072163800978" id="-38054">
		<tag k="name" v="Valan" />
		<tag k="place" v="locality" />
		<tag k="ssr:stedsnr" v="444175" />
	</node>
	<node lat="70.61470833771904" lon="22.033386083951296" id="-38072">
=======
	<node id="-901038" lat="70.6147083377" lon="22.033386084">
>>>>>>> e1d4bc35ff8a6074a6f2e91616a996b547c36f15
		<tag k="name" v="Markeila" />
		<tag k="place" v="isolated_dwelling" />
		<tag k="ssr:stedsnr" v="445737" />
	</node>
<<<<<<< HEAD
	<node lat="70.60318813193486" lon="22.317135857300677" id="-38080">
		<tag k="name" v="Storbakken" />
		<tag k="place" v="farm" />
		<tag k="ssr:stedsnr" v="505381" />
	</node>
	<node lat="70.51573611388594" lon="22.243833299093414" id="-38083">
		<tag k="name" v="Hofset" />
		<tag k="place" v="locality" />
		<tag k="ssr:stedsnr" v="505319" />
	</node>
	<node lat="70.49981944263766" lon="22.14329440851132" id="-38152">
		<tag k="name" v="Toften" />
		<tag k="place" v="locality" />
		<tag k="ssr:stedsnr" v="576384" />
	</node>
	<node lat="70.32171944929344" lon="22.49565271687026" id="-38167">
		<tag k="name" v="Botn" />
=======
	<node id="-901291" lat="70.6072111082" lon="22.2865888547">
		<tag k="name" v="Gjertrudgammen" />
		<tag k="place" v="locality" />
		<tag k="ssr:stedsnr" v="881816" />
	</node>
	<node id="-901858" lat="70.3217194493" lon="22.4956527169">
		<tag k="name" v="Botn" />
		<tag k="place" v="isolated_dwelling" />
		<tag k="ssr:stedsnr" v="580770" />
	</node>
	<node id="-901617" lat="70.6324055582" lon="22.7046332742">
		<tag k="name" v="Tomasnes" />
		<tag k="place" v="farm" />
		<tag k="ssr:stedsnr" v="161879" />
	</node>
	<node id="-901923" lat="70.50369722" lon="22.1458999633">
		<tag k="name" v="Risvåg" />
		<tag k="place" v="hamlet" />
		<tag k="ssr:stedsnr" v="747717" />
	</node>
	<node id="-901792" lat="70.5897999985" lon="22.2908749574">
		<tag k="name" v="Leirkjosen" />
>>>>>>> e1d4bc35ff8a6074a6f2e91616a996b547c36f15
		<tag k="place" v="isolated_dwelling" />
		<tag k="ssr:stedsnr" v="580770" />
	</node>
<<<<<<< HEAD
	<node lat="70.51753888677891" lon="22.24626106531864" id="-38249">
		<tag k="name" v="Hofseth" />
=======
	<node id="-901535" lat="70.492113889" lon="22.1408221812">
		<tag k="name" v="Kobbevåg" />
>>>>>>> e1d4bc35ff8a6074a6f2e91616a996b547c36f15
		<tag k="place" v="isolated_dwelling" />
		<tag k="ssr:stedsnr" v="760369" />
	</node>
<<<<<<< HEAD
	<node lat="70.48653889305088" lon="22.132030516577963" id="-38250">
		<tag k="name" v="Seivåg" />
		<tag k="place" v="locality" />
		<tag k="ssr:stedsnr" v="760978" />
	</node>
	<node lat="70.5683370750913" lon="22.238947921945535" id="-38271">
		<tag k="name" v="Haraldseng" />
		<tag k="place" v="farm" />
		<tag k="ssr:stedsnr" v="809382" />
	</node>
	<node lat="70.48922500295116" lon="22.306822169578204" id="-38303">
		<tag k="name" v="Taborshamn" />
		<tag k="place" v="locality" />
		<tag k="ssr:stedsnr" v="869219" />
	</node>
	<node lat="70.49560278283978" lon="22.353547171381383" id="-38307">
		<tag k="alt_name" v="Meltefjorden, s" />
		<tag k="fixme" v="multiple name tags, choose one and add the other to alt_name" />
		<tag k="name" v="Meltefjord;Søre Meltefjorden" />
=======
	<node id="-902046" lat="70.6112166672" lon="22.2392555093">
		<tag k="name" v="Per-Iversheim" />
		<tag k="place" v="locality" />
		<tag k="ssr:stedsnr" v="870391" />
	</node>
	<node id="-901125" lat="70.6051944435" lon="22.3238749554">
		<tag k="name" v="Storbakken" />
		<tag k="place" v="isolated_dwelling" />
		<tag k="ssr:stedsnr" v="505381" />
	</node>
	<node id="-901613" lat="70.5538888949" lon="22.6152582725">
		<tag k="name" v="Øyfjord" />
		<tag k="place" v="isolated_dwelling" />
		<tag k="ssr:stedsnr" v="155699" />
	</node>
	<node id="-901017" lat="70.4956722213" lon="22.4580721638">
		<tag k="name" v="Valan" />
		<tag k="place" v="locality" />
		<tag k="ssr:stedsnr" v="444175" />
	</node>
	<node id="-901398" lat="70.4843500022" lon="22.2431555069">
		<tag k="name" v="Laukslett" />
		<tag k="place" v="isolated_dwelling" />
		<tag k="ssr:stedsnr" v="944414" />
	</node>
	<node id="-901652" lat="70.6353916652" lon="22.5770193787">
		<tag k="name" v="Dønnesfjordbotn" />
>>>>>>> e1d4bc35ff8a6074a6f2e91616a996b547c36f15
		<tag k="place" v="farm" />
		<tag k="ssr:stedsnr" v="869210" />
	</node>
	<node lat="70.52888055376577" lon="22.3004888495358" id="-38311">
		<tag k="name" v="Lillebotn" />
		<tag k="place" v="locality" />
		<tag k="ssr:stedsnr" v="869334" />
	</node>
<<<<<<< HEAD
	<node lat="70.51907887576786" lon="22.25000857660705" id="-38313">
=======
	<node id="-902034" lat="70.5193694473" lon="22.2513471859">
>>>>>>> e1d4bc35ff8a6074a6f2e91616a996b547c36f15
		<tag k="alt_name" v="Elenheimen" />
		<tag k="name" v="Elenheim" />
		<tag k="old_name" v="Elnheim" />
		<tag k="place" v="farm" />
		<tag k="ssr:stedsnr" v="869346" />
	</node>
<<<<<<< HEAD
	<node lat="70.61121666718438" lon="22.23925550928783" id="-38325">
		<tag k="name" v="Per-Iversheim" />
		<tag k="place" v="locality" />
		<tag k="ssr:stedsnr" v="870391" />
	</node>
	<node lat="70.60721110821555" lon="22.28658885467531" id="-38345">
		<tag k="name" v="Gjertrudgammen" />
=======
	<node id="-902032" lat="70.5288805538" lon="22.3004888495">
		<tag k="name" v="Lillebotn" />
>>>>>>> e1d4bc35ff8a6074a6f2e91616a996b547c36f15
		<tag k="place" v="locality" />
		<tag k="ssr:stedsnr" v="881816" />
	</node>
<<<<<<< HEAD
	<node lat="70.6338555560021" lon="22.02408886036556" id="-38361">
		<tag k="name" v="Vikran" />
		<tag k="place" v="quarter" />
		<tag k="ssr:stedsnr" v="940401" />
	</node>
	<node lat="70.61493333519346" lon="22.03337217535815" id="-38362">
		<tag k="name" v="Pompervika" />
		<tag k="place" v="locality" />
		<tag k="ssr:stedsnr" v="940405" />
	</node>
	<node lat="70.48435000220351" lon="22.243155506924435" id="-38373">
		<tag k="name" v="Laukslett" />
		<tag k="place" v="isolated_dwelling" />
		<tag k="ssr:stedsnr" v="944414" />
	</node>
	<node lat="69.65483861708206" lon="18.954055597917613" id="-38429">
		<tag k="amenity" v="school" />
		<tag k="name" v="Ishavsbyen videregående skole" />
		<tag k="ssr:stedsnr" v="1075695" />
=======
	<node id="-901006" lat="70.3533277832" lon="22.462827728">
		<tag k="fixme" v="multiple name tags, choose one and add the other to alt_name" />
		<tag k="name" v="Sommarset;Ytter Sommarset" />
		<tag k="place" v="locality" />
		<tag k="ssr:stedsnr" v="202163" />
	</node>
	<node id="-901901" lat="70.5993027785" lon="22.1214888523">
		<tag k="name" v="Nygård" />
		<tag k="place" v="farm" />
		<tag k="ssr:stedsnr" v="636277" />
	</node>
	<node id="-901388" lat="70.6149333352" lon="22.0333721754">
		<tag k="name" v="Pompervika" />
		<tag k="place" v="locality" />
		<tag k="ssr:stedsnr" v="940405" />
	</node>
	<node id="-901387" lat="70.633855556" lon="22.0240888604">
		<tag k="name" v="Vikran" />
		<tag k="place" v="quarter" />
		<tag k="ssr:stedsnr" v="940401" />
	</node>
	<node id="-902026" lat="70.489225003" lon="22.3068221696">
		<tag k="name" v="Taborshamn" />
		<tag k="place" v="locality" />
		<tag k="ssr:stedsnr" v="869219" />
	</node>
	<node id="-901769" lat="70.3281916661" lon="22.4808693805">
		<tag k="name" v="Stjernvåg" />
		<tag k="place" v="locality" />
		<tag k="ssr:stedsnr" v="388049" />
	</node>
	<node id="-901001" lat="70.5046083357" lon="22.5367027316">
		<tag k="name" v="Grunnfjord" />
		<tag k="place" v="isolated_dwelling" />
		<tag k="ssr:stedsnr" v="277698" />
	</node>
	<node id="-901003" lat="70.722202783" lon="22.7183944027">
		<tag k="name" v="Galten" />
		<tag k="place" v="farm" />
		<tag k="ssr:stedsnr" v="283587" />
	</node>
	<node id="-901504" lat="70.3613111143" lon="22.5518805163">
		<tag k="name" v="Midtbukta" />
		<tag k="place" v="isolated_dwelling" />
		<tag k="ssr:stedsnr" v="81152" />
	</node>
	<node id="-901637" lat="70.5887694425" lon="22.2871193888">
		<tag k="name" v="Breivikbotn" />
		<tag k="place" v="village" />
		<tag k="ssr:stedsnr" v="202353" />
	</node>
	<node id="-901763" lat="70.632308337" lon="21.985624976">
		<tag k="name" v="Sørvær" />
		<tag k="place" v="village" />
		<tag k="ssr:stedsnr" v="384697" />
	</node>
	<node id="-901762" lat="70.653780557" lon="22.5486249496">
		<tag k="name" v="Brattli" />
		<tag k="place" v="isolated_dwelling" />
		<tag k="ssr:stedsnr" v="384684" />
	</node>
	<node id="-901505" lat="70.3548833371" lon="22.414713845">
		<tag k="name" v="Roren" />
		<tag k="place" v="locality" />
		<tag k="ssr:stedsnr" v="81162" />
>>>>>>> e1d4bc35ff8a6074a6f2e91616a996b547c36f15
	</node>
</osm>
