<?xml version="1.0" encoding="UTF-8"?>
<osm version="0.6" generator="osmapis">
	<node lat="70.53045833832586" lon="22.174780519392417" id="-40961">
		<tag k="name" v="Kvithellardalen" />
		<tag k="natural" v="valley" />
		<tag k="place" v="locality" />
		<tag k="ssr:stedsnr" v="20746" />
	</node>
	<node lat="70.52440278339587" lon="22.179838836712612" id="-40962">
		<tag k="fixme" v="consider natural=peak for the most distinct mountains in the district" />
		<tag k="name" v="Kristinenavaren" />
		<tag k="natural" v="hill" />
		<tag k="place" v="locality" />
		<tag k="ssr:stedsnr" v="20747" />
	</node>
	<node lat="70.56303611265926" lon="22.270772167501384" id="-40969">
		<tag k="name" v="Stolpehaugen" />
		<tag k="natural" v="hill" />
		<tag k="place" v="locality" />
		<tag k="ssr:stedsnr" v="31778" />
	</node>
	<node lat="70.51775555927593" lon="22.129205507754662" id="-40970">
		<tag k="fixme" v="consider natural=peak for the most distinct mountains in the district" />
		<tag k="name" v="Midtre Knotten" />
		<tag k="natural" v="hill" />
		<tag k="place" v="locality" />
		<tag k="ssr:stedsnr" v="34369" />
	</node>
	<node lat="70.59155000321627" lon="21.990377741947643" id="-40976">
		<tag k="alt_name" v="Sjåberget" />
		<tag k="name" v="Skjåberget" />
		<tag k="natural" v="hill" />
		<tag k="place" v="locality" />
		<tag k="ssr:stedsnr" v="80704" />
	</node>
	<node lat="70.30966111190737" lon="22.56598049108048" id="-40978">
		<tag k="name" v="Finndalsgropa" />
		<tag k="natural" v="valley" />
		<tag k="place" v="locality" />
		<tag k="ssr:stedsnr" v="81125" />
	</node>
	<node lat="70.31871110945748" lon="22.504844403465974" id="-40979">
		<tag k="name" v="Nerdalen" />
		<tag k="natural" v="valley" />
		<tag k="place" v="locality" />
		<tag k="ssr:stedsnr" v="81136" />
	</node>
	<node lat="70.34340000015875" lon="22.401744406643203" id="-40980">
		<tag k="fixme" v="consider natural=peak for the most distinct mountains in the district" />
		<tag k="loc_name:se" v="Ruovravárri" />
		<tag k="name" v="Rorafjellet" />
		<tag k="name:no" v="Rorafjellet" />
		<tag k="natural" v="hill" />
		<tag k="place" v="locality" />
		<tag k="ssr:stedsnr" v="81140" />
	</node>
	<node lat="70.59939999924606" lon="22.917652706496707" id="-40981">
		<tag k="name" v="Hamnefjorddalen" />
		<tag k="natural" v="valley" />
		<tag k="place" v="locality" />
		<tag k="ssr:stedsnr" v="81432" />
	</node>
	<node lat="70.59568055852252" lon="22.023783288327273" id="-40984">
		<tag k="fixme" v="consider natural=peak for the most distinct mountains in the district" />
		<tag k="name" v="Andotten - Ánddot" />
		<tag k="name:no" v="Andotten" />
		<tag k="name:se" v="Ánddot" />
		<tag k="natural" v="hill" />
		<tag k="old_name:se" v="Andut" />
		<tag k="place" v="locality" />
		<tag k="ssr:stedsnr" v="86714" />
	</node>
	<node lat="70.48237222296005" lon="22.19019161112518" id="-40988">
		<tag k="name" v="Helenaberget" />
		<tag k="natural" v="hill" />
		<tag k="place" v="locality" />
		<tag k="ssr:stedsnr" v="91526" />
	</node>
	<node lat="70.60915833137557" lon="22.160661072406377" id="-40989">
		<tag k="name" v="Benkan" />
		<tag k="natural" v="hill" />
		<tag k="place" v="locality" />
		<tag k="ssr:stedsnr" v="91269" />
	</node>
	<node lat="70.56034444406218" lon="22.276230517582476" id="-40991">
		<tag k="alt_name" v="Flågahaugen" />
		<tag k="name" v="Flogahaugen" />
		<tag k="natural" v="hill" />
		<tag k="place" v="locality" />
		<tag k="ssr:stedsnr" v="92774" />
	</node>
	<node lat="70.64797222527311" lon="21.94880274919972" id="-40992">
		<tag k="name" v="Kolbrennaren" />
		<tag k="natural" v="hill" />
		<tag k="place" v="locality" />
		<tag k="ssr:stedsnr" v="95118" />
	</node>
	<node lat="70.3199749983595" lon="22.46988607115596" id="-40999">
		<tag k="loc_name:se" v="Pedarvággi" />
		<tag k="name" v="Pedersdalen" />
		<tag k="name:no" v="Pedersdalen" />
		<tag k="natural" v="valley" />
		<tag k="place" v="locality" />
		<tag k="ssr:stedsnr" v="141134" />
	</node>
	<node lat="70.31558611237857" lon="22.484836067654708" id="-41000">
		<tag k="name" v="Sørdalen" />
		<tag k="natural" v="valley" />
		<tag k="place" v="locality" />
		<tag k="ssr:stedsnr" v="141135" />
	</node>
	<node lat="70.3164916699736" lon="22.49601940375086" id="-41001">
		<tag k="name" v="Sørdalstind" />
		<tag k="natural" v="hill" />
		<tag k="place" v="locality" />
		<tag k="ssr:stedsnr" v="141137" />
	</node>
	<node lat="70.5728444438142" lon="22.418205518369447" id="-41004">
		<tag k="fixme" v="consider natural=peak for the most distinct mountains in the district" />
		<tag k="name" v="Fokfjellet" />
		<tag k="natural" v="hill" />
		<tag k="place" v="locality" />
		<tag k="ssr:stedsnr" v="141342" />
	</node>
	<node lat="70.70079721939982" lon="22.37486939695742" id="-41005">
		<tag k="fixme" v="multiple name tags, choose one and add the other to alt_name; consider natural=peak for the most distinct mountains in the district" />
		<tag k="name" v="Steinfjellet;Høvelfjellet" />
		<tag k="natural" v="hill" />
		<tag k="place" v="locality" />
		<tag k="ssr:stedsnr" v="141639" />
	</node>
	<node lat="70.62226111215607" lon="22.143508304310238" id="-41007">
		<tag k="alt_name" v="Falkberghøgda" />
		<tag k="fixme" v="consider natural=peak for the most distinct mountains in the district" />
		<tag k="name" v="Falkeberghøgda" />
		<tag k="natural" v="hill" />
		<tag k="place" v="locality" />
		<tag k="ssr:stedsnr" v="141689" />
	</node>
	<node lat="70.48839722607269" lon="22.189149972576356" id="-41011">
		<tag k="name" v="Karihaugen" />
		<tag k="natural" v="hill" />
		<tag k="place" v="locality" />
		<tag k="ssr:stedsnr" v="151354" />
	</node>
	<node lat="70.48711666393663" lon="22.194386076952487" id="-41013">
		<tag k="name" v="Bech-Haugen" />
		<tag k="natural" v="hill" />
		<tag k="place" v="locality" />
		<tag k="ssr:stedsnr" v="151366" />
	</node>
	<node lat="70.62761667109991" lon="21.98077495497452" id="-41015">
		<tag k="name" v="Kirkegårdshaugen" />
		<tag k="natural" v="hill" />
		<tag k="place" v="locality" />
		<tag k="ssr:stedsnr" v="151407" />
	</node>
	<node lat="70.63360555247134" lon="22.018872184148652" id="-41016">
		<tag k="name" v="Sandstavikhaugen" />
		<tag k="natural" v="hill" />
		<tag k="place" v="locality" />
		<tag k="ssr:stedsnr" v="151415" />
	</node>
	<node lat="70.62921388631823" lon="22.568544402551147" id="-41033">
		<tag k="name" v="Geitdalen" />
		<tag k="natural" v="valley" />
		<tag k="place" v="locality" />
		<tag k="ssr:stedsnr" v="262691" />
	</node>
	<node lat="70.72591110984847" lon="22.714355496705355" id="-41037">
		<tag k="fixme" v="consider natural=peak for the most distinct mountains in the district" />
		<tag k="name" v="Borkfjellet" />
		<tag k="natural" v="hill" />
		<tag k="place" v="locality" />
		<tag k="ssr:stedsnr" v="262779" />
	</node>
	<node lat="70.32377777723066" lon="22.614630501809998" id="-41040">
		<tag k="fixme" v="consider natural=peak for the most distinct mountains in the district" />
		<tag k="name" v="Kjerringfjordfjellet - Geaccerášša" />
		<tag k="name:no" v="Kjerringfjordfjellet" />
		<tag k="name:se" v="Geaccerášša" />
		<tag k="natural" v="hill" />
		<tag k="old_name:se" v="Gæzzerašša" />
		<tag k="place" v="locality" />
		<tag k="ssr:stedsnr" v="263153" />
	</node>
	<node lat="70.62653611325003" lon="22.426583275912392" id="-41045">
		<tag k="fixme" v="consider natural=peak for the most distinct mountains in the district" />
		<tag k="name" v="Reinlifjellet" />
		<tag k="natural" v="hill" />
		<tag k="place" v="locality" />
		<tag k="ssr:stedsnr" v="263387" />
	</node>
	<node lat="70.61841111194659" lon="22.18844717958734" id="-41049">
		<tag k="name" v="Stupadalen" />
		<tag k="natural" v="valley" />
		<tag k="place" v="locality" />
		<tag k="ssr:stedsnr" v="263731" />
	</node>
	<node lat="70.55083888925215" lon="22.49957772982955" id="-41056">
		<tag k="fixme" v="consider natural=peak for the most distinct mountains in the district" />
		<tag k="name" v="Oarje Ávju" />
		<tag k="name:se" v="Oarje Ávju" />
		<tag k="natural" v="hill" />
		<tag k="old_name:se" v="Avjo, oarje" />
		<tag k="place" v="locality" />
		<tag k="ssr:stedsnr" v="202341" />
	</node>
	<node lat="70.55441944972821" lon="22.50044439581524" id="-41057">
		<tag k="fixme" v="consider natural=peak for the most distinct mountains in the district" />
		<tag k="name" v="Gaska Ávju" />
		<tag k="name:se" v="Gaska Ávju" />
		<tag k="natural" v="hill" />
		<tag k="old_name:se" v="Avjo, gaska" />
		<tag k="place" v="locality" />
		<tag k="ssr:stedsnr" v="202344" />
	</node>
	<node lat="70.47539166353224" lon="22.1473388565516" id="-41070">
		<tag k="name" v="Batteriet" />
		<tag k="natural" v="hill" />
		<tag k="place" v="locality" />
		<tag k="ssr:stedsnr" v="212485" />
	</node>
	<node lat="70.51649444996514" lon="22.201572171596077" id="-41085">
		<tag k="fixme" v="consider natural=peak for the most distinct mountains in the district" />
		<tag k="name" v="Russegrøftan" />
		<tag k="natural" v="hill" />
		<tag k="place" v="locality" />
		<tag k="ssr:stedsnr" v="455439" />
	</node>
	<node lat="70.60008611190898" lon="22.051955510317775" id="-41087">
		<tag k="name" v="Krokdalen" />
		<tag k="natural" v="valley" />
		<tag k="place" v="locality" />
		<tag k="ssr:stedsnr" v="455647" />
	</node>
	<node lat="70.5945194470974" lon="22.04958884252843" id="-41088">
		<tag k="name" v="Båtberget" />
		<tag k="natural" v="hill" />
		<tag k="place" v="locality" />
		<tag k="ssr:stedsnr" v="455649" />
	</node>
	<node lat="70.53521944802681" lon="22.285755516908054" id="-41090">
		<tag k="name" v="Vassbergan" />
		<tag k="natural" v="hill" />
		<tag k="place" v="locality" />
		<tag k="ssr:stedsnr" v="456808" />
	</node>
	<node lat="70.59121111594469" lon="22.30919440366098" id="-41091">
		<tag k="name" v="Lillevatnbakken" />
		<tag k="natural" v="slope" />
		<tag k="place" v="locality" />
		<tag k="ssr:stedsnr" v="456832" />
	</node>
	<node lat="70.59059166983161" lon="22.31443883889608" id="-41092">
		<tag k="name" v="Storlia" />
		<tag k="natural" v="slope" />
		<tag k="place" v="locality" />
		<tag k="ssr:stedsnr" v="456835" />
	</node>
	<node lat="70.60849166998645" lon="22.33679441290779" id="-41093">
		<tag k="name" v="Middagshaugen" />
		<tag k="natural" v="hill" />
		<tag k="place" v="locality" />
		<tag k="ssr:stedsnr" v="456840" />
	</node>
	<node lat="70.5996777786034" lon="22.31821385790154" id="-41094">
		<tag k="name" v="Haugen" />
		<tag k="natural" v="hill" />
		<tag k="place" v="locality" />
		<tag k="ssr:stedsnr" v="456843" />
	</node>
	<node lat="70.61602222119981" lon="22.39197772670544" id="-41104">
		<tag k="fixme" v="consider natural=peak for the most distinct mountains in the district" />
		<tag k="name" v="Middagsfjellet" />
		<tag k="natural" v="hill" />
		<tag k="place" v="locality" />
		<tag k="ssr:stedsnr" v="263394" />
	</node>
	<node lat="70.63174722351219" lon="22.298908278293155" id="-41105">
		<tag k="alt_name" v="Himmelhaugen, store" />
		<tag k="fixme" v="multiple name tags, choose one and add the other to alt_name" />
		<tag k="name" v="Imershaugen;Store Himmelhaugen" />
		<tag k="natural" v="hill" />
		<tag k="place" v="locality" />
		<tag k="ssr:stedsnr" v="263690" />
	</node>
	<node lat="70.4901944438977" lon="22.306358300072162" id="-41116">
		<tag k="name" v="Taborshamn" />
		<tag k="natural" v="valley" />
		<tag k="place" v="locality" />
		<tag k="ssr:stedsnr" v="277532" />
	</node>
	<node lat="70.29610833757488" lon="22.597627713801593" id="-41127">
		<tag k="name" v="Ruohtastallannjunni" />
		<tag k="name:se" v="Ruohtastallannjunni" />
		<tag k="old_name:se" v="Ruottastallannjunni" />
		<tag k="place" v="locality" />
		<tag k="ssr:stedsnr" v="323126" />
	</node>
	<node lat="70.53183333707653" lon="22.16789440243007" id="-41135">
		<tag k="name" v="Kvithellan" />
		<tag k="natural" v="hill" />
		<tag k="place" v="locality" />
		<tag k="ssr:stedsnr" v="333352" />
	</node>
	<node lat="70.53538055267137" lon="22.16834995427825" id="-41136">
		<tag k="fixme" v="consider natural=peak for the most distinct mountains in the district" />
		<tag k="name" v="Meian" />
		<tag k="natural" v="hill" />
		<tag k="place" v="locality" />
		<tag k="ssr:stedsnr" v="333357" />
	</node>
	<node lat="70.47649444617055" lon="22.165766613661404" id="-41137">
		<tag k="name" v="Lyktberget" />
		<tag k="natural" v="hill" />
		<tag k="place" v="locality" />
		<tag k="ssr:stedsnr" v="333509" />
	</node>
	<node lat="70.54198611137237" lon="22.18721107948092" id="-41138">
		<tag k="name" v="Svartbergan" />
		<tag k="natural" v="hill" />
		<tag k="place" v="locality" />
		<tag k="ssr:stedsnr" v="333301" />
	</node>
	<node lat="70.60493610940209" lon="22.353074956041656" id="-41142">
		<tag k="name" v="Gløttbakken" />
		<tag k="natural" v="slope" />
		<tag k="place" v="locality" />
		<tag k="ssr:stedsnr" v="334814" />
	</node>
	<node lat="70.60680833544887" lon="22.153586062009385" id="-41147">
		<tag k="name" v="Klubben" />
		<tag k="natural" v="hill" />
		<tag k="place" v="locality" />
		<tag k="ssr:stedsnr" v="384716" />
	</node>
	<node lat="70.60671667227659" lon="21.99101106905066" id="-41148">
		<tag k="name" v="Prestberget" />
		<tag k="natural" v="hill" />
		<tag k="place" v="locality" />
		<tag k="ssr:stedsnr" v="384718" />
	</node>
	<node lat="70.49106111258001" lon="22.155897176766622" id="-41157">
		<tag k="name" v="Smørbergan" />
		<tag k="natural" v="hill" />
		<tag k="place" v="locality" />
		<tag k="ssr:stedsnr" v="394315" />
	</node>
	<node lat="70.48918611317147" lon="22.143044395328996" id="-41158">
		<tag k="name" v="Skoddhaugen" />
		<tag k="natural" v="hill" />
		<tag k="place" v="locality" />
		<tag k="ssr:stedsnr" v="394317" />
	</node>
	<node lat="70.48093610903189" lon="22.130136062781528" id="-41164">
		<tag k="name" v="Rislia" />
		<tag k="natural" v="slope" />
		<tag k="place" v="locality" />
		<tag k="ssr:stedsnr" v="394499" />
	</node>
	<node lat="70.53384166552543" lon="22.28375827428808" id="-41167">
		<tag k="name" v="Pederlia" />
		<tag k="natural" v="slope" />
		<tag k="place" v="locality" />
		<tag k="ssr:stedsnr" v="395828" />
	</node>
	<node lat="70.53441388830734" lon="22.23218885779326" id="-41172">
		<tag k="alt_name" v="Barbostadalen" />
		<tag k="name" v="Barbosdalen" />
		<tag k="natural" v="valley" />
		<tag k="place" v="locality" />
		<tag k="ssr:stedsnr" v="444289" />
	</node>
	<node lat="70.53013610839118" lon="22.560333289493745" id="-41173">
		<tag k="alt_name" v="Raudfjellet" />
		<tag k="fixme" v="consider natural=peak for the most distinct mountains in the district" />
		<tag k="name" v="Rødfjellet" />
		<tag k="natural" v="hill" />
		<tag k="place" v="locality" />
		<tag k="ssr:stedsnr" v="444294" />
	</node>
	<node lat="70.6069750020759" lon="22.88569161756967" id="-41176">
		<tag k="fixme" v="consider natural=peak for the most distinct mountains in the district" />
		<tag k="name" v="Guhkesjárrášša" />
		<tag k="name:se" v="Guhkesjárrášša" />
		<tag k="natural" v="hill" />
		<tag k="old_name:se" v="Gukkesjarrašša" />
		<tag k="place" v="locality" />
		<tag k="ssr:stedsnr" v="445425" />
	</node>
	<node lat="70.67698889209372" lon="22.562749962367622" id="-41179">
		<tag k="fixme" v="consider natural=peak for the most distinct mountains in the district" />
		<tag k="name" v="Klubbfjellet" />
		<tag k="natural" v="hill" />
		<tag k="place" v="locality" />
		<tag k="ssr:stedsnr" v="445677" />
	</node>
	<node lat="70.59924445002147" lon="22.11371662371874" id="-41185">
		<tag k="name" v="Kavlberget" />
		<tag k="natural" v="hill" />
		<tag k="place" v="locality" />
		<tag k="ssr:stedsnr" v="455424" />
	</node>
	<node lat="70.483038888408" lon="22.104583290741086" id="-41186">
		<tag k="fixme" v="consider natural=peak for the most distinct mountains in the district" />
		<tag k="name" v="Nova" />
		<tag k="natural" v="hill" />
		<tag k="place" v="locality" />
		<tag k="ssr:stedsnr" v="455456" />
	</node>
	<node lat="70.47964444726539" lon="22.087369404721738" id="-41187">
		<tag k="name" v="Kristenlia" />
		<tag k="natural" v="slope" />
		<tag k="place" v="locality" />
		<tag k="ssr:stedsnr" v="455459" />
	</node>
	<node lat="70.4825277805497" lon="22.226116627770104" id="-41188">
		<tag k="fixme" v="consider natural=peak for the most distinct mountains in the district" />
		<tag k="name" v="Hasfjordaksla" />
		<tag k="natural" v="hill" />
		<tag k="place" v="locality" />
		<tag k="ssr:stedsnr" v="455482" />
	</node>
	<node lat="70.55808888571771" lon="22.314508299563236" id="-41189">
		<tag k="name" v="Storhaugen" />
		<tag k="natural" v="hill" />
		<tag k="place" v="locality" />
		<tag k="ssr:stedsnr" v="456804" />
	</node>
	<node lat="70.52456110954112" lon="22.138186082129707" id="-41191">
		<tag k="fixme" v="consider natural=peak for the most distinct mountains in the district" />
		<tag k="name" v="Nordre Knotten" />
		<tag k="natural" v="hill" />
		<tag k="place" v="locality" />
		<tag k="ssr:stedsnr" v="459373" />
	</node>
	<node lat="70.52554166809097" lon="22.586683290471257" id="-41197">
		<tag k="name" v="Karkefjordbotn" />
		<tag k="natural" v="valley" />
		<tag k="place" v="locality" />
		<tag k="ssr:stedsnr" v="505308" />
	</node>
	<node lat="70.62645833805108" lon="22.681702735286187" id="-41200">
		<tag k="name" v="Sommarberget" />
		<tag k="natural" v="hill" />
		<tag k="place" v="locality" />
		<tag k="ssr:stedsnr" v="505369" />
	</node>
	<node lat="70.30685000420074" lon="22.64601382796643" id="-41218">
		<tag k="name" v="Állevákgiera" />
		<tag k="name:se" v="Állevákgiera" />
		<tag k="natural" v="valley" />
		<tag k="old_name:se" v="Allevaggiera" />
		<tag k="place" v="locality" />
		<tag k="ssr:stedsnr" v="687122" />
	</node>
	<node lat="70.3519222262541" lon="22.501322168249363" id="-41220">
		<tag k="fixme" v="consider natural=peak for the most distinct mountains in the district" />
		<tag k="loc_name:se" v="Siskkit Fyrafvárri" />
		<tag k="name" v="Purkfjellet" />
		<tag k="name:no" v="Purkfjellet" />
		<tag k="natural" v="hill" />
		<tag k="place" v="locality" />
		<tag k="ssr:stedsnr" v="687159" />
	</node>
	<node lat="70.61147222680309" lon="22.368063857341753" id="-41228">
		<tag k="fixme" v="consider natural=peak for the most distinct mountains in the district" />
		<tag k="name" v="Skoddefjellet" />
		<tag k="natural" v="hill" />
		<tag k="place" v="locality" />
		<tag k="ssr:stedsnr" v="687372" />
	</node>
	<node lat="70.64653055225497" lon="22.761597173524773" id="-41237">
		<tag k="name" v="Kråkberget" />
		<tag k="natural" v="hill" />
		<tag k="place" v="locality" />
		<tag k="ssr:stedsnr" v="687667" />
	</node>
	<node lat="70.66611110949746" lon="22.81347493642949" id="-41238">
		<tag k="fixme" v="consider natural=peak for the most distinct mountains in the district" />
		<tag k="name" v="Skaidi" />
		<tag k="natural" v="hill" />
		<tag k="place" v="locality" />
		<tag k="ssr:stedsnr" v="687671" />
	</node>
	<node lat="70.54506111155399" lon="22.299574958903364" id="-41249">
		<tag k="name" v="Hasfjorddalen" />
		<tag k="natural" v="valley" />
		<tag k="place" v="locality" />
		<tag k="ssr:stedsnr" v="565302" />
	</node>
	<node lat="70.54038610754611" lon="22.51301940468301" id="-41252">
		<tag k="fixme" v="multiple name tags, choose one and add the other to alt_name; consider natural=peak for the most distinct mountains in the district" />
		<tag k="name" v="Borgefjell;Kipparfjordfjellet" />
		<tag k="natural" v="hill" />
		<tag k="place" v="locality" />
		<tag k="ssr:stedsnr" v="565311" />
	</node>
	<node lat="70.58043333679883" lon="22.743305506096057" id="-41256">
		<tag k="fixme" v="consider natural=peak for the most distinct mountains in the district" />
		<tag k="name" v="Steinfjellet" />
		<tag k="natural" v="hill" />
		<tag k="place" v="locality" />
		<tag k="ssr:stedsnr" v="566364" />
	</node>
	<node lat="70.48397222578726" lon="22.170299967400425" id="-41260">
		<tag k="name" v="Sankthanshaugen" />
		<tag k="natural" v="hill" />
		<tag k="place" v="locality" />
		<tag k="ssr:stedsnr" v="576350" />
	</node>
	<node lat="70.65746944696211" lon="21.946708285510223" id="-41270">
		<tag k="name" v="Stein" />
		<tag k="natural" v="hill" />
		<tag k="place" v="locality" />
		<tag k="ssr:stedsnr" v="580654" />
	</node>
	<node lat="70.5875138923389" lon="22.290674959803738" id="-41271">
		<tag k="name" v="Anne-Lisehaugen" />
		<tag k="natural" v="hill" />
		<tag k="place" v="locality" />
		<tag k="ssr:stedsnr" v="698830" />
	</node>
	<node lat="70.58810000178087" lon="22.301524959056962" id="-41272">
		<tag k="name" v="Stormoltebærhaugen" />
		<tag k="natural" v="hill" />
		<tag k="place" v="locality" />
		<tag k="ssr:stedsnr" v="698831" />
	</node>
	<node lat="70.59824167089253" lon="22.357374962875863" id="-41273">
		<tag k="fixme" v="consider natural=peak for the most distinct mountains in the district" />
		<tag k="name" v="Langåsen" />
		<tag k="natural" v="hill" />
		<tag k="place" v="locality" />
		<tag k="ssr:stedsnr" v="698841" />
	</node>
	<node lat="70.61704444332364" lon="22.18393328172552" id="-41274">
		<tag k="name" v="Sandvikdalen" />
		<tag k="natural" v="valley" />
		<tag k="place" v="locality" />
		<tag k="ssr:stedsnr" v="697252" />
	</node>
	<node lat="70.48981110947645" lon="22.167336071328787" id="-41275">
		<tag k="name" v="Lillefjellet" />
		<tag k="natural" v="hill" />
		<tag k="place" v="locality" />
		<tag k="ssr:stedsnr" v="697342" />
	</node>
	<node lat="70.63316111308697" lon="22.029441633476846" id="-41277">
		<tag k="name" v="Malbuhaugen" />
		<tag k="natural" v="hill" />
		<tag k="place" v="locality" />
		<tag k="ssr:stedsnr" v="697401" />
	</node>
	<node lat="70.4977361121597" lon="22.229688847472477" id="-41287">
		<tag k="fixme" v="consider natural=peak for the most distinct mountains in the district" />
		<tag k="name" v="Løva" />
		<tag k="natural" v="hill" />
		<tag k="place" v="locality" />
		<tag k="ssr:stedsnr" v="626205" />
	</node>
	<node lat="70.53442500227624" lon="22.55289160601907" id="-41291">
		<tag k="fixme" v="consider natural=peak for the most distinct mountains in the district" />
		<tag k="name" v="Rypetinden" />
		<tag k="natural" v="hill" />
		<tag k="place" v="locality" />
		<tag k="ssr:stedsnr" v="626358" />
	</node>
	<node lat="70.62950833552873" lon="22.749919392649304" id="-41295">
		<tag k="fixme" v="consider natural=peak for the most distinct mountains in the district" />
		<tag k="name" v="Børra" />
		<tag k="natural" v="hill" />
		<tag k="place" v="locality" />
		<tag k="ssr:stedsnr" v="626701" />
	</node>
	<node lat="70.56899999976062" lon="22.488308270130823" id="-41297">
		<tag k="fixme" v="consider natural=peak for the most distinct mountains in the district" />
		<tag k="name" v="Oarje Borggastat" />
		<tag k="name:se" v="Oarje Borggastat" />
		<tag k="natural" v="hill" />
		<tag k="old_name:se" v="Bårgastat, oarje" />
		<tag k="place" v="locality" />
		<tag k="ssr:stedsnr" v="627356" />
	</node>
	<node lat="70.61525555610365" lon="22.189822179467665" id="-41300">
		<tag k="name" v="Høgda" />
		<tag k="natural" v="hill" />
		<tag k="place" v="locality" />
		<tag k="ssr:stedsnr" v="636205" />
	</node>
	<node lat="70.60132778109354" lon="22.096833291770345" id="-41303">
		<tag k="name" v="Elvedalen" />
		<tag k="natural" v="valley" />
		<tag k="place" v="locality" />
		<tag k="ssr:stedsnr" v="636282" />
	</node>
	<node lat="70.47737222281003" lon="22.090813850656133" id="-41304">
		<tag k="name" v="Storskårra" />
		<tag k="natural" v="valley" />
		<tag k="place" v="locality" />
		<tag k="ssr:stedsnr" v="636483" />
	</node>
	<node lat="70.59305555756568" lon="21.990883286596674" id="-41306">
		<tag k="name" v="Presten" />
		<tag k="natural" v="hill" />
		<tag k="place" v="locality" />
		<tag k="ssr:stedsnr" v="636682" />
	</node>
	<node lat="70.58501111464311" lon="22.015183305932567" id="-41320">
		<tag k="name" v="Eggefjellet" />
		<tag k="natural" v="hill" />
		<tag k="place" v="locality" />
		<tag k="ssr:stedsnr" v="687742" />
	</node>
	<node lat="70.33721944517589" lon="22.498008281627424" id="-41321">
		<tag k="fixme" v="consider natural=peak for the most distinct mountains in the district" />
		<tag k="name" v="Litlehovudet" />
		<tag k="natural" v="hill" />
		<tag k="place" v="locality" />
		<tag k="ssr:stedsnr" v="688147" />
	</node>
	<node lat="70.48319722571209" lon="22.091849952359485" id="-41328">
		<tag k="alt_name" v="Nordflåget" />
		<tag k="name" v="Nordfloget" />
		<tag k="place" v="locality" />
		<tag k="ssr:stedsnr" v="697476" />
	</node>
	<node lat="70.47226111533622" lon="22.154722186069115" id="-41329">
		<tag k="name" v="Grønlia" />
		<tag k="natural" v="slope" />
		<tag k="place" v="locality" />
		<tag k="ssr:stedsnr" v="697485" />
	</node>
	<node lat="70.59962778376791" lon="22.34233050772423" id="-41330">
		<tag k="fixme" v="consider natural=peak for the most distinct mountains in the district" />
		<tag k="name" v="Langåsen" />
		<tag k="natural" v="hill" />
		<tag k="place" v="locality" />
		<tag k="ssr:stedsnr" v="698818" />
	</node>
	<node lat="70.58552778019082" lon="22.2890110730407" id="-41331">
		<tag k="name" v="Barsčohkka" />
		<tag k="name:se" v="Barsčohkka" />
		<tag k="natural" v="hill" />
		<tag k="place" v="locality" />
		<tag k="ssr:stedsnr" v="698829" />
	</node>
	<node lat="70.6164611103335" lon="22.056644416096823" id="-41354">
		<tag k="name" v="Årvikdalen" />
		<tag k="natural" v="valley" />
		<tag k="place" v="locality" />
		<tag k="ssr:stedsnr" v="758450" />
	</node>
	<node lat="70.5675444486038" lon="22.250474970134206" id="-41357">
		<tag k="name" v="Halsen" />
		<tag k="natural" v="hill" />
		<tag k="place" v="locality" />
		<tag k="ssr:stedsnr" v="758350" />
	</node>
	<node lat="70.59200000310474" lon="22.313047186017844" id="-41360">
		<tag k="alt_name" v="Skallflågan" />
		<tag k="name" v="Skallflogan" />
		<tag k="natural" v="hill" />
		<tag k="place" v="locality" />
		<tag k="ssr:stedsnr" v="759815" />
	</node>
	<node lat="70.60406666652592" lon="22.315155516271172" id="-41361">
		<tag k="name" v="Storbakken" />
		<tag k="natural" v="slope" />
		<tag k="place" v="locality" />
		<tag k="ssr:stedsnr" v="759825" />
	</node>
	<node lat="70.69883889281904" lon="22.351647175760963" id="-41365">
		<tag k="name" v="Hellarholet" />
		<tag k="natural" v="valley" />
		<tag k="place" v="locality" />
		<tag k="ssr:stedsnr" v="762510" />
	</node>
	<node lat="70.6869944501016" lon="22.619580506392644" id="-41367">
		<tag k="name" v="Inner Oksen" />
		<tag k="natural" v="hill" />
		<tag k="place" v="locality" />
		<tag k="ssr:stedsnr" v="762545" />
	</node>
	<node lat="70.52299721901556" lon="22.198436073683926" id="-41369">
		<tag k="fixme" v="consider natural=peak for the most distinct mountains in the district" />
		<tag k="name" v="Barbostatinden" />
		<tag k="natural" v="hill" />
		<tag k="place" v="locality" />
		<tag k="ssr:stedsnr" v="808290" />
	</node>
	<node lat="70.47936389168083" lon="22.090305523011146" id="-41371">
		<tag k="name" v="Lille-Håen" />
		<tag k="natural" v="hill" />
		<tag k="place" v="locality" />
		<tag k="ssr:stedsnr" v="808294" />
	</node>
	<node lat="70.61585000049638" lon="22.736030495781556" id="-41380">
		<tag k="fixme" v="consider natural=peak for the most distinct mountains in the district" />
		<tag k="name" v="Sandfjellet" />
		<tag k="natural" v="hill" />
		<tag k="place" v="locality" />
		<tag k="ssr:stedsnr" v="809394" />
	</node>
	<node lat="70.57546666712305" lon="22.21146107731753" id="-41386">
		<tag k="name" v="Susannaskårra" />
		<tag k="natural" v="valley" />
		<tag k="place" v="locality" />
		<tag k="ssr:stedsnr" v="819254" />
	</node>
	<node lat="70.48706388897654" lon="22.22802773420491" id="-41388">
		<tag k="fixme" v="consider natural=peak for the most distinct mountains in the district" />
		<tag k="name" v="Slettfjellet" />
		<tag k="natural" v="hill" />
		<tag k="place" v="locality" />
		<tag k="ssr:stedsnr" v="819373" />
	</node>
	<node lat="70.60828333055447" lon="22.350411073468674" id="-41390">
		<tag k="name" v="Loftet" />
		<tag k="natural" v="slope" />
		<tag k="place" v="locality" />
		<tag k="ssr:stedsnr" v="820825" />
	</node>
	<node lat="70.51519167001746" lon="22.611727723430562" id="-41395">
		<tag k="name" v="Fuglberget" />
		<tag k="natural" v="hill" />
		<tag k="place" v="locality" />
		<tag k="ssr:stedsnr" v="930296" />
	</node>
	<node lat="70.50903889149451" lon="22.23803328396793" id="-41399">
		<tag k="name" v="Skaret" />
		<tag k="natural" v="valley" />
		<tag k="place" v="locality" />
		<tag k="ssr:stedsnr" v="930293" />
	</node>
	<node lat="70.59234167023455" lon="22.660763841591415" id="-41401">
		<tag k="fixme" v="consider natural=peak for the most distinct mountains in the district" />
		<tag k="name" v="Slettfjellet" />
		<tag k="natural" v="hill" />
		<tag k="place" v="locality" />
		<tag k="ssr:stedsnr" v="930375" />
	</node>
	<node lat="70.51853055507503" lon="22.440711059113678" id="-41403">
		<tag k="fixme" v="consider natural=peak for the most distinct mountains in the district" />
		<tag k="name" v="Finnhua" />
		<tag k="natural" v="hill" />
		<tag k="place" v="locality" />
		<tag k="ssr:stedsnr" v="930326" />
	</node>
	<node lat="70.54257778358121" lon="22.43799717505919" id="-41405">
		<tag k="name" v="Meltefjorddalen" />
		<tag k="natural" v="valley" />
		<tag k="place" v="locality" />
		<tag k="ssr:stedsnr" v="930339" />
	</node>
	<node lat="70.61486111283693" lon="22.571238851131795" id="-41407">
		<tag k="fixme" v="consider natural=peak for the most distinct mountains in the district" />
		<tag k="name" v="Nuorta Borggastat" />
		<tag k="name:se" v="Nuorta Borggastat" />
		<tag k="natural" v="hill" />
		<tag k="old_name:se" v="Bårgastat, nuorta" />
		<tag k="place" v="locality" />
		<tag k="ssr:stedsnr" v="930386" />
	</node>
	<node lat="70.64011944545392" lon="22.67927215694874" id="-41409">
		<tag k="fixme" v="multiple name tags, choose one and add the other to alt_name" />
		<tag k="name" v="Seljedal;Risdalen" />
		<tag k="natural" v="valley" />
		<tag k="place" v="locality" />
		<tag k="ssr:stedsnr" v="930701" />
	</node>
	<node lat="70.64381389375846" lon="22.020652747690416" id="-41412">
		<tag k="fixme" v="consider natural=peak for the most distinct mountains in the district" />
		<tag k="name" v="Skjeppe" />
		<tag k="natural" v="hill" />
		<tag k="place" v="locality" />
		<tag k="ssr:stedsnr" v="930726" />
	</node>
	<node lat="70.670888890597" lon="22.506527727450884" id="-41416">
		<tag k="fixme" v="consider natural=peak for the most distinct mountains in the district" />
		<tag k="name" v="Hammaren" />
		<tag k="natural" v="hill" />
		<tag k="place" v="locality" />
		<tag k="ssr:stedsnr" v="930663" />
	</node>
	<node lat="70.64620278305222" lon="22.793186048146094" id="-41419">
		<tag k="alt_name" v="Ørneberget" />
		<tag k="name" v="Ørnberget" />
		<tag k="natural" v="hill" />
		<tag k="place" v="locality" />
		<tag k="ssr:stedsnr" v="930675" />
	</node>
	<node lat="70.50290278071834" lon="22.176305513046124" id="-41425">
		<tag k="fixme" v="consider natural=peak for the most distinct mountains in the district" />
		<tag k="name" v="Navaren" />
		<tag k="natural" v="hill" />
		<tag k="place" v="locality" />
		<tag k="ssr:stedsnr" v="930778" />
	</node>
	<node lat="70.74355278081273" lon="22.750713836595143" id="-41426">
		<tag k="fixme" v="consider natural=peak for the most distinct mountains in the district" />
		<tag k="name" v="Stålet" />
		<tag k="natural" v="hill" />
		<tag k="place" v="locality" />
		<tag k="ssr:stedsnr" v="930781" />
	</node>
	<node lat="70.49660833674174" lon="22.1477027393603" id="-41429">
		<tag k="name" v="Morderhollan" />
		<tag k="natural" v="gorge" />
		<tag k="ssr:stedsnr" v="880314" />
	</node>
	<node lat="70.56875277419775" lon="22.337911071206022" id="-41432">
		<tag k="name" v="Rundhaugen" />
		<tag k="natural" v="hill" />
		<tag k="place" v="locality" />
		<tag k="ssr:stedsnr" v="881850" />
	</node>
	<node lat="70.30177222576641" lon="22.557372183078908" id="-41446">
		<tag k="name" v="Finndalssletta" />
		<tag k="place" v="locality" />
		<tag k="ssr:stedsnr" v="20108" />
	</node>
	<node lat="70.30399167312284" lon="22.5981110498961" id="-41447">
		<tag k="name" v="Állevággi" />
		<tag k="name:se" v="Állevággi" />
		<tag k="natural" v="valley" />
		<tag k="old_name:se" v="Allevaggi" />
		<tag k="place" v="locality" />
		<tag k="ssr:stedsnr" v="20110" />
	</node>
	<node lat="70.30548888913756" lon="22.572363831290776" id="-41448">
		<tag k="name" v="Smaldalen" />
		<tag k="natural" v="valley" />
		<tag k="place" v="locality" />
		<tag k="ssr:stedsnr" v="20111" />
	</node>
	<node lat="70.30745000337974" lon="22.510469392851373" id="-41449">
		<tag k="name" v="Finndalen" />
		<tag k="natural" v="valley" />
		<tag k="place" v="locality" />
		<tag k="ssr:stedsnr" v="20116" />
	</node>
	<node lat="70.36153333720095" lon="22.49473329589364" id="-41451">
		<tag k="fixme" v="consider natural=peak for the most distinct mountains in the district" />
		<tag k="loc_name:se" v="Olggut Fyravárri" />
		<tag k="name" v="Nordfjellet" />
		<tag k="name:no" v="Nordfjellet" />
		<tag k="natural" v="hill" />
		<tag k="place" v="locality" />
		<tag k="ssr:stedsnr" v="20157" />
	</node>
	<node lat="70.55987222071508" lon="22.2589943900777" id="-41455">
		<tag k="alt_name" v="Flågan" />
		<tag k="name" v="Flogan" />
		<tag k="natural" v="hill" />
		<tag k="place" v="locality" />
		<tag k="ssr:stedsnr" v="20329" />
	</node>
	<node lat="70.49936944295064" lon="22.31732216823992" id="-41459">
		<tag k="fixme" v="consider natural=peak for the most distinct mountains in the district" />
		<tag k="name" v="Taboren" />
		<tag k="natural" v="hill" />
		<tag k="place" v="locality" />
		<tag k="ssr:stedsnr" v="20182" />
	</node>
	<node lat="70.6020138879974" lon="22.128208300165376" id="-41476">
		<tag k="name" v="Falkeberget" />
		<tag k="natural" v="hill" />
		<tag k="place" v="locality" />
		<tag k="ssr:stedsnr" v="20728" />
	</node>
	<node lat="70.59641111222619" lon="22.063874974837212" id="-41477">
		<tag k="fixme" v="consider natural=peak for the most distinct mountains in the district" />
		<tag k="name" v="Einstabben" />
		<tag k="natural" v="hill" />
		<tag k="place" v="locality" />
		<tag k="ssr:stedsnr" v="20730" />
	</node>
	<node lat="70.64224166632907" lon="21.96916106477627" id="-41478">
		<tag k="fixme" v="consider natural=peak for the most distinct mountains in the district" />
		<tag k="name" v="Oksåtra" />
		<tag k="natural" v="hill" />
		<tag k="place" v="locality" />
		<tag k="ssr:stedsnr" v="25053" />
	</node>
	<node lat="70.57699166882442" lon="22.22607773930456" id="-41485">
		<tag k="name" v="Saltkeilhaugen" />
		<tag k="natural" v="hill" />
		<tag k="place" v="locality" />
		<tag k="ssr:stedsnr" v="30264" />
	</node>
	<node lat="70.47897778167916" lon="22.088058287686316" id="-41489">
		<tag k="alt_name" v="Fuggelflåget" />
		<tag k="name" v="Fuglfloget" />
		<tag k="place" v="locality" />
		<tag k="ssr:stedsnr" v="30484" />
	</node>
	<node lat="70.59283333690232" lon="22.306899959274833" id="-41494">
		<tag k="name" v="Hansebakken" />
		<tag k="natural" v="slope" />
		<tag k="place" v="locality" />
		<tag k="ssr:stedsnr" v="31830" />
	</node>
	<node lat="70.5869805538633" lon="22.297730503670866" id="-41496">
		<tag k="name" v="Lillemoltebærhaugen" />
		<tag k="natural" v="hill" />
		<tag k="place" v="locality" />
		<tag k="ssr:stedsnr" v="31840" />
	</node>
	<node lat="70.66579166500924" lon="22.236236066800192" id="-41511">
		<tag k="name" v="Vesterskaret" />
		<tag k="natural" v="valley" />
		<tag k="place" v="locality" />
		<tag k="ssr:stedsnr" v="80665" />
	</node>
	<node lat="70.71223889373758" lon="22.39386385123455" id="-41514">
		<tag k="name" v="Skaret" />
		<tag k="natural" v="valley" />
		<tag k="place" v="locality" />
		<tag k="ssr:stedsnr" v="80755" />
	</node>
	<node lat="70.51753333056905" lon="22.128713840730676" id="-41515">
		<tag k="alt_name" v="Rødegga" />
		<tag k="fixme" v="consider natural=peak for the most distinct mountains in the district" />
		<tag k="name" v="Knottan" />
		<tag k="natural" v="hill" />
		<tag k="place" v="locality" />
		<tag k="ssr:stedsnr" v="80728" />
	</node>
	<node lat="70.5395194461608" lon="22.184763859637425" id="-41516">
		<tag k="name" v="Svartberget" />
		<tag k="natural" v="hill" />
		<tag k="place" v="locality" />
		<tag k="ssr:stedsnr" v="80736" />
	</node>
	<node lat="70.32277778251566" lon="22.54636384877504" id="-41517">
		<tag k="fixme" v="consider natural=peak for the most distinct mountains in the district" />
		<tag k="name" v="Råfjellet - Holgavárri" />
		<tag k="name:no" v="Råfjellet" />
		<tag k="name:se" v="Holgavárri" />
		<tag k="natural" v="hill" />
		<tag k="old_name:se" v="Hålgavarri" />
		<tag k="place" v="locality" />
		<tag k="ssr:stedsnr" v="81128" />
	</node>
	<node lat="70.58479445006584" lon="22.552808274733337" id="-41522">
		<tag k="fixme" v="consider natural=peak for the most distinct mountains in the district" />
		<tag k="name" v="Máhtosnjunni" />
		<tag k="name:se" v="Máhtosnjunni" />
		<tag k="natural" v="hill" />
		<tag k="old_name:se" v="Mattusnjunni" />
		<tag k="place" v="locality" />
		<tag k="ssr:stedsnr" v="81380" />
	</node>
	<node lat="70.63358055578809" lon="22.087691637951526" id="-41530">
		<tag k="name" v="Sandfjordskaret" />
		<tag k="natural" v="valley" />
		<tag k="place" v="locality" />
		<tag k="ssr:stedsnr" v="81716" />
	</node>
	<node lat="70.63593611500556" lon="22.165519418488937" id="-41531">
		<tag k="fixme" v="consider natural=peak for the most distinct mountains in the district" />
		<tag k="name" v="Stupa" />
		<tag k="natural" v="hill" />
		<tag k="place" v="locality" />
		<tag k="ssr:stedsnr" v="81717" />
	</node>
	<node lat="70.59710555810737" lon="22.10421106602354" id="-41537">
		<tag k="name" v="Rista" />
		<tag k="natural" v="slope" />
		<tag k="place" v="locality" />
		<tag k="ssr:stedsnr" v="91289" />
	</node>
	<node lat="70.61144722005116" lon="22.204605516972652" id="-41538">
		<tag k="name" v="Henningsarset" />
		<tag k="place" v="locality" />
		<tag k="ssr:stedsnr" v="91299" />
	</node>
	<node lat="70.48618611521513" lon="22.153580512861467" id="-41539">
		<tag k="name" v="Melkehaugen" />
		<tag k="natural" v="hill" />
		<tag k="place" v="locality" />
		<tag k="ssr:stedsnr" v="91353" />
	</node>
	<node lat="70.59346666458995" lon="22.30494439209689" id="-41543">
		<tag k="name" v="Storhaugen" />
		<tag k="natural" v="hill" />
		<tag k="place" v="locality" />
		<tag k="ssr:stedsnr" v="92820" />
	</node>
	<node lat="70.70296666914828" lon="22.604311064035823" id="-41546">
		<tag k="name" v="Ytter Oksen" />
		<tag k="natural" v="hill" />
		<tag k="place" v="locality" />
		<tag k="ssr:stedsnr" v="94674" />
	</node>
	<node lat="70.56561111654128" lon="22.61609162154093" id="-41556">
		<tag k="fixme" v="consider natural=peak for the most distinct mountains in the district" />
		<tag k="name" v="Preikestolen" />
		<tag k="natural" v="hill" />
		<tag k="place" v="locality" />
		<tag k="ssr:stedsnr" v="141344" />
	</node>
	<node lat="70.59578611476533" lon="22.616333294802246" id="-41557">
		<tag k="name" v="Oksehaugen" />
		<tag k="natural" v="hill" />
		<tag k="place" v="locality" />
		<tag k="ssr:stedsnr" v="141355" />
	</node>
	<node lat="70.57812499981341" lon="22.70278605799904" id="-41559">
		<tag k="fixme" v="consider natural=peak for the most distinct mountains in the district" />
		<tag k="name" v="Midterfjell" />
		<tag k="natural" v="hill" />
		<tag k="place" v="locality" />
		<tag k="ssr:stedsnr" v="141370" />
	</node>
	<node lat="70.61900555336229" lon="22.761758276278247" id="-41560">
		<tag k="fixme" v="consider natural=peak for the most distinct mountains in the district" />
		<tag k="name" v="Moltebærtoppen" />
		<tag k="natural" v="hill" />
		<tag k="place" v="locality" />
		<tag k="ssr:stedsnr" v="141376" />
	</node>
	<node lat="70.33144166605543" lon="22.410749953088843" id="-41563">
		<tag k="fixme" v="consider natural=peak for the most distinct mountains in the district" />
		<tag k="name" v="Eliasen - Elijas" />
		<tag k="name:no" v="Eliasen" />
		<tag k="name:se" v="Elijas" />
		<tag k="natural" v="hill" />
		<tag k="place" v="locality" />
		<tag k="ssr:stedsnr" v="141129" />
	</node>
	<node lat="70.34454444738064" lon="22.42428329814162" id="-41565">
		<tag k="name" v="Sandbuktdalen" />
		<tag k="natural" v="valley" />
		<tag k="place" v="locality" />
		<tag k="ssr:stedsnr" v="141145" />
	</node>
	<node lat="70.36245278013234" lon="22.621322173614786" id="-41567">
		<tag k="alt_name" v="Kjerringfjordfjellet, l" />
		<tag k="fixme" v="consider natural=peak for the most distinct mountains in the district" />
		<tag k="name" v="Lille Kjerringfjordfjellet" />
		<tag k="natural" v="hill" />
		<tag k="place" v="locality" />
		<tag k="ssr:stedsnr" v="141178" />
	</node>
	<node lat="70.38874166709722" lon="22.668891602081278" id="-41568">
		<tag k="name" v="Skirauva" />
		<tag k="natural" v="slope" />
		<tag k="place" v="locality" />
		<tag k="ssr:stedsnr" v="141181" />
	</node>
	<node lat="70.6157833326629" lon="22.25184718364146" id="-41570">
		<tag k="name" v="Kvitberget" />
		<tag k="natural" v="hill" />
		<tag k="place" v="locality" />
		<tag k="ssr:stedsnr" v="141380" />
	</node>
	<node lat="70.67958889531177" lon="22.377791612361168" id="-41575">
		<tag k="fixme" v="consider natural=peak for the most distinct mountains in the district" />
		<tag k="name" v="Stavsnesfjellet" />
		<tag k="natural" v="hill" />
		<tag k="place" v="locality" />
		<tag k="ssr:stedsnr" v="141652" />
	</node>
	<node lat="70.63804166891632" lon="22.409261056378885" id="-41577">
		<tag k="fixme" v="consider natural=peak for the most distinct mountains in the district" />
		<tag k="name" v="Svarthammarfjellet" />
		<tag k="natural" v="hill" />
		<tag k="place" v="locality" />
		<tag k="ssr:stedsnr" v="141665" />
	</node>
	<node lat="70.6085638931563" lon="22.23603885729259" id="-41585">
		<tag k="name" v="Kvitbergan" />
		<tag k="natural" v="hill" />
		<tag k="place" v="locality" />
		<tag k="ssr:stedsnr" v="151296" />
	</node>
	<node lat="70.49520277820929" lon="22.14757216899636" id="-41587">
		<tag k="name" v="Ravnstein" />
		<tag k="natural" v="gorge" />
		<tag k="ssr:stedsnr" v="151343" />
	</node>
	<node lat="70.5018888883453" lon="22.155333292403853" id="-41588">
		<tag k="name" v="Pina" />
		<tag k="natural" v="valley" />
		<tag k="place" v="locality" />
		<tag k="ssr:stedsnr" v="151385" />
	</node>
	<node lat="70.50028889032596" lon="22.154463843781322" id="-41589">
		<tag k="name" v="Storlia" />
		<tag k="natural" v="slope" />
		<tag k="place" v="locality" />
		<tag k="ssr:stedsnr" v="151387" />
	</node>
	<node lat="70.51494722706535" lon="22.149277737958908" id="-41590">
		<tag k="name" v="Risdalen" />
		<tag k="natural" v="valley" />
		<tag k="place" v="locality" />
		<tag k="ssr:stedsnr" v="151474" />
	</node>
	<node lat="70.48316388720781" lon="22.142224957732047" id="-41591">
		<tag k="name" v="Rundhaug" />
		<tag k="natural" v="hill" />
		<tag k="place" v="locality" />
		<tag k="ssr:stedsnr" v="151497" />
	</node>
	<node lat="70.6984972280548" lon="22.490744389205105" id="-41600">
		<tag k="name" v="Sinkeneshaugen" />
		<tag k="natural" v="hill" />
		<tag k="place" v="locality" />
		<tag k="ssr:stedsnr" v="155936" />
	</node>
	<node lat="70.49603333369103" lon="22.185705506884275" id="-41605">
		<tag k="name" v="Kvannlia" />
		<tag k="natural" v="slope" />
		<tag k="place" v="locality" />
		<tag k="ssr:stedsnr" v="201290" />
	</node>
	<node lat="70.28966667057628" lon="22.642902717613875" id="-41609">
		<tag k="fixme" v="consider natural=peak for the most distinct mountains in the district" />
		<tag k="name" v="Lassefjordfjellet - Lásserášša" />
		<tag k="name:no" v="Lassefjordfjellet" />
		<tag k="name:se" v="Lásserášša" />
		<tag k="natural" v="hill" />
		<tag k="old_name:se" v="Lasserašša" />
		<tag k="place" v="locality" />
		<tag k="ssr:stedsnr" v="202114" />
	</node>
	<node lat="70.29731389404766" lon="22.562413835429325" id="-41610">
		<tag k="name" v="Goahtevággi" />
		<tag k="name:se" v="Goahtevággi" />
		<tag k="natural" v="valley" />
		<tag k="old_name:se" v="Goattevaggi" />
		<tag k="place" v="locality" />
		<tag k="ssr:stedsnr" v="202119" />
	</node>
	<node lat="70.31114167155553" lon="22.601691623579583" id="-41611">
		<tag k="name" v="Sandfallan" />
		<tag k="natural" v="valley" />
		<tag k="place" v="locality" />
		<tag k="ssr:stedsnr" v="202126" />
	</node>
	<node lat="70.33293889105934" lon="22.535763841583574" id="-41612">
		<tag k="name" v="Fuglelvdalen - Loddevággi" />
		<tag k="name:no" v="Fuglelvdalen" />
		<tag k="name:se" v="Loddevággi" />
		<tag k="natural" v="valley" />
		<tag k="old_name:se" v="Låddevaggi" />
		<tag k="place" v="locality" />
		<tag k="ssr:stedsnr" v="202136" />
	</node>
	<node lat="70.50727499794377" lon="22.34397217180208" id="-41619">
		<tag k="fixme" v="consider natural=peak for the most distinct mountains in the district" />
		<tag k="name" v="Ørntinden" />
		<tag k="natural" v="hill" />
		<tag k="place" v="locality" />
		<tag k="ssr:stedsnr" v="202289" />
	</node>
	<node lat="70.57288055939117" lon="22.28314718886152" id="-41620">
		<tag k="fixme" v="consider natural=peak for the most distinct mountains in the district" />
		<tag k="name" v="Lensmannfjellet" />
		<tag k="natural" v="hill" />
		<tag k="place" v="locality" />
		<tag k="ssr:stedsnr" v="202363" />
	</node>
	<node lat="70.57292499790617" lon="22.312152720415195" id="-41621">
		<tag k="alt_name" v="Folkefjellet" />
		<tag k="fixme" v="consider natural=peak for the most distinct mountains in the district" />
		<tag k="name" v="Isfjellet" />
		<tag k="natural" v="hill" />
		<tag k="place" v="locality" />
		<tag k="ssr:stedsnr" v="202364" />
	</node>
	<node lat="70.60512222267273" lon="22.44266105702819" id="-41624">
		<tag k="alt_name" v="Sluskefjellet" />
		<tag k="fixme" v="consider natural=peak for the most distinct mountains in the district" />
		<tag k="name" v="Sluskfjellet" />
		<tag k="natural" v="hill" />
		<tag k="place" v="locality" />
		<tag k="ssr:stedsnr" v="202378" />
	</node>
	<node lat="70.64238333287908" lon="22.839230493183496" id="-41625">
		<tag k="fixme" v="consider natural=peak for the most distinct mountains in the district" />
		<tag k="name" v="Middagsfjellet" />
		<tag k="natural" v="hill" />
		<tag k="place" v="locality" />
		<tag k="ssr:stedsnr" v="202433" />
	</node>
	<node lat="70.64298611174623" lon="22.00824163494396" id="-41630">
		<tag k="name" v="Darupskaret" />
		<tag k="natural" v="valley" />
		<tag k="place" v="locality" />
		<tag k="ssr:stedsnr" v="202719" />
	</node>
	<node lat="70.65444444304316" lon="22.457211072734506" id="-41640">
		<tag k="fixme" v="consider natural=peak for the most distinct mountains in the district" />
		<tag k="name" v="Kanonfjellet" />
		<tag k="natural" v="hill" />
		<tag k="place" v="locality" />
		<tag k="ssr:stedsnr" v="202689" />
	</node>
	<node lat="70.4856666652121" lon="22.197844391835005" id="-41643">
		<tag k="name" v="Bechsletta" />
		<tag k="place" v="locality" />
		<tag k="ssr:stedsnr" v="212342" />
	</node>
	<node lat="70.52606110917235" lon="22.147786069684614" id="-41647">
		<tag k="name" v="Kurapa" />
		<tag k="natural" v="slope" />
		<tag k="place" v="locality" />
		<tag k="ssr:stedsnr" v="212450" />
	</node>
	<node lat="70.59639444893011" lon="22.325419404214887" id="-41649">
		<tag k="name" v="Moldbakken" />
		<tag k="natural" v="slope" />
		<tag k="place" v="locality" />
		<tag k="ssr:stedsnr" v="213845" />
	</node>
	<node lat="70.58444444716407" lon="22.286083297013587" id="-41650">
		<tag k="name" v="Hestegorra" />
		<tag k="natural" v="valley" />
		<tag k="place" v="locality" />
		<tag k="ssr:stedsnr" v="213857" />
	</node>
	<node lat="70.57952500422486" lon="22.249141631359908" id="-41652">
		<tag k="name" v="Rypeholfjellet" />
		<tag k="natural" v="hill" />
		<tag k="place" v="locality" />
		<tag k="ssr:stedsnr" v="216028" />
	</node>
	<node lat="70.63423056072764" lon="22.42717494338769" id="-41656">
		<tag k="name" v="Reinlia" />
		<tag k="natural" v="slope" />
		<tag k="place" v="locality" />
		<tag k="ssr:stedsnr" v="216662" />
	</node>
	<node lat="70.53230555983917" lon="22.168466624603944" id="-41660">
		<tag k="name" v="Kvithellhula" />
		<tag k="place" v="locality" />
		<tag k="ssr:stedsnr" v="273314" />
	</node>
	<node lat="70.59807222503758" lon="22.041949967823648" id="-41661">
		<tag k="name" v="Svartberget" />
		<tag k="natural" v="hill" />
		<tag k="place" v="locality" />
		<tag k="ssr:stedsnr" v="273697" />
	</node>
	<node lat="70.58461111582339" lon="22.271158284217652" id="-41665">
		<tag k="name" v="Ryphollet" />
		<tag k="natural" v="valley" />
		<tag k="place" v="locality" />
		<tag k="ssr:stedsnr" v="274816" />
	</node>
	<node lat="70.2870444476165" lon="22.568861055738335" id="-41672">
		<tag k="fixme" v="consider natural=peak for the most distinct mountains in the district" />
		<tag k="name" v="Čorrovárri" />
		<tag k="name:se" v="Čorrovárri" />
		<tag k="natural" v="hill" />
		<tag k="old_name:se" v="Čårruvarri" />
		<tag k="place" v="locality" />
		<tag k="ssr:stedsnr" v="323119" />
	</node>
	<node lat="70.32598611132458" lon="22.449022178179767" id="-41673">
		<tag k="name" v="Trolldalen - Stállovággi" />
		<tag k="name:no" v="Trolldalen" />
		<tag k="name:se" v="Stállovággi" />
		<tag k="natural" v="valley" />
		<tag k="old_name:se" v="Stalluvaggi" />
		<tag k="place" v="locality" />
		<tag k="ssr:stedsnr" v="323143" />
	</node>
	<node lat="70.56442500118727" lon="22.456799960442698" id="-41681">
		<tag k="fixme" v="consider natural=peak for the most distinct mountains in the district" />
		<tag k="name" v="Gahpirvuonrášša" />
		<tag k="name:se" v="Gahpirvuonrášša" />
		<tag k="natural" v="hill" />
		<tag k="old_name:se" v="Gappirvuonrašša" />
		<tag k="place" v="locality" />
		<tag k="ssr:stedsnr" v="323333" />
	</node>
	<node lat="70.5541249986077" lon="22.55507771526366" id="-41682">
		<tag k="name" v="Moskusdalen" />
		<tag k="natural" v="valley" />
		<tag k="place" v="locality" />
		<tag k="ssr:stedsnr" v="323334" />
	</node>
	<node lat="70.58808888958352" lon="22.31877495732985" id="-41684">
		<tag k="fixme" v="consider natural=peak for the most distinct mountains in the district" />
		<tag k="name" v="Gamstufjellet" />
		<tag k="natural" v="hill" />
		<tag k="place" v="locality" />
		<tag k="ssr:stedsnr" v="323346" />
	</node>
	<node lat="70.58450277608618" lon="22.613627735114374" id="-41685">
		<tag k="name" v="Rundhaugen" />
		<tag k="natural" v="hill" />
		<tag k="place" v="locality" />
		<tag k="ssr:stedsnr" v="323349" />
	</node>
	<node lat="70.60903333325626" lon="22.05709163413727" id="-41698">
		<tag k="alt_name" v="Finnkona" />
		<tag k="fixme" v="consider natural=peak for the most distinct mountains in the district" />
		<tag k="name" v="Finnkjerringa" />
		<tag k="natural" v="hill" />
		<tag k="place" v="locality" />
		<tag k="ssr:stedsnr" v="323713" />
	</node>
	<node lat="70.51281111133348" lon="22.131280512306784" id="-41699">
		<tag k="name" v="Rekskaret" />
		<tag k="natural" v="valley" />
		<tag k="place" v="locality" />
		<tag k="ssr:stedsnr" v="323718" />
	</node>
	<node lat="70.71677778169108" lon="22.390658281626646" id="-41700">
		<tag k="fixme" v="consider natural=peak for the most distinct mountains in the district" />
		<tag k="name" v="Steinnæringen" />
		<tag k="natural" v="hill" />
		<tag k="place" v="locality" />
		<tag k="ssr:stedsnr" v="323744" />
	</node>
	<node lat="70.57300000049315" lon="22.41666662550065" id="-41707">
		<tag k="fixme" v="consider natural=peak for the most distinct mountains in the district" />
		<tag k="name" v="Eggevasskollen" />
		<tag k="natural" v="hill" />
		<tag k="place" v="locality" />
		<tag k="ssr:stedsnr" v="337231" />
	</node>
	<node lat="70.74383333344758" lon="22.685649953576522" id="-41721">
		<tag k="name" v="Presten" />
		<tag k="natural" v="hill" />
		<tag k="place" v="locality" />
		<tag k="ssr:stedsnr" v="383758" />
	</node>
	<node lat="70.37336110910569" lon="22.56002772046574" id="-41724">
		<tag k="fixme" v="multiple name tags, choose one and add the other to alt_name; consider natural=peak for the most distinct mountains in the district" />
		<tag k="name" v="Nordfjordfjellet;Smalfjordfjellet" />
		<tag k="natural" v="hill" />
		<tag k="old_name" v="Smalfjorfjellet" />
		<tag k="place" v="locality" />
		<tag k="ssr:stedsnr" v="384178" />
	</node>
	<node lat="70.35851388548032" lon="22.47657495556206" id="-41725">
		<tag k="name" v="Sommarsetdalen" />
		<tag k="natural" v="valley" />
		<tag k="place" v="locality" />
		<tag k="ssr:stedsnr" v="384179" />
	</node>
	<node lat="70.66728333703995" lon="21.974924965377117" id="-41730">
		<tag k="fixme" v="consider natural=peak for the most distinct mountains in the district" />
		<tag k="name" v="Trombolken" />
		<tag k="natural" v="hill" />
		<tag k="place" v="locality" />
		<tag k="ssr:stedsnr" v="384537" />
	</node>
	<node lat="70.52907777813662" lon="22.30784996067152" id="-41739">
		<tag k="name" v="Lillebotndalen" />
		<tag k="natural" v="valley" />
		<tag k="place" v="locality" />
		<tag k="ssr:stedsnr" v="391215" />
	</node>
	<node lat="70.59235277446291" lon="22.08660829539447" id="-41745">
		<tag k="name" v="Slompeskaret" />
		<tag k="natural" v="valley" />
		<tag k="place" v="locality" />
		<tag k="ssr:stedsnr" v="394669" />
	</node>
	<node lat="70.57569722626457" lon="22.26968051866081" id="-41747">
		<tag k="name" v="Dalhøgda" />
		<tag k="natural" v="hill" />
		<tag k="place" v="locality" />
		<tag k="ssr:stedsnr" v="395859" />
	</node>
	<node lat="70.54196944752636" lon="22.70568051128052" id="-41751">
		<tag k="fixme" v="consider natural=peak for the most distinct mountains in the district" />
		<tag k="name" v="Ramnnesfjellet" />
		<tag k="natural" v="hill" />
		<tag k="place" v="locality" />
		<tag k="ssr:stedsnr" v="444273" />
	</node>
	<node lat="70.47855277598286" lon="22.090713837147888" id="-41752">
		<tag k="name" v="Fuglefjellet" />
		<tag k="natural" v="hill" />
		<tag k="place" v="locality" />
		<tag k="ssr:stedsnr" v="444274" />
	</node>
	<node lat="70.33148333703062" lon="22.586299953203095" id="-41763">
		<tag k="fixme" v="consider natural=peak for the most distinct mountains in the district" />
		<tag k="name" v="Burkavárri" />
		<tag k="name:se" v="Burkavárri" />
		<tag k="natural" v="hill" />
		<tag k="old_name:se" v="Burkavarri" />
		<tag k="place" v="locality" />
		<tag k="ssr:stedsnr" v="445140" />
	</node>
	<node lat="70.51701666742164" lon="22.5382388286352" id="-41764">
		<tag k="fixme" v="consider natural=peak for the most distinct mountains in the district" />
		<tag k="name" v="Grunnfjordfjellet" />
		<tag k="natural" v="hill" />
		<tag k="place" v="locality" />
		<tag k="ssr:stedsnr" v="445297" />
	</node>
	<node lat="70.56235833702513" lon="22.474769405059405" id="-41767">
		<tag k="name" v="Kipparfjorddalen" />
		<tag k="natural" v="valley" />
		<tag k="place" v="locality" />
		<tag k="ssr:stedsnr" v="445353" />
	</node>
	<node lat="70.3093083351599" lon="22.525205507384623" id="-41776">
		<tag k="fixme" v="consider natural=peak for the most distinct mountains in the district" />
		<tag k="loc_name:se" v="Boazočohkka" />
		<tag k="name" v="Finndalstoppen" />
		<tag k="name:no" v="Finndalstoppen" />
		<tag k="natural" v="hill" />
		<tag k="place" v="locality" />
		<tag k="ssr:stedsnr" v="505131" />
	</node>
	<node lat="70.49235833061532" lon="22.197594406293817" id="-41778">
		<tag k="name" v="Korsvikdalen" />
		<tag k="natural" v="valley" />
		<tag k="place" v="locality" />
		<tag k="ssr:stedsnr" v="505294" />
	</node>
	<node lat="70.60541389340688" lon="22.338316621391854" id="-41780">
		<tag k="name" v="Høyvikdalen" />
		<tag k="natural" v="valley" />
		<tag k="place" v="locality" />
		<tag k="ssr:stedsnr" v="505380" />
	</node>
	<node lat="70.33935555970746" lon="22.601122157014366" id="-41783">
		<tag k="name" v="Smalfjorddalen - Geaccevággi" />
		<tag k="name:no" v="Smalfjorddalen" />
		<tag k="name:se" v="Geaccevággi" />
		<tag k="natural" v="valley" />
		<tag k="old_name:se" v="Gæzzevaggi" />
		<tag k="place" v="locality" />
		<tag k="ssr:stedsnr" v="505158" />
	</node>
	<node lat="70.6000055541781" lon="22.55146104687363" id="-41786">
		<tag k="fixme" v="consider natural=peak for the most distinct mountains in the district" />
		<tag k="name" v="Gaska Borggastat" />
		<tag k="name:se" v="Gaska Borggastat" />
		<tag k="natural" v="hill" />
		<tag k="old_name:se" v="Bårgastat, gaska;Borgastakk" />
		<tag k="place" v="locality" />
		<tag k="ssr:stedsnr" v="505359" />
	</node>
	<node lat="70.64560555894204" lon="22.23284995973885" id="-41788">
		<tag k="alt_name" v="Båtberget" />
		<tag k="name" v="Båtberga" />
		<tag k="natural" v="hill" />
		<tag k="place" v="locality" />
		<tag k="ssr:stedsnr" v="505689" />
	</node>
	<node lat="70.65552500237924" lon="21.963594408916173" id="-41789">
		<tag k="fixme" v="consider natural=peak for the most distinct mountains in the district" />
		<tag k="name" v="Fuglen" />
		<tag k="natural" v="hill" />
		<tag k="place" v="locality" />
		<tag k="ssr:stedsnr" v="505560" />
	</node>
	<node lat="70.68763611512392" lon="22.554780501334715" id="-41791">
		<tag k="fixme" v="consider natural=peak for the most distinct mountains in the district" />
		<tag k="name" v="Oksfjellet" />
		<tag k="natural" v="hill" />
		<tag k="place" v="locality" />
		<tag k="ssr:stedsnr" v="505648" />
	</node>
	<node lat="70.28239169104145" lon="22.529982263048886" id="-41797">
		<tag k="fixme" v="consider natural=peak for the most distinct mountains in the district" />
		<tag k="name" v="Storbuktfjellet - Stuoravárri" />
		<tag k="name:no" v="Storbuktfjellet" />
		<tag k="name:se" v="Stuoravárri" />
		<tag k="natural" v="hill" />
		<tag k="old_name:se" v="Stuorravárri;Stuoravarri" />
		<tag k="place" v="locality" />
		<tag k="ssr:stedsnr" v="510097" />
	</node>
	<node lat="70.47516667060101" lon="22.12026941690867" id="-41805">
		<tag k="name" v="Breilia" />
		<tag k="natural" v="slope" />
		<tag k="place" v="locality" />
		<tag k="ssr:stedsnr" v="515486" />
	</node>
	<node lat="70.65870278068525" lon="22.373819387407192" id="-41813">
		<tag k="fixme" v="consider natural=peak for the most distinct mountains in the district" />
		<tag k="name" v="Revåsen" />
		<tag k="natural" v="hill" />
		<tag k="place" v="locality" />
		<tag k="ssr:stedsnr" v="519550" />
	</node>
	<node lat="70.34943333344445" lon="22.55226661568007" id="-41816">
		<tag k="fixme" v="consider natural=peak for the most distinct mountains in the district" />
		<tag k="loc_name:no" v="Stabben" />
		<tag k="name" v="Nordfjordstabben - Stábbá" />
		<tag k="name:no" v="Nordfjordstabben" />
		<tag k="name:se" v="Stábbá" />
		<tag k="natural" v="hill" />
		<tag k="old_name:se" v="Stabba" />
		<tag k="place" v="locality" />
		<tag k="ssr:stedsnr" v="566146" />
	</node>
	<node lat="70.70408333177922" lon="22.400763853037972" id="-41824">
		<tag k="name" v="Måseberget" />
		<tag k="natural" v="hill" />
		<tag k="place" v="locality" />
		<tag k="ssr:stedsnr" v="565643" />
	</node>
	<node lat="70.56463889272595" lon="22.736358277795794" id="-41830">
		<tag k="name" v="Nordbotndalen" />
		<tag k="natural" v="valley" />
		<tag k="place" v="locality" />
		<tag k="ssr:stedsnr" v="566342" />
	</node>
	<node lat="70.62318611260072" lon="22.076588860518154" id="-41839">
		<tag k="fixme" v="consider natural=peak for the most distinct mountains in the district" />
		<tag k="name" v="Fossbakken" />
		<tag k="natural" v="hill" />
		<tag k="place" v="locality" />
		<tag k="ssr:stedsnr" v="566694" />
	</node>
	<node lat="70.57676944135396" lon="22.249780517594623" id="-41843">
		<tag k="fixme" v="consider natural=peak for the most distinct mountains in the district" />
		<tag k="name" v="Kollaren" />
		<tag k="natural" v="hill" />
		<tag k="place" v="locality" />
		<tag k="ssr:stedsnr" v="571267" />
	</node>
	<node lat="70.5805500035109" lon="22.254191624043628" id="-41850">
		<tag k="name" v="Løkelvhaugen" />
		<tag k="natural" v="hill" />
		<tag k="place" v="locality" />
		<tag k="ssr:stedsnr" v="576222" />
	</node>
	<node lat="70.5235555536103" lon="22.15968328270232" id="-41856">
		<tag k="name" v="Bårvikresset" />
		<tag k="place" v="locality" />
		<tag k="ssr:stedsnr" v="576463" />
	</node>
	<node lat="70.60652777523451" lon="22.01955550675433" id="-41858">
		<tag k="name" v="Markeilraen" />
		<tag k="natural" v="ridge" />
		<tag k="place" v="locality" />
		<tag k="ssr:stedsnr" v="576688" />
	</node>
	<node lat="70.58064166725592" lon="22.279669402298822" id="-41862">
		<tag k="name" v="Dalen" />
		<tag k="natural" v="valley" />
		<tag k="place" v="locality" />
		<tag k="ssr:stedsnr" v="577859" />
	</node>
	<node lat="70.47767222665146" lon="22.124216629625703" id="-41870">
		<tag k="fixme" v="consider natural=peak for the most distinct mountains in the district" />
		<tag k="name" v="Håen" />
		<tag k="natural" v="hill" />
		<tag k="place" v="locality" />
		<tag k="ssr:stedsnr" v="625300" />
	</node>
	<node lat="70.69251666437083" lon="22.36761940446646" id="-41875">
		<tag k="fixme" v="consider natural=peak for the most distinct mountains in the district" />
		<tag k="name" v="Bølefjellet" />
		<tag k="natural" v="hill" />
		<tag k="place" v="locality" />
		<tag k="ssr:stedsnr" v="626652" />
	</node>
	<node lat="70.54428888612769" lon="22.28003606769731" id="-41878">
		<tag k="fixme" v="consider natural=peak for the most distinct mountains in the district" />
		<tag k="name" v="Rivaren" />
		<tag k="natural" v="hill" />
		<tag k="place" v="locality" />
		<tag k="ssr:stedsnr" v="626345" />
	</node>
	<node lat="70.63667500188491" lon="22.249716629333772" id="-41882">
		<tag k="name" v="Nordsandfjorddalen" />
		<tag k="natural" v="valley" />
		<tag k="place" v="locality" />
		<tag k="ssr:stedsnr" v="626709" />
	</node>
	<node lat="70.63982499819816" lon="21.95176940398246" id="-41883">
		<tag k="name" v="Soppen" />
		<tag k="natural" v="hill" />
		<tag k="place" v="locality" />
		<tag k="ssr:stedsnr" v="626720" />
	</node>
	<node lat="70.64011944300925" lon="21.98933884987256" id="-41884">
		<tag k="fixme" v="consider natural=peak for the most distinct mountains in the district" />
		<tag k="name" v="Skjolden" />
		<tag k="natural" v="hill" />
		<tag k="place" v="locality" />
		<tag k="ssr:stedsnr" v="626721" />
	</node>
	<node lat="70.51681944462747" lon="22.17593883513191" id="-41886">
		<tag k="name" v="Risvågdalen" />
		<tag k="natural" v="valley" />
		<tag k="place" v="locality" />
		<tag k="ssr:stedsnr" v="626739" />
	</node>
	<node lat="70.65718611355283" lon="22.377383298663666" id="-41892">
		<tag k="name" v="Raudberget" />
		<tag k="natural" v="hill" />
		<tag k="place" v="locality" />
		<tag k="ssr:stedsnr" v="626696" />
	</node>
	<node lat="70.59240000483956" lon="22.61480551601631" id="-41894">
		<tag k="fixme" v="consider natural=peak for the most distinct mountains in the district" />
		<tag k="name" v="Middagsfjellet" />
		<tag k="natural" v="hill" />
		<tag k="place" v="locality" />
		<tag k="ssr:stedsnr" v="627379" />
	</node>
	<node lat="70.58493610934872" lon="22.63553882074395" id="-41895">
		<tag k="name" v="Mebotndalen" />
		<tag k="natural" v="valley" />
		<tag k="place" v="locality" />
		<tag k="ssr:stedsnr" v="627380" />
	</node>
	<node lat="70.55451944797706" lon="22.25623884826233" id="-41899">
		<tag k="name" v="Bryggeberget" />
		<tag k="natural" v="hill" />
		<tag k="place" v="locality" />
		<tag k="ssr:stedsnr" v="636324" />
	</node>
	<node lat="70.47111944701297" lon="22.15218885099107" id="-41900">
		<tag k="alt_name" v="Vestre Hompen" />
		<tag k="name" v="Vestre Humpen" />
		<tag k="natural" v="hill" />
		<tag k="place" v="locality" />
		<tag k="ssr:stedsnr" v="636499" />
	</node>
	<node lat="70.56438611617136" lon="22.27247217488178" id="-41904">
		<tag k="name" v="Sergadalen" />
		<tag k="natural" v="valley" />
		<tag k="place" v="locality" />
		<tag k="ssr:stedsnr" v="637782" />
	</node>
	<node lat="70.59318888987421" lon="22.323697172908684" id="-41905">
		<tag k="fixme" v="consider natural=peak for the most distinct mountains in the district" />
		<tag k="name" v="Velefjellet" />
		<tag k="natural" v="hill" />
		<tag k="place" v="locality" />
		<tag k="ssr:stedsnr" v="637828" />
	</node>
	<node lat="70.33655555460275" lon="22.46283882677188" id="-41922">
		<tag k="name" v="Hammaren" />
		<tag k="natural" v="hill" />
		<tag k="place" v="locality" />
		<tag k="ssr:stedsnr" v="748135" />
	</node>
	<node lat="70.56911111405388" lon="22.54647771957279" id="-41925">
		<tag k="fixme" v="consider natural=peak for the most distinct mountains in the district" />
		<tag k="name" v="Mattisneset" />
		<tag k="natural" v="hill" />
		<tag k="place" v="locality" />
		<tag k="ssr:stedsnr" v="748334" />
	</node>
	<node lat="70.56308889164502" lon="22.545619408228998" id="-41926">
		<tag k="name" v="Augustdalen" />
		<tag k="natural" v="valley" />
		<tag k="place" v="locality" />
		<tag k="ssr:stedsnr" v="748340" />
	</node>
	<node lat="70.59865277803041" lon="22.734177732472176" id="-41927">
		<tag k="fixme" v="consider natural=peak for the most distinct mountains in the district" />
		<tag k="name" v="Steinfjellet" />
		<tag k="natural" v="hill" />
		<tag k="place" v="locality" />
		<tag k="ssr:stedsnr" v="748350" />
	</node>
	<node lat="70.69920555903218" lon="22.856030491120556" id="-41928">
		<tag k="fixme" v="consider natural=peak for the most distinct mountains in the district" />
		<tag k="name" v="Koppardalfjellet" />
		<tag k="natural" v="hill" />
		<tag k="place" v="locality" />
		<tag k="ssr:stedsnr" v="748506" />
	</node>
	<node lat="70.63982500426415" lon="22.463863831631176" id="-41932">
		<tag k="fixme" v="consider natural=peak for the most distinct mountains in the district" />
		<tag k="name" v="Skonnertfjellet" />
		<tag k="natural" v="hill" />
		<tag k="place" v="locality" />
		<tag k="ssr:stedsnr" v="748688" />
	</node>
	<node lat="70.62441667121513" lon="22.314597171659244" id="-41933">
		<tag k="alt_name" v="Himmelhaugen, l" />
		<tag k="name" v="Lille Himmelhaugen" />
		<tag k="natural" v="hill" />
		<tag k="place" v="locality" />
		<tag k="ssr:stedsnr" v="748697" />
	</node>
	<node lat="70.7181000036217" lon="22.693699957966036" id="-41935">
		<tag k="name" v="Storgalten - Gálta" />
		<tag k="name:no" v="Storgalten" />
		<tag k="name:se" v="Gálta" />
		<tag k="natural" v="hill" />
		<tag k="old_name:se" v="Galta" />
		<tag k="place" v="locality" />
		<tag k="ssr:stedsnr" v="748756" />
	</node>
	<node lat="70.34856389399623" lon="22.6527638416296" id="-41938">
		<tag k="name" v="Geaccevággi" />
		<tag k="name:se" v="Geaccevággi" />
		<tag k="natural" v="valley" />
		<tag k="old_name:se" v="Gæzzevaggi" />
		<tag k="place" v="locality" />
		<tag k="ssr:stedsnr" v="754359" />
	</node>
	<node lat="70.6183611125042" lon="22.18003885594468" id="-41940">
		<tag k="name" v="Skakkan" />
		<tag k="natural" v="slope" />
		<tag k="place" v="locality" />
		<tag k="ssr:stedsnr" v="758270" />
	</node>
	<node lat="70.51161666499796" lon="22.187716621601236" id="-41943">
		<tag k="name" v="Vasslien" />
		<tag k="natural" v="slope" />
		<tag k="place" v="locality" />
		<tag k="ssr:stedsnr" v="758501" />
	</node>
	<node lat="70.48211944106741" lon="22.146027744636456" id="-41944">
		<tag k="name" v="Hollenderbakken" />
		<tag k="natural" v="slope" />
		<tag k="place" v="locality" />
		<tag k="ssr:stedsnr" v="758526" />
	</node>
	<node lat="70.57461111623688" lon="22.27891107162749" id="-41949">
		<tag k="name" v="Reindalen" />
		<tag k="natural" v="valley" />
		<tag k="place" v="locality" />
		<tag k="ssr:stedsnr" v="759867" />
	</node>
	<node lat="70.64980277545224" lon="22.848152716832388" id="-41952">
		<tag k="name" v="Middagshøyberget" />
		<tag k="natural" v="hill" />
		<tag k="place" v="locality" />
		<tag k="ssr:stedsnr" v="762068" />
	</node>
	<node lat="70.50949444391841" lon="22.437208284448865" id="-41956">
		<tag k="fixme" v="consider natural=peak for the most distinct mountains in the district" />
		<tag k="name" v="Skallnesfjellet" />
		<tag k="natural" v="hill" />
		<tag k="place" v="locality" />
		<tag k="ssr:stedsnr" v="808169" />
	</node>
	<node lat="70.52131389107313" lon="22.596574949930066" id="-41968">
		<tag k="alt_name" v="Raudbakken" />
		<tag k="name" v="Rødbakken" />
		<tag k="natural" v="slope" />
		<tag k="place" v="locality" />
		<tag k="ssr:stedsnr" v="809321" />
	</node>
	<node lat="70.57067222034766" lon="22.381947169886875" id="-41970">
		<tag k="fixme" v="consider natural=peak for the most distinct mountains in the district" />
		<tag k="name" v="Steinfjellet" />
		<tag k="natural" v="hill" />
		<tag k="place" v="locality" />
		<tag k="ssr:stedsnr" v="809352" />
	</node>
	<node lat="70.63523611652317" lon="22.50653883843954" id="-41974">
		<tag k="name" v="Brennhaugan" />
		<tag k="natural" v="hill" />
		<tag k="place" v="locality" />
		<tag k="ssr:stedsnr" v="809704" />
	</node>
	<node lat="70.68602500039307" lon="22.785213821679424" id="-41980">
		<tag k="fixme" v="consider natural=peak for the most distinct mountains in the district" />
		<tag k="name" v="Pompervikfjellet" />
		<tag k="natural" v="hill" />
		<tag k="place" v="locality" />
		<tag k="ssr:stedsnr" v="809672" />
	</node>
	<node lat="70.72282778191433" lon="22.81362215561966" id="-41982">
		<tag k="fixme" v="consider natural=peak for the most distinct mountains in the district" />
		<tag k="name" v="Reppafjellet" />
		<tag k="natural" v="hill" />
		<tag k="place" v="locality" />
		<tag k="ssr:stedsnr" v="809755" />
	</node>
	<node lat="70.57152778121603" lon="22.23170274502768" id="-41987">
		<tag k="name" v="Mikalhaugen" />
		<tag k="natural" v="hill" />
		<tag k="place" v="locality" />
		<tag k="ssr:stedsnr" v="819266" />
	</node>
	<node lat="70.58668611343407" lon="22.278299954562364" id="-41988">
		<tag k="name" v="Grinjaran" />
		<tag k="natural" v="slope" />
		<tag k="place" v="locality" />
		<tag k="ssr:stedsnr" v="820842" />
	</node>
	<node lat="70.58712500176499" lon="22.266841621731515" id="-41989">
		<tag k="name" v="Støypo" />
		<tag k="natural" v="hill" />
		<tag k="place" v="locality" />
		<tag k="ssr:stedsnr" v="820846" />
	</node>
	<node lat="70.48453610776768" lon="22.184783292850064" id="-42000">
		<tag k="alt_name" v="Varhaugen" />
		<tag k="name" v="Vardhaugen" />
		<tag k="natural" v="hill" />
		<tag k="place" v="locality" />
		<tag k="ssr:stedsnr" v="868296" />
	</node>
	<node lat="70.30223611501894" lon="22.490841627872577" id="-42002">
		<tag k="name" v="Varitvággi" />
		<tag k="name:se" v="Varitvággi" />
		<tag k="natural" v="valley" />
		<tag k="old_name:se" v="Varitvaggi" />
		<tag k="place" v="locality" />
		<tag k="ssr:stedsnr" v="869131" />
	</node>
	<node lat="70.52693055966854" lon="22.33426106200542" id="-42010">
		<tag k="name" v="Reindalen" />
		<tag k="natural" v="valley" />
		<tag k="place" v="locality" />
		<tag k="ssr:stedsnr" v="869324" />
	</node>
	<node lat="70.6981500032628" lon="22.53615271765384" id="-42016">
		<tag k="fixme" v="consider natural=peak for the most distinct mountains in the district" />
		<tag k="name" v="Vardfjellet" />
		<tag k="natural" v="hill" />
		<tag k="place" v="locality" />
		<tag k="ssr:stedsnr" v="869659" />
	</node>
	<node lat="70.65313055650823" lon="22.260661066879248" id="-42019">
		<tag k="fixme" v="consider natural=peak for the most distinct mountains in the district" />
		<tag k="name" v="Kulia" />
		<tag k="natural" v="hill" />
		<tag k="place" v="locality" />
		<tag k="ssr:stedsnr" v="869694" />
	</node>
	<node lat="70.32168611438686" lon="22.528491620111488" id="-42022">
		<tag k="name" v="Melsetdalen" />
		<tag k="natural" v="valley" />
		<tag k="place" v="locality" />
		<tag k="ssr:stedsnr" v="870145" />
	</node>
	<node lat="70.32052777795651" lon="22.453097172271274" id="-42023">
		<tag k="fixme" v="consider natural=peak for the most distinct mountains in the district" />
		<tag k="name" v="Sørdalsfjellet" />
		<tag k="natural" v="hill" />
		<tag k="place" v="locality" />
		<tag k="ssr:stedsnr" v="870149" />
	</node>
	<node lat="70.70128889346309" lon="22.555355505285036" id="-42032">
		<tag k="name" v="Rekvikskaret" />
		<tag k="natural" v="valley" />
		<tag k="place" v="locality" />
		<tag k="ssr:stedsnr" v="874316" />
	</node>
	<node lat="70.69044722095394" lon="22.436211074993373" id="-42034">
		<tag k="name" v="Bølehaugen" />
		<tag k="natural" v="hill" />
		<tag k="place" v="locality" />
		<tag k="ssr:stedsnr" v="874249" />
	</node>
	<node lat="70.51241667180561" lon="22.125361061601044" id="-42035">
		<tag k="alt_name" v="Søre Knotten" />
		<tag k="fixme" v="consider natural=peak for the most distinct mountains in the district" />
		<tag k="name" v="Knotten" />
		<tag k="natural" v="hill" />
		<tag k="place" v="locality" />
		<tag k="ssr:stedsnr" v="880433" />
	</node>
	<node lat="70.51248611071718" lon="22.119833288255855" id="-42036">
		<tag k="name" v="Knotthellan" />
		<tag k="natural" v="hill" />
		<tag k="place" v="locality" />
		<tag k="ssr:stedsnr" v="880436" />
	</node>
	<node lat="70.59225000165881" lon="22.045211074352615" id="-42037">
		<tag k="name" v="Revven" />
		<tag k="natural" v="gorge" />
		<tag k="ssr:stedsnr" v="879653" />
	</node>
	<node lat="70.6342861094672" lon="21.98626108574418" id="-42039">
		<tag k="name" v="Henrikomslia" />
		<tag k="natural" v="slope" />
		<tag k="place" v="locality" />
		<tag k="ssr:stedsnr" v="879665" />
	</node>
	<node lat="70.5406583334654" lon="22.188505524938048" id="-42041">
		<tag k="fixme" v="consider natural=peak for the most distinct mountains in the district" />
		<tag k="name" v="Bårvikklubben" />
		<tag k="natural" v="hill" />
		<tag k="place" v="locality" />
		<tag k="ssr:stedsnr" v="880245" />
	</node>
	<node lat="70.47123333564069" lon="22.155655520148503" id="-42042">
		<tag k="alt_name" v="Østre Hompen;Humpen Østre" />
		<tag k="name" v="Østre Humpen" />
		<tag k="natural" v="hill" />
		<tag k="place" v="locality" />
		<tag k="ssr:stedsnr" v="880491" />
	</node>
	<node lat="70.62764444534683" lon="21.977158302814253" id="-42044">
		<tag k="name" v="Helmahaugen" />
		<tag k="natural" v="hill" />
		<tag k="place" v="locality" />
		<tag k="ssr:stedsnr" v="880377" />
	</node>
	<node lat="70.62550833891609" lon="22.061438845428967" id="-42045">
		<tag k="fixme" v="consider natural=peak for the most distinct mountains in the district" />
		<tag k="name" v="Storfossbakken" />
		<tag k="natural" v="hill" />
		<tag k="place" v="locality" />
		<tag k="ssr:stedsnr" v="880385" />
	</node>
	<node lat="70.53146666696622" lon="22.22372774529818" id="-42052">
		<tag k="fixme" v="consider natural=peak for the most distinct mountains in the district" />
		<tag k="name" v="Bårvikaksla" />
		<tag k="natural" v="hill" />
		<tag k="place" v="locality" />
		<tag k="ssr:stedsnr" v="940255" />
	</node>
	<node lat="70.53378333553248" lon="22.186730523875553" id="-42053">
		<tag k="fixme" v="consider natural=peak for the most distinct mountains in the district" />
		<tag k="name" v="Tungebakken" />
		<tag k="natural" v="hill" />
		<tag k="place" v="locality" />
		<tag k="ssr:stedsnr" v="940263" />
	</node>
	<node lat="70.63825555667913" lon="22.173691614105483" id="-42055">
		<tag k="alt_name" v="Stupa" />
		<tag k="name" v="Stupan" />
		<tag k="natural" v="cliff" />
		<tag k="ssr:stedsnr" v="940229" />
	</node>
	<node lat="70.47697222339407" lon="22.13991940086418" id="-42061">
		<tag k="name" v="Sandvikhøyden" />
		<tag k="natural" v="hill" />
		<tag k="place" v="locality" />
		<tag k="ssr:stedsnr" v="940472" />
	</node>
	<node lat="70.51978889022001" lon="22.13547219068832" id="-42065">
		<tag k="name" v="Ernlien" />
		<tag k="natural" v="slope" />
		<tag k="place" v="locality" />
		<tag k="ssr:stedsnr" v="940429" />
	</node>
	<node lat="70.59113333570289" lon="22.30627773714786" id="-42068">
		<tag k="name" v="Lillelia" />
		<tag k="natural" v="slope" />
		<tag k="place" v="locality" />
		<tag k="ssr:stedsnr" v="941833" />
	</node>
	<node lat="70.59155000321627" lon="21.990377741947643" id="-42076">
		<tag k="fixme" v="consider natural=peak for the most distinct mountains in the district" />
		<tag k="name" v="Skjåberget" />
		<tag k="natural" v="hill" />
		<tag k="place" v="locality" />
		<tag k="ssr:stedsnr" v="966879" />
	</node>
</osm>
