<?xml version="1.0" encoding="UTF-8"?>
<osm version="0.6" generator="osmapis">
	<node lat="70.55629444259733" lon="22.71166938946532" id="-101155">
		<tag k="name" v="Nordbotnen" />
		<tag k="natural" v="bay" />
		<tag k="ssr:stedsnr" v="20318" />
	</node>
	<node lat="70.53567500425717" lon="22.68691105576104" id="-101156">
		<tag k="name" v="Valbukta" />
		<tag k="natural" v="bay" />
		<tag k="ssr:stedsnr" v="20322" />
	</node>
	<node lat="70.50089722342891" lon="22.274772171613566" id="-101157">
		<tag k="alt_name" v="Flatøya, store" />
		<tag k="name" v="Store Flatøya" />
		<tag k="place" v="island" />
		<tag k="ssr:stedsnr" v="20296" />
	</node>
	<node lat="70.50364999955885" lon="22.286886052650143" id="-101158">
		<tag k="name" v="Olaneset" />
		<tag k="natural" v="cape" />
		<tag k="ssr:stedsnr" v="20297" />
	</node>
	<node lat="70.5027972270927" lon="22.36374161185368" id="-101159">
		<tag k="name" v="Storholmen" />
		<tag k="place" v="islet" />
		<tag k="ssr:stedsnr" v="20298" />
	</node>
	<node lat="70.64411389480809" lon="22.597044393056837" id="-101161">
		<tag k="name" v="Sauøya" />
		<tag k="place" v="island" />
		<tag k="ssr:stedsnr" v="20706" />
	</node>
	<node lat="70.65066110971951" lon="22.59485826845337" id="-101164">
		<tag k="name" v="Vesterøya" />
		<tag k="natural" v="cape" />
		<tag k="ssr:stedsnr" v="20686" />
	</node>
	<node lat="70.59262778116278" lon="22.060816629431347" id="-101167">
		<tag k="alt_name" v="Ænesstabben" />
		<tag k="name" v="Einestabben" />
		<tag k="natural" v="cape" />
		<tag k="ssr:stedsnr" v="30668" />
	</node>
	<node lat="70.6054250026798" lon="22.26995829602095" id="-101168">
		<tag k="name" v="Veinesbukta" />
		<tag k="natural" v="bay" />
		<tag k="ssr:stedsnr" v="31818" />
	</node>
	<node lat="70.63082222504111" lon="21.62208052449655" id="-101172">
		<tag k="name" v="Runningen" />
		<tag k="natural" v="shoal" />
		<tag k="place" v="locality" />
		<tag k="ssr:stedsnr" v="56982" />
	</node>
	<node lat="70.51699444237839" lon="22.39231663006595" id="-101176">
		<tag k="name" v="Djupvika" />
		<tag k="natural" v="bay" />
		<tag k="ssr:stedsnr" v="80307" />
	</node>
	<node lat="70.68586388903903" lon="22.49257772608081" id="-101178">
		<tag k="name" v="Sandvika" />
		<tag k="natural" v="bay" />
		<tag k="ssr:stedsnr" v="81030" />
	</node>
	<node lat="70.62833611617232" lon="22.723255513050493" id="-101183">
		<tag k="name" v="Børrabukta" />
		<tag k="natural" v="bay" />
		<tag k="ssr:stedsnr" v="81389" />
	</node>
	<node lat="70.63562499951554" lon="21.96743606279959" id="-101184">
		<tag k="name" v="Sållbuflua" />
		<tag k="place" v="locality" />
		<tag k="seamark:type" v="rock" />
		<tag k="ssr:stedsnr" v="86366" />
	</node>
	<node lat="70.48324444841121" lon="22.176080506043338" id="-101188">
		<tag k="name" v="Bårselvbukta" />
		<tag k="natural" v="bay" />
		<tag k="ssr:stedsnr" v="91525" />
	</node>
	<node lat="70.67208889113773" lon="22.30557774203539" id="-101194">
		<tag k="name" v="Laukvikgrunnen" />
		<tag k="natural" v="shoal" />
		<tag k="place" v="locality" />
		<tag k="ssr:stedsnr" v="95473" />
	</node>
	<node lat="70.49585000499513" lon="22.59447773787457" id="-101195">
		<tag k="fixme" v="consider seamark:type=rock or natural=shoal" />
		<tag k="name" v="Brattskjæran" />
		<tag k="place" v="islet" />
		<tag k="ssr:stedsnr" v="95662" />
	</node>
	<node lat="70.49612778107758" lon="22.28692217628914" id="-101199">
		<tag k="name" v="Torvenes" />
		<tag k="natural" v="cape" />
		<tag k="ssr:stedsnr" v="140190" />
	</node>
	<node lat="70.54741944248754" lon="22.670705496332157" id="-101203">
		<tag k="fixme" v="multiple name tags, choose one and add the other to alt_name" />
		<tag k="name" v="Risneset;Isakneset" />
		<tag k="natural" v="cape" />
		<tag k="ssr:stedsnr" v="141334" />
	</node>
	<node lat="70.53756389366303" lon="22.647094384713032" id="-101204">
		<tag k="name" v="Kobbholmen" />
		<tag k="place" v="islet" />
		<tag k="ssr:stedsnr" v="141339" />
	</node>
	<node lat="70.61182222277989" lon="22.17263330470218" id="-101207">
		<tag k="name" v="Sandvika" />
		<tag k="natural" v="bay" />
		<tag k="ssr:stedsnr" v="141684" />
	</node>
	<node lat="70.56903611057061" lon="22.226297186855792" id="-101210">
		<tag k="name" v="Langneset" />
		<tag k="natural" v="cape" />
		<tag k="ssr:stedsnr" v="151305" />
	</node>
	<node lat="70.5284916634741" lon="22.15883885511859" id="-101211">
		<tag k="name" v="Kvalkeila" />
		<tag k="natural" v="bay" />
		<tag k="ssr:stedsnr" v="151321" />
	</node>
	<node lat="70.49096110791584" lon="22.242941630309897" id="-101213">
		<tag k="name" v="Melkarneset" />
		<tag k="natural" v="cape" />
		<tag k="ssr:stedsnr" v="151364" />
	</node>
	<node lat="70.57912222388676" lon="22.223944409959476" id="-101215">
		<tag k="name" v="Indre Saltkeila" />
		<tag k="natural" v="bay" />
		<tag k="ssr:stedsnr" v="151260" />
	</node>
	<node lat="70.59070278086166" lon="22.291227728684078" id="-101219">
		<tag k="name" v="Lillehavet" />
		<tag k="natural" v="bay" />
		<tag k="ssr:stedsnr" v="152852" />
	</node>
	<node lat="70.47459722028218" lon="22.03331384251775" id="-101220">
		<tag k="name" v="Lille Hågrunnen" />
		<tag k="natural" v="shoal" />
		<tag k="place" v="locality" />
		<tag k="ssr:stedsnr" v="153807" />
	</node>
	<node lat="70.69830000109981" lon="22.613397167582526" id="-101221">
		<tag k="fixme" v="consider seamark:type=rock or natural=shoal" />
		<tag k="name" v="Okseskjæret" />
		<tag k="place" v="islet" />
		<tag k="ssr:stedsnr" v="155564" />
	</node>
	<node lat="70.68333333096956" lon="21.466666638665888" id="-101226">
		<tag k="name" v="Leira" />
		<tag k="natural" v="shoal" />
		<tag k="place" v="locality" />
		<tag k="ssr:stedsnr" v="177972" />
	</node>
	<node lat="70.68174166829752" lon="21.73281664295158" id="-101227">
		<tag k="name" v="Grunnbakk" />
		<tag k="natural" v="shoal" />
		<tag k="place" v="locality" />
		<tag k="ssr:stedsnr" v="177977" />
	</node>
	<node lat="70.39246111350734" lon="22.68300550999007" id="-101228">
		<tag k="alt_name" v="Kjerringfjordneset, store" />
		<tag k="fixme" v="multiple name tags, choose one and add the other to alt_name" />
		<tag k="name" v="Kjerringfjordneset;Store Kjerringfjordneset" />
		<tag k="natural" v="cape" />
		<tag k="ssr:stedsnr" v="262173" />
	</node>
	<node lat="70.38733889230485" lon="22.62032772929879" id="-101229">
		<tag k="alt_name" v="Kjerringfjordneset, l" />
		<tag k="name" v="Lille Kjerringfjordneset" />
		<tag k="natural" v="cape" />
		<tag k="ssr:stedsnr" v="262175" />
	</node>
	<node lat="70.37734167089701" lon="22.50381106405325" id="-101230">
		<tag k="name" v="Nordfjordgrunnen" />
		<tag k="natural" v="shoal" />
		<tag k="place" v="locality" />
		<tag k="ssr:stedsnr" v="262182" />
	</node>
	<node lat="70.53464444661608" lon="22.680727725590046" id="-101231">
		<tag k="name" v="Valen" />
		<tag k="natural" v="strait" />
		<tag k="ssr:stedsnr" v="262315" />
	</node>
	<node lat="70.51026111239398" lon="22.37895551462878" id="-101232">
		<tag k="name" v="Bullbukta" />
		<tag k="natural" v="bay" />
		<tag k="ssr:stedsnr" v="262275" />
	</node>
	<node lat="70.5831416674303" lon="22.01591662503748" id="-101235">
		<tag k="name" v="Laddevika" />
		<tag k="natural" v="bay" />
		<tag k="ssr:stedsnr" v="262759" />
	</node>
	<node lat="70.58515000388043" lon="22.093744399358194" id="-101236">
		<tag k="alt_name" v="Ramnes" />
		<tag k="name" v="Ramneset" />
		<tag k="natural" v="cape" />
		<tag k="ssr:stedsnr" v="262762" />
	</node>
	<node lat="70.72787500491245" lon="22.74146939021401" id="-101237">
		<tag k="bay" v="fjord" />
		<tag k="name" v="Jektefjorden" />
		<tag k="natural" v="bay" />
		<tag k="ssr:stedsnr" v="262770" />
	</node>
	<node lat="70.73475833542298" lon="22.624055518868616" id="-101239">
		<tag k="name" v="Kamøygrunnen" />
		<tag k="natural" v="shoal" />
		<tag k="place" v="locality" />
		<tag k="ssr:stedsnr" v="262784" />
	</node>
	<node lat="70.65779722871002" lon="22.788130495281127" id="-101240">
		<tag k="bay" v="fjord" />
		<tag k="name" v="Nordfjorden" />
		<tag k="natural" v="bay" />
		<tag k="ssr:stedsnr" v="263029" />
	</node>
	<node lat="70.34821111017726" lon="22.44619716288096" id="-101243">
		<tag k="alt_name" v="Sennes" />
		<tag k="name" v="Sennanes" />
		<tag k="natural" v="cape" />
		<tag k="ssr:stedsnr" v="263159" />
	</node>
	<node lat="70.5858694437443" lon="22.248311057397085" id="-101245">
		<tag k="alt_name" v="Holmesundet" />
		<tag k="name" v="Holmsundet" />
		<tag k="natural" v="strait" />
		<tag k="ssr:stedsnr" v="263380" />
	</node>
	<node lat="70.63525277512534" lon="21.95087775088122" id="-101249">
		<tag k="name" v="Gåsholmen" />
		<tag k="place" v="islet" />
		<tag k="ssr:stedsnr" v="263714" />
	</node>
	<node lat="70.61374166792196" lon="22.02148050726048" id="-101251">
		<tag k="name" v="Pumpervika" />
		<tag k="natural" v="bay" />
		<tag k="ssr:stedsnr" v="263733" />
	</node>
	<node lat="70.6318833379531" lon="21.978113843795946" id="-101253">
		<tag k="name" v="Trollholmen" />
		<tag k="place" v="islet" />
		<tag k="ssr:stedsnr" v="267038" />
	</node>
	<node lat="70.49509999761831" lon="22.379586075161605" id="-101254">
		<tag k="bay" v="fjord" />
		<tag k="name" v="Meltefjorden - Sáitevuotna" />
		<tag k="name:no" v="Meltefjorden" />
		<tag k="name:se" v="Sáitevuotna" />
		<tag k="natural" v="bay" />
		<tag k="old_name:se" v="Saitevuodna" />
		<tag k="ssr:stedsnr" v="202191" />
	</node>
	<node lat="70.64784444703137" lon="22.080197191322885" id="-101260">
		<tag k="fixme" v="multiple name tags, choose one and add the other to alt_name" />
		<tag k="name" v="Nordre Skitnvika;Østre Skittenvika" />
		<tag k="natural" v="bay" />
		<tag k="ssr:stedsnr" v="202593" />
	</node>
	<node lat="70.62033611203276" lon="21.930913840839306" id="-101261">
		<tag k="fixme" v="consider seamark:type=rock or natural=shoal" />
		<tag k="name" v="Ytter-Barden" />
		<tag k="place" v="islet" />
		<tag k="ssr:stedsnr" v="202705" />
	</node>
	<node lat="70.63451388896233" lon="22.70672217969672" id="-101263">
		<tag k="name" v="Tomasnes" />
		<tag k="natural" v="cape" />
		<tag k="ssr:stedsnr" v="202692" />
	</node>
	<node lat="70.62891944434479" lon="21.97174162842298" id="-101264">
		<tag k="name" v="Stongsundet" />
		<tag k="natural" v="bay" />
		<tag k="ssr:stedsnr" v="268319" />
	</node>
	<node lat="70.56891666649972" lon="22.23186662265101" id="-101269">
		<tag k="name" v="Jonkeila" />
		<tag k="natural" v="bay" />
		<tag k="ssr:stedsnr" v="212291" />
	</node>
	<node lat="70.47316388933699" lon="22.12514717989311" id="-101270">
		<tag k="fixme" v="consider seamark:type=rock or natural=shoal" />
		<tag k="name" v="Håskjæret" />
		<tag k="place" v="islet" />
		<tag k="ssr:stedsnr" v="212476" />
	</node>
	<node lat="70.48239444326785" lon="22.18558051458547" id="-101272">
		<tag k="name" v="Skarvbukt" />
		<tag k="natural" v="bay" />
		<tag k="ssr:stedsnr" v="212495" />
	</node>
	<node lat="70.6204194486824" lon="22.69486662150818" id="-101274">
		<tag k="name" v="Elvestrand" />
		<tag k="natural" v="beach" />
		<tag k="ssr:stedsnr" v="216175" />
	</node>
	<node lat="70.60660277526115" lon="22.277483291569144" id="-101275">
		<tag k="name" v="Vegneshamn" />
		<tag k="natural" v="beach" />
		<tag k="ssr:stedsnr" v="216602" />
	</node>
	<node lat="70.50386110957203" lon="22.24362496731987" id="-101277">
		<tag k="name" v="Elenheimsundet" />
		<tag k="natural" v="strait" />
		<tag k="ssr:stedsnr" v="450050" />
	</node>
	<node lat="70.63373333126954" lon="22.01668884049212" id="-101279">
		<tag k="name" v="Sandstavika" />
		<tag k="natural" v="bay" />
		<tag k="ssr:stedsnr" v="455372" />
	</node>
	<node lat="70.5283416643643" lon="22.150119405258003" id="-101280">
		<tag k="name" v="Kvenkeila" />
		<tag k="natural" v="bay" />
		<tag k="ssr:stedsnr" v="455239" />
	</node>
	<node lat="70.6107027829829" lon="22.214008297962977" id="-101281">
		<tag k="name" v="Langnes" />
		<tag k="natural" v="cape" />
		<tag k="ssr:stedsnr" v="455254" />
	</node>
	<node lat="70.50095277448249" lon="22.140111071154113" id="-101282">
		<tag k="name" v="Langholmen" />
		<tag k="place" v="islet" />
		<tag k="ssr:stedsnr" v="455349" />
	</node>
	<node lat="70.50161111178288" lon="22.135261064869557" id="-101283">
		<tag k="name" v="Bunes" />
		<tag k="natural" v="cape" />
		<tag k="ssr:stedsnr" v="455356" />
	</node>
	<node lat="70.56586389476824" lon="22.205769395567092" id="-101284">
		<tag k="name" v="Reinesodden" />
		<tag k="natural" v="cape" />
		<tag k="ssr:stedsnr" v="455281" />
	</node>
	<node lat="70.63243056100139" lon="21.988008293472685" id="-101287">
		<tag k="name" v="Masterholmen" />
		<tag k="place" v="islet" />
		<tag k="ssr:stedsnr" v="455395" />
	</node>
	<node lat="70.58985833731403" lon="21.986627755673084" id="-101290">
		<tag k="name" v="Holmen" />
		<tag k="natural" v="cape" />
		<tag k="ssr:stedsnr" v="455654" />
	</node>
	<node lat="70.47287222585133" lon="22.13330828857769" id="-101297">
		<tag k="name" v="Lille Sandvika" />
		<tag k="natural" v="bay" />
		<tag k="old_name" v="Sandvika, l" />
		<tag k="ssr:stedsnr" v="261305" />
	</node>
	<node lat="70.48993611646848" lon="22.129074953011575" id="-101298">
		<tag k="name" v="Seivågneset" />
		<tag k="natural" v="cape" />
		<tag k="ssr:stedsnr" v="261317" />
	</node>
	<node lat="70.51601666384438" lon="22.401322171918572" id="-101300">
		<tag k="name" v="Djupviknes" />
		<tag k="natural" v="cape" />
		<tag k="ssr:stedsnr" v="262296" />
	</node>
	<node lat="70.70537222331058" lon="22.358966627251952" id="-101301">
		<tag k="name" v="Høvel" />
		<tag k="natural" v="cape" />
		<tag k="ssr:stedsnr" v="262642" />
	</node>
	<node lat="70.34439166485988" lon="22.45159161166517" id="-101303">
		<tag k="name" v="Hansebukta" />
		<tag k="natural" v="bay" />
		<tag k="ssr:stedsnr" v="263162" />
	</node>
	<node lat="70.34693888855175" lon="22.358702733669617" id="-101304">
		<tag k="name" v="Fagervika" />
		<tag k="natural" v="bay" />
		<tag k="ssr:stedsnr" v="263164" />
	</node>
	<node lat="70.63574722572861" lon="22.712541616011762" id="-101308">
		<tag k="name" v="Drangasnes" />
		<tag k="natural" v="cape" />
		<tag k="ssr:stedsnr" v="459039" />
	</node>
	<node lat="70.59303611268528" lon="21.982819417515987" id="-101309">
		<tag k="name" v="Skjåholmsundet" />
		<tag k="natural" v="strait" />
		<tag k="old_name" v="Sjåholmsundet" />
		<tag k="ssr:stedsnr" v="272623" />
	</node>
	<node lat="70.59865000467346" lon="22.122938846055018" id="-101310">
		<tag k="name" v="Nygårdneset" />
		<tag k="natural" v="cape" />
		<tag k="ssr:stedsnr" v="273271" />
	</node>
	<node lat="70.61968333803372" lon="21.92891941258871" id="-101311">
		<tag k="fixme" v="consider seamark:type=rock or natural=shoal" />
		<tag k="loc_name" v="Bardflua" />
		<tag k="name" v="Barflua" />
		<tag k="place" v="islet" />
		<tag k="ssr:stedsnr" v="273721" />
	</node>
	<node lat="70.5012027823185" lon="22.400986078382836" id="-101312">
		<tag k="name" v="Skarvfjell" />
		<tag k="natural" v="cape" />
		<tag k="ssr:stedsnr" v="459428" />
	</node>
	<node lat="70.65718055681391" lon="22.620191611055244" id="-101314">
		<tag k="name" v="Larsnesgrunnen" />
		<tag k="natural" v="shoal" />
		<tag k="place" v="locality" />
		<tag k="ssr:stedsnr" v="276670" />
	</node>
	<node lat="70.35488333741766" lon="22.416261075571935" id="-101315">
		<tag k="name" v="Halsen" />
		<tag k="natural" v="cape" />
		<tag k="ssr:stedsnr" v="459796" />
	</node>
	<node lat="70.65041667205224" lon="22.564869392615627" id="-101316">
		<tag k="name" v="Gakkeborgneset" />
		<tag k="natural" v="cape" />
		<tag k="ssr:stedsnr" v="277200" />
	</node>
	<node lat="70.3629055586242" lon="22.549227723549308" id="-101318">
		<tag k="name" v="Nordbukta" />
		<tag k="natural" v="bay" />
		<tag k="ssr:stedsnr" v="277833" />
	</node>
	<node lat="70.47938888849798" lon="22.10344441149638" id="-101323">
		<tag k="alt_name" v="Stor-Sandvika;Sandvika, store" />
		<tag k="name" v="Store Sandvika" />
		<tag k="natural" v="bay" />
		<tag k="ssr:stedsnr" v="322278" />
	</node>
	<node lat="70.51623055941162" lon="22.645211054686552" id="-101324">
		<tag k="bay" v="fjord" />
		<tag k="name" v="Øyfjorden - Duorppalvuotna" />
		<tag k="name:no" v="Øyfjorden" />
		<tag k="name:se" v="Duorppalvuotna" />
		<tag k="natural" v="bay" />
		<tag k="old_name:se" v="Duorpalvuodna" />
		<tag k="ssr:stedsnr" v="323031" />
	</node>
	<node lat="70.514716664633" lon="22.264116629519233" id="-101325">
		<tag k="name" v="Storøya" />
		<tag k="place" v="island" />
		<tag k="ssr:stedsnr" v="323204" />
	</node>
	<node lat="70.49956667203331" lon="22.69509439760463" id="-101326">
		<tag k="name" v="Ramnnesgrunnen" />
		<tag k="natural" v="shoal" />
		<tag k="place" v="locality" />
		<tag k="ssr:stedsnr" v="323205" />
	</node>
	<node lat="70.4929527775582" lon="22.58655271590305" id="-101327">
		<tag k="alt_name" v="Karken" />
		<tag k="name" v="Karkholmen" />
		<tag k="place" v="islet" />
		<tag k="ssr:stedsnr" v="323211" />
	</node>
	<node lat="70.5858027775854" lon="22.05897774253648" id="-101333">
		<tag k="name" v="Finnkonvika" />
		<tag k="natural" v="bay" />
		<tag k="ssr:stedsnr" v="323723" />
	</node>
	<node lat="70.59206944476614" lon="22.077913859710506" id="-101334">
		<tag k="name" v="Elven" />
		<tag k="natural" v="bay" />
		<tag k="ssr:stedsnr" v="323729" />
	</node>
	<node lat="70.58928611087579" lon="22.1621805091647" id="-101335">
		<tag k="name" v="Steingrunnen" />
		<tag k="natural" v="shoal" />
		<tag k="place" v="locality" />
		<tag k="ssr:stedsnr" v="323734" />
	</node>
	<node lat="70.50441388707455" lon="22.13608885252653" id="-101340">
		<tag k="name" v="Risvågneset" />
		<tag k="natural" v="cape" />
		<tag k="ssr:stedsnr" v="333407" />
	</node>
	<node lat="70.50141666476219" lon="22.12598884321235" id="-101341">
		<tag k="fixme" v="consider seamark:type=rock or natural=shoal" />
		<tag k="name" v="Nebbeskjæret" />
		<tag k="place" v="islet" />
		<tag k="ssr:stedsnr" v="333410" />
	</node>
	<node lat="70.63032222424675" lon="21.983149964373094" id="-101342">
		<tag k="name" v="Værrefjæra" />
		<tag k="natural" v="bay" />
		<tag k="ssr:stedsnr" v="333463" />
	</node>
	<node lat="70.50470833748462" lon="22.40208606110143" id="-101346">
		<tag k="name" v="Skarberget" />
		<tag k="natural" v="cape" />
		<tag k="ssr:stedsnr" v="384309" />
	</node>
	<node lat="70.68875833825278" lon="22.723994384431574" id="-101352">
		<tag k="fixme" v="consider seamark:type=rock or natural=shoal" />
		<tag k="name" v="Skarvskjæret" />
		<tag k="place" v="islet" />
		<tag k="ssr:stedsnr" v="384657" />
	</node>
	<node lat="70.68355555967348" lon="22.634411053402083" id="-101353">
		<tag k="name" v="Engelskbukta" />
		<tag k="natural" v="bay" />
		<tag k="ssr:stedsnr" v="384658" />
	</node>
	<node lat="70.63384166896826" lon="21.94985553225869" id="-101354">
		<tag k="name" v="Gåsholmsundet" />
		<tag k="natural" v="strait" />
		<tag k="ssr:stedsnr" v="388044" />
	</node>
	<node lat="70.62913333749013" lon="21.98066663187539" id="-101355">
		<tag k="name" v="Sørværholmen" />
		<tag k="place" v="islet" />
		<tag k="ssr:stedsnr" v="388046" />
	</node>
	<node lat="70.58708611066305" lon="22.24251938809514" id="-101357">
		<tag k="name" v="Holmen" />
		<tag k="place" v="islet" />
		<tag k="ssr:stedsnr" v="388197" />
	</node>
	<node lat="70.6295527817047" lon="22.040849952679917" id="-101361">
		<tag k="name" v="Kalvebåsen" />
		<tag k="natural" v="bay" />
		<tag k="ssr:stedsnr" v="394410" />
	</node>
	<node lat="70.50243333726769" lon="22.13570830605733" id="-101362">
		<tag k="name" v="Bunesmolla" />
		<tag k="natural" v="bay" />
		<tag k="ssr:stedsnr" v="394383" />
	</node>
	<node lat="70.63133888966236" lon="21.972258302968925" id="-101363">
		<tag k="name" v="Trollholmskjærsundet" />
		<tag k="natural" v="strait" />
		<tag k="ssr:stedsnr" v="394388" />
	</node>
	<node lat="70.48149722125181" lon="22.084894404400544" id="-101364">
		<tag k="name" v="Hånebba" />
		<tag k="natural" v="cape" />
		<tag k="ssr:stedsnr" v="394489" />
	</node>
	<node lat="70.59170555932633" lon="22.290266617551186" id="-101369">
		<tag k="fixme" v="consider seamark:type=rock or natural=shoal" />
		<tag k="name" v="Lássá" />
		<tag k="name:se" v="Lássá" />
		<tag k="place" v="islet" />
		<tag k="ssr:stedsnr" v="395848" />
	</node>
	<node lat="70.57777778036855" lon="22.2153638588537" id="-101375">
		<tag k="name" v="Saltkeila" />
		<tag k="natural" v="bay" />
		<tag k="ssr:stedsnr" v="444728" />
	</node>
	<node lat="70.4853972196098" lon="22.317477733800594" id="-101376">
		<tag k="name" v="Taborshamnneset" />
		<tag k="natural" v="cape" />
		<tag k="ssr:stedsnr" v="445207" />
	</node>
	<node lat="70.62657221840972" lon="22.38465274004586" id="-101378">
		<tag k="name" v="Ofjordbukta" />
		<tag k="natural" v="bay" />
		<tag k="ssr:stedsnr" v="445704" />
	</node>
	<node lat="70.65130278249477" lon="22.61496382818944" id="-101381">
		<tag k="name" v="Midterøya" />
		<tag k="natural" v="cape" />
		<tag k="ssr:stedsnr" v="445682" />
	</node>
	<node lat="70.64468610815764" lon="22.718649955156952" id="-101382">
		<tag k="bay" v="fjord" />
		<tag k="name" v="Børrfjorden" />
		<tag k="natural" v="bay" />
		<tag k="ssr:stedsnr" v="445684" />
	</node>
	<node lat="70.65560833749869" lon="22.554344400317962" id="-101384">
		<tag k="name" v="Storbukta" />
		<tag k="natural" v="bay" />
		<tag k="ssr:stedsnr" v="445692" />
	</node>
	<node lat="70.490602776126" lon="22.119861066748953" id="-101385">
		<tag k="fixme" v="consider seamark:type=rock or natural=shoal" />
		<tag k="name" v="Seivågskjæran" />
		<tag k="place" v="islet" />
		<tag k="ssr:stedsnr" v="455307" />
	</node>
	<node lat="70.71174444264663" lon="22.69348883904343" id="-101391">
		<tag k="name" v="Galtegrunnen" />
		<tag k="natural" v="shoal" />
		<tag k="place" v="locality" />
		<tag k="ssr:stedsnr" v="458580" />
	</node>
	<node lat="70.50124167169989" lon="22.629783294137024" id="-101393">
		<tag k="name" v="Fuglberggrunnen" />
		<tag k="natural" v="shoal" />
		<tag k="place" v="locality" />
		<tag k="ssr:stedsnr" v="459680" />
	</node>
	<node lat="70.36016111076627" lon="22.442402733658803" id="-101397">
		<tag k="alt_name" v="Sørfjordodden" />
		<tag k="name" v="Nordnes" />
		<tag k="natural" v="cape" />
		<tag k="ssr:stedsnr" v="505176" />
	</node>
	<node lat="70.53165000411886" lon="22.27923607170696" id="-101399">
		<tag k="name" v="Klubben" />
		<tag k="natural" v="cape" />
		<tag k="ssr:stedsnr" v="505313" />
	</node>
	<node lat="70.49225556064783" lon="22.266088846355224" id="-101403">
		<tag k="name" v="Laukholmen" />
		<tag k="place" v="islet" />
		<tag k="ssr:stedsnr" v="505207" />
	</node>
	<node lat="70.48786667100505" lon="22.304247177801486" id="-101404">
		<tag k="name" v="Kårnes" />
		<tag k="natural" v="cape" />
		<tag k="ssr:stedsnr" v="505217" />
	</node>
	<node lat="70.64684166848569" lon="22.089349961596156" id="-101405">
		<tag k="name" v="Guttormhamn" />
		<tag k="natural" v="bay" />
		<tag k="ssr:stedsnr" v="505565" />
	</node>
	<node lat="70.6545555590942" lon="22.200233292604604" id="-101406">
		<tag k="bay" v="fjord" />
		<tag k="name" v="Nordsandfjorden" />
		<tag k="natural" v="bay" />
		<tag k="ssr:stedsnr" v="505568" />
	</node>
	<node lat="70.6308666722675" lon="21.950024956011088" id="-101407">
		<tag k="name" v="Kåja" />
		<tag k="place" v="island" />
		<tag k="ssr:stedsnr" v="505712" />
	</node>
	<node lat="70.54891388992866" lon="22.23891106071099" id="-101409">
		<tag k="name" v="Trollkeila" />
		<tag k="natural" v="bay" />
		<tag k="ssr:stedsnr" v="515311" />
	</node>
	<node lat="70.49338333660837" lon="22.135794403593433" id="-101410">
		<tag k="name" v="Lille Kobbevåg" />
		<tag k="natural" v="bay" />
		<tag k="ssr:stedsnr" v="515378" />
	</node>
	<node lat="70.50011666765856" lon="22.13340552789376" id="-101411">
		<tag k="fixme" v="consider seamark:type=rock or natural=shoal" />
		<tag k="name" v="Kverna" />
		<tag k="place" v="islet" />
		<tag k="ssr:stedsnr" v="515384" />
	</node>
	<node lat="70.48140833626366" lon="22.18662219397356" id="-101412">
		<tag k="fixme" v="consider seamark:type=rock or natural=shoal" />
		<tag k="name" v="Skarvskjæret" />
		<tag k="place" v="islet" />
		<tag k="ssr:stedsnr" v="515505" />
	</node>
	<node lat="70.48923889140472" lon="22.084447169932247" id="-101414">
		<tag k="name" v="Store Avløysbøen" />
		<tag k="natural" v="shoal" />
		<tag k="place" v="locality" />
		<tag k="ssr:stedsnr" v="518962" />
	</node>
	<node lat="70.49846666761295" lon="22.454730513657267" id="-101415">
		<tag k="name" v="Holmen" />
		<tag k="place" v="islet" />
		<tag k="ssr:stedsnr" v="519502" />
	</node>
	<node lat="70.70311944667999" lon="22.408588842316437" id="-101416">
		<tag k="name" v="Kjerringneset" />
		<tag k="natural" v="cape" />
		<tag k="ssr:stedsnr" v="519504" />
	</node>
	<node lat="70.682766670591" lon="22.656852732146103" id="-101417">
		<tag k="name" v="Knausen" />
		<tag k="natural" v="shoal" />
		<tag k="place" v="locality" />
		<tag k="ssr:stedsnr" v="519611" />
	</node>
	<node lat="70.36479166394251" lon="22.419588848793026" id="-101420">
		<tag k="name" v="Skallen" />
		<tag k="natural" v="shoal" />
		<tag k="place" v="locality" />
		<tag k="ssr:stedsnr" v="687153" />
	</node>
	<node lat="70.62222222097012" lon="21.930833289666953" id="-101422">
		<tag k="fixme" v="consider seamark:type=rock or natural=shoal" />
		<tag k="name" v="Barden" />
		<tag k="place" v="islet" />
		<tag k="ssr:stedsnr" v="545415" />
	</node>
	<node lat="70.51122777738188" lon="22.290624967252718" id="-101423">
		<tag k="name" v="Stålbukta" />
		<tag k="natural" v="bay" />
		<tag k="ssr:stedsnr" v="687281" />
	</node>
	<node lat="70.51503055380233" lon="22.467586071678518" id="-101424">
		<tag k="alt_name:no" v="Kipperfjorden" />
		<tag k="bay" v="fjord" />
		<tag k="name" v="Kipparfjorden - Gahpirvuotna" />
		<tag k="name:no" v="Kipparfjorden" />
		<tag k="name:se" v="Gahpirvuotna" />
		<tag k="natural" v="bay" />
		<tag k="old_name:se" v="Gappirvuodna" />
		<tag k="ssr:stedsnr" v="687282" />
	</node>
	<node lat="70.5949861080185" lon="22.297619399639295" id="-101428">
		<tag k="name" v="Hansvoll" />
		<tag k="natural" v="cape" />
		<tag k="ssr:stedsnr" v="687352" />
	</node>
	<node lat="70.61405555853871" lon="22.709544404682802" id="-101431">
		<tag k="name" v="Storvatnet" />
		<tag k="natural" v="bay" />
		<tag k="old_name" v="Storvantet" />
		<tag k="ssr:stedsnr" v="687382" />
	</node>
	<node lat="70.6124222259262" lon="22.22650273782999" id="-101432">
		<tag k="alt_name" v="Per Iversbukt;Per Iversbukta" />
		<tag k="name" v="Laukholet" />
		<tag k="natural" v="bay" />
		<tag k="ssr:stedsnr" v="687383" />
	</node>
	<node lat="70.66934444750163" lon="21.857266645819728" id="-101433">
		<tag k="alt_name" v="Djupskolten, øvre" />
		<tag k="name" v="Øvre Djupskolten" />
		<tag k="natural" v="shoal" />
		<tag k="place" v="locality" />
		<tag k="ssr:stedsnr" v="687570" />
	</node>
	<node lat="70.65534444663281" lon="22.004163858833994" id="-101434">
		<tag k="name" v="Russeholmen" />
		<tag k="place" v="islet" />
		<tag k="ssr:stedsnr" v="687575" />
	</node>
	<node lat="70.67070000208473" lon="22.60653327468834" id="-101435">
		<tag k="name" v="Klubben" />
		<tag k="natural" v="cape" />
		<tag k="ssr:stedsnr" v="687649" />
	</node>
	<node lat="70.68405833539133" lon="22.653538824411196" id="-101437">
		<tag k="name" v="Ytter-Veines" />
		<tag k="natural" v="cape" />
		<tag k="ssr:stedsnr" v="687658" />
	</node>
	<node lat="70.63584167313975" lon="22.689497158468967" id="-101440">
		<tag k="name" v="Skipsvika" />
		<tag k="natural" v="bay" />
		<tag k="ssr:stedsnr" v="687678" />
	</node>
	<node lat="70.71311111190869" lon="22.387149960586516" id="-101442">
		<tag k="alt_name" v="Steinskardbukta, vestre" />
		<tag k="fixme" v="multiple name tags, choose one and add the other to alt_name" />
		<tag k="name" v="Rekvika;Vestre Steinskardbukta" />
		<tag k="natural" v="bay" />
		<tag k="ssr:stedsnr" v="687751" />
	</node>
	<node lat="70.72374722406639" lon="22.60133050232555" id="-101443">
		<tag k="name" v="Oksegrunnen" />
		<tag k="natural" v="shoal" />
		<tag k="place" v="locality" />
		<tag k="ssr:stedsnr" v="687754" />
	</node>
	<node lat="70.64882499873391" lon="22.811191598905495" id="-101444">
		<tag k="name" v="Storbukta" />
		<tag k="natural" v="bay" />
		<tag k="ssr:stedsnr" v="688028" />
	</node>
	<node lat="70.34332222043855" lon="22.343702731938496" id="-101445">
		<tag k="fixme" v="consider seamark:type=rock or natural=shoal" />
		<tag k="name" v="Langskjæret - Guhkeslásis" />
		<tag k="name:no" v="Langskjæret" />
		<tag k="name:se" v="Guhkeslásis" />
		<tag k="old_name:se" v="Gukkeslasis" />
		<tag k="place" v="islet" />
		<tag k="ssr:stedsnr" v="688171" />
	</node>
	<node lat="70.62403055418845" lon="22.012174973539476" id="-101447">
		<tag k="name" v="Markeila" />
		<tag k="natural" v="bay" />
		<tag k="ssr:stedsnr" v="688700" />
	</node>
	<node lat="70.3763277761769" lon="22.642997152772846" id="-101448">
		<tag k="bay" v="fjord" />
		<tag k="name" v="Lille Kjerringfjorden - Unna Várjevuonaš" />
		<tag k="name:no" v="Lille Kjerringfjorden" />
		<tag k="name:se" v="Unna Várjevuonaš" />
		<tag k="natural" v="bay" />
		<tag k="old_name:no" v="Kjærringfjorden, l;Kjerringfjorden, l" />
		<tag k="old_name:se" v="Varjevuonaš unna" />
		<tag k="ssr:stedsnr" v="565166" />
	</node>
	<node lat="70.49910278213935" lon="22.535644392436627" id="-101449">
		<tag k="name" v="Grunnfjorden" />
		<tag k="natural" v="bay" />
		<tag k="ssr:stedsnr" v="565172" />
	</node>
	<node lat="70.55425278183043" lon="22.647111047216065" id="-101451">
		<tag k="alt_name:no" v="Midbotn" />
		<tag k="name" v="Mebotnen - Gaskačiehka" />
		<tag k="name:no" v="Mebotnen" />
		<tag k="name:se" v="Gaskačiehka" />
		<tag k="natural" v="bay" />
		<tag k="old_name:se" v="Gaskačiekka" />
		<tag k="ssr:stedsnr" v="565303" />
	</node>
	<node lat="70.49135000173466" lon="22.291511077063326" id="-101454">
		<tag k="name" v="Hamna" />
		<tag k="natural" v="strait" />
		<tag k="ssr:stedsnr" v="565510" />
	</node>
	<node lat="70.50386944359177" lon="22.138205506711866" id="-101455">
		<tag k="alt_name" v="Risvåg" />
		<tag k="name" v="Risvågen" />
		<tag k="natural" v="bay" />
		<tag k="ssr:stedsnr" v="565727" />
	</node>
	<node lat="70.69056111737001" lon="22.35007217168099" id="-101459">
		<tag k="name" v="Hellarneset" />
		<tag k="natural" v="cape" />
		<tag k="ssr:stedsnr" v="566635" />
	</node>
	<node lat="70.62838611558844" lon="21.982705512126085" id="-101462">
		<tag k="name" v="Mollvika" />
		<tag k="natural" v="bay" />
		<tag k="ssr:stedsnr" v="576444" />
	</node>
	<node lat="70.51906111037898" lon="22.125327735999296" id="-101463">
		<tag k="name" v="Rødeggneset" />
		<tag k="natural" v="cape" />
		<tag k="ssr:stedsnr" v="576447" />
	</node>
	<node lat="70.50562500005267" lon="22.124394403438654" id="-101464">
		<tag k="name" v="Mollvikneset" />
		<tag k="natural" v="cape" />
		<tag k="ssr:stedsnr" v="576451" />
	</node>
	<node lat="70.48031944530521" lon="22.1050527468503" id="-101465">
		<tag k="name" v="Sanden" />
		<tag k="natural" v="beach" />
		<tag k="ssr:stedsnr" v="576493" />
	</node>
	<node lat="70.63034722296906" lon="21.956213848829833" id="-101467">
		<tag k="name" v="Verholmsundet" />
		<tag k="natural" v="strait" />
		<tag k="ssr:stedsnr" v="576703" />
	</node>
	<node lat="70.5212444458056" lon="22.411936053385276" id="-101468">
		<tag k="name" v="Meltefjordbotn" />
		<tag k="natural" v="bay" />
		<tag k="ssr:stedsnr" v="580418" />
	</node>
	<node lat="70.70385833213307" lon="22.47882773474355" id="-101469">
		<tag k="name" v="Rekvikgrunnen" />
		<tag k="natural" v="shoal" />
		<tag k="place" v="locality" />
		<tag k="ssr:stedsnr" v="580591" />
	</node>
	<node lat="70.6969777752657" lon="22.434916621358937" id="-101470">
		<tag k="name" v="Sinkenesgrunnen" />
		<tag k="natural" v="shoal" />
		<tag k="place" v="locality" />
		<tag k="ssr:stedsnr" v="580593" />
	</node>
	<node lat="70.6273861100497" lon="21.97722496619099" id="-101477">
		<tag k="name" v="Lillegravdal" />
		<tag k="natural" v="bay" />
		<tag k="ssr:stedsnr" v="697399" />
	</node>
	<node lat="70.486680558359" lon="22.24603330455415" id="-101479">
		<tag k="name" v="Kommandanten" />
		<tag k="natural" v="cape" />
		<tag k="ssr:stedsnr" v="697356" />
	</node>
	<node lat="70.63069722711522" lon="21.983141629990243" id="-101480">
		<tag k="name" v="Brennerispira" />
		<tag k="natural" v="cape" />
		<tag k="ssr:stedsnr" v="697438" />
	</node>
	<node lat="70.59252778021563" lon="21.980474961715505" id="-101481">
		<tag k="name" v="Lillesjåholmen" />
		<tag k="place" v="islet" />
		<tag k="ssr:stedsnr" v="697652" />
	</node>
	<node lat="70.67349166659544" lon="22.328686062807964" id="-101483">
		<tag k="name" v="Stavsnesgrunnen" />
		<tag k="natural" v="shoal" />
		<tag k="place" v="locality" />
		<tag k="ssr:stedsnr" v="701589" />
	</node>
	<node lat="70.38255000319779" lon="22.578880512037824" id="-101484">
		<tag k="name" v="Svartskogneset" />
		<tag k="natural" v="cape" />
		<tag k="ssr:stedsnr" v="701840" />
	</node>
	<node lat="70.48504999955222" lon="22.20697773084781" id="-101485">
		<tag k="alt_name" v="Korsvika, store" />
		<tag k="fixme" v="multiple name tags, choose one and add the other to alt_name" />
		<tag k="name" v="Store-Korsvik;Østre Korsvika" />
		<tag k="natural" v="bay" />
		<tag k="ssr:stedsnr" v="625305" />
	</node>
	<node lat="70.49178055517416" lon="22.126955521237722" id="-101486">
		<tag k="alt_name" v="Singsnes" />
		<tag k="name" v="Singsneset" />
		<tag k="natural" v="cape" />
		<tag k="ssr:stedsnr" v="625308" />
	</node>
	<node lat="70.4962833370043" lon="22.518394393401095" id="-101487">
		<tag k="name" v="Kipparfjordneset" />
		<tag k="natural" v="cape" />
		<tag k="ssr:stedsnr" v="626204" />
	</node>
	<node lat="70.47929167184517" lon="22.22852495644802" id="-101489">
		<tag k="name" v="Hasfjordneset" />
		<tag k="natural" v="cape" />
		<tag k="ssr:stedsnr" v="626200" />
	</node>
	<node lat="70.54767500116996" lon="22.61139160395634" id="-101491">
		<tag k="name" v="Sæterneset" />
		<tag k="natural" v="cape" />
		<tag k="ssr:stedsnr" v="626351" />
	</node>
	<node lat="70.68682500289943" lon="22.42862774456229" id="-101494">
		<tag k="name" v="Inner-Bøle" />
		<tag k="natural" v="bay" />
		<tag k="ssr:stedsnr" v="626648" />
	</node>
	<node lat="70.68430555303468" lon="22.482427736517877" id="-101495">
		<tag k="name" v="Sandvikneset" />
		<tag k="natural" v="cape" />
		<tag k="ssr:stedsnr" v="626649" />
	</node>
	<node lat="70.48217222087779" lon="22.20179441032554" id="-101502">
		<tag k="name" v="Korsvika" />
		<tag k="natural" v="bay" />
		<tag k="ssr:stedsnr" v="636513" />
	</node>
	<node lat="70.65887500440493" lon="22.6435471624178" id="-101508">
		<tag k="name" v="Næringsbuktgrunnen" />
		<tag k="natural" v="shoal" />
		<tag k="place" v="locality" />
		<tag k="ssr:stedsnr" v="639624" />
	</node>
	<node lat="70.52839722449504" lon="22.470213831478972" id="-101509">
		<tag k="name" v="Kipperfjordbotn" />
		<tag k="natural" v="bay" />
		<tag k="ssr:stedsnr" v="640575" />
	</node>
	<node lat="70.66205555535934" lon="22.227444414314096" id="-101511">
		<tag k="name" v="Skardan" />
		<tag k="natural" v="bay" />
		<tag k="ssr:stedsnr" v="640709" />
	</node>
	<node lat="70.51244444356647" lon="22.47711939798176" id="-101512">
		<tag k="alt_name" v="Kipperfjordholman" />
		<tag k="name" v="Kipparholmen" />
		<tag k="place" v="islet" />
		<tag k="ssr:stedsnr" v="687292" />
	</node>
	<node lat="70.52902777634766" lon="22.690861063041375" id="-101513">
		<tag k="alt_name" v="Oksvika, in;Indre Oksvik" />
		<tag k="name" v="Indre Oksvika" />
		<tag k="natural" v="bay" />
		<tag k="ssr:stedsnr" v="687298" />
	</node>
	<node lat="70.49633055869867" lon="22.359736053820622" id="-101514">
		<tag k="name" v="Lyktnes" />
		<tag k="natural" v="cape" />
		<tag k="ssr:stedsnr" v="687194" />
	</node>
	<node lat="70.48860278193905" lon="22.270486081282595" id="-101515">
		<tag k="bay" v="fjord" />
		<tag k="name" v="Hasfjorden - Ákŋovuotna" />
		<tag k="name:no" v="Hasfjorden" />
		<tag k="name:se" v="Ákŋovuotna" />
		<tag k="natural" v="bay" />
		<tag k="old_name:se" v="Agŋuvuodna" />
		<tag k="ssr:stedsnr" v="687200" />
	</node>
	<node lat="70.69961667017988" lon="22.29656941603284" id="-101516">
		<tag k="name" v="Landhellargrunnen" />
		<tag k="natural" v="shoal" />
		<tag k="place" v="locality" />
		<tag k="ssr:stedsnr" v="687637" />
	</node>
	<node lat="70.63152500580404" lon="22.369724950051438" id="-101517">
		<tag k="name" v="Kobbebuktneset" />
		<tag k="natural" v="cape" />
		<tag k="ssr:stedsnr" v="687699" />
	</node>
	<node lat="70.649461107469" lon="22.115986077638716" id="-101518">
		<tag k="name" v="Sandfjordnæringen" />
		<tag k="natural" v="cape" />
		<tag k="ssr:stedsnr" v="687584" />
	</node>
	<node lat="70.64919444981784" lon="21.88136663470863" id="-101519">
		<tag k="name" v="Bondøyskallen" />
		<tag k="natural" v="shoal" />
		<tag k="place" v="locality" />
		<tag k="ssr:stedsnr" v="687586" />
	</node>
	<node lat="70.63106388715057" lon="22.028702744423192" id="-101523">
		<tag k="name" v="Malbuneset" />
		<tag k="natural" v="cape" />
		<tag k="ssr:stedsnr" v="688703" />
	</node>
	<node lat="70.64136111150795" lon="21.938572182008485" id="-101524">
		<tag k="name" v="Skinnbroka" />
		<tag k="natural" v="bay" />
		<tag k="ssr:stedsnr" v="688710" />
	</node>
	<node lat="70.61695000303325" lon="22.03806939492416" id="-101525">
		<tag k="alt_name" v="Årvik" />
		<tag k="name" v="Årvika" />
		<tag k="natural" v="bay" />
		<tag k="ssr:stedsnr" v="688731" />
	</node>
	<node lat="70.61483888776681" lon="22.00823052989373" id="-101526">
		<tag k="name" v="Stabbeneset" />
		<tag k="natural" v="cape" />
		<tag k="old_name" v="Stabbneset" />
		<tag k="ssr:stedsnr" v="688732" />
	</node>
	<node lat="70.67081944777506" lon="22.621694408040337" id="-101533">
		<tag k="name" v="Klubbgrunnen" />
		<tag k="natural" v="shoal" />
		<tag k="place" v="locality" />
		<tag k="ssr:stedsnr" v="701623" />
	</node>
	<node lat="70.68037500083857" lon="22.646058286563527" id="-101534">
		<tag k="name" v="Russefjellneset" />
		<tag k="natural" v="cape" />
		<tag k="ssr:stedsnr" v="701627" />
	</node>
	<node lat="70.70500555971972" lon="22.603419383740647" id="-101535">
		<tag k="name" v="Okseskolten" />
		<tag k="natural" v="cape" />
		<tag k="ssr:stedsnr" v="701661" />
	</node>
	<node lat="70.68613889072428" lon="21.980486080701894" id="-101537">
		<tag k="name" v="Kvitholmskallen" />
		<tag k="natural" v="shoal" />
		<tag k="place" v="locality" />
		<tag k="ssr:stedsnr" v="701728" />
	</node>
	<node lat="70.46261666951672" lon="22.142411060903758" id="-101538">
		<tag k="name" v="Silstø" />
		<tag k="natural" v="shoal" />
		<tag k="place" v="locality" />
		<tag k="ssr:stedsnr" v="701875" />
	</node>
	<node lat="70.53198333881903" lon="22.610219396590335" id="-101540">
		<tag k="name" v="Hamnebukta" />
		<tag k="natural" v="bay" />
		<tag k="ssr:stedsnr" v="747317" />
	</node>
	<node lat="70.4592999977939" lon="22.096836072019745" id="-101542">
		<tag k="name" v="Andottskallen" />
		<tag k="natural" v="shoal" />
		<tag k="place" v="locality" />
		<tag k="ssr:stedsnr" v="748306" />
	</node>
	<node lat="70.45765555934" lon="22.05147494992766" id="-101543">
		<tag k="name" v="Knottskallen" />
		<tag k="natural" v="shoal" />
		<tag k="place" v="locality" />
		<tag k="ssr:stedsnr" v="748312" />
	</node>
	<node lat="70.66494999901212" lon="22.066391626130926" id="-101545">
		<tag k="name" v="Skipsskallen" />
		<tag k="natural" v="shoal" />
		<tag k="place" v="locality" />
		<tag k="ssr:stedsnr" v="748573" />
	</node>
	<node lat="70.68493889190374" lon="22.24799440370089" id="-101547">
		<tag k="name" v="Næringskallen" />
		<tag k="natural" v="shoal" />
		<tag k="place" v="locality" />
		<tag k="ssr:stedsnr" v="748668" />
	</node>
	<node lat="70.67794999987562" lon="22.643049945178635" id="-101548">
		<tag k="name" v="Veinesbukta" />
		<tag k="natural" v="bay" />
		<tag k="ssr:stedsnr" v="748672" />
	</node>
	<node lat="70.67552777739601" lon="22.496277741427708" id="-101549">
		<tag k="name" v="Steinbukta" />
		<tag k="natural" v="bay" />
		<tag k="ssr:stedsnr" v="748676" />
	</node>
	<node lat="70.67013611406715" lon="21.97992497259262" id="-101550">
		<tag k="name" v="Kuntesundet" />
		<tag k="natural" v="strait" />
		<tag k="ssr:stedsnr" v="753257" />
	</node>
	<node lat="70.50071388726899" lon="22.136902723035305" id="-101552">
		<tag k="name" v="Flatholmen" />
		<tag k="place" v="islet" />
		<tag k="ssr:stedsnr" v="758407" />
	</node>
	<node lat="70.49738888580134" lon="22.120172182441056" id="-101553">
		<tag k="alt_name" v="Stangeneset" />
		<tag k="name" v="Stangnes" />
		<tag k="natural" v="cape" />
		<tag k="ssr:stedsnr" v="758421" />
	</node>
	<node lat="70.63161666701545" lon="22.02833607698763" id="-101554">
		<tag k="name" v="Malbua" />
		<tag k="natural" v="bay" />
		<tag k="ssr:stedsnr" v="758445" />
	</node>
	<node lat="70.60980000277965" lon="22.196005512338235" id="-101556">
		<tag k="name" v="Sarsetneset" />
		<tag k="natural" v="cape" />
		<tag k="ssr:stedsnr" v="758318" />
	</node>
	<node lat="70.56541388701275" lon="22.25120550533543" id="-101557">
		<tag k="name" v="Halsebukta" />
		<tag k="natural" v="bay" />
		<tag k="ssr:stedsnr" v="758349" />
	</node>
	<node lat="70.66979166783845" lon="21.74833885232225" id="-101559">
		<tag k="name" v="Ytre Djupskolten" />
		<tag k="natural" v="shoal" />
		<tag k="place" v="locality" />
		<tag k="ssr:stedsnr" v="905976" />
	</node>
	<node lat="70.60648889137553" lon="22.302547189510072" id="-101560">
		<tag k="name" v="Høyvika" />
		<tag k="natural" v="bay" />
		<tag k="ssr:stedsnr" v="759811" />
	</node>
	<node lat="70.70285555279793" lon="21.507594419516558" id="-101563">
		<tag k="name" v="Hola" />
		<tag k="natural" v="shoal" />
		<tag k="place" v="locality" />
		<tag k="ssr:stedsnr" v="905985" />
	</node>
	<node lat="70.66076111217221" lon="22.567513847009714" id="-101564">
		<tag k="name" v="Helnesodden" />
		<tag k="natural" v="cape" />
		<tag k="ssr:stedsnr" v="761650" />
	</node>
	<node lat="70.49432222486607" lon="22.514341610409677" id="-101565">
		<tag k="fixme" v="consider seamark:type=rock or natural=shoal" />
		<tag k="name" v="Skjæret" />
		<tag k="place" v="islet" />
		<tag k="ssr:stedsnr" v="762508" />
	</node>
	<node lat="70.65952222546552" lon="22.31474719102195" id="-101567">
		<tag k="name" v="Kvitberggrunnen" />
		<tag k="natural" v="shoal" />
		<tag k="place" v="locality" />
		<tag k="ssr:stedsnr" v="762693" />
	</node>
	<node lat="70.48766111634241" lon="22.129686068524183" id="-101571">
		<tag k="alt_name" v="Seivåg" />
		<tag k="name" v="Rottvågen" />
		<tag k="natural" v="bay" />
		<tag k="ssr:stedsnr" v="808292" />
	</node>
	<node lat="70.58754722761392" lon="22.00611662715729" id="-101575">
		<tag k="name" v="Villbassen" />
		<tag k="natural" v="cape" />
		<tag k="ssr:stedsnr" v="808737" />
	</node>
	<node lat="70.48535833457663" lon="22.426977722843134" id="-101576">
		<tag k="name" v="Skallneset" />
		<tag k="natural" v="cape" />
		<tag k="ssr:stedsnr" v="809186" />
	</node>
	<node lat="70.48684444618193" lon="22.337983283889194" id="-101577">
		<tag k="name" v="Meltefjordklubben" />
		<tag k="natural" v="cape" />
		<tag k="ssr:stedsnr" v="809191" />
	</node>
	<node lat="70.5218833391586" lon="22.58498327350678" id="-101579">
		<tag k="name" v="Karkefjorden - Báhccavuotna" />
		<tag k="name:no" v="Karkefjorden" />
		<tag k="name:se" v="Báhccavuotna" />
		<tag k="natural" v="bay" />
		<tag k="old_name:se" v="Baccavuodna" />
		<tag k="ssr:stedsnr" v="809306" />
	</node>
	<node lat="70.70940555353937" lon="22.751108271630574" id="-101583">
		<tag k="name" v="Sandvika" />
		<tag k="natural" v="bay" />
		<tag k="ssr:stedsnr" v="809750" />
	</node>
	<node lat="70.65263055427192" lon="22.74847495032962" id="-101584">
		<tag k="name" v="Seineset" />
		<tag k="natural" v="cape" />
		<tag k="ssr:stedsnr" v="809684" />
	</node>
	<node lat="70.60576944410059" lon="22.255138852738447" id="-101586">
		<tag k="name" v="Ytre Veinesodden" />
		<tag k="natural" v="cape" />
		<tag k="ssr:stedsnr" v="819271" />
	</node>
	<node lat="70.57851388830235" lon="22.219755508472346" id="-101588">
		<tag k="name" v="Saltkeilneset" />
		<tag k="natural" v="cape" />
		<tag k="ssr:stedsnr" v="819273" />
	</node>
	<node lat="70.66955555939735" lon="22.13446107605627" id="-101592">
		<tag k="bay" v="fjord" />
		<tag k="name" v="Sandfjorden" />
		<tag k="natural" v="bay" />
		<tag k="ssr:stedsnr" v="930025" />
	</node>
	<node lat="70.48671944240249" lon="22.404608278602648" id="-101593">
		<tag k="alt_name" v="Risvedbukta, vestre" />
		<tag k="name" v="Vestre Risvedbukta" />
		<tag k="natural" v="bay" />
		<tag k="ssr:stedsnr" v="930176" />
	</node>
	<node lat="70.7227861095855" lon="22.684774957659524" id="-101595">
		<tag k="name" v="Lyngøya - Girkosuolu" />
		<tag k="name:no" v="Lyngøya" />
		<tag k="name:se" v="Girkosuolu" />
		<tag k="old_name:se" v="Girkusuolo" />
		<tag k="place" v="island" />
		<tag k="ssr:stedsnr" v="869770" />
	</node>
	<node lat="70.5023333320088" lon="22.463530493754234" id="-101597">
		<tag k="name" v="Valen" />
		<tag k="place" v="islet" />
		<tag k="ssr:stedsnr" v="930302" />
	</node>
	<node lat="70.50698333002508" lon="22.369291621931165" id="-101598">
		<tag k="alt_name" v="Langneset" />
		<tag k="name" v="Langnes" />
		<tag k="natural" v="cape" />
		<tag k="ssr:stedsnr" v="930307" />
	</node>
	<node lat="70.5446944464827" lon="22.675572166899897" id="-101605">
		<tag k="alt_name" v="Risholmen" />
		<tag k="name" v="Brannholmen" />
		<tag k="place" v="islet" />
		<tag k="ssr:stedsnr" v="930337" />
	</node>
	<node lat="70.63039166576469" lon="21.95941663882052" id="-101612">
		<tag k="name" v="Verholmen" />
		<tag k="place" v="islet" />
		<tag k="ssr:stedsnr" v="930709" />
	</node>
	<node lat="70.61300000501112" lon="21.968324971328265" id="-101615">
		<tag k="name" v="Prestberggrunnen" />
		<tag k="natural" v="shoal" />
		<tag k="place" v="locality" />
		<tag k="ssr:stedsnr" v="930739" />
	</node>
	<node lat="70.64775833492205" lon="22.64318884158664" id="-101618">
		<tag k="name" v="Næringsbukta" />
		<tag k="natural" v="bay" />
		<tag k="ssr:stedsnr" v="930671" />
	</node>
	<node lat="70.64696666797506" lon="22.68395827419496" id="-101619">
		<tag k="name" v="Vegvika" />
		<tag k="natural" v="bay" />
		<tag k="ssr:stedsnr" v="930673" />
	</node>
	<node lat="70.65876110911842" lon="22.720194385008693" id="-101621">
		<tag k="name" v="Seinesgrunnen" />
		<tag k="natural" v="shoal" />
		<tag k="place" v="locality" />
		<tag k="ssr:stedsnr" v="930681" />
	</node>
	<node lat="70.64420277748971" lon="22.577674935702618" id="-101622">
		<tag k="name" v="Rundholmen" />
		<tag k="place" v="islet" />
		<tag k="ssr:stedsnr" v="930689" />
	</node>
	<node lat="70.56138056016276" lon="22.227313852102334" id="-101623">
		<tag k="alt_name" v="Bårvika" />
		<tag k="name" v="Store Bårvika" />
		<tag k="natural" v="bay" />
		<tag k="old_name" v="Bårvika, store" />
		<tag k="ssr:stedsnr" v="930755" />
	</node>
	<node lat="70.7206444472586" lon="22.71693050180428" id="-101624">
		<tag k="name" v="Galten" />
		<tag k="natural" v="cape" />
		<tag k="ssr:stedsnr" v="930771" />
	</node>
	<node lat="70.7231972189995" lon="22.372252735618726" id="-101625">
		<tag k="name" v="Bølesteingrunnen" />
		<tag k="natural" v="shoal" />
		<tag k="place" v="locality" />
		<tag k="ssr:stedsnr" v="930777" />
	</node>
	<node lat="70.48383611242873" lon="22.164983288909596" id="-101629">
		<tag k="name" v="Sjursholla" />
		<tag k="natural" v="bay" />
		<tag k="ssr:stedsnr" v="880307" />
	</node>
	<node lat="70.62673611490764" lon="21.966091624198064" id="-101632">
		<tag k="fixme" v="consider seamark:type=rock or natural=shoal" />
		<tag k="name" v="Skarveskjæret" />
		<tag k="place" v="islet" />
		<tag k="ssr:stedsnr" v="880365" />
	</node>
	<node lat="70.71877777563243" lon="22.694299953981293" id="-101635">
		<tag k="name" v="Flatøy" />
		<tag k="place" v="island" />
		<tag k="ssr:stedsnr" v="883600" />
	</node>
	<node lat="70.69880555431438" lon="22.465774960218475" id="-101637">
		<tag k="alt_name" v="Sinkeneset" />
		<tag k="name" v="Sinkenes" />
		<tag k="natural" v="cape" />
		<tag k="ssr:stedsnr" v="930645" />
	</node>
	<node lat="70.63650833604068" lon="21.969641642012807" id="-101640">
		<tag k="name" v="Inner-Sållbu" />
		<tag k="natural" v="bay" />
		<tag k="ssr:stedsnr" v="935292" />
	</node>
	<node lat="70.48672222394084" lon="22.326994406142273" id="-101642">
		<tag k="name" v="Jakobbukta" />
		<tag k="natural" v="bay" />
		<tag k="ssr:stedsnr" v="20195" />
	</node>
	<node lat="70.4995388919522" lon="22.134352727285467" id="-101643">
		<tag k="alt_name" v="Hasvåg" />
		<tag k="name" v="Hasvågen" />
		<tag k="natural" v="bay" />
		<tag k="ssr:stedsnr" v="19258" />
	</node>
	<node lat="70.47237221997986" lon="22.16338329675114" id="-101644">
		<tag k="name" v="Seikeila" />
		<tag k="natural" v="bay" />
		<tag k="ssr:stedsnr" v="19283" />
	</node>
	<node lat="70.31679166659185" lon="22.663258277083965" id="-101646">
		<tag k="alt_name:no" v="Stjernøy" />
		<tag k="name" v="Stjernøya - Stierdná" />
		<tag k="name:no" v="Stjernøya" />
		<tag k="name:se" v="Stierdná" />
		<tag k="old_name:se" v="Stierdna" />
		<tag k="place" v="island" />
		<tag k="ssr:stedsnr" v="19466" />
	</node>
	<node lat="70.32269167162873" lon="22.484186068632063" id="-101651">
		<tag k="loc_name:se" v="Meahkavuonbahta" />
		<tag k="name" v="Sørfjordbotn" />
		<tag k="name:no" v="Sørfjordbotn" />
		<tag k="natural" v="bay" />
		<tag k="ssr:stedsnr" v="20128" />
	</node>
	<node lat="70.35695556093134" lon="22.52756382995561" id="-101653">
		<tag k="name" v="Purka" />
		<tag k="natural" v="bay" />
		<tag k="ssr:stedsnr" v="20166" />
	</node>
	<node lat="70.35256666863847" lon="22.38141939478948" id="-101654">
		<tag k="alt_name" v="Eftervika" />
		<tag k="name" v="Elftervika" />
		<tag k="natural" v="bay" />
		<tag k="ssr:stedsnr" v="20167" />
	</node>
	<node lat="70.53290556002023" lon="22.656380507374323" id="-101655">
		<tag k="fixme" v="multiple name tags, choose one and add the other to alt_name" />
		<tag k="name" v="Flatholmen;Jordholmen" />
		<tag k="place" v="islet" />
		<tag k="ssr:stedsnr" v="20325" />
	</node>
	<node lat="70.6172944417774" lon="22.709430505200103" id="-101658">
		<tag k="name" v="Silnes" />
		<tag k="natural" v="cape" />
		<tag k="ssr:stedsnr" v="20359" />
	</node>
	<node lat="70.65303889132073" lon="22.057227746213766" id="-101661">
		<tag k="name" v="Skitnviknæringen" />
		<tag k="natural" v="cape" />
		<tag k="ssr:stedsnr" v="20576" />
	</node>
	<node lat="70.6911666717416" lon="22.774402720043454" id="-101662">
		<tag k="name" v="Pumparvika" />
		<tag k="natural" v="bay" />
		<tag k="ssr:stedsnr" v="20663" />
	</node>
	<node lat="70.70455555352117" lon="22.580341623921715" id="-101664">
		<tag k="alt_name" v="Oksevika, yt;Ytter Oksvik" />
		<tag k="name" v="Ytre Oksevika" />
		<tag k="natural" v="bay" />
		<tag k="ssr:stedsnr" v="20671" />
	</node>
	<node lat="70.67375000152776" lon="22.474605513015625" id="-101665">
		<tag k="name" v="Bølestraumen" />
		<tag k="natural" v="strait" />
		<tag k="ssr:stedsnr" v="20674" />
	</node>
	<node lat="70.67858055810537" lon="22.76723327567297" id="-101666">
		<tag k="alt_name" v="Smalneset" />
		<tag k="name" v="Smalnes" />
		<tag k="natural" v="cape" />
		<tag k="ssr:stedsnr" v="20677" />
	</node>
	<node lat="70.68031388868758" lon="22.293058281313606" id="-101667">
		<tag k="bay" v="fjord" />
		<tag k="name" v="Ofjorden - Uffirvuotna" />
		<tag k="name:no" v="Ofjorden" />
		<tag k="name:se" v="Uffirvuotna" />
		<tag k="natural" v="bay" />
		<tag k="old_name:se" v="Uffirvuodna" />
		<tag k="ssr:stedsnr" v="20680" />
	</node>
	<node lat="70.59063333789402" lon="22.108038841363395" id="-101670">
		<tag k="alt_name" v="Rumpen" />
		<tag k="fixme" v="consider seamark:type=rock or natural=shoal" />
		<tag k="name" v="Rompa" />
		<tag k="place" v="islet" />
		<tag k="ssr:stedsnr" v="20760" />
	</node>
	<node lat="70.71237778171135" lon="22.511658293598586" id="-101671">
		<tag k="name" v="Rekvikneset" />
		<tag k="natural" v="cape" />
		<tag k="ssr:stedsnr" v="20764" />
	</node>
	<node lat="70.7129277764136" lon="22.73181105022738" id="-101672">
		<tag k="name" v="Brattnæringen" />
		<tag k="natural" v="cape" />
		<tag k="ssr:stedsnr" v="20767" />
	</node>
	<node lat="70.74909444130199" lon="22.698572180205908" id="-101673">
		<tag k="alt_name" v="Vestre Stålvika" />
		<tag k="name" v="Vesterstålvika" />
		<tag k="natural" v="bay" />
		<tag k="ssr:stedsnr" v="20775" />
	</node>
	<node lat="70.62287222651537" lon="21.933336075575983" id="-101675">
		<tag k="name" v="Mellom-Barden" />
		<tag k="place" v="islet" />
		<tag k="ssr:stedsnr" v="20710" />
	</node>
	<node lat="70.64239999895182" lon="21.926644412145194" id="-101676">
		<tag k="fixme" v="consider seamark:type=rock or natural=shoal" />
		<tag k="name" v="Skinnbrokskjæran" />
		<tag k="place" v="islet" />
		<tag k="ssr:stedsnr" v="20723" />
	</node>
	<node lat="70.63740000346309" lon="21.962224966351094" id="-101680">
		<tag k="name" v="Ytter-Sållbu" />
		<tag k="natural" v="bay" />
		<tag k="ssr:stedsnr" v="25331" />
	</node>
	<node lat="70.63141111212975" lon="21.982094406394115" id="-101682">
		<tag k="name" v="Krutthusneset" />
		<tag k="natural" v="cape" />
		<tag k="ssr:stedsnr" v="30429" />
	</node>
	<node lat="70.6310305530379" lon="21.986319399396436" id="-101683">
		<tag k="name" v="Lillevalen" />
		<tag k="place" v="locality" />
		<tag k="ssr:stedsnr" v="30431" />
	</node>
	<node lat="70.62932777819125" lon="21.981102734086793" id="-101684">
		<tag k="name" v="Værret" />
		<tag k="place" v="islet" />
		<tag k="ssr:stedsnr" v="30437" />
	</node>
	<node lat="70.50558056089655" lon="22.13000550671915" id="-101685">
		<tag k="name" v="Lille Djupvåg" />
		<tag k="natural" v="bay" />
		<tag k="ssr:stedsnr" v="30442" />
	</node>
	<node lat="70.63144444108181" lon="21.971208300806662" id="-101687">
		<tag k="fixme" v="consider seamark:type=rock or natural=shoal" />
		<tag k="name" v="Trollholmskjæret" />
		<tag k="place" v="islet" />
		<tag k="ssr:stedsnr" v="30388" />
	</node>
	<node lat="70.62709444815346" lon="21.974374961737784" id="-101688">
		<tag k="name" v="Avløsninga" />
		<tag k="natural" v="cape" />
		<tag k="ssr:stedsnr" v="30392" />
	</node>
	<node lat="70.4702055551171" lon="22.157766635469212" id="-101691">
		<tag k="fixme" v="consider seamark:type=rock or natural=shoal" />
		<tag k="name" v="Seikeilskjæret" />
		<tag k="place" v="islet" />
		<tag k="ssr:stedsnr" v="30493" />
	</node>
	<node lat="70.49189166467183" lon="22.114538855859298" id="-101698">
		<tag k="name" v="Stein" />
		<tag k="natural" v="shoal" />
		<tag k="place" v="locality" />
		<tag k="ssr:stedsnr" v="32997" />
	</node>
	<node lat="70.50158055829667" lon="22.60685272570402" id="-101700">
		<tag k="name" v="Kigrunnen" />
		<tag k="natural" v="shoal" />
		<tag k="place" v="locality" />
		<tag k="ssr:stedsnr" v="34675" />
	</node>
	<node lat="70.33769166875553" lon="22.46309717899372" id="-101701">
		<tag k="name" v="Skarvhammaren" />
		<tag k="natural" v="cape" />
		<tag k="ssr:stedsnr" v="34752" />
	</node>
	<node lat="70.47252499992226" lon="22.165272176565175" id="-101704">
		<tag k="name" v="Molla" />
		<tag k="natural" v="bay" />
		<tag k="ssr:stedsnr" v="51850" />
	</node>
	<node lat="70.44413333734535" lon="22.503194403544608" id="-101706">
		<tag k="bay" v="fjord" />
		<tag k="name" v="Sørøysundet" />
		<tag k="natural" v="bay" />
		<tag k="ssr:stedsnr" v="80188" />
	</node>
	<node lat="70.497897220372" lon="22.494661068363353" id="-101707">
		<tag k="name" v="Høgholmen - Allasuolu" />
		<tag k="name:no" v="Høgholmen" />
		<tag k="name:se" v="Allasuolu" />
		<tag k="old_name:se" v="Allasuolo" />
		<tag k="place" v="islet" />
		<tag k="ssr:stedsnr" v="80206" />
	</node>
	<node lat="70.37185277635706" lon="22.524380497929503" id="-101711">
		<tag k="bay" v="fjord" />
		<tag k="name" v="Nordfjorden - Nuortavuotna" />
		<tag k="name:no" v="Nordfjorden" />
		<tag k="name:se" v="Nuortavuotna" />
		<tag k="natural" v="bay" />
		<tag k="old_name:se" v="Nuortavuodna" />
		<tag k="ssr:stedsnr" v="80526" />
	</node>
	<node lat="70.72957500388797" lon="22.0379694022233" id="-101724">
		<tag k="name" v="Reinlibøen" />
		<tag k="natural" v="shoal" />
		<tag k="place" v="locality" />
		<tag k="ssr:stedsnr" v="81569" />
	</node>
	<node lat="70.67371388981559" lon="22.20910828016183" id="-101725">
		<tag k="name" v="Ofjordnæringen" />
		<tag k="natural" v="cape" />
		<tag k="ssr:stedsnr" v="81573" />
	</node>
	<node lat="70.65172222728916" lon="22.016027737272008" id="-101726">
		<tag k="alt_name" v="Skitnvika, s" />
		<tag k="name" v="Søre Skitnvika" />
		<tag k="natural" v="bay" />
		<tag k="ssr:stedsnr" v="81579" />
	</node>
	<node lat="70.65060000145907" lon="21.955016642454833" id="-101727">
		<tag k="name" v="Nord-Gråvika" />
		<tag k="natural" v="bay" />
		<tag k="ssr:stedsnr" v="81581" />
	</node>
	<node lat="70.67296944662993" lon="22.24663050852283" id="-101728">
		<tag k="alt_name" v="Nova" />
		<tag k="name" v="Laukviknova" />
		<tag k="natural" v="cape" />
		<tag k="ssr:stedsnr" v="81668" />
	</node>
	<node lat="70.64297500395757" lon="21.930605532402154" id="-101734">
		<tag k="alt_name" v="Skinnbroka" />
		<tag k="name" v="Skinnbrokneset" />
		<tag k="natural" v="cape" />
		<tag k="ssr:stedsnr" v="81720" />
	</node>
	<node lat="70.63645555670797" lon="22.717272168779857" id="-101735">
		<tag k="name" v="Børrfjordvik" />
		<tag k="natural" v="bay" />
		<tag k="ssr:stedsnr" v="86255" />
	</node>
	<node lat="70.62951944797916" lon="21.977436063503497" id="-101741">
		<tag k="name" v="Likvika" />
		<tag k="natural" v="bay" />
		<tag k="ssr:stedsnr" v="91467" />
	</node>
	<node lat="70.50665000193051" lon="22.122411064030864" id="-101742">
		<tag k="name" v="Mollvika" />
		<tag k="natural" v="bay" />
		<tag k="ssr:stedsnr" v="91472" />
	</node>
	<node lat="70.50080000231438" lon="22.121308280659388" id="-101746">
		<tag k="alt_name" v="Tofteskitten" />
		<tag k="name" v="Tofteskiten" />
		<tag k="natural" v="shoal" />
		<tag k="place" v="locality" />
		<tag k="ssr:stedsnr" v="93948" />
	</node>
	<node lat="70.65269722647747" lon="22.212049960466082" id="-101748">
		<tag k="fixme" v="consider seamark:type=rock or natural=shoal" />
		<tag k="name" v="Skjæret" />
		<tag k="place" v="islet" />
		<tag k="ssr:stedsnr" v="94780" />
	</node>
	<node lat="70.62181944314263" lon="22.716891612032665" id="-101749">
		<tag k="name" v="Larsneset" />
		<tag k="natural" v="cape" />
		<tag k="ssr:stedsnr" v="95006" />
	</node>
	<node lat="70.56262500328049" lon="21.722713849927878" id="-101750">
		<tag k="name" v="Kveitegrunnen" />
		<tag k="natural" v="shoal" />
		<tag k="place" v="locality" />
		<tag k="ssr:stedsnr" v="116973" />
	</node>
	<node lat="70.49731388963494" lon="22.455011069057313" id="-101752">
		<tag k="name" v="Hamna" />
		<tag k="natural" v="bay" />
		<tag k="ssr:stedsnr" v="140183" />
	</node>
	<node lat="70.49276111429114" lon="22.164411069044736" id="-101753">
		<tag k="name" v="Sørøya - Sállan" />
		<tag k="name:no" v="Sørøya" />
		<tag k="name:se" v="Sállan" />
		<tag k="old_name:no" v="Sørøy" />
		<tag k="old_name:se" v="Sallan" />
		<tag k="place" v="island" />
		<tag k="ssr:stedsnr" v="140319" />
	</node>
	<node lat="70.55121389218647" lon="22.61406382509939" id="-101754">
		<tag k="name" v="Sørbotn - Sieidegohppi" />
		<tag k="name:no" v="Sørbotn" />
		<tag k="name:se" v="Sieidegohppi" />
		<tag k="natural" v="bay" />
		<tag k="old_name:se" v="Sieidegåppi" />
		<tag k="ssr:stedsnr" v="140326" />
	</node>
	<node lat="70.60761666868116" lon="22.187555517712756" id="-101762">
		<tag k="fixme" v="consider seamark:type=rock or natural=shoal" />
		<tag k="name" v="Skjæran" />
		<tag k="place" v="islet" />
		<tag k="ssr:stedsnr" v="140700" />
	</node>
	<node lat="70.53683333203453" lon="22.17038050009413" id="-101763">
		<tag k="name" v="Kvithellaren" />
		<tag k="natural" v="cape" />
		<tag k="ssr:stedsnr" v="140719" />
	</node>
	<node lat="70.48403611364117" lon="22.248474944212187" id="-101765">
		<tag k="fixme" v="consider seamark:type=rock or natural=shoal" />
		<tag k="name" v="Langskjæret" />
		<tag k="place" v="islet" />
		<tag k="ssr:stedsnr" v="141198" />
	</node>
	<node lat="70.36873055887305" lon="22.645438839254656" id="-101767">
		<tag k="alt_name" v="Rekvedbukta, in" />
		<tag k="name" v="Indre Rekvedbukt" />
		<tag k="natural" v="bay" />
		<tag k="ssr:stedsnr" v="141172" />
	</node>
	<node lat="70.70760277819473" lon="21.931255532224068" id="-101772">
		<tag k="name" v="Ryggen" />
		<tag k="natural" v="shoal" />
		<tag k="place" v="locality" />
		<tag k="ssr:stedsnr" v="141561" />
	</node>
	<node lat="70.34335833463312" lon="22.463530514883544" id="-101773">
		<tag k="bay" v="fjord" />
		<tag k="name" v="Sørfjorden - Meahkovuotna" />
		<tag k="name:no" v="Sørfjorden" />
		<tag k="name:se" v="Meahkovuotna" />
		<tag k="natural" v="bay" />
		<tag k="old_name:se" v="Mækkuvuodna" />
		<tag k="ssr:stedsnr" v="141527" />
	</node>
	<node lat="70.69983611231827" lon="22.409983280121935" id="-101774">
		<tag k="name" v="Kjerringvik" />
		<tag k="natural" v="bay" />
		<tag k="ssr:stedsnr" v="141640" />
	</node>
	<node lat="70.70341945016058" lon="22.774669389560582" id="-101775">
		<tag k="name" v="Makkvika" />
		<tag k="natural" v="bay" />
		<tag k="ssr:stedsnr" v="141642" />
	</node>
	<node lat="70.7035083350675" lon="22.731649933107768" id="-101780">
		<tag k="name" v="Makkviknæringen" />
		<tag k="natural" v="cape" />
		<tag k="ssr:stedsnr" v="141708" />
	</node>
	<node lat="70.63177499733465" lon="21.986247176571695" id="-101782">
		<tag k="name" v="Storvalen" />
		<tag k="place" v="locality" />
		<tag k="ssr:stedsnr" v="151445" />
	</node>
	<node lat="70.52873611180759" lon="22.161405507300373" id="-101785">
		<tag k="name" v="Østavindholla" />
		<tag k="natural" v="bay" />
		<tag k="ssr:stedsnr" v="151324" />
	</node>
	<node lat="70.48881388893747" lon="22.129261078433597" id="-101787">
		<tag k="name" v="Vattenvåg" />
		<tag k="natural" v="bay" />
		<tag k="ssr:stedsnr" v="151341" />
	</node>
	<node lat="70.68560277870041" lon="22.660527724091423" id="-101796">
		<tag k="name" v="Veidnesgrunnen" />
		<tag k="natural" v="shoal" />
		<tag k="place" v="locality" />
		<tag k="ssr:stedsnr" v="154578" />
	</node>
	<node lat="70.65507222721511" lon="22.83432216367183" id="-101798">
		<tag k="name" v="Nordfjord" />
		<tag k="natural" v="beach" />
		<tag k="ssr:stedsnr" v="155057" />
	</node>
	<node lat="70.35216944469404" lon="22.42101662746299" id="-101800">
		<tag k="name" v="Russholmen" />
		<tag k="place" v="islet" />
		<tag k="ssr:stedsnr" v="155787" />
	</node>
	<node lat="70.35740000144098" lon="22.41421661366039" id="-101808">
		<tag k="name" v="Ruoššasuolu" />
		<tag k="name:se" v="Ruoššasuolu" />
		<tag k="old_name:se" v="Ruoššasuolo" />
		<tag k="place" v="islet" />
		<tag k="ssr:stedsnr" v="202166" />
	</node>
	<node lat="70.53279722036946" lon="22.650338846419338" id="-101815">
		<tag k="fixme" v="multiple name tags, choose one and add the other to alt_name" />
		<tag k="name" v="Rundholmen;Høgliholmen" />
		<tag k="place" v="islet" />
		<tag k="ssr:stedsnr" v="202327" />
	</node>
	<node lat="70.4977888866818" lon="22.55500550929013" id="-101818">
		<tag k="alt_name" v="Klasneset" />
		<tag k="name" v="Klasnes" />
		<tag k="natural" v="cape" />
		<tag k="ssr:stedsnr" v="202185" />
	</node>
	<node lat="70.48976944255301" lon="22.343966613740836" id="-101819">
		<tag k="name" v="Langmolla" />
		<tag k="natural" v="bay" />
		<tag k="ssr:stedsnr" v="202188" />
	</node>
	<node lat="70.61621388989431" lon="22.703588840228402" id="-101823">
		<tag k="name" v="Melkenes" />
		<tag k="natural" v="cape" />
		<tag k="ssr:stedsnr" v="202371" />
	</node>
	<node lat="70.63571389383311" lon="22.570738852563693" id="-101829">
		<tag k="name" v="Dønnesfjordbotn" />
		<tag k="natural" v="bay" />
		<tag k="ssr:stedsnr" v="202701" />
	</node>
	<node lat="70.63820000043452" lon="21.92282774151329" id="-101830">
		<tag k="name" v="Kvitholmen" />
		<tag k="place" v="islet" />
		<tag k="ssr:stedsnr" v="202717" />
	</node>
	<node lat="70.6036305591317" lon="22.14349163376754" id="-101832">
		<tag k="name" v="Sandbukta" />
		<tag k="natural" v="bay" />
		<tag k="ssr:stedsnr" v="202721" />
	</node>
	<node lat="70.59295555516394" lon="21.977933301832742" id="-101833">
		<tag k="name" v="Skjåholmen" />
		<tag k="old_name" v="Sjåholmen" />
		<tag k="place" v="islet" />
		<tag k="ssr:stedsnr" v="202722" />
	</node>
	<node lat="70.56945000418173" lon="22.091844407497675" id="-101834">
		<tag k="alt_name" v="Ramskjergrunnen" />
		<tag k="name" v="Ramskjærgrunnen" />
		<tag k="natural" v="shoal" />
		<tag k="place" v="locality" />
		<tag k="ssr:stedsnr" v="202738" />
	</node>
	<node lat="70.70560832980792" lon="21.98897496965095" id="-101835">
		<tag k="name" v="Storegrunnen" />
		<tag k="natural" v="shoal" />
		<tag k="place" v="locality" />
		<tag k="ssr:stedsnr" v="202586" />
	</node>
	<node lat="70.67395833311846" lon="21.98057773840718" id="-101836">
		<tag k="fixme" v="consider seamark:type=rock or natural=shoal" />
		<tag k="name" v="Darupskjæret" />
		<tag k="place" v="islet" />
		<tag k="ssr:stedsnr" v="202587" />
	</node>
	<node lat="70.71091388882714" lon="22.397313845292867" id="-101837">
		<tag k="alt_name" v="Steinskardbukta, austre" />
		<tag k="name" v="Austre Steinskardbukta" />
		<tag k="natural" v="bay" />
		<tag k="ssr:stedsnr" v="202663" />
	</node>
	<node lat="70.66928333091465" lon="22.785424953563847" id="-101839">
		<tag k="name" v="Skammelvika" />
		<tag k="natural" v="bay" />
		<tag k="ssr:stedsnr" v="202685" />
	</node>
	<node lat="70.64960555753822" lon="22.29674719128441" id="-101840">
		<tag k="name" v="Kvitberget" />
		<tag k="natural" v="cape" />
		<tag k="ssr:stedsnr" v="202688" />
	</node>
	<node lat="70.72104166291592" lon="22.37042774155651" id="-101842">
		<tag k="name" v="Bølesteinen" />
		<tag k="natural" v="cape" />
		<tag k="ssr:stedsnr" v="202753" />
	</node>
	<node lat="70.51045278293819" lon="22.239730507136237" id="-101845">
		<tag k="name" v="Skarbukt" />
		<tag k="natural" v="bay" />
		<tag k="ssr:stedsnr" v="212350" />
	</node>
	<node lat="70.55428333759296" lon="22.253774957497942" id="-101846">
		<tag k="name" v="Kvitnesbukta" />
		<tag k="natural" v="bay" />
		<tag k="ssr:stedsnr" v="212302" />
	</node>
	<node lat="70.49110000396622" lon="22.131105525157405" id="-101847">
		<tag k="name" v="Råttenvåg" />
		<tag k="natural" v="bay" />
		<tag k="ssr:stedsnr" v="212318" />
	</node>
	<node lat="70.60618055620638" lon="22.264527730746156" id="-101849">
		<tag k="name" v="Jakobbukta" />
		<tag k="natural" v="bay" />
		<tag k="ssr:stedsnr" v="213820" />
	</node>
	<node lat="70.65532500210831" lon="22.594608293278327" id="-101852">
		<tag k="name" v="Vesterøygrunnen" />
		<tag k="natural" v="shoal" />
		<tag k="place" v="locality" />
		<tag k="ssr:stedsnr" v="215659" />
	</node>
	<node lat="70.47143055706222" lon="22.155638839325682" id="-101855">
		<tag k="name" v="Seikeilneset" />
		<tag k="natural" v="cape" />
		<tag k="ssr:stedsnr" v="216369" />
	</node>
	<node lat="70.58217222368707" lon="22.23472218985138" id="-101859">
		<tag k="name" v="Olabukta" />
		<tag k="natural" v="bay" />
		<tag k="ssr:stedsnr" v="273246" />
	</node>
	<node lat="70.52928888810789" lon="22.28997772256782" id="-101863">
		<tag k="name" v="Avstøingsbukta" />
		<tag k="natural" v="bay" />
		<tag k="ssr:stedsnr" v="274767" />
	</node>
	<node lat="70.59286666420064" lon="22.29743329092275" id="-101865">
		<tag k="name" v="Botngammen" />
		<tag k="natural" v="bay" />
		<tag k="ssr:stedsnr" v="274798" />
	</node>
	<node lat="70.71488055368384" lon="22.68886938216201" id="-101868">
		<tag k="name" v="Flatøygrunnen" />
		<tag k="natural" v="shoal" />
		<tag k="place" v="locality" />
		<tag k="ssr:stedsnr" v="276584" />
	</node>
	<node lat="70.6516444443549" lon="22.051294411309893" id="-101869">
		<tag k="name" v="Vestre Skittenvika" />
		<tag k="natural" v="bay" />
		<tag k="ssr:stedsnr" v="276765" />
	</node>
	<node lat="70.4861638869366" lon="22.417966616721316" id="-101876">
		<tag k="alt_name" v="Risvedbukta, austre" />
		<tag k="name" v="Austre Risvedbukta" />
		<tag k="natural" v="bay" />
		<tag k="ssr:stedsnr" v="323190" />
	</node>
	<node lat="70.37394444744149" lon="22.50376104718756" id="-101877">
		<tag k="name" v="Pipstokken" />
		<tag k="natural" v="cape" />
		<tag k="ssr:stedsnr" v="323192" />
	</node>
	<node lat="70.51035277637055" lon="22.39756661941166" id="-101879">
		<tag k="name" v="Meltefjordholmen" />
		<tag k="place" v="islet" />
		<tag k="ssr:stedsnr" v="323299" />
	</node>
	<node lat="70.5036166720566" lon="22.703591615260677" id="-101880">
		<tag k="name" v="Ramnnes" />
		<tag k="natural" v="cape" />
		<tag k="ssr:stedsnr" v="323301" />
	</node>
	<node lat="70.60435555589454" lon="22.270308285434293" id="-101884">
		<tag k="name" v="Veines" />
		<tag k="natural" v="cape" />
		<tag k="ssr:stedsnr" v="323341" />
	</node>
	<node lat="70.58226111415168" lon="22.243205521100055" id="-101887">
		<tag k="name" v="Holmbukta" />
		<tag k="natural" v="bay" />
		<tag k="ssr:stedsnr" v="323352" />
	</node>
	<node lat="70.6545416658419" lon="22.12791663953843" id="-101888">
		<tag k="name" v="Oksen" />
		<tag k="place" v="islet" />
		<tag k="ssr:stedsnr" v="323569" />
	</node>
	<node lat="70.69034166405604" lon="22.606708284396074" id="-101890">
		<tag k="alt_name" v="Oksevika, in;Indre Oksvik" />
		<tag k="name" v="Indre Oksevika" />
		<tag k="natural" v="bay" />
		<tag k="ssr:stedsnr" v="323647" />
	</node>
	<node lat="70.7137055608301" lon="22.426552726701182" id="-101891">
		<tag k="bay" v="fjord" />
		<tag k="name" v="Bølefjorden - Bievllavuotna" />
		<tag k="name:no" v="Bølefjorden" />
		<tag k="name:se" v="Bievllavuotna" />
		<tag k="natural" v="bay" />
		<tag k="old_name:se" v="Bievlavuodna" />
		<tag k="ssr:stedsnr" v="323649" />
	</node>
	<node lat="70.70300000351175" lon="22.612013847597552" id="-101892">
		<tag k="name" v="Ytteroksen - Olgo-Vuoksá" />
		<tag k="name:no" v="Ytteroksen" />
		<tag k="name:se" v="Olgo-Vuoksá" />
		<tag k="natural" v="cape" />
		<tag k="old_name:se" v="Ålgu-Vuoksa" />
		<tag k="ssr:stedsnr" v="323655" />
	</node>
	<node lat="70.66517222285644" lon="22.57622217793062" id="-101895">
		<tag k="name" v="Sanden" />
		<tag k="natural" v="cape" />
		<tag k="ssr:stedsnr" v="323662" />
	</node>
	<node lat="70.66902222730833" lon="22.586380504618734" id="-101896">
		<tag k="name" v="Internatbukta" />
		<tag k="natural" v="bay" />
		<tag k="ssr:stedsnr" v="323663" />
	</node>
	<node lat="70.68537778229309" lon="22.737794382224358" id="-101897">
		<tag k="fixme" v="consider seamark:type=rock or natural=shoal" />
		<tag k="name" v="Skjæran" />
		<tag k="place" v="islet" />
		<tag k="ssr:stedsnr" v="323667" />
	</node>
	<node lat="70.65588333365498" lon="21.99659717268909" id="-101902">
		<tag k="name" v="Darup" />
		<tag k="natural" v="bay" />
		<tag k="ssr:stedsnr" v="324029" />
	</node>
	<node lat="70.62900277529796" lon="21.972827750674156" id="-101903">
		<tag k="name" v="Stongsundholmen" />
		<tag k="place" v="islet" />
		<tag k="ssr:stedsnr" v="328047" />
	</node>
	<node lat="70.7619944494447" lon="22.060272179146978" id="-101904">
		<tag k="name" v="Silbøen" />
		<tag k="natural" v="shoal" />
		<tag k="place" v="locality" />
		<tag k="ssr:stedsnr" v="329052" />
	</node>
	<node lat="70.69125278250725" lon="22.449399952317197" id="-101905">
		<tag k="name" v="Sørengrunnen" />
		<tag k="natural" v="shoal" />
		<tag k="place" v="locality" />
		<tag k="ssr:stedsnr" v="329247" />
	</node>
	<node lat="70.69447500012849" lon="22.774449950604442" id="-101907">
		<tag k="name" v="Sandbukta" />
		<tag k="natural" v="bay" />
		<tag k="ssr:stedsnr" v="336177" />
	</node>
	<node lat="70.48827222035257" lon="22.10062774531655" id="-101909">
		<tag k="name" v="Lille Avløysbøen" />
		<tag k="natural" v="shoal" />
		<tag k="place" v="locality" />
		<tag k="ssr:stedsnr" v="336966" />
	</node>
	<node lat="70.65892499815489" lon="22.347449941123134" id="-101910">
		<tag k="name" v="Ytterelvskallen" />
		<tag k="natural" v="shoal" />
		<tag k="place" v="locality" />
		<tag k="ssr:stedsnr" v="337532" />
	</node>
	<node lat="70.49071986500006" lon="22.261919206788864" id="-101911">
		<tag k="fixme" v="consider seamark:type=rock or natural=shoal" />
		<tag k="name" v="Svartskjæret" />
		<tag k="place" v="islet" />
		<tag k="ssr:stedsnr" v="337571" />
	</node>
	<node lat="70.70117222302277" lon="22.287788849588917" id="-101914">
		<tag k="alt_name" v="Hellargrunnen, yt;Ytter Hellargrunnen" />
		<tag k="name" v="Ytre Hellargrunnen" />
		<tag k="natural" v="shoal" />
		<tag k="place" v="locality" />
		<tag k="ssr:stedsnr" v="384635" />
	</node>
	<node lat="70.7034694494614" lon="22.572077719336534" id="-101915">
		<tag k="name" v="Vasskeila" />
		<tag k="natural" v="bay" />
		<tag k="ssr:stedsnr" v="384641" />
	</node>
	<node lat="70.66718611423507" lon="22.690644388448035" id="-101916">
		<tag k="name" v="Næringsgrunnen" />
		<tag k="natural" v="shoal" />
		<tag k="place" v="locality" />
		<tag k="ssr:stedsnr" v="384674" />
	</node>
	<node lat="70.542824999602" lon="22.64099994575322" id="-101919">
		<tag k="name" v="Kineset" />
		<tag k="natural" v="cape" />
		<tag k="ssr:stedsnr" v="383333" />
	</node>
	<node lat="70.5361333382592" lon="22.678041618479696" id="-101920">
		<tag k="name" v="Valholmen" />
		<tag k="place" v="islet" />
		<tag k="ssr:stedsnr" v="383339" />
	</node>
	<node lat="70.72041944225636" lon="22.516841627299165" id="-101921">
		<tag k="name" v="Skarvnæringen" />
		<tag k="natural" v="cape" />
		<tag k="ssr:stedsnr" v="383753" />
	</node>
	<node lat="70.58162500241188" lon="22.032388849382176" id="-101923">
		<tag k="alt_name" v="Finnkonneset" />
		<tag k="name" v="Finnkonvikneset" />
		<tag k="natural" v="cape" />
		<tag k="ssr:stedsnr" v="383732" />
	</node>
	<node lat="70.6936250053989" lon="22.483677722714567" id="-101924">
		<tag k="name" v="Sandvika" />
		<tag k="natural" v="bay" />
		<tag k="ssr:stedsnr" v="384028" />
	</node>
	<node lat="70.52237500514876" lon="22.292711069579813" id="-101928">
		<tag k="alt_name" v="Slettneset" />
		<tag k="name" v="Slettnes" />
		<tag k="natural" v="cape" />
		<tag k="ssr:stedsnr" v="384330" />
	</node>
	<node lat="70.51370000128271" lon="22.40816105132237" id="-101929">
		<tag k="name" v="Kobbholmen" />
		<tag k="place" v="islet" />
		<tag k="ssr:stedsnr" v="384331" />
	</node>
	<node lat="70.65034167158304" lon="21.853008293192246" id="-101938">
		<tag k="name" v="Kamøybøen" />
		<tag k="natural" v="shoal" />
		<tag k="place" v="locality" />
		<tag k="ssr:stedsnr" v="384544" />
	</node>
	<node lat="70.49814167096211" lon="22.095580531473605" id="-101939">
		<tag k="name" v="Svartskjærbøen" />
		<tag k="natural" v="shoal" />
		<tag k="place" v="locality" />
		<tag k="ssr:stedsnr" v="389038" />
	</node>
	<node lat="70.63358888729852" lon="21.994361071446537" id="-101941">
		<tag k="name" v="Tjønna" />
		<tag k="natural" v="bay" />
		<tag k="ssr:stedsnr" v="394426" />
	</node>
	<node lat="70.50145278321925" lon="22.140299957695355" id="-101942">
		<tag k="name" v="Kjosen" />
		<tag k="natural" v="bay" />
		<tag k="ssr:stedsnr" v="394369" />
	</node>
	<node lat="70.6314444428275" lon="21.987852742073482" id="-101943">
		<tag k="name" v="Kuholmen" />
		<tag k="place" v="islet" />
		<tag k="ssr:stedsnr" v="394439" />
	</node>
	<node lat="70.5248694454935" lon="22.13750274090926" id="-101944">
		<tag k="name" v="Dragklubben" />
		<tag k="natural" v="cape" />
		<tag k="ssr:stedsnr" v="394466" />
	</node>
	<node lat="70.3860166662591" lon="22.605152718354347" id="-101950">
		<tag k="name" v="Næringen" />
		<tag k="natural" v="cape" />
		<tag k="ssr:stedsnr" v="398818" />
	</node>
	<node lat="70.59108055948" lon="21.974552734479772" id="-101951">
		<tag k="fixme" v="consider seamark:type=rock or natural=shoal" />
		<tag k="name" v="Skjåholmskjæret" />
		<tag k="old_name" v="Sjåholmskjæret" />
		<tag k="place" v="islet" />
		<tag k="ssr:stedsnr" v="425668" />
	</node>
	<node lat="70.47372778126568" lon="22.166761066569475" id="-101954">
		<tag k="alt_name" v="Skibenes;Skipeneset" />
		<tag k="name" v="Skipperneset" />
		<tag k="natural" v="cape" />
		<tag k="ssr:stedsnr" v="444276" />
	</node>
	<node lat="70.47350000028001" lon="22.012624971490453" id="-101955">
		<tag k="fixme" v="multiple name tags, choose one and add the other to alt_name" />
		<tag k="name" v="Hågrunnan;Store Hågrunnen" />
		<tag k="natural" v="shoal" />
		<tag k="place" v="locality" />
		<tag k="ssr:stedsnr" v="444277" />
	</node>
	<node lat="70.59422222241008" lon="21.995491631524335" id="-101957">
		<tag k="alt_name" v="Stormollvika;Store Molvika" />
		<tag k="name" v="Stormolvika" />
		<tag k="natural" v="bay" />
		<tag k="ssr:stedsnr" v="444691" />
	</node>
	<node lat="70.59308888888874" lon="22.17867217877355" id="-101960">
		<tag k="bay" v="fjord" />
		<tag k="name" v="Breivikfjorden" />
		<tag k="natural" v="bay" />
		<tag k="ssr:stedsnr" v="444734" />
	</node>
	<node lat="70.57729722781022" lon="22.09558606968638" id="-101961">
		<tag k="alt_name" v="Ramskjeret;Ramskjæret" />
		<tag k="fixme" v="consider seamark:type=rock or natural=shoal" />
		<tag k="name" v="Ramnskjæret" />
		<tag k="place" v="islet" />
		<tag k="ssr:stedsnr" v="444718" />
	</node>
	<node lat="70.6431055572925" lon="22.179894395358456" id="-101962">
		<tag k="alt_name" v="Stupneset" />
		<tag k="name" v="Stupaneset" />
		<tag k="natural" v="cape" />
		<tag k="ssr:stedsnr" v="445719" />
	</node>
	<node lat="70.60017777584687" lon="22.27939716518099" id="-101969">
		<tag k="name" v="Breivikbotn" />
		<tag k="natural" v="bay" />
		<tag k="ssr:stedsnr" v="445358" />
	</node>
	<node lat="70.60723333591173" lon="22.17547496206034" id="-101973">
		<tag k="name" v="Sandvikneset" />
		<tag k="natural" v="cape" />
		<tag k="ssr:stedsnr" v="445733" />
	</node>
	<node lat="70.68888055619455" lon="22.44351662112943" id="-101975">
		<tag k="name" v="Hatteneset" />
		<tag k="natural" v="cape" />
		<tag k="ssr:stedsnr" v="445654" />
	</node>
	<node lat="70.70750278129474" lon="22.51493884660997" id="-101976">
		<tag k="name" v="Rekvika" />
		<tag k="natural" v="bay" />
		<tag k="ssr:stedsnr" v="445657" />
	</node>
	<node lat="70.35812222547158" lon="22.405138854543676" id="-101978">
		<tag k="name" v="Roren" />
		<tag k="natural" v="shoal" />
		<tag k="place" v="locality" />
		<tag k="ssr:stedsnr" v="505180" />
	</node>
	<node lat="70.50031388742545" lon="22.27805829625809" id="-101980">
		<tag k="alt_name" v="Flatøya, l" />
		<tag k="name" v="Lille Flatøya" />
		<tag k="place" v="island" />
		<tag k="ssr:stedsnr" v="505297" />
	</node>
	<node lat="70.64167777959891" lon="22.33157496641072" id="-101988">
		<tag k="name" v="Stokkeland" />
		<tag k="natural" v="cape" />
		<tag k="ssr:stedsnr" v="505683" />
	</node>
	<node lat="70.69347777817624" lon="22.730702736692905" id="-101991">
		<tag k="name" v="Makkvikgrunnen" />
		<tag k="natural" v="shoal" />
		<tag k="place" v="locality" />
		<tag k="ssr:stedsnr" v="505640" />
	</node>
	<node lat="70.60918055979913" lon="22.007222187292008" id="-101994">
		<tag k="alt_name" v="Litlemolvika;Lille Molvika" />
		<tag k="name" v="Lillemollvika" />
		<tag k="natural" v="bay" />
		<tag k="ssr:stedsnr" v="505732" />
	</node>
	<node lat="70.60891666827365" lon="21.886986066031213" id="-101995">
		<tag k="name" v="Emanuelskallen" />
		<tag k="natural" v="shoal" />
		<tag k="place" v="locality" />
		<tag k="ssr:stedsnr" v="505733" />
	</node>
	<node lat="70.70988611639092" lon="22.633527724900127" id="-101996">
		<tag k="bay" v="fjord" />
		<tag k="name" v="Galtefjorden - Gálttavuotna" />
		<tag k="name:no" v="Galtefjorden" />
		<tag k="name:se" v="Gálttavuotna" />
		<tag k="natural" v="bay" />
		<tag k="old_name:se" v="Galtavuodna" />
		<tag k="ssr:stedsnr" v="505750" />
	</node>
	<node lat="70.72906388709615" lon="22.687366624782168" id="-101997">
		<tag k="name" v="Geita" />
		<tag k="natural" v="cape" />
		<tag k="ssr:stedsnr" v="505758" />
	</node>
	<node lat="70.6886805554694" lon="22.743691597602723" id="-101999">
		<tag k="fixme" v="consider seamark:type=rock or natural=shoal" />
		<tag k="name" v="Pumparvikskjæret" />
		<tag k="place" v="islet" />
		<tag k="ssr:stedsnr" v="510275" />
	</node>
	<node lat="70.63541111461366" lon="21.95680550992535" id="-102000">
		<tag k="name" v="Russeskjærfluen" />
		<tag k="place" v="locality" />
		<tag k="seamark:type" v="rock" />
		<tag k="ssr:stedsnr" v="510340" />
	</node>
	<node lat="70.58667500332126" lon="22.256944400806184" id="-102001">
		<tag k="name" v="Holmeneset" />
		<tag k="natural" v="cape" />
		<tag k="ssr:stedsnr" v="515257" />
	</node>
	<node lat="70.48488888770233" lon="22.15618883252916" id="-102002">
		<tag k="name" v="Sanden" />
		<tag k="natural" v="beach" />
		<tag k="ssr:stedsnr" v="515338" />
	</node>
	<node lat="70.48545833768638" lon="22.106377752146468" id="-102003">
		<tag k="name" v="Avløsningen" />
		<tag k="natural" v="cape" />
		<tag k="ssr:stedsnr" v="515340" />
	</node>
	<node lat="70.59624721897248" lon="22.108211078307864" id="-102004">
		<tag k="name" v="Molla" />
		<tag k="natural" v="bay" />
		<tag k="ssr:stedsnr" v="515272" />
	</node>
	<node lat="70.47030000452044" lon="22.14876662227687" id="-102007">
		<tag k="name" v="Vestre Seikeila" />
		<tag k="natural" v="bay" />
		<tag k="ssr:stedsnr" v="515489" />
	</node>
	<node lat="70.50727500031175" lon="22.114280519828764" id="-102008">
		<tag k="name" v="Knottneset" />
		<tag k="natural" v="cape" />
		<tag k="ssr:stedsnr" v="515452" />
	</node>
	<node lat="70.62993055557807" lon="22.699449956194236" id="-102011">
		<tag k="name" v="Tverrlandsgrunnen" />
		<tag k="natural" v="shoal" />
		<tag k="place" v="locality" />
		<tag k="ssr:stedsnr" v="519047" />
	</node>
	<node lat="70.64628888641444" lon="22.72463050412551" id="-102012">
		<tag k="name" v="Tenholmgrunnen" />
		<tag k="natural" v="shoal" />
		<tag k="place" v="locality" />
		<tag k="ssr:stedsnr" v="519050" />
	</node>
	<node lat="70.62806944739334" lon="22.712286050411535" id="-102013">
		<tag k="name" v="Sandnes" />
		<tag k="natural" v="cape" />
		<tag k="ssr:stedsnr" v="519230" />
	</node>
	<node lat="70.49297221873759" lon="22.12989440795545" id="-102015">
		<tag k="name" v="Kobbevågen" />
		<tag k="natural" v="bay" />
		<tag k="ssr:stedsnr" v="564295" />
	</node>
	<node lat="70.4901694423042" lon="22.379980495277845" id="-102016">
		<tag k="name" v="Nygrunnen" />
		<tag k="natural" v="shoal" />
		<tag k="place" v="locality" />
		<tag k="ssr:stedsnr" v="565179" />
	</node>
	<node lat="70.35341944714601" lon="22.65710828671215" id="-102018">
		<tag k="alt_name" v="Kjerringfjordbotn, l" />
		<tag k="name" v="Lille Kjerringfjordbotn" />
		<tag k="natural" v="bay" />
		<tag k="ssr:stedsnr" v="566149" />
	</node>
	<node lat="70.34476666544889" lon="22.33287771764808" id="-102019">
		<tag k="name" v="Langskjærgrunnen" />
		<tag k="natural" v="shoal" />
		<tag k="place" v="locality" />
		<tag k="ssr:stedsnr" v="566152" />
	</node>
	<node lat="70.33887777811017" lon="22.45954994871602" id="-102020">
		<tag k="name" v="Hammarbukta" />
		<tag k="natural" v="bay" />
		<tag k="ssr:stedsnr" v="566156" />
	</node>
	<node lat="70.65093333354427" lon="22.63785828927507" id="-102021">
		<tag k="name" v="Nordøya" />
		<tag k="natural" v="cape" />
		<tag k="ssr:stedsnr" v="565664" />
	</node>
	<node lat="70.69346666898053" lon="22.635888828782125" id="-102023">
		<tag k="name" v="Inneroksen - Sis-Vuoksá" />
		<tag k="name:no" v="Inneroksen" />
		<tag k="name:se" v="Sis-Vuoksá" />
		<tag k="natural" v="cape" />
		<tag k="old_name:se" v="Sis-Vuoksa" />
		<tag k="ssr:stedsnr" v="565634" />
	</node>
	<node lat="70.70775277576253" lon="22.45531383526023" id="-102024">
		<tag k="name" v="Stangskjæret" />
		<tag k="natural" v="shoal" />
		<tag k="place" v="locality" />
		<tag k="ssr:stedsnr" v="565641" />
	</node>
	<node lat="70.58121388906228" lon="22.08771386178793" id="-102026">
		<tag k="alt_name" v="Hysenovva" />
		<tag k="name" v="Hysanova" />
		<tag k="natural" v="cape" />
		<tag k="ssr:stedsnr" v="565734" />
	</node>
	<node lat="70.58477222654685" lon="22.126163855041217" id="-102027">
		<tag k="name" v="Skallen" />
		<tag k="natural" v="shoal" />
		<tag k="place" v="locality" />
		<tag k="ssr:stedsnr" v="565735" />
	</node>
	<node lat="70.72212222065609" lon="22.70852217831374" id="-102030">
		<tag k="alt_name" v="Hamna, yt" />
		<tag k="name" v="Ytre Hamna" />
		<tag k="natural" v="bay" />
		<tag k="ssr:stedsnr" v="565753" />
	</node>
	<node lat="70.35528611602328" lon="22.393088833295195" id="-102032">
		<tag k="name" v="Elftervikneset" />
		<tag k="natural" v="cape" />
		<tag k="ssr:stedsnr" v="566175" />
	</node>
	<node lat="70.68622777604706" lon="22.45195550480903" id="-102033">
		<tag k="fixme" v="consider seamark:type=rock or natural=shoal" />
		<tag k="name" v="Svartskjæret" />
		<tag k="place" v="islet" />
		<tag k="ssr:stedsnr" v="566630" />
	</node>
	<node lat="70.67023055626255" lon="22.37385550249635" id="-102034">
		<tag k="alt_name" v="Skarvholneset" />
		<tag k="name" v="Skarvvollnes" />
		<tag k="natural" v="cape" />
		<tag k="ssr:stedsnr" v="566641" />
	</node>
	<node lat="70.61263888903657" lon="21.914547191668134" id="-102035">
		<tag k="name" v="Horsbøan" />
		<tag k="natural" v="shoal" />
		<tag k="place" v="locality" />
		<tag k="ssr:stedsnr" v="566731" />
	</node>
	<node lat="70.62155833396018" lon="22.040408296843466" id="-102036">
		<tag k="name" v="Storbukta" />
		<tag k="natural" v="bay" />
		<tag k="ssr:stedsnr" v="566735" />
	</node>
	<node lat="70.63406389298842" lon="22.69393051315272" id="-102037">
		<tag k="name" v="Tranga" />
		<tag k="natural" v="strait" />
		<tag k="ssr:stedsnr" v="566679" />
	</node>
	<node lat="70.61795277643714" lon="21.89693607564973" id="-102039">
		<tag k="name" v="Riseskallan" />
		<tag k="natural" v="shoal" />
		<tag k="place" v="locality" />
		<tag k="ssr:stedsnr" v="566690" />
	</node>
	<node lat="70.6266666709421" lon="21.851666638454567" id="-102041">
		<tag k="name" v="Breigrunnen" />
		<tag k="natural" v="shoal" />
		<tag k="place" v="locality" />
		<tag k="ssr:stedsnr" v="566700" />
	</node>
	<node lat="70.62641111613954" lon="21.943888851017483" id="-102042">
		<tag k="name" v="Likholmen" />
		<tag k="place" v="islet" />
		<tag k="ssr:stedsnr" v="566701" />
	</node>
	<node lat="70.72511944457003" lon="22.68856382948882" id="-102043">
		<tag k="name" v="Geitsundet" />
		<tag k="natural" v="strait" />
		<tag k="ssr:stedsnr" v="570194" />
	</node>
	<node lat="70.67350000467172" lon="22.48103606748652" id="-102045">
		<tag k="name" v="Straumsneset" />
		<tag k="natural" v="cape" />
		<tag k="ssr:stedsnr" v="571302" />
	</node>
	<node lat="70.60607222717964" lon="22.252863839903643" id="-102046">
		<tag k="name" v="Ytre Veinesbukt" />
		<tag k="natural" v="bay" />
		<tag k="ssr:stedsnr" v="576262" />
	</node>
	<node lat="70.60693889111504" lon="22.248436066313758" id="-102047">
		<tag k="name" v="Indre Ofran" />
		<tag k="natural" v="cape" />
		<tag k="ssr:stedsnr" v="576264" />
	</node>
	<node lat="70.61089167078295" lon="22.217880526337428" id="-102048">
		<tag k="name" v="Langnesbukt" />
		<tag k="natural" v="bay" />
		<tag k="ssr:stedsnr" v="576266" />
	</node>
	<node lat="70.48161111596423" lon="22.08406661898718" id="-102050">
		<tag k="name" v="Ytre Hånebben" />
		<tag k="natural" v="cape" />
		<tag k="ssr:stedsnr" v="576412" />
	</node>
	<node lat="70.59907777921786" lon="22.11883330506287" id="-102052">
		<tag k="fixme" v="consider seamark:type=rock or natural=shoal" />
		<tag k="name" v="Kavringen" />
		<tag k="place" v="islet" />
		<tag k="ssr:stedsnr" v="576236" />
	</node>
	<node lat="70.486041666482" lon="22.122399951868204" id="-102053">
		<tag k="name" v="Kvalbeinvåg" />
		<tag k="natural" v="bay" />
		<tag k="ssr:stedsnr" v="576333" />
	</node>
	<node lat="70.50032500169766" lon="22.131269410488688" id="-102055">
		<tag k="fixme" v="consider seamark:type=rock or natural=shoal" />
		<tag k="name" v="Ytre Kverna" />
		<tag k="place" v="islet" />
		<tag k="ssr:stedsnr" v="576387" />
	</node>
	<node lat="70.63035555487204" lon="21.964724962120982" id="-102056">
		<tag k="fixme" v="consider seamark:type=rock or natural=shoal" />
		<tag k="name" v="Ringskjæret" />
		<tag k="place" v="islet" />
		<tag k="ssr:stedsnr" v="576391" />
	</node>
	<node lat="70.63309722637241" lon="21.99068884408476" id="-102058">
		<tag k="name" v="Neset" />
		<tag k="natural" v="cape" />
		<tag k="ssr:stedsnr" v="576425" />
	</node>
	<node lat="70.60117778104247" lon="22.308949945314268" id="-102060">
		<tag k="name" v="Mollvika" />
		<tag k="natural" v="bay" />
		<tag k="ssr:stedsnr" v="577831" />
	</node>
	<node lat="70.58987778136138" lon="22.290041636465382" id="-102064">
		<tag k="name" v="Leirkjos" />
		<tag k="natural" v="bay" />
		<tag k="ssr:stedsnr" v="577868" />
	</node>
	<node lat="70.37224167079363" lon="22.65543606094824" id="-102065">
		<tag k="name" v="Revet" />
		<tag k="natural" v="shoal" />
		<tag k="place" v="locality" />
		<tag k="ssr:stedsnr" v="580817" />
	</node>
	<node lat="70.36068611146074" lon="22.649061052670966" id="-102066">
		<tag k="name" v="Kjerringfjordholmen" />
		<tag k="place" v="islet" />
		<tag k="ssr:stedsnr" v="580820" />
	</node>
	<node lat="70.63544444719983" lon="22.39185552332223" id="-102067">
		<tag k="name" v="Moltebærneset" />
		<tag k="natural" v="cape" />
		<tag k="ssr:stedsnr" v="580658" />
	</node>
	<node lat="70.53119444260102" lon="22.624661053210485" id="-102068">
		<tag k="name" v="Hamnegrunnen" />
		<tag k="natural" v="shoal" />
		<tag k="place" v="locality" />
		<tag k="ssr:stedsnr" v="580673" />
	</node>
	<node lat="70.34826667171784" lon="22.43575272605562" id="-102072">
		<tag k="name" v="Sandbukta" />
		<tag k="natural" v="bay" />
		<tag k="ssr:stedsnr" v="626172" />
	</node>
	<node lat="70.3501888866584" lon="22.58840550465853" id="-102074">
		<tag k="name" v="Smalfjordbotn" />
		<tag k="natural" v="bay" />
		<tag k="ssr:stedsnr" v="626182" />
	</node>
	<node lat="70.36809167227906" lon="22.584797175564752" id="-102075">
		<tag k="bay" v="fjord" />
		<tag k="name" v="Smalfjorden - Geaccevuotna" />
		<tag k="name:no" v="Smalfjorden" />
		<tag k="name:se" v="Geaccevuotna" />
		<tag k="natural" v="bay" />
		<tag k="old_name:se" v="Gæzzevuodna" />
		<tag k="ssr:stedsnr" v="626188" />
	</node>
	<node lat="70.7084000006549" lon="21.818002736592458" id="-102081">
		<tag k="name" v="Andottskallen" />
		<tag k="natural" v="shoal" />
		<tag k="place" v="locality" />
		<tag k="ssr:stedsnr" v="626586" />
	</node>
	<node lat="70.67623333731575" lon="22.03548885796746" id="-102082">
		<tag k="name" v="Tuvskallen" />
		<tag k="natural" v="shoal" />
		<tag k="place" v="locality" />
		<tag k="ssr:stedsnr" v="626589" />
	</node>
	<node lat="70.59871944305112" lon="21.989933301665406" id="-102086">
		<tag k="name" v="Kvalryggen" />
		<tag k="natural" v="cape" />
		<tag k="ssr:stedsnr" v="626729" />
	</node>
	<node lat="70.67587222316861" lon="22.647016605916065" id="-102088">
		<tag k="name" v="Inner-Veines" />
		<tag k="natural" v="cape" />
		<tag k="ssr:stedsnr" v="626671" />
	</node>
	<node lat="70.65606388824735" lon="22.675624940347745" id="-102089">
		<tag k="name" v="Børrfjordnæringen" />
		<tag k="natural" v="cape" />
		<tag k="ssr:stedsnr" v="626680" />
	</node>
	<node lat="70.6478277805046" lon="22.76875827690639" id="-102090">
		<tag k="name" v="Seinesbukta" />
		<tag k="natural" v="bay" />
		<tag k="ssr:stedsnr" v="626684" />
	</node>
	<node lat="70.66846944632779" lon="22.70678884447347" id="-102091">
		<tag k="name" v="Borgastakkgrunnen" />
		<tag k="natural" v="shoal" />
		<tag k="place" v="locality" />
		<tag k="ssr:stedsnr" v="626687" />
	</node>
	<node lat="70.62759444654505" lon="21.94547775020582" id="-102097">
		<tag k="name" v="Breisundet" />
		<tag k="natural" v="strait" />
		<tag k="ssr:stedsnr" v="631052" />
	</node>
	<node lat="70.68597777488131" lon="22.744811065176723" id="-102098">
		<tag k="name" v="Auskarsneset" />
		<tag k="natural" v="cape" />
		<tag k="ssr:stedsnr" v="631257" />
	</node>
	<node lat="70.56833888581556" lon="22.213727738918106" id="-102099">
		<tag k="name" v="Kvalkeila" />
		<tag k="natural" v="bay" />
		<tag k="ssr:stedsnr" v="636314" />
	</node>
	<node lat="70.60486666676107" lon="22.15291383507231" id="-102102">
		<tag k="name" v="Sandvikklubben" />
		<tag k="natural" v="cape" />
		<tag k="ssr:stedsnr" v="636261" />
	</node>
	<node lat="70.49515555709061" lon="22.24607216587816" id="-102103">
		<tag k="fixme" v="consider seamark:type=rock or natural=shoal" />
		<tag k="name" v="Munken" />
		<tag k="place" v="islet" />
		<tag k="ssr:stedsnr" v="636362" />
	</node>
	<node lat="70.58960277438982" lon="22.27799718301305" id="-102108">
		<tag k="name" v="Neset" />
		<tag k="natural" v="cape" />
		<tag k="ssr:stedsnr" v="637842" />
	</node>
	<node lat="70.6307444503742" lon="22.01267495902688" id="-102109">
		<tag k="name" v="Storegrunnen" />
		<tag k="natural" v="shoal" />
		<tag k="place" v="locality" />
		<tag k="ssr:stedsnr" v="640158" />
	</node>
	<node lat="70.63875000411637" lon="22.59134994661842" id="-102110">
		<tag k="name" v="Skjærneset" />
		<tag k="natural" v="cape" />
		<tag k="ssr:stedsnr" v="640245" />
	</node>
	<node lat="70.76756389414294" lon="22.37988607149146" id="-102115">
		<tag k="name" v="Steingrunnen" />
		<tag k="natural" v="shoal" />
		<tag k="place" v="locality" />
		<tag k="ssr:stedsnr" v="747070" />
	</node>
	<node lat="70.48661944145373" lon="22.108708301635158" id="-102118">
		<tag k="alt_name" v="Avløsningsholmen;Avløysningen" />
		<tag k="name" v="Avløysinga" />
		<tag k="place" v="islet" />
		<tag k="ssr:stedsnr" v="747289" />
	</node>
	<node lat="70.48455833359792" lon="22.19986107443532" id="-102119">
		<tag k="alt_name" v="Korsvika, l" />
		<tag k="fixme" v="multiple name tags, choose one and add the other to alt_name" />
		<tag k="name" v="Lille-Korsvik;Vestre Korsvika" />
		<tag k="natural" v="bay" />
		<tag k="ssr:stedsnr" v="747292" />
	</node>
	<node lat="70.60459444170345" lon="21.987802741054097" id="-102120">
		<tag k="name" v="Prestbergbukta" />
		<tag k="natural" v="bay" />
		<tag k="ssr:stedsnr" v="747701" />
	</node>
	<node lat="70.59395053186115" lon="22.12676830308117" id="-102121">
		<tag k="alt_name" v="Panseren" />
		<tag k="name" v="Pansaren" />
		<tag k="place" v="islet" />
		<tag k="ssr:stedsnr" v="747733" />
	</node>
	<node lat="70.3810361149057" lon="22.537747165188986" id="-102122">
		<tag k="fixme" v="multiple name tags, choose one and add the other to alt_name; consider seamark:type=rock or natural=shoal" />
		<tag k="name" v="Tellevskjæran;Finnkjerka" />
		<tag k="place" v="islet" />
		<tag k="ssr:stedsnr" v="748184" />
	</node>
	<node lat="70.36149444684395" lon="22.448033287243284" id="-102124">
		<tag k="name" v="Nordnesbukta" />
		<tag k="natural" v="bay" />
		<tag k="ssr:stedsnr" v="748155" />
	</node>
	<node lat="70.51614166990385" lon="22.685952714246415" id="-102125">
		<tag k="alt_name" v="Oksvika, yt;Ytre Oksvik" />
		<tag k="name" v="Ytre Oksvika" />
		<tag k="natural" v="bay" />
		<tag k="ssr:stedsnr" v="748300" />
	</node>
	<node lat="70.69121111175723" lon="22.40885273784561" id="-102130">
		<tag k="name" v="Ytter-Bøle" />
		<tag k="natural" v="bay" />
		<tag k="ssr:stedsnr" v="748653" />
	</node>
	<node lat="70.6269333371003" lon="22.045980527835784" id="-102131">
		<tag k="alt_name" v="Fossan" />
		<tag k="name" v="Kalvevågen" />
		<tag k="natural" v="bay" />
		<tag k="ssr:stedsnr" v="748713" />
	</node>
	<node lat="70.63804722054469" lon="22.142499953109073" id="-102132">
		<tag k="alt_name" v="Sør-Sandfjord" />
		<tag k="bay" v="fjord" />
		<tag k="name" v="Sørsandfjorden" />
		<tag k="natural" v="bay" />
		<tag k="ssr:stedsnr" v="748719" />
	</node>
	<node lat="70.71714167285597" lon="22.447916615227236" id="-102135">
		<tag k="name" v="Semsgrunnen" />
		<tag k="natural" v="shoal" />
		<tag k="place" v="locality" />
		<tag k="ssr:stedsnr" v="748753" />
	</node>
	<node lat="70.36549444394593" lon="22.519949947951385" id="-102137">
		<tag k="name" v="Purkeneset" />
		<tag k="natural" v="cape" />
		<tag k="ssr:stedsnr" v="753046" />
	</node>
	<node lat="70.63452500411955" lon="21.963249961761928" id="-102138">
		<tag k="fixme" v="consider seamark:type=rock or natural=shoal" />
		<tag k="name" v="Ormetunga" />
		<tag k="place" v="islet" />
		<tag k="ssr:stedsnr" v="753283" />
	</node>
	<node lat="70.62750277778399" lon="21.978744409719813" id="-102142">
		<tag k="name" v="Storgravdal" />
		<tag k="natural" v="bay" />
		<tag k="ssr:stedsnr" v="758435" />
	</node>
	<node lat="70.6327861134931" lon="22.019694397821507" id="-102143">
		<tag k="name" v="Hansmikkelstøa" />
		<tag k="natural" v="bay" />
		<tag k="ssr:stedsnr" v="758438" />
	</node>
	<node lat="70.470880554586" lon="22.141694389370983" id="-102146">
		<tag k="name" v="Sandvikneset" />
		<tag k="natural" v="cape" />
		<tag k="ssr:stedsnr" v="758535" />
	</node>
	<node lat="70.5059888918324" lon="22.136258305670193" id="-102147">
		<tag k="name" v="Djupvåg" />
		<tag k="natural" v="bay" />
		<tag k="ssr:stedsnr" v="758491" />
	</node>
	<node lat="70.3622250025033" lon="22.43375551198532" id="-102154">
		<tag k="name" v="Sørfjordskjæret" />
		<tag k="natural" v="shoal" />
		<tag k="place" v="locality" />
		<tag k="ssr:stedsnr" v="762737" />
	</node>
	<node lat="70.66462777549889" lon="22.372788844335396" id="-102155">
		<tag k="name" v="Ytterelvklubben" />
		<tag k="natural" v="cape" />
		<tag k="ssr:stedsnr" v="762486" />
	</node>
	<node lat="70.7574722242695" lon="22.73106104627371" id="-102156">
		<tag k="alt_name" v="Austre Stålvika" />
		<tag k="name" v="Austerstålvika" />
		<tag k="natural" v="bay" />
		<tag k="ssr:stedsnr" v="808100" />
	</node>
	<node lat="70.49044722384332" lon="22.287058285588063" id="-102158">
		<tag k="name" v="Brannholmen" />
		<tag k="place" v="islet" />
		<tag k="ssr:stedsnr" v="808175" />
	</node>
	<node lat="70.49892777613603" lon="22.527466604209998" id="-102159">
		<tag k="name" v="Grunnfjordneset" />
		<tag k="natural" v="cape" />
		<tag k="ssr:stedsnr" v="808178" />
	</node>
	<node lat="70.44176111481191" lon="21.133344427653814" id="-102162">
		<tag k="alt_name" v="Loppahavet" />
		<tag k="name" v="Lopphavet" />
		<tag k="natural" v="bay" />
		<tag k="ssr:stedsnr" v="808359" />
	</node>
	<node lat="70.56767499848183" lon="22.208436069308583" id="-102163">
		<tag k="alt_name" v="Reineset;Reines" />
		<tag k="name" v="Reinneset" />
		<tag k="natural" v="cape" />
		<tag k="ssr:stedsnr" v="808720" />
	</node>
	<node lat="70.54214444751764" lon="22.202608291142006" id="-102164">
		<tag k="alt_name" v="Bårvika, l" />
		<tag k="name" v="Lille Bårvik" />
		<tag k="natural" v="bay" />
		<tag k="ssr:stedsnr" v="808723" />
	</node>
	<node lat="70.36540833094512" lon="22.531977725287188" id="-102166">
		<tag k="fixme" v="consider seamark:type=rock or natural=shoal" />
		<tag k="name" v="Eggholmen" />
		<tag k="place" v="islet" />
		<tag k="ssr:stedsnr" v="809159" />
	</node>
	<node lat="70.36726389141289" lon="22.45955550211965" id="-102167">
		<tag k="name" v="Øyra" />
		<tag k="natural" v="cape" />
		<tag k="ssr:stedsnr" v="809161" />
	</node>
	<node lat="70.50743333613806" lon="22.58152216329832" id="-102168">
		<tag k="name" v="Stavsnes" />
		<tag k="natural" v="cape" />
		<tag k="ssr:stedsnr" v="809316" />
	</node>
	<node lat="70.52238610944809" lon="22.264972182441106" id="-102170">
		<tag k="name" v="Kobbenes" />
		<tag k="natural" v="cape" />
		<tag k="ssr:stedsnr" v="809334" />
	</node>
	<node lat="70.64576666494908" lon="21.945755527884312" id="-102176">
		<tag k="name" v="Sør-Gråvika" />
		<tag k="natural" v="bay" />
		<tag k="ssr:stedsnr" v="809724" />
	</node>
	<node lat="70.69025000010842" lon="22.28408328937046" id="-102177">
		<tag k="name" v="Skipsskallen" />
		<tag k="natural" v="shoal" />
		<tag k="place" v="locality" />
		<tag k="ssr:stedsnr" v="809655" />
	</node>
	<node lat="70.67230000063178" lon="22.376641619567334" id="-102178">
		<tag k="name" v="Skarvollbukta" />
		<tag k="natural" v="bay" />
		<tag k="ssr:stedsnr" v="809663" />
	</node>
	<node lat="70.66727500081392" lon="22.243586056782558" id="-102179">
		<tag k="name" v="Laukvika" />
		<tag k="natural" v="bay" />
		<tag k="ssr:stedsnr" v="809664" />
	</node>
	<node lat="70.66105555767543" lon="22.617844380379367" id="-102180">
		<tag k="bay" v="fjord" />
		<tag k="name" v="Dønnesfjorden" />
		<tag k="natural" v="bay" />
		<tag k="ssr:stedsnr" v="809666" />
	</node>
	<node lat="70.67836944892335" lon="22.502813853650867" id="-102182">
		<tag k="name" v="Langkeila" />
		<tag k="natural" v="bay" />
		<tag k="ssr:stedsnr" v="809677" />
	</node>
	<node lat="70.49367222315072" lon="22.12824162279948" id="-102184">
		<tag k="fixme" v="consider seamark:type=rock or natural=shoal" />
		<tag k="name" v="Kobben" />
		<tag k="place" v="islet" />
		<tag k="ssr:stedsnr" v="819395" />
	</node>
	<node lat="70.50076666712529" lon="22.146891619025823" id="-102185">
		<tag k="name" v="Skibotn" />
		<tag k="natural" v="bay" />
		<tag k="ssr:stedsnr" v="819397" />
	</node>
	<node lat="70.58965000063638" lon="22.04186661674719" id="-102186">
		<tag k="name" v="Tyskemolla" />
		<tag k="natural" v="bay" />
		<tag k="ssr:stedsnr" v="819695" />
	</node>
	<node lat="70.49995833405491" lon="22.38183607177745" id="-102191">
		<tag k="fixme" v="consider seamark:type=rock or natural=shoal" />
		<tag k="name" v="Skarvskjæret" />
		<tag k="place" v="islet" />
		<tag k="ssr:stedsnr" v="823456" />
	</node>
	<node lat="70.64248333902654" lon="22.70956660746978" id="-102192">
		<tag k="name" v="Børfjordvikgrunnen" />
		<tag k="natural" v="shoal" />
		<tag k="place" v="locality" />
		<tag k="ssr:stedsnr" v="823039" />
	</node>
	<node lat="70.64602777977265" lon="22.733316623801578" id="-102193">
		<tag k="name" v="Tenholmen" />
		<tag k="place" v="islet" />
		<tag k="ssr:stedsnr" v="823045" />
	</node>
	<node lat="70.53084166938693" lon="22.289538834008493" id="-102195">
		<tag k="name" v="Lillebotnneset" />
		<tag k="natural" v="cape" />
		<tag k="ssr:stedsnr" v="823537" />
	</node>
	<node lat="70.48626389191739" lon="22.347152723999994" id="-102196">
		<tag k="name" v="Meltefjordgrunnen" />
		<tag k="natural" v="shoal" />
		<tag k="place" v="locality" />
		<tag k="ssr:stedsnr" v="823541" />
	</node>
	<node lat="70.63276666570073" lon="22.360294400036853" id="-102197">
		<tag k="name" v="Kobbebukta" />
		<tag k="natural" v="bay" />
		<tag k="ssr:stedsnr" v="823648" />
	</node>
	<node lat="70.66882499851262" lon="22.21421385998533" id="-102198">
		<tag k="name" v="Skarvsteinen" />
		<tag k="natural" v="cape" />
		<tag k="ssr:stedsnr" v="823672" />
	</node>
	<node lat="70.65659722261766" lon="22.22535274708371" id="-102199">
		<tag k="name" v="Skarneset" />
		<tag k="natural" v="cape" />
		<tag k="ssr:stedsnr" v="823675" />
	</node>
	<node lat="70.69111111381599" lon="22.424999953702827" id="-102200">
		<tag k="name" v="Bøle" />
		<tag k="natural" v="bay" />
		<tag k="ssr:stedsnr" v="849442" />
	</node>
	<node lat="70.37283889113827" lon="22.64152215692456" id="-102202">
		<tag k="alt_name" v="Rekvedbukta, yt" />
		<tag k="name" v="Ytre Rekvedbukta" />
		<tag k="natural" v="bay" />
		<tag k="ssr:stedsnr" v="869182" />
	</node>
	<node lat="70.75496666422968" lon="22.72524994914154" id="-102204">
		<tag k="name" v="Stauren" />
		<tag k="natural" v="cape" />
		<tag k="ssr:stedsnr" v="869134" />
	</node>
	<node lat="70.48792499994134" lon="22.39648329695048" id="-102206">
		<tag k="name" v="Kumolla" />
		<tag k="natural" v="bay" />
		<tag k="ssr:stedsnr" v="869222" />
	</node>
	<node lat="70.3893138915375" lon="22.63280828886251" id="-102207">
		<tag k="fixme" v="consider seamark:type=rock or natural=shoal" />
		<tag k="name" v="Kjerringfjordskjæran" />
		<tag k="place" v="islet" />
		<tag k="ssr:stedsnr" v="869193" />
	</node>
	<node lat="70.49949444278697" lon="22.274141617118822" id="-102208">
		<tag k="name" v="Flatøya" />
		<tag k="place" v="island" />
		<tag k="ssr:stedsnr" v="869209" />
	</node>
	<node lat="70.52435277989838" lon="22.660016609892477" id="-102212">
		<tag k="name" v="Øyfjordholmen" />
		<tag k="place" v="islet" />
		<tag k="ssr:stedsnr" v="869325" />
	</node>
	<node lat="70.52377222606523" lon="22.26117494647996" id="-102214">
		<tag k="name" v="Kobbebukta" />
		<tag k="natural" v="bay" />
		<tag k="ssr:stedsnr" v="869336" />
	</node>
	<node lat="70.53876944781841" lon="22.29759439422482" id="-102216">
		<tag k="name" v="Hasfjordbotn" />
		<tag k="natural" v="bay" />
		<tag k="ssr:stedsnr" v="869353" />
	</node>
	<node lat="70.35216944469404" lon="22.42101662746299" id="-102218">
		<tag k="name" v="Russehamn" />
		<tag k="natural" v="bay" />
		<tag k="ssr:stedsnr" v="870183" />
	</node>
	<node lat="70.72120556011264" lon="22.73398051649274" id="-102219">
		<tag k="name" v="Vinterhamna" />
		<tag k="natural" v="bay" />
		<tag k="ssr:stedsnr" v="869762" />
	</node>
	<node lat="70.66025000559212" lon="21.99213051403369" id="-102230">
		<tag k="fixme" v="consider seamark:type=rock or natural=shoal" />
		<tag k="name" v="Svartskjæret" />
		<tag k="place" v="islet" />
		<tag k="ssr:stedsnr" v="870558" />
	</node>
	<node lat="70.67365277534981" lon="22.697649956451183" id="-102231">
		<tag k="name" v="Veinesgrunnen" />
		<tag k="natural" v="shoal" />
		<tag k="place" v="locality" />
		<tag k="ssr:stedsnr" v="870644" />
	</node>
	<node lat="70.6828166693214" lon="22.34078885629944" id="-102232">
		<tag k="name" v="Stavsneset" />
		<tag k="natural" v="cape" />
		<tag k="ssr:stedsnr" v="870653" />
	</node>
	<node lat="70.50083610856883" lon="22.117072184297978" id="-102234">
		<tag k="fixme" v="consider seamark:type=rock or natural=shoal" />
		<tag k="name" v="Svartskjæret" />
		<tag k="place" v="islet" />
		<tag k="ssr:stedsnr" v="874075" />
	</node>
	<node lat="70.47106389152223" lon="22.159613853368793" id="-102244">
		<tag k="name" v="Østre Seikeila" />
		<tag k="natural" v="bay" />
		<tag k="ssr:stedsnr" v="880495" />
	</node>
	<node lat="70.52389166954998" lon="22.675233281727998" id="-102248">
		<tag k="name" v="Sundgrunnen" />
		<tag k="natural" v="shoal" />
		<tag k="place" v="locality" />
		<tag k="ssr:stedsnr" v="884877" />
	</node>
	<node lat="70.6621111164913" lon="22.25870550265211" id="-102250">
		<tag k="alt_name" v="Raudberget" />
		<tag k="name" v="Rødberget" />
		<tag k="natural" v="cape" />
		<tag k="ssr:stedsnr" v="884665" />
	</node>
	<node lat="70.60734999824632" lon="22.243036074323538" id="-102257">
		<tag k="name" v="Ytre Ofran" />
		<tag k="natural" v="cape" />
		<tag k="ssr:stedsnr" v="940292" />
	</node>
	<node lat="70.55050833847393" lon="22.240838853765787" id="-102258">
		<tag k="alt_name" v="Håkjerringflåget" />
		<tag k="name" v="Håkjerringfloget" />
		<tag k="natural" v="cape" />
		<tag k="ssr:stedsnr" v="940307" />
	</node>
	<node lat="70.55342500387292" lon="22.248366617486173" id="-102259">
		<tag k="alt_name" v="Kvitneset" />
		<tag k="name" v="Kvitnes" />
		<tag k="natural" v="cape" />
		<tag k="ssr:stedsnr" v="940310" />
	</node>
	<node lat="70.56559444244138" lon="22.245802720483255" id="-102260">
		<tag k="name" v="Halseneset" />
		<tag k="natural" v="cape" />
		<tag k="ssr:stedsnr" v="940311" />
	</node>
	<node lat="70.63236389353322" lon="21.981763855491245" id="-102265">
		<tag k="name" v="Holmenvalen" />
		<tag k="place" v="locality" />
		<tag k="ssr:stedsnr" v="940416" />
	</node>
	<node lat="70.62151944197987" lon="21.93246108337974" id="-102268">
		<tag k="loc_name" v="Bardsundet" />
		<tag k="name" v="Barsund" />
		<tag k="natural" v="strait" />
		<tag k="ssr:stedsnr" v="940672" />
	</node>
	<node lat="70.52801944897476" lon="22.300488845926143" id="-102271">
		<tag k="name" v="Mebotn" />
		<tag k="natural" v="bay" />
		<tag k="ssr:stedsnr" v="941802" />
	</node>
	<node lat="70.63726388568645" lon="22.346541624586255" id="-102272">
		<tag k="name" v="Ytre Kobbeneset" />
		<tag k="natural" v="cape" />
		<tag k="ssr:stedsnr" v="944700" />
	</node>
	<node lat="70.59117778246782" lon="22.27464718915982" id="-102274">
		<tag k="name" v="Jektgrunnen" />
		<tag k="natural" v="shoal" />
		<tag k="place" v="locality" />
		<tag k="ssr:stedsnr" v="944662" />
	</node>
	<node lat="70.54373333419589" lon="22.18596940083488" id="-102276">
		<tag k="name" v="Svartberggrunnen" />
		<tag k="natural" v="shoal" />
		<tag k="place" v="locality" />
		<tag k="ssr:stedsnr" v="944421" />
	</node>
	<node lat="70.55938560808858" lon="22.257159875063607" id="-102421">
		<tag k="alt_name" v="Flåganeset" />
		<tag k="name" v="Floganeset" />
		<tag k="natural" v="cape" />
		<tag k="ssr:stedsnr" v="1080794" />
	</node>
</osm>
