<?xml version="1.0" encoding="UTF-8"?>
<osm version="0.6" generator="osmapis">
	<node lat="63.51998332953549" lon="9.314216667137758" id="-29873">
		<tag k="name" v="Djupåvorpa" />
		<tag k="ssr:date" v="2019-12-27" />
		<tag k="ssr:gruppe" v="farvann" />
		<tag k="ssr:hovedgruppe" v="sjø" />
		<tag k="ssr:stedsnr" v="33613" />
		<tag k="ssr:type" v="fiskeplassISjø" />
	</node>
	<node lat="63.450155553553415" lon="9.143711118171966" id="-29883">
		<tag k="name" v="Jamtøya" />
		<tag k="ssr:date" v="2019-12-27" />
		<tag k="ssr:gruppe" v="veg" />
		<tag k="ssr:hovedgruppe" v="infrastruktur" />
		<tag k="ssr:stedsnr" v="242877" />
		<tag k="ssr:type" v="adressenavn" />
	</node>
	<node lat="63.55913333240712" lon="9.146074992091743" id="-29964">
		<tag k="name" v="Håbrannstø" />
		<tag k="ssr:date" v="2019-12-27" />
		<tag k="ssr:gruppe" v="sjøbunn" />
		<tag k="ssr:hovedgruppe" v="sjø" />
		<tag k="ssr:stedsnr" v="92283" />
		<tag k="ssr:type" v="bankeISjø" />
	</node>
	<node lat="63.490066667134045" lon="9.104213891402296" id="-29999">
		<tag k="name" v="Heggen" />
		<tag k="ssr:date" v="2019-12-27" />
		<tag k="ssr:gruppe" v="veg" />
		<tag k="ssr:hovedgruppe" v="infrastruktur" />
		<tag k="ssr:stedsnr" v="120224" />
		<tag k="ssr:type" v="adressenavn" />
	</node>
	<node lat="63.45118611495921" lon="9.211855563824091" id="-30000">
		<tag k="name" v="Tynsøya" />
		<tag k="ssr:date" v="2019-12-27" />
		<tag k="ssr:gruppe" v="veg" />
		<tag k="ssr:hovedgruppe" v="infrastruktur" />
		<tag k="ssr:stedsnr" v="120879" />
		<tag k="ssr:type" v="adressenavn" />
	</node>
	<node lat="63.64839444732528" lon="9.0722166625459" id="-30352">
		<tag k="name" v="Mastadvegen" />
		<tag k="ssr:date" v="2019-12-27" />
		<tag k="ssr:gruppe" v="veg" />
		<tag k="ssr:hovedgruppe" v="infrastruktur" />
		<tag k="ssr:stedsnr" v="455084" />
		<tag k="ssr:type" v="vegstrekning" />
	</node>
	<node lat="63.61446666549945" lon="8.401505545594096" id="-30578">
		<tag k="name" v="Springhoppfallet" />
		<tag k="ssr:date" v="2021-06-08" />
		<tag k="ssr:gruppe" v="sjøbunn" />
		<tag k="ssr:hovedgruppe" v="sjø" />
		<tag k="ssr:stedsnr" v="279368" />
		<tag k="ssr:type" v="søkkISjø" />
	</node>
	<node lat="63.53096036276927" lon="8.33820887478748" id="-30612">
		<tag k="name" v="Hundholmen" />
		<tag k="ssr:date" v="2019-12-27" />
		<tag k="ssr:gruppe" v="navigasjon" />
		<tag k="ssr:hovedgruppe" v="infrastruktur" />
		<tag k="ssr:stedsnr" v="316604" />
		<tag k="ssr:type" v="fyrlykt" />
	</node>
	<node lat="63.48995555631488" lon="8.237900004502906" id="-30718">
		<tag k="name" v="Sæbuodden" />
		<tag k="ssr:date" v="2019-12-27" />
		<tag k="ssr:gruppe" v="navigasjon" />
		<tag k="ssr:hovedgruppe" v="infrastruktur" />
		<tag k="ssr:stedsnr" v="376088" />
		<tag k="ssr:type" v="fyrlykt" />
	</node>
	<node lat="63.426332891137505" lon="8.39281970364379" id="-30914">
		<tag k="name" v="Forsnes" />
		<tag k="ssr:date" v="2020-09-10" />
		<tag k="ssr:gruppe" v="navigasjon" />
		<tag k="ssr:hovedgruppe" v="infrastruktur" />
		<tag k="ssr:stedsnr" v="680060" />
		<tag k="ssr:type" v="fyrlykt" />
	</node>
	<node lat="63.658402148168435" lon="8.67614627138465" id="-30994">
		<tag k="name" v="Edøya" />
		<tag k="old_name" v="Edøy;Edøy lykt" />
		<tag k="ssr:date" v="2020-09-10" />
		<tag k="ssr:gruppe" v="navigasjon" />
		<tag k="ssr:hovedgruppe" v="infrastruktur" />
		<tag k="ssr:stedsnr" v="498990" />
		<tag k="ssr:type" v="fyrlykt" />
	</node>
	<node lat="63.538163886017415" lon="9.39146388612326" id="-31095">
		<tag k="name" v="Åmundholet" />
		<tag k="ssr:date" v="2019-12-27" />
		<tag k="ssr:gruppe" v="sjøbunn" />
		<tag k="ssr:hovedgruppe" v="sjø" />
		<tag k="ssr:stedsnr" v="518733" />
		<tag k="ssr:type" v="søkkISjø" />
	</node>
	<node lat="63.486253249425765" lon="8.290085861966705" id="-31110">
		<tag k="name" v="Hernesstraumen" />
		<tag k="ssr:date" v="2021-06-08" />
		<tag k="ssr:gruppe" v="navigasjon" />
		<tag k="ssr:hovedgruppe" v="infrastruktur" />
		<tag k="ssr:stedsnr" v="558103" />
		<tag k="ssr:type" v="fyrlykt" />
	</node>
	<node lat="63.64390605725927" lon="9.226738346642042" id="-31112">
		<tag k="name" v="Flesa" />
		<tag k="ssr:date" v="2020-09-10" />
		<tag k="ssr:gruppe" v="navigasjon" />
		<tag k="ssr:hovedgruppe" v="infrastruktur" />
		<tag k="ssr:stedsnr" v="558057" />
		<tag k="ssr:type" v="fyrlykt" />
	</node>
	<node lat="63.63322222668438" lon="8.390455559765927" id="-31189">
		<tag k="name" v="Blålanghøla" />
		<tag k="ssr:date" v="2019-12-27" />
		<tag k="ssr:gruppe" v="sjøbunn" />
		<tag k="ssr:hovedgruppe" v="sjø" />
		<tag k="ssr:stedsnr" v="577286" />
		<tag k="ssr:type" v="havdyp" />
	</node>
	<node lat="63.64903888860983" lon="9.002977785242106" id="-31330">
		<tag k="name" v="Krabsundet" />
		<tag k="old_name" v="Krabbsund lykt" />
		<tag k="ssr:date" v="2019-12-27" />
		<tag k="ssr:gruppe" v="navigasjon" />
		<tag k="ssr:hovedgruppe" v="infrastruktur" />
		<tag k="ssr:stedsnr" v="698742" />
		<tag k="ssr:type" v="fyrlykt" />
	</node>
	<node lat="63.52671666785589" lon="9.294252780611885" id="-31361">
		<tag k="name" v="Kamvikvorpa" />
		<tag k="ssr:date" v="2019-12-27" />
		<tag k="ssr:gruppe" v="farvann" />
		<tag k="ssr:hovedgruppe" v="sjø" />
		<tag k="ssr:stedsnr" v="700541" />
		<tag k="ssr:type" v="fiskeplassISjø" />
	</node>
	<node lat="63.646091285883735" lon="8.87564104733307" id="-31375">
		<tag k="name" v="Dolmsund" />
		<tag k="old_name" v="Flesa;Flesa lykt S" />
		<tag k="ssr:date" v="2020-09-10" />
		<tag k="ssr:gruppe" v="navigasjon" />
		<tag k="ssr:hovedgruppe" v="infrastruktur" />
		<tag k="ssr:stedsnr" v="619312" />
		<tag k="ssr:type" v="fyrlykt" />
	</node>
	<node lat="63.446522241592895" lon="9.301718790516635" id="-31498">
		<tag k="name" v="Klakken" />
		<tag k="ssr:date" v="2020-09-15" />
		<tag k="ssr:gruppe" v="navigasjon" />
		<tag k="ssr:hovedgruppe" v="infrastruktur" />
		<tag k="ssr:stedsnr" v="894548" />
		<tag k="ssr:type" v="fyrlykt" />
	</node>
	<node lat="63.57253333664412" lon="8.479172218124074" id="-31595">
		<tag k="name" v="Jektvikskjæra" />
		<tag k="ssr:date" v="2019-12-27" />
		<tag k="ssr:gruppe" v="navigasjon" />
		<tag k="ssr:hovedgruppe" v="infrastruktur" />
		<tag k="ssr:stedsnr" v="721268" />
		<tag k="ssr:type" v="fyrlykt" />
	</node>
	<node lat="63.64902883817607" lon="9.002930878343381" id="-31759">
		<tag k="name" v="Krabbesundet bru" />
		<tag k="old_name" v="Krabbsundet bru" />
		<tag k="ssr:date" v="2020-09-01" />
		<tag k="ssr:gruppe" v="navigasjon" />
		<tag k="ssr:hovedgruppe" v="infrastruktur" />
		<tag k="ssr:stedsnr" v="802710" />
		<tag k="ssr:type" v="lanterne" />
	</node>
	<node lat="63.627038885771924" lon="8.441755560557747" id="-31994">
		<tag k="name" v="Bjørnabakken" />
		<tag k="ssr:date" v="2019-12-27" />
		<tag k="ssr:gruppe" v="sjøbunn" />
		<tag k="ssr:hovedgruppe" v="sjø" />
		<tag k="ssr:stedsnr" v="882252" />
		<tag k="ssr:type" v="bakkeISjø" />
	</node>
	<node lat="63.49379162370144" lon="9.039412321023816" id="-32075">
		<tag k="name" v="Terningen fyr" />
		<tag k="old_name" v="Terningen" />
		<tag k="ssr:date" v="2020-09-01" />
		<tag k="ssr:gruppe" v="navigasjon" />
		<tag k="ssr:hovedgruppe" v="infrastruktur" />
		<tag k="ssr:stedsnr" v="12460" />
		<tag k="ssr:type" v="fyrstasjon" />
	</node>
	<node lat="63.60661909291216" lon="8.989281056350139" id="-32104">
		<tag k="name" v="Fillholmen" />
		<tag k="old_name" v="Filholmen" />
		<tag k="ssr:date" v="2020-09-10" />
		<tag k="ssr:gruppe" v="navigasjon" />
		<tag k="ssr:hovedgruppe" v="infrastruktur" />
		<tag k="ssr:stedsnr" v="13352" />
		<tag k="ssr:type" v="fyrlykt" />
	</node>
	<node lat="63.659650105454176" lon="8.894781113570295" id="-32119">
		<tag k="name" v="Ilsøyklubben" />
		<tag k="old_name" v="Ilsøyknubben" />
		<tag k="ssr:date" v="2020-09-10" />
		<tag k="ssr:gruppe" v="navigasjon" />
		<tag k="ssr:hovedgruppe" v="infrastruktur" />
		<tag k="ssr:stedsnr" v="13643" />
		<tag k="ssr:type" v="fyrlykt" />
	</node>
	<node lat="63.60621944269049" lon="9.065022212374235" id="-32236">
		<tag k="name" v="Nyberget" />
		<tag k="ssr:date" v="2019-12-27" />
		<tag k="ssr:gruppe" v="sjøbunn" />
		<tag k="ssr:hovedgruppe" v="sjø" />
		<tag k="ssr:stedsnr" v="31860" />
		<tag k="ssr:type" v="ryggISjø" />
	</node>
	<node lat="63.57295555502938" lon="8.479808334796342" id="-32272">
		<tag k="name" v="Jektvikskjæra" />
		<tag k="ssr:date" v="2019-12-27" />
		<tag k="ssr:gruppe" v="navigasjon" />
		<tag k="ssr:hovedgruppe" v="infrastruktur" />
		<tag k="ssr:stedsnr" v="60886" />
		<tag k="ssr:type" v="fyrlykt" />
	</node>
</osm>
