<?xml version="1.0" encoding="UTF-8"?>
<osm version="0.6" generator="osmapis">
	<node id="81350220" lat="61.907681" lon="5.9891381" version="8" timestamp="2022-08-19T15:47:55Z" changeset="125114391" uid="3497659" user="NKA">
		<tag k="name" v="Nordfjordeid" />
		<tag k="place" v="town" />
		<tag k="population" v="3130" />
		<tag k="population:date" v="2021-01-01" />
		<tag k="ref:ssb_tettsted" v="5701" />
		<tag k="source:population" v="SSB - befolkning i tettstedet" />
		<tag k="ssr:stedsnr" v="616580" />
	</node>
	<node id="260213982" lat="62.0041616" lon="5.4518633" version="2" timestamp="2022-08-19T15:47:55Z" changeset="125114391" uid="3497659" user="NKA">
		<tag k="name" v="Kjøde" />
		<tag k="place" v="hamlet" />
		<tag k="ssr:stedsnr" v="293549" />
	</node>
	<node id="260213985" lat="62.044272" lon="5.3474511" version="5" timestamp="2022-08-19T15:47:55Z" changeset="125114391" uid="3497659" user="NKA">
		<tag k="name" v="Selje" />
		<tag k="place" v="village" />
		<tag k="population" v="710" />
		<tag k="population:date" v="2021-01-01" />
		<tag k="ref:ssb_tettsted" v="5691" />
		<tag k="source:population" v="SSB - befolkning i tettstedet" />
		<tag k="ssr:stedsnr" v="617405" />
	</node>
	<node id="775801925" lat="61.9404813" lon="5.4609022" version="6" timestamp="2022-08-19T15:47:55Z" changeset="125114391" uid="3497659" user="NKA">
		<tag k="name" v="Maurstad" />
		<tag k="place" v="hamlet" />
		<tag k="population" v="331" />
		<tag k="population:date" v="2021-01-01" />
		<tag k="ref:ssb_tettsted" v="5686" />
		<tag k="source:population" v="SSB - befolkning i tettstedet" />
		<tag k="ssr:stedsnr" v="859219" />
	</node>
	<node id="794120888" lat="61.8833163" lon="5.9083664" version="2" timestamp="2022-08-19T15:47:55Z" changeset="125114391" uid="3497659" user="NKA">
		<tag k="name" v="Hundvika" />
		<tag k="place" v="hamlet" />
		<tag k="ssr:stedsnr" v="677612" />
	</node>
	<node id="1723179000" lat="62.1661597" lon="5.1236999" version="2" timestamp="2022-08-19T15:47:55Z" changeset="125114391" uid="3497659" user="NKA">
		<tag k="name" v="Ervik" />
		<tag k="place" v="hamlet" />
		<tag k="ssr:stedsnr" v="170012" />
	</node>
	<node id="2023093443" lat="61.8681067" lon="6.0760268" version="2" timestamp="2022-08-19T15:47:55Z" changeset="125114391" uid="3497659" user="NKA">
		<tag k="name" v="Lote" />
		<tag k="place" v="hamlet" />
		<tag k="ssr:stedsnr" v="860701" />
	</node>
	<node id="2110896961" lat="62.1195652" lon="5.3178041" version="5" timestamp="2022-08-19T15:47:55Z" changeset="125114391" uid="3497659" user="NKA">
		<tag k="alt_name" v="Stadlandet" />
		<tag k="name" v="Leikanger" />
		<tag k="place" v="village" />
		<tag k="population" v="364" />
		<tag k="population:date" v="2020-01-01" />
		<tag k="ref:ssb_tettsted" v="5692" />
		<tag k="source:population" v="SSB - befolkning i tettstedet" />
		<tag k="ssr:stedsnr" v="617495" />
	</node>
	<node id="2300924090" lat="61.9743923" lon="5.2262748" version="2" timestamp="2022-08-19T15:47:55Z" changeset="125114391" uid="3497659" user="NKA">
		<tag k="name" v="Flatraket" />
		<tag k="place" v="village" />
		<tag k="ssr:stedsnr" v="839795" />
	</node>
	<node id="2722878273" lat="61.9414722" lon="5.6536192" version="3" timestamp="2022-08-19T15:47:55Z" changeset="125114391" uid="3497659" user="NKA">
		<tag k="name" v="Eikåsen" />
		<tag k="place" v="hamlet" />
		<tag k="ssr:stedsnr" v="71525" />
	</node>
	<node id="2723308155" lat="61.9295965" lon="5.6035592" version="2" timestamp="2022-08-19T15:47:55Z" changeset="125114391" uid="3497659" user="NKA">
		<tag k="alt_name" v="Ervikseter" />
		<tag k="name" v="Erviksætra" />
		<tag k="place" v="hamlet" />
		<tag k="ssr:stedsnr" v="799460" />
	</node>
	<node id="3019926024" lat="62.1644864" lon="5.1679787" version="2" timestamp="2022-08-19T15:47:55Z" changeset="125114391" uid="3497659" user="NKA">
		<tag k="name" v="Ferstad" />
		<tag k="old_name" v="Færstad" />
		<tag k="place" v="hamlet" />
		<tag k="ssr:stedsnr" v="800678" />
	</node>
	<node id="3019928740" lat="62.16445" lon="5.1585062" version="2" timestamp="2022-08-19T15:47:55Z" changeset="125114391" uid="3497659" user="NKA">
		<tag k="name" v="Søyla" />
		<tag k="place" v="farm" />
		<tag k="ssr:stedsnr" v="838039" />
	</node>
	<node id="3024717901" lat="62.1373484" lon="5.2367479" version="2" timestamp="2022-08-19T15:47:55Z" changeset="125114391" uid="3497659" user="NKA">
		<tag k="name" v="Sætra" />
		<tag k="place" v="farm" />
		<tag k="ssr:stedsnr" v="617462" />
	</node>
	<node id="3708960747" lat="62.1017824" lon="5.1329529" version="4" timestamp="2022-08-19T15:47:55Z" changeset="125114391" uid="3497659" user="NKA">
		<tag k="name" v="Ytre Fure" />
		<tag k="place" v="farm" />
		<tag k="ssr:stedsnr" v="870323" />
	</node>
	<node id="4483408467" lat="61.9169356" lon="5.6275143" version="4" timestamp="2022-08-19T15:47:55Z" changeset="125114391" uid="3497659" user="NKA">
		<tag k="name" v="Kjølsdalen" />
		<tag k="place" v="village" />
		<tag k="ssr:stedsnr" v="616441" />
		<tag k="wikidata" v="Q15102982" />
		<tag k="wikipedia" v="en:Kjølsdalen" />
	</node>
	<node id="4750236297" lat="61.9398327" lon="5.825416" version="2" timestamp="2022-08-19T15:47:55Z" changeset="125114391" uid="3497659" user="NKA">
		<tag k="name" v="Myrstad" />
		<tag k="place" v="farm" />
		<tag k="ssr:stedsnr" v="738434" />
	</node>
	<node id="4750236298" lat="61.9331755" lon="5.8894308" version="2" timestamp="2022-08-19T15:47:55Z" changeset="125114391" uid="3497659" user="NKA">
		<tag k="name" v="Balsnes" />
		<tag k="place" v="farm" />
		<tag k="ssr:stedsnr" v="617549" />
	</node>
	<node id="4750236319" lat="61.9344218" lon="5.8395647" version="2" timestamp="2022-08-19T15:47:55Z" changeset="125114391" uid="3497659" user="NKA">
		<tag k="name" v="Veråsen" />
		<tag k="place" v="farm" />
		<tag k="ssr:stedsnr" v="435487" />
	</node>
	<node id="4750236474" lat="61.9182783" lon="5.7395601" version="2" timestamp="2022-08-19T15:47:55Z" changeset="125114391" uid="3497659" user="NKA">
		<tag k="name" v="Bakken" />
		<tag k="place" v="farm" />
		<tag k="ssr:stedsnr" v="859387" />
	</node>
	<node id="4750236475" lat="61.9171025" lon="5.8192625" version="2" timestamp="2022-08-19T15:47:55Z" changeset="125114391" uid="3497659" user="NKA">
		<tag k="alt_name" v="Rød, indre" />
		<tag k="name" v="Indre Rød" />
		<tag k="place" v="hamlet" />
		<tag k="ssr:stedsnr" v="659428" />
	</node>
	<node id="4750236476" lat="61.9158963" lon="5.7337455" version="2" timestamp="2022-08-19T15:47:55Z" changeset="125114391" uid="3497659" user="NKA">
		<tag k="alt_name" v="Rød, ytre;Rød" />
		<tag k="name" v="Ytre Rød" />
		<tag k="place" v="hamlet" />
		<tag k="ssr:stedsnr" v="598402" />
	</node>
	<node id="4750236511" lat="61.942845" lon="5.8924206" version="2" timestamp="2022-08-19T15:47:55Z" changeset="125114391" uid="3497659" user="NKA">
		<tag k="name" v="Engjeland" />
		<tag k="place" v="farm" />
		<tag k="ssr:stedsnr" v="10498" />
	</node>
	<node id="4750236707" lat="61.949251" lon="5.8976191" version="2" timestamp="2022-08-19T15:47:55Z" changeset="125114391" uid="3497659" user="NKA">
		<tag k="name" v="Espe" />
		<tag k="place" v="hamlet" />
		<tag k="ssr:stedsnr" v="131485" />
	</node>
	<node id="4750236708" lat="61.9522851" lon="5.8923083" version="2" timestamp="2022-08-19T15:47:55Z" changeset="125114391" uid="3497659" user="NKA">
		<tag k="name" v="Nesbakken" />
		<tag k="place" v="farm" />
		<tag k="ssr:stedsnr" v="678517" />
	</node>
	<node id="4750236962" lat="61.9231972" lon="5.8115142" version="2" timestamp="2022-08-19T15:47:55Z" changeset="125114391" uid="3497659" user="NKA">
		<tag k="name" v="Føllesdal" />
		<tag k="place" v="farm" />
		<tag k="ssr:stedsnr" v="252380" />
	</node>
	<node id="4750237422" lat="61.9476031" lon="5.8724633" version="2" timestamp="2022-08-19T15:47:55Z" changeset="125114391" uid="3497659" user="NKA">
		<tag k="name" v="Bakke" />
		<tag k="place" v="farm" />
		<tag k="ssr:stedsnr" v="10485" />
	</node>
	<node id="4750237423" lat="61.9388699" lon="5.8878661" version="2" timestamp="2022-08-19T15:47:55Z" changeset="125114391" uid="3497659" user="NKA">
		<tag k="name" v="Sevland" />
		<tag k="place" v="hamlet" />
		<tag k="ssr:stedsnr" v="374500" />
	</node>
	<node id="4750237424" lat="61.9466861" lon="5.88936" version="2" timestamp="2022-08-19T15:47:55Z" changeset="125114391" uid="3497659" user="NKA">
		<tag k="name" v="Tjørstad" />
		<tag k="place" v="hamlet" />
		<tag k="ssr:stedsnr" v="10494" />
	</node>
	<node id="4750237425" lat="61.9169853" lon="5.8495669" version="2" timestamp="2022-08-19T15:47:55Z" changeset="125114391" uid="3497659" user="NKA">
		<tag k="name" v="Naustdal" />
		<tag k="place" v="hamlet" />
		<tag k="ssr:stedsnr" v="374532" />
	</node>
	<node id="4750237426" lat="61.9150873" lon="5.8596873" version="2" timestamp="2022-08-19T15:47:55Z" changeset="125114391" uid="3497659" user="NKA">
		<tag k="name" v="Løken" />
		<tag k="place" v="hamlet" />
		<tag k="ssr:stedsnr" v="920554" />
	</node>
	<node id="4750237427" lat="61.9251034" lon="5.8686823" version="2" timestamp="2022-08-19T15:47:55Z" changeset="125114391" uid="3497659" user="NKA">
		<tag k="name" v="Rysta" />
		<tag k="place" v="hamlet" />
		<tag k="ssr:stedsnr" v="10523" />
	</node>
	<node id="4750237428" lat="61.936906" lon="5.8503483" version="2" timestamp="2022-08-19T15:47:55Z" changeset="125114391" uid="3497659" user="NKA">
		<tag k="name" v="Mannset" />
		<tag k="place" v="hamlet" />
		<tag k="ssr:stedsnr" v="860560" />
	</node>
	<node id="4750237429" lat="61.9227171" lon="5.7895457" version="2" timestamp="2022-08-19T15:47:55Z" changeset="125114391" uid="3497659" user="NKA">
		<tag k="name" v="Myrold" />
		<tag k="place" v="farm" />
		<tag k="ssr:stedsnr" v="70439" />
	</node>
	<node id="4750237430" lat="61.9336166" lon="5.8204428" version="2" timestamp="2022-08-19T15:47:55Z" changeset="125114391" uid="3497659" user="NKA">
		<tag k="name" v="Remme" />
		<tag k="place" v="hamlet" />
		<tag k="ssr:stedsnr" v="10434" />
	</node>
	<node id="4750237431" lat="61.93815" lon="5.8333771" version="2" timestamp="2022-08-19T15:47:55Z" changeset="125114391" uid="3497659" user="NKA">
		<tag k="name" v="Hanebrekke" />
		<tag k="place" v="hamlet" />
		<tag k="ssr:stedsnr" v="556486" />
	</node>
	<node id="4750237432" lat="61.9433452" lon="5.8755456" version="2" timestamp="2022-08-19T15:47:55Z" changeset="125114391" uid="3497659" user="NKA">
		<tag k="name" v="Hjelmeland" />
		<tag k="place" v="hamlet" />
		<tag k="ssr:stedsnr" v="920502" />
	</node>
	<node id="4750237433" lat="61.9295151" lon="5.8802011" version="2" timestamp="2022-08-19T15:47:55Z" changeset="125114391" uid="3497659" user="NKA">
		<tag k="name" v="Bjørhovde" />
		<tag k="place" v="hamlet" />
		<tag k="ssr:stedsnr" v="374516" />
	</node>
	<node id="4750237435" lat="61.9239925" lon="5.8875256" version="2" timestamp="2022-08-19T15:47:55Z" changeset="125114391" uid="3497659" user="NKA">
		<tag k="name" v="Haugen" />
		<tag k="place" v="village" />
		<tag k="ssr:stedsnr" v="10547" />
	</node>
	<node id="4750238252" lat="61.9262139" lon="5.7627706" version="2" timestamp="2022-08-19T15:47:55Z" changeset="125114391" uid="3497659" user="NKA">
		<tag k="name" v="Heimdal" />
		<tag k="place" v="farm" />
		<tag k="ssr:stedsnr" v="434411" />
	</node>
	<node id="4750238253" lat="61.9235817" lon="5.7694853" version="2" timestamp="2022-08-19T15:47:55Z" changeset="125114391" uid="3497659" user="NKA">
		<tag k="name" v="Vollen" />
		<tag k="place" v="farm" />
		<tag k="ssr:stedsnr" v="81544" />
	</node>
	<node id="4750238254" lat="61.9122924" lon="5.6805732" version="2" timestamp="2022-08-19T15:47:55Z" changeset="125114391" uid="3497659" user="NKA">
		<tag k="name" v="Lund" />
		<tag k="place" v="hamlet" />
		<tag k="ssr:stedsnr" v="131432" />
	</node>
	<node id="4750238255" lat="61.9227673" lon="5.6731046" version="2" timestamp="2022-08-19T15:47:55Z" changeset="125114391" uid="3497659" user="NKA">
		<tag k="name" v="Årdalen" />
		<tag k="place" v="farm" />
		<tag k="ssr:stedsnr" v="677454" />
	</node>
	<node id="4750238256" lat="61.9117827" lon="5.7103187" version="2" timestamp="2022-08-19T15:47:55Z" changeset="125114391" uid="3497659" user="NKA">
		<tag k="alt_name" v="Høynes nedre" />
		<tag k="name" v="Nedre Høynes" />
		<tag k="place" v="farm" />
		<tag k="ssr:stedsnr" v="836937" />
	</node>
	<node id="4750238257" lat="61.9130994" lon="5.7097878" version="2" timestamp="2022-08-19T15:47:55Z" changeset="125114391" uid="3497659" user="NKA">
		<tag k="name" v="Høynes" />
		<tag k="place" v="hamlet" />
		<tag k="ssr:stedsnr" v="131392" />
	</node>
	<node id="4750238258" lat="61.915342" lon="5.716113" version="2" timestamp="2022-08-19T15:47:55Z" changeset="125114391" uid="3497659" user="NKA">
		<tag k="alt_name" v="Botn" />
		<tag k="name" v="Botnen" />
		<tag k="place" v="farm" />
		<tag k="ssr:stedsnr" v="10417" />
	</node>
	<node id="4750238259" lat="61.9199321" lon="5.7475561" version="2" timestamp="2022-08-19T15:47:55Z" changeset="125114391" uid="3497659" user="NKA">
		<tag k="name" v="Orheim" />
		<tag k="place" v="hamlet" />
		<tag k="ssr:stedsnr" v="131390" />
	</node>
	<node id="4750238260" lat="61.9222452" lon="5.7563781" version="2" timestamp="2022-08-19T15:47:55Z" changeset="125114391" uid="3497659" user="NKA">
		<tag k="name" v="Rafshol" />
		<tag k="place" v="hamlet" />
		<tag k="ssr:stedsnr" v="978312" />
	</node>
	<node id="4750238261" lat="61.9190033" lon="5.761146" version="2" timestamp="2022-08-19T15:47:55Z" changeset="125114391" uid="3497659" user="NKA">
		<tag k="name" v="Stårheim" />
		<tag k="place" v="village" />
		<tag k="population" v="230" />
		<tag k="population:date" v="2021-01-01" />
		<tag k="ref:ssb_tettsted" v="5703" />
		<tag k="source:population" v="SSB - befolkning i tettstedet" />
		<tag k="ssr:stedsnr" v="495406" />
		<tag k="wikidata" v="Q732105" />
		<tag k="wikipedia" v="no:Stårheim" />
	</node>
	<node id="5581976693" lat="62.1210732" lon="5.3028358" version="2" timestamp="2022-01-26T07:42:12Z" changeset="116611961" uid="3497659" user="NKA">
		<tag k="junction" v="yes" />
		<tag k="name" v="Dragesvingen" />
		<tag k="ssr:stedsnr" v="900192" />
	</node>
	<node id="5845882038" lat="61.9207631" lon="5.7879703" version="2" timestamp="2022-08-19T15:47:55Z" changeset="125114391" uid="3497659" user="NKA">
		<tag k="name" v="Torvika" />
		<tag k="place" v="village" />
		<tag k="ssr:stedsnr" v="677391" />
	</node>
	<node id="6216715401" lat="61.9387873" lon="5.4320714" version="2" timestamp="2022-08-19T15:47:55Z" changeset="125114391" uid="3497659" user="NKA">
		<tag k="name" v="Bryggja" />
		<tag k="place" v="hamlet" />
		<tag k="ssr:stedsnr" v="677220" />
	</node>
	<node id="6216715413" lat="61.998966" lon="5.2912198" version="2" timestamp="2022-08-19T15:47:55Z" changeset="125114391" uid="3497659" user="NKA">
		<tag k="name" v="Barmen" />
		<tag k="place" v="hamlet" />
		<tag k="ssr:stedsnr" v="738887" />
	</node>
	<node id="6216715422" lat="61.9352693" lon="6.4134876" version="2" timestamp="2022-08-19T15:47:55Z" changeset="125114391" uid="3497659" user="NKA">
		<tag k="name" v="Holmøyane" />
		<tag k="place" v="hamlet" />
		<tag k="ssr:stedsnr" v="210548" />
	</node>
	<node id="7104131444" lat="61.918164" lon="6.0794698" version="4" timestamp="2022-08-19T15:47:55Z" changeset="125114391" uid="3497659" user="NKA">
		<tag k="name" v="Mogrenda" />
		<tag k="place" v="village" />
		<tag k="population" v="361" />
		<tag k="population:date" v="2021-01-01" />
		<tag k="ref:ssb_tettsted" v="5702" />
		<tag k="source:population" v="SSB - befolkning i tettstedet" />
		<tag k="ssr:stedsnr" v="936320" />
	</node>
	<node id="9964199924" lat="61.9172867" lon="6.0790262" version="1" timestamp="2022-08-19T15:47:55Z" changeset="125114391" uid="3497659" user="NKA">
		<tag k="name" v="Mona" />
		<tag k="place" v="farm" />
		<tag k="ssr:stedsnr" v="10581" />
	</node>
	<node id="9964199925" lat="61.924525" lon="6.4255251" version="1" timestamp="2022-08-19T15:47:55Z" changeset="125114391" uid="3497659" user="NKA">
		<tag k="name" v="Innigardshytta" />
		<tag k="place" v="isolated_dwelling" />
		<tag k="ssr:stedsnr" v="10970" />
	</node>
	<node id="9964199926" lat="61.9265692" lon="5.5175046" version="1" timestamp="2022-08-19T15:47:55Z" changeset="125114391" uid="3497659" user="NKA">
		<tag k="name" v="Midthjell" />
		<tag k="place" v="hamlet" />
		<tag k="ssr:stedsnr" v="495478" />
	</node>
	<node id="9964199927" lat="61.9708556" lon="6.1632891" version="1" timestamp="2022-08-19T15:47:55Z" changeset="125114391" uid="3497659" user="NKA">
		<tag k="historic" v="shieling" />
		<tag k="name" v="Leivdalssætra" />
		<tag k="place" v="isolated_dwelling" />
		<tag k="ssr:stedsnr" v="10259" />
	</node>
	<node id="9964199928" lat="62.1767541" lon="5.1748945" version="1" timestamp="2022-08-19T15:47:55Z" changeset="125114391" uid="3497659" user="NKA">
		<tag k="name" v="Teigane" />
		<tag k="place" v="farm" />
		<tag k="ssr:stedsnr" v="435751" />
	</node>
	<node id="9964199929" lat="61.9156076" lon="6.0776274" version="1" timestamp="2022-08-19T15:47:55Z" changeset="125114391" uid="3497659" user="NKA">
		<tag k="name" v="Kviene" />
		<tag k="place" v="farm" />
		<tag k="ssr:stedsnr" v="677569" />
	</node>
	<node id="9964199930" lat="62.1924209" lon="5.2094466" version="1" timestamp="2022-08-19T15:47:55Z" changeset="125114391" uid="3497659" user="NKA">
		<tag k="name" v="Kvia" />
		<tag k="place" v="farm" />
		<tag k="ssr:stedsnr" v="921754" />
	</node>
	<node id="9964199931" lat="61.9300088" lon="5.4895281" version="1" timestamp="2022-08-19T15:47:55Z" changeset="125114391" uid="3497659" user="NKA">
		<tag k="name" v="Lefdalsneset" />
		<tag k="place" v="farm" />
		<tag k="ssr:stedsnr" v="71519" />
	</node>
	<node id="9964199932" lat="61.9310723" lon="5.4862282" version="1" timestamp="2022-08-19T15:47:55Z" changeset="125114391" uid="3497659" user="NKA">
		<tag k="historic" v="shieling" />
		<tag k="name" v="Nessætra" />
		<tag k="place" v="isolated_dwelling" />
		<tag k="ssr:stedsnr" v="313478" />
	</node>
	<node id="9964199933" lat="61.8712857" lon="6.0730638" version="1" timestamp="2022-08-19T15:47:55Z" changeset="125114391" uid="3497659" user="NKA">
		<tag k="name" v="Årskogen" />
		<tag k="place" v="farm" />
		<tag k="ssr:stedsnr" v="374617" />
	</node>
	<node id="9964199934" lat="61.9389126" lon="6.4426033" version="1" timestamp="2022-08-19T15:47:55Z" changeset="125114391" uid="3497659" user="NKA">
		<tag k="name" v="Holmøyvika" />
		<tag k="place" v="farm" />
		<tag k="ssr:stedsnr" v="313945" />
	</node>
	<node id="9964199935" lat="62.1813139" lon="5.1711729" version="1" timestamp="2022-08-19T15:47:55Z" changeset="125114391" uid="3497659" user="NKA">
		<tag k="name" v="Støylsmyra" />
		<tag k="place" v="farm" />
		<tag k="ssr:stedsnr" v="617752" />
	</node>
	<node id="9964199936" lat="62.1337653" lon="5.2744133" version="1" timestamp="2022-08-19T15:47:55Z" changeset="125114391" uid="3497659" user="NKA">
		<tag k="name" v="Dalskaret" />
		<tag k="place" v="farm" />
		<tag k="ssr:stedsnr" v="557468" />
	</node>
	<node id="9964199937" lat="61.9330933" lon="6.2568164" version="1" timestamp="2022-08-19T15:47:55Z" changeset="125114391" uid="3497659" user="NKA">
		<tag k="name" v="Heggjabygda" />
		<tag k="place" v="hamlet" />
		<tag k="ssr:stedsnr" v="631011" />
	</node>
	<node id="9964199938" lat="61.9272528" lon="6.1233808" version="1" timestamp="2022-08-19T15:47:55Z" changeset="125114391" uid="3497659" user="NKA">
		<tag k="alt_name" v="Vedviksetra" />
		<tag k="historic" v="shieling" />
		<tag k="name" v="Vedviksætra" />
		<tag k="place" v="isolated_dwelling" />
		<tag k="ssr:stedsnr" v="434521" />
	</node>
	<node id="9964199939" lat="61.9401392" lon="5.4326589" version="1" timestamp="2022-08-19T15:47:55Z" changeset="125114391" uid="3497659" user="NKA">
		<tag k="name" v="Ytre Nore" />
		<tag k="place" v="farm" />
		<tag k="ssr:stedsnr" v="192844" />
	</node>
	<node id="9964199940" lat="61.9397041" lon="6.2842882" version="1" timestamp="2022-08-19T15:47:55Z" changeset="125114391" uid="3497659" user="NKA">
		<tag k="name" v="Sandnes" />
		<tag k="place" v="farm" />
		<tag k="ssr:stedsnr" v="192943" />
	</node>
	<node id="9964199941" lat="61.9195223" lon="6.3152881" version="1" timestamp="2022-08-19T15:47:55Z" changeset="125114391" uid="3497659" user="NKA">
		<tag k="name" v="Skrede" />
		<tag k="place" v="hamlet" />
		<tag k="ssr:stedsnr" v="920912" />
	</node>
	<node id="9964199942" lat="61.8618223" lon="6.2291474" version="1" timestamp="2022-08-19T15:47:55Z" changeset="125114391" uid="3497659" user="NKA">
		<tag k="name" v="Sæ" />
		<tag k="place" v="farm" />
		<tag k="ssr:stedsnr" v="738062" />
	</node>
	<node id="9964199943" lat="61.9478829" lon="6.1382318" version="1" timestamp="2022-08-19T15:47:55Z" changeset="125114391" uid="3497659" user="NKA">
		<tag k="name" v="Reset" />
		<tag k="place" v="isolated_dwelling" />
		<tag k="ssr:stedsnr" v="411293" />
	</node>
	<node id="9964199944" lat="61.9062306" lon="6.2749335" version="1" timestamp="2022-08-19T15:47:55Z" changeset="125114391" uid="3497659" user="NKA">
		<tag k="name" v="Antonsetra" />
		<tag k="place" v="locality" />
		<tag k="ssr:stedsnr" v="411074" />
	</node>
	<node id="9964199945" lat="62.1857419" lon="5.2311219" version="1" timestamp="2022-08-19T15:47:55Z" changeset="125114391" uid="3497659" user="NKA">
		<tag k="name" v="Eltvika" />
		<tag k="place" v="farm" />
		<tag k="ssr:stedsnr" v="314581" />
	</node>
	<node id="9964199946" lat="61.933019" lon="5.3883266" version="1" timestamp="2022-08-19T15:47:55Z" changeset="125114391" uid="3497659" user="NKA">
		<tag k="alt_name" v="Totland Indre" />
		<tag k="name" v="Indre Totland" />
		<tag k="place" v="locality" />
		<tag k="ssr:stedsnr" v="33203" />
	</node>
	<node id="9964199947" lat="61.9357468" lon="5.4950621" version="1" timestamp="2022-08-19T15:47:55Z" changeset="125114391" uid="3497659" user="NKA">
		<tag k="name" v="Lefdalsbakken" />
		<tag k="place" v="farm" />
		<tag k="ssr:stedsnr" v="20537" />
	</node>
	<node id="9964199948" lat="61.9323722" lon="5.6102309" version="1" timestamp="2022-08-19T15:47:55Z" changeset="125114391" uid="3497659" user="NKA">
		<tag k="name" v="Løkane" />
		<tag k="place" v="locality" />
		<tag k="ssr:stedsnr" v="323539" />
	</node>
	<node id="9964199949" lat="61.9380138" lon="5.7320308" version="1" timestamp="2022-08-19T15:47:55Z" changeset="125114391" uid="3497659" user="NKA">
		<tag k="historic" v="shieling" />
		<tag k="name" v="Orheimsbotnen" />
		<tag k="place" v="isolated_dwelling" />
		<tag k="ssr:stedsnr" v="131419" />
	</node>
	<node id="9964199950" lat="62.109133" lon="5.3271651" version="1" timestamp="2022-08-19T15:47:55Z" changeset="125114391" uid="3497659" user="NKA">
		<tag k="name" v="Øvre Sjåstad" />
		<tag k="place" v="farm" />
		<tag k="ssr:stedsnr" v="314427" />
	</node>
	<node id="9964199951" lat="61.9085117" lon="6.1155445" version="1" timestamp="2022-08-19T15:47:55Z" changeset="125114391" uid="3497659" user="NKA">
		<tag k="name" v="Nesbakken" />
		<tag k="place" v="farm" />
		<tag k="ssr:stedsnr" v="555544" />
	</node>
	<node id="9964199952" lat="62.1089085" lon="5.3478673" version="1" timestamp="2022-08-19T15:47:55Z" changeset="125114391" uid="3497659" user="NKA">
		<tag k="alt_name" v="Sandnes;Sandenes" />
		<tag k="name" v="Nollen" />
		<tag k="place" v="hamlet" />
		<tag k="ssr:stedsnr" v="253432" />
	</node>
	<node id="9964199953" lat="61.9229094" lon="5.7413723" version="1" timestamp="2022-08-19T15:47:55Z" changeset="125114391" uid="3497659" user="NKA">
		<tag k="historic" v="shieling" />
		<tag k="name" v="Bakkesætra" />
		<tag k="place" v="isolated_dwelling" />
		<tag k="ssr:stedsnr" v="252419" />
	</node>
	<node id="9964199954" lat="61.8804056" lon="5.7701365" version="1" timestamp="2022-08-19T15:47:55Z" changeset="125114391" uid="3497659" user="NKA">
		<tag k="name" v="Teigen" />
		<tag k="place" v="locality" />
		<tag k="ssr:stedsnr" v="616365" />
	</node>
	<node id="9964199955" lat="61.9012166" lon="6.2360752" version="1" timestamp="2022-08-19T15:47:55Z" changeset="125114391" uid="3497659" user="NKA">
		<tag k="name" v="Hallebjørkteigane" />
		<tag k="place" v="locality" />
		<tag k="ssr:stedsnr" v="290088" />
	</node>
	<node id="9964199956" lat="61.9286356" lon="6.2185421" version="1" timestamp="2022-08-19T15:47:55Z" changeset="125114391" uid="3497659" user="NKA">
		<tag k="name" v="Åsebøen" />
		<tag k="place" v="hamlet" />
		<tag k="ssr:stedsnr" v="555512" />
	</node>
	<node id="9964199957" lat="61.8810889" lon="5.796656" version="1" timestamp="2022-08-19T15:47:55Z" changeset="125114391" uid="3497659" user="NKA">
		<tag k="name" v="Brekka" />
		<tag k="place" v="locality" />
		<tag k="ssr:stedsnr" v="860460" />
	</node>
	<node id="9964199958" lat="61.8755278" lon="5.9549865" version="1" timestamp="2022-08-19T15:47:55Z" changeset="125114391" uid="3497659" user="NKA">
		<tag k="name" v="Bergeteigane" />
		<tag k="place" v="locality" />
		<tag k="ssr:stedsnr" v="593796" />
	</node>
	<node id="9964199959" lat="61.9625222" lon="5.7405003" version="1" timestamp="2022-08-19T15:47:55Z" changeset="125114391" uid="3497659" user="NKA">
		<tag k="name" v="Legda" />
		<tag k="place" v="locality" />
		<tag k="ssr:stedsnr" v="47765" />
	</node>
	<node id="9964199960" lat="61.9290758" lon="5.7717873" version="1" timestamp="2022-08-19T15:47:55Z" changeset="125114391" uid="3497659" user="NKA">
		<tag k="name" v="Rygg" />
		<tag k="place" v="farm" />
		<tag k="ssr:stedsnr" v="556629" />
	</node>
	<node id="9964199961" lat="61.9433611" lon="5.711392" version="1" timestamp="2022-08-19T15:47:55Z" changeset="125114391" uid="3497659" user="NKA">
		<tag k="name" v="Flathaugen" />
		<tag k="place" v="isolated_dwelling" />
		<tag k="ssr:stedsnr" v="860521" />
	</node>
	<node id="9964199962" lat="61.9324833" lon="5.8082086" version="1" timestamp="2022-08-19T15:47:55Z" changeset="125114391" uid="3497659" user="NKA">
		<tag k="alt_name" v="Nygårdsetra" />
		<tag k="historic" v="shieling" />
		<tag k="name" v="Nygardssetra" />
		<tag k="place" v="locality" />
		<tag k="ssr:stedsnr" v="651084" />
	</node>
	<node id="9964199963" lat="61.8960789" lon="5.7652832" version="1" timestamp="2022-08-19T15:47:55Z" changeset="125114391" uid="3497659" user="NKA">
		<tag k="name" v="Vellene" />
		<tag k="place" v="isolated_dwelling" />
		<tag k="ssr:stedsnr" v="532729" />
	</node>
	<node id="9964199964" lat="61.8933361" lon="5.7563059" version="1" timestamp="2022-08-19T15:47:55Z" changeset="125114391" uid="3497659" user="NKA">
		<tag k="historic" v="shieling" />
		<tag k="name" v="Vollsetsetra" />
		<tag k="place" v="isolated_dwelling" />
		<tag k="ssr:stedsnr" v="411646" />
	</node>
	<node id="9964199965" lat="61.8757417" lon="5.8229087" version="1" timestamp="2022-08-19T15:47:55Z" changeset="125114391" uid="3497659" user="NKA">
		<tag k="alt_name" v="Vårsetra" />
		<tag k="name" v="Vårsætra" />
		<tag k="place" v="locality" />
		<tag k="ssr:stedsnr" v="556443" />
	</node>
	<node id="9964199966" lat="61.8896084" lon="5.8838085" version="1" timestamp="2022-08-19T15:47:55Z" changeset="125114391" uid="3497659" user="NKA">
		<tag k="name" v="Gamlesetra" />
		<tag k="place" v="locality" />
		<tag k="ssr:stedsnr" v="411874" />
	</node>
	<node id="9964199967" lat="61.9563" lon="5.7304558" version="1" timestamp="2022-08-19T15:47:55Z" changeset="125114391" uid="3497659" user="NKA">
		<tag k="alt_name" v="Fannstøylen, ytre;Fannstølen" />
		<tag k="historic" v="shieling" />
		<tag k="name" v="Ytre Fannstøylen" />
		<tag k="place" v="isolated_dwelling" />
		<tag k="ssr:stedsnr" v="355429" />
	</node>
	<node id="9964199968" lat="62.1960866" lon="5.2039163" version="1" timestamp="2022-08-19T15:47:55Z" changeset="125114391" uid="3497659" user="NKA">
		<tag k="name" v="Myra" />
		<tag k="place" v="farm" />
		<tag k="ssr:stedsnr" v="56201" />
	</node>
	<node id="9964199969" lat="62.1862254" lon="5.1615072" version="1" timestamp="2022-08-19T15:47:55Z" changeset="125114391" uid="3497659" user="NKA">
		<tag k="name" v="Årvika" />
		<tag k="place" v="hamlet" />
		<tag k="ssr:stedsnr" v="71760" />
	</node>
	<node id="9964199970" lat="62.0683639" lon="5.4393865" version="1" timestamp="2022-08-19T15:47:55Z" changeset="125114391" uid="3497659" user="NKA">
		<tag k="name" v="Nyhagen" />
		<tag k="place" v="farm" />
		<tag k="ssr:stedsnr" v="436312" />
	</node>
	<node id="9964199971" lat="61.9988167" lon="5.2865148" version="1" timestamp="2022-08-19T15:47:55Z" changeset="125114391" uid="3497659" user="NKA">
		<tag k="alt_name" v="Barmen Ytre" />
		<tag k="name" v="Ytre Barmen" />
		<tag k="place" v="farm" />
		<tag k="ssr:stedsnr" v="778779" />
	</node>
	<node id="9964199972" lat="62.0027333" lon="5.4094227" version="1" timestamp="2022-08-19T15:47:55Z" changeset="125114391" uid="3497659" user="NKA">
		<tag k="name" v="Stølen" />
		<tag k="place" v="locality" />
		<tag k="ssr:stedsnr" v="959593" />
	</node>
	<node id="9964199973" lat="61.8614509" lon="6.1064073" version="1" timestamp="2022-08-19T15:47:55Z" changeset="125114391" uid="3497659" user="NKA">
		<tag k="alt_name" v="Lotsbergskår;Tørne" />
		<tag k="name" v="Lotsbergskåra" />
		<tag k="place" v="farm" />
		<tag k="ssr:stedsnr" v="920655" />
	</node>
	<node id="9964199974" lat="62.111623" lon="5.3187504" version="1" timestamp="2022-08-19T15:47:55Z" changeset="125114391" uid="3497659" user="NKA">
		<tag k="name" v="Øvrelid" />
		<tag k="place" v="farm" />
		<tag k="ssr:stedsnr" v="1072178" />
	</node>
	<node id="9964199975" lat="61.9516638" lon="5.4273949" version="1" timestamp="2022-08-19T15:47:55Z" changeset="125114391" uid="3497659" user="NKA">
		<tag k="historic" v="shieling" />
		<tag k="name" v="Hesseviksætra" />
		<tag k="place" v="isolated_dwelling" />
		<tag k="ssr:stedsnr" v="435822" />
	</node>
	<node id="9964199976" lat="61.9427389" lon="5.7471281" version="1" timestamp="2022-08-19T15:47:55Z" changeset="125114391" uid="3497659" user="NKA">
		<tag k="alt_name" v="Storesetra" />
		<tag k="name" v="Storesætra" />
		<tag k="place" v="locality" />
		<tag k="ssr:stedsnr" v="435514" />
	</node>
	<node id="9964199977" lat="62.0500639" lon="5.3179866" version="1" timestamp="2022-08-19T15:47:55Z" changeset="125114391" uid="3497659" user="NKA">
		<tag k="name" v="Nordbø" />
		<tag k="place" v="farm" />
		<tag k="ssr:stedsnr" v="678404" />
	</node>
	<node id="9964199978" lat="62.0813675" lon="5.3989726" version="1" timestamp="2022-08-19T15:47:55Z" changeset="125114391" uid="3497659" user="NKA">
		<tag k="name" v="Rekvika" />
		<tag k="place" v="isolated_dwelling" />
		<tag k="ssr:stedsnr" v="830589" />
	</node>
	<node id="9964199979" lat="62.1530728" lon="5.2048007" version="1" timestamp="2022-08-19T15:47:55Z" changeset="125114391" uid="3497659" user="NKA">
		<tag k="name" v="Svedhaug" />
		<tag k="place" v="farm" />
		<tag k="ssr:stedsnr" v="861658" />
	</node>
	<node id="9964199980" lat="62.085809" lon="5.3940543" version="1" timestamp="2022-08-19T15:47:55Z" changeset="125114391" uid="3497659" user="NKA">
		<tag k="name" v="Otneim" />
		<tag k="place" v="hamlet" />
		<tag k="ssr:stedsnr" v="861383" />
	</node>
	<node id="9964199981" lat="62.1459721" lon="5.3085746" version="1" timestamp="2022-08-19T15:47:55Z" changeset="125114391" uid="3497659" user="NKA">
		<tag k="name" v="Firkort" />
		<tag k="place" v="farm" />
		<tag k="ssr:stedsnr" v="474125" />
	</node>
	<node id="9964199982" lat="61.9615806" lon="5.6074893" version="1" timestamp="2022-08-19T15:47:55Z" changeset="125114391" uid="3497659" user="NKA">
		<tag k="historic" v="shieling" />
		<tag k="name" v="Fossane" />
		<tag k="place" v="isolated_dwelling" />
		<tag k="ssr:stedsnr" v="435016" />
	</node>
	<node id="9964199983" lat="62.0896806" lon="5.358731" version="1" timestamp="2022-08-19T15:47:55Z" changeset="125114391" uid="3497659" user="NKA">
		<tag k="name" v="Kviteskjerven" />
		<tag k="place" v="isolated_dwelling" />
		<tag k="ssr:stedsnr" v="374424" />
	</node>
	<node id="9964199984" lat="61.9531194" lon="5.6520866" version="1" timestamp="2022-08-19T15:47:55Z" changeset="125114391" uid="3497659" user="NKA">
		<tag k="alt_name" v="Holstølen" />
		<tag k="historic" v="shieling" />
		<tag k="name" v="Holstøylen" />
		<tag k="place" v="isolated_dwelling" />
		<tag k="ssr:stedsnr" v="495463" />
	</node>
	<node id="9964199985" lat="62.0473549" lon="5.3164075" version="1" timestamp="2022-08-19T15:47:55Z" changeset="125114391" uid="3497659" user="NKA">
		<tag k="name" v="Bø" />
		<tag k="place" v="farm" />
		<tag k="ssr:stedsnr" v="375332" />
	</node>
	<node id="9964199986" lat="61.9382642" lon="6.2322348" version="1" timestamp="2022-08-19T15:47:55Z" changeset="125114391" uid="3497659" user="NKA">
		<tag k="name" v="Frislid" />
		<tag k="place" v="hamlet" />
		<tag k="ssr:stedsnr" v="738944" />
	</node>
	<node id="9964199987" lat="61.8630462" lon="6.1027803" version="1" timestamp="2022-08-19T15:47:55Z" changeset="125114391" uid="3497659" user="NKA">
		<tag k="name" v="Indre Lotsberg" />
		<tag k="place" v="farm" />
		<tag k="ssr:stedsnr" v="799685" />
	</node>
	<node id="9964199988" lat="61.9654222" lon="5.3280449" version="1" timestamp="2022-08-19T15:47:55Z" changeset="125114391" uid="3497659" user="NKA">
		<tag k="historic" v="shieling" />
		<tag k="name" v="Selshaugane" />
		<tag k="place" v="isolated_dwelling" />
		<tag k="ssr:stedsnr" v="111578" />
	</node>
	<node id="9964199989" lat="61.9362018" lon="5.6428579" version="1" timestamp="2022-08-19T15:47:55Z" changeset="125114391" uid="3497659" user="NKA">
		<tag k="name" v="Berstad" />
		<tag k="place" v="hamlet" />
		<tag k="ssr:stedsnr" v="860498" />
	</node>
	<node id="9964199990" lat="62.1458692" lon="5.3076471" version="1" timestamp="2022-08-19T15:47:55Z" changeset="125114391" uid="3497659" user="NKA">
		<tag k="name" v="Vik" />
		<tag k="place" v="farm" />
		<tag k="ssr:stedsnr" v="71482" />
	</node>
	<node id="9964199991" lat="61.9163333" lon="6.0865086" version="1" timestamp="2022-08-19T15:47:55Z" changeset="125114391" uid="3497659" user="NKA">
		<tag k="name" v="Fossebakken" />
		<tag k="place" v="neighbourhood" />
		<tag k="ssr:stedsnr" v="694318" />
	</node>
	<node id="9964199992" lat="61.9287258" lon="6.380411" version="1" timestamp="2022-08-19T15:47:55Z" changeset="125114391" uid="3497659" user="NKA">
		<tag k="name" v="Rosenlid" />
		<tag k="place" v="farm" />
		<tag k="ssr:stedsnr" v="799931" />
	</node>
	<node id="9964199993" lat="62.1194567" lon="5.1749567" version="1" timestamp="2022-08-19T15:47:55Z" changeset="125114391" uid="3497659" user="NKA">
		<tag k="name" v="Hoddevika" />
		<tag k="place" v="hamlet" />
		<tag k="ssr:stedsnr" v="861685" />
	</node>
	<node id="9964199994" lat="61.9186" lon="5.6914892" version="1" timestamp="2022-08-19T15:47:55Z" changeset="125114391" uid="3497659" user="NKA">
		<tag k="alt_name" v="Lundasetra" />
		<tag k="historic" v="shieling" />
		<tag k="name" v="Lundasætra" />
		<tag k="place" v="isolated_dwelling" />
		<tag k="ssr:stedsnr" v="859427" />
	</node>
	<node id="9964199995" lat="61.9499745" lon="5.3971174" version="1" timestamp="2022-08-19T15:47:55Z" changeset="125114391" uid="3497659" user="NKA">
		<tag k="name" v="Rimstad" />
		<tag k="place" v="hamlet" />
		<tag k="ssr:stedsnr" v="70789" />
	</node>
	<node id="9964199996" lat="62.104798" lon="5.3512444" version="1" timestamp="2022-08-19T15:47:55Z" changeset="125114391" uid="3497659" user="NKA">
		<tag k="name" v="Apalset" />
		<tag k="place" v="hamlet" />
		<tag k="ssr:stedsnr" v="193398" />
	</node>
	<node id="9964199997" lat="62.0097333" lon="5.3139755" version="1" timestamp="2022-08-19T15:47:55Z" changeset="125114391" uid="3497659" user="NKA">
		<tag k="name" v="Strandsa" />
		<tag k="place" v="farm" />
		<tag k="ssr:stedsnr" v="959031" />
	</node>
	<node id="9964199998" lat="62.1544524" lon="5.3115878" version="1" timestamp="2022-08-19T15:47:55Z" changeset="125114391" uid="3497659" user="NKA">
		<tag k="name" v="Borgund" />
		<tag k="place" v="hamlet" />
		<tag k="ssr:stedsnr" v="193475" />
	</node>
	<node id="9964199999" lat="62.0837" lon="5.2854645" version="1" timestamp="2022-08-19T15:47:55Z" changeset="125114391" uid="3497659" user="NKA">
		<tag k="historic" v="shieling" />
		<tag k="name" v="Liberstølen" />
		<tag k="place" v="isolated_dwelling" />
		<tag k="ssr:stedsnr" v="656854" />
	</node>
	<node id="9964200000" lat="62.0120139" lon="5.2632478" version="1" timestamp="2022-08-19T15:47:55Z" changeset="125114391" uid="3497659" user="NKA">
		<tag k="name" v="Nesjane" />
		<tag k="place" v="farm" />
		<tag k="ssr:stedsnr" v="656803" />
	</node>
	<node id="9964200001" lat="62.04255" lon="5.3398283" version="1" timestamp="2022-08-19T15:47:55Z" changeset="125114391" uid="3497659" user="NKA">
		<tag k="name" v="Klokkarvika" />
		<tag k="place" v="farm" />
		<tag k="ssr:stedsnr" v="959941" />
	</node>
	<node id="9964200002" lat="61.9141694" lon="5.6734987" version="1" timestamp="2022-08-19T15:47:55Z" changeset="125114391" uid="3497659" user="NKA">
		<tag k="name" v="Indre Reksneset" />
		<tag k="place" v="farm" />
		<tag k="ssr:stedsnr" v="20553" />
	</node>
	<node id="9964200003" lat="62.1106389" lon="5.324506" version="1" timestamp="2022-08-19T15:47:55Z" changeset="125114391" uid="3497659" user="NKA">
		<tag k="name" v="Myra" />
		<tag k="place" v="farm" />
		<tag k="ssr:stedsnr" v="444321" />
	</node>
	<node id="9964200004" lat="61.9999825" lon="5.3320946" version="1" timestamp="2022-08-19T15:47:55Z" changeset="125114391" uid="3497659" user="NKA">
		<tag k="name" v="Rundereim" />
		<tag k="place" v="hamlet" />
		<tag k="ssr:stedsnr" v="921222" />
	</node>
	<node id="9964200005" lat="62.0536417" lon="5.3477672" version="1" timestamp="2022-08-19T15:47:55Z" changeset="125114391" uid="3497659" user="NKA">
		<tag k="name" v="Grytingane" />
		<tag k="place" v="farm" />
		<tag k="ssr:stedsnr" v="921398" />
	</node>
	<node id="9964200006" lat="62.115093" lon="5.3262234" version="1" timestamp="2022-08-19T15:47:55Z" changeset="125114391" uid="3497659" user="NKA">
		<tag k="name" v="Nedre Sjåstad" />
		<tag k="place" v="farm" />
		<tag k="ssr:stedsnr" v="81143" />
	</node>
	<node id="9964200007" lat="62.1062019" lon="5.2460669" version="1" timestamp="2022-08-19T15:47:55Z" changeset="125114391" uid="3497659" user="NKA">
		<tag k="alt_name" v="Drage Indre" />
		<tag k="name" v="Drage" />
		<tag k="place" v="hamlet" />
		<tag k="ssr:stedsnr" v="11378" />
	</node>
	<node id="9964200008" lat="62.1646032" lon="5.2834" version="1" timestamp="2022-08-19T15:47:55Z" changeset="125114391" uid="3497659" user="NKA">
		<tag k="name" v="Tungevågen" />
		<tag k="place" v="farm" />
		<tag k="ssr:stedsnr" v="374502" />
	</node>
	<node id="9964200009" lat="62.0207712" lon="5.4280533" version="1" timestamp="2022-08-19T15:47:55Z" changeset="125114391" uid="3497659" user="NKA">
		<tag k="name" v="Eide" />
		<tag k="place" v="hamlet" />
		<tag k="ssr:stedsnr" v="496309" />
	</node>
	<node id="9964200010" lat="62.0568027" lon="5.3471082" version="1" timestamp="2022-08-19T15:47:55Z" changeset="125114391" uid="3497659" user="NKA">
		<tag k="name" v="Pileberget" />
		<tag k="place" v="farm" />
		<tag k="ssr:stedsnr" v="71363" />
	</node>
	<node id="9964200011" lat="62.1971672" lon="5.2003004" version="1" timestamp="2022-08-19T15:47:55Z" changeset="125114391" uid="3497659" user="NKA">
		<tag k="name" v="Kyrkjeneshaugen" />
		<tag k="place" v="farm" />
		<tag k="ssr:stedsnr" v="359219" />
	</node>
	<node id="9964200012" lat="62.0761372" lon="5.3133004" version="1" timestamp="2022-08-19T15:47:55Z" changeset="125114391" uid="3497659" user="NKA">
		<tag k="name" v="Skorbøen" />
		<tag k="place" v="farm" />
		<tag k="ssr:stedsnr" v="72389" />
	</node>
	<node id="9964200013" lat="61.9527773" lon="5.4048" version="1" timestamp="2022-08-19T15:47:55Z" changeset="125114391" uid="3497659" user="NKA">
		<tag k="name" v="Myklebust" />
		<tag k="place" v="hamlet" />
		<tag k="ssr:stedsnr" v="799816" />
	</node>
	<node id="9964200014" lat="62.1442111" lon="5.2223451" version="1" timestamp="2022-08-19T15:47:55Z" changeset="125114391" uid="3497659" user="NKA">
		<tag k="name" v="Leite" />
		<tag k="place" v="farm" />
		<tag k="ssr:stedsnr" v="556498" />
	</node>
	<node id="9964200015" lat="61.9657858" lon="5.300091" version="1" timestamp="2022-08-19T15:47:55Z" changeset="125114391" uid="3497659" user="NKA">
		<tag k="name" v="Vetrhus" />
		<tag k="place" v="hamlet" />
		<tag k="ssr:stedsnr" v="556775" />
	</node>
	<node id="9964200016" lat="62.1936812" lon="5.1843985" version="1" timestamp="2022-08-19T15:47:55Z" changeset="125114391" uid="3497659" user="NKA">
		<tag k="name" v="Stranda" />
		<tag k="place" v="farm" />
		<tag k="ssr:stedsnr" v="193715" />
	</node>
	<node id="9964200617" lat="62.1986889" lon="5.1809006" version="1" timestamp="2022-08-19T15:47:55Z" changeset="125114391" uid="3497659" user="NKA">
		<tag k="alt_name" v="Honningsvåg, ytre" />
		<tag k="name" v="Ytre Honningsvåg" />
		<tag k="place" v="farm" />
		<tag k="ssr:stedsnr" v="111497" />
	</node>
	<node id="9964200618" lat="62.0703565" lon="5.4256872" version="1" timestamp="2022-08-19T15:47:55Z" changeset="125114391" uid="3497659" user="NKA">
		<tag k="name" v="Sandvika" />
		<tag k="place" v="hamlet" />
		<tag k="ssr:stedsnr" v="556407" />
	</node>
	<node id="9964200619" lat="62.0422833" lon="5.3170145" version="1" timestamp="2022-08-19T15:47:55Z" changeset="125114391" uid="3497659" user="NKA">
		<tag k="name" v="Elshaug" />
		<tag k="place" v="farm" />
		<tag k="ssr:stedsnr" v="10261" />
	</node>
	<node id="9964200620" lat="61.9198963" lon="5.6224005" version="1" timestamp="2022-08-19T15:47:55Z" changeset="125114391" uid="3497659" user="NKA">
		<tag k="name" v="Gjellhammaren" />
		<tag k="place" v="farm" />
		<tag k="ssr:stedsnr" v="616446" />
	</node>
	<node id="9964200621" lat="62.0659444" lon="5.4403588" version="1" timestamp="2022-08-19T15:47:55Z" changeset="125114391" uid="3497659" user="NKA">
		<tag k="name" v="Hauge" />
		<tag k="place" v="farm" />
		<tag k="ssr:stedsnr" v="678347" />
	</node>
	<node id="9964200622" lat="62.1064698" lon="5.2528697" version="1" timestamp="2022-08-19T15:47:55Z" changeset="125114391" uid="3497659" user="NKA">
		<tag k="alt_name" v="Inste Drage;Drage Indre" />
		<tag k="name" v="Indre Drage" />
		<tag k="place" v="farm" />
		<tag k="ssr:stedsnr" v="717147" />
	</node>
	<node id="9964200623" lat="61.9538825" lon="6.1551318" version="1" timestamp="2022-08-19T15:47:55Z" changeset="125114391" uid="3497659" user="NKA">
		<tag k="alt_name" v="Sagesetra" />
		<tag k="historic" v="shieling" />
		<tag k="name" v="Sagesætra" />
		<tag k="place" v="hamlet" />
		<tag k="ssr:stedsnr" v="253547" />
	</node>
	<node id="9964200624" lat="61.9398554" lon="5.5115674" version="1" timestamp="2022-08-19T15:47:55Z" changeset="125114391" uid="3497659" user="NKA">
		<tag k="name" v="Lefdalshjellen" />
		<tag k="place" v="farm" />
		<tag k="ssr:stedsnr" v="616480" />
	</node>
	<node id="9964200625" lat="62.1301583" lon="5.1757146" version="1" timestamp="2022-08-19T15:47:55Z" changeset="125114391" uid="3497659" user="NKA">
		<tag k="name" v="Falkehytta" />
		<tag k="place" v="isolated_dwelling" />
		<tag k="ssr:stedsnr" v="110176" />
	</node>
	<node id="9964200626" lat="62.1207139" lon="5.1522284" version="1" timestamp="2022-08-19T15:47:55Z" changeset="125114391" uid="3497659" user="NKA">
		<tag k="name" v="Furestøylen" />
		<tag k="place" v="locality" />
		<tag k="ssr:stedsnr" v="11704" />
	</node>
	<node id="9964200627" lat="61.9508109" lon="5.5362487" version="1" timestamp="2022-08-19T15:47:55Z" changeset="125114391" uid="3497659" user="NKA">
		<tag k="historic" v="shieling" />
		<tag k="name" v="Lefdalssætra" />
		<tag k="place" v="isolated_dwelling" />
		<tag k="ssr:stedsnr" v="920465" />
	</node>
	<node id="9964200628" lat="61.9038361" lon="6.0560086" version="1" timestamp="2022-08-19T15:47:55Z" changeset="125114391" uid="3497659" user="NKA">
		<tag k="alt_name" v="Bjørlosetra" />
		<tag k="historic" v="shieling" />
		<tag k="name" v="Bjørlosætra" />
		<tag k="place" v="isolated_dwelling" />
		<tag k="ssr:stedsnr" v="192611" />
	</node>
	<node id="9964200629" lat="61.9578838" lon="5.2724473" version="1" timestamp="2022-08-19T15:47:55Z" changeset="125114391" uid="3497659" user="NKA">
		<tag k="name" v="Håvik" />
		<tag k="place" v="hamlet" />
		<tag k="ssr:stedsnr" v="313809" />
	</node>
	<node id="9964200630" lat="61.9159121" lon="6.0396562" version="1" timestamp="2022-08-19T15:47:55Z" changeset="125114391" uid="3497659" user="NKA">
		<tag k="name" v="Hildenes" />
		<tag k="place" v="farm" />
		<tag k="ssr:stedsnr" v="798536" />
	</node>
	<node id="9964200631" lat="61.8521654" lon="6.1384949" version="1" timestamp="2022-08-19T15:47:55Z" changeset="125114391" uid="3497659" user="NKA">
		<tag k="historic" v="shieling" />
		<tag k="name" v="Øvre Åsane" />
		<tag k="place" v="isolated_dwelling" />
		<tag k="ssr:stedsnr" v="798605" />
	</node>
	<node id="9964200632" lat="61.9339425" lon="6.2611207" version="1" timestamp="2022-08-19T15:47:55Z" changeset="125114391" uid="3497659" user="NKA">
		<tag k="name" v="Melheim" />
		<tag k="place" v="farm" />
		<tag k="ssr:stedsnr" v="616943" />
	</node>
	<node id="9964200633" lat="61.9312488" lon="5.6805152" version="1" timestamp="2022-08-19T15:47:55Z" changeset="125114391" uid="3497659" user="NKA">
		<tag k="alt_name" v="Beinsetra" />
		<tag k="historic" v="shieling" />
		<tag k="name" v="Beinsætra" />
		<tag k="place" v="isolated_dwelling" />
		<tag k="ssr:stedsnr" v="738432" />
	</node>
	<node id="9964200634" lat="61.8986221" lon="5.7912616" version="1" timestamp="2022-08-19T15:47:55Z" changeset="125114391" uid="3497659" user="NKA">
		<tag k="alt_name" v="Mørkeset;Mørkesæter" />
		<tag k="name" v="Sørland" />
		<tag k="place" v="hamlet" />
		<tag k="ssr:stedsnr" v="435480" />
	</node>
	<node id="9964200635" lat="61.946626" lon="5.3934243" version="1" timestamp="2022-08-19T15:47:55Z" changeset="125114391" uid="3497659" user="NKA">
		<tag k="name" v="Hole" />
		<tag k="place" v="farm" />
		<tag k="ssr:stedsnr" v="192842" />
	</node>
	<node id="9964200636" lat="61.8713932" lon="5.7996571" version="1" timestamp="2022-08-19T15:47:55Z" changeset="125114391" uid="3497659" user="NKA">
		<tag k="name" v="Torheim" />
		<tag k="place" v="hamlet" />
		<tag k="ssr:stedsnr" v="738396" />
	</node>
	<node id="9964200637" lat="61.9099667" lon="6.0530392" version="1" timestamp="2022-08-19T15:47:55Z" changeset="125114391" uid="3497659" user="NKA">
		<tag k="name" v="Bjørlobrekka" />
		<tag k="place" v="isolated_dwelling" />
		<tag k="ssr:stedsnr" v="799596" />
	</node>
	<node id="9964200638" lat="62.1613178" lon="5.1782555" version="1" timestamp="2022-08-19T15:47:55Z" changeset="125114391" uid="3497659" user="NKA">
		<tag k="name" v="Refsnes" />
		<tag k="place" v="hamlet" />
		<tag k="ssr:stedsnr" v="375670" />
	</node>
	<node id="9964200639" lat="61.9205972" lon="6.204946" version="1" timestamp="2022-08-19T15:47:55Z" changeset="125114391" uid="3497659" user="NKA">
		<tag k="name" v="Åsstøda" />
		<tag k="old_name" v="Åsebøstølen" />
		<tag k="place" v="farm" />
		<tag k="ssr:stedsnr" v="313577" />
	</node>
	<node id="9964200640" lat="61.8975167" lon="6.1247529" version="1" timestamp="2022-08-19T15:47:55Z" changeset="125114391" uid="3497659" user="NKA">
		<tag k="historic" v="shieling" />
		<tag k="name" v="Nessætra" />
		<tag k="place" v="isolated_dwelling" />
		<tag k="ssr:stedsnr" v="141713" />
	</node>
	<node id="9964200641" lat="61.928072" lon="6.0794677" version="1" timestamp="2022-08-19T15:47:55Z" changeset="125114391" uid="3497659" user="NKA">
		<tag k="name" v="Rindane" />
		<tag k="place" v="farm" />
		<tag k="ssr:stedsnr" v="920545" />
	</node>
	<node id="9964200642" lat="61.8723222" lon="6.2198281" version="1" timestamp="2022-08-19T15:47:55Z" changeset="125114391" uid="3497659" user="NKA">
		<tag k="historic" v="shieling" />
		<tag k="name" v="Dalesætra" />
		<tag k="place" v="isolated_dwelling" />
		<tag k="ssr:stedsnr" v="920039" />
	</node>
	<node id="9964200643" lat="61.9265305" lon="6.2130141" version="1" timestamp="2022-08-19T15:47:55Z" changeset="125114391" uid="3497659" user="NKA">
		<tag k="name" v="Rusta" />
		<tag k="place" v="farm" />
		<tag k="ssr:stedsnr" v="798530" />
	</node>
	<node id="9964200644" lat="61.9201889" lon="5.9130114" version="1" timestamp="2022-08-19T15:47:55Z" changeset="125114391" uid="3497659" user="NKA">
		<tag k="alt_name" v="Li" />
		<tag k="name" v="Lid" />
		<tag k="place" v="farm" />
		<tag k="ssr:stedsnr" v="920531" />
	</node>
	<node id="9964200645" lat="61.9037861" lon="6.1461809" version="1" timestamp="2022-08-19T15:47:55Z" changeset="125114391" uid="3497659" user="NKA">
		<tag k="alt_name" v="Geilane" />
		<tag k="name" v="Geilen" />
		<tag k="place" v="farm" />
		<tag k="ssr:stedsnr" v="452259" />
	</node>
	<node id="9964200646" lat="61.9662684" lon="6.3904974" version="1" timestamp="2022-08-19T15:47:55Z" changeset="125114391" uid="3497659" user="NKA">
		<tag k="name" v="Navelsaker" />
		<tag k="place" v="hamlet" />
		<tag k="ssr:stedsnr" v="435913" />
	</node>
	<node id="9964200647" lat="61.9407217" lon="5.7611203" version="1" timestamp="2022-08-19T15:47:55Z" changeset="125114391" uid="3497659" user="NKA">
		<tag k="name" v="Stårheimssætra" />
		<tag k="place" v="hamlet" />
		<tag k="ssr:stedsnr" v="920468" />
	</node>
	<node id="9964200648" lat="61.935125" lon="6.2173753" version="1" timestamp="2022-08-19T15:47:55Z" changeset="125114391" uid="3497659" user="NKA">
		<tag k="name" v="Åsebøøyane" />
		<tag k="place" v="farm" />
		<tag k="ssr:stedsnr" v="677538" />
	</node>
	<node id="9964200649" lat="61.9136295" lon="6.2969456" version="1" timestamp="2022-08-19T15:47:55Z" changeset="125114391" uid="3497659" user="NKA">
		<tag k="name" v="Skrede" />
		<tag k="place" v="farm" />
		<tag k="ssr:stedsnr" v="374971" />
	</node>
	<node id="9964200650" lat="61.9413767" lon="6.2892291" version="1" timestamp="2022-08-19T15:47:55Z" changeset="125114391" uid="3497659" user="NKA">
		<tag k="name" v="Hatlelid" />
		<tag k="place" v="hamlet" />
		<tag k="ssr:stedsnr" v="616954" />
	</node>
	<node id="9964200651" lat="62.1043095" lon="5.236822" version="1" timestamp="2022-08-19T15:47:55Z" changeset="125114391" uid="3497659" user="NKA">
		<tag k="alt_name" v="Ytste Drage;Drage Ytre" />
		<tag k="name" v="Ytre Drage" />
		<tag k="place" v="farm" />
		<tag k="ssr:stedsnr" v="232155" />
	</node>
	<node id="9964200652" lat="61.9706722" lon="6.3830279" version="1" timestamp="2022-08-19T15:47:55Z" changeset="125114391" uid="3497659" user="NKA">
		<tag k="name" v="Setra" />
		<tag k="place" v="locality" />
		<tag k="ssr:stedsnr" v="350056" />
	</node>
	<node id="9964200653" lat="61.950073" lon="6.3583015" version="1" timestamp="2022-08-19T15:47:55Z" changeset="125114391" uid="3497659" user="NKA">
		<tag k="alt_name" v="Furefjerding, indre" />
		<tag k="name" v="Indre Furefjerdingen" />
		<tag k="place" v="farm" />
		<tag k="ssr:stedsnr" v="252859" />
	</node>
	<node id="9964200654" lat="61.9098885" lon="6.1148405" version="1" timestamp="2022-08-19T15:47:55Z" changeset="125114391" uid="3497659" user="NKA">
		<tag k="name" v="Fagerheim" />
		<tag k="place" v="farm" />
		<tag k="ssr:stedsnr" v="108274" />
	</node>
	<node id="9964200655" lat="61.9291906" lon="6.3773054" version="1" timestamp="2022-08-19T15:47:55Z" changeset="125114391" uid="3497659" user="NKA">
		<tag k="name" v="Årøy" />
		<tag k="place" v="farm" />
		<tag k="ssr:stedsnr" v="374925" />
	</node>
	<node id="9964200656" lat="61.8976435" lon="6.1953059" version="1" timestamp="2022-08-19T15:47:55Z" changeset="125114391" uid="3497659" user="NKA">
		<tag k="alt_name" v="Rotiseter" />
		<tag k="historic" v="shieling" />
		<tag k="name" v="Maragjølsætra" />
		<tag k="place" v="isolated_dwelling" />
		<tag k="ssr:stedsnr" v="71663" />
	</node>
	<node id="9964200657" lat="61.9259111" lon="6.4489057" version="1" timestamp="2022-08-19T15:47:55Z" changeset="125114391" uid="3497659" user="NKA">
		<tag k="historic" v="shieling" />
		<tag k="name" v="Vikasætra" />
		<tag k="place" v="isolated_dwelling" />
		<tag k="ssr:stedsnr" v="131981" />
	</node>
	<node id="9964200658" lat="61.95845" lon="6.2427446" version="1" timestamp="2022-08-19T15:47:55Z" changeset="125114391" uid="3497659" user="NKA">
		<tag k="historic" v="shieling" />
		<tag k="name" v="Nedre Heggjadalssætra" />
		<tag k="place" v="isolated_dwelling" />
		<tag k="ssr:stedsnr" v="253875" />
	</node>
	<node id="9964200659" lat="61.95145" lon="6.1503086" version="1" timestamp="2022-08-19T15:47:55Z" changeset="125114391" uid="3497659" user="NKA">
		<tag k="alt_name" v="Bakkesetra" />
		<tag k="historic" v="shieling" />
		<tag k="name" v="Bakkesætra" />
		<tag k="place" v="isolated_dwelling" />
		<tag k="ssr:stedsnr" v="131497" />
	</node>
	<node id="9964200660" lat="62.036734" lon="5.3467243" version="1" timestamp="2022-08-19T15:47:55Z" changeset="125114391" uid="3497659" user="NKA">
		<tag k="alt_name" v="Krakereidet" />
		<tag k="name" v="Reidet" />
		<tag k="place" v="farm" />
		<tag k="ssr:stedsnr" v="435298" />
	</node>
	<node id="9964200661" lat="61.928675" lon="6.2160003" version="1" timestamp="2022-08-19T15:47:55Z" changeset="125114391" uid="3497659" user="NKA">
		<tag k="name" v="Teigen" />
		<tag k="place" v="farm" />
		<tag k="ssr:stedsnr" v="70538" />
	</node>
	<node id="9964200662" lat="61.9479113" lon="5.462102" version="1" timestamp="2022-08-19T15:47:55Z" changeset="125114391" uid="3497659" user="NKA">
		<tag k="name" v="Sollidbakke" />
		<tag k="place" v="farm" />
		<tag k="ssr:stedsnr" v="373802" />
	</node>
	<node id="9964200663" lat="61.9276389" lon="6.4285001" version="1" timestamp="2022-08-19T15:47:55Z" changeset="125114391" uid="3497659" user="NKA">
		<tag k="historic" v="shieling" />
		<tag k="name" v="Innigardssætra" />
		<tag k="place" v="isolated_dwelling" />
		<tag k="ssr:stedsnr" v="28559" />
	</node>
	<node id="9964200664" lat="61.9689639" lon="6.3782502" version="1" timestamp="2022-08-19T15:47:55Z" changeset="125114391" uid="3497659" user="NKA">
		<tag k="name" v="Ytresetra" />
		<tag k="place" v="locality" />
		<tag k="ssr:stedsnr" v="715054" />
	</node>
	<node id="9964200665" lat="61.9360639" lon="6.2220391" version="1" timestamp="2022-08-19T15:47:55Z" changeset="125114391" uid="3497659" user="NKA">
		<tag k="name" v="Frislid" />
		<tag k="place" v="farm" />
		<tag k="ssr:stedsnr" v="192936" />
	</node>
	<node id="9964200666" lat="61.9343893" lon="6.2462194" version="1" timestamp="2022-08-19T15:47:55Z" changeset="125114391" uid="3497659" user="NKA">
		<tag k="alt_name" v="Heggen" />
		<tag k="name" v="Heggja" />
		<tag k="place" v="hamlet" />
		<tag k="ssr:stedsnr" v="192940" />
	</node>
	<node id="9964200667" lat="61.9605306" lon="6.2511418" version="1" timestamp="2022-08-19T15:47:55Z" changeset="125114391" uid="3497659" user="NKA">
		<tag k="historic" v="shieling" />
		<tag k="name" v="Øvre Heggjadalssætra" />
		<tag k="place" v="isolated_dwelling" />
		<tag k="ssr:stedsnr" v="71877" />
	</node>
	<node id="9964200668" lat="61.9243916" lon="6.3817668" version="1" timestamp="2022-08-19T15:47:55Z" changeset="125114391" uid="3497659" user="NKA">
		<tag k="name" v="Gamleseltuftene" />
		<tag k="place" v="locality" />
		<tag k="ssr:stedsnr" v="411769" />
	</node>
	<node id="9964200669" lat="61.9667523" lon="5.2622175" version="1" timestamp="2022-08-19T15:47:55Z" changeset="125114391" uid="3497659" user="NKA">
		<tag k="name" v="Vengen" />
		<tag k="place" v="farm" />
		<tag k="ssr:stedsnr" v="920773" />
	</node>
	<node id="9964200670" lat="61.9282444" lon="5.7916448" version="1" timestamp="2022-08-19T15:47:55Z" changeset="125114391" uid="3497659" user="NKA">
		<tag k="name" v="Samegna" />
		<tag k="place" v="locality" />
		<tag k="ssr:stedsnr" v="472927" />
	</node>
	<node id="9964200671" lat="61.9236149" lon="6.0107237" version="1" timestamp="2022-08-19T15:47:55Z" changeset="125114391" uid="3497659" user="NKA">
		<tag k="historic" v="shieling" />
		<tag k="name" v="Langelandssætra" />
		<tag k="place" v="isolated_dwelling" />
		<tag k="ssr:stedsnr" v="434530" />
	</node>
	<node id="9964200672" lat="61.9351956" lon="5.8209771" version="1" timestamp="2022-08-19T15:47:55Z" changeset="125114391" uid="3497659" user="NKA">
		<tag k="name" v="Indre Remme" />
		<tag k="place" v="farm" />
		<tag k="ssr:stedsnr" v="323540" />
	</node>
	<node id="9964200673" lat="61.9361268" lon="5.8453841" version="1" timestamp="2022-08-19T15:47:55Z" changeset="125114391" uid="3497659" user="NKA">
		<tag k="name" v="Teige" />
		<tag k="place" v="farm" />
		<tag k="ssr:stedsnr" v="435549" />
	</node>
	<node id="9964200674" lat="62.0541306" lon="5.4599699" version="1" timestamp="2022-08-19T15:47:55Z" changeset="125114391" uid="3497659" user="NKA">
		<tag k="name" v="Myrvoll" />
		<tag k="place" v="farm" />
		<tag k="ssr:stedsnr" v="496369" />
	</node>
	<node id="9964200675" lat="61.9552083" lon="5.8584559" version="1" timestamp="2022-08-19T15:47:55Z" changeset="125114391" uid="3497659" user="NKA">
		<tag k="historic" v="shieling" />
		<tag k="name" v="Hjelmelandssætra" />
		<tag k="place" v="isolated_dwelling" />
		<tag k="ssr:stedsnr" v="253322" />
	</node>
	<node id="9964200676" lat="61.9483555" lon="5.6988532" version="1" timestamp="2022-08-19T15:47:55Z" changeset="125114391" uid="3497659" user="NKA">
		<tag k="historic" v="shieling" />
		<tag k="name" v="Storevassætra" />
		<tag k="place" v="isolated_dwelling" />
		<tag k="ssr:stedsnr" v="313458" />
	</node>
	<node id="9964200677" lat="61.9366111" lon="6.0061948" version="1" timestamp="2022-08-19T15:47:55Z" changeset="125114391" uid="3497659" user="NKA">
		<tag k="historic" v="shieling" />
		<tag k="name" v="Stigane" />
		<tag k="place" v="isolated_dwelling" />
		<tag k="ssr:stedsnr" v="374523" />
	</node>
	<node id="9964200678" lat="61.9501639" lon="6.3170946" version="1" timestamp="2022-08-19T15:47:55Z" changeset="125114391" uid="3497659" user="NKA">
		<tag k="historic" v="shieling" />
		<tag k="name" v="Strandasætra" />
		<tag k="place" v="isolated_dwelling" />
		<tag k="ssr:stedsnr" v="192904" />
	</node>
	<node id="9964200679" lat="61.9989139" lon="5.3322366" version="1" timestamp="2022-08-19T15:47:55Z" changeset="125114391" uid="3497659" user="NKA">
		<tag k="name" v="Gulestein" />
		<tag k="place" v="locality" />
		<tag k="ssr:stedsnr" v="966678" />
	</node>
	<node id="9964200680" lat="61.93585" lon="5.8108864" version="1" timestamp="2022-08-19T15:47:55Z" changeset="125114391" uid="3497659" user="NKA">
		<tag k="historic" v="shieling" />
		<tag k="name" v="Remmesetra" />
		<tag k="place" v="isolated_dwelling" />
		<tag k="ssr:stedsnr" v="105051" />
	</node>
	<node id="9964200681" lat="61.9206048" lon="5.9979378" version="1" timestamp="2022-08-19T15:47:55Z" changeset="125114391" uid="3497659" user="NKA">
		<tag k="alt_name" v="Myklebustsetra" />
		<tag k="historic" v="shieling" />
		<tag k="name" v="Myklebustsætra" />
		<tag k="place" v="isolated_dwelling" />
		<tag k="ssr:stedsnr" v="131540" />
	</node>
	<node id="9964200682" lat="61.9788366" lon="6.1820795" version="1" timestamp="2022-08-19T15:47:55Z" changeset="125114391" uid="3497659" user="NKA">
		<tag k="name" v="Hammaren" />
		<tag k="place" v="isolated_dwelling" />
		<tag k="ssr:stedsnr" v="350260" />
	</node>
	<node id="9964200683" lat="61.9525388" lon="5.656942" version="1" timestamp="2022-08-19T15:47:55Z" changeset="125114391" uid="3497659" user="NKA">
		<tag k="historic" v="shieling" />
		<tag k="name" v="Mystøylen" />
		<tag k="place" v="isolated_dwelling" />
		<tag k="ssr:stedsnr" v="799475" />
	</node>
	<node id="9964200684" lat="61.9467139" lon="6.2387885" version="1" timestamp="2022-08-19T15:47:55Z" changeset="125114391" uid="3497659" user="NKA">
		<tag k="name" v="Hjellane" />
		<tag k="place" v="farm" />
		<tag k="ssr:stedsnr" v="350375" />
	</node>
	<node id="9964200685" lat="61.9209778" lon="5.7334837" version="1" timestamp="2022-08-19T15:47:55Z" changeset="125114391" uid="3497659" user="NKA">
		<tag k="historic" v="shieling" />
		<tag k="name" v="Rødsætra" />
		<tag k="place" v="isolated_dwelling" />
		<tag k="ssr:stedsnr" v="384513" />
	</node>
	<node id="9964200686" lat="61.94345" lon="5.4495311" version="1" timestamp="2022-08-19T15:47:55Z" changeset="125114391" uid="3497659" user="NKA">
		<tag k="name" v="Indre Nore" />
		<tag k="place" v="neighbourhood" />
		<tag k="ssr:stedsnr" v="768517" />
	</node>
	<node id="9964200687" lat="61.9952566" lon="5.3363701" version="1" timestamp="2022-08-19T15:47:55Z" changeset="125114391" uid="3497659" user="NKA">
		<tag k="name" v="Midtlegane" />
		<tag k="place" v="farm" />
		<tag k="ssr:stedsnr" v="777872" />
	</node>
	<node id="9964200688" lat="61.9010667" lon="6.1936224" version="1" timestamp="2022-08-19T15:47:55Z" changeset="125114391" uid="3497659" user="NKA">
		<tag k="historic" v="shieling" />
		<tag k="name" v="Nersetra" />
		<tag k="place" v="isolated_dwelling" />
		<tag k="ssr:stedsnr" v="350105" />
	</node>
	<node id="9964200689" lat="61.9131518" lon="5.3359363" version="1" timestamp="2022-08-19T15:47:55Z" changeset="125114391" uid="3497659" user="NKA">
		<tag k="name" v="Kroken" />
		<tag k="place" v="farm" />
		<tag k="ssr:stedsnr" v="738222" />
	</node>
	<node id="9964200690" lat="62.013262" lon="5.4933196" version="1" timestamp="2022-08-19T15:47:55Z" changeset="125114391" uid="3497659" user="NKA">
		<tag k="name" v="Skorge" />
		<tag k="place" v="farm" />
		<tag k="ssr:stedsnr" v="314215" />
	</node>
	<node id="9964200691" lat="62.0430382" lon="5.4768853" version="1" timestamp="2022-08-19T15:47:55Z" changeset="125114391" uid="3497659" user="NKA">
		<tag k="name" v="Kvamme" />
		<tag k="place" v="hamlet" />
		<tag k="ssr:stedsnr" v="314302" />
	</node>
	<node id="9964200692" lat="61.9561889" lon="5.3617756" version="1" timestamp="2022-08-19T15:47:55Z" changeset="125114391" uid="3497659" user="NKA">
		<tag k="historic" v="shieling" />
		<tag k="name" v="Gamlestølen" />
		<tag k="place" v="isolated_dwelling" />
		<tag k="ssr:stedsnr" v="578870" />
	</node>
	<node id="9964200693" lat="61.937264" lon="5.3955685" version="1" timestamp="2022-08-19T15:47:55Z" changeset="125114391" uid="3497659" user="NKA">
		<tag k="alt_name" v="Rundshaug" />
		<tag k="name" v="Runnshaug" />
		<tag k="place" v="farm" />
		<tag k="ssr:stedsnr" v="435266" />
	</node>
	<node id="9964200694" lat="61.9702222" lon="5.3799282" version="1" timestamp="2022-08-19T15:47:55Z" changeset="125114391" uid="3497659" user="NKA">
		<tag k="name" v="Rimstadsætra" />
		<tag k="place" v="locality" />
		<tag k="ssr:stedsnr" v="677786" />
	</node>
	<node id="9964200695" lat="62.0336237" lon="5.4041211" version="1" timestamp="2022-08-19T15:47:55Z" changeset="125114391" uid="3497659" user="NKA">
		<tag k="name" v="Lesto" />
		<tag k="place" v="hamlet" />
		<tag k="ssr:stedsnr" v="253292" />
	</node>
	<node id="9964200696" lat="61.9904361" lon="5.4252199" version="1" timestamp="2022-08-19T15:47:55Z" changeset="125114391" uid="3497659" user="NKA">
		<tag k="historic" v="shieling" />
		<tag k="name" v="Rylen" />
		<tag k="place" v="isolated_dwelling" />
		<tag k="ssr:stedsnr" v="374768" />
	</node>
	<node id="9964200697" lat="61.9614917" lon="5.4120533" version="1" timestamp="2022-08-19T15:47:55Z" changeset="125114391" uid="3497659" user="NKA">
		<tag k="historic" v="shieling" />
		<tag k="name" v="Geisdalsetra" />
		<tag k="place" v="isolated_dwelling" />
		<tag k="ssr:stedsnr" v="397931" />
	</node>
	<node id="9964200698" lat="61.9593153" lon="5.3044073" version="1" timestamp="2022-08-19T15:47:55Z" changeset="125114391" uid="3497659" user="NKA">
		<tag k="name" v="Kvernevika" />
		<tag k="place" v="hamlet" />
		<tag k="ssr:stedsnr" v="616799" />
	</node>
	<node id="9964200699" lat="61.9332146" lon="5.5028872" version="1" timestamp="2022-08-19T15:47:55Z" changeset="125114391" uid="3497659" user="NKA">
		<tag k="name" v="Lefdal" />
		<tag k="place" v="hamlet" />
		<tag k="ssr:stedsnr" v="435515" />
	</node>
	<node id="9964200700" lat="61.9436578" lon="6.3009504" version="1" timestamp="2022-08-19T15:47:55Z" changeset="125114391" uid="3497659" user="NKA">
		<tag k="name" v="Grimslid" />
		<tag k="place" v="farm" />
		<tag k="ssr:stedsnr" v="70869" />
	</node>
	<node id="9964200701" lat="61.9259204" lon="5.9010189" version="1" timestamp="2022-08-19T15:47:55Z" changeset="125114391" uid="3497659" user="NKA">
		<tag k="name" v="Lidene" />
		<tag k="place" v="hamlet" />
		<tag k="ssr:stedsnr" v="738519" />
	</node>
	<node id="9964200702" lat="61.9217162" lon="5.915248" version="1" timestamp="2022-08-19T15:47:55Z" changeset="125114391" uid="3497659" user="NKA">
		<tag k="name" v="Øvrelid" />
		<tag k="place" v="farm" />
		<tag k="ssr:stedsnr" v="435579" />
	</node>
	<node id="9964200703" lat="61.9366167" lon="6.4537501" version="1" timestamp="2022-08-19T15:47:55Z" changeset="125114391" uid="3497659" user="NKA">
		<tag k="name" v="Øyane" />
		<tag k="place" v="farm" />
		<tag k="ssr:stedsnr" v="616936" />
	</node>
	<node id="9964200704" lat="61.929198" lon="5.3820934" version="1" timestamp="2022-08-19T15:47:55Z" changeset="125114391" uid="3497659" user="NKA">
		<tag k="name" v="Ytre Totland" />
		<tag k="place" v="locality" />
		<tag k="ssr:stedsnr" v="336864" />
	</node>
	<node id="9964200705" lat="61.9519666" lon="5.2958817" version="1" timestamp="2022-08-19T15:47:55Z" changeset="125114391" uid="3497659" user="NKA">
		<tag k="name" v="Nordpollen" />
		<tag k="place" v="hamlet" />
		<tag k="ssr:stedsnr" v="373788" />
	</node>
	<node id="9964200706" lat="61.9477278" lon="5.5880255" version="1" timestamp="2022-08-19T15:47:55Z" changeset="125114391" uid="3497659" user="NKA">
		<tag k="alt_name" v="Skjeringdalen" />
		<tag k="historic" v="shieling" />
		<tag k="name" v="Skjerdingedalen" />
		<tag k="place" v="isolated_dwelling" />
		<tag k="ssr:stedsnr" v="738461" />
	</node>
	<node id="9964200707" lat="61.9306789" lon="5.8128157" version="1" timestamp="2022-08-19T15:47:55Z" changeset="125114391" uid="3497659" user="NKA">
		<tag k="name" v="Nygard" />
		<tag k="place" v="farm" />
		<tag k="ssr:stedsnr" v="10446" />
	</node>
	<node id="9964200708" lat="61.9223803" lon="5.7604319" version="1" timestamp="2022-08-19T15:47:55Z" changeset="125114391" uid="3497659" user="NKA">
		<tag k="alt_name" v="Rafshol;Rafshol Nedre" />
		<tag k="name" v="Nedre Rafshol" />
		<tag k="place" v="farm" />
		<tag k="ssr:stedsnr" v="677433" />
	</node>
	<node id="9964200709" lat="61.9318752" lon="5.3852421" version="1" timestamp="2022-08-19T15:47:55Z" changeset="125114391" uid="3497659" user="NKA">
		<tag k="name" v="Totland" />
		<tag k="place" v="hamlet" />
		<tag k="ssr:stedsnr" v="978967" />
	</node>
	<node id="9964200710" lat="61.9068964" lon="6.0240807" version="1" timestamp="2022-08-19T15:47:55Z" changeset="125114391" uid="3497659" user="NKA">
		<tag k="name" v="Roti" />
		<tag k="place" v="hamlet" />
		<tag k="ssr:stedsnr" v="192608" />
	</node>
	<node id="9964200711" lat="61.9258541" lon="5.6486632" version="1" timestamp="2022-08-19T15:47:55Z" changeset="125114391" uid="3497659" user="NKA">
		<tag k="name" v="Hornet" />
		<tag k="place" v="farm" />
		<tag k="ssr:stedsnr" v="495458" />
	</node>
	<node id="9964200712" lat="61.9283235" lon="5.8632949" version="1" timestamp="2022-08-19T15:47:55Z" changeset="125114391" uid="3497659" user="NKA">
		<tag k="name" v="Grøthaugen" />
		<tag k="place" v="farm" />
		<tag k="ssr:stedsnr" v="617551" />
	</node>
	<node id="9964200713" lat="61.8983785" lon="5.9627039" version="1" timestamp="2022-08-19T15:47:55Z" changeset="125114391" uid="3497659" user="NKA">
		<tag k="name" v="Åshammaren" />
		<tag k="place" v="hamlet" />
		<tag k="ssr:stedsnr" v="10608" />
	</node>
	<node id="9964200714" lat="61.9656639" lon="5.3282699" version="1" timestamp="2022-08-19T15:47:55Z" changeset="125114391" uid="3497659" user="NKA">
		<tag k="historic" v="shieling" />
		<tag k="name" v="Vetrhussætra" />
		<tag k="place" v="isolated_dwelling" />
		<tag k="ssr:stedsnr" v="131798" />
	</node>
	<node id="9964200715" lat="61.9109415" lon="6.038249" version="1" timestamp="2022-08-19T15:47:55Z" changeset="125114391" uid="3497659" user="NKA">
		<tag k="name" v="Bjørlo" />
		<tag k="place" v="hamlet" />
		<tag k="ssr:stedsnr" v="555520" />
	</node>
	<node id="9964200716" lat="61.9540457" lon="5.9088078" version="1" timestamp="2022-08-19T15:47:55Z" changeset="125114391" uid="3497659" user="NKA">
		<tag k="name" v="Dalset" />
		<tag k="place" v="hamlet" />
		<tag k="ssr:stedsnr" v="192308" />
	</node>
	<node id="9964200717" lat="61.9001518" lon="5.9862904" version="1" timestamp="2022-08-19T15:47:55Z" changeset="125114391" uid="3497659" user="NKA">
		<tag k="name" v="Os" />
		<tag k="place" v="hamlet" />
		<tag k="ssr:stedsnr" v="252553" />
	</node>
	<node id="9964200718" lat="61.9344889" lon="6.1979336" version="1" timestamp="2022-08-19T15:47:55Z" changeset="125114391" uid="3497659" user="NKA">
		<tag k="name" v="Åsebøsetra" />
		<tag k="place" v="locality" />
		<tag k="ssr:stedsnr" v="290027" />
	</node>
	<node id="9964200719" lat="62.179725" lon="5.1728533" version="1" timestamp="2022-08-19T15:47:55Z" changeset="125114391" uid="3497659" user="NKA">
		<tag k="name" v="Myrstad" />
		<tag k="place" v="farm" />
		<tag k="ssr:stedsnr" v="617756" />
	</node>
	<node id="9964200720" lat="61.9532556" lon="5.8532142" version="1" timestamp="2022-08-19T15:47:55Z" changeset="125114391" uid="3497659" user="NKA">
		<tag k="historic" v="shieling" />
		<tag k="name" v="Sloka" />
		<tag k="place" v="isolated_dwelling" />
		<tag k="ssr:stedsnr" v="313278" />
	</node>
	<node id="9964200721" lat="61.9321805" lon="5.7513531" version="1" timestamp="2022-08-19T15:47:55Z" changeset="125114391" uid="3497659" user="NKA">
		<tag k="historic" v="shieling" />
		<tag k="name" v="Orheimssætra" />
		<tag k="place" v="isolated_dwelling" />
		<tag k="ssr:stedsnr" v="141537" />
	</node>
	<node id="9964200722" lat="61.9465035" lon="5.8726216" version="1" timestamp="2022-08-19T15:47:55Z" changeset="125114391" uid="3497659" user="NKA">
		<tag k="name" v="Hjelmelandsbakke" />
		<tag k="place" v="farm" />
		<tag k="ssr:stedsnr" v="166383" />
	</node>
	<node id="9964200723" lat="62.1937568" lon="5.2070716" version="1" timestamp="2022-08-19T15:47:55Z" changeset="125114391" uid="3497659" user="NKA">
		<tag k="name" v="Indre Honningsvågen" />
		<tag k="place" v="hamlet" />
		<tag k="ssr:stedsnr" v="263331" />
	</node>
	<node id="9964200724" lat="61.9792238" lon="5.3167496" version="1" timestamp="2022-08-19T15:47:55Z" changeset="125114391" uid="3497659" user="NKA">
		<tag k="name" v="Øyra" />
		<tag k="place" v="hamlet" />
		<tag k="ssr:stedsnr" v="10771" />
	</node>
	<node id="9964200725" lat="62.0613975" lon="5.342118" version="1" timestamp="2022-08-19T15:47:55Z" changeset="125114391" uid="3497659" user="NKA">
		<tag k="alt_name" v="Inste Liaseter" />
		<tag k="name" v="Inste Liset" />
		<tag k="place" v="farm" />
		<tag k="ssr:stedsnr" v="117581" />
	</node>
	<node id="9964200726" lat="62.1006428" lon="5.3553716" version="1" timestamp="2022-08-19T15:47:55Z" changeset="125114391" uid="3497659" user="NKA">
		<tag k="name" v="Lundabrekke" />
		<tag k="place" v="hamlet" />
		<tag k="ssr:stedsnr" v="436399" />
	</node>
	<node id="9964200727" lat="61.9666472" lon="5.4006477" version="1" timestamp="2022-08-19T15:47:55Z" changeset="125114391" uid="3497659" user="NKA">
		<tag k="alt_name" v="Abelsetra" />
		<tag k="historic" v="shieling" />
		<tag k="name" v="Runnshaugsætrane" />
		<tag k="place" v="isolated_dwelling" />
		<tag k="ssr:stedsnr" v="738811" />
	</node>
	<node id="9964200728" lat="61.9587305" lon="5.435481" version="1" timestamp="2022-08-19T15:47:55Z" changeset="125114391" uid="3497659" user="NKA">
		<tag k="historic" v="shieling" />
		<tag k="name" v="Nakkelida" />
		<tag k="place" v="isolated_dwelling" />
		<tag k="ssr:stedsnr" v="192832" />
	</node>
	<node id="9964200729" lat="62.0326806" lon="5.4821978" version="1" timestamp="2022-08-19T15:47:55Z" changeset="125114391" uid="3497659" user="NKA">
		<tag k="name" v="Otnes" />
		<tag k="place" v="hamlet" />
		<tag k="ssr:stedsnr" v="50538" />
	</node>
	<node id="9964200730" lat="61.9569545" lon="5.3615659" version="1" timestamp="2022-08-19T15:47:55Z" changeset="125114391" uid="3497659" user="NKA">
		<tag k="historic" v="shieling" />
		<tag k="name" v="Rimstadsætra" />
		<tag k="place" v="isolated_dwelling" />
		<tag k="ssr:stedsnr" v="799815" />
	</node>
	<node id="9964200731" lat="61.9254528" lon="6.0093975" version="1" timestamp="2022-08-19T15:47:55Z" changeset="125114391" uid="3497659" user="NKA">
		<tag k="historic" v="shieling" />
		<tag k="name" v="Myroldhaugsætra" />
		<tag k="place" v="isolated_dwelling" />
		<tag k="ssr:stedsnr" v="869774" />
	</node>
	<node id="9964200732" lat="61.9335754" lon="5.3598995" version="1" timestamp="2022-08-19T15:47:55Z" changeset="125114391" uid="3497659" user="NKA">
		<tag k="name" v="Fagerlid" />
		<tag k="place" v="farm" />
		<tag k="ssr:stedsnr" v="192251" />
	</node>
	<node id="9964200733" lat="61.943927" lon="5.3792903" version="1" timestamp="2022-08-19T15:47:55Z" changeset="125114391" uid="3497659" user="NKA">
		<tag k="name" v="Øgarden" />
		<tag k="place" v="farm" />
		<tag k="ssr:stedsnr" v="859785" />
	</node>
	<node id="9964200734" lat="61.9307639" lon="6.4105363" version="1" timestamp="2022-08-19T15:47:55Z" changeset="125114391" uid="3497659" user="NKA">
		<tag k="name" v="Nersetra" />
		<tag k="place" v="locality" />
		<tag k="ssr:stedsnr" v="957802" />
	</node>
	<node id="9964200735" lat="62.0443889" lon="5.3461421" version="1" timestamp="2022-08-19T15:47:55Z" changeset="125114391" uid="3497659" user="NKA">
		<tag k="name" v="Hove" />
		<tag k="place" v="farm" />
		<tag k="ssr:stedsnr" v="656955" />
	</node>
	<node id="9964200736" lat="61.9190611" lon="5.8542103" version="1" timestamp="2022-08-19T15:47:55Z" changeset="125114391" uid="3497659" user="NKA">
		<tag k="name" v="Ytrebøen" />
		<tag k="place" v="farm" />
		<tag k="ssr:stedsnr" v="192576" />
	</node>
	<node id="9964200737" lat="61.9463458" lon="5.8230621" version="1" timestamp="2022-08-19T15:47:55Z" changeset="125114391" uid="3497659" user="NKA">
		<tag k="historic" v="shieling" />
		<tag k="name" v="Sjøasætrane" />
		<tag k="place" v="isolated_dwelling" />
		<tag k="ssr:stedsnr" v="192513" />
	</node>
	<node id="9964200738" lat="62.0416873" lon="5.3663341" version="1" timestamp="2022-08-19T15:47:55Z" changeset="125114391" uid="3497659" user="NKA">
		<tag k="name" v="Djupedalen" />
		<tag k="place" v="hamlet" />
		<tag k="ssr:stedsnr" v="435297" />
	</node>
	<node id="9964200739" lat="61.8578101" lon="6.2129852" version="1" timestamp="2022-08-19T15:47:55Z" changeset="125114391" uid="3497659" user="NKA">
		<tag k="name" v="Ytre Hennane" />
		<tag k="place" v="farm" />
		<tag k="ssr:stedsnr" v="495679" />
	</node>
	<node id="9964200740" lat="61.9258334" lon="6.4421696" version="1" timestamp="2022-08-19T15:47:55Z" changeset="125114391" uid="3497659" user="NKA">
		<tag k="name" v="Gamlesetra" />
		<tag k="place" v="locality" />
		<tag k="ssr:stedsnr" v="472036" />
	</node>
	<node id="9964200741" lat="61.9239361" lon="6.0332892" version="1" timestamp="2022-08-19T15:47:55Z" changeset="125114391" uid="3497659" user="NKA">
		<tag k="name" v="Vårstøylen" />
		<tag k="place" v="locality" />
		<tag k="ssr:stedsnr" v="555506" />
	</node>
	<node id="9964200742" lat="61.9316778" lon="5.9140086" version="1" timestamp="2022-08-19T15:47:55Z" changeset="125114391" uid="3497659" user="NKA">
		<tag k="name" v="Gamlesetra" />
		<tag k="place" v="locality" />
		<tag k="ssr:stedsnr" v="834155" />
	</node>
	<node id="9964200743" lat="62.0433472" lon="5.3161394" version="1" timestamp="2022-08-19T15:47:55Z" changeset="125114391" uid="3497659" user="NKA">
		<tag k="name" v="Heimly" />
		<tag k="place" v="farm" />
		<tag k="ssr:stedsnr" v="435408" />
	</node>
	<node id="9964200744" lat="61.9281671" lon="6.3584771" version="1" timestamp="2022-08-19T15:47:55Z" changeset="125114391" uid="3497659" user="NKA">
		<tag k="name" v="Rognnes" />
		<tag k="place" v="hamlet" />
		<tag k="ssr:stedsnr" v="616944" />
	</node>
	<node id="9964200745" lat="61.9380607" lon="6.4440928" version="1" timestamp="2022-08-19T15:47:55Z" changeset="125114391" uid="3497659" user="NKA">
		<tag k="name" v="Almvika" />
		<tag k="place" v="farm" />
		<tag k="ssr:stedsnr" v="495940" />
	</node>
	<node id="9964200746" lat="62.057847" lon="5.4524491" version="1" timestamp="2022-08-19T15:47:55Z" changeset="125114391" uid="3497659" user="NKA">
		<tag k="name" v="Stokkevågen" />
		<tag k="place" v="farm" />
		<tag k="ssr:stedsnr" v="557324" />
	</node>
	<node id="9964200747" lat="61.9746027" lon="6.3880725" version="1" timestamp="2022-08-19T15:47:55Z" changeset="125114391" uid="3497659" user="NKA">
		<tag k="historic" v="shieling" />
		<tag k="name" v="Høgesetra" />
		<tag k="place" v="isolated_dwelling" />
		<tag k="ssr:stedsnr" v="472045" />
	</node>
	<node id="9964200748" lat="62.0603645" lon="5.4439089" version="1" timestamp="2022-08-19T15:47:55Z" changeset="125114391" uid="3497659" user="NKA">
		<tag k="name" v="Årsheim" />
		<tag k="place" v="hamlet" />
		<tag k="ssr:stedsnr" v="496350" />
	</node>
	<node id="9964200749" lat="61.8723329" lon="5.7939866" version="1" timestamp="2022-08-19T15:47:55Z" changeset="125114391" uid="3497659" user="NKA">
		<tag k="name" v="Ytre Torheim" />
		<tag k="place" v="farm" />
		<tag k="ssr:stedsnr" v="398300" />
	</node>
	<node id="9964200750" lat="61.8964183" lon="5.8664691" version="1" timestamp="2022-08-19T15:47:55Z" changeset="125114391" uid="3497659" user="NKA">
		<tag k="name" v="Ytre Hundeidet" />
		<tag k="place" v="farm" />
		<tag k="ssr:stedsnr" v="434559" />
	</node>
	<node id="9964200751" lat="61.9368" lon="6.4749724" version="1" timestamp="2022-08-19T15:47:55Z" changeset="125114391" uid="3497659" user="NKA">
		<tag k="name" v="Sandvik" />
		<tag k="place" v="farm" />
		<tag k="ssr:stedsnr" v="374916" />
	</node>
	<node id="9964200752" lat="61.9523028" lon="5.5208588" version="1" timestamp="2022-08-19T15:47:55Z" changeset="125114391" uid="3497659" user="NKA">
		<tag k="historic" v="shieling" />
		<tag k="name" v="Tverrlida" />
		<tag k="place" v="isolated_dwelling" />
		<tag k="ssr:stedsnr" v="920456" />
	</node>
	<node id="9964200753" lat="62.037039" lon="5.3892044" version="1" timestamp="2022-08-19T15:47:55Z" changeset="125114391" uid="3497659" user="NKA">
		<tag k="name" v="Berge" />
		<tag k="place" v="hamlet" />
		<tag k="ssr:stedsnr" v="253288" />
	</node>
	<node id="9964200754" lat="61.9239697" lon="5.6035039" version="1" timestamp="2022-08-19T15:47:55Z" changeset="125114391" uid="3497659" user="NKA">
		<tag k="name" v="Ervika" />
		<tag k="place" v="hamlet" />
		<tag k="ssr:stedsnr" v="373465" />
	</node>
	<node id="9964200755" lat="61.9621222" lon="5.4541171" version="1" timestamp="2022-08-19T15:47:55Z" changeset="125114391" uid="3497659" user="NKA">
		<tag k="name" v="Kringla" />
		<tag k="place" v="locality" />
		<tag k="ssr:stedsnr" v="920792" />
	</node>
	<node id="9964200756" lat="61.9288083" lon="6.4111945" version="1" timestamp="2022-08-19T15:47:55Z" changeset="125114391" uid="3497659" user="NKA">
		<tag k="historic" v="shieling" />
		<tag k="name" v="Utigardssætra" />
		<tag k="place" v="isolated_dwelling" />
		<tag k="ssr:stedsnr" v="738932" />
	</node>
	<node id="9964200757" lat="61.9253111" lon="6.3810196" version="1" timestamp="2022-08-19T15:47:55Z" changeset="125114391" uid="3497659" user="NKA">
		<tag k="historic" v="shieling" />
		<tag k="name" v="Rognnessætra" />
		<tag k="place" v="isolated_dwelling" />
		<tag k="ssr:stedsnr" v="616975" />
	</node>
	<node id="9964200758" lat="61.9844027" lon="5.4529004" version="1" timestamp="2022-08-19T15:47:55Z" changeset="125114391" uid="3497659" user="NKA">
		<tag k="historic" v="shieling" />
		<tag k="name" v="Skorgesætra" />
		<tag k="place" v="isolated_dwelling" />
		<tag k="ssr:stedsnr" v="192792" />
	</node>
	<node id="9964200759" lat="61.9176583" lon="5.35512" version="1" timestamp="2022-08-19T15:47:55Z" changeset="125114391" uid="3497659" user="NKA">
		<tag k="name" v="Krokepollen" />
		<tag k="place" v="farm" />
		<tag k="ssr:stedsnr" v="555167" />
	</node>
	<node id="9964200760" lat="62.0137336" lon="5.2722929" version="1" timestamp="2022-08-19T15:47:55Z" changeset="125114391" uid="3497659" user="NKA">
		<tag k="name" v="Myklebust" />
		<tag k="place" v="hamlet" />
		<tag k="ssr:stedsnr" v="375235" />
	</node>
	<node id="9964200761" lat="61.9422278" lon="5.8844364" version="1" timestamp="2022-08-19T15:47:55Z" changeset="125114391" uid="3497659" user="NKA">
		<tag k="name" v="Årøyane" />
		<tag k="place" v="farm" />
		<tag k="ssr:stedsnr" v="374507" />
	</node>
	<node id="9964200762" lat="61.9924389" lon="5.4077505" version="1" timestamp="2022-08-19T15:47:55Z" changeset="125114391" uid="3497659" user="NKA">
		<tag k="historic" v="shieling" />
		<tag k="name" v="Ablestølen" />
		<tag k="place" v="isolated_dwelling" />
		<tag k="ssr:stedsnr" v="413636" />
	</node>
	<node id="9964200763" lat="62.125275" lon="5.3048977" version="1" timestamp="2022-08-19T15:47:55Z" changeset="125114391" uid="3497659" user="NKA">
		<tag k="name" v="Øvrebø" />
		<tag k="place" v="farm" />
		<tag k="ssr:stedsnr" v="860513" />
	</node>
	<node id="9964200764" lat="61.8796084" lon="5.7937282" version="1" timestamp="2022-08-19T15:47:55Z" changeset="125114391" uid="3497659" user="NKA">
		<tag k="name" v="Øykjesto" />
		<tag k="place" v="locality" />
		<tag k="ssr:stedsnr" v="556447" />
	</node>
	<node id="9964200765" lat="61.879325" lon="5.8075754" version="1" timestamp="2022-08-19T15:47:55Z" changeset="125114391" uid="3497659" user="NKA">
		<tag k="historic" v="shieling" />
		<tag k="name" v="Sommarssætra" />
		<tag k="place" v="isolated_dwelling" />
		<tag k="ssr:stedsnr" v="495393" />
	</node>
	<node id="9964200766" lat="61.8623388" lon="6.222934" version="1" timestamp="2022-08-19T15:47:55Z" changeset="125114391" uid="3497659" user="NKA">
		<tag k="name" v="Hennane" />
		<tag k="place" v="hamlet" />
		<tag k="ssr:stedsnr" v="980928" />
	</node>
	<node id="9964200767" lat="61.9364472" lon="6.4440418" version="1" timestamp="2022-08-19T15:47:55Z" changeset="125114391" uid="3497659" user="NKA">
		<tag k="name" v="Åsli" />
		<tag k="place" v="farm" />
		<tag k="ssr:stedsnr" v="313926" />
	</node>
	<node id="9964200768" lat="61.9396472" lon="6.4263501" version="1" timestamp="2022-08-19T15:47:55Z" changeset="125114391" uid="3497659" user="NKA">
		<tag k="name" v="Storvik" />
		<tag k="place" v="farm" />
		<tag k="ssr:stedsnr" v="435950" />
	</node>
	<node id="9964200769" lat="62.1519504" lon="5.2959442" version="1" timestamp="2022-08-19T15:47:55Z" changeset="125114391" uid="3497659" user="NKA">
		<tag k="name" v="Borgundvåg" />
		<tag k="place" v="hamlet" />
		<tag k="ssr:stedsnr" v="860568" />
	</node>
	<node id="9964200770" lat="62.1102028" lon="5.3087422" version="1" timestamp="2022-08-19T15:47:55Z" changeset="125114391" uid="3497659" user="NKA">
		<tag k="historic" v="shieling" />
		<tag k="name" v="Kupesetra" />
		<tag k="place" v="isolated_dwelling" />
		<tag k="ssr:stedsnr" v="414849" />
	</node>
	<node id="9964200771" lat="61.9356916" lon="6.1638251" version="1" timestamp="2022-08-19T15:47:55Z" changeset="125114391" uid="3497659" user="NKA">
		<tag k="alt_name" v="Lindviksetra" />
		<tag k="historic" v="shieling" />
		<tag k="name" v="Lindviksætra" />
		<tag k="place" v="isolated_dwelling" />
		<tag k="ssr:stedsnr" v="71578" />
	</node>
	<node id="9964200772" lat="61.9199028" lon="5.9438419" version="1" timestamp="2022-08-19T15:47:55Z" changeset="125114391" uid="3497659" user="NKA">
		<tag k="name" v="Nipa" />
		<tag k="place" v="isolated_dwelling" />
		<tag k="ssr:stedsnr" v="350819" />
	</node>
	<node id="9964200773" lat="61.9612547" lon="6.2208221" version="1" timestamp="2022-08-19T15:47:55Z" changeset="125114391" uid="3497659" user="NKA">
		<tag k="historic" v="shieling" />
		<tag k="name" v="Høystakkesætra" />
		<tag k="place" v="isolated_dwelling" />
		<tag k="ssr:stedsnr" v="920872" />
	</node>
	<node id="9964200774" lat="61.9292499" lon="6.1250474" version="1" timestamp="2022-08-19T15:47:55Z" changeset="125114391" uid="3497659" user="NKA">
		<tag k="name" v="Gamlesetra" />
		<tag k="place" v="locality" />
		<tag k="ssr:stedsnr" v="47397" />
	</node>
	<node id="9964200775" lat="61.8489264" lon="6.142047" version="1" timestamp="2022-08-19T15:47:55Z" changeset="125114391" uid="3497659" user="NKA">
		<tag k="name" v="Indre Åsane" />
		<tag k="place" v="farm" />
		<tag k="ssr:stedsnr" v="798606" />
	</node>
	<node id="9964200776" lat="61.9571997" lon="6.21806" version="1" timestamp="2022-08-19T15:47:55Z" changeset="125114391" uid="3497659" user="NKA">
		<tag k="historic" v="shieling" />
		<tag k="name" v="Frislidsætra" />
		<tag k="place" v="isolated_dwelling" />
		<tag k="ssr:stedsnr" v="799916" />
	</node>
	<node id="9964200777" lat="61.914217" lon="5.9808548" version="1" timestamp="2022-08-19T15:47:55Z" changeset="125114391" uid="3497659" user="NKA">
		<tag k="alt_name" v="Mehl" />
		<tag k="name" v="Mel" />
		<tag k="place" v="farm" />
		<tag k="ssr:stedsnr" v="738559" />
	</node>
	<node id="9964200778" lat="61.8715472" lon="6.2365641" version="1" timestamp="2022-08-19T15:47:55Z" changeset="125114391" uid="3497659" user="NKA">
		<tag k="historic" v="shieling" />
		<tag k="name" v="Indre Hennestøylen" />
		<tag k="place" v="isolated_dwelling" />
		<tag k="ssr:stedsnr" v="799031" />
	</node>
	<node id="9964200779" lat="61.9141089" lon="6.0010517" version="1" timestamp="2022-08-19T15:47:55Z" changeset="125114391" uid="3497659" user="NKA">
		<tag k="name" v="Myroldhaugen" />
		<tag k="place" v="farm" />
		<tag k="ssr:stedsnr" v="20765" />
	</node>
	<node id="9964200780" lat="61.9040414" lon="6.0061974" version="1" timestamp="2022-08-19T15:47:55Z" changeset="125114391" uid="3497659" user="NKA">
		<tag k="name" v="Skipenes" />
		<tag k="place" v="hamlet" />
		<tag k="ssr:stedsnr" v="313590" />
	</node>
	<node id="9964200781" lat="61.9380361" lon="6.2490863" version="1" timestamp="2022-08-19T15:47:55Z" changeset="125114391" uid="3497659" user="NKA">
		<tag k="name" v="Stølen" />
		<tag k="place" v="locality" />
		<tag k="ssr:stedsnr" v="775974" />
	</node>
	<node id="9964200782" lat="61.9049411" lon="6.1577624" version="1" timestamp="2022-08-19T15:47:55Z" changeset="125114391" uid="3497659" user="NKA">
		<tag k="name" v="Skauset" />
		<tag k="place" v="farm" />
		<tag k="ssr:stedsnr" v="859562" />
	</node>
	<node id="9964200783" lat="61.9170111" lon="5.9930725" version="1" timestamp="2022-08-19T15:47:55Z" changeset="125114391" uid="3497659" user="NKA">
		<tag k="name" v="Myklebuståsen" />
		<tag k="place" v="neighbourhood" />
		<tag k="ssr:stedsnr" v="869761" />
	</node>
	<node id="9964200784" lat="61.920746" lon="6.1646284" version="1" timestamp="2022-08-19T15:47:55Z" changeset="125114391" uid="3497659" user="NKA">
		<tag k="name" v="Lindvika" />
		<tag k="place" v="farm" />
		<tag k="ssr:stedsnr" v="738567" />
	</node>
	<node id="9964200785" lat="61.9457861" lon="5.4255976" version="1" timestamp="2022-08-19T15:47:55Z" changeset="125114391" uid="3497659" user="NKA">
		<tag k="historic" v="shieling" />
		<tag k="name" v="Fjellstølen" />
		<tag k="place" v="isolated_dwelling" />
		<tag k="ssr:stedsnr" v="822936" />
	</node>
	<node id="9964200786" lat="62.0486444" lon="5.3181305" version="1" timestamp="2022-08-19T15:47:55Z" changeset="125114391" uid="3497659" user="NKA">
		<tag k="name" v="Selja" />
		<tag k="place" v="hamlet" />
		<tag k="ssr:stedsnr" v="352938" />
	</node>
	<node id="9964200787" lat="61.9378166" lon="5.9954559" version="1" timestamp="2022-08-19T15:47:55Z" changeset="125114391" uid="3497659" user="NKA">
		<tag k="historic" v="shieling" />
		<tag k="name" v="Fossane" />
		<tag k="place" v="isolated_dwelling" />
		<tag k="ssr:stedsnr" v="313513" />
	</node>
	<node id="9964200788" lat="61.9972861" lon="5.3844977" version="1" timestamp="2022-08-19T15:47:55Z" changeset="125114391" uid="3497659" user="NKA">
		<tag k="historic" v="shieling" />
		<tag k="name" v="Dyrstad" />
		<tag k="place" v="isolated_dwelling" />
		<tag k="ssr:stedsnr" v="595593" />
	</node>
	<node id="9964200789" lat="61.919337" lon="6.0490048" version="1" timestamp="2022-08-19T15:47:55Z" changeset="125114391" uid="3497659" user="NKA">
		<tag k="name" v="Hjelle" />
		<tag k="place" v="hamlet" />
		<tag k="ssr:stedsnr" v="495549" />
	</node>
	<node id="9964200790" lat="61.9175222" lon="5.9924059" version="1" timestamp="2022-08-19T15:47:55Z" changeset="125114391" uid="3497659" user="NKA">
		<tag k="name" v="Repolen" />
		<tag k="place" v="neighbourhood" />
		<tag k="ssr:stedsnr" v="897489" />
	</node>
	<node id="9964200791" lat="62.015654" lon="5.474937" version="1" timestamp="2022-08-19T15:47:55Z" changeset="125114391" uid="3497659" user="NKA">
		<tag k="name" v="Einehaugen" />
		<tag k="place" v="farm" />
		<tag k="ssr:stedsnr" v="800289" />
	</node>
	<node id="9964200792" lat="61.8639329" lon="6.1010888" version="1" timestamp="2022-08-19T15:47:55Z" changeset="125114391" uid="3497659" user="NKA">
		<tag k="name" v="Lotsberg" />
		<tag k="place" v="hamlet" />
		<tag k="ssr:stedsnr" v="1080316" />
	</node>
	<node id="9964200793" lat="61.9330646" lon="5.6547713" version="1" timestamp="2022-08-19T15:47:55Z" changeset="125114391" uid="3497659" user="NKA">
		<tag k="name" v="Sunndalen" />
		<tag k="place" v="hamlet" />
		<tag k="ssr:stedsnr" v="617472" />
	</node>
	<node id="9964200794" lat="61.9557582" lon="5.912188" version="1" timestamp="2022-08-19T15:47:55Z" changeset="125114391" uid="3497659" user="NKA">
		<tag k="name" v="Smørdalen" />
		<tag k="place" v="farm" />
		<tag k="ssr:stedsnr" v="71309" />
	</node>
	<node id="9964200795" lat="62.0390178" lon="5.3594693" version="1" timestamp="2022-08-19T15:47:55Z" changeset="125114391" uid="3497659" user="NKA">
		<tag k="name" v="Hamre" />
		<tag k="place" v="farm" />
		<tag k="ssr:stedsnr" v="799270" />
	</node>
	<node id="9964200796" lat="61.9314278" lon="5.907592" version="1" timestamp="2022-08-19T15:47:55Z" changeset="125114391" uid="3497659" user="NKA">
		<tag k="name" v="Slåttane" />
		<tag k="place" v="locality" />
		<tag k="ssr:stedsnr" v="45143" />
	</node>
	<node id="9964200797" lat="61.9331417" lon="5.3411116" version="1" timestamp="2022-08-19T15:47:55Z" changeset="125114391" uid="3497659" user="NKA">
		<tag k="historic" v="shieling" />
		<tag k="name" v="Setra" />
		<tag k="place" v="isolated_dwelling" />
		<tag k="ssr:stedsnr" v="761961" />
	</node>
	<node id="9964200798" lat="61.8931806" lon="5.9474559" version="1" timestamp="2022-08-19T15:47:55Z" changeset="125114391" uid="3497659" user="NKA">
		<tag k="alt_name" v="Taklosetra" />
		<tag k="historic" v="shieling" />
		<tag k="name" v="Taklosætra" />
		<tag k="place" v="isolated_dwelling" />
		<tag k="ssr:stedsnr" v="738583" />
	</node>
	<node id="9964200799" lat="61.8984987" lon="5.7995509" version="1" timestamp="2022-08-19T15:47:55Z" changeset="125114391" uid="3497659" user="NKA">
		<tag k="alt_name" v="Mørkesethaug;Mørkesæterhaugen" />
		<tag k="name" v="Haugstad" />
		<tag k="place" v="farm" />
		<tag k="ssr:stedsnr" v="930558" />
	</node>
	<node id="9964200800" lat="61.9202472" lon="5.8174225" version="1" timestamp="2022-08-19T15:47:55Z" changeset="125114391" uid="3497659" user="NKA">
		<tag k="name" v="Hjellen" />
		<tag k="place" v="locality" />
		<tag k="ssr:stedsnr" v="688530" />
	</node>
	<node id="9964200801" lat="62.0043665" lon="5.2603963" version="1" timestamp="2022-08-19T15:47:55Z" changeset="125114391" uid="3497659" user="NKA">
		<tag k="name" v="Solvåg" />
		<tag k="place" v="farm" />
		<tag k="ssr:stedsnr" v="596767" />
	</node>
	<node id="9964200802" lat="61.9448944" lon="5.8333087" version="1" timestamp="2022-08-19T15:47:55Z" changeset="125114391" uid="3497659" user="NKA">
		<tag k="name" v="Hammarenden" />
		<tag k="place" v="locality" />
		<tag k="ssr:stedsnr" v="44309" />
	</node>
	<node id="9964200803" lat="61.8952395" lon="5.8094356" version="1" timestamp="2022-08-19T15:47:55Z" changeset="125114391" uid="3497659" user="NKA">
		<tag k="historic" v="shieling" />
		<tag k="name" v="Sørlandssætra" />
		<tag k="place" v="isolated_dwelling" />
		<tag k="ssr:stedsnr" v="738386" />
	</node>
	<node id="9964200804" lat="61.900693" lon="5.9276648" version="1" timestamp="2022-08-19T15:47:55Z" changeset="125114391" uid="3497659" user="NKA">
		<tag k="name" v="Stranda" />
		<tag k="place" v="farm" />
		<tag k="ssr:stedsnr" v="738572" />
	</node>
	<node id="9964200805" lat="62.0082787" lon="5.45373" version="1" timestamp="2022-08-19T15:47:55Z" changeset="125114391" uid="3497659" user="NKA">
		<tag k="name" v="Teigen" />
		<tag k="place" v="farm" />
		<tag k="ssr:stedsnr" v="617228" />
	</node>
	<node id="9964200806" lat="61.9477179" lon="5.8277146" version="1" timestamp="2022-08-19T15:47:55Z" changeset="125114391" uid="3497659" user="NKA">
		<tag k="historic" v="shieling" />
		<tag k="name" v="Holesetra" />
		<tag k="place" v="isolated_dwelling" />
		<tag k="ssr:stedsnr" v="44302" />
	</node>
	<node id="9964200807" lat="61.8859361" lon="5.967253" version="1" timestamp="2022-08-19T15:47:55Z" changeset="125114391" uid="3497659" user="NKA">
		<tag k="historic" v="shieling" />
		<tag k="name" v="Dalssætra" />
		<tag k="place" v="isolated_dwelling" />
		<tag k="ssr:stedsnr" v="738618" />
	</node>
	<node id="9964200808" lat="61.9425111" lon="5.8441031" version="1" timestamp="2022-08-19T15:47:55Z" changeset="125114391" uid="3497659" user="NKA">
		<tag k="name" v="Nesesetra" />
		<tag k="place" v="locality" />
		<tag k="ssr:stedsnr" v="44009" />
	</node>
	<node id="9964200809" lat="61.856225" lon="6.1857808" version="1" timestamp="2022-08-19T15:47:55Z" changeset="125114391" uid="3497659" user="NKA">
		<tag k="alt_name" v="Loggstølen" />
		<tag k="historic" v="shieling" />
		<tag k="name" v="Logg" />
		<tag k="place" v="isolated_dwelling" />
		<tag k="ssr:stedsnr" v="495646" />
	</node>
	<node id="9964200810" lat="62.0234036" lon="5.3630596" version="1" timestamp="2022-08-19T15:47:55Z" changeset="125114391" uid="3497659" user="NKA">
		<tag k="name" v="Moldestad" />
		<tag k="place" v="hamlet" />
		<tag k="ssr:stedsnr" v="860359" />
	</node>
	<node id="9964200811" lat="61.8780028" lon="5.8899892" version="1" timestamp="2022-08-19T15:47:55Z" changeset="125114391" uid="3497659" user="NKA">
		<tag k="name" v="Hjellvika" />
		<tag k="place" v="locality" />
		<tag k="ssr:stedsnr" v="616628" />
	</node>
	<node id="9964200812" lat="62.0118188" lon="5.4719244" version="1" timestamp="2022-08-19T15:47:55Z" changeset="125114391" uid="3497659" user="NKA">
		<tag k="name" v="Sneide" />
		<tag k="place" v="farm" />
		<tag k="ssr:stedsnr" v="596491" />
	</node>
	<node id="9964200813" lat="61.9209395" lon="5.8931983" version="1" timestamp="2022-08-19T15:47:55Z" changeset="125114391" uid="3497659" user="NKA">
		<tag k="loc_name" v="Tippa" />
		<tag k="name" v="Haugland" />
		<tag k="place" v="hamlet" />
		<tag k="ssr:stedsnr" v="677536" />
	</node>
	<node id="9964200814" lat="61.9040253" lon="6.0134544" version="1" timestamp="2022-08-19T15:47:55Z" changeset="125114391" uid="3497659" user="NKA">
		<tag k="alt_name" v="Rotihaug" />
		<tag k="name" v="Rotihaugen" />
		<tag k="place" v="farm" />
		<tag k="ssr:stedsnr" v="313592" />
	</node>
	<node id="9964200815" lat="61.9174917" lon="5.9739698" version="1" timestamp="2022-08-19T15:47:55Z" changeset="125114391" uid="3497659" user="NKA">
		<tag k="name" v="Prestemarka" />
		<tag k="place" v="neighbourhood" />
		<tag k="ssr:stedsnr" v="20766" />
	</node>
	<node id="9964200816" lat="61.9110056" lon="6.0914585" version="1" timestamp="2022-08-19T15:47:55Z" changeset="125114391" uid="3497659" user="NKA">
		<tag k="name" v="Norbøen" />
		<tag k="place" v="farm" />
		<tag k="ssr:stedsnr" v="616587" />
	</node>
	<node id="9964200817" lat="61.8954136" lon="5.7537532" version="1" timestamp="2022-08-19T15:47:55Z" changeset="125114391" uid="3497659" user="NKA">
		<tag k="name" v="Vollset" />
		<tag k="place" v="farm" />
		<tag k="ssr:stedsnr" v="799446" />
	</node>
	<node id="9964200818" lat="62.15695" lon="5.3251616" version="1" timestamp="2022-08-19T15:47:55Z" changeset="125114391" uid="3497659" user="NKA">
		<tag k="alt_name" v="Klovet" />
		<tag k="name" v="Kløvet" />
		<tag k="place" v="farm" />
		<tag k="ssr:stedsnr" v="232867" />
	</node>
	<node id="9964200819" lat="62.1115417" lon="5.140384" version="1" timestamp="2022-08-19T15:47:55Z" changeset="125114391" uid="3497659" user="NKA">
		<tag k="name" v="Karomahytta" />
		<tag k="place" v="isolated_dwelling" />
		<tag k="ssr:stedsnr" v="678671" />
	</node>
	<node id="9964200820" lat="61.9326332" lon="5.816735" version="1" timestamp="2022-08-19T15:47:55Z" changeset="125114391" uid="3497659" user="NKA">
		<tag k="name" v="Ytre Remme" />
		<tag k="place" v="farm" />
		<tag k="ssr:stedsnr" v="688535" />
	</node>
	<node id="9964200821" lat="61.9338611" lon="5.7990254" version="1" timestamp="2022-08-19T15:47:55Z" changeset="125114391" uid="3497659" user="NKA">
		<tag k="name" v="Gamlesetra" />
		<tag k="place" v="locality" />
		<tag k="ssr:stedsnr" v="775917" />
	</node>
	<node id="9964200822" lat="62.0359914" lon="5.3852124" version="1" timestamp="2022-08-19T15:47:55Z" changeset="125114391" uid="3497659" user="NKA">
		<tag k="name" v="Nedre Berge" />
		<tag k="place" v="farm" />
		<tag k="ssr:stedsnr" v="978771" />
	</node>
	<node id="9964200823" lat="62.1252138" lon="5.3015478" version="1" timestamp="2022-08-19T15:47:55Z" changeset="125114391" uid="3497659" user="NKA">
		<tag k="name" v="Stave" />
		<tag k="place" v="neighbourhood" />
		<tag k="ssr:stedsnr" v="103264" />
	</node>
	<node id="9964200824" lat="62.1391069" lon="5.31206" version="1" timestamp="2022-08-19T15:47:55Z" changeset="125114391" uid="3497659" user="NKA">
		<tag k="name" v="Beitveit" />
		<tag k="place" v="hamlet" />
		<tag k="ssr:stedsnr" v="132421" />
	</node>
	<node id="9964200825" lat="61.941461" lon="6.1354663" version="1" timestamp="2022-08-19T15:47:55Z" changeset="125114391" uid="3497659" user="NKA">
		<tag k="historic" v="shieling" />
		<tag k="name" v="Liasetra" />
		<tag k="place" v="isolated_dwelling" />
		<tag k="ssr:stedsnr" v="471419" />
	</node>
	<node id="9964200826" lat="61.9655111" lon="5.9793891" version="1" timestamp="2022-08-19T15:47:55Z" changeset="125114391" uid="3497659" user="NKA">
		<tag k="historic" v="shieling" />
		<tag k="name" v="Bjørhovdesætra" />
		<tag k="place" v="isolated_dwelling" />
		<tag k="ssr:stedsnr" v="617299" />
	</node>
	<node id="9964200827" lat="62.1016444" lon="5.1457868" version="1" timestamp="2022-08-19T15:47:55Z" changeset="125114391" uid="3497659" user="NKA">
		<tag k="name" v="Køyla" />
		<tag k="place" v="locality" />
		<tag k="ssr:stedsnr" v="71717" />
	</node>
	<node id="9964200828" lat="61.9147438" lon="5.9561293" version="1" timestamp="2022-08-19T15:47:55Z" changeset="125114391" uid="3497659" user="NKA">
		<tag k="name" v="Ytre Skårhaug" />
		<tag k="place" v="farm" />
		<tag k="ssr:stedsnr" v="677560" />
	</node>
	<node id="9964200829" lat="61.87285" lon="5.7765865" version="1" timestamp="2022-08-19T15:47:55Z" changeset="125114391" uid="3497659" user="NKA">
		<tag k="name" v="Torneset" />
		<tag k="place" v="farm" />
		<tag k="ssr:stedsnr" v="677373" />
	</node>
	<node id="9964200830" lat="62.0290172" lon="5.3514299" version="1" timestamp="2022-08-19T15:47:55Z" changeset="125114391" uid="3497659" user="NKA">
		<tag k="name" v="Salt" />
		<tag k="place" v="hamlet" />
		<tag k="ssr:stedsnr" v="921263" />
	</node>
	<node id="9964200831" lat="62.140931" lon="5.2461263" version="1" timestamp="2022-08-19T15:47:55Z" changeset="125114391" uid="3497659" user="NKA">
		<tag k="name" v="Nygard" />
		<tag k="place" v="farm" />
		<tag k="ssr:stedsnr" v="11432" />
	</node>
	<node id="9964200832" lat="61.9212674" lon="5.8020426" version="1" timestamp="2022-08-19T15:47:55Z" changeset="125114391" uid="3497659" user="NKA">
		<tag k="name" v="Ytre Hafsås" />
		<tag k="place" v="farm" />
		<tag k="ssr:stedsnr" v="677390" />
	</node>
	<node id="9964200833" lat="61.8868167" lon="5.8765503" version="1" timestamp="2022-08-19T15:47:55Z" changeset="125114391" uid="3497659" user="NKA">
		<tag k="name" v="Hanshjellen" />
		<tag k="place" v="isolated_dwelling" />
		<tag k="ssr:stedsnr" v="616609" />
	</node>
	<node id="9964200834" lat="61.8973462" lon="5.8686901" version="1" timestamp="2022-08-19T15:47:55Z" changeset="125114391" uid="3497659" user="NKA">
		<tag k="name" v="Hundeidet" />
		<tag k="place" v="hamlet" />
		<tag k="ssr:stedsnr" v="388666" />
	</node>
	<node id="9964200835" lat="61.8686542" lon="5.8085816" version="1" timestamp="2022-08-19T15:47:55Z" changeset="125114391" uid="3497659" user="NKA">
		<tag k="name" v="Indre Torheim" />
		<tag k="place" v="farm" />
		<tag k="ssr:stedsnr" v="495349" />
	</node>
	<node id="9964200836" lat="61.9180687" lon="5.879254" version="1" timestamp="2022-08-19T15:47:55Z" changeset="125114391" uid="3497659" user="NKA">
		<tag k="name" v="Åsen" />
		<tag k="place" v="farm" />
		<tag k="ssr:stedsnr" v="384748" />
	</node>
	<node id="9964200837" lat="61.914953" lon="5.9669324" version="1" timestamp="2022-08-19T15:47:55Z" changeset="125114391" uid="3497659" user="NKA">
		<tag k="name" v="Indre Skårhaug" />
		<tag k="place" v="farm" />
		<tag k="ssr:stedsnr" v="373578" />
	</node>
	<node id="9964200838" lat="62.0215314" lon="5.3574531" version="1" timestamp="2022-08-19T15:47:55Z" changeset="125114391" uid="3497659" user="NKA">
		<tag k="alt_name" v="Lillesalt" />
		<tag k="name" v="Litlesalt" />
		<tag k="place" v="farm" />
		<tag k="ssr:stedsnr" v="739279" />
	</node>
	<node id="9964200839" lat="62.1434777" lon="5.2247978" version="1" timestamp="2022-08-19T15:47:55Z" changeset="125114391" uid="3497659" user="NKA">
		<tag k="name" v="Lyngbø" />
		<tag k="place" v="farm" />
		<tag k="ssr:stedsnr" v="496486" />
	</node>
	<node id="9964200840" lat="61.957525" lon="5.7614086" version="1" timestamp="2022-08-19T15:47:55Z" changeset="125114391" uid="3497659" user="NKA">
		<tag k="historic" v="shieling" />
		<tag k="name" v="Sætrebotnen" />
		<tag k="place" v="isolated_dwelling" />
		<tag k="ssr:stedsnr" v="313456" />
	</node>
	<node id="9964200841" lat="61.9697707" lon="5.2339231" version="1" timestamp="2022-08-19T15:47:55Z" changeset="125114391" uid="3497659" user="NKA">
		<tag k="alt_name" v="Øygarden" />
		<tag k="name" v="Oresæter" />
		<tag k="place" v="farm" />
		<tag k="ssr:stedsnr" v="535738" />
	</node>
	<node id="9964200842" lat="61.9234083" lon="5.9610781" version="1" timestamp="2022-08-19T15:47:55Z" changeset="125114391" uid="3497659" user="NKA">
		<tag k="historic" v="shieling" />
		<tag k="name" v="Indre Skårhaugsætra" />
		<tag k="place" v="isolated_dwelling" />
		<tag k="ssr:stedsnr" v="313540" />
	</node>
	<node id="9964200843" lat="62.1558945" lon="5.2746839" version="1" timestamp="2022-08-19T15:47:55Z" changeset="125114391" uid="3497659" user="NKA">
		<tag k="historic" v="shieling" />
		<tag k="name" v="Stølen" />
		<tag k="place" v="isolated_dwelling" />
		<tag k="ssr:stedsnr" v="474136" />
	</node>
	<node id="9964200844" lat="61.9449695" lon="5.4041087" version="1" timestamp="2022-08-19T15:47:55Z" changeset="125114391" uid="3497659" user="NKA">
		<tag k="name" v="Gjesdal" />
		<tag k="place" v="farm" />
		<tag k="ssr:stedsnr" v="252787" />
	</node>
	<node id="9964200845" lat="61.9320447" lon="5.7605789" version="1" timestamp="2022-08-19T15:47:55Z" changeset="125114391" uid="3497659" user="NKA">
		<tag k="name" v="Berget" />
		<tag k="place" v="farm" />
		<tag k="ssr:stedsnr" v="253486" />
	</node>
	<node id="9964200846" lat="62.1983649" lon="5.1864191" version="1" timestamp="2022-08-19T15:47:55Z" changeset="125114391" uid="3497659" user="NKA">
		<tag k="name" v="Ytre Honningsvågen" />
		<tag k="place" v="hamlet" />
		<tag k="ssr:stedsnr" v="445303" />
	</node>
	<node id="9964200847" lat="62.036492" lon="5.3818262" version="1" timestamp="2022-08-19T15:47:55Z" changeset="125114391" uid="3497659" user="NKA">
		<tag k="name" v="Bortnen" />
		<tag k="place" v="farm" />
		<tag k="ssr:stedsnr" v="435279" />
	</node>
	<node id="9964200848" lat="61.9681125" lon="5.4114786" version="1" timestamp="2022-08-19T15:47:55Z" changeset="125114391" uid="3497659" user="NKA">
		<tag k="historic" v="shieling" />
		<tag k="name" v="Myklebustsætra" />
		<tag k="place" v="isolated_dwelling" />
		<tag k="ssr:stedsnr" v="253798" />
	</node>
	<node id="9964200849" lat="61.8925944" lon="5.975428" version="1" timestamp="2022-08-19T15:47:55Z" changeset="125114391" uid="3497659" user="NKA">
		<tag k="alt_name" v="Ossetra" />
		<tag k="historic" v="shieling" />
		<tag k="name" v="Ossætra" />
		<tag k="place" v="isolated_dwelling" />
		<tag k="ssr:stedsnr" v="252558" />
	</node>
	<node id="9964200850" lat="61.9831108" lon="5.3053326" version="1" timestamp="2022-08-19T15:47:55Z" changeset="125114391" uid="3497659" user="NKA">
		<tag k="name" v="Flister" />
		<tag k="place" v="farm" />
		<tag k="ssr:stedsnr" v="232773" />
	</node>
	<node id="9964200851" lat="61.9202001" lon="5.7651818" version="1" timestamp="2022-08-19T15:47:55Z" changeset="125114391" uid="3497659" user="NKA">
		<tag k="name" v="Stårheimsvik" />
		<tag k="place" v="farm" />
		<tag k="ssr:stedsnr" v="168536" />
	</node>
	<node id="9964200852" lat="62.0217525" lon="5.3517364" version="1" timestamp="2022-08-19T15:47:55Z" changeset="125114391" uid="3497659" user="NKA">
		<tag k="name" v="Sjøaker" />
		<tag k="place" v="farm" />
		<tag k="ssr:stedsnr" v="56881" />
	</node>
	<node id="9964200853" lat="61.9240111" lon="6.0850003" version="1" timestamp="2022-08-19T15:47:55Z" changeset="125114391" uid="3497659" user="NKA">
		<tag k="name" v="Lyngvoll" />
		<tag k="place" v="farm" />
		<tag k="ssr:stedsnr" v="495547" />
	</node>
	<node id="9964200854" lat="61.9291027" lon="5.7890336" version="1" timestamp="2022-08-19T15:47:55Z" changeset="125114391" uid="3497659" user="NKA">
		<tag k="historic" v="shieling" />
		<tag k="name" v="Myroldstøylen" />
		<tag k="place" v="isolated_dwelling" />
		<tag k="ssr:stedsnr" v="131428" />
	</node>
	<node id="9964200855" lat="61.987511" lon="5.2599454" version="1" timestamp="2022-08-19T15:47:55Z" changeset="125114391" uid="3497659" user="NKA">
		<tag k="name" v="Venøya" />
		<tag k="place" v="farm" />
		<tag k="ssr:stedsnr" v="10881" />
	</node>
	<node id="9964200856" lat="62.1096459" lon="5.3400677" version="1" timestamp="2022-08-19T15:47:55Z" changeset="125114391" uid="3497659" user="NKA">
		<tag k="name" v="Sande" />
		<tag k="place" v="neighbourhood" />
		<tag k="ssr:stedsnr" v="921404" />
	</node>
	<node id="9964200857" lat="61.9120892" lon="6.0958007" version="1" timestamp="2022-08-19T15:47:55Z" changeset="125114391" uid="3497659" user="NKA">
		<tag k="name" v="Nor" />
		<tag k="place" v="hamlet" />
		<tag k="ssr:stedsnr" v="495590" />
	</node>
	<node id="9964200858" lat="62.0219028" lon="5.3919462" version="1" timestamp="2022-08-19T15:47:55Z" changeset="125114391" uid="3497659" user="NKA">
		<tag k="name" v="Hatleneset" />
		<tag k="place" v="hamlet" />
		<tag k="ssr:stedsnr" v="11289" />
	</node>
	<node id="9964200859" lat="61.9217668" lon="5.9081879" version="1" timestamp="2022-08-19T15:47:55Z" changeset="125114391" uid="3497659" user="NKA">
		<tag k="name" v="Ytrelid" />
		<tag k="place" v="farm" />
		<tag k="ssr:stedsnr" v="980647" />
	</node>
	<node id="9964200860" lat="61.9198436" lon="6.1985075" version="1" timestamp="2022-08-19T15:47:55Z" changeset="125114391" uid="3497659" user="NKA">
		<tag k="name" v="Flatene" />
		<tag k="place" v="farm" />
		<tag k="ssr:stedsnr" v="252533" />
	</node>
	<node id="9964200861" lat="61.9173958" lon="5.3543506" version="1" timestamp="2022-08-19T15:47:55Z" changeset="125114391" uid="3497659" user="NKA">
		<tag k="name" v="Krokeide" />
		<tag k="place" v="farm" />
		<tag k="ssr:stedsnr" v="883670" />
	</node>
	<node id="9964200862" lat="61.8668763" lon="6.2280559" version="1" timestamp="2022-08-19T15:47:55Z" changeset="125114391" uid="3497659" user="NKA">
		<tag k="name" v="Lahaugen" />
		<tag k="place" v="farm" />
		<tag k="ssr:stedsnr" v="374061" />
	</node>
	<node id="9964200863" lat="61.9574335" lon="5.9328025" version="1" timestamp="2022-08-19T15:47:55Z" changeset="125114391" uid="3497659" user="NKA">
		<tag k="name" v="Gamlelø" />
		<tag k="place" v="locality" />
		<tag k="ssr:stedsnr" v="47906" />
	</node>
	<node id="9964200864" lat="61.9566558" lon="5.9292239" version="1" timestamp="2022-08-19T15:47:55Z" changeset="125114391" uid="3497659" user="NKA">
		<tag k="name" v="Harpefossen" />
		<tag k="place" v="village" />
		<tag k="ssr:stedsnr" v="754481" />
	</node>
	<node id="9964200865" lat="61.8945575" lon="5.7810934" version="1" timestamp="2022-08-19T15:47:55Z" changeset="125114391" uid="3497659" user="NKA">
		<tag k="alt_name" v="Skareide" />
		<tag k="name" v="Skaret" />
		<tag k="place" v="farm" />
		<tag k="ssr:stedsnr" v="738387" />
	</node>
	<node id="9964200866" lat="62.0449" lon="5.3161228" version="1" timestamp="2022-08-19T15:47:55Z" changeset="125114391" uid="3497659" user="NKA">
		<tag k="name" v="Tunål" />
		<tag k="place" v="farm" />
		<tag k="ssr:stedsnr" v="192383" />
	</node>
	<node id="9964200867" lat="62.1362584" lon="5.2655173" version="1" timestamp="2022-08-19T15:47:55Z" changeset="125114391" uid="3497659" user="NKA">
		<tag k="name" v="Morka" />
		<tag k="place" v="farm" />
		<tag k="ssr:stedsnr" v="193455" />
	</node>
	<node id="9964200868" lat="61.8521797" lon="6.1286135" version="1" timestamp="2022-08-19T15:47:55Z" changeset="125114391" uid="3497659" user="NKA">
		<tag k="name" v="Ytre Åsane" />
		<tag k="place" v="farm" />
		<tag k="ssr:stedsnr" v="70638" />
	</node>
	<node id="9964200869" lat="61.9488584" lon="5.7584014" version="1" timestamp="2022-08-19T15:47:55Z" changeset="125114391" uid="3497659" user="NKA">
		<tag k="historic" v="shieling" />
		<tag k="name" v="Sigrona" />
		<tag k="place" v="hamlet" />
		<tag k="ssr:stedsnr" v="71516" />
	</node>
	<node id="9964200870" lat="61.9027927" lon="6.1536131" version="1" timestamp="2022-08-19T15:47:55Z" changeset="125114391" uid="3497659" user="NKA">
		<tag k="name" v="Skogstad" />
		<tag k="place" v="farm" />
		<tag k="ssr:stedsnr" v="738606" />
	</node>
	<node id="9964200871" lat="61.9174394" lon="5.8797541" version="1" timestamp="2022-08-19T15:47:55Z" changeset="125114391" uid="3497659" user="NKA">
		<tag k="name" v="Semsberg" />
		<tag k="place" v="farm" />
		<tag k="ssr:stedsnr" v="920534" />
	</node>
	<node id="9964200872" lat="62.0255166" lon="5.2716561" version="1" timestamp="2022-08-19T15:47:55Z" changeset="125114391" uid="3497659" user="NKA">
		<tag k="name" v="Ekrevoll" />
		<tag k="place" v="farm" />
		<tag k="ssr:stedsnr" v="193300" />
	</node>
	<node id="9964200873" lat="61.9362732" lon="5.4159594" version="1" timestamp="2022-08-19T15:47:55Z" changeset="125114391" uid="3497659" user="NKA">
		<tag k="name" v="Hessevika" />
		<tag k="place" v="farm" />
		<tag k="ssr:stedsnr" v="192253" />
	</node>
	<node id="9964200874" lat="61.9142325" lon="5.7081509" version="1" timestamp="2022-08-19T15:47:55Z" changeset="125114391" uid="3497659" user="NKA">
		<tag k="name" v="Øvre Høynes" />
		<tag k="place" v="farm" />
		<tag k="ssr:stedsnr" v="987301" />
	</node>
	<node id="9964200875" lat="61.9274305" lon="5.9198864" version="1" timestamp="2022-08-19T15:47:55Z" changeset="125114391" uid="3497659" user="NKA">
		<tag k="alt_name" v="Lidasetra" />
		<tag k="historic" v="shieling" />
		<tag k="name" v="Liasætra" />
		<tag k="place" v="isolated_dwelling" />
		<tag k="ssr:stedsnr" v="920511" />
	</node>
	<node id="9964200876" lat="62.0940092" lon="5.3711673" version="1" timestamp="2022-08-19T15:47:55Z" changeset="125114391" uid="3497659" user="NKA">
		<tag k="name" v="Fløde" />
		<tag k="place" v="hamlet" />
		<tag k="ssr:stedsnr" v="860487" />
	</node>
	<node id="9964200877" lat="61.8612526" lon="6.2264928" version="1" timestamp="2022-08-19T15:47:55Z" changeset="125114391" uid="3497659" user="NKA">
		<tag k="name" v="Indre Hennane" />
		<tag k="place" v="farm" />
		<tag k="ssr:stedsnr" v="738060" />
	</node>
	<node id="9964200878" lat="62.036625" lon="5.362231" version="1" timestamp="2022-08-19T15:47:55Z" changeset="125114391" uid="3497659" user="NKA">
		<tag k="alt_name" v="Hammersvik;Hammervik" />
		<tag k="name" v="Hamarsvik" />
		<tag k="place" v="farm" />
		<tag k="ssr:stedsnr" v="838926" />
	</node>
	<node id="9964200879" lat="61.9041417" lon="5.9995864" version="1" timestamp="2022-08-19T15:47:55Z" changeset="125114391" uid="3497659" user="NKA">
		<tag k="name" v="Øyane" />
		<tag k="place" v="neighbourhood" />
		<tag k="ssr:stedsnr" v="815330" />
	</node>
	<node id="9964200880" lat="61.9141128" lon="5.8654945" version="1" timestamp="2022-08-19T15:47:55Z" changeset="125114391" uid="3497659" user="NKA">
		<tag k="name" v="Løkjastranda" />
		<tag k="place" v="neighbourhood" />
		<tag k="ssr:stedsnr" v="876331" />
	</node>
	<node id="9964200881" lat="61.9011744" lon="5.8917215" version="1" timestamp="2022-08-19T15:47:55Z" changeset="125114391" uid="3497659" user="NKA">
		<tag k="name" v="Sætre" />
		<tag k="place" v="farm" />
		<tag k="ssr:stedsnr" v="799591" />
	</node>
	<node id="9964200882" lat="61.9321945" lon="6.0453281" version="1" timestamp="2022-08-19T15:47:55Z" changeset="125114391" uid="3497659" user="NKA">
		<tag k="historic" v="shieling" />
		<tag k="name" v="Alsåkersætra" />
		<tag k="place" v="isolated_dwelling" />
		<tag k="ssr:stedsnr" v="799563" />
	</node>
	<node id="9964200883" lat="61.8931806" lon="6.0125502" version="1" timestamp="2022-08-19T15:47:55Z" changeset="125114391" uid="3497659" user="NKA">
		<tag k="historic" v="shieling" />
		<tag k="name" v="Skipenessætra" />
		<tag k="place" v="isolated_dwelling" />
		<tag k="ssr:stedsnr" v="809748" />
	</node>
	<node id="9964200884" lat="61.8884278" lon="5.9085252" version="1" timestamp="2022-08-19T15:47:55Z" changeset="125114391" uid="3497659" user="NKA">
		<tag k="historic" v="shieling" />
		<tag k="name" v="Øygarden" />
		<tag k="place" v="isolated_dwelling" />
		<tag k="ssr:stedsnr" v="860649" />
	</node>
	<node id="9964200885" lat="61.9236" lon="6.0884114" version="1" timestamp="2022-08-19T15:47:55Z" changeset="125114391" uid="3497659" user="NKA">
		<tag k="name" v="Lyngstad" />
		<tag k="place" v="farm" />
		<tag k="ssr:stedsnr" v="798522" />
	</node>
	<node id="9964200886" lat="61.9390062" lon="6.0915924" version="1" timestamp="2022-08-19T15:47:55Z" changeset="125114391" uid="3497659" user="NKA">
		<tag k="alt_name" v="Hjellesetra" />
		<tag k="historic" v="shieling" />
		<tag k="name" v="Hjellesætra" />
		<tag k="place" v="hamlet" />
		<tag k="ssr:stedsnr" v="799535" />
	</node>
	<node id="9964200887" lat="61.8795166" lon="5.8985142" version="1" timestamp="2022-08-19T15:47:55Z" changeset="125114391" uid="3497659" user="NKA">
		<tag k="name" v="Rotvika" />
		<tag k="place" v="farm" />
		<tag k="ssr:stedsnr" v="860673" />
	</node>
	<node id="9964200888" lat="62.0561472" lon="5.346606" version="1" timestamp="2022-08-19T15:47:55Z" changeset="125114391" uid="3497659" user="NKA">
		<tag k="name" v="Stranda" />
		<tag k="place" v="hamlet" />
		<tag k="ssr:stedsnr" v="413984" />
	</node>
	<node id="9964200889" lat="61.9263592" lon="5.7650592" version="1" timestamp="2022-08-19T15:47:55Z" changeset="125114391" uid="3497659" user="NKA">
		<tag k="name" v="Hola" />
		<tag k="place" v="hamlet" />
		<tag k="ssr:stedsnr" v="870538" />
	</node>
	<node id="9964200890" lat="61.9535972" lon="5.9370059" version="1" timestamp="2022-08-19T15:47:55Z" changeset="125114391" uid="3497659" user="NKA">
		<tag k="historic" v="shieling" />
		<tag k="name" v="Mørsætra" />
		<tag k="place" v="isolated_dwelling" />
		<tag k="ssr:stedsnr" v="870455" />
	</node>
	<node id="9964200891" lat="61.946152" lon="5.8039052" version="1" timestamp="2022-08-19T15:47:55Z" changeset="125114391" uid="3497659" user="NKA">
		<tag k="historic" v="shieling" />
		<tag k="name" v="Remmesætra" />
		<tag k="place" v="isolated_dwelling" />
		<tag k="ssr:stedsnr" v="192507" />
	</node>
	<node id="9964200892" lat="61.9218416" lon="5.955692" version="1" timestamp="2022-08-19T15:47:55Z" changeset="125114391" uid="3497659" user="NKA">
		<tag k="historic" v="shieling" />
		<tag k="name" v="Ytre Skårhaugsætra" />
		<tag k="place" v="isolated_dwelling" />
		<tag k="ssr:stedsnr" v="192568" />
	</node>
	<node id="9964200893" lat="61.9206584" lon="5.709506" version="1" timestamp="2022-08-19T15:47:55Z" changeset="125114391" uid="3497659" user="NKA">
		<tag k="alt_name" v="Høynessetra" />
		<tag k="historic" v="shieling" />
		<tag k="name" v="Høynessætra" />
		<tag k="place" v="isolated_dwelling" />
		<tag k="ssr:stedsnr" v="738418" />
	</node>
	<node id="9964200894" lat="61.9278166" lon="6.1147336" version="1" timestamp="2022-08-19T15:47:55Z" changeset="125114391" uid="3497659" user="NKA">
		<tag k="name" v="Kviebakk" />
		<tag k="place" v="farm" />
		<tag k="ssr:stedsnr" v="495545" />
	</node>
	<node id="9964200895" lat="61.9222861" lon="5.7247142" version="1" timestamp="2022-08-19T15:47:55Z" changeset="125114391" uid="3497659" user="NKA">
		<tag k="historic" v="shieling" />
		<tag k="name" v="Legene" />
		<tag k="place" v="isolated_dwelling" />
		<tag k="ssr:stedsnr" v="192490" />
	</node>
	<node id="9964200896" lat="61.9007389" lon="6.0112697" version="1" timestamp="2022-08-19T15:47:55Z" changeset="125114391" uid="3497659" user="NKA">
		<tag k="name" v="Gardstølen" />
		<tag k="place" v="locality" />
		<tag k="ssr:stedsnr" v="472641" />
	</node>
	<node id="9964200897" lat="62.0806028" lon="5.285484" version="1" timestamp="2022-08-19T15:47:55Z" changeset="125114391" uid="3497659" user="NKA">
		<tag k="name" v="Rydejorda" />
		<tag k="place" v="farm" />
		<tag k="ssr:stedsnr" v="535819" />
	</node>
	<node id="9964200898" lat="61.8734457" lon="6.107894" version="1" timestamp="2022-08-19T15:47:55Z" changeset="125114391" uid="3497659" user="NKA">
		<tag k="historic" v="shieling" />
		<tag k="name" v="Lotsstøylen" />
		<tag k="place" v="hamlet" />
		<tag k="ssr:stedsnr" v="435660" />
	</node>
	<node id="9964200899" lat="62.0728527" lon="5.3388617" version="1" timestamp="2022-08-19T15:47:55Z" changeset="125114391" uid="3497659" user="NKA">
		<tag k="historic" v="shieling" />
		<tag k="name" v="Tørnesstølen" />
		<tag k="place" v="isolated_dwelling" />
		<tag k="ssr:stedsnr" v="292975" />
	</node>
	<node id="9964200900" lat="61.9540389" lon="5.9464114" version="1" timestamp="2022-08-19T15:47:55Z" changeset="125114391" uid="3497659" user="NKA">
		<tag k="historic" v="shieling" />
		<tag k="name" v="Nakken" />
		<tag k="place" v="isolated_dwelling" />
		<tag k="ssr:stedsnr" v="860322" />
	</node>
	<node id="9964200901" lat="61.9196556" lon="5.7281587" version="1" timestamp="2022-08-19T15:47:55Z" changeset="125114391" uid="3497659" user="NKA">
		<tag k="alt_name" v="Botnasetra" />
		<tag k="historic" v="shieling" />
		<tag k="name" v="Botnesætra" />
		<tag k="place" v="isolated_dwelling" />
		<tag k="ssr:stedsnr" v="859389" />
	</node>
	<node id="9964200902" lat="61.9272983" lon="5.5659949" version="1" timestamp="2022-08-19T15:47:55Z" changeset="125114391" uid="3497659" user="NKA">
		<tag k="name" v="Etterdal" />
		<tag k="place" v="farm" />
		<tag k="ssr:stedsnr" v="799458" />
	</node>
	<node id="9964200903" lat="61.9734916" lon="5.2323923" version="1" timestamp="2022-08-19T15:47:55Z" changeset="125114391" uid="3497659" user="NKA">
		<tag k="name" v="Bakken" />
		<tag k="place" v="farm" />
		<tag k="ssr:stedsnr" v="778734" />
	</node>
	<node id="9964200904" lat="61.8904755" lon="5.7600556" version="1" timestamp="2022-08-19T15:47:55Z" changeset="125114391" uid="3497659" user="NKA">
		<tag k="historic" v="shieling" />
		<tag k="name" v="Hamnnessætra" />
		<tag k="place" v="isolated_dwelling" />
		<tag k="ssr:stedsnr" v="859391" />
	</node>
	<node id="9964200905" lat="61.9019" lon="6.0889696" version="1" timestamp="2022-08-19T15:47:55Z" changeset="125114391" uid="3497659" user="NKA">
		<tag k="historic" v="shieling" />
		<tag k="name" v="Norsætra" />
		<tag k="place" v="isolated_dwelling" />
		<tag k="ssr:stedsnr" v="556630" />
	</node>
	<node id="9964200906" lat="61.9279666" lon="6.3870085" version="1" timestamp="2022-08-19T15:47:55Z" changeset="125114391" uid="3497659" user="NKA">
		<tag k="name" v="Jakoblada" />
		<tag k="place" v="locality" />
		<tag k="ssr:stedsnr" v="653790" />
	</node>
	<node id="9964200907" lat="61.8690695" lon="6.220217" version="1" timestamp="2022-08-19T15:47:55Z" changeset="125114391" uid="3497659" user="NKA">
		<tag k="historic" v="shieling" />
		<tag k="name" v="Bakkestøylen" />
		<tag k="place" v="isolated_dwelling" />
		<tag k="ssr:stedsnr" v="555047" />
	</node>
	<node id="9964200908" lat="62.0735306" lon="5.3941532" version="1" timestamp="2022-08-19T15:47:55Z" changeset="125114391" uid="3497659" user="NKA">
		<tag k="historic" v="shieling" />
		<tag k="name" v="Nesestølen" />
		<tag k="place" v="isolated_dwelling" />
		<tag k="ssr:stedsnr" v="777991" />
	</node>
	<node id="9964200909" lat="61.945965" lon="5.4515412" version="1" timestamp="2022-08-19T15:47:55Z" changeset="125114391" uid="3497659" user="NKA">
		<tag k="name" v="Heggedal" />
		<tag k="place" v="hamlet" />
		<tag k="ssr:stedsnr" v="738829" />
	</node>
	<node id="9964200910" lat="61.9400386" lon="5.6416694" version="1" timestamp="2022-08-19T15:47:55Z" changeset="125114391" uid="3497659" user="NKA">
		<tag k="name" v="Hatlegjerde" />
		<tag k="place" v="farm" />
		<tag k="ssr:stedsnr" v="616483" />
	</node>
	<node id="9964200911" lat="61.9267861" lon="5.6885447" version="1" timestamp="2022-08-19T15:47:55Z" changeset="125114391" uid="3497659" user="NKA">
		<tag k="alt_name" v="Reksnessetrane" />
		<tag k="historic" v="shieling" />
		<tag k="name" v="Reksnessætra" />
		<tag k="place" v="isolated_dwelling" />
		<tag k="ssr:stedsnr" v="677459" />
	</node>
	<node id="9964200912" lat="61.9230288" lon="5.5819122" version="1" timestamp="2022-08-19T15:47:55Z" changeset="125114391" uid="3497659" user="NKA">
		<tag k="name" v="Haus" />
		<tag k="place" v="hamlet" />
		<tag k="ssr:stedsnr" v="677447" />
	</node>
	<node id="9964200913" lat="62.055389" lon="5.4414703" version="1" timestamp="2022-08-19T15:47:55Z" changeset="125114391" uid="3497659" user="NKA">
		<tag k="name" v="Sletteberget" />
		<tag k="place" v="farm" />
		<tag k="ssr:stedsnr" v="617370" />
	</node>
	<node id="9964200914" lat="61.9400919" lon="5.392934" version="1" timestamp="2022-08-19T15:47:55Z" changeset="125114391" uid="3497659" user="NKA">
		<tag k="name" v="Berget" />
		<tag k="place" v="farm" />
		<tag k="ssr:stedsnr" v="738244" />
	</node>
	<node id="9964200915" lat="61.9591861" lon="5.3240284" version="1" timestamp="2022-08-19T15:47:55Z" changeset="125114391" uid="3497659" user="NKA">
		<tag k="historic" v="shieling" />
		<tag k="name" v="Kverneviksætra" />
		<tag k="place" v="isolated_dwelling" />
		<tag k="ssr:stedsnr" v="677800" />
	</node>
	<node id="9964200916" lat="61.9490083" lon="5.6448671" version="1" timestamp="2022-08-19T15:47:55Z" changeset="125114391" uid="3497659" user="NKA">
		<tag k="historic" v="shieling" />
		<tag k="name" v="Dalssætra" />
		<tag k="place" v="isolated_dwelling" />
		<tag k="ssr:stedsnr" v="616455" />
	</node>
	<node id="9964200917" lat="62.0343389" lon="5.4862088" version="1" timestamp="2022-08-19T15:47:55Z" changeset="125114391" uid="3497659" user="NKA">
		<tag k="name" v="Langeneset" />
		<tag k="place" v="farm" />
		<tag k="ssr:stedsnr" v="314292" />
	</node>
	<node id="9964200918" lat="61.9228482" lon="5.6408123" version="1" timestamp="2022-08-19T15:47:55Z" changeset="125114391" uid="3497659" user="NKA">
		<tag k="name" v="Homborstad" />
		<tag k="place" v="hamlet" />
		<tag k="ssr:stedsnr" v="373467" />
	</node>
	<node id="9964200919" lat="61.9664278" lon="5.43777" version="1" timestamp="2022-08-19T15:47:55Z" changeset="125114391" uid="3497659" user="NKA">
		<tag k="historic" v="shieling" />
		<tag k="name" v="Sollida" />
		<tag k="place" v="isolated_dwelling" />
		<tag k="ssr:stedsnr" v="192818" />
	</node>
	<node id="9964200920" lat="61.9643444" lon="5.526656" version="1" timestamp="2022-08-19T15:47:55Z" changeset="125114391" uid="3497659" user="NKA">
		<tag k="historic" v="shieling" />
		<tag k="name" v="Høgelida" />
		<tag k="place" v="isolated_dwelling" />
		<tag k="ssr:stedsnr" v="373017" />
	</node>
	<node id="9964200921" lat="62.0302" lon="5.4817893" version="1" timestamp="2022-08-19T15:47:55Z" changeset="125114391" uid="3497659" user="NKA">
		<tag k="name" v="Indrebø" />
		<tag k="place" v="farm" />
		<tag k="ssr:stedsnr" v="860375" />
	</node>
	<node id="9964200922" lat="61.943075" lon="5.6185503" version="1" timestamp="2022-08-19T15:47:55Z" changeset="125114391" uid="3497659" user="NKA">
		<tag k="historic" v="shieling" />
		<tag k="name" v="Stigen" />
		<tag k="place" v="isolated_dwelling" />
		<tag k="ssr:stedsnr" v="495487" />
	</node>
	<node id="9964200923" lat="61.9348083" lon="5.7765393" version="1" timestamp="2022-08-19T15:47:55Z" changeset="125114391" uid="3497659" user="NKA">
		<tag k="historic" v="shieling" />
		<tag k="name" v="Ospesetra" />
		<tag k="place" v="isolated_dwelling" />
		<tag k="ssr:stedsnr" v="775932" />
	</node>
	<node id="9964200924" lat="61.9478206" lon="5.4685689" version="1" timestamp="2022-08-19T15:47:55Z" changeset="125114391" uid="3497659" user="NKA">
		<tag k="name" v="Brubakken" />
		<tag k="place" v="farm" />
		<tag k="ssr:stedsnr" v="131454" />
	</node>
	<node id="9964200925" lat="61.9314364" lon="5.5832337" version="1" timestamp="2022-08-19T15:47:55Z" changeset="125114391" uid="3497659" user="NKA">
		<tag k="name" v="Ramnefjellet" />
		<tag k="place" v="farm" />
		<tag k="ssr:stedsnr" v="435488" />
	</node>
	<node id="9964200926" lat="61.9421349" lon="6.1442189" version="1" timestamp="2022-08-19T15:47:55Z" changeset="125114391" uid="3497659" user="NKA">
		<tag k="historic" v="shieling" />
		<tag k="name" v="Storesætra" />
		<tag k="place" v="hamlet" />
		<tag k="ssr:stedsnr" v="131504" />
	</node>
	<node id="9964200927" lat="61.9055185" lon="6.1341064" version="1" timestamp="2022-08-19T15:47:55Z" changeset="125114391" uid="3497659" user="NKA">
		<tag k="name" v="Nes" />
		<tag k="place" v="hamlet" />
		<tag k="ssr:stedsnr" v="146007" />
	</node>
	<node id="9964200928" lat="61.9586583" lon="5.2365201" version="1" timestamp="2022-08-19T15:47:55Z" changeset="125114391" uid="3497659" user="NKA">
		<tag k="historic" v="shieling" />
		<tag k="name" v="Setrekupene" />
		<tag k="place" v="isolated_dwelling" />
		<tag k="ssr:stedsnr" v="596719" />
	</node>
	<node id="9964200929" lat="62.0385451" lon="5.3853936" version="1" timestamp="2022-08-19T15:47:55Z" changeset="125114391" uid="3497659" user="NKA">
		<tag k="name" v="Øvre Berge" />
		<tag k="place" v="farm" />
		<tag k="ssr:stedsnr" v="978769" />
	</node>
	<node id="9964200930" lat="62.0546361" lon="5.3648476" version="1" timestamp="2022-08-19T15:47:55Z" changeset="125114391" uid="3497659" user="NKA">
		<tag k="historic" v="shieling" />
		<tag k="name" v="Setra" />
		<tag k="place" v="isolated_dwelling" />
		<tag k="ssr:stedsnr" v="777945" />
	</node>
	<node id="9964200931" lat="61.9241971" lon="5.6308783" version="1" timestamp="2022-08-19T15:47:55Z" changeset="125114391" uid="3497659" user="NKA">
		<tag k="name" v="Kjølsdalen" />
		<tag k="place" v="hamlet" />
		<tag k="ssr:stedsnr" v="920443" />
	</node>
	<node id="9964200932" lat="62.005893" lon="5.4514834" version="1" timestamp="2022-08-19T15:47:55Z" changeset="125114391" uid="3497659" user="NKA">
		<tag k="name" v="Store Kjøde" />
		<tag k="place" v="farm" />
		<tag k="ssr:stedsnr" v="254173" />
	</node>
	<node id="9964200933" lat="61.9244552" lon="5.5913318" version="1" timestamp="2022-08-19T15:47:55Z" changeset="125114391" uid="3497659" user="NKA">
		<tag k="name" v="Gillesdalen" />
		<tag k="place" v="farm" />
		<tag k="ssr:stedsnr" v="20549" />
	</node>
	<node id="9964200934" lat="61.9274073" lon="5.4651409" version="1" timestamp="2022-08-19T15:47:55Z" changeset="125114391" uid="3497659" user="NKA">
		<tag k="name" v="Åsnes" />
		<tag k="place" v="farm" />
		<tag k="ssr:stedsnr" v="799241" />
	</node>
	<node id="9964200935" lat="61.9458083" lon="5.5809503" version="1" timestamp="2022-08-19T15:47:55Z" changeset="125114391" uid="3497659" user="NKA">
		<tag k="historic" v="shieling" />
		<tag k="name" v="Vassdalen" />
		<tag k="place" v="isolated_dwelling" />
		<tag k="ssr:stedsnr" v="738460" />
	</node>
	<node id="9964200936" lat="61.9850063" lon="5.2898663" version="1" timestamp="2022-08-19T15:47:55Z" changeset="125114391" uid="3497659" user="NKA">
		<tag k="name" v="Sandvik" />
		<tag k="place" v="farm" />
		<tag k="ssr:stedsnr" v="252730" />
	</node>
	<node id="9964200937" lat="61.9634043" lon="5.4921923" version="1" timestamp="2022-08-19T15:47:55Z" changeset="125114391" uid="3497659" user="NKA">
		<tag k="name" v="Nave" />
		<tag k="place" v="hamlet" />
		<tag k="ssr:stedsnr" v="313030" />
	</node>
	<node id="9964200938" lat="61.9601694" lon="5.4863311" version="1" timestamp="2022-08-19T15:47:55Z" changeset="125114391" uid="3497659" user="NKA">
		<tag k="alt_name" v="Øyehaug" />
		<tag k="name" v="Øyehaugen" />
		<tag k="place" v="farm" />
		<tag k="ssr:stedsnr" v="859001" />
	</node>
	<node id="9964200939" lat="61.9623027" lon="5.6513282" version="1" timestamp="2022-08-19T15:47:55Z" changeset="125114391" uid="3497659" user="NKA">
		<tag k="alt_name" v="Navestølen" />
		<tag k="historic" v="shieling" />
		<tag k="name" v="Navestøylen" />
		<tag k="place" v="hamlet" />
		<tag k="ssr:stedsnr" v="252012" />
	</node>
	<node id="9964200940" lat="61.9296695" lon="5.6450838" version="1" timestamp="2022-08-19T15:47:55Z" changeset="125114391" uid="3497659" user="NKA">
		<tag k="name" v="Haugane" />
		<tag k="place" v="farm" />
		<tag k="ssr:stedsnr" v="192477" />
	</node>
	<node id="9964200941" lat="62.0055913" lon="5.2588511" version="1" timestamp="2022-08-19T15:47:55Z" changeset="125114391" uid="3497659" user="NKA">
		<tag k="name" v="Svinevika" />
		<tag k="place" v="hamlet" />
		<tag k="ssr:stedsnr" v="860237" />
	</node>
	<node id="9964200942" lat="62.0156784" lon="5.468131" version="1" timestamp="2022-08-19T15:47:55Z" changeset="125114391" uid="3497659" user="NKA">
		<tag k="name" v="Bakkebøen" />
		<tag k="place" v="farm" />
		<tag k="ssr:stedsnr" v="11287" />
	</node>
	<node id="9964200943" lat="62.0121673" lon="5.4126996" version="1" timestamp="2022-08-19T15:47:55Z" changeset="125114391" uid="3497659" user="NKA">
		<tag k="name" v="Berstad" />
		<tag k="place" v="hamlet" />
		<tag k="ssr:stedsnr" v="72188" />
	</node>
	<node id="9964200944" lat="61.952875" lon="5.6273504" version="1" timestamp="2022-08-19T15:47:55Z" changeset="125114391" uid="3497659" user="NKA">
		<tag k="historic" v="shieling" />
		<tag k="name" v="Gjeddalen" />
		<tag k="place" v="isolated_dwelling" />
		<tag k="ssr:stedsnr" v="71495" />
	</node>
	<node id="9964200945" lat="62.013996" lon="5.4024366" version="1" timestamp="2022-08-19T15:47:55Z" changeset="125114391" uid="3497659" user="NKA">
		<tag k="alt_name" v="Øren" />
		<tag k="name" v="Øyra" />
		<tag k="place" v="hamlet" />
		<tag k="ssr:stedsnr" v="193287" />
	</node>
	<node id="9964200946" lat="61.9210056" lon="6.0694864" version="1" timestamp="2022-08-19T15:47:55Z" changeset="125114391" uid="3497659" user="NKA">
		<tag k="name" v="Flotane" />
		<tag k="place" v="farm" />
		<tag k="ssr:stedsnr" v="738551" />
	</node>
	<node id="9964200947" lat="62.0114676" lon="5.4639766" version="1" timestamp="2022-08-19T15:47:55Z" changeset="125114391" uid="3497659" user="NKA">
		<tag k="name" v="Litle Kjøde" />
		<tag k="place" v="farm" />
		<tag k="ssr:stedsnr" v="861174" />
	</node>
	<node id="9964200948" lat="61.907811" lon="5.9899083" version="1" timestamp="2022-08-19T15:47:55Z" changeset="125114391" uid="3497659" user="NKA">
		<tag k="name" v="Gjerde" />
		<tag k="place" v="locality" />
		<tag k="ssr:stedsnr" v="828924" />
	</node>
	<node id="9964200949" lat="61.9619028" lon="5.8645558" version="1" timestamp="2022-08-19T15:47:55Z" changeset="125114391" uid="3497659" user="NKA">
		<tag k="historic" v="shieling" />
		<tag k="name" v="Skadhaugen" />
		<tag k="place" v="isolated_dwelling" />
		<tag k="ssr:stedsnr" v="495271" />
	</node>
	<node id="9964200950" lat="61.9351694" lon="5.4939782" version="1" timestamp="2022-08-19T15:47:55Z" changeset="125114391" uid="3497659" user="NKA">
		<tag k="name" v="Nygard" />
		<tag k="place" v="farm" />
		<tag k="ssr:stedsnr" v="847652" />
	</node>
	<node id="9964200951" lat="61.9446222" lon="5.5974532" version="1" timestamp="2022-08-19T15:47:55Z" changeset="125114391" uid="3497659" user="NKA">
		<tag k="name" v="Fjellstølen" />
		<tag k="place" v="locality" />
		<tag k="ssr:stedsnr" v="714157" />
	</node>
	<node id="9964200952" lat="61.8995361" lon="6.0491697" version="1" timestamp="2022-08-19T15:47:55Z" changeset="125114391" uid="3497659" user="NKA">
		<tag k="name" v="Høgesetra" />
		<tag k="place" v="locality" />
		<tag k="ssr:stedsnr" v="593527" />
	</node>
	<node id="9964200953" lat="61.8662528" lon="6.1085642" version="1" timestamp="2022-08-19T15:47:55Z" changeset="125114391" uid="3497659" user="NKA">
		<tag k="historic" v="shieling" />
		<tag k="name" v="Lotsbergstøylen" />
		<tag k="place" v="isolated_dwelling" />
		<tag k="ssr:stedsnr" v="374655" />
	</node>
	<node id="9964200954" lat="61.9153917" lon="5.6717266" version="1" timestamp="2022-08-19T15:47:55Z" changeset="125114391" uid="3497659" user="NKA">
		<tag k="name" v="Reksnes" />
		<tag k="place" v="hamlet" />
		<tag k="ssr:stedsnr" v="411678" />
	</node>
	<node id="9964200955" lat="61.9369252" lon="5.6521299" version="1" timestamp="2022-08-19T15:47:55Z" changeset="125114391" uid="3497659" user="NKA">
		<tag k="alt_name" v="Bugjerde" />
		<tag k="name" v="Buagjerdet" />
		<tag k="place" v="hamlet" />
		<tag k="ssr:stedsnr" v="556497" />
	</node>
	<node id="9964200956" lat="62.1587917" lon="5.3272867" version="1" timestamp="2022-08-19T15:47:55Z" changeset="125114391" uid="3497659" user="NKA">
		<tag k="name" v="Gjylmyra" />
		<tag k="place" v="farm" />
		<tag k="ssr:stedsnr" v="171886" />
	</node>
	<node id="9964200957" lat="61.8793666" lon="6.0805057" version="1" timestamp="2022-08-19T15:47:55Z" changeset="125114391" uid="3497659" user="NKA">
		<tag k="historic" v="shieling" />
		<tag k="name" v="Navestøylen" />
		<tag k="place" v="isolated_dwelling" />
		<tag k="ssr:stedsnr" v="323742" />
	</node>
	<node id="9964200958" lat="61.9057222" lon="6.077678" version="1" timestamp="2022-08-19T15:47:55Z" changeset="125114391" uid="3497659" user="NKA">
		<tag k="historic" v="shieling" />
		<tag k="name" v="Kviasætra" />
		<tag k="place" v="isolated_dwelling" />
		<tag k="ssr:stedsnr" v="374566" />
	</node>
	<node id="9964200959" lat="62.0628023" lon="5.3401019" version="1" timestamp="2022-08-19T15:47:55Z" changeset="125114391" uid="3497659" user="NKA">
		<tag k="name" v="Liset" />
		<tag k="place" v="hamlet" />
		<tag k="ssr:stedsnr" v="739299" />
	</node>
	<node id="9964200960" lat="61.9783556" lon="5.4796504" version="1" timestamp="2022-08-19T15:47:55Z" changeset="125114391" uid="3497659" user="NKA">
		<tag k="historic" v="shieling" />
		<tag k="name" v="Skorsteinshola" />
		<tag k="place" v="isolated_dwelling" />
		<tag k="ssr:stedsnr" v="495071" />
	</node>
	<node id="9964200961" lat="61.9234321" lon="5.6805276" version="1" timestamp="2022-08-19T15:47:55Z" changeset="125114391" uid="3497659" user="NKA">
		<tag k="name" v="Tømmerstøylen" />
		<tag k="place" v="hamlet" />
		<tag k="ssr:stedsnr" v="555419" />
	</node>
	<node id="9964200962" lat="61.9154181" lon="5.6675352" version="1" timestamp="2022-08-19T15:47:55Z" changeset="125114391" uid="3497659" user="NKA">
		<tag k="name" v="Ytre Reksneset" />
		<tag k="place" v="farm" />
		<tag k="ssr:stedsnr" v="555405" />
	</node>
	<node id="9964200963" lat="61.9154929" lon="6.0260487" version="1" timestamp="2022-08-19T15:47:55Z" changeset="125114391" uid="3497659" user="NKA">
		<tag k="name" v="Alsåker" />
		<tag k="place" v="hamlet" />
		<tag k="ssr:stedsnr" v="373582" />
	</node>
	<node id="9964200964" lat="61.9257917" lon="6.0918086" version="1" timestamp="2022-08-19T15:47:55Z" changeset="125114391" uid="3497659" user="NKA">
		<tag k="name" v="Jaren" />
		<tag k="place" v="farm" />
		<tag k="ssr:stedsnr" v="313549" />
	</node>
	<node id="9964200965" lat="62.0508305" lon="5.4697921" version="1" timestamp="2022-08-19T15:47:55Z" changeset="125114391" uid="3497659" user="NKA">
		<tag k="name" v="Lyngnes" />
		<tag k="place" v="farm" />
		<tag k="ssr:stedsnr" v="314379" />
	</node>
	<node id="9964200966" lat="61.9061722" lon="6.0328919" version="1" timestamp="2022-08-19T15:47:55Z" changeset="125114391" uid="3497659" user="NKA">
		<tag k="name" v="Rotifloten" />
		<tag k="place" v="farm" />
		<tag k="ssr:stedsnr" v="252538" />
	</node>
	<node id="9964200967" lat="61.9098347" lon="6.0111436" version="1" timestamp="2022-08-19T15:47:55Z" changeset="125114391" uid="3497659" user="NKA">
		<tag k="name" v="Stokkenes" />
		<tag k="place" v="farm" />
		<tag k="ssr:stedsnr" v="313588" />
	</node>
	<node id="9964200968" lat="62.0561783" lon="5.4716919" version="1" timestamp="2022-08-19T15:47:55Z" changeset="125114391" uid="3497659" user="NKA">
		<tag k="name" v="Stokke" />
		<tag k="place" v="hamlet" />
		<tag k="ssr:stedsnr" v="254313" />
	</node>
	<node id="9964200969" lat="61.9150832" lon="6.0719063" version="1" timestamp="2022-08-19T15:47:55Z" changeset="125114391" uid="3497659" user="NKA">
		<tag k="name" v="Nornes" />
		<tag k="place" v="farm" />
		<tag k="ssr:stedsnr" v="192594" />
	</node>
	<node id="9964200970" lat="62.0524694" lon="5.4387199" version="1" timestamp="2022-08-19T15:47:55Z" changeset="125114391" uid="3497659" user="NKA">
		<tag k="name" v="Bergedal" />
		<tag k="place" v="farm" />
		<tag k="ssr:stedsnr" v="254316" />
	</node>
	<node id="9964200971" lat="61.8940083" lon="5.7387725" version="1" timestamp="2022-08-19T15:47:55Z" changeset="125114391" uid="3497659" user="NKA">
		<tag k="name" v="Hamnes" />
		<tag k="place" v="farm" />
		<tag k="ssr:stedsnr" v="897620" />
	</node>
	<node id="9964200972" lat="61.9185749" lon="6.0742778" version="1" timestamp="2022-08-19T15:47:55Z" changeset="125114391" uid="3497659" user="NKA">
		<tag k="name" v="Nyland" />
		<tag k="place" v="farm" />
		<tag k="ssr:stedsnr" v="131557" />
	</node>
	<node id="9964200973" lat="61.9231861" lon="5.7555068" version="1" timestamp="2022-08-19T15:47:55Z" changeset="125114391" uid="3497659" user="NKA">
		<tag k="alt_name" v="Rafshol Øvre" />
		<tag k="name" v="Øvre Rafshol" />
		<tag k="place" v="farm" />
		<tag k="ssr:stedsnr" v="229517" />
	</node>
	<node id="9964200974" lat="61.9970183" lon="5.4355212" version="1" timestamp="2022-08-19T15:47:55Z" changeset="125114391" uid="3497659" user="NKA">
		<tag k="alt_name" v="Kjødssætra" />
		<tag k="historic" v="shieling" />
		<tag k="name" v="Lauvadalen" />
		<tag k="place" v="isolated_dwelling" />
		<tag k="ssr:stedsnr" v="202885" />
	</node>
	<node id="9964200975" lat="61.9525389" lon="5.5120921" version="1" timestamp="2022-08-19T15:47:55Z" changeset="125114391" uid="3497659" user="NKA">
		<tag k="historic" v="shieling" />
		<tag k="name" v="Åsnessætra" />
		<tag k="place" v="isolated_dwelling" />
		<tag k="ssr:stedsnr" v="252002" />
	</node>
	<node id="9964200976" lat="62.0232941" lon="5.2912953" version="1" timestamp="2022-08-19T15:47:55Z" changeset="125114391" uid="3497659" user="NKA">
		<tag k="name" v="Røyset" />
		<tag k="place" v="hamlet" />
		<tag k="ssr:stedsnr" v="860360" />
	</node>
	<node id="9964200977" lat="61.9073166" lon="6.0377308" version="1" timestamp="2022-08-19T15:47:55Z" changeset="125114391" uid="3497659" user="NKA">
		<tag k="name" v="Bjørlofloten" />
		<tag k="place" v="farm" />
		<tag k="ssr:stedsnr" v="71635" />
	</node>
	<node id="9964200978" lat="61.9439444" lon="5.4742699" version="1" timestamp="2022-08-19T15:47:55Z" changeset="125114391" uid="3497659" user="NKA">
		<tag k="historic" v="shieling" />
		<tag k="name" v="Gardstølane" />
		<tag k="place" v="locality" />
		<tag k="ssr:stedsnr" v="882715" />
	</node>
	<node id="9964200979" lat="61.9068444" lon="6.1178919" version="1" timestamp="2022-08-19T15:47:55Z" changeset="125114391" uid="3497659" user="NKA">
		<tag k="name" v="Årøyane" />
		<tag k="place" v="farm" />
		<tag k="ssr:stedsnr" v="71643" />
	</node>
	<node id="9964200980" lat="61.9026641" lon="6.1514573" version="1" timestamp="2022-08-19T15:47:55Z" changeset="125114391" uid="3497659" user="NKA">
		<tag k="name" v="Skoglid" />
		<tag k="place" v="farm" />
		<tag k="ssr:stedsnr" v="313622" />
	</node>
	<node id="9964200981" lat="61.9191164" lon="6.1137861" version="1" timestamp="2022-08-19T15:47:55Z" changeset="125114391" uid="3497659" user="NKA">
		<tag k="name" v="Vedvika" />
		<tag k="place" v="farm" />
		<tag k="ssr:stedsnr" v="70554" />
	</node>
	<node id="9964200982" lat="61.9094592" lon="5.9857925" version="1" timestamp="2022-08-19T15:47:55Z" changeset="125114391" uid="3497659" user="NKA">
		<tag k="name" v="Nordøyrane" />
		<tag k="place" v="isolated_dwelling" />
		<tag k="ssr:stedsnr" v="39921" />
	</node>
	<node id="9964200983" lat="61.9942805" lon="5.3851838" version="1" timestamp="2022-08-19T15:47:55Z" changeset="125114391" uid="3497659" user="NKA">
		<tag k="historic" v="shieling" />
		<tag k="name" v="Setra" />
		<tag k="place" v="isolated_dwelling" />
		<tag k="ssr:stedsnr" v="231677" />
	</node>
	<node id="9964200984" lat="61.9377139" lon="5.5409837" version="1" timestamp="2022-08-19T15:47:55Z" changeset="125114391" uid="3497659" user="NKA">
		<tag k="historic" v="shieling" />
		<tag k="name" v="Fosseberget" />
		<tag k="place" v="isolated_dwelling" />
		<tag k="ssr:stedsnr" v="556528" />
	</node>
	<node id="9964200985" lat="61.8647097" lon="6.0979242" version="1" timestamp="2022-08-19T15:47:55Z" changeset="125114391" uid="3497659" user="NKA">
		<tag k="alt_name" v="Lotsberg" />
		<tag k="name" v="Ytre Lotsberg" />
		<tag k="place" v="farm" />
		<tag k="ssr:stedsnr" v="860700" />
	</node>
	<node id="9964200986" lat="61.9105486" lon="5.987309" version="1" timestamp="2022-08-19T15:47:55Z" changeset="125114391" uid="3497659" user="NKA">
		<tag k="name" v="Myklebust" />
		<tag k="place" v="farm" />
		<tag k="ssr:stedsnr" v="70548" />
	</node>
	<node id="9964200987" lat="61.9134495" lon="6.0706353" version="1" timestamp="2022-08-19T15:47:55Z" changeset="125114391" uid="3497659" user="NKA">
		<tag k="alt_name" v="Nordheim" />
		<tag k="name" v="Norheim" />
		<tag k="place" v="farm" />
		<tag k="ssr:stedsnr" v="859537" />
	</node>
	<node id="9964200988" lat="61.9270528" lon="6.101137" version="1" timestamp="2022-08-19T15:47:55Z" changeset="125114391" uid="3497659" user="NKA">
		<tag k="name" v="Leivdalen" />
		<tag k="place" v="hamlet" />
		<tag k="ssr:stedsnr" v="859522" />
	</node>
	<node id="9964200989" lat="61.9167639" lon="6.0917336" version="1" timestamp="2022-08-19T15:47:55Z" changeset="125114391" uid="3497659" user="NKA">
		<tag k="name" v="Fosslund" />
		<tag k="place" v="farm" />
		<tag k="ssr:stedsnr" v="859539" />
	</node>
	<node id="9964200990" lat="61.9617756" lon="5.9899651" version="1" timestamp="2022-08-19T15:47:55Z" changeset="125114391" uid="3497659" user="NKA">
		<tag k="historic" v="shieling" />
		<tag k="name" v="Sevlandssætra" />
		<tag k="place" v="hamlet" />
		<tag k="ssr:stedsnr" v="860318" />
	</node>
	<node id="9964200991" lat="61.9095361" lon="5.9936837" version="1" timestamp="2022-08-19T15:47:55Z" changeset="125114391" uid="3497659" user="NKA">
		<tag k="name" v="Lunden" />
		<tag k="place" v="neighbourhood" />
		<tag k="ssr:stedsnr" v="714486" />
	</node>
	<node id="9964200992" lat="61.9486139" lon="5.6866782" version="1" timestamp="2022-08-19T15:47:55Z" changeset="125114391" uid="3497659" user="NKA">
		<tag k="historic" v="shieling" />
		<tag k="name" v="Myrane" />
		<tag k="place" v="isolated_dwelling" />
		<tag k="ssr:stedsnr" v="495469" />
	</node>
	<node id="9964200993" lat="61.9384667" lon="5.6923309" version="1" timestamp="2022-08-19T15:47:55Z" changeset="125114391" uid="3497659" user="NKA">
		<tag k="historic" v="shieling" />
		<tag k="name" v="Langelidhola" />
		<tag k="place" v="isolated_dwelling" />
		<tag k="ssr:stedsnr" v="799451" />
	</node>
	<node id="9964200994" lat="61.9593611" lon="5.4404838" version="1" timestamp="2022-08-19T15:47:55Z" changeset="125114391" uid="3497659" user="NKA">
		<tag k="alt_name" v="Nysetra" />
		<tag k="historic" v="shieling" />
		<tag k="name" v="Nysætra" />
		<tag k="place" v="isolated_dwelling" />
		<tag k="ssr:stedsnr" v="920791" />
	</node>
	<node id="9964200995" lat="62.0637068" lon="5.3381106" version="1" timestamp="2022-08-19T15:47:55Z" changeset="125114391" uid="3497659" user="NKA">
		<tag k="alt_name" v="Ytste Liaseter" />
		<tag k="name" v="Ytste Liset" />
		<tag k="place" v="farm" />
		<tag k="ssr:stedsnr" v="360553" />
	</node>
	<node id="9964200996" lat="62.1567483" lon="5.1965587" version="1" timestamp="2022-08-19T15:47:55Z" changeset="125114391" uid="3497659" user="NKA">
		<tag k="name" v="Bellen" />
		<tag k="place" v="farm" />
		<tag k="ssr:stedsnr" v="861660" />
	</node>
	<node id="9964200997" lat="61.9215396" lon="5.7951796" version="1" timestamp="2022-08-19T15:47:55Z" changeset="125114391" uid="3497659" user="NKA">
		<tag k="name" v="Turrvika" />
		<tag k="place" v="farm" />
		<tag k="ssr:stedsnr" v="20562" />
	</node>
	<node id="9964200998" lat="62.1743472" lon="5.1840506" version="1" timestamp="2022-08-19T15:47:55Z" changeset="125114391" uid="3497659" user="NKA">
		<tag k="name" v="Råke" />
		<tag k="place" v="farm" />
		<tag k="ssr:stedsnr" v="739697" />
	</node>
	<node id="9964200999" lat="61.9742139" lon="5.2113033" version="1" timestamp="2022-08-19T15:47:55Z" changeset="125114391" uid="3497659" user="NKA">
		<tag k="name" v="Gangeskar" />
		<tag k="place" v="farm" />
		<tag k="ssr:stedsnr" v="900747" />
	</node>
	<node id="9964201000" lat="61.9465337" lon="6.3283294" version="1" timestamp="2022-08-19T15:47:55Z" changeset="125114391" uid="3497659" user="NKA">
		<tag k="alt_name" v="Furefjerding ytre" />
		<tag k="name" v="Ytre Furefjerdingen" />
		<tag k="place" v="farm" />
		<tag k="ssr:stedsnr" v="10896" />
	</node>
	<node id="9964201001" lat="62.1847948" lon="5.2354518" version="1" timestamp="2022-08-19T15:47:55Z" changeset="125114391" uid="3497659" user="NKA">
		<tag k="loc_name" v="Eltvika" />
		<tag k="name" v="Eltvik" />
		<tag k="place" v="hamlet" />
		<tag k="ssr:stedsnr" v="595005" />
	</node>
	<node id="9964201002" lat="61.859447" lon="6.215652" version="1" timestamp="2022-08-19T15:47:55Z" changeset="125114391" uid="3497659" user="NKA">
		<tag k="name" v="Hennebygda" />
		<tag k="place" v="hamlet" />
		<tag k="ssr:stedsnr" v="252625" />
	</node>
	<node id="9964201003" lat="61.8608639" lon="6.1964475" version="1" timestamp="2022-08-19T15:47:55Z" changeset="125114391" uid="3497659" user="NKA">
		<tag k="name" v="Rongfloten" />
		<tag k="place" v="isolated_dwelling" />
		<tag k="ssr:stedsnr" v="289870" />
	</node>
	<node id="9964201004" lat="62.1477943" lon="5.2131223" version="1" timestamp="2022-08-19T15:47:55Z" changeset="125114391" uid="3497659" user="NKA">
		<tag k="name" v="Dalsbøen" />
		<tag k="place" v="hamlet" />
		<tag k="ssr:stedsnr" v="557684" />
	</node>
	<node id="9964201005" lat="62.1031174" lon="5.1724612" version="1" timestamp="2022-08-19T15:47:55Z" changeset="125114391" uid="3497659" user="NKA">
		<tag k="name" v="Indre Fure" />
		<tag k="place" v="farm" />
		<tag k="ssr:stedsnr" v="931317" />
	</node>
	<node id="9964201006" lat="61.9537111" lon="5.8320086" version="1" timestamp="2022-08-19T15:47:55Z" changeset="125114391" uid="3497659" user="NKA">
		<tag k="name" v="Heida" />
		<tag k="place" v="isolated_dwelling" />
		<tag k="ssr:stedsnr" v="435502" />
	</node>
	<node id="9964201007" lat="61.9278723" lon="5.7625407" version="1" timestamp="2022-08-19T15:47:55Z" changeset="125114391" uid="3497659" user="NKA">
		<tag k="name" v="Brattheim" />
		<tag k="place" v="farm" />
		<tag k="ssr:stedsnr" v="555399" />
	</node>
	<node id="9964201008" lat="61.8625417" lon="6.1960808" version="1" timestamp="2022-08-19T15:47:55Z" changeset="125114391" uid="3497659" user="NKA">
		<tag k="historic" v="shieling" />
		<tag k="name" v="Ytre Hennestøylen" />
		<tag k="place" v="isolated_dwelling" />
		<tag k="ssr:stedsnr" v="860694" />
	</node>
	<node id="9964201009" lat="61.9463444" lon="5.7535587" version="1" timestamp="2022-08-19T15:47:55Z" changeset="125114391" uid="3497659" user="NKA">
		<tag k="name" v="Hjellen" />
		<tag k="place" v="isolated_dwelling" />
		<tag k="ssr:stedsnr" v="411754" />
	</node>
	<node id="9964201010" lat="61.8637124" lon="6.2228559" version="1" timestamp="2022-08-19T15:47:55Z" changeset="125114391" uid="3497659" user="NKA">
		<tag k="alt_name" v="Bakken" />
		<tag k="name" v="Øvre Hennane" />
		<tag k="place" v="farm" />
		<tag k="ssr:stedsnr" v="192063" />
	</node>
	<node id="9964201011" lat="61.9363022" lon="5.5086655" version="1" timestamp="2022-08-19T15:47:55Z" changeset="125114391" uid="3497659" user="NKA">
		<tag k="name" v="Lefdalsbygda" />
		<tag k="old_name" v="Levdalsbygda" />
		<tag k="place" v="hamlet" />
		<tag k="ssr:stedsnr" v="482617" />
	</node>
	<node id="9964201012" lat="61.9197915" lon="5.8079666" version="1" timestamp="2022-08-19T15:47:55Z" changeset="125114391" uid="3497659" user="NKA">
		<tag k="name" v="Indre Hafsås" />
		<tag k="place" v="farm" />
		<tag k="ssr:stedsnr" v="626563" />
	</node>
	<node id="9964201013" lat="61.8969778" lon="5.8729199" version="1" timestamp="2022-08-19T15:47:55Z" changeset="125114391" uid="3497659" user="NKA">
		<tag k="name" v="Indre Hundeidet" />
		<tag k="place" v="farm" />
		<tag k="ssr:stedsnr" v="435601" />
	</node>
	<node id="9964201014" lat="61.9528" lon="5.9354698" version="1" timestamp="2022-08-19T15:47:55Z" changeset="125114391" uid="3497659" user="NKA">
		<tag k="alt_name" v="Tippasetra" />
		<tag k="historic" v="shieling" />
		<tag k="name" v="Tippasætra" />
		<tag k="place" v="hamlet" />
		<tag k="ssr:stedsnr" v="435536" />
	</node>
	<node id="9964201015" lat="62.0754465" lon="5.4171987" version="1" timestamp="2022-08-19T15:47:55Z" changeset="125114391" uid="3497659" user="NKA">
		<tag k="name" v="Sandvikneset" />
		<tag k="place" v="hamlet" />
		<tag k="ssr:stedsnr" v="739313" />
	</node>
	<node id="9964201016" lat="61.9403361" lon="5.8058809" version="1" timestamp="2022-08-19T15:47:55Z" changeset="125114391" uid="3497659" user="NKA">
		<tag k="name" v="Langemyra" />
		<tag k="place" v="locality" />
		<tag k="ssr:stedsnr" v="350913" />
	</node>
	<node id="9964201017" lat="61.9220493" lon="5.9032324" version="1" timestamp="2022-08-19T15:47:55Z" changeset="125114391" uid="3497659" user="NKA">
		<tag k="name" v="Seljebakken" />
		<tag k="place" v="hamlet" />
		<tag k="ssr:stedsnr" v="435578" />
	</node>
	<node id="9964201018" lat="61.8992549" lon="5.949637" version="1" timestamp="2022-08-19T15:47:55Z" changeset="125114391" uid="3497659" user="NKA">
		<tag k="name" v="Taklo" />
		<tag k="place" v="hamlet" />
		<tag k="ssr:stedsnr" v="131588" />
	</node>
	<node id="9964201019" lat="61.9497333" lon="5.6000503" version="1" timestamp="2022-08-19T15:47:55Z" changeset="125114391" uid="3497659" user="NKA">
		<tag k="historic" v="shieling" />
		<tag k="name" v="Mosehaugane" />
		<tag k="place" v="isolated_dwelling" />
		<tag k="ssr:stedsnr" v="435507" />
	</node>
	<node id="9964201020" lat="61.9232835" lon="6.0767695" version="1" timestamp="2022-08-19T15:47:55Z" changeset="125114391" uid="3497659" user="NKA">
		<tag k="alt_name" v="Reinene" />
		<tag k="name" v="Reinane" />
		<tag k="place" v="farm" />
		<tag k="ssr:stedsnr" v="434526" />
	</node>
	<node id="9964201021" lat="61.959425" lon="5.9468503" version="1" timestamp="2022-08-19T15:47:55Z" changeset="125114391" uid="3497659" user="NKA">
		<tag k="historic" v="shieling" />
		<tag k="name" v="Naustdalssætra" />
		<tag k="place" v="isolated_dwelling" />
		<tag k="ssr:stedsnr" v="617310" />
	</node>
	<node id="9964201022" lat="61.8926103" lon="5.851371" version="1" timestamp="2022-08-19T15:47:55Z" changeset="125114391" uid="3497659" user="NKA">
		<tag k="historic" v="shieling" />
		<tag k="name" v="Utigardsetra" />
		<tag k="place" v="isolated_dwelling" />
		<tag k="ssr:stedsnr" v="532133" />
	</node>
	<node id="9964201023" lat="61.9318862" lon="5.886915" version="1" timestamp="2022-08-19T15:47:55Z" changeset="125114391" uid="3497659" user="NKA">
		<tag k="name" v="Solbu" />
		<tag k="place" v="isolated_dwelling" />
		<tag k="ssr:stedsnr" v="360047" />
	</node>
	<node id="9964201024" lat="61.9169278" lon="6.105242" version="1" timestamp="2022-08-19T15:47:55Z" changeset="125114391" uid="3497659" user="NKA">
		<tag k="name" v="Trollestøa" />
		<tag k="place" v="farm" />
		<tag k="ssr:stedsnr" v="252526" />
	</node>
	<node id="9964201025" lat="61.9200028" lon="5.9183086" version="1" timestamp="2022-08-19T15:47:55Z" changeset="125114391" uid="3497659" user="NKA">
		<tag k="name" v="Austlid" />
		<tag k="place" v="farm" />
		<tag k="ssr:stedsnr" v="313541" />
	</node>
	<node id="9964201026" lat="61.8808" lon="5.859867" version="1" timestamp="2022-08-19T15:47:55Z" changeset="125114391" uid="3497659" user="NKA">
		<tag k="name" v="Reilimunnen" />
		<tag k="place" v="locality" />
		<tag k="ssr:stedsnr" v="47185" />
	</node>
	<node id="9964201027" lat="61.9985498" lon="5.2962792" version="1" timestamp="2022-08-19T15:47:55Z" changeset="125114391" uid="3497659" user="NKA">
		<tag k="alt_name" v="Barmen Indre" />
		<tag k="name" v="Indre Barmen" />
		<tag k="place" v="farm" />
		<tag k="ssr:stedsnr" v="50740" />
	</node>
	<node id="9964201028" lat="61.9737472" lon="5.2231618" version="1" timestamp="2022-08-19T15:47:55Z" changeset="125114391" uid="3497659" user="NKA">
		<tag k="name" v="Kupa" />
		<tag k="place" v="farm" />
		<tag k="ssr:stedsnr" v="414723" />
	</node>
	<node id="9964201029" lat="61.957702" lon="5.9181165" version="1" timestamp="2022-08-19T15:47:55Z" changeset="125114391" uid="3497659" user="NKA">
		<tag k="historic" v="shieling" />
		<tag k="name" v="Kjørstadsetra" />
		<tag k="place" v="isolated_dwelling" />
		<tag k="ssr:stedsnr" v="287312" />
	</node>
	<node id="9964201030" lat="62.0057058" lon="5.2611699" version="1" timestamp="2022-08-19T15:47:55Z" changeset="125114391" uid="3497659" user="NKA">
		<tag k="name" v="Bakkebøen" />
		<tag k="place" v="farm" />
		<tag k="ssr:stedsnr" v="845622" />
	</node>
	<node id="9964201031" lat="61.9118667" lon="6.1118092" version="1" timestamp="2022-08-19T15:47:55Z" changeset="125114391" uid="3497659" user="NKA">
		<tag k="name" v="Gangstøda" />
		<tag k="place" v="farm" />
		<tag k="ssr:stedsnr" v="10606" />
	</node>
	<node id="9964201032" lat="61.9317321" lon="5.7705779" version="1" timestamp="2022-08-19T15:47:55Z" changeset="125114391" uid="3497659" user="NKA">
		<tag k="name" v="Åre" />
		<tag k="place" v="farm" />
		<tag k="ssr:stedsnr" v="799454" />
	</node>
	<node id="9964201033" lat="62.1029978" lon="5.2480708" version="1" timestamp="2022-08-19T15:47:55Z" changeset="125114391" uid="3497659" user="NKA">
		<tag k="name" v="Austmyr" />
		<tag k="place" v="farm" />
		<tag k="ssr:stedsnr" v="11377" />
	</node>
	<node id="9964201034" lat="62.0198" lon="5.4610088" version="1" timestamp="2022-08-19T15:47:55Z" changeset="125114391" uid="3497659" user="NKA">
		<tag k="historic" v="shieling" />
		<tag k="name" v="Setra" />
		<tag k="place" v="isolated_dwelling" />
		<tag k="ssr:stedsnr" v="960553" />
	</node>
	<node id="9964201035" lat="61.9326161" lon="5.89591" version="1" timestamp="2022-08-19T15:47:55Z" changeset="125114391" uid="3497659" user="NKA">
		<tag k="name" v="Halsteinslida" />
		<tag k="place" v="farm" />
		<tag k="ssr:stedsnr" v="495515" />
	</node>
	<node id="9964201036" lat="61.9465223" lon="5.9120531" version="1" timestamp="2022-08-19T15:47:55Z" changeset="125114391" uid="3497659" user="NKA">
		<tag k="historic" v="shieling" />
		<tag k="name" v="Mørsetra" />
		<tag k="place" v="isolated_dwelling" />
		<tag k="ssr:stedsnr" v="348278" />
	</node>
	<node id="9964201037" lat="61.9061138" lon="6.119503" version="1" timestamp="2022-08-19T15:47:55Z" changeset="125114391" uid="3497659" user="NKA">
		<tag k="name" v="Nesheim" />
		<tag k="place" v="farm" />
		<tag k="ssr:stedsnr" v="313605" />
	</node>
	<node id="9964201038" lat="61.9105998" lon="6.019567" version="1" timestamp="2022-08-19T15:47:55Z" changeset="125114391" uid="3497659" user="NKA">
		<tag k="name" v="Langeland" />
		<tag k="place" v="farm" />
		<tag k="ssr:stedsnr" v="616561" />
	</node>
	<node id="9964201039" lat="62.126727" lon="5.311704" version="1" timestamp="2022-08-19T15:47:55Z" changeset="125114391" uid="3497659" user="NKA">
		<tag k="name" v="Stave" />
		<tag k="place" v="hamlet" />
		<tag k="ssr:stedsnr" v="920453" />
	</node>
	<node id="9964201040" lat="62.0800475" lon="5.2931725" version="1" timestamp="2022-08-19T15:47:55Z" changeset="125114391" uid="3497659" user="NKA">
		<tag k="name" v="Årdalen" />
		<tag k="place" v="farm" />
		<tag k="ssr:stedsnr" v="11413" />
	</node>
	<node id="9964201041" lat="61.9585601" lon="5.9074633" version="1" timestamp="2022-08-19T15:47:55Z" changeset="125114391" uid="3497659" user="NKA">
		<tag k="historic" v="shieling" />
		<tag k="name" v="Halvarsetra" />
		<tag k="place" v="locality" />
		<tag k="ssr:stedsnr" v="226364" />
	</node>
	<node id="9964201042" lat="61.9739545" lon="5.2549188" version="1" timestamp="2022-08-19T15:47:55Z" changeset="125114391" uid="3497659" user="NKA">
		<tag k="name" v="Seljenes" />
		<tag k="place" v="farm" />
		<tag k="ssr:stedsnr" v="960727" />
	</node>
</osm>
