<?xml version="1.0" encoding="UTF-8"?>
<osm version="0.6" generator="osmapis">
	<node lat="60.26920555437204" lon="11.078069445429382" id="-19375">
		<tag k="name" v="Hærmyrene" />
		<tag k="natural" v="wetland" />
		<tag k="ssr:stedsnr" v="23182" />
	</node>
	<node lat="60.189525001266254" lon="10.8891444383552" id="-19379">
		<tag k="name" v="Bjønnsbeita" />
		<tag k="place" v="locality" />
		<tag k="ssr:stedsnr" v="23033" />
	</node>
	<node lat="60.22730555479807" lon="10.95779722862748" id="-19384">
		<tag k="name" v="Dypdalsmyra" />
		<tag k="natural" v="wetland" />
		<tag k="ssr:stedsnr" v="23301" />
	</node>
	<node lat="60.19023889315526" lon="10.860702776389862" id="-19413">
		<tag k="name" v="Svartemyrene" />
		<tag k="natural" v="wetland" />
		<tag k="ssr:stedsnr" v="84035" />
	</node>
	<node lat="60.20443888883898" lon="10.883105554666642" id="-19414">
		<tag k="name" v="Jakobsmyra" />
		<tag k="natural" v="wetland" />
		<tag k="ssr:stedsnr" v="84086" />
	</node>
	<node lat="60.1250999992663" lon="10.962755546729978" id="-19420">
		<tag k="historic" v="shieling" />
		<tag k="name" v="Finstadvangen" />
		<tag k="place" v="locality" />
		<tag k="ssr:stedsnr" v="84136" />
	</node>
	<node lat="60.21076388665216" lon="10.811569438425067" id="-19423">
		<tag k="name" v="Stasholtet" />
		<tag k="place" v="locality" />
		<tag k="ssr:stedsnr" v="84335" />
	</node>
	<node lat="60.32403055810783" lon="11.04018611158913" id="-19424">
		<tag k="name" v="Holtmarka" />
		<tag k="place" v="locality" />
		<tag k="ssr:stedsnr" v="84509" />
	</node>
	<node lat="60.2685694473812" lon="11.063916663286783" id="-19428">
		<tag k="name" v="Fåmyra" />
		<tag k="natural" v="wetland" />
		<tag k="ssr:stedsnr" v="84437" />
	</node>
	<node lat="60.30197778236669" lon="11.015949992310212" id="-19457">
		<tag k="name" v="Skrevemyra" />
		<tag k="natural" v="wetland" />
		<tag k="ssr:stedsnr" v="249300" />
	</node>
	<node lat="60.25974999747213" lon="10.911624991810882" id="-19462">
		<tag k="name" v="Skrevemyra" />
		<tag k="natural" v="wetland" />
		<tag k="ssr:stedsnr" v="249374" />
	</node>
	<node lat="60.261400002768504" lon="10.857855555934238" id="-19463">
		<tag k="name" v="Hellandsmyra" />
		<tag k="natural" v="wetland" />
		<tag k="ssr:stedsnr" v="249375" />
	</node>
	<node lat="60.17860833637455" lon="10.94128333749695" id="-19467">
		<tag k="name" v="Årstadmåsan" />
		<tag k="natural" v="wetland" />
		<tag k="ssr:stedsnr" v="126763" />
	</node>
	<node lat="60.128263884862925" lon="10.968038884147818" id="-19470">
		<tag k="name" v="Holtermyra" />
		<tag k="natural" v="wetland" />
		<tag k="ssr:stedsnr" v="126645" />
	</node>
	<node lat="60.2270499972448" lon="10.853772216120932" id="-19473">
		<tag k="name" v="Mattismyra" />
		<tag k="natural" v="wetland" />
		<tag k="ssr:stedsnr" v="126808" />
	</node>
	<node lat="60.164841665852016" lon="10.965116670093694" id="-19485">
		<tag k="name" v="Trondmåsan" />
		<tag k="natural" v="wetland" />
		<tag k="ssr:stedsnr" v="144213" />
	</node>
	<node lat="60.17952222128272" lon="10.981316670177359" id="-19486">
		<tag k="name" v="Lerbergsmåsan" />
		<tag k="natural" v="wetland" />
		<tag k="ssr:stedsnr" v="144220" />
	</node>
	<node lat="60.138205552013815" lon="10.990458337113624" id="-19487">
		<tag k="name" v="Raufjellmyra" />
		<tag k="natural" v="wetland" />
		<tag k="ssr:stedsnr" v="144077" />
	</node>
	<node lat="60.25096944642148" lon="11.073683336184654" id="-19491">
		<tag k="name" v="Herstua grustak" />
		<tag k="natural" v="beach" />
		<tag k="ssr:stedsnr" v="144402" />
		<tag k="surface" v="sand" />
	</node>
	<node lat="60.24185833427639" lon="11.097200005951706" id="-19493">
		<tag k="name" v="Langemyra" />
		<tag k="natural" v="wetland" />
		<tag k="ssr:stedsnr" v="144408" />
	</node>
	<node lat="60.234977773798335" lon="10.931716661170793" id="-19496">
		<tag k="name" v="Tosenlimyra" />
		<tag k="natural" v="wetland" />
		<tag k="ssr:stedsnr" v="144342" />
	</node>
	<node lat="60.2823361110422" lon="10.91154167252607" id="-19499">
		<tag k="name" v="Endemyrholtet" />
		<tag k="place" v="locality" />
		<tag k="ssr:stedsnr" v="144381" />
	</node>
	<node lat="60.266694442202606" lon="10.903627773048525" id="-19500">
		<tag k="name" v="Grisbakkmyra" />
		<tag k="natural" v="wetland" />
		<tag k="ssr:stedsnr" v="144383" />
	</node>
	<node lat="60.13024166518384" lon="10.947913887639423" id="-19524">
		<tag k="name" v="Stormåsan" />
		<tag k="natural" v="wetland" />
		<tag k="ssr:stedsnr" v="263684" />
	</node>
	<node lat="60.187499999102556" lon="10.824358331094968" id="-19532">
		<tag k="name" v="Høgdamyra" />
		<tag k="natural" v="wetland" />
		<tag k="ssr:stedsnr" v="265178" />
	</node>
	<node lat="60.31406388525555" lon="10.946533330902662" id="-19534">
		<tag k="name" v="Puttmyra" />
		<tag k="natural" v="wetland" />
		<tag k="ssr:stedsnr" v="265257" />
	</node>
	<node lat="60.23175277627209" lon="10.934530552937725" id="-19539">
		<tag k="name" v="Haramyra" />
		<tag k="natural" v="wetland" />
		<tag k="ssr:stedsnr" v="265347" />
	</node>
	<node lat="60.26415555470783" lon="10.902655550115764" id="-19543">
		<tag k="name" v="Trulserød" />
		<tag k="place" v="locality" />
		<tag k="ssr:stedsnr" v="265384" />
	</node>
	<node lat="60.295186109920564" lon="10.990705549196793" id="-19554">
		<tag k="name" v="Kavlebrumyra" />
		<tag k="natural" v="wetland" />
		<tag k="ssr:stedsnr" v="266456" />
	</node>
	<node lat="60.13762778013758" lon="10.921672220765817" id="-19556">
		<tag k="name" v="Eiksbekkmyra" />
		<tag k="natural" v="wetland" />
		<tag k="ssr:stedsnr" v="266973" />
	</node>
	<node lat="60.307024997078365" lon="10.874899997044784" id="-19588">
		<tag k="name" v="Svarttjernmyra" />
		<tag k="natural" v="wetland" />
		<tag k="ssr:stedsnr" v="249302" />
	</node>
	<node lat="60.16215277994157" lon="10.95828889148398" id="-19602">
		<tag k="name" v="Bukkhølmyra" />
		<tag k="natural" v="wetland" />
		<tag k="ssr:stedsnr" v="266200" />
	</node>
	<node lat="60.27977777431903" lon="10.961661113090878" id="-19604">
		<tag k="name" v="Bellingmyra" />
		<tag k="natural" v="wetland" />
		<tag k="ssr:stedsnr" v="266286" />
	</node>
	<node lat="60.19166666576819" lon="10.924986108305701" id="-19612">
		<tag k="name" v="Saumåsan" />
		<tag k="natural" v="wetland" />
		<tag k="ssr:stedsnr" v="308803" />
	</node>
	<node lat="60.24473333396909" lon="10.915819437398936" id="-19627">
		<tag k="historic" v="shieling" />
		<tag k="name" v="Østgardsvangen" />
		<tag k="place" v="locality" />
		<tag k="ssr:stedsnr" v="326232" />
	</node>
	<node lat="60.27204721837717" lon="10.926044440843018" id="-19636">
		<tag k="name" v="Nedstumyra" />
		<tag k="natural" v="wetland" />
		<tag k="ssr:stedsnr" v="326374" />
	</node>
	<node lat="60.26672222146745" lon="10.909861103130197" id="-19637">
		<tag k="name" v="Grindmåsan" />
		<tag k="natural" v="wetland" />
		<tag k="ssr:stedsnr" v="326379" />
	</node>
	<node lat="60.316480551794484" lon="11.013677772982568" id="-19639">
		<tag k="name" v="Hestemyra" />
		<tag k="natural" v="wetland" />
		<tag k="ssr:stedsnr" v="326512" />
	</node>
	<node lat="60.33744444764202" lon="11.011527780939065" id="-19643">
		<tag k="name" v="Nystumarka" />
		<tag k="place" v="locality" />
		<tag k="ssr:stedsnr" v="326415" />
	</node>
	<node lat="60.13253610681716" lon="10.96763055805475" id="-19655">
		<tag k="alt_name" v="Harstadvangene" />
		<tag k="historic" v="shieling" />
		<tag k="name" v="Harstadvangen" />
		<tag k="place" v="locality" />
		<tag k="ssr:stedsnr" v="369606" />
	</node>
	<node lat="60.179749997099854" lon="10.925933328102692" id="-19662">
		<tag k="name" v="Stormyra" />
		<tag k="natural" v="wetland" />
		<tag k="ssr:stedsnr" v="369772" />
	</node>
	<node lat="60.19231111186624" lon="10.95661110513328" id="-19676">
		<tag k="name" v="Midtkløyva" />
		<tag k="place" v="locality" />
		<tag k="ssr:stedsnr" v="387206" />
	</node>
	<node lat="60.24309166292908" lon="10.948288884515563" id="-19683">
		<tag k="name" v="Skyttermyra" />
		<tag k="natural" v="wetland" />
		<tag k="ssr:stedsnr" v="387252" />
	</node>
	<node lat="60.317552775192425" lon="11.039472216011863" id="-19691">
		<tag k="name" v="Mangan" />
		<tag k="natural" v="wetland" />
		<tag k="ssr:stedsnr" v="387510" />
	</node>
	<node lat="60.28770277479778" lon="10.998997222738739" id="-19692">
		<tag k="name" v="Kubergmyra" />
		<tag k="natural" v="wetland" />
		<tag k="ssr:stedsnr" v="387492" />
	</node>
	<node lat="60.12873611511723" lon="10.93660000841944" id="-19697">
		<tag k="historic" v="shieling" />
		<tag k="name" v="Esetvangen" />
		<tag k="place" v="locality" />
		<tag k="ssr:stedsnr" v="490669" />
	</node>
	<node lat="60.242836113659" lon="11.027291668648886" id="-19701">
		<tag k="alt_name" v="Hetakermåsan" />
		<tag k="name" v="Hetåkermåsan" />
		<tag k="natural" v="wetland" />
		<tag k="ssr:stedsnr" v="490898" />
	</node>
	<node lat="60.20937777688278" lon="10.943625005833466" id="-19703">
		<tag k="name" v="Fåmyra" />
		<tag k="natural" v="wetland" />
		<tag k="ssr:stedsnr" v="490855" />
	</node>
	<node lat="60.26955833069211" lon="10.92104167427446" id="-19728">
		<tag k="name" v="Flåmåsan" />
		<tag k="natural" v="wetland" />
		<tag k="ssr:stedsnr" v="491332" />
	</node>
	<node lat="60.21477499681089" lon="10.887936102705838" id="-19750">
		<tag k="historic" v="shieling" />
		<tag k="name" v="Oppstuvangen" />
		<tag k="place" v="locality" />
		<tag k="ssr:stedsnr" v="448070" />
	</node>
	<node lat="60.16394722418452" lon="10.971883335246655" id="-19754">
		<tag k="name" v="Kavlemyra" />
		<tag k="natural" v="wetland" />
		<tag k="ssr:stedsnr" v="448205" />
	</node>
	<node lat="60.129663891162956" lon="11.006763881141747" id="-19757">
		<tag k="name" v="Hansedalsmyra" />
		<tag k="natural" v="wetland" />
		<tag k="ssr:stedsnr" v="448102" />
	</node>
	<node lat="60.132302775499944" lon="11.022566658573236" id="-19758">
		<tag k="landuse" v="meadow" />
		<tag k="name" v="Fjelltun" />
		<tag k="ssr:stedsnr" v="448106" />
	</node>
	<node lat="60.23346944439767" lon="10.954611107998" id="-19762">
		<tag k="name" v="Nedre Kringlermåsan" />
		<tag k="natural" v="wetland" />
		<tag k="ssr:stedsnr" v="448289" />
	</node>
	<node lat="60.24734722637067" lon="11.088397218172384" id="-19764">
		<tag k="name" v="Herbergsmyra" />
		<tag k="natural" v="wetland" />
		<tag k="ssr:stedsnr" v="448411" />
	</node>
	<node lat="60.34200000050988" lon="11.012274998415037" id="-19766">
		<tag k="name" v="Toresmyra" />
		<tag k="place" v="locality" />
		<tag k="ssr:stedsnr" v="448423" />
	</node>
	<node lat="60.25868055573743" lon="10.888266667925356" id="-19768">
		<tag k="name" v="Stokkmyra" />
		<tag k="natural" v="wetland" />
		<tag k="ssr:stedsnr" v="448376" />
	</node>
	<node lat="60.293002781036805" lon="10.987994445660705" id="-19771">
		<tag k="name" v="Buråstorvene" />
		<tag k="natural" v="wetland" />
		<tag k="ssr:stedsnr" v="448519" />
	</node>
	<node lat="60.23208889246636" lon="10.86306388147668" id="-19818">
		<tag k="name" v="Mangetjernmyra" />
		<tag k="natural" v="wetland" />
		<tag k="ssr:stedsnr" v="508337" />
	</node>
	<node lat="60.125627774448716" lon="10.943205547881698" id="-19826">
		<tag k="historic" v="shieling" />
		<tag k="name" v="Brotnovangen" />
		<tag k="place" v="locality" />
		<tag k="ssr:stedsnr" v="509921" />
	</node>
	<node lat="60.18289166967804" lon="10.945311119326272" id="-19840">
		<tag k="alt_name" v="Pyttsætermyra" />
		<tag k="name" v="Puttsætermyra" />
		<tag k="natural" v="wetland" />
		<tag k="ssr:stedsnr" v="551811" />
	</node>
	<node lat="60.223177776007645" lon="10.95065278044554" id="-19843">
		<tag k="name" v="Eskerudmåsan" />
		<tag k="natural" v="wetland" />
		<tag k="ssr:stedsnr" v="551846" />
	</node>
	<node lat="60.177886108016516" lon="10.902988883116604" id="-19850">
		<tag k="historic" v="shieling" />
		<tag k="name" v="Sørsætra" />
		<tag k="place" v="locality" />
		<tag k="ssr:stedsnr" v="688696" />
	</node>
	<node lat="60.157855555444044" lon="10.961769453239004" id="-19863">
		<tag k="name" v="Leiken" />
		<tag k="place" v="locality" />
		<tag k="ssr:stedsnr" v="690223" />
	</node>
	<node lat="60.14074166769293" lon="10.939311107907457" id="-19883">
		<tag k="name" v="Holterputten" />
		<tag k="natural" v="wetland" />
		<tag k="ssr:stedsnr" v="691965" />
	</node>
	<node lat="60.197638887922636" lon="10.91566944255523" id="-19884">
		<tag k="name" v="Sjonkemyra" />
		<tag k="natural" v="wetland" />
		<tag k="ssr:stedsnr" v="568011" />
	</node>
	<node lat="60.1612777751948" lon="10.874991657993249" id="-19885">
		<tag k="name" v="Styggdalsmyra" />
		<tag k="natural" v="wetland" />
		<tag k="ssr:stedsnr" v="568029" />
	</node>
	<node lat="60.1493722216291" lon="10.97184443990054" id="-19888">
		<tag k="name" v="Rovolsvangmyra" />
		<tag k="natural" v="wetland" />
		<tag k="ssr:stedsnr" v="568072" />
	</node>
	<node lat="60.17059722165631" lon="10.982272213367008" id="-19898">
		<tag k="alt_name" v="Slattummåsan" />
		<tag k="name" v="Slattumsmåsan" />
		<tag k="natural" v="wetland" />
		<tag k="ssr:stedsnr" v="568213" />
	</node>
	<node lat="60.15214166741307" lon="10.94971944315987" id="-19905">
		<tag k="historic" v="shieling" />
		<tag k="name" v="Bjørkeiksvangen" />
		<tag k="place" v="locality" />
		<tag k="ssr:stedsnr" v="568874" />
	</node>
	<node lat="60.171794448245464" lon="10.951494451313305" id="-19907">
		<tag k="name" v="Heimyrene" />
		<tag k="natural" v="wetland" />
		<tag k="ssr:stedsnr" v="569214" />
	</node>
	<node lat="60.125275002003136" lon="10.992883326053555" id="-19925">
		<tag k="name" v="Bonnmyra" />
		<tag k="natural" v="wetland" />
		<tag k="ssr:stedsnr" v="612662" />
	</node>
	<node lat="60.16970277910013" lon="10.952155558485776" id="-19927">
		<tag k="name" v="Fevikmåsan" />
		<tag k="natural" v="wetland" />
		<tag k="ssr:stedsnr" v="612691" />
	</node>
	<node lat="60.2267083319512" lon="11.019952781564632" id="-19931">
		<tag k="name" v="Nannestadmåsan" />
		<tag k="natural" v="wetland" />
		<tag k="ssr:stedsnr" v="612823" />
	</node>
	<node lat="60.196055560042254" lon="10.930263889074794" id="-19938">
		<tag k="name" v="Pedershogget" />
		<tag k="place" v="locality" />
		<tag k="ssr:stedsnr" v="629024" />
	</node>
	<node lat="60.16051110917162" lon="10.878516674276518" id="-19939">
		<tag k="historic" v="shieling" />
		<tag k="name" v="Lerbergsvangen" />
		<tag k="place" v="locality" />
		<tag k="ssr:stedsnr" v="629042" />
	</node>
	<node lat="60.17846666244705" lon="10.932674998885652" id="-19941">
		<tag k="name" v="Nannestadmyra" />
		<tag k="natural" v="wetland" />
		<tag k="ssr:stedsnr" v="629050" />
	</node>
	<node lat="60.1256944456633" lon="10.967941673262223" id="-19945">
		<tag k="name" v="Finstadvangmyra" />
		<tag k="natural" v="wetland" />
		<tag k="ssr:stedsnr" v="629097" />
	</node>
	<node lat="60.16853333309976" lon="10.982294450031358" id="-19946">
		<tag k="name" v="Blinkmyra" />
		<tag k="natural" v="wetland" />
		<tag k="ssr:stedsnr" v="629205" />
	</node>
	<node lat="60.30276666942352" lon="10.937375002200113" id="-19949">
		<tag k="historic" v="shieling" />
		<tag k="name" v="Hegglisæter" />
		<tag k="place" v="locality" />
		<tag k="ssr:stedsnr" v="629111" />
	</node>
	<node lat="60.24654444422977" lon="11.099330564395308" id="-19953">
		<tag k="name" v="Momyra" />
		<tag k="natural" v="wetland" />
		<tag k="ssr:stedsnr" v="629393" />
	</node>
	<node lat="60.295027776892624" lon="11.042033333911037" id="-19958">
		<tag k="historic" v="shieling" />
		<tag k="name" v="Verkensæter" />
		<tag k="place" v="locality" />
		<tag k="ssr:stedsnr" v="629497" />
	</node>
	<node lat="60.244155554088664" lon="10.920650002191318" id="-19969">
		<tag k="name" v="Stormyra" />
		<tag k="natural" v="wetland" />
		<tag k="ssr:stedsnr" v="673929" />
	</node>
	<node lat="60.13223611259932" lon="11.01587222800883" id="-19974">
		<tag k="name" v="Hestsmåsan" />
		<tag k="natural" v="wetland" />
		<tag k="ssr:stedsnr" v="690083" />
	</node>
	<node lat="60.29455555217457" lon="10.894991663618384" id="-19977">
		<tag k="name" v="Hvilemyra" />
		<tag k="natural" v="wetland" />
		<tag k="ssr:stedsnr" v="690273" />
	</node>
	<node lat="60.309980551829184" lon="10.939394439965655" id="-19978">
		<tag k="name" v="Svartmyra" />
		<tag k="natural" v="wetland" />
		<tag k="ssr:stedsnr" v="690278" />
	</node>
	<node lat="60.24033333031157" lon="10.80437499476249" id="-19979">
		<tag k="name" v="Hyttemyra" />
		<tag k="natural" v="wetland" />
		<tag k="ssr:stedsnr" v="690195" />
	</node>
	<node lat="60.239236111037386" lon="11.079350000441254" id="-19993">
		<tag k="name" v="Lybekkmåsan" />
		<tag k="natural" v="wetland" />
		<tag k="ssr:stedsnr" v="733816" />
	</node>
	<node lat="60.259650002193155" lon="10.83804999521747" id="-20005">
		<tag k="alt_name" v="Olasmyrene" />
		<tag k="name" v="Olasmyrane" />
		<tag k="natural" v="wetland" />
		<tag k="ssr:stedsnr" v="734412" />
	</node>
	<node lat="60.25829166412571" lon="10.86776389771722" id="-20026">
		<tag k="name" v="Steinmyra" />
		<tag k="natural" v="wetland" />
		<tag k="ssr:stedsnr" v="751370" />
	</node>
	<node lat="60.138625000258266" lon="10.963683324452063" id="-20032">
		<tag k="historic" v="shieling" />
		<tag k="name" v="Fossvangen" />
		<tag k="place" v="locality" />
		<tag k="ssr:stedsnr" v="751905" />
	</node>
	<node lat="60.13441944636553" lon="10.946358341677586" id="-20034">
		<tag k="name" v="Urmakermyra" />
		<tag k="natural" v="wetland" />
		<tag k="ssr:stedsnr" v="751955" />
	</node>
	<node lat="60.13634166751922" lon="10.946355553488736" id="-20035">
		<tag k="name" v="Vasshellene" />
		<tag k="natural" v="wetland" />
		<tag k="ssr:stedsnr" v="751974" />
	</node>
	<node lat="60.18145000443864" lon="10.976991668282283" id="-20037">
		<tag k="name" v="Langmyra" />
		<tag k="natural" v="wetland" />
		<tag k="ssr:stedsnr" v="794776" />
	</node>
	<node lat="60.187216664781594" lon="10.89474167395796" id="-20074">
		<tag k="name" v="Dorpesætermyra" />
		<tag k="natural" v="wetland" />
		<tag k="ssr:stedsnr" v="812026" />
	</node>
	<node lat="60.126819447502086" lon="10.975705550930188" id="-20075">
		<tag k="name" v="Fuglemyra" />
		<tag k="natural" v="wetland" />
		<tag k="ssr:stedsnr" v="812091" />
	</node>
	<node lat="60.18728888815731" lon="10.955675004492772" id="-20080">
		<tag k="name" v="Fuglemyra" />
		<tag k="natural" v="wetland" />
		<tag k="ssr:stedsnr" v="812213" />
	</node>
	<node lat="60.12995555849423" lon="10.977869451159423" id="-20086">
		<tag k="historic" v="shieling" />
		<tag k="name" v="Skurverudsvangen" />
		<tag k="place" v="locality" />
		<tag k="ssr:stedsnr" v="812103" />
	</node>
	<node lat="60.13001110658959" lon="10.990158338211291" id="-20088">
		<tag k="historic" v="shieling" />
		<tag k="name" v="Brustadvangen" />
		<tag k="place" v="locality" />
		<tag k="ssr:stedsnr" v="812111" />
	</node>
	<node lat="60.12390277488759" lon="10.949922230366191" id="-20089">
		<tag k="name" v="Andorodden" />
		<tag k="natural" v="stone" />
		<tag k="ssr:stedsnr" v="812113" />
	</node>
	<node lat="60.32450833452391" lon="11.02404722280858" id="-20094">
		<tag k="name" v="Tretteholtet" />
		<tag k="place" v="locality" />
		<tag k="ssr:stedsnr" v="812516" />
	</node>
	<node lat="60.1373055587132" lon="11.069094438347665" id="-20113">
		<tag k="landuse" v="meadow" />
		<tag k="name" v="Brustadenga" />
		<tag k="ssr:stedsnr" v="872003" />
	</node>
	<node lat="60.19219444241328" lon="10.905958328349802" id="-20115">
		<tag k="name" v="Skjellmyra" />
		<tag k="natural" v="wetland" />
		<tag k="ssr:stedsnr" v="872014" />
	</node>
	<node lat="60.1840861114231" lon="10.888991669706376" id="-20128">
		<tag k="name" v="Knepphaugmyra" />
		<tag k="natural" v="wetland" />
		<tag k="ssr:stedsnr" v="933033" />
	</node>
	<node lat="60.27848611479691" lon="10.868738886888544" id="-20147">
		<tag k="name" v="Øygardsmyra" />
		<tag k="natural" v="wetland" />
		<tag k="ssr:stedsnr" v="933398" />
	</node>
	<node lat="60.16113889311616" lon="10.885452770196755" id="-20174">
		<tag k="name" v="Tørrjern" />
		<tag k="natural" v="wetland" />
		<tag k="ssr:stedsnr" v="933037" />
	</node>
	<node lat="60.1713555525955" lon="10.86869444810132" id="-20176">
		<tag k="name" v="Fjøsdalsmyra" />
		<tag k="natural" v="wetland" />
		<tag k="ssr:stedsnr" v="933045" />
	</node>
	<node lat="60.121922225287214" lon="10.977644449292042" id="-20180">
		<tag k="name" v="Vollmyra" />
		<tag k="natural" v="wetland" />
		<tag k="ssr:stedsnr" v="933101" />
	</node>
	<node lat="60.16785555244352" lon="10.951252774578556" id="-20185">
		<tag k="historic" v="shieling" />
		<tag k="name" v="Feviksvangen" />
		<tag k="place" v="locality" />
		<tag k="ssr:stedsnr" v="933195" />
	</node>
	<node lat="60.22985000122733" lon="10.915622229766193" id="-20186">
		<tag k="name" v="Badstumyra" />
		<tag k="natural" v="wetland" />
		<tag k="ssr:stedsnr" v="933336" />
	</node>
	<node lat="60.287838886389274" lon="11.023547226110091" id="-20193">
		<tag k="historic" v="shieling" />
		<tag k="name" v="Gamle Totnersæter" />
		<tag k="place" v="locality" />
		<tag k="ssr:stedsnr" v="933501" />
	</node>
	<node lat="60.17278888604447" lon="10.948349991859232" id="-20203">
		<tag k="historic" v="shieling" />
		<tag k="name" v="Haugsvangen" />
		<tag k="place" v="locality" />
		<tag k="ssr:stedsnr" v="5670" />
	</node>
	<node lat="60.141488893315234" lon="10.991702769273957" id="-20219">
		<tag k="name" v="Storrmyra" />
		<tag k="natural" v="wetland" />
		<tag k="ssr:stedsnr" v="6658" />
	</node>
	<node lat="60.16249999740019" lon="10.926649991552011" id="-20233">
		<tag k="historic" v="shieling" />
		<tag k="name" v="Slattumsvangen" />
		<tag k="place" v="locality" />
		<tag k="ssr:stedsnr" v="23046" />
	</node>
	<node lat="60.21600833646552" lon="10.863766670146276" id="-20235">
		<tag k="historic" v="shieling" />
		<tag k="name" v="Rudsæter" />
		<tag k="place" v="locality" />
		<tag k="ssr:stedsnr" v="23062" />
	</node>
	<node lat="60.277850004143346" lon="10.898013882074672" id="-20240">
		<tag k="name" v="Merrahølet" />
		<tag k="place" v="locality" />
		<tag k="ssr:stedsnr" v="23410" />
	</node>
	<node lat="60.271372223460425" lon="11.048566666923792" id="-20242">
		<tag k="name" v="Den runde myra" />
		<tag k="natural" v="wetland" />
		<tag k="ssr:stedsnr" v="23521" />
	</node>
	<node lat="60.320919448456245" lon="10.947591671096236" id="-20245">
		<tag k="name" v="Mangetjernmyrene" />
		<tag k="natural" v="wetland" />
		<tag k="ssr:stedsnr" v="23277" />
	</node>
	<node lat="60.31143333247264" lon="11.023944447886677" id="-20249">
		<tag k="name" v="Stokkmyra" />
		<tag k="natural" v="wetland" />
		<tag k="ssr:stedsnr" v="23551" />
	</node>
	<node lat="60.22364722229642" lon="11.022619443421526" id="-20253">
		<tag k="name" v="Prestmåsan" />
		<tag k="natural" v="wetland" />
		<tag k="ssr:stedsnr" v="24214" />
	</node>
	<node lat="60.31548333146669" lon="10.867283334110061" id="-20265">
		<tag k="name" v="Langmyra" />
		<tag k="natural" v="wetland" />
		<tag k="ssr:stedsnr" v="67284" />
	</node>
	<node lat="60.25163055660863" lon="10.822749997491803" id="-20279">
		<tag k="name" v="Ekstjernfurua" />
		<tag k="place" v="locality" />
		<tag k="ssr:stedsnr" v="84229" />
	</node>
	<node lat="60.274494443364055" lon="10.826722214238657" id="-20280">
		<tag k="name" v="Skjellemyra" />
		<tag k="natural" v="wetland" />
		<tag k="ssr:stedsnr" v="84231" />
	</node>
	<node lat="60.25064166383739" lon="10.931908333603866" id="-20281">
		<tag k="historic" v="shieling" />
		<tag k="name" v="Grindakervangen" />
		<tag k="place" v="locality" />
		<tag k="ssr:stedsnr" v="84233" />
	</node>
	<node lat="60.223208337856086" lon="10.89739721930322" id="-20289">
		<tag k="name" v="Fuglemåsan" />
		<tag k="natural" v="wetland" />
		<tag k="ssr:stedsnr" v="84319" />
	</node>
	<node lat="60.14516013264193" lon="10.976709129254859" id="-20308">
		<tag k="alt_name" v="Kjølmyrene" />
		<tag k="name" v="Kjølmyrane" />
		<tag k="natural" v="wetland" />
		<tag k="ssr:stedsnr" v="127681" />
	</node>
	<node lat="60.188894447682564" lon="10.916105555909072" id="-20312">
		<tag k="name" v="Trebekkmyra" />
		<tag k="natural" v="wetland" />
		<tag k="ssr:stedsnr" v="144024" />
	</node>
	<node lat="60.29746111233715" lon="10.898155555016869" id="-20327">
		<tag k="name" v="Stormyra" />
		<tag k="natural" v="wetland" />
		<tag k="ssr:stedsnr" v="144258" />
	</node>
	<node lat="60.29104722422311" lon="10.92796110477457" id="-20331">
		<tag k="historic" v="shieling" />
		<tag k="name" v="Kvernsjøsæter" />
		<tag k="place" v="locality" />
		<tag k="ssr:stedsnr" v="144138" />
	</node>
	<node lat="60.13857222680557" lon="10.926463883120867" id="-20341">
		<tag k="name" v="Vivangsmyra" />
		<tag k="natural" v="wetland" />
		<tag k="ssr:stedsnr" v="144969" />
	</node>
	<node lat="60.14997500237513" lon="10.962511117479373" id="-20353">
		<tag k="alt_name" v="Erpestadvangen, heimre;Himre Erpestadvangen" />
		<tag k="historic" v="shieling" />
		<tag k="name" v="Heimre Erpestadvangen" />
		<tag k="place" v="locality" />
		<tag k="ssr:stedsnr" v="188685" />
	</node>
	<node lat="60.24181666948415" lon="10.800802783229923" id="-20370">
		<tag k="name" v="Hestekveet" />
		<tag k="place" v="locality" />
		<tag k="ssr:stedsnr" v="205232" />
	</node>
	<node lat="60.2184305567281" lon="11.015824995823202" id="-20371">
		<tag k="name" v="Nannestadteiet" />
		<tag k="place" v="locality" />
		<tag k="ssr:stedsnr" v="205330" />
	</node>
	<node lat="60.28863610964936" lon="11.077847229253736" id="-20380">
		<tag k="name" v="Tangenmyra" />
		<tag k="natural" v="wetland" />
		<tag k="ssr:stedsnr" v="205175" />
	</node>
	<node lat="60.294066669162255" lon="10.904158336706399" id="-20386">
		<tag k="name" v="Endemyra" />
		<tag k="natural" v="wetland" />
		<tag k="ssr:stedsnr" v="205263" />
	</node>
	<node lat="60.226219447869916" lon="10.963583342101488" id="-20388">
		<tag k="name" v="Færstadmyra" />
		<tag k="natural" v="wetland" />
		<tag k="ssr:stedsnr" v="205281" />
	</node>
	<node lat="60.18484444149164" lon="10.923452774279035" id="-20397">
		<tag k="historic" v="shieling" />
		<tag k="name" v="Langerudsvangen" />
		<tag k="place" v="locality" />
		<tag k="ssr:stedsnr" v="206024" />
	</node>
	<node lat="60.168330551518004" lon="10.884041665870393" id="-20407">
		<tag k="alt_name" v="Flatnermyrene" />
		<tag k="name" v="Flatnermyrane" />
		<tag k="natural" v="wetland" />
		<tag k="ssr:stedsnr" v="308673" />
	</node>
	<node lat="60.31482499731418" lon="10.989099999019604" id="-20417">
		<tag k="name" v="Høgmåsan" />
		<tag k="natural" v="wetland" />
		<tag k="ssr:stedsnr" v="309288" />
	</node>
	<node lat="60.33360278188144" lon="10.974049997999158" id="-20418">
		<tag k="alt_name" v="Hestemyrene" />
		<tag k="name" v="Hestemyrane" />
		<tag k="natural" v="wetland" />
		<tag k="ssr:stedsnr" v="309312" />
	</node>
	<node lat="60.29430000366088" lon="10.945075007205308" id="-20421">
		<tag k="alt_name" v="Hegglismyrene" />
		<tag k="name" v="Heglemyrane" />
		<tag k="natural" v="wetland" />
		<tag k="ssr:stedsnr" v="309331" />
	</node>
	<node lat="60.31483610865706" lon="10.915149994260398" id="-20436">
		<tag k="name" v="Nysætermyra" />
		<tag k="natural" v="wetland" />
		<tag k="ssr:stedsnr" v="326235" />
	</node>
	<node lat="60.2855027738055" lon="10.995199992975603" id="-20437">
		<tag k="name" v="Fuglemyra" />
		<tag k="natural" v="wetland" />
		<tag k="ssr:stedsnr" v="326491" />
	</node>
	<node lat="60.13659999707173" lon="10.977183332385229" id="-20439">
		<tag k="name" v="Gunhildmyra" />
		<tag k="natural" v="wetland" />
		<tag k="ssr:stedsnr" v="326063" />
	</node>
	<node lat="60.13525555229981" lon="10.961211112606458" id="-20440">
		<tag k="name" v="Stormåsafløyta" />
		<tag k="natural" v="wetland" />
		<tag k="ssr:stedsnr" v="326066" />
	</node>
	<node lat="60.24555555134119" lon="11.050152770216156" id="-20443">
		<tag k="name" v="Jælebergsmåsan" />
		<tag k="natural" v="wetland" />
		<tag k="ssr:stedsnr" v="326139" />
	</node>
	<node lat="60.241061113411945" lon="10.934355553865425" id="-20450">
		<tag k="name" v="Jonslimyra" />
		<tag k="natural" v="wetland" />
		<tag k="ssr:stedsnr" v="326392" />
	</node>
	<node lat="60.23201111495088" lon="11.017202783169347" id="-20455">
		<tag k="name" v="Bjørkemåsan" />
		<tag k="natural" v="wetland" />
		<tag k="ssr:stedsnr" v="369826" />
	</node>
	<node lat="60.29232499727608" lon="10.893588881102534" id="-20469">
		<tag k="name" v="Treputtmyra" />
		<tag k="natural" v="wetland" />
		<tag k="ssr:stedsnr" v="370330" />
	</node>
	<node lat="60.29912499586555" lon="10.883025008368962" id="-20473">
		<tag k="name" v="Kavlebrumyra" />
		<tag k="natural" v="wetland" />
		<tag k="ssr:stedsnr" v="370346" />
	</node>
	<node lat="60.194222222653266" lon="10.924897228995777" id="-20484">
		<tag k="historic" v="shieling" />
		<tag k="name" v="Kopperudvangen" />
		<tag k="place" v="locality" />
		<tag k="ssr:stedsnr" v="387053" />
	</node>
	<node lat="60.14924166945527" lon="10.983166663258558" id="-20488">
		<tag k="name" v="Svartormyra" />
		<tag k="natural" v="wetland" />
		<tag k="ssr:stedsnr" v="387083" />
	</node>
	<node lat="60.278038891718055" lon="10.923011118615195" id="-20500">
		<tag k="name" v="Lønnliljemyra" />
		<tag k="natural" v="wetland" />
		<tag k="ssr:stedsnr" v="387370" />
	</node>
	<node lat="60.294144448108554" lon="11.02481666013089" id="-20507">
		<tag k="historic" v="shieling" />
		<tag k="name" v="Drittbakkgrinda" />
		<tag k="place" v="locality" />
		<tag k="ssr:stedsnr" v="387486" />
	</node>
	<node lat="60.299097220401876" lon="11.021247227956186" id="-20508">
		<tag k="historic" v="shieling" />
		<tag k="name" v="Lauvåsvangen" />
		<tag k="place" v="locality" />
		<tag k="ssr:stedsnr" v="387490" />
	</node>
	<node lat="60.14284166350959" lon="10.949277779992173" id="-20509">
		<tag k="historic" v="shieling" />
		<tag k="name" v="Hyllivangen" />
		<tag k="place" v="locality" />
		<tag k="ssr:stedsnr" v="448897" />
	</node>
	<node lat="60.18360832966504" lon="10.897350002442428" id="-20530">
		<tag k="name" v="Merramyra" />
		<tag k="natural" v="wetland" />
		<tag k="ssr:stedsnr" v="448040" />
	</node>
	<node lat="60.159511106996696" lon="10.880852776963115" id="-20531">
		<tag k="name" v="Lerbergsvangmyra" />
		<tag k="natural" v="wetland" />
		<tag k="ssr:stedsnr" v="448044" />
	</node>
	<node lat="60.17877777887682" lon="10.905091672503104" id="-20532">
		<tag k="name" v="Gåshalsen" />
		<tag k="natural" v="wetland" />
		<tag k="ssr:stedsnr" v="448052" />
	</node>
	<node lat="60.23954722057073" lon="10.925644441311979" id="-20536">
		<tag k="name" v="Svelterømåsan" />
		<tag k="natural" v="wetland" />
		<tag k="ssr:stedsnr" v="448398" />
	</node>
	<node lat="60.24856110744615" lon="10.923986119514066" id="-20549">
		<tag k="name" v="Brunsmarka" />
		<tag k="place" v="locality" />
		<tag k="ssr:stedsnr" v="448242" />
	</node>
	<node lat="60.25636111233951" lon="10.923383334729872" id="-20550">
		<tag k="name" v="Dølifossmyra" />
		<tag k="natural" v="wetland" />
		<tag k="ssr:stedsnr" v="448243" />
	</node>
	<node lat="60.244847218210296" lon="10.923386102240759" id="-20551">
		<tag k="name" v="Klyverømåsan" />
		<tag k="natural" v="wetland" />
		<tag k="ssr:stedsnr" v="448246" />
	</node>
	<node lat="60.223686114530736" lon="10.907791659510753" id="-20554">
		<tag k="name" v="Tømmerholsmyra" />
		<tag k="natural" v="wetland" />
		<tag k="ssr:stedsnr" v="448333" />
	</node>
	<node lat="60.224522224069034" lon="10.872016667092463" id="-20558">
		<tag k="name" v="Skjellemyra" />
		<tag k="natural" v="wetland" />
		<tag k="ssr:stedsnr" v="448348" />
	</node>
	<node lat="60.30641111456909" lon="10.983869439341655" id="-20562">
		<tag k="name" v="Gjertrudmyra" />
		<tag k="natural" v="wetland" />
		<tag k="ssr:stedsnr" v="448467" />
	</node>
	<node lat="60.23886666751112" lon="10.834408332357564" id="-20563">
		<tag k="name" v="Trevatnmyra" />
		<tag k="natural" v="wetland" />
		<tag k="ssr:stedsnr" v="508356" />
	</node>
	<node lat="60.23759999909748" lon="10.948197227055243" id="-20566">
		<tag k="name" v="Gaupåsmyra" />
		<tag k="natural" v="wetland" />
		<tag k="ssr:stedsnr" v="508398" />
	</node>
	<node lat="60.332166663045506" lon="10.985413880024469" id="-20568">
		<tag k="name" v="Karlstadbråtemyra" />
		<tag k="natural" v="wetland" />
		<tag k="ssr:stedsnr" v="508418" />
	</node>
	<node lat="60.21523333646028" lon="10.878863887490871" id="-20572">
		<tag k="name" v="Reimyra" />
		<tag k="natural" v="wetland" />
		<tag k="ssr:stedsnr" v="508055" />
	</node>
	<node lat="60.138161109410376" lon="10.967819442070454" id="-20575">
		<tag k="name" v="Eikemyra" />
		<tag k="natural" v="wetland" />
		<tag k="ssr:stedsnr" v="508075" />
	</node>
	<node lat="60.18484722627433" lon="10.81910556399995" id="-20578">
		<tag k="name" v="Bråtemyra" />
		<tag k="natural" v="wetland" />
		<tag k="ssr:stedsnr" v="508171" />
	</node>
	<node lat="60.18611944542374" lon="10.962102781632598" id="-20580">
		<tag k="name" v="Krokmåsan" />
		<tag k="natural" v="wetland" />
		<tag k="ssr:stedsnr" v="508184" />
	</node>
	<node lat="60.3215638866154" lon="10.936244446981542" id="-20590">
		<tag k="name" v="Sundbysæterstorren" />
		<tag k="natural" v="wetland" />
		<tag k="ssr:stedsnr" v="508231" />
	</node>
	<node lat="60.288552777530896" lon="10.886536108490235" id="-20592">
		<tag k="name" v="Mysmerkleivmyra" />
		<tag k="natural" v="wetland" />
		<tag k="ssr:stedsnr" v="508277" />
	</node>
	<node lat="60.131674995828774" lon="10.923830547406235" id="-20598">
		<tag k="name" v="Bellrotmåsan" />
		<tag k="natural" v="wetland" />
		<tag k="ssr:stedsnr" v="508951" />
	</node>
	<node lat="60.1695277753682" lon="10.944111103294393" id="-20618">
		<tag k="name" v="Vardåshølet" />
		<tag k="place" v="locality" />
		<tag k="ssr:stedsnr" v="568035" />
	</node>
	<node lat="60.130963892441585" lon="10.97595277385052" id="-20626">
		<tag k="name" v="Skurverudsmåsan" />
		<tag k="natural" v="wetland" />
		<tag k="ssr:stedsnr" v="568089" />
	</node>
	<node lat="60.23460833288241" lon="10.916247218019643" id="-20628">
		<tag k="name" v="Kalldalsmyra" />
		<tag k="natural" v="wetland" />
		<tag k="ssr:stedsnr" v="568322" />
	</node>
	<node lat="60.238430551732726" lon="10.839300005646718" id="-20629">
		<tag k="name" v="Puttemyra" />
		<tag k="natural" v="wetland" />
		<tag k="ssr:stedsnr" v="568337" />
	</node>
	<node lat="60.21000277385541" lon="10.821830563497706" id="-20630">
		<tag k="name" v="Kvigemyra" />
		<tag k="natural" v="wetland" />
		<tag k="ssr:stedsnr" v="568344" />
	</node>
	<node lat="60.250413886713034" lon="11.115047229772262" id="-20641">
		<tag k="name" v="Hvamsaga" />
		<tag k="place" v="locality" />
		<tag k="ssr:stedsnr" v="569366" />
	</node>
	<node lat="60.29349167116747" lon="11.053761103152427" id="-20646">
		<tag k="historic" v="shieling" />
		<tag k="name" v="Inngjerdinga" />
		<tag k="place" v="locality" />
		<tag k="ssr:stedsnr" v="569475" />
	</node>
	<node lat="60.14922499983668" lon="10.94066666488552" id="-20652">
		<tag k="alt_name" v="Hellebekkmyrene" />
		<tag k="name" v="Hellebekkmyra" />
		<tag k="natural" v="wetland" />
		<tag k="ssr:stedsnr" v="612639" />
	</node>
	<node lat="60.18913055366673" lon="10.968469452344127" id="-20672">
		<tag k="name" v="Vippeløkkstykket" />
		<tag k="place" v="locality" />
		<tag k="ssr:stedsnr" v="629189" />
	</node>
	<node lat="60.295199997482634" lon="10.945283332793313" id="-20715">
		<tag k="name" v="Hegglistorren" />
		<tag k="natural" v="wetland" />
		<tag k="ssr:stedsnr" v="751127" />
	</node>
	<node lat="60.14822500227052" lon="10.976119437460493" id="-20723">
		<tag k="historic" v="shieling" />
		<tag k="name" v="Rovolsvangen" />
		<tag k="place" v="locality" />
		<tag k="ssr:stedsnr" v="751076" />
	</node>
	<node lat="60.123544441051784" lon="10.974238881386052" id="-20725">
		<tag k="name" v="Kampemyra" />
		<tag k="natural" v="wetland" />
		<tag k="ssr:stedsnr" v="751102" />
	</node>
	<node lat="60.30564444738427" lon="10.878102777178087" id="-20730">
		<tag k="name" v="Svartjernmyra" />
		<tag k="natural" v="wetland" />
		<tag k="ssr:stedsnr" v="751289" />
	</node>
	<node lat="60.229783336664866" lon="10.834811110575139" id="-20740">
		<tag k="name" v="Åtteårsputten" />
		<tag k="natural" v="wetland" />
		<tag k="ssr:stedsnr" v="751350" />
	</node>
	<node lat="60.24350277774498" lon="10.979055561524246" id="-20741">
		<tag k="name" v="Grindakermyra" />
		<tag k="natural" v="wetland" />
		<tag k="ssr:stedsnr" v="751454" />
	</node>
	<node lat="60.14355277668556" lon="10.926211109105681" id="-20749">
		<tag k="alt_name" v="Stridsmyrene" />
		<tag k="name" v="Stridsmyra" />
		<tag k="natural" v="wetland" />
		<tag k="ssr:stedsnr" v="794736" />
	</node>
	<node lat="60.1466027764445" lon="10.912338895857637" id="-20750">
		<tag k="historic" v="shieling" />
		<tag k="name" v="Østbyvangen" />
		<tag k="place" v="locality" />
		<tag k="ssr:stedsnr" v="794740" />
	</node>
	<node lat="60.31052500044272" lon="10.868483329853007" id="-20759">
		<tag k="alt_name" v="Gardlimåsan" />
		<tag k="name" v="Gardlimyra" />
		<tag k="natural" v="wetland" />
		<tag k="ssr:stedsnr" v="795350" />
	</node>
	<node lat="60.294149996377676" lon="10.944352773563532" id="-20765">
		<tag k="name" v="Hegglisgrinda" />
		<tag k="place" v="locality" />
		<tag k="ssr:stedsnr" v="812150" />
	</node>
	<node lat="60.229922226323666" lon="11.030274996796763" id="-20768">
		<tag k="name" v="Måsavika" />
		<tag k="natural" v="wetland" />
		<tag k="ssr:stedsnr" v="812260" />
	</node>
	<node lat="60.239469440098304" lon="10.899233334744782" id="-20780">
		<tag k="name" v="Finnskjeggmyra" />
		<tag k="natural" v="wetland" />
		<tag k="ssr:stedsnr" v="812325" />
	</node>
	<node lat="60.31376388886974" lon="10.88633610409724" id="-20784">
		<tag k="name" v="Kvernsjømyrene" />
		<tag k="natural" v="wetland" />
		<tag k="ssr:stedsnr" v="812342" />
	</node>
	<node lat="60.27416666406866" lon="10.877699997509568" id="-20786">
		<tag k="name" v="Gørrbekkmyra" />
		<tag k="natural" v="wetland" />
		<tag k="ssr:stedsnr" v="812359" />
	</node>
	<node lat="60.25601388489505" lon="10.950508324737632" id="-20790">
		<tag k="name" v="Gråmyra" />
		<tag k="natural" v="wetland" />
		<tag k="ssr:stedsnr" v="812451" />
	</node>
	<node lat="60.134094445263564" lon="10.936333330297336" id="-20795">
		<tag k="name" v="Gørrputtmåsan" />
		<tag k="natural" v="wetland" />
		<tag k="ssr:stedsnr" v="812952" />
	</node>
	<node lat="60.23407777920231" lon="10.950066668202261" id="-20821">
		<tag k="name" v="Øvre Kringlermåsan" />
		<tag k="natural" v="wetland" />
		<tag k="ssr:stedsnr" v="872280" />
	</node>
	<node lat="60.29479444762652" lon="10.876450003062132" id="-20822">
		<tag k="historic" v="shieling" />
		<tag k="name" v="Gardlisæter" />
		<tag k="place" v="locality" />
		<tag k="ssr:stedsnr" v="872284" />
	</node>
	<node lat="60.33608888464485" lon="10.998649991265724" id="-20826">
		<tag k="historic" v="shieling" />
		<tag k="name" v="Jælebergsæter" />
		<tag k="place" v="locality" />
		<tag k="ssr:stedsnr" v="872432" />
	</node>
	<node lat="60.3401833338439" lon="10.9792666691727" id="-20842">
		<tag k="name" v="Fellmyra" />
		<tag k="natural" v="wetland" />
		<tag k="ssr:stedsnr" v="872511" />
	</node>
	<node lat="60.317647219167746" lon="11.0054194506826" id="-20845">
		<tag k="name" v="Holsmåsan" />
		<tag k="natural" v="wetland" />
		<tag k="ssr:stedsnr" v="872519" />
	</node>
</osm>
