<?xml version="1.0" encoding="UTF-8"?>
<osm generator="osmapis" version="0.6">
	<node id="-258815" lat="60.1796166661" lon="11.0281916678">
		<tag k="bridge" v="yes" />
		<tag k="layer" v="1" />
		<tag k="name" v="Ukkestad" />
		<tag k="ssr:stedsnr" v="592913" />
	</node>
	<node id="-257657" lat="60.2584694474" lon="11.0318583293">
		<tag k="junction" v="yes" />
		<tag k="name" v="Maura" />
		<tag k="place" v="locality" />
		<tag k="ssr:stedsnr" v="265139" />
	</node>
	<node id="-258040" lat="60.2572833307" lon="11.0387833379">
		<tag k="bridge" v="yes" />
		<tag k="layer" v="1" />
		<tag k="name" v="Maura skole" />
		<tag k="ssr:stedsnr" v="714821" />
	</node>
	<node id="-257783" lat="60.2098861155" lon="10.9985777764">
		<tag k="junction" v="yes" />
		<tag k="name" v="Låke" />
		<tag k="place" v="locality" />
		<tag k="ssr:stedsnr" v="326306" />
	</node>
	<node id="-258803" lat="60.2539361122" lon="11.1133750034">
		<tag k="junction" v="yes" />
		<tag k="name" v="Femvegkrysset" />
		<tag k="place" v="locality" />
		<tag k="ssr:stedsnr" v="569368" />
	</node>
	<node id="-258926" lat="60.2331916653" lon="10.9832499945">
		<tag k="bridge" v="yes" />
		<tag k="layer" v="1" />
		<tag k="name" v="Kringstad" />
		<tag k="ssr:stedsnr" v="774835" />
	</node>
	<node id="-259051" lat="60.1687611108" lon="10.9923027854">
		<tag k="bridge" v="yes" />
		<tag k="layer" v="1" />
		<tag k="name" v="Haug" />
		<tag k="ssr:stedsnr" v="956825" />
	</node>
	<node id="-259050" lat="60.1611499967" lon="11.0260583289">
		<tag k="bridge" v="yes" />
		<tag k="layer" v="1" />
		<tag k="name" v="Eik" />
		<tag k="ssr:stedsnr" v="956823" />
	</node>
	<node id="-259047" lat="60.217130554" lon="10.9606499958">
		<tag k="junction" v="yes" />
		<tag k="name" v="Nordby" />
		<tag k="place" v="locality" />
		<tag k="ssr:stedsnr" v="873297" />
	</node>
	<node id="-258917" lat="60.2745666699" lon="10.9890194475">
		<tag k="alt_name" v="Lisbetleet" />
		<tag k="name" v="Lisbetledet" />
		<tag k="place" v="locality" />
		<tag k="ssr:stedsnr" v="751464" />
	</node>
	<node id="-257764" lat="60.1367250039" lon="11.0239638924">
		<tag k="bridge" v="yes" />
		<tag k="layer" v="1" />
		<tag k="name" v="Eltonåsen" />
		<tag k="ssr:stedsnr" v="471832" />
	</node>
	<node id="-257891" lat="60.3412166678" lon="10.9970750014">
		<tag k="junction" v="yes" />
		<tag k="name" v="Furuene" />
		<tag k="place" v="locality" />
		<tag k="ssr:stedsnr" v="508421" />
	</node>
	<node id="-257765" lat="60.2601222257" lon="10.8852083378">
		<tag k="bridge" v="yes" />
		<tag k="layer" v="1" />
		<tag k="name" v="Vombakken viltkrysning" />
		<tag k="ssr:stedsnr" v="471872" />
	</node>
	<node id="-257755" lat="60.2620805539" lon="10.9564027701">
		<tag k="ford" v="yes" />
		<tag k="name" v="Strømsvadet" />
		<tag k="place" v="locality" />
		<tag k="ssr:stedsnr" v="448455" />
	</node>
	<node id="-257881" lat="60.1882999966" lon="11.0232527728">
		<tag k="junction" v="yes" />
		<tag k="name" v="Engelstadkorset" />
		<tag k="place" v="locality" />
		<tag k="ssr:stedsnr" v="508281" />
	</node>
	<node id="-257892" lat="60.3349861145" lon="11.0063111198">
		<tag k="ford" v="yes" />
		<tag k="name" v="Øverste vad" />
		<tag k="place" v="locality" />
		<tag k="ssr:stedsnr" v="508426" />
	</node>
	<node id="-259029" lat="60.1908694436" lon="10.9751138818">
		<tag k="junction" v="yes" />
		<tag k="name" v="Langerud" />
		<tag k="place" v="locality" />
		<tag k="ssr:stedsnr" v="872198" />
	</node>
	<node id="-257876" lat="60.1665722238" lon="11.0567027759">
		<tag k="highway" v="path" />
		<tag k="name" v="Kvennvegen" />
		<tag k="ssr:stedsnr" v="508205" />
	</node>
	<node id="-257763" lat="60.1331472209" lon="11.0799944403">
		<tag k="bridge" v="yes" />
		<tag k="layer" v="1" />
		<tag k="name" v="Kråkfoss" />
		<tag k="ssr:stedsnr" v="289871" />
	</node>
	<node id="-258511" lat="60.1369527771" lon="11.0558083247">
		<tag k="junction" v="yes" />
		<tag k="name" v="Løken" />
		<tag k="place" v="locality" />
		<tag k="ssr:stedsnr" v="205084" />
	</node>
	<node id="-258507" lat="60.1791833376" lon="10.8830722236">
		<tag k="highway" v="path" />
		<tag k="name" v="Gruvevegen" />
		<tag k="ssr:stedsnr" v="205035" />
	</node>
	<node id="-258112" lat="60.2541499981" lon="11.0676527713">
		<tag k="bridge" v="yes" />
		<tag k="layer" v="1" />
		<tag k="name" v="Heira" />
		<tag k="ssr:stedsnr" v="714815" />
	</node>
	<node id="-258623" lat="60.233997219" lon="10.9870194414">
		<tag k="bridge" v="yes" />
		<tag k="layer" v="1" />
		<tag k="name" v="Kringlerdalen" />
		<tag k="ssr:stedsnr" v="349849" />
	</node>
	<node id="-259006" lat="60.3340583354" lon="11.0316083423">
		<tag k="bridge" v="yes" />
		<tag k="layer" v="1" />
		<tag k="name" v="Holtet" />
		<tag k="ssr:stedsnr" v="835830" />
	</node>
	<node id="-257725" lat="60.1450055532" lon="11.0480250033">
		<tag k="junction" v="yes" />
		<tag k="name" v="Holter kirke" />
		<tag k="place" v="locality" />
		<tag k="ssr:stedsnr" v="448094" />
	</node>
	<node id="-257982" lat="60.2671972189" lon="10.9753388814">
		<tag k="junction" v="yes" />
		<tag k="name" v="Vollaugmoen" />
		<tag k="place" v="locality" />
		<tag k="ssr:stedsnr" v="508502" />
	</node>
	<node id="-258746" lat="60.2543000005" lon="11.0997249941">
		<tag k="junction" v="yes" />
		<tag k="name" v="Nordmokorset" />
		<tag k="place" v="locality" />
		<tag k="ssr:stedsnr" v="552238" />
	</node>
	<node id="-257718" lat="60.2546833376" lon="11.0641861136">
		<tag k="junction" v="yes" />
		<tag k="name" v="Kopperud" />
		<tag k="place" v="locality" />
		<tag k="ssr:stedsnr" v="205156" />
	</node>
	<node id="-257586" lat="60.3381027816" lon="11.0223388836">
		<tag k="bridge" v="yes" />
		<tag k="layer" v="1" />
		<tag k="name" v="Seterbekk" />
		<tag k="ssr:stedsnr" v="228848" />
	</node>
	<node id="-257585" lat="60.2640027768" lon="10.9623138888">
		<tag k="bridge" v="yes" />
		<tag k="layer" v="1" />
		<tag k="name" v="Kverndøla" />
		<tag k="ssr:stedsnr" v="228846" />
	</node>
	<node id="-257584" lat="60.2848972263" lon="10.8435750092">
		<tag k="bridge" v="yes" />
		<tag k="layer" v="1" />
		<tag k="name" v="Hellern" />
		<tag k="ssr:stedsnr" v="228844" />
	</node>
	<node id="-258223" lat="60.2478694468" lon="11.1220999949">
		<tag k="bridge" v="yes" />
		<tag k="layer" v="1" />
		<tag k="name" v="Sessvoll bru" />
		<tag k="ssr:stedsnr" v="896861" />
	</node>
	<node id="-258222" lat="60.2024083325" lon="10.9496500001">
		<tag k="bridge" v="yes" />
		<tag k="layer" v="1" />
		<tag k="name" v="Fiskelausa" />
		<tag k="ssr:stedsnr" v="896853" />
	</node>
	<node id="-257757" lat="60.2505694401" lon="10.9961750016">
		<tag k="junction" v="yes" />
		<tag k="name" v="Lauum" />
		<tag k="place" v="locality" />
		<tag k="ssr:stedsnr" v="448471" />
	</node>
	<node id="-258471" lat="60.1600583291" lon="11.0256666652">
		<tag k="bridge" v="yes" />
		<tag k="layer" v="1" />
		<tag k="name" v="Fagerli" />
		<tag k="ssr:stedsnr" v="167829" />
	</node>
	<node id="-258224" lat="60.2646416659" lon="10.9768750069">
		<tag k="bridge" v="yes" />
		<tag k="layer" v="1" />
		<tag k="name" v="Vållaugmoen" />
		<tag k="ssr:stedsnr" v="896909" />
	</node>
	<node id="-258975" lat="60.1791750014" lon="10.9877833362">
		<tag k="junction" v="yes" />
		<tag k="name" v="Nordbyteiet" />
		<tag k="place" v="locality" />
		<tag k="ssr:stedsnr" v="812227" />
	</node>
	<node id="-258204" lat="60.1917305547" lon="11.0345861082">
		<tag k="junction" v="yes" />
		<tag k="name" v="Engelstad" />
		<tag k="place" v="locality" />
		<tag k="ssr:stedsnr" v="872267" />
	</node>
	<node id="-258331" lat="60.1913694445" lon="11.0406194378">
		<tag k="bridge" v="yes" />
		<tag k="layer" v="1" />
		<tag k="name" v="Sogna" />
		<tag k="ssr:stedsnr" v="46897" />
	</node>
	<node id="-258188" lat="60.1911277798" lon="11.0340583351">
		<tag k="bridge" v="yes" />
		<tag k="layer" v="1" />
		<tag k="name" v="Engelstad" />
		<tag k="ssr:stedsnr" v="835825" />
	</node>
	<node id="-258368" lat="60.1796027785" lon="11.0278055613">
		<tag k="junction" v="yes" />
		<tag k="name" v="Ukustadkrysset" />
		<tag k="place" v="locality" />
		<tag k="ssr:stedsnr" v="84294" />
	</node>
</osm>
