<?xml version="1.0" encoding="UTF-8"?>
<osm version="0.6" generator="osmapis">
	<node lat="60.24059999785777" lon="11.111950008612157" id="-29540">
		<tag k="name" v="Flatnertjernet" />
		<tag k="natural" v="water" />
		<tag k="ssr:stedsnr" v="5321" />
	</node>
	<node lat="60.17271666981915" lon="10.978755556907993" id="-29542">
		<tag k="name" v="Meieridammen" />
		<tag k="natural" v="water" />
		<tag k="ssr:stedsnr" v="5671" />
	</node>
	<node lat="60.24233888575333" lon="10.829252781601447" id="-29544">
		<tag k="alt_name" v="Trytetjernet" />
		<tag k="name" v="Trytetjern" />
		<tag k="natural" v="water" />
		<tag k="ssr:stedsnr" v="5805" />
	</node>
	<node lat="60.159170038994056" lon="10.954017279020306" id="-29545">
		<tag k="alt_name" v="Gimilen" />
		<tag k="name" v="Store Gimilen" />
		<tag k="natural" v="water" />
		<tag k="ssr:stedsnr" v="5711" />
	</node>
	<node lat="60.168077781841305" lon="10.884658325995085" id="-29555">
		<tag k="name" v="Guriputtbekken" />
		<tag k="ssr:stedsnr" v="23042" />
		<tag k="waterway" v="stream" />
	</node>
	<node lat="60.18583889032723" lon="10.813088890792763" id="-29558">
		<tag k="name" v="Tvekjellersmalet" />
		<tag k="natural" v="bay" />
		<tag k="ssr:stedsnr" v="23202" />
	</node>
	<node lat="60.31100833546666" lon="10.937591674452417" id="-29564">
		<tag k="name" v="Øytjernbekken" />
		<tag k="ssr:stedsnr" v="23289" />
		<tag k="waterway" v="stream" />
	</node>
	<node lat="60.278405553305646" lon="10.851838885165197" id="-29567">
		<tag k="name" v="Svensfløyta" />
		<tag k="place" v="locality" />
		<tag k="ssr:stedsnr" v="23419" />
	</node>
	<node lat="60.26573055437408" lon="11.0779250053175" id="-29572">
		<tag k="name" v="Kirstibekken" />
		<tag k="ssr:stedsnr" v="23184" />
		<tag k="waterway" v="stream" />
	</node>
	<node lat="60.18945833460147" lon="10.79979999643769" id="-29590">
		<tag k="alt_name" v="Malerputten" />
		<tag k="name" v="Malarputten" />
		<tag k="natural" v="water" />
		<tag k="ssr:stedsnr" v="66753" />
	</node>
	<node lat="60.24522500086869" lon="10.901952786656663" id="-29593">
		<tag k="name" v="Håkenstjernet" />
		<tag k="natural" v="water" />
		<tag k="ssr:stedsnr" v="66908" />
	</node>
	<node lat="60.24639999591358" lon="10.807625000261353" id="-29594">
		<tag k="name" v="Svartputt" />
		<tag k="natural" v="water" />
		<tag k="ssr:stedsnr" v="66912" />
	</node>
	<node lat="60.31118055726379" lon="10.967675001762801" id="-29598">
		<tag k="alt_name" v="Lustjernet" />
		<tag k="name" v="Lustjern" />
		<tag k="natural" v="water" />
		<tag k="ssr:stedsnr" v="67322" />
	</node>
	<node lat="60.30657777877901" lon="10.914524999107833" id="-29599">
		<tag k="alt_name" v="Kvernsjøen vesle" />
		<tag k="name" v="Vesle Kvernsjøen" />
		<tag k="natural" v="water" />
		<tag k="ssr:stedsnr" v="67325" />
	</node>
	<node lat="60.32238055884272" lon="10.930849997128751" id="-29601">
		<tag k="name" v="Langvatn" />
		<tag k="natural" v="water" />
		<tag k="ssr:stedsnr" v="67293" />
	</node>
	<node lat="60.314236110714276" lon="10.959813883834112" id="-29611">
		<tag k="name" v="Klofjelltjernet" />
		<tag k="natural" v="water" />
		<tag k="ssr:stedsnr" v="84439" />
	</node>
	<node lat="60.2023555587554" lon="10.980394445043032" id="-29618">
		<tag k="name" v="Verkensfossen" />
		<tag k="natural" v="waterfall" />
		<tag k="ssr:stedsnr" v="84309" />
	</node>
	<node lat="60.19913610827645" lon="10.979052776356461" id="-29619">
		<tag k="name" v="Rotumunn" />
		<tag k="natural" v="water" />
		<tag k="ssr:stedsnr" v="84310" />
		<tag k="water" v="lake" />
	</node>
	<node lat="60.20385852889978" lon="10.829779328652018" id="-29620">
		<tag k="name" v="Tangen" />
		<tag k="natural" v="cape" />
		<tag k="ssr:stedsnr" v="84333" />
	</node>
	<node lat="60.12271389237324" lon="11.048375005830025" id="-29624">
		<tag k="name" v="Slemdalbekken" />
		<tag k="ssr:stedsnr" v="126642" />
		<tag k="waterway" v="stream" />
	</node>
	<node lat="60.24460000271469" lon="10.83868334172652" id="-29626">
		<tag k="name" v="Smalsortungen" />
		<tag k="natural" v="water" />
		<tag k="ssr:stedsnr" v="126913" />
	</node>
	<node lat="60.27552499788479" lon="10.847124995097786" id="-29627">
		<tag k="alt_name" v="Sortungselva" />
		<tag k="name" v="Sortungsbekken" />
		<tag k="ssr:stedsnr" v="127348" />
		<tag k="waterway" v="stream" />
	</node>
	<node lat="60.17629166445576" lon="10.976916673595552" id="-29630">
		<tag k="name" v="Stordammen" />
		<tag k="natural" v="water" />
		<tag k="ssr:stedsnr" v="127722" />
	</node>
	<node lat="60.178519442516624" lon="10.89712500644677" id="-29637">
		<tag k="name" v="Dalstjernbekken" />
		<tag k="ssr:stedsnr" v="144034" />
		<tag k="waterway" v="stream" />
	</node>
	<node lat="60.20838055951165" lon="10.803394435980767" id="-29642">
		<tag k="name" v="Larsodden" />
		<tag k="natural" v="cape" />
		<tag k="ssr:stedsnr" v="144202" />
	</node>
	<node lat="60.215680553913636" lon="11.020941659885077" id="-29646">
		<tag k="name" v="Gullbekken" />
		<tag k="ssr:stedsnr" v="144314" />
		<tag k="waterway" v="stream" />
	</node>
	<node lat="60.25710277793881" lon="10.854174999972463" id="-29647">
		<tag k="name" v="Steinmyrbekken" />
		<tag k="ssr:stedsnr" v="144376" />
		<tag k="waterway" v="stream" />
	</node>
	<node lat="60.287994441148314" lon="10.99621389711063" id="-29658">
		<tag k="name" v="Køltjernet" />
		<tag k="natural" v="water" />
		<tag k="ssr:stedsnr" v="144494" />
	</node>
	<node lat="60.250649997150596" lon="11.012552769287229" id="-29660">
		<tag k="name" v="Stangerbekken" />
		<tag k="ssr:stedsnr" v="326122" />
		<tag k="waterway" v="stream" />
	</node>
	<node lat="60.154985145561206" lon="10.90975181714118" id="-29662">
		<tag k="name" v="Skjellbreia" />
		<tag k="natural" v="water" />
		<tag k="ssr:stedsnr" v="248738" />
	</node>
	<node lat="60.14185278169983" lon="10.92213054933059" id="-29663">
		<tag k="name" v="Eiksbekken" />
		<tag k="ssr:stedsnr" v="248751" />
		<tag k="waterway" v="stream" />
	</node>
	<node lat="60.139438893090855" lon="11.007355552822357" id="-29668">
		<tag k="name" v="Harstadtjernet" />
		<tag k="natural" v="water" />
		<tag k="ssr:stedsnr" v="248662" />
	</node>
	<node lat="60.244997520217545" lon="10.885556711883824" id="-29669">
		<tag k="alt_name" v="Bergtjernet" />
		<tag k="name" v="Bergstjernet" />
		<tag k="natural" v="water" />
		<tag k="ssr:stedsnr" v="248932" />
	</node>
	<node lat="60.1991138852302" lon="10.803699993016446" id="-29674">
		<tag k="alt_name" v="Storrsjøen" />
		<tag k="name" v="Stårsjøen" />
		<tag k="natural" v="water" />
		<tag k="ssr:stedsnr" v="248793" />
	</node>
	<node lat="60.20266666273426" lon="10.778599992321933" id="-29675">
		<tag k="name" v="Kolsjøen" />
		<tag k="natural" v="water" />
		<tag k="ssr:stedsnr" v="248794" />
	</node>
	<node lat="60.23118889001268" lon="10.811908324684232" id="-29679">
		<tag k="name" v="Kroktjernet" />
		<tag k="natural" v="water" />
		<tag k="ssr:stedsnr" v="248834" />
	</node>
	<node lat="60.23906479082085" lon="10.833178307114604" id="-29680">
		<tag k="name" v="Trevatna" />
		<tag k="natural" v="water" />
		<tag k="ssr:stedsnr" v="248847" />
		<tag k="water" v="lake" />
	</node>
	<node lat="60.233424999445326" lon="10.883897213204584" id="-29698">
		<tag k="name" v="Merratjernet" />
		<tag k="natural" v="water" />
		<tag k="ssr:stedsnr" v="187823" />
	</node>
	<node lat="60.14098055898801" lon="11.078005548427917" id="-29706">
		<tag k="name" v="Tanga" />
		<tag k="natural" v="cape" />
		<tag k="ssr:stedsnr" v="205005" />
	</node>
	<node lat="60.171013889412244" lon="11.01083055506845" id="-29715">
		<tag k="name" v="Feviksbekken" />
		<tag k="ssr:stedsnr" v="205208" />
		<tag k="waterway" v="stream" />
	</node>
	<node lat="60.261452773829774" lon="10.945380563854505" id="-29717">
		<tag k="name" v="Gåfossen" />
		<tag k="natural" v="waterfall" />
		<tag k="ssr:stedsnr" v="205251" />
	</node>
	<node lat="60.30642222283058" lon="10.925858332609113" id="-29720">
		<tag k="name" v="Vesle Musetjernet" />
		<tag k="natural" v="water" />
		<tag k="ssr:stedsnr" v="205266" />
	</node>
	<node lat="60.18327778023804" lon="10.908775001309827" id="-29726">
		<tag k="name" v="Delbekken" />
		<tag k="ssr:stedsnr" v="206019" />
		<tag k="waterway" v="stream" />
	</node>
	<node lat="60.15094999601548" lon="10.9134527862951" id="-29728">
		<tag k="name" v="Vesle Skjellbreia" />
		<tag k="natural" v="water" />
		<tag k="ssr:stedsnr" v="206961" />
	</node>
	<node lat="60.22027222122249" lon="10.898049999706192" id="-29759">
		<tag k="name" v="Kjønstadputten" />
		<tag k="natural" v="water" />
		<tag k="ssr:stedsnr" v="448344" />
	</node>
	<node lat="60.21352777476979" lon="10.89420832624375" id="-29765">
		<tag k="name" v="Svarttjernet" />
		<tag k="natural" v="water" />
		<tag k="ssr:stedsnr" v="448059" />
	</node>
	<node lat="60.33967222163076" lon="10.99773332649839" id="-29787">
		<tag k="name" v="Mariannbekken" />
		<tag k="ssr:stedsnr" v="448420" />
		<tag k="waterway" v="stream" />
	</node>
	<node lat="60.20043610984679" lon="10.820377770710023" id="-29794">
		<tag k="name" v="Sandvika" />
		<tag k="natural" v="bay" />
		<tag k="ssr:stedsnr" v="448366" />
	</node>
	<node lat="60.127647225519695" lon="10.921394442419606" id="-29808">
		<tag k="name" v="Kålputtvika" />
		<tag k="natural" v="bay" />
		<tag k="ssr:stedsnr" v="448957" />
	</node>
	<node lat="60.19498005130603" lon="10.881071189605251" id="-29813">
		<tag k="loc_name" v="Bertnessjøen" />
		<tag k="name" v="Bjertnessjøen" />
		<tag k="natural" v="water" />
		<tag k="ssr:stedsnr" v="308805" />
		<tag k="water" v="lake" />
	</node>
	<node lat="60.15693889290988" lon="10.929733329165302" id="-29814">
		<tag k="alt_name" v="Buvatn" />
		<tag k="name" v="Vestre Buvatn" />
		<tag k="natural" v="water" />
		<tag k="ssr:stedsnr" v="308723" />
	</node>
	<node lat="60.15579557068567" lon="10.922348920593691" id="-29815">
		<tag k="name" v="Tjerntjernet" />
		<tag k="natural" v="water" />
		<tag k="ssr:stedsnr" v="308724" />
	</node>
	<node lat="60.17508889026429" lon="10.900583330453292" id="-29825">
		<tag k="name" v="Dalstjernet" />
		<tag k="natural" v="water" />
		<tag k="ssr:stedsnr" v="309711" />
	</node>
	<node lat="60.17156111394597" lon="10.931024996092429" id="-29826">
		<tag k="name" v="Spilen" />
		<tag k="natural" v="water" />
		<tag k="ssr:stedsnr" v="309698" />
	</node>
	<node lat="60.21358889038941" lon="10.84431110556868" id="-29827">
		<tag k="name" v="Herretjernsbekken" />
		<tag k="ssr:stedsnr" v="309854" />
		<tag k="waterway" v="stream" />
	</node>
	<node lat="60.22371667093589" lon="10.823124999308082" id="-29828">
		<tag k="name" v="Trasletjernet" />
		<tag k="natural" v="water" />
		<tag k="ssr:stedsnr" v="309866" />
	</node>
	<node lat="60.23401388939765" lon="10.851791666307038" id="-29840">
		<tag k="name" v="Damvika" />
		<tag k="natural" v="bay" />
		<tag k="ssr:stedsnr" v="326343" />
	</node>
	<node lat="60.16792777722573" lon="11.021952771686466" id="-29844">
		<tag k="name" v="Austadbekken" />
		<tag k="ssr:stedsnr" v="326216" />
		<tag k="waterway" v="stream" />
	</node>
	<node lat="60.24574166483218" lon="10.824538891523524" id="-29846">
		<tag k="name" v="Seksputten" />
		<tag k="natural" v="water" />
		<tag k="ssr:stedsnr" v="326219" />
	</node>
	<node lat="60.14218611169887" lon="10.95282500229975" id="-29858">
		<tag k="alt_name" v="Hylliputtene" />
		<tag k="name" v="Hylliputtane" />
		<tag k="natural" v="water" />
		<tag k="ssr:stedsnr" v="369590" />
	</node>
	<node lat="60.140324999631474" lon="10.945100004221288" id="-29861">
		<tag k="name" v="Trestikka" />
		<tag k="natural" v="water" />
		<tag k="ssr:stedsnr" v="369605" />
	</node>
	<node lat="60.125961109450465" lon="10.982663888666453" id="-29864">
		<tag k="name" v="Gimildammen" />
		<tag k="natural" v="water" />
		<tag k="ssr:stedsnr" v="369614" />
	</node>
	<node lat="60.23377697966284" lon="10.811818349123946" id="-29865">
		<tag k="name" v="Kuletjerna" />
		<tag k="natural" v="water" />
		<tag k="ssr:stedsnr" v="369815" />
		<tag k="water" v="lake" />
	</node>
	<node lat="60.189245126637246" lon="10.831525095511683" id="-29869">
		<tag k="alt_name" v="Elsjøane, lille" />
		<tag k="name" v="Vesle Elsjø" />
		<tag k="natural" v="water" />
		<tag k="ssr:stedsnr" v="369785" />
		<tag k="water" v="lake" />
	</node>
	<node lat="60.31390000180709" lon="10.929402775488958" id="-29872">
		<tag k="name" v="Bergevatn" />
		<tag k="natural" v="water" />
		<tag k="ssr:stedsnr" v="370306" />
	</node>
	<node lat="60.32250833463642" lon="11.001274999075548" id="-29873">
		<tag k="alt_name" v="Dalstjernet" />
		<tag k="name" v="Dalstjern" />
		<tag k="natural" v="water" />
		<tag k="ssr:stedsnr" v="370310" />
	</node>
	<node lat="60.27436782827603" lon="10.873097615328483" id="-29877">
		<tag k="alt_name" v="Stråtjern" />
		<tag k="loc_name" v="Stråtjennet" />
		<tag k="name" v="Stråtjernet" />
		<tag k="natural" v="water" />
		<tag k="ssr:stedsnr" v="370384" />
		<tag k="water" v="lake" />
	</node>
	<node lat="60.31731389131151" lon="10.87681944247605" id="-29881">
		<tag k="name" v="Hellerodden" />
		<tag k="natural" v="cape" />
		<tag k="ssr:stedsnr" v="386333" />
	</node>
	<node lat="60.16915277833655" lon="11.012705561995993" id="-29891">
		<tag k="name" v="Østbybekken" />
		<tag k="ssr:stedsnr" v="387212" />
		<tag k="waterway" v="stream" />
	</node>
	<node lat="60.32209444889753" lon="10.905977772351969" id="-29898">
		<tag k="name" v="Svartputtbekken" />
		<tag k="ssr:stedsnr" v="387255" />
		<tag k="waterway" v="stream" />
	</node>
	<node lat="60.33381111530453" lon="11.052158334658333" id="-29901">
		<tag k="name" v="Juddetjernsvika" />
		<tag k="natural" v="bay" />
		<tag k="ssr:stedsnr" v="387409" />
	</node>
	<node lat="60.22610277571038" lon="10.81157500359652" id="-29909">
		<tag k="name" v="Torestjernet" />
		<tag k="natural" v="water" />
		<tag k="ssr:stedsnr" v="430806" />
	</node>
	<node lat="60.229208332829494" lon="10.868574993036964" id="-29910">
		<tag k="name" v="Drittjern" />
		<tag k="natural" v="water" />
		<tag k="ssr:stedsnr" v="430816" />
	</node>
	<node lat="60.2182591765822" lon="10.847547721987318" id="-29916">
		<tag k="alt_name" v="Herretjerna østre" />
		<tag k="name" v="Østre Herretjern" />
		<tag k="natural" v="water" />
		<tag k="ssr:stedsnr" v="430864" />
	</node>
	<node lat="60.29375000181374" lon="10.9351500087687" id="-29917">
		<tag k="name" v="Svartbørja" />
		<tag k="ssr:stedsnr" v="431312" />
		<tag k="waterway" v="stream" />
	</node>
	<node lat="60.26623333050197" lon="10.886099993057849" id="-29918">
		<tag k="name" v="Fløyta" />
		<tag k="natural" v="water" />
		<tag k="ssr:stedsnr" v="431402" />
	</node>
	<node lat="60.1453055585372" lon="10.947766673627655" id="-29920">
		<tag k="alt_name" v="Buvatnet" />
		<tag k="name" v="Østre Buvatn" />
		<tag k="natural" v="water" />
		<tag k="ssr:stedsnr" v="431657" />
	</node>
	<node lat="60.33264444796661" lon="10.944705556704198" id="-29926">
		<tag k="name" v="Hellerbekken" />
		<tag k="ssr:stedsnr" v="448139" />
		<tag k="waterway" v="stream" />
	</node>
	<node lat="60.17566388801257" lon="11.006727769585236" id="-29929">
		<tag k="name" v="Nordbybekken" />
		<tag k="ssr:stedsnr" v="448210" />
		<tag k="waterway" v="stream" />
	</node>
	<node lat="60.12432499797908" lon="11.085263890293929" id="-29950">
		<tag k="name" v="Fossfossen" />
		<tag k="natural" v="waterfall" />
		<tag k="ssr:stedsnr" v="490686" />
	</node>
	<node lat="60.187658331245075" lon="10.814055553674336" id="-29951">
		<tag k="alt_name" v="Tvekjellerne, nordre" />
		<tag k="name" v="Nordre Tvekjelleren" />
		<tag k="natural" v="water" />
		<tag k="ssr:stedsnr" v="490803" />
		<tag k="water" v="lake" />
	</node>
	<node lat="60.23874166783958" lon="10.880405556208832" id="-29952">
		<tag k="name" v="Tangetjernet" />
		<tag k="natural" v="water" />
		<tag k="ssr:stedsnr" v="490835" />
	</node>
	<node lat="60.29498333501155" lon="11.077030552883457" id="-29960">
		<tag k="name" v="Tangenvika" />
		<tag k="natural" v="bay" />
		<tag k="ssr:stedsnr" v="491300" />
	</node>
	<node lat="60.228802781312595" lon="10.922000006033194" id="-29961">
		<tag k="name" v="Tørrmåsatjernet" />
		<tag k="natural" v="water" />
		<tag k="ssr:stedsnr" v="491810" />
	</node>
	<node lat="60.15195555431611" lon="10.902399999121537" id="-29966">
		<tag k="name" v="Gjevtjernet" />
		<tag k="natural" v="water" />
		<tag k="ssr:stedsnr" v="491731" />
	</node>
	<node lat="60.19355555286101" lon="10.902252778020603" id="-29968">
		<tag k="name" v="Tolleftjernbekken" />
		<tag k="ssr:stedsnr" v="508022" />
		<tag k="waterway" v="stream" />
	</node>
	<node lat="60.30825000440648" lon="10.952099993166556" id="-29992">
		<tag k="alt_name" v="Tøletjernene, nedre" />
		<tag k="name" v="Nedre Tøletjernet" />
		<tag k="natural" v="water" />
		<tag k="ssr:stedsnr" v="673331" />
	</node>
	<node lat="60.195125000808005" lon="10.817174999141821" id="-30003">
		<tag k="alt_name" v="Kløvningstjernet" />
		<tag k="name" v="Kløyvningstjernet" />
		<tag k="natural" v="water" />
		<tag k="ssr:stedsnr" v="673746" />
	</node>
	<node lat="60.236024995838044" lon="10.830961101873807" id="-30005">
		<tag k="name" v="Råbjørn" />
		<tag k="natural" v="water" />
		<tag k="ssr:stedsnr" v="673838" />
		<tag k="water" v="lake" />
	</node>
	<node lat="60.22127500397803" lon="10.90623333580469" id="-30008">
		<tag k="alt_name" v="Løysa" />
		<tag k="name" v="Fiskeløysa" />
		<tag k="ssr:stedsnr" v="673877" />
		<tag k="waterway" v="stream" />
	</node>
	<node lat="60.16168651944585" lon="10.90124758413253" id="-30021">
		<tag k="name" v="Djupøyungen" />
		<tag k="natural" v="water" />
		<tag k="ssr:stedsnr" v="551720" />
		<tag k="water" v="lake" />
	</node>
	<node lat="60.24652499748132" lon="10.87971388189057" id="-30023">
		<tag k="name" v="Kroktjernet" />
		<tag k="natural" v="water" />
		<tag k="ssr:stedsnr" v="551918" />
	</node>
	<node lat="60.241822223906986" lon="11.05517499587371" id="-30025">
		<tag k="name" v="Hæra" />
		<tag k="ssr:stedsnr" v="551849" />
		<tag k="waterway" v="stream" />
	</node>
	<node lat="60.276400001659276" lon="10.932799998553284" id="-30032">
		<tag k="name" v="Kverndøla" />
		<tag k="ssr:stedsnr" v="552351" />
		<tag k="waterway" v="river" />
	</node>
	<node lat="60.26065277345235" lon="10.828991659603956" id="-30041">
		<tag k="name" v="Lønntjernet" />
		<tag k="natural" v="water" />
		<tag k="ssr:stedsnr" v="568229" />
	</node>
	<node lat="60.33275832971269" lon="10.936036117890975" id="-30044">
		<tag k="name" v="Sundbysæterbekken" />
		<tag k="ssr:stedsnr" v="568119" />
		<tag k="waterway" v="stream" />
	</node>
	<node lat="60.28047222622555" lon="11.092649993859151" id="-30046">
		<tag k="name" v="Limsetodden" />
		<tag k="natural" v="cape" />
		<tag k="ssr:stedsnr" v="568155" />
	</node>
	<node lat="60.2590777817003" lon="10.919533327329882" id="-30049">
		<tag k="name" v="Seterbekken" />
		<tag k="ssr:stedsnr" v="568368" />
		<tag k="waterway" v="stream" />
	</node>
	<node lat="60.26606666762398" lon="10.882738897872791" id="-30050">
		<tag k="name" v="Youngshølen" />
		<tag k="place" v="locality" />
		<tag k="ssr:stedsnr" v="568370" />
	</node>
	<node lat="60.239074997863646" lon="11.103161105401485" id="-30061">
		<tag k="name" v="Tørrkulp" />
		<tag k="natural" v="water" />
		<tag k="ssr:stedsnr" v="569361" />
	</node>
	<node lat="60.1362333376735" lon="10.9144555572179" id="-30065">
		<tag k="name" v="Smalgjermenningen" />
		<tag k="natural" v="water" />
		<tag k="ssr:stedsnr" v="611675" />
	</node>
	<node lat="60.13572499960339" lon="10.986888880707214" id="-30066">
		<tag k="name" v="Krabekken" />
		<tag k="ssr:stedsnr" v="611676" />
		<tag k="waterway" v="stream" />
	</node>
	<node lat="60.134675002944064" lon="10.961830558669199" id="-30067">
		<tag k="alt_name" v="Gimilelva" />
		<tag k="name" v="Gimilen" />
		<tag k="ssr:stedsnr" v="611677" />
		<tag k="waterway" v="river" />
	</node>
	<node lat="60.3225999956555" lon="11.011325000410478" id="-30069">
		<tag k="name" v="Flatnertjernet" />
		<tag k="natural" v="water" />
		<tag k="ssr:stedsnr" v="612276" />
	</node>
	<node lat="60.324075002393094" lon="10.904827769891176" id="-30071">
		<tag k="name" v="Svartputten" />
		<tag k="natural" v="water" />
		<tag k="ssr:stedsnr" v="612282" />
	</node>
	<node lat="60.33660555624637" lon="11.03872778641231" id="-30072">
		<tag k="name" v="Holtodden" />
		<tag k="natural" v="cape" />
		<tag k="ssr:stedsnr" v="612286" />
	</node>
	<node lat="60.233700002480205" lon="10.825050006275362" id="-30075">
		<tag k="name" v="Skardvika" />
		<tag k="natural" v="bay" />
		<tag k="ssr:stedsnr" v="612814" />
	</node>
	<node lat="60.18542500290377" lon="10.957230558627549" id="-30080">
		<tag k="alt_name" v="Venfbekken" />
		<tag k="name" v="Vendbekken" />
		<tag k="ssr:stedsnr" v="612780" />
		<tag k="waterway" v="stream" />
	</node>
	<node lat="60.296836111710974" lon="10.926577770311964" id="-30083">
		<tag k="name" v="Hesteputten" />
		<tag k="natural" v="water" />
		<tag k="ssr:stedsnr" v="690125" />
	</node>
	<node lat="60.279361940325686" lon="11.090454642007273" id="-30090">
		<tag k="name" v="Lima" />
		<tag k="natural" v="bay" />
		<tag k="ssr:stedsnr" v="690162" />
	</node>
	<node lat="60.25661666562922" lon="10.921380556955803" id="-30096">
		<tag k="name" v="Dølifossen" />
		<tag k="natural" v="waterfall" />
		<tag k="ssr:stedsnr" v="690261" />
	</node>
	<node lat="60.235638885902866" lon="10.84186945011617" id="-30100">
		<tag k="name" v="Trøsliøya" />
		<tag k="natural" v="cape" />
		<tag k="ssr:stedsnr" v="690373" />
	</node>
	<node lat="60.20976944055365" lon="10.892455563623093" id="-30112">
		<tag k="name" v="Svarttjernbekken" />
		<tag k="ssr:stedsnr" v="629059" />
		<tag k="waterway" v="stream" />
	</node>
	<node lat="60.171838888095024" lon="10.905466667613444" id="-30113">
		<tag k="name" v="Svartputten" />
		<tag k="natural" v="water" />
		<tag k="ssr:stedsnr" v="629063" />
	</node>
	<node lat="60.29678055981407" lon="10.86670555412901" id="-30119">
		<tag k="name" v="Aurtjernbekken" />
		<tag k="ssr:stedsnr" v="629262" />
		<tag k="waterway" v="stream" />
	</node>
	<node lat="60.18360000361523" lon="11.004974997499275" id="-30122">
		<tag k="name" v="Garvefossen" />
		<tag k="natural" v="waterfall" />
		<tag k="ssr:stedsnr" v="629197" />
	</node>
	<node lat="60.267152773462165" lon="10.92834444185325" id="-30124">
		<tag k="name" v="Redebergbekken" />
		<tag k="ssr:stedsnr" v="629355" />
		<tag k="waterway" v="stream" />
	</node>
	<node lat="60.217097224158564" lon="10.969649992049298" id="-30130">
		<tag k="name" v="Eskerudbekken" />
		<tag k="ssr:stedsnr" v="691313" />
		<tag k="waterway" v="stream" />
	</node>
	<node lat="60.24507777703264" lon="11.102408334592235" id="-30135">
		<tag k="name" v="Sørmotjernet" />
		<tag k="natural" v="water" />
		<tag k="ssr:stedsnr" v="672298" />
	</node>
	<node lat="60.15991388608104" lon="10.971397220319753" id="-30139">
		<tag k="name" v="Trolldalsbekken" />
		<tag k="ssr:stedsnr" v="672723" />
		<tag k="waterway" v="stream" />
	</node>
	<node lat="60.1639555512581" lon="10.991008329239488" id="-30140">
		<tag k="name" v="Ramstaddammen" />
		<tag k="natural" v="water" />
		<tag k="ssr:stedsnr" v="672725" />
	</node>
	<node lat="60.31652500149434" lon="10.881424993735376" id="-30143">
		<tag k="name" v="Kvernsjøen" />
		<tag k="natural" v="water" />
		<tag k="ssr:stedsnr" v="673279" />
		<tag k="water" v="lake" />
	</node>
	<node lat="60.2254638926641" lon="10.893333329695068" id="-30146">
		<tag k="name" v="Låketjernet" />
		<tag k="natural" v="water" />
		<tag k="ssr:stedsnr" v="673822" />
	</node>
	<node lat="60.26123333294272" lon="11.012230553684349" id="-30150">
		<tag k="name" v="Åsbekken" />
		<tag k="ssr:stedsnr" v="690122" />
		<tag k="waterway" v="stream" />
	</node>
	<node lat="60.18948055745945" lon="10.873066670229909" id="-30152">
		<tag k="name" v="Knepphaugbekken" />
		<tag k="ssr:stedsnr" v="690033" />
		<tag k="waterway" v="stream" />
	</node>
	<node lat="60.277172226196065" lon="10.932058328752364" id="-30160">
		<tag k="name" v="Brattfossen" />
		<tag k="natural" v="waterfall" />
		<tag k="ssr:stedsnr" v="690399" />
	</node>
	<node lat="60.30440833007897" lon="11.025925006868373" id="-30161">
		<tag k="name" v="Abrahamsbekken" />
		<tag k="ssr:stedsnr" v="690507" />
		<tag k="waterway" v="stream" />
	</node>
	<node lat="60.27788055787166" lon="10.845530562959924" id="-30163">
		<tag k="name" v="Tangvadfløyta" />
		<tag k="place" v="locality" />
		<tag k="ssr:stedsnr" v="690412" />
	</node>
	<node lat="60.19282777638583" lon="10.840316675408044" id="-30172">
		<tag k="alt_name" v="Roligtjerna, vestre" />
		<tag k="name" v="Vestre Roligtjern" />
		<tag k="natural" v="water" />
		<tag k="ssr:stedsnr" v="733744" />
	</node>
	<node lat="60.192986107991345" lon="10.848950008670553" id="-30174">
		<tag k="alt_name" v="Roligtjerna, nordre" />
		<tag k="name" v="Nordre Roligtjern" />
		<tag k="natural" v="water" />
		<tag k="ssr:stedsnr" v="733787" />
	</node>
	<node lat="60.24793610734634" lon="10.82325832410177" id="-30177">
		<tag k="alt_name" v="Ekstjernet" />
		<tag k="name" v="Ekstjern" />
		<tag k="natural" v="water" />
		<tag k="ssr:stedsnr" v="733907" />
	</node>
	<node lat="60.32600000036375" lon="11.063966673618003" id="-30181">
		<tag k="name" v="Andengvika" />
		<tag k="natural" v="bay" />
		<tag k="ssr:stedsnr" v="734306" />
	</node>
	<node lat="60.30491944109953" lon="10.922686105535782" id="-30190">
		<tag k="name" v="Store Musetjernet" />
		<tag k="natural" v="water" />
		<tag k="ssr:stedsnr" v="751129" />
	</node>
	<node lat="60.32630277540779" lon="11.020516659590077" id="-30202">
		<tag k="name" v="Seterskolbekken" />
		<tag k="ssr:stedsnr" v="751416" />
		<tag k="waterway" v="stream" />
	</node>
	<node lat="60.343508329512616" lon="11.02514722053561" id="-30203">
		<tag k="name" v="Engevika" />
		<tag k="natural" v="bay" />
		<tag k="ssr:stedsnr" v="751417" />
	</node>
	<node lat="60.336277781999975" lon="11.035219436667262" id="-30204">
		<tag k="name" v="Holtvika" />
		<tag k="natural" v="bay" />
		<tag k="ssr:stedsnr" v="751421" />
	</node>
	<node lat="60.13973611218769" lon="10.959497229400633" id="-30210">
		<tag k="name" v="Hylliputtbekken" />
		<tag k="ssr:stedsnr" v="751907" />
		<tag k="waterway" v="stream" />
	</node>
	<node lat="60.14243610879488" lon="10.897905553280019" id="-30215">
		<tag k="name" v="Gjermåa" />
		<tag k="ssr:stedsnr" v="794629" />
		<tag k="waterway" v="stream" />
	</node>
	<node lat="60.24811825518333" lon="10.86117079157532" id="-30221">
		<tag k="alt_name" v="Fagertjernet" />
		<tag k="name" v="Fagertjern" />
		<tag k="natural" v="water" />
		<tag k="ssr:stedsnr" v="794921" />
	</node>
	<node lat="60.29762499938148" lon="10.978899992226403" id="-30223">
		<tag k="alt_name" v="Vikka, store" />
		<tag k="name" v="Store Vikka" />
		<tag k="natural" v="water" />
		<tag k="ssr:stedsnr" v="795326" />
	</node>
	<node lat="60.25182500395116" lon="10.845152781038449" id="-30226">
		<tag k="name" v="Joputten" />
		<tag k="natural" v="water" />
		<tag k="ssr:stedsnr" v="795413" />
	</node>
	<node lat="60.21607777488844" lon="10.893263880196564" id="-30232">
		<tag k="name" v="Vestbyputten" />
		<tag k="natural" v="water" />
		<tag k="ssr:stedsnr" v="812048" />
	</node>
	<node lat="60.219119445858254" lon="10.779388886365853" id="-30239">
		<tag k="name" v="Melåsbekken" />
		<tag k="ssr:stedsnr" v="812203" />
		<tag k="waterway" v="stream" />
	</node>
	<node lat="60.206047220982434" lon="10.80224999817342" id="-30240">
		<tag k="name" v="Gråmerra" />
		<tag k="place" v="islet" />
		<tag k="ssr:stedsnr" v="812204" />
	</node>
	<node lat="60.24930277857549" lon="10.827166668813202" id="-30246">
		<tag k="name" v="Blekkeputt" />
		<tag k="natural" v="water" />
		<tag k="ssr:stedsnr" v="812239" />
	</node>
	<node lat="60.19064166820252" lon="10.795399996777741" id="-30250">
		<tag k="name" v="Kjerringsputten" />
		<tag k="natural" v="water" />
		<tag k="ssr:stedsnr" v="812187" />
	</node>
	<node lat="60.236597220862485" lon="10.86084444201689" id="-30254">
		<tag k="name" v="Løysetjernet" />
		<tag k="natural" v="water" />
		<tag k="ssr:stedsnr" v="812335" />
	</node>
	<node lat="60.24350555303763" lon="10.878530555169574" id="-30256">
		<tag k="name" v="Sauputten" />
		<tag k="natural" v="water" />
		<tag k="ssr:stedsnr" v="812345" />
	</node>
	<node lat="60.170325002153525" lon="10.922658336286121" id="-30263">
		<tag k="name" v="Helletjernet" />
		<tag k="natural" v="water" />
		<tag k="ssr:stedsnr" v="855708" />
	</node>
	<node lat="60.162411108965806" lon="10.951177774759202" id="-30265">
		<tag k="alt_name" v="Gimilen, vesle" />
		<tag k="name" v="Vesle Gimilen" />
		<tag k="natural" v="water" />
		<tag k="ssr:stedsnr" v="855748" />
	</node>
	<node lat="60.18301666837824" lon="10.822147221003258" id="-30267">
		<tag k="name" v="Grønputt" />
		<tag k="natural" v="water" />
		<tag k="ssr:stedsnr" v="855837" />
	</node>
	<node lat="60.19967499833318" lon="10.917647226470248" id="-30276">
		<tag k="name" v="Sjunken" />
		<tag k="place" v="locality" />
		<tag k="ssr:stedsnr" v="915764" />
	</node>
	<node lat="60.236526816657566" lon="10.8589003342789" id="-30277">
		<tag k="name" v="Dansetjernet" />
		<tag k="natural" v="water" />
		<tag k="ssr:stedsnr" v="915835" />
	</node>
	<node lat="60.27575555608349" lon="11.00732499754545" id="-30284">
		<tag k="alt_name" v="Vikkebekken" />
		<tag k="name" v="Vikka" />
		<tag k="ssr:stedsnr" v="916362" />
		<tag k="waterway" v="stream" />
	</node>
	<node lat="60.2871749985266" lon="11.006450001250068" id="-30286">
		<tag k="alt_name" v="Vikka, vesle" />
		<tag k="name" v="Vesle Vikka" />
		<tag k="natural" v="water" />
		<tag k="ssr:stedsnr" v="916365" />
	</node>
	<node lat="60.17397500038712" lon="10.888077782969473" id="-30289">
		<tag k="name" v="Flatnertjerna" />
		<tag k="natural" v="water" />
		<tag k="ssr:stedsnr" v="916733" />
		<tag k="water" v="lake" />
	</node>
	<node lat="60.25882778103611" lon="10.931183332575761" id="-30296">
		<tag k="name" v="Syltefossen" />
		<tag k="natural" v="waterfall" />
		<tag k="ssr:stedsnr" v="872237" />
	</node>
	<node lat="60.293333331401904" lon="10.909000001410158" id="-30298">
		<tag k="name" v="Endemyrbekken" />
		<tag k="ssr:stedsnr" v="872252" />
		<tag k="waterway" v="stream" />
	</node>
	<node lat="60.27833888732143" lon="10.977338890011426" id="-30304">
		<tag k="name" v="Borhaugbekken" />
		<tag k="ssr:stedsnr" v="872303" />
		<tag k="waterway" v="stream" />
	</node>
	<node lat="60.27836666878411" lon="10.835447224796512" id="-30305">
		<tag k="name" v="Nedre Hellerhølen" />
		<tag k="place" v="locality" />
		<tag k="ssr:stedsnr" v="872405" />
	</node>
	<node lat="60.24803332965741" lon="11.067494446136244" id="-30307">
		<tag k="name" v="Lybekkbekken" />
		<tag k="ssr:stedsnr" v="872416" />
		<tag k="waterway" v="stream" />
	</node>
	<node lat="60.25443889014737" lon="10.967563897567658" id="-30309">
		<tag k="name" v="Bråtabekken" />
		<tag k="ssr:stedsnr" v="872475" />
		<tag k="waterway" v="stream" />
	</node>
	<node lat="60.294425003642495" lon="11.061472215268388" id="-30312">
		<tag k="name" v="Seljebekken" />
		<tag k="ssr:stedsnr" v="872513" />
		<tag k="waterway" v="stream" />
	</node>
	<node lat="60.25148096249887" lon="10.841258993275547" id="-30316">
		<tag k="alt_name" v="Breisortungen" />
		<tag k="name" v="Breidsortungen" />
		<tag k="natural" v="water" />
		<tag k="ssr:stedsnr" v="917338" />
	</node>
	<node lat="60.30010277797254" lon="11.048633338464477" id="-30323">
		<tag k="name" v="Sollitjernet" />
		<tag k="natural" v="water" />
		<tag k="ssr:stedsnr" v="916304" />
	</node>
	<node lat="60.3005527743205" lon="10.933483334189095" id="-30324">
		<tag k="alt_name" v="Kutjernet" />
		<tag k="name" v="Kutjern" />
		<tag k="natural" v="water" />
		<tag k="ssr:stedsnr" v="916309" />
	</node>
	<node lat="60.30360000383847" lon="10.866974994693502" id="-30325">
		<tag k="alt_name" v="Aurtjernet" />
		<tag k="name" v="Aurtjern" />
		<tag k="natural" v="water" />
		<tag k="ssr:stedsnr" v="916312" />
	</node>
	<node lat="60.182819442643556" lon="10.811319449657354" id="-30331">
		<tag k="alt_name" v="Tvekjellerne, søndre" />
		<tag k="name" v="Søndre Tvekjelleren" />
		<tag k="natural" v="water" />
		<tag k="ssr:stedsnr" v="916820" />
		<tag k="water" v="lake" />
	</node>
	<node lat="60.257263884591616" lon="10.926602774272666" id="-30341">
		<tag k="name" v="Seterfossen" />
		<tag k="natural" v="waterfall" />
		<tag k="ssr:stedsnr" v="933223" />
	</node>
	<node lat="60.28233333112855" lon="11.071649995694294" id="-30343">
		<tag k="name" v="Østlibekken" />
		<tag k="ssr:stedsnr" v="933154" />
		<tag k="waterway" v="stream" />
	</node>
	<node lat="60.268599999820076" lon="11.089447214243936" id="-30344">
		<tag k="name" v="Surpedalsbekken" />
		<tag k="ssr:stedsnr" v="933157" />
		<tag k="waterway" v="stream" />
	</node>
	<node lat="60.2050166652305" lon="11.008980556894548" id="-30348">
		<tag k="name" v="Kjerkebekken" />
		<tag k="ssr:stedsnr" v="933307" />
		<tag k="waterway" v="stream" />
	</node>
	<node lat="60.133600002020096" lon="10.92609722323044" id="-30363">
		<tag k="alt_name" v="Bellrottjernet" />
		<tag k="name" v="Bellrottjern" />
		<tag k="natural" v="water" />
		<tag k="ssr:stedsnr" v="5633" />
	</node>
	<node lat="60.15563888675404" lon="10.89225277727961" id="-30364">
		<tag k="name" v="Storøyungen" />
		<tag k="natural" v="water" />
		<tag k="ssr:stedsnr" v="5700" />
		<tag k="water" v="lake" />
	</node>
	<node lat="60.222591663447815" lon="10.93788888817713" id="-30371">
		<tag k="alt_name" v="Elbekken" />
		<tag k="name" v="Elgbekken" />
		<tag k="ssr:stedsnr" v="5842" />
		<tag k="waterway" v="stream" />
	</node>
	<node lat="60.22424444168813" lon="10.88718888951578" id="-30390">
		<tag k="name" v="Drittjernbekken" />
		<tag k="ssr:stedsnr" v="23390" />
		<tag k="waterway" v="stream" />
	</node>
	<node lat="60.24662777501175" lon="10.888422223784065" id="-30391">
		<tag k="name" v="Bergtjernputten" />
		<tag k="natural" v="water" />
		<tag k="ssr:stedsnr" v="23399" />
	</node>
	<node lat="60.29213889309858" lon="11.037691658531262" id="-30396">
		<tag k="name" v="Fløttbekken" />
		<tag k="ssr:stedsnr" v="23546" />
		<tag k="waterway" v="stream" />
	</node>
	<node lat="60.30549166985664" lon="10.951972218412136" id="-30400">
		<tag k="name" v="Tøldammen" />
		<tag k="ssr:stedsnr" v="23561" />
		<tag k="waterway" v="dam" />
	</node>
	<node lat="60.184767187612145" lon="10.84668662187879" id="-30408">
		<tag k="alt_name" v="Elsjøane, store" />
		<tag k="name" v="Store Elsjø" />
		<tag k="natural" v="water" />
		<tag k="ssr:stedsnr" v="66784" />
		<tag k="water" v="lake" />
	</node>
	<node lat="60.23124166713206" lon="10.83040554851418" id="-30410">
		<tag k="name" v="Stubbetjernet" />
		<tag k="natural" v="water" />
		<tag k="ssr:stedsnr" v="66809" />
	</node>
	<node lat="60.15158889041252" lon="11.003494438857906" id="-30423">
		<tag k="name" v="Skvalabekk" />
		<tag k="ssr:stedsnr" v="84096" />
		<tag k="waterway" v="stream" />
	</node>
	<node lat="60.187302780793885" lon="10.900144450399255" id="-30427">
		<tag k="name" v="Brattfossen" />
		<tag k="natural" v="waterfall" />
		<tag k="ssr:stedsnr" v="84025" />
	</node>
	<node lat="60.26670277437386" lon="11.042269441561944" id="-30437">
		<tag k="name" v="Kløvbekken" />
		<tag k="ssr:stedsnr" v="84480" />
		<tag k="waterway" v="stream" />
	</node>
	<node lat="60.318002781970996" lon="10.998383336937746" id="-30441">
		<tag k="name" v="Svartputten" />
		<tag k="natural" v="water" />
		<tag k="ssr:stedsnr" v="84512" />
	</node>
	<node lat="60.22820555972258" lon="10.948386104598404" id="-30452">
		<tag k="name" v="Revlingen" />
		<tag k="natural" v="water" />
		<tag k="ssr:stedsnr" v="126815" />
	</node>
	<node lat="60.20456437307274" lon="10.812183944721962" id="-30457">
		<tag k="name" v="Råsjøen" />
		<tag k="natural" v="water" />
		<tag k="ssr:stedsnr" v="126748" />
		<tag k="water" v="lake" />
	</node>
	<node lat="60.1894666641807" lon="10.850119441977382" id="-30460">
		<tag k="alt_name" v="Roligtjerna, søndre" />
		<tag k="name" v="Søndre Roligtjern" />
		<tag k="natural" v="water" />
		<tag k="ssr:stedsnr" v="126776" />
	</node>
	<node lat="60.30780104435912" lon="10.988038681647444" id="-30462">
		<tag k="name" v="Honsjøen" />
		<tag k="natural" v="water" />
		<tag k="old_name" v="Hornsjøen" />
		<tag k="ssr:stedsnr" v="127329" />
		<tag k="water" v="lake" />
	</node>
	<node lat="60.20138889096914" lon="10.889727772489318" id="-30474">
		<tag k="name" v="Lemtjernet" />
		<tag k="natural" v="water" />
		<tag k="ssr:stedsnr" v="144052" />
	</node>
	<node lat="60.27804166771453" lon="10.82678889634289" id="-30483">
		<tag k="name" v="Øvre Hellerhølen" />
		<tag k="place" v="locality" />
		<tag k="ssr:stedsnr" v="144243" />
	</node>
	<node lat="60.31294166350712" lon="10.884505549276293" id="-30490">
		<tag k="name" v="Smalet" />
		<tag k="natural" v="strait" />
		<tag k="ssr:stedsnr" v="144368" />
	</node>
	<node lat="60.248536115611046" lon="10.841033326483418" id="-30491">
		<tag k="name" v="Smalsortungsbekken" />
		<tag k="ssr:stedsnr" v="144371" />
		<tag k="waterway" v="stream" />
	</node>
	<node lat="60.131044447029666" lon="10.911969439625171" id="-30492">
		<tag k="name" v="Smalet" />
		<tag k="natural" v="water" />
		<tag k="ssr:stedsnr" v="144938" />
		<tag k="water" v="lake" />
	</node>
	<node lat="60.13704722561027" lon="10.93181944028133" id="-30494">
		<tag k="name" v="Grøsåkerputtene" />
		<tag k="natural" v="water" />
		<tag k="ssr:stedsnr" v="144967" />
		<tag k="water" v="pond" />
	</node>
	<node lat="60.30477499877598" lon="10.898383327888391" id="-30506">
		<tag k="name" v="Fløyta" />
		<tag k="natural" v="water" />
		<tag k="ssr:stedsnr" v="188330" />
	</node>
	<node lat="60.19503055664554" lon="10.782891675737462" id="-30508">
		<tag k="name" v="Kroktjernet" />
		<tag k="natural" v="water" />
		<tag k="ssr:stedsnr" v="187741" />
	</node>
	<node lat="60.339327777221584" lon="10.965825001454931" id="-30516">
		<tag k="name" v="Hegga" />
		<tag k="ssr:stedsnr" v="188563" />
		<tag k="waterway" v="river" />
	</node>
	<node lat="60.240608334773384" lon="10.834052784856087" id="-30532">
		<tag k="name" v="Dublinsputt" />
		<tag k="natural" v="water" />
		<tag k="ssr:stedsnr" v="205376" />
	</node>
	<node lat="60.205652778127124" lon="10.81712777122161" id="-30533">
		<tag k="name" v="Langes utsikt" />
		<tag k="natural" v="cape" />
		<tag k="ssr:stedsnr" v="205380" />
	</node>
	<node lat="60.20098888975158" lon="10.90133611620374" id="-30535">
		<tag k="name" v="Steinbekken" />
		<tag k="ssr:stedsnr" v="205049" />
		<tag k="waterway" v="stream" />
	</node>
	<node lat="60.18781388527625" lon="10.794908334859839" id="-30536">
		<tag k="name" v="Navnlausputtene" />
		<tag k="natural" v="water" />
		<tag k="ssr:stedsnr" v="205180" />
	</node>
	<node lat="60.1977111082797" lon="10.983497222236034" id="-30540">
		<tag k="name" v="Kopperudfossen" />
		<tag k="natural" v="waterfall" />
		<tag k="ssr:stedsnr" v="205193" />
	</node>
	<node lat="60.29839166254457" lon="10.966680554424585" id="-30543">
		<tag k="name" v="Tolleftjernbekken" />
		<tag k="ssr:stedsnr" v="205548" />
		<tag k="waterway" v="stream" />
	</node>
	<node lat="60.19353333402578" lon="10.905622219725586" id="-30550">
		<tag k="name" v="Rotua" />
		<tag k="ssr:stedsnr" v="205937" />
		<tag k="waterway" v="river" />
	</node>
	<node lat="60.29752500422921" lon="10.93258611671563" id="-30559">
		<tag k="name" v="Kutjernbekken" />
		<tag k="ssr:stedsnr" v="265128" />
		<tag k="waterway" v="stream" />
	</node>
	<node lat="60.24449166352016" lon="11.02116667440915" id="-30560">
		<tag k="name" v="Holibekken" />
		<tag k="ssr:stedsnr" v="265138" />
		<tag k="waterway" v="stream" />
	</node>
	<node lat="60.256752773921214" lon="10.823866671789354" id="-30562">
		<tag k="name" v="Markusputten" />
		<tag k="natural" v="water" />
		<tag k="ssr:stedsnr" v="265232" />
		<tag k="water" v="pond" />
	</node>
	<node lat="60.31676111127036" lon="10.907611118857082" id="-30564">
		<tag k="name" v="Fagertjernbekken" />
		<tag k="ssr:stedsnr" v="265246" />
		<tag k="waterway" v="stream" />
	</node>
	<node lat="60.236488891347385" lon="10.878766663515284" id="-30568">
		<tag k="name" v="Tangetjernbekken" />
		<tag k="ssr:stedsnr" v="265356" />
		<tag k="waterway" v="stream" />
	</node>
	<node lat="60.316986114748985" lon="10.886641661287749" id="-30569">
		<tag k="name" v="Sandvika" />
		<tag k="natural" v="bay" />
		<tag k="ssr:stedsnr" v="265368" />
	</node>
	<node lat="60.291369445166666" lon="10.846811102709461" id="-30572">
		<tag k="name" v="Hellebekken" />
		<tag k="ssr:stedsnr" v="265293" />
		<tag k="waterway" v="stream" />
	</node>
	<node lat="60.21076111104482" lon="10.907752776718786" id="-30587">
		<tag k="name" v="Mattjerna" />
		<tag k="natural" v="water" />
		<tag k="ssr:stedsnr" v="308847" />
		<tag k="water" v="lake" />
	</node>
	<node lat="60.317625003375305" lon="10.952400004516265" id="-30589">
		<tag k="name" v="Hosetjernet" />
		<tag k="natural" v="water" />
		<tag k="ssr:stedsnr" v="309285" />
	</node>
	<node lat="60.230136111649415" lon="10.784888882515242" id="-30593">
		<tag k="name" v="Skotjernet" />
		<tag k="natural" v="water" />
		<tag k="ssr:stedsnr" v="309819" />
	</node>
	<node lat="60.30212499984874" lon="10.959849997861555" id="-30594">
		<tag k="name" v="Tolleftjernet" />
		<tag k="natural" v="water" />
		<tag k="ssr:stedsnr" v="309328" />
	</node>
	<node lat="60.20996388485908" lon="10.88856666886444" id="-30603">
		<tag k="name" v="Låkesæterbekken" />
		<tag k="ssr:stedsnr" v="326048" />
		<tag k="waterway" v="stream" />
	</node>
	<node lat="60.22799722187052" lon="10.797180547840254" id="-30607">
		<tag k="name" v="Hesteputtene" />
		<tag k="natural" v="water" />
		<tag k="ssr:stedsnr" v="326168" />
	</node>
	<node lat="60.23502499657173" lon="10.793008331419808" id="-30608">
		<tag k="name" v="Nordre Skotjern" />
		<tag k="natural" v="water" />
		<tag k="ssr:stedsnr" v="326170" />
	</node>
	<node lat="60.31045833679557" lon="10.882086113171942" id="-30609">
		<tag k="name" v="Svarttjernbekken" />
		<tag k="ssr:stedsnr" v="326363" />
		<tag k="waterway" v="stream" />
	</node>
	<node lat="60.24921389155357" lon="11.008713887022694" id="-30611">
		<tag k="name" v="Rudshølen" />
		<tag k="place" v="locality" />
		<tag k="ssr:stedsnr" v="326125" />
	</node>
	<node lat="60.33902221902092" lon="11.015472222895287" id="-30621">
		<tag k="name" v="Vangbekken" />
		<tag k="ssr:stedsnr" v="326417" />
		<tag k="waterway" v="stream" />
	</node>
	<node lat="60.22905833329798" lon="10.894405563458372" id="-30629">
		<tag k="alt_name" v="Øvre Gåsetjern" />
		<tag k="name" v="Gåsetjernet" />
		<tag k="natural" v="water" />
		<tag k="ssr:stedsnr" v="369797" />
	</node>
	<node lat="60.17537500409931" lon="10.883705561291324" id="-30634">
		<tag k="name" v="Guriputten" />
		<tag k="natural" v="water" />
		<tag k="ssr:stedsnr" v="369657" />
	</node>
	<node lat="60.191150000248186" lon="10.774836115047597" id="-30635">
		<tag k="alt_name" v="Dampipern" />
		<tag k="name" v="Dampiperen" />
		<tag k="natural" v="water" />
		<tag k="ssr:stedsnr" v="369746" />
	</node>
	<node lat="60.19737499949314" lon="10.902105559782774" id="-30637">
		<tag k="alt_name" v="Tolleftjernet" />
		<tag k="name" v="Tollevstjernet" />
		<tag k="natural" v="water" />
		<tag k="ssr:stedsnr" v="369762" />
	</node>
	<node lat="60.30287499759784" lon="10.882527775993333" id="-30644">
		<tag k="alt_name" v="Svarttjernet" />
		<tag k="name" v="Svarttjern" />
		<tag k="natural" v="water" />
		<tag k="ssr:stedsnr" v="370348" />
	</node>
	<node lat="60.311649999028276" lon="10.953550005236309" id="-30646">
		<tag k="alt_name" v="Tøletjernene, øvre" />
		<tag k="name" v="Øvre Tøletjernet" />
		<tag k="natural" v="water" />
		<tag k="ssr:stedsnr" v="370358" />
	</node>
	<node lat="60.34803610930883" lon="11.04032500730429" id="-30648">
		<tag k="name" v="Hurdalssjøen" />
		<tag k="natural" v="water" />
		<tag k="ssr:stedsnr" v="384430" />
		<tag k="water" v="lake" />
	</node>
	<node lat="60.22335555823478" lon="10.810555555823003" id="-30652">
		<tag k="name" v="Torestjernbekken" />
		<tag k="ssr:stedsnr" v="387189" />
		<tag k="waterway" v="stream" />
	</node>
	<node lat="60.32513889038389" lon="10.945541670633851" id="-30655">
		<tag k="name" v="Krokbekken" />
		<tag k="ssr:stedsnr" v="387256" />
		<tag k="waterway" v="stream" />
	</node>
	<node lat="60.19974722300572" lon="10.829155562256904" id="-30665">
		<tag k="name" v="Elsjøbekken" />
		<tag k="ssr:stedsnr" v="387347" />
		<tag k="waterway" v="stream" />
	</node>
	<node lat="60.17741111514588" lon="10.864188887104673" id="-30680">
		<tag k="name" v="Engelstadtjernet" />
		<tag k="natural" v="water" />
		<tag k="ssr:stedsnr" v="430693" />
	</node>
	<node lat="60.1919979064028" lon="11.0408662471875" id="-30686">
		<tag k="name" v="Sogna" />
		<tag k="ssr:stedsnr" v="430743" />
		<tag k="waterway" v="river" />
	</node>
	<node lat="60.19338611055245" lon="10.789586112613147" id="-30687">
		<tag k="alt_name" v="Skomakerputten" />
		<tag k="name" v="Skomakarputten" />
		<tag k="natural" v="water" />
		<tag k="ssr:stedsnr" v="430751" />
	</node>
	<node lat="60.31999999907016" lon="10.948830556038795" id="-30690">
		<tag k="alt_name" v="Sjuputtene" />
		<tag k="name" v="Sjuputtane" />
		<tag k="natural" v="water" />
		<tag k="ssr:stedsnr" v="431276" />
	</node>
	<node lat="60.314458336951446" lon="10.938375003242859" id="-30691">
		<tag k="alt_name" v="Krosstjernet" />
		<tag k="name" v="Krosstjern" />
		<tag k="natural" v="water" />
		<tag k="ssr:stedsnr" v="431279" />
	</node>
	<node lat="60.323099997284984" lon="10.914477778238972" id="-30692">
		<tag k="alt_name" v="Fagertjernet" />
		<tag k="name" v="Fagertjern" />
		<tag k="natural" v="water" />
		<tag k="ssr:stedsnr" v="431297" />
	</node>
	<node lat="60.26072222078923" lon="10.820144435375923" id="-30698">
		<tag k="alt_name" v="Langvannet" />
		<tag k="name" v="Langevatnet" />
		<tag k="natural" v="water" />
		<tag k="ssr:stedsnr" v="431391" />
	</node>
	<node lat="60.16381111066542" lon="10.907247225198198" id="-30700">
		<tag k="name" v="Slattumsvika" />
		<tag k="natural" v="bay" />
		<tag k="ssr:stedsnr" v="490714" />
	</node>
	<node lat="60.131288887329276" lon="10.917861113064737" id="-30703">
		<tag k="name" v="Kålputten" />
		<tag k="natural" v="water" />
		<tag k="ssr:stedsnr" v="490668" />
	</node>
	<node lat="60.23850000398979" lon="10.940925003114057" id="-30705">
		<tag k="name" v="Storholtbekken" />
		<tag k="ssr:stedsnr" v="490832" />
		<tag k="waterway" v="stream" />
	</node>
	<node lat="60.28975833075525" lon="10.982149991126517" id="-30709">
		<tag k="alt_name" v="Skarstjernet" />
		<tag k="name" v="Skardstjernet" />
		<tag k="natural" v="water" />
		<tag k="ssr:stedsnr" v="491358" />
	</node>
	<node lat="60.32594999974749" lon="10.988452772090424" id="-30712">
		<tag k="name" v="Skjennumtjernet" />
		<tag k="natural" v="water" />
		<tag k="ssr:stedsnr" v="491266" />
	</node>
	<node lat="60.21822778225717" lon="10.88170555030685" id="-30717">
		<tag k="name" v="Blekketjernet" />
		<tag k="natural" v="water" />
		<tag k="ssr:stedsnr" v="491865" />
	</node>
	<node lat="60.33648055777798" lon="10.93171389456828" id="-30722">
		<tag k="name" v="Heggkollbekken" />
		<tag k="ssr:stedsnr" v="508129" />
		<tag k="waterway" v="stream" />
	</node>
	<node lat="60.212361108688796" lon="10.776472228668768" id="-30737">
		<tag k="name" v="Botnetjernsbekken" />
		<tag k="ssr:stedsnr" v="508176" />
		<tag k="waterway" v="stream" />
	</node>
	<node lat="60.27546944434543" lon="10.869627772165607" id="-30738">
		<tag k="name" v="Øygarden" />
		<tag k="natural" v="cape" />
		<tag k="ssr:stedsnr" v="508393" />
	</node>
	<node lat="60.20200000243444" lon="10.826872219281372" id="-30744">
		<tag k="name" v="Elsjøvika" />
		<tag k="natural" v="bay" />
		<tag k="ssr:stedsnr" v="508353" />
	</node>
	<node lat="60.24000277453878" lon="10.838547226138372" id="-30746">
		<tag k="name" v="Elgputten" />
		<tag k="natural" v="water" />
		<tag k="ssr:stedsnr" v="508357" />
	</node>
	<node lat="60.143886113501026" lon="10.90756111909771" id="-30752">
		<tag k="name" v="Åbortjernet" />
		<tag k="natural" v="water" />
		<tag k="ssr:stedsnr" v="509943" />
	</node>
	<node lat="60.17513611453652" lon="10.943205559152512" id="-30754">
		<tag k="alt_name" v="Merratjernet" />
		<tag k="name" v="Merratjern" />
		<tag k="natural" v="water" />
		<tag k="ssr:stedsnr" v="551695" />
	</node>
	<node lat="60.217058331050545" lon="10.83921945291819" id="-30763">
		<tag k="alt_name" v="Herretjerna vestre" />
		<tag k="name" v="Vestre Herretjern" />
		<tag k="natural" v="water" />
		<tag k="ssr:stedsnr" v="551883" />
	</node>
	<node lat="60.253250002313756" lon="10.832449991162676" id="-30772">
		<tag k="name" v="Prestkona" />
		<tag k="natural" v="water" />
		<tag k="ssr:stedsnr" v="552400" />
	</node>
	<node lat="60.16945000027952" lon="10.870074993808755" id="-30780">
		<tag k="name" v="Fjøsdalsbekken" />
		<tag k="ssr:stedsnr" v="568039" />
		<tag k="waterway" v="stream" />
	</node>
	<node lat="60.173755557772985" lon="10.887802772741555" id="-30781">
		<tag k="name" v="Nordre Flatnertjernet" />
		<tag k="natural" v="water" />
		<tag k="ssr:stedsnr" v="568041" />
	</node>
	<node lat="60.2098861068846" lon="10.861905556817808" id="-30782">
		<tag k="name" v="Skjellbekken" />
		<tag k="ssr:stedsnr" v="568049" />
		<tag k="waterway" v="stream" />
	</node>
	<node lat="60.199966663679895" lon="10.88304722664585" id="-30783">
		<tag k="name" v="Bjertnessæterbekken" />
		<tag k="ssr:stedsnr" v="568054" />
		<tag k="waterway" v="stream" />
	</node>
	<node lat="60.3028861089497" lon="10.854522230523825" id="-30785">
		<tag k="name" v="Knapptjernet" />
		<tag k="natural" v="water" />
		<tag k="ssr:stedsnr" v="568273" />
	</node>
	<node lat="60.225772224647685" lon="10.947338886296597" id="-30787">
		<tag k="name" v="Revlingsbekken" />
		<tag k="ssr:stedsnr" v="568317" />
		<tag k="waterway" v="stream" />
	</node>
	<node lat="60.305977780708325" lon="10.858913889166423" id="-30791">
		<tag k="name" v="Jammerholtputten" />
		<tag k="natural" v="water" />
		<tag k="ssr:stedsnr" v="568350" />
		<tag k="water" v="pond" />
	</node>
	<node lat="60.19822500171978" lon="10.778808337984485" id="-30804">
		<tag k="name" v="Oberstputten" />
		<tag k="natural" v="water" />
		<tag k="ssr:stedsnr" v="611798" />
	</node>
	<node lat="60.28726388827862" lon="10.966774997858689" id="-30811">
		<tag k="alt_name" v="Tølbekken" />
		<tag k="name" v="Tøla" />
		<tag k="ssr:stedsnr" v="612364" />
		<tag k="waterway" v="stream" />
	</node>
	<node lat="60.21334999573654" lon="10.77437500154844" id="-30820">
		<tag k="alt_name" v="Botnetjernet" />
		<tag k="name" v="Botnetjern" />
		<tag k="natural" v="water" />
		<tag k="ssr:stedsnr" v="612845" />
	</node>
	<node lat="60.29271110876452" lon="11.023827772783731" id="-30831">
		<tag k="name" v="Drittbekken" />
		<tag k="ssr:stedsnr" v="629479" />
		<tag k="waterway" v="stream" />
	</node>
	<node lat="60.22595277553135" lon="10.806341664601574" id="-30834">
		<tag k="name" v="Eriksputten" />
		<tag k="natural" v="water" />
		<tag k="ssr:stedsnr" v="629180" />
	</node>
	<node lat="60.203624996503834" lon="10.932691672874368" id="-30838">
		<tag k="name" v="Henriksfossen" />
		<tag k="natural" v="waterfall" />
		<tag k="ssr:stedsnr" v="629190" />
	</node>
	<node lat="60.17064999954847" lon="10.888922214944634" id="-30840">
		<tag k="name" v="Søndre Flatnertjernet" />
		<tag k="natural" v="water" />
		<tag k="ssr:stedsnr" v="629044" />
	</node>
	<node lat="60.125613888929415" lon="10.912130562565402" id="-30854">
		<tag k="name" v="Kirkebygjermenningen" />
		<tag k="natural" v="water" />
		<tag k="ssr:stedsnr" v="733634" />
	</node>
	<node lat="59.98788888984426" lon="11.084655560632108" id="-30857">
		<tag k="alt_name" v="Leirelva" />
		<tag k="name" v="Leira" />
		<tag k="ssr:stedsnr" v="733534" />
		<tag k="waterway" v="river" />
	</node>
	<node lat="60.16177957783643" lon="10.939419605287371" id="-30858">
		<tag k="name" v="Vardåstjernet" />
		<tag k="natural" v="water" />
		<tag k="ssr:stedsnr" v="733682" />
	</node>
	<node lat="60.15298611124196" lon="10.950113885935053" id="-30859">
		<tag k="alt_name" v="Magnhildsputten" />
		<tag k="name" v="Magnhildputten" />
		<tag k="natural" v="water" />
		<tag k="ssr:stedsnr" v="733732" />
	</node>
	<node lat="60.23540000013511" lon="10.873424995342413" id="-30861">
		<tag k="name" v="Fiskeløysa" />
		<tag k="natural" v="water" />
		<tag k="ssr:stedsnr" v="733831" />
	</node>
	<node lat="60.1503487810696" lon="10.998628339108361" id="-30871">
		<tag k="name" v="Revtjernet" />
		<tag k="natural" v="water" />
		<tag k="ssr:stedsnr" v="734753" />
	</node>
	<node lat="60.335569441437016" lon="10.919952774455792" id="-30877">
		<tag k="name" v="Tangensæterbekken" />
		<tag k="ssr:stedsnr" v="751140" />
		<tag k="waterway" v="stream" />
	</node>
	<node lat="60.202627779273875" lon="10.805830553649951" id="-30888">
		<tag k="name" v="Storrsjøbekken" />
		<tag k="ssr:stedsnr" v="751197" />
		<tag k="waterway" v="stream" />
	</node>
	<node lat="60.1995277805831" lon="11.016052774057291" id="-30892">
		<tag k="name" v="Leirbekken" />
		<tag k="ssr:stedsnr" v="751299" />
		<tag k="waterway" v="stream" />
	</node>
	<node lat="60.20727777559244" lon="10.903336112478657" id="-30899">
		<tag k="name" v="Mattjernbekken" />
		<tag k="ssr:stedsnr" v="751056" />
		<tag k="waterway" v="stream" />
	</node>
	<node lat="60.237980555721805" lon="10.852094447081063" id="-30903">
		<tag k="name" v="Hyttevika" />
		<tag k="natural" v="bay" />
		<tag k="ssr:stedsnr" v="751355" />
	</node>
	<node lat="60.27643610791456" lon="10.863036106315171" id="-30904">
		<tag k="name" v="Treparta" />
		<tag k="place" v="locality" />
		<tag k="ssr:stedsnr" v="751387" />
	</node>
	<node lat="60.27967222140995" lon="10.838686105609355" id="-30905">
		<tag k="name" v="Bergtjernbekken" />
		<tag k="ssr:stedsnr" v="751391" />
		<tag k="waterway" v="stream" />
	</node>
	<node lat="60.19186388797518" lon="10.803825006938405" id="-30914">
		<tag k="name" v="Larsputten" />
		<tag k="natural" v="water" />
		<tag k="ssr:stedsnr" v="794760" />
	</node>
	<node lat="60.17902499804325" lon="10.918624999037979" id="-30917">
		<tag k="name" v="Grimstjernet" />
		<tag k="natural" v="water" />
		<tag k="ssr:stedsnr" v="794782" />
	</node>
	<node lat="60.29719999586999" lon="10.88932499706992" id="-30922">
		<tag k="alt_name" v="Himtjernet" />
		<tag k="name" v="Heimtjern" />
		<tag k="natural" v="water" />
		<tag k="ssr:stedsnr" v="795333" />
	</node>
	<node lat="60.31786388632206" lon="10.938386117271346" id="-30925">
		<tag k="alt_name" v="Kroktjernet" />
		<tag k="name" v="Kroktjern" />
		<tag k="natural" v="water" />
		<tag k="ssr:stedsnr" v="795293" />
	</node>
	<node lat="60.313225000838806" lon="10.934377783416132" id="-30926">
		<tag k="alt_name" v="Øytjernet" />
		<tag k="name" v="Øytjern" />
		<tag k="natural" v="water" />
		<tag k="ssr:stedsnr" v="795295" />
	</node>
	<node lat="60.16007222031276" lon="10.88415000275264" id="-30929">
		<tag k="name" v="Lerbergsvika" />
		<tag k="natural" v="bay" />
		<tag k="ssr:stedsnr" v="812028" />
	</node>
	<node lat="60.20376388957289" lon="10.940913882014826" id="-30931">
		<tag k="name" v="Tangefløyta" />
		<tag k="natural" v="water" />
		<tag k="ssr:stedsnr" v="812218" />
		<tag k="water" v="lake" />
	</node>
	<node lat="60.22159166309652" lon="10.84174722551776" id="-30935">
		<tag k="name" v="Herretjernspungen" />
		<tag k="natural" v="water" />
		<tag k="ssr:stedsnr" v="812331" />
	</node>
	<node lat="60.18858333207627" lon="10.856225003151776" id="-30963">
		<tag k="alt_name" v="Roligtjerna, østre" />
		<tag k="name" v="Østre Roligtjern" />
		<tag k="natural" v="water" />
		<tag k="ssr:stedsnr" v="855831" />
	</node>
	<node lat="60.32210000224319" lon="11.039325004115561" id="-30964">
		<tag k="name" v="Holtbekken" />
		<tag k="ssr:stedsnr" v="856285" />
		<tag k="waterway" v="stream" />
	</node>
	<node lat="60.30333332980619" lon="10.946027775836665" id="-30969">
		<tag k="alt_name" v="Bleketjernet" />
		<tag k="name" v="Bleketjern" />
		<tag k="natural" v="water" />
		<tag k="ssr:stedsnr" v="856317" />
	</node>
	<node lat="60.290325000910954" lon="11.049499996542389" id="-30970">
		<tag k="name" v="Hona" />
		<tag k="old_name" v="Horna" />
		<tag k="ssr:stedsnr" v="856383" />
		<tag k="waterway" v="river" />
	</node>
	<node lat="60.18764167093148" lon="10.890025000460902" id="-30977">
		<tag k="name" v="Dorpesæterfløyta" />
		<tag k="natural" v="water" />
		<tag k="ssr:stedsnr" v="872024" />
		<tag k="water" v="lake" />
	</node>
	<node lat="60.13178610828884" lon="11.078966668570326" id="-30978">
		<tag k="name" v="Kråkfossen" />
		<tag k="natural" v="waterfall" />
		<tag k="ssr:stedsnr" v="872001" />
	</node>
	<node lat="60.291191665510446" lon="11.088794445308144" id="-30983">
		<tag k="name" v="Hæroset" />
		<tag k="natural" v="bay" />
		<tag k="ssr:stedsnr" v="872163" />
	</node>
	<node lat="60.27819999989448" lon="10.849127786771367" id="-30992">
		<tag k="name" v="Brunsfossen" />
		<tag k="natural" v="waterfall" />
		<tag k="ssr:stedsnr" v="872402" />
	</node>
	<node lat="60.13529999677501" lon="10.906002781167077" id="-30996">
		<tag k="name" v="Øyungselva" />
		<tag k="ssr:stedsnr" v="873930" />
		<tag k="waterway" v="river" />
	</node>
	<node lat="60.32316666408958" lon="11.069841664326617" id="-30998">
		<tag k="name" v="Sandodden" />
		<tag k="natural" v="cape" />
		<tag k="ssr:stedsnr" v="933160" />
	</node>
	<node lat="60.202494442533954" lon="10.865227769498567" id="-31001">
		<tag k="name" v="Gamleelva" />
		<tag k="ssr:stedsnr" v="933060" />
		<tag k="waterway" v="river" />
	</node>
	<node lat="60.228177781481165" lon="10.900074992458812" id="-31019">
		<tag k="name" v="Nedre Gåsetjern" />
		<tag k="natural" v="water" />
		<tag k="ssr:stedsnr" v="933343" />
	</node>
	<node lat="60.23937222026932" lon="10.916580557637719" id="-31020">
		<tag k="name" v="Kalldalsbekken" />
		<tag k="ssr:stedsnr" v="933345" />
		<tag k="waterway" v="stream" />
	</node>
	<node lat="60.208463884816" lon="10.824891662205408" id="-31023">
		<tag k="name" v="Trasletjernbekken" />
		<tag k="ssr:stedsnr" v="933368" />
		<tag k="waterway" v="stream" />
	</node>
	<node lat="60.24448333707891" lon="10.862900006633483" id="-31026">
		<tag k="name" v="Bikkjetjernet" />
		<tag k="natural" v="water" />
		<tag k="ssr:stedsnr" v="933381" />
	</node>
	<node lat="60.30195000135693" lon="10.975188887009974" id="-31028">
		<tag k="name" v="Lustjernbekken" />
		<tag k="ssr:stedsnr" v="933535" />
		<tag k="waterway" v="stream" />
	</node>
	<node lat="60.13002500445403" lon="10.927544436282401" id="-31030">
		<tag k="name" v="Bellrotbekken" />
		<tag k="ssr:stedsnr" v="933959" />
		<tag k="waterway" v="stream" />
	</node>
	<node lat="60.21737399977925" lon="10.842744571149034" id="-31319">
		<tag k="name" v="Herretjerna" />
		<tag k="natural" v="water" />
		<tag k="ssr:stedsnr" v="1082859" />
		<tag k="water" v="lake" />
	</node>
</osm>
