<?xml version="1.0" encoding="UTF-8"?>
<<<<<<< HEAD
<osm version="0.6" generator="osmapis">
	<node lat="60.186858331243606" lon="10.855416666438629" id="-18768">
		<tag k="name" v="Tripperudhøgda" />
		<tag k="natural" v="hill" />
		<tag k="place" v="locality" />
		<tag k="ssr:stedsnr" v="5770" />
	</node>
	<node lat="60.13255833273631" lon="11.047505562871278" id="-18773">
		<tag k="fixme" v="consider natural=peak for the most distinct mountains in the district" />
		<tag k="name" v="Himmelfløtten" />
		<tag k="natural" v="hill" />
		<tag k="place" v="locality" />
		<tag k="ssr:stedsnr" v="23136" />
	</node>
	<node lat="60.31098611190132" lon="10.94471944662119" id="-18783">
		<tag k="name" v="Kabberudhaugen" />
		<tag k="natural" v="hill" />
		<tag k="place" v="locality" />
		<tag k="ssr:stedsnr" v="23287" />
	</node>
	<node lat="60.2080861105309" lon="11.025616668178612" id="-18786">
		<tag k="name" v="Glåmhaugen" />
=======
<osm generator="osmapis" version="0.6">
	<node id="-267263" lat="60.2298972197" lon="10.9375861038">
		<tag k="name" v="Skarsdalen" />
		<tag k="natural" v="valley" />
		<tag k="place" v="locality" />
		<tag k="ssr:stedsnr" v="387323" />
	</node>
	<node id="-267261" lat="60.217458334" lon="10.7786999955">
		<tag k="name" v="Sagdalslia" />
		<tag k="natural" v="slope" />
		<tag k="place" v="locality" />
		<tag k="ssr:stedsnr" v="387194" />
	</node>
	<node id="-267260" lat="60.2128111088" lon="10.7770166629">
		<tag k="name" v="Botnetjernslia" />
		<tag k="natural" v="slope" />
		<tag k="place" v="locality" />
		<tag k="ssr:stedsnr" v="387191" />
	</node>
	<node id="-266747" lat="60.2481972248" lon="11.1238166707">
		<tag k="name" v="Ringhaugene" />
		<tag k="natural" v="hill" />
		<tag k="place" v="locality" />
		<tag k="ssr:stedsnr" v="933161" />
	</node>
	<node id="-266751" lat="60.2248305545" lon="10.9403499956">
		<tag k="fixme" v="consider natural=peak for the most distinct mountains in the district" />
		<tag k="name" v="Blankfjellet" />
>>>>>>> e1d4bc35ff8a6074a6f2e91616a996b547c36f15
		<tag k="natural" v="hill" />
		<tag k="place" v="locality" />
		<tag k="ssr:stedsnr" v="23337" />
	</node>
<<<<<<< HEAD
	<node lat="60.2044249999443" lon="11.025905556623727" id="-18787">
		<tag k="name" v="Leirbekkdalen" />
		<tag k="natural" v="valley" />
		<tag k="place" v="locality" />
		<tag k="ssr:stedsnr" v="23339" />
	</node>
	<node lat="60.23832221933928" lon="10.873163881815527" id="-18788">
		<tag k="name" v="Nordbysæterlia" />
		<tag k="natural" v="slope" />
		<tag k="place" v="locality" />
		<tag k="ssr:stedsnr" v="23385" />
	</node>
	<node lat="60.3185666627775" lon="10.953494435490104" id="-18791">
		<tag k="name" v="Hosetjernhaugen" />
		<tag k="natural" v="hill" />
		<tag k="place" v="locality" />
		<tag k="ssr:stedsnr" v="23503" />
	</node>
	<node lat="60.244166669288084" lon="11.112194439927318" id="-18794">
		<tag k="name" v="Rabben" />
		<tag k="natural" v="hill" />
		<tag k="place" v="locality" />
		<tag k="ssr:stedsnr" v="23437" />
	</node>
	<node lat="60.25242222085669" lon="11.11546944351055" id="-18795">
		<tag k="name" v="Skauerudmoen" />
=======
	<node id="-267256" lat="60.2976444476" lon="10.9190611043">
		<tag k="name" v="Kløvet" />
		<tag k="natural" v="valley" />
		<tag k="place" v="locality" />
		<tag k="ssr:stedsnr" v="387146" />
	</node>
	<node id="-266742" lat="60.3094055577" lon="10.9342027771">
		<tag k="name" v="Hegglisæterhaugen" />
		<tag k="natural" v="hill" />
		<tag k="place" v="locality" />
		<tag k="ssr:stedsnr" v="933247" />
	</node>
	<node id="-267006" lat="60.1364361073" lon="11.0000722207">
		<tag k="name" v="Ulvedalen" />
		<tag k="natural" v="valley" />
		<tag k="place" v="locality" />
		<tag k="ssr:stedsnr" v="144072" />
	</node>
	<node id="-266737" lat="60.1431861108" lon="11.0509055644">
		<tag k="name" v="Korsbakkhaugen" />
		<tag k="natural" v="hill" />
		<tag k="place" v="locality" />
		<tag k="ssr:stedsnr" v="933087" />
	</node>
	<node id="-266736" lat="60.1518444458" lon="10.9831166692">
		<tag k="name" v="Steinbakken" />
		<tag k="natural" v="slope" />
		<tag k="place" v="locality" />
		<tag k="ssr:stedsnr" v="933074" />
	</node>
	<node id="-266223" lat="60.2753694433" lon="11.0199638832">
		<tag k="fixme" v="consider natural=peak for the most distinct mountains in the district" />
		<tag k="name" v="Smørbukken" />
		<tag k="natural" v="hill" />
		<tag k="place" v="locality" />
		<tag k="ssr:stedsnr" v="84459" />
	</node>
	<node id="-266222" lat="60.2376805581" lon="10.9730166697">
		<tag k="alt_name" v="Grindakerliene" />
		<tag k="name" v="Grindakerlia" />
		<tag k="natural" v="slope" />
		<tag k="place" v="locality" />
		<tag k="ssr:stedsnr" v="84425" />
	</node>
	<node id="-266221" lat="60.2875277796" lon="10.914247221">
		<tag k="name" v="Lortholtet" />
		<tag k="natural" v="slope" />
		<tag k="place" v="locality" />
		<tag k="ssr:stedsnr" v="84253" />
	</node>
	<node id="-266322" lat="60.1696111143" lon="11.0280194387">
		<tag k="name" v="Austaddalen" />
		<tag k="natural" v="valley" />
>>>>>>> e1d4bc35ff8a6074a6f2e91616a996b547c36f15
		<tag k="place" v="locality" />
		<tag k="ssr:stedsnr" v="23441" />
	</node>
<<<<<<< HEAD
	<node lat="60.31522222360689" lon="10.966461103925754" id="-18796">
		<tag k="name" v="Klofjelldalen" />
		<tag k="natural" v="valley" />
		<tag k="place" v="locality" />
		<tag k="ssr:stedsnr" v="23493" />
	</node>
	<node lat="60.125083336898676" lon="11.020216661492563" id="-18799">
=======
	<node id="-266151" lat="60.1958944406" lon="10.8306944414">
		<tag k="name" v="Elsjødalen" />
		<tag k="natural" v="valley" />
		<tag k="place" v="locality" />
		<tag k="ssr:stedsnr" v="23205" />
	</node>
	<node id="-267239" lat="60.2959749982" lon="10.9640250038">
		<tag k="fixme" v="consider natural=peak for the most distinct mountains in the district" />
		<tag k="name" v="Faksefjell" />
		<tag k="natural" v="hill" />
		<tag k="place" v="locality" />
		<tag k="ssr:stedsnr" v="370340" />
	</node>
	<node id="-266918" lat="60.1250833369" lon="11.0202166615">
>>>>>>> e1d4bc35ff8a6074a6f2e91616a996b547c36f15
		<tag k="alt_name" v="Geitbrua" />
		<tag k="name" v="Geitbua" />
		<tag k="place" v="locality" />
		<tag k="ssr:stedsnr" v="66648" />
	</node>
<<<<<<< HEAD
	<node lat="60.17478333443584" lon="10.925049991641657" id="-18800">
		<tag k="alt_name" v="Helletjernrøet" />
		<tag k="name" v="Helletjernrøa" />
		<tag k="natural" v="hill" />
		<tag k="place" v="locality" />
		<tag k="ssr:stedsnr" v="66679" />
	</node>
	<node lat="60.19446666793948" lon="10.92887222819907" id="-18801">
		<tag k="alt_name" v="Tømmerhorn" />
		<tag k="fixme" v="consider natural=peak for the most distinct mountains in the district" />
		<tag k="name" v="Tømmerholen" />
		<tag k="natural" v="hill" />
		<tag k="place" v="locality" />
		<tag k="ssr:stedsnr" v="66795" />
	</node>
	<node lat="60.2913500010313" lon="10.920383334384466" id="-18808">
		<tag k="name" v="Langberget" />
		<tag k="natural" v="hill" />
		<tag k="place" v="locality" />
		<tag k="ssr:stedsnr" v="67306" />
	</node>
	<node lat="60.126255559001784" lon="10.954722215228713" id="-18820">
		<tag k="name" v="Svenskedalen" />
		<tag k="natural" v="valley" />
		<tag k="place" v="locality" />
		<tag k="ssr:stedsnr" v="84134" />
	</node>
	<node lat="60.22290555850884" lon="10.785061113803033" id="-18822">
		<tag k="fixme" v="consider natural=peak for the most distinct mountains in the district" />
		<tag k="name" v="Søndre Skotjernfjell" />
		<tag k="natural" v="hill" />
		<tag k="place" v="locality" />
		<tag k="ssr:stedsnr" v="84190" />
	</node>
	<node lat="60.29437222555013" lon="11.014838883644718" id="-18832">
		<tag k="name" v="Vestre Totnerlia" />
		<tag k="natural" v="slope" />
=======
	<node id="-267233" lat="60.3137249975" lon="11.0337249928">
		<tag k="alt_name" v="Trettholtkampen" />
		<tag k="name" v="Kampen" />
		<tag k="natural" v="hill" />
		<tag k="place" v="locality" />
		<tag k="ssr:stedsnr" v="370301" />
	</node>
	<node id="-267232" lat="60.2462083323" lon="10.8163166687">
		<tag k="fixme" v="consider natural=peak for the most distinct mountains in the district" />
		<tag k="name" v="Høgbrenna" />
		<tag k="natural" v="hill" />
		<tag k="place" v="locality" />
		<tag k="ssr:stedsnr" v="369915" />
	</node>
	<node id="-266719" lat="60.2264555528" lon="10.8414250062">
		<tag k="name" v="Råbjørndalen" />
		<tag k="natural" v="valley" />
		<tag k="place" v="locality" />
		<tag k="ssr:stedsnr" v="916835" />
	</node>
	<node id="-266206" lat="60.3184055591" lon="10.9625249993">
		<tag k="alt_name" v="Nordklofjell" />
		<tag k="fixme" v="consider natural=peak for the most distinct mountains in the district" />
		<tag k="name" v="Nordklofjellet" />
		<tag k="natural" v="hill" />
		<tag k="place" v="locality" />
		<tag k="ssr:stedsnr" v="249232" />
	</node>
	<node id="-266205" lat="60.2418000042" lon="10.8950166748">
		<tag k="fixme" v="consider natural=peak for the most distinct mountains in the district" />
		<tag k="name" v="Håkensbrenna" />
		<tag k="natural" v="hill" />
		<tag k="place" v="locality" />
		<tag k="ssr:stedsnr" v="248938" />
	</node>
	<node id="-267228" lat="60.2364749962" lon="10.9604027746">
		<tag k="name" v="Jutulen" />
		<tag k="natural" v="hill" />
>>>>>>> e1d4bc35ff8a6074a6f2e91616a996b547c36f15
		<tag k="place" v="locality" />
		<tag k="ssr:stedsnr" v="369820" />
	</node>
<<<<<<< HEAD
	<node lat="60.293452773838155" lon="11.004505559160961" id="-18833">
		<tag k="name" v="Bjønndalen" />
		<tag k="natural" v="valley" />
		<tag k="place" v="locality" />
		<tag k="ssr:stedsnr" v="84489" />
	</node>
	<node lat="60.14057222565547" lon="10.96868333122561" id="-18835">
		<tag k="name" v="Eikelia" />
		<tag k="natural" v="slope" />
		<tag k="place" v="locality" />
		<tag k="ssr:stedsnr" v="84897" />
	</node>
	<node lat="60.147063888766006" lon="10.91578888383947" id="-18843">
		<tag k="name" v="Østbydalen" />
		<tag k="natural" v="valley" />
		<tag k="place" v="locality" />
		<tag k="ssr:stedsnr" v="248752" />
	</node>
	<node lat="60.190377780650685" lon="10.83724444225728" id="-18846">
		<tag k="fixme" v="consider natural=peak for the most distinct mountains in the district" />
		<tag k="name" v="Elsjøhøgda" />
		<tag k="natural" v="hill" />
		<tag k="place" v="locality" />
		<tag k="ssr:stedsnr" v="248771" />
	</node>
	<node lat="60.22341944863968" lon="10.777013894773775" id="-18850">
		<tag k="name" v="Skotjernhaugen" />
		<tag k="natural" v="hill" />
		<tag k="place" v="locality" />
		<tag k="ssr:stedsnr" v="248874" />
	</node>
	<node lat="60.24180000415663" lon="10.89501667476018" id="-18855">
		<tag k="fixme" v="consider natural=peak for the most distinct mountains in the district" />
		<tag k="name" v="Håkensbrenna" />
		<tag k="natural" v="hill" />
		<tag k="place" v="locality" />
		<tag k="ssr:stedsnr" v="248938" />
	</node>
	<node lat="60.318405559144445" lon="10.962524999294072" id="-18856">
		<tag k="alt_name" v="Nordklofjell" />
		<tag k="fixme" v="consider natural=peak for the most distinct mountains in the district" />
		<tag k="name" v="Nordklofjellet" />
		<tag k="natural" v="hill" />
		<tag k="place" v="locality" />
		<tag k="ssr:stedsnr" v="249232" />
	</node>
	<node lat="60.242572226288694" lon="10.926349994610822" id="-18890">
		<tag k="name" v="Jonslia" />
		<tag k="natural" v="slope" />
=======
	<node id="-267227" lat="60.242516668" lon="10.8090666663">
		<tag k="name" v="Rundhaug" />
		<tag k="natural" v="hill" />
		<tag k="place" v="locality" />
		<tag k="ssr:stedsnr" v="369817" />
	</node>
	<node id="-267225" lat="60.2225250013" lon="10.8618250044">
		<tag k="fixme" v="consider natural=peak for the most distinct mountains in the district" />
		<tag k="name" v="Rudskampen" />
		<tag k="natural" v="hill" />
		<tag k="place" v="locality" />
		<tag k="ssr:stedsnr" v="369801" />
	</node>
	<node id="-267221" lat="60.1957055559" lon="10.854816674">
		<tag k="name" v="Knepphauglia" />
		<tag k="natural" v="slope" />
		<tag k="place" v="locality" />
		<tag k="ssr:stedsnr" v="369779" />
	</node>
	<node id="-267216" lat="60.1554499973" lon="10.9568166575">
		<tag k="name" v="Gimildalen" />
		<tag k="natural" v="valley" />
		<tag k="place" v="locality" />
		<tag k="ssr:stedsnr" v="369718" />
	</node>
	<node id="-266702" lat="60.1800805516" lon="10.9025361151">
		<tag k="name" v="Sørsæterlia" />
		<tag k="natural" v="slope" />
		<tag k="place" v="locality" />
		<tag k="ssr:stedsnr" v="751045" />
	</node>
	<node id="-266701" lat="60.1760111076" lon="10.9470555475">
		<tag k="fixme" v="consider natural=peak for the most distinct mountains in the district" />
		<tag k="name" v="Runddelen" />
		<tag k="natural" v="hill" />
		<tag k="place" v="locality" />
		<tag k="ssr:stedsnr" v="751041" />
	</node>
	<node id="-266188" lat="60.1903777807" lon="10.8372444423">
		<tag k="fixme" v="consider natural=peak for the most distinct mountains in the district" />
		<tag k="name" v="Elsjøhøgda" />
		<tag k="natural" v="hill" />
		<tag k="place" v="locality" />
		<tag k="ssr:stedsnr" v="248771" />
	</node>
	<node id="-266435" lat="60.3330805577" lon="10.9992166587">
		<tag k="name" v="Haukerota" />
		<tag k="place" v="locality" />
		<tag k="ssr:stedsnr" v="387406" />
	</node>
	<node id="-266185" lat="60.1470638888" lon="10.9157888838">
		<tag k="name" v="Østbydalen" />
		<tag k="natural" v="valley" />
		<tag k="place" v="locality" />
		<tag k="ssr:stedsnr" v="248752" />
	</node>
	<node id="-267473" lat="60.2054611126" lon="10.7767694401">
		<tag k="alt_name" v="Kølsjorøet" />
		<tag k="name" v="Kolsjørøet" />
		<tag k="natural" v="hill" />
>>>>>>> e1d4bc35ff8a6074a6f2e91616a996b547c36f15
		<tag k="place" v="locality" />
		<tag k="ssr:stedsnr" v="144250" />
	</node>
<<<<<<< HEAD
	<node lat="60.34346666765405" lon="10.99896110773377" id="-18895">
		<tag k="name" v="Hellen" />
		<tag k="place" v="locality" />
		<tag k="ssr:stedsnr" v="144412" />
	</node>
	<node lat="60.20875277507483" lon="10.81244722112507" id="-18898">
		<tag k="name" v="Kobbernakken" />
		<tag k="natural" v="hill" />
		<tag k="place" v="locality" />
		<tag k="ssr:stedsnr" v="144363" />
	</node>
	<node lat="60.2633194429923" lon="10.865905563180101" id="-18902">
		<tag k="name" v="Svarthaugen" />
		<tag k="natural" v="hill" />
		<tag k="place" v="locality" />
		<tag k="ssr:stedsnr" v="144385" />
	</node>
	<node lat="60.27801388742639" lon="11.041152774758892" id="-18904">
		<tag k="name" v="Lyholen" />
		<tag k="natural" v="ridge" />
		<tag k="place" v="locality" />
		<tag k="ssr:stedsnr" v="144486" />
	</node>
	<node lat="60.21695277781701" lon="10.824427773599579" id="-18921">
		<tag k="name" v="Trasletjerndalen" />
		<tag k="natural" v="valley" />
		<tag k="place" v="locality" />
		<tag k="ssr:stedsnr" v="188878" />
	</node>
	<node lat="60.232469444906194" lon="10.832527779581117" id="-18934">
		<tag k="name" v="Blåbærhaugen" />
		<tag k="natural" v="hill" />
		<tag k="place" v="locality" />
		<tag k="ssr:stedsnr" v="265182" />
	</node>
	<node lat="60.23713611505754" lon="10.93539444888811" id="-18941">
		<tag k="fixme" v="consider natural=peak for the most distinct mountains in the district" />
		<tag k="name" v="Storholthaugen" />
		<tag k="natural" v="hill" />
		<tag k="place" v="locality" />
		<tag k="ssr:stedsnr" v="265350" />
	</node>
	<node lat="60.16234722656963" lon="10.983666673161203" id="-18946">
		<tag k="name" v="Revhilia" />
		<tag k="natural" v="slope" />
		<tag k="place" v="locality" />
		<tag k="ssr:stedsnr" v="266212" />
	</node>
	<node lat="60.33769444196185" lon="10.990836112538133" id="-18952">
		<tag k="name" v="Merrabakken" />
		<tag k="natural" v="slope" />
		<tag k="place" v="locality" />
		<tag k="ssr:stedsnr" v="266367" />
	</node>
	<node lat="60.2794611087872" lon="10.968544435282244" id="-18962">
		<tag k="name" v="Neperotdalen" />
		<tag k="natural" v="valley" />
		<tag k="place" v="locality" />
		<tag k="ssr:stedsnr" v="205321" />
	</node>
	<node lat="60.2294472197734" lon="10.82746388831151" id="-18963">
		<tag k="fixme" v="consider natural=peak for the most distinct mountains in the district" />
		<tag k="name" v="Stubbetjernsrøet" />
		<tag k="natural" v="hill" />
		<tag k="place" v="locality" />
		<tag k="ssr:stedsnr" v="205186" />
	</node>
	<node lat="60.25937930533613" lon="10.939317723737963" id="-18969">
		<tag k="name" v="Mørkagånga" />
		<tag k="natural" v="slope" />
		<tag k="place" v="locality" />
		<tag k="ssr:stedsnr" v="205236" />
	</node>
	<node lat="60.23757778139639" lon="10.950200006908409" id="-18970">
		<tag k="name" v="Gaupåsberget" />
=======
	<node id="-266575" lat="60.2095527752" lon="10.852849995">
		<tag k="name" v="Herretjernlia" />
		<tag k="natural" v="slope" />
		<tag k="place" v="locality" />
		<tag k="ssr:stedsnr" v="690044" />
	</node>
	<node id="-267205" lat="60.2190805585" lon="10.9745166654">
		<tag k="fixme" v="consider natural=peak for the most distinct mountains in the district" />
		<tag k="name" v="Høgnauen" />
		<tag k="natural" v="hill" />
		<tag k="place" v="locality" />
		<tag k="ssr:stedsnr" v="327275" />
	</node>
	<node id="-267204" lat="60.1392833349" lon="10.9620666664">
		<tag k="name" v="Fossdalen" />
		<tag k="natural" v="valley" />
		<tag k="place" v="locality" />
		<tag k="ssr:stedsnr" v="326884" />
	</node>
	<node id="-267203" lat="60.1430861083" lon="10.9683944395">
		<tag k="fixme" v="consider natural=peak for the most distinct mountains in the district" />
		<tag k="name" v="Ilbergene" />
		<tag k="natural" v="hill" />
		<tag k="place" v="locality" />
		<tag k="ssr:stedsnr" v="326881" />
	</node>
	<node id="-267202" lat="60.3352861113" lon="10.9553361037">
		<tag k="name" v="Dalsæterlia" />
		<tag k="natural" v="slope" />
		<tag k="place" v="locality" />
		<tag k="ssr:stedsnr" v="326498" />
	</node>
	<node id="-267200" lat="60.2950861083" lon="10.9734361183">
		<tag k="name" v="Vikkelia" />
		<tag k="natural" v="slope" />
		<tag k="place" v="locality" />
		<tag k="ssr:stedsnr" v="326519" />
	</node>
	<node id="-267198" lat="60.2914138882" lon="11.0523638963">
		<tag k="name" v="Lønnlihaugen" />
		<tag k="natural" v="hill" />
		<tag k="place" v="locality" />
		<tag k="ssr:stedsnr" v="326503" />
	</node>
	<node id="-267195" lat="60.283133333" lon="10.9667638896">
		<tag k="name" v="Stangslia" />
		<tag k="natural" v="slope" />
		<tag k="place" v="locality" />
		<tag k="ssr:stedsnr" v="326292" />
	</node>
	<node id="-267194" lat="60.2327305518" lon="10.9562305464">
		<tag k="name" v="Monsklopphaugen" />
		<tag k="natural" v="hill" />
		<tag k="place" v="locality" />
		<tag k="ssr:stedsnr" v="326276" />
	</node>
	<node id="-267583" lat="60.3407611106" lon="10.968516674">
		<tag k="name" v="Larssonvelta" />
		<tag k="place" v="locality" />
		<tag k="ssr:stedsnr" v="812498" />
	</node>
	<node id="-266678" lat="60.2881305585" lon="10.8562750009">
		<tag k="name" v="Gardlia" />
		<tag k="natural" v="slope" />
		<tag k="place" v="locality" />
		<tag k="ssr:stedsnr" v="734324" />
	</node>
	<node id="-266163" lat="60.3185666628" lon="10.9534944355">
		<tag k="name" v="Hosetjernhaugen" />
		<tag k="natural" v="hill" />
		<tag k="place" v="locality" />
		<tag k="ssr:stedsnr" v="23503" />
	</node>
	<node id="-267186" lat="60.2832472253" lon="10.9427444485">
		<tag k="name" v="Steinberglia" />
		<tag k="natural" v="slope" />
		<tag k="place" v="locality" />
		<tag k="ssr:stedsnr" v="326372" />
	</node>
	<node id="-267185" lat="60.2535361131" lon="10.882911119">
		<tag k="name" v="Stokkmyrlia" />
		<tag k="natural" v="slope" />
		<tag k="place" v="locality" />
		<tag k="ssr:stedsnr" v="326370" />
	</node>
	<node id="-266160" lat="60.2524222209" lon="11.1154694435">
		<tag k="name" v="Skauerudmoen" />
		<tag k="place" v="locality" />
		<tag k="ssr:stedsnr" v="23441" />
	</node>
	<node id="-267183" lat="60.2249027809" lon="10.8761333344">
		<tag k="name" v="Blekketjernlia" />
		<tag k="natural" v="slope" />
		<tag k="place" v="locality" />
		<tag k="ssr:stedsnr" v="326347" />
	</node>
	<node id="-266154" lat="60.2079861088" lon="10.7884416677">
		<tag k="name" v="Sagtomta" />
		<tag k="place" v="locality" />
		<tag k="ssr:stedsnr" v="23216" />
	</node>
	<node id="-266153" lat="60.2006222233" lon="10.8105500013">
		<tag k="name" v="Østre Råsjølia" />
		<tag k="natural" v="slope" />
		<tag k="place" v="locality" />
		<tag k="ssr:stedsnr" v="23210" />
	</node>
	<node id="-267176" lat="60.1292972244" lon="11.0014333334">
		<tag k="name" v="Feiertomta" />
		<tag k="place" v="locality" />
		<tag k="ssr:stedsnr" v="326086" />
	</node>
	<node id="-267175" lat="60.1397416632" lon="11.0118694357">
		<tag k="alt_name" v="Harstadrø" />
		<tag k="fixme" v="consider natural=peak for the most distinct mountains in the district" />
		<tag k="name" v="Harstadrøet" />
>>>>>>> e1d4bc35ff8a6074a6f2e91616a996b547c36f15
		<tag k="natural" v="hill" />
		<tag k="old_name" v="Rød-Høyden" />
		<tag k="place" v="locality" />
<<<<<<< HEAD
		<tag k="ssr:stedsnr" v="205290" />
	</node>
	<node lat="60.269474996683584" lon="11.056536102453256" id="-18973">
		<tag k="name" v="Brattåsen" />
		<tag k="natural" v="slope" />
		<tag k="place" v="locality" />
		<tag k="ssr:stedsnr" v="205482" />
	</node>
	<node lat="60.31253055391045" lon="11.001574998197666" id="-18976">
		<tag k="name" v="Kapelldalen" />
		<tag k="natural" v="valley" />
		<tag k="place" v="locality" />
		<tag k="ssr:stedsnr" v="205542" />
	</node>
	<node lat="60.323205558186444" lon="10.97262500734778" id="-18988">
		<tag k="name" v="Kongen" />
		<tag k="natural" v="hill" />
		<tag k="place" v="locality" />
		<tag k="ssr:stedsnr" v="249259" />
	</node>
	<node lat="60.256444445643204" lon="10.938952783590828" id="-18997">
		<tag k="name" v="Vollenderhaugen" />
		<tag k="natural" v="slope" />
		<tag k="place" v="locality" />
		<tag k="ssr:stedsnr" v="265243" />
	</node>
	<node lat="60.26946944503882" lon="10.902866659083346" id="-19000">
		<tag k="name" v="Grisbakken" />
		<tag k="natural" v="slope" />
		<tag k="place" v="locality" />
		<tag k="ssr:stedsnr" v="265385" />
	</node>
	<node lat="60.126958335121444" lon="11.078611116647975" id="-19001">
		<tag k="name" v="Kjerkehaugen" />
		<tag k="natural" v="hill" />
		<tag k="place" v="locality" />
		<tag k="ssr:stedsnr" v="266007" />
	</node>
	<node lat="60.166850002303875" lon="10.87528611845132" id="-19002">
		<tag k="name" v="Styggdalen" />
		<tag k="natural" v="valley" />
		<tag k="place" v="locality" />
		<tag k="ssr:stedsnr" v="266044" />
	</node>
	<node lat="60.28803055263786" lon="10.901575007462196" id="-19004">
		<tag k="name" v="Seframbakken" />
		<tag k="natural" v="slope" />
		<tag k="place" v="locality" />
		<tag k="ssr:stedsnr" v="266240" />
	</node>
	<node lat="60.16036944759851" lon="10.98035555129199" id="-19023">
		<tag k="fixme" v="consider natural=peak for the most distinct mountains in the district" />
		<tag k="name" v="Tjuvberga" />
		<tag k="natural" v="hill" />
		<tag k="place" v="locality" />
		<tag k="ssr:stedsnr" v="326203" />
	</node>
	<node lat="60.25353611307666" lon="10.882911118986707" id="-19035">
		<tag k="name" v="Stokkmyrlia" />
		<tag k="natural" v="slope" />
		<tag k="place" v="locality" />
		<tag k="ssr:stedsnr" v="326370" />
	</node>
	<node lat="60.28324722527964" lon="10.94274444847399" id="-19036">
		<tag k="name" v="Steinberglia" />
		<tag k="natural" v="slope" />
		<tag k="place" v="locality" />
		<tag k="ssr:stedsnr" v="326372" />
	</node>
	<node lat="60.29141388819401" lon="11.05236389634875" id="-19039">
		<tag k="name" v="Lønnlihaugen" />
		<tag k="natural" v="hill" />
		<tag k="place" v="locality" />
		<tag k="ssr:stedsnr" v="326503" />
	</node>
	<node lat="60.295086108347654" lon="10.973436118267841" id="-19041">
		<tag k="name" v="Vikkelia" />
		<tag k="natural" v="slope" />
		<tag k="place" v="locality" />
		<tag k="ssr:stedsnr" v="326519" />
	</node>
	<node lat="60.21908055847083" lon="10.974516665362547" id="-19046">
		<tag k="fixme" v="consider natural=peak for the most distinct mountains in the district" />
		<tag k="name" v="Høgnauen" />
		<tag k="natural" v="hill" />
		<tag k="place" v="locality" />
		<tag k="ssr:stedsnr" v="327275" />
	</node>
	<node lat="60.15544999733329" lon="10.956816657547144" id="-19053">
		<tag k="name" v="Gimildalen" />
		<tag k="natural" v="valley" />
		<tag k="place" v="locality" />
		<tag k="ssr:stedsnr" v="369718" />
	</node>
	<node lat="60.24251666796907" lon="10.809066666286702" id="-19060">
		<tag k="name" v="Rundhaug" />
		<tag k="natural" v="hill" />
		<tag k="place" v="locality" />
		<tag k="ssr:stedsnr" v="369817" />
	</node>
	<node lat="60.12429444876276" lon="10.981800005471797" id="-19073">
		<tag k="name" v="Skrållia" />
		<tag k="natural" v="slope" />
		<tag k="place" v="locality" />
		<tag k="ssr:stedsnr" v="387115" />
	</node>
	<node lat="60.29764444761116" lon="10.919061104340656" id="-19074">
		<tag k="name" v="Kløvet" />
		<tag k="natural" v="valley" />
		<tag k="place" v="locality" />
		<tag k="ssr:stedsnr" v="387146" />
	</node>
	<node lat="60.217458333989164" lon="10.778699995540178" id="-19075">
		<tag k="name" v="Sagdalslia" />
		<tag k="natural" v="slope" />
		<tag k="place" v="locality" />
		<tag k="ssr:stedsnr" v="387194" />
	</node>
	<node lat="60.22989721970977" lon="10.937586103811789" id="-19076">
		<tag k="name" v="Skarsdalen" />
		<tag k="natural" v="valley" />
		<tag k="place" v="locality" />
		<tag k="ssr:stedsnr" v="387323" />
	</node>
	<node lat="60.174958330609" lon="10.959697222738622" id="-19079">
		<tag k="name" v="Heidal" />
		<tag k="natural" v="valley" />
		<tag k="place" v="locality" />
		<tag k="ssr:stedsnr" v="387209" />
	</node>
	<node lat="60.34343888742972" lon="11.00348611633165" id="-19088">
		<tag k="name" v="Elvflaten" />
		<tag k="place" v="locality" />
		<tag k="ssr:stedsnr" v="387402" />
	</node>
	<node lat="60.33308055771703" lon="10.999216658686272" id="-19089">
		<tag k="name" v="Haukerota" />
		<tag k="place" v="locality" />
		<tag k="ssr:stedsnr" v="387406" />
	</node>
	<node lat="60.341947222834996" lon="10.98616389180084" id="-19094">
		<tag k="name" v="Geitryggen" />
		<tag k="natural" v="ridge" />
		<tag k="place" v="locality" />
		<tag k="ssr:stedsnr" v="387495" />
	</node>
	<node lat="60.13434999732593" lon="11.018102782390436" id="-19096">
		<tag k="fixme" v="consider natural=peak for the most distinct mountains in the district" />
		<tag k="name" v="Eltonåsen" />
		<tag k="natural" v="hill" />
		<tag k="place" v="locality" />
		<tag k="ssr:stedsnr" v="490645" />
	</node>
	<node lat="60.28910278139394" lon="10.895400005875636" id="-19106">
		<tag k="name" v="Mysmerkleivhøgda" />
		<tag k="natural" v="hill" />
=======
		<tag k="ssr:stedsnr" v="326080" />
	</node>
	<node id="-266150" lat="60.1932694441" lon="10.8258888885">
		<tag k="name" v="Kløvningstjernhaugen" />
		<tag k="natural" v="hill" />
		<tag k="place" v="locality" />
		<tag k="ssr:stedsnr" v="23203" />
	</node>
	<node id="-267167" lat="60.2517305573" lon="10.8618000082">
		<tag k="name" v="Fagerkollen" />
		<tag k="natural" v="hill" />
		<tag k="place" v="locality" />
		<tag k="ssr:stedsnr" v="310362" />
	</node>
	<node id="-266654" lat="60.1356166622" lon="10.9445138971">
		<tag k="name" v="Gørrputtdalen" />
		<tag k="natural" v="valley" />
		<tag k="place" v="locality" />
		<tag k="ssr:stedsnr" v="630926" />
	</node>
	<node id="-267164" lat="60.2200305564" lon="10.8016888938">
		<tag k="alt_name" v="Bjønnåtedalen" />
		<tag k="name" v="Bjørnåtedalen" />
		<tag k="natural" v="valley" />
		<tag k="place" v="locality" />
		<tag k="ssr:stedsnr" v="309867" />
	</node>
	<node id="-266906" lat="60.309938892" lon="11.0178527835">
		<tag k="name" v="Rudsætervangen" />
		<tag k="natural" v="hill" />
		<tag k="place" v="locality" />
		<tag k="ssr:stedsnr" v="23552" />
	</node>
	<node id="-266650" lat="60.292547223" lon="11.0204638829">
		<tag k="name" v="Østre Totnerlia" />
		<tag k="natural" v="slope" />
		<tag k="place" v="locality" />
		<tag k="ssr:stedsnr" v="629477" />
	</node>
	<node id="-266649" lat="60.29146667" lon="10.974205554">
		<tag k="name" v="Paradislia" />
		<tag k="natural" v="slope" />
		<tag k="place" v="locality" />
		<tag k="ssr:stedsnr" v="629509" />
	</node>
	<node id="-266648" lat="60.288711114" lon="10.9797861062">
		<tag k="fixme" v="consider natural=peak for the most distinct mountains in the district" />
		<tag k="name" v="Kløvhaugen" />
		<tag k="natural" v="hill" />
		<tag k="place" v="locality" />
		<tag k="ssr:stedsnr" v="629507" />
	</node>
	<node id="-266647" lat="60.3116805579" lon="10.9920166694">
		<tag k="name" v="Sponvikhaugen" />
		<tag k="natural" v="hill" />
		<tag k="place" v="locality" />
		<tag k="ssr:stedsnr" v="629503" />
	</node>
	<node id="-266643" lat="60.2932500037" lon="10.8850611201">
		<tag k="name" v="Brudalshøgda" />
		<tag k="natural" v="hill" />
		<tag k="place" v="locality" />
		<tag k="ssr:stedsnr" v="629257" />
	</node>
	<node id="-266639" lat="60.2069555545" lon="10.8812777781">
		<tag k="name" v="Bjønndalen" />
		<tag k="natural" v="valley" />
		<tag k="place" v="locality" />
		<tag k="ssr:stedsnr" v="629068" />
	</node>
	<node id="-267501" lat="60.2881638925" lon="11.0102805495">
		<tag k="fixme" v="consider natural=peak for the most distinct mountains in the district" />
		<tag k="name" v="Vesle Nippkollen" />
		<tag k="natural" v="hill" />
		<tag k="place" v="locality" />
		<tag k="ssr:stedsnr" v="751485" />
	</node>
	<node id="-266306" lat="60.2135138854" lon="10.8841416665">
		<tag k="name" v="Merrabakken" />
		<tag k="natural" v="slope" />
		<tag k="place" v="locality" />
		<tag k="ssr:stedsnr" v="448072" />
	</node>
	<node id="-266632" lat="60.2517249963" lon="10.9693833266">
		<tag k="alt_name" v="Dølikampen" />
		<tag k="name" v="Dølekampen" />
		<tag k="natural" v="hill" />
		<tag k="place" v="locality" />
		<tag k="ssr:stedsnr" v="613353" />
	</node>
	<node id="-267142" lat="60.135697219" lon="10.9104500066">
		<tag k="fixme" v="consider natural=peak for the most distinct mountains in the district" />
		<tag k="name" v="Hagavangen" />
		<tag k="natural" v="hill" />
		<tag k="place" v="locality" />
		<tag k="ssr:stedsnr" v="206967" />
	</node>
	<node id="-267141" lat="60.1405916657" lon="10.932488896">
		<tag k="name" v="Stavidalen" />
		<tag k="natural" v="valley" />
		<tag k="place" v="locality" />
		<tag k="ssr:stedsnr" v="206962" />
	</node>
	<node id="-266560" lat="60.2328722206" lon="10.9351166615">
		<tag k="name" v="Kringlerlia" />
		<tag k="natural" v="slope" />
		<tag k="place" v="locality" />
		<tag k="ssr:stedsnr" v="508325" />
	</node>
	<node id="-266622" lat="60.2892972197" lon="10.8884388814">
		<tag k="name" v="Mysmerdalen" />
		<tag k="natural" v="valley" />
		<tag k="place" v="locality" />
		<tag k="ssr:stedsnr" v="751292" />
	</node>
	<node id="-267133" lat="60.2934388883" lon="10.9661361118">
		<tag k="name" v="Kjølstadlia" />
		<tag k="natural" v="slope" />
		<tag k="place" v="locality" />
		<tag k="ssr:stedsnr" v="205550" />
	</node>
	<node id="-267131" lat="60.3125305539" lon="11.0015749982">
		<tag k="name" v="Kapelldalen" />
		<tag k="natural" v="valley" />
		<tag k="place" v="locality" />
		<tag k="ssr:stedsnr" v="205542" />
	</node>
	<node id="-267130" lat="60.2779361156" lon="10.9820888833">
		<tag k="name" v="Stuelykkjene" />
		<tag k="place" v="locality" />
		<tag k="ssr:stedsnr" v="205507" />
	</node>
	<node id="-266617" lat="60.3292249971" lon="10.9175499932">
		<tag k="alt_name" v="Styggdalskurven" />
		<tag k="name" v="Styggedalskurven" />
		<tag k="natural" v="hill" />
		<tag k="place" v="locality" />
		<tag k="ssr:stedsnr" v="552299" />
	</node>
	<node id="-267127" lat="60.2694749967" lon="11.0565361025">
		<tag k="name" v="Brattåsen" />
		<tag k="natural" v="slope" />
>>>>>>> e1d4bc35ff8a6074a6f2e91616a996b547c36f15
		<tag k="place" v="locality" />
		<tag k="ssr:stedsnr" v="205482" />
	</node>
<<<<<<< HEAD
	<node lat="60.277033334980246" lon="10.949238896218608" id="-19133">
		<tag k="name" v="Bellingbrusletta" />
		<tag k="place" v="locality" />
		<tag k="ssr:stedsnr" v="491352" />
	</node>
	<node lat="60.13763889146184" lon="11.06477777031944" id="-19150">
		<tag k="name" v="Oterhaugen" />
		<tag k="natural" v="hill" />
		<tag k="place" v="locality" />
		<tag k="ssr:stedsnr" v="448016" />
	</node>
	<node lat="60.21351388541056" lon="10.884141666538454" id="-19152">
		<tag k="name" v="Merrabakken" />
		<tag k="natural" v="slope" />
		<tag k="place" v="locality" />
		<tag k="ssr:stedsnr" v="448072" />
	</node>
	<node lat="60.119419448667" lon="11.007808339881125" id="-19160">
		<tag k="fixme" v="consider natural=peak for the most distinct mountains in the district" />
		<tag k="name" v="Nordbyåsen" />
		<tag k="natural" v="hill" />
		<tag k="place" v="locality" />
		<tag k="ssr:stedsnr" v="448107" />
	</node>
	<node lat="60.29290277830467" lon="11.029886111918174" id="-19168">
		<tag k="name" v="Fløttdalen" />
		<tag k="natural" v="valley" />
		<tag k="place" v="locality" />
		<tag k="ssr:stedsnr" v="448496" />
	</node>
	<node lat="60.30364444080878" lon="11.056738892262384" id="-19170">
		<tag k="name" v="Tømtelia" />
		<tag k="natural" v="slope" />
		<tag k="place" v="locality" />
		<tag k="ssr:stedsnr" v="448511" />
	</node>
	<node lat="60.32174999822436" lon="11.009563893272373" id="-19171">
		<tag k="name" v="Flatnertjernhaugen" />
		<tag k="natural" v="hill" />
		<tag k="place" v="locality" />
		<tag k="ssr:stedsnr" v="448517" />
	</node>
	<node lat="60.16547500378795" lon="10.934361119895744" id="-19180">
		<tag k="fixme" v="consider natural=peak for the most distinct mountains in the district" />
		<tag k="name" v="Vardåsen" />
		<tag k="natural" v="hill" />
		<tag k="place" v="locality" />
		<tag k="ssr:stedsnr" v="672688" />
	</node>
	<node lat="60.146311562188906" lon="10.97527491771548" id="-19183">
		<tag k="alt_name" v="Raufjellet" />
		<tag k="fixme" v="consider natural=peak for the most distinct mountains in the district" />
		<tag k="name" v="Raudfjell" />
		<tag k="natural" v="hill" />
		<tag k="place" v="locality" />
		<tag k="ssr:stedsnr" v="673655" />
	</node>
	<node lat="60.15373333330061" lon="10.986138890050643" id="-19191">
		<tag k="alt_name" v="Hukelhaugen" />
		<tag k="name" v="Huklehaugen" />
		<tag k="natural" v="hill" />
		<tag k="place" v="locality" />
		<tag k="ssr:stedsnr" v="673735" />
	</node>
	<node lat="60.25222222406989" lon="10.822769445259997" id="-19215">
		<tag k="name" v="Ekstjernrøet" />
		<tag k="natural" v="hill" />
		<tag k="place" v="locality" />
		<tag k="ssr:stedsnr" v="508219" />
	</node>
	<node lat="60.155852773738964" lon="10.989883328782785" id="-19217">
		<tag k="fixme" v="consider natural=peak for the most distinct mountains in the district" />
		<tag k="name" v="Knevelsrudhornet" />
		<tag k="natural" v="hill" />
		<tag k="place" v="locality" />
		<tag k="ssr:stedsnr" v="508198" />
	</node>
	<node lat="60.232872220588604" lon="10.935116661520915" id="-19218">
		<tag k="name" v="Kringlerlia" />
		<tag k="natural" v="slope" />
		<tag k="place" v="locality" />
		<tag k="ssr:stedsnr" v="508325" />
	</node>
	<node lat="60.235163885271625" lon="11.099777775673601" id="-19220">
		<tag k="name" v="Ulvedalen" />
		<tag k="natural" v="valley" />
		<tag k="place" v="locality" />
		<tag k="ssr:stedsnr" v="508404" />
	</node>
	<node lat="60.23814721896367" lon="11.098150000516737" id="-19221">
		<tag k="name" v="Langhøgda" />
		<tag k="natural" v="hill" />
		<tag k="place" v="locality" />
		<tag k="ssr:stedsnr" v="508405" />
	</node>
	<node lat="60.318997221510614" lon="10.994972213266932" id="-19222">
		<tag k="name" v="Svartputtlia" />
		<tag k="natural" v="slope" />
		<tag k="place" v="locality" />
		<tag k="ssr:stedsnr" v="508484" />
	</node>
	<node lat="60.21913888854218" lon="10.98128333884042" id="-19224">
		<tag k="name" v="Bikkjebettet" />
		<tag k="natural" v="hill" />
		<tag k="place" v="locality" />
		<tag k="ssr:stedsnr" v="509273" />
	</node>
	<node lat="60.206333329140335" lon="10.966252770336379" id="-19225">
		<tag k="name" v="Finndalen" />
		<tag k="natural" v="valley" />
		<tag k="place" v="locality" />
		<tag k="ssr:stedsnr" v="509275" />
	</node>
	<node lat="60.15573611084471" lon="10.962150003288256" id="-19235">
		<tag k="name" v="Gimilhøgda" />
		<tag k="natural" v="hill" />
		<tag k="place" v="locality" />
		<tag k="ssr:stedsnr" v="551752" />
	</node>
	<node lat="60.2095527751559" lon="10.852849994992958" id="-19253">
		<tag k="name" v="Herretjernlia" />
		<tag k="natural" v="slope" />
		<tag k="place" v="locality" />
		<tag k="ssr:stedsnr" v="690044" />
	</node>
	<node lat="60.135197217983084" lon="10.973680556713958" id="-19255">
		<tag k="name" v="Skurverudlia" />
		<tag k="natural" v="slope" />
		<tag k="place" v="locality" />
		<tag k="ssr:stedsnr" v="690057" />
	</node>
	<node lat="60.15032499774773" lon="10.975902780376106" id="-19256">
		<tag k="name" v="Myssmørkleiva" />
		<tag k="natural" v="slope" />
		<tag k="place" v="locality" />
		<tag k="ssr:stedsnr" v="690063" />
	</node>
	<node lat="60.188919446481314" lon="10.929766666745454" id="-19258">
		<tag k="fixme" v="consider natural=peak for the most distinct mountains in the district" />
		<tag k="name" v="Gunderstuhaugene" />
		<tag k="natural" v="hill" />
		<tag k="place" v="locality" />
		<tag k="ssr:stedsnr" v="690021" />
	</node>
	<node lat="60.126416665786174" lon="11.013625003446972" id="-19259">
		<tag k="fixme" v="consider natural=peak for the most distinct mountains in the district" />
		<tag k="name" v="Graniåsen" />
		<tag k="natural" v="hill" />
		<tag k="place" v="locality" />
		<tag k="ssr:stedsnr" v="690113" />
	</node>
	<node lat="60.33196667072013" lon="10.936080555587909" id="-19261">
		<tag k="name" v="Sundbysæterlia" />
		<tag k="natural" v="slope" />
		<tag k="place" v="locality" />
		<tag k="ssr:stedsnr" v="690123" />
	</node>
	<node lat="60.22725555983021" lon="10.950669442456666" id="-19265">
		<tag k="name" v="Revlinghaugen" />
		<tag k="natural" v="hill" />
		<tag k="place" v="locality" />
		<tag k="ssr:stedsnr" v="690296" />
	</node>
	<node lat="60.27957221852924" lon="10.965383334673193" id="-19268">
		<tag k="name" v="Forbråtan" />
		<tag k="natural" v="hill" />
		<tag k="place" v="locality" />
		<tag k="ssr:stedsnr" v="690326" />
	</node>
	<node lat="60.215444444500896" lon="11.080683327596539" id="-19269">
		<tag k="name" v="Vigsteinmoen" />
		<tag k="place" v="locality" />
		<tag k="ssr:stedsnr" v="690155" />
	</node>
	<node lat="60.16548333150148" lon="11.019930548075791" id="-19273">
		<tag k="fixme" v="consider natural=peak for the most distinct mountains in the district" />
		<tag k="name" v="Bjønnhaugen" />
		<tag k="natural" v="hill" />
		<tag k="place" v="locality" />
		<tag k="ssr:stedsnr" v="690251" />
	</node>
	<node lat="60.22206666803968" lon="10.910869445164352" id="-19274">
		<tag k="fixme" v="consider natural=peak for the most distinct mountains in the district" />
		<tag k="name" v="Tømmerholen" />
		<tag k="natural" v="hill" />
		<tag k="place" v="locality" />
		<tag k="ssr:stedsnr" v="690353" />
	</node>
	<node lat="60.28672222234099" lon="10.987327779969437" id="-19281">
		<tag k="name" v="Køltjerndalen" />
		<tag k="natural" v="valley" />
		<tag k="place" v="locality" />
		<tag k="ssr:stedsnr" v="690530" />
	</node>
	<node lat="60.304366664009976" lon="11.000819439817755" id="-19282">
		<tag k="name" v="Korpedalen" />
		<tag k="natural" v="valley" />
		<tag k="place" v="locality" />
		<tag k="ssr:stedsnr" v="690541" />
	</node>
	<node lat="60.11526944132244" lon="11.033522215375028" id="-19292">
		<tag k="fixme" v="consider natural=peak for the most distinct mountains in the district" />
		<tag k="name" v="Finstadkampen" />
		<tag k="natural" v="hill" />
		<tag k="place" v="locality" />
		<tag k="ssr:stedsnr" v="568108" />
	</node>
	<node lat="60.30014722206942" lon="11.06927222493413" id="-19296">
		<tag k="name" v="Tangenmarka" />
		<tag k="place" v="locality" />
		<tag k="ssr:stedsnr" v="568163" />
	</node>
	<node lat="60.19941944796351" lon="10.797763887457295" id="-19297">
		<tag k="name" v="Storrsjølia" />
=======
	<node id="-266613" lat="60.2355861134" lon="11.0297861114">
		<tag k="fixme" v="consider natural=peak for the most distinct mountains in the district" />
		<tag k="name" v="Bjørkeåsen" />
		<tag k="natural" v="hill" />
		<tag k="place" v="locality" />
		<tag k="ssr:stedsnr" v="691281" />
	</node>
	<node id="-267124" lat="60.2659138851" lon="10.8901277826">
		<tag k="name" v="Torgersvangen" />
		<tag k="place" v="locality" />
		<tag k="ssr:stedsnr" v="205395" />
	</node>
	<node id="-266611" lat="60.2867222223" lon="10.98732778">
		<tag k="name" v="Køltjerndalen" />
		<tag k="natural" v="valley" />
		<tag k="place" v="locality" />
		<tag k="ssr:stedsnr" v="690530" />
	</node>
	<node id="-266609" lat="60.2750444442" lon="11.0093361128">
		<tag k="name" v="Totnerlia" />
		<tag k="natural" v="slope" />
		<tag k="place" v="locality" />
		<tag k="ssr:stedsnr" v="690493" />
	</node>
	<node id="-267632" lat="60.1301722177" lon="10.9421027831">
		<tag k="name" v="Gørrputthaugen" />
		<tag k="natural" v="hill" />
		<tag k="place" v="locality" />
		<tag k="ssr:stedsnr" v="873938" />
	</node>
	<node id="-266607" lat="60.31068333" lon="10.9736111193">
		<tag k="name" v="Lusetjernlia" />
		<tag k="natural" v="slope" />
		<tag k="place" v="locality" />
		<tag k="ssr:stedsnr" v="690486" />
	</node>
	<node id="-267118" lat="60.2794611088" lon="10.9685444353">
		<tag k="name" v="Neperotdalen" />
		<tag k="natural" v="valley" />
		<tag k="place" v="locality" />
		<tag k="ssr:stedsnr" v="205321" />
	</node>
	<node id="-267116" lat="60.2375777814" lon="10.9502000069">
		<tag k="name" v="Gaupåsberget" />
		<tag k="natural" v="hill" />
		<tag k="place" v="locality" />
		<tag k="ssr:stedsnr" v="205290" />
	</node>
	<node id="-267093" lat="60.142747219" lon="10.9823416715">
		<tag k="name" v="Domkirkedalen" />
		<tag k="natural" v="valley" />
		<tag k="place" v="locality" />
		<tag k="ssr:stedsnr" v="205075" />
	</node>
	<node id="-266601" lat="60.222066668" lon="10.9108694452">
		<tag k="fixme" v="consider natural=peak for the most distinct mountains in the district" />
		<tag k="name" v="Tømmerholen" />
		<tag k="natural" v="hill" />
		<tag k="place" v="locality" />
		<tag k="ssr:stedsnr" v="690353" />
	</node>
	<node id="-266600" lat="60.2795722185" lon="10.9653833347">
		<tag k="name" v="Forbråtan" />
		<tag k="natural" v="hill" />
		<tag k="place" v="locality" />
		<tag k="ssr:stedsnr" v="690326" />
	</node>
	<node id="-266556" lat="60.2021388873" lon="10.8538666599">
		<tag k="name" v="Jensesvingen" />
		<tag k="place" v="locality" />
		<tag k="ssr:stedsnr" v="508059" />
	</node>
	<node id="-267110" lat="60.3024416627" lon="10.8986861188">
		<tag k="name" v="Kverndalslia" />
		<tag k="natural" v="slope" />
		<tag k="place" v="locality" />
		<tag k="ssr:stedsnr" v="205259" />
	</node>
	<node id="-267621" lat="60.3168666627" lon="10.8965222189">
		<tag k="name" v="Steinbrottdalen" />
		<tag k="natural" v="valley" />
		<tag k="place" v="locality" />
		<tag k="ssr:stedsnr" v="872242" />
	</node>
	<node id="-267108" lat="60.3174861114" lon="10.913911107">
		<tag k="name" v="Nysæterlia" />
		<tag k="natural" v="slope" />
		<tag k="place" v="locality" />
		<tag k="ssr:stedsnr" v="205247" />
	</node>
	<node id="-267107" lat="60.2593793053" lon="10.9393177237">
		<tag k="name" v="Mørkagånga" />
		<tag k="natural" v="slope" />
		<tag k="place" v="locality" />
		<tag k="ssr:stedsnr" v="205236" />
	</node>
	<node id="-267617" lat="60.2347694435" lon="10.9887694486">
		<tag k="name" v="Kringlerdalen" />
		<tag k="natural" v="valley" />
		<tag k="place" v="locality" />
		<tag k="ssr:stedsnr" v="872277" />
	</node>
	<node id="-266367" lat="60.2218083371" lon="10.9401333294">
		<tag k="fixme" v="consider natural=peak for the most distinct mountains in the district" />
		<tag k="name" v="Elbekkhaugen" />
		<tag k="natural" v="hill" />
		<tag k="place" v="locality" />
		<tag k="ssr:stedsnr" v="326327" />
	</node>
	<node id="-267615" lat="60.185738888" lon="10.8641277773">
		<tag k="name" v="Tripperudlia" />
		<tag k="natural" v="slope" />
		<tag k="place" v="locality" />
		<tag k="ssr:stedsnr" v="872023" />
	</node>
	<node id="-267102" lat="60.2294472198" lon="10.8274638883">
		<tag k="fixme" v="consider natural=peak for the most distinct mountains in the district" />
		<tag k="name" v="Stubbetjernsrøet" />
		<tag k="natural" v="hill" />
		<tag k="place" v="locality" />
		<tag k="ssr:stedsnr" v="205186" />
	</node>
	<node id="-267101" lat="60.1933972255" lon="10.8101333373">
		<tag k="name" v="Tvekjellerdalen" />
		<tag k="natural" v="valley" />
		<tag k="place" v="locality" />
		<tag k="ssr:stedsnr" v="205182" />
	</node>
	<node id="-267611" lat="60.1307638918" lon="10.9526305627">
		<tag k="fixme" v="consider natural=peak for the most distinct mountains in the district" />
		<tag k="name" v="Midtholen" />
		<tag k="natural" v="hill" />
		<tag k="place" v="locality" />
		<tag k="ssr:stedsnr" v="872099" />
	</node>
	<node id="-267098" lat="60.2993861129" lon="11.075358339">
		<tag k="name" v="Rundhaugen" />
		<tag k="natural" v="hill" />
		<tag k="place" v="locality" />
		<tag k="ssr:stedsnr" v="205173" />
	</node>
	<node id="-266584" lat="60.3319666707" lon="10.9360805556">
		<tag k="name" v="Sundbysæterlia" />
		<tag k="natural" v="slope" />
		<tag k="place" v="locality" />
		<tag k="ssr:stedsnr" v="690123" />
	</node>
	<node id="-266582" lat="60.1264166658" lon="11.0136250034">
		<tag k="fixme" v="consider natural=peak for the most distinct mountains in the district" />
		<tag k="name" v="Graniåsen" />
		<tag k="natural" v="hill" />
		<tag k="place" v="locality" />
		<tag k="ssr:stedsnr" v="690113" />
	</node>
	<node id="-266581" lat="60.1252472253" lon="10.9889138927">
		<tag k="name" v="Boligbakken" />
		<tag k="natural" v="slope" />
		<tag k="place" v="locality" />
		<tag k="ssr:stedsnr" v="690091" />
	</node>
	<node id="-266579" lat="60.1420527818" lon="11.0172000045">
		<tag k="name" v="Håkenstad" />
		<tag k="natural" v="slope" />
		<tag k="place" v="locality" />
		<tag k="ssr:stedsnr" v="690079" />
	</node>
	<node id="-266578" lat="60.1503249977" lon="10.9759027804">
		<tag k="name" v="Myssmørkleiva" />
		<tag k="natural" v="slope" />
		<tag k="place" v="locality" />
		<tag k="ssr:stedsnr" v="690063" />
	</node>
	<node id="-266577" lat="60.135197218" lon="10.9736805567">
		<tag k="name" v="Skurverudlia" />
>>>>>>> e1d4bc35ff8a6074a6f2e91616a996b547c36f15
		<tag k="natural" v="slope" />
		<tag k="place" v="locality" />
		<tag k="ssr:stedsnr" v="690057" />
	</node>
<<<<<<< HEAD
	<node lat="60.26273333376675" lon="10.892963894321396" id="-19300">
		<tag k="name" v="Vombakken" />
		<tag k="natural" v="slope" />
		<tag k="place" v="locality" />
		<tag k="ssr:stedsnr" v="568225" />
	</node>
	<node lat="60.27085277491685" lon="10.823586111269147" id="-19301">
		<tag k="name" v="Styggdalen" />
		<tag k="natural" v="valley" />
		<tag k="place" v="locality" />
		<tag k="ssr:stedsnr" v="568227" />
	</node>
	<node lat="60.26471388972322" lon="10.865136119501377" id="-19305">
		<tag k="name" v="Svartdalen" />
		<tag k="natural" v="valley" />
		<tag k="place" v="locality" />
		<tag k="ssr:stedsnr" v="568373" />
	</node>
	<node lat="60.21408888804757" lon="10.876280547027271" id="-19307">
		<tag k="name" v="Bjønndalsrøet" />
		<tag k="natural" v="hill" />
		<tag k="place" v="locality" />
		<tag k="ssr:stedsnr" v="569074" />
	</node>
	<node lat="60.13825277875268" lon="10.905875007986971" id="-19311">
		<tag k="name" v="Bentebråten" />
		<tag k="natural" v="slope" />
		<tag k="place" v="locality" />
		<tag k="ssr:stedsnr" v="569958" />
	</node>
	<node lat="60.32389167046747" lon="10.891455555354327" id="-19320">
		<tag k="name" v="Korpehaugen" />
		<tag k="natural" v="hill" />
		<tag k="place" v="locality" />
		<tag k="ssr:stedsnr" v="612280" />
	</node>
	<node lat="60.12276110813623" lon="11.000130559587443" id="-19327">
		<tag k="name" v="Blautdalen" />
		<tag k="natural" v="valley" />
		<tag k="place" v="locality" />
		<tag k="ssr:stedsnr" v="612663" />
	</node>
	<node lat="60.14630277775561" lon="11.064238884304281" id="-19338">
		<tag k="name" v="Sølvhaug" />
		<tag k="natural" v="hill" />
		<tag k="place" v="locality" />
		<tag k="ssr:stedsnr" v="629015" />
	</node>
	<node lat="60.17487500249985" lon="10.868477771465344" id="-19343">
		<tag k="name" v="Fjøsdalen" />
		<tag k="natural" v="valley" />
		<tag k="place" v="locality" />
		<tag k="ssr:stedsnr" v="629052" />
	</node>
	<node lat="60.31168055790287" lon="10.9920166693893" id="-19355">
		<tag k="name" v="Sponvikhaugen" />
		<tag k="natural" v="hill" />
		<tag k="place" v="locality" />
		<tag k="ssr:stedsnr" v="629503" />
	</node>
	<node lat="60.28871111397156" lon="10.979786106204276" id="-19356">
		<tag k="fixme" v="consider natural=peak for the most distinct mountains in the district" />
		<tag k="name" v="Kløvhaugen" />
		<tag k="natural" v="hill" />
		<tag k="place" v="locality" />
		<tag k="ssr:stedsnr" v="629507" />
	</node>
	<node lat="60.29146666998017" lon="10.974205554006108" id="-19357">
		<tag k="name" v="Paradislia" />
		<tag k="natural" v="slope" />
		<tag k="place" v="locality" />
		<tag k="ssr:stedsnr" v="629509" />
	</node>
	<node lat="60.31642500283445" lon="10.956772224126837" id="-19358">
		<tag k="name" v="Klofjellgapet" />
		<tag k="natural" v="valley" />
		<tag k="place" v="locality" />
		<tag k="ssr:stedsnr" v="629452" />
	</node>
	<node lat="60.147419444521034" lon="10.910227781567553" id="-19360">
		<tag k="name" v="Kjeisholen" />
		<tag k="natural" v="hill" />
		<tag k="place" v="locality" />
		<tag k="ssr:stedsnr" v="630948" />
	</node>
	<node lat="60.29742499710203" lon="10.856100004703743" id="-19363">
		<tag k="name" v="Lyberget" />
		<tag k="natural" v="hill" />
		<tag k="place" v="locality" />
		<tag k="ssr:stedsnr" v="673316" />
	</node>
	<node lat="60.14205278177118" lon="11.017200004469125" id="-19374">
		<tag k="name" v="Håkenstad" />
		<tag k="natural" v="slope" />
		<tag k="place" v="locality" />
		<tag k="ssr:stedsnr" v="690079" />
	</node>
	<node lat="60.12524722530284" lon="10.988913892737093" id="-19376">
		<tag k="name" v="Boligbakken" />
		<tag k="natural" v="slope" />
		<tag k="place" v="locality" />
		<tag k="ssr:stedsnr" v="690091" />
	</node>
	<node lat="60.31068332998661" lon="10.973611119339344" id="-19381">
		<tag k="name" v="Lusetjernlia" />
		<tag k="natural" v="slope" />
		<tag k="place" v="locality" />
		<tag k="ssr:stedsnr" v="690486" />
	</node>
	<node lat="60.27504444419178" lon="11.009336112839023" id="-19383">
		<tag k="name" v="Totnerlia" />
		<tag k="natural" v="slope" />
		<tag k="place" v="locality" />
		<tag k="ssr:stedsnr" v="690493" />
	</node>
	<node lat="60.235586113354586" lon="11.029786111370347" id="-19384">
		<tag k="fixme" v="consider natural=peak for the most distinct mountains in the district" />
		<tag k="name" v="Bjørkeåsen" />
		<tag k="natural" v="hill" />
		<tag k="place" v="locality" />
		<tag k="ssr:stedsnr" v="691281" />
	</node>
	<node lat="60.23621666527323" lon="11.030452776088872" id="-19400">
		<tag k="name" v="Nordgardsberget" />
		<tag k="natural" v="hill" />
		<tag k="place" v="locality" />
		<tag k="ssr:stedsnr" v="733792" />
	</node>
	<node lat="60.267091667474645" lon="11.089266661201181" id="-19416">
		<tag k="name" v="Bjørkhaugen" />
		<tag k="natural" v="hill" />
		<tag k="place" v="locality" />
		<tag k="ssr:stedsnr" v="751171" />
	</node>
	<node lat="60.28019166357936" lon="10.974949992068655" id="-19418">
		<tag k="name" v="Borhaugdalen" />
		<tag k="natural" v="valley" />
		<tag k="place" v="locality" />
		<tag k="ssr:stedsnr" v="751303" />
	</node>
	<node lat="60.273966668588" lon="10.958694448416589" id="-19419">
		<tag k="name" v="Steinbrottlia" />
		<tag k="natural" v="slope" />
		<tag k="place" v="locality" />
		<tag k="ssr:stedsnr" v="751306" />
	</node>
	<node lat="60.29840277419048" lon="10.849730549116224" id="-19426">
		<tag k="name" v="Bukkelia" />
		<tag k="natural" v="slope" />
		<tag k="place" v="locality" />
		<tag k="ssr:stedsnr" v="751364" />
	</node>
	<node lat="60.245819442471756" lon="10.937063880260979" id="-19428">
		<tag k="name" v="Hokringlersæterdalen" />
		<tag k="natural" v="valley" />
		<tag k="place" v="locality" />
		<tag k="ssr:stedsnr" v="751256" />
	</node>
	<node lat="60.24855555538393" lon="10.833811109949517" id="-19446">
		<tag k="name" v="Sortungshøgda" />
		<tag k="natural" v="hill" />
		<tag k="place" v="locality" />
		<tag k="ssr:stedsnr" v="794924" />
	</node>
	<node lat="60.22645555284798" lon="10.841425006166121" id="-19465">
		<tag k="name" v="Råbjørndalen" />
		<tag k="natural" v="valley" />
		<tag k="place" v="locality" />
		<tag k="ssr:stedsnr" v="916835" />
	</node>
	<node lat="60.205444443456756" lon="10.790672223626004" id="-19479">
		<tag k="name" v="Vestre Råsjølia" />
		<tag k="natural" v="slope" />
		<tag k="place" v="locality" />
		<tag k="ssr:stedsnr" v="812205" />
	</node>
	<node lat="60.16529444534548" lon="10.981872224269951" id="-19484">
		<tag k="name" v="Trolldalen" />
		<tag k="natural" v="valley" />
		<tag k="place" v="locality" />
		<tag k="ssr:stedsnr" v="812232" />
	</node>
	<node lat="60.12935278127829" lon="11.004438885160873" id="-19488">
		<tag k="fixme" v="consider natural=peak for the most distinct mountains in the district" />
		<tag k="name" v="Korpeberget" />
		<tag k="natural" v="hill" />
		<tag k="place" v="locality" />
		<tag k="ssr:stedsnr" v="812107" />
	</node>
	<node lat="60.311447226032634" lon="11.036699993199715" id="-19494">
		<tag k="name" v="Nannestadvanghøgda" />
		<tag k="natural" v="hill" />
		<tag k="place" v="locality" />
		<tag k="ssr:stedsnr" v="812510" />
	</node>
	<node lat="60.340761110576814" lon="10.968516673973346" id="-19496">
		<tag k="name" v="Larssonvelta" />
		<tag k="place" v="locality" />
		<tag k="ssr:stedsnr" v="812498" />
	</node>
	<node lat="60.32962222434964" lon="10.959363888756146" id="-19497">
		<tag k="name" v="Kongelia" />
		<tag k="natural" v="slope" />
		<tag k="place" v="locality" />
		<tag k="ssr:stedsnr" v="812501" />
	</node>
	<node lat="60.14363055446813" lon="10.961252770714244" id="-19498">
		<tag k="fixme" v="consider natural=peak for the most distinct mountains in the district" />
		<tag k="name" v="Merrarøet" />
		<tag k="natural" v="hill" />
		<tag k="place" v="locality" />
		<tag k="ssr:stedsnr" v="812891" />
	</node>
	<node lat="60.18573888802968" lon="10.864127777280746" id="-19517">
		<tag k="name" v="Tripperudlia" />
		<tag k="natural" v="slope" />
		<tag k="place" v="locality" />
		<tag k="ssr:stedsnr" v="872023" />
	</node>
	<node lat="60.14689721876002" lon="10.975119449919246" id="-19519">
		<tag k="fixme" v="consider natural=peak for the most distinct mountains in the district" />
		<tag k="name" v="Vestre varden" />
		<tag k="natural" v="hill" />
		<tag k="place" v="locality" />
		<tag k="ssr:stedsnr" v="872064" />
	</node>
	<node lat="60.20370555524567" lon="11.025430559902349" id="-19524">
		<tag k="name" v="Asphaug" />
		<tag k="natural" v="hill" />
		<tag k="place" v="locality" />
		<tag k="ssr:stedsnr" v="933303" />
	</node>
	<node lat="60.22483055454749" lon="10.940349995560096" id="-19527">
		<tag k="fixme" v="consider natural=peak for the most distinct mountains in the district" />
		<tag k="name" v="Blankfjellet" />
		<tag k="natural" v="hill" />
		<tag k="place" v="locality" />
		<tag k="ssr:stedsnr" v="933332" />
	</node>
	<node lat="60.151844445793145" lon="10.983116669176015" id="-19531">
		<tag k="name" v="Steinbakken" />
		<tag k="natural" v="slope" />
		<tag k="place" v="locality" />
		<tag k="ssr:stedsnr" v="933074" />
	</node>
	<node lat="60.24819722479302" lon="11.123816670668715" id="-19535">
		<tag k="name" v="Ringhaugene" />
		<tag k="natural" v="hill" />
		<tag k="place" v="locality" />
		<tag k="ssr:stedsnr" v="933161" />
	</node>
	<node lat="60.2368444433845" lon="10.920699991819326" id="-19538">
		<tag k="name" v="Kaksrudstykket" />
		<tag k="natural" v="slope" />
		<tag k="place" v="locality" />
		<tag k="ssr:stedsnr" v="933347" />
	</node>
	<node lat="60.22660277700848" lon="10.874244441041574" id="-19539">
		<tag k="name" v="Drittjerndalen" />
		<tag k="natural" v="valley" />
		<tag k="place" v="locality" />
		<tag k="ssr:stedsnr" v="933355" />
	</node>
	<node lat="60.209427779436815" lon="10.832450006766246" id="-19541">
		<tag k="name" v="Råsjøhøgda" />
		<tag k="natural" v="hill" />
		<tag k="place" v="locality" />
		<tag k="ssr:stedsnr" v="933370" />
	</node>
	<node lat="60.29218055666793" lon="10.842888891384307" id="-19542">
		<tag k="name" v="Øvre Hellern" />
=======
	<node id="-267088" lat="60.183874996" lon="10.8536138817">
		<tag k="fixme" v="consider natural=peak for the most distinct mountains in the district" />
		<tag k="name" v="Elsjøkongen" />
		<tag k="natural" v="hill" />
		<tag k="place" v="locality" />
		<tag k="ssr:stedsnr" v="205023" />
	</node>
	<node id="-267087" lat="60.1464166677" lon="11.0722138826">
		<tag k="name" v="Kjøtthaug" />
		<tag k="natural" v="hill" />
		<tag k="place" v="locality" />
		<tag k="ssr:stedsnr" v="205011" />
	</node>
	<node id="-266572" lat="60.1889194465" lon="10.9297666667">
		<tag k="fixme" v="consider natural=peak for the most distinct mountains in the district" />
		<tag k="name" v="Gunderstuhaugene" />
		<tag k="natural" v="hill" />
		<tag k="place" v="locality" />
		<tag k="ssr:stedsnr" v="690021" />
	</node>
	<node id="-267082" lat="60.2169527778" lon="10.8244277736">
		<tag k="name" v="Trasletjerndalen" />
		<tag k="natural" v="valley" />
		<tag k="place" v="locality" />
		<tag k="ssr:stedsnr" v="188878" />
	</node>
	<node id="-267592" lat="60.2112333367" lon="10.7826888903">
		<tag k="name" v="Sagdalen" />
		<tag k="natural" v="valley" />
		<tag k="place" v="locality" />
		<tag k="ssr:stedsnr" v="855863" />
	</node>
	<node id="-266567" lat="60.2063333291" lon="10.9662527703">
		<tag k="name" v="Finndalen" />
		<tag k="natural" v="valley" />
		<tag k="place" v="locality" />
		<tag k="ssr:stedsnr" v="509275" />
	</node>
	<node id="-266566" lat="60.2191388885" lon="10.9812833388">
		<tag k="name" v="Bikkjebettet" />
		<tag k="natural" v="hill" />
		<tag k="place" v="locality" />
		<tag k="ssr:stedsnr" v="509273" />
	</node>
	<node id="-266564" lat="60.3189972215" lon="10.9949722133">
		<tag k="name" v="Svartputtlia" />
		<tag k="natural" v="slope" />
		<tag k="place" v="locality" />
		<tag k="ssr:stedsnr" v="508484" />
	</node>
	<node id="-267587" lat="60.1436305545" lon="10.9612527707">
		<tag k="fixme" v="consider natural=peak for the most distinct mountains in the district" />
		<tag k="name" v="Merrarøet" />
		<tag k="natural" v="hill" />
		<tag k="place" v="locality" />
		<tag k="ssr:stedsnr" v="812891" />
	</node>
	<node id="-267585" lat="60.311447226" lon="11.0366999932">
		<tag k="name" v="Nannestadvanghøgda" />
		<tag k="natural" v="hill" />
		<tag k="place" v="locality" />
		<tag k="ssr:stedsnr" v="812510" />
	</node>
	<node id="-267584" lat="60.3296222243" lon="10.9593638888">
		<tag k="name" v="Kongelia" />
		<tag k="natural" v="slope" />
		<tag k="place" v="locality" />
		<tag k="ssr:stedsnr" v="812501" />
	</node>
	<node id="-266208" lat="60.3232055582" lon="10.9726250073">
		<tag k="name" v="Kongen" />
		<tag k="natural" v="hill" />
		<tag k="place" v="locality" />
		<tag k="ssr:stedsnr" v="249259" />
	</node>
	<node id="-267581" lat="60.2764972228" lon="11.0049555583">
		<tag k="name" v="Åmotlia" />
		<tag k="natural" v="slope" />
		<tag k="place" v="locality" />
		<tag k="ssr:stedsnr" v="812470" />
	</node>
	<node id="-267580" lat="60.2698027813" lon="11.0511361038">
		<tag k="fixme" v="consider natural=peak for the most distinct mountains in the district" />
		<tag k="name" v="Brattåstoppen" />
		<tag k="natural" v="hill" />
		<tag k="place" v="locality" />
		<tag k="ssr:stedsnr" v="812455" />
	</node>
	<node id="-267579" lat="60.2650833349" lon="11.05471945">
		<tag k="name" v="Korpehaugen" />
		<tag k="natural" v="hill" />
		<tag k="place" v="locality" />
		<tag k="ssr:stedsnr" v="812454" />
	</node>
	<node id="-267577" lat="60.251641665" lon="10.9557888945">
		<tag k="name" v="Sørlia" />
		<tag k="natural" v="slope" />
		<tag k="place" v="locality" />
		<tag k="ssr:stedsnr" v="812450" />
	</node>
	<node id="-267576" lat="60.2486749975" lon="11.1077138865">
		<tag k="name" v="Mohøgda" />
		<tag k="natural" v="hill" />
		<tag k="place" v="locality" />
		<tag k="ssr:stedsnr" v="812388" />
	</node>
	<node id="-266292" lat="60.1363361137" lon="10.9355249939">
		<tag k="loc_name" v="Romeriksåsane" />
		<tag k="name" v="Romeriksåsene" />
		<tag k="natural" v="wood" />
		<tag k="ssr:stedsnr" v="145564" />
	</node>
	<node id="-266952" lat="60.1261416709" lon="10.9728027728">
		<tag k="name" v="Stårrdalen" />
		<tag k="natural" v="valley" />
		<tag k="place" v="locality" />
		<tag k="ssr:stedsnr" v="84127" />
	</node>
	<node id="-267569" lat="60.2330083369" lon="10.8982083339">
		<tag k="name" v="Svartdalen" />
		<tag k="natural" v="valley" />
		<tag k="place" v="locality" />
		<tag k="ssr:stedsnr" v="812329" />
	</node>
	<node id="-267567" lat="60.2032694425" lon="10.977319442">
		<tag k="fixme" v="consider natural=peak for the most distinct mountains in the district" />
		<tag k="name" v="Korphaugen" />
		<tag k="natural" v="hill" />
		<tag k="place" v="locality" />
		<tag k="ssr:stedsnr" v="812308" />
	</node>
	<node id="-267565" lat="60.2817722213" lon="10.9509777852">
		<tag k="name" v="Bellinglia" />
		<tag k="natural" v="slope" />
		<tag k="place" v="locality" />
		<tag k="ssr:stedsnr" v="812294" />
	</node>
	<node id="-267564" lat="60.1928944415" lon="11.0198694481">
		<tag k="fixme" v="consider natural=peak for the most distinct mountains in the district" />
		<tag k="name" v="Nygårdstoppen" />
		<tag k="natural" v="hill" />
		<tag k="place" v="locality" />
		<tag k="ssr:stedsnr" v="812287" />
	</node>
	<node id="-267563" lat="60.2321694458" lon="10.9586277777">
		<tag k="name" v="Monsklopphølet" />
		<tag k="natural" v="valley" />
		<tag k="place" v="locality" />
		<tag k="ssr:stedsnr" v="812283" />
	</node>
	<node id="-266538" lat="60.1537333333" lon="10.9861388901">
		<tag k="alt_name" v="Hukelhaugen" />
		<tag k="name" v="Huklehaugen" />
		<tag k="natural" v="hill" />
		<tag k="place" v="locality" />
		<tag k="ssr:stedsnr" v="673735" />
	</node>
	<node id="-267048" lat="60.1533305579" lon="10.9367638885">
		<tag k="fixme" v="consider natural=peak for the most distinct mountains in the district" />
		<tag k="name" v="Varden" />
		<tag k="natural" v="hill" />
		<tag k="place" v="locality" />
		<tag k="ssr:stedsnr" v="144964" />
	</node>
	<node id="-267559" lat="60.1652944453" lon="10.9818722243">
		<tag k="name" v="Trolldalen" />
		<tag k="natural" v="valley" />
		<tag k="place" v="locality" />
		<tag k="ssr:stedsnr" v="812232" />
	</node>
	<node id="-267046" lat="60.1419777745" lon="10.9568138935">
		<tag k="fixme" v="consider natural=peak for the most distinct mountains in the district" />
		<tag k="name" v="Hylliputtrøet" />
		<tag k="natural" v="hill" />
		<tag k="place" v="locality" />
		<tag k="ssr:stedsnr" v="144883" />
	</node>
	<node id="-266289" lat="60.171016668" lon="10.8966361166">
		<tag k="fixme" v="consider natural=peak for the most distinct mountains in the district" />
		<tag k="name" v="Øyungsrøet" />
		<tag k="natural" v="hill" />
		<tag k="place" v="locality" />
		<tag k="ssr:stedsnr" v="144041" />
	</node>
	<node id="-266365" lat="60.1603694476" lon="10.9803555513">
		<tag k="fixme" v="consider natural=peak for the most distinct mountains in the district" />
		<tag k="name" v="Tjuvberga" />
		<tag k="natural" v="hill" />
		<tag k="place" v="locality" />
		<tag k="ssr:stedsnr" v="326203" />
	</node>
	<node id="-267043" lat="60.2780138874" lon="11.0411527748">
		<tag k="name" v="Lyholen" />
		<tag k="natural" v="ridge" />
		<tag k="place" v="locality" />
		<tag k="ssr:stedsnr" v="144486" />
	</node>
	<node id="-267554" lat="60.2054444435" lon="10.7906722236">
		<tag k="name" v="Vestre Råsjølia" />
		<tag k="natural" v="slope" />
		<tag k="place" v="locality" />
		<tag k="ssr:stedsnr" v="812205" />
	</node>
	<node id="-267041" lat="60.3434666677" lon="10.9989611077">
		<tag k="name" v="Hellen" />
		<tag k="place" v="locality" />
		<tag k="ssr:stedsnr" v="144412" />
	</node>
	<node id="-267551" lat="60.2227388908" lon="10.8326027723">
		<tag k="name" v="Trasletjernhøgda" />
		<tag k="natural" v="hill" />
		<tag k="place" v="locality" />
		<tag k="ssr:stedsnr" v="812200" />
	</node>
	<node id="-266526" lat="60.2974249971" lon="10.8561000047">
		<tag k="name" v="Lyberget" />
		<tag k="natural" v="hill" />
		<tag k="place" v="locality" />
		<tag k="ssr:stedsnr" v="673316" />
	</node>
	<node id="-267037" lat="60.263319443" lon="10.8659055632">
		<tag k="name" v="Svarthaugen" />
		<tag k="natural" v="hill" />
		<tag k="place" v="locality" />
		<tag k="ssr:stedsnr" v="144385" />
	</node>
	<node id="-266458" lat="60.1558527737" lon="10.9898833288">
		<tag k="fixme" v="consider natural=peak for the most distinct mountains in the district" />
		<tag k="name" v="Knevelsrudhornet" />
		<tag k="natural" v="hill" />
		<tag k="place" v="locality" />
		<tag k="ssr:stedsnr" v="508198" />
	</node>
	<node id="-266859" lat="60.1868583312" lon="10.8554166664">
		<tag k="name" v="Tripperudhøgda" />
		<tag k="natural" v="hill" />
		<tag k="place" v="locality" />
		<tag k="ssr:stedsnr" v="5770" />
	</node>
	<node id="-267031" lat="60.2087527751" lon="10.8124472211">
		<tag k="name" v="Kobbernakken" />
		<tag k="natural" v="hill" />
		<tag k="place" v="locality" />
		<tag k="ssr:stedsnr" v="144363" />
	</node>
	<node id="-267542" lat="60.1293527813" lon="11.0044388852">
		<tag k="fixme" v="consider natural=peak for the most distinct mountains in the district" />
		<tag k="name" v="Korpeberget" />
		<tag k="natural" v="hill" />
		<tag k="place" v="locality" />
		<tag k="ssr:stedsnr" v="812107" />
	</node>
	<node id="-266201" lat="60.2234194486" lon="10.7770138948">
		<tag k="name" v="Skotjernhaugen" />
		<tag k="natural" v="hill" />
		<tag k="place" v="locality" />
		<tag k="ssr:stedsnr" v="248874" />
	</node>
	<node id="-267276" lat="60.3222555535" lon="10.963255549">
		<tag k="name" v="Korsdalen" />
		<tag k="natural" v="valley" />
		<tag k="place" v="locality" />
		<tag k="ssr:stedsnr" v="387445" />
	</node>
	<node id="-267539" lat="60.1429166628" lon="10.9733972285">
		<tag k="name" v="Brenna" />
		<tag k="natural" v="hill" />
		<tag k="place" v="locality" />
		<tag k="ssr:stedsnr" v="812072" />
	</node>
	<node id="-267538" lat="60.1461027789" lon="10.9828555496">
		<tag k="fixme" v="consider natural=peak for the most distinct mountains in the district" />
		<tag k="name" v="Rovolsvarden" />
		<tag k="natural" v="hill" />
		<tag k="place" v="locality" />
		<tag k="ssr:stedsnr" v="812066" />
	</node>
	<node id="-267537" lat="60.1426305524" lon="11.0037416705">
		<tag k="name" v="Hyttebrudalen" />
		<tag k="natural" v="valley" />
		<tag k="place" v="locality" />
		<tag k="ssr:stedsnr" v="812062" />
	</node>
	<node id="-267024" lat="60.2425722263" lon="10.9263499946">
		<tag k="name" v="Jonslia" />
>>>>>>> e1d4bc35ff8a6074a6f2e91616a996b547c36f15
		<tag k="natural" v="slope" />
		<tag k="place" v="locality" />
		<tag k="ssr:stedsnr" v="144250" />
	</node>
<<<<<<< HEAD
	<node lat="60.265791666858746" lon="10.925158335215908" id="-19545">
		<tag k="name" v="Redeberghaugen" />
		<tag k="natural" v="hill" />
		<tag k="place" v="locality" />
		<tag k="ssr:stedsnr" v="933387" />
	</node>
	<node lat="60.281852775312" lon="10.883302773169902" id="-19547">
		<tag k="name" v="Tomaslia" />
		<tag k="natural" v="slope" />
		<tag k="place" v="locality" />
		<tag k="ssr:stedsnr" v="933396" />
	</node>
	<node lat="60.24321111274576" lon="11.106983330890738" id="-19549">
		<tag k="name" v="Flatner" />
		<tag k="place" v="locality" />
		<tag k="ssr:stedsnr" v="933416" />
	</node>
	<node lat="60.296150002281124" lon="11.047825003240542" id="-19560">
		<tag k="name" v="Viksvanghaugen" />
		<tag k="natural" v="hill" />
		<tag k="place" v="locality" />
		<tag k="ssr:stedsnr" v="916303" />
	</node>
	<node lat="60.28917499967568" lon="10.986099992657456" id="-19565">
		<tag k="name" v="Gullikshaugen" />
		<tag k="natural" v="hill" />
		<tag k="place" v="locality" />
		<tag k="ssr:stedsnr" v="916366" />
	</node>
	<node lat="60.14318611078549" lon="11.05090556436154" id="-19579">
		<tag k="name" v="Korsbakkhaugen" />
		<tag k="natural" v="hill" />
		<tag k="place" v="locality" />
		<tag k="ssr:stedsnr" v="933087" />
	</node>
	<node lat="60.15870555513743" lon="10.986808334948336" id="-19582">
		<tag k="fixme" v="consider natural=peak for the most distinct mountains in the district" />
		<tag k="name" v="Grasliberget" />
		<tag k="natural" v="hill" />
		<tag k="place" v="locality" />
		<tag k="ssr:stedsnr" v="933206" />
	</node>
	<node lat="60.309405557698476" lon="10.934202777104193" id="-19584">
		<tag k="name" v="Hegglisæterhaugen" />
		<tag k="natural" v="hill" />
		<tag k="place" v="locality" />
		<tag k="ssr:stedsnr" v="933247" />
	</node>
	<node lat="60.28843611172464" lon="11.000016667805317" id="-19589">
		<tag k="fixme" v="consider natural=peak for the most distinct mountains in the district" />
		<tag k="name" v="Kuberget" />
		<tag k="natural" v="hill" />
		<tag k="place" v="locality" />
		<tag k="ssr:stedsnr" v="933508" />
	</node>
	<node lat="60.28840555781121" lon="10.960149996232705" id="-19591">
		<tag k="name" v="Hellebadstudalen" />
		<tag k="natural" v="valley" />
		<tag k="place" v="locality" />
		<tag k="ssr:stedsnr" v="933536" />
	</node>
	<node lat="60.277836109570394" lon="11.047944448460415" id="-19593">
		<tag k="name" v="Utsikten" />
		<tag k="natural" v="hill" />
		<tag k="place" v="locality" />
		<tag k="ssr:stedsnr" v="933493" />
	</node>
	<node lat="60.19548333703483" lon="10.839705559423694" id="-19610">
		<tag k="name" v="Rolighøgda" />
		<tag k="natural" v="hill" />
		<tag k="place" v="locality" />
		<tag k="ssr:stedsnr" v="5748" />
	</node>
	<node lat="60.28664999859576" lon="11.01730833608358" id="-19616">
		<tag k="alt_name" v="Nippkollen" />
=======
	<node id="-267534" lat="60.1720749971" lon="10.9330861047">
		<tag k="fixme" v="consider natural=peak for the most distinct mountains in the district" />
		<tag k="name" v="Spilhøgda" />
		<tag k="natural" v="hill" />
		<tag k="place" v="locality" />
		<tag k="ssr:stedsnr" v="812036" />
	</node>
	<node id="-266508" lat="60.3217499982" lon="11.0095638933">
		<tag k="name" v="Flatnertjernhaugen" />
		<tag k="natural" v="hill" />
		<tag k="place" v="locality" />
		<tag k="ssr:stedsnr" v="448517" />
	</node>
	<node id="-266507" lat="60.3036444408" lon="11.0567388923">
		<tag k="name" v="Tømtelia" />
		<tag k="natural" v="slope" />
		<tag k="place" v="locality" />
		<tag k="ssr:stedsnr" v="448511" />
	</node>
	<node id="-267018" lat="60.1977916646" lon="10.7834277825">
		<tag k="name" v="Kroktjernsrøet" />
		<tag k="natural" v="hill" />
		<tag k="place" v="locality" />
		<tag k="ssr:stedsnr" v="144184" />
	</node>
	<node id="-267017" lat="60.3168222238" lon="11.0662083274">
		<tag k="name" v="Sandsneslia" />
		<tag k="natural" v="slope" />
		<tag k="place" v="locality" />
		<tag k="ssr:stedsnr" v="144174" />
	</node>
	<node id="-266369" lat="60.230369445" lon="10.9402611074">
		<tag k="fixme" v="consider natural=peak for the most distinct mountains in the district" />
		<tag k="name" v="Skarsdalsberget" />
		<tag k="natural" v="hill" />
		<tag k="place" v="locality" />
		<tag k="ssr:stedsnr" v="326331" />
	</node>
	<node id="-266969" lat="60.2735222242" lon="10.8421166603">
		<tag k="name" v="Vestrelia" />
		<tag k="natural" v="slope" />
		<tag k="place" v="locality" />
		<tag k="ssr:stedsnr" v="84362" />
	</node>
	<node id="-267455" lat="60.1430138902" lon="10.9382444448">
		<tag k="name" v="Hattbråthaugene" />
		<tag k="natural" v="hill" />
		<tag k="place" v="locality" />
		<tag k="ssr:stedsnr" v="630949" />
	</node>
	<node id="-267007" lat="60.1475166672" lon="11.002738891">
		<tag k="fixme" v="consider natural=peak for the most distinct mountains in the district" />
		<tag k="name" v="Rovolåsen" />
		<tag k="natural" v="hill" />
		<tag k="place" v="locality" />
		<tag k="ssr:stedsnr" v="144075" />
	</node>
	<node id="-267518" lat="60.2485555554" lon="10.8338111099">
		<tag k="name" v="Sortungshøgda" />
		<tag k="natural" v="hill" />
		<tag k="place" v="locality" />
		<tag k="ssr:stedsnr" v="794924" />
	</node>
	<node id="-266493" lat="60.1376388915" lon="11.0647777703">
		<tag k="name" v="Oterhaugen" />
		<tag k="natural" v="hill" />
		<tag k="place" v="locality" />
		<tag k="ssr:stedsnr" v="448016" />
	</node>
	<node id="-267004" lat="60.2192249965" lon="10.7945500023">
		<tag k="name" v="Mattisdalen" />
		<tag k="natural" v="valley" />
		<tag k="place" v="locality" />
		<tag k="ssr:stedsnr" v="127879" />
	</node>
	<node id="-266152" lat="60.2301972228" lon="10.7909055624">
		<tag k="name" v="Skotjernlia" />
		<tag k="natural" v="slope" />
		<tag k="place" v="locality" />
		<tag k="ssr:stedsnr" v="23206" />
	</node>
	<node id="-266159" lat="60.2441666693" lon="11.1121944399">
		<tag k="name" v="Rabben" />
		<tag k="natural" v="hill" />
		<tag k="place" v="locality" />
		<tag k="ssr:stedsnr" v="23437" />
	</node>
	<node id="-266897" lat="60.19505833" lon="10.7928694508">
		<tag k="name" v="Storrsjøhøgda" />
		<tag k="natural" v="hill" />
		<tag k="place" v="locality" />
		<tag k="ssr:stedsnr" v="23194" />
	</node>
	<node id="-267481" lat="60.2739666686" lon="10.9586944484">
		<tag k="name" v="Steinbrottlia" />
		<tag k="natural" v="slope" />
		<tag k="place" v="locality" />
		<tag k="ssr:stedsnr" v="751306" />
	</node>
	<node id="-267510" lat="60.2630750004" lon="11.0231583399">
		<tag k="name" v="Åslia" />
		<tag k="natural" v="slope" />
		<tag k="place" v="locality" />
		<tag k="ssr:stedsnr" v="780980" />
	</node>
	<node id="-266995" lat="60.2820500016" lon="10.971874998">
		<tag k="alt_name" v="Borhaugkampen" />
		<tag k="name" v="Bårhaugkampen" />
		<tag k="natural" v="hill" />
		<tag k="place" v="locality" />
		<tag k="ssr:stedsnr" v="127354" />
	</node>
	<node id="-266536" lat="60.1463115622" lon="10.9752749177">
		<tag k="alt_name" v="Raufjellet" />
>>>>>>> e1d4bc35ff8a6074a6f2e91616a996b547c36f15
		<tag k="fixme" v="consider natural=peak for the most distinct mountains in the district" />
		<tag k="name" v="Nipkollen" />
		<tag k="natural" v="hill" />
		<tag k="place" v="locality" />
		<tag k="ssr:stedsnr" v="6366" />
	</node>
<<<<<<< HEAD
	<node lat="60.189138891835825" lon="10.782941671034987" id="-19624">
		<tag k="fixme" v="consider natural=peak for the most distinct mountains in the district" />
		<tag k="name" v="Piperåsen" />
		<tag k="natural" v="hill" />
		<tag k="place" v="locality" />
		<tag k="ssr:stedsnr" v="23193" />
	</node>
	<node lat="60.19505832999798" lon="10.79286945077253" id="-19625">
		<tag k="name" v="Storrsjøhøgda" />
		<tag k="natural" v="hill" />
		<tag k="place" v="locality" />
		<tag k="ssr:stedsnr" v="23194" />
	</node>
	<node lat="60.192536111514315" lon="10.792663881781069" id="-19626">
		<tag k="name" v="Malerputtlia" />
		<tag k="natural" v="slope" />
		<tag k="place" v="locality" />
		<tag k="ssr:stedsnr" v="23195" />
	</node>
	<node lat="60.193269444090035" lon="10.825888888497715" id="-19628">
		<tag k="name" v="Kløvningstjernhaugen" />
		<tag k="natural" v="hill" />
		<tag k="place" v="locality" />
		<tag k="ssr:stedsnr" v="23203" />
	</node>
	<node lat="60.19589444061893" lon="10.830694441350731" id="-19629">
		<tag k="name" v="Elsjødalen" />
		<tag k="natural" v="valley" />
		<tag k="place" v="locality" />
		<tag k="ssr:stedsnr" v="23205" />
	</node>
	<node lat="60.23019722281579" lon="10.790905562412458" id="-19630">
		<tag k="name" v="Skotjernlia" />
		<tag k="natural" v="slope" />
		<tag k="place" v="locality" />
		<tag k="ssr:stedsnr" v="23206" />
	</node>
	<node lat="60.20062222328453" lon="10.81055000130689" id="-19631">
		<tag k="name" v="Østre Råsjølia" />
		<tag k="natural" v="slope" />
		<tag k="place" v="locality" />
		<tag k="ssr:stedsnr" v="23210" />
	</node>
	<node lat="60.207986108781164" lon="10.788441667704005" id="-19632">
		<tag k="name" v="Sagtomta" />
		<tag k="place" v="locality" />
		<tag k="ssr:stedsnr" v="23216" />
	</node>
	<node lat="60.202377774774895" lon="10.90834166665043" id="-19635">
		<tag k="name" v="Lilykkja" />
		<tag k="natural" v="slope" />
		<tag k="place" v="locality" />
		<tag k="ssr:stedsnr" v="23060" />
	</node>
	<node lat="60.140527778467195" lon="11.000213881364528" id="-19637">
		<tag k="fixme" v="consider natural=peak for the most distinct mountains in the district" />
		<tag k="name" v="Harstadåsen" />
		<tag k="natural" v="hill" />
		<tag k="old_name" v="Harstad-Aasen" />
		<tag k="place" v="locality" />
		<tag k="ssr:stedsnr" v="23076" />
	</node>
	<node lat="60.245758329140465" lon="10.920555550100811" id="-19645">
		<tag k="name" v="Klyverø" />
		<tag k="natural" v="hill" />
		<tag k="place" v="locality" />
		<tag k="ssr:stedsnr" v="23273" />
	</node>
	<node lat="60.199400002918495" lon="11.012283338097918" id="-19648">
		<tag k="name" v="Tishaugen" />
		<tag k="natural" v="hill" />
		<tag k="place" v="locality" />
		<tag k="ssr:stedsnr" v="23326" />
	</node>
	<node lat="60.299874997119744" lon="10.955822226489946" id="-19649">
		<tag k="name" v="Tøldalen" />
		<tag k="natural" v="valley" />
		<tag k="place" v="locality" />
		<tag k="ssr:stedsnr" v="23549" />
	</node>
	<node lat="60.30993889202207" lon="11.017852783484363" id="-19651">
		<tag k="name" v="Rudsætervangen" />
		<tag k="natural" v="hill" />
		<tag k="place" v="locality" />
		<tag k="ssr:stedsnr" v="23552" />
	</node>
	<node lat="60.290452780898626" lon="10.95423610270308" id="-19653">
		<tag k="fixme" v="consider natural=peak for the most distinct mountains in the district" />
		<tag k="name" v="Davidkampen" />
		<tag k="natural" v="hill" />
		<tag k="place" v="locality" />
		<tag k="ssr:stedsnr" v="23564" />
	</node>
	<node lat="60.165311107281134" lon="10.913805546656016" id="-19672">
		<tag k="fixme" v="consider natural=peak for the most distinct mountains in the district" />
		<tag k="name" v="Djupøyungsrøet" />
		<tag k="natural" v="hill" />
		<tag k="place" v="locality" />
		<tag k="ssr:stedsnr" v="84047" />
	</node>
	<node lat="60.12614167087247" lon="10.972802772774845" id="-19679">
		<tag k="name" v="Stårrdalen" />
		<tag k="natural" v="valley" />
		<tag k="place" v="locality" />
		<tag k="ssr:stedsnr" v="84127" />
	</node>
	<node lat="60.24607499976256" lon="10.919077776845521" id="-19683">
		<tag k="name" v="Kavlbrudalen" />
		<tag k="natural" v="valley" />
		<tag k="place" v="locality" />
		<tag k="ssr:stedsnr" v="84239" />
	</node>
	<node lat="60.24517500103622" lon="10.948411113352705" id="-19684">
		<tag k="name" v="Framvangdalen" />
		<tag k="natural" v="valley" />
		<tag k="place" v="locality" />
		<tag k="ssr:stedsnr" v="84244" />
	</node>
	<node lat="60.243100001501084" lon="10.895030558577362" id="-19685">
		<tag k="name" v="Larsskruhaugen" />
		<tag k="natural" v="hill" />
		<tag k="place" v="locality" />
		<tag k="ssr:stedsnr" v="84246" />
	</node>
	<node lat="60.2875277795951" lon="10.914247220965391" id="-19686">
		<tag k="name" v="Lortholtet" />
		<tag k="natural" v="slope" />
		<tag k="place" v="locality" />
		<tag k="ssr:stedsnr" v="84253" />
	</node>
	<node lat="60.249072219601324" lon="10.844933339047858" id="-19691">
		<tag k="name" v="Joputthaugen" />
		<tag k="natural" v="hill" />
		<tag k="place" v="locality" />
		<tag k="ssr:stedsnr" v="84342" />
	</node>
	<node lat="60.27352222415982" lon="10.842116660321958" id="-19692">
		<tag k="name" v="Vestrelia" />
		<tag k="natural" v="slope" />
		<tag k="place" v="locality" />
		<tag k="ssr:stedsnr" v="84362" />
	</node>
	<node lat="60.23768055805023" lon="10.973016669654472" id="-19694">
		<tag k="alt_name" v="Grindakerliene" />
		<tag k="name" v="Grindakerlia" />
		<tag k="natural" v="slope" />
		<tag k="place" v="locality" />
		<tag k="ssr:stedsnr" v="84425" />
	</node>
	<node lat="60.27536944332187" lon="11.019963883193386" id="-19695">
		<tag k="fixme" v="consider natural=peak for the most distinct mountains in the district" />
		<tag k="name" v="Smørbukken" />
		<tag k="natural" v="hill" />
		<tag k="place" v="locality" />
		<tag k="ssr:stedsnr" v="84459" />
	</node>
	<node lat="60.269999996851446" lon="11.044344443423116" id="-19696">
		<tag k="name" v="Kløvberget" />
		<tag k="natural" v="hill" />
		<tag k="place" v="locality" />
		<tag k="ssr:stedsnr" v="84475" />
	</node>
	<node lat="60.28205000161449" lon="10.971874997950854" id="-19705">
		<tag k="alt_name" v="Borhaugkampen" />
		<tag k="name" v="Bårhaugkampen" />
		<tag k="natural" v="hill" />
		<tag k="place" v="locality" />
		<tag k="ssr:stedsnr" v="127354" />
	</node>
	<node lat="60.219224996540305" lon="10.794550002332215" id="-19711">
		<tag k="name" v="Mattisdalen" />
		<tag k="natural" v="valley" />
=======
	<node id="-266477" lat="60.3175722257" lon="11.0161305591">
		<tag k="fixme" v="consider natural=peak for the most distinct mountains in the district" />
		<tag k="name" v="Trondshaugen" />
		<tag k="natural" v="hill" />
		<tag k="place" v="locality" />
		<tag k="ssr:stedsnr" v="508534" />
	</node>
	<node id="-267499" lat="60.2792611087" lon="10.987358326">
		<tag k="name" v="Høybråtelia" />
		<tag k="natural" v="slope" />
		<tag k="place" v="locality" />
		<tag k="ssr:stedsnr" v="751461" />
	</node>
	<node id="-266472" lat="60.238147219" lon="11.0981500005">
		<tag k="name" v="Langhøgda" />
		<tag k="natural" v="hill" />
		<tag k="place" v="locality" />
		<tag k="ssr:stedsnr" v="508405" />
	</node>
	<node id="-266471" lat="60.2351638853" lon="11.0997777757">
		<tag k="name" v="Ulvedalen" />
		<tag k="natural" v="valley" />
		<tag k="place" v="locality" />
		<tag k="ssr:stedsnr" v="508404" />
	</node>
	<node id="-266962" lat="60.245175001" lon="10.9484111134">
		<tag k="name" v="Framvangdalen" />
		<tag k="natural" v="valley" />
		<tag k="place" v="locality" />
		<tag k="ssr:stedsnr" v="84244" />
	</node>
	<node id="-267490" lat="60.2984027742" lon="10.8497305491">
		<tag k="name" v="Bukkelia" />
		<tag k="natural" v="slope" />
		<tag k="place" v="locality" />
		<tag k="ssr:stedsnr" v="751364" />
	</node>
	<node id="-266975" lat="60.1405722257" lon="10.9686833312">
		<tag k="name" v="Eikelia" />
		<tag k="natural" v="slope" />
		<tag k="place" v="locality" />
		<tag k="ssr:stedsnr" v="84897" />
	</node>
	<node id="-266973" lat="60.2934527738" lon="11.0045055592">
		<tag k="name" v="Bjønndalen" />
		<tag k="natural" v="valley" />
		<tag k="place" v="locality" />
		<tag k="ssr:stedsnr" v="84489" />
	</node>
	<node id="-266972" lat="60.2943722256" lon="11.0148388836">
		<tag k="name" v="Vestre Totnerlia" />
		<tag k="natural" v="slope" />
		<tag k="place" v="locality" />
		<tag k="ssr:stedsnr" v="84487" />
	</node>
	<node id="-266970" lat="60.2699999969" lon="11.0443444434">
		<tag k="name" v="Kløvberget" />
		<tag k="natural" v="hill" />
		<tag k="place" v="locality" />
		<tag k="ssr:stedsnr" v="84475" />
	</node>
	<node id="-267471" lat="60.2670916675" lon="11.0892666612">
		<tag k="name" v="Bjørkhaugen" />
		<tag k="natural" v="hill" />
		<tag k="place" v="locality" />
		<tag k="ssr:stedsnr" v="751171" />
	</node>
	<node id="-267480" lat="60.2801916636" lon="10.9749499921">
		<tag k="name" v="Borhaugdalen" />
		<tag k="natural" v="valley" />
		<tag k="place" v="locality" />
		<tag k="ssr:stedsnr" v="751303" />
	</node>
	<node id="-266966" lat="60.2490722196" lon="10.844933339">
		<tag k="name" v="Joputthaugen" />
		<tag k="natural" v="hill" />
		<tag k="place" v="locality" />
		<tag k="ssr:stedsnr" v="84342" />
	</node>
	<node id="-267476" lat="60.2458194425" lon="10.9370638803">
		<tag k="name" v="Hokringlersæterdalen" />
		<tag k="natural" v="valley" />
		<tag k="place" v="locality" />
		<tag k="ssr:stedsnr" v="751256" />
	</node>
	<node id="-266963" lat="60.2431000015" lon="10.8950305586">
		<tag k="name" v="Larsskruhaugen" />
		<tag k="natural" v="hill" />
		<tag k="place" v="locality" />
		<tag k="ssr:stedsnr" v="84246" />
	</node>
	<node id="-267474" lat="60.2086861152" lon="10.7862416722">
		<tag k="name" v="Ola Baus plass" />
		<tag k="place" v="locality" />
		<tag k="ssr:stedsnr" v="751194" />
	</node>
	<node id="-266961" lat="60.2460749998" lon="10.9190777768">
		<tag k="name" v="Kavlbrudalen" />
		<tag k="natural" v="valley" />
		<tag k="place" v="locality" />
		<tag k="ssr:stedsnr" v="84239" />
	</node>
	<node id="-267472" lat="60.2329333326" lon="10.7939055526">
		<tag k="fixme" v="consider natural=peak for the most distinct mountains in the district" />
		<tag k="name" v="Nordre Skotjernfjell" />
		<tag k="natural" v="hill" />
		<tag k="place" v="locality" />
		<tag k="ssr:stedsnr" v="751184" />
	</node>
	<node id="-266652" lat="60.1835861136" lon="10.9258972207">
		<tag k="fixme" v="consider natural=peak for the most distinct mountains in the district" />
		<tag k="name" v="Mangmasshaugen" />
		<tag k="natural" v="hill" />
		<tag k="place" v="locality" />
		<tag k="ssr:stedsnr" v="630018" />
	</node>
	<node id="-267469" lat="60.260911113" lon="11.0540472164">
		<tag k="fixme" v="consider natural=peak for the most distinct mountains in the district" />
		<tag k="name" v="Stensetåsen" />
		<tag k="natural" v="hill" />
		<tag k="place" v="locality" />
		<tag k="ssr:stedsnr" v="751154" />
	</node>
	<node id="-267467" lat="60.3030500045" lon="10.9303416657">
		<tag k="name" v="Musetjerndråga" />
		<tag k="natural" v="ridge" />
		<tag k="place" v="locality" />
		<tag k="ssr:stedsnr" v="751130" />
	</node>
	<node id="-266954" lat="60.126255559" lon="10.9547222152">
		<tag k="name" v="Svenskedalen" />
		<tag k="natural" v="valley" />
		<tag k="place" v="locality" />
		<tag k="ssr:stedsnr" v="84134" />
	</node>
	<node id="-266441" lat="60.2645138878" lon="10.9334583299">
		<tag k="name" v="Redeberget" />
		<tag k="natural" v="hill" />
		<tag k="place" v="locality" />
		<tag k="ssr:stedsnr" v="387369" />
	</node>
	<node id="-267464" lat="60.1306027751" lon="11.0321944433">
		<tag k="name" v="Økri" />
		<tag k="place" v="locality" />
		<tag k="ssr:stedsnr" v="751123" />
	</node>
	<node id="-266437" lat="60.2738388857" lon="11.0012666626">
		<tag k="name" v="Magerfeit" />
		<tag k="place" v="locality" />
		<tag k="ssr:stedsnr" v="387460" />
	</node>
	<node id="-266436" lat="60.2480194459" lon="10.9827000039">
		<tag k="name" v="Byhaugen" />
		<tag k="natural" v="hill" />
		<tag k="place" v="locality" />
		<tag k="ssr:stedsnr" v="387453" />
	</node>
	<node id="-266447" lat="60.1991444447" lon="10.890147229">
		<tag k="name" v="Sjøhauga" />
		<tag k="natural" v="hill" />
		<tag k="place" v="locality" />
		<tag k="ssr:stedsnr" v="508045" />
	</node>
	<node id="-266434" lat="60.3434388874" lon="11.0034861163">
		<tag k="name" v="Elvflaten" />
		<tag k="place" v="locality" />
		<tag k="ssr:stedsnr" v="387402" />
	</node>
	<node id="-266443" lat="60.2786666647" lon="10.9111027846">
		<tag k="name" v="Kjølhaugen" />
		<tag k="natural" v="hill" />
>>>>>>> e1d4bc35ff8a6074a6f2e91616a996b547c36f15
		<tag k="place" v="locality" />
		<tag k="ssr:stedsnr" v="127879" />
	</node>
<<<<<<< HEAD
	<node lat="60.17101666803505" lon="10.896636116625741" id="-19715">
		<tag k="fixme" v="consider natural=peak for the most distinct mountains in the district" />
		<tag k="name" v="Øyungsrøet" />
		<tag k="natural" v="hill" />
		<tag k="place" v="locality" />
		<tag k="ssr:stedsnr" v="144041" />
	</node>
	<node lat="60.13643610730266" lon="11.000072220727407" id="-19719">
		<tag k="name" v="Ulvedalen" />
		<tag k="natural" v="valley" />
		<tag k="place" v="locality" />
		<tag k="ssr:stedsnr" v="144072" />
	</node>
	<node lat="60.316211111847174" lon="10.944230561419465" id="-19726">
		<tag k="name" v="Krosstjernhaugen" />
		<tag k="natural" v="hill" />
		<tag k="place" v="locality" />
		<tag k="ssr:stedsnr" v="144255" />
	</node>
	<node lat="60.14751666718712" lon="11.002738890999755" id="-19729">
		<tag k="fixme" v="consider natural=peak for the most distinct mountains in the district" />
		<tag k="name" v="Rovolåsen" />
		<tag k="natural" v="hill" />
		<tag k="place" v="locality" />
		<tag k="ssr:stedsnr" v="144075" />
	</node>
	<node lat="60.31682222376194" lon="11.066208327373646" id="-19734">
		<tag k="name" v="Sandsneslia" />
		<tag k="natural" v="slope" />
		<tag k="place" v="locality" />
		<tag k="ssr:stedsnr" v="144174" />
	</node>
	<node lat="60.19779166457887" lon="10.783427782519686" id="-19735">
		<tag k="name" v="Kroktjernsrøet" />
		<tag k="natural" v="hill" />
		<tag k="place" v="locality" />
		<tag k="ssr:stedsnr" v="144184" />
	</node>
	<node lat="60.136336113719196" lon="10.935524993937332" id="-19737">
		<tag k="loc_name" v="Romeriksåsane" />
		<tag k="name" v="Romeriksåsene" />
		<tag k="natural" v="wood" />
		<tag k="ssr:stedsnr" v="145564" />
	</node>
	<node lat="60.141977774534624" lon="10.956813893487059" id="-19738">
		<tag k="fixme" v="consider natural=peak for the most distinct mountains in the district" />
		<tag k="name" v="Hylliputtrøet" />
		<tag k="natural" v="hill" />
=======
	<node id="-266943" lat="60.1653111073" lon="10.9138055467">
		<tag k="fixme" v="consider natural=peak for the most distinct mountains in the district" />
		<tag k="name" v="Djupøyungsrøet" />
		<tag k="natural" v="hill" />
		<tag k="place" v="locality" />
		<tag k="ssr:stedsnr" v="84047" />
	</node>
	<node id="-267454" lat="60.1474194445" lon="10.9102277816">
		<tag k="name" v="Kjeisholen" />
		<tag k="natural" v="hill" />
		<tag k="place" v="locality" />
		<tag k="ssr:stedsnr" v="630948" />
	</node>
	<node id="-266515" lat="60.1654750038" lon="10.9343611199">
		<tag k="fixme" v="consider natural=peak for the most distinct mountains in the district" />
		<tag k="name" v="Vardåsen" />
		<tag k="natural" v="hill" />
		<tag k="place" v="locality" />
		<tag k="ssr:stedsnr" v="672688" />
	</node>
	<node id="-267452" lat="60.3164250028" lon="10.9567722241">
		<tag k="name" v="Klofjellgapet" />
		<tag k="natural" v="valley" />
		<tag k="place" v="locality" />
		<tag k="ssr:stedsnr" v="629452" />
	</node>
	<node id="-267450" lat="60.2221166689" lon="10.8728361113">
		<tag k="fixme" v="consider natural=peak for the most distinct mountains in the district" />
		<tag k="name" v="Blekketjernhøgda" />
		<tag k="natural" v="hill" />
		<tag k="place" v="locality" />
		<tag k="ssr:stedsnr" v="629326" />
	</node>
	<node id="-266425" lat="60.1749583306" lon="10.9596972227">
		<tag k="name" v="Heidal" />
		<tag k="natural" v="valley" />
		<tag k="place" v="locality" />
		<tag k="ssr:stedsnr" v="387209" />
	</node>
	<node id="-267448" lat="60.2079777766" lon="11.0179138866">
		<tag k="name" v="Stemsdalen" />
		<tag k="natural" v="valley" />
		<tag k="place" v="locality" />
		<tag k="ssr:stedsnr" v="629284" />
	</node>
	<node id="-266612" lat="60.304366664" lon="11.0008194398">
		<tag k="name" v="Korpedalen" />
		<tag k="natural" v="valley" />
>>>>>>> e1d4bc35ff8a6074a6f2e91616a996b547c36f15
		<tag k="place" v="locality" />
		<tag k="ssr:stedsnr" v="144883" />
	</node>
<<<<<<< HEAD
	<node lat="60.15333055788643" lon="10.936763888523002" id="-19740">
		<tag k="fixme" v="consider natural=peak for the most distinct mountains in the district" />
		<tag k="name" v="Varden" />
		<tag k="natural" v="hill" />
		<tag k="place" v="locality" />
		<tag k="ssr:stedsnr" v="144964" />
	</node>
	<node lat="60.14641666773391" lon="11.072213882561591" id="-19766">
		<tag k="name" v="Kjøtthaug" />
		<tag k="natural" v="hill" />
		<tag k="place" v="locality" />
		<tag k="ssr:stedsnr" v="205011" />
	</node>
	<node lat="60.18387499603545" lon="10.853613881707032" id="-19767">
		<tag k="fixme" v="consider natural=peak for the most distinct mountains in the district" />
		<tag k="name" v="Elsjøkongen" />
		<tag k="natural" v="hill" />
		<tag k="place" v="locality" />
		<tag k="ssr:stedsnr" v="205023" />
	</node>
	<node lat="60.26591388508631" lon="10.89012778257656" id="-19775">
		<tag k="name" v="Torgersvangen" />
		<tag k="place" v="locality" />
		<tag k="ssr:stedsnr" v="205395" />
	</node>
	<node lat="60.14274721901424" lon="10.982341671494869" id="-19776">
		<tag k="name" v="Domkirkedalen" />
		<tag k="natural" v="valley" />
=======
	<node id="-266422" lat="60.2009527762" lon="10.8754527779">
		<tag k="name" v="Bjertnessæterlia" />
		<tag k="natural" v="slope" />
		<tag k="place" v="locality" />
		<tag k="ssr:stedsnr" v="387075" />
	</node>
	<node id="-266421" lat="60.172488887" lon="10.8739972303">
		<tag k="name" v="Gruvelia" />
		<tag k="natural" v="slope" />
		<tag k="place" v="locality" />
		<tag k="ssr:stedsnr" v="387058" />
	</node>
	<node id="-266418" lat="60.1242944488" lon="10.9818000055">
		<tag k="name" v="Skrållia" />
		<tag k="natural" v="slope" />
		<tag k="place" v="locality" />
		<tag k="ssr:stedsnr" v="387115" />
	</node>
	<node id="-266929" lat="60.291350001" lon="10.9203833344">
		<tag k="name" v="Langberget" />
		<tag k="natural" v="hill" />
		<tag k="place" v="locality" />
		<tag k="ssr:stedsnr" v="67306" />
	</node>
	<node id="-267440" lat="60.2130888877" lon="10.7964249959">
		<tag k="name" v="Vestendlia" />
		<tag k="natural" v="slope" />
		<tag k="place" v="locality" />
		<tag k="ssr:stedsnr" v="629184" />
	</node>
	<node id="-266440" lat="60.2708416638" lon="11.0221083355">
		<tag k="name" v="Åslia" />
		<tag k="natural" v="slope" />
>>>>>>> e1d4bc35ff8a6074a6f2e91616a996b547c36f15
		<tag k="place" v="locality" />
		<tag k="ssr:stedsnr" v="205075" />
	</node>
<<<<<<< HEAD
	<node lat="60.29938611285775" lon="11.075358338952732" id="-19780">
		<tag k="name" v="Rundhaugen" />
		<tag k="natural" v="hill" />
		<tag k="place" v="locality" />
		<tag k="ssr:stedsnr" v="205173" />
	</node>
	<node lat="60.19339722553585" lon="10.8101333373299" id="-19783">
		<tag k="name" v="Tvekjellerdalen" />
		<tag k="natural" v="valley" />
		<tag k="place" v="locality" />
		<tag k="ssr:stedsnr" v="205182" />
	</node>
	<node lat="60.31748611140693" lon="10.913911106993885" id="-19784">
		<tag k="name" v="Nysæterlia" />
		<tag k="natural" v="slope" />
		<tag k="place" v="locality" />
		<tag k="ssr:stedsnr" v="205247" />
	</node>
	<node lat="60.30244166271892" lon="10.898686118782253" id="-19786">
		<tag k="name" v="Kverndalslia" />
		<tag k="natural" v="slope" />
		<tag k="place" v="locality" />
		<tag k="ssr:stedsnr" v="205259" />
	</node>
	<node lat="60.29343888830982" lon="10.966136111848797" id="-19795">
		<tag k="name" v="Kjølstadlia" />
		<tag k="natural" v="slope" />
		<tag k="place" v="locality" />
		<tag k="ssr:stedsnr" v="205550" />
	</node>
	<node lat="60.2779361156469" lon="10.982088883330025" id="-19796">
		<tag k="name" v="Stuelykkjene" />
		<tag k="place" v="locality" />
		<tag k="ssr:stedsnr" v="205507" />
	</node>
	<node lat="60.1405916656814" lon="10.932488896005472" id="-19803">
		<tag k="name" v="Stavidalen" />
		<tag k="natural" v="valley" />
		<tag k="place" v="locality" />
		<tag k="ssr:stedsnr" v="206962" />
	</node>
	<node lat="60.13569721900919" lon="10.910450006584254" id="-19804">
		<tag k="fixme" v="consider natural=peak for the most distinct mountains in the district" />
		<tag k="name" v="Hagavangen" />
		<tag k="natural" v="hill" />
		<tag k="place" v="locality" />
		<tag k="ssr:stedsnr" v="206967" />
	</node>
	<node lat="60.23612500248994" lon="10.794083328937992" id="-19812">
		<tag k="fixme" v="consider natural=peak for the most distinct mountains in the district" />
		<tag k="name" v="Skotjernfjellet" />
		<tag k="natural" v="hill" />
		<tag k="place" v="locality" />
		<tag k="ssr:stedsnr" v="308833" />
	</node>
	<node lat="60.22003055637218" lon="10.801688893826649" id="-19827">
		<tag k="alt_name" v="Bjønnåtedalen" />
		<tag k="name" v="Bjørnåtedalen" />
		<tag k="natural" v="valley" />
		<tag k="place" v="locality" />
		<tag k="ssr:stedsnr" v="309867" />
	</node>
	<node lat="60.25173055729953" lon="10.86180000820214" id="-19830">
		<tag k="name" v="Fagerkollen" />
		<tag k="natural" v="hill" />
		<tag k="place" v="locality" />
		<tag k="ssr:stedsnr" v="310362" />
	</node>
	<node lat="60.22180833710718" lon="10.940133329403006" id="-19831">
		<tag k="fixme" v="consider natural=peak for the most distinct mountains in the district" />
		<tag k="name" v="Elbekkhaugen" />
		<tag k="natural" v="hill" />
		<tag k="place" v="locality" />
		<tag k="ssr:stedsnr" v="326327" />
	</node>
	<node lat="60.23036944495403" lon="10.940261107428967" id="-19833">
		<tag k="fixme" v="consider natural=peak for the most distinct mountains in the district" />
		<tag k="name" v="Skarsdalsberget" />
		<tag k="natural" v="hill" />
		<tag k="place" v="locality" />
		<tag k="ssr:stedsnr" v="326331" />
	</node>
	<node lat="60.22490278092995" lon="10.876133334423407" id="-19835">
		<tag k="name" v="Blekketjernlia" />
		<tag k="natural" v="slope" />
		<tag k="place" v="locality" />
		<tag k="ssr:stedsnr" v="326347" />
	</node>
	<node lat="60.33528611126522" lon="10.955336103746708" id="-19839">
		<tag k="name" v="Dalsæterlia" />
		<tag k="natural" v="slope" />
		<tag k="place" v="locality" />
		<tag k="ssr:stedsnr" v="326498" />
	</node>
	<node lat="60.139741663201924" lon="11.011869435702623" id="-19842">
		<tag k="alt_name" v="Harstadrø" />
		<tag k="fixme" v="consider natural=peak for the most distinct mountains in the district" />
		<tag k="name" v="Harstadrøet" />
=======
	<node id="-266926" lat="60.1944666679" lon="10.9288722282">
		<tag k="alt_name" v="Tømmerhorn" />
		<tag k="fixme" v="consider natural=peak for the most distinct mountains in the district" />
		<tag k="name" v="Tømmerholen" />
		<tag k="natural" v="hill" />
		<tag k="place" v="locality" />
		<tag k="ssr:stedsnr" v="66795" />
	</node>
	<node id="-266920" lat="60.1747833344" lon="10.9250499916">
		<tag k="alt_name" v="Helletjernrøet" />
		<tag k="name" v="Helletjernrøa" />
		<tag k="natural" v="hill" />
		<tag k="place" v="locality" />
		<tag k="ssr:stedsnr" v="66679" />
	</node>
	<node id="-267430" lat="60.1463027778" lon="11.0642388843">
		<tag k="name" v="Sølvhaug" />
		<tag k="natural" v="hill" />
		<tag k="place" v="locality" />
		<tag k="ssr:stedsnr" v="629015" />
	</node>
	<node id="-267377" lat="60.1293638845" lon="10.9631111127">
		<tag k="name" v="Stormåsalia" />
		<tag k="natural" v="slope" />
		<tag k="place" v="locality" />
		<tag k="ssr:stedsnr" v="569122" />
	</node>
	<node id="-266912" lat="60.3152222236" lon="10.9664611039">
		<tag k="name" v="Klofjelldalen" />
		<tag k="natural" v="valley" />
		<tag k="place" v="locality" />
		<tag k="ssr:stedsnr" v="23493" />
	</node>
	<node id="-267423" lat="60.2405138871" lon="10.9512000074">
		<tag k="fixme" v="consider natural=peak for the most distinct mountains in the district" />
		<tag k="name" v="Lyholen" />
		<tag k="natural" v="hill" />
		<tag k="place" v="locality" />
		<tag k="ssr:stedsnr" v="612929" />
	</node>
	<node id="-266909" lat="60.2383222193" lon="10.8731638818">
		<tag k="name" v="Nordbysæterlia" />
		<tag k="natural" v="slope" />
		<tag k="place" v="locality" />
		<tag k="ssr:stedsnr" v="23385" />
	</node>
	<node id="-266908" lat="60.2904527809" lon="10.9542361027">
		<tag k="fixme" v="consider natural=peak for the most distinct mountains in the district" />
		<tag k="name" v="Davidkampen" />
		<tag k="natural" v="hill" />
		<tag k="place" v="locality" />
		<tag k="ssr:stedsnr" v="23564" />
	</node>
	<node id="-266395" lat="60.277033335" lon="10.9492388962">
		<tag k="name" v="Bellingbrusletta" />
		<tag k="place" v="locality" />
		<tag k="ssr:stedsnr" v="491352" />
	</node>
	<node id="-267418" lat="60.1227611081" lon="11.0001305596">
		<tag k="name" v="Blautdalen" />
		<tag k="natural" v="valley" />
		<tag k="place" v="locality" />
		<tag k="ssr:stedsnr" v="612663" />
	</node>
	<node id="-266904" lat="60.2998749971" lon="10.9558222265">
		<tag k="name" v="Tøldalen" />
		<tag k="natural" v="valley" />
		<tag k="place" v="locality" />
		<tag k="ssr:stedsnr" v="23549" />
	</node>
	<node id="-266450" lat="60.3328305593" lon="10.9108166705">
		<tag k="name" v="Styggdalen" />
		<tag k="natural" v="valley" />
		<tag k="place" v="locality" />
		<tag k="ssr:stedsnr" v="508127" />
	</node>
	<node id="-266388" lat="60.2891027814" lon="10.8954000059">
		<tag k="name" v="Mysmerkleivhøgda" />
		<tag k="natural" v="hill" />
		<tag k="place" v="locality" />
		<tag k="ssr:stedsnr" v="491299" />
	</node>
	<node id="-266899" lat="60.2457583291" lon="10.9205555501">
		<tag k="name" v="Klyverø" />
		<tag k="natural" v="hill" />
		<tag k="place" v="locality" />
		<tag k="ssr:stedsnr" v="23273" />
	</node>
	<node id="-266898" lat="60.1925361115" lon="10.7926638818">
		<tag k="name" v="Malerputtlia" />
		<tag k="natural" v="slope" />
		<tag k="place" v="locality" />
		<tag k="ssr:stedsnr" v="23195" />
	</node>
	<node id="-267409" lat="60.3238916705" lon="10.8914555554">
		<tag k="name" v="Korpehaugen" />
		<tag k="natural" v="hill" />
		<tag k="place" v="locality" />
		<tag k="ssr:stedsnr" v="612280" />
	</node>
	<node id="-266896" lat="60.1891388918" lon="10.782941671">
		<tag k="fixme" v="consider natural=peak for the most distinct mountains in the district" />
		<tag k="name" v="Piperåsen" />
		<tag k="natural" v="hill" />
		<tag k="place" v="locality" />
		<tag k="ssr:stedsnr" v="23193" />
	</node>
	<node id="-266259" lat="60.269469445" lon="10.9028666591">
		<tag k="name" v="Grisbakken" />
		<tag k="natural" v="slope" />
		<tag k="place" v="locality" />
		<tag k="ssr:stedsnr" v="265385" />
	</node>
	<node id="-267458" lat="60.1540333347" lon="10.9890388863">
		<tag k="name" v="Kålhagedalen" />
		<tag k="natural" v="valley" />
		<tag k="place" v="locality" />
		<tag k="ssr:stedsnr" v="751074" />
	</node>
	<node id="-266886" lat="60.1325583327" lon="11.0475055629">
		<tag k="fixme" v="consider natural=peak for the most distinct mountains in the district" />
		<tag k="name" v="Himmelfløtten" />
>>>>>>> e1d4bc35ff8a6074a6f2e91616a996b547c36f15
		<tag k="natural" v="hill" />
		<tag k="old_name" v="Rød-Høyden" />
		<tag k="place" v="locality" />
<<<<<<< HEAD
		<tag k="ssr:stedsnr" v="326080" />
	</node>
	<node lat="60.129297224383635" lon="11.001433333420984" id="-19843">
		<tag k="name" v="Feiertomta" />
		<tag k="place" v="locality" />
		<tag k="ssr:stedsnr" v="326086" />
	</node>
	<node lat="60.23273055178207" lon="10.956230546440695" id="-19849">
		<tag k="name" v="Monsklopphaugen" />
		<tag k="natural" v="hill" />
		<tag k="place" v="locality" />
		<tag k="ssr:stedsnr" v="326276" />
	</node>
	<node lat="60.2831333330305" lon="10.966763889550641" id="-19850">
		<tag k="name" v="Stangslia" />
		<tag k="natural" v="slope" />
		<tag k="place" v="locality" />
		<tag k="ssr:stedsnr" v="326292" />
	</node>
	<node lat="60.14308610826793" lon="10.96839443946147" id="-19852">
		<tag k="fixme" v="consider natural=peak for the most distinct mountains in the district" />
		<tag k="name" v="Ilbergene" />
		<tag k="natural" v="hill" />
		<tag k="place" v="locality" />
		<tag k="ssr:stedsnr" v="326881" />
	</node>
	<node lat="60.13928333487801" lon="10.962066666375735" id="-19853">
		<tag k="name" v="Fossdalen" />
		<tag k="natural" v="valley" />
		<tag k="place" v="locality" />
		<tag k="ssr:stedsnr" v="326884" />
	</node>
	<node lat="60.23647499617799" lon="10.960402774580913" id="-19855">
		<tag k="name" v="Jutulen" />
=======
		<tag k="ssr:stedsnr" v="23136" />
	</node>
	<node id="-266885" lat="60.2044249999" lon="11.0259055566">
		<tag k="name" v="Leirbekkdalen" />
		<tag k="natural" v="valley" />
		<tag k="place" v="locality" />
		<tag k="ssr:stedsnr" v="23339" />
	</node>
	<node id="-266884" lat="60.2080861105" lon="11.0256166682">
		<tag k="name" v="Glåmhaugen" />
		<tag k="natural" v="hill" />
		<tag k="place" v="locality" />
		<tag k="ssr:stedsnr" v="23337" />
	</node>
	<node id="-266883" lat="60.1994000029" lon="11.0122833381">
		<tag k="name" v="Tishaugen" />
		<tag k="natural" v="hill" />
		<tag k="place" v="locality" />
		<tag k="ssr:stedsnr" v="23326" />
	</node>
	<node id="-267394" lat="60.2969249981" lon="11.0517138803">
		<tag k="fixme" v="consider natural=peak for the most distinct mountains in the district" />
		<tag k="name" v="Ramberget" />
		<tag k="natural" v="hill" />
		<tag k="place" v="locality" />
		<tag k="ssr:stedsnr" v="569476" />
	</node>
	<node id="-266881" lat="60.1405277785" lon="11.0002138814">
		<tag k="fixme" v="consider natural=peak for the most distinct mountains in the district" />
		<tag k="name" v="Harstadåsen" />
>>>>>>> e1d4bc35ff8a6074a6f2e91616a996b547c36f15
		<tag k="natural" v="hill" />
		<tag k="old_name" v="Harstad-Aasen" />
		<tag k="place" v="locality" />
<<<<<<< HEAD
		<tag k="ssr:stedsnr" v="369820" />
	</node>
	<node lat="60.19570555594594" lon="10.854816674027823" id="-19864">
		<tag k="name" v="Knepphauglia" />
		<tag k="natural" v="slope" />
		<tag k="place" v="locality" />
		<tag k="ssr:stedsnr" v="369779" />
	</node>
	<node lat="60.22252500125594" lon="10.861825004356133" id="-19868">
		<tag k="fixme" v="consider natural=peak for the most distinct mountains in the district" />
		<tag k="name" v="Rudskampen" />
		<tag k="natural" v="hill" />
		<tag k="place" v="locality" />
		<tag k="ssr:stedsnr" v="369801" />
	</node>
	<node lat="60.24620833230853" lon="10.816316668707472" id="-19869">
		<tag k="fixme" v="consider natural=peak for the most distinct mountains in the district" />
		<tag k="name" v="Høgbrenna" />
		<tag k="natural" v="hill" />
		<tag k="place" v="locality" />
		<tag k="ssr:stedsnr" v="369915" />
	</node>
	<node lat="60.31372499745021" lon="11.033724992834323" id="-19871">
		<tag k="alt_name" v="Trettholtkampen" />
		<tag k="name" v="Kampen" />
		<tag k="natural" v="hill" />
		<tag k="place" v="locality" />
		<tag k="ssr:stedsnr" v="370301" />
	</node>
	<node lat="60.29597499819761" lon="10.964025003806265" id="-19873">
		<tag k="fixme" v="consider natural=peak for the most distinct mountains in the district" />
		<tag k="name" v="Faksefjell" />
		<tag k="natural" v="hill" />
		<tag k="place" v="locality" />
		<tag k="ssr:stedsnr" v="370340" />
	</node>
	<node lat="60.23534444599782" lon="10.908669442017139" id="-19880">
		<tag k="name" v="Prekestolen" />
		<tag k="natural" v="slope" />
		<tag k="place" v="locality" />
		<tag k="ssr:stedsnr" v="387337" />
	</node>
	<node lat="60.237749999598236" lon="10.83736388822016" id="-19881">
		<tag k="fixme" v="consider natural=peak for the most distinct mountains in the district" />
		<tag k="name" v="Høgås" />
		<tag k="natural" v="hill" />
		<tag k="place" v="locality" />
		<tag k="ssr:stedsnr" v="387341" />
	</node>
	<node lat="60.32225555347049" lon="10.963255548989354" id="-19882">
		<tag k="name" v="Korsdalen" />
		<tag k="natural" v="valley" />
		<tag k="place" v="locality" />
		<tag k="ssr:stedsnr" v="387445" />
	</node>
	<node lat="60.24801944586916" lon="10.982700003926706" id="-19883">
		<tag k="name" v="Byhaugen" />
		<tag k="natural" v="hill" />
		<tag k="place" v="locality" />
		<tag k="ssr:stedsnr" v="387453" />
	</node>
	<node lat="60.17248888700996" lon="10.873997230266005" id="-19886">
		<tag k="name" v="Gruvelia" />
		<tag k="natural" v="slope" />
		<tag k="place" v="locality" />
		<tag k="ssr:stedsnr" v="387058" />
	</node>
	<node lat="60.200952776233194" lon="10.87545277794541" id="-19887">
		<tag k="name" v="Bjertnessæterlia" />
		<tag k="natural" v="slope" />
		<tag k="place" v="locality" />
		<tag k="ssr:stedsnr" v="387075" />
	</node>
	<node lat="60.21281110884771" lon="10.777016662899035" id="-19894">
		<tag k="name" v="Botnetjernslia" />
		<tag k="natural" v="slope" />
		<tag k="place" v="locality" />
		<tag k="ssr:stedsnr" v="387191" />
	</node>
	<node lat="60.26451388777002" lon="10.93345832992461" id="-19900">
		<tag k="name" v="Redeberget" />
		<tag k="natural" v="hill" />
		<tag k="place" v="locality" />
		<tag k="ssr:stedsnr" v="387369" />
	</node>
	<node lat="60.27866666474089" lon="10.911102784645914" id="-19902">
		<tag k="name" v="Kjølhaugen" />
		<tag k="natural" v="hill" />
		<tag k="place" v="locality" />
		<tag k="ssr:stedsnr" v="387371" />
	</node>
	<node lat="60.239636111602096" lon="11.092155548624389" id="-19903">
		<tag k="name" v="Tverrhøgda" />
		<tag k="natural" v="hill" />
		<tag k="place" v="locality" />
		<tag k="ssr:stedsnr" v="387384" />
	</node>
	<node lat="60.27383888568611" lon="11.00126666258462" id="-19904">
		<tag k="name" v="Magerfeit" />
		<tag k="place" v="locality" />
		<tag k="ssr:stedsnr" v="387460" />
	</node>
	<node lat="60.27084166377176" lon="11.022108335515632" id="-19907">
		<tag k="name" v="Åslia" />
		<tag k="natural" v="slope" />
		<tag k="place" v="locality" />
		<tag k="ssr:stedsnr" v="387478" />
	</node>
	<node lat="60.182611114453" lon="10.864916666658868" id="-19917">
		<tag k="name" v="Engelstadkampen" />
		<tag k="natural" v="hill" />
		<tag k="place" v="locality" />
		<tag k="ssr:stedsnr" v="430775" />
	</node>
	<node lat="60.19305555235765" lon="10.894227770028296" id="-19930">
		<tag k="name" v="Tolleftjernlia" />
		<tag k="natural" v="slope" />
		<tag k="place" v="locality" />
		<tag k="ssr:stedsnr" v="448039" />
	</node>
	<node lat="60.28352222020704" lon="10.92360277668241" id="-19936">
		<tag k="name" v="Lensmannsflaen" />
		<tag k="natural" v="hill" />
		<tag k="place" v="locality" />
		<tag k="ssr:stedsnr" v="448385" />
	</node>
	<node lat="60.16961111428463" lon="11.02801943866691" id="-19946">
		<tag k="name" v="Austaddalen" />
		<tag k="natural" v="valley" />
		<tag k="place" v="locality" />
		<tag k="ssr:stedsnr" v="448227" />
	</node>
	<node lat="60.255794444292306" lon="10.81073333461058" id="-19947">
		<tag k="name" v="Storvasslia" />
		<tag k="natural" v="slope" />
		<tag k="place" v="locality" />
		<tag k="ssr:stedsnr" v="448233" />
	</node>
	<node lat="60.2549416706081" lon="10.903841675837393" id="-19949">
		<tag k="name" v="Lauumsæterlia" />
		<tag k="natural" v="slope" />
		<tag k="place" v="locality" />
		<tag k="ssr:stedsnr" v="448241" />
	</node>
	<node lat="60.30081111480854" lon="10.915316663507383" id="-19953">
		<tag k="name" v="Kjagdalen" />
		<tag k="natural" v="valley" />
		<tag k="place" v="locality" />
		<tag k="ssr:stedsnr" v="448253" />
	</node>
	<node lat="60.21153333666777" lon="10.867772216648776" id="-19974">
		<tag k="name" v="Rudsæterlia" />
		<tag k="natural" v="slope" />
		<tag k="place" v="locality" />
		<tag k="ssr:stedsnr" v="508057" />
	</node>
	<node lat="60.202138887334925" lon="10.853866659864277" id="-19975">
		<tag k="name" v="Jensesvingen" />
		<tag k="place" v="locality" />
		<tag k="ssr:stedsnr" v="508059" />
	</node>
	<node lat="60.199144444698405" lon="10.890147228991129" id="-19985">
		<tag k="name" v="Sjøhauga" />
		<tag k="natural" v="hill" />
		<tag k="place" v="locality" />
		<tag k="ssr:stedsnr" v="508045" />
	</node>
	<node lat="60.332830559300156" lon="10.910816670516015" id="-19988">
		<tag k="name" v="Styggdalen" />
		<tag k="natural" v="valley" />
		<tag k="place" v="locality" />
		<tag k="ssr:stedsnr" v="508127" />
	</node>
	<node lat="60.317572225672514" lon="11.016130559149952" id="-19998">
		<tag k="fixme" v="consider natural=peak for the most distinct mountains in the district" />
		<tag k="name" v="Trondshaugen" />
		<tag k="natural" v="hill" />
		<tag k="place" v="locality" />
		<tag k="ssr:stedsnr" v="508534" />
	</node>
	<node lat="60.329224997137516" lon="10.917549993209537" id="-20001">
		<tag k="alt_name" v="Styggdalskurven" />
		<tag k="name" v="Styggedalskurven" />
		<tag k="natural" v="hill" />
		<tag k="place" v="locality" />
		<tag k="ssr:stedsnr" v="552299" />
	</node>
	<node lat="60.29970555591266" lon="10.922538897632698" id="-20002">
		<tag k="name" v="Kvernsjøberget" />
		<tag k="natural" v="hill" />
		<tag k="place" v="locality" />
		<tag k="ssr:stedsnr" v="552331" />
	</node>
	<node lat="60.31528332969358" lon="10.959177779238694" id="-20013">
		<tag k="fixme" v="consider natural=peak for the most distinct mountains in the district" />
		<tag k="name" v="Klofjell" />
		<tag k="natural" v="hill" />
		<tag k="place" v="locality" />
		<tag k="ssr:stedsnr" v="552273" />
	</node>
	<node lat="60.319108332669416" lon="10.923625000731553" id="-20014">
		<tag k="fixme" v="consider natural=peak for the most distinct mountains in the district" />
		<tag k="name" v="Marifjell" />
		<tag k="natural" v="hill" />
		<tag k="place" v="locality" />
		<tag k="ssr:stedsnr" v="552277" />
	</node>
	<node lat="60.16495833768628" lon="10.908597224800152" id="-20018">
		<tag k="name" v="Djupøyungslia" />
		<tag k="natural" v="slope" />
		<tag k="place" v="locality" />
		<tag k="ssr:stedsnr" v="568034" />
	</node>
	<node lat="60.19188333628627" lon="10.939611120235835" id="-20020">
		<tag k="name" v="Homlelia" />
		<tag k="natural" v="slope" />
		<tag k="place" v="locality" />
		<tag k="ssr:stedsnr" v="568038" />
	</node>
	<node lat="60.12936388447423" lon="10.963111112655513" id="-20026">
		<tag k="name" v="Stormåsalia" />
		<tag k="natural" v="slope" />
		<tag k="place" v="locality" />
		<tag k="ssr:stedsnr" v="569122" />
	</node>
	<node lat="60.261497226553615" lon="10.956363881226128" id="-20035">
		<tag k="name" v="Brenna" />
		<tag k="natural" v="slope" />
		<tag k="place" v="locality" />
		<tag k="ssr:stedsnr" v="569409" />
	</node>
	<node lat="60.268052777997134" lon="11.058888894248181" id="-20036">
		<tag k="name" v="Korpedalen" />
		<tag k="natural" v="valley" />
		<tag k="place" v="locality" />
		<tag k="ssr:stedsnr" v="569414" />
	</node>
	<node lat="60.26448889142671" lon="10.9833916600052" id="-20037">
		<tag k="name" v="Kverndalen" />
		<tag k="natural" v="valley" />
		<tag k="place" v="locality" />
		<tag k="ssr:stedsnr" v="569426" />
	</node>
	<node lat="60.247933336241395" lon="11.115669450155584" id="-20043">
		<tag k="name" v="Nordhøgda" />
		<tag k="natural" v="hill" />
		<tag k="place" v="locality" />
		<tag k="ssr:stedsnr" v="569367" />
	</node>
	<node lat="60.329683329138525" lon="10.98892499742418" id="-20045">
		<tag k="name" v="Skjennumshaugen" />
		<tag k="natural" v="hill" />
		<tag k="place" v="locality" />
		<tag k="ssr:stedsnr" v="569371" />
	</node>
	<node lat="60.29170555387874" lon="11.05786389076485" id="-20046">
		<tag k="name" v="Lauvlia" />
		<tag k="natural" v="slope" />
		<tag k="place" v="locality" />
		<tag k="ssr:stedsnr" v="569473" />
	</node>
	<node lat="60.296924998051125" lon="11.051713880251016" id="-20048">
		<tag k="fixme" v="consider natural=peak for the most distinct mountains in the district" />
		<tag k="name" v="Ramberget" />
		<tag k="natural" v="hill" />
		<tag k="place" v="locality" />
		<tag k="ssr:stedsnr" v="569476" />
	</node>
	<node lat="60.2405138871485" lon="10.951200007426282" id="-20057">
		<tag k="fixme" v="consider natural=peak for the most distinct mountains in the district" />
		<tag k="name" v="Lyholen" />
		<tag k="natural" v="hill" />
		<tag k="place" v="locality" />
		<tag k="ssr:stedsnr" v="612929" />
	</node>
	<node lat="60.25172499631065" lon="10.96938332662481" id="-20066">
		<tag k="alt_name" v="Dølikampen" />
		<tag k="name" v="Dølekampen" />
		<tag k="natural" v="hill" />
		<tag k="place" v="locality" />
		<tag k="ssr:stedsnr" v="613353" />
	</node>
	<node lat="60.206955554457096" lon="10.881277778096997" id="-20070">
		<tag k="name" v="Bjønndalen" />
		<tag k="natural" v="valley" />
		<tag k="place" v="locality" />
		<tag k="ssr:stedsnr" v="629068" />
	</node>
	<node lat="60.21308888768352" lon="10.796424995902795" id="-20072">
		<tag k="name" v="Vestendlia" />
		<tag k="natural" v="slope" />
		<tag k="place" v="locality" />
		<tag k="ssr:stedsnr" v="629184" />
	</node>
	<node lat="60.29325000372521" lon="10.88506112006823" id="-20074">
		<tag k="name" v="Brudalshøgda" />
		<tag k="natural" v="hill" />
		<tag k="place" v="locality" />
		<tag k="ssr:stedsnr" v="629257" />
	</node>
	<node lat="60.207977776616964" lon="11.017913886566838" id="-20079">
		<tag k="name" v="Stemsdalen" />
		<tag k="natural" v="valley" />
		<tag k="place" v="locality" />
		<tag k="ssr:stedsnr" v="629284" />
	</node>
	<node lat="60.292547223016996" lon="11.020463882930946" id="-20081">
		<tag k="name" v="Østre Totnerlia" />
		<tag k="natural" v="slope" />
		<tag k="place" v="locality" />
		<tag k="ssr:stedsnr" v="629477" />
	</node>
	<node lat="60.22211666887302" lon="10.87283611125552" id="-20083">
		<tag k="fixme" v="consider natural=peak for the most distinct mountains in the district" />
		<tag k="name" v="Blekketjernhøgda" />
		<tag k="natural" v="hill" />
		<tag k="place" v="locality" />
		<tag k="ssr:stedsnr" v="629326" />
	</node>
	<node lat="60.18358611361112" lon="10.925897220709663" id="-20084">
		<tag k="fixme" v="consider natural=peak for the most distinct mountains in the district" />
		<tag k="name" v="Mangmasshaugen" />
		<tag k="natural" v="hill" />
		<tag k="place" v="locality" />
		<tag k="ssr:stedsnr" v="630018" />
	</node>
	<node lat="60.135616662248204" lon="10.944513897119318" id="-20087">
		<tag k="name" v="Gørrputtdalen" />
		<tag k="natural" v="valley" />
		<tag k="place" v="locality" />
		<tag k="ssr:stedsnr" v="630926" />
	</node>
	<node lat="60.143013890154975" lon="10.938244444793998" id="-20088">
		<tag k="name" v="Hattbråthaugene" />
		<tag k="natural" v="hill" />
		<tag k="place" v="locality" />
		<tag k="ssr:stedsnr" v="630949" />
	</node>
	<node lat="60.288130558549774" lon="10.856275000855076" id="-20101">
		<tag k="name" v="Gardlia" />
		<tag k="natural" v="slope" />
		<tag k="place" v="locality" />
		<tag k="ssr:stedsnr" v="734324" />
	</node>
	<node lat="60.17601110755992" lon="10.947055547509203" id="-20112">
		<tag k="fixme" v="consider natural=peak for the most distinct mountains in the district" />
		<tag k="name" v="Runddelen" />
		<tag k="natural" v="hill" />
		<tag k="place" v="locality" />
		<tag k="ssr:stedsnr" v="751041" />
	</node>
	<node lat="60.180080551612896" lon="10.902536115124782" id="-20113">
		<tag k="name" v="Sørsæterlia" />
		<tag k="natural" v="slope" />
		<tag k="place" v="locality" />
		<tag k="ssr:stedsnr" v="751045" />
	</node>
	<node lat="60.30305000449288" lon="10.930341665718943" id="-20118">
		<tag k="name" v="Musetjerndråga" />
		<tag k="natural" v="ridge" />
		<tag k="place" v="locality" />
		<tag k="ssr:stedsnr" v="751130" />
	</node>
	<node lat="60.26091111300148" lon="11.054047216440727" id="-20120">
		<tag k="fixme" v="consider natural=peak for the most distinct mountains in the district" />
		<tag k="name" v="Stensetåsen" />
		<tag k="natural" v="hill" />
		<tag k="place" v="locality" />
		<tag k="ssr:stedsnr" v="751154" />
	</node>
	<node lat="60.154033334732965" lon="10.989038886333724" id="-20122">
		<tag k="name" v="Kålhagedalen" />
		<tag k="natural" v="valley" />
=======
		<tag k="ssr:stedsnr" v="23076" />
	</node>
	<node id="-267392" lat="60.2917055539" lon="11.0578638908">
		<tag k="name" v="Lauvlia" />
		<tag k="natural" v="slope" />
		<tag k="place" v="locality" />
		<tag k="ssr:stedsnr" v="569473" />
	</node>
	<node id="-266879" lat="60.2023777748" lon="10.9083416667">
		<tag k="name" v="Lilykkja" />
		<tag k="natural" v="slope" />
		<tag k="place" v="locality" />
		<tag k="ssr:stedsnr" v="23060" />
	</node>
	<node id="-267390" lat="60.2644888914" lon="10.98339166">
		<tag k="name" v="Kverndalen" />
		<tag k="natural" v="valley" />
		<tag k="place" v="locality" />
		<tag k="ssr:stedsnr" v="569426" />
	</node>
	<node id="-267389" lat="60.268052778" lon="11.0588888942">
		<tag k="name" v="Korpedalen" />
		<tag k="natural" v="valley" />
		<tag k="place" v="locality" />
		<tag k="ssr:stedsnr" v="569414" />
	</node>
	<node id="-267388" lat="60.2614972266" lon="10.9563638812">
		<tag k="name" v="Brenna" />
		<tag k="natural" v="slope" />
		<tag k="place" v="locality" />
		<tag k="ssr:stedsnr" v="569409" />
	</node>
	<node id="-267387" lat="60.3296833291" lon="10.9889249974">
		<tag k="name" v="Skjennumshaugen" />
		<tag k="natural" v="hill" />
		<tag k="place" v="locality" />
		<tag k="ssr:stedsnr" v="569371" />
	</node>
	<node id="-267385" lat="60.2479333362" lon="11.1156694502">
		<tag k="name" v="Nordhøgda" />
		<tag k="natural" v="hill" />
		<tag k="place" v="locality" />
		<tag k="ssr:stedsnr" v="569367" />
	</node>
	<node id="-266868" lat="60.2866499986" lon="11.0173083361">
		<tag k="alt_name" v="Nippkollen" />
		<tag k="fixme" v="consider natural=peak for the most distinct mountains in the district" />
		<tag k="name" v="Nipkollen" />
		<tag k="natural" v="hill" />
		<tag k="place" v="locality" />
		<tag k="ssr:stedsnr" v="6366" />
	</node>
	<node id="-266325" lat="60.2549416706" lon="10.9038416758">
		<tag k="name" v="Lauumsæterlia" />
		<tag k="natural" v="slope" />
		<tag k="place" v="locality" />
		<tag k="ssr:stedsnr" v="448241" />
	</node>
	<node id="-266353" lat="60.2361250025" lon="10.7940833289">
		<tag k="fixme" v="consider natural=peak for the most distinct mountains in the district" />
		<tag k="name" v="Skotjernfjellet" />
		<tag k="natural" v="hill" />
		<tag k="place" v="locality" />
		<tag k="ssr:stedsnr" v="308833" />
	</node>
	<node id="-267376" lat="60.214088888" lon="10.876280547">
		<tag k="name" v="Bjønndalsrøet" />
		<tag k="natural" v="hill" />
		<tag k="place" v="locality" />
		<tag k="ssr:stedsnr" v="569074" />
	</node>
	<node id="-267374" lat="60.2647138897" lon="10.8651361195">
		<tag k="name" v="Svartdalen" />
		<tag k="natural" v="valley" />
		<tag k="place" v="locality" />
		<tag k="ssr:stedsnr" v="568373" />
	</node>
	<node id="-267459" lat="60.1503944477" lon="10.9865611149">
		<tag k="name" v="Nordlia" />
		<tag k="natural" v="slope" />
		<tag k="place" v="locality" />
		<tag k="ssr:stedsnr" v="751075" />
	</node>
	<node id="-266949" lat="60.2229055585" lon="10.7850611138">
		<tag k="fixme" v="consider natural=peak for the most distinct mountains in the district" />
		<tag k="name" v="Søndre Skotjernfjell" />
		<tag k="natural" v="hill" />
		<tag k="place" v="locality" />
		<tag k="ssr:stedsnr" v="84190" />
	</node>
	<node id="-266857" lat="60.195483337" lon="10.8397055594">
		<tag k="name" v="Rolighøgda" />
		<tag k="natural" v="hill" />
		<tag k="place" v="locality" />
		<tag k="ssr:stedsnr" v="5748" />
	</node>
	<node id="-267025" lat="60.3162111118" lon="10.9442305614">
		<tag k="name" v="Krosstjernhaugen" />
		<tag k="natural" v="hill" />
		<tag k="place" v="locality" />
		<tag k="ssr:stedsnr" v="144255" />
	</node>
	<node id="-267364" lat="60.2708527749" lon="10.8235861113">
		<tag k="name" v="Styggdalen" />
		<tag k="natural" v="valley" />
		<tag k="place" v="locality" />
		<tag k="ssr:stedsnr" v="568227" />
	</node>
	<node id="-267363" lat="60.2627333338" lon="10.8929638943">
		<tag k="name" v="Vombakken" />
		<tag k="natural" v="slope" />
		<tag k="place" v="locality" />
		<tag k="ssr:stedsnr" v="568225" />
	</node>
	<node id="-266494" lat="60.1930555524" lon="10.89422777">
		<tag k="name" v="Tolleftjernlia" />
		<tag k="natural" v="slope" />
		<tag k="place" v="locality" />
		<tag k="ssr:stedsnr" v="448039" />
	</node>
	<node id="-266336" lat="60.2835222202" lon="10.9236027767">
		<tag k="name" v="Lensmannsflaen" />
		<tag k="natural" v="hill" />
		<tag k="place" v="locality" />
		<tag k="ssr:stedsnr" v="448385" />
	</node>
	<node id="-267359" lat="60.3001472221" lon="11.0692722249">
		<tag k="name" v="Tangenmarka" />
		<tag k="place" v="locality" />
		<tag k="ssr:stedsnr" v="568163" />
	</node>
	<node id="-266597" lat="60.2272555598" lon="10.9506694425">
		<tag k="name" v="Revlinghaugen" />
		<tag k="natural" v="hill" />
		<tag k="place" v="locality" />
		<tag k="ssr:stedsnr" v="690296" />
	</node>
	<node id="-266844" lat="60.2884055578" lon="10.9601499962">
		<tag k="name" v="Hellebadstudalen" />
		<tag k="natural" v="valley" />
		<tag k="place" v="locality" />
		<tag k="ssr:stedsnr" v="933536" />
	</node>
	<node id="-267354" lat="60.1152694413" lon="11.0335222154">
		<tag k="fixme" v="consider natural=peak for the most distinct mountains in the district" />
		<tag k="name" v="Finstadkampen" />
		<tag k="natural" v="hill" />
		<tag k="place" v="locality" />
		<tag k="ssr:stedsnr" v="568108" />
	</node>
	<node id="-266841" lat="60.2884361117" lon="11.0000166678">
		<tag k="fixme" v="consider natural=peak for the most distinct mountains in the district" />
		<tag k="name" v="Kuberget" />
		<tag k="natural" v="hill" />
		<tag k="place" v="locality" />
		<tag k="ssr:stedsnr" v="933508" />
	</node>
	<node id="-266837" lat="60.2432111127" lon="11.1069833309">
		<tag k="name" v="Flatner" />
		<tag k="place" v="locality" />
		<tag k="ssr:stedsnr" v="933416" />
	</node>
	<node id="-266836" lat="60.1587055551" lon="10.9868083349">
		<tag k="fixme" v="consider natural=peak for the most distinct mountains in the district" />
		<tag k="name" v="Grasliberget" />
		<tag k="natural" v="hill" />
		<tag k="place" v="locality" />
		<tag k="ssr:stedsnr" v="933206" />
	</node>
	<node id="-266323" lat="60.2557944443" lon="10.8107333346">
		<tag k="name" v="Storvasslia" />
		<tag k="natural" v="slope" />
		<tag k="place" v="locality" />
		<tag k="ssr:stedsnr" v="448233" />
	</node>
	<node id="-266834" lat="60.2037055552" lon="11.0254305599">
		<tag k="name" v="Asphaug" />
		<tag k="natural" v="hill" />
		<tag k="place" v="locality" />
		<tag k="ssr:stedsnr" v="933303" />
	</node>
	<node id="-266341" lat="60.2929027783" lon="11.0298861119">
		<tag k="name" v="Fløttdalen" />
		<tag k="natural" v="valley" />
		<tag k="place" v="locality" />
		<tag k="ssr:stedsnr" v="448496" />
	</node>
	<node id="-267343" lat="60.1918833363" lon="10.9396111202">
		<tag k="name" v="Homlelia" />
		<tag k="natural" v="slope" />
		<tag k="place" v="locality" />
		<tag k="ssr:stedsnr" v="568038" />
	</node>
	<node id="-267341" lat="60.1649583377" lon="10.9085972248">
		<tag k="name" v="Djupøyungslia" />
		<tag k="natural" v="slope" />
		<tag k="place" v="locality" />
		<tag k="ssr:stedsnr" v="568034" />
	</node>
	<node id="-266460" lat="60.2522222241" lon="10.8227694453">
		<tag k="name" v="Ekstjernrøet" />
		<tag k="natural" v="hill" />
		<tag k="place" v="locality" />
		<tag k="ssr:stedsnr" v="508219" />
	</node>
	<node id="-266311" lat="60.1194194487" lon="11.0078083399">
		<tag k="fixme" v="consider natural=peak for the most distinct mountains in the district" />
		<tag k="name" v="Nordbyåsen" />
		<tag k="natural" v="hill" />
		<tag k="place" v="locality" />
		<tag k="ssr:stedsnr" v="448107" />
	</node>
	<node id="-266822" lat="60.2891749997" lon="10.9860999927">
		<tag k="name" v="Gullikshaugen" />
		<tag k="natural" v="hill" />
		<tag k="place" v="locality" />
		<tag k="ssr:stedsnr" v="916366" />
	</node>
	<node id="-266593" lat="60.1654833315" lon="11.0199305481">
		<tag k="fixme" v="consider natural=peak for the most distinct mountains in the district" />
		<tag k="name" v="Bjønnhaugen" />
		<tag k="natural" v="hill" />
		<tag k="place" v="locality" />
		<tag k="ssr:stedsnr" v="690251" />
	</node>
	<node id="-267332" lat="60.2997055559" lon="10.9225388976">
		<tag k="name" v="Kvernsjøberget" />
		<tag k="natural" v="hill" />
		<tag k="place" v="locality" />
		<tag k="ssr:stedsnr" v="552331" />
	</node>
	<node id="-267331" lat="60.3191083327" lon="10.9236250007">
		<tag k="fixme" v="consider natural=peak for the most distinct mountains in the district" />
		<tag k="name" v="Marifjell" />
		<tag k="natural" v="hill" />
		<tag k="place" v="locality" />
		<tag k="ssr:stedsnr" v="552277" />
	</node>
	<node id="-267330" lat="60.3152833297" lon="10.9591777792">
		<tag k="fixme" v="consider natural=peak for the most distinct mountains in the district" />
		<tag k="name" v="Klofjell" />
		<tag k="natural" v="hill" />
		<tag k="place" v="locality" />
		<tag k="ssr:stedsnr" v="552273" />
	</node>
	<node id="-266371" lat="60.1343499973" lon="11.0181027824">
		<tag k="fixme" v="consider natural=peak for the most distinct mountains in the district" />
		<tag k="name" v="Eltonåsen" />
		<tag k="natural" v="hill" />
		<tag k="place" v="locality" />
		<tag k="ssr:stedsnr" v="490645" />
	</node>
	<node id="-266816" lat="60.2961500023" lon="11.0478250032">
		<tag k="name" v="Viksvanghaugen" />
		<tag k="natural" v="hill" />
		<tag k="place" v="locality" />
		<tag k="ssr:stedsnr" v="916303" />
	</node>
	<node id="-267360" lat="60.199419448" lon="10.7977638875">
		<tag k="name" v="Storrsjølia" />
		<tag k="natural" v="slope" />
		<tag k="place" v="locality" />
		<tag k="ssr:stedsnr" v="568179" />
	</node>
	<node id="-266586" lat="60.2154444445" lon="11.0806833276">
		<tag k="name" v="Vigsteinmoen" />
		<tag k="place" v="locality" />
		<tag k="ssr:stedsnr" v="690155" />
	</node>
	<node id="-267397" lat="60.1382527788" lon="10.905875008">
		<tag k="name" v="Bentebråten" />
		<tag k="natural" v="slope" />
		<tag k="place" v="locality" />
		<tag k="ssr:stedsnr" v="569958" />
	</node>
	<node id="-266804" lat="60.1455472239" lon="10.9190555547">
		<tag k="name" v="Lauvbakken" />
		<tag k="natural" v="slope" />
		<tag k="place" v="locality" />
		<tag k="ssr:stedsnr" v="873966" />
	</node>
	<node id="-266801" lat="60.3212111147" lon="11.0296638915">
		<tag k="name" v="Holtkampen" />
		<tag k="natural" v="ridge" />
		<tag k="place" v="locality" />
		<tag k="ssr:stedsnr" v="872517" />
	</node>
	<node id="-266248" lat="60.2564444456" lon="10.9389527836">
		<tag k="name" v="Vollenderhaugen" />
		<tag k="natural" v="slope" />
>>>>>>> e1d4bc35ff8a6074a6f2e91616a996b547c36f15
		<tag k="place" v="locality" />
		<tag k="ssr:stedsnr" v="751074" />
	</node>
<<<<<<< HEAD
	<node lat="60.15039444769721" lon="10.986561114864346" id="-20123">
		<tag k="name" v="Nordlia" />
		<tag k="natural" v="slope" />
		<tag k="place" v="locality" />
		<tag k="ssr:stedsnr" v="751075" />
	</node>
	<node lat="60.23293333261824" lon="10.793905552638648" id="-20127">
		<tag k="fixme" v="consider natural=peak for the most distinct mountains in the district" />
		<tag k="name" v="Nordre Skotjernfjell" />
		<tag k="natural" v="hill" />
		<tag k="place" v="locality" />
		<tag k="ssr:stedsnr" v="751184" />
	</node>
	<node lat="60.20546111255209" lon="10.776769440114412" id="-20128">
		<tag k="alt_name" v="Kølsjorøet" />
		<tag k="name" v="Kolsjørøet" />
		<tag k="natural" v="hill" />
		<tag k="place" v="locality" />
		<tag k="ssr:stedsnr" v="751192" />
	</node>
	<node lat="60.208686115206554" lon="10.78624167222118" id="-20129">
		<tag k="name" v="Ola Baus plass" />
		<tag k="place" v="locality" />
		<tag k="ssr:stedsnr" v="751194" />
	</node>
	<node lat="60.28929721970243" lon="10.888438881352188" id="-20132">
		<tag k="name" v="Mysmerdalen" />
		<tag k="natural" v="valley" />
		<tag k="place" v="locality" />
		<tag k="ssr:stedsnr" v="751292" />
	</node>
	<node lat="60.27926110865114" lon="10.987358325968456" id="-20138">
		<tag k="name" v="Høybråtelia" />
		<tag k="natural" v="slope" />
		<tag k="place" v="locality" />
		<tag k="ssr:stedsnr" v="751461" />
	</node>
	<node lat="60.288163892455394" lon="11.01028054946613" id="-20143">
		<tag k="fixme" v="consider natural=peak for the most distinct mountains in the district" />
		<tag k="name" v="Vesle Nippkollen" />
		<tag k="natural" v="hill" />
		<tag k="place" v="locality" />
		<tag k="ssr:stedsnr" v="751485" />
	</node>
	<node lat="60.26307500035157" lon="11.023158339903103" id="-20147">
		<tag k="name" v="Åslia" />
		<tag k="natural" v="slope" />
		<tag k="place" v="locality" />
		<tag k="ssr:stedsnr" v="780980" />
	</node>
	<node lat="60.17207499705438" lon="10.93308610465746" id="-20170">
		<tag k="fixme" v="consider natural=peak for the most distinct mountains in the district" />
		<tag k="name" v="Spilhøgda" />
		<tag k="natural" v="hill" />
		<tag k="place" v="locality" />
		<tag k="ssr:stedsnr" v="812036" />
	</node>
	<node lat="60.1426305524366" lon="11.00374167052223" id="-20173">
		<tag k="name" v="Hyttebrudalen" />
		<tag k="natural" v="valley" />
		<tag k="place" v="locality" />
		<tag k="ssr:stedsnr" v="812062" />
	</node>
	<node lat="60.146102778907505" lon="10.982855549629091" id="-20174">
		<tag k="fixme" v="consider natural=peak for the most distinct mountains in the district" />
		<tag k="name" v="Rovolsvarden" />
		<tag k="natural" v="hill" />
		<tag k="place" v="locality" />
		<tag k="ssr:stedsnr" v="812066" />
	</node>
	<node lat="60.14291666275055" lon="10.973397228482591" id="-20175">
		<tag k="name" v="Brenna" />
		<tag k="natural" v="hill" />
		<tag k="place" v="locality" />
		<tag k="ssr:stedsnr" v="812072" />
	</node>
	<node lat="60.22273889077478" lon="10.8326027722847" id="-20176">
		<tag k="name" v="Trasletjernhøgda" />
		<tag k="natural" v="hill" />
		<tag k="place" v="locality" />
		<tag k="ssr:stedsnr" v="812200" />
	</node>
	<node lat="60.23216944575383" lon="10.958627777710525" id="-20177">
		<tag k="name" v="Monsklopphølet" />
		<tag k="natural" v="valley" />
		<tag k="place" v="locality" />
		<tag k="ssr:stedsnr" v="812283" />
	</node>
	<node lat="60.19289444145069" lon="11.019869448128295" id="-20178">
		<tag k="fixme" v="consider natural=peak for the most distinct mountains in the district" />
		<tag k="name" v="Nygårdstoppen" />
		<tag k="natural" v="hill" />
		<tag k="place" v="locality" />
		<tag k="ssr:stedsnr" v="812287" />
	</node>
	<node lat="60.28177222127213" lon="10.95097778517748" id="-20179">
		<tag k="name" v="Bellinglia" />
		<tag k="natural" v="slope" />
		<tag k="place" v="locality" />
		<tag k="ssr:stedsnr" v="812294" />
	</node>
	<node lat="60.20326944248618" lon="10.977319441966486" id="-20180">
		<tag k="fixme" v="consider natural=peak for the most distinct mountains in the district" />
		<tag k="name" v="Korphaugen" />
		<tag k="natural" v="hill" />
		<tag k="place" v="locality" />
		<tag k="ssr:stedsnr" v="812308" />
	</node>
	<node lat="60.23300833693358" lon="10.898208333899337" id="-20182">
		<tag k="name" v="Svartdalen" />
		<tag k="natural" v="valley" />
		<tag k="place" v="locality" />
		<tag k="ssr:stedsnr" v="812329" />
	</node>
	<node lat="60.24867499749529" lon="11.107713886471048" id="-20189">
		<tag k="name" v="Mohøgda" />
		<tag k="natural" v="hill" />
		<tag k="place" v="locality" />
		<tag k="ssr:stedsnr" v="812388" />
	</node>
	<node lat="60.25164166502367" lon="10.955788894484604" id="-20190">
		<tag k="name" v="Sørlia" />
		<tag k="natural" v="slope" />
		<tag k="place" v="locality" />
		<tag k="ssr:stedsnr" v="812450" />
	</node>
	<node lat="60.26508333493289" lon="11.05471945001579" id="-20192">
		<tag k="name" v="Korpehaugen" />
		<tag k="natural" v="hill" />
		<tag k="place" v="locality" />
		<tag k="ssr:stedsnr" v="812454" />
	</node>
	<node lat="60.26980278128037" lon="11.051136103816972" id="-20193">
		<tag k="fixme" v="consider natural=peak for the most distinct mountains in the district" />
		<tag k="name" v="Brattåstoppen" />
		<tag k="natural" v="hill" />
		<tag k="place" v="locality" />
		<tag k="ssr:stedsnr" v="812455" />
	</node>
	<node lat="60.276497222821476" lon="11.00495555827569" id="-20194">
		<tag k="name" v="Åmotlia" />
		<tag k="natural" v="slope" />
		<tag k="place" v="locality" />
		<tag k="ssr:stedsnr" v="812470" />
	</node>
	<node lat="60.130763891813295" lon="10.952630562748737" id="-20200">
		<tag k="fixme" v="consider natural=peak for the most distinct mountains in the district" />
		<tag k="name" v="Midtholen" />
		<tag k="natural" v="hill" />
		<tag k="place" v="locality" />
		<tag k="ssr:stedsnr" v="872099" />
	</node>
	<node lat="60.19018888449721" lon="10.817352785889744" id="-20202">
		<tag k="fixme" v="consider natural=peak for the most distinct mountains in the district" />
		<tag k="name" v="Tvekjellerbråtan" />
		<tag k="natural" v="hill" />
		<tag k="place" v="locality" />
		<tag k="ssr:stedsnr" v="872174" />
	</node>
	<node lat="60.21123333665552" lon="10.782688890341413" id="-20212">
		<tag k="name" v="Sagdalen" />
		<tag k="natural" v="valley" />
		<tag k="place" v="locality" />
		<tag k="ssr:stedsnr" v="855863" />
	</node>
	<node lat="60.274208337382724" lon="10.895774991747562" id="-20216">
		<tag k="name" v="Tronsberget" />
		<tag k="natural" v="hill" />
		<tag k="place" v="locality" />
		<tag k="ssr:stedsnr" v="856358" />
	</node>
	<node lat="60.14955832936102" lon="10.996133331374269" id="-20218">
		<tag k="name" v="Revtjernbakken" />
		<tag k="natural" v="slope" />
		<tag k="place" v="locality" />
		<tag k="ssr:stedsnr" v="872055" />
	</node>
	<node lat="60.23476944349164" lon="10.988769448550356" id="-20221">
		<tag k="name" v="Kringlerdalen" />
		<tag k="natural" v="valley" />
		<tag k="place" v="locality" />
		<tag k="ssr:stedsnr" v="872277" />
	</node>
	<node lat="60.24006389195702" lon="10.891205552872638" id="-20224">
		<tag k="fixme" v="consider natural=peak for the most distinct mountains in the district" />
		<tag k="name" v="Svartdalsrøet" />
		<tag k="natural" v="hill" />
		<tag k="place" v="locality" />
		<tag k="ssr:stedsnr" v="872360" />
	</node>
	<node lat="60.1201749983461" lon="11.043174997745334" id="-20230">
		<tag k="fixme" v="consider natural=peak for the most distinct mountains in the district" />
		<tag k="name" v="Revhaugen" />
		<tag k="natural" v="hill" />
		<tag k="place" v="locality" />
		<tag k="ssr:stedsnr" v="872119" />
	</node>
	<node lat="60.31686666268147" lon="10.89652221891551" id="-20235">
		<tag k="name" v="Steinbrottdalen" />
		<tag k="natural" v="valley" />
		<tag k="place" v="locality" />
		<tag k="ssr:stedsnr" v="872242" />
	</node>
	<node lat="60.28376944052817" lon="10.836152785323922" id="-20239">
		<tag k="name" v="Leirsjølia" />
		<tag k="natural" v="slope" />
		<tag k="place" v="locality" />
		<tag k="ssr:stedsnr" v="872407" />
	</node>
	<node lat="60.32121111466421" lon="11.029663891458116" id="-20245">
		<tag k="name" v="Holtkampen" />
		<tag k="natural" v="ridge" />
		<tag k="place" v="locality" />
		<tag k="ssr:stedsnr" v="872517" />
	</node>
	<node lat="60.130172217712726" lon="10.942102783091793" id="-20250">
		<tag k="name" v="Gørrputthaugen" />
		<tag k="natural" v="hill" />
		<tag k="place" v="locality" />
		<tag k="ssr:stedsnr" v="873938" />
	</node>
	<node lat="60.1455472239053" lon="10.919055554712154" id="-20251">
		<tag k="name" v="Lauvbakken" />
		<tag k="natural" v="slope" />
		<tag k="place" v="locality" />
		<tag k="ssr:stedsnr" v="873966" />
=======
	<node id="-266798" lat="60.240063892" lon="10.8912055529">
		<tag k="fixme" v="consider natural=peak for the most distinct mountains in the district" />
		<tag k="name" v="Svartdalsrøet" />
		<tag k="natural" v="hill" />
		<tag k="place" v="locality" />
		<tag k="ssr:stedsnr" v="872360" />
	</node>
	<node id="-266795" lat="60.2837694405" lon="10.8361527853">
		<tag k="name" v="Leirsjølia" />
		<tag k="natural" v="slope" />
		<tag k="place" v="locality" />
		<tag k="ssr:stedsnr" v="872407" />
	</node>
	<node id="-266555" lat="60.2115333367" lon="10.8677722166">
		<tag k="name" v="Rudsæterlia" />
		<tag k="natural" v="slope" />
		<tag k="place" v="locality" />
		<tag k="ssr:stedsnr" v="508057" />
	</node>
	<node id="-266792" lat="60.1901888845" lon="10.8173527859">
		<tag k="fixme" v="consider natural=peak for the most distinct mountains in the district" />
		<tag k="name" v="Tvekjellerbråtan" />
		<tag k="natural" v="hill" />
		<tag k="place" v="locality" />
		<tag k="ssr:stedsnr" v="872174" />
	</node>
	<node id="-267303" lat="60.1557361108" lon="10.9621500033">
		<tag k="name" v="Gimilhøgda" />
		<tag k="natural" v="hill" />
		<tag k="place" v="locality" />
		<tag k="ssr:stedsnr" v="551752" />
	</node>
	<node id="-266789" lat="60.1201749983" lon="11.0431749977">
		<tag k="fixme" v="consider natural=peak for the most distinct mountains in the district" />
		<tag k="name" v="Revhaugen" />
		<tag k="natural" v="hill" />
		<tag k="place" v="locality" />
		<tag k="ssr:stedsnr" v="872119" />
	</node>
	<node id="-266276" lat="60.337694442" lon="10.9908361125">
		<tag k="name" v="Merrabakken" />
		<tag k="natural" v="slope" />
		<tag k="place" v="locality" />
		<tag k="ssr:stedsnr" v="266367" />
	</node>
	<node id="-266246" lat="60.2324694449" lon="10.8325277796">
		<tag k="name" v="Blåbærhaugen" />
		<tag k="natural" v="hill" />
		<tag k="place" v="locality" />
		<tag k="ssr:stedsnr" v="265182" />
	</node>
	<node id="-266785" lat="60.1468972188" lon="10.9751194499">
		<tag k="fixme" v="consider natural=peak for the most distinct mountains in the district" />
		<tag k="name" v="Vestre varden" />
		<tag k="natural" v="hill" />
		<tag k="place" v="locality" />
		<tag k="ssr:stedsnr" v="872064" />
	</node>
	<node id="-266784" lat="60.1495583294" lon="10.9961333314">
		<tag k="name" v="Revtjernbakken" />
		<tag k="natural" v="slope" />
		<tag k="place" v="locality" />
		<tag k="ssr:stedsnr" v="872055" />
	</node>
	<node id="-266271" lat="60.2880305526" lon="10.9015750075">
		<tag k="name" v="Seframbakken" />
		<tag k="natural" v="slope" />
		<tag k="place" v="locality" />
		<tag k="ssr:stedsnr" v="266240" />
	</node>
	<node id="-266269" lat="60.1623472266" lon="10.9836666732">
		<tag k="name" v="Revhilia" />
		<tag k="natural" v="slope" />
		<tag k="place" v="locality" />
		<tag k="ssr:stedsnr" v="266212" />
	</node>
	<node id="-266779" lat="60.2742083374" lon="10.8957749917">
		<tag k="name" v="Tronsberget" />
		<tag k="natural" v="hill" />
		<tag k="place" v="locality" />
		<tag k="ssr:stedsnr" v="856358" />
	</node>
	<node id="-266671" lat="60.2362166653" lon="11.0304527761">
		<tag k="name" v="Nordgardsberget" />
		<tag k="natural" v="hill" />
		<tag k="place" v="locality" />
		<tag k="ssr:stedsnr" v="733792" />
	</node>
	<node id="-266264" lat="60.1269583351" lon="11.0786111166">
		<tag k="name" v="Kjerkehaugen" />
		<tag k="natural" v="hill" />
		<tag k="place" v="locality" />
		<tag k="ssr:stedsnr" v="266007" />
	</node>
	<node id="-267286" lat="60.1826111145" lon="10.8649166667">
		<tag k="name" v="Engelstadkampen" />
		<tag k="natural" v="hill" />
		<tag k="place" v="locality" />
		<tag k="ssr:stedsnr" v="430775" />
	</node>
	<node id="-266329" lat="60.3008111148" lon="10.9153166635">
		<tag k="name" v="Kjagdalen" />
		<tag k="natural" v="valley" />
		<tag k="place" v="locality" />
		<tag k="ssr:stedsnr" v="448253" />
	</node>
	<node id="-267438" lat="60.1748750025" lon="10.8684777715">
		<tag k="name" v="Fjøsdalen" />
		<tag k="natural" v="valley" />
		<tag k="place" v="locality" />
		<tag k="ssr:stedsnr" v="629052" />
	</node>
	<node id="-266265" lat="60.1668500023" lon="10.8752861185">
		<tag k="name" v="Styggdalen" />
		<tag k="natural" v="valley" />
		<tag k="place" v="locality" />
		<tag k="ssr:stedsnr" v="266044" />
	</node>
	<node id="-266768" lat="60.2778361096" lon="11.0479444485">
		<tag k="name" v="Utsikten" />
		<tag k="natural" v="hill" />
		<tag k="place" v="locality" />
		<tag k="ssr:stedsnr" v="933493" />
	</node>
	<node id="-266255" lat="60.2371361151" lon="10.9353944489">
		<tag k="fixme" v="consider natural=peak for the most distinct mountains in the district" />
		<tag k="name" v="Storholthaugen" />
		<tag k="natural" v="hill" />
		<tag k="place" v="locality" />
		<tag k="ssr:stedsnr" v="265350" />
	</node>
	<node id="-266764" lat="60.2818527753" lon="10.8833027732">
		<tag k="name" v="Tomaslia" />
		<tag k="natural" v="slope" />
		<tag k="place" v="locality" />
		<tag k="ssr:stedsnr" v="933396" />
	</node>
	<node id="-266762" lat="60.2657916669" lon="10.9251583352">
		<tag k="name" v="Redeberghaugen" />
		<tag k="natural" v="hill" />
		<tag k="place" v="locality" />
		<tag k="ssr:stedsnr" v="933387" />
	</node>
	<node id="-267273" lat="60.2396361116" lon="11.0921555486">
		<tag k="name" v="Tverrhøgda" />
		<tag k="natural" v="hill" />
		<tag k="place" v="locality" />
		<tag k="ssr:stedsnr" v="387384" />
	</node>
	<node id="-267272" lat="60.3419472228" lon="10.9861638918">
		<tag k="name" v="Geitryggen" />
		<tag k="natural" v="ridge" />
		<tag k="place" v="locality" />
		<tag k="ssr:stedsnr" v="387495" />
	</node>
	<node id="-266759" lat="60.2921805567" lon="10.8428888914">
		<tag k="name" v="Øvre Hellern" />
		<tag k="natural" v="slope" />
		<tag k="place" v="locality" />
		<tag k="ssr:stedsnr" v="933376" />
	</node>
	<node id="-266758" lat="60.2094277794" lon="10.8324500068">
		<tag k="name" v="Råsjøhøgda" />
		<tag k="natural" v="hill" />
		<tag k="place" v="locality" />
		<tag k="ssr:stedsnr" v="933370" />
	</node>
	<node id="-266901" lat="60.3109861119" lon="10.9447194466">
		<tag k="name" v="Kabberudhaugen" />
		<tag k="natural" v="hill" />
		<tag k="place" v="locality" />
		<tag k="ssr:stedsnr" v="23287" />
	</node>
	<node id="-266756" lat="60.226602777" lon="10.874244441">
		<tag k="name" v="Drittjerndalen" />
		<tag k="natural" v="valley" />
		<tag k="place" v="locality" />
		<tag k="ssr:stedsnr" v="933355" />
	</node>
	<node id="-266755" lat="60.2368444434" lon="10.9206999918">
		<tag k="name" v="Kaksrudstykket" />
		<tag k="natural" v="slope" />
		<tag k="place" v="locality" />
		<tag k="ssr:stedsnr" v="933347" />
	</node>
	<node id="-267266" lat="60.2377499996" lon="10.8373638882">
		<tag k="fixme" v="consider natural=peak for the most distinct mountains in the district" />
		<tag k="name" v="Høgås" />
		<tag k="natural" v="hill" />
		<tag k="place" v="locality" />
		<tag k="ssr:stedsnr" v="387341" />
	</node>
	<node id="-267265" lat="60.235344446" lon="10.908669442">
		<tag k="name" v="Prekestolen" />
		<tag k="natural" v="slope" />
		<tag k="place" v="locality" />
		<tag k="ssr:stedsnr" v="387337" />
>>>>>>> e1d4bc35ff8a6074a6f2e91616a996b547c36f15
	</node>
</osm>
