<?xml version="1.0" encoding="UTF-8"?>
<osm version="0.6" generator="osmapis">
	<node lat="60.15863055666259" lon="11.005952775195535" id="-31252">
		<tag k="alt_name" v="Bjørkeiksletta" />
		<tag k="name" v="Bjørkeik" />
		<tag k="place" v="farm" />
		<tag k="ssr:stedsnr" v="5401" />
	</node>
	<node lat="60.169235902494684" lon="11.001121684487085" id="-31256">
		<tag k="name" v="Fevik" />
		<tag k="place" v="farm" />
		<tag k="ssr:stedsnr" v="5673" />
	</node>
	<node lat="60.20967500237961" lon="11.013216663578246" id="-31259">
		<tag k="alt_name" v="Øvre Heggeli;Heggli" />
		<tag k="name" v="Øvre Heggli" />
		<tag k="place" v="farm" />
		<tag k="ssr:stedsnr" v="5760" />
	</node>
	<node lat="60.251599996924945" lon="11.058074995345686" id="-31261">
		<tag k="name" v="Lund" />
		<tag k="place" v="farm" />
		<tag k="ssr:stedsnr" v="6428" />
	</node>
	<node lat="60.14872500207927" lon="11.007813890669263" id="-31263">
		<tag k="name" v="Trugstadberget" />
		<tag k="place" v="farm" />
		<tag k="ssr:stedsnr" v="6656" />
	</node>
	<node lat="60.154082507002" lon="11.025228914993885" id="-31265">
		<tag k="name" v="Erpestad" />
		<tag k="place" v="farm" />
		<tag k="ssr:stedsnr" v="6752" />
	</node>
	<node lat="60.1332027801053" lon="11.066441663688185" id="-31266">
		<tag k="name" v="Østre Gutu" />
		<tag k="place" v="farm" />
		<tag k="ssr:stedsnr" v="23005" />
	</node>
	<node lat="60.145672220937165" lon="11.047527780546183" id="-31269">
		<tag k="name" v="Voll" />
		<tag k="place" v="farm" />
		<tag k="ssr:stedsnr" v="23101" />
	</node>
	<node lat="60.1376222232752" lon="11.054627784926074" id="-31270">
		<tag k="name" v="Holter meieri" />
		<tag k="place" v="isolated_dwelling" />
		<tag k="ssr:stedsnr" v="23091" />
	</node>
	<node lat="60.28169444153947" lon="10.93498889567988" id="-31278">
		<tag k="historic" v="shieling" />
		<tag k="name" v="Hanstusæter" />
		<tag k="place" v="isolated_dwelling" />
		<tag k="ssr:stedsnr" v="23403" />
	</node>
	<node lat="60.130791663587544" lon="11.06092777154962" id="-31282">
		<tag k="name" v="Esetmoen" />
		<tag k="place" v="farm" />
		<tag k="ssr:stedsnr" v="23139" />
	</node>
	<node lat="60.12924722480991" lon="11.024247227281595" id="-31283">
		<tag k="name" v="Løvås" />
		<tag k="place" v="farm" />
		<tag k="ssr:stedsnr" v="23142" />
	</node>
	<node lat="60.265263890719744" lon="11.084458325600393" id="-31286">
		<tag k="name" v="Gulliksrud" />
		<tag k="place" v="locality" />
		<tag k="ssr:stedsnr" v="23185" />
	</node>
	<node lat="60.31651897321224" lon="11.069709048892966" id="-31287">
		<tag k="name" v="Solvang" />
		<tag k="place" v="farm" />
		<tag k="ssr:stedsnr" v="23187" />
	</node>
	<node lat="60.2328166631751" lon="10.981841666382866" id="-31292">
		<tag k="name" v="Fjellberg" />
		<tag k="place" v="farm" />
		<tag k="ssr:stedsnr" v="23311" />
	</node>
	<node lat="60.12728982979541" lon="11.074474399978563" id="-31299">
		<tag k="alt_name" v="Foss, øvre;Foss østre" />
		<tag k="name" v="Øvre Foss" />
		<tag k="place" v="farm" />
		<tag k="ssr:stedsnr" v="66642" />
	</node>
	<node lat="60.12022329194737" lon="11.02154965531053" id="-31301">
		<tag k="alt_name" v="Vestre Nordby" />
		<tag k="name" v="Nordby" />
		<tag k="place" v="farm" />
		<tag k="ssr:stedsnr" v="66658" />
	</node>
	<node lat="60.16775860999745" lon="11.056674130144131" id="-31302">
		<tag k="name" v="Lyshaug" />
		<tag k="place" v="farm" />
		<tag k="ssr:stedsnr" v="66706" />
	</node>
	<node lat="60.24395833160293" lon="11.013911104914994" id="-31305">
		<tag k="alt_name" v="Åmål" />
		<tag k="name" v="Øvre Åmål" />
		<tag k="place" v="farm" />
		<tag k="ssr:stedsnr" v="66905" />
	</node>
	<node lat="60.24530000151698" lon="11.020027770401814" id="-31308">
		<tag k="name" v="Holli" />
		<tag k="place" v="farm" />
		<tag k="ssr:stedsnr" v="66898" />
	</node>
	<node lat="60.30094999584389" lon="10.986480562571732" id="-31310">
		<tag k="name" v="Honsjøstua" />
		<tag k="old_name" v="Hornsjøstua" />
		<tag k="place" v="isolated_dwelling" />
		<tag k="ssr:stedsnr" v="67313" />
	</node>
	<node lat="60.265975001220944" lon="11.027624998917702" id="-31313">
		<tag k="alt_name" v="Røtnes, nedre" />
		<tag k="name" v="Nedre Røtnes" />
		<tag k="place" v="farm" />
		<tag k="ssr:stedsnr" v="67340" />
	</node>
	<node lat="60.1925083352289" lon="10.924363892469481" id="-31315">
		<tag k="name" v="Furusethytta" />
		<tag k="place" v="isolated_dwelling" />
		<tag k="ssr:stedsnr" v="84031" />
	</node>
	<node lat="60.23343263054207" lon="11.00515420813175" id="-31321">
		<tag k="name" v="Søndre Bjørke" />
		<tag k="place" v="farm" />
		<tag k="ssr:stedsnr" v="84288" />
	</node>
	<node lat="60.13337499880755" lon="10.972786117975481" id="-31326">
		<tag k="name" v="Nybergshytta" />
		<tag k="place" v="isolated_dwelling" />
		<tag k="ssr:stedsnr" v="84130" />
	</node>
	<node lat="60.210133176276734" lon="11.024612583096078" id="-31330">
		<tag k="name" v="Engelsrud" />
		<tag k="place" v="farm" />
		<tag k="ssr:stedsnr" v="84307" />
	</node>
	<node lat="60.111338886284805" lon="11.029619452951557" id="-31335">
		<tag k="name" v="Skogly" />
		<tag k="place" v="farm" />
		<tag k="ssr:stedsnr" v="84931" />
	</node>
	<node lat="60.27776213097091" lon="11.097770266277395" id="-31341">
		<tag k="name" v="Limset" />
		<tag k="place" v="farm" />
		<tag k="ssr:stedsnr" v="127204" />
	</node>
	<node lat="60.258602127596106" lon="11.030337908869829" id="-31342">
		<tag k="name" v="Maura" />
		<tag k="place" v="village" />
		<tag k="ssr:stedsnr" v="127387" />
	</node>
	<node lat="60.26796111174178" lon="11.073413888084644" id="-31344">
		<tag k="name" v="Dal" />
		<tag k="place" v="farm" />
		<tag k="ssr:stedsnr" v="127691" />
	</node>
	<node lat="60.112353748809674" lon="11.039921599979161" id="-31346">
		<tag k="name" v="Fredrikstua" />
		<tag k="place" v="locality" />
		<tag k="ssr:stedsnr" v="144128" />
	</node>
	<node lat="60.120422224094405" lon="11.029544452645984" id="-31347">
		<tag k="name" v="Granrud" />
		<tag k="place" v="isolated_dwelling" />
		<tag k="ssr:stedsnr" v="144135" />
	</node>
	<node lat="60.131702774193776" lon="11.066155562826587" id="-31348">
		<tag k="name" v="Nordjordet" />
		<tag k="place" v="farm" />
		<tag k="ssr:stedsnr" v="144004" />
	</node>
	<node lat="60.147344440840506" lon="11.049758338714025" id="-31353">
		<tag k="name" v="Nordrum" />
		<tag k="place" v="farm" />
		<tag k="ssr:stedsnr" v="144085" />
	</node>
	<node lat="60.1382583305941" lon="11.015961118468143" id="-31354">
		<tag k="name" v="Lyngås" />
		<tag k="place" v="farm" />
		<tag k="ssr:stedsnr" v="144088" />
	</node>
	<node lat="60.18835599985012" lon="10.979506532612918" id="-31356">
		<tag k="name" v="Bakken" />
		<tag k="place" v="isolated_dwelling" />
		<tag k="ssr:stedsnr" v="144204" />
	</node>
	<node lat="60.29580833724892" lon="11.05701944532516" id="-31364">
		<tag k="name" v="Engerhaugen" />
		<tag k="place" v="isolated_dwelling" />
		<tag k="ssr:stedsnr" v="144502" />
	</node>
	<node lat="60.23163449934803" lon="10.98303037679525" id="-31365">
		<tag k="name" v="Hokringler" />
		<tag k="place" v="farm" />
		<tag k="ssr:stedsnr" v="144284" />
	</node>
	<node lat="60.33708055592727" lon="11.026455548318594" id="-31374">
		<tag k="name" v="Sørstua" />
		<tag k="place" v="farm" />
		<tag k="ssr:stedsnr" v="248267" />
	</node>
	<node lat="60.337275002368536" lon="11.024924994275215" id="-31378">
		<tag k="name" v="Nystua" />
		<tag k="place" v="farm" />
		<tag k="ssr:stedsnr" v="248266" />
	</node>
	<node lat="60.342624999284745" lon="11.021452778384683" id="-31379">
		<tag k="alt_name" v="Engen" />
		<tag k="name" v="Enga" />
		<tag k="place" v="farm" />
		<tag k="ssr:stedsnr" v="248495" />
	</node>
	<node lat="60.18490833137903" lon="10.933905555318537" id="-31380">
		<tag k="name" v="Huldrehøgda" />
		<tag k="place" v="isolated_dwelling" />
		<tag k="ssr:stedsnr" v="177773" />
	</node>
	<node lat="60.15608888531638" lon="11.002750004934988" id="-31384">
		<tag k="alt_name" v="Høybråten" />
		<tag k="name" v="Høgbråtan" />
		<tag k="place" v="farm" />
		<tag k="ssr:stedsnr" v="248761" />
	</node>
	<node lat="60.1962734308522" lon="10.973081963561683" id="-31385">
		<tag k="alt_name" v="Oserud" />
		<tag k="name" v="Osrud" />
		<tag k="place" v="farm" />
		<tag k="ssr:stedsnr" v="248768" />
	</node>
	<node lat="60.18045482227398" lon="11.005765656978575" id="-31389">
		<tag k="name" v="Lerberg" />
		<tag k="place" v="farm" />
		<tag k="ssr:stedsnr" v="248805" />
	</node>
	<node lat="60.18320000374765" lon="11.008258340455345" id="-31390">
		<tag k="alt_name" v="Hafsenga" />
		<tag k="name" v="Hovsenga" />
		<tag k="place" v="farm" />
		<tag k="ssr:stedsnr" v="248808" />
	</node>
	<node lat="60.23206111436415" lon="11.077663884980396" id="-31391">
		<tag k="name" v="Grasmo" />
		<tag k="place" v="farm" />
		<tag k="ssr:stedsnr" v="248831" />
	</node>
	<node lat="60.31393333355028" lon="10.9757555517567" id="-31395">
		<tag k="alt_name" v="Kjønstadseter" />
		<tag k="historic" v="shieling" />
		<tag k="name" v="Kjønstadsætra" />
		<tag k="place" v="isolated_dwelling" />
		<tag k="ssr:stedsnr" v="249236" />
	</node>
	<node lat="60.28532499990789" lon="11.025655546787213" id="-31397">
		<tag k="alt_name" v="Åsseter" />
		<tag k="historic" v="shieling" />
		<tag k="name" v="Åssætra" />
		<tag k="place" v="isolated_dwelling" />
		<tag k="ssr:stedsnr" v="249338" />
	</node>
	<node lat="60.292716763286" lon="11.080549241922686" id="-31400">
		<tag k="name" v="Tangen" />
		<tag k="place" v="farm" />
		<tag k="ssr:stedsnr" v="249343" />
	</node>
	<node lat="60.266288495526524" lon="10.998298176209314" id="-31401">
		<tag k="name" v="Åmot" />
		<tag k="place" v="farm" />
		<tag k="ssr:stedsnr" v="249654" />
	</node>
	<node lat="60.15119999959058" lon="10.926522226035939" id="-31402">
		<tag k="fixme" v="consider tourism=alpine_hut or tourism=chalet" />
		<tag k="name" v="Bekkestua" />
		<tag k="ssr:stedsnr" v="187721" />
		<tag k="tourism" v="wilderness_hut" />
	</node>
	<node lat="60.18088879537553" lon="10.997609649736729" id="-31403">
		<tag k="name" v="Lerberghaugen" />
		<tag k="place" v="locality" />
		<tag k="ssr:stedsnr" v="187775" />
	</node>
	<node lat="60.18498055894339" lon="11.00717777871449" id="-31404">
		<tag k="alt_name" v="Ånåsruddalen" />
		<tag k="name" v="Ånesruddalen" />
		<tag k="place" v="farm" />
		<tag k="ssr:stedsnr" v="187777" />
	</node>
	<node lat="60.194444408413446" lon="11.001521891165167" id="-31405">
		<tag k="name" v="Hynne" />
		<tag k="place" v="farm" />
		<tag k="ssr:stedsnr" v="187780" />
	</node>
	<node lat="60.19161389120063" lon="11.020894442976378" id="-31406">
		<tag k="alt_name" v="Nygård" />
		<tag k="name" v="Nygard" />
		<tag k="place" v="farm" />
		<tag k="ssr:stedsnr" v="187787" />
	</node>
	<node lat="60.18424166662127" lon="11.058572220618137" id="-31407">
		<tag k="name" v="Rutholen" />
		<tag k="place" v="farm" />
		<tag k="ssr:stedsnr" v="187791" />
	</node>
	<node lat="60.22570000127833" lon="10.937963891719882" id="-31408">
		<tag k="name" v="Søgardshytta" />
		<tag k="place" v="isolated_dwelling" />
		<tag k="ssr:stedsnr" v="187795" />
	</node>
	<node lat="60.24229999908117" lon="10.867283337478876" id="-31410">
		<tag k="name" v="Nordbyvangen" />
		<tag k="place" v="locality" />
		<tag k="ssr:stedsnr" v="187820" />
	</node>
	<node lat="60.32707499743856" lon="10.989752780769892" id="-31412">
		<tag k="alt_name" v="Skjennumseter" />
		<tag k="name" v="Skjennumsætra" />
		<tag k="place" v="locality" />
		<tag k="ssr:stedsnr" v="188287" />
	</node>
	<node lat="60.27565322873929" lon="11.064921216129392" id="-31413">
		<tag k="name" v="Østli" />
		<tag k="place" v="farm" />
		<tag k="ssr:stedsnr" v="188367" />
	</node>
	<node lat="60.285787371164" lon="11.085271170352778" id="-31414">
		<tag k="name" v="Nordbyvik" />
		<tag k="place" v="farm" />
		<tag k="ssr:stedsnr" v="188379" />
	</node>
	<node lat="60.213177781270666" lon="10.955569451611549" id="-31417">
		<tag k="name" v="Melbybyen" />
		<tag k="place" v="hamlet" />
		<tag k="ssr:stedsnr" v="188885" />
	</node>
	<node lat="60.21812680801282" lon="10.983558247961204" id="-31418">
		<tag k="alt_name" v="Kakserud" />
		<tag k="name" v="Kaksrud" />
		<tag k="place" v="farm" />
		<tag k="ssr:stedsnr" v="188888" />
	</node>
	<node lat="60.216349999135296" lon="11.01086388990586" id="-31425">
		<tag k="amenity" v="townhall" />
		<tag k="name" v="Kommunehus" />
		<tag k="ssr:stedsnr" v="205314" />
	</node>
	<node lat="60.19883611537944" lon="10.924475003311128" id="-31427">
		<tag k="name" v="Storheia" />
		<tag k="place" v="isolated_dwelling" />
		<tag k="ssr:stedsnr" v="205055" />
	</node>
	<node lat="60.171494444763574" lon="10.995286114164822" id="-31429">
		<tag k="amenity" v="school" />
		<tag k="name" v="Kringler-Slattum skole" />
		<tag k="ssr:stedsnr" v="205213" />
	</node>
	<node lat="60.24039722309031" lon="10.939027776172841" id="-31434">
		<tag k="name" v="Låverudshytta" />
		<tag k="place" v="isolated_dwelling" />
		<tag k="ssr:stedsnr" v="205407" />
	</node>
	<node lat="60.248891140608514" lon="10.997692944444838" id="-31437">
		<tag k="alt_name" v="Nordre Døli" />
		<tag k="name" v="Døli" />
		<tag k="place" v="farm" />
		<tag k="ssr:stedsnr" v="205496" />
	</node>
	<node lat="60.2525400118874" lon="10.99875328403131" id="-31438">
		<tag k="name" v="Lauum" />
		<tag k="place" v="farm" />
		<tag k="ssr:stedsnr" v="205498" />
	</node>
	<node lat="60.169952775886046" lon="11.034202769784205" id="-31447">
		<tag k="alt_name" v="Rudsletta" />
		<tag k="name" v="Sletta" />
		<tag k="place" v="farm" />
		<tag k="ssr:stedsnr" v="248724" />
	</node>
	<node lat="60.127777690997654" lon="11.020506865361334" id="-31448">
		<tag k="name" v="Solheim" />
		<tag k="place" v="locality" />
		<tag k="ssr:stedsnr" v="248668" />
	</node>
	<node lat="60.12604968997764" lon="11.03245068439923" id="-31449">
		<tag k="name" v="Nordre Grani" />
		<tag k="place" v="farm" />
		<tag k="ssr:stedsnr" v="248669" />
	</node>
	<node lat="60.17682962363459" lon="11.00325575894806" id="-31450">
		<tag k="name" v="Nedre Nordby" />
		<tag k="place" v="farm" />
		<tag k="ssr:stedsnr" v="248802" />
	</node>
	<node lat="60.19145264867316" lon="11.029354703928352" id="-31451">
		<tag k="name" v="Vestre Engelstad" />
		<tag k="place" v="farm" />
		<tag k="ssr:stedsnr" v="248815" />
	</node>
	<node lat="60.194812048696" lon="11.035701454576063" id="-31452">
		<tag k="name" v="Nedre Engelstad" />
		<tag k="place" v="farm" />
		<tag k="ssr:stedsnr" v="248816" />
	</node>
	<node lat="60.213136110435286" lon="11.043158338129961" id="-31453">
		<tag k="name" v="Bjørnsrud" />
		<tag k="place" v="farm" />
		<tag k="ssr:stedsnr" v="248862" />
	</node>
	<node lat="60.224930558596746" lon="11.051727774246968" id="-31454">
		<tag k="alt_name" v="Rydding" />
		<tag k="name" v="Rydningen" />
		<tag k="place" v="farm" />
		<tag k="ssr:stedsnr" v="248871" />
	</node>
	<node lat="60.21816337840471" lon="10.965192556295493" id="-31456">
		<tag k="name" v="Eskerud" />
		<tag k="place" v="farm" />
		<tag k="ssr:stedsnr" v="248879" />
	</node>
	<node lat="60.246386111807176" lon="11.05878054760235" id="-31457">
		<tag k="name" v="Kopperudstua" />
		<tag k="place" v="isolated_dwelling" />
		<tag k="ssr:stedsnr" v="248921" />
	</node>
	<node lat="60.26825555511484" lon="11.005552784635771" id="-31458">
		<tag k="name" v="Åsheim" />
		<tag k="place" v="farm" />
		<tag k="ssr:stedsnr" v="249315" />
	</node>
	<node lat="60.26938874667239" lon="10.985749693882271" id="-31459">
		<tag k="name" v="Bekkedal" />
		<tag k="place" v="farm" />
		<tag k="ssr:stedsnr" v="249316" />
	</node>
	<node lat="60.28077777979828" lon="11.087974993457697" id="-31460">
		<tag k="loc_name" v="Stensgård" />
		<tag k="name" v="Steinsgård" />
		<tag k="place" v="farm" />
		<tag k="ssr:stedsnr" v="249320" />
	</node>
	<node lat="60.28183055696809" lon="10.935163887039378" id="-31461">
		<tag k="historic" v="shieling" />
		<tag k="name" v="Vålaugsætra" />
		<tag k="place" v="isolated_dwelling" />
		<tag k="ssr:stedsnr" v="249332" />
	</node>
	<node lat="60.250058333562585" lon="11.031525003814941" id="-31462">
		<tag k="name" v="Lystad" />
		<tag k="place" v="farm" />
		<tag k="ssr:stedsnr" v="249349" />
	</node>
	<node lat="60.264200004345994" lon="10.919724996920108" id="-31463">
		<tag k="alt_name" v="Vollaugseter" />
		<tag k="historic" v="shieling" />
		<tag k="name" v="Vålaugsætra" />
		<tag k="place" v="isolated_dwelling" />
		<tag k="ssr:stedsnr" v="249373" />
	</node>
	<node lat="60.17096110739187" lon="11.052963882263818" id="-31469">
		<tag k="name" v="Lyshaug" />
		<tag k="place" v="farm" />
		<tag k="ssr:stedsnr" v="448221" />
	</node>
	<node lat="60.23140833126658" lon="10.930522217687203" id="-31471">
		<tag k="name" v="Elbekkhytta" />
		<tag k="place" v="isolated_dwelling" />
		<tag k="ssr:stedsnr" v="448342" />
	</node>
	<node lat="60.21079444782709" lon="10.970377770501708" id="-31473">
		<tag k="name" v="Østre Melby" />
		<tag k="place" v="farm" />
		<tag k="ssr:stedsnr" v="448326" />
	</node>
	<node lat="60.14246111300115" lon="11.050680548145753" id="-31474">
		<tag k="name" v="Sand" />
		<tag k="place" v="farm" />
		<tag k="ssr:stedsnr" v="265073" />
	</node>
	<node lat="60.13925278013043" lon="11.051622227218447" id="-31475">
		<tag k="name" v="Dalbu" />
		<tag k="place" v="farm" />
		<tag k="ssr:stedsnr" v="265076" />
	</node>
	<node lat="60.18056388951057" lon="10.918147223969344" id="-31477">
		<tag k="name" v="Grimstjernhytta" />
		<tag k="place" v="isolated_dwelling" />
		<tag k="ssr:stedsnr" v="448055" />
	</node>
	<node lat="60.28369749719228" lon="11.082497896778866" id="-31479">
		<tag k="name" v="Løvstad" />
		<tag k="place" v="farm" />
		<tag k="ssr:stedsnr" v="265161" />
	</node>
	<node lat="60.28043889344967" lon="11.068683326545594" id="-31480">
		<tag k="name" v="Østlihaugen" />
		<tag k="place" v="farm" />
		<tag k="ssr:stedsnr" v="265162" />
	</node>
	<node lat="60.283375001620676" lon="11.071427777398737" id="-31481">
		<tag k="name" v="Pettersbråtan" />
		<tag k="place" v="farm" />
		<tag k="ssr:stedsnr" v="265163" />
	</node>
	<node lat="60.28883333175905" lon="11.068141671787801" id="-31482">
		<tag k="name" v="Viksmarka" />
		<tag k="place" v="locality" />
		<tag k="ssr:stedsnr" v="265173" />
	</node>
	<node lat="60.13653333651612" lon="11.040563886222508" id="-31485">
		<tag k="name" v="Østre Elton" />
		<tag k="place" v="farm" />
		<tag k="ssr:stedsnr" v="448074" />
	</node>
	<node lat="60.25700277962107" lon="11.012827780683425" id="-31486">
		<tag k="name" v="Morud" />
		<tag k="place" v="farm" />
		<tag k="ssr:stedsnr" v="448147" />
	</node>
	<node lat="60.24670567658298" lon="11.016547859728664" id="-31487">
		<tag k="name" v="Åmål" />
		<tag k="place" v="farm" />
		<tag k="ssr:stedsnr" v="448149" />
	</node>
	<node lat="60.177052774211376" lon="11.020161103975006" id="-31488">
		<tag k="name" v="Vassengen" />
		<tag k="place" v="farm" />
		<tag k="ssr:stedsnr" v="265301" />
	</node>
	<node lat="60.25293611296907" lon="11.036972220227524" id="-31489">
		<tag k="name" v="Sameia" />
		<tag k="place" v="locality" />
		<tag k="ssr:stedsnr" v="448153" />
	</node>
	<node lat="60.25409038991124" lon="11.027230841027057" id="-31490">
		<tag k="name" v="Solheim" />
		<tag k="place" v="farm" />
		<tag k="ssr:stedsnr" v="448155" />
	</node>
	<node lat="60.269647225758476" lon="11.096233324771125" id="-31491">
		<tag k="name" v="Midtre Sundby" />
		<tag k="place" v="farm" />
		<tag k="ssr:stedsnr" v="448163" />
	</node>
	<node lat="60.270126663199726" lon="11.098211057810465" id="-31492">
		<tag k="name" v="Nedre Sundby" />
		<tag k="place" v="farm" />
		<tag k="ssr:stedsnr" v="448169" />
	</node>
	<node lat="60.309608336422336" lon="10.94266665946622" id="-31498">
		<tag k="name" v="Hegglistua" />
		<tag k="place" v="isolated_dwelling" />
		<tag k="ssr:stedsnr" v="448258" />
	</node>
	<node lat="60.16934301571967" lon="11.022289188202146" id="-31502">
		<tag k="name" v="Østre Austad" />
		<tag k="place" v="farm" />
		<tag k="ssr:stedsnr" v="266207" />
	</node>
	<node lat="60.17550038078858" lon="11.0429280768514" id="-31504">
		<tag k="name" v="Vestre Ukustad" />
		<tag k="place" v="farm" />
		<tag k="ssr:stedsnr" v="266215" />
	</node>
	<node lat="60.23616110838294" lon="10.85494166895828" id="-31506">
		<tag k="fixme" v="consider tourism=alpine_hut or tourism=chalet" />
		<tag k="name" v="Råbjørnhytta" />
		<tag k="ssr:stedsnr" v="448354" />
		<tag k="tourism" v="wilderness_hut" />
	</node>
	<node lat="60.25119005733572" lon="11.060804097173657" id="-31508">
		<tag k="name" v="Kopperud" />
		<tag k="place" v="farm" />
		<tag k="ssr:stedsnr" v="266158" />
	</node>
	<node lat="60.22676944042649" lon="11.08466666215028" id="-31510">
		<tag k="name" v="Lillemo" />
		<tag k="place" v="locality" />
		<tag k="ssr:stedsnr" v="266355" />
	</node>
	<node lat="60.231972223617056" lon="11.080477778121356" id="-31511">
		<tag k="name" v="Grasmogrenda" />
		<tag k="place" v="hamlet" />
		<tag k="ssr:stedsnr" v="266357" />
	</node>
	<node lat="60.26186388927464" lon="11.070675004344707" id="-31512">
		<tag k="name" v="Myrhaug" />
		<tag k="place" v="farm" />
		<tag k="ssr:stedsnr" v="266361" />
	</node>
	<node lat="60.28562777619829" lon="11.032658327343611" id="-31519">
		<tag k="name" v="Larsbakkenga" />
		<tag k="place" v="isolated_dwelling" />
		<tag k="ssr:stedsnr" v="266462" />
	</node>
	<node lat="60.29978055685981" lon="10.97312777553411" id="-31520">
		<tag k="name" v="Eivindshytta" />
		<tag k="place" v="isolated_dwelling" />
		<tag k="ssr:stedsnr" v="448526" />
	</node>
	<node lat="60.2433916206122" lon="10.936129417077245" id="-31522">
		<tag k="name" v="Hokringlesætra" />
		<tag k="place" v="locality" />
		<tag k="ssr:stedsnr" v="451919" />
	</node>
	<node lat="60.20361389326993" lon="11.070288889337897" id="-31529">
		<tag k="leisure" v="pitch" />
		<tag k="name" v="Ridebane" />
		<tag k="ssr:stedsnr" v="308757" />
	</node>
	<node lat="60.21065190330946" lon="11.028503968802253" id="-31530">
		<tag k="alt_name" v="Engelsrud" />
		<tag k="name" v="Ingelsrud" />
		<tag k="place" v="farm" />
		<tag k="ssr:stedsnr" v="308761" />
	</node>
	<node lat="60.20254166371285" lon="10.95287499349403" id="-31531">
		<tag k="name" v="Røtterudmoen" />
		<tag k="place" v="farm" />
		<tag k="ssr:stedsnr" v="308771" />
	</node>
	<node lat="60.24370471269463" lon="10.98210600361552" id="-31532">
		<tag k="name" v="Vestre Økri" />
		<tag k="old_name" v="Økrisletta" />
		<tag k="place" v="farm" />
		<tag k="ssr:stedsnr" v="308913" />
	</node>
	<node lat="60.33432500093065" lon="11.018783332064695" id="-31534">
		<tag k="alt_name" v="Seterløkka" />
		<tag k="name" v="Sæterlykkja" />
		<tag k="place" v="farm" />
		<tag k="ssr:stedsnr" v="309314" />
	</node>
	<node lat="60.144430376807016" lon="11.042434740437463" id="-31536">
		<tag k="name" v="Vestlykkja" />
		<tag k="place" v="hamlet" />
		<tag k="ssr:stedsnr" v="309654" />
	</node>
	<node lat="60.25372500413372" lon="11.03995000033175" id="-31543">
		<tag k="name" v="Sørli" />
		<tag k="place" v="farm" />
		<tag k="ssr:stedsnr" v="310351" />
	</node>
	<node lat="60.25002500018955" lon="11.024650005744148" id="-31544">
		<tag k="name" v="Senstad" />
		<tag k="place" v="farm" />
		<tag k="ssr:stedsnr" v="310353" />
	</node>
	<node lat="60.14851666722252" lon="11.065699993806174" id="-31546">
		<tag k="name" v="Skogheim" />
		<tag k="place" v="isolated_dwelling" />
		<tag k="ssr:stedsnr" v="326018" />
	</node>
	<node lat="60.218441668026685" lon="11.076944441259966" id="-31548">
		<tag k="building" v="industrial" />
		<tag k="industrial" v="factory" />
		<tag k="name" v="Seter meieri" />
		<tag k="ssr:stedsnr" v="326140" />
	</node>
	<node lat="60.228124997572905" lon="10.918158332033846" id="-31551">
		<tag k="name" v="Lundehytta" />
		<tag k="place" v="isolated_dwelling" />
		<tag k="ssr:stedsnr" v="326328" />
	</node>
	<node lat="60.15561556516691" lon="11.020608882896514" id="-31556">
		<tag k="alt_name" v="Trugstad" />
		<tag k="name" v="Østre Trugstad" />
		<tag k="place" v="farm" />
		<tag k="ssr:stedsnr" v="326214" />
	</node>
	<node lat="60.17033358894552" lon="11.017146844722552" id="-31558">
		<tag k="name" v="Vestre Austad" />
		<tag k="place" v="farm" />
		<tag k="ssr:stedsnr" v="326217" />
	</node>
	<node lat="60.23328611228553" lon="10.9669361029231" id="-31560">
		<tag k="name" v="Jutulhytta" />
		<tag k="place" v="isolated_dwelling" />
		<tag k="ssr:stedsnr" v="326272" />
	</node>
	<node lat="60.116389523273796" lon="11.038066706966372" id="-31567">
		<tag k="name" v="Finstad" />
		<tag k="place" v="farm" />
		<tag k="ssr:stedsnr" v="369507" />
	</node>
	<node lat="60.147158332660815" lon="11.008186102603624" id="-31569">
		<tag k="name" v="Trugstadsletta" />
		<tag k="place" v="farm" />
		<tag k="ssr:stedsnr" v="369584" />
	</node>
	<node lat="60.132894628792435" lon="11.072473969656185" id="-31572">
		<tag k="name" v="Eset" />
		<tag k="place" v="farm" />
		<tag k="ssr:stedsnr" v="369597" />
	</node>
	<node lat="60.136597899113994" lon="11.037001462314288" id="-31573">
		<tag k="name" v="Elton" />
		<tag k="place" v="farm" />
		<tag k="ssr:stedsnr" v="369604" />
	</node>
	<node lat="60.12273111769733" lon="11.03390135646732" id="-31576">
		<tag k="name" v="Søndre Grani" />
		<tag k="place" v="farm" />
		<tag k="ssr:stedsnr" v="369612" />
	</node>
	<node lat="60.24902499615681" lon="11.062416671116052" id="-31583">
		<tag k="alt_name" v="Lundgård" />
		<tag k="name" v="Lundgard" />
		<tag k="place" v="farm" />
		<tag k="ssr:stedsnr" v="369907" />
	</node>
	<node lat="60.333349999440976" lon="11.020136115913257" id="-31587">
		<tag k="name" v="Bjørkeli" />
		<tag k="place" v="isolated_dwelling" />
		<tag k="ssr:stedsnr" v="370324" />
	</node>
	<node lat="60.26710693769991" lon="11.035808947421476" id="-31589">
		<tag k="name" v="Holkeby" />
		<tag k="place" v="farm" />
		<tag k="ssr:stedsnr" v="370373" />
	</node>
	<node lat="60.27920000333011" lon="10.871600007566482" id="-31591">
		<tag k="name" v="Stråtjernstua" />
		<tag k="place" v="isolated_dwelling" />
		<tag k="ssr:stedsnr" v="370385" />
	</node>
	<node lat="60.253228719364685" lon="10.843429834792913" id="-31592">
		<tag k="alt_name" v="Engelsrudseter" />
		<tag k="historic" v="shieling" />
		<tag k="name" v="Ingelsrudsætra" />
		<tag k="place" v="isolated_dwelling" />
		<tag k="ssr:stedsnr" v="370408" />
	</node>
	<node lat="60.26536038226406" lon="10.97127441319178" id="-31593">
		<tag k="name" v="Flod" />
		<tag k="place" v="farm" />
		<tag k="ssr:stedsnr" v="370411" />
	</node>
	<node lat="60.21911944350624" lon="11.079333324554518" id="-31596">
		<tag k="name" v="Moholt" />
		<tag k="place" v="farm" />
		<tag k="ssr:stedsnr" v="387169" />
	</node>
	<node lat="60.15245137552099" lon="11.025585092038959" id="-31600">
		<tag k="name" v="Søndre Erpestad" />
		<tag k="place" v="farm" />
		<tag k="ssr:stedsnr" v="387080" />
	</node>
	<node lat="60.17107468752052" lon="10.984090787128558" id="-31602">
		<tag k="name" v="Slattumhagen" />
		<tag k="place" v="locality" />
		<tag k="ssr:stedsnr" v="387208" />
	</node>
	<node lat="60.15813827116304" lon="10.999597941395885" id="-31605">
		<tag k="name" v="Berget" />
		<tag k="place" v="farm" />
		<tag k="ssr:stedsnr" v="387215" />
	</node>
	<node lat="60.17352222171276" lon="10.991772226164896" id="-31606">
		<tag k="name" v="Slattumsflaen" />
		<tag k="place" v="farm" />
		<tag k="ssr:stedsnr" v="387217" />
	</node>
	<node lat="60.27033611484185" lon="10.986149995738193" id="-31617">
		<tag k="name" v="Skogheim" />
		<tag k="place" v="farm" />
		<tag k="ssr:stedsnr" v="387468" />
	</node>
	<node lat="60.26434166941602" lon="11.035944446097265" id="-31618">
		<tag k="name" v="Holkebylia" />
		<tag k="place" v="neighbourhood" />
		<tag k="ssr:stedsnr" v="387473" />
	</node>
	<node lat="60.230441670663474" lon="11.066400006845313" id="-31621">
		<tag k="name" v="Steinsrud" />
		<tag k="place" v="farm" />
		<tag k="ssr:stedsnr" v="430805" />
	</node>
	<node lat="60.224699998834495" lon="11.005813879973283" id="-31624">
		<tag k="alt_name" v="Bahus" />
		<tag k="name" v="Båhus" />
		<tag k="place" v="farm" />
		<tag k="ssr:stedsnr" v="430817" />
	</node>
	<node lat="60.24750277651721" lon="11.083480551796836" id="-31625">
		<tag k="alt_name" v="Lybekkbråten" />
		<tag k="name" v="Lybekkbråtan" />
		<tag k="place" v="farm" />
		<tag k="ssr:stedsnr" v="430825" />
	</node>
	<node lat="60.205702780195644" lon="11.044086119844692" id="-31626">
		<tag k="name" v="Østbråtan" />
		<tag k="place" v="farm" />
		<tag k="ssr:stedsnr" v="430762" />
	</node>
	<node lat="60.24742777767125" lon="10.995194446830439" id="-31627">
		<tag k="name" v="Vestre Økri" />
		<tag k="old_name" v="Låverud" />
		<tag k="place" v="farm" />
		<tag k="ssr:stedsnr" v="430913" />
	</node>
	<node lat="60.24783268683893" lon="11.010470495027702" id="-31628">
		<tag k="name" v="Rud" />
		<tag k="place" v="farm" />
		<tag k="ssr:stedsnr" v="430917" />
	</node>
	<node lat="60.25184177854745" lon="11.059949157028532" id="-31632">
		<tag k="name" v="Granholt" />
		<tag k="place" v="farm" />
		<tag k="ssr:stedsnr" v="431426" />
	</node>
	<node lat="60.13460570326409" lon="11.059889971567914" id="-31634">
		<tag k="alt_name" v="Brustad" />
		<tag k="name" v="Brøstad" />
		<tag k="place" v="farm" />
		<tag k="ssr:stedsnr" v="478662" />
	</node>
	<node lat="60.17201300793754" lon="10.989216032910424" id="-31643">
		<tag k="name" v="Slattum" />
		<tag k="place" v="farm" />
		<tag k="ssr:stedsnr" v="448214" />
	</node>
	<node lat="60.245441662675965" lon="10.93250555755965" id="-31645">
		<tag k="name" v="Eggumhytta" />
		<tag k="place" v="isolated_dwelling" />
		<tag k="ssr:stedsnr" v="448237" />
	</node>
	<node lat="60.19802919586506" lon="10.995885051497993" id="-31648">
		<tag k="name" v="Homle" />
		<tag k="place" v="farm" />
		<tag k="ssr:stedsnr" v="448296" />
	</node>
	<node lat="60.22541388816639" lon="10.94125556282231" id="-31650">
		<tag k="name" v="Eskerudhytta" />
		<tag k="place" v="isolated_dwelling" />
		<tag k="ssr:stedsnr" v="448339" />
	</node>
	<node lat="60.12513156110108" lon="11.031546919466313" id="-31658">
		<tag k="name" v="Grani" />
		<tag k="place" v="farm" />
		<tag k="ssr:stedsnr" v="662874" />
	</node>
	<node lat="60.16027499807727" lon="11.019816661836117" id="-31660">
		<tag k="alt_name" v="Østre Trugstad" />
		<tag k="name" v="Trugstadlykkja" />
		<tag k="place" v="farm" />
		<tag k="ssr:stedsnr" v="490746" />
	</node>
	<node lat="60.188811389136056" lon="10.990398250991987" id="-31661">
		<tag k="name" v="Årstad" />
		<tag k="place" v="farm" />
		<tag k="ssr:stedsnr" v="490799" />
	</node>
	<node lat="60.242410608408576" lon="11.006401645312817" id="-31667">
		<tag k="name" v="Hol" />
		<tag k="place" v="farm" />
		<tag k="ssr:stedsnr" v="490900" />
	</node>
	<node lat="60.29602398033596" lon="11.061958492816293" id="-31668">
		<tag k="name" v="Tømte" />
		<tag k="place" v="farm" />
		<tag k="ssr:stedsnr" v="491303" />
	</node>
	<node lat="60.26982500192661" lon="10.996375007863847" id="-31670">
		<tag k="name" v="Åmot" />
		<tag k="place" v="farm" />
		<tag k="ssr:stedsnr" v="491333" />
	</node>
	<node lat="60.33487407015791" lon="11.0291617130099" id="-31671">
		<tag k="name" v="Østvoll" />
		<tag k="place" v="farm" />
		<tag k="ssr:stedsnr" v="491287" />
	</node>
	<node lat="60.2258763204338" lon="10.97796490805713" id="-31675">
		<tag k="alt_name" v="Kringler, søndre" />
		<tag k="name" v="Søndre Kringler" />
		<tag k="place" v="farm" />
		<tag k="ssr:stedsnr" v="491816" />
	</node>
	<node lat="60.23391245355191" lon="10.983731209800482" id="-31676">
		<tag k="alt_name" v="Kringler, nordre" />
		<tag k="name" v="Nordre Kringler" />
		<tag k="place" v="farm" />
		<tag k="ssr:stedsnr" v="491832" />
	</node>
	<node lat="60.21708084640443" lon="11.03448460226645" id="-31677">
		<tag k="alt_name" v="Engelsrudhagan" />
		<tag k="name" v="Ingelsrudhagen" />
		<tag k="place" v="farm" />
		<tag k="ssr:stedsnr" v="491835" />
	</node>
	<node lat="60.22146788032212" lon="11.08055414479099" id="-31678">
		<tag k="name" v="Moreppen" />
		<tag k="place" v="hamlet" />
		<tag k="ssr:stedsnr" v="491838" />
	</node>
	<node lat="60.25487499900446" lon="11.046799992616732" id="-31680">
		<tag k="name" v="Årvoll" />
		<tag k="place" v="farm" />
		<tag k="ssr:stedsnr" v="492332" />
	</node>
	<node lat="60.195033335853765" lon="11.022413891183453" id="-31684">
		<tag k="name" v="Vestenga" />
		<tag k="place" v="farm" />
		<tag k="ssr:stedsnr" v="508275" />
	</node>
	<node lat="60.20330833268585" lon="11.030494440863212" id="-31687">
		<tag k="name" v="Bjørk" />
		<tag k="place" v="farm" />
		<tag k="ssr:stedsnr" v="508289" />
	</node>
	<node lat="60.1928333309564" lon="10.966691670573661" id="-31694">
		<tag k="name" v="Gjerdingen" />
		<tag k="place" v="isolated_dwelling" />
		<tag k="ssr:stedsnr" v="508186" />
	</node>
	<node lat="60.224527773305745" lon="11.063100000821402" id="-31699">
		<tag k="name" v="Myrvoll" />
		<tag k="place" v="isolated_dwelling" />
		<tag k="ssr:stedsnr" v="509278" />
	</node>
	<node lat="60.199283538334186" lon="11.034359946587447" id="-31700">
		<tag k="name" v="Enger" />
		<tag k="place" v="farm" />
		<tag k="ssr:stedsnr" v="672746" />
	</node>
	<node lat="60.20981164249376" lon="11.040838139105755" id="-31701">
		<tag k="loc_name" v="Gropa" />
		<tag k="name" v="Bidslergropa" />
		<tag k="old_name" v="Bislergropa" />
		<tag k="place" v="farm" />
		<tag k="ssr:stedsnr" v="672764" />
	</node>
	<node lat="60.321225003167044" lon="10.983855560794202" id="-31703">
		<tag k="name" v="Kjønstadlistua" />
		<tag k="place" v="isolated_dwelling" />
		<tag k="ssr:stedsnr" v="673293" />
	</node>
	<node lat="60.334973083133896" lon="11.035207705136592" id="-31704">
		<tag k="name" v="Holtet" />
		<tag k="place" v="farm" />
		<tag k="ssr:stedsnr" v="673294" />
	</node>
	<node lat="60.31098250238709" lon="10.889095927240497" id="-31706">
		<tag k="name" v="Damstua" />
		<tag k="place" v="isolated_dwelling" />
		<tag k="ssr:stedsnr" v="673335" />
	</node>
	<node lat="60.27095000311716" lon="10.998625002000765" id="-31707">
		<tag k="name" v="Orli" />
		<tag k="place" v="farm" />
		<tag k="ssr:stedsnr" v="673340" />
	</node>
	<node lat="60.2696749990334" lon="11.024977783862473" id="-31708">
		<tag k="name" v="Solbakken" />
		<tag k="place" v="farm" />
		<tag k="ssr:stedsnr" v="673348" />
	</node>
	<node lat="60.28035555935196" lon="10.991777775963" id="-31709">
		<tag k="name" v="Buråsstua" />
		<tag k="place" v="isolated_dwelling" />
		<tag k="ssr:stedsnr" v="673358" />
	</node>
	<node lat="60.10909999667863" lon="11.015574999399437" id="-31710">
		<tag k="name" v="Finstad" />
		<tag k="place" v="farm" />
		<tag k="ssr:stedsnr" v="673590" />
	</node>
	<node lat="60.11162666273724" lon="11.027713127282365" id="-31711">
		<tag k="name" v="Sundby" />
		<tag k="place" v="farm" />
		<tag k="ssr:stedsnr" v="673593" />
	</node>
	<node lat="60.14211186371946" lon="11.02362455915431" id="-31712">
		<tag k="name" v="Harstad" />
		<tag k="place" v="farm" />
		<tag k="ssr:stedsnr" v="673650" />
	</node>
	<node lat="60.15129028581481" lon="11.004045054333732" id="-31715">
		<tag k="name" v="Trugstadholtet" />
		<tag k="place" v="isolated_dwelling" />
		<tag k="ssr:stedsnr" v="673736" />
	</node>
	<node lat="60.214063886849665" lon="11.007691668805991" id="-31719">
		<tag k="name" v="Ile" />
		<tag k="place" v="farm" />
		<tag k="ssr:stedsnr" v="673851" />
	</node>
	<node lat="60.21501388642079" lon="10.924458332772026" id="-31720">
		<tag k="name" v="Melbysætra" />
		<tag k="place" v="farm" />
		<tag k="ssr:stedsnr" v="673876" />
	</node>
	<node lat="60.292230239214334" lon="11.0471396065489" id="-31722">
		<tag k="name" v="Viksvangen" />
		<tag k="place" v="farm" />
		<tag k="ssr:stedsnr" v="674276" />
	</node>
	<node lat="60.254150001798074" lon="11.01052500777899" id="-31723">
		<tag k="alt_name" v="Breen, nordre" />
		<tag k="name" v="Nordre Breen" />
		<tag k="place" v="farm" />
		<tag k="ssr:stedsnr" v="674333" />
	</node>
	<node lat="60.26053333517986" lon="11.08077499302685" id="-31724">
		<tag k="name" v="Grønvoll" />
		<tag k="place" v="farm" />
		<tag k="ssr:stedsnr" v="674339" />
	</node>
	<node lat="60.26519166228433" lon="11.013308341995419" id="-31725">
		<tag k="name" v="Grani" />
		<tag k="old_name" v="Granli" />
		<tag k="place" v="farm" />
		<tag k="ssr:stedsnr" v="674346" />
	</node>
	<node lat="60.261538679108405" lon="11.017452117560012" id="-31726">
		<tag k="name" v="Ås" />
		<tag k="place" v="farm" />
		<tag k="ssr:stedsnr" v="674349" />
	</node>
	<node lat="60.25104999756398" lon="11.042655559361878" id="-31727">
		<tag k="name" v="Grønli" />
		<tag k="place" v="farm" />
		<tag k="ssr:stedsnr" v="674374" />
	</node>
	<node lat="60.11191666746803" lon="11.051313895155484" id="-31728">
		<tag k="name" v="Kjærstad" />
		<tag k="place" v="farm" />
		<tag k="ssr:stedsnr" v="551402" />
	</node>
	<node lat="60.119107428200046" lon="11.064465185885716" id="-31729">
		<tag k="name" v="Låverud" />
		<tag k="place" v="farm" />
		<tag k="ssr:stedsnr" v="551560" />
	</node>
	<node lat="60.136515171286646" lon="11.011975225748838" id="-31730">
		<tag k="name" v="Bråten" />
		<tag k="place" v="farm" />
		<tag k="ssr:stedsnr" v="551647" />
	</node>
	<node lat="60.12993611245036" lon="11.059319449769315" id="-31731">
		<tag k="name" v="Hagamoen" />
		<tag k="place" v="neighbourhood" />
		<tag k="ssr:stedsnr" v="551652" />
	</node>
	<node lat="60.17106184324645" lon="11.020291027102061" id="-31732">
		<tag k="name" v="Austad" />
		<tag k="place" v="farm" />
		<tag k="ssr:stedsnr" v="551700" />
	</node>
	<node lat="60.176466667612274" lon="10.865613892963149" id="-31733">
		<tag k="name" v="Engelstadvangen" />
		<tag k="place" v="isolated_dwelling" />
		<tag k="ssr:stedsnr" v="551708" />
	</node>
	<node lat="60.23632734681839" lon="11.007174250722104" id="-31739">
		<tag k="alt_name" v="Bjørke" />
		<tag k="name" v="Nordre Bjørke" />
		<tag k="place" v="farm" />
		<tag k="ssr:stedsnr" v="551853" />
	</node>
	<node lat="60.23045114524981" lon="10.981534258460535" id="-31740">
		<tag k="alt_name" v="Hakringler" />
		<tag k="name" v="Hokringler" />
		<tag k="place" v="farm" />
		<tag k="ssr:stedsnr" v="551857" />
	</node>
	<node lat="60.20823055578657" lon="10.935708328374611" id="-31741">
		<tag k="name" v="Rustadholet" />
		<tag k="place" v="locality" />
		<tag k="ssr:stedsnr" v="551864" />
	</node>
	<node lat="60.26302500210847" lon="10.89204166086669" id="-31743">
		<tag k="name" v="Vombakkhytta" />
		<tag k="place" v="isolated_dwelling" />
		<tag k="ssr:stedsnr" v="552408" />
	</node>
	<node lat="60.26925000079636" lon="10.980544436972455" id="-31744">
		<tag k="alt_name" v="Borhaug" />
		<tag k="name" v="Bårhaug" />
		<tag k="place" v="farm" />
		<tag k="ssr:stedsnr" v="552350" />
	</node>
	<node lat="60.2755339892249" lon="10.992487876587003" id="-31746">
		<tag k="name" v="Burås" />
		<tag k="place" v="farm" />
		<tag k="ssr:stedsnr" v="552354" />
	</node>
	<node lat="60.1642888911456" lon="10.994380550555087" id="-31750">
		<tag k="name" v="Jonsborg" />
		<tag k="place" v="farm" />
		<tag k="ssr:stedsnr" v="568210" />
	</node>
	<node lat="60.11361666967132" lon="11.038130554945598" id="-31756">
		<tag k="name" v="Kjølberg" />
		<tag k="place" v="farm" />
		<tag k="ssr:stedsnr" v="568110" />
	</node>
	<node lat="60.2581249988144" lon="11.040127769715685" id="-31758">
		<tag k="amenity" v="school" />
		<tag k="name" v="Maura skole" />
		<tag k="ssr:stedsnr" v="568137" />
	</node>
	<node lat="60.2181138863218" lon="11.012827780923546" id="-31769">
		<tag k="amenity" v="school" />
		<tag k="name" v="Nannestad ungdomsskole" />
		<tag k="ssr:stedsnr" v="569281" />
	</node>
	<node lat="60.21196666467388" lon="11.031747221890573" id="-31770">
		<tag k="name" v="Oppengelsrud" />
		<tag k="place" v="farm" />
		<tag k="ssr:stedsnr" v="569283" />
	</node>
	<node lat="60.260094443059124" lon="11.081638891223081" id="-31775">
		<tag k="name" v="Snekkerstua" />
		<tag k="place" v="locality" />
		<tag k="ssr:stedsnr" v="569365" />
	</node>
	<node lat="60.2724999991159" lon="11.038552775687283" id="-31781">
		<tag k="name" v="Holkebyenga" />
		<tag k="place" v="isolated_dwelling" />
		<tag k="ssr:stedsnr" v="612389" />
	</node>
	<node lat="60.18767993528927" lon="11.035678564844021" id="-31787">
		<tag k="name" v="Rognan" />
		<tag k="place" v="isolated_dwelling" />
		<tag k="ssr:stedsnr" v="612804" />
	</node>
	<node lat="60.22904999901831" lon="11.035500008664963" id="-31789">
		<tag k="name" v="Fjellet" />
		<tag k="place" v="farm" />
		<tag k="ssr:stedsnr" v="612821" />
	</node>
	<node lat="60.24310218919904" lon="11.074321984628211" id="-31791">
		<tag k="name" v="Lybekk" />
		<tag k="place" v="farm" />
		<tag k="ssr:stedsnr" v="612829" />
	</node>
	<node lat="60.16802499642537" lon="11.025808334211423" id="-31792">
		<tag k="name" v="Romedal" />
		<tag k="place" v="farm" />
		<tag k="ssr:stedsnr" v="612723" />
	</node>
	<node lat="60.193333336215794" lon="10.912994442673634" id="-31797">
		<tag k="name" v="Færstadhytta" />
		<tag k="place" v="isolated_dwelling" />
		<tag k="ssr:stedsnr" v="690017" />
	</node>
	<node lat="60.29392778121224" lon="11.076130558761752" id="-31804">
		<tag k="name" v="Tangensvingen" />
		<tag k="place" v="farm" />
		<tag k="ssr:stedsnr" v="690171" />
	</node>
	<node lat="60.17379444459487" lon="10.985449992679223" id="-31805">
		<tag k="name" v="Fossum" />
		<tag k="place" v="farm" />
		<tag k="ssr:stedsnr" v="690221" />
	</node>
	<node lat="60.17107777717401" lon="11.042155549076142" id="-31807">
		<tag k="name" v="Søndre Rud" />
		<tag k="place" v="farm" />
		<tag k="ssr:stedsnr" v="690248" />
	</node>
	<node lat="60.20355833510088" lon="11.02808055255161" id="-31814">
		<tag k="name" v="Myreng" />
		<tag k="place" v="locality" />
		<tag k="ssr:stedsnr" v="690323" />
	</node>
	<node lat="60.257754892897005" lon="11.069732792023604" id="-31816">
		<tag k="name" v="Myrhaug" />
		<tag k="place" v="farm" />
		<tag k="ssr:stedsnr" v="690424" />
	</node>
	<node lat="60.12584999951719" lon="11.074047216046829" id="-31820">
		<tag k="name" v="Vestre Foss" />
		<tag k="place" v="farm" />
		<tag k="ssr:stedsnr" v="629004" />
	</node>
	<node lat="60.11935277842714" lon="11.029122226943034" id="-31821">
		<tag k="name" v="Ødegården" />
		<tag k="place" v="farm" />
		<tag k="ssr:stedsnr" v="629108" />
	</node>
	<node lat="60.1727416653698" lon="11.028605546496165" id="-31829">
		<tag k="name" v="Ukustad meieri" />
		<tag k="place" v="locality" />
		<tag k="ssr:stedsnr" v="629207" />
	</node>
	<node lat="60.25480555281684" lon="10.942211117266595" id="-31830">
		<tag k="name" v="Midtskigarden" />
		<tag k="place" v="locality" />
		<tag k="ssr:stedsnr" v="629220" />
	</node>
	<node lat="60.189680558916336" lon="11.020094446938561" id="-31833">
		<tag k="name" v="Senepsrud" />
		<tag k="place" v="farm" />
		<tag k="ssr:stedsnr" v="629268" />
	</node>
	<node lat="60.132305578739405" lon="11.033224049302817" id="-31849">
		<tag k="alt_name" v="Gangfløt" />
		<tag k="name" v="Gangfløtt" />
		<tag k="place" v="farm" />
		<tag k="ssr:stedsnr" v="672624" />
	</node>
	<node lat="60.15280833570068" lon="10.90981666789694" id="-31851">
		<tag k="name" v="Erpestadvangen" />
		<tag k="place" v="isolated_dwelling" />
		<tag k="ssr:stedsnr" v="672712" />
	</node>
	<node lat="60.19954143261926" lon="10.96539989175769" id="-31854">
		<tag k="name" v="Røtterud" />
		<tag k="place" v="farm" />
		<tag k="ssr:stedsnr" v="672770" />
	</node>
	<node lat="60.204994942753885" lon="10.835920428966308" id="-31855">
		<tag k="alt_name" v="Råsjøplassen" />
		<tag k="name" v="Råsjøen" />
		<tag k="place" v="farm" />
		<tag k="ssr:stedsnr" v="672772" />
	</node>
	<node lat="60.28869999925811" lon="11.085899999145045" id="-31857">
		<tag k="name" v="Sjøvoll" />
		<tag k="place" v="farm" />
		<tag k="ssr:stedsnr" v="673365" />
	</node>
	<node lat="60.18373333730693" lon="10.987408327230062" id="-31860">
		<tag k="name" v="Kåråsen" />
		<tag k="place" v="farm" />
		<tag k="ssr:stedsnr" v="673770" />
	</node>
	<node lat="60.240393965515544" lon="10.98580891641842" id="-31861">
		<tag k="alt_name" v="Grindaker" />
		<tag k="name" v="Grindåker" />
		<tag k="place" v="farm" />
		<tag k="ssr:stedsnr" v="673927" />
	</node>
	<node lat="60.141577780873554" lon="11.07271944663714" id="-31864">
		<tag k="name" v="Ødegarden" />
		<tag k="place" v="locality" />
		<tag k="ssr:stedsnr" v="690014" />
	</node>
	<node lat="60.15863888775083" lon="10.8967305588582" id="-31866">
		<tag k="name" v="Øyungshytta" />
		<tag k="place" v="isolated_dwelling" />
		<tag k="ssr:stedsnr" v="690036" />
	</node>
	<node lat="60.145724997603395" lon="11.012355554992498" id="-31868">
		<tag k="name" v="Rovolsteiet" />
		<tag k="place" v="locality" />
		<tag k="ssr:stedsnr" v="690049" />
	</node>
	<node lat="60.232344442901045" lon="11.08685833539821" id="-31877">
		<tag k="name" v="Fredheim" />
		<tag k="place" v="isolated_dwelling" />
		<tag k="ssr:stedsnr" v="690418" />
	</node>
	<node lat="60.24255833271208" lon="10.980294440949395" id="-31879">
		<tag k="name" v="Grindakerhytta" />
		<tag k="place" v="isolated_dwelling" />
		<tag k="ssr:stedsnr" v="690487" />
	</node>
	<node lat="60.13716944018741" lon="11.020474996438914" id="-31882">
		<tag k="name" v="Eltonåsen" />
		<tag k="place" v="neighbourhood" />
		<tag k="ssr:stedsnr" v="733615" />
	</node>
	<node lat="60.20025555363149" lon="11.021480556886036" id="-31883">
		<tag k="alt_name" v="Engelstadflaen" />
		<tag k="name" v="Engelstad" />
		<tag k="place" v="farm" />
		<tag k="ssr:stedsnr" v="733740" />
	</node>
	<node lat="60.202375920895996" lon="10.99956548159708" id="-31884">
		<tag k="name" v="Hafstad" />
		<tag k="place" v="farm" />
		<tag k="ssr:stedsnr" v="733741" />
	</node>
	<node lat="60.20759342254759" lon="11.063285863718521" id="-31886">
		<tag k="name" v="Kneppe" />
		<tag k="place" v="farm" />
		<tag k="ssr:stedsnr" v="733750" />
	</node>
	<node lat="60.23375277417881" lon="11.063913889022231" id="-31889">
		<tag k="alt_name" v="Rud" />
		<tag k="name" v="Øde Rud" />
		<tag k="place" v="farm" />
		<tag k="ssr:stedsnr" v="733794" />
	</node>
	<node lat="60.16791389328381" lon="10.994058325058022" id="-31891">
		<tag k="alt_name" v="Fevikshagan" />
		<tag k="name" v="Fevikhagen" />
		<tag k="place" v="farm" />
		<tag k="ssr:stedsnr" v="733699" />
	</node>
	<node lat="60.234961112144134" lon="10.991058327882957" id="-31893">
		<tag k="alt_name" v="Kringledalen" />
		<tag k="name" v="Kringlerdalen" />
		<tag k="place" v="farm" />
		<tag k="ssr:stedsnr" v="733838" />
	</node>
	<node lat="60.30790157082313" lon="11.059946204217574" id="-31895">
		<tag k="alt_name" v="Tømtebråtan" />
		<tag k="name" v="Tømtebråten" />
		<tag k="place" v="locality" />
		<tag k="ssr:stedsnr" v="734342" />
	</node>
	<node lat="60.259177103159196" lon="11.020538786364291" id="-31896">
		<tag k="alt_name" v="Mjæleberg" />
		<tag k="name" v="Mjælaberg" />
		<tag k="place" v="farm" />
		<tag k="ssr:stedsnr" v="734399" />
	</node>
	<node lat="60.253680554531286" lon="11.043652775739544" id="-31897">
		<tag k="name" v="Kjøsdølen" />
		<tag k="place" v="farm" />
		<tag k="ssr:stedsnr" v="734438" />
	</node>
	<node lat="60.25472500227962" lon="11.088950000980018" id="-31898">
		<tag k="name" v="Vestli" />
		<tag k="place" v="isolated_dwelling" />
		<tag k="ssr:stedsnr" v="734440" />
	</node>
	<node lat="60.254474995898576" lon="11.069655560166188" id="-31899">
		<tag k="name" v="Herstua" />
		<tag k="place" v="farm" />
		<tag k="ssr:stedsnr" v="734441" />
	</node>
	<node lat="60.11388888523505" lon="11.051277771497759" id="-31900">
		<tag k="name" v="Steingrimen" />
		<tag k="place" v="farm" />
		<tag k="ssr:stedsnr" v="751116" />
	</node>
	<node lat="60.13060277514129" lon="11.032194443344856" id="-31901">
		<tag k="name" v="Økri" />
		<tag k="place" v="locality" />
		<tag k="ssr:stedsnr" v="751123" />
	</node>
	<node lat="60.26939444008342" lon="11.093808335438196" id="-31905">
		<tag k="name" v="Sundby" />
		<tag k="place" v="farm" />
		<tag k="ssr:stedsnr" v="751162" />
	</node>
	<node lat="60.286994444591485" lon="11.080466670211479" id="-31907">
		<tag k="name" v="Hansedalen" />
		<tag k="place" v="locality" />
		<tag k="ssr:stedsnr" v="751174" />
	</node>
	<node lat="60.205186702384246" lon="10.954320109164248" id="-31909">
		<tag k="name" v="Fjellhaug" />
		<tag k="place" v="farm" />
		<tag k="ssr:stedsnr" v="751310" />
	</node>
	<node lat="60.21085278088161" lon="10.968702781560262" id="-31910">
		<tag k="name" v="Vestre Melby" />
		<tag k="place" v="farm" />
		<tag k="ssr:stedsnr" v="751313" />
	</node>
	<node lat="60.21464166302438" lon="10.956877779145136" id="-31911">
		<tag k="name" v="Skredderstua" />
		<tag k="place" v="farm" />
		<tag k="ssr:stedsnr" v="751315" />
	</node>
	<node lat="60.214197222730775" lon="10.949930550902891" id="-31912">
		<tag k="name" v="Solberg" />
		<tag k="place" v="farm" />
		<tag k="ssr:stedsnr" v="751324" />
	</node>
	<node lat="60.22572499811717" lon="10.937630561064882" id="-31913">
		<tag k="name" v="Nordbyhytta" />
		<tag k="place" v="isolated_dwelling" />
		<tag k="ssr:stedsnr" v="751329" />
	</node>
	<node lat="60.22643055568794" lon="10.950988881824397" id="-31914">
		<tag k="name" v="Rudshytta" />
		<tag k="place" v="isolated_dwelling" />
		<tag k="ssr:stedsnr" v="751275" />
	</node>
	<node lat="60.13750277629774" lon="11.022388881393539" id="-31926">
		<tag k="name" v="Eltonåsen" />
		<tag k="place" v="farm" />
		<tag k="ssr:stedsnr" v="764809" />
	</node>
	<node lat="60.1631999960121" lon="11.030738891137183" id="-31927">
		<tag k="name" v="Eikstua" />
		<tag k="place" v="farm" />
		<tag k="ssr:stedsnr" v="794730" />
	</node>
	<node lat="60.188177776037776" lon="11.03360000242523" id="-31929">
		<tag k="name" v="Rus" />
		<tag k="place" v="farm" />
		<tag k="ssr:stedsnr" v="794803" />
	</node>
	<node lat="60.23477777689261" lon="11.085508331664098" id="-31930">
		<tag k="name" v="Grasmohaugen" />
		<tag k="place" v="farm" />
		<tag k="ssr:stedsnr" v="794808" />
	</node>
	<node lat="60.23981666242015" lon="11.021733324760003" id="-31931">
		<tag k="alt_name" v="Stuelykkje" />
		<tag k="name" v="Stuelykkja" />
		<tag k="place" v="farm" />
		<tag k="ssr:stedsnr" v="794908" />
	</node>
	<node lat="60.24689264659503" lon="11.043401162410255" id="-31932">
		<tag k="alt_name" v="Jæleberg" />
		<tag k="name" v="Jælberg" />
		<tag k="place" v="farm" />
		<tag k="ssr:stedsnr" v="794910" />
	</node>
	<node lat="60.24304999780705" lon="11.006177783122792" id="-31933">
		<tag k="name" v="Nedre Åmål" />
		<tag k="place" v="farm" />
		<tag k="ssr:stedsnr" v="794912" />
	</node>
	<node lat="60.28522499954975" lon="10.848155559834781" id="-31937">
		<tag k="alt_name" v="Hellern" />
		<tag k="name" v="Helleren" />
		<tag k="place" v="farm" />
		<tag k="ssr:stedsnr" v="795374" />
	</node>
	<node lat="60.2849706909115" lon="11.07069863260842" id="-31938">
		<tag k="name" v="Bjørkeland" />
		<tag k="place" v="isolated_dwelling" />
		<tag k="ssr:stedsnr" v="795387" />
	</node>
	<node lat="60.26408055626766" lon="11.015627775407806" id="-31940">
		<tag k="name" v="Granås" />
		<tag k="place" v="farm" />
		<tag k="ssr:stedsnr" v="795416" />
	</node>
	<node lat="60.25915000243254" lon="11.07105277704617" id="-31941">
		<tag k="name" v="Kopperudmoen" />
		<tag k="place" v="farm" />
		<tag k="ssr:stedsnr" v="795419" />
	</node>
	<node lat="60.341149999308435" lon="11.023974991056033" id="-31942">
		<tag k="alt_name" v="Hansbråten" />
		<tag k="name" v="Hansbråtan" />
		<tag k="place" v="farm" />
		<tag k="ssr:stedsnr" v="795564" />
	</node>
	<node lat="60.193002781012346" lon="10.917661113830423" id="-31943">
		<tag k="name" v="Hafstadhytta" />
		<tag k="place" v="isolated_dwelling" />
		<tag k="ssr:stedsnr" v="812018" />
	</node>
	<node lat="60.132555556047876" lon="10.959608342324046" id="-31950">
		<tag k="name" v="Stormåsahytta" />
		<tag k="place" v="isolated_dwelling" />
		<tag k="ssr:stedsnr" v="812120" />
	</node>
	<node lat="60.19124509883973" lon="10.97566626624088" id="-31955">
		<tag k="name" v="Møllerstua" />
		<tag k="place" v="isolated_dwelling" />
		<tag k="ssr:stedsnr" v="812210" />
	</node>
	<node lat="60.17222499870748" lon="11.0427972147847" id="-31958">
		<tag k="name" v="Nordre Rud" />
		<tag k="place" v="farm" />
		<tag k="ssr:stedsnr" v="812235" />
	</node>
	<node lat="60.1849777819765" lon="10.812291673138743" id="-31964">
		<tag k="name" v="Tvekjellerkoia" />
		<tag k="place" v="isolated_dwelling" />
		<tag k="ssr:stedsnr" v="812191" />
	</node>
	<node lat="60.21533304165592" lon="10.958717680579419" id="-31965">
		<tag k="name" v="Nordbystua" />
		<tag k="place" v="farm" />
		<tag k="ssr:stedsnr" v="812305" />
	</node>
	<node lat="60.172829938186496" lon="11.004472253283344" id="-31977">
		<tag k="alt_name" v="Jaer" />
		<tag k="name" v="Jar" />
		<tag k="place" v="farm" />
		<tag k="ssr:stedsnr" v="855715" />
	</node>
	<node lat="60.206805983706566" lon="11.053828388542806" id="-31979">
		<tag k="name" v="Våler" />
		<tag k="place" v="farm" />
		<tag k="ssr:stedsnr" v="855793" />
	</node>
	<node lat="60.316658336915765" lon="11.069949991500945" id="-31981">
		<tag k="name" v="Tangen" />
		<tag k="place" v="farm" />
		<tag k="ssr:stedsnr" v="856339" />
	</node>
	<node lat="60.26439795347834" lon="11.004194398943225" id="-31982">
		<tag k="name" v="Totner" />
		<tag k="place" v="farm" />
		<tag k="ssr:stedsnr" v="856404" />
	</node>
	<node lat="60.25141508296547" lon="11.084215623760809" id="-31983">
		<tag k="name" v="Snatet" />
		<tag k="place" v="locality" />
		<tag k="ssr:stedsnr" v="856439" />
	</node>
	<node lat="60.25312500112381" lon="11.064275006358283" id="-31984">
		<tag k="name" v="Kopperudhaugen" />
		<tag k="place" v="farm" />
		<tag k="ssr:stedsnr" v="856441" />
	</node>
	<node lat="60.12822401142794" lon="11.06406177211207" id="-31985">
		<tag k="name" v="Haga" />
		<tag k="place" v="farm" />
		<tag k="ssr:stedsnr" v="915635" />
	</node>
	<node lat="60.12500233053899" lon="11.080904068063765" id="-31986">
		<tag k="alt_name" v="Foss, nedre" />
		<tag k="name" v="Nedre Foss" />
		<tag k="place" v="farm" />
		<tag k="ssr:stedsnr" v="915637" />
	</node>
	<node lat="60.20532189541304" lon="10.9758171667767" id="-31987">
		<tag k="name" v="Bjertnes" />
		<tag k="place" v="farm" />
		<tag k="ssr:stedsnr" v="915750" />
	</node>
	<node lat="60.20688973605298" lon="10.994760103054384" id="-31988">
		<tag k="name" v="Låke" />
		<tag k="place" v="farm" />
		<tag k="ssr:stedsnr" v="915760" />
	</node>
	<node lat="60.20480900339264" lon="10.94234993578191" id="-31991">
		<tag k="name" v="Rustadtangen" />
		<tag k="place" v="farm" />
		<tag k="ssr:stedsnr" v="915850" />
	</node>
	<node lat="60.20719999890797" lon="10.956142484095631" id="-31992">
		<tag k="name" v="Rustaden" />
		<tag k="place" v="farm" />
		<tag k="ssr:stedsnr" v="915853" />
	</node>
	<node lat="60.20788611528091" lon="10.981766659844467" id="-31993">
		<tag k="name" v="Låkedalen" />
		<tag k="place" v="hamlet" />
		<tag k="ssr:stedsnr" v="915856" />
	</node>
	<node lat="60.316074998443824" lon="11.010033328745516" id="-31994">
		<tag k="alt_name" v="Holseter" />
		<tag k="historic" v="shieling" />
		<tag k="name" v="Holssætra" />
		<tag k="place" v="isolated_dwelling" />
		<tag k="ssr:stedsnr" v="916265" />
	</node>
	<node lat="60.30965000323145" lon="10.889958339977694" id="-31995">
		<tag k="name" v="Kvernsjøstua" />
		<tag k="place" v="isolated_dwelling" />
		<tag k="ssr:stedsnr" v="916335" />
	</node>
	<node lat="60.28280944566715" lon="11.082475170023882" id="-31996">
		<tag k="name" v="Steinsvoll" />
		<tag k="place" v="locality" />
		<tag k="ssr:stedsnr" v="916350" />
	</node>
	<node lat="60.277217922695556" lon="11.030143444152012" id="-31998">
		<tag k="name" v="Åmundrud" />
		<tag k="place" v="farm" />
		<tag k="ssr:stedsnr" v="916363" />
	</node>
	<node lat="60.246649997487125" lon="11.034663896834774" id="-32000">
		<tag k="name" v="Haugen" />
		<tag k="place" v="farm" />
		<tag k="ssr:stedsnr" v="870907" />
	</node>
	<node lat="60.111505345979005" lon="11.021147268809214" id="-32001">
		<tag k="alt_name" v="Brotnu" />
		<tag k="name" v="Brotno" />
		<tag k="place" v="farm" />
		<tag k="ssr:stedsnr" v="916592" />
	</node>
	<node lat="60.17345555782505" lon="11.035463890263326" id="-32003">
		<tag k="alt_name" v="Ukustadengen" />
		<tag k="name" v="Enga" />
		<tag k="place" v="farm" />
		<tag k="ssr:stedsnr" v="916743" />
	</node>
	<node lat="60.12800555365493" lon="11.079502782266617" id="-32006">
		<tag k="name" v="Fosshaug" />
		<tag k="place" v="farm" />
		<tag k="ssr:stedsnr" v="872007" />
	</node>
	<node lat="60.22574816208673" lon="10.990244490117266" id="-32013">
		<tag k="name" v="Søndre Skjennum" />
		<tag k="place" v="farm" />
		<tag k="ssr:stedsnr" v="872274" />
	</node>
	<node lat="60.11472383507535" lon="11.044982597286165" id="-32015">
		<tag k="name" v="Søndre Døli" />
		<tag k="place" v="farm" />
		<tag k="ssr:stedsnr" v="872120" />
	</node>
	<node lat="60.24977483347118" lon="11.091506738315681" id="-32021">
		<tag k="name" v="Sørmoen" />
		<tag k="place" v="farm" />
		<tag k="ssr:stedsnr" v="872418" />
	</node>
	<node lat="60.247122220560804" lon="10.953786119567317" id="-32023">
		<tag k="name" v="Sletthytta" />
		<tag k="place" v="isolated_dwelling" />
		<tag k="ssr:stedsnr" v="872483" />
	</node>
	<node lat="60.2938444461342" lon="10.969611112189018" id="-32028">
		<tag k="historic" v="shieling" />
		<tag k="name" v="Vikkeliflaen" />
		<tag k="place" v="isolated_dwelling" />
		<tag k="ssr:stedsnr" v="872524" />
	</node>
	<node lat="60.13973610794162" lon="11.05700833316394" id="-32032">
		<tag k="alt_name" v="Holter prestegård" />
		<tag k="name" v="Prestegarden" />
		<tag k="place" v="farm" />
		<tag k="ssr:stedsnr" v="915629" />
	</node>
	<node lat="60.16423768986088" lon="11.009549853208867" id="-32033">
		<tag k="name" v="Østby" />
		<tag k="place" v="farm" />
		<tag k="ssr:stedsnr" v="915711" />
	</node>
	<node lat="60.243877781305656" lon="10.991888881556998" id="-32034">
		<tag k="name" v="Østre Økri" />
		<tag k="old_name" v="Nedre Økri" />
		<tag k="place" v="farm" />
		<tag k="ssr:stedsnr" v="915904" />
	</node>
	<node lat="60.26558332984564" lon="10.967399998241637" id="-32040">
		<tag k="name" v="Vålaugmoen" />
		<tag k="place" v="isolated_dwelling" />
		<tag k="ssr:stedsnr" v="916382" />
	</node>
	<node lat="60.262953392200856" lon="10.994556461821352" id="-32041">
		<tag k="alt_name" v="Lille Vollaug" />
		<tag k="name" v="Lille Vålaug" />
		<tag k="place" v="farm" />
		<tag k="ssr:stedsnr" v="916383" />
	</node>
	<node lat="60.269075003406144" lon="11.070649993832136" id="-32042">
		<tag k="name" v="Fjelldal" />
		<tag k="place" v="farm" />
		<tag k="ssr:stedsnr" v="916391" />
	</node>
	<node lat="60.1798000005226" lon="11.075997218922868" id="-32043">
		<tag k="name" v="Lyshaughagen" />
		<tag k="place" v="farm" />
		<tag k="ssr:stedsnr" v="916804" />
	</node>
	<node lat="60.22572499611052" lon="11.065952771943481" id="-32045">
		<tag k="name" v="Stubberud" />
		<tag k="place" v="farm" />
		<tag k="ssr:stedsnr" v="916873" />
	</node>
	<node lat="60.2695226923567" lon="11.099086532542843" id="-32046">
		<tag k="name" v="Sundby" />
		<tag k="place" v="farm" />
		<tag k="ssr:stedsnr" v="917161" />
	</node>
	<node lat="60.25739999568684" lon="11.014330560687698" id="-32047">
		<tag k="name" v="Mjælvoll" />
		<tag k="place" v="farm" />
		<tag k="ssr:stedsnr" v="917318" />
	</node>
	<node lat="60.192688886142996" lon="10.94183333092114" id="-32048">
		<tag k="name" v="Homlehytta" />
		<tag k="place" v="isolated_dwelling" />
		<tag k="ssr:stedsnr" v="933042" />
	</node>
	<node lat="60.113989517312156" lon="11.024710892700725" id="-32050">
		<tag k="name" v="Vestre Brotno" />
		<tag k="place" v="farm" />
		<tag k="ssr:stedsnr" v="933098" />
	</node>
	<node lat="60.17542136559436" lon="11.051925943411437" id="-32053">
		<tag k="name" v="Østre Ukustad" />
		<tag k="place" v="farm" />
		<tag k="ssr:stedsnr" v="933213" />
	</node>
	<node lat="60.16034722460195" lon="10.977474999786242" id="-32058">
		<tag k="name" v="Hagahytta" />
		<tag k="place" v="isolated_dwelling" />
		<tag k="ssr:stedsnr" v="933191" />
	</node>
	<node lat="60.2705388917065" lon="10.913241674920362" id="-32065">
		<tag k="name" v="Velaugstykket" />
		<tag k="place" v="locality" />
		<tag k="ssr:stedsnr" v="933390" />
	</node>
	<node lat="60.32304721803019" lon="11.04960555974259" id="-32069">
		<tag k="name" v="Sandsnesmarka" />
		<tag k="place" v="locality" />
		<tag k="ssr:stedsnr" v="933520" />
	</node>
	<node lat="60.24843295254659" lon="11.032796170088083" id="-32071">
		<tag k="name" v="Åmålteiet" />
		<tag k="place" v="neighbourhood" />
		<tag k="ssr:stedsnr" v="981683" />
	</node>
	<node lat="60.11439192194115" lon="11.055845662259042" id="-32075">
		<tag k="name" v="Låvegg" />
		<tag k="place" v="farm" />
		<tag k="ssr:stedsnr" v="5555" />
	</node>
	<node lat="60.22711773929045" lon="10.992555597254178" id="-32078">
		<tag k="name" v="Skjennum" />
		<tag k="place" v="farm" />
		<tag k="ssr:stedsnr" v="5796" />
	</node>
	<node lat="60.20004530144843" lon="11.002082906048916" id="-32079">
		<tag k="alt_name" v="Homle" />
		<tag k="name" v="Nordre Homle" />
		<tag k="place" v="farm" />
		<tag k="ssr:stedsnr" v="5744" />
	</node>
	<node lat="60.195553602582414" lon="11.006650570255971" id="-32080">
		<tag k="name" v="Færstad" />
		<tag k="place" v="farm" />
		<tag k="ssr:stedsnr" v="5745" />
	</node>
	<node lat="60.22522500281561" lon="11.085674999414366" id="-32082">
		<tag k="name" v="Granvoll" />
		<tag k="place" v="farm" />
		<tag k="ssr:stedsnr" v="5831" />
	</node>
	<node lat="60.22049088199954" lon="11.073885534182784" id="-32083">
		<tag k="alt_name" v="Kabberudseter;Kabberudsetermoen" />
		<tag k="name" v="Kabberudsætra" />
		<tag k="place" v="farm" />
		<tag k="ssr:stedsnr" v="5832" />
	</node>
	<node lat="60.24665790177873" lon="10.992212396489073" id="-32085">
		<tag k="name" v="Østre Økri" />
		<tag k="old_name" v="Øvre Økri" />
		<tag k="place" v="farm" />
		<tag k="ssr:stedsnr" v="5899" />
	</node>
	<node lat="60.30808888768861" lon="11.017638896400364" id="-32086">
		<tag k="historic" v="shieling" />
		<tag k="name" v="Bjørkesæter" />
		<tag k="place" v="isolated_dwelling" />
		<tag k="ssr:stedsnr" v="6317" />
	</node>
	<node lat="60.30758055580575" lon="10.994613895350726" id="-32087">
		<tag k="name" v="Honsjøhytta" />
		<tag k="old_name" v="Hornsjøhytta" />
		<tag k="place" v="isolated_dwelling" />
		<tag k="ssr:stedsnr" v="6322" />
	</node>
	<node lat="60.2506250020354" lon="10.89781388364445" id="-32088">
		<tag k="name" v="Losbyhytta" />
		<tag k="place" v="isolated_dwelling" />
		<tag k="ssr:stedsnr" v="6384" />
	</node>
	<node lat="60.27295854465427" lon="11.07805765188579" id="-32089">
		<tag k="name" v="Dal" />
		<tag k="place" v="farm" />
		<tag k="ssr:stedsnr" v="6400" />
	</node>
	<node lat="60.33887499619381" lon="11.024399996130775" id="-32090">
		<tag k="name" v="Bjørkelund" />
		<tag k="place" v="farm" />
		<tag k="ssr:stedsnr" v="6547" />
	</node>
	<node lat="60.25614166837324" lon="11.017441661218452" id="-32095">
		<tag k="name" v="Morud" />
		<tag k="place" v="farm" />
		<tag k="ssr:stedsnr" v="23156" />
	</node>
	<node lat="60.186780559347625" lon="10.987213896774637" id="-32097">
		<tag k="name" v="Rønvoll" />
		<tag k="place" v="farm" />
		<tag k="ssr:stedsnr" v="23222" />
	</node>
	<node lat="60.21017777643405" lon="11.075577776941604" id="-32099">
		<tag k="name" v="Kneppefeltet" />
		<tag k="place" v="neighbourhood" />
		<tag k="ssr:stedsnr" v="23172" />
	</node>
	<node lat="60.2706138919547" lon="11.081011102920368" id="-32100">
		<tag k="name" v="Nedre Dal" />
		<tag k="place" v="farm" />
		<tag k="ssr:stedsnr" v="23176" />
	</node>
	<node lat="60.28301666319169" lon="11.042863887587842" id="-32106">
		<tag k="name" v="Høgås" />
		<tag k="place" v="isolated_dwelling" />
		<tag k="ssr:stedsnr" v="23525" />
	</node>
	<node lat="60.21215000384739" lon="10.956302777284973" id="-32115">
		<tag k="name" v="Melbystua" />
		<tag k="place" v="farm" />
		<tag k="ssr:stedsnr" v="24257" />
	</node>
	<node lat="60.3380749985611" lon="10.945424990859843" id="-32118">
		<tag k="name" v="Greinen" />
		<tag k="place" v="isolated_dwelling" />
		<tag k="ssr:stedsnr" v="66268" />
	</node>
	<node lat="60.241724999518354" lon="11.103149990984603" id="-32119">
		<tag k="leisure" v="pitch" />
		<tag k="name" v="Ridebane" />
		<tag k="ssr:stedsnr" v="66332" />
	</node>
	<node lat="60.18020555568552" lon="11.035702779001006" id="-32122">
		<tag k="name" v="Solbakken" />
		<tag k="place" v="farm" />
		<tag k="ssr:stedsnr" v="66787" />
	</node>
	<node lat="60.2239329931669" lon="11.078709657389076" id="-32124">
		<tag k="alt_name" v="Børke, nordre;Børke nordre" />
		<tag k="name" v="Nordre Børke" />
		<tag k="old_name" v="N Børke" />
		<tag k="place" v="farm" />
		<tag k="ssr:stedsnr" v="66855" />
	</node>
	<node lat="60.22060555450758" lon="10.996919438779601" id="-32125">
		<tag k="alt_name" v="Vestby, nordre" />
		<tag k="name" v="Nordre Vestby" />
		<tag k="place" v="farm" />
		<tag k="ssr:stedsnr" v="66865" />
	</node>
	<node lat="60.25290000142776" lon="10.913394443608556" id="-32127">
		<tag k="alt_name" v="Lauumseter" />
		<tag k="historic" v="shieling" />
		<tag k="name" v="Lauumsætra" />
		<tag k="place" v="isolated_dwelling" />
		<tag k="ssr:stedsnr" v="67371" />
	</node>
	<node lat="60.25583333070432" lon="11.045650003952355" id="-32128">
		<tag k="name" v="Enga" />
		<tag k="place" v="locality" />
		<tag k="ssr:stedsnr" v="67374" />
	</node>
	<node lat="60.26092500321857" lon="11.084555546986273" id="-32129">
		<tag k="name" v="Grindvoll" />
		<tag k="place" v="farm" />
		<tag k="ssr:stedsnr" v="67380" />
	</node>
	<node lat="60.321591183290906" lon="11.066777942249868" id="-32130">
		<tag k="name" v="Sandsnes" />
		<tag k="place" v="farm" />
		<tag k="ssr:stedsnr" v="67291" />
	</node>
	<node lat="60.27374999825362" lon="10.991475008735783" id="-32131">
		<tag k="name" v="Lieker" />
		<tag k="place" v="farm" />
		<tag k="ssr:stedsnr" v="67337" />
	</node>
	<node lat="60.24935555366203" lon="10.889147219210738" id="-32132">
		<tag k="historic" v="shieling" />
		<tag k="name" v="Økrisætra" />
		<tag k="place" v="isolated_dwelling" />
		<tag k="ssr:stedsnr" v="81926" />
	</node>
	<node lat="60.14410871554273" lon="11.055253951069012" id="-32135">
		<tag k="name" v="Søndre Holter" />
		<tag k="place" v="farm" />
		<tag k="ssr:stedsnr" v="84090" />
	</node>
	<node lat="60.153283331877184" lon="10.99972777064425" id="-32137">
		<tag k="name" v="Trettestykket" />
		<tag k="place" v="locality" />
		<tag k="ssr:stedsnr" v="84098" />
	</node>
	<node lat="60.15852895552139" lon="11.031704214937802" id="-32138">
		<tag k="alt_name" v="Mellom Eik" />
		<tag k="name" v="Mellom-Eik" />
		<tag k="old_name" v="Eik mellem" />
		<tag k="place" v="farm" />
		<tag k="ssr:stedsnr" v="84225" />
	</node>
	<node lat="60.1185833310512" lon="11.024600004994651" id="-32141">
		<tag k="name" v="Østre Nordby" />
		<tag k="place" v="farm" />
		<tag k="ssr:stedsnr" v="84150" />
	</node>
	<node lat="60.25635555380998" lon="11.0319777845398" id="-32142">
		<tag k="name" v="Solheimfeltet" />
		<tag k="place" v="neighbourhood" />
		<tag k="ssr:stedsnr" v="84166" />
	</node>
	<node lat="60.24640277442712" lon="11.021597229678378" id="-32143">
		<tag k="name" v="Østre Hol" />
		<tag k="place" v="farm" />
		<tag k="ssr:stedsnr" v="84170" />
	</node>
	<node lat="60.20650277559671" lon="10.898716661046217" id="-32147">
		<tag k="name" v="Steinbekkhytta" />
		<tag k="place" v="isolated_dwelling" />
		<tag k="ssr:stedsnr" v="84072" />
	</node>
	<node lat="60.30300833253502" lon="10.989197231050097" id="-32155">
		<tag k="name" v="Sjøheim" />
		<tag k="place" v="isolated_dwelling" />
		<tag k="ssr:stedsnr" v="84514" />
	</node>
	<node lat="60.136625001214846" lon="10.938033327356496" id="-32161">
		<tag k="name" v="Grøsåkervangen" />
		<tag k="place" v="isolated_dwelling" />
		<tag k="ssr:stedsnr" v="126636" />
	</node>
	<node lat="60.164901332970096" lon="11.025401409384974" id="-32162">
		<tag k="alt_name" v="Eik, nordre" />
		<tag k="name" v="Nordre Eik" />
		<tag k="place" v="farm" />
		<tag k="ssr:stedsnr" v="126698" />
	</node>
	<node lat="60.161429874883204" lon="11.050418179434493" id="-32163">
		<tag k="name" v="Hveim" />
		<tag k="place" v="farm" />
		<tag k="ssr:stedsnr" v="126699" />
	</node>
	<node lat="60.21300952564554" lon="10.975651695889177" id="-32167">
		<tag k="name" v="Nordby" />
		<tag k="place" v="farm" />
		<tag k="ssr:stedsnr" v="126852" />
	</node>
	<node lat="60.20808889289708" lon="10.98146388115333" id="-32168">
		<tag k="name" v="Logna" />
		<tag k="place" v="farm" />
		<tag k="ssr:stedsnr" v="126855" />
	</node>
	<node lat="60.20491076470386" lon="11.021359201402642" id="-32169">
		<tag k="name" v="Kabberud" />
		<tag k="place" v="farm" />
		<tag k="ssr:stedsnr" v="126744" />
	</node>
	<node lat="60.19449977879045" lon="11.027622353925837" id="-32172">
		<tag k="name" v="Østre Engelstad" />
		<tag k="place" v="farm" />
		<tag k="ssr:stedsnr" v="126773" />
	</node>
	<node lat="60.30925833143697" lon="11.008455564166958" id="-32174">
		<tag k="name" v="Dansehella" />
		<tag k="place" v="isolated_dwelling" />
		<tag k="ssr:stedsnr" v="127325" />
	</node>
	<node lat="60.1119078060365" lon="11.00453037335454" id="-32177">
		<tag k="alt_name" v="Brotnuhaugen" />
		<tag k="name" v="Brotnohaugen" />
		<tag k="place" v="locality" />
		<tag k="ssr:stedsnr" v="127625" />
	</node>
	<node lat="60.26289032591361" lon="11.049481626381075" id="-32178">
		<tag k="name" v="Lauvås" />
		<tag k="place" v="farm" />
		<tag k="ssr:stedsnr" v="127384" />
	</node>
	<node lat="60.1503527746064" lon="11.040774999614966" id="-32180">
		<tag k="name" v="Grøndal" />
		<tag k="place" v="farm" />
		<tag k="ssr:stedsnr" v="127777" />
	</node>
	<node lat="60.21751388694875" lon="11.01472778321343" id="-32181">
		<tag k="alt_name" v="Skivulstad" />
		<tag k="name" v="Skivelstad" />
		<tag k="place" v="farm" />
		<tag k="ssr:stedsnr" v="127852" />
	</node>
	<node lat="60.21711038765279" lon="11.068325133191728" id="-32182">
		<tag k="alt_name" v="Børke, søndre" />
		<tag k="name" v="Søndre Børke" />
		<tag k="old_name" v="Bjørke søndre;S Børke" />
		<tag k="place" v="farm" />
		<tag k="ssr:stedsnr" v="127856" />
	</node>
	<node lat="60.175922224366076" lon="10.878480547115904" id="-32186">
		<tag k="name" v="Gruvelihytta" />
		<tag k="place" v="isolated_dwelling" />
		<tag k="ssr:stedsnr" v="144050" />
	</node>
	<node lat="60.14446340199631" lon="11.023997289983122" id="-32188">
		<tag k="name" v="Nordre Harstad" />
		<tag k="place" v="farm" />
		<tag k="ssr:stedsnr" v="144071" />
	</node>
	<node lat="60.11505277913783" lon="11.05231389154504" id="-32191">
		<tag k="name" v="Øvre Låvegg" />
		<tag k="place" v="farm" />
		<tag k="ssr:stedsnr" v="144122" />
	</node>
	<node lat="60.11642777701675" lon="11.05535000360038" id="-32192">
		<tag k="name" v="Låveggshaugen" />
		<tag k="place" v="farm" />
		<tag k="ssr:stedsnr" v="144123" />
	</node>
	<node lat="60.25555277785241" lon="11.054302783318063" id="-32193">
		<tag k="name" v="Kopperudmoen" />
		<tag k="place" v="neighbourhood" />
		<tag k="ssr:stedsnr" v="144157" />
	</node>
	<node lat="60.336208331746334" lon="11.026975000451577" id="-32195">
		<tag k="name" v="Granli" />
		<tag k="place" v="farm" />
		<tag k="ssr:stedsnr" v="144423" />
	</node>
	<node lat="60.31910833436233" lon="10.923822216583511" id="-32199">
		<tag k="name" v="Marifjellhytta" />
		<tag k="place" v="isolated_dwelling" />
		<tag k="ssr:stedsnr" v="144256" />
	</node>
	<node lat="60.2135198896543" lon="10.956563372538659" id="-32209">
		<tag k="name" v="Skomakerstua" />
		<tag k="place" v="farm" />
		<tag k="ssr:stedsnr" v="145260" />
	</node>
	<node lat="60.217137931975415" lon="11.006665988205738" id="-32210">
		<tag k="name" v="Nannestad prestegård" />
		<tag k="place" v="farm" />
		<tag k="ssr:stedsnr" v="145269" />
	</node>
	<node lat="60.21235555632412" lon="10.97172499378831" id="-32211">
		<tag k="name" v="Søndre Nordby" />
		<tag k="place" v="farm" />
		<tag k="ssr:stedsnr" v="145271" />
	</node>
	<node lat="60.244911109525844" lon="10.991861106490513" id="-32213">
		<tag k="name" v="Økri" />
		<tag k="place" v="hamlet" />
		<tag k="ssr:stedsnr" v="164771" />
	</node>
	<node lat="60.15867061118925" lon="11.035001985555347" id="-32215">
		<tag k="name" v="Eik" />
		<tag k="place" v="farm" />
		<tag k="ssr:stedsnr" v="177828" />
	</node>
	<node lat="60.164782049507195" lon="10.997893885156891" id="-32216">
		<tag k="name" v="Ramstad" />
		<tag k="place" v="farm" />
		<tag k="ssr:stedsnr" v="187699" />
	</node>
	<node lat="60.17523986581803" lon="10.989457197237064" id="-32217">
		<tag k="name" v="Haug" />
		<tag k="place" v="farm" />
		<tag k="ssr:stedsnr" v="187655" />
	</node>
	<node lat="60.24087500064165" lon="11.047577776103154" id="-32218">
		<tag k="name" v="Hærut" />
		<tag k="place" v="locality" />
		<tag k="ssr:stedsnr" v="187899" />
	</node>
	<node lat="60.27045000369151" lon="10.88039999427173" id="-32220">
		<tag k="name" v="Damstua" />
		<tag k="place" v="isolated_dwelling" />
		<tag k="ssr:stedsnr" v="188360" />
	</node>
	<node lat="60.206605555000884" lon="11.074388887489917" id="-32222">
		<tag k="alt_name" v="Nygård" />
		<tag k="name" v="Nygard" />
		<tag k="place" v="farm" />
		<tag k="ssr:stedsnr" v="187749" />
	</node>
	<node lat="60.20271584050199" lon="11.04507682098342" id="-32223">
		<tag k="alt_name" v="Breivoll" />
		<tag k="name" v="Breidvoll" />
		<tag k="place" v="farm" />
		<tag k="ssr:stedsnr" v="187750" />
	</node>
	<node lat="60.22191404589974" lon="11.081211672091127" id="-32224">
		<tag k="name" v="Møllerstad" />
		<tag k="place" v="farm" />
		<tag k="ssr:stedsnr" v="187849" />
	</node>
	<node lat="60.25934930288056" lon="11.070936399123836" id="-32225">
		<tag k="name" v="Myrhaugflaen" />
		<tag k="place" v="farm" />
		<tag k="ssr:stedsnr" v="188394" />
	</node>
	<node lat="60.25926767587999" lon="10.996559677125758" id="-32226">
		<tag k="alt_name" v="Vollaug" />
		<tag k="name" v="Vålaug" />
		<tag k="old_name" v="Volloug;Vaalaug" />
		<tag k="place" v="farm" />
		<tag k="ssr:stedsnr" v="188401" />
	</node>
	<node lat="60.339752407529915" lon="11.024740810512874" id="-32228">
		<tag k="name" v="Sandsnessætra" />
		<tag k="place" v="farm" />
		<tag k="ssr:stedsnr" v="188560" />
	</node>
	<node lat="60.17173440583356" lon="11.042083464188426" id="-32230">
		<tag k="alt_name" v="Søndre Rud" />
		<tag k="name" v="Rud" />
		<tag k="place" v="farm" />
		<tag k="ssr:stedsnr" v="188742" />
	</node>
	<node lat="60.158264870444846" lon="11.054563542629253" id="-32231">
		<tag k="name" v="Hylli" />
		<tag k="place" v="farm" />
		<tag k="ssr:stedsnr" v="188762" />
	</node>
	<node lat="60.22184684809297" lon="10.97321231985336" id="-32232">
		<tag k="alt_name" v="Vestre Rud" />
		<tag k="name" v="Rud" />
		<tag k="place" v="farm" />
		<tag k="ssr:stedsnr" v="188892" />
	</node>
	<node lat="60.181972220227976" lon="10.884222223441778" id="-32233">
		<tag k="name" v="Knepphaughytta" />
		<tag k="place" v="isolated_dwelling" />
		<tag k="ssr:stedsnr" v="205032" />
	</node>
	<node lat="60.11499166818725" lon="11.029636107878073" id="-32235">
		<tag k="name" v="Østre Brotno" />
		<tag k="place" v="farm" />
		<tag k="ssr:stedsnr" v="205127" />
	</node>
	<node lat="60.140694445231965" lon="11.053147215472244" id="-32240">
		<tag k="amenity" v="school" />
		<tag k="name" v="Løken skole" />
		<tag k="ssr:stedsnr" v="205085" />
	</node>
	<node lat="60.22390195180534" lon="10.971387276436573" id="-32242">
		<tag k="name" v="Lunås" />
		<tag k="place" v="isolated_dwelling" />
		<tag k="ssr:stedsnr" v="205284" />
	</node>
	<node lat="60.23854999695563" lon="11.017900004056322" id="-32243">
		<tag k="name" v="Bjørkås" />
		<tag k="place" v="farm" />
		<tag k="ssr:stedsnr" v="205286" />
	</node>
	<node lat="60.192797219965456" lon="10.993425004835506" id="-32252">
		<tag k="building" v="industrial" />
		<tag k="industrial" v="factory" />
		<tag k="name" v="Homledal mølle" />
		<tag k="ssr:stedsnr" v="205190" />
	</node>
	<node lat="60.20279167077907" lon="10.996841671248653" id="-32259">
		<tag k="name" v="Vestre Hafstad" />
		<tag k="place" v="farm" />
		<tag k="ssr:stedsnr" v="205331" />
	</node>
	<node lat="60.209724997538736" lon="10.998108338292601" id="-32260">
		<tag k="building" v="commercial" />
		<tag k="name" v="Felleskjøpet" />
		<tag k="ssr:stedsnr" v="205332" />
	</node>
	<node lat="60.22000833319282" lon="11.078838881665204" id="-32261">
		<tag k="name" v="Furubråten" />
		<tag k="place" v="isolated_dwelling" />
		<tag k="ssr:stedsnr" v="205413" />
	</node>
	<node lat="60.21349444714946" lon="10.971247218065914" id="-32264">
		<tag k="name" v="Nordre Nordby" />
		<tag k="place" v="farm" />
		<tag k="ssr:stedsnr" v="206271" />
	</node>
	<node lat="60.22509166298124" lon="11.04643333286851" id="-32265">
		<tag k="name" v="Piperud" />
		<tag k="place" v="locality" />
		<tag k="ssr:stedsnr" v="206280" />
	</node>
	<node lat="60.21541666448964" lon="10.950822215303026" id="-32266">
		<tag k="name" v="Snekkerstua" />
		<tag k="place" v="isolated_dwelling" />
		<tag k="ssr:stedsnr" v="206283" />
	</node>
	<node lat="60.201294440178536" lon="10.880611119226534" id="-32268">
		<tag k="historic" v="shieling" />
		<tag k="name" v="Bjertnessætra" />
		<tag k="place" v="isolated_dwelling" />
		<tag k="ssr:stedsnr" v="263777" />
	</node>
	<node lat="60.14129283399772" lon="11.020835941435354" id="-32269">
		<tag k="name" v="Søndre Harstad" />
		<tag k="place" v="farm" />
		<tag k="ssr:stedsnr" v="265092" />
	</node>
	<node lat="60.22130903022461" lon="10.966097790151482" id="-32271">
		<tag k="name" v="Furuheim" />
		<tag k="place" v="isolated_dwelling" />
		<tag k="ssr:stedsnr" v="265277" />
	</node>
	<node lat="60.3342027813086" lon="11.031813893764697" id="-32286">
		<tag k="name" v="Rotestua" />
		<tag k="place" v="farm" />
		<tag k="ssr:stedsnr" v="266375" />
	</node>
	<node lat="60.32811110953852" lon="11.060427775280155" id="-32287">
		<tag k="name" v="Skjebindertangen" />
		<tag k="place" v="farm" />
		<tag k="ssr:stedsnr" v="266377" />
	</node>
	<node lat="60.260008334446326" lon="10.983644439386767" id="-32292">
		<tag k="name" v="Evjebråten" />
		<tag k="place" v="farm" />
		<tag k="ssr:stedsnr" v="266412" />
	</node>
	<node lat="60.26307500035157" lon="11.023158339903103" id="-32293">
		<tag k="landuse" v="winter_sports" />
		<tag k="name" v="Nannestad Skisenter" />
		<tag k="old_name" v="Åslia skisenter" />
		<tag k="piste:type" v="downhill" />
		<tag k="ssr:stedsnr" v="266440" />
	</node>
	<node lat="60.267244582194806" lon="11.028636820866913" id="-32294">
		<tag k="name" v="Røtnes" />
		<tag k="place" v="farm" />
		<tag k="ssr:stedsnr" v="266441" />
	</node>
	<node lat="60.19898438351945" lon="10.996147169272698" id="-32297">
		<tag k="alt_name" v="Megard;Midtre Homle" />
		<tag k="name" v="Megarden Homle" />
		<tag k="place" v="farm" />
		<tag k="ssr:stedsnr" v="308740" />
	</node>
	<node lat="60.20544722013537" lon="10.910383328271863" id="-32299">
		<tag k="historic" v="shieling" />
		<tag k="name" v="Rustadvangen" />
		<tag k="place" v="isolated_dwelling" />
		<tag k="ssr:stedsnr" v="308846" />
	</node>
	<node lat="60.210258335458725" lon="10.95070277943753" id="-32301">
		<tag k="name" v="Rustadmoen" />
		<tag k="place" v="hamlet" />
		<tag k="ssr:stedsnr" v="308849" />
	</node>
	<node lat="60.191240986546845" lon="10.981408232159767" id="-32304">
		<tag k="name" v="Langerud" />
		<tag k="place" v="farm" />
		<tag k="ssr:stedsnr" v="308799" />
	</node>
	<node lat="60.149534982730714" lon="11.04380888870114" id="-32305">
		<tag k="name" v="Holterhaugen" />
		<tag k="place" v="farm" />
		<tag k="ssr:stedsnr" v="309735" />
	</node>
	<node lat="60.30300833431816" lon="10.996433327373834" id="-32309">
		<tag k="alt_name" v="Åmotseter" />
		<tag k="historic" v="shieling" />
		<tag k="name" v="Åmotsætra" />
		<tag k="place" v="isolated_dwelling" />
		<tag k="ssr:stedsnr" v="309342" />
	</node>
	<node lat="60.22020277900139" lon="11.010727775580094" id="-32310">
		<tag k="name" v="Eker" />
		<tag k="place" v="isolated_dwelling" />
		<tag k="ssr:stedsnr" v="309845" />
	</node>
	<node lat="60.123797226725934" lon="11.073144444136018" id="-32311">
		<tag k="name" v="Sydvoll" />
		<tag k="place" v="farm" />
		<tag k="ssr:stedsnr" v="326001" />
	</node>
	<node lat="60.18490833137903" lon="10.933905555318537" id="-32312">
		<tag k="historic" v="shieling" />
		<tag k="loc_name" v="Putsetra" />
		<tag k="name" v="Puttsæter" />
		<tag k="place" v="isolated_dwelling" />
		<tag k="ssr:stedsnr" v="326025" />
	</node>
	<node lat="60.28793560365978" lon="11.083860128210706" id="-32319">
		<tag k="name" v="Nordheim" />
		<tag k="place" v="farm" />
		<tag k="ssr:stedsnr" v="326158" />
	</node>
	<node lat="60.16127499626453" lon="10.952088879695083" id="-32325">
		<tag k="name" v="Ramstadhytta" />
		<tag k="place" v="isolated_dwelling" />
		<tag k="ssr:stedsnr" v="326196" />
	</node>
	<node lat="60.17706110750643" lon="11.038952773576312" id="-32329">
		<tag k="alt_name" v="Ukustad vestre" />
		<tag k="name" v="Vestre Ukustad" />
		<tag k="place" v="farm" />
		<tag k="ssr:stedsnr" v="326270" />
	</node>
	<node lat="60.234396415080376" lon="11.056065208383595" id="-32341">
		<tag k="name" v="Gunhildrud" />
		<tag k="place" v="farm" />
		<tag k="ssr:stedsnr" v="369794" />
	</node>
	<node lat="60.16947499918468" lon="10.996155562822118" id="-32346">
		<tag k="alt_name" v="Feviksflaen" />
		<tag k="name" v="Fevikflaen" />
		<tag k="place" v="farm" />
		<tag k="ssr:stedsnr" v="369646" />
	</node>
	<node lat="60.20766110792861" lon="11.053302775785824" id="-32349">
		<tag k="name" v="Langset" />
		<tag k="place" v="farm" />
		<tag k="ssr:stedsnr" v="369756" />
	</node>
	<node lat="60.22074089381734" lon="10.96573438502336" id="-32352">
		<tag k="name" v="Rudsanden" />
		<tag k="place" v="isolated_dwelling" />
		<tag k="ssr:stedsnr" v="369868" />
	</node>
	<node lat="60.29985000367127" lon="10.996169449043514" id="-32354">
		<tag k="name" v="Honvangen" />
		<tag k="old_name" v="Hornvangen" />
		<tag k="place" v="isolated_dwelling" />
		<tag k="ssr:stedsnr" v="370339" />
	</node>
	<node lat="60.305775002802136" lon="11.074775008688265" id="-32358">
		<tag k="alt_name" v="Huldraheim" />
		<tag k="name" v="Hulderheim" />
		<tag k="place" v="isolated_dwelling" />
		<tag k="ssr:stedsnr" v="370354" />
	</node>
	<node lat="60.26705000085685" lon="10.982100006412487" id="-32360">
		<tag k="name" v="Bakken" />
		<tag k="place" v="farm" />
		<tag k="ssr:stedsnr" v="370371" />
	</node>
	<node lat="60.14431944531347" lon="11.042833340833237" id="-32363">
		<tag k="name" v="Myrhaug" />
		<tag k="place" v="farm" />
		<tag k="ssr:stedsnr" v="387098" />
	</node>
	<node lat="60.1363777754404" lon="11.03449722661626" id="-32364">
		<tag k="name" v="Vestre Elton" />
		<tag k="place" v="farm" />
		<tag k="ssr:stedsnr" v="387099" />
	</node>
	<node lat="60.223744446497996" lon="11.026933337765023" id="-32369">
		<tag k="amenity" v="school" />
		<tag k="name" v="Preståsen skole" />
		<tag k="ssr:stedsnr" v="387269" />
	</node>
	<node lat="60.22781329015879" lon="10.989671331729896" id="-32371">
		<tag k="name" v="Vestre Skjennum" />
		<tag k="place" v="farm" />
		<tag k="ssr:stedsnr" v="387290" />
	</node>
	<node lat="60.25280833126455" lon="10.919766657831971" id="-32372">
		<tag k="historic" v="shieling" />
		<tag k="name" v="Breensæter" />
		<tag k="place" v="isolated_dwelling" />
		<tag k="ssr:stedsnr" v="387234" />
	</node>
	<node lat="60.22928333118565" lon="10.911811116706161" id="-32375">
		<tag k="name" v="Låkestykket" />
		<tag k="place" v="locality" />
		<tag k="ssr:stedsnr" v="387333" />
	</node>
	<node lat="60.20379999697702" lon="10.833316671862178" id="-32379">
		<tag k="name" v="Gamle villaen" />
		<tag k="place" v="isolated_dwelling" />
		<tag k="ssr:stedsnr" v="387348" />
	</node>
	<node lat="60.15927308811729" lon="11.037067942259263" id="-32382">
		<tag k="name" v="Lille Eik" />
		<tag k="place" v="farm" />
		<tag k="ssr:stedsnr" v="387397" />
	</node>
	<node lat="60.203572222109045" lon="11.044886112073229" id="-32387">
		<tag k="name" v="Norvoll" />
		<tag k="place" v="farm" />
		<tag k="ssr:stedsnr" v="387301" />
	</node>
	<node lat="60.177775002212954" lon="10.987080548855198" id="-32389">
		<tag k="name" v="Åsgreina" />
		<tag k="old_name" v="Åsgrenda" />
		<tag k="place" v="quarter" />
		<tag k="ssr:stedsnr" v="427750" />
	</node>
	<node lat="60.11778078968899" lon="11.051716815990126" id="-32390">
		<tag k="name" v="Haugerud" />
		<tag k="place" v="farm" />
		<tag k="ssr:stedsnr" v="430571" />
	</node>
	<node lat="60.13919837109518" lon="11.059109186667976" id="-32391">
		<tag k="name" v="Løken" />
		<tag k="place" v="farm" />
		<tag k="ssr:stedsnr" v="430644" />
	</node>
	<node lat="60.171330558400015" lon="10.986880547623382" id="-32392">
		<tag k="name" v="Løvstad" />
		<tag k="place" v="farm" />
		<tag k="ssr:stedsnr" v="430681" />
	</node>
	<node lat="60.17736666284697" lon="10.992091669970565" id="-32395">
		<tag k="name" v="Trondrud" />
		<tag k="place" v="farm" />
		<tag k="ssr:stedsnr" v="430783" />
	</node>
	<node lat="60.20332778031311" lon="10.947458327638689" id="-32396">
		<tag k="name" v="Røtterudmoen" />
		<tag k="place" v="hamlet" />
		<tag k="ssr:stedsnr" v="430847" />
	</node>
	<node lat="60.22536110908782" lon="11.032588892824664" id="-32397">
		<tag k="name" v="Preståsen" />
		<tag k="place" v="neighbourhood" />
		<tag k="ssr:stedsnr" v="430852" />
	</node>
	<node lat="60.15763961968022" lon="11.009071965495862" id="-32398">
		<tag k="name" v="Ånum" />
		<tag k="place" v="farm" />
		<tag k="ssr:stedsnr" v="430736" />
	</node>
	<node lat="60.26928055930514" lon="11.003150000277024" id="-32401">
		<tag k="name" v="Bergerud" />
		<tag k="place" v="farm" />
		<tag k="ssr:stedsnr" v="431341" />
	</node>
	<node lat="60.274202774128796" lon="11.022725006685947" id="-32402">
		<tag k="name" v="Lilykkja" />
		<tag k="place" v="isolated_dwelling" />
		<tag k="ssr:stedsnr" v="431344" />
	</node>
	<node lat="60.283105555738956" lon="11.043149992196117" id="-32406">
		<tag k="name" v="Holtet" />
		<tag k="place" v="isolated_dwelling" />
		<tag k="ssr:stedsnr" v="431360" />
	</node>
	<node lat="60.279593250341826" lon="11.0674318544278" id="-32407">
		<tag k="name" v="Østli" />
		<tag k="place" v="farm" />
		<tag k="ssr:stedsnr" v="431362" />
	</node>
	<node lat="60.29327499687084" lon="11.009700004683134" id="-32408">
		<tag k="alt_name" v="Totnerseter" />
		<tag k="historic" v="shieling" />
		<tag k="name" v="Totnersætra" />
		<tag k="place" v="isolated_dwelling" />
		<tag k="ssr:stedsnr" v="431363" />
	</node>
	<node lat="60.28538332899677" lon="11.032336108165765" id="-32409">
		<tag k="name" v="Røtnesholtet" />
		<tag k="place" v="isolated_dwelling" />
		<tag k="ssr:stedsnr" v="431364" />
	</node>
	<node lat="60.258274996675176" lon="10.871300002338721" id="-32410">
		<tag k="name" v="Steinmyrhytta" />
		<tag k="place" v="locality" />
		<tag k="ssr:stedsnr" v="431388" />
	</node>
	<node lat="60.26440278141616" lon="11.048475000010642" id="-32412">
		<tag k="name" v="Fjellhaug" />
		<tag k="place" v="farm" />
		<tag k="ssr:stedsnr" v="431393" />
	</node>
	<node lat="60.21128423409895" lon="10.995271953087432" id="-32415">
		<tag k="name" v="Kjønstad" />
		<tag k="place" v="farm" />
		<tag k="ssr:stedsnr" v="490857" />
	</node>
	<node lat="60.268639360639305" lon="10.869836722916098" id="-32419">
		<tag k="alt_name" v="Bidslersætra;Bislerseter" />
		<tag k="historic" v="shieling" />
		<tag k="name" v="Bislersætra" />
		<tag k="place" v="isolated_dwelling" />
		<tag k="ssr:stedsnr" v="491347" />
	</node>
	<node lat="60.276908333766066" lon="10.846249993967978" id="-32420">
		<tag k="name" v="Vestrehytta" />
		<tag k="place" v="isolated_dwelling" />
		<tag k="ssr:stedsnr" v="491349" />
	</node>
	<node lat="60.29432500462981" lon="11.02966943678144" id="-32423">
		<tag k="alt_name" v="Fløtten, øvre" />
		<tag k="historic" v="shieling" />
		<tag k="name" v="Øvre Fløtten" />
		<tag k="place" v="isolated_dwelling" />
		<tag k="ssr:stedsnr" v="491363" />
	</node>
	<node lat="60.1569222500371" lon="11.04653189389672" id="-32424">
		<tag k="name" v="Søberg" />
		<tag k="place" v="farm" />
		<tag k="ssr:stedsnr" v="491729" />
	</node>
	<node lat="60.32102268419989" lon="11.061141797156665" id="-32426">
		<tag k="name" v="Sandsnesplassen" />
		<tag k="place" v="isolated_dwelling" />
		<tag k="ssr:stedsnr" v="491270" />
	</node>
	<node lat="60.152259315846536" lon="11.057865314793418" id="-32427">
		<tag k="alt_name" v="Midtre Døli" />
		<tag k="name" v="Døli" />
		<tag k="place" v="farm" />
		<tag k="ssr:stedsnr" v="491734" />
	</node>
	<node lat="60.21152500080347" lon="10.797847228380832" id="-32428">
		<tag k="name" v="Vestenden" />
		<tag k="place" v="isolated_dwelling" />
		<tag k="ssr:stedsnr" v="491846" />
	</node>
	<node lat="60.207263884917715" lon="10.89099166138222" id="-32429">
		<tag k="historic" v="shieling" />
		<tag k="name" v="Låkesæter" />
		<tag k="place" v="isolated_dwelling" />
		<tag k="ssr:stedsnr" v="491848" />
	</node>
	<node lat="60.18270833653934" lon="11.043599997341955" id="-32431">
		<tag k="name" v="Haugen" />
		<tag k="place" v="farm" />
		<tag k="ssr:stedsnr" v="491776" />
	</node>
	<node lat="60.18245093548696" lon="11.068072049811" id="-32432">
		<tag k="name" v="Hagen" />
		<tag k="place" v="locality" />
		<tag k="ssr:stedsnr" v="491777" />
	</node>
	<node lat="60.26029989853379" lon="11.044188834552786" id="-32433">
		<tag k="alt_name" v="Stenset" />
		<tag k="name" v="Steinset" />
		<tag k="place" v="farm" />
		<tag k="ssr:stedsnr" v="492350" />
	</node>
	<node lat="60.26897221934185" lon="11.093949996138202" id="-32436">
		<tag k="name" v="Øvre Sundby" />
		<tag k="place" v="farm" />
		<tag k="ssr:stedsnr" v="508148" />
	</node>
	<node lat="60.26892499922976" lon="11.09131111618609" id="-32437">
		<tag k="name" v="Surpedalen" />
		<tag k="place" v="farm" />
		<tag k="ssr:stedsnr" v="508154" />
	</node>
	<node lat="60.180836110351414" lon="10.926636103855513" id="-32438">
		<tag k="name" v="Kjoshytta" />
		<tag k="place" v="isolated_dwelling" />
		<tag k="ssr:stedsnr" v="508040" />
	</node>
	<node lat="60.19892777346271" lon="10.912358339448025" id="-32440">
		<tag k="name" v="Brushorn" />
		<tag k="place" v="isolated_dwelling" />
		<tag k="ssr:stedsnr" v="508050" />
	</node>
	<node lat="60.21948333729814" lon="10.916627769449018" id="-32441">
		<tag k="name" v="Kaksrudhytta" />
		<tag k="place" v="isolated_dwelling" />
		<tag k="ssr:stedsnr" v="508051" />
	</node>
	<node lat="60.151791670710914" lon="11.033130563399606" id="-32447">
		<tag k="name" v="Sandberg" />
		<tag k="place" v="farm" />
		<tag k="ssr:stedsnr" v="508084" />
	</node>
	<node lat="60.11426666920041" lon="11.058655557779131" id="-32448">
		<tag k="name" v="Nedre Låvegg" />
		<tag k="place" v="farm" />
		<tag k="ssr:stedsnr" v="508087" />
	</node>
	<node lat="60.23526666971919" lon="11.085700006157937" id="-32453">
		<tag k="name" v="Lybekkbotn" />
		<tag k="place" v="farm" />
		<tag k="ssr:stedsnr" v="508400" />
	</node>
	<node lat="60.23307357185271" lon="10.988990182213534" id="-32454">
		<tag k="name" v="Østre Kringler" />
		<tag k="place" v="farm" />
		<tag k="ssr:stedsnr" v="508465" />
	</node>
	<node lat="60.33891666717319" lon="11.023058333913148" id="-32460">
		<tag k="name" v="Granvoll" />
		<tag k="place" v="farm" />
		<tag k="ssr:stedsnr" v="508434" />
	</node>
	<node lat="60.245480552489134" lon="10.9922222151185" id="-32466">
		<tag k="name" v="Østre Økri" />
		<tag k="place" v="farm" />
		<tag k="ssr:stedsnr" v="528079" />
	</node>
	<node lat="60.17466209239556" lon="11.050208522410399" id="-32468">
		<tag k="alt_name" v="Ukkestad;Ukustad" />
		<tag k="name" v="Østre Ukustad" />
		<tag k="place" v="farm" />
		<tag k="ssr:stedsnr" v="551724" />
	</node>
	<node lat="60.155851946382285" lon="11.035936550883601" id="-32469">
		<tag k="alt_name" v="Eik, søndre" />
		<tag k="name" v="Søndre Eik" />
		<tag k="place" v="farm" />
		<tag k="ssr:stedsnr" v="551739" />
	</node>
	<node lat="60.16131006793729" lon="11.009031355338363" id="-32470">
		<tag k="name" v="Bjørkeik" />
		<tag k="place" v="farm" />
		<tag k="ssr:stedsnr" v="551741" />
	</node>
	<node lat="60.18566110890279" lon="11.00013056269712" id="-32472">
		<tag k="alt_name" v="Lerbergenga" />
		<tag k="name" v="Lerbergsenga" />
		<tag k="place" v="farm" />
		<tag k="ssr:stedsnr" v="551813" />
	</node>
	<node lat="60.20465576124884" lon="11.03521925816323" id="-32473">
		<tag k="alt_name" v="Bidsler" />
		<tag k="name" v="Bisler" />
		<tag k="place" v="farm" />
		<tag k="ssr:stedsnr" v="551790" />
	</node>
	<node lat="60.211200003131644" lon="11.016933327963642" id="-32474">
		<tag k="alt_name" v="Heggelisletta" />
		<tag k="name" v="Hegglisletta" />
		<tag k="place" v="farm" />
		<tag k="ssr:stedsnr" v="551793" />
	</node>
	<node lat="60.205450001053116" lon="11.011786112427556" id="-32475">
		<tag k="alt_name" v="Nedre Heggeli;Nerheggli" />
		<tag k="name" v="Nedre Heggli" />
		<tag k="place" v="farm" />
		<tag k="ssr:stedsnr" v="551794" />
	</node>
	<node lat="60.23149398737806" lon="11.066856314002306" id="-32478">
		<tag k="name" v="Løvli" />
		<tag k="place" v="farm" />
		<tag k="ssr:stedsnr" v="551830" />
	</node>
	<node lat="60.30026949881511" lon="11.042860381362011" id="-32482">
		<tag k="name" v="Sollia" />
		<tag k="place" v="farm" />
		<tag k="ssr:stedsnr" v="552327" />
	</node>
	<node lat="60.30277500281074" lon="11.075658338627665" id="-32484">
		<tag k="name" v="Berntsbråten" />
		<tag k="place" v="isolated_dwelling" />
		<tag k="ssr:stedsnr" v="552334" />
	</node>
	<node lat="60.250605553628105" lon="10.993080555037295" id="-32486">
		<tag k="name" v="Moen" />
		<tag k="place" v="farm" />
		<tag k="ssr:stedsnr" v="552386" />
	</node>
	<node lat="60.134313892977524" lon="10.970452781330398" id="-32487">
		<tag k="name" v="Ramstadvillaen" />
		<tag k="place" v="isolated_dwelling" />
		<tag k="ssr:stedsnr" v="568068" />
	</node>
	<node lat="60.146882505011" lon="11.048702619731811" id="-32489">
		<tag k="name" v="Nordre Holter" />
		<tag k="place" v="farm" />
		<tag k="ssr:stedsnr" v="568074" />
	</node>
	<node lat="60.15239729833617" lon="11.003906570467828" id="-32497">
		<tag k="name" v="Bekkevar" />
		<tag k="place" v="locality" />
		<tag k="ssr:stedsnr" v="568061" />
	</node>
	<node lat="60.15340833758489" lon="11.03649445120471" id="-32499">
		<tag k="name" v="Dalheim" />
		<tag k="place" v="farm" />
		<tag k="ssr:stedsnr" v="568082" />
	</node>
	<node lat="60.181592175705994" lon="11.066016319228618" id="-32508">
		<tag k="name" v="Solbu" />
		<tag k="place" v="isolated_dwelling" />
		<tag k="ssr:stedsnr" v="569356" />
	</node>
	<node lat="60.301036114693936" lon="10.996269446086814" id="-32512">
		<tag k="name" v="Honheim" />
		<tag k="place" v="isolated_dwelling" />
		<tag k="ssr:stedsnr" v="569488" />
	</node>
	<node lat="60.11022869362796" lon="11.044886557874369" id="-32513">
		<tag k="name" v="Kjærstad" />
		<tag k="place" v="farm" />
		<tag k="ssr:stedsnr" v="569889" />
	</node>
	<node lat="60.27350833595658" lon="11.047702783090182" id="-32514">
		<tag k="name" v="Holkebyhytta" />
		<tag k="place" v="isolated_dwelling" />
		<tag k="ssr:stedsnr" v="569447" />
	</node>
	<node lat="60.133778074486685" lon="11.066426395510732" id="-32516">
		<tag k="name" v="Gutu" />
		<tag k="place" v="farm" />
		<tag k="ssr:stedsnr" v="611664" />
	</node>
	<node lat="60.161984312903904" lon="11.003446904734323" id="-32518">
		<tag k="name" v="Knevelsrud" />
		<tag k="place" v="farm" />
		<tag k="ssr:stedsnr" v="611740" />
	</node>
	<node lat="60.15702777880202" lon="11.031377777165805" id="-32519">
		<tag k="alt_name" v="Fagerli sykehjem" />
		<tag k="amenity" v="nursing_home" />
		<tag k="name" v="Fagerli" />
		<tag k="ssr:stedsnr" v="611747" />
	</node>
	<node lat="60.135216667887796" lon="11.01149723097127" id="-32520">
		<tag k="alt_name" v="Kjensbekk" />
		<tag k="name" v="Tjernsbekk" />
		<tag k="place" v="neighbourhood" />
		<tag k="ssr:stedsnr" v="611673" />
	</node>
	<node lat="60.30012499838173" lon="10.909049998619622" id="-32521">
		<tag k="name" v="Kjagdalstua" />
		<tag k="place" v="isolated_dwelling" />
		<tag k="ssr:stedsnr" v="612315" />
	</node>
	<node lat="60.193189093204445" lon="10.972414333285561" id="-32522">
		<tag k="name" v="Kopperud" />
		<tag k="place" v="farm" />
		<tag k="ssr:stedsnr" v="612797" />
	</node>
	<node lat="60.27335000336704" lon="10.995422217700328" id="-32523">
		<tag k="name" v="Bunes" />
		<tag k="place" v="farm" />
		<tag k="ssr:stedsnr" v="612338" />
	</node>
	<node lat="60.29950833410791" lon="11.01407499646951" id="-32528">
		<tag k="alt_name" v="Mjælbergseter" />
		<tag k="historic" v="shieling" />
		<tag k="name" v="Mjælabergsætra" />
		<tag k="place" v="isolated_dwelling" />
		<tag k="ssr:stedsnr" v="613290" />
	</node>
	<node lat="60.30095555978199" lon="10.969124999026299" id="-32529">
		<tag k="alt_name" v="Engerseter" />
		<tag k="historic" v="shieling" />
		<tag k="name" v="Engersætra" />
		<tag k="place" v="isolated_dwelling" />
		<tag k="ssr:stedsnr" v="613296" />
	</node>
	<node lat="60.19749166879691" lon="11.032425008732142" id="-32530">
		<tag k="name" v="Engerhaugen" />
		<tag k="place" v="farm" />
		<tag k="ssr:stedsnr" v="612752" />
	</node>
	<node lat="60.2206916674721" lon="11.01759999855643" id="-32531">
		<tag k="alt_name" v="Teiebyen" />
		<tag k="name" v="Teigebyen" />
		<tag k="place" v="quarter" />
		<tag k="ssr:stedsnr" v="612839" />
	</node>
	<node lat="60.213307563220454" lon="11.067577504663612" id="-32532">
		<tag k="name" v="Vigstein" />
		<tag k="place" v="farm" />
		<tag k="ssr:stedsnr" v="612841" />
	</node>
	<node lat="60.25102362726168" lon="11.001996086233882" id="-32535">
		<tag k="name" v="Breen" />
		<tag k="place" v="farm" />
		<tag k="ssr:stedsnr" v="613346" />
	</node>
	<node lat="60.25319999598749" lon="10.989924997281296" id="-32536">
		<tag k="name" v="Lauum" />
		<tag k="place" v="farm" />
		<tag k="ssr:stedsnr" v="613350" />
	</node>
	<node lat="60.26447777967635" lon="11.071533336916069" id="-32538">
		<tag k="name" v="Myrhaug" />
		<tag k="place" v="farm" />
		<tag k="ssr:stedsnr" v="613376" />
	</node>
	<node lat="60.263605552080854" lon="11.027274991834474" id="-32539">
		<tag k="name" v="Vilberg" />
		<tag k="place" v="farm" />
		<tag k="ssr:stedsnr" v="613378" />
	</node>
	<node lat="60.18760277386346" lon="10.868244439363158" id="-32540">
		<tag k="name" v="Knepphaugen" />
		<tag k="place" v="locality" />
		<tag k="ssr:stedsnr" v="627799" />
	</node>
	<node lat="60.13778055923323" lon="11.045116661338817" id="-32546">
		<tag k="name" v="Løkenfeltet" />
		<tag k="place" v="neighbourhood" />
		<tag k="ssr:stedsnr" v="629091" />
	</node>
	<node lat="60.21721666267193" lon="11.012025008081025" id="-32555">
		<tag k="amenity" v="school" />
		<tag k="name" v="Eker skole" />
		<tag k="ssr:stedsnr" v="629280" />
	</node>
	<node lat="60.215630553747474" lon="11.01114444866968" id="-32557">
		<tag k="name" v="Sandvang" />
		<tag k="place" v="farm" />
		<tag k="ssr:stedsnr" v="629286" />
	</node>
	<node lat="60.20010833123094" lon="10.958561118944766" id="-32559">
		<tag k="name" v="Perslykkja" />
		<tag k="place" v="farm" />
		<tag k="ssr:stedsnr" v="630274" />
	</node>
	<node lat="60.23109444640104" lon="11.046997220716912" id="-32560">
		<tag k="name" v="Bråtan" />
		<tag k="place" v="locality" />
		<tag k="ssr:stedsnr" v="630281" />
	</node>
	<node lat="60.123213886475305" lon="11.05898332955469" id="-32565">
		<tag k="name" v="Slemdal" />
		<tag k="place" v="locality" />
		<tag k="ssr:stedsnr" v="733629" />
	</node>
	<node lat="60.12555025651296" lon="11.070737496822083" id="-32566">
		<tag k="name" v="Grøsåker" />
		<tag k="place" v="farm" />
		<tag k="ssr:stedsnr" v="733631" />
	</node>
	<node lat="60.179025001306584" lon="10.990533326079014" id="-32568">
		<tag k="name" v="Åsjordet" />
		<tag k="place" v="farm" />
		<tag k="ssr:stedsnr" v="733763" />
	</node>
	<node lat="60.276108334572896" lon="11.029599992269507" id="-32569">
		<tag k="name" v="Fagerås" />
		<tag k="place" v="farm" />
		<tag k="ssr:stedsnr" v="734374" />
	</node>
	<node lat="60.233761106805375" lon="10.908152777821963" id="-32573">
		<tag k="historic" v="shieling" />
		<tag k="name" v="Kringlevangen" />
		<tag k="place" v="isolated_dwelling" />
		<tag k="ssr:stedsnr" v="733828" />
	</node>
	<node lat="60.23907745117389" lon="11.0105536719104" id="-32575">
		<tag k="alt_name" v="Hetaker" />
		<tag k="name" v="Hetåker" />
		<tag k="place" v="farm" />
		<tag k="ssr:stedsnr" v="733835" />
	</node>
	<node lat="60.23071389139172" lon="11.013208332894376" id="-32576">
		<tag k="name" v="Linderud" />
		<tag k="place" v="locality" />
		<tag k="ssr:stedsnr" v="733836" />
	</node>
	<node lat="60.33290555715344" lon="10.962824998404436" id="-32577">
		<tag k="alt_name" v="Dalsseter" />
		<tag k="historic" v="shieling" />
		<tag k="name" v="Dalssætra" />
		<tag k="place" v="isolated_dwelling" />
		<tag k="ssr:stedsnr" v="734314" />
	</node>
	<node lat="60.1747150718228" lon="11.026408865841221" id="-32579">
		<tag k="alt_name" v="Vassengen" />
		<tag k="name" v="Vassenga" />
		<tag k="place" v="farm" />
		<tag k="ssr:stedsnr" v="733782" />
	</node>
	<node lat="60.19323333671024" lon="10.994133336586144" id="-32580">
		<tag k="name" v="Homledalen" />
		<tag k="place" v="farm" />
		<tag k="ssr:stedsnr" v="733784" />
	</node>
	<node lat="60.27637500085359" lon="11.07107499941009" id="-32581">
		<tag k="name" v="Østlibråten" />
		<tag k="place" v="farm" />
		<tag k="ssr:stedsnr" v="734358" />
	</node>
	<node lat="60.28193055790924" lon="10.9211472234719" id="-32582">
		<tag k="name" v="Flaenstua" />
		<tag k="place" v="locality" />
		<tag k="ssr:stedsnr" v="734369" />
	</node>
	<node lat="60.253433329223014" lon="11.021083328881035" id="-32585">
		<tag k="name" v="Molstad" />
		<tag k="place" v="farm" />
		<tag k="ssr:stedsnr" v="734384" />
	</node>
	<node lat="60.149386114398716" lon="11.011836119019522" id="-32586">
		<tag k="name" v="Grønlia" />
		<tag k="place" v="farm" />
		<tag k="ssr:stedsnr" v="734668" />
	</node>
	<node lat="60.147654533862934" lon="11.018357156794567" id="-32587">
		<tag k="name" v="Rovol" />
		<tag k="place" v="farm" />
		<tag k="ssr:stedsnr" v="734671" />
	</node>
	<node lat="60.212330591292975" lon="11.007594631050551" id="-32588">
		<tag k="name" v="Nannestad" />
		<tag k="place" v="farm" />
		<tag k="ssr:stedsnr" v="734866" />
	</node>
	<node lat="60.21588137534089" lon="10.994925281804383" id="-32589">
		<tag k="name" v="Vestby" />
		<tag k="place" v="farm" />
		<tag k="ssr:stedsnr" v="734868" />
	</node>
	<node lat="60.22846666770854" lon="10.89778611359099" id="-32592">
		<tag k="name" v="Gåsetjernhytta" />
		<tag k="place" v="isolated_dwelling" />
		<tag k="ssr:stedsnr" v="751343" />
	</node>
	<node lat="60.13333333734336" lon="11.06437499577904" id="-32593">
		<tag k="name" v="Vestre Gutu" />
		<tag k="place" v="farm" />
		<tag k="ssr:stedsnr" v="751002" />
	</node>
	<node lat="60.140538886629564" lon="11.044602772117242" id="-32597">
		<tag k="name" v="Løkenfeltet" />
		<tag k="place" v="neighbourhood" />
		<tag k="ssr:stedsnr" v="751086" />
	</node>
	<node lat="60.17687777856544" lon="11.022447214356259" id="-32604">
		<tag k="name" v="Midtre Vassengen" />
		<tag k="place" v="farm" />
		<tag k="ssr:stedsnr" v="751297" />
	</node>
	<node lat="60.26676666383692" lon="11.009444437754148" id="-32609">
		<tag k="name" v="Totnerstua" />
		<tag k="place" v="farm" />
		<tag k="ssr:stedsnr" v="751458" />
	</node>
	<node lat="60.218930551810935" lon="10.919836105482483" id="-32613">
		<tag k="name" v="Rønninghytta" />
		<tag k="place" v="isolated_dwelling" />
		<tag k="ssr:stedsnr" v="751059" />
	</node>
	<node lat="60.22907931731924" lon="10.990076490483242" id="-32620">
		<tag k="name" v="Nordre Skjennum" />
		<tag k="place" v="farm" />
		<tag k="ssr:stedsnr" v="751944" />
	</node>
	<node lat="60.172610307392496" lon="10.999234364358419" id="-32623">
		<tag k="name" v="Slattum" />
		<tag k="place" v="farm" />
		<tag k="ssr:stedsnr" v="794702" />
	</node>
	<node lat="60.145828064387636" lon="11.051713455311589" id="-32624">
		<tag k="name" v="Holter" />
		<tag k="place" v="farm" />
		<tag k="ssr:stedsnr" v="794642" />
	</node>
	<node lat="60.186075003208494" lon="10.98349166357859" id="-32629">
		<tag k="name" v="Fjellberg" />
		<tag k="place" v="farm" />
		<tag k="ssr:stedsnr" v="794777" />
	</node>
	<node lat="60.17931589984056" lon="10.998303009550034" id="-32631">
		<tag k="name" v="Øvre Nordby" />
		<tag k="place" v="farm" />
		<tag k="ssr:stedsnr" v="794791" />
	</node>
	<node lat="60.20939779383018" lon="10.968895378056752" id="-32632">
		<tag k="name" v="Melby" />
		<tag k="place" v="farm" />
		<tag k="ssr:stedsnr" v="794846" />
	</node>
	<node lat="60.22914722963577" lon="11.064279531784793" id="-32633">
		<tag k="alt_name" v="Øvre Rud" />
		<tag k="name" v="Rud" />
		<tag k="place" v="farm" />
		<tag k="ssr:stedsnr" v="794849" />
	</node>
	<node lat="60.216092726900534" lon="10.863841985398814" id="-32634">
		<tag k="name" v="Rudsvangen" />
		<tag k="place" v="locality" />
		<tag k="ssr:stedsnr" v="794862" />
	</node>
	<node lat="60.25439475071496" lon="11.102252895316077" id="-32637">
		<tag k="name" v="Nordmoen" />
		<tag k="place" v="farm" />
		<tag k="ssr:stedsnr" v="795257" />
	</node>
	<node lat="60.20448333610052" lon="10.924708333688262" id="-32640">
		<tag k="name" v="Erpestadhytta" />
		<tag k="place" v="isolated_dwelling" />
		<tag k="ssr:stedsnr" v="812054" />
	</node>
	<node lat="60.25160833565396" lon="11.044019450635172" id="-32653">
		<tag k="name" v="Nordli" />
		<tag k="place" v="farm" />
		<tag k="ssr:stedsnr" v="812169" />
	</node>
	<node lat="60.27695809195575" lon="11.068010925471095" id="-32654">
		<tag k="name" v="Østli" />
		<tag k="place" v="farm" />
		<tag k="ssr:stedsnr" v="812173" />
	</node>
	<node lat="60.18001389099693" lon="11.06442499738464" id="-32657">
		<tag k="name" v="Skogbu" />
		<tag k="place" v="farm" />
		<tag k="ssr:stedsnr" v="812372" />
	</node>
	<node lat="60.27232777757459" lon="10.981755559205679" id="-32663">
		<tag k="name" v="Borhaugstua" />
		<tag k="place" v="isolated_dwelling" />
		<tag k="ssr:stedsnr" v="812476" />
	</node>
	<node lat="60.32990555274677" lon="11.057950008324442" id="-32667">
		<tag k="alt_name" v="Nordre Skjebindertangen" />
		<tag k="name" v="Tangen" />
		<tag k="place" v="farm" />
		<tag k="ssr:stedsnr" v="855278" />
	</node>
	<node lat="60.15457181890831" lon="11.020826088622853" id="-32668">
		<tag k="name" v="Trugstad" />
		<tag k="place" v="farm" />
		<tag k="ssr:stedsnr" v="855766" />
	</node>
	<node lat="60.19816389284" lon="11.00926665816747" id="-32669">
		<tag k="alt_name" v="Homle" />
		<tag k="name" v="Østre Homle" />
		<tag k="place" v="farm" />
		<tag k="ssr:stedsnr" v="855775" />
	</node>
	<node lat="60.233119446603325" lon="11.080080562772492" id="-32670">
		<tag k="name" v="Granlund" />
		<tag k="place" v="farm" />
		<tag k="ssr:stedsnr" v="855843" />
	</node>
	<node lat="60.136413695140966" lon="11.048094119793925" id="-32672">
		<tag k="name" v="Eltonhaugen" />
		<tag k="place" v="isolated_dwelling" />
		<tag k="ssr:stedsnr" v="855671" />
	</node>
	<node lat="60.19910555904134" lon="10.963602781052005" id="-32674">
		<tag k="name" v="Røtterudhaugen" />
		<tag k="place" v="farm" />
		<tag k="ssr:stedsnr" v="855801" />
	</node>
	<node lat="60.188216557308905" lon="11.008377805001764" id="-32675">
		<tag k="alt_name" v="Ånåsrud" />
		<tag k="name" v="Ånesrud" />
		<tag k="place" v="farm" />
		<tag k="ssr:stedsnr" v="855828" />
	</node>
	<node lat="60.20574985659893" lon="10.954990521999408" id="-32678">
		<tag k="name" v="Granås" />
		<tag k="place" v="farm" />
		<tag k="ssr:stedsnr" v="855870" />
	</node>
	<node lat="60.27230254594593" lon="10.902399301833698" id="-32679">
		<tag k="name" v="Asakskogen" />
		<tag k="place" v="farm" />
		<tag k="ssr:stedsnr" v="856357" />
	</node>
	<node lat="60.29159999984939" lon="11.036302777328382" id="-32681">
		<tag k="alt_name" v="Fløtten" />
		<tag k="name" v="Nedre Fløtten" />
		<tag k="place" v="farm" />
		<tag k="ssr:stedsnr" v="856379" />
	</node>
	<node lat="60.25475277641722" lon="10.977066657750463" id="-32684">
		<tag k="name" v="Slettmoen" />
		<tag k="place" v="farm" />
		<tag k="ssr:stedsnr" v="856387" />
	</node>
	<node lat="60.25225000042789" lon="10.989691662951735" id="-32685">
		<tag k="name" v="Korsmo" />
		<tag k="place" v="farm" />
		<tag k="ssr:stedsnr" v="856388" />
	</node>
	<node lat="60.25275833768661" lon="11.010577786452266" id="-32686">
		<tag k="alt_name" v="Breen, søndre" />
		<tag k="name" v="Søndre Breen" />
		<tag k="place" v="farm" />
		<tag k="ssr:stedsnr" v="856396" />
	</node>
	<node lat="60.13822500070863" lon="11.046086105896505" id="-32687">
		<tag k="name" v="Myrvoll" />
		<tag k="place" v="farm" />
		<tag k="ssr:stedsnr" v="872076" />
	</node>
	<node lat="60.15429237448062" lon="11.02798120368202" id="-32688">
		<tag k="name" v="Nordre Erpestad" />
		<tag k="place" v="farm" />
		<tag k="ssr:stedsnr" v="872083" />
	</node>
	<node lat="60.19755555948212" lon="10.965575000921834" id="-32693">
		<tag k="name" v="Røtterud" />
		<tag k="place" v="farm" />
		<tag k="ssr:stedsnr" v="872200" />
	</node>
	<node lat="60.3344388931806" lon="11.03004167283933" id="-32699">
		<tag k="name" v="Larsbråtan" />
		<tag k="place" v="farm" />
		<tag k="ssr:stedsnr" v="872444" />
	</node>
	<node lat="60.185866937143906" lon="11.067114681203234" id="-32700">
		<tag k="alt_name" v="Rutolen" />
		<tag k="name" v="Rutholen" />
		<tag k="place" v="locality" />
		<tag k="ssr:stedsnr" v="872446" />
	</node>
	<node lat="60.265422222728574" lon="10.98235277745453" id="-32706">
		<tag k="alt_name" v="Vollaugmoen" />
		<tag k="name" v="Vålaugmoen" />
		<tag k="old_name" v="Vaalaugmoen" />
		<tag k="place" v="hamlet" />
		<tag k="ssr:stedsnr" v="872493" />
	</node>
	<node lat="60.23671944646714" lon="10.991816666436247" id="-32713">
		<tag k="name" v="Kringler meieri" />
		<tag k="place" v="farm" />
		<tag k="ssr:stedsnr" v="933261" />
	</node>
	<node lat="60.14306389151903" lon="10.998797217053262" id="-32715">
		<tag k="name" v="Høgkollhytta" />
		<tag k="place" v="isolated_dwelling" />
		<tag k="ssr:stedsnr" v="933071" />
	</node>
	<node lat="60.19056389124599" lon="10.903191661534972" id="-32717">
		<tag k="name" v="Fossli" />
		<tag k="place" v="isolated_dwelling" />
		<tag k="ssr:stedsnr" v="933019" />
	</node>
	<node lat="60.13086220438237" lon="11.02688104942643" id="-32720">
		<tag k="alt_name" v="Gangfløthagan" />
		<tag k="name" v="Gangfløtthagan" />
		<tag k="old_name" v="Gangfløtthagen" />
		<tag k="place" v="locality" />
		<tag k="ssr:stedsnr" v="933124" />
	</node>
	<node lat="60.25004999835605" lon="11.020402771030051" id="-32721">
		<tag k="name" v="Stanger" />
		<tag k="place" v="farm" />
		<tag k="ssr:stedsnr" v="933132" />
	</node>
	<node lat="60.19840277393623" lon="11.005297226698453" id="-32722">
		<tag k="name" v="Homle" />
		<tag k="place" v="farm" />
		<tag k="ssr:stedsnr" v="933297" />
	</node>
	<node lat="60.222894445619694" lon="10.93303055268433" id="-32723">
		<tag k="name" v="Kjærstadhytta" />
		<tag k="place" v="isolated_dwelling" />
		<tag k="ssr:stedsnr" v="933330" />
	</node>
	<node lat="60.3422874585954" lon="11.023327855915387" id="-32727">
		<tag k="name" v="Nyengen" />
		<tag k="place" v="farm" />
		<tag k="ssr:stedsnr" v="933429" />
	</node>
	<node lat="60.33863888549348" lon="11.02662222169392" id="-32728">
		<tag k="name" v="Vangen" />
		<tag k="place" v="farm" />
		<tag k="ssr:stedsnr" v="933431" />
	</node>
	<node lat="60.33604166625692" lon="11.027774993046481" id="-32729">
		<tag k="name" v="Jordet" />
		<tag k="place" v="farm" />
		<tag k="ssr:stedsnr" v="933433" />
	</node>
	<node lat="60.246111108809785" lon="10.961797214681164" id="-32731">
		<tag k="name" v="Østgardshytta" />
		<tag k="place" v="isolated_dwelling" />
		<tag k="ssr:stedsnr" v="933476" />
	</node>
	<node lat="60.27441944347798" lon="10.919513888791291" id="-32740">
		<tag k="historic" v="shieling" />
		<tag k="name" v="Gammelsæter" />
		<tag k="place" v="isolated_dwelling" />
		<tag k="ssr:stedsnr" v="933385" />
	</node>
	<node lat="60.29982500044363" lon="10.973177781027617" id="-32746">
		<tag k="fixme" v="consider tourism=alpine_hut or tourism=chalet" />
		<tag k="name" v="Vikkelihytta" />
		<tag k="ssr:stedsnr" v="965877" />
		<tag k="tourism" v="wilderness_hut" />
	</node>
	<node lat="60.23273049085932" lon="10.985719237763883" id="-32988">
		<tag k="name" v="Vestre Kringler" />
		<tag k="place" v="farm" />
		<tag k="ssr:stedsnr" v="1072136" />
	</node>
	<node lat="60.30062089805984" lon="11.029454730543748" id="-32991">
		<tag k="leisure" v="pitch" />
		<tag k="name" v="Nordåsen skistadion" />
		<tag k="ssr:stedsnr" v="1074515" />
	</node>
	<node lat="60.232145250436" lon="10.983276777632032" id="-32992">
		<tag k="loc_name" v="Vestre Haugen" />
		<tag k="name" v="Hokringler" />
		<tag k="place" v="locality" />
		<tag k="ssr:stedsnr" v="1076978" />
	</node>
	<node lat="60.22940155996845" lon="10.98013061990421" id="-32993">
		<tag k="name" v="Kringler" />
		<tag k="place" v="farm" />
		<tag k="ssr:stedsnr" v="1076986" />
	</node>
	<node lat="60.25070825840398" lon="11.084876698173842" id="-32994">
		<tag k="name" v="Herberg" />
		<tag k="place" v="farm" />
		<tag k="ssr:stedsnr" v="1079096" />
	</node>
	<node lat="60.23561651351657" lon="11.004660120965475" id="-32995">
		<tag k="name" v="Bjørke" />
		<tag k="place" v="farm" />
		<tag k="ssr:stedsnr" v="1079098" />
	</node>
	<node lat="60.28646841276798" lon="10.954795928225323" id="-32996">
		<tag k="name" v="Bjørke allmenning" />
		<tag k="place" v="locality" />
		<tag k="ssr:stedsnr" v="1079099" />
	</node>
	<node lat="60.31253195941307" lon="11.016656705352212" id="-32997">
		<tag k="name" v="Nordåsen" />
		<tag k="place" v="locality" />
		<tag k="ssr:stedsnr" v="1079100" />
	</node>
	<node lat="60.222415863738284" lon="10.882242163389627" id="-32998">
		<tag k="name" v="Nannestad allmenning" />
		<tag k="place" v="locality" />
		<tag k="ssr:stedsnr" v="1079101" />
	</node>
	<node lat="60.1469770564624" lon="10.945063677483562" id="-32999">
		<tag k="name" v="Holter allmenning" />
		<tag k="place" v="locality" />
		<tag k="ssr:stedsnr" v="1079102" />
	</node>
	<node lat="60.20746045393281" lon="11.012078697693772" id="-33000">
		<tag k="alt_name" v="Hegli" />
		<tag k="name" v="Heggli" />
		<tag k="place" v="farm" />
		<tag k="ssr:stedsnr" v="1079037" />
	</node>
	<node lat="60.126103388735174" lon="11.076786520239978" id="-33001">
		<tag k="name" v="Foss" />
		<tag k="place" v="farm" />
		<tag k="ssr:stedsnr" v="1079049" />
	</node>
	<node lat="60.15378225662723" lon="11.01663194082409" id="-33002">
		<tag k="name" v="Vestre Trugstad" />
		<tag k="place" v="farm" />
		<tag k="ssr:stedsnr" v="1079063" />
	</node>
	<node lat="60.20626833102382" lon="10.997702853155662" id="-33003">
		<tag k="name" v="Søndre Låke" />
		<tag k="place" v="farm" />
		<tag k="ssr:stedsnr" v="1079026" />
	</node>
	<node lat="60.20847828871326" lon="10.993443807937428" id="-33004">
		<tag k="name" v="Nordre Låke" />
		<tag k="place" v="farm" />
		<tag k="ssr:stedsnr" v="1079027" />
	</node>
	<node lat="60.222362059429905" lon="11.079931732775242" id="-33005">
		<tag k="name" v="Børke" />
		<tag k="place" v="farm" />
		<tag k="ssr:stedsnr" v="1079034" />
	</node>
	<node lat="60.17696186179651" lon="11.047259436414274" id="-33006">
		<tag k="name" v="Ukustad" />
		<tag k="place" v="farm" />
		<tag k="ssr:stedsnr" v="1079035" />
	</node>
	<node lat="60.1939307666592" lon="11.03081752290435" id="-33007">
		<tag k="name" v="Engelstad" />
		<tag k="place" v="farm" />
		<tag k="ssr:stedsnr" v="1079036" />
	</node>
	<node lat="60.1751872810502" lon="10.9830355789155" id="-33008">
		<tag k="name" v="Tronrud" />
		<tag k="place" v="locality" />
		<tag k="ssr:stedsnr" v="1079081" />
	</node>
	<node lat="60.17942915642415" lon="10.993105231077513" id="-33009">
		<tag k="name" v="Nedre Nordby" />
		<tag k="place" v="locality" />
		<tag k="ssr:stedsnr" v="1079082" />
	</node>
	<node lat="60.17930228705749" lon="10.994358535563178" id="-33010">
		<tag k="name" v="Nordby" />
		<tag k="place" v="farm" />
		<tag k="ssr:stedsnr" v="1079083" />
	</node>
	<node lat="60.24740471289576" lon="10.989290873867969" id="-33011">
		<tag k="name" v="Økri" />
		<tag k="place" v="farm" />
		<tag k="ssr:stedsnr" v="1079084" />
	</node>
	<node lat="60.26006939713931" lon="10.993455012744267" id="-33012">
		<tag k="name" v="Vestre Vålaug" />
		<tag k="place" v="farm" />
		<tag k="ssr:stedsnr" v="1079092" />
	</node>
	<node lat="60.25823036574247" lon="10.997626389079619" id="-33013">
		<tag k="name" v="Østre Vålaug" />
		<tag k="place" v="farm" />
		<tag k="ssr:stedsnr" v="1079093" />
	</node>
	<node lat="60.25586107726155" lon="11.01279516039122" id="-33014">
		<tag k="name" v="Maura" />
		<tag k="place" v="farm" />
		<tag k="ssr:stedsnr" v="1079094" />
	</node>
	<node lat="60.25093000414003" lon="11.093351356159511" id="-33015">
		<tag k="name" v="Moen" />
		<tag k="place" v="farm" />
		<tag k="ssr:stedsnr" v="1079095" />
	</node>
	<node lat="60.20448991326752" lon="11.03423699663875" id="-33040">
		<tag k="name" v="Bidsler" />
		<tag k="old_name" v="Bisler" />
		<tag k="place" v="farm" />
		<tag k="ssr:stedsnr" v="1085483" />
	</node>
</osm>
