<?xml version="1.0" encoding="UTF-8"?>
<<<<<<< HEAD
<osm version="0.6" generator="osmapis">
	<node lat="60.26355555860773" lon="10.812652783429392" id="-18919">
		<tag k="name" v="Snellingsrøysene" />
=======
<osm generator="osmapis" version="0.6">
	<node id="-267322" lat="60.2134027746" lon="11.0031972205">
		<tag k="alt_name" v="Nannestad" />
		<tag k="amenity" v="place_of_worship" />
		<tag k="denomination" v="lutheran" />
		<tag k="name" v="Nannestad kirke" />
		<tag k="religion" v="christian" />
		<tag k="ssr:stedsnr" v="551887" />
	</node>
	<node id="-266263" lat="60.1119027738" lon="11.0043111086">
		<tag k="alt_name" v="Brotnohaugen" />
		<tag k="name" v="Brotnuhaugen" />
>>>>>>> e1d4bc35ff8a6074a6f2e91616a996b547c36f15
		<tag k="place" v="locality" />
		<tag k="ssr:stedsnr" v="188411" />
	</node>
<<<<<<< HEAD
	<node lat="60.193088891072115" lon="10.954652774284225" id="-18966">
		<tag k="name" v="Oserudgrinda" />
		<tag k="place" v="locality" />
		<tag k="ssr:stedsnr" v="205197" />
	</node>
	<node lat="60.11970833552205" lon="11.03068611162605" id="-19018">
=======
	<node id="-267158" lat="60.110538889" lon="11.0498555512">
		<tag k="amenity" v="community_centre" />
		<tag k="name" v="Korslund" />
		<tag k="ssr:stedsnr" v="309618" />
	</node>
	<node id="-267157" lat="60.1197083355" lon="11.0306861116">
>>>>>>> e1d4bc35ff8a6074a6f2e91616a996b547c36f15
		<tag k="amenity" v="community_centre" />
		<tag k="name" v="Finstad skole" />
		<tag k="ssr:stedsnr" v="309600" />
	</node>
<<<<<<< HEAD
	<node lat="60.14557499731525" lon="11.05025833286491" id="-19051">
=======
	<node id="-266990" lat="60.2343250044" lon="11.0117500018">
		<tag k="alt_name" v="Bjørke" />
		<tag k="amenity" v="place_of_worship" />
		<tag k="denomination" v="lutheran" />
		<tag k="name" v="Bjørke kirke" />
		<tag k="religion" v="christian" />
		<tag k="ssr:stedsnr" v="126837" />
	</node>
	<node id="-267182" lat="60.1770777773" lon="10.9873499996">
		<tag k="amenity" v="community_centre" />
		<tag k="name" v="Evangeliehuset" />
		<tag k="ssr:stedsnr" v="326197" />
	</node>
	<node id="-267211" lat="60.1455749973" lon="11.0502583329">
>>>>>>> e1d4bc35ff8a6074a6f2e91616a996b547c36f15
		<tag k="alt_name" v="Holter" />
		<tag k="amenity" v="place_of_worship" />
		<tag k="denomination" v="lutheran" />
		<tag k="name" v="Holter kirke" />
		<tag k="religion" v="christian" />
		<tag k="ssr:stedsnr" v="369589" />
	</node>
<<<<<<< HEAD
	<node lat="60.27755833546766" lon="11.088516673941482" id="-19351">
=======
	<node id="-267434" lat="60.2775583355" lon="11.0885166739">
>>>>>>> e1d4bc35ff8a6074a6f2e91616a996b547c36f15
		<tag k="amenity" v="place_of_worship" />
		<tag k="denomination" v="lutheran" />
		<tag k="loc_name" v="Stensgård kirke" />
		<tag k="name" v="Steinsgård kirke" />
		<tag k="religion" v="christian" />
		<tag k="ssr:stedsnr" v="629152" />
	</node>
<<<<<<< HEAD
	<node lat="60.23432500439784" lon="11.011750001834354" id="-19702">
		<tag k="alt_name" v="Bjørke" />
		<tag k="amenity" v="place_of_worship" />
		<tag k="denomination" v="lutheran" />
		<tag k="name" v="Bjørke kirke" />
		<tag k="religion" v="christian" />
		<tag k="ssr:stedsnr" v="126837" />
	</node>
	<node lat="60.11053888901309" lon="11.04985555121445" id="-19816">
=======
	<node id="-266433" lat="60.2233666646" lon="10.9722222271">
>>>>>>> e1d4bc35ff8a6074a6f2e91616a996b547c36f15
		<tag k="amenity" v="community_centre" />
		<tag k="name" v="Kringler skole" />
		<tag k="ssr:stedsnr" v="387276" />
	</node>
<<<<<<< HEAD
	<node lat="60.177077777266234" lon="10.987349999581669" id="-19848">
		<tag k="amenity" v="community_centre" />
		<tag k="name" v="Evangeliehuset" />
		<tag k="ssr:stedsnr" v="326197" />
	</node>
	<node lat="60.22336666460706" lon="10.972222227135179" id="-19896">
		<tag k="amenity" v="community_centre" />
		<tag k="name" v="Kringler skole" />
		<tag k="ssr:stedsnr" v="387276" />
	</node>
	<node lat="60.213402774562056" lon="11.00319722052167" id="-20009">
		<tag k="alt_name" v="Nannestad" />
		<tag k="amenity" v="place_of_worship" />
		<tag k="denomination" v="lutheran" />
		<tag k="name" v="Nannestad kirke" />
		<tag k="religion" v="christian" />
		<tag k="ssr:stedsnr" v="551887" />
	</node>
	<node lat="60.267572220275134" lon="10.975702784173619" id="-20077">
		<tag k="name" v="Grova" />
=======
	<node id="-267076" lat="60.2635555586" lon="10.8126527834">
		<tag k="name" v="Snellingsrøysene" />
		<tag k="place" v="locality" />
		<tag k="ssr:stedsnr" v="188411" />
	</node>
	<node id="-267446" lat="60.2675722203" lon="10.9757027842">
		<tag k="name" v="Grova" />
		<tag k="place" v="locality" />
		<tag k="ssr:stedsnr" v="629275" />
	</node>
	<node id="-267105" lat="60.1930888911" lon="10.9546527743">
		<tag k="name" v="Oserudgrinda" />
>>>>>>> e1d4bc35ff8a6074a6f2e91616a996b547c36f15
		<tag k="place" v="locality" />
		<tag k="ssr:stedsnr" v="629275" />
	</node>
</osm>
