<?xml version="1.0" encoding="UTF-8"?>
<osm generator="osmapis" version="0.6">
	<node id="-60284" lat="60.3294555587" lon="11.6143583271">
		<tag k="name" v="Odalen" />
		<tag k="ssr:date" v="2016-05-10" />
		<tag k="ssr:gruppe" v="terrengområder" />
		<tag k="ssr:hovedgruppe" v="terreng" />
		<tag k="ssr:stedsnr" v="210794" />
		<tag k="ssr:type" v="landskapsområde" />
	</node>
	<node id="-60494" lat="60.3882000028" lon="11.5361277731">
		<tag k="name" v="Sagstua" />
		<tag k="ssr:date" v="2016-05-10" />
		<tag k="ssr:gruppe" v="administrativeIndelinger" />
		<tag k="ssr:hovedgruppe" v="offentligAdministrasjon" />
		<tag k="ssr:stedsnr" v="431943" />
		<tag k="ssr:type" v="poststed" />
	</node>
	<node id="-61228" lat="60.3919500033" lon="11.5415083345">
		<tag k="name" v="Nord-Odal kommune" />
		<tag k="ssr:date" v="2016-05-11" />
		<tag k="ssr:gruppe" v="administrativeIndelinger" />
		<tag k="ssr:hovedgruppe" v="offentligAdministrasjon" />
		<tag k="ssr:stedsnr" v="753192" />
		<tag k="ssr:type" v="kommune" />
	</node>
	<node id="-61707" lat="60.5908609473" lon="9.63819281559">
		<tag k="fixme" v="multiple name tags, choose one and add the other to alt_name" />
		<tag k="name" v="Austlandet;Østlandet" />
		<tag k="ssr:date" v="2018-01-09" />
		<tag k="ssr:gruppe" v="administrativeIndelinger" />
		<tag k="ssr:hovedgruppe" v="offentligAdministrasjon" />
		<tag k="ssr:stedsnr" v="974775" />
		<tag k="ssr:type" v="annenAdministrativInndeling" />
	</node>
	<node id="-59884" lat="60.4794429475" lon="11.7933789841">
		<tag k="name" v="Nøklevassvegen" />
		<tag k="ssr:date" v="2019-05-30" />
		<tag k="ssr:gruppe" v="veg" />
		<tag k="ssr:hovedgruppe" v="infrastruktur" />
		<tag k="ssr:stedsnr" v="1003337" />
		<tag k="ssr:type" v="adressenavn" />
	</node>
	<node id="-60900" lat="60.3971166685" lon="11.5280444509">
		<tag k="name" v="Syverstubakken" />
		<tag k="ssr:date" v="2019-05-30" />
		<tag k="ssr:gruppe" v="veg" />
		<tag k="ssr:hovedgruppe" v="infrastruktur" />
		<tag k="ssr:stedsnr" v="606849" />
		<tag k="ssr:type" v="adressenavn" />
	</node>
</osm>
