<?xml version="1.0" encoding="UTF-8"?>
<osm version="0.6" generator="osmapis">
	<node lat="68.72294972165068" lon="16.77273970639874" id="-98320">
		<tag k="name" v="Rollnesholmene" />
		<tag k="old_name" v="Rollnesholman" />
		<tag k="ssr:date" v="2020-11-19" />
		<tag k="ssr:gruppe" v="navigasjon" />
		<tag k="ssr:hovedgruppe" v="infrastruktur" />
		<tag k="ssr:stedsnr" v="79000" />
		<tag k="ssr:type" v="fyrlykt" />
	</node>
	<node lat="68.92629349845345" lon="17.11948569256367" id="-98715">
		<tag k="name" v="Engenes" />
		<tag k="ssr:date" v="2020-04-01" />
		<tag k="ssr:gruppe" v="navigasjon" />
		<tag k="ssr:hovedgruppe" v="infrastruktur" />
		<tag k="ssr:stedsnr" v="754723" />
		<tag k="ssr:type" v="fyrlykt" />
	</node>
	<node lat="68.74941511436155" lon="17.114817876414232" id="-98840">
		<tag k="name" v="Kalvegarden" />
		<tag k="ssr:date" v="2019-12-27" />
		<tag k="ssr:gruppe" v="veg" />
		<tag k="ssr:hovedgruppe" v="infrastruktur" />
		<tag k="ssr:stedsnr" v="1009675" />
		<tag k="ssr:type" v="adressenavn" />
	</node>
	<node lat="68.75951117270994" lon="17.15226950976829" id="-98841">
		<tag k="name" v="Parteskjærveien" />
		<tag k="ssr:date" v="2019-12-27" />
		<tag k="ssr:gruppe" v="veg" />
		<tag k="ssr:hovedgruppe" v="infrastruktur" />
		<tag k="ssr:stedsnr" v="1009676" />
		<tag k="ssr:type" v="adressenavn" />
	</node>
	<node lat="68.72651085165278" lon="16.848300672579573" id="-98842">
		<tag k="name" v="Sørrollnesveien" />
		<tag k="ssr:date" v="2019-12-27" />
		<tag k="ssr:gruppe" v="veg" />
		<tag k="ssr:hovedgruppe" v="infrastruktur" />
		<tag k="ssr:stedsnr" v="1009677" />
		<tag k="ssr:type" v="adressenavn" />
	</node>
	<node lat="68.86184031430011" lon="17.03773278528305" id="-98843">
		<tag k="name" v="Fuglebergveien" />
		<tag k="ssr:date" v="2019-12-27" />
		<tag k="ssr:gruppe" v="veg" />
		<tag k="ssr:hovedgruppe" v="infrastruktur" />
		<tag k="ssr:stedsnr" v="1009722" />
		<tag k="ssr:type" v="adressenavn" />
	</node>
	<node lat="68.89311301782224" lon="17.219815905627264" id="-98844">
		<tag k="name" v="Vasskarveien" />
		<tag k="ssr:date" v="2019-12-27" />
		<tag k="ssr:gruppe" v="veg" />
		<tag k="ssr:hovedgruppe" v="infrastruktur" />
		<tag k="ssr:stedsnr" v="1009723" />
		<tag k="ssr:type" v="adressenavn" />
	</node>
	<node lat="68.91613570183776" lon="17.17176487801642" id="-98845">
		<tag k="name" v="Langnesveien" />
		<tag k="ssr:date" v="2019-12-27" />
		<tag k="ssr:gruppe" v="veg" />
		<tag k="ssr:hovedgruppe" v="infrastruktur" />
		<tag k="ssr:stedsnr" v="1009725" />
		<tag k="ssr:type" v="adressenavn" />
	</node>
	<node lat="68.91792542271118" lon="17.16537828687304" id="-98846">
		<tag k="name" v="Solstadveien" />
		<tag k="ssr:date" v="2019-12-27" />
		<tag k="ssr:gruppe" v="veg" />
		<tag k="ssr:hovedgruppe" v="infrastruktur" />
		<tag k="ssr:stedsnr" v="1009726" />
		<tag k="ssr:type" v="adressenavn" />
	</node>
	<node lat="68.91275604847638" lon="17.195120161454017" id="-98847">
		<tag k="name" v="Straumbotnveien" />
		<tag k="ssr:date" v="2019-12-27" />
		<tag k="ssr:gruppe" v="veg" />
		<tag k="ssr:hovedgruppe" v="infrastruktur" />
		<tag k="ssr:stedsnr" v="1009727" />
		<tag k="ssr:type" v="adressenavn" />
	</node>
	<node lat="68.91507091693252" lon="17.19813128955492" id="-98848">
		<tag k="name" v="Straumskjærvika" />
		<tag k="ssr:date" v="2019-12-27" />
		<tag k="ssr:gruppe" v="veg" />
		<tag k="ssr:hovedgruppe" v="infrastruktur" />
		<tag k="ssr:stedsnr" v="1009728" />
		<tag k="ssr:type" v="adressenavn" />
	</node>
	<node lat="68.92501041014509" lon="17.12213572367834" id="-98849">
		<tag k="name" v="Hamneveien" />
		<tag k="ssr:date" v="2019-12-27" />
		<tag k="ssr:gruppe" v="veg" />
		<tag k="ssr:hovedgruppe" v="infrastruktur" />
		<tag k="ssr:stedsnr" v="1009729" />
		<tag k="ssr:type" v="adressenavn" />
	</node>
	<node lat="68.92426246354371" lon="17.1212386542829" id="-98850">
		<tag k="name" v="Kjerkeveien" />
		<tag k="ssr:date" v="2019-12-27" />
		<tag k="ssr:gruppe" v="veg" />
		<tag k="ssr:hovedgruppe" v="infrastruktur" />
		<tag k="ssr:stedsnr" v="1009730" />
		<tag k="ssr:type" v="adressenavn" />
	</node>
	<node lat="68.9241462709843" lon="17.12113026898515" id="-98851">
		<tag k="name" v="Nappen" />
		<tag k="ssr:date" v="2019-12-27" />
		<tag k="ssr:gruppe" v="veg" />
		<tag k="ssr:hovedgruppe" v="infrastruktur" />
		<tag k="ssr:stedsnr" v="1009731" />
		<tag k="ssr:type" v="adressenavn" />
	</node>
	<node lat="68.9223255242677" lon="17.13219221253647" id="-98852">
		<tag k="name" v="Kleiva" />
		<tag k="ssr:date" v="2019-12-27" />
		<tag k="ssr:gruppe" v="veg" />
		<tag k="ssr:hovedgruppe" v="infrastruktur" />
		<tag k="ssr:stedsnr" v="1009732" />
		<tag k="ssr:type" v="adressenavn" />
	</node>
	<node lat="68.82602710579518" lon="17.180044689903372" id="-98853">
		<tag k="name" v="Brekka" />
		<tag k="ssr:date" v="2019-12-27" />
		<tag k="ssr:gruppe" v="veg" />
		<tag k="ssr:hovedgruppe" v="infrastruktur" />
		<tag k="ssr:stedsnr" v="1009733" />
		<tag k="ssr:type" v="adressenavn" />
	</node>
	<node lat="68.82374718957314" lon="17.177582224001302" id="-98854">
		<tag k="name" v="Vardhågveien" />
		<tag k="ssr:date" v="2019-12-27" />
		<tag k="ssr:gruppe" v="veg" />
		<tag k="ssr:hovedgruppe" v="infrastruktur" />
		<tag k="ssr:stedsnr" v="1009734" />
		<tag k="ssr:type" v="adressenavn" />
	</node>
	<node lat="68.82637500440468" lon="17.375997220664942" id="-99126">
		<tag k="name" v="Lauksteinbakken" />
		<tag k="ssr:date" v="2019-12-27" />
		<tag k="ssr:gruppe" v="sjøbunn" />
		<tag k="ssr:hovedgruppe" v="sjø" />
		<tag k="ssr:stedsnr" v="393986" />
		<tag k="ssr:type" v="bakkeISjø" />
	</node>
	<node lat="68.88718983491428" lon="17.45903571491986" id="-99171">
		<tag k="name" v="Mjøsund bru, østre" />
		<tag k="ssr:date" v="2021-01-05" />
		<tag k="ssr:gruppe" v="navigasjon" />
		<tag k="ssr:hovedgruppe" v="infrastruktur" />
		<tag k="ssr:stedsnr" v="515694" />
		<tag k="ssr:type" v="fyrlykt" />
	</node>
	<node lat="68.79268888935789" lon="17.176449986722798" id="-99264">
		<tag k="name" v="Årneset" />
		<tag k="ssr:date" v="2019-12-27" />
		<tag k="ssr:gruppe" v="navigasjon" />
		<tag k="ssr:hovedgruppe" v="infrastruktur" />
		<tag k="ssr:stedsnr" v="624955" />
		<tag k="ssr:type" v="fyrlykt" />
	</node>
	<node lat="68.77865555932704" lon="17.176600008033084" id="-99347">
		<tag k="alt_name" v="Ibestad" />
		<tag k="name" v="Ibestad kommune" />
		<tag k="ssr:date" v="2019-12-27" />
		<tag k="ssr:gruppe" v="administrativeIndelinger" />
		<tag k="ssr:hovedgruppe" v="offentligAdministrasjon" />
		<tag k="ssr:stedsnr" v="754087" />
		<tag k="ssr:type" v="kommune" />
	</node>
	<node lat="68.89003333317427" lon="17.46025833911011" id="-99431">
		<tag k="name" v="Mjøsund Bro" />
		<tag k="old_name" v="Mjøsund" />
		<tag k="ssr:date" v="2019-12-27" />
		<tag k="ssr:gruppe" v="navigasjon" />
		<tag k="ssr:hovedgruppe" v="infrastruktur" />
		<tag k="ssr:stedsnr" v="876818" />
		<tag k="ssr:type" v="fyrlykt" />
	</node>
	<node lat="68.7573083365211" lon="16.803344432072276" id="-99454">
		<tag k="name" v="Rollnesboen" />
		<tag k="ssr:date" v="2019-12-27" />
		<tag k="ssr:gruppe" v="navigasjon" />
		<tag k="ssr:hovedgruppe" v="infrastruktur" />
		<tag k="ssr:stedsnr" v="940773" />
		<tag k="ssr:type" v="fyrlykt" />
	</node>
	<node lat="68.8686823509443" lon="17.141520038605677" id="-99489">
		<tag k="name" v="Sjyveien" />
		<tag k="ssr:date" v="2019-12-27" />
		<tag k="ssr:gruppe" v="veg" />
		<tag k="ssr:hovedgruppe" v="infrastruktur" />
		<tag k="ssr:stedsnr" v="1009735" />
		<tag k="ssr:type" v="adressenavn" />
	</node>
	<node lat="68.82987053733366" lon="17.184570448587277" id="-99490">
		<tag k="name" v="Rabbenveien" />
		<tag k="ssr:date" v="2019-12-27" />
		<tag k="ssr:gruppe" v="veg" />
		<tag k="ssr:hovedgruppe" v="infrastruktur" />
		<tag k="ssr:stedsnr" v="1009736" />
		<tag k="ssr:type" v="adressenavn" />
	</node>
	<node lat="68.77904104305465" lon="17.170527579725714" id="-99491">
		<tag k="name" v="Nøysomheten" />
		<tag k="ssr:date" v="2019-12-27" />
		<tag k="ssr:gruppe" v="veg" />
		<tag k="ssr:hovedgruppe" v="infrastruktur" />
		<tag k="ssr:stedsnr" v="1009737" />
		<tag k="ssr:type" v="adressenavn" />
	</node>
	<node lat="68.77831780642443" lon="17.17458902264004" id="-99492">
		<tag k="name" v="Skarveien" />
		<tag k="ssr:date" v="2019-12-27" />
		<tag k="ssr:gruppe" v="veg" />
		<tag k="ssr:hovedgruppe" v="infrastruktur" />
		<tag k="ssr:stedsnr" v="1009738" />
		<tag k="ssr:type" v="adressenavn" />
	</node>
	<node lat="68.77933358473041" lon="17.167088732925837" id="-99493">
		<tag k="name" v="Borgveien" />
		<tag k="ssr:date" v="2019-12-27" />
		<tag k="ssr:gruppe" v="veg" />
		<tag k="ssr:hovedgruppe" v="infrastruktur" />
		<tag k="ssr:stedsnr" v="1009739" />
		<tag k="ssr:type" v="adressenavn" />
	</node>
	<node lat="68.77890398608778" lon="17.162945545545913" id="-99494">
		<tag k="name" v="Åsemurveien" />
		<tag k="ssr:date" v="2019-12-27" />
		<tag k="ssr:gruppe" v="veg" />
		<tag k="ssr:hovedgruppe" v="infrastruktur" />
		<tag k="ssr:stedsnr" v="1009741" />
		<tag k="ssr:type" v="adressenavn" />
	</node>
	<node lat="68.77729140931429" lon="17.175864797912674" id="-99495">
		<tag k="name" v="Reidulf Arntzens vei" />
		<tag k="old_name" v="Verkstedveien" />
		<tag k="ssr:date" v="2019-12-27" />
		<tag k="ssr:gruppe" v="veg" />
		<tag k="ssr:hovedgruppe" v="infrastruktur" />
		<tag k="ssr:stedsnr" v="1009742" />
		<tag k="ssr:type" v="adressenavn" />
	</node>
	<node lat="68.77831780642443" lon="17.17458902264004" id="-99496">
		<tag k="name" v="Kopparvika" />
		<tag k="ssr:date" v="2019-12-27" />
		<tag k="ssr:gruppe" v="veg" />
		<tag k="ssr:hovedgruppe" v="infrastruktur" />
		<tag k="ssr:stedsnr" v="1009743" />
		<tag k="ssr:type" v="adressenavn" />
	</node>
	<node lat="68.77691647883975" lon="17.172326213333008" id="-99497">
		<tag k="name" v="Mellomveien" />
		<tag k="ssr:date" v="2019-12-27" />
		<tag k="ssr:gruppe" v="veg" />
		<tag k="ssr:hovedgruppe" v="infrastruktur" />
		<tag k="ssr:stedsnr" v="1009744" />
		<tag k="ssr:type" v="adressenavn" />
	</node>
	<node lat="68.77725292930602" lon="17.176136175496932" id="-99498">
		<tag k="name" v="Kipertnesveien" />
		<tag k="ssr:date" v="2019-12-27" />
		<tag k="ssr:gruppe" v="veg" />
		<tag k="ssr:hovedgruppe" v="infrastruktur" />
		<tag k="ssr:stedsnr" v="1009745" />
		<tag k="ssr:type" v="adressenavn" />
	</node>
	<node lat="68.78015157675817" lon="17.170603672075476" id="-99499">
		<tag k="name" v="Årsandveien" />
		<tag k="ssr:date" v="2019-12-27" />
		<tag k="ssr:gruppe" v="veg" />
		<tag k="ssr:hovedgruppe" v="infrastruktur" />
		<tag k="ssr:stedsnr" v="1009746" />
		<tag k="ssr:type" v="adressenavn" />
	</node>
	<node lat="68.78988500206911" lon="17.166639474347537" id="-99500">
		<tag k="name" v="Årnesveien" />
		<tag k="ssr:date" v="2019-12-27" />
		<tag k="ssr:gruppe" v="veg" />
		<tag k="ssr:hovedgruppe" v="infrastruktur" />
		<tag k="ssr:stedsnr" v="1009747" />
		<tag k="ssr:type" v="adressenavn" />
	</node>
	<node lat="68.77865974491647" lon="17.175941843542706" id="-99501">
		<tag k="name" v="Lensmannsveien" />
		<tag k="ssr:date" v="2019-12-27" />
		<tag k="ssr:gruppe" v="veg" />
		<tag k="ssr:hovedgruppe" v="infrastruktur" />
		<tag k="ssr:stedsnr" v="1009748" />
		<tag k="ssr:type" v="adressenavn" />
	</node>
	<node lat="68.7815509925187" lon="17.16694497586399" id="-99502">
		<tag k="name" v="Parkveien" />
		<tag k="ssr:date" v="2019-12-27" />
		<tag k="ssr:gruppe" v="veg" />
		<tag k="ssr:hovedgruppe" v="infrastruktur" />
		<tag k="ssr:stedsnr" v="1009749" />
		<tag k="ssr:type" v="adressenavn" />
	</node>
	<node lat="68.83551297086139" lon="17.070458175434606" id="-99503">
		<tag k="name" v="Bollaveien" />
		<tag k="ssr:date" v="2019-12-27" />
		<tag k="ssr:gruppe" v="veg" />
		<tag k="ssr:hovedgruppe" v="infrastruktur" />
		<tag k="ssr:stedsnr" v="1009750" />
		<tag k="ssr:type" v="adressenavn" />
	</node>
	<node lat="68.77622693856921" lon="17.175079680380932" id="-99504">
		<tag k="name" v="Bygdaveien" />
		<tag k="ssr:date" v="2019-12-27" />
		<tag k="ssr:gruppe" v="veg" />
		<tag k="ssr:hovedgruppe" v="infrastruktur" />
		<tag k="ssr:stedsnr" v="1009751" />
		<tag k="ssr:type" v="adressenavn" />
	</node>
	<node lat="68.79943777529613" lon="17.122803080010684" id="-99505">
		<tag k="name" v="Øver-Vik" />
		<tag k="ssr:date" v="2019-12-27" />
		<tag k="ssr:gruppe" v="veg" />
		<tag k="ssr:hovedgruppe" v="infrastruktur" />
		<tag k="ssr:stedsnr" v="1009752" />
		<tag k="ssr:type" v="adressenavn" />
	</node>
	<node lat="68.7418131618663" lon="16.977820443186292" id="-99506">
		<tag k="name" v="Sør-Forsåveien" />
		<tag k="ssr:date" v="2019-12-27" />
		<tag k="ssr:gruppe" v="veg" />
		<tag k="ssr:hovedgruppe" v="infrastruktur" />
		<tag k="ssr:stedsnr" v="1009678" />
		<tag k="ssr:type" v="adressenavn" />
	</node>
	<node lat="68.78415909282356" lon="17.160590751457686" id="-99507">
		<tag k="name" v="Sletta" />
		<tag k="ssr:date" v="2019-12-27" />
		<tag k="ssr:gruppe" v="veg" />
		<tag k="ssr:hovedgruppe" v="infrastruktur" />
		<tag k="ssr:stedsnr" v="1009679" />
		<tag k="ssr:type" v="adressenavn" />
	</node>
	<node lat="68.78371446080678" lon="17.162126892132246" id="-99508">
		<tag k="name" v="Gardsvikdalen" />
		<tag k="ssr:date" v="2019-12-27" />
		<tag k="ssr:gruppe" v="veg" />
		<tag k="ssr:hovedgruppe" v="infrastruktur" />
		<tag k="ssr:stedsnr" v="1009680" />
		<tag k="ssr:type" v="adressenavn" />
	</node>
	<node lat="68.75990949555784" lon="17.14855709668774" id="-99509">
		<tag k="name" v="Breivollveien" />
		<tag k="ssr:date" v="2019-12-27" />
		<tag k="ssr:gruppe" v="veg" />
		<tag k="ssr:hovedgruppe" v="infrastruktur" />
		<tag k="ssr:stedsnr" v="1009681" />
		<tag k="ssr:type" v="adressenavn" />
	</node>
	<node lat="68.7287700396818" lon="16.831706956435823" id="-99510">
		<tag k="name" v="Kirkegårdsveien" />
		<tag k="ssr:date" v="2019-12-27" />
		<tag k="ssr:gruppe" v="veg" />
		<tag k="ssr:hovedgruppe" v="infrastruktur" />
		<tag k="ssr:stedsnr" v="1009682" />
		<tag k="ssr:type" v="adressenavn" />
	</node>
	<node lat="68.84035445851516" lon="17.3981373047666" id="-99511">
		<tag k="name" v="Kaiveien" />
		<tag k="ssr:date" v="2019-12-27" />
		<tag k="ssr:gruppe" v="veg" />
		<tag k="ssr:hovedgruppe" v="infrastruktur" />
		<tag k="ssr:stedsnr" v="1009701" />
		<tag k="ssr:type" v="adressenavn" />
	</node>
	<node lat="68.86860378337171" lon="17.47327929071085" id="-99512">
		<tag k="name" v="Furnesveien" />
		<tag k="ssr:date" v="2019-12-27" />
		<tag k="ssr:gruppe" v="veg" />
		<tag k="ssr:hovedgruppe" v="infrastruktur" />
		<tag k="ssr:stedsnr" v="1009702" />
		<tag k="ssr:type" v="adressenavn" />
	</node>
	<node lat="68.80490591304304" lon="17.19633047138596" id="-99513">
		<tag k="name" v="Håkons vei" />
		<tag k="ssr:date" v="2019-12-27" />
		<tag k="ssr:gruppe" v="veg" />
		<tag k="ssr:hovedgruppe" v="infrastruktur" />
		<tag k="ssr:stedsnr" v="1009703" />
		<tag k="ssr:type" v="adressenavn" />
	</node>
	<node lat="68.7971153931639" lon="17.219767423594554" id="-99514">
		<tag k="name" v="Andørjaveien" />
		<tag k="ssr:date" v="2019-12-27" />
		<tag k="ssr:gruppe" v="veg" />
		<tag k="ssr:hovedgruppe" v="infrastruktur" />
		<tag k="ssr:stedsnr" v="1009704" />
		<tag k="ssr:type" v="adressenavn" />
	</node>
	<node lat="68.7964945824982" lon="17.22587631439581" id="-99515">
		<tag k="name" v="Ibestadveien" />
		<tag k="ssr:date" v="2019-12-27" />
		<tag k="ssr:gruppe" v="veg" />
		<tag k="ssr:hovedgruppe" v="infrastruktur" />
		<tag k="ssr:stedsnr" v="1009709" />
		<tag k="ssr:type" v="adressenavn" />
	</node>
	<node lat="68.92275123490145" lon="17.36179858963467" id="-99516">
		<tag k="name" v="Flaten" />
		<tag k="ssr:date" v="2019-12-27" />
		<tag k="ssr:gruppe" v="veg" />
		<tag k="ssr:hovedgruppe" v="infrastruktur" />
		<tag k="ssr:stedsnr" v="1009720" />
		<tag k="ssr:type" v="adressenavn" />
	</node>
	<node lat="68.92724772176976" lon="17.25970645731743" id="-99517">
		<tag k="name" v="Klåpskjærvika" />
		<tag k="ssr:date" v="2019-12-27" />
		<tag k="ssr:gruppe" v="veg" />
		<tag k="ssr:hovedgruppe" v="infrastruktur" />
		<tag k="ssr:stedsnr" v="1009721" />
		<tag k="ssr:type" v="adressenavn" />
	</node>
	<node lat="70.08225403199775" lon="29.73028468656217" id="-99518">
		<tag k="fixme" v="multiple name tags, choose one and add the other to alt_name" />
		<tag k="name" v="Troms og Finnmark;Troms og Finnmark fylke - Romssa ja Finnmárkku fylka - Tromssan ja Finmarkun fylkki" />
		<tag k="name:fkv" v="Tromssan ja Finmarkun fylkki" />
		<tag k="name:no" v="Troms og Finnmark;Troms og Finnmark fylke" />
		<tag k="name:se" v="Romssa ja Finnmárkku fylka" />
		<tag k="ssr:date" v="2021-06-08" />
		<tag k="ssr:gruppe" v="administrativeIndelinger" />
		<tag k="ssr:hovedgruppe" v="offentligAdministrasjon" />
		<tag k="ssr:stedsnr" v="1073694" />
		<tag k="ssr:type" v="fylke" />
	</node>
	<node lat="68.7854652522808" lon="17.159017502556615" id="-99536">
		<tag k="name" v="Emma Olsens vei" />
		<tag k="ssr:date" v="2021-02-08" />
		<tag k="ssr:gruppe" v="veg" />
		<tag k="ssr:hovedgruppe" v="infrastruktur" />
		<tag k="ssr:stedsnr" v="1079913" />
		<tag k="ssr:type" v="adressenavn" />
	</node>
	<node lat="68.83546881385018" lon="17.06309539314169" id="-99537">
		<tag k="name" v="Bollahøgdveien" />
		<tag k="ssr:date" v="2021-09-07" />
		<tag k="ssr:gruppe" v="veg" />
		<tag k="ssr:hovedgruppe" v="infrastruktur" />
		<tag k="ssr:stedsnr" v="1082120" />
		<tag k="ssr:type" v="adressenavn" />
	</node>
	<node lat="68.74758770297338" lon="16.958185715819056" id="-99538">
		<tag k="name" v="Heimerdalsveien" />
		<tag k="ssr:date" v="2021-09-07" />
		<tag k="ssr:gruppe" v="veg" />
		<tag k="ssr:hovedgruppe" v="infrastruktur" />
		<tag k="ssr:stedsnr" v="1082122" />
		<tag k="ssr:type" v="adressenavn" />
	</node>
	<node lat="68.77743506901555" lon="17.120397447107987" id="-99539">
		<tag k="name" v="Ibestadvatnet" />
		<tag k="ssr:date" v="2021-09-07" />
		<tag k="ssr:gruppe" v="veg" />
		<tag k="ssr:hovedgruppe" v="infrastruktur" />
		<tag k="ssr:stedsnr" v="1082124" />
		<tag k="ssr:type" v="adressenavn" />
	</node>
	<node lat="68.75353416629467" lon="17.106471027689377" id="-99540">
		<tag k="name" v="Skogsheia" />
		<tag k="ssr:date" v="2021-09-07" />
		<tag k="ssr:gruppe" v="veg" />
		<tag k="ssr:hovedgruppe" v="infrastruktur" />
		<tag k="ssr:stedsnr" v="1082123" />
		<tag k="ssr:type" v="adressenavn" />
	</node>
	<node lat="68.75639563483608" lon="17.001440053363066" id="-99541">
		<tag k="name" v="Mevassveien" />
		<tag k="ssr:date" v="2021-09-07" />
		<tag k="ssr:gruppe" v="veg" />
		<tag k="ssr:hovedgruppe" v="infrastruktur" />
		<tag k="ssr:stedsnr" v="1082121" />
		<tag k="ssr:type" v="adressenavn" />
	</node>
	<node lat="68.79893189678943" lon="17.111242336991307" id="-99542">
		<tag k="name" v="Vassverkveien" />
		<tag k="ssr:date" v="2021-09-07" />
		<tag k="ssr:gruppe" v="veg" />
		<tag k="ssr:hovedgruppe" v="infrastruktur" />
		<tag k="ssr:stedsnr" v="1082126" />
		<tag k="ssr:type" v="adressenavn" />
	</node>
	<node lat="68.765425203665" lon="17.136432491773878" id="-99543">
		<tag k="name" v="Fjellmyrveien" />
		<tag k="ssr:date" v="2021-09-07" />
		<tag k="ssr:gruppe" v="veg" />
		<tag k="ssr:hovedgruppe" v="infrastruktur" />
		<tag k="ssr:stedsnr" v="1082125" />
		<tag k="ssr:type" v="adressenavn" />
	</node>
	<node lat="68.75697928848756" lon="16.971554919048888" id="-99544">
		<tag k="name" v="Anemyrveien" />
		<tag k="ssr:date" v="2021-09-07" />
		<tag k="ssr:gruppe" v="veg" />
		<tag k="ssr:hovedgruppe" v="infrastruktur" />
		<tag k="ssr:stedsnr" v="1082128" />
		<tag k="ssr:type" v="adressenavn" />
	</node>
	<node lat="68.77841718777638" lon="17.018601480297622" id="-99545">
		<tag k="name" v="Dyrstadveien" />
		<tag k="ssr:date" v="2021-09-07" />
		<tag k="ssr:gruppe" v="veg" />
		<tag k="ssr:hovedgruppe" v="infrastruktur" />
		<tag k="ssr:stedsnr" v="1082127" />
		<tag k="ssr:type" v="adressenavn" />
	</node>
	<node lat="68.73378210708526" lon="16.862512390700935" id="-99546">
		<tag k="name" v="Ramnfløyveien" />
		<tag k="ssr:date" v="2021-09-07" />
		<tag k="ssr:gruppe" v="veg" />
		<tag k="ssr:hovedgruppe" v="infrastruktur" />
		<tag k="ssr:stedsnr" v="1082129" />
		<tag k="ssr:type" v="adressenavn" />
	</node>
	<node lat="68.77609922984814" lon="17.007520192778053" id="-99547">
		<tag k="name" v="Drangenveien" />
		<tag k="ssr:date" v="2021-09-07" />
		<tag k="ssr:gruppe" v="veg" />
		<tag k="ssr:hovedgruppe" v="infrastruktur" />
		<tag k="ssr:stedsnr" v="1082131" />
		<tag k="ssr:type" v="adressenavn" />
	</node>
	<node lat="68.81994433599657" lon="17.043937036257077" id="-99548">
		<tag k="name" v="Gammanveien" />
		<tag k="ssr:date" v="2021-09-07" />
		<tag k="ssr:gruppe" v="veg" />
		<tag k="ssr:hovedgruppe" v="infrastruktur" />
		<tag k="ssr:stedsnr" v="1082132" />
		<tag k="ssr:type" v="adressenavn" />
	</node>
	<node lat="68.79175963555501" lon="17.136557860371532" id="-99549">
		<tag k="name" v="Skjellavollen" />
		<tag k="ssr:date" v="2021-09-20" />
		<tag k="ssr:gruppe" v="veg" />
		<tag k="ssr:hovedgruppe" v="infrastruktur" />
		<tag k="ssr:stedsnr" v="1082394" />
		<tag k="ssr:type" v="adressenavn" />
	</node>
	<node lat="68.77900796678878" lon="17.16879205668288" id="-99550">
		<tag k="name" v="Otto Borchgrevinks vei" />
		<tag k="ssr:date" v="2021-09-20" />
		<tag k="ssr:gruppe" v="veg" />
		<tag k="ssr:hovedgruppe" v="infrastruktur" />
		<tag k="ssr:stedsnr" v="1082397" />
		<tag k="ssr:type" v="adressenavn" />
	</node>
	<node lat="68.80245465487572" lon="17.0832129544118" id="-99551">
		<tag k="name" v="Selsetvatnet" />
		<tag k="ssr:date" v="2021-09-20" />
		<tag k="ssr:gruppe" v="veg" />
		<tag k="ssr:hovedgruppe" v="infrastruktur" />
		<tag k="ssr:stedsnr" v="1082396" />
		<tag k="ssr:type" v="adressenavn" />
	</node>
</osm>
