<?xml version="1.0" encoding="UTF-8"?>
<<<<<<< HEAD
<osm version="0.6" generator="osmapis">
	<node lat="59.46770000146336" lon="11.174474994073098" id="-13513">
=======
<osm generator="osmapis" version="0.6">
	<node id="-240787" lat="59.5359194487" lon="11.176075008">
		<tag k="name" v="Snerten" />
		<tag k="place" v="locality" />
		<tag k="ssr:stedsnr" v="327105" />
	</node>
	<node id="-240935" lat="59.512863885" lon="11.1967388876">
		<tag k="name" v="Klokkerhuset" />
		<tag k="place" v="locality" />
		<tag k="ssr:stedsnr" v="873104" />
	</node>
	<node id="-240779" lat="59.4677000015" lon="11.1744749941">
>>>>>>> e1d4bc35ff8a6074a6f2e91616a996b547c36f15
		<tag k="amenity" v="place_of_worship" />
		<tag k="denomination" v="lutheran" />
		<tag k="name" v="Skiptvet kirke" />
		<tag k="religion" v="christian" />
		<tag k="ssr:stedsnr" v="245024" />
	</node>
<<<<<<< HEAD
	<node lat="59.53591944870267" lon="11.176075008042936" id="-13532">
		<tag k="name" v="Snerten" />
=======
	<node id="-241009" lat="59.5278027817" lon="11.1887444531">
		<tag k="name" v="Staås" />
>>>>>>> e1d4bc35ff8a6074a6f2e91616a996b547c36f15
		<tag k="place" v="locality" />
		<tag k="ssr:stedsnr" v="145089" />
	</node>
	<node lat="59.52780278169814" lon="11.188744453121416" id="-13726">
		<tag k="name" v="Staås" />
		<tag k="place" v="locality" />
		<tag k="ssr:stedsnr" v="145089" />
	</node>
	<node lat="59.512863884959884" lon="11.196738887598036" id="-13886">
		<tag k="name" v="Klokkerhuset" />
		<tag k="place" v="locality" />
		<tag k="ssr:stedsnr" v="873104" />
	</node>
</osm>
