<?xml version="1.0" encoding="UTF-8"?>
<<<<<<< HEAD
<osm version="0.6" generator="osmapis">
	<node lat="59.54224444235883" lon="11.170377779107328" id="-13466">
=======
<osm generator="osmapis" version="0.6">
	<node id="-240922" lat="59.5269083366" lon="11.1512555512">
		<tag k="bridge" v="yes" />
		<tag k="layer" v="1" />
		<tag k="name" v="Libru" />
		<tag k="ssr:stedsnr" v="835523" />
	</node>
	<node id="-240885" lat="59.443258336" lon="11.146724996">
		<tag k="bridge" v="yes" />
		<tag k="layer" v="1" />
		<tag k="name" v="Berg" />
		<tag k="ssr:stedsnr" v="896517" />
	</node>
	<node id="-241011" lat="59.4417750042" lon="11.174747217">
		<tag k="bridge" v="yes" />
		<tag k="layer" v="1" />
		<tag k="name" v="Vidnes" />
		<tag k="ssr:stedsnr" v="167539" />
	</node>
	<node id="-240739" lat="59.5000361156" lon="11.204624996">
		<tag k="bridge" v="yes" />
		<tag k="layer" v="1" />
		<tag k="name" v="Rød" />
		<tag k="ssr:stedsnr" v="46523" />
	</node>
	<node id="-240912" lat="59.5295194445" lon="11.1459472291">
		<tag k="junction" v="yes" />
		<tag k="name" v="Langlikrysset" />
		<tag k="place" v="locality" />
		<tag k="ssr:stedsnr" v="932839" />
	</node>
	<node id="-241005" lat="59.4873611079" lon="11.097722221">
		<tag k="junction" v="yes" />
		<tag k="name" v="Lundsvingen" />
		<tag k="place" v="locality" />
		<tag k="ssr:stedsnr" v="143981" />
	</node>
	<node id="-240808" lat="59.4845999957" lon="11.1052555579">
		<tag k="junction" v="yes" />
		<tag k="name" v="Dyrbekksvingen" />
		<tag k="place" v="locality" />
		<tag k="ssr:stedsnr" v="507985" />
	</node>
	<node id="-240871" lat="59.5270361082" lon="11.1511666692">
		<tag k="junction" v="yes" />
		<tag k="name" v="Librusvingen" />
		<tag k="place" v="locality" />
		<tag k="ssr:stedsnr" v="628829" />
	</node>
	<node id="-241062" lat="59.4704805587" lon="11.1668888892">
		<tag k="bridge" v="yes" />
		<tag k="layer" v="1" />
		<tag k="name" v="Meieribyen" />
		<tag k="ssr:stedsnr" v="349544" />
	</node>
	<node id="-240740" lat="59.5422444424" lon="11.1703777791">
>>>>>>> e1d4bc35ff8a6074a6f2e91616a996b547c36f15
		<tag k="alt_name" v="Vamma kraftstasjon" />
		<tag k="landuse" v="industrial" />
		<tag k="name" v="Vamma" />
		<tag k="power" v="plant" />
		<tag k="ssr:stedsnr" v="64504" />
	</node>
<<<<<<< HEAD
	<node lat="59.487361107871195" lon="11.097722221046645" id="-13488">
=======
	<node id="-241059" lat="59.4533916693" lon="11.1361861139">
>>>>>>> e1d4bc35ff8a6074a6f2e91616a996b547c36f15
		<tag k="junction" v="yes" />
		<tag k="name" v="Lundsvingen" />
		<tag k="place" v="locality" />
<<<<<<< HEAD
		<tag k="ssr:stedsnr" v="143981" />
	</node>
	<node lat="59.526908336624004" lon="11.151255551181462" id="-13642">
		<tag k="bridge" v="yes" />
		<tag k="layer" v="1" />
		<tag k="name" v="Libru" />
		<tag k="ssr:stedsnr" v="835523" />
	</node>
	<node lat="59.443258336006885" lon="11.146724995956136" id="-13657">
		<tag k="bridge" v="yes" />
		<tag k="layer" v="1" />
		<tag k="name" v="Berg" />
		<tag k="ssr:stedsnr" v="896517" />
	</node>
	<node lat="59.52951944447495" lon="11.145947229062472" id="-13666">
		<tag k="junction" v="yes" />
		<tag k="name" v="Langlikrysset" />
		<tag k="place" v="locality" />
		<tag k="ssr:stedsnr" v="932839" />
	</node>
	<node lat="59.500036115604324" lon="11.204624995966737" id="-13691">
		<tag k="bridge" v="yes" />
		<tag k="layer" v="1" />
		<tag k="name" v="Rød" />
		<tag k="ssr:stedsnr" v="46523" />
	</node>
	<node lat="59.44177500424499" lon="11.174747217043171" id="-13727">
		<tag k="bridge" v="yes" />
		<tag k="layer" v="1" />
		<tag k="name" v="Vidnes" />
		<tag k="ssr:stedsnr" v="167539" />
	</node>
	<node lat="59.45339166934338" lon="11.136186113902129" id="-13757">
		<tag k="junction" v="yes" />
		<tag k="name" v="Haugskrysset" />
		<tag k="place" v="locality" />
		<tag k="ssr:stedsnr" v="326958" />
	</node>
	<node lat="59.47048055871299" lon="11.16688888922972" id="-13760">
		<tag k="bridge" v="yes" />
		<tag k="layer" v="1" />
		<tag k="name" v="Meieribyen" />
		<tag k="ssr:stedsnr" v="349544" />
	</node>
	<node lat="59.4845999956898" lon="11.105255557867387" id="-13800">
		<tag k="junction" v="yes" />
		<tag k="name" v="Dyrbekksvingen" />
		<tag k="place" v="locality" />
		<tag k="ssr:stedsnr" v="507985" />
	</node>
	<node lat="59.52703610822496" lon="11.151166669201288" id="-13827">
		<tag k="junction" v="yes" />
		<tag k="name" v="Librusvingen" />
		<tag k="place" v="locality" />
		<tag k="ssr:stedsnr" v="628829" />
	</node>
	<node lat="59.45296111214466" lon="11.135502771937027" id="-13845">
		<tag k="bridge" v="yes" />
		<tag k="layer" v="1" />
		<tag k="name" v="Haug" />
		<tag k="ssr:stedsnr" v="774533" />
	</node>
=======
		<tag k="ssr:stedsnr" v="326958" />
	</node>
	<node id="-240897" lat="59.4529611121" lon="11.1355027719">
		<tag k="bridge" v="yes" />
		<tag k="layer" v="1" />
		<tag k="name" v="Haug" />
		<tag k="ssr:stedsnr" v="774533" />
	</node>
>>>>>>> e1d4bc35ff8a6074a6f2e91616a996b547c36f15
</osm>
