<?xml version="1.0" encoding="UTF-8"?>
<osm generator="osmapis" version="0.6">
	<node id="-228075" lat="59.4658814492" lon="11.1093239773">
		<tag k="alt_name" v="Bogen vestre" />
		<tag k="name" v="Vestre Bogen" />
		<tag k="place" v="farm" />
		<tag k="ssr:stedsnr" v="991179" />
	</node>
	<node id="-228074" lat="59.4816381213" lon="11.1576650281">
		<tag k="fixme" v="consider place=hamlet" />
		<tag k="name" v="Skjelle" />
		<tag k="place" v="farm" />
		<tag k="ssr:stedsnr" v="991166" />
	</node>
	<node id="-228073" lat="59.5270385165" lon="11.1373135398">
		<tag k="fixme" v="consider place=hamlet" />
		<tag k="name" v="Jakobshaugen" />
		<tag k="place" v="farm" />
		<tag k="ssr:stedsnr" v="991165" />
	</node>
	<node id="-228072" lat="59.4570414952" lon="11.2051750339">
		<tag k="fixme" v="consider place=hamlet" />
		<tag k="name" v="Liverud" />
		<tag k="place" v="farm" />
		<tag k="ssr:stedsnr" v="991161" />
	</node>
	<node id="-228071" lat="59.4694194461" lon="11.1437027763">
		<tag k="alt_name" v="Toen søndre" />
		<tag k="name" v="Søndre Toen" />
		<tag k="place" v="farm" />
		<tag k="ssr:stedsnr" v="873000" />
	</node>
	<node id="-228069" lat="59.5015166676" lon="11.2110138931">
		<tag k="name" v="Haugen" />
		<tag k="place" v="farm" />
		<tag k="ssr:stedsnr" v="872535" />
	</node>
	<node id="-228067" lat="59.506844446" lon="11.185333339">
		<tag k="name" v="Dalby" />
		<tag k="place" v="farm" />
		<tag k="ssr:stedsnr" v="854684" />
	</node>
	<node id="-228066" lat="59.4521500012" lon="11.1663749936">
		<tag k="alt_name" v="Åmot østre" />
		<tag k="name" v="Østre Åmot" />
		<tag k="place" v="farm" />
		<tag k="ssr:stedsnr" v="852248" />
	</node>
	<node id="-228065" lat="59.4491777766" lon="11.1605111122">
		<tag k="alt_name" v="Åmot søndre" />
		<tag k="name" v="Søndre Åmot" />
		<tag k="place" v="farm" />
		<tag k="ssr:stedsnr" v="852247" />
	</node>
	<node id="-228064" lat="59.4061142326" lon="11.176483332">
		<tag k="name" v="Glenne" />
		<tag k="place" v="hamlet" />
		<tag k="ssr:stedsnr" v="852149" />
	</node>
	<node id="-228062" lat="59.457499999" lon="11.1852750046">
		<tag k="name" v="Hønstvet" />
		<tag k="place" v="farm" />
		<tag k="ssr:stedsnr" v="852234" />
	</node>
	<node id="-228061" lat="59.4567075353" lon="11.2047391743">
		<tag k="alt_name" v="Liverud søndre" />
		<tag k="name" v="Søndre Liverud" />
		<tag k="place" v="farm" />
		<tag k="ssr:stedsnr" v="852231" />
	</node>
	<node id="-228060" lat="59.5230333295" lon="11.1946583322">
		<tag k="alt_name" v="Mattishuset" />
		<tag k="name" v="Mathishuset" />
		<tag k="place" v="farm" />
		<tag k="ssr:stedsnr" v="812081" />
	</node>
	<node id="-228056" lat="59.4714395238" lon="11.1420130256">
		<tag k="alt_name" v="Toen nordre" />
		<tag k="name" v="Nordre Toen" />
		<tag k="place" v="farm" />
		<tag k="ssr:stedsnr" v="811967" />
	</node>
	<node id="-228054" lat="59.5184944481" lon="11.1645333392">
		<tag k="name" v="Nord-Vister" />
		<tag k="place" v="farm" />
		<tag k="ssr:stedsnr" v="811836" />
	</node>
	<node id="-228053" lat="59.5402444481" lon="11.1353944382">
		<tag k="alt_name" v="Svae søndre" />
		<tag k="name" v="Søndre Svae" />
		<tag k="place" v="farm" />
		<tag k="ssr:stedsnr" v="810879" />
	</node>
	<node id="-228052" lat="59.5114505576" lon="11.1862288224">
		<tag k="fixme" v="consider place=hamlet" />
		<tag k="name" v="Ski" />
		<tag k="place" v="farm" />
		<tag k="ssr:stedsnr" v="793715" />
	</node>
	<node id="-228051" lat="59.5341249963" lon="11.1235000067">
		<tag k="alt_name" v="Solberg nordre;Solberg" />
		<tag k="name" v="Nordre Solberg" />
		<tag k="place" v="farm" />
		<tag k="ssr:stedsnr" v="792718" />
	</node>
	<node id="-228050" lat="59.4715923912" lon="11.2055695692">
		<tag k="fixme" v="consider place=hamlet" />
		<tag k="name" v="Eng" />
		<tag k="place" v="farm" />
		<tag k="ssr:stedsnr" v="791052" />
	</node>
	<node id="-228049" lat="59.4776249965" lon="11.1121499973">
		<tag k="alt_name" v="Målhuset" />
		<tag k="name" v="Målehuset" />
		<tag k="place" v="farm" />
		<tag k="ssr:stedsnr" v="791050" />
	</node>
	<node id="-228048" lat="59.4811277813" lon="11.1576500022">
		<tag k="alt_name" v="Skjelle søndre;Skjelle" />
		<tag k="name" v="Søndre Skjelle" />
		<tag k="place" v="farm" />
		<tag k="ssr:stedsnr" v="791048" />
	</node>
	<node id="-228047" lat="59.4795055559" lon="11.1329999919">
		<tag k="name" v="Skrikerud" />
		<tag k="place" v="farm" />
		<tag k="ssr:stedsnr" v="791047" />
	</node>
	<node id="-228046" lat="59.4839055539" lon="11.1336722184">
		<tag k="name" v="Moseby" />
		<tag k="place" v="farm" />
		<tag k="ssr:stedsnr" v="791046" />
	</node>
	<node id="-228045" lat="59.4867555581" lon="11.1905027728">
		<tag k="alt_name" v="Bilit" />
		<tag k="name" v="Bilitt" />
		<tag k="place" v="farm" />
		<tag k="ssr:stedsnr" v="791043" />
	</node>
	<node id="-228044" lat="59.4592369085" lon="11.1385616445">
		<tag k="alt_name" v="Snerstad" />
		<tag k="fixme" v="consider place=hamlet" />
		<tag k="name" v="Sperstad" />
		<tag k="place" v="farm" />
		<tag k="ssr:stedsnr" v="791219" />
	</node>
	<node id="-228043" lat="59.4420361099" lon="11.162605558">
		<tag k="alt_name" v="Sletner" />
		<tag k="name" v="Slettner" />
		<tag k="place" v="farm" />
		<tag k="ssr:stedsnr" v="791198" />
	</node>
	<node id="-228042" lat="59.5106888912" lon="11.203294436">
		<tag k="name" v="Åsland" />
		<tag k="place" v="farm" />
		<tag k="ssr:stedsnr" v="752076" />
	</node>
	<node id="-228041" lat="59.524797218" lon="11.1981166586">
		<tag k="name" v="Hestehagen" />
		<tag k="place" v="farm" />
		<tag k="ssr:stedsnr" v="752073" />
	</node>
	<node id="-228040" lat="59.5163638873" lon="11.1518111089">
		<tag k="name" v="Finnestad" />
		<tag k="place" v="farm" />
		<tag k="ssr:stedsnr" v="750826" />
	</node>
	<node id="-228039" lat="59.4695611121" lon="11.1968527726">
		<tag k="name" v="Hagen" />
		<tag k="place" v="farm" />
		<tag k="ssr:stedsnr" v="750550" />
	</node>
	<node id="-228038" lat="59.4334722208" lon="11.1727388963">
		<tag k="name" v="Knutebråten" />
		<tag k="place" v="farm" />
		<tag k="ssr:stedsnr" v="750499" />
	</node>
	<node id="-228037" lat="59.4609999964" lon="11.181441659">
		<tag k="name" v="Skjønhaug" />
		<tag k="place" v="farm" />
		<tag k="ssr:stedsnr" v="750992" />
	</node>
	<node id="-228034" lat="59.4950222181" lon="11.1048333284">
		<tag k="alt_name" v="Strand nordre" />
		<tag k="name" v="Nordre Strand" />
		<tag k="place" v="farm" />
		<tag k="ssr:stedsnr" v="750958" />
	</node>
	<node id="-228033" lat="59.5044999986" lon="11.1057388921">
		<tag k="name" v="Løkken" />
		<tag k="place" v="farm" />
		<tag k="ssr:stedsnr" v="750954" />
	</node>
	<node id="-228032" lat="59.4626138864" lon="11.1631888818">
		<tag k="name" v="Holsvingen" />
		<tag k="place" v="locality" />
		<tag k="ssr:stedsnr" v="629961" />
	</node>
	<node id="-228031" lat="59.4590000034" lon="11.1492916753">
		<tag k="name" v="Skavland" />
		<tag k="place" v="farm" />
		<tag k="ssr:stedsnr" v="629958" />
	</node>
	<node id="-228030" lat="59.4512499982" lon="11.1765527812">
		<tag k="name" v="Solberg" />
		<tag k="place" v="farm" />
		<tag k="ssr:stedsnr" v="628987" />
	</node>
	<node id="-228029" lat="59.4671611135" lon="11.1939305518">
		<tag k="name" v="Ekeberghytta" />
		<tag k="place" v="farm" />
		<tag k="ssr:stedsnr" v="628516" />
	</node>
	<node id="-228028" lat="59.4996731772" lon="11.2168208225">
		<tag k="fixme" v="consider place=hamlet" />
		<tag k="name" v="Foss" />
		<tag k="place" v="farm" />
		<tag k="ssr:stedsnr" v="610727" />
	</node>
	<node id="-228027" lat="59.5108555538" lon="11.1383499915">
		<tag k="name" v="Ilebakke" />
		<tag k="place" v="farm" />
		<tag k="ssr:stedsnr" v="610715" />
	</node>
	<node id="-228026" lat="59.4956608639" lon="11.1996160703">
		<tag k="alt_name" v="Ladim" />
		<tag k="fixme" v="consider place=hamlet" />
		<tag k="name" v="Laum" />
		<tag k="place" v="farm" />
		<tag k="ssr:stedsnr" v="610094" />
	</node>
	<node id="-228025" lat="59.4819972242" lon="11.1014083354">
		<tag k="name" v="Gudum" />
		<tag k="place" v="farm" />
		<tag k="ssr:stedsnr" v="609065" />
	</node>
	<node id="-228024" lat="59.4746499987" lon="11.1611166618">
		<tag k="name" v="Meieribyen" />
		<tag k="place" v="village" />
		<tag k="ssr:stedsnr" v="609052" />
	</node>
	<node id="-228023" lat="59.4691118984" lon="11.1741445635">
		<tag k="alt_name" v="Prestegården" />
		<tag k="fixme" v="consider place=hamlet" />
		<tag k="name" v="Skiptvet prestegård" />
		<tag k="place" v="farm" />
		<tag k="ssr:stedsnr" v="608026" />
	</node>
	<node id="-228022" lat="59.4701077579" lon="11.1122372304">
		<tag k="alt_name" v="Berg østre" />
		<tag k="name" v="Berg" />
		<tag k="place" v="hamlet" />
		<tag k="ssr:stedsnr" v="608011" />
	</node>
	<node id="-228021" lat="59.4769138914" lon="11.1612250072">
		<tag k="name" v="Skiptvet" />
		<tag k="place" v="village" />
		<tag k="ssr:stedsnr" v="570403" />
	</node>
	<node id="-228020" lat="59.5214833347" lon="11.2002694465">
		<tag k="name" v="Frantshuset" />
		<tag k="place" v="farm" />
		<tag k="ssr:stedsnr" v="569100" />
	</node>
	<node id="-228019" lat="59.5183805595" lon="11.2067666669">
		<tag k="name" v="Veiby Reirshullet" />
		<tag k="place" v="farm" />
		<tag k="ssr:stedsnr" v="569099" />
	</node>
	<node id="-228018" lat="59.5159055595" lon="11.2076472302">
		<tag k="name" v="Høgås" />
		<tag k="place" v="farm" />
		<tag k="ssr:stedsnr" v="569094" />
	</node>
	<node id="-228017" lat="59.4572027778" lon="11.1908416717">
		<tag k="name" v="Østby" />
		<tag k="place" v="farm" />
		<tag k="ssr:stedsnr" v="568991" />
	</node>
	<node id="-228016" lat="59.5045444491" lon="11.1651722138">
		<tag k="name" v="Vestereng" />
		<tag k="place" v="farm" />
		<tag k="ssr:stedsnr" v="568980" />
	</node>
	<node id="-228015" lat="59.477033334" lon="11.0895">
		<tag k="name" v="Skredderstykket" />
		<tag k="place" v="locality" />
		<tag k="ssr:stedsnr" v="568978" />
	</node>
	<node id="-228014" lat="59.4750916645" lon="11.0825638875">
		<tag k="name" v="Prestbystykket" />
		<tag k="place" v="locality" />
		<tag k="ssr:stedsnr" v="568973" />
	</node>
	<node id="-228013" lat="59.4992944459" lon="11.0853388892">
		<tag k="name" v="Padal" />
		<tag k="place" v="farm" />
		<tag k="ssr:stedsnr" v="568961" />
	</node>
	<node id="-228012" lat="59.457044441" lon="11.1570416741">
		<tag k="name" v="Åmotsvinger" />
		<tag k="place" v="locality" />
		<tag k="ssr:stedsnr" v="568946" />
	</node>
	<node id="-228010" lat="59.4675833349" lon="11.2111444483">
		<tag k="name" v="Espenes" />
		<tag k="place" v="farm" />
		<tag k="ssr:stedsnr" v="568502" />
	</node>
	<node id="-228009" lat="59.4853250041" lon="11.2271722192">
		<tag k="alt_name" v="Skipperud østre" />
		<tag k="name" v="Østre Skipperud" />
		<tag k="place" v="farm" />
		<tag k="ssr:stedsnr" v="568501" />
	</node>
	<node id="-228007" lat="59.5280805522" lon="11.1375138942">
		<tag k="alt_name" v="Jakobshaugen nordre" />
		<tag k="name" v="Nordre Jakobshaugen" />
		<tag k="place" v="farm" />
		<tag k="ssr:stedsnr" v="567864" />
	</node>
	<node id="-228006" lat="59.5267611072" lon="11.1200833419">
		<tag k="alt_name" v="Holmerud nordre" />
		<tag k="name" v="Nordre Holmerud" />
		<tag k="place" v="farm" />
		<tag k="ssr:stedsnr" v="567862" />
	</node>
	<node id="-228005" lat="59.5300120177" lon="11.1214485492">
		<tag k="fixme" v="consider place=hamlet" />
		<tag k="name" v="Smertu" />
		<tag k="place" v="farm" />
		<tag k="ssr:stedsnr" v="549712" />
	</node>
	<node id="-228004" lat="59.5396500008" lon="11.1832999947">
		<tag k="name" v="Strømnes" />
		<tag k="place" v="farm" />
		<tag k="ssr:stedsnr" v="549479" />
	</node>
	<node id="-228003" lat="59.5027277773" lon="11.0834444367">
		<tag k="name" v="Utenga" />
		<tag k="place" v="farm" />
		<tag k="ssr:stedsnr" v="549088" />
	</node>
	<node id="-228002" lat="59.4465424925" lon="11.1872819285">
		<tag k="fixme" v="consider place=hamlet" />
		<tag k="name" v="Bråtenes" />
		<tag k="place" v="farm" />
		<tag k="ssr:stedsnr" v="548248" />
	</node>
	<node id="-228001" lat="59.457844737" lon="11.1632395146">
		<tag k="name" v="Gullhaugen" />
		<tag k="place" v="locality" />
		<tag k="ssr:stedsnr" v="548228" />
	</node>
	<node id="-228000" lat="59.4349499969" lon="11.1497222282">
		<tag k="name" v="Helgerud" />
		<tag k="place" v="farm" />
		<tag k="ssr:stedsnr" v="548224" />
	</node>
	<node id="-227999" lat="59.439424996" lon="11.1399805498">
		<tag k="alt_name" v="Husengen" />
		<tag k="name" v="Husenga" />
		<tag k="place" v="farm" />
		<tag k="ssr:stedsnr" v="548208" />
	</node>
	<node id="-227998" lat="59.4410833363" lon="11.1433722311">
		<tag k="name" v="Rallås" />
		<tag k="place" v="farm" />
		<tag k="ssr:stedsnr" v="548207" />
	</node>
	<node id="-227997" lat="59.47618551" lon="11.1019752244">
		<tag k="alt_name" v="Unnestad" />
		<tag k="fixme" v="consider place=hamlet" />
		<tag k="name" v="Ånnestad" />
		<tag k="place" v="farm" />
		<tag k="ssr:stedsnr" v="548059" />
	</node>
	<node id="-227995" lat="59.4981361072" lon="11.0841166633">
		<tag k="name" v="Teppa" />
		<tag k="place" v="farm" />
		<tag k="ssr:stedsnr" v="428649" />
	</node>
	<node id="-227994" lat="59.4980499985" lon="11.2232472244">
		<tag k="alt_name" v="Nordnes" />
		<tag k="name" v="Nes" />
		<tag k="place" v="farm" />
		<tag k="ssr:stedsnr" v="428085" />
	</node>
	<node id="-227993" lat="59.5024500018" lon="11.0863999974">
		<tag k="name" v="Hagen" />
		<tag k="place" v="farm" />
		<tag k="ssr:stedsnr" v="428076" />
	</node>
	<node id="-227992" lat="59.4256249975" lon="11.136305547">
		<tag k="name" v="Bråten" />
		<tag k="place" v="farm" />
		<tag k="ssr:stedsnr" v="427193" />
	</node>
	<node id="-227990" lat="59.4191555576" lon="11.1755749963">
		<tag k="name" v="Svartedal" />
		<tag k="place" v="farm" />
		<tag k="ssr:stedsnr" v="427133" />
	</node>
	<node id="-227987" lat="59.456875003" lon="11.0986111034">
		<tag k="name" v="Bjørnland" />
		<tag k="place" v="locality" />
		<tag k="ssr:stedsnr" v="386946" />
	</node>
	<node id="-227986" lat="59.4443750026" lon="11.1573138856">
		<tag k="alt_name" v="Berg nordre" />
		<tag k="name" v="Nordre Berg" />
		<tag k="place" v="farm" />
		<tag k="ssr:stedsnr" v="386943" />
	</node>
	<node id="-227985" lat="59.495663888" lon="11.1470527714">
		<tag k="name" v="Åsen" />
		<tag k="place" v="farm" />
		<tag k="ssr:stedsnr" v="386979" />
	</node>
	<node id="-227984" lat="59.521288885" lon="11.1569722163">
		<tag k="name" v="Falkensten" />
		<tag k="place" v="farm" />
		<tag k="ssr:stedsnr" v="386848" />
	</node>
	<node id="-227983" lat="59.525158329" lon="11.1378638915">
		<tag k="name" v="Hauger" />
		<tag k="place" v="farm" />
		<tag k="ssr:stedsnr" v="386845" />
	</node>
	<node id="-227982" lat="59.4425888915" lon="11.1726444524">
		<tag k="name" v="Solbergdalen" />
		<tag k="place" v="farm" />
		<tag k="ssr:stedsnr" v="386494" />
	</node>
	<node id="-227980" lat="59.5088777762" lon="11.1690722303">
		<tag k="alt_name" v="Aslaksrud søndre" />
		<tag k="name" v="Søndre Aslaksrud" />
		<tag k="place" v="farm" />
		<tag k="ssr:stedsnr" v="385844" />
	</node>
	<node id="-227979" lat="59.5279762576" lon="11.1496745155">
		<tag k="name" v="Libru" />
		<tag k="place" v="farm" />
		<tag k="ssr:stedsnr" v="368768" />
	</node>
	<node id="-227978" lat="59.5308666695" lon="11.1277833364">
		<tag k="alt_name" v="Solberg søndre;Solberg" />
		<tag k="name" v="Søndre Solberg" />
		<tag k="place" v="farm" />
		<tag k="ssr:stedsnr" v="368766" />
	</node>
	<node id="-227977" lat="59.5155527768" lon="11.1411250071">
		<tag k="name" v="Stensrud" />
		<tag k="place" v="farm" />
		<tag k="ssr:stedsnr" v="368728" />
	</node>
	<node id="-227976" lat="59.5004249995" lon="11.0851388938">
		<tag k="name" v="Padal" />
		<tag k="place" v="farm" />
		<tag k="ssr:stedsnr" v="368042" />
	</node>
	<node id="-227975" lat="59.4969988911" lon="11.1919106119">
		<tag k="fixme" v="consider place=hamlet" />
		<tag k="name" v="Vang" />
		<tag k="place" v="farm" />
		<tag k="ssr:stedsnr" v="367078" />
	</node>
	<node id="-227973" lat="59.4544499964" lon="11.1432499934">
		<tag k="name" v="Haga" />
		<tag k="place" v="farm" />
		<tag k="ssr:stedsnr" v="366228" />
	</node>
	<node id="-227972" lat="59.4509277756" lon="11.1468249968">
		<tag k="alt_name" v="Engen" />
		<tag k="name" v="Enga" />
		<tag k="place" v="farm" />
		<tag k="ssr:stedsnr" v="366226" />
	</node>
	<node id="-227971" lat="59.4762500015" lon="11.1337472168">
		<tag k="alt_name" v="Tonshytta" />
		<tag k="name" v="Toenshytta" />
		<tag k="place" v="farm" />
		<tag k="ssr:stedsnr" v="366043" />
	</node>
	<node id="-227969" lat="59.5107166643" lon="11.197305561">
		<tag k="name" v="Ødegården" />
		<tag k="place" v="farm" />
		<tag k="ssr:stedsnr" v="327098" />
	</node>
	<node id="-227968" lat="59.4606305544" lon="11.102641667">
		<tag k="historic" v="shieling" />
		<tag k="name" v="Holtet" />
		<tag k="place" v="locality" />
		<tag k="ssr:stedsnr" v="326963" />
	</node>
	<node id="-227965" lat="59.4833999997" lon="11.2018444405">
		<tag k="name" v="Vesterby" />
		<tag k="place" v="farm" />
		<tag k="ssr:stedsnr" v="325551" />
	</node>
	<node id="-227964" lat="59.4779388859" lon="11.2053777781">
		<tag k="alt_name" v="Eng nordre" />
		<tag k="name" v="Nordre Eng" />
		<tag k="place" v="farm" />
		<tag k="ssr:stedsnr" v="325549" />
	</node>
	<node id="-227963" lat="59.4668333323" lon="11.1973083317">
		<tag k="alt_name" v="Rueneplass" />
		<tag k="name" v="Ruene" />
		<tag k="place" v="farm" />
		<tag k="ssr:stedsnr" v="325523" />
	</node>
	<node id="-227962" lat="59.4896333374" lon="11.2179888923">
		<tag k="alt_name" v="Skipperud vestre" />
		<tag k="name" v="Vestre Skipperud" />
		<tag k="place" v="farm" />
		<tag k="ssr:stedsnr" v="325496" />
	</node>
	<node id="-227961" lat="59.474288891" lon="11.1592000078">
		<tag k="alt_name" v="Koffell søndre" />
		<tag k="name" v="Søndre Koffell" />
		<tag k="place" v="farm" />
		<tag k="ssr:stedsnr" v="325998" />
	</node>
	<node id="-227960" lat="59.4552499999" lon="11.1823055527">
		<tag k="name" v="Hønstvet" />
		<tag k="place" v="farm" />
		<tag k="ssr:stedsnr" v="325996" />
	</node>
	<node id="-227959" lat="59.4941000018" lon="11.1577000069">
		<tag k="name" v="Løstvet" />
		<tag k="place" v="farm" />
		<tag k="ssr:stedsnr" v="325980" />
	</node>
	<node id="-227958" lat="59.50266389" lon="11.1470111047">
		<tag k="name" v="Holonemosen" />
		<tag k="place" v="farm" />
		<tag k="ssr:stedsnr" v="325971" />
	</node>
	<node id="-227956" lat="59.464249998" lon="11.1350388875">
		<tag k="name" v="Søllskauten" />
		<tag k="place" v="locality" />
		<tag k="ssr:stedsnr" v="325936" />
	</node>
	<node id="-227955" lat="59.5252558726" lon="11.1580787024">
		<tag k="fixme" v="consider place=hamlet" />
		<tag k="name" v="Skallerud" />
		<tag k="place" v="farm" />
		<tag k="ssr:stedsnr" v="307750" />
	</node>
	<node id="-227954" lat="59.508140541" lon="11.2111278778">
		<tag k="alt_name" v="Sommerrud" />
		<tag k="name" v="Sammerud" />
		<tag k="place" v="farm" />
		<tag k="ssr:stedsnr" v="307713" />
	</node>
	<node id="-227953" lat="59.497202777" lon="11.1658249983">
		<tag k="name" v="Karlstad" />
		<tag k="place" v="farm" />
		<tag k="ssr:stedsnr" v="307099" />
	</node>
	<node id="-227952" lat="59.4948499985" lon="11.1044500016">
		<tag k="name" v="Strand" />
		<tag k="place" v="farm" />
		<tag k="ssr:stedsnr" v="307094" />
	</node>
	<node id="-227951" lat="59.4367305531" lon="11.1769500079">
		<tag k="alt_name" v="Nordeng" />
		<tag k="name" v="Nordenga" />
		<tag k="place" v="farm" />
		<tag k="ssr:stedsnr" v="306203" />
	</node>
	<node id="-227949" lat="59.4859472194" lon="11.1588222189">
		<tag k="alt_name" v="Skjelle nordre;Skjelle" />
		<tag k="name" v="Nordre Skjelle" />
		<tag k="place" v="farm" />
		<tag k="ssr:stedsnr" v="306059" />
	</node>
	<node id="-227948" lat="59.4126027806" lon="11.1833333388">
		<tag k="name" v="Glennetangen" />
		<tag k="place" v="farm" />
		<tag k="ssr:stedsnr" v="305128" />
	</node>
	<node id="-227946" lat="59.4836749968" lon="11.1994500079">
		<tag k="name" v="Frorudneset" />
		<tag k="place" v="farm" />
		<tag k="ssr:stedsnr" v="305040" />
	</node>
	<node id="-227945" lat="59.4720277783" lon="11.1875222301">
		<tag k="alt_name" v="Askim" />
		<tag k="name" v="Askjum" />
		<tag k="place" v="farm" />
		<tag k="ssr:stedsnr" v="305024" />
	</node>
	<node id="-227944" lat="59.4601000044" lon="11.2035722161">
		<tag k="alt_name" v="Liverud nordre" />
		<tag k="name" v="Nordre Liverud" />
		<tag k="place" v="farm" />
		<tag k="ssr:stedsnr" v="305216" />
	</node>
	<node id="-227943" lat="59.4761333299" lon="11.1648611116">
		<tag k="name" v="Vestgård" />
		<tag k="place" v="farm" />
		<tag k="ssr:stedsnr" v="204998" />
	</node>
	<node id="-227942" lat="59.4671666671" lon="11.1644805601">
		<tag k="name" v="Voll" />
		<tag k="place" v="farm" />
		<tag k="ssr:stedsnr" v="204994" />
	</node>
	<node id="-227941" lat="59.4865000028" lon="11.099258337">
		<tag k="alt_name" v="Lund nordre" />
		<tag k="name" v="Nordre Lund" />
		<tag k="place" v="farm" />
		<tag k="ssr:stedsnr" v="204983" />
	</node>
	<node id="-227940" lat="59.4235249973" lon="11.1652805598">
		<tag k="alt_name" v="Bjørkedalen" />
		<tag k="name" v="Bjørndalen" />
		<tag k="place" v="farm" />
		<tag k="ssr:stedsnr" v="204965" />
	</node>
	<node id="-227939" lat="59.4921944426" lon="11.1047638892">
		<tag k="name" v="Strand" />
		<tag k="place" v="farm" />
		<tag k="ssr:stedsnr" v="204959" />
	</node>
	<node id="-227938" lat="59.4992916634" lon="11.1092083358">
		<tag k="alt_name" v="Heistad nordre" />
		<tag k="name" v="Nordre Heistad" />
		<tag k="place" v="farm" />
		<tag k="ssr:stedsnr" v="204957" />
	</node>
	<node id="-227937" lat="59.45981212" lon="11.1401045345">
		<tag k="alt_name" v="Sperstad nordre" />
		<tag k="name" v="Nordre Sperstad" />
		<tag k="place" v="farm" />
		<tag k="ssr:stedsnr" v="204952" />
	</node>
	<node id="-227936" lat="59.4490583319" lon="11.1283666597">
		<tag k="name" v="Gjerstad" />
		<tag k="place" v="farm" />
		<tag k="ssr:stedsnr" v="204945" />
	</node>
	<node id="-227935" lat="59.5232277741" lon="11.1044166589">
		<tag k="name" v="Jeriko" />
		<tag k="place" v="locality" />
		<tag k="ssr:stedsnr" v="204852" />
	</node>
	<node id="-227934" lat="59.5313090113" lon="11.1330339502">
		<tag k="fixme" v="consider place=hamlet" />
		<tag k="name" v="Solberg" />
		<tag k="place" v="farm" />
		<tag k="ssr:stedsnr" v="204850" />
	</node>
	<node id="-227933" lat="59.5176194403" lon="11.1462249966">
		<tag k="name" v="Burås" />
		<tag k="place" v="farm" />
		<tag k="ssr:stedsnr" v="204837" />
	</node>
	<node id="-227932" lat="59.4183583339" lon="11.1638555533">
		<tag k="name" v="Bjørkebru" />
		<tag k="place" v="farm" />
		<tag k="ssr:stedsnr" v="204673" />
	</node>
	<node id="-227930" lat="59.4311833359" lon="11.1718250006">
		<tag k="name" v="Tangen" />
		<tag k="place" v="farm" />
		<tag k="ssr:stedsnr" v="204465" />
	</node>
	<node id="-227929" lat="59.4326333303" lon="11.1859166671">
		<tag k="name" v="Ulvetangen" />
		<tag k="place" v="farm" />
		<tag k="ssr:stedsnr" v="204463" />
	</node>
	<node id="-227926" lat="59.5009079783" lon="11.1428990204">
		<tag k="fixme" v="consider place=hamlet" />
		<tag k="name" v="Holone" />
		<tag k="place" v="farm" />
		<tag k="ssr:stedsnr" v="186737" />
	</node>
	<node id="-227925" lat="59.4892166668" lon="11.0773500028">
		<tag k="alt_name" v="Bjørnrud" />
		<tag k="name" v="Bjørnerud" />
		<tag k="place" v="locality" />
		<tag k="ssr:stedsnr" v="185652" />
	</node>
	<node id="-227924" lat="59.4988499988" lon="11.0875555623">
		<tag k="name" v="Padal" />
		<tag k="place" v="farm" />
		<tag k="ssr:stedsnr" v="185638" />
	</node>
	<node id="-227922" lat="59.4952739147" lon="11.0815537917">
		<tag k="fixme" v="consider place=hamlet" />
		<tag k="name" v="Holm" />
		<tag k="place" v="farm" />
		<tag k="ssr:stedsnr" v="185633" />
	</node>
	<node id="-227921" lat="59.4340305521" lon="11.1879555598">
		<tag k="alt_name" v="Glåmvik" />
		<tag k="name" v="Glomvik" />
		<tag k="place" v="farm" />
		<tag k="ssr:stedsnr" v="185194" />
	</node>
	<node id="-227920" lat="59.4330805527" lon="11.1533750066">
		<tag k="name" v="Bingen" />
		<tag k="place" v="farm" />
		<tag k="ssr:stedsnr" v="185192" />
	</node>
	<node id="-227916" lat="59.5089055583" lon="11.2066777841">
		<tag k="name" v="Lilleng" />
		<tag k="place" v="farm" />
		<tag k="ssr:stedsnr" v="145078" />
	</node>
	<node id="-227915" lat="59.5164777767" lon="11.2029666684">
		<tag k="name" v="Kjellås" />
		<tag k="place" v="farm" />
		<tag k="ssr:stedsnr" v="145074" />
	</node>
	<node id="-227914" lat="59.4805499978" lon="11.1430611056">
		<tag k="name" v="Fjellshagen" />
		<tag k="place" v="locality" />
		<tag k="ssr:stedsnr" v="143997" />
	</node>
	<node id="-227912" lat="59.4833944471" lon="11.0961472151">
		<tag k="name" v="Østli" />
		<tag k="place" v="farm" />
		<tag k="ssr:stedsnr" v="143976" />
	</node>
	<node id="-227911" lat="59.4829833313" lon="11.164000004">
		<tag k="name" v="Skjeltorp" />
		<tag k="place" v="farm" />
		<tag k="ssr:stedsnr" v="143973" />
	</node>
	<node id="-227910" lat="59.4806916639" lon="11.112452785">
		<tag k="alt_name" v="Målen vestre" />
		<tag k="name" v="Vestre Målen" />
		<tag k="place" v="farm" />
		<tag k="ssr:stedsnr" v="143970" />
	</node>
	<node id="-227909" lat="59.4964805521" lon="11.0845527792">
		<tag k="name" v="Holm" />
		<tag k="place" v="farm" />
		<tag k="ssr:stedsnr" v="143943" />
	</node>
	<node id="-227908" lat="59.4503416661" lon="11.1089916619">
		<tag k="name" v="Høybråten" />
		<tag k="place" v="locality" />
		<tag k="ssr:stedsnr" v="143937" />
	</node>
	<node id="-227906" lat="59.519794444" lon="11.131616658">
		<tag k="alt_name" v="Taraldrud nordre" />
		<tag k="name" v="Nordre Taraldrud" />
		<tag k="place" v="farm" />
		<tag k="ssr:stedsnr" v="143834" />
	</node>
	<node id="-227905" lat="59.5144638845" lon="11.1671611044">
		<tag k="name" v="Sør-Vister" />
		<tag k="place" v="farm" />
		<tag k="ssr:stedsnr" v="143827" />
	</node>
	<node id="-227904" lat="59.5161472246" lon="11.1572444494">
		<tag k="alt_name" v="Vister vestre" />
		<tag k="name" v="Vestre Vister" />
		<tag k="place" v="farm" />
		<tag k="ssr:stedsnr" v="143826" />
	</node>
	<node id="-227902" lat="59.5173687617" lon="11.1625071994">
		<tag k="name" v="Vister" />
		<tag k="place" v="hamlet" />
		<tag k="ssr:stedsnr" v="125757" />
	</node>
	<node id="-227901" lat="59.532097454" lon="11.1549630422">
		<tag k="fixme" v="consider place=hamlet" />
		<tag k="name" v="Kjos" />
		<tag k="place" v="farm" />
		<tag k="ssr:stedsnr" v="125747" />
	</node>
	<node id="-227900" lat="59.5346672188" lon="11.1388782604">
		<tag k="fixme" v="consider place=hamlet" />
		<tag k="name" v="Langli" />
		<tag k="place" v="farm" />
		<tag k="ssr:stedsnr" v="125746" />
	</node>
	<node id="-227899" lat="59.5286030557" lon="11.1876808944">
		<tag k="fixme" v="consider place=hamlet" />
		<tag k="name" v="Staås" />
		<tag k="place" v="farm" />
		<tag k="ssr:stedsnr" v="125742" />
	</node>
	<node id="-227898" lat="59.5357191116" lon="11.1812233896">
		<tag k="alt_name" v="Vamnes;Vammenes østre" />
		<tag k="fixme" v="consider place=hamlet" />
		<tag k="name" v="Vammenes" />
		<tag k="place" v="farm" />
		<tag k="ssr:stedsnr" v="125741" />
	</node>
	<node id="-227897" lat="59.5061579582" lon="11.2106106376">
		<tag k="alt_name" v="Kirkeng" />
		<tag k="name" v="Kirkengen" />
		<tag k="place" v="farm" />
		<tag k="ssr:stedsnr" v="125723" />
	</node>
	<node id="-227896" lat="59.5136194484" lon="11.1285750078">
		<tag k="name" v="Myrer" />
		<tag k="place" v="farm" />
		<tag k="ssr:stedsnr" v="125712" />
	</node>
	<node id="-227895" lat="59.4316500037" lon="11.1780972195">
		<tag k="alt_name" v="Gamlebru" />
		<tag k="name" v="Bru" />
		<tag k="place" v="farm" />
		<tag k="ssr:stedsnr" v="124174" />
	</node>
	<node id="-227894" lat="59.4908615995" lon="11.1616945807">
		<tag k="alt_name" v="Lystvet" />
		<tag k="fixme" v="consider place=hamlet" />
		<tag k="name" v="Løstvet" />
		<tag k="place" v="farm" />
		<tag k="ssr:stedsnr" v="124089" />
	</node>
	<node id="-227893" lat="59.4954867819" lon="11.1487642874">
		<tag k="alt_name" v="Tveter vestre" />
		<tag k="fixme" v="consider place=hamlet" />
		<tag k="name" v="Tveiter" />
		<tag k="place" v="farm" />
		<tag k="ssr:stedsnr" v="124088" />
	</node>
	<node id="-227892" lat="59.4625555524" lon="11.1786750029">
		<tag k="name" v="Lambruhagen" />
		<tag k="place" v="locality" />
		<tag k="ssr:stedsnr" v="83995" />
	</node>
	<node id="-227891" lat="59.4661083291" lon="11.1153638932">
		<tag k="name" v="Nordli (Bogen)" />
		<tag k="place" v="farm" />
		<tag k="ssr:stedsnr" v="83993" />
	</node>
	<node id="-227890" lat="59.4620472244" lon="11.1647083306">
		<tag k="alt_name" v="Hol vestre" />
		<tag k="name" v="Vestre Hol" />
		<tag k="place" v="farm" />
		<tag k="ssr:stedsnr" v="83946" />
	</node>
	<node id="-227888" lat="59.4510317165" lon="11.1288475308">
		<tag k="name" v="Gjerstad" />
		<tag k="place" v="farm" />
		<tag k="ssr:stedsnr" v="83939" />
	</node>
	<node id="-227887" lat="59.4811666694" lon="11.1973305552">
		<tag k="name" v="Frorudtangen" />
		<tag k="place" v="farm" />
		<tag k="ssr:stedsnr" v="83531" />
	</node>
	<node id="-227886" lat="59.4993833354" lon="11.2107527849">
		<tag k="name" v="Sørengen" />
		<tag k="place" v="farm" />
		<tag k="ssr:stedsnr" v="83494" />
	</node>
	<node id="-227885" lat="59.5012611078" lon="11.1807166582">
		<tag k="name" v="Botner" />
		<tag k="place" v="farm" />
		<tag k="ssr:stedsnr" v="83491" />
	</node>
	<node id="-227884" lat="59.526052781" lon="11.1009305611">
		<tag k="name" v="Leiken" />
		<tag k="place" v="locality" />
		<tag k="ssr:stedsnr" v="82882" />
	</node>
	<node id="-227883" lat="59.531716668" lon="11.1634444463">
		<tag k="name" v="Grønnlund" />
		<tag k="place" v="quarter" />
		<tag k="ssr:stedsnr" v="82877" />
	</node>
	<node id="-227882" lat="59.5177404467" lon="11.1351377287">
		<tag k="alt_name" v="Taraldrud søndre" />
		<tag k="name" v="Søndre Taraldrud" />
		<tag k="place" v="farm" />
		<tag k="ssr:stedsnr" v="82873" />
	</node>
	<node id="-227881" lat="59.5262194467" lon="11.1360111098">
		<tag k="alt_name" v="Jakobshaugen søndre" />
		<tag k="name" v="Søndre Jakobshaugen" />
		<tag k="place" v="farm" />
		<tag k="ssr:stedsnr" v="82872" />
	</node>
	<node id="-227880" lat="59.4509249981" lon="11.1936500071">
		<tag k="name" v="Stuput" />
		<tag k="place" v="farm" />
		<tag k="ssr:stedsnr" v="63264" />
	</node>
	<node id="-227879" lat="59.4514527782" lon="11.1051166702">
		<tag k="name" v="Kastdalen" />
		<tag k="place" v="isolated_dwelling" />
		<tag k="ssr:stedsnr" v="63254" />
	</node>
	<node id="-227878" lat="59.4372750009" lon="11.1490750056">
		<tag k="name" v="Berg" />
		<tag k="place" v="farm" />
		<tag k="ssr:stedsnr" v="63227" />
	</node>
	<node id="-227877" lat="59.4891249958" lon="11.2242000053">
		<tag k="name" v="Gate" />
		<tag k="place" v="farm" />
		<tag k="ssr:stedsnr" v="63057" />
	</node>
	<node id="-227876" lat="59.4658942905" lon="11.1466086681">
		<tag k="alt_name" v="Karterud" />
		<tag k="fixme" v="consider place=hamlet" />
		<tag k="name" v="Nedre Karterud" />
		<tag k="place" v="farm" />
		<tag k="ssr:stedsnr" v="63030" />
	</node>
	<node id="-227875" lat="59.4653090733" lon="11.113072321">
		<tag k="fixme" v="consider place=hamlet" />
		<tag k="name" v="Bogen" />
		<tag k="place" v="farm" />
		<tag k="ssr:stedsnr" v="63007" />
	</node>
	<node id="-227873" lat="59.5212777748" lon="11.1938194472">
		<tag k="name" v="Bua" />
		<tag k="place" v="farm" />
		<tag k="ssr:stedsnr" v="24073" />
	</node>
	<node id="-227872" lat="59.471041668" lon="11.1490833383">
		<tag k="alt_name" v="Toen østre" />
		<tag k="name" v="Østre Toen" />
		<tag k="place" v="farm" />
		<tag k="ssr:stedsnr" v="23000" />
	</node>
	<node id="-227871" lat="59.4613027776" lon="11.1997111144">
		<tag k="name" v="Liverudhytta" />
		<tag k="place" v="farm" />
		<tag k="ssr:stedsnr" v="22992" />
	</node>
	<node id="-227870" lat="59.4889361123" lon="11.0689138853">
		<tag k="name" v="Hansemosen" />
		<tag k="place" v="locality" />
		<tag k="ssr:stedsnr" v="22985" />
	</node>
	<node id="-227869" lat="59.496119444" lon="11.1617055517">
		<tag k="name" v="Hestengen" />
		<tag k="place" v="farm" />
		<tag k="ssr:stedsnr" v="22980" />
	</node>
	<node id="-227867" lat="59.485797221" lon="11.0966083412">
		<tag k="alt_name" v="Lund søndre" />
		<tag k="name" v="Søndre Lund" />
		<tag k="place" v="farm" />
		<tag k="ssr:stedsnr" v="22974" />
	</node>
	<node id="-227866" lat="59.504433336" lon="11.0995416627">
		<tag k="alt_name" v="Kvisler søndre" />
		<tag k="name" v="Søndre Kvisler" />
		<tag k="place" v="farm" />
		<tag k="ssr:stedsnr" v="22958" />
	</node>
	<node id="-227865" lat="59.49423333" lon="11.2206555571">
		<tag k="name" v="Fosstangen" />
		<tag k="place" v="farm" />
		<tag k="ssr:stedsnr" v="22493" />
	</node>
	<node id="-227864" lat="59.5043249998" lon="11.2189916742">
		<tag k="name" v="Haugen" />
		<tag k="place" v="farm" />
		<tag k="ssr:stedsnr" v="22487" />
	</node>
	<node id="-227863" lat="59.4757666693" lon="11.2155222203">
		<tag k="name" v="Skausbukta" />
		<tag k="place" v="farm" />
		<tag k="ssr:stedsnr" v="22564" />
	</node>
	<node id="-227862" lat="59.5238378107" lon="11.1341520407">
		<tag k="fixme" v="consider place=hamlet" />
		<tag k="name" v="Hauger" />
		<tag k="place" v="farm" />
		<tag k="ssr:stedsnr" v="4768" />
	</node>
	<node id="-227861" lat="59.5219555591" lon="11.1646694446">
		<tag k="name" v="Bakkerud" />
		<tag k="place" v="farm" />
		<tag k="ssr:stedsnr" v="4762" />
	</node>
	<node id="-227860" lat="59.5267505424" lon="11.1749501559">
		<tag k="name" v="Borger" />
		<tag k="place" v="hamlet" />
		<tag k="ssr:stedsnr" v="4744" />
	</node>
	<node id="-227859" lat="59.5010388917" lon="11.1038027796">
		<tag k="name" v="Krok" />
		<tag k="place" v="farm" />
		<tag k="ssr:stedsnr" v="4724" />
	</node>
	<node id="-227858" lat="59.5010777735" lon="11.1153249909">
		<tag k="alt_name" v="Heistadengen" />
		<tag k="name" v="Heistadenga" />
		<tag k="place" v="farm" />
		<tag k="ssr:stedsnr" v="4722" />
	</node>
	<node id="-227857" lat="59.5019894216" lon="11.1920631553">
		<tag k="fixme" v="consider place=hamlet" />
		<tag k="name" v="Finsrud" />
		<tag k="place" v="farm" />
		<tag k="ssr:stedsnr" v="4712" />
	</node>
	<node id="-227855" lat="59.5121805597" lon="11.2092750058">
		<tag k="fixme" v="consider place=hamlet" />
		<tag k="name" v="Sundås" />
		<tag k="place" v="farm" />
		<tag k="ssr:stedsnr" v="4692" />
	</node>
	<node id="-227854" lat="59.3955703296" lon="11.1555779511">
		<tag k="alt_name" v="Åleskjer" />
		<tag k="name" v="Åleskjær" />
		<tag k="place" v="isolated_dwelling" />
		<tag k="ssr:stedsnr" v="2821" />
	</node>
	<node id="-227853" lat="59.4835634024" lon="11.1106556534">
		<tag k="alt_name" v="Haug nordre" />
		<tag k="fixme" v="consider place=hamlet" />
		<tag k="name" v="Haug" />
		<tag k="place" v="farm" />
		<tag k="ssr:stedsnr" v="2052" />
	</node>
	<node id="-227851" lat="59.4669527813" lon="11.1545999943">
		<tag k="alt_name" v="Brekke" />
		<tag k="name" v="Brekka" />
		<tag k="place" v="farm" />
		<tag k="ssr:stedsnr" v="2030" />
	</node>
	<node id="-227850" lat="59.4533862028" lon="11.1957014746">
		<tag k="fixme" v="consider place=hamlet" />
		<tag k="name" v="Borgen" />
		<tag k="place" v="farm" />
		<tag k="ssr:stedsnr" v="2252" />
	</node>
	<node id="-227849" lat="59.445775003" lon="11.1677055541">
		<tag k="name" v="Kransrud" />
		<tag k="place" v="farm" />
		<tag k="ssr:stedsnr" v="2196" />
	</node>
	<node id="-227847" lat="59.4752166707" lon="11.1919805515">
		<tag k="name" v="Høytorp" />
		<tag k="place" v="farm" />
		<tag k="ssr:stedsnr" v="932529" />
	</node>
	<node id="-227846" lat="59.4695999967" lon="11.2025694391">
		<tag k="name" v="Åsnes" />
		<tag k="place" v="farm" />
		<tag k="ssr:stedsnr" v="932505" />
	</node>
	<node id="-227845" lat="59.4598999998" lon="11.1043999981">
		<tag k="name" v="Skomakerhytta" />
		<tag k="place" v="isolated_dwelling" />
		<tag k="ssr:stedsnr" v="912229" />
	</node>
	<node id="-227844" lat="59.538983331" lon="11.1760972275">
		<tag k="name" v="Fossbakk" />
		<tag k="place" v="farm" />
		<tag k="ssr:stedsnr" v="873113" />
	</node>
	<node id="-227842" lat="59.4824194466" lon="11.1226388934">
		<tag k="alt_name" v="Målen østre" />
		<tag k="name" v="Østre Målen" />
		<tag k="place" v="farm" />
		<tag k="ssr:stedsnr" v="872973" />
	</node>
	<node id="-227841" lat="59.4623861073" lon="11.1677861177">
		<tag k="alt_name" v="Hol østre" />
		<tag k="name" v="Østre Hol" />
		<tag k="place" v="farm" />
		<tag k="ssr:stedsnr" v="872959" />
	</node>
	<node id="-227840" lat="59.456133332" lon="11.1430527825">
		<tag k="name" v="Sperstadbakken" />
		<tag k="place" v="farm" />
		<tag k="ssr:stedsnr" v="872956" />
	</node>
	<node id="-227839" lat="59.4346388906" lon="11.1866222198">
		<tag k="name" v="Snekkerhyttlandet" />
		<tag k="place" v="locality" />
		<tag k="ssr:stedsnr" v="872557" />
	</node>
	<node id="-227838" lat="59.4351722184" lon="11.1820611154">
		<tag k="name" v="Nordenga" />
		<tag k="place" v="farm" />
		<tag k="ssr:stedsnr" v="872555" />
	</node>
	<node id="-227837" lat="59.433297225" lon="11.1830388832">
		<tag k="name" v="Nybru" />
		<tag k="place" v="farm" />
		<tag k="ssr:stedsnr" v="872553" />
	</node>
	<node id="-227835" lat="59.5045583335" lon="11.089211111">
		<tag k="alt_name" v="Bjørnemyr" />
		<tag k="name" v="Bjørnemyra" />
		<tag k="place" v="farm" />
		<tag k="ssr:stedsnr" v="853061" />
	</node>
	<node id="-227834" lat="59.4358250009" lon="11.1769222228">
		<tag k="name" v="Storenga" />
		<tag k="place" v="farm" />
		<tag k="ssr:stedsnr" v="852220" />
	</node>
	<node id="-227833" lat="59.476576613" lon="11.1580497186">
		<tag k="alt_name" v="Koffell nordre" />
		<tag k="fixme" v="consider place=hamlet" />
		<tag k="name" v="Kåfell" />
		<tag k="place" v="farm" />
		<tag k="ssr:stedsnr" v="852068" />
	</node>
	<node id="-227832" lat="59.4800249961" lon="11.2088027805">
		<tag k="name" v="Veiby" />
		<tag k="place" v="farm" />
		<tag k="ssr:stedsnr" v="852066" />
	</node>
	<node id="-227831" lat="59.4868624777" lon="11.2237643628">
		<tag k="name" v="Skipperud" />
		<tag k="place" v="hamlet" />
		<tag k="ssr:stedsnr" v="852053" />
	</node>
	<node id="-227829" lat="59.5216944486" lon="11.1897638851">
		<tag k="alt_name" v="Onstad østre" />
		<tag k="name" v="Østre Onstad" />
		<tag k="place" v="farm" />
		<tag k="ssr:stedsnr" v="934085" />
	</node>
	<node id="-227828" lat="59.4866416675" lon="11.1544500025">
		<tag k="name" v="Løstvet (Smehytta)" />
		<tag k="place" v="farm" />
		<tag k="ssr:stedsnr" v="933983" />
	</node>
	<node id="-227827" lat="59.444477778" lon="11.1675750025">
		<tag k="name" v="Solbergdalen" />
		<tag k="place" v="farm" />
		<tag k="ssr:stedsnr" v="933981" />
	</node>
	<node id="-227826" lat="59.4373111096" lon="11.158866658">
		<tag k="name" v="Suserud" />
		<tag k="place" v="farm" />
		<tag k="ssr:stedsnr" v="933980" />
	</node>
	<node id="-227825" lat="59.5033861105" lon="11.1067805475">
		<tag k="name" v="Krokås" />
		<tag k="place" v="farm" />
		<tag k="ssr:stedsnr" v="933967" />
	</node>
	<node id="-227824" lat="59.4534355518" lon="11.1576375032">
		<tag k="name" v="Åmot" />
		<tag k="place" v="hamlet" />
		<tag k="ssr:stedsnr" v="933957" />
	</node>
	<node id="-227822" lat="59.4898222197" lon="11.1050250054">
		<tag k="alt_name" v="Strand søndre" />
		<tag k="name" v="Søndre Strand" />
		<tag k="place" v="farm" />
		<tag k="ssr:stedsnr" v="932977" />
	</node>
	<node id="-227821" lat="59.5352027773" lon="11.1380361038">
		<tag k="alt_name" v="Langli nordre" />
		<tag k="name" v="Nordre Langli" />
		<tag k="place" v="farm" />
		<tag k="ssr:stedsnr" v="932851" />
	</node>
	<node id="-227818" lat="59.5040000032" lon="11.0624916593">
		<tag k="name" v="Hoppenstein" />
		<tag k="place" v="farm" />
		<tag k="ssr:stedsnr" v="811956" />
	</node>
	<node id="-227817" lat="59.4641722252" lon="11.1556416607">
		<tag k="alt_name" v="Ringstad nedre" />
		<tag k="name" v="Nedre Ringstad" />
		<tag k="place" v="farm" />
		<tag k="ssr:stedsnr" v="811945" />
	</node>
	<node id="-227816" lat="59.4573612442" lon="11.1630341822">
		<tag k="alt_name" v="Gullhaugen søndre" />
		<tag k="name" v="Søndre Gullhaugen" />
		<tag k="place" v="farm" />
		<tag k="ssr:stedsnr" v="811938" />
	</node>
	<node id="-227815" lat="59.4650249994" lon="11.1532055483">
		<tag k="alt_name" v="Ringstad øvre;Ringstad" />
		<tag k="name" v="Øvre Ringstad" />
		<tag k="place" v="farm" />
		<tag k="ssr:stedsnr" v="811935" />
	</node>
	<node id="-227814" lat="59.4626027796" lon="11.1459583306">
		<tag k="name" v="Sølvberg (Mortenshytta)" />
		<tag k="place" v="farm" />
		<tag k="ssr:stedsnr" v="811934" />
	</node>
	<node id="-227813" lat="59.4866483545" lon="11.0975239235">
		<tag k="fixme" v="consider place=hamlet" />
		<tag k="name" v="Lund" />
		<tag k="place" v="farm" />
		<tag k="ssr:stedsnr" v="791039" />
	</node>
	<node id="-227812" lat="59.4703157918" lon="11.2098833831">
		<tag k="fixme" v="consider place=hamlet" />
		<tag k="name" v="Espenes" />
		<tag k="place" v="farm" />
		<tag k="ssr:stedsnr" v="791027" />
	</node>
	<node id="-227811" lat="59.46413352" lon="11.2062106513">
		<tag k="fixme" v="consider place=hamlet" />
		<tag k="name" v="Ruene" />
		<tag k="place" v="farm" />
		<tag k="ssr:stedsnr" v="791025" />
	</node>
	<node id="-227810" lat="59.4626000032" lon="11.1926222163">
		<tag k="name" v="Ekeberg" />
		<tag k="place" v="farm" />
		<tag k="ssr:stedsnr" v="791024" />
	</node>
	<node id="-227809" lat="59.4282750041" lon="11.1613500059">
		<tag k="name" v="Holtet" />
		<tag k="place" v="farm" />
		<tag k="ssr:stedsnr" v="791173" />
	</node>
	<node id="-227808" lat="59.4282861075" lon="11.1345166729">
		<tag k="alt_name" v="Lumpestad" />
		<tag k="name" v="Fjellstad" />
		<tag k="place" v="farm" />
		<tag k="ssr:stedsnr" v="791165" />
	</node>
	<node id="-227807" lat="59.4782999994" lon="11.219600008">
		<tag k="alt_name" v="Skau" />
		<tag k="name" v="Skog" />
		<tag k="place" v="farm" />
		<tag k="ssr:stedsnr" v="920839" />
	</node>
	<node id="-227806" lat="59.4518922531" lon="11.1383701106">
		<tag k="fixme" v="consider place=hamlet" />
		<tag k="name" v="Haug" />
		<tag k="place" v="farm" />
		<tag k="ssr:stedsnr" v="920836" />
	</node>
	<node id="-227804" lat="59.5266057739" lon="11.1188926406">
		<tag k="fixme" v="consider place=hamlet" />
		<tag k="name" v="Holmerud" />
		<tag k="place" v="farm" />
		<tag k="ssr:stedsnr" v="914750" />
	</node>
	<node id="-227803" lat="59.5399173546" lon="11.1345273189">
		<tag k="fixme" v="consider place=hamlet" />
		<tag k="name" v="Svae" />
		<tag k="place" v="farm" />
		<tag k="ssr:stedsnr" v="914534" />
	</node>
	<node id="-227802" lat="59.4930749971" lon="11.2124722275">
		<tag k="name" v="Heia" />
		<tag k="place" v="farm" />
		<tag k="ssr:stedsnr" v="914101" />
	</node>
	<node id="-227801" lat="59.507258334" lon="11.0645666702">
		<tag k="name" v="Lia" />
		<tag k="place" v="farm" />
		<tag k="ssr:stedsnr" v="914086" />
	</node>
	<node id="-227800" lat="59.4419444463" lon="11.1353749938">
		<tag k="alt_name" v="Torsberg" />
		<tag k="name" v="Fossberg" />
		<tag k="place" v="farm" />
		<tag k="ssr:stedsnr" v="913186" />
	</node>
	<node id="-227799" lat="59.4980633158" lon="11.1604762906">
		<tag k="alt_name" v="Trandem" />
		<tag k="fixme" v="consider place=hamlet" />
		<tag k="name" v="Trandum" />
		<tag k="place" v="farm" />
		<tag k="ssr:stedsnr" v="913093" />
	</node>
	<node id="-227798" lat="59.4803805584" lon="11.1801749995">
		<tag k="name" v="Nordhaug" />
		<tag k="place" v="farm" />
		<tag k="ssr:stedsnr" v="913053" />
	</node>
	<node id="-227797" lat="59.4031580909" lon="11.1706711447">
		<tag k="fixme" v="consider place=hamlet" />
		<tag k="name" v="Skår" />
		<tag k="place" v="farm" />
		<tag k="ssr:stedsnr" v="912147" />
	</node>
	<node id="-227795" lat="59.4672888867" lon="11.1799722292">
		<tag k="name" v="Mørk" />
		<tag k="place" v="farm" />
		<tag k="ssr:stedsnr" v="750514" />
	</node>
	<node id="-227794" lat="59.5129805554" lon="11.092330551">
		<tag k="name" v="Nygård" />
		<tag k="place" v="farm" />
		<tag k="ssr:stedsnr" v="732034" />
	</node>
	<node id="-227792" lat="59.5297681981" lon="11.1686099001">
		<tag k="fixme" v="consider place=hamlet" />
		<tag k="name" v="Rjuk" />
		<tag k="place" v="farm" />
		<tag k="ssr:stedsnr" v="732737" />
	</node>
	<node id="-227791" lat="59.5151874396" lon="11.1858526464">
		<tag k="fixme" v="consider place=hamlet" />
		<tag k="name" v="Onstad" />
		<tag k="place" v="farm" />
		<tag k="ssr:stedsnr" v="732708" />
	</node>
	<node id="-227790" lat="59.4993027762" lon="11.0986500081">
		<tag k="name" v="Nordby" />
		<tag k="place" v="farm" />
		<tag k="ssr:stedsnr" v="731060" />
	</node>
	<node id="-227789" lat="59.4821127338" lon="11.1825582833">
		<tag k="fixme" v="consider place=hamlet" />
		<tag k="name" v="Dillerud" />
		<tag k="place" v="farm" />
		<tag k="ssr:stedsnr" v="731047" />
	</node>
	<node id="-227788" lat="59.4496750018" lon="11.1388749951">
		<tag k="alt_name" v="Haug (Opster)" />
		<tag k="name" v="Haug" />
		<tag k="place" v="farm" />
		<tag k="ssr:stedsnr" v="730236" />
	</node>
	<node id="-227787" lat="59.4630249989" lon="11.1244972146">
		<tag k="name" v="Gjerskog" />
		<tag k="place" v="farm" />
		<tag k="ssr:stedsnr" v="730224" />
	</node>
	<node id="-227786" lat="59.4582303996" lon="11.1760382284">
		<tag k="fixme" v="consider place=hamlet" />
		<tag k="name" v="Stafseng" />
		<tag k="place" v="farm" />
		<tag k="ssr:stedsnr" v="730223" />
	</node>
	<node id="-227785" lat="59.4597755412" lon="11.185536597">
		<tag k="name" v="Hønstvet" />
		<tag k="place" v="hamlet" />
		<tag k="ssr:stedsnr" v="730216" />
	</node>
	<node id="-227784" lat="59.4835613921" lon="11.1163424337">
		<tag k="fixme" v="consider place=hamlet" />
		<tag k="name" v="Målen" />
		<tag k="place" v="farm" />
		<tag k="ssr:stedsnr" v="730032" />
	</node>
	<node id="-227783" lat="59.475074997" lon="11.1065750033">
		<tag k="name" v="Neset" />
		<tag k="place" v="farm" />
		<tag k="ssr:stedsnr" v="730009" />
	</node>
	<node id="-227782" lat="59.5336611154" lon="11.176850007">
		<tag k="name" v="Vestgården" />
		<tag k="place" v="farm" />
		<tag k="ssr:stedsnr" v="630111" />
	</node>
	<node id="-227780" lat="59.4922083289" lon="11.2214000046">
		<tag k="name" v="Bleikebakke" />
		<tag k="place" v="locality" />
		<tag k="ssr:stedsnr" v="629521" />
	</node>
	<node id="-227778" lat="59.5099638868" lon="11.1686305636">
		<tag k="alt_name" v="Aslaksrud nordre" />
		<tag k="name" v="Nordre Aslaksrud" />
		<tag k="place" v="farm" />
		<tag k="ssr:stedsnr" v="628824" />
	</node>
	<node id="-227777" lat="59.5168166708" lon="11.1596111154">
		<tag k="alt_name" v="Mellem Vister" />
		<tag k="name" v="Mellom-Vister" />
		<tag k="place" v="farm" />
		<tag k="ssr:stedsnr" v="628821" />
	</node>
	<node id="-227776" lat="59.4276999958" lon="11.1721750024">
		<tag k="alt_name" v="Øvre Tangen" />
		<tag k="name" v="Tangen" />
		<tag k="place" v="farm" />
		<tag k="ssr:stedsnr" v="608164" />
	</node>
	<node id="-227774" lat="59.5249638872" lon="11.1967999932">
		<tag k="name" v="Holt" />
		<tag k="place" v="farm" />
		<tag k="ssr:stedsnr" v="691119" />
	</node>
	<node id="-227773" lat="59.5197388902" lon="11.2029305637">
		<tag k="name" v="Smalshuset" />
		<tag k="place" v="farm" />
		<tag k="ssr:stedsnr" v="691108" />
	</node>
	<node id="-227771" lat="59.4904522253" lon="11.1038199277">
		<tag k="fixme" v="consider place=hamlet" />
		<tag k="name" v="Strand" />
		<tag k="place" v="farm" />
		<tag k="ssr:stedsnr" v="690986" />
	</node>
	<node id="-227770" lat="59.4930388896" lon="11.1517361169">
		<tag k="alt_name" v="Tveter vestre" />
		<tag k="name" v="Vestre Tveter" />
		<tag k="place" v="farm" />
		<tag k="ssr:stedsnr" v="690983" />
	</node>
	<node id="-227769" lat="59.4584278225" lon="11.1626139272">
		<tag k="alt_name" v="Gullhaugen nordre" />
		<tag k="name" v="Nordre Gullhaugen" />
		<tag k="place" v="farm" />
		<tag k="ssr:stedsnr" v="690977" />
	</node>
	<node id="-227768" lat="59.4267805598" lon="11.1450750072">
		<tag k="name" v="Nybråten" />
		<tag k="place" v="farm" />
		<tag k="ssr:stedsnr" v="690971" />
	</node>
	<node id="-227767" lat="59.4399861156" lon="11.1476111049">
		<tag k="name" v="Berg" />
		<tag k="place" v="farm" />
		<tag k="ssr:stedsnr" v="690968" />
	</node>
	<node id="-227765" lat="59.4500833347" lon="11.1667833328">
		<tag k="name" v="Østereng" />
		<tag k="place" v="farm" />
		<tag k="ssr:stedsnr" v="690952" />
	</node>
	<node id="-227764" lat="59.4752999996" lon="11.2069972153">
		<tag k="alt_name" v="Eng mellem;Mellem Eng" />
		<tag k="name" v="Mellom-Eng" />
		<tag k="place" v="farm" />
		<tag k="ssr:stedsnr" v="690602" />
	</node>
	<node id="-227763" lat="59.479930559" lon="11.1982555624">
		<tag k="name" v="Fossum (Bekkhus)" />
		<tag k="place" v="farm" />
		<tag k="ssr:stedsnr" v="690598" />
	</node>
	<node id="-227762" lat="59.488911115" lon="11.2319861092">
		<tag k="name" v="Solnes" />
		<tag k="place" v="farm" />
		<tag k="ssr:stedsnr" v="690591" />
	</node>
	<node id="-227761" lat="59.5385972241" lon="11.1370722295">
		<tag k="name" v="Korsvall" />
		<tag k="place" v="farm" />
		<tag k="ssr:stedsnr" v="689847" />
	</node>
	<node id="-227759" lat="59.5255111133" lon="11.1416583285">
		<tag k="name" v="Øst-Hauger" />
		<tag k="place" v="farm" />
		<tag k="ssr:stedsnr" v="689823" />
	</node>
	<node id="-227758" lat="59.5340335688" lon="11.1051727636">
		<tag k="alt_name" v="Karterud øvre" />
		<tag k="fixme" v="consider place=hamlet" />
		<tag k="name" v="Øvre Karterud" />
		<tag k="place" v="farm" />
		<tag k="ssr:stedsnr" v="689778" />
	</node>
	<node id="-227757" lat="59.4202055539" lon="11.1343777854">
		<tag k="name" v="Berga" />
		<tag k="place" v="hamlet" />
		<tag k="ssr:stedsnr" v="508712" />
	</node>
	<node id="-227756" lat="59.4573472243" lon="11.1291472208">
		<tag k="name" v="Nyland" />
		<tag k="place" v="farm" />
		<tag k="ssr:stedsnr" v="507944" />
	</node>
	<node id="-227755" lat="59.5243555545" lon="11.1201805524">
		<tag k="alt_name" v="Holmerud søndre" />
		<tag k="name" v="Søndre Holmerud" />
		<tag k="place" v="farm" />
		<tag k="ssr:stedsnr" v="507861" />
	</node>
	<node id="-227754" lat="59.4718555531" lon="11.2040583386">
		<tag k="alt_name" v="Eng søndre" />
		<tag k="name" v="Søndre Eng" />
		<tag k="place" v="farm" />
		<tag k="ssr:stedsnr" v="507539" />
	</node>
	<node id="-227753" lat="59.4225555542" lon="11.1702694527">
		<tag k="name" v="Holen" />
		<tag k="place" v="farm" />
		<tag k="ssr:stedsnr" v="507511" />
	</node>
	<node id="-227752" lat="59.4380138914" lon="11.1748749927">
		<tag k="name" v="Iledalen" />
		<tag k="place" v="farm" />
		<tag k="ssr:stedsnr" v="507502" />
	</node>
	<node id="-227751" lat="59.4865943082" lon="11.1823770169">
		<tag k="alt_name" v="Tveter" />
		<tag k="name" v="Tveiter" />
		<tag k="place" v="hamlet" />
		<tag k="ssr:stedsnr" v="487032" />
	</node>
	<node id="-227749" lat="59.463997221" lon="11.1223416754">
		<tag k="name" v="Berg" />
		<tag k="place" v="isolated_dwelling" />
		<tag k="ssr:stedsnr" v="487005" />
	</node>
	<node id="-227748" lat="59.5360721271" lon="11.1574474332">
		<tag k="fixme" v="consider place=hamlet" />
		<tag k="name" v="Torberrud" />
		<tag k="place" v="farm" />
		<tag k="ssr:stedsnr" v="671724" />
	</node>
	<node id="-227746" lat="59.5083527814" lon="11.1691527762">
		<tag k="name" v="Aslaksrud" />
		<tag k="place" v="farm" />
		<tag k="ssr:stedsnr" v="671712" />
	</node>
	<node id="-227745" lat="59.5035858224" lon="11.2111231451">
		<tag k="name" v="Haugen" />
		<tag k="place" v="hamlet" />
		<tag k="ssr:stedsnr" v="671711" />
	</node>
	<node id="-227744" lat="59.5169499979" lon="11.1094611101">
		<tag k="alt_name" v="Kongsten" />
		<tag k="name" v="Kongstein" />
		<tag k="place" v="farm" />
		<tag k="ssr:stedsnr" v="671698" />
	</node>
	<node id="-227743" lat="59.4975277794" lon="11.1362027839">
		<tag k="alt_name" v="Tveterskogen" />
		<tag k="name" v="Tveiterskogen" />
		<tag k="place" v="farm" />
		<tag k="ssr:stedsnr" v="671097" />
	</node>
	<node id="-227742" lat="59.4964572579" lon="11.1092942713">
		<tag k="fixme" v="consider place=hamlet" />
		<tag k="name" v="Heistad" />
		<tag k="place" v="farm" />
		<tag k="ssr:stedsnr" v="671096" />
	</node>
	<node id="-227741" lat="59.5058083335" lon="11.0602222166">
		<tag k="name" v="Skakkebakke" />
		<tag k="place" v="farm" />
		<tag k="ssr:stedsnr" v="671081" />
	</node>
	<node id="-227740" lat="59.4810638928" lon="11.2167855296">
		<tag k="alt_name" v="Skau" />
		<tag k="fixme" v="consider place=hamlet" />
		<tag k="name" v="Skog" />
		<tag k="place" v="farm" />
		<tag k="ssr:stedsnr" v="670006" />
	</node>
	<node id="-227739" lat="59.4895000026" lon="11.141997221">
		<tag k="alt_name" v="Tveter (Leina)" />
		<tag k="name" v="Leina" />
		<tag k="place" v="farm" />
		<tag k="ssr:stedsnr" v="669034" />
	</node>
	<node id="-227738" lat="59.4475987955" lon="11.1758805728">
		<tag k="fixme" v="consider place=hamlet" />
		<tag k="name" v="Solberg" />
		<tag k="place" v="farm" />
		<tag k="ssr:stedsnr" v="670240" />
	</node>
	<node id="-227737" lat="59.4403785408" lon="11.1867027303">
		<tag k="fixme" v="consider place=hamlet" />
		<tag k="name" v="Lystad" />
		<tag k="place" v="farm" />
		<tag k="ssr:stedsnr" v="670208" />
	</node>
	<node id="-227736" lat="59.4380138031" lon="11.1715382883">
		<tag k="alt_name" v="Vidnes" />
		<tag k="name" v="Vines" />
		<tag k="place" v="hamlet" />
		<tag k="ssr:stedsnr" v="670206" />
	</node>
	<node id="-227735" lat="59.5011194457" lon="11.097902785">
		<tag k="name" v="Kolstad" />
		<tag k="place" v="farm" />
		<tag k="ssr:stedsnr" v="447943" />
	</node>
	<node id="-227734" lat="59.4517194472" lon="11.1040166742">
		<tag k="name" v="Hasledalen" />
		<tag k="place" v="locality" />
		<tag k="ssr:stedsnr" v="447940" />
	</node>
	<node id="-227733" lat="59.4586528421" lon="11.1372645989">
		<tag k="alt_name" v="Sperstad søndre" />
		<tag k="name" v="Søndre Sperstad" />
		<tag k="place" v="farm" />
		<tag k="ssr:stedsnr" v="447930" />
	</node>
	<node id="-227731" lat="59.4766340031" lon="11.1730249745">
		<tag k="alt_name" v="Karlsrud" />
		<tag k="fixme" v="consider place=hamlet" />
		<tag k="name" v="Kalsrud" />
		<tag k="old_name" v="Kartsrud" />
		<tag k="place" v="farm" />
		<tag k="ssr:stedsnr" v="447526" />
	</node>
	<node id="-227729" lat="59.4733416704" lon="11.2104666726">
		<tag k="alt_name" v="Eng søndre" />
		<tag k="name" v="Søndre Eng" />
		<tag k="place" v="farm" />
		<tag k="ssr:stedsnr" v="447516" />
	</node>
	<node id="-227728" lat="59.5061022609" lon="11.1000244987">
		<tag k="fixme" v="consider place=hamlet" />
		<tag k="name" v="Kvisler" />
		<tag k="place" v="farm" />
		<tag k="ssr:stedsnr" v="429704" />
	</node>
	<node id="-227727" lat="59.4754469243" lon="11.1821172484">
		<tag k="alt_name" v="Kassem" />
		<tag k="fixme" v="consider place=hamlet" />
		<tag k="name" v="Kassum" />
		<tag k="place" v="farm" />
		<tag k="ssr:stedsnr" v="427054" />
	</node>
	<node id="-227726" lat="59.4903317176" lon="11.1959415629">
		<tag k="fixme" v="consider place=hamlet" />
		<tag k="name" v="Frorud" />
		<tag k="place" v="farm" />
		<tag k="ssr:stedsnr" v="427044" />
	</node>
	<node id="-227725" lat="59.4916750019" lon="11.1198250039">
		<tag k="name" v="Heistad" />
		<tag k="place" v="farm" />
		<tag k="ssr:stedsnr" v="427040" />
	</node>
	<node id="-227724" lat="59.4753083344" lon="11.1618833291">
		<tag k="name" v="Holstad" />
		<tag k="place" v="farm" />
		<tag k="ssr:stedsnr" v="427027" />
	</node>
	<node id="-227723" lat="59.4726277792" lon="11.1622972283">
		<tag k="name" v="Finland" />
		<tag k="place" v="farm" />
		<tag k="ssr:stedsnr" v="427025" />
	</node>
	<node id="-227722" lat="59.4433055549" lon="11.1540194431">
		<tag k="name" v="Berg" />
		<tag k="place" v="farm" />
		<tag k="ssr:stedsnr" v="508977" />
	</node>
	<node id="-227721" lat="59.5066666657" lon="11.1011666625">
		<tag k="alt_name" v="Kvisler nordre" />
		<tag k="name" v="Nordre Kvisler" />
		<tag k="place" v="farm" />
		<tag k="ssr:stedsnr" v="508969" />
	</node>
	<node id="-227720" lat="59.4583944407" lon="11.1314416726">
		<tag k="name" v="Haugsbråten" />
		<tag k="place" v="farm" />
		<tag k="ssr:stedsnr" v="508950" />
	</node>
	<node id="-227719" lat="59.5222694483" lon="11.1795111184">
		<tag k="name" v="Narvestad" />
		<tag k="place" v="farm" />
		<tag k="ssr:stedsnr" v="509079" />
	</node>
	<node id="-227718" lat="59.5150472242" lon="11.2068666754">
		<tag k="name" v="Sundåshagen" />
		<tag k="place" v="farm" />
		<tag k="ssr:stedsnr" v="509074" />
	</node>
	<node id="-227717" lat="59.5022083329" lon="11.1536027712">
		<tag k="name" v="Gluppe" />
		<tag k="place" v="farm" />
		<tag k="ssr:stedsnr" v="507991" />
	</node>
	<node id="-227714" lat="59.4934805571" lon="11.0858083294">
		<tag k="name" v="Holm" />
		<tag k="place" v="farm" />
		<tag k="ssr:stedsnr" v="507955" />
	</node>
	<node id="-227713" lat="59.529591663" lon="11.1215194431">
		<tag k="alt_name" v="Smertu søndre" />
		<tag k="name" v="Søndre Smertu" />
		<tag k="place" v="farm" />
		<tag k="ssr:stedsnr" v="507869" />
	</node>
	<node id="-227712" lat="59.4818055562" lon="11.2051166579">
		<tag k="name" v="Sandaker" />
		<tag k="place" v="farm" />
		<tag k="ssr:stedsnr" v="507554" />
	</node>
	<node id="-227711" lat="59.4877527806" lon="11.1944138908">
		<tag k="name" v="Bilit" />
		<tag k="place" v="farm" />
		<tag k="ssr:stedsnr" v="507487" />
	</node>
	<node id="-227710" lat="59.4997994888" lon="11.2015622005">
		<tag k="fixme" v="consider place=hamlet" />
		<tag k="name" v="Rød" />
		<tag k="place" v="farm" />
		<tag k="ssr:stedsnr" v="507480" />
	</node>
	<node id="-227709" lat="59.5356361098" lon="11.1746972182">
		<tag k="name" v="Trosvik" />
		<tag k="place" v="farm" />
		<tag k="ssr:stedsnr" v="387116" />
	</node>
	<node id="-227708" lat="59.510911115" lon="11.1931833372">
		<tag k="name" v="Ski" />
		<tag k="place" v="farm" />
		<tag k="ssr:stedsnr" v="387105" />
	</node>
	<node id="-227707" lat="59.4407166702" lon="11.1400611126">
		<tag k="name" v="Husengen" />
		<tag k="place" v="farm" />
		<tag k="ssr:stedsnr" v="386964" />
	</node>
	<node id="-227705" lat="59.4766361082" lon="11.1895111062">
		<tag k="name" v="Kleven" />
		<tag k="place" v="farm" />
		<tag k="ssr:stedsnr" v="386529" />
	</node>
	<node id="-227704" lat="59.5196555567" lon="11.1246750026">
		<tag k="name" v="Duserud" />
		<tag k="place" v="farm" />
		<tag k="ssr:stedsnr" v="489761" />
	</node>
	<node id="-227703" lat="59.5185248836" lon="11.1330866202">
		<tag k="alt_name" v="Taraldsrud" />
		<tag k="fixme" v="consider place=hamlet" />
		<tag k="name" v="Taraldrud" />
		<tag k="place" v="farm" />
		<tag k="ssr:stedsnr" v="489727" />
	</node>
	<node id="-227702" lat="59.5436216645" lon="11.1308936183">
		<tag k="fixme" v="consider place=hamlet" />
		<tag k="name" v="Holm" />
		<tag k="place" v="farm" />
		<tag k="ssr:stedsnr" v="489534" />
	</node>
	<node id="-227701" lat="59.4447595944" lon="11.1564111345">
		<tag k="name" v="Berg" />
		<tag k="place" v="hamlet" />
		<tag k="ssr:stedsnr" v="488170" />
	</node>
	<node id="-227700" lat="59.4459499957" lon="11.1222388863">
		<tag k="name" v="Gjerstad" />
		<tag k="place" v="farm" />
		<tag k="ssr:stedsnr" v="488159" />
	</node>
	<node id="-227699" lat="59.4764805554" lon="11.2013666676">
		<tag k="alt_name" v="Eng vestre" />
		<tag k="name" v="Vestereng" />
		<tag k="place" v="farm" />
		<tag k="ssr:stedsnr" v="488058" />
	</node>
	<node id="-227698" lat="59.4836750014" lon="11.1292750017">
		<tag k="alt_name" v="Haughytta" />
		<tag k="name" v="Haug" />
		<tag k="place" v="farm" />
		<tag k="ssr:stedsnr" v="488056" />
	</node>
	<node id="-227697" lat="59.4831555517" lon="11.1045249993">
		<tag k="name" v="Dyrbekk" />
		<tag k="place" v="farm" />
		<tag k="ssr:stedsnr" v="488055" />
	</node>
	<node id="-227696" lat="59.4572499995" lon="11.1532305554">
		<tag k="alt_name" v="Åby (Bjunerhytta)" />
		<tag k="name" v="Åby" />
		<tag k="place" v="farm" />
		<tag k="ssr:stedsnr" v="487223" />
	</node>
	<node id="-227694" lat="59.4189972203" lon="11.1580777743">
		<tag k="loc_name" v="Kjernsbekk" />
		<tag k="name" v="Tjernsbekk" />
		<tag k="place" v="farm" />
		<tag k="ssr:stedsnr" v="326718" />
	</node>
	<node id="-227693" lat="59.5196055552" lon="11.1544666601">
		<tag k="alt_name" v="Vister vestre" />
		<tag k="name" v="Vestre Vister" />
		<tag k="place" v="farm" />
		<tag k="ssr:stedsnr" v="325834" />
	</node>
	<node id="-227692" lat="59.5141583332" lon="11.11549723">
		<tag k="alt_name" v="Myrer øvre" />
		<tag k="name" v="Øvre Myrer" />
		<tag k="place" v="farm" />
		<tag k="ssr:stedsnr" v="325822" />
	</node>
	<node id="-227691" lat="59.5396583296" lon="11.1769361162">
		<tag k="name" v="Kullebunn" />
		<tag k="place" v="farm" />
		<tag k="ssr:stedsnr" v="449085" />
	</node>
	<node id="-227690" lat="59.4460250016" lon="11.1749416719">
		<tag k="name" v="Lystadbråten" />
		<tag k="place" v="farm" />
		<tag k="ssr:stedsnr" v="447984" />
	</node>
	<node id="-227689" lat="59.4247249983" lon="11.1764500038">
		<tag k="name" v="Kastet" />
		<tag k="place" v="farm" />
		<tag k="ssr:stedsnr" v="245165" />
	</node>
	<node id="-227686" lat="59.5340999971" lon="11.1392805584">
		<tag k="alt_name" v="Langli søndre" />
		<tag k="name" v="Søndre Langli" />
		<tag k="place" v="farm" />
		<tag k="ssr:stedsnr" v="447846" />
	</node>
	<node id="-227685" lat="59.5133388929" lon="11.1361555537">
		<tag k="name" v="Bakke" />
		<tag k="place" v="farm" />
		<tag k="ssr:stedsnr" v="447832" />
	</node>
	<node id="-227684" lat="59.4426944421" lon="11.1951638966">
		<tag k="name" v="Bråtenes" />
		<tag k="place" v="farm" />
		<tag k="ssr:stedsnr" v="447491" />
	</node>
	<node id="-227683" lat="59.4974166693" lon="11.1955527783">
		<tag k="name" v="Solvang" />
		<tag k="place" v="farm" />
		<tag k="ssr:stedsnr" v="447482" />
	</node>
	<node id="-227682" lat="59.4719058805" lon="11.1421821595">
		<tag k="fixme" v="consider place=hamlet" />
		<tag k="name" v="Toen" />
		<tag k="place" v="farm" />
		<tag k="ssr:stedsnr" v="184019" />
	</node>
	<node id="-227681" lat="59.4807972259" lon="11.1525305488">
		<tag k="alt_name" v="Skjelle søndre" />
		<tag k="name" v="Søndre Skjelle" />
		<tag k="place" v="farm" />
		<tag k="ssr:stedsnr" v="265996" />
	</node>
	<node id="-227680" lat="59.4608333316" lon="11.183166674">
		<tag k="name" v="Hønstvet" />
		<tag k="place" v="farm" />
		<tag k="ssr:stedsnr" v="265994" />
	</node>
	<node id="-227679" lat="59.4502555524" lon="11.1851694422">
		<tag k="name" v="Bråteneshytta" />
		<tag k="place" v="farm" />
		<tag k="ssr:stedsnr" v="265987" />
	</node>
	<node id="-227678" lat="59.5057444462" lon="11.1264499923">
		<tag k="name" v="Runnemyr" />
		<tag k="place" v="locality" />
		<tag k="ssr:stedsnr" v="265980" />
	</node>
	<node id="-227676" lat="59.4842305569" lon="11.1165305578">
		<tag k="alt_name" v="Målen østre" />
		<tag k="name" v="Østre Målen" />
		<tag k="place" v="farm" />
		<tag k="ssr:stedsnr" v="265973" />
	</node>
	<node id="-227675" lat="59.4415194463" lon="11.1649138825">
		<tag k="name" v="Nord-Vidnes" />
		<tag k="place" v="farm" />
		<tag k="ssr:stedsnr" v="265968" />
	</node>
	<node id="-227674" lat="59.4957833328" lon="11.1090944375">
		<tag k="alt_name" v="Heistad søndre" />
		<tag k="name" v="Søndre Heistad" />
		<tag k="place" v="farm" />
		<tag k="ssr:stedsnr" v="265962" />
	</node>
	<node id="-227672" lat="59.4020333306" lon="11.1670416636">
		<tag k="name" v="Skår" />
		<tag k="place" v="farm" />
		<tag k="ssr:stedsnr" v="265742" />
	</node>
	<node id="-227671" lat="59.4739361134" lon="11.2015083333">
		<tag k="name" v="Engsaga" />
		<tag k="place" v="farm" />
		<tag k="ssr:stedsnr" v="265572" />
	</node>
	<node id="-227669" lat="59.4988361148" lon="11.2234583289">
		<tag k="name" v="Langnes" />
		<tag k="place" v="farm" />
		<tag k="ssr:stedsnr" v="265523" />
	</node>
	<node id="-227668" lat="59.5409694487" lon="11.1335500036">
		<tag k="alt_name" v="Svae nordre" />
		<tag k="name" v="Nordre Svae" />
		<tag k="place" v="farm" />
		<tag k="ssr:stedsnr" v="264866" />
	</node>
	<node id="-227667" lat="59.5200138852" lon="11.0870833406">
		<tag k="name" v="Jyllandhytta" />
		<tag k="place" v="isolated_dwelling" />
		<tag k="ssr:stedsnr" v="264860" />
	</node>
	<node id="-227665" lat="59.5169583326" lon="11.1676055624">
		<tag k="alt_name" v="Vister østre" />
		<tag k="name" v="Østre Vister" />
		<tag k="place" v="farm" />
		<tag k="ssr:stedsnr" v="264845" />
	</node>
	<node id="-227664" lat="59.4530027777" lon="11.1309749985">
		<tag k="name" v="Skauge" />
		<tag k="place" v="farm" />
		<tag k="ssr:stedsnr" v="123266" />
	</node>
	<node id="-227663" lat="59.4539249958" lon="11.159586107">
		<tag k="alt_name" v="Åmot nordre" />
		<tag k="name" v="Nordre Åmot" />
		<tag k="place" v="farm" />
		<tag k="ssr:stedsnr" v="123264" />
	</node>
	<node id="-227662" lat="59.5182138912" lon="11.2098666739">
		<tag k="name" v="Høgåstangen" />
		<tag k="place" v="farm" />
		<tag k="ssr:stedsnr" v="84111" />
	</node>
	<node id="-227661" lat="59.4816166677" lon="11.0954416623">
		<tag k="name" v="Lunder" />
		<tag k="place" v="farm" />
		<tag k="ssr:stedsnr" v="83974" />
	</node>
	<node id="-227660" lat="59.5074833309" lon="11.0946944395">
		<tag k="name" v="Kauterud" />
		<tag k="place" v="farm" />
		<tag k="ssr:stedsnr" v="83956" />
	</node>
	<node id="-227658" lat="59.404927776" lon="11.1748777783">
		<tag k="name" v="Glenne" />
		<tag k="place" v="farm" />
		<tag k="ssr:stedsnr" v="83722" />
	</node>
	<node id="-227657" lat="59.5185444442" lon="11.1673333406">
		<tag k="name" v="Øst-Vister" />
		<tag k="place" v="farm" />
		<tag k="ssr:stedsnr" v="82856" />
	</node>
	<node id="-227656" lat="59.5189258873" lon="11.1967599674">
		<tag k="fixme" v="consider place=hamlet" />
		<tag k="name" v="Børud" />
		<tag k="place" v="farm" />
		<tag k="ssr:stedsnr" v="247734" />
	</node>
	<node id="-227655" lat="59.5014694468" lon="11.164349997">
		<tag k="name" v="Roås" />
		<tag k="place" v="farm" />
		<tag k="ssr:stedsnr" v="247694" />
	</node>
	<node id="-227654" lat="59.5074000004" lon="11.1607694385">
		<tag k="alt_name" v="Åsrud" />
		<tag k="name" v="Åserud" />
		<tag k="place" v="farm" />
		<tag k="ssr:stedsnr" v="247692" />
	</node>
	<node id="-227653" lat="59.5015767772" lon="11.1708492588">
		<tag k="fixme" v="consider place=hamlet" />
		<tag k="name" v="Aslaksrud" />
		<tag k="place" v="farm" />
		<tag k="ssr:stedsnr" v="247691" />
	</node>
	<node id="-227650" lat="59.5131515311" lon="11.1288451499">
		<tag k="fixme" v="consider place=hamlet" />
		<tag k="name" v="Jonsrud" />
		<tag k="place" v="farm" />
		<tag k="ssr:stedsnr" v="65709" />
	</node>
	<node id="-227646" lat="59.4511594373" lon="11.1299351477">
		<tag k="fixme" v="consider place=hamlet" />
		<tag k="name" v="Gjerstad" />
		<tag k="place" v="farm" />
		<tag k="ssr:stedsnr" v="22940" />
	</node>
	<node id="-227644" lat="59.4650861103" lon="11.1127444392">
		<tag k="name" v="Bogen" />
		<tag k="place" v="isolated_dwelling" />
		<tag k="ssr:stedsnr" v="22927" />
	</node>
	<node id="-227643" lat="59.429005554" lon="11.1764694495">
		<tag k="name" v="Gulliktangen" />
		<tag k="place" v="farm" />
		<tag k="ssr:stedsnr" v="22518" />
	</node>
	<node id="-227640" lat="59.4427888864" lon="11.1877499916">
		<tag k="name" v="Bråtenes" />
		<tag k="place" v="locality" />
		<tag k="ssr:stedsnr" v="22503" />
	</node>
	<node id="-227639" lat="59.4938732283" lon="11.2313925792">
		<tag k="fixme" v="consider place=hamlet" />
		<tag k="name" v="Nes" />
		<tag k="place" v="farm" />
		<tag k="ssr:stedsnr" v="9814" />
	</node>
	<node id="-227638" lat="59.4625896369" lon="11.1650902526">
		<tag k="fixme" v="consider place=hamlet" />
		<tag k="name" v="Hol" />
		<tag k="place" v="farm" />
		<tag k="ssr:stedsnr" v="2219" />
	</node>
	<node id="-227637" lat="59.423516664" lon="11.155916661">
		<tag k="loc_name" v="Kjernsbekk" />
		<tag k="name" v="Tjernsbekk" />
		<tag k="place" v="farm" />
		<tag k="ssr:stedsnr" v="2178" />
	</node>
</osm>
