<?xml version="1.0" encoding="UTF-8"?>
<osm generator="osmapis" version="0.6">
	<node id="-121600" lat="61.7222055518" lon="9.53970277448">
		<tag k="bridge" v="yes" />
		<tag k="layer" v="1" />
		<tag k="name" v="Sandbuvang" />
		<tag k="ssr:stedsnr" v="168433" />
	</node>
	<node id="-121599" lat="61.7253083342" lon="9.53331111721">
		<tag k="bridge" v="yes" />
		<tag k="layer" v="1" />
		<tag k="name" v="Sandbu" />
		<tag k="ssr:stedsnr" v="168432" />
	</node>
	<node id="-121598" lat="61.7600888871" lon="9.2779083409">
		<tag k="bridge" v="yes" />
		<tag k="layer" v="1" />
		<tag k="name" v="Trykkja" />
		<tag k="ssr:stedsnr" v="168052" />
	</node>
	<node id="-121597" lat="61.7414111104" lon="9.55912500643">
		<tag k="bridge" v="yes" />
		<tag k="layer" v="1" />
		<tag k="name" v="Vangen" />
		<tag k="ssr:stedsnr" v="168047" />
	</node>
	<node id="-121596" lat="61.7914972267" lon="9.55359444155">
		<tag k="bridge" v="yes" />
		<tag k="layer" v="1" />
		<tag k="name" v="Skriubekk" />
		<tag k="ssr:stedsnr" v="168043" />
	</node>
	<node id="-121211" lat="61.7165416637" lon="9.46359722792">
		<tag k="highway" v="path" />
		<tag k="name" v="Øvre Hjellesæterråket" />
		<tag k="ssr:stedsnr" v="899089" />
	</node>
	<node id="-121466" lat="61.7183138917" lon="9.4163611045">
		<tag k="highway" v="path" />
		<tag k="name" v="Rohaugråket" />
		<tag k="ssr:stedsnr" v="110061" />
	</node>
	<node id="-121087" lat="61.8573111077" lon="9.41512499139">
		<tag k="bridge" v="yes" />
		<tag k="layer" v="1" />
		<tag k="name" v="Brenna" />
		<tag k="ssr:stedsnr" v="410460" />
	</node>
	<node id="-122231" lat="61.6680833301" lon="9.47377222833">
		<tag k="highway" v="path" />
		<tag k="name" v="Kuråket" />
		<tag k="ssr:stedsnr" v="596708" />
	</node>
	<node id="-121331" lat="61.7722444466" lon="9.47935833048">
		<tag k="bridge" v="yes" />
		<tag k="layer" v="1" />
		<tag k="name" v="Gravå lille" />
		<tag k="ssr:stedsnr" v="46474" />
	</node>
	<node id="-122482" lat="61.6868194432" lon="9.36649444616">
		<tag k="fixme" v="consider highway=path" />
		<tag k="highway" v="track" />
		<tag k="name" v="Gamle Mugsætervegen" />
		<tag k="ssr:stedsnr" v="717700" />
	</node>
	<node id="-121454" lat="61.7087277763" lon="9.42412222082">
		<tag k="bridge" v="yes" />
		<tag k="layer" v="1" />
		<tag k="name" v="Randbekken" />
		<tag k="ssr:stedsnr" v="107460" />
	</node>
	<node id="-121453" lat="61.6784333313" lon="9.54171944967">
		<tag k="bridge" v="yes" />
		<tag k="layer" v="1" />
		<tag k="name" v="Furulund" />
		<tag k="ssr:stedsnr" v="107447" />
	</node>
	<node id="-121195" lat="61.8494527819" lon="9.42526666195">
		<tag k="bridge" v="yes" />
		<tag k="layer" v="1" />
		<tag k="name" v="Laurgård" />
		<tag k="ssr:stedsnr" v="896472" />
	</node>
	<node id="-121194" lat="61.8324194425" lon="9.46688055107">
		<tag k="bridge" v="yes" />
		<tag k="layer" v="1" />
		<tag k="name" v="Skotte kanalbru" />
		<tag k="ssr:stedsnr" v="896028" />
	</node>
	<node id="-122217" lat="61.6980194472" lon="9.51621389205">
		<tag k="highway" v="path" />
		<tag k="name" v="Granråket" />
		<tag k="ssr:stedsnr" v="596510" />
	</node>
	<node id="-121085" lat="61.8416638897" lon="9.40950554832">
		<tag k="bridge" v="yes" />
		<tag k="layer" v="1" />
		<tag k="name" v="Sel jernbaneunderg." />
		<tag k="ssr:stedsnr" v="410033" />
	</node>
	<node id="-122209" lat="61.7537277804" lon="9.48300277224">
		<tag k="highway" v="path" />
		<tag k="name" v="Mjølkevegen" />
		<tag k="ssr:stedsnr" v="596369" />
	</node>
	<node id="-120928" lat="61.772172225" lon="9.54130832751">
		<tag k="bridge" v="yes" />
		<tag k="layer" v="1" />
		<tag k="name" v="Høgbrua" />
		<tag k="ssr:stedsnr" v="350398" />
	</node>
	<node id="-120927" lat="61.8910972249" lon="9.48496111886">
		<tag k="bridge" v="yes" />
		<tag k="layer" v="1" />
		<tag k="name" v="Høvringen" />
		<tag k="ssr:stedsnr" v="350394" />
	</node>
	<node id="-120926" lat="61.7742500004" lon="9.49832222581">
		<tag k="bridge" v="yes" />
		<tag k="layer" v="1" />
		<tag k="name" v="Dahle" />
		<tag k="ssr:stedsnr" v="350381" />
	</node>
	<node id="-120925" lat="61.747325" lon="9.55597221708">
		<tag k="bridge" v="yes" />
		<tag k="layer" v="1" />
		<tag k="name" v="Solhjem" />
		<tag k="ssr:stedsnr" v="350032" />
	</node>
	<node id="-120924" lat="61.8223611118" lon="9.5358722244">
		<tag k="bridge" v="yes" />
		<tag k="layer" v="1" />
		<tag k="name" v="Storskriubekk" />
		<tag k="ssr:stedsnr" v="350031" />
	</node>
	<node id="-121943" lat="61.8377527809" lon="9.42836666086">
		<tag k="alt_name" v="Kaldsteinbrua" />
		<tag k="bridge" v="yes" />
		<tag k="layer" v="1" />
		<tag k="name" v="Kalrasten" />
		<tag k="ssr:stedsnr" v="471461" />
	</node>
	<node id="-122070" lat="61.6556333378" lon="9.50192777385">
		<tag k="highway" v="path" />
		<tag k="name" v="Bræeråket" />
		<tag k="ssr:stedsnr" v="535665" />
	</node>
	<node id="-121685" lat="61.7347277736" lon="9.61637776937">
		<tag k="ford" v="yes" />
		<tag k="name" v="Vadet" />
		<tag k="place" v="locality" />
		<tag k="ssr:stedsnr" v="192679" />
	</node>
	<node id="-122578" lat="61.7117777764" lon="9.44609443709">
		<tag k="highway" v="path" />
		<tag k="name" v="Gamlevegen" />
		<tag k="ssr:stedsnr" v="777104" />
	</node>
	<node id="-122705" lat="61.7920388907" lon="9.55361110621">
		<tag k="bridge" v="yes" />
		<tag k="layer" v="1" />
		<tag k="name" v="Ulvolden" />
		<tag k="ssr:stedsnr" v="835039" />
	</node>
	<node id="-122704" lat="61.7286416657" lon="9.14228055149">
		<tag k="bridge" v="yes" />
		<tag k="layer" v="1" />
		<tag k="name" v="Slombekk" />
		<tag k="ssr:stedsnr" v="835034" />
	</node>
	<node id="-122312" lat="61.7137305578" lon="9.39636111272">
		<tag k="bridge" v="yes" />
		<tag k="layer" v="1" />
		<tag k="name" v="Bergdøla" />
		<tag k="ssr:stedsnr" v="653427" />
	</node>
	<node id="-122311" lat="61.8334638887" lon="9.50495556344">
		<tag k="bridge" v="yes" />
		<tag k="layer" v="1" />
		<tag k="name" v="Formobekk" />
		<tag k="ssr:stedsnr" v="653423" />
	</node>
	<node id="-122566" lat="61.7497472212" lon="9.55191666433">
		<tag k="bridge" v="yes" />
		<tag k="layer" v="1" />
		<tag k="name" v="Solhjem" />
		<tag k="ssr:stedsnr" v="774033" />
	</node>
	<node id="-122949" lat="61.686408332" lon="9.18205832434">
		<tag k="bridge" v="yes" />
		<tag k="layer" v="1" />
		<tag k="name" v="Murua" />
		<tag k="ssr:stedsnr" v="957430" />
	</node>
	<node id="-121156" lat="61.7048972192" lon="9.51555555599">
		<tag k="highway" v="path" />
		<tag k="name" v="Geitstigen" />
		<tag k="ssr:stedsnr" v="474548" />
	</node>
	<node id="-121398" lat="61.7534194459" lon="9.47255278046">
		<tag k="highway" v="path" />
		<tag k="name" v="Buråket" />
		<tag k="ssr:stedsnr" v="50631" />
	</node>
	<node id="-121088" lat="61.7514472224" lon="9.30205833275">
		<tag k="bridge" v="yes" />
		<tag k="layer" v="1" />
		<tag k="name" v="Prestegård" />
		<tag k="ssr:stedsnr" v="410464" />
	</node>
	<node id="-122816" lat="61.749024645" lon="9.61982382913">
		<tag k="man_made" v="cairn" />
		<tag k="name" v="Olasvarden" />
		<tag k="place" v="locality" />
		<tag k="ssr:stedsnr" v="860702" />
	</node>
	<node id="-121404" lat="61.8602333338" lon="9.4085722286">
		<tag k="highway" v="path" />
		<tag k="name" v="Gammellia" />
		<tag k="ssr:stedsnr" v="50895" />
	</node>
	<node id="-122171" lat="61.7015833344" lon="9.4496388823">
		<tag k="highway" v="path" />
		<tag k="name" v="Slettegeilen" />
		<tag k="ssr:stedsnr" v="595188" />
	</node>
	<node id="-121311" lat="61.6823224068" lon="9.54197152285">
		<tag k="alt_name" v="Sjoa" />
		<tag k="name" v="Sjoa stasjon" />
		<tag k="railway" v="station" />
		<tag k="ssr:stedsnr" v="10756" />
		<tag k="train" v="yes" />
	</node>
	<node id="-122166" lat="61.7135444455" lon="9.45566389705">
		<tag k="highway" v="path" />
		<tag k="name" v="Vesle Espesætervegen" />
		<tag k="ssr:stedsnr" v="595066" />
	</node>
	<node id="-122157" lat="61.8747611102" lon="9.42061389735">
		<tag k="bridge" v="yes" />
		<tag k="layer" v="1" />
		<tag k="name" v="Horrtjernbekk" />
		<tag k="ssr:stedsnr" v="592490" />
	</node>
	<node id="-122156" lat="61.7515277762" lon="9.31919166066">
		<tag k="bridge" v="yes" />
		<tag k="layer" v="1" />
		<tag k="name" v="Trykju" />
		<tag k="ssr:stedsnr" v="592044" />
	</node>
	<node id="-122994" lat="61.7099611144" lon="9.48904444743">
		<tag k="highway" v="path" />
		<tag k="name" v="Busæterråket" />
		<tag k="ssr:stedsnr" v="960534" />
	</node>
	<node id="-122567" lat="61.7095833352" lon="9.42235554685">
		<tag k="bridge" v="yes" />
		<tag k="layer" v="1" />
		<tag k="name" v="Faukstad" />
		<tag k="ssr:stedsnr" v="774480" />
	</node>
	<node id="-121330" lat="61.8393333346" lon="9.47897777671">
		<tag k="bridge" v="yes" />
		<tag k="layer" v="1" />
		<tag k="name" v="Skjerungså" />
		<tag k="ssr:stedsnr" v="46039" />
	</node>
	<node id="-121755" lat="61.7152000019" lon="9.27372222319">
		<tag k="highway" v="path" />
		<tag k="name" v="Hømillomvegen" />
		<tag k="ssr:stedsnr" v="231253" />
	</node>
	<node id="-120797" lat="61.7998777776" lon="9.55475000421">
		<tag k="bridge" v="yes" />
		<tag k="layer" v="1" />
		<tag k="name" v="Ula" />
		<tag k="ssr:stedsnr" v="289038" />
	</node>
	<node id="-122011" lat="61.715408333" lon="9.45943610657">
		<tag k="highway" v="path" />
		<tag k="name" v="Nedre Hjellesæterråket" />
		<tag k="ssr:stedsnr" v="534077" />
	</node>
	<node id="-122010" lat="61.7186027812" lon="9.44443610852">
		<tag k="highway" v="path" />
		<tag k="name" v="Aspedrågen" />
		<tag k="ssr:stedsnr" v="534070" />
	</node>
	<node id="-122776" lat="61.8800055597" lon="9.50423054764">
		<tag k="highway" v="path" />
		<tag k="name" v="Måsåvegen" />
		<tag k="ssr:stedsnr" v="839864" />
	</node>
	<node id="-122948" lat="61.8041527794" lon="9.54231389688">
		<tag k="bridge" v="yes" />
		<tag k="layer" v="1" />
		<tag k="name" v="Bommen" />
		<tag k="ssr:stedsnr" v="957422" />
	</node>
	<node id="-122006" lat="61.7728972255" lon="9.47416945216">
		<tag k="bridge" v="yes" />
		<tag k="layer" v="1" />
		<tag k="name" v="Gravå store" />
		<tag k="ssr:stedsnr" v="532410" />
	</node>
	<node id="-121491" lat="61.74296389" lon="9.30442777899">
		<tag k="highway" v="path" />
		<tag k="name" v="Kvernbrusvegen" />
		<tag k="ssr:stedsnr" v="110832" />
	</node>
	<node id="-121283" lat="61.7723357243" lon="9.53677721813">
		<tag k="name" v="Otta stasjon" />
		<tag k="railway" v="station" />
		<tag k="ssr:stedsnr" v="990086" />
		<tag k="train" v="yes" />
	</node>
	<node id="-121616" lat="61.7130000001" lon="9.17702222243">
		<tag k="name" v="Myravelta" />
		<tag k="place" v="locality" />
		<tag k="ssr:stedsnr" v="170242" />
	</node>
	<node id="-122425" lat="61.7257249987" lon="9.15340554623">
		<tag k="bridge" v="yes" />
		<tag k="layer" v="1" />
		<tag k="name" v="Rinna" />
		<tag k="ssr:stedsnr" v="714378" />
	</node>
	<node id="-122576" lat="61.7199111125" lon="9.43905278239">
		<tag k="highway" v="path" />
		<tag k="name" v="Sørrodrågen" />
		<tag k="ssr:stedsnr" v="777075" />
	</node>
	<node id="-122986" lat="61.7604722214" lon="9.49545833937">
		<tag k="highway" v="path" />
		<tag k="name" v="Linmjølvegen" />
		<tag k="ssr:stedsnr" v="960383" />
	</node>
	<node id="-121096" lat="61.713211115" lon="9.36576111032">
		<tag k="highway" v="path" />
		<tag k="name" v="Torøvegen" />
		<tag k="ssr:stedsnr" v="413018" />
	</node>
	<node id="-121086" lat="61.7718972232" lon="9.54521388275">
		<tag k="bridge" v="yes" />
		<tag k="layer" v="1" />
		<tag k="name" v="Trassrud" />
		<tag k="ssr:stedsnr" v="410036" />
	</node>
	<node id="-122884" lat="61.6952388875" lon="9.52688333914">
		<tag k="highway" v="path" />
		<tag k="name" v="Morkevegen" />
		<tag k="ssr:stedsnr" v="900554" />
	</node>
	<node id="-121601" lat="61.8890333315" lon="9.4580416697">
		<tag k="bridge" v="yes" />
		<tag k="layer" v="1" />
		<tag k="name" v="Høvringså" />
		<tag k="ssr:stedsnr" v="168439" />
	</node>
</osm>
