<?xml version="1.0" encoding="UTF-8"?>
<osm generator="osmapis" version="0.6">
	<node id="-122880" lat="61.787947224" lon="9.42300555099">
		<tag k="name" v="Flåtøya" />
		<tag k="place" v="islet" />
		<tag k="ssr:stedsnr" v="960680" />
	</node>
	<node id="-122367" lat="61.6770277748" lon="9.53333332845">
		<tag k="name" v="Bråkålibekken" />
		<tag k="old_name" v="Bråkållibekken" />
		<tag k="ssr:stedsnr" v="718657" />
		<tag k="waterway" v="stream" />
	</node>
	<node id="-122878" lat="61.7486972201" lon="9.40338332549">
		<tag k="name" v="Tjønnet" />
		<tag k="natural" v="water" />
		<tag k="ssr:stedsnr" v="960666" />
		<tag k="water" v="pond" />
	</node>
	<node id="-122876" lat="61.7758055528" lon="9.38561388463">
		<tag k="name" v="Lykkjebekken" />
		<tag k="ssr:stedsnr" v="960657" />
		<tag k="waterway" v="stream" />
	</node>
	<node id="-120827" lat="61.7274611087" lon="9.57306667433">
		<tag k="name" v="Haredalsbekken" />
		<tag k="ssr:stedsnr" v="414030" />
		<tag k="waterway" v="stream" />
	</node>
	<node id="-121336" lat="61.8298027761" lon="9.5111583391">
		<tag k="name" v="Byrtnesset" />
		<tag k="natural" v="cape" />
		<tag k="ssr:stedsnr" v="110060" />
	</node>
	<node id="-121847" lat="61.7113250021" lon="9.58138332843">
		<tag k="name" v="Haugatjønne" />
		<tag k="natural" v="water" />
		<tag k="ssr:stedsnr" v="495717" />
	</node>
	<node id="-120821" lat="61.7306055518" lon="9.60151944913">
		<tag k="name" v="Vangstjønn" />
		<tag k="natural" v="water" />
		<tag k="ssr:stedsnr" v="353062" />
	</node>
	<node id="-121584" lat="61.7429027803" lon="9.16675554934">
		<tag k="name" v="Storbekken" />
		<tag k="ssr:stedsnr" v="192964" />
		<tag k="waterway" v="stream" />
	</node>
	<node id="-122354" lat="61.8730750036" lon="9.32015832929">
		<tag k="name" v="Selsvassbekken" />
		<tag k="ssr:stedsnr" v="717942" />
		<tag k="waterway" v="stream" />
	</node>
	<node id="-121354" lat="61.7743555566" lon="9.4895055649">
		<tag k="name" v="Dalesand" />
		<tag k="natural" v="beach" />
		<tag k="ssr:stedsnr" v="110259" />
	</node>
	<node id="-120744" lat="61.7362138851" lon="9.49551667374">
		<tag k="alt_name" v="Melumsåa;Melumsåi" />
		<tag k="name" v="Melemsåi" />
		<tag k="ssr:stedsnr" v="313642" />
		<tag k="waterway" v="river" />
	</node>
	<node id="-122861" lat="61.7561916695" lon="9.54152777773">
		<tag k="name" v="Storøya" />
		<tag k="place" v="island" />
		<tag k="ssr:stedsnr" v="960451" />
	</node>
	<node id="-121324" lat="61.7155444475" lon="9.26327222191">
		<tag k="name" v="Bertilgrøna" />
		<tag k="natural" v="water" />
		<tag k="ssr:stedsnr" v="110203" />
	</node>
	<node id="-122575" lat="61.7290500042" lon="9.40763611119">
		<tag k="name" v="Skjerdalsbekken" />
		<tag k="ssr:stedsnr" v="839452" />
		<tag k="waterway" v="stream" />
	</node>
	<node id="-121320" lat="61.8457916651" lon="9.34832111118">
		<tag k="name" v="Selsvatnet" />
		<tag k="natural" v="water" />
		<tag k="ssr:stedsnr" v="72936" />
		<tag k="water" v="lake" />
	</node>
	<node id="-122364" lat="61.7589416698" lon="9.54212499488">
		<tag k="name" v="Fettjønn" />
		<tag k="natural" v="bay" />
		<tag k="ssr:stedsnr" v="718466" />
	</node>
	<node id="-121899" lat="61.7651916681" lon="9.59257222485">
		<tag k="name" v="Svarttjønnbekken" />
		<tag k="ssr:stedsnr" v="535086" />
		<tag k="waterway" v="stream" />
	</node>
	<node id="-122340" lat="61.7553249969" lon="9.50001666067">
		<tag k="name" v="Høghaugtjønn" />
		<tag k="natural" v="water" />
		<tag k="ssr:stedsnr" v="717400" />
	</node>
	<node id="-121315" lat="61.7740527748" lon="9.33683333343">
		<tag k="name" v="Harildstadtjønne" />
		<tag k="natural" v="water" />
		<tag k="ssr:stedsnr" v="71851" />
	</node>
	<node id="-121826" lat="61.6050638918" lon="9.30314167014">
		<tag k="alt_name" v="Søbekken" />
		<tag k="name" v="Sørbekken" />
		<tag k="ssr:stedsnr" v="495540" />
		<tag k="waterway" v="stream" />
	</node>
	<node id="-122277" lat="61.7137972202" lon="9.58252499313">
		<tag k="name" v="Svarttjønne" />
		<tag k="natural" v="water" />
		<tag k="ssr:stedsnr" v="678707" />
	</node>
	<node id="-122331" lat="61.6939861108" lon="9.42925277736">
		<tag k="name" v="Nystugubekken" />
		<tag k="ssr:stedsnr" v="717198" />
		<tag k="waterway" v="stream" />
	</node>
	<node id="-120911" lat="61.7193916707" lon="9.58681389108">
		<tag k="name" v="Tomastjønne" />
		<tag k="natural" v="water" />
		<tag k="ssr:stedsnr" v="374676" />
	</node>
	<node id="-122327" lat="61.8572027751" lon="9.52503889247">
		<tag k="name" v="Langmyrbekken" />
		<tag k="ssr:stedsnr" v="717089" />
		<tag k="waterway" v="stream" />
	</node>
	<node id="-122678" lat="61.6110805527" lon="9.29134722888">
		<tag k="name" v="Nordbekken" />
		<tag k="ssr:stedsnr" v="860550" />
		<tag k="waterway" v="stream" />
	</node>
	<node id="-121593" lat="61.7906555552" lon="9.5591249998">
		<tag k="name" v="Kvernhusbekken" />
		<tag k="ssr:stedsnr" v="193228" />
		<tag k="waterway" v="stream" />
	</node>
	<node id="-121300" lat="61.9026666637" lon="9.61333055757">
		<tag k="name" v="Bråkdalsbekken" />
		<tag k="ssr:stedsnr" v="71748" />
		<tag k="waterway" v="river" />
	</node>
	<node id="-122461" lat="61.7426722226" lon="9.33926944633">
		<tag k="name" v="Vesle-Sjoa" />
		<tag k="ssr:stedsnr" v="777788" />
		<tag k="waterway" v="river" />
	</node>
	<node id="-122019" lat="61.7964705783" lon="9.60627847611">
		<tag k="name" v="Nedre Raphamntjønne" />
		<tag k="natural" v="water" />
		<tag k="ssr:stedsnr" v="557518" />
		<tag k="water" v="lake" />
	</node>
	<node id="-121808" lat="61.8405416709" lon="9.65511111557">
		<tag k="alt_name" v="Ula, vesle;Vesle Ula" />
		<tag k="name" v="Vesleula" />
		<tag k="ssr:stedsnr" v="436684" />
		<tag k="waterway" v="river" />
	</node>
	<node id="-120783" lat="61.8755750036" lon="9.81298888263">
		<tag k="name" v="Fremre Illmanntjønne" />
		<tag k="natural" v="water" />
		<tag k="ssr:stedsnr" v="314740" />
	</node>
	<node id="-120782" lat="61.8892222181" lon="9.80404166144">
		<tag k="name" v="Rondholbekken" />
		<tag k="ssr:stedsnr" v="314735" />
		<tag k="waterway" v="stream" />
	</node>
	<node id="-121293" lat="61.7172833289" lon="9.32998887972">
		<tag k="loc_name" v="Øvre Skitjønn" />
		<tag k="name" v="Øvre Skitjønnin" />
		<tag k="natural" v="water" />
		<tag k="ssr:stedsnr" v="71713" />
	</node>
	<node id="-121804" lat="61.8642861154" lon="9.30684166282">
		<tag k="name" v="Sjugurdshøtjønne" />
		<tag k="natural" v="water" />
		<tag k="ssr:stedsnr" v="435983" />
	</node>
	<node id="-122827" lat="61.7369750031" lon="9.20635000268">
		<tag k="name" v="Skjeftøya" />
		<tag k="place" v="islet" />
		<tag k="ssr:stedsnr" v="959163" />
	</node>
	<node id="-122826" lat="61.7375666644" lon="9.19911666723">
		<tag k="name" v="Hjelletangen" />
		<tag k="natural" v="cape" />
		<tag k="ssr:stedsnr" v="959162" />
	</node>
	<node id="-120775" lat="61.8473500026" lon="9.61281389708">
		<tag k="name" v="Grønlibekken" />
		<tag k="ssr:stedsnr" v="314695" />
		<tag k="waterway" v="stream" />
	</node>
	<node id="-121798" lat="61.8142249975" lon="9.47839722319">
		<tag k="name" v="Guttormstjønne" />
		<tag k="natural" v="water" />
		<tag k="ssr:stedsnr" v="435768" />
	</node>
	<node id="-120772" lat="61.7614833346" lon="9.64191388789">
		<tag k="name" v="Krosshaugtjønnin" />
		<tag k="natural" v="water" />
		<tag k="ssr:stedsnr" v="314577" />
	</node>
	<node id="-120771" lat="61.7943277785" lon="9.61111666837">
		<tag k="name" v="Øvre Raphamntjønne" />
		<tag k="natural" v="water" />
		<tag k="ssr:stedsnr" v="314571" />
	</node>
	<node id="-121794" lat="61.7019111148" lon="9.34385276847">
		<tag k="alt_name" v="Bergdøla" />
		<tag k="name" v="Berdøla" />
		<tag k="ssr:stedsnr" v="435733" />
		<tag k="waterway" v="river" />
	</node>
	<node id="-121281" lat="61.7398777819" lon="9.62563888826">
		<tag k="name" v="Gneddtjønne" />
		<tag k="natural" v="water" />
		<tag k="ssr:stedsnr" v="70623" />
	</node>
	<node id="-121792" lat="61.7217361078" lon="9.25053333439">
		<tag k="name" v="Prestegardstjønne" />
		<tag k="natural" v="water" />
		<tag k="ssr:stedsnr" v="435705" />
	</node>
	<node id="-120992" lat="61.794516669" lon="9.42650834026">
		<tag k="name" v="Skardbekken" />
		<tag k="ssr:stedsnr" v="473718" />
		<tag k="waterway" v="stream" />
	</node>
	<node id="-120765" lat="61.5794583291" lon="9.19380556205">
		<tag k="alt_name" v="Fiskeløysbekken" />
		<tag k="name" v="Fiskløysbekken" />
		<tag k="ssr:stedsnr" v="313838" />
		<tag k="waterway" v="stream" />
	</node>
	<node id="-120994" lat="61.7418777791" lon="9.34090834202">
		<tag k="name" v="Ellingsbøøyra" />
		<tag k="place" v="islet" />
		<tag k="ssr:stedsnr" v="473812" />
	</node>
	<node id="-122810" lat="61.8905777796" lon="9.78358610334">
		<tag k="name" v="Rondhalsbekken" />
		<tag k="ssr:stedsnr" v="921745" />
		<tag k="waterway" v="stream" />
	</node>
	<node id="-122809" lat="61.8901527768" lon="9.74686667615">
		<tag k="name" v="Klaratjønne" />
		<tag k="natural" v="water" />
		<tag k="ssr:stedsnr" v="921744" />
	</node>
	<node id="-122807" lat="61.8367129164" lon="9.65440151307">
		<tag k="name" v="Veslulfossen" />
		<tag k="natural" v="waterfall" />
		<tag k="ssr:stedsnr" v="921713" />
	</node>
	<node id="-121403" lat="61.7853888884" lon="9.40639443903">
		<tag k="name" v="Veggemsøya" />
		<tag k="place" v="islet" />
		<tag k="ssr:stedsnr" v="111680" />
	</node>
	<node id="-121269" lat="61.8943749994" lon="9.47723055913">
		<tag k="name" v="Brennbekken" />
		<tag k="ssr:stedsnr" v="50711" />
		<tag k="waterway" v="stream" />
	</node>
	<node id="-121780" lat="61.697388891" lon="9.41743888692">
		<tag k="name" v="Haugabekken" />
		<tag k="ssr:stedsnr" v="434669" />
		<tag k="waterway" v="stream" />
	</node>
	<node id="-121437" lat="61.7263888863" lon="9.13726389375">
		<tag k="name" v="Rinda" />
		<tag k="ssr:stedsnr" v="131834" />
		<tag k="waterway" v="river" />
	</node>
	<node id="-122290" lat="61.9127416647" lon="9.46486666583">
		<tag k="name" v="Mjølrakkåe" />
		<tag k="ssr:stedsnr" v="678985" />
		<tag k="waterway" v="stream" />
	</node>
	<node id="-121471" lat="61.7078166703" lon="9.41115278014">
		<tag k="name" v="Åkerlykkjebekken" />
		<tag k="ssr:stedsnr" v="170009" />
		<tag k="waterway" v="stream" />
	</node>
	<node id="-121263" lat="61.6686944416" lon="9.52990833952">
		<tag k="name" v="Brunnhaugbekken" />
		<tag k="ssr:stedsnr" v="50603" />
		<tag k="waterway" v="stream" />
	</node>
	<node id="-121774" lat="61.7448972246" lon="9.62170833953">
		<tag k="name" v="Olastjønne" />
		<tag k="natural" v="water" />
		<tag k="ssr:stedsnr" v="434633" />
	</node>
	<node id="-122285" lat="61.6025916663" lon="9.1354305584">
		<tag k="name" v="Lomtjørni" />
		<tag k="natural" v="water" />
		<tag k="ssr:stedsnr" v="678797" />
	</node>
	<node id="-121586" lat="61.7356555554" lon="9.15401388134">
		<tag k="alt_name" v="Nyborgtjørni" />
		<tag k="name" v="Nyborgtjønn" />
		<tag k="natural" v="water" />
		<tag k="ssr:stedsnr" v="192966" />
	</node>
	<node id="-122794" lat="61.769274997" lon="9.4196388867">
		<tag k="name" v="Veggemsåe" />
		<tag k="ssr:stedsnr" v="920826" />
		<tag k="waterway" v="stream" />
	</node>
	<node id="-122793" lat="61.5888111099" lon="9.18235278225">
		<tag k="name" v="Langvassbekken" />
		<tag k="ssr:stedsnr" v="920827" />
		<tag k="waterway" v="stream" />
	</node>
	<node id="-122792" lat="61.5977055592" lon="9.14682777056">
		<tag k="name" v="Refjellsvatni" />
		<tag k="natural" v="water" />
		<tag k="ssr:stedsnr" v="920816" />
		<tag k="water" v="lake" />
	</node>
	<node id="-122789" lat="61.8362999989" lon="9.50618333494">
		<tag k="name" v="Formobekken" />
		<tag k="ssr:stedsnr" v="920790" />
		<tag k="waterway" v="stream" />
	</node>
	<node id="-122787" lat="61.8100222253" lon="9.4794611174">
		<tag k="name" v="Daleåe" />
		<tag k="ssr:stedsnr" v="920750" />
		<tag k="waterway" v="stream" />
	</node>
	<node id="-120838" lat="61.8242972213" lon="9.68868333564">
		<tag k="name" v="Bergetjønnbekken" />
		<tag k="ssr:stedsnr" v="353322" />
		<tag k="waterway" v="stream" />
	</node>
	<node id="-120736" lat="61.6671222206" lon="9.50719444458">
		<tag k="name" v="Kjekslibekken" />
		<tag k="ssr:stedsnr" v="293671" />
		<tag k="waterway" v="stream" />
	</node>
	<node id="-122783" lat="61.6734222178" lon="9.36238333726">
		<tag k="name" v="Nerdalsfiskeløysa" />
		<tag k="ssr:stedsnr" v="920728" />
		<tag k="waterway" v="stream" />
	</node>
	<node id="-122782" lat="61.6711166663" lon="9.25420000641">
		<tag k="name" v="Nedre Sundtjønn" />
		<tag k="natural" v="water" />
		<tag k="ssr:stedsnr" v="920725" />
	</node>
	<node id="-122781" lat="61.6568361144" lon="9.24851666603">
		<tag k="name" v="Sundtjønnbekken" />
		<tag k="ssr:stedsnr" v="920719" />
		<tag k="waterway" v="stream" />
	</node>
	<node id="-121242" lat="61.81549167" lon="9.55403333535">
		<tag k="name" v="Svartholbekken" />
		<tag k="ssr:stedsnr" v="50202" />
		<tag k="waterway" v="stream" />
	</node>
	<node id="-121237" lat="61.7042861123" lon="9.46430555924">
		<tag k="name" v="Kvernbekken" />
		<tag k="ssr:stedsnr" v="50135" />
		<tag k="waterway" v="stream" />
	</node>
	<node id="-120723" lat="61.7910805531" lon="9.62223611741">
		<tag k="name" v="Åbbortjønnbekken" />
		<tag k="ssr:stedsnr" v="293184" />
		<tag k="waterway" v="stream" />
	</node>
	<node id="-120722" lat="61.7889555575" lon="9.61583055661">
		<tag k="name" v="Bergetjønnbekken" />
		<tag k="ssr:stedsnr" v="293181" />
		<tag k="waterway" v="stream" />
	</node>
	<node id="-122769" lat="61.6408249965" lon="9.24691666486">
		<tag k="name" v="Høgkjørrbekken" />
		<tag k="ssr:stedsnr" v="920503" />
		<tag k="waterway" v="stream" />
	</node>
	<node id="-121741" lat="61.9068055547" lon="9.53423333412">
		<tag k="name" v="Storsteinåe" />
		<tag k="ssr:stedsnr" v="253996" />
		<tag k="waterway" v="stream" />
	</node>
	<node id="-121739" lat="61.9060527802" lon="9.52750277928">
		<tag k="name" v="Brennstakkståe" />
		<tag k="ssr:stedsnr" v="253995" />
		<tag k="waterway" v="river" />
	</node>
	<node id="-120756" lat="61.673305557" lon="9.46234166236">
		<tag k="name" v="Sagåa" />
		<tag k="ssr:stedsnr" v="313741" />
		<tag k="waterway" v="stream" />
	</node>
	<node id="-120708" lat="61.8355361133" lon="9.39801110323">
		<tag k="alt_name" v="Geitåa" />
		<tag k="name" v="Geitåe" />
		<tag k="ssr:stedsnr" v="292513" />
		<tag k="waterway" v="stream" />
	</node>
	<node id="-121726" lat="61.8684583319" lon="9.60633333697">
		<tag k="alt_name" v="Høvringvatnet, s" />
		<tag k="name" v="Søre Høvringvatnet" />
		<tag k="natural" v="water" />
		<tag k="ssr:stedsnr" v="253772" />
	</node>
	<node id="-122237" lat="61.8321749989" lon="9.42500832784">
		<tag k="name" v="Kaldsteinbekken" />
		<tag k="ssr:stedsnr" v="657595" />
		<tag k="waterway" v="stream" />
	</node>
	<node id="-122236" lat="61.8427805528" lon="9.44296943569">
		<tag k="name" v="Storøya" />
		<tag k="place" v="island" />
		<tag k="ssr:stedsnr" v="657589" />
	</node>
	<node id="-122235" lat="61.8483472184" lon="9.46682500042">
		<tag k="name" v="Fugleskjellbekken" />
		<tag k="ssr:stedsnr" v="657585" />
		<tag k="waterway" v="stream" />
	</node>
	<node id="-120697" lat="61.8333999986" lon="9.60870555966">
		<tag k="name" v="Veslebekken" />
		<tag k="ssr:stedsnr" v="292222" />
		<tag k="waterway" v="stream" />
	</node>
	<node id="-122231" lat="61.7581972184" lon="9.53794722167">
		<tag k="name" v="Torsøya" />
		<tag k="place" v="island" />
		<tag k="ssr:stedsnr" v="657461" />
	</node>
	<node id="-120694" lat="61.739405558" lon="9.64012778123">
		<tag k="name" v="Nedre Sleotjern" />
		<tag k="natural" v="water" />
		<tag k="ssr:stedsnr" v="292197" />
	</node>
	<node id="-122229" lat="61.7829499988" lon="9.55810833026">
		<tag k="name" v="Kollobekken" />
		<tag k="ssr:stedsnr" v="657065" />
		<tag k="waterway" v="stream" />
	</node>
	<node id="-120894" lat="61.6425972205" lon="9.22474167019">
		<tag k="name" v="Kaldvassbekken" />
		<tag k="ssr:stedsnr" v="374510" />
		<tag k="waterway" v="stream" />
	</node>
	<node id="-121714" lat="61.7557138862" lon="9.57688333032">
		<tag k="name" v="Solhjemsåe" />
		<tag k="ssr:stedsnr" v="253689" />
		<tag k="waterway" v="stream" />
	</node>
	<node id="-121747" lat="61.7522583352" lon="9.54247499538">
		<tag k="name" v="Einangsstraumen" />
		<tag k="ssr:stedsnr" v="414429" />
		<tag k="waterway" v="rapids" />
	</node>
	<node id="-122736" lat="61.680338892" lon="9.52830000329">
		<tag k="name" v="Kuhølen" />
		<tag k="place" v="locality" />
		<tag k="ssr:stedsnr" v="899745" />
	</node>
	<node id="-122735" lat="61.7823194476" lon="9.2744111089">
		<tag k="name" v="Ruditjønne" />
		<tag k="natural" v="water" />
		<tag k="ssr:stedsnr" v="899672" />
	</node>
	<node id="-120686" lat="61.8058749967" lon="9.64799444658">
		<tag k="name" v="Granmyrbekken" />
		<tag k="ssr:stedsnr" v="292125" />
		<tag k="waterway" v="stream" />
	</node>
	<node id="-121917" lat="61.7732527811" lon="9.67548610505">
		<tag k="name" v="Huggu" />
		<tag k="natural" v="bay" />
		<tag k="ssr:stedsnr" v="535176" />
	</node>
	<node id="-121196" lat="61.7347416707" lon="9.61639167554">
		<tag k="name" v="Vadtjønne" />
		<tag k="natural" v="water" />
		<tag k="ssr:stedsnr" v="22104" />
	</node>
	<node id="-122219" lat="61.783691665" lon="9.46520277934">
		<tag k="name" v="Meiskår" />
		<tag k="ssr:stedsnr" v="656707" />
		<tag k="waterway" v="rapids" />
	</node>
	<node id="-122218" lat="61.7786944407" lon="9.40037500311">
		<tag k="name" v="Skiftesbekken" />
		<tag k="ssr:stedsnr" v="656688" />
		<tag k="waterway" v="stream" />
	</node>
	<node id="-120681" lat="61.7173861116" lon="9.44755278082">
		<tag k="name" v="Hjellebekken" />
		<tag k="ssr:stedsnr" v="292075" />
		<tag k="waterway" v="stream" />
	</node>
	<node id="-122728" lat="61.7105916679" lon="9.53989167007">
		<tag k="name" v="Veslestraumen" />
		<tag k="ssr:stedsnr" v="899521" />
		<tag k="waterway" v="rapids" />
	</node>
	<node id="-122727" lat="61.7366722263" lon="9.37386389179">
		<tag k="name" v="Harlaugbekken" />
		<tag k="ssr:stedsnr" v="899510" />
		<tag k="waterway" v="stream" />
	</node>
	<node id="-121702" lat="61.7278250016" lon="9.17426111086">
		<tag k="name" v="Rindhølen" />
		<tag k="place" v="locality" />
		<tag k="ssr:stedsnr" v="252969" />
	</node>
	<node id="-122257" lat="61.6070333348" lon="9.1189555593">
		<tag k="name" v="Bessin" />
		<tag k="natural" v="water" />
		<tag k="ssr:stedsnr" v="677815" />
		<tag k="water" v="lake" />
	</node>
	<node id="-122723" lat="61.7446999985" lon="9.54961665886">
		<tag k="name" v="Bredetangen" />
		<tag k="natural" v="cape" />
		<tag k="ssr:stedsnr" v="900435" />
	</node>
	<node id="-121698" lat="61.738597221" lon="9.24851667246">
		<tag k="name" v="Storbekken" />
		<tag k="ssr:stedsnr" v="252786" />
		<tag k="waterway" v="stream" />
	</node>
	<node id="-121697" lat="61.5877527809" lon="9.13630556126">
		<tag k="name" v="Snuldra" />
		<tag k="natural" v="water" />
		<tag k="ssr:stedsnr" v="252785" />
	</node>
	<node id="-121696" lat="61.5922156741" lon="9.13534725927">
		<tag k="name" v="Buvatnet" />
		<tag k="natural" v="water" />
		<tag k="ssr:stedsnr" v="252784" />
		<tag k="water" v="lake" />
	</node>
	<node id="-122719" lat="61.7553222227" lon="9.52611111956">
		<tag k="name" v="Selsjordbekken" />
		<tag k="ssr:stedsnr" v="899408" />
		<tag k="waterway" v="stream" />
	</node>
	<node id="-121693" lat="61.6878000005" lon="9.43850000323">
		<tag k="name" v="Nonsbekken" />
		<tag k="ssr:stedsnr" v="252717" />
		<tag k="waterway" v="stream" />
	</node>
	<node id="-122714" lat="61.8178972233" lon="9.72517499228">
		<tag k="name" v="Storhaugbekken" />
		<tag k="ssr:stedsnr" v="861692" />
		<tag k="waterway" v="stream" />
	</node>
	<node id="-122713" lat="61.8210000012" lon="9.71004721931">
		<tag k="name" v="Indretjønne" />
		<tag k="natural" v="water" />
		<tag k="ssr:stedsnr" v="861691" />
	</node>
	<node id="-121176" lat="61.7937472217" lon="9.5014527743">
		<tag k="name" v="Kleivrudtjønne" />
		<tag k="natural" v="water" />
		<tag k="ssr:stedsnr" v="10853" />
	</node>
	<node id="-121828" lat="61.5874766174" lon="9.29525373842">
		<tag k="alt_name" v="Mugvatnet" />
		<tag k="name" v="Muvatnet" />
		<tag k="natural" v="water" />
		<tag k="ssr:stedsnr" v="495552" />
		<tag k="water" v="lake" />
	</node>
	<node id="-122710" lat="61.857416666" lon="9.67113333893">
		<tag k="name" v="Ljosåe" />
		<tag k="ssr:stedsnr" v="861662" />
		<tag k="waterway" v="stream" />
	</node>
	<node id="-121173" lat="61.5958499987" lon="9.15266110329">
		<tag k="name" v="Fiskløysa" />
		<tag k="natural" v="water" />
		<tag k="ssr:stedsnr" v="10822" />
	</node>
	<node id="-122194" lat="61.8373166704" lon="9.48278334186">
		<tag k="name" v="Mattistjønn" />
		<tag k="ssr:stedsnr" v="656113" />
		<tag k="waterway" v="stream" />
	</node>
	<node id="-121168" lat="61.7383666645" lon="9.57896110461">
		<tag k="alt_name" v="Vangsåa" />
		<tag k="name" v="Vangsåi" />
		<tag k="ssr:stedsnr" v="10647" />
		<tag k="waterway" v="stream" />
	</node>
	<node id="-121163" lat="61.77983889" lon="9.63479166176">
		<tag k="name" v="Lynningdalstjønnin" />
		<tag k="natural" v="water" />
		<tag k="ssr:stedsnr" v="10517" />
	</node>
	<node id="-122698" lat="61.6328166665" lon="9.19478055051">
		<tag k="name" v="Lurvåtlibekken" />
		<tag k="ssr:stedsnr" v="860807" />
		<tag k="waterway" v="stream" />
	</node>
	<node id="-121161" lat="61.6419138857" lon="9.36634167363">
		<tag k="name" v="Berdøltjønnin" />
		<tag k="natural" v="water" />
		<tag k="ssr:stedsnr" v="10509" />
	</node>
	<node id="-121160" lat="61.6243750038" lon="9.28126389398">
		<tag k="name" v="Svarttjønn" />
		<tag k="natural" v="water" />
		<tag k="ssr:stedsnr" v="10492" />
	</node>
	<node id="-121159" lat="61.7903410257" lon="9.21984199368">
		<tag k="name" v="Bjølstadvatnet" />
		<tag k="natural" v="water" />
		<tag k="ssr:stedsnr" v="10424" />
		<tag k="water" v="lake" />
	</node>
	<node id="-122182" lat="61.7903277761" lon="9.5043333269">
		<tag k="name" v="Kleivrudbekken" />
		<tag k="ssr:stedsnr" v="655029" />
		<tag k="waterway" v="stream" />
	</node>
	<node id="-122691" lat="61.7119444408" lon="9.58778889035">
		<tag k="name" v="Harrtjønne" />
		<tag k="natural" v="water" />
		<tag k="ssr:stedsnr" v="860740" />
	</node>
	<node id="-121662" lat="61.7557388916" lon="9.53707777935">
		<tag k="name" v="Selsjordhølen" />
		<tag k="natural" v="bay" />
		<tag k="ssr:stedsnr" v="232395" />
	</node>
	<node id="-121660" lat="61.816147225" lon="9.61473888738">
		<tag k="name" v="Lauvdalsbekken" />
		<tag k="ssr:stedsnr" v="232234" />
		<tag k="waterway" v="stream" />
	</node>
	<node id="-122683" lat="61.7767777788" lon="9.69769445249">
		<tag k="name" v="Elgsvikje" />
		<tag k="natural" v="bay" />
		<tag k="ssr:stedsnr" v="860592" />
	</node>
	<node id="-121567" lat="61.6991694455" lon="9.40812221505">
		<tag k="name" v="Randbekken" />
		<tag k="ssr:stedsnr" v="192744" />
		<tag k="waterway" v="stream" />
	</node>
	<node id="-122168" lat="61.8032222232" lon="9.47013612011">
		<tag k="alt_name" v="Høgsætertjønne" />
		<tag k="name" v="Åsårtjønn" />
		<tag k="natural" v="water" />
		<tag k="ssr:stedsnr" v="617863" />
	</node>
	<node id="-121654" lat="61.7934916691" lon="9.60207500212">
		<tag k="name" v="Nedre Lorttjønn" />
		<tag k="natural" v="water" />
		<tag k="ssr:stedsnr" v="232168" />
	</node>
	<node id="-122217" lat="61.7873944458" lon="9.36267500309">
		<tag k="name" v="Rustbekken" />
		<tag k="ssr:stedsnr" v="656686" />
		<tag k="waterway" v="stream" />
	</node>
	<node id="-122163" lat="61.8663694406" lon="9.74913888809">
		<tag k="name" v="Krokåtbekken" />
		<tag k="ssr:stedsnr" v="617772" />
		<tag k="waterway" v="stream" />
	</node>
	<node id="-122162" lat="61.8753444472" lon="9.91947222459">
		<tag k="name" v="Illmannåe" />
		<tag k="ssr:stedsnr" v="617766" />
		<tag k="waterway" v="stream" />
	</node>
	<node id="-122161" lat="61.8836249977" lon="9.76821111385">
		<tag k="name" v="Kaldbekken" />
		<tag k="ssr:stedsnr" v="617765" />
		<tag k="waterway" v="stream" />
	</node>
	<node id="-122160" lat="61.8782000006" lon="9.61607221697">
		<tag k="alt_name" v="Kjondalsbekken, s" />
		<tag k="name" v="Søre Kjondalsbekken" />
		<tag k="ssr:stedsnr" v="617763" />
		<tag k="waterway" v="stream" />
	</node>
	<node id="-121979" lat="61.776349997" lon="9.65969722704">
		<tag k="name" v="Vålåsjøbekken" />
		<tag k="ssr:stedsnr" v="556586" />
		<tag k="waterway" v="stream" />
	</node>
	<node id="-122669" lat="61.6986666703" lon="9.25000555981">
		<tag k="name" v="Ståltjønne" />
		<tag k="natural" v="water" />
		<tag k="ssr:stedsnr" v="859681" />
	</node>
	<node id="-122155" lat="61.8989777807" lon="9.68353333016">
		<tag k="name" v="Verkilsdalsvatnet" />
		<tag k="natural" v="water" />
		<tag k="ssr:stedsnr" v="617740" />
	</node>
	<node id="-122684" lat="61.7703581459" lon="9.68979788297">
		<tag k="name" v="Vålåsjøen" />
		<tag k="natural" v="water" />
		<tag k="ssr:stedsnr" v="860594" />
		<tag k="water" v="lake" />
	</node>
	<node id="-122664" lat="61.7134444436" lon="9.60287776842">
		<tag k="name" v="Holsætertjønne" />
		<tag k="natural" v="water" />
		<tag k="ssr:stedsnr" v="859645" />
	</node>
	<node id="-122662" lat="61.7439861146" lon="9.25815556412">
		<tag k="name" v="Dettarbekken" />
		<tag k="ssr:stedsnr" v="859624" />
		<tag k="waterway" v="stream" />
	</node>
	<node id="-122658" lat="61.5832555222" lon="9.23338223317">
		<tag k="alt_name" v="Muruvatnet" />
		<tag k="name" v="Murudalsvatnet" />
		<tag k="natural" v="water" />
		<tag k="ssr:stedsnr" v="859514" />
		<tag k="water" v="lake" />
	</node>
	<node id="-120795" lat="61.7671527763" lon="9.54196110802">
		<tag k="name" v="Ottbragdøya" />
		<tag k="old_name" v="Ottbragdi;Ottbragden" />
		<tag k="place" v="island" />
		<tag k="ssr:stedsnr" v="345802" />
	</node>
	<node id="-122142" lat="61.7718805593" lon="9.63561389682">
		<tag k="name" v="Steindalstjønne" />
		<tag k="natural" v="water" />
		<tag k="ssr:stedsnr" v="617566" />
	</node>
	<node id="-122141" lat="61.7835388916" lon="9.61082777297">
		<tag k="name" v="Skardtjønne" />
		<tag k="natural" v="water" />
		<tag k="ssr:stedsnr" v="617550" />
	</node>
	<node id="-122650" lat="61.7177111123" lon="9.57454721551">
		<tag k="name" v="Moabekken" />
		<tag k="ssr:stedsnr" v="839931" />
		<tag k="waterway" v="stream" />
	</node>
	<node id="-121623" lat="61.7461611082" lon="9.64004165897">
		<tag k="name" v="Dalstjern" />
		<tag k="natural" v="water" />
		<tag k="ssr:stedsnr" v="231246" />
	</node>
	<node id="-121621" lat="61.7763833357" lon="9.6429416738">
		<tag k="name" v="Jomfrubekken" />
		<tag k="ssr:stedsnr" v="231195" />
		<tag k="waterway" v="stream" />
	</node>
	<node id="-122125" lat="61.6665250002" lon="9.42319999462">
		<tag k="name" v="Jønnbekken" />
		<tag k="ssr:stedsnr" v="616734" />
		<tag k="waterway" v="stream" />
	</node>
	<node id="-120937" lat="61.889099998" lon="9.44175555874">
		<tag k="name" v="Fagerliåe" />
		<tag k="ssr:stedsnr" v="374983" />
		<tag k="waterway" v="river" />
	</node>
	<node id="-122123" lat="61.6988416701" lon="9.49089166043">
		<tag k="name" v="Svabekken" />
		<tag k="ssr:stedsnr" v="616712" />
		<tag k="waterway" v="stream" />
	</node>
	<node id="-121094" lat="61.8252472182" lon="9.63942223076">
		<tag k="name" v="Kampestulbekken" />
		<tag k="ssr:stedsnr" v="899382" />
		<tag k="waterway" v="stream" />
	</node>
	<node id="-121093" lat="61.7895666626" lon="9.67546111322">
		<tag k="name" v="Dipilen" />
		<tag k="natural" v="water" />
		<tag k="ssr:stedsnr" v="899373" />
	</node>
	<node id="-121604" lat="61.8861119403" lon="9.57245704949">
		<tag k="name" v="Høvringsvatne" />
		<tag k="natural" v="water" />
		<tag k="ssr:stedsnr" v="193951" />
		<tag k="water" v="lake" />
	</node>
	<node id="-122115" lat="61.7208055561" lon="9.5751694537">
		<tag k="name" v="Faligbekken" />
		<tag k="ssr:stedsnr" v="616663" />
		<tag k="waterway" v="stream" />
	</node>
	<node id="-121601" lat="61.8701888883" lon="9.81088334027">
		<tag k="name" v="Skridubekken" />
		<tag k="ssr:stedsnr" v="193718" />
		<tag k="waterway" v="stream" />
	</node>
	<node id="-121600" lat="61.8744749999" lon="9.86542221347">
		<tag k="name" v="Illmanntjønnin" />
		<tag k="natural" v="water" />
		<tag k="ssr:stedsnr" v="193717" />
		<tag k="water" v="lake" />
	</node>
	<node id="-122517" lat="61.6989833343" lon="9.47656111917">
		<tag k="alt_name" v="Grotbekken" />
		<tag k="name" v="Grotebekken" />
		<tag k="ssr:stedsnr" v="798671" />
		<tag k="waterway" v="stream" />
	</node>
	<node id="-122110" lat="61.7418138895" lon="9.6344249927">
		<tag k="name" v="Sleotjønnin" />
		<tag k="natural" v="water" />
		<tag k="ssr:stedsnr" v="616640" />
	</node>
	<node id="-121597" lat="61.8225416639" lon="9.69281112053">
		<tag k="name" v="Bergetjønne" />
		<tag k="natural" v="water" />
		<tag k="ssr:stedsnr" v="193685" />
	</node>
	<node id="-122620" lat="61.8110277752" lon="9.56209167575">
		<tag k="name" v="Skjennabekken" />
		<tag k="ssr:stedsnr" v="839212" />
		<tag k="waterway" v="stream" />
	</node>
	<node id="-121595" lat="61.8451027803" lon="9.67973611097">
		<tag k="name" v="Smiubelgtjønne" />
		<tag k="natural" v="water" />
		<tag k="ssr:stedsnr" v="193676" />
	</node>
	<node id="-121594" lat="61.7919361079" lon="9.62764444648">
		<tag k="alt_name" v="Småhårrtjønne" />
		<tag k="name" v="Åbbortjønn" />
		<tag k="natural" v="water" />
		<tag k="ssr:stedsnr" v="193552" />
	</node>
	<node id="-122105" lat="61.8656861092" lon="9.4447638938">
		<tag k="name" v="Vesletjønn" />
		<tag k="natural" v="water" />
		<tag k="ssr:stedsnr" v="596971" />
	</node>
	<node id="-122104" lat="61.8643416669" lon="9.43876943877">
		<tag k="name" v="Brenntjønn" />
		<tag k="natural" v="water" />
		<tag k="ssr:stedsnr" v="596970" />
	</node>
	<node id="-121591" lat="61.6829611101" lon="9.18457499709">
		<tag k="name" v="Nermuru" />
		<tag k="ssr:stedsnr" v="192991" />
		<tag k="waterway" v="river" />
	</node>
	<node id="-121385" lat="61.8329527801" lon="9.45686666389">
		<tag k="name" v="Selsbekken" />
		<tag k="ssr:stedsnr" v="111532" />
		<tag k="waterway" v="stream" />
	</node>
	<node id="-122612" lat="61.714097218" lon="9.42588332825">
		<tag k="name" v="Rotbekken" />
		<tag k="ssr:stedsnr" v="839144" />
		<tag k="waterway" v="stream" />
	</node>
	<node id="-122099" lat="61.7766861143" lon="9.47172221665">
		<tag k="name" v="Fetten" />
		<tag k="natural" v="beach" />
		<tag k="ssr:stedsnr" v="596706" />
	</node>
	<node id="-122098" lat="61.6846888848" lon="9.47790555939">
		<tag k="name" v="Fettbekken" />
		<tag k="ssr:stedsnr" v="596688" />
		<tag k="waterway" v="stream" />
	</node>
	<node id="-122608" lat="61.7695611119" lon="9.65640277309">
		<tag k="alt_name" v="Krosshaugtjern" />
		<tag k="name" v="Krosshaugtjønn" />
		<tag k="natural" v="water" />
		<tag k="ssr:stedsnr" v="839116" />
	</node>
	<node id="-122088" lat="61.8359527792" lon="9.37501666555">
		<tag k="name" v="Grotbekken" />
		<tag k="ssr:stedsnr" v="596578" />
		<tag k="waterway" v="stream" />
	</node>
	<node id="-121212" lat="61.7133333348" lon="9.2255166714">
		<tag k="name" v="Rustputtane" />
		<tag k="natural" v="water" />
		<tag k="ssr:stedsnr" v="49285" />
		<tag k="water" v="pond" />
	</node>
	<node id="-120680" lat="61.6497861122" lon="9.20917778466">
		<tag k="name" v="Fribeitet" />
		<tag k="natural" v="cape" />
		<tag k="ssr:stedsnr" v="292072" />
	</node>
	<node id="-121061" lat="61.8461055537" lon="9.43774722906">
		<tag k="name" v="Steinbergøya" />
		<tag k="natural" v="cape" />
		<tag k="ssr:stedsnr" v="475578" />
	</node>
	<node id="-121060" lat="61.7859000016" lon="9.5252638967">
		<tag k="name" v="Kleivrudbekken" />
		<tag k="ssr:stedsnr" v="475509" />
		<tag k="waterway" v="stream" />
	</node>
	<node id="-121571" lat="61.8283499999" lon="9.56257499962">
		<tag k="name" v="Bjørnvollbekken" />
		<tag k="ssr:stedsnr" v="192796" />
		<tag k="waterway" v="stream" />
	</node>
	<node id="-121723" lat="61.8931536893" lon="9.79840280223">
		<tag k="name" v="Rondvatnet" />
		<tag k="natural" v="water" />
		<tag k="ssr:stedsnr" v="253743" />
		<tag k="water" v="lake" />
	</node>
	<node id="-122079" lat="61.7553472183" lon="9.53945833572">
		<tag k="name" v="Selsjordøyene" />
		<tag k="place" v="island" />
		<tag k="ssr:stedsnr" v="596409" />
	</node>
	<node id="-121907" lat="61.8058944403" lon="9.66068333101">
		<tag k="name" v="Gråhaugbekken" />
		<tag k="ssr:stedsnr" v="535132" />
		<tag k="waterway" v="stream" />
	</node>
	<node id="-121039" lat="61.7774722225" lon="9.39565277398">
		<tag k="name" v="Storbekken" />
		<tag k="ssr:stedsnr" v="474681" />
		<tag k="waterway" v="stream" />
	</node>
	<node id="-122071" lat="61.6930944462" lon="9.45408888319">
		<tag k="name" v="Lysgardsbekken" />
		<tag k="ssr:stedsnr" v="596179" />
		<tag k="waterway" v="stream" />
	</node>
	<node id="-122070" lat="61.8023666679" lon="9.59206110466">
		<tag k="name" v="Raphamnbekken" />
		<tag k="ssr:stedsnr" v="596154" />
		<tag k="waterway" v="stream" />
	</node>
	<node id="-121556" lat="61.7437500025" lon="9.50923333571">
		<tag k="name" v="Bredetjønnin" />
		<tag k="natural" v="water" />
		<tag k="ssr:stedsnr" v="192689" />
	</node>
	<node id="-122578" lat="61.715136109" lon="9.39838611782">
		<tag k="name" v="Attreina" />
		<tag k="natural" v="bay" />
		<tag k="ssr:stedsnr" v="838013" />
	</node>
	<node id="-121551" lat="61.7774222246" lon="9.62568054782">
		<tag k="name" v="Stortjønne" />
		<tag k="natural" v="water" />
		<tag k="ssr:stedsnr" v="192581" />
	</node>
	<node id="-122062" lat="61.7113388859" lon="9.30268332812">
		<tag k="name" v="Svartbekken" />
		<tag k="ssr:stedsnr" v="595878" />
		<tag k="waterway" v="stream" />
	</node>
	<node id="-122061" lat="61.7411555512" lon="9.3268333322">
		<tag k="name" v="Amundstadbekken" />
		<tag k="ssr:stedsnr" v="595797" />
		<tag k="waterway" v="stream" />
	</node>
	<node id="-121548" lat="61.8309109665" lon="9.48238553923">
		<tag k="alt_name" v="Skoftvatnet" />
		<tag k="name" v="Skottvatnet" />
		<tag k="natural" v="water" />
		<tag k="ssr:stedsnr" v="173758" />
		<tag k="water" v="lake" />
	</node>
	<node id="-122438" lat="61.8278194411" lon="9.49662221342">
		<tag k="name" v="Formoløken" />
		<tag k="ssr:stedsnr" v="777014" />
		<tag k="waterway" v="stream" />
	</node>
	<node id="-120951" lat="61.7914638851" lon="9.55141667115">
		<tag k="name" v="Tårua" />
		<tag k="natural" v="cape" />
		<tag k="ssr:stedsnr" v="414212" />
	</node>
	<node id="-122568" lat="61.8773250011" lon="9.35775556209">
		<tag k="name" v="Sæterbekken" />
		<tag k="ssr:stedsnr" v="800953" />
		<tag k="waterway" v="stream" />
	</node>
	<node id="-120780" lat="61.907497226" lon="9.81152778595">
		<tag k="name" v="Styggebotnbekken" />
		<tag k="ssr:stedsnr" v="314718" />
		<tag k="waterway" v="stream" />
	</node>
	<node id="-121527" lat="61.7144000002" lon="9.51586667475">
		<tag k="name" v="Bjørndalsbekken" />
		<tag k="ssr:stedsnr" v="171546" />
		<tag k="waterway" v="stream" />
	</node>
	<node id="-121025" lat="61.7514888869" lon="9.49960277309">
		<tag k="name" v="Rautjønn" />
		<tag k="natural" v="water" />
		<tag k="ssr:stedsnr" v="474387" />
	</node>
	<node id="-122560" lat="61.8434972261" lon="9.80118055068">
		<tag k="name" v="Leiråe" />
		<tag k="ssr:stedsnr" v="800677" />
		<tag k="waterway" v="stream" />
	</node>
	<node id="-122559" lat="61.844477779" lon="9.74434444868">
		<tag k="alt_name" v="Ula, store;Store Ula" />
		<tag k="name" v="Storula" />
		<tag k="ssr:stedsnr" v="800675" />
		<tag k="waterway" v="river" />
	</node>
	<node id="-120949" lat="61.8199611104" lon="9.60260832709">
		<tag k="name" v="Steinurdbekken" />
		<tag k="ssr:stedsnr" v="414204" />
		<tag k="waterway" v="stream" />
	</node>
	<node id="-121532" lat="61.7216000012" lon="9.54370556044">
		<tag k="name" v="Sandbuvangbekken" />
		<tag k="ssr:stedsnr" v="171646" />
		<tag k="waterway" v="stream" />
	</node>
	<node id="-122043" lat="61.7735944406" lon="9.488816669">
		<tag k="name" v="Vesleberget" />
		<tag k="natural" v="cape" />
		<tag k="ssr:stedsnr" v="595245" />
	</node>
	<node id="-122042" lat="61.7795499987" lon="9.49543611722">
		<tag k="name" v="Daleåa" />
		<tag k="ssr:stedsnr" v="595246" />
		<tag k="waterway" v="stream" />
	</node>
	<node id="-122039" lat="61.7452388882" lon="9.20641667605">
		<tag k="name" v="Grotbekken" />
		<tag k="ssr:stedsnr" v="595158" />
		<tag k="waterway" v="stream" />
	</node>
	<node id="-122281" lat="61.8772250042" lon="9.79669722309">
		<tag k="name" v="Lonin" />
		<tag k="natural" v="bay" />
		<tag k="ssr:stedsnr" v="678733" />
	</node>
	<node id="-120862" lat="61.7704833298" lon="9.43958333361">
		<tag k="name" v="Kampetjønn" />
		<tag k="natural" v="water" />
		<tag k="ssr:stedsnr" v="353687" />
	</node>
	<node id="-121008" lat="61.7481027775" lon="9.57095277985">
		<tag k="name" v="Steinbekken" />
		<tag k="ssr:stedsnr" v="474085" />
		<tag k="waterway" v="stream" />
	</node>
	<node id="-121544" lat="61.8542388867" lon="9.46174999945">
		<tag k="name" v="Vesleputten" />
		<tag k="natural" v="water" />
		<tag k="ssr:stedsnr" v="171905" />
		<tag k="water" v="pond" />
	</node>
	<node id="-121518" lat="61.7506833326" lon="9.5417777814">
		<tag k="name" v="Solhjemsøyene" />
		<tag k="place" v="island" />
		<tag k="ssr:stedsnr" v="171441" />
	</node>
	<node id="-122540" lat="61.7026249961" lon="9.24642776892">
		<tag k="name" v="Tvillingtjønnin" />
		<tag k="natural" v="water" />
		<tag k="ssr:stedsnr" v="799742" />
	</node>
	<node id="-122022" lat="61.8654277808" lon="9.44445000202">
		<tag k="name" v="Hårrtjønnin" />
		<tag k="natural" v="water" />
		<tag k="ssr:stedsnr" v="568859" />
	</node>
	<node id="-121509" lat="61.5932583302" lon="9.23145277514">
		<tag k="name" v="Nermuru" />
		<tag k="ssr:stedsnr" v="171047" />
		<tag k="waterway" v="stream" />
	</node>
	<node id="-121803" lat="61.7974250032" lon="9.45822499946">
		<tag k="name" v="Kvernhusbekken" />
		<tag k="ssr:stedsnr" v="435895" />
		<tag k="waterway" v="stream" />
	</node>
	<node id="-122018" lat="61.7878500017" lon="9.62039443853">
		<tag k="name" v="Bergetjønne" />
		<tag k="natural" v="water" />
		<tag k="ssr:stedsnr" v="557514" />
	</node>
	<node id="-122016" lat="61.8953638865" lon="9.56100833142">
		<tag k="name" v="Kjondalsbekken" />
		<tag k="ssr:stedsnr" v="556976" />
		<tag k="waterway" v="stream" />
	</node>
	<node id="-120944" lat="61.8510333337" lon="9.64899166149">
		<tag k="name" v="Storhaugtjønne" />
		<tag k="natural" v="water" />
		<tag k="ssr:stedsnr" v="375678" />
	</node>
	<node id="-122523" lat="61.767919444" lon="9.59414722916">
		<tag k="name" v="Nedre Svarttjønne" />
		<tag k="natural" v="water" />
		<tag k="ssr:stedsnr" v="799569" />
	</node>
	<node id="-121866" lat="61.7530166684" lon="9.1257555508">
		<tag k="alt_name" v="Slombbekken" />
		<tag k="name" v="Stombekken" />
		<tag k="ssr:stedsnr" v="496437" />
		<tag k="waterway" v="stream" />
	</node>
	<node id="-120943" lat="61.8590416639" lon="9.95247222667">
		<tag k="name" v="Musvolåe" />
		<tag k="ssr:stedsnr" v="375675" />
		<tag k="waterway" v="river" />
	</node>
	<node id="-121046" lat="61.8447305543" lon="9.35097221655">
		<tag k="name" v="Banken" />
		<tag k="natural" v="beach" />
		<tag k="ssr:stedsnr" v="474952" />
	</node>
	<node id="-120981" lat="61.7440999966" lon="9.65185000933">
		<tag k="name" v="Blomsæterbekken" />
		<tag k="ssr:stedsnr" v="413252" />
		<tag k="waterway" v="stream" />
	</node>
	<node id="-120980" lat="61.7417194459" lon="9.6343305632">
		<tag k="name" v="Øvre Sleotjern" />
		<tag k="natural" v="water" />
		<tag k="ssr:stedsnr" v="413249" />
	</node>
	<node id="-121491" lat="61.7740999973" lon="9.4931527699">
		<tag k="name" v="Hårrberget" />
		<tag k="natural" v="cape" />
		<tag k="ssr:stedsnr" v="170301" />
	</node>
	<node id="-121490" lat="61.7709388886" lon="9.52010555852">
		<tag k="name" v="Toøya" />
		<tag k="place" v="island" />
		<tag k="ssr:stedsnr" v="170280" />
	</node>
	<node id="-122513" lat="61.5912861116" lon="9.22231110542">
		<tag k="name" v="Kinnbekken" />
		<tag k="ssr:stedsnr" v="798500" />
		<tag k="waterway" v="stream" />
	</node>
	<node id="-121999" lat="61.8272416642" lon="9.54089999532">
		<tag k="name" v="Storskriubekken" />
		<tag k="ssr:stedsnr" v="556778" />
		<tag k="waterway" v="stream" />
	</node>
	<node id="-121484" lat="61.7610333319" lon="9.67020000876">
		<tag k="name" v="Håkonbekken" />
		<tag k="ssr:stedsnr" v="170237" />
		<tag k="waterway" v="stream" />
	</node>
	<node id="-120770" lat="61.7560611091" lon="9.62344166988">
		<tag k="name" v="Dalsbekken" />
		<tag k="ssr:stedsnr" v="314549" />
		<tag k="waterway" v="stream" />
	</node>
	<node id="-121992" lat="61.8447944417" lon="9.8571777729">
		<tag k="name" v="Leinåe" />
		<tag k="ssr:stedsnr" v="556718" />
		<tag k="waterway" v="stream" />
	</node>
	<node id="-122502" lat="61.8895472186" lon="9.45313610491">
		<tag k="name" v="Åmot" />
		<tag k="natural" v="waterfall" />
		<tag k="ssr:stedsnr" v="778757" />
	</node>
	<node id="-120769" lat="61.7581000021" lon="9.19928889333">
		<tag k="name" v="Lusa" />
		<tag k="ssr:stedsnr" v="314430" />
		<tag k="waterway" v="stream" />
	</node>
	<node id="-120779" lat="61.7008666654" lon="9.39228334071">
		<tag k="name" v="Grøndalsbekken" />
		<tag k="ssr:stedsnr" v="314715" />
		<tag k="waterway" v="stream" />
	</node>
	<node id="-120962" lat="61.8191361151" lon="9.70301111673">
		<tag k="name" v="Søla" />
		<tag k="natural" v="water" />
		<tag k="ssr:stedsnr" v="414301" />
	</node>
	<node id="-121983" lat="61.7129611126" lon="9.34768333699">
		<tag k="name" v="Skitjønnbekken" />
		<tag k="ssr:stedsnr" v="556689" />
		<tag k="waterway" v="stream" />
	</node>
	<node id="-121651" lat="61.7906277761" lon="9.59207499285">
		<tag k="name" v="Veslebekken" />
		<tag k="ssr:stedsnr" v="232145" />
		<tag k="waterway" v="stream" />
	</node>
	<node id="-121706" lat="61.7264277746" lon="9.39379999051">
		<tag k="alt_name" v="Ødegårdsbekken" />
		<tag k="name" v="Bredbekken" />
		<tag k="old_name" v="Ødeårdsbekken" />
		<tag k="ssr:stedsnr" v="253647" />
		<tag k="waterway" v="stream" />
	</node>
	<node id="-121978" lat="61.6068249967" lon="9.22248056239">
		<tag k="alt_name" v="Muru, nordre;Nørdre Muru" />
		<tag k="name" v="Muru" />
		<tag k="ssr:stedsnr" v="556583" />
		<tag k="waterway" v="river" />
	</node>
	<node id="-121977" lat="61.6135000006" lon="9.23174999972">
		<tag k="name" v="Rova" />
		<tag k="ssr:stedsnr" v="556547" />
		<tag k="waterway" v="river" />
	</node>
	<node id="-121976" lat="61.699080554" lon="9.17893889678">
		<tag k="alt_name" v="Tråsåfossen, nedre;Nedre Tråsåfoss" />
		<tag k="name" v="Nedre Tråsåfossen" />
		<tag k="natural" v="waterfall" />
		<tag k="ssr:stedsnr" v="555980" />
	</node>
	<node id="-122487" lat="61.8413472198" lon="9.44498889482">
		<tag k="name" v="Kvilte" />
		<tag k="ssr:stedsnr" v="778586" />
		<tag k="waterway" v="stream" />
	</node>
	<node id="-121974" lat="61.7770750014" lon="9.24546389168">
		<tag k="name" v="Trykju" />
		<tag k="ssr:stedsnr" v="555814" />
		<tag k="waterway" v="river" />
	</node>
	<node id="-121705" lat="61.7859167008" lon="9.63519220716">
		<tag k="name" v="Holtjønne" />
		<tag k="natural" v="water" />
		<tag k="ssr:stedsnr" v="253561" />
		<tag k="water" v="lake" />
	</node>
	<node id="-120761" lat="61.6389888847" lon="9.17928889343">
		<tag k="name" v="Hestkneikbekken" />
		<tag k="ssr:stedsnr" v="313798" />
		<tag k="waterway" v="stream" />
	</node>
	<node id="-122480" lat="61.7535222255" lon="9.54331667062">
		<tag k="name" v="Bukkeodden" />
		<tag k="natural" v="cape" />
		<tag k="ssr:stedsnr" v="778443" />
	</node>
	<node id="-121192" lat="61.8688277775" lon="9.61792222204">
		<tag k="name" v="Vassbekken" />
		<tag k="ssr:stedsnr" v="11745" />
		<tag k="waterway" v="stream" />
	</node>
	<node id="-121965" lat="61.7272416687" lon="9.24953888671">
		<tag k="name" v="Bjørstadtjønne" />
		<tag k="natural" v="water" />
		<tag k="ssr:stedsnr" v="555596" />
	</node>
	<node id="-121451" lat="61.7775138899" lon="9.62916944895">
		<tag k="name" v="Langtjønne" />
		<tag k="natural" v="water" />
		<tag k="ssr:stedsnr" v="132553" />
	</node>
	<node id="-121450" lat="61.7672272093" lon="9.63265782735">
		<tag k="name" v="Smukksjøen" />
		<tag k="natural" v="water" />
		<tag k="ssr:stedsnr" v="132542" />
		<tag k="water" v="lake" />
	</node>
	<node id="-121449" lat="61.7871277739" lon="9.59765832911">
		<tag k="name" v="Kvernhusbekken" />
		<tag k="ssr:stedsnr" v="132521" />
		<tag k="waterway" v="stream" />
	</node>
	<node id="-121958" lat="61.8324916676" lon="9.4351750013">
		<tag k="name" v="Brennebekken" />
		<tag k="ssr:stedsnr" v="536590" />
		<tag k="waterway" v="stream" />
	</node>
	<node id="-121873" lat="61.9091277741" lon="9.47674722541">
		<tag k="name" v="Kvannslådalsåe" />
		<tag k="ssr:stedsnr" v="496988" />
		<tag k="waterway" v="river" />
	</node>
	<node id="-121919" lat="61.8263833357" lon="9.56430278288">
		<tag k="name" v="Storrustbekken" />
		<tag k="ssr:stedsnr" v="535185" />
		<tag k="waterway" v="stream" />
	</node>
	<node id="-121446" lat="61.7368583357" lon="9.1371527755">
		<tag k="alt_name" v="Slombbekken" />
		<tag k="name" v="Slombekken" />
		<tag k="ssr:stedsnr" v="131975" />
		<tag k="waterway" v="stream" />
	</node>
	<node id="-120928" lat="61.6067777773" lon="9.14123332572">
		<tag k="name" v="Eirstjørni" />
		<tag k="natural" v="water" />
		<tag k="ssr:stedsnr" v="374821" />
		<tag k="water" v="lake" />
	</node>
	<node id="-121872" lat="61.8969305515" lon="9.51116943578">
		<tag k="name" v="Høvringsåe" />
		<tag k="ssr:stedsnr" v="496972" />
		<tag k="waterway" v="stream" />
	</node>
	<node id="-121438" lat="61.6416861111" lon="9.21333055264">
		<tag k="name" v="Muru" />
		<tag k="ssr:stedsnr" v="131839" />
		<tag k="waterway" v="river" />
	</node>
	<node id="-121701" lat="61.7952583362" lon="9.3967305644">
		<tag k="name" v="Hovdastjønne" />
		<tag k="natural" v="water" />
		<tag k="ssr:stedsnr" v="252834" />
	</node>
	<node id="-120762" lat="61.6386027775" lon="9.14904165732">
		<tag k="name" v="Hestkneiktjørnin" />
		<tag k="natural" v="water" />
		<tag k="ssr:stedsnr" v="313804" />
	</node>
	<node id="-121434" lat="61.6719152181" lon="9.18897680832">
		<tag k="alt_name" v="Mæringsdalsvatnet" />
		<tag k="name" v="Meringsdalsvatnet" />
		<tag k="natural" v="water" />
		<tag k="ssr:stedsnr" v="131777" />
		<tag k="water" v="lake" />
	</node>
	<node id="-121943" lat="61.7882361087" lon="9.43478610713">
		<tag k="name" v="Gruvtjønn" />
		<tag k="natural" v="water" />
		<tag k="ssr:stedsnr" v="535695" />
	</node>
	<node id="-121187" lat="61.7075416663" lon="9.20511111955">
		<tag k="alt_name" v="Rustbekken" />
		<tag k="name" v="Rustmyrbekken" />
		<tag k="ssr:stedsnr" v="11000" />
		<tag k="waterway" v="stream" />
	</node>
	<node id="-121429" lat="61.6807527816" lon="9.24717500653">
		<tag k="name" v="Øvre Sundtjønn" />
		<tag k="natural" v="water" />
		<tag k="ssr:stedsnr" v="131743" />
	</node>
	<node id="-121699" lat="61.5897250009" lon="9.15010555228">
		<tag k="name" v="Butjørni" />
		<tag k="natural" v="water" />
		<tag k="ssr:stedsnr" v="252796" />
	</node>
	<node id="-121936" lat="61.7144048851" lon="9.54084615932">
		<tag k="name" v="Løken" />
		<tag k="natural" v="water" />
		<tag k="ssr:stedsnr" v="535615" />
	</node>
	<node id="-121423" lat="61.7150722256" lon="9.33909999812">
		<tag k="loc_name" v="Nedre Skitjønn" />
		<tag k="name" v="Nordre Skitjønnin" />
		<tag k="natural" v="water" />
		<tag k="ssr:stedsnr" v="131684" />
	</node>
	<node id="-120709" lat="61.7591666646" lon="9.32985556227">
		<tag k="name" v="Veslesæterbekken" />
		<tag k="ssr:stedsnr" v="292586" />
		<tag k="waterway" v="stream" />
	</node>
	<node id="-120906" lat="61.7647944434" lon="9.5795527865">
		<tag k="name" v="Butjønne" />
		<tag k="natural" v="water" />
		<tag k="ssr:stedsnr" v="374665" />
	</node>
	<node id="-121783" lat="61.6231944484" lon="9.29681110313">
		<tag k="alt_name" v="Veslemuvatnet, n;Nørdre Veslemugvatnet" />
		<tag k="loc_name" v="Nørdre Veslmugen" />
		<tag k="name" v="Nørdre Veslemuvatnet" />
		<tag k="natural" v="water" />
		<tag k="old_name" v="Nedre Veslemuvatnet;Veslemugvatnet nedre;n Veslemuvandet;Nedre Veslemugvatnet;Veslemuvatnet nedre" />
		<tag k="ssr:stedsnr" v="435534" />
	</node>
	<node id="-121416" lat="61.7273444487" lon="9.29743334101">
		<tag k="name" v="Krukstugutjønne" />
		<tag k="natural" v="water" />
		<tag k="ssr:stedsnr" v="131634" />
	</node>
	<node id="-121414" lat="61.6006722222" lon="9.31619166519">
		<tag k="alt_name" v="Veslemuvatnet, s;Veslemugvatnet søre;Søre Veslemugvatnet" />
		<tag k="loc_name" v="Søre Veslmugen" />
		<tag k="name" v="Søre Veslemuvatnet" />
		<tag k="natural" v="water" />
		<tag k="old_name" v="s Veslemuvandet" />
		<tag k="ssr:stedsnr" v="131538" />
	</node>
	<node id="-121412" lat="61.7614666635" lon="9.19995554935">
		<tag k="alt_name" v="Lustjønn" />
		<tag k="name" v="Lustjørni" />
		<tag k="natural" v="water" />
		<tag k="ssr:stedsnr" v="131373" />
	</node>
	<node id="-121410" lat="61.8747833295" lon="9.42736111363">
		<tag k="alt_name" v="Harrtjernbekken" />
		<tag k="name" v="Hårrtjønnbekken" />
		<tag k="ssr:stedsnr" v="111902" />
		<tag k="waterway" v="stream" />
	</node>
	<node id="-121867" lat="61.7887611112" lon="9.65773054877">
		<tag k="name" v="Klufttjønne" />
		<tag k="natural" v="water" />
		<tag k="ssr:stedsnr" v="496559" />
	</node>
	<node id="-120896" lat="61.7766444421" lon="9.60455000632">
		<tag k="name" v="Øvre Svarttjønne" />
		<tag k="natural" v="water" />
		<tag k="ssr:stedsnr" v="374539" />
	</node>
	<node id="-122431" lat="61.8621527803" lon="9.45258334038">
		<tag k="name" v="Søre Hårrtjønn" />
		<tag k="natural" v="water" />
		<tag k="ssr:stedsnr" v="739954" />
	</node>
	<node id="-122430" lat="61.866599999" lon="9.34625277558">
		<tag k="name" v="Fisketjønnbekken" />
		<tag k="ssr:stedsnr" v="739948" />
		<tag k="waterway" v="stream" />
	</node>
	<node id="-122429" lat="61.8641222202" lon="9.38920000309">
		<tag k="name" v="Roståe" />
		<tag k="ssr:stedsnr" v="739949" />
		<tag k="waterway" v="stream" />
	</node>
	<node id="-122428" lat="61.864799998" lon="9.32921945107">
		<tag k="name" v="Fisketjønne" />
		<tag k="natural" v="water" />
		<tag k="ssr:stedsnr" v="739945" />
	</node>
	<node id="-121915" lat="61.6845527801" lon="9.46556389273">
		<tag k="name" v="Jelkedalsbekken" />
		<tag k="ssr:stedsnr" v="535158" />
		<tag k="waterway" v="stream" />
	</node>
	<node id="-120888" lat="61.5757361071" lon="9.18917499877">
		<tag k="name" v="Buvassbekken" />
		<tag k="ssr:stedsnr" v="373808" />
		<tag k="waterway" v="stream" />
	</node>
	<node id="-122292" lat="61.8324444442" lon="9.70498054884">
		<tag k="loc_name" v="Brudesløret;Lurvefossen" />
		<tag k="name" v="Storulfossen" />
		<tag k="natural" v="waterfall" />
		<tag k="ssr:stedsnr" v="694548" />
	</node>
	<node id="-122422" lat="61.8390750037" lon="9.61016110906">
		<tag k="name" v="Kampstulbekken" />
		<tag k="ssr:stedsnr" v="739693" />
		<tag k="waterway" v="stream" />
	</node>
	<node id="-122421" lat="61.8649944459" lon="9.50248332649">
		<tag k="name" v="Skjærungåe" />
		<tag k="ssr:stedsnr" v="739957" />
		<tag k="waterway" v="stream" />
	</node>
	<node id="-120998" lat="61.755222136" lon="9.60129951518">
		<tag k="name" v="Mørtjønna" />
		<tag k="natural" v="water" />
		<tag k="ssr:stedsnr" v="474025" />
	</node>
	<node id="-122419" lat="61.7560277769" lon="9.64721944915">
		<tag k="name" v="Hesstjønne" />
		<tag k="natural" v="water" />
		<tag k="ssr:stedsnr" v="739514" />
	</node>
	<node id="-122418" lat="61.7552361128" lon="9.61038054724">
		<tag k="name" v="Heimtjønne" />
		<tag k="natural" v="water" />
		<tag k="ssr:stedsnr" v="739512" />
	</node>
	<node id="-122415" lat="61.8063000021" lon="9.41793333564">
		<tag k="alt_name" v="Skogtjønn" />
		<tag k="name" v="Skogtjønne" />
		<tag k="natural" v="water" />
		<tag k="ssr:stedsnr" v="738901" />
	</node>
	<node id="-121949" lat="61.8868055532" lon="9.47325277561">
		<tag k="name" v="Grotbekken" />
		<tag k="ssr:stedsnr" v="535756" />
		<tag k="waterway" v="stream" />
	</node>
	<node id="-121900" lat="61.7641861119" lon="9.56986110417">
		<tag k="name" v="Damtjønn" />
		<tag k="natural" v="water" />
		<tag k="ssr:stedsnr" v="535090" />
	</node>
	<node id="-120952" lat="61.8131666668" lon="9.58718611019">
		<tag k="name" v="Ulåktjønn" />
		<tag k="natural" v="water" />
		<tag k="ssr:stedsnr" v="414219" />
		<tag k="water" v="pond" />
	</node>
	<node id="-120874" lat="61.71757222" lon="9.59446666055">
		<tag k="name" v="Skarvåa" />
		<tag k="ssr:stedsnr" v="353939" />
		<tag k="waterway" v="stream" />
	</node>
	<node id="-122409" lat="61.767119443" lon="9.47712500141">
		<tag k="name" v="Veslgravåe" />
		<tag k="ssr:stedsnr" v="738838" />
		<tag k="waterway" v="stream" />
	</node>
	<node id="-122407" lat="61.7673888863" lon="9.46701110494">
		<tag k="name" v="Storgravåe" />
		<tag k="ssr:stedsnr" v="738833" />
		<tag k="waterway" v="stream" />
	</node>
	<node id="-122406" lat="61.5992616051" lon="9.1570511497">
		<tag k="name" v="Langvatnet" />
		<tag k="natural" v="water" />
		<tag k="ssr:stedsnr" v="738830" />
		<tag k="water" v="lake" />
	</node>
	<node id="-122405" lat="61.5930666689" lon="9.11784999255">
		<tag k="name" v="Leirtjørni" />
		<tag k="natural" v="water" />
		<tag k="ssr:stedsnr" v="738822" />
	</node>
	<node id="-121379" lat="61.7486805532" lon="9.54158889799">
		<tag k="name" v="Langøya" />
		<tag k="place" v="island" />
		<tag k="ssr:stedsnr" v="111418" />
	</node>
	<node id="-121890" lat="61.7472027803" lon="9.32346943791">
		<tag k="name" v="Kvernbekken" />
		<tag k="ssr:stedsnr" v="534600" />
		<tag k="waterway" v="stream" />
	</node>
	<node id="-122398" lat="61.669791665" lon="9.18976110705">
		<tag k="name" v="Langodden" />
		<tag k="natural" v="cape" />
		<tag k="ssr:stedsnr" v="738767" />
	</node>
	<node id="-120955" lat="61.8008944468" lon="9.57243888967">
		<tag k="name" v="Ula" />
		<tag k="ssr:stedsnr" v="435887" />
		<tag k="waterway" v="river" />
	</node>
	<node id="-121372" lat="61.815413889" lon="9.60624722726">
		<tag k="name" v="Lynningdalsbekken" />
		<tag k="ssr:stedsnr" v="111194" />
		<tag k="waterway" v="stream" />
	</node>
	<node id="-122395" lat="61.686625004" lon="9.3068500026">
		<tag k="fixme" v="multiple name tags, choose one and add the other to alt_name" />
		<tag k="name" v="Kvernbrusfiskeløysa;Øverdalsfiskeløysa" />
		<tag k="ssr:stedsnr" v="738749" />
		<tag k="waterway" v="stream" />
	</node>
	<node id="-121882" lat="61.6988972258" lon="9.22303056161">
		<tag k="name" v="Rustputtene" />
		<tag k="natural" v="water" />
		<tag k="ssr:stedsnr" v="534116" />
		<tag k="water" v="pond" />
	</node>
	<node id="-121007" lat="61.5902416706" lon="9.23159721984">
		<tag k="name" v="Tolstaddammen" />
		<tag k="ssr:stedsnr" v="474081" />
		<tag k="waterway" v="dam" />
	</node>
	<node id="-120750" lat="61.7132416698" lon="9.28500277017">
		<tag k="name" v="Veslerotjønne" />
		<tag k="natural" v="water" />
		<tag k="ssr:stedsnr" v="313670" />
	</node>
	<node id="-122385" lat="61.7085749998" lon="9.49891388408">
		<tag k="name" v="Storrtjønne" />
		<tag k="natural" v="water" />
		<tag k="ssr:stedsnr" v="738665" />
	</node>
	<node id="-122804" lat="61.7705222187" lon="9.67790000177">
		<tag k="name" v="Mørtjønne" />
		<tag k="natural" v="water" />
		<tag k="ssr:stedsnr" v="921574" />
	</node>
	<node id="-121955" lat="61.7528083374" lon="9.53859167048">
		<tag k="name" v="Bjørkeøya" />
		<tag k="place" v="island" />
		<tag k="ssr:stedsnr" v="536431" />
	</node>
	<node id="-121773" lat="61.7254666685" lon="9.61471111154">
		<tag k="name" v="Sekstjønnin" />
		<tag k="natural" v="water" />
		<tag k="ssr:stedsnr" v="434628" />
	</node>
	<node id="-122379" lat="61.7751611144" lon="9.66894444185">
		<tag k="name" v="Vangstjønne" />
		<tag k="natural" v="water" />
		<tag k="ssr:stedsnr" v="738550" />
	</node>
	<node id="-122378" lat="61.7717166646" lon="9.69425833922">
		<tag k="alt_name" v="Vassmellom" />
		<tag k="name" v="Vassmillom" />
		<tag k="natural" v="strait" />
		<tag k="ssr:stedsnr" v="738547" />
	</node>
	<node id="-120841" lat="61.8275861129" lon="9.64028889472">
		<tag k="name" v="Steindalsbekken" />
		<tag k="ssr:stedsnr" v="353384" />
		<tag k="waterway" v="stream" />
	</node>
	<node id="-120840" lat="61.8122277801" lon="9.63174445152">
		<tag k="name" v="Isakhølen" />
		<tag k="place" v="locality" />
		<tag k="ssr:stedsnr" v="353360" />
	</node>
	<node id="-121091" lat="61.8131694476" lon="9.64656387949">
		<tag k="name" v="Åmot" />
		<tag k="natural" v="cape" />
		<tag k="ssr:stedsnr" v="899347" />
	</node>
	<node id="-122374" lat="61.7508972193" lon="9.15979721749">
		<tag k="alt_name" v="Lusætertjønn" />
		<tag k="name" v="Lusætertjørni" />
		<tag k="natural" v="water" />
		<tag k="ssr:stedsnr" v="738402" />
	</node>
	<node id="-120883" lat="61.8341277798" lon="9.48213887971">
		<tag k="name" v="Steinsundet" />
		<tag k="natural" v="strait" />
		<tag k="ssr:stedsnr" v="414119" />
	</node>
	<node id="-122616" lat="61.7925027796" lon="9.60724721849">
		<tag k="name" v="Øvre Lorttjønn" />
		<tag k="natural" v="water" />
		<tag k="ssr:stedsnr" v="839167" />
	</node>
	<node id="-120833" lat="61.7865694431" lon="9.64654445173">
		<tag k="name" v="Vesletjønn" />
		<tag k="natural" v="water" />
		<tag k="ssr:stedsnr" v="353212" />
	</node>
</osm>
