<?xml version="1.0" encoding="UTF-8"?>
<osm generator="osmapis" version="0.6">
	<node id="-72800" lat="60.7060000034" lon="11.790883329">
		<tag k="bridge" v="yes" />
		<tag k="layer" v="1" />
		<tag k="name" v="Braskereidfoss kraftverk" />
		<tag k="ssr:stedsnr" v="714659" />
	</node>
	<node id="-72799" lat="60.8401583314" lon="12.1086722241">
		<tag k="bridge" v="yes" />
		<tag k="layer" v="1" />
		<tag k="name" v="Bøla bru" />
		<tag k="ssr:stedsnr" v="714657" />
	</node>
	<node id="-72894" lat="60.7063472217" lon="11.7919222199">
		<tag k="landuse" v="industrial" />
		<tag k="name" v="Braskereidfoss kraftverk" />
		<tag k="power" v="plant" />
		<tag k="ssr:stedsnr" v="770061" />
	</node>
	<node id="-72027" lat="60.8789333311" lon="12.0185166661">
		<tag k="bridge" v="yes" />
		<tag k="layer" v="1" />
		<tag k="name" v="Silksjødammen" />
		<tag k="ssr:stedsnr" v="107709" />
	</node>
	<node id="-73018" lat="60.8691333353" lon="12.0237527749">
		<tag k="name" v="Hjemvelta" />
		<tag k="place" v="locality" />
		<tag k="ssr:stedsnr" v="846988" />
	</node>
	<node id="-72121" lat="60.6379249979" lon="11.841749999">
		<tag k="bridge" v="yes" />
		<tag k="layer" v="1" />
		<tag k="name" v="Magneså" />
		<tag k="ssr:stedsnr" v="168680" />
	</node>
	<node id="-71706" lat="60.8680611123" lon="12.2639888811">
		<tag k="junction" v="yes" />
		<tag k="name" v="Stormyrkrysset" />
		<tag k="place" v="locality" />
		<tag k="ssr:stedsnr" v="358248" />
	</node>
	<node id="-71849" lat="60.8410888878" lon="12.1387250045">
		<tag k="bridge" v="yes" />
		<tag k="layer" v="1" />
		<tag k="name" v="Gjerdå" />
		<tag k="ssr:stedsnr" v="896742" />
	</node>
	<node id="-71848" lat="60.6980694438" lon="11.9074638888">
		<tag k="bridge" v="yes" />
		<tag k="layer" v="1" />
		<tag k="name" v="Strætkvern bru" />
		<tag k="ssr:stedsnr" v="896741" />
	</node>
	<node id="-72237" lat="60.7048194459" lon="11.8279777696">
		<tag k="bridge" v="yes" />
		<tag k="layer" v="1" />
		<tag k="name" v="Kåtbekken" />
		<tag k="ssr:stedsnr" v="228738" />
	</node>
	<node id="-73035" lat="60.6487138888" lon="11.8608027773">
		<tag k="name" v="Hasle" />
		<tag k="railway" v="station" />
		<tag k="ssr:stedsnr" v="857078" />
		<tag k="train" v="yes" />
	</node>
	<node id="-72265" lat="60.8370166638" lon="12.159952769">
		<tag k="highway" v="path" />
		<tag k="name" v="Finnvegen" />
		<tag k="ssr:stedsnr" v="239766" />
	</node>
	<node id="-72904" lat="60.7864499984" lon="11.9797749965">
		<tag k="bridge" v="yes" />
		<tag k="layer" v="1" />
		<tag k="name" v="Haukås" />
		<tag k="ssr:stedsnr" v="774728" />
	</node>
	<node id="-71847" lat="60.642258332" lon="11.8194777801">
		<tag k="bridge" v="yes" />
		<tag k="layer" v="1" />
		<tag k="name" v="Stjerterud" />
		<tag k="ssr:stedsnr" v="896736" />
	</node>
	<node id="-71686" lat="60.9154000025" lon="12.3017750037">
		<tag k="name" v="Govelta" />
		<tag k="place" v="locality" />
		<tag k="ssr:stedsnr" v="343346" />
	</node>
	<node id="-73157" lat="60.8611611134" lon="12.0643555542">
		<tag k="man_made" v="cairn" />
		<tag k="name" v="Varden" />
		<tag k="place" v="locality" />
		<tag k="ssr:stedsnr" v="952373" />
	</node>
	<node id="-72708" lat="60.9087166634" lon="12.1515027722">
		<tag k="name" v="Bjørkhullvelta" />
		<tag k="place" v="locality" />
		<tag k="ssr:stedsnr" v="661306" />
	</node>
	<node id="-71812" lat="60.872713886" lon="12.2187416578">
		<tag k="bridge" v="yes" />
		<tag k="layer" v="1" />
		<tag k="name" v="Ulvå bru" />
		<tag k="ssr:stedsnr" v="410696" />
	</node>
	<node id="-72802" lat="60.7180750002" lon="11.8204527735">
		<tag k="bridge" v="yes" />
		<tag k="layer" v="1" />
		<tag k="name" v="Kristmobekk bru" />
		<tag k="ssr:stedsnr" v="714669" />
	</node>
	<node id="-72801" lat="60.7479222265" lon="11.8765749939">
		<tag k="bridge" v="yes" />
		<tag k="layer" v="1" />
		<tag k="name" v="Tørråskvern" />
		<tag k="ssr:stedsnr" v="714668" />
	</node>
</osm>
