<?xml version="1.0" encoding="UTF-8"?>
<osm generator="osmapis" version="0.6">
	<node id="-73198" lat="60.7574302897" lon="11.9771524976">
		<tag k="fixme" v="consider boundary=protected_area and relevant protect_class if not nature reserve" />
		<tag k="leisure" v="nature_reserve" />
		<tag k="name" v="Verdensløpet naturreservat" />
		<tag k="ssr:stedsnr" v="980921" />
	</node>
	<node id="-71858" lat="60.6604622257" lon="11.6565279813">
		<tag k="fixme" v="consider boundary=protected_area and relevant protect_class if not nature reserve" />
		<tag k="leisure" v="nature_reserve" />
		<tag k="name" v="Sætersjøberget naturreservat" />
		<tag k="ssr:stedsnr" v="991082" />
	</node>
	<node id="-71857" lat="60.9142648533" lon="12.1999073398">
		<tag k="fixme" v="consider boundary=protected_area and relevant protect_class if not nature reserve" />
		<tag k="leisure" v="nature_reserve" />
		<tag k="name" v="Hemberget naturreservat" />
		<tag k="ssr:stedsnr" v="982693" />
	</node>
	<node id="-71856" lat="61.0064281831" lon="12.2127888643">
		<tag k="fixme" v="consider boundary=protected_area and relevant protect_class if not nature reserve" />
		<tag k="leisure" v="nature_reserve" />
		<tag k="name" v="Buberget naturreservat" />
		<tag k="ssr:stedsnr" v="982692" />
	</node>
	<node id="-72239" lat="60.8523611068" lon="12.3344833374">
		<tag k="historic" v="boundary_stone" />
		<tag k="man_made" v="cairn" />
		<tag k="name" v="Skarpgjuvbergsrøysa" />
		<tag k="old_name" v="Skarp Diupbergs Røset" />
		<tag k="place" v="locality" />
		<tag k="ssr:stedsnr" v="231283" />
	</node>
	<node id="-72238" lat="60.8900361114" lon="12.3328499976">
		<tag k="historic" v="boundary_stone" />
		<tag k="man_made" v="cairn" />
		<tag k="name" v="Gåsetjernsund" />
		<tag k="old_name" v="Gåsekiernssund" />
		<tag k="place" v="locality" />
		<tag k="ssr:stedsnr" v="231281" />
	</node>
	<node id="-73164" lat="60.8967972204" lon="12.3268222221">
		<tag k="historic" v="boundary_stone" />
		<tag k="man_made" v="cairn" />
		<tag k="name" v="Nordre Tjernsundsrøysa" />
		<tag k="old_name" v="Nordre Kiærnsunds Røset" />
		<tag k="place" v="locality" />
		<tag k="ssr:stedsnr" v="959229" />
	</node>
	<node id="-71814" lat="60.9214222241" lon="12.3048500011">
		<tag k="historic" v="boundary_stone" />
		<tag k="man_made" v="cairn" />
		<tag k="name" v="Svartbekksrøysa" />
		<tag k="old_name" v="Svartebeks Røset" />
		<tag k="place" v="locality" />
		<tag k="ssr:stedsnr" v="413279" />
	</node>
	<node id="-71813" lat="60.8867666651" lon="12.3327833307">
		<tag k="historic" v="boundary_stone" />
		<tag k="man_made" v="cairn" />
		<tag k="name" v="Søndre Tjernsundsrøysa" />
		<tag k="old_name" v="Sødre Kiærnsunds Røset" />
		<tag k="place" v="locality" />
		<tag k="ssr:stedsnr" v="413275" />
	</node>
	<node id="-72804" lat="60.9296388857" lon="12.29736389">
		<tag k="historic" v="boundary_stone" />
		<tag k="man_made" v="cairn" />
		<tag k="name" v="Steinmyra" />
		<tag k="place" v="locality" />
		<tag k="ssr:stedsnr" v="717251" />
	</node>
	<node id="-72515" lat="61.0130777822" lon="12.2239944423">
		<tag k="historic" v="boundary_stone" />
		<tag k="man_made" v="cairn" />
		<tag k="name" v="Bakklintsrøysa" />
		<tag k="old_name" v="Bakklindt Røset" />
		<tag k="place" v="locality" />
		<tag k="ssr:stedsnr" v="534250" />
	</node>
</osm>
