<?xml version="1.0" encoding="UTF-8"?>
<osm generator="osmapis" version="0.6">
	<node id="-499708" lat="60.9581305582" lon="5.05971666203">
		<tag k="name" v="Vesetvika" />
		<tag k="ssr:date" v="2019-05-31" />
		<tag k="ssr:gruppe" v="veg" />
		<tag k="ssr:hovedgruppe" v="infrastruktur" />
		<tag k="ssr:stedsnr" v="238261" />
		<tag k="ssr:type" v="adressenavn" />
	</node>
	<node id="-499707" lat="60.8751194401" lon="4.78318055604">
		<tag k="alt_name" v="Røytingkalven" />
		<tag k="name" v="Røytingkalven lykt" />
		<tag k="ssr:date" v="2016-05-10" />
		<tag k="ssr:gruppe" v="navigasjon" />
		<tag k="ssr:hovedgruppe" v="infrastruktur" />
		<tag k="ssr:stedsnr" v="236622" />
		<tag k="ssr:type" v="fyrlykt" />
	</node>
	<node id="-499706" lat="60.9111222266" lon="5.13357222934">
		<tag k="name" v="Grindevika" />
		<tag k="ssr:date" v="2019-05-31" />
		<tag k="ssr:gruppe" v="veg" />
		<tag k="ssr:hovedgruppe" v="infrastruktur" />
		<tag k="ssr:stedsnr" v="223456" />
		<tag k="ssr:type" v="adressenavn" />
	</node>
	<node id="-500984" lat="60.948988888" lon="4.97734167061">
		<tag k="name" v="Bårøyna" />
		<tag k="ssr:date" v="2019-05-31" />
		<tag k="ssr:gruppe" v="veg" />
		<tag k="ssr:hovedgruppe" v="infrastruktur" />
		<tag k="ssr:stedsnr" v="708506" />
		<tag k="ssr:type" v="adressenavn" />
	</node>
	<node id="-499319" lat="60.9873333334" lon="4.79879999603">
		<tag k="name" v="Rossøyna varde" />
		<tag k="old_name" v="Rossøy varde;Rosøy varde" />
		<tag k="ssr:date" v="2016-05-10" />
		<tag k="ssr:gruppe" v="navigasjon" />
		<tag k="ssr:hovedgruppe" v="infrastruktur" />
		<tag k="ssr:stedsnr" v="146017" />
		<tag k="ssr:type" v="fyrlykt" />
	</node>
	<node id="-500854" lat="60.9024472253" lon="4.90556666173">
		<tag k="alt_name" v="Bolten" />
		<tag k="name" v="Bolten lykt" />
		<tag k="ssr:date" v="2016-05-11" />
		<tag k="ssr:gruppe" v="navigasjon" />
		<tag k="ssr:hovedgruppe" v="infrastruktur" />
		<tag k="ssr:stedsnr" v="692091" />
		<tag k="ssr:type" v="fyrlykt" />
	</node>
	<node id="-501487" lat="60.8543972255" lon="4.93284722712">
		<tag k="alt_name" v="Vikingneset" />
		<tag k="name" v="Vikingneset lykt" />
		<tag k="old_name" v="Vikingeneset" />
		<tag k="ssr:date" v="2016-05-11" />
		<tag k="ssr:gruppe" v="navigasjon" />
		<tag k="ssr:hovedgruppe" v="infrastruktur" />
		<tag k="ssr:stedsnr" v="858381" />
		<tag k="ssr:type" v="fyrlykt" />
	</node>
	<node id="-500077" lat="60.9927027758" lon="4.92225833066">
		<tag k="alt_name" v="Syllingsvåg" />
		<tag k="name" v="Syllingsvåg lykt" />
		<tag k="old_name" v="Syllingsvågen" />
		<tag k="ssr:date" v="2016-05-10" />
		<tag k="ssr:gruppe" v="navigasjon" />
		<tag k="ssr:hovedgruppe" v="infrastruktur" />
		<tag k="ssr:stedsnr" v="492356" />
		<tag k="ssr:type" v="fyrlykt" />
	</node>
	<node id="-501820" lat="60.9473749987" lon="4.76211111934">
		<tag k="alt_name" v="Sogneoksen" />
		<tag k="name" v="Sogneoksen lykt" />
		<tag k="ssr:date" v="2016-05-11" />
		<tag k="ssr:gruppe" v="navigasjon" />
		<tag k="ssr:hovedgruppe" v="infrastruktur" />
		<tag k="ssr:stedsnr" v="964655" />
		<tag k="ssr:type" v="fyrlykt" />
	</node>
	<node id="-501578" lat="60.9241333301" lon="4.80416389484">
		<tag k="name" v="Kversøyna" />
		<tag k="ssr:date" v="2019-05-31" />
		<tag k="ssr:gruppe" v="veg" />
		<tag k="ssr:hovedgruppe" v="infrastruktur" />
		<tag k="ssr:stedsnr" v="905502" />
		<tag k="ssr:type" v="adressenavn" />
	</node>
	<node id="-499808" lat="60.9093416651" lon="4.95810832753">
		<tag k="alt_name" v="Ånnelandsund" />
		<tag k="name" v="Ånnelandsund lykt" />
		<tag k="ssr:date" v="2016-05-10" />
		<tag k="ssr:gruppe" v="navigasjon" />
		<tag k="ssr:hovedgruppe" v="infrastruktur" />
		<tag k="ssr:stedsnr" v="268001" />
		<tag k="ssr:type" v="fyrlykt" />
	</node>
	<node id="-498143" lat="60.9730944445" lon="5.03607222169">
		<tag k="alt_name" v="Fålefoten;Fålefoten lykt" />
		<tag k="name" v="Folefoten lykt" />
		<tag k="ssr:date" v="2016-05-10" />
		<tag k="ssr:gruppe" v="navigasjon" />
		<tag k="ssr:hovedgruppe" v="infrastruktur" />
		<tag k="ssr:stedsnr" v="310333" />
		<tag k="ssr:type" v="fyrlykt" />
	</node>
	<node id="-500741" lat="60.9719583325" lon="5.06776945301">
		<tag k="name" v="Fonna" />
		<tag k="ssr:date" v="2019-05-31" />
		<tag k="ssr:gruppe" v="veg" />
		<tag k="ssr:hovedgruppe" v="infrastruktur" />
		<tag k="ssr:stedsnr" v="647444" />
		<tag k="ssr:type" v="adressenavn" />
	</node>
	<node id="-500986" lat="60.9584166689" lon="4.90899445204">
		<tag k="name" v="Vatnøyna" />
		<tag k="ssr:date" v="2019-05-31" />
		<tag k="ssr:gruppe" v="veg" />
		<tag k="ssr:hovedgruppe" v="infrastruktur" />
		<tag k="ssr:stedsnr" v="723255" />
		<tag k="ssr:type" v="adressenavn" />
	</node>
	<node id="-501583" lat="60.9504638867" lon="4.93669166541">
		<tag k="alt_name" v="Vassøyna" />
		<tag k="name" v="Vassøyna lykt" />
		<tag k="old_name" v="Store Vassøyna;Store Vatsøy" />
		<tag k="ssr:date" v="2016-05-11" />
		<tag k="ssr:gruppe" v="navigasjon" />
		<tag k="ssr:hovedgruppe" v="infrastruktur" />
		<tag k="ssr:stedsnr" v="917256" />
		<tag k="ssr:type" v="fyrlykt" />
	</node>
	<node id="-500056" lat="60.9520305535" lon="5.12102500772">
		<tag k="name" v="Klokkeidet" />
		<tag k="ssr:date" v="2019-05-31" />
		<tag k="ssr:gruppe" v="veg" />
		<tag k="ssr:hovedgruppe" v="infrastruktur" />
		<tag k="ssr:stedsnr" v="465443" />
		<tag k="ssr:type" v="adressenavn" />
	</node>
	<node id="-501842" lat="60.8816104596" lon="6.30047518531">
		<tag k="name" v="Vestlandet" />
		<tag k="ssr:date" v="2019-01-06" />
		<tag k="ssr:gruppe" v="administrativeIndelinger" />
		<tag k="ssr:hovedgruppe" v="offentligAdministrasjon" />
		<tag k="ssr:stedsnr" v="974777" />
		<tag k="ssr:type" v="annenAdministrativInndeling" />
	</node>
	<node id="-498767" lat="60.8748749967" lon="4.86312500386">
		<tag k="alt_name" v="Ærholmen" />
		<tag k="name" v="Ærholmen lykt" />
		<tag k="ssr:date" v="2016-05-10" />
		<tag k="ssr:gruppe" v="navigasjon" />
		<tag k="ssr:hovedgruppe" v="infrastruktur" />
		<tag k="ssr:stedsnr" v="8438" />
		<tag k="ssr:type" v="fyrlykt" />
	</node>
	<node id="-501452" lat="60.859122222" lon="5.04065833888">
		<tag k="name" v="Brandangersd. bøyen" />
		<tag k="ssr:date" v="2016-05-11" />
		<tag k="ssr:gruppe" v="navigasjon" />
		<tag k="ssr:hovedgruppe" v="infrastruktur" />
		<tag k="ssr:stedsnr" v="845684" />
		<tag k="ssr:type" v="lanterne" />
	</node>
	<node id="-500171" lat="60.9509388908" lon="4.9584805601">
		<tag k="alt_name" v="Litle Bjorøyna" />
		<tag k="name" v="Litle Bjorøyna lykt" />
		<tag k="old_name" v="Lille Bjørøy" />
		<tag k="ssr:date" v="2016-05-10" />
		<tag k="ssr:gruppe" v="navigasjon" />
		<tag k="ssr:hovedgruppe" v="infrastruktur" />
		<tag k="ssr:stedsnr" v="513665" />
		<tag k="ssr:type" v="fyrlykt" />
	</node>
	<node id="-498122" lat="60.9807944473" lon="4.82127778354">
		<tag k="name" v="Hille" />
		<tag k="ssr:date" v="2019-05-31" />
		<tag k="ssr:gruppe" v="veg" />
		<tag k="ssr:hovedgruppe" v="infrastruktur" />
		<tag k="ssr:stedsnr" v="283372" />
		<tag k="ssr:type" v="adressenavn" />
	</node>
	<node id="-500983" lat="60.9884138875" lon="4.88560832795">
		<tag k="name" v="Glavær" />
		<tag k="ssr:date" v="2019-05-31" />
		<tag k="ssr:gruppe" v="veg" />
		<tag k="ssr:hovedgruppe" v="infrastruktur" />
		<tag k="ssr:stedsnr" v="708447" />
		<tag k="ssr:type" v="adressenavn" />
	</node>
	<node id="-499468" lat="60.9589638902" lon="4.80872222537">
		<tag k="name" v="Kvernøyane" />
		<tag k="ssr:date" v="2019-05-31" />
		<tag k="ssr:gruppe" v="veg" />
		<tag k="ssr:hovedgruppe" v="infrastruktur" />
		<tag k="ssr:stedsnr" v="177505" />
		<tag k="ssr:type" v="adressenavn" />
	</node>
	<node id="-500554" lat="61.0902361134" lon="5.17083333951">
		<tag k="name" v="Rutletangen" />
		<tag k="old_name" v="Rutletangen lykt" />
		<tag k="ssr:date" v="2016-05-10" />
		<tag k="ssr:gruppe" v="navigasjon" />
		<tag k="ssr:hovedgruppe" v="infrastruktur" />
		<tag k="ssr:stedsnr" v="615562" />
		<tag k="ssr:type" v="fyrlykt" />
	</node>
	<node id="-498492" lat="60.9806186399" lon="5.05877573348">
		<tag k="name" v="Prestesundet" />
		<tag k="ssr:date" v="2019-05-31" />
		<tag k="ssr:gruppe" v="veg" />
		<tag k="ssr:hovedgruppe" v="infrastruktur" />
		<tag k="ssr:stedsnr" v="1051997" />
		<tag k="ssr:type" v="adressenavn" />
	</node>
	<node id="-498491" lat="60.9939674313" lon="5.03793702368">
		<tag k="name" v="Blomlia" />
		<tag k="ssr:date" v="2019-05-31" />
		<tag k="ssr:gruppe" v="veg" />
		<tag k="ssr:hovedgruppe" v="infrastruktur" />
		<tag k="ssr:stedsnr" v="1051986" />
		<tag k="ssr:type" v="adressenavn" />
	</node>
	<node id="-498490" lat="60.9553550853" lon="5.13700991248">
		<tag k="name" v="Åmdalsvika" />
		<tag k="ssr:date" v="2019-05-31" />
		<tag k="ssr:gruppe" v="veg" />
		<tag k="ssr:hovedgruppe" v="infrastruktur" />
		<tag k="ssr:stedsnr" v="1051984" />
		<tag k="ssr:type" v="adressenavn" />
	</node>
	<node id="-499254" lat="60.8318777814" lon="5.09649166746">
		<tag k="alt_name" v="Halsvikklubben" />
		<tag k="name" v="Halsvikklubben lykt" />
		<tag k="ssr:date" v="2016-05-10" />
		<tag k="ssr:gruppe" v="navigasjon" />
		<tag k="ssr:hovedgruppe" v="infrastruktur" />
		<tag k="ssr:stedsnr" v="129550" />
		<tag k="ssr:type" v="fyrlykt" />
	</node>
	<node id="-498993" lat="60.9635166691" lon="4.95791943735">
		<tag k="name" v="Vassøyna" />
		<tag k="ssr:date" v="2019-05-31" />
		<tag k="ssr:gruppe" v="veg" />
		<tag k="ssr:hovedgruppe" v="infrastruktur" />
		<tag k="ssr:stedsnr" v="56245" />
		<tag k="ssr:type" v="adressenavn" />
	</node>
	<node id="-498215" lat="61.0321666648" lon="5.46593889344">
		<tag k="alt_name" v="Ortneset" />
		<tag k="name" v="Ortneset lykt" />
		<tag k="ssr:date" v="2016-05-10" />
		<tag k="ssr:gruppe" v="navigasjon" />
		<tag k="ssr:hovedgruppe" v="infrastruktur" />
		<tag k="ssr:stedsnr" v="312873" />
		<tag k="ssr:type" v="fyrlykt" />
	</node>
	<node id="-501322" lat="60.9819166659" lon="5.0741222254">
		<tag k="alt_name" v="Gulen" />
		<tag k="name" v="Gulen kommune" />
		<tag k="old_name" v="Evenvik" />
		<tag k="ssr:date" v="2016-05-11" />
		<tag k="ssr:gruppe" v="administrativeIndelinger" />
		<tag k="ssr:hovedgruppe" v="offentligAdministrasjon" />
		<tag k="ssr:stedsnr" v="814044" />
		<tag k="ssr:type" v="kommune" />
	</node>
	<node id="-500512" lat="60.9666888922" lon="4.99224167133">
		<tag k="alt_name" v="Storholmen" />
		<tag k="name" v="Storholmen lykt" />
		<tag k="ssr:date" v="2016-05-10" />
		<tag k="ssr:gruppe" v="navigasjon" />
		<tag k="ssr:hovedgruppe" v="infrastruktur" />
		<tag k="ssr:stedsnr" v="613309" />
		<tag k="ssr:type" v="fyrlykt" />
	</node>
	<node id="-499231" lat="60.8662324451" lon="4.61911086246">
		<tag k="name" v="Bergskallen lysbøye" />
		<tag k="ssr:date" v="2016-12-30" />
		<tag k="ssr:gruppe" v="navigasjon" />
		<tag k="ssr:hovedgruppe" v="infrastruktur" />
		<tag k="ssr:stedsnr" v="116822" />
		<tag k="ssr:type" v="lysbøye" />
	</node>
	<node id="-499461" lat="60.9360166642" lon="4.82395832886">
		<tag k="name" v="Koksøyna" />
		<tag k="ssr:date" v="2019-05-31" />
		<tag k="ssr:gruppe" v="veg" />
		<tag k="ssr:hovedgruppe" v="infrastruktur" />
		<tag k="ssr:stedsnr" v="162496" />
		<tag k="ssr:type" v="adressenavn" />
	</node>
	<node id="-499094" lat="60.8649444429" lon="4.82280278262">
		<tag k="name" v="Hillesøystabben lanterne" />
		<tag k="ssr:date" v="2016-05-10" />
		<tag k="ssr:gruppe" v="navigasjon" />
		<tag k="ssr:hovedgruppe" v="infrastruktur" />
		<tag k="ssr:stedsnr" v="85332" />
		<tag k="ssr:type" v="lanterne" />
	</node>
	<node id="-499861" lat="60.8974805539" lon="4.83026110399">
		<tag k="alt_name" v="Bardvåg" />
		<tag k="name" v="Bardvågen" />
		<tag k="ssr:date" v="2016-05-10" />
		<tag k="ssr:gruppe" v="navigasjon" />
		<tag k="ssr:hovedgruppe" v="infrastruktur" />
		<tag k="ssr:stedsnr" v="433423" />
		<tag k="ssr:type" v="fyrlykt" />
	</node>
	<node id="-499596" lat="60.9853694436" lon="5.12325000442">
		<tag k="name" v="Gulen" />
		<tag k="ssr:date" v="2016-05-10" />
		<tag k="ssr:gruppe" v="terrengområder" />
		<tag k="ssr:hovedgruppe" v="terreng" />
		<tag k="ssr:stedsnr" v="210813" />
		<tag k="ssr:type" v="landskapsområde" />
	</node>
	<node id="-499467" lat="61.0806250017" lon="5.17110555319">
		<tag k="name" v="Kyrkjøyna" />
		<tag k="ssr:date" v="2019-05-31" />
		<tag k="ssr:gruppe" v="veg" />
		<tag k="ssr:hovedgruppe" v="infrastruktur" />
		<tag k="ssr:stedsnr" v="177496" />
		<tag k="ssr:type" v="adressenavn" />
	</node>
	<node id="-500744" lat="60.854519442" lon="4.85334167532">
		<tag k="name" v="Hillesøyflua lanterne" />
		<tag k="ssr:date" v="2016-05-10" />
		<tag k="ssr:gruppe" v="navigasjon" />
		<tag k="ssr:hovedgruppe" v="infrastruktur" />
		<tag k="ssr:stedsnr" v="662600" />
		<tag k="ssr:type" v="lanterne" />
	</node>
	<node id="-498182" lat="60.8724139981" lon="4.77211385537">
		<tag k="alt_name" v="Brosmeskjærene;Brosmeskjærene lanterne" />
		<tag k="name" v="Brosmeskjera lanterne" />
		<tag k="ssr:date" v="2017-04-18" />
		<tag k="ssr:gruppe" v="navigasjon" />
		<tag k="ssr:hovedgruppe" v="infrastruktur" />
		<tag k="ssr:stedsnr" v="312414" />
		<tag k="ssr:type" v="lanterne" />
	</node>
	<node id="-498181" lat="60.8803305546" lon="4.96525000249">
		<tag k="alt_name" v="Grytenes" />
		<tag k="name" v="Grytenes lykt" />
		<tag k="old_name" v="Gryteneset" />
		<tag k="ssr:date" v="2016-05-10" />
		<tag k="ssr:gruppe" v="navigasjon" />
		<tag k="ssr:hovedgruppe" v="infrastruktur" />
		<tag k="ssr:stedsnr" v="312406" />
		<tag k="ssr:type" v="fyrlykt" />
	</node>
	<node id="-500354" lat="61.034311108" lon="5.02136388647">
		<tag k="alt_name" v="Dingenes" />
		<tag k="name" v="Dingenes lykt" />
		<tag k="ssr:date" v="2016-05-10" />
		<tag k="ssr:gruppe" v="navigasjon" />
		<tag k="ssr:hovedgruppe" v="infrastruktur" />
		<tag k="ssr:stedsnr" v="555392" />
		<tag k="ssr:type" v="fyrlykt" />
	</node>
</osm>
