<?xml version="1.0" encoding="UTF-8"?>
<osm generator="osmapis" version="0.6">
	<node id="-468992" lat="60.2787275867" lon="5.71536317411">
		<tag k="historic" v="shieling" />
		<tag k="name" v="Skitnestølen" />
		<tag k="place" v="locality" />
		<tag k="ssr:stedsnr" v="825671" />
	</node>
	<node id="-466924" lat="60.2821111147" lon="5.83363610805">
		<tag k="historic" v="shieling" />
		<tag k="name" v="Skaråsetret" />
		<tag k="place" v="locality" />
		<tag k="ssr:stedsnr" v="280506" />
	</node>
	<node id="-468446" lat="60.3042583305" lon="5.68679999577">
		<tag k="historic" v="shieling" />
		<tag k="name" v="Kolamilstølen" />
		<tag k="place" v="locality" />
		<tag k="ssr:stedsnr" v="583991" />
	</node>
	<node id="-467421" lat="60.2924361092" lon="5.83126943919">
		<tag k="name" v="Vetlalindura" />
		<tag k="natural" v="scree" />
		<tag k="ssr:stedsnr" v="36374" />
	</node>
	<node id="-467929" lat="60.2832416658" lon="5.7049111046">
		<tag k="name" v="Leinene" />
		<tag k="natural" v="stone" />
		<tag k="ssr:stedsnr" v="219806" />
	</node>
	<node id="-466899" lat="60.2609472181" lon="5.71470556233">
		<tag k="historic" v="shieling" />
		<tag k="name" v="Nysetret" />
		<tag k="place" v="locality" />
		<tag k="ssr:stedsnr" v="279741" />
	</node>
	<node id="-467409" lat="60.2431472251" lon="5.64943610391">
		<tag k="name" v="Storura" />
		<tag k="natural" v="scree" />
		<tag k="ssr:stedsnr" v="24141" />
	</node>
	<node id="-466888" lat="60.1693944482" lon="5.81536944135">
		<tag k="historic" v="shieling" />
		<tag k="name" v="Sauaseteret" />
		<tag k="place" v="locality" />
		<tag k="ssr:stedsnr" v="279518" />
	</node>
	<node id="-466887" lat="60.1598555523" lon="5.78774167547">
		<tag k="historic" v="shieling" />
		<tag k="name" v="Baldersheimsetret" />
		<tag k="place" v="locality" />
		<tag k="ssr:stedsnr" v="279513" />
	</node>
	<node id="-468420" lat="60.271052777" lon="5.80788888874">
		<tag k="historic" v="shieling" />
		<tag k="name" v="Bjørndalstølen" />
		<tag k="place" v="locality" />
		<tag k="ssr:stedsnr" v="583716" />
	</node>
	<node id="-466881" lat="60.2522166645" lon="5.88959999842">
		<tag k="name" v="Moltemyr" />
		<tag k="natural" v="wetland" />
		<tag k="ssr:stedsnr" v="279457" />
	</node>
	<node id="-466874" lat="60.177505554" lon="5.64899166594">
		<tag k="historic" v="shieling" />
		<tag k="name" v="Setret" />
		<tag k="place" v="locality" />
		<tag k="ssr:stedsnr" v="278841" />
	</node>
	<node id="-466873" lat="60.1957916649" lon="5.64148333793">
		<tag k="historic" v="shieling" />
		<tag k="name" v="Vetlasetret" />
		<tag k="place" v="locality" />
		<tag k="ssr:stedsnr" v="278825" />
	</node>
	<node id="-468408" lat="60.1905777795" lon="5.85299445134">
		<tag k="historic" v="shieling" />
		<tag k="name" v="Kilasetret" />
		<tag k="place" v="locality" />
		<tag k="ssr:stedsnr" v="583305" />
	</node>
	<node id="-466871" lat="60.2070583328" lon="5.72565000493">
		<tag k="historic" v="shieling" />
		<tag k="name" v="Ljotåsetret" />
		<tag k="place" v="locality" />
		<tag k="ssr:stedsnr" v="278719" />
	</node>
	<node id="-466870" lat="60.2077777734" lon="5.75936666679">
		<tag k="historic" v="shieling" />
		<tag k="name" v="Gamlestølen" />
		<tag k="place" v="locality" />
		<tag k="ssr:stedsnr" v="278569" />
	</node>
	<node id="-467890" lat="60.3023277819" lon="5.82132778616">
		<tag k="name" v="Lindura" />
		<tag k="natural" v="scree" />
		<tag k="ssr:stedsnr" v="219415" />
	</node>
	<node id="-468912" lat="60.2523722239" lon="5.61330556113">
		<tag k="name" v="Kleppemyra" />
		<tag k="natural" v="wetland" />
		<tag k="ssr:stedsnr" v="765961" />
	</node>
	<node id="-468909" lat="60.0897944446" lon="5.76531111562">
		<tag k="historic" v="shieling" />
		<tag k="name" v="Vendekleivstølen" />
		<tag k="place" v="locality" />
		<tag k="ssr:stedsnr" v="765918" />
	</node>
	<node id="-467883" lat="60.1870416628" lon="5.87174166047">
		<tag k="historic" v="shieling" />
		<tag k="name" v="Gamlestølen" />
		<tag k="place" v="locality" />
		<tag k="ssr:stedsnr" v="219325" />
	</node>
	<node id="-467367" lat="60.210313889" lon="5.78108611978">
		<tag k="historic" v="shieling" />
		<tag k="name" v="Sævareidstølen" />
		<tag k="place" v="locality" />
		<tag k="ssr:stedsnr" v="4116" />
	</node>
	<node id="-468893" lat="60.2715416666" lon="5.80018888614">
		<tag k="historic" v="shieling" />
		<tag k="name" v="Berhovdestølen" />
		<tag k="place" v="locality" />
		<tag k="ssr:stedsnr" v="765743" />
	</node>
	<node id="-468892" lat="60.2704416681" lon="5.79306110908">
		<tag k="historic" v="shieling" />
		<tag k="name" v="Holdhusstølen" />
		<tag k="place" v="locality" />
		<tag k="ssr:stedsnr" v="765728" />
	</node>
	<node id="-467866" lat="60.2111055573" lon="5.75911944104">
		<tag k="name" v="Pinnura" />
		<tag k="natural" v="scree" />
		<tag k="ssr:stedsnr" v="218499" />
	</node>
	<node id="-467341" lat="60.1019972201" lon="5.77976389552">
		<tag k="historic" v="shieling" />
		<tag k="name" v="Nordtveitsetret" />
		<tag k="place" v="locality" />
		<tag k="ssr:stedsnr" v="887916" />
	</node>
	<node id="-468870" lat="60.2283916661" lon="5.74241667524">
		<tag k="historic" v="shieling" />
		<tag k="name" v="Holmastølen" />
		<tag k="place" v="locality" />
		<tag k="ssr:stedsnr" v="765533" />
	</node>
	<node id="-468867" lat="60.2399138859" lon="5.77395278348">
		<tag k="name" v="Monssetemyra" />
		<tag k="natural" v="wetland" />
		<tag k="ssr:stedsnr" v="765521" />
	</node>
	<node id="-467330" lat="60.2266444457" lon="5.6757944491">
		<tag k="historic" v="shieling" />
		<tag k="name" v="Stølen" />
		<tag k="place" v="locality" />
		<tag k="ssr:stedsnr" v="887874" />
	</node>
	<node id="-468350" lat="60.294769442" lon="5.91701110571">
		<tag k="name" v="Helleura" />
		<tag k="natural" v="scree" />
		<tag k="ssr:stedsnr" v="551958" />
	</node>
	<node id="-467312" lat="60.2839444448" lon="5.88360277659">
		<tag k="historic" v="shieling" />
		<tag k="name" v="Øvstasetret" />
		<tag k="place" v="locality" />
		<tag k="ssr:stedsnr" v="887522" />
	</node>
	<node id="-467808" lat="60.2003527772" lon="5.69113333716">
		<tag k="name" v="Åremyra" />
		<tag k="natural" v="wetland" />
		<tag k="ssr:stedsnr" v="186106" />
	</node>
	<node id="-467288" lat="60.2758694458" lon="5.82095555444">
		<tag k="historic" v="shieling" />
		<tag k="name" v="Bygdastølen" />
		<tag k="place" v="locality" />
		<tag k="ssr:stedsnr" v="886450" />
	</node>
	<node id="-467286" lat="60.2467055548" lon="5.83914443938">
		<tag k="historic" v="shieling" />
		<tag k="name" v="Gamlestølen" />
		<tag k="place" v="locality" />
		<tag k="ssr:stedsnr" v="886420" />
	</node>
	<node id="-467282" lat="60.1510527773" lon="5.6153083333">
		<tag k="historic" v="shieling" />
		<tag k="name" v="Stølen" />
		<tag k="place" v="locality" />
		<tag k="ssr:stedsnr" v="885803" />
	</node>
	<node id="-467792" lat="60.2876055518" lon="5.64546388187">
		<tag k="name" v="Pøylemyra" />
		<tag k="natural" v="wetland" />
		<tag k="ssr:stedsnr" v="158994" />
	</node>
	<node id="-468302" lat="60.3453388931" lon="5.71913054705">
		<tag k="historic" v="shieling" />
		<tag k="name" v="Sandvikasetret" />
		<tag k="place" v="locality" />
		<tag k="ssr:stedsnr" v="540031" />
	</node>
	<node id="-468365" lat="60.214433331" lon="5.70340833995">
		<tag k="historic" v="shieling" />
		<tag k="name" v="Setret" />
		<tag k="place" v="locality" />
		<tag k="ssr:stedsnr" v="581552" />
	</node>
	<node id="-467268" lat="60.2455166682" lon="5.63345554915">
		<tag k="name" v="Luesteinane" />
		<tag k="natural" v="stone" />
		<tag k="ssr:stedsnr" v="401943" />
	</node>
	<node id="-467083" lat="60.2699944458" lon="5.63691943849">
		<tag k="historic" v="shieling" />
		<tag k="name" v="Dalastølen" />
		<tag k="place" v="locality" />
		<tag k="ssr:stedsnr" v="340786" />
	</node>
	<node id="-468281" lat="60.050813892" lon="5.75402221297">
		<tag k="name" v="Hagen" />
		<tag k="place" v="locality" />
		<tag k="ssr:stedsnr" v="522883" />
	</node>
	<node id="-467255" lat="60.28634722" lon="5.65059444492">
		<tag k="historic" v="shieling" />
		<tag k="name" v="Samnøysetret" />
		<tag k="place" v="locality" />
		<tag k="ssr:stedsnr" v="401844" />
	</node>
	<node id="-468270" lat="60.2015416665" lon="5.64303610664">
		<tag k="historic" v="shieling" />
		<tag k="name" v="Fusasetret" />
		<tag k="place" v="locality" />
		<tag k="ssr:stedsnr" v="522767" />
	</node>
	<node id="-467238" lat="60.1614555587" lon="5.75940277507">
		<tag k="name" v="Asmyra" />
		<tag k="natural" v="wetland" />
		<tag k="ssr:stedsnr" v="401589" />
	</node>
	<node id="-467236" lat="60.1541472211" lon="5.78301945007">
		<tag k="historic" v="shieling" />
		<tag k="name" v="Lågåsstølen" />
		<tag k="place" v="locality" />
		<tag k="ssr:stedsnr" v="401584" />
	</node>
	<node id="-467235" lat="60.1354888863" lon="5.76022777042">
		<tag k="historic" v="shieling" />
		<tag k="name" v="Stølane" />
		<tag k="place" v="locality" />
		<tag k="ssr:stedsnr" v="401582" />
	</node>
	<node id="-468768" lat="60.1974805567" lon="5.68837500546">
		<tag k="name" v="Bjørkelundane" />
		<tag k="place" v="locality" />
		<tag k="ssr:stedsnr" v="733121" />
	</node>
	<node id="-467230" lat="60.1632138859" lon="5.77098333528">
		<tag k="name" v="Skarsmyra" />
		<tag k="natural" v="wetland" />
		<tag k="ssr:stedsnr" v="401508" />
	</node>
	<node id="-468249" lat="60.269572219" lon="5.85635833945">
		<tag k="historic" v="shieling" />
		<tag k="name" v="Grønestølen" />
		<tag k="place" v="locality" />
		<tag k="ssr:stedsnr" v="522495" />
	</node>
	<node id="-467736" lat="60.1543472179" lon="5.8321499914">
		<tag k="historic" v="shieling" />
		<tag k="name" v="Øyseter" />
		<tag k="place" v="locality" />
		<tag k="ssr:stedsnr" v="158387" />
	</node>
	<node id="-467725" lat="60.2349999996" lon="5.8495444501">
		<tag k="name" v="Lyningssteinen" />
		<tag k="natural" v="stone" />
		<tag k="ssr:stedsnr" v="158307" />
	</node>
	<node id="-468232" lat="60.1815638929" lon="5.85751665784">
		<tag k="historic" v="shieling" />
		<tag k="name" v="Seltuftena" />
		<tag k="place" v="locality" />
		<tag k="ssr:stedsnr" v="522309" />
	</node>
	<node id="-467715" lat="60.1659944451" lon="5.77429167318">
		<tag k="name" v="Setramyra" />
		<tag k="natural" v="wetland" />
		<tag k="ssr:stedsnr" v="158517" />
	</node>
	<node id="-468226" lat="60.2203500044" lon="5.90798054973">
		<tag k="historic" v="shieling" />
		<tag k="name" v="Aspenesstølen" />
		<tag k="place" v="locality" />
		<tag k="ssr:stedsnr" v="522263" />
	</node>
	<node id="-467704" lat="60.2329638892" lon="5.79391666791">
		<tag k="name" v="Storemyra" />
		<tag k="natural" v="wetland" />
		<tag k="ssr:stedsnr" v="157505" />
	</node>
	<node id="-467189" lat="60.2074750022" lon="5.75720276863">
		<tag k="historic" v="shieling" />
		<tag k="name" v="Setret" />
		<tag k="place" v="locality" />
		<tag k="ssr:stedsnr" v="400525" />
	</node>
	<node id="-469235" lat="60.2725722252" lon="5.78632221441">
		<tag k="historic" v="shieling" />
		<tag k="name" v="Gamlestølen" />
		<tag k="place" v="locality" />
		<tag k="ssr:stedsnr" v="947733" />
	</node>
	<node id="-469222" lat="60.2939277768" lon="5.7831444389">
		<tag k="historic" v="shieling" />
		<tag k="name" v="Heihellersetret" />
		<tag k="place" v="locality" />
		<tag k="ssr:stedsnr" v="947642" />
	</node>
	<node id="-468698" lat="60.1905555517" lon="5.82359721455">
		<tag k="historic" v="shieling" />
		<tag k="name" v="Vardastøl" />
		<tag k="place" v="locality" />
		<tag k="ssr:stedsnr" v="704564" />
	</node>
	<node id="-468695" lat="60.1435916633" lon="5.80659166659">
		<tag k="historic" v="shieling" />
		<tag k="name" v="Krokvavass-stølen" />
		<tag k="place" v="locality" />
		<tag k="ssr:stedsnr" v="704537" />
	</node>
	<node id="-468693" lat="60.2362888902" lon="5.77488610454">
		<tag k="name" v="Midtskogsmyra" />
		<tag k="natural" v="wetland" />
		<tag k="ssr:stedsnr" v="704500" />
	</node>
	<node id="-468674" lat="60.2345000011" lon="5.92246388451">
		<tag k="historic" v="shieling" />
		<tag k="name" v="Teglandstølen" />
		<tag k="place" v="locality" />
		<tag k="ssr:stedsnr" v="704278" />
	</node>
	<node id="-467134" lat="60.340930558" lon="5.74931110969">
		<tag k="historic" v="shieling" />
		<tag k="name" v="Kleppssetret" />
		<tag k="place" v="locality" />
		<tag k="ssr:stedsnr" v="369206" />
	</node>
	<node id="-468662" lat="60.2058277791" lon="5.75857221343">
		<tag k="historic" v="shieling" />
		<tag k="name" v="Vetlestølen" />
		<tag k="place" v="locality" />
		<tag k="ssr:stedsnr" v="703560" />
	</node>
	<node id="-468139" lat="60.0998416633" lon="5.79186110998">
		<tag k="historic" v="shieling" />
		<tag k="name" v="Lygresetret" />
		<tag k="place" v="locality" />
		<tag k="ssr:stedsnr" v="462920" />
	</node>
	<node id="-468135" lat="60.2657222208" lon="5.8448555479">
		<tag k="name" v="Blåura" />
		<tag k="natural" v="scree" />
		<tag k="ssr:stedsnr" v="462498" />
	</node>
	<node id="-467620" lat="60.2054027775" lon="5.69601944689">
		<tag k="historic" v="shieling" />
		<tag k="name" v="Setret" />
		<tag k="place" v="locality" />
		<tag k="ssr:stedsnr" v="98782" />
	</node>
	<node id="-467617" lat="60.2905194484" lon="5.74709999933">
		<tag k="historic" v="shieling" />
		<tag k="name" v="Lundarviksetret" />
		<tag k="place" v="locality" />
		<tag k="ssr:stedsnr" v="98697" />
	</node>
	<node id="-467613" lat="60.3046555527" lon="5.76701388197">
		<tag k="historic" v="shieling" />
		<tag k="name" v="Gamlasetret" />
		<tag k="place" v="locality" />
		<tag k="ssr:stedsnr" v="98663" />
	</node>
	<node id="-467607" lat="60.3231888923" lon="5.74362778563">
		<tag k="historic" v="shieling" />
		<tag k="name" v="Lisetret" />
		<tag k="place" v="locality" />
		<tag k="ssr:stedsnr" v="98633" />
	</node>
	<node id="-468118" lat="60.2230472244" lon="5.9128944509">
		<tag k="historic" v="shieling" />
		<tag k="name" v="Furenesstølen" />
		<tag k="place" v="locality" />
		<tag k="ssr:stedsnr" v="462211" />
	</node>
	<node id="-468628" lat="60.1086416696" lon="5.80765556227">
		<tag k="historic" v="shieling" />
		<tag k="name" v="Stølen" />
		<tag k="place" v="locality" />
		<tag k="ssr:stedsnr" v="672418" />
	</node>
	<node id="-468114" lat="60.2540305524" lon="5.72281388781">
		<tag k="historic" v="shieling" />
		<tag k="name" v="Storasetret" />
		<tag k="place" v="locality" />
		<tag k="ssr:stedsnr" v="461745" />
	</node>
	<node id="-469137" lat="60.2108999974" lon="5.68951110387">
		<tag k="name" v="Storemyra" />
		<tag k="natural" v="wetland" />
		<tag k="ssr:stedsnr" v="915107" />
	</node>
	<node id="-469132" lat="60.1943055581" lon="5.67751943695">
		<tag k="alt_name" v="Breidstølhytta" />
		<tag k="historic" v="shieling" />
		<tag k="name" v="Breisetret" />
		<tag k="place" v="locality" />
		<tag k="ssr:stedsnr" v="903077" />
	</node>
	<node id="-468107" lat="60.1820388915" lon="5.79909443681">
		<tag k="historic" v="shieling" />
		<tag k="name" v="Setret" />
		<tag k="place" v="locality" />
		<tag k="ssr:stedsnr" v="461622" />
	</node>
	<node id="-468106" lat="60.1699027739" lon="5.74043056297">
		<tag k="name" v="Gråsteinen" />
		<tag k="natural" v="stone" />
		<tag k="ssr:stedsnr" v="461616" />
	</node>
	<node id="-467593" lat="60.2343805568" lon="5.89530277006">
		<tag k="historic" v="shieling" />
		<tag k="name" v="Stølane" />
		<tag k="place" v="locality" />
		<tag k="ssr:stedsnr" v="98270" />
	</node>
	<node id="-467591" lat="60.2341972184" lon="5.87176945142">
		<tag k="historic" v="shieling" />
		<tag k="name" v="Gamlestølen" />
		<tag k="place" v="locality" />
		<tag k="ssr:stedsnr" v="98253" />
	</node>
	<node id="-469124" lat="60.2402499995" lon="5.63832500345">
		<tag k="name" v="Vesleura" />
		<tag k="natural" v="scree" />
		<tag k="ssr:stedsnr" v="874172" />
	</node>
	<node id="-467074" lat="60.2885888921" lon="5.7886861089">
		<tag k="name" v="Storura" />
		<tag k="natural" v="scree" />
		<tag k="ssr:stedsnr" v="340652" />
	</node>
	<node id="-468096" lat="60.1716527769" lon="5.80283333191">
		<tag k="historic" v="shieling" />
		<tag k="name" v="Revneseter" />
		<tag k="place" v="locality" />
		<tag k="ssr:stedsnr" v="461535" />
	</node>
	<node id="-467046" lat="60.2315750009" lon="5.91408333141">
		<tag k="historic" v="shieling" />
		<tag k="name" v="Setremarka" />
		<tag k="place" v="locality" />
		<tag k="ssr:stedsnr" v="340302" />
	</node>
	<node id="-468573" lat="60.2699111092" lon="5.77526666985">
		<tag k="historic" v="shieling" />
		<tag k="name" v="Skjelbreidsetret" />
		<tag k="place" v="locality" />
		<tag k="ssr:stedsnr" v="643717" />
	</node>
	<node id="-467028" lat="60.2232666651" lon="5.75796388833">
		<tag k="historic" v="shieling" />
		<tag k="name" v="Setekinna" />
		<tag k="place" v="locality" />
		<tag k="ssr:stedsnr" v="339506" />
	</node>
	<node id="-468561" lat="60.3175749962" lon="5.70594167035">
		<tag k="historic" v="shieling" />
		<tag k="name" v="Skorestølen" />
		<tag k="place" v="locality" />
		<tag k="ssr:stedsnr" v="643631" />
	</node>
	<node id="-467522" lat="60.2708583342" lon="5.87326111855">
		<tag k="name" v="Gjønsætermarka" />
		<tag k="place" v="locality" />
		<tag k="ssr:stedsnr" v="66850" />
	</node>
	<node id="-468538" lat="60.2560027812" lon="5.92978334161">
		<tag k="name" v="Mosasteinane" />
		<tag k="natural" v="stone" />
		<tag k="ssr:stedsnr" v="643441" />
	</node>
	<node id="-468530" lat="60.2298833334" lon="5.91122222495">
		<tag k="historic" v="shieling" />
		<tag k="name" v="Setret" />
		<tag k="place" v="locality" />
		<tag k="ssr:stedsnr" v="643283" />
	</node>
	<node id="-469034" lat="60.1803249998" lon="5.76159445202">
		<tag k="historic" v="shieling" />
		<tag k="name" v="Lyngstølen" />
		<tag k="place" v="locality" />
		<tag k="ssr:stedsnr" v="826611" />
	</node>
	<node id="-469028" lat="60.1193416647" lon="5.72895000601">
		<tag k="name" v="Lyngnessteinane" />
		<tag k="natural" v="stone" />
		<tag k="ssr:stedsnr" v="826568" />
	</node>
	<node id="-469027" lat="60.2257722202" lon="5.7548722195">
		<tag k="historic" v="shieling" />
		<tag k="name" v="Slåsetret" />
		<tag k="place" v="locality" />
		<tag k="ssr:stedsnr" v="826559" />
	</node>
	<node id="-469024" lat="60.1645527737" lon="5.78914444084">
		<tag k="historic" v="shieling" />
		<tag k="name" v="Bjørkestølen" />
		<tag k="place" v="locality" />
		<tag k="ssr:stedsnr" v="826522" />
	</node>
	<node id="-467476" lat="60.2077388923" lon="5.68066667526">
		<tag k="historic" v="shieling" />
		<tag k="name" v="Urstøl" />
		<tag k="place" v="locality" />
		<tag k="ssr:stedsnr" v="37781" />
	</node>
	<node id="-467987" lat="60.1846861155" lon="5.71577500068">
		<tag k="name" v="Storura" />
		<tag k="natural" v="scree" />
		<tag k="ssr:stedsnr" v="248062" />
	</node>
	<node id="-467474" lat="60.2185999964" lon="5.6421527725">
		<tag k="historic" v="shieling" />
		<tag k="name" v="Stølane" />
		<tag k="place" v="locality" />
		<tag k="ssr:stedsnr" v="37777" />
	</node>
	<node id="-467468" lat="60.1608138885" lon="5.75742777841">
		<tag k="historic" v="shieling" />
		<tag k="name" v="Djupedalsstølen" />
		<tag k="place" v="locality" />
		<tag k="ssr:stedsnr" v="37619" />
	</node>
	<node id="-468738" lat="60.1915833325" lon="5.67635555458">
		<tag k="name" v="Løkjene" />
		<tag k="natural" v="wetland" />
		<tag k="ssr:stedsnr" v="721181" />
	</node>
	<node id="-466946" lat="60.2655916699" lon="5.63177222855">
		<tag k="historic" v="shieling" />
		<tag k="name" v="Skarvastølen" />
		<tag k="place" v="locality" />
		<tag k="ssr:stedsnr" v="280790" />
	</node>
</osm>
