<?xml version="1.0" encoding="UTF-8"?>
<osm generator="osmapis" version="0.6">
	<node id="-469246" lat="60.0935333375" lon="5.80702777981">
		<tag k="highway" v="path" />
		<tag k="name" v="Krokvassvegen" />
		<tag k="ssr:stedsnr" v="947914" />
	</node>
	<node id="-469268" lat="60.2055386152" lon="5.59339446714">
		<tag k="amenity" v="ferry_terminal" />
		<tag k="name" v="Venjaneset ferjekai" />
		<tag k="ssr:stedsnr" v="978588" />
	</node>
	<node id="-468595" lat="60.1234027795" lon="5.76662499771">
		<tag k="bridge" v="yes" />
		<tag k="layer" v="1" />
		<tag k="name" v="Femanger" />
		<tag k="ssr:stedsnr" v="654144" />
	</node>
	<node id="-467056" lat="60.2657499976" lon="5.85666944673">
		<tag k="highway" v="path" />
		<tag k="name" v="Kaldestegen" />
		<tag k="ssr:stedsnr" v="340488" />
	</node>
	<node id="-467951" lat="60.201186107" lon="5.84868889435">
		<tag k="layer" v="-1" />
		<tag k="name" v="Kilen" />
		<tag k="ssr:stedsnr" v="226286" />
		<tag k="tunnel" v="yes" />
	</node>
	<node id="-468078" lat="60.3190638908" lon="5.83543055411">
		<tag k="highway" v="path" />
		<tag k="name" v="Dyrasteghjellen" />
		<tag k="ssr:stedsnr" v="461402" />
	</node>
	<node id="-469227" lat="60.2645916633" lon="5.80291667201">
		<tag k="highway" v="path" />
		<tag k="name" v="Rotastegen" />
		<tag k="ssr:stedsnr" v="947697" />
	</node>
	<node id="-467306" lat="60.2723944476" lon="5.8047000044">
		<tag k="highway" v="path" />
		<tag k="name" v="Bjønnsteg" />
		<tag k="ssr:stedsnr" v="886766" />
	</node>
	<node id="-468194" lat="60.2657583365" lon="5.86229722662">
		<tag k="barrier" v="toll_booth" />
		<tag k="name" v="Stussekleiva" />
		<tag k="ssr:stedsnr" v="490858" />
	</node>
	<node id="-466906" lat="60.2095805585" lon="5.83812499316">
		<tag k="name" v="Drageidskanalen" />
		<tag k="ssr:stedsnr" v="280183" />
		<tag k="waterway" v="canal" />
	</node>
	<node id="-466964" lat="60.1807972262" lon="5.60792222084">
		<tag k="bridge" v="yes" />
		<tag k="layer" v="1" />
		<tag k="name" v="Skjørsandelv" />
		<tag k="ssr:stedsnr" v="290163" />
	</node>
	<node id="-467794" lat="60.2374472259" lon="5.83336666382">
		<tag k="bridge" v="yes" />
		<tag k="layer" v="1" />
		<tag k="name" v="Holdhus" />
		<tag k="ssr:stedsnr" v="169132" />
	</node>
	<node id="-466896" lat="60.2645083353" lon="5.78461666277">
		<tag k="highway" v="path" />
		<tag k="name" v="Bjønnsteg" />
		<tag k="ssr:stedsnr" v="279724" />
	</node>
	<node id="-468301" lat="60.2836722267" lon="5.93517500514">
		<tag k="bridge" v="yes" />
		<tag k="layer" v="1" />
		<tag k="name" v="Bråthus" />
		<tag k="ssr:stedsnr" v="533148" />
	</node>
	<node id="-468167" lat="60.1932388868" lon="5.78330000228">
		<tag k="bridge" v="yes" />
		<tag k="layer" v="1" />
		<tag k="name" v="Lona" />
		<tag k="ssr:stedsnr" v="472145" />
	</node>
	<node id="-468166" lat="60.0430249997" lon="5.71134999687">
		<tag k="layer" v="-1" />
		<tag k="name" v="Stussvikhovda" />
		<tag k="ssr:stedsnr" v="467702" />
		<tag k="tunnel" v="yes" />
	</node>
	<node id="-469069" lat="60.1916194448" lon="5.76999721677">
		<tag k="bridge" v="yes" />
		<tag k="layer" v="1" />
		<tag k="name" v="Vassli" />
		<tag k="ssr:stedsnr" v="836182" />
	</node>
	<node id="-467775" lat="60.2775916658" lon="5.79211666509">
		<tag k="highway" v="path" />
		<tag k="name" v="Våtestegen" />
		<tag k="ssr:stedsnr" v="158747" />
	</node>
	<node id="-467773" lat="60.2706305517" lon="5.74776110676">
		<tag k="highway" v="path" />
		<tag k="name" v="Engelistien" />
		<tag k="ssr:stedsnr" v="158699" />
	</node>
	<node id="-467642" lat="60.2320194457" lon="5.86931389359">
		<tag k="bridge" v="yes" />
		<tag k="layer" v="1" />
		<tag k="name" v="Eide" />
		<tag k="ssr:stedsnr" v="108148" />
	</node>
	<node id="-467768" lat="60.3259416655" lon="5.72042221902">
		<tag k="ford" v="yes" />
		<tag k="name" v="Kjøpmannavadet" />
		<tag k="place" v="locality" />
		<tag k="ssr:stedsnr" v="158675" />
	</node>
	<node id="-468919" lat="60.0694444483" lon="5.75874444715">
		<tag k="bridge" v="yes" />
		<tag k="layer" v="1" />
		<tag k="name" v="Grunnasund" />
		<tag k="ssr:stedsnr" v="775132" />
	</node>
	<node id="-468918" lat="60.2006138906" lon="5.83537778453">
		<tag k="bridge" v="yes" />
		<tag k="layer" v="1" />
		<tag k="name" v="Hjortedal" />
		<tag k="ssr:stedsnr" v="775131" />
	</node>
	<node id="-467505" lat="60.282266666" lon="5.67965556415">
		<tag k="alt_name" v="Kråkeskaret" />
		<tag k="layer" v="-1" />
		<tag k="name" v="Kråkeskar" />
		<tag k="ssr:stedsnr" v="44287" />
		<tag k="tunnel" v="yes" />
	</node>
	<node id="-469035" lat="60.1935166691" lon="5.74013333151">
		<tag k="highway" v="path" />
		<tag k="name" v="Skarsvegen" />
		<tag k="ssr:stedsnr" v="826616" />
	</node>
	<node id="-467952" lat="60.2796138884" lon="5.68003054923">
		<tag k="bridge" v="yes" />
		<tag k="layer" v="1" />
		<tag k="name" v="Aadlandselva" />
		<tag k="ssr:stedsnr" v="229229" />
	</node>
	<node id="-467103" lat="60.2519611069" lon="5.70730555372">
		<tag k="layer" v="-1" />
		<tag k="name" v="Moshovdatunnelen" />
		<tag k="ssr:stedsnr" v="350812" />
		<tag k="tunnel" v="yes" />
	</node>
	<node id="-467102" lat="60.271836114" lon="5.64402221682">
		<tag k="bridge" v="yes" />
		<tag k="layer" v="1" />
		<tag k="name" v="Eide" />
		<tag k="ssr:stedsnr" v="350138" />
	</node>
	<node id="-467101" lat="60.1963416633" lon="5.79440555943">
		<tag k="bridge" v="yes" />
		<tag k="layer" v="1" />
		<tag k="name" v="Henanger" />
		<tag k="ssr:stedsnr" v="350135" />
	</node>
	<node id="-468888" lat="60.3250428505" lon="5.71803164162">
		<tag k="ford" v="yes" />
		<tag k="name" v="Bastavadet" />
		<tag k="place" v="locality" />
		<tag k="ssr:stedsnr" v="765631" />
	</node>
	<node id="-467348" lat="60.1999583351" lon="5.87782777911">
		<tag k="bridge" v="yes" />
		<tag k="layer" v="1" />
		<tag k="name" v="Tombre Austre" />
		<tag k="ssr:stedsnr" v="897212" />
	</node>
	<node id="-467347" lat="60.2718944436" lon="5.67250832672">
		<tag k="bridge" v="yes" />
		<tag k="layer" v="1" />
		<tag k="name" v="Matlandselva" />
		<tag k="ssr:stedsnr" v="897147" />
	</node>
	<node id="-469258" lat="60.2245194484" lon="5.69196111365">
		<tag k="bridge" v="yes" />
		<tag k="layer" v="1" />
		<tag k="name" v="Berge" />
		<tag k="ssr:stedsnr" v="958162" />
	</node>
	<node id="-469257" lat="60.2548611079" lon="5.92542221384">
		<tag k="bridge" v="yes" />
		<tag k="layer" v="1" />
		<tag k="name" v="Orraosen" />
		<tag k="ssr:stedsnr" v="958156" />
	</node>
	<node id="-468737" lat="60.1589527815" lon="5.66648610173">
		<tag k="bridge" v="yes" />
		<tag k="layer" v="1" />
		<tag k="name" v="Strandvik" />
		<tag k="ssr:stedsnr" v="715231" />
	</node>
</osm>
