<?xml version="1.0" encoding="UTF-8"?>
<osm generator="osmapis" version="0.6">
	<node id="-468977" lat="60.1541305546" lon="5.57861110455">
		<tag k="name" v="Vinnessundet" />
		<tag k="natural" v="strait" />
		<tag k="ssr:stedsnr" v="581096" />
	</node>
	<node id="-468972" lat="60.2617944402" lon="5.65979165843">
		<tag k="name" v="Breidvika" />
		<tag k="natural" v="bay" />
		<tag k="ssr:stedsnr" v="570348" />
	</node>
	<node id="-468969" lat="60.077641665" lon="5.78456389619">
		<tag k="name" v="Indra Leitnes" />
		<tag k="natural" v="cape" />
		<tag k="ssr:stedsnr" v="570116" />
	</node>
	<node id="-468968" lat="60.1251694447" lon="5.76562776945">
		<tag k="alt_name" v="Femangersjøen" />
		<tag k="name" v="Femangerbukta" />
		<tag k="natural" v="bay" />
		<tag k="ssr:stedsnr" v="570108" />
	</node>
	<node id="-468955" lat="60.1238944438" lon="5.74191388737">
		<tag k="name" v="Fureneset" />
		<tag k="natural" v="cape" />
		<tag k="ssr:stedsnr" v="551590" />
	</node>
	<node id="-468950" lat="60.1092888848" lon="5.74098610996">
		<tag k="name" v="Selvågen" />
		<tag k="natural" v="bay" />
		<tag k="ssr:stedsnr" v="551432" />
	</node>
	<node id="-468942" lat="60.2382916634" lon="5.59766388817">
		<tag k="name" v="Sandvika" />
		<tag k="natural" v="bay" />
		<tag k="ssr:stedsnr" v="551208" />
	</node>
	<node id="-468930" lat="60.0671916695" lon="5.75196944145">
		<tag k="name" v="Langaneset" />
		<tag k="natural" v="cape" />
		<tag k="ssr:stedsnr" v="550259" />
	</node>
	<node id="-468922" lat="60.2376055596" lon="5.60065555499">
		<tag k="name" v="Holsund" />
		<tag k="natural" v="cape" />
		<tag k="ssr:stedsnr" v="550040" />
	</node>
	<node id="-468921" lat="60.2300000024" lon="5.66772500501">
		<tag k="alt_name" v="Bjånes" />
		<tag k="name" v="Bjåneset" />
		<tag k="natural" v="cape" />
		<tag k="ssr:stedsnr" v="550019" />
	</node>
	<node id="-468915" lat="60.2916388877" lon="5.64695000693">
		<tag k="name" v="Svartevikane" />
		<tag k="natural" v="bay" />
		<tag k="ssr:stedsnr" v="522994" />
	</node>
	<node id="-468913" lat="60.3001527756" lon="5.6486694473">
		<tag k="name" v="Vestre Kalvavika" />
		<tag k="natural" v="bay" />
		<tag k="ssr:stedsnr" v="522980" />
	</node>
	<node id="-468904" lat="60.2621388892" lon="5.63860832737">
		<tag k="fixme" v="consider seamark:type=rock or natural=shoal" />
		<tag k="name" v="Vetlaskjeret" />
		<tag k="place" v="islet" />
		<tag k="ssr:stedsnr" v="522938" />
	</node>
	<node id="-468902" lat="60.1392055525" lon="5.74430555525">
		<tag k="name" v="Klubben" />
		<tag k="natural" v="cape" />
		<tag k="ssr:stedsnr" v="522931" />
	</node>
	<node id="-468899" lat="60.0774888871" lon="5.81893055786">
		<tag k="name" v="Høyneset" />
		<tag k="natural" v="cape" />
		<tag k="ssr:stedsnr" v="522915" />
	</node>
	<node id="-468897" lat="60.0667027768" lon="5.8111611082">
		<tag k="alt_name" v="Laksnes" />
		<tag k="name" v="Laksneset" />
		<tag k="natural" v="cape" />
		<tag k="ssr:stedsnr" v="522887" />
	</node>
	<node id="-468895" lat="60.0655944405" lon="5.74144166003">
		<tag k="name" v="Vika" />
		<tag k="natural" v="bay" />
		<tag k="ssr:stedsnr" v="522871" />
	</node>
	<node id="-468890" lat="60.2630777814" lon="5.65826943987">
		<tag k="name" v="Indre Breivikneset" />
		<tag k="natural" v="cape" />
		<tag k="ssr:stedsnr" v="522783" />
	</node>
	<node id="-468889" lat="60.2638583327" lon="5.61275278257">
		<tag k="name" v="Årsvågen" />
		<tag k="natural" v="bay" />
		<tag k="ssr:stedsnr" v="522776" />
	</node>
	<node id="-468884" lat="60.2749472267" lon="5.63345834064">
		<tag k="name" v="Persneset" />
		<tag k="natural" v="cape" />
		<tag k="ssr:stedsnr" v="522765" />
	</node>
	<node id="-468825" lat="60.14376667" lon="5.58694999658">
		<tag k="name" v="Knappen" />
		<tag k="natural" v="cape" />
		<tag k="ssr:stedsnr" v="521067" />
	</node>
	<node id="-468824" lat="60.1789194442" lon="5.58446944892">
		<tag k="name" v="Leirvikfluene" />
		<tag k="natural" v="shoal" />
		<tag k="place" v="locality" />
		<tag k="ssr:stedsnr" v="511735" />
	</node>
	<node id="-468821" lat="60.1820194414" lon="5.75856666899">
		<tag k="name" v="Hamnavågen" />
		<tag k="natural" v="bay" />
		<tag k="ssr:stedsnr" v="510251" />
	</node>
	<node id="-468819" lat="60.3031972243" lon="5.65981666398">
		<tag k="name" v="Kalven" />
		<tag k="natural" v="cape" />
		<tag k="ssr:stedsnr" v="510145" />
	</node>
	<node id="-468818" lat="60.0523250011" lon="5.71189166474">
		<tag k="name" v="Bergsvågflua" />
		<tag k="natural" v="shoal" />
		<tag k="place" v="locality" />
		<tag k="ssr:stedsnr" v="510078" />
	</node>
	<node id="-468812" lat="60.2671249996" lon="5.61405000878">
		<tag k="name" v="Årsvågtangen" />
		<tag k="natural" v="cape" />
		<tag k="ssr:stedsnr" v="491307" />
	</node>
	<node id="-468807" lat="60.156591665" lon="5.69072777078">
		<tag k="fixme" v="consider seamark:type=rock or natural=shoal" />
		<tag k="name" v="Terneskjeret" />
		<tag k="place" v="islet" />
		<tag k="ssr:stedsnr" v="490385" />
	</node>
	<node id="-468805" lat="60.0410833356" lon="5.71023889542">
		<tag k="alt_name" v="Moseknappen" />
		<tag k="name" v="Mosaknappen" />
		<tag k="natural" v="cape" />
		<tag k="ssr:stedsnr" v="490326" />
	</node>
	<node id="-468804" lat="60.2780500014" lon="5.66317223108">
		<tag k="name" v="Ytstaneset" />
		<tag k="natural" v="cape" />
		<tag k="ssr:stedsnr" v="490280" />
	</node>
	<node id="-468803" lat="60.0650583362" lon="5.81026944348">
		<tag k="name" v="Fossåvika" />
		<tag k="natural" v="bay" />
		<tag k="ssr:stedsnr" v="490259" />
	</node>
	<node id="-468801" lat="60.2092583324" lon="5.63226944636">
		<tag k="name" v="Fagersandneset" />
		<tag k="natural" v="cape" />
		<tag k="ssr:stedsnr" v="490112" />
	</node>
	<node id="-468794" lat="60.2285805583" lon="5.61149443835">
		<tag k="name" v="Altanesflua" />
		<tag k="natural" v="shoal" />
		<tag k="place" v="locality" />
		<tag k="ssr:stedsnr" v="490027" />
	</node>
	<node id="-468785" lat="60.2302249979" lon="5.69353888657">
		<tag k="name" v="Bergeholmen" />
		<tag k="place" v="islet" />
		<tag k="ssr:stedsnr" v="489041" />
	</node>
	<node id="-468784" lat="60.2312777808" lon="5.68586110944">
		<tag k="name" v="Kvålsneset" />
		<tag k="natural" v="cape" />
		<tag k="ssr:stedsnr" v="489040" />
	</node>
	<node id="-468783" lat="60.2132916678" lon="5.63534167203">
		<tag k="alt_name" v="Gjerdevikneset" />
		<tag k="name" v="Gjerdavikneset" />
		<tag k="natural" v="cape" />
		<tag k="ssr:stedsnr" v="489007" />
	</node>
	<node id="-468778" lat="60.2309166666" lon="5.67563888075">
		<tag k="fixme" v="consider seamark:type=rock or natural=shoal" />
		<tag k="name" v="Botnaskjeret" />
		<tag k="place" v="islet" />
		<tag k="ssr:stedsnr" v="462879" />
	</node>
	<node id="-468777" lat="60.2780083371" lon="5.66544444717">
		<tag k="name" v="Skoravågen" />
		<tag k="natural" v="bay" />
		<tag k="ssr:stedsnr" v="462806" />
	</node>
	<node id="-468776" lat="60.2689722184" lon="5.65125833438">
		<tag k="name" v="Russholmen" />
		<tag k="place" v="islet" />
		<tag k="ssr:stedsnr" v="462801" />
	</node>
	<node id="-468775" lat="60.2702555596" lon="5.69458889578">
		<tag k="name" v="Hellandsvika" />
		<tag k="natural" v="bay" />
		<tag k="ssr:stedsnr" v="462796" />
	</node>
	<node id="-468773" lat="60.2701194423" lon="5.64452500626">
		<tag k="name" v="Tveitaholmen" />
		<tag k="place" v="islet" />
		<tag k="ssr:stedsnr" v="462785" />
	</node>
	<node id="-468772" lat="60.2709611086" lon="5.64433333063">
		<tag k="name" v="Eidsneset" />
		<tag k="natural" v="cape" />
		<tag k="ssr:stedsnr" v="462782" />
	</node>
	<node id="-468767" lat="60.2062333371" lon="5.62691388858">
		<tag k="name" v="Fusaneset" />
		<tag k="natural" v="cape" />
		<tag k="ssr:stedsnr" v="462743" />
	</node>
	<node id="-468758" lat="60.2600916682" lon="5.65285000273">
		<tag k="name" v="Arholmen" />
		<tag k="place" v="islet" />
		<tag k="ssr:stedsnr" v="462965" />
	</node>
	<node id="-468757" lat="60.2612361095" lon="5.65430000884">
		<tag k="name" v="Ytre Breivikneset" />
		<tag k="natural" v="cape" />
		<tag k="ssr:stedsnr" v="462961" />
	</node>
	<node id="-468726" lat="60.2412611076" lon="5.7425305525">
		<tag k="name" v="Neset" />
		<tag k="natural" v="cape" />
		<tag k="ssr:stedsnr" v="461737" />
	</node>
	<node id="-468719" lat="60.1250000013" lon="5.75388332587">
		<tag k="name" v="Bjørnbergeneset" />
		<tag k="natural" v="cape" />
		<tag k="ssr:stedsnr" v="461595" />
	</node>
	<node id="-468717" lat="60.1305027809" lon="5.75836666158">
		<tag k="name" v="Steinevika" />
		<tag k="natural" v="bay" />
		<tag k="ssr:stedsnr" v="461594" />
	</node>
	<node id="-468699" lat="60.1233472222" lon="5.74517221794">
		<tag k="name" v="Havnakråa" />
		<tag k="natural" v="bay" />
		<tag k="ssr:stedsnr" v="462579" />
	</node>
	<node id="-468698" lat="60.1842194459" lon="5.72641666723">
		<tag k="name" v="Ljotåneset" />
		<tag k="natural" v="cape" />
		<tag k="ssr:stedsnr" v="461098" />
	</node>
	<node id="-468695" lat="60.1508499994" lon="5.58458056073">
		<tag k="name" v="Stølaneset" />
		<tag k="place" v="locality" />
		<tag k="ssr:stedsnr" v="460098" />
	</node>
	<node id="-468673" lat="60.1368694453" lon="5.75859999272">
		<tag k="name" v="Årvika" />
		<tag k="natural" v="bay" />
		<tag k="ssr:stedsnr" v="430451" />
	</node>
	<node id="-468663" lat="60.1929083362" lon="5.60367777938">
		<tag k="name" v="Utlebøvika" />
		<tag k="natural" v="bay" />
		<tag k="ssr:stedsnr" v="430077" />
	</node>
	<node id="-468662" lat="60.1850527775" lon="5.72896110511">
		<tag k="alt_name" v="Gjotevika" />
		<tag k="name" v="Ljotavika" />
		<tag k="natural" v="bay" />
		<tag k="ssr:stedsnr" v="430064" />
	</node>
	<node id="-468659" lat="60.1426694466" lon="5.58574167055">
		<tag k="name" v="Hatlemnet" />
		<tag k="place" v="islet" />
		<tag k="ssr:stedsnr" v="429381" />
	</node>
	<node id="-468658" lat="60.1665944462" lon="5.69170000725">
		<tag k="name" v="Lindarsundholmen" />
		<tag k="place" v="islet" />
		<tag k="ssr:stedsnr" v="429368" />
	</node>
	<node id="-468656" lat="60.1499861098" lon="5.58963332965">
		<tag k="name" v="Selsvika" />
		<tag k="natural" v="bay" />
		<tag k="ssr:stedsnr" v="429361" />
	</node>
	<node id="-468654" lat="60.0755999958" lon="5.78265832645">
		<tag k="name" v="Leitesneset" />
		<tag k="natural" v="cape" />
		<tag k="ssr:stedsnr" v="429280" />
	</node>
	<node id="-468653" lat="60.0724388872" lon="5.75176111534">
		<tag k="alt_name" v="Sundvordøya" />
		<tag k="name" v="Sundvorøya" />
		<tag k="place" v="islet" />
		<tag k="ssr:stedsnr" v="429273" />
	</node>
	<node id="-468650" lat="60.1815527811" lon="5.75979722036">
		<tag k="name" v="Engjavik" />
		<tag k="natural" v="bay" />
		<tag k="ssr:stedsnr" v="429420" />
	</node>
	<node id="-468645" lat="60.2022694424" lon="5.6050611138">
		<tag k="name" v="Brunavika" />
		<tag k="natural" v="bay" />
		<tag k="ssr:stedsnr" v="429109" />
	</node>
	<node id="-468635" lat="60.0892934687" lon="5.7952563357">
		<tag k="alt_name" v="Lygrepollen" />
		<tag k="bay" v="fjord" />
		<tag k="name" v="Lygrespollen" />
		<tag k="natural" v="bay" />
		<tag k="ssr:stedsnr" v="418574" />
	</node>
	<node id="-468632" lat="60.1940111119" lon="5.59914444752">
		<tag k="fixme" v="consider seamark:type=rock or natural=shoal" />
		<tag k="name" v="Skarvaskjeret" />
		<tag k="place" v="islet" />
		<tag k="ssr:stedsnr" v="267695" />
	</node>
	<node id="-468631" lat="60.2691027785" lon="5.64350555183">
		<tag k="name" v="Kjettevika" />
		<tag k="natural" v="bay" />
		<tag k="ssr:stedsnr" v="267319" />
	</node>
	<node id="-468630" lat="60.2466666707" lon="5.73619443976">
		<tag k="name" v="Lundevika" />
		<tag k="natural" v="bay" />
		<tag k="ssr:stedsnr" v="267211" />
	</node>
	<node id="-468629" lat="60.0726211997" lon="5.76866966654">
		<tag k="name" v="Indra Eleshamn" />
		<tag k="natural" v="bay" />
		<tag k="ssr:stedsnr" v="267119" />
	</node>
	<node id="-468628" lat="60.0911027813" lon="5.83377222079">
		<tag k="name" v="Kjeholmen" />
		<tag k="place" v="islet" />
		<tag k="ssr:stedsnr" v="267120" />
	</node>
	<node id="-468627" lat="60.2575055599" lon="5.59154167512">
		<tag k="name" v="Stora Karlhovden" />
		<tag k="natural" v="bay" />
		<tag k="ssr:stedsnr" v="267117" />
	</node>
	<node id="-468626" lat="60.0914305562" lon="5.79325834059">
		<tag k="name" v="Mjelkevika" />
		<tag k="natural" v="bay" />
		<tag k="ssr:stedsnr" v="267099" />
	</node>
	<node id="-468625" lat="60.1412916701" lon="5.72012499893">
		<tag k="name" v="Henriksflu" />
		<tag k="natural" v="shoal" />
		<tag k="place" v="locality" />
		<tag k="ssr:stedsnr" v="267091" />
	</node>
	<node id="-468614" lat="60.1068277782" lon="5.72103055416">
		<tag k="name" v="Hjartneset" />
		<tag k="natural" v="cape" />
		<tag k="ssr:stedsnr" v="248479" />
	</node>
	<node id="-468613" lat="60.1021000026" lon="5.72936666055">
		<tag k="name" v="Naustneset" />
		<tag k="natural" v="cape" />
		<tag k="ssr:stedsnr" v="248440" />
	</node>
	<node id="-468589" lat="60.1633916652" lon="5.57244444781">
		<tag k="name" v="Skåtholmen" />
		<tag k="place" v="islet" />
		<tag k="ssr:stedsnr" v="247401" />
	</node>
	<node id="-468588" lat="60.1558500007" lon="5.67280554931">
		<tag k="name" v="Knappholmen" />
		<tag k="place" v="islet" />
		<tag k="ssr:stedsnr" v="247386" />
	</node>
	<node id="-468575" lat="60.2326694436" lon="5.62166111199">
		<tag k="name" v="Altanesodden" />
		<tag k="natural" v="cape" />
		<tag k="ssr:stedsnr" v="247029" />
	</node>
	<node id="-468572" lat="60.2059722265" lon="5.59261388414">
		<tag k="name" v="Venjaneset" />
		<tag k="natural" v="cape" />
		<tag k="ssr:stedsnr" v="247016" />
	</node>
	<node id="-468571" lat="60.2176194487" lon="5.63950277889">
		<tag k="name" v="Stølsneset" />
		<tag k="natural" v="cape" />
		<tag k="ssr:stedsnr" v="247002" />
	</node>
	<node id="-468568" lat="60.0800951571" lon="5.79243141359">
		<tag k="alt_name" v="Lygrefjorden" />
		<tag k="bay" v="fjord" />
		<tag k="name" v="Lygresfjorden" />
		<tag k="natural" v="bay" />
		<tag k="ssr:stedsnr" v="236282" />
	</node>
	<node id="-468563" lat="60.3041694406" lon="5.65594445297">
		<tag k="name" v="Svartavika" />
		<tag k="natural" v="bay" />
		<tag k="ssr:stedsnr" v="219990" />
	</node>
	<node id="-468554" lat="60.1016583339" lon="5.72538611769">
		<tag k="fixme" v="consider seamark:type=rock or natural=shoal" />
		<tag k="name" v="Øyreskjeret" />
		<tag k="place" v="islet" />
		<tag k="ssr:stedsnr" v="219919" />
	</node>
	<node id="-468543" lat="60.2829499998" lon="5.66162499861">
		<tag k="name" v="Vetleholmen" />
		<tag k="place" v="islet" />
		<tag k="ssr:stedsnr" v="219802" />
	</node>
	<node id="-468542" lat="60.2743083346" lon="5.63243611067">
		<tag k="fixme" v="consider seamark:type=rock or natural=shoal" />
		<tag k="name" v="Torbjørnsskjeret" />
		<tag k="place" v="islet" />
		<tag k="ssr:stedsnr" v="219791" />
	</node>
	<node id="-468541" lat="60.2048944404" lon="5.62205833145">
		<tag k="name" v="Opsalneset" />
		<tag k="natural" v="cape" />
		<tag k="ssr:stedsnr" v="219777" />
	</node>
	<node id="-468522" lat="60.1875166622" lon="5.766594445">
		<tag k="name" v="Nordvika" />
		<tag k="natural" v="bay" />
		<tag k="ssr:stedsnr" v="219634" />
	</node>
	<node id="-468518" lat="60.1251786806" lon="5.76795958535">
		<tag k="name" v="Høyneset" />
		<tag k="natural" v="cape" />
		<tag k="ssr:stedsnr" v="219590" />
	</node>
	<node id="-468510" lat="60.2336888893" lon="5.73216943601">
		<tag k="name" v="Hagafjøra" />
		<tag k="natural" v="bay" />
		<tag k="ssr:stedsnr" v="219518" />
	</node>
	<node id="-468476" lat="60.1432083365" lon="5.57307499205">
		<tag k="name" v="Hatlemnesskallane" />
		<tag k="natural" v="shoal" />
		<tag k="place" v="locality" />
		<tag k="ssr:stedsnr" v="207766" />
	</node>
	<node id="-468474" lat="60.3010583359" lon="5.66199166098">
		<tag k="name" v="Kalven" />
		<tag k="natural" v="bay" />
		<tag k="ssr:stedsnr" v="207145" />
	</node>
	<node id="-468473" lat="60.2819861102" lon="5.63731388807">
		<tag k="name" v="Komfarholmen" />
		<tag k="place" v="islet" />
		<tag k="ssr:stedsnr" v="206347" />
	</node>
	<node id="-468472" lat="60.2683138877" lon="5.62370555985">
		<tag k="name" v="Gongstoneset" />
		<tag k="natural" v="cape" />
		<tag k="ssr:stedsnr" v="206331" />
	</node>
	<node id="-468471" lat="60.232463885" lon="5.72797778299">
		<tag k="name" v="Austestadvågen" />
		<tag k="natural" v="bay" />
		<tag k="ssr:stedsnr" v="206243" />
	</node>
	<node id="-468470" lat="60.0551111101" lon="5.79971667093">
		<tag k="name" v="Mjelkevika" />
		<tag k="natural" v="bay" />
		<tag k="ssr:stedsnr" v="206150" />
	</node>
	<node id="-468469" lat="60.1357694431" lon="5.68855000854">
		<tag k="name" v="Flategrunn" />
		<tag k="natural" v="shoal" />
		<tag k="place" v="locality" />
		<tag k="ssr:stedsnr" v="206141" />
	</node>
	<node id="-468468" lat="60.1173111078" lon="5.637986113">
		<tag k="name" v="Synsteflu" />
		<tag k="natural" v="shoal" />
		<tag k="place" v="locality" />
		<tag k="ssr:stedsnr" v="206140" />
	</node>
	<node id="-468449" lat="60.2325999996" lon="5.72481388249">
		<tag k="name" v="Klubben" />
		<tag k="natural" v="cape" />
		<tag k="ssr:stedsnr" v="187562" />
	</node>
	<node id="-468444" lat="60.183897219" lon="5.74548610909">
		<tag k="name" v="Nautaneset" />
		<tag k="natural" v="cape" />
		<tag k="ssr:stedsnr" v="187387" />
	</node>
	<node id="-468443" lat="60.1723638912" lon="5.6899111175">
		<tag k="alt_name" v="Djupavågen" />
		<tag k="name" v="Djupevågen" />
		<tag k="natural" v="bay" />
		<tag k="ssr:stedsnr" v="187380" />
	</node>
	<node id="-468442" lat="60.2645249999" lon="5.65179999432">
		<tag k="alt_name" v="Årlandsholmen" />
		<tag k="name" v="Ådlandsholmen" />
		<tag k="place" v="islet" />
		<tag k="ssr:stedsnr" v="187281" />
	</node>
	<node id="-468439" lat="60.0702781133" lon="5.75863444016">
		<tag k="name" v="Bukkholmane" />
		<tag k="place" v="islet" />
		<tag k="ssr:stedsnr" v="187250" />
	</node>
	<node id="-468438" lat="60.0668916702" lon="5.71493055416">
		<tag k="name" v="Nesbjørhamn" />
		<tag k="natural" v="bay" />
		<tag k="ssr:stedsnr" v="187249" />
	</node>
	<node id="-468433" lat="60.1901444462" lon="5.69723332431">
		<tag k="name" v="Håvika" />
		<tag k="natural" v="bay" />
		<tag k="ssr:stedsnr" v="187085" />
	</node>
	<node id="-468428" lat="60.1599915869" lon="5.68351193864">
		<tag k="name" v="Storasundet" />
		<tag k="natural" v="strait" />
		<tag k="ssr:stedsnr" v="186410" />
	</node>
	<node id="-468425" lat="60.0498805587" lon="5.71056666067">
		<tag k="name" v="Bergsvågen" />
		<tag k="natural" v="bay" />
		<tag k="ssr:stedsnr" v="186320" />
	</node>
	<node id="-468419" lat="60.243213891" lon="5.6948861167">
		<tag k="name" v="Haganeset" />
		<tag k="natural" v="cape" />
		<tag k="ssr:stedsnr" v="186047" />
	</node>
	<node id="-468418" lat="60.2394055534" lon="5.74687778396">
		<tag k="name" v="Leira" />
		<tag k="natural" v="beach" />
		<tag k="place" v="locality" />
		<tag k="ssr:stedsnr" v="186034" />
	</node>
	<node id="-468408" lat="60.2977361147" lon="5.65370832695">
		<tag k="name" v="Øyatangen" />
		<tag k="natural" v="cape" />
		<tag k="ssr:stedsnr" v="158998" />
	</node>
	<node id="-468404" lat="60.0608722187" lon="5.79904999643">
		<tag k="name" v="Storeolderneset" />
		<tag k="natural" v="cape" />
		<tag k="ssr:stedsnr" v="158901" />
	</node>
	<node id="-468398" lat="60.2818861145" lon="5.66241666614">
		<tag k="name" v="Straumvika" />
		<tag k="natural" v="bay" />
		<tag k="ssr:stedsnr" v="158796" />
	</node>
	<node id="-468394" lat="60.2037722228" lon="5.61906110527">
		<tag k="name" v="Landsvika" />
		<tag k="natural" v="bay" />
		<tag k="ssr:stedsnr" v="158774" />
	</node>
	<node id="-468393" lat="60.2025416692" lon="5.59534721443">
		<tag k="name" v="Høganeset" />
		<tag k="natural" v="cape" />
		<tag k="ssr:stedsnr" v="158767" />
	</node>
	<node id="-468376" lat="60.1766888851" lon="5.73804166724">
		<tag k="name" v="Bogen" />
		<tag k="natural" v="bay" />
		<tag k="ssr:stedsnr" v="158612" />
	</node>
	<node id="-468373" lat="60.1275416646" lon="5.76204721977">
		<tag k="name" v="Teigneset" />
		<tag k="natural" v="cape" />
		<tag k="ssr:stedsnr" v="158564" />
	</node>
	<node id="-468372" lat="60.1171166705" lon="5.73303888774">
		<tag k="name" v="Geitaryggen" />
		<tag k="natural" v="cape" />
		<tag k="ssr:stedsnr" v="158560" />
	</node>
	<node id="-468371" lat="60.1121472242" lon="5.73073056059">
		<tag k="name" v="Fagravika" />
		<tag k="natural" v="bay" />
		<tag k="ssr:stedsnr" v="158558" />
	</node>
	<node id="-468366" lat="60.1398972246" lon="5.74827500589">
		<tag k="name" v="Sørtveitfjæra" />
		<tag k="natural" v="bay" />
		<tag k="ssr:stedsnr" v="158953" />
	</node>
	<node id="-468365" lat="60.138350001" lon="5.75357222256">
		<tag k="name" v="Sagneset" />
		<tag k="natural" v="cape" />
		<tag k="ssr:stedsnr" v="158951" />
	</node>
	<node id="-468361" lat="60.1098166624" lon="5.73273054703">
		<tag k="name" v="Bjørnsvikane" />
		<tag k="natural" v="bay" />
		<tag k="ssr:stedsnr" v="158908" />
	</node>
	<node id="-468360" lat="60.063558335" lon="5.79112778292">
		<tag k="name" v="Leiteneset" />
		<tag k="natural" v="cape" />
		<tag k="ssr:stedsnr" v="158903" />
	</node>
	<node id="-468325" lat="60.0722472184" lon="5.76900278551">
		<tag k="name" v="Elishavnen" />
		<tag k="natural" v="bay" />
		<tag k="ssr:stedsnr" v="158091" />
	</node>
	<node id="-468314" lat="60.1446722181" lon="5.58872778368">
		<tag k="fixme" v="consider seamark:type=rock or natural=shoal" />
		<tag k="name" v="Ternskjeret" />
		<tag k="place" v="islet" />
		<tag k="ssr:stedsnr" v="146696" />
	</node>
	<node id="-468312" lat="60.304763888" lon="5.65815556253">
		<tag k="name" v="Hopsvika" />
		<tag k="natural" v="bay" />
		<tag k="ssr:stedsnr" v="145368" />
	</node>
	<node id="-468311" lat="60.2295444406" lon="5.67309166301">
		<tag k="name" v="Blomvågen" />
		<tag k="natural" v="bay" />
		<tag k="ssr:stedsnr" v="145244" />
	</node>
	<node id="-468309" lat="60.071358336" lon="5.76094722038">
		<tag k="name" v="Fureneset" />
		<tag k="natural" v="cape" />
		<tag k="ssr:stedsnr" v="145166" />
	</node>
	<node id="-468308" lat="60.0661235458" lon="5.76577187488">
		<tag k="name" v="Djupevika" />
		<tag k="natural" v="bay" />
		<tag k="ssr:stedsnr" v="145140" />
	</node>
	<node id="-468291" lat="60.1382499958" lon="5.6658638827">
		<tag k="name" v="Stallane" />
		<tag k="natural" v="shoal" />
		<tag k="place" v="locality" />
		<tag k="ssr:stedsnr" v="126481" />
	</node>
	<node id="-468286" lat="60.18245" lon="5.75523611124">
		<tag k="name" v="Hamnaneset" />
		<tag k="natural" v="cape" />
		<tag k="ssr:stedsnr" v="126413" />
	</node>
	<node id="-468285" lat="60.1685666688" lon="5.59335000474">
		<tag k="alt_name" v="Skotavågen" />
		<tag k="name" v="Skåtavågen" />
		<tag k="natural" v="bay" />
		<tag k="ssr:stedsnr" v="126403" />
	</node>
	<node id="-468282" lat="60.095141668" lon="5.73390832823">
		<tag k="alt_name" v="Andeneset" />
		<tag k="name" v="Andaneset" />
		<tag k="natural" v="cape" />
		<tag k="ssr:stedsnr" v="126469" />
	</node>
	<node id="-468280" lat="60.1535861094" lon="5.53962777281">
		<tag k="name" v="Godfaren" />
		<tag k="natural" v="shoal" />
		<tag k="place" v="locality" />
		<tag k="ssr:stedsnr" v="126379" />
	</node>
	<node id="-468274" lat="60.1868999969" lon="5.60505556008">
		<tag k="name" v="Storlineset" />
		<tag k="natural" v="cape" />
		<tag k="ssr:stedsnr" v="126076" />
	</node>
	<node id="-468269" lat="60.2247416676" lon="5.5955944356">
		<tag k="name" v="Skallen" />
		<tag k="natural" v="shoal" />
		<tag k="place" v="locality" />
		<tag k="ssr:stedsnr" v="126013" />
	</node>
	<node id="-468268" lat="60.2260749986" lon="5.656794453">
		<tag k="name" v="Slåttaneset" />
		<tag k="natural" v="cape" />
		<tag k="ssr:stedsnr" v="126011" />
	</node>
	<node id="-468264" lat="60.0570611104" lon="5.79654722312">
		<tag k="alt_name" v="Sunnfjordvågen;Sundfjordvågen" />
		<tag k="name" v="Sundfjorden" />
		<tag k="natural" v="bay" />
		<tag k="ssr:stedsnr" v="125379" />
	</node>
	<node id="-468263" lat="60.2070416681" lon="5.62915556359">
		<tag k="name" v="Fusavika" />
		<tag k="natural" v="bay" />
		<tag k="ssr:stedsnr" v="125118" />
	</node>
	<node id="-468260" lat="60.2324166701" lon="5.71677499825">
		<tag k="name" v="Lammaneset" />
		<tag k="natural" v="cape" />
		<tag k="ssr:stedsnr" v="125034" />
	</node>
	<node id="-468259" lat="60.2060111142" lon="5.59788333813">
		<tag k="name" v="Klemetsholmen" />
		<tag k="place" v="islet" />
		<tag k="ssr:stedsnr" v="125009" />
	</node>
	<node id="-468255" lat="60.2965555555" lon="5.65833332926">
		<tag k="name" v="Skotholmen" />
		<tag k="place" v="islet" />
		<tag k="ssr:stedsnr" v="98998" />
	</node>
	<node id="-468246" lat="60.2521027792" lon="5.62726944258">
		<tag k="name" v="Ærevika" />
		<tag k="natural" v="bay" />
		<tag k="ssr:stedsnr" v="98938" />
	</node>
	<node id="-468245" lat="60.1345611114" lon="5.7549833251">
		<tag k="name" v="Otravika" />
		<tag k="natural" v="bay" />
		<tag k="ssr:stedsnr" v="98928" />
	</node>
	<node id="-468234" lat="60.2781611094" lon="5.64507499333">
		<tag k="name" v="Fureneset" />
		<tag k="natural" v="cape" />
		<tag k="ssr:stedsnr" v="98771" />
	</node>
	<node id="-468196" lat="60.2342638903" lon="5.73234444777">
		<tag k="name" v="Haganeset" />
		<tag k="natural" v="cape" />
		<tag k="ssr:stedsnr" v="97480" />
	</node>
	<node id="-468177" lat="60.2343055543" lon="5.59447776921">
		<tag k="fixme" v="consider seamark:type=rock or natural=shoal" />
		<tag k="name" v="Langskjeret" />
		<tag k="place" v="islet" />
		<tag k="ssr:stedsnr" v="85601" />
	</node>
	<node id="-468176" lat="60.0678041195" lon="5.76288914839">
		<tag k="alt_name" v="Kyrkjeholmen" />
		<tag k="name" v="Kyrkjeholmane" />
		<tag k="place" v="islet" />
		<tag k="ssr:stedsnr" v="85126" />
	</node>
	<node id="-468175" lat="60.1605416684" lon="5.67978056297">
		<tag k="name" v="Ådnavika" />
		<tag k="natural" v="bay" />
		<tag k="ssr:stedsnr" v="85094" />
	</node>
	<node id="-468169" lat="60.121652775" lon="5.74853333398">
		<tag k="alt_name" v="Nordra Skorevågen" />
		<tag k="name" v="Skåravågen" />
		<tag k="natural" v="bay" />
		<tag k="ssr:stedsnr" v="66459" />
	</node>
	<node id="-468160" lat="60.3018666621" lon="5.65297499273">
		<tag k="name" v="Klurasundet" />
		<tag k="natural" v="strait" />
		<tag k="ssr:stedsnr" v="66275" />
	</node>
	<node id="-468159" lat="60.3094722267" lon="5.65187222091">
		<tag k="name" v="Gongvika" />
		<tag k="natural" v="bay" />
		<tag k="ssr:stedsnr" v="66265" />
	</node>
	<node id="-468158" lat="60.2935999997" lon="5.64762777066">
		<tag k="name" v="Børøysundet" />
		<tag k="natural" v="strait" />
		<tag k="ssr:stedsnr" v="66253" />
	</node>
	<node id="-468157" lat="60.2450305576" lon="5.59966944679">
		<tag k="name" v="Annesvika" />
		<tag k="natural" v="bay" />
		<tag k="ssr:stedsnr" v="66185" />
	</node>
	<node id="-468155" lat="60.1808777756" lon="5.69304445322">
		<tag k="name" v="Låtro" />
		<tag k="natural" v="cape" />
		<tag k="ssr:stedsnr" v="66072" />
	</node>
	<node id="-468147" lat="60.1743027746" lon="5.72615832938">
		<tag k="name" v="Mjånes" />
		<tag k="natural" v="cape" />
		<tag k="ssr:stedsnr" v="65422" />
	</node>
	<node id="-468144" lat="60.1586638854" lon="5.58013334205">
		<tag k="name" v="Skåtavika" />
		<tag k="natural" v="bay" />
		<tag k="ssr:stedsnr" v="65410" />
	</node>
	<node id="-468142" lat="60.1538555515" lon="5.68317500861">
		<tag k="name" v="Stegleholmen" />
		<tag k="place" v="islet" />
		<tag k="ssr:stedsnr" v="65384" />
	</node>
	<node id="-468133" lat="60.1967083324" lon="5.59904166086">
		<tag k="name" v="Otraneset" />
		<tag k="natural" v="cape" />
		<tag k="ssr:stedsnr" v="65076" />
	</node>
	<node id="-468131" lat="60.1840555533" lon="5.59907499596">
		<tag k="name" v="Saltneset" />
		<tag k="natural" v="cape" />
		<tag k="ssr:stedsnr" v="65064" />
	</node>
	<node id="-468125" lat="60.0753305576" lon="5.72360277685">
		<tag k="alt_name" v="Nesbjørtoa" />
		<tag k="name" v="Nesbjørgtoa" />
		<tag k="natural" v="cape" />
		<tag k="ssr:stedsnr" v="65291" />
	</node>
	<node id="-468113" lat="60.2423805555" lon="5.5965249967">
		<tag k="name" v="Seineset" />
		<tag k="natural" v="cape" />
		<tag k="ssr:stedsnr" v="37956" />
	</node>
	<node id="-468110" lat="60.2500250032" lon="5.59878334037">
		<tag k="name" v="Dalavika" />
		<tag k="natural" v="bay" />
		<tag k="ssr:stedsnr" v="37947" />
	</node>
	<node id="-468105" lat="60.0471083369" lon="5.75086111294">
		<tag k="name" v="Øvrevågen" />
		<tag k="natural" v="bay" />
		<tag k="ssr:stedsnr" v="37916" />
	</node>
	<node id="-468104" lat="60.1074916697" lon="5.73965832926">
		<tag k="name" v="Eidet" />
		<tag k="place" v="locality" />
		<tag k="ssr:stedsnr" v="37914" />
	</node>
	<node id="-468103" lat="60.0547277757" lon="5.79236667529">
		<tag k="name" v="Klubben" />
		<tag k="natural" v="cape" />
		<tag k="ssr:stedsnr" v="37912" />
	</node>
	<node id="-468099" lat="60.233563891" lon="5.5935972139">
		<tag k="fixme" v="consider seamark:type=rock or natural=shoal" />
		<tag k="name" v="Varden" />
		<tag k="place" v="islet" />
		<tag k="ssr:stedsnr" v="37880" />
	</node>
	<node id="-468098" lat="60.2354388869" lon="5.59804722573">
		<tag k="name" v="Vetleholmen" />
		<tag k="place" v="islet" />
		<tag k="ssr:stedsnr" v="37879" />
	</node>
	<node id="-468094" lat="60.2793638906" lon="5.65977222301">
		<tag k="name" v="Kastevika" />
		<tag k="natural" v="bay" />
		<tag k="ssr:stedsnr" v="37823" />
	</node>
	<node id="-468079" lat="60.1169416655" lon="5.73526945075">
		<tag k="name" v="Holmen" />
		<tag k="place" v="islet" />
		<tag k="ssr:stedsnr" v="37593" />
	</node>
	<node id="-468048" lat="60.146011112" lon="5.62142500661">
		<tag k="name" v="Skåtodden" />
		<tag k="natural" v="cape" />
		<tag k="ssr:stedsnr" v="36831" />
	</node>
	<node id="-468047" lat="60.1468027771" lon="5.61916389032">
		<tag k="name" v="Nesodden" />
		<tag k="natural" v="cape" />
		<tag k="ssr:stedsnr" v="36830" />
	</node>
	<node id="-468031" lat="60.166855555" lon="5.58078055364">
		<tag k="name" v="Skjeljeviksfluene" />
		<tag k="natural" v="shoal" />
		<tag k="place" v="locality" />
		<tag k="ssr:stedsnr" v="25784" />
	</node>
	<node id="-468030" lat="60.196277775" lon="5.60098610757">
		<tag k="name" v="Otravika" />
		<tag k="natural" v="bay" />
		<tag k="ssr:stedsnr" v="25689" />
	</node>
	<node id="-468029" lat="60.2497805533" lon="5.64203055753">
		<tag k="name" v="Bremingen" />
		<tag k="natural" v="cape" />
		<tag k="ssr:stedsnr" v="24661" />
	</node>
	<node id="-468028" lat="60.277080558" lon="5.6437694438">
		<tag k="name" v="Eidsvågen" />
		<tag k="natural" v="bay" />
		<tag k="ssr:stedsnr" v="24343" />
	</node>
	<node id="-468027" lat="60.0733749997" lon="5.75341944363">
		<tag k="name" v="Øyasundet" />
		<tag k="natural" v="strait" />
		<tag k="ssr:stedsnr" v="24228" />
	</node>
	<node id="-468022" lat="60.2916472201" lon="5.64021388218">
		<tag k="name" v="Tångane" />
		<tag k="natural" v="cape" />
		<tag k="ssr:stedsnr" v="24133" />
	</node>
	<node id="-468021" lat="60.0781416681" lon="5.80389166749">
		<tag k="name" v="Eidet" />
		<tag k="place" v="locality" />
		<tag k="ssr:stedsnr" v="24132" />
	</node>
	<node id="-468007" lat="60.1319944441" lon="5.64480556204">
		<tag k="name" v="Grunna" />
		<tag k="natural" v="shoal" />
		<tag k="place" v="locality" />
		<tag k="ssr:stedsnr" v="5473" />
	</node>
	<node id="-468005" lat="60.1402055592" lon="5.74437500706">
		<tag k="alt_name" v="Tveiteneset" />
		<tag k="name" v="Tveitneset" />
		<tag k="natural" v="cape" />
		<tag k="ssr:stedsnr" v="5458" />
	</node>
	<node id="-468003" lat="60.1081666635" lon="5.72899999902">
		<tag k="name" v="Eidesvika" />
		<tag k="natural" v="bay" />
		<tag k="ssr:stedsnr" v="5432" />
	</node>
	<node id="-467999" lat="60.2759333291" lon="5.63673610691">
		<tag k="name" v="Viersvågen" />
		<tag k="natural" v="bay" />
		<tag k="ssr:stedsnr" v="5292" />
	</node>
	<node id="-467993" lat="60.1895194419" lon="5.58128888386">
		<tag k="name" v="Nordflu" />
		<tag k="natural" v="shoal" />
		<tag k="place" v="locality" />
		<tag k="ssr:stedsnr" v="5074" />
	</node>
	<node id="-467989" lat="60.0901055548" lon="5.74075834031">
		<tag k="name" v="Hjartåkervika" />
		<tag k="natural" v="bay" />
		<tag k="ssr:stedsnr" v="4460" />
	</node>
	<node id="-467987" lat="60.1593916662" lon="5.72659167525">
		<tag k="alt_name" v="Rusavika" />
		<tag k="name" v="Russevika" />
		<tag k="natural" v="bay" />
		<tag k="ssr:stedsnr" v="4396" />
	</node>
	<node id="-467986" lat="60.1556777768" lon="5.68479723021">
		<tag k="fixme" v="consider seamark:type=rock or natural=shoal" />
		<tag k="name" v="Åmeskjeret" />
		<tag k="place" v="islet" />
		<tag k="ssr:stedsnr" v="4394" />
	</node>
	<node id="-467975" lat="60.2861632734" lon="5.62616396805">
		<tag k="bay" v="fjord" />
		<tag k="name" v="Samnangerfjorden" />
		<tag k="natural" v="bay" />
		<tag k="ssr:stedsnr" v="794176" />
	</node>
	<node id="-467974" lat="60.1850289641" lon="5.60371428225">
		<tag k="name" v="Skjørsandbukta" />
		<tag k="natural" v="bay" />
		<tag k="ssr:stedsnr" v="991029" />
	</node>
	<node id="-467973" lat="60.1458426774" lon="5.74212192465">
		<tag k="name" v="Baldersheimvika" />
		<tag k="natural" v="bay" />
		<tag k="ssr:stedsnr" v="991020" />
	</node>
	<node id="-467959" lat="60.2488138905" lon="5.64000556221">
		<tag k="name" v="Bremingsvika" />
		<tag k="natural" v="bay" />
		<tag k="ssr:stedsnr" v="887957" />
	</node>
	<node id="-467953" lat="60.0589277759" lon="5.79076945269">
		<tag k="name" v="Sørevika" />
		<tag k="natural" v="bay" />
		<tag k="ssr:stedsnr" v="887910" />
	</node>
	<node id="-467950" lat="60.0603305539" lon="5.7542944397">
		<tag k="name" v="Ytstehola" />
		<tag k="natural" v="bay" />
		<tag k="ssr:stedsnr" v="887898" />
	</node>
	<node id="-467947" lat="60.2372750001" lon="5.5972638831">
		<tag k="name" v="Sundet" />
		<tag k="natural" v="strait" />
		<tag k="ssr:stedsnr" v="887884" />
	</node>
	<node id="-467943" lat="60.2656250015" lon="5.66371111798">
		<tag k="name" v="Vadvika" />
		<tag k="natural" v="bay" />
		<tag k="ssr:stedsnr" v="887807" />
	</node>
	<node id="-467942" lat="60.2681027783" lon="5.64256111802">
		<tag k="fixme" v="consider seamark:type=rock or natural=shoal" />
		<tag k="name" v="Kjetteviksskjeret" />
		<tag k="place" v="islet" />
		<tag k="ssr:stedsnr" v="887798" />
	</node>
	<node id="-467885" lat="60.2621777783" lon="5.65694167462">
		<tag k="name" v="Matlandsbreivika" />
		<tag k="natural" v="bay" />
		<tag k="ssr:stedsnr" v="401956" />
	</node>
	<node id="-467880" lat="60.2499388917" lon="5.60001111506">
		<tag k="name" v="Baransvika" />
		<tag k="natural" v="bay" />
		<tag k="ssr:stedsnr" v="401927" />
	</node>
	<node id="-467879" lat="60.1438333322" lon="5.73986944114">
		<tag k="name" v="Steinavika" />
		<tag k="natural" v="bay" />
		<tag k="ssr:stedsnr" v="401917" />
	</node>
	<node id="-467878" lat="60.0745583306" lon="5.78038889206">
		<tag k="name" v="Lyvika" />
		<tag k="natural" v="bay" />
		<tag k="ssr:stedsnr" v="401910" />
	</node>
	<node id="-467875" lat="60.1023805585" lon="5.73156388994">
		<tag k="name" v="Hjartnesvika" />
		<tag k="natural" v="bay" />
		<tag k="ssr:stedsnr" v="401882" />
	</node>
	<node id="-467874" lat="60.0578638929" lon="5.79761943817">
		<tag k="name" v="Vetleolderneset" />
		<tag k="natural" v="cape" />
		<tag k="ssr:stedsnr" v="401877" />
	</node>
	<node id="-467865" lat="60.1984166655" lon="5.59374721504">
		<tag k="fixme" v="consider seamark:type=rock or natural=shoal" />
		<tag k="name" v="Prestaskjeret" />
		<tag k="place" v="islet" />
		<tag k="ssr:stedsnr" v="401758" />
	</node>
	<node id="-469863" lat="60.1472527764" lon="5.7357499934">
		<tag k="name" v="Marineset" />
		<tag k="natural" v="cape" />
		<tag k="ssr:stedsnr" v="947931" />
	</node>
	<node id="-469862" lat="60.1530777772" lon="5.72764722316">
		<tag k="name" v="Revnafjæra" />
		<tag k="natural" v="bay" />
		<tag k="ssr:stedsnr" v="947920" />
	</node>
	<node id="-467813" lat="60.1428333371" lon="5.5971861161">
		<tag k="name" v="Kistevika" />
		<tag k="natural" v="bay" />
		<tag k="ssr:stedsnr" v="400830" />
	</node>
	<node id="-467812" lat="60.1451777762" lon="5.61383889">
		<tag k="fixme" v="consider seamark:type=rock or natural=shoal" />
		<tag k="name" v="Tretteskjeret" />
		<tag k="place" v="islet" />
		<tag k="ssr:stedsnr" v="400827" />
	</node>
	<node id="-469854" lat="60.2815444437" lon="5.65976388166">
		<tag k="name" v="Holmefjordvika" />
		<tag k="natural" v="bay" />
		<tag k="ssr:stedsnr" v="947781" />
	</node>
	<node id="-469851" lat="60.2053194484" lon="5.61501944266">
		<tag k="name" v="Klubben" />
		<tag k="natural" v="cape" />
		<tag k="ssr:stedsnr" v="947740" />
	</node>
	<node id="-467802" lat="60.2360416709" lon="5.73998055142">
		<tag k="name" v="Lauvneset" />
		<tag k="natural" v="cape" />
		<tag k="ssr:stedsnr" v="400499" />
	</node>
	<node id="-467791" lat="60.1871138906" lon="5.76660000255">
		<tag k="name" v="Hatletveitvågen" />
		<tag k="natural" v="bay" />
		<tag k="ssr:stedsnr" v="388229" />
	</node>
	<node id="-467790" lat="60.0842000034" lon="5.80081389089">
		<tag k="name" v="Skillevika" />
		<tag k="natural" v="bay" />
		<tag k="ssr:stedsnr" v="388215" />
	</node>
	<node id="-467789" lat="60.0513777818" lon="5.70770833137">
		<tag k="name" v="Bergsvågklubben" />
		<tag k="natural" v="cape" />
		<tag k="ssr:stedsnr" v="388071" />
	</node>
	<node id="-469831" lat="60.1198638897" lon="5.79961665913">
		<tag k="name" v="Drabbavågen" />
		<tag k="natural" v="bay" />
		<tag k="ssr:stedsnr" v="947607" />
	</node>
	<node id="-467776" lat="60.1484500009" lon="5.5994888848">
		<tag k="name" v="Leira" />
		<tag k="natural" v="beach" />
		<tag k="place" v="locality" />
		<tag k="ssr:stedsnr" v="369544" />
	</node>
	<node id="-467775" lat="60.1472666626" lon="5.63117500382">
		<tag k="name" v="Salbuvika" />
		<tag k="natural" v="bay" />
		<tag k="ssr:stedsnr" v="369543" />
	</node>
	<node id="-467763" lat="60.1685694477" lon="5.58709167416">
		<tag k="name" v="Steinavika" />
		<tag k="natural" v="bay" />
		<tag k="ssr:stedsnr" v="369364" />
	</node>
	<node id="-467761" lat="60.0559750009" lon="5.71517500613">
		<tag k="name" v="Ospeneset" />
		<tag k="natural" v="cape" />
		<tag k="ssr:stedsnr" v="369328" />
	</node>
	<node id="-467758" lat="60.2953388917" lon="5.64408333117">
		<tag k="name" v="Børøya" />
		<tag k="place" v="island" />
		<tag k="ssr:stedsnr" v="369261" />
	</node>
	<node id="-469800" lat="60.1570595457" lon="5.6758469512">
		<tag k="fixme" v="consider seamark:type=rock or natural=shoal" />
		<tag k="name" v="Gåseskjeret" />
		<tag k="place" v="islet" />
		<tag k="ssr:stedsnr" v="947079" />
	</node>
	<node id="-469794" lat="60.0721638849" lon="5.76594721556">
		<tag k="name" v="Ytra Eleshamn" />
		<tag k="natural" v="bay" />
		<tag k="ssr:stedsnr" v="935151" />
	</node>
	<node id="-469793" lat="60.184258333" lon="5.76112500037">
		<tag k="name" v="Sanddalsflua" />
		<tag k="natural" v="shoal" />
		<tag k="place" v="locality" />
		<tag k="ssr:stedsnr" v="935144" />
	</node>
	<node id="-467744" lat="60.1902166702" lon="5.60272776947">
		<tag k="alt_name" v="Foraskjeret" />
		<tag k="fixme" v="consider seamark:type=rock or natural=shoal" />
		<tag k="name" v="Fureskjerene" />
		<tag k="place" v="islet" />
		<tag k="ssr:stedsnr" v="369066" />
	</node>
	<node id="-467743" lat="60.1801583296" lon="5.59670000451">
		<tag k="name" v="Leirvika" />
		<tag k="natural" v="bay" />
		<tag k="ssr:stedsnr" v="369063" />
	</node>
	<node id="-469787" lat="60.2600722248" lon="5.64315556307">
		<tag k="name" v="Samnøyholmen" />
		<tag k="place" v="islet" />
		<tag k="ssr:stedsnr" v="916308" />
	</node>
	<node id="-469779" lat="60.1187055593" lon="5.73293889701">
		<tag k="alt_name" v="Lyngnes" />
		<tag k="name" v="Lyngneset" />
		<tag k="natural" v="cape" />
		<tag k="ssr:stedsnr" v="915474" />
	</node>
	<node id="-469777" lat="60.0793027795" lon="5.74646666604">
		<tag k="name" v="Høyneset" />
		<tag k="natural" v="cape" />
		<tag k="ssr:stedsnr" v="915436" />
	</node>
	<node id="-469775" lat="60.1024972231" lon="5.73864722369">
		<tag k="name" v="Hjartnesvågen" />
		<tag k="natural" v="bay" />
		<tag k="ssr:stedsnr" v="915427" />
	</node>
	<node id="-469772" lat="60.1745999993" lon="5.73099444679">
		<tag k="name" v="Mjånesvågen" />
		<tag k="natural" v="bay" />
		<tag k="ssr:stedsnr" v="915408" />
	</node>
	<node id="-469771" lat="60.1632361084" lon="5.58059999245">
		<tag k="name" v="Træsneset" />
		<tag k="natural" v="cape" />
		<tag k="ssr:stedsnr" v="915402" />
	</node>
	<node id="-469770" lat="60.1845972258" lon="5.74126388777">
		<tag k="alt_name" v="Mørkevågen" />
		<tag k="name" v="Myrkevågen" />
		<tag k="natural" v="bay" />
		<tag k="ssr:stedsnr" v="915398" />
	</node>
	<node id="-469769" lat="60.1657583305" lon="5.58511110521">
		<tag k="name" v="Skjelevika" />
		<tag k="natural" v="bay" />
		<tag k="ssr:stedsnr" v="915388" />
	</node>
	<node id="-469768" lat="60.0822555525" lon="5.78709443892">
		<tag k="name" v="Lauvskåra" />
		<tag k="natural" v="cape" />
		<tag k="ssr:stedsnr" v="915269" />
	</node>
	<node id="-469767" lat="60.2907888855" lon="5.65570555499">
		<tag k="name" v="Tveitasundet" />
		<tag k="natural" v="strait" />
		<tag k="ssr:stedsnr" v="915248" />
	</node>
	<node id="-467715" lat="60.2907722208" lon="5.64761110392">
		<tag k="name" v="Mørkevågen" />
		<tag k="natural" v="bay" />
		<tag k="ssr:stedsnr" v="340997" />
	</node>
	<node id="-469759" lat="60.2259916707" lon="5.64954999365">
		<tag k="name" v="Gjerdavikflua" />
		<tag k="natural" v="shoal" />
		<tag k="place" v="locality" />
		<tag k="ssr:stedsnr" v="915012" />
	</node>
	<node id="-467710" lat="60.0629194486" lon="5.80402499719">
		<tag k="name" v="Orfallet" />
		<tag k="natural" v="cape" />
		<tag k="ssr:stedsnr" v="340902" />
	</node>
	<node id="-467708" lat="60.2309805546" lon="5.68253055357">
		<tag k="name" v="Bakkavika" />
		<tag k="natural" v="bay" />
		<tag k="ssr:stedsnr" v="340874" />
	</node>
	<node id="-469755" lat="60.2360333308" lon="5.62637500846">
		<tag k="name" v="Altaneset" />
		<tag k="natural" v="cape" />
		<tag k="ssr:stedsnr" v="915176" />
	</node>
	<node id="-469749" lat="60.0762666648" lon="5.72491945118">
		<tag k="name" v="Nesbjørgneset" />
		<tag k="natural" v="cape" />
		<tag k="ssr:stedsnr" v="903606" />
	</node>
	<node id="-467699" lat="60.2662305516" lon="5.61886388176">
		<tag k="name" v="Barua" />
		<tag k="natural" v="bay" />
		<tag k="ssr:stedsnr" v="340789" />
	</node>
	<node id="-469743" lat="60.2592999988" lon="5.59390556016">
		<tag k="name" v="Heianeset" />
		<tag k="natural" v="cape" />
		<tag k="ssr:stedsnr" v="874374" />
	</node>
	<node id="-467694" lat="60.2433222186" lon="5.73772499184">
		<tag k="name" v="Tollaneset" />
		<tag k="natural" v="cape" />
		<tag k="ssr:stedsnr" v="340721" />
	</node>
	<node id="-469738" lat="60.0815999991" lon="5.7998055598">
		<tag k="alt_name" v="Hoggeberget" />
		<tag k="name" v="Hoggeberg" />
		<tag k="natural" v="cape" />
		<tag k="ssr:stedsnr" v="874170" />
	</node>
	<node id="-467681" lat="60.1245472211" lon="5.7475000073">
		<tag k="name" v="Skåraholmen" />
		<tag k="place" v="islet" />
		<tag k="ssr:stedsnr" v="340574" />
	</node>
	<node id="-467680" lat="60.1173555585" lon="5.73168611276">
		<tag k="name" v="Geitavika" />
		<tag k="natural" v="bay" />
		<tag k="ssr:stedsnr" v="340572" />
	</node>
	<node id="-469723" lat="60.2509138888" lon="5.59438889417">
		<tag k="name" v="Bogavikane" />
		<tag k="natural" v="bay" />
		<tag k="ssr:stedsnr" v="855318" />
	</node>
	<node id="-469722" lat="60.2508527762" lon="5.57770833716">
		<tag k="name" v="Hovdasundet" />
		<tag k="natural" v="strait" />
		<tag k="ssr:stedsnr" v="855316" />
	</node>
	<node id="-469717" lat="60.1351111131" lon="5.75650000777">
		<tag k="alt_name" v="Otranes" />
		<tag k="name" v="Otraneset" />
		<tag k="natural" v="cape" />
		<tag k="ssr:stedsnr" v="855604" />
	</node>
	<node id="-469710" lat="60.1589611149" lon="5.68860832447">
		<tag k="alt_name" v="Storeholmen" />
		<tag k="name" v="Storholmen" />
		<tag k="place" v="islet" />
		<tag k="ssr:stedsnr" v="854390" />
	</node>
	<node id="-469709" lat="60.1428555552" lon="5.5919944365">
		<tag k="name" v="Neset" />
		<tag k="natural" v="cape" />
		<tag k="ssr:stedsnr" v="854387" />
	</node>
	<node id="-469708" lat="60.1393638918" lon="5.56327500273">
		<tag k="name" v="Stallen" />
		<tag k="natural" v="shoal" />
		<tag k="place" v="locality" />
		<tag k="ssr:stedsnr" v="854385" />
	</node>
	<node id="-469703" lat="60.1513388855" lon="5.58143610748">
		<tag k="name" v="Skagen" />
		<tag k="natural" v="cape" />
		<tag k="ssr:stedsnr" v="854357" />
	</node>
	<node id="-467745" lat="60.1836305587" lon="5.57659444935">
		<tag k="name" v="Midtskallen" />
		<tag k="natural" v="shoal" />
		<tag k="place" v="locality" />
		<tag k="ssr:stedsnr" v="369069" />
	</node>
	<node id="-469700" lat="60.0794000038" lon="5.81510555285">
		<tag k="name" v="Fureholmen" />
		<tag k="place" v="islet" />
		<tag k="ssr:stedsnr" v="854287" />
	</node>
	<node id="-469697" lat="60.0605611092" lon="5.75402777529">
		<tag k="name" v="Vågen" />
		<tag k="natural" v="bay" />
		<tag k="ssr:stedsnr" v="854237" />
	</node>
	<node id="-467641" lat="60.1550168812" lon="5.57601036104">
		<tag k="name" v="Vinnesholmen" />
		<tag k="place" v="islet" />
		<tag k="ssr:stedsnr" v="339091" />
	</node>
	<node id="-469686" lat="60.0425250026" lon="5.70858610787">
		<tag k="alt_name" v="Lokksundet;Lokksund" />
		<tag k="name" v="Lukksundet" />
		<tag k="natural" v="strait" />
		<tag k="ssr:stedsnr" v="843295" />
	</node>
	<node id="-467634" lat="60.1759777739" lon="5.68868610815">
		<tag k="alt_name" v="Håvikvågen" />
		<tag k="name" v="Håvikevågen" />
		<tag k="natural" v="bay" />
		<tag k="ssr:stedsnr" v="328259" />
	</node>
	<node id="-467632" lat="60.0716555556" lon="5.75848055092">
		<tag k="name" v="Tjøreholmane" />
		<tag k="place" v="islet" />
		<tag k="ssr:stedsnr" v="328149" />
	</node>
	<node id="-469679" lat="60.2849222249" lon="5.64003610518">
		<tag k="name" v="Skradavika" />
		<tag k="natural" v="bay" />
		<tag k="ssr:stedsnr" v="826987" />
	</node>
	<node id="-467630" lat="60.2761916679" lon="5.63492500395">
		<tag k="name" v="Parsneset" />
		<tag k="natural" v="cape" />
		<tag k="ssr:stedsnr" v="327384" />
	</node>
	<node id="-467629" lat="60.2892277778" lon="5.65686388446">
		<tag k="name" v="Tveitavika" />
		<tag k="natural" v="bay" />
		<tag k="ssr:stedsnr" v="327373" />
	</node>
	<node id="-469675" lat="60.2563916683" lon="5.63486943966">
		<tag k="name" v="Torvaneset" />
		<tag k="natural" v="cape" />
		<tag k="ssr:stedsnr" v="826949" />
	</node>
	<node id="-469674" lat="60.146172224" lon="5.73761388508">
		<tag k="name" v="Laukholmen" />
		<tag k="place" v="islet" />
		<tag k="ssr:stedsnr" v="826943" />
	</node>
	<node id="-469673" lat="60.0639527769" lon="5.74486945017">
		<tag k="name" v="Klubben" />
		<tag k="natural" v="cape" />
		<tag k="ssr:stedsnr" v="826892" />
	</node>
	<node id="-469671" lat="60.2291277822" lon="5.68767777777">
		<tag k="name" v="Kvålsvågen" />
		<tag k="natural" v="bay" />
		<tag k="ssr:stedsnr" v="826862" />
	</node>
	<node id="-469670" lat="60.2291416665" lon="5.69245833866">
		<tag k="name" v="Toreneset" />
		<tag k="natural" v="cape" />
		<tag k="ssr:stedsnr" v="826860" />
	</node>
	<node id="-467610" lat="60.1485611081" lon="5.64500832838">
		<tag k="alt_name" v="Refsnes" />
		<tag k="name" v="Revsneset" />
		<tag k="natural" v="cape" />
		<tag k="ssr:stedsnr" v="308445" />
	</node>
	<node id="-467609" lat="60.1470777734" lon="5.69717777723">
		<tag k="alt_name" v="Kalderassen" />
		<tag k="name" v="Kallerasen" />
		<tag k="natural" v="shoal" />
		<tag k="place" v="locality" />
		<tag k="ssr:stedsnr" v="308442" />
	</node>
	<node id="-467606" lat="60.1549611095" lon="5.71241111853">
		<tag k="alt_name" v="Skrubba" />
		<tag k="name" v="Skrubbo" />
		<tag k="natural" v="shoal" />
		<tag k="place" v="locality" />
		<tag k="ssr:stedsnr" v="308367" />
	</node>
	<node id="-467605" lat="60.1633805577" lon="5.69323056077">
		<tag k="alt_name" v="Notholmen" />
		<tag k="name" v="Lauholmen" />
		<tag k="place" v="islet" />
		<tag k="ssr:stedsnr" v="308356" />
	</node>
	<node id="-467604" lat="60.1657555516" lon="5.72152500855">
		<tag k="alt_name" v="Marstein" />
		<tag k="name" v="Marsteinen" />
		<tag k="natural" v="cape" />
		<tag k="ssr:stedsnr" v="308355" />
	</node>
	<node id="-469651" lat="60.115647225" lon="5.79686111744">
		<tag k="name" v="Vasslineset" />
		<tag k="natural" v="cape" />
		<tag k="ssr:stedsnr" v="826624" />
	</node>
	<node id="-467596" lat="60.0884083322" lon="5.73939999757">
		<tag k="alt_name" v="Båtanes" />
		<tag k="name" v="Båtaneset" />
		<tag k="natural" v="cape" />
		<tag k="ssr:stedsnr" v="307463" />
	</node>
	<node id="-467593" lat="60.1577305512" lon="5.57808332864">
		<tag k="name" v="Skipaneset" />
		<tag k="natural" v="cape" />
		<tag k="ssr:stedsnr" v="307429" />
	</node>
	<node id="-467591" lat="60.0797888881" lon="5.80254999665">
		<tag k="name" v="Slåttevika" />
		<tag k="natural" v="bay" />
		<tag k="ssr:stedsnr" v="308270" />
	</node>
	<node id="-469636" lat="60.2321277744" lon="5.7259388854">
		<tag k="name" v="Indre Austestadvågen" />
		<tag k="natural" v="bay" />
		<tag k="ssr:stedsnr" v="826513" />
	</node>
	<node id="-467583" lat="60.0806500021" lon="5.81955555339">
		<tag k="bay" v="fjord" />
		<tag k="name" v="Austefjorden" />
		<tag k="natural" v="bay" />
		<tag k="ssr:stedsnr" v="307316" />
	</node>
	<node id="-467581" lat="60.0707916643" lon="5.81644445215">
		<tag k="alt_name" v="Gråurevika" />
		<tag k="name" v="Gråurvika" />
		<tag k="natural" v="bay" />
		<tag k="ssr:stedsnr" v="296233" />
	</node>
	<node id="-467574" lat="60.301586115" lon="5.65896110718">
		<tag k="name" v="Kolleid" />
		<tag k="place" v="locality" />
		<tag k="ssr:stedsnr" v="280991" />
	</node>
	<node id="-467573" lat="60.3011222225" lon="5.65131667191">
		<tag k="name" v="Kalven" />
		<tag k="natural" v="cape" />
		<tag k="ssr:stedsnr" v="280992" />
	</node>
	<node id="-467571" lat="60.1392083367" lon="5.75404167017">
		<tag k="name" v="Båtavika" />
		<tag k="natural" v="bay" />
		<tag k="ssr:stedsnr" v="280937" />
	</node>
	<node id="-467570" lat="60.1426666696" lon="5.73932221842">
		<tag k="name" v="Steinaneset" />
		<tag k="natural" v="cape" />
		<tag k="ssr:stedsnr" v="280935" />
	</node>
	<node id="-467567" lat="60.0589749959" lon="5.75516944554">
		<tag k="name" v="Holmen" />
		<tag k="place" v="islet" />
		<tag k="ssr:stedsnr" v="280893" />
	</node>
	<node id="-469613" lat="60.1464388863" lon="5.60923333905">
		<tag k="name" v="Sommarvika" />
		<tag k="natural" v="bay" />
		<tag k="ssr:stedsnr" v="825817" />
	</node>
	<node id="-467562" lat="60.2642583314" lon="5.61146666584">
		<tag k="name" v="Skotevågen" />
		<tag k="natural" v="bay" />
		<tag k="ssr:stedsnr" v="280799" />
	</node>
	<node id="-467560" lat="60.2720722248" lon="5.64375833615">
		<tag k="name" v="Eidet" />
		<tag k="place" v="locality" />
		<tag k="ssr:stedsnr" v="280781" />
	</node>
	<node id="-467729" lat="60.1969666687" lon="5.57769999808">
		<tag k="name" v="Halvorskallen" />
		<tag k="natural" v="shoal" />
		<tag k="place" v="locality" />
		<tag k="ssr:stedsnr" v="368112" />
	</node>
	<node id="-467727" lat="60.2356111145" lon="5.59616388978">
		<tag k="alt_name" v="Storholmen" />
		<tag k="name" v="Holsundøy" />
		<tag k="place" v="islet" />
		<tag k="ssr:stedsnr" v="368079" />
	</node>
	<node id="-469589" lat="60.1464722202" lon="5.62206667006">
		<tag k="name" v="Skotodden" />
		<tag k="natural" v="cape" />
		<tag k="ssr:stedsnr" v="814777" />
	</node>
	<node id="-469587" lat="60.1986222255" lon="5.59596111746">
		<tag k="name" v="Prestaneset" />
		<tag k="natural" v="cape" />
		<tag k="ssr:stedsnr" v="813639" />
	</node>
	<node id="-469583" lat="60.0663166674" lon="5.77349444673">
		<tag k="name" v="Lambursvika" />
		<tag k="natural" v="bay" />
		<tag k="ssr:stedsnr" v="813131" />
	</node>
	<node id="-467724" lat="60.2355250034" lon="5.73345000003">
		<tag k="name" v="Austestadholmane" />
		<tag k="place" v="islet" />
		<tag k="ssr:stedsnr" v="368038" />
	</node>
	<node id="-469569" lat="60.1202237528" lon="5.7398119559">
		<tag k="alt_name" v="Søra Skorevågen" />
		<tag k="name" v="Lyngnesvågen" />
		<tag k="natural" v="bay" />
		<tag k="ssr:stedsnr" v="794471" />
	</node>
	<node id="-469568" lat="60.1137027783" lon="5.73190556135">
		<tag k="name" v="Fagervikneset" />
		<tag k="natural" v="cape" />
		<tag k="ssr:stedsnr" v="794433" />
	</node>
	<node id="-469561" lat="60.2584055585" lon="5.60246111015">
		<tag k="name" v="Bogøya" />
		<tag k="natural" v="cape" />
		<tag k="ssr:stedsnr" v="794273" />
	</node>
	<node id="-469548" lat="60.0766305523" lon="5.75077499577">
		<tag k="name" v="Janholmen" />
		<tag k="place" v="islet" />
		<tag k="ssr:stedsnr" v="793315" />
	</node>
	<node id="-469546" lat="60.0672749991" lon="5.74076389127">
		<tag k="name" v="Skiftesneset" />
		<tag k="natural" v="cape" />
		<tag k="ssr:stedsnr" v="793271" />
	</node>
	<node id="-469541" lat="60.2374611128" lon="5.6647611167">
		<tag k="bay" v="fjord" />
		<tag k="name" v="Eikelandsfjorden" />
		<tag k="natural" v="bay" />
		<tag k="ssr:stedsnr" v="793020" />
	</node>
	<node id="-469535" lat="60.1461305533" lon="5.55460000052">
		<tag k="alt_name" v="Midtflu" />
		<tag k="name" v="Midtflua" />
		<tag k="natural" v="shoal" />
		<tag k="place" v="locality" />
		<tag k="ssr:stedsnr" v="793416" />
	</node>
	<node id="-469530" lat="60.2413472244" lon="5.60691944705">
		<tag k="name" v="Leirhola" />
		<tag k="natural" v="bay" />
		<tag k="ssr:stedsnr" v="765971" />
	</node>
	<node id="-469526" lat="60.1411444456" lon="5.74106389263">
		<tag k="name" v="Tjørdalsvika" />
		<tag k="natural" v="bay" />
		<tag k="ssr:stedsnr" v="765940" />
	</node>
	<node id="-469523" lat="60.1016055595" lon="5.73739445301">
		<tag k="name" v="Slettavik" />
		<tag k="natural" v="bay" />
		<tag k="ssr:stedsnr" v="765898" />
	</node>
	<node id="-469519" lat="60.2311416642" lon="5.70151389422">
		<tag k="name" v="Dorganeset" />
		<tag k="natural" v="cape" />
		<tag k="ssr:stedsnr" v="765850" />
	</node>
	<node id="-469513" lat="60.2780055552" lon="5.63510000032">
		<tag k="name" v="Karivika" />
		<tag k="natural" v="bay" />
		<tag k="ssr:stedsnr" v="765766" />
	</node>
	<node id="-469499" lat="60.1208249993" lon="5.79493055277">
		<tag k="name" v="Sørtveitneset" />
		<tag k="natural" v="cape" />
		<tag k="ssr:stedsnr" v="765610" />
	</node>
	<node id="-469451" lat="60.1601361123" lon="5.67922499924">
		<tag k="name" v="Ådnavika" />
		<tag k="natural" v="bay" />
		<tag k="ssr:stedsnr" v="764890" />
	</node>
	<node id="-469433" lat="60.1479972258" lon="5.56891666415">
		<tag k="name" v="Nordausten" />
		<tag k="natural" v="shoal" />
		<tag k="place" v="locality" />
		<tag k="ssr:stedsnr" v="753752" />
	</node>
	<node id="-469432" lat="60.1928111148" lon="5.57737499532">
		<tag k="name" v="Grunneskallane" />
		<tag k="natural" v="shoal" />
		<tag k="place" v="locality" />
		<tag k="ssr:stedsnr" v="753677" />
	</node>
	<node id="-469431" lat="60.2044805578" lon="5.60369443593">
		<tag k="name" v="Saltbuneset" />
		<tag k="natural" v="cape" />
		<tag k="ssr:stedsnr" v="753617" />
	</node>
	<node id="-469430" lat="60.2623972264" lon="5.64769999083">
		<tag k="name" v="Kyrkjeflua" />
		<tag k="natural" v="shoal" />
		<tag k="place" v="locality" />
		<tag k="ssr:stedsnr" v="752373" />
	</node>
	<node id="-469429" lat="60.2703416704" lon="5.64951110993">
		<tag k="name" v="Holmefjordholmen" />
		<tag k="place" v="islet" />
		<tag k="ssr:stedsnr" v="752358" />
	</node>
	<node id="-469427" lat="60.0907000031" lon="5.83641943733">
		<tag k="name" v="Gamlevika" />
		<tag k="natural" v="bay" />
		<tag k="ssr:stedsnr" v="752218" />
	</node>
	<node id="-469426" lat="60.0582777794" lon="5.7141555514">
		<tag k="name" v="Knappen" />
		<tag k="natural" v="cape" />
		<tag k="ssr:stedsnr" v="752159" />
	</node>
	<node id="-469423" lat="60.0727861123" lon="5.75765000237">
		<tag k="name" v="Kvernavika" />
		<tag k="natural" v="bay" />
		<tag k="ssr:stedsnr" v="752144" />
	</node>
	<node id="-469422" lat="60.0878611132" lon="5.80134165869">
		<tag k="name" v="Vetlehagen" />
		<tag k="natural" v="cape" />
		<tag k="ssr:stedsnr" v="752139" />
	</node>
	<node id="-469421" lat="60.0693833357" lon="5.75519722975">
		<tag k="name" v="Grunnesundsholmen" />
		<tag k="place" v="islet" />
		<tag k="ssr:stedsnr" v="752128" />
	</node>
	<node id="-469420" lat="60.072700003" lon="5.81711666546">
		<tag k="name" v="Makkaholo" />
		<tag k="natural" v="bay" />
		<tag k="ssr:stedsnr" v="752123" />
	</node>
	<node id="-469405" lat="60.131736111" lon="5.7571972215">
		<tag k="name" v="Dyneneset" />
		<tag k="natural" v="cape" />
		<tag k="ssr:stedsnr" v="733454" />
	</node>
	<node id="-469404" lat="60.1266749988" lon="5.76060834219">
		<tag k="name" v="Femangerholmen" />
		<tag k="place" v="islet" />
		<tag k="ssr:stedsnr" v="733452" />
	</node>
	<node id="-469401" lat="60.1474527741" lon="5.73803332725">
		<tag k="name" v="Revnestrand" />
		<tag k="natural" v="beach" />
		<tag k="place" v="locality" />
		<tag k="ssr:stedsnr" v="733442" />
	</node>
	<node id="-469395" lat="60.1454249985" lon="5.60800278268">
		<tag k="name" v="Vågane" />
		<tag k="natural" v="bay" />
		<tag k="ssr:stedsnr" v="733371" />
	</node>
	<node id="-469394" lat="60.1479527785" lon="5.58988055864">
		<tag k="name" v="Selsneset" />
		<tag k="natural" v="cape" />
		<tag k="ssr:stedsnr" v="733370" />
	</node>
	<node id="-469390" lat="60.0502166639" lon="5.79337222281">
		<tag k="name" v="Nystølsvågen" />
		<tag k="natural" v="bay" />
		<tag k="ssr:stedsnr" v="733305" />
	</node>
	<node id="-469387" lat="60.078055552" lon="5.74878332676">
		<tag k="name" v="Sandvika" />
		<tag k="natural" v="bay" />
		<tag k="ssr:stedsnr" v="733286" />
	</node>
	<node id="-469386" lat="60.3070999961" lon="5.65079166327">
		<tag k="alt_name" v="Klurholmen" />
		<tag k="name" v="Kluraholmen" />
		<tag k="place" v="islet" />
		<tag k="ssr:stedsnr" v="733254" />
	</node>
	<node id="-469385" lat="60.0665539853" lon="5.76731649354">
		<tag k="alt_name" v="Nesjeøya" />
		<tag k="name" v="Nesjaøya" />
		<tag k="place" v="islet" />
		<tag k="ssr:stedsnr" v="733252" />
	</node>
	<node id="-469384" lat="60.2434611145" lon="5.65981666399">
		<tag k="name" v="Hafskorsundet" />
		<tag k="natural" v="strait" />
		<tag k="ssr:stedsnr" v="733185" />
	</node>
	<node id="-469375" lat="60.1771583298" lon="5.55888610988">
		<tag k="name" v="Sørskallen" />
		<tag k="natural" v="shoal" />
		<tag k="place" v="locality" />
		<tag k="ssr:stedsnr" v="733072" />
	</node>
	<node id="-469368" lat="60.1707388915" lon="5.72138610738">
		<tag k="name" v="Mjånestangen" />
		<tag k="natural" v="cape" />
		<tag k="ssr:stedsnr" v="732452" />
	</node>
	<node id="-469365" lat="60.1615388904" lon="5.7236361047">
		<tag k="alt_name" v="Tjugavika" />
		<tag k="name" v="Tjuavika" />
		<tag k="natural" v="bay" />
		<tag k="ssr:stedsnr" v="732402" />
	</node>
	<node id="-469364" lat="60.1682638923" lon="5.72246665807">
		<tag k="name" v="Aplavika" />
		<tag k="natural" v="bay" />
		<tag k="ssr:stedsnr" v="732401" />
	</node>
	<node id="-469360" lat="60.2417805544" lon="5.71768333077">
		<tag k="alt_name" v="Grimaneset" />
		<tag k="name" v="Grimeneset" />
		<tag k="natural" v="cape" />
		<tag k="ssr:stedsnr" v="732056" />
	</node>
	<node id="-469359" lat="60.2444944405" lon="5.72950000193">
		<tag k="name" v="Svaneneset" />
		<tag k="natural" v="cape" />
		<tag k="ssr:stedsnr" v="732057" />
	</node>
	<node id="-469344" lat="60.2989722217" lon="5.65530276886">
		<tag k="name" v="Kollesundet" />
		<tag k="natural" v="strait" />
		<tag k="ssr:stedsnr" v="704987" />
	</node>
	<node id="-469343" lat="60.2439527808" lon="5.68325000096">
		<tag k="name" v="Kjosaneset" />
		<tag k="natural" v="cape" />
		<tag k="ssr:stedsnr" v="704972" />
	</node>
	<node id="-469337" lat="60.071883335" lon="5.77096388525">
		<tag k="name" v="Dyrklubben" />
		<tag k="natural" v="cape" />
		<tag k="ssr:stedsnr" v="704912" />
	</node>
	<node id="-469314" lat="60.184880557" lon="5.76385833741">
		<tag k="name" v="Sveneset" />
		<tag k="natural" v="cape" />
		<tag k="ssr:stedsnr" v="704579" />
	</node>
	<node id="-469728" lat="60.1771916712" lon="5.69036111838">
		<tag k="name" v="Vågsneset" />
		<tag k="natural" v="cape" />
		<tag k="ssr:stedsnr" v="855402" />
	</node>
	<node id="-469275" lat="60.3117777778" lon="5.65091666112">
		<tag k="alt_name" v="Bakarneset" />
		<tag k="name" v="Bakarnes" />
		<tag k="natural" v="cape" />
		<tag k="ssr:stedsnr" v="692369" />
	</node>
	<node id="-469274" lat="60.2527916695" lon="5.58608333478">
		<tag k="name" v="Hovdaneset" />
		<tag k="natural" v="cape" />
		<tag k="ssr:stedsnr" v="692328" />
	</node>
	<node id="-469272" lat="60.0659305597" lon="5.74198056333">
		<tag k="name" v="Brotavika" />
		<tag k="natural" v="bay" />
		<tag k="ssr:stedsnr" v="692135" />
	</node>
	<node id="-469271" lat="60.1290027793" lon="5.73783054711">
		<tag k="name" v="Skoreflu" />
		<tag k="natural" v="shoal" />
		<tag k="place" v="locality" />
		<tag k="ssr:stedsnr" v="691167" />
	</node>
	<node id="-469248" lat="60.1512250043" lon="5.72951388838">
		<tag k="alt_name" v="Revnenes" />
		<tag k="name" v="Revneneset" />
		<tag k="natural" v="cape" />
		<tag k="ssr:stedsnr" v="672448" />
	</node>
	<node id="-469247" lat="60.0860388862" lon="5.74421667119">
		<tag k="name" v="Haugavika" />
		<tag k="natural" v="bay" />
		<tag k="ssr:stedsnr" v="672427" />
	</node>
	<node id="-469244" lat="60.1051666649" lon="5.7207638804">
		<tag k="name" v="Hjartnestangen" />
		<tag k="natural" v="cape" />
		<tag k="ssr:stedsnr" v="672419" />
	</node>
	<node id="-469239" lat="60.1704083355" lon="5.58836110347">
		<tag k="alt_name" v="Skotaklubben" />
		<tag k="name" v="Skåtaklubben" />
		<tag k="natural" v="cape" />
		<tag k="ssr:stedsnr" v="672384" />
	</node>
	<node id="-469235" lat="60.1477111102" lon="5.5445888964">
		<tag k="alt_name" v="Ysteflu" />
		<tag k="name" v="Ysteflua" />
		<tag k="natural" v="shoal" />
		<tag k="place" v="locality" />
		<tag k="ssr:stedsnr" v="672348" />
	</node>
	<node id="-469232" lat="60.0776305559" lon="5.80797500285">
		<tag k="name" v="Munkholmen" />
		<tag k="place" v="islet" />
		<tag k="ssr:stedsnr" v="672280" />
	</node>
	<node id="-469231" lat="60.0765333316" lon="5.81996944582">
		<tag k="name" v="Høynesvika" />
		<tag k="natural" v="bay" />
		<tag k="ssr:stedsnr" v="672279" />
	</node>
	<node id="-469229" lat="60.0758305596" lon="5.80493055579">
		<tag k="fixme" v="consider seamark:type=rock or natural=shoal" />
		<tag k="name" v="Tretteskjera" />
		<tag k="place" v="islet" />
		<tag k="ssr:stedsnr" v="672270" />
	</node>
	<node id="-469228" lat="60.0700361104" lon="5.76735555259">
		<tag k="alt_name" v="Lauvholmen" />
		<tag k="name" v="Laukholmen" />
		<tag k="place" v="islet" />
		<tag k="ssr:stedsnr" v="672242" />
	</node>
	<node id="-469226" lat="60.2417499984" lon="5.66038332954">
		<tag k="name" v="Hafskorholmen" />
		<tag k="place" v="islet" />
		<tag k="ssr:stedsnr" v="672179" />
	</node>
	<node id="-469221" lat="60.1806999959" lon="5.70520000515">
		<tag k="alt_name" v="Mulodden" />
		<tag k="name" v="Mulsodden" />
		<tag k="natural" v="cape" />
		<tag k="ssr:stedsnr" v="672072" />
	</node>
	<node id="-469215" lat="60.2369805597" lon="5.6237499965">
		<tag k="alt_name" v="Sjondaneset" />
		<tag k="name" v="Sjonaneset" />
		<tag k="natural" v="cape" />
		<tag k="ssr:stedsnr" v="671035" />
	</node>
	<node id="-469213" lat="60.0710638883" lon="5.71371388938">
		<tag k="name" v="Neset" />
		<tag k="natural" v="cape" />
		<tag k="ssr:stedsnr" v="660985" />
	</node>
	<node id="-469173" lat="60.1838361148" lon="5.7417222213">
		<tag k="name" v="Mørkevågneset" />
		<tag k="natural" v="cape" />
		<tag k="ssr:stedsnr" v="643599" />
	</node>
	<node id="-469166" lat="60.1344833319" lon="5.7683194369">
		<tag k="name" v="Eidet" />
		<tag k="place" v="locality" />
		<tag k="ssr:stedsnr" v="643557" />
	</node>
	<node id="-467652" lat="60.251783336" lon="5.58339167469">
		<tag k="name" v="Barendehola" />
		<tag k="natural" v="bay" />
		<tag k="ssr:stedsnr" v="339812" />
	</node>
	<node id="-469135" lat="60.1712333352" lon="5.59531389059">
		<tag k="name" v="Erevika" />
		<tag k="natural" v="bay" />
		<tag k="ssr:stedsnr" v="642831" />
	</node>
	<node id="-469123" lat="60.059549999" lon="5.78898888527">
		<tag k="name" v="Krabbavågen" />
		<tag k="natural" v="bay" />
		<tag k="ssr:stedsnr" v="643904" />
	</node>
	<node id="-469121" lat="60.2548611095" lon="5.6486166645">
		<tag k="name" v="Nubben" />
		<tag k="natural" v="cape" />
		<tag k="ssr:stedsnr" v="631300" />
	</node>
	<node id="-469120" lat="60.176555556" lon="5.73872222596">
		<tag k="name" v="Bogavika" />
		<tag k="natural" v="bay" />
		<tag k="ssr:stedsnr" v="631235" />
	</node>
	<node id="-469118" lat="60.0539750028" lon="5.7902277691">
		<tag k="alt_name" v="Mørkevågen" />
		<tag k="name" v="Myrkevågen" />
		<tag k="natural" v="bay" />
		<tag k="ssr:stedsnr" v="630150" />
	</node>
	<node id="-469117" lat="60.1517472255" lon="5.70482500775">
		<tag k="name" v="Ådnamed" />
		<tag k="natural" v="shoal" />
		<tag k="place" v="locality" />
		<tag k="ssr:stedsnr" v="630145" />
	</node>
	<node id="-469107" lat="60.0988305523" lon="5.73672778561">
		<tag k="name" v="Leirvika" />
		<tag k="natural" v="bay" />
		<tag k="ssr:stedsnr" v="612614" />
	</node>
	<node id="-469102" lat="60.3145388893" lon="5.65225555831">
		<tag k="name" v="Skiftesvika" />
		<tag k="natural" v="bay" />
		<tag k="ssr:stedsnr" v="612260" />
	</node>
	<node id="-469091" lat="60.1474083309" lon="5.61950000109">
		<tag k="name" v="Djupvika" />
		<tag k="natural" v="bay" />
		<tag k="ssr:stedsnr" v="611485" />
	</node>
	<node id="-469086" lat="60.1777638893" lon="5.7089250013">
		<tag k="bay" v="fjord" />
		<tag k="name" v="Sævareidfjorden" />
		<tag k="natural" v="bay" />
		<tag k="ssr:stedsnr" v="611439" />
	</node>
	<node id="-469075" lat="60.2446750045" lon="5.62085833424">
		<tag k="alt_name" v="Årlandsfjorden" />
		<tag k="bay" v="fjord" />
		<tag k="name" v="Ådlandsfjorden" />
		<tag k="natural" v="bay" />
		<tag k="ssr:stedsnr" v="611181" />
	</node>
	<node id="-469071" lat="60.199658334" lon="5.5983611187">
		<tag k="name" v="Venjanesvågen" />
		<tag k="natural" v="bay" />
		<tag k="ssr:stedsnr" v="611090" />
	</node>
	<node id="-469067" lat="60.227736108" lon="5.69225556361">
		<tag k="alt_name" v="Bergevika" />
		<tag k="name" v="Bergsvika" />
		<tag k="natural" v="bay" />
		<tag k="ssr:stedsnr" v="611024" />
	</node>
	<node id="-469060" lat="60.3002361123" lon="5.65235834137">
		<tag k="name" v="Austre Kalvavika" />
		<tag k="natural" v="bay" />
		<tag k="ssr:stedsnr" v="583986" />
	</node>
	<node id="-469057" lat="60.2446111094" lon="5.67943889605">
		<tag k="name" v="Hafskorvika" />
		<tag k="natural" v="bay" />
		<tag k="ssr:stedsnr" v="583961" />
	</node>
	<node id="-469041" lat="60.2816666667" lon="5.63518055273">
		<tag k="name" v="Jutholmen" />
		<tag k="place" v="islet" />
		<tag k="ssr:stedsnr" v="583768" />
	</node>
	<node id="-469037" lat="60.212097223" lon="5.63419165871">
		<tag k="name" v="Gjerdevikvågen" />
		<tag k="natural" v="bay" />
		<tag k="ssr:stedsnr" v="583761" />
	</node>
	<node id="-467631" lat="60.2126277778" lon="5.63600832754">
		<tag k="name" v="Gjerdavika" />
		<tag k="natural" v="bay" />
		<tag k="ssr:stedsnr" v="327612" />
	</node>
	<node id="-469012" lat="60.1635611076" lon="5.68743333843">
		<tag k="name" v="Skjelevika" />
		<tag k="natural" v="bay" />
		<tag k="ssr:stedsnr" v="582871" />
	</node>
	<node id="-469002" lat="60.1234944415" lon="5.7429222211">
		<tag k="name" v="Vossavika" />
		<tag k="natural" v="bay" />
		<tag k="ssr:stedsnr" v="582557" />
	</node>
</osm>
