<?xml version="1.0" encoding="UTF-8"?>
<osm generator="osmapis" version="0.6">
	<node id="-467976" lat="60.2277348103" lon="5.7974774305">
		<tag k="name" v="Stemmetjørna" />
		<tag k="natural" v="water" />
		<tag k="ssr:stedsnr" v="4022" />
	</node>
	<node id="-468561" lat="60.307796706" lon="5.6611466274">
		<tag k="name" v="Hopstjørna" />
		<tag k="natural" v="water" />
		<tag k="ssr:stedsnr" v="219981" />
	</node>
	<node id="-467965" lat="60.3247593987" lon="5.76688420084">
		<tag k="name" v="Svartatjørni" />
		<tag k="natural" v="water" />
		<tag k="ssr:stedsnr" v="583664" />
	</node>
	<node id="-468988" lat="60.2035138903" lon="5.85529444869">
		<tag k="name" v="Inste Kilhola" />
		<tag k="natural" v="water" />
		<tag k="ssr:stedsnr" v="582299" />
		<tag k="water" v="lake" />
	</node>
	<node id="-467961" lat="60.3099138882" lon="5.66503056282">
		<tag k="name" v="Hopselva" />
		<tag k="ssr:stedsnr" v="887987" />
		<tag k="waterway" v="river" />
	</node>
	<node id="-467960" lat="60.3248916634" lon="5.69925556364">
		<tag k="name" v="Gullrineset" />
		<tag k="natural" v="cape" />
		<tag k="ssr:stedsnr" v="887984" />
	</node>
	<node id="-467540" lat="60.1532143663" lon="5.82826423115">
		<tag k="alt_name" v="Øystølvatnet" />
		<tag k="name" v="Øysetervatnet" />
		<tag k="natural" v="water" />
		<tag k="ssr:stedsnr" v="280505" />
		<tag k="water" v="lake" />
	</node>
	<node id="-467532" lat="60.0920833309" lon="5.83363610459">
		<tag k="name" v="Kjeaholmen" />
		<tag k="place" v="islet" />
		<tag k="ssr:stedsnr" v="280309" />
	</node>
	<node id="-469093" lat="60.1348760787" lon="5.81920502367">
		<tag k="name" v="Lomstjørna" />
		<tag k="natural" v="water" />
		<tag k="ssr:stedsnr" v="611493" />
	</node>
	<node id="-469491" lat="60.1422586031" lon="5.79530436164">
		<tag k="name" v="Boksetjørna" />
		<tag k="natural" v="water" />
		<tag k="ssr:stedsnr" v="765556" />
	</node>
	<node id="-468464" lat="60.3231750044" lon="5.72889445214">
		<tag k="alt_name" v="Breidvatnet" />
		<tag k="name" v="Breivatnet" />
		<tag k="natural" v="water" />
		<tag k="ssr:stedsnr" v="188250" />
	</node>
	<node id="-468461" lat="60.3000933004" lon="5.93291171297">
		<tag k="name" v="Osadalsvatnet" />
		<tag k="natural" v="water" />
		<tag k="ssr:stedsnr" v="187985" />
	</node>
	<node id="-468458" lat="60.2518916636" lon="5.92682777978">
		<tag k="name" v="Orraelva" />
		<tag k="ssr:stedsnr" v="187779" />
		<tag k="waterway" v="river" />
	</node>
	<node id="-468456" lat="60.2719750032" lon="5.94585555658">
		<tag k="name" v="Vetlelva" />
		<tag k="ssr:stedsnr" v="187855" />
		<tag k="waterway" v="stream" />
	</node>
	<node id="-468455" lat="60.2556070495" lon="5.88481607693">
		<tag k="name" v="Stemmetjørna" />
		<tag k="natural" v="water" />
		<tag k="ssr:stedsnr" v="187824" />
	</node>
	<node id="-468453" lat="60.1742360659" lon="5.85000110048">
		<tag k="name" v="Svartavatnet" />
		<tag k="natural" v="water" />
		<tag k="ssr:stedsnr" v="187506" />
	</node>
	<node id="-468452" lat="60.1957444456" lon="5.86905833601">
		<tag k="alt_name" v="Tomreelva" />
		<tag k="name" v="Tomraelva" />
		<tag k="ssr:stedsnr" v="187479" />
		<tag k="waterway" v="stream" />
	</node>
	<node id="-467937" lat="60.1278599643" lon="5.84034068931">
		<tag k="name" v="Dyrhaugtjørna" />
		<tag k="natural" v="water" />
		<tag k="ssr:stedsnr" v="887364" />
	</node>
	<node id="-468960" lat="60.2609527821" lon="5.90109443967">
		<tag k="name" v="Eidesbakktjørna" />
		<tag k="natural" v="water" />
		<tag k="ssr:stedsnr" v="551851" />
	</node>
	<node id="-467935" lat="60.0836111109" lon="5.82483332619">
		<tag k="name" v="Fløpollen" />
		<tag k="natural" v="bay" />
		<tag k="ssr:stedsnr" v="887348" />
	</node>
	<node id="-467495" lat="60.2588305529" lon="5.93215555408">
		<tag k="name" v="Gullbekken" />
		<tag k="ssr:stedsnr" v="279454" />
		<tag k="waterway" v="stream" />
	</node>
	<node id="-468957" lat="60.2411525518" lon="5.84318943615">
		<tag k="name" v="Berhovdatjørna" />
		<tag k="natural" v="water" />
		<tag k="ssr:stedsnr" v="551693" />
	</node>
	<node id="-468730" lat="60.1843609106" lon="5.62886368481">
		<tag k="name" v="Hagatjørna" />
		<tag k="natural" v="water" />
		<tag k="ssr:stedsnr" v="461847" />
	</node>
	<node id="-469466" lat="60.1305611122" lon="5.8225611073">
		<tag k="name" v="Dalabekken" />
		<tag k="ssr:stedsnr" v="765342" />
		<tag k="waterway" v="stream" />
	</node>
	<node id="-469465" lat="60.0833837413" lon="5.85207632264">
		<tag k="name" v="Høyneset" />
		<tag k="natural" v="cape" />
		<tag k="ssr:stedsnr" v="765320" />
	</node>
	<node id="-469464" lat="60.085783334" lon="5.85207777018">
		<tag k="name" v="Hatlesteinsvatnet" />
		<tag k="natural" v="water" />
		<tag k="ssr:stedsnr" v="765315" />
		<tag k="water" v="lake" />
	</node>
	<node id="-468951" lat="60.1277027786" lon="5.82635833212">
		<tag k="name" v="Elvatjørna" />
		<tag k="natural" v="water" />
		<tag k="ssr:stedsnr" v="551475" />
	</node>
	<node id="-469461" lat="60.1601767978" lon="5.84290952761">
		<tag k="name" v="Nutatjørna" />
		<tag k="natural" v="water" />
		<tag k="ssr:stedsnr" v="765304" />
	</node>
	<node id="-468436" lat="60.2958540792" lon="5.76722198875">
		<tag k="fixme" v="multiple name tags, choose one and add the other to alt_name" />
		<tag k="name" v="Botnavatnet;Hellandsvatnet" />
		<tag k="natural" v="water" />
		<tag k="ssr:stedsnr" v="187244" />
		<tag k="water" v="lake" />
	</node>
	<node id="-468302" lat="60.3196788584" lon="5.76976002482">
		<tag k="name" v="Skadvatnet" />
		<tag k="natural" v="water" />
		<tag k="ssr:stedsnr" v="127260" />
	</node>
	<node id="-467920" lat="60.2750777097" lon="5.77298179558">
		<tag k="name" v="Skjenhaugtjønna" />
		<tag k="natural" v="water" />
		<tag k="ssr:stedsnr" v="886752" />
	</node>
	<node id="-468943" lat="60.3185166668" lon="5.83101944468">
		<tag k="alt_name" v="Skoratjørn" />
		<tag k="name" v="Skaratjørna" />
		<tag k="natural" v="water" />
		<tag k="ssr:stedsnr" v="551250" />
	</node>
	<node id="-469453" lat="60.2124083321" lon="5.83289444237">
		<tag k="name" v="Skotavika" />
		<tag k="natural" v="bay" />
		<tag k="ssr:stedsnr" v="765237" />
	</node>
	<node id="-469065" lat="60.2698194431" lon="5.81098889492">
		<tag k="name" v="Åreidselva" />
		<tag k="ssr:stedsnr" v="599651" />
		<tag k="waterway" v="river" />
	</node>
	<node id="-468426" lat="60.0810194484" lon="5.77147777671">
		<tag k="name" v="Slåttelva" />
		<tag k="ssr:stedsnr" v="186280" />
		<tag k="waterway" v="stream" />
	</node>
	<node id="-468935" lat="60.0447511037" lon="5.72449161998">
		<tag k="name" v="Svartatjørna" />
		<tag k="natural" v="water" />
		<tag k="ssr:stedsnr" v="550301" />
	</node>
	<node id="-468421" lat="60.2032111074" lon="5.78203611537">
		<tag k="name" v="Gråklubbelva" />
		<tag k="ssr:stedsnr" v="186077" />
		<tag k="waterway" v="stream" />
	</node>
	<node id="-468932" lat="60.087138891" lon="5.78206944843">
		<tag k="name" v="Kjeonnebekken" />
		<tag k="ssr:stedsnr" v="550271" />
		<tag k="waterway" v="stream" />
	</node>
	<node id="-469442" lat="60.2025833359" lon="5.81837222487">
		<tag k="name" v="Kløvsneset" />
		<tag k="natural" v="cape" />
		<tag k="ssr:stedsnr" v="764689" />
	</node>
	<node id="-468811" lat="60.2687694448" lon="5.6991222224">
		<tag k="name" v="Hafskorvatnet" />
		<tag k="natural" v="water" />
		<tag k="ssr:stedsnr" v="491301" />
	</node>
	<node id="-469440" lat="60.2492694462" lon="5.775569442">
		<tag k="name" v="Sandvikane" />
		<tag k="natural" v="bay" />
		<tag k="ssr:stedsnr" v="764631" />
	</node>
	<node id="-468927" lat="60.2000361083" lon="5.82805278634">
		<tag k="name" v="Markavika" />
		<tag k="natural" v="bay" />
		<tag k="ssr:stedsnr" v="550092" />
	</node>
	<node id="-469438" lat="60.2948027805" lon="5.83758610622">
		<tag k="alt_name" v="Kikedalselva" />
		<tag k="name" v="Skarelva" />
		<tag k="ssr:stedsnr" v="764404" />
		<tag k="waterway" v="river" />
	</node>
	<node id="-468413" lat="60.21738889" lon="5.67850555003">
		<tag k="alt_name" v="Kokeelva" />
		<tag k="name" v="Kokelva" />
		<tag k="ssr:stedsnr" v="186002" />
		<tag k="waterway" v="stream" />
	</node>
	<node id="-467871" lat="60.2877249998" lon="5.64981943753">
		<tag k="name" v="Samnøytjørnane" />
		<tag k="natural" v="water" />
		<tag k="ssr:stedsnr" v="401846" />
		<tag k="water" v="lake" />
	</node>
	<node id="-469156" lat="60.2459333355" lon="5.92032499441">
		<tag k="name" v="Orraosen" />
		<tag k="natural" v="bay" />
		<tag k="ssr:stedsnr" v="643449" />
	</node>
	<node id="-469577" lat="60.2566466232" lon="5.89211713489">
		<tag k="name" v="Fotaretjørna" />
		<tag k="natural" v="water" />
		<tag k="ssr:stedsnr" v="794826" />
	</node>
	<node id="-468013" lat="60.2716892065" lon="5.95914505893">
		<tag k="name" v="Stigatjørna" />
		<tag k="natural" v="water" />
		<tag k="ssr:stedsnr" v="5839" />
	</node>
	<node id="-467608" lat="60.0984444481" lon="5.75316110386">
		<tag k="name" v="Hjartåkerelva" />
		<tag k="ssr:stedsnr" v="308402" />
		<tag k="waterway" v="stream" />
	</node>
	<node id="-469371" lat="60.0998483963" lon="5.83203034473">
		<tag k="name" v="Stemmetjørna" />
		<tag k="natural" v="water" />
		<tag k="ssr:stedsnr" v="732487" />
	</node>
	<node id="-468296" lat="60.2597362587" lon="5.913234446">
		<tag k="name" v="Sætraelva" />
		<tag k="ssr:stedsnr" v="126829" />
		<tag k="waterway" v="stream" />
	</node>
	<node id="-468910" lat="60.3226777751" lon="5.70040278576">
		<tag k="name" v="Løken" />
		<tag k="natural" v="bay" />
		<tag k="ssr:stedsnr" v="522970" />
	</node>
	<node id="-468909" lat="60.3190888866" lon="5.69430834202">
		<tag k="name" v="Fiskebekken" />
		<tag k="ssr:stedsnr" v="522964" />
		<tag k="waterway" v="stream" />
	</node>
	<node id="-467683" lat="60.1976138916" lon="5.79172776935">
		<tag k="name" v="Kvernhusvika" />
		<tag k="natural" v="bay" />
		<tag k="ssr:stedsnr" v="340604" />
	</node>
	<node id="-469660" lat="60.316412559" lon="5.81628103502">
		<tag k="name" v="Selsmurstjørna" />
		<tag k="natural" v="water" />
		<tag k="ssr:stedsnr" v="826672" />
	</node>
	<node id="-469413" lat="60.2331944479" lon="5.8439638811">
		<tag k="name" v="Svartatjørna" />
		<tag k="natural" v="water" />
		<tag k="ssr:stedsnr" v="733735" />
	</node>
	<node id="-469409" lat="60.2140361142" lon="5.87858610546">
		<tag k="name" v="Svenaholmen" />
		<tag k="place" v="islet" />
		<tag k="ssr:stedsnr" v="733694" />
	</node>
	<node id="-468384" lat="60.278415925" lon="5.73852862543">
		<tag k="name" v="Brekketjørna" />
		<tag k="natural" v="water" />
		<tag k="ssr:stedsnr" v="158685" />
	</node>
	<node id="-467952" lat="60.0538338744" lon="5.77132249254">
		<tag k="name" v="Midttjørna" />
		<tag k="natural" v="water" />
		<tag k="ssr:stedsnr" v="887908" />
	</node>
	<node id="-469406" lat="60.3078638879" lon="5.85363611608">
		<tag k="name" v="Stolavatnet" />
		<tag k="natural" v="water" />
		<tag k="ssr:stedsnr" v="733466" />
	</node>
	<node id="-468293" lat="60.1217083329" lon="5.79540277818">
		<tag k="alt_name" v="Bosvatnet" />
		<tag k="name" v="Botsvatnet" />
		<tag k="natural" v="water" />
		<tag k="ssr:stedsnr" v="126489" />
		<tag k="water" v="lake" />
	</node>
	<node id="-468380" lat="60.3275938239" lon="5.73238117904">
		<tag k="name" v="Langatjørna" />
		<tag k="natural" v="water" />
		<tag k="ssr:stedsnr" v="158644" />
	</node>
	<node id="-468891" lat="60.2762472181" lon="5.67410277287">
		<tag k="name" v="Ådlandselva" />
		<tag k="ssr:stedsnr" v="522790" />
		<tag k="waterway" v="river" />
	</node>
	<node id="-468378" lat="60.3189385908" lon="5.74614950965">
		<tag k="name" v="Nordre Trollabotstjørna" />
		<tag k="natural" v="water" />
		<tag k="ssr:stedsnr" v="158632" />
	</node>
	<node id="-469400" lat="60.1393583325" lon="5.76851389698">
		<tag k="name" v="Bårtveitvatnet" />
		<tag k="natural" v="water" />
		<tag k="ssr:stedsnr" v="733434" />
		<tag k="water" v="lake" />
	</node>
	<node id="-469397" lat="60.1578611154" lon="5.77253610871">
		<tag k="name" v="Svartavatnet" />
		<tag k="natural" v="water" />
		<tag k="ssr:stedsnr" v="733381" />
	</node>
	<node id="-467859" lat="60.2935861101" lon="5.77831943897">
		<tag k="name" v="Heihellerneset" />
		<tag k="natural" v="cape" />
		<tag k="ssr:stedsnr" v="401657" />
	</node>
	<node id="-468671" lat="60.2547250016" lon="5.74648610444">
		<tag k="name" v="Lundarvikselva" />
		<tag k="ssr:stedsnr" v="430332" />
		<tag k="waterway" v="stream" />
	</node>
	<node id="-467857" lat="60.2449000023" lon="5.81346666765">
		<tag k="name" v="Gåsakilen" />
		<tag k="natural" v="bay" />
		<tag k="ssr:stedsnr" v="401644" />
	</node>
	<node id="-467855" lat="60.2489833368" lon="5.81204444819">
		<tag k="name" v="Hopen" />
		<tag k="natural" v="bay" />
		<tag k="ssr:stedsnr" v="401640" />
	</node>
	<node id="-467682" lat="60.1347939845" lon="5.76277667054">
		<tag k="name" v="Nordre Svinasteinstjørna" />
		<tag k="natural" v="water" />
		<tag k="ssr:stedsnr" v="340589" />
	</node>
	<node id="-469389" lat="60.0780416675" lon="5.82552499099">
		<tag k="name" v="Høynestjørna" />
		<tag k="natural" v="water" />
		<tag k="ssr:stedsnr" v="733295" />
	</node>
	<node id="-469380" lat="60.2048175033" lon="5.73913117591">
		<tag k="name" v="Svarturtjørna" />
		<tag k="natural" v="water" />
		<tag k="ssr:stedsnr" v="733113" />
	</node>
	<node id="-468866" lat="60.1635333792" lon="5.79013860228">
		<tag k="name" v="Stordalstjørna" />
		<tag k="natural" v="water" />
		<tag k="ssr:stedsnr" v="522525" />
	</node>
	<node id="-468352" lat="60.1298026418" lon="5.84342512909">
		<tag k="name" v="Træstjørna" />
		<tag k="natural" v="water" />
		<tag k="ssr:stedsnr" v="158389" />
	</node>
	<node id="-467520" lat="60.2073611068" lon="5.84084443826">
		<tag k="name" v="Midteidvika" />
		<tag k="natural" v="bay" />
		<tag k="ssr:stedsnr" v="280179" />
	</node>
	<node id="-469374" lat="60.2491484714" lon="5.66345322365">
		<tag k="name" v="Altanestjørna" />
		<tag k="natural" v="water" />
		<tag k="ssr:stedsnr" v="733058" />
	</node>
	<node id="-469373" lat="60.2427249998" lon="5.80796388991">
		<tag k="name" v="Sørelva" />
		<tag k="ssr:stedsnr" v="733051" />
		<tag k="waterway" v="river" />
	</node>
	<node id="-468859" lat="60.2544500021" lon="5.84510832918">
		<tag k="name" v="Potetholmen" />
		<tag k="place" v="islet" />
		<tag k="ssr:stedsnr" v="522436" />
	</node>
	<node id="-469370" lat="60.1753500017" lon="5.82983889095">
		<tag k="name" v="Nipstjørna" />
		<tag k="natural" v="water" />
		<tag k="ssr:stedsnr" v="732456" />
		<tag k="water" v="lake" />
	</node>
	<node id="-467832" lat="60.0850277754" lon="5.82378334105">
		<tag k="name" v="Klokkevika" />
		<tag k="natural" v="bay" />
		<tag k="ssr:stedsnr" v="401334" />
	</node>
	<node id="-468855" lat="60.3139249982" lon="5.90177500792">
		<tag k="name" v="Tåka" />
		<tag k="ssr:stedsnr" v="522403" />
		<tag k="waterway" v="stream" />
	</node>
	<node id="-467830" lat="60.0919388926" lon="5.8561527685">
		<tag k="name" v="Vassnesa" />
		<tag k="natural" v="cape" />
		<tag k="ssr:stedsnr" v="401331" />
	</node>
	<node id="-469875" lat="60.3451000044" lon="5.71828889518">
		<tag k="name" v="Setrabekken" />
		<tag k="ssr:stedsnr" v="965039" />
		<tag k="waterway" v="stream" />
	</node>
	<node id="-468850" lat="60.2383388894" lon="5.8622694482">
		<tag k="name" v="Vikaneset" />
		<tag k="natural" v="cape" />
		<tag k="ssr:stedsnr" v="522327" />
	</node>
	<node id="-469361" lat="60.2480249971" lon="5.81918056432">
		<tag k="name" v="Vengsvatnet" />
		<tag k="natural" v="water" />
		<tag k="ssr:stedsnr" v="732062" />
		<tag k="water" v="lake" />
	</node>
	<node id="-468336" lat="60.216738893" lon="5.87016944623">
		<tag k="name" v="Kykejeholmen" />
		<tag k="place" v="islet" />
		<tag k="ssr:stedsnr" v="158273" />
	</node>
	<node id="-469871" lat="60.3039125" lon="5.69763218908">
		<tag k="name" v="Storhaugtjørnane" />
		<tag k="natural" v="water" />
		<tag k="ssr:stedsnr" v="947989" />
		<tag k="water" v="lake" />
	</node>
	<node id="-467821" lat="60.2328277754" lon="5.86764166002">
		<tag k="name" v="Eidsosen" />
		<tag k="natural" v="bay" />
		<tag k="ssr:stedsnr" v="401263" />
	</node>
	<node id="-468844" lat="60.2141611152" lon="5.88932222824">
		<tag k="name" v="Nordvika" />
		<tag k="natural" v="bay" />
		<tag k="ssr:stedsnr" v="522279" />
	</node>
	<node id="-469355" lat="60.2221194477" lon="5.76798611263">
		<tag k="name" v="Eikelandsvatnet" />
		<tag k="natural" v="water" />
		<tag k="ssr:stedsnr" v="732005" />
		<tag k="water" v="lake" />
	</node>
	<node id="-469147" lat="60.2341166626" lon="5.90039443809">
		<tag k="name" v="Rusevika" />
		<tag k="natural" v="bay" />
		<tag k="ssr:stedsnr" v="643290" />
	</node>
	<node id="-468839" lat="60.2072583334" lon="5.8442888918">
		<tag k="name" v="Nedste Geitskeidvika" />
		<tag k="natural" v="bay" />
		<tag k="ssr:stedsnr" v="522256" />
	</node>
	<node id="-469347" lat="60.323119444" lon="5.73537222162">
		<tag k="name" v="Lisetreelva" />
		<tag k="ssr:stedsnr" v="705727" />
		<tag k="waterway" v="river" />
	</node>
	<node id="-469346" lat="60.2512333349" lon="5.81677777325">
		<tag k="name" v="Steganeset" />
		<tag k="natural" v="cape" />
		<tag k="ssr:stedsnr" v="705715" />
	</node>
	<node id="-467525" lat="60.2054416708" lon="5.84754722935">
		<tag k="name" v="Trosavika" />
		<tag k="natural" v="bay" />
		<tag k="ssr:stedsnr" v="280213" />
	</node>
	<node id="-468831" lat="60.2086818104" lon="5.70979420389">
		<tag k="name" v="Grasdalstjørna" />
		<tag k="natural" v="water" />
		<tag k="ssr:stedsnr" v="521716" />
	</node>
	<node id="-467806" lat="60.2496361133" lon="5.79752222736">
		<tag k="name" v="Nordelva" />
		<tag k="ssr:stedsnr" v="400643" />
		<tag k="waterway" v="river" />
	</node>
	<node id="-467805" lat="60.2288796996" lon="5.7705977619">
		<tag k="name" v="Martinestjørna" />
		<tag k="natural" v="water" />
		<tag k="ssr:stedsnr" v="400534" />
	</node>
	<node id="-468009" lat="60.3200324609" lon="5.85848025596">
		<tag k="name" v="Raudabergsvatnet" />
		<tag k="natural" v="water" />
		<tag k="ssr:stedsnr" v="5497" />
	</node>
	<node id="-468826" lat="60.3228777809" lon="5.88417778263">
		<tag k="name" v="Skaraelva" />
		<tag k="ssr:stedsnr" v="521072" />
		<tag k="waterway" v="river" />
	</node>
	<node id="-468306" lat="60.2887119053" lon="5.87376937997">
		<tag k="name" v="Kvitingsvatnet" />
		<tag k="natural" v="water" />
		<tag k="ssr:stedsnr" v="127933" />
	</node>
	<node id="-468305" lat="60.2671305568" lon="5.93031944059">
		<tag k="name" v="Storelva" />
		<tag k="ssr:stedsnr" v="127619" />
		<tag k="waterway" v="river" />
	</node>
	<node id="-468792" lat="60.1309055592" lon="5.80857777987">
		<tag k="name" v="Halavasselva" />
		<tag k="ssr:stedsnr" v="490477" />
		<tag k="waterway" v="stream" />
	</node>
	<node id="-469326" lat="60.2673305553" lon="5.68836944782">
		<tag k="name" v="Eidet" />
		<tag k="natural" v="strait" />
		<tag k="ssr:stedsnr" v="704773" />
	</node>
	<node id="-469325" lat="60.2815972225" lon="5.67760276998">
		<tag k="name" v="Heiatjørna" />
		<tag k="natural" v="water" />
		<tag k="ssr:stedsnr" v="704766" />
	</node>
	<node id="-467788" lat="60.2735583298" lon="5.8788777756">
		<tag k="name" v="Gjønaelva" />
		<tag k="ssr:stedsnr" v="369896" />
		<tag k="waterway" v="river" />
	</node>
	<node id="-469323" lat="60.2798916655" lon="5.81686110441">
		<tag k="name" v="Fossane" />
		<tag k="natural" v="waterfall" />
		<tag k="ssr:stedsnr" v="704721" />
	</node>
	<node id="-468810" lat="60.2851361098" lon="5.94118888717">
		<tag k="name" v="Botnaelva" />
		<tag k="ssr:stedsnr" v="490917" />
		<tag k="waterway" v="stream" />
	</node>
	<node id="-468808" lat="60.3150029458" lon="5.7561907886">
		<tag k="name" v="Trollabotnstjørna" />
		<tag k="natural" v="water" />
		<tag k="ssr:stedsnr" v="491238" />
	</node>
	<node id="-468295" lat="60.2519388866" lon="5.90361388558">
		<tag k="name" v="Høljane" />
		<tag k="place" v="locality" />
		<tag k="ssr:stedsnr" v="126769" />
	</node>
	<node id="-468806" lat="60.1689422617" lon="5.8394626307">
		<tag k="name" v="Fagravatnet" />
		<tag k="natural" v="water" />
		<tag k="ssr:stedsnr" v="490364" />
		<tag k="water" v="lake" />
	</node>
	<node id="-469317" lat="60.2915583373" lon="5.77039999311">
		<tag k="name" v="Vetlaneset" />
		<tag k="natural" v="cape" />
		<tag k="ssr:stedsnr" v="704627" />
	</node>
	<node id="-467780" lat="60.2139250036" lon="5.87100832447">
		<tag k="name" v="Storeholmen" />
		<tag k="place" v="islet" />
		<tag k="ssr:stedsnr" v="369686" />
	</node>
	<node id="-468191" lat="60.0723472218" lon="5.83552777118">
		<tag k="name" v="Fossaelva" />
		<tag k="ssr:stedsnr" v="97086" />
		<tag k="waterway" v="river" />
	</node>
	<node id="-468290" lat="60.1174725959" lon="5.82538518524">
		<tag k="name" v="Horgavatnet" />
		<tag k="natural" v="water" />
		<tag k="ssr:stedsnr" v="126449" />
	</node>
	<node id="-468800" lat="60.207996169" lon="5.77486769898">
		<tag k="name" v="Setratjørna" />
		<tag k="natural" v="water" />
		<tag k="ssr:stedsnr" v="490109" />
	</node>
	<node id="-468287" lat="60.1837805523" lon="5.83828332711">
		<tag k="name" v="Hjortedalselva" />
		<tag k="ssr:stedsnr" v="126418" />
		<tag k="waterway" v="stream" />
	</node>
	<node id="-468789" lat="60.1388388913" lon="5.79517778404">
		<tag k="name" v="Krokvatnet" />
		<tag k="natural" v="water" />
		<tag k="ssr:stedsnr" v="490451" />
		<tag k="water" v="lake" />
	</node>
	<node id="-468284" lat="60.1451117582" lon="5.83246422168">
		<tag k="name" v="Kutjørna" />
		<tag k="natural" v="water" />
		<tag k="ssr:stedsnr" v="126475" />
	</node>
	<node id="-468634" lat="60.0695104275" lon="5.75711129204">
		<tag k="alt_name" v="Grunnasund" />
		<tag k="name" v="Grunnasundet" />
		<tag k="natural" v="strait" />
		<tag k="ssr:stedsnr" v="418245" />
	</node>
	<node id="-467769" lat="60.1201249959" lon="5.80857778382">
		<tag k="name" v="Yddalselva" />
		<tag k="ssr:stedsnr" v="369429" />
		<tag k="waterway" v="stream" />
	</node>
	<node id="-469816" lat="60.2455555582" lon="5.85076111827">
		<tag k="name" v="Steinsvika" />
		<tag k="natural" v="bay" />
		<tag k="ssr:stedsnr" v="947442" />
	</node>
	<node id="-468791" lat="60.1207499964" lon="5.77743333489">
		<tag k="name" v="Femangerelva" />
		<tag k="ssr:stedsnr" v="490468" />
		<tag k="waterway" v="stream" />
	</node>
	<node id="-469813" lat="60.3282279113" lon="5.75674123143">
		<tag k="name" v="Markskilatjørna" />
		<tag k="natural" v="water" />
		<tag k="ssr:stedsnr" v="947355" />
	</node>
	<node id="-469300" lat="60.2486777817" lon="5.87466666076">
		<tag k="name" v="Fosselva" />
		<tag k="ssr:stedsnr" v="704414" />
		<tag k="waterway" v="river" />
	</node>
	<node id="-469299" lat="60.2528166662" lon="5.82328611337">
		<tag k="name" v="Heihellerneset" />
		<tag k="natural" v="cape" />
		<tag k="ssr:stedsnr" v="704406" />
	</node>
	<node id="-468275" lat="60.2069888923" lon="5.83698611078">
		<tag k="name" v="Blekaneset" />
		<tag k="natural" v="cape" />
		<tag k="ssr:stedsnr" v="126080" />
	</node>
	<node id="-469296" lat="60.0954194463" lon="5.861650001">
		<tag k="name" v="Tømmervika" />
		<tag k="natural" v="bay" />
		<tag k="ssr:stedsnr" v="704332" />
	</node>
	<node id="-469295" lat="60.1099333366" lon="5.86104444182">
		<tag k="name" v="Gjottebekken" />
		<tag k="ssr:stedsnr" v="704329" />
		<tag k="waterway" v="stream" />
	</node>
	<node id="-469294" lat="60.0776944478" lon="5.84021666114">
		<tag k="name" v="Elvakroken" />
		<tag k="ssr:stedsnr" v="704324" />
		<tag k="waterway" v="river" />
	</node>
	<node id="-468445" lat="60.1024904175" lon="5.81160226348">
		<tag k="alt_name" v="Stegvatnet" />
		<tag k="name" v="Stevatnet" />
		<tag k="natural" v="water" />
		<tag k="ssr:stedsnr" v="187414" />
	</node>
	<node id="-467764" lat="60.1096760982" lon="5.81335651633">
		<tag k="name" v="Taskedalstjørna" />
		<tag k="natural" v="water" />
		<tag k="ssr:stedsnr" v="369396" />
	</node>
	<node id="-468018" lat="60.2858171193" lon="5.88156558006">
		<tag k="name" v="Gurigrøvatnet" />
		<tag k="natural" v="water" />
		<tag k="ssr:stedsnr" v="5920" />
	</node>
	<node id="-469802" lat="60.212300001" lon="5.879572217">
		<tag k="name" v="Lyklaholmen" />
		<tag k="place" v="islet" />
		<tag k="ssr:stedsnr" v="947268" />
	</node>
	<node id="-467751" lat="60.3197997673" lon="5.81294726918">
		<tag k="alt_name" v="Trælatjørna, austre" />
		<tag k="name" v="Austre Trælatjørna" />
		<tag k="natural" v="water" />
		<tag k="ssr:stedsnr" v="369226" />
	</node>
	<node id="-468262" lat="60.2458323874" lon="5.78292515616">
		<tag k="name" v="Skjelbreidvatnet" />
		<tag k="natural" v="water" />
		<tag k="ssr:stedsnr" v="125056" />
		<tag k="water" v="lake" />
	</node>
	<node id="-467748" lat="60.3343076156" lon="5.73536803031">
		<tag k="name" v="Altasetrevatnet" />
		<tag k="natural" v="water" />
		<tag k="ssr:stedsnr" v="369195" />
	</node>
	<node id="-469283" lat="60.1970666665" lon="5.61345278063">
		<tag k="name" v="Steinbruelva" />
		<tag k="ssr:stedsnr" v="703832" />
		<tag k="waterway" v="river" />
	</node>
	<node id="-468258" lat="60.0492268947" lon="5.72480312722">
		<tag k="name" v="Bergstjørna" />
		<tag k="natural" v="water" />
		<tag k="ssr:stedsnr" v="125337" />
	</node>
	<node id="-469280" lat="60.2684111118" lon="5.84175000494">
		<tag k="name" v="Bukkaholmen" />
		<tag k="place" v="islet" />
		<tag k="ssr:stedsnr" v="704448" />
	</node>
	<node id="-467760" lat="60.2552500019" lon="5.78475000617">
		<tag k="name" v="Hestabekken" />
		<tag k="ssr:stedsnr" v="369311" />
		<tag k="waterway" v="stream" />
	</node>
	<node id="-468766" lat="60.2685110932" lon="5.77916408596">
		<tag k="name" v="Sætratjønna" />
		<tag k="natural" v="water" />
		<tag k="ssr:stedsnr" v="462715" />
	</node>
	<node id="-468636" lat="60.2237944484" lon="5.82017499301">
		<tag k="name" v="Storatjørna" />
		<tag k="natural" v="water" />
		<tag k="ssr:stedsnr" v="429011" />
	</node>
	<node id="-468762" lat="60.3003583369" lon="5.7901999935">
		<tag k="name" v="Spongatjørnelva" />
		<tag k="ssr:stedsnr" v="462651" />
		<tag k="waterway" v="river" />
	</node>
	<node id="-468271" lat="60.231072348" lon="5.82229418664">
		<tag k="alt_name" v="Vesletjørna" />
		<tag k="name" v="Vetlatjørna" />
		<tag k="natural" v="water" />
		<tag k="ssr:stedsnr" v="126019" />
	</node>
	<node id="-467736" lat="60.1551444458" lon="5.79319166554">
		<tag k="name" v="Laugarvatnet" />
		<tag k="natural" v="water" />
		<tag k="ssr:stedsnr" v="368424" />
		<tag k="water" v="lake" />
	</node>
	<node id="-469059" lat="60.3231861138" lon="5.69248889455">
		<tag k="name" v="Snauholmen" />
		<tag k="place" v="islet" />
		<tag k="ssr:stedsnr" v="583968" />
	</node>
	<node id="-467929" lat="60.2109916654" lon="5.86821666726">
		<tag k="name" v="Klumpane" />
		<tag k="place" v="islet" />
		<tag k="ssr:stedsnr" v="887241" />
	</node>
	<node id="-467732" lat="60.208516663" lon="5.66302500068">
		<tag k="name" v="Tjørnane" />
		<tag k="natural" v="water" />
		<tag k="ssr:stedsnr" v="368134" />
	</node>
	<node id="-467731" lat="60.1951166671" lon="5.68265277938">
		<tag k="name" v="Stemelva" />
		<tag k="ssr:stedsnr" v="368124" />
		<tag k="waterway" v="stream" />
	</node>
	<node id="-469778" lat="60.124786113" lon="5.8146083313">
		<tag k="alt_name" v="Speldalstjørna" />
		<tag k="name" v="Spilldalstjørna" />
		<tag k="natural" v="water" />
		<tag k="ssr:stedsnr" v="915471" />
	</node>
	<node id="-468753" lat="60.1060738632" lon="5.72953701302">
		<tag k="name" v="Hjartnestjørna" />
		<tag k="natural" v="water" />
		<tag k="ssr:stedsnr" v="462908" />
	</node>
	<node id="-467728" lat="60.1971500006" lon="5.63351110678">
		<tag k="name" v="Sagelva" />
		<tag k="ssr:stedsnr" v="368110" />
		<tag k="waterway" v="stream" />
	</node>
	<node id="-468440" lat="60.069363193" lon="5.83051327538">
		<tag k="alt_name" v="Hølen" />
		<tag k="name" v="Skarahølen" />
		<tag k="natural" v="water" />
		<tag k="ssr:stedsnr" v="187265" />
	</node>
	<node id="-468749" lat="60.2743722198" lon="5.84313889405">
		<tag k="name" v="Tausaholmen" />
		<tag k="place" v="islet" />
		<tag k="ssr:stedsnr" v="462492" />
	</node>
	<node id="-467723" lat="60.2236858615" lon="5.7892120776">
		<tag k="name" v="Mauratjørna" />
		<tag k="natural" v="water" />
		<tag k="ssr:stedsnr" v="368006" />
	</node>
	<node id="-467721" lat="60.2940333326" lon="5.84488333718">
		<tag k="name" v="Stolaelva" />
		<tag k="ssr:stedsnr" v="369960" />
		<tag k="waterway" v="stream" />
	</node>
	<node id="-467720" lat="60.2977416695" lon="5.92585555533">
		<tag k="name" v="Eitro" />
		<tag k="ssr:stedsnr" v="357938" />
		<tag k="waterway" v="river" />
	</node>
	<node id="-469804" lat="60.2296527793" lon="5.87038610556">
		<tag k="name" v="Eidselva" />
		<tag k="ssr:stedsnr" v="947293" />
		<tag k="waterway" v="river" />
	</node>
	<node id="-469249" lat="60.125484364" lon="5.78438159207">
		<tag k="name" v="Senafjelltjørna" />
		<tag k="natural" v="water" />
		<tag k="ssr:stedsnr" v="672450" />
	</node>
	<node id="-468224" lat="60.3144700236" lon="5.71035635258">
		<tag k="name" v="Bjergabrottjørna" />
		<tag k="natural" v="water" />
		<tag k="ssr:stedsnr" v="98642" />
	</node>
	<node id="-469758" lat="60.2247697427" lon="5.80020565882">
		<tag k="name" v="Klypetjørna" />
		<tag k="natural" v="water" />
		<tag k="ssr:stedsnr" v="915009" />
	</node>
	<node id="-468266" lat="60.0972750013" lon="5.80051388014">
		<tag k="name" v="Lygreselva" />
		<tag k="ssr:stedsnr" v="125488" />
		<tag k="waterway" v="stream" />
	</node>
	<node id="-469754" lat="60.2143728683" lon="5.78662437489">
		<tag k="name" v="Vardabotntjørna" />
		<tag k="natural" v="water" />
		<tag k="ssr:stedsnr" v="915119" />
	</node>
	<node id="-468217" lat="60.20221944" lon="5.84810832894">
		<tag k="name" v="Svinahola" />
		<tag k="natural" v="bay" />
		<tag k="ssr:stedsnr" v="98248" />
	</node>
	<node id="-468216" lat="60.2040638925" lon="5.86291943977">
		<tag k="name" v="Neset" />
		<tag k="natural" v="cape" />
		<tag k="ssr:stedsnr" v="98238" />
	</node>
	<node id="-468215" lat="60.201774998" lon="5.86906388801">
		<tag k="name" v="Anneneset" />
		<tag k="natural" v="cape" />
		<tag k="ssr:stedsnr" v="98236" />
	</node>
	<node id="-468213" lat="60.2173444487" lon="5.82234445033">
		<tag k="name" v="Rennesvikselva" />
		<tag k="ssr:stedsnr" v="98217" />
		<tag k="waterway" v="river" />
	</node>
	<node id="-467490" lat="60.2048694474" lon="5.84354721707">
		<tag k="name" v="Skarholmen" />
		<tag k="place" v="islet" />
		<tag k="ssr:stedsnr" v="279085" />
	</node>
	<node id="-468718" lat="60.1363749969" lon="5.81649167395">
		<tag k="name" v="Rotadalsbekken" />
		<tag k="ssr:stedsnr" v="461593" />
		<tag k="waterway" v="stream" />
	</node>
	<node id="-467666" lat="60.1363833357" lon="5.86072500486">
		<tag k="name" v="Buksevatnet" />
		<tag k="natural" v="water" />
		<tag k="ssr:stedsnr" v="340368" />
		<tag k="water" v="lake" />
	</node>
	<node id="-469287" lat="60.2012583371" lon="5.87086945235">
		<tag k="name" v="Tomravika" />
		<tag k="natural" v="bay" />
		<tag k="ssr:stedsnr" v="704254" />
	</node>
	<node id="-467688" lat="60.2428249958" lon="5.79346110821">
		<tag k="name" v="Kilen" />
		<tag k="natural" v="bay" />
		<tag k="ssr:stedsnr" v="340646" />
	</node>
	<node id="-467687" lat="60.3115451745" lon="5.74562122767">
		<tag k="name" v="Fossabottsvatnet" />
		<tag k="natural" v="water" />
		<tag k="ssr:stedsnr" v="340641" />
	</node>
	<node id="-468710" lat="60.1600555532" lon="5.78480556031">
		<tag k="name" v="Melkeholsbekken" />
		<tag k="ssr:stedsnr" v="461523" />
		<tag k="waterway" v="stream" />
	</node>
	<node id="-467685" lat="60.3207277769" lon="5.72785833873">
		<tag k="name" v="Breielva" />
		<tag k="ssr:stedsnr" v="340636" />
		<tag k="waterway" v="river" />
	</node>
	<node id="-469731" lat="60.1108149099" lon="5.81706110667">
		<tag k="name" v="Løken" />
		<tag k="natural" v="water" />
		<tag k="ssr:stedsnr" v="855426" />
	</node>
	<node id="-468194" lat="60.2725500016" lon="5.83812776967">
		<tag k="name" v="Borgsholmen" />
		<tag k="place" v="islet" />
		<tag k="ssr:stedsnr" v="97460" />
	</node>
	<node id="-469217" lat="60.2143125343" lon="5.72510424555">
		<tag k="name" v="Austestadtjørna" />
		<tag k="natural" v="water" />
		<tag k="ssr:stedsnr" v="672005" />
	</node>
	<node id="-469727" lat="60.0559191498" lon="5.77195911938">
		<tag k="name" v="Trollbotntjørna" />
		<tag k="natural" v="water" />
		<tag k="ssr:stedsnr" v="855358" />
	</node>
	<node id="-469214" lat="60.3464611135" lon="5.72298610979">
		<tag k="name" v="Setratjørnane" />
		<tag k="natural" v="water" />
		<tag k="ssr:stedsnr" v="661029" />
		<tag k="water" v="lake" />
	</node>
	<node id="-468700" lat="60.1426973412" lon="5.80738137128">
		<tag k="name" v="Krokvasstjørna" />
		<tag k="natural" v="water" />
		<tag k="ssr:stedsnr" v="462587" />
	</node>
	<node id="-469211" lat="60.2213944426" lon="5.69380000222">
		<tag k="alt_name" v="Bergeelva" />
		<tag k="name" v="Bergselva" />
		<tag k="ssr:stedsnr" v="660001" />
		<tag k="waterway" v="stream" />
	</node>
	<node id="-468696" lat="60.176332745" lon="5.67361389973">
		<tag k="name" v="Trongskartjørna" />
		<tag k="natural" v="water" />
		<tag k="ssr:stedsnr" v="460863" />
	</node>
	<node id="-469719" lat="60.3194027749" lon="5.80603333832">
		<tag k="alt_name" v="Trælatjørna, vestre" />
		<tag k="name" v="Vestre Trælatjørna" />
		<tag k="natural" v="water" />
		<tag k="ssr:stedsnr" v="855243" />
	</node>
	<node id="-469113" lat="60.2901083372" lon="5.9179750012">
		<tag k="name" v="Svobekkene" />
		<tag k="ssr:stedsnr" v="612943" />
		<tag k="waterway" v="stream" />
	</node>
	<node id="-469716" lat="60.088501603" lon="5.85219426566">
		<tag k="name" v="Langedalstjørna" />
		<tag k="natural" v="water" />
		<tag k="ssr:stedsnr" v="854929" />
	</node>
	<node id="-469715" lat="60.1397250009" lon="5.78132500858">
		<tag k="name" v="Krokvasselva" />
		<tag k="ssr:stedsnr" v="854458" />
		<tag k="waterway" v="stream" />
	</node>
	<node id="-469714" lat="60.0965500021" lon="5.78908611881">
		<tag k="name" v="Lygrestjørna" />
		<tag k="natural" v="water" />
		<tag k="ssr:stedsnr" v="854449" />
	</node>
	<node id="-468600" lat="60.2486678884" lon="5.88606582044">
		<tag k="name" v="Åsetjørna" />
		<tag k="natural" v="water" />
		<tag k="ssr:stedsnr" v="247687" />
	</node>
	<node id="-468429" lat="60.1519666692" lon="5.75494443944">
		<tag k="name" v="Baldersheimelva" />
		<tag k="ssr:stedsnr" v="186422" />
		<tag k="waterway" v="river" />
	</node>
	<node id="-467660" lat="60.204291664" lon="5.84647223144">
		<tag k="name" v="Naustvika" />
		<tag k="natural" v="bay" />
		<tag k="ssr:stedsnr" v="340284" />
	</node>
	<node id="-468171" lat="60.2715249982" lon="5.92285277442">
		<tag k="name" v="Segllibekken" />
		<tag k="ssr:stedsnr" v="66856" />
		<tag k="waterway" v="stream" />
	</node>
	<node id="-469706" lat="60.1601495763" lon="5.77881358513">
		<tag k="name" v="Svartavasstjørna" />
		<tag k="natural" v="water" />
		<tag k="ssr:stedsnr" v="854381" />
	</node>
	<node id="-468681" lat="60.2725388872" lon="5.85998056269">
		<tag k="name" v="Skarvaelva" />
		<tag k="ssr:stedsnr" v="430908" />
		<tag k="waterway" v="stream" />
	</node>
	<node id="-468168" lat="60.1178250019" lon="5.76756389123">
		<tag k="name" v="Sørelva" />
		<tag k="ssr:stedsnr" v="66455" />
		<tag k="waterway" v="stream" />
	</node>
	<node id="-468172" lat="60.2816638865" lon="5.93160000718">
		<tag k="alt_name" v="Bolstadelva, øvre" />
		<tag k="name" v="Øvre Bolstadelva" />
		<tag k="ssr:stedsnr" v="66918" />
		<tag k="waterway" v="stream" />
	</node>
	<node id="-468166" lat="60.1040027765" lon="5.78313889135">
		<tag k="name" v="Svartavatnet" />
		<tag k="natural" v="water" />
		<tag k="ssr:stedsnr" v="66414" />
	</node>
	<node id="-468677" lat="60.2376333321" lon="5.93277499954">
		<tag k="alt_name" v="Teglandsdemma" />
		<tag k="name" v="Stemmetjørna" />
		<tag k="natural" v="water" />
		<tag k="ssr:stedsnr" v="430682" />
	</node>
	<node id="-468164" lat="60.0983138934" lon="5.82096389398">
		<tag k="name" v="Krokvatnet" />
		<tag k="natural" v="water" />
		<tag k="ssr:stedsnr" v="66407" />
	</node>
	<node id="-469187" lat="60.2665566364" lon="5.79895279344">
		<tag k="name" v="Holdhustjørna" />
		<tag k="natural" v="water" />
		<tag k="ssr:stedsnr" v="643713" />
	</node>
	<node id="-468674" lat="60.2069999988" lon="5.87008055744">
		<tag k="name" v="Tomraholmen" />
		<tag k="place" v="islet" />
		<tag k="ssr:stedsnr" v="430513" />
	</node>
	<node id="-467659" lat="60.2092166632" lon="5.88285554825">
		<tag k="name" v="Hundsteinaneset" />
		<tag k="natural" v="cape" />
		<tag k="ssr:stedsnr" v="340279" />
	</node>
	<node id="-469695" lat="60.2127694479" lon="5.75778888934">
		<tag k="name" v="Langedalsvatnet" />
		<tag k="natural" v="water" />
		<tag k="ssr:stedsnr" v="854093" />
		<tag k="water" v="lake" />
	</node>
	<node id="-467646" lat="60.2669500039" lon="5.79528888049">
		<tag k="name" v="Kvanndalselva" />
		<tag k="ssr:stedsnr" v="126326" />
		<tag k="waterway" v="river" />
	</node>
	<node id="-468669" lat="60.2820129411" lon="5.77371421181">
		<tag k="name" v="Svartetjørn" />
		<tag k="natural" v="water" />
		<tag k="ssr:stedsnr" v="430307" />
	</node>
	<node id="-469178" lat="60.2534361152" lon="5.81288055724">
		<tag k="name" v="Stegavika" />
		<tag k="natural" v="bay" />
		<tag k="ssr:stedsnr" v="643645" />
	</node>
	<node id="-468153" lat="60.0377166624" lon="5.78957500196">
		<tag k="name" v="Brothølen" />
		<tag k="natural" v="water" />
		<tag k="ssr:stedsnr" v="65619" />
		<tag k="water" v="lake" />
	</node>
	<node id="-469688" lat="60.2188803269" lon="5.7885175213">
		<tag k="name" v="Blåtjørna" />
		<tag k="natural" v="water" />
		<tag k="ssr:stedsnr" v="854006" />
	</node>
	<node id="-469687" lat="60.0427722213" lon="5.77871667445">
		<tag k="alt_name" v="Sunnfjordelva" />
		<tag k="name" v="Sundfjordelva" />
		<tag k="ssr:stedsnr" v="843317" />
		<tag k="waterway" v="stream" />
	</node>
	<node id="-467759" lat="60.2682652167" lon="5.76904433682">
		<tag k="name" v="Koldalstjørna" />
		<tag k="natural" v="water" />
		<tag k="ssr:stedsnr" v="369276" />
	</node>
	<node id="-467657" lat="60.2110916709" lon="5.84554722226">
		<tag k="name" v="Øpste Geitskeidvika" />
		<tag k="natural" v="bay" />
		<tag k="ssr:stedsnr" v="340265" />
	</node>
	<node id="-467834" lat="60.1330420399" lon="5.84811136014">
		<tag k="name" v="Olderbotstjørna" />
		<tag k="natural" v="water" />
		<tag k="ssr:stedsnr" v="401363" />
	</node>
	<node id="-468851" lat="60.098038888" lon="5.84267222784">
		<tag k="name" v="Austefjordselva" />
		<tag k="ssr:stedsnr" v="522348" />
		<tag k="waterway" v="river" />
	</node>
	<node id="-469167" lat="60.1372861073" lon="5.77246666131">
		<tag k="name" v="Skiftesbekken" />
		<tag k="ssr:stedsnr" v="643556" />
		<tag k="waterway" v="stream" />
	</node>
	<node id="-468141" lat="60.1541249254" lon="5.77952075287">
		<tag k="name" v="Lometjørna" />
		<tag k="natural" v="water" />
		<tag k="ssr:stedsnr" v="65374" />
	</node>
	<node id="-468082" lat="60.1441916678" lon="5.80595832525">
		<tag k="name" v="Vasabekken" />
		<tag k="ssr:stedsnr" v="37608" />
		<tag k="waterway" v="stream" />
	</node>
	<node id="-469191" lat="60.213700004" lon="5.6414222261">
		<tag k="name" v="Botnali-elva" />
		<tag k="ssr:stedsnr" v="643765" />
		<tag k="waterway" v="river" />
	</node>
	<node id="-467793" lat="60.1967333293" lon="5.59499722252">
		<tag k="name" v="Storholmen" />
		<tag k="place" v="islet" />
		<tag k="ssr:stedsnr" v="388703" />
	</node>
	<node id="-467622" lat="60.2682388883" lon="5.95582777156">
		<tag k="name" v="Tverrelva" />
		<tag k="ssr:stedsnr" v="309608" />
		<tag k="waterway" v="stream" />
	</node>
	<node id="-469669" lat="60.2242222202" lon="5.68563888596">
		<tag k="name" v="Kvernelva" />
		<tag k="ssr:stedsnr" v="826857" />
		<tag k="waterway" v="river" />
	</node>
	<node id="-468644" lat="60.2126190667" lon="5.77958595594">
		<tag k="name" v="Brandaskartjørnane" />
		<tag k="natural" v="water" />
		<tag k="ssr:stedsnr" v="429107" />
		<tag k="water" v="lake" />
	</node>
	<node id="-468643" lat="60.2050249992" lon="5.7602444484">
		<tag k="name" v="Haugaelva" />
		<tag k="ssr:stedsnr" v="429098" />
		<tag k="waterway" v="river" />
	</node>
	<node id="-467964" lat="60.030608333" lon="5.75797499115">
		<tag k="alt_name" v="Håvikavatn;Håvikavatnet" />
		<tag k="name" v="Håvikvatnet" />
		<tag k="natural" v="water" />
		<tag k="ssr:stedsnr" v="611654" />
		<tag k="water" v="lake" />
	</node>
	<node id="-467615" lat="60.1036746571" lon="5.86208204425">
		<tag k="name" v="Grunnavatnet" />
		<tag k="natural" v="water" />
		<tag k="ssr:stedsnr" v="308891" />
	</node>
	<node id="-469149" lat="60.2511861113" lon="5.82531944399">
		<tag k="name" v="Skoltane" />
		<tag k="natural" v="cape" />
		<tag k="ssr:stedsnr" v="643428" />
	</node>
	<node id="-467612" lat="60.1421949999" lon="5.82524493109">
		<tag k="name" v="Midttjørna" />
		<tag k="natural" v="water" />
		<tag k="ssr:stedsnr" v="308458" />
	</node>
	<node id="-467611" lat="60.1290427456" lon="5.82273499969">
		<tag k="name" v="Grøndalstjørna" />
		<tag k="natural" v="water" />
		<tag k="ssr:stedsnr" v="308454" />
	</node>
	<node id="-469658" lat="60.310908232" lon="5.77113639512">
		<tag k="name" v="Instatjørna" />
		<tag k="natural" v="water" />
		<tag k="ssr:stedsnr" v="826669" />
	</node>
	<node id="-469657" lat="60.3329805583" lon="5.74000833963">
		<tag k="name" v="Lonelva" />
		<tag k="ssr:stedsnr" v="826664" />
		<tag k="waterway" v="river" />
	</node>
	<node id="-469144" lat="60.233293368" lon="5.84822761102">
		<tag k="name" v="Lomatjørna" />
		<tag k="natural" v="water" />
		<tag k="ssr:stedsnr" v="643280" />
	</node>
	<node id="-467908" lat="60.1635416708" lon="5.77845554644">
		<tag k="name" v="Steindalselva" />
		<tag k="ssr:stedsnr" v="886497" />
		<tag k="waterway" v="river" />
	</node>
	<node id="-469142" lat="60.2112416637" lon="5.88796667155">
		<tag k="name" v="Kjeaneset" />
		<tag k="natural" v="cape" />
		<tag k="ssr:stedsnr" v="643270" />
	</node>
	<node id="-468116" lat="60.3208305596" lon="5.70098333012">
		<tag k="name" v="Skarebekken" />
		<tag k="ssr:stedsnr" v="37974" />
		<tag k="waterway" v="stream" />
	</node>
	<node id="-469139" lat="60.2756027798" lon="5.83917222638">
		<tag k="name" v="Kattaneset" />
		<tag k="natural" v="cape" />
		<tag k="ssr:stedsnr" v="643112" />
	</node>
	<node id="-469648" lat="60.1954944403" lon="5.78630000533">
		<tag k="name" v="Breivika" />
		<tag k="natural" v="bay" />
		<tag k="ssr:stedsnr" v="826609" />
	</node>
	<node id="-468127" lat="60.0516318667" lon="5.77034020567">
		<tag k="name" v="Pasåstjørna" />
		<tag k="natural" v="water" />
		<tag k="ssr:stedsnr" v="65304" />
	</node>
	<node id="-469259" lat="60.324554983" lon="5.69347675348">
		<tag k="alt_name" v="Sævlavatnet" />
		<tag k="name" v="Sævellavatnet" />
		<tag k="natural" v="water" />
		<tag k="ssr:stedsnr" v="673246" />
		<tag k="water" v="lake" />
	</node>
	<node id="-468162" lat="60.0548964958" lon="5.73243699746">
		<tag k="name" v="Teigatjørna" />
		<tag k="natural" v="water" />
		<tag k="ssr:stedsnr" v="66347" />
	</node>
	<node id="-468618" lat="60.2038444433" lon="5.88870555837">
		<tag k="name" v="Skogseidelva" />
		<tag k="ssr:stedsnr" v="248531" />
		<tag k="waterway" v="stream" />
	</node>
	<node id="-469128" lat="60.2397361119" lon="5.85919165786">
		<tag k="name" v="Beinavika" />
		<tag k="natural" v="bay" />
		<tag k="ssr:stedsnr" v="643319" />
	</node>
	<node id="-468414" lat="60.2195777766" lon="5.8066916637">
		<tag k="name" v="Sætratjørna" />
		<tag k="natural" v="water" />
		<tag k="ssr:stedsnr" v="186008" />
	</node>
	<node id="-467649" lat="60.0454166641" lon="5.77520833599">
		<tag k="name" v="Kilen" />
		<tag k="natural" v="bay" />
		<tag k="ssr:stedsnr" v="126340" />
	</node>
	<node id="-469068" lat="60.2310381507" lon="5.77303006827">
		<tag k="name" v="Mosatjørna" />
		<tag k="natural" v="water" />
		<tag k="ssr:stedsnr" v="611027" />
	</node>
	<node id="-469632" lat="60.2772444471" lon="5.8430833345">
		<tag k="name" v="Bjørkeneset" />
		<tag k="natural" v="cape" />
		<tag k="ssr:stedsnr" v="826486" />
	</node>
	<node id="-469629" lat="60.2477999974" lon="5.82279722683">
		<tag k="name" v="Kilaneset" />
		<tag k="natural" v="cape" />
		<tag k="ssr:stedsnr" v="826466" />
	</node>
	<node id="-469628" lat="60.2504972206" lon="5.82109999603">
		<tag k="name" v="Klenaneset" />
		<tag k="natural" v="cape" />
		<tag k="ssr:stedsnr" v="826462" />
	</node>
	<node id="-469627" lat="60.2572277738" lon="5.84261665991">
		<tag k="name" v="Tømmervikane" />
		<tag k="natural" v="bay" />
		<tag k="ssr:stedsnr" v="826457" />
	</node>
	<node id="-469114" lat="60.3026555511" lon="5.90585276984">
		<tag k="name" v="Gjoelva" />
		<tag k="ssr:stedsnr" v="612982" />
		<tag k="waterway" v="stream" />
	</node>
	<node id="-469625" lat="60.134233329" lon="5.83995277045">
		<tag k="name" v="Yddalselva" />
		<tag k="ssr:stedsnr" v="826382" />
		<tag k="waterway" v="river" />
	</node>
	<node id="-469112" lat="60.2830111133" lon="5.88154167088">
		<tag k="name" v="Glumelielva" />
		<tag k="ssr:stedsnr" v="612942" />
		<tag k="waterway" v="stream" />
	</node>
	<node id="-468086" lat="60.293686112" lon="5.76300555921">
		<tag k="name" v="Storaneset" />
		<tag k="natural" v="cape" />
		<tag k="ssr:stedsnr" v="37670" />
	</node>
	<node id="-469109" lat="60.2604750027" lon="5.86578888995">
		<tag k="name" v="Gjønelva" />
		<tag k="ssr:stedsnr" v="612832" />
		<tag k="waterway" v="stream" />
	</node>
	<node id="-468596" lat="60.1387102812" lon="5.83656058878">
		<tag k="name" v="Vetlavatnet" />
		<tag k="natural" v="water" />
		<tag k="ssr:stedsnr" v="247472" />
	</node>
	<node id="-468595" lat="60.1326888931" lon="5.76729445256">
		<tag k="name" v="Svinasteinstjørna" />
		<tag k="natural" v="water" />
		<tag k="ssr:stedsnr" v="247470" />
		<tag k="water" v="lake" />
	</node>
	<node id="-469106" lat="60.2557611097" lon="5.79066667143">
		<tag k="name" v="Ormabekken" />
		<tag k="ssr:stedsnr" v="612359" />
		<tag k="waterway" v="stream" />
	</node>
	<node id="-469617" lat="60.2330472221" lon="5.83618332973">
		<tag k="name" v="Krusasmoget" />
		<tag k="ssr:stedsnr" v="826305" />
		<tag k="waterway" v="river" />
	</node>
	<node id="-467627" lat="60.2978166707" lon="5.85073333577">
		<tag k="name" v="Togene" />
		<tag k="natural" v="waterfall" />
		<tag k="ssr:stedsnr" v="309967" />
	</node>
	<node id="-469103" lat="60.2739851086" lon="5.73986227893">
		<tag k="name" v="Stemmetjørna" />
		<tag k="natural" v="water" />
		<tag k="ssr:stedsnr" v="612305" />
	</node>
	<node id="-468684" lat="60.3245626413" lon="5.7100975534">
		<tag k="name" v="Stussvatnet" />
		<tag k="natural" v="water" />
		<tag k="ssr:stedsnr" v="431251" />
	</node>
	<node id="-468124" lat="60.3442488333" lon="5.72269359646">
		<tag k="name" v="Rundehaugtjørni" />
		<tag k="natural" v="water" />
		<tag k="ssr:stedsnr" v="55026" />
	</node>
	<node id="-467928" lat="60.13882222" lon="5.7607916753">
		<tag k="name" v="Årvikelva" />
		<tag k="ssr:stedsnr" v="886942" />
		<tag k="waterway" v="river" />
	</node>
	<node id="-469096" lat="60.217269445" lon="5.8495055644">
		<tag k="name" v="Klubben" />
		<tag k="natural" v="cape" />
		<tag k="ssr:stedsnr" v="611736" />
	</node>
	<node id="-468582" lat="60.0800138845" lon="5.83876944149">
		<tag k="name" v="Eikedalstjørna" />
		<tag k="natural" v="water" />
		<tag k="ssr:stedsnr" v="247287" />
	</node>
	<node id="-468581" lat="60.2136888866" lon="5.82826666394">
		<tag k="name" v="Rennesvika" />
		<tag k="natural" v="bay" />
		<tag k="ssr:stedsnr" v="247111" />
	</node>
	<node id="-469606" lat="60.2510682094" lon="5.79832692319">
		<tag k="name" v="Rundatjørna" />
		<tag k="natural" v="water" />
		<tag k="ssr:stedsnr" v="825611" />
	</node>
	<node id="-467554" lat="60.3535479137" lon="5.74003318964">
		<tag k="name" v="Kollstegtjørna" />
		<tag k="natural" v="water" />
		<tag k="ssr:stedsnr" v="280673" />
	</node>
	<node id="-467553" lat="60.2873333314" lon="5.78027223048">
		<tag k="name" v="Langaneset" />
		<tag k="natural" v="cape" />
		<tag k="ssr:stedsnr" v="280672" />
	</node>
	<node id="-468063" lat="60.1304444426" lon="5.83882777996">
		<tag k="name" v="Tverrelva" />
		<tag k="ssr:stedsnr" v="37370" />
		<tag k="waterway" v="river" />
	</node>
	<node id="-468574" lat="60.2267197719" lon="5.80374862626">
		<tag k="name" v="Halvgjengetjørna" />
		<tag k="natural" v="water" />
		<tag k="ssr:stedsnr" v="247025" />
	</node>
	<node id="-469597" lat="60.2033916687" lon="5.84045556432">
		<tag k="name" v="Godvika" />
		<tag k="natural" v="bay" />
		<tag k="ssr:stedsnr" v="826287" />
	</node>
	<node id="-469595" lat="60.2243722189" lon="5.88780833393">
		<tag k="name" v="Furenestangen" />
		<tag k="natural" v="cape" />
		<tag k="ssr:stedsnr" v="826266" />
	</node>
	<node id="-469594" lat="60.2128361103" lon="5.86499722971">
		<tag k="name" v="Tobakksholmen" />
		<tag k="place" v="islet" />
		<tag k="ssr:stedsnr" v="826258" />
	</node>
	<node id="-469593" lat="60.2058138862" lon="5.84480277404">
		<tag k="name" v="Rotaholmen" />
		<tag k="place" v="islet" />
		<tag k="ssr:stedsnr" v="826254" />
	</node>
	<node id="-469080" lat="60.1708361071" lon="5.79902500579">
		<tag k="alt_name" v="Stølaelva" />
		<tag k="name" v="Setraelva" />
		<tag k="ssr:stedsnr" v="611391" />
		<tag k="waterway" v="stream" />
	</node>
	<node id="-469079" lat="60.057253792" lon="5.74026384744">
		<tag k="name" v="Øletjørna" />
		<tag k="natural" v="water" />
		<tag k="ssr:stedsnr" v="611363" />
	</node>
	<node id="-468188" lat="60.1746583325" lon="5.598905561">
		<tag k="name" v="Holsneselva" />
		<tag k="ssr:stedsnr" v="96820" />
		<tag k="waterway" v="river" />
	</node>
	<node id="-468053" lat="60.2097611069" lon="5.88802778215">
		<tag k="name" v="Bogen" />
		<tag k="natural" v="bay" />
		<tag k="ssr:stedsnr" v="37251" />
	</node>
	<node id="-469076" lat="60.3077999991" lon="5.8048305596">
		<tag k="name" v="Spongatjørna" />
		<tag k="natural" v="water" />
		<tag k="ssr:stedsnr" v="611260" />
		<tag k="water" v="lake" />
	</node>
	<node id="-468067" lat="60.2621805554" lon="5.85176110336">
		<tag k="name" v="Sandvikane" />
		<tag k="natural" v="bay" />
		<tag k="ssr:stedsnr" v="37466" />
	</node>
	<node id="-469615" lat="60.2046972264" lon="5.85936388806">
		<tag k="name" v="Sundet" />
		<tag k="natural" v="strait" />
		<tag k="ssr:stedsnr" v="826249" />
	</node>
	<node id="-469070" lat="60.1961361142" lon="5.78296388483">
		<tag k="name" v="Henangervatnet" />
		<tag k="natural" v="water" />
		<tag k="ssr:stedsnr" v="611083" />
		<tag k="water" v="lake" />
	</node>
	<node id="-468044" lat="60.2017638913" lon="5.80691110798">
		<tag k="name" v="Leitesneset" />
		<tag k="natural" v="cape" />
		<tag k="ssr:stedsnr" v="36691" />
	</node>
	<node id="-467529" lat="60.2207249973" lon="5.85888889261">
		<tag k="name" v="Kjeaneset" />
		<tag k="natural" v="cape" />
		<tag k="ssr:stedsnr" v="280253" />
	</node>
	<node id="-469063" lat="60.2947568096" lon="5.68639465346">
		<tag k="name" v="Ramshaugtjørna" />
		<tag k="natural" v="water" />
		<tag k="ssr:stedsnr" v="584000" />
	</node>
	<node id="-468038" lat="60.2287777809" lon="5.82127222764">
		<tag k="name" v="Eidet" />
		<tag k="natural" v="strait" />
		<tag k="ssr:stedsnr" v="36494" />
	</node>
	<node id="-468788" lat="60.08904444" lon="5.76148055448">
		<tag k="name" v="Knappelva" />
		<tag k="ssr:stedsnr" v="489494" />
		<tag k="waterway" v="stream" />
	</node>
	<node id="-469572" lat="60.2042499993" lon="5.84373333073">
		<tag k="name" v="Klubben" />
		<tag k="natural" v="cape" />
		<tag k="ssr:stedsnr" v="794600" />
	</node>
	<node id="-468035" lat="60.2884388851" lon="5.83314166343">
		<tag k="name" v="Fossane" />
		<tag k="natural" v="waterfall" />
		<tag k="ssr:stedsnr" v="36371" />
	</node>
	<node id="-468545" lat="60.2730250038" lon="5.70384722231">
		<tag k="name" v="Gaddelva" />
		<tag k="ssr:stedsnr" v="219815" />
		<tag k="waterway" v="river" />
	</node>
	<node id="-468447" lat="60.0364527761" lon="5.76070832682">
		<tag k="name" v="Båtavika" />
		<tag k="natural" v="bay" />
		<tag k="ssr:stedsnr" v="187320" />
	</node>
	<node id="-469567" lat="60.1024919586" lon="5.75579928689">
		<tag k="name" v="Vetlavatnet" />
		<tag k="natural" v="water" />
		<tag k="ssr:stedsnr" v="794428" />
	</node>
	<node id="-469050" lat="60.0599499958" lon="5.74140833535">
		<tag k="name" v="Kvernhusbekken" />
		<tag k="ssr:stedsnr" v="583898" />
		<tag k="waterway" v="stream" />
	</node>
	<node id="-468167" lat="60.1149106872" lon="5.78176925057">
		<tag k="name" v="Austedalstjørna" />
		<tag k="natural" v="water" />
		<tag k="ssr:stedsnr" v="66417" />
	</node>
	<node id="-468531" lat="60.3453079368" lon="5.73851753106">
		<tag k="name" v="Altasetredalstjørna" />
		<tag k="natural" v="water" />
		<tag k="ssr:stedsnr" v="219687" />
		<tag k="water" v="lake" />
	</node>
	<node id="-469554" lat="60.1459527756" lon="5.82110278173">
		<tag k="name" v="Halavatnet" />
		<tag k="natural" v="water" />
		<tag k="ssr:stedsnr" v="793519" />
		<tag k="water" v="lake" />
	</node>
	<node id="-469832" lat="60.3166447325" lon="5.72092415533">
		<tag k="name" v="Svarttjørna" />
		<tag k="natural" v="water" />
		<tag k="ssr:stedsnr" v="947612" />
	</node>
	<node id="-468706" lat="60.1582027809" lon="5.78283888529">
		<tag k="name" v="Laugarelva" />
		<tag k="ssr:stedsnr" v="461510" />
		<tag k="waterway" v="river" />
	</node>
	<node id="-468014" lat="60.1209638874" lon="5.85383889443">
		<tag k="name" v="Horgatjørna" />
		<tag k="natural" v="water" />
		<tag k="ssr:stedsnr" v="5867" />
	</node>
	<node id="-469549" lat="60.0762296381" lon="5.82385933584">
		<tag k="name" v="Tuveteigtjørna" />
		<tag k="natural" v="water" />
		<tag k="ssr:stedsnr" v="793327" />
	</node>
	<node id="-468011" lat="60.2546611072" lon="5.8529250072">
		<tag k="alt_name" v="Gjønvatnet" />
		<tag k="name" v="Gjønavatnet" />
		<tag k="natural" v="water" />
		<tag k="ssr:stedsnr" v="5806" />
		<tag k="water" v="lake" />
	</node>
	<node id="-468231" lat="60.3032469865" lon="5.76173993093">
		<tag k="name" v="Ytstatjørna" />
		<tag k="natural" v="water" />
		<tag k="ssr:stedsnr" v="98694" />
	</node>
	<node id="-469555" lat="60.1443295783" lon="5.85282228618">
		<tag k="name" v="Yddalsvatnet" />
		<tag k="natural" v="water" />
		<tag k="ssr:stedsnr" v="793642" />
		<tag k="water" v="lake" />
	</node>
	<node id="-469031" lat="60.321766785" lon="5.78747837267">
		<tag k="name" v="Hestaskotjørna" />
		<tag k="natural" v="water" />
		<tag k="ssr:stedsnr" v="583661" />
	</node>
	<node id="-468517" lat="60.2397527781" lon="5.79606666801">
		<tag k="name" v="Lurabekken" />
		<tag k="ssr:stedsnr" v="219558" />
		<tag k="waterway" v="stream" />
	</node>
	<node id="-469028" lat="60.3162083342" lon="5.73626111397">
		<tag k="name" v="Fosselva" />
		<tag k="ssr:stedsnr" v="583623" />
		<tag k="waterway" v="river" />
	</node>
	<node id="-469085" lat="60.1729638869" lon="5.65249723013">
		<tag k="name" v="Vikaelva" />
		<tag k="ssr:stedsnr" v="611428" />
		<tag k="waterway" v="stream" />
	</node>
	<node id="-469026" lat="60.1958583315" lon="5.91151667256">
		<tag k="name" v="Storehølen" />
		<tag k="ssr:stedsnr" v="583331" />
		<tag k="waterway" v="river" />
	</node>
	<node id="-468000" lat="60.2780137006" lon="5.71246218584">
		<tag k="name" v="Remavatnet" />
		<tag k="natural" v="water" />
		<tag k="ssr:stedsnr" v="5302" />
	</node>
	<node id="-467738" lat="60.166477608" lon="5.61010129691">
		<tag k="alt_name" v="Skotavatnet" />
		<tag k="name" v="Skåtavatnet" />
		<tag k="natural" v="water" />
		<tag k="ssr:stedsnr" v="368455" />
	</node>
	<node id="-469532" lat="60.1944305597" lon="5.78385555721">
		<tag k="name" v="Hestaneset" />
		<tag k="natural" v="cape" />
		<tag k="ssr:stedsnr" v="774737" />
	</node>
	<node id="-467995" lat="60.3032164109" lon="5.83330385593">
		<tag k="name" v="Setehaugtjørna" />
		<tag k="natural" v="water" />
		<tag k="ssr:stedsnr" v="5259" />
	</node>
	<node id="-467994" lat="60.2888603422" lon="5.73880046008">
		<tag k="name" v="Budeietjørnane" />
		<tag k="natural" v="water" />
		<tag k="ssr:stedsnr" v="5261" />
		<tag k="water" v="lake" />
	</node>
	<node id="-467823" lat="60.2206277737" lon="5.85336944199">
		<tag k="name" v="Bjørgvika" />
		<tag k="natural" v="bay" />
		<tag k="ssr:stedsnr" v="401285" />
	</node>
	<node id="-469255" lat="60.2184555561" lon="5.87796388455">
		<tag k="name" v="Skogseidvatnet" />
		<tag k="natural" v="water" />
		<tag k="ssr:stedsnr" v="672731" />
		<tag k="water" v="lake" />
	</node>
	<node id="-469571" lat="60.3172345197" lon="5.89059756248">
		<tag k="name" v="Skaratjørna" />
		<tag k="natural" v="water" />
		<tag k="ssr:stedsnr" v="794505" />
	</node>
	<node id="-469010" lat="60.1802583319" lon="5.60962222814">
		<tag k="name" v="Skjørsandselva" />
		<tag k="ssr:stedsnr" v="582843" />
		<tag k="waterway" v="river" />
	</node>
	<node id="-469009" lat="60.2775339357" lon="5.80536827711">
		<tag k="name" v="Vindestegtjønna" />
		<tag k="natural" v="water" />
		<tag k="ssr:stedsnr" v="582762" />
	</node>
	<node id="-469006" lat="60.2514427194" lon="5.80386701622">
		<tag k="name" v="Lygrestjørna" />
		<tag k="natural" v="water" />
		<tag k="ssr:stedsnr" v="582661" />
	</node>
	<node id="-469005" lat="60.1198111104" lon="5.78285277809">
		<tag k="name" v="Skratlebekken" />
		<tag k="ssr:stedsnr" v="582636" />
		<tag k="waterway" v="stream" />
	</node>
	<node id="-468570" lat="60.3480944462" lon="5.71575278232">
		<tag k="name" v="Skorvena" />
		<tag k="ssr:stedsnr" v="237028" />
		<tag k="waterway" v="stream" />
	</node>
	<node id="-468491" lat="60.2145861105" lon="5.88430554764">
		<tag k="name" v="Nordvikholmane" />
		<tag k="place" v="islet" />
		<tag k="ssr:stedsnr" v="219264" />
	</node>
	<node id="-469514" lat="60.2671339592" lon="5.68713020588">
		<tag k="name" v="Hafskortjørna" />
		<tag k="natural" v="water" />
		<tag k="ssr:stedsnr" v="765800" />
	</node>
	<node id="-468489" lat="60.2229722251" lon="5.89440000635">
		<tag k="name" v="Mørkevågen" />
		<tag k="natural" v="bay" />
		<tag k="ssr:stedsnr" v="219251" />
	</node>
	<node id="-469000" lat="60.173194449" lon="5.77143889337">
		<tag k="name" v="Markhuselva" />
		<tag k="ssr:stedsnr" v="582508" />
		<tag k="waterway" v="river" />
	</node>
	<node id="-468385" lat="60.1984250018" lon="5.78431110623">
		<tag k="name" v="Gråklubben" />
		<tag k="natural" v="cape" />
		<tag k="ssr:stedsnr" v="158688" />
	</node>
	<node id="-468743" lat="60.1932583305" lon="5.89696388393">
		<tag k="name" v="Dyrabekken" />
		<tag k="ssr:stedsnr" v="462315" />
		<tag k="waterway" v="stream" />
	</node>
	<node id="-468054" lat="60.2181027817" lon="5.88423333998">
		<tag k="name" v="Klubben" />
		<tag k="natural" v="cape" />
		<tag k="ssr:stedsnr" v="37262" />
	</node>
	<node id="-467868" lat="60.2701583314" lon="5.67587221953">
		<tag k="name" v="Matlandselva" />
		<tag k="ssr:stedsnr" v="401775" />
		<tag k="waterway" v="river" />
	</node>
</osm>
