<?xml version="1.0" encoding="UTF-8"?>
<osm generator="osmapis" version="0.6">
	<node id="-467968" lat="60.2764353458" lon="5.93845817552">
		<tag k="name" v="Bolstad" />
		<tag k="place" v="hamlet" />
		<tag k="ssr:stedsnr" v="990018" />
	</node>
	<node id="-467967" lat="60.2054950472" lon="5.62895172381">
		<tag k="fixme" v="consider place=hamlet" />
		<tag k="name" v="Fusa" />
		<tag k="place" v="farm" />
		<tag k="ssr:stedsnr" v="990001" />
	</node>
	<node id="-468478" lat="60.2503277745" lon="5.79244444781">
		<tag k="name" v="Træena" />
		<tag k="place" v="farm" />
		<tag k="ssr:stedsnr" v="219669" />
	</node>
	<node id="-468477" lat="60.1600166677" lon="5.58792499309">
		<tag k="name" v="Skåte" />
		<tag k="place" v="farm" />
		<tag k="ssr:stedsnr" v="208496" />
	</node>
	<node id="-468475" lat="60.1942000038" lon="5.60549723045">
		<tag k="name" v="Utleboen" />
		<tag k="place" v="farm" />
		<tag k="ssr:stedsnr" v="207668" />
	</node>
	<node id="-468983" lat="60.1507611137" lon="5.62447776929">
		<tag k="name" v="Fure" />
		<tag k="place" v="farm" />
		<tag k="ssr:stedsnr" v="581844" />
	</node>
	<node id="-467966" lat="60.2996349473" lon="5.67064566957">
		<tag k="fixme" v="consider place=hamlet" />
		<tag k="name" v="Vafet" />
		<tag k="place" v="farm" />
		<tag k="ssr:stedsnr" v="989997" />
	</node>
	<node id="-468974" lat="60.2464166635" lon="5.69183610508">
		<tag k="name" v="Hafskor" />
		<tag k="place" v="farm" />
		<tag k="ssr:stedsnr" v="572484" />
	</node>
	<node id="-468971" lat="60.1803472211" lon="5.74863055981">
		<tag k="name" v="Haugland" />
		<tag k="place" v="farm" />
		<tag k="ssr:stedsnr" v="570231" />
	</node>
	<node id="-468970" lat="60.0576138877" lon="5.78320556212">
		<tag k="name" v="Lii" />
		<tag k="place" v="farm" />
		<tag k="ssr:stedsnr" v="570139" />
	</node>
	<node id="-468647" lat="60.2135777771" lon="5.83792500854">
		<tag k="name" v="Skåra" />
		<tag k="place" v="farm" />
		<tag k="ssr:stedsnr" v="429120" />
	</node>
	<node id="-469073" lat="60.2072416632" lon="5.63103054862">
		<tag k="name" v="Flatebø" />
		<tag k="place" v="farm" />
		<tag k="ssr:stedsnr" v="611104" />
	</node>
	<node id="-468964" lat="60.2776638851" lon="5.88767777373">
		<tag k="alt_name" v="Nerhovdasete" />
		<tag k="historic" v="shieling" />
		<tag k="name" v="Nerhovdasetret" />
		<tag k="place" v="locality" />
		<tag k="ssr:stedsnr" v="551902" />
	</node>
	<node id="-468451" lat="60.2462556562" lon="5.89956503537">
		<tag k="fixme" v="consider place=hamlet" />
		<tag k="name" v="Berland" />
		<tag k="place" v="farm" />
		<tag k="ssr:stedsnr" v="187669" />
	</node>
	<node id="-468450" lat="60.2366499978" lon="5.87176666867">
		<tag k="name" v="Luren" />
		<tag k="place" v="farm" />
		<tag k="ssr:stedsnr" v="187654" />
	</node>
	<node id="-468959" lat="60.2502414779" lon="5.88296139491">
		<tag k="fixme" v="consider place=hamlet" />
		<tag k="name" v="Åse" />
		<tag k="place" v="farm" />
		<tag k="ssr:stedsnr" v="551823" />
	</node>
	<node id="-468958" lat="60.2323322667" lon="5.89861036814">
		<tag k="fixme" v="consider place=hamlet" />
		<tag k="name" v="Tveitnes" />
		<tag k="place" v="farm" />
		<tag k="ssr:stedsnr" v="551746" />
	</node>
	<node id="-468956" lat="60.1551019077" lon="5.73193164014">
		<tag k="alt_name" v="Revne" />
		<tag k="fixme" v="consider place=hamlet" />
		<tag k="name" v="Revna" />
		<tag k="place" v="farm" />
		<tag k="ssr:stedsnr" v="551594" />
	</node>
	<node id="-468953" lat="60.1286527784" lon="5.80573333343">
		<tag k="name" v="Sørtveitstølen" />
		<tag k="place" v="isolated_dwelling" />
		<tag k="ssr:stedsnr" v="551482" />
	</node>
	<node id="-468900" lat="60.153058336" lon="5.73794443648">
		<tag k="name" v="Halsen" />
		<tag k="place" v="farm" />
		<tag k="ssr:stedsnr" v="522922" />
	</node>
	<node id="-469462" lat="60.192205556" lon="5.89509166127">
		<tag k="name" v="Uglehus" />
		<tag k="place" v="farm" />
		<tag k="ssr:stedsnr" v="765308" />
	</node>
	<node id="-467925" lat="60.1650500026" lon="5.66180555985">
		<tag k="name" v="Solberg" />
		<tag k="place" v="farm" />
		<tag k="ssr:stedsnr" v="886876" />
	</node>
	<node id="-468948" lat="60.1716083349" lon="5.69267499741">
		<tag k="name" v="Gilja" />
		<tag k="place" v="isolated_dwelling" />
		<tag k="ssr:stedsnr" v="551393" />
	</node>
	<node id="-468946" lat="60.2707808912" lon="5.66927931164">
		<tag k="fixme" v="consider place=hamlet" />
		<tag k="name" v="Matland" />
		<tag k="place" v="farm" />
		<tag k="ssr:stedsnr" v="551298" />
	</node>
	<node id="-468298" lat="60.272794448" lon="5.92186666775">
		<tag k="historic" v="shieling" />
		<tag k="name" v="Sætra" />
		<tag k="place" v="locality" />
		<tag k="ssr:stedsnr" v="126887" />
	</node>
	<node id="-468431" lat="60.1537721622" lon="5.74680617612">
		<tag k="fixme" v="consider place=hamlet" />
		<tag k="name" v="Russås" />
		<tag k="place" v="farm" />
		<tag k="ssr:stedsnr" v="186446" />
	</node>
	<node id="-468941" lat="60.1449435928" lon="5.7562496008">
		<tag k="fixme" v="consider place=hamlet" />
		<tag k="name" v="Kleppe" />
		<tag k="place" v="farm" />
		<tag k="ssr:stedsnr" v="550465" />
	</node>
	<node id="-469410" lat="60.2220777736" lon="5.85258333804">
		<tag k="fixme" v="consider place=hamlet" />
		<tag k="name" v="Bjørndal" />
		<tag k="place" v="farm" />
		<tag k="ssr:stedsnr" v="733701" />
	</node>
	<node id="-468937" lat="60.1646711789" lon="5.66971592868">
		<tag k="fixme" v="consider place=hamlet" />
		<tag k="name" v="Hauge" />
		<tag k="place" v="farm" />
		<tag k="ssr:stedsnr" v="550372" />
	</node>
	<node id="-468422" lat="60.1948111091" lon="5.63775832743">
		<tag k="name" v="Ørnabrotet" />
		<tag k="place" v="locality" />
		<tag k="ssr:stedsnr" v="186104" />
	</node>
	<node id="-468933" lat="60.077199997" lon="5.78253332824">
		<tag k="name" v="Lyberg" />
		<tag k="place" v="farm" />
		<tag k="ssr:stedsnr" v="550287" />
	</node>
	<node id="-468420" lat="60.2478583306" lon="5.79775554805">
		<tag k="fixme" v="consider place=hamlet" />
		<tag k="name" v="Skjelbreid" />
		<tag k="place" v="farm" />
		<tag k="ssr:stedsnr" v="186055" />
	</node>
	<node id="-469238" lat="60.1575889244" lon="5.74069648129">
		<tag k="fixme" v="consider place=hamlet" />
		<tag k="name" v="Selsvoll" />
		<tag k="place" v="farm" />
		<tag k="ssr:stedsnr" v="672379" />
	</node>
	<node id="-467787" lat="60.2660444447" lon="5.93235555898">
		<tag k="alt_name" v="Fredheim" />
		<tag k="name" v="Krokane" />
		<tag k="place" v="farm" />
		<tag k="ssr:stedsnr" v="369855" />
	</node>
	<node id="-468928" lat="60.1959055524" lon="5.63656388255">
		<tag k="name" v="Ågotstølen" />
		<tag k="place" v="locality" />
		<tag k="ssr:stedsnr" v="550106" />
	</node>
	<node id="-468925" lat="60.1896476467" lon="5.75778900114">
		<tag k="alt_name" v="Haugen søndre;Haugen, s;Haugen;Søndre Haugen" />
		<tag k="fixme" v="consider place=hamlet" />
		<tag k="name" v="Søre Haugen" />
		<tag k="place" v="farm" />
		<tag k="ssr:stedsnr" v="550078" />
	</node>
	<node id="-468924" lat="60.2477953434" lon="5.73556273816">
		<tag k="fixme" v="consider place=hamlet" />
		<tag k="name" v="Lundarvika" />
		<tag k="place" v="farm" />
		<tag k="ssr:stedsnr" v="550056" />
	</node>
	<node id="-468923" lat="60.2417527758" lon="5.74433055172">
		<tag k="name" v="Eikelandsosen" />
		<tag k="place" v="village" />
		<tag k="ssr:stedsnr" v="550042" />
	</node>
	<node id="-469434" lat="60.163636112" lon="5.58888332945">
		<tag k="name" v="Skåte" />
		<tag k="place" v="farm" />
		<tag k="ssr:stedsnr" v="754515" />
	</node>
	<node id="-469261" lat="60.2680976972" lon="5.6302064953">
		<tag k="fixme" v="consider place=hamlet" />
		<tag k="name" v="Gongstøa" />
		<tag k="place" v="farm" />
		<tag k="ssr:stedsnr" v="673310" />
	</node>
	<node id="-468919" lat="60.2612055548" lon="5.62509166208">
		<tag k="alt_name" v="Samnøya" />
		<tag k="name" v="Samnøy" />
		<tag k="place" v="locality" />
		<tag k="ssr:stedsnr" v="542292" />
	</node>
	<node id="-469428" lat="60.2668083299" lon="5.66624445335">
		<tag k="name" v="Leite" />
		<tag k="place" v="farm" />
		<tag k="ssr:stedsnr" v="752355" />
	</node>
	<node id="-469662" lat="60.2656602647" lon="5.63838888529">
		<tag k="alt_name" v="Samnøy indre" />
		<tag k="fixme" v="consider place=hamlet" />
		<tag k="name" v="Indre Samnøy" />
		<tag k="place" v="farm" />
		<tag k="ssr:stedsnr" v="826783" />
	</node>
	<node id="-469425" lat="60.0671638862" lon="5.71697499859">
		<tag k="name" v="Bjørkheim" />
		<tag k="place" v="farm" />
		<tag k="ssr:stedsnr" v="752158" />
	</node>
	<node id="-469424" lat="60.0569277762" lon="5.78460278453">
		<tag k="name" v="Bø" />
		<tag k="place" v="farm" />
		<tag k="ssr:stedsnr" v="752147" />
	</node>
	<node id="-468907" lat="60.2530388873" lon="5.62265000884">
		<tag k="name" v="Medås" />
		<tag k="place" v="farm" />
		<tag k="ssr:stedsnr" v="522947" />
	</node>
	<node id="-469415" lat="60.2765416667" lon="5.92693889467">
		<tag k="historic" v="shieling" />
		<tag k="name" v="Storefjellstølen" />
		<tag k="place" v="locality" />
		<tag k="ssr:stedsnr" v="733896" />
	</node>
	<node id="-468209" lat="60.2385361144" lon="5.88878333944">
		<tag k="name" v="Solbakken" />
		<tag k="place" v="farm" />
		<tag k="ssr:stedsnr" v="98273" />
	</node>
	<node id="-469412" lat="60.2271805581" lon="5.87363332998">
		<tag k="name" v="Eidesstøa" />
		<tag k="place" v="farm" />
		<tag k="ssr:stedsnr" v="733721" />
	</node>
	<node id="-469411" lat="60.225350004" lon="5.89829999071">
		<tag k="name" v="Fureneset" />
		<tag k="place" v="isolated_dwelling" />
		<tag k="ssr:stedsnr" v="733711" />
	</node>
	<node id="-468386" lat="60.1995444421" lon="5.80642222521">
		<tag k="name" v="Austrheim" />
		<tag k="place" v="farm" />
		<tag k="ssr:stedsnr" v="158690" />
	</node>
	<node id="-469407" lat="60.2035944462" lon="5.85222500679">
		<tag k="fixme" v="consider place=hamlet" />
		<tag k="name" v="Kilen" />
		<tag k="place" v="farm" />
		<tag k="ssr:stedsnr" v="733488" />
	</node>
	<node id="-469403" lat="60.123272648" lon="5.75469150365">
		<tag k="fixme" v="consider place=hamlet" />
		<tag k="name" v="Skår" />
		<tag k="place" v="farm" />
		<tag k="ssr:stedsnr" v="733451" />
	</node>
	<node id="-467866" lat="60.2689750014" lon="5.62941666342">
		<tag k="alt_name" v="Gangstø øvre" />
		<tag k="name" v="Øvre Gangstø" />
		<tag k="place" v="farm" />
		<tag k="ssr:stedsnr" v="401764" />
	</node>
	<node id="-468374" lat="60.1767972225" lon="5.77297500785">
		<tag k="name" v="Norheim" />
		<tag k="place" v="farm" />
		<tag k="ssr:stedsnr" v="158603" />
	</node>
	<node id="-469396" lat="60.1571208369" lon="5.66205585265">
		<tag k="fixme" v="consider place=hamlet" />
		<tag k="name" v="Tuft" />
		<tag k="place" v="farm" />
		<tag k="ssr:stedsnr" v="733375" />
	</node>
	<node id="-467614" lat="60.2356861133" lon="5.88543056106">
		<tag k="name" v="Skogly" />
		<tag k="place" v="farm" />
		<tag k="ssr:stedsnr" v="308713" />
	</node>
	<node id="-469392" lat="60.0555740257" lon="5.71774149839">
		<tag k="fixme" v="consider place=hamlet" />
		<tag k="name" v="Berge" />
		<tag k="place" v="farm" />
		<tag k="ssr:stedsnr" v="733330" />
	</node>
	<node id="-469388" lat="60.0716447966" lon="5.71635417759">
		<tag k="alt_name" v="Nesbjørneset" />
		<tag k="fixme" v="consider place=hamlet" />
		<tag k="name" v="Nesbjørgneset" />
		<tag k="place" v="farm" />
		<tag k="ssr:stedsnr" v="733293" />
	</node>
	<node id="-467778" lat="60.2404051146" lon="5.88817905865">
		<tag k="fixme" v="consider place=hamlet" />
		<tag k="name" v="Solås" />
		<tag k="place" v="farm" />
		<tag k="ssr:stedsnr" v="369638" />
	</node>
	<node id="-468204" lat="60.2505611093" lon="5.74684721515">
		<tag k="name" v="Lund" />
		<tag k="place" v="farm" />
		<tag k="ssr:stedsnr" v="97751" />
	</node>
	<node id="-468868" lat="60.1289388892" lon="5.81901110856">
		<tag k="name" v="Yddal" />
		<tag k="place" v="farm" />
		<tag k="ssr:stedsnr" v="522553" />
	</node>
	<node id="-469377" lat="60.1841274691" lon="5.60849213459">
		<tag k="fixme" v="consider place=hamlet" />
		<tag k="name" v="Skjørsand" />
		<tag k="place" v="farm" />
		<tag k="ssr:stedsnr" v="733085" />
	</node>
	<node id="-469780" lat="60.121855014" lon="5.77094037699">
		<tag k="fixme" v="consider place=hamlet" />
		<tag k="name" v="Femanger" />
		<tag k="place" v="farm" />
		<tag k="ssr:stedsnr" v="915473" />
	</node>
	<node id="-469372" lat="60.0904914535" lon="5.74438536551">
		<tag k="fixme" v="consider place=hamlet" />
		<tag k="name" v="Hjartåker" />
		<tag k="place" v="farm" />
		<tag k="ssr:stedsnr" v="732490" />
	</node>
	<node id="-467828" lat="60.2407638861" lon="5.85165833741">
		<tag k="name" v="Paradishaugen" />
		<tag k="place" v="farm" />
		<tag k="ssr:stedsnr" v="401316" />
	</node>
	<node id="-469363" lat="60.166544448" lon="5.66108333132">
		<tag k="name" v="Gjerde" />
		<tag k="place" v="farm" />
		<tag k="ssr:stedsnr" v="732396" />
	</node>
	<node id="-469358" lat="60.2347668032" lon="5.74939600153">
		<tag k="name" v="Eikeland" />
		<tag k="place" v="hamlet" />
		<tag k="ssr:stedsnr" v="732038" />
	</node>
	<node id="-469053" lat="60.0956083375" lon="5.79881666087">
		<tag k="name" v="Bøen" />
		<tag k="place" v="farm" />
		<tag k="ssr:stedsnr" v="583921" />
	</node>
	<node id="-469354" lat="60.07390191" lon="5.75541807238">
		<tag k="fixme" v="consider place=hamlet" />
		<tag k="name" v="Sundvor" />
		<tag k="place" v="farm" />
		<tag k="ssr:stedsnr" v="727862" />
	</node>
	<node id="-469223" lat="60.2012927815" lon="5.62872108885">
		<tag k="fixme" v="consider place=hamlet" />
		<tag k="name" v="Håland" />
		<tag k="place" v="farm" />
		<tag k="ssr:stedsnr" v="672092" />
	</node>
	<node id="-469864" lat="60.256163889" lon="5.60110000437">
		<tag k="name" v="Stølen" />
		<tag k="place" v="farm" />
		<tag k="ssr:stedsnr" v="947940" />
	</node>
	<node id="-467772" lat="60.2037611118" lon="5.91283055688">
		<tag k="historic" v="shieling" />
		<tag k="name" v="Uglhussetret" />
		<tag k="place" v="locality" />
		<tag k="ssr:stedsnr" v="369461" />
	</node>
	<node id="-468795" lat="60.2271863162" lon="5.68218039703">
		<tag k="alt_name" v="Bakke" />
		<tag k="fixme" v="consider place=hamlet" />
		<tag k="name" v="Bakka" />
		<tag k="place" v="farm" />
		<tag k="ssr:stedsnr" v="490031" />
	</node>
	<node id="-467992" lat="60.1788500042" lon="5.68821110537">
		<tag k="name" v="Vågen" />
		<tag k="place" v="farm" />
		<tag k="ssr:stedsnr" v="5062" />
	</node>
	<node id="-468316" lat="60.1619555551" lon="5.58815000842">
		<tag k="name" v="Skåte" />
		<tag k="place" v="farm" />
		<tag k="ssr:stedsnr" v="147473" />
	</node>
	<node id="-468315" lat="60.054554168" lon="5.80136322128">
		<tag k="fixme" v="consider place=hamlet" />
		<tag k="name" v="Sundfjord" />
		<tag k="place" v="farm" />
		<tag k="ssr:stedsnr" v="147285" />
	</node>
	<node id="-468313" lat="60.3003861113" lon="5.67062499372">
		<tag k="name" v="Øygard" />
		<tag k="place" v="farm" />
		<tag k="ssr:stedsnr" v="145373" />
	</node>
	<node id="-468823" lat="60.193897223" lon="5.60574166366">
		<tag k="name" v="For" />
		<tag k="place" v="farm" />
		<tag k="ssr:stedsnr" v="511468" />
	</node>
	<node id="-469846" lat="60.2840583305" lon="5.80871389154">
		<tag k="name" v="Søre Kvangre" />
		<tag k="place" v="farm" />
		<tag k="ssr:stedsnr" v="947721" />
	</node>
	<node id="-469333" lat="60.0630194473" lon="5.81938888162">
		<tag k="fixme" v="consider place=hamlet" />
		<tag k="name" v="Fossåskaret" />
		<tag k="place" v="farm" />
		<tag k="ssr:stedsnr" v="704879" />
	</node>
	<node id="-468820" lat="60.0879361131" lon="5.7502944471">
		<tag k="name" v="Storebotn" />
		<tag k="place" v="farm" />
		<tag k="ssr:stedsnr" v="510156" />
	</node>
	<node id="-467792" lat="60.1903055599" lon="5.69458611716">
		<tag k="name" v="Leitet" />
		<tag k="place" v="farm" />
		<tag k="ssr:stedsnr" v="388249" />
	</node>
	<node id="-468303" lat="60.2554749995" lon="5.8349611124">
		<tag k="name" v="Solvang" />
		<tag k="place" v="farm" />
		<tag k="ssr:stedsnr" v="127357" />
	</node>
	<node id="-468813" lat="60.2521749992" lon="5.59734444335">
		<tag k="alt_name" v="Boga, nedre" />
		<tag k="name" v="Nedre Boga" />
		<tag k="place" v="farm" />
		<tag k="ssr:stedsnr" v="491351" />
	</node>
	<node id="-467938" lat="60.2436888924" lon="5.80414166048">
		<tag k="name" v="Bruland" />
		<tag k="place" v="farm" />
		<tag k="ssr:stedsnr" v="887670" />
	</node>
	<node id="-467786" lat="60.2691305563" lon="5.872152786">
		<tag k="historic" v="shieling" />
		<tag k="name" v="Bjørkestølen" />
		<tag k="place" v="locality" />
		<tag k="ssr:stedsnr" v="369851" />
	</node>
	<node id="-467785" lat="60.2633944452" lon="5.84875833386">
		<tag k="name" v="Gjønaneset" />
		<tag k="place" v="farm" />
		<tag k="ssr:stedsnr" v="369845" />
	</node>
	<node id="-467784" lat="60.2597241995" lon="5.92797712573">
		<tag k="fixme" v="consider place=hamlet" />
		<tag k="name" v="Orra" />
		<tag k="place" v="farm" />
		<tag k="ssr:stedsnr" v="369831" />
	</node>
	<node id="-468294" lat="60.1927467352" lon="5.89200316479">
		<tag k="alt_name" v="Mehus" />
		<tag k="fixme" v="consider place=hamlet" />
		<tag k="name" v="Medhus" />
		<tag k="place" v="farm" />
		<tag k="ssr:stedsnr" v="126517" />
	</node>
	<node id="-467779" lat="60.2432721457" lon="5.90453117436">
		<tag k="fixme" v="consider place=hamlet" />
		<tag k="name" v="Berlandstveit" />
		<tag k="place" v="farm" />
		<tag k="ssr:stedsnr" v="369641" />
	</node>
	<node id="-468802" lat="60.0677444429" lon="5.71588889692">
		<tag k="alt_name" v="Synninga" />
		<tag k="name" v="Syninga" />
		<tag k="place" v="farm" />
		<tag k="ssr:stedsnr" v="490255" />
	</node>
	<node id="-467765" lat="60.1412500007" lon="5.75881388793">
		<tag k="name" v="Solvang" />
		<tag k="place" v="farm" />
		<tag k="ssr:stedsnr" v="369416" />
	</node>
	<node id="-468796" lat="60.2383055575" lon="5.81940000203">
		<tag k="name" v="Rødo" />
		<tag k="place" v="hamlet" />
		<tag k="ssr:stedsnr" v="490048" />
	</node>
	<node id="-467771" lat="60.1943293509" lon="5.89001931141">
		<tag k="fixme" v="consider place=hamlet" />
		<tag k="name" v="Bakka" />
		<tag k="place" v="farm" />
		<tag k="ssr:stedsnr" v="369449" />
	</node>
	<node id="-468278" lat="60.0658249967" lon="5.78201110468">
		<tag k="alt_name" v="Kleivland" />
		<tag k="name" v="Kleiva" />
		<tag k="place" v="farm" />
		<tag k="ssr:stedsnr" v="126252" />
	</node>
	<node id="-468277" lat="60.2402416659" lon="5.60468334056">
		<tag k="name" v="Solheim" />
		<tag k="place" v="farm" />
		<tag k="ssr:stedsnr" v="126177" />
	</node>
	<node id="-468276" lat="60.1854155574" lon="5.60972151222">
		<tag k="fixme" v="consider place=hamlet" />
		<tag k="name" v="Litlli" />
		<tag k="place" v="farm" />
		<tag k="ssr:stedsnr" v="126090" />
	</node>
	<node id="-467762" lat="60.1677712839" lon="5.62322780771">
		<tag k="fixme" v="consider place=hamlet" />
		<tag k="name" v="Rein" />
		<tag k="place" v="farm" />
		<tag k="ssr:stedsnr" v="369361" />
	</node>
	<node id="-468273" lat="60.1836861146" lon="5.68876943629">
		<tag k="name" v="Nymark" />
		<tag k="place" v="farm" />
		<tag k="ssr:stedsnr" v="126069" />
	</node>
	<node id="-468270" lat="60.2288901818" lon="5.70179219773">
		<tag k="fixme" v="consider place=hamlet" />
		<tag k="name" v="Berge" />
		<tag k="place" v="farm" />
		<tag k="ssr:stedsnr" v="126015" />
	</node>
	<node id="-467757" lat="60.2893401813" lon="5.66913397294">
		<tag k="name" v="Holmefjord" />
		<tag k="place" v="hamlet" />
		<tag k="ssr:stedsnr" v="369250" />
	</node>
	<node id="-468780" lat="60.2528548856" lon="5.60020939883">
		<tag k="name" v="Boga" />
		<tag k="place" v="hamlet" />
		<tag k="ssr:stedsnr" v="467262" />
	</node>
	<node id="-468267" lat="60.0947470977" lon="5.74216375673">
		<tag k="fixme" v="consider place=hamlet" />
		<tag k="name" v="Nordtveit" />
		<tag k="place" v="farm" />
		<tag k="ssr:stedsnr" v="125491" />
	</node>
	<node id="-467750" lat="60.3154805568" lon="5.72498610253">
		<tag k="historic" v="shieling" />
		<tag k="name" v="Ådlandssetret" />
		<tag k="place" v="locality" />
		<tag k="ssr:stedsnr" v="369225" />
	</node>
	<node id="-468261" lat="60.2378305564" lon="5.80260278235">
		<tag k="name" v="Ytrerødo" />
		<tag k="place" v="farm" />
		<tag k="ssr:stedsnr" v="125038" />
	</node>
	<node id="-469795" lat="60.1907777769" lon="5.60908334069">
		<tag k="name" v="For" />
		<tag k="place" v="farm" />
		<tag k="ssr:stedsnr" v="936486" />
	</node>
	<node id="-467746" lat="60.1915366026" lon="5.69373915276">
		<tag k="fixme" v="consider place=hamlet" />
		<tag k="name" v="Håvik" />
		<tag k="place" v="farm" />
		<tag k="ssr:stedsnr" v="369078" />
	</node>
	<node id="-469792" lat="60.2637444463" lon="5.61227221441">
		<tag k="name" v="Årsvåg" />
		<tag k="place" v="farm" />
		<tag k="ssr:stedsnr" v="934323" />
	</node>
	<node id="-469791" lat="60.0635666644" lon="5.79073333215">
		<tag k="name" v="Leitesnes" />
		<tag k="place" v="farm" />
		<tag k="ssr:stedsnr" v="934149" />
	</node>
	<node id="-469276" lat="60.1897055554" lon="5.60816110325">
		<tag k="name" v="For" />
		<tag k="place" v="farm" />
		<tag k="ssr:stedsnr" v="693501" />
	</node>
	<node id="-467739" lat="60.0816027752" lon="5.74868332883">
		<tag k="name" v="Knappane" />
		<tag k="place" v="farm" />
		<tag k="ssr:stedsnr" v="368492" />
	</node>
	<node id="-469273" lat="60.245272221" lon="5.71789445278">
		<tag k="name" v="Fredheim" />
		<tag k="place" v="farm" />
		<tag k="ssr:stedsnr" v="692289" />
	</node>
	<node id="-469783" lat="60.2732527747" lon="5.87143889666">
		<tag k="historic" v="shieling" />
		<tag k="name" v="Elvastølen" />
		<tag k="place" v="locality" />
		<tag k="ssr:stedsnr" v="915900" />
	</node>
	<node id="-469781" lat="60.2566861149" lon="5.92791666989">
		<tag k="alt_name" v="Kalhagen" />
		<tag k="name" v="Kalvhagen" />
		<tag k="place" v="farm" />
		<tag k="ssr:stedsnr" v="915840" />
	</node>
	<node id="-469268" lat="60.2662999996" lon="5.92348889505">
		<tag k="historic" v="shieling" />
		<tag k="name" v="Støna" />
		<tag k="place" v="locality" />
		<tag k="ssr:stedsnr" v="673869" />
	</node>
	<node id="-468755" lat="60.2544499993" lon="5.62274166553">
		<tag k="name" v="Åsen" />
		<tag k="place" v="farm" />
		<tag k="ssr:stedsnr" v="462937" />
	</node>
	<node id="-469265" lat="60.2601718474" lon="5.86163340497">
		<tag k="fixme" v="consider place=hamlet" />
		<tag k="name" v="Gjøn" />
		<tag k="place" v="farm" />
		<tag k="ssr:stedsnr" v="673843" />
	</node>
	<node id="-469264" lat="60.2514583371" lon="5.86386388217">
		<tag k="fixme" v="consider place=hamlet" />
		<tag k="name" v="Nerhovda" />
		<tag k="place" v="farm" />
		<tag k="ssr:stedsnr" v="673803" />
	</node>
	<node id="-467726" lat="60.2452681644" lon="5.71970485976">
		<tag k="fixme" v="consider place=hamlet" />
		<tag k="name" v="Helland" />
		<tag k="place" v="farm" />
		<tag k="ssr:stedsnr" v="368056" />
	</node>
	<node id="-468237" lat="60.263463889" lon="5.61301111419">
		<tag k="name" v="Bogevåg" />
		<tag k="place" v="farm" />
		<tag k="ssr:stedsnr" v="98801" />
	</node>
	<node id="-467586" lat="60.2897200423" lon="5.66059351071">
		<tag k="fixme" v="consider place=hamlet" />
		<tag k="name" v="Tveita" />
		<tag k="place" v="farm" />
		<tag k="ssr:stedsnr" v="308239" />
	</node>
	<node id="-469257" lat="60.2874666671" lon="5.91708610816">
		<tag k="historic" v="shieling" />
		<tag k="name" v="Tveitasetra" />
		<tag k="place" v="locality" />
		<tag k="ssr:stedsnr" v="672941" />
	</node>
	<node id="-467756" lat="60.0691169568" lon="5.71778128818">
		<tag k="alt_name" v="Nesbjør" />
		<tag k="fixme" v="consider place=hamlet" />
		<tag k="name" v="Nesbjørg" />
		<tag k="place" v="farm" />
		<tag k="ssr:stedsnr" v="369248" />
	</node>
	<node id="-469765" lat="60.1865932025" lon="5.61181540905">
		<tag k="fixme" v="consider place=hamlet" />
		<tag k="name" v="Storli" />
		<tag k="place" v="farm" />
		<tag k="ssr:stedsnr" v="915095" />
	</node>
	<node id="-469252" lat="60.2426523707" lon="5.84642963308">
		<tag k="fixme" v="consider place=hamlet" />
		<tag k="name" v="Berhovda" />
		<tag k="place" v="farm" />
		<tag k="ssr:stedsnr" v="672671" />
	</node>
	<node id="-469762" lat="60.1774444451" lon="5.59643610502">
		<tag k="name" v="Solberg" />
		<tag k="place" v="farm" />
		<tag k="ssr:stedsnr" v="915070" />
	</node>
	<node id="-469761" lat="60.2392250559" lon="5.84198729182">
		<tag k="fixme" v="consider place=hamlet" />
		<tag k="name" v="Tjørn" />
		<tag k="place" v="farm" />
		<tag k="ssr:stedsnr" v="915038" />
	</node>
	<node id="-469760" lat="60.2261684403" lon="5.68708827292">
		<tag k="fixme" v="consider place=hamlet" />
		<tag k="name" v="Kvåle" />
		<tag k="place" v="farm" />
		<tag k="ssr:stedsnr" v="915020" />
	</node>
	<node id="-469689" lat="60.2241248934" lon="5.69101093622">
		<tag k="alt_name" v="Vanvik" />
		<tag k="fixme" v="consider place=hamlet" />
		<tag k="name" v="Vandvik" />
		<tag k="place" v="farm" />
		<tag k="ssr:stedsnr" v="854017" />
	</node>
	<node id="-469245" lat="60.1031090508" lon="5.73052694051">
		<tag k="fixme" v="consider place=hamlet" />
		<tag k="name" v="Hjartnes" />
		<tag k="place" v="farm" />
		<tag k="ssr:stedsnr" v="672421" />
	</node>
	<node id="-469756" lat="60.2442319958" lon="5.83160979137">
		<tag k="fixme" v="consider place=hamlet" />
		<tag k="name" v="Håland" />
		<tag k="place" v="farm" />
		<tag k="ssr:stedsnr" v="914058" />
	</node>
	<node id="-469750" lat="60.0629444399" lon="5.82047499404">
		<tag k="name" v="Fossåskaret" />
		<tag k="place" v="farm" />
		<tag k="ssr:stedsnr" v="904190" />
	</node>
	<node id="-469237" lat="60.1562888862" lon="5.64849444085">
		<tag k="alt_name" v="Rauvoll" />
		<tag k="name" v="Raudvoll" />
		<tag k="place" v="farm" />
		<tag k="ssr:stedsnr" v="672368" />
	</node>
	<node id="-469236" lat="60.161966176" lon="5.65434977236">
		<tag k="fixme" v="consider place=hamlet" />
		<tag k="name" v="Store Vik" />
		<tag k="place" v="farm" />
		<tag k="ssr:stedsnr" v="672354" />
	</node>
	<node id="-469234" lat="60.0590382808" lon="5.75071835965">
		<tag k="alt_name" v="Nedrevågen" />
		<tag k="fixme" v="consider place=hamlet" />
		<tag k="name" v="Nedrevåg" />
		<tag k="place" v="farm" />
		<tag k="ssr:stedsnr" v="672309" />
	</node>
	<node id="-469233" lat="60.0509527746" lon="5.7499055577">
		<tag k="fixme" v="consider place=hamlet" />
		<tag k="name" v="Øvrevågen" />
		<tag k="place" v="farm" />
		<tag k="ssr:stedsnr" v="672290" />
	</node>
	<node id="-469744" lat="60.0824000025" lon="5.82385000464">
		<tag k="name" v="Fløneset" />
		<tag k="place" v="farm" />
		<tag k="ssr:stedsnr" v="875180" />
	</node>
	<node id="-468008" lat="60.1905467353" lon="5.89519816444">
		<tag k="fixme" v="consider place=hamlet" />
		<tag k="name" v="Uglhus" />
		<tag k="place" v="farm" />
		<tag k="ssr:stedsnr" v="5489" />
	</node>
	<node id="-469742" lat="60.0993833337" lon="5.73849445032">
		<tag k="fixme" v="consider place=hamlet" />
		<tag k="name" v="Nordtveitgrend" />
		<tag k="place" v="village" />
		<tag k="ssr:stedsnr" v="874179" />
	</node>
	<node id="-469741" lat="60.0865749963" lon="5.74713888619">
		<tag k="name" v="Skitnabotn" />
		<tag k="place" v="farm" />
		<tag k="ssr:stedsnr" v="874174" />
	</node>
	<node id="-469740" lat="60.0939916684" lon="5.79624721503">
		<tag k="name" v="Haugen" />
		<tag k="place" v="farm" />
		<tag k="ssr:stedsnr" v="874173" />
	</node>
	<node id="-469227" lat="60.2396611108" lon="5.5992305531">
		<tag k="name" v="Minde" />
		<tag k="place" v="farm" />
		<tag k="ssr:stedsnr" v="672184" />
	</node>
	<node id="-469735" lat="60.1994414171" lon="5.86709727">
		<tag k="alt_name" v="Tomre" />
		<tag k="fixme" v="consider place=hamlet" />
		<tag k="name" v="Tomra" />
		<tag k="place" v="farm" />
		<tag k="ssr:stedsnr" v="855507" />
	</node>
	<node id="-469220" lat="60.1912140453" lon="5.76294550692">
		<tag k="fixme" v="consider place=hamlet" />
		<tag k="name" v="Sævareid" />
		<tag k="place" v="farm" />
		<tag k="ssr:stedsnr" v="672069" />
	</node>
	<node id="-468707" lat="60.2364361151" lon="5.75147222068">
		<tag k="fixme" v="consider place=hamlet" />
		<tag k="name" v="Nedre Eikeland" />
		<tag k="place" v="farm" />
		<tag k="ssr:stedsnr" v="461512" />
	</node>
	<node id="-469218" lat="60.2284777811" lon="5.69931667465">
		<tag k="name" v="Vikane" />
		<tag k="place" v="farm" />
		<tag k="ssr:stedsnr" v="672020" />
	</node>
	<node id="-468148" lat="60.0975083369" lon="5.74169999326">
		<tag k="name" v="Bøen" />
		<tag k="place" v="farm" />
		<tag k="ssr:stedsnr" v="65456" />
	</node>
	<node id="-468688" lat="60.2583117592" lon="5.62583310351">
		<tag k="fixme" v="consider place=hamlet" />
		<tag k="name" v="Rosvoll" />
		<tag k="place" v="farm" />
		<tag k="ssr:stedsnr" v="449382" />
	</node>
	<node id="-469725" lat="60.2603952915" lon="5.82585445294">
		<tag k="fixme" v="consider place=hamlet" />
		<tag k="name" v="Heihiller" />
		<tag k="place" v="farm" />
		<tag k="ssr:stedsnr" v="855323" />
	</node>
	<node id="-469072" lat="60.199532752" lon="5.62342444823">
		<tag k="fixme" v="consider place=hamlet" />
		<tag k="name" v="Gjerde" />
		<tag k="place" v="farm" />
		<tag k="ssr:stedsnr" v="611094" />
	</node>
	<node id="-468017" lat="60.2834108871" lon="5.93740381697">
		<tag k="fixme" v="consider place=hamlet" />
		<tag k="name" v="Bratthus" />
		<tag k="place" v="farm" />
		<tag k="ssr:stedsnr" v="5917" />
	</node>
	<node id="-469721" lat="60.3021435261" lon="5.66360345268">
		<tag k="fixme" v="consider place=hamlet" />
		<tag k="name" v="Kolle" />
		<tag k="place" v="farm" />
		<tag k="ssr:stedsnr" v="855292" />
	</node>
	<node id="-468004" lat="60.1378777806" lon="5.76127500832">
		<tag k="name" v="Årvik" />
		<tag k="place" v="farm" />
		<tag k="ssr:stedsnr" v="5455" />
	</node>
	<node id="-467668" lat="60.243630558" lon="5.83562777427">
		<tag k="fixme" v="consider place=hamlet" />
		<tag k="name" v="Haugarvoll" />
		<tag k="place" v="farm" />
		<tag k="ssr:stedsnr" v="340451" />
	</node>
	<node id="-468178" lat="60.2463444473" lon="5.69096944693">
		<tag k="name" v="Hafskor" />
		<tag k="place" v="farm" />
		<tag k="ssr:stedsnr" v="87460" />
	</node>
	<node id="-469713" lat="60.1734173777" lon="5.72946009863">
		<tag k="fixme" v="consider place=hamlet" />
		<tag k="name" v="Mjånes" />
		<tag k="place" v="farm" />
		<tag k="ssr:stedsnr" v="854423" />
	</node>
	<node id="-469712" lat="60.1677138881" lon="5.65721110924">
		<tag k="name" v="Nyland" />
		<tag k="place" v="farm" />
		<tag k="ssr:stedsnr" v="854410" />
	</node>
	<node id="-468687" lat="60.2263037484" lon="5.68581081343">
		<tag k="name" v="Kvåle" />
		<tag k="place" v="farm" />
		<tag k="ssr:stedsnr" v="449246" />
	</node>
	<node id="-468682" lat="60.2916972214" lon="5.92567499229">
		<tag k="alt_name" v="Tveita, in;Tveita, indre" />
		<tag k="name" v="Indre Tveita" />
		<tag k="place" v="farm" />
		<tag k="ssr:stedsnr" v="430957" />
	</node>
	<node id="-469705" lat="60.162854449" lon="5.6635362268">
		<tag k="fixme" v="consider place=hamlet" />
		<tag k="name" v="Litle Vik" />
		<tag k="place" v="farm" />
		<tag k="ssr:stedsnr" v="854368" />
	</node>
	<node id="-469702" lat="60.0534361141" lon="5.78820833598">
		<tag k="name" v="Jonsvoll" />
		<tag k="place" v="farm" />
		<tag k="ssr:stedsnr" v="854298" />
	</node>
	<node id="-468676" lat="60.243994591" lon="5.90847236578">
		<tag k="fixme" v="consider place=hamlet" />
		<tag k="name" v="Berge" />
		<tag k="place" v="farm" />
		<tag k="ssr:stedsnr" v="430678" />
	</node>
	<node id="-468675" lat="60.2048623501" lon="5.88688998608">
		<tag k="fixme" v="consider place=hamlet" />
		<tag k="name" v="Skogseid" />
		<tag k="place" v="farm" />
		<tag k="ssr:stedsnr" v="430515" />
	</node>
	<node id="-469698" lat="60.0648416713" lon="5.76621111646">
		<tag k="name" v="Bergvik" />
		<tag k="place" v="farm" />
		<tag k="ssr:stedsnr" v="854239" />
	</node>
	<node id="-468161" lat="60.0569305564" lon="5.75727778088">
		<tag k="alt_name" v="Indrevågen" />
		<tag k="name" v="Indrevåg" />
		<tag k="place" v="farm" />
		<tag k="ssr:stedsnr" v="66344" />
	</node>
	<node id="-468256" lat="60.2628583318" lon="5.92894443996">
		<tag k="name" v="Orra" />
		<tag k="place" v="farm" />
		<tag k="ssr:stedsnr" v="104267" />
	</node>
	<node id="-468670" lat="60.2639927366" lon="5.83990258186">
		<tag k="alt_name" v="Hammersland" />
		<tag k="fixme" v="consider place=hamlet" />
		<tag k="name" v="Hammarland" />
		<tag k="place" v="farm" />
		<tag k="ssr:stedsnr" v="430326" />
	</node>
	<node id="-469693" lat="60.1890214983" lon="5.6116437072">
		<tag k="fixme" v="consider place=hamlet" />
		<tag k="name" v="For" />
		<tag k="place" v="farm" />
		<tag k="ssr:stedsnr" v="854068" />
	</node>
	<node id="-468668" lat="60.2923681976" lon="5.69894608366">
		<tag k="fixme" v="consider place=hamlet" />
		<tag k="name" v="Dale" />
		<tag k="place" v="farm" />
		<tag k="ssr:stedsnr" v="430254" />
	</node>
	<node id="-468666" lat="60.2474886033" lon="5.61236723324">
		<tag k="fixme" v="consider place=hamlet" />
		<tag k="name" v="Gaukstad" />
		<tag k="place" v="farm" />
		<tag k="ssr:stedsnr" v="430181" />
	</node>
	<node id="-468665" lat="60.2441777811" lon="5.66769166836">
		<tag k="name" v="Vika" />
		<tag k="place" v="isolated_dwelling" />
		<tag k="ssr:stedsnr" v="430179" />
	</node>
	<node id="-467639" lat="60.190525002" lon="5.60598610536">
		<tag k="name" v="For" />
		<tag k="place" v="farm" />
		<tag k="ssr:stedsnr" v="329476" />
	</node>
	<node id="-467638" lat="60.1997361152" lon="5.61996110598">
		<tag k="name" v="Oppsal" />
		<tag k="place" v="farm" />
		<tag k="ssr:stedsnr" v="329453" />
	</node>
	<node id="-467637" lat="60.1638222226" lon="5.59088055636">
		<tag k="name" v="Skåte" />
		<tag k="place" v="farm" />
		<tag k="ssr:stedsnr" v="329376" />
	</node>
	<node id="-467636" lat="60.2019277791" lon="5.62343055588">
		<tag k="name" v="Oppsal" />
		<tag k="place" v="farm" />
		<tag k="ssr:stedsnr" v="329437" />
	</node>
	<node id="-467635" lat="60.2371972185" lon="5.59898610454">
		<tag k="name" v="Holsund" />
		<tag k="place" v="farm" />
		<tag k="ssr:stedsnr" v="328907" />
	</node>
	<node id="-468657" lat="60.1619908055" lon="5.67308574062">
		<tag k="fixme" v="consider place=hamlet" />
		<tag k="name" v="Legland" />
		<tag k="place" v="farm" />
		<tag k="ssr:stedsnr" v="429367" />
	</node>
	<node id="-468487" lat="60.1615555592" lon="5.5864638849">
		<tag k="name" v="Skåtun" />
		<tag k="place" v="farm" />
		<tag k="ssr:stedsnr" v="219068" />
	</node>
	<node id="-468655" lat="60.0576944476" lon="5.78297776921">
		<tag k="name" v="Dalheim" />
		<tag k="place" v="farm" />
		<tag k="ssr:stedsnr" v="429343" />
	</node>
	<node id="-468550" lat="60.058784354" lon="5.75136562998">
		<tag k="name" v="Nedrevågen" />
		<tag k="place" v="farm" />
		<tag k="ssr:stedsnr" v="219898" />
	</node>
	<node id="-467997" lat="60.3088068607" lon="5.66382728615">
		<tag k="fixme" v="consider place=hamlet" />
		<tag k="name" v="Hope" />
		<tag k="place" v="farm" />
		<tag k="ssr:stedsnr" v="5272" />
	</node>
	<node id="-468140" lat="60.1503772725" lon="5.61767205745">
		<tag k="alt_name" v="Djupvik" />
		<tag k="fixme" v="consider place=hamlet" />
		<tag k="name" v="Juvik" />
		<tag k="place" v="farm" />
		<tag k="ssr:stedsnr" v="65365" />
	</node>
	<node id="-468139" lat="60.1562198212" lon="5.60153651994">
		<tag k="fixme" v="consider place=hamlet" />
		<tag k="name" v="Dalland" />
		<tag k="place" v="farm" />
		<tag k="ssr:stedsnr" v="65363" />
	</node>
	<node id="-468138" lat="60.0615583341" lon="5.80936666323">
		<tag k="name" v="Solstad" />
		<tag k="place" v="farm" />
		<tag k="ssr:stedsnr" v="65345" />
	</node>
	<node id="-468649" lat="60.1642194452" lon="5.65620000486">
		<tag k="name" v="Heia" />
		<tag k="place" v="farm" />
		<tag k="ssr:stedsnr" v="429414" />
	</node>
	<node id="-468648" lat="60.1610415605" lon="5.58773480956">
		<tag k="fixme" v="consider place=hamlet" />
		<tag k="name" v="Skåte" />
		<tag k="place" v="farm" />
		<tag k="ssr:stedsnr" v="429408" />
	</node>
	<node id="-468135" lat="60.0634999976" lon="5.76973889398">
		<tag k="name" v="Berglund" />
		<tag k="place" v="farm" />
		<tag k="ssr:stedsnr" v="65248" />
	</node>
	<node id="-468646" lat="60.2108451495" lon="5.83864047484">
		<tag k="fixme" v="consider place=hamlet" />
		<tag k="name" v="Drageid" />
		<tag k="place" v="farm" />
		<tag k="ssr:stedsnr" v="429119" />
	</node>
	<node id="-468132" lat="60.2024806666" lon="5.62600944812">
		<tag k="fixme" v="consider place=hamlet" />
		<tag k="name" v="Oppsal" />
		<tag k="place" v="farm" />
		<tag k="ssr:stedsnr" v="65075" />
	</node>
	<node id="-468678" lat="60.2322490815" lon="5.87135310189">
		<tag k="fixme" v="consider place=hamlet" />
		<tag k="name" v="Eide" />
		<tag k="place" v="farm" />
		<tag k="ssr:stedsnr" v="430726" />
	</node>
	<node id="-468130" lat="60.1895433235" lon="5.77617813127">
		<tag k="fixme" v="consider place=hamlet" />
		<tag k="name" v="Hatletveit" />
		<tag k="place" v="farm" />
		<tag k="ssr:stedsnr" v="65057" />
	</node>
	<node id="-468129" lat="60.2314140997" lon="5.72535478083">
		<tag k="fixme" v="consider place=hamlet" />
		<tag k="name" v="Austestad" />
		<tag k="place" v="farm" />
		<tag k="ssr:stedsnr" v="65019" />
	</node>
	<node id="-468640" lat="60.2444916652" lon="5.80200555254">
		<tag k="name" v="Myrvang" />
		<tag k="place" v="farm" />
		<tag k="ssr:stedsnr" v="429046" />
	</node>
	<node id="-468638" lat="60.2387110458" lon="5.83202949594">
		<tag k="fixme" v="consider place=hamlet" />
		<tag k="name" v="Holdhus" />
		<tag k="place" v="farm" />
		<tag k="ssr:stedsnr" v="429034" />
	</node>
	<node id="-468637" lat="60.2393299041" lon="5.79133233455">
		<tag k="alt_name" v="Ragnhildstveit" />
		<tag k="fixme" v="consider place=hamlet" />
		<tag k="name" v="Rongestveit" />
		<tag k="place" v="farm" />
		<tag k="ssr:stedsnr" v="429029" />
	</node>
	<node id="-468591" lat="60.0938862949" lon="5.79958272685">
		<tag k="fixme" v="consider place=hamlet" />
		<tag k="name" v="Lygre" />
		<tag k="place" v="farm" />
		<tag k="ssr:stedsnr" v="247437" />
	</node>
	<node id="-467607" lat="60.1870750028" lon="5.73216944888">
		<tag k="fixme" v="consider place=hamlet" />
		<tag k="name" v="Ljotå" />
		<tag k="place" v="farm" />
		<tag k="ssr:stedsnr" v="308377" />
	</node>
	<node id="-468134" lat="60.2130583344" lon="5.82325554872">
		<tag k="fixme" v="consider place=hamlet" />
		<tag k="name" v="Rennesvik" />
		<tag k="place" v="farm" />
		<tag k="ssr:stedsnr" v="65110" />
	</node>
	<node id="-468114" lat="60.2505722238" lon="5.61757221427">
		<tag k="name" v="Nymark" />
		<tag k="place" v="farm" />
		<tag k="ssr:stedsnr" v="37961" />
	</node>
	<node id="-467601" lat="60.1785194486" lon="5.59587499327">
		<tag k="name" v="Fredheim" />
		<tag k="place" v="farm" />
		<tag k="ssr:stedsnr" v="308067" />
	</node>
	<node id="-467827" lat="60.2598810156" lon="5.63109544577">
		<tag k="alt_name" v="Samnøy ytre" />
		<tag k="fixme" v="consider place=hamlet" />
		<tag k="name" v="Ytre Samnøy" />
		<tag k="place" v="farm" />
		<tag k="ssr:stedsnr" v="401314" />
	</node>
	<node id="-467599" lat="60.0932522435" lon="5.83609019361">
		<tag k="fixme" v="consider place=hamlet" />
		<tag k="name" v="Austefjord" />
		<tag k="place" v="farm" />
		<tag k="ssr:stedsnr" v="307482" />
	</node>
	<node id="-467597" lat="60.0857138849" lon="5.74845832859">
		<tag k="name" v="Fjellstad" />
		<tag k="place" v="farm" />
		<tag k="ssr:stedsnr" v="307468" />
	</node>
	<node id="-467650" lat="60.0580166829" lon="5.71666288973">
		<tag k="fixme" v="consider place=hamlet" />
		<tag k="name" v="Teiga" />
		<tag k="place" v="farm" />
		<tag k="ssr:stedsnr" v="126352" />
	</node>
	<node id="-467594" lat="60.1630194404" lon="5.60851944551">
		<tag k="name" v="Dallandsstølane" />
		<tag k="place" v="isolated_dwelling" />
		<tag k="ssr:stedsnr" v="307433" />
	</node>
	<node id="-469129" lat="60.2407861119" lon="5.83221665852">
		<tag k="name" v="Haugen" />
		<tag k="place" v="farm" />
		<tag k="ssr:stedsnr" v="643318" />
	</node>
	<node id="-468612" lat="60.1789009937" lon="5.7443864557">
		<tag k="fixme" v="consider place=hamlet" />
		<tag k="name" v="Engjavik" />
		<tag k="place" v="farm" />
		<tag k="ssr:stedsnr" v="248399" />
	</node>
	<node id="-467587" lat="60.0664215891" lon="5.78171746555">
		<tag k="fixme" v="consider place=hamlet" />
		<tag k="name" v="Abotnes" />
		<tag k="place" v="farm" />
		<tag k="ssr:stedsnr" v="308241" />
	</node>
	<node id="-469122" lat="60.2463361105" lon="5.68770278222">
		<tag k="name" v="Hafskor" />
		<tag k="place" v="farm" />
		<tag k="ssr:stedsnr" v="632471" />
	</node>
	<node id="-467584" lat="60.21410238" lon="5.63967241783">
		<tag k="alt_name" v="Gjerdevik" />
		<tag k="name" v="Gjerdavik" />
		<tag k="place" v="hamlet" />
		<tag k="ssr:stedsnr" v="307001" />
	</node>
	<node id="-469119" lat="60.2285472189" lon="5.69906110364">
		<tag k="name" v="Vikamyri" />
		<tag k="place" v="farm" />
		<tag k="ssr:stedsnr" v="631225" />
	</node>
	<node id="-467582" lat="60.0852638882" lon="5.80335278178">
		<tag k="name" v="Skjelevik" />
		<tag k="place" v="isolated_dwelling" />
		<tag k="ssr:stedsnr" v="307313" />
	</node>
	<node id="-468603" lat="60.1790555528" lon="5.60525277125">
		<tag k="name" v="Fagerheim" />
		<tag k="place" v="farm" />
		<tag k="ssr:stedsnr" v="248070" />
	</node>
	<node id="-469111" lat="60.2747583336" lon="5.9382333303">
		<tag k="alt_name" v="Bolstad, nedre;Bolstad" />
		<tag k="name" v="Nedre Bolstad" />
		<tag k="place" v="farm" />
		<tag k="ssr:stedsnr" v="612908" />
	</node>
	<node id="-468611" lat="60.1822857935" lon="5.7660040342">
		<tag k="fixme" v="consider place=hamlet" />
		<tag k="name" v="Sanddal" />
		<tag k="place" v="farm" />
		<tag k="ssr:stedsnr" v="248397" />
	</node>
	<node id="-468585" lat="60.1525277772" lon="5.63629443955">
		<tag k="name" v="Heimdal" />
		<tag k="place" v="farm" />
		<tag k="ssr:stedsnr" v="247366" />
	</node>
	<node id="-468593" lat="60.1487250002" lon="5.79107777133">
		<tag k="alt_name" v="Laugstølen" />
		<tag k="historic" v="shieling" />
		<tag k="name" v="Laugstøl" />
		<tag k="place" v="locality" />
		<tag k="ssr:stedsnr" v="247450" />
	</node>
	<node id="-469876" lat="60.2509597285" lon="5.92485287227">
		<tag k="fixme" v="consider place=hamlet" />
		<tag k="name" v="Øvre Hålandsdal" />
		<tag k="place" v="village" />
		<tag k="ssr:stedsnr" v="972577" />
	</node>
	<node id="-468328" lat="60.2344027767" lon="5.7454638871">
		<tag k="fixme" v="consider place=hamlet" />
		<tag k="name" v="Øvre Eikeland" />
		<tag k="place" v="farm" />
		<tag k="ssr:stedsnr" v="158503" />
	</node>
	<node id="-468590" lat="60.0974749984" lon="5.7959416598">
		<tag k="name" v="Skukkane" />
		<tag k="place" v="farm" />
		<tag k="ssr:stedsnr" v="247435" />
	</node>
	<node id="-467645" lat="60.0519444439" lon="5.79579721892">
		<tag k="name" v="Sundfjord" />
		<tag k="place" v="farm" />
		<tag k="ssr:stedsnr" v="126312" />
	</node>
	<node id="-469100" lat="60.2815555583" lon="5.93567778463">
		<tag k="alt_name" v="Bolstad, øvre" />
		<tag k="name" v="Øvre Bolstad" />
		<tag k="place" v="farm" />
		<tag k="ssr:stedsnr" v="611915" />
	</node>
	<node id="-468586" lat="60.1597815356" lon="5.66393464611">
		<tag k="fixme" v="consider place=hamlet" />
		<tag k="name" v="Åkre" />
		<tag k="place" v="farm" />
		<tag k="ssr:stedsnr" v="247368" />
	</node>
	<node id="-469097" lat="60.2363830026" lon="5.9091029629">
		<tag k="fixme" v="consider place=hamlet" />
		<tag k="name" v="Tegland" />
		<tag k="place" v="farm" />
		<tag k="ssr:stedsnr" v="611749" />
	</node>
	<node id="-469692" lat="60.2453972197" lon="5.76133889209">
		<tag k="alt_name" v="Brunes" />
		<tag k="name" v="Bruneset" />
		<tag k="place" v="farm" />
		<tag k="ssr:stedsnr" v="854036" />
	</node>
	<node id="-469552" lat="60.1721166633" lon="5.81262500914">
		<tag k="historic" v="shieling" />
		<tag k="name" v="Revnasetret" />
		<tag k="place" v="locality" />
		<tag k="ssr:stedsnr" v="793390" />
	</node>
	<node id="-468068" lat="60.2434750012" lon="5.83950832963">
		<tag k="name" v="Nyheim" />
		<tag k="place" v="farm" />
		<tag k="ssr:stedsnr" v="37484" />
	</node>
	<node id="-469090" lat="60.1438005138" lon="5.74612066459">
		<tag k="fixme" v="consider place=hamlet" />
		<tag k="name" v="Tveit" />
		<tag k="place" v="farm" />
		<tag k="ssr:stedsnr" v="611480" />
	</node>
	<node id="-469089" lat="60.149626764" lon="5.7415067166">
		<tag k="name" v="Haga" />
		<tag k="place" v="hamlet" />
		<tag k="ssr:stedsnr" v="611481" />
	</node>
	<node id="-469088" lat="60.1470337778" lon="5.74848940937">
		<tag k="name" v="Baldersheim" />
		<tag k="place" v="hamlet" />
		<tag k="ssr:stedsnr" v="611478" />
	</node>
	<node id="-467984" lat="60.0505499986" lon="5.79115000553">
		<tag k="name" v="Nystølen" />
		<tag k="place" v="farm" />
		<tag k="ssr:stedsnr" v="4320" />
	</node>
	<node id="-468410" lat="60.0481509373" lon="5.70953476847">
		<tag k="alt_name" v="Bergsvåg" />
		<tag k="fixme" v="consider place=hamlet" />
		<tag k="name" v="Bergsvågen" />
		<tag k="place" v="farm" />
		<tag k="ssr:stedsnr" v="175309" />
	</node>
	<node id="-469095" lat="60.2451833363" lon="5.91502500732">
		<tag k="name" v="Kleiva" />
		<tag k="place" v="farm" />
		<tag k="ssr:stedsnr" v="611696" />
	</node>
	<node id="-469081" lat="60.1550878689" lon="5.58520279667">
		<tag k="fixme" v="consider place=hamlet" />
		<tag k="name" v="Vinnes" />
		<tag k="place" v="farm" />
		<tag k="ssr:stedsnr" v="611396" />
	</node>
	<node id="-469592" lat="60.159041665" lon="5.5866055519">
		<tag k="name" v="Skåte" />
		<tag k="place" v="farm" />
		<tag k="ssr:stedsnr" v="815473" />
	</node>
	<node id="-469092" lat="60.1315640967" lon="5.82168849796">
		<tag k="fixme" v="consider place=hamlet" />
		<tag k="name" v="Yddal" />
		<tag k="place" v="farm" />
		<tag k="ssr:stedsnr" v="611490" />
	</node>
	<node id="-469590" lat="60.1599333323" lon="5.58508055101">
		<tag k="name" v="Skåte" />
		<tag k="place" v="farm" />
		<tag k="ssr:stedsnr" v="815388" />
	</node>
	<node id="-469177" lat="60.2507638854" lon="5.786319446">
		<tag k="name" v="Nordstrand" />
		<tag k="place" v="farm" />
		<tag k="ssr:stedsnr" v="643639" />
	</node>
	<node id="-469588" lat="60.2037194427" lon="5.62951944356">
		<tag k="fixme" v="consider place=suburb, village or hamlet" />
		<tag k="name" v="Fusa" />
		<tag k="place" v="quarter" />
		<tag k="ssr:stedsnr" v="813895" />
	</node>
	<node id="-469586" lat="60.1878361077" lon="5.75461944932">
		<tag k="name" v="Fjellheim" />
		<tag k="place" v="farm" />
		<tag k="ssr:stedsnr" v="813225" />
	</node>
	<node id="-469585" lat="60.2343694483" lon="5.73676943615">
		<tag k="name" v="Hagavik" />
		<tag k="place" v="farm" />
		<tag k="ssr:stedsnr" v="813223" />
	</node>
	<node id="-469584" lat="60.229555558" lon="5.70268333319">
		<tag k="name" v="Borganeset" />
		<tag k="place" v="farm" />
		<tag k="ssr:stedsnr" v="813215" />
	</node>
	<node id="-467725" lat="60.2461285266" lon="5.67770748244">
		<tag k="fixme" v="consider place=hamlet" />
		<tag k="name" v="Hafskor" />
		<tag k="place" v="farm" />
		<tag k="ssr:stedsnr" v="368052" />
	</node>
	<node id="-467531" lat="60.1967361072" lon="5.89276389402">
		<tag k="name" v="Uglehus" />
		<tag k="place" v="farm" />
		<tag k="ssr:stedsnr" v="280269" />
	</node>
	<node id="-468151" lat="60.1433453501" lon="5.76044598349">
		<tag k="name" v="Bårtveit" />
		<tag k="place" v="hamlet" />
		<tag k="ssr:stedsnr" v="65460" />
	</node>
	<node id="-469575" lat="60.2215166658" lon="5.89396389126">
		<tag k="name" v="Ospeneset" />
		<tag k="place" v="farm" />
		<tag k="ssr:stedsnr" v="794729" />
	</node>
	<node id="-469574" lat="60.2230416663" lon="5.87088056212">
		<tag k="name" v="Kalvaneset" />
		<tag k="place" v="isolated_dwelling" />
		<tag k="ssr:stedsnr" v="794726" />
	</node>
	<node id="-468548" lat="60.1595194481" lon="5.66401388322">
		<tag k="name" v="Åkre" />
		<tag k="place" v="farm" />
		<tag k="ssr:stedsnr" v="219885" />
	</node>
	<node id="-469069" lat="60.2401333303" lon="5.7834361168">
		<tag k="name" v="Lundheim" />
		<tag k="place" v="farm" />
		<tag k="ssr:stedsnr" v="611044" />
	</node>
	<node id="-468032" lat="60.2430638894" lon="5.6957361123">
		<tag k="name" v="Hafskor" />
		<tag k="place" v="farm" />
		<tag k="ssr:stedsnr" v="26470" />
	</node>
	<node id="-468576" lat="60.2405805563" lon="5.80491667216">
		<tag k="name" v="Heimstad" />
		<tag k="place" v="farm" />
		<tag k="ssr:stedsnr" v="247034" />
	</node>
	<node id="-469819" lat="60.2721277782" lon="5.83661111193">
		<tag k="name" v="Herborg" />
		<tag k="place" v="farm" />
		<tag k="ssr:stedsnr" v="947474" />
	</node>
	<node id="-469565" lat="60.190894441" lon="5.76723889735">
		<tag k="fixme" v="consider place=hamlet" />
		<tag k="name" v="Sævareid" />
		<tag k="place" v="village" />
		<tag k="ssr:stedsnr" v="794396" />
	</node>
	<node id="-469564" lat="60.1708666702" lon="5.63549999806">
		<tag k="fixme" v="consider place=hamlet" />
		<tag k="name" v="Boga" />
		<tag k="place" v="farm" />
		<tag k="ssr:stedsnr" v="794395" />
	</node>
	<node id="-468701" lat="60.1419611112" lon="5.76411110476">
		<tag k="name" v="Brattebø" />
		<tag k="place" v="farm" />
		<tag k="ssr:stedsnr" v="462589" />
	</node>
	<node id="-468025" lat="60.1812416689" lon="5.60232499905">
		<tag k="name" v="Nygard" />
		<tag k="place" v="farm" />
		<tag k="ssr:stedsnr" v="24222" />
	</node>
	<node id="-469560" lat="60.2718238776" lon="5.66793460687">
		<tag k="alt_name" v="Årland" />
		<tag k="fixme" v="consider place=hamlet" />
		<tag k="name" v="Ådland" />
		<tag k="place" v="farm" />
		<tag k="ssr:stedsnr" v="794268" />
	</node>
	<node id="-468023" lat="60.0565861143" lon="5.78267777854">
		<tag k="name" v="Sveå" />
		<tag k="place" v="farm" />
		<tag k="ssr:stedsnr" v="24138" />
	</node>
	<node id="-469043" lat="60.2686500024" lon="5.62869723084">
		<tag k="alt_name" v="Gangstø nedre" />
		<tag k="name" v="Nedre Gangstø" />
		<tag k="place" v="farm" />
		<tag k="ssr:stedsnr" v="583771" />
	</node>
	<node id="-469553" lat="60.1411058467" lon="5.7520854298">
		<tag k="fixme" v="consider place=hamlet" />
		<tag k="name" v="Sørtveit" />
		<tag k="place" v="farm" />
		<tag k="ssr:stedsnr" v="793516" />
	</node>
	<node id="-468764" lat="60.3355255576" lon="5.73481983843">
		<tag k="historic" v="shieling" />
		<tag k="name" v="Altasetret" />
		<tag k="place" v="locality" />
		<tag k="ssr:stedsnr" v="462668" />
	</node>
	<node id="-469551" lat="60.0633916632" lon="5.80743054799">
		<tag k="name" v="Solheim" />
		<tag k="place" v="farm" />
		<tag k="ssr:stedsnr" v="793378" />
	</node>
	<node id="-469547" lat="60.0651750015" lon="5.75185000329">
		<tag k="name" v="Stølen" />
		<tag k="place" v="isolated_dwelling" />
		<tag k="ssr:stedsnr" v="793273" />
	</node>
	<node id="-468521" lat="60.1880916702" lon="5.77035556121">
		<tag k="amenity" v="kindergarten" />
		<tag k="name" v="Sævareidfjorden" />
		<tag k="ssr:stedsnr" v="219623" />
	</node>
	<node id="-469544" lat="60.1964930783" lon="5.79650313101">
		<tag k="fixme" v="consider place=hamlet" />
		<tag k="name" v="Henanger" />
		<tag k="place" v="farm" />
		<tag k="ssr:stedsnr" v="793065" />
	</node>
	<node id="-469543" lat="60.245618191" lon="5.75430053214">
		<tag k="fixme" v="consider place=hamlet" />
		<tag k="name" v="Koldal" />
		<tag k="place" v="farm" />
		<tag k="ssr:stedsnr" v="793047" />
	</node>
	<node id="-469542" lat="60.2370055592" lon="5.81310834011">
		<tag k="name" v="Midrødo" />
		<tag k="place" v="farm" />
		<tag k="ssr:stedsnr" v="793030" />
	</node>
	<node id="-468145" lat="60.1660250042" lon="5.65710000332">
		<tag k="name" v="Stølen" />
		<tag k="place" v="farm" />
		<tag k="ssr:stedsnr" v="65412" />
	</node>
	<node id="-469540" lat="60.0918527797" lon="5.74851945014">
		<tag k="name" v="Heidal" />
		<tag k="place" v="farm" />
		<tag k="ssr:stedsnr" v="793506" />
	</node>
	<node id="-469539" lat="60.1754023745" lon="5.76903130571">
		<tag k="fixme" v="consider place=hamlet" />
		<tag k="name" v="Markhus" />
		<tag k="place" v="farm" />
		<tag k="ssr:stedsnr" v="793458" />
	</node>
	<node id="-468001" lat="60.2512500021" lon="5.6065805605">
		<tag k="alt_name" v="Boga, øvre" />
		<tag k="name" v="Øvre Boga" />
		<tag k="place" v="farm" />
		<tag k="ssr:stedsnr" v="5318" />
	</node>
	<node id="-467998" lat="60.064333987" lon="5.81508243369">
		<tag k="alt_name" v="Fosso" />
		<tag k="fixme" v="consider place=hamlet" />
		<tag k="name" v="Fosså" />
		<tag k="place" v="farm" />
		<tag k="ssr:stedsnr" v="5273" />
	</node>
	<node id="-469253" lat="60.242644443" lon="5.91717500892">
		<tag k="name" v="Kvernnes" />
		<tag k="place" v="farm" />
		<tag k="ssr:stedsnr" v="672676" />
	</node>
	<node id="-467996" lat="60.0650730644" lon="5.74298340832">
		<tag k="fixme" v="consider place=hamlet" />
		<tag k="name" v="Skutlabrotet" />
		<tag k="place" v="farm" />
		<tag k="ssr:stedsnr" v="5267" />
	</node>
	<node id="-468143" lat="60.156874998" lon="5.73155000851">
		<tag k="name" v="Revna" />
		<tag k="place" v="farm" />
		<tag k="ssr:stedsnr" v="65388" />
	</node>
	<node id="-469562" lat="60.2581749995" lon="5.84132499458">
		<tag k="name" v="Ropeidet" />
		<tag k="place" v="farm" />
		<tag k="ssr:stedsnr" v="794311" />
	</node>
	<node id="-469764" lat="60.1879633948" lon="5.61031336832">
		<tag k="fixme" v="consider place=hamlet" />
		<tag k="name" v="Haga" />
		<tag k="place" v="farm" />
		<tag k="ssr:stedsnr" v="915092" />
	</node>
	<node id="-467990" lat="60.1937555541" lon="5.78597500906">
		<tag k="name" v="Torsheim" />
		<tag k="place" v="farm" />
		<tag k="ssr:stedsnr" v="5055" />
	</node>
	<node id="-467988" lat="60.1605147438" lon="5.65299937844">
		<tag k="fixme" v="consider place=hamlet" />
		<tag k="name" v="Kvåle" />
		<tag k="place" v="farm" />
		<tag k="ssr:stedsnr" v="4418" />
	</node>
	<node id="-467985" lat="60.1541194482" lon="5.64163054943">
		<tag k="name" v="Norddal" />
		<tag k="place" v="farm" />
		<tag k="ssr:stedsnr" v="4365" />
	</node>
	<node id="-469520" lat="60.2886222235" lon="5.66081666911">
		<tag k="name" v="Tveit" />
		<tag k="place" v="farm" />
		<tag k="ssr:stedsnr" v="765863" />
	</node>
	<node id="-467983" lat="60.0450051562" lon="5.7085963092">
		<tag k="alt_name" v="Biskopshavn" />
		<tag k="fixme" v="consider place=hamlet" />
		<tag k="name" v="Biskopshamn" />
		<tag k="place" v="farm" />
		<tag k="ssr:stedsnr" v="4308" />
	</node>
	<node id="-467979" lat="60.2020614477" lon="5.63376478563">
		<tag k="alt_name" v="Oppstad" />
		<tag k="fixme" v="consider place=hamlet" />
		<tag k="name" v="Øpstad" />
		<tag k="place" v="farm" />
		<tag k="ssr:stedsnr" v="4097" />
	</node>
	<node id="-467978" lat="60.2433499986" lon="5.70275556179">
		<tag k="name" v="Nyheim" />
		<tag k="place" v="farm" />
		<tag k="ssr:stedsnr" v="4051" />
	</node>
	<node id="-469591" lat="60.20219722" lon="5.62622222977">
		<tag k="name" v="Oppsal" />
		<tag k="place" v="farm" />
		<tag k="ssr:stedsnr" v="815443" />
	</node>
	<node id="-469074" lat="60.2086277741" lon="5.6328944503">
		<tag k="name" v="Fagerli" />
		<tag k="place" v="farm" />
		<tag k="ssr:stedsnr" v="611106" />
	</node>
	<node id="-467617" lat="60.2879670988" lon="5.93030756827">
		<tag k="fixme" v="consider place=hamlet" />
		<tag k="name" v="Tveita" />
		<tag k="place" v="farm" />
		<tag k="ssr:stedsnr" v="308934" />
	</node>
	<node id="-468822" lat="60.2024333289" lon="5.62461388063">
		<tag k="name" v="Oppsal" />
		<tag k="place" v="farm" />
		<tag k="ssr:stedsnr" v="511439" />
	</node>
	<node id="-467970" lat="60.1415008686" lon="5.75761895691">
		<tag k="fixme" v="consider place=hamlet" />
		<tag k="name" v="Svinastein" />
		<tag k="place" v="farm" />
		<tag k="ssr:stedsnr" v="990020" />
	</node>
	<node id="-467969" lat="60.158304634" lon="5.66815815259">
		<tag k="fixme" v="consider place=hamlet" />
		<tag k="name" v="Særvoll" />
		<tag k="place" v="farm" />
		<tag k="ssr:stedsnr" v="990019" />
	</node>
</osm>
