<?xml version="1.0" encoding="UTF-8"?>
<osm generator="osmapis" version="0.6">
	<node id="-1472" lat="59.8656277796" lon="10.7824666607">
		<tag k="name" v="Seterstrand" />
		<tag k="natural" v="beach" />
		<tag k="place" v="locality" />
		<tag k="ssr:stedsnr" v="448608" />
	</node>
	<node id="-1789" lat="59.8949664544" lon="10.6884560675">
		<tag k="fixme" v="consider seamark:type=rock or natural=shoal" />
		<tag k="name" v="Dyna" />
		<tag k="place" v="islet" />
		<tag k="ssr:stedsnr" v="631311" />
	</node>
	<node id="-1916" lat="59.8696527791" lon="10.7667527735">
		<tag k="fixme" v="consider seamark:type=rock or natural=shoal" />
		<tag k="name" v="Ulvøyskjær" />
		<tag k="place" v="islet" />
		<tag k="ssr:stedsnr" v="907296" />
	</node>
	<node id="-1400" lat="59.8653805535" lon="10.7410777863">
		<tag k="fixme" v="consider seamark:type=rock or natural=shoal" />
		<tag k="name" v="Hertugskjær" />
		<tag k="place" v="islet" />
		<tag k="ssr:stedsnr" v="509334" />
	</node>
	<node id="-1013" lat="59.8907055547" lon="10.6935472161">
		<tag k="name" v="Nakkholmen" />
		<tag k="place" v="islet" />
		<tag k="ssr:stedsnr" v="247829" />
	</node>
	<node id="-1299" lat="59.9050917918" lon="10.6592560098">
		<tag k="name" v="Killingflua" />
		<tag k="natural" v="shoal" />
		<tag k="place" v="locality" />
		<tag k="ssr:stedsnr" v="328309" />
	</node>
	<node id="-1518" lat="59.9137499971" lon="10.693219441">
		<tag k="name" v="Frognerkilen" />
		<tag k="natural" v="bay" />
		<tag k="ssr:stedsnr" v="671916" />
	</node>
	<node id="-2027" lat="59.8598111148" lon="10.7836611131">
		<tag k="name" v="Smedvika" />
		<tag k="natural" v="bay" />
		<tag k="ssr:stedsnr" v="934530" />
	</node>
	<node id="-1894" lat="59.8813416653" lon="10.7113194492">
		<tag k="name" v="Jakteskjær" />
		<tag k="natural" v="cape" />
		<tag k="ssr:stedsnr" v="726818" />
	</node>
	<node id="-1635" lat="59.8738111118" lon="10.7535861125">
		<tag k="name" v="Raudskjær" />
		<tag k="natural" v="cape" />
		<tag k="ssr:stedsnr" v="691384" />
	</node>
	<node id="-955" lat="59.870280553" lon="10.7518888827">
		<tag k="name" v="Brattodden" />
		<tag k="natural" v="cape" />
		<tag k="ssr:stedsnr" v="238281" />
	</node>
	<node id="-1632" lat="59.8876777737" lon="10.7430666603">
		<tag k="alt_name" v="Bleikøysund" />
		<tag k="name" v="Bleikøysundet" />
		<tag k="natural" v="strait" />
		<tag k="ssr:stedsnr" v="691277" />
	</node>
	<node id="-1631" lat="59.8871249987" lon="10.7285416729">
		<tag k="name" v="Springeren" />
		<tag k="natural" v="strait" />
		<tag k="ssr:stedsnr" v="691276" />
	</node>
	<node id="-992" lat="59.9088888899" lon="10.6581361142">
		<tag k="name" v="Killingen" />
		<tag k="place" v="islet" />
		<tag k="ssr:stedsnr" v="247894" />
	</node>
	<node id="-944" lat="59.8862861111" lon="10.7336638968">
		<tag k="name" v="Karantenehavna" />
		<tag k="natural" v="bay" />
		<tag k="ssr:stedsnr" v="240736" />
	</node>
	<node id="-1366" lat="59.8766250025" lon="10.7704777829">
		<tag k="name" v="Paddehavet" />
		<tag k="natural" v="bay" />
		<tag k="ssr:stedsnr" v="387275" />
	</node>
	<node id="-1043" lat="59.8623388888" lon="10.7513277791">
		<tag k="name" v="Solnes" />
		<tag k="natural" v="cape" />
		<tag k="ssr:stedsnr" v="84578" />
	</node>
	<node id="-1747" lat="59.9125083332" lon="10.6583583333">
		<tag k="name" v="Vesle Killingen" />
		<tag k="natural" v="cape" />
		<tag k="ssr:stedsnr" v="725421" />
	</node>
	<node id="-2129" lat="59.8666638889" lon="10.7455888824">
		<tag k="name" v="Innergrunnen" />
		<tag k="natural" v="shoal" />
		<tag k="place" v="locality" />
		<tag k="ssr:stedsnr" v="907323" />
	</node>
	<node id="-1360" lat="59.8995879012" lon="10.7345218074">
		<tag k="name" v="Tingvallagrunnen" />
		<tag k="natural" v="shoal" />
		<tag k="place" v="locality" />
		<tag k="ssr:stedsnr" v="361766" />
	</node>
	<node id="-1357" lat="59.8797611094" lon="10.7071277761">
		<tag k="name" v="Skomakerflua" />
		<tag k="place" v="locality" />
		<tag k="seamark:type" v="rock" />
		<tag k="ssr:stedsnr" v="361505" />
	</node>
	<node id="-1356" lat="59.8998190299" lon="10.7193185723">
		<tag k="name" v="Vestre Kavringdynga" />
		<tag k="natural" v="shoal" />
		<tag k="place" v="locality" />
		<tag k="ssr:stedsnr" v="361002" />
	</node>
	<node id="-1610" lat="59.9137611078" lon="10.6630333314">
		<tag k="name" v="Hengeleppa" />
		<tag k="natural" v="cape" />
		<tag k="ssr:stedsnr" v="299346" />
	</node>
	<node id="-1095" lat="59.8876166653" lon="10.7322916597">
		<tag k="fixme" v="consider seamark:type=rock or natural=shoal" />
		<tag k="name" v="Daggerskjær" />
		<tag k="place" v="islet" />
		<tag k="ssr:stedsnr" v="266488" />
	</node>
	<node id="-2059" lat="59.9086194479" lon="10.6619888948">
		<tag k="alt_name" v="Kaffeskjær" />
		<tag k="fixme" v="consider seamark:type=rock or natural=shoal" />
		<tag k="name" v="Kaffiskjæret" />
		<tag k="place" v="islet" />
		<tag k="ssr:stedsnr" v="936349" />
	</node>
	<node id="-1600" lat="59.9071333322" lon="10.722180563">
		<tag k="name" v="Tjuvholmen" />
		<tag k="natural" v="cape" />
		<tag k="ssr:stedsnr" v="509666" />
	</node>
	<node id="-1471" lat="59.8723694418" lon="10.7779555506">
		<tag k="alt_name" v="Ulvøysund" />
		<tag k="name" v="Ulvøysundet" />
		<tag k="natural" v="strait" />
		<tag k="ssr:stedsnr" v="448607" />
	</node>
	<node id="-1596" lat="59.8713416625" lon="10.7618694426">
		<tag k="alt_name" v="Kaninøya" />
		<tag k="fixme" v="consider seamark:type=rock or natural=shoal" />
		<tag k="name" v="Selskjær" />
		<tag k="place" v="islet" />
		<tag k="ssr:stedsnr" v="509510" />
	</node>
	<node id="-970" lat="59.8666666658" lon="10.7715611072">
		<tag k="name" v="Langeodden" />
		<tag k="natural" v="cape" />
		<tag k="ssr:stedsnr" v="240345" />
	</node>
	<node id="-954" lat="59.8851194441" lon="10.702597227">
		<tag k="fixme" v="consider seamark:type=rock or natural=shoal" />
		<tag k="name" v="Svenskeskjær" />
		<tag k="place" v="islet" />
		<tag k="ssr:stedsnr" v="238142" />
	</node>
	<node id="-1976" lat="59.8912002846" lon="10.7481132664">
		<tag k="name" v="Kalvodden" />
		<tag k="natural" v="cape" />
		<tag k="ssr:stedsnr" v="786768" />
	</node>
	<node id="-1459" lat="59.8633333317" lon="10.763802783">
		<tag k="fixme" v="consider seamark:type=rock or natural=shoal" />
		<tag k="name" v="Malmøyskjær" />
		<tag k="place" v="islet" />
		<tag k="ssr:stedsnr" v="430130" />
	</node>
	<node id="-1970" lat="59.8710194463" lon="10.742247227">
		<tag k="name" v="Nordre Malmøyflua" />
		<tag k="natural" v="shoal" />
		<tag k="place" v="locality" />
		<tag k="ssr:stedsnr" v="786368" />
	</node>
	<node id="-1072" lat="59.9119138912" lon="10.6507611169">
		<tag k="name" v="Altenborgleira" />
		<tag k="natural" v="shoal" />
		<tag k="place" v="locality" />
		<tag k="ssr:stedsnr" v="263469" />
	</node>
	<node id="-1070" lat="59.9015094826" lon="10.7258384802">
		<tag k="name" v="Østre Kavringdynga" />
		<tag k="natural" v="shoal" />
		<tag k="place" v="locality" />
		<tag k="ssr:stedsnr" v="118003" />
	</node>
	<node id="-1066" lat="59.8776749986" lon="10.705127786">
		<tag k="name" v="Rambergskårflua" />
		<tag k="natural" v="shoal" />
		<tag k="place" v="locality" />
		<tag k="ssr:stedsnr" v="86360" />
	</node>
	<node id="-1318" lat="59.9025000013" lon="10.7412416681">
		<tag k="name" v="Vippetangen" />
		<tag k="natural" v="cape" />
		<tag k="ssr:stedsnr" v="490070" />
	</node>
	<node id="-979" lat="59.9068485887" lon="10.7491935909">
		<tag k="name" v="Bjørvika" />
		<tag k="natural" v="bay" />
		<tag k="ssr:stedsnr" v="65105" />
	</node>
	<node id="-1310" lat="59.8894384238" lon="10.7390188139">
		<tag k="name" v="Bleikøya" />
		<tag k="place" v="island" />
		<tag k="ssr:stedsnr" v="489097" />
	</node>
	<node id="-2053" lat="59.830511108" lon="10.762038885">
		<tag k="name" v="Elveflua" />
		<tag k="natural" v="shoal" />
		<tag k="place" v="locality" />
		<tag k="ssr:stedsnr" v="935290" />
	</node>
	<node id="-1412" lat="59.8781638871" lon="10.7647694509">
		<tag k="name" v="Grønsund" />
		<tag k="natural" v="strait" />
		<tag k="ssr:stedsnr" v="509231" />
	</node>
	<node id="-1947" lat="59.8853638894" lon="10.6974638843">
		<tag k="alt_name" v="Rausekkene" />
		<tag k="fixme" v="consider seamark:type=rock or natural=shoal" />
		<tag k="name" v="Raudsekkene" />
		<tag k="place" v="islet" />
		<tag k="ssr:stedsnr" v="914843" />
	</node>
	<node id="-1306" lat="59.7446333336" lon="10.7221194445">
		<tag k="bay" v="fjord" />
		<tag k="name" v="Bunnefjorden" />
		<tag k="natural" v="bay" />
		<tag k="ssr:stedsnr" v="488471" />
	</node>
	<node id="-920" lat="59.8625555544" lon="10.7561388813">
		<tag k="name" v="Mostranda" />
		<tag k="natural" v="beach" />
		<tag k="place" v="locality" />
		<tag k="ssr:stedsnr" v="23431" />
	</node>
	<node id="-1676" lat="59.8837444434" lon="10.7130527837">
		<tag k="name" v="Heggholmen" />
		<tag k="place" v="islet" />
		<tag k="ssr:stedsnr" v="692270" />
	</node>
	<node id="-1174" lat="59.8702499977" lon="10.7731083247">
		<tag k="name" v="Ulvøya" />
		<tag k="place" v="island" />
		<tag k="ssr:stedsnr" v="186123" />
	</node>
	<node id="-1173" lat="59.8679713367" lon="10.7579401304">
		<tag k="name" v="Malmøya" />
		<tag k="place" v="island" />
		<tag k="ssr:stedsnr" v="186121" />
	</node>
	<node id="-1300" lat="59.8853500037" lon="10.7061472305">
		<tag k="name" v="Stangskjærrabben" />
		<tag k="natural" v="shoal" />
		<tag k="place" v="locality" />
		<tag k="ssr:stedsnr" v="328311" />
	</node>
	<node id="-2067" lat="59.8777860855" lon="10.7598902419">
		<tag k="name" v="Ormøya" />
		<tag k="place" v="island" />
		<tag k="ssr:stedsnr" v="854166" />
	</node>
	<node id="-1552" lat="59.8647472241" lon="10.7486138952">
		<tag k="name" v="Kalvsundet" />
		<tag k="natural" v="strait" />
		<tag k="ssr:stedsnr" v="482353" />
	</node>
	<node id="-2063" lat="59.8905222207" lon="10.7337583422">
		<tag k="name" v="Skipsløpet" />
		<tag k="natural" v="strait" />
		<tag k="ssr:stedsnr" v="847737" />
	</node>
	<node id="-2189" lat="59.8740000017" lon="10.7600333416">
		<tag k="name" v="Ormøygrunnen" />
		<tag k="natural" v="shoal" />
		<tag k="place" v="locality" />
		<tag k="ssr:stedsnr" v="966269" />
	</node>
	<node id="-1804" lat="59.9161972231" lon="10.668466669">
		<tag k="name" v="Bestumkilen" />
		<tag k="natural" v="bay" />
		<tag k="old_name" v="Bestun-kilen" />
		<tag k="ssr:stedsnr" v="732909" />
	</node>
	<node id="-1803" lat="59.9036911996" lon="10.7013061163">
		<tag k="name" v="Bygdøynes" />
		<tag k="natural" v="cape" />
		<tag k="ssr:stedsnr" v="732865" />
	</node>
	<node id="-2186" lat="59.9027722215" lon="10.7214888886">
		<tag k="name" v="Kavringsanden" />
		<tag k="natural" v="shoal" />
		<tag k="place" v="locality" />
		<tag k="ssr:stedsnr" v="936006" />
	</node>
	<node id="-1326" lat="59.8802549004" lon="10.7200691906">
		<tag k="name" v="Rambergøya" />
		<tag k="place" v="island" />
		<tag k="ssr:stedsnr" v="489838" />
	</node>
	<node id="-1164" lat="59.8669972216" lon="10.7496444509">
		<tag k="fixme" v="consider seamark:type=rock or natural=shoal" />
		<tag k="name" v="Kalvøyskjær" />
		<tag k="place" v="islet" />
		<tag k="ssr:stedsnr" v="179352" />
	</node>
	<node id="-2054" lat="59.8463416662" lon="10.7575027829">
		<tag k="name" v="Ljansflua" />
		<tag k="natural" v="shoal" />
		<tag k="place" v="locality" />
		<tag k="ssr:stedsnr" v="935301" />
	</node>
	<node id="-1925" lat="59.8989888905" lon="10.6940277759">
		<tag k="name" v="Lille Herbern" />
		<tag k="place" v="islet" />
		<tag k="ssr:stedsnr" v="908699" />
	</node>
	<node id="-1924" lat="59.8744166686" lon="10.7572722223">
		<tag k="alt_name" v="Malmøysund" />
		<tag k="name" v="Malmøysundet" />
		<tag k="natural" v="strait" />
		<tag k="ssr:stedsnr" v="752328" />
	</node>
	<node id="-1238" lat="59.8944249997" lon="10.7051111029">
		<tag k="fixme" v="multiple name tags, choose one and add the other to alt_name; consider seamark:type=rock or natural=shoal" />
		<tag k="name" v="Galten;Galteskjær" />
		<tag k="place" v="islet" />
		<tag k="ssr:stedsnr" v="247862" />
	</node>
	<node id="-2052" lat="59.8573999984" lon="10.7613722143">
		<tag k="name" v="Malmøyholdet" />
		<tag k="natural" v="shoal" />
		<tag k="place" v="locality" />
		<tag k="ssr:stedsnr" v="935272" />
	</node>
</osm>
