<?xml version="1.0" encoding="UTF-8"?>
<osm generator="osmapis" version="0.6">
	<node id="-1023" lat="60.1352777788" lon="10.6187333365">
		<tag k="alt_name" v="Kyrkjeberget" />
		<tag k="fixme" v="consider natural=peak for the most distinct mountains in the district" />
		<tag k="name" v="Kjerkeberget" />
		<tag k="natural" v="hill" />
		<tag k="old_name" v="Kirkebjerget" />
		<tag k="place" v="locality" />
		<tag k="ssr:stedsnr" v="248393" />
	</node>
	<node id="-1022" lat="60.0614500002" lon="10.6318333375">
		<tag k="name" v="Middagskollen" />
		<tag k="natural" v="hill" />
		<tag k="place" v="locality" />
		<tag k="ssr:stedsnr" v="248387" />
	</node>
	<node id="-1526" lat="59.8595055587" lon="10.9006888979">
		<tag k="fixme" v="consider natural=peak for the most distinct mountains in the district" />
		<tag k="name" v="Sotåsen" />
		<tag k="natural" v="hill" />
		<tag k="place" v="locality" />
		<tag k="ssr:stedsnr" v="672135" />
	</node>
	<node id="-2037" lat="59.9324888885" lon="10.7743888961">
		<tag k="name" v="Torshovdalen" />
		<tag k="natural" v="valley" />
		<tag k="place" v="locality" />
		<tag k="ssr:stedsnr" v="934702" />
	</node>
	<node id="-1524" lat="59.8931260112" lon="10.7949243868">
		<tag k="name" v="Ryen varde" />
		<tag k="natural" v="hill" />
		<tag k="place" v="locality" />
		<tag k="ssr:stedsnr" v="672090" />
	</node>
	<node id="-1534" lat="59.8529805544" lon="10.8446833405">
		<tag k="fixme" v="consider natural=peak for the most distinct mountains in the district" />
		<tag k="name" v="Dalsåsen" />
		<tag k="natural" v="hill" />
		<tag k="place" v="locality" />
		<tag k="ssr:stedsnr" v="672212" />
	</node>
	<node id="-2032" lat="59.9657361121" lon="10.823397225">
		<tag k="name" v="Storhaug" />
		<tag k="natural" v="hill" />
		<tag k="place" v="locality" />
		<tag k="ssr:stedsnr" v="934681" />
	</node>
	<node id="-1002" lat="59.8373750024" lon="10.7739583302">
		<tag k="name" v="Ljanskollen" />
		<tag k="natural" v="hill" />
		<tag k="place" v="locality" />
		<tag k="ssr:stedsnr" v="247189" />
	</node>
	<node id="-2025" lat="59.8867083339" lon="10.8824527722">
		<tag k="name" v="Sleppa" />
		<tag k="place" v="locality" />
		<tag k="ssr:stedsnr" v="934271" />
	</node>
	<node id="-998" lat="59.9846111134" lon="10.6999250058">
		<tag k="name" v="Rishøgda" />
		<tag k="natural" v="hill" />
		<tag k="place" v="locality" />
		<tag k="ssr:stedsnr" v="247097" />
	</node>
	<node id="-996" lat="59.9376842159" lon="10.9186729398">
		<tag k="alt_name" v="Ellingsrudkollen" />
		<tag k="fixme" v="consider natural=peak for the most distinct mountains in the district" />
		<tag k="name" v="Ellingsrudåsen" />
		<tag k="natural" v="hill" />
		<tag k="place" v="locality" />
		<tag k="ssr:stedsnr" v="247047" />
	</node>
	<node id="-2019" lat="59.8283611096" lon="10.8345944483">
		<tag k="fixme" v="consider natural=peak for the most distinct mountains in the district" />
		<tag k="name" v="Slimeåsen" />
		<tag k="natural" v="hill" />
		<tag k="place" v="locality" />
		<tag k="ssr:stedsnr" v="934150" />
	</node>
	<node id="-2018" lat="59.9843861079" lon="10.864375">
		<tag k="name" v="Angstkleiva" />
		<tag k="natural" v="valley" />
		<tag k="place" v="locality" />
		<tag k="ssr:stedsnr" v="934146" />
	</node>
	<node id="-2016" lat="59.8305416675" lon="10.9194305631">
		<tag k="fixme" v="consider natural=peak for the most distinct mountains in the district" />
		<tag k="name" v="Rekselåsen" />
		<tag k="natural" v="hill" />
		<tag k="place" v="locality" />
		<tag k="ssr:stedsnr" v="934135" />
	</node>
	<node id="-1501" lat="59.926547225" lon="10.6963805573">
		<tag k="name" v="Skøyenhaugen" />
		<tag k="natural" v="hill" />
		<tag k="place" v="locality" />
		<tag k="ssr:stedsnr" v="665780" />
	</node>
	<node id="-2009" lat="60.0413027818" lon="10.5706944515">
		<tag k="alt_name" v="Kleggmyråsen" />
		<tag k="fixme" v="consider natural=peak for the most distinct mountains in the district" />
		<tag k="name" v="Kleggemyråsen" />
		<tag k="natural" v="hill" />
		<tag k="place" v="locality" />
		<tag k="ssr:stedsnr" v="794969" />
	</node>
	<node id="-2007" lat="60.0366027766" lon="10.538086107">
		<tag k="fixme" v="consider natural=peak for the most distinct mountains in the district" />
		<tag k="name" v="Stuteskallen" />
		<tag k="natural" v="hill" />
		<tag k="place" v="locality" />
		<tag k="ssr:stedsnr" v="794954" />
	</node>
	<node id="-2006" lat="60.1268611142" lon="10.5926638864">
		<tag k="name" v="Styggdalen" />
		<tag k="natural" v="valley" />
		<tag k="place" v="locality" />
		<tag k="ssr:stedsnr" v="794389" />
	</node>
	<node id="-1492" lat="60.0231666659" lon="10.6024222189">
		<tag k="name" v="Bukkeberget" />
		<tag k="natural" v="hill" />
		<tag k="place" v="locality" />
		<tag k="ssr:stedsnr" v="664017" />
	</node>
	<node id="-2001" lat="60.0486138919" lon="10.7816416659">
		<tag k="fixme" v="consider natural=peak for the most distinct mountains in the district" />
		<tag k="name" v="Gaupekollen" />
		<tag k="natural" v="hill" />
		<tag k="place" v="locality" />
		<tag k="ssr:stedsnr" v="794449" />
	</node>
	<node id="-976" lat="60.0004861137" lon="10.6608222289">
		<tag k="name" v="Presterudhaugen" />
		<tag k="natural" v="hill" />
		<tag k="place" v="locality" />
		<tag k="ssr:stedsnr" v="240849" />
	</node>
	<node id="-1999" lat="60.0436000003" lon="10.7005499931">
		<tag k="fixme" v="consider natural=peak for the most distinct mountains in the district" />
		<tag k="name" v="Storhaugen" />
		<tag k="natural" v="hill" />
		<tag k="place" v="locality" />
		<tag k="ssr:stedsnr" v="794406" />
	</node>
	<node id="-1998" lat="60.0993815749" lon="10.6251102489">
		<tag k="fixme" v="consider natural=peak for the most distinct mountains in the district" />
		<tag k="name" v="Sandungskollen" />
		<tag k="natural" v="hill" />
		<tag k="place" v="locality" />
		<tag k="ssr:stedsnr" v="794139" />
	</node>
	<node id="-2125" lat="60.0205065085" lon="10.5541105">
		<tag k="name" v="Kulpåsen" />
		<tag k="natural" v="hill" />
		<tag k="place" v="locality" />
		<tag k="ssr:stedsnr" v="907020" />
	</node>
	<node id="-1996" lat="60.0866444427" lon="10.633152775">
		<tag k="name" v="Porten" />
		<tag k="natural" v="valley" />
		<tag k="place" v="locality" />
		<tag k="ssr:stedsnr" v="794126" />
	</node>
	<node id="-1993" lat="59.993958337" lon="10.8349555483">
		<tag k="name" v="Grytedalen" />
		<tag k="natural" v="valley" />
		<tag k="place" v="locality" />
		<tag k="ssr:stedsnr" v="793645" />
	</node>
	<node id="-966" lat="59.9297138909" lon="10.6422166743">
		<tag k="name" v="Kjosehøyden" />
		<tag k="natural" v="hill" />
		<tag k="place" v="locality" />
		<tag k="ssr:stedsnr" v="59760" />
	</node>
	<node id="-1984" lat="59.8764722204" lon="10.8942250013">
		<tag k="fixme" v="consider natural=peak for the most distinct mountains in the district" />
		<tag k="name" v="Slettfjellet" />
		<tag k="natural" v="hill" />
		<tag k="place" v="locality" />
		<tag k="ssr:stedsnr" v="793187" />
	</node>
	<node id="-957" lat="59.978388886" lon="10.6696250055">
		<tag k="name" v="Lunnedalen" />
		<tag k="natural" v="valley" />
		<tag k="place" v="locality" />
		<tag k="ssr:stedsnr" v="58882" />
	</node>
	<node id="-1467" lat="59.8636472249" lon="10.8877055607">
		<tag k="name" v="Gudbrandsdalen" />
		<tag k="natural" v="valley" />
		<tag k="place" v="locality" />
		<tag k="ssr:stedsnr" v="448318" />
	</node>
	<node id="-1978" lat="60.0441472227" lon="10.6860888882">
		<tag k="name" v="Deledalen" />
		<tag k="natural" v="valley" />
		<tag k="place" v="locality" />
		<tag k="ssr:stedsnr" v="787425" />
	</node>
	<node id="-952" lat="60.0302166659" lon="10.545005559">
		<tag k="name" v="Revekleiva" />
		<tag k="natural" v="slope" />
		<tag k="place" v="locality" />
		<tag k="ssr:stedsnr" v="237496" />
	</node>
	<node id="-1975" lat="59.9934861115" lon="10.6652777703">
		<tag k="name" v="Skomakerhaugen" />
		<tag k="natural" v="hill" />
		<tag k="place" v="locality" />
		<tag k="ssr:stedsnr" v="786841" />
	</node>
	<node id="-1458" lat="60.0840694447" lon="10.6451055539">
		<tag k="fixme" v="consider natural=peak for the most distinct mountains in the district" />
		<tag k="name" v="Kikut" />
		<tag k="natural" v="hill" />
		<tag k="place" v="locality" />
		<tag k="ssr:stedsnr" v="430118" />
	</node>
	<node id="-942" lat="60.0887305559" lon="10.6050083246">
		<tag k="fixme" v="consider natural=peak for the most distinct mountains in the district" />
		<tag k="name" v="Kveldroshøgda" />
		<tag k="natural" v="hill" />
		<tag k="place" v="locality" />
		<tag k="ssr:stedsnr" v="309150" />
	</node>
	<node id="-1964" lat="60.0645194442" lon="10.6913694431">
		<tag k="fixme" v="consider natural=peak for the most distinct mountains in the district" />
		<tag k="name" v="Rådalshøgda" />
		<tag k="natural" v="hill" />
		<tag k="place" v="locality" />
		<tag k="ssr:stedsnr" v="916241" />
	</node>
	<node id="-939" lat="59.9750916684" lon="10.8505611094">
		<tag k="name" v="Morstopp" />
		<tag k="natural" v="hill" />
		<tag k="place" v="locality" />
		<tag k="ssr:stedsnr" v="24706" />
	</node>
	<node id="-1962" lat="60.0046277782" lon="10.6963750032">
		<tag k="fixme" v="consider natural=peak for the most distinct mountains in the district" />
		<tag k="name" v="Skjennungsåsen" />
		<tag k="natural" v="hill" />
		<tag k="place" v="locality" />
		<tag k="ssr:stedsnr" v="915920" />
	</node>
	<node id="-1961" lat="59.9670333302" lon="10.8877055595">
		<tag k="alt_name" v="Ramnkollen" />
		<tag k="name" v="Ravnkollen" />
		<tag k="natural" v="hill" />
		<tag k="place" v="locality" />
		<tag k="ssr:stedsnr" v="915526" />
	</node>
	<node id="-1955" lat="59.8353583336" lon="10.8549333345">
		<tag k="fixme" v="consider natural=peak for the most distinct mountains in the district" />
		<tag k="name" v="Liåsen" />
		<tag k="natural" v="hill" />
		<tag k="place" v="locality" />
		<tag k="ssr:stedsnr" v="915188" />
	</node>
	<node id="-1943" lat="60.0791861152" lon="10.6828972202">
		<tag k="fixme" v="consider natural=peak for the most distinct mountains in the district" />
		<tag k="name" v="Smalstrømhøgda" />
		<tag k="natural" v="hill" />
		<tag k="place" v="locality" />
		<tag k="ssr:stedsnr" v="914262" />
	</node>
	<node id="-1942" lat="59.9887416636" lon="10.6868305516">
		<tag k="alt_name" v="Heggehullet" />
		<tag k="name" v="Heggeholet" />
		<tag k="natural" v="valley" />
		<tag k="place" v="locality" />
		<tag k="ssr:stedsnr" v="914130" />
	</node>
	<node id="-1941" lat="59.9880720136" lon="10.6683358433">
		<tag k="name" v="Tryvannshøgda" />
		<tag k="natural" v="hill" />
		<tag k="place" v="locality" />
		<tag k="ssr:stedsnr" v="914129" />
	</node>
	<node id="-915" lat="60.0889444426" lon="10.7333277694">
		<tag k="name" v="Stuttandersdalen" />
		<tag k="natural" v="valley" />
		<tag k="place" v="locality" />
		<tag k="ssr:stedsnr" v="224645" />
	</node>
	<node id="-1935" lat="60.0299527762" lon="10.6063583366">
		<tag k="fixme" v="consider natural=peak for the most distinct mountains in the district" />
		<tag k="name" v="Pipenhusåsen" />
		<tag k="natural" v="hill" />
		<tag k="place" v="locality" />
		<tag k="ssr:stedsnr" v="909436" />
	</node>
	<node id="-1933" lat="60.0355611087" lon="10.6489416618">
		<tag k="name" v="Svarstadbunnen" />
		<tag k="place" v="locality" />
		<tag k="ssr:stedsnr" v="909422" />
	</node>
	<node id="-1932" lat="60.0356111089" lon="10.628927786">
		<tag k="name" v="Grasdalsberget" />
		<tag k="natural" v="hill" />
		<tag k="place" v="locality" />
		<tag k="ssr:stedsnr" v="909419" />
	</node>
	<node id="-1931" lat="60.0386166634" lon="10.6523972159">
		<tag k="name" v="Kulpåsen" />
		<tag k="natural" v="hill" />
		<tag k="place" v="locality" />
		<tag k="ssr:stedsnr" v="909413" />
	</node>
	<node id="-906" lat="60.1057499987" lon="10.6249416662">
		<tag k="name" v="Gråbeinhaugen" />
		<tag k="natural" v="hill" />
		<tag k="place" v="locality" />
		<tag k="ssr:stedsnr" v="222574" />
	</node>
	<node id="-905" lat="60.1305555525" lon="10.6653388802">
		<tag k="name" v="Bjørnputtdalen" />
		<tag k="natural" v="valley" />
		<tag k="place" v="locality" />
		<tag k="ssr:stedsnr" v="222550" />
	</node>
	<node id="-903" lat="60.0651472249" lon="10.5952583283">
		<tag k="name" v="Rognedal" />
		<tag k="natural" v="valley" />
		<tag k="place" v="locality" />
		<tag k="ssr:stedsnr" v="222323" />
	</node>
	<node id="-918" lat="59.8329694451" lon="10.9303166668">
		<tag k="fixme" v="consider natural=peak for the most distinct mountains in the district" />
		<tag k="name" v="Grasås" />
		<tag k="natural" v="hill" />
		<tag k="place" v="locality" />
		<tag k="ssr:stedsnr" v="23252" />
	</node>
	<node id="-1409" lat="59.984191665" lon="10.7454444478">
		<tag k="name" v="Kollbakkene" />
		<tag k="natural" v="slope" />
		<tag k="place" v="locality" />
		<tag k="ssr:stedsnr" v="509204" />
	</node>
	<node id="-1856" lat="60.0401666687" lon="10.6994777761">
		<tag k="fixme" v="multiple name tags, choose one and add the other to alt_name" />
		<tag k="name" v="Bjørnsjøhelvete;Helvete" />
		<tag k="natural" v="valley" />
		<tag k="place" v="locality" />
		<tag k="ssr:stedsnr" v="673955" />
	</node>
	<node id="-1913" lat="60.0632083324" lon="10.7453638803">
		<tag k="name" v="Nilsehaugen" />
		<tag k="natural" v="hill" />
		<tag k="place" v="locality" />
		<tag k="ssr:stedsnr" v="905241" />
	</node>
	<node id="-1911" lat="60.0442972215" lon="10.6634361057">
		<tag k="fixme" v="consider natural=peak for the most distinct mountains in the district" />
		<tag k="name" v="Appelsinhaugen" />
		<tag k="natural" v="hill" />
		<tag k="place" v="locality" />
		<tag k="ssr:stedsnr" v="733936" />
	</node>
	<node id="-1905" lat="60.097069445" lon="10.6038861131">
		<tag k="fixme" v="consider natural=peak for the most distinct mountains in the district" />
		<tag k="name" v="Knappa" />
		<tag k="natural" v="hill" />
		<tag k="place" v="locality" />
		<tag k="ssr:stedsnr" v="733157" />
	</node>
	<node id="-1892" lat="60.0238277754" lon="10.5914888811">
		<tag k="name" v="Gransberget" />
		<tag k="natural" v="hill" />
		<tag k="place" v="locality" />
		<tag k="ssr:stedsnr" v="725016" />
	</node>
	<node id="-1888" lat="60.0381416643" lon="10.5856055505">
		<tag k="name" v="Løkeberg" />
		<tag k="natural" v="hill" />
		<tag k="place" v="locality" />
		<tag k="ssr:stedsnr" v="722429" />
	</node>
	<node id="-1879" lat="60.0009916639" lon="10.5911444479">
		<tag k="name" v="Tømmertorget" />
		<tag k="place" v="locality" />
		<tag k="ssr:stedsnr" v="891246" />
	</node>
	<node id="-1878" lat="60.0009277799" lon="10.5852777804">
		<tag k="name" v="Skådalsmoen" />
		<tag k="place" v="locality" />
		<tag k="ssr:stedsnr" v="891244" />
	</node>
	<node id="-1365" lat="59.8500166702" lon="10.9120333316">
		<tag k="name" v="Svartdalen" />
		<tag k="natural" v="valley" />
		<tag k="place" v="locality" />
		<tag k="ssr:stedsnr" v="387220" />
	</node>
	<node id="-1364" lat="59.8464916705" lon="10.8975083422">
		<tag k="name" v="Nord-Spinneren" />
		<tag k="natural" v="hill" />
		<tag k="place" v="locality" />
		<tag k="ssr:stedsnr" v="387216" />
	</node>
	<node id="-1363" lat="59.8909722247" lon="10.860063891">
		<tag k="fixme" v="consider natural=peak for the most distinct mountains in the district" />
		<tag k="name" v="Ulsrudåsen" />
		<tag k="natural" v="hill" />
		<tag k="place" v="locality" />
		<tag k="ssr:stedsnr" v="387163" />
	</node>
	<node id="-1873" lat="60.122155552" lon="10.7401861177">
		<tag k="name" v="Alethaugen" />
		<tag k="natural" v="hill" />
		<tag k="place" v="locality" />
		<tag k="ssr:stedsnr" v="890655" />
	</node>
	<node id="-1871" lat="60.127319448" lon="10.6761222168">
		<tag k="name" v="Skinnskattlia" />
		<tag k="natural" v="slope" />
		<tag k="place" v="locality" />
		<tag k="ssr:stedsnr" v="890627" />
	</node>
	<node id="-909" lat="60.1087388866" lon="10.7495888809">
		<tag k="name" v="Brattbakken" />
		<tag k="natural" v="slope" />
		<tag k="place" v="locality" />
		<tag k="ssr:stedsnr" v="222601" />
	</node>
	<node id="-1354" lat="60.0087305566" lon="10.5689527737">
		<tag k="name" v="Djupdalen" />
		<tag k="natural" v="valley" />
		<tag k="place" v="locality" />
		<tag k="ssr:stedsnr" v="360006" />
	</node>
	<node id="-1352" lat="60.0397750037" lon="10.5247527827">
		<tag k="name" v="Jørgenskastet" />
		<tag k="place" v="locality" />
		<tag k="ssr:stedsnr" v="358458" />
	</node>
	<node id="-1859" lat="60.0521611146" lon="10.6954944516">
		<tag k="name" v="Åbortjernhøgda" />
		<tag k="natural" v="hill" />
		<tag k="place" v="locality" />
		<tag k="ssr:stedsnr" v="889320" />
	</node>
	<node id="-1344" lat="60.0561388898" lon="10.6969944437">
		<tag k="fixme" v="consider natural=peak for the most distinct mountains in the district" />
		<tag k="name" v="Lyberget" />
		<tag k="natural" v="hill" />
		<tag k="place" v="locality" />
		<tag k="ssr:stedsnr" v="491207" />
	</node>
	<node id="-1343" lat="60.0874777748" lon="10.6643527726">
		<tag k="alt_name" v="Middags Kl;Hakklokollen" />
		<tag k="fixme" v="consider natural=peak for the most distinct mountains in the district" />
		<tag k="name" v="Middagskollen" />
		<tag k="natural" v="hill" />
		<tag k="place" v="locality" />
		<tag k="ssr:stedsnr" v="491134" />
	</node>
	<node id="-1854" lat="59.9785250044" lon="10.9141750075">
		<tag k="fixme" v="consider natural=peak for the most distinct mountains in the district" />
		<tag k="name" v="Bånkallåsen" />
		<tag k="natural" v="hill" />
		<tag k="place" v="locality" />
		<tag k="ssr:stedsnr" v="672506" />
	</node>
	<node id="-1339" lat="60.0486888865" lon="10.7734138946">
		<tag k="fixme" v="consider natural=peak for the most distinct mountains in the district" />
		<tag k="name" v="Midtkollen" />
		<tag k="natural" v="hill" />
		<tag k="place" v="locality" />
		<tag k="ssr:stedsnr" v="490447" />
	</node>
	<node id="-1849" lat="60.0465499996" lon="10.5973055476">
		<tag k="name" v="Kulpekastet" />
		<tag k="place" v="locality" />
		<tag k="ssr:stedsnr" v="666440" />
	</node>
	<node id="-1335" lat="59.8194333322" lon="10.8434722164">
		<tag k="alt_name" v="Brunsås" />
		<tag k="fixme" v="consider natural=peak for the most distinct mountains in the district" />
		<tag k="name" v="Slimeåsen" />
		<tag k="natural" v="hill" />
		<tag k="place" v="locality" />
		<tag k="ssr:stedsnr" v="490282" />
	</node>
	<node id="-1333" lat="59.8629750009" lon="10.8723999917">
		<tag k="fixme" v="consider natural=peak for the most distinct mountains in the district" />
		<tag k="name" v="Trolldalsåsen" />
		<tag k="natural" v="hill" />
		<tag k="place" v="locality" />
		<tag k="ssr:stedsnr" v="490151" />
	</node>
	<node id="-1840" lat="60.0426694442" lon="10.601050008">
		<tag k="name" v="Trofosslia" />
		<tag k="natural" v="slope" />
		<tag k="place" v="locality" />
		<tag k="ssr:stedsnr" v="662454" />
	</node>
	<node id="-1837" lat="60.0133249989" lon="10.6793833263">
		<tag k="alt_name" v="Aurtjernlia" />
		<tag k="name" v="Aurtjernsliene" />
		<tag k="natural" v="slope" />
		<tag k="place" v="locality" />
		<tag k="ssr:stedsnr" v="734881" />
	</node>
	<node id="-1832" lat="60.1317805519" lon="10.6091749991">
		<tag k="fixme" v="consider natural=peak for the most distinct mountains in the district" />
		<tag k="name" v="Katnosfjellet" />
		<tag k="natural" v="hill" />
		<tag k="place" v="locality" />
		<tag k="ssr:stedsnr" v="734089" />
	</node>
	<node id="-2097" lat="59.8457055536" lon="10.9117944367">
		<tag k="fixme" v="consider natural=peak for the most distinct mountains in the district" />
		<tag k="name" v="Rulleåsene" />
		<tag k="natural" v="hill" />
		<tag k="place" v="locality" />
		<tag k="ssr:stedsnr" v="873209" />
	</node>
	<node id="-1315" lat="59.9200722246" lon="10.905122222">
		<tag k="alt_name" v="Fauleåsen" />
		<tag k="fixme" v="consider natural=peak for the most distinct mountains in the district" />
		<tag k="name" v="Tørrgranåsen" />
		<tag k="natural" v="hill" />
		<tag k="place" v="locality" />
		<tag k="ssr:stedsnr" v="490042" />
	</node>
	<node id="-1826" lat="60.0468749985" lon="10.5791833293">
		<tag k="alt_name" v="Orrhanaberget" />
		<tag k="fixme" v="consider natural=peak for the most distinct mountains in the district" />
		<tag k="name" v="Orrhaneberget" />
		<tag k="natural" v="hill" />
		<tag k="place" v="locality" />
		<tag k="ssr:stedsnr" v="733948" />
	</node>
	<node id="-1824" lat="60.0413333359" lon="10.6521361058">
		<tag k="alt_name" v="Lautåsen" />
		<tag k="fixme" v="consider natural=peak for the most distinct mountains in the district" />
		<tag k="name" v="Lautås" />
		<tag k="natural" v="hill" />
		<tag k="place" v="locality" />
		<tag k="ssr:stedsnr" v="733940" />
	</node>
	<node id="-1823" lat="60.0423305532" lon="10.6706277784">
		<tag k="alt_name" v="Kobberhaugene" />
		<tag k="fixme" v="consider natural=peak for the most distinct mountains in the district" />
		<tag k="loc_name" v="Kopperhaugane" />
		<tag k="name" v="Kopperhaugene" />
		<tag k="natural" v="hill" />
		<tag k="old_name" v="Kobber Bj." />
		<tag k="place" v="locality" />
		<tag k="ssr:stedsnr" v="733938" />
	</node>
	<node id="-1817" lat="59.9953000006" lon="10.7325777718">
		<tag k="fixme" v="consider natural=peak for the most distinct mountains in the district" />
		<tag k="name" v="Høgåsen" />
		<tag k="natural" v="hill" />
		<tag k="place" v="locality" />
		<tag k="ssr:stedsnr" v="733490" />
	</node>
	<node id="-1814" lat="60.0946166204" lon="10.5917544471">
		<tag k="alt_name" v="Rolihaugen" />
		<tag k="fixme" v="consider natural=peak for the most distinct mountains in the district" />
		<tag k="name" v="Rolighaugen" />
		<tag k="natural" v="hill" />
		<tag k="place" v="locality" />
		<tag k="ssr:stedsnr" v="733385" />
	</node>
	<node id="-1301" lat="60.0589972256" lon="10.7975249952">
		<tag k="fixme" v="consider natural=peak for the most distinct mountains in the district" />
		<tag k="name" v="Ospetjernshøgda" />
		<tag k="natural" v="hill" />
		<tag k="place" v="locality" />
		<tag k="ssr:stedsnr" v="480501" />
	</node>
	<node id="-2055" lat="60.0535638924" lon="10.62830277">
		<tag k="fixme" v="consider natural=peak for the most distinct mountains in the district" />
		<tag k="name" v="Øyvannsås" />
		<tag k="natural" v="hill" />
		<tag k="place" v="locality" />
		<tag k="ssr:stedsnr" v="829349" />
	</node>
	<node id="-2089" lat="60.046850001" lon="10.7872388912">
		<tag k="fixme" v="consider natural=peak for the most distinct mountains in the district" />
		<tag k="name" v="Vittenbergkollen" />
		<tag k="natural" v="hill" />
		<tag k="place" v="locality" />
		<tag k="ssr:stedsnr" v="855453" />
	</node>
	<node id="-1799" lat="59.881105557" lon="10.9012972216">
		<tag k="fixme" v="consider natural=peak for the most distinct mountains in the district" />
		<tag k="name" v="Bestemoråsen" />
		<tag k="natural" v="hill" />
		<tag k="place" v="locality" />
		<tag k="ssr:stedsnr" v="732182" />
	</node>
	<node id="-1797" lat="59.9855416702" lon="10.653758336">
		<tag k="name" v="Rødkleiva" />
		<tag k="natural" v="slope" />
		<tag k="place" v="locality" />
		<tag k="ssr:stedsnr" v="732136" />
	</node>
	<node id="-1796" lat="59.9765500018" lon="10.6990277696">
		<tag k="fixme" v="consider natural=peak for the most distinct mountains in the district" />
		<tag k="name" v="Vettakollen" />
		<tag k="natural" v="hill" />
		<tag k="place" v="locality" />
		<tag k="ssr:stedsnr" v="732002" />
	</node>
	<node id="-1788" lat="60.0050000045" lon="10.7904138809">
		<tag k="name" v="Dausjøberget" />
		<tag k="natural" v="hill" />
		<tag k="place" v="locality" />
		<tag k="ssr:stedsnr" v="630962" />
	</node>
	<node id="-1065" lat="59.9094750001" lon="10.8466444478">
		<tag k="name" v="Tørtberg" />
		<tag k="natural" v="hill" />
		<tag k="place" v="locality" />
		<tag k="ssr:stedsnr" v="85454" />
	</node>
	<node id="-1260" lat="60.0168805521" lon="10.5116416693">
		<tag k="fixme" v="consider natural=peak for the most distinct mountains in the district" />
		<tag k="name" v="Lomås" />
		<tag k="natural" v="hill" />
		<tag k="place" v="locality" />
		<tag k="ssr:stedsnr" v="300006" />
	</node>
	<node id="-1765" lat="59.8361194488" lon="10.8986444385">
		<tag k="name" v="Styggdalen" />
		<tag k="natural" v="valley" />
		<tag k="place" v="locality" />
		<tag k="ssr:stedsnr" v="630211" />
	</node>
	<node id="-1764" lat="59.8531805537" lon="10.8938638895">
		<tag k="name" v="Langvannsbrenninga" />
		<tag k="natural" v="hill" />
		<tag k="place" v="locality" />
		<tag k="ssr:stedsnr" v="630204" />
	</node>
	<node id="-1248" lat="59.9946666636" lon="10.7342444443">
		<tag k="fixme" v="consider natural=peak for the most distinct mountains in the district" />
		<tag k="name" v="Skjervenåsen" />
		<tag k="natural" v="hill" />
		<tag k="place" v="locality" />
		<tag k="ssr:stedsnr" v="267971" />
	</node>
	<node id="-1245" lat="59.9885194467" lon="10.7363361044">
		<tag k="name" v="Gaukedalen" />
		<tag k="natural" v="valley" />
		<tag k="place" v="locality" />
		<tag k="ssr:stedsnr" v="449957" />
	</node>
	<node id="-1243" lat="60.0667944476" lon="10.7266666736">
		<tag k="fixme" v="consider natural=peak for the most distinct mountains in the district" />
		<tag k="name" v="Helgerenhøgda" />
		<tag k="natural" v="hill" />
		<tag k="place" v="locality" />
		<tag k="ssr:stedsnr" v="248557" />
	</node>
	<node id="-1241" lat="59.9847472206" lon="10.8223111061">
		<tag k="name" v="Trollhaug" />
		<tag k="natural" v="hill" />
		<tag k="place" v="locality" />
		<tag k="ssr:stedsnr" v="449949" />
	</node>
	<node id="-1240" lat="60.021477774" lon="10.765155548">
		<tag k="name" v="Skarshaugen" />
		<tag k="natural" v="hill" />
		<tag k="place" v="locality" />
		<tag k="ssr:stedsnr" v="449946" />
	</node>
	<node id="-1751" lat="59.9727361083" lon="10.7007333242">
		<tag k="alt_name" v="Vettakolltoppen" />
		<tag k="name" v="Vetakolltoppen" />
		<tag k="natural" v="hill" />
		<tag k="place" v="locality" />
		<tag k="ssr:stedsnr" v="725868" />
	</node>
	<node id="-1750" lat="60.0319055542" lon="10.7950305501">
		<tag k="name" v="Kudalen" />
		<tag k="natural" v="valley" />
		<tag k="place" v="locality" />
		<tag k="ssr:stedsnr" v="725059" />
	</node>
	<node id="-1746" lat="60.0662000031" lon="10.6778166728">
		<tag k="name" v="Kovadalen" />
		<tag k="natural" v="valley" />
		<tag k="place" v="locality" />
		<tag k="ssr:stedsnr" v="722271" />
	</node>
	<node id="-1743" lat="60.0444305589" lon="10.6651305516">
		<tag k="name" v="Bjørneledet" />
		<tag k="natural" v="valley" />
		<tag k="place" v="locality" />
		<tag k="ssr:stedsnr" v="722132" />
	</node>
	<node id="-1740" lat="60.0407027799" lon="10.6885166637">
		<tag k="fixme" v="consider natural=peak for the most distinct mountains in the district" />
		<tag k="name" v="Vindernhøgda" />
		<tag k="natural" v="hill" />
		<tag k="place" v="locality" />
		<tag k="ssr:stedsnr" v="612957" />
	</node>
	<node id="-1737" lat="60.0849722207" lon="10.63839166">
		<tag k="fixme" v="consider natural=peak for the most distinct mountains in the district" />
		<tag k="name" v="Porthøgda" />
		<tag k="natural" v="hill" />
		<tag k="place" v="locality" />
		<tag k="ssr:stedsnr" v="612153" />
	</node>
	<node id="-1507" lat="60.1135694457" lon="10.7148111139">
		<tag k="name" v="Hakklokleiva" />
		<tag k="natural" v="slope" />
		<tag k="place" v="locality" />
		<tag k="ssr:stedsnr" v="465604" />
	</node>
	<node id="-1729" lat="59.9680138847" lon="10.6874583367">
		<tag k="name" v="Skådalen" />
		<tag k="natural" v="valley" />
		<tag k="place" v="locality" />
		<tag k="ssr:stedsnr" v="610046" />
	</node>
	<node id="-1312" lat="59.9915888901" lon="10.5815694378">
		<tag k="fixme" v="consider natural=peak for the most distinct mountains in the district" />
		<tag k="name" v="Høgåsen" />
		<tag k="natural" v="hill" />
		<tag k="place" v="locality" />
		<tag k="ssr:stedsnr" v="489132" />
	</node>
	<node id="-1724" lat="60.0326111149" lon="10.6644638841">
		<tag k="name" v="Andtjernhøgda" />
		<tag k="natural" v="hill" />
		<tag k="place" v="locality" />
		<tag k="ssr:stedsnr" v="604427" />
	</node>
	<node id="-1209" lat="59.9289166676" lon="10.8887055599">
		<tag k="fixme" v="consider natural=peak for the most distinct mountains in the district" />
		<tag k="name" v="Lindebergåsen" />
		<tag k="natural" v="hill" />
		<tag k="place" v="locality" />
		<tag k="ssr:stedsnr" v="448759" />
	</node>
	<node id="-1710" lat="60.0850111131" lon="10.7502194515">
		<tag k="name" v="Trehørningsdalen" />
		<tag k="natural" v="valley" />
		<tag k="place" v="locality" />
		<tag k="ssr:stedsnr" v="587712" />
	</node>
	<node id="-1709" lat="60.0879805571" lon="10.7673694442">
		<tag k="name" v="Hansekleiva" />
		<tag k="natural" v="slope" />
		<tag k="place" v="locality" />
		<tag k="ssr:stedsnr" v="587707" />
	</node>
	<node id="-1196" lat="59.8510638863" lon="10.919313891">
		<tag k="name" v="Torsnabben" />
		<tag k="natural" v="hill" />
		<tag k="place" v="locality" />
		<tag k="ssr:stedsnr" v="448226" />
	</node>
	<node id="-1193" lat="59.8333222186" lon="10.8907833334">
		<tag k="name" v="Sukkertoppen" />
		<tag k="natural" v="hill" />
		<tag k="place" v="locality" />
		<tag k="ssr:stedsnr" v="448213" />
	</node>
	<node id="-1704" lat="60.0484027788" lon="10.5732222302">
		<tag k="fixme" v="consider natural=peak for the most distinct mountains in the district" />
		<tag k="name" v="Høvreberget" />
		<tag k="natural" v="hill" />
		<tag k="place" v="locality" />
		<tag k="ssr:stedsnr" v="585323" />
	</node>
	<node id="-1699" lat="60.0983500003" lon="10.624775002">
		<tag k="name" v="Middagskollen" />
		<tag k="natural" v="hill" />
		<tag k="place" v="locality" />
		<tag k="ssr:stedsnr" v="708629" />
	</node>
	<node id="-1697" lat="60.1171083351" lon="10.6554111146">
		<tag k="name" v="Hammerdalen" />
		<tag k="natural" v="valley" />
		<tag k="place" v="locality" />
		<tag k="ssr:stedsnr" v="708605" />
	</node>
	<node id="-1180" lat="60.0278583317" lon="10.5292472148">
		<tag k="name" v="Ospeskogkleivene" />
		<tag k="natural" v="slope" />
		<tag k="place" v="locality" />
		<tag k="ssr:stedsnr" v="298470" />
	</node>
	<node id="-1179" lat="60.0326027759" lon="10.5980138943">
		<tag k="name" v="Tonåsen" />
		<tag k="natural" v="hill" />
		<tag k="place" v="locality" />
		<tag k="ssr:stedsnr" v="298429" />
	</node>
	<node id="-1177" lat="60.0351222218" lon="10.7413499931">
		<tag k="name" v="Styggedalen" />
		<tag k="natural" v="valley" />
		<tag k="place" v="locality" />
		<tag k="ssr:stedsnr" v="298127" />
	</node>
	<node id="-1687" lat="60.0598083354" lon="10.6281805551">
		<tag k="fixme" v="consider natural=peak for the most distinct mountains in the district" />
		<tag k="name" v="Tjuvdalshøgda" />
		<tag k="natural" v="hill" />
		<tag k="place" v="locality" />
		<tag k="ssr:stedsnr" v="707356" />
	</node>
	<node id="-1686" lat="60.052419447" lon="10.6057972195">
		<tag k="alt_name" v="Høgkastedalen" />
		<tag k="name" v="Høgkastdalen" />
		<tag k="natural" v="valley" />
		<tag k="place" v="locality" />
		<tag k="ssr:stedsnr" v="707351" />
	</node>
	<node id="-1683" lat="60.0222472239" lon="10.6349444432">
		<tag k="name" v="Korpedalen" />
		<tag k="natural" v="valley" />
		<tag k="place" v="locality" />
		<tag k="ssr:stedsnr" v="542213" />
	</node>
	<node id="-1675" lat="60.0351638925" lon="10.5920694372">
		<tag k="fixme" v="consider natural=peak for the most distinct mountains in the district" />
		<tag k="name" v="Hamnås" />
		<tag k="natural" v="hill" />
		<tag k="place" v="locality" />
		<tag k="ssr:stedsnr" v="540431" />
	</node>
	<node id="-1158" lat="60.108522223" lon="10.6740138886">
		<tag k="name" v="Gråhesten" />
		<tag k="place" v="locality" />
		<tag k="ssr:stedsnr" v="283620" />
	</node>
	<node id="-1156" lat="60.1237888888" lon="10.6939416619">
		<tag k="name" v="Svarttjernsdalen" />
		<tag k="natural" v="valley" />
		<tag k="place" v="locality" />
		<tag k="ssr:stedsnr" v="283566" />
	</node>
	<node id="-1148" lat="60.1294166663" lon="10.6202222283">
		<tag k="name" v="Kjerkeberglia" />
		<tag k="natural" v="slope" />
		<tag k="place" v="locality" />
		<tag k="ssr:stedsnr" v="161558" />
	</node>
	<node id="-1147" lat="60.0553499962" lon="10.5974777855">
		<tag k="name" v="Skomakerkleiva" />
		<tag k="natural" v="slope" />
		<tag k="place" v="locality" />
		<tag k="ssr:stedsnr" v="161356" />
	</node>
	<node id="-1399" lat="59.8302388883" lon="10.7768944485">
		<tag k="fixme" v="consider natural=peak for the most distinct mountains in the district" />
		<tag k="name" v="Mastemyrås" />
		<tag k="natural" v="hill" />
		<tag k="place" v="locality" />
		<tag k="ssr:stedsnr" v="509013" />
	</node>
	<node id="-2163" lat="60.0664499993" lon="10.7377305489">
		<tag k="fixme" v="consider natural=peak for the most distinct mountains in the district" />
		<tag k="name" v="Gørjehøgda" />
		<tag k="natural" v="hill" />
		<tag k="place" v="locality" />
		<tag k="ssr:stedsnr" v="916571" />
	</node>
	<node id="-1649" lat="59.8984222233" lon="10.8998972244">
		<tag k="name" v="Langmyrdalen" />
		<tag k="natural" v="valley" />
		<tag k="place" v="locality" />
		<tag k="ssr:stedsnr" v="691705" />
	</node>
	<node id="-1078" lat="59.8774555578" lon="10.8845388933">
		<tag k="fixme" v="consider natural=peak for the most distinct mountains in the district" />
		<tag k="name" v="Bremsrudåsen" />
		<tag k="natural" v="hill" />
		<tag k="place" v="locality" />
		<tag k="ssr:stedsnr" v="266156" />
	</node>
	<node id="-1647" lat="59.9066722191" lon="10.8794888976">
		<tag k="name" v="Utsikten" />
		<tag k="natural" v="hill" />
		<tag k="place" v="locality" />
		<tag k="ssr:stedsnr" v="691694" />
	</node>
	<node id="-2158" lat="60.1041083336" lon="10.5884166726">
		<tag k="alt_name" v="Huldrehaugen" />
		<tag k="fixme" v="consider natural=peak for the most distinct mountains in the district" />
		<tag k="name" v="Huldreberget" />
		<tag k="natural" v="hill" />
		<tag k="place" v="locality" />
		<tag k="ssr:stedsnr" v="916169" />
	</node>
	<node id="-2155" lat="60.047530555" lon="10.5716555644">
		<tag k="fixme" v="consider natural=peak for the most distinct mountains in the district" />
		<tag k="name" v="Andtjernåsen" />
		<tag k="natural" v="hill" />
		<tag k="place" v="locality" />
		<tag k="ssr:stedsnr" v="915960" />
	</node>
	<node id="-2154" lat="60.0437000019" lon="10.5787805632">
		<tag k="fixme" v="consider natural=peak for the most distinct mountains in the district" />
		<tag k="name" v="Larvikåsen" />
		<tag k="natural" v="hill" />
		<tag k="place" v="locality" />
		<tag k="ssr:stedsnr" v="915956" />
	</node>
	<node id="-2152" lat="60.0466916627" lon="10.8172916652">
		<tag k="alt_name" v="Almedalen" />
		<tag k="name" v="Elmedalen" />
		<tag k="natural" v="valley" />
		<tag k="place" v="locality" />
		<tag k="ssr:stedsnr" v="915472" />
	</node>
	<node id="-1212" lat="59.8920972183" lon="10.8239249992">
		<tag k="name" v="Tallberget" />
		<tag k="natural" v="hill" />
		<tag k="place" v="locality" />
		<tag k="ssr:stedsnr" v="448500" />
	</node>
	<node id="-2148" lat="60.0135666636" lon="10.8292805481">
		<tag k="name" v="Granberget" />
		<tag k="natural" v="hill" />
		<tag k="place" v="locality" />
		<tag k="ssr:stedsnr" v="915359" />
	</node>
	<node id="-2140" lat="60.1259611138" lon="10.6556388824">
		<tag k="alt_name" v="Klypgranhøgda" />
		<tag k="fixme" v="consider natural=peak for the most distinct mountains in the district" />
		<tag k="name" v="Klypegranhøgda" />
		<tag k="natural" v="hill" />
		<tag k="place" v="locality" />
		<tag k="ssr:stedsnr" v="915066" />
	</node>
	<node id="-975" lat="59.971249996" lon="10.6780277755">
		<tag k="name" v="Styggdalen" />
		<tag k="natural" v="valley" />
		<tag k="place" v="locality" />
		<tag k="ssr:stedsnr" v="240829" />
	</node>
	<node id="-1113" lat="59.9673750011" lon="10.8942888881">
		<tag k="name" v="Emanuelfjell" />
		<tag k="natural" v="hill" />
		<tag k="place" v="locality" />
		<tag k="ssr:stedsnr" v="266727" />
	</node>
	<node id="-1623" lat="59.8289194487" lon="10.9143305573">
		<tag k="name" v="Byberget" />
		<tag k="natural" v="hill" />
		<tag k="place" v="locality" />
		<tag k="ssr:stedsnr" v="691185" />
	</node>
	<node id="-1622" lat="59.8293722203" lon="10.9090194502">
		<tag k="name" v="Spinnerhuet" />
		<tag k="natural" v="hill" />
		<tag k="place" v="locality" />
		<tag k="ssr:stedsnr" v="691184" />
	</node>
	<node id="-1621" lat="59.827880553" lon="10.900869449">
		<tag k="fixme" v="consider natural=peak for the most distinct mountains in the district" />
		<tag k="name" v="Seteråsen" />
		<tag k="natural" v="hill" />
		<tag k="place" v="locality" />
		<tag k="ssr:stedsnr" v="691183" />
	</node>
	<node id="-1620" lat="59.880016667" lon="10.8853416742">
		<tag k="fixme" v="consider natural=peak for the most distinct mountains in the district" />
		<tag k="name" v="Langmyråsen" />
		<tag k="natural" v="hill" />
		<tag k="place" v="locality" />
		<tag k="ssr:stedsnr" v="691176" />
	</node>
	<node id="-1106" lat="59.9631861128" lon="10.8607500068">
		<tag k="alt_name" v="Flatberget" />
		<tag k="name" v="Flaberget" />
		<tag k="natural" v="hill" />
		<tag k="place" v="locality" />
		<tag k="ssr:stedsnr" v="266694" />
	</node>
	<node id="-2126" lat="60.0076111141" lon="10.6626333301">
		<tag k="name" v="Grøttumskleivene" />
		<tag k="natural" v="slope" />
		<tag k="place" v="locality" />
		<tag k="ssr:stedsnr" v="907022" />
	</node>
	<node id="-1613" lat="60.1089861127" lon="10.5928249952">
		<tag k="name" v="Prekestolen" />
		<tag k="natural" v="hill" />
		<tag k="place" v="locality" />
		<tag k="ssr:stedsnr" v="525624" />
	</node>
	<node id="-2159" lat="60.0593749981" lon="10.631086105">
		<tag k="fixme" v="consider natural=peak for the most distinct mountains in the district" />
		<tag k="name" v="Midthytthøgda" />
		<tag k="natural" v="hill" />
		<tag k="place" v="locality" />
		<tag k="ssr:stedsnr" v="916227" />
	</node>
	<node id="-1087" lat="59.875725004" lon="10.7578083401">
		<tag k="name" v="Ormøykollen" />
		<tag k="natural" v="hill" />
		<tag k="place" v="locality" />
		<tag k="ssr:stedsnr" v="266254" />
	</node>
	<node id="-1085" lat="59.8423277813" lon="10.8843250052">
		<tag k="fixme" v="consider natural=peak for the most distinct mountains in the district" />
		<tag k="name" v="Dølerudåsen" />
		<tag k="natural" v="hill" />
		<tag k="place" v="locality" />
		<tag k="ssr:stedsnr" v="266232" />
	</node>
	<node id="-1595" lat="59.9159972263" lon="10.7325333333">
		<tag k="name" v="Nisseberget" />
		<tag k="natural" v="hill" />
		<tag k="place" v="locality" />
		<tag k="ssr:stedsnr" v="509505" />
	</node>
	<node id="-1594" lat="59.8772499996" lon="10.8872527761">
		<tag k="name" v="Revhidalen" />
		<tag k="natural" v="valley" />
		<tag k="place" v="locality" />
		<tag k="ssr:stedsnr" v="509318" />
	</node>
	<node id="-1042" lat="59.829480559" lon="10.9059249951">
		<tag k="name" v="Maigrasdalen" />
		<tag k="natural" v="valley" />
		<tag k="place" v="locality" />
		<tag k="ssr:stedsnr" v="84173" />
	</node>
	<node id="-1090" lat="59.8854444485" lon="10.8947250003">
		<tag k="name" v="Kamphaugknatten" />
		<tag k="natural" v="hill" />
		<tag k="place" v="locality" />
		<tag k="ssr:stedsnr" v="266294" />
	</node>
	<node id="-1588" lat="59.8259805512" lon="10.8897999926">
		<tag k="name" v="Blåveisdalen" />
		<tag k="natural" v="valley" />
		<tag k="place" v="locality" />
		<tag k="ssr:stedsnr" v="509140" />
	</node>
	<node id="-1075" lat="60.0664749956" lon="10.7769583289">
		<tag k="alt_name" v="Langdalskollen" />
		<tag k="fixme" v="consider natural=peak for the most distinct mountains in the district" />
		<tag k="name" v="Langedalskollen" />
		<tag k="natural" v="hill" />
		<tag k="place" v="locality" />
		<tag k="ssr:stedsnr" v="127610" />
	</node>
	<node id="-1073" lat="60.0227416679" lon="10.7516222258">
		<tag k="name" v="Lyberga" />
		<tag k="natural" v="hill" />
		<tag k="place" v="locality" />
		<tag k="ssr:stedsnr" v="127421" />
	</node>
	<node id="-1071" lat="59.9812138897" lon="10.6868472148">
		<tag k="name" v="Slagene" />
		<tag k="place" v="locality" />
		<tag k="ssr:stedsnr" v="118863" />
	</node>
	<node id="-2094" lat="60.0428660175" lon="10.5342708903">
		<tag k="name" v="Otertjernsåsane" />
		<tag k="natural" v="hill" />
		<tag k="place" v="locality" />
		<tag k="ssr:stedsnr" v="855964" />
	</node>
	<node id="-2135" lat="59.8713000025" lon="10.8956638925">
		<tag k="fixme" v="consider natural=peak for the most distinct mountains in the district" />
		<tag k="name" v="Finfallåsen" />
		<tag k="natural" v="hill" />
		<tag k="place" v="locality" />
		<tag k="ssr:stedsnr" v="915129" />
	</node>
	<node id="-1579" lat="60.0304222192" lon="10.7202277755">
		<tag k="fixme" v="consider natural=peak for the most distinct mountains in the district" />
		<tag k="name" v="Kamphaugåsen" />
		<tag k="natural" v="hill" />
		<tag k="place" v="locality" />
		<tag k="ssr:stedsnr" v="674000" />
	</node>
	<node id="-1577" lat="60.0319000017" lon="10.5834777722">
		<tag k="fixme" v="consider natural=peak for the most distinct mountains in the district" />
		<tag k="name" v="Bergendalsmoen" />
		<tag k="natural" v="hill" />
		<tag k="place" v="locality" />
		<tag k="ssr:stedsnr" v="673994" />
	</node>
	<node id="-1575" lat="60.0405527808" lon="10.6272111093">
		<tag k="fixme" v="multiple name tags, choose one and add the other to alt_name; consider natural=peak for the most distinct mountains in the district" />
		<tag k="name" v="Stubberudseterkollen;Stubberudseterhøgda" />
		<tag k="natural" v="hill" />
		<tag k="place" v="locality" />
		<tag k="ssr:stedsnr" v="673950" />
	</node>
	<node id="-1573" lat="60.0147944475" lon="10.5000472135">
		<tag k="fixme" v="consider natural=peak for the most distinct mountains in the district" />
		<tag k="name" v="Karidalsåsen" />
		<tag k="natural" v="hill" />
		<tag k="place" v="locality" />
		<tag k="ssr:stedsnr" v="673916" />
	</node>
	<node id="-2081" lat="60.0612805543" lon="10.686099992">
		<tag k="name" v="Rådalen" />
		<tag k="natural" v="valley" />
		<tag k="place" v="locality" />
		<tag k="ssr:stedsnr" v="855209" />
	</node>
	<node id="-1566" lat="60.0427805578" lon="10.7645916709">
		<tag k="fixme" v="consider natural=peak for the most distinct mountains in the district" />
		<tag k="name" v="Furumokollen" />
		<tag k="natural" v="hill" />
		<tag k="place" v="locality" />
		<tag k="ssr:stedsnr" v="673453" />
	</node>
	<node id="-2077" lat="59.9852750009" lon="10.8403888947">
		<tag k="fixme" v="consider natural=peak for the most distinct mountains in the district" />
		<tag k="name" v="Revlikollen" />
		<tag k="natural" v="hill" />
		<tag k="place" v="locality" />
		<tag k="ssr:stedsnr" v="854580" />
	</node>
	<node id="-1564" lat="60.0240638918" lon="10.6706361106">
		<tag k="alt_name" v="Barlindhøgda" />
		<tag k="fixme" v="consider natural=peak for the most distinct mountains in the district" />
		<tag k="name" v="Barlindhaugen" />
		<tag k="natural" v="hill" />
		<tag k="place" v="locality" />
		<tag k="ssr:stedsnr" v="673432" />
	</node>
	<node id="-1560" lat="60.0634472195" lon="10.5790249961">
		<tag k="name" v="Bjørnåtdalen" />
		<tag k="natural" v="valley" />
		<tag k="place" v="locality" />
		<tag k="ssr:stedsnr" v="673221" />
	</node>
	<node id="-1558" lat="60.1084472193" lon="10.7114666713">
		<tag k="alt_name" v="Storhaug" />
		<tag k="fixme" v="consider natural=peak for the most distinct mountains in the district" />
		<tag k="name" v="Storhaugen" />
		<tag k="natural" v="hill" />
		<tag k="place" v="locality" />
		<tag k="ssr:stedsnr" v="673182" />
	</node>
	<node id="-1554" lat="60.0825750029" lon="10.6910166737">
		<tag k="fixme" v="consider natural=peak for the most distinct mountains in the district" />
		<tag k="name" v="Hakklomana" />
		<tag k="natural" v="hill" />
		<tag k="place" v="locality" />
		<tag k="ssr:stedsnr" v="673142" />
	</node>
	<node id="-2065" lat="59.9633333369" lon="10.6720194452">
		<tag k="name" v="Gratishaugen" />
		<tag k="natural" v="hill" />
		<tag k="place" v="locality" />
		<tag k="ssr:stedsnr" v="847831" />
	</node>
	<node id="-1551" lat="60.0125361135" lon="10.5486999954">
		<tag k="name" v="Annekslia" />
		<tag k="natural" v="slope" />
		<tag k="place" v="locality" />
		<tag k="ssr:stedsnr" v="482011" />
	</node>
	<node id="-1037" lat="60.0063833346" lon="10.5839027748">
		<tag k="fixme" v="consider natural=peak for the most distinct mountains in the district" />
		<tag k="name" v="Lønnåshøgda" />
		<tag k="natural" v="hill" />
		<tag k="place" v="locality" />
		<tag k="ssr:stedsnr" v="248954" />
	</node>
	<node id="-1547" lat="60.038097225" lon="10.594436119">
		<tag k="name" v="Storhaug" />
		<tag k="natural" v="hill" />
		<tag k="place" v="locality" />
		<tag k="ssr:stedsnr" v="480461" />
	</node>
	<node id="-1545" lat="59.987830555" lon="10.8563250048">
		<tag k="name" v="Bispedalen" />
		<tag k="natural" v="valley" />
		<tag k="place" v="locality" />
		<tag k="ssr:stedsnr" v="672562" />
	</node>
	<node id="-2056" lat="60.062241667" lon="10.6332583278">
		<tag k="name" v="Fyllingskollen" />
		<tag k="natural" v="hill" />
		<tag k="place" v="locality" />
		<tag k="ssr:stedsnr" v="829350" />
	</node>
	<node id="-940" lat="60.007663893" lon="10.6112138968">
		<tag k="name" v="Berget" />
		<tag k="natural" v="slope" />
		<tag k="place" v="locality" />
		<tag k="ssr:stedsnr" v="300027" />
	</node>
	<node id="-1542" lat="59.9714555546" lon="10.8039305589">
		<tag k="name" v="Kringlefjell" />
		<tag k="natural" v="hill" />
		<tag k="place" v="locality" />
		<tag k="ssr:stedsnr" v="672521" />
	</node>
	<node id="-1028" lat="60.007094447" lon="10.5288388902">
		<tag k="fixme" v="consider natural=peak for the most distinct mountains in the district" />
		<tag k="name" v="Hvitsteinåsen" />
		<tag k="natural" v="hill" />
		<tag k="place" v="locality" />
		<tag k="ssr:stedsnr" v="248883" />
	</node>
	<node id="-1539" lat="59.822483335" lon="10.8250750039">
		<tag k="fixme" v="consider natural=peak for the most distinct mountains in the district" />
		<tag k="name" v="Grønliåsen" />
		<tag k="natural" v="hill" />
		<tag k="place" v="locality" />
		<tag k="ssr:stedsnr" v="672276" />
	</node>
	<node id="-1025" lat="60.043969447" lon="10.7882500075">
		<tag k="loc_name" v="Hansekollen" />
		<tag k="name" v="Hansakollen" />
		<tag k="natural" v="hill" />
		<tag k="place" v="locality" />
		<tag k="ssr:stedsnr" v="248432" />
	</node>
</osm>
